<?xml version='1.0' encoding='UTF-8'?>
<osm version="0.6" generator="libosmium/2.20.0">
  <way id="30876000" version="1" timestamp="2009-02-08T02:55:05Z" uid="26515" user="Simon Ward" changeset="276237">
    <nd ref="343298797"/>
    <nd ref="343298798"/>
    <tag k="highway" v="service"/>
  </way>
  <way id="30876036" version="1" timestamp="2009-02-08T03:00:35Z" uid="26515" user="Simon Ward" changeset="276237">
    <nd ref="343295052"/>
    <nd ref="343299082"/>
    <tag k="highway" v="residential"/>
    <tag k="name" v="Yeadon Road"/>
    <tag k="source" v="survey"/>
  </way>
  <way id="30876036" version="2" timestamp="2009-02-08T03:32:31Z" uid="26515" user="Simon Ward" changeset="276237">
    <nd ref="343295052"/>
    <nd ref="343299979"/>
    <nd ref="343299082"/>
    <tag k="highway" v="residential"/>
    <tag k="name" v="Yeadon Road"/>
    <tag k="source" v="survey"/>
  </way>
  <way id="30876037" version="1" timestamp="2009-02-08T03:00:36Z" uid="26515" user="Simon Ward" changeset="276237">
    <nd ref="343299082"/>
    <nd ref="343299084"/>
    <nd ref="343299083"/>
    <tag k="highway" v="residential"/>
    <tag k="lit" v="yes"/>
    <tag k="name" v="Haxby Road"/>
    <tag k="source" v="survey"/>
  </way>
  <way id="30876038" version="1" timestamp="2009-02-08T03:00:36Z" uid="26515" user="Simon Ward" changeset="276237">
    <nd ref="343299084"/>
    <nd ref="343299085"/>
    <tag k="highway" v="service"/>
    <tag k="name" v="Haxby Road"/>
  </way>
  <way id="30876039" version="1" timestamp="2009-02-08T03:00:36Z" uid="26515" user="Simon Ward" changeset="276237">
    <nd ref="343299083"/>
    <nd ref="343299086"/>
    <tag k="highway" v="residential"/>
    <tag k="name" v="Hemsworth Road"/>
  </way>
  <way id="30876039" version="2" timestamp="2009-02-08T03:31:46Z" uid="26515" user="Simon Ward" changeset="276237">
    <nd ref="338483283"/>
    <nd ref="343299972"/>
    <nd ref="343299083"/>
    <nd ref="343299086"/>
    <tag k="highway" v="residential"/>
    <tag k="lit" v="yes"/>
    <tag k="name" v="Hemsworth Road"/>
    <tag k="source" v="survey"/>
  </way>
  <way id="30876039" version="3" timestamp="2009-02-08T03:32:32Z" uid="26515" user="Simon Ward" changeset="276237">
    <nd ref="338483283"/>
    <nd ref="343299978"/>
    <nd ref="343299972"/>
    <nd ref="343299083"/>
    <nd ref="343299086"/>
    <tag k="highway" v="residential"/>
    <tag k="lit" v="yes"/>
    <tag k="name" v="Hemsworth Road"/>
    <tag k="source" v="survey"/>
  </way>
  <way id="30876039" version="4" timestamp="2011-06-19T13:05:09Z" uid="473379" user="Jaybone" changeset="8483782"/>
  <way id="30876040" version="1" timestamp="2009-02-08T03:00:37Z" uid="26515" user="Simon Ward" changeset="276237">
    <nd ref="343299086"/>
    <nd ref="343299087"/>
    <tag k="FIXME" v="unsurveyed; incomplete"/>
    <tag k="highway" v="footway"/>
    <tag k="surface" v="paved"/>
  </way>
  <way id="30876044" version="1" timestamp="2009-02-08T03:02:19Z" uid="26515" user="Simon Ward" changeset="276237">
    <nd ref="343299086"/>
    <nd ref="343299120"/>
    <tag k="highway" v="residential"/>
    <tag k="lit" v="yes"/>
    <tag k="name" v="Wayland Road South"/>
    <tag k="source" v="survey"/>
  </way>
  <way id="30876044" version="2" timestamp="2009-02-08T03:03:55Z" uid="26515" user="Simon Ward" changeset="276237">
    <nd ref="343299086"/>
    <nd ref="343299149"/>
    <nd ref="343299120"/>
    <tag k="highway" v="residential"/>
    <tag k="lit" v="yes"/>
    <tag k="name" v="Wayland Road South"/>
    <tag k="source" v="survey"/>
  </way>
  <way id="30876044" version="3" timestamp="2009-02-08T03:04:45Z" uid="26515" user="Simon Ward" changeset="276237">
    <nd ref="343299086"/>
    <nd ref="343299149"/>
    <nd ref="343299151"/>
    <nd ref="343299120"/>
    <tag k="highway" v="residential"/>
    <tag k="lit" v="yes"/>
    <tag k="name" v="Wayland Road South"/>
    <tag k="source" v="survey"/>
  </way>
  <way id="30876044" version="4" timestamp="2009-02-08T03:09:48Z" uid="26515" user="Simon Ward" changeset="276237">
    <nd ref="343299086"/>
    <nd ref="343299149"/>
    <nd ref="343299151"/>
    <nd ref="343299120"/>
    <tag k="highway" v="residential"/>
    <tag k="lit" v="yes"/>
    <tag k="name" v="Wayland Road South"/>
    <tag k="source" v="survey"/>
  </way>
  <way id="30876044" version="5" timestamp="2009-02-08T03:17:19Z" uid="26515" user="Simon Ward" changeset="276237">
    <nd ref="343299086"/>
    <nd ref="343299149"/>
    <nd ref="343299441"/>
    <nd ref="343299151"/>
    <nd ref="343299120"/>
    <tag k="highway" v="residential"/>
    <tag k="lit" v="yes"/>
    <tag k="name" v="Wayland Road South"/>
    <tag k="source" v="survey"/>
  </way>
  <way id="30876047" version="1" timestamp="2009-02-08T03:03:55Z" uid="26515" user="Simon Ward" changeset="276237">
    <nd ref="343299149"/>
    <nd ref="343299150"/>
    <tag k="highway" v="residential"/>
    <tag k="name" v="Greenlea Avenue"/>
  </way>
  <way id="30876048" version="1" timestamp="2009-02-08T03:04:45Z" uid="26515" user="Simon Ward" changeset="276237">
    <nd ref="343299151"/>
    <nd ref="343299152"/>
    <tag k="highway" v="footway"/>
    <tag k="name" v="Falshaw Way"/>
    <tag k="source" v="survey"/>
    <tag k="surface" v="paved"/>
  </way>
  <way id="30876048" version="2" timestamp="2009-02-08T03:04:57Z" uid="26515" user="Simon Ward" changeset="276237">
    <nd ref="343299151"/>
    <nd ref="343299152"/>
    <tag k="highway" v="footway"/>
    <tag k="lit" v="yes"/>
    <tag k="name" v="Falshaw Way"/>
    <tag k="source" v="survey"/>
    <tag k="surface" v="paved"/>
  </way>
  <way id="30876048" version="3" timestamp="2009-02-08T03:17:19Z" uid="26515" user="Simon Ward" changeset="276237">
    <nd ref="343299151"/>
    <nd ref="343299152"/>
    <tag k="FIXME" v="resurvey"/>
    <tag k="highway" v="footway"/>
    <tag k="lit" v="yes"/>
    <tag k="name" v="Falshaw Way"/>
    <tag k="source" v="survey"/>
    <tag k="surface" v="paved"/>
  </way>
  <way id="30876048" version="4" timestamp="2011-05-09T15:44:21Z" uid="441589" user="NotEvilJoe" changeset="8093930">
    <nd ref="343299151"/>
    <nd ref="343299152"/>
    <nd ref="1278249043"/>
    <nd ref="1278249045"/>
    <nd ref="1278249044"/>
    <tag k="FIXME" v="resurvey"/>
    <tag k="highway" v="footway"/>
    <tag k="lit" v="yes"/>
    <tag k="name" v="Falshaw Way"/>
    <tag k="source" v="survey"/>
    <tag k="surface" v="paved"/>
  </way>
  <way id="30876052" version="1" timestamp="2009-02-08T03:06:58Z" uid="26515" user="Simon Ward" changeset="276237">
    <nd ref="343299198"/>
    <nd ref="343299199"/>
    <nd ref="343299200"/>
    <nd ref="343299201"/>
    <nd ref="343299198"/>
    <tag k="name" v="Peacock Gardens"/>
    <tag k="note" v="Housing estate (new) - re-survey for missing street names"/>
    <tag k="operator" v="Bloor Homes"/>
  </way>
  <way id="30876052" version="2" timestamp="2009-02-08T03:07:07Z" uid="26515" user="Simon Ward" changeset="276237">
    <nd ref="343299198"/>
    <nd ref="343299199"/>
    <nd ref="343299200"/>
    <nd ref="343299201"/>
    <nd ref="343299198"/>
    <tag k="area" v="yes"/>
    <tag k="name" v="Peacock Gardens"/>
    <tag k="note" v="Housing estate (new) - re-survey for missing street names"/>
    <tag k="operator" v="Bloor Homes"/>
  </way>
  <way id="30876059" version="1" timestamp="2009-02-08T03:09:47Z" uid="26515" user="Simon Ward" changeset="276237">
    <nd ref="343299224"/>
    <nd ref="343299225"/>
    <nd ref="343299227"/>
    <nd ref="343299228"/>
    <nd ref="343299229"/>
    <nd ref="343299230"/>
    <nd ref="343299231"/>
    <tag k="highway" v="residential"/>
    <tag k="lit" v="yes"/>
    <tag k="name" v="Cardrona Street"/>
    <tag k="source" v="survey"/>
  </way>
  <way id="30876059" version="2" timestamp="2009-02-08T03:17:19Z" uid="26515" user="Simon Ward" changeset="276237">
    <nd ref="343299224"/>
    <nd ref="343299225"/>
    <nd ref="343299227"/>
    <nd ref="343299228"/>
    <nd ref="343299229"/>
    <nd ref="343299230"/>
    <nd ref="343299231"/>
    <tag k="FIXME" v="resurvey"/>
    <tag k="highway" v="residential"/>
    <tag k="lit" v="yes"/>
    <tag k="name" v="Cardrona Street"/>
    <tag k="source" v="survey"/>
  </way>
  <way id="30876059" version="3" timestamp="2011-05-09T15:44:21Z" uid="441589" user="NotEvilJoe" changeset="8093930">
    <nd ref="343299224"/>
    <nd ref="343299225"/>
    <nd ref="343299227"/>
    <nd ref="343299228"/>
    <nd ref="343299229"/>
    <nd ref="343299230"/>
    <nd ref="343299231"/>
    <nd ref="1278249046"/>
    <nd ref="1278249041"/>
    <nd ref="1278249040"/>
    <nd ref="1278249042"/>
    <tag k="FIXME" v="resurvey"/>
    <tag k="highway" v="residential"/>
    <tag k="lit" v="yes"/>
    <tag k="name" v="Cardrona Street"/>
    <tag k="source" v="survey"/>
  </way>
  <way id="30876059" version="4" timestamp="2011-06-19T12:53:24Z" uid="473379" user="Jaybone" changeset="8483667">
    <nd ref="343299224"/>
    <nd ref="343299225"/>
    <nd ref="343299227"/>
    <nd ref="343299228"/>
    <nd ref="343299229"/>
    <nd ref="343299230"/>
    <nd ref="343299231"/>
    <nd ref="1278249046"/>
    <nd ref="1278249041"/>
    <nd ref="1278249040"/>
    <nd ref="1330769105"/>
    <nd ref="1278249042"/>
    <tag k="FIXME" v="resurvey"/>
    <tag k="highway" v="residential"/>
    <tag k="lit" v="yes"/>
    <tag k="name" v="Cardrona Street"/>
    <tag k="source" v="survey"/>
  </way>
  <way id="30876059" version="5" timestamp="2011-06-19T13:00:22Z" uid="473379" user="Jaybone" changeset="8483739"/>
  <way id="30876060" version="1" timestamp="2009-02-08T03:09:47Z" uid="26515" user="Simon Ward" changeset="276237">
    <nd ref="343299232"/>
    <nd ref="343299233"/>
    <nd ref="343299234"/>
    <nd ref="343299235"/>
    <nd ref="343299236"/>
  </way>
  <way id="30876060" version="2" timestamp="2009-02-08T03:17:20Z" uid="26515" user="Simon Ward" changeset="276237">
    <nd ref="343299232"/>
    <nd ref="343299233"/>
    <nd ref="343299234"/>
    <nd ref="343299235"/>
    <nd ref="343299236"/>
    <tag k="FIXME" v="resurvey"/>
    <tag k="highway" v="residential"/>
  </way>
  <way id="30876060" version="3" timestamp="2011-05-15T17:08:46Z" uid="441589" user="NotEvilJoe" changeset="8154111">
    <nd ref="343299232"/>
    <nd ref="343299233"/>
    <nd ref="343299234"/>
    <nd ref="343299235"/>
    <nd ref="343299236"/>
    <nd ref="1286658597"/>
    <nd ref="1286658607"/>
    <nd ref="1286658570"/>
    <nd ref="1286658571"/>
    <nd ref="1286658568"/>
    <nd ref="1286658569"/>
    <nd ref="1286658587"/>
    <nd ref="1286658586"/>
    <nd ref="1286658585"/>
    <nd ref="1286658583"/>
    <tag k="FIXME" v="resurvey"/>
    <tag k="highway" v="residential"/>
  </way>
  <way id="30876061" version="1" timestamp="2009-02-08T03:09:48Z" uid="26515" user="Simon Ward" changeset="276237">
    <nd ref="343299120"/>
    <nd ref="343299232"/>
    <nd ref="343299224"/>
    <tag k="highway" v="residential"/>
    <tag k="lit" v="yes"/>
    <tag k="source" v="survey"/>
  </way>
  <way id="30876061" version="2" timestamp="2009-02-08T03:17:20Z" uid="26515" user="Simon Ward" changeset="276237">
    <nd ref="343299120"/>
    <nd ref="343299232"/>
    <nd ref="343299224"/>
    <tag k="FIXME" v="resurvey"/>
    <tag k="highway" v="residential"/>
    <tag k="lit" v="yes"/>
    <tag k="source" v="survey"/>
  </way>
  <way id="30876112" version="1" timestamp="2009-02-08T03:17:17Z" uid="26515" user="Simon Ward" changeset="276237">
    <nd ref="343299441"/>
    <nd ref="343299442"/>
    <nd ref="343299443"/>
    <nd ref="306706455"/>
    <tag k="highway" v="residential"/>
    <tag k="name" v="Holmcroft Road"/>
    <tag k="source" v="survey"/>
  </way>
  <way id="30876112" version="2" timestamp="2009-02-08T03:27:21Z" uid="26515" user="Simon Ward" changeset="276237">
    <nd ref="343299441"/>
    <nd ref="343299442"/>
    <nd ref="343299443"/>
    <nd ref="343299869"/>
    <nd ref="306706455"/>
    <tag k="highway" v="residential"/>
    <tag k="name" v="Holmcroft Road"/>
    <tag k="source" v="survey"/>
  </way>
  <way id="30876112" version="3" timestamp="2010-09-26T12:45:11Z" uid="101150" user="Steeley" changeset="5879891">
    <nd ref="343299441"/>
    <nd ref="343299442"/>
    <nd ref="926582643"/>
    <nd ref="343299443"/>
    <nd ref="343299869"/>
    <nd ref="306706455"/>
    <tag k="highway" v="residential"/>
    <tag k="name" v="Holmcroft Road"/>
    <tag k="source" v="survey"/>
  </way>
  <way id="30876113" version="1" timestamp="2009-02-08T03:17:18Z" uid="26515" user="Simon Ward" changeset="276237">
    <nd ref="306706455"/>
    <nd ref="343299444"/>
    <nd ref="343299445"/>
    <nd ref="343299446"/>
    <nd ref="343299447"/>
    <nd ref="343299464"/>
    <nd ref="343299448"/>
    <nd ref="343299449"/>
    <nd ref="343299450"/>
    <nd ref="343299465"/>
    <nd ref="343299451"/>
    <nd ref="343299452"/>
    <tag k="highway" v="residential"/>
    <tag k="lit" v="yes"/>
    <tag k="name" v="Rawsthorne Avenue"/>
    <tag k="source" v="survey"/>
  </way>
  <way id="30876113" version="2" timestamp="2011-06-29T17:46:32Z" uid="441589" user="NotEvilJoe" changeset="8583044">
    <nd ref="306706455"/>
    <nd ref="343299444"/>
    <nd ref="343299445"/>
    <nd ref="1343570010"/>
    <nd ref="343299446"/>
    <nd ref="343299447"/>
    <nd ref="343299464"/>
    <nd ref="343299448"/>
    <nd ref="343299449"/>
    <nd ref="343299450"/>
    <nd ref="343299465"/>
    <nd ref="343299451"/>
    <nd ref="343299452"/>
    <tag k="highway" v="residential"/>
    <tag k="lit" v="yes"/>
    <tag k="name" v="Rawsthorne Avenue"/>
    <tag k="source" v="survey"/>
  </way>
  <way id="30876114" version="1" timestamp="2009-02-08T03:17:18Z" uid="26515" user="Simon Ward" changeset="276237">
    <nd ref="343299453"/>
    <nd ref="343299452"/>
    <nd ref="343299454"/>
    <nd ref="343299455"/>
    <tag k="highway" v="residential"/>
    <tag k="lit" v="yes"/>
    <tag k="source" v="survey"/>
  </way>
  <way id="30876115" version="1" timestamp="2009-02-08T03:17:18Z" uid="26515" user="Simon Ward" changeset="276237">
    <nd ref="343299454"/>
    <nd ref="343299456"/>
    <nd ref="343299457"/>
    <nd ref="343299458"/>
    <nd ref="343299459"/>
    <nd ref="343299460"/>
    <nd ref="343299461"/>
    <nd ref="343299462"/>
    <nd ref="343299463"/>
    <nd ref="343299464"/>
    <tag k="highway" v="residential"/>
    <tag k="source" v="survey"/>
  </way>
  <way id="30876116" version="1" timestamp="2009-02-08T03:17:18Z" uid="26515" user="Simon Ward" changeset="276237">
    <nd ref="343299458"/>
    <nd ref="343299465"/>
    <tag k="highway" v="residential"/>
    <tag k="lit" v="yes"/>
    <tag k="name" v="Fallow Avenue"/>
    <tag k="source" v="survey"/>
  </way>
  <way id="30876137" version="1" timestamp="2009-02-08T03:22:09Z" uid="26515" user="Simon Ward" changeset="276237">
    <nd ref="343299553"/>
    <nd ref="343299554"/>
    <nd ref="343299555"/>
    <nd ref="343299556"/>
    <nd ref="343299557"/>
    <nd ref="343299558"/>
    <nd ref="343299559"/>
    <nd ref="343299553"/>
    <tag k="area" v="yes"/>
    <tag k="source" v="yahoo"/>
  </way>
  <way id="30876137" version="2" timestamp="2011-06-29T19:07:28Z" uid="441589" user="NotEvilJoe" changeset="8583888">
    <nd ref="343299553"/>
    <nd ref="343299554"/>
    <nd ref="343299555"/>
    <nd ref="343299556"/>
    <nd ref="343299557"/>
    <nd ref="343299558"/>
    <nd ref="343299559"/>
    <nd ref="343299553"/>
    <tag k="landuse" v="recreation_ground"/>
  </way>
  <way id="30876137" version="3" timestamp="2011-07-02T11:21:44Z" uid="441589" user="NotEvilJoe" changeset="8606904">
    <nd ref="343299553"/>
    <nd ref="1346734524"/>
    <nd ref="343299554"/>
    <nd ref="343299555"/>
    <nd ref="343299556"/>
    <nd ref="343299557"/>
    <nd ref="343299558"/>
    <nd ref="343299559"/>
    <nd ref="1346734523"/>
    <nd ref="343299553"/>
    <tag k="landuse" v="recreation_ground"/>
  </way>
  <way id="30876137" version="4" timestamp="2011-07-04T15:56:43Z" uid="441589" user="NotEvilJoe" changeset="8630768">
    <nd ref="343299553"/>
    <nd ref="1346734524"/>
    <nd ref="343299554"/>
    <nd ref="343299555"/>
    <nd ref="343299556"/>
    <nd ref="343299557"/>
    <nd ref="343299558"/>
    <nd ref="1349325175"/>
    <nd ref="1349325173"/>
    <nd ref="343299559"/>
    <nd ref="1346734523"/>
    <nd ref="343299553"/>
    <tag k="landuse" v="recreation_ground"/>
  </way>
  <way id="30876138" version="1" timestamp="2009-02-08T03:22:10Z" uid="26515" user="Simon Ward" changeset="276237">
    <nd ref="343299560"/>
    <nd ref="343299561"/>
    <nd ref="343299562"/>
    <nd ref="343299563"/>
    <nd ref="343299564"/>
    <nd ref="343299565"/>
    <nd ref="343299560"/>
    <tag k="area" v="yes"/>
    <tag k="source" v="yahoo"/>
  </way>
  <way id="30876138" version="2" timestamp="2011-07-06T11:24:58Z" uid="441589" user="NotEvilJoe" changeset="8647447">
    <nd ref="343299560"/>
    <nd ref="343299561"/>
    <nd ref="343299562"/>
    <nd ref="343299563"/>
    <nd ref="343299564"/>
    <nd ref="343299565"/>
    <nd ref="1351231780"/>
    <nd ref="343299560"/>
    <tag k="landuse" v="grass"/>
  </way>
  <way id="30876151" version="1" timestamp="2009-02-08T03:25:02Z" uid="26515" user="Simon Ward" changeset="276237">
    <nd ref="343299698"/>
    <nd ref="343299700"/>
    <tag k="highway" v="residential"/>
    <tag k="lit" v="yes"/>
    <tag k="name" v="Harlow Drive"/>
    <tag k="source" v="survey"/>
  </way>
  <way id="30876158" version="1" timestamp="2009-02-08T03:27:20Z" uid="26515" user="Simon Ward" changeset="276237">
    <nd ref="343299867"/>
    <nd ref="343299869"/>
    <tag k="highway" v="footway"/>
    <tag k="lit" v="yes"/>
    <tag k="source" v="extrapolation;photograph"/>
    <tag k="surface" v="paved"/>
  </way>
  <way id="30876190" version="1" timestamp="2009-02-08T03:31:45Z" uid="26515" user="Simon Ward" changeset="276237">
    <nd ref="343299443"/>
    <nd ref="343299965"/>
    <nd ref="343299966"/>
    <nd ref="343299967"/>
    <nd ref="343299968"/>
    <nd ref="343299969"/>
    <nd ref="343299970"/>
    <nd ref="343299973"/>
    <nd ref="343299972"/>
    <tag k="highway" v="residential"/>
    <tag k="source" v="survey"/>
  </way>
  <way id="30876190" version="2" timestamp="2010-09-26T12:45:12Z" uid="101150" user="Steeley" changeset="5879891">
    <nd ref="343299443"/>
    <nd ref="343299965"/>
    <nd ref="343299966"/>
    <nd ref="343299967"/>
    <nd ref="343299968"/>
    <nd ref="343299969"/>
    <nd ref="343299970"/>
    <nd ref="926582657"/>
    <nd ref="926582660"/>
    <nd ref="926582643"/>
    <tag k="highway" v="residential"/>
    <tag k="source" v="survey"/>
  </way>
  <way id="30876190" version="3" timestamp="2011-08-01T22:18:50Z" uid="466627" user="radcarash" changeset="8896030">
    <nd ref="343299443"/>
    <nd ref="343299965"/>
    <nd ref="343299966"/>
    <nd ref="343299967"/>
    <nd ref="343299968"/>
    <nd ref="343299969"/>
    <nd ref="343299970"/>
    <nd ref="926582657"/>
    <nd ref="926582660"/>
    <nd ref="926582643"/>
    <tag k="highway" v="residential"/>
    <tag k="name" v="Sandown Crescent "/>
    <tag k="source" v="survey"/>
  </way>
  <way id="30876190" version="4" timestamp="2011-08-11T14:04:01Z" uid="70696" user="xybot" changeset="8985335">
    <nd ref="343299443"/>
    <nd ref="343299965"/>
    <nd ref="343299966"/>
    <nd ref="343299967"/>
    <nd ref="343299968"/>
    <nd ref="343299969"/>
    <nd ref="343299970"/>
    <nd ref="926582657"/>
    <nd ref="926582660"/>
    <nd ref="926582643"/>
    <tag k="highway" v="residential"/>
    <tag k="name" v="Sandown Crescent"/>
    <tag k="source" v="survey"/>
  </way>
  <way id="30876191" version="1" timestamp="2009-02-08T03:31:46Z" uid="26515" user="Simon Ward" changeset="276237">
    <nd ref="343299968"/>
    <nd ref="343299971"/>
    <tag k="highway" v="residential"/>
    <tag k="lit" v="yes"/>
    <tag k="name" v="Westlea Drive"/>
    <tag k="source" v="survey"/>
  </way>
  <way id="30876192" version="1" timestamp="2009-02-08T03:31:46Z" uid="26515" user="Simon Ward" changeset="276237">
    <nd ref="343299973"/>
    <nd ref="343299974"/>
    <tag k="highway" v="residential"/>
    <tag k="lit" v="yes"/>
    <tag k="name" v="Horbury Avenue"/>
    <tag k="source" v="survey"/>
  </way>
  <way id="30876193" version="1" timestamp="2009-02-08T03:32:31Z" uid="26515" user="Simon Ward" changeset="276237">
    <nd ref="343299978"/>
    <nd ref="343299979"/>
    <tag k="highway" v="residential"/>
    <tag k="lit" v="yes"/>
    <tag k="name" v="Southcross Road"/>
    <tag k="source" v="survey"/>
  </way>
  <way id="30876210" version="1" timestamp="2009-02-08T03:39:32Z" uid="20587" user="balrog-kun" changeset="270015">
    <nd ref="343300098"/>
    <nd ref="343300100"/>
    <nd ref="343300102"/>
    <nd ref="343300124"/>
    <nd ref="343300101"/>
    <nd ref="343300098"/>
    <tag k="addr:housenumber" v="1"/>
    <tag k="addr:street" v="Polna"/>
    <tag k="building" v="yes"/>
    <tag k="source:addr" v="msi"/>
  </way>
  <way id="30876210" version="2" timestamp="2011-04-20T20:20:24Z" uid="88516" user="mateuszzz88" changeset="7919993">
    <nd ref="343300098"/>
    <nd ref="1253043011"/>
    <nd ref="1253043142"/>
    <nd ref="343300100"/>
    <nd ref="343300102"/>
    <nd ref="1253043054"/>
    <nd ref="343300124"/>
    <nd ref="343300101"/>
    <nd ref="343300098"/>
    <tag k="addr:housenumber" v="1"/>
    <tag k="addr:street" v="Polna"/>
    <tag k="building" v="yes"/>
    <tag k="source:addr" v="msi"/>
  </way>
  <way id="30876211" version="1" timestamp="2009-02-08T03:39:32Z" uid="20587" user="balrog-kun" changeset="270015">
    <nd ref="343300103"/>
    <nd ref="343300104"/>
    <nd ref="343300105"/>
    <nd ref="343300106"/>
    <tag k="highway" v="service"/>
  </way>
  <way id="30876211" version="2" timestamp="2011-08-24T19:29:29Z" uid="508862" user="KeiDii" changeset="9115677">
    <nd ref="343300103"/>
    <nd ref="1411552414"/>
    <nd ref="343300104"/>
    <nd ref="343300105"/>
    <nd ref="343300106"/>
    <tag k="highway" v="service"/>
  </way>
  <way id="30876211" version="3" timestamp="2011-08-31T09:28:13Z" uid="508862" user="KeiDii" changeset="9174567">
    <nd ref="343300103"/>
    <nd ref="1411552414"/>
    <nd ref="1419017552"/>
    <nd ref="343300104"/>
    <nd ref="343300105"/>
    <nd ref="343300106"/>
    <tag k="highway" v="service"/>
  </way>
  <way id="30876212" version="1" timestamp="2009-02-08T03:39:32Z" uid="20587" user="balrog-kun" changeset="270015">
    <nd ref="343300107"/>
    <nd ref="343300108"/>
    <nd ref="343300109"/>
    <nd ref="343300110"/>
    <nd ref="343300107"/>
    <tag k="leisure" v="common"/>
    <tag k="name" v="Skwer Mieczysława Fogga"/>
    <tag k="source" v="msi"/>
  </way>
  <way id="30876212" version="2" timestamp="2009-10-31T22:50:07Z" uid="20587" user="balrog-kun" changeset="3002253">
    <nd ref="343300107"/>
    <nd ref="343300108"/>
    <nd ref="343300109"/>
    <nd ref="343300110"/>
    <nd ref="343300107"/>
    <tag k="leisure" v="common"/>
    <tag k="name" v="Skwer Mieczysława Fogga"/>
    <tag k="note:pl" v="Komentarz z mapy UMP dla potomności: [Alf] 040628 a najlepiej to, o o, spiewa Mietek Fog, o o!"/>
    <tag k="source" v="msi"/>
  </way>
  <way id="30876213" version="1" timestamp="2009-02-08T03:39:33Z" uid="20587" user="balrog-kun" changeset="270015">
    <nd ref="343300111"/>
    <nd ref="343300112"/>
    <nd ref="343300114"/>
    <nd ref="343300113"/>
    <nd ref="343300111"/>
    <tag k="addr:housenumber" v="4"/>
    <tag k="addr:street" v="Tadeusza Boya-Żeleńskiego"/>
    <tag k="building" v="yes"/>
    <tag k="source:addr" v="msi"/>
  </way>
  <way id="30876214" version="1" timestamp="2009-02-08T03:39:33Z" uid="20587" user="balrog-kun" changeset="270015">
    <nd ref="343300115"/>
    <nd ref="343300116"/>
    <nd ref="343300117"/>
    <nd ref="343300118"/>
    <nd ref="343300119"/>
    <nd ref="343300120"/>
    <nd ref="343300115"/>
    <tag k="landuse" v="construction"/>
  </way>
  <way id="30876214" version="2" timestamp="2011-08-24T19:29:32Z" uid="508862" user="KeiDii" changeset="9115677">
    <nd ref="343300115"/>
    <nd ref="1411552225"/>
    <nd ref="343300116"/>
    <nd ref="343300117"/>
    <nd ref="343300118"/>
    <nd ref="1411552226"/>
    <nd ref="343300119"/>
    <nd ref="343300120"/>
    <nd ref="343300115"/>
    <tag k="landuse" v="construction"/>
  </way>
  <way id="30876215" version="1" timestamp="2009-02-08T03:39:33Z" uid="20587" user="balrog-kun" changeset="270015">
    <nd ref="343300101"/>
    <nd ref="343300124"/>
    <nd ref="343300125"/>
    <nd ref="343300121"/>
    <nd ref="343300122"/>
    <nd ref="343300123"/>
    <nd ref="343300101"/>
    <tag k="addr:housenumber" v="2"/>
    <tag k="addr:street" v="Tadeusza Boya-Żeleńskiego"/>
    <tag k="building" v="yes"/>
    <tag k="source:addr" v="msi"/>
  </way>
  <way id="30876216" version="1" timestamp="2009-02-08T03:39:33Z" uid="20587" user="balrog-kun" changeset="270015">
    <nd ref="343300130"/>
    <nd ref="343300131"/>
    <nd ref="343300133"/>
    <nd ref="343300134"/>
    <nd ref="343300132"/>
    <nd ref="343300130"/>
    <tag k="addr:housenumber" v="7a"/>
    <tag k="addr:street" v="Ludwika Waryńskiego"/>
    <tag k="building" v="yes"/>
    <tag k="source:addr" v="msi"/>
  </way>
  <way id="30876217" version="1" timestamp="2009-02-08T03:39:33Z" uid="20587" user="balrog-kun" changeset="270015">
    <nd ref="343300135"/>
    <nd ref="343300136"/>
    <nd ref="343300140"/>
    <nd ref="343300137"/>
    <nd ref="343300139"/>
    <tag k="highway" v="service"/>
  </way>
  <way id="30876218" version="1" timestamp="2009-02-08T03:39:34Z" uid="20587" user="balrog-kun" changeset="270015">
    <nd ref="343300140"/>
    <nd ref="343300141"/>
    <nd ref="343300170"/>
    <nd ref="343300168"/>
    <tag k="highway" v="service"/>
  </way>
  <way id="30876219" version="1" timestamp="2009-02-08T03:39:34Z" uid="20587" user="balrog-kun" changeset="270015">
    <nd ref="343300163"/>
    <nd ref="343300156"/>
    <nd ref="343300158"/>
    <nd ref="343300178"/>
    <nd ref="343300182"/>
    <nd ref="343300196"/>
    <nd ref="343300197"/>
    <nd ref="343300184"/>
    <nd ref="343300186"/>
    <nd ref="343300188"/>
    <nd ref="343300189"/>
    <nd ref="343300192"/>
    <nd ref="343300194"/>
    <nd ref="343300195"/>
    <nd ref="343300193"/>
    <nd ref="343300190"/>
    <nd ref="343300191"/>
    <nd ref="343300187"/>
    <nd ref="343300185"/>
    <nd ref="343300198"/>
    <nd ref="343300199"/>
    <nd ref="343300183"/>
    <nd ref="343300179"/>
    <nd ref="343300159"/>
    <nd ref="343300157"/>
    <nd ref="343300160"/>
    <nd ref="343300161"/>
    <nd ref="343300164"/>
    <nd ref="343300145"/>
    <nd ref="343300143"/>
    <nd ref="343300142"/>
    <nd ref="343300144"/>
    <nd ref="343300152"/>
    <nd ref="343300153"/>
    <nd ref="343300148"/>
    <nd ref="343300150"/>
    <nd ref="343300151"/>
    <nd ref="343300149"/>
    <nd ref="343300165"/>
    <nd ref="343300162"/>
    <nd ref="343300163"/>
    <tag k="building" v="yes"/>
    <tag k="name" v="Urząd do Spraw Repatriacji i Spraw Cudzoziemców"/>
  </way>
  <way id="30876219" version="2" timestamp="2011-06-27T23:31:57Z" uid="477794" user="Grzechuna" changeset="8567410">
    <nd ref="343300163"/>
    <nd ref="343300156"/>
    <nd ref="343300158"/>
    <nd ref="343300178"/>
    <nd ref="343300182"/>
    <nd ref="343300196"/>
    <nd ref="343300197"/>
    <nd ref="343300184"/>
    <nd ref="343300186"/>
    <nd ref="343300188"/>
    <nd ref="343300189"/>
    <nd ref="343300192"/>
    <nd ref="343300194"/>
    <nd ref="343300195"/>
    <nd ref="343300193"/>
    <nd ref="343300190"/>
    <nd ref="343300191"/>
    <nd ref="343300187"/>
    <nd ref="343300185"/>
    <nd ref="343300198"/>
    <nd ref="343300199"/>
    <nd ref="343300183"/>
    <nd ref="343300179"/>
    <nd ref="343300159"/>
    <nd ref="343300157"/>
    <nd ref="343300160"/>
    <nd ref="343300161"/>
    <nd ref="343300164"/>
    <tag k="building" v="yes"/>
    <tag k="name" v="Agencja Bezpieczeństwa Wewnętrznego"/>
  </way>
  <way id="30876219" version="3" timestamp="2011-06-27T23:32:10Z" uid="477794" user="Grzechuna" changeset="8567410">
    <nd ref="343300163"/>
    <nd ref="343300156"/>
    <nd ref="343300158"/>
    <nd ref="343300178"/>
    <nd ref="343300182"/>
    <nd ref="343300196"/>
    <nd ref="343300197"/>
    <nd ref="343300184"/>
    <nd ref="343300186"/>
    <nd ref="343300188"/>
    <nd ref="343300189"/>
    <nd ref="343300192"/>
    <nd ref="343300194"/>
    <nd ref="343300195"/>
    <nd ref="343300193"/>
    <nd ref="343300190"/>
    <nd ref="343300191"/>
    <nd ref="343300187"/>
    <nd ref="343300185"/>
    <nd ref="343300198"/>
    <nd ref="343300199"/>
    <nd ref="343300183"/>
    <nd ref="343300179"/>
    <nd ref="343300159"/>
    <nd ref="343300157"/>
    <nd ref="343300160"/>
    <nd ref="343300161"/>
    <nd ref="343300164"/>
    <nd ref="343300162"/>
    <nd ref="343300163"/>
    <tag k="building" v="yes"/>
    <tag k="name" v="Agencja Bezpieczeństwa Wewnętrznego"/>
  </way>
  <way id="30876219" version="4" timestamp="2011-08-29T10:34:39Z" uid="508862" user="KeiDii" changeset="9155961">
    <nd ref="1417004380"/>
    <nd ref="1417004376"/>
    <nd ref="343300156"/>
    <nd ref="343300178"/>
    <nd ref="343300182"/>
    <nd ref="343300196"/>
    <nd ref="343300197"/>
    <nd ref="343300184"/>
    <nd ref="343300186"/>
    <nd ref="343300188"/>
    <nd ref="343300189"/>
    <nd ref="343300192"/>
    <nd ref="343300194"/>
    <nd ref="343300195"/>
    <nd ref="343300193"/>
    <nd ref="343300190"/>
    <nd ref="343300191"/>
    <nd ref="343300187"/>
    <nd ref="343300185"/>
    <nd ref="343300198"/>
    <nd ref="343300199"/>
    <nd ref="343300183"/>
    <nd ref="343300179"/>
    <nd ref="343300159"/>
    <nd ref="343300157"/>
    <nd ref="343300160"/>
    <nd ref="343300161"/>
    <nd ref="1417004386"/>
    <nd ref="343300155"/>
    <nd ref="343300154"/>
    <nd ref="343300165"/>
    <nd ref="1417004380"/>
    <tag k="building" v="yes"/>
    <tag k="name" v="Agencja Bezpieczeństwa Wewnętrznego"/>
  </way>
  <way id="30876220" version="1" timestamp="2009-02-08T03:39:34Z" uid="20587" user="balrog-kun" changeset="270015">
    <nd ref="343300154"/>
    <nd ref="343300147"/>
    <nd ref="343300146"/>
    <nd ref="343300155"/>
    <nd ref="343300177"/>
    <nd ref="343300180"/>
    <nd ref="343300181"/>
    <nd ref="343300176"/>
    <nd ref="343300154"/>
  </way>
  <way id="30876220" version="2" timestamp="2011-08-29T10:34:43Z" uid="508862" user="KeiDii" changeset="9155961">
    <nd ref="343300154"/>
    <nd ref="343300147"/>
    <nd ref="343300146"/>
    <nd ref="343300155"/>
    <nd ref="1417004386"/>
    <nd ref="343300145"/>
    <nd ref="343300143"/>
    <nd ref="343300142"/>
    <nd ref="343300144"/>
    <nd ref="343300152"/>
    <nd ref="343300153"/>
    <nd ref="343300148"/>
    <nd ref="343300150"/>
    <nd ref="343300151"/>
    <nd ref="343300149"/>
    <nd ref="343300165"/>
    <tag k="building" v="yes"/>
    <tag k="name" v="Ministerstwo Spraw Wewnętrznych i Administracji"/>
  </way>
  <way id="30876220" version="3" timestamp="2012-01-20T10:00:07Z" uid="550476" user="fishcrosser" changeset="10444680">
    <nd ref="343300154"/>
    <nd ref="343300147"/>
    <nd ref="343300146"/>
    <nd ref="343300155"/>
    <nd ref="1417004386"/>
    <nd ref="343300145"/>
    <nd ref="343300143"/>
    <nd ref="343300142"/>
    <nd ref="343300144"/>
    <nd ref="343300152"/>
    <nd ref="343300153"/>
    <nd ref="343300148"/>
    <nd ref="343300150"/>
    <nd ref="343300151"/>
    <nd ref="343300149"/>
    <nd ref="343300165"/>
    <tag k="building" v="yes"/>
    <tag k="name" v="Ministerstwo Spraw Wewnętrznych i Administracji"/>
  </way>
  <way id="30876221" version="1" timestamp="2009-02-08T03:39:34Z" uid="20587" user="balrog-kun" changeset="270015">
    <nd ref="343300166"/>
    <nd ref="343300167"/>
    <nd ref="343300169"/>
    <nd ref="343300168"/>
    <nd ref="343300170"/>
    <nd ref="343300166"/>
    <tag k="amenity" v="parking"/>
  </way>
  <way id="30876222" version="1" timestamp="2009-02-08T03:39:35Z" uid="20587" user="balrog-kun" changeset="270015">
    <nd ref="343300200"/>
    <nd ref="343300201"/>
    <nd ref="343300203"/>
    <nd ref="343300202"/>
    <nd ref="343300200"/>
    <tag k="building" v="yes"/>
  </way>
  <way id="30876223" version="1" timestamp="2009-02-08T03:39:35Z" uid="20587" user="balrog-kun" changeset="270015">
    <nd ref="343300168"/>
    <nd ref="343300171"/>
    <nd ref="343300172"/>
    <nd ref="343300173"/>
    <nd ref="343300174"/>
    <nd ref="343300175"/>
    <tag k="highway" v="service"/>
  </way>
  <way id="30876223" version="2" timestamp="2009-02-08T03:47:00Z" uid="20587" user="balrog-kun" changeset="270015">
    <nd ref="343300168"/>
    <nd ref="343300171"/>
    <nd ref="343300172"/>
    <nd ref="343300173"/>
    <nd ref="343300755"/>
    <nd ref="343300796"/>
    <nd ref="343300797"/>
    <nd ref="343300798"/>
    <nd ref="343300174"/>
    <nd ref="343300749"/>
    <nd ref="343300740"/>
    <nd ref="343300175"/>
    <tag k="highway" v="service"/>
  </way>
  <way id="30876224" version="1" timestamp="2009-02-08T03:39:35Z" uid="20587" user="balrog-kun" changeset="270015">
    <nd ref="343300207"/>
    <nd ref="343300206"/>
    <nd ref="343300204"/>
    <nd ref="343300205"/>
    <nd ref="343300207"/>
    <tag k="addr:housenumber" v="12"/>
    <tag k="addr:postcode" v="00-582"/>
    <tag k="addr:street" v="Bagatela"/>
    <tag k="building" v="yes"/>
    <tag k="source:addr" v="msi"/>
  </way>
  <way id="30876225" version="1" timestamp="2009-02-08T03:39:35Z" uid="20587" user="balrog-kun" changeset="270015">
    <nd ref="343300206"/>
    <nd ref="343292259"/>
    <nd ref="343292251"/>
    <nd ref="343292244"/>
    <nd ref="343292248"/>
    <nd ref="343300204"/>
    <nd ref="343300206"/>
    <tag k="addr:housenumber" v="14"/>
    <tag k="addr:postcode" v="00-582"/>
    <tag k="addr:street" v="Bagatela"/>
    <tag k="building" v="yes"/>
    <tag k="name" v="Urząd Zamówień Publicznych"/>
    <tag k="source:addr" v="msi"/>
  </way>
  <way id="30876226" version="1" timestamp="2009-02-08T03:39:36Z" uid="20587" user="balrog-kun" changeset="270015">
    <nd ref="343300208"/>
    <nd ref="343300209"/>
    <nd ref="343300211"/>
    <nd ref="343300210"/>
    <nd ref="343300208"/>
    <tag k="addr:housenumber" v="6/8"/>
    <tag k="addr:street" v="Bagatela"/>
    <tag k="building" v="yes"/>
    <tag k="source:addr" v="msi"/>
  </way>
  <way id="30876227" version="1" timestamp="2009-02-08T03:39:36Z" uid="20587" user="balrog-kun" changeset="270015">
    <nd ref="343300222"/>
    <nd ref="343300223"/>
    <nd ref="343300224"/>
    <nd ref="343300225"/>
    <nd ref="343300222"/>
    <tag k="access" v="no"/>
    <tag k="leisure" v="garden"/>
  </way>
  <way id="30876228" version="1" timestamp="2009-02-08T03:39:36Z" uid="20587" user="balrog-kun" changeset="270015">
    <nd ref="343300226"/>
    <nd ref="343300227"/>
    <nd ref="343300228"/>
    <nd ref="343300229"/>
    <nd ref="343300230"/>
    <nd ref="343300231"/>
    <nd ref="343300232"/>
    <nd ref="343300233"/>
    <nd ref="343300234"/>
    <nd ref="343300235"/>
    <nd ref="343300236"/>
    <tag k="access" v="private"/>
    <tag k="highway" v="service"/>
  </way>
  <way id="30876229" version="1" timestamp="2009-02-08T03:39:36Z" uid="20587" user="balrog-kun" changeset="270015">
    <nd ref="319195828"/>
    <nd ref="319195830"/>
    <nd ref="319195831"/>
    <nd ref="319195829"/>
    <nd ref="319195827"/>
    <nd ref="319195826"/>
    <nd ref="319195828"/>
    <tag k="addr:housenumber" v="10/16"/>
    <tag k="addr:street" v="Marszałkowska"/>
    <tag k="building" v="yes"/>
  </way>
  <way id="30876229" version="2" timestamp="2011-04-20T20:20:25Z" uid="88516" user="mateuszzz88" changeset="7919993">
    <nd ref="319195828"/>
    <nd ref="319195830"/>
    <nd ref="319195831"/>
    <nd ref="1253043110"/>
    <nd ref="319195829"/>
    <nd ref="319195827"/>
    <nd ref="319195826"/>
    <nd ref="319195828"/>
    <tag k="addr:housenumber" v="10/16"/>
    <tag k="addr:street" v="Marszałkowska"/>
    <tag k="building" v="yes"/>
  </way>
  <way id="30876230" version="1" timestamp="2009-02-08T03:39:37Z" uid="20587" user="balrog-kun" changeset="270015">
    <nd ref="343300242"/>
    <nd ref="343300240"/>
    <nd ref="343300239"/>
    <nd ref="343300241"/>
    <nd ref="343300242"/>
    <tag k="addr:housenumber" v="9"/>
    <tag k="addr:street" v="Aleja Jana Chrystiana Szucha"/>
    <tag k="building" v="yes"/>
    <tag k="source:addr" v="msi"/>
  </way>
  <way id="30876231" version="1" timestamp="2009-02-08T03:39:37Z" uid="20587" user="balrog-kun" changeset="270015">
    <nd ref="343300243"/>
    <nd ref="343300244"/>
    <nd ref="343300242"/>
    <nd ref="343300241"/>
    <nd ref="343300243"/>
    <tag k="addr:housenumber" v="7"/>
    <tag k="addr:postcode" v="00-580"/>
    <tag k="addr:street" v="Aleja Jana Chrystiana Szucha"/>
    <tag k="amenity" v="embassy"/>
    <tag k="building" v="yes"/>
    <tag k="name" v="Ambasada Ukrainy"/>
    <tag k="name:en" v="Embassy of Ukraine"/>
    <tag k="name:es" v="Embajada de Ucrania"/>
    <tag k="name:uk" v="Посольство України"/>
    <tag k="source:addr" v="msi"/>
  </way>
  <way id="30876231" version="2" timestamp="2009-03-27T21:41:41Z" uid="64578" user="Serpens" changeset="863803">
    <nd ref="343300243"/>
    <nd ref="343300244"/>
    <nd ref="343300242"/>
    <nd ref="343300241"/>
    <nd ref="343300243"/>
    <tag k="addr:housenumber" v="7"/>
    <tag k="addr:postcode" v="00-580"/>
    <tag k="addr:street" v="Aleja Jana Chrystiana Szucha"/>
    <tag k="amenity" v="embassy"/>
    <tag k="building" v="yes"/>
    <tag k="country" v="ua"/>
    <tag k="name" v="Ambasada Ukrainy"/>
    <tag k="name:en" v="Embassy of Ukraine"/>
    <tag k="name:es" v="Embajada de Ucrania"/>
    <tag k="name:uk" v="Посольство України"/>
    <tag k="source:addr" v="msi"/>
  </way>
  <way id="30876231" version="3" timestamp="2010-01-04T14:57:31Z" uid="64578" user="Serpens" changeset="3537746">
    <nd ref="343300243"/>
    <nd ref="343300244"/>
    <nd ref="343300242"/>
    <nd ref="343300241"/>
    <nd ref="343300243"/>
    <tag k="addr:housenumber" v="7"/>
    <tag k="addr:postcode" v="00-580"/>
    <tag k="addr:street" v="Aleja Jana Chrystiana Szucha"/>
    <tag k="amenity" v="embassy"/>
    <tag k="building" v="yes"/>
    <tag k="country" v="UA"/>
    <tag k="name" v="Ambasada Ukrainy"/>
    <tag k="name:en" v="Embassy of Ukraine"/>
    <tag k="name:es" v="Embajada de Ucrania"/>
    <tag k="name:uk" v="Посольство України"/>
    <tag k="source:addr" v="msi"/>
  </way>
  <way id="30876232" version="1" timestamp="2009-02-08T03:39:37Z" uid="20587" user="balrog-kun" changeset="270015">
    <nd ref="343300244"/>
    <nd ref="343300243"/>
    <nd ref="343300245"/>
    <nd ref="343300246"/>
    <nd ref="343300244"/>
    <tag k="addr:housenumber" v="5"/>
    <tag k="addr:postcode" v="00-580"/>
    <tag k="addr:street" v="Aleja Jana Chrystiana Szucha"/>
    <tag k="amenity" v="embassy"/>
    <tag k="building" v="yes"/>
    <tag k="name" v="Ambasada Republiki Litewskiej (Pałacyk Milicera)"/>
    <tag k="name:en" v="Embassy of the Republic of Lithuania"/>
    <tag k="name:es" v="Embajada de Lituania"/>
    <tag k="name:lt" v="Lietuvos Respublikos Ambasada"/>
    <tag k="source:addr" v="msi"/>
  </way>
  <way id="30876232" version="2" timestamp="2009-03-27T21:41:44Z" uid="64578" user="Serpens" changeset="863803">
    <nd ref="343300244"/>
    <nd ref="343300243"/>
    <nd ref="343300245"/>
    <nd ref="343300246"/>
    <nd ref="343300244"/>
    <tag k="addr:housenumber" v="5"/>
    <tag k="addr:postcode" v="00-580"/>
    <tag k="addr:street" v="Aleja Jana Chrystiana Szucha"/>
    <tag k="amenity" v="embassy"/>
    <tag k="building" v="yes"/>
    <tag k="country" v="lt"/>
    <tag k="name" v="Ambasada Republiki Litewskiej (Pałacyk Milicera)"/>
    <tag k="name:en" v="Embassy of the Republic of Lithuania"/>
    <tag k="name:es" v="Embajada de Lituania"/>
    <tag k="name:lt" v="Lietuvos Respublikos Ambasada"/>
    <tag k="source:addr" v="msi"/>
  </way>
  <way id="30876232" version="3" timestamp="2010-01-04T14:57:32Z" uid="64578" user="Serpens" changeset="3537746">
    <nd ref="343300244"/>
    <nd ref="343300243"/>
    <nd ref="343300245"/>
    <nd ref="343300246"/>
    <nd ref="343300244"/>
    <tag k="addr:housenumber" v="5"/>
    <tag k="addr:postcode" v="00-580"/>
    <tag k="addr:street" v="Aleja Jana Chrystiana Szucha"/>
    <tag k="amenity" v="embassy"/>
    <tag k="building" v="yes"/>
    <tag k="country" v="LT"/>
    <tag k="name" v="Ambasada Republiki Litewskiej (Pałacyk Milicera)"/>
    <tag k="name:en" v="Embassy of the Republic of Lithuania"/>
    <tag k="name:es" v="Embajada de Lituania"/>
    <tag k="name:lt" v="Lietuvos Respublikos Ambasada"/>
    <tag k="source:addr" v="msi"/>
  </way>
  <way id="30876233" version="1" timestamp="2009-02-08T03:39:37Z" uid="20587" user="balrog-kun" changeset="270015">
    <nd ref="343300249"/>
    <nd ref="343300250"/>
    <tag k="highway" v="living_street"/>
    <tag k="name" v="Emila Zoli"/>
    <tag k="note" v="TODO"/>
  </way>
  <way id="30876234" version="1" timestamp="2009-02-08T03:39:38Z" uid="20587" user="balrog-kun" changeset="270015">
    <nd ref="343300251"/>
    <nd ref="343300253"/>
    <nd ref="343300256"/>
    <nd ref="343300258"/>
    <nd ref="343300259"/>
    <nd ref="343300260"/>
    <nd ref="343300261"/>
    <nd ref="343300257"/>
    <nd ref="343300255"/>
    <nd ref="343300254"/>
    <nd ref="343300252"/>
    <nd ref="343300251"/>
    <tag k="addr:housenumber" v="3"/>
    <tag k="addr:postcode" v="00-585"/>
    <tag k="addr:street" v="Bagatela"/>
    <tag k="amenity" v="embassy"/>
    <tag k="building" v="yes"/>
    <tag k="name" v="Ambasada Królestwa Szwecji"/>
    <tag k="name:en" v="Royal Swedish Embassy"/>
    <tag k="name:es" v="Embajada del Reino de Suecia"/>
    <tag k="name:se" v="Sveriges Ambassad"/>
  </way>
  <way id="30876234" version="2" timestamp="2009-03-27T20:50:52Z" uid="64578" user="Serpens" changeset="863803">
    <nd ref="343300251"/>
    <nd ref="343300253"/>
    <nd ref="343300256"/>
    <nd ref="343300258"/>
    <nd ref="343300259"/>
    <nd ref="343300260"/>
    <nd ref="343300261"/>
    <nd ref="343300257"/>
    <nd ref="343300255"/>
    <nd ref="343300254"/>
    <nd ref="343300252"/>
    <nd ref="343300251"/>
    <tag k="addr:housenumber" v="3"/>
    <tag k="addr:postcode" v="00-585"/>
    <tag k="addr:street" v="Bagatela"/>
    <tag k="amenity" v="embassy"/>
    <tag k="building" v="yes"/>
    <tag k="country" v="se"/>
    <tag k="name" v="Ambasada Królestwa Szwecji"/>
    <tag k="name:en" v="Royal Swedish Embassy"/>
    <tag k="name:es" v="Embajada del Reino de Suecia"/>
    <tag k="name:se" v="Sveriges Ambassad"/>
  </way>
  <way id="30876234" version="3" timestamp="2010-01-03T19:38:29Z" uid="64578" user="Serpens" changeset="3531844">
    <nd ref="343300251"/>
    <nd ref="343300253"/>
    <nd ref="343300256"/>
    <nd ref="343300258"/>
    <nd ref="343300259"/>
    <nd ref="343300260"/>
    <nd ref="343300261"/>
    <nd ref="343300257"/>
    <nd ref="343300255"/>
    <nd ref="343300254"/>
    <nd ref="343300252"/>
    <nd ref="343300251"/>
    <tag k="addr:housenumber" v="3"/>
    <tag k="addr:postcode" v="00-585"/>
    <tag k="addr:street" v="Bagatela"/>
    <tag k="amenity" v="embassy"/>
    <tag k="building" v="yes"/>
    <tag k="country" v="SE"/>
    <tag k="name" v="Ambasada Królestwa Szwecji"/>
    <tag k="name:en" v="Royal Swedish Embassy"/>
    <tag k="name:es" v="Embajada del Reino de Suecia"/>
    <tag k="name:se" v="Sveriges Ambassad"/>
  </way>
  <way id="30876235" version="1" timestamp="2009-02-08T03:39:38Z" uid="20587" user="balrog-kun" changeset="270015">
    <nd ref="343300265"/>
    <nd ref="343300266"/>
    <nd ref="343300268"/>
    <nd ref="343300267"/>
    <nd ref="343300265"/>
    <tag k="addr:housenumber" v="6"/>
    <tag k="addr:postcode" v="00-581"/>
    <tag k="addr:street" v="Litewska"/>
    <tag k="amenity" v="embassy"/>
    <tag k="building" v="yes"/>
    <tag k="name" v="Ambasada Republiki Słowacji"/>
    <tag k="name:en" v="Embassy of The Slovak Republic"/>
    <tag k="name:es" v="Embajada de la República Eslovaca"/>
    <tag k="name:sk" v="Veľvyslanectvo Slovenskej Republiky"/>
  </way>
  <way id="30876235" version="2" timestamp="2009-03-27T21:41:43Z" uid="64578" user="Serpens" changeset="863803">
    <nd ref="343300265"/>
    <nd ref="343300266"/>
    <nd ref="343300268"/>
    <nd ref="343300267"/>
    <nd ref="343300265"/>
    <tag k="addr:housenumber" v="6"/>
    <tag k="addr:postcode" v="00-581"/>
    <tag k="addr:street" v="Litewska"/>
    <tag k="amenity" v="embassy"/>
    <tag k="building" v="yes"/>
    <tag k="country" v="sk"/>
    <tag k="name" v="Ambasada Republiki Słowacji"/>
    <tag k="name:en" v="Embassy of The Slovak Republic"/>
    <tag k="name:es" v="Embajada de la República Eslovaca"/>
    <tag k="name:sk" v="Veľvyslanectvo Slovenskej Republiky"/>
  </way>
  <way id="30876235" version="3" timestamp="2009-11-22T06:59:16Z" uid="29717" user="eumiro" changeset="3182778">
    <nd ref="343300265"/>
    <nd ref="343300266"/>
    <nd ref="343300268"/>
    <nd ref="343300267"/>
    <nd ref="343300265"/>
    <tag k="addr:housenumber" v="6"/>
    <tag k="addr:postcode" v="00-581"/>
    <tag k="addr:street" v="Litewska"/>
    <tag k="amenity" v="embassy"/>
    <tag k="building" v="yes"/>
    <tag k="country" v="sk"/>
    <tag k="name" v="Ambasada Republiki Słowacji"/>
    <tag k="name:en" v="Embassy of The Slovak Republic"/>
    <tag k="name:es" v="Embajada de la República Eslovaca"/>
    <tag k="name:sk" v="Veľvyslanectvo Slovenskej republiky"/>
  </way>
  <way id="30876235" version="4" timestamp="2010-01-04T14:57:32Z" uid="64578" user="Serpens" changeset="3537746">
    <nd ref="343300265"/>
    <nd ref="343300266"/>
    <nd ref="343300268"/>
    <nd ref="343300267"/>
    <nd ref="343300265"/>
    <tag k="addr:housenumber" v="6"/>
    <tag k="addr:postcode" v="00-581"/>
    <tag k="addr:street" v="Litewska"/>
    <tag k="amenity" v="embassy"/>
    <tag k="building" v="yes"/>
    <tag k="country" v="SK"/>
    <tag k="name" v="Ambasada Republiki Słowacji"/>
    <tag k="name:en" v="Embassy of The Slovak Republic"/>
    <tag k="name:es" v="Embajada de la República Eslovaca"/>
    <tag k="name:sk" v="Veľvyslanectvo Slovenskej republiky"/>
  </way>
  <way id="30876236" version="1" timestamp="2009-02-08T03:39:38Z" uid="20587" user="balrog-kun" changeset="270015">
    <nd ref="343300270"/>
    <nd ref="343300271"/>
    <nd ref="343300272"/>
    <nd ref="343300273"/>
    <nd ref="343300270"/>
    <tag k="leisure" v="common"/>
    <tag k="name" v="Skwer Oleandrów"/>
    <tag k="source:name" v="msi"/>
  </way>
  <way id="30876237" version="1" timestamp="2009-02-08T03:39:39Z" uid="20587" user="balrog-kun" changeset="270015">
    <nd ref="343300274"/>
    <nd ref="343300275"/>
    <nd ref="343300277"/>
    <nd ref="343300276"/>
    <nd ref="343300274"/>
    <tag k="building" v="yes"/>
    <tag k="sport" v="swimming"/>
  </way>
  <way id="30876249" version="2" timestamp="2010-01-21T21:12:55Z" uid="23543" user="jkjk" changeset="3678327">
    <nd ref="74062080"/>
    <nd ref="343300395"/>
    <nd ref="343300396"/>
    <nd ref="343300398"/>
    <tag k="highway" v="residential"/>
    <tag k="source" v="uhul:ortofoto"/>
  </way>
  <way id="30876260" version="1" timestamp="2009-02-08T03:46:58Z" uid="20587" user="balrog-kun" changeset="270015">
    <nd ref="343300728"/>
    <nd ref="343300733"/>
    <tag k="highway" v="service"/>
  </way>
  <way id="30876261" version="1" timestamp="2009-02-08T03:46:58Z" uid="20587" user="balrog-kun" changeset="270015">
    <nd ref="343300740"/>
    <nd ref="343300733"/>
    <nd ref="343300749"/>
    <tag k="highway" v="service"/>
  </way>
  <way id="30876262" version="1" timestamp="2009-02-08T03:46:59Z" uid="20587" user="balrog-kun" changeset="270015">
    <nd ref="343300760"/>
    <nd ref="343300767"/>
    <nd ref="343300773"/>
    <nd ref="343300774"/>
    <nd ref="343300775"/>
    <nd ref="343300776"/>
    <nd ref="343300777"/>
    <nd ref="343300778"/>
    <nd ref="343300779"/>
    <nd ref="343300780"/>
    <nd ref="343300781"/>
    <nd ref="343300782"/>
    <nd ref="343300783"/>
    <nd ref="343300784"/>
    <nd ref="343300760"/>
    <tag k="highway" v="service"/>
  </way>
  <way id="30876263" version="1" timestamp="2009-02-08T03:46:59Z" uid="20587" user="balrog-kun" changeset="270015">
    <nd ref="343300778"/>
    <nd ref="343300785"/>
    <nd ref="343300755"/>
    <tag k="highway" v="service"/>
  </way>
  <way id="30876264" version="1" timestamp="2009-02-08T03:46:59Z" uid="20587" user="balrog-kun" changeset="270015">
    <nd ref="343300796"/>
    <nd ref="343300786"/>
    <nd ref="343300787"/>
    <nd ref="343300788"/>
    <nd ref="343300789"/>
    <nd ref="343300790"/>
    <nd ref="343300791"/>
    <nd ref="343300792"/>
    <nd ref="343300793"/>
    <nd ref="343300794"/>
    <nd ref="343300795"/>
    <nd ref="343300797"/>
    <tag k="highway" v="service"/>
  </way>
  <way id="30876266" version="3" timestamp="2010-04-07T13:25:24Z" uid="20587" user="balrog-kun" changeset="4353646">
    <nd ref="147465347"/>
    <nd ref="343300824"/>
    <nd ref="343300825"/>
    <nd ref="343300826"/>
    <nd ref="343300827"/>
    <nd ref="343300828"/>
    <nd ref="343300829"/>
    <nd ref="343300830"/>
    <nd ref="343300831"/>
    <nd ref="343300832"/>
    <tag k="created_by" v="Potlatch 0.10f"/>
    <tag k="highway" v="unclassified"/>
    <tag k="name" v="North Pottawatomie Road"/>
    <tag k="name_1" v="North Countyline Road"/>
    <tag k="name_2" v="North Potts Road"/>
    <tag k="tiger:cfcc" v="A41"/>
    <tag k="tiger:county" v="Lincoln, OK; Oklahoma, OK"/>
    <tag k="tiger:name_base" v="Pottawatomie"/>
    <tag k="tiger:name_base_1" v="Countyline"/>
    <tag k="tiger:name_base_2" v="Potts"/>
    <tag k="tiger:name_direction_prefix" v="N"/>
    <tag k="tiger:name_direction_prefix_1" v="N"/>
    <tag k="tiger:name_direction_prefix_2" v="N"/>
    <tag k="tiger:name_type" v="Rd"/>
    <tag k="tiger:name_type_1" v="Rd"/>
    <tag k="tiger:name_type_2" v="Rd"/>
    <tag k="tiger:reviewed" v="no"/>
    <tag k="tiger:separated" v="no"/>
    <tag k="tiger:source" v="tiger_import_dch_v0.6_20070829"/>
    <tag k="tiger:tlid" v="100447168:100452200:100447170:100447172:100447174:100446460; 100439895:100452118; 100439895:100439896:100439899; 100427083:100447165:100447166; 100425813; 100447148:100447150:100447152:100447154:100447156:100425828:100427334:100427335; 100447148:100447150"/>
    <tag k="tiger:zip_left" v="73045"/>
  </way>
  <way id="30876266" version="4" timestamp="2011-06-01T14:31:03Z" uid="30521" user="dufekin" changeset="8310805">
    <nd ref="147465347"/>
    <nd ref="343300824"/>
    <nd ref="343300825"/>
    <nd ref="343300826"/>
    <nd ref="343300827"/>
    <nd ref="343300828"/>
    <nd ref="343300829"/>
    <nd ref="343300830"/>
    <nd ref="343300831"/>
    <nd ref="343300832"/>
    <tag k="highway" v="unclassified"/>
    <tag k="name" v="North Pottawatomie Road"/>
    <tag k="tiger:cfcc" v="A41"/>
    <tag k="tiger:county" v="Lincoln, OK; Oklahoma, OK"/>
    <tag k="tiger:name_base" v="Pottawatomie"/>
    <tag k="tiger:name_direction_prefix" v="N"/>
    <tag k="tiger:name_type" v="Rd"/>
    <tag k="tiger:reviewed" v="no"/>
    <tag k="tiger:separated" v="no"/>
    <tag k="tiger:source" v="tiger_import_dch_v0.6_20070829"/>
    <tag k="tiger:tlid" v="100447168:100452200:100447170:100447172:100447174:100446460; 100439895:100452118; 100439895:100439896:100439899; 100427083:100447165:100447166; 100425813; 100447148:100447150:100447152:100447154:100447156:100425828:100427334:100427335; 100447148:100447150"/>
    <tag k="tiger:zip_left" v="73045"/>
  </way>
  <way id="30876274" version="6" timestamp="2010-03-27T17:57:51Z" uid="171348" user="Sterops" changeset="4249147">
    <nd ref="343301146"/>
    <nd ref="343301148"/>
    <nd ref="566586411"/>
    <nd ref="566568258"/>
    <nd ref="343301149"/>
    <nd ref="676089571"/>
    <nd ref="496597799"/>
    <nd ref="122914622"/>
    <nd ref="566568182"/>
    <nd ref="123422720"/>
    <tag k="highway" v="residential"/>
    <tag k="name" v="Weyburn Pl"/>
    <tag k="source" v="gps  survey and yahoo"/>
    <tag k="tiger:cfcc" v="A41"/>
    <tag k="tiger:county" v="Los Angeles, CA"/>
    <tag k="tiger:name_base" v="Weyburn"/>
    <tag k="tiger:name_type" v="Pl"/>
    <tag k="tiger:reviewed" v="no"/>
    <tag k="tiger:separated" v="no"/>
    <tag k="tiger:source" v="tiger_import_dch_v0.6_20070809"/>
    <tag k="tiger:tlid" v="142450866"/>
    <tag k="tiger:upload_uuid" v="bulk_upload.pl-e7a65206-5b4e-4f1c-be5b-f07c49e73831"/>
  </way>
  <way id="30876274" version="7" timestamp="2010-03-28T10:08:40Z" uid="20587" user="balrog-kun" changeset="4254597">
    <nd ref="343301146"/>
    <nd ref="343301148"/>
    <nd ref="566586411"/>
    <nd ref="566568258"/>
    <nd ref="343301149"/>
    <nd ref="676089571"/>
    <nd ref="496597799"/>
    <nd ref="122914622"/>
    <nd ref="566568182"/>
    <nd ref="123422720"/>
    <tag k="highway" v="residential"/>
    <tag k="name" v="Weyburn Place"/>
    <tag k="source" v="gps  survey and yahoo"/>
    <tag k="tiger:cfcc" v="A41"/>
    <tag k="tiger:county" v="Los Angeles, CA"/>
    <tag k="tiger:name_base" v="Weyburn"/>
    <tag k="tiger:name_type" v="Pl"/>
    <tag k="tiger:reviewed" v="no"/>
    <tag k="tiger:separated" v="no"/>
    <tag k="tiger:source" v="tiger_import_dch_v0.6_20070809"/>
    <tag k="tiger:tlid" v="142450866"/>
  </way>
  <way id="30876373" version="3" timestamp="2010-03-28T00:59:36Z" uid="20587" user="balrog-kun" changeset="4250871">
    <nd ref="87452899"/>
    <nd ref="87489393"/>
    <nd ref="87489394"/>
    <nd ref="87439042"/>
    <nd ref="87489396"/>
    <nd ref="87489398"/>
    <nd ref="87443933"/>
    <nd ref="87489400"/>
    <nd ref="87489403"/>
    <nd ref="87429223"/>
    <nd ref="87489406"/>
    <tag k="highway" v="residential"/>
    <tag k="name" v="Francisco Drive"/>
    <tag k="tiger:cfcc" v="A41"/>
    <tag k="tiger:county" v="El Dorado, CA"/>
    <tag k="tiger:name_base" v="Francisco"/>
    <tag k="tiger:name_type" v="Dr"/>
    <tag k="tiger:reviewed" v="no"/>
    <tag k="tiger:separated" v="no"/>
    <tag k="tiger:source" v="tiger_import_dch_v0.6_20070809"/>
    <tag k="tiger:tlid" v="133071052:133071053:133038288:133038528:133038532"/>
  </way>
  <way id="30876382" version="2" timestamp="2010-03-28T00:59:37Z" uid="20587" user="balrog-kun" changeset="4250871">
    <nd ref="87364135"/>
    <nd ref="87364136"/>
    <nd ref="87352233"/>
    <nd ref="87364138"/>
    <nd ref="87364139"/>
    <nd ref="87364141"/>
    <nd ref="87364144"/>
    <nd ref="87364146"/>
    <nd ref="87364148"/>
    <nd ref="87364150"/>
    <nd ref="87364152"/>
    <nd ref="87364154"/>
    <nd ref="87278619"/>
    <nd ref="87364156"/>
    <nd ref="87364158"/>
    <nd ref="87364160"/>
    <nd ref="87364162"/>
    <nd ref="87364164"/>
    <nd ref="87364165"/>
    <tag k="created_by" v="Potlatch 0.10f"/>
    <tag k="highway" v="residential"/>
    <tag k="name" v="White Rock Road"/>
    <tag k="tiger:cfcc" v="A41"/>
    <tag k="tiger:county" v="El Dorado, CA"/>
    <tag k="tiger:name_base" v="White Rock"/>
    <tag k="tiger:name_type" v="Rd"/>
    <tag k="tiger:reviewed" v="no"/>
    <tag k="tiger:separated" v="no"/>
    <tag k="tiger:source" v="tiger_import_dch_v0.6_20070809"/>
    <tag k="tiger:tlid" v="133038799:133038801:133038881:133038856:133069549:133069550:133038882:133071376:133060929:133074983:133076625:133038890:133038894"/>
    <tag k="tiger:zip_left" v="95762"/>
    <tag k="tiger:zip_right" v="95762"/>
  </way>
  <way id="30876395" version="3" timestamp="2010-07-07T06:55:29Z" uid="74617" user="JohnSmith" changeset="5156250">
    <nd ref="343302565"/>
    <nd ref="343302566"/>
    <nd ref="343302568"/>
    <nd ref="343302598"/>
    <nd ref="343302600"/>
    <nd ref="343302602"/>
    <nd ref="343302604"/>
    <nd ref="343302605"/>
    <nd ref="343302606"/>
    <nd ref="343302607"/>
    <nd ref="343302609"/>
    <nd ref="343302691"/>
    <tag k="highway" v="residential"/>
    <tag k="maxspeed" v="50"/>
    <tag k="maxspeed:source" v="default residential speed limit in Australia"/>
    <tag k="name" v="Alfs Pinch Road"/>
    <tag k="source" v="survey"/>
    <tag k="surface" v="paved"/>
  </way>
  <way id="30876395" version="4" timestamp="2012-01-18T05:25:20Z" uid="147510" user="woodpeck_fixbot" changeset="10424371">
    <nd ref="343302565"/>
    <nd ref="343302566"/>
    <nd ref="343302568"/>
    <nd ref="343302598"/>
    <nd ref="343302600"/>
    <nd ref="343302602"/>
    <nd ref="343302604"/>
    <nd ref="343302605"/>
    <nd ref="343302606"/>
    <nd ref="343302607"/>
    <nd ref="343302609"/>
    <nd ref="343302691"/>
    <tag k="highway" v="residential"/>
    <tag k="name" v="Alfs Pinch Road"/>
    <tag k="source" v="survey"/>
    <tag k="surface" v="paved"/>
  </way>
  <way id="30876396" version="2" timestamp="2010-07-07T06:55:27Z" uid="74617" user="JohnSmith" changeset="5156250">
    <nd ref="343302691"/>
    <nd ref="343302611"/>
    <nd ref="343302613"/>
    <nd ref="343302614"/>
    <nd ref="343302616"/>
    <nd ref="343302618"/>
    <nd ref="343302619"/>
    <nd ref="343302620"/>
    <nd ref="343302621"/>
    <nd ref="343302622"/>
    <nd ref="343302624"/>
    <nd ref="343302626"/>
    <nd ref="343302627"/>
    <nd ref="343302628"/>
    <nd ref="343302630"/>
    <tag k="highway" v="residential"/>
    <tag k="maxspeed" v="50"/>
    <tag k="maxspeed:source" v="default residential speed limit in Australia"/>
    <tag k="name" v="Alfs Pinch Road"/>
    <tag k="source" v="survey"/>
    <tag k="surface" v="unpaved"/>
  </way>
  <way id="30876396" version="3" timestamp="2012-01-18T05:25:22Z" uid="147510" user="woodpeck_fixbot" changeset="10424371">
    <nd ref="343302691"/>
    <nd ref="343302611"/>
    <nd ref="343302613"/>
    <nd ref="343302614"/>
    <nd ref="343302616"/>
    <nd ref="343302618"/>
    <nd ref="343302619"/>
    <nd ref="343302620"/>
    <nd ref="343302621"/>
    <nd ref="343302622"/>
    <nd ref="343302624"/>
    <nd ref="343302626"/>
    <nd ref="343302627"/>
    <nd ref="343302628"/>
    <nd ref="343302630"/>
    <tag k="highway" v="residential"/>
    <tag k="name" v="Alfs Pinch Road"/>
    <tag k="source" v="survey"/>
    <tag k="surface" v="unpaved"/>
  </way>
  <way id="30876399" version="2" timestamp="2010-07-07T06:55:19Z" uid="74617" user="JohnSmith" changeset="5156250">
    <nd ref="343302692"/>
    <nd ref="343302646"/>
    <nd ref="343302647"/>
    <nd ref="343302648"/>
    <nd ref="343302650"/>
    <nd ref="343302651"/>
    <nd ref="343302653"/>
    <nd ref="343302655"/>
    <nd ref="343302660"/>
    <nd ref="343302668"/>
    <nd ref="343302669"/>
    <nd ref="343302670"/>
    <nd ref="343302672"/>
    <nd ref="343302673"/>
    <nd ref="343302674"/>
    <nd ref="343302676"/>
    <nd ref="343302677"/>
    <nd ref="343302678"/>
    <nd ref="343302679"/>
    <nd ref="343302680"/>
    <nd ref="343302716"/>
    <tag k="highway" v="residential"/>
    <tag k="maxspeed" v="50"/>
    <tag k="maxspeed:source" v="default residential speed limit in Australia"/>
    <tag k="name" v="Storrs Road"/>
    <tag k="source" v="survey"/>
    <tag k="surface" v="unpaved"/>
  </way>
  <way id="30876399" version="3" timestamp="2012-01-18T05:25:24Z" uid="147510" user="woodpeck_fixbot" changeset="10424371">
    <nd ref="343302692"/>
    <nd ref="343302646"/>
    <nd ref="343302647"/>
    <nd ref="343302648"/>
    <nd ref="343302650"/>
    <nd ref="343302651"/>
    <nd ref="343302653"/>
    <nd ref="343302655"/>
    <nd ref="343302660"/>
    <nd ref="343302668"/>
    <nd ref="343302669"/>
    <nd ref="343302670"/>
    <nd ref="343302672"/>
    <nd ref="343302673"/>
    <nd ref="343302674"/>
    <nd ref="343302676"/>
    <nd ref="343302677"/>
    <nd ref="343302678"/>
    <nd ref="343302679"/>
    <nd ref="343302680"/>
    <nd ref="343302716"/>
    <tag k="highway" v="residential"/>
    <tag k="name" v="Storrs Road"/>
    <tag k="source" v="survey"/>
    <tag k="surface" v="unpaved"/>
  </way>
  <way id="30876400" version="2" timestamp="2010-07-07T06:55:32Z" uid="74617" user="JohnSmith" changeset="5156250">
    <nd ref="343302716"/>
    <nd ref="343302682"/>
    <nd ref="343302683"/>
    <nd ref="343302685"/>
    <nd ref="343302687"/>
    <nd ref="343302720"/>
    <nd ref="343302689"/>
    <tag k="highway" v="residential"/>
    <tag k="maxspeed" v="50"/>
    <tag k="maxspeed:source" v="default residential speed limit in Australia"/>
    <tag k="name" v="Morrisons Road"/>
    <tag k="source" v="survey"/>
    <tag k="surface" v="paved"/>
  </way>
  <way id="30876400" version="3" timestamp="2012-01-18T05:25:26Z" uid="147510" user="woodpeck_fixbot" changeset="10424371">
    <nd ref="343302716"/>
    <nd ref="343302682"/>
    <nd ref="343302683"/>
    <nd ref="343302685"/>
    <nd ref="343302687"/>
    <nd ref="343302720"/>
    <nd ref="343302689"/>
    <tag k="highway" v="residential"/>
    <tag k="name" v="Morrisons Road"/>
    <tag k="source" v="survey"/>
    <tag k="surface" v="paved"/>
  </way>
  <way id="30876401" version="2" timestamp="2010-07-07T06:55:19Z" uid="74617" user="JohnSmith" changeset="5156250">
    <nd ref="343302716"/>
    <nd ref="343302717"/>
    <tag k="highway" v="residential"/>
    <tag k="maxspeed" v="50"/>
    <tag k="maxspeed:source" v="default residential speed limit in Australia"/>
    <tag k="name" v="Storrs Road"/>
    <tag k="source" v="survey"/>
    <tag k="surface" v="paved"/>
  </way>
  <way id="30876401" version="3" timestamp="2012-01-18T05:25:27Z" uid="147510" user="woodpeck_fixbot" changeset="10424371">
    <nd ref="343302716"/>
    <nd ref="343302717"/>
    <tag k="highway" v="residential"/>
    <tag k="name" v="Storrs Road"/>
    <tag k="source" v="survey"/>
    <tag k="surface" v="paved"/>
  </way>
  <way id="30876403" version="2" timestamp="2010-07-07T06:55:22Z" uid="74617" user="JohnSmith" changeset="5156250">
    <nd ref="343302720"/>
    <nd ref="343302721"/>
    <nd ref="343302722"/>
    <nd ref="343302723"/>
    <nd ref="343302725"/>
    <nd ref="343302726"/>
    <nd ref="343302728"/>
    <nd ref="343302730"/>
    <tag k="highway" v="residential"/>
    <tag k="maxspeed" v="50"/>
    <tag k="maxspeed:source" v="default residential speed limit in Australia"/>
    <tag k="name" v="Sunbury Drive"/>
    <tag k="source" v="survey"/>
    <tag k="surface" v="paved"/>
  </way>
  <way id="30876403" version="3" timestamp="2012-01-18T05:25:29Z" uid="147510" user="woodpeck_fixbot" changeset="10424371">
    <nd ref="343302720"/>
    <nd ref="343302721"/>
    <nd ref="343302722"/>
    <nd ref="343302723"/>
    <nd ref="343302725"/>
    <nd ref="343302726"/>
    <nd ref="343302728"/>
    <nd ref="343302730"/>
    <tag k="highway" v="residential"/>
    <tag k="name" v="Sunbury Drive"/>
    <tag k="source" v="survey"/>
    <tag k="surface" v="paved"/>
  </way>
  <way id="30876406" version="3" timestamp="2010-07-07T06:55:26Z" uid="74617" user="JohnSmith" changeset="5156250">
    <nd ref="343302738"/>
    <nd ref="343302744"/>
    <nd ref="343302745"/>
    <nd ref="343302747"/>
    <nd ref="343302749"/>
    <nd ref="343302751"/>
    <nd ref="343302753"/>
    <nd ref="343302754"/>
    <nd ref="343302756"/>
    <nd ref="343302758"/>
    <nd ref="343302778"/>
    <nd ref="343302793"/>
    <tag k="highway" v="residential"/>
    <tag k="maxspeed" v="50"/>
    <tag k="maxspeed:source" v="default residential speed limit in Australia"/>
    <tag k="name" v="Harold Place"/>
    <tag k="source" v="survey"/>
    <tag k="surface" v="paved"/>
  </way>
  <way id="30876406" version="4" timestamp="2012-01-18T05:25:31Z" uid="147510" user="woodpeck_fixbot" changeset="10424371">
    <nd ref="343302738"/>
    <nd ref="343302744"/>
    <nd ref="343302745"/>
    <nd ref="343302747"/>
    <nd ref="343302749"/>
    <nd ref="343302751"/>
    <nd ref="343302753"/>
    <nd ref="343302754"/>
    <nd ref="343302756"/>
    <nd ref="343302758"/>
    <nd ref="343302778"/>
    <nd ref="343302793"/>
    <tag k="highway" v="residential"/>
    <tag k="name" v="Harold Place"/>
    <tag k="source" v="survey"/>
    <tag k="surface" v="paved"/>
  </way>
  <way id="30876407" version="2" timestamp="2010-07-07T06:55:15Z" uid="74617" user="JohnSmith" changeset="5156250">
    <nd ref="343302745"/>
    <nd ref="343302804"/>
    <nd ref="343302805"/>
    <tag k="highway" v="residential"/>
    <tag k="maxspeed" v="50"/>
    <tag k="maxspeed:source" v="default residential speed limit in Australia"/>
    <tag k="name" v="Ronald Court"/>
    <tag k="source" v="survey"/>
    <tag k="surface" v="paved"/>
  </way>
  <way id="30876407" version="3" timestamp="2012-01-18T05:25:33Z" uid="147510" user="woodpeck_fixbot" changeset="10424371">
    <nd ref="343302745"/>
    <nd ref="343302804"/>
    <nd ref="343302805"/>
    <tag k="highway" v="residential"/>
    <tag k="name" v="Ronald Court"/>
    <tag k="source" v="survey"/>
    <tag k="surface" v="paved"/>
  </way>
  <way id="30876447" version="16" timestamp="2010-03-28T00:59:37Z" uid="20587" user="balrog-kun" changeset="4250871">
    <nd ref="90108553"/>
    <nd ref="90217899"/>
    <nd ref="90217901"/>
    <nd ref="90217904"/>
    <nd ref="90011070"/>
    <nd ref="90217907"/>
    <nd ref="90217909"/>
    <nd ref="90130041"/>
    <nd ref="90217910"/>
    <nd ref="90217911"/>
    <nd ref="90139093"/>
    <nd ref="373407000"/>
    <nd ref="90105695"/>
    <nd ref="90187820"/>
    <nd ref="90146518"/>
    <nd ref="90150573"/>
    <nd ref="90191356"/>
    <nd ref="90162994"/>
    <tag k="created_by" v="Potlatch 0.10f"/>
    <tag k="highway" v="secondary"/>
    <tag k="name" v="High Street"/>
    <tag k="tiger:cfcc" v="A31"/>
    <tag k="tiger:county" v="Placer, CA"/>
    <tag k="tiger:name_base" v="High"/>
    <tag k="tiger:name_base_1" v="State Highway 49"/>
    <tag k="tiger:name_base_2" v="State Highway 193"/>
    <tag k="tiger:name_type" v="St"/>
    <tag k="tiger:reviewed" v="no"/>
    <tag k="tiger:separated" v="no"/>
    <tag k="tiger:source" v="tiger_import_dch_v0.6_20070809"/>
    <tag k="tiger:tlid" v="106772257:106772268:106772206:106772269:106772270"/>
    <tag k="tiger:zip_left" v="95603"/>
    <tag k="tiger:zip_right" v="95603"/>
  </way>
  <way id="30876447" version="17" timestamp="2010-05-11T19:19:42Z" uid="239998" user="Sundance" changeset="4671488">
    <nd ref="90108553"/>
    <nd ref="90217899"/>
    <nd ref="90217901"/>
    <nd ref="90217904"/>
    <nd ref="90011070"/>
    <nd ref="90217907"/>
    <nd ref="90217909"/>
    <nd ref="90130041"/>
    <nd ref="90217910"/>
    <nd ref="90217911"/>
    <nd ref="90139093"/>
    <nd ref="373407000"/>
    <nd ref="90105695"/>
    <nd ref="90187820"/>
    <nd ref="90146518"/>
    <nd ref="90150573"/>
    <nd ref="90191356"/>
    <nd ref="90162994"/>
    <tag k="highway" v="secondary"/>
    <tag k="is_in" v="Placer, CA"/>
    <tag k="name" v="High Street"/>
    <tag k="tiger:name_base" v="High"/>
    <tag k="tiger:name_base_1" v="State Highway 49"/>
    <tag k="tiger:name_base_2" v="State Highway 193"/>
    <tag k="tiger:name_type" v="St"/>
    <tag k="tiger:reviewed" v="no"/>
    <tag k="tiger:separated" v="no"/>
    <tag k="tiger:source" v="tiger_import_dch_v0.6_20070809"/>
    <tag k="tiger:tlid" v="106772257:106772268:106772206:106772269:106772270"/>
    <tag k="tiger:zip_left" v="95603"/>
    <tag k="tiger:zip_right" v="95603"/>
  </way>
  <way id="30876447" version="18" timestamp="2010-11-17T17:48:24Z" uid="74275" user="behemoth14" changeset="6394501">
    <nd ref="90108553"/>
    <nd ref="992874265"/>
    <nd ref="90217899"/>
    <nd ref="90217901"/>
    <nd ref="90217904"/>
    <nd ref="90011070"/>
    <nd ref="90217907"/>
    <nd ref="90217909"/>
    <nd ref="90130041"/>
    <nd ref="90217910"/>
    <nd ref="90217911"/>
    <nd ref="90139093"/>
    <nd ref="373407000"/>
    <nd ref="90105695"/>
    <nd ref="90187820"/>
    <nd ref="90146518"/>
    <nd ref="90150573"/>
    <nd ref="90191356"/>
    <nd ref="90162994"/>
    <tag k="highway" v="secondary"/>
    <tag k="is_in" v="Placer, CA"/>
    <tag k="name" v="High Street"/>
    <tag k="tiger:name_base" v="High"/>
    <tag k="tiger:name_base_1" v="State Highway 49"/>
    <tag k="tiger:name_base_2" v="State Highway 193"/>
    <tag k="tiger:name_type" v="St"/>
    <tag k="tiger:reviewed" v="no"/>
    <tag k="tiger:separated" v="no"/>
    <tag k="tiger:source" v="tiger_import_dch_v0.6_20070809"/>
    <tag k="tiger:tlid" v="106772257:106772268:106772206:106772269:106772270"/>
    <tag k="tiger:zip_left" v="95603"/>
    <tag k="tiger:zip_right" v="95603"/>
  </way>
  <way id="30876447" version="19" timestamp="2010-11-17T18:15:03Z" uid="74275" user="behemoth14" changeset="6394688">
    <nd ref="90108553"/>
    <nd ref="992874265"/>
    <nd ref="90217899"/>
    <nd ref="90217901"/>
    <nd ref="90217904"/>
    <nd ref="90011070"/>
    <nd ref="992908784"/>
    <nd ref="992908782"/>
    <nd ref="90217907"/>
    <nd ref="90217909"/>
    <nd ref="90130041"/>
    <nd ref="90217910"/>
    <nd ref="90217911"/>
    <nd ref="90139093"/>
    <nd ref="373407000"/>
    <nd ref="90105695"/>
    <nd ref="90187820"/>
    <nd ref="90146518"/>
    <nd ref="90150573"/>
    <nd ref="90191356"/>
    <nd ref="90162994"/>
    <tag k="highway" v="secondary"/>
    <tag k="is_in" v="Placer, CA"/>
    <tag k="name" v="High Street"/>
    <tag k="tiger:name_base" v="High"/>
    <tag k="tiger:name_base_1" v="State Highway 49"/>
    <tag k="tiger:name_base_2" v="State Highway 193"/>
    <tag k="tiger:name_type" v="St"/>
    <tag k="tiger:reviewed" v="no"/>
    <tag k="tiger:separated" v="no"/>
    <tag k="tiger:source" v="tiger_import_dch_v0.6_20070809"/>
    <tag k="tiger:tlid" v="106772257:106772268:106772206:106772269:106772270"/>
    <tag k="tiger:zip_left" v="95603"/>
    <tag k="tiger:zip_right" v="95603"/>
  </way>
  <way id="30876447" version="20" timestamp="2011-08-30T05:57:41Z" uid="243490" user="T99" changeset="9163958">
    <nd ref="90108553"/>
    <nd ref="992874265"/>
    <nd ref="90217899"/>
    <nd ref="90217901"/>
    <nd ref="90217904"/>
    <nd ref="90011070"/>
    <nd ref="992908784"/>
    <nd ref="992908782"/>
    <nd ref="90217907"/>
    <nd ref="90217909"/>
    <nd ref="90130041"/>
    <nd ref="90217910"/>
    <nd ref="90217911"/>
    <nd ref="90139093"/>
    <nd ref="373407000"/>
    <nd ref="90105695"/>
    <nd ref="90187820"/>
    <nd ref="90146518"/>
    <nd ref="90150573"/>
    <nd ref="1417762029"/>
    <nd ref="1417762049"/>
    <nd ref="1417762054"/>
    <nd ref="90191356"/>
    <nd ref="1417762073"/>
    <nd ref="1417762084"/>
    <nd ref="90162994"/>
    <tag k="highway" v="secondary"/>
    <tag k="is_in" v="Placer, CA"/>
    <tag k="name" v="High Street"/>
    <tag k="tiger:name_base" v="High"/>
    <tag k="tiger:name_base_1" v="State Highway 49"/>
    <tag k="tiger:name_base_2" v="State Highway 193"/>
    <tag k="tiger:name_type" v="St"/>
    <tag k="tiger:reviewed" v="no"/>
    <tag k="tiger:separated" v="no"/>
    <tag k="tiger:source" v="tiger_import_dch_v0.6_20070809"/>
    <tag k="tiger:tlid" v="106772257:106772268:106772206:106772269:106772270"/>
    <tag k="tiger:zip_left" v="95603"/>
    <tag k="tiger:zip_right" v="95603"/>
  </way>
  <way id="30876447" version="21" timestamp="2011-08-30T06:17:20Z" uid="243490" user="T99" changeset="9163958">
    <nd ref="90108553"/>
    <nd ref="992874265"/>
    <nd ref="90217899"/>
    <nd ref="90217901"/>
    <nd ref="90217904"/>
    <nd ref="90011070"/>
    <nd ref="992908784"/>
    <nd ref="992908782"/>
    <nd ref="90217907"/>
    <nd ref="90217909"/>
    <nd ref="90130041"/>
    <nd ref="90217910"/>
    <nd ref="90217911"/>
    <nd ref="90139093"/>
    <nd ref="1417769079"/>
    <nd ref="373407000"/>
    <nd ref="90105695"/>
    <nd ref="90187820"/>
    <nd ref="90146518"/>
    <nd ref="1417769100"/>
    <nd ref="90150573"/>
    <nd ref="1417769101"/>
    <nd ref="1417762029"/>
    <nd ref="1417762049"/>
    <nd ref="1417762054"/>
    <nd ref="90191356"/>
    <nd ref="1417762073"/>
    <nd ref="1417762084"/>
    <nd ref="90162994"/>
    <tag k="highway" v="secondary"/>
    <tag k="is_in" v="Placer, CA"/>
    <tag k="name" v="High Street"/>
    <tag k="tiger:name_base" v="High"/>
    <tag k="tiger:name_base_1" v="State Highway 49"/>
    <tag k="tiger:name_base_2" v="State Highway 193"/>
    <tag k="tiger:name_type" v="St"/>
    <tag k="tiger:separated" v="no"/>
    <tag k="tiger:source" v="tiger_import_dch_v0.6_20070809"/>
    <tag k="tiger:tlid" v="106772257:106772268:106772206:106772269:106772270"/>
    <tag k="tiger:zip_left" v="95603"/>
    <tag k="tiger:zip_right" v="95603"/>
  </way>
  <way id="30876447" version="22" timestamp="2012-01-03T03:12:58Z" uid="74275" user="behemoth14" changeset="10278161">
    <nd ref="90108553"/>
    <nd ref="1575011957"/>
    <nd ref="992874265"/>
    <nd ref="1575011958"/>
    <nd ref="1575011961"/>
    <nd ref="1575011963"/>
    <nd ref="1575011964"/>
    <nd ref="1575011965"/>
    <nd ref="1575011972"/>
    <nd ref="1575011973"/>
    <nd ref="90011070"/>
    <nd ref="1575011974"/>
    <nd ref="1575011975"/>
    <nd ref="992908784"/>
    <nd ref="992908782"/>
    <nd ref="90217907"/>
    <nd ref="90217909"/>
    <nd ref="1575011994"/>
    <nd ref="1575012002"/>
    <nd ref="1575012011"/>
    <nd ref="1575012019"/>
    <nd ref="90130041"/>
    <nd ref="1575012027"/>
    <nd ref="90217910"/>
    <nd ref="1575012035"/>
    <nd ref="1575012041"/>
    <nd ref="90217911"/>
    <nd ref="1575012045"/>
    <nd ref="1575012051"/>
    <nd ref="90139093"/>
    <nd ref="1417769079"/>
    <nd ref="373407000"/>
    <nd ref="90105695"/>
    <nd ref="90187820"/>
    <nd ref="90146518"/>
    <nd ref="1417769100"/>
    <nd ref="90150573"/>
    <nd ref="1417769101"/>
    <nd ref="1417762029"/>
    <nd ref="1417762049"/>
    <nd ref="1417762054"/>
    <nd ref="90191356"/>
    <nd ref="1417762073"/>
    <nd ref="1417762084"/>
    <nd ref="90162994"/>
    <tag k="highway" v="secondary"/>
    <tag k="is_in" v="Placer, CA"/>
    <tag k="name" v="High Street"/>
    <tag k="tiger:name_base" v="High"/>
    <tag k="tiger:name_base_1" v="State Highway 49"/>
    <tag k="tiger:name_base_2" v="State Highway 193"/>
    <tag k="tiger:name_type" v="St"/>
    <tag k="tiger:separated" v="no"/>
    <tag k="tiger:source" v="tiger_import_dch_v0.6_20070809"/>
    <tag k="tiger:tlid" v="106772257:106772268:106772206:106772269:106772270"/>
    <tag k="tiger:zip_left" v="95603"/>
    <tag k="tiger:zip_right" v="95603"/>
  </way>
  <way id="30876473" version="1" timestamp="2009-02-08T04:29:43Z" uid="20587" user="balrog-kun" changeset="270015">
    <nd ref="343303378"/>
    <nd ref="343303379"/>
    <nd ref="343303381"/>
    <nd ref="343303383"/>
    <nd ref="343303385"/>
    <tag k="highway" v="residential"/>
  </way>
  <way id="30876473" version="2" timestamp="2011-01-18T03:16:48Z" uid="20587" user="balrog-kun" changeset="7006688">
    <nd ref="343303378"/>
    <nd ref="343303379"/>
    <nd ref="343303381"/>
    <nd ref="343303383"/>
    <nd ref="343303385"/>
    <tag k="highway" v="residential"/>
    <tag k="oneway" v="yes"/>
  </way>
  <way id="30876474" version="1" timestamp="2009-02-08T04:29:43Z" uid="20587" user="balrog-kun" changeset="270015">
    <nd ref="343303386"/>
    <nd ref="343303388"/>
    <nd ref="343303391"/>
    <nd ref="343303401"/>
    <nd ref="343303402"/>
    <nd ref="343303395"/>
    <nd ref="343303398"/>
    <nd ref="343303396"/>
    <nd ref="343303393"/>
    <nd ref="343303399"/>
    <nd ref="343303400"/>
    <nd ref="343303389"/>
    <nd ref="343303386"/>
    <tag k="addr:housenumber" v="10"/>
    <tag k="addr:street" v="Jazdów"/>
    <tag k="building" v="yes"/>
    <tag k="name" v="Zespół Doradców Prezydenta (Urząd Miasta)"/>
    <tag k="source:addr" v="msi"/>
  </way>
  <way id="30876475" version="1" timestamp="2009-02-08T04:29:43Z" uid="20587" user="balrog-kun" changeset="270015">
    <nd ref="343303412"/>
    <nd ref="343303413"/>
    <nd ref="343303415"/>
    <nd ref="343303421"/>
    <nd ref="343303420"/>
    <nd ref="343303417"/>
    <nd ref="343303419"/>
    <nd ref="343303418"/>
    <nd ref="343303416"/>
    <nd ref="343303423"/>
    <nd ref="343303422"/>
    <nd ref="343303414"/>
    <nd ref="343303412"/>
  </way>
  <way id="30876476" version="1" timestamp="2009-02-08T04:29:44Z" uid="20587" user="balrog-kun" changeset="270015">
    <nd ref="343303437"/>
    <nd ref="343303438"/>
    <nd ref="343303439"/>
    <nd ref="343303440"/>
    <nd ref="343303441"/>
    <nd ref="343303442"/>
    <nd ref="343303443"/>
    <nd ref="343303449"/>
    <nd ref="343303444"/>
    <nd ref="343303445"/>
    <nd ref="343303446"/>
    <nd ref="343303447"/>
    <nd ref="343303448"/>
    <nd ref="343303437"/>
    <tag k="access" v="private"/>
    <tag k="highway" v="service"/>
  </way>
  <way id="30876477" version="1" timestamp="2009-02-08T04:29:44Z" uid="20587" user="balrog-kun" changeset="270015">
    <nd ref="343303449"/>
    <nd ref="255443801"/>
    <tag k="access" v="private"/>
    <tag k="highway" v="service"/>
  </way>
  <way id="30876477" version="2" timestamp="2009-02-09T00:49:36Z" uid="20587" user="balrog-kun" changeset="288825">
    <nd ref="343303449"/>
    <nd ref="343592059"/>
    <tag k="access" v="private"/>
    <tag k="highway" v="service"/>
  </way>
  <way id="30876478" version="1" timestamp="2009-02-08T04:29:44Z" uid="20587" user="balrog-kun" changeset="270015">
    <nd ref="343303465"/>
    <nd ref="343303459"/>
    <nd ref="343303457"/>
    <nd ref="343303462"/>
    <nd ref="343303463"/>
    <nd ref="343303455"/>
    <nd ref="343303452"/>
    <nd ref="343303453"/>
    <nd ref="343303469"/>
    <nd ref="343303470"/>
    <nd ref="343303471"/>
    <nd ref="343303468"/>
    <nd ref="343303451"/>
    <nd ref="343303450"/>
    <nd ref="343303454"/>
    <nd ref="343303460"/>
    <nd ref="343303461"/>
    <nd ref="343303456"/>
    <nd ref="343303458"/>
    <nd ref="343303464"/>
    <nd ref="343303466"/>
    <nd ref="343303467"/>
    <nd ref="343303465"/>
    <tag k="addr:housenumber" v="49"/>
    <tag k="addr:street" v="Belwederska"/>
    <tag k="amenity" v="embassy"/>
    <tag k="building" v="yes"/>
    <tag k="name" v="Ambasada Federacji Rosyjskiej"/>
    <tag k="name:en" v="Embassy of the Russian Federation"/>
    <tag k="name:es" v="Embajada de la Federación Rusa"/>
    <tag k="name:ru" v="Посольство России в Польше"/>
  </way>
  <way id="30876478" version="2" timestamp="2009-02-08T04:31:08Z" uid="20587" user="balrog-kun" changeset="270015">
    <nd ref="343303465"/>
    <nd ref="343303459"/>
    <nd ref="343303457"/>
    <nd ref="343303462"/>
    <nd ref="343303463"/>
    <nd ref="343303455"/>
    <nd ref="343303452"/>
    <nd ref="343303453"/>
    <nd ref="343303469"/>
    <nd ref="343303470"/>
    <nd ref="343303471"/>
    <nd ref="343303468"/>
    <nd ref="343303451"/>
    <nd ref="343303450"/>
    <nd ref="343303454"/>
    <nd ref="343303460"/>
    <nd ref="343303461"/>
    <nd ref="343303456"/>
    <nd ref="343303458"/>
    <nd ref="343303464"/>
    <nd ref="343303466"/>
    <nd ref="343303467"/>
    <nd ref="343303465"/>
    <tag k="addr:housenumber" v="49"/>
    <tag k="addr:postcode" v="00-761"/>
    <tag k="addr:street" v="Belwederska"/>
    <tag k="amenity" v="embassy"/>
    <tag k="building" v="yes"/>
    <tag k="name" v="Ambasada Federacji Rosyjskiej"/>
    <tag k="name:en" v="Embassy of the Russian Federation"/>
    <tag k="name:es" v="Embajada de la Federación Rusa"/>
    <tag k="name:ru" v="Посольство России в Польше"/>
  </way>
  <way id="30876478" version="3" timestamp="2009-03-27T20:50:19Z" uid="64578" user="Serpens" changeset="863803">
    <nd ref="343303465"/>
    <nd ref="343303459"/>
    <nd ref="343303457"/>
    <nd ref="343303462"/>
    <nd ref="343303463"/>
    <nd ref="343303455"/>
    <nd ref="343303452"/>
    <nd ref="343303453"/>
    <nd ref="343303469"/>
    <nd ref="343303470"/>
    <nd ref="343303471"/>
    <nd ref="343303468"/>
    <nd ref="343303451"/>
    <nd ref="343303450"/>
    <nd ref="343303454"/>
    <nd ref="343303460"/>
    <nd ref="343303461"/>
    <nd ref="343303456"/>
    <nd ref="343303458"/>
    <nd ref="343303464"/>
    <nd ref="343303466"/>
    <nd ref="343303467"/>
    <nd ref="343303465"/>
    <tag k="addr:housenumber" v="49"/>
    <tag k="addr:postcode" v="00-761"/>
    <tag k="addr:street" v="Belwederska"/>
    <tag k="amenity" v="embassy"/>
    <tag k="building" v="yes"/>
    <tag k="country" v="ru"/>
    <tag k="name" v="Ambasada Federacji Rosyjskiej"/>
    <tag k="name:en" v="Embassy of the Russian Federation"/>
    <tag k="name:es" v="Embajada de la Federación Rusa"/>
    <tag k="name:ru" v="Посольство России в Польше"/>
  </way>
  <way id="30876478" version="4" timestamp="2010-01-03T20:09:41Z" uid="64578" user="Serpens" changeset="3531844">
    <nd ref="343303465"/>
    <nd ref="343303459"/>
    <nd ref="343303457"/>
    <nd ref="343303462"/>
    <nd ref="343303463"/>
    <nd ref="343303455"/>
    <nd ref="343303452"/>
    <nd ref="343303453"/>
    <nd ref="343303469"/>
    <nd ref="343303470"/>
    <nd ref="343303471"/>
    <nd ref="343303468"/>
    <nd ref="343303451"/>
    <nd ref="343303450"/>
    <nd ref="343303454"/>
    <nd ref="343303460"/>
    <nd ref="343303461"/>
    <nd ref="343303456"/>
    <nd ref="343303458"/>
    <nd ref="343303464"/>
    <nd ref="343303466"/>
    <nd ref="343303467"/>
    <nd ref="343303465"/>
    <tag k="addr:housenumber" v="49"/>
    <tag k="addr:postcode" v="00-761"/>
    <tag k="addr:street" v="Belwederska"/>
    <tag k="amenity" v="embassy"/>
    <tag k="building" v="yes"/>
    <tag k="country" v="RU"/>
    <tag k="name" v="Ambasada Federacji Rosyjskiej"/>
    <tag k="name:en" v="Embassy of the Russian Federation"/>
    <tag k="name:es" v="Embajada de la Federación Rusa"/>
    <tag k="name:ru" v="Посольство России в Польше"/>
  </way>
  <way id="30876490" version="3" timestamp="2010-07-07T06:55:18Z" uid="74617" user="JohnSmith" changeset="5156250">
    <nd ref="343303565"/>
    <nd ref="343303566"/>
    <nd ref="343303567"/>
    <nd ref="343303568"/>
    <nd ref="343303569"/>
    <nd ref="343303570"/>
    <nd ref="343303571"/>
    <nd ref="343303572"/>
    <nd ref="343303573"/>
    <tag k="highway" v="residential"/>
    <tag k="maxspeed" v="50"/>
    <tag k="maxspeed:source" v="default residential speed limit in Australia"/>
    <tag k="name" v="Storrs Road"/>
    <tag k="source" v="survey"/>
    <tag k="surface" v="paved"/>
  </way>
  <way id="30876490" version="4" timestamp="2012-01-18T05:25:34Z" uid="147510" user="woodpeck_fixbot" changeset="10424371">
    <nd ref="343303565"/>
    <nd ref="343303566"/>
    <nd ref="343303567"/>
    <nd ref="343303568"/>
    <nd ref="343303569"/>
    <nd ref="343303570"/>
    <nd ref="343303571"/>
    <nd ref="343303572"/>
    <nd ref="343303573"/>
    <tag k="highway" v="residential"/>
    <tag k="name" v="Storrs Road"/>
    <tag k="source" v="survey"/>
    <tag k="surface" v="paved"/>
  </way>
  <way id="30876491" version="2" timestamp="2010-07-07T06:55:35Z" uid="74617" user="JohnSmith" changeset="5156250">
    <nd ref="343302793"/>
    <nd ref="343303564"/>
    <nd ref="343303565"/>
    <tag k="highway" v="residential"/>
    <tag k="maxspeed" v="50"/>
    <tag k="maxspeed:source" v="default residential speed limit in Australia"/>
    <tag k="name" v="Fortune Avenue"/>
    <tag k="source" v="survey"/>
    <tag k="surface" v="paved"/>
  </way>
  <way id="30876491" version="3" timestamp="2012-01-18T05:25:36Z" uid="147510" user="woodpeck_fixbot" changeset="10424371">
    <nd ref="343302793"/>
    <nd ref="343303564"/>
    <nd ref="343303565"/>
    <tag k="highway" v="residential"/>
    <tag k="name" v="Fortune Avenue"/>
    <tag k="source" v="survey"/>
    <tag k="surface" v="paved"/>
  </way>
  <way id="30876492" version="3" timestamp="2010-07-07T06:55:33Z" uid="74617" user="JohnSmith" changeset="5156250">
    <nd ref="343303574"/>
    <nd ref="343303575"/>
    <nd ref="343303576"/>
    <nd ref="343303577"/>
    <nd ref="343303578"/>
    <nd ref="343303580"/>
    <nd ref="343303579"/>
    <tag k="highway" v="residential"/>
    <tag k="maxspeed" v="50"/>
    <tag k="maxspeed:source" v="default residential speed limit in Australia"/>
    <tag k="name" v="Julian Street"/>
    <tag k="source" v="survey"/>
    <tag k="surface" v="paved"/>
  </way>
  <way id="30876492" version="4" timestamp="2012-01-18T05:25:37Z" uid="147510" user="woodpeck_fixbot" changeset="10424371">
    <nd ref="343303574"/>
    <nd ref="343303575"/>
    <nd ref="343303576"/>
    <nd ref="343303577"/>
    <nd ref="343303578"/>
    <nd ref="343303580"/>
    <nd ref="343303579"/>
    <tag k="highway" v="residential"/>
    <tag k="name" v="Julian Street"/>
    <tag k="source" v="survey"/>
    <tag k="surface" v="paved"/>
  </way>
  <way id="30876493" version="2" timestamp="2010-07-07T06:55:21Z" uid="74617" user="JohnSmith" changeset="5156250">
    <nd ref="343303580"/>
    <nd ref="343303581"/>
    <nd ref="343303582"/>
    <tag k="highway" v="residential"/>
    <tag k="maxspeed" v="50"/>
    <tag k="maxspeed:source" v="default residential speed limit in Australia"/>
    <tag k="name" v="Hume Lane"/>
    <tag k="source" v="survey"/>
    <tag k="surface" v="unpaved"/>
  </way>
  <way id="30876493" version="3" timestamp="2012-01-18T05:25:38Z" uid="147510" user="woodpeck_fixbot" changeset="10424371">
    <nd ref="343303580"/>
    <nd ref="343303581"/>
    <nd ref="343303582"/>
    <tag k="highway" v="residential"/>
    <tag k="name" v="Hume Lane"/>
    <tag k="source" v="survey"/>
    <tag k="surface" v="unpaved"/>
  </way>
  <way id="30876494" version="3" timestamp="2010-07-07T06:55:36Z" uid="74617" user="JohnSmith" changeset="5156250">
    <nd ref="343303583"/>
    <nd ref="343303584"/>
    <nd ref="343303585"/>
    <nd ref="343303586"/>
    <nd ref="343303587"/>
    <nd ref="343303588"/>
    <nd ref="343303589"/>
    <nd ref="343303590"/>
    <tag k="highway" v="residential"/>
    <tag k="maxspeed" v="50"/>
    <tag k="maxspeed:source" v="default residential speed limit in Australia"/>
    <tag k="name" v="Taroona Court"/>
    <tag k="source" v="survey"/>
    <tag k="surface" v="paved"/>
  </way>
  <way id="30876494" version="4" timestamp="2012-01-18T05:25:40Z" uid="147510" user="woodpeck_fixbot" changeset="10424371">
    <nd ref="343303583"/>
    <nd ref="343303584"/>
    <nd ref="343303585"/>
    <nd ref="343303586"/>
    <nd ref="343303587"/>
    <nd ref="343303588"/>
    <nd ref="343303589"/>
    <nd ref="343303590"/>
    <tag k="highway" v="residential"/>
    <tag k="name" v="Taroona Court"/>
    <tag k="source" v="survey"/>
    <tag k="surface" v="paved"/>
  </way>
  <way id="30876495" version="3" timestamp="2010-07-07T06:55:25Z" uid="74617" user="JohnSmith" changeset="5156250">
    <nd ref="343303591"/>
    <nd ref="343303592"/>
    <tag k="highway" v="residential"/>
    <tag k="maxspeed" v="50"/>
    <tag k="maxspeed:source" v="default residential speed limit in Australia"/>
    <tag k="name" v="Otto Road"/>
    <tag k="source" v="survey"/>
    <tag k="surface" v="paved"/>
  </way>
  <way id="30876495" version="4" timestamp="2012-01-18T05:25:41Z" uid="147510" user="woodpeck_fixbot" changeset="10424371">
    <nd ref="343303591"/>
    <nd ref="343303592"/>
    <tag k="highway" v="residential"/>
    <tag k="name" v="Otto Road"/>
    <tag k="source" v="survey"/>
    <tag k="surface" v="paved"/>
  </way>
  <way id="30876499" version="1" timestamp="2009-02-08T04:34:27Z" uid="20587" user="balrog-kun" changeset="270015">
    <nd ref="343303623"/>
    <nd ref="343303622"/>
    <nd ref="343303621"/>
    <nd ref="343303620"/>
    <nd ref="343303619"/>
    <nd ref="343303618"/>
    <nd ref="343303634"/>
    <nd ref="254700145"/>
    <nd ref="26485616"/>
    <tag k="created_by" v="JOSM"/>
    <tag k="highway" v="secondary"/>
    <tag k="oneway" v="yes"/>
  </way>
  <way id="30876500" version="1" timestamp="2009-02-08T04:34:27Z" uid="20587" user="balrog-kun" changeset="270015">
    <nd ref="334557099"/>
    <nd ref="343303624"/>
    <nd ref="343303625"/>
    <nd ref="343303626"/>
    <nd ref="343303627"/>
    <nd ref="343303621"/>
    <nd ref="343303628"/>
    <tag k="highway" v="tertiary"/>
    <tag k="oneway" v="yes"/>
  </way>
  <way id="30876501" version="1" timestamp="2009-02-08T04:34:27Z" uid="20587" user="balrog-kun" changeset="270015">
    <nd ref="343303629"/>
    <nd ref="343303630"/>
    <nd ref="343303631"/>
    <nd ref="343303632"/>
    <nd ref="343303633"/>
    <tag k="highway" v="service"/>
  </way>
  <way id="30876501" version="2" timestamp="2011-02-18T20:16:38Z" uid="98542" user="wajak" changeset="7326004">
    <nd ref="1159768634"/>
    <nd ref="1159768618"/>
    <nd ref="1159768638"/>
    <nd ref="1159768613"/>
    <nd ref="343303629"/>
    <nd ref="343303630"/>
    <nd ref="343303631"/>
    <nd ref="343303632"/>
    <nd ref="343303633"/>
    <tag k="highway" v="service"/>
  </way>
  <way id="30876513" version="1" timestamp="2009-02-08T04:37:06Z" uid="20587" user="balrog-kun" changeset="270015">
    <nd ref="343303781"/>
    <nd ref="343303783"/>
    <nd ref="343303785"/>
    <nd ref="343303791"/>
    <nd ref="343303792"/>
    <nd ref="343303786"/>
    <nd ref="343303784"/>
    <nd ref="343303782"/>
    <nd ref="343303787"/>
    <nd ref="343303789"/>
    <nd ref="343303790"/>
    <nd ref="343303788"/>
    <nd ref="343303781"/>
    <tag k="addr:housenumber" v="1"/>
    <tag k="addr:street" v="Klonowa"/>
    <tag k="building" v="yes"/>
    <tag k="name" v="Ministerstwo Obrony Narodowej"/>
    <tag k="name:en" v="Ministry of Defense"/>
    <tag k="name:es" v="Ministerio de Defensa Nacional"/>
  </way>
  <way id="30876534" version="3" timestamp="2011-01-11T05:07:07Z" uid="4467" user="Rosscoe" changeset="6933451">
    <nd ref="1097691727"/>
    <nd ref="170140870"/>
    <nd ref="343304012"/>
    <nd ref="343304013"/>
    <nd ref="343304014"/>
    <nd ref="343304015"/>
    <nd ref="343304016"/>
    <nd ref="343304017"/>
    <nd ref="343304018"/>
    <nd ref="343304019"/>
    <nd ref="343304020"/>
    <nd ref="343304021"/>
    <nd ref="343304022"/>
    <nd ref="343304023"/>
    <nd ref="343304024"/>
    <nd ref="343304025"/>
    <nd ref="343304026"/>
    <nd ref="343304027"/>
    <nd ref="343304028"/>
    <nd ref="343304029"/>
    <tag k="highway" v="residential"/>
  </way>
  <way id="30876534" version="4" timestamp="2011-01-17T08:05:08Z" uid="310765" user="Zamias" changeset="6996760">
    <nd ref="1097691727"/>
    <nd ref="170140870"/>
    <nd ref="343304012"/>
    <nd ref="343304013"/>
    <nd ref="343304014"/>
    <nd ref="343304015"/>
    <nd ref="343304016"/>
    <nd ref="343304017"/>
    <nd ref="343304018"/>
    <nd ref="343304019"/>
    <nd ref="343304020"/>
    <nd ref="343304021"/>
    <nd ref="343304022"/>
    <nd ref="343304023"/>
    <nd ref="343304024"/>
    <nd ref="343304025"/>
    <nd ref="343304026"/>
    <nd ref="343304027"/>
    <nd ref="343304028"/>
    <nd ref="343304029"/>
    <tag k="highway" v="residential"/>
    <tag k="name" v="Dundee Street"/>
  </way>
  <way id="30876539" version="5" timestamp="2010-03-28T00:59:38Z" uid="20587" user="balrog-kun" changeset="4250871">
    <nd ref="92594252"/>
    <nd ref="91314612"/>
    <nd ref="92594264"/>
    <nd ref="92594267"/>
    <nd ref="92594269"/>
    <nd ref="92594271"/>
    <nd ref="92594274"/>
    <nd ref="92594276"/>
    <nd ref="92594281"/>
    <nd ref="92594284"/>
    <nd ref="92594287"/>
    <nd ref="91678066"/>
    <nd ref="92594289"/>
    <nd ref="92594292"/>
    <nd ref="92594294"/>
    <nd ref="92594296"/>
    <nd ref="92594299"/>
    <nd ref="92594301"/>
    <nd ref="92594303"/>
    <nd ref="92594306"/>
    <nd ref="92594307"/>
    <nd ref="92594310"/>
    <nd ref="92594312"/>
    <nd ref="92594314"/>
    <nd ref="92594317"/>
    <nd ref="92594319"/>
    <nd ref="92594321"/>
    <nd ref="92594322"/>
    <nd ref="92594324"/>
    <nd ref="92594325"/>
    <nd ref="92594327"/>
    <nd ref="92594328"/>
    <nd ref="92594330"/>
    <nd ref="92594332"/>
    <nd ref="92594333"/>
    <nd ref="92594335"/>
    <nd ref="91365396"/>
    <nd ref="92594337"/>
    <nd ref="92594339"/>
    <nd ref="92594342"/>
    <nd ref="92594345"/>
    <nd ref="92594348"/>
    <nd ref="92594351"/>
    <nd ref="92594354"/>
    <nd ref="92594356"/>
    <nd ref="92594359"/>
    <nd ref="92594364"/>
    <nd ref="92594369"/>
    <nd ref="92594373"/>
    <nd ref="92594376"/>
    <nd ref="92594378"/>
    <nd ref="92594382"/>
    <nd ref="92594385"/>
    <nd ref="92594387"/>
    <nd ref="92594389"/>
    <nd ref="92594391"/>
    <nd ref="92594393"/>
    <nd ref="92594395"/>
    <nd ref="92594396"/>
    <nd ref="92594397"/>
    <nd ref="92594398"/>
    <nd ref="92594399"/>
    <nd ref="92594400"/>
    <nd ref="92594401"/>
    <nd ref="92594402"/>
    <nd ref="92594403"/>
    <nd ref="92594404"/>
    <nd ref="92594405"/>
    <nd ref="92594406"/>
    <nd ref="92594407"/>
    <nd ref="92594408"/>
    <nd ref="92594409"/>
    <nd ref="92594410"/>
    <nd ref="92594411"/>
    <nd ref="92594412"/>
    <nd ref="92594413"/>
    <nd ref="92594414"/>
    <nd ref="92594415"/>
    <nd ref="92594416"/>
    <nd ref="92594417"/>
    <nd ref="92594418"/>
    <nd ref="92594419"/>
    <nd ref="92594420"/>
    <nd ref="92594422"/>
    <nd ref="92594424"/>
    <nd ref="92594425"/>
    <nd ref="92594428"/>
    <nd ref="92594431"/>
    <nd ref="92594433"/>
    <nd ref="92594437"/>
    <nd ref="92594439"/>
    <nd ref="92594441"/>
    <nd ref="92594443"/>
    <nd ref="92594445"/>
    <nd ref="92594446"/>
    <nd ref="92594449"/>
    <nd ref="92594451"/>
    <nd ref="92198118"/>
    <nd ref="92594453"/>
    <nd ref="92594456"/>
    <nd ref="92594460"/>
    <nd ref="92594467"/>
    <nd ref="92594471"/>
    <nd ref="92594474"/>
    <nd ref="92594477"/>
    <nd ref="92594479"/>
    <nd ref="92594483"/>
    <nd ref="92594486"/>
    <nd ref="92594487"/>
    <nd ref="92594489"/>
    <nd ref="92594493"/>
    <nd ref="92277366"/>
    <nd ref="92594496"/>
    <nd ref="92594497"/>
    <nd ref="92594500"/>
    <nd ref="92594503"/>
    <nd ref="92594506"/>
    <nd ref="92594509"/>
    <nd ref="92594512"/>
    <nd ref="92594515"/>
    <nd ref="92594518"/>
    <nd ref="92594522"/>
    <nd ref="92594525"/>
    <nd ref="92594528"/>
    <nd ref="92594531"/>
    <nd ref="91706697"/>
    <nd ref="92594535"/>
    <nd ref="92594537"/>
    <nd ref="92594539"/>
    <nd ref="92594541"/>
    <nd ref="92594543"/>
    <nd ref="92594545"/>
    <nd ref="92594547"/>
    <nd ref="92594549"/>
    <nd ref="92594551"/>
    <nd ref="92594553"/>
    <nd ref="92594555"/>
    <nd ref="92594557"/>
    <nd ref="92594559"/>
    <nd ref="92594560"/>
    <nd ref="92594563"/>
    <nd ref="92594565"/>
    <nd ref="92594567"/>
    <nd ref="92594569"/>
    <nd ref="92594571"/>
    <nd ref="92594573"/>
    <nd ref="92594575"/>
    <nd ref="92594577"/>
    <nd ref="92594579"/>
    <nd ref="92594581"/>
    <nd ref="92594583"/>
    <nd ref="92594585"/>
    <nd ref="92594587"/>
    <nd ref="92594590"/>
    <nd ref="92594592"/>
    <nd ref="92594594"/>
    <nd ref="92594597"/>
    <nd ref="92594599"/>
    <nd ref="92594601"/>
    <nd ref="92594602"/>
    <nd ref="92594606"/>
    <nd ref="92594608"/>
    <nd ref="92594611"/>
    <nd ref="92594615"/>
    <nd ref="92594618"/>
    <nd ref="92594621"/>
    <nd ref="91749333"/>
    <nd ref="91238889"/>
    <nd ref="91820111"/>
    <nd ref="92404780"/>
    <nd ref="92594633"/>
    <nd ref="92594642"/>
    <nd ref="92224973"/>
    <nd ref="92594645"/>
    <nd ref="92594649"/>
    <nd ref="92594652"/>
    <nd ref="92594654"/>
    <nd ref="92594656"/>
    <nd ref="92594657"/>
    <nd ref="92594659"/>
    <nd ref="92594661"/>
    <nd ref="92594663"/>
    <nd ref="92594665"/>
    <nd ref="92594668"/>
    <nd ref="92570789"/>
    <nd ref="92594671"/>
    <nd ref="92594672"/>
    <nd ref="92594674"/>
    <nd ref="92594218"/>
    <nd ref="92594679"/>
    <nd ref="92235016"/>
    <nd ref="91916056"/>
    <nd ref="92074920"/>
    <nd ref="92506522"/>
    <nd ref="91879819"/>
    <nd ref="92566470"/>
    <nd ref="92111169"/>
    <nd ref="91719069"/>
    <nd ref="92594681"/>
    <nd ref="91900533"/>
    <nd ref="92197952"/>
    <nd ref="92594682"/>
    <nd ref="92594685"/>
    <nd ref="92140351"/>
    <nd ref="92205958"/>
    <nd ref="92294121"/>
    <nd ref="92594689"/>
    <nd ref="92594692"/>
    <nd ref="91347202"/>
    <tag k="created_by" v="Potlatch 0.10f"/>
    <tag k="highway" v="primary"/>
    <tag k="name" v="State Route 299  East"/>
    <tag k="ref" v="CA 299"/>
    <tag k="tiger:cfcc" v="A31"/>
    <tag k="tiger:county" v="Shasta, CA"/>
    <tag k="tiger:name_base" v="State Route 299"/>
    <tag k="tiger:name_direction_suffix" v="E"/>
    <tag k="tiger:reviewed" v="no"/>
    <tag k="tiger:separated" v="no"/>
    <tag k="tiger:source" v="tiger_import_dch_v0.6_20070809"/>
    <tag k="tiger:tlid" v="126717823:126717825:126717826:126717827:126717828:126717819:126718381:126718382:126718383:126717831:126717832"/>
  </way>
  <way id="30876539" version="6" timestamp="2010-11-03T04:17:10Z" uid="354862" user="UberHiker" changeset="6273163">
    <nd ref="92594252"/>
    <nd ref="91314612"/>
    <nd ref="92594264"/>
    <nd ref="92594267"/>
    <nd ref="92594269"/>
    <nd ref="92594271"/>
    <nd ref="92594274"/>
    <nd ref="92594276"/>
    <nd ref="92594281"/>
    <nd ref="92594284"/>
    <nd ref="92594287"/>
    <nd ref="91678066"/>
    <nd ref="92594289"/>
    <nd ref="92594292"/>
    <nd ref="92594294"/>
    <nd ref="92594296"/>
    <nd ref="92594299"/>
    <nd ref="92594301"/>
    <nd ref="92594303"/>
    <nd ref="92594306"/>
    <nd ref="92594307"/>
    <nd ref="92594310"/>
    <nd ref="92594312"/>
    <nd ref="92594314"/>
    <nd ref="92594317"/>
    <nd ref="92594319"/>
    <nd ref="92594321"/>
    <nd ref="92594322"/>
    <nd ref="92594324"/>
    <nd ref="92594325"/>
    <nd ref="92594327"/>
    <nd ref="92594328"/>
    <nd ref="92594330"/>
    <nd ref="92594332"/>
    <nd ref="92594333"/>
    <nd ref="92594335"/>
    <nd ref="91365396"/>
    <nd ref="92594337"/>
    <nd ref="92594339"/>
    <nd ref="92594342"/>
    <nd ref="92594345"/>
    <nd ref="92594348"/>
    <nd ref="92594351"/>
    <nd ref="92594354"/>
    <nd ref="92594356"/>
    <nd ref="92594359"/>
    <nd ref="92594364"/>
    <nd ref="92594369"/>
    <nd ref="92594373"/>
    <nd ref="92594376"/>
    <nd ref="92594378"/>
    <nd ref="92594382"/>
    <nd ref="92594385"/>
    <nd ref="92594387"/>
    <nd ref="92594389"/>
    <nd ref="92594391"/>
    <nd ref="92594393"/>
    <nd ref="92594395"/>
    <nd ref="92594396"/>
    <nd ref="92594397"/>
    <nd ref="92594398"/>
    <nd ref="92594399"/>
    <nd ref="92594400"/>
    <nd ref="92594401"/>
    <nd ref="92594402"/>
    <nd ref="92594403"/>
    <nd ref="92594404"/>
    <nd ref="92594405"/>
    <nd ref="92594406"/>
    <nd ref="92594407"/>
    <nd ref="92594408"/>
    <nd ref="92594409"/>
    <nd ref="92594410"/>
    <nd ref="92594411"/>
    <nd ref="92594412"/>
    <nd ref="92594413"/>
    <nd ref="92594414"/>
    <nd ref="92594415"/>
    <nd ref="92594416"/>
    <nd ref="92594417"/>
    <nd ref="92594418"/>
    <nd ref="92594419"/>
    <nd ref="92594420"/>
    <nd ref="92594422"/>
    <nd ref="92594424"/>
    <nd ref="92594425"/>
    <nd ref="92594428"/>
    <nd ref="92594431"/>
    <nd ref="92594433"/>
    <nd ref="92594437"/>
    <nd ref="92594439"/>
    <nd ref="92594441"/>
    <nd ref="92594443"/>
    <nd ref="92594445"/>
    <nd ref="92594446"/>
    <nd ref="92594449"/>
    <nd ref="92594451"/>
    <nd ref="92198118"/>
    <nd ref="92594453"/>
    <nd ref="92594456"/>
    <nd ref="92594460"/>
    <nd ref="92594467"/>
    <nd ref="92594471"/>
    <nd ref="92594474"/>
    <nd ref="92594477"/>
    <nd ref="92594479"/>
    <nd ref="92594483"/>
    <nd ref="92594486"/>
    <nd ref="975569331"/>
    <nd ref="92594487"/>
    <nd ref="92594489"/>
    <nd ref="92594493"/>
    <nd ref="92277366"/>
    <nd ref="92594496"/>
    <nd ref="92594497"/>
    <nd ref="92594500"/>
    <nd ref="92594503"/>
    <nd ref="92594506"/>
    <nd ref="92594509"/>
    <nd ref="92594512"/>
    <nd ref="92594515"/>
    <nd ref="92594518"/>
    <nd ref="92594522"/>
    <nd ref="92594525"/>
    <nd ref="92594528"/>
    <nd ref="92594531"/>
    <nd ref="91706697"/>
    <nd ref="92594535"/>
    <nd ref="92594537"/>
    <nd ref="92594539"/>
    <nd ref="92594541"/>
    <nd ref="92594543"/>
    <nd ref="92594545"/>
    <nd ref="92594547"/>
    <nd ref="92594549"/>
    <nd ref="92594551"/>
    <nd ref="92594553"/>
    <nd ref="92594555"/>
    <nd ref="92594557"/>
    <nd ref="92594559"/>
    <nd ref="92594560"/>
    <nd ref="92594563"/>
    <nd ref="92594565"/>
    <nd ref="92594567"/>
    <nd ref="92594569"/>
    <nd ref="92594571"/>
    <nd ref="92594573"/>
    <nd ref="92594575"/>
    <nd ref="92594577"/>
    <nd ref="92594579"/>
    <nd ref="92594581"/>
    <nd ref="92594583"/>
    <nd ref="92594585"/>
    <nd ref="92594587"/>
    <nd ref="92594590"/>
    <nd ref="92594592"/>
    <nd ref="92594594"/>
    <nd ref="92594597"/>
    <nd ref="92594599"/>
    <nd ref="92594601"/>
    <nd ref="92594602"/>
    <nd ref="92594606"/>
    <nd ref="92594608"/>
    <nd ref="92594611"/>
    <nd ref="92594615"/>
    <nd ref="92594618"/>
    <nd ref="92594621"/>
    <nd ref="91749333"/>
    <nd ref="91238889"/>
    <nd ref="91820111"/>
    <nd ref="92404780"/>
    <nd ref="92594633"/>
    <nd ref="92594642"/>
    <nd ref="92224973"/>
    <nd ref="92594645"/>
    <nd ref="92594649"/>
    <nd ref="92594652"/>
    <nd ref="92594654"/>
    <nd ref="92594656"/>
    <nd ref="92594657"/>
    <nd ref="92594659"/>
    <nd ref="92594661"/>
    <nd ref="92594663"/>
    <nd ref="92594665"/>
    <nd ref="92594668"/>
    <nd ref="92570789"/>
    <nd ref="92594671"/>
    <nd ref="92594672"/>
    <nd ref="92594674"/>
    <nd ref="92594218"/>
    <nd ref="92594679"/>
    <nd ref="92235016"/>
    <nd ref="91916056"/>
    <nd ref="92074920"/>
    <nd ref="92506522"/>
    <nd ref="91879819"/>
    <nd ref="92566470"/>
    <nd ref="92111169"/>
    <nd ref="91719069"/>
    <nd ref="92594681"/>
    <nd ref="91900533"/>
    <nd ref="92197952"/>
    <nd ref="92594682"/>
    <nd ref="92594685"/>
    <nd ref="92140351"/>
    <nd ref="92205958"/>
    <nd ref="92294121"/>
    <nd ref="92594689"/>
    <nd ref="92594692"/>
    <nd ref="91347202"/>
    <tag k="highway" v="primary"/>
    <tag k="name" v="State Route 299  East"/>
    <tag k="ref" v="CA 299"/>
    <tag k="tiger:cfcc" v="A31"/>
    <tag k="tiger:county" v="Shasta, CA"/>
    <tag k="tiger:name_base" v="State Route 299"/>
    <tag k="tiger:name_direction_suffix" v="E"/>
    <tag k="tiger:reviewed" v="no"/>
    <tag k="tiger:separated" v="no"/>
    <tag k="tiger:source" v="tiger_import_dch_v0.6_20070809"/>
    <tag k="tiger:tlid" v="126717823:126717825:126717826:126717827:126717828:126717819:126718381:126718382:126718383:126717831:126717832"/>
  </way>
  <way id="30876539" version="7" timestamp="2011-06-29T15:37:15Z" uid="473471" user="NE3" changeset="8582071">
    <nd ref="92594252"/>
    <nd ref="91314612"/>
    <nd ref="92594264"/>
    <nd ref="92594267"/>
    <nd ref="92594269"/>
    <nd ref="92594271"/>
    <nd ref="92594274"/>
    <nd ref="92594276"/>
    <nd ref="92594281"/>
    <nd ref="92594284"/>
    <nd ref="92594287"/>
    <nd ref="91678066"/>
    <nd ref="92594289"/>
    <nd ref="92594292"/>
    <nd ref="92594294"/>
    <nd ref="92594296"/>
    <nd ref="92594299"/>
    <nd ref="92594301"/>
    <nd ref="92594303"/>
    <nd ref="92594306"/>
    <nd ref="92594307"/>
    <nd ref="92594310"/>
    <nd ref="92594312"/>
    <nd ref="92594314"/>
    <nd ref="92594317"/>
    <nd ref="92594319"/>
    <nd ref="92594321"/>
    <nd ref="92594322"/>
    <nd ref="92594324"/>
    <nd ref="92594325"/>
    <nd ref="92594327"/>
    <nd ref="92594328"/>
    <nd ref="92594330"/>
    <nd ref="92594332"/>
    <nd ref="92594333"/>
    <nd ref="92594335"/>
    <nd ref="91365396"/>
    <nd ref="92594337"/>
    <nd ref="92594339"/>
    <nd ref="92594342"/>
    <nd ref="92594345"/>
    <nd ref="92594348"/>
    <nd ref="92594351"/>
    <nd ref="92594354"/>
    <nd ref="92594356"/>
    <nd ref="92594359"/>
    <nd ref="92594364"/>
    <nd ref="92594369"/>
    <nd ref="92594373"/>
    <nd ref="92594376"/>
    <nd ref="92594378"/>
    <nd ref="92594382"/>
    <nd ref="92594385"/>
    <nd ref="92594387"/>
    <nd ref="92594389"/>
    <nd ref="92594391"/>
    <nd ref="92594393"/>
    <nd ref="92594395"/>
    <nd ref="92594396"/>
    <nd ref="92594397"/>
    <nd ref="92594398"/>
    <nd ref="92594399"/>
    <nd ref="92594400"/>
    <nd ref="92594401"/>
    <nd ref="92594402"/>
    <nd ref="92594403"/>
    <nd ref="92594404"/>
    <nd ref="92594405"/>
    <nd ref="92594406"/>
    <nd ref="92594407"/>
    <nd ref="92594408"/>
    <nd ref="92594409"/>
    <nd ref="92594410"/>
    <nd ref="92594411"/>
    <nd ref="92594412"/>
    <nd ref="92594413"/>
    <nd ref="92594414"/>
    <nd ref="92594415"/>
    <nd ref="92594416"/>
    <nd ref="92594417"/>
    <nd ref="92594418"/>
    <nd ref="92594419"/>
    <nd ref="92594420"/>
    <nd ref="92594422"/>
    <nd ref="92594424"/>
    <nd ref="92594425"/>
    <nd ref="92594428"/>
    <nd ref="92594431"/>
    <nd ref="92594433"/>
    <nd ref="92594437"/>
    <nd ref="92594439"/>
    <nd ref="92594441"/>
    <nd ref="92594443"/>
    <nd ref="92594445"/>
    <nd ref="92594446"/>
    <nd ref="92594449"/>
    <nd ref="92594451"/>
    <nd ref="92198118"/>
    <nd ref="92594453"/>
    <nd ref="92594456"/>
    <nd ref="92594460"/>
    <nd ref="92594467"/>
    <nd ref="92594471"/>
    <nd ref="92594474"/>
    <nd ref="92594477"/>
    <nd ref="92594479"/>
    <nd ref="92594483"/>
    <nd ref="92594486"/>
    <nd ref="975569331"/>
    <nd ref="92594487"/>
    <nd ref="92594489"/>
    <nd ref="92594493"/>
    <nd ref="92277366"/>
    <nd ref="92594496"/>
    <nd ref="92594497"/>
    <nd ref="92594500"/>
    <nd ref="92594503"/>
    <nd ref="92594506"/>
    <nd ref="92594509"/>
    <nd ref="92594512"/>
    <nd ref="92594515"/>
    <nd ref="92594518"/>
    <nd ref="92594522"/>
    <nd ref="92594525"/>
    <nd ref="92594528"/>
    <nd ref="92594531"/>
    <nd ref="91706697"/>
    <nd ref="92594535"/>
    <nd ref="92594537"/>
    <nd ref="92594539"/>
    <nd ref="92594541"/>
    <nd ref="92594543"/>
    <nd ref="92594545"/>
    <nd ref="92594547"/>
    <nd ref="92594549"/>
    <nd ref="92594551"/>
    <nd ref="92594553"/>
    <nd ref="92594555"/>
    <nd ref="92594557"/>
    <nd ref="92594559"/>
    <nd ref="92594560"/>
    <nd ref="92594563"/>
    <nd ref="92594565"/>
    <nd ref="92594567"/>
    <nd ref="92594569"/>
    <nd ref="92594571"/>
    <nd ref="92594573"/>
    <nd ref="92594575"/>
    <nd ref="92594577"/>
    <nd ref="92594579"/>
    <nd ref="92594581"/>
    <nd ref="92594583"/>
    <nd ref="92594585"/>
    <nd ref="92594587"/>
    <nd ref="92594590"/>
    <nd ref="92594592"/>
    <nd ref="92594594"/>
    <nd ref="92594597"/>
    <nd ref="92594599"/>
    <nd ref="92594601"/>
    <nd ref="92594602"/>
    <nd ref="92594606"/>
    <nd ref="92594608"/>
    <nd ref="92594611"/>
    <nd ref="92594615"/>
    <nd ref="92594618"/>
    <nd ref="92594621"/>
    <nd ref="91749333"/>
    <nd ref="91238889"/>
    <nd ref="91820111"/>
    <nd ref="92404780"/>
    <nd ref="92594633"/>
    <nd ref="92594642"/>
    <nd ref="92224973"/>
    <nd ref="92594645"/>
    <nd ref="92594649"/>
    <nd ref="92594652"/>
    <nd ref="92594654"/>
    <nd ref="92594656"/>
    <nd ref="92594657"/>
    <nd ref="92594659"/>
    <nd ref="92594661"/>
    <nd ref="92594663"/>
    <nd ref="92594665"/>
    <nd ref="92594668"/>
    <nd ref="92570789"/>
    <nd ref="92594671"/>
    <nd ref="92594672"/>
    <nd ref="92594674"/>
    <nd ref="92594218"/>
    <nd ref="92594679"/>
    <nd ref="92235016"/>
    <nd ref="91916056"/>
    <nd ref="92074920"/>
    <nd ref="92506522"/>
    <nd ref="91879819"/>
    <nd ref="92566470"/>
    <nd ref="92111169"/>
    <nd ref="91719069"/>
    <nd ref="92594681"/>
    <nd ref="91900533"/>
    <nd ref="92197952"/>
    <nd ref="92594682"/>
    <nd ref="92594685"/>
    <nd ref="92140351"/>
    <nd ref="92205958"/>
    <nd ref="92294121"/>
    <nd ref="92594689"/>
    <nd ref="92594692"/>
    <nd ref="91347202"/>
    <tag k="highway" v="primary"/>
    <tag k="lanes" v="2"/>
    <tag k="ref" v="CA 299"/>
    <tag k="tiger:cfcc" v="A31"/>
    <tag k="tiger:county" v="Shasta, CA"/>
    <tag k="tiger:name_base" v="State Route 299"/>
    <tag k="tiger:name_direction_suffix" v="E"/>
    <tag k="tiger:reviewed" v="no"/>
    <tag k="tiger:separated" v="no"/>
    <tag k="tiger:source" v="tiger_import_dch_v0.6_20070809"/>
    <tag k="tiger:tlid" v="126717823:126717825:126717826:126717827:126717828:126717819:126718381:126718382:126718383:126717831:126717832"/>
  </way>
  <way id="30876539" version="8" timestamp="2011-08-28T22:31:55Z" uid="207745" user="NE2" changeset="9152642">
    <nd ref="92594252"/>
    <nd ref="91314612"/>
    <nd ref="92594264"/>
    <nd ref="92594267"/>
    <nd ref="92594269"/>
    <nd ref="92594271"/>
    <nd ref="92594274"/>
    <nd ref="92594276"/>
    <nd ref="92594281"/>
    <nd ref="92594284"/>
    <nd ref="92594287"/>
    <nd ref="91678066"/>
    <nd ref="92594289"/>
    <nd ref="92594292"/>
    <nd ref="92594294"/>
    <nd ref="92594296"/>
    <nd ref="92594299"/>
    <nd ref="92594301"/>
    <nd ref="92594303"/>
    <nd ref="92594306"/>
    <nd ref="92594307"/>
    <nd ref="92594310"/>
    <nd ref="92594312"/>
    <nd ref="92594314"/>
    <nd ref="92594317"/>
    <nd ref="92594319"/>
    <nd ref="92594321"/>
    <nd ref="92594322"/>
    <nd ref="92594324"/>
    <nd ref="92594325"/>
    <nd ref="92594327"/>
    <nd ref="92594328"/>
    <nd ref="92594330"/>
    <nd ref="92594332"/>
    <nd ref="92594333"/>
    <nd ref="92594335"/>
    <nd ref="91365396"/>
    <nd ref="92594337"/>
    <nd ref="92594339"/>
    <nd ref="92594342"/>
    <nd ref="92594345"/>
    <nd ref="92594348"/>
    <nd ref="92594351"/>
    <nd ref="92594354"/>
    <nd ref="92594356"/>
    <nd ref="92594359"/>
    <nd ref="92594364"/>
    <nd ref="92594369"/>
    <nd ref="92594373"/>
    <nd ref="92594376"/>
    <nd ref="92594378"/>
    <nd ref="92594382"/>
    <nd ref="92594385"/>
    <nd ref="92594387"/>
    <nd ref="92594389"/>
    <nd ref="92594391"/>
    <nd ref="92594393"/>
    <nd ref="92594395"/>
    <nd ref="92594396"/>
    <nd ref="92594397"/>
    <nd ref="92594398"/>
    <nd ref="92594399"/>
    <nd ref="92594400"/>
    <nd ref="92594401"/>
    <nd ref="92594402"/>
    <nd ref="92594403"/>
    <nd ref="92594404"/>
    <nd ref="92594405"/>
    <nd ref="92594406"/>
    <nd ref="92594407"/>
    <nd ref="92594408"/>
    <nd ref="92594409"/>
    <nd ref="92594410"/>
    <nd ref="92594411"/>
    <nd ref="92594412"/>
    <nd ref="92594413"/>
    <nd ref="92594414"/>
    <nd ref="92594415"/>
    <nd ref="92594416"/>
    <nd ref="92594417"/>
    <nd ref="92594418"/>
    <nd ref="92594419"/>
    <nd ref="92594420"/>
    <nd ref="92594422"/>
    <nd ref="92594424"/>
    <nd ref="92594425"/>
    <nd ref="92594428"/>
    <nd ref="92594431"/>
    <nd ref="92594433"/>
    <nd ref="92594437"/>
    <nd ref="92594439"/>
    <nd ref="92594441"/>
    <nd ref="92594443"/>
    <nd ref="92594445"/>
    <nd ref="92594446"/>
    <nd ref="92594449"/>
    <nd ref="92594451"/>
    <nd ref="92198118"/>
    <nd ref="92594453"/>
    <nd ref="92594456"/>
    <nd ref="92594460"/>
    <nd ref="92594467"/>
    <nd ref="92594471"/>
    <nd ref="92594474"/>
    <nd ref="92594477"/>
    <nd ref="92594479"/>
    <nd ref="92594483"/>
    <nd ref="92594486"/>
    <nd ref="975569331"/>
    <nd ref="92594487"/>
    <nd ref="92594489"/>
    <nd ref="92594493"/>
    <nd ref="92277366"/>
    <nd ref="92594496"/>
    <nd ref="92594497"/>
    <nd ref="92594500"/>
    <nd ref="92594503"/>
    <nd ref="92594506"/>
    <nd ref="92594509"/>
    <nd ref="92594512"/>
    <nd ref="92594515"/>
    <nd ref="92594518"/>
    <nd ref="92594522"/>
    <nd ref="92594525"/>
    <nd ref="92594528"/>
    <nd ref="92594531"/>
    <nd ref="91706697"/>
    <nd ref="92594535"/>
    <nd ref="92594537"/>
    <nd ref="92594539"/>
    <nd ref="92594541"/>
    <nd ref="92594543"/>
    <nd ref="92594545"/>
    <nd ref="92594547"/>
    <nd ref="92594549"/>
    <nd ref="92594551"/>
    <nd ref="92594553"/>
    <nd ref="92594555"/>
    <nd ref="92594557"/>
    <nd ref="92594559"/>
    <nd ref="92594560"/>
    <nd ref="92594563"/>
    <nd ref="92594565"/>
    <nd ref="92594567"/>
    <nd ref="92594569"/>
    <nd ref="92594571"/>
    <nd ref="92594573"/>
    <nd ref="92594575"/>
    <nd ref="92594577"/>
    <nd ref="92594579"/>
    <nd ref="92594581"/>
    <nd ref="92594583"/>
    <nd ref="92594585"/>
    <nd ref="92594587"/>
    <nd ref="92594590"/>
    <nd ref="92594592"/>
    <nd ref="92594594"/>
    <nd ref="92594597"/>
    <nd ref="92594599"/>
    <nd ref="92594601"/>
    <nd ref="92594602"/>
    <nd ref="92594606"/>
    <nd ref="92594608"/>
    <nd ref="92594611"/>
    <nd ref="92594615"/>
    <nd ref="92594618"/>
    <nd ref="92594621"/>
    <nd ref="91749333"/>
    <nd ref="91238889"/>
    <nd ref="91820111"/>
    <nd ref="92404780"/>
    <nd ref="92594633"/>
    <nd ref="92594642"/>
    <nd ref="92224973"/>
    <nd ref="92594645"/>
    <nd ref="92594649"/>
    <nd ref="92594652"/>
    <nd ref="92594654"/>
    <nd ref="92594656"/>
    <nd ref="92594657"/>
    <nd ref="92594659"/>
    <nd ref="92594661"/>
    <nd ref="92594663"/>
    <nd ref="92594665"/>
    <nd ref="92594668"/>
    <nd ref="92570789"/>
    <nd ref="92594671"/>
    <nd ref="92594672"/>
    <nd ref="92594674"/>
    <nd ref="92594218"/>
    <nd ref="92594679"/>
    <nd ref="92235016"/>
    <nd ref="91916056"/>
    <nd ref="92074920"/>
    <nd ref="92506522"/>
    <nd ref="91879819"/>
    <nd ref="92566470"/>
    <nd ref="92111169"/>
    <nd ref="91719069"/>
    <nd ref="92594681"/>
    <nd ref="91900533"/>
    <nd ref="92197952"/>
    <nd ref="92594682"/>
    <nd ref="92594685"/>
    <nd ref="92140351"/>
    <nd ref="92205958"/>
    <nd ref="92294121"/>
    <nd ref="92594689"/>
    <nd ref="92594692"/>
    <nd ref="91347202"/>
    <tag k="highway" v="primary"/>
    <tag k="lanes" v="2"/>
    <tag k="old_ref" v="US 299"/>
    <tag k="ref" v="CA 299"/>
    <tag k="tiger:cfcc" v="A31"/>
    <tag k="tiger:county" v="Shasta, CA"/>
    <tag k="tiger:name_base" v="State Route 299"/>
    <tag k="tiger:name_direction_suffix" v="E"/>
    <tag k="tiger:reviewed" v="no"/>
    <tag k="tiger:separated" v="no"/>
    <tag k="tiger:source" v="tiger_import_dch_v0.6_20070809"/>
    <tag k="tiger:tlid" v="126717823:126717825:126717826:126717827:126717828:126717819:126718381:126718382:126718383:126717831:126717832"/>
  </way>
  <way id="30876559" version="2" timestamp="2009-12-03T20:29:42Z" uid="23543" user="jkjk" changeset="3283809">
    <nd ref="276576574"/>
    <nd ref="579992357"/>
    <nd ref="276576575"/>
    <nd ref="276576577"/>
    <nd ref="291134451"/>
    <tag k="highway" v="tertiary"/>
    <tag k="ref" v="11533"/>
    <tag k="source" v="uhul:ortofoto"/>
    <tag k="source:ref" v="rsd_cr"/>
  </way>
  <way id="30876559" version="3" timestamp="2009-12-03T20:37:01Z" uid="23543" user="jkjk" changeset="3283809">
    <nd ref="276576574"/>
    <nd ref="579992357"/>
    <nd ref="276576575"/>
    <nd ref="276576577"/>
    <nd ref="291134451"/>
    <tag k="highway" v="tertiary"/>
    <tag k="ref" v="11533"/>
    <tag k="source" v="uhul:ortofoto"/>
    <tag k="source:ref" v="rsd_cr"/>
  </way>
  <way id="30876569" version="2" timestamp="2009-08-03T02:49:11Z" uid="4467" user="Rosscoe" changeset="2021038">
    <nd ref="47931665"/>
    <nd ref="33122947"/>
    <nd ref="33122948"/>
    <nd ref="47931582"/>
    <nd ref="33122949"/>
    <nd ref="47931574"/>
    <nd ref="33122950"/>
    <nd ref="32495172"/>
    <nd ref="32495173"/>
    <nd ref="32495174"/>
    <nd ref="34654713"/>
    <nd ref="34654712"/>
    <tag k="highway" v="primary"/>
    <tag k="maxspeed" v="70"/>
    <tag k="name" v="Lanyon Drive"/>
    <tag k="oneway" v="yes"/>
  </way>
  <way id="30876570" version="2" timestamp="2009-08-03T02:49:12Z" uid="4467" user="Rosscoe" changeset="2021038">
    <nd ref="343304591"/>
    <nd ref="34654714"/>
    <nd ref="33123047"/>
    <nd ref="33123048"/>
    <nd ref="33123049"/>
    <nd ref="33123050"/>
    <nd ref="33123051"/>
    <nd ref="33123052"/>
    <nd ref="33123053"/>
    <nd ref="33123054"/>
    <nd ref="33123055"/>
    <nd ref="33123056"/>
    <nd ref="33123057"/>
    <nd ref="33123058"/>
    <nd ref="33123059"/>
    <nd ref="33123043"/>
    <tag k="highway" v="primary"/>
    <tag k="maxspeed" v="80"/>
    <tag k="name" v="Lanyon Drive"/>
    <tag k="oneway" v="yes"/>
  </way>
  <way id="30876570" version="3" timestamp="2010-06-30T12:56:21Z" uid="9719" user="dvaey" changeset="5113245">
    <nd ref="343304591"/>
    <nd ref="34654714"/>
    <nd ref="33123047"/>
    <nd ref="33123048"/>
    <nd ref="33123049"/>
    <nd ref="33123050"/>
    <nd ref="33123051"/>
    <nd ref="33123052"/>
    <nd ref="33123053"/>
    <nd ref="33123054"/>
    <nd ref="33123055"/>
    <nd ref="33123056"/>
    <nd ref="33123057"/>
    <nd ref="33123058"/>
    <nd ref="33123059"/>
    <nd ref="797001978"/>
    <nd ref="797001980"/>
    <nd ref="33123043"/>
    <tag k="highway" v="primary"/>
    <tag k="maxspeed" v="80"/>
    <tag k="name" v="Lanyon Drive"/>
    <tag k="oneway" v="yes"/>
  </way>
  <way id="30876570" version="4" timestamp="2011-12-06T11:15:09Z" uid="12434" user="nm7s9" changeset="10049057">
    <nd ref="343304591"/>
    <nd ref="34654714"/>
    <nd ref="33123047"/>
    <nd ref="33123048"/>
    <nd ref="33123049"/>
    <nd ref="33123050"/>
    <nd ref="33123051"/>
    <nd ref="33123052"/>
    <nd ref="33123053"/>
    <nd ref="33123054"/>
    <nd ref="33123055"/>
    <nd ref="33123056"/>
    <nd ref="33123057"/>
    <nd ref="33123058"/>
    <nd ref="33123059"/>
    <nd ref="1533937253"/>
    <nd ref="1533937255"/>
    <nd ref="33123043"/>
    <tag k="highway" v="primary"/>
    <tag k="maxspeed" v="80"/>
    <tag k="name" v="Lanyon Drive"/>
    <tag k="oneway" v="yes"/>
  </way>
  <way id="30876570" version="5" timestamp="2012-01-22T06:28:52Z" uid="367571" user="MapRad" changeset="10461934">
    <nd ref="343304591"/>
    <nd ref="34654714"/>
    <nd ref="33123047"/>
    <nd ref="33123048"/>
    <nd ref="33123049"/>
    <nd ref="33123050"/>
    <nd ref="33123051"/>
    <nd ref="33123052"/>
    <nd ref="33123053"/>
    <nd ref="33123054"/>
    <nd ref="33123055"/>
    <nd ref="33123056"/>
    <nd ref="33123057"/>
    <nd ref="33123058"/>
    <nd ref="33123059"/>
    <nd ref="1533937253"/>
    <nd ref="1600741017"/>
    <nd ref="1533937255"/>
    <nd ref="33123043"/>
    <tag k="highway" v="primary"/>
    <tag k="maxspeed" v="80"/>
    <tag k="name" v="Lanyon Drive"/>
    <tag k="oneway" v="yes"/>
  </way>
  <way id="30876570" version="6" timestamp="2012-01-23T12:07:47Z" uid="12434" user="nm7s9" changeset="10474635">
    <nd ref="343304591"/>
    <nd ref="34654714"/>
    <nd ref="1602161970"/>
    <nd ref="33123047"/>
    <nd ref="33123048"/>
    <nd ref="33123049"/>
    <nd ref="33123050"/>
    <nd ref="33123051"/>
    <nd ref="33123052"/>
    <nd ref="33123053"/>
    <nd ref="33123054"/>
    <nd ref="33123055"/>
    <nd ref="33123056"/>
    <nd ref="33123057"/>
    <nd ref="33123058"/>
    <nd ref="33123059"/>
    <nd ref="1533937253"/>
    <nd ref="1600741017"/>
    <nd ref="1533937255"/>
    <nd ref="33123043"/>
    <tag k="highway" v="primary"/>
    <tag k="maxspeed" v="80"/>
    <tag k="name" v="Lanyon Drive"/>
    <tag k="oneway" v="yes"/>
  </way>
  <way id="30876570" version="7" timestamp="2012-01-23T20:02:25Z" uid="12434" user="nm7s9" changeset="10478660"/>
  <way id="30876574" version="4" timestamp="2011-01-11T05:07:06Z" uid="4467" user="Rosscoe" changeset="6933451">
    <nd ref="205207965"/>
    <nd ref="343304661"/>
    <nd ref="343304662"/>
    <nd ref="343304663"/>
    <nd ref="343304664"/>
    <nd ref="1097691728"/>
    <nd ref="1097691712"/>
    <tag k="access" v="permissive"/>
    <tag k="highway" v="service"/>
    <tag k="oneway" v="yes"/>
  </way>
  <way id="30876577" version="4" timestamp="2010-04-23T03:01:42Z" uid="4467" user="Rosscoe" changeset="4500324">
    <nd ref="205195810"/>
    <nd ref="343304667"/>
    <nd ref="704232842"/>
    <tag k="access" v="permissive"/>
    <tag k="highway" v="service"/>
  </way>
  <way id="30876577" version="5" timestamp="2010-12-30T16:45:52Z" uid="4467" user="Rosscoe" changeset="6811443">
    <nd ref="205195810"/>
    <nd ref="704232842"/>
    <tag k="access" v="permissive"/>
    <tag k="highway" v="service"/>
  </way>
  <way id="30876584" version="3" timestamp="2011-01-11T05:07:12Z" uid="4467" user="Rosscoe" changeset="6933451">
    <nd ref="343304665"/>
    <nd ref="1097691684"/>
    <nd ref="343304860"/>
    <nd ref="343304861"/>
    <nd ref="343304862"/>
    <nd ref="343304863"/>
    <nd ref="343304864"/>
    <nd ref="205207964"/>
    <tag k="access" v="permissive"/>
    <tag k="highway" v="service"/>
    <tag k="oneway" v="yes"/>
  </way>
  <way id="30876594" version="2" timestamp="2009-08-03T02:49:11Z" uid="4467" user="Rosscoe" changeset="2021038">
    <nd ref="32495183"/>
    <nd ref="32495184"/>
    <nd ref="40862994"/>
    <nd ref="32495185"/>
    <nd ref="32495186"/>
    <nd ref="32495187"/>
    <nd ref="32495188"/>
    <nd ref="32495189"/>
    <nd ref="32495190"/>
    <tag k="highway" v="primary"/>
    <tag k="maxspeed" v="60"/>
    <tag k="name" v="Lanyon Drive"/>
    <tag k="oneway" v="yes"/>
  </way>
  <way id="30876594" version="3" timestamp="2010-08-23T12:48:20Z" uid="79475" user="AlexOnTheBus" changeset="5570860">
    <nd ref="32495183"/>
    <nd ref="32495184"/>
    <nd ref="40862994"/>
    <nd ref="32495185"/>
    <nd ref="32495186"/>
    <nd ref="32495187"/>
    <nd ref="32495188"/>
    <nd ref="32495189"/>
    <tag k="highway" v="primary"/>
    <tag k="maxspeed" v="60"/>
    <tag k="name" v="Lanyon Drive"/>
    <tag k="oneway" v="yes"/>
  </way>
  <way id="30876594" version="4" timestamp="2010-08-23T12:48:28Z" uid="79475" user="AlexOnTheBus" changeset="5570860"/>
  <way id="30876595" version="2" timestamp="2009-08-03T02:49:11Z" uid="4467" user="Rosscoe" changeset="2021038">
    <nd ref="32494406"/>
    <nd ref="32494407"/>
    <nd ref="32494408"/>
    <nd ref="32494409"/>
    <nd ref="32494410"/>
    <nd ref="32494411"/>
    <nd ref="32494412"/>
    <nd ref="34654708"/>
    <tag k="highway" v="primary"/>
    <tag k="maxspeed" v="70"/>
    <tag k="name" v="Lanyon Drive"/>
    <tag k="oneway" v="yes"/>
  </way>
  <way id="30876597" version="3" timestamp="2011-01-11T05:07:10Z" uid="4467" user="Rosscoe" changeset="6933451">
    <nd ref="1097691667"/>
    <nd ref="343304129"/>
    <nd ref="343304927"/>
    <nd ref="343304928"/>
    <nd ref="343304929"/>
    <nd ref="343304930"/>
    <nd ref="343304931"/>
    <nd ref="343304932"/>
    <nd ref="343304933"/>
    <nd ref="343304934"/>
    <nd ref="343304935"/>
    <nd ref="343304936"/>
    <nd ref="343304937"/>
    <nd ref="343304938"/>
    <nd ref="343304939"/>
    <nd ref="343304940"/>
    <nd ref="343304941"/>
    <nd ref="343304942"/>
    <tag k="highway" v="residential"/>
  </way>
  <way id="30876625" version="2" timestamp="2010-06-30T12:59:43Z" uid="9719" user="dvaey" changeset="5113245">
    <nd ref="297917667"/>
    <nd ref="33122945"/>
    <nd ref="33123048"/>
    <tag k="highway" v="residential"/>
    <tag k="maxspeed" v="70"/>
    <tag k="name" v="Hoover Road"/>
  </way>
  <way id="30876625" version="3" timestamp="2011-12-06T11:15:11Z" uid="12434" user="nm7s9" changeset="10049057"/>
  <way id="30876647" version="4" timestamp="2010-07-07T06:55:23Z" uid="74617" user="JohnSmith" changeset="5156250">
    <nd ref="343305750"/>
    <nd ref="343305751"/>
    <nd ref="343305754"/>
    <nd ref="343305752"/>
    <nd ref="343305753"/>
    <nd ref="338147130"/>
    <nd ref="338147144"/>
    <tag k="highway" v="residential"/>
    <tag k="maxspeed" v="50"/>
    <tag k="maxspeed:source" v="default residential speed limit in Australia"/>
    <tag k="name" v="Coochin Street"/>
    <tag k="source" v="survey"/>
    <tag k="surface" v="paved"/>
  </way>
  <way id="30876647" version="5" timestamp="2010-10-09T06:03:14Z" uid="22094" user="Chadzopkyo" changeset="5991026"/>
  <way id="30876648" version="3" timestamp="2010-07-07T06:55:23Z" uid="74617" user="JohnSmith" changeset="5156250">
    <nd ref="343305754"/>
    <nd ref="343305755"/>
    <nd ref="343305756"/>
    <nd ref="343305757"/>
    <tag k="highway" v="residential"/>
    <tag k="maxspeed" v="50"/>
    <tag k="maxspeed:source" v="default residential speed limit in Australia"/>
    <tag k="name" v="Neill Road"/>
    <tag k="source" v="survey"/>
    <tag k="surface" v="paved"/>
  </way>
  <way id="30876648" version="4" timestamp="2012-01-18T05:25:42Z" uid="147510" user="woodpeck_fixbot" changeset="10424371">
    <nd ref="343305754"/>
    <nd ref="343305755"/>
    <nd ref="343305756"/>
    <nd ref="343305757"/>
    <tag k="highway" v="residential"/>
    <tag k="name" v="Neill Road"/>
    <tag k="source" v="survey"/>
    <tag k="surface" v="paved"/>
  </way>
  <way id="30876649" version="3" timestamp="2010-07-07T06:55:37Z" uid="74617" user="JohnSmith" changeset="5156250">
    <nd ref="343305757"/>
    <nd ref="343305758"/>
    <nd ref="343305759"/>
    <nd ref="343305760"/>
    <nd ref="343305761"/>
    <nd ref="343305762"/>
    <nd ref="343305763"/>
    <nd ref="343305764"/>
    <nd ref="343305765"/>
    <tag k="highway" v="residential"/>
    <tag k="maxspeed" v="50"/>
    <tag k="maxspeed:source" v="default residential speed limit in Australia"/>
    <tag k="name" v="Neill Road"/>
    <tag k="source" v="survey"/>
    <tag k="surface" v="unpaved"/>
  </way>
  <way id="30876649" version="4" timestamp="2012-01-18T05:25:43Z" uid="147510" user="woodpeck_fixbot" changeset="10424371">
    <nd ref="343305757"/>
    <nd ref="343305758"/>
    <nd ref="343305759"/>
    <nd ref="343305760"/>
    <nd ref="343305761"/>
    <nd ref="343305762"/>
    <nd ref="343305763"/>
    <nd ref="343305764"/>
    <nd ref="343305765"/>
    <tag k="highway" v="residential"/>
    <tag k="name" v="Neill Road"/>
    <tag k="source" v="survey"/>
    <tag k="surface" v="unpaved"/>
  </way>
  <way id="30876650" version="3" timestamp="2010-07-07T06:55:29Z" uid="74617" user="JohnSmith" changeset="5156250">
    <nd ref="343305765"/>
    <nd ref="343305766"/>
    <nd ref="343305767"/>
    <nd ref="343305768"/>
    <nd ref="343305769"/>
    <tag k="highway" v="residential"/>
    <tag k="maxspeed" v="50"/>
    <tag k="maxspeed:source" v="default residential speed limit in Australia"/>
    <tag k="name" v="Neill Road"/>
    <tag k="source" v="survey"/>
    <tag k="surface" v="paved"/>
  </way>
  <way id="30876650" version="4" timestamp="2012-01-18T05:25:45Z" uid="147510" user="woodpeck_fixbot" changeset="10424371">
    <nd ref="343305765"/>
    <nd ref="343305766"/>
    <nd ref="343305767"/>
    <nd ref="343305768"/>
    <nd ref="343305769"/>
    <tag k="highway" v="residential"/>
    <tag k="name" v="Neill Road"/>
    <tag k="source" v="survey"/>
    <tag k="surface" v="paved"/>
  </way>
  <way id="30876651" version="3" timestamp="2010-07-07T06:55:16Z" uid="74617" user="JohnSmith" changeset="5156250">
    <nd ref="343305769"/>
    <nd ref="343305774"/>
    <nd ref="343305775"/>
    <nd ref="343305776"/>
    <nd ref="343305777"/>
    <nd ref="343305778"/>
    <nd ref="343305779"/>
    <nd ref="343305780"/>
    <nd ref="343305781"/>
    <tag k="highway" v="residential"/>
    <tag k="maxspeed" v="50"/>
    <tag k="maxspeed:source" v="default residential speed limit in Australia"/>
    <tag k="name" v="Neill Road"/>
    <tag k="source" v="survey"/>
    <tag k="surface" v="unpaved"/>
  </way>
  <way id="30876651" version="4" timestamp="2012-01-18T05:25:46Z" uid="147510" user="woodpeck_fixbot" changeset="10424371">
    <nd ref="343305769"/>
    <nd ref="343305774"/>
    <nd ref="343305775"/>
    <nd ref="343305776"/>
    <nd ref="343305777"/>
    <nd ref="343305778"/>
    <nd ref="343305779"/>
    <nd ref="343305780"/>
    <nd ref="343305781"/>
    <tag k="highway" v="residential"/>
    <tag k="name" v="Neill Road"/>
    <tag k="source" v="survey"/>
    <tag k="surface" v="unpaved"/>
  </way>
  <way id="30876652" version="3" timestamp="2010-07-07T06:53:03Z" uid="74617" user="JohnSmith" changeset="5156250">
    <nd ref="332210777"/>
    <nd ref="338147496"/>
    <nd ref="338147482"/>
    <nd ref="338147468"/>
    <tag k="highway" v="residential"/>
    <tag k="maxspeed" v="50"/>
    <tag k="maxspeed:source" v="default residential speed limit in Australia"/>
    <tag k="name" v="Range Road"/>
    <tag k="source" v="survey"/>
    <tag k="surface" v="unpaved"/>
  </way>
  <way id="30876652" version="4" timestamp="2010-11-27T04:30:28Z" uid="66376" user="Tony Morris" changeset="6466950">
    <nd ref="332210777"/>
    <nd ref="1006306100"/>
    <nd ref="338147496"/>
    <nd ref="1006306077"/>
    <nd ref="338147482"/>
    <nd ref="338147468"/>
    <tag k="highway" v="residential"/>
    <tag k="maxspeed" v="50"/>
    <tag k="maxspeed:source" v="default residential speed limit in Australia"/>
    <tag k="name" v="Range Road"/>
    <tag k="source" v="survey"/>
    <tag k="surface" v="unpaved"/>
  </way>
  <way id="30876652" version="5" timestamp="2012-01-18T05:25:48Z" uid="147510" user="woodpeck_fixbot" changeset="10424371">
    <nd ref="332210777"/>
    <nd ref="1006306100"/>
    <nd ref="338147496"/>
    <nd ref="1006306077"/>
    <nd ref="338147482"/>
    <nd ref="338147468"/>
    <tag k="highway" v="residential"/>
    <tag k="name" v="Range Road"/>
    <tag k="source" v="survey"/>
    <tag k="surface" v="unpaved"/>
  </way>
  <way id="30876659" version="3" timestamp="2010-07-07T06:53:37Z" uid="74617" user="JohnSmith" changeset="5156250">
    <nd ref="343305847"/>
    <nd ref="343305846"/>
    <nd ref="343305845"/>
    <nd ref="343305844"/>
    <nd ref="343305843"/>
    <nd ref="343305842"/>
    <nd ref="343305841"/>
    <nd ref="343305840"/>
    <nd ref="343305839"/>
    <nd ref="343305838"/>
    <tag k="highway" v="residential"/>
    <tag k="maxspeed" v="50"/>
    <tag k="maxspeed:source" v="default residential speed limit in Australia"/>
    <tag k="name" v="Palmer Road"/>
    <tag k="source" v="survey"/>
    <tag k="surface" v="unpaved"/>
  </way>
  <way id="30876659" version="4" timestamp="2012-01-18T05:25:49Z" uid="147510" user="woodpeck_fixbot" changeset="10424371">
    <nd ref="343305847"/>
    <nd ref="343305846"/>
    <nd ref="343305845"/>
    <nd ref="343305844"/>
    <nd ref="343305843"/>
    <nd ref="343305842"/>
    <nd ref="343305841"/>
    <nd ref="343305840"/>
    <nd ref="343305839"/>
    <nd ref="343305838"/>
    <tag k="highway" v="residential"/>
    <tag k="name" v="Palmer Road"/>
    <tag k="source" v="survey"/>
    <tag k="surface" v="unpaved"/>
  </way>
  <way id="30876671" version="1" timestamp="2009-02-08T05:05:37Z" uid="68769" user="david lynch" changeset="268823">
    <nd ref="343305915"/>
    <nd ref="343305954"/>
    <nd ref="343305955"/>
    <nd ref="343305956"/>
    <tag k="created_by" v="Potlatch 0.10f"/>
    <tag k="highway" v="residential"/>
    <tag k="name" v="Independence Dr"/>
    <tag k="oneway" v="yes"/>
    <tag k="source" v="GPS"/>
  </way>
  <way id="30876671" version="2" timestamp="2009-02-08T05:06:08Z" uid="68769" user="david lynch" changeset="268823">
    <nd ref="343305915"/>
    <nd ref="343305954"/>
    <nd ref="343305955"/>
    <nd ref="343305956"/>
    <nd ref="343305987"/>
    <nd ref="343305988"/>
    <nd ref="343305989"/>
    <nd ref="343305990"/>
    <nd ref="343305915"/>
    <tag k="created_by" v="Potlatch 0.10f"/>
    <tag k="highway" v="residential"/>
    <tag k="name" v="Independence Dr"/>
    <tag k="oneway" v="yes"/>
    <tag k="source" v="GPS"/>
  </way>
  <way id="30876671" version="3" timestamp="2009-02-08T05:06:16Z" uid="68769" user="david lynch" changeset="268823">
    <nd ref="343305915"/>
    <nd ref="343305954"/>
    <nd ref="343305955"/>
    <nd ref="343305956"/>
    <nd ref="343305987"/>
    <nd ref="343305988"/>
    <nd ref="343305989"/>
    <nd ref="343305990"/>
    <nd ref="343305915"/>
    <tag k="created_by" v="Potlatch 0.10f"/>
    <tag k="highway" v="residential"/>
    <tag k="name" v="Independence Dr"/>
    <tag k="oneway" v="yes"/>
    <tag k="source" v="GPS"/>
  </way>
  <way id="30876671" version="4" timestamp="2009-02-08T05:06:22Z" uid="68769" user="david lynch" changeset="268823">
    <nd ref="343305915"/>
    <nd ref="343305954"/>
    <nd ref="343305955"/>
    <nd ref="343305956"/>
    <tag k="created_by" v="Potlatch 0.10f"/>
    <tag k="highway" v="residential"/>
    <tag k="name" v="Independence Dr"/>
    <tag k="oneway" v="yes"/>
    <tag k="source" v="GPS"/>
  </way>
  <way id="30876671" version="5" timestamp="2009-02-08T05:06:26Z" uid="68769" user="david lynch" changeset="268823">
    <nd ref="343305915"/>
    <nd ref="343305954"/>
    <nd ref="343305955"/>
    <nd ref="343305956"/>
    <tag k="created_by" v="Potlatch 0.10f"/>
    <tag k="highway" v="residential"/>
    <tag k="name" v="Independence Dr"/>
    <tag k="oneway" v="yes"/>
    <tag k="source" v="GPS"/>
  </way>
  <way id="30876671" version="6" timestamp="2009-02-08T05:06:59Z" uid="68769" user="david lynch" changeset="268823">
    <nd ref="343305915"/>
    <nd ref="343305954"/>
    <nd ref="343305955"/>
    <nd ref="343305956"/>
    <tag k="created_by" v="Potlatch 0.10f"/>
    <tag k="highway" v="residential"/>
    <tag k="name" v="Independence Dr"/>
    <tag k="oneway" v="yes"/>
    <tag k="source" v="GPS"/>
  </way>
  <way id="30876671" version="7" timestamp="2010-04-07T13:25:25Z" uid="20587" user="balrog-kun" changeset="4353646">
    <nd ref="343305915"/>
    <nd ref="343305954"/>
    <nd ref="343305955"/>
    <nd ref="343305956"/>
    <tag k="created_by" v="Potlatch 0.10f"/>
    <tag k="highway" v="residential"/>
    <tag k="name" v="Independence Drive"/>
    <tag k="oneway" v="yes"/>
    <tag k="source" v="GPS"/>
  </way>
  <way id="30876671" version="8" timestamp="2012-01-31T19:51:57Z" uid="92286" user="Paul Johnson" changeset="10551674">
    <nd ref="343305915"/>
    <nd ref="343305954"/>
    <nd ref="343305955"/>
    <nd ref="343305956"/>
    <tag k="highway" v="residential"/>
    <tag k="name" v="Independence Drive"/>
    <tag k="odbl" v="clean"/>
    <tag k="oneway" v="yes"/>
    <tag k="source" v="GPS"/>
  </way>
  <way id="30876671" version="9" timestamp="2012-02-12T17:40:00Z" uid="37392" user="25or6to4" changeset="10665658">
    <nd ref="343305915"/>
    <nd ref="343305954"/>
    <nd ref="1630128348"/>
    <nd ref="343305955"/>
    <nd ref="343305956"/>
    <tag k="highway" v="residential"/>
    <tag k="name" v="Independence Drive"/>
    <tag k="odbl" v="clean"/>
    <tag k="oneway" v="yes"/>
    <tag k="source" v="GPS"/>
  </way>
  <way id="30876684" version="3" timestamp="2010-07-07T06:55:13Z" uid="74617" user="JohnSmith" changeset="5156250">
    <nd ref="338147144"/>
    <nd ref="338147157"/>
    <nd ref="338147170"/>
    <nd ref="338147185"/>
    <nd ref="338147198"/>
    <nd ref="338147213"/>
    <nd ref="338147226"/>
    <nd ref="338147239"/>
    <tag k="highway" v="residential"/>
    <tag k="maxspeed" v="50"/>
    <tag k="maxspeed:source" v="default residential speed limit in Australia"/>
    <tag k="name" v="Range Road"/>
    <tag k="source" v="survey"/>
    <tag k="surface" v="paved"/>
  </way>
  <way id="30876684" version="4" timestamp="2012-01-18T05:25:50Z" uid="147510" user="woodpeck_fixbot" changeset="10424371">
    <nd ref="338147144"/>
    <nd ref="338147157"/>
    <nd ref="338147170"/>
    <nd ref="338147185"/>
    <nd ref="338147198"/>
    <nd ref="338147213"/>
    <nd ref="338147226"/>
    <nd ref="338147239"/>
    <tag k="highway" v="residential"/>
    <tag k="name" v="Range Road"/>
    <tag k="source" v="survey"/>
    <tag k="surface" v="paved"/>
  </way>
  <way id="30876685" version="1" timestamp="2009-02-08T05:06:21Z" uid="68769" user="david lynch" changeset="268823">
    <nd ref="343305956"/>
    <nd ref="343305987"/>
    <nd ref="343305988"/>
    <nd ref="343305989"/>
    <nd ref="343305990"/>
    <nd ref="343305915"/>
    <tag k="created_by" v="Potlatch 0.10f"/>
    <tag k="highway" v="residential"/>
    <tag k="name" v="Independence Dr"/>
    <tag k="oneway" v="yes"/>
    <tag k="source" v="GPS"/>
  </way>
  <way id="30876685" version="2" timestamp="2009-02-08T05:06:26Z" uid="68769" user="david lynch" changeset="268823">
    <nd ref="343305956"/>
    <nd ref="343305987"/>
    <nd ref="343305988"/>
    <nd ref="343305989"/>
    <nd ref="343305990"/>
    <nd ref="343305915"/>
    <tag k="created_by" v="Potlatch 0.10f"/>
    <tag k="highway" v="residential"/>
    <tag k="name" v="Independence Dr"/>
    <tag k="oneway" v="yes"/>
    <tag k="source" v="GPS"/>
  </way>
  <way id="30876685" version="3" timestamp="2009-02-08T05:12:44Z" uid="68769" user="david lynch" changeset="268823">
    <nd ref="343305956"/>
    <nd ref="343305987"/>
    <nd ref="343306190"/>
    <nd ref="343305988"/>
    <nd ref="343305989"/>
    <nd ref="343305990"/>
    <nd ref="343305915"/>
    <tag k="created_by" v="Potlatch 0.10f"/>
    <tag k="highway" v="residential"/>
    <tag k="name" v="Independence Dr"/>
    <tag k="oneway" v="yes"/>
    <tag k="source" v="GPS"/>
  </way>
  <way id="30876685" version="4" timestamp="2010-04-07T13:25:25Z" uid="20587" user="balrog-kun" changeset="4353646">
    <nd ref="343305956"/>
    <nd ref="343305987"/>
    <nd ref="343306190"/>
    <nd ref="343305988"/>
    <nd ref="343305989"/>
    <nd ref="343305990"/>
    <nd ref="343305915"/>
    <tag k="created_by" v="Potlatch 0.10f"/>
    <tag k="highway" v="residential"/>
    <tag k="name" v="Independence Drive"/>
    <tag k="oneway" v="yes"/>
    <tag k="source" v="GPS"/>
  </way>
  <way id="30876685" version="5" timestamp="2012-01-31T19:51:58Z" uid="92286" user="Paul Johnson" changeset="10551674">
    <nd ref="343305956"/>
    <nd ref="343305987"/>
    <nd ref="343306190"/>
    <nd ref="343305988"/>
    <nd ref="343305989"/>
    <nd ref="343305990"/>
    <nd ref="343305915"/>
    <tag k="highway" v="residential"/>
    <tag k="name" v="Independence Drive"/>
    <tag k="odbl" v="clean"/>
    <tag k="oneway" v="yes"/>
    <tag k="source" v="GPS"/>
  </way>
  <way id="30876685" version="6" timestamp="2012-02-12T17:40:01Z" uid="37392" user="25or6to4" changeset="10665658">
    <nd ref="343305956"/>
    <nd ref="343305987"/>
    <nd ref="343306190"/>
    <nd ref="343305988"/>
    <nd ref="1630128326"/>
    <nd ref="343305989"/>
    <nd ref="343305990"/>
    <nd ref="343305915"/>
    <tag k="highway" v="residential"/>
    <tag k="name" v="Independence Drive"/>
    <tag k="odbl" v="clean"/>
    <tag k="oneway" v="yes"/>
    <tag k="source" v="GPS"/>
  </way>
  <way id="30876688" version="1" timestamp="2009-02-08T05:06:59Z" uid="68769" user="david lynch" changeset="268823">
    <nd ref="343305956"/>
    <nd ref="343306007"/>
    <nd ref="343306008"/>
    <nd ref="343306009"/>
    <nd ref="343306010"/>
    <nd ref="343306011"/>
    <nd ref="343306012"/>
    <nd ref="343306013"/>
    <nd ref="343306014"/>
    <tag k="created_by" v="Potlatch 0.10f"/>
    <tag k="highway" v="residential"/>
    <tag k="name" v="Independence Dr"/>
    <tag k="oneway" v="yes"/>
    <tag k="source" v="GPS"/>
  </way>
  <way id="30876688" version="2" timestamp="2009-02-08T05:07:04Z" uid="68769" user="david lynch" changeset="268823">
    <nd ref="343305956"/>
    <nd ref="343306007"/>
    <nd ref="343306008"/>
    <nd ref="343306009"/>
    <nd ref="343306010"/>
    <nd ref="343306011"/>
    <nd ref="343306012"/>
    <nd ref="343306013"/>
    <nd ref="343306014"/>
    <tag k="created_by" v="Potlatch 0.10f"/>
    <tag k="highway" v="residential"/>
    <tag k="name" v="Independence Dr"/>
    <tag k="source" v="GPS"/>
  </way>
  <way id="30876688" version="3" timestamp="2009-02-08T05:07:09Z" uid="68769" user="david lynch" changeset="268823">
    <nd ref="343305956"/>
    <nd ref="343306007"/>
    <nd ref="343306015"/>
    <nd ref="343306008"/>
    <nd ref="343306009"/>
    <nd ref="343306010"/>
    <nd ref="343306011"/>
    <nd ref="343306012"/>
    <nd ref="343306013"/>
    <nd ref="343306014"/>
    <tag k="created_by" v="Potlatch 0.10f"/>
    <tag k="highway" v="residential"/>
    <tag k="name" v="Independence Dr"/>
    <tag k="source" v="GPS"/>
  </way>
  <way id="30876688" version="4" timestamp="2009-02-08T05:07:49Z" uid="68769" user="david lynch" changeset="268823">
    <nd ref="343305956"/>
    <nd ref="343306007"/>
    <nd ref="343306015"/>
    <nd ref="343306008"/>
    <nd ref="343306009"/>
    <nd ref="343306010"/>
    <nd ref="343306011"/>
    <nd ref="343306012"/>
    <nd ref="343306013"/>
    <nd ref="343306014"/>
    <tag k="created_by" v="Potlatch 0.10f"/>
    <tag k="highway" v="residential"/>
    <tag k="name" v="Independence Dr"/>
    <tag k="source" v="GPS"/>
  </way>
  <way id="30876688" version="5" timestamp="2009-02-08T05:11:07Z" uid="68769" user="david lynch" changeset="268823">
    <nd ref="343305956"/>
    <nd ref="343306116"/>
    <nd ref="343306007"/>
    <nd ref="343306015"/>
    <nd ref="343306008"/>
    <nd ref="343306009"/>
    <nd ref="343306010"/>
    <nd ref="343306011"/>
    <nd ref="343306012"/>
    <nd ref="343306013"/>
    <nd ref="343306014"/>
    <tag k="created_by" v="Potlatch 0.10f"/>
    <tag k="highway" v="residential"/>
    <tag k="name" v="Independence Dr"/>
    <tag k="source" v="GPS"/>
  </way>
  <way id="30876688" version="6" timestamp="2009-02-08T05:12:12Z" uid="68769" user="david lynch" changeset="268823">
    <nd ref="343305956"/>
    <nd ref="343306116"/>
    <nd ref="343306007"/>
    <nd ref="343306015"/>
    <nd ref="343306008"/>
    <nd ref="343306009"/>
    <nd ref="343306010"/>
    <nd ref="343306011"/>
    <nd ref="343306169"/>
    <nd ref="343306012"/>
    <nd ref="343306013"/>
    <nd ref="343306014"/>
    <tag k="created_by" v="Potlatch 0.10f"/>
    <tag k="highway" v="residential"/>
    <tag k="name" v="Independence Dr"/>
    <tag k="source" v="GPS"/>
  </way>
  <way id="30876688" version="7" timestamp="2009-02-08T22:44:05Z" uid="68769" user="david lynch" changeset="288995">
    <nd ref="343305956"/>
    <nd ref="343306116"/>
    <nd ref="343306007"/>
    <nd ref="343306015"/>
    <nd ref="343306008"/>
    <nd ref="343306009"/>
    <nd ref="343306010"/>
    <nd ref="343306011"/>
    <nd ref="343306169"/>
    <nd ref="343306012"/>
    <nd ref="343306013"/>
    <nd ref="343306014"/>
    <tag k="created_by" v="Potlatch 0.10f"/>
    <tag k="highway" v="residential"/>
    <tag k="name" v="Independence Dr"/>
    <tag k="source" v="GPS"/>
  </way>
  <way id="30876688" version="8" timestamp="2009-02-08T22:44:09Z" uid="68769" user="david lynch" changeset="288995">
    <nd ref="343305956"/>
    <nd ref="343306116"/>
    <nd ref="343306007"/>
    <nd ref="343306015"/>
    <nd ref="343306008"/>
    <nd ref="343306009"/>
    <nd ref="343306010"/>
    <nd ref="343306011"/>
    <nd ref="343306169"/>
    <nd ref="343306012"/>
    <nd ref="343306013"/>
    <nd ref="343306014"/>
    <tag k="created_by" v="Potlatch 0.10f"/>
    <tag k="highway" v="residential"/>
    <tag k="name" v="Independence Dr"/>
    <tag k="source" v="GPS"/>
  </way>
  <way id="30876688" version="9" timestamp="2010-04-07T13:25:25Z" uid="20587" user="balrog-kun" changeset="4353646">
    <nd ref="343305956"/>
    <nd ref="343306116"/>
    <nd ref="343306007"/>
    <nd ref="343306015"/>
    <nd ref="343306008"/>
    <nd ref="343306009"/>
    <nd ref="343306010"/>
    <nd ref="343306011"/>
    <nd ref="343306169"/>
    <nd ref="343306012"/>
    <nd ref="343306013"/>
    <nd ref="343306014"/>
    <tag k="created_by" v="Potlatch 0.10f"/>
    <tag k="highway" v="residential"/>
    <tag k="name" v="Independence Drive"/>
    <tag k="source" v="GPS"/>
  </way>
  <way id="30876688" version="10" timestamp="2012-01-31T19:51:55Z" uid="92286" user="Paul Johnson" changeset="10551674">
    <nd ref="343305956"/>
    <nd ref="343306116"/>
    <nd ref="343306007"/>
    <nd ref="343306015"/>
    <nd ref="343306008"/>
    <nd ref="343306009"/>
    <nd ref="343306010"/>
    <nd ref="343306011"/>
    <nd ref="343306169"/>
    <nd ref="343306012"/>
    <nd ref="343306013"/>
    <nd ref="343306014"/>
    <tag k="highway" v="residential"/>
    <tag k="name" v="Independence Drive"/>
    <tag k="odbl" v="clean"/>
    <tag k="source" v="GPS"/>
  </way>
  <way id="30876691" version="1" timestamp="2009-02-08T05:07:25Z" uid="68769" user="david lynch" changeset="268823">
    <nd ref="343306015"/>
    <nd ref="343306023"/>
    <nd ref="343306009"/>
    <tag k="created_by" v="Potlatch 0.10f"/>
    <tag k="highway" v="residential"/>
    <tag k="name" v="Independence Dr"/>
  </way>
  <way id="30876691" version="2" timestamp="2010-04-07T13:25:26Z" uid="20587" user="balrog-kun" changeset="4353646">
    <nd ref="343306015"/>
    <nd ref="343306023"/>
    <nd ref="343306009"/>
    <tag k="created_by" v="Potlatch 0.10f"/>
    <tag k="highway" v="residential"/>
    <tag k="name" v="Independence Drive"/>
  </way>
  <way id="30876691" version="3" timestamp="2012-01-31T19:51:56Z" uid="92286" user="Paul Johnson" changeset="10551674">
    <nd ref="343306015"/>
    <nd ref="343306023"/>
    <nd ref="343306009"/>
    <tag k="highway" v="residential"/>
    <tag k="name" v="Independence Drive"/>
    <tag k="odbl" v="clean"/>
  </way>
  <way id="30876694" version="1" timestamp="2009-02-08T05:07:48Z" uid="68769" user="david lynch" changeset="268823">
    <nd ref="343306014"/>
    <nd ref="343306043"/>
    <tag k="created_by" v="Potlatch 0.10f"/>
    <tag k="highway" v="residential"/>
    <tag k="name" v="Independence Dr"/>
    <tag k="source" v="GPS"/>
  </way>
  <way id="30876694" version="2" timestamp="2009-02-08T05:08:05Z" uid="68769" user="david lynch" changeset="268823">
    <nd ref="343306050"/>
    <nd ref="343306014"/>
    <nd ref="343306043"/>
    <tag k="created_by" v="Potlatch 0.10f"/>
    <tag k="highway" v="residential"/>
    <tag k="name" v="Rutledge Ln"/>
    <tag k="source" v="GPS"/>
  </way>
  <way id="30876694" version="3" timestamp="2009-02-08T22:43:40Z" uid="68769" user="david lynch" changeset="288995">
    <nd ref="343306050"/>
    <nd ref="343306014"/>
    <nd ref="343306043"/>
    <tag k="created_by" v="Potlatch 0.10f"/>
    <tag k="highway" v="residential"/>
    <tag k="name" v="Rutledge Ln"/>
    <tag k="source" v="GPS"/>
  </way>
  <way id="30876694" version="4" timestamp="2010-04-07T13:25:26Z" uid="20587" user="balrog-kun" changeset="4353646">
    <nd ref="343306050"/>
    <nd ref="343306014"/>
    <nd ref="343306043"/>
    <tag k="created_by" v="Potlatch 0.10f"/>
    <tag k="highway" v="residential"/>
    <tag k="name" v="Rutledge Lane"/>
    <tag k="source" v="GPS"/>
  </way>
  <way id="30876694" version="5" timestamp="2012-01-31T21:29:03Z" uid="92286" user="Paul Johnson" changeset="10551674">
    <nd ref="343306050"/>
    <nd ref="343306014"/>
    <nd ref="343306043"/>
    <tag k="highway" v="residential"/>
    <tag k="name" v="Rutledge Lane"/>
    <tag k="odbl" v="clean"/>
    <tag k="source" v="GPS"/>
  </way>
  <way id="30876697" version="1" timestamp="2009-02-08T05:08:44Z" uid="68769" user="david lynch" changeset="268823">
    <nd ref="343306060"/>
    <nd ref="343306061"/>
    <nd ref="343306062"/>
    <nd ref="343306063"/>
    <nd ref="343306064"/>
    <nd ref="343306050"/>
    <nd ref="343306065"/>
    <nd ref="343306066"/>
    <nd ref="343306067"/>
    <nd ref="343306068"/>
    <tag k="created_by" v="Potlatch 0.10f"/>
    <tag k="highway" v="residential"/>
    <tag k="name" v="Lightfoot Trl"/>
    <tag k="source" v="GPS"/>
  </way>
  <way id="30876697" version="2" timestamp="2009-02-08T22:43:36Z" uid="68769" user="david lynch" changeset="288995">
    <nd ref="343306060"/>
    <nd ref="343306061"/>
    <nd ref="343306062"/>
    <nd ref="343306063"/>
    <nd ref="343306064"/>
    <nd ref="343306050"/>
    <nd ref="343306066"/>
    <nd ref="343306067"/>
    <nd ref="343306068"/>
    <tag k="created_by" v="Potlatch 0.10f"/>
    <tag k="highway" v="residential"/>
    <tag k="name" v="Lightfoot Trl"/>
    <tag k="source" v="GPS"/>
  </way>
  <way id="30876697" version="3" timestamp="2009-02-08T22:43:46Z" uid="68769" user="david lynch" changeset="288995">
    <nd ref="343306060"/>
    <nd ref="343306061"/>
    <nd ref="343306062"/>
    <nd ref="343306063"/>
    <nd ref="343306064"/>
    <nd ref="343306050"/>
    <nd ref="343570768"/>
    <nd ref="343306066"/>
    <nd ref="343306067"/>
    <nd ref="343306068"/>
    <tag k="created_by" v="Potlatch 0.10f"/>
    <tag k="highway" v="residential"/>
    <tag k="name" v="Lightfoot Trl"/>
    <tag k="source" v="GPS"/>
  </way>
  <way id="30876697" version="4" timestamp="2009-02-08T22:43:57Z" uid="68769" user="david lynch" changeset="288995">
    <nd ref="343306060"/>
    <nd ref="343306061"/>
    <nd ref="343306062"/>
    <nd ref="343306063"/>
    <nd ref="343306064"/>
    <nd ref="343306050"/>
    <nd ref="343570768"/>
    <nd ref="343306066"/>
    <nd ref="343306067"/>
    <nd ref="343306068"/>
    <tag k="created_by" v="Potlatch 0.10f"/>
    <tag k="highway" v="residential"/>
    <tag k="name" v="Lightfoot Trl"/>
    <tag k="source" v="GPS"/>
  </way>
  <way id="30876697" version="5" timestamp="2010-04-07T13:25:26Z" uid="20587" user="balrog-kun" changeset="4353646">
    <nd ref="343306060"/>
    <nd ref="343306061"/>
    <nd ref="343306062"/>
    <nd ref="343306063"/>
    <nd ref="343306064"/>
    <nd ref="343306050"/>
    <nd ref="343570768"/>
    <nd ref="343306066"/>
    <nd ref="343306067"/>
    <nd ref="343306068"/>
    <tag k="created_by" v="Potlatch 0.10f"/>
    <tag k="highway" v="residential"/>
    <tag k="name" v="Lightfoot Trail"/>
    <tag k="source" v="GPS"/>
  </way>
  <way id="30876697" version="6" timestamp="2012-01-31T20:12:49Z" uid="92286" user="Paul Johnson" changeset="10551674">
    <nd ref="343306060"/>
    <nd ref="343306061"/>
    <nd ref="343306062"/>
    <nd ref="343306063"/>
    <nd ref="343306064"/>
    <nd ref="343306050"/>
    <nd ref="343570768"/>
    <nd ref="343306066"/>
    <nd ref="343306067"/>
    <nd ref="343306068"/>
    <tag k="highway" v="residential"/>
    <tag k="name" v="Lightfoot Trail"/>
    <tag k="odbl" v="clean"/>
    <tag k="source" v="GPS"/>
  </way>
  <way id="30876699" version="1" timestamp="2009-02-08T05:08:56Z" uid="68769" user="david lynch" changeset="268823">
    <nd ref="343306071"/>
    <nd ref="343306068"/>
    <nd ref="343306072"/>
    <tag k="created_by" v="Potlatch 0.10f"/>
  </way>
  <way id="30876699" version="2" timestamp="2009-02-08T05:09:23Z" uid="68769" user="david lynch" changeset="268823">
    <nd ref="343306073"/>
    <nd ref="343306071"/>
    <nd ref="343306068"/>
    <nd ref="343306072"/>
    <tag k="created_by" v="Potlatch 0.10f"/>
    <tag k="highway" v="residential"/>
    <tag k="name" v="Whipple Way"/>
    <tag k="source" v="GPS"/>
  </way>
  <way id="30876708" version="1" timestamp="2009-02-08T05:11:12Z" uid="68769" user="david lynch" changeset="268823">
    <nd ref="343306117"/>
    <nd ref="343306119"/>
    <nd ref="343306121"/>
    <nd ref="343306123"/>
    <nd ref="343306125"/>
    <nd ref="343306072"/>
    <nd ref="343306127"/>
    <nd ref="343306129"/>
    <nd ref="343306131"/>
    <nd ref="343306133"/>
    <nd ref="343306135"/>
    <nd ref="343306137"/>
    <nd ref="343306139"/>
    <nd ref="343306141"/>
    <nd ref="343306143"/>
    <nd ref="343306060"/>
    <nd ref="343306146"/>
    <nd ref="343306148"/>
    <nd ref="343306150"/>
    <nd ref="343306152"/>
    <nd ref="343306154"/>
    <nd ref="343306155"/>
    <nd ref="343306156"/>
    <nd ref="343306157"/>
    <nd ref="343306158"/>
    <nd ref="343306159"/>
    <nd ref="343306160"/>
    <nd ref="343306161"/>
    <nd ref="343306116"/>
    <tag k="created_by" v="Potlatch 0.10f"/>
    <tag k="highway" v="residential"/>
    <tag k="name" v="Amur Dr"/>
    <tag k="source" v="GPS"/>
  </way>
  <way id="30876708" version="2" timestamp="2009-02-08T05:11:16Z" uid="68769" user="david lynch" changeset="268823">
    <nd ref="343306117"/>
    <nd ref="343306119"/>
    <nd ref="343306121"/>
    <nd ref="343306123"/>
    <nd ref="343306125"/>
    <tag k="created_by" v="Potlatch 0.10f"/>
    <tag k="highway" v="residential"/>
    <tag k="name" v="Amur Dr"/>
    <tag k="source" v="GPS"/>
  </way>
  <way id="30876708" version="3" timestamp="2009-02-08T05:11:36Z" uid="68769" user="david lynch" changeset="268823">
    <nd ref="343306117"/>
    <nd ref="343306164"/>
    <nd ref="343306119"/>
    <nd ref="343306121"/>
    <nd ref="343306123"/>
    <nd ref="343306125"/>
    <nd ref="343306165"/>
    <nd ref="343306166"/>
    <nd ref="343306167"/>
    <nd ref="343306168"/>
    <nd ref="343306117"/>
    <tag k="created_by" v="Potlatch 0.10f"/>
    <tag k="highway" v="residential"/>
    <tag k="name" v="Amur Dr"/>
    <tag k="oneway" v="yes"/>
    <tag k="source" v="GPS"/>
  </way>
  <way id="30876708" version="4" timestamp="2009-02-08T05:11:40Z" uid="68769" user="david lynch" changeset="268823">
    <nd ref="343306117"/>
    <nd ref="343306164"/>
    <nd ref="343306119"/>
    <nd ref="343306121"/>
    <nd ref="343306123"/>
    <nd ref="343306125"/>
    <tag k="created_by" v="Potlatch 0.10f"/>
    <tag k="highway" v="residential"/>
    <tag k="name" v="Amur Dr"/>
    <tag k="oneway" v="yes"/>
    <tag k="source" v="GPS"/>
  </way>
  <way id="30876708" version="5" timestamp="2009-02-08T22:43:21Z" uid="68769" user="david lynch" changeset="288995">
    <nd ref="343306117"/>
    <nd ref="343306164"/>
    <nd ref="343306119"/>
    <nd ref="343306121"/>
    <nd ref="343306123"/>
    <nd ref="343306125"/>
    <nd ref="343306072"/>
    <tag k="created_by" v="Potlatch 0.10f"/>
    <tag k="highway" v="residential"/>
    <tag k="name" v="Amur Dr"/>
    <tag k="oneway" v="yes"/>
    <tag k="source" v="GPS"/>
  </way>
  <way id="30876708" version="6" timestamp="2010-04-07T13:25:26Z" uid="20587" user="balrog-kun" changeset="4353646">
    <nd ref="343306117"/>
    <nd ref="343306164"/>
    <nd ref="343306119"/>
    <nd ref="343306121"/>
    <nd ref="343306123"/>
    <nd ref="343306125"/>
    <nd ref="343306072"/>
    <tag k="created_by" v="Potlatch 0.10f"/>
    <tag k="highway" v="residential"/>
    <tag k="name" v="Amur Drive"/>
    <tag k="oneway" v="yes"/>
    <tag k="source" v="GPS"/>
  </way>
  <way id="30876708" version="7" timestamp="2012-01-31T17:56:42Z" uid="92286" user="Paul Johnson" changeset="10551674">
    <nd ref="343306117"/>
    <nd ref="343306164"/>
    <nd ref="343306119"/>
    <nd ref="343306121"/>
    <nd ref="343306123"/>
    <nd ref="343306125"/>
    <nd ref="343306072"/>
    <tag k="highway" v="residential"/>
    <tag k="name" v="Amur Drive"/>
    <tag k="odbl" v="clean"/>
    <tag k="oneway" v="yes"/>
    <tag k="source" v="GPS"/>
  </way>
  <way id="30876709" version="1" timestamp="2009-02-08T05:11:15Z" uid="68769" user="david lynch" changeset="268823">
    <nd ref="343306125"/>
    <nd ref="343306072"/>
    <nd ref="343306127"/>
    <nd ref="343306129"/>
    <nd ref="343306131"/>
    <nd ref="343306133"/>
    <nd ref="343306135"/>
    <nd ref="343306137"/>
    <nd ref="343306139"/>
    <nd ref="343306141"/>
    <nd ref="343306143"/>
    <nd ref="343306060"/>
    <nd ref="343306146"/>
    <nd ref="343306148"/>
    <nd ref="343306150"/>
    <nd ref="343306152"/>
    <nd ref="343306154"/>
    <nd ref="343306155"/>
    <nd ref="343306156"/>
    <nd ref="343306157"/>
    <nd ref="343306158"/>
    <nd ref="343306159"/>
    <nd ref="343306160"/>
    <nd ref="343306161"/>
    <nd ref="343306116"/>
    <tag k="created_by" v="Potlatch 0.10f"/>
    <tag k="highway" v="residential"/>
    <tag k="name" v="Amur Dr"/>
    <tag k="source" v="GPS"/>
  </way>
  <way id="30876709" version="2" timestamp="2009-02-08T22:43:05Z" uid="68769" user="david lynch" changeset="288995">
    <nd ref="343306125"/>
    <nd ref="343306072"/>
    <nd ref="343306127"/>
    <nd ref="343306129"/>
    <nd ref="343306131"/>
    <nd ref="343306133"/>
    <nd ref="343306135"/>
    <nd ref="343306137"/>
    <nd ref="343306139"/>
    <nd ref="343306141"/>
    <nd ref="343306143"/>
    <nd ref="343306060"/>
    <nd ref="343306146"/>
    <nd ref="343306148"/>
    <nd ref="343306150"/>
    <nd ref="343306152"/>
    <nd ref="343306154"/>
    <nd ref="343306155"/>
    <nd ref="343306156"/>
    <nd ref="343306157"/>
    <nd ref="343306158"/>
    <nd ref="343306159"/>
    <nd ref="343306160"/>
    <nd ref="343306161"/>
    <nd ref="343306116"/>
    <tag k="created_by" v="Potlatch 0.10f"/>
    <tag k="highway" v="residential"/>
    <tag k="name" v="Amur Dr"/>
    <tag k="source" v="GPS"/>
  </way>
  <way id="30876709" version="3" timestamp="2009-02-08T22:43:10Z" uid="68769" user="david lynch" changeset="288995">
    <nd ref="343306072"/>
    <nd ref="343306127"/>
    <nd ref="343306129"/>
    <nd ref="343306131"/>
    <nd ref="343306133"/>
    <nd ref="343306135"/>
    <nd ref="343306137"/>
    <nd ref="343306139"/>
    <nd ref="343306141"/>
    <nd ref="343306143"/>
    <nd ref="343306060"/>
    <nd ref="343306146"/>
    <nd ref="343306148"/>
    <nd ref="343306150"/>
    <nd ref="343306152"/>
    <nd ref="343306154"/>
    <nd ref="343306155"/>
    <nd ref="343306156"/>
    <nd ref="343306157"/>
    <nd ref="343306158"/>
    <nd ref="343306159"/>
    <nd ref="343306160"/>
    <nd ref="343306161"/>
    <nd ref="343306116"/>
    <tag k="created_by" v="Potlatch 0.10f"/>
    <tag k="highway" v="residential"/>
    <tag k="name" v="Amur Dr"/>
    <tag k="source" v="GPS"/>
  </way>
  <way id="30876709" version="4" timestamp="2009-02-08T22:43:26Z" uid="68769" user="david lynch" changeset="288995">
    <nd ref="343306072"/>
    <nd ref="343306127"/>
    <nd ref="343306129"/>
    <nd ref="343306133"/>
    <nd ref="343306135"/>
    <nd ref="343306137"/>
    <nd ref="343306139"/>
    <nd ref="343306141"/>
    <nd ref="343306143"/>
    <nd ref="343306060"/>
    <nd ref="343306146"/>
    <nd ref="343306148"/>
    <nd ref="343306150"/>
    <nd ref="343306152"/>
    <nd ref="343306154"/>
    <nd ref="343306155"/>
    <nd ref="343306156"/>
    <nd ref="343306157"/>
    <nd ref="343306158"/>
    <nd ref="343306159"/>
    <nd ref="343306160"/>
    <nd ref="343306161"/>
    <nd ref="343306116"/>
    <tag k="created_by" v="Potlatch 0.10f"/>
    <tag k="highway" v="residential"/>
    <tag k="name" v="Amur Dr"/>
    <tag k="source" v="GPS"/>
  </way>
  <way id="30876709" version="5" timestamp="2010-04-07T13:25:27Z" uid="20587" user="balrog-kun" changeset="4353646">
    <nd ref="343306072"/>
    <nd ref="343306127"/>
    <nd ref="343306129"/>
    <nd ref="343306133"/>
    <nd ref="343306135"/>
    <nd ref="343306137"/>
    <nd ref="343306139"/>
    <nd ref="343306141"/>
    <nd ref="343306143"/>
    <nd ref="343306060"/>
    <nd ref="343306146"/>
    <nd ref="343306148"/>
    <nd ref="343306150"/>
    <nd ref="343306152"/>
    <nd ref="343306154"/>
    <nd ref="343306155"/>
    <nd ref="343306156"/>
    <nd ref="343306157"/>
    <nd ref="343306158"/>
    <nd ref="343306159"/>
    <nd ref="343306160"/>
    <nd ref="343306161"/>
    <nd ref="343306116"/>
    <tag k="created_by" v="Potlatch 0.10f"/>
    <tag k="highway" v="residential"/>
    <tag k="name" v="Amur Drive"/>
    <tag k="source" v="GPS"/>
  </way>
  <way id="30876709" version="6" timestamp="2012-01-31T17:56:40Z" uid="92286" user="Paul Johnson" changeset="10551674">
    <nd ref="343306072"/>
    <nd ref="343306127"/>
    <nd ref="343306129"/>
    <nd ref="343306133"/>
    <nd ref="343306135"/>
    <nd ref="343306137"/>
    <nd ref="343306139"/>
    <nd ref="343306141"/>
    <nd ref="343306143"/>
    <nd ref="343306060"/>
    <nd ref="343306146"/>
    <nd ref="343306148"/>
    <nd ref="343306150"/>
    <nd ref="343306152"/>
    <nd ref="343306154"/>
    <nd ref="343306155"/>
    <nd ref="343306156"/>
    <nd ref="343306157"/>
    <nd ref="343306158"/>
    <nd ref="343306159"/>
    <nd ref="343306160"/>
    <nd ref="343306161"/>
    <nd ref="343306116"/>
    <tag k="highway" v="residential"/>
    <tag k="name" v="Amur Drive"/>
    <tag k="odbl" v="clean"/>
    <tag k="source" v="GPS"/>
  </way>
  <way id="30876710" version="1" timestamp="2009-02-08T05:11:39Z" uid="68769" user="david lynch" changeset="268823">
    <nd ref="343306125"/>
    <nd ref="343306165"/>
    <nd ref="343306166"/>
    <nd ref="343306167"/>
    <nd ref="343306168"/>
    <nd ref="343306117"/>
    <tag k="created_by" v="Potlatch 0.10f"/>
    <tag k="highway" v="residential"/>
    <tag k="name" v="Amur Dr"/>
    <tag k="oneway" v="yes"/>
    <tag k="source" v="GPS"/>
  </way>
  <way id="30876710" version="2" timestamp="2009-02-08T22:42:57Z" uid="68769" user="david lynch" changeset="288995">
    <nd ref="343306072"/>
    <nd ref="343570577"/>
    <nd ref="343306165"/>
    <nd ref="343306166"/>
    <nd ref="343306167"/>
    <nd ref="343306168"/>
    <nd ref="343306117"/>
    <tag k="created_by" v="Potlatch 0.10f"/>
    <tag k="highway" v="residential"/>
    <tag k="name" v="Amur Dr"/>
    <tag k="oneway" v="yes"/>
    <tag k="source" v="GPS"/>
  </way>
  <way id="30876710" version="3" timestamp="2010-04-07T13:25:27Z" uid="20587" user="balrog-kun" changeset="4353646">
    <nd ref="343306072"/>
    <nd ref="343570577"/>
    <nd ref="343306165"/>
    <nd ref="343306166"/>
    <nd ref="343306167"/>
    <nd ref="343306168"/>
    <nd ref="343306117"/>
    <tag k="created_by" v="Potlatch 0.10f"/>
    <tag k="highway" v="residential"/>
    <tag k="name" v="Amur Drive"/>
    <tag k="oneway" v="yes"/>
    <tag k="source" v="GPS"/>
  </way>
  <way id="30876710" version="4" timestamp="2012-01-31T17:56:41Z" uid="92286" user="Paul Johnson" changeset="10551674">
    <nd ref="343306072"/>
    <nd ref="343570577"/>
    <nd ref="343306165"/>
    <nd ref="343306166"/>
    <nd ref="343306167"/>
    <nd ref="343306168"/>
    <nd ref="343306117"/>
    <tag k="highway" v="residential"/>
    <tag k="name" v="Amur Drive"/>
    <tag k="odbl" v="clean"/>
    <tag k="oneway" v="yes"/>
    <tag k="source" v="GPS"/>
  </way>
  <way id="30876712" version="1" timestamp="2009-02-08T05:12:11Z" uid="68769" user="david lynch" changeset="268823">
    <nd ref="343306152"/>
    <nd ref="343306169"/>
    <tag k="created_by" v="Potlatch 0.10f"/>
    <tag k="highway" v="residential"/>
    <tag k="name" v="Stone Way"/>
    <tag k="source" v="GPS"/>
  </way>
  <way id="30876718" version="1" timestamp="2009-02-08T05:12:59Z" uid="68769" user="david lynch" changeset="268823">
    <nd ref="343306190"/>
    <nd ref="343306197"/>
    <tag k="created_by" v="Potlatch 0.10f"/>
    <tag k="highway" v="pedestrian"/>
    <tag k="name" v="Wilcott"/>
  </way>
  <way id="30876718" version="2" timestamp="2009-02-08T05:13:16Z" uid="68769" user="david lynch" changeset="268823">
    <nd ref="343306190"/>
    <nd ref="343306197"/>
    <tag k="created_by" v="Potlatch 0.10f"/>
    <tag k="highway" v="pedestrian"/>
    <tag k="name" v="Wilcott"/>
    <tag k="note" v="Approximate Location - from driving past"/>
  </way>
  <way id="30876718" version="3" timestamp="2012-02-12T17:40:53Z" uid="37392" user="25or6to4" changeset="10665658"/>
</osm>
