<?xml version='1.0' encoding='UTF-8'?>
<osm version="0.6" generator="libosmium/2.20.0">
  <way id="30904068" version="1" timestamp="2009-02-08T22:32:46Z" uid="20587" user="balrog-kun" changeset="288825">
    <nd ref="343567984"/>
    <nd ref="343567988"/>
    <nd ref="343567989"/>
    <nd ref="343567986"/>
    <nd ref="343567984"/>
    <tag k="building" v="yes"/>
    <tag k="building:levels" v="2"/>
  </way>
  <way id="30904068" version="2" timestamp="2011-02-14T15:26:01Z" uid="20587" user="balrog-kun" changeset="7286624">
    <nd ref="343567984"/>
    <nd ref="343567988"/>
    <nd ref="1152850653"/>
    <nd ref="1152850480"/>
    <nd ref="1152850586"/>
    <nd ref="1152850631"/>
    <nd ref="343567989"/>
    <nd ref="343567986"/>
    <nd ref="343567984"/>
    <tag k="building" v="industrial"/>
    <tag k="building:levels" v="2"/>
  </way>
  <way id="30904069" version="1" timestamp="2009-02-08T22:32:46Z" uid="20587" user="balrog-kun" changeset="288825">
    <nd ref="302711432"/>
    <nd ref="302711427"/>
    <nd ref="302711423"/>
    <nd ref="302711420"/>
    <nd ref="302711432"/>
  </way>
  <way id="30904129" version="1" timestamp="2009-02-08T22:34:42Z" uid="49111" user="Markus B" changeset="279443">
    <nd ref="343568644"/>
    <nd ref="343568648"/>
    <nd ref="343568650"/>
    <nd ref="343568653"/>
    <nd ref="343568644"/>
    <tag k="building" v="yes"/>
  </way>
  <way id="30904129" version="2" timestamp="2012-02-22T19:36:53Z" uid="89943" user="Bengatzer" changeset="10762366"/>
  <way id="30904131" version="1" timestamp="2009-02-08T22:34:43Z" uid="49111" user="Markus B" changeset="279443">
    <nd ref="343568661"/>
    <nd ref="343568656"/>
    <nd ref="343568657"/>
    <nd ref="343568659"/>
    <nd ref="343568661"/>
    <tag k="building" v="yes"/>
  </way>
  <way id="30904131" version="2" timestamp="2012-02-22T19:36:53Z" uid="89943" user="Bengatzer" changeset="10762366"/>
  <way id="30904133" version="1" timestamp="2009-02-08T22:34:43Z" uid="49111" user="Markus B" changeset="279443">
    <nd ref="343568664"/>
    <nd ref="343568666"/>
    <nd ref="343568663"/>
    <nd ref="343568668"/>
    <nd ref="343568664"/>
    <tag k="building" v="yes"/>
  </way>
  <way id="30904135" version="1" timestamp="2009-02-08T22:34:44Z" uid="49111" user="Markus B" changeset="279443">
    <nd ref="343568670"/>
    <nd ref="343568674"/>
    <nd ref="343568671"/>
    <nd ref="343568673"/>
    <nd ref="343568670"/>
    <tag k="building" v="yes"/>
  </way>
  <way id="30904137" version="1" timestamp="2009-02-08T22:34:45Z" uid="49111" user="Markus B" changeset="279443">
    <nd ref="343568676"/>
    <nd ref="343568678"/>
    <nd ref="343568680"/>
    <nd ref="343568683"/>
    <nd ref="343568676"/>
    <tag k="building" v="yes"/>
  </way>
  <way id="30904440" version="9" timestamp="2010-03-28T00:59:46Z" uid="20587" user="balrog-kun" changeset="4250871">
    <nd ref="65287373"/>
    <nd ref="65328443"/>
    <nd ref="65328444"/>
    <nd ref="65328447"/>
    <nd ref="65328449"/>
    <nd ref="65328451"/>
    <nd ref="65328453"/>
    <nd ref="65290041"/>
    <tag k="created_by" v="Potlatch 0.10f"/>
    <tag k="highway" v="unclassified"/>
    <tag k="name" v="30th Avenue"/>
    <tag k="tiger:county" v="San Francisco, CA"/>
  </way>
  <way id="30904440" version="10" timestamp="2011-10-18T09:50:37Z" uid="207745" user="NE2" changeset="9589605">
    <nd ref="65287373"/>
    <nd ref="65328443"/>
    <nd ref="65328444"/>
    <nd ref="65328447"/>
    <nd ref="65328449"/>
    <nd ref="65328451"/>
    <nd ref="65328453"/>
    <nd ref="65290041"/>
    <tag k="highway" v="unclassified"/>
    <tag k="lcn_ref" v="530"/>
    <tag k="name" v="30th Avenue"/>
    <tag k="tiger:county" v="San Francisco, CA"/>
  </way>
  <way id="30904441" version="5" timestamp="2010-03-28T00:59:46Z" uid="20587" user="balrog-kun" changeset="4250871">
    <nd ref="258912606"/>
    <nd ref="65309647"/>
    <nd ref="65309650"/>
    <nd ref="65309652"/>
    <nd ref="65294006"/>
    <nd ref="65309655"/>
    <nd ref="65288290"/>
    <nd ref="65309657"/>
    <tag k="created_by" v="Potlatch 0.10f"/>
    <tag k="highway" v="residential"/>
    <tag k="name" v="25th Avenue"/>
    <tag k="tiger:county" v="San Francisco, CA"/>
  </way>
  <way id="30904441" version="6" timestamp="2011-03-11T10:33:38Z" uid="14293" user="dahveed76" changeset="7521926">
    <nd ref="258912606"/>
    <nd ref="65309647"/>
    <nd ref="65309650"/>
    <nd ref="65309652"/>
    <nd ref="65294006"/>
    <nd ref="65309655"/>
    <nd ref="65288290"/>
    <nd ref="65309657"/>
    <tag k="highway" v="residential"/>
    <tag k="name" v="25th Avenue"/>
    <tag k="tiger:county" v="San Francisco, CA"/>
  </way>
  <way id="30904471" version="2" timestamp="2009-02-08T23:37:07Z" uid="6975" user="ulfl" changeset="302124">
    <nd ref="343570584"/>
    <nd ref="343570801"/>
    <nd ref="266993884"/>
    <nd ref="266993885"/>
    <nd ref="266993864"/>
    <nd ref="266993865"/>
    <nd ref="266993531"/>
    <nd ref="266993530"/>
    <nd ref="266993529"/>
    <nd ref="266993528"/>
    <nd ref="266993527"/>
    <nd ref="266993526"/>
    <nd ref="266993525"/>
    <nd ref="266993524"/>
    <nd ref="343570217"/>
    <nd ref="343570585"/>
    <nd ref="343570584"/>
    <tag k="landuse" v="industrial"/>
    <tag k="name" v="Daily Mail"/>
  </way>
  <way id="30904471" version="3" timestamp="2009-09-15T12:59:22Z" uid="3984" user="Socks" changeset="2492387">
    <nd ref="343570584"/>
    <nd ref="343570801"/>
    <nd ref="266993884"/>
    <nd ref="266993885"/>
    <nd ref="266993864"/>
    <nd ref="266993865"/>
    <nd ref="266993531"/>
    <nd ref="266993530"/>
    <nd ref="266993529"/>
    <nd ref="266993528"/>
    <nd ref="266993527"/>
    <nd ref="266993526"/>
    <nd ref="266993525"/>
    <nd ref="266993524"/>
    <nd ref="343570217"/>
    <nd ref="343570585"/>
    <nd ref="343570584"/>
    <tag k="landuse" v="industrial"/>
    <tag k="name" v="Harmsworth Printing Limited"/>
  </way>
  <way id="30904471" version="4" timestamp="2010-09-15T15:35:30Z" uid="24334" user="jochta" changeset="5788238">
    <nd ref="343570584"/>
    <nd ref="343570801"/>
    <nd ref="266993884"/>
    <nd ref="266993885"/>
    <nd ref="266993864"/>
    <nd ref="266993865"/>
    <nd ref="913556776"/>
    <nd ref="266993531"/>
    <nd ref="266993530"/>
    <nd ref="266993529"/>
    <nd ref="266993528"/>
    <nd ref="266993527"/>
    <nd ref="266993526"/>
    <nd ref="266993525"/>
    <nd ref="266993524"/>
    <nd ref="343570217"/>
    <nd ref="343570585"/>
    <nd ref="343570584"/>
    <tag k="landuse" v="industrial"/>
    <tag k="name" v="Harmsworth Printing Limited"/>
  </way>
  <way id="30904471" version="5" timestamp="2010-09-15T15:39:44Z" uid="24334" user="jochta" changeset="5788238"/>
  <way id="30904513" version="5" timestamp="2010-12-03T09:07:03Z" uid="8619" user="cetest" changeset="6523719">
    <nd ref="343570896"/>
    <nd ref="1017817982"/>
    <nd ref="1017818004"/>
    <nd ref="1017817992"/>
    <nd ref="343570898"/>
    <nd ref="459743276"/>
    <nd ref="459743279"/>
    <nd ref="459753187"/>
    <nd ref="459753190"/>
    <nd ref="459753194"/>
    <nd ref="459767092"/>
    <nd ref="459767100"/>
    <nd ref="459767104"/>
    <nd ref="459767107"/>
    <nd ref="459767110"/>
    <nd ref="459767113"/>
    <tag k="boat" v="no"/>
    <tag k="waterway" v="drain"/>
  </way>
  <way id="30904513" version="6" timestamp="2011-08-10T20:25:10Z" uid="495541" user="Arthur Pijpers" changeset="8980284">
    <nd ref="343570896"/>
    <nd ref="1017817982"/>
    <nd ref="1017818004"/>
    <nd ref="1017817992"/>
    <nd ref="343570898"/>
    <nd ref="459743276"/>
    <nd ref="459743279"/>
    <tag k="boat" v="no"/>
    <tag k="waterway" v="drain"/>
  </way>
  <way id="30904513" version="7" timestamp="2011-08-10T20:36:09Z" uid="495541" user="Arthur Pijpers" changeset="8980393"/>
  <way id="30904536" version="1" timestamp="2009-02-08T22:45:32Z" uid="68769" user="david lynch" changeset="288995">
    <nd ref="152740607"/>
    <nd ref="343571021"/>
    <tag k="created_by" v="Potlatch 0.10f"/>
    <tag k="highway" v="residential"/>
  </way>
  <way id="30904536" version="2" timestamp="2009-02-08T22:45:40Z" uid="68769" user="david lynch" changeset="288995">
    <nd ref="152740607"/>
    <nd ref="343571021"/>
    <tag k="created_by" v="Potlatch 0.10f"/>
    <tag k="highway" v="residential"/>
  </way>
  <way id="30904690" version="1" timestamp="2009-02-08T22:48:28Z" uid="20587" user="balrog-kun" changeset="288825">
    <nd ref="119830946"/>
    <nd ref="248204262"/>
    <tag k="created_by" v="JOSM"/>
    <tag k="highway" v="residential"/>
    <tag k="name" v="Berezyńska"/>
  </way>
  <way id="30904690" version="2" timestamp="2011-08-13T11:27:00Z" uid="99386" user="masti" changeset="9004560">
    <nd ref="119830946"/>
    <nd ref="248204262"/>
    <tag k="highway" v="residential"/>
    <tag k="name" v="Berezyńska"/>
    <tag k="restriction" v="only_right_turn"/>
  </way>
  <way id="30904691" version="1" timestamp="2009-02-08T22:48:28Z" uid="20587" user="balrog-kun" changeset="288825">
    <nd ref="255443832"/>
    <nd ref="248204302"/>
    <nd ref="254518004"/>
    <nd ref="248463120"/>
    <tag k="created_by" v="JOSM"/>
    <tag k="highway" v="residential"/>
    <tag k="name" v="Saska"/>
    <tag k="wikipedia" v="pl:Ulica Saska w Warszawie"/>
  </way>
  <way id="30904691" version="2" timestamp="2011-08-28T15:15:33Z" uid="373244" user="Tomaszg" changeset="9148147">
    <nd ref="255443832"/>
    <nd ref="248204302"/>
    <nd ref="254518004"/>
    <nd ref="248463120"/>
    <tag k="highway" v="tertiary"/>
    <tag k="name" v="Saska"/>
    <tag k="wikipedia" v="pl:Ulica Saska w Warszawie"/>
  </way>
  <way id="30904692" version="1" timestamp="2009-02-08T22:48:28Z" uid="20587" user="balrog-kun" changeset="288825">
    <nd ref="248463120"/>
    <nd ref="332014772"/>
    <nd ref="35969939"/>
    <nd ref="111534729"/>
    <nd ref="300421393"/>
    <nd ref="35969940"/>
    <nd ref="322391096"/>
    <nd ref="35969941"/>
    <nd ref="246804730"/>
    <nd ref="340325784"/>
    <nd ref="111534769"/>
    <nd ref="332014753"/>
    <nd ref="35969942"/>
    <nd ref="248207234"/>
    <nd ref="343564880"/>
    <nd ref="34465659"/>
    <tag k="created_by" v="JOSM"/>
    <tag k="highway" v="secondary"/>
    <tag k="name" v="Aleja Jerzego Waszyngtona"/>
    <tag k="old_name" v="Poniatowskiego"/>
    <tag k="ref" v="631"/>
    <tag k="wikipedia" v="pl:Aleja Jerzego Waszyngtona w Warszawie"/>
  </way>
  <way id="30904692" version="2" timestamp="2009-04-08T17:38:53Z" uid="20587" user="balrog-kun" changeset="326158">
    <nd ref="248463120"/>
    <nd ref="332014772"/>
    <nd ref="35969939"/>
    <nd ref="111534729"/>
    <nd ref="300421393"/>
    <nd ref="35969940"/>
    <nd ref="322391096"/>
    <nd ref="35969941"/>
    <nd ref="370880459"/>
    <nd ref="246804730"/>
    <nd ref="340325784"/>
    <nd ref="111534769"/>
    <nd ref="332014753"/>
    <nd ref="35969942"/>
    <nd ref="248207234"/>
    <nd ref="343564880"/>
    <nd ref="34465659"/>
    <tag k="created_by" v="JOSM"/>
    <tag k="highway" v="secondary"/>
    <tag k="name" v="Aleja Jerzego Waszyngtona"/>
    <tag k="old_name" v="Poniatowskiego"/>
    <tag k="ref" v="631"/>
    <tag k="wikipedia" v="pl:Aleja Jerzego Waszyngtona w Warszawie"/>
  </way>
  <way id="30904692" version="3" timestamp="2010-01-14T12:15:02Z" uid="20587" user="balrog-kun" changeset="3616517">
    <nd ref="248463120"/>
    <nd ref="332014772"/>
    <nd ref="35969939"/>
    <nd ref="111534729"/>
    <tag k="highway" v="secondary"/>
    <tag k="name" v="Aleja Jerzego Waszyngtona"/>
    <tag k="old_name" v="Poniatowskiego"/>
    <tag k="ref" v="631"/>
    <tag k="wikipedia" v="pl:Aleja Jerzego Waszyngtona w Warszawie"/>
  </way>
  <way id="30904692" version="4" timestamp="2010-02-19T12:45:52Z" uid="20587" user="balrog-kun" changeset="3915318">
    <nd ref="248463120"/>
    <nd ref="332014772"/>
    <nd ref="35969939"/>
    <nd ref="111534729"/>
    <tag k="highway" v="secondary"/>
    <tag k="maxweight" v="10"/>
    <tag k="name" v="Aleja Jerzego Waszyngtona"/>
    <tag k="old_name" v="Poniatowskiego"/>
    <tag k="ref" v="631"/>
    <tag k="wikipedia" v="pl:Aleja Jerzego Waszyngtona w Warszawie"/>
  </way>
  <way id="30904692" version="5" timestamp="2010-05-01T17:19:07Z" uid="20587" user="balrog-kun" changeset="4577369">
    <nd ref="248463120"/>
    <nd ref="332014772"/>
    <nd ref="35969939"/>
    <nd ref="111534729"/>
    <tag k="highway" v="secondary"/>
    <tag k="lanes" v="6"/>
    <tag k="maxweight" v="10"/>
    <tag k="name" v="Aleja Jerzego Waszyngtona"/>
    <tag k="old_name" v="Poniatowskiego"/>
    <tag k="ref" v="631"/>
    <tag k="wikipedia" v="pl:Aleja Jerzego Waszyngtona w Warszawie"/>
  </way>
  <way id="30904692" version="6" timestamp="2010-11-19T00:44:55Z" uid="20587" user="balrog-kun" changeset="6404193">
    <nd ref="248463120"/>
    <nd ref="332014772"/>
    <nd ref="35969939"/>
    <nd ref="111534729"/>
    <tag k="agricultural" v="no"/>
    <tag k="highway" v="secondary"/>
    <tag k="lanes" v="6"/>
    <tag k="maxweight" v="10"/>
    <tag k="name" v="Aleja Jerzego Waszyngtona"/>
    <tag k="old_name" v="Poniatowskiego"/>
    <tag k="ref" v="631"/>
    <tag k="wikipedia" v="pl:Aleja Jerzego Waszyngtona w Warszawie"/>
  </way>
  <way id="30904692" version="7" timestamp="2010-12-08T21:30:15Z" uid="99386" user="masti" changeset="6589724">
    <nd ref="248463120"/>
    <nd ref="332014772"/>
    <nd ref="35969939"/>
    <nd ref="111534729"/>
    <tag k="agricultural" v="no"/>
    <tag k="highway" v="secondary"/>
    <tag k="lanes" v="4"/>
    <tag k="maxweight" v="10"/>
    <tag k="name" v="Aleja Jerzego Waszyngtona"/>
    <tag k="old_name" v="Poniatowskiego"/>
    <tag k="ref" v="631"/>
    <tag k="wikipedia" v="pl:Aleja Jerzego Waszyngtona w Warszawie"/>
  </way>
  <way id="30904692" version="8" timestamp="2011-02-14T15:26:08Z" uid="20587" user="balrog-kun" changeset="7286624">
    <nd ref="248463120"/>
    <nd ref="332014772"/>
    <nd ref="35969939"/>
    <nd ref="1152850608"/>
    <nd ref="111534729"/>
    <tag k="agricultural" v="no"/>
    <tag k="highway" v="secondary"/>
    <tag k="lanes" v="4"/>
    <tag k="maxweight" v="10"/>
    <tag k="name" v="Aleja Jerzego Waszyngtona"/>
    <tag k="old_name" v="Poniatowskiego"/>
    <tag k="ref" v="631"/>
    <tag k="wikipedia" v="pl:Aleja Jerzego Waszyngtona w Warszawie"/>
  </way>
  <way id="30904692" version="9" timestamp="2011-10-17T21:30:00Z" uid="99386" user="masti" changeset="9586635">
    <nd ref="248463120"/>
    <nd ref="332014772"/>
    <nd ref="35969939"/>
    <nd ref="1471256163"/>
    <nd ref="1152850608"/>
    <nd ref="111534729"/>
    <tag k="agricultural" v="no"/>
    <tag k="highway" v="secondary"/>
    <tag k="lanes" v="4"/>
    <tag k="maxweight" v="10"/>
    <tag k="name" v="Aleja Jerzego Waszyngtona"/>
    <tag k="old_name" v="Poniatowskiego"/>
    <tag k="ref" v="631"/>
    <tag k="wikipedia" v="pl:Aleja Jerzego Waszyngtona w Warszawie"/>
  </way>
  <way id="30904761" version="1" timestamp="2009-02-08T22:52:24Z" uid="30201" user="rrankin" changeset="288986">
    <nd ref="343572576"/>
    <nd ref="343572577"/>
    <nd ref="343572578"/>
    <tag k="highway" v="residential"/>
    <tag k="name" v="Pritchard Street"/>
    <tag k="source" v="survey"/>
  </way>
  <way id="30904761" version="2" timestamp="2009-05-14T22:44:06Z" uid="67896" user="mrpulley" changeset="1193676">
    <nd ref="343572576"/>
    <nd ref="400060247"/>
    <nd ref="343572577"/>
    <nd ref="343572578"/>
    <tag k="highway" v="residential"/>
    <tag k="name" v="Pritchard Street"/>
    <tag k="source" v="survey"/>
  </way>
  <way id="30904761" version="3" timestamp="2009-05-14T22:44:32Z" uid="67896" user="mrpulley" changeset="1193676">
    <nd ref="343572576"/>
    <nd ref="400060247"/>
    <nd ref="400061623"/>
    <nd ref="343572577"/>
    <nd ref="343572578"/>
    <tag k="highway" v="residential"/>
    <tag k="name" v="Pritchard Street"/>
    <tag k="source" v="survey"/>
  </way>
  <way id="30904761" version="4" timestamp="2010-03-29T20:11:38Z" uid="30201" user="rrankin" changeset="4271079">
    <nd ref="343572576"/>
    <nd ref="677713472"/>
    <nd ref="677713464"/>
    <nd ref="677713471"/>
    <nd ref="677713468"/>
    <nd ref="677713460"/>
    <nd ref="400060247"/>
    <nd ref="400061623"/>
    <nd ref="343572577"/>
    <nd ref="343572578"/>
    <tag k="highway" v="residential"/>
    <tag k="name" v="Pritchard Street"/>
    <tag k="source" v="survey"/>
  </way>
  <way id="30904761" version="5" timestamp="2010-05-09T00:53:57Z" uid="34243" user="Tom Brennan" changeset="4644339">
    <nd ref="343572576"/>
    <nd ref="677713472"/>
    <nd ref="677713464"/>
    <nd ref="677713471"/>
    <nd ref="677713468"/>
    <nd ref="677713460"/>
    <nd ref="400060247"/>
    <nd ref="400061623"/>
    <nd ref="726925769"/>
    <nd ref="343572577"/>
    <nd ref="726925777"/>
    <nd ref="343572578"/>
    <tag k="highway" v="residential"/>
    <tag k="name" v="Pritchard Street"/>
    <tag k="source" v="survey"/>
  </way>
  <way id="30904761" version="6" timestamp="2010-05-10T12:36:54Z" uid="34243" user="Tom Brennan" changeset="4658808">
    <nd ref="343572576"/>
    <nd ref="677713472"/>
    <nd ref="677713464"/>
    <nd ref="677713471"/>
    <nd ref="677713468"/>
    <nd ref="677713460"/>
    <nd ref="400060247"/>
    <nd ref="400061623"/>
    <nd ref="726925769"/>
    <nd ref="343572577"/>
    <nd ref="726925777"/>
    <nd ref="343572578"/>
    <nd ref="728405059"/>
    <tag k="highway" v="residential"/>
    <tag k="name" v="Pritchard Street"/>
    <tag k="source" v="survey"/>
  </way>
  <way id="30904761" version="7" timestamp="2010-07-08T16:39:42Z" uid="74617" user="JohnSmith" changeset="5167338">
    <nd ref="343572576"/>
    <nd ref="677713472"/>
    <nd ref="677713464"/>
    <nd ref="677713471"/>
    <nd ref="677713468"/>
    <nd ref="677713460"/>
    <nd ref="400060247"/>
    <nd ref="400061623"/>
    <nd ref="726925769"/>
    <nd ref="343572577"/>
    <nd ref="726925777"/>
    <nd ref="343572578"/>
    <nd ref="728405059"/>
    <tag k="highway" v="residential"/>
    <tag k="maxspeed" v="50"/>
    <tag k="maxspeed:source" v="default residential speed limit in Australia"/>
    <tag k="name" v="Pritchard Street"/>
    <tag k="source" v="survey"/>
  </way>
  <way id="30904761" version="8" timestamp="2012-01-18T05:30:29Z" uid="147510" user="woodpeck_fixbot" changeset="10424371">
    <nd ref="343572576"/>
    <nd ref="677713472"/>
    <nd ref="677713464"/>
    <nd ref="677713471"/>
    <nd ref="677713468"/>
    <nd ref="677713460"/>
    <nd ref="400060247"/>
    <nd ref="400061623"/>
    <nd ref="726925769"/>
    <nd ref="343572577"/>
    <nd ref="726925777"/>
    <nd ref="343572578"/>
    <nd ref="728405059"/>
    <tag k="highway" v="residential"/>
    <tag k="name" v="Pritchard Street"/>
    <tag k="source" v="survey"/>
  </way>
  <way id="30904762" version="1" timestamp="2009-02-08T22:52:25Z" uid="30201" user="rrankin" changeset="288986">
    <nd ref="343572580"/>
    <nd ref="250305930"/>
    <tag k="FIXME" v="map past Wilson"/>
    <tag k="highway" v="residential"/>
    <tag k="name" v="Parkes Street"/>
    <tag k="source" v="survey"/>
  </way>
  <way id="30904762" version="2" timestamp="2010-03-31T21:11:20Z" uid="30201" user="rrankin" changeset="4289523">
    <nd ref="343572580"/>
    <nd ref="679428683"/>
    <nd ref="679428678"/>
    <nd ref="679428671"/>
    <nd ref="250305930"/>
    <tag k="FIXME" v="map past Wilson"/>
    <tag k="highway" v="residential"/>
    <tag k="name" v="Parkes Street"/>
    <tag k="source" v="survey"/>
  </way>
  <way id="30904762" version="3" timestamp="2010-04-17T09:13:47Z" uid="30201" user="rrankin" changeset="4445701">
    <nd ref="343572580"/>
    <nd ref="679428683"/>
    <nd ref="679428678"/>
    <nd ref="679428671"/>
    <nd ref="250305930"/>
    <tag k="highway" v="residential"/>
    <tag k="name" v="Parkes Street"/>
    <tag k="source" v="survey"/>
  </way>
  <way id="30904762" version="4" timestamp="2010-07-08T16:39:10Z" uid="74617" user="JohnSmith" changeset="5167338">
    <nd ref="343572580"/>
    <nd ref="679428683"/>
    <nd ref="679428678"/>
    <nd ref="679428671"/>
    <nd ref="250305930"/>
    <tag k="highway" v="residential"/>
    <tag k="maxspeed" v="50"/>
    <tag k="maxspeed:source" v="default residential speed limit in Australia"/>
    <tag k="name" v="Parkes Street"/>
    <tag k="source" v="survey"/>
  </way>
  <way id="30904762" version="5" timestamp="2012-01-18T05:30:30Z" uid="147510" user="woodpeck_fixbot" changeset="10424371">
    <nd ref="343572580"/>
    <nd ref="679428683"/>
    <nd ref="679428678"/>
    <nd ref="679428671"/>
    <nd ref="250305930"/>
    <tag k="highway" v="residential"/>
    <tag k="name" v="Parkes Street"/>
    <tag k="source" v="survey"/>
  </way>
  <way id="30904763" version="1" timestamp="2009-02-08T22:52:26Z" uid="30201" user="rrankin" changeset="288986">
    <nd ref="343572643"/>
    <nd ref="343572645"/>
    <nd ref="35119003"/>
    <tag k="highway" v="residential"/>
    <tag k="name" v="Waratah Road"/>
    <tag k="source" v="survey"/>
  </way>
  <way id="30904763" version="2" timestamp="2010-03-29T11:12:53Z" uid="30201" user="rrankin" changeset="4266375">
    <nd ref="343572643"/>
    <nd ref="343572645"/>
    <nd ref="677391253"/>
    <nd ref="677391252"/>
    <nd ref="35119003"/>
    <tag k="highway" v="residential"/>
    <tag k="name" v="Waratah Road"/>
    <tag k="source" v="survey"/>
  </way>
  <way id="30904763" version="3" timestamp="2010-07-08T16:38:42Z" uid="74617" user="JohnSmith" changeset="5167338">
    <nd ref="343572643"/>
    <nd ref="343572645"/>
    <nd ref="677391253"/>
    <nd ref="677391252"/>
    <nd ref="35119003"/>
    <tag k="highway" v="residential"/>
    <tag k="maxspeed" v="50"/>
    <tag k="maxspeed:source" v="default residential speed limit in Australia"/>
    <tag k="name" v="Waratah Road"/>
    <tag k="source" v="survey"/>
  </way>
  <way id="30904763" version="4" timestamp="2012-01-18T05:30:31Z" uid="147510" user="woodpeck_fixbot" changeset="10424371">
    <nd ref="343572643"/>
    <nd ref="343572645"/>
    <nd ref="677391253"/>
    <nd ref="677391252"/>
    <nd ref="35119003"/>
    <tag k="highway" v="residential"/>
    <tag k="name" v="Waratah Road"/>
    <tag k="source" v="survey"/>
  </way>
  <way id="30904764" version="1" timestamp="2009-02-08T22:52:26Z" uid="30201" user="rrankin" changeset="288986">
    <nd ref="343572644"/>
    <nd ref="343572656"/>
    <nd ref="343572657"/>
    <nd ref="343572645"/>
    <tag k="highway" v="residential"/>
    <tag k="name" v="Pauline Avenue"/>
    <tag k="source" v="survey"/>
  </way>
  <way id="30904764" version="2" timestamp="2010-03-29T11:12:52Z" uid="30201" user="rrankin" changeset="4266375">
    <nd ref="343572644"/>
    <nd ref="677391256"/>
    <nd ref="343572656"/>
    <nd ref="343572657"/>
    <nd ref="677391254"/>
    <nd ref="343572645"/>
    <tag k="highway" v="residential"/>
    <tag k="name" v="Pauline Avenue"/>
    <tag k="source" v="survey"/>
  </way>
  <way id="30904764" version="3" timestamp="2010-04-01T13:08:14Z" uid="7617" user="Franc" changeset="4293850">
    <nd ref="343572644"/>
    <nd ref="677391256"/>
    <nd ref="343572656"/>
    <nd ref="679781446"/>
    <nd ref="343572657"/>
    <nd ref="679781445"/>
    <nd ref="677391254"/>
    <nd ref="343572645"/>
    <tag k="highway" v="residential"/>
    <tag k="name" v="Pauline Avenue"/>
    <tag k="source" v="survey"/>
  </way>
  <way id="30904764" version="4" timestamp="2010-07-08T16:37:28Z" uid="74617" user="JohnSmith" changeset="5167338">
    <nd ref="343572644"/>
    <nd ref="677391256"/>
    <nd ref="343572656"/>
    <nd ref="679781446"/>
    <nd ref="343572657"/>
    <nd ref="679781445"/>
    <nd ref="677391254"/>
    <nd ref="343572645"/>
    <tag k="highway" v="residential"/>
    <tag k="maxspeed" v="50"/>
    <tag k="maxspeed:source" v="default residential speed limit in Australia"/>
    <tag k="name" v="Pauline Avenue"/>
    <tag k="source" v="survey"/>
  </way>
  <way id="30904764" version="5" timestamp="2012-01-18T05:30:32Z" uid="147510" user="woodpeck_fixbot" changeset="10424371">
    <nd ref="343572644"/>
    <nd ref="677391256"/>
    <nd ref="343572656"/>
    <nd ref="679781446"/>
    <nd ref="343572657"/>
    <nd ref="679781445"/>
    <nd ref="677391254"/>
    <nd ref="343572645"/>
    <tag k="highway" v="residential"/>
    <tag k="name" v="Pauline Avenue"/>
    <tag k="source" v="survey"/>
  </way>
  <way id="30904765" version="1" timestamp="2009-02-08T22:52:27Z" uid="30201" user="rrankin" changeset="288986">
    <nd ref="343572655"/>
    <nd ref="343572656"/>
    <tag k="highway" v="residential"/>
    <tag k="name" v="Beatty Road"/>
    <tag k="source" v="survey"/>
  </way>
  <way id="30904765" version="2" timestamp="2010-03-29T11:12:53Z" uid="30201" user="rrankin" changeset="4266375">
    <nd ref="343572655"/>
    <nd ref="677391258"/>
    <nd ref="343572656"/>
    <tag k="highway" v="residential"/>
    <tag k="name" v="Beatty Road"/>
    <tag k="source" v="survey"/>
  </way>
  <way id="30904765" version="3" timestamp="2010-04-01T13:08:15Z" uid="7617" user="Franc" changeset="4293850">
    <nd ref="343572655"/>
    <nd ref="679781441"/>
    <nd ref="677391258"/>
    <nd ref="343572656"/>
    <tag k="highway" v="residential"/>
    <tag k="name" v="Beatty Road"/>
    <tag k="source" v="survey"/>
  </way>
  <way id="30904765" version="4" timestamp="2010-07-08T16:39:19Z" uid="74617" user="JohnSmith" changeset="5167338">
    <nd ref="343572655"/>
    <nd ref="679781441"/>
    <nd ref="677391258"/>
    <nd ref="343572656"/>
    <tag k="highway" v="residential"/>
    <tag k="maxspeed" v="50"/>
    <tag k="maxspeed:source" v="default residential speed limit in Australia"/>
    <tag k="name" v="Beatty Road"/>
    <tag k="source" v="survey"/>
  </way>
  <way id="30904765" version="5" timestamp="2012-01-18T05:30:34Z" uid="147510" user="woodpeck_fixbot" changeset="10424371">
    <nd ref="343572655"/>
    <nd ref="679781441"/>
    <nd ref="677391258"/>
    <nd ref="343572656"/>
    <tag k="highway" v="residential"/>
    <tag k="name" v="Beatty Road"/>
    <tag k="source" v="survey"/>
  </way>
  <way id="30904766" version="1" timestamp="2009-02-08T22:52:28Z" uid="30201" user="rrankin" changeset="288986">
    <nd ref="343572657"/>
    <nd ref="35119004"/>
    <tag k="highway" v="residential"/>
    <tag k="name" v="Toulon Avenue"/>
    <tag k="source" v="survey"/>
  </way>
  <way id="30904766" version="2" timestamp="2009-02-08T23:12:17Z" uid="30201" user="rrankin" changeset="288986">
    <nd ref="343572657"/>
    <nd ref="35119004"/>
    <nd ref="343577467"/>
    <tag k="highway" v="residential"/>
    <tag k="name" v="Toulon Avenue"/>
    <tag k="source" v="survey"/>
  </way>
  <way id="30904766" version="3" timestamp="2010-04-01T13:08:15Z" uid="7617" user="Franc" changeset="4293850">
    <nd ref="343572657"/>
    <nd ref="35119004"/>
    <nd ref="679781451"/>
    <nd ref="679781452"/>
    <nd ref="343577467"/>
    <tag k="highway" v="residential"/>
    <tag k="name" v="Toulon Avenue"/>
    <tag k="source" v="survey"/>
  </way>
  <way id="30904766" version="4" timestamp="2010-07-08T16:38:49Z" uid="74617" user="JohnSmith" changeset="5167338">
    <nd ref="343572657"/>
    <nd ref="35119004"/>
    <nd ref="679781451"/>
    <nd ref="679781452"/>
    <nd ref="343577467"/>
    <tag k="highway" v="residential"/>
    <tag k="maxspeed" v="50"/>
    <tag k="maxspeed:source" v="default residential speed limit in Australia"/>
    <tag k="name" v="Toulon Avenue"/>
    <tag k="source" v="survey"/>
  </way>
  <way id="30904766" version="5" timestamp="2012-01-18T05:30:35Z" uid="147510" user="woodpeck_fixbot" changeset="10424371">
    <nd ref="343572657"/>
    <nd ref="35119004"/>
    <nd ref="679781451"/>
    <nd ref="679781452"/>
    <nd ref="343577467"/>
    <tag k="highway" v="residential"/>
    <tag k="name" v="Toulon Avenue"/>
    <tag k="source" v="survey"/>
  </way>
  <way id="30904767" version="1" timestamp="2009-02-08T22:52:29Z" uid="30201" user="rrankin" changeset="288986">
    <nd ref="343572658"/>
    <nd ref="343572659"/>
    <tag k="highway" v="residential"/>
    <tag k="name" v="Bass Road"/>
    <tag k="source" v="survey"/>
  </way>
  <way id="30904767" version="2" timestamp="2010-07-08T16:38:22Z" uid="74617" user="JohnSmith" changeset="5167338">
    <nd ref="343572658"/>
    <nd ref="343572659"/>
    <tag k="highway" v="residential"/>
    <tag k="maxspeed" v="50"/>
    <tag k="maxspeed:source" v="default residential speed limit in Australia"/>
    <tag k="name" v="Bass Road"/>
    <tag k="source" v="survey"/>
  </way>
  <way id="30904767" version="3" timestamp="2011-04-17T01:15:12Z" uid="7617" user="Franc" changeset="7883370">
    <nd ref="343572658"/>
    <nd ref="1247835478"/>
    <nd ref="1247835394"/>
    <nd ref="343572659"/>
    <tag k="highway" v="residential"/>
    <tag k="maxspeed" v="50"/>
    <tag k="maxspeed:source" v="default residential speed limit in Australia"/>
    <tag k="name" v="Bass Road"/>
    <tag k="source" v="survey"/>
  </way>
  <way id="30904767" version="4" timestamp="2012-01-18T05:30:36Z" uid="147510" user="woodpeck_fixbot" changeset="10424371">
    <nd ref="343572658"/>
    <nd ref="1247835478"/>
    <nd ref="1247835394"/>
    <nd ref="343572659"/>
    <tag k="highway" v="residential"/>
    <tag k="name" v="Bass Road"/>
    <tag k="source" v="survey"/>
  </way>
  <way id="30904768" version="1" timestamp="2009-02-08T22:52:30Z" uid="30201" user="rrankin" changeset="288986">
    <nd ref="343572660"/>
    <nd ref="343572661"/>
    <tag k="highway" v="residential"/>
    <tag k="name" v="Cook Road"/>
    <tag k="source" v="survey"/>
  </way>
  <way id="30904768" version="2" timestamp="2010-04-09T02:03:02Z" uid="34243" user="Tom Brennan" changeset="4369206">
    <nd ref="689695763"/>
    <nd ref="689695766"/>
    <nd ref="343572660"/>
    <nd ref="689695767"/>
    <nd ref="343572661"/>
    <tag k="highway" v="residential"/>
    <tag k="source" v="nearmap"/>
  </way>
  <way id="30904768" version="3" timestamp="2010-07-08T16:39:04Z" uid="74617" user="JohnSmith" changeset="5167338">
    <nd ref="689695763"/>
    <nd ref="689695766"/>
    <nd ref="343572660"/>
    <nd ref="689695767"/>
    <nd ref="343572661"/>
    <tag k="highway" v="residential"/>
    <tag k="maxspeed" v="50"/>
    <tag k="maxspeed:source" v="default residential speed limit in Australia"/>
    <tag k="source" v="nearmap"/>
  </way>
  <way id="30904768" version="4" timestamp="2011-04-17T01:15:00Z" uid="7617" user="Franc" changeset="7883370">
    <nd ref="689695763"/>
    <nd ref="1247835447"/>
    <nd ref="1247835321"/>
    <tag k="highway" v="residential"/>
    <tag k="maxspeed" v="50"/>
    <tag k="maxspeed:source" v="default residential speed limit in Australia"/>
    <tag k="name" v="Flora Street"/>
    <tag k="source" v="nearmap"/>
    <tag k="source:name" v="survey"/>
  </way>
  <way id="30904768" version="5" timestamp="2012-01-18T05:30:37Z" uid="147510" user="woodpeck_fixbot" changeset="10424371">
    <nd ref="689695763"/>
    <nd ref="1247835447"/>
    <nd ref="1247835321"/>
    <tag k="highway" v="residential"/>
    <tag k="name" v="Flora Street"/>
    <tag k="source" v="nearmap"/>
    <tag k="source:name" v="survey"/>
  </way>
  <way id="30904769" version="1" timestamp="2009-02-08T22:52:30Z" uid="30201" user="rrankin" changeset="288986">
    <nd ref="343572661"/>
    <nd ref="343572662"/>
    <nd ref="343572663"/>
    <nd ref="343572664"/>
    <nd ref="343572659"/>
    <tag k="highway" v="residential"/>
    <tag k="source" v="survey"/>
  </way>
  <way id="30904769" version="2" timestamp="2010-03-29T11:12:46Z" uid="30201" user="rrankin" changeset="4266375">
    <nd ref="343572659"/>
    <nd ref="343572664"/>
    <nd ref="343572663"/>
    <nd ref="343572662"/>
    <nd ref="343572661"/>
    <nd ref="677391138"/>
    <nd ref="677391140"/>
    <tag k="highway" v="residential"/>
    <tag k="source" v="survey"/>
  </way>
  <way id="30904769" version="3" timestamp="2010-07-08T16:38:36Z" uid="74617" user="JohnSmith" changeset="5167338">
    <nd ref="343572659"/>
    <nd ref="343572664"/>
    <nd ref="343572663"/>
    <nd ref="343572662"/>
    <nd ref="343572661"/>
    <nd ref="677391138"/>
    <nd ref="677391140"/>
    <tag k="highway" v="residential"/>
    <tag k="maxspeed" v="50"/>
    <tag k="maxspeed:source" v="default residential speed limit in Australia"/>
    <tag k="source" v="survey"/>
  </way>
  <way id="30904769" version="4" timestamp="2011-04-17T01:15:02Z" uid="7617" user="Franc" changeset="7883370">
    <nd ref="343572659"/>
    <nd ref="1247835323"/>
    <nd ref="1247835335"/>
    <nd ref="1247835397"/>
    <nd ref="1247835385"/>
    <nd ref="343572664"/>
    <nd ref="1247835459"/>
    <nd ref="343572663"/>
    <nd ref="1247835319"/>
    <nd ref="343572662"/>
    <nd ref="1247835380"/>
    <nd ref="343572661"/>
    <nd ref="677391138"/>
    <nd ref="677391140"/>
    <nd ref="1247835333"/>
    <nd ref="1247835474"/>
    <nd ref="1247835409"/>
    <nd ref="1247835349"/>
    <nd ref="1247835491"/>
    <nd ref="1247835425"/>
    <nd ref="1247835365"/>
    <nd ref="1247835487"/>
    <nd ref="1247835420"/>
    <nd ref="1247835361"/>
    <nd ref="1247835506"/>
    <nd ref="1247835439"/>
    <nd ref="1247835378"/>
    <nd ref="1247835317"/>
    <nd ref="1247835455"/>
    <tag k="highway" v="residential"/>
    <tag k="maxspeed" v="50"/>
    <tag k="maxspeed:source" v="default residential speed limit in Australia"/>
    <tag k="name" v="Banksia Road"/>
    <tag k="source" v="nearmap"/>
    <tag k="source:name" v="survey"/>
  </way>
  <way id="30904769" version="5" timestamp="2012-01-18T05:30:38Z" uid="147510" user="woodpeck_fixbot" changeset="10424371">
    <nd ref="343572659"/>
    <nd ref="1247835323"/>
    <nd ref="1247835335"/>
    <nd ref="1247835397"/>
    <nd ref="1247835385"/>
    <nd ref="343572664"/>
    <nd ref="1247835459"/>
    <nd ref="343572663"/>
    <nd ref="1247835319"/>
    <nd ref="343572662"/>
    <nd ref="1247835380"/>
    <nd ref="343572661"/>
    <nd ref="677391138"/>
    <nd ref="677391140"/>
    <nd ref="1247835333"/>
    <nd ref="1247835474"/>
    <nd ref="1247835409"/>
    <nd ref="1247835349"/>
    <nd ref="1247835491"/>
    <nd ref="1247835425"/>
    <nd ref="1247835365"/>
    <nd ref="1247835487"/>
    <nd ref="1247835420"/>
    <nd ref="1247835361"/>
    <nd ref="1247835506"/>
    <nd ref="1247835439"/>
    <nd ref="1247835378"/>
    <nd ref="1247835317"/>
    <nd ref="1247835455"/>
    <tag k="highway" v="residential"/>
    <tag k="name" v="Banksia Road"/>
    <tag k="source" v="nearmap"/>
    <tag k="source:name" v="survey"/>
  </way>
  <way id="30904817" version="1" timestamp="2009-02-08T22:55:14Z" uid="68769" user="david lynch" changeset="288995">
    <nd ref="152660655"/>
    <nd ref="282613346"/>
    <tag k="created_by" v="Potlatch 0.10f"/>
    <tag k="highway" v="residential"/>
    <tag k="name" v="Home Depot Blvd"/>
    <tag k="source" v="Yahoo; GPS"/>
  </way>
  <way id="30904817" version="2" timestamp="2009-02-09T04:38:14Z" uid="68769" user="david lynch" changeset="293393">
    <nd ref="152660655"/>
    <nd ref="282613346"/>
    <tag k="created_by" v="Potlatch 0.10f"/>
    <tag k="highway" v="residential"/>
    <tag k="name" v="Home Depot Blvd"/>
    <tag k="source" v="Yahoo; GPS"/>
  </way>
  <way id="30904817" version="3" timestamp="2010-04-07T13:25:50Z" uid="20587" user="balrog-kun" changeset="4353646">
    <nd ref="152660655"/>
    <nd ref="282613346"/>
    <tag k="created_by" v="Potlatch 0.10f"/>
    <tag k="highway" v="residential"/>
    <tag k="name" v="Home Depot Boulevard"/>
    <tag k="source" v="Yahoo; GPS"/>
  </way>
  <way id="30904817" version="4" timestamp="2012-01-31T19:48:04Z" uid="92286" user="Paul Johnson" changeset="10551674">
    <nd ref="152660655"/>
    <nd ref="282613346"/>
    <tag k="highway" v="residential"/>
    <tag k="name" v="Home Depot Boulevard"/>
    <tag k="odbl" v="clean"/>
    <tag k="source" v="Yahoo; GPS"/>
  </way>
  <way id="30904822" version="1" timestamp="2009-02-08T22:55:54Z" uid="68769" user="david lynch" changeset="288995">
    <nd ref="152660655"/>
    <nd ref="343573409"/>
    <nd ref="343573410"/>
    <nd ref="343573411"/>
    <nd ref="343573412"/>
    <nd ref="343573413"/>
    <nd ref="343573415"/>
    <nd ref="343573210"/>
    <tag k="created_by" v="Potlatch 0.10f"/>
    <tag k="highway" v="residential"/>
    <tag k="name" v="Home Depot Blvd"/>
    <tag k="oneway" v="yes"/>
    <tag k="source" v="Yahoo; GPS"/>
  </way>
  <way id="30904822" version="2" timestamp="2009-02-08T22:56:15Z" uid="68769" user="david lynch" changeset="288995">
    <nd ref="152660655"/>
    <nd ref="343573409"/>
    <nd ref="343573410"/>
    <nd ref="343573411"/>
    <nd ref="343573412"/>
    <nd ref="343573413"/>
    <nd ref="343573415"/>
    <nd ref="343573210"/>
    <tag k="created_by" v="Potlatch 0.10f"/>
    <tag k="highway" v="residential"/>
    <tag k="name" v="Home Depot Blvd"/>
    <tag k="oneway" v="yes"/>
    <tag k="source" v="Yahoo; GPS"/>
  </way>
  <way id="30904822" version="3" timestamp="2009-02-09T05:27:35Z" uid="68769" user="david lynch" changeset="293393">
    <nd ref="152660655"/>
    <nd ref="343573409"/>
    <nd ref="343573410"/>
    <nd ref="343573411"/>
    <nd ref="343573412"/>
    <nd ref="343605895"/>
    <nd ref="343573413"/>
    <nd ref="343573415"/>
    <nd ref="343573210"/>
    <tag k="created_by" v="Potlatch 0.10f"/>
    <tag k="highway" v="residential"/>
    <tag k="name" v="Home Depot Blvd"/>
    <tag k="oneway" v="yes"/>
    <tag k="source" v="Yahoo; GPS"/>
  </way>
  <way id="30904822" version="4" timestamp="2010-04-07T13:25:51Z" uid="20587" user="balrog-kun" changeset="4353646">
    <nd ref="152660655"/>
    <nd ref="343573409"/>
    <nd ref="343573410"/>
    <nd ref="343573411"/>
    <nd ref="343573412"/>
    <nd ref="343605895"/>
    <nd ref="343573413"/>
    <nd ref="343573415"/>
    <nd ref="343573210"/>
    <tag k="created_by" v="Potlatch 0.10f"/>
    <tag k="highway" v="residential"/>
    <tag k="name" v="Home Depot Boulevard"/>
    <tag k="oneway" v="yes"/>
    <tag k="source" v="Yahoo; GPS"/>
  </way>
  <way id="30904822" version="5" timestamp="2012-01-31T19:48:06Z" uid="92286" user="Paul Johnson" changeset="10551674">
    <nd ref="152660655"/>
    <nd ref="343573409"/>
    <nd ref="343573410"/>
    <nd ref="343573411"/>
    <nd ref="343573412"/>
    <nd ref="343605895"/>
    <nd ref="343573413"/>
    <nd ref="343573415"/>
    <nd ref="343573210"/>
    <tag k="highway" v="residential"/>
    <tag k="name" v="Home Depot Boulevard"/>
    <tag k="odbl" v="clean"/>
    <tag k="oneway" v="yes"/>
    <tag k="source" v="Yahoo; GPS"/>
  </way>
  <way id="30904826" version="1" timestamp="2009-02-08T22:56:15Z" uid="68769" user="david lynch" changeset="288995">
    <nd ref="343573210"/>
    <nd ref="343573536"/>
    <nd ref="343573538"/>
    <nd ref="343573539"/>
    <nd ref="343573540"/>
    <tag k="created_by" v="Potlatch 0.10f"/>
    <tag k="highway" v="residential"/>
    <tag k="name" v="Home Depot Blvd"/>
    <tag k="oneway" v="yes"/>
    <tag k="source" v="Yahoo; GPS"/>
  </way>
  <way id="30904826" version="2" timestamp="2009-02-08T22:56:17Z" uid="68769" user="david lynch" changeset="288995">
    <nd ref="343573210"/>
    <nd ref="343573536"/>
    <nd ref="343573538"/>
    <nd ref="343573539"/>
    <nd ref="343573540"/>
    <tag k="created_by" v="Potlatch 0.10f"/>
    <tag k="highway" v="residential"/>
    <tag k="name" v="Home Depot Blvd"/>
    <tag k="source" v="Yahoo; GPS"/>
  </way>
  <way id="30904826" version="3" timestamp="2010-04-07T13:25:51Z" uid="20587" user="balrog-kun" changeset="4353646">
    <nd ref="343573210"/>
    <nd ref="343573536"/>
    <nd ref="343573538"/>
    <nd ref="343573539"/>
    <nd ref="343573540"/>
    <tag k="created_by" v="Potlatch 0.10f"/>
    <tag k="highway" v="residential"/>
    <tag k="name" v="Home Depot Boulevard"/>
    <tag k="source" v="Yahoo; GPS"/>
  </way>
  <way id="30904826" version="4" timestamp="2012-01-31T19:48:04Z" uid="92286" user="Paul Johnson" changeset="10551674">
    <nd ref="343573210"/>
    <nd ref="343573536"/>
    <nd ref="343573538"/>
    <nd ref="343573539"/>
    <nd ref="343573540"/>
    <tag k="highway" v="residential"/>
    <tag k="name" v="Home Depot Boulevard"/>
    <tag k="odbl" v="clean"/>
    <tag k="source" v="Yahoo; GPS"/>
  </way>
  <way id="30904993" version="1" timestamp="2009-02-08T22:58:16Z" uid="68769" user="david lynch" changeset="288995">
    <nd ref="152424376"/>
    <nd ref="152560186"/>
    <nd ref="152568558"/>
    <nd ref="152568559"/>
    <nd ref="152568561"/>
    <tag k="created_by" v="Potlatch 0.10f"/>
    <tag k="highway" v="secondary"/>
    <tag k="name" v="Southwest Pky"/>
    <tag k="tiger:cfcc" v="A41:A45"/>
    <tag k="tiger:county" v="Travis, TX"/>
    <tag k="tiger:name_base" v="Southwest"/>
    <tag k="tiger:name_type" v="Blvd:Pky"/>
    <tag k="tiger:reviewed" v="no"/>
    <tag k="tiger:separated" v="no:yes"/>
    <tag k="tiger:source" v="tiger_import_dch_v0.6_20070830"/>
    <tag k="tiger:tlid" v="63986190:63986196:63986216:63987678:63987679:64037914:64098292:64098293"/>
    <tag k="tiger:upload_uuid" v="bulk_upload.pl-d2be3ce0-24d6-40df-9a5f-7cd099f6eb32"/>
  </way>
  <way id="30904993" version="2" timestamp="2010-04-07T13:25:51Z" uid="20587" user="balrog-kun" changeset="4353646">
    <nd ref="152424376"/>
    <nd ref="152560186"/>
    <nd ref="152568558"/>
    <nd ref="152568559"/>
    <nd ref="152568561"/>
    <tag k="created_by" v="Potlatch 0.10f"/>
    <tag k="highway" v="secondary"/>
    <tag k="name" v="Southwest Parkway"/>
    <tag k="tiger:cfcc" v="A41:A45"/>
    <tag k="tiger:county" v="Travis, TX"/>
    <tag k="tiger:name_base" v="Southwest"/>
    <tag k="tiger:name_type" v="Blvd:Pky"/>
    <tag k="tiger:reviewed" v="no"/>
    <tag k="tiger:separated" v="no:yes"/>
    <tag k="tiger:source" v="tiger_import_dch_v0.6_20070830"/>
    <tag k="tiger:tlid" v="63986190:63986196:63986216:63987678:63987679:64037914:64098292:64098293"/>
  </way>
  <way id="30904993" version="3" timestamp="2012-01-31T21:49:30Z" uid="92286" user="Paul Johnson" changeset="10551674">
    <nd ref="152424376"/>
    <nd ref="152560186"/>
    <nd ref="152568558"/>
    <nd ref="152568559"/>
    <nd ref="152568561"/>
    <tag k="highway" v="secondary"/>
    <tag k="name" v="Southwest Parkway"/>
    <tag k="odbl" v="clean"/>
    <tag k="tiger:cfcc" v="A41:A45"/>
    <tag k="tiger:county" v="Travis, TX"/>
    <tag k="tiger:name_base" v="Southwest"/>
    <tag k="tiger:name_type" v="Blvd:Pky"/>
    <tag k="tiger:reviewed" v="no"/>
    <tag k="tiger:separated" v="no:yes"/>
    <tag k="tiger:source" v="tiger_import_dch_v0.6_20070830"/>
    <tag k="tiger:tlid" v="63986190:63986196:63986216:63987678:63987679:64037914:64098292:64098293"/>
  </way>
  <way id="30904993" version="4" timestamp="2012-02-09T07:10:40Z" uid="262151" user="ToeBee" changeset="10630859">
    <nd ref="152424376"/>
    <nd ref="152560186"/>
    <nd ref="152568558"/>
    <nd ref="152568559"/>
    <nd ref="152568561"/>
    <tag k="highway" v="secondary"/>
    <tag k="name" v="Southwest Parkway"/>
    <tag k="odbl" v="clean"/>
    <tag k="tiger:cfcc" v="A41:A45"/>
    <tag k="tiger:county" v="Travis, TX"/>
    <tag k="tiger:name_base" v="Southwest"/>
    <tag k="tiger:name_type" v="Blvd:Pky"/>
    <tag k="tiger:reviewed" v="no"/>
    <tag k="tiger:source" v="tiger_import_dch_v0.6_20070830"/>
    <tag k="tiger:tlid" v="63986190:63986196:63986216:63987678:63987679:64037914:64098292:64098293"/>
  </way>
  <way id="30904993" version="5" timestamp="2012-02-13T04:50:13Z" uid="119881" user="Clorox" changeset="10670212"/>
</osm>
