<?xml version='1.0' encoding='UTF-8'?>
<osm version="0.6" generator="libosmium/2.20.0">
  <way id="30938407" version="2" timestamp="2009-06-20T03:35:41Z" uid="4467" user="Rosscoe" changeset="1570680">
    <nd ref="344090244"/>
    <nd ref="344090249"/>
    <nd ref="60826643"/>
    <tag k="highway" v="trunk"/>
    <tag k="lanes" v="2"/>
    <tag k="name" v="Bruce Highway; Moores Creek Road"/>
    <tag k="oneway" v="yes"/>
    <tag k="ref" v="A1"/>
    <tag k="source" v="survey"/>
  </way>
  <way id="30938407" version="3" timestamp="2009-08-16T18:05:18Z" uid="74617" user="JohnSmith" changeset="2168766">
    <nd ref="60482689"/>
    <nd ref="60482693"/>
    <nd ref="60482695"/>
    <nd ref="60482698"/>
    <nd ref="60482701"/>
    <nd ref="60482706"/>
    <nd ref="60482710"/>
    <nd ref="430220286"/>
    <nd ref="430220285"/>
    <nd ref="60482714"/>
    <nd ref="60482716"/>
    <nd ref="60482718"/>
    <nd ref="60482721"/>
    <nd ref="344090244"/>
    <nd ref="344090249"/>
    <nd ref="60826643"/>
    <tag k="highway" v="trunk"/>
    <tag k="name" v="Moores Creek Road"/>
    <tag k="oneway" v="yes"/>
    <tag k="source" v="survey"/>
  </way>
  <way id="30938407" version="4" timestamp="2010-03-12T11:05:41Z" uid="10414" user="Dooghan" changeset="4105182">
    <nd ref="60482689"/>
    <nd ref="60482693"/>
    <nd ref="60482698"/>
    <nd ref="60482701"/>
    <nd ref="60482706"/>
    <nd ref="60482710"/>
    <nd ref="430220286"/>
    <nd ref="430220285"/>
    <nd ref="60482714"/>
    <nd ref="60482716"/>
    <nd ref="60482718"/>
    <nd ref="60482721"/>
    <nd ref="344090244"/>
    <nd ref="344090249"/>
    <nd ref="60826643"/>
    <tag k="highway" v="trunk"/>
    <tag k="name" v="Moores Creek Road"/>
    <tag k="oneway" v="yes"/>
    <tag k="source" v="survey"/>
  </way>
</osm>
