<?xml version='1.0' encoding='UTF-8'?>
<osm version="0.6" generator="libosmium/2.20.0">
  <way id="30930026" version="2" timestamp="2010-03-04T20:54:26Z" uid="23543" user="jkjk" changeset="4036311">
    <nd ref="660463555"/>
    <nd ref="343874353"/>
    <nd ref="343874354"/>
    <nd ref="343874355"/>
    <nd ref="343874356"/>
    <nd ref="343874357"/>
    <nd ref="343874359"/>
    <nd ref="343874360"/>
    <nd ref="343874361"/>
    <nd ref="343874362"/>
    <nd ref="343874363"/>
    <nd ref="343874365"/>
    <nd ref="343874366"/>
    <nd ref="343874367"/>
    <nd ref="343874368"/>
    <nd ref="343874369"/>
    <nd ref="343874371"/>
    <nd ref="343874372"/>
    <nd ref="343874373"/>
    <nd ref="343874374"/>
    <nd ref="343874376"/>
    <nd ref="343874377"/>
    <nd ref="343874378"/>
    <nd ref="343874379"/>
    <nd ref="343874381"/>
    <nd ref="343874382"/>
    <nd ref="343874383"/>
    <nd ref="343874384"/>
    <nd ref="343874385"/>
    <nd ref="343874386"/>
    <nd ref="343874387"/>
    <nd ref="343874389"/>
    <nd ref="343874390"/>
    <nd ref="343874391"/>
    <nd ref="343874392"/>
    <nd ref="343874393"/>
    <nd ref="343874394"/>
    <nd ref="343874396"/>
    <nd ref="343874397"/>
    <nd ref="343874398"/>
    <nd ref="343874399"/>
    <nd ref="343874400"/>
    <nd ref="343874401"/>
    <nd ref="343874402"/>
    <nd ref="343874404"/>
    <nd ref="343874405"/>
    <nd ref="343874406"/>
    <nd ref="343874407"/>
    <nd ref="343874408"/>
    <nd ref="343874409"/>
    <nd ref="343874411"/>
    <nd ref="660463554"/>
    <tag k="waterway" v="stream"/>
  </way>
  <way id="30930026" version="3" timestamp="2012-01-22T19:44:40Z" uid="149876" user="dbusse" changeset="10468915">
    <nd ref="1601615665"/>
    <nd ref="343874353"/>
    <nd ref="343874354"/>
    <nd ref="343874355"/>
    <nd ref="343874356"/>
    <nd ref="343874357"/>
    <nd ref="343874359"/>
    <nd ref="343874360"/>
    <nd ref="343874361"/>
    <nd ref="343874362"/>
    <nd ref="343874363"/>
    <nd ref="343874365"/>
    <nd ref="343874366"/>
    <nd ref="343874367"/>
    <nd ref="343874368"/>
    <nd ref="343874369"/>
    <nd ref="343874371"/>
    <nd ref="343874372"/>
    <nd ref="343874373"/>
    <nd ref="343874374"/>
    <nd ref="343874376"/>
    <nd ref="343874377"/>
    <nd ref="343874378"/>
    <nd ref="343874379"/>
    <nd ref="343874381"/>
    <nd ref="343874382"/>
    <nd ref="343874383"/>
    <nd ref="343874384"/>
    <nd ref="343874385"/>
    <nd ref="343874386"/>
    <nd ref="343874387"/>
    <nd ref="343874389"/>
    <nd ref="343874390"/>
    <nd ref="343874391"/>
    <nd ref="343874392"/>
    <nd ref="343874393"/>
    <nd ref="343874394"/>
    <nd ref="343874396"/>
    <nd ref="343874397"/>
    <nd ref="343874398"/>
    <nd ref="343874399"/>
    <nd ref="343874400"/>
    <nd ref="343874401"/>
    <nd ref="343874402"/>
    <nd ref="343874404"/>
    <nd ref="343874405"/>
    <nd ref="343874406"/>
    <nd ref="343874407"/>
    <nd ref="343874408"/>
    <nd ref="343874409"/>
    <nd ref="343874411"/>
    <nd ref="1601615664"/>
    <tag k="waterway" v="stream"/>
  </way>
  <way id="30930032" version="2" timestamp="2010-03-04T20:54:25Z" uid="23543" user="jkjk" changeset="4036311">
    <nd ref="660463558"/>
    <nd ref="660463557"/>
    <nd ref="660463556"/>
    <nd ref="343875143"/>
    <nd ref="343875145"/>
    <nd ref="343875146"/>
    <nd ref="343875147"/>
    <nd ref="343875148"/>
    <nd ref="343875150"/>
    <nd ref="343875151"/>
    <nd ref="343875152"/>
    <nd ref="343875153"/>
    <nd ref="343875154"/>
    <nd ref="343875155"/>
    <nd ref="343875156"/>
    <nd ref="343875157"/>
    <nd ref="343875158"/>
    <nd ref="343875159"/>
    <nd ref="343875160"/>
    <nd ref="343874386"/>
    <tag k="waterway" v="stream"/>
  </way>
  <way id="30930040" version="9" timestamp="2010-03-28T01:00:07Z" uid="20587" user="balrog-kun" changeset="4250871">
    <nd ref="242857396"/>
    <nd ref="651300001"/>
    <nd ref="651300002"/>
    <nd ref="242857454"/>
    <nd ref="651300276"/>
    <nd ref="242857455"/>
    <nd ref="651300277"/>
    <nd ref="651300278"/>
    <nd ref="53155274"/>
    <nd ref="52984565"/>
    <nd ref="53155273"/>
    <tag k="highway" v="motorway"/>
    <tag k="layer" v="1"/>
    <tag k="name" v="Castro Valley Freeway"/>
    <tag k="name_1" v="State Highway 238"/>
    <tag k="oneway" v="yes"/>
    <tag k="ref" v="I 238"/>
    <tag k="tiger:cfcc" v="A11"/>
    <tag k="tiger:county" v="Alameda, CA"/>
    <tag k="tiger:name_base" v="Castro Valley"/>
    <tag k="tiger:name_base_1" v="State Highway 238"/>
    <tag k="tiger:tlid" v="125013813:125013779:125013823:125013844:125014121:125014123:125038733:125014533:125014106:125014615:125038736:125014610:125038738:125014803:125014805:125014799:125014540:125080817:125013825"/>
  </way>
  <way id="30930040" version="10" timestamp="2011-07-31T11:39:02Z" uid="207745" user="NE2" changeset="8880034">
    <nd ref="242857396"/>
    <nd ref="651300001"/>
    <nd ref="651300002"/>
    <nd ref="242857454"/>
    <nd ref="651300276"/>
    <nd ref="242857455"/>
    <nd ref="651300277"/>
    <nd ref="651300278"/>
    <nd ref="53155274"/>
    <nd ref="52984565"/>
    <nd ref="53155273"/>
    <tag k="highway" v="motorway"/>
    <tag k="lanes" v="3"/>
    <tag k="layer" v="1"/>
    <tag k="name" v="Castro Valley Freeway"/>
    <tag k="oneway" v="yes"/>
    <tag k="ref" v="I 238"/>
    <tag k="tiger:cfcc" v="A11"/>
    <tag k="tiger:county" v="Alameda, CA"/>
    <tag k="tiger:name_base" v="Castro Valley"/>
    <tag k="tiger:name_base_1" v="State Highway 238"/>
    <tag k="tiger:tlid" v="125013813:125013779:125013823:125013844:125014121:125014123:125038733:125014533:125014106:125014615:125038736:125014610:125038738:125014803:125014805:125014799:125014540:125080817:125013825"/>
  </way>
  <way id="30930040" version="11" timestamp="2011-11-21T15:59:19Z" uid="207745" user="NE2" changeset="9898570">
    <nd ref="242857396"/>
    <nd ref="651300001"/>
    <nd ref="651300002"/>
    <nd ref="242857454"/>
    <nd ref="651300276"/>
    <nd ref="242857455"/>
    <nd ref="651300277"/>
    <nd ref="651300278"/>
    <nd ref="53155274"/>
    <nd ref="52984565"/>
    <nd ref="53155273"/>
    <tag k="hgv" v="designated"/>
    <tag k="highway" v="motorway"/>
    <tag k="lanes" v="3"/>
    <tag k="layer" v="1"/>
    <tag k="name" v="Castro Valley Freeway"/>
    <tag k="oneway" v="yes"/>
    <tag k="ref" v="I 238"/>
    <tag k="tiger:cfcc" v="A11"/>
    <tag k="tiger:county" v="Alameda, CA"/>
    <tag k="tiger:name_base" v="Castro Valley"/>
    <tag k="tiger:name_base_1" v="State Highway 238"/>
    <tag k="tiger:tlid" v="125013813:125013779:125013823:125013844:125014121:125014123:125038733:125014533:125014106:125014615:125038736:125014610:125038738:125014803:125014805:125014799:125014540:125080817:125013825"/>
  </way>
  <way id="30930040" version="12" timestamp="2012-03-10T20:18:54Z" uid="482916" user="bill42" changeset="10936318">
    <nd ref="242857396"/>
    <nd ref="651300001"/>
    <nd ref="651300002"/>
    <nd ref="242857454"/>
    <nd ref="651300276"/>
    <nd ref="651300277"/>
    <nd ref="651300278"/>
    <nd ref="53155274"/>
    <nd ref="52984565"/>
    <nd ref="53155273"/>
    <tag k="hgv" v="designated"/>
    <tag k="highway" v="motorway"/>
    <tag k="lanes" v="3"/>
    <tag k="layer" v="1"/>
    <tag k="name" v="Castro Valley Freeway"/>
    <tag k="oneway" v="yes"/>
    <tag k="ref" v="I 238"/>
    <tag k="tiger:cfcc" v="A11"/>
    <tag k="tiger:county" v="Alameda, CA"/>
    <tag k="tiger:name_base" v="Castro Valley"/>
    <tag k="tiger:name_base_1" v="State Highway 238"/>
    <tag k="tiger:tlid" v="125013813:125013779:125013823:125013844:125014121:125014123:125038733:125014533:125014106:125014615:125038736:125014610:125038738:125014803:125014805:125014799:125014540:125080817:125013825"/>
  </way>
  <way id="30930042" version="6" timestamp="2010-03-28T01:00:08Z" uid="20587" user="balrog-kun" changeset="4250871">
    <nd ref="242857395"/>
    <nd ref="651299906"/>
    <nd ref="651299907"/>
    <nd ref="651299908"/>
    <nd ref="242857396"/>
    <tag k="bridge" v="yes"/>
    <tag k="highway" v="motorway"/>
    <tag k="layer" v="1"/>
    <tag k="name" v="Castro Valley Freeway"/>
    <tag k="name_1" v="State Highway 238"/>
    <tag k="oneway" v="yes"/>
    <tag k="ref" v="I 238"/>
    <tag k="tiger:cfcc" v="A11"/>
    <tag k="tiger:county" v="Alameda, CA"/>
    <tag k="tiger:name_base" v="Castro Valley"/>
    <tag k="tiger:name_base_1" v="State Highway 238"/>
    <tag k="tiger:tlid" v="125013813:125013779:125013823:125013844:125014121:125014123:125038733:125014533:125014106:125014615:125038736:125014610:125038738:125014803:125014805:125014799:125014540:125080817:125013825"/>
  </way>
  <way id="30930042" version="7" timestamp="2011-07-31T11:39:08Z" uid="207745" user="NE2" changeset="8880034">
    <nd ref="242857395"/>
    <nd ref="651299906"/>
    <nd ref="651299907"/>
    <nd ref="651299908"/>
    <nd ref="242857396"/>
    <tag k="bridge" v="yes"/>
    <tag k="highway" v="motorway"/>
    <tag k="lanes" v="3"/>
    <tag k="layer" v="1"/>
    <tag k="name" v="Castro Valley Freeway"/>
    <tag k="oneway" v="yes"/>
    <tag k="ref" v="I 238"/>
    <tag k="tiger:cfcc" v="A11"/>
    <tag k="tiger:county" v="Alameda, CA"/>
    <tag k="tiger:name_base" v="Castro Valley"/>
    <tag k="tiger:name_base_1" v="State Highway 238"/>
    <tag k="tiger:tlid" v="125013813:125013779:125013823:125013844:125014121:125014123:125038733:125014533:125014106:125014615:125038736:125014610:125038738:125014803:125014805:125014799:125014540:125080817:125013825"/>
  </way>
  <way id="30930042" version="8" timestamp="2011-11-21T15:59:35Z" uid="207745" user="NE2" changeset="9898570">
    <nd ref="242857395"/>
    <nd ref="651299906"/>
    <nd ref="651299907"/>
    <nd ref="651299908"/>
    <nd ref="242857396"/>
    <tag k="bridge" v="yes"/>
    <tag k="hgv" v="designated"/>
    <tag k="highway" v="motorway"/>
    <tag k="lanes" v="3"/>
    <tag k="layer" v="1"/>
    <tag k="name" v="Castro Valley Freeway"/>
    <tag k="oneway" v="yes"/>
    <tag k="ref" v="I 238"/>
    <tag k="tiger:cfcc" v="A11"/>
    <tag k="tiger:county" v="Alameda, CA"/>
    <tag k="tiger:name_base" v="Castro Valley"/>
    <tag k="tiger:name_base_1" v="State Highway 238"/>
    <tag k="tiger:tlid" v="125013813:125013779:125013823:125013844:125014121:125014123:125038733:125014533:125014106:125014615:125038736:125014610:125038738:125014803:125014805:125014799:125014540:125080817:125013825"/>
  </way>
  <way id="30930053" version="2" timestamp="2010-03-28T01:00:08Z" uid="20587" user="balrog-kun" changeset="4250871">
    <nd ref="122688541"/>
    <nd ref="343875718"/>
    <nd ref="122612121"/>
    <tag k="created_by" v="Potlatch 0.10f"/>
    <tag k="highway" v="residential"/>
    <tag k="name" v="Rose Bowl Drive"/>
    <tag k="tiger:cfcc" v="A41"/>
    <tag k="tiger:county" v="Los Angeles, CA"/>
    <tag k="tiger:name_base" v="Rose Bowl"/>
    <tag k="tiger:name_type" v="Dr"/>
    <tag k="tiger:reviewed" v="no"/>
    <tag k="tiger:separated" v="no"/>
    <tag k="tiger:source" v="tiger_import_dch_v0.6_20070809"/>
    <tag k="tiger:tlid" v="141627491:142666262"/>
    <tag k="tiger:zip_left" v="91103"/>
    <tag k="tiger:zip_right" v="91103"/>
  </way>
  <way id="30930053" version="3" timestamp="2010-08-07T05:27:22Z" uid="82317" user="AM909" changeset="5422017">
    <nd ref="122688541"/>
    <nd ref="848387598"/>
    <nd ref="848387709"/>
    <nd ref="848387662"/>
    <nd ref="343875718"/>
    <nd ref="848387707"/>
    <nd ref="122612121"/>
    <tag k="highway" v="residential"/>
    <tag k="name" v="Rose Bowl Drive"/>
    <tag k="tiger:cfcc" v="A41"/>
    <tag k="tiger:county" v="Los Angeles, CA"/>
    <tag k="tiger:name_base" v="Rose Bowl"/>
    <tag k="tiger:name_type" v="Dr"/>
    <tag k="tiger:reviewed" v="no"/>
    <tag k="tiger:separated" v="no"/>
    <tag k="tiger:source" v="tiger_import_dch_v0.6_20070809"/>
    <tag k="tiger:tlid" v="141627491:142666262"/>
    <tag k="tiger:zip_left" v="91103"/>
    <tag k="tiger:zip_right" v="91103"/>
  </way>
  <way id="30930053" version="4" timestamp="2010-08-07T07:19:05Z" uid="82317" user="AM909" changeset="5422350">
    <nd ref="122688541"/>
    <nd ref="848387598"/>
    <nd ref="848387709"/>
    <nd ref="848387662"/>
    <nd ref="343875718"/>
    <nd ref="848387707"/>
    <nd ref="122612121"/>
    <tag k="highway" v="residential"/>
    <tag k="name" v="Rose Bowl Drive"/>
    <tag k="source" v="usgs_imagery;survey;image"/>
    <tag k="source_ref" v="AM909_DSCV3240"/>
    <tag k="tiger:cfcc" v="A41"/>
    <tag k="tiger:county" v="Los Angeles, CA"/>
    <tag k="tiger:name_base" v="Rose Bowl"/>
    <tag k="tiger:name_type" v="Dr"/>
    <tag k="tiger:separated" v="no"/>
    <tag k="tiger:source" v="tiger_import_dch_v0.6_20070809"/>
    <tag k="tiger:tlid" v="141627491:142666262"/>
    <tag k="tiger:zip_left" v="91103"/>
    <tag k="tiger:zip_right" v="91103"/>
  </way>
  <way id="30930059" version="5" timestamp="2010-03-28T01:00:08Z" uid="20587" user="balrog-kun" changeset="4250871">
    <nd ref="242857255"/>
    <nd ref="242857256"/>
    <nd ref="596003364"/>
    <tag k="bridge" v="yes"/>
    <tag k="highway" v="motorway"/>
    <tag k="layer" v="1"/>
    <tag k="name" v="Castro Valley Freeway"/>
    <tag k="oneway" v="yes"/>
    <tag k="ref" v="I 238"/>
  </way>
  <way id="30930059" version="6" timestamp="2011-07-31T11:39:07Z" uid="207745" user="NE2" changeset="8880034">
    <nd ref="242857255"/>
    <nd ref="242857256"/>
    <nd ref="596003364"/>
    <tag k="bridge" v="yes"/>
    <tag k="highway" v="motorway"/>
    <tag k="lanes" v="2"/>
    <tag k="layer" v="1"/>
    <tag k="name" v="Castro Valley Freeway"/>
    <tag k="oneway" v="yes"/>
    <tag k="ref" v="I 238"/>
  </way>
  <way id="30930059" version="7" timestamp="2011-11-21T15:59:30Z" uid="207745" user="NE2" changeset="9898570">
    <nd ref="242857255"/>
    <nd ref="242857256"/>
    <nd ref="596003364"/>
    <tag k="bridge" v="yes"/>
    <tag k="hgv" v="designated"/>
    <tag k="highway" v="motorway"/>
    <tag k="lanes" v="2"/>
    <tag k="layer" v="1"/>
    <tag k="name" v="Castro Valley Freeway"/>
    <tag k="oneway" v="yes"/>
    <tag k="ref" v="I 238"/>
  </way>
  <way id="30930064" version="3" timestamp="2010-03-28T01:00:09Z" uid="20587" user="balrog-kun" changeset="4250871">
    <nd ref="25712853"/>
    <nd ref="343877813"/>
    <nd ref="343877814"/>
    <nd ref="567289923"/>
    <nd ref="343877817"/>
    <nd ref="343877818"/>
    <nd ref="343877819"/>
    <tag k="highway" v="residential"/>
    <tag k="name" v="Arroyo Drive"/>
  </way>
  <way id="30930064" version="4" timestamp="2010-08-07T05:27:22Z" uid="82317" user="AM909" changeset="5422017">
    <nd ref="343877819"/>
    <nd ref="343877818"/>
    <nd ref="343877817"/>
    <nd ref="567289923"/>
    <nd ref="343877814"/>
    <nd ref="848387571"/>
    <nd ref="343877813"/>
    <nd ref="848387561"/>
    <nd ref="848387757"/>
    <nd ref="25712853"/>
    <tag k="highway" v="residential"/>
    <tag k="name" v="Arroyo Drive"/>
    <tag k="oneway" v="yes"/>
  </way>
  <way id="30930064" version="5" timestamp="2010-08-07T07:19:05Z" uid="82317" user="AM909" changeset="5422350">
    <nd ref="122612043"/>
    <nd ref="343877818"/>
    <nd ref="343877817"/>
    <nd ref="567289923"/>
    <nd ref="343877814"/>
    <nd ref="848387571"/>
    <nd ref="343877813"/>
    <nd ref="848387561"/>
    <nd ref="848387757"/>
    <nd ref="25712853"/>
    <tag k="highway" v="residential"/>
    <tag k="name" v="Arroyo Drive"/>
    <tag k="oneway" v="yes"/>
  </way>
  <way id="30930071" version="6" timestamp="2010-03-28T01:00:09Z" uid="20587" user="balrog-kun" changeset="4250871">
    <nd ref="343878138"/>
    <nd ref="343878393"/>
    <tag k="bridge" v="yes"/>
    <tag k="highway" v="motorway"/>
    <tag k="layer" v="1"/>
    <tag k="name" v="Castro Valley Freeway"/>
    <tag k="name_1" v="State Highway 238"/>
    <tag k="oneway" v="yes"/>
    <tag k="ref" v="I 238"/>
    <tag k="tiger:cfcc" v="A11"/>
    <tag k="tiger:county" v="Alameda, CA"/>
    <tag k="tiger:name_base" v="Castro Valley"/>
    <tag k="tiger:name_base_1" v="State Highway 238"/>
    <tag k="tiger:tlid" v="125013813:125013779:125013823:125013844:125014121:125014123:125038733:125014533:125014106:125014615:125038736:125014610:125038738:125014803:125014805:125014799:125014540:125080817:125013825"/>
  </way>
  <way id="30930071" version="7" timestamp="2011-07-31T11:39:05Z" uid="207745" user="NE2" changeset="8880034">
    <nd ref="343878138"/>
    <nd ref="343878393"/>
    <tag k="bridge" v="yes"/>
    <tag k="highway" v="motorway"/>
    <tag k="lanes" v="3"/>
    <tag k="layer" v="1"/>
    <tag k="name" v="Castro Valley Freeway"/>
    <tag k="oneway" v="yes"/>
    <tag k="ref" v="I 238"/>
    <tag k="tiger:cfcc" v="A11"/>
    <tag k="tiger:county" v="Alameda, CA"/>
    <tag k="tiger:name_base" v="Castro Valley"/>
    <tag k="tiger:name_base_1" v="State Highway 238"/>
    <tag k="tiger:tlid" v="125013813:125013779:125013823:125013844:125014121:125014123:125038733:125014533:125014106:125014615:125038736:125014610:125038738:125014803:125014805:125014799:125014540:125080817:125013825"/>
  </way>
  <way id="30930071" version="8" timestamp="2011-11-21T15:59:25Z" uid="207745" user="NE2" changeset="9898570">
    <nd ref="343878138"/>
    <nd ref="343878393"/>
    <tag k="bridge" v="yes"/>
    <tag k="hgv" v="designated"/>
    <tag k="highway" v="motorway"/>
    <tag k="lanes" v="3"/>
    <tag k="layer" v="1"/>
    <tag k="name" v="Castro Valley Freeway"/>
    <tag k="oneway" v="yes"/>
    <tag k="ref" v="I 238"/>
    <tag k="tiger:cfcc" v="A11"/>
    <tag k="tiger:county" v="Alameda, CA"/>
    <tag k="tiger:name_base" v="Castro Valley"/>
    <tag k="tiger:name_base_1" v="State Highway 238"/>
    <tag k="tiger:tlid" v="125013813:125013779:125013823:125013844:125014121:125014123:125038733:125014533:125014106:125014615:125038736:125014610:125038738:125014803:125014805:125014799:125014540:125080817:125013825"/>
  </way>
  <way id="30930073" version="5" timestamp="2010-03-28T01:00:09Z" uid="20587" user="balrog-kun" changeset="4250871">
    <nd ref="343878393"/>
    <nd ref="651299711"/>
    <nd ref="651299713"/>
    <nd ref="651299715"/>
    <nd ref="242857395"/>
    <tag k="highway" v="motorway"/>
    <tag k="name" v="Castro Valley Freeway"/>
    <tag k="name_1" v="State Highway 238"/>
    <tag k="oneway" v="yes"/>
    <tag k="ref" v="I 238"/>
    <tag k="tiger:cfcc" v="A11"/>
    <tag k="tiger:county" v="Alameda, CA"/>
    <tag k="tiger:name_base" v="Castro Valley"/>
    <tag k="tiger:name_base_1" v="State Highway 238"/>
    <tag k="tiger:tlid" v="125013813:125013779:125013823:125013844:125014121:125014123:125038733:125014533:125014106:125014615:125038736:125014610:125038738:125014803:125014805:125014799:125014540:125080817:125013825"/>
  </way>
  <way id="30930073" version="6" timestamp="2011-07-31T11:39:09Z" uid="207745" user="NE2" changeset="8880034">
    <nd ref="343878393"/>
    <nd ref="651299711"/>
    <nd ref="651299713"/>
    <nd ref="651299715"/>
    <nd ref="242857395"/>
    <tag k="highway" v="motorway"/>
    <tag k="lanes" v="3"/>
    <tag k="name" v="Castro Valley Freeway"/>
    <tag k="oneway" v="yes"/>
    <tag k="ref" v="I 238"/>
    <tag k="tiger:cfcc" v="A11"/>
    <tag k="tiger:county" v="Alameda, CA"/>
    <tag k="tiger:name_base" v="Castro Valley"/>
    <tag k="tiger:name_base_1" v="State Highway 238"/>
    <tag k="tiger:tlid" v="125013813:125013779:125013823:125013844:125014121:125014123:125038733:125014533:125014106:125014615:125038736:125014610:125038738:125014803:125014805:125014799:125014540:125080817:125013825"/>
  </way>
  <way id="30930073" version="7" timestamp="2011-11-21T15:59:34Z" uid="207745" user="NE2" changeset="9898570">
    <nd ref="343878393"/>
    <nd ref="651299711"/>
    <nd ref="651299713"/>
    <nd ref="651299715"/>
    <nd ref="242857395"/>
    <tag k="hgv" v="designated"/>
    <tag k="highway" v="motorway"/>
    <tag k="lanes" v="3"/>
    <tag k="name" v="Castro Valley Freeway"/>
    <tag k="oneway" v="yes"/>
    <tag k="ref" v="I 238"/>
    <tag k="tiger:cfcc" v="A11"/>
    <tag k="tiger:county" v="Alameda, CA"/>
    <tag k="tiger:name_base" v="Castro Valley"/>
    <tag k="tiger:name_base_1" v="State Highway 238"/>
    <tag k="tiger:tlid" v="125013813:125013779:125013823:125013844:125014121:125014123:125038733:125014533:125014106:125014615:125038736:125014610:125038738:125014803:125014805:125014799:125014540:125080817:125013825"/>
  </way>
  <way id="30930075" version="5" timestamp="2010-03-28T01:00:09Z" uid="20587" user="balrog-kun" changeset="4250871">
    <nd ref="242857285"/>
    <nd ref="30029502"/>
    <nd ref="242857213"/>
    <nd ref="242857252"/>
    <nd ref="242857253"/>
    <nd ref="242857254"/>
    <nd ref="242857255"/>
    <tag k="highway" v="motorway"/>
    <tag k="name" v="Castro Valley Freeway"/>
    <tag k="oneway" v="yes"/>
    <tag k="ref" v="I 238"/>
  </way>
  <way id="30930075" version="6" timestamp="2011-07-31T11:39:06Z" uid="207745" user="NE2" changeset="8880034">
    <nd ref="242857285"/>
    <nd ref="30029502"/>
    <nd ref="242857213"/>
    <tag k="highway" v="motorway"/>
    <tag k="lanes" v="3"/>
    <tag k="name" v="Castro Valley Freeway"/>
    <tag k="oneway" v="yes"/>
    <tag k="ref" v="I 238"/>
  </way>
  <way id="30930075" version="7" timestamp="2011-11-21T15:59:30Z" uid="207745" user="NE2" changeset="9898570">
    <nd ref="242857285"/>
    <nd ref="30029502"/>
    <nd ref="242857213"/>
    <tag k="hgv" v="designated"/>
    <tag k="highway" v="motorway"/>
    <tag k="lanes" v="3"/>
    <tag k="name" v="Castro Valley Freeway"/>
    <tag k="oneway" v="yes"/>
    <tag k="ref" v="I 238"/>
  </way>
  <way id="30930076" version="5" timestamp="2010-03-28T01:00:09Z" uid="20587" user="balrog-kun" changeset="4250871">
    <nd ref="343878286"/>
    <nd ref="242857285"/>
    <tag k="bridge" v="yes"/>
    <tag k="highway" v="motorway"/>
    <tag k="layer" v="1"/>
    <tag k="name" v="Castro Valley Freeway"/>
    <tag k="oneway" v="yes"/>
    <tag k="ref" v="I 238"/>
  </way>
  <way id="30930076" version="6" timestamp="2011-07-31T11:39:03Z" uid="207745" user="NE2" changeset="8880034">
    <nd ref="343878286"/>
    <nd ref="242857285"/>
    <tag k="bridge" v="yes"/>
    <tag k="highway" v="motorway"/>
    <tag k="lanes" v="3"/>
    <tag k="layer" v="1"/>
    <tag k="name" v="Castro Valley Freeway"/>
    <tag k="oneway" v="yes"/>
    <tag k="ref" v="I 238"/>
  </way>
  <way id="30930076" version="7" timestamp="2011-11-21T15:59:22Z" uid="207745" user="NE2" changeset="9898570">
    <nd ref="343878286"/>
    <nd ref="242857285"/>
    <tag k="bridge" v="yes"/>
    <tag k="hgv" v="designated"/>
    <tag k="highway" v="motorway"/>
    <tag k="lanes" v="3"/>
    <tag k="layer" v="1"/>
    <tag k="name" v="Castro Valley Freeway"/>
    <tag k="oneway" v="yes"/>
    <tag k="ref" v="I 238"/>
  </way>
  <way id="30930084" version="5" timestamp="2010-03-04T20:54:27Z" uid="23543" user="jkjk" changeset="4036311">
    <nd ref="303476960"/>
    <nd ref="343879148"/>
    <tag k="bridge" v="yes"/>
    <tag k="highway" v="tertiary"/>
    <tag k="layer" v="1"/>
  </way>
  <way id="30930087" version="5" timestamp="2010-03-28T01:00:10Z" uid="20587" user="balrog-kun" changeset="4250871">
    <nd ref="242857339"/>
    <nd ref="242857340"/>
    <nd ref="651299861"/>
    <nd ref="242857341"/>
    <nd ref="651299862"/>
    <nd ref="651299863"/>
    <nd ref="343878286"/>
    <tag k="highway" v="motorway"/>
    <tag k="name" v="Castro Valley Freeway"/>
    <tag k="oneway" v="yes"/>
    <tag k="ref" v="I 238"/>
  </way>
  <way id="30930087" version="6" timestamp="2011-07-31T11:39:10Z" uid="207745" user="NE2" changeset="8880034">
    <nd ref="242857339"/>
    <nd ref="242857340"/>
    <nd ref="651299861"/>
    <nd ref="242857341"/>
    <nd ref="651299862"/>
    <nd ref="651299863"/>
    <nd ref="343878286"/>
    <tag k="highway" v="motorway"/>
    <tag k="lanes" v="3"/>
    <tag k="name" v="Castro Valley Freeway"/>
    <tag k="oneway" v="yes"/>
    <tag k="ref" v="I 238"/>
  </way>
  <way id="30930087" version="7" timestamp="2011-11-21T15:59:37Z" uid="207745" user="NE2" changeset="9898570">
    <nd ref="242857339"/>
    <nd ref="242857340"/>
    <nd ref="651299861"/>
    <nd ref="242857341"/>
    <nd ref="651299862"/>
    <nd ref="651299863"/>
    <nd ref="343878286"/>
    <tag k="hgv" v="designated"/>
    <tag k="highway" v="motorway"/>
    <tag k="lanes" v="3"/>
    <tag k="name" v="Castro Valley Freeway"/>
    <tag k="oneway" v="yes"/>
    <tag k="ref" v="I 238"/>
  </way>
  <way id="30930087" version="8" timestamp="2012-03-10T20:18:55Z" uid="482916" user="bill42" changeset="10936318">
    <nd ref="242857339"/>
    <nd ref="651299861"/>
    <nd ref="242857341"/>
    <nd ref="651299863"/>
    <nd ref="343878286"/>
    <tag k="hgv" v="designated"/>
    <tag k="highway" v="motorway"/>
    <tag k="lanes" v="3"/>
    <tag k="name" v="Castro Valley Freeway"/>
    <tag k="oneway" v="yes"/>
    <tag k="ref" v="I 238"/>
  </way>
  <way id="30930094" version="7" timestamp="2010-03-28T01:00:10Z" uid="20587" user="balrog-kun" changeset="4250871">
    <nd ref="242857338"/>
    <nd ref="651299886"/>
    <nd ref="651299873"/>
    <nd ref="651299874"/>
    <nd ref="242857339"/>
    <tag k="bridge" v="yes"/>
    <tag k="highway" v="motorway"/>
    <tag k="layer" v="1"/>
    <tag k="name" v="Castro Valley Freeway"/>
    <tag k="oneway" v="yes"/>
    <tag k="ref" v="I 238"/>
  </way>
  <way id="30930094" version="8" timestamp="2011-07-31T11:39:08Z" uid="207745" user="NE2" changeset="8880034">
    <nd ref="242857338"/>
    <nd ref="651299886"/>
    <nd ref="651299873"/>
    <nd ref="651299874"/>
    <nd ref="242857339"/>
    <tag k="bridge" v="yes"/>
    <tag k="highway" v="motorway"/>
    <tag k="lanes" v="3"/>
    <tag k="layer" v="1"/>
    <tag k="name" v="Castro Valley Freeway"/>
    <tag k="oneway" v="yes"/>
    <tag k="ref" v="I 238"/>
  </way>
  <way id="30930094" version="9" timestamp="2011-11-21T15:59:34Z" uid="207745" user="NE2" changeset="9898570">
    <nd ref="242857338"/>
    <nd ref="651299886"/>
    <nd ref="651299873"/>
    <nd ref="651299874"/>
    <nd ref="242857339"/>
    <tag k="bridge" v="yes"/>
    <tag k="hgv" v="designated"/>
    <tag k="highway" v="motorway"/>
    <tag k="lanes" v="3"/>
    <tag k="layer" v="1"/>
    <tag k="name" v="Castro Valley Freeway"/>
    <tag k="oneway" v="yes"/>
    <tag k="ref" v="I 238"/>
  </way>
  <way id="30930111" version="8" timestamp="2010-03-28T01:00:10Z" uid="20587" user="balrog-kun" changeset="4250871">
    <nd ref="32967549"/>
    <nd ref="242858385"/>
    <tag k="bridge" v="yes"/>
    <tag k="highway" v="motorway"/>
    <tag k="layer" v="1"/>
    <tag k="name" v="Castro Valley Freeway"/>
    <tag k="oneway" v="yes"/>
    <tag k="ref" v="I 238"/>
  </way>
  <way id="30930111" version="9" timestamp="2011-07-31T11:39:05Z" uid="207745" user="NE2" changeset="8880034">
    <nd ref="32967549"/>
    <nd ref="242858385"/>
    <tag k="bridge" v="yes"/>
    <tag k="highway" v="motorway"/>
    <tag k="lanes" v="3"/>
    <tag k="layer" v="1"/>
    <tag k="name" v="Castro Valley Freeway"/>
    <tag k="oneway" v="yes"/>
    <tag k="ref" v="I 238"/>
  </way>
  <way id="30930111" version="10" timestamp="2011-11-21T15:59:24Z" uid="207745" user="NE2" changeset="9898570">
    <nd ref="32967549"/>
    <nd ref="242858385"/>
    <tag k="bridge" v="yes"/>
    <tag k="hgv" v="designated"/>
    <tag k="highway" v="motorway"/>
    <tag k="lanes" v="3"/>
    <tag k="layer" v="1"/>
    <tag k="name" v="Castro Valley Freeway"/>
    <tag k="oneway" v="yes"/>
    <tag k="ref" v="I 238"/>
  </way>
  <way id="30930125" version="6" timestamp="2010-03-28T01:00:11Z" uid="20587" user="balrog-kun" changeset="4250871">
    <nd ref="343881648"/>
    <nd ref="53155270"/>
    <nd ref="53155268"/>
    <nd ref="52984775"/>
    <nd ref="52982237"/>
    <nd ref="53073153"/>
    <nd ref="52989598"/>
    <nd ref="242864681"/>
    <tag k="highway" v="motorway"/>
    <tag k="name" v="Castro Valley Freeway"/>
    <tag k="name_1" v="State Highway 238"/>
    <tag k="oneway" v="yes"/>
    <tag k="ref" v="I 238"/>
    <tag k="tiger:cfcc" v="A11"/>
    <tag k="tiger:county" v="Alameda, CA"/>
    <tag k="tiger:name_base" v="Castro Valley"/>
    <tag k="tiger:name_base_1" v="State Highway 238"/>
    <tag k="tiger:tlid" v="125013813:125013779:125013823:125013844:125014121:125014123:125038733:125014533:125014106:125014615:125038736:125014610:125038738:125014803:125014805:125014799:125014540:125080817:125013825"/>
  </way>
  <way id="30930125" version="7" timestamp="2011-07-31T11:39:10Z" uid="207745" user="NE2" changeset="8880034">
    <nd ref="343881648"/>
    <nd ref="53155270"/>
    <nd ref="53155268"/>
    <nd ref="52984775"/>
    <nd ref="52982237"/>
    <nd ref="53073153"/>
    <nd ref="52989598"/>
    <nd ref="242864681"/>
    <tag k="highway" v="motorway"/>
    <tag k="lanes" v="3"/>
    <tag k="name" v="Castro Valley Freeway"/>
    <tag k="oneway" v="yes"/>
    <tag k="ref" v="I 238"/>
    <tag k="tiger:cfcc" v="A11"/>
    <tag k="tiger:county" v="Alameda, CA"/>
    <tag k="tiger:name_base" v="Castro Valley"/>
    <tag k="tiger:name_base_1" v="State Highway 238"/>
    <tag k="tiger:tlid" v="125013813:125013779:125013823:125013844:125014121:125014123:125038733:125014533:125014106:125014615:125038736:125014610:125038738:125014803:125014805:125014799:125014540:125080817:125013825"/>
  </way>
  <way id="30930125" version="8" timestamp="2011-11-21T15:59:38Z" uid="207745" user="NE2" changeset="9898570">
    <nd ref="343881648"/>
    <nd ref="53155270"/>
    <nd ref="53155268"/>
    <nd ref="52984775"/>
    <nd ref="52982237"/>
    <nd ref="53073153"/>
    <nd ref="52989598"/>
    <nd ref="242864681"/>
    <tag k="hgv" v="designated"/>
    <tag k="highway" v="motorway"/>
    <tag k="lanes" v="3"/>
    <tag k="name" v="Castro Valley Freeway"/>
    <tag k="oneway" v="yes"/>
    <tag k="ref" v="I 238"/>
    <tag k="tiger:cfcc" v="A11"/>
    <tag k="tiger:county" v="Alameda, CA"/>
    <tag k="tiger:name_base" v="Castro Valley"/>
    <tag k="tiger:name_base_1" v="State Highway 238"/>
    <tag k="tiger:tlid" v="125013813:125013779:125013823:125013844:125014121:125014123:125038733:125014533:125014106:125014615:125038736:125014610:125038738:125014803:125014805:125014799:125014540:125080817:125013825"/>
  </way>
  <way id="30930125" version="9" timestamp="2012-01-30T07:01:23Z" uid="462373" user="Davidazus" changeset="10537079">
    <nd ref="53155270"/>
    <nd ref="53155268"/>
    <nd ref="52984775"/>
    <nd ref="52982237"/>
    <nd ref="53073153"/>
    <tag k="hgv" v="designated"/>
    <tag k="highway" v="motorway"/>
    <tag k="lanes" v="3"/>
    <tag k="name" v="Castro Valley Freeway to 580"/>
    <tag k="oneway" v="yes"/>
    <tag k="ref" v="I 238"/>
    <tag k="tiger:cfcc" v="A11"/>
    <tag k="tiger:county" v="Alameda, CA"/>
    <tag k="tiger:name_base" v="Castro Valley"/>
    <tag k="tiger:name_base_1" v="State Highway 238"/>
    <tag k="tiger:tlid" v="125013813:125013779:125013823:125013844:125014121:125014123:125038733:125014533:125014106:125014615:125038736:125014610:125038738:125014803:125014805:125014799:125014540:125080817:125013825"/>
  </way>
  <way id="30930125" version="10" timestamp="2012-03-10T20:18:56Z" uid="482916" user="bill42" changeset="10936318">
    <nd ref="1611390303"/>
    <nd ref="53155270"/>
    <nd ref="53155268"/>
    <nd ref="52984775"/>
    <nd ref="52982237"/>
    <nd ref="53073153"/>
    <nd ref="242864681"/>
    <tag k="hgv" v="designated"/>
    <tag k="highway" v="motorway"/>
    <tag k="lanes" v="3"/>
    <tag k="name" v="Castro Valley Freeway to 580"/>
    <tag k="oneway" v="yes"/>
    <tag k="ref" v="I 238"/>
    <tag k="tiger:cfcc" v="A11"/>
    <tag k="tiger:county" v="Alameda, CA"/>
    <tag k="tiger:name_base" v="Castro Valley"/>
    <tag k="tiger:name_base_1" v="State Highway 238"/>
    <tag k="tiger:tlid" v="125013813:125013779:125013823:125013844:125014121:125014123:125038733:125014533:125014106:125014615:125038736:125014610:125038738:125014803:125014805:125014799:125014540:125080817:125013825"/>
  </way>
  <way id="30930128" version="5" timestamp="2010-03-28T01:00:11Z" uid="20587" user="balrog-kun" changeset="4250871">
    <nd ref="53155273"/>
    <nd ref="242857744"/>
    <nd ref="343881648"/>
    <tag k="bridge" v="yes"/>
    <tag k="highway" v="motorway"/>
    <tag k="layer" v="1"/>
    <tag k="name" v="Castro Valley Freeway"/>
    <tag k="name_1" v="State Highway 238"/>
    <tag k="oneway" v="yes"/>
    <tag k="ref" v="I 238"/>
    <tag k="tiger:cfcc" v="A11"/>
    <tag k="tiger:county" v="Alameda, CA"/>
    <tag k="tiger:name_base" v="Castro Valley"/>
    <tag k="tiger:name_base_1" v="State Highway 238"/>
    <tag k="tiger:tlid" v="125013813:125013779:125013823:125013844:125014121:125014123:125038733:125014533:125014106:125014615:125038736:125014610:125038738:125014803:125014805:125014799:125014540:125080817:125013825"/>
  </way>
  <way id="30930128" version="6" timestamp="2011-07-31T11:39:06Z" uid="207745" user="NE2" changeset="8880034">
    <nd ref="53155273"/>
    <nd ref="242857744"/>
    <nd ref="343881648"/>
    <tag k="bridge" v="yes"/>
    <tag k="highway" v="motorway"/>
    <tag k="lanes" v="3"/>
    <tag k="layer" v="1"/>
    <tag k="name" v="Castro Valley Freeway"/>
    <tag k="oneway" v="yes"/>
    <tag k="ref" v="I 238"/>
    <tag k="tiger:cfcc" v="A11"/>
    <tag k="tiger:county" v="Alameda, CA"/>
    <tag k="tiger:name_base" v="Castro Valley"/>
    <tag k="tiger:name_base_1" v="State Highway 238"/>
    <tag k="tiger:tlid" v="125013813:125013779:125013823:125013844:125014121:125014123:125038733:125014533:125014106:125014615:125038736:125014610:125038738:125014803:125014805:125014799:125014540:125080817:125013825"/>
  </way>
  <way id="30930128" version="7" timestamp="2011-11-21T15:59:29Z" uid="207745" user="NE2" changeset="9898570">
    <nd ref="53155273"/>
    <nd ref="242857744"/>
    <nd ref="343881648"/>
    <tag k="bridge" v="yes"/>
    <tag k="hgv" v="designated"/>
    <tag k="highway" v="motorway"/>
    <tag k="lanes" v="3"/>
    <tag k="layer" v="1"/>
    <tag k="name" v="Castro Valley Freeway"/>
    <tag k="oneway" v="yes"/>
    <tag k="ref" v="I 238"/>
    <tag k="tiger:cfcc" v="A11"/>
    <tag k="tiger:county" v="Alameda, CA"/>
    <tag k="tiger:name_base" v="Castro Valley"/>
    <tag k="tiger:name_base_1" v="State Highway 238"/>
    <tag k="tiger:tlid" v="125013813:125013779:125013823:125013844:125014121:125014123:125038733:125014533:125014106:125014615:125038736:125014610:125038738:125014803:125014805:125014799:125014540:125080817:125013825"/>
  </way>
  <way id="30930128" version="8" timestamp="2012-03-10T20:18:56Z" uid="482916" user="bill42" changeset="10936318">
    <nd ref="53155273"/>
    <nd ref="242857744"/>
    <nd ref="1611390303"/>
    <tag k="bridge" v="yes"/>
    <tag k="hgv" v="designated"/>
    <tag k="highway" v="motorway"/>
    <tag k="lanes" v="3"/>
    <tag k="layer" v="1"/>
    <tag k="name" v="Castro Valley Freeway"/>
    <tag k="oneway" v="yes"/>
    <tag k="ref" v="I 238"/>
    <tag k="tiger:cfcc" v="A11"/>
    <tag k="tiger:county" v="Alameda, CA"/>
    <tag k="tiger:name_base" v="Castro Valley"/>
    <tag k="tiger:name_base_1" v="State Highway 238"/>
    <tag k="tiger:tlid" v="125013813:125013779:125013823:125013844:125014121:125014123:125038733:125014533:125014106:125014615:125038736:125014610:125038738:125014803:125014805:125014799:125014540:125080817:125013825"/>
  </way>
  <way id="30930137" version="8" timestamp="2010-03-28T01:00:11Z" uid="20587" user="balrog-kun" changeset="4250871">
    <nd ref="242858385"/>
    <nd ref="30029500"/>
    <nd ref="30029501"/>
    <nd ref="242858269"/>
    <nd ref="651299994"/>
    <nd ref="242857478"/>
    <nd ref="651299989"/>
    <nd ref="29891423"/>
    <nd ref="651299990"/>
    <nd ref="651299991"/>
    <nd ref="651299992"/>
    <nd ref="242857338"/>
    <tag k="highway" v="motorway"/>
    <tag k="name" v="Castro Valley Freeway"/>
    <tag k="oneway" v="yes"/>
    <tag k="ref" v="I 238"/>
  </way>
  <way id="30930137" version="9" timestamp="2011-07-31T11:39:02Z" uid="207745" user="NE2" changeset="8880034">
    <nd ref="242858385"/>
    <nd ref="30029500"/>
    <nd ref="30029501"/>
    <nd ref="242858269"/>
    <nd ref="651299994"/>
    <nd ref="242857478"/>
    <nd ref="651299989"/>
    <nd ref="29891423"/>
    <nd ref="651299990"/>
    <nd ref="651299991"/>
    <nd ref="651299992"/>
    <nd ref="242857338"/>
    <tag k="highway" v="motorway"/>
    <tag k="lanes" v="3"/>
    <tag k="name" v="Castro Valley Freeway"/>
    <tag k="oneway" v="yes"/>
    <tag k="ref" v="I 238"/>
  </way>
  <way id="30930137" version="10" timestamp="2011-11-21T15:59:19Z" uid="207745" user="NE2" changeset="9898570">
    <nd ref="242858385"/>
    <nd ref="30029500"/>
    <nd ref="30029501"/>
    <nd ref="242858269"/>
    <nd ref="651299994"/>
    <nd ref="242857478"/>
    <nd ref="651299989"/>
    <nd ref="29891423"/>
    <nd ref="651299990"/>
    <nd ref="651299991"/>
    <nd ref="651299992"/>
    <nd ref="242857338"/>
    <tag k="hgv" v="designated"/>
    <tag k="highway" v="motorway"/>
    <tag k="lanes" v="3"/>
    <tag k="name" v="Castro Valley Freeway"/>
    <tag k="oneway" v="yes"/>
    <tag k="ref" v="I 238"/>
  </way>
  <way id="30930193" version="3" timestamp="2010-07-08T19:30:22Z" uid="74617" user="JohnSmith" changeset="5168730">
    <nd ref="343887631"/>
    <nd ref="343887758"/>
    <nd ref="343859716"/>
    <nd ref="343887760"/>
    <nd ref="343887761"/>
    <tag k="highway" v="residential"/>
    <tag k="maxspeed" v="50"/>
    <tag k="maxspeed:source" v="default residential speed limit in Australia"/>
    <tag k="name" v="Ralph Avenue"/>
  </way>
  <way id="30930193" version="4" timestamp="2011-03-19T06:40:07Z" uid="4467" user="Rosscoe" changeset="7601685">
    <nd ref="343887631"/>
    <nd ref="1208360343"/>
    <nd ref="343887758"/>
    <nd ref="343859716"/>
    <nd ref="343887760"/>
    <nd ref="343887761"/>
    <tag k="highway" v="residential"/>
    <tag k="maxspeed" v="50"/>
    <tag k="maxspeed:source" v="default residential speed limit in Australia"/>
    <tag k="name" v="Ralph Avenue"/>
  </way>
  <way id="30930193" version="5" timestamp="2012-01-18T05:37:11Z" uid="147510" user="woodpeck_fixbot" changeset="10424371">
    <nd ref="343887631"/>
    <nd ref="1208360343"/>
    <nd ref="343887758"/>
    <nd ref="343859716"/>
    <nd ref="343887760"/>
    <nd ref="343887761"/>
    <tag k="highway" v="residential"/>
    <tag k="name" v="Ralph Avenue"/>
  </way>
  <way id="30930194" version="3" timestamp="2010-07-08T19:39:35Z" uid="74617" user="JohnSmith" changeset="5168730">
    <nd ref="343887782"/>
    <nd ref="343887879"/>
    <nd ref="343887880"/>
    <nd ref="343887881"/>
    <nd ref="343887882"/>
    <nd ref="343858306"/>
    <tag k="highway" v="residential"/>
    <tag k="maxspeed" v="50"/>
    <tag k="maxspeed:source" v="default residential speed limit in Australia"/>
    <tag k="name" v="Marshall Avenue"/>
  </way>
  <way id="30930194" version="4" timestamp="2012-01-18T05:37:13Z" uid="147510" user="woodpeck_fixbot" changeset="10424371">
    <nd ref="343887782"/>
    <nd ref="343887879"/>
    <nd ref="343887880"/>
    <nd ref="343887881"/>
    <nd ref="343887882"/>
    <nd ref="343858306"/>
    <tag k="highway" v="residential"/>
    <tag k="name" v="Marshall Avenue"/>
  </way>
  <way id="30930360" version="2" timestamp="2010-07-08T17:16:14Z" uid="74617" user="JohnSmith" changeset="5167338">
    <nd ref="343906194"/>
    <nd ref="343906203"/>
    <tag k="highway" v="residential"/>
    <tag k="maxspeed" v="50"/>
    <tag k="maxspeed:source" v="default residential speed limit in Australia"/>
    <tag k="name" v="Argyle Street"/>
  </way>
  <way id="30930360" version="3" timestamp="2010-08-19T07:18:46Z" uid="4467" user="Rosscoe" changeset="5532991">
    <nd ref="343906194"/>
    <nd ref="343906203"/>
    <tag k="highway" v="residential"/>
    <tag k="maxspeed" v="50"/>
    <tag k="name" v="Argyle Street"/>
    <tag k="source:maxspeed" v="default residential speed limit in Australia"/>
  </way>
  <way id="30930360" version="4" timestamp="2012-01-18T05:37:14Z" uid="147510" user="woodpeck_fixbot" changeset="10424371">
    <nd ref="343906194"/>
    <nd ref="343906203"/>
    <tag k="highway" v="residential"/>
    <tag k="name" v="Argyle Street"/>
    <tag k="source:maxspeed" v="default residential speed limit in Australia"/>
  </way>
  <way id="30930562" version="3" timestamp="2010-03-28T01:00:11Z" uid="20587" user="balrog-kun" changeset="4250871">
    <nd ref="242414016"/>
    <nd ref="38503272"/>
    <nd ref="343923721"/>
    <tag k="bridge" v="yes"/>
    <tag k="created_by" v="Potlatch 0.10f"/>
    <tag k="highway" v="motorway"/>
    <tag k="layer" v="1"/>
    <tag k="name" v="Nimitz Freeway"/>
    <tag k="oneway" v="yes"/>
    <tag k="ref" v="I 880"/>
  </way>
  <way id="30930562" version="4" timestamp="2010-04-01T08:29:21Z" uid="14293" user="dahveed76" changeset="4291999">
    <nd ref="242414016"/>
    <nd ref="38503272"/>
    <nd ref="343923721"/>
    <tag k="bridge" v="yes"/>
    <tag k="highway" v="motorway"/>
    <tag k="layer" v="1"/>
    <tag k="name" v="Nimitz Freeway"/>
    <tag k="oneway" v="yes"/>
    <tag k="ref" v="I 880"/>
  </way>
  <way id="30930562" version="5" timestamp="2010-04-01T08:29:26Z" uid="14293" user="dahveed76" changeset="4291999">
    <nd ref="242414016"/>
    <nd ref="679672425"/>
    <nd ref="38503272"/>
    <nd ref="343923721"/>
    <tag k="bridge" v="yes"/>
    <tag k="highway" v="motorway"/>
    <tag k="layer" v="1"/>
    <tag k="name" v="Nimitz Freeway"/>
    <tag k="oneway" v="yes"/>
    <tag k="ref" v="I 880"/>
  </way>
  <way id="30930562" version="6" timestamp="2010-04-01T08:29:32Z" uid="14293" user="dahveed76" changeset="4291999">
    <nd ref="242414016"/>
    <nd ref="679672425"/>
    <nd ref="679672428"/>
    <nd ref="38503272"/>
    <nd ref="343923721"/>
    <tag k="bridge" v="yes"/>
    <tag k="highway" v="motorway"/>
    <tag k="layer" v="1"/>
    <tag k="name" v="Nimitz Freeway"/>
    <tag k="oneway" v="yes"/>
    <tag k="ref" v="I 880"/>
  </way>
  <way id="30930562" version="7" timestamp="2010-04-01T08:29:40Z" uid="14293" user="dahveed76" changeset="4291999">
    <nd ref="242414016"/>
    <nd ref="679672425"/>
    <nd ref="679672428"/>
    <nd ref="242186552"/>
    <tag k="bridge" v="yes"/>
    <tag k="highway" v="motorway"/>
    <tag k="layer" v="1"/>
    <tag k="name" v="Nimitz Freeway"/>
    <tag k="oneway" v="yes"/>
    <tag k="ref" v="I 880"/>
  </way>
  <way id="30930562" version="8" timestamp="2011-07-31T11:45:54Z" uid="207745" user="NE2" changeset="8880034">
    <nd ref="242414016"/>
    <nd ref="679672425"/>
    <nd ref="679672428"/>
    <nd ref="242186552"/>
    <tag k="bridge" v="yes"/>
    <tag k="highway" v="motorway"/>
    <tag k="lanes" v="4"/>
    <tag k="layer" v="1"/>
    <tag k="name" v="Nimitz Freeway"/>
    <tag k="oneway" v="yes"/>
    <tag k="ref" v="I 880"/>
  </way>
  <way id="30930562" version="9" timestamp="2011-11-21T16:06:06Z" uid="207745" user="NE2" changeset="9898570">
    <nd ref="242414016"/>
    <nd ref="679672425"/>
    <nd ref="679672428"/>
    <nd ref="242186552"/>
    <tag k="bridge" v="yes"/>
    <tag k="hgv" v="designated"/>
    <tag k="highway" v="motorway"/>
    <tag k="lanes" v="4"/>
    <tag k="layer" v="1"/>
    <tag k="name" v="Nimitz Freeway"/>
    <tag k="oneway" v="yes"/>
    <tag k="ref" v="I 880"/>
  </way>
  <way id="30930567" version="2" timestamp="2010-03-28T01:00:12Z" uid="20587" user="balrog-kun" changeset="4250871">
    <nd ref="343923721"/>
    <nd ref="242186552"/>
    <nd ref="242199573"/>
    <nd ref="38503280"/>
    <nd ref="242106025"/>
    <nd ref="241334544"/>
    <nd ref="241334543"/>
    <nd ref="241333761"/>
    <nd ref="241332475"/>
    <nd ref="38503291"/>
    <nd ref="240435518"/>
    <nd ref="240432279"/>
    <nd ref="240432284"/>
    <nd ref="326758798"/>
    <tag k="created_by" v="Potlatch 0.10f"/>
    <tag k="highway" v="motorway"/>
    <tag k="name" v="Nimitz Freeway"/>
    <tag k="oneway" v="yes"/>
    <tag k="ref" v="I 880"/>
  </way>
  <way id="30930567" version="3" timestamp="2010-03-30T22:40:00Z" uid="14293" user="dahveed76" changeset="4281429">
    <nd ref="343923721"/>
    <nd ref="242186552"/>
    <nd ref="242199573"/>
    <nd ref="38503280"/>
    <nd ref="242106025"/>
    <nd ref="241334544"/>
    <nd ref="241334543"/>
    <nd ref="241333761"/>
    <nd ref="241332475"/>
    <nd ref="38503291"/>
    <nd ref="240435518"/>
    <nd ref="240432279"/>
    <nd ref="240432284"/>
    <nd ref="678962193"/>
    <nd ref="326758798"/>
    <tag k="highway" v="motorway"/>
    <tag k="name" v="Nimitz Freeway"/>
    <tag k="oneway" v="yes"/>
    <tag k="ref" v="I 880"/>
  </way>
  <way id="30930567" version="4" timestamp="2010-03-30T22:54:27Z" uid="14293" user="dahveed76" changeset="4281523">
    <nd ref="343923721"/>
    <nd ref="242186552"/>
    <nd ref="242199573"/>
    <nd ref="38503280"/>
    <nd ref="242106025"/>
    <nd ref="241334544"/>
    <nd ref="241334543"/>
    <nd ref="241333761"/>
    <nd ref="241332475"/>
    <nd ref="38503291"/>
    <nd ref="240435518"/>
    <nd ref="678963607"/>
    <nd ref="240432279"/>
    <nd ref="240432284"/>
    <nd ref="678962193"/>
    <nd ref="326758798"/>
    <tag k="highway" v="motorway"/>
    <tag k="name" v="Nimitz Freeway"/>
    <tag k="oneway" v="yes"/>
    <tag k="ref" v="I 880"/>
  </way>
  <way id="30930567" version="5" timestamp="2010-03-30T22:54:42Z" uid="14293" user="dahveed76" changeset="4281523">
    <nd ref="343923721"/>
    <nd ref="242186552"/>
    <nd ref="242199573"/>
    <nd ref="38503280"/>
    <nd ref="242106025"/>
    <nd ref="241334544"/>
    <nd ref="241334543"/>
    <nd ref="241333761"/>
    <nd ref="241332475"/>
    <nd ref="38503291"/>
    <nd ref="240435518"/>
    <nd ref="678963615"/>
    <nd ref="678963607"/>
    <nd ref="240432279"/>
    <nd ref="240432284"/>
    <nd ref="678962193"/>
    <nd ref="326758798"/>
    <tag k="highway" v="motorway"/>
    <tag k="name" v="Nimitz Freeway"/>
    <tag k="oneway" v="yes"/>
    <tag k="ref" v="I 880"/>
  </way>
  <way id="30930567" version="6" timestamp="2010-03-30T22:55:24Z" uid="14293" user="dahveed76" changeset="4281523">
    <nd ref="343923721"/>
    <nd ref="242186552"/>
    <nd ref="242199573"/>
    <nd ref="38503280"/>
    <nd ref="242106025"/>
    <nd ref="241334544"/>
    <nd ref="241334543"/>
    <nd ref="241333761"/>
    <nd ref="241332475"/>
    <nd ref="38503291"/>
    <nd ref="240435518"/>
    <nd ref="678963615"/>
    <nd ref="678963607"/>
    <nd ref="240432279"/>
    <nd ref="678963641"/>
    <nd ref="678963642"/>
    <nd ref="240432284"/>
    <nd ref="678962193"/>
    <nd ref="326758798"/>
    <tag k="highway" v="motorway"/>
    <tag k="name" v="Nimitz Freeway"/>
    <tag k="oneway" v="yes"/>
    <tag k="ref" v="I 880"/>
  </way>
  <way id="30930567" version="7" timestamp="2010-03-30T23:40:53Z" uid="14293" user="dahveed76" changeset="4281718">
    <nd ref="343923721"/>
    <nd ref="242186552"/>
    <nd ref="242199573"/>
    <nd ref="38503280"/>
    <nd ref="242106025"/>
    <nd ref="241334544"/>
    <nd ref="241334543"/>
    <nd ref="241333761"/>
    <nd ref="241332475"/>
    <nd ref="38503291"/>
    <nd ref="678967431"/>
    <nd ref="240435518"/>
    <nd ref="678963615"/>
    <nd ref="678963607"/>
    <nd ref="240432279"/>
    <nd ref="678963641"/>
    <nd ref="678963642"/>
    <nd ref="240432284"/>
    <nd ref="678962193"/>
    <nd ref="326758798"/>
    <tag k="highway" v="motorway"/>
    <tag k="name" v="Nimitz Freeway"/>
    <tag k="oneway" v="yes"/>
    <tag k="ref" v="I 880"/>
  </way>
  <way id="30930567" version="8" timestamp="2010-03-30T23:41:06Z" uid="14293" user="dahveed76" changeset="4281718">
    <nd ref="343923721"/>
    <nd ref="242186552"/>
    <nd ref="242199573"/>
    <nd ref="38503280"/>
    <nd ref="242106025"/>
    <nd ref="241334544"/>
    <nd ref="241334543"/>
    <nd ref="241333761"/>
    <nd ref="241332475"/>
    <nd ref="38503291"/>
    <nd ref="678967431"/>
    <nd ref="678967511"/>
    <nd ref="678963615"/>
    <nd ref="678963607"/>
    <nd ref="240432279"/>
    <nd ref="678963641"/>
    <nd ref="678963642"/>
    <nd ref="240432284"/>
    <nd ref="678962193"/>
    <nd ref="326758798"/>
    <tag k="highway" v="motorway"/>
    <tag k="name" v="Nimitz Freeway"/>
    <tag k="oneway" v="yes"/>
    <tag k="ref" v="I 880"/>
  </way>
  <way id="30930567" version="9" timestamp="2010-03-30T23:42:19Z" uid="14293" user="dahveed76" changeset="4281718">
    <nd ref="343923721"/>
    <nd ref="242186552"/>
    <nd ref="242199573"/>
    <nd ref="38503280"/>
    <nd ref="242106025"/>
    <nd ref="241334544"/>
    <nd ref="241334543"/>
    <nd ref="241333761"/>
    <nd ref="241332475"/>
    <nd ref="678967685"/>
    <nd ref="38503291"/>
    <nd ref="678967431"/>
    <nd ref="678967511"/>
    <nd ref="678963615"/>
    <nd ref="678963607"/>
    <nd ref="240432279"/>
    <nd ref="678963641"/>
    <nd ref="678963642"/>
    <nd ref="240432284"/>
    <nd ref="678962193"/>
    <nd ref="326758798"/>
    <tag k="highway" v="motorway"/>
    <tag k="name" v="Nimitz Freeway"/>
    <tag k="oneway" v="yes"/>
    <tag k="ref" v="I 880"/>
  </way>
  <way id="30930567" version="10" timestamp="2010-03-31T07:24:21Z" uid="14293" user="dahveed76" changeset="4282953">
    <nd ref="343923721"/>
    <nd ref="242186552"/>
    <nd ref="242199573"/>
    <nd ref="38503280"/>
    <nd ref="242106025"/>
    <nd ref="679020432"/>
    <nd ref="241334544"/>
    <nd ref="241334543"/>
    <nd ref="241333761"/>
    <nd ref="241332475"/>
    <nd ref="678967685"/>
    <nd ref="38503291"/>
    <nd ref="678967431"/>
    <nd ref="678967511"/>
    <nd ref="678963615"/>
    <nd ref="678963607"/>
    <nd ref="240432279"/>
    <nd ref="678963641"/>
    <nd ref="678963642"/>
    <nd ref="240432284"/>
    <nd ref="678962193"/>
    <nd ref="326758798"/>
    <tag k="highway" v="motorway"/>
    <tag k="name" v="Nimitz Freeway"/>
    <tag k="oneway" v="yes"/>
    <tag k="ref" v="I 880"/>
  </way>
  <way id="30930567" version="11" timestamp="2010-03-31T07:42:19Z" uid="14293" user="dahveed76" changeset="4283045">
    <nd ref="343923721"/>
    <nd ref="242186552"/>
    <nd ref="679024336"/>
    <nd ref="242199573"/>
    <nd ref="38503280"/>
    <nd ref="242106025"/>
    <nd ref="679020432"/>
    <nd ref="241334544"/>
    <nd ref="241334543"/>
    <nd ref="241333761"/>
    <nd ref="241332475"/>
    <nd ref="678967685"/>
    <nd ref="38503291"/>
    <nd ref="678967431"/>
    <nd ref="678967511"/>
    <nd ref="678963615"/>
    <nd ref="678963607"/>
    <nd ref="240432279"/>
    <nd ref="678963641"/>
    <nd ref="678963642"/>
    <nd ref="240432284"/>
    <nd ref="678962193"/>
    <nd ref="326758798"/>
    <tag k="highway" v="motorway"/>
    <tag k="name" v="Nimitz Freeway"/>
    <tag k="oneway" v="yes"/>
    <tag k="ref" v="I 880"/>
  </way>
  <way id="30930567" version="12" timestamp="2010-04-01T08:28:29Z" uid="14293" user="dahveed76" changeset="4291999">
    <nd ref="242186552"/>
    <nd ref="679024336"/>
    <nd ref="242199573"/>
    <nd ref="38503280"/>
    <nd ref="242106025"/>
    <nd ref="679020432"/>
    <nd ref="241334544"/>
    <nd ref="241334543"/>
    <nd ref="241333761"/>
    <nd ref="241332475"/>
    <nd ref="678967685"/>
    <nd ref="38503291"/>
    <nd ref="678967431"/>
    <nd ref="678967511"/>
    <nd ref="678963615"/>
    <nd ref="678963607"/>
    <nd ref="240432279"/>
    <nd ref="678963641"/>
    <nd ref="678963642"/>
    <nd ref="240432284"/>
    <nd ref="678962193"/>
    <nd ref="326758798"/>
    <tag k="highway" v="motorway"/>
    <tag k="name" v="Nimitz Freeway"/>
    <tag k="oneway" v="yes"/>
    <tag k="ref" v="I 880"/>
  </way>
  <way id="30930567" version="13" timestamp="2010-05-30T15:12:41Z" uid="72235" user="Basstoelpel" changeset="4852998">
    <nd ref="242186552"/>
    <nd ref="679024336"/>
    <nd ref="242199573"/>
    <nd ref="38503280"/>
    <nd ref="242106025"/>
    <nd ref="679020432"/>
    <nd ref="241334544"/>
    <nd ref="241334543"/>
    <nd ref="241333761"/>
    <nd ref="241332475"/>
    <nd ref="678967685"/>
    <nd ref="38503291"/>
    <nd ref="759569186"/>
    <tag k="highway" v="motorway"/>
    <tag k="name" v="Nimitz Freeway"/>
    <tag k="oneway" v="yes"/>
    <tag k="ref" v="I 880"/>
  </way>
  <way id="30930567" version="14" timestamp="2011-06-09T01:26:37Z" uid="14293" user="JuxTPosition" changeset="8384783">
    <nd ref="242186552"/>
    <nd ref="1316698418"/>
    <nd ref="679024336"/>
    <nd ref="242199573"/>
    <nd ref="38503280"/>
    <nd ref="242106025"/>
    <nd ref="679020432"/>
    <nd ref="241334544"/>
    <nd ref="241334543"/>
    <nd ref="241333761"/>
    <nd ref="241332475"/>
    <nd ref="678967685"/>
    <nd ref="38503291"/>
    <nd ref="759569186"/>
    <tag k="highway" v="motorway"/>
    <tag k="name" v="Nimitz Freeway"/>
    <tag k="oneway" v="yes"/>
    <tag k="ref" v="I 880"/>
  </way>
  <way id="30930567" version="15" timestamp="2011-07-31T11:45:32Z" uid="207745" user="NE2" changeset="8880034">
    <nd ref="242186552"/>
    <nd ref="1316698418"/>
    <nd ref="679024336"/>
    <nd ref="242199573"/>
    <nd ref="38503280"/>
    <nd ref="242106025"/>
    <nd ref="679020432"/>
    <nd ref="241334544"/>
    <nd ref="241334543"/>
    <nd ref="241333761"/>
    <nd ref="241332475"/>
    <nd ref="678967685"/>
    <nd ref="38503291"/>
    <nd ref="759569186"/>
    <tag k="highway" v="motorway"/>
    <tag k="lanes" v="4"/>
    <tag k="name" v="Nimitz Freeway"/>
    <tag k="oneway" v="yes"/>
    <tag k="ref" v="I 880"/>
  </way>
  <way id="30930567" version="16" timestamp="2011-11-21T16:05:21Z" uid="207745" user="NE2" changeset="9898570">
    <nd ref="242186552"/>
    <nd ref="1316698418"/>
    <nd ref="679024336"/>
    <nd ref="242199573"/>
    <nd ref="38503280"/>
    <nd ref="242106025"/>
    <nd ref="679020432"/>
    <nd ref="241334544"/>
    <nd ref="241334543"/>
    <nd ref="241333761"/>
    <nd ref="241332475"/>
    <nd ref="678967685"/>
    <nd ref="38503291"/>
    <nd ref="759569186"/>
    <tag k="hgv" v="designated"/>
    <tag k="highway" v="motorway"/>
    <tag k="lanes" v="4"/>
    <tag k="name" v="Nimitz Freeway"/>
    <tag k="oneway" v="yes"/>
    <tag k="ref" v="I 880"/>
  </way>
  <way id="30930573" version="5" timestamp="2010-03-28T01:00:12Z" uid="20587" user="balrog-kun" changeset="4250871">
    <nd ref="343924897"/>
    <nd ref="242197027"/>
    <nd ref="242197029"/>
    <tag k="bridge" v="yes"/>
    <tag k="created_by" v="Potlatch 0.10f"/>
    <tag k="highway" v="primary"/>
    <tag k="layer" v="1"/>
    <tag k="name" v="98th Avenue"/>
    <tag k="oneway" v="yes"/>
  </way>
  <way id="30930573" version="6" timestamp="2011-06-09T01:26:38Z" uid="14293" user="JuxTPosition" changeset="8384783">
    <nd ref="343924897"/>
    <nd ref="1316698444"/>
    <nd ref="242197027"/>
    <nd ref="1316698445"/>
    <nd ref="242197029"/>
    <tag k="bridge" v="yes"/>
    <tag k="highway" v="primary"/>
    <tag k="layer" v="1"/>
    <tag k="name" v="98th Avenue"/>
    <tag k="oneway" v="yes"/>
  </way>
  <way id="30930575" version="3" timestamp="2010-03-28T01:00:12Z" uid="20587" user="balrog-kun" changeset="4250871">
    <nd ref="343924935"/>
    <nd ref="52982322"/>
    <nd ref="53078584"/>
    <nd ref="53027175"/>
    <nd ref="53088284"/>
    <nd ref="53088270"/>
    <nd ref="53148429"/>
    <nd ref="53148428"/>
    <nd ref="241785249"/>
    <nd ref="241785248"/>
    <nd ref="241785247"/>
    <nd ref="241785257"/>
    <nd ref="241785258"/>
    <nd ref="241785259"/>
    <nd ref="241785260"/>
    <nd ref="241785261"/>
    <nd ref="241785164"/>
    <tag k="created_by" v="Potlatch 0.10f"/>
    <tag k="highway" v="primary"/>
    <tag k="name" v="98th Avenue"/>
    <tag k="oneway" v="yes"/>
    <tag k="tiger:cfcc" v="A41"/>
    <tag k="tiger:county" v="Alameda, CA"/>
    <tag k="tiger:name_base" v="98th"/>
    <tag k="tiger:name_type" v="Ave"/>
    <tag k="tiger:reviewed" v="no"/>
    <tag k="tiger:separated" v="no"/>
    <tag k="tiger:source" v="tiger_import_dch_v0.6_20070809"/>
    <tag k="tiger:tlid" v="125011180:125011157"/>
    <tag k="tiger:zip_left" v="94605"/>
    <tag k="tiger:zip_right" v="94605"/>
  </way>
  <way id="30930575" version="4" timestamp="2010-03-31T06:10:09Z" uid="14293" user="dahveed76" changeset="4282691">
    <nd ref="343924935"/>
    <nd ref="52982322"/>
    <nd ref="53078584"/>
    <nd ref="53027175"/>
    <nd ref="53088284"/>
    <nd ref="53088270"/>
    <nd ref="53148429"/>
    <nd ref="53148428"/>
    <nd ref="241785249"/>
    <nd ref="241785248"/>
    <nd ref="241785247"/>
    <nd ref="241785257"/>
    <nd ref="241785258"/>
    <nd ref="241785259"/>
    <nd ref="241785260"/>
    <nd ref="679006776"/>
    <nd ref="241785261"/>
    <nd ref="241785164"/>
    <tag k="highway" v="primary"/>
    <tag k="name" v="98th Avenue"/>
    <tag k="oneway" v="yes"/>
    <tag k="tiger:cfcc" v="A41"/>
    <tag k="tiger:county" v="Alameda, CA"/>
    <tag k="tiger:name_base" v="98th"/>
    <tag k="tiger:name_type" v="Ave"/>
    <tag k="tiger:reviewed" v="no"/>
    <tag k="tiger:separated" v="no"/>
    <tag k="tiger:source" v="tiger_import_dch_v0.6_20070809"/>
    <tag k="tiger:tlid" v="125011180:125011157"/>
    <tag k="tiger:zip_left" v="94605"/>
    <tag k="tiger:zip_right" v="94605"/>
  </way>
  <way id="30930575" version="5" timestamp="2010-03-31T06:24:32Z" uid="14293" user="dahveed76" changeset="4282691">
    <nd ref="343924935"/>
    <nd ref="52982322"/>
    <nd ref="53078584"/>
    <nd ref="53027175"/>
    <nd ref="53088284"/>
    <nd ref="53088270"/>
    <nd ref="53148429"/>
    <nd ref="53148428"/>
    <nd ref="241785249"/>
    <nd ref="241785248"/>
    <nd ref="241785247"/>
    <nd ref="241785257"/>
    <nd ref="679008610"/>
    <nd ref="241785258"/>
    <nd ref="241785259"/>
    <nd ref="241785260"/>
    <nd ref="679006776"/>
    <nd ref="241785261"/>
    <nd ref="241785164"/>
    <tag k="highway" v="primary"/>
    <tag k="name" v="98th Avenue"/>
    <tag k="oneway" v="yes"/>
    <tag k="tiger:cfcc" v="A41"/>
    <tag k="tiger:county" v="Alameda, CA"/>
    <tag k="tiger:name_base" v="98th"/>
    <tag k="tiger:name_type" v="Ave"/>
    <tag k="tiger:reviewed" v="no"/>
    <tag k="tiger:separated" v="no"/>
    <tag k="tiger:source" v="tiger_import_dch_v0.6_20070809"/>
    <tag k="tiger:tlid" v="125011180:125011157"/>
    <tag k="tiger:zip_left" v="94605"/>
    <tag k="tiger:zip_right" v="94605"/>
  </way>
  <way id="30930575" version="6" timestamp="2010-03-31T06:30:28Z" uid="14293" user="dahveed76" changeset="4282691">
    <nd ref="343924935"/>
    <nd ref="52982322"/>
    <nd ref="53078584"/>
    <nd ref="53027175"/>
    <nd ref="53088284"/>
    <nd ref="53088270"/>
    <nd ref="53148429"/>
    <nd ref="53148428"/>
    <nd ref="241785249"/>
    <nd ref="241785248"/>
    <nd ref="241785247"/>
    <nd ref="241785257"/>
    <nd ref="679008610"/>
    <nd ref="241785258"/>
    <nd ref="241785259"/>
    <nd ref="241785260"/>
    <nd ref="679006776"/>
    <nd ref="241785261"/>
    <nd ref="679009958"/>
    <nd ref="241785164"/>
    <tag k="highway" v="primary"/>
    <tag k="name" v="98th Avenue"/>
    <tag k="oneway" v="yes"/>
    <tag k="tiger:cfcc" v="A41"/>
    <tag k="tiger:county" v="Alameda, CA"/>
    <tag k="tiger:name_base" v="98th"/>
    <tag k="tiger:name_type" v="Ave"/>
    <tag k="tiger:reviewed" v="no"/>
    <tag k="tiger:separated" v="no"/>
    <tag k="tiger:source" v="tiger_import_dch_v0.6_20070809"/>
    <tag k="tiger:tlid" v="125011180:125011157"/>
    <tag k="tiger:zip_left" v="94605"/>
    <tag k="tiger:zip_right" v="94605"/>
  </way>
  <way id="30930575" version="7" timestamp="2010-03-31T06:32:00Z" uid="14293" user="dahveed76" changeset="4282691">
    <nd ref="343924935"/>
    <nd ref="52982322"/>
    <nd ref="53078584"/>
    <nd ref="53027175"/>
    <nd ref="53088284"/>
    <nd ref="53088270"/>
    <nd ref="53148429"/>
    <nd ref="53148428"/>
    <nd ref="241785249"/>
    <nd ref="679010160"/>
    <nd ref="241785248"/>
    <nd ref="241785247"/>
    <nd ref="241785257"/>
    <nd ref="679008610"/>
    <nd ref="241785258"/>
    <nd ref="241785259"/>
    <nd ref="241785260"/>
    <nd ref="679006776"/>
    <nd ref="241785261"/>
    <nd ref="679009958"/>
    <nd ref="241785164"/>
    <tag k="highway" v="primary"/>
    <tag k="name" v="98th Avenue"/>
    <tag k="oneway" v="yes"/>
    <tag k="tiger:cfcc" v="A41"/>
    <tag k="tiger:county" v="Alameda, CA"/>
    <tag k="tiger:name_base" v="98th"/>
    <tag k="tiger:name_type" v="Ave"/>
    <tag k="tiger:reviewed" v="no"/>
    <tag k="tiger:separated" v="no"/>
    <tag k="tiger:source" v="tiger_import_dch_v0.6_20070809"/>
    <tag k="tiger:tlid" v="125011180:125011157"/>
    <tag k="tiger:zip_left" v="94605"/>
    <tag k="tiger:zip_right" v="94605"/>
  </way>
  <way id="30930575" version="8" timestamp="2010-03-31T06:32:12Z" uid="14293" user="dahveed76" changeset="4282691">
    <nd ref="343924935"/>
    <nd ref="52982322"/>
    <nd ref="53078584"/>
    <nd ref="53027175"/>
    <nd ref="53088284"/>
    <nd ref="53088270"/>
    <nd ref="53148429"/>
    <nd ref="53148428"/>
    <nd ref="241785249"/>
    <nd ref="679010160"/>
    <nd ref="241785248"/>
    <nd ref="679010179"/>
    <nd ref="241785247"/>
    <nd ref="241785257"/>
    <nd ref="679008610"/>
    <nd ref="241785258"/>
    <nd ref="241785259"/>
    <nd ref="241785260"/>
    <nd ref="679006776"/>
    <nd ref="241785261"/>
    <nd ref="679009958"/>
    <nd ref="241785164"/>
    <tag k="highway" v="primary"/>
    <tag k="name" v="98th Avenue"/>
    <tag k="oneway" v="yes"/>
    <tag k="tiger:cfcc" v="A41"/>
    <tag k="tiger:county" v="Alameda, CA"/>
    <tag k="tiger:name_base" v="98th"/>
    <tag k="tiger:name_type" v="Ave"/>
    <tag k="tiger:reviewed" v="no"/>
    <tag k="tiger:separated" v="no"/>
    <tag k="tiger:source" v="tiger_import_dch_v0.6_20070809"/>
    <tag k="tiger:tlid" v="125011180:125011157"/>
    <tag k="tiger:zip_left" v="94605"/>
    <tag k="tiger:zip_right" v="94605"/>
  </way>
  <way id="30930575" version="9" timestamp="2010-03-31T06:32:40Z" uid="14293" user="dahveed76" changeset="4282691">
    <nd ref="343924935"/>
    <nd ref="52982322"/>
    <nd ref="53078584"/>
    <nd ref="53027175"/>
    <nd ref="53088284"/>
    <nd ref="53088270"/>
    <nd ref="53148429"/>
    <nd ref="53148428"/>
    <nd ref="241785249"/>
    <nd ref="679010160"/>
    <nd ref="241785248"/>
    <nd ref="679010179"/>
    <nd ref="241785247"/>
    <nd ref="679010271"/>
    <nd ref="241785257"/>
    <nd ref="679008610"/>
    <nd ref="241785258"/>
    <nd ref="241785259"/>
    <nd ref="241785260"/>
    <nd ref="679006776"/>
    <nd ref="241785261"/>
    <nd ref="679009958"/>
    <nd ref="241785164"/>
    <tag k="highway" v="primary"/>
    <tag k="name" v="98th Avenue"/>
    <tag k="oneway" v="yes"/>
    <tag k="tiger:cfcc" v="A41"/>
    <tag k="tiger:county" v="Alameda, CA"/>
    <tag k="tiger:name_base" v="98th"/>
    <tag k="tiger:name_type" v="Ave"/>
    <tag k="tiger:reviewed" v="no"/>
    <tag k="tiger:separated" v="no"/>
    <tag k="tiger:source" v="tiger_import_dch_v0.6_20070809"/>
    <tag k="tiger:tlid" v="125011180:125011157"/>
    <tag k="tiger:zip_left" v="94605"/>
    <tag k="tiger:zip_right" v="94605"/>
  </way>
  <way id="30930575" version="10" timestamp="2010-03-31T07:34:28Z" uid="14293" user="dahveed76" changeset="4283045">
    <nd ref="343924935"/>
    <nd ref="52982322"/>
    <nd ref="53078584"/>
    <nd ref="679023219"/>
    <nd ref="679023220"/>
    <nd ref="53027175"/>
    <nd ref="53088284"/>
    <nd ref="53088270"/>
    <nd ref="53148429"/>
    <nd ref="53148428"/>
    <nd ref="241785249"/>
    <nd ref="679010160"/>
    <nd ref="241785248"/>
    <nd ref="679010179"/>
    <nd ref="241785247"/>
    <nd ref="679010271"/>
    <nd ref="241785257"/>
    <nd ref="679008610"/>
    <nd ref="241785258"/>
    <nd ref="241785259"/>
    <nd ref="241785260"/>
    <nd ref="679006776"/>
    <nd ref="241785261"/>
    <nd ref="679009958"/>
    <nd ref="241785164"/>
    <tag k="highway" v="primary"/>
    <tag k="name" v="98th Avenue"/>
    <tag k="oneway" v="yes"/>
    <tag k="tiger:cfcc" v="A41"/>
    <tag k="tiger:county" v="Alameda, CA"/>
    <tag k="tiger:name_base" v="98th"/>
    <tag k="tiger:name_type" v="Ave"/>
    <tag k="tiger:reviewed" v="no"/>
    <tag k="tiger:separated" v="no"/>
    <tag k="tiger:source" v="tiger_import_dch_v0.6_20070809"/>
    <tag k="tiger:tlid" v="125011180:125011157"/>
    <tag k="tiger:zip_left" v="94605"/>
    <tag k="tiger:zip_right" v="94605"/>
  </way>
  <way id="30930575" version="11" timestamp="2010-03-31T07:35:17Z" uid="14293" user="dahveed76" changeset="4283045">
    <nd ref="343924935"/>
    <nd ref="52982322"/>
    <nd ref="53078584"/>
    <nd ref="679023219"/>
    <nd ref="679023220"/>
    <nd ref="679023316"/>
    <nd ref="53027175"/>
    <nd ref="53088284"/>
    <nd ref="53088270"/>
    <nd ref="53148429"/>
    <nd ref="53148428"/>
    <nd ref="241785249"/>
    <nd ref="679010160"/>
    <nd ref="241785248"/>
    <nd ref="679010179"/>
    <nd ref="241785247"/>
    <nd ref="679010271"/>
    <nd ref="241785257"/>
    <nd ref="679008610"/>
    <nd ref="241785258"/>
    <nd ref="241785259"/>
    <nd ref="241785260"/>
    <nd ref="679006776"/>
    <nd ref="241785261"/>
    <nd ref="679009958"/>
    <nd ref="241785164"/>
    <tag k="highway" v="primary"/>
    <tag k="name" v="98th Avenue"/>
    <tag k="oneway" v="yes"/>
    <tag k="tiger:cfcc" v="A41"/>
    <tag k="tiger:county" v="Alameda, CA"/>
    <tag k="tiger:name_base" v="98th"/>
    <tag k="tiger:name_type" v="Ave"/>
    <tag k="tiger:reviewed" v="no"/>
    <tag k="tiger:separated" v="no"/>
    <tag k="tiger:source" v="tiger_import_dch_v0.6_20070809"/>
    <tag k="tiger:tlid" v="125011180:125011157"/>
    <tag k="tiger:zip_left" v="94605"/>
    <tag k="tiger:zip_right" v="94605"/>
  </way>
  <way id="30930575" version="12" timestamp="2010-03-31T07:35:23Z" uid="14293" user="dahveed76" changeset="4283045">
    <nd ref="343924935"/>
    <nd ref="52982322"/>
    <nd ref="53078584"/>
    <nd ref="679023219"/>
    <nd ref="679023220"/>
    <nd ref="679023316"/>
    <nd ref="53027175"/>
    <nd ref="679023330"/>
    <nd ref="53088284"/>
    <nd ref="53088270"/>
    <nd ref="53148429"/>
    <nd ref="53148428"/>
    <nd ref="241785249"/>
    <nd ref="679010160"/>
    <nd ref="241785248"/>
    <nd ref="679010179"/>
    <nd ref="241785247"/>
    <nd ref="679010271"/>
    <nd ref="241785257"/>
    <nd ref="679008610"/>
    <nd ref="241785258"/>
    <nd ref="241785259"/>
    <nd ref="241785260"/>
    <nd ref="679006776"/>
    <nd ref="241785261"/>
    <nd ref="679009958"/>
    <nd ref="241785164"/>
    <tag k="highway" v="primary"/>
    <tag k="name" v="98th Avenue"/>
    <tag k="oneway" v="yes"/>
    <tag k="tiger:cfcc" v="A41"/>
    <tag k="tiger:county" v="Alameda, CA"/>
    <tag k="tiger:name_base" v="98th"/>
    <tag k="tiger:name_type" v="Ave"/>
    <tag k="tiger:reviewed" v="no"/>
    <tag k="tiger:separated" v="no"/>
    <tag k="tiger:source" v="tiger_import_dch_v0.6_20070809"/>
    <tag k="tiger:tlid" v="125011180:125011157"/>
    <tag k="tiger:zip_left" v="94605"/>
    <tag k="tiger:zip_right" v="94605"/>
  </way>
  <way id="30930575" version="13" timestamp="2010-03-31T07:35:32Z" uid="14293" user="dahveed76" changeset="4283045">
    <nd ref="343924935"/>
    <nd ref="52982322"/>
    <nd ref="53078584"/>
    <nd ref="679023219"/>
    <nd ref="679023220"/>
    <nd ref="679023316"/>
    <nd ref="53027175"/>
    <nd ref="679023330"/>
    <nd ref="679023355"/>
    <nd ref="53088284"/>
    <nd ref="53088270"/>
    <nd ref="53148429"/>
    <nd ref="53148428"/>
    <nd ref="241785249"/>
    <nd ref="679010160"/>
    <nd ref="241785248"/>
    <nd ref="679010179"/>
    <nd ref="241785247"/>
    <nd ref="679010271"/>
    <nd ref="241785257"/>
    <nd ref="679008610"/>
    <nd ref="241785258"/>
    <nd ref="241785259"/>
    <nd ref="241785260"/>
    <nd ref="679006776"/>
    <nd ref="241785261"/>
    <nd ref="679009958"/>
    <nd ref="241785164"/>
    <tag k="highway" v="primary"/>
    <tag k="name" v="98th Avenue"/>
    <tag k="oneway" v="yes"/>
    <tag k="tiger:cfcc" v="A41"/>
    <tag k="tiger:county" v="Alameda, CA"/>
    <tag k="tiger:name_base" v="98th"/>
    <tag k="tiger:name_type" v="Ave"/>
    <tag k="tiger:reviewed" v="no"/>
    <tag k="tiger:separated" v="no"/>
    <tag k="tiger:source" v="tiger_import_dch_v0.6_20070809"/>
    <tag k="tiger:tlid" v="125011180:125011157"/>
    <tag k="tiger:zip_left" v="94605"/>
    <tag k="tiger:zip_right" v="94605"/>
  </way>
  <way id="30930575" version="14" timestamp="2010-03-31T07:35:41Z" uid="14293" user="dahveed76" changeset="4283045">
    <nd ref="343924935"/>
    <nd ref="52982322"/>
    <nd ref="53078584"/>
    <nd ref="679023219"/>
    <nd ref="679023220"/>
    <nd ref="679023316"/>
    <nd ref="53027175"/>
    <nd ref="679023330"/>
    <nd ref="679023374"/>
    <nd ref="679023355"/>
    <nd ref="53088284"/>
    <nd ref="53088270"/>
    <nd ref="53148429"/>
    <nd ref="53148428"/>
    <nd ref="241785249"/>
    <nd ref="679010160"/>
    <nd ref="241785248"/>
    <nd ref="679010179"/>
    <nd ref="241785247"/>
    <nd ref="679010271"/>
    <nd ref="241785257"/>
    <nd ref="679008610"/>
    <nd ref="241785258"/>
    <nd ref="241785259"/>
    <nd ref="241785260"/>
    <nd ref="679006776"/>
    <nd ref="241785261"/>
    <nd ref="679009958"/>
    <nd ref="241785164"/>
    <tag k="highway" v="primary"/>
    <tag k="name" v="98th Avenue"/>
    <tag k="oneway" v="yes"/>
    <tag k="tiger:cfcc" v="A41"/>
    <tag k="tiger:county" v="Alameda, CA"/>
    <tag k="tiger:name_base" v="98th"/>
    <tag k="tiger:name_type" v="Ave"/>
    <tag k="tiger:reviewed" v="no"/>
    <tag k="tiger:separated" v="no"/>
    <tag k="tiger:source" v="tiger_import_dch_v0.6_20070809"/>
    <tag k="tiger:tlid" v="125011180:125011157"/>
    <tag k="tiger:zip_left" v="94605"/>
    <tag k="tiger:zip_right" v="94605"/>
  </way>
  <way id="30930575" version="15" timestamp="2010-05-30T15:23:19Z" uid="72235" user="Basstoelpel" changeset="4853118">
    <nd ref="343924935"/>
    <nd ref="242247479"/>
    <nd ref="52982322"/>
    <nd ref="53078584"/>
    <nd ref="679023219"/>
    <nd ref="679023220"/>
    <nd ref="679023316"/>
    <nd ref="53027175"/>
    <nd ref="679023330"/>
    <nd ref="679023374"/>
    <nd ref="679023355"/>
    <nd ref="53088284"/>
    <nd ref="53088270"/>
    <nd ref="53148429"/>
    <nd ref="53148428"/>
    <nd ref="241785249"/>
    <nd ref="679010160"/>
    <nd ref="241785248"/>
    <nd ref="679010179"/>
    <nd ref="241785247"/>
    <nd ref="679010271"/>
    <nd ref="241785257"/>
    <nd ref="679008610"/>
    <nd ref="241785258"/>
    <nd ref="241785259"/>
    <nd ref="241785260"/>
    <nd ref="679006776"/>
    <nd ref="241785261"/>
    <nd ref="679009958"/>
    <nd ref="241785164"/>
    <tag k="highway" v="primary"/>
    <tag k="name" v="98th Avenue"/>
    <tag k="oneway" v="yes"/>
    <tag k="tiger:cfcc" v="A41"/>
    <tag k="tiger:county" v="Alameda, CA"/>
    <tag k="tiger:name_base" v="98th"/>
    <tag k="tiger:name_type" v="Ave"/>
    <tag k="tiger:reviewed" v="no"/>
    <tag k="tiger:separated" v="no"/>
    <tag k="tiger:source" v="tiger_import_dch_v0.6_20070809"/>
    <tag k="tiger:tlid" v="125011180:125011157"/>
    <tag k="tiger:zip_left" v="94605"/>
    <tag k="tiger:zip_right" v="94605"/>
  </way>
  <way id="30930576" version="4" timestamp="2010-03-28T01:00:13Z" uid="20587" user="balrog-kun" changeset="4250871">
    <nd ref="242177153"/>
    <nd ref="53006837"/>
    <nd ref="343924935"/>
    <tag k="bridge" v="yes"/>
    <tag k="created_by" v="Potlatch 0.10f"/>
    <tag k="highway" v="primary"/>
    <tag k="layer" v="1"/>
    <tag k="name" v="98th Avenue"/>
    <tag k="oneway" v="yes"/>
    <tag k="tiger:cfcc" v="A41"/>
    <tag k="tiger:county" v="Alameda, CA"/>
    <tag k="tiger:name_base" v="98th"/>
    <tag k="tiger:name_type" v="Ave"/>
    <tag k="tiger:reviewed" v="no"/>
    <tag k="tiger:separated" v="no"/>
    <tag k="tiger:source" v="tiger_import_dch_v0.6_20070809"/>
    <tag k="tiger:tlid" v="125011180:125011157"/>
    <tag k="tiger:zip_left" v="94605"/>
    <tag k="tiger:zip_right" v="94605"/>
  </way>
  <way id="30930576" version="5" timestamp="2011-06-09T01:26:38Z" uid="14293" user="JuxTPosition" changeset="8384783">
    <nd ref="242177153"/>
    <nd ref="1316698414"/>
    <nd ref="53006837"/>
    <nd ref="1316698477"/>
    <nd ref="343924935"/>
    <tag k="bridge" v="yes"/>
    <tag k="highway" v="primary"/>
    <tag k="layer" v="1"/>
    <tag k="name" v="98th Avenue"/>
    <tag k="oneway" v="yes"/>
    <tag k="tiger:cfcc" v="A41"/>
    <tag k="tiger:county" v="Alameda, CA"/>
    <tag k="tiger:name_base" v="98th"/>
    <tag k="tiger:name_type" v="Ave"/>
    <tag k="tiger:reviewed" v="no"/>
    <tag k="tiger:separated" v="no"/>
    <tag k="tiger:source" v="tiger_import_dch_v0.6_20070809"/>
    <tag k="tiger:tlid" v="125011180:125011157"/>
    <tag k="tiger:zip_left" v="94605"/>
    <tag k="tiger:zip_right" v="94605"/>
  </way>
  <way id="30930579" version="3" timestamp="2010-03-28T01:00:13Z" uid="20587" user="balrog-kun" changeset="4250871">
    <nd ref="242197029"/>
    <nd ref="242197031"/>
    <nd ref="242254097"/>
    <nd ref="242395270"/>
    <nd ref="242256974"/>
    <nd ref="242255156"/>
    <nd ref="242256672"/>
    <nd ref="242256447"/>
    <nd ref="242395223"/>
    <nd ref="242395096"/>
    <nd ref="242395097"/>
    <nd ref="242395193"/>
    <nd ref="242395194"/>
    <nd ref="242395195"/>
    <nd ref="242395197"/>
    <nd ref="251577036"/>
    <tag k="created_by" v="Potlatch 0.10f"/>
    <tag k="highway" v="primary"/>
    <tag k="name" v="98th Avenue"/>
    <tag k="oneway" v="yes"/>
  </way>
  <way id="30930579" version="4" timestamp="2011-06-09T01:26:38Z" uid="14293" user="JuxTPosition" changeset="8384783">
    <nd ref="242197029"/>
    <nd ref="1316698460"/>
    <nd ref="242197031"/>
    <nd ref="1316698398"/>
    <nd ref="242254097"/>
    <nd ref="242395270"/>
    <nd ref="242256974"/>
    <nd ref="242255156"/>
    <nd ref="242256672"/>
    <nd ref="242256447"/>
    <nd ref="242395223"/>
    <nd ref="242395096"/>
    <nd ref="242395097"/>
    <nd ref="242395193"/>
    <nd ref="242395194"/>
    <nd ref="242395195"/>
    <nd ref="242395197"/>
    <nd ref="251577036"/>
    <tag k="highway" v="primary"/>
    <tag k="name" v="98th Avenue"/>
    <tag k="oneway" v="yes"/>
  </way>
  <way id="30930706" version="3" timestamp="2011-04-12T19:22:46Z" uid="9581" user="Lobelt" changeset="7845816">
    <nd ref="30891019"/>
    <nd ref="331432379"/>
    <tag k="highway" v="secondary"/>
    <tag k="maxspeed" v="50"/>
    <tag k="ref" v="L 1048"/>
  </way>
  <way id="30930706" version="4" timestamp="2012-02-07T21:11:08Z" uid="195713" user="_torsten_" changeset="10616561"/>
  <way id="30930722" version="2" timestamp="2011-05-07T18:53:23Z" uid="9581" user="Lobelt" changeset="8075956">
    <nd ref="271392027"/>
    <nd ref="330446620"/>
    <nd ref="330446612"/>
    <tag k="cycleway" v="lane"/>
    <tag k="foot" v="yes"/>
    <tag k="highway" v="residential"/>
  </way>
  <way id="30930723" version="2" timestamp="2011-05-07T18:53:01Z" uid="9581" user="Lobelt" changeset="8075956">
    <nd ref="330446611"/>
    <nd ref="271392027"/>
    <tag k="cycleway" v="lane"/>
    <tag k="foot" v="yes"/>
    <tag k="highway" v="residential"/>
  </way>
  <way id="30930813" version="2" timestamp="2010-02-14T15:42:41Z" uid="74617" user="JohnSmith" changeset="3874884">
    <nd ref="260565032"/>
    <nd ref="343954335"/>
    <tag k="highway" v="residential"/>
    <tag k="maxspeed" v="50"/>
    <tag k="name" v="Gregsue Court"/>
  </way>
  <way id="30930813" version="3" timestamp="2012-01-18T05:37:18Z" uid="147510" user="woodpeck_fixbot" changeset="10424371">
    <nd ref="260565032"/>
    <nd ref="343954335"/>
    <tag k="highway" v="residential"/>
    <tag k="name" v="Gregsue Court"/>
  </way>
  <way id="30930814" version="2" timestamp="2010-02-14T15:42:44Z" uid="74617" user="JohnSmith" changeset="3874884">
    <nd ref="260565570"/>
    <nd ref="343953971"/>
    <tag k="highway" v="residential"/>
    <tag k="maxspeed" v="50"/>
    <tag k="name" v="Ronruth Street"/>
  </way>
  <way id="30930814" version="3" timestamp="2012-01-18T05:37:22Z" uid="147510" user="woodpeck_fixbot" changeset="10424371">
    <nd ref="260565570"/>
    <nd ref="343953971"/>
    <tag k="highway" v="residential"/>
    <tag k="name" v="Ronruth Street"/>
  </way>
  <way id="30930819" version="2" timestamp="2010-02-14T15:42:44Z" uid="74617" user="JohnSmith" changeset="3874884">
    <nd ref="191359713"/>
    <nd ref="129841967"/>
    <tag k="highway" v="residential"/>
    <tag k="maxspeed" v="50"/>
    <tag k="name" v="Kilbowie Street"/>
  </way>
  <way id="30930819" version="3" timestamp="2012-01-18T05:37:23Z" uid="147510" user="woodpeck_fixbot" changeset="10424371">
    <nd ref="191359713"/>
    <nd ref="129841967"/>
    <tag k="highway" v="residential"/>
    <tag k="name" v="Kilbowie Street"/>
  </way>
  <way id="30930820" version="2" timestamp="2010-02-14T15:42:45Z" uid="74617" user="JohnSmith" changeset="3874884">
    <nd ref="343954544"/>
    <nd ref="191362452"/>
    <nd ref="191362601"/>
    <tag k="highway" v="residential"/>
    <tag k="maxspeed" v="50"/>
    <tag k="name" v="Benton Close"/>
  </way>
  <way id="30930820" version="3" timestamp="2012-01-18T05:37:25Z" uid="147510" user="woodpeck_fixbot" changeset="10424371">
    <nd ref="343954544"/>
    <nd ref="191362452"/>
    <nd ref="191362601"/>
    <tag k="highway" v="residential"/>
    <tag k="name" v="Benton Close"/>
  </way>
  <way id="30930821" version="2" timestamp="2010-02-14T15:42:45Z" uid="74617" user="JohnSmith" changeset="3874884">
    <nd ref="343954015"/>
    <nd ref="191362213"/>
    <nd ref="191362602"/>
    <tag k="highway" v="residential"/>
    <tag k="maxspeed" v="50"/>
    <tag k="name" v="Montrose Place"/>
  </way>
  <way id="30930821" version="3" timestamp="2012-01-18T05:37:26Z" uid="147510" user="woodpeck_fixbot" changeset="10424371">
    <nd ref="343954015"/>
    <nd ref="191362213"/>
    <nd ref="191362602"/>
    <tag k="highway" v="residential"/>
    <tag k="name" v="Montrose Place"/>
  </way>
  <way id="30930828" version="2" timestamp="2010-02-14T15:42:28Z" uid="74617" user="JohnSmith" changeset="3874884">
    <nd ref="260565639"/>
    <nd ref="260565667"/>
    <nd ref="260565668"/>
    <nd ref="260565669"/>
    <nd ref="260565670"/>
    <tag k="highway" v="residential"/>
    <tag k="maxspeed" v="50"/>
    <tag k="name" v="Richwill Street"/>
  </way>
  <way id="30930828" version="3" timestamp="2012-01-18T05:37:27Z" uid="147510" user="woodpeck_fixbot" changeset="10424371">
    <nd ref="260565639"/>
    <nd ref="260565667"/>
    <nd ref="260565668"/>
    <nd ref="260565669"/>
    <nd ref="260565670"/>
    <tag k="highway" v="residential"/>
    <tag k="name" v="Richwill Street"/>
  </way>
  <way id="30930830" version="2" timestamp="2010-02-14T15:42:28Z" uid="74617" user="JohnSmith" changeset="3874884">
    <nd ref="260565628"/>
    <nd ref="260565629"/>
    <nd ref="260565630"/>
    <nd ref="260565030"/>
    <tag k="highway" v="residential"/>
    <tag k="maxspeed" v="50"/>
    <tag k="name" v="Desbet Street"/>
  </way>
  <way id="30930830" version="3" timestamp="2010-04-29T23:18:18Z" uid="30079" user="Ted Percival" changeset="4562423">
    <nd ref="712752397"/>
    <nd ref="712752399"/>
    <nd ref="260565628"/>
    <nd ref="260565629"/>
    <nd ref="260565630"/>
    <nd ref="260565030"/>
    <tag k="highway" v="residential"/>
    <tag k="maxspeed" v="50"/>
    <tag k="name" v="Desbet Street"/>
  </way>
  <way id="30930830" version="4" timestamp="2012-01-18T05:37:27Z" uid="147510" user="woodpeck_fixbot" changeset="10424371">
    <nd ref="712752397"/>
    <nd ref="712752399"/>
    <nd ref="260565628"/>
    <nd ref="260565629"/>
    <nd ref="260565630"/>
    <nd ref="260565030"/>
    <tag k="highway" v="residential"/>
    <tag k="name" v="Desbet Street"/>
  </way>
  <way id="30930996" version="1" timestamp="2009-02-10T03:40:53Z" uid="68769" user="david lynch" changeset="319048">
    <nd ref="300119728"/>
    <nd ref="300119729"/>
    <nd ref="300119730"/>
    <nd ref="300119731"/>
    <nd ref="300119732"/>
    <nd ref="300119733"/>
    <nd ref="300119734"/>
    <nd ref="300119735"/>
    <nd ref="300119736"/>
    <nd ref="300119737"/>
    <nd ref="300119738"/>
    <nd ref="300119739"/>
    <nd ref="300119740"/>
    <nd ref="300119741"/>
    <nd ref="300119742"/>
    <nd ref="300119743"/>
    <nd ref="300119744"/>
    <nd ref="300119745"/>
    <nd ref="300119746"/>
    <nd ref="300119747"/>
    <nd ref="300119748"/>
    <nd ref="300119749"/>
    <nd ref="300119750"/>
    <nd ref="300119751"/>
    <nd ref="300119752"/>
    <nd ref="300119753"/>
    <nd ref="300119754"/>
    <nd ref="300119755"/>
    <nd ref="300119757"/>
    <nd ref="300119758"/>
    <nd ref="300119759"/>
    <nd ref="300119760"/>
    <nd ref="300119761"/>
    <nd ref="300119762"/>
    <nd ref="300119763"/>
    <nd ref="300119764"/>
    <nd ref="300119765"/>
    <nd ref="300119766"/>
    <nd ref="300119767"/>
    <nd ref="300119768"/>
    <nd ref="300119769"/>
    <nd ref="300119770"/>
    <nd ref="300119771"/>
    <nd ref="300119772"/>
    <nd ref="300119773"/>
    <nd ref="300119774"/>
    <nd ref="300119775"/>
    <nd ref="300119776"/>
    <nd ref="300119777"/>
    <nd ref="300119778"/>
    <nd ref="300119779"/>
    <nd ref="300119780"/>
    <nd ref="300119781"/>
    <nd ref="300119782"/>
    <nd ref="300119783"/>
    <nd ref="300119784"/>
    <nd ref="300119785"/>
    <nd ref="300119786"/>
    <nd ref="300119787"/>
    <nd ref="300119788"/>
    <nd ref="300119789"/>
    <nd ref="300120193"/>
    <nd ref="297193363"/>
    <nd ref="297193935"/>
    <nd ref="300120194"/>
    <nd ref="300119608"/>
    <nd ref="300119609"/>
    <nd ref="300119610"/>
    <nd ref="300119611"/>
    <nd ref="300119612"/>
    <nd ref="300119613"/>
    <nd ref="300119614"/>
    <nd ref="300119615"/>
    <nd ref="300119616"/>
    <nd ref="300119617"/>
    <nd ref="300119618"/>
    <nd ref="300119619"/>
    <nd ref="300119620"/>
    <nd ref="300119621"/>
    <nd ref="300119622"/>
    <nd ref="300119623"/>
    <nd ref="300119624"/>
    <nd ref="300119625"/>
    <nd ref="300119626"/>
    <nd ref="300119627"/>
    <nd ref="300119628"/>
    <nd ref="300119629"/>
    <nd ref="300119630"/>
    <nd ref="300119631"/>
    <nd ref="300119632"/>
    <nd ref="300119633"/>
    <nd ref="300119634"/>
    <nd ref="300119635"/>
    <nd ref="300119636"/>
    <nd ref="300119637"/>
    <nd ref="300119638"/>
    <nd ref="300119639"/>
    <nd ref="300119640"/>
    <nd ref="300119641"/>
    <nd ref="300119642"/>
    <nd ref="300119643"/>
    <nd ref="300119644"/>
    <nd ref="300119645"/>
    <nd ref="300119646"/>
    <nd ref="300119647"/>
    <nd ref="300119648"/>
    <nd ref="300119649"/>
    <nd ref="300119650"/>
    <nd ref="300119651"/>
    <nd ref="300119652"/>
    <nd ref="300119653"/>
    <nd ref="300119654"/>
    <nd ref="300119655"/>
    <nd ref="300119656"/>
    <nd ref="300119657"/>
    <nd ref="300119658"/>
    <nd ref="300119659"/>
    <nd ref="300119660"/>
    <nd ref="300119661"/>
    <nd ref="300119662"/>
    <nd ref="300119663"/>
    <nd ref="300119664"/>
    <nd ref="300119665"/>
    <nd ref="300119666"/>
    <nd ref="300119667"/>
    <nd ref="300119668"/>
    <nd ref="300119669"/>
    <nd ref="300119670"/>
    <nd ref="300119671"/>
    <nd ref="300119672"/>
    <nd ref="300119673"/>
    <nd ref="300119674"/>
    <nd ref="300119675"/>
    <nd ref="300119676"/>
    <nd ref="300119677"/>
    <nd ref="300119678"/>
    <nd ref="300119679"/>
    <nd ref="300119680"/>
    <nd ref="300119681"/>
    <nd ref="300119682"/>
    <nd ref="300119683"/>
    <nd ref="300119684"/>
    <nd ref="300119685"/>
    <nd ref="300119686"/>
    <nd ref="300119687"/>
    <nd ref="300119688"/>
    <nd ref="300119689"/>
    <nd ref="300119690"/>
    <nd ref="300119691"/>
    <nd ref="300119692"/>
    <nd ref="300119693"/>
    <nd ref="300119694"/>
    <nd ref="300119695"/>
    <nd ref="300119696"/>
    <nd ref="300119697"/>
    <nd ref="300119698"/>
    <nd ref="300119699"/>
    <nd ref="300119700"/>
    <nd ref="300119701"/>
    <nd ref="300119702"/>
    <nd ref="300119703"/>
    <nd ref="300119704"/>
    <nd ref="300119705"/>
    <nd ref="300119706"/>
    <nd ref="300119707"/>
    <nd ref="300119708"/>
    <nd ref="343808635"/>
    <nd ref="343808636"/>
    <nd ref="343808638"/>
    <nd ref="343808639"/>
    <nd ref="343808641"/>
    <nd ref="343808642"/>
    <nd ref="343808644"/>
    <nd ref="343808645"/>
    <nd ref="343808647"/>
    <nd ref="343808648"/>
    <nd ref="343808650"/>
    <nd ref="343808652"/>
    <nd ref="343808653"/>
    <nd ref="343808655"/>
    <nd ref="343808656"/>
    <nd ref="343808658"/>
    <nd ref="343808659"/>
    <nd ref="343808661"/>
    <nd ref="343808662"/>
    <tag k="created_by" v="Potlatch 0.10f"/>
    <tag k="name" v="Lake Austin"/>
    <tag k="waterway" v="riverbank"/>
  </way>
  <way id="30930996" version="2" timestamp="2009-02-10T03:54:39Z" uid="68769" user="david lynch" changeset="319048"/>
  <way id="30930997" version="1" timestamp="2009-02-10T03:40:59Z" uid="68769" user="david lynch" changeset="319048">
    <nd ref="300119729"/>
    <nd ref="300119730"/>
    <nd ref="300119731"/>
    <nd ref="300119732"/>
    <nd ref="300119733"/>
    <nd ref="300119734"/>
    <nd ref="300119735"/>
    <nd ref="300119736"/>
    <nd ref="300119737"/>
    <nd ref="300119738"/>
    <nd ref="300119739"/>
    <nd ref="300119740"/>
    <nd ref="300119741"/>
    <nd ref="300119742"/>
    <nd ref="300119743"/>
    <nd ref="300119744"/>
    <nd ref="300119745"/>
    <nd ref="300119746"/>
    <nd ref="300119747"/>
    <nd ref="300119748"/>
    <nd ref="300119749"/>
    <nd ref="300119750"/>
    <nd ref="300119751"/>
    <nd ref="300119752"/>
    <nd ref="300119753"/>
    <nd ref="300119754"/>
    <nd ref="300119755"/>
    <nd ref="300119757"/>
    <nd ref="300119758"/>
    <nd ref="300119759"/>
    <nd ref="300119760"/>
    <nd ref="300119761"/>
    <nd ref="300119762"/>
    <nd ref="300119763"/>
    <nd ref="300119764"/>
    <nd ref="300119765"/>
    <nd ref="300119766"/>
    <nd ref="300119767"/>
    <nd ref="300119768"/>
    <nd ref="300119769"/>
    <nd ref="300119770"/>
    <nd ref="300119771"/>
    <nd ref="300119772"/>
    <nd ref="300119773"/>
    <nd ref="300119774"/>
    <nd ref="300119775"/>
    <nd ref="300119776"/>
    <nd ref="300119777"/>
    <nd ref="300119778"/>
    <nd ref="300119779"/>
    <nd ref="300119780"/>
    <nd ref="300119781"/>
    <nd ref="300119782"/>
    <nd ref="300119783"/>
    <nd ref="300119784"/>
    <nd ref="300119785"/>
    <nd ref="300119786"/>
    <nd ref="300119787"/>
    <nd ref="300119788"/>
    <nd ref="300119789"/>
    <nd ref="300120193"/>
    <nd ref="297193363"/>
    <nd ref="297193935"/>
    <nd ref="300120194"/>
    <nd ref="300119608"/>
    <nd ref="300119609"/>
    <nd ref="300119610"/>
    <nd ref="300119611"/>
    <nd ref="300119612"/>
    <nd ref="300119613"/>
    <nd ref="300119614"/>
    <nd ref="300119615"/>
    <nd ref="300119616"/>
    <nd ref="300119617"/>
    <nd ref="300119618"/>
    <nd ref="300119619"/>
    <nd ref="300119620"/>
    <nd ref="300119621"/>
    <nd ref="300119622"/>
    <nd ref="300119623"/>
    <nd ref="300119624"/>
    <nd ref="300119625"/>
    <nd ref="300119626"/>
    <nd ref="300119627"/>
    <nd ref="300119628"/>
    <nd ref="300119629"/>
    <nd ref="300119630"/>
    <nd ref="300119631"/>
    <nd ref="300119632"/>
    <nd ref="300119633"/>
    <nd ref="300119634"/>
    <nd ref="300119635"/>
    <nd ref="300119636"/>
    <nd ref="300119637"/>
    <nd ref="300119638"/>
    <nd ref="300119639"/>
    <nd ref="300119640"/>
    <nd ref="300119641"/>
    <nd ref="300119642"/>
    <nd ref="300119643"/>
    <nd ref="300119644"/>
    <nd ref="300119645"/>
    <nd ref="300119646"/>
    <nd ref="300119647"/>
    <nd ref="300119648"/>
    <nd ref="300119649"/>
    <nd ref="300119650"/>
    <nd ref="300119651"/>
    <nd ref="300119652"/>
    <nd ref="300119653"/>
    <nd ref="300119654"/>
    <nd ref="300119655"/>
    <nd ref="300119656"/>
    <nd ref="300119657"/>
    <nd ref="300119658"/>
    <nd ref="300119659"/>
    <nd ref="300119660"/>
    <nd ref="300119661"/>
    <nd ref="300119662"/>
    <nd ref="300119663"/>
    <nd ref="300119664"/>
    <nd ref="300119665"/>
    <nd ref="300119666"/>
    <nd ref="300119667"/>
    <nd ref="300119668"/>
    <nd ref="300119669"/>
    <nd ref="300119670"/>
    <nd ref="300119671"/>
    <nd ref="300119672"/>
    <nd ref="300119673"/>
    <nd ref="300119674"/>
    <nd ref="300119675"/>
    <nd ref="300119676"/>
    <nd ref="300119677"/>
    <nd ref="300119678"/>
    <nd ref="300119679"/>
    <nd ref="300119680"/>
    <nd ref="300119681"/>
    <nd ref="300119682"/>
    <nd ref="300119683"/>
    <nd ref="300119684"/>
    <nd ref="300119685"/>
    <nd ref="300119686"/>
    <nd ref="300119687"/>
    <nd ref="300119688"/>
    <nd ref="300119689"/>
    <nd ref="300119690"/>
    <nd ref="300119691"/>
    <nd ref="300119692"/>
    <nd ref="300119693"/>
    <nd ref="300119694"/>
    <nd ref="300119695"/>
    <nd ref="300119696"/>
    <nd ref="300119697"/>
    <nd ref="300119698"/>
    <nd ref="300119699"/>
    <nd ref="300119700"/>
    <nd ref="300119701"/>
    <nd ref="300119702"/>
    <nd ref="300119703"/>
    <nd ref="300119704"/>
    <nd ref="300119705"/>
    <nd ref="300119706"/>
    <nd ref="300119707"/>
    <nd ref="300119708"/>
    <nd ref="343808635"/>
    <nd ref="343808636"/>
    <nd ref="343808638"/>
    <nd ref="343808639"/>
    <nd ref="343808641"/>
    <nd ref="343808642"/>
    <nd ref="343808644"/>
    <nd ref="343808645"/>
    <nd ref="343808647"/>
    <nd ref="343808648"/>
    <nd ref="343808650"/>
    <nd ref="343808652"/>
    <nd ref="343808653"/>
    <nd ref="343808655"/>
    <nd ref="343808656"/>
    <nd ref="343808658"/>
    <nd ref="343808659"/>
    <nd ref="343808661"/>
    <nd ref="343808662"/>
    <tag k="created_by" v="Potlatch 0.10f"/>
    <tag k="name" v="Lake Austin"/>
    <tag k="waterway" v="riverbank"/>
  </way>
  <way id="30930997" version="2" timestamp="2009-02-10T03:41:26Z" uid="68769" user="david lynch" changeset="319048"/>
</osm>
