<?xml version='1.0' encoding='UTF-8'?>
<osm version="0.6" generator="libosmium/2.20.0">
  <way id="31094002" version="5" timestamp="2010-07-09T17:21:09Z" uid="74617" user="JohnSmith" changeset="5175333">
    <nd ref="298597835"/>
    <nd ref="298598099"/>
    <nd ref="298598096"/>
    <nd ref="298597804"/>
    <nd ref="298597805"/>
    <nd ref="298597838"/>
    <nd ref="298597839"/>
    <nd ref="298597840"/>
    <nd ref="298597809"/>
    <nd ref="345152229"/>
    <nd ref="298597813"/>
    <nd ref="298597814"/>
    <tag k="highway" v="residential"/>
    <tag k="maxspeed" v="50"/>
    <tag k="maxspeed:source" v="default residential speed limit in Australia"/>
    <tag k="name" v="The Promenade"/>
  </way>
  <way id="31094002" version="6" timestamp="2012-01-18T06:09:05Z" uid="147510" user="woodpeck_fixbot" changeset="10424371">
    <nd ref="298597835"/>
    <nd ref="298598099"/>
    <nd ref="298598096"/>
    <nd ref="298597804"/>
    <nd ref="298597805"/>
    <nd ref="298597838"/>
    <nd ref="298597839"/>
    <nd ref="298597840"/>
    <nd ref="298597809"/>
    <nd ref="345152229"/>
    <nd ref="298597813"/>
    <nd ref="298597814"/>
    <tag k="highway" v="residential"/>
    <tag k="name" v="The Promenade"/>
  </way>
  <way id="31094146" version="2" timestamp="2010-07-09T17:21:36Z" uid="74617" user="JohnSmith" changeset="5175333">
    <nd ref="298969007"/>
    <nd ref="298969009"/>
    <tag k="highway" v="residential"/>
    <tag k="maxspeed" v="50"/>
    <tag k="maxspeed:source" v="default residential speed limit in Australia"/>
    <tag k="name" v="Baldwin Avenue"/>
  </way>
  <way id="31094146" version="3" timestamp="2012-01-18T06:09:06Z" uid="147510" user="woodpeck_fixbot" changeset="10424371">
    <nd ref="298969007"/>
    <nd ref="298969009"/>
    <tag k="highway" v="residential"/>
    <tag k="name" v="Baldwin Avenue"/>
  </way>
  <way id="31094194" version="3" timestamp="2010-07-09T17:26:55Z" uid="74617" user="JohnSmith" changeset="5175333">
    <nd ref="298596261"/>
    <nd ref="298596263"/>
    <nd ref="298596266"/>
    <tag k="highway" v="residential"/>
    <tag k="maxspeed" v="50"/>
    <tag k="maxspeed:source" v="default residential speed limit in Australia"/>
    <tag k="name" v="Balaven Way"/>
  </way>
  <way id="31094194" version="4" timestamp="2012-01-18T06:09:08Z" uid="147510" user="woodpeck_fixbot" changeset="10424371">
    <nd ref="298596261"/>
    <nd ref="298596263"/>
    <nd ref="298596266"/>
    <tag k="highway" v="residential"/>
    <tag k="name" v="Balaven Way"/>
  </way>
  <way id="31094195" version="2" timestamp="2010-07-09T17:28:29Z" uid="74617" user="JohnSmith" changeset="5175333">
    <nd ref="298596262"/>
    <nd ref="298596261"/>
    <tag k="highway" v="residential"/>
    <tag k="maxspeed" v="50"/>
    <tag k="maxspeed:source" v="default residential speed limit in Australia"/>
    <tag k="name" v="Balaven Way"/>
  </way>
  <way id="31094195" version="3" timestamp="2012-01-18T06:09:08Z" uid="147510" user="woodpeck_fixbot" changeset="10424371">
    <nd ref="298596262"/>
    <nd ref="298596261"/>
    <tag k="highway" v="residential"/>
    <tag k="name" v="Balaven Way"/>
  </way>
  <way id="31094196" version="2" timestamp="2010-07-09T17:22:04Z" uid="74617" user="JohnSmith" changeset="5175333">
    <nd ref="278128860"/>
    <nd ref="278128861"/>
    <tag k="highway" v="residential"/>
    <tag k="maxspeed" v="50"/>
    <tag k="maxspeed:source" v="default residential speed limit in Australia"/>
    <tag k="name" v="Gairloch Street"/>
  </way>
  <way id="31094196" version="3" timestamp="2012-01-18T06:09:10Z" uid="147510" user="woodpeck_fixbot" changeset="10424371">
    <nd ref="278128860"/>
    <nd ref="278128861"/>
    <tag k="highway" v="residential"/>
    <tag k="name" v="Gairloch Street"/>
  </way>
  <way id="31094197" version="2" timestamp="2010-07-09T17:24:07Z" uid="74617" user="JohnSmith" changeset="5175333">
    <nd ref="278128858"/>
    <nd ref="278129122"/>
    <nd ref="278129123"/>
    <nd ref="278129124"/>
    <tag k="highway" v="residential"/>
    <tag k="maxspeed" v="50"/>
    <tag k="maxspeed:source" v="default residential speed limit in Australia"/>
    <tag k="name" v="Tweeddale Road"/>
  </way>
  <way id="31094197" version="3" timestamp="2012-01-18T06:09:11Z" uid="147510" user="woodpeck_fixbot" changeset="10424371">
    <nd ref="278128858"/>
    <nd ref="278129122"/>
    <nd ref="278129123"/>
    <nd ref="278129124"/>
    <tag k="highway" v="residential"/>
    <tag k="name" v="Tweeddale Road"/>
  </way>
  <way id="31094430" version="1" timestamp="2009-02-15T10:52:24Z" uid="38524" user="Kuddy" changeset="449438">
    <nd ref="345548034"/>
    <nd ref="345548035"/>
    <nd ref="345548036"/>
    <nd ref="345548037"/>
    <nd ref="345548034"/>
    <tag k="building" v="yes"/>
    <tag k="created_by" v="JOSM"/>
    <tag k="man_made" v="works"/>
  </way>
  <way id="31094431" version="1" timestamp="2009-02-15T10:52:24Z" uid="38524" user="Kuddy" changeset="449438">
    <nd ref="345548038"/>
    <nd ref="345548039"/>
    <nd ref="345548041"/>
    <nd ref="345548042"/>
    <nd ref="345548038"/>
    <tag k="building" v="yes"/>
    <tag k="created_by" v="JOSM"/>
    <tag k="man_made" v="works"/>
  </way>
  <way id="31094432" version="1" timestamp="2009-02-15T10:52:24Z" uid="38524" user="Kuddy" changeset="449438">
    <nd ref="345548043"/>
    <nd ref="345548044"/>
    <nd ref="345548045"/>
    <nd ref="345548046"/>
    <nd ref="345548043"/>
    <tag k="building" v="yes"/>
    <tag k="created_by" v="JOSM"/>
    <tag k="man_made" v="works"/>
  </way>
  <way id="31094452" version="1" timestamp="2009-02-15T10:53:40Z" uid="55964" user="Evan Sebire" changeset="447068">
    <nd ref="345548219"/>
    <nd ref="345548222"/>
    <nd ref="345548223"/>
    <tag k="created_by" v="Merkaartor 0.13"/>
    <tag k="highway" v="secondary"/>
  </way>
  <way id="31094452" version="2" timestamp="2010-04-26T06:46:50Z" uid="211804" user="KenS" changeset="4528831">
    <nd ref="345548219"/>
    <nd ref="345505501"/>
    <nd ref="345548223"/>
    <tag k="highway" v="secondary"/>
  </way>
  <way id="31094454" version="1" timestamp="2009-02-15T10:53:42Z" uid="55964" user="Evan Sebire" changeset="447068">
    <nd ref="345548222"/>
    <nd ref="345548224"/>
    <tag k="created_by" v="Merkaartor 0.13"/>
    <tag k="highway" v="secondary"/>
  </way>
  <way id="31094454" version="2" timestamp="2010-04-26T06:46:50Z" uid="211804" user="KenS" changeset="4528831">
    <nd ref="345505501"/>
    <nd ref="345548224"/>
    <tag k="highway" v="secondary"/>
  </way>
  <way id="31094523" version="9" timestamp="2011-02-26T09:36:15Z" uid="4467" user="Rosscoe" changeset="7397878">
    <nd ref="52506645"/>
    <nd ref="560997488"/>
    <nd ref="709691645"/>
    <nd ref="76459303"/>
    <nd ref="52506648"/>
    <nd ref="41667993"/>
    <tag k="highway" v="motorway_link"/>
    <tag k="name" v="Footscray Road Offramp"/>
    <tag k="oneway" v="yes"/>
    <tag k="source" v="yahoo"/>
  </way>
  <way id="31094523" version="10" timestamp="2011-03-30T04:50:32Z" uid="11111" user="melb_guy" changeset="7712840">
    <nd ref="52506645"/>
    <nd ref="560997488"/>
    <nd ref="709691645"/>
    <nd ref="76459303"/>
    <nd ref="1224872747"/>
    <nd ref="52506648"/>
    <nd ref="41667993"/>
    <tag k="highway" v="motorway_link"/>
    <tag k="name" v="Footscray Road Offramp"/>
    <tag k="oneway" v="yes"/>
    <tag k="source" v="yahoo"/>
  </way>
  <way id="31094596" version="2" timestamp="2009-11-06T17:12:09Z" uid="36809" user="pfoten_weg_!_" changeset="3049293">
    <nd ref="345549636"/>
    <nd ref="345549637"/>
    <nd ref="345549638"/>
    <nd ref="345549639"/>
    <nd ref="345549640"/>
    <nd ref="345549641"/>
    <nd ref="345549642"/>
    <nd ref="345549643"/>
    <nd ref="345549644"/>
    <nd ref="345549645"/>
    <nd ref="345549646"/>
    <nd ref="345549647"/>
    <nd ref="345549648"/>
    <nd ref="345549649"/>
    <nd ref="345549651"/>
    <nd ref="345549652"/>
    <nd ref="345549653"/>
    <nd ref="345549654"/>
    <nd ref="345549655"/>
    <nd ref="345549656"/>
    <nd ref="345549657"/>
    <nd ref="345549658"/>
    <nd ref="345549659"/>
    <nd ref="345549660"/>
    <nd ref="345549661"/>
    <nd ref="345549662"/>
    <nd ref="345549663"/>
    <nd ref="345549664"/>
    <nd ref="345549665"/>
    <nd ref="345549666"/>
    <nd ref="345549667"/>
    <nd ref="345549668"/>
    <nd ref="345549636"/>
    <tag k="natural" v="water"/>
    <tag k="source" v="Landsat"/>
  </way>
  <way id="31094596" version="3" timestamp="2009-12-30T12:50:07Z" uid="37370" user="amateja" changeset="3489256"/>
  <way id="31094614" version="1" timestamp="2009-02-15T11:03:28Z" uid="55964" user="Evan Sebire" changeset="447068">
    <nd ref="345549783"/>
    <nd ref="34017127"/>
    <nd ref="188468604"/>
    <tag k="created_by" v="Merkaartor 0.13"/>
    <tag k="highway" v="residential"/>
    <tag k="name" v="Browns Road"/>
    <tag k="ref" v="C415"/>
  </way>
  <way id="31094614" version="2" timestamp="2009-08-16T04:27:24Z" uid="17425" user="jackb" changeset="2160077">
    <nd ref="345549783"/>
    <nd ref="188468604"/>
    <tag k="highway" v="residential"/>
    <tag k="name" v="Browns Road"/>
    <tag k="ref" v="C415"/>
  </way>
  <way id="31094614" version="3" timestamp="2010-07-08T19:40:20Z" uid="74617" user="JohnSmith" changeset="5168688">
    <nd ref="345549783"/>
    <nd ref="188468604"/>
    <tag k="highway" v="residential"/>
    <tag k="maxspeed" v="50"/>
    <tag k="maxspeed:source" v="default residential speed limit in Australia"/>
    <tag k="name" v="Browns Road"/>
    <tag k="ref" v="C415"/>
  </way>
  <way id="31094614" version="4" timestamp="2012-01-18T06:09:13Z" uid="147510" user="woodpeck_fixbot" changeset="10424371">
    <nd ref="345549783"/>
    <nd ref="188468604"/>
    <tag k="highway" v="residential"/>
    <tag k="name" v="Browns Road"/>
    <tag k="ref" v="C415"/>
  </way>
  <way id="31094642" version="2" timestamp="2009-02-23T12:11:10Z" uid="34428" user="usm78-gis" changeset="634299"/>
  <way id="31094807" version="1" timestamp="2009-02-15T11:12:49Z" uid="55964" user="Evan Sebire" changeset="447068">
    <nd ref="345551544"/>
    <nd ref="345551559"/>
    <nd ref="345551565"/>
    <nd ref="345551572"/>
    <nd ref="345551579"/>
    <nd ref="345551588"/>
    <nd ref="345551595"/>
    <nd ref="345551605"/>
    <nd ref="345551619"/>
    <tag k="created_by" v="Merkaartor 0.13"/>
    <tag k="highway" v="residential"/>
    <tag k="name" v="Ravenswood Court"/>
  </way>
  <way id="31094807" version="2" timestamp="2009-11-21T16:04:45Z" uid="55964" user="Evan Sebire" changeset="3177254">
    <nd ref="345551544"/>
    <nd ref="345551559"/>
    <nd ref="345551565"/>
    <nd ref="345551572"/>
    <nd ref="345551579"/>
    <nd ref="345551588"/>
    <nd ref="345551595"/>
    <nd ref="345551619"/>
    <tag k="highway" v="residential"/>
    <tag k="name" v="Ravenswood Court"/>
  </way>
  <way id="31094807" version="3" timestamp="2010-07-08T19:37:57Z" uid="74617" user="JohnSmith" changeset="5168688">
    <nd ref="345551544"/>
    <nd ref="345551559"/>
    <nd ref="345551565"/>
    <nd ref="345551572"/>
    <nd ref="345551579"/>
    <nd ref="345551588"/>
    <nd ref="345551595"/>
    <nd ref="345551619"/>
    <tag k="highway" v="residential"/>
    <tag k="maxspeed" v="50"/>
    <tag k="maxspeed:source" v="default residential speed limit in Australia"/>
    <tag k="name" v="Ravenswood Court"/>
  </way>
  <way id="31094807" version="4" timestamp="2012-01-18T06:09:15Z" uid="147510" user="woodpeck_fixbot" changeset="10424371">
    <nd ref="345551544"/>
    <nd ref="345551559"/>
    <nd ref="345551565"/>
    <nd ref="345551572"/>
    <nd ref="345551579"/>
    <nd ref="345551588"/>
    <nd ref="345551595"/>
    <nd ref="345551619"/>
    <tag k="highway" v="residential"/>
    <tag k="name" v="Ravenswood Court"/>
  </way>
  <way id="31094809" version="1" timestamp="2009-02-15T11:12:52Z" uid="55964" user="Evan Sebire" changeset="447068">
    <nd ref="345551595"/>
    <nd ref="345551644"/>
    <tag k="created_by" v="Merkaartor 0.13"/>
    <tag k="highway" v="residential"/>
    <tag k="name" v="Beaumont Court"/>
  </way>
  <way id="31094809" version="2" timestamp="2010-07-08T19:45:36Z" uid="74617" user="JohnSmith" changeset="5168688">
    <nd ref="345551595"/>
    <nd ref="345551644"/>
    <tag k="highway" v="residential"/>
    <tag k="maxspeed" v="50"/>
    <tag k="maxspeed:source" v="default residential speed limit in Australia"/>
    <tag k="name" v="Beaumont Court"/>
  </way>
  <way id="31094809" version="3" timestamp="2012-01-18T06:09:16Z" uid="147510" user="woodpeck_fixbot" changeset="10424371">
    <nd ref="345551595"/>
    <nd ref="345551644"/>
    <tag k="highway" v="residential"/>
    <tag k="name" v="Beaumont Court"/>
  </way>
  <way id="31094893" version="1" timestamp="2009-02-15T11:15:01Z" uid="55964" user="Evan Sebire" changeset="447068">
    <nd ref="345551544"/>
    <nd ref="345552278"/>
    <tag k="created_by" v="Merkaartor 0.13"/>
    <tag k="highway" v="primary"/>
  </way>
  <way id="31094893" version="2" timestamp="2009-08-21T15:00:34Z" uid="79475" user="AlexOnTheBus" changeset="2225056">
    <nd ref="345551544"/>
    <nd ref="345552278"/>
    <tag k="created_by" v="Merkaartor 0.13"/>
    <tag k="highway" v="secondary"/>
  </way>
  <way id="31094893" version="3" timestamp="2011-08-17T05:06:24Z" uid="11111" user="melb_guy" changeset="9044075">
    <nd ref="345551544"/>
    <nd ref="345552278"/>
    <tag k="highway" v="primary_link"/>
  </way>
  <way id="31094899" version="3" timestamp="2010-05-18T22:15:33Z" uid="9581" user="Lobelt" changeset="4743574">
    <nd ref="345552288"/>
    <nd ref="326181532"/>
    <tag k="highway" v="residential"/>
    <tag k="layer" v="0"/>
    <tag k="name" v="Heinrich-Heine-StraÃŸe"/>
    <tag k="oneway" v="yes"/>
    <tag k="surface" v="paved"/>
  </way>
  <way id="31094907" version="3" timestamp="2010-05-19T01:53:24Z" uid="4467" user="Rosscoe" changeset="4744386">
    <nd ref="298962221"/>
    <nd ref="739120459"/>
    <nd ref="345554159"/>
    <nd ref="345552320"/>
    <nd ref="298597662"/>
    <nd ref="293347062"/>
    <nd ref="293347063"/>
    <nd ref="293347064"/>
    <nd ref="293347065"/>
    <tag k="highway" v="residential"/>
    <tag k="name" v="Gunbower Road"/>
  </way>
  <way id="31094907" version="4" timestamp="2010-07-09T17:25:09Z" uid="74617" user="JohnSmith" changeset="5175333">
    <nd ref="298962221"/>
    <nd ref="739120459"/>
    <nd ref="345554159"/>
    <nd ref="345552320"/>
    <nd ref="298597662"/>
    <nd ref="293347062"/>
    <nd ref="293347063"/>
    <nd ref="293347064"/>
    <nd ref="293347065"/>
    <tag k="highway" v="residential"/>
    <tag k="maxspeed" v="50"/>
    <tag k="maxspeed:source" v="default residential speed limit in Australia"/>
    <tag k="name" v="Gunbower Road"/>
  </way>
  <way id="31094907" version="5" timestamp="2012-01-18T06:09:18Z" uid="147510" user="woodpeck_fixbot" changeset="10424371">
    <nd ref="298962221"/>
    <nd ref="739120459"/>
    <nd ref="345554159"/>
    <nd ref="345552320"/>
    <nd ref="298597662"/>
    <nd ref="293347062"/>
    <nd ref="293347063"/>
    <nd ref="293347064"/>
    <nd ref="293347065"/>
    <tag k="highway" v="residential"/>
    <tag k="name" v="Gunbower Road"/>
  </way>
  <way id="31094942" version="4" timestamp="2010-06-10T23:40:57Z" uid="4467" user="Rosscoe" changeset="4959129">
    <nd ref="299649865"/>
    <nd ref="299649867"/>
    <nd ref="299649868"/>
    <nd ref="299649869"/>
    <nd ref="299649870"/>
    <nd ref="299649871"/>
    <nd ref="768946427"/>
    <nd ref="299649873"/>
    <tag k="highway" v="service"/>
  </way>
  <way id="31094979" version="2" timestamp="2010-07-09T17:24:58Z" uid="74617" user="JohnSmith" changeset="5175333">
    <nd ref="298960604"/>
    <nd ref="345553335"/>
    <nd ref="298966502"/>
    <tag k="highway" v="residential"/>
    <tag k="maxspeed" v="50"/>
    <tag k="maxspeed:source" v="default residential speed limit in Australia"/>
    <tag k="source" v="Yahoo Imagery"/>
  </way>
  <way id="31094979" version="3" timestamp="2012-01-18T06:09:20Z" uid="147510" user="woodpeck_fixbot" changeset="10424371">
    <nd ref="298960604"/>
    <nd ref="345553335"/>
    <nd ref="298966502"/>
    <tag k="highway" v="residential"/>
    <tag k="source" v="Yahoo Imagery"/>
  </way>
</osm>
