<?xml version='1.0' encoding='UTF-8'?>
<osm version="0.6" generator="libosmium/2.20.0">
  <way id="3110878" version="59" timestamp="2010-03-27T07:38:42Z" uid="20587" user="balrog-kun" changeset="4244079">
    <nd ref="14840417"/>
    <nd ref="294310940"/>
    <tag k="bridge" v="yes"/>
    <tag k="created_by" v="Potlatch 0.10f"/>
    <tag k="highway" v="motorway"/>
    <tag k="name" v="I-5"/>
    <tag k="name_1" v="San Diego Freeway"/>
    <tag k="oneway" v="yes"/>
    <tag k="ref" v="I 5"/>
    <tag k="tiger:cfcc" v="A11"/>
    <tag k="tiger:county" v="Orange, CA"/>
    <tag k="tiger:name_base" v="I-5"/>
    <tag k="tiger:name_base_1" v="San Diego"/>
    <tag k="tiger:name_type_1" v="Fwy"/>
    <tag k="tiger:separated" v="no"/>
    <tag k="tiger:source" v="tiger_import_dch_v0.6_20070809"/>
    <tag k="tiger:tlid" v="144076758:144076649:144076493:144076507:144118706:144118719:144088687:144088689:144076419:144076451:144088666:144075984:144075998:144075752:144075757:144393204:144393205:144077940:144076106:144118652:144075717:144076128:144076129:144077870:144418280:14407"/>
  </way>
  <way id="3110878" version="60" timestamp="2010-03-29T22:40:08Z" uid="239998" user="Sundance" changeset="4272112">
    <nd ref="14840417"/>
    <nd ref="294310940"/>
    <tag k="bridge" v="yes"/>
    <tag k="highway" v="motorway"/>
    <tag k="layer" v="1"/>
    <tag k="name" v="Interstate 5"/>
    <tag k="name_1" v="San Diego Freeway"/>
    <tag k="oneway" v="yes"/>
    <tag k="ref" v="I 5"/>
    <tag k="tiger:county" v="Orange, CA"/>
  </way>
  <way id="3110878" version="61" timestamp="2010-05-21T13:14:29Z" uid="82317" user="AM909" changeset="4765600">
    <nd ref="14840417"/>
    <nd ref="294310940"/>
    <tag k="bridge" v="yes"/>
    <tag k="highway" v="motorway"/>
    <tag k="layer" v="1"/>
    <tag k="name" v="San Diego Freeway"/>
    <tag k="oneway" v="yes"/>
    <tag k="ref" v="I 5"/>
    <tag k="tiger:county" v="Orange, CA"/>
  </way>
  <way id="3110878" version="62" timestamp="2010-06-21T22:19:14Z" uid="239998" user="Sundance" changeset="5047227">
    <nd ref="14840417"/>
    <nd ref="294310940"/>
    <tag k="bridge" v="yes"/>
    <tag k="highway" v="motorway"/>
    <tag k="is_in" v="Orange, CA"/>
    <tag k="layer" v="1"/>
    <tag k="maxspeed" v="55 mph"/>
    <tag k="name" v="San Diego Freeway"/>
    <tag k="name_1" v="Interstate 5"/>
    <tag k="oneway" v="yes"/>
    <tag k="ref" v="I 5"/>
    <tag k="tiger:county" v="Orange, CA"/>
  </way>
  <way id="3110878" version="63" timestamp="2011-08-02T08:07:40Z" uid="207745" user="NE2" changeset="8898279">
    <nd ref="14840417"/>
    <nd ref="294310940"/>
    <tag k="bridge" v="yes"/>
    <tag k="highway" v="motorway"/>
    <tag k="is_in" v="Orange, CA"/>
    <tag k="lanes" v="4"/>
    <tag k="layer" v="1"/>
    <tag k="maxspeed" v="55 mph"/>
    <tag k="name" v="San Diego Freeway"/>
    <tag k="oneway" v="yes"/>
    <tag k="ref" v="I 5"/>
    <tag k="tiger:county" v="Orange, CA"/>
  </way>
  <way id="3110878" version="64" timestamp="2011-11-25T15:09:13Z" uid="207745" user="NE2" changeset="9943893">
    <nd ref="14840417"/>
    <nd ref="294310940"/>
    <tag k="bridge" v="yes"/>
    <tag k="hgv" v="designated"/>
    <tag k="highway" v="motorway"/>
    <tag k="is_in" v="Orange, CA"/>
    <tag k="lanes" v="4"/>
    <tag k="layer" v="1"/>
    <tag k="maxspeed" v="55 mph"/>
    <tag k="name" v="San Diego Freeway"/>
    <tag k="oneway" v="yes"/>
    <tag k="ref" v="I 5"/>
    <tag k="tiger:county" v="Orange, CA"/>
  </way>
  <way id="3110878" version="65" timestamp="2012-01-03T22:03:19Z" uid="92286" user="Paul Johnson" changeset="10286427">
    <nd ref="14840417"/>
    <nd ref="294310940"/>
    <tag k="bridge" v="yes"/>
    <tag k="hgv" v="designated"/>
    <tag k="highway" v="motorway"/>
    <tag k="is_in" v="Orange, CA"/>
    <tag k="lanes" v="4"/>
    <tag k="layer" v="1"/>
    <tag k="maxspeed" v="65 mph"/>
    <tag k="name" v="San Diego Freeway"/>
    <tag k="oneway" v="yes"/>
    <tag k="ref" v="I 5"/>
    <tag k="tiger:county" v="Orange, CA"/>
  </way>
</osm>
