<?xml version='1.0' encoding='UTF-8'?>
<osm version="0.6" generator="libosmium/2.20.0">
  <way id="31130073" version="3" timestamp="2010-07-08T16:21:36Z" uid="74617" user="JohnSmith" changeset="5167338">
    <nd ref="346147896"/>
    <nd ref="346147897"/>
    <nd ref="346147964"/>
    <nd ref="346147898"/>
    <nd ref="346147899"/>
    <nd ref="346147900"/>
    <nd ref="346147902"/>
    <nd ref="346147897"/>
    <tag k="highway" v="residential"/>
    <tag k="maxspeed" v="50"/>
    <tag k="maxspeed:source" v="default residential speed limit in Australia"/>
    <tag k="name" v="Sundew Circuit"/>
    <tag k="source" v="GPS"/>
  </way>
  <way id="31130073" version="4" timestamp="2012-01-18T06:13:33Z" uid="147510" user="woodpeck_fixbot" changeset="10424371">
    <nd ref="346147896"/>
    <nd ref="346147897"/>
    <nd ref="346147964"/>
    <nd ref="346147898"/>
    <nd ref="346147899"/>
    <nd ref="346147900"/>
    <nd ref="346147902"/>
    <nd ref="346147897"/>
    <tag k="highway" v="residential"/>
    <tag k="name" v="Sundew Circuit"/>
    <tag k="source" v="GPS"/>
  </way>
  <way id="31130080" version="2" timestamp="2010-07-08T16:21:29Z" uid="74617" user="JohnSmith" changeset="5167338">
    <nd ref="346147964"/>
    <nd ref="346147965"/>
    <nd ref="346147967"/>
    <tag k="highway" v="residential"/>
    <tag k="maxspeed" v="50"/>
    <tag k="maxspeed:source" v="default residential speed limit in Australia"/>
    <tag k="name" v="Syringa Place"/>
    <tag k="source" v="GPS"/>
  </way>
  <way id="31130080" version="3" timestamp="2012-01-18T06:13:35Z" uid="147510" user="woodpeck_fixbot" changeset="10424371">
    <nd ref="346147964"/>
    <nd ref="346147965"/>
    <nd ref="346147967"/>
    <tag k="highway" v="residential"/>
    <tag k="name" v="Syringa Place"/>
    <tag k="source" v="GPS"/>
  </way>
  <way id="31130099" version="2" timestamp="2010-07-08T16:21:32Z" uid="74617" user="JohnSmith" changeset="5167338">
    <nd ref="346148261"/>
    <nd ref="120477214"/>
    <nd ref="293101293"/>
    <nd ref="80751734"/>
    <tag k="highway" v="residential"/>
    <tag k="maxspeed" v="50"/>
    <tag k="maxspeed:source" v="default residential speed limit in Australia"/>
    <tag k="name" v="Sharp Road"/>
    <tag k="source" v="GPS"/>
  </way>
  <way id="31130099" version="3" timestamp="2012-01-18T06:13:36Z" uid="147510" user="woodpeck_fixbot" changeset="10424371">
    <nd ref="346148261"/>
    <nd ref="120477214"/>
    <nd ref="293101293"/>
    <nd ref="80751734"/>
    <tag k="highway" v="residential"/>
    <tag k="name" v="Sharp Road"/>
    <tag k="source" v="GPS"/>
  </way>
  <way id="31130235" version="4" timestamp="2010-07-09T21:42:31Z" uid="74617" user="JohnSmith" changeset="5176956">
    <nd ref="616606841"/>
    <nd ref="346150484"/>
    <nd ref="346150485"/>
    <tag k="highway" v="residential"/>
    <tag k="maxspeed" v="50"/>
    <tag k="maxspeed:source" v="default residential speed limit in Australia"/>
    <tag k="name" v="Hyde Street"/>
    <tag k="source" v="Yahoo Imagery"/>
  </way>
  <way id="31130235" version="5" timestamp="2012-01-18T06:13:37Z" uid="147510" user="woodpeck_fixbot" changeset="10424371">
    <nd ref="616606841"/>
    <nd ref="346150484"/>
    <nd ref="346150485"/>
    <tag k="highway" v="residential"/>
    <tag k="name" v="Hyde Street"/>
    <tag k="source" v="Yahoo Imagery"/>
  </way>
  <way id="31130236" version="6" timestamp="2010-04-28T01:02:45Z" uid="4467" user="Rosscoe" changeset="4546110">
    <nd ref="709495128"/>
    <nd ref="709495364"/>
    <nd ref="709495224"/>
    <nd ref="709495107"/>
    <nd ref="709495001"/>
    <nd ref="709495284"/>
    <nd ref="709495244"/>
    <nd ref="709495054"/>
    <nd ref="709495103"/>
    <nd ref="709494929"/>
    <tag k="highway" v="secondary"/>
    <tag k="oneway" v="yes"/>
    <tag k="source" v="nearmap"/>
  </way>
  <way id="31130236" version="7" timestamp="2011-01-09T09:19:32Z" uid="4467" user="Rosscoe" changeset="6912712">
    <nd ref="1093665624"/>
    <nd ref="709495128"/>
    <nd ref="1093665432"/>
    <nd ref="709495364"/>
    <nd ref="1093665700"/>
    <nd ref="709495224"/>
    <nd ref="709495107"/>
    <nd ref="1093665785"/>
    <nd ref="709495001"/>
    <nd ref="709495284"/>
    <nd ref="709495244"/>
    <nd ref="709495054"/>
    <nd ref="709495103"/>
    <nd ref="709494929"/>
    <tag k="highway" v="secondary"/>
    <tag k="oneway" v="yes"/>
    <tag k="source" v="nearmap"/>
  </way>
  <way id="31130236" version="8" timestamp="2011-10-10T20:13:04Z" uid="142807" user="SDavies" changeset="9525474">
    <nd ref="1093665624"/>
    <nd ref="709495128"/>
    <nd ref="1093665432"/>
    <nd ref="709495364"/>
    <nd ref="1093665700"/>
    <nd ref="709495224"/>
    <nd ref="709495107"/>
    <nd ref="1093665785"/>
    <nd ref="709495001"/>
    <nd ref="709495284"/>
    <nd ref="709495244"/>
    <nd ref="709495054"/>
    <nd ref="709495103"/>
    <nd ref="709494929"/>
    <tag k="highway" v="secondary"/>
    <tag k="name" v="Helena Street"/>
    <tag k="oneway" v="yes"/>
    <tag k="source" v="nearmap"/>
  </way>
  <way id="31130236" version="9" timestamp="2012-01-08T15:43:16Z" uid="142807" user="SDavies" changeset="10332858">
    <nd ref="1093665624"/>
    <nd ref="709495128"/>
    <nd ref="1093665432"/>
    <nd ref="709495364"/>
    <nd ref="1093665700"/>
    <nd ref="709495224"/>
    <nd ref="709495107"/>
    <nd ref="1582765872"/>
    <tag k="highway" v="unclassified"/>
    <tag k="name" v="Helena Street"/>
    <tag k="oneway" v="yes"/>
    <tag k="source" v="nearmap"/>
  </way>
  <way id="31130239" version="3" timestamp="2010-04-28T01:02:42Z" uid="4467" user="Rosscoe" changeset="4546110">
    <nd ref="709494971"/>
    <nd ref="346150534"/>
    <nd ref="346150537"/>
    <nd ref="346150539"/>
    <tag k="highway" v="residential"/>
    <tag k="name" v="The Avenue"/>
    <tag k="source" v="Yahoo Imagery"/>
  </way>
  <way id="31130239" version="4" timestamp="2010-07-09T21:43:02Z" uid="74617" user="JohnSmith" changeset="5176956">
    <nd ref="709494971"/>
    <nd ref="346150534"/>
    <nd ref="346150537"/>
    <nd ref="346150539"/>
    <tag k="highway" v="residential"/>
    <tag k="maxspeed" v="50"/>
    <tag k="maxspeed:source" v="default residential speed limit in Australia"/>
    <tag k="name" v="The Avenue"/>
    <tag k="source" v="Yahoo Imagery"/>
  </way>
  <way id="31130239" version="5" timestamp="2011-10-11T20:09:55Z" uid="142807" user="SDavies" changeset="9533846">
    <nd ref="709494971"/>
    <nd ref="346150534"/>
    <tag k="highway" v="residential"/>
    <tag k="maxspeed" v="50"/>
    <tag k="maxspeed:source" v="default residential speed limit in Australia"/>
    <tag k="name" v="The Avenue"/>
    <tag k="source" v="Yahoo Imagery"/>
  </way>
  <way id="31130239" version="6" timestamp="2011-10-13T05:18:36Z" uid="142807" user="SDavies" changeset="9544285">
    <nd ref="709494971"/>
    <nd ref="1464776207"/>
    <nd ref="1464776205"/>
    <nd ref="346150534"/>
    <tag k="highway" v="residential"/>
    <tag k="maxspeed" v="50"/>
    <tag k="maxspeed:source" v="default residential speed limit in Australia"/>
    <tag k="name" v="The Avenue"/>
    <tag k="source" v="Yahoo Imagery"/>
  </way>
  <way id="31130239" version="7" timestamp="2012-01-18T06:13:38Z" uid="147510" user="woodpeck_fixbot" changeset="10424371">
    <nd ref="709494971"/>
    <nd ref="1464776207"/>
    <nd ref="1464776205"/>
    <nd ref="346150534"/>
    <tag k="highway" v="residential"/>
    <tag k="name" v="The Avenue"/>
    <tag k="source" v="Yahoo Imagery"/>
  </way>
  <way id="31130240" version="5" timestamp="2010-04-28T01:02:58Z" uid="4467" user="Rosscoe" changeset="4546110">
    <nd ref="332907196"/>
    <nd ref="709494941"/>
    <nd ref="709494906"/>
    <nd ref="709494899"/>
    <tag k="highway" v="secondary"/>
    <tag k="name" v="Old Great Northern Highway"/>
    <tag k="oneway" v="yes"/>
    <tag k="source" v="nearmap"/>
  </way>
  <way id="31130240" version="6" timestamp="2012-01-08T15:43:16Z" uid="142807" user="SDavies" changeset="10332858">
    <nd ref="332907196"/>
    <nd ref="709494941"/>
    <nd ref="709494906"/>
    <nd ref="709494899"/>
    <tag k="highway" v="unclassified"/>
    <tag k="name" v="Old Great Northern Highway"/>
    <tag k="oneway" v="yes"/>
    <tag k="source" v="nearmap"/>
  </way>
  <way id="31130248" version="3" timestamp="2010-07-09T21:41:14Z" uid="74617" user="JohnSmith" changeset="5176956">
    <nd ref="346150832"/>
    <nd ref="346150840"/>
    <nd ref="346150833"/>
    <tag k="highway" v="residential"/>
    <tag k="maxspeed" v="50"/>
    <tag k="maxspeed:source" v="default residential speed limit in Australia"/>
    <tag k="name" v="Stafford Street"/>
    <tag k="source" v="Yahoo Imagery"/>
  </way>
  <way id="31130248" version="4" timestamp="2011-10-11T07:40:23Z" uid="142807" user="SDavies" changeset="9528308">
    <nd ref="346150832"/>
    <nd ref="346150840"/>
    <nd ref="1462118160"/>
    <nd ref="1462118153"/>
    <nd ref="346150833"/>
    <tag k="highway" v="residential"/>
    <tag k="maxspeed" v="50"/>
    <tag k="maxspeed:source" v="default residential speed limit in Australia"/>
    <tag k="name" v="Stafford Street"/>
    <tag k="source" v="Yahoo Imagery"/>
  </way>
  <way id="31130248" version="5" timestamp="2011-10-11T16:41:35Z" uid="142807" user="SDavies" changeset="9532054">
    <nd ref="346150832"/>
    <nd ref="346150840"/>
    <nd ref="1462118160"/>
    <nd ref="1462118153"/>
    <nd ref="1462753940"/>
    <nd ref="346150833"/>
    <tag k="highway" v="residential"/>
    <tag k="maxspeed" v="50"/>
    <tag k="maxspeed:source" v="default residential speed limit in Australia"/>
    <tag k="name" v="Stafford Street"/>
    <tag k="source" v="Yahoo Imagery"/>
  </way>
  <way id="31130248" version="6" timestamp="2011-10-11T16:46:03Z" uid="142807" user="SDavies" changeset="9532132">
    <nd ref="346150832"/>
    <nd ref="346150840"/>
    <nd ref="1462767313"/>
    <nd ref="1462118160"/>
    <nd ref="1462767315"/>
    <nd ref="1462767317"/>
    <nd ref="1462118153"/>
    <nd ref="1462753940"/>
    <nd ref="346150833"/>
    <tag k="highway" v="residential"/>
    <tag k="maxspeed" v="50"/>
    <tag k="maxspeed:source" v="default residential speed limit in Australia"/>
    <tag k="name" v="Stafford Street"/>
    <tag k="source" v="Yahoo Imagery"/>
  </way>
  <way id="31130248" version="7" timestamp="2011-10-12T12:01:48Z" uid="142807" user="SDavies" changeset="9538035">
    <nd ref="346150832"/>
    <nd ref="1463857656"/>
    <nd ref="346150840"/>
    <nd ref="1462767313"/>
    <nd ref="1462118160"/>
    <nd ref="1462767315"/>
    <nd ref="1462767317"/>
    <nd ref="1462118153"/>
    <nd ref="1462753940"/>
    <nd ref="346150833"/>
    <tag k="highway" v="residential"/>
    <tag k="maxspeed" v="50"/>
    <tag k="maxspeed:source" v="default residential speed limit in Australia"/>
    <tag k="name" v="Stafford Street"/>
    <tag k="source" v="Yahoo Imagery"/>
  </way>
  <way id="31130248" version="8" timestamp="2012-01-18T06:13:39Z" uid="147510" user="woodpeck_fixbot" changeset="10424371">
    <nd ref="346150832"/>
    <nd ref="1463857656"/>
    <nd ref="346150840"/>
    <nd ref="1462767313"/>
    <nd ref="1462118160"/>
    <nd ref="1462767315"/>
    <nd ref="1462767317"/>
    <nd ref="1462118153"/>
    <nd ref="1462753940"/>
    <nd ref="346150833"/>
    <tag k="highway" v="residential"/>
    <tag k="name" v="Stafford Street"/>
    <tag k="source" v="Yahoo Imagery"/>
  </way>
  <way id="31130249" version="3" timestamp="2010-07-09T21:41:58Z" uid="74617" user="JohnSmith" changeset="5176956">
    <nd ref="346150835"/>
    <nd ref="346150836"/>
    <nd ref="346150837"/>
    <nd ref="346150838"/>
    <nd ref="346150840"/>
    <tag k="highway" v="unclassified"/>
    <tag k="maxspeed" v="50"/>
    <tag k="maxspeed:source" v="default residential speed limit in Australia"/>
    <tag k="source" v="Yahoo Imagery"/>
  </way>
  <way id="31130249" version="4" timestamp="2011-10-11T07:21:56Z" uid="142807" user="SDavies" changeset="9528100">
    <nd ref="1462113309"/>
    <nd ref="346150836"/>
    <nd ref="346150837"/>
    <nd ref="346150838"/>
    <nd ref="346150840"/>
    <tag k="highway" v="service"/>
    <tag k="maxspeed" v="50"/>
    <tag k="maxspeed:source" v="default residential speed limit in Australia"/>
    <tag k="source" v="Yahoo Imagery"/>
  </way>
  <way id="31130249" version="5" timestamp="2011-10-11T16:41:36Z" uid="142807" user="SDavies" changeset="9532054">
    <nd ref="1462113309"/>
    <nd ref="1462753932"/>
    <nd ref="346150836"/>
    <nd ref="346150837"/>
    <nd ref="346150838"/>
    <nd ref="346150840"/>
    <tag k="highway" v="service"/>
    <tag k="maxspeed" v="50"/>
    <tag k="maxspeed:source" v="default residential speed limit in Australia"/>
    <tag k="source" v="Yahoo Imagery"/>
  </way>
  <way id="31130249" version="6" timestamp="2012-01-18T06:13:40Z" uid="147510" user="woodpeck_fixbot" changeset="10424371">
    <nd ref="1462113309"/>
    <nd ref="1462753932"/>
    <nd ref="346150836"/>
    <nd ref="346150837"/>
    <nd ref="346150838"/>
    <nd ref="346150840"/>
    <tag k="highway" v="service"/>
    <tag k="source" v="Yahoo Imagery"/>
  </way>
  <way id="31130250" version="4" timestamp="2010-04-28T01:02:55Z" uid="4467" user="Rosscoe" changeset="4546110">
    <nd ref="616602759"/>
    <nd ref="709495211"/>
    <nd ref="709495020"/>
    <tag k="highway" v="service"/>
    <tag k="source" v="nearmap"/>
  </way>
  <way id="31130251" version="2" timestamp="2010-04-28T01:02:59Z" uid="4467" user="Rosscoe" changeset="4546110">
    <nd ref="709495140"/>
    <nd ref="346150488"/>
    <nd ref="346150843"/>
    <nd ref="346150844"/>
    <nd ref="346150846"/>
    <nd ref="346150847"/>
    <nd ref="346150848"/>
    <nd ref="346150849"/>
    <tag k="highway" v="residential"/>
    <tag k="source" v="Yahoo Imagery"/>
  </way>
  <way id="31130251" version="3" timestamp="2010-06-27T10:14:20Z" uid="306817" user="chainsaw" changeset="5088084">
    <nd ref="709495140"/>
    <nd ref="346150488"/>
    <nd ref="346150843"/>
    <nd ref="346150844"/>
    <nd ref="346150846"/>
    <nd ref="346150847"/>
    <nd ref="346150848"/>
    <nd ref="346150849"/>
    <tag k="highway" v="residential"/>
    <tag k="name" v="Templeman Place"/>
    <tag k="source" v="Yahoo Imagery"/>
  </way>
  <way id="31130251" version="4" timestamp="2010-07-09T21:44:05Z" uid="74617" user="JohnSmith" changeset="5176956">
    <nd ref="709495140"/>
    <nd ref="346150488"/>
    <nd ref="346150843"/>
    <nd ref="346150844"/>
    <nd ref="346150846"/>
    <nd ref="346150847"/>
    <nd ref="346150848"/>
    <nd ref="346150849"/>
    <tag k="highway" v="residential"/>
    <tag k="maxspeed" v="50"/>
    <tag k="maxspeed:source" v="default residential speed limit in Australia"/>
    <tag k="name" v="Templeman Place"/>
    <tag k="source" v="Yahoo Imagery"/>
  </way>
  <way id="31130251" version="5" timestamp="2011-10-21T05:10:48Z" uid="142807" user="SDavies" changeset="9613766">
    <nd ref="709495140"/>
    <nd ref="346150488"/>
    <nd ref="1474835944"/>
    <nd ref="346150843"/>
    <nd ref="1474835957"/>
    <nd ref="346150844"/>
    <nd ref="346150846"/>
    <nd ref="346150847"/>
    <nd ref="346150848"/>
    <nd ref="346150849"/>
    <tag k="highway" v="residential"/>
    <tag k="maxspeed" v="50"/>
    <tag k="maxspeed:source" v="default residential speed limit in Australia"/>
    <tag k="name" v="Templeman Place"/>
    <tag k="source" v="Yahoo Imagery"/>
  </way>
  <way id="31130251" version="6" timestamp="2012-01-18T06:13:41Z" uid="147510" user="woodpeck_fixbot" changeset="10424371">
    <nd ref="709495140"/>
    <nd ref="346150488"/>
    <nd ref="1474835944"/>
    <nd ref="346150843"/>
    <nd ref="1474835957"/>
    <nd ref="346150844"/>
    <nd ref="346150846"/>
    <nd ref="346150847"/>
    <nd ref="346150848"/>
    <nd ref="346150849"/>
    <tag k="highway" v="residential"/>
    <tag k="name" v="Templeman Place"/>
    <tag k="source" v="Yahoo Imagery"/>
  </way>
  <way id="31130252" version="3" timestamp="2010-07-09T21:41:45Z" uid="74617" user="JohnSmith" changeset="5176956">
    <nd ref="346150850"/>
    <nd ref="346150852"/>
    <nd ref="346150853"/>
    <nd ref="346150854"/>
    <nd ref="346150855"/>
    <tag k="highway" v="unclassified"/>
    <tag k="maxspeed" v="50"/>
    <tag k="maxspeed:source" v="default residential speed limit in Australia"/>
    <tag k="name" v="Samson Close"/>
    <tag k="source" v="Yahoo Imagery"/>
  </way>
  <way id="31130252" version="4" timestamp="2011-10-21T05:15:58Z" uid="142807" user="SDavies" changeset="9613798">
    <nd ref="346150850"/>
    <nd ref="346150852"/>
    <nd ref="346150853"/>
    <nd ref="346150854"/>
    <nd ref="346150855"/>
    <tag k="highway" v="residential"/>
    <tag k="maxspeed" v="50"/>
    <tag k="maxspeed:source" v="default residential speed limit in Australia"/>
    <tag k="name" v="Samson Close"/>
    <tag k="source" v="Yahoo Imagery"/>
  </way>
  <way id="31130252" version="5" timestamp="2012-01-18T06:13:43Z" uid="147510" user="woodpeck_fixbot" changeset="10424371">
    <nd ref="346150850"/>
    <nd ref="346150852"/>
    <nd ref="346150853"/>
    <nd ref="346150854"/>
    <nd ref="346150855"/>
    <tag k="highway" v="residential"/>
    <tag k="name" v="Samson Close"/>
    <tag k="source" v="Yahoo Imagery"/>
  </way>
  <way id="31130253" version="2" timestamp="2010-04-28T01:02:57Z" uid="4467" user="Rosscoe" changeset="4546110">
    <nd ref="346150857"/>
    <nd ref="709495248"/>
    <nd ref="346150846"/>
    <tag k="highway" v="residential"/>
    <tag k="source" v="Yahoo Imagery"/>
  </way>
  <way id="31130253" version="3" timestamp="2010-06-27T10:14:20Z" uid="306817" user="chainsaw" changeset="5088084">
    <nd ref="346150857"/>
    <nd ref="709495248"/>
    <nd ref="346150846"/>
    <tag k="highway" v="residential"/>
    <tag k="name" v="Cooper Street"/>
    <tag k="source" v="Yahoo Imagery"/>
  </way>
  <way id="31130253" version="4" timestamp="2010-07-09T21:42:24Z" uid="74617" user="JohnSmith" changeset="5176956">
    <nd ref="346150857"/>
    <nd ref="709495248"/>
    <nd ref="346150846"/>
    <tag k="highway" v="residential"/>
    <tag k="maxspeed" v="50"/>
    <tag k="maxspeed:source" v="default residential speed limit in Australia"/>
    <tag k="name" v="Cooper Street"/>
    <tag k="source" v="Yahoo Imagery"/>
  </way>
  <way id="31130253" version="5" timestamp="2011-10-21T05:10:48Z" uid="142807" user="SDavies" changeset="9613766">
    <nd ref="346150857"/>
    <nd ref="709495248"/>
    <nd ref="1474835950"/>
    <nd ref="1474835953"/>
    <nd ref="346150846"/>
    <tag k="highway" v="residential"/>
    <tag k="maxspeed" v="50"/>
    <tag k="maxspeed:source" v="default residential speed limit in Australia"/>
    <tag k="name" v="Cooper Street"/>
    <tag k="source" v="Yahoo Imagery"/>
  </way>
  <way id="31130253" version="6" timestamp="2012-01-18T06:13:44Z" uid="147510" user="woodpeck_fixbot" changeset="10424371">
    <nd ref="346150857"/>
    <nd ref="709495248"/>
    <nd ref="1474835950"/>
    <nd ref="1474835953"/>
    <nd ref="346150846"/>
    <tag k="highway" v="residential"/>
    <tag k="name" v="Cooper Street"/>
    <tag k="source" v="Yahoo Imagery"/>
  </way>
  <way id="31130254" version="2" timestamp="2010-04-28T01:02:46Z" uid="4467" user="Rosscoe" changeset="4546110">
    <nd ref="346150848"/>
    <nd ref="346150858"/>
    <nd ref="346150853"/>
    <nd ref="346150859"/>
    <nd ref="709495380"/>
    <tag k="highway" v="residential"/>
    <tag k="source" v="Yahoo Imagery"/>
  </way>
  <way id="31130254" version="3" timestamp="2010-06-27T10:14:20Z" uid="306817" user="chainsaw" changeset="5088084">
    <nd ref="346150848"/>
    <nd ref="346150858"/>
    <nd ref="346150853"/>
    <nd ref="346150859"/>
    <nd ref="709495380"/>
    <tag k="highway" v="residential"/>
    <tag k="name" v="Mellar Court"/>
    <tag k="source" v="Yahoo Imagery"/>
  </way>
  <way id="31130254" version="4" timestamp="2010-07-09T21:43:49Z" uid="74617" user="JohnSmith" changeset="5176956">
    <nd ref="346150848"/>
    <nd ref="346150858"/>
    <nd ref="346150853"/>
    <nd ref="346150859"/>
    <nd ref="709495380"/>
    <tag k="highway" v="residential"/>
    <tag k="maxspeed" v="50"/>
    <tag k="maxspeed:source" v="default residential speed limit in Australia"/>
    <tag k="name" v="Mellar Court"/>
    <tag k="source" v="Yahoo Imagery"/>
  </way>
  <way id="31130254" version="5" timestamp="2012-01-18T06:13:45Z" uid="147510" user="woodpeck_fixbot" changeset="10424371">
    <nd ref="346150848"/>
    <nd ref="346150858"/>
    <nd ref="346150853"/>
    <nd ref="346150859"/>
    <nd ref="709495380"/>
    <tag k="highway" v="residential"/>
    <tag k="name" v="Mellar Court"/>
    <tag k="source" v="Yahoo Imagery"/>
  </way>
  <way id="31130304" version="7" timestamp="2010-04-28T01:03:08Z" uid="4467" user="Rosscoe" changeset="4546110"/>
  <way id="31130305" version="11" timestamp="2010-04-28T01:02:56Z" uid="4467" user="Rosscoe" changeset="4546110">
    <nd ref="618576231"/>
    <nd ref="270727580"/>
    <nd ref="345843591"/>
    <nd ref="270727560"/>
    <nd ref="31092860"/>
    <nd ref="270727537"/>
    <nd ref="345843580"/>
    <nd ref="270727525"/>
    <nd ref="31092861"/>
    <nd ref="270727552"/>
    <nd ref="709495295"/>
    <nd ref="244783657"/>
    <nd ref="445402775"/>
    <nd ref="616602709"/>
    <nd ref="31092863"/>
    <nd ref="445402742"/>
    <nd ref="709495233"/>
    <nd ref="709495115"/>
    <nd ref="445402743"/>
    <nd ref="31092864"/>
    <nd ref="709495315"/>
    <nd ref="709495033"/>
    <nd ref="709495048"/>
    <nd ref="709494890"/>
    <nd ref="31092865"/>
    <nd ref="31092866"/>
    <nd ref="709495284"/>
    <nd ref="482494636"/>
    <nd ref="346151249"/>
    <nd ref="346151241"/>
    <nd ref="31092868"/>
    <tag k="highway" v="trunk"/>
    <tag k="name" v="Great Eastern Highway"/>
    <tag k="oneway" v="yes"/>
    <tag k="ref" v="S51"/>
  </way>
  <way id="31130305" version="12" timestamp="2010-04-28T01:42:59Z" uid="4467" user="Rosscoe" changeset="4546165"/>
  <way id="31130306" version="4" timestamp="2010-05-07T15:52:00Z" uid="4467" user="Rosscoe" changeset="4631303">
    <nd ref="346151249"/>
    <nd ref="346151248"/>
    <nd ref="346151246"/>
    <nd ref="346151245"/>
    <nd ref="346151244"/>
    <tag k="highway" v="residential"/>
    <tag k="name" v="William Street"/>
    <tag k="oneway" v="yes"/>
    <tag k="source" v="Yahoo Imagery"/>
  </way>
  <way id="31130306" version="5" timestamp="2010-05-08T06:54:58Z" uid="4467" user="Rosscoe" changeset="4636070"/>
  <way id="31130307" version="3" timestamp="2010-05-07T16:21:44Z" uid="4467" user="Rosscoe" changeset="4631472">
    <nd ref="346151250"/>
    <nd ref="346151251"/>
    <tag k="highway" v="service"/>
    <tag k="source" v="Yahoo Imagery"/>
  </way>
  <way id="31130307" version="4" timestamp="2011-10-10T12:40:21Z" uid="142807" user="SDavies" changeset="9521445">
    <nd ref="346151250"/>
    <nd ref="346151251"/>
    <nd ref="1461135438"/>
    <nd ref="1461135437"/>
    <tag k="highway" v="service"/>
    <tag k="source" v="Yahoo Imagery"/>
  </way>
  <way id="31130307" version="5" timestamp="2011-10-12T17:51:37Z" uid="142807" user="SDavies" changeset="9540791">
    <nd ref="346151250"/>
    <nd ref="1464166377"/>
    <nd ref="1464166322"/>
    <nd ref="1464166384"/>
    <nd ref="1464166386"/>
    <nd ref="346151251"/>
    <nd ref="1461135438"/>
    <nd ref="1461135437"/>
    <tag k="highway" v="service"/>
    <tag k="source" v="Yahoo Imagery"/>
  </way>
  <way id="31130636" version="4" timestamp="2009-09-01T11:06:10Z" uid="36809" user="pfoten_weg_!_" changeset="2335754">
    <nd ref="26790971"/>
    <nd ref="444207063"/>
    <nd ref="26483388"/>
    <tag k="highway" v="primary"/>
    <tag k="name" v="Wolfratshauser Straße"/>
    <tag k="ref" v="B 11"/>
    <tag k="source" v="survey"/>
  </way>
  <way id="31130636" version="5" timestamp="2009-10-13T23:49:54Z" uid="36809" user="pfoten_weg_!_" changeset="2841273">
    <nd ref="26790971"/>
    <nd ref="444207063"/>
    <nd ref="26483388"/>
    <tag k="highway" v="primary"/>
    <tag k="name" v="Wolfratshauser Straße"/>
    <tag k="ref" v="B 11"/>
  </way>
  <way id="31130636" version="6" timestamp="2012-02-26T21:11:38Z" uid="224490" user="Geo-Tobi" changeset="10803376">
    <nd ref="26790971"/>
    <nd ref="444207063"/>
    <nd ref="26483388"/>
    <tag k="highway" v="primary"/>
    <tag k="maxspeed" v="50"/>
    <tag k="name" v="Wolfratshauser Straße"/>
    <tag k="ref" v="B 11"/>
  </way>
  <way id="31130637" version="3" timestamp="2009-06-08T13:57:01Z" uid="36809" user="pfoten_weg_!_" changeset="1459025">
    <nd ref="26483388"/>
    <nd ref="21275984"/>
    <tag k="created_by" v="RambaZamba"/>
    <tag k="highway" v="primary"/>
    <tag k="name" v="Wolfratshauser Straße"/>
    <tag k="ref" v="B 11"/>
    <tag k="source" v="survey"/>
  </way>
  <way id="31130637" version="4" timestamp="2009-08-28T20:05:06Z" uid="156995" user="HampelZamba" changeset="2294580">
    <nd ref="26483388"/>
    <nd ref="21275984"/>
    <tag k="highway" v="primary"/>
    <tag k="name" v="Wolfratshauser Straße"/>
    <tag k="ref" v="B 11"/>
    <tag k="source" v="survey"/>
  </way>
  <way id="31130637" version="5" timestamp="2009-09-01T10:58:51Z" uid="36809" user="pfoten_weg_!_" changeset="2335754">
    <nd ref="26483388"/>
    <nd ref="21275984"/>
    <tag k="highway" v="primary"/>
    <tag k="name" v="Wolfratshauser Straße"/>
    <tag k="ref" v="B 11"/>
    <tag k="source" v="survey"/>
  </way>
  <way id="31130637" version="6" timestamp="2009-10-13T23:43:58Z" uid="36809" user="pfoten_weg_!_" changeset="2841273">
    <nd ref="26483388"/>
    <nd ref="21275984"/>
    <tag k="highway" v="primary"/>
    <tag k="name" v="Wolfratshauser Straße"/>
    <tag k="ref" v="B 11"/>
  </way>
  <way id="31130637" version="7" timestamp="2011-09-05T19:16:13Z" uid="220863" user="stefanwillmeroth" changeset="9220974">
    <nd ref="26483388"/>
    <nd ref="1424347776"/>
    <nd ref="1424347752"/>
    <nd ref="21275984"/>
    <tag k="highway" v="primary"/>
    <tag k="name" v="Wolfratshauser Straße"/>
    <tag k="ref" v="B 11"/>
  </way>
  <way id="31130637" version="8" timestamp="2011-11-06T10:49:12Z" uid="367380" user="Mloni" changeset="9753339">
    <nd ref="26483388"/>
    <nd ref="1424347776"/>
    <nd ref="1424347752"/>
    <nd ref="1493144774"/>
    <nd ref="1493144758"/>
    <tag k="highway" v="primary"/>
    <tag k="name" v="Wolfratshauser Straße"/>
    <tag k="ref" v="B 11"/>
  </way>
  <way id="31130637" version="9" timestamp="2012-02-26T21:11:39Z" uid="224490" user="Geo-Tobi" changeset="10803376">
    <nd ref="26483388"/>
    <nd ref="1424347776"/>
    <nd ref="1424347752"/>
    <nd ref="1493144774"/>
    <nd ref="1493144758"/>
    <tag k="highway" v="primary"/>
    <tag k="maxspeed" v="50"/>
    <tag k="name" v="Wolfratshauser Straße"/>
    <tag k="ref" v="B 11"/>
  </way>
  <way id="31130640" version="4" timestamp="2009-03-02T07:31:47Z" uid="36809" user="pfoten_weg_!_" changeset="722828"/>
  <way id="31130696" version="3" timestamp="2010-07-06T09:50:30Z" uid="74617" user="JohnSmith" changeset="5147679">
    <nd ref="26341683"/>
    <nd ref="439993849"/>
    <tag k="highway" v="residential"/>
    <tag k="maxspeed" v="50"/>
    <tag k="maxspeed:source" v="default residential speed limit in Australia"/>
    <tag k="name" v="Widdop Street"/>
  </way>
  <way id="31130696" version="4" timestamp="2012-01-18T06:13:46Z" uid="147510" user="woodpeck_fixbot" changeset="10424371">
    <nd ref="26341683"/>
    <nd ref="439993849"/>
    <tag k="highway" v="residential"/>
    <tag k="name" v="Widdop Street"/>
  </way>
  <way id="31130988" version="4" timestamp="2009-09-01T10:32:13Z" uid="36809" user="pfoten_weg_!_" changeset="2335754">
    <nd ref="26631500"/>
    <nd ref="21275987"/>
    <tag k="highway" v="residential"/>
    <tag k="name" v="Fraunbergstraße"/>
    <tag k="oneway" v="yes"/>
    <tag k="source" v="survey"/>
  </way>
  <way id="31130988" version="5" timestamp="2009-10-13T23:49:54Z" uid="36809" user="pfoten_weg_!_" changeset="2841273">
    <nd ref="26631500"/>
    <nd ref="21275987"/>
    <tag k="highway" v="residential"/>
    <tag k="name" v="Fraunbergstraße"/>
    <tag k="oneway" v="yes"/>
  </way>
  <way id="31130988" version="6" timestamp="2011-08-14T20:07:06Z" uid="118197" user="JosmJo" changeset="9020499">
    <nd ref="26631500"/>
    <nd ref="21275987"/>
    <tag k="highway" v="unclassified"/>
    <tag k="name" v="Fraunbergstraße"/>
    <tag k="oneway" v="yes"/>
  </way>
  <way id="31130988" version="7" timestamp="2012-02-25T11:53:37Z" uid="367380" user="Mloni" changeset="10786830">
    <nd ref="26631500"/>
    <nd ref="21275987"/>
    <tag k="highway" v="secondary"/>
    <tag k="name" v="Fraunbergstraße"/>
    <tag k="oneway" v="yes"/>
  </way>
  <way id="31130988" version="8" timestamp="2012-02-26T21:15:06Z" uid="224490" user="Geo-Tobi" changeset="10803421">
    <nd ref="26631500"/>
    <nd ref="21275987"/>
    <tag k="highway" v="secondary"/>
    <tag k="maxspeed" v="50"/>
    <tag k="name" v="Fraunbergstraße"/>
    <tag k="oneway" v="yes"/>
  </way>
  <way id="31130990" version="4" timestamp="2009-09-01T10:32:04Z" uid="36809" user="pfoten_weg_!_" changeset="2335754">
    <nd ref="21275987"/>
    <nd ref="26631560"/>
    <nd ref="295524702"/>
    <nd ref="26631561"/>
    <tag k="highway" v="residential"/>
    <tag k="name" v="Fraunbergstraße"/>
    <tag k="oneway" v="yes"/>
    <tag k="source" v="survey"/>
  </way>
  <way id="31130990" version="5" timestamp="2009-10-13T23:49:58Z" uid="36809" user="pfoten_weg_!_" changeset="2841273">
    <nd ref="21275987"/>
    <nd ref="26631560"/>
    <nd ref="295524702"/>
    <nd ref="26631561"/>
    <tag k="highway" v="residential"/>
    <tag k="name" v="Fraunbergstraße"/>
    <tag k="oneway" v="yes"/>
  </way>
  <way id="31130990" version="6" timestamp="2011-08-14T20:07:06Z" uid="118197" user="JosmJo" changeset="9020499">
    <nd ref="21275987"/>
    <nd ref="26631560"/>
    <nd ref="295524702"/>
    <nd ref="26631561"/>
    <tag k="highway" v="unclassified"/>
    <tag k="name" v="Fraunbergstraße"/>
    <tag k="oneway" v="yes"/>
  </way>
  <way id="31130990" version="7" timestamp="2012-02-25T11:53:38Z" uid="367380" user="Mloni" changeset="10786830">
    <nd ref="21275987"/>
    <nd ref="26631560"/>
    <nd ref="295524702"/>
    <nd ref="26631561"/>
    <tag k="highway" v="secondary"/>
    <tag k="name" v="Fraunbergstraße"/>
    <tag k="oneway" v="yes"/>
  </way>
  <way id="31130990" version="8" timestamp="2012-02-26T21:15:06Z" uid="224490" user="Geo-Tobi" changeset="10803421">
    <nd ref="21275987"/>
    <nd ref="26631560"/>
    <nd ref="295524702"/>
    <nd ref="26631561"/>
    <tag k="highway" v="secondary"/>
    <tag k="maxspeed" v="50"/>
    <tag k="name" v="Fraunbergstraße"/>
    <tag k="oneway" v="yes"/>
  </way>
</osm>
