<?xml version='1.0' encoding='UTF-8'?>
<osm version="0.6" generator="libosmium/2.20.0">
  <way id="31186077" version="5" timestamp="2009-10-14T00:02:47Z" uid="36809" user="pfoten_weg_!_" changeset="2841284">
    <nd ref="257702379"/>
    <nd ref="347055830"/>
    <tag k="area" v="yes"/>
    <tag k="highway" v="residential"/>
    <tag k="merano:way_id" v="684"/>
    <tag k="name" v="Bahnhofsplatz / Piazza Stazione"/>
    <tag k="name:de" v="Bahnhofsplatz"/>
    <tag k="name:it" v="Piazza Stazione"/>
  </way>
  <way id="31186077" version="6" timestamp="2010-02-01T14:05:45Z" uid="104458" user="Pixt" changeset="3767866">
    <nd ref="244048366"/>
    <tag k="area" v="yes"/>
    <tag k="highway" v="residential"/>
    <tag k="merano:way_id" v="684"/>
    <tag k="name" v="Bahnhofsplatz / Piazza Stazione"/>
    <tag k="name:de" v="Bahnhofsplatz"/>
    <tag k="name:it" v="Piazza Stazione"/>
  </way>
  <way id="31186077" version="7" timestamp="2010-02-01T15:06:40Z" uid="70696" user="xybot" changeset="3768327"/>
  <way id="31186254" version="2" timestamp="2009-10-14T00:02:48Z" uid="36809" user="pfoten_weg_!_" changeset="2841284">
    <nd ref="347055830"/>
    <nd ref="257702380"/>
    <nd ref="257702383"/>
    <tag k="area" v="yes"/>
    <tag k="highway" v="residential"/>
    <tag k="merano:way_id" v="684"/>
    <tag k="name" v="Bahnhofsplatz / Piazza Stazione"/>
    <tag k="name:de" v="Bahnhofsplatz"/>
    <tag k="name:it" v="Piazza Stazione"/>
  </way>
  <way id="31186254" version="3" timestamp="2010-02-01T14:05:46Z" uid="104458" user="Pixt" changeset="3767866"/>
  <way id="31186699" version="3" timestamp="2010-04-05T17:41:26Z" uid="163746" user="anti_bot-nonsense" changeset="4334877">
    <nd ref="347040906"/>
    <nd ref="347053472"/>
    <nd ref="347056169"/>
    <nd ref="347053470"/>
    <nd ref="347053466"/>
    <nd ref="347056168"/>
    <nd ref="347053462"/>
    <nd ref="347053460"/>
    <nd ref="347053457"/>
    <nd ref="347053453"/>
    <nd ref="347053451"/>
    <tag k="highway" v="primary"/>
    <tag k="name" v="Płocka"/>
    <tag k="oneway" v="yes"/>
    <tag k="ref" v="62"/>
  </way>
  <way id="31186699" version="4" timestamp="2011-01-10T03:34:36Z" uid="163896" user="Zbigniew Czernik" changeset="6922848">
    <nd ref="347040908"/>
    <nd ref="347053472"/>
    <nd ref="347056169"/>
    <nd ref="347053470"/>
    <nd ref="347053466"/>
    <nd ref="347056168"/>
    <nd ref="347053462"/>
    <nd ref="347053460"/>
    <nd ref="347053457"/>
    <nd ref="347053453"/>
    <nd ref="347053451"/>
    <tag k="highway" v="primary"/>
    <tag k="name" v="Płocka"/>
    <tag k="oneway" v="yes"/>
    <tag k="ref" v="62"/>
  </way>
</osm>
