<?xml version='1.0' encoding='UTF-8'?>
<osm version="0.6" generator="libosmium/2.20.0">
  <way id="31224014" version="1" timestamp="2009-02-18T05:14:44Z" uid="68769" user="david lynch" changeset="529739">
    <nd ref="347226095"/>
    <nd ref="347226295"/>
    <nd ref="152540258"/>
    <tag k="created_by" v="Potlatch 0.10f"/>
  </way>
  <way id="31224014" version="2" timestamp="2009-02-18T05:15:09Z" uid="68769" user="david lynch" changeset="529739">
    <nd ref="347226095"/>
    <nd ref="347226295"/>
    <nd ref="152540258"/>
    <tag k="created_by" v="Potlatch 0.10f"/>
    <tag k="highway" v="secondary"/>
    <tag k="name" v="W 38th St"/>
    <tag k="oneway" v="yes"/>
  </way>
  <way id="31224014" version="3" timestamp="2010-04-07T13:27:34Z" uid="20587" user="balrog-kun" changeset="4353646">
    <nd ref="347226095"/>
    <nd ref="347226295"/>
    <nd ref="152540258"/>
    <tag k="created_by" v="Potlatch 0.10f"/>
    <tag k="highway" v="secondary"/>
    <tag k="name" v="West 38th Street"/>
    <tag k="oneway" v="yes"/>
  </way>
  <way id="31224014" version="4" timestamp="2012-01-31T22:27:09Z" uid="92286" user="Paul Johnson" changeset="10551674">
    <nd ref="347226095"/>
    <nd ref="347226295"/>
    <nd ref="152540258"/>
    <tag k="highway" v="secondary"/>
    <tag k="name" v="West 38th Street"/>
    <tag k="odbl" v="clean"/>
    <tag k="oneway" v="yes"/>
  </way>
  <way id="31224016" version="1" timestamp="2009-02-18T05:14:44Z" uid="68769" user="david lynch" changeset="529739">
    <nd ref="152424039"/>
    <nd ref="347226299"/>
    <nd ref="347226300"/>
    <nd ref="347226095"/>
    <tag k="created_by" v="Potlatch 0.10f"/>
  </way>
  <way id="31224016" version="2" timestamp="2009-02-18T05:14:56Z" uid="68769" user="david lynch" changeset="529739">
    <nd ref="152424039"/>
    <nd ref="347226299"/>
    <nd ref="347226300"/>
    <nd ref="347226095"/>
    <tag k="created_by" v="Potlatch 0.10f"/>
    <tag k="highway" v="secondary"/>
    <tag k="name" v="W 35th St Cutoff"/>
  </way>
  <way id="31224016" version="3" timestamp="2009-02-18T05:15:13Z" uid="68769" user="david lynch" changeset="529739">
    <nd ref="152424039"/>
    <nd ref="347226299"/>
    <nd ref="347226300"/>
    <nd ref="347226095"/>
    <tag k="created_by" v="Potlatch 0.10f"/>
    <tag k="highway" v="secondary"/>
    <tag k="name" v="W 35th St Cutoff"/>
  </way>
  <way id="31224016" version="4" timestamp="2010-04-07T13:27:34Z" uid="20587" user="balrog-kun" changeset="4353646">
    <nd ref="152424039"/>
    <nd ref="347226299"/>
    <nd ref="347226300"/>
    <nd ref="347226095"/>
    <tag k="created_by" v="Potlatch 0.10f"/>
    <tag k="highway" v="secondary"/>
    <tag k="name" v="West 35th Street Cutoff"/>
  </way>
  <way id="31224016" version="5" timestamp="2011-08-21T16:54:31Z" uid="119881" user="Clorox" changeset="9086226">
    <nd ref="152424039"/>
    <nd ref="347226299"/>
    <nd ref="347226300"/>
    <nd ref="347226095"/>
    <tag k="highway" v="secondary"/>
    <tag k="name" v="West 35th Street Cutoff"/>
    <tag k="oneway" v="yes"/>
  </way>
  <way id="31224016" version="6" timestamp="2011-09-22T17:47:09Z" uid="119881" user="Clorox" changeset="9370733">
    <nd ref="152424039"/>
    <nd ref="347226299"/>
    <nd ref="347226300"/>
    <nd ref="1440547420"/>
    <nd ref="1440547421"/>
    <nd ref="347226095"/>
    <tag k="highway" v="secondary"/>
    <tag k="name" v="West 35th Street Cutoff"/>
    <tag k="oneway" v="yes"/>
  </way>
</osm>
