<?xml version='1.0' encoding='UTF-8'?>
<osm version="0.6" generator="libosmium/2.20.0">
  <way id="31284115" version="1" timestamp="2009-02-20T16:51:01Z" uid="58091" user="Andreas M" changeset="580553">
    <nd ref="25280891"/>
    <nd ref="272387572"/>
    <nd ref="685264"/>
    <tag k="created_by" v="Potlatch 0.10f"/>
    <tag k="highway" v="primary"/>
    <tag k="lanes" v="2"/>
    <tag k="maxspeed" v="50"/>
    <tag k="name" v="Schönbrunner Straße"/>
    <tag k="oneway" v="yes"/>
    <tag k="ref" v="B1"/>
  </way>
  <way id="31284115" version="2" timestamp="2010-05-21T21:28:28Z" uid="95813" user="stefan_hochstoeger" changeset="4770203">
    <nd ref="25280891"/>
    <nd ref="272387572"/>
    <nd ref="685264"/>
    <tag k="highway" v="primary"/>
    <tag k="lanes" v="2"/>
    <tag k="maxspeed" v="50"/>
    <tag k="name" v="Schönbrunner Straße"/>
    <tag k="oneway" v="yes"/>
    <tag k="ref" v="B1"/>
  </way>
  <way id="31284115" version="3" timestamp="2010-05-25T13:21:21Z" uid="95813" user="stefan_hochstoeger" changeset="4803506">
    <nd ref="25280891"/>
    <nd ref="272387572"/>
    <nd ref="685264"/>
    <tag k="highway" v="primary"/>
    <tag k="lanes" v="2"/>
    <tag k="maxspeed" v="50"/>
    <tag k="name" v="Schönbrunner Straße"/>
    <tag k="oneway" v="yes"/>
    <tag k="ref" v="B1"/>
  </way>
  <way id="31284115" version="4" timestamp="2011-12-26T18:11:01Z" uid="129531" user="almich" changeset="10209538"/>
  <way id="31284122" version="1" timestamp="2009-02-20T16:51:04Z" uid="58091" user="Andreas M" changeset="580553">
    <nd ref="378034"/>
    <nd ref="251064643"/>
    <nd ref="270328396"/>
    <tag k="created_by" v="Potlatch 0.10f"/>
    <tag k="highway" v="primary"/>
    <tag k="maxspeed" v="50"/>
    <tag k="name" v="Grünbergstraße"/>
    <tag k="oneway" v="yes"/>
    <tag k="ref" v="B224"/>
  </way>
  <way id="31284122" version="2" timestamp="2011-09-30T20:17:05Z" uid="95813" user="stefan_hochstoeger" changeset="9438433">
    <nd ref="378034"/>
    <nd ref="251064643"/>
    <nd ref="270328396"/>
    <tag k="highway" v="primary"/>
    <tag k="maxspeed" v="50"/>
    <tag k="name" v="Grünbergstraße"/>
    <tag k="oneway" v="yes"/>
    <tag k="ref" v="B224"/>
  </way>
  <way id="31284122" version="3" timestamp="2012-01-06T19:47:14Z" uid="129531" user="almich" changeset="10315161"/>
  <way id="31284129" version="1" timestamp="2009-02-20T16:51:07Z" uid="58091" user="Andreas M" changeset="580553">
    <nd ref="25280694"/>
    <nd ref="318256628"/>
    <nd ref="60632128"/>
    <tag k="created_by" v="Potlatch 0.10f"/>
    <tag k="highway" v="secondary"/>
    <tag k="name" v="Billrothstraße"/>
    <tag k="railway" v="tram"/>
    <tag k="source" v="yahoo"/>
  </way>
  <way id="31284129" version="2" timestamp="2010-01-18T17:19:31Z" uid="78656" user="Walter Schlögl" changeset="3651876">
    <nd ref="25280694"/>
    <nd ref="318256628"/>
    <nd ref="60632128"/>
    <tag k="highway" v="secondary"/>
    <tag k="maxspeed" v="50"/>
    <tag k="name" v="Billrothstraße"/>
    <tag k="railway" v="tram"/>
    <tag k="source" v="yahoo"/>
  </way>
  <way id="31284129" version="3" timestamp="2010-04-18T20:01:02Z" uid="129531" user="almich" changeset="4462273">
    <nd ref="25280694"/>
    <nd ref="318256628"/>
    <nd ref="60632128"/>
    <tag k="gauge" v="1435"/>
    <tag k="highway" v="secondary"/>
    <tag k="maxspeed" v="50"/>
    <tag k="name" v="Billrothstraße"/>
    <tag k="railway" v="tram"/>
    <tag k="source" v="yahoo"/>
  </way>
  <way id="31284129" version="4" timestamp="2010-04-18T20:25:48Z" uid="129531" user="almich" changeset="4462598">
    <nd ref="25280694"/>
    <nd ref="318256628"/>
    <nd ref="60632128"/>
    <tag k="electrified" v="contact_line"/>
    <tag k="frequency" v="0"/>
    <tag k="gauge" v="1435"/>
    <tag k="highway" v="secondary"/>
    <tag k="maxspeed" v="50"/>
    <tag k="name" v="Billrothstraße"/>
    <tag k="railway" v="tram"/>
    <tag k="source" v="yahoo"/>
  </way>
  <way id="31284129" version="5" timestamp="2011-09-20T08:09:38Z" uid="524314" user="annekirsch" changeset="9348920">
    <nd ref="25280694"/>
    <nd ref="60632128"/>
    <tag k="electrified" v="contact_line"/>
    <tag k="frequency" v="0"/>
    <tag k="gauge" v="1435"/>
    <tag k="highway" v="secondary"/>
    <tag k="maxspeed" v="50"/>
    <tag k="name" v="Billrothstraße"/>
    <tag k="railway" v="tram"/>
    <tag k="source" v="yahoo"/>
  </way>
  <way id="31284129" version="6" timestamp="2011-11-07T23:58:52Z" uid="129531" user="almich" changeset="9770029">
    <nd ref="25280694"/>
    <nd ref="60632128"/>
    <tag k="electrified" v="contact_line"/>
    <tag k="frequency" v="0"/>
    <tag k="gauge" v="1435"/>
    <tag k="highway" v="secondary"/>
    <tag k="maxspeed" v="50"/>
    <tag k="name" v="Billrothstraße"/>
    <tag k="railway" v="tram"/>
    <tag k="source" v="yahoo"/>
    <tag k="voltage" v="600"/>
  </way>
  <way id="31284307" version="2" timestamp="2010-04-03T13:44:35Z" uid="20587" user="balrog-kun" changeset="4312927">
    <nd ref="348069717"/>
    <nd ref="84409198"/>
    <tag k="highway" v="residential"/>
    <tag k="name" v="South 2025 West"/>
    <tag k="tiger:cfcc" v="A41"/>
    <tag k="tiger:county" v="Weber, UT"/>
    <tag k="tiger:name_base" v="2025"/>
    <tag k="tiger:name_direction_prefix" v="S"/>
    <tag k="tiger:name_direction_suffix" v="W"/>
    <tag k="tiger:separated" v="no"/>
    <tag k="tiger:source" v="tiger_import_dch_v0.6_20070830"/>
    <tag k="tiger:tlid" v="155692530:155692531:155692422:155692426"/>
    <tag k="tiger:zip_left" v="84067"/>
    <tag k="tiger:zip_right" v="84067"/>
  </way>
  <way id="31284315" version="2" timestamp="2010-04-03T13:44:36Z" uid="20587" user="balrog-kun" changeset="4312927">
    <nd ref="84433074"/>
    <nd ref="348070060"/>
    <nd ref="348070053"/>
    <nd ref="84433654"/>
    <nd ref="84399320"/>
    <nd ref="84430837"/>
    <tag k="highway" v="residential"/>
    <tag k="name" v="South 2400 West"/>
    <tag k="name_1" v="2400 West Street"/>
    <tag k="tiger:cfcc" v="A41"/>
    <tag k="tiger:county" v="Weber, UT"/>
    <tag k="tiger:name_base" v="2400 West"/>
    <tag k="tiger:name_base_1" v="2400"/>
    <tag k="tiger:name_direction_prefix_1" v="S"/>
    <tag k="tiger:name_direction_suffix_1" v="W"/>
    <tag k="tiger:name_type" v="St"/>
    <tag k="tiger:separated" v="no"/>
    <tag k="tiger:source" v="tiger_import_dch_v0.6_20070830"/>
    <tag k="tiger:tlid" v="155692430:155692355:155692356:155692358"/>
    <tag k="tiger:zip_left" v="84067"/>
    <tag k="tiger:zip_right" v="84067"/>
  </way>
  <way id="31284315" version="3" timestamp="2011-04-27T05:25:24Z" uid="65769" user="Val" changeset="7981455">
    <nd ref="84433074"/>
    <nd ref="348070060"/>
    <nd ref="1261655153"/>
    <nd ref="348070053"/>
    <nd ref="84433654"/>
    <nd ref="1261655049"/>
    <nd ref="84399320"/>
    <nd ref="84430837"/>
    <tag k="highway" v="residential"/>
    <tag k="name" v="South 2400 West"/>
    <tag k="name_1" v="2400 West Street"/>
    <tag k="tiger:cfcc" v="A41"/>
    <tag k="tiger:county" v="Weber, UT"/>
    <tag k="tiger:name_base" v="2400 West"/>
    <tag k="tiger:name_base_1" v="2400"/>
    <tag k="tiger:name_direction_prefix_1" v="S"/>
    <tag k="tiger:name_direction_suffix_1" v="W"/>
    <tag k="tiger:name_type" v="St"/>
    <tag k="tiger:separated" v="no"/>
    <tag k="tiger:source" v="tiger_import_dch_v0.6_20070830"/>
    <tag k="tiger:tlid" v="155692430:155692355:155692356:155692358"/>
    <tag k="tiger:zip_left" v="84067"/>
    <tag k="tiger:zip_right" v="84067"/>
  </way>
  <way id="31284609" version="1" timestamp="2009-02-20T17:05:05Z" uid="58091" user="Andreas M" changeset="580553">
    <nd ref="31259137"/>
    <nd ref="33183651"/>
    <tag k="created_by" v="Potlatch 0.10f"/>
    <tag k="highway" v="tertiary"/>
    <tag k="is_in" v="Austria, Europe,Vienna,Wien"/>
    <tag k="name" v="Josefstädter Straße"/>
    <tag k="railway" v="tram"/>
    <tag k="source" v="yahoo"/>
  </way>
  <way id="31284609" version="2" timestamp="2010-04-18T20:00:30Z" uid="129531" user="almich" changeset="4462273">
    <nd ref="31259137"/>
    <nd ref="33183651"/>
    <tag k="gauge" v="1435"/>
    <tag k="highway" v="tertiary"/>
    <tag k="is_in" v="Austria, Europe,Vienna,Wien"/>
    <tag k="name" v="Josefstädter Straße"/>
    <tag k="railway" v="tram"/>
    <tag k="source" v="yahoo"/>
  </way>
  <way id="31284609" version="3" timestamp="2010-04-18T20:25:21Z" uid="129531" user="almich" changeset="4462598">
    <nd ref="31259137"/>
    <nd ref="33183651"/>
    <tag k="electrified" v="contact_line"/>
    <tag k="frequency" v="0"/>
    <tag k="gauge" v="1435"/>
    <tag k="highway" v="tertiary"/>
    <tag k="is_in" v="Austria, Europe,Vienna,Wien"/>
    <tag k="name" v="Josefstädter Straße"/>
    <tag k="railway" v="tram"/>
    <tag k="source" v="yahoo"/>
  </way>
  <way id="31284609" version="4" timestamp="2011-07-22T01:26:35Z" uid="439883" user="romge" changeset="8794153"/>
  <way id="31284611" version="1" timestamp="2009-02-20T17:05:06Z" uid="58091" user="Andreas M" changeset="580553">
    <nd ref="33183651"/>
    <nd ref="314318429"/>
    <nd ref="25267624"/>
    <nd ref="31673331"/>
    <nd ref="33183656"/>
    <nd ref="31673334"/>
    <nd ref="31262598"/>
    <nd ref="314318424"/>
    <tag k="created_by" v="Potlatch 0.10f"/>
    <tag k="highway" v="tertiary"/>
    <tag k="is_in" v="Austria, Europe,Vienna,Wien"/>
    <tag k="name" v="Josefstädter Straße"/>
    <tag k="railway" v="tram"/>
    <tag k="source" v="yahoo"/>
  </way>
  <way id="31284611" version="2" timestamp="2009-10-21T16:38:03Z" uid="12295" user="mapper_07" changeset="2914084">
    <nd ref="33183651"/>
    <nd ref="314318429"/>
    <nd ref="25267624"/>
    <nd ref="31673331"/>
    <nd ref="33183656"/>
    <nd ref="31673334"/>
    <nd ref="31262598"/>
    <nd ref="314318424"/>
    <tag k="highway" v="tertiary"/>
    <tag k="is_in" v="Austria, Europe,Vienna,Wien"/>
    <tag k="maxspeed" v="50"/>
    <tag k="name" v="Josefstädter Straße"/>
    <tag k="railway" v="tram"/>
    <tag k="source" v="yahoo"/>
  </way>
  <way id="31284611" version="3" timestamp="2010-04-18T19:57:37Z" uid="129531" user="almich" changeset="4462273">
    <nd ref="33183651"/>
    <nd ref="314318429"/>
    <nd ref="25267624"/>
    <nd ref="31673331"/>
    <nd ref="33183656"/>
    <nd ref="31673334"/>
    <nd ref="31262598"/>
    <nd ref="314318424"/>
    <tag k="gauge" v="1435"/>
    <tag k="highway" v="tertiary"/>
    <tag k="is_in" v="Austria, Europe,Vienna,Wien"/>
    <tag k="maxspeed" v="50"/>
    <tag k="name" v="Josefstädter Straße"/>
    <tag k="railway" v="tram"/>
    <tag k="source" v="yahoo"/>
  </way>
  <way id="31284611" version="4" timestamp="2010-04-18T20:23:07Z" uid="129531" user="almich" changeset="4462598">
    <nd ref="33183651"/>
    <nd ref="314318429"/>
    <nd ref="25267624"/>
    <nd ref="31673331"/>
    <nd ref="33183656"/>
    <nd ref="31673334"/>
    <nd ref="31262598"/>
    <nd ref="314318424"/>
    <tag k="electrified" v="contact_line"/>
    <tag k="frequency" v="0"/>
    <tag k="gauge" v="1435"/>
    <tag k="highway" v="tertiary"/>
    <tag k="is_in" v="Austria, Europe,Vienna,Wien"/>
    <tag k="maxspeed" v="50"/>
    <tag k="name" v="Josefstädter Straße"/>
    <tag k="railway" v="tram"/>
    <tag k="source" v="yahoo"/>
  </way>
  <way id="31284611" version="5" timestamp="2011-01-23T17:50:57Z" uid="13786" user="robotnic" changeset="7064739">
    <nd ref="314318429"/>
    <nd ref="33183651"/>
    <nd ref="314318429"/>
    <nd ref="25267624"/>
    <nd ref="31673331"/>
    <nd ref="33183656"/>
    <nd ref="31673334"/>
    <nd ref="31262598"/>
    <nd ref="314318424"/>
    <tag k="electrified" v="contact_line"/>
    <tag k="frequency" v="0"/>
    <tag k="gauge" v="1435"/>
    <tag k="highway" v="tertiary"/>
    <tag k="is_in" v="Austria, Europe,Vienna,Wien"/>
    <tag k="maxspeed" v="50"/>
    <tag k="name" v="Josefstädter Straße"/>
    <tag k="railway" v="tram"/>
    <tag k="source" v="yahoo"/>
  </way>
  <way id="31284611" version="6" timestamp="2011-01-30T08:42:42Z" uid="211966" user="Hetzi" changeset="7131158"/>
  <way id="31284785" version="9" timestamp="2009-04-15T05:53:38Z" uid="6975" user="ulfl" changeset="553994">
    <nd ref="348076167"/>
    <nd ref="348076168"/>
    <nd ref="348076447"/>
    <nd ref="348076170"/>
    <nd ref="348076171"/>
    <nd ref="348076167"/>
    <tag k="landuse" v="cemetery"/>
  </way>
  <way id="31284785" version="10" timestamp="2012-03-15T06:20:06Z" uid="393959" user="erge50" changeset="10985143">
    <nd ref="348076167"/>
    <nd ref="348076168"/>
    <nd ref="348076447"/>
    <nd ref="1675420291"/>
    <nd ref="348076170"/>
    <nd ref="348076171"/>
    <nd ref="348076167"/>
    <tag k="landuse" v="cemetery"/>
  </way>
  <way id="31284785" version="11" timestamp="2012-03-18T09:12:11Z" uid="31231" user="Andre68" changeset="11016247">
    <nd ref="348076167"/>
    <nd ref="348076168"/>
    <nd ref="348076447"/>
    <nd ref="1675420291"/>
    <nd ref="312160322"/>
    <nd ref="312160323"/>
    <nd ref="312160555"/>
    <nd ref="348076167"/>
    <tag k="landuse" v="cemetery"/>
  </way>
</osm>
