<?xml version='1.0' encoding='UTF-8'?>
<osm version="0.6" generator="libosmium/2.20.0">
  <way id="31340129" version="6" timestamp="2010-07-23T08:43:38Z" uid="4467" user="Rosscoe" changeset="5293680">
    <nd ref="286383345"/>
    <nd ref="829887094"/>
    <tag k="bridge" v="yes"/>
    <tag k="cycleway" v="track"/>
    <tag k="foot" v="yes"/>
    <tag k="highway" v="cycleway"/>
    <tag k="layer" v="1"/>
    <tag k="name" v="Swingy Bridge"/>
  </way>
  <way id="31340730" version="1" timestamp="2009-02-22T11:10:52Z" uid="58091" user="Andreas M" changeset="606483">
    <nd ref="685121"/>
    <nd ref="69222447"/>
    <nd ref="685122"/>
    <nd ref="34797087"/>
    <nd ref="148414858"/>
    <nd ref="685124"/>
    <tag k="created_by" v="Potlatch 0.10f"/>
    <tag k="highway" v="primary"/>
    <tag k="lanes" v="2"/>
    <tag k="maxspeed" v="50"/>
    <tag k="name" v="Rechte Wienzeile"/>
    <tag k="oneway" v="yes"/>
    <tag k="ref" v="B1"/>
  </way>
  <way id="31340730" version="2" timestamp="2010-05-21T21:30:21Z" uid="95813" user="stefan_hochstoeger" changeset="4770203">
    <nd ref="685121"/>
    <nd ref="69222447"/>
    <nd ref="685122"/>
    <nd ref="34797087"/>
    <nd ref="148414858"/>
    <nd ref="685124"/>
    <tag k="highway" v="primary"/>
    <tag k="lanes" v="2"/>
    <tag k="maxspeed" v="50"/>
    <tag k="name" v="Rechte Wienzeile"/>
    <tag k="oneway" v="yes"/>
    <tag k="ref" v="B1"/>
  </way>
  <way id="31340730" version="3" timestamp="2010-05-25T13:22:11Z" uid="95813" user="stefan_hochstoeger" changeset="4803506">
    <nd ref="685121"/>
    <nd ref="69222447"/>
    <nd ref="685122"/>
    <nd ref="34797087"/>
    <nd ref="148414858"/>
    <nd ref="685124"/>
    <tag k="highway" v="primary"/>
    <tag k="lanes" v="2"/>
    <tag k="maxspeed" v="50"/>
    <tag k="name" v="Rechte Wienzeile"/>
    <tag k="oneway" v="yes"/>
    <tag k="ref" v="B1"/>
  </way>
  <way id="31340730" version="4" timestamp="2010-12-03T11:47:25Z" uid="49642" user="realadry" changeset="6525257">
    <nd ref="685121"/>
    <nd ref="69222447"/>
    <nd ref="685122"/>
    <nd ref="1018033360"/>
    <nd ref="34797087"/>
    <nd ref="148414858"/>
    <nd ref="685124"/>
    <tag k="highway" v="primary"/>
    <tag k="lanes" v="2"/>
    <tag k="maxspeed" v="50"/>
    <tag k="name" v="Rechte Wienzeile"/>
    <tag k="oneway" v="yes"/>
    <tag k="ref" v="B1"/>
  </way>
  <way id="31340730" version="5" timestamp="2011-07-19T23:08:06Z" uid="29320" user="Komяpa" changeset="8773801">
    <nd ref="685121"/>
    <nd ref="69222447"/>
    <nd ref="1367251224"/>
    <nd ref="685122"/>
    <nd ref="1367251232"/>
    <nd ref="1018033360"/>
    <nd ref="34797087"/>
    <nd ref="148414858"/>
    <nd ref="685124"/>
    <tag k="highway" v="primary"/>
    <tag k="lanes" v="2"/>
    <tag k="maxspeed" v="50"/>
    <tag k="name" v="Rechte Wienzeile"/>
    <tag k="oneway" v="yes"/>
    <tag k="ref" v="B1"/>
  </way>
  <way id="31340730" version="6" timestamp="2011-07-27T15:20:00Z" uid="29320" user="Komяpa" changeset="8845915">
    <nd ref="685121"/>
    <nd ref="69222447"/>
    <nd ref="1367251224"/>
    <nd ref="685122"/>
    <nd ref="1367251232"/>
    <nd ref="1018033360"/>
    <nd ref="34797087"/>
    <nd ref="1375940604"/>
    <nd ref="148414858"/>
    <nd ref="685124"/>
    <tag k="highway" v="primary"/>
    <tag k="lanes" v="2"/>
    <tag k="maxspeed" v="50"/>
    <tag k="name" v="Rechte Wienzeile"/>
    <tag k="oneway" v="yes"/>
    <tag k="ref" v="B1"/>
  </way>
  <way id="31340730" version="7" timestamp="2012-01-21T01:18:05Z" uid="129531" user="almich" changeset="10452200"/>
  <way id="31340731" version="1" timestamp="2009-02-22T11:10:52Z" uid="58091" user="Andreas M" changeset="606483">
    <nd ref="34762440"/>
    <nd ref="34762439"/>
    <nd ref="685121"/>
    <tag k="created_by" v="Potlatch 0.10"/>
    <tag k="highway" v="residential"/>
    <tag k="name" v="Preßgasse"/>
    <tag k="oneway" v="yes"/>
  </way>
  <way id="31340731" version="2" timestamp="2010-02-28T15:25:29Z" uid="28427" user="skunk" changeset="3999281">
    <nd ref="34762440"/>
    <nd ref="34762439"/>
    <nd ref="656338827"/>
    <nd ref="685121"/>
    <tag k="highway" v="residential"/>
    <tag k="name" v="Preßgasse"/>
    <tag k="oneway" v="yes"/>
  </way>
  <way id="31340731" version="3" timestamp="2011-07-19T23:08:06Z" uid="29320" user="Komяpa" changeset="8773801">
    <nd ref="34762440"/>
    <nd ref="34762439"/>
    <nd ref="1367251212"/>
    <nd ref="656338827"/>
    <nd ref="685121"/>
    <tag k="highway" v="residential"/>
    <tag k="name" v="Preßgasse"/>
    <tag k="oneway" v="yes"/>
  </way>
  <way id="31340732" version="1" timestamp="2009-02-22T11:10:53Z" uid="58091" user="Andreas M" changeset="606483">
    <nd ref="34762440"/>
    <nd ref="48071917"/>
    <nd ref="34774204"/>
    <tag k="created_by" v="Potlatch 0.10b"/>
    <tag k="fixme" v="yes"/>
    <tag k="highway" v="residential"/>
    <tag k="name" v="Mühlgasse"/>
    <tag k="oneway" v="yes"/>
    <tag k="source" v="yahoo"/>
  </way>
  <way id="31340732" version="2" timestamp="2011-07-19T23:40:27Z" uid="29320" user="Komяpa" changeset="8773957">
    <nd ref="34762440"/>
    <nd ref="1367290652"/>
    <nd ref="48071917"/>
    <nd ref="1367290717"/>
    <nd ref="34774204"/>
    <tag k="fixme" v="yes"/>
    <tag k="highway" v="residential"/>
    <tag k="name" v="Mühlgasse"/>
    <tag k="oneway" v="yes"/>
    <tag k="source" v="yahoo"/>
  </way>
  <way id="31340732" version="3" timestamp="2011-07-27T15:19:58Z" uid="29320" user="Komяpa" changeset="8845915">
    <nd ref="34762440"/>
    <nd ref="1367290652"/>
    <nd ref="1375939759"/>
    <nd ref="48071917"/>
    <nd ref="1367290717"/>
    <nd ref="34774204"/>
    <tag k="fixme" v="yes"/>
    <tag k="highway" v="residential"/>
    <tag k="name" v="Mühlgasse"/>
    <tag k="oneway" v="yes"/>
    <tag k="source" v="yahoo"/>
  </way>
  <way id="31340732" version="4" timestamp="2011-12-01T08:46:26Z" uid="94492" user="haddock1" changeset="10006129">
    <nd ref="34762440"/>
    <nd ref="1367290652"/>
    <nd ref="1526046850"/>
    <nd ref="1375939759"/>
    <nd ref="48071917"/>
    <nd ref="1367290717"/>
    <nd ref="34774204"/>
    <tag k="fixme" v="yes"/>
    <tag k="highway" v="residential"/>
    <tag k="name" v="Mühlgasse"/>
    <tag k="oneway" v="yes"/>
    <tag k="source" v="yahoo"/>
  </way>
  <way id="31340732" version="5" timestamp="2011-12-01T08:54:04Z" uid="94492" user="haddock1" changeset="10006176">
    <nd ref="34762440"/>
    <nd ref="1367290652"/>
    <nd ref="1526046850"/>
    <tag k="fixme" v="yes"/>
    <tag k="highway" v="residential"/>
    <tag k="name" v="Mühlgasse"/>
    <tag k="oneway" v="yes"/>
    <tag k="source" v="yahoo"/>
  </way>
  <way id="31340733" version="1" timestamp="2009-02-22T11:10:53Z" uid="58091" user="Andreas M" changeset="606483">
    <nd ref="35475941"/>
    <nd ref="35476029"/>
    <tag k="created_by" v="Potlatch 0.10f"/>
    <tag k="highway" v="residential"/>
    <tag k="name" v="Heumühlgasse"/>
    <tag k="oneway" v="yes"/>
  </way>
  <way id="31340733" version="2" timestamp="2010-06-02T16:47:40Z" uid="297356" user="kieselchen" changeset="4885751">
    <nd ref="35475941"/>
    <nd ref="35476029"/>
    <tag k="highway" v="residential"/>
    <tag k="name" v="Heumühlgasse"/>
    <tag k="oneway" v="yes"/>
  </way>
  <way id="31340734" version="1" timestamp="2009-02-22T11:10:53Z" uid="58091" user="Andreas M" changeset="606483">
    <nd ref="35476029"/>
    <nd ref="685118"/>
    <nd ref="685116"/>
    <tag k="created_by" v="Potlatch 0.10f"/>
    <tag k="highway" v="residential"/>
    <tag k="name" v="Heumühlgasse"/>
    <tag k="oneway" v="yes"/>
  </way>
  <way id="31340734" version="2" timestamp="2011-07-19T23:08:05Z" uid="29320" user="Komяpa" changeset="8773801">
    <nd ref="35476029"/>
    <nd ref="685118"/>
    <nd ref="1367251206"/>
    <nd ref="685116"/>
    <tag k="highway" v="residential"/>
    <tag k="name" v="Heumühlgasse"/>
    <tag k="oneway" v="yes"/>
  </way>
  <way id="31340735" version="1" timestamp="2009-02-22T11:10:54Z" uid="58091" user="Andreas M" changeset="606483">
    <nd ref="685289"/>
    <nd ref="46959154"/>
    <nd ref="46959159"/>
    <nd ref="46959481"/>
    <nd ref="685291"/>
    <tag k="created_by" v="Potlatch 0.10f"/>
    <tag k="highway" v="residential"/>
    <tag k="name" v="Schönbrunner Straße"/>
    <tag k="oneway" v="yes"/>
  </way>
  <way id="31340735" version="2" timestamp="2010-03-21T13:05:34Z" uid="104947" user="My Friend" changeset="4190626">
    <nd ref="685289"/>
    <nd ref="46959154"/>
    <nd ref="46959159"/>
    <nd ref="46959481"/>
    <nd ref="685291"/>
    <tag k="highway" v="tertiary"/>
    <tag k="name" v="Schönbrunner Straße"/>
    <tag k="oneway" v="yes"/>
  </way>
  <way id="31340735" version="3" timestamp="2011-07-07T13:46:52Z" uid="439883" user="romge" changeset="8657664">
    <nd ref="685289"/>
    <nd ref="1352578180"/>
    <nd ref="46959154"/>
    <nd ref="46959159"/>
    <nd ref="46959481"/>
    <nd ref="685291"/>
    <tag k="highway" v="tertiary"/>
    <tag k="name" v="Schönbrunner Straße"/>
    <tag k="oneway" v="yes"/>
  </way>
  <way id="31340735" version="4" timestamp="2011-07-14T10:40:00Z" uid="439883" user="romge" changeset="8720743">
    <nd ref="685289"/>
    <nd ref="1352578180"/>
    <nd ref="46959154"/>
    <nd ref="46959159"/>
    <nd ref="46959481"/>
    <nd ref="1361284690"/>
    <nd ref="685291"/>
    <tag k="highway" v="tertiary"/>
    <tag k="name" v="Schönbrunner Straße"/>
    <tag k="oneway" v="yes"/>
  </way>
  <way id="31340735" version="5" timestamp="2011-07-19T08:11:34Z" uid="439883" user="romge" changeset="8765821">
    <nd ref="685289"/>
    <nd ref="1352578180"/>
    <nd ref="1366393928"/>
    <nd ref="46959154"/>
    <nd ref="46959159"/>
    <nd ref="46959481"/>
    <nd ref="1361284690"/>
    <nd ref="685291"/>
    <tag k="highway" v="tertiary"/>
    <tag k="name" v="Schönbrunner Straße"/>
    <tag k="oneway" v="yes"/>
  </way>
  <way id="31340736" version="1" timestamp="2009-02-22T11:10:54Z" uid="58091" user="Andreas M" changeset="606483">
    <nd ref="46959546"/>
    <nd ref="46959552"/>
    <nd ref="46959557"/>
    <nd ref="46959566"/>
    <nd ref="319791215"/>
    <nd ref="319791216"/>
    <nd ref="30675733"/>
    <tag k="created_by" v="Potlatch 0.10f"/>
    <tag k="highway" v="tertiary"/>
    <tag k="lcn" v="yes"/>
    <tag k="name" v="Margaretenstraße"/>
    <tag k="oneway" v="yes"/>
    <tag k="source" v="yahoo"/>
  </way>
  <way id="31340736" version="2" timestamp="2009-12-29T09:32:01Z" uid="55636" user="hjanko" changeset="3478641">
    <nd ref="46959546"/>
    <nd ref="46959552"/>
    <nd ref="46959557"/>
    <nd ref="46959566"/>
    <nd ref="319791215"/>
    <nd ref="319791216"/>
    <nd ref="30675733"/>
    <tag k="highway" v="tertiary"/>
    <tag k="lcn" v="yes"/>
    <tag k="name" v="Margaretenstraße"/>
    <tag k="oneway" v="yes"/>
    <tag k="source" v="yahoo"/>
  </way>
  <way id="31340736" version="3" timestamp="2011-06-10T22:05:36Z" uid="439883" user="romge" changeset="8401424">
    <nd ref="46959546"/>
    <nd ref="46959552"/>
    <nd ref="46959557"/>
    <nd ref="46959566"/>
    <nd ref="319791215"/>
    <nd ref="30675733"/>
    <tag k="highway" v="tertiary"/>
    <tag k="lcn" v="yes"/>
    <tag k="name" v="Margaretenstraße"/>
    <tag k="oneway" v="yes"/>
    <tag k="source" v="yahoo"/>
  </way>
  <way id="31340736" version="4" timestamp="2011-06-24T21:52:29Z" uid="439883" user="romge" changeset="8537630">
    <nd ref="46959546"/>
    <nd ref="1337616091"/>
    <nd ref="46959552"/>
    <nd ref="46959557"/>
    <nd ref="46959566"/>
    <nd ref="319791215"/>
    <nd ref="30675733"/>
    <tag k="highway" v="tertiary"/>
    <tag k="lcn" v="yes"/>
    <tag k="name" v="Margaretenstraße"/>
    <tag k="oneway" v="yes"/>
    <tag k="source" v="yahoo"/>
  </way>
  <way id="31340736" version="5" timestamp="2011-06-25T16:17:29Z" uid="439883" user="romge" changeset="8544283">
    <nd ref="46959546"/>
    <nd ref="1337616091"/>
    <nd ref="1338527763"/>
    <nd ref="46959557"/>
    <nd ref="46959566"/>
    <nd ref="319791215"/>
    <nd ref="30675733"/>
    <tag k="highway" v="tertiary"/>
    <tag k="lcn" v="yes"/>
    <tag k="name" v="Margaretenstraße"/>
    <tag k="oneway" v="yes"/>
    <tag k="source" v="yahoo"/>
  </way>
  <way id="31340736" version="6" timestamp="2011-06-25T23:28:15Z" uid="439883" user="romge" changeset="8547658">
    <nd ref="46959546"/>
    <nd ref="1337616091"/>
    <nd ref="1338527763"/>
    <nd ref="46959557"/>
    <nd ref="46959566"/>
    <nd ref="319791215"/>
    <nd ref="1339090976"/>
    <nd ref="30675733"/>
    <tag k="highway" v="tertiary"/>
    <tag k="lcn" v="yes"/>
    <tag k="name" v="Margaretenstraße"/>
    <tag k="oneway" v="yes"/>
    <tag k="source" v="yahoo"/>
  </way>
  <way id="31340736" version="7" timestamp="2011-06-25T23:35:00Z" uid="439883" user="romge" changeset="8547682">
    <nd ref="46959546"/>
    <nd ref="1337616091"/>
    <nd ref="1338527763"/>
    <nd ref="46959557"/>
    <nd ref="46959566"/>
    <nd ref="319791215"/>
    <nd ref="1339090976"/>
    <nd ref="30675733"/>
    <tag k="highway" v="tertiary"/>
    <tag k="lcn" v="yes"/>
    <tag k="name" v="Margaretenstraße"/>
    <tag k="oneway" v="yes"/>
  </way>
  <way id="31340736" version="8" timestamp="2011-07-11T19:17:46Z" uid="439883" user="romge" changeset="8696708">
    <nd ref="46959546"/>
    <nd ref="1358151225"/>
    <nd ref="1337616091"/>
    <nd ref="1338527763"/>
    <nd ref="46959557"/>
    <nd ref="46959566"/>
    <nd ref="319791215"/>
    <nd ref="1339090976"/>
    <nd ref="30675733"/>
    <tag k="highway" v="tertiary"/>
    <tag k="lcn" v="yes"/>
    <tag k="name" v="Margaretenstraße"/>
    <tag k="oneway" v="yes"/>
  </way>
  <way id="31340737" version="1" timestamp="2009-02-22T11:10:54Z" uid="58091" user="Andreas M" changeset="606483">
    <nd ref="46959546"/>
    <nd ref="46959651"/>
    <nd ref="46959620"/>
    <tag k="created_by" v="Potlatch 0.10f"/>
    <tag k="highway" v="residential"/>
    <tag k="name" v="Ramperstorffergasse"/>
    <tag k="oneway" v="no"/>
    <tag k="source" v="yahoo"/>
  </way>
  <way id="31340737" version="2" timestamp="2011-06-27T21:58:29Z" uid="439883" user="romge" changeset="8566910">
    <nd ref="46959546"/>
    <nd ref="46959651"/>
    <nd ref="1341730524"/>
    <nd ref="46959620"/>
    <tag k="highway" v="residential"/>
    <tag k="name" v="Ramperstorffergasse"/>
    <tag k="oneway" v="no"/>
    <tag k="source" v="yahoo"/>
  </way>
  <way id="31340737" version="3" timestamp="2011-07-11T19:17:47Z" uid="439883" user="romge" changeset="8696708">
    <nd ref="46959546"/>
    <nd ref="1358151222"/>
    <nd ref="46959651"/>
    <nd ref="1341730524"/>
    <nd ref="46959620"/>
    <tag k="highway" v="residential"/>
    <tag k="name" v="Ramperstorffergasse"/>
    <tag k="oneway" v="no"/>
    <tag k="source" v="yahoo"/>
  </way>
  <way id="31340737" version="4" timestamp="2011-07-21T20:13:57Z" uid="439883" user="romge" changeset="8792262">
    <nd ref="46959546"/>
    <nd ref="1358151222"/>
    <nd ref="46959651"/>
    <nd ref="1369383704"/>
    <nd ref="1341730524"/>
    <nd ref="46959620"/>
    <tag k="highway" v="residential"/>
    <tag k="name" v="Ramperstorffergasse"/>
    <tag k="oneway" v="no"/>
    <tag k="source" v="yahoo"/>
  </way>
  <way id="31340738" version="1" timestamp="2009-02-22T11:10:55Z" uid="58091" user="Andreas M" changeset="606483">
    <nd ref="78217229"/>
    <nd ref="78185943"/>
    <tag k="created_by" v="Potlatch 0.10f"/>
    <tag k="highway" v="primary"/>
    <tag k="name" v="Eichenstraße"/>
    <tag k="oneway" v="yes"/>
    <tag k="ref" v="B12"/>
  </way>
  <way id="31340738" version="2" timestamp="2010-01-19T20:40:22Z" uid="78656" user="Walter Schlögl" changeset="3662060">
    <nd ref="78217229"/>
    <nd ref="78185943"/>
    <tag k="highway" v="primary"/>
    <tag k="maxspeed" v="50"/>
    <tag k="name" v="Eichenstraße"/>
    <tag k="oneway" v="yes"/>
    <tag k="ref" v="B12"/>
  </way>
  <way id="31340738" version="3" timestamp="2012-01-06T21:36:40Z" uid="129531" user="almich" changeset="10316425"/>
  <way id="31340739" version="1" timestamp="2009-02-22T11:10:55Z" uid="58091" user="Andreas M" changeset="606483">
    <nd ref="344594624"/>
    <nd ref="274619055"/>
    <nd ref="61768036"/>
    <nd ref="78225087"/>
    <tag k="created_by" v="Potlatch 0.10f"/>
    <tag k="highway" v="primary"/>
    <tag k="name" v="Eichenstraße"/>
    <tag k="oneway" v="yes"/>
    <tag k="ref" v="B12"/>
  </way>
  <way id="31340739" version="2" timestamp="2009-02-24T17:50:16Z" uid="58091" user="Andreas M" changeset="656764">
    <nd ref="344594624"/>
    <nd ref="351677713"/>
    <nd ref="274619055"/>
    <nd ref="61768036"/>
    <nd ref="78225087"/>
    <tag k="created_by" v="Potlatch 0.10f"/>
    <tag k="highway" v="primary"/>
    <tag k="name" v="Eichenstraße"/>
    <tag k="oneway" v="yes"/>
    <tag k="ref" v="B12"/>
  </way>
  <way id="31340739" version="3" timestamp="2009-09-17T10:04:36Z" uid="104947" user="My Friend" changeset="2510644">
    <nd ref="344594624"/>
    <nd ref="351677713"/>
    <nd ref="274619055"/>
    <nd ref="61768036"/>
    <nd ref="498844322"/>
    <tag k="highway" v="primary"/>
    <tag k="name" v="Eichenstraße"/>
    <tag k="oneway" v="yes"/>
    <tag k="ref" v="B12"/>
  </way>
  <way id="31340739" version="4" timestamp="2010-01-19T20:39:09Z" uid="78656" user="Walter Schlögl" changeset="3662048">
    <nd ref="344594624"/>
    <nd ref="351677713"/>
    <nd ref="274619055"/>
    <nd ref="61768036"/>
    <nd ref="498844322"/>
    <tag k="highway" v="primary"/>
    <tag k="maxspeed" v="50"/>
    <tag k="name" v="Eichenstraße"/>
    <tag k="oneway" v="yes"/>
    <tag k="ref" v="B12"/>
  </way>
  <way id="31340739" version="5" timestamp="2011-03-13T12:50:50Z" uid="104947" user="My Friend" changeset="7544347">
    <nd ref="344594624"/>
    <nd ref="351677713"/>
    <nd ref="274619055"/>
    <nd ref="1200092857"/>
    <nd ref="61768036"/>
    <nd ref="498844322"/>
    <tag k="highway" v="primary"/>
    <tag k="maxspeed" v="50"/>
    <tag k="name" v="Eichenstraße"/>
    <tag k="oneway" v="yes"/>
    <tag k="ref" v="B12"/>
  </way>
  <way id="31340739" version="6" timestamp="2011-03-22T09:34:51Z" uid="302363" user="fkv" changeset="7635281">
    <nd ref="344594624"/>
    <nd ref="351677713"/>
    <nd ref="274619055"/>
    <nd ref="1200092857"/>
    <nd ref="61768036"/>
    <nd ref="498844322"/>
    <tag k="highway" v="primary"/>
    <tag k="maxspeed" v="50"/>
    <tag k="name" v="Eichenstraße"/>
    <tag k="oneway" v="yes"/>
    <tag k="ref" v="B12"/>
    <tag k="source:maxspeed" v="AT:urban"/>
  </way>
  <way id="31340739" version="7" timestamp="2011-03-22T10:02:19Z" uid="302363" user="fkv" changeset="7635487">
    <nd ref="344594624"/>
    <nd ref="351677713"/>
    <nd ref="1200092857"/>
    <nd ref="61768036"/>
    <nd ref="498844322"/>
    <tag k="highway" v="primary"/>
    <tag k="maxspeed" v="50"/>
    <tag k="name" v="Eichenstraße"/>
    <tag k="oneway" v="yes"/>
    <tag k="ref" v="B12"/>
    <tag k="source:maxspeed" v="AT:urban"/>
  </way>
  <way id="31340739" version="8" timestamp="2012-01-06T21:36:40Z" uid="129531" user="almich" changeset="10316425"/>
  <way id="31340740" version="4" timestamp="2010-07-07T09:54:51Z" uid="74617" user="JohnSmith" changeset="5156250">
    <nd ref="589246931"/>
    <nd ref="581816523"/>
    <nd ref="581816522"/>
    <nd ref="233872177"/>
    <nd ref="581816455"/>
    <nd ref="349052811"/>
    <nd ref="349052816"/>
    <tag k="highway" v="residential"/>
    <tag k="maxspeed" v="50"/>
    <tag k="maxspeed:source" v="default residential speed limit in Australia"/>
    <tag k="name" v="Rowan Street"/>
    <tag k="source" v="survey"/>
  </way>
  <way id="31340740" version="5" timestamp="2012-01-18T07:44:17Z" uid="147510" user="woodpeck_fixbot" changeset="10424702">
    <nd ref="589246931"/>
    <nd ref="581816523"/>
    <nd ref="581816522"/>
    <nd ref="233872177"/>
    <nd ref="581816455"/>
    <nd ref="349052811"/>
    <nd ref="349052816"/>
    <tag k="highway" v="residential"/>
    <tag k="name" v="Rowan Street"/>
    <tag k="source" v="survey"/>
  </way>
  <way id="31340741" version="3" timestamp="2010-04-27T02:19:32Z" uid="74617" user="JohnSmith" changeset="4537635"/>
  <way id="31340818" version="9" timestamp="2010-06-01T02:54:01Z" uid="4467" user="Rosscoe" changeset="4871102">
    <nd ref="349055069"/>
    <nd ref="322495750"/>
    <nd ref="364649451"/>
    <nd ref="665096561"/>
    <nd ref="664314899"/>
    <nd ref="665096549"/>
    <tag k="highway" v="tertiary"/>
    <tag k="maxspeed" v="60"/>
    <tag k="name" v="Olympic Parade"/>
  </way>
  <way id="31340818" version="10" timestamp="2010-09-20T21:49:27Z" uid="320632" user="Zulu99" changeset="5833320">
    <nd ref="349055069"/>
    <nd ref="919891869"/>
    <nd ref="919891867"/>
    <tag k="highway" v="tertiary"/>
    <tag k="maxspeed" v="60"/>
    <tag k="name" v="Olympic Parade"/>
  </way>
  <way id="31340820" version="5" timestamp="2010-04-05T03:05:46Z" uid="4467" user="Rosscoe" changeset="4328970"/>
  <way id="31340823" version="6" timestamp="2010-03-16T21:59:27Z" uid="163746" user="anti_bot-nonsense" changeset="4147354">
    <nd ref="238472733"/>
    <nd ref="355971665"/>
    <nd ref="238474419"/>
    <nd ref="238472727"/>
    <nd ref="238472721"/>
    <tag k="highway" v="service"/>
    <tag k="motorcar" v="no"/>
    <tag k="oneway" v="yes"/>
  </way>
  <way id="31340823" version="7" timestamp="2010-04-17T10:00:08Z" uid="19417" user="xjr" changeset="4446075"/>
  <way id="31340829" version="3" timestamp="2010-03-16T21:59:26Z" uid="163746" user="anti_bot-nonsense" changeset="4147354">
    <nd ref="238472721"/>
    <nd ref="238472720"/>
    <nd ref="238472715"/>
    <nd ref="238472492"/>
    <tag k="highway" v="service"/>
    <tag k="motorcar" v="no"/>
    <tag k="oneway" v="yes"/>
  </way>
  <way id="31340829" version="4" timestamp="2010-04-17T09:59:58Z" uid="19417" user="xjr" changeset="4446075">
    <nd ref="699650216"/>
    <nd ref="699650215"/>
    <nd ref="699650217"/>
    <nd ref="699650218"/>
    <nd ref="238472720"/>
    <nd ref="238472715"/>
    <nd ref="238472492"/>
    <tag k="highway" v="service"/>
    <tag k="motorcar" v="no"/>
    <tag k="oneway" v="yes"/>
  </way>
  <way id="31340829" version="5" timestamp="2010-04-17T10:09:11Z" uid="19417" user="xjr" changeset="4446146">
    <nd ref="699650214"/>
    <nd ref="699650216"/>
    <nd ref="699650215"/>
    <nd ref="699650217"/>
    <nd ref="699650218"/>
    <nd ref="238472720"/>
    <nd ref="238472715"/>
    <nd ref="238472492"/>
    <tag k="highway" v="service"/>
    <tag k="motorcar" v="no"/>
    <tag k="oneway" v="yes"/>
  </way>
  <way id="31340872" version="7" timestamp="2009-09-18T11:39:36Z" uid="20587" user="balrog-kun" changeset="2523165">
    <nd ref="31219239"/>
    <nd ref="471762497"/>
    <nd ref="471381240"/>
    <nd ref="471381318"/>
    <nd ref="348132991"/>
    <nd ref="31219245"/>
    <nd ref="31219246"/>
    <nd ref="31219248"/>
    <nd ref="31219249"/>
    <nd ref="471790221"/>
    <nd ref="31219253"/>
    <nd ref="463015419"/>
    <nd ref="254884798"/>
    <nd ref="31219256"/>
    <nd ref="31219257"/>
    <nd ref="31219258"/>
    <nd ref="31219261"/>
    <nd ref="348270693"/>
    <nd ref="348270862"/>
    <nd ref="31219262"/>
    <nd ref="348271039"/>
    <nd ref="349000833"/>
    <nd ref="349000825"/>
    <nd ref="349000819"/>
    <nd ref="31219265"/>
    <nd ref="31219266"/>
    <nd ref="31219268"/>
    <nd ref="31219269"/>
    <nd ref="349000813"/>
    <nd ref="349000757"/>
    <nd ref="31219271"/>
    <nd ref="349000677"/>
    <nd ref="349000482"/>
    <nd ref="349000583"/>
    <nd ref="349000504"/>
    <nd ref="31219275"/>
    <nd ref="499850919"/>
    <nd ref="349000481"/>
    <nd ref="289845155"/>
    <nd ref="289845156"/>
    <tag k="highway" v="secondary"/>
    <tag k="ref" v="579"/>
  </way>
  <way id="31340872" version="8" timestamp="2009-10-20T22:43:36Z" uid="20587" user="balrog-kun" changeset="2908055">
    <nd ref="31219239"/>
    <nd ref="537201538"/>
    <nd ref="537201536"/>
    <nd ref="537201533"/>
    <nd ref="537201527"/>
    <tag k="addr:city" v="Kałęczyn"/>
    <tag k="highway" v="secondary"/>
    <tag k="name" v="Radziejowicka"/>
    <tag k="ref" v="579"/>
  </way>
  <way id="31340872" version="9" timestamp="2010-03-07T16:45:07Z" uid="98542" user="wajak" changeset="4063075">
    <nd ref="31219239"/>
    <nd ref="662344404"/>
    <nd ref="537201538"/>
    <nd ref="537201536"/>
    <nd ref="537201533"/>
    <nd ref="537201527"/>
    <tag k="addr:city" v="Kałęczyn"/>
    <tag k="highway" v="secondary"/>
    <tag k="name" v="Radziejowicka"/>
    <tag k="ref" v="579"/>
  </way>
  <way id="31340872" version="10" timestamp="2011-03-05T12:44:17Z" uid="186174" user="michal_f" changeset="7462811">
    <nd ref="31219239"/>
    <nd ref="1187168273"/>
    <nd ref="662344404"/>
    <nd ref="537201538"/>
    <nd ref="537201536"/>
    <nd ref="537201533"/>
    <nd ref="537201527"/>
    <tag k="addr:city" v="Kałęczyn"/>
    <tag k="highway" v="secondary"/>
    <tag k="name" v="Radziejowicka"/>
    <tag k="ref" v="579"/>
  </way>
  <way id="31340872" version="11" timestamp="2011-04-08T18:09:27Z" uid="98542" user="wajak" changeset="7806432">
    <nd ref="31219239"/>
    <nd ref="662344404"/>
    <nd ref="537201538"/>
    <nd ref="537201536"/>
    <nd ref="537201533"/>
    <nd ref="537201527"/>
    <tag k="addr:city" v="Kałęczyn"/>
    <tag k="highway" v="secondary"/>
    <tag k="name" v="Radziejowicka"/>
    <tag k="ref" v="579"/>
  </way>
  <way id="31340872" version="12" timestamp="2011-06-05T17:06:12Z" uid="98542" user="wajak" changeset="8351477">
    <nd ref="31219239"/>
    <nd ref="662344404"/>
    <nd ref="1313261676"/>
    <nd ref="537201538"/>
    <nd ref="537201536"/>
    <nd ref="537201533"/>
    <nd ref="537201527"/>
    <tag k="addr:city" v="Kałęczyn"/>
    <tag k="highway" v="secondary"/>
    <tag k="name" v="Radziejowicka"/>
    <tag k="ref" v="579"/>
  </way>
  <way id="31340872" version="13" timestamp="2011-07-25T20:47:56Z" uid="98542" user="wajak" changeset="8830289">
    <nd ref="31219239"/>
    <nd ref="1374211071"/>
    <nd ref="662344404"/>
    <nd ref="1313261676"/>
    <nd ref="537201538"/>
    <nd ref="537201536"/>
    <nd ref="537201533"/>
    <nd ref="537201527"/>
    <tag k="addr:city" v="Kałęczyn"/>
    <tag k="highway" v="secondary"/>
    <tag k="name" v="Radziejowicka"/>
    <tag k="ref" v="579"/>
  </way>
  <way id="31340878" version="15" timestamp="2010-02-13T21:21:41Z" uid="20587" user="balrog-kun" changeset="3868613"/>
  <way id="31340956" version="2" timestamp="2010-04-04T21:55:37Z" uid="74617" user="JohnSmith" changeset="4327637">
    <nd ref="349056233"/>
    <nd ref="349056234"/>
    <tag k="bridge" v="yes"/>
    <tag k="highway" v="motorway"/>
    <tag k="layer" v="1"/>
    <tag k="name" v="Calder Freeway"/>
    <tag k="oneway" v="yes"/>
  </way>
  <way id="31340958" version="3" timestamp="2010-04-04T21:55:38Z" uid="74617" user="JohnSmith" changeset="4327637">
    <nd ref="349056234"/>
    <nd ref="259608705"/>
    <nd ref="259608706"/>
    <nd ref="259608707"/>
    <nd ref="259608708"/>
    <nd ref="259608709"/>
    <nd ref="259608710"/>
    <nd ref="259608711"/>
    <nd ref="259608712"/>
    <nd ref="259608713"/>
    <nd ref="259608572"/>
    <tag k="highway" v="motorway"/>
    <tag k="name" v="Calder Freeway"/>
    <tag k="oneway" v="yes"/>
  </way>
  <way id="31340959" version="9" timestamp="2010-04-04T21:55:38Z" uid="74617" user="JohnSmith" changeset="4327637">
    <nd ref="349056235"/>
    <nd ref="259608650"/>
    <nd ref="259608651"/>
    <nd ref="259608652"/>
    <nd ref="315016595"/>
    <nd ref="259608653"/>
    <nd ref="259608654"/>
    <nd ref="259608655"/>
    <nd ref="259608656"/>
    <nd ref="315016538"/>
    <nd ref="389380499"/>
    <nd ref="389380518"/>
    <nd ref="389380519"/>
    <nd ref="389380520"/>
    <nd ref="389380521"/>
    <tag k="highway" v="motorway"/>
    <tag k="lanes" v="2"/>
    <tag k="maxspeed" v="110"/>
    <tag k="name" v="Calder Freeway"/>
    <tag k="oneway" v="yes"/>
  </way>
  <way id="31340959" version="10" timestamp="2010-04-08T05:15:55Z" uid="11111" user="lakeyboy" changeset="4361015">
    <nd ref="349056235"/>
    <nd ref="259608650"/>
    <nd ref="259608651"/>
    <nd ref="259608652"/>
    <nd ref="315016595"/>
    <nd ref="259608653"/>
    <nd ref="259608654"/>
    <nd ref="259608655"/>
    <nd ref="259608656"/>
    <nd ref="315016538"/>
    <nd ref="389380499"/>
    <nd ref="389380518"/>
    <nd ref="389380519"/>
    <nd ref="688333519"/>
    <tag k="highway" v="motorway"/>
    <tag k="lanes" v="2"/>
    <tag k="maxspeed" v="110"/>
    <tag k="name" v="Calder Freeway"/>
    <tag k="oneway" v="yes"/>
  </way>
  <way id="31340959" version="11" timestamp="2010-04-08T05:17:59Z" uid="11111" user="lakeyboy" changeset="4361032"/>
  <way id="31340960" version="2" timestamp="2010-04-04T21:55:36Z" uid="74617" user="JohnSmith" changeset="4327637">
    <nd ref="349056236"/>
    <nd ref="349056235"/>
    <tag k="bridge" v="yes"/>
    <tag k="highway" v="motorway"/>
    <tag k="layer" v="1"/>
    <tag k="name" v="Calder Freeway"/>
    <tag k="oneway" v="yes"/>
  </way>
</osm>
