<?xml version='1.0' encoding='UTF-8'?>
<osm version="0.6" generator="libosmium/2.20.0">
  <way id="31390000" version="1" timestamp="2009-02-23T06:45:17Z" uid="34428" user="usm78-gis" changeset="626668">
    <nd ref="21729315"/>
    <nd ref="307530"/>
    <tag k="highway" v="primary"/>
    <tag k="name" v="Суворовский пр."/>
  </way>
  <way id="31390000" version="2" timestamp="2009-04-13T05:30:06Z" uid="30590" user="KekcuHa" changeset="465146">
    <nd ref="21729315"/>
    <nd ref="307530"/>
    <tag k="cladr:code" v="78000000000135800"/>
    <tag k="cladr:name" v="Суворовский"/>
    <tag k="cladr:suffix" v="Проспект"/>
    <tag k="highway" v="primary"/>
    <tag k="name" v="Суворовский пр."/>
  </way>
  <way id="31390000" version="3" timestamp="2010-05-26T10:46:45Z" uid="136198" user="tmprec" changeset="4811788">
    <nd ref="21729315"/>
    <nd ref="307530"/>
    <tag k="cladr:code" v="78000000000135800"/>
    <tag k="cladr:name" v="Суворовский"/>
    <tag k="cladr:suffix" v="Проспект"/>
    <tag k="highway" v="secondary"/>
    <tag k="name" v="Суворовский пр."/>
  </way>
  <way id="31390000" version="4" timestamp="2010-07-28T10:11:47Z" uid="127299" user="Batareikin" changeset="5336516">
    <nd ref="21729315"/>
    <nd ref="307530"/>
    <tag k="cladr:code" v="78000000000135800"/>
    <tag k="cladr:name" v="Суворовский"/>
    <tag k="cladr:suffix" v="Проспект"/>
    <tag k="highway" v="secondary"/>
    <tag k="name" v="Суворовский проспект"/>
  </way>
  <way id="31390000" version="5" timestamp="2010-09-29T20:08:03Z" uid="51045" user="Geogast" changeset="5914586">
    <nd ref="21729315"/>
    <nd ref="307530"/>
    <tag k="cladr:code" v="78000000000135800"/>
    <tag k="cladr:name" v="Суворовский"/>
    <tag k="cladr:suffix" v="Проспект"/>
    <tag k="highway" v="secondary"/>
    <tag k="name" v="Суворовский проспект"/>
    <tag k="trolley_wire" v="yes"/>
  </way>
  <way id="31390000" version="6" timestamp="2011-09-27T19:40:58Z" uid="143266" user="Sergey Astakhov" changeset="9413878">
    <nd ref="21729315"/>
    <nd ref="307530"/>
    <tag k="highway" v="secondary"/>
    <tag k="name" v="Суворовский проспект"/>
    <tag k="trolley_wire" v="yes"/>
  </way>
  <way id="31390003" version="1" timestamp="2009-02-23T06:45:18Z" uid="34428" user="usm78-gis" changeset="626668">
    <nd ref="245785837"/>
    <nd ref="245789788"/>
    <nd ref="245786843"/>
    <nd ref="245786844"/>
    <nd ref="245786845"/>
    <nd ref="245786846"/>
    <nd ref="245786847"/>
    <nd ref="245786848"/>
    <nd ref="245789773"/>
    <nd ref="245786849"/>
    <nd ref="245786850"/>
    <nd ref="245786851"/>
    <nd ref="245786852"/>
    <nd ref="245786853"/>
    <nd ref="245786854"/>
    <nd ref="245789759"/>
    <nd ref="245786855"/>
    <tag k="highway" v="track"/>
    <tag k="tracktype" v="grade5"/>
  </way>
  <way id="31390006" version="1" timestamp="2009-02-23T06:45:19Z" uid="34428" user="usm78-gis" changeset="626668">
    <nd ref="305132044"/>
    <nd ref="305132038"/>
    <tag k="highway" v="residential"/>
  </way>
  <way id="31390008" version="1" timestamp="2009-02-23T06:45:20Z" uid="34428" user="usm78-gis" changeset="626668">
    <nd ref="21746309"/>
    <nd ref="21746287"/>
    <nd ref="21746286"/>
    <tag k="highway" v="secondary"/>
    <tag k="lanes" v="4"/>
    <tag k="name" v="Большой пр. П.С."/>
    <tag k="oneway" v="yes"/>
  </way>
  <way id="31390008" version="2" timestamp="2009-06-02T17:43:38Z" uid="95117" user="one_half_3544" changeset="1406306">
    <nd ref="21746309"/>
    <nd ref="21746287"/>
    <nd ref="21746286"/>
    <tag k="cladr:code" v="78000000000018500"/>
    <tag k="highway" v="secondary"/>
    <tag k="lanes" v="4"/>
    <tag k="name" v="Большой пр. П.С."/>
    <tag k="oneway" v="yes"/>
  </way>
  <way id="31390008" version="3" timestamp="2010-05-25T11:22:10Z" uid="260929" user="indeyets" changeset="4802661">
    <nd ref="21746309"/>
    <nd ref="21746287"/>
    <nd ref="21746286"/>
    <tag k="cladr:code" v="78000000000018500"/>
    <tag k="highway" v="primary"/>
    <tag k="lanes" v="4"/>
    <tag k="name" v="Большой пр. П.С."/>
    <tag k="oneway" v="yes"/>
  </way>
  <way id="31390008" version="4" timestamp="2010-07-08T10:36:52Z" uid="290271" user="Zverik" changeset="5165094">
    <nd ref="21746309"/>
    <nd ref="21746287"/>
    <nd ref="21746286"/>
    <tag k="cladr:code" v="78000000000018500"/>
    <tag k="highway" v="primary"/>
    <tag k="lanes" v="4"/>
    <tag k="name" v="Большой проспект П.С."/>
    <tag k="oneway" v="yes"/>
  </way>
  <way id="31390008" version="5" timestamp="2010-08-24T11:00:56Z" uid="136198" user="tmprec" changeset="5578598">
    <nd ref="21746309"/>
    <nd ref="21746286"/>
    <tag k="cladr:code" v="78000000000018500"/>
    <tag k="highway" v="primary"/>
    <tag k="lanes" v="4"/>
    <tag k="name" v="Большой проспект П.С."/>
    <tag k="oneway" v="yes"/>
  </way>
  <way id="31390008" version="6" timestamp="2010-09-29T19:18:38Z" uid="51045" user="Geogast" changeset="5914586">
    <nd ref="21746309"/>
    <nd ref="21746286"/>
    <tag k="cladr:code" v="78000000000018500"/>
    <tag k="highway" v="primary"/>
    <tag k="lanes" v="4"/>
    <tag k="name" v="Большой проспект П.С."/>
    <tag k="oneway" v="yes"/>
    <tag k="trolley_wire" v="yes"/>
  </way>
  <way id="31390008" version="7" timestamp="2010-11-07T21:43:42Z" uid="290271" user="Zverik" changeset="6316395">
    <nd ref="21746309"/>
    <nd ref="21746286"/>
    <tag k="cladr:code" v="78000000000018500"/>
    <tag k="highway" v="primary"/>
    <tag k="lanes" v="4"/>
    <tag k="lit" v="yes"/>
    <tag k="name" v="Большой проспект П.С."/>
    <tag k="oneway" v="yes"/>
    <tag k="trolley_wire" v="yes"/>
  </way>
  <way id="31390008" version="8" timestamp="2011-05-30T16:10:31Z" uid="392109" user="GaM" changeset="8293494">
    <nd ref="21746309"/>
    <nd ref="21746286"/>
    <tag k="highway" v="primary"/>
    <tag k="lanes" v="4"/>
    <tag k="lit" v="yes"/>
    <tag k="name" v="Большой проспект П.С."/>
    <tag k="oneway" v="yes"/>
    <tag k="trolley_wire" v="yes"/>
  </way>
  <way id="31390008" version="9" timestamp="2011-09-02T07:22:00Z" uid="446083" user="yuryleb" changeset="9190673">
    <nd ref="21746309"/>
    <nd ref="21746286"/>
    <tag k="cladr:code" v="78000000000018500"/>
    <tag k="highway" v="primary"/>
    <tag k="lanes" v="4"/>
    <tag k="lanes:bus" v="1"/>
    <tag k="lit" v="yes"/>
    <tag k="name" v="Большой проспект П.С."/>
    <tag k="oneway" v="yes"/>
    <tag k="trolley_wire" v="yes"/>
  </way>
  <way id="31390008" version="10" timestamp="2011-09-27T19:04:06Z" uid="143266" user="Sergey Astakhov" changeset="9413528">
    <nd ref="21746309"/>
    <nd ref="21746286"/>
    <tag k="highway" v="primary"/>
    <tag k="lanes" v="4"/>
    <tag k="lanes:bus" v="1"/>
    <tag k="lit" v="yes"/>
    <tag k="name" v="Большой проспект П.С."/>
    <tag k="oneway" v="yes"/>
    <tag k="trolley_wire" v="yes"/>
  </way>
  <way id="31390008" version="11" timestamp="2011-11-14T23:13:32Z" uid="437809" user="Anton Khorev" changeset="9830232">
    <nd ref="21746309"/>
    <nd ref="1503516758"/>
    <nd ref="21746286"/>
    <tag k="highway" v="primary"/>
    <tag k="lanes" v="4"/>
    <tag k="lanes:bus" v="1"/>
    <tag k="lit" v="yes"/>
    <tag k="name" v="Большой проспект П.С."/>
    <tag k="oneway" v="yes"/>
    <tag k="trolley_wire" v="yes"/>
  </way>
  <way id="31390008" version="12" timestamp="2012-01-10T19:03:12Z" uid="24305" user="ZCC" changeset="10354126">
    <nd ref="21746309"/>
    <nd ref="1584901247"/>
    <tag k="highway" v="primary"/>
    <tag k="lanes" v="4"/>
    <tag k="lanes:bus" v="1"/>
    <tag k="lit" v="yes"/>
    <tag k="name" v="Большой проспект П.С."/>
    <tag k="oneway" v="yes"/>
    <tag k="trolley_wire" v="yes"/>
  </way>
  <way id="31390010" version="1" timestamp="2009-02-23T06:45:21Z" uid="34428" user="usm78-gis" changeset="626668">
    <nd ref="300555849"/>
    <nd ref="300555850"/>
    <tag k="highway" v="footway"/>
    <tag k="surface" v="paved"/>
  </way>
  <way id="31390013" version="1" timestamp="2009-02-23T06:45:21Z" uid="34428" user="usm78-gis" changeset="626668">
    <nd ref="298985440"/>
    <nd ref="298985448"/>
    <tag k="highway" v="footway"/>
  </way>
  <way id="31390013" version="2" timestamp="2011-07-27T17:05:16Z" uid="143266" user="Sergey Astakhov" changeset="8846748"/>
  <way id="31390016" version="1" timestamp="2009-02-23T06:45:22Z" uid="34428" user="usm78-gis" changeset="626668">
    <nd ref="90354661"/>
    <nd ref="90357812"/>
    <tag k="foot" v="yes"/>
    <tag k="highway" v="footway"/>
  </way>
  <way id="31390016" version="2" timestamp="2009-07-21T10:23:40Z" uid="118295" user="a1eks" changeset="1893568">
    <nd ref="90354661"/>
    <nd ref="444763495"/>
    <nd ref="90357812"/>
    <tag k="foot" v="yes"/>
    <tag k="highway" v="footway"/>
  </way>
  <way id="31390016" version="3" timestamp="2010-09-16T05:58:23Z" uid="136198" user="tmprec" changeset="5792528">
    <nd ref="90354661"/>
    <nd ref="444763495"/>
    <nd ref="90357812"/>
    <nd ref="90357782"/>
    <nd ref="90356207"/>
    <nd ref="90356440"/>
    <nd ref="90357793"/>
    <nd ref="90357828"/>
    <nd ref="444763561"/>
    <nd ref="411893810"/>
    <nd ref="411893813"/>
    <nd ref="411893811"/>
    <nd ref="444763562"/>
    <nd ref="444763563"/>
    <nd ref="90354662"/>
    <tag k="foot" v="yes"/>
    <tag k="highway" v="footway"/>
  </way>
  <way id="31390016" version="4" timestamp="2011-05-12T19:37:03Z" uid="399728" user="Autopro" changeset="8125645">
    <nd ref="90354661"/>
    <nd ref="444763495"/>
    <nd ref="90357812"/>
    <nd ref="90357782"/>
    <nd ref="90356207"/>
    <nd ref="90356440"/>
    <nd ref="90357793"/>
    <nd ref="90357828"/>
    <nd ref="444763561"/>
    <nd ref="411893810"/>
    <nd ref="1281976907"/>
    <tag k="foot" v="yes"/>
    <tag k="highway" v="footway"/>
  </way>
  <way id="31390018" version="1" timestamp="2009-02-23T06:45:23Z" uid="34428" user="usm78-gis" changeset="626668">
    <nd ref="26057096"/>
    <nd ref="26057124"/>
    <tag k="highway" v="secondary"/>
    <tag k="name" v="Салова ул."/>
    <tag k="oneway" v="yes"/>
  </way>
  <way id="31390018" version="2" timestamp="2009-03-09T09:05:09Z" uid="30590" user="KekcuHa" changeset="771541">
    <nd ref="26057096"/>
    <nd ref="26057124"/>
    <tag k="addr:postcode" v="192102"/>
    <tag k="cladr:code" v="78000000000123900"/>
    <tag k="cladr:name" v="Салова"/>
    <tag k="cladr:suffix" v="Улица"/>
    <tag k="highway" v="secondary"/>
    <tag k="name" v="Салова ул."/>
    <tag k="oneway" v="yes"/>
  </way>
  <way id="31390018" version="3" timestamp="2010-06-07T07:49:02Z" uid="136198" user="tmprec" changeset="4925552">
    <nd ref="26057096"/>
    <nd ref="26057124"/>
    <tag k="addr:postcode" v="192102"/>
    <tag k="cladr:code" v="78000000000123900"/>
    <tag k="cladr:name" v="Салова"/>
    <tag k="cladr:suffix" v="Улица"/>
    <tag k="highway" v="tertiary"/>
    <tag k="name" v="Салова ул."/>
    <tag k="oneway" v="yes"/>
  </way>
  <way id="31390018" version="4" timestamp="2010-06-08T18:04:45Z" uid="136198" user="tmprec" changeset="4939158">
    <nd ref="26057096"/>
    <nd ref="26057124"/>
    <tag k="addr:postcode" v="192102"/>
    <tag k="cladr:code" v="78000000000123900"/>
    <tag k="cladr:name" v="Салова"/>
    <tag k="cladr:suffix" v="Улица"/>
    <tag k="highway" v="unclassified"/>
    <tag k="name" v="Салова ул."/>
    <tag k="oneway" v="yes"/>
  </way>
  <way id="31390018" version="5" timestamp="2010-09-17T12:36:40Z" uid="301456" user="SoNiKa" changeset="5803254">
    <nd ref="26057096"/>
    <nd ref="26057124"/>
    <tag k="addr:postcode" v="192102"/>
    <tag k="cladr:code" v="78000000000123900"/>
    <tag k="cladr:name" v="Салова"/>
    <tag k="cladr:suffix" v="Улица"/>
    <tag k="highway" v="unclassified"/>
    <tag k="name" v="улица Салова"/>
    <tag k="oneway" v="yes"/>
  </way>
  <way id="31390018" version="6" timestamp="2010-10-15T10:02:33Z" uid="136198" user="tmprec" changeset="6047814">
    <nd ref="26057096"/>
    <nd ref="26057124"/>
    <tag k="addr:postcode" v="192102"/>
    <tag k="cladr:code" v="78000000000123900"/>
    <tag k="cladr:name" v="Салова"/>
    <tag k="cladr:suffix" v="Улица"/>
    <tag k="highway" v="secondary"/>
    <tag k="name" v="улица Салова"/>
    <tag k="oneway" v="yes"/>
  </way>
  <way id="31390018" version="7" timestamp="2010-11-11T08:38:21Z" uid="290271" user="Zverik" changeset="6341806">
    <nd ref="26057096"/>
    <nd ref="26057124"/>
    <tag k="addr:postcode" v="192102"/>
    <tag k="cladr:code" v="78000000000123900"/>
    <tag k="cladr:name" v="Салова"/>
    <tag k="cladr:suffix" v="Улица"/>
    <tag k="highway" v="secondary"/>
    <tag k="lit" v="yes"/>
    <tag k="name" v="улица Салова"/>
    <tag k="oneway" v="yes"/>
  </way>
  <way id="31390018" version="8" timestamp="2011-04-18T14:56:28Z" uid="392109" user="GaM" changeset="7897394">
    <nd ref="26057096"/>
    <nd ref="26057124"/>
    <tag k="addr:postcode" v="192102"/>
    <tag k="cladr:code" v="78000000000123900"/>
    <tag k="cladr:name" v="Салова"/>
    <tag k="cladr:suffix" v="Улица"/>
    <tag k="highway" v="secondary"/>
    <tag k="lit" v="yes"/>
    <tag k="maxspeed" v="60"/>
    <tag k="name" v="улица Салова"/>
    <tag k="oneway" v="yes"/>
  </way>
  <way id="31390018" version="9" timestamp="2011-08-29T16:30:19Z" uid="39040" user="Dinamik" changeset="9159285">
    <nd ref="26057096"/>
    <nd ref="26057124"/>
    <tag k="addr:postcode" v="192102"/>
    <tag k="cladr:code" v="78000000000123900"/>
    <tag k="cladr:name" v="Салова"/>
    <tag k="cladr:suffix" v="Улица"/>
    <tag k="highway" v="secondary"/>
    <tag k="lit" v="yes"/>
    <tag k="name" v="улица Салова"/>
    <tag k="oneway" v="yes"/>
  </way>
  <way id="31390018" version="10" timestamp="2011-09-27T19:31:02Z" uid="143266" user="Sergey Astakhov" changeset="9413826">
    <nd ref="26057096"/>
    <nd ref="26057124"/>
    <tag k="addr:postcode" v="192102"/>
    <tag k="highway" v="secondary"/>
    <tag k="lit" v="yes"/>
    <tag k="name" v="улица Салова"/>
    <tag k="oneway" v="yes"/>
  </way>
  <way id="31390440" version="5" timestamp="2010-04-07T13:29:07Z" uid="20587" user="balrog-kun" changeset="4353646">
    <nd ref="81744519"/>
    <nd ref="81744563"/>
    <nd ref="81744562"/>
    <tag k="created_by" v="Potlatch 0.10f"/>
    <tag k="highway" v="secondary"/>
    <tag k="name" v="North Grapevine Mills Boulevard"/>
    <tag k="tiger:cfcc" v="A41"/>
    <tag k="tiger:county" v="Dallas, TX"/>
    <tag k="tiger:name_base" v="Grapevine Mills"/>
    <tag k="tiger:name_direction_prefix" v="N"/>
    <tag k="tiger:name_type" v="Blvd"/>
    <tag k="tiger:separated" v="no"/>
    <tag k="tiger:source" v="tiger_import_dch_v0.6_20070829"/>
    <tag k="tiger:tlid" v="103274449"/>
  </way>
  <way id="31390440" version="6" timestamp="2010-10-10T19:53:09Z" uid="145781" user="Mara" changeset="6005943"/>
</osm>
