<?xml version='1.0' encoding='UTF-8'?>
<osm version="0.6" generator="libosmium/2.20.0">
  <way id="31415056" version="2" timestamp="2010-04-07T13:29:13Z" uid="20587" user="balrog-kun" changeset="4353646">
    <nd ref="350078070"/>
    <nd ref="350078076"/>
    <nd ref="350078083"/>
    <nd ref="350078090"/>
    <nd ref="350078093"/>
    <nd ref="350078097"/>
    <nd ref="350084838"/>
    <nd ref="350078102"/>
    <nd ref="350078104"/>
    <nd ref="350078108"/>
    <nd ref="350078114"/>
    <nd ref="350078117"/>
    <nd ref="350078121"/>
    <nd ref="350078126"/>
    <tag k="created_by" v="Potlatch 0.10f"/>
    <tag k="highway" v="residential"/>
    <tag k="name" v="Naranjo Drive"/>
  </way>
  <way id="31415081" version="1" timestamp="2009-02-23T16:05:51Z" uid="30632" user="antblant" changeset="635416">
    <nd ref="262648567"/>
    <nd ref="262648566"/>
    <nd ref="314370408"/>
    <nd ref="314370410"/>
    <nd ref="254067026"/>
    <nd ref="262648567"/>
    <tag k="created_by" v="Potlatch 0.10f"/>
    <tag k="leisure" v="park"/>
    <tag k="name" v="Plac imienia Janiny Szczerskiej"/>
  </way>
  <way id="31415081" version="2" timestamp="2009-11-03T01:42:09Z" uid="36809" user="pfoten_weg_!_" changeset="3021530">
    <nd ref="262648567"/>
    <nd ref="262648566"/>
    <nd ref="314370408"/>
    <nd ref="314370410"/>
    <nd ref="254067026"/>
    <nd ref="262648567"/>
    <tag k="leisure" v="park"/>
    <tag k="name" v="Plac imienia Janiny Szczerskiej"/>
  </way>
  <way id="31415081" version="3" timestamp="2010-11-14T23:19:24Z" uid="30632" user="antblant" changeset="6373381"/>
  <way id="31415107" version="1" timestamp="2009-02-23T16:06:47Z" uid="30632" user="antblant" changeset="635416">
    <nd ref="350172870"/>
    <nd ref="350172871"/>
    <nd ref="350172872"/>
    <nd ref="350172874"/>
    <nd ref="350172876"/>
    <nd ref="350172870"/>
    <tag k="created_by" v="Potlatch 0.10f"/>
  </way>
  <way id="31415107" version="2" timestamp="2009-02-23T16:07:22Z" uid="30632" user="antblant" changeset="635416">
    <nd ref="350172870"/>
    <nd ref="350172871"/>
    <nd ref="350172872"/>
    <nd ref="350172874"/>
    <nd ref="350172876"/>
    <nd ref="350172870"/>
    <tag k="created_by" v="Potlatch 0.10f"/>
    <tag k="leisure" v="park"/>
    <tag k="name" v="skwer imienia Michała Doliwo-Dobrowolskiego"/>
  </way>
  <way id="31415107" version="3" timestamp="2009-11-03T01:43:22Z" uid="36809" user="pfoten_weg_!_" changeset="3021530">
    <nd ref="350172870"/>
    <nd ref="350172871"/>
    <nd ref="350172872"/>
    <nd ref="350172874"/>
    <nd ref="350172876"/>
    <nd ref="350172870"/>
    <tag k="leisure" v="park"/>
    <tag k="name" v="skwer imienia Michała Doliwo-Dobrowolskiego"/>
  </way>
  <way id="31415107" version="4" timestamp="2010-05-20T08:15:51Z" uid="20587" user="balrog-kun" changeset="4754802">
    <nd ref="350172870"/>
    <nd ref="350172871"/>
    <nd ref="350172872"/>
    <nd ref="740501926"/>
    <nd ref="350172874"/>
    <nd ref="350172876"/>
    <nd ref="350172870"/>
    <tag k="leisure" v="park"/>
    <tag k="name" v="skwer imienia Michała Doliwo-Dobrowolskiego"/>
  </way>
  <way id="31415107" version="5" timestamp="2010-05-20T08:30:49Z" uid="20587" user="balrog-kun" changeset="4754802">
    <nd ref="350172870"/>
    <nd ref="350172871"/>
    <nd ref="350172872"/>
    <nd ref="740501926"/>
    <nd ref="350172874"/>
    <nd ref="350172876"/>
    <nd ref="350172870"/>
    <tag k="leisure" v="park"/>
    <tag k="name" v="skwer imienia Michała Doliwo-Dobrowolskiego"/>
  </way>
  <way id="31415113" version="2" timestamp="2010-03-20T03:58:59Z" uid="137033" user="lubomir" changeset="4176327">
    <nd ref="350172624"/>
    <nd ref="350172620"/>
    <nd ref="322699857"/>
    <nd ref="302136422"/>
    <nd ref="302136424"/>
    <nd ref="302146105"/>
    <nd ref="302146106"/>
    <nd ref="8790533"/>
    <tag k="highway" v="residential"/>
    <tag k="is_in" v="Trnovec nad Váhom"/>
    <tag k="name" v="Lesnícka"/>
  </way>
  <way id="31415113" version="3" timestamp="2011-02-04T11:25:19Z" uid="1994" user="didoa" changeset="7182128">
    <nd ref="350172624"/>
    <nd ref="350172620"/>
    <nd ref="322699857"/>
    <nd ref="302136422"/>
    <nd ref="302136424"/>
    <nd ref="1135482273"/>
    <nd ref="302146105"/>
    <nd ref="1135482190"/>
    <nd ref="302146106"/>
    <nd ref="8790533"/>
    <tag k="highway" v="residential"/>
    <tag k="is_in" v="Trnovec nad Váhom"/>
    <tag k="name" v="Lesnícka"/>
  </way>
  <way id="31415114" version="3" timestamp="2010-03-20T03:58:58Z" uid="137033" user="lubomir" changeset="4176327">
    <nd ref="322699891"/>
    <nd ref="350172629"/>
    <nd ref="350172634"/>
    <nd ref="350172644"/>
    <nd ref="350172665"/>
    <nd ref="350172648"/>
    <nd ref="350388392"/>
    <tag k="highway" v="residential"/>
    <tag k="is_in" v="Trnovec nad Váhom"/>
    <tag k="name" v="Cintorínska"/>
  </way>
  <way id="31415115" version="2" timestamp="2010-03-20T03:59:01Z" uid="137033" user="lubomir" changeset="4176327">
    <nd ref="322699893"/>
    <nd ref="350172629"/>
    <nd ref="350172783"/>
    <nd ref="350172659"/>
    <nd ref="350172651"/>
    <tag k="highway" v="residential"/>
    <tag k="is_in" v="Trnovec nad Váhom"/>
    <tag k="name" v="Pekárenská"/>
  </way>
  <way id="31415116" version="2" timestamp="2010-03-20T03:58:58Z" uid="137033" user="lubomir" changeset="4176327">
    <nd ref="350172665"/>
    <nd ref="350172656"/>
    <nd ref="350172659"/>
    <tag k="highway" v="residential"/>
    <tag k="is_in" v="Trnovec nad Váhom"/>
    <tag k="name" v="Staničná"/>
  </way>
  <way id="31415118" version="2" timestamp="2010-03-20T03:59:00Z" uid="137033" user="lubomir" changeset="4176327">
    <nd ref="350172679"/>
    <nd ref="350172684"/>
    <nd ref="350172689"/>
    <tag k="highway" v="residential"/>
    <tag k="is_in" v="Trnovec nad Váhom"/>
    <tag k="name" v="Okružná"/>
  </way>
  <way id="31415119" version="2" timestamp="2010-03-20T03:59:00Z" uid="137033" user="lubomir" changeset="4176327">
    <nd ref="350172684"/>
    <nd ref="350172708"/>
    <tag k="highway" v="residential"/>
    <tag k="is_in" v="Trnovec nad Váhom"/>
    <tag k="name" v="Okružná"/>
  </way>
  <way id="31415120" version="3" timestamp="2010-03-20T03:59:00Z" uid="137033" user="lubomir" changeset="4176327">
    <nd ref="350388127"/>
    <nd ref="350172711"/>
    <nd ref="350388367"/>
    <nd ref="350388165"/>
    <nd ref="350388196"/>
    <nd ref="350388227"/>
    <nd ref="350388262"/>
    <nd ref="350388290"/>
    <nd ref="350388311"/>
    <tag k="highway" v="residential"/>
    <tag k="is_in" v="Trnovec nad Váhom"/>
    <tag k="name" v="Lipová"/>
  </way>
  <way id="31415123" version="3" timestamp="2010-03-20T03:58:58Z" uid="137033" user="lubomir" changeset="4176327">
    <nd ref="350172698"/>
    <nd ref="350172669"/>
    <nd ref="350172679"/>
    <nd ref="350388196"/>
    <tag k="highway" v="residential"/>
    <tag k="is_in" v="Trnovec nad Váhom"/>
    <tag k="name" v="Pri Vermeku"/>
  </way>
  <way id="31415124" version="2" timestamp="2010-03-20T03:58:58Z" uid="137033" user="lubomir" changeset="4176327">
    <nd ref="350172693"/>
    <nd ref="350172708"/>
    <nd ref="350172698"/>
    <tag k="highway" v="residential"/>
    <tag k="is_in" v="Trnovec nad Váhom"/>
    <tag k="name" v="Okružná"/>
  </way>
  <way id="31415125" version="2" timestamp="2010-03-20T03:59:01Z" uid="137033" user="lubomir" changeset="4176327">
    <nd ref="322699892"/>
    <nd ref="350172721"/>
    <tag k="highway" v="residential"/>
    <tag k="is_in" v="Trnovec nad Váhom"/>
    <tag k="name" v="Školská"/>
  </way>
  <way id="31415127" version="2" timestamp="2010-03-20T03:59:01Z" uid="137033" user="lubomir" changeset="4176327">
    <nd ref="322699894"/>
    <nd ref="350172769"/>
    <nd ref="350172775"/>
    <tag k="highway" v="residential"/>
    <tag k="is_in" v="Trnovec nad Váhom"/>
    <tag k="name" v="Štadiónová"/>
  </way>
  <way id="31415128" version="2" timestamp="2010-03-20T03:59:01Z" uid="137033" user="lubomir" changeset="4176327">
    <nd ref="350172780"/>
    <nd ref="350172783"/>
    <tag k="highway" v="residential"/>
    <tag k="is_in" v="Trnovec nad Váhom"/>
    <tag k="name" v="Píšťalová"/>
  </way>
  <way id="31415132" version="2" timestamp="2010-03-20T03:59:01Z" uid="137033" user="lubomir" changeset="4176327">
    <nd ref="31273386"/>
    <nd ref="350172935"/>
    <tag k="highway" v="residential"/>
    <tag k="is_in" v="Trnovec nad Váhom"/>
    <tag k="name" v="Spojná"/>
  </way>
  <way id="31415133" version="2" timestamp="2010-03-20T03:59:01Z" uid="137033" user="lubomir" changeset="4176327">
    <nd ref="350172954"/>
    <nd ref="350172952"/>
    <nd ref="350172962"/>
    <tag k="highway" v="residential"/>
    <tag k="is_in" v="Trnovec nad Váhom"/>
    <tag k="name" v="Dlhá"/>
  </way>
  <way id="31415133" version="3" timestamp="2011-01-25T21:47:33Z" uid="153139" user="Prescott" changeset="7088205">
    <nd ref="350172954"/>
    <nd ref="350172952"/>
    <nd ref="350172962"/>
    <nd ref="1120390131"/>
    <nd ref="1120385070"/>
    <tag k="highway" v="residential"/>
    <tag k="is_in" v="Trnovec nad Váhom"/>
    <tag k="name" v="Dlhá"/>
  </way>
  <way id="31415134" version="2" timestamp="2010-03-20T03:59:01Z" uid="137033" user="lubomir" changeset="4176327">
    <nd ref="350172952"/>
    <nd ref="350172935"/>
    <nd ref="350172944"/>
    <tag k="highway" v="residential"/>
    <tag k="is_in" v="Trnovec nad Váhom"/>
    <tag k="name" v="Spojná"/>
  </way>
  <way id="31415135" version="2" timestamp="2010-03-20T03:59:01Z" uid="137033" user="lubomir" changeset="4176327">
    <nd ref="322699895"/>
    <nd ref="350172977"/>
    <tag k="highway" v="residential"/>
    <tag k="is_in" v="Trnovec nad Váhom"/>
    <tag k="name" v="Športová"/>
  </way>
  <way id="31415137" version="2" timestamp="2010-03-20T03:59:01Z" uid="137033" user="lubomir" changeset="4176327">
    <nd ref="350172993"/>
    <nd ref="350172977"/>
    <tag k="highway" v="residential"/>
    <tag k="is_in" v="Trnovec nad Váhom"/>
    <tag k="name" v="Športová"/>
  </way>
  <way id="31415664" version="2" timestamp="2010-03-20T03:59:00Z" uid="137033" user="lubomir" changeset="4176327">
    <nd ref="350185860"/>
    <nd ref="350185880"/>
    <nd ref="350185882"/>
    <nd ref="350185887"/>
    <tag k="highway" v="residential"/>
    <tag k="is_in" v="Trnovec nad Váhom"/>
    <tag k="name" v="Majerská"/>
  </way>
  <way id="31415665" version="3" timestamp="2010-03-20T03:59:00Z" uid="137033" user="lubomir" changeset="4176327">
    <nd ref="350185887"/>
    <nd ref="350185900"/>
    <nd ref="350185905"/>
    <tag k="highway" v="residential"/>
    <tag k="is_in" v="Trnovec nad Váhom"/>
    <tag k="name" v="Majerská"/>
  </way>
  <way id="31415665" version="4" timestamp="2011-01-25T21:47:31Z" uid="153139" user="Prescott" changeset="7088205">
    <nd ref="350185887"/>
    <nd ref="350185900"/>
    <nd ref="350185905"/>
    <nd ref="350185911"/>
    <tag k="highway" v="residential"/>
    <tag k="is_in" v="Trnovec nad Váhom"/>
    <tag k="name" v="Majerská"/>
  </way>
  <way id="31415666" version="2" timestamp="2010-03-20T03:59:00Z" uid="137033" user="lubomir" changeset="4176327">
    <nd ref="350185905"/>
    <nd ref="350185910"/>
    <nd ref="350185911"/>
    <tag k="highway" v="residential"/>
    <tag k="is_in" v="Trnovec nad Váhom"/>
    <tag k="name" v="Majerská"/>
  </way>
  <way id="31415666" version="3" timestamp="2011-01-25T21:47:35Z" uid="153139" user="Prescott" changeset="7088205"/>
  <way id="31415667" version="3" timestamp="2010-07-23T23:37:21Z" uid="137033" user="lubomir" changeset="5299899">
    <nd ref="350185917"/>
    <nd ref="350189788"/>
    <nd ref="350185922"/>
    <nd ref="350185867"/>
    <tag k="embankment" v="yes"/>
    <tag k="highway" v="track"/>
  </way>
  <way id="31415667" version="4" timestamp="2011-02-04T11:25:07Z" uid="1994" user="didoa" changeset="7182128">
    <nd ref="350185917"/>
    <nd ref="350189788"/>
    <nd ref="1135482255"/>
    <nd ref="350185922"/>
    <nd ref="350185867"/>
    <tag k="embankment" v="yes"/>
    <tag k="highway" v="track"/>
  </way>
  <way id="31415668" version="6" timestamp="2010-07-23T23:37:27Z" uid="137033" user="lubomir" changeset="5299899">
    <nd ref="350325254"/>
    <nd ref="350189757"/>
    <tag k="highway" v="track"/>
    <tag k="is_in" v="Trnovec nad Váhom"/>
    <tag k="surface" v="grass"/>
    <tag k="tracktype" v="grade5"/>
  </way>
  <way id="31415669" version="2" timestamp="2010-03-20T03:58:59Z" uid="137033" user="lubomir" changeset="4176327">
    <nd ref="350185935"/>
    <nd ref="350185931"/>
    <nd ref="350185924"/>
    <tag k="highway" v="residential"/>
    <tag k="is_in" v="Trnovec nad Váhom"/>
  </way>
  <way id="31415670" version="2" timestamp="2010-03-20T03:59:00Z" uid="137033" user="lubomir" changeset="4176327">
    <nd ref="350185924"/>
    <nd ref="350185952"/>
    <tag k="highway" v="residential"/>
    <tag k="is_in" v="Trnovec nad Váhom"/>
    <tag k="name" v="Nový rad"/>
  </way>
  <way id="31415671" version="2" timestamp="2010-03-20T03:59:00Z" uid="137033" user="lubomir" changeset="4176327">
    <nd ref="350185971"/>
    <nd ref="350185980"/>
    <nd ref="350185952"/>
    <nd ref="350185966"/>
    <nd ref="350185955"/>
    <tag k="highway" v="residential"/>
    <tag k="is_in" v="Trnovec nad Váhom"/>
    <tag k="name" v="Mlynárska"/>
  </way>
  <way id="31415671" version="3" timestamp="2011-02-04T11:25:18Z" uid="1994" user="didoa" changeset="7182128">
    <nd ref="350185971"/>
    <nd ref="350185980"/>
    <nd ref="350185952"/>
    <nd ref="1135482258"/>
    <nd ref="350185966"/>
    <nd ref="350185955"/>
    <tag k="highway" v="residential"/>
    <tag k="is_in" v="Trnovec nad Váhom"/>
    <tag k="name" v="Mlynárska"/>
  </way>
  <way id="31415672" version="2" timestamp="2010-03-20T03:59:00Z" uid="137033" user="lubomir" changeset="4176327">
    <nd ref="350185980"/>
    <nd ref="350185983"/>
    <nd ref="350185998"/>
    <nd ref="350185989"/>
    <tag k="highway" v="residential"/>
    <tag k="is_in" v="Trnovec nad Váhom"/>
    <tag k="name" v="Družstevná"/>
  </way>
  <way id="31415673" version="3" timestamp="2010-03-20T03:59:01Z" uid="137033" user="lubomir" changeset="4176327">
    <nd ref="350185990"/>
    <nd ref="350185998"/>
    <tag k="highway" v="residential"/>
    <tag k="is_in" v="Trnovec nad Váhom"/>
    <tag k="name" v="Krátka"/>
  </way>
  <way id="31415798" version="1" timestamp="2009-02-23T16:20:15Z" uid="58091" user="Andreas M" changeset="641615">
    <nd ref="25280879"/>
    <nd ref="62600168"/>
    <nd ref="286479932"/>
    <nd ref="127394980"/>
    <nd ref="61846013"/>
    <nd ref="61847369"/>
    <nd ref="61847567"/>
    <nd ref="61848330"/>
    <tag k="created_by" v="Potlatch 0.10f"/>
    <tag k="highway" v="tertiary"/>
    <tag k="name" v="Ruckergasse"/>
  </way>
  <way id="31415798" version="2" timestamp="2010-08-15T21:42:16Z" uid="54806" user="_al" changeset="5504720">
    <nd ref="25280879"/>
    <nd ref="62600168"/>
    <nd ref="286479932"/>
    <nd ref="127394980"/>
    <nd ref="61846013"/>
    <nd ref="61847369"/>
    <nd ref="61847567"/>
    <nd ref="61848330"/>
    <tag k="highway" v="tertiary"/>
    <tag k="name" v="Ruckergasse"/>
  </way>
  <way id="31415798" version="3" timestamp="2011-12-26T18:11:00Z" uid="129531" user="almich" changeset="10209538"/>
  <way id="31415823" version="5" timestamp="2010-07-23T23:37:25Z" uid="137033" user="lubomir" changeset="5299899">
    <nd ref="350189782"/>
    <nd ref="350185917"/>
    <nd ref="350189790"/>
    <nd ref="350413549"/>
    <nd ref="350189824"/>
    <nd ref="350200718"/>
    <nd ref="350413658"/>
    <nd ref="350200723"/>
    <nd ref="350446075"/>
    <nd ref="350446092"/>
    <nd ref="350325202"/>
    <tag k="highway" v="service"/>
  </way>
  <way id="31415824" version="4" timestamp="2009-11-28T00:49:17Z" uid="137033" user="lubomir" changeset="3233029">
    <nd ref="350200718"/>
    <nd ref="350200387"/>
    <tag k="highway" v="unclassified"/>
  </way>
  <way id="31415826" version="2" timestamp="2010-03-20T03:59:00Z" uid="137033" user="lubomir" changeset="4176327">
    <nd ref="350189834"/>
    <nd ref="350189836"/>
    <tag k="highway" v="residential"/>
    <tag k="is_in" v="Trnovec nad Váhom"/>
    <tag k="name" v="Krajná"/>
  </way>
</osm>
