<?xml version='1.0' encoding='UTF-8'?>
<osm version="0.6" generator="libosmium/2.20.0">
  <way id="31533238" version="4" timestamp="2010-07-09T05:15:14Z" uid="74617" user="JohnSmith" changeset="5170986">
    <nd ref="339579102"/>
    <nd ref="571425659"/>
    <nd ref="29960676"/>
    <tag k="highway" v="residential"/>
    <tag k="maxspeed" v="50"/>
    <tag k="maxspeed:source" v="default residential speed limit in Australia"/>
    <tag k="name" v="Court Street"/>
    <tag k="source" v="Yahoo"/>
    <tag k="source:name" v="Collins 1936"/>
  </way>
  <way id="31533238" version="5" timestamp="2011-10-05T10:52:30Z" uid="11111" user="melb_guy" changeset="9477035">
    <nd ref="339579102"/>
    <nd ref="571425659"/>
    <nd ref="1455809988"/>
    <nd ref="1455809826"/>
    <nd ref="29960676"/>
    <tag k="highway" v="residential"/>
    <tag k="maxspeed" v="50"/>
    <tag k="maxspeed:source" v="default residential speed limit in Australia"/>
    <tag k="name" v="Court Street"/>
    <tag k="source" v="Yahoo"/>
    <tag k="source:name" v="Collins 1936"/>
  </way>
  <way id="31533238" version="6" timestamp="2011-10-29T10:41:55Z" uid="206929" user="Supt_of_Printing" changeset="9683416">
    <nd ref="339579102"/>
    <nd ref="571425659"/>
    <nd ref="1484620791"/>
    <tag k="highway" v="residential"/>
    <tag k="maxspeed" v="50"/>
    <tag k="maxspeed:source" v="default residential speed limit in Australia"/>
    <tag k="name" v="Court Street"/>
    <tag k="source" v="Yahoo"/>
    <tag k="source:name" v="Collins 1936"/>
  </way>
  <way id="31533238" version="7" timestamp="2012-01-18T07:53:07Z" uid="147510" user="woodpeck_fixbot" changeset="10424702">
    <nd ref="339579102"/>
    <nd ref="571425659"/>
    <nd ref="1484620791"/>
    <tag k="highway" v="residential"/>
    <tag k="name" v="Court Street"/>
    <tag k="source" v="Yahoo"/>
    <tag k="source:name" v="Collins 1936"/>
  </way>
  <way id="31533243" version="7" timestamp="2009-08-24T01:44:23Z" uid="110593" user="esetzer" changeset="2238334">
    <nd ref="351971013"/>
    <nd ref="386259897"/>
    <nd ref="386259898"/>
    <nd ref="386259899"/>
    <nd ref="386259901"/>
    <nd ref="386259903"/>
    <nd ref="386259905"/>
    <nd ref="386259907"/>
    <nd ref="386259910"/>
    <nd ref="386259913"/>
    <nd ref="386259916"/>
    <nd ref="386259920"/>
    <nd ref="386259923"/>
    <nd ref="386259926"/>
    <nd ref="386259929"/>
    <nd ref="386259933"/>
    <nd ref="386259936"/>
    <nd ref="386259939"/>
    <nd ref="386259943"/>
    <nd ref="386259947"/>
    <nd ref="386259949"/>
    <tag k="created_by" v="Potlatch 0.10f"/>
    <tag k="highway" v="motorway"/>
    <tag k="name" v="I-215"/>
    <tag k="oneway" v="yes"/>
    <tag k="ref" v="I-215"/>
  </way>
  <way id="31533243" version="8" timestamp="2009-11-18T07:50:11Z" uid="110593" user="esetzer" changeset="3148081">
    <nd ref="351971013"/>
    <nd ref="386259897"/>
    <nd ref="386259898"/>
    <nd ref="386259899"/>
    <nd ref="386259901"/>
    <nd ref="386259903"/>
    <nd ref="386259905"/>
    <nd ref="386259907"/>
    <nd ref="566552006"/>
    <tag k="created_by" v="Potlatch 0.10f"/>
    <tag k="highway" v="motorway"/>
    <tag k="name" v="I-215"/>
    <tag k="oneway" v="yes"/>
    <tag k="ref" v="I-215"/>
  </way>
  <way id="31533243" version="9" timestamp="2010-02-23T09:51:54Z" uid="110593" user="esetzer" changeset="3951742">
    <nd ref="351971013"/>
    <nd ref="386259897"/>
    <nd ref="386259898"/>
    <nd ref="386259899"/>
    <tag k="created_by" v="Potlatch 0.10f"/>
    <tag k="highway" v="motorway"/>
    <tag k="name" v="I-215"/>
    <tag k="oneway" v="yes"/>
    <tag k="ref" v="I-215"/>
  </way>
  <way id="31533243" version="10" timestamp="2010-06-26T00:08:43Z" uid="239998" user="Sundance" changeset="5077776">
    <nd ref="351971013"/>
    <nd ref="386259897"/>
    <nd ref="386259898"/>
    <nd ref="386259899"/>
    <tag k="highway" v="motorway"/>
    <tag k="name" v="Interstate 215"/>
    <tag k="oneway" v="yes"/>
    <tag k="ref" v="I 215"/>
  </way>
  <way id="31533243" version="11" timestamp="2011-03-24T10:01:42Z" uid="207745" user="NE2" changeset="7654300">
    <nd ref="351971013"/>
    <nd ref="386259897"/>
    <nd ref="386259898"/>
    <nd ref="386259899"/>
    <tag k="highway" v="motorway"/>
    <tag k="old_ref" v="SR 5"/>
    <tag k="oneway" v="yes"/>
    <tag k="ref" v="I 215"/>
  </way>
  <way id="31533243" version="12" timestamp="2011-08-04T10:26:12Z" uid="207745" user="NE2" changeset="8918286">
    <nd ref="351971013"/>
    <nd ref="386259897"/>
    <nd ref="386259898"/>
    <nd ref="386259899"/>
    <tag k="highway" v="motorway"/>
    <tag k="lanes" v="3"/>
    <tag k="old_ref" v="SR 5"/>
    <tag k="oneway" v="yes"/>
    <tag k="ref" v="I 215"/>
  </way>
  <way id="31533243" version="13" timestamp="2011-10-16T03:34:05Z" uid="207745" user="NE2" changeset="9568940">
    <nd ref="351971013"/>
    <nd ref="386259897"/>
    <nd ref="386259898"/>
    <nd ref="386259899"/>
    <tag k="bicycle" v="no"/>
    <tag k="highway" v="motorway"/>
    <tag k="lanes" v="3"/>
    <tag k="old_ref" v="SR 5"/>
    <tag k="oneway" v="yes"/>
    <tag k="ref" v="I 215"/>
  </way>
  <way id="31533243" version="14" timestamp="2011-12-05T20:22:47Z" uid="207745" user="NE2" changeset="10045043">
    <nd ref="351971013"/>
    <nd ref="386259897"/>
    <nd ref="386259898"/>
    <nd ref="386259899"/>
    <tag k="bicycle" v="no"/>
    <tag k="hgv" v="designated"/>
    <tag k="highway" v="motorway"/>
    <tag k="lanes" v="3"/>
    <tag k="old_ref" v="SR 5"/>
    <tag k="oneway" v="yes"/>
    <tag k="ref" v="I 215"/>
  </way>
  <way id="31533243" version="15" timestamp="2012-01-15T02:25:10Z" uid="113450" user="nfgusedautoparts" changeset="10394383">
    <nd ref="351971013"/>
    <nd ref="386259897"/>
    <nd ref="386259898"/>
    <nd ref="386259899"/>
    <tag k="bicycle" v="no"/>
    <tag k="hgv" v="designated"/>
    <tag k="highway" v="motorway"/>
    <tag k="lanes" v="3"/>
    <tag k="old_ref" v="SR 5"/>
    <tag k="oneway" v="yes"/>
    <tag k="ref" v="I 215"/>
  </way>
  <way id="31533255" version="3" timestamp="2010-07-09T05:14:04Z" uid="74617" user="JohnSmith" changeset="5170986">
    <nd ref="352880218"/>
    <nd ref="352880335"/>
    <nd ref="352880264"/>
    <tag k="highway" v="residential"/>
    <tag k="maxspeed" v="50"/>
    <tag k="maxspeed:source" v="default residential speed limit in Australia"/>
    <tag k="name" v="Kangerong Road"/>
    <tag k="source" v="Yahoo"/>
    <tag k="source:name" v="Collins 1936"/>
  </way>
  <way id="31533255" version="4" timestamp="2011-10-05T10:52:31Z" uid="11111" user="melb_guy" changeset="9477035">
    <nd ref="1455809894"/>
    <nd ref="352880335"/>
    <nd ref="352880264"/>
    <tag k="highway" v="residential"/>
    <tag k="maxspeed" v="50"/>
    <tag k="maxspeed:source" v="default residential speed limit in Australia"/>
    <tag k="name" v="Kangerong Road"/>
    <tag k="source" v="Yahoo"/>
    <tag k="source:name" v="Collins 1936"/>
  </way>
  <way id="31533255" version="5" timestamp="2012-01-18T07:53:09Z" uid="147510" user="woodpeck_fixbot" changeset="10424702">
    <nd ref="1455809894"/>
    <nd ref="352880335"/>
    <nd ref="352880264"/>
    <tag k="highway" v="residential"/>
    <tag k="name" v="Kangerong Road"/>
    <tag k="source" v="Yahoo"/>
    <tag k="source:name" v="Collins 1936"/>
  </way>
  <way id="31533265" version="6" timestamp="2010-07-09T05:13:07Z" uid="74617" user="JohnSmith" changeset="5170986">
    <nd ref="352880335"/>
    <nd ref="352880388"/>
    <nd ref="352880389"/>
    <nd ref="352880390"/>
    <nd ref="352880439"/>
    <nd ref="352880391"/>
    <nd ref="352880392"/>
    <nd ref="352880393"/>
    <nd ref="352880394"/>
    <nd ref="352880396"/>
    <nd ref="352880397"/>
    <nd ref="352880398"/>
    <tag k="highway" v="residential"/>
    <tag k="maxspeed" v="50"/>
    <tag k="maxspeed:source" v="default residential speed limit in Australia"/>
    <tag k="name" v="Graham Place"/>
    <tag k="source" v="Yahoo"/>
    <tag k="source:name" v="Collins 1936"/>
  </way>
  <way id="31533265" version="7" timestamp="2012-01-18T07:53:11Z" uid="147510" user="woodpeck_fixbot" changeset="10424702">
    <nd ref="352880335"/>
    <nd ref="352880388"/>
    <nd ref="352880389"/>
    <nd ref="352880390"/>
    <nd ref="352880439"/>
    <nd ref="352880391"/>
    <nd ref="352880392"/>
    <nd ref="352880393"/>
    <nd ref="352880394"/>
    <nd ref="352880396"/>
    <nd ref="352880397"/>
    <nd ref="352880398"/>
    <tag k="highway" v="residential"/>
    <tag k="name" v="Graham Place"/>
    <tag k="source" v="Yahoo"/>
    <tag k="source:name" v="Collins 1936"/>
  </way>
  <way id="31533269" version="3" timestamp="2010-07-09T05:14:19Z" uid="74617" user="JohnSmith" changeset="5170986">
    <nd ref="352880397"/>
    <nd ref="352880509"/>
    <nd ref="352880510"/>
    <nd ref="352880511"/>
    <nd ref="352880512"/>
    <nd ref="352880513"/>
    <nd ref="352880394"/>
    <tag k="highway" v="residential"/>
    <tag k="maxspeed" v="50"/>
    <tag k="maxspeed:source" v="default residential speed limit in Australia"/>
    <tag k="name" v="Graham Place"/>
  </way>
  <way id="31533269" version="4" timestamp="2012-01-18T07:53:12Z" uid="147510" user="woodpeck_fixbot" changeset="10424702">
    <nd ref="352880397"/>
    <nd ref="352880509"/>
    <nd ref="352880510"/>
    <nd ref="352880511"/>
    <nd ref="352880512"/>
    <nd ref="352880513"/>
    <nd ref="352880394"/>
    <tag k="highway" v="residential"/>
    <tag k="name" v="Graham Place"/>
  </way>
  <way id="31533333" version="10" timestamp="2010-04-03T13:44:41Z" uid="20587" user="balrog-kun" changeset="4312927">
    <nd ref="372322621"/>
    <nd ref="462041591"/>
    <nd ref="462041592"/>
    <nd ref="315023913"/>
    <nd ref="83514269"/>
    <nd ref="352880637"/>
    <nd ref="315028961"/>
    <nd ref="352881907"/>
    <nd ref="352881906"/>
    <nd ref="352881905"/>
    <nd ref="352881904"/>
    <tag k="created_by" v="change_tags.py: preen 0.7"/>
    <tag k="highway" v="motorway"/>
    <tag k="name" v="West 2100 South Expressway"/>
    <tag k="name_1" v="State Route 201"/>
    <tag k="name_2" v="West 2100 South"/>
    <tag k="oneway" v="yes"/>
    <tag k="ref" v="SR-201"/>
    <tag k="tiger:cfcc" v="A11"/>
    <tag k="tiger:county" v="Salt Lake, UT"/>
    <tag k="tiger:name_base" v="2100 S"/>
    <tag k="tiger:name_base_1" v="State Route 201"/>
    <tag k="tiger:name_base_2" v="2100"/>
    <tag k="tiger:name_direction_prefix" v="W"/>
    <tag k="tiger:name_direction_prefix_2" v="W"/>
    <tag k="tiger:name_direction_suffix_2" v="S"/>
    <tag k="tiger:name_type" v="Expy"/>
    <tag k="tiger:separated" v="yes"/>
    <tag k="tiger:source" v="tiger_import_dch_v0.6_20070830"/>
    <tag k="tiger:tlid" v="176139103:176139104:176139122:176139123:176071061:176071063:176128425:176071072:176071074:176139128:176139129:176071092:176071093:176155226"/>
    <tag k="tiger:zip_left" v="84119"/>
    <tag k="tiger:zip_right" v="84119"/>
  </way>
  <way id="31533333" version="11" timestamp="2010-08-05T07:40:54Z" uid="321736" user="Kevin Atkinson" changeset="5405091">
    <nd ref="372322621"/>
    <nd ref="462041591"/>
    <nd ref="462041592"/>
    <nd ref="315023913"/>
    <nd ref="83514269"/>
    <nd ref="352880637"/>
    <nd ref="315028961"/>
    <nd ref="352881907"/>
    <nd ref="352881906"/>
    <nd ref="352881905"/>
    <nd ref="352881904"/>
    <tag k="highway" v="motorway"/>
    <tag k="name" v="West 2100 South Expressway"/>
    <tag k="name_1" v="State Route 201"/>
    <tag k="name_2" v="2100 South"/>
    <tag k="name_2:full" v="West 2100 South"/>
    <tag k="name_2:prefix" v="W"/>
    <tag k="oneway" v="yes"/>
    <tag k="ref" v="SR-201"/>
    <tag k="tiger:cfcc" v="A11"/>
    <tag k="tiger:county" v="Salt Lake, UT"/>
    <tag k="tiger:name_base" v="2100 S"/>
    <tag k="tiger:name_base_1" v="State Route 201"/>
    <tag k="tiger:name_base_2" v="2100"/>
    <tag k="tiger:name_direction_prefix" v="W"/>
    <tag k="tiger:name_direction_prefix_2" v="W"/>
    <tag k="tiger:name_direction_suffix_2" v="S"/>
    <tag k="tiger:name_type" v="Expy"/>
    <tag k="tiger:separated" v="yes"/>
    <tag k="tiger:source" v="tiger_import_dch_v0.6_20070830"/>
    <tag k="tiger:tlid" v="176139103:176139104:176139122:176139123:176071061:176071063:176128425:176071072:176071074:176139128:176139129:176071092:176071093:176155226"/>
    <tag k="tiger:zip_left" v="84119"/>
    <tag k="tiger:zip_right" v="84119"/>
  </way>
  <way id="31533333" version="12" timestamp="2011-02-26T06:54:21Z" uid="207745" user="NE2" changeset="7396888">
    <nd ref="372322621"/>
    <nd ref="462041591"/>
    <nd ref="462041592"/>
    <nd ref="315023913"/>
    <nd ref="83514269"/>
    <nd ref="352880637"/>
    <nd ref="315028961"/>
    <nd ref="352881907"/>
    <nd ref="1173975121"/>
    <nd ref="352881906"/>
    <nd ref="352881905"/>
    <nd ref="352881904"/>
    <tag k="highway" v="motorway"/>
    <tag k="name" v="West 2100 South Expressway"/>
    <tag k="name_1" v="State Route 201"/>
    <tag k="name_2" v="2100 South"/>
    <tag k="name_2:full" v="West 2100 South"/>
    <tag k="name_2:prefix" v="W"/>
    <tag k="oneway" v="yes"/>
    <tag k="ref" v="SR-201"/>
    <tag k="tiger:cfcc" v="A11"/>
    <tag k="tiger:county" v="Salt Lake, UT"/>
    <tag k="tiger:name_base" v="2100 S"/>
    <tag k="tiger:name_base_1" v="State Route 201"/>
    <tag k="tiger:name_base_2" v="2100"/>
    <tag k="tiger:name_direction_prefix" v="W"/>
    <tag k="tiger:name_direction_prefix_2" v="W"/>
    <tag k="tiger:name_direction_suffix_2" v="S"/>
    <tag k="tiger:name_type" v="Expy"/>
    <tag k="tiger:separated" v="yes"/>
    <tag k="tiger:source" v="tiger_import_dch_v0.6_20070830"/>
    <tag k="tiger:tlid" v="176139103:176139104:176139122:176139123:176071061:176071063:176128425:176071072:176071074:176139128:176139129:176071092:176071093:176155226"/>
    <tag k="tiger:zip_left" v="84119"/>
    <tag k="tiger:zip_right" v="84119"/>
  </way>
  <way id="31533333" version="13" timestamp="2011-03-25T15:22:47Z" uid="207745" user="NE2" changeset="7665283">
    <nd ref="372322621"/>
    <nd ref="462041591"/>
    <nd ref="462041592"/>
    <nd ref="315023913"/>
    <nd ref="83514269"/>
    <nd ref="352880637"/>
    <nd ref="315028961"/>
    <nd ref="352881907"/>
    <nd ref="1173975121"/>
    <nd ref="352881906"/>
    <nd ref="352881905"/>
    <nd ref="352881904"/>
    <tag k="highway" v="motorway"/>
    <tag k="name" v="West 2100 South Expressway"/>
    <tag k="name_1" v="2100 South"/>
    <tag k="name_1:full" v="West 2100 South"/>
    <tag k="name_1:prefix" v="W"/>
    <tag k="oneway" v="yes"/>
    <tag k="ref" v="SR-201"/>
    <tag k="tiger:cfcc" v="A11"/>
    <tag k="tiger:county" v="Salt Lake, UT"/>
    <tag k="tiger:name_base" v="2100 S"/>
    <tag k="tiger:name_base_1" v="State Route 201"/>
    <tag k="tiger:name_base_2" v="2100"/>
    <tag k="tiger:name_direction_prefix" v="W"/>
    <tag k="tiger:name_direction_prefix_2" v="W"/>
    <tag k="tiger:name_direction_suffix_2" v="S"/>
    <tag k="tiger:name_type" v="Expy"/>
    <tag k="tiger:separated" v="yes"/>
    <tag k="tiger:source" v="tiger_import_dch_v0.6_20070830"/>
    <tag k="tiger:tlid" v="176139103:176139104:176139122:176139123:176071061:176071063:176128425:176071072:176071074:176139128:176139129:176071092:176071093:176155226"/>
    <tag k="tiger:zip_left" v="84119"/>
    <tag k="tiger:zip_right" v="84119"/>
  </way>
  <way id="31533333" version="14" timestamp="2011-07-30T11:41:28Z" uid="207745" user="NE2" changeset="8871286">
    <nd ref="372322621"/>
    <nd ref="462041591"/>
    <nd ref="462041592"/>
    <nd ref="315023913"/>
    <nd ref="83514269"/>
    <nd ref="352880637"/>
    <nd ref="315028961"/>
    <nd ref="352881907"/>
    <nd ref="1173975121"/>
    <nd ref="352881906"/>
    <nd ref="352881905"/>
    <nd ref="352881904"/>
    <tag k="highway" v="motorway"/>
    <tag k="lanes" v="3"/>
    <tag k="name" v="West 2100 South Expressway"/>
    <tag k="name_1" v="2100 South"/>
    <tag k="name_1:full" v="West 2100 South"/>
    <tag k="name_1:prefix" v="W"/>
    <tag k="oneway" v="yes"/>
    <tag k="ref" v="SR-201"/>
    <tag k="tiger:cfcc" v="A11"/>
    <tag k="tiger:county" v="Salt Lake, UT"/>
    <tag k="tiger:name_base" v="2100 S"/>
    <tag k="tiger:name_base_1" v="State Route 201"/>
    <tag k="tiger:name_base_2" v="2100"/>
    <tag k="tiger:name_direction_prefix" v="W"/>
    <tag k="tiger:name_direction_prefix_2" v="W"/>
    <tag k="tiger:name_direction_suffix_2" v="S"/>
    <tag k="tiger:name_type" v="Expy"/>
    <tag k="tiger:separated" v="yes"/>
    <tag k="tiger:source" v="tiger_import_dch_v0.6_20070830"/>
    <tag k="tiger:tlid" v="176139103:176139104:176139122:176139123:176071061:176071063:176128425:176071072:176071074:176139128:176139129:176071092:176071093:176155226"/>
    <tag k="tiger:zip_left" v="84119"/>
    <tag k="tiger:zip_right" v="84119"/>
  </way>
  <way id="31533333" version="15" timestamp="2011-10-16T03:40:25Z" uid="207745" user="NE2" changeset="9568940">
    <nd ref="372322621"/>
    <nd ref="462041591"/>
    <nd ref="462041592"/>
    <nd ref="315023913"/>
    <nd ref="83514269"/>
    <nd ref="352880637"/>
    <nd ref="315028961"/>
    <nd ref="352881907"/>
    <nd ref="1173975121"/>
    <nd ref="352881906"/>
    <nd ref="352881905"/>
    <nd ref="352881904"/>
    <tag k="FIXME" v="verify bicycle=yes"/>
    <tag k="bicycle" v="yes"/>
    <tag k="highway" v="motorway"/>
    <tag k="lanes" v="3"/>
    <tag k="name" v="West 2100 South Expressway"/>
    <tag k="name_1" v="2100 South"/>
    <tag k="name_1:full" v="West 2100 South"/>
    <tag k="name_1:prefix" v="W"/>
    <tag k="oneway" v="yes"/>
    <tag k="ref" v="SR-201"/>
    <tag k="tiger:cfcc" v="A11"/>
    <tag k="tiger:county" v="Salt Lake, UT"/>
    <tag k="tiger:name_base" v="2100 S"/>
    <tag k="tiger:name_base_1" v="State Route 201"/>
    <tag k="tiger:name_base_2" v="2100"/>
    <tag k="tiger:name_direction_prefix" v="W"/>
    <tag k="tiger:name_direction_prefix_2" v="W"/>
    <tag k="tiger:name_direction_suffix_2" v="S"/>
    <tag k="tiger:name_type" v="Expy"/>
    <tag k="tiger:separated" v="yes"/>
    <tag k="tiger:source" v="tiger_import_dch_v0.6_20070830"/>
    <tag k="tiger:tlid" v="176139103:176139104:176139122:176139123:176071061:176071063:176128425:176071072:176071074:176139128:176139129:176071092:176071093:176155226"/>
    <tag k="tiger:zip_left" v="84119"/>
    <tag k="tiger:zip_right" v="84119"/>
  </way>
  <way id="31533382" version="28" timestamp="2010-02-22T03:55:19Z" uid="110593" user="esetzer" changeset="3940751">
    <nd ref="83635722"/>
    <nd ref="83711233"/>
    <nd ref="351973433"/>
    <nd ref="360518756"/>
    <tag k="alt_name" v="South 1700 West"/>
    <tag k="created_by" v="change_tags.py: preen 0.7"/>
    <tag k="highway" v="primary"/>
    <tag k="name" v="South Redwood Road"/>
    <tag k="name_1" v="Redwood Rd"/>
    <tag k="name_2" v="S Redwood Rd"/>
    <tag k="name_3" v="State Route 68"/>
    <tag k="note" v="This road connects the only two large non-motorway entrances to the Salt Lake Valley, so its usefulness for long distance travel is much greater than the other state highways in the valley (hence primary)"/>
    <tag k="ref" v="UT-68"/>
    <tag k="tiger:cfcc" v="A21"/>
    <tag k="tiger:county" v="Salt Lake, UT"/>
    <tag k="tiger:name_base" v="1700"/>
    <tag k="tiger:name_base_1" v="Redwood"/>
    <tag k="tiger:name_base_2" v="Redwood"/>
    <tag k="tiger:name_base_3" v="State Route 68"/>
    <tag k="tiger:name_direction_prefix" v="S"/>
    <tag k="tiger:name_direction_prefix_2" v="S"/>
    <tag k="tiger:name_direction_suffix" v="W"/>
    <tag k="tiger:name_type_1" v="Rd"/>
    <tag k="tiger:name_type_2" v="Rd"/>
    <tag k="tiger:reviewed" v="no"/>
    <tag k="tiger:separated" v="no"/>
    <tag k="tiger:source" v="tiger_import_dch_v0.6_20070830"/>
    <tag k="tiger:tlid" v="176101778:176155232:176154745:176071240:176071241:176071245:176071248:176155142:176071250:176071309:176071310:176071313:176071315:176071316:176155234:176071321:176071330"/>
    <tag k="tiger:upload_uuid" v="bulk_upload.pl-a2da7ec1-da05-434f-a535-e5cc3da32f27"/>
    <tag k="tiger:zip_left" v="84104"/>
    <tag k="tiger:zip_right" v="84104"/>
  </way>
  <way id="31533382" version="29" timestamp="2010-04-03T13:44:41Z" uid="20587" user="balrog-kun" changeset="4312927">
    <nd ref="83635722"/>
    <nd ref="83711233"/>
    <nd ref="351973433"/>
    <nd ref="360518756"/>
    <tag k="alt_name" v="South 1700 West"/>
    <tag k="created_by" v="change_tags.py: preen 0.7"/>
    <tag k="highway" v="primary"/>
    <tag k="name" v="South Redwood Road"/>
    <tag k="name_1" v="Redwood Road"/>
    <tag k="name_2" v="South Redwood Road"/>
    <tag k="name_3" v="State Route 68"/>
    <tag k="note" v="This road connects the only two large non-motorway entrances to the Salt Lake Valley, so its usefulness for long distance travel is much greater than the other state highways in the valley (hence primary)"/>
    <tag k="ref" v="UT-68"/>
    <tag k="tiger:cfcc" v="A21"/>
    <tag k="tiger:county" v="Salt Lake, UT"/>
    <tag k="tiger:name_base" v="1700"/>
    <tag k="tiger:name_base_1" v="Redwood"/>
    <tag k="tiger:name_base_2" v="Redwood"/>
    <tag k="tiger:name_base_3" v="State Route 68"/>
    <tag k="tiger:name_direction_prefix" v="S"/>
    <tag k="tiger:name_direction_prefix_2" v="S"/>
    <tag k="tiger:name_direction_suffix" v="W"/>
    <tag k="tiger:name_type_1" v="Rd"/>
    <tag k="tiger:name_type_2" v="Rd"/>
    <tag k="tiger:reviewed" v="no"/>
    <tag k="tiger:separated" v="no"/>
    <tag k="tiger:source" v="tiger_import_dch_v0.6_20070830"/>
    <tag k="tiger:tlid" v="176101778:176155232:176154745:176071240:176071241:176071245:176071248:176155142:176071250:176071309:176071310:176071313:176071315:176071316:176155234:176071321:176071330"/>
    <tag k="tiger:zip_left" v="84104"/>
    <tag k="tiger:zip_right" v="84104"/>
  </way>
  <way id="31533382" version="30" timestamp="2010-08-05T07:36:33Z" uid="321736" user="Kevin Atkinson" changeset="5405091">
    <nd ref="83635722"/>
    <nd ref="83711233"/>
    <nd ref="351973433"/>
    <nd ref="360518756"/>
    <tag k="alt_name" v="1700 West"/>
    <tag k="alt_name:full" v="South 1700 West"/>
    <tag k="alt_name:prefix" v="S"/>
    <tag k="highway" v="primary"/>
    <tag k="name" v="Redwood Road"/>
    <tag k="name:full" v="South Redwood Road"/>
    <tag k="name:prefix" v="S"/>
    <tag k="name_3" v="State Route 68"/>
    <tag k="note" v="This road connects the only two large non-motorway entrances to the Salt Lake Valley, so its usefulness for long distance travel is much greater than the other state highways in the valley (hence primary)"/>
    <tag k="ref" v="UT-68"/>
    <tag k="tiger:cfcc" v="A21"/>
    <tag k="tiger:county" v="Salt Lake, UT"/>
    <tag k="tiger:name_base" v="1700"/>
    <tag k="tiger:name_base_1" v="Redwood"/>
    <tag k="tiger:name_base_2" v="Redwood"/>
    <tag k="tiger:name_base_3" v="State Route 68"/>
    <tag k="tiger:name_direction_prefix" v="S"/>
    <tag k="tiger:name_direction_prefix_2" v="S"/>
    <tag k="tiger:name_direction_suffix" v="W"/>
    <tag k="tiger:name_type_1" v="Rd"/>
    <tag k="tiger:name_type_2" v="Rd"/>
    <tag k="tiger:reviewed" v="no"/>
    <tag k="tiger:separated" v="no"/>
    <tag k="tiger:source" v="tiger_import_dch_v0.6_20070830"/>
    <tag k="tiger:tlid" v="176101778:176155232:176154745:176071240:176071241:176071245:176071248:176155142:176071250:176071309:176071310:176071313:176071315:176071316:176155234:176071321:176071330"/>
    <tag k="tiger:zip_left" v="84104"/>
    <tag k="tiger:zip_right" v="84104"/>
  </way>
  <way id="31533382" version="31" timestamp="2011-03-25T08:50:43Z" uid="207745" user="NE2" changeset="7662129">
    <nd ref="83635722"/>
    <nd ref="83711233"/>
    <nd ref="351973433"/>
    <nd ref="360518756"/>
    <tag k="alt_name" v="1700 West"/>
    <tag k="alt_name:full" v="South 1700 West"/>
    <tag k="alt_name:prefix" v="S"/>
    <tag k="highway" v="primary"/>
    <tag k="name" v="Redwood Road"/>
    <tag k="name:full" v="South Redwood Road"/>
    <tag k="name:prefix" v="S"/>
    <tag k="note" v="This road connects the only two large non-motorway entrances to the Salt Lake Valley, so its usefulness for long distance travel is much greater than the other state highways in the valley (hence primary)"/>
    <tag k="ref" v="UT-68"/>
    <tag k="tiger:cfcc" v="A21"/>
    <tag k="tiger:county" v="Salt Lake, UT"/>
    <tag k="tiger:name_base" v="1700"/>
    <tag k="tiger:name_base_1" v="Redwood"/>
    <tag k="tiger:name_base_2" v="Redwood"/>
    <tag k="tiger:name_base_3" v="State Route 68"/>
    <tag k="tiger:name_direction_prefix" v="S"/>
    <tag k="tiger:name_direction_prefix_2" v="S"/>
    <tag k="tiger:name_direction_suffix" v="W"/>
    <tag k="tiger:name_type_1" v="Rd"/>
    <tag k="tiger:name_type_2" v="Rd"/>
    <tag k="tiger:reviewed" v="no"/>
    <tag k="tiger:separated" v="no"/>
    <tag k="tiger:source" v="tiger_import_dch_v0.6_20070830"/>
    <tag k="tiger:tlid" v="176101778:176155232:176154745:176071240:176071241:176071245:176071248:176155142:176071250:176071309:176071310:176071313:176071315:176071316:176155234:176071321:176071330"/>
    <tag k="tiger:zip_left" v="84104"/>
    <tag k="tiger:zip_right" v="84104"/>
  </way>
  <way id="31533382" version="32" timestamp="2011-09-30T16:51:23Z" uid="207745" user="NE2" changeset="9436816">
    <nd ref="83635722"/>
    <nd ref="83711233"/>
    <nd ref="351973433"/>
    <nd ref="360518756"/>
    <tag k="alt_name" v="1700 West"/>
    <tag k="alt_name:full" v="South 1700 West"/>
    <tag k="alt_name:prefix" v="S"/>
    <tag k="highway" v="primary"/>
    <tag k="lanes" v="4"/>
    <tag k="name" v="Redwood Road"/>
    <tag k="name:full" v="South Redwood Road"/>
    <tag k="name:prefix" v="S"/>
    <tag k="note" v="This road connects the only two large non-motorway entrances to the Salt Lake Valley, so its usefulness for long distance travel is much greater than the other state highways in the valley (hence primary)"/>
    <tag k="ref" v="UT-68"/>
    <tag k="tiger:cfcc" v="A21"/>
    <tag k="tiger:county" v="Salt Lake, UT"/>
    <tag k="tiger:name_base" v="1700"/>
    <tag k="tiger:name_base_1" v="Redwood"/>
    <tag k="tiger:name_base_2" v="Redwood"/>
    <tag k="tiger:name_base_3" v="State Route 68"/>
    <tag k="tiger:name_direction_prefix" v="S"/>
    <tag k="tiger:name_direction_prefix_2" v="S"/>
    <tag k="tiger:name_direction_suffix" v="W"/>
    <tag k="tiger:name_type_1" v="Rd"/>
    <tag k="tiger:name_type_2" v="Rd"/>
    <tag k="tiger:reviewed" v="no"/>
    <tag k="tiger:separated" v="no"/>
    <tag k="tiger:source" v="tiger_import_dch_v0.6_20070830"/>
    <tag k="tiger:tlid" v="176101778:176155232:176154745:176071240:176071241:176071245:176071248:176155142:176071250:176071309:176071310:176071313:176071315:176071316:176155234:176071321:176071330"/>
    <tag k="tiger:zip_left" v="84104"/>
    <tag k="tiger:zip_right" v="84104"/>
  </way>
  <way id="31533394" version="3" timestamp="2010-07-09T05:18:36Z" uid="74617" user="JohnSmith" changeset="5170986">
    <nd ref="352882719"/>
    <nd ref="352883202"/>
    <nd ref="352882830"/>
    <tag k="highway" v="residential"/>
    <tag k="maxspeed" v="50"/>
    <tag k="maxspeed:source" v="default residential speed limit in Australia"/>
    <tag k="name" v="Simmons Street"/>
    <tag k="source" v="Yahoo"/>
    <tag k="source:name" v="Collins 1936"/>
  </way>
  <way id="31533394" version="4" timestamp="2012-01-18T07:53:13Z" uid="147510" user="woodpeck_fixbot" changeset="10424702">
    <nd ref="352882719"/>
    <nd ref="352883202"/>
    <nd ref="352882830"/>
    <tag k="highway" v="residential"/>
    <tag k="name" v="Simmons Street"/>
    <tag k="source" v="Yahoo"/>
    <tag k="source:name" v="Collins 1936"/>
  </way>
  <way id="31533406" version="4" timestamp="2010-07-09T05:17:21Z" uid="74617" user="JohnSmith" changeset="5170986">
    <nd ref="352882843"/>
    <nd ref="352882978"/>
    <nd ref="352882979"/>
    <nd ref="352882980"/>
    <nd ref="352882981"/>
    <nd ref="352883099"/>
    <nd ref="352882982"/>
    <nd ref="352882983"/>
    <nd ref="352882984"/>
    <nd ref="352882985"/>
    <nd ref="352882987"/>
    <nd ref="352882830"/>
    <nd ref="352882988"/>
    <tag k="highway" v="residential"/>
    <tag k="maxspeed" v="50"/>
    <tag k="maxspeed:source" v="default residential speed limit in Australia"/>
    <tag k="name" v="Paisley Street"/>
    <tag k="source" v="Yahoo"/>
    <tag k="source:name" v="Collins 1936"/>
  </way>
  <way id="31533406" version="5" timestamp="2012-01-18T07:53:14Z" uid="147510" user="woodpeck_fixbot" changeset="10424702">
    <nd ref="352882843"/>
    <nd ref="352882978"/>
    <nd ref="352882979"/>
    <nd ref="352882980"/>
    <nd ref="352882981"/>
    <nd ref="352883099"/>
    <nd ref="352882982"/>
    <nd ref="352882983"/>
    <nd ref="352882984"/>
    <nd ref="352882985"/>
    <nd ref="352882987"/>
    <nd ref="352882830"/>
    <nd ref="352882988"/>
    <tag k="highway" v="residential"/>
    <tag k="name" v="Paisley Street"/>
    <tag k="source" v="Yahoo"/>
    <tag k="source:name" v="Collins 1936"/>
  </way>
  <way id="31533410" version="5" timestamp="2010-04-03T13:44:42Z" uid="20587" user="balrog-kun" changeset="4312927">
    <nd ref="352881903"/>
    <nd ref="352881902"/>
    <nd ref="352881901"/>
    <tag k="created_by" v="change_tags.py: preen 0.7"/>
    <tag k="highway" v="motorway"/>
    <tag k="name" v="West 2100 South Expressway"/>
    <tag k="name_1" v="State Route 201"/>
    <tag k="name_2" v="West 2100 South"/>
    <tag k="oneway" v="yes"/>
    <tag k="ref" v="SR-201"/>
    <tag k="tiger:cfcc" v="A11"/>
    <tag k="tiger:county" v="Salt Lake, UT"/>
    <tag k="tiger:name_base" v="2100 S"/>
    <tag k="tiger:name_base_1" v="State Route 201"/>
    <tag k="tiger:name_base_2" v="2100"/>
    <tag k="tiger:name_direction_prefix" v="W"/>
    <tag k="tiger:name_direction_prefix_2" v="W"/>
    <tag k="tiger:name_direction_suffix_2" v="S"/>
    <tag k="tiger:name_type" v="Expy"/>
    <tag k="tiger:separated" v="yes"/>
    <tag k="tiger:source" v="tiger_import_dch_v0.6_20070830"/>
    <tag k="tiger:tlid" v="176139103:176139104:176139122:176139123:176071061:176071063:176128425:176071072:176071074:176139128:176139129:176071092:176071093:176155226"/>
    <tag k="tiger:zip_left" v="84119"/>
    <tag k="tiger:zip_right" v="84119"/>
  </way>
  <way id="31533410" version="6" timestamp="2010-08-05T05:06:27Z" uid="321736" user="Kevin Atkinson" changeset="5404732">
    <nd ref="352881903"/>
    <nd ref="352881902"/>
    <nd ref="352881901"/>
    <tag k="highway" v="motorway"/>
    <tag k="name" v="West 2100 South Expressway"/>
    <tag k="name_1" v="State Route 201"/>
    <tag k="name_2" v="2100 South"/>
    <tag k="name_2:full" v="West 2100 South"/>
    <tag k="name_2:prefix" v="W"/>
    <tag k="oneway" v="yes"/>
    <tag k="ref" v="SR-201"/>
    <tag k="tiger:cfcc" v="A11"/>
    <tag k="tiger:county" v="Salt Lake, UT"/>
    <tag k="tiger:name_base" v="2100 S"/>
    <tag k="tiger:name_base_1" v="State Route 201"/>
    <tag k="tiger:name_base_2" v="2100"/>
    <tag k="tiger:name_direction_prefix" v="W"/>
    <tag k="tiger:name_direction_prefix_2" v="W"/>
    <tag k="tiger:name_direction_suffix_2" v="S"/>
    <tag k="tiger:name_type" v="Expy"/>
    <tag k="tiger:separated" v="yes"/>
    <tag k="tiger:source" v="tiger_import_dch_v0.6_20070830"/>
    <tag k="tiger:tlid" v="176139103:176139104:176139122:176139123:176071061:176071063:176128425:176071072:176071074:176139128:176139129:176071092:176071093:176155226"/>
    <tag k="tiger:zip_left" v="84119"/>
    <tag k="tiger:zip_right" v="84119"/>
  </way>
  <way id="31533410" version="7" timestamp="2011-03-25T15:23:26Z" uid="207745" user="NE2" changeset="7665283">
    <nd ref="352881903"/>
    <nd ref="352881902"/>
    <nd ref="352881901"/>
    <tag k="highway" v="motorway"/>
    <tag k="name" v="West 2100 South Expressway"/>
    <tag k="name_1" v="2100 South"/>
    <tag k="name_1:full" v="West 2100 South"/>
    <tag k="name_1:prefix" v="W"/>
    <tag k="oneway" v="yes"/>
    <tag k="ref" v="SR-201"/>
    <tag k="tiger:cfcc" v="A11"/>
    <tag k="tiger:county" v="Salt Lake, UT"/>
    <tag k="tiger:name_base" v="2100 S"/>
    <tag k="tiger:name_base_1" v="State Route 201"/>
    <tag k="tiger:name_base_2" v="2100"/>
    <tag k="tiger:name_direction_prefix" v="W"/>
    <tag k="tiger:name_direction_prefix_2" v="W"/>
    <tag k="tiger:name_direction_suffix_2" v="S"/>
    <tag k="tiger:name_type" v="Expy"/>
    <tag k="tiger:separated" v="yes"/>
    <tag k="tiger:source" v="tiger_import_dch_v0.6_20070830"/>
    <tag k="tiger:tlid" v="176139103:176139104:176139122:176139123:176071061:176071063:176128425:176071072:176071074:176139128:176139129:176071092:176071093:176155226"/>
    <tag k="tiger:zip_left" v="84119"/>
    <tag k="tiger:zip_right" v="84119"/>
  </way>
  <way id="31533410" version="8" timestamp="2011-07-30T11:41:32Z" uid="207745" user="NE2" changeset="8871286">
    <nd ref="352881903"/>
    <nd ref="352881902"/>
    <nd ref="352881901"/>
    <tag k="highway" v="motorway"/>
    <tag k="lanes" v="3"/>
    <tag k="name" v="West 2100 South Expressway"/>
    <tag k="name_1" v="2100 South"/>
    <tag k="name_1:full" v="West 2100 South"/>
    <tag k="name_1:prefix" v="W"/>
    <tag k="oneway" v="yes"/>
    <tag k="ref" v="SR-201"/>
    <tag k="tiger:cfcc" v="A11"/>
    <tag k="tiger:county" v="Salt Lake, UT"/>
    <tag k="tiger:name_base" v="2100 S"/>
    <tag k="tiger:name_base_1" v="State Route 201"/>
    <tag k="tiger:name_base_2" v="2100"/>
    <tag k="tiger:name_direction_prefix" v="W"/>
    <tag k="tiger:name_direction_prefix_2" v="W"/>
    <tag k="tiger:name_direction_suffix_2" v="S"/>
    <tag k="tiger:name_type" v="Expy"/>
    <tag k="tiger:separated" v="yes"/>
    <tag k="tiger:source" v="tiger_import_dch_v0.6_20070830"/>
    <tag k="tiger:tlid" v="176139103:176139104:176139122:176139123:176071061:176071063:176128425:176071072:176071074:176139128:176139129:176071092:176071093:176155226"/>
    <tag k="tiger:zip_left" v="84119"/>
    <tag k="tiger:zip_right" v="84119"/>
  </way>
  <way id="31533410" version="9" timestamp="2011-10-16T03:40:30Z" uid="207745" user="NE2" changeset="9568940">
    <nd ref="352881903"/>
    <nd ref="352881902"/>
    <nd ref="352881901"/>
    <tag k="FIXME" v="verify bicycle=yes"/>
    <tag k="bicycle" v="yes"/>
    <tag k="highway" v="motorway"/>
    <tag k="lanes" v="3"/>
    <tag k="name" v="West 2100 South Expressway"/>
    <tag k="name_1" v="2100 South"/>
    <tag k="name_1:full" v="West 2100 South"/>
    <tag k="name_1:prefix" v="W"/>
    <tag k="oneway" v="yes"/>
    <tag k="ref" v="SR-201"/>
    <tag k="tiger:cfcc" v="A11"/>
    <tag k="tiger:county" v="Salt Lake, UT"/>
    <tag k="tiger:name_base" v="2100 S"/>
    <tag k="tiger:name_base_1" v="State Route 201"/>
    <tag k="tiger:name_base_2" v="2100"/>
    <tag k="tiger:name_direction_prefix" v="W"/>
    <tag k="tiger:name_direction_prefix_2" v="W"/>
    <tag k="tiger:name_direction_suffix_2" v="S"/>
    <tag k="tiger:name_type" v="Expy"/>
    <tag k="tiger:separated" v="yes"/>
    <tag k="tiger:source" v="tiger_import_dch_v0.6_20070830"/>
    <tag k="tiger:tlid" v="176139103:176139104:176139122:176139123:176071061:176071063:176128425:176071072:176071074:176139128:176139129:176071092:176071093:176155226"/>
    <tag k="tiger:zip_left" v="84119"/>
    <tag k="tiger:zip_right" v="84119"/>
  </way>
  <way id="31533411" version="5" timestamp="2010-04-03T13:44:42Z" uid="20587" user="balrog-kun" changeset="4312927">
    <nd ref="352881904"/>
    <nd ref="352881903"/>
    <tag k="bridge" v="yes"/>
    <tag k="created_by" v="change_tags.py: preen 0.7"/>
    <tag k="highway" v="motorway"/>
    <tag k="layer" v="1"/>
    <tag k="name" v="West 2100 South Expressway"/>
    <tag k="name_1" v="State Route 201"/>
    <tag k="name_2" v="West 2100 South"/>
    <tag k="oneway" v="yes"/>
    <tag k="ref" v="SR-201"/>
    <tag k="tiger:cfcc" v="A11"/>
    <tag k="tiger:county" v="Salt Lake, UT"/>
    <tag k="tiger:name_base" v="2100 S"/>
    <tag k="tiger:name_base_1" v="State Route 201"/>
    <tag k="tiger:name_base_2" v="2100"/>
    <tag k="tiger:name_direction_prefix" v="W"/>
    <tag k="tiger:name_direction_prefix_2" v="W"/>
    <tag k="tiger:name_direction_suffix_2" v="S"/>
    <tag k="tiger:name_type" v="Expy"/>
    <tag k="tiger:separated" v="yes"/>
    <tag k="tiger:source" v="tiger_import_dch_v0.6_20070830"/>
    <tag k="tiger:tlid" v="176139103:176139104:176139122:176139123:176071061:176071063:176128425:176071072:176071074:176139128:176139129:176071092:176071093:176155226"/>
    <tag k="tiger:zip_left" v="84119"/>
    <tag k="tiger:zip_right" v="84119"/>
  </way>
  <way id="31533411" version="6" timestamp="2010-08-05T06:48:46Z" uid="321736" user="Kevin Atkinson" changeset="5405091">
    <nd ref="352881904"/>
    <nd ref="352881903"/>
    <tag k="bridge" v="yes"/>
    <tag k="highway" v="motorway"/>
    <tag k="layer" v="1"/>
    <tag k="name" v="West 2100 South Expressway"/>
    <tag k="name_1" v="State Route 201"/>
    <tag k="name_2" v="2100 South"/>
    <tag k="name_2:full" v="West 2100 South"/>
    <tag k="name_2:prefix" v="W"/>
    <tag k="oneway" v="yes"/>
    <tag k="ref" v="SR-201"/>
    <tag k="tiger:cfcc" v="A11"/>
    <tag k="tiger:county" v="Salt Lake, UT"/>
    <tag k="tiger:name_base" v="2100 S"/>
    <tag k="tiger:name_base_1" v="State Route 201"/>
    <tag k="tiger:name_base_2" v="2100"/>
    <tag k="tiger:name_direction_prefix" v="W"/>
    <tag k="tiger:name_direction_prefix_2" v="W"/>
    <tag k="tiger:name_direction_suffix_2" v="S"/>
    <tag k="tiger:name_type" v="Expy"/>
    <tag k="tiger:separated" v="yes"/>
    <tag k="tiger:source" v="tiger_import_dch_v0.6_20070830"/>
    <tag k="tiger:tlid" v="176139103:176139104:176139122:176139123:176071061:176071063:176128425:176071072:176071074:176139128:176139129:176071092:176071093:176155226"/>
    <tag k="tiger:zip_left" v="84119"/>
    <tag k="tiger:zip_right" v="84119"/>
  </way>
  <way id="31533411" version="7" timestamp="2011-03-25T15:22:05Z" uid="207745" user="NE2" changeset="7665283">
    <nd ref="352881904"/>
    <nd ref="352881903"/>
    <tag k="bridge" v="yes"/>
    <tag k="highway" v="motorway"/>
    <tag k="layer" v="1"/>
    <tag k="name" v="West 2100 South Expressway"/>
    <tag k="name_1" v="2100 South"/>
    <tag k="name_1:full" v="West 2100 South"/>
    <tag k="name_1:prefix" v="W"/>
    <tag k="oneway" v="yes"/>
    <tag k="ref" v="SR-201"/>
    <tag k="tiger:cfcc" v="A11"/>
    <tag k="tiger:county" v="Salt Lake, UT"/>
    <tag k="tiger:name_base" v="2100 S"/>
    <tag k="tiger:name_base_1" v="State Route 201"/>
    <tag k="tiger:name_base_2" v="2100"/>
    <tag k="tiger:name_direction_prefix" v="W"/>
    <tag k="tiger:name_direction_prefix_2" v="W"/>
    <tag k="tiger:name_direction_suffix_2" v="S"/>
    <tag k="tiger:name_type" v="Expy"/>
    <tag k="tiger:separated" v="yes"/>
    <tag k="tiger:source" v="tiger_import_dch_v0.6_20070830"/>
    <tag k="tiger:tlid" v="176139103:176139104:176139122:176139123:176071061:176071063:176128425:176071072:176071074:176139128:176139129:176071092:176071093:176155226"/>
    <tag k="tiger:zip_left" v="84119"/>
    <tag k="tiger:zip_right" v="84119"/>
  </way>
  <way id="31533411" version="8" timestamp="2011-07-30T11:41:30Z" uid="207745" user="NE2" changeset="8871286">
    <nd ref="352881904"/>
    <nd ref="352881903"/>
    <tag k="bridge" v="yes"/>
    <tag k="highway" v="motorway"/>
    <tag k="lanes" v="3"/>
    <tag k="layer" v="1"/>
    <tag k="name" v="West 2100 South Expressway"/>
    <tag k="name_1" v="2100 South"/>
    <tag k="name_1:full" v="West 2100 South"/>
    <tag k="name_1:prefix" v="W"/>
    <tag k="oneway" v="yes"/>
    <tag k="ref" v="SR-201"/>
    <tag k="tiger:cfcc" v="A11"/>
    <tag k="tiger:county" v="Salt Lake, UT"/>
    <tag k="tiger:name_base" v="2100 S"/>
    <tag k="tiger:name_base_1" v="State Route 201"/>
    <tag k="tiger:name_base_2" v="2100"/>
    <tag k="tiger:name_direction_prefix" v="W"/>
    <tag k="tiger:name_direction_prefix_2" v="W"/>
    <tag k="tiger:name_direction_suffix_2" v="S"/>
    <tag k="tiger:name_type" v="Expy"/>
    <tag k="tiger:separated" v="yes"/>
    <tag k="tiger:source" v="tiger_import_dch_v0.6_20070830"/>
    <tag k="tiger:tlid" v="176139103:176139104:176139122:176139123:176071061:176071063:176128425:176071072:176071074:176139128:176139129:176071092:176071093:176155226"/>
    <tag k="tiger:zip_left" v="84119"/>
    <tag k="tiger:zip_right" v="84119"/>
  </way>
  <way id="31533411" version="9" timestamp="2011-10-16T03:40:29Z" uid="207745" user="NE2" changeset="9568940">
    <nd ref="352881904"/>
    <nd ref="352881903"/>
    <tag k="FIXME" v="verify bicycle=yes"/>
    <tag k="bicycle" v="yes"/>
    <tag k="bridge" v="yes"/>
    <tag k="highway" v="motorway"/>
    <tag k="lanes" v="3"/>
    <tag k="layer" v="1"/>
    <tag k="name" v="West 2100 South Expressway"/>
    <tag k="name_1" v="2100 South"/>
    <tag k="name_1:full" v="West 2100 South"/>
    <tag k="name_1:prefix" v="W"/>
    <tag k="oneway" v="yes"/>
    <tag k="ref" v="SR-201"/>
    <tag k="tiger:cfcc" v="A11"/>
    <tag k="tiger:county" v="Salt Lake, UT"/>
    <tag k="tiger:name_base" v="2100 S"/>
    <tag k="tiger:name_base_1" v="State Route 201"/>
    <tag k="tiger:name_base_2" v="2100"/>
    <tag k="tiger:name_direction_prefix" v="W"/>
    <tag k="tiger:name_direction_prefix_2" v="W"/>
    <tag k="tiger:name_direction_suffix_2" v="S"/>
    <tag k="tiger:name_type" v="Expy"/>
    <tag k="tiger:separated" v="yes"/>
    <tag k="tiger:source" v="tiger_import_dch_v0.6_20070830"/>
    <tag k="tiger:tlid" v="176139103:176139104:176139122:176139123:176071061:176071063:176128425:176071072:176071074:176139128:176139129:176071092:176071093:176155226"/>
    <tag k="tiger:zip_left" v="84119"/>
    <tag k="tiger:zip_right" v="84119"/>
  </way>
  <way id="31533413" version="2" timestamp="2010-07-09T05:14:49Z" uid="74617" user="JohnSmith" changeset="5170986">
    <nd ref="352882994"/>
    <nd ref="352883099"/>
    <tag k="highway" v="residential"/>
    <tag k="maxspeed" v="50"/>
    <tag k="maxspeed:source" v="default residential speed limit in Australia"/>
    <tag k="name" v="Ovens Street"/>
    <tag k="source" v="Yahoo"/>
    <tag k="source:name" v="Collins 1936"/>
  </way>
  <way id="31533413" version="3" timestamp="2012-01-18T07:53:16Z" uid="147510" user="woodpeck_fixbot" changeset="10424702">
    <nd ref="352882994"/>
    <nd ref="352883099"/>
    <tag k="highway" v="residential"/>
    <tag k="name" v="Ovens Street"/>
    <tag k="source" v="Yahoo"/>
    <tag k="source:name" v="Collins 1936"/>
  </way>
  <way id="31533421" version="4" timestamp="2010-07-09T05:12:15Z" uid="74617" user="JohnSmith" changeset="5170986">
    <nd ref="352883202"/>
    <nd ref="352883286"/>
    <nd ref="719382757"/>
    <nd ref="352883287"/>
    <nd ref="352882988"/>
    <nd ref="352883288"/>
    <nd ref="352883289"/>
    <nd ref="272694212"/>
    <tag k="highway" v="residential"/>
    <tag k="maxspeed" v="50"/>
    <tag k="maxspeed:source" v="default residential speed limit in Australia"/>
    <tag k="name" v="Mitta Street"/>
    <tag k="source" v="Yahoo"/>
    <tag k="source:name" v="Collins 1936"/>
  </way>
  <way id="31533421" version="5" timestamp="2012-01-18T07:53:17Z" uid="147510" user="woodpeck_fixbot" changeset="10424702">
    <nd ref="352883202"/>
    <nd ref="352883286"/>
    <nd ref="719382757"/>
    <nd ref="352883287"/>
    <nd ref="352882988"/>
    <nd ref="352883288"/>
    <nd ref="352883289"/>
    <nd ref="272694212"/>
    <tag k="highway" v="residential"/>
    <tag k="name" v="Mitta Street"/>
    <tag k="source" v="Yahoo"/>
    <tag k="source:name" v="Collins 1936"/>
  </way>
  <way id="31533429" version="2" timestamp="2010-07-09T05:19:48Z" uid="74617" user="JohnSmith" changeset="5170986">
    <nd ref="352882987"/>
    <nd ref="352883470"/>
    <nd ref="352883471"/>
    <nd ref="352883472"/>
    <tag k="highway" v="residential"/>
    <tag k="maxspeed" v="50"/>
    <tag k="maxspeed:source" v="default residential speed limit in Australia"/>
    <tag k="name" v="Eva Crescent"/>
    <tag k="source" v="Yahoo"/>
    <tag k="source:name" v="Collins 1936"/>
  </way>
  <way id="31533429" version="3" timestamp="2012-01-18T07:53:18Z" uid="147510" user="woodpeck_fixbot" changeset="10424702">
    <nd ref="352882987"/>
    <nd ref="352883470"/>
    <nd ref="352883471"/>
    <nd ref="352883472"/>
    <tag k="highway" v="residential"/>
    <tag k="name" v="Eva Crescent"/>
    <tag k="source" v="Yahoo"/>
    <tag k="source:name" v="Collins 1936"/>
  </way>
  <way id="31533441" version="2" timestamp="2010-07-09T05:18:59Z" uid="74617" user="JohnSmith" changeset="5170986">
    <nd ref="352883599"/>
    <nd ref="352883656"/>
    <tag k="highway" v="residential"/>
    <tag k="maxspeed" v="50"/>
    <tag k="maxspeed:source" v="default residential speed limit in Australia"/>
    <tag k="name" v="Saxton Street"/>
    <tag k="source" v="Yahoo"/>
    <tag k="source:name" v="Collins 1936"/>
  </way>
  <way id="31533441" version="3" timestamp="2012-01-18T07:53:20Z" uid="147510" user="woodpeck_fixbot" changeset="10424702">
    <nd ref="352883599"/>
    <nd ref="352883656"/>
    <tag k="highway" v="residential"/>
    <tag k="name" v="Saxton Street"/>
    <tag k="source" v="Yahoo"/>
    <tag k="source:name" v="Collins 1936"/>
  </way>
  <way id="31533449" version="3" timestamp="2010-07-09T05:16:36Z" uid="74617" user="JohnSmith" changeset="5170986">
    <nd ref="352883656"/>
    <nd ref="719384059"/>
    <nd ref="352883730"/>
    <nd ref="719384077"/>
    <nd ref="719384096"/>
    <nd ref="719384104"/>
    <nd ref="274576760"/>
    <nd ref="719384134"/>
    <nd ref="352883731"/>
    <nd ref="719384155"/>
    <nd ref="352883732"/>
    <nd ref="352883733"/>
    <nd ref="719384206"/>
    <nd ref="352883734"/>
    <nd ref="719384234"/>
    <nd ref="352883735"/>
    <nd ref="719384304"/>
    <nd ref="352883656"/>
    <tag k="highway" v="residential"/>
    <tag k="junction" v="roundabout"/>
    <tag k="maxspeed" v="50"/>
    <tag k="maxspeed:source" v="default residential speed limit in Australia"/>
    <tag k="source" v="nearmap"/>
  </way>
  <way id="31533449" version="4" timestamp="2012-01-18T07:53:22Z" uid="147510" user="woodpeck_fixbot" changeset="10424702">
    <nd ref="352883656"/>
    <nd ref="719384059"/>
    <nd ref="352883730"/>
    <nd ref="719384077"/>
    <nd ref="719384096"/>
    <nd ref="719384104"/>
    <nd ref="274576760"/>
    <nd ref="719384134"/>
    <nd ref="352883731"/>
    <nd ref="719384155"/>
    <nd ref="352883732"/>
    <nd ref="352883733"/>
    <nd ref="719384206"/>
    <nd ref="352883734"/>
    <nd ref="719384234"/>
    <nd ref="352883735"/>
    <nd ref="719384304"/>
    <nd ref="352883656"/>
    <tag k="highway" v="residential"/>
    <tag k="junction" v="roundabout"/>
    <tag k="source" v="nearmap"/>
  </way>
  <way id="31533453" version="2" timestamp="2010-07-09T05:17:46Z" uid="74617" user="JohnSmith" changeset="5170986">
    <nd ref="352883733"/>
    <nd ref="352883785"/>
    <nd ref="352883787"/>
    <nd ref="352883789"/>
    <nd ref="274578074"/>
    <tag k="highway" v="residential"/>
    <tag k="maxspeed" v="50"/>
    <tag k="maxspeed:source" v="default residential speed limit in Australia"/>
    <tag k="name" v="Saxton Street"/>
    <tag k="source" v="Yahoo"/>
    <tag k="source:name" v="Collins 1936"/>
  </way>
  <way id="31533453" version="3" timestamp="2012-01-18T07:53:24Z" uid="147510" user="woodpeck_fixbot" changeset="10424702">
    <nd ref="352883733"/>
    <nd ref="352883785"/>
    <nd ref="352883787"/>
    <nd ref="352883789"/>
    <nd ref="274578074"/>
    <tag k="highway" v="residential"/>
    <tag k="name" v="Saxton Street"/>
    <tag k="source" v="Yahoo"/>
    <tag k="source:name" v="Collins 1936"/>
  </way>
  <way id="31533479" version="5" timestamp="2010-04-03T13:44:43Z" uid="20587" user="balrog-kun" changeset="4312927">
    <nd ref="352884251"/>
    <nd ref="83520886"/>
    <tag k="created_by" v="change_tags.py: preen 0.7"/>
    <tag k="highway" v="motorway"/>
    <tag k="name" v="West 2100 South Expressway"/>
    <tag k="name_1" v="State Route 201"/>
    <tag k="name_2" v="West 2100 South"/>
    <tag k="ref" v="SR-201"/>
    <tag k="tiger:cfcc" v="A11"/>
    <tag k="tiger:county" v="Salt Lake, UT"/>
    <tag k="tiger:name_base" v="2100 S"/>
    <tag k="tiger:name_base_1" v="State Route 201"/>
    <tag k="tiger:name_base_2" v="2100"/>
    <tag k="tiger:name_direction_prefix" v="W"/>
    <tag k="tiger:name_direction_prefix_2" v="W"/>
    <tag k="tiger:name_direction_suffix_2" v="S"/>
    <tag k="tiger:name_type" v="Expy"/>
    <tag k="tiger:separated" v="yes"/>
    <tag k="tiger:source" v="tiger_import_dch_v0.6_20070830"/>
    <tag k="tiger:tlid" v="176139103:176139104:176139122:176139123:176071061:176071063:176128425:176071072:176071074:176139128:176139129:176071092:176071093:176155226"/>
    <tag k="tiger:zip_left" v="84119"/>
    <tag k="tiger:zip_right" v="84119"/>
  </way>
  <way id="31533479" version="6" timestamp="2010-08-05T05:03:21Z" uid="321736" user="Kevin Atkinson" changeset="5404732">
    <nd ref="352884251"/>
    <nd ref="83520886"/>
    <tag k="highway" v="motorway"/>
    <tag k="name" v="West 2100 South Expressway"/>
    <tag k="name_1" v="State Route 201"/>
    <tag k="name_2" v="2100 South"/>
    <tag k="name_2:full" v="West 2100 South"/>
    <tag k="name_2:prefix" v="W"/>
    <tag k="ref" v="SR-201"/>
    <tag k="tiger:cfcc" v="A11"/>
    <tag k="tiger:county" v="Salt Lake, UT"/>
    <tag k="tiger:name_base" v="2100 S"/>
    <tag k="tiger:name_base_1" v="State Route 201"/>
    <tag k="tiger:name_base_2" v="2100"/>
    <tag k="tiger:name_direction_prefix" v="W"/>
    <tag k="tiger:name_direction_prefix_2" v="W"/>
    <tag k="tiger:name_direction_suffix_2" v="S"/>
    <tag k="tiger:name_type" v="Expy"/>
    <tag k="tiger:separated" v="yes"/>
    <tag k="tiger:source" v="tiger_import_dch_v0.6_20070830"/>
    <tag k="tiger:tlid" v="176139103:176139104:176139122:176139123:176071061:176071063:176128425:176071072:176071074:176139128:176139129:176071092:176071093:176155226"/>
    <tag k="tiger:zip_left" v="84119"/>
    <tag k="tiger:zip_right" v="84119"/>
  </way>
  <way id="31533479" version="7" timestamp="2011-02-26T06:20:44Z" uid="207745" user="NE2" changeset="7396724">
    <nd ref="352884251"/>
    <nd ref="83520886"/>
    <tag k="highway" v="motorway"/>
    <tag k="name" v="West 2100 South Expressway"/>
    <tag k="name_1" v="State Route 201"/>
    <tag k="name_2" v="2100 South"/>
    <tag k="name_2:full" v="West 2100 South"/>
    <tag k="name_2:prefix" v="W"/>
    <tag k="oneway" v="yes"/>
    <tag k="ref" v="SR-201"/>
    <tag k="tiger:cfcc" v="A11"/>
    <tag k="tiger:county" v="Salt Lake, UT"/>
    <tag k="tiger:name_base" v="2100 S"/>
    <tag k="tiger:name_base_1" v="State Route 201"/>
    <tag k="tiger:name_base_2" v="2100"/>
    <tag k="tiger:name_direction_prefix" v="W"/>
    <tag k="tiger:name_direction_prefix_2" v="W"/>
    <tag k="tiger:name_direction_suffix_2" v="S"/>
    <tag k="tiger:name_type" v="Expy"/>
    <tag k="tiger:separated" v="yes"/>
    <tag k="tiger:source" v="tiger_import_dch_v0.6_20070830"/>
    <tag k="tiger:tlid" v="176139103:176139104:176139122:176139123:176071061:176071063:176128425:176071072:176071074:176139128:176139129:176071092:176071093:176155226"/>
    <tag k="tiger:zip_left" v="84119"/>
    <tag k="tiger:zip_right" v="84119"/>
  </way>
  <way id="31533479" version="8" timestamp="2011-06-17T11:34:08Z" uid="207745" user="NE2" changeset="8463816">
    <nd ref="352884251"/>
    <nd ref="83520886"/>
    <tag k="highway" v="motorway"/>
    <tag k="name" v="West 2100 South Expressway"/>
    <tag k="name_1" v="2100 South"/>
    <tag k="name_1:full" v="West 2100 South"/>
    <tag k="name_1:prefix" v="W"/>
    <tag k="oneway" v="yes"/>
    <tag k="ref" v="SR-201"/>
    <tag k="tiger:cfcc" v="A11"/>
    <tag k="tiger:county" v="Salt Lake, UT"/>
    <tag k="tiger:name_base" v="2100 S"/>
    <tag k="tiger:name_base_1" v="State Route 201"/>
    <tag k="tiger:name_base_2" v="2100"/>
    <tag k="tiger:name_direction_prefix" v="W"/>
    <tag k="tiger:name_direction_prefix_2" v="W"/>
    <tag k="tiger:name_direction_suffix_2" v="S"/>
    <tag k="tiger:name_type" v="Expy"/>
    <tag k="tiger:separated" v="yes"/>
    <tag k="tiger:source" v="tiger_import_dch_v0.6_20070830"/>
    <tag k="tiger:tlid" v="176139103:176139104:176139122:176139123:176071061:176071063:176128425:176071072:176071074:176139128:176139129:176071092:176071093:176155226"/>
    <tag k="tiger:zip_left" v="84119"/>
    <tag k="tiger:zip_right" v="84119"/>
  </way>
  <way id="31533479" version="9" timestamp="2011-07-30T11:41:30Z" uid="207745" user="NE2" changeset="8871286">
    <nd ref="352884251"/>
    <nd ref="83520886"/>
    <tag k="highway" v="motorway"/>
    <tag k="lanes" v="5"/>
    <tag k="name" v="West 2100 South Expressway"/>
    <tag k="name_1" v="2100 South"/>
    <tag k="name_1:full" v="West 2100 South"/>
    <tag k="name_1:prefix" v="W"/>
    <tag k="oneway" v="yes"/>
    <tag k="ref" v="SR-201"/>
    <tag k="tiger:cfcc" v="A11"/>
    <tag k="tiger:county" v="Salt Lake, UT"/>
    <tag k="tiger:name_base" v="2100 S"/>
    <tag k="tiger:name_base_1" v="State Route 201"/>
    <tag k="tiger:name_base_2" v="2100"/>
    <tag k="tiger:name_direction_prefix" v="W"/>
    <tag k="tiger:name_direction_prefix_2" v="W"/>
    <tag k="tiger:name_direction_suffix_2" v="S"/>
    <tag k="tiger:name_type" v="Expy"/>
    <tag k="tiger:separated" v="yes"/>
    <tag k="tiger:source" v="tiger_import_dch_v0.6_20070830"/>
    <tag k="tiger:tlid" v="176139103:176139104:176139122:176139123:176071061:176071063:176128425:176071072:176071074:176139128:176139129:176071092:176071093:176155226"/>
    <tag k="tiger:zip_left" v="84119"/>
    <tag k="tiger:zip_right" v="84119"/>
  </way>
  <way id="31533479" version="10" timestamp="2011-10-16T03:40:28Z" uid="207745" user="NE2" changeset="9568940">
    <nd ref="352884251"/>
    <nd ref="83520886"/>
    <tag k="FIXME" v="verify bicycle=yes"/>
    <tag k="bicycle" v="yes"/>
    <tag k="highway" v="motorway"/>
    <tag k="lanes" v="5"/>
    <tag k="name" v="West 2100 South Expressway"/>
    <tag k="name_1" v="2100 South"/>
    <tag k="name_1:full" v="West 2100 South"/>
    <tag k="name_1:prefix" v="W"/>
    <tag k="oneway" v="yes"/>
    <tag k="ref" v="SR-201"/>
    <tag k="tiger:cfcc" v="A11"/>
    <tag k="tiger:county" v="Salt Lake, UT"/>
    <tag k="tiger:name_base" v="2100 S"/>
    <tag k="tiger:name_base_1" v="State Route 201"/>
    <tag k="tiger:name_base_2" v="2100"/>
    <tag k="tiger:name_direction_prefix" v="W"/>
    <tag k="tiger:name_direction_prefix_2" v="W"/>
    <tag k="tiger:name_direction_suffix_2" v="S"/>
    <tag k="tiger:name_type" v="Expy"/>
    <tag k="tiger:separated" v="yes"/>
    <tag k="tiger:source" v="tiger_import_dch_v0.6_20070830"/>
    <tag k="tiger:tlid" v="176139103:176139104:176139122:176139123:176071061:176071063:176128425:176071072:176071074:176139128:176139129:176071092:176071093:176155226"/>
    <tag k="tiger:zip_left" v="84119"/>
    <tag k="tiger:zip_right" v="84119"/>
  </way>
  <way id="31533549" version="8" timestamp="2010-07-09T05:19:37Z" uid="74617" user="JohnSmith" changeset="5170986">
    <nd ref="352886988"/>
    <nd ref="352887287"/>
    <nd ref="352887218"/>
    <nd ref="352887156"/>
    <nd ref="352887114"/>
    <nd ref="352887384"/>
    <nd ref="346578010"/>
    <tag k="highway" v="residential"/>
    <tag k="maxspeed" v="50"/>
    <tag k="maxspeed:source" v="default residential speed limit in Australia"/>
    <tag k="name" v="Linda Avenue"/>
    <tag k="source" v="Yahoo"/>
    <tag k="source:name" v="Collins 1936"/>
  </way>
  <way id="31533549" version="9" timestamp="2012-01-18T07:53:26Z" uid="147510" user="woodpeck_fixbot" changeset="10424702">
    <nd ref="352886988"/>
    <nd ref="352887287"/>
    <nd ref="352887218"/>
    <nd ref="352887156"/>
    <nd ref="352887114"/>
    <nd ref="352887384"/>
    <nd ref="346578010"/>
    <tag k="highway" v="residential"/>
    <tag k="name" v="Linda Avenue"/>
    <tag k="source" v="Yahoo"/>
    <tag k="source:name" v="Collins 1936"/>
  </way>
  <way id="31533550" version="2" timestamp="2010-07-09T05:17:53Z" uid="74617" user="JohnSmith" changeset="5170986">
    <nd ref="352887114"/>
    <nd ref="352887148"/>
    <tag k="highway" v="residential"/>
    <tag k="maxspeed" v="50"/>
    <tag k="maxspeed:source" v="default residential speed limit in Australia"/>
    <tag k="name" v="Dane Street"/>
    <tag k="source" v="Yahoo"/>
    <tag k="source:name" v="Collins 1936"/>
  </way>
  <way id="31533550" version="3" timestamp="2012-01-18T07:53:30Z" uid="147510" user="woodpeck_fixbot" changeset="10424702">
    <nd ref="352887114"/>
    <nd ref="352887148"/>
    <tag k="highway" v="residential"/>
    <tag k="name" v="Dane Street"/>
    <tag k="source" v="Yahoo"/>
    <tag k="source:name" v="Collins 1936"/>
  </way>
  <way id="31533551" version="2" timestamp="2010-07-09T05:16:14Z" uid="74617" user="JohnSmith" changeset="5170986">
    <nd ref="352887156"/>
    <nd ref="352887191"/>
    <tag k="highway" v="residential"/>
    <tag k="maxspeed" v="50"/>
    <tag k="maxspeed:source" v="default residential speed limit in Australia"/>
    <tag k="name" v="Richard Street"/>
    <tag k="source" v="Yahoo"/>
    <tag k="source:name" v="Collins 1936"/>
  </way>
  <way id="31533551" version="3" timestamp="2012-01-18T07:53:33Z" uid="147510" user="woodpeck_fixbot" changeset="10424702">
    <nd ref="352887156"/>
    <nd ref="352887191"/>
    <tag k="highway" v="residential"/>
    <tag k="name" v="Richard Street"/>
    <tag k="source" v="Yahoo"/>
    <tag k="source:name" v="Collins 1936"/>
  </way>
  <way id="31533552" version="2" timestamp="2010-07-09T05:19:27Z" uid="74617" user="JohnSmith" changeset="5170986">
    <nd ref="352887218"/>
    <nd ref="30949394"/>
    <tag k="highway" v="residential"/>
    <tag k="maxspeed" v="50"/>
    <tag k="maxspeed:source" v="default residential speed limit in Australia"/>
    <tag k="name" v="Bell Street"/>
    <tag k="source" v="Yahoo"/>
    <tag k="source:name" v="Collins 1936"/>
  </way>
  <way id="31533552" version="3" timestamp="2012-01-18T07:53:46Z" uid="147510" user="woodpeck_fixbot" changeset="10424702">
    <nd ref="352887218"/>
    <nd ref="30949394"/>
    <tag k="highway" v="residential"/>
    <tag k="name" v="Bell Street"/>
    <tag k="source" v="Yahoo"/>
    <tag k="source:name" v="Collins 1936"/>
  </way>
  <way id="31533555" version="2" timestamp="2010-07-09T05:14:20Z" uid="74617" user="JohnSmith" changeset="5170986">
    <nd ref="352887287"/>
    <nd ref="352887335"/>
    <nd ref="352887336"/>
    <nd ref="352887337"/>
    <nd ref="352887338"/>
    <nd ref="352887339"/>
    <tag k="highway" v="residential"/>
    <tag k="maxspeed" v="50"/>
    <tag k="maxspeed:source" v="default residential speed limit in Australia"/>
    <tag k="name" v="Reid Street"/>
    <tag k="source" v="Yahoo"/>
    <tag k="source:name" v="Collins 1936"/>
  </way>
  <way id="31533555" version="3" timestamp="2012-01-18T07:53:48Z" uid="147510" user="woodpeck_fixbot" changeset="10424702">
    <nd ref="352887287"/>
    <nd ref="352887335"/>
    <nd ref="352887336"/>
    <nd ref="352887337"/>
    <nd ref="352887338"/>
    <nd ref="352887339"/>
    <tag k="highway" v="residential"/>
    <tag k="name" v="Reid Street"/>
    <tag k="source" v="Yahoo"/>
    <tag k="source:name" v="Collins 1936"/>
  </way>
  <way id="31533559" version="3" timestamp="2010-07-09T05:15:34Z" uid="74617" user="JohnSmith" changeset="5170986">
    <nd ref="352887384"/>
    <nd ref="352887411"/>
    <nd ref="352887412"/>
    <nd ref="352887413"/>
    <nd ref="352887414"/>
    <nd ref="352887415"/>
    <nd ref="352887416"/>
    <tag k="highway" v="residential"/>
    <tag k="maxspeed" v="50"/>
    <tag k="maxspeed:source" v="default residential speed limit in Australia"/>
    <tag k="name" v="Kneale Drive"/>
  </way>
  <way id="31533559" version="4" timestamp="2012-01-18T07:53:49Z" uid="147510" user="woodpeck_fixbot" changeset="10424702">
    <nd ref="352887384"/>
    <nd ref="352887411"/>
    <nd ref="352887412"/>
    <nd ref="352887413"/>
    <nd ref="352887414"/>
    <nd ref="352887415"/>
    <nd ref="352887416"/>
    <tag k="highway" v="residential"/>
    <tag k="name" v="Kneale Drive"/>
  </way>
  <way id="31533562" version="4" timestamp="2010-07-09T05:13:34Z" uid="74617" user="JohnSmith" changeset="5170986">
    <nd ref="352887414"/>
    <nd ref="352887492"/>
    <nd ref="352887457"/>
    <tag k="highway" v="residential"/>
    <tag k="maxspeed" v="50"/>
    <tag k="maxspeed:source" v="default residential speed limit in Australia"/>
    <tag k="name" v="Maude Street"/>
  </way>
  <way id="31533562" version="5" timestamp="2012-01-18T07:53:51Z" uid="147510" user="woodpeck_fixbot" changeset="10424702">
    <nd ref="352887414"/>
    <nd ref="352887492"/>
    <nd ref="352887457"/>
    <tag k="highway" v="residential"/>
    <tag k="name" v="Maude Street"/>
  </way>
  <way id="31533564" version="4" timestamp="2010-07-09T05:18:09Z" uid="74617" user="JohnSmith" changeset="5170986">
    <nd ref="352887413"/>
    <nd ref="352887474"/>
    <tag k="highway" v="residential"/>
    <tag k="maxspeed" v="50"/>
    <tag k="maxspeed:source" v="default residential speed limit in Australia"/>
    <tag k="name" v="Garden Street"/>
  </way>
  <way id="31533564" version="5" timestamp="2012-01-18T07:53:52Z" uid="147510" user="woodpeck_fixbot" changeset="10424702">
    <nd ref="352887413"/>
    <nd ref="352887474"/>
    <tag k="highway" v="residential"/>
    <tag k="name" v="Garden Street"/>
  </way>
  <way id="31533565" version="4" timestamp="2010-07-09T05:16:31Z" uid="74617" user="JohnSmith" changeset="5170986">
    <nd ref="352887415"/>
    <nd ref="352887506"/>
    <nd ref="352887485"/>
    <tag k="highway" v="residential"/>
    <tag k="maxspeed" v="50"/>
    <tag k="maxspeed:source" v="default residential speed limit in Australia"/>
    <tag k="name" v="Killara Street"/>
  </way>
  <way id="31533565" version="5" timestamp="2012-01-18T07:53:54Z" uid="147510" user="woodpeck_fixbot" changeset="10424702">
    <nd ref="352887415"/>
    <nd ref="352887506"/>
    <nd ref="352887485"/>
    <tag k="highway" v="residential"/>
    <tag k="name" v="Killara Street"/>
  </way>
  <way id="31533566" version="3" timestamp="2010-07-09T05:14:45Z" uid="74617" user="JohnSmith" changeset="5170986">
    <nd ref="352887492"/>
    <nd ref="352887506"/>
    <tag k="highway" v="residential"/>
    <tag k="maxspeed" v="50"/>
    <tag k="maxspeed:source" v="default residential speed limit in Australia"/>
    <tag k="name" v="Waranga Street"/>
  </way>
  <way id="31533566" version="4" timestamp="2012-01-18T07:53:55Z" uid="147510" user="woodpeck_fixbot" changeset="10424702">
    <nd ref="352887492"/>
    <nd ref="352887506"/>
    <tag k="highway" v="residential"/>
    <tag k="name" v="Waranga Street"/>
  </way>
  <way id="31533570" version="3" timestamp="2010-07-09T05:16:33Z" uid="74617" user="JohnSmith" changeset="5170986">
    <nd ref="352887515"/>
    <nd ref="352887542"/>
    <nd ref="352887543"/>
    <nd ref="352887416"/>
    <nd ref="352887544"/>
    <nd ref="352887545"/>
    <tag k="highway" v="residential"/>
    <tag k="maxspeed" v="50"/>
    <tag k="maxspeed:source" v="default residential speed limit in Australia"/>
    <tag k="name" v="Harrison Street"/>
  </way>
  <way id="31533570" version="4" timestamp="2012-01-18T07:53:57Z" uid="147510" user="woodpeck_fixbot" changeset="10424702">
    <nd ref="352887515"/>
    <nd ref="352887542"/>
    <nd ref="352887543"/>
    <nd ref="352887416"/>
    <nd ref="352887544"/>
    <nd ref="352887545"/>
    <tag k="highway" v="residential"/>
    <tag k="name" v="Harrison Street"/>
  </way>
  <way id="31533572" version="3" timestamp="2010-07-09T05:13:10Z" uid="74617" user="JohnSmith" changeset="5170986">
    <nd ref="352887544"/>
    <nd ref="352887558"/>
    <tag k="highway" v="residential"/>
    <tag k="maxspeed" v="50"/>
    <tag k="maxspeed:source" v="default residential speed limit in Australia"/>
    <tag k="name" v="Allan Street"/>
  </way>
  <way id="31533572" version="4" timestamp="2012-01-18T07:53:58Z" uid="147510" user="woodpeck_fixbot" changeset="10424702">
    <nd ref="352887544"/>
    <nd ref="352887558"/>
    <tag k="highway" v="residential"/>
    <tag k="name" v="Allan Street"/>
  </way>
  <way id="31533582" version="3" timestamp="2010-07-09T05:15:19Z" uid="74617" user="JohnSmith" changeset="5170986">
    <nd ref="352887638"/>
    <nd ref="352887676"/>
    <tag k="highway" v="residential"/>
    <tag k="maxspeed" v="50"/>
    <tag k="maxspeed:source" v="default residential speed limit in Australia"/>
    <tag k="name" v="Ronald Street"/>
    <tag k="source" v="Yahoo"/>
    <tag k="source:name" v="Collins 1936"/>
  </way>
  <way id="31533582" version="4" timestamp="2012-01-18T07:54:00Z" uid="147510" user="woodpeck_fixbot" changeset="10424702">
    <nd ref="352887638"/>
    <nd ref="352887676"/>
    <tag k="highway" v="residential"/>
    <tag k="name" v="Ronald Street"/>
    <tag k="source" v="Yahoo"/>
    <tag k="source:name" v="Collins 1936"/>
  </way>
  <way id="31533583" version="4" timestamp="2010-07-09T05:13:37Z" uid="74617" user="JohnSmith" changeset="5170986">
    <nd ref="30949175"/>
    <nd ref="352888398"/>
    <nd ref="352887714"/>
    <nd ref="352887715"/>
    <nd ref="352887716"/>
    <nd ref="352887717"/>
    <tag k="highway" v="residential"/>
    <tag k="maxspeed" v="50"/>
    <tag k="maxspeed:source" v="default residential speed limit in Australia"/>
    <tag k="name" v="Narallah Grove"/>
    <tag k="source" v="Yahoo"/>
    <tag k="source:name" v="Collins 1936"/>
  </way>
  <way id="31533583" version="5" timestamp="2010-07-12T08:25:13Z" uid="4467" user="Rosscoe" changeset="5196610">
    <nd ref="812923046"/>
    <nd ref="352888398"/>
    <nd ref="352887714"/>
    <nd ref="352887715"/>
    <nd ref="352887716"/>
    <nd ref="352887717"/>
    <tag k="highway" v="residential"/>
    <tag k="maxspeed" v="50"/>
    <tag k="maxspeed:source" v="default residential speed limit in Australia"/>
    <tag k="name" v="Narallah Grove"/>
    <tag k="source" v="Yahoo"/>
    <tag k="source:name" v="Collins 1936"/>
  </way>
  <way id="31533583" version="6" timestamp="2012-01-18T07:54:01Z" uid="147510" user="woodpeck_fixbot" changeset="10424702">
    <nd ref="812923046"/>
    <nd ref="352888398"/>
    <nd ref="352887714"/>
    <nd ref="352887715"/>
    <nd ref="352887716"/>
    <nd ref="352887717"/>
    <tag k="highway" v="residential"/>
    <tag k="name" v="Narallah Grove"/>
    <tag k="source" v="Yahoo"/>
    <tag k="source:name" v="Collins 1936"/>
  </way>
  <way id="31533591" version="6" timestamp="2010-07-09T05:12:57Z" uid="74617" user="JohnSmith" changeset="5170986">
    <nd ref="352887851"/>
    <nd ref="352887894"/>
    <nd ref="352888411"/>
    <nd ref="352888402"/>
    <nd ref="352888394"/>
    <nd ref="352888365"/>
    <nd ref="352887895"/>
    <tag k="highway" v="residential"/>
    <tag k="maxspeed" v="50"/>
    <tag k="maxspeed:source" v="default residential speed limit in Australia"/>
    <tag k="name" v="Aspinall Road"/>
    <tag k="source" v="Yahoo"/>
    <tag k="source:name" v="Collins 1936"/>
  </way>
  <way id="31533591" version="7" timestamp="2012-01-18T07:54:03Z" uid="147510" user="woodpeck_fixbot" changeset="10424702">
    <nd ref="352887851"/>
    <nd ref="352887894"/>
    <nd ref="352888411"/>
    <nd ref="352888402"/>
    <nd ref="352888394"/>
    <nd ref="352888365"/>
    <nd ref="352887895"/>
    <tag k="highway" v="residential"/>
    <tag k="name" v="Aspinall Road"/>
    <tag k="source" v="Yahoo"/>
    <tag k="source:name" v="Collins 1936"/>
  </way>
  <way id="31533602" version="4" timestamp="2010-07-09T05:14:42Z" uid="74617" user="JohnSmith" changeset="5170986">
    <nd ref="352887545"/>
    <nd ref="352888412"/>
    <nd ref="352888413"/>
    <nd ref="352888350"/>
    <nd ref="352888351"/>
    <nd ref="352888352"/>
    <nd ref="352888353"/>
    <nd ref="352888354"/>
    <nd ref="352888355"/>
    <nd ref="352888356"/>
    <tag k="highway" v="residential"/>
    <tag k="maxspeed" v="50"/>
    <tag k="maxspeed:source" v="default residential speed limit in Australia"/>
    <tag k="name" v="Harrison Street"/>
  </way>
  <way id="31533602" version="5" timestamp="2012-01-18T07:54:05Z" uid="147510" user="woodpeck_fixbot" changeset="10424702">
    <nd ref="352887545"/>
    <nd ref="352888412"/>
    <nd ref="352888413"/>
    <nd ref="352888350"/>
    <nd ref="352888351"/>
    <nd ref="352888352"/>
    <nd ref="352888353"/>
    <nd ref="352888354"/>
    <nd ref="352888355"/>
    <nd ref="352888356"/>
    <tag k="highway" v="residential"/>
    <tag k="name" v="Harrison Street"/>
  </way>
  <way id="31533603" version="4" timestamp="2010-07-09T05:13:02Z" uid="74617" user="JohnSmith" changeset="5170986">
    <nd ref="352888365"/>
    <nd ref="352888380"/>
    <nd ref="352888354"/>
    <tag k="highway" v="residential"/>
    <tag k="maxspeed" v="50"/>
    <tag k="maxspeed:source" v="default residential speed limit in Australia"/>
    <tag k="name" v="Somerset Street"/>
  </way>
  <way id="31533603" version="5" timestamp="2012-01-18T07:54:06Z" uid="147510" user="woodpeck_fixbot" changeset="10424702">
    <nd ref="352888365"/>
    <nd ref="352888380"/>
    <nd ref="352888354"/>
    <tag k="highway" v="residential"/>
    <tag k="name" v="Somerset Street"/>
  </way>
  <way id="31533627" version="6" timestamp="2010-07-09T05:15:28Z" uid="74617" user="JohnSmith" changeset="5170986">
    <nd ref="352888394"/>
    <nd ref="352888418"/>
    <nd ref="352888401"/>
    <nd ref="352888397"/>
    <tag k="highway" v="residential"/>
    <tag k="maxspeed" v="50"/>
    <tag k="maxspeed:source" v="default residential speed limit in Australia"/>
    <tag k="name" v="Boxleigh Grove"/>
  </way>
  <way id="31533627" version="7" timestamp="2012-01-18T07:54:07Z" uid="147510" user="woodpeck_fixbot" changeset="10424702">
    <nd ref="352888394"/>
    <nd ref="352888418"/>
    <nd ref="352888401"/>
    <nd ref="352888397"/>
    <tag k="highway" v="residential"/>
    <tag k="name" v="Boxleigh Grove"/>
  </way>
  <way id="31533640" version="3" timestamp="2010-07-09T05:13:05Z" uid="74617" user="JohnSmith" changeset="5170986">
    <nd ref="352888398"/>
    <nd ref="352888401"/>
    <tag k="highway" v="residential"/>
    <tag k="maxspeed" v="50"/>
    <tag k="maxspeed:source" v="default residential speed limit in Australia"/>
    <tag k="name" v="Wetzell Street"/>
  </way>
  <way id="31533640" version="4" timestamp="2012-01-18T07:54:08Z" uid="147510" user="woodpeck_fixbot" changeset="10424702">
    <nd ref="352888398"/>
    <nd ref="352888401"/>
    <tag k="highway" v="residential"/>
    <tag k="name" v="Wetzell Street"/>
  </way>
  <way id="31533662" version="4" timestamp="2010-07-09T05:15:51Z" uid="74617" user="JohnSmith" changeset="5170986">
    <nd ref="352888402"/>
    <nd ref="352888405"/>
    <nd ref="352888406"/>
    <nd ref="352888407"/>
    <nd ref="352888408"/>
    <nd ref="352888409"/>
    <tag k="highway" v="residential"/>
    <tag k="maxspeed" v="50"/>
    <tag k="maxspeed:source" v="default residential speed limit in Australia"/>
    <tag k="name" v="Tweedie Court"/>
  </way>
  <way id="31533662" version="5" timestamp="2012-01-18T07:54:09Z" uid="147510" user="woodpeck_fixbot" changeset="10424702">
    <nd ref="352888402"/>
    <nd ref="352888405"/>
    <nd ref="352888406"/>
    <nd ref="352888407"/>
    <nd ref="352888408"/>
    <nd ref="352888409"/>
    <tag k="highway" v="residential"/>
    <tag k="name" v="Tweedie Court"/>
  </way>
  <way id="31533690" version="4" timestamp="2010-07-09T05:12:45Z" uid="74617" user="JohnSmith" changeset="5170986">
    <nd ref="352888411"/>
    <nd ref="352888412"/>
    <tag k="highway" v="residential"/>
    <tag k="maxspeed" v="50"/>
    <tag k="maxspeed:source" v="default residential speed limit in Australia"/>
    <tag k="name" v="Ursula Street"/>
  </way>
  <way id="31533690" version="5" timestamp="2012-01-18T07:54:10Z" uid="147510" user="woodpeck_fixbot" changeset="10424702">
    <nd ref="352888411"/>
    <nd ref="352888412"/>
    <tag k="highway" v="residential"/>
    <tag k="name" v="Ursula Street"/>
  </way>
  <way id="31533701" version="3" timestamp="2010-07-09T05:18:39Z" uid="74617" user="JohnSmith" changeset="5170986">
    <nd ref="352888413"/>
    <nd ref="352888415"/>
    <tag k="highway" v="residential"/>
    <tag k="maxspeed" v="50"/>
    <tag k="maxspeed:source" v="default residential speed limit in Australia"/>
    <tag k="name" v="Birkby Street"/>
  </way>
  <way id="31533701" version="4" timestamp="2012-01-18T07:54:12Z" uid="147510" user="woodpeck_fixbot" changeset="10424702">
    <nd ref="352888413"/>
    <nd ref="352888415"/>
    <tag k="highway" v="residential"/>
    <tag k="name" v="Birkby Street"/>
  </way>
  <way id="31533757" version="4" timestamp="2010-07-09T05:19:19Z" uid="74617" user="JohnSmith" changeset="5170986">
    <nd ref="352888418"/>
    <nd ref="352888434"/>
    <nd ref="352888432"/>
    <nd ref="352887895"/>
    <nd ref="352888356"/>
    <nd ref="352888433"/>
    <tag k="highway" v="residential"/>
    <tag k="maxspeed" v="50"/>
    <tag k="maxspeed:source" v="default residential speed limit in Australia"/>
    <tag k="name" v="Lyndhurst Crescent"/>
  </way>
  <way id="31533757" version="5" timestamp="2012-01-18T07:54:13Z" uid="147510" user="woodpeck_fixbot" changeset="10424702">
    <nd ref="352888418"/>
    <nd ref="352888434"/>
    <nd ref="352888432"/>
    <nd ref="352887895"/>
    <nd ref="352888356"/>
    <nd ref="352888433"/>
    <tag k="highway" v="residential"/>
    <tag k="name" v="Lyndhurst Crescent"/>
  </way>
  <way id="31533800" version="3" timestamp="2010-07-09T05:18:26Z" uid="74617" user="JohnSmith" changeset="5170986">
    <nd ref="30949177"/>
    <nd ref="352888443"/>
    <nd ref="352888444"/>
    <tag k="highway" v="residential"/>
    <tag k="maxspeed" v="50"/>
    <tag k="maxspeed:source" v="default residential speed limit in Australia"/>
    <tag k="oneway" v="yes"/>
  </way>
  <way id="31533800" version="4" timestamp="2010-07-12T08:25:04Z" uid="4467" user="Rosscoe" changeset="5196610">
    <nd ref="30949177"/>
    <nd ref="352888444"/>
    <tag k="highway" v="residential"/>
    <tag k="maxspeed" v="50"/>
    <tag k="maxspeed:source" v="default residential speed limit in Australia"/>
    <tag k="oneway" v="yes"/>
  </way>
  <way id="31533800" version="5" timestamp="2012-01-18T07:54:14Z" uid="147510" user="woodpeck_fixbot" changeset="10424702">
    <nd ref="30949177"/>
    <nd ref="352888444"/>
    <tag k="highway" v="residential"/>
    <tag k="oneway" v="yes"/>
  </way>
  <way id="31533848" version="6" timestamp="2010-07-09T05:12:45Z" uid="74617" user="JohnSmith" changeset="5170986">
    <nd ref="352888454"/>
    <nd ref="352889555"/>
    <nd ref="352889536"/>
    <nd ref="352888455"/>
    <tag k="highway" v="residential"/>
    <tag k="maxspeed" v="50"/>
    <tag k="maxspeed:source" v="default residential speed limit in Australia"/>
    <tag k="name" v="Molbray Street"/>
  </way>
  <way id="31533848" version="7" timestamp="2012-01-18T07:54:15Z" uid="147510" user="woodpeck_fixbot" changeset="10424702">
    <nd ref="352888454"/>
    <nd ref="352889555"/>
    <nd ref="352889536"/>
    <nd ref="352888455"/>
    <tag k="highway" v="residential"/>
    <tag k="name" v="Molbray Street"/>
  </way>
  <way id="31533861" version="5" timestamp="2010-07-09T05:16:07Z" uid="74617" user="JohnSmith" changeset="5170986">
    <nd ref="352888456"/>
    <nd ref="352888462"/>
    <nd ref="352888460"/>
    <nd ref="352888457"/>
    <tag k="highway" v="residential"/>
    <tag k="maxspeed" v="50"/>
    <tag k="maxspeed:source" v="default residential speed limit in Australia"/>
    <tag k="name" v="Packham Street"/>
  </way>
  <way id="31533861" version="6" timestamp="2012-01-18T07:54:17Z" uid="147510" user="woodpeck_fixbot" changeset="10424702">
    <nd ref="352888456"/>
    <nd ref="352888462"/>
    <nd ref="352888460"/>
    <nd ref="352888457"/>
    <tag k="highway" v="residential"/>
    <tag k="name" v="Packham Street"/>
  </way>
  <way id="31533872" version="5" timestamp="2010-07-09T05:13:27Z" uid="74617" user="JohnSmith" changeset="5170986">
    <nd ref="352888458"/>
    <nd ref="352888463"/>
    <nd ref="352888461"/>
    <nd ref="352888459"/>
    <tag k="highway" v="residential"/>
    <tag k="maxspeed" v="50"/>
    <tag k="maxspeed:source" v="default residential speed limit in Australia"/>
    <tag k="name" v="Trawool Street"/>
  </way>
  <way id="31533872" version="6" timestamp="2012-01-18T07:54:18Z" uid="147510" user="woodpeck_fixbot" changeset="10424702">
    <nd ref="352888458"/>
    <nd ref="352888463"/>
    <nd ref="352888461"/>
    <nd ref="352888459"/>
    <tag k="highway" v="residential"/>
    <tag k="name" v="Trawool Street"/>
  </way>
  <way id="31533883" version="3" timestamp="2010-07-09T05:13:56Z" uid="74617" user="JohnSmith" changeset="5170986">
    <nd ref="352888460"/>
    <nd ref="352888461"/>
    <tag k="highway" v="residential"/>
    <tag k="maxspeed" v="50"/>
    <tag k="maxspeed:source" v="default residential speed limit in Australia"/>
    <tag k="name" v="Kilto Street"/>
  </way>
  <way id="31533883" version="4" timestamp="2012-01-18T07:54:19Z" uid="147510" user="woodpeck_fixbot" changeset="10424702">
    <nd ref="352888460"/>
    <nd ref="352888461"/>
    <tag k="highway" v="residential"/>
    <tag k="name" v="Kilto Street"/>
  </way>
  <way id="31533893" version="3" timestamp="2010-07-09T05:13:29Z" uid="74617" user="JohnSmith" changeset="5170986">
    <nd ref="352888462"/>
    <nd ref="352888463"/>
    <tag k="highway" v="residential"/>
    <tag k="maxspeed" v="50"/>
    <tag k="maxspeed:source" v="default residential speed limit in Australia"/>
    <tag k="name" v="Tynong Street"/>
  </way>
  <way id="31533893" version="4" timestamp="2012-01-18T07:54:20Z" uid="147510" user="woodpeck_fixbot" changeset="10424702">
    <nd ref="352888462"/>
    <nd ref="352888463"/>
    <tag k="highway" v="residential"/>
    <tag k="name" v="Tynong Street"/>
  </way>
</osm>
