<?xml version='1.0' encoding='UTF-8'?>
<osm version="0.6" generator="libosmium/2.20.0">
  <way id="31532101" version="4" timestamp="2010-04-03T04:11:06Z" uid="20587" user="balrog-kun" changeset="4309442">
    <nd ref="352870370"/>
    <nd ref="352870651"/>
    <nd ref="352870652"/>
    <tag k="created_by" v="Potlatch 0.10f"/>
    <tag k="highway" v="unclassified"/>
    <tag k="name" v="Chiricahua Road"/>
  </way>
  <way id="31532101" version="5" timestamp="2012-03-17T16:08:12Z" uid="91347" user="jonathanpatt" changeset="11009438">
    <nd ref="352870370"/>
    <nd ref="1678359092"/>
    <nd ref="1678358808"/>
    <nd ref="1678359146"/>
    <nd ref="352870651"/>
    <nd ref="1678359015"/>
    <nd ref="1678358811"/>
    <nd ref="352870652"/>
    <nd ref="1678359237"/>
    <nd ref="1678359229"/>
    <nd ref="1678359009"/>
    <nd ref="1678358925"/>
    <nd ref="1678358989"/>
    <nd ref="1678359194"/>
    <nd ref="1678359250"/>
    <nd ref="1678359174"/>
    <tag k="highway" v="unclassified"/>
    <tag k="name" v="Chiricahua Road"/>
  </way>
  <way id="31532106" version="4" timestamp="2009-03-30T20:32:17Z" uid="110593" user="esetzer" changeset="869932">
    <nd ref="352870719"/>
    <nd ref="352870697"/>
    <nd ref="352870698"/>
    <nd ref="352870699"/>
    <nd ref="352870700"/>
    <nd ref="352870701"/>
    <nd ref="352870702"/>
    <nd ref="352870703"/>
    <nd ref="352870704"/>
    <nd ref="352870705"/>
    <nd ref="352870706"/>
    <nd ref="352870707"/>
    <nd ref="352870708"/>
    <nd ref="352870709"/>
    <nd ref="352870710"/>
    <nd ref="352870711"/>
    <nd ref="352870712"/>
    <nd ref="367672282"/>
    <nd ref="352870713"/>
    <nd ref="352870714"/>
    <nd ref="352876355"/>
    <nd ref="352870717"/>
    <tag k="bridge" v="yes"/>
    <tag k="created_by" v="Potlatch 0.10f"/>
    <tag k="highway" v="motorway_link"/>
    <tag k="layer" v="1"/>
    <tag k="oneway" v="yes"/>
  </way>
  <way id="31532106" version="5" timestamp="2011-10-16T03:43:09Z" uid="207745" user="NE2" changeset="9568940">
    <nd ref="352870719"/>
    <nd ref="352870697"/>
    <nd ref="352870698"/>
    <nd ref="352870699"/>
    <nd ref="352870700"/>
    <nd ref="352870701"/>
    <nd ref="352870702"/>
    <nd ref="352870703"/>
    <nd ref="352870704"/>
    <nd ref="352870705"/>
    <nd ref="352870706"/>
    <nd ref="352870707"/>
    <nd ref="352870708"/>
    <nd ref="352870709"/>
    <nd ref="352870710"/>
    <nd ref="352870711"/>
    <nd ref="352870712"/>
    <nd ref="367672282"/>
    <nd ref="352870713"/>
    <nd ref="352870714"/>
    <nd ref="352876355"/>
    <nd ref="352870717"/>
    <tag k="bicycle" v="no"/>
    <tag k="bridge" v="yes"/>
    <tag k="highway" v="motorway_link"/>
    <tag k="layer" v="1"/>
    <tag k="oneway" v="yes"/>
  </way>
  <way id="31532164" version="17" timestamp="2010-04-03T13:44:40Z" uid="20587" user="balrog-kun" changeset="4312927">
    <nd ref="83655389"/>
    <nd ref="352884251"/>
    <tag k="bridge" v="yes"/>
    <tag k="created_by" v="change_tags.py: preen 0.7"/>
    <tag k="highway" v="motorway"/>
    <tag k="layer" v="1"/>
    <tag k="name" v="West 2100 South Expressway"/>
    <tag k="name_1" v="State Route 201"/>
    <tag k="name_2" v="West 2100 South"/>
    <tag k="ref" v="SR-201"/>
    <tag k="tiger:cfcc" v="A11"/>
    <tag k="tiger:county" v="Salt Lake, UT"/>
    <tag k="tiger:name_base" v="2100 S"/>
    <tag k="tiger:name_base_1" v="State Route 201"/>
    <tag k="tiger:name_base_2" v="2100"/>
    <tag k="tiger:name_direction_prefix" v="W"/>
    <tag k="tiger:name_direction_prefix_2" v="W"/>
    <tag k="tiger:name_direction_suffix_2" v="S"/>
    <tag k="tiger:name_type" v="Expy"/>
    <tag k="tiger:separated" v="yes"/>
    <tag k="tiger:source" v="tiger_import_dch_v0.6_20070830"/>
    <tag k="tiger:tlid" v="176139103:176139104:176139122:176139123:176071061:176071063:176128425:176071072:176071074:176139128:176139129:176071092:176071093:176155226"/>
    <tag k="tiger:zip_left" v="84119"/>
    <tag k="tiger:zip_right" v="84119"/>
  </way>
  <way id="31532164" version="18" timestamp="2010-08-05T07:39:17Z" uid="321736" user="Kevin Atkinson" changeset="5405091">
    <nd ref="83655389"/>
    <nd ref="352884251"/>
    <tag k="bridge" v="yes"/>
    <tag k="highway" v="motorway"/>
    <tag k="layer" v="1"/>
    <tag k="name" v="West 2100 South Expressway"/>
    <tag k="name_1" v="State Route 201"/>
    <tag k="name_2" v="2100 South"/>
    <tag k="name_2:full" v="West 2100 South"/>
    <tag k="name_2:prefix" v="W"/>
    <tag k="ref" v="SR-201"/>
    <tag k="tiger:cfcc" v="A11"/>
    <tag k="tiger:county" v="Salt Lake, UT"/>
    <tag k="tiger:name_base" v="2100 S"/>
    <tag k="tiger:name_base_1" v="State Route 201"/>
    <tag k="tiger:name_base_2" v="2100"/>
    <tag k="tiger:name_direction_prefix" v="W"/>
    <tag k="tiger:name_direction_prefix_2" v="W"/>
    <tag k="tiger:name_direction_suffix_2" v="S"/>
    <tag k="tiger:name_type" v="Expy"/>
    <tag k="tiger:separated" v="yes"/>
    <tag k="tiger:source" v="tiger_import_dch_v0.6_20070830"/>
    <tag k="tiger:tlid" v="176139103:176139104:176139122:176139123:176071061:176071063:176128425:176071072:176071074:176139128:176139129:176071092:176071093:176155226"/>
    <tag k="tiger:zip_left" v="84119"/>
    <tag k="tiger:zip_right" v="84119"/>
  </way>
  <way id="31532164" version="19" timestamp="2011-02-26T06:21:03Z" uid="207745" user="NE2" changeset="7396724">
    <nd ref="83655389"/>
    <nd ref="352884251"/>
    <tag k="bridge" v="yes"/>
    <tag k="highway" v="motorway"/>
    <tag k="layer" v="1"/>
    <tag k="name" v="West 2100 South Expressway"/>
    <tag k="name_1" v="State Route 201"/>
    <tag k="name_2" v="2100 South"/>
    <tag k="name_2:full" v="West 2100 South"/>
    <tag k="name_2:prefix" v="W"/>
    <tag k="oneway" v="yes"/>
    <tag k="ref" v="SR-201"/>
    <tag k="tiger:cfcc" v="A11"/>
    <tag k="tiger:county" v="Salt Lake, UT"/>
    <tag k="tiger:name_base" v="2100 S"/>
    <tag k="tiger:name_base_1" v="State Route 201"/>
    <tag k="tiger:name_base_2" v="2100"/>
    <tag k="tiger:name_direction_prefix" v="W"/>
    <tag k="tiger:name_direction_prefix_2" v="W"/>
    <tag k="tiger:name_direction_suffix_2" v="S"/>
    <tag k="tiger:name_type" v="Expy"/>
    <tag k="tiger:separated" v="yes"/>
    <tag k="tiger:source" v="tiger_import_dch_v0.6_20070830"/>
    <tag k="tiger:tlid" v="176139103:176139104:176139122:176139123:176071061:176071063:176128425:176071072:176071074:176139128:176139129:176071092:176071093:176155226"/>
    <tag k="tiger:zip_left" v="84119"/>
    <tag k="tiger:zip_right" v="84119"/>
  </way>
  <way id="31532164" version="20" timestamp="2011-03-25T15:22:41Z" uid="207745" user="NE2" changeset="7665283">
    <nd ref="83655389"/>
    <nd ref="352884251"/>
    <tag k="bridge" v="yes"/>
    <tag k="highway" v="motorway"/>
    <tag k="layer" v="1"/>
    <tag k="name" v="West 2100 South Expressway"/>
    <tag k="name_1" v="2100 South"/>
    <tag k="name_1:full" v="West 2100 South"/>
    <tag k="name_1:prefix" v="W"/>
    <tag k="oneway" v="yes"/>
    <tag k="ref" v="SR-201"/>
    <tag k="tiger:cfcc" v="A11"/>
    <tag k="tiger:county" v="Salt Lake, UT"/>
    <tag k="tiger:name_base" v="2100 S"/>
    <tag k="tiger:name_base_1" v="State Route 201"/>
    <tag k="tiger:name_base_2" v="2100"/>
    <tag k="tiger:name_direction_prefix" v="W"/>
    <tag k="tiger:name_direction_prefix_2" v="W"/>
    <tag k="tiger:name_direction_suffix_2" v="S"/>
    <tag k="tiger:name_type" v="Expy"/>
    <tag k="tiger:separated" v="yes"/>
    <tag k="tiger:source" v="tiger_import_dch_v0.6_20070830"/>
    <tag k="tiger:tlid" v="176139103:176139104:176139122:176139123:176071061:176071063:176128425:176071072:176071074:176139128:176139129:176071092:176071093:176155226"/>
    <tag k="tiger:zip_left" v="84119"/>
    <tag k="tiger:zip_right" v="84119"/>
  </way>
  <way id="31532164" version="21" timestamp="2011-07-30T11:41:32Z" uid="207745" user="NE2" changeset="8871286">
    <nd ref="83655389"/>
    <nd ref="352884251"/>
    <tag k="bridge" v="yes"/>
    <tag k="highway" v="motorway"/>
    <tag k="lanes" v="4"/>
    <tag k="layer" v="1"/>
    <tag k="name" v="West 2100 South Expressway"/>
    <tag k="name_1" v="2100 South"/>
    <tag k="name_1:full" v="West 2100 South"/>
    <tag k="name_1:prefix" v="W"/>
    <tag k="oneway" v="yes"/>
    <tag k="ref" v="SR-201"/>
    <tag k="tiger:cfcc" v="A11"/>
    <tag k="tiger:county" v="Salt Lake, UT"/>
    <tag k="tiger:name_base" v="2100 S"/>
    <tag k="tiger:name_base_1" v="State Route 201"/>
    <tag k="tiger:name_base_2" v="2100"/>
    <tag k="tiger:name_direction_prefix" v="W"/>
    <tag k="tiger:name_direction_prefix_2" v="W"/>
    <tag k="tiger:name_direction_suffix_2" v="S"/>
    <tag k="tiger:name_type" v="Expy"/>
    <tag k="tiger:separated" v="yes"/>
    <tag k="tiger:source" v="tiger_import_dch_v0.6_20070830"/>
    <tag k="tiger:tlid" v="176139103:176139104:176139122:176139123:176071061:176071063:176128425:176071072:176071074:176139128:176139129:176071092:176071093:176155226"/>
    <tag k="tiger:zip_left" v="84119"/>
    <tag k="tiger:zip_right" v="84119"/>
  </way>
  <way id="31532164" version="22" timestamp="2011-10-16T03:40:28Z" uid="207745" user="NE2" changeset="9568940">
    <nd ref="83655389"/>
    <nd ref="352884251"/>
    <tag k="FIXME" v="verify bicycle=yes"/>
    <tag k="bicycle" v="yes"/>
    <tag k="bridge" v="yes"/>
    <tag k="highway" v="motorway"/>
    <tag k="lanes" v="4"/>
    <tag k="layer" v="1"/>
    <tag k="name" v="West 2100 South Expressway"/>
    <tag k="name_1" v="2100 South"/>
    <tag k="name_1:full" v="West 2100 South"/>
    <tag k="name_1:prefix" v="W"/>
    <tag k="oneway" v="yes"/>
    <tag k="ref" v="SR-201"/>
    <tag k="tiger:cfcc" v="A11"/>
    <tag k="tiger:county" v="Salt Lake, UT"/>
    <tag k="tiger:name_base" v="2100 S"/>
    <tag k="tiger:name_base_1" v="State Route 201"/>
    <tag k="tiger:name_base_2" v="2100"/>
    <tag k="tiger:name_direction_prefix" v="W"/>
    <tag k="tiger:name_direction_prefix_2" v="W"/>
    <tag k="tiger:name_direction_suffix_2" v="S"/>
    <tag k="tiger:name_type" v="Expy"/>
    <tag k="tiger:separated" v="yes"/>
    <tag k="tiger:source" v="tiger_import_dch_v0.6_20070830"/>
    <tag k="tiger:tlid" v="176139103:176139104:176139122:176139123:176071061:176071063:176128425:176071072:176071074:176139128:176139129:176071092:176071093:176155226"/>
    <tag k="tiger:zip_left" v="84119"/>
    <tag k="tiger:zip_right" v="84119"/>
  </way>
  <way id="31532253" version="3" timestamp="2010-03-28T01:07:43Z" uid="20587" user="balrog-kun" changeset="4250871">
    <nd ref="57848557"/>
    <nd ref="57848558"/>
    <nd ref="310148908"/>
    <nd ref="57826244"/>
    <tag k="created_by" v="Potlatch 0.10f"/>
    <tag k="highway" v="residential"/>
    <tag k="name" v="Jones Street"/>
    <tag k="tiger:cfcc" v="A41"/>
    <tag k="tiger:county" v="Contra Costa, CA"/>
    <tag k="tiger:name_base" v="Jones"/>
    <tag k="tiger:name_type" v="St"/>
    <tag k="tiger:reviewed" v="no"/>
    <tag k="tiger:separated" v="no"/>
    <tag k="tiger:source" v="tiger_import_dch_v0.6_20070809"/>
    <tag k="tiger:tlid" v="192035689:192035692:192035695"/>
    <tag k="tiger:zip_left" v="94553"/>
    <tag k="tiger:zip_right" v="94553"/>
  </way>
  <way id="31532282" version="3" timestamp="2010-03-28T01:07:43Z" uid="20587" user="balrog-kun" changeset="4250871">
    <nd ref="57826244"/>
    <nd ref="310148904"/>
    <nd ref="310148902"/>
    <nd ref="57848559"/>
    <tag k="created_by" v="Potlatch 0.10f"/>
    <tag k="highway" v="tertiary"/>
    <tag k="name" v="Jones Street"/>
    <tag k="tiger:cfcc" v="A41"/>
    <tag k="tiger:county" v="Contra Costa, CA"/>
    <tag k="tiger:name_base" v="Jones"/>
    <tag k="tiger:name_type" v="St"/>
    <tag k="tiger:reviewed" v="no"/>
    <tag k="tiger:separated" v="no"/>
    <tag k="tiger:source" v="tiger_import_dch_v0.6_20070809"/>
    <tag k="tiger:tlid" v="192035689:192035692:192035695"/>
    <tag k="tiger:zip_left" v="94553"/>
    <tag k="tiger:zip_right" v="94553"/>
  </way>
  <way id="31532282" version="4" timestamp="2011-05-07T20:38:45Z" uid="74275" user="behemoth14" changeset="8076936">
    <nd ref="57826244"/>
    <nd ref="310148904"/>
    <nd ref="310148902"/>
    <nd ref="1276359205"/>
    <nd ref="57848559"/>
    <tag k="highway" v="tertiary"/>
    <tag k="name" v="Jones Street"/>
    <tag k="tiger:cfcc" v="A41"/>
    <tag k="tiger:county" v="Contra Costa, CA"/>
    <tag k="tiger:name_base" v="Jones"/>
    <tag k="tiger:name_type" v="St"/>
    <tag k="tiger:reviewed" v="no"/>
    <tag k="tiger:separated" v="no"/>
    <tag k="tiger:source" v="tiger_import_dch_v0.6_20070809"/>
    <tag k="tiger:tlid" v="192035689:192035692:192035695"/>
    <tag k="tiger:zip_left" v="94553"/>
    <tag k="tiger:zip_right" v="94553"/>
  </way>
  <way id="31532288" version="3" timestamp="2010-03-28T01:07:44Z" uid="20587" user="balrog-kun" changeset="4250871">
    <nd ref="57826244"/>
    <nd ref="310148908"/>
    <nd ref="57826247"/>
    <nd ref="57826251"/>
    <nd ref="57826254"/>
    <nd ref="57826257"/>
    <nd ref="57806257"/>
    <nd ref="57826262"/>
    <nd ref="57826265"/>
    <nd ref="57826268"/>
    <nd ref="303720158"/>
    <nd ref="57826272"/>
    <nd ref="57826275"/>
    <nd ref="57826278"/>
    <nd ref="353455753"/>
    <nd ref="57826280"/>
    <nd ref="57826282"/>
    <nd ref="57826284"/>
    <nd ref="57826286"/>
    <nd ref="57826287"/>
    <nd ref="57826288"/>
    <nd ref="57826291"/>
    <nd ref="57826294"/>
    <nd ref="57826297"/>
    <nd ref="57814500"/>
    <nd ref="57826299"/>
    <nd ref="57826301"/>
    <nd ref="57826303"/>
    <nd ref="57826305"/>
    <nd ref="57826309"/>
    <nd ref="57826311"/>
    <nd ref="57826313"/>
    <nd ref="57826315"/>
    <nd ref="57826317"/>
    <nd ref="57826319"/>
    <nd ref="57826323"/>
    <nd ref="57826325"/>
    <nd ref="57826327"/>
    <nd ref="57826329"/>
    <nd ref="57826331"/>
    <nd ref="57826334"/>
    <nd ref="57826336"/>
    <nd ref="57826338"/>
    <nd ref="57826340"/>
    <nd ref="57826342"/>
    <tag k="created_by" v="Potlatch 0.10f"/>
    <tag k="highway" v="residential"/>
    <tag k="name" v="Pine Street"/>
    <tag k="tiger:cfcc" v="A41"/>
    <tag k="tiger:county" v="Contra Costa, CA"/>
    <tag k="tiger:name_base" v="Pine"/>
    <tag k="tiger:name_type" v="St"/>
    <tag k="tiger:reviewed" v="no"/>
    <tag k="tiger:separated" v="no"/>
    <tag k="tiger:source" v="tiger_import_dch_v0.6_20070809"/>
    <tag k="tiger:tlid" v="192071171:192036146:192088463:192088462:192083903:192083904:192035953:192088460:192035976:192035899:192035750:192035753:192035767:192035773:192035782:192035688:192035693:192035699:192035506:192035509:192035475:192035706:192112662:192035986"/>
    <tag k="tiger:zip_left" v="94553"/>
    <tag k="tiger:zip_right" v="94553"/>
  </way>
  <way id="31532361" version="6" timestamp="2009-08-20T18:51:10Z" uid="110593" user="esetzer" changeset="2215747">
    <nd ref="352872682"/>
    <nd ref="352871479"/>
    <nd ref="352872685"/>
    <nd ref="83549375"/>
    <tag k="created_by" v="Potlatch 0.10f"/>
    <tag k="highway" v="secondary"/>
    <tag k="name" v="West 2100 South"/>
    <tag k="tiger:cfcc" v="A41"/>
    <tag k="tiger:county" v="Salt Lake, UT"/>
    <tag k="tiger:name_base" v="2100"/>
    <tag k="tiger:name_direction_prefix" v="W"/>
    <tag k="tiger:name_direction_suffix" v="S"/>
    <tag k="tiger:reviewed" v="no"/>
    <tag k="tiger:separated" v="no"/>
    <tag k="tiger:source" v="tiger_import_dch_v0.6_20070830"/>
    <tag k="tiger:tlid" v="176110102:176071654:176071658:176071668:176118000:176071682:176071687:176071096:176114031:176114032:176114034:176114035:176155360:176112097:176077486:176146295:176146296"/>
    <tag k="tiger:upload_uuid" v="bulk_upload.pl-a2da7ec1-da05-434f-a535-e5cc3da32f27"/>
    <tag k="tiger:zip_left" v="84119"/>
    <tag k="tiger:zip_right" v="84119"/>
  </way>
  <way id="31532361" version="7" timestamp="2010-08-05T07:33:27Z" uid="321736" user="Kevin Atkinson" changeset="5405091">
    <nd ref="352872682"/>
    <nd ref="352871479"/>
    <nd ref="352872685"/>
    <nd ref="83549375"/>
    <tag k="highway" v="secondary"/>
    <tag k="loc_name" v="21st South"/>
    <tag k="name" v="2100 South"/>
    <tag k="name:full" v="West 2100 South"/>
    <tag k="name:prefix" v="W"/>
    <tag k="tiger:cfcc" v="A41"/>
    <tag k="tiger:county" v="Salt Lake, UT"/>
    <tag k="tiger:name_base" v="2100"/>
    <tag k="tiger:name_direction_prefix" v="W"/>
    <tag k="tiger:name_direction_suffix" v="S"/>
    <tag k="tiger:reviewed" v="no"/>
    <tag k="tiger:separated" v="no"/>
    <tag k="tiger:source" v="tiger_import_dch_v0.6_20070830"/>
    <tag k="tiger:tlid" v="176110102:176071654:176071658:176071668:176118000:176071682:176071687:176071096:176114031:176114032:176114034:176114035:176155360:176112097:176077486:176146295:176146296"/>
    <tag k="tiger:upload_uuid" v="bulk_upload.pl-a2da7ec1-da05-434f-a535-e5cc3da32f27"/>
    <tag k="tiger:zip_left" v="84119"/>
    <tag k="tiger:zip_right" v="84119"/>
  </way>
  <way id="31532361" version="8" timestamp="2011-03-25T15:23:45Z" uid="207745" user="NE2" changeset="7665283">
    <nd ref="83549375"/>
    <nd ref="352872685"/>
    <nd ref="352871479"/>
    <tag k="highway" v="secondary"/>
    <tag k="loc_name" v="21st South"/>
    <tag k="name" v="2100 South"/>
    <tag k="name:full" v="West 2100 South"/>
    <tag k="name:prefix" v="W"/>
    <tag k="ref" v="SR 201"/>
    <tag k="tiger:cfcc" v="A41"/>
    <tag k="tiger:county" v="Salt Lake, UT"/>
    <tag k="tiger:name_base" v="2100"/>
    <tag k="tiger:name_direction_prefix" v="W"/>
    <tag k="tiger:name_direction_suffix" v="S"/>
    <tag k="tiger:reviewed" v="no"/>
    <tag k="tiger:separated" v="no"/>
    <tag k="tiger:source" v="tiger_import_dch_v0.6_20070830"/>
    <tag k="tiger:tlid" v="176110102:176071654:176071658:176071668:176118000:176071682:176071687:176071096:176114031:176114032:176114034:176114035:176155360:176112097:176077486:176146295:176146296"/>
    <tag k="tiger:upload_uuid" v="bulk_upload.pl-a2da7ec1-da05-434f-a535-e5cc3da32f27"/>
    <tag k="tiger:zip_left" v="84119"/>
    <tag k="tiger:zip_right" v="84119"/>
  </way>
  <way id="31532404" version="4" timestamp="2009-03-30T20:32:23Z" uid="110593" user="esetzer" changeset="869932">
    <nd ref="352873014"/>
    <nd ref="352873525"/>
    <nd ref="352873527"/>
    <nd ref="352873529"/>
    <nd ref="367672295"/>
    <nd ref="352873531"/>
    <nd ref="352873533"/>
    <nd ref="352873535"/>
    <nd ref="352873537"/>
    <nd ref="352873539"/>
    <nd ref="352873541"/>
    <nd ref="352873542"/>
    <nd ref="352873543"/>
    <nd ref="352873544"/>
    <nd ref="83638790"/>
    <tag k="created_by" v="Potlatch 0.10f"/>
    <tag k="highway" v="residential"/>
    <tag k="name" v="W 600 S"/>
  </way>
  <way id="31532404" version="5" timestamp="2009-04-04T06:47:03Z" uid="30079" user="Ted Percival" changeset="158049">
    <nd ref="352873014"/>
    <nd ref="352873525"/>
    <nd ref="352873527"/>
    <nd ref="352873529"/>
    <nd ref="367672295"/>
    <nd ref="352873531"/>
    <nd ref="352873533"/>
    <nd ref="352873535"/>
    <nd ref="352873537"/>
    <nd ref="352873539"/>
    <nd ref="352873541"/>
    <nd ref="352873542"/>
    <nd ref="352873543"/>
    <nd ref="352873544"/>
    <nd ref="83638790"/>
    <tag k="created_by" v="change_tags.py: gridstreetnames 0.5"/>
    <tag k="highway" v="residential"/>
    <tag k="name" v="West 600 South"/>
  </way>
  <way id="31532404" version="6" timestamp="2009-05-28T15:35:11Z" uid="110593" user="esetzer" changeset="1343791">
    <nd ref="352873014"/>
    <nd ref="352873525"/>
    <nd ref="352873527"/>
    <nd ref="352873529"/>
    <nd ref="367672295"/>
    <nd ref="352873531"/>
    <nd ref="352873533"/>
    <nd ref="352873535"/>
    <nd ref="352873537"/>
    <nd ref="352873539"/>
    <nd ref="352873541"/>
    <nd ref="352873542"/>
    <nd ref="352873543"/>
    <nd ref="352873544"/>
    <nd ref="83638790"/>
    <tag k="created_by" v="change_tags.py: gridstreetnames 0.5"/>
    <tag k="highway" v="residential"/>
    <tag k="name" v="South 600 West"/>
  </way>
  <way id="31532404" version="7" timestamp="2010-08-05T07:45:26Z" uid="321736" user="Kevin Atkinson" changeset="5405091">
    <nd ref="352873014"/>
    <nd ref="352873525"/>
    <nd ref="352873527"/>
    <nd ref="352873529"/>
    <nd ref="367672295"/>
    <nd ref="352873531"/>
    <nd ref="352873533"/>
    <nd ref="352873535"/>
    <nd ref="352873537"/>
    <nd ref="352873539"/>
    <nd ref="352873541"/>
    <nd ref="352873542"/>
    <nd ref="352873543"/>
    <nd ref="352873544"/>
    <nd ref="83638790"/>
    <tag k="highway" v="residential"/>
    <tag k="loc_name" v="6th West"/>
    <tag k="name" v="600 West"/>
    <tag k="name:full" v="South 600 West"/>
    <tag k="name:prefix" v="S"/>
  </way>
  <way id="31532405" version="4" timestamp="2009-07-22T03:38:14Z" uid="110593" user="esetzer" changeset="1900811">
    <nd ref="83557978"/>
    <nd ref="445260618"/>
    <nd ref="83587224"/>
    <tag k="created_by" v="change_tags.py: gridstreetnames 0.5"/>
    <tag k="highway" v="residential"/>
    <tag k="name" v="South 600 West"/>
    <tag k="tiger:cfcc" v="A41"/>
    <tag k="tiger:county" v="Salt Lake, UT"/>
    <tag k="tiger:name_base" v="600"/>
    <tag k="tiger:name_direction_prefix" v="S"/>
    <tag k="tiger:name_direction_suffix" v="W"/>
    <tag k="tiger:reviewed" v="no"/>
    <tag k="tiger:separated" v="no"/>
    <tag k="tiger:source" v="tiger_import_dch_v0.6_20070830"/>
    <tag k="tiger:tlid" v="176129541:176129545:176129571"/>
    <tag k="tiger:upload_uuid" v="bulk_upload.pl-a2da7ec1-da05-434f-a535-e5cc3da32f27"/>
    <tag k="tiger:zip_left" v="84115"/>
    <tag k="tiger:zip_right" v="84115"/>
  </way>
  <way id="31532405" version="5" timestamp="2009-10-03T15:07:06Z" uid="104930" user="butlerm" changeset="2725041">
    <nd ref="83557978"/>
    <nd ref="518990091"/>
    <nd ref="445260618"/>
    <nd ref="83587224"/>
    <tag k="highway" v="residential"/>
    <tag k="name" v="South 600 West"/>
    <tag k="tiger:cfcc" v="A41"/>
    <tag k="tiger:county" v="Salt Lake, UT"/>
    <tag k="tiger:name_base" v="600"/>
    <tag k="tiger:name_direction_prefix" v="S"/>
    <tag k="tiger:name_direction_suffix" v="W"/>
    <tag k="tiger:reviewed" v="no"/>
    <tag k="tiger:separated" v="no"/>
    <tag k="tiger:source" v="tiger_import_dch_v0.6_20070830"/>
    <tag k="tiger:tlid" v="176129541:176129545:176129571"/>
    <tag k="tiger:upload_uuid" v="bulk_upload.pl-a2da7ec1-da05-434f-a535-e5cc3da32f27"/>
    <tag k="tiger:zip_left" v="84115"/>
    <tag k="tiger:zip_right" v="84115"/>
  </way>
  <way id="31532405" version="6" timestamp="2010-08-05T06:53:00Z" uid="321736" user="Kevin Atkinson" changeset="5405091">
    <nd ref="83557978"/>
    <nd ref="518990091"/>
    <nd ref="445260618"/>
    <nd ref="83587224"/>
    <tag k="highway" v="residential"/>
    <tag k="loc_name" v="6th West"/>
    <tag k="name" v="600 West"/>
    <tag k="name:full" v="South 600 West"/>
    <tag k="name:prefix" v="S"/>
    <tag k="tiger:cfcc" v="A41"/>
    <tag k="tiger:county" v="Salt Lake, UT"/>
    <tag k="tiger:name_base" v="600"/>
    <tag k="tiger:name_direction_prefix" v="S"/>
    <tag k="tiger:name_direction_suffix" v="W"/>
    <tag k="tiger:reviewed" v="no"/>
    <tag k="tiger:separated" v="no"/>
    <tag k="tiger:source" v="tiger_import_dch_v0.6_20070830"/>
    <tag k="tiger:tlid" v="176129541:176129545:176129571"/>
    <tag k="tiger:upload_uuid" v="bulk_upload.pl-a2da7ec1-da05-434f-a535-e5cc3da32f27"/>
    <tag k="tiger:zip_left" v="84115"/>
    <tag k="tiger:zip_right" v="84115"/>
  </way>
  <way id="31532442" version="6" timestamp="2010-03-28T01:07:44Z" uid="20587" user="balrog-kun" changeset="4250871">
    <nd ref="352873807"/>
    <nd ref="268541578"/>
    <nd ref="268541679"/>
    <nd ref="566119071"/>
    <tag k="highway" v="motorway"/>
    <tag k="layer" v="1"/>
    <tag k="name" v="San Bernardino Freeway"/>
    <tag k="oneway" v="yes"/>
    <tag k="ref" v="I 10"/>
  </way>
  <way id="31532442" version="7" timestamp="2011-06-28T19:31:51Z" uid="4951" user="PeterIto" changeset="8574487">
    <nd ref="352873807"/>
    <nd ref="268541578"/>
    <nd ref="268541679"/>
    <nd ref="566119071"/>
    <tag k="highway" v="motorway"/>
    <tag k="name" v="San Bernardino Freeway"/>
    <tag k="oneway" v="yes"/>
    <tag k="ref" v="I 10"/>
  </way>
  <way id="31532442" version="8" timestamp="2011-08-02T08:06:39Z" uid="207745" user="NE2" changeset="8898279">
    <nd ref="352873807"/>
    <nd ref="268541578"/>
    <nd ref="268541679"/>
    <nd ref="566119071"/>
    <tag k="highway" v="motorway"/>
    <tag k="lanes" v="4"/>
    <tag k="name" v="San Bernardino Freeway"/>
    <tag k="oneway" v="yes"/>
    <tag k="ref" v="I 10"/>
    <tag k="x" v="x"/>
  </way>
  <way id="31532442" version="9" timestamp="2011-11-25T15:03:04Z" uid="207745" user="NE2" changeset="9943893">
    <nd ref="352873807"/>
    <nd ref="268541578"/>
    <nd ref="268541679"/>
    <nd ref="566119071"/>
    <tag k="hgv" v="designated"/>
    <tag k="highway" v="motorway"/>
    <tag k="lanes" v="4"/>
    <tag k="name" v="San Bernardino Freeway"/>
    <tag k="oneway" v="yes"/>
    <tag k="ref" v="I 10"/>
    <tag k="x" v="x"/>
  </way>
  <way id="31532442" version="10" timestamp="2012-02-07T09:30:25Z" uid="207745" user="NE2" changeset="10610324">
    <nd ref="352873807"/>
    <nd ref="268541578"/>
    <nd ref="268541679"/>
    <nd ref="566119071"/>
    <tag k="hgv" v="designated"/>
    <tag k="highway" v="motorway"/>
    <tag k="lanes" v="4"/>
    <tag k="name" v="San Bernardino Freeway"/>
    <tag k="oneway" v="yes"/>
    <tag k="ref" v="I 10"/>
  </way>
  <way id="31532444" version="5" timestamp="2010-03-28T01:07:44Z" uid="20587" user="balrog-kun" changeset="4250871">
    <nd ref="352873806"/>
    <nd ref="352873807"/>
    <tag k="bridge" v="yes"/>
    <tag k="highway" v="motorway"/>
    <tag k="layer" v="1"/>
    <tag k="name" v="San Bernardino Freeway"/>
    <tag k="oneway" v="yes"/>
    <tag k="ref" v="I 10"/>
  </way>
  <way id="31532444" version="6" timestamp="2011-08-02T08:06:15Z" uid="207745" user="NE2" changeset="8898279">
    <nd ref="352873806"/>
    <nd ref="352873807"/>
    <tag k="bridge" v="yes"/>
    <tag k="highway" v="motorway"/>
    <tag k="lanes" v="4"/>
    <tag k="layer" v="1"/>
    <tag k="name" v="San Bernardino Freeway"/>
    <tag k="oneway" v="yes"/>
    <tag k="ref" v="I 10"/>
    <tag k="x" v="x"/>
  </way>
  <way id="31532444" version="7" timestamp="2011-11-25T15:01:29Z" uid="207745" user="NE2" changeset="9943893">
    <nd ref="352873806"/>
    <nd ref="352873807"/>
    <tag k="bridge" v="yes"/>
    <tag k="hgv" v="designated"/>
    <tag k="highway" v="motorway"/>
    <tag k="lanes" v="4"/>
    <tag k="layer" v="1"/>
    <tag k="name" v="San Bernardino Freeway"/>
    <tag k="oneway" v="yes"/>
    <tag k="ref" v="I 10"/>
    <tag k="x" v="x"/>
  </way>
  <way id="31532444" version="8" timestamp="2012-02-07T09:30:15Z" uid="207745" user="NE2" changeset="10610324">
    <nd ref="352873806"/>
    <nd ref="352873807"/>
    <tag k="bridge" v="yes"/>
    <tag k="hgv" v="designated"/>
    <tag k="highway" v="motorway"/>
    <tag k="lanes" v="4"/>
    <tag k="layer" v="1"/>
    <tag k="name" v="San Bernardino Freeway"/>
    <tag k="oneway" v="yes"/>
    <tag k="ref" v="I 10"/>
  </way>
  <way id="31532453" version="7" timestamp="2010-03-28T01:07:45Z" uid="20587" user="balrog-kun" changeset="4250871">
    <nd ref="352873890"/>
    <nd ref="352873887"/>
    <tag k="bridge" v="yes"/>
    <tag k="highway" v="motorway"/>
    <tag k="lanes" v="4"/>
    <tag k="layer" v="1"/>
    <tag k="name" v="San Bernardino Freeway"/>
    <tag k="oneway" v="yes"/>
    <tag k="ref" v="I 10"/>
  </way>
  <way id="31532453" version="8" timestamp="2011-08-02T08:06:13Z" uid="207745" user="NE2" changeset="8898279">
    <nd ref="352873890"/>
    <nd ref="352873887"/>
    <tag k="bridge" v="yes"/>
    <tag k="highway" v="motorway"/>
    <tag k="lanes" v="4"/>
    <tag k="layer" v="1"/>
    <tag k="name" v="San Bernardino Freeway"/>
    <tag k="oneway" v="yes"/>
    <tag k="ref" v="I 10"/>
    <tag k="x" v="x"/>
  </way>
  <way id="31532453" version="9" timestamp="2011-11-25T15:02:13Z" uid="207745" user="NE2" changeset="9943893">
    <nd ref="352873890"/>
    <nd ref="352873887"/>
    <tag k="bridge" v="yes"/>
    <tag k="hgv" v="designated"/>
    <tag k="highway" v="motorway"/>
    <tag k="lanes" v="4"/>
    <tag k="layer" v="1"/>
    <tag k="name" v="San Bernardino Freeway"/>
    <tag k="oneway" v="yes"/>
    <tag k="ref" v="I 10"/>
    <tag k="x" v="x"/>
  </way>
  <way id="31532453" version="10" timestamp="2012-02-07T09:30:04Z" uid="207745" user="NE2" changeset="10610324">
    <nd ref="352873890"/>
    <nd ref="352873887"/>
    <tag k="bridge" v="yes"/>
    <tag k="hgv" v="designated"/>
    <tag k="highway" v="motorway"/>
    <tag k="lanes" v="4"/>
    <tag k="layer" v="1"/>
    <tag k="name" v="San Bernardino Freeway"/>
    <tag k="oneway" v="yes"/>
    <tag k="ref" v="I 10"/>
  </way>
  <way id="31532454" version="5" timestamp="2010-03-28T01:07:45Z" uid="20587" user="balrog-kun" changeset="4250871">
    <nd ref="352873887"/>
    <nd ref="566135632"/>
    <nd ref="268288731"/>
    <nd ref="268168897"/>
    <nd ref="268168898"/>
    <nd ref="268169038"/>
    <nd ref="268168899"/>
    <nd ref="268170724"/>
    <nd ref="28448417"/>
    <nd ref="343209884"/>
    <tag k="highway" v="motorway"/>
    <tag k="lanes" v="4"/>
    <tag k="layer" v="1"/>
    <tag k="name" v="San Bernardino Freeway"/>
    <tag k="oneway" v="yes"/>
    <tag k="ref" v="I 10"/>
  </way>
  <way id="31532454" version="6" timestamp="2010-06-17T18:25:42Z" uid="82317" user="AM909" changeset="5011075">
    <nd ref="352873887"/>
    <nd ref="566135632"/>
    <nd ref="268288731"/>
    <nd ref="268168897"/>
    <nd ref="775272714"/>
    <nd ref="268168898"/>
    <nd ref="268169038"/>
    <nd ref="268168899"/>
    <nd ref="268170724"/>
    <nd ref="28448417"/>
    <nd ref="343209884"/>
    <tag k="highway" v="motorway"/>
    <tag k="lanes" v="4"/>
    <tag k="layer" v="1"/>
    <tag k="name" v="San Bernardino Freeway"/>
    <tag k="oneway" v="yes"/>
    <tag k="ref" v="I 10"/>
  </way>
  <way id="31532454" version="7" timestamp="2010-06-22T07:45:00Z" uid="82317" user="AM909" changeset="5048963">
    <nd ref="352873887"/>
    <nd ref="566135632"/>
    <nd ref="268288731"/>
    <nd ref="268168897"/>
    <nd ref="775272714"/>
    <nd ref="781124141"/>
    <tag k="highway" v="motorway"/>
    <tag k="lanes" v="4"/>
    <tag k="layer" v="1"/>
    <tag k="name" v="San Bernardino Freeway"/>
    <tag k="oneway" v="yes"/>
    <tag k="ref" v="I 10"/>
  </way>
  <way id="31532454" version="8" timestamp="2010-07-09T18:42:16Z" uid="239998" user="Sundance" changeset="5176036">
    <nd ref="352873887"/>
    <nd ref="566135632"/>
    <nd ref="268288731"/>
    <nd ref="268168897"/>
    <nd ref="775272714"/>
    <nd ref="781124141"/>
    <tag k="highway" v="motorway"/>
    <tag k="lanes" v="4"/>
    <tag k="name" v="San Bernardino Freeway"/>
    <tag k="name_1" v="Interstate 10"/>
    <tag k="oneway" v="yes"/>
    <tag k="ref" v="I 10"/>
  </way>
  <way id="31532454" version="9" timestamp="2011-08-02T08:07:03Z" uid="207745" user="NE2" changeset="8898279">
    <nd ref="352873887"/>
    <nd ref="566135632"/>
    <nd ref="268288731"/>
    <nd ref="268168897"/>
    <nd ref="775272714"/>
    <nd ref="781124141"/>
    <tag k="highway" v="motorway"/>
    <tag k="lanes" v="4"/>
    <tag k="name" v="San Bernardino Freeway"/>
    <tag k="oneway" v="yes"/>
    <tag k="ref" v="I 10"/>
    <tag k="x" v="x"/>
  </way>
  <way id="31532454" version="10" timestamp="2011-11-25T15:03:32Z" uid="207745" user="NE2" changeset="9943893">
    <nd ref="352873887"/>
    <nd ref="566135632"/>
    <nd ref="268288731"/>
    <nd ref="268168897"/>
    <nd ref="775272714"/>
    <nd ref="781124141"/>
    <tag k="hgv" v="designated"/>
    <tag k="highway" v="motorway"/>
    <tag k="lanes" v="4"/>
    <tag k="name" v="San Bernardino Freeway"/>
    <tag k="oneway" v="yes"/>
    <tag k="ref" v="I 10"/>
    <tag k="x" v="x"/>
  </way>
  <way id="31532454" version="11" timestamp="2012-02-07T09:30:31Z" uid="207745" user="NE2" changeset="10610324">
    <nd ref="352873887"/>
    <nd ref="566135632"/>
    <nd ref="268288731"/>
    <nd ref="268168897"/>
    <nd ref="775272714"/>
    <nd ref="781124141"/>
    <tag k="hgv" v="designated"/>
    <tag k="highway" v="motorway"/>
    <tag k="lanes" v="4"/>
    <tag k="name" v="San Bernardino Freeway"/>
    <tag k="oneway" v="yes"/>
    <tag k="ref" v="I 10"/>
  </way>
  <way id="31532842" version="3" timestamp="2009-03-30T20:32:01Z" uid="110593" user="esetzer" changeset="869932">
    <nd ref="352876561"/>
    <nd ref="367672184"/>
    <nd ref="352876562"/>
    <tag k="bridge" v="yes"/>
    <tag k="created_by" v="Potlatch 0.10f"/>
    <tag k="highway" v="motorway_link"/>
    <tag k="layer" v="1"/>
    <tag k="oneway" v="yes"/>
  </way>
  <way id="31532842" version="4" timestamp="2011-10-16T03:43:24Z" uid="207745" user="NE2" changeset="9568940">
    <nd ref="352876561"/>
    <nd ref="367672184"/>
    <nd ref="352876562"/>
    <tag k="bicycle" v="no"/>
    <tag k="bridge" v="yes"/>
    <tag k="highway" v="motorway_link"/>
    <tag k="layer" v="1"/>
    <tag k="oneway" v="yes"/>
  </way>
</osm>
