<?xml version='1.0' encoding='UTF-8'?>
<osm version="0.6" generator="libosmium/2.20.0">
  <way id="31586075" version="5" timestamp="2010-04-02T17:29:46Z" uid="20587" user="balrog-kun" changeset="4304500">
    <nd ref="53256508"/>
    <nd ref="353455038"/>
    <nd ref="353453392"/>
    <nd ref="353453395"/>
    <nd ref="353453397"/>
    <nd ref="353453399"/>
    <nd ref="353453400"/>
    <nd ref="353453402"/>
    <nd ref="353453403"/>
    <nd ref="353453405"/>
    <nd ref="353453407"/>
    <nd ref="353453408"/>
    <nd ref="353453410"/>
    <nd ref="353453411"/>
    <nd ref="353453412"/>
    <nd ref="353453414"/>
    <nd ref="53154809"/>
    <tag k="created_by" v="Potlatch 0.10f"/>
    <tag k="highway" v="residential"/>
    <tag k="name" v="Southeast 89th Place"/>
    <tag k="tiger:cfcc" v="A41"/>
    <tag k="tiger:county" v="King, WA"/>
    <tag k="tiger:name_base_1" v="89th"/>
    <tag k="tiger:name_direction_suffix" v="SE"/>
    <tag k="tiger:reviewed" v="no"/>
    <tag k="tiger:separated" v="no"/>
    <tag k="tiger:source" v="tiger_import_dch_v0.6_20070830"/>
    <tag k="tiger:tlid" v="186683093:186683095"/>
  </way>
  <way id="31586090" version="8" timestamp="2009-05-07T22:55:13Z" uid="26515" user="Simon Ward" changeset="1112705">
    <nd ref="353455583"/>
    <nd ref="353455585"/>
    <nd ref="353455586"/>
    <nd ref="353455587"/>
    <nd ref="353455588"/>
    <nd ref="353455590"/>
    <nd ref="353455592"/>
    <nd ref="353455595"/>
    <nd ref="353455596"/>
    <nd ref="353455600"/>
    <nd ref="353458937"/>
    <nd ref="353455603"/>
    <nd ref="353455583"/>
    <tag k="created_by" v="Potlatch 0.10f"/>
    <tag k="highway" v="primary"/>
    <tag k="junction" v="roundabout"/>
    <tag k="name" v="Pallion New Road"/>
    <tag k="ref" v="A1231"/>
  </way>
  <way id="31586090" version="9" timestamp="2009-10-02T18:53:44Z" uid="87632" user="burto" changeset="2716229">
    <nd ref="353455583"/>
    <nd ref="353455603"/>
    <nd ref="353458937"/>
    <nd ref="353455600"/>
    <nd ref="353455596"/>
    <nd ref="353455595"/>
    <nd ref="353455592"/>
    <nd ref="353455590"/>
    <nd ref="353455588"/>
    <nd ref="353455587"/>
    <nd ref="353455586"/>
    <nd ref="353455585"/>
    <nd ref="353455583"/>
    <tag k="highway" v="primary"/>
    <tag k="junction" v="roundabout"/>
    <tag k="name" v="Pallion New Road"/>
    <tag k="ref" v="A1231"/>
  </way>
  <way id="31586090" version="10" timestamp="2010-06-20T20:17:07Z" uid="7511" user="retselkim" changeset="5035953">
    <nd ref="353455583"/>
    <nd ref="353455603"/>
    <nd ref="353458937"/>
    <nd ref="353455600"/>
    <nd ref="353455596"/>
    <nd ref="778599595"/>
    <nd ref="353455595"/>
    <nd ref="353455592"/>
    <nd ref="353455590"/>
    <nd ref="353455588"/>
    <nd ref="353455587"/>
    <nd ref="353455586"/>
    <nd ref="353455585"/>
    <nd ref="353455583"/>
    <tag k="highway" v="primary"/>
    <tag k="junction" v="roundabout"/>
    <tag k="name" v="Pallion New Road"/>
    <tag k="ref" v="A1231"/>
  </way>
  <way id="31586090" version="11" timestamp="2011-04-03T12:33:07Z" uid="392664" user="RogerL" changeset="7753581">
    <nd ref="353455583"/>
    <nd ref="353455603"/>
    <nd ref="353458937"/>
    <nd ref="353455600"/>
    <nd ref="353455596"/>
    <nd ref="778599595"/>
    <nd ref="353455595"/>
    <nd ref="353455592"/>
    <nd ref="353455590"/>
    <nd ref="353455588"/>
    <nd ref="353455587"/>
    <nd ref="353455586"/>
    <nd ref="353455585"/>
    <nd ref="353455583"/>
    <tag k="highway" v="trunk"/>
    <tag k="junction" v="roundabout"/>
    <tag k="name" v="Pallion New Road"/>
    <tag k="oneway" v="yes"/>
    <tag k="ref" v="A1231"/>
  </way>
  <way id="31586090" version="12" timestamp="2011-07-17T09:44:11Z" uid="33377" user="Victor LP" changeset="8745958">
    <nd ref="353455583"/>
    <nd ref="353455603"/>
    <nd ref="353458937"/>
    <nd ref="353455600"/>
    <nd ref="353455596"/>
    <nd ref="778599595"/>
    <nd ref="353455595"/>
    <nd ref="353455592"/>
    <nd ref="1364173070"/>
    <nd ref="353455590"/>
    <nd ref="353455588"/>
    <nd ref="1364172806"/>
    <nd ref="353455587"/>
    <nd ref="1364173093"/>
    <nd ref="353455586"/>
    <nd ref="1364173086"/>
    <nd ref="353455585"/>
    <nd ref="353455583"/>
    <tag k="highway" v="trunk"/>
    <tag k="junction" v="roundabout"/>
    <tag k="name" v="Pallion New Road"/>
    <tag k="oneway" v="yes"/>
    <tag k="ref" v="A1231"/>
  </way>
  <way id="31586090" version="13" timestamp="2012-02-22T22:34:35Z" uid="12483" user="Pete Reed" changeset="10764146">
    <nd ref="353455583"/>
    <nd ref="353455603"/>
    <nd ref="353458937"/>
    <nd ref="353455600"/>
    <nd ref="353455596"/>
    <nd ref="778599595"/>
    <nd ref="353455595"/>
    <nd ref="353455592"/>
    <nd ref="1364173070"/>
    <nd ref="353455590"/>
    <nd ref="1643640699"/>
    <nd ref="353455588"/>
    <nd ref="1364172806"/>
    <nd ref="353455587"/>
    <nd ref="1364173093"/>
    <nd ref="353455586"/>
    <nd ref="1364173086"/>
    <nd ref="353455585"/>
    <nd ref="353455583"/>
    <tag k="highway" v="trunk"/>
    <tag k="junction" v="roundabout"/>
    <tag k="name" v="Pallion New Road"/>
    <tag k="oneway" v="yes"/>
    <tag k="ref" v="A1231"/>
  </way>
  <way id="31586122" version="4" timestamp="2009-05-07T22:55:13Z" uid="26515" user="Simon Ward" changeset="1112705">
    <nd ref="353457830"/>
    <nd ref="353455590"/>
    <tag k="bridge" v="yes"/>
    <tag k="created_by" v="Potlatch 0.10f"/>
    <tag k="highway" v="primary"/>
    <tag k="name" v="Pallion New Road"/>
    <tag k="oneway" v="yes"/>
    <tag k="ref" v="A1231"/>
  </way>
  <way id="31586122" version="5" timestamp="2011-04-02T23:55:12Z" uid="392664" user="RogerL" changeset="7749449">
    <nd ref="353457830"/>
    <nd ref="353455590"/>
    <tag k="bridge" v="yes"/>
    <tag k="highway" v="trunk"/>
    <tag k="name" v="Pallion New Road"/>
    <tag k="oneway" v="yes"/>
    <tag k="ref" v="A1231"/>
  </way>
  <way id="31586122" version="6" timestamp="2011-04-03T12:33:08Z" uid="392664" user="RogerL" changeset="7753581">
    <nd ref="353457830"/>
    <nd ref="353455590"/>
    <tag k="highway" v="trunk"/>
    <tag k="name" v="Pallion New Road"/>
    <tag k="oneway" v="yes"/>
    <tag k="ref" v="A1231"/>
  </way>
  <way id="31586122" version="7" timestamp="2012-02-22T22:34:42Z" uid="12483" user="Pete Reed" changeset="10764146"/>
  <way id="31586140" version="3" timestamp="2009-05-07T22:55:13Z" uid="26515" user="Simon Ward" changeset="1112705">
    <nd ref="353455595"/>
    <nd ref="353457830"/>
    <tag k="created_by" v="Potlatch 0.10f"/>
    <tag k="highway" v="primary"/>
    <tag k="name" v="Pallion New Road"/>
    <tag k="oneway" v="yes"/>
    <tag k="ref" v="A1231"/>
  </way>
  <way id="31586140" version="4" timestamp="2011-04-02T23:55:12Z" uid="392664" user="RogerL" changeset="7749449">
    <nd ref="353455595"/>
    <nd ref="353457830"/>
    <tag k="highway" v="trunk"/>
    <tag k="name" v="Pallion New Road"/>
    <tag k="oneway" v="yes"/>
    <tag k="ref" v="A1231"/>
  </way>
  <way id="31586140" version="5" timestamp="2012-02-22T22:34:35Z" uid="12483" user="Pete Reed" changeset="10764146">
    <nd ref="353455595"/>
    <nd ref="1643640700"/>
    <tag k="highway" v="trunk"/>
    <tag k="name" v="Pallion New Road"/>
    <tag k="oneway" v="yes"/>
    <tag k="ref" v="A1231"/>
  </way>
  <way id="31586178" version="3" timestamp="2009-05-07T22:55:13Z" uid="26515" user="Simon Ward" changeset="1112705">
    <nd ref="353455587"/>
    <nd ref="353458427"/>
    <nd ref="21474978"/>
    <tag k="created_by" v="Potlatch 0.10f"/>
    <tag k="highway" v="primary"/>
    <tag k="name" v="Pallion New Road"/>
    <tag k="oneway" v="yes"/>
    <tag k="ref" v="A1231"/>
  </way>
  <way id="31586178" version="4" timestamp="2010-06-20T19:56:48Z" uid="7511" user="retselkim" changeset="5035953">
    <nd ref="353455587"/>
    <nd ref="353458427"/>
    <nd ref="21474978"/>
    <tag k="highway" v="primary"/>
    <tag k="name" v="Pallion New Road"/>
    <tag k="oneway" v="yes"/>
    <tag k="ref" v="A1231"/>
  </way>
  <way id="31586178" version="5" timestamp="2011-04-03T12:33:14Z" uid="392664" user="RogerL" changeset="7753581">
    <nd ref="353455587"/>
    <nd ref="353458427"/>
    <nd ref="21474978"/>
    <tag k="highway" v="trunk"/>
    <tag k="name" v="Pallion New Road"/>
    <tag k="oneway" v="yes"/>
    <tag k="ref" v="A1231"/>
  </way>
  <way id="31586187" version="3" timestamp="2009-05-07T22:55:13Z" uid="26515" user="Simon Ward" changeset="1112705">
    <nd ref="353458705"/>
    <nd ref="353455585"/>
    <tag k="created_by" v="Potlatch 0.10f"/>
    <tag k="highway" v="primary"/>
    <tag k="name" v="Pallion New Road"/>
    <tag k="oneway" v="yes"/>
    <tag k="ref" v="A1231"/>
  </way>
  <way id="31586187" version="4" timestamp="2009-10-02T18:53:44Z" uid="87632" user="burto" changeset="2716229"/>
  <way id="31586188" version="3" timestamp="2009-05-07T22:55:13Z" uid="26515" user="Simon Ward" changeset="1112705">
    <nd ref="353458937"/>
    <nd ref="353455801"/>
    <tag k="created_by" v="Potlatch 0.10f"/>
    <tag k="highway" v="secondary"/>
    <tag k="name" v="Pallion New Road"/>
    <tag k="oneway" v="yes"/>
    <tag k="ref" v="B1405"/>
  </way>
  <way id="31586188" version="4" timestamp="2010-06-20T09:46:13Z" uid="7511" user="retselkim" changeset="5031187">
    <nd ref="353458937"/>
    <nd ref="353455801"/>
    <tag k="highway" v="secondary"/>
    <tag k="name" v="Pallion New Road"/>
    <tag k="oneway" v="yes"/>
    <tag k="ref" v="B1405"/>
  </way>
  <way id="31586188" version="5" timestamp="2011-07-17T09:44:12Z" uid="33377" user="Victor LP" changeset="8745958">
    <nd ref="353458937"/>
    <nd ref="1364173117"/>
    <nd ref="1364173051"/>
    <nd ref="1364172984"/>
    <nd ref="353455801"/>
    <tag k="highway" v="secondary"/>
    <tag k="name" v="Pallion New Road"/>
    <tag k="oneway" v="yes"/>
    <tag k="ref" v="B1405"/>
  </way>
  <way id="31586193" version="3" timestamp="2009-05-07T22:55:13Z" uid="26515" user="Simon Ward" changeset="1112705">
    <nd ref="353459078"/>
    <nd ref="353455587"/>
    <tag k="created_by" v="Potlatch 0.10f"/>
    <tag k="highway" v="tertiary"/>
    <tag k="name" v="Deptford Terrace"/>
  </way>
  <way id="31586193" version="4" timestamp="2009-10-02T18:53:44Z" uid="87632" user="burto" changeset="2716229">
    <nd ref="353459078"/>
    <nd ref="353455587"/>
    <tag k="highway" v="tertiary"/>
    <tag k="name" v="Deptford Terrace"/>
    <tag k="oneway" v="yes"/>
  </way>
  <way id="31586193" version="5" timestamp="2011-07-17T09:44:12Z" uid="33377" user="Victor LP" changeset="8745958">
    <nd ref="353459078"/>
    <nd ref="1364173014"/>
    <nd ref="1364172841"/>
    <nd ref="1364172806"/>
    <tag k="highway" v="tertiary"/>
    <tag k="name" v="Deptford Terrace"/>
    <tag k="oneway" v="yes"/>
  </way>
  <way id="31586798" version="5" timestamp="2010-04-07T13:29:59Z" uid="20587" user="balrog-kun" changeset="4353646">
    <nd ref="152628057"/>
    <nd ref="152686163"/>
    <tag k="highway" v="primary"/>
    <tag k="name" v="South Getty Street"/>
    <tag k="name_1" v="United States Highway 83"/>
    <tag k="ref" v="US 83"/>
    <tag k="tiger:cfcc" v="A21"/>
    <tag k="tiger:county" v="Uvalde, TX"/>
    <tag k="tiger:name_base" v="Getty"/>
    <tag k="tiger:name_base_1" v="United States Highway 83"/>
    <tag k="tiger:name_base_2" v="Farm-to-Market Road 117"/>
    <tag k="tiger:name_direction_prefix" v="S"/>
    <tag k="tiger:name_direction_prefix_2" v="S"/>
    <tag k="tiger:name_type" v="St"/>
    <tag k="tiger:reviewed" v="no"/>
    <tag k="tiger:separated" v="no"/>
    <tag k="tiger:source" v="tiger_import_dch_v0.6_20070830"/>
    <tag k="tiger:tlid" v="183453746:183453747:183455083:183445110:183451036:183451119:183445133:183444971:183453735"/>
    <tag k="tiger:zip_left" v="78801"/>
    <tag k="tiger:zip_right" v="78801"/>
  </way>
  <way id="31586798" version="6" timestamp="2011-06-15T05:28:24Z" uid="207745" user="NE2" changeset="8443930">
    <nd ref="152628057"/>
    <nd ref="152686163"/>
    <tag k="highway" v="primary"/>
    <tag k="name" v="South Getty Street"/>
    <tag k="ref" v="US 83"/>
    <tag k="tiger:cfcc" v="A21"/>
    <tag k="tiger:county" v="Uvalde, TX"/>
    <tag k="tiger:name_base" v="Getty"/>
    <tag k="tiger:name_base_1" v="United States Highway 83"/>
    <tag k="tiger:name_base_2" v="Farm-to-Market Road 117"/>
    <tag k="tiger:name_direction_prefix" v="S"/>
    <tag k="tiger:name_direction_prefix_2" v="S"/>
    <tag k="tiger:name_type" v="St"/>
    <tag k="tiger:reviewed" v="no"/>
    <tag k="tiger:separated" v="no"/>
    <tag k="tiger:source" v="tiger_import_dch_v0.6_20070830"/>
    <tag k="tiger:tlid" v="183453746:183453747:183455083:183445110:183451036:183451119:183445133:183444971:183453735"/>
    <tag k="tiger:zip_left" v="78801"/>
    <tag k="tiger:zip_right" v="78801"/>
  </way>
  <way id="31586798" version="7" timestamp="2011-06-18T17:36:31Z" uid="207745" user="NE2" changeset="8475792">
    <nd ref="152628057"/>
    <nd ref="152686163"/>
    <tag k="FIXME" v="check lanes"/>
    <tag k="highway" v="primary"/>
    <tag k="lanes" v="2"/>
    <tag k="name" v="South Getty Street"/>
    <tag k="ref" v="US 83"/>
    <tag k="tiger:cfcc" v="A21"/>
    <tag k="tiger:county" v="Uvalde, TX"/>
    <tag k="tiger:name_base" v="Getty"/>
    <tag k="tiger:name_base_1" v="United States Highway 83"/>
    <tag k="tiger:name_base_2" v="Farm-to-Market Road 117"/>
    <tag k="tiger:name_direction_prefix" v="S"/>
    <tag k="tiger:name_direction_prefix_2" v="S"/>
    <tag k="tiger:name_type" v="St"/>
    <tag k="tiger:reviewed" v="no"/>
    <tag k="tiger:separated" v="no"/>
    <tag k="tiger:source" v="tiger_import_dch_v0.6_20070830"/>
    <tag k="tiger:tlid" v="183453746:183453747:183455083:183445110:183451036:183451119:183445133:183444971:183453735"/>
    <tag k="tiger:zip_left" v="78801"/>
    <tag k="tiger:zip_right" v="78801"/>
  </way>
  <way id="31586798" version="8" timestamp="2012-01-09T09:12:10Z" uid="207745" user="NE2" changeset="10339779">
    <nd ref="152628057"/>
    <nd ref="152686163"/>
    <tag k="FIXME" v="check lanes"/>
    <tag k="highway" v="primary"/>
    <tag k="lanes" v="2"/>
    <tag k="name" v="South Getty Street"/>
    <tag k="old_ref" v="SH 55"/>
    <tag k="ref" v="US 83"/>
    <tag k="tiger:cfcc" v="A21"/>
    <tag k="tiger:county" v="Uvalde, TX"/>
    <tag k="tiger:name_base" v="Getty"/>
    <tag k="tiger:name_base_1" v="United States Highway 83"/>
    <tag k="tiger:name_base_2" v="Farm-to-Market Road 117"/>
    <tag k="tiger:name_direction_prefix" v="S"/>
    <tag k="tiger:name_direction_prefix_2" v="S"/>
    <tag k="tiger:name_type" v="St"/>
    <tag k="tiger:reviewed" v="no"/>
    <tag k="tiger:separated" v="no"/>
    <tag k="tiger:source" v="tiger_import_dch_v0.6_20070830"/>
    <tag k="tiger:tlid" v="183453746:183453747:183455083:183445110:183451036:183451119:183445133:183444971:183453735"/>
    <tag k="tiger:zip_left" v="78801"/>
    <tag k="tiger:zip_right" v="78801"/>
  </way>
  <way id="31586816" version="3" timestamp="2009-05-07T22:55:12Z" uid="26515" user="Simon Ward" changeset="1112705">
    <nd ref="353455801"/>
    <nd ref="353455596"/>
    <tag k="created_by" v="Potlatch 0.10f"/>
    <tag k="highway" v="secondary"/>
    <tag k="name" v="Pallion New Road"/>
    <tag k="oneway" v="yes"/>
    <tag k="ref" v="B1405"/>
  </way>
  <way id="31586816" version="4" timestamp="2011-07-17T09:44:08Z" uid="33377" user="Victor LP" changeset="8745958">
    <nd ref="353455801"/>
    <nd ref="1364172865"/>
    <nd ref="1364173038"/>
    <nd ref="1364172784"/>
    <nd ref="1364172943"/>
    <nd ref="353455596"/>
    <tag k="highway" v="secondary"/>
    <tag k="name" v="Pallion New Road"/>
    <tag k="oneway" v="yes"/>
    <tag k="ref" v="B1405"/>
  </way>
  <way id="31586868" version="3" timestamp="2010-04-07T13:30:00Z" uid="20587" user="balrog-kun" changeset="4353646">
    <nd ref="152673517"/>
    <nd ref="152673518"/>
    <nd ref="152669757"/>
    <nd ref="152673519"/>
    <nd ref="152673521"/>
    <nd ref="152673523"/>
    <nd ref="152673526"/>
    <nd ref="152673528"/>
    <nd ref="152673530"/>
    <tag k="highway" v="secondary"/>
    <tag k="name" v="North Getty St; State Spur 144"/>
    <tag k="ref" v="TX Spur 144"/>
    <tag k="tiger:cfcc" v="A31"/>
    <tag k="tiger:county" v="Uvalde, TX"/>
    <tag k="tiger:name_base" v="Getty"/>
    <tag k="tiger:name_base_1" v="State Spur 144"/>
    <tag k="tiger:name_direction_prefix" v="N"/>
    <tag k="tiger:name_type" v="St"/>
    <tag k="tiger:separated" v="no"/>
    <tag k="tiger:source" v="tiger_import_dch_v0.6_20070830"/>
    <tag k="tiger:tlid" v="183456943"/>
  </way>
  <way id="31586868" version="4" timestamp="2011-03-13T02:59:24Z" uid="37392" user="25or6to4" changeset="7540398">
    <nd ref="152669748"/>
    <nd ref="152669750"/>
    <nd ref="152669751"/>
    <nd ref="152669752"/>
    <nd ref="152669753"/>
    <nd ref="152669757"/>
    <tag k="highway" v="secondary"/>
    <tag k="name" v="North Getty St; State Spur 144"/>
    <tag k="ref" v="TX Spur 144"/>
    <tag k="tiger:cfcc" v="A31:A63"/>
    <tag k="tiger:county" v="Uvalde, TX"/>
    <tag k="tiger:name_base" v="Getty"/>
    <tag k="tiger:name_base_1" v="State Spur 144"/>
    <tag k="tiger:name_direction_prefix" v="N"/>
    <tag k="tiger:name_type" v="St"/>
    <tag k="tiger:separated" v="no"/>
    <tag k="tiger:source" v="tiger_import_dch_v0.6_20070830"/>
    <tag k="tiger:tlid" v="183456943:183470710"/>
    <tag k="tiger:upload_uuid" v="bulk_upload.pl-dad6bf58-f123-430a-8c41-ad6c1586a43a"/>
  </way>
  <way id="31586868" version="5" timestamp="2012-01-05T06:58:34Z" uid="207745" user="NE2" changeset="10297857">
    <nd ref="152669748"/>
    <nd ref="152669750"/>
    <nd ref="152669751"/>
    <nd ref="152669752"/>
    <nd ref="152669753"/>
    <nd ref="152669757"/>
    <nd ref="152673519"/>
    <nd ref="152673521"/>
    <nd ref="152673523"/>
    <nd ref="152673526"/>
    <nd ref="152673528"/>
    <nd ref="152673530"/>
    <tag k="highway" v="tertiary"/>
    <tag k="name" v="North Getty St"/>
    <tag k="old_ref" v="FM 2369 Spur"/>
    <tag k="ref" v="Spur 144"/>
    <tag k="tiger:cfcc" v="A31:A63"/>
    <tag k="tiger:county" v="Uvalde, TX"/>
    <tag k="tiger:name_base" v="Getty"/>
    <tag k="tiger:name_base_1" v="State Spur 144"/>
    <tag k="tiger:name_direction_prefix" v="N"/>
    <tag k="tiger:name_type" v="St"/>
    <tag k="tiger:separated" v="no"/>
    <tag k="tiger:source" v="tiger_import_dch_v0.6_20070830"/>
    <tag k="tiger:tlid" v="183456943:183470710"/>
    <tag k="tiger:upload_uuid" v="bulk_upload.pl-dad6bf58-f123-430a-8c41-ad6c1586a43a"/>
  </way>
</osm>
