<?xml version='1.0' encoding='UTF-8'?>
<osm version="0.6" generator="libosmium/2.20.0">
  <way id="31610005" version="3" timestamp="2009-08-24T21:59:38Z" uid="36809" user="pfoten_weg_!_" changeset="2250603">
    <nd ref="353655057"/>
    <nd ref="31466754"/>
    <nd ref="31406864"/>
    <nd ref="353655055"/>
    <nd ref="353655053"/>
    <nd ref="31405925"/>
    <nd ref="31407231"/>
    <nd ref="31406542"/>
    <tag k="highway" v="secondary"/>
    <tag k="maxspeed" v="DE:rural"/>
    <tag k="nore:de" v="Warnung"/>
    <tag k="ref" v="L 21"/>
  </way>
  <way id="31610005" version="4" timestamp="2009-08-24T22:30:29Z" uid="36809" user="pfoten_weg_!_" changeset="2250754">
    <nd ref="353655057"/>
    <nd ref="31466754"/>
    <nd ref="31406864"/>
    <nd ref="353655055"/>
    <nd ref="353655053"/>
    <nd ref="31405925"/>
    <nd ref="31407231"/>
    <nd ref="31406542"/>
    <tag k="highway" v="secondary"/>
    <tag k="maxspeed" v="DE:rural"/>
    <tag k="ref" v="L 21"/>
  </way>
  <way id="31610005" version="5" timestamp="2009-08-24T22:43:03Z" uid="36809" user="pfoten_weg_!_" changeset="2250819">
    <nd ref="353655057"/>
    <nd ref="31466754"/>
    <nd ref="31406864"/>
    <nd ref="353655055"/>
    <nd ref="353655053"/>
    <nd ref="31405925"/>
    <nd ref="31407231"/>
    <nd ref="31406542"/>
    <tag k="discovered_by" v="RambaZamba"/>
    <tag k="highway" v="secondary"/>
    <tag k="maxspeed" v="DE:rural"/>
    <tag k="ref" v="L 21"/>
  </way>
  <way id="31610005" version="6" timestamp="2009-08-28T20:06:15Z" uid="156995" user="HampelZamba" changeset="2294580">
    <nd ref="353655057"/>
    <nd ref="31466754"/>
    <nd ref="31406864"/>
    <nd ref="353655055"/>
    <nd ref="353655053"/>
    <nd ref="31405925"/>
    <nd ref="31407231"/>
    <nd ref="31406542"/>
    <tag k="highway" v="secondary"/>
    <tag k="maxspeed" v="DE:rural"/>
    <tag k="ref" v="L 21"/>
  </way>
  <way id="31610005" version="7" timestamp="2009-08-29T14:54:06Z" uid="36809" user="pfoten_weg_!_" changeset="2302467">
    <nd ref="353655057"/>
    <nd ref="31466754"/>
    <nd ref="31406864"/>
    <nd ref="353655055"/>
    <nd ref="353655053"/>
    <nd ref="31405925"/>
    <nd ref="31407231"/>
    <nd ref="31406542"/>
    <tag k="highway" v="secondary"/>
    <tag k="maxspeed" v="DE:rural"/>
    <tag k="ref" v="L 21"/>
  </way>
  <way id="31610005" version="8" timestamp="2010-09-13T10:16:21Z" uid="104779" user="ABRob" changeset="5768179">
    <nd ref="353655057"/>
    <nd ref="31466754"/>
    <nd ref="31406864"/>
    <nd ref="353655055"/>
    <nd ref="353655053"/>
    <nd ref="31405925"/>
    <nd ref="31407231"/>
    <nd ref="31406542"/>
    <tag k="highway" v="secondary"/>
    <tag k="maxspeed" v="100"/>
    <tag k="ref" v="L 21"/>
    <tag k="source:maxspeed" v="DE:rural"/>
    <tag k="zone:traffic" v="DE:rural"/>
  </way>
  <way id="31610005" version="9" timestamp="2010-12-13T09:17:35Z" uid="55462" user="Lübeck" changeset="6645459">
    <nd ref="353655057"/>
    <nd ref="31466754"/>
    <nd ref="31406864"/>
    <nd ref="353655055"/>
    <nd ref="31405925"/>
    <nd ref="31407231"/>
    <nd ref="31406542"/>
    <tag k="highway" v="secondary"/>
    <tag k="maxspeed" v="100"/>
    <tag k="ref" v="L 21"/>
    <tag k="source:maxspeed" v="DE:rural"/>
    <tag k="zone:traffic" v="DE:rural"/>
  </way>
  <way id="31610006" version="2" timestamp="2009-08-24T22:04:43Z" uid="36809" user="pfoten_weg_!_" changeset="2250603">
    <nd ref="353655062"/>
    <nd ref="353655064"/>
    <nd ref="353655065"/>
    <tag k="highway" v="residential"/>
    <tag k="name" v="Bahnhofstraße"/>
    <tag k="nore:de" v="Warnung"/>
    <tag k="note" v="FIXME: stub, incomplete"/>
  </way>
  <way id="31610006" version="3" timestamp="2009-08-24T22:33:44Z" uid="36809" user="pfoten_weg_!_" changeset="2250754">
    <nd ref="353655062"/>
    <nd ref="353655064"/>
    <nd ref="353655065"/>
    <tag k="highway" v="residential"/>
    <tag k="name" v="Bahnhofstraße"/>
    <tag k="note" v="FIXME: stub, incomplete"/>
  </way>
  <way id="31610006" version="4" timestamp="2009-08-24T22:48:22Z" uid="36809" user="pfoten_weg_!_" changeset="2250819">
    <nd ref="353655062"/>
    <nd ref="353655064"/>
    <nd ref="353655065"/>
    <tag k="discovered_by" v="RambaZamba"/>
    <tag k="highway" v="residential"/>
    <tag k="name" v="Bahnhofstraße"/>
    <tag k="note" v="FIXME: stub, incomplete"/>
  </way>
  <way id="31610006" version="5" timestamp="2009-08-28T20:06:15Z" uid="156995" user="HampelZamba" changeset="2294580">
    <nd ref="353655062"/>
    <nd ref="353655064"/>
    <nd ref="353655065"/>
    <tag k="highway" v="residential"/>
    <tag k="name" v="Bahnhofstraße"/>
    <tag k="note" v="FIXME: stub, incomplete"/>
  </way>
  <way id="31610006" version="6" timestamp="2009-08-29T14:57:25Z" uid="36809" user="pfoten_weg_!_" changeset="2302467">
    <nd ref="353655062"/>
    <nd ref="353655064"/>
    <nd ref="353655065"/>
    <tag k="highway" v="residential"/>
    <tag k="name" v="Bahnhofstraße"/>
    <tag k="note" v="FIXME: stub, incomplete"/>
  </way>
  <way id="31610006" version="7" timestamp="2009-12-09T21:28:17Z" uid="76587" user="circusfreunde" changeset="3337206">
    <nd ref="353655062"/>
    <nd ref="353655064"/>
    <nd ref="353655065"/>
    <nd ref="583964024"/>
    <tag k="highway" v="residential"/>
    <tag k="name" v="Bahnhofstraße"/>
    <tag k="note" v="FIXME: stub, incomplete"/>
  </way>
  <way id="31610007" version="2" timestamp="2009-08-24T22:01:20Z" uid="36809" user="pfoten_weg_!_" changeset="2250603">
    <nd ref="353655072"/>
    <nd ref="353655075"/>
    <nd ref="353655062"/>
    <tag k="highway" v="residential"/>
    <tag k="name" v="Zur Oie"/>
    <tag k="nore:de" v="Warnung"/>
    <tag k="note" v="FIXME: stub, incomplete"/>
  </way>
  <way id="31610007" version="3" timestamp="2009-08-24T22:31:39Z" uid="36809" user="pfoten_weg_!_" changeset="2250754">
    <nd ref="353655072"/>
    <nd ref="353655075"/>
    <nd ref="353655062"/>
    <tag k="highway" v="residential"/>
    <tag k="name" v="Zur Oie"/>
    <tag k="note" v="FIXME: stub, incomplete"/>
  </way>
  <way id="31610007" version="4" timestamp="2009-08-24T22:45:08Z" uid="36809" user="pfoten_weg_!_" changeset="2250819">
    <nd ref="353655072"/>
    <nd ref="353655075"/>
    <nd ref="353655062"/>
    <tag k="discovered_by" v="RambaZamba"/>
    <tag k="highway" v="residential"/>
    <tag k="name" v="Zur Oie"/>
    <tag k="note" v="FIXME: stub, incomplete"/>
  </way>
  <way id="31610007" version="5" timestamp="2009-08-28T20:06:15Z" uid="156995" user="HampelZamba" changeset="2294580">
    <nd ref="353655072"/>
    <nd ref="353655075"/>
    <nd ref="353655062"/>
    <tag k="highway" v="residential"/>
    <tag k="name" v="Zur Oie"/>
    <tag k="note" v="FIXME: stub, incomplete"/>
  </way>
  <way id="31610007" version="6" timestamp="2009-08-29T14:56:07Z" uid="36809" user="pfoten_weg_!_" changeset="2302467">
    <nd ref="353655072"/>
    <nd ref="353655075"/>
    <nd ref="353655062"/>
    <tag k="highway" v="residential"/>
    <tag k="name" v="Zur Oie"/>
    <tag k="note" v="FIXME: stub, incomplete"/>
  </way>
  <way id="31610007" version="7" timestamp="2010-04-27T05:36:46Z" uid="243184" user="chris_schmekel" changeset="4538130">
    <nd ref="708332451"/>
    <nd ref="708332450"/>
    <nd ref="708332449"/>
    <nd ref="708332448"/>
    <nd ref="708332447"/>
    <nd ref="708332473"/>
    <nd ref="708332472"/>
    <nd ref="353655072"/>
    <nd ref="708332452"/>
    <nd ref="353655075"/>
    <nd ref="353655062"/>
    <tag k="highway" v="residential"/>
    <tag k="name" v="Zur Oie"/>
    <tag k="note" v="FIXME: stub, incomplete"/>
  </way>
  <way id="31610007" version="8" timestamp="2010-09-28T11:09:48Z" uid="288045" user="ThG_" changeset="5902804">
    <nd ref="708332445"/>
    <nd ref="708332450"/>
    <nd ref="708332449"/>
    <nd ref="708332448"/>
    <nd ref="708332447"/>
    <nd ref="708332473"/>
    <nd ref="708332472"/>
    <nd ref="353655072"/>
    <nd ref="708332452"/>
    <nd ref="353655075"/>
    <nd ref="353655062"/>
    <tag k="highway" v="residential"/>
    <tag k="name" v="Zur Oie"/>
    <tag k="note" v="FIXME: stub, incomplete"/>
  </way>
  <way id="31610007" version="9" timestamp="2010-09-29T08:18:30Z" uid="288045" user="ThG_" changeset="5909468">
    <nd ref="708332445"/>
    <nd ref="708332450"/>
    <nd ref="708332449"/>
    <tag k="highway" v="residential"/>
    <tag k="name" v="Am Anger"/>
    <tag k="note" v="FIXME: stub, incomplete"/>
  </way>
  <way id="31610008" version="2" timestamp="2009-08-24T22:03:53Z" uid="36809" user="pfoten_weg_!_" changeset="2250603">
    <nd ref="353655079"/>
    <nd ref="353655081"/>
    <nd ref="353655082"/>
    <tag k="highway" v="residential"/>
    <tag k="maxspeed" v="30"/>
    <tag k="nore:de" v="Warnung"/>
    <tag k="note" v="FIXME: stub, incomplete"/>
    <tag k="surface" v="concrete-grass-concrete"/>
  </way>
  <way id="31610008" version="3" timestamp="2009-08-24T22:33:17Z" uid="36809" user="pfoten_weg_!_" changeset="2250754">
    <nd ref="353655079"/>
    <nd ref="353655081"/>
    <nd ref="353655082"/>
    <tag k="highway" v="residential"/>
    <tag k="maxspeed" v="30"/>
    <tag k="note" v="FIXME: stub, incomplete"/>
    <tag k="surface" v="concrete-grass-concrete"/>
  </way>
  <way id="31610008" version="4" timestamp="2009-08-24T22:47:17Z" uid="36809" user="pfoten_weg_!_" changeset="2250819">
    <nd ref="353655079"/>
    <nd ref="353655081"/>
    <nd ref="353655082"/>
    <tag k="discovered_by" v="RambaZamba"/>
    <tag k="highway" v="residential"/>
    <tag k="maxspeed" v="30"/>
    <tag k="note" v="FIXME: stub, incomplete"/>
    <tag k="surface" v="concrete-grass-concrete"/>
  </way>
  <way id="31610008" version="5" timestamp="2009-08-28T20:06:15Z" uid="156995" user="HampelZamba" changeset="2294580">
    <nd ref="353655079"/>
    <nd ref="353655081"/>
    <nd ref="353655082"/>
    <tag k="highway" v="residential"/>
    <tag k="maxspeed" v="30"/>
    <tag k="note" v="FIXME: stub, incomplete"/>
    <tag k="surface" v="concrete-grass-concrete"/>
  </way>
  <way id="31610008" version="6" timestamp="2009-08-29T14:55:37Z" uid="36809" user="pfoten_weg_!_" changeset="2302467">
    <nd ref="353655079"/>
    <nd ref="353655081"/>
    <nd ref="353655082"/>
    <tag k="highway" v="residential"/>
    <tag k="maxspeed" v="30"/>
    <tag k="note" v="FIXME: stub, incomplete"/>
    <tag k="surface" v="concrete-grass-concrete"/>
  </way>
  <way id="31610008" version="7" timestamp="2010-04-27T05:36:46Z" uid="243184" user="chris_schmekel" changeset="4538130"/>
  <way id="31610009" version="3" timestamp="2009-08-24T22:00:04Z" uid="36809" user="pfoten_weg_!_" changeset="2250603">
    <nd ref="353655079"/>
    <nd ref="353655062"/>
    <nd ref="31406463"/>
    <nd ref="353655060"/>
    <nd ref="353655057"/>
    <tag k="highway" v="secondary"/>
    <tag k="maxspeed" v="DE:urban"/>
    <tag k="nore:de" v="Warnung"/>
    <tag k="ref" v="L 21"/>
  </way>
  <way id="31610009" version="4" timestamp="2009-08-24T22:30:46Z" uid="36809" user="pfoten_weg_!_" changeset="2250754">
    <nd ref="353655079"/>
    <nd ref="353655062"/>
    <nd ref="31406463"/>
    <nd ref="353655060"/>
    <nd ref="353655057"/>
    <tag k="highway" v="secondary"/>
    <tag k="maxspeed" v="DE:urban"/>
    <tag k="ref" v="L 21"/>
  </way>
  <way id="31610009" version="5" timestamp="2009-08-24T22:43:27Z" uid="36809" user="pfoten_weg_!_" changeset="2250819">
    <nd ref="353655079"/>
    <nd ref="353655062"/>
    <nd ref="31406463"/>
    <nd ref="353655060"/>
    <nd ref="353655057"/>
    <tag k="discovered_by" v="RambaZamba"/>
    <tag k="highway" v="secondary"/>
    <tag k="maxspeed" v="DE:urban"/>
    <tag k="ref" v="L 21"/>
  </way>
  <way id="31610009" version="6" timestamp="2009-08-28T20:06:15Z" uid="156995" user="HampelZamba" changeset="2294580">
    <nd ref="353655079"/>
    <nd ref="353655062"/>
    <nd ref="31406463"/>
    <nd ref="353655060"/>
    <nd ref="353655057"/>
    <tag k="highway" v="secondary"/>
    <tag k="maxspeed" v="DE:urban"/>
    <tag k="ref" v="L 21"/>
  </way>
  <way id="31610009" version="7" timestamp="2009-08-29T14:54:30Z" uid="36809" user="pfoten_weg_!_" changeset="2302467">
    <nd ref="353655079"/>
    <nd ref="353655062"/>
    <nd ref="31406463"/>
    <nd ref="353655060"/>
    <nd ref="353655057"/>
    <tag k="highway" v="secondary"/>
    <tag k="maxspeed" v="DE:urban"/>
    <tag k="ref" v="L 21"/>
  </way>
  <way id="31610009" version="8" timestamp="2010-04-27T06:02:32Z" uid="243184" user="chris_schmekel" changeset="4538206">
    <nd ref="353655079"/>
    <nd ref="353655062"/>
    <nd ref="31406463"/>
    <nd ref="353655060"/>
    <nd ref="353655057"/>
    <tag k="highway" v="secondary"/>
    <tag k="maxspeed" v="DE:urban"/>
    <tag k="name" v="Hauptstraße"/>
    <tag k="ref" v="L 21"/>
  </way>
  <way id="31610009" version="9" timestamp="2010-09-13T10:38:22Z" uid="104779" user="ABRob" changeset="5768179">
    <nd ref="353655079"/>
    <nd ref="353655062"/>
    <nd ref="31406463"/>
    <nd ref="353655060"/>
    <nd ref="353655057"/>
    <tag k="highway" v="secondary"/>
    <tag k="maxspeed" v="50"/>
    <tag k="name" v="Hauptstraße"/>
    <tag k="ref" v="L 21"/>
    <tag k="zone:maxspeed" v="DE:urban"/>
    <tag k="zone:traffic" v="DE:urban"/>
  </way>
  <way id="31610009" version="10" timestamp="2010-09-28T11:09:49Z" uid="288045" user="ThG_" changeset="5902804">
    <nd ref="353655085"/>
    <nd ref="353655079"/>
    <nd ref="353655062"/>
    <nd ref="31406463"/>
    <nd ref="353655060"/>
    <nd ref="353655057"/>
    <tag k="highway" v="secondary"/>
    <tag k="maxspeed" v="50"/>
    <tag k="maxweight" v="30"/>
    <tag k="name" v="Hauptstraße"/>
    <tag k="ref" v="L 21"/>
    <tag k="zone:maxspeed" v="DE:urban"/>
    <tag k="zone:traffic" v="DE:urban"/>
  </way>
  <way id="31610009" version="11" timestamp="2011-06-05T13:38:04Z" uid="60409" user="lworch" changeset="8349229">
    <nd ref="353655085"/>
    <nd ref="353655079"/>
    <nd ref="353655062"/>
    <nd ref="31406463"/>
    <nd ref="1313039533"/>
    <nd ref="353655060"/>
    <nd ref="353655057"/>
    <tag k="highway" v="secondary"/>
    <tag k="maxspeed" v="50"/>
    <tag k="maxweight" v="30"/>
    <tag k="name" v="Hauptstraße"/>
    <tag k="ref" v="L 21"/>
    <tag k="zone:maxspeed" v="DE:urban"/>
    <tag k="zone:traffic" v="DE:urban"/>
  </way>
  <way id="31610010" version="2" timestamp="2009-08-24T22:06:26Z" uid="36809" user="pfoten_weg_!_" changeset="2250603">
    <nd ref="353655085"/>
    <nd ref="353655087"/>
    <tag k="highway" v="residential"/>
    <tag k="maxspeed" v="30"/>
    <tag k="nore:de" v="Warnung"/>
    <tag k="note" v="FIXME: stub, incomplete"/>
    <tag k="surface" v="concrete-grass-concrete"/>
  </way>
  <way id="31610010" version="3" timestamp="2009-08-24T22:35:15Z" uid="36809" user="pfoten_weg_!_" changeset="2250754">
    <nd ref="353655085"/>
    <nd ref="353655087"/>
    <tag k="highway" v="residential"/>
    <tag k="maxspeed" v="30"/>
    <tag k="note" v="FIXME: stub, incomplete"/>
    <tag k="surface" v="concrete-grass-concrete"/>
  </way>
  <way id="31610010" version="4" timestamp="2009-08-24T22:50:56Z" uid="36809" user="pfoten_weg_!_" changeset="2250819">
    <nd ref="353655085"/>
    <nd ref="353655087"/>
    <tag k="discovered_by" v="RambaZamba"/>
    <tag k="highway" v="residential"/>
    <tag k="maxspeed" v="30"/>
    <tag k="note" v="FIXME: stub, incomplete"/>
    <tag k="surface" v="concrete-grass-concrete"/>
  </way>
  <way id="31610010" version="5" timestamp="2009-08-28T20:06:15Z" uid="156995" user="HampelZamba" changeset="2294580">
    <nd ref="353655085"/>
    <nd ref="353655087"/>
    <tag k="highway" v="residential"/>
    <tag k="maxspeed" v="30"/>
    <tag k="note" v="FIXME: stub, incomplete"/>
    <tag k="surface" v="concrete-grass-concrete"/>
  </way>
  <way id="31610010" version="6" timestamp="2009-08-29T14:55:30Z" uid="36809" user="pfoten_weg_!_" changeset="2302467">
    <nd ref="353655085"/>
    <nd ref="353655087"/>
    <tag k="highway" v="residential"/>
    <tag k="maxspeed" v="30"/>
    <tag k="note" v="FIXME: stub, incomplete"/>
    <tag k="surface" v="concrete-grass-concrete"/>
  </way>
  <way id="31610010" version="7" timestamp="2010-09-28T11:09:48Z" uid="288045" user="ThG_" changeset="5902804">
    <nd ref="708332444"/>
    <nd ref="929047834"/>
    <nd ref="353655087"/>
    <nd ref="353655085"/>
    <tag k="highway" v="residential"/>
    <tag k="maxspeed" v="30"/>
    <tag k="name" v="Am Anger"/>
    <tag k="note" v="FIXME: stub, incomplete"/>
    <tag k="surface" v="concrete-grass-concrete"/>
  </way>
  <way id="31610010" version="8" timestamp="2010-10-16T12:51:25Z" uid="110639" user="aighes" changeset="6057315">
    <nd ref="708332444"/>
    <nd ref="929047834"/>
    <nd ref="353655087"/>
    <nd ref="353655085"/>
    <tag k="highway" v="residential"/>
    <tag k="maxspeed" v="30"/>
    <tag k="name" v="Am Anger"/>
    <tag k="note" v="FIXME: stub, incomplete"/>
    <tag k="surface" v="concrete"/>
    <tag k="surface:middle" v="grass"/>
  </way>
  <way id="31610011" version="3" timestamp="2009-08-24T22:06:03Z" uid="36809" user="pfoten_weg_!_" changeset="2250603">
    <nd ref="353655085"/>
    <nd ref="353655079"/>
    <tag k="highway" v="secondary"/>
    <tag k="maxspeed" v="DE:urban"/>
    <tag k="maxweight" v="30"/>
    <tag k="nore:de" v="Warnung"/>
    <tag k="ref" v="L 21"/>
  </way>
  <way id="31610011" version="4" timestamp="2009-08-24T22:34:29Z" uid="36809" user="pfoten_weg_!_" changeset="2250754">
    <nd ref="353655085"/>
    <nd ref="353655079"/>
    <tag k="highway" v="secondary"/>
    <tag k="maxspeed" v="DE:urban"/>
    <tag k="maxweight" v="30"/>
    <tag k="ref" v="L 21"/>
  </way>
  <way id="31610011" version="5" timestamp="2009-08-24T22:50:23Z" uid="36809" user="pfoten_weg_!_" changeset="2250819">
    <nd ref="353655085"/>
    <nd ref="353655079"/>
    <tag k="discovered_by" v="RambaZamba"/>
    <tag k="highway" v="secondary"/>
    <tag k="maxspeed" v="DE:urban"/>
    <tag k="maxweight" v="30"/>
    <tag k="ref" v="L 21"/>
  </way>
  <way id="31610011" version="6" timestamp="2009-08-28T20:06:16Z" uid="156995" user="HampelZamba" changeset="2294580">
    <nd ref="353655085"/>
    <nd ref="353655079"/>
    <tag k="highway" v="secondary"/>
    <tag k="maxspeed" v="DE:urban"/>
    <tag k="maxweight" v="30"/>
    <tag k="ref" v="L 21"/>
  </way>
  <way id="31610011" version="7" timestamp="2009-08-29T14:56:40Z" uid="36809" user="pfoten_weg_!_" changeset="2302467">
    <nd ref="353655085"/>
    <nd ref="353655079"/>
    <tag k="highway" v="secondary"/>
    <tag k="maxspeed" v="DE:urban"/>
    <tag k="maxweight" v="30"/>
    <tag k="ref" v="L 21"/>
  </way>
  <way id="31610011" version="8" timestamp="2010-04-27T06:02:25Z" uid="243184" user="chris_schmekel" changeset="4538206">
    <nd ref="353655085"/>
    <nd ref="353655079"/>
    <tag k="highway" v="secondary"/>
    <tag k="maxspeed" v="DE:urban"/>
    <tag k="maxweight" v="30"/>
    <tag k="name" v="Hauptstraße"/>
    <tag k="ref" v="L 21"/>
  </way>
  <way id="31610011" version="9" timestamp="2010-09-13T11:09:12Z" uid="104779" user="ABRob" changeset="5768179">
    <nd ref="353655085"/>
    <nd ref="353655079"/>
    <tag k="highway" v="secondary"/>
    <tag k="maxspeed" v="50"/>
    <tag k="maxweight" v="30"/>
    <tag k="name" v="Hauptstraße"/>
    <tag k="ref" v="L 21"/>
    <tag k="zone:maxspeed" v="DE:urban"/>
    <tag k="zone:traffic" v="DE:urban"/>
  </way>
  <way id="31610011" version="10" timestamp="2010-09-28T11:09:55Z" uid="288045" user="ThG_" changeset="5902804"/>
  <way id="31610012" version="2" timestamp="2009-08-24T22:03:33Z" uid="36809" user="pfoten_weg_!_" changeset="2250603">
    <nd ref="31406339"/>
    <nd ref="353655089"/>
    <nd ref="31406508"/>
    <nd ref="31406903"/>
    <nd ref="31407592"/>
    <nd ref="31406064"/>
    <nd ref="353655085"/>
    <tag k="highway" v="secondary"/>
    <tag k="maxspeed" v="50"/>
    <tag k="maxweight" v="30"/>
    <tag k="nore:de" v="Warnung"/>
    <tag k="ref" v="L 21"/>
  </way>
  <way id="31610012" version="3" timestamp="2009-08-24T22:33:08Z" uid="36809" user="pfoten_weg_!_" changeset="2250754">
    <nd ref="31406339"/>
    <nd ref="353655089"/>
    <nd ref="31406508"/>
    <nd ref="31406903"/>
    <nd ref="31407592"/>
    <nd ref="31406064"/>
    <nd ref="353655085"/>
    <tag k="highway" v="secondary"/>
    <tag k="maxspeed" v="50"/>
    <tag k="maxweight" v="30"/>
    <tag k="ref" v="L 21"/>
  </way>
  <way id="31610012" version="4" timestamp="2009-08-24T22:46:59Z" uid="36809" user="pfoten_weg_!_" changeset="2250819">
    <nd ref="31406339"/>
    <nd ref="353655089"/>
    <nd ref="31406508"/>
    <nd ref="31406903"/>
    <nd ref="31407592"/>
    <nd ref="31406064"/>
    <nd ref="353655085"/>
    <tag k="discovered_by" v="RambaZamba"/>
    <tag k="highway" v="secondary"/>
    <tag k="maxspeed" v="50"/>
    <tag k="maxweight" v="30"/>
    <tag k="ref" v="L 21"/>
  </way>
  <way id="31610012" version="5" timestamp="2009-08-28T20:06:16Z" uid="156995" user="HampelZamba" changeset="2294580">
    <nd ref="31406339"/>
    <nd ref="353655089"/>
    <nd ref="31406508"/>
    <nd ref="31406903"/>
    <nd ref="31407592"/>
    <nd ref="31406064"/>
    <nd ref="353655085"/>
    <tag k="highway" v="secondary"/>
    <tag k="maxspeed" v="50"/>
    <tag k="maxweight" v="30"/>
    <tag k="ref" v="L 21"/>
  </way>
  <way id="31610012" version="6" timestamp="2009-08-29T14:57:36Z" uid="36809" user="pfoten_weg_!_" changeset="2302467">
    <nd ref="31406339"/>
    <nd ref="353655089"/>
    <nd ref="31406508"/>
    <nd ref="31406903"/>
    <nd ref="31407592"/>
    <nd ref="31406064"/>
    <nd ref="353655085"/>
    <tag k="highway" v="secondary"/>
    <tag k="maxspeed" v="50"/>
    <tag k="maxweight" v="30"/>
    <tag k="ref" v="L 21"/>
  </way>
  <way id="31610012" version="7" timestamp="2010-04-27T06:02:32Z" uid="243184" user="chris_schmekel" changeset="4538206">
    <nd ref="31406339"/>
    <nd ref="353655089"/>
    <nd ref="31406508"/>
    <nd ref="31406903"/>
    <nd ref="31407592"/>
    <nd ref="31406064"/>
    <nd ref="708336468"/>
    <nd ref="353655085"/>
    <tag k="highway" v="secondary"/>
    <tag k="maxspeed" v="50"/>
    <tag k="maxweight" v="30"/>
    <tag k="ref" v="L 21"/>
  </way>
  <way id="31610012" version="8" timestamp="2010-06-20T12:40:50Z" uid="52602" user="falcius" changeset="5032602">
    <nd ref="31406339"/>
    <nd ref="778205592"/>
    <nd ref="778205573"/>
    <nd ref="353655089"/>
    <nd ref="31406508"/>
    <nd ref="31406903"/>
    <nd ref="31407592"/>
    <nd ref="31406064"/>
    <nd ref="708336468"/>
    <nd ref="353655085"/>
    <tag k="highway" v="secondary"/>
    <tag k="maxspeed" v="50"/>
    <tag k="maxweight" v="30"/>
    <tag k="ref" v="L 21"/>
  </way>
  <way id="31610012" version="9" timestamp="2011-05-28T21:01:18Z" uid="76587" user="nbuettler" changeset="8275627">
    <nd ref="31406339"/>
    <nd ref="778205592"/>
    <nd ref="778205573"/>
    <nd ref="353655089"/>
    <nd ref="1304095380"/>
    <nd ref="31406508"/>
    <nd ref="31406903"/>
    <nd ref="31407592"/>
    <nd ref="31406064"/>
    <nd ref="708336468"/>
    <nd ref="353655085"/>
    <tag k="highway" v="secondary"/>
    <tag k="maxspeed" v="50"/>
    <tag k="maxweight" v="30"/>
    <tag k="ref" v="L 21"/>
  </way>
  <way id="31610207" version="2" timestamp="2009-11-11T14:03:39Z" uid="23543" user="jkjk" changeset="3090300">
    <nd ref="353651440"/>
    <nd ref="353651439"/>
    <nd ref="353651447"/>
    <nd ref="353651446"/>
    <nd ref="353651444"/>
    <nd ref="353651442"/>
    <nd ref="353651430"/>
    <nd ref="353651432"/>
    <nd ref="353651427"/>
    <nd ref="353651428"/>
    <nd ref="353651435"/>
    <nd ref="353651437"/>
    <nd ref="353651434"/>
    <tag k="IBGE:CD_ADMINIS" v="nao informado"/>
    <tag k="source" v="IBGE"/>
  </way>
  <way id="31610312" version="2" timestamp="2009-11-11T13:54:53Z" uid="23543" user="jkjk" changeset="3090224"/>
  <way id="31610325" version="2" timestamp="2009-03-18T23:12:43Z" uid="20587" user="balrog-kun" changeset="830772"/>
  <way id="31610336" version="4" timestamp="2009-08-24T22:47:57Z" uid="36809" user="pfoten_weg_!_" changeset="2250819">
    <nd ref="353657048"/>
    <nd ref="306820113"/>
    <tag k="bridge" v="yes"/>
    <tag k="discovered_by" v="RambaZamba"/>
    <tag k="highway" v="tertiary"/>
    <tag k="layer" v="1"/>
    <tag k="oneway" v="yes"/>
    <tag k="source" v="survey"/>
  </way>
  <way id="31610336" version="5" timestamp="2009-08-28T20:06:16Z" uid="156995" user="HampelZamba" changeset="2294580">
    <nd ref="353657048"/>
    <nd ref="306820113"/>
    <tag k="bridge" v="yes"/>
    <tag k="highway" v="tertiary"/>
    <tag k="layer" v="1"/>
    <tag k="oneway" v="yes"/>
    <tag k="source" v="survey"/>
  </way>
  <way id="31610336" version="6" timestamp="2009-08-29T14:57:09Z" uid="36809" user="pfoten_weg_!_" changeset="2302467">
    <nd ref="353657048"/>
    <nd ref="306820113"/>
    <tag k="bridge" v="yes"/>
    <tag k="highway" v="tertiary"/>
    <tag k="layer" v="1"/>
    <tag k="oneway" v="yes"/>
    <tag k="source" v="survey"/>
  </way>
  <way id="31610336" version="7" timestamp="2009-10-03T08:41:31Z" uid="179968" user="Ich_hasse_doitsche_OSM-Korinthenkacker" changeset="2720861">
    <nd ref="353657048"/>
    <nd ref="306820113"/>
    <tag k="bridge" v="yes"/>
    <tag k="highway" v="tertiary"/>
    <tag k="layer" v="1"/>
    <tag k="oneway" v="yes"/>
  </way>
  <way id="31610336" version="8" timestamp="2010-06-05T20:09:19Z" uid="49785" user="mike67" changeset="4911938">
    <nd ref="353657048"/>
    <nd ref="306820113"/>
    <tag k="bridge" v="yes"/>
    <tag k="highway" v="secondary"/>
    <tag k="layer" v="1"/>
    <tag k="oneway" v="yes"/>
  </way>
  <way id="31610336" version="9" timestamp="2010-06-07T14:20:33Z" uid="55462" user="Lübeck" changeset="4928581">
    <nd ref="306820123"/>
    <nd ref="353657048"/>
    <nd ref="766704568"/>
    <tag k="bridge" v="yes"/>
    <tag k="highway" v="secondary"/>
    <tag k="layer" v="1"/>
    <tag k="maxweight" v="20"/>
    <tag k="name" v="Ponton-Brücke (April - Okt.)"/>
    <tag k="oneway" v="yes"/>
  </way>
  <way id="31610336" version="10" timestamp="2010-06-20T21:49:36Z" uid="43064" user="juestres" changeset="5037993">
    <nd ref="306820123"/>
    <nd ref="353657048"/>
    <nd ref="766704568"/>
    <tag k="bridge" v="yes"/>
    <tag k="highway" v="secondary"/>
    <tag k="layer" v="1"/>
    <tag k="maxspeed" v="30"/>
    <tag k="maxweight" v="20"/>
    <tag k="name" v="Ponton-Brücke (April - Okt.)"/>
    <tag k="oneway" v="yes"/>
  </way>
  <way id="31610336" version="11" timestamp="2011-09-26T23:05:30Z" uid="282726" user="kaiD" changeset="9406688"/>
  <way id="31610337" version="2" timestamp="2009-08-24T22:00:22Z" uid="36809" user="pfoten_weg_!_" changeset="2250603">
    <nd ref="306820058"/>
    <nd ref="306820068"/>
    <nd ref="306820075"/>
    <nd ref="306820063"/>
    <nd ref="353657049"/>
    <nd ref="31406624"/>
    <tag k="highway" v="secondary"/>
    <tag k="maxspeed" v="50"/>
    <tag k="name" v="Am Freesenbruch"/>
    <tag k="nore:de" v="Warnung"/>
    <tag k="ref" v="L 21"/>
    <tag k="source" v="survey"/>
  </way>
  <way id="31610337" version="3" timestamp="2009-08-24T22:30:59Z" uid="36809" user="pfoten_weg_!_" changeset="2250754">
    <nd ref="306820058"/>
    <nd ref="306820068"/>
    <nd ref="306820075"/>
    <nd ref="306820063"/>
    <nd ref="353657049"/>
    <nd ref="31406624"/>
    <tag k="highway" v="secondary"/>
    <tag k="maxspeed" v="50"/>
    <tag k="name" v="Am Freesenbruch"/>
    <tag k="ref" v="L 21"/>
    <tag k="source" v="survey"/>
  </way>
  <way id="31610337" version="4" timestamp="2009-08-24T22:43:52Z" uid="36809" user="pfoten_weg_!_" changeset="2250819">
    <nd ref="306820058"/>
    <nd ref="306820068"/>
    <nd ref="306820075"/>
    <nd ref="306820063"/>
    <nd ref="353657049"/>
    <nd ref="31406624"/>
    <tag k="discovered_by" v="RambaZamba"/>
    <tag k="highway" v="secondary"/>
    <tag k="maxspeed" v="50"/>
    <tag k="name" v="Am Freesenbruch"/>
    <tag k="ref" v="L 21"/>
    <tag k="source" v="survey"/>
  </way>
  <way id="31610337" version="5" timestamp="2009-08-28T20:06:16Z" uid="156995" user="HampelZamba" changeset="2294580">
    <nd ref="306820058"/>
    <nd ref="306820068"/>
    <nd ref="306820075"/>
    <nd ref="306820063"/>
    <nd ref="353657049"/>
    <nd ref="31406624"/>
    <tag k="highway" v="secondary"/>
    <tag k="maxspeed" v="50"/>
    <tag k="name" v="Am Freesenbruch"/>
    <tag k="ref" v="L 21"/>
    <tag k="source" v="survey"/>
  </way>
  <way id="31610337" version="6" timestamp="2009-08-29T14:55:15Z" uid="36809" user="pfoten_weg_!_" changeset="2302467">
    <nd ref="306820058"/>
    <nd ref="306820068"/>
    <nd ref="306820075"/>
    <nd ref="306820063"/>
    <nd ref="353657049"/>
    <nd ref="31406624"/>
    <tag k="highway" v="secondary"/>
    <tag k="maxspeed" v="50"/>
    <tag k="name" v="Am Freesenbruch"/>
    <tag k="ref" v="L 21"/>
    <tag k="source" v="survey"/>
  </way>
  <way id="31610337" version="7" timestamp="2009-10-03T08:41:31Z" uid="179968" user="Ich_hasse_doitsche_OSM-Korinthenkacker" changeset="2720861">
    <nd ref="306820058"/>
    <nd ref="306820068"/>
    <nd ref="306820075"/>
    <nd ref="306820063"/>
    <nd ref="353657049"/>
    <nd ref="31406624"/>
    <tag k="highway" v="secondary"/>
    <tag k="maxspeed" v="50"/>
    <tag k="name" v="Am Freesenbruch"/>
    <tag k="ref" v="L 21"/>
  </way>
  <way id="31610337" version="8" timestamp="2009-12-09T21:28:15Z" uid="76587" user="circusfreunde" changeset="3337206">
    <nd ref="306820058"/>
    <nd ref="306820068"/>
    <nd ref="306820075"/>
    <nd ref="306820063"/>
    <nd ref="353657049"/>
    <tag k="highway" v="secondary"/>
    <tag k="maxspeed" v="50"/>
    <tag k="name" v="Am Freesenbruch"/>
    <tag k="ref" v="L 21"/>
  </way>
  <way id="31610337" version="9" timestamp="2010-06-01T08:45:24Z" uid="261629" user="MJeschky" changeset="4872774">
    <nd ref="306820058"/>
    <nd ref="306820068"/>
    <nd ref="306820075"/>
    <nd ref="306820063"/>
    <nd ref="353657049"/>
    <tag k="highway" v="secondary"/>
    <tag k="maxspeed" v="50"/>
    <tag k="name" v="An der Meiningenbrücke"/>
    <tag k="ref" v="L 21"/>
  </way>
  <way id="31610337" version="10" timestamp="2011-05-28T21:01:18Z" uid="76587" user="nbuettler" changeset="8275627">
    <nd ref="306820058"/>
    <nd ref="306820068"/>
    <nd ref="306820075"/>
    <nd ref="306820063"/>
    <nd ref="1304095382"/>
    <nd ref="353657049"/>
    <tag k="highway" v="secondary"/>
    <tag k="maxspeed" v="50"/>
    <tag k="name" v="An der Meiningenbrücke"/>
    <tag k="ref" v="L 21"/>
  </way>
  <way id="31610391" version="2" timestamp="2010-05-09T18:59:28Z" uid="74617" user="JohnSmith" changeset="4652484">
    <nd ref="353657643"/>
    <nd ref="353657648"/>
    <nd ref="353657650"/>
    <nd ref="353657653"/>
    <nd ref="353657656"/>
    <tag k="highway" v="residential"/>
  </way>
  <way id="31610391" version="3" timestamp="2010-07-08T03:50:42Z" uid="74617" user="JohnSmith" changeset="5163091">
    <nd ref="353657643"/>
    <nd ref="353657648"/>
    <nd ref="353657650"/>
    <nd ref="353657653"/>
    <nd ref="353657656"/>
    <tag k="highway" v="residential"/>
    <tag k="maxspeed" v="50"/>
    <tag k="maxspeed:source" v="default residential speed limit in Australia"/>
  </way>
  <way id="31610391" version="4" timestamp="2012-01-18T08:05:24Z" uid="147510" user="woodpeck_fixbot" changeset="10424702">
    <nd ref="353657643"/>
    <nd ref="353657648"/>
    <nd ref="353657650"/>
    <nd ref="353657653"/>
    <nd ref="353657656"/>
    <tag k="highway" v="residential"/>
  </way>
  <way id="31610392" version="2" timestamp="2010-05-09T19:00:59Z" uid="74617" user="JohnSmith" changeset="4652484">
    <nd ref="353657643"/>
    <nd ref="353657665"/>
    <nd ref="353657638"/>
    <nd ref="353657634"/>
    <nd ref="353657629"/>
    <nd ref="353657612"/>
    <nd ref="353657608"/>
    <nd ref="353657603"/>
    <nd ref="353657597"/>
    <tag k="highway" v="cycleway"/>
  </way>
  <way id="31610560" version="5" timestamp="2009-08-24T22:06:17Z" uid="36809" user="pfoten_weg_!_" changeset="2250603">
    <nd ref="31405912"/>
    <nd ref="59775892"/>
    <nd ref="59775893"/>
    <nd ref="59775894"/>
    <nd ref="59775895"/>
    <nd ref="59775888"/>
    <nd ref="59775889"/>
    <nd ref="59775890"/>
    <nd ref="353661766"/>
    <nd ref="470368591"/>
    <tag k="highway" v="tertiary"/>
    <tag k="maxspeed" v="DE:rural"/>
    <tag k="nore:de" v="Warnung"/>
    <tag k="ref" v="K 25"/>
    <tag k="source" v="Kreis Nordvorpommern"/>
  </way>
  <way id="31610560" version="6" timestamp="2009-08-24T22:34:39Z" uid="36809" user="pfoten_weg_!_" changeset="2250754">
    <nd ref="31405912"/>
    <nd ref="59775892"/>
    <nd ref="59775893"/>
    <nd ref="59775894"/>
    <nd ref="59775895"/>
    <nd ref="59775888"/>
    <nd ref="59775889"/>
    <nd ref="59775890"/>
    <nd ref="353661766"/>
    <nd ref="470368591"/>
    <tag k="highway" v="tertiary"/>
    <tag k="maxspeed" v="DE:rural"/>
    <tag k="ref" v="K 25"/>
    <tag k="source" v="Kreis Nordvorpommern"/>
  </way>
  <way id="31610560" version="7" timestamp="2009-08-24T22:50:44Z" uid="36809" user="pfoten_weg_!_" changeset="2250819">
    <nd ref="31405912"/>
    <nd ref="59775892"/>
    <nd ref="59775893"/>
    <nd ref="59775894"/>
    <nd ref="59775895"/>
    <nd ref="59775888"/>
    <nd ref="59775889"/>
    <nd ref="59775890"/>
    <nd ref="353661766"/>
    <nd ref="470368591"/>
    <tag k="discovered_by" v="RambaZamba"/>
    <tag k="highway" v="tertiary"/>
    <tag k="maxspeed" v="DE:rural"/>
    <tag k="ref" v="K 25"/>
    <tag k="source" v="Kreis Nordvorpommern"/>
  </way>
  <way id="31610560" version="8" timestamp="2009-08-28T20:06:16Z" uid="156995" user="HampelZamba" changeset="2294580">
    <nd ref="31405912"/>
    <nd ref="59775892"/>
    <nd ref="59775893"/>
    <nd ref="59775894"/>
    <nd ref="59775895"/>
    <nd ref="59775888"/>
    <nd ref="59775889"/>
    <nd ref="59775890"/>
    <nd ref="353661766"/>
    <nd ref="470368591"/>
    <tag k="highway" v="tertiary"/>
    <tag k="maxspeed" v="DE:rural"/>
    <tag k="ref" v="K 25"/>
    <tag k="source" v="Kreis Nordvorpommern"/>
  </way>
  <way id="31610560" version="9" timestamp="2009-08-29T14:53:48Z" uid="36809" user="pfoten_weg_!_" changeset="2302467">
    <nd ref="31405912"/>
    <nd ref="59775892"/>
    <nd ref="59775893"/>
    <nd ref="59775894"/>
    <nd ref="59775895"/>
    <nd ref="59775888"/>
    <nd ref="59775889"/>
    <nd ref="59775890"/>
    <nd ref="353661766"/>
    <nd ref="470368591"/>
    <tag k="highway" v="tertiary"/>
    <tag k="maxspeed" v="DE:rural"/>
    <tag k="ref" v="K 25"/>
    <tag k="source" v="Kreis Nordvorpommern"/>
  </way>
  <way id="31610560" version="10" timestamp="2009-10-03T08:40:09Z" uid="179968" user="Ich_hasse_doitsche_OSM-Korinthenkacker" changeset="2720861">
    <nd ref="31405912"/>
    <nd ref="59775892"/>
    <nd ref="59775893"/>
    <nd ref="59775894"/>
    <nd ref="59775895"/>
    <nd ref="59775888"/>
    <nd ref="59775889"/>
    <nd ref="59775890"/>
    <nd ref="353661766"/>
    <nd ref="470368591"/>
    <tag k="highway" v="tertiary"/>
    <tag k="maxspeed" v="DE:rural"/>
    <tag k="ref" v="K 25"/>
  </way>
  <way id="31610560" version="11" timestamp="2010-09-13T10:12:31Z" uid="104779" user="ABRob" changeset="5768179">
    <nd ref="31405912"/>
    <nd ref="59775892"/>
    <nd ref="59775893"/>
    <nd ref="59775894"/>
    <nd ref="59775895"/>
    <nd ref="59775888"/>
    <nd ref="59775889"/>
    <nd ref="59775890"/>
    <nd ref="353661766"/>
    <nd ref="470368591"/>
    <tag k="highway" v="tertiary"/>
    <tag k="maxspeed" v="100"/>
    <tag k="ref" v="K 25"/>
    <tag k="source:maxspeed" v="DE:rural"/>
    <tag k="zone:traffic" v="DE:rural"/>
  </way>
  <way id="31610600" version="2" timestamp="2009-08-03T04:04:07Z" uid="4467" user="Rosscoe" changeset="2021228">
    <nd ref="353662489"/>
    <nd ref="25943079"/>
    <nd ref="353662525"/>
    <tag k="bridge" v="yes"/>
    <tag k="highway" v="secondary"/>
    <tag k="layer" v="1"/>
    <tag k="maxspeed" v="80"/>
    <tag k="name" v="Five Islands Road"/>
    <tag k="source" v="yahoo"/>
  </way>
  <way id="31610600" version="3" timestamp="2009-08-03T04:10:05Z" uid="4467" user="Rosscoe" changeset="2021247">
    <nd ref="25943080"/>
    <nd ref="25943079"/>
    <nd ref="353662525"/>
    <tag k="bridge" v="yes"/>
    <tag k="highway" v="secondary"/>
    <tag k="layer" v="1"/>
    <tag k="maxspeed" v="80"/>
    <tag k="name" v="Five Islands Road"/>
    <tag k="source" v="yahoo"/>
  </way>
  <way id="31610604" version="4" timestamp="2010-05-09T19:00:11Z" uid="74617" user="JohnSmith" changeset="4652484">
    <nd ref="353662525"/>
    <nd ref="25943077"/>
    <nd ref="25943076"/>
    <nd ref="25943075"/>
    <nd ref="316785006"/>
    <nd ref="360352781"/>
    <nd ref="347456931"/>
    <nd ref="25943074"/>
    <nd ref="347456930"/>
    <tag k="highway" v="secondary"/>
    <tag k="layer" v="1"/>
    <tag k="maxspeed" v="80"/>
    <tag k="name" v="Five Islands Road"/>
    <tag k="source" v="yahoo"/>
  </way>
  <way id="31610605" version="2" timestamp="2009-08-03T04:10:05Z" uid="4467" user="Rosscoe" changeset="2021247">
    <nd ref="353662537"/>
    <nd ref="334279003"/>
    <nd ref="334279025"/>
    <nd ref="334279007"/>
    <nd ref="334279010"/>
    <nd ref="334279016"/>
    <tag k="highway" v="cycleway"/>
    <tag k="layer" v="-1"/>
  </way>
  <way id="31610606" version="2" timestamp="2009-08-03T04:04:07Z" uid="4467" user="Rosscoe" changeset="2021228">
    <nd ref="54472422"/>
    <nd ref="25943080"/>
    <tag k="highway" v="secondary"/>
    <tag k="layer" v="1"/>
    <tag k="maxspeed" v="80"/>
    <tag k="name" v="Five Islands Road"/>
    <tag k="source" v="yahoo"/>
  </way>
  <way id="31610607" version="2" timestamp="2009-07-27T05:21:28Z" uid="4467" user="Rosscoe" changeset="1951487">
    <nd ref="353662560"/>
    <nd ref="54472422"/>
    <tag k="bridge" v="yes"/>
    <tag k="highway" v="secondary"/>
    <tag k="layer" v="1"/>
    <tag k="maxspeed" v="80"/>
    <tag k="name" v="Five Islands Road"/>
    <tag k="source" v="yahoo"/>
  </way>
  <way id="31610607" version="3" timestamp="2009-08-03T04:10:05Z" uid="4467" user="Rosscoe" changeset="2021247">
    <nd ref="25943081"/>
    <nd ref="54472422"/>
    <tag k="bridge" v="yes"/>
    <tag k="highway" v="secondary"/>
    <tag k="layer" v="1"/>
    <tag k="maxspeed" v="80"/>
    <tag k="name" v="Five Islands Road"/>
    <tag k="source" v="yahoo"/>
  </way>
  <way id="31610608" version="3" timestamp="2009-08-03T10:01:41Z" uid="4467" user="Rosscoe" changeset="2023600">
    <nd ref="353662584"/>
    <nd ref="353662588"/>
    <nd ref="353662591"/>
    <nd ref="353662595"/>
    <nd ref="353662604"/>
    <nd ref="353662609"/>
    <nd ref="353662611"/>
    <nd ref="353662618"/>
    <nd ref="354089041"/>
    <nd ref="353662584"/>
    <tag k="landuse" v="recreation_ground"/>
    <tag k="name" v="Norm Johnson Memorial Athletic Park"/>
    <tag k="sport" v="athletics"/>
  </way>
  <way id="31610674" version="2" timestamp="2010-02-14T17:04:47Z" uid="74617" user="JohnSmith" changeset="3875836">
    <nd ref="353663253"/>
    <nd ref="353663672"/>
    <tag k="highway" v="unclassified"/>
    <tag k="maxspeed" v="50"/>
    <tag k="name" v="Oxford Place"/>
    <tag k="source" v="Out of copyright estate map. http://onesearch.slq.qld.gov.au/primo_library/libweb/action/getItAction.do?indx=389&amp;ct=getit&amp;doc=slq_voyager758647&amp;frbg=&amp;dum=true&amp;vl(1UI0)=contains&amp;vid=SLQ&amp;vl(58818275UI1)=all_items&amp;srt=rank&amp;indx=381&amp;tab=default_tab&amp;vl(D455007"/>
  </way>
  <way id="31610674" version="3" timestamp="2012-01-18T08:05:25Z" uid="147510" user="woodpeck_fixbot" changeset="10424702">
    <nd ref="353663253"/>
    <nd ref="353663672"/>
    <tag k="highway" v="unclassified"/>
    <tag k="name" v="Oxford Place"/>
    <tag k="source" v="Out of copyright estate map. http://onesearch.slq.qld.gov.au/primo_library/libweb/action/getItAction.do?indx=389&amp;ct=getit&amp;doc=slq_voyager758647&amp;frbg=&amp;dum=true&amp;vl(1UI0)=contains&amp;vid=SLQ&amp;vl(58818275UI1)=all_items&amp;srt=rank&amp;indx=381&amp;tab=default_tab&amp;vl(D455007"/>
  </way>
  <way id="31610765" version="2" timestamp="2009-08-03T04:31:13Z" uid="4467" user="Rosscoe" changeset="2021315">
    <nd ref="353665846"/>
    <nd ref="353665849"/>
    <nd ref="454839550"/>
    <nd ref="454839551"/>
    <nd ref="353665846"/>
    <tag k="name" v="Boolaroo Bowling Club"/>
    <tag k="sport" v="bowls"/>
  </way>
  <way id="31610798" version="2" timestamp="2009-03-08T14:40:40Z" uid="6975" user="ulfl" changeset="757880">
    <nd ref="353667801"/>
    <nd ref="353667802"/>
    <nd ref="353667803"/>
    <nd ref="353667804"/>
    <nd ref="353667801"/>
    <tag k="building" v="yes"/>
    <tag k="name" v="Colruyt"/>
    <tag k="shop" v="supermarket"/>
  </way>
  <way id="31610798" version="3" timestamp="2011-02-23T21:00:31Z" uid="15399" user="eMerzh" changeset="7376677">
    <nd ref="353667801"/>
    <nd ref="353667802"/>
    <nd ref="353667803"/>
    <nd ref="353667804"/>
    <nd ref="1168847479"/>
    <nd ref="1168847387"/>
    <nd ref="1168847192"/>
    <nd ref="353667801"/>
    <tag k="building" v="yes"/>
    <tag k="name" v="Colruyt"/>
    <tag k="shop" v="supermarket"/>
  </way>
  <way id="31610886" version="2" timestamp="2009-06-06T18:00:14Z" uid="9581" user="Lobelt" changeset="1440930">
    <nd ref="353670120"/>
    <nd ref="353670414"/>
    <nd ref="353670415"/>
    <nd ref="353670416"/>
    <nd ref="353670417"/>
    <nd ref="416610395"/>
    <tag k="created_by" v="Potlatch 0.10f"/>
    <tag k="highway" v="unclassified"/>
    <tag k="surface" v="paved"/>
  </way>
  <way id="31610886" version="3" timestamp="2010-09-11T21:37:22Z" uid="24920" user="Schusch" changeset="5754119">
    <nd ref="353670120"/>
    <nd ref="353670414"/>
    <nd ref="353670415"/>
    <nd ref="353670416"/>
    <nd ref="353670417"/>
    <nd ref="416610395"/>
    <tag k="highway" v="unclassified"/>
    <tag k="surface" v="paved"/>
  </way>
  <way id="31610886" version="4" timestamp="2012-03-11T17:50:39Z" uid="212079" user="atz" changeset="10946072">
    <nd ref="353670120"/>
    <nd ref="353670414"/>
    <nd ref="353670415"/>
    <nd ref="353670416"/>
    <nd ref="353670417"/>
    <nd ref="1670671695"/>
    <tag k="highway" v="unclassified"/>
    <tag k="surface" v="paved"/>
  </way>
  <way id="31610886" version="5" timestamp="2012-03-23T09:36:10Z" uid="212079" user="atz" changeset="11071831"/>
  <way id="31610956" version="2" timestamp="2009-08-03T12:50:12Z" uid="4467" user="Rosscoe" changeset="2025147">
    <nd ref="353671680"/>
    <nd ref="25943114"/>
    <tag k="highway" v="secondary"/>
    <tag k="oneway" v="yes"/>
  </way>
  <way id="31610959" version="3" timestamp="2009-08-03T12:50:13Z" uid="4467" user="Rosscoe" changeset="2025147">
    <nd ref="25943113"/>
    <nd ref="25943114"/>
    <nd ref="277085375"/>
    <nd ref="25943115"/>
    <nd ref="25943116"/>
    <nd ref="353671702"/>
    <nd ref="354088720"/>
    <nd ref="25943117"/>
    <tag k="highway" v="primary"/>
    <tag k="name" v="T C Frith Avenue"/>
    <tag k="ref" v="S133"/>
  </way>
  <way id="31610959" version="4" timestamp="2010-08-14T01:00:36Z" uid="299678" user="peteramjet" changeset="5487025">
    <nd ref="25943113"/>
    <nd ref="25943114"/>
    <nd ref="277085375"/>
    <nd ref="25943115"/>
    <nd ref="25943116"/>
    <nd ref="353671702"/>
    <nd ref="354088720"/>
    <nd ref="25943117"/>
    <tag k="highway" v="primary"/>
    <tag k="name" v="T C Frith Avenue"/>
  </way>
</osm>
