<?xml version='1.0' encoding='UTF-8'?>
<osm version="0.6" generator="libosmium/2.20.0">
  <way id="31635007" version="1" timestamp="2009-02-28T17:46:09Z" uid="65847" user="LKK" changeset="696396">
    <nd ref="353889478"/>
    <nd ref="353890981"/>
    <nd ref="353890982"/>
    <nd ref="353890564"/>
    <tag k="created_by" v="Potlatch 0.10f"/>
    <tag k="highway" v="residential"/>
  </way>
  <way id="31635007" version="2" timestamp="2012-03-30T13:49:31Z" uid="544370" user="atari_matari" changeset="11154342">
    <nd ref="353889478"/>
    <nd ref="353890981"/>
    <nd ref="353890982"/>
    <nd ref="353890564"/>
    <tag k="highway" v="residential"/>
  </way>
  <way id="31635007" version="3" timestamp="2012-03-30T14:10:30Z" uid="544370" user="atari_matari" changeset="11154736"/>
  <way id="31635031" version="1" timestamp="2009-02-28T17:46:17Z" uid="65847" user="LKK" changeset="696396">
    <nd ref="353890981"/>
    <nd ref="353888602"/>
    <tag k="created_by" v="Potlatch 0.10f"/>
    <tag k="highway" v="residential"/>
  </way>
  <way id="31635031" version="2" timestamp="2012-03-30T13:48:21Z" uid="544370" user="atari_matari" changeset="11154342">
    <nd ref="353890981"/>
    <nd ref="353888602"/>
    <tag k="highway" v="residential"/>
  </way>
  <way id="31635031" version="3" timestamp="2012-03-30T14:10:30Z" uid="544370" user="atari_matari" changeset="11154736"/>
  <way id="31635211" version="4" timestamp="2010-02-13T21:46:07Z" uid="123700" user="Mala" changeset="3868745">
    <nd ref="147041449"/>
    <nd ref="150606820"/>
    <nd ref="150606821"/>
    <nd ref="150606823"/>
    <nd ref="150606824"/>
    <nd ref="150606825"/>
    <nd ref="151139594"/>
    <nd ref="150606826"/>
    <nd ref="190250327"/>
    <nd ref="190246202"/>
    <nd ref="150606827"/>
    <nd ref="150606828"/>
    <nd ref="229748448"/>
    <tag k="highway" v="primary"/>
    <tag k="int_ref" v="E 261"/>
    <tag k="name" v="Jana Pawła II"/>
    <tag k="oneway" v="yes"/>
    <tag k="ref" v="5"/>
    <tag k="wikipedia" v="pl:Ulica Jana Pawła II w Poznaniu"/>
  </way>
  <way id="31635211" version="5" timestamp="2011-04-20T10:43:00Z" uid="338611" user="marek kleciak" changeset="7914945">
    <nd ref="147041449"/>
    <nd ref="150606820"/>
    <nd ref="150606821"/>
    <nd ref="150606823"/>
    <nd ref="150606824"/>
    <nd ref="150606825"/>
    <nd ref="151139594"/>
    <nd ref="150606826"/>
    <nd ref="1252287218"/>
    <nd ref="190250327"/>
    <nd ref="190246202"/>
    <nd ref="150606827"/>
    <nd ref="150606828"/>
    <nd ref="229748448"/>
    <tag k="highway" v="primary"/>
    <tag k="int_ref" v="E 261"/>
    <tag k="name" v="Jana Pawła II"/>
    <tag k="oneway" v="yes"/>
    <tag k="ref" v="5"/>
    <tag k="wikipedia" v="pl:Ulica Jana Pawła II w Poznaniu"/>
  </way>
  <way id="31635211" version="6" timestamp="2011-09-09T20:03:49Z" uid="91056" user="Yarl" changeset="9257442">
    <nd ref="147041449"/>
    <nd ref="150606820"/>
    <nd ref="150606821"/>
    <nd ref="150606823"/>
    <nd ref="150606824"/>
    <nd ref="150606825"/>
    <nd ref="151139594"/>
    <nd ref="150606826"/>
    <nd ref="190250327"/>
    <nd ref="190246202"/>
    <nd ref="150606827"/>
    <nd ref="150606828"/>
    <nd ref="229748448"/>
    <tag k="highway" v="primary"/>
    <tag k="int_ref" v="E 261"/>
    <tag k="name" v="Jana Pawła II"/>
    <tag k="oneway" v="yes"/>
    <tag k="ref" v="5"/>
    <tag k="wikipedia" v="pl:Ulica Jana Pawła II w Poznaniu"/>
  </way>
  <way id="31635211" version="7" timestamp="2012-02-26T23:53:57Z" uid="467703" user="Zbigniew Czernik" changeset="10804546">
    <nd ref="147041449"/>
    <nd ref="150606820"/>
    <nd ref="150606821"/>
    <nd ref="150606823"/>
    <nd ref="150606824"/>
    <nd ref="150606825"/>
    <nd ref="151139594"/>
    <nd ref="150606826"/>
    <nd ref="190250327"/>
    <nd ref="190246202"/>
    <nd ref="150606827"/>
    <nd ref="1649729939"/>
    <nd ref="150606828"/>
    <nd ref="229748448"/>
    <tag k="highway" v="primary"/>
    <tag k="int_ref" v="E 261"/>
    <tag k="name" v="Jana Pawła II"/>
    <tag k="oneway" v="yes"/>
    <tag k="ref" v="5"/>
    <tag k="wikipedia" v="pl:Ulica Jana Pawła II w Poznaniu"/>
  </way>
  <way id="31635238" version="5" timestamp="2010-02-13T21:46:04Z" uid="123700" user="Mala" changeset="3868745">
    <nd ref="315098278"/>
    <nd ref="150605160"/>
    <nd ref="150605161"/>
    <nd ref="150605162"/>
    <nd ref="150605164"/>
    <nd ref="150605165"/>
    <nd ref="150605166"/>
    <nd ref="150605167"/>
    <nd ref="452967669"/>
    <tag k="highway" v="primary"/>
    <tag k="int_ref" v="E 261"/>
    <tag k="lanes" v="2"/>
    <tag k="name" v="Jana Pawła II"/>
    <tag k="oneway" v="yes"/>
    <tag k="ref" v="5"/>
    <tag k="wikipedia" v="pl:Ulica Jana Pawła II w Poznaniu"/>
  </way>
  <way id="31635238" version="6" timestamp="2010-02-14T17:16:08Z" uid="123700" user="Mala" changeset="3876075">
    <nd ref="315098278"/>
    <nd ref="639130385"/>
    <nd ref="150605160"/>
    <nd ref="150605161"/>
    <nd ref="150605162"/>
    <nd ref="150605164"/>
    <nd ref="150605165"/>
    <nd ref="150605166"/>
    <nd ref="150605167"/>
    <nd ref="452967669"/>
    <tag k="highway" v="primary"/>
    <tag k="int_ref" v="E 261"/>
    <tag k="lanes" v="2"/>
    <tag k="name" v="Jana Pawła II"/>
    <tag k="oneway" v="yes"/>
    <tag k="ref" v="5"/>
    <tag k="wikipedia" v="pl:Ulica Jana Pawła II w Poznaniu"/>
  </way>
  <way id="31635238" version="7" timestamp="2011-09-18T12:09:40Z" uid="91056" user="Yarl" changeset="9332192"/>
  <way id="31635618" version="6" timestamp="2010-03-16T22:09:43Z" uid="163746" user="anti_bot-nonsense" changeset="4147472">
    <nd ref="359523608"/>
    <nd ref="359523609"/>
    <nd ref="359523443"/>
    <nd ref="359523450"/>
    <nd ref="359523452"/>
    <nd ref="359523422"/>
    <tag k="highway" v="residential"/>
    <tag k="name" v="Gorzysława"/>
  </way>
  <way id="31635618" version="7" timestamp="2010-11-10T20:34:23Z" uid="19417" user="xjr" changeset="6339292">
    <nd ref="984673333"/>
    <nd ref="359523608"/>
    <nd ref="359523609"/>
    <nd ref="359523443"/>
    <nd ref="359523450"/>
    <nd ref="359523452"/>
    <nd ref="359523422"/>
    <tag k="highway" v="residential"/>
    <tag k="name" v="Gorzysława"/>
  </way>
</osm>
