<?xml version='1.0' encoding='UTF-8'?>
<osm version="0.6" generator="libosmium/2.20.0">
  <way id="31632192" version="2" timestamp="2009-08-24T22:05:32Z" uid="36809" user="pfoten_weg_!_" changeset="2250603">
    <nd ref="353882828"/>
    <nd ref="353882847"/>
    <nd ref="353882830"/>
    <tag k="highway" v="residential"/>
    <tag k="name" v="Am Bahndamm"/>
    <tag k="nore:de" v="Warnung"/>
    <tag k="note" v="FIXME: stub, incomplete"/>
  </way>
  <way id="31632192" version="3" timestamp="2009-08-24T22:34:15Z" uid="36809" user="pfoten_weg_!_" changeset="2250754">
    <nd ref="353882828"/>
    <nd ref="353882847"/>
    <nd ref="353882830"/>
    <tag k="highway" v="residential"/>
    <tag k="name" v="Am Bahndamm"/>
    <tag k="note" v="FIXME: stub, incomplete"/>
  </way>
  <way id="31632192" version="4" timestamp="2009-08-24T22:49:52Z" uid="36809" user="pfoten_weg_!_" changeset="2250819">
    <nd ref="353882828"/>
    <nd ref="353882847"/>
    <nd ref="353882830"/>
    <tag k="discovered_by" v="RambaZamba"/>
    <tag k="highway" v="residential"/>
    <tag k="name" v="Am Bahndamm"/>
    <tag k="note" v="FIXME: stub, incomplete"/>
  </way>
  <way id="31632192" version="5" timestamp="2009-08-28T20:06:20Z" uid="156995" user="HampelZamba" changeset="2294580">
    <nd ref="353882828"/>
    <nd ref="353882847"/>
    <nd ref="353882830"/>
    <tag k="highway" v="residential"/>
    <tag k="name" v="Am Bahndamm"/>
    <tag k="note" v="FIXME: stub, incomplete"/>
  </way>
  <way id="31632192" version="6" timestamp="2009-08-29T14:54:10Z" uid="36809" user="pfoten_weg_!_" changeset="2302467">
    <nd ref="353882828"/>
    <nd ref="353882847"/>
    <nd ref="353882830"/>
    <tag k="highway" v="residential"/>
    <tag k="name" v="Am Bahndamm"/>
    <tag k="note" v="FIXME: stub, incomplete"/>
  </way>
  <way id="31632192" version="7" timestamp="2010-10-10T10:08:56Z" uid="6808" user="wwwFrank" changeset="6000328">
    <nd ref="353882828"/>
    <nd ref="353882847"/>
    <nd ref="353882830"/>
    <tag k="highway" v="residential"/>
    <tag k="name" v="Am Bahndamm"/>
    <tag k="note" v="FIXME: stub, incomplete"/>
  </way>
  <way id="31632193" version="2" timestamp="2009-08-24T22:05:18Z" uid="36809" user="pfoten_weg_!_" changeset="2250603">
    <nd ref="353882833"/>
    <nd ref="286712976"/>
    <tag k="highway" v="footway"/>
    <tag k="name" v="15a"/>
    <tag k="nore:de" v="Warnung"/>
  </way>
  <way id="31632193" version="3" timestamp="2009-08-24T22:34:05Z" uid="36809" user="pfoten_weg_!_" changeset="2250754">
    <nd ref="353882833"/>
    <nd ref="286712976"/>
    <tag k="highway" v="footway"/>
    <tag k="name" v="15a"/>
  </way>
  <way id="31632193" version="4" timestamp="2009-08-24T22:49:26Z" uid="36809" user="pfoten_weg_!_" changeset="2250819">
    <nd ref="353882833"/>
    <nd ref="286712976"/>
    <tag k="discovered_by" v="RambaZamba"/>
    <tag k="highway" v="footway"/>
    <tag k="name" v="15a"/>
  </way>
  <way id="31632193" version="5" timestamp="2009-08-28T20:06:20Z" uid="156995" user="HampelZamba" changeset="2294580">
    <nd ref="353882833"/>
    <nd ref="286712976"/>
    <tag k="highway" v="footway"/>
    <tag k="name" v="15a"/>
  </way>
  <way id="31632193" version="6" timestamp="2009-08-29T14:56:14Z" uid="36809" user="pfoten_weg_!_" changeset="2302467">
    <nd ref="353882833"/>
    <nd ref="286712976"/>
    <tag k="highway" v="footway"/>
    <tag k="name" v="15a"/>
  </way>
  <way id="31632193" version="7" timestamp="2010-06-13T19:53:15Z" uid="2680" user="xylome" changeset="4982323">
    <nd ref="353882833"/>
    <nd ref="286712976"/>
    <tag k="highway" v="footway"/>
    <tag k="ref" v="15a"/>
  </way>
  <way id="31632193" version="8" timestamp="2010-06-13T20:06:13Z" uid="2680" user="xylome" changeset="4982323">
    <nd ref="353882833"/>
    <nd ref="286712976"/>
    <tag k="highway" v="footway"/>
    <tag k="ref" v="15a"/>
  </way>
  <way id="31632193" version="9" timestamp="2010-06-13T20:09:48Z" uid="2680" user="xylome" changeset="4982323">
    <nd ref="353882833"/>
    <nd ref="286712976"/>
    <tag k="highway" v="footway"/>
    <tag k="ref" v="15a"/>
  </way>
  <way id="31632193" version="10" timestamp="2010-06-13T20:13:55Z" uid="2680" user="xylome" changeset="4982323">
    <nd ref="353882833"/>
    <nd ref="286712976"/>
    <tag k="highway" v="footway"/>
    <tag k="ref" v="15a"/>
  </way>
  <way id="31632195" version="2" timestamp="2009-08-18T13:57:40Z" uid="36099" user="olli_g" changeset="2190311">
    <nd ref="286712975"/>
    <nd ref="353882833"/>
    <tag k="highway" v="steps"/>
  </way>
  <way id="31632195" version="3" timestamp="2009-08-24T22:44:31Z" uid="36809" user="pfoten_weg_!_" changeset="2250819">
    <nd ref="286712975"/>
    <nd ref="353882833"/>
    <tag k="discovered_by" v="RambaZamba"/>
    <tag k="highway" v="steps"/>
  </way>
  <way id="31632195" version="4" timestamp="2009-08-28T20:06:20Z" uid="156995" user="HampelZamba" changeset="2294580">
    <nd ref="286712975"/>
    <nd ref="353882833"/>
    <tag k="highway" v="steps"/>
  </way>
  <way id="31632195" version="5" timestamp="2009-08-29T14:56:49Z" uid="36809" user="pfoten_weg_!_" changeset="2302467">
    <nd ref="286712975"/>
    <nd ref="353882833"/>
    <tag k="highway" v="steps"/>
  </way>
  <way id="31632195" version="6" timestamp="2010-10-10T10:09:22Z" uid="6808" user="wwwFrank" changeset="6000328">
    <nd ref="286712975"/>
    <nd ref="353882833"/>
    <tag k="highway" v="steps"/>
  </way>
  <way id="31632196" version="3" timestamp="2009-08-24T22:02:00Z" uid="36809" user="pfoten_weg_!_" changeset="2250603">
    <nd ref="353882830"/>
    <nd ref="31406303"/>
    <nd ref="353882854"/>
    <tag k="highway" v="tertiary"/>
    <tag k="maxspeed" v="80"/>
    <tag k="name" v="Seestraße"/>
    <tag k="nore:de" v="Warnung"/>
    <tag k="ref" v="K 25"/>
  </way>
  <way id="31632196" version="4" timestamp="2009-08-24T22:32:05Z" uid="36809" user="pfoten_weg_!_" changeset="2250754">
    <nd ref="353882830"/>
    <nd ref="31406303"/>
    <nd ref="353882854"/>
    <tag k="highway" v="tertiary"/>
    <tag k="maxspeed" v="80"/>
    <tag k="name" v="Seestraße"/>
    <tag k="ref" v="K 25"/>
  </way>
  <way id="31632196" version="5" timestamp="2009-08-24T22:45:52Z" uid="36809" user="pfoten_weg_!_" changeset="2250819">
    <nd ref="353882830"/>
    <nd ref="31406303"/>
    <nd ref="353882854"/>
    <tag k="discovered_by" v="RambaZamba"/>
    <tag k="highway" v="tertiary"/>
    <tag k="maxspeed" v="80"/>
    <tag k="name" v="Seestraße"/>
    <tag k="ref" v="K 25"/>
  </way>
  <way id="31632196" version="6" timestamp="2009-08-28T20:06:20Z" uid="156995" user="HampelZamba" changeset="2294580">
    <nd ref="353882830"/>
    <nd ref="31406303"/>
    <nd ref="353882854"/>
    <tag k="highway" v="tertiary"/>
    <tag k="maxspeed" v="80"/>
    <tag k="name" v="Seestraße"/>
    <tag k="ref" v="K 25"/>
  </way>
  <way id="31632196" version="7" timestamp="2009-08-29T14:53:41Z" uid="36809" user="pfoten_weg_!_" changeset="2302467">
    <nd ref="353882830"/>
    <nd ref="31406303"/>
    <nd ref="353882854"/>
    <tag k="highway" v="tertiary"/>
    <tag k="maxspeed" v="80"/>
    <tag k="name" v="Seestraße"/>
    <tag k="ref" v="K 25"/>
  </way>
  <way id="31632196" version="8" timestamp="2010-10-10T10:08:00Z" uid="6808" user="wwwFrank" changeset="6000328">
    <nd ref="353882830"/>
    <nd ref="31406303"/>
    <nd ref="353882854"/>
    <tag k="highway" v="tertiary"/>
    <tag k="maxspeed" v="80"/>
    <tag k="name" v="Seestraße"/>
    <tag k="ref" v="K 25"/>
  </way>
  <way id="31632196" version="9" timestamp="2011-06-03T09:01:25Z" uid="40595" user="friesede" changeset="8327300">
    <nd ref="353882830"/>
    <nd ref="1309954882"/>
    <nd ref="31406303"/>
    <nd ref="353882854"/>
    <tag k="highway" v="tertiary"/>
    <tag k="maxspeed" v="80"/>
    <tag k="name" v="Seestraße"/>
    <tag k="ref" v="K 25"/>
  </way>
  <way id="31632198" version="2" timestamp="2009-08-24T22:03:31Z" uid="36809" user="pfoten_weg_!_" changeset="2250603">
    <nd ref="353882835"/>
    <nd ref="353882837"/>
    <nd ref="353882840"/>
    <nd ref="353882841"/>
    <nd ref="353882843"/>
    <nd ref="353882846"/>
    <nd ref="353882849"/>
    <nd ref="353882835"/>
    <tag k="amenity" v="parking"/>
    <tag k="nore:de" v="Warnung"/>
  </way>
  <way id="31632198" version="3" timestamp="2009-08-24T22:33:07Z" uid="36809" user="pfoten_weg_!_" changeset="2250754">
    <nd ref="353882835"/>
    <nd ref="353882837"/>
    <nd ref="353882840"/>
    <nd ref="353882841"/>
    <nd ref="353882843"/>
    <nd ref="353882846"/>
    <nd ref="353882849"/>
    <nd ref="353882835"/>
    <tag k="amenity" v="parking"/>
  </way>
  <way id="31632198" version="4" timestamp="2009-12-09T21:28:07Z" uid="76587" user="circusfreunde" changeset="3337206">
    <nd ref="353882835"/>
    <nd ref="353882837"/>
    <nd ref="583963832"/>
    <nd ref="353882840"/>
    <nd ref="353882841"/>
    <nd ref="353882843"/>
    <nd ref="353882846"/>
    <nd ref="353882849"/>
    <nd ref="353882835"/>
    <tag k="amenity" v="parking"/>
  </way>
  <way id="31632200" version="2" timestamp="2009-08-24T22:04:33Z" uid="36809" user="pfoten_weg_!_" changeset="2250603">
    <nd ref="353882847"/>
    <nd ref="353882849"/>
    <tag k="highway" v="service"/>
    <tag k="nore:de" v="Warnung"/>
  </way>
  <way id="31632200" version="3" timestamp="2009-08-24T22:33:38Z" uid="36809" user="pfoten_weg_!_" changeset="2250754">
    <nd ref="353882847"/>
    <nd ref="353882849"/>
    <tag k="highway" v="service"/>
  </way>
  <way id="31632200" version="4" timestamp="2009-08-24T22:48:13Z" uid="36809" user="pfoten_weg_!_" changeset="2250819">
    <nd ref="353882847"/>
    <nd ref="353882849"/>
    <tag k="discovered_by" v="RambaZamba"/>
    <tag k="highway" v="service"/>
  </way>
  <way id="31632200" version="5" timestamp="2009-08-28T20:06:20Z" uid="156995" user="HampelZamba" changeset="2294580">
    <nd ref="353882847"/>
    <nd ref="353882849"/>
    <tag k="highway" v="service"/>
  </way>
  <way id="31632200" version="6" timestamp="2009-08-29T14:57:23Z" uid="36809" user="pfoten_weg_!_" changeset="2302467">
    <nd ref="353882847"/>
    <nd ref="353882849"/>
    <tag k="highway" v="service"/>
  </way>
  <way id="31632200" version="7" timestamp="2010-10-10T10:09:35Z" uid="6808" user="wwwFrank" changeset="6000328">
    <nd ref="353882847"/>
    <nd ref="353882849"/>
    <tag k="highway" v="service"/>
  </way>
  <way id="31632202" version="3" timestamp="2009-08-24T22:05:07Z" uid="36809" user="pfoten_weg_!_" changeset="2250603">
    <nd ref="305235898"/>
    <nd ref="353882854"/>
    <tag k="highway" v="steps"/>
    <tag k="name" v="Übergang 15b"/>
    <tag k="nore:de" v="Warnung"/>
  </way>
  <way id="31632202" version="4" timestamp="2009-08-24T22:33:58Z" uid="36809" user="pfoten_weg_!_" changeset="2250754">
    <nd ref="305235898"/>
    <nd ref="353882854"/>
    <tag k="highway" v="steps"/>
    <tag k="name" v="Übergang 15b"/>
  </way>
  <way id="31632202" version="5" timestamp="2009-08-24T22:49:10Z" uid="36809" user="pfoten_weg_!_" changeset="2250819">
    <nd ref="305235898"/>
    <nd ref="353882854"/>
    <tag k="discovered_by" v="RambaZamba"/>
    <tag k="highway" v="steps"/>
    <tag k="name" v="Übergang 15b"/>
  </way>
  <way id="31632202" version="6" timestamp="2009-08-28T20:06:20Z" uid="156995" user="HampelZamba" changeset="2294580">
    <nd ref="305235898"/>
    <nd ref="353882854"/>
    <tag k="highway" v="steps"/>
    <tag k="name" v="Übergang 15b"/>
  </way>
  <way id="31632202" version="7" timestamp="2009-08-29T14:54:59Z" uid="36809" user="pfoten_weg_!_" changeset="2302467">
    <nd ref="305235898"/>
    <nd ref="353882854"/>
    <tag k="highway" v="steps"/>
    <tag k="name" v="Übergang 15b"/>
  </way>
  <way id="31632202" version="8" timestamp="2010-10-10T10:07:47Z" uid="6808" user="wwwFrank" changeset="6000328">
    <nd ref="305235898"/>
    <nd ref="353882854"/>
    <tag k="highway" v="steps"/>
    <tag k="name" v="Übergang 15b"/>
  </way>
  <way id="31632203" version="2" timestamp="2009-08-24T21:59:52Z" uid="36809" user="pfoten_weg_!_" changeset="2250603">
    <nd ref="353882855"/>
    <nd ref="353882857"/>
    <tag k="highway" v="footway"/>
    <tag k="nore:de" v="Warnung"/>
  </way>
  <way id="31632203" version="3" timestamp="2009-08-24T22:30:40Z" uid="36809" user="pfoten_weg_!_" changeset="2250754">
    <nd ref="353882855"/>
    <nd ref="353882857"/>
    <tag k="highway" v="footway"/>
  </way>
  <way id="31632203" version="4" timestamp="2009-08-24T22:43:14Z" uid="36809" user="pfoten_weg_!_" changeset="2250819">
    <nd ref="353882855"/>
    <nd ref="353882857"/>
    <tag k="discovered_by" v="RambaZamba"/>
    <tag k="highway" v="footway"/>
  </way>
  <way id="31632203" version="5" timestamp="2009-08-28T20:06:20Z" uid="156995" user="HampelZamba" changeset="2294580">
    <nd ref="353882855"/>
    <nd ref="353882857"/>
    <tag k="highway" v="footway"/>
  </way>
  <way id="31632203" version="6" timestamp="2009-08-29T14:54:45Z" uid="36809" user="pfoten_weg_!_" changeset="2302467">
    <nd ref="353882855"/>
    <nd ref="353882857"/>
    <tag k="highway" v="footway"/>
  </way>
  <way id="31632203" version="7" timestamp="2010-06-25T13:57:40Z" uid="125086" user="Agenor" changeset="5073960">
    <nd ref="353882855"/>
    <nd ref="353882857"/>
    <tag k="highway" v="footway"/>
    <tag k="ref" v="15b"/>
  </way>
  <way id="31632203" version="8" timestamp="2010-07-04T14:11:33Z" uid="38495" user="rainer57" changeset="5133277">
    <nd ref="353882855"/>
    <nd ref="353882857"/>
    <nd ref="800516490"/>
    <tag k="highway" v="footway"/>
    <tag k="ref" v="15b"/>
  </way>
  <way id="31632205" version="3" timestamp="2009-08-24T22:05:13Z" uid="36809" user="pfoten_weg_!_" changeset="2250603">
    <nd ref="305235898"/>
    <nd ref="353882855"/>
    <tag k="highway" v="steps"/>
    <tag k="name" v="Übergang 15b"/>
    <tag k="nore:de" v="Warnung"/>
  </way>
  <way id="31632205" version="4" timestamp="2009-08-24T22:34:03Z" uid="36809" user="pfoten_weg_!_" changeset="2250754">
    <nd ref="305235898"/>
    <nd ref="353882855"/>
    <tag k="highway" v="steps"/>
    <tag k="name" v="Übergang 15b"/>
  </way>
  <way id="31632205" version="5" timestamp="2009-08-24T22:49:19Z" uid="36809" user="pfoten_weg_!_" changeset="2250819">
    <nd ref="305235898"/>
    <nd ref="353882855"/>
    <tag k="discovered_by" v="RambaZamba"/>
    <tag k="highway" v="steps"/>
    <tag k="name" v="Übergang 15b"/>
  </way>
  <way id="31632205" version="6" timestamp="2009-08-28T20:06:20Z" uid="156995" user="HampelZamba" changeset="2294580">
    <nd ref="305235898"/>
    <nd ref="353882855"/>
    <tag k="highway" v="steps"/>
    <tag k="name" v="Übergang 15b"/>
  </way>
  <way id="31632205" version="7" timestamp="2009-08-29T14:55:05Z" uid="36809" user="pfoten_weg_!_" changeset="2302467">
    <nd ref="305235898"/>
    <nd ref="353882855"/>
    <tag k="highway" v="steps"/>
    <tag k="name" v="Übergang 15b"/>
  </way>
  <way id="31632205" version="8" timestamp="2010-10-10T10:08:09Z" uid="6808" user="wwwFrank" changeset="6000328">
    <nd ref="305235898"/>
    <nd ref="353882855"/>
    <tag k="highway" v="steps"/>
    <tag k="name" v="Übergang 15b"/>
  </way>
  <way id="31632658" version="1" timestamp="2009-02-28T17:30:47Z" uid="65847" user="LKK" changeset="696396">
    <nd ref="353881819"/>
    <nd ref="353884722"/>
    <nd ref="353884723"/>
    <nd ref="353884725"/>
    <tag k="created_by" v="Potlatch 0.10f"/>
    <tag k="highway" v="residential"/>
  </way>
  <way id="31632658" version="2" timestamp="2012-03-30T13:49:27Z" uid="544370" user="atari_matari" changeset="11154342">
    <nd ref="353881819"/>
    <nd ref="353884722"/>
    <nd ref="353884723"/>
    <nd ref="353884725"/>
    <tag k="highway" v="residential"/>
  </way>
  <way id="31632658" version="3" timestamp="2012-03-30T14:10:28Z" uid="544370" user="atari_matari" changeset="11154736"/>
  <way id="31632697" version="1" timestamp="2009-02-28T17:31:07Z" uid="65847" user="LKK" changeset="696396">
    <nd ref="353884725"/>
    <nd ref="353884953"/>
    <nd ref="353884958"/>
    <nd ref="353884960"/>
    <nd ref="353884961"/>
    <tag k="created_by" v="Potlatch 0.10f"/>
    <tag k="highway" v="residential"/>
  </way>
  <way id="31632697" version="2" timestamp="2011-11-07T20:55:10Z" uid="44140" user="cassini83" changeset="9768757">
    <nd ref="353884725"/>
    <nd ref="353884953"/>
    <nd ref="1494553391"/>
    <nd ref="353884958"/>
    <nd ref="353884960"/>
    <nd ref="353884961"/>
    <tag k="highway" v="residential"/>
  </way>
  <way id="31632697" version="3" timestamp="2012-03-30T14:10:29Z" uid="544370" user="atari_matari" changeset="11154736"/>
  <way id="31632732" version="1" timestamp="2009-02-28T17:31:29Z" uid="65847" user="LKK" changeset="696396">
    <nd ref="353885172"/>
    <nd ref="353885174"/>
    <nd ref="353885176"/>
    <nd ref="353885179"/>
    <nd ref="353885181"/>
    <nd ref="353881820"/>
    <nd ref="353885183"/>
    <nd ref="353885187"/>
    <nd ref="353885188"/>
    <nd ref="353884961"/>
    <nd ref="353885190"/>
    <nd ref="353885191"/>
    <nd ref="353885172"/>
    <tag k="created_by" v="Potlatch 0.10f"/>
    <tag k="highway" v="tertiary"/>
  </way>
  <way id="31632732" version="2" timestamp="2009-02-28T19:58:34Z" uid="65847" user="LKK" changeset="702894">
    <nd ref="353885174"/>
    <nd ref="353956227"/>
    <nd ref="353885176"/>
    <nd ref="353885179"/>
    <nd ref="353885181"/>
    <nd ref="353881820"/>
    <nd ref="353885183"/>
    <nd ref="353885187"/>
    <nd ref="353885188"/>
    <nd ref="353884961"/>
    <nd ref="353885190"/>
    <nd ref="353956223"/>
    <nd ref="353885191"/>
    <nd ref="353956214"/>
    <nd ref="353885174"/>
    <tag k="created_by" v="Potlatch 0.10f"/>
    <tag k="highway" v="tertiary"/>
  </way>
  <way id="31632732" version="3" timestamp="2012-03-30T13:47:50Z" uid="544370" user="atari_matari" changeset="11154342">
    <nd ref="353885174"/>
    <nd ref="353956227"/>
    <nd ref="353885176"/>
    <nd ref="353885179"/>
    <nd ref="353885181"/>
    <nd ref="353881820"/>
    <nd ref="353885183"/>
    <nd ref="353885187"/>
    <nd ref="353885188"/>
    <nd ref="353884961"/>
    <nd ref="353885190"/>
    <nd ref="353956223"/>
    <nd ref="353885191"/>
    <nd ref="353956214"/>
    <nd ref="353885174"/>
    <tag k="highway" v="tertiary"/>
  </way>
  <way id="31632732" version="4" timestamp="2012-03-30T14:10:31Z" uid="544370" user="atari_matari" changeset="11154736"/>
  <way id="31632748" version="1" timestamp="2009-02-28T17:31:37Z" uid="65847" user="LKK" changeset="696396">
    <nd ref="353884953"/>
    <nd ref="353884722"/>
    <tag k="created_by" v="Potlatch 0.10f"/>
    <tag k="highway" v="residential"/>
  </way>
  <way id="31632748" version="2" timestamp="2012-03-30T13:48:02Z" uid="544370" user="atari_matari" changeset="11154342">
    <nd ref="353884953"/>
    <nd ref="353884722"/>
    <tag k="highway" v="residential"/>
  </way>
  <way id="31632748" version="3" timestamp="2012-03-30T14:10:26Z" uid="544370" user="atari_matari" changeset="11154736"/>
</osm>
