<?xml version='1.0' encoding='UTF-8'?>
<osm version="0.6" generator="libosmium/2.20.0">
  <way id="31696246" version="2" timestamp="2009-06-15T16:16:25Z" uid="23543" user="jkjk" changeset="1526435">
    <nd ref="25685125"/>
    <nd ref="354688204"/>
    <nd ref="354688201"/>
    <nd ref="354688203"/>
    <tag k="highway" v="residential"/>
    <tag k="name" v="Novomlýnská"/>
  </way>
  <way id="31696246" version="3" timestamp="2011-01-14T06:34:17Z" uid="3516" user="BiIbo" changeset="6964313">
    <nd ref="354688204"/>
    <nd ref="25685125"/>
    <tag k="highway" v="residential"/>
    <tag k="name" v="Novomlýnská"/>
    <tag k="oneway" v="yes"/>
  </way>
  <way id="31696246" version="4" timestamp="2011-03-01T01:00:12Z" uid="42429" user="FK270673" changeset="7426117">
    <nd ref="354688204"/>
    <nd ref="25685125"/>
    <tag k="highway" v="residential"/>
    <tag k="name" v="Novomlýnská"/>
    <tag k="name:de" v="Neumühlgasse"/>
    <tag k="oneway" v="yes"/>
  </way>
  <way id="31696247" version="2" timestamp="2009-06-15T16:16:25Z" uid="23543" user="jkjk" changeset="1526435">
    <nd ref="354688204"/>
    <nd ref="354688206"/>
    <tag k="highway" v="residential"/>
    <tag k="name" v="Novomlýnská"/>
  </way>
  <way id="31696247" version="3" timestamp="2009-11-13T12:22:07Z" uid="83683" user="psx" changeset="3105403">
    <nd ref="354688206"/>
    <nd ref="354688204"/>
    <tag k="highway" v="residential"/>
    <tag k="name" v="Novomlýnská"/>
    <tag k="oneway" v="yes"/>
  </way>
  <way id="31696247" version="4" timestamp="2011-03-01T01:00:00Z" uid="42429" user="FK270673" changeset="7426117">
    <nd ref="354688206"/>
    <nd ref="354688204"/>
    <tag k="highway" v="residential"/>
    <tag k="name" v="Novomlýnská"/>
    <tag k="name:de" v="Neumühlgasse"/>
    <tag k="oneway" v="yes"/>
  </way>
  <way id="31696345" version="3" timestamp="2009-06-01T16:18:36Z" uid="23543" user="jkjk" changeset="1387547">
    <nd ref="354689320"/>
    <nd ref="354689321"/>
    <nd ref="414108203"/>
    <nd ref="354689322"/>
    <nd ref="354689323"/>
    <nd ref="354689324"/>
    <nd ref="354689325"/>
    <nd ref="354689326"/>
    <nd ref="354689327"/>
    <nd ref="354689328"/>
    <nd ref="354689329"/>
    <nd ref="354689330"/>
    <nd ref="354689331"/>
    <nd ref="414108196"/>
    <nd ref="354689320"/>
    <tag k="amenity" v="place_of_worship"/>
    <tag k="building" v="yes"/>
    <tag k="name" v="svatý Josef"/>
    <tag k="religion" v="christian"/>
    <tag k="source" v="cuzk:km"/>
  </way>
  <way id="31696345" version="4" timestamp="2009-06-13T19:27:50Z" uid="3516" user="BiIbo" changeset="1507963">
    <nd ref="354689320"/>
    <nd ref="354689321"/>
    <nd ref="414108259"/>
    <nd ref="414108243"/>
    <nd ref="354689323"/>
    <nd ref="354689324"/>
    <nd ref="354689325"/>
    <nd ref="354689326"/>
    <nd ref="354689327"/>
    <nd ref="354689328"/>
    <nd ref="354689329"/>
    <nd ref="354689330"/>
    <nd ref="354689331"/>
    <nd ref="414108196"/>
    <nd ref="354689320"/>
    <tag k="amenity" v="place_of_worship"/>
    <tag k="building" v="yes"/>
    <tag k="name" v="svatý Josef"/>
    <tag k="religion" v="christian"/>
    <tag k="source" v="cuzk:km"/>
  </way>
  <way id="31696410" version="1" timestamp="2009-03-01T22:22:27Z" uid="103064" user="ABS2006" changeset="720892">
    <nd ref="354530228"/>
    <nd ref="354689671"/>
    <nd ref="354689673"/>
    <nd ref="354689796"/>
    <nd ref="354689809"/>
    <nd ref="354689817"/>
    <nd ref="354689839"/>
    <nd ref="354689840"/>
    <nd ref="354689857"/>
    <nd ref="354689858"/>
    <nd ref="354689862"/>
    <nd ref="354689874"/>
    <nd ref="354530284"/>
    <tag k="admin_level" v="10"/>
    <tag k="attribution" v="Based on Australian Bureau of Statistics data"/>
    <tag k="boundary" v="administrative"/>
    <tag k="source" v="ABS_2006"/>
  </way>
  <way id="31696410" version="2" timestamp="2012-02-03T11:52:59Z" uid="147510" user="woodpeck_fixbot" changeset="10575457">
    <nd ref="354689671"/>
    <nd ref="354689673"/>
    <nd ref="354689796"/>
    <nd ref="354689809"/>
    <nd ref="354689817"/>
    <nd ref="354689839"/>
    <nd ref="354689840"/>
    <nd ref="354689857"/>
    <nd ref="354689858"/>
    <nd ref="354689862"/>
    <nd ref="354689874"/>
    <nd ref="354530284"/>
    <tag k="admin_level" v="10"/>
    <tag k="attribution" v="Based on Australian Bureau of Statistics data"/>
    <tag k="boundary" v="administrative"/>
    <tag k="source" v="ABS_2006"/>
  </way>
  <way id="31696410" version="3" timestamp="2012-02-03T11:56:06Z" uid="147510" user="woodpeck_fixbot" changeset="10575457"/>
  <way id="31696413" version="1" timestamp="2009-03-01T22:22:44Z" uid="103064" user="ABS2006" changeset="720892">
    <nd ref="354689923"/>
    <nd ref="354689984"/>
    <tag k="admin_level" v="10"/>
    <tag k="attribution" v="Based on Australian Bureau of Statistics data"/>
    <tag k="boundary" v="administrative"/>
    <tag k="source" v="ABS_2006"/>
  </way>
  <way id="31696413" version="2" timestamp="2012-02-03T11:56:43Z" uid="147510" user="woodpeck_fixbot" changeset="10575457"/>
  <way id="31696563" version="4" timestamp="2010-06-29T20:49:59Z" uid="74617" user="JohnSmith" changeset="5109183">
    <nd ref="354691047"/>
    <nd ref="354691048"/>
    <nd ref="354691049"/>
    <nd ref="354691050"/>
    <nd ref="354691047"/>
    <tag k="fixme" v="sport=rugby is ambiguous, see http://wiki.osm.org/wiki/Tag:sport%3Drugby for more details"/>
    <tag k="leisure" v="stadium"/>
    <tag k="name" v="Leigh Centurions / Genesis"/>
    <tag k="sport" v="rugby"/>
  </way>
  <way id="31696563" version="5" timestamp="2010-11-10T23:11:49Z" uid="369420" user="mattsale" changeset="6340464">
    <nd ref="354691047"/>
    <nd ref="354691048"/>
    <nd ref="354691049"/>
    <nd ref="354691050"/>
    <nd ref="354691047"/>
    <tag k="fixme" v="sport=rugby is ambiguous, see http://wiki.osm.org/wiki/Tag:sport%3Drugby for more details"/>
    <tag k="leisure" v="stadium"/>
    <tag k="name" v="Leigh Centurions / Genesis"/>
  </way>
  <way id="31696563" version="6" timestamp="2010-11-10T23:13:08Z" uid="369420" user="mattsale" changeset="6340472">
    <nd ref="354691047"/>
    <nd ref="354691048"/>
    <nd ref="354691049"/>
    <nd ref="354691050"/>
    <nd ref="354691047"/>
    <tag k="addr:street" v="Sale Way"/>
    <tag k="fixme" v="sport=rugby is ambiguous, see http://wiki.osm.org/wiki/Tag:sport%3Drugby for more details"/>
    <tag k="leisure" v="stadium"/>
    <tag k="name" v="Leigh Centurions"/>
  </way>
  <way id="31696836" version="7" timestamp="2009-12-09T21:18:12Z" uid="200463" user="harmagedon" changeset="3336909">
    <nd ref="251501692"/>
    <nd ref="251748969"/>
    <nd ref="251654643"/>
    <nd ref="251569689"/>
    <nd ref="251569690"/>
    <nd ref="251569691"/>
    <nd ref="251569692"/>
    <nd ref="251569693"/>
    <nd ref="251569694"/>
    <nd ref="251569695"/>
    <nd ref="364731817"/>
    <nd ref="364731818"/>
    <nd ref="251663196"/>
    <nd ref="251732997"/>
    <nd ref="251569697"/>
    <tag k="highway" v="track"/>
    <tag k="tracktype" v="grade3"/>
  </way>
  <way id="31696837" version="2" timestamp="2009-12-09T21:18:26Z" uid="200463" user="harmagedon" changeset="3336909">
    <nd ref="60116962"/>
    <nd ref="354693241"/>
    <tag k="highway" v="service"/>
  </way>
  <way id="31696837" version="3" timestamp="2011-06-29T19:12:31Z" uid="202384" user="Tabledevil" changeset="8583932"/>
  <way id="31696838" version="2" timestamp="2009-12-09T21:18:27Z" uid="200463" user="harmagedon" changeset="3336909">
    <nd ref="354693241"/>
    <nd ref="354693242"/>
    <nd ref="354693243"/>
    <nd ref="354693244"/>
    <nd ref="354693245"/>
    <nd ref="354693246"/>
    <nd ref="354693241"/>
    <tag k="amenity" v="parking"/>
  </way>
  <way id="31696838" version="3" timestamp="2011-06-29T19:12:31Z" uid="202384" user="Tabledevil" changeset="8583932"/>
  <way id="31696847" version="4" timestamp="2010-07-29T14:10:05Z" uid="33382" user="de_muur" changeset="5347055">
    <nd ref="354693260"/>
    <nd ref="272009015"/>
    <nd ref="354684035"/>
    <nd ref="30421515"/>
    <nd ref="354674260"/>
    <nd ref="30421516"/>
    <nd ref="354692209"/>
    <nd ref="266198084"/>
    <tag k="highway" v="tertiary"/>
    <tag k="maxspeed" v="50"/>
    <tag k="maxweight" v="40"/>
    <tag k="name" v="Landstraße"/>
    <tag k="ref" v="K 2"/>
  </way>
  <way id="31696847" version="5" timestamp="2010-07-29T14:19:31Z" uid="33382" user="de_muur" changeset="5347147">
    <nd ref="354693260"/>
    <nd ref="272009015"/>
    <nd ref="354684035"/>
    <nd ref="30421515"/>
    <nd ref="354674260"/>
    <nd ref="30421516"/>
    <nd ref="354692209"/>
    <nd ref="266198084"/>
    <tag k="highway" v="tertiary"/>
    <tag k="maxspeed" v="50"/>
    <tag k="maxweight" v="40"/>
    <tag k="name" v="Landstraße"/>
    <tag k="ref" v="K 2"/>
    <tag k="surface" v="paved"/>
  </way>
  <way id="31696847" version="6" timestamp="2011-05-15T20:24:26Z" uid="45445" user="UScha" changeset="8156593">
    <nd ref="354693260"/>
    <nd ref="272009015"/>
    <nd ref="354684035"/>
    <nd ref="30421515"/>
    <nd ref="354674260"/>
    <nd ref="1286883678"/>
    <nd ref="30421516"/>
    <nd ref="1286883684"/>
    <nd ref="1286883673"/>
    <nd ref="1286883687"/>
    <nd ref="354692209"/>
    <nd ref="266198084"/>
    <tag k="highway" v="tertiary"/>
    <tag k="maxspeed" v="50"/>
    <tag k="maxweight" v="40"/>
    <tag k="name" v="Landstraße"/>
    <tag k="ref" v="K 2"/>
    <tag k="surface" v="paved"/>
  </way>
  <way id="31696847" version="7" timestamp="2012-01-05T13:13:49Z" uid="42429" user="FK270673" changeset="10300300">
    <nd ref="354693260"/>
    <nd ref="272009015"/>
    <nd ref="354684035"/>
    <nd ref="30421515"/>
    <nd ref="354674260"/>
    <nd ref="1286883678"/>
    <nd ref="30421516"/>
    <nd ref="1286883684"/>
    <nd ref="1286883673"/>
    <nd ref="1286883687"/>
    <nd ref="266198084"/>
    <tag k="highway" v="tertiary"/>
    <tag k="maxspeed" v="50"/>
    <tag k="maxweight" v="40"/>
    <tag k="name" v="Landstraße"/>
    <tag k="ref" v="K 2"/>
    <tag k="surface" v="paved"/>
  </way>
  <way id="31696847" version="8" timestamp="2012-01-05T13:30:03Z" uid="42429" user="FK270673" changeset="10300300">
    <nd ref="354693260"/>
    <nd ref="354684035"/>
    <nd ref="30421515"/>
    <nd ref="354674260"/>
    <nd ref="1286883678"/>
    <nd ref="30421516"/>
    <nd ref="1286883684"/>
    <nd ref="1286883673"/>
    <nd ref="1286883687"/>
    <nd ref="266198084"/>
    <tag k="highway" v="tertiary"/>
    <tag k="maxspeed" v="50"/>
    <tag k="maxweight" v="40"/>
    <tag k="name" v="Landstraße"/>
    <tag k="ref" v="K 2"/>
    <tag k="surface" v="paved"/>
  </way>
  <way id="31696847" version="9" timestamp="2012-01-16T20:46:02Z" uid="58095" user="BudBundi" changeset="10411978">
    <nd ref="354693260"/>
    <nd ref="354684035"/>
    <nd ref="30421515"/>
    <nd ref="354674260"/>
    <nd ref="1286883678"/>
    <nd ref="30421516"/>
    <nd ref="1286883684"/>
    <nd ref="1286883673"/>
    <nd ref="1286883687"/>
    <nd ref="1593580081"/>
    <nd ref="266198084"/>
    <tag k="highway" v="tertiary"/>
    <tag k="maxspeed" v="50"/>
    <tag k="maxweight" v="40"/>
    <tag k="name" v="Landstraße"/>
    <tag k="ref" v="K 2"/>
    <tag k="surface" v="paved"/>
  </way>
  <way id="31696860" version="5" timestamp="2010-07-29T14:19:10Z" uid="33382" user="de_muur" changeset="5347147">
    <nd ref="354693486"/>
    <nd ref="354693473"/>
    <tag k="bridge" v="yes"/>
    <tag k="highway" v="tertiary"/>
    <tag k="layer" v="1"/>
    <tag k="maxspeed" v="50"/>
    <tag k="ref" v="K 2"/>
    <tag k="surface" v="paved"/>
  </way>
  <way id="31696877" version="2" timestamp="2009-10-09T15:58:46Z" uid="9581" user="Lobelt" changeset="2795571">
    <nd ref="36989358"/>
    <nd ref="36989360"/>
    <nd ref="527275289"/>
    <nd ref="527275290"/>
    <nd ref="36989363"/>
    <nd ref="321185847"/>
    <tag k="highway" v="motorway_link"/>
    <tag k="oneway" v="yes"/>
    <tag k="ref" v="A 9"/>
  </way>
  <way id="31696877" version="3" timestamp="2010-10-17T12:45:16Z" uid="67020" user="Nibbler" changeset="6066625">
    <nd ref="527275282"/>
    <nd ref="954565393"/>
    <nd ref="954565437"/>
    <nd ref="954565453"/>
    <nd ref="954565504"/>
    <nd ref="954565415"/>
    <nd ref="954565460"/>
    <nd ref="954565470"/>
    <nd ref="954565547"/>
    <nd ref="954565444"/>
    <nd ref="954565552"/>
    <nd ref="954565500"/>
    <nd ref="954565520"/>
    <nd ref="36989360"/>
    <nd ref="954565399"/>
    <nd ref="954565502"/>
    <nd ref="527275289"/>
    <nd ref="527275290"/>
    <nd ref="954565391"/>
    <nd ref="954565401"/>
    <nd ref="36989363"/>
    <nd ref="321185847"/>
    <tag k="highway" v="motorway_link"/>
    <tag k="lanes" v="1"/>
    <tag k="oneway" v="yes"/>
    <tag k="ref" v="A 9"/>
  </way>
  <way id="31696888" version="3" timestamp="2010-07-29T14:19:15Z" uid="33382" user="de_muur" changeset="5347147">
    <nd ref="354693609"/>
    <nd ref="354693486"/>
    <tag k="highway" v="tertiary"/>
    <tag k="maxspeed" v="50"/>
    <tag k="ref" v="K 2"/>
    <tag k="surface" v="paved"/>
  </way>
  <way id="31696889" version="4" timestamp="2010-07-29T14:19:07Z" uid="33382" user="de_muur" changeset="5347147">
    <nd ref="354693613"/>
    <nd ref="354693609"/>
    <tag k="bridge" v="yes"/>
    <tag k="highway" v="tertiary"/>
    <tag k="ref" v="K 2"/>
    <tag k="surface" v="paved"/>
  </way>
</osm>
