<?xml version='1.0' encoding='UTF-8'?>
<osm version="0.6" generator="libosmium/2.20.0">
  <way id="31825504" version="3" timestamp="2010-03-28T01:12:42Z" uid="20587" user="balrog-kun" changeset="4250871">
    <nd ref="95749264"/>
    <nd ref="95749265"/>
    <nd ref="95749266"/>
    <nd ref="95749267"/>
    <nd ref="95749268"/>
    <nd ref="95741761"/>
    <nd ref="95742390"/>
    <nd ref="95749269"/>
    <nd ref="95749270"/>
    <nd ref="95749271"/>
    <nd ref="95749272"/>
    <nd ref="95749273"/>
    <nd ref="95749274"/>
    <nd ref="95739009"/>
    <nd ref="95749275"/>
    <nd ref="95742307"/>
    <nd ref="95739175"/>
    <nd ref="95749276"/>
    <nd ref="95749277"/>
    <nd ref="95727210"/>
    <nd ref="95749278"/>
    <nd ref="95749279"/>
    <nd ref="95749280"/>
    <nd ref="95749281"/>
    <nd ref="95748874"/>
    <tag k="created_by" v="Potlatch 0.10f"/>
    <tag k="highway" v="secondary"/>
    <tag k="name" v="La Porte Road"/>
    <tag k="ref" v="E21"/>
    <tag k="tiger:cfcc" v="A41"/>
    <tag k="tiger:county" v="Yuba, CA"/>
    <tag k="tiger:name_base" v="La Porte"/>
    <tag k="tiger:name_type" v="Rd"/>
    <tag k="tiger:reviewed" v="no"/>
    <tag k="tiger:separated" v="no"/>
    <tag k="tiger:source" v="tiger_import_dch_v0.6_20070809"/>
    <tag k="tiger:tlid" v="106943252:106960903:106960898:106960915:106960916:106943149:106961395:106961396:106943191"/>
    <tag k="tiger:zip_left" v="95914"/>
    <tag k="tiger:zip_left_1" v="95972"/>
    <tag k="tiger:zip_right" v="95914"/>
  </way>
  <way id="31825519" version="5" timestamp="2010-03-28T01:12:43Z" uid="20587" user="balrog-kun" changeset="4250871">
    <nd ref="95749177"/>
    <nd ref="95749178"/>
    <nd ref="367853277"/>
    <nd ref="95749179"/>
    <nd ref="367853278"/>
    <nd ref="95749180"/>
    <nd ref="95749181"/>
    <nd ref="367853279"/>
    <nd ref="95749182"/>
    <nd ref="367853280"/>
    <nd ref="95749183"/>
    <nd ref="95749184"/>
    <nd ref="367853281"/>
    <nd ref="95737279"/>
    <nd ref="95737290"/>
    <tag k="created_by" v="Potlatch 0.10f"/>
    <tag k="highway" v="secondary"/>
    <tag k="name" v="La Porte Road"/>
    <tag k="ref" v="E21"/>
    <tag k="tiger:cfcc" v="A41"/>
    <tag k="tiger:county" v="Yuba, CA"/>
    <tag k="tiger:name_base" v="La Porte"/>
    <tag k="tiger:name_type" v="Rd"/>
    <tag k="tiger:reviewed" v="no"/>
    <tag k="tiger:separated" v="no"/>
    <tag k="tiger:source" v="tiger_import_dch_v0.6_20070809"/>
    <tag k="tiger:tlid" v="106939471:106939474:106939669:106961724:106961725"/>
  </way>
  <way id="31825791" version="3" timestamp="2011-04-04T22:37:50Z" uid="23543" user="jkjk" changeset="7770458">
    <nd ref="246533720"/>
    <nd ref="246533721"/>
    <nd ref="1233099040"/>
    <nd ref="246533722"/>
    <nd ref="246533723"/>
    <nd ref="246533724"/>
    <nd ref="246533725"/>
    <nd ref="246533726"/>
    <nd ref="246533727"/>
    <nd ref="355299792"/>
    <nd ref="988698616"/>
    <tag k="highway" v="tertiary"/>
    <tag k="name" v="Květnového povstání"/>
    <tag k="ref" v="3338"/>
    <tag k="source:ref" v="rsd_cr"/>
  </way>
  <way id="31825799" version="2" timestamp="2010-01-03T01:29:46Z" uid="16922" user="amai" changeset="3524870">
    <nd ref="356322688"/>
    <nd ref="356322689"/>
    <nd ref="356322690"/>
    <nd ref="356322691"/>
    <nd ref="356322688"/>
    <tag k="amenity" v="place_of_worship"/>
    <tag k="denomination" v="roman_catholic"/>
    <tag k="name" v="St. Laurentius"/>
    <tag k="religion" v="christian"/>
  </way>
  <way id="31825881" version="4" timestamp="2010-03-28T01:12:43Z" uid="20587" user="balrog-kun" changeset="4250871">
    <nd ref="90197607"/>
    <nd ref="652241684"/>
    <nd ref="90221391"/>
    <tag k="highway" v="secondary"/>
    <tag k="name" v="South Gulling Street"/>
    <tag k="ref" v="A15"/>
    <tag k="tiger:cfcc" v="A41"/>
    <tag k="tiger:county" v="Plumas, CA"/>
    <tag k="tiger:name_base" v="Gulling"/>
    <tag k="tiger:name_direction_prefix" v="S"/>
    <tag k="tiger:name_type" v="St"/>
    <tag k="tiger:separated" v="no"/>
    <tag k="tiger:source" v="tiger_import_dch_v0.6_20070809"/>
    <tag k="tiger:tlid" v="127224589:127226884:127226885:127209521:127209525:127209217:127209243:127209206:127209258"/>
  </way>
  <way id="31825891" version="3" timestamp="2010-03-28T01:12:43Z" uid="20587" user="balrog-kun" changeset="4250871">
    <nd ref="90245325"/>
    <nd ref="90218727"/>
    <nd ref="90240032"/>
    <nd ref="90232497"/>
    <nd ref="90221389"/>
    <tag k="highway" v="residential"/>
    <tag k="name" v="1st Avenue"/>
    <tag k="tiger:cfcc" v="A41"/>
    <tag k="tiger:county" v="Plumas, CA"/>
    <tag k="tiger:name_base" v="1st"/>
    <tag k="tiger:name_type" v="Ave"/>
    <tag k="tiger:separated" v="no"/>
    <tag k="tiger:source" v="tiger_import_dch_v0.6_20070809"/>
    <tag k="tiger:tlid" v="127209228:127209231:127230795:127209615:127209550"/>
  </way>
  <way id="31825892" version="4" timestamp="2010-03-28T01:12:44Z" uid="20587" user="balrog-kun" changeset="4250871">
    <nd ref="90233931"/>
    <nd ref="90245325"/>
    <tag k="created_by" v="Potlatch 0.10f"/>
    <tag k="highway" v="secondary"/>
    <tag k="name" v="1st Avenue"/>
    <tag k="ref" v="A15"/>
    <tag k="tiger:cfcc" v="A41"/>
    <tag k="tiger:county" v="Plumas, CA"/>
    <tag k="tiger:name_base" v="1st"/>
    <tag k="tiger:name_type" v="Ave"/>
    <tag k="tiger:reviewed" v="no"/>
    <tag k="tiger:separated" v="no"/>
    <tag k="tiger:source" v="tiger_import_dch_v0.6_20070809"/>
    <tag k="tiger:tlid" v="127209228:127209231:127230795:127209615:127209550"/>
  </way>
  <way id="31825896" version="3" timestamp="2010-03-28T01:12:44Z" uid="20587" user="balrog-kun" changeset="4250871">
    <nd ref="90245325"/>
    <nd ref="90197603"/>
    <tag k="created_by" v="Potlatch 0.10f"/>
    <tag k="highway" v="secondary"/>
    <tag k="name" v="Pacific Street"/>
    <tag k="tiger:cfcc" v="A41"/>
    <tag k="tiger:county" v="Plumas, CA"/>
    <tag k="tiger:name_base" v="Pacific"/>
    <tag k="tiger:name_type" v="St"/>
    <tag k="tiger:reviewed" v="no"/>
    <tag k="tiger:separated" v="no"/>
    <tag k="tiger:source" v="tiger_import_dch_v0.6_20070809"/>
    <tag k="tiger:tlid" v="127209238:127209262:127209247"/>
    <tag k="tiger:zip_left" v="96122"/>
    <tag k="tiger:zip_right" v="96122"/>
  </way>
  <way id="31825900" version="2" timestamp="2010-03-28T01:12:44Z" uid="20587" user="balrog-kun" changeset="4250871">
    <nd ref="90233931"/>
    <nd ref="90107515"/>
    <tag k="created_by" v="Potlatch 0.10f"/>
    <tag k="highway" v="residential"/>
    <tag k="name" v="Main Street"/>
    <tag k="tiger:cfcc" v="A41"/>
    <tag k="tiger:county" v="Plumas, CA"/>
    <tag k="tiger:name_base" v="Main"/>
    <tag k="tiger:name_type" v="St"/>
    <tag k="tiger:reviewed" v="no"/>
    <tag k="tiger:separated" v="no"/>
    <tag k="tiger:source" v="tiger_import_dch_v0.6_20070809"/>
    <tag k="tiger:tlid" v="127209344"/>
  </way>
  <way id="31825901" version="4" timestamp="2010-03-28T01:12:44Z" uid="20587" user="balrog-kun" changeset="4250871">
    <nd ref="90233929"/>
    <nd ref="652241149"/>
    <nd ref="90216869"/>
    <tag k="highway" v="secondary"/>
    <tag k="name" v="3rd Avenue"/>
    <tag k="tiger:cfcc" v="A41"/>
    <tag k="tiger:county" v="Plumas, CA"/>
    <tag k="tiger:name_base" v="3rd"/>
    <tag k="tiger:name_type" v="Ave"/>
    <tag k="tiger:reviewed" v="no"/>
    <tag k="tiger:separated" v="no"/>
    <tag k="tiger:source" v="tiger_import_dch_v0.6_20070809"/>
    <tag k="tiger:tlid" v="127209264:127209266:127209268:127209270"/>
    <tag k="tiger:zip_left" v="96122"/>
    <tag k="tiger:zip_right" v="96122"/>
  </way>
  <way id="31825903" version="5" timestamp="2010-03-28T01:12:45Z" uid="20587" user="balrog-kun" changeset="4250871">
    <nd ref="90233929"/>
    <nd ref="90218878"/>
    <nd ref="90233931"/>
    <tag k="highway" v="secondary"/>
    <tag k="name" v="Main Street"/>
    <tag k="ref" v="A15"/>
    <tag k="tiger:cfcc" v="A41"/>
    <tag k="tiger:county" v="Plumas, CA"/>
    <tag k="tiger:name_base" v="Main"/>
    <tag k="tiger:name_type" v="St"/>
    <tag k="tiger:reviewed" v="no"/>
    <tag k="tiger:separated" v="no"/>
    <tag k="tiger:source" v="tiger_import_dch_v0.6_20070809"/>
    <tag k="tiger:tlid" v="127209344"/>
  </way>
</osm>
