<?xml version='1.0' encoding='UTF-8'?>
<osm version="0.6" generator="libosmium/2.20.0">
  <way id="32146165" version="3" timestamp="2009-07-12T14:51:06Z" uid="33382" user="de_muur" changeset="1807909">
    <nd ref="26427507"/>
    <nd ref="253369989"/>
    <nd ref="253369990"/>
    <tag k="highway" v="unclassified"/>
    <tag k="maxspeed" v="30"/>
    <tag k="motorcar" v="destination"/>
    <tag k="name" v="Clüverdamm"/>
    <tag k="surface" v="paved"/>
  </way>
  <way id="32146165" version="4" timestamp="2010-01-26T20:33:12Z" uid="115883" user="Senior_Spielbergo" changeset="3723042">
    <nd ref="26427507"/>
    <nd ref="253369989"/>
    <nd ref="253369990"/>
    <tag k="highway" v="unclassified"/>
    <tag k="maxspeed" v="30"/>
    <tag k="motorcar" v="destination"/>
    <tag k="name" v="Clüverdamm"/>
    <tag k="postal_code" v="28876"/>
    <tag k="surface" v="paved"/>
  </way>
  <way id="32146182" version="5" timestamp="2010-12-19T18:22:09Z" uid="9581" user="Lobelt" changeset="6708931">
    <nd ref="1049697002"/>
    <nd ref="1049697007"/>
    <nd ref="360888738"/>
    <nd ref="360888741"/>
    <nd ref="360888746"/>
    <nd ref="360888710"/>
    <nd ref="1049697078"/>
    <nd ref="1049696948"/>
    <nd ref="1049697002"/>
    <tag k="building" v="yes"/>
  </way>
  <way id="32146182" version="6" timestamp="2011-06-09T18:00:26Z" uid="101086" user="mak68" changeset="8390677">
    <nd ref="1049697002"/>
    <nd ref="1049697007"/>
    <nd ref="360888738"/>
    <nd ref="360888741"/>
    <nd ref="360888746"/>
    <nd ref="360888710"/>
    <nd ref="1049697078"/>
    <nd ref="1049696948"/>
    <nd ref="1049697002"/>
    <tag k="amenity" v="school"/>
  </way>
  <way id="32146182" version="7" timestamp="2011-08-04T15:00:45Z" uid="475266" user="Lobelt_2" changeset="8920457">
    <nd ref="1049697002"/>
    <nd ref="1049697007"/>
    <nd ref="360888738"/>
    <nd ref="360888741"/>
    <nd ref="360888746"/>
    <nd ref="360888710"/>
    <nd ref="1049697078"/>
    <nd ref="1049696948"/>
    <nd ref="1049697002"/>
    <tag k="building" v="yes"/>
  </way>
  <way id="32146182" version="8" timestamp="2012-03-28T17:34:43Z" uid="110838" user="Bernhard W" changeset="11129300">
    <nd ref="1049697002"/>
    <nd ref="1049697007"/>
    <nd ref="360888738"/>
    <nd ref="360888741"/>
    <nd ref="360888746"/>
    <nd ref="360888710"/>
    <nd ref="1049697078"/>
    <nd ref="1049696948"/>
    <nd ref="1049697002"/>
    <tag k="building" v="yes"/>
    <tag k="odbl" v="clean"/>
  </way>
  <way id="32146182" version="9" timestamp="2012-03-30T21:11:03Z" uid="110838" user="Bernhard W" changeset="11159918">
    <nd ref="1049697002"/>
    <nd ref="1049697007"/>
    <nd ref="360888738"/>
    <nd ref="360888741"/>
    <nd ref="360888746"/>
    <nd ref="360888710"/>
    <nd ref="1049697078"/>
    <nd ref="1049696948"/>
    <nd ref="1049697002"/>
    <tag k="building" v="yes"/>
  </way>
  <way id="32146241" version="5" timestamp="2009-07-04T12:11:31Z" uid="43967" user="railsnail" changeset="1729199">
    <nd ref="360889439"/>
    <nd ref="360889535"/>
    <nd ref="360889538"/>
    <nd ref="360889540"/>
    <nd ref="360889542"/>
    <tag k="admin_level" v="10"/>
    <tag k="boundary" v="administrative"/>
    <tag k="highway" v="service"/>
  </way>
  <way id="32146241" version="6" timestamp="2010-09-09T14:16:09Z" uid="95293" user="Nightdive" changeset="5733059">
    <nd ref="360889439"/>
    <nd ref="360889535"/>
    <nd ref="360889538"/>
    <nd ref="360889540"/>
    <nd ref="360889542"/>
    <tag k="admin_level" v="10"/>
    <tag k="boundary" v="administrative"/>
    <tag k="highway" v="service"/>
  </way>
  <way id="32146241" version="7" timestamp="2012-01-22T13:47:35Z" uid="60744" user="motlib" changeset="10464796">
    <nd ref="360889439"/>
    <nd ref="1601112865"/>
    <nd ref="360889535"/>
    <nd ref="1601112869"/>
    <nd ref="1601112882"/>
    <nd ref="360889538"/>
    <nd ref="1601112890"/>
    <nd ref="1601112895"/>
    <nd ref="360889540"/>
    <nd ref="1601112899"/>
    <nd ref="360889542"/>
    <tag k="admin_level" v="10"/>
    <tag k="boundary" v="administrative"/>
    <tag k="highway" v="service"/>
  </way>
  <way id="32146589" version="6" timestamp="2010-04-02T17:30:37Z" uid="20587" user="balrog-kun" changeset="4304500">
    <nd ref="360892378"/>
    <nd ref="360891852"/>
    <nd ref="360892381"/>
    <tag k="created_by" v="Potlatch 0.10f"/>
    <tag k="foot" v="yes"/>
    <tag k="highway" v="footway"/>
    <tag k="name" v="East Edgar Street"/>
    <tag k="tiger:cfcc" v="A41"/>
    <tag k="tiger:county" v="King, WA"/>
    <tag k="tiger:name_base" v="Edgar"/>
    <tag k="tiger:name_direction_prefix" v="E"/>
    <tag k="tiger:name_type" v="St"/>
    <tag k="tiger:reviewed" v="no"/>
    <tag k="tiger:separated" v="no"/>
    <tag k="tiger:source" v="tiger_import_dch_v0.6_20070830"/>
    <tag k="tiger:tlid" v="186587074:186583580:186583591:186709123:186709124"/>
    <tag k="tiger:zip_left" v="98102"/>
    <tag k="tiger:zip_right" v="98102"/>
  </way>
  <way id="32146616" version="2" timestamp="2010-04-02T17:30:38Z" uid="20587" user="balrog-kun" changeset="4304500">
    <nd ref="53078443"/>
    <nd ref="60796554"/>
    <nd ref="53096966"/>
    <tag k="created_by" v="Potlatch 0.10f"/>
    <tag k="highway" v="residential"/>
    <tag k="name" v="East Edgar Street"/>
    <tag k="tiger:cfcc" v="A41"/>
    <tag k="tiger:county" v="King, WA"/>
    <tag k="tiger:name_base" v="Edgar"/>
    <tag k="tiger:name_direction_prefix" v="E"/>
    <tag k="tiger:name_type" v="St"/>
    <tag k="tiger:reviewed" v="no"/>
    <tag k="tiger:separated" v="no"/>
    <tag k="tiger:source" v="tiger_import_dch_v0.6_20070830"/>
    <tag k="tiger:tlid" v="186587074:186583580:186583591:186709123:186709124"/>
    <tag k="tiger:zip_left" v="98102"/>
    <tag k="tiger:zip_right" v="98102"/>
  </way>
  <way id="32146737" version="3" timestamp="2010-04-02T17:30:38Z" uid="20587" user="balrog-kun" changeset="4304500">
    <nd ref="360892660"/>
    <nd ref="360892722"/>
    <tag k="created_by" v="Potlatch 0.10f"/>
    <tag k="foot" v="yes"/>
    <tag k="highway" v="footway"/>
    <tag k="name" v="East Edgar Street"/>
    <tag k="tiger:cfcc" v="A41"/>
    <tag k="tiger:county" v="King, WA"/>
    <tag k="tiger:name_base" v="Edgar"/>
    <tag k="tiger:name_direction_prefix" v="E"/>
    <tag k="tiger:name_type" v="St"/>
    <tag k="tiger:reviewed" v="no"/>
    <tag k="tiger:separated" v="no"/>
    <tag k="tiger:source" v="tiger_import_dch_v0.6_20070830"/>
    <tag k="tiger:tlid" v="186587074:186583580:186583591:186709123:186709124"/>
    <tag k="tiger:zip_left" v="98102"/>
    <tag k="tiger:zip_right" v="98102"/>
  </way>
  <way id="32146954" version="5" timestamp="2010-12-19T18:21:56Z" uid="9581" user="Lobelt" changeset="6708931">
    <nd ref="360895420"/>
    <nd ref="360895424"/>
    <nd ref="360895425"/>
    <nd ref="360895426"/>
    <nd ref="360895428"/>
    <nd ref="360895432"/>
    <nd ref="360895433"/>
    <nd ref="360895435"/>
    <nd ref="360895436"/>
    <nd ref="360895438"/>
    <nd ref="360895439"/>
    <nd ref="360895441"/>
    <nd ref="360895442"/>
    <nd ref="360895443"/>
    <nd ref="360895448"/>
    <nd ref="1049696940"/>
    <nd ref="360895781"/>
    <nd ref="360895782"/>
    <nd ref="360895783"/>
    <nd ref="360895785"/>
    <nd ref="360895420"/>
    <tag k="building" v="yes"/>
  </way>
  <way id="32146954" version="6" timestamp="2011-05-19T18:34:50Z" uid="457271" user="dommynik" changeset="8192121">
    <nd ref="360895420"/>
    <nd ref="360895424"/>
    <nd ref="360895425"/>
    <nd ref="360895426"/>
    <nd ref="360895428"/>
    <nd ref="360895432"/>
    <nd ref="360895433"/>
    <nd ref="360895435"/>
    <nd ref="360895436"/>
    <nd ref="360895438"/>
    <nd ref="360895439"/>
    <nd ref="360895441"/>
    <nd ref="360895442"/>
    <nd ref="360895443"/>
    <nd ref="360895448"/>
    <nd ref="1049696940"/>
    <nd ref="360895781"/>
    <nd ref="360895782"/>
    <nd ref="360895783"/>
    <nd ref="360895785"/>
    <nd ref="360895420"/>
    <tag k="addr:housename" v="Hauptgebäude"/>
    <tag k="building" v="yes"/>
    <tag k="name" v="Peter-Petersen-Gymnasium Hauptgebäude"/>
  </way>
  <way id="32146954" version="7" timestamp="2011-06-09T18:00:24Z" uid="101086" user="mak68" changeset="8390677">
    <nd ref="360895420"/>
    <nd ref="360895424"/>
    <nd ref="360895425"/>
    <nd ref="360895426"/>
    <nd ref="360895428"/>
    <nd ref="360895432"/>
    <nd ref="360895433"/>
    <nd ref="360895435"/>
    <nd ref="360895436"/>
    <nd ref="360895438"/>
    <nd ref="360895439"/>
    <nd ref="360895441"/>
    <nd ref="360895442"/>
    <nd ref="360895443"/>
    <nd ref="360895448"/>
    <nd ref="1049696940"/>
    <nd ref="360895781"/>
    <nd ref="360895782"/>
    <nd ref="360895783"/>
    <nd ref="360895785"/>
    <nd ref="360895420"/>
    <tag k="addr:housename" v="Hauptgebäude"/>
    <tag k="amenity" v="school"/>
    <tag k="name" v="Peter-Petersen-Gymnasium Hauptgebäude"/>
  </way>
  <way id="32146954" version="8" timestamp="2011-07-13T19:42:47Z" uid="101086" user="mak68" changeset="8716040">
    <nd ref="360895420"/>
    <nd ref="360895424"/>
    <nd ref="360895425"/>
    <nd ref="360895426"/>
    <nd ref="360895428"/>
    <nd ref="360895432"/>
    <nd ref="360895433"/>
    <nd ref="360895435"/>
    <nd ref="360895436"/>
    <nd ref="360895438"/>
    <nd ref="360895439"/>
    <nd ref="360895441"/>
    <nd ref="360895442"/>
    <nd ref="360895443"/>
    <nd ref="360895448"/>
    <nd ref="1049696940"/>
    <nd ref="360895781"/>
    <nd ref="360895782"/>
    <nd ref="360895783"/>
    <nd ref="360895785"/>
    <nd ref="360895420"/>
    <tag k="addr:housename" v="Hauptgebäude"/>
    <tag k="addr:housenumber" v="2-4"/>
    <tag k="addr:postcode" v="68307"/>
    <tag k="addr:street" v="Lötzener Weg"/>
    <tag k="amenity" v="school"/>
    <tag k="name" v="Peter-Petersen-Gymnasium Hauptgebäude"/>
  </way>
  <way id="32146954" version="9" timestamp="2011-08-04T15:00:46Z" uid="475266" user="Lobelt_2" changeset="8920457">
    <nd ref="360895420"/>
    <nd ref="360895424"/>
    <nd ref="360895425"/>
    <nd ref="360895426"/>
    <nd ref="360895428"/>
    <nd ref="360895432"/>
    <nd ref="360895433"/>
    <nd ref="360895435"/>
    <nd ref="360895436"/>
    <nd ref="360895438"/>
    <nd ref="360895439"/>
    <nd ref="360895441"/>
    <nd ref="360895442"/>
    <nd ref="360895443"/>
    <nd ref="360895448"/>
    <nd ref="1049696940"/>
    <nd ref="360895781"/>
    <nd ref="360895782"/>
    <nd ref="360895783"/>
    <nd ref="360895785"/>
    <nd ref="360895420"/>
    <tag k="addr:housename" v="Hauptgebäude"/>
    <tag k="addr:housenumber" v="2-4"/>
    <tag k="addr:postcode" v="68307"/>
    <tag k="addr:street" v="Lötzener Weg"/>
    <tag k="building" v="yes"/>
    <tag k="name" v="Peter-Petersen-Gymnasium Hauptgebäude"/>
  </way>
  <way id="32146954" version="10" timestamp="2012-03-28T17:34:45Z" uid="110838" user="Bernhard W" changeset="11129300">
    <nd ref="360895420"/>
    <nd ref="360895424"/>
    <nd ref="360895425"/>
    <nd ref="360895426"/>
    <nd ref="360895428"/>
    <nd ref="360895432"/>
    <nd ref="360895433"/>
    <nd ref="360895435"/>
    <nd ref="360895436"/>
    <nd ref="360895438"/>
    <nd ref="360895439"/>
    <nd ref="360895441"/>
    <nd ref="360895442"/>
    <nd ref="360895443"/>
    <nd ref="360895448"/>
    <nd ref="1049696940"/>
    <nd ref="360895781"/>
    <nd ref="360895782"/>
    <nd ref="360895783"/>
    <nd ref="360895785"/>
    <nd ref="360895420"/>
    <tag k="addr:housename" v="Hauptgebäude"/>
    <tag k="addr:housenumber" v="2-4"/>
    <tag k="addr:postcode" v="68307"/>
    <tag k="addr:street" v="Lötzener Weg"/>
    <tag k="building" v="yes"/>
    <tag k="name" v="Peter-Petersen-Gymnasium Hauptgebäude"/>
    <tag k="odbl" v="clean"/>
  </way>
  <way id="32146954" version="11" timestamp="2012-03-30T20:19:09Z" uid="110838" user="Bernhard W" changeset="11159518">
    <nd ref="360895420"/>
    <nd ref="360895424"/>
    <nd ref="360895425"/>
    <nd ref="360895426"/>
    <nd ref="360895428"/>
    <nd ref="360895432"/>
    <nd ref="360895433"/>
    <nd ref="360895435"/>
    <nd ref="360895436"/>
    <nd ref="360895438"/>
    <nd ref="360895439"/>
    <nd ref="360895441"/>
    <nd ref="360895442"/>
    <nd ref="360895443"/>
    <nd ref="360895448"/>
    <nd ref="1049696940"/>
    <nd ref="360895781"/>
    <nd ref="360895782"/>
    <nd ref="360895783"/>
    <nd ref="360895785"/>
    <nd ref="360895420"/>
    <tag k="addr:housename" v="Hauptgebäude"/>
    <tag k="addr:housenumber" v="2-4"/>
    <tag k="addr:postcode" v="68307"/>
    <tag k="addr:street" v="Lötzener Weg"/>
    <tag k="building" v="yes"/>
    <tag k="name" v="Peter-Petersen-Gymnasium Hauptgebäude"/>
  </way>
</osm>
