<?xml version='1.0' encoding='UTF-8'?>
<osm version="0.6" generator="libosmium/2.20.0">
  <way id="32329404" version="6" timestamp="2011-02-06T18:06:18Z" uid="4467" user="Rosscoe" changeset="7207150">
    <nd ref="35289842"/>
    <nd ref="477076345"/>
    <nd ref="301987510"/>
    <nd ref="525268521"/>
    <nd ref="476970744"/>
    <nd ref="363999777"/>
    <nd ref="60303500"/>
    <nd ref="363999858"/>
    <tag k="highway" v="tertiary"/>
    <tag k="name" v="Sturt Street"/>
    <tag k="oneway" v="yes"/>
    <tag k="source" v="nearmap"/>
  </way>
  <way id="32329404" version="7" timestamp="2011-02-07T06:18:01Z" uid="4467" user="Rosscoe" changeset="7212788">
    <nd ref="35289842"/>
    <nd ref="477076345"/>
    <nd ref="301987510"/>
    <nd ref="525268521"/>
    <nd ref="1140362344"/>
    <nd ref="476970744"/>
    <nd ref="363999777"/>
    <nd ref="60303500"/>
    <nd ref="363999858"/>
    <tag k="highway" v="tertiary"/>
    <tag k="name" v="Sturt Street"/>
    <tag k="oneway" v="yes"/>
    <tag k="source" v="nearmap"/>
  </way>
  <way id="32329404" version="8" timestamp="2011-08-29T22:31:39Z" uid="379724" user="bugman" changeset="9162828">
    <nd ref="35289842"/>
    <nd ref="477076345"/>
    <nd ref="301987510"/>
    <nd ref="525268521"/>
    <nd ref="1140362344"/>
    <nd ref="476970744"/>
    <nd ref="363999777"/>
    <nd ref="60303500"/>
    <nd ref="363999858"/>
    <tag k="highway" v="secondary"/>
    <tag k="name" v="Sturt Street"/>
    <tag k="oneway" v="yes"/>
    <tag k="ref" v="C805"/>
    <tag k="source" v="nearmap"/>
  </way>
  <way id="32329404" version="9" timestamp="2011-08-30T22:00:23Z" uid="379724" user="bugman" changeset="9172030"/>
  <way id="32329424" version="10" timestamp="2010-03-23T11:57:16Z" uid="4467" user="Rosscoe" changeset="4211417">
    <nd ref="35289935"/>
    <nd ref="364000316"/>
    <nd ref="364000268"/>
    <nd ref="364000309"/>
    <nd ref="364000310"/>
    <nd ref="672693210"/>
    <tag k="highway" v="tertiary"/>
    <tag k="name" v="Curtis Street"/>
    <tag k="oneway" v="yes"/>
  </way>
  <way id="32329424" version="11" timestamp="2011-02-07T06:18:18Z" uid="4467" user="Rosscoe" changeset="7212788">
    <nd ref="35289935"/>
    <nd ref="364000316"/>
    <nd ref="1140362284"/>
    <nd ref="364000268"/>
    <nd ref="364000309"/>
    <nd ref="364000310"/>
    <nd ref="1140362261"/>
    <nd ref="1140362151"/>
    <tag k="highway" v="tertiary"/>
    <tag k="name" v="Curtis Street"/>
    <tag k="oneway" v="yes"/>
  </way>
  <way id="32329424" version="12" timestamp="2011-09-07T20:51:58Z" uid="379724" user="bugman" changeset="9240754">
    <nd ref="35289935"/>
    <nd ref="364000316"/>
    <nd ref="1140362284"/>
    <nd ref="364000268"/>
    <nd ref="364000309"/>
    <nd ref="1426505633"/>
    <nd ref="364000310"/>
    <nd ref="1140362261"/>
    <nd ref="1140362151"/>
    <tag k="highway" v="tertiary"/>
    <tag k="name" v="Curtis Street"/>
    <tag k="oneway" v="yes"/>
  </way>
  <way id="32329424" version="13" timestamp="2011-09-07T21:04:49Z" uid="379724" user="bugman" changeset="9240876">
    <nd ref="35289935"/>
    <nd ref="1426515024"/>
    <nd ref="364000316"/>
    <nd ref="1426515025"/>
    <nd ref="1140362284"/>
    <nd ref="364000268"/>
    <nd ref="364000309"/>
    <nd ref="1426505633"/>
    <nd ref="364000310"/>
    <nd ref="1140362261"/>
    <nd ref="1140362151"/>
    <tag k="highway" v="tertiary"/>
    <tag k="name" v="Curtis Street"/>
    <tag k="oneway" v="yes"/>
  </way>
  <way id="32329424" version="14" timestamp="2011-12-21T02:39:33Z" uid="11111" user="melb_guy" changeset="10168207">
    <nd ref="35289935"/>
    <nd ref="1556534748"/>
    <nd ref="1556534716"/>
    <nd ref="1556534846"/>
    <nd ref="1426515024"/>
    <nd ref="364000316"/>
    <nd ref="1426515025"/>
    <nd ref="1140362284"/>
    <nd ref="1556534828"/>
    <nd ref="364000268"/>
    <nd ref="364000309"/>
    <nd ref="1426505633"/>
    <nd ref="364000310"/>
    <nd ref="1140362261"/>
    <nd ref="1140362151"/>
    <tag k="highway" v="tertiary"/>
    <tag k="lanes" v="1"/>
    <tag k="maxspeed" v="50"/>
    <tag k="name" v="Curtis Street"/>
    <tag k="oneway" v="yes"/>
    <tag k="surface" v="asphalt"/>
  </way>
  <way id="32329424" version="15" timestamp="2012-02-03T20:21:45Z" uid="379724" user="bugman" changeset="10578765">
    <nd ref="35289935"/>
    <nd ref="1556534748"/>
    <nd ref="1556534716"/>
    <nd ref="1556534846"/>
    <nd ref="1426515024"/>
    <nd ref="364000316"/>
    <nd ref="1426515025"/>
    <nd ref="1140362284"/>
    <nd ref="1556534828"/>
    <nd ref="364000268"/>
    <tag k="highway" v="tertiary"/>
    <tag k="lanes" v="1"/>
    <tag k="maxspeed" v="50"/>
    <tag k="name" v="Curtis Street"/>
    <tag k="oneway" v="yes"/>
    <tag k="surface" v="asphalt"/>
  </way>
  <way id="32329424" version="16" timestamp="2012-02-18T04:25:04Z" uid="206929" user="Supt_of_Printing" changeset="10716920">
    <nd ref="35289935"/>
    <nd ref="1637357769"/>
    <nd ref="1556534748"/>
    <nd ref="1556534716"/>
    <nd ref="1556534846"/>
    <nd ref="1426515024"/>
    <nd ref="364000316"/>
    <nd ref="1426515025"/>
    <nd ref="1140362284"/>
    <nd ref="1556534828"/>
    <nd ref="364000268"/>
    <tag k="highway" v="tertiary"/>
    <tag k="lanes" v="1"/>
    <tag k="maxspeed" v="50"/>
    <tag k="name" v="Curtis Street"/>
    <tag k="oneway" v="yes"/>
    <tag k="surface" v="asphalt"/>
  </way>
  <way id="32329611" version="4" timestamp="2010-03-23T11:57:18Z" uid="4467" user="Rosscoe" changeset="4211417">
    <nd ref="364000489"/>
    <nd ref="364000288"/>
    <nd ref="364000289"/>
    <nd ref="35289939"/>
    <nd ref="35289741"/>
    <tag k="highway" v="secondary"/>
    <tag k="name" v="Princes Street North"/>
    <tag k="oneway" v="yes"/>
    <tag k="ref" v="C805"/>
  </way>
  <way id="32329611" version="5" timestamp="2011-02-07T06:18:26Z" uid="4467" user="Rosscoe" changeset="7212788">
    <nd ref="364000288"/>
    <nd ref="1140362255"/>
    <nd ref="364000289"/>
    <nd ref="35289939"/>
    <nd ref="35289741"/>
    <tag k="highway" v="secondary"/>
    <tag k="name" v="Princes Street North"/>
    <tag k="oneway" v="yes"/>
    <tag k="ref" v="C805"/>
  </way>
  <way id="32329611" version="6" timestamp="2011-10-22T11:59:00Z" uid="206929" user="Supt_of_Printing" changeset="9623293">
    <nd ref="364000288"/>
    <nd ref="1140362255"/>
    <nd ref="1476227442"/>
    <nd ref="364000289"/>
    <nd ref="35289939"/>
    <nd ref="35289741"/>
    <tag k="highway" v="secondary"/>
    <tag k="name" v="Princes Street North"/>
    <tag k="oneway" v="yes"/>
    <tag k="ref" v="C805"/>
  </way>
  <way id="32329611" version="7" timestamp="2011-12-21T02:39:35Z" uid="11111" user="melb_guy" changeset="10168207">
    <nd ref="364000288"/>
    <nd ref="1140362255"/>
    <nd ref="1476227442"/>
    <nd ref="364000289"/>
    <nd ref="35289939"/>
    <nd ref="35289741"/>
    <tag k="highway" v="secondary"/>
    <tag k="lanes" v="1"/>
    <tag k="maxspeed" v="50"/>
    <tag k="name" v="Mair Street East"/>
    <tag k="oneway" v="yes"/>
    <tag k="ref" v="C805"/>
  </way>
  <way id="32329611" version="8" timestamp="2012-02-04T13:26:40Z" uid="379724" user="bugman" changeset="10584090">
    <nd ref="364000288"/>
    <nd ref="1140362255"/>
    <nd ref="1476227442"/>
    <nd ref="364000289"/>
    <nd ref="1617706219"/>
    <nd ref="1617706223"/>
    <nd ref="35289939"/>
    <nd ref="35289741"/>
    <tag k="highway" v="secondary"/>
    <tag k="lanes" v="1"/>
    <tag k="maxspeed" v="50"/>
    <tag k="name" v="Mair Street East"/>
    <tag k="oneway" v="yes"/>
    <tag k="ref" v="C805"/>
  </way>
  <way id="32329664" version="3" timestamp="2011-02-07T06:18:37Z" uid="4467" user="Rosscoe" changeset="7212788">
    <nd ref="812301357"/>
    <nd ref="812301640"/>
    <nd ref="812301643"/>
    <nd ref="812301645"/>
    <nd ref="812301652"/>
    <nd ref="812301654"/>
    <tag k="highway" v="residential"/>
  </way>
  <way id="32329664" version="4" timestamp="2011-08-27T18:37:44Z" uid="379724" user="bugman" changeset="9140436">
    <nd ref="812301357"/>
    <nd ref="812301640"/>
    <nd ref="1415166121"/>
    <nd ref="812301643"/>
    <nd ref="812301645"/>
    <nd ref="812301652"/>
    <nd ref="812301654"/>
    <tag k="highway" v="residential"/>
  </way>
  <way id="32329664" version="5" timestamp="2011-09-07T20:59:49Z" uid="379724" user="bugman" changeset="9240822">
    <nd ref="812301357"/>
    <nd ref="812301640"/>
    <nd ref="1415166121"/>
    <nd ref="812301643"/>
    <nd ref="812301645"/>
    <nd ref="812301652"/>
    <nd ref="812301654"/>
    <tag k="highway" v="residential"/>
    <tag k="name" v="Corbett Street"/>
  </way>
  <way id="32329664" version="6" timestamp="2011-10-22T11:59:00Z" uid="206929" user="Supt_of_Printing" changeset="9623293">
    <nd ref="812301357"/>
    <nd ref="1476227383"/>
    <nd ref="812301640"/>
    <nd ref="1415166121"/>
    <nd ref="812301643"/>
    <nd ref="812301645"/>
    <nd ref="812301652"/>
    <nd ref="812301654"/>
    <tag k="highway" v="residential"/>
    <tag k="name" v="Corbett Street"/>
  </way>
  <way id="32329664" version="7" timestamp="2012-02-12T11:02:00Z" uid="379724" user="bugman" changeset="10661570">
    <nd ref="812301357"/>
    <nd ref="1476227383"/>
    <nd ref="812301640"/>
    <nd ref="1415166121"/>
    <nd ref="812301643"/>
    <nd ref="812301645"/>
    <nd ref="812301652"/>
    <nd ref="1629523520"/>
    <nd ref="812301654"/>
    <tag k="highway" v="residential"/>
    <tag k="name" v="Corbett Street"/>
  </way>
  <way id="32329699" version="4" timestamp="2010-03-23T11:57:17Z" uid="4467" user="Rosscoe" changeset="4211417">
    <nd ref="364000307"/>
    <nd ref="364000608"/>
    <nd ref="364000526"/>
    <nd ref="364000270"/>
    <nd ref="364000315"/>
    <nd ref="672693216"/>
    <tag k="highway" v="secondary"/>
    <tag k="name" v="Mair Street East"/>
    <tag k="oneway" v="yes"/>
    <tag k="ref" v="C805"/>
  </way>
  <way id="32329699" version="5" timestamp="2011-02-07T06:18:29Z" uid="4467" user="Rosscoe" changeset="7212788">
    <nd ref="364000307"/>
    <nd ref="1140362268"/>
    <nd ref="364000608"/>
    <nd ref="1140362342"/>
    <nd ref="364000526"/>
    <nd ref="364000270"/>
    <nd ref="364000315"/>
    <nd ref="672693216"/>
    <tag k="highway" v="secondary"/>
    <tag k="name" v="Mair Street East"/>
    <tag k="oneway" v="yes"/>
    <tag k="ref" v="C805"/>
  </way>
  <way id="32329699" version="6" timestamp="2011-09-07T20:30:08Z" uid="379724" user="bugman" changeset="9240550">
    <nd ref="364000307"/>
    <nd ref="1140362268"/>
    <nd ref="364000608"/>
    <nd ref="1140362342"/>
    <nd ref="364000526"/>
    <nd ref="364000270"/>
    <nd ref="364000315"/>
    <nd ref="1426491269"/>
    <nd ref="672693216"/>
    <tag k="highway" v="secondary"/>
    <tag k="name" v="Mair Street East"/>
    <tag k="oneway" v="yes"/>
    <tag k="ref" v="C805"/>
  </way>
  <way id="32329699" version="7" timestamp="2011-09-07T20:51:59Z" uid="379724" user="bugman" changeset="9240754">
    <nd ref="364000307"/>
    <nd ref="1140362268"/>
    <nd ref="364000608"/>
    <nd ref="1140362342"/>
    <nd ref="364000526"/>
    <nd ref="1426505622"/>
    <nd ref="364000270"/>
    <nd ref="364000315"/>
    <nd ref="1426491269"/>
    <nd ref="672693216"/>
    <tag k="highway" v="secondary"/>
    <tag k="name" v="Mair Street East"/>
    <tag k="oneway" v="yes"/>
    <tag k="ref" v="C805"/>
  </way>
  <way id="32329699" version="8" timestamp="2011-09-07T21:40:42Z" uid="379724" user="bugman" changeset="9241178">
    <nd ref="364000307"/>
    <nd ref="1140362268"/>
    <nd ref="364000608"/>
    <nd ref="1426546740"/>
    <nd ref="1140362342"/>
    <nd ref="364000526"/>
    <nd ref="1426505622"/>
    <nd ref="364000270"/>
    <nd ref="364000315"/>
    <nd ref="1426491269"/>
    <nd ref="672693216"/>
    <tag k="highway" v="secondary"/>
    <tag k="name" v="Mair Street East"/>
    <tag k="oneway" v="yes"/>
    <tag k="ref" v="C805"/>
  </way>
  <way id="32329699" version="9" timestamp="2011-12-21T02:39:37Z" uid="11111" user="melb_guy" changeset="10168207">
    <nd ref="364000307"/>
    <nd ref="1140362268"/>
    <nd ref="364000608"/>
    <nd ref="1426546740"/>
    <nd ref="1140362342"/>
    <nd ref="364000526"/>
    <nd ref="1426505622"/>
    <nd ref="364000270"/>
    <nd ref="364000315"/>
    <nd ref="1426491269"/>
    <nd ref="672693216"/>
    <tag k="highway" v="secondary"/>
    <tag k="lanes" v="1"/>
    <tag k="maxspeed" v="50"/>
    <tag k="name" v="Mair Street East"/>
    <tag k="oneway" v="yes"/>
    <tag k="ref" v="C805"/>
  </way>
  <way id="32329699" version="10" timestamp="2012-02-04T13:31:28Z" uid="379724" user="bugman" changeset="10584132">
    <nd ref="364000307"/>
    <nd ref="1140362268"/>
    <nd ref="364000608"/>
    <nd ref="1426546740"/>
    <nd ref="1140362342"/>
    <nd ref="364000526"/>
    <nd ref="1426505622"/>
    <nd ref="364000270"/>
    <nd ref="364000315"/>
    <nd ref="1617710085"/>
    <nd ref="1426491269"/>
    <nd ref="672693216"/>
    <tag k="highway" v="secondary"/>
    <tag k="lanes" v="1"/>
    <tag k="maxspeed" v="50"/>
    <tag k="name" v="Mair Street East"/>
    <tag k="oneway" v="yes"/>
    <tag k="ref" v="C805"/>
  </way>
  <way id="32329699" version="11" timestamp="2012-02-18T04:25:05Z" uid="206929" user="Supt_of_Printing" changeset="10716920">
    <nd ref="364000307"/>
    <nd ref="1140362268"/>
    <nd ref="364000608"/>
    <nd ref="1426546740"/>
    <nd ref="1140362342"/>
    <nd ref="364000526"/>
    <nd ref="1426505622"/>
    <nd ref="364000270"/>
    <nd ref="364000315"/>
    <nd ref="1617710085"/>
    <nd ref="1637357771"/>
    <nd ref="1637357775"/>
    <nd ref="1426491269"/>
    <nd ref="1617710086"/>
    <tag k="highway" v="secondary"/>
    <tag k="lanes" v="1"/>
    <tag k="maxspeed" v="50"/>
    <tag k="name" v="Mair Street East"/>
    <tag k="oneway" v="yes"/>
    <tag k="ref" v="C805"/>
  </way>
  <way id="32329866" version="6" timestamp="2010-03-23T11:57:17Z" uid="4467" user="Rosscoe" changeset="4211417">
    <nd ref="364000523"/>
    <nd ref="672693207"/>
    <nd ref="364000524"/>
    <nd ref="672693209"/>
    <nd ref="35289838"/>
    <nd ref="364000504"/>
    <nd ref="364000505"/>
    <nd ref="364000506"/>
    <nd ref="364000507"/>
    <nd ref="364000508"/>
    <nd ref="672693210"/>
    <nd ref="672693211"/>
    <nd ref="672693212"/>
    <nd ref="672693213"/>
    <nd ref="364000517"/>
    <nd ref="364000518"/>
    <nd ref="364000519"/>
    <nd ref="364000520"/>
    <nd ref="364000521"/>
    <nd ref="364000522"/>
    <nd ref="364000523"/>
    <tag k="highway" v="tertiary"/>
    <tag k="junction" v="roundabout"/>
  </way>
  <way id="32329866" version="7" timestamp="2011-02-07T06:18:02Z" uid="4467" user="Rosscoe" changeset="7212788">
    <nd ref="1140362159"/>
    <nd ref="672693207"/>
    <nd ref="364000524"/>
    <nd ref="672693209"/>
    <nd ref="35289838"/>
    <nd ref="364000504"/>
    <nd ref="364000505"/>
    <nd ref="364000506"/>
    <nd ref="364000507"/>
    <nd ref="1140362151"/>
    <nd ref="364000508"/>
    <nd ref="672693210"/>
    <nd ref="672693211"/>
    <nd ref="672693212"/>
    <nd ref="672693213"/>
    <nd ref="364000518"/>
    <nd ref="364000519"/>
    <nd ref="364000520"/>
    <nd ref="364000521"/>
    <nd ref="364000522"/>
    <nd ref="1140362159"/>
    <tag k="highway" v="tertiary"/>
    <tag k="junction" v="roundabout"/>
  </way>
  <way id="32329866" version="8" timestamp="2012-02-01T18:17:03Z" uid="379724" user="bugman" changeset="10561091">
    <nd ref="1140362151"/>
    <nd ref="364000508"/>
    <nd ref="672693210"/>
    <nd ref="672693211"/>
    <nd ref="672693212"/>
    <nd ref="672693213"/>
    <nd ref="364000518"/>
    <nd ref="364000519"/>
    <nd ref="364000520"/>
    <nd ref="364000521"/>
    <nd ref="364000522"/>
    <nd ref="1140362159"/>
    <nd ref="672693207"/>
    <nd ref="364000524"/>
    <nd ref="672693209"/>
    <nd ref="35289838"/>
    <tag k="highway" v="tertiary"/>
    <tag k="junction" v="roundabout"/>
  </way>
  <way id="32329866" version="9" timestamp="2012-02-03T22:12:35Z" uid="379724" user="bugman" changeset="10579783">
    <nd ref="1140362151"/>
    <nd ref="364000508"/>
    <nd ref="672693210"/>
    <nd ref="672693211"/>
    <nd ref="672693212"/>
    <nd ref="672693213"/>
    <nd ref="364000518"/>
    <nd ref="364000519"/>
    <nd ref="364000520"/>
    <nd ref="364000521"/>
    <nd ref="364000522"/>
    <nd ref="1140362159"/>
    <nd ref="672693207"/>
    <nd ref="364000524"/>
    <tag k="highway" v="tertiary"/>
    <tag k="junction" v="roundabout"/>
  </way>
  <way id="32329866" version="10" timestamp="2012-02-03T23:13:16Z" uid="379724" user="bugman" changeset="10580207">
    <nd ref="1140362151"/>
    <nd ref="364000508"/>
    <nd ref="672693210"/>
    <nd ref="672693211"/>
    <nd ref="672693212"/>
    <nd ref="672693213"/>
    <nd ref="364000518"/>
    <nd ref="364000519"/>
    <nd ref="364000520"/>
    <nd ref="364000521"/>
    <nd ref="364000522"/>
    <tag k="highway" v="tertiary"/>
    <tag k="junction" v="roundabout"/>
  </way>
  <way id="32329876" version="5" timestamp="2010-03-23T11:57:16Z" uid="4467" user="Rosscoe" changeset="4211417">
    <nd ref="672693213"/>
    <nd ref="364000509"/>
    <nd ref="364000312"/>
    <nd ref="364000313"/>
    <nd ref="364000314"/>
    <nd ref="35289938"/>
    <nd ref="364000609"/>
    <nd ref="364000487"/>
    <tag k="highway" v="tertiary"/>
    <tag k="name" v="Victoria Street"/>
    <tag k="oneway" v="yes"/>
  </way>
  <way id="32329876" version="6" timestamp="2011-02-07T06:18:40Z" uid="4467" user="Rosscoe" changeset="7212788">
    <nd ref="672693213"/>
    <nd ref="364000509"/>
    <nd ref="364000312"/>
    <nd ref="364000313"/>
    <nd ref="364000314"/>
    <nd ref="35289938"/>
    <nd ref="364000609"/>
    <nd ref="1140362259"/>
    <nd ref="364000487"/>
    <tag k="highway" v="tertiary"/>
    <tag k="name" v="Victoria Street"/>
    <tag k="oneway" v="yes"/>
  </way>
  <way id="32329876" version="7" timestamp="2011-12-21T02:38:58Z" uid="11111" user="melb_guy" changeset="10168207">
    <nd ref="672693213"/>
    <nd ref="364000509"/>
    <nd ref="364000312"/>
    <nd ref="1556534758"/>
    <tag k="highway" v="tertiary"/>
    <tag k="lanes" v="1"/>
    <tag k="maxspeed" v="60"/>
    <tag k="name" v="Victoria Street"/>
    <tag k="oneway" v="yes"/>
    <tag k="surface" v="asphalt"/>
  </way>
  <way id="32329959" version="3" timestamp="2011-02-07T06:18:15Z" uid="4467" user="Rosscoe" changeset="7212788">
    <nd ref="35289741"/>
    <nd ref="364000484"/>
    <nd ref="364000485"/>
    <nd ref="1140362222"/>
    <nd ref="364000486"/>
    <nd ref="364000514"/>
    <nd ref="364000522"/>
    <tag k="highway" v="tertiary"/>
    <tag k="name" v="Victoria Street"/>
    <tag k="oneway" v="yes"/>
  </way>
  <way id="32329959" version="4" timestamp="2011-02-07T15:52:10Z" uid="4467" user="Rosscoe" changeset="7217453">
    <nd ref="35289741"/>
    <nd ref="1140914338"/>
    <nd ref="1140914166"/>
    <nd ref="364000484"/>
    <nd ref="1140913433"/>
    <nd ref="364000485"/>
    <nd ref="1140362222"/>
    <nd ref="364000486"/>
    <nd ref="364000514"/>
    <nd ref="364000522"/>
    <tag k="highway" v="tertiary"/>
    <tag k="name" v="Victoria Street"/>
    <tag k="oneway" v="yes"/>
  </way>
  <way id="32329959" version="5" timestamp="2011-12-21T02:38:59Z" uid="11111" user="melb_guy" changeset="10168207">
    <nd ref="35289741"/>
    <nd ref="1140914338"/>
    <nd ref="1556534796"/>
    <tag k="highway" v="tertiary"/>
    <tag k="lanes" v="2"/>
    <tag k="maxspeed" v="70"/>
    <tag k="name" v="Victoria Street"/>
    <tag k="oneway" v="yes"/>
    <tag k="surface" v="asphalt"/>
  </way>
  <way id="32329988" version="12" timestamp="2011-02-07T04:59:26Z" uid="4467" user="Rosscoe" changeset="7212467">
    <nd ref="608206811"/>
    <nd ref="1140333567"/>
    <nd ref="694179937"/>
    <nd ref="945420950"/>
    <nd ref="694180389"/>
    <nd ref="608206790"/>
    <nd ref="694177392"/>
    <nd ref="608206776"/>
    <nd ref="608206784"/>
    <nd ref="945420934"/>
    <nd ref="694167486"/>
    <tag k="cycleway" v="lane"/>
    <tag k="highway" v="tertiary"/>
    <tag k="name" v="Humffray Street North"/>
    <tag k="source" v="nearmap"/>
  </way>
  <way id="32329988" version="13" timestamp="2011-10-22T11:58:56Z" uid="206929" user="Supt_of_Printing" changeset="9623293">
    <nd ref="608206811"/>
    <nd ref="1140333567"/>
    <nd ref="694179937"/>
    <nd ref="1476227392"/>
    <nd ref="1476227452"/>
    <nd ref="945420950"/>
    <nd ref="694180389"/>
    <nd ref="608206790"/>
    <nd ref="694177392"/>
    <nd ref="1476227396"/>
    <nd ref="608206776"/>
    <nd ref="608206784"/>
    <nd ref="1476227412"/>
    <nd ref="945420934"/>
    <nd ref="1476227422"/>
    <nd ref="694167486"/>
    <tag k="cycleway" v="lane"/>
    <tag k="highway" v="tertiary"/>
    <tag k="name" v="Humffray Street North"/>
    <tag k="source" v="nearmap"/>
  </way>
  <way id="32329988" version="14" timestamp="2011-11-26T11:36:15Z" uid="379724" user="bugman" changeset="9954398">
    <nd ref="608206811"/>
    <nd ref="1140333567"/>
    <nd ref="694179937"/>
    <nd ref="1476227392"/>
    <nd ref="1476227452"/>
    <nd ref="945420950"/>
    <nd ref="694180389"/>
    <nd ref="694177392"/>
    <nd ref="1476227396"/>
    <nd ref="608206784"/>
    <nd ref="1476227412"/>
    <nd ref="945420934"/>
    <nd ref="1476227422"/>
    <nd ref="694167486"/>
    <tag k="cycleway" v="lane"/>
    <tag k="highway" v="tertiary"/>
    <tag k="name" v="Humffray Street North"/>
    <tag k="source" v="nearmap"/>
  </way>
</osm>
