<?xml version='1.0' encoding='UTF-8'?>
<osm version="0.6" generator="libosmium/2.20.0">
  <way id="32330016" version="2" timestamp="2010-07-09T04:59:01Z" uid="74617" user="JohnSmith" changeset="5170986">
    <nd ref="243975457"/>
    <nd ref="243975458"/>
    <nd ref="243975459"/>
    <nd ref="243975460"/>
    <nd ref="243975461"/>
    <nd ref="243975368"/>
    <nd ref="243975369"/>
    <nd ref="243975370"/>
    <nd ref="243975371"/>
    <nd ref="243975372"/>
    <nd ref="243975466"/>
    <nd ref="243975373"/>
    <nd ref="243975374"/>
    <tag k="highway" v="residential"/>
    <tag k="maxspeed" v="50"/>
    <tag k="maxspeed:source" v="default residential speed limit in Australia"/>
    <tag k="name" v="Knightsbridge Avenue"/>
  </way>
  <way id="32330016" version="3" timestamp="2011-04-20T14:38:15Z" uid="4467" user="Rosscoe" changeset="7916821">
    <nd ref="243975457"/>
    <nd ref="243975458"/>
    <nd ref="243975459"/>
    <nd ref="243975460"/>
    <nd ref="243975461"/>
    <nd ref="243975368"/>
    <nd ref="243975369"/>
    <nd ref="243975370"/>
    <nd ref="243975371"/>
    <nd ref="243975372"/>
    <nd ref="243975466"/>
    <nd ref="243975373"/>
    <nd ref="243975374"/>
    <tag k="highway" v="residential"/>
    <tag k="maxspeed" v="50"/>
    <tag k="name" v="Knightsbridge Avenue"/>
    <tag k="source:maxspeed" v="default residential speed limit in Australia"/>
  </way>
  <way id="32330016" version="4" timestamp="2012-01-18T14:45:32Z" uid="147510" user="woodpeck_fixbot" changeset="10427327">
    <nd ref="243975457"/>
    <nd ref="243975458"/>
    <nd ref="243975459"/>
    <nd ref="243975460"/>
    <nd ref="243975461"/>
    <nd ref="243975368"/>
    <nd ref="243975369"/>
    <nd ref="243975370"/>
    <nd ref="243975371"/>
    <nd ref="243975372"/>
    <nd ref="243975466"/>
    <nd ref="243975373"/>
    <nd ref="243975374"/>
    <tag k="highway" v="residential"/>
    <tag k="name" v="Knightsbridge Avenue"/>
    <tag k="source:maxspeed" v="default residential speed limit in Australia"/>
  </way>
  <way id="32330050" version="3" timestamp="2010-03-23T11:57:16Z" uid="4467" user="Rosscoe" changeset="4211417">
    <nd ref="672693211"/>
    <nd ref="364000527"/>
    <tag k="highway" v="tertiary"/>
    <tag k="name" v="Humfray Street North"/>
    <tag k="oneway" v="yes"/>
  </way>
  <way id="32330050" version="4" timestamp="2011-02-07T06:18:22Z" uid="4467" user="Rosscoe" changeset="7212788">
    <nd ref="364000508"/>
    <nd ref="1140362146"/>
    <nd ref="364000527"/>
    <tag k="highway" v="tertiary"/>
    <tag k="name" v="Humffray Street North"/>
    <tag k="oneway" v="yes"/>
  </way>
  <way id="32330054" version="2" timestamp="2010-03-23T11:57:17Z" uid="4467" user="Rosscoe" changeset="4211417">
    <nd ref="364000527"/>
    <nd ref="672693212"/>
    <tag k="highway" v="tertiary"/>
    <tag k="name" v="Humfray Street North"/>
    <tag k="oneway" v="yes"/>
  </way>
  <way id="32330179" version="3" timestamp="2010-03-23T11:57:16Z" uid="4467" user="Rosscoe" changeset="4211417">
    <nd ref="364000547"/>
    <nd ref="672693209"/>
    <tag k="highway" v="tertiary"/>
    <tag k="name" v="Humfray Street South"/>
    <tag k="oneway" v="yes"/>
  </way>
  <way id="32330257" version="2" timestamp="2011-02-07T15:52:42Z" uid="4467" user="Rosscoe" changeset="7217453">
    <nd ref="364000570"/>
    <nd ref="1140913137"/>
    <nd ref="1140913200"/>
    <tag k="highway" v="tertiary"/>
    <tag k="name" v="Humfray Street South"/>
  </way>
  <way id="32330257" version="3" timestamp="2011-08-29T17:33:26Z" uid="379724" user="bugman" changeset="9159905">
    <nd ref="364000570"/>
    <nd ref="357622360"/>
    <nd ref="1401458762"/>
    <nd ref="1140913137"/>
    <nd ref="1140913200"/>
    <tag k="highway" v="tertiary"/>
    <tag k="name" v="Humfray Street South"/>
  </way>
  <way id="32330628" version="2" timestamp="2010-07-08T16:54:37Z" uid="74617" user="JohnSmith" changeset="5167338">
    <nd ref="364000608"/>
    <nd ref="364000609"/>
    <tag k="highway" v="residential"/>
    <tag k="maxspeed" v="50"/>
    <tag k="maxspeed:source" v="default residential speed limit in Australia"/>
    <tag k="name" v="East Street North"/>
  </way>
  <way id="32330628" version="3" timestamp="2011-02-07T06:18:20Z" uid="4467" user="Rosscoe" changeset="7212788">
    <nd ref="364000607"/>
    <nd ref="364000608"/>
    <nd ref="1140362338"/>
    <nd ref="364000609"/>
    <tag k="highway" v="residential"/>
    <tag k="maxspeed" v="50"/>
    <tag k="maxspeed:source" v="default residential speed limit in Australia"/>
    <tag k="name" v="East Street North"/>
  </way>
  <way id="32330628" version="4" timestamp="2011-02-07T11:13:10Z" uid="4467" user="Rosscoe" changeset="7214726">
    <nd ref="364000607"/>
    <nd ref="364000608"/>
    <nd ref="1140362338"/>
    <nd ref="364000609"/>
    <tag k="highway" v="residential"/>
    <tag k="maxspeed" v="50"/>
    <tag k="name" v="East Street North"/>
    <tag k="source:maxspeed" v="default residential speed limit in Australia"/>
  </way>
  <way id="32330628" version="5" timestamp="2011-09-07T20:57:07Z" uid="379724" user="bugman" changeset="9240793">
    <nd ref="364000607"/>
    <nd ref="364000608"/>
    <nd ref="1426508761"/>
    <nd ref="1140362338"/>
    <nd ref="364000609"/>
    <tag k="highway" v="residential"/>
    <tag k="maxspeed" v="50"/>
    <tag k="name" v="East Street North"/>
    <tag k="source:maxspeed" v="default residential speed limit in Australia"/>
  </way>
  <way id="32330628" version="6" timestamp="2012-01-18T14:45:35Z" uid="147510" user="woodpeck_fixbot" changeset="10427327">
    <nd ref="364000607"/>
    <nd ref="364000608"/>
    <nd ref="1426508761"/>
    <nd ref="1140362338"/>
    <nd ref="364000609"/>
    <tag k="highway" v="residential"/>
    <tag k="name" v="East Street North"/>
    <tag k="source:maxspeed" v="default residential speed limit in Australia"/>
  </way>
  <way id="32330630" version="3" timestamp="2011-02-07T06:18:50Z" uid="4467" user="Rosscoe" changeset="7212788"/>
  <way id="32330795" version="3" timestamp="2010-03-23T11:57:18Z" uid="4467" user="Rosscoe" changeset="4211417"/>
  <way id="32330942" version="6" timestamp="2011-02-07T06:18:07Z" uid="4467" user="Rosscoe" changeset="7212788">
    <nd ref="364000682"/>
    <nd ref="364000683"/>
    <nd ref="364000684"/>
    <nd ref="364000685"/>
    <nd ref="364000686"/>
    <nd ref="35289739"/>
    <nd ref="356613500"/>
    <nd ref="866710622"/>
    <nd ref="364000638"/>
    <nd ref="436208147"/>
    <nd ref="894797776"/>
    <nd ref="35289740"/>
    <nd ref="35289741"/>
    <tag k="highway" v="secondary"/>
    <tag k="name" v="Victoria Street"/>
    <tag k="oneway" v="yes"/>
    <tag k="ref" v="C805"/>
  </way>
  <way id="32330942" version="7" timestamp="2011-02-07T15:52:03Z" uid="4467" user="Rosscoe" changeset="7217453">
    <nd ref="364000682"/>
    <nd ref="1140914134"/>
    <nd ref="1140914107"/>
    <nd ref="364000683"/>
    <nd ref="364000684"/>
    <nd ref="364000685"/>
    <nd ref="364000686"/>
    <nd ref="1140913508"/>
    <nd ref="1140914173"/>
    <nd ref="35289739"/>
    <nd ref="1140913813"/>
    <nd ref="356613500"/>
    <nd ref="866710622"/>
    <nd ref="364000638"/>
    <nd ref="1140913262"/>
    <nd ref="436208147"/>
    <nd ref="1140913206"/>
    <nd ref="894797776"/>
    <nd ref="1140913207"/>
    <nd ref="35289740"/>
    <nd ref="1140913743"/>
    <nd ref="35289741"/>
    <tag k="highway" v="secondary"/>
    <tag k="name" v="Victoria Street"/>
    <tag k="oneway" v="yes"/>
    <tag k="ref" v="C805"/>
  </way>
  <way id="32330942" version="8" timestamp="2011-12-21T02:39:04Z" uid="11111" user="melb_guy" changeset="10168207">
    <nd ref="364000682"/>
    <nd ref="1140914134"/>
    <nd ref="1140914107"/>
    <nd ref="364000683"/>
    <nd ref="364000684"/>
    <nd ref="364000685"/>
    <nd ref="364000686"/>
    <nd ref="1140913508"/>
    <nd ref="1140914173"/>
    <nd ref="35289739"/>
    <nd ref="1140913813"/>
    <nd ref="356613500"/>
    <nd ref="866710622"/>
    <nd ref="364000638"/>
    <nd ref="1140913262"/>
    <nd ref="436208147"/>
    <nd ref="1140913206"/>
    <nd ref="894797776"/>
    <nd ref="1140913207"/>
    <nd ref="35289740"/>
    <nd ref="1140913743"/>
    <nd ref="35289741"/>
    <tag k="alt_name" v="Ballarat - Burrumbeet Road"/>
    <tag k="highway" v="secondary"/>
    <tag k="lanes" v="2"/>
    <tag k="maxspeed" v="70"/>
    <tag k="name" v="Victoria Street"/>
    <tag k="oneway" v="yes"/>
    <tag k="ref" v="C805"/>
    <tag k="surface" v="asphalt"/>
  </way>
  <way id="32330942" version="9" timestamp="2012-02-03T23:10:10Z" uid="379724" user="bugman" changeset="10580178">
    <nd ref="364000682"/>
    <nd ref="1140914134"/>
    <nd ref="1140914107"/>
    <nd ref="364000683"/>
    <nd ref="1617144035"/>
    <nd ref="364000684"/>
    <nd ref="364000685"/>
    <nd ref="364000686"/>
    <nd ref="1140913508"/>
    <nd ref="1140914173"/>
    <nd ref="35289739"/>
    <nd ref="1140913813"/>
    <nd ref="356613500"/>
    <nd ref="866710622"/>
    <nd ref="364000638"/>
    <nd ref="1140913262"/>
    <nd ref="436208147"/>
    <nd ref="1140913206"/>
    <nd ref="894797776"/>
    <nd ref="1140913207"/>
    <nd ref="35289740"/>
    <nd ref="1140913743"/>
    <nd ref="35289741"/>
    <tag k="alt_name" v="Ballarat - Burrumbeet Road"/>
    <tag k="highway" v="secondary"/>
    <tag k="lanes" v="2"/>
    <tag k="maxspeed" v="70"/>
    <tag k="name" v="Victoria Street"/>
    <tag k="oneway" v="yes"/>
    <tag k="ref" v="C805"/>
    <tag k="surface" v="asphalt"/>
  </way>
  <way id="32330988" version="7" timestamp="2010-07-09T05:03:53Z" uid="74617" user="JohnSmith" changeset="5170986">
    <nd ref="363999786"/>
    <nd ref="741754760"/>
    <nd ref="364000677"/>
    <tag k="highway" v="residential"/>
    <tag k="maxspeed" v="50"/>
    <tag k="maxspeed:source" v="default residential speed limit in Australia"/>
    <tag k="name" v="Edward Street"/>
  </way>
  <way id="32330988" version="8" timestamp="2011-04-20T14:38:32Z" uid="4467" user="Rosscoe" changeset="7916821">
    <nd ref="363999786"/>
    <nd ref="741754760"/>
    <nd ref="364000677"/>
    <tag k="highway" v="residential"/>
    <tag k="maxspeed" v="50"/>
    <tag k="name" v="Edward Street"/>
    <tag k="source:maxspeed" v="default residential speed limit in Australia"/>
  </way>
  <way id="32330988" version="9" timestamp="2012-01-18T14:45:40Z" uid="147510" user="woodpeck_fixbot" changeset="10427327">
    <nd ref="363999786"/>
    <nd ref="741754760"/>
    <nd ref="364000677"/>
    <tag k="highway" v="residential"/>
    <tag k="name" v="Edward Street"/>
    <tag k="source:maxspeed" v="default residential speed limit in Australia"/>
  </way>
</osm>
