<?xml version='1.0' encoding='UTF-8'?>
<osm version="0.6" generator="libosmium/2.20.0">
  <way id="32371034" version="5" timestamp="2009-09-04T21:13:08Z" uid="36809" user="pfoten_weg_!_" changeset="2374562">
    <nd ref="364336544"/>
    <nd ref="364336545"/>
    <nd ref="364336546"/>
    <nd ref="364336547"/>
    <nd ref="364336544"/>
    <tag k="building" v="yes"/>
    <tag k="source" v="survey"/>
  </way>
  <way id="32371074" version="1" timestamp="2009-03-21T11:14:30Z" uid="12188" user="Babis" changeset="838946">
    <nd ref="270600833"/>
    <nd ref="364336552"/>
    <nd ref="364336553"/>
    <tag k="created_by" v="Potlatch 0.10f"/>
    <tag k="highway" v="residential"/>
    <tag k="source" v="GPS"/>
  </way>
  <way id="32371074" version="2" timestamp="2010-07-05T15:10:23Z" uid="23785" user="Simon Kokolakis" changeset="5142771">
    <nd ref="270600833"/>
    <nd ref="364336552"/>
    <tag k="highway" v="residential"/>
    <tag k="source" v="GPS"/>
  </way>
  <way id="32371122" version="1" timestamp="2009-03-21T11:14:52Z" uid="12188" user="Babis" changeset="838946">
    <nd ref="364336576"/>
    <nd ref="364336578"/>
    <nd ref="364336580"/>
    <tag k="created_by" v="Potlatch 0.10f"/>
  </way>
  <way id="32371122" version="2" timestamp="2009-03-21T11:15:31Z" uid="12188" user="Babis" changeset="838946">
    <nd ref="364336576"/>
    <nd ref="364336616"/>
    <nd ref="364336578"/>
    <nd ref="364336580"/>
    <tag k="created_by" v="Potlatch 0.10f"/>
    <tag k="highway" v="residential"/>
    <tag k="source" v="GPS"/>
  </way>
  <way id="32371123" version="6" timestamp="2009-09-04T21:09:31Z" uid="36809" user="pfoten_weg_!_" changeset="2374562">
    <nd ref="364336577"/>
    <nd ref="364336579"/>
    <nd ref="364336581"/>
    <nd ref="196133637"/>
    <nd ref="196133629"/>
    <nd ref="364336577"/>
    <tag k="building" v="yes"/>
    <tag k="source" v="survey"/>
  </way>
  <way id="32371123" version="7" timestamp="2009-10-13T23:49:27Z" uid="36809" user="pfoten_weg_!_" changeset="2841273">
    <nd ref="364336577"/>
    <nd ref="364336579"/>
    <nd ref="364336581"/>
    <nd ref="196133637"/>
    <nd ref="196133629"/>
    <nd ref="364336577"/>
    <tag k="building" v="yes"/>
  </way>
  <way id="32371164" version="5" timestamp="2009-09-04T21:13:26Z" uid="36809" user="pfoten_weg_!_" changeset="2374562">
    <nd ref="364336607"/>
    <nd ref="364336608"/>
    <nd ref="364336609"/>
    <nd ref="364336610"/>
    <nd ref="364336607"/>
    <tag k="building" v="yes"/>
    <tag k="source" v="survey"/>
  </way>
  <way id="32371194" version="1" timestamp="2009-03-21T11:15:29Z" uid="12188" user="Babis" changeset="838946">
    <nd ref="364336616"/>
    <nd ref="269613012"/>
    <tag k="created_by" v="Potlatch 0.10f"/>
    <tag k="highway" v="residential"/>
    <tag k="source" v="GPS"/>
  </way>
  <way id="32371194" version="2" timestamp="2009-09-12T19:12:31Z" uid="12188" user="Babis" changeset="2461545">
    <nd ref="364336616"/>
    <nd ref="269613012"/>
    <nd ref="269613096"/>
    <nd ref="269613098"/>
    <nd ref="316437141"/>
    <tag k="highway" v="residential"/>
    <tag k="source" v="GPS"/>
  </way>
  <way id="32371194" version="3" timestamp="2009-09-12T19:13:36Z" uid="12188" user="Babis" changeset="2461545">
    <nd ref="364336616"/>
    <nd ref="269613012"/>
    <nd ref="269613096"/>
    <nd ref="269613098"/>
    <nd ref="316437141"/>
    <tag k="highway" v="residential"/>
    <tag k="name" v="Μαραθωνομάχων"/>
    <tag k="name:en" v="Marathonomahon"/>
    <tag k="source" v="GPS"/>
  </way>
  <way id="32371226" version="3" timestamp="2009-09-04T21:21:45Z" uid="36809" user="pfoten_weg_!_" changeset="2374562">
    <nd ref="364336679"/>
    <nd ref="364336680"/>
    <nd ref="364335463"/>
    <nd ref="364336681"/>
    <nd ref="364336679"/>
    <tag k="building" v="yes"/>
    <tag k="source" v="survey"/>
  </way>
  <way id="32371226" version="4" timestamp="2009-10-13T23:49:26Z" uid="36809" user="pfoten_weg_!_" changeset="2841273">
    <nd ref="364336679"/>
    <nd ref="364336680"/>
    <nd ref="364335463"/>
    <nd ref="364336681"/>
    <nd ref="364336679"/>
    <tag k="building" v="yes"/>
  </way>
  <way id="32371237" version="3" timestamp="2010-02-15T06:35:37Z" uid="74617" user="JohnSmith" changeset="3880421">
    <nd ref="84351022"/>
    <nd ref="84351023"/>
    <nd ref="84351357"/>
    <nd ref="84351358"/>
    <nd ref="84351359"/>
    <tag k="highway" v="secondary"/>
    <tag k="name" v="King Avenue"/>
  </way>
  <way id="32371237" version="4" timestamp="2011-02-12T10:24:32Z" uid="4467" user="Rosscoe" changeset="7263105">
    <nd ref="84351022"/>
    <nd ref="84351023"/>
    <nd ref="84351357"/>
    <nd ref="84351358"/>
    <nd ref="1148820852"/>
    <nd ref="84351359"/>
    <tag k="highway" v="secondary"/>
    <tag k="name" v="King Avenue"/>
  </way>
  <way id="32371246" version="2" timestamp="2010-02-15T06:35:38Z" uid="74617" user="JohnSmith" changeset="3880421">
    <nd ref="84350926"/>
    <nd ref="84351022"/>
    <tag k="bridge" v="yes"/>
    <tag k="highway" v="secondary"/>
    <tag k="layer" v="1"/>
    <tag k="name" v="King Avenue"/>
  </way>
  <way id="32371291" version="11" timestamp="2009-06-05T19:53:08Z" uid="132212" user="Migro" changeset="1432497">
    <nd ref="386921250"/>
    <nd ref="386921251"/>
    <nd ref="364336697"/>
    <nd ref="365419304"/>
    <nd ref="364336698"/>
    <nd ref="364336699"/>
    <nd ref="364336700"/>
    <nd ref="364336701"/>
    <nd ref="364336702"/>
    <nd ref="364336703"/>
    <nd ref="364336704"/>
    <nd ref="364336705"/>
    <tag k="created_by" v="Potlatch 0.10f"/>
    <tag k="highway" v="unclassified"/>
    <tag k="name" v="Lillmalmsvagen"/>
    <tag k="name:fi" v="Pikkunummentie"/>
    <tag k="name:sv" v="Lillmalmsvagen"/>
  </way>
  <way id="32371291" version="12" timestamp="2009-08-11T08:01:25Z" uid="82162" user="MaxiMouse" changeset="2105584">
    <nd ref="386921250"/>
    <nd ref="386921251"/>
    <nd ref="364336697"/>
    <nd ref="365419304"/>
    <nd ref="364336698"/>
    <nd ref="364336699"/>
    <nd ref="364336700"/>
    <nd ref="364336701"/>
    <nd ref="364336702"/>
    <nd ref="364336703"/>
    <nd ref="364336704"/>
    <nd ref="364336705"/>
    <tag k="created_by" v="Potlatch 0.10f"/>
    <tag k="highway" v="unclassified"/>
    <tag k="name" v="Lillmalmsvägen"/>
    <tag k="name:fi" v="Pikkunummentie"/>
    <tag k="name:sv" v="Lillmalmsvägen"/>
  </way>
  <way id="32371291" version="13" timestamp="2010-03-20T15:36:03Z" uid="187085" user="Juha Mustonen" changeset="4181063">
    <nd ref="386921250"/>
    <nd ref="386921251"/>
    <nd ref="364336697"/>
    <nd ref="365419304"/>
    <nd ref="364336698"/>
    <nd ref="364336699"/>
    <nd ref="364336700"/>
    <nd ref="670503802"/>
    <nd ref="364336701"/>
    <nd ref="364336702"/>
    <nd ref="364336703"/>
    <nd ref="364336704"/>
    <nd ref="364336705"/>
    <tag k="highway" v="unclassified"/>
    <tag k="name" v="Lillmalmsvägen"/>
    <tag k="name:fi" v="Pikkunummentie"/>
    <tag k="name:sv" v="Lillmalmsvägen"/>
  </way>
  <way id="32371291" version="14" timestamp="2010-08-04T10:21:58Z" uid="4660" user="alv" changeset="5397609">
    <nd ref="386921250"/>
    <nd ref="386921251"/>
    <nd ref="845816830"/>
    <nd ref="364336697"/>
    <nd ref="365419304"/>
    <nd ref="364336698"/>
    <nd ref="364336699"/>
    <nd ref="364336700"/>
    <nd ref="670503802"/>
    <nd ref="364336701"/>
    <nd ref="364336702"/>
    <nd ref="364336703"/>
    <nd ref="364336704"/>
    <nd ref="364336705"/>
    <tag k="highway" v="unclassified"/>
    <tag k="name" v="Lillmalmsvägen"/>
    <tag k="name:fi" v="Pikkunummentie"/>
    <tag k="name:sv" v="Lillmalmsvägen"/>
  </way>
  <way id="32371291" version="15" timestamp="2011-10-13T08:17:39Z" uid="43619" user="Virex" changeset="9544994">
    <nd ref="386921250"/>
    <nd ref="386921251"/>
    <nd ref="845816830"/>
    <nd ref="364336697"/>
    <nd ref="365419304"/>
    <nd ref="364336698"/>
    <nd ref="364336700"/>
    <nd ref="670503802"/>
    <nd ref="364336701"/>
    <nd ref="364336702"/>
    <nd ref="364336703"/>
    <nd ref="364336705"/>
    <tag k="highway" v="unclassified"/>
    <tag k="name" v="Lillmalmsvägen"/>
    <tag k="name:fi" v="Pikkunummentie"/>
    <tag k="name:sv" v="Lillmalmsvägen"/>
  </way>
  <way id="32371291" version="16" timestamp="2011-10-15T12:36:53Z" uid="4660" user="alv" changeset="9563116">
    <nd ref="386921250"/>
    <nd ref="386921251"/>
    <nd ref="845816830"/>
    <nd ref="364336697"/>
    <nd ref="365419304"/>
    <nd ref="364336698"/>
    <nd ref="364336699"/>
    <nd ref="364336700"/>
    <nd ref="670503802"/>
    <nd ref="364336701"/>
    <nd ref="364336702"/>
    <nd ref="364336703"/>
    <nd ref="364336704"/>
    <nd ref="364336705"/>
    <tag k="highway" v="unclassified"/>
    <tag k="name" v="Lillmalmsvägen"/>
    <tag k="name:fi" v="Pikkunummentie"/>
    <tag k="name:sv" v="Lillmalmsvägen"/>
  </way>
  <way id="32371372" version="5" timestamp="2009-09-04T21:16:42Z" uid="36809" user="pfoten_weg_!_" changeset="2374562">
    <nd ref="364336836"/>
    <nd ref="364336837"/>
    <nd ref="364336838"/>
    <nd ref="364336839"/>
    <nd ref="364336840"/>
    <nd ref="364336841"/>
    <nd ref="365159675"/>
    <nd ref="365159677"/>
    <nd ref="364336836"/>
    <tag k="building" v="yes"/>
    <tag k="source" v="survey"/>
  </way>
  <way id="32371372" version="6" timestamp="2009-10-13T23:49:26Z" uid="36809" user="pfoten_weg_!_" changeset="2841273">
    <nd ref="364336836"/>
    <nd ref="364336837"/>
    <nd ref="364336838"/>
    <nd ref="364336839"/>
    <nd ref="364336840"/>
    <nd ref="364336841"/>
    <nd ref="365159675"/>
    <nd ref="365159677"/>
    <nd ref="364336836"/>
    <tag k="building" v="yes"/>
  </way>
  <way id="32371372" version="7" timestamp="2010-04-25T17:51:30Z" uid="8703" user="rolandg" changeset="4523450">
    <nd ref="364336836"/>
    <nd ref="364336837"/>
    <nd ref="364336838"/>
    <nd ref="364336839"/>
    <nd ref="364336840"/>
    <nd ref="364336841"/>
    <nd ref="706478047"/>
    <nd ref="365159675"/>
    <nd ref="365159677"/>
    <nd ref="364336836"/>
    <tag k="building" v="yes"/>
  </way>
  <way id="32371537" version="6" timestamp="2009-06-05T19:53:08Z" uid="132212" user="Migro" changeset="1432497">
    <nd ref="364337042"/>
    <nd ref="364337043"/>
    <tag k="created_by" v="Potlatch 0.10f"/>
    <tag k="highway" v="residential"/>
    <tag k="name" v="Movägen"/>
    <tag k="name:fi" v="Kangastie"/>
    <tag k="name:sv" v="Movägen"/>
  </way>
  <way id="32371537" version="7" timestamp="2009-06-25T19:47:11Z" uid="117443" user="raller" changeset="1625925">
    <nd ref="364337042"/>
    <nd ref="429341834"/>
    <nd ref="364337043"/>
    <tag k="created_by" v="Potlatch 0.10f"/>
    <tag k="highway" v="residential"/>
    <tag k="name" v="Movägen"/>
    <tag k="name:fi" v="Kangastie"/>
    <tag k="name:sv" v="Movägen"/>
  </way>
  <way id="32371537" version="8" timestamp="2009-08-11T17:52:40Z" uid="82162" user="MaxiMouse" changeset="2110841">
    <nd ref="364337042"/>
    <nd ref="429341834"/>
    <nd ref="461902646"/>
    <nd ref="364337043"/>
    <tag k="created_by" v="Potlatch 0.10f"/>
    <tag k="highway" v="residential"/>
    <tag k="name" v="Movägen"/>
    <tag k="name:fi" v="Kangastie"/>
    <tag k="name:sv" v="Movägen"/>
  </way>
  <way id="32371537" version="9" timestamp="2010-03-20T15:36:03Z" uid="187085" user="Juha Mustonen" changeset="4181063">
    <nd ref="670503802"/>
    <nd ref="429341834"/>
    <nd ref="461902646"/>
    <nd ref="364337043"/>
    <tag k="highway" v="residential"/>
    <tag k="name" v="Movägen"/>
    <tag k="name:fi" v="Kangastie"/>
    <tag k="name:sv" v="Movägen"/>
  </way>
  <way id="32371537" version="10" timestamp="2010-09-01T11:55:40Z" uid="188502" user="rhampf" changeset="5653388">
    <nd ref="670503802"/>
    <nd ref="429341834"/>
    <nd ref="461902646"/>
    <nd ref="364337043"/>
    <nd ref="891777650"/>
    <tag k="highway" v="residential"/>
    <tag k="name" v="Movägen"/>
    <tag k="name:fi" v="Kangastie"/>
    <tag k="name:sv" v="Movägen"/>
  </way>
  <way id="32371557" version="1" timestamp="2009-03-21T11:18:34Z" uid="12188" user="Babis" changeset="838946">
    <nd ref="278345621"/>
    <nd ref="278346585"/>
    <nd ref="278345697"/>
    <nd ref="278345301"/>
    <nd ref="278346192"/>
    <nd ref="278345662"/>
    <tag k="created_by" v="Potlatch 0.10f"/>
    <tag k="highway" v="residential"/>
    <tag k="source" v="GPS"/>
  </way>
  <way id="32371557" version="2" timestamp="2009-03-21T11:18:49Z" uid="12188" user="Babis" changeset="838946">
    <nd ref="278345621"/>
    <nd ref="278346585"/>
    <nd ref="278345697"/>
    <nd ref="278345301"/>
    <nd ref="278346192"/>
    <nd ref="278345662"/>
    <tag k="created_by" v="Potlatch 0.10f"/>
    <tag k="highway" v="residential"/>
    <tag k="source" v="yahoo"/>
  </way>
  <way id="32371557" version="3" timestamp="2009-04-12T18:14:59Z" uid="12188" user="Babis" changeset="447991">
    <nd ref="278345621"/>
    <nd ref="278346585"/>
    <nd ref="278345697"/>
    <nd ref="278345301"/>
    <nd ref="278346192"/>
    <nd ref="278345662"/>
    <tag k="created_by" v="Potlatch 0.10f"/>
    <tag k="highway" v="residential"/>
    <tag k="name" v="Αμπελακίων"/>
    <tag k="name:en" v="Ampelakion"/>
    <tag k="source" v="yahoo"/>
  </way>
  <way id="32371596" version="2" timestamp="2009-07-22T16:21:21Z" uid="74617" user="JohnSmith" changeset="1906563">
    <nd ref="364337080"/>
    <nd ref="364337082"/>
    <nd ref="364337069"/>
    <nd ref="364337065"/>
    <nd ref="364337074"/>
    <nd ref="364337072"/>
    <nd ref="364337062"/>
    <nd ref="364337067"/>
    <nd ref="360206137"/>
    <tag k="highway" v="trunk"/>
    <tag k="name" v="Olympic Highway"/>
    <tag k="ref" v="N41"/>
    <tag k="source" v="survey"/>
  </way>
  <way id="32371596" version="3" timestamp="2009-08-17T23:26:20Z" uid="18775" user="drlizau" changeset="2184344">
    <nd ref="364337080"/>
    <nd ref="364337082"/>
    <nd ref="364337069"/>
    <nd ref="364337065"/>
    <nd ref="364337074"/>
    <nd ref="364337072"/>
    <nd ref="364337062"/>
    <nd ref="364337067"/>
    <nd ref="360206137"/>
    <tag k="highway" v="trunk"/>
    <tag k="name" v="Olympic Highway"/>
    <tag k="oneway" v="yes"/>
    <tag k="ref" v="N41"/>
    <tag k="source" v="survey"/>
  </way>
  <way id="32371596" version="4" timestamp="2009-08-18T09:12:51Z" uid="18775" user="drlizau" changeset="2187378">
    <nd ref="364337080"/>
    <nd ref="364337082"/>
    <nd ref="364337069"/>
    <nd ref="364337065"/>
    <nd ref="364337074"/>
    <nd ref="364337072"/>
    <nd ref="364337062"/>
    <nd ref="364337067"/>
    <nd ref="360206137"/>
    <tag k="highway" v="trunk"/>
    <tag k="name" v="Olympic Highway"/>
    <tag k="oneway" v="yes"/>
    <tag k="source" v="survey"/>
  </way>
  <way id="32371596" version="5" timestamp="2009-12-30T13:00:56Z" uid="67896" user="mrpulley" changeset="3489371">
    <nd ref="364337080"/>
    <nd ref="364337082"/>
    <nd ref="364337069"/>
    <nd ref="364337065"/>
    <nd ref="364337074"/>
    <nd ref="364337072"/>
    <nd ref="364337062"/>
    <nd ref="364337067"/>
    <nd ref="360206137"/>
    <tag k="highway" v="trunk"/>
    <tag k="old_ref" v="NR41"/>
    <tag k="oneway" v="yes"/>
    <tag k="source" v="survey"/>
    <tag k="surface" v="asphalt"/>
  </way>
  <way id="32371596" version="6" timestamp="2010-07-29T15:47:40Z" uid="74617" user="JohnSmith" changeset="5347784">
    <nd ref="364337080"/>
    <nd ref="837653614"/>
    <nd ref="364337082"/>
    <nd ref="364337069"/>
    <nd ref="837653663"/>
    <nd ref="364337065"/>
    <nd ref="837653811"/>
    <nd ref="364337074"/>
    <nd ref="837653971"/>
    <nd ref="364337072"/>
    <nd ref="837653715"/>
    <nd ref="364337062"/>
    <tag k="highway" v="trunk"/>
    <tag k="maxspeed" v="80"/>
    <tag k="old_ref" v="NR41"/>
    <tag k="oneway" v="yes"/>
    <tag k="source" v="survey"/>
    <tag k="surface" v="asphalt"/>
  </way>
  <way id="32371596" version="7" timestamp="2012-01-18T15:04:03Z" uid="147510" user="woodpeck_fixbot" changeset="10427327">
    <nd ref="364337080"/>
    <nd ref="837653614"/>
    <nd ref="364337082"/>
    <nd ref="364337069"/>
    <nd ref="837653663"/>
    <nd ref="364337065"/>
    <nd ref="837653811"/>
    <nd ref="364337074"/>
    <nd ref="837653971"/>
    <nd ref="364337072"/>
    <nd ref="837653715"/>
    <nd ref="364337062"/>
    <tag k="highway" v="trunk"/>
    <tag k="old_ref" v="NR41"/>
    <tag k="oneway" v="yes"/>
    <tag k="source" v="survey"/>
    <tag k="surface" v="asphalt"/>
  </way>
  <way id="32371705" version="3" timestamp="2010-02-15T06:35:31Z" uid="74617" user="JohnSmith" changeset="3880421">
    <nd ref="84349936"/>
    <nd ref="364337199"/>
    <nd ref="364337201"/>
    <nd ref="161964250"/>
    <tag k="highway" v="tertiary"/>
    <tag k="name" v="King Avenue"/>
    <tag k="oneway" v="yes"/>
  </way>
  <way id="32371705" version="4" timestamp="2011-02-12T10:24:32Z" uid="4467" user="Rosscoe" changeset="7263105">
    <nd ref="84349936"/>
    <nd ref="364337201"/>
    <nd ref="161964250"/>
    <tag k="highway" v="tertiary"/>
    <tag k="name" v="King Avenue"/>
    <tag k="oneway" v="yes"/>
  </way>
  <way id="32371893" version="1" timestamp="2009-03-21T11:21:22Z" uid="12188" user="Babis" changeset="838946">
    <nd ref="364337314"/>
    <nd ref="364337005"/>
    <nd ref="270597303"/>
    <nd ref="270597311"/>
    <nd ref="270597312"/>
    <nd ref="270597313"/>
    <tag k="created_by" v="Potlatch 0.10f"/>
    <tag k="highway" v="residential"/>
  </way>
  <way id="32371893" version="2" timestamp="2009-03-21T11:22:32Z" uid="12188" user="Babis" changeset="838946">
    <nd ref="364337314"/>
    <nd ref="364337005"/>
    <nd ref="270597303"/>
    <nd ref="270597311"/>
    <nd ref="270597312"/>
    <nd ref="270597313"/>
    <tag k="created_by" v="Potlatch 0.10f"/>
    <tag k="highway" v="residential"/>
    <tag k="name" v="Μυκόνου"/>
    <tag k="source" v="GPS"/>
  </way>
  <way id="32371893" version="3" timestamp="2009-03-22T16:58:17Z" uid="12188" user="Babis" changeset="843412">
    <nd ref="364337314"/>
    <nd ref="364337005"/>
    <nd ref="270597303"/>
    <nd ref="270597311"/>
    <nd ref="270597312"/>
    <nd ref="270597313"/>
    <nd ref="364754400"/>
    <nd ref="364754375"/>
    <tag k="created_by" v="Potlatch 0.10f"/>
    <tag k="highway" v="residential"/>
    <tag k="name" v="Μυκόνου"/>
    <tag k="name:en" v="Mikonou"/>
    <tag k="source" v="GPS"/>
  </way>
  <way id="32371893" version="4" timestamp="2009-11-28T00:14:02Z" uid="23785" user="Simon Kokolakis" changeset="3232845">
    <nd ref="364337776"/>
    <nd ref="364337005"/>
    <nd ref="270597303"/>
    <nd ref="270597311"/>
    <nd ref="270597313"/>
    <nd ref="364754400"/>
    <nd ref="364754375"/>
    <tag k="highway" v="residential"/>
    <tag k="name" v="Μυκόνου"/>
    <tag k="name:en" v="Mikonou"/>
    <tag k="source" v="GPS"/>
  </way>
  <way id="32371907" version="3" timestamp="2009-08-26T09:59:05Z" uid="36809" user="pfoten_weg_!_" changeset="2265457">
    <nd ref="364337316"/>
    <nd ref="364337317"/>
    <nd ref="364337318"/>
    <nd ref="364337319"/>
    <nd ref="364337316"/>
    <tag k="building" v="yes"/>
  </way>
</osm>
