<?xml version='1.0' encoding='UTF-8'?>
<osm version="0.6" generator="libosmium/2.20.0">
  <way id="3238998" version="2" timestamp="2008-12-14T15:01:35Z" uid="6975" user="ulfl" changeset="375714">
    <nd ref="15510376"/>
    <nd ref="15510377"/>
    <nd ref="15510378"/>
    <tag k="highway" v="minor"/>
    <tag k="name" v="Kannampuzha Temple Road"/>
  </way>
  <way id="3238998" version="3" timestamp="2009-02-11T04:00:22Z" uid="35009" user="dockers" changeset="355421">
    <nd ref="15510376"/>
    <nd ref="15510377"/>
    <tag k="created_by" v="Potlatch 0.10f"/>
    <tag k="highway" v="minor"/>
    <tag k="name" v="Kannampuzha Temple Road"/>
  </way>
  <way id="3238998" version="4" timestamp="2009-02-11T04:00:37Z" uid="35009" user="dockers" changeset="355421">
    <nd ref="15510376"/>
    <nd ref="15510377"/>
    <nd ref="16619420"/>
    <nd ref="16619417"/>
    <nd ref="16619418"/>
    <nd ref="16619419"/>
    <tag k="created_by" v="Potlatch 0.10f"/>
    <tag k="highway" v="minor"/>
    <tag k="name" v="Kannampuzha Temple Road"/>
    <tag k="note" v="FIXME previously unwayed segment"/>
  </way>
  <way id="3238998" version="5" timestamp="2009-11-30T20:52:47Z" uid="4499" user="Jochen Topf" changeset="3259562">
    <nd ref="15510376"/>
    <nd ref="15510377"/>
    <nd ref="16619420"/>
    <nd ref="16619417"/>
    <nd ref="16619418"/>
    <nd ref="16619419"/>
    <tag k="highway" v="unclassified"/>
    <tag k="name" v="Kannampuzha Temple Road"/>
  </way>
</osm>
