<?xml version='1.0' encoding='UTF-8'?>
<osm version="0.6" generator="libosmium/2.20.0">
  <way id="32395021" version="3" timestamp="2011-05-08T08:05:31Z" uid="9581" user="Lobelt" changeset="8079820">
    <nd ref="364439269"/>
    <nd ref="364439500"/>
    <tag k="highway" v="track"/>
    <tag k="tracktype" v="grade3"/>
  </way>
  <way id="32395025" version="3" timestamp="2011-05-08T08:04:41Z" uid="9581" user="Lobelt" changeset="8079820">
    <nd ref="364124070"/>
    <nd ref="364439269"/>
    <tag k="highway" v="track"/>
    <tag k="tracktype" v="grade3"/>
  </way>
  <way id="32395066" version="1" timestamp="2009-03-21T18:10:23Z" uid="12188" user="Babis" changeset="839985">
    <nd ref="362656062"/>
    <nd ref="42217373"/>
    <nd ref="42217376"/>
    <nd ref="363816396"/>
    <nd ref="42217381"/>
    <nd ref="36231126"/>
    <nd ref="362594686"/>
    <nd ref="362598309"/>
    <nd ref="362599866"/>
    <nd ref="362645214"/>
    <nd ref="42217383"/>
    <nd ref="42217385"/>
    <nd ref="288197109"/>
    <nd ref="42217388"/>
    <tag k="created_by" v="Potlatch 0.10f"/>
    <tag k="highway" v="residential"/>
    <tag k="name" v="Menelaou"/>
  </way>
  <way id="32395066" version="2" timestamp="2009-03-21T18:11:12Z" uid="12188" user="Babis" changeset="839985">
    <nd ref="356632900"/>
    <nd ref="356633032"/>
    <nd ref="356633033"/>
    <nd ref="363787255"/>
    <nd ref="362583787"/>
    <nd ref="356633035"/>
    <nd ref="363787094"/>
    <nd ref="356633036"/>
    <nd ref="363818321"/>
    <nd ref="363818843"/>
    <nd ref="356633030"/>
    <nd ref="363819291"/>
    <nd ref="362656032"/>
    <nd ref="362656036"/>
    <nd ref="42223606"/>
    <nd ref="362656062"/>
    <nd ref="42217373"/>
    <nd ref="42217376"/>
    <nd ref="363816396"/>
    <nd ref="42217381"/>
    <nd ref="36231126"/>
    <nd ref="362594686"/>
    <nd ref="362598309"/>
    <nd ref="362599866"/>
    <nd ref="362645214"/>
    <nd ref="42217383"/>
    <nd ref="42217385"/>
    <nd ref="288197109"/>
    <nd ref="42217388"/>
    <tag k="created_by" v="Potlatch 0.10f"/>
    <tag k="highway" v="residential"/>
    <tag k="name" v="Μενελάου"/>
    <tag k="name:en" v="Menelaou"/>
    <tag k="source" v="GPS"/>
  </way>
  <way id="32395066" version="3" timestamp="2009-11-28T00:08:25Z" uid="23785" user="Simon Kokolakis" changeset="3232845">
    <nd ref="356632900"/>
    <nd ref="356633032"/>
    <nd ref="356633033"/>
    <nd ref="363787255"/>
    <nd ref="362583787"/>
    <nd ref="356633035"/>
    <nd ref="363787094"/>
    <nd ref="356633036"/>
    <nd ref="363818321"/>
    <nd ref="363818843"/>
    <nd ref="356633030"/>
    <nd ref="363819291"/>
    <nd ref="362656032"/>
    <nd ref="362656036"/>
    <nd ref="42223606"/>
    <nd ref="362656062"/>
    <nd ref="42217373"/>
    <nd ref="42217376"/>
    <nd ref="363816396"/>
    <nd ref="42217381"/>
    <nd ref="36231126"/>
    <nd ref="362594686"/>
    <nd ref="362598309"/>
    <nd ref="362599866"/>
    <nd ref="362645214"/>
    <nd ref="42217383"/>
    <nd ref="572677096"/>
    <nd ref="42217385"/>
    <nd ref="288197109"/>
    <nd ref="42217388"/>
    <tag k="highway" v="residential"/>
    <tag k="name" v="Μενελάου"/>
    <tag k="name:en" v="Menelaou"/>
    <tag k="source" v="GPS"/>
  </way>
  <way id="32395066" version="4" timestamp="2009-11-28T00:10:20Z" uid="23785" user="Simon Kokolakis" changeset="3232845">
    <nd ref="356632900"/>
    <nd ref="356633032"/>
    <nd ref="356633033"/>
    <nd ref="363787255"/>
    <nd ref="362583787"/>
    <nd ref="356633035"/>
    <nd ref="363787094"/>
    <nd ref="356633036"/>
    <nd ref="363818321"/>
    <nd ref="363818843"/>
    <nd ref="356633030"/>
    <nd ref="363819291"/>
    <nd ref="362656032"/>
    <nd ref="362656036"/>
    <nd ref="42223606"/>
    <nd ref="362656062"/>
    <nd ref="42217373"/>
    <nd ref="42217376"/>
    <nd ref="363816396"/>
    <nd ref="42217381"/>
    <nd ref="36231126"/>
    <nd ref="362594686"/>
    <nd ref="362598309"/>
    <nd ref="362599866"/>
    <nd ref="362645214"/>
    <nd ref="572679111"/>
    <nd ref="42217383"/>
    <nd ref="572677096"/>
    <nd ref="42217385"/>
    <nd ref="288197109"/>
    <nd ref="42217388"/>
    <tag k="highway" v="residential"/>
    <tag k="name" v="Μενελάου"/>
    <tag k="name:en" v="Menelaou"/>
    <tag k="source" v="GPS"/>
  </way>
  <way id="32395071" version="2" timestamp="2011-05-08T08:06:52Z" uid="9581" user="Lobelt" changeset="8079820">
    <nd ref="331196492"/>
    <nd ref="255129870"/>
    <tag k="highway" v="track"/>
    <tag k="tracktype" v="grade4"/>
  </way>
  <way id="32395126" version="1" timestamp="2009-03-21T18:12:55Z" uid="12188" user="Babis" changeset="839985">
    <nd ref="36231608"/>
    <nd ref="364441021"/>
    <nd ref="364441023"/>
    <tag k="created_by" v="Potlatch 0.10f"/>
  </way>
  <way id="32395126" version="2" timestamp="2009-03-21T18:13:46Z" uid="12188" user="Babis" changeset="839985">
    <nd ref="364441023"/>
    <nd ref="364441021"/>
    <nd ref="36231608"/>
    <tag k="created_by" v="Potlatch 0.10f"/>
    <tag k="highway" v="residential"/>
    <tag k="name" v="Σκουφά"/>
    <tag k="name:en" v="Skoufa"/>
    <tag k="oneway" v="yes"/>
    <tag k="source" v="Yahoo"/>
  </way>
  <way id="32395126" version="3" timestamp="2009-03-21T18:25:05Z" uid="12188" user="Babis" changeset="839985">
    <nd ref="364441023"/>
    <nd ref="364446426"/>
    <nd ref="364441021"/>
    <nd ref="36231608"/>
    <tag k="created_by" v="Potlatch 0.10f"/>
    <tag k="highway" v="residential"/>
    <tag k="name" v="Σκουφά"/>
    <tag k="name:en" v="Skoufa"/>
    <tag k="oneway" v="yes"/>
    <tag k="source" v="Yahoo"/>
  </way>
  <way id="32395126" version="4" timestamp="2009-03-21T18:42:08Z" uid="12188" user="Babis" changeset="839985">
    <nd ref="364441023"/>
    <nd ref="364446426"/>
    <nd ref="364441021"/>
    <nd ref="364453177"/>
    <nd ref="36231608"/>
    <tag k="created_by" v="Potlatch 0.10f"/>
    <tag k="highway" v="residential"/>
    <tag k="name" v="Σκουφά"/>
    <tag k="name:en" v="Skoufa"/>
    <tag k="oneway" v="yes"/>
    <tag k="source" v="Yahoo"/>
  </way>
  <way id="32395126" version="5" timestamp="2009-09-11T21:43:46Z" uid="51324" user="OPerivar" changeset="2452248">
    <nd ref="364441023"/>
    <nd ref="364446426"/>
    <nd ref="364441021"/>
    <nd ref="364453177"/>
    <nd ref="493845154"/>
    <nd ref="36231608"/>
    <tag k="highway" v="residential"/>
    <tag k="name" v="Σκουφά"/>
    <tag k="name:en" v="Skoufa"/>
    <tag k="oneway" v="yes"/>
    <tag k="source" v="Yahoo"/>
  </way>
  <way id="32395126" version="6" timestamp="2011-03-20T19:10:41Z" uid="23785" user="greecemapper" changeset="7620407">
    <nd ref="364441023"/>
    <nd ref="1210930610"/>
    <nd ref="364446426"/>
    <nd ref="364441021"/>
    <nd ref="364453177"/>
    <nd ref="493845154"/>
    <nd ref="36231608"/>
    <tag k="highway" v="residential"/>
    <tag k="name" v="Σκουφά"/>
    <tag k="name:en" v="Skoufa"/>
    <tag k="oneway" v="yes"/>
    <tag k="source" v="Yahoo"/>
  </way>
  <way id="32395217" version="1" timestamp="2009-03-21T18:15:02Z" uid="12188" user="Babis" changeset="839985">
    <nd ref="364442061"/>
    <nd ref="364305280"/>
    <nd ref="364442063"/>
    <tag k="created_by" v="Potlatch 0.10f"/>
    <tag k="highway" v="residential"/>
    <tag k="name" v="Τριπόλεως"/>
    <tag k="name:en" v="Tripoleos"/>
    <tag k="source" v="Yahoo"/>
  </way>
  <way id="32395217" version="2" timestamp="2009-03-21T18:15:15Z" uid="12188" user="Babis" changeset="839985">
    <nd ref="364442111"/>
    <nd ref="364305280"/>
    <nd ref="364442063"/>
    <tag k="created_by" v="Potlatch 0.10f"/>
    <tag k="highway" v="residential"/>
    <tag k="name" v="Τριπόλεως"/>
    <tag k="name:en" v="Tripoleos"/>
    <tag k="source" v="Yahoo"/>
  </way>
  <way id="32395217" version="3" timestamp="2009-03-21T18:42:05Z" uid="12188" user="Babis" changeset="839985">
    <nd ref="364442111"/>
    <nd ref="364305280"/>
    <nd ref="364453161"/>
    <nd ref="364442063"/>
    <tag k="created_by" v="Potlatch 0.10f"/>
    <tag k="highway" v="residential"/>
    <tag k="name" v="Τριπόλεως"/>
    <tag k="name:en" v="Tripoleos"/>
    <tag k="source" v="Yahoo"/>
  </way>
  <way id="32395217" version="4" timestamp="2009-09-11T21:43:45Z" uid="51324" user="OPerivar" changeset="2452248">
    <nd ref="364442111"/>
    <nd ref="364305280"/>
    <nd ref="493845153"/>
    <nd ref="364453161"/>
    <nd ref="364442063"/>
    <tag k="highway" v="residential"/>
    <tag k="name" v="Τριπόλεως"/>
    <tag k="name:en" v="Tripoleos"/>
    <tag k="source" v="Yahoo"/>
  </way>
  <way id="32395217" version="5" timestamp="2011-03-20T19:09:58Z" uid="23785" user="greecemapper" changeset="7620407">
    <nd ref="364442111"/>
    <nd ref="1210931033"/>
    <nd ref="364305280"/>
    <nd ref="493845153"/>
    <nd ref="364453161"/>
    <nd ref="364442063"/>
    <tag k="highway" v="residential"/>
    <tag k="name" v="Τριπόλεως"/>
    <tag k="name:en" v="Tripoleos"/>
    <tag k="source" v="Yahoo"/>
  </way>
  <way id="32395228" version="1" timestamp="2009-03-21T18:15:44Z" uid="49111" user="Markus B" changeset="839436">
    <nd ref="357370966"/>
    <nd ref="312896509"/>
    <nd ref="312896510"/>
    <nd ref="312896511"/>
    <tag k="created_by" v="JOSM"/>
    <tag k="foot" v="yes"/>
    <tag k="highway" v="path"/>
    <tag k="sac_scale" v="mountain_hiking"/>
    <tag k="surface" v="unpaved"/>
    <tag k="tracktype" v="grade3"/>
  </way>
  <way id="32395228" version="2" timestamp="2010-03-26T09:12:42Z" uid="82877" user="Wankmann" changeset="4235818">
    <nd ref="357370966"/>
    <nd ref="312896509"/>
    <nd ref="312896510"/>
    <nd ref="312896511"/>
    <tag k="foot" v="yes"/>
    <tag k="highway" v="path"/>
    <tag k="sac_scale" v="mountain_hiking"/>
    <tag k="surface" v="unpaved"/>
    <tag k="tracktype" v="grade3"/>
  </way>
  <way id="32395228" version="3" timestamp="2010-04-04T15:28:23Z" uid="49111" user="Markus B" changeset="4323677">
    <nd ref="357370966"/>
    <nd ref="312896509"/>
    <nd ref="312896511"/>
    <tag k="foot" v="yes"/>
    <tag k="highway" v="path"/>
    <tag k="sac_scale" v="mountain_hiking"/>
    <tag k="surface" v="unpaved"/>
    <tag k="tracktype" v="grade3"/>
  </way>
  <way id="32395228" version="4" timestamp="2010-09-12T18:53:39Z" uid="82877" user="Wankmann" changeset="5763043">
    <nd ref="357370966"/>
    <nd ref="312896509"/>
    <nd ref="909039515"/>
    <nd ref="312896511"/>
    <tag k="foot" v="yes"/>
    <tag k="highway" v="path"/>
    <tag k="sac_scale" v="mountain_hiking"/>
    <tag k="surface" v="unpaved"/>
    <tag k="tracktype" v="grade3"/>
  </way>
  <way id="32395229" version="1" timestamp="2009-03-21T18:15:45Z" uid="49111" user="Markus B" changeset="839436">
    <nd ref="357370966"/>
    <nd ref="278776420"/>
    <tag k="created_by" v="Potlatch 0.9c"/>
    <tag k="highway" v="track"/>
    <tag k="tracktype" v="grade3"/>
  </way>
  <way id="32395229" version="2" timestamp="2010-03-27T13:05:35Z" uid="82877" user="Wankmann" changeset="4246274"/>
  <way id="32395230" version="1" timestamp="2009-03-21T18:15:46Z" uid="49111" user="Markus B" changeset="839436">
    <nd ref="60342370"/>
    <nd ref="290753703"/>
    <nd ref="276681396"/>
    <nd ref="278825804"/>
    <tag k="created_by" v="Potlatch 0.9c"/>
    <tag k="highway" v="secondary"/>
    <tag k="name" v="Nürnberger Straße"/>
    <tag k="ref" v="St 2241"/>
  </way>
  <way id="32395230" version="2" timestamp="2010-06-06T09:35:54Z" uid="118011" user="TheoryBug" changeset="4915815">
    <nd ref="60342370"/>
    <nd ref="290753703"/>
    <nd ref="276681396"/>
    <nd ref="278825804"/>
    <tag k="highway" v="secondary"/>
    <tag k="name" v="Nürnberger Straße"/>
    <tag k="ref" v="St 2241"/>
  </way>
  <way id="32395230" version="3" timestamp="2011-01-30T12:41:20Z" uid="82877" user="Wankmann" changeset="7133488">
    <nd ref="60342370"/>
    <nd ref="290753703"/>
    <nd ref="1127853021"/>
    <nd ref="276681396"/>
    <nd ref="1127852921"/>
    <nd ref="1127853123"/>
    <nd ref="278825804"/>
    <tag k="highway" v="secondary"/>
    <tag k="name" v="Nürnberger Straße"/>
    <tag k="ref" v="St 2241"/>
  </way>
  <way id="32395230" version="4" timestamp="2011-12-11T08:19:48Z" uid="82877" user="Wankmann" changeset="10087172">
    <nd ref="60342370"/>
    <nd ref="1540425525"/>
    <nd ref="290753703"/>
    <nd ref="1127853021"/>
    <nd ref="276681396"/>
    <nd ref="1127852921"/>
    <nd ref="1127853123"/>
    <nd ref="278825804"/>
    <tag k="highway" v="secondary"/>
    <tag k="name" v="Nürnberger Straße"/>
    <tag k="ref" v="St 2241"/>
  </way>
  <way id="32395252" version="1" timestamp="2009-03-21T18:16:23Z" uid="12188" user="Babis" changeset="839985">
    <nd ref="36231609"/>
    <nd ref="364442599"/>
    <nd ref="364442602"/>
    <tag k="created_by" v="Potlatch 0.10f"/>
    <tag k="highway" v="residential"/>
    <tag k="name" v="Τριπόλεως"/>
    <tag k="name:en" v="Tripoleos"/>
    <tag k="source" v="Yahoo"/>
  </way>
  <way id="32395252" version="2" timestamp="2009-03-21T18:19:18Z" uid="12188" user="Babis" changeset="839985">
    <nd ref="36231609"/>
    <nd ref="364442599"/>
    <nd ref="364442602"/>
    <tag k="created_by" v="Potlatch 0.10f"/>
    <tag k="highway" v="residential"/>
    <tag k="name" v="Οδυσσέα Ανδρούτσου"/>
    <tag k="name:en" v="Odissea Androutsou"/>
    <tag k="oneway" v="yes"/>
    <tag k="source" v="Yahoo"/>
  </way>
  <way id="32395252" version="3" timestamp="2009-03-21T18:42:02Z" uid="12188" user="Babis" changeset="839985">
    <nd ref="36231609"/>
    <nd ref="364442599"/>
    <nd ref="364453142"/>
    <nd ref="364442602"/>
    <tag k="created_by" v="Potlatch 0.10f"/>
    <tag k="highway" v="residential"/>
    <tag k="name" v="Οδυσσέα Ανδρούτσου"/>
    <tag k="name:en" v="Odissea Androutsou"/>
    <tag k="oneway" v="yes"/>
    <tag k="source" v="Yahoo"/>
  </way>
  <way id="32395252" version="4" timestamp="2009-09-11T21:43:44Z" uid="51324" user="OPerivar" changeset="2452248">
    <nd ref="36231609"/>
    <nd ref="364442599"/>
    <nd ref="493845152"/>
    <nd ref="364453142"/>
    <nd ref="364442602"/>
    <tag k="highway" v="residential"/>
    <tag k="name" v="Οδυσσέα Ανδρούτσου"/>
    <tag k="name:en" v="Odissea Androutsou"/>
    <tag k="oneway" v="yes"/>
    <tag k="source" v="Yahoo"/>
  </way>
  <way id="32395268" version="1" timestamp="2009-03-21T18:16:44Z" uid="12188" user="Babis" changeset="839985">
    <nd ref="36231609"/>
    <nd ref="36231610"/>
    <tag k="created_by" v="Potlatch 0.10f"/>
    <tag k="highway" v="secondary"/>
    <tag k="name" v="Ag. Dimitriou"/>
  </way>
  <way id="32395268" version="2" timestamp="2009-03-21T18:17:02Z" uid="12188" user="Babis" changeset="839985"/>
  <way id="32395270" version="1" timestamp="2009-03-21T18:16:45Z" uid="12188" user="Babis" changeset="839985">
    <nd ref="36231610"/>
    <nd ref="358064461"/>
    <nd ref="36231611"/>
    <nd ref="278346688"/>
    <nd ref="36231612"/>
    <nd ref="358101438"/>
    <nd ref="36231613"/>
    <nd ref="270597255"/>
    <nd ref="36231614"/>
    <nd ref="270597297"/>
    <nd ref="270597280"/>
    <nd ref="270597303"/>
    <nd ref="270597107"/>
    <nd ref="36231616"/>
    <nd ref="278345701"/>
    <nd ref="36231617"/>
    <nd ref="36231618"/>
    <nd ref="36231619"/>
    <nd ref="316444387"/>
    <nd ref="316444454"/>
    <nd ref="36231620"/>
    <nd ref="250928768"/>
    <nd ref="280303888"/>
    <nd ref="36231621"/>
    <nd ref="280303583"/>
    <nd ref="280303889"/>
    <nd ref="26735122"/>
    <nd ref="26735135"/>
    <tag k="created_by" v="Potlatch 0.10f"/>
    <tag k="highway" v="secondary"/>
    <tag k="name" v="Ag. Dimitriou"/>
  </way>
  <way id="32395270" version="2" timestamp="2009-04-12T17:21:08Z" uid="12188" user="Babis" changeset="447991">
    <nd ref="36231610"/>
    <nd ref="358064461"/>
    <nd ref="36231611"/>
    <nd ref="278346688"/>
    <nd ref="36231612"/>
    <nd ref="358101438"/>
    <nd ref="36231613"/>
    <nd ref="270597255"/>
    <nd ref="36231614"/>
    <nd ref="270597297"/>
    <nd ref="270597280"/>
    <nd ref="270597303"/>
    <nd ref="270597107"/>
    <nd ref="36231616"/>
    <nd ref="278345701"/>
    <nd ref="36231617"/>
    <nd ref="36231618"/>
    <nd ref="36231619"/>
    <nd ref="316444387"/>
    <nd ref="373376209"/>
    <nd ref="316444454"/>
    <nd ref="36231620"/>
    <nd ref="250928768"/>
    <nd ref="280303888"/>
    <nd ref="36231621"/>
    <nd ref="280303583"/>
    <nd ref="280303889"/>
    <nd ref="26735122"/>
    <nd ref="26735135"/>
    <tag k="created_by" v="Potlatch 0.10f"/>
    <tag k="highway" v="secondary"/>
    <tag k="name" v="Ag. Dimitriou"/>
  </way>
  <way id="32395270" version="3" timestamp="2009-04-12T18:12:00Z" uid="12188" user="Babis" changeset="447991">
    <nd ref="36231610"/>
    <nd ref="358064461"/>
    <nd ref="36231611"/>
    <nd ref="278346688"/>
    <nd ref="36231612"/>
    <nd ref="358101438"/>
    <nd ref="36231613"/>
    <nd ref="270597255"/>
    <nd ref="36231614"/>
    <nd ref="270597297"/>
    <nd ref="270597280"/>
    <nd ref="270597303"/>
    <nd ref="373399543"/>
    <nd ref="270597107"/>
    <nd ref="36231616"/>
    <nd ref="278345701"/>
    <nd ref="36231617"/>
    <nd ref="36231618"/>
    <nd ref="36231619"/>
    <nd ref="316444387"/>
    <nd ref="373376209"/>
    <nd ref="316444454"/>
    <nd ref="36231620"/>
    <nd ref="250928768"/>
    <nd ref="280303888"/>
    <nd ref="36231621"/>
    <nd ref="280303583"/>
    <nd ref="280303889"/>
    <nd ref="26735122"/>
    <nd ref="26735135"/>
    <tag k="created_by" v="Potlatch 0.10f"/>
    <tag k="highway" v="secondary"/>
    <tag k="name" v="Ag. Dimitriou"/>
  </way>
  <way id="32395270" version="4" timestamp="2009-06-08T08:18:44Z" uid="12188" user="Babis" changeset="1456233">
    <nd ref="36231610"/>
    <nd ref="358064461"/>
    <nd ref="36231611"/>
    <nd ref="278346688"/>
    <nd ref="36231612"/>
    <nd ref="358101438"/>
    <nd ref="36231613"/>
    <nd ref="270597255"/>
    <nd ref="36231614"/>
    <nd ref="270597297"/>
    <nd ref="270597280"/>
    <nd ref="270597303"/>
    <nd ref="373399543"/>
    <nd ref="270597107"/>
    <nd ref="36231616"/>
    <nd ref="278345701"/>
    <nd ref="36231617"/>
    <nd ref="36231618"/>
    <nd ref="417289839"/>
    <nd ref="36231619"/>
    <nd ref="316444387"/>
    <nd ref="373376209"/>
    <nd ref="316444454"/>
    <nd ref="36231620"/>
    <nd ref="250928768"/>
    <nd ref="280303888"/>
    <nd ref="36231621"/>
    <nd ref="280303583"/>
    <nd ref="280303889"/>
    <nd ref="26735122"/>
    <nd ref="26735135"/>
    <tag k="created_by" v="Potlatch 0.10f"/>
    <tag k="highway" v="secondary"/>
    <tag k="name" v="Ag. Dimitriou"/>
  </way>
  <way id="32395270" version="5" timestamp="2009-09-11T21:43:45Z" uid="51324" user="OPerivar" changeset="2452248">
    <nd ref="36231610"/>
    <nd ref="358064461"/>
    <nd ref="36231611"/>
    <nd ref="278346688"/>
    <nd ref="36231612"/>
    <nd ref="358101438"/>
    <nd ref="36231613"/>
    <nd ref="270597255"/>
    <nd ref="36231614"/>
    <nd ref="270597297"/>
    <nd ref="270597280"/>
    <nd ref="270597303"/>
    <nd ref="373399543"/>
    <nd ref="373384195"/>
    <nd ref="270597107"/>
    <nd ref="373384244"/>
    <nd ref="36231616"/>
    <nd ref="278345701"/>
    <nd ref="36231617"/>
    <nd ref="36231618"/>
    <nd ref="417289839"/>
    <nd ref="36231619"/>
    <nd ref="316444387"/>
    <nd ref="373376209"/>
    <nd ref="316444454"/>
    <nd ref="36231620"/>
    <nd ref="250928768"/>
    <nd ref="280303888"/>
    <nd ref="36231621"/>
    <nd ref="280303583"/>
    <nd ref="280303889"/>
    <nd ref="26735122"/>
    <nd ref="26735135"/>
    <tag k="highway" v="secondary"/>
    <tag k="name" v="Ag. Dimitriou"/>
  </way>
  <way id="32395270" version="6" timestamp="2009-10-03T08:22:19Z" uid="12188" user="Babis" changeset="2720585">
    <nd ref="36231610"/>
    <nd ref="358064461"/>
    <nd ref="36231611"/>
    <nd ref="278346688"/>
    <nd ref="36231612"/>
    <nd ref="358101438"/>
    <nd ref="36231613"/>
    <nd ref="270597255"/>
    <nd ref="36231614"/>
    <nd ref="270597297"/>
    <nd ref="270597280"/>
    <nd ref="270597303"/>
    <nd ref="373399543"/>
    <nd ref="373384195"/>
    <nd ref="270597107"/>
    <nd ref="373384244"/>
    <nd ref="36231616"/>
    <nd ref="278345701"/>
    <nd ref="36231617"/>
    <nd ref="36231618"/>
    <nd ref="417289839"/>
    <nd ref="36231619"/>
    <nd ref="316444387"/>
    <nd ref="373376209"/>
    <nd ref="316444454"/>
    <nd ref="36231620"/>
    <nd ref="250928768"/>
    <nd ref="518470925"/>
    <nd ref="280303888"/>
    <nd ref="36231621"/>
    <nd ref="280303583"/>
    <nd ref="280303889"/>
    <nd ref="26735122"/>
    <nd ref="26735135"/>
    <tag k="highway" v="secondary"/>
    <tag k="name" v="Ag. Dimitriou"/>
  </way>
  <way id="32395270" version="7" timestamp="2009-10-03T08:32:17Z" uid="12188" user="Babis" changeset="2720585">
    <nd ref="36231610"/>
    <nd ref="358064461"/>
    <nd ref="36231611"/>
    <nd ref="278346688"/>
    <nd ref="36231612"/>
    <nd ref="358101438"/>
    <nd ref="36231613"/>
    <nd ref="270597255"/>
    <nd ref="36231614"/>
    <nd ref="270597297"/>
    <nd ref="270597280"/>
    <nd ref="270597303"/>
    <nd ref="373399543"/>
    <nd ref="373384195"/>
    <nd ref="270597107"/>
    <nd ref="373384244"/>
    <nd ref="36231616"/>
    <nd ref="278345701"/>
    <nd ref="36231617"/>
    <nd ref="36231618"/>
    <nd ref="417289839"/>
    <nd ref="36231619"/>
    <nd ref="316444387"/>
    <nd ref="373376209"/>
    <nd ref="316444454"/>
    <nd ref="518482795"/>
    <nd ref="36231620"/>
    <nd ref="250928768"/>
    <nd ref="518470925"/>
    <nd ref="280303888"/>
    <nd ref="36231621"/>
    <nd ref="280303583"/>
    <nd ref="280303889"/>
    <nd ref="26735122"/>
    <nd ref="26735135"/>
    <tag k="highway" v="secondary"/>
    <tag k="name" v="Ag. Dimitriou"/>
  </way>
  <way id="32395270" version="8" timestamp="2009-10-03T08:39:50Z" uid="12188" user="Babis" changeset="2720585">
    <nd ref="36231610"/>
    <nd ref="358064461"/>
    <nd ref="36231611"/>
    <nd ref="278346688"/>
    <nd ref="36231612"/>
    <nd ref="358101438"/>
    <nd ref="36231613"/>
    <nd ref="270597255"/>
    <nd ref="36231614"/>
    <nd ref="270597297"/>
    <nd ref="270597280"/>
    <nd ref="270597303"/>
    <nd ref="373399543"/>
    <nd ref="373384195"/>
    <nd ref="270597107"/>
    <nd ref="373384244"/>
    <nd ref="36231616"/>
    <nd ref="278345701"/>
    <nd ref="36231617"/>
    <nd ref="36231618"/>
    <nd ref="417289839"/>
    <nd ref="36231619"/>
    <nd ref="316444387"/>
    <nd ref="373376209"/>
    <nd ref="316444454"/>
    <nd ref="518482795"/>
    <nd ref="36231620"/>
    <nd ref="250928768"/>
    <nd ref="518470925"/>
    <nd ref="280303888"/>
    <nd ref="518493157"/>
    <nd ref="36231621"/>
    <nd ref="280303583"/>
    <nd ref="280303889"/>
    <nd ref="26735122"/>
    <nd ref="26735135"/>
    <tag k="highway" v="secondary"/>
    <tag k="name" v="Ag. Dimitriou"/>
  </way>
  <way id="32395270" version="9" timestamp="2009-11-16T14:21:00Z" uid="23785" user="Simon Kokolakis" changeset="3132107"/>
  <way id="32395301" version="1" timestamp="2009-03-21T18:17:41Z" uid="12188" user="Babis" changeset="839985">
    <nd ref="36231609"/>
    <nd ref="36231610"/>
    <nd ref="358064461"/>
    <nd ref="36231611"/>
    <nd ref="278346688"/>
    <nd ref="36231612"/>
    <nd ref="358101438"/>
    <nd ref="36231613"/>
    <nd ref="270597255"/>
    <nd ref="36231614"/>
    <nd ref="270597297"/>
    <nd ref="270597280"/>
    <nd ref="270597303"/>
    <nd ref="270597107"/>
    <nd ref="36231616"/>
    <nd ref="278345701"/>
    <nd ref="36231617"/>
    <nd ref="36231618"/>
    <nd ref="36231619"/>
    <nd ref="316444387"/>
    <nd ref="316444454"/>
    <nd ref="36231620"/>
    <nd ref="250928768"/>
    <nd ref="280303888"/>
    <nd ref="36231621"/>
    <nd ref="280303583"/>
    <nd ref="280303889"/>
    <nd ref="26735122"/>
    <nd ref="26735135"/>
    <tag k="created_by" v="Potlatch 0.10f"/>
    <tag k="highway" v="secondary"/>
    <tag k="name" v="Αγίου Δημητρίου"/>
    <tag k="name:en" v="Agiou Dimitiou"/>
    <tag k="source" v="GPS"/>
  </way>
  <way id="32395301" version="2" timestamp="2009-03-21T18:17:58Z" uid="12188" user="Babis" changeset="839985">
    <nd ref="36231609"/>
    <nd ref="36231610"/>
    <tag k="created_by" v="Potlatch 0.10f"/>
    <tag k="highway" v="secondary"/>
    <tag k="layer" v="1"/>
    <tag k="name" v="Αγίου Δημητρίου"/>
    <tag k="name:en" v="Agiou Dimitiou"/>
    <tag k="source" v="GPS"/>
  </way>
  <way id="32395309" version="1" timestamp="2009-03-21T18:17:52Z" uid="12188" user="Babis" changeset="839985">
    <nd ref="36231610"/>
    <nd ref="358064461"/>
    <nd ref="36231611"/>
    <nd ref="278346688"/>
    <nd ref="36231612"/>
    <nd ref="358101438"/>
    <nd ref="36231613"/>
    <nd ref="270597255"/>
    <nd ref="36231614"/>
    <nd ref="270597297"/>
    <nd ref="270597280"/>
    <nd ref="270597303"/>
    <nd ref="270597107"/>
    <nd ref="36231616"/>
    <nd ref="278345701"/>
    <nd ref="36231617"/>
    <nd ref="36231618"/>
    <nd ref="36231619"/>
    <nd ref="316444387"/>
    <nd ref="316444454"/>
    <nd ref="36231620"/>
    <nd ref="250928768"/>
    <nd ref="280303888"/>
    <nd ref="36231621"/>
    <nd ref="280303583"/>
    <nd ref="280303889"/>
    <nd ref="26735122"/>
    <nd ref="26735135"/>
    <tag k="created_by" v="Potlatch 0.10f"/>
    <tag k="highway" v="secondary"/>
    <tag k="name" v="Αγίου Δημητρίου"/>
    <tag k="name:en" v="Agiou Dimitiou"/>
    <tag k="source" v="GPS"/>
  </way>
  <way id="32395309" version="2" timestamp="2009-09-11T21:43:47Z" uid="51324" user="OPerivar" changeset="2452248">
    <nd ref="36231610"/>
    <nd ref="358064461"/>
    <nd ref="36231611"/>
    <nd ref="278346688"/>
    <nd ref="36231612"/>
    <nd ref="358101438"/>
    <nd ref="36231613"/>
    <nd ref="270597255"/>
    <nd ref="36231614"/>
    <nd ref="270597297"/>
    <nd ref="270597280"/>
    <nd ref="270597303"/>
    <nd ref="373384195"/>
    <nd ref="270597107"/>
    <nd ref="373384244"/>
    <nd ref="36231616"/>
    <nd ref="278345701"/>
    <nd ref="36231617"/>
    <nd ref="36231618"/>
    <nd ref="36231619"/>
    <nd ref="316444387"/>
    <nd ref="316444454"/>
    <nd ref="36231620"/>
    <nd ref="250928768"/>
    <nd ref="280303888"/>
    <nd ref="36231621"/>
    <nd ref="280303583"/>
    <nd ref="280303889"/>
    <nd ref="26735122"/>
    <nd ref="26735135"/>
    <tag k="highway" v="secondary"/>
    <tag k="name" v="Αγίου Δημητρίου"/>
    <tag k="name:en" v="Agiou Dimitiou"/>
    <tag k="source" v="GPS"/>
  </way>
  <way id="32395309" version="3" timestamp="2009-11-16T14:20:56Z" uid="23785" user="Simon Kokolakis" changeset="3132107">
    <nd ref="36231610"/>
    <nd ref="358064461"/>
    <nd ref="36231611"/>
    <nd ref="278346688"/>
    <nd ref="358101438"/>
    <nd ref="36231613"/>
    <nd ref="270597255"/>
    <nd ref="36231614"/>
    <nd ref="270597297"/>
    <nd ref="270597280"/>
    <nd ref="270597303"/>
    <nd ref="565471096"/>
    <nd ref="373384195"/>
    <nd ref="270597107"/>
    <nd ref="373384244"/>
    <nd ref="36231616"/>
    <nd ref="278345701"/>
    <nd ref="36231617"/>
    <nd ref="36231618"/>
    <nd ref="36231619"/>
    <nd ref="316444387"/>
    <nd ref="565471090"/>
    <nd ref="316444454"/>
    <nd ref="565471101"/>
    <nd ref="250928768"/>
    <nd ref="565471102"/>
    <nd ref="280303888"/>
    <nd ref="565471103"/>
    <nd ref="36231621"/>
    <nd ref="280303583"/>
    <nd ref="280303889"/>
    <nd ref="26735122"/>
    <nd ref="26735135"/>
    <tag k="highway" v="secondary"/>
    <tag k="name" v="Αγίου Δημητρίου"/>
    <tag k="name:en" v="Agiou Dimitiou"/>
    <tag k="source" v="GPS"/>
  </way>
  <way id="32395309" version="4" timestamp="2009-12-24T23:55:32Z" uid="23785" user="Simon Kokolakis" changeset="3445591">
    <nd ref="36231610"/>
    <nd ref="358064461"/>
    <nd ref="36231611"/>
    <nd ref="278346688"/>
    <nd ref="358101438"/>
    <nd ref="36231613"/>
    <nd ref="270597255"/>
    <nd ref="36231614"/>
    <nd ref="270597297"/>
    <nd ref="270597280"/>
    <nd ref="270597303"/>
    <nd ref="565471096"/>
    <nd ref="373384195"/>
    <nd ref="270597107"/>
    <nd ref="373384244"/>
    <nd ref="36231616"/>
    <nd ref="278345701"/>
    <nd ref="36231617"/>
    <nd ref="36231618"/>
    <nd ref="36231619"/>
    <nd ref="316444387"/>
    <nd ref="565471090"/>
    <nd ref="316444454"/>
    <nd ref="565471101"/>
    <nd ref="250928768"/>
    <nd ref="565471102"/>
    <nd ref="280303888"/>
    <nd ref="565471103"/>
    <nd ref="36231621"/>
    <nd ref="280303583"/>
    <nd ref="280303889"/>
    <nd ref="26735122"/>
    <tag k="highway" v="secondary"/>
    <tag k="name" v="Αγίου Δημητρίου"/>
    <tag k="name:en" v="Agiou Dimitiou"/>
    <tag k="source" v="GPS"/>
  </way>
  <way id="32395309" version="5" timestamp="2010-06-26T07:54:04Z" uid="23785" user="Simon Kokolakis" changeset="5078990">
    <nd ref="36231610"/>
    <nd ref="358064461"/>
    <nd ref="36231611"/>
    <nd ref="278346688"/>
    <nd ref="358101438"/>
    <nd ref="36231613"/>
    <nd ref="270597255"/>
    <nd ref="790814458"/>
    <nd ref="270597297"/>
    <nd ref="270597280"/>
    <nd ref="270597303"/>
    <nd ref="565471096"/>
    <nd ref="373384195"/>
    <nd ref="270597107"/>
    <nd ref="373384244"/>
    <nd ref="36231616"/>
    <nd ref="278345701"/>
    <nd ref="36231617"/>
    <nd ref="36231618"/>
    <nd ref="36231619"/>
    <nd ref="316444387"/>
    <nd ref="565471090"/>
    <nd ref="316444454"/>
    <nd ref="565471101"/>
    <nd ref="250928768"/>
    <nd ref="565471102"/>
    <nd ref="280303888"/>
    <nd ref="565471103"/>
    <nd ref="36231621"/>
    <nd ref="280303583"/>
    <nd ref="280303889"/>
    <nd ref="26735122"/>
    <tag k="highway" v="secondary"/>
    <tag k="name" v="Αγίου Δημητρίου"/>
    <tag k="name:en" v="Agiou Dimitiou"/>
    <tag k="source" v="GPS"/>
  </way>
  <way id="32395309" version="6" timestamp="2010-10-08T01:18:37Z" uid="23785" user="greecemapper" changeset="5982777">
    <nd ref="36231610"/>
    <nd ref="358064461"/>
    <nd ref="36231611"/>
    <nd ref="278346688"/>
    <nd ref="358101438"/>
    <nd ref="36231613"/>
    <nd ref="270597255"/>
    <nd ref="790814458"/>
    <nd ref="270597297"/>
    <nd ref="270597280"/>
    <nd ref="270597303"/>
    <nd ref="565471096"/>
    <nd ref="373384195"/>
    <nd ref="270597107"/>
    <nd ref="373384244"/>
    <nd ref="36231616"/>
    <nd ref="278345701"/>
    <nd ref="36231617"/>
    <nd ref="36231618"/>
    <nd ref="36231619"/>
    <nd ref="316444387"/>
    <nd ref="565471090"/>
    <nd ref="316444454"/>
    <nd ref="565471101"/>
    <nd ref="250928768"/>
    <nd ref="565471102"/>
    <nd ref="280303888"/>
    <nd ref="565471103"/>
    <nd ref="36231621"/>
    <nd ref="280303583"/>
    <nd ref="280303889"/>
    <nd ref="26735122"/>
    <nd ref="26735135"/>
    <tag k="highway" v="secondary"/>
    <tag k="name" v="Αγίου Δημητρίου"/>
    <tag k="name:en" v="Agiou Dimitiou"/>
    <tag k="source" v="GPS"/>
  </way>
  <way id="32395391" version="1" timestamp="2009-03-21T18:19:48Z" uid="12188" user="Babis" changeset="839985">
    <nd ref="364444016"/>
    <nd ref="364444017"/>
    <nd ref="364444019"/>
    <tag k="created_by" v="Potlatch 0.10f"/>
  </way>
  <way id="32395391" version="2" timestamp="2009-03-21T18:20:13Z" uid="12188" user="Babis" changeset="839985">
    <nd ref="364444016"/>
    <nd ref="364444017"/>
    <nd ref="364444019"/>
    <tag k="created_by" v="Potlatch 0.10f"/>
    <tag k="highway" v="residential"/>
    <tag k="name" v="Κοραή"/>
    <tag k="name:en" v="Korai"/>
    <tag k="source" v="Yahoo"/>
  </way>
  <way id="32395391" version="3" timestamp="2009-03-21T18:41:59Z" uid="12188" user="Babis" changeset="839985">
    <nd ref="364444016"/>
    <nd ref="364444017"/>
    <nd ref="364453136"/>
    <nd ref="364444019"/>
    <tag k="created_by" v="Potlatch 0.10f"/>
    <tag k="highway" v="residential"/>
    <tag k="name" v="Κοραή"/>
    <tag k="name:en" v="Korai"/>
    <tag k="source" v="Yahoo"/>
  </way>
  <way id="32395391" version="4" timestamp="2009-09-11T21:43:47Z" uid="51324" user="OPerivar" changeset="2452248">
    <nd ref="364444016"/>
    <nd ref="364444017"/>
    <nd ref="493845151"/>
    <nd ref="364453136"/>
    <nd ref="364444019"/>
    <tag k="highway" v="residential"/>
    <tag k="name" v="Κοραή"/>
    <tag k="name:en" v="Korai"/>
    <tag k="source" v="Yahoo"/>
  </way>
  <way id="32395391" version="5" timestamp="2011-03-20T19:11:23Z" uid="23785" user="greecemapper" changeset="7620407"/>
  <way id="32395420" version="1" timestamp="2009-03-21T18:21:10Z" uid="12188" user="Babis" changeset="839985">
    <nd ref="364444586"/>
    <nd ref="364444588"/>
    <nd ref="364444589"/>
    <tag k="created_by" v="Potlatch 0.10f"/>
    <tag k="highway" v="residential"/>
    <tag k="name" v="Αχαίας"/>
    <tag k="name:en" v="Ahaias"/>
    <tag k="source" v="Yahoo"/>
  </way>
  <way id="32395420" version="2" timestamp="2009-03-21T18:21:29Z" uid="12188" user="Babis" changeset="839985">
    <nd ref="364444588"/>
    <nd ref="364444589"/>
    <tag k="created_by" v="Potlatch 0.10f"/>
    <tag k="highway" v="residential"/>
    <tag k="name" v="Αχαίας"/>
    <tag k="name:en" v="Ahaias"/>
    <tag k="source" v="Yahoo"/>
  </way>
  <way id="32395420" version="3" timestamp="2009-03-21T18:41:56Z" uid="12188" user="Babis" changeset="839985">
    <nd ref="364444588"/>
    <nd ref="364453126"/>
    <nd ref="364444589"/>
    <tag k="created_by" v="Potlatch 0.10f"/>
    <tag k="highway" v="residential"/>
    <tag k="name" v="Αχαίας"/>
    <tag k="name:en" v="Ahaias"/>
    <tag k="source" v="Yahoo"/>
  </way>
  <way id="32395420" version="4" timestamp="2009-03-21T19:30:23Z" uid="12188" user="Babis" changeset="839985">
    <nd ref="364444588"/>
    <nd ref="364472572"/>
    <nd ref="364453126"/>
    <nd ref="364444589"/>
    <tag k="created_by" v="Potlatch 0.10f"/>
    <tag k="highway" v="residential"/>
    <tag k="name" v="Αχαίας"/>
    <tag k="name:en" v="Ahaias"/>
    <tag k="source" v="Yahoo"/>
  </way>
  <way id="32395420" version="5" timestamp="2009-09-11T21:43:46Z" uid="51324" user="OPerivar" changeset="2452248">
    <nd ref="364444588"/>
    <nd ref="493845150"/>
    <nd ref="364472572"/>
    <nd ref="364453126"/>
    <nd ref="364444589"/>
    <tag k="highway" v="residential"/>
    <tag k="name" v="Αχαίας"/>
    <tag k="name:en" v="Ahaias"/>
    <tag k="source" v="Yahoo"/>
  </way>
  <way id="32395420" version="6" timestamp="2011-03-20T19:10:04Z" uid="23785" user="greecemapper" changeset="7620407">
    <nd ref="364444588"/>
    <nd ref="493845150"/>
    <nd ref="364472572"/>
    <nd ref="364444589"/>
    <tag k="highway" v="residential"/>
    <tag k="name" v="Αχαίας"/>
    <tag k="name:en" v="Ahaias"/>
    <tag k="source" v="Yahoo"/>
  </way>
  <way id="32395466" version="1" timestamp="2009-03-21T18:22:41Z" uid="12188" user="Babis" changeset="839985">
    <nd ref="364445409"/>
    <nd ref="364445411"/>
    <nd ref="364445412"/>
    <tag k="created_by" v="Potlatch 0.10f"/>
    <tag k="highway" v="residential"/>
    <tag k="name" v="Καποδιστρίου"/>
    <tag k="name:en" v="Kapodistriou"/>
    <tag k="source" v="Yahoo"/>
  </way>
  <way id="32395466" version="2" timestamp="2009-03-21T18:41:54Z" uid="12188" user="Babis" changeset="839985">
    <nd ref="364445409"/>
    <nd ref="364453120"/>
    <nd ref="364445411"/>
    <nd ref="364445412"/>
    <tag k="created_by" v="Potlatch 0.10f"/>
    <tag k="highway" v="residential"/>
    <tag k="name" v="Καποδιστρίου"/>
    <tag k="name:en" v="Kapodistriou"/>
    <tag k="source" v="Yahoo"/>
  </way>
  <way id="32395466" version="3" timestamp="2009-03-21T19:30:26Z" uid="12188" user="Babis" changeset="839985">
    <nd ref="364445409"/>
    <nd ref="364445411"/>
    <nd ref="364445412"/>
    <tag k="created_by" v="Potlatch 0.10f"/>
    <tag k="highway" v="residential"/>
    <tag k="name" v="Καποδιστρίου"/>
    <tag k="name:en" v="Kapodistriou"/>
    <tag k="source" v="Yahoo"/>
  </way>
  <way id="32395466" version="4" timestamp="2009-03-21T19:30:35Z" uid="12188" user="Babis" changeset="839985">
    <nd ref="364445409"/>
    <nd ref="364472673"/>
    <nd ref="364445411"/>
    <nd ref="364445412"/>
    <tag k="created_by" v="Potlatch 0.10f"/>
    <tag k="highway" v="residential"/>
    <tag k="name" v="Καποδιστρίου"/>
    <tag k="name:en" v="Kapodistriou"/>
    <tag k="source" v="Yahoo"/>
  </way>
  <way id="32395466" version="5" timestamp="2009-03-22T07:14:29Z" uid="12188" user="Babis" changeset="843134">
    <nd ref="364445409"/>
    <nd ref="364472673"/>
    <nd ref="364445411"/>
    <nd ref="364619904"/>
    <nd ref="364445412"/>
    <tag k="created_by" v="Potlatch 0.10f"/>
    <tag k="highway" v="residential"/>
    <tag k="name" v="Καποδιστρίου"/>
    <tag k="name:en" v="Kapodistriou"/>
    <tag k="source" v="Yahoo"/>
  </way>
  <way id="32395466" version="6" timestamp="2009-03-22T07:17:00Z" uid="12188" user="Babis" changeset="843134">
    <nd ref="364445409"/>
    <nd ref="364472673"/>
    <nd ref="364445411"/>
    <nd ref="364619904"/>
    <nd ref="364620142"/>
    <nd ref="364445412"/>
    <tag k="created_by" v="Potlatch 0.10f"/>
    <tag k="highway" v="residential"/>
    <tag k="name" v="Καποδιστρίου"/>
    <tag k="name:en" v="Kapodistriou"/>
    <tag k="source" v="Yahoo"/>
  </way>
  <way id="32395466" version="7" timestamp="2009-09-11T21:43:45Z" uid="51324" user="OPerivar" changeset="2452248">
    <nd ref="364445409"/>
    <nd ref="493845149"/>
    <nd ref="364472673"/>
    <nd ref="364445411"/>
    <nd ref="364619904"/>
    <nd ref="364620142"/>
    <nd ref="364445412"/>
    <tag k="highway" v="residential"/>
    <tag k="name" v="Καποδιστρίου"/>
    <tag k="name:en" v="Kapodistriou"/>
    <tag k="source" v="Yahoo"/>
  </way>
  <way id="32395516" version="1" timestamp="2009-03-21T18:24:00Z" uid="40373" user="Daguru" changeset="840612">
    <nd ref="364446131"/>
    <nd ref="364446136"/>
    <nd ref="364446143"/>
    <nd ref="364446149"/>
    <nd ref="364446154"/>
    <nd ref="364446160"/>
    <nd ref="364446167"/>
    <nd ref="364446172"/>
    <nd ref="364446178"/>
    <nd ref="364446181"/>
    <nd ref="364446185"/>
    <nd ref="364446189"/>
    <nd ref="364446191"/>
    <nd ref="364446195"/>
    <nd ref="364446197"/>
    <tag k="highway" v="footway"/>
  </way>
  <way id="32395516" version="2" timestamp="2011-10-04T18:45:31Z" uid="43972" user="chris66" changeset="9472130">
    <nd ref="364446131"/>
    <nd ref="364446136"/>
    <nd ref="364446143"/>
    <nd ref="364446149"/>
    <nd ref="364446154"/>
    <nd ref="364446160"/>
    <nd ref="364446167"/>
    <nd ref="364446172"/>
    <nd ref="364446181"/>
    <nd ref="364446185"/>
    <nd ref="364446189"/>
    <nd ref="364446191"/>
    <nd ref="364446197"/>
    <tag k="highway" v="footway"/>
  </way>
  <way id="32395535" version="1" timestamp="2009-03-21T18:25:04Z" uid="12188" user="Babis" changeset="839985">
    <nd ref="364446423"/>
    <nd ref="364446424"/>
    <nd ref="364446425"/>
    <nd ref="364446426"/>
    <nd ref="364446427"/>
    <nd ref="364446428"/>
    <nd ref="364446429"/>
    <tag k="created_by" v="Potlatch 0.10f"/>
    <tag k="highway" v="residential"/>
    <tag k="name" v="Ελευθερίας"/>
    <tag k="name:en" v="Eleftherias"/>
    <tag k="source" v="Yahoo"/>
  </way>
  <way id="32395535" version="2" timestamp="2011-03-20T19:11:17Z" uid="23785" user="greecemapper" changeset="7620407">
    <nd ref="364445412"/>
    <nd ref="1210930995"/>
    <nd ref="364446424"/>
    <nd ref="364446425"/>
    <nd ref="364446426"/>
    <tag k="highway" v="residential"/>
    <tag k="name" v="Ελευθερίας"/>
    <tag k="name:en" v="Eleftherias"/>
    <tag k="source" v="Yahoo"/>
  </way>
  <way id="32395542" version="3" timestamp="2010-03-28T01:20:42Z" uid="20587" user="balrog-kun" changeset="4250871">
    <nd ref="65321083"/>
    <nd ref="303213602"/>
    <tag k="created_by" v="Potlatch 0.10f"/>
    <tag k="cycleway" v="lane"/>
    <tag k="highway" v="residential"/>
    <tag k="name" v="Oakdale Avenue"/>
    <tag k="tiger:cfcc" v="A41"/>
    <tag k="tiger:county" v="San Francisco, CA"/>
    <tag k="tiger:name_base" v="Oakdale"/>
    <tag k="tiger:name_type" v="Ave"/>
    <tag k="tiger:reviewed" v="no"/>
    <tag k="tiger:separated" v="no"/>
    <tag k="tiger:source" v="tiger_import_dch_v0.6_20070809"/>
    <tag k="tiger:tlid" v="192289369:192289879:192289890:192289924:192289917:192289391:192291054:192290987"/>
    <tag k="tiger:zip_left" v="94124"/>
    <tag k="tiger:zip_right" v="94124"/>
  </way>
  <way id="32395542" version="4" timestamp="2011-04-12T08:33:39Z" uid="20587" user="balrog-kun" changeset="7839963">
    <nd ref="65321083"/>
    <nd ref="1241673551"/>
    <nd ref="303213602"/>
    <tag k="cycleway" v="lane"/>
    <tag k="highway" v="residential"/>
    <tag k="name" v="Oakdale Avenue"/>
    <tag k="tiger:cfcc" v="A41"/>
    <tag k="tiger:county" v="San Francisco, CA"/>
    <tag k="tiger:name_base" v="Oakdale"/>
    <tag k="tiger:name_type" v="Ave"/>
    <tag k="tiger:reviewed" v="no"/>
    <tag k="tiger:separated" v="no"/>
    <tag k="tiger:source" v="tiger_import_dch_v0.6_20070809"/>
    <tag k="tiger:tlid" v="192289369:192289879:192289890:192289924:192289917:192289391:192291054:192290987"/>
    <tag k="tiger:zip_left" v="94124"/>
    <tag k="tiger:zip_right" v="94124"/>
  </way>
  <way id="32395542" version="5" timestamp="2011-10-18T13:40:33Z" uid="207745" user="NE2" changeset="9591294">
    <nd ref="65321083"/>
    <nd ref="1241673551"/>
    <nd ref="303213602"/>
    <tag k="cycleway" v="lane"/>
    <tag k="highway" v="tertiary"/>
    <tag k="lcn_ref" v="70"/>
    <tag k="name" v="Oakdale Avenue"/>
    <tag k="tiger:cfcc" v="A41"/>
    <tag k="tiger:county" v="San Francisco, CA"/>
    <tag k="tiger:name_base" v="Oakdale"/>
    <tag k="tiger:name_type" v="Ave"/>
    <tag k="tiger:reviewed" v="no"/>
    <tag k="tiger:separated" v="no"/>
    <tag k="tiger:source" v="tiger_import_dch_v0.6_20070809"/>
    <tag k="tiger:tlid" v="192289369:192289879:192289890:192289924:192289917:192289391:192291054:192290987"/>
    <tag k="tiger:zip_left" v="94124"/>
    <tag k="tiger:zip_right" v="94124"/>
  </way>
  <way id="32395563" version="1" timestamp="2009-03-21T18:26:17Z" uid="12188" user="Babis" changeset="839985">
    <nd ref="364447008"/>
    <nd ref="364447009"/>
    <nd ref="364447011"/>
    <tag k="created_by" v="Potlatch 0.10f"/>
    <tag k="highway" v="residential"/>
    <tag k="name" v="Βαλτετσίου"/>
    <tag k="name:en" v="Valtetsiou"/>
    <tag k="source" v="Yahoo"/>
  </way>
  <way id="32395563" version="2" timestamp="2009-09-11T21:43:44Z" uid="51324" user="OPerivar" changeset="2452248">
    <nd ref="364447008"/>
    <nd ref="364447009"/>
    <nd ref="493845148"/>
    <nd ref="364447011"/>
    <tag k="highway" v="residential"/>
    <tag k="name" v="Βαλτετσίου"/>
    <tag k="name:en" v="Valtetsiou"/>
    <tag k="source" v="Yahoo"/>
  </way>
  <way id="32395584" version="3" timestamp="2010-03-28T01:20:42Z" uid="20587" user="balrog-kun" changeset="4250871">
    <nd ref="65344762"/>
    <nd ref="297273249"/>
    <nd ref="279669349"/>
    <tag k="highway" v="residential"/>
    <tag k="name" v="Oakdale Avenue"/>
    <tag k="tiger:cfcc" v="A41"/>
    <tag k="tiger:county" v="San Francisco, CA"/>
    <tag k="tiger:name_base" v="Oakdale"/>
    <tag k="tiger:name_type" v="Ave"/>
    <tag k="tiger:reviewed" v="no"/>
    <tag k="tiger:separated" v="no"/>
    <tag k="tiger:source" v="tiger_import_dch_v0.6_20070809"/>
    <tag k="tiger:tlid" v="192289369:192289879:192289890:192289924:192289917:192289391:192291054:192290987"/>
    <tag k="tiger:zip_left" v="94124"/>
    <tag k="tiger:zip_right" v="94124"/>
  </way>
  <way id="32395584" version="4" timestamp="2011-10-18T13:40:32Z" uid="207745" user="NE2" changeset="9591294">
    <nd ref="65344762"/>
    <nd ref="297273249"/>
    <tag k="highway" v="tertiary"/>
    <tag k="name" v="Oakdale Avenue"/>
    <tag k="tiger:cfcc" v="A41"/>
    <tag k="tiger:county" v="San Francisco, CA"/>
    <tag k="tiger:name_base" v="Oakdale"/>
    <tag k="tiger:name_type" v="Ave"/>
    <tag k="tiger:reviewed" v="no"/>
    <tag k="tiger:separated" v="no"/>
    <tag k="tiger:source" v="tiger_import_dch_v0.6_20070809"/>
    <tag k="tiger:tlid" v="192289369:192289879:192289890:192289924:192289917:192289391:192291054:192290987"/>
    <tag k="tiger:zip_left" v="94124"/>
    <tag k="tiger:zip_right" v="94124"/>
  </way>
  <way id="32395587" version="2" timestamp="2010-03-28T01:20:43Z" uid="20587" user="balrog-kun" changeset="4250871">
    <nd ref="122597659"/>
    <nd ref="123384286"/>
    <tag k="created_by" v="Potlatch 0.10f"/>
    <tag k="highway" v="residential"/>
    <tag k="name" v="Jovita Place"/>
    <tag k="tiger:cfcc" v="A41"/>
    <tag k="tiger:county" v="Los Angeles, CA"/>
    <tag k="tiger:name_base" v="Jovita"/>
    <tag k="tiger:name_type" v="Pl"/>
    <tag k="tiger:reviewed" v="no"/>
    <tag k="tiger:separated" v="no"/>
    <tag k="tiger:source" v="tiger_import_dch_v0.6_20070809"/>
    <tag k="tiger:tlid" v="141539836"/>
    <tag k="tiger:zip_left" v="91311"/>
    <tag k="tiger:zip_right" v="91311"/>
  </way>
  <way id="32395591" version="1" timestamp="2009-03-21T18:27:34Z" uid="1066" user="pavel" changeset="839451">
    <nd ref="364447321"/>
    <nd ref="364447325"/>
    <nd ref="364447422"/>
    <nd ref="364447330"/>
    <nd ref="364447335"/>
    <nd ref="364447339"/>
    <nd ref="364447342"/>
    <nd ref="364447349"/>
    <nd ref="364447352"/>
    <nd ref="364447355"/>
    <nd ref="364447358"/>
    <nd ref="364447361"/>
    <nd ref="364447365"/>
    <tag k="highway" v="footway"/>
  </way>
  <way id="32395591" version="2" timestamp="2009-06-17T20:46:23Z" uid="17615" user="Petr Dlouhý" changeset="1549587">
    <nd ref="21262953"/>
    <nd ref="364447321"/>
    <nd ref="364447325"/>
    <nd ref="364447422"/>
    <nd ref="364447330"/>
    <nd ref="364447335"/>
    <nd ref="364447339"/>
    <nd ref="364447342"/>
    <nd ref="364447349"/>
    <nd ref="364447352"/>
    <nd ref="364447355"/>
    <nd ref="364447358"/>
    <nd ref="364447361"/>
    <nd ref="364447365"/>
    <tag k="highway" v="footway"/>
  </way>
  <way id="32395592" version="1" timestamp="2009-03-21T18:27:35Z" uid="1066" user="pavel" changeset="839451">
    <nd ref="364447370"/>
    <nd ref="364447378"/>
    <nd ref="364447382"/>
    <nd ref="364447385"/>
    <nd ref="364447370"/>
    <tag k="building" v="yes"/>
  </way>
  <way id="32395593" version="1" timestamp="2009-03-21T18:27:36Z" uid="1066" user="pavel" changeset="839451">
    <nd ref="364447388"/>
    <nd ref="364447391"/>
    <nd ref="364447395"/>
    <nd ref="364447398"/>
    <nd ref="364447388"/>
    <tag k="building" v="yes"/>
  </way>
  <way id="32395594" version="1" timestamp="2009-03-21T18:27:37Z" uid="1066" user="pavel" changeset="839451">
    <nd ref="21262954"/>
    <nd ref="364447404"/>
    <nd ref="364447400"/>
    <tag k="highway" v="bridleway"/>
  </way>
  <way id="32395595" version="1" timestamp="2009-03-21T18:27:38Z" uid="1066" user="pavel" changeset="839451">
    <nd ref="364447404"/>
    <nd ref="364447408"/>
    <nd ref="364447412"/>
    <nd ref="364447419"/>
    <tag k="highway" v="footway"/>
  </way>
  <way id="32395595" version="2" timestamp="2011-03-16T07:11:27Z" uid="17615" user="Petr Dlouhý" changeset="7572833">
    <nd ref="364447404"/>
    <nd ref="364447408"/>
    <nd ref="1203985173"/>
    <nd ref="1203985037"/>
    <nd ref="1203985019"/>
    <nd ref="1203985070"/>
    <nd ref="1203985079"/>
    <nd ref="1203985188"/>
    <nd ref="1203985048"/>
    <nd ref="1203985127"/>
    <tag k="highway" v="service"/>
    <tag k="source" v="bing:ortofoto"/>
  </way>
  <way id="32395652" version="1" timestamp="2009-03-21T18:29:30Z" uid="12188" user="Babis" changeset="839985">
    <nd ref="364448566"/>
    <nd ref="364448569"/>
    <nd ref="364448573"/>
    <nd ref="364448574"/>
    <tag k="created_by" v="Potlatch 0.10f"/>
  </way>
  <way id="32395652" version="2" timestamp="2009-03-21T18:30:33Z" uid="12188" user="Babis" changeset="839985">
    <nd ref="364448574"/>
    <nd ref="364448573"/>
    <nd ref="364448569"/>
    <nd ref="364448566"/>
    <tag k="created_by" v="Potlatch 0.10f"/>
    <tag k="highway" v="residential"/>
    <tag k="name" v="Νικολάου Πλαστήρα"/>
    <tag k="name:en" v="Nikolaou Plastira"/>
    <tag k="oneway" v="yes"/>
    <tag k="source" v="Yahoo"/>
  </way>
  <way id="32395652" version="3" timestamp="2009-03-21T18:34:15Z" uid="12188" user="Babis" changeset="839985">
    <nd ref="364448574"/>
    <nd ref="364450329"/>
    <nd ref="364448573"/>
    <nd ref="364448569"/>
    <nd ref="364448566"/>
    <tag k="created_by" v="Potlatch 0.10f"/>
    <tag k="highway" v="residential"/>
    <tag k="name" v="Νικολάου Πλαστήρα"/>
    <tag k="name:en" v="Nikolaou Plastira"/>
    <tag k="oneway" v="yes"/>
    <tag k="source" v="Yahoo"/>
  </way>
  <way id="32395652" version="4" timestamp="2009-03-21T18:35:22Z" uid="12188" user="Babis" changeset="839985">
    <nd ref="364448574"/>
    <nd ref="364450329"/>
    <nd ref="364448573"/>
    <nd ref="364448569"/>
    <nd ref="364451033"/>
    <nd ref="364448566"/>
    <tag k="created_by" v="Potlatch 0.10f"/>
    <tag k="highway" v="residential"/>
    <tag k="name" v="Νικολάου Πλαστήρα"/>
    <tag k="name:en" v="Nikolaou Plastira"/>
    <tag k="oneway" v="yes"/>
    <tag k="source" v="Yahoo"/>
  </way>
  <way id="32395652" version="5" timestamp="2009-03-21T18:35:34Z" uid="12188" user="Babis" changeset="839985">
    <nd ref="364448574"/>
    <nd ref="364450329"/>
    <nd ref="364448573"/>
    <nd ref="364448569"/>
    <nd ref="364451033"/>
    <nd ref="364451085"/>
    <nd ref="364448566"/>
    <tag k="created_by" v="Potlatch 0.10f"/>
    <tag k="highway" v="residential"/>
    <tag k="name" v="Νικολάου Πλαστήρα"/>
    <tag k="name:en" v="Nikolaou Plastira"/>
    <tag k="oneway" v="yes"/>
    <tag k="source" v="Yahoo"/>
  </way>
  <way id="32395652" version="6" timestamp="2009-09-11T21:43:46Z" uid="51324" user="OPerivar" changeset="2452248">
    <nd ref="364448574"/>
    <nd ref="493845155"/>
    <nd ref="493845154"/>
    <nd ref="493845153"/>
    <nd ref="493845152"/>
    <nd ref="493845151"/>
    <nd ref="493845150"/>
    <nd ref="493845149"/>
    <nd ref="493845148"/>
    <nd ref="364450329"/>
    <nd ref="364448573"/>
    <nd ref="364448569"/>
    <nd ref="364451033"/>
    <nd ref="364451085"/>
    <nd ref="364448566"/>
    <tag k="highway" v="residential"/>
    <tag k="name" v="Νικολάου Πλαστήρα"/>
    <tag k="name:en" v="Nikolaou Plastira"/>
    <tag k="oneway" v="yes"/>
    <tag k="source" v="Yahoo"/>
  </way>
  <way id="32395652" version="7" timestamp="2011-03-20T19:10:09Z" uid="23785" user="greecemapper" changeset="7620407">
    <nd ref="364448574"/>
    <nd ref="493845155"/>
    <nd ref="493845154"/>
    <nd ref="493845153"/>
    <nd ref="493845152"/>
    <nd ref="493845151"/>
    <nd ref="493845150"/>
    <nd ref="493845149"/>
    <nd ref="493845148"/>
    <nd ref="364450329"/>
    <nd ref="364448573"/>
    <nd ref="364451033"/>
    <nd ref="364451085"/>
    <nd ref="364448566"/>
    <tag k="highway" v="residential"/>
    <tag k="name" v="Νικολάου Πλαστήρα"/>
    <tag k="name:en" v="Nikolaou Plastira"/>
    <tag k="oneway" v="yes"/>
    <tag k="source" v="Yahoo"/>
  </way>
  <way id="32395806" version="6" timestamp="2010-03-28T01:20:43Z" uid="20587" user="balrog-kun" changeset="4250871">
    <nd ref="65300402"/>
    <nd ref="65327491"/>
    <nd ref="65327427"/>
    <nd ref="65325118"/>
    <nd ref="65327438"/>
    <nd ref="65327474"/>
    <tag k="created_by" v="Potlatch 0.10f"/>
    <tag k="cycleway" v="lane"/>
    <tag k="highway" v="unclassified"/>
    <tag k="name" v="Evans Avenue"/>
    <tag k="oneway" v="yes"/>
    <tag k="tiger:cfcc" v="A45"/>
    <tag k="tiger:county" v="San Francisco, CA"/>
    <tag k="tiger:name_base" v="Evans"/>
    <tag k="tiger:name_type" v="Ave"/>
    <tag k="tiger:reviewed" v="no"/>
    <tag k="tiger:separated" v="yes"/>
    <tag k="tiger:source" v="tiger_import_dch_v0.6_20070809"/>
    <tag k="tiger:tlid" v="192300860:192300861:192290012:192289943"/>
    <tag k="tiger:zip_left" v="94124"/>
  </way>
  <way id="32395806" version="7" timestamp="2011-02-01T00:23:53Z" uid="14293" user="dahveed76" changeset="7150796">
    <nd ref="65300402"/>
    <nd ref="1130233868"/>
    <nd ref="65327491"/>
    <nd ref="65327427"/>
    <nd ref="65325118"/>
    <nd ref="65327438"/>
    <nd ref="65327474"/>
    <tag k="cycleway" v="lane"/>
    <tag k="highway" v="unclassified"/>
    <tag k="name" v="Evans Avenue"/>
    <tag k="oneway" v="yes"/>
    <tag k="tiger:cfcc" v="A45"/>
    <tag k="tiger:county" v="San Francisco, CA"/>
    <tag k="tiger:name_base" v="Evans"/>
    <tag k="tiger:name_type" v="Ave"/>
    <tag k="tiger:reviewed" v="no"/>
    <tag k="tiger:separated" v="yes"/>
    <tag k="tiger:source" v="tiger_import_dch_v0.6_20070809"/>
    <tag k="tiger:tlid" v="192300860:192300861:192290012:192289943"/>
    <tag k="tiger:zip_left" v="94124"/>
  </way>
  <way id="32395806" version="8" timestamp="2011-10-18T13:39:56Z" uid="207745" user="NE2" changeset="9591294">
    <nd ref="65300402"/>
    <nd ref="1130233868"/>
    <nd ref="65327491"/>
    <nd ref="65327427"/>
    <nd ref="65325118"/>
    <nd ref="65327438"/>
    <nd ref="65327474"/>
    <tag k="cycleway" v="lane"/>
    <tag k="highway" v="tertiary"/>
    <tag k="lcn_ref" v="68"/>
    <tag k="name" v="Evans Avenue"/>
    <tag k="oneway" v="yes"/>
    <tag k="tiger:cfcc" v="A45"/>
    <tag k="tiger:county" v="San Francisco, CA"/>
    <tag k="tiger:name_base" v="Evans"/>
    <tag k="tiger:name_type" v="Ave"/>
    <tag k="tiger:reviewed" v="no"/>
    <tag k="tiger:separated" v="yes"/>
    <tag k="tiger:source" v="tiger_import_dch_v0.6_20070809"/>
    <tag k="tiger:tlid" v="192300860:192300861:192290012:192289943"/>
    <tag k="tiger:zip_left" v="94124"/>
  </way>
  <way id="32395806" version="9" timestamp="2012-01-14T00:51:23Z" uid="103253" user="gormur" changeset="10384335">
    <nd ref="65300402"/>
    <nd ref="1589004354"/>
    <nd ref="1130233868"/>
    <nd ref="65327491"/>
    <nd ref="65327427"/>
    <nd ref="65325118"/>
    <nd ref="65327438"/>
    <nd ref="65327474"/>
    <tag k="cycleway" v="lane"/>
    <tag k="highway" v="tertiary"/>
    <tag k="lcn_ref" v="68"/>
    <tag k="name" v="Evans Avenue"/>
    <tag k="oneway" v="yes"/>
    <tag k="tiger:cfcc" v="A45"/>
    <tag k="tiger:county" v="San Francisco, CA"/>
    <tag k="tiger:name_base" v="Evans"/>
    <tag k="tiger:name_type" v="Ave"/>
    <tag k="tiger:reviewed" v="no"/>
    <tag k="tiger:separated" v="yes"/>
    <tag k="tiger:source" v="tiger_import_dch_v0.6_20070809"/>
    <tag k="tiger:tlid" v="192300860:192300861:192290012:192289943"/>
    <tag k="tiger:zip_left" v="94124"/>
  </way>
  <way id="32395806" version="10" timestamp="2012-03-20T09:05:16Z" uid="14293" user="JuxTPosition" changeset="11038921"/>
  <way id="32395824" version="2" timestamp="2010-03-28T01:20:43Z" uid="20587" user="balrog-kun" changeset="4250871">
    <nd ref="65327474"/>
    <nd ref="65327471"/>
    <nd ref="65306706"/>
    <tag k="created_by" v="Potlatch 0.10f"/>
    <tag k="highway" v="unclassified"/>
    <tag k="name" v="Evans Avenue"/>
    <tag k="oneway" v="yes"/>
    <tag k="tiger:cfcc" v="A45"/>
    <tag k="tiger:county" v="San Francisco, CA"/>
    <tag k="tiger:name_base" v="Evans"/>
    <tag k="tiger:name_type" v="Ave"/>
    <tag k="tiger:reviewed" v="no"/>
    <tag k="tiger:separated" v="yes"/>
    <tag k="tiger:source" v="tiger_import_dch_v0.6_20070809"/>
    <tag k="tiger:tlid" v="192300860:192300861:192290012:192289943"/>
    <tag k="tiger:zip_left" v="94124"/>
  </way>
  <way id="32395824" version="3" timestamp="2011-10-18T13:39:55Z" uid="207745" user="NE2" changeset="9591294">
    <nd ref="65327474"/>
    <nd ref="65327471"/>
    <nd ref="65306706"/>
    <tag k="highway" v="tertiary"/>
    <tag k="lcn_ref" v="68"/>
    <tag k="name" v="Evans Avenue"/>
    <tag k="oneway" v="yes"/>
    <tag k="tiger:cfcc" v="A45"/>
    <tag k="tiger:county" v="San Francisco, CA"/>
    <tag k="tiger:name_base" v="Evans"/>
    <tag k="tiger:name_type" v="Ave"/>
    <tag k="tiger:reviewed" v="no"/>
    <tag k="tiger:separated" v="yes"/>
    <tag k="tiger:source" v="tiger_import_dch_v0.6_20070809"/>
    <tag k="tiger:tlid" v="192300860:192300861:192290012:192289943"/>
    <tag k="tiger:zip_left" v="94124"/>
  </way>
  <way id="32395858" version="1" timestamp="2009-03-21T18:32:26Z" uid="12188" user="Babis" changeset="839985">
    <nd ref="364449558"/>
    <nd ref="364449559"/>
    <nd ref="364448573"/>
    <nd ref="364449562"/>
    <nd ref="364449565"/>
    <tag k="created_by" v="Potlatch 0.10f"/>
  </way>
  <way id="32395858" version="2" timestamp="2009-03-21T18:33:05Z" uid="12188" user="Babis" changeset="839985">
    <nd ref="364449558"/>
    <nd ref="364449559"/>
    <nd ref="364448573"/>
    <nd ref="364449562"/>
    <nd ref="364449565"/>
    <tag k="created_by" v="Potlatch 0.10f"/>
    <tag k="highway" v="residential"/>
    <tag k="name" v="Δοιράνης"/>
    <tag k="name:en" v="Doiranis"/>
    <tag k="source" v="Yahoo"/>
  </way>
  <way id="32395858" version="3" timestamp="2011-03-20T19:11:17Z" uid="23785" user="greecemapper" changeset="7620407">
    <nd ref="364449558"/>
    <nd ref="364449559"/>
    <nd ref="364448573"/>
    <nd ref="364449565"/>
    <tag k="highway" v="residential"/>
    <tag k="name" v="Δοιράνης"/>
    <tag k="name:en" v="Doiranis"/>
    <tag k="source" v="Yahoo"/>
  </way>
  <way id="32395900" version="1" timestamp="2009-03-21T18:34:13Z" uid="12188" user="Babis" changeset="839985">
    <nd ref="364450324"/>
    <nd ref="364450326"/>
    <nd ref="364450329"/>
    <tag k="created_by" v="Potlatch 0.10f"/>
    <tag k="highway" v="residential"/>
    <tag k="name" v="Ρίμινι"/>
    <tag k="name:en" v="Rimini"/>
    <tag k="source" v="Yahoo"/>
  </way>
  <way id="32395973" version="1" timestamp="2009-03-21T18:35:21Z" uid="12188" user="Babis" changeset="839985">
    <nd ref="364451031"/>
    <nd ref="364451032"/>
    <nd ref="364451033"/>
    <tag k="created_by" v="Potlatch 0.10f"/>
    <tag k="highway" v="residential"/>
    <tag k="name" v="Θεσσαλονίκης"/>
    <tag k="name:en" v="Thessalonikis"/>
    <tag k="source" v="Yahoo"/>
  </way>
  <way id="32395974" version="4" timestamp="2010-03-28T01:20:43Z" uid="20587" user="balrog-kun" changeset="4250871">
    <nd ref="65313203"/>
    <nd ref="595794000"/>
    <nd ref="65329940"/>
    <tag k="cycleway" v="lane"/>
    <tag k="highway" v="primary"/>
    <tag k="name" v="Cesar Chavez Street"/>
    <tag k="name_1" v="Army Street"/>
    <tag k="oneway" v="yes"/>
    <tag k="tiger:cfcc" v="A41"/>
    <tag k="tiger:county" v="San Francisco, CA"/>
    <tag k="tiger:name_base" v="Cesar Chavez"/>
    <tag k="tiger:name_base_1" v="Army"/>
    <tag k="tiger:name_type" v="St"/>
    <tag k="tiger:name_type_1" v="St"/>
    <tag k="tiger:separated" v="no"/>
    <tag k="tiger:source" v="tiger_import_dch_v0.6_20070809"/>
    <tag k="tiger:tlid" v="192292249"/>
    <tag k="tiger:zip_left" v="94131"/>
    <tag k="tiger:zip_left_1" v="94131"/>
    <tag k="tiger:zip_right" v="94131"/>
  </way>
  <way id="32395974" version="5" timestamp="2011-10-18T13:39:40Z" uid="207745" user="NE2" changeset="9591294">
    <nd ref="65313203"/>
    <nd ref="595794000"/>
    <nd ref="65329940"/>
    <tag k="cycleway" v="lane"/>
    <tag k="highway" v="primary"/>
    <tag k="lcn_ref" v="60"/>
    <tag k="name" v="Cesar Chavez Street"/>
    <tag k="name_1" v="Army Street"/>
    <tag k="oneway" v="yes"/>
    <tag k="tiger:cfcc" v="A41"/>
    <tag k="tiger:county" v="San Francisco, CA"/>
    <tag k="tiger:name_base" v="Cesar Chavez"/>
    <tag k="tiger:name_base_1" v="Army"/>
    <tag k="tiger:name_type" v="St"/>
    <tag k="tiger:name_type_1" v="St"/>
    <tag k="tiger:separated" v="no"/>
    <tag k="tiger:source" v="tiger_import_dch_v0.6_20070809"/>
    <tag k="tiger:tlid" v="192292249"/>
    <tag k="tiger:zip_left" v="94131"/>
    <tag k="tiger:zip_left_1" v="94131"/>
    <tag k="tiger:zip_right" v="94131"/>
  </way>
  <way id="32395974" version="6" timestamp="2011-10-18T17:29:41Z" uid="207745" user="NE2" changeset="9593097">
    <nd ref="65313203"/>
    <nd ref="595794000"/>
    <nd ref="65329940"/>
    <tag k="cycleway" v="lane"/>
    <tag k="highway" v="primary"/>
    <tag k="lcn_ref" v="7;60"/>
    <tag k="name" v="Cesar Chavez Street"/>
    <tag k="name_1" v="Army Street"/>
    <tag k="oneway" v="yes"/>
    <tag k="tiger:cfcc" v="A41"/>
    <tag k="tiger:county" v="San Francisco, CA"/>
    <tag k="tiger:name_base" v="Cesar Chavez"/>
    <tag k="tiger:name_base_1" v="Army"/>
    <tag k="tiger:name_type" v="St"/>
    <tag k="tiger:name_type_1" v="St"/>
    <tag k="tiger:separated" v="no"/>
    <tag k="tiger:source" v="tiger_import_dch_v0.6_20070809"/>
    <tag k="tiger:tlid" v="192292249"/>
    <tag k="tiger:zip_left" v="94131"/>
    <tag k="tiger:zip_left_1" v="94131"/>
    <tag k="tiger:zip_right" v="94131"/>
  </way>
  <way id="32395993" version="1" timestamp="2009-03-21T18:36:17Z" uid="12188" user="Babis" changeset="839985">
    <nd ref="364451085"/>
    <nd ref="364451327"/>
    <tag k="created_by" v="Potlatch 0.10f"/>
    <tag k="highway" v="residential"/>
    <tag k="name" v="Διστόμου"/>
    <tag k="name:en" v="Distomou"/>
    <tag k="source" v="Yahoo"/>
  </way>
</osm>
