<?xml version='1.0' encoding='UTF-8'?>
<osm version="0.6" generator="libosmium/2.20.0">
  <way id="32425002" version="1" timestamp="2009-03-22T08:39:11Z" uid="12188" user="Babis" changeset="843134">
    <nd ref="364628845"/>
    <nd ref="362583781"/>
    <tag k="created_by" v="Potlatch 0.10f"/>
  </way>
  <way id="32425002" version="2" timestamp="2009-03-22T08:39:39Z" uid="12188" user="Babis" changeset="843134">
    <nd ref="364628845"/>
    <nd ref="362583781"/>
    <tag k="created_by" v="Potlatch 0.10f"/>
    <tag k="highway" v="residential"/>
    <tag k="name" v="Ορεστιάδας"/>
    <tag k="name:en" v="Orestiadas"/>
    <tag k="source" v="Yahoo"/>
  </way>
  <way id="32425015" version="12" timestamp="2010-03-18T09:31:05Z" uid="74617" user="JohnSmith" changeset="4159682">
    <nd ref="667743880"/>
    <nd ref="331109250"/>
    <nd ref="329658086"/>
    <nd ref="667743931"/>
    <nd ref="667743932"/>
    <nd ref="668592545"/>
    <nd ref="255369083"/>
    <nd ref="667744251"/>
    <nd ref="667744252"/>
    <nd ref="255369084"/>
    <nd ref="667744253"/>
    <nd ref="667744254"/>
    <nd ref="255369085"/>
    <nd ref="667744255"/>
    <nd ref="255369086"/>
    <nd ref="255369087"/>
    <nd ref="667744258"/>
    <nd ref="667744259"/>
    <nd ref="255369088"/>
    <nd ref="255637234"/>
    <nd ref="667744260"/>
    <nd ref="255637235"/>
    <nd ref="667744454"/>
    <nd ref="255637236"/>
    <nd ref="667744455"/>
    <nd ref="255637237"/>
    <nd ref="667744456"/>
    <nd ref="255637238"/>
    <nd ref="667744457"/>
    <nd ref="255637239"/>
    <nd ref="667744458"/>
    <nd ref="667744459"/>
    <nd ref="255637241"/>
    <nd ref="255637242"/>
    <nd ref="255637243"/>
    <nd ref="667744460"/>
    <nd ref="255637244"/>
    <nd ref="255637245"/>
    <nd ref="667744461"/>
    <nd ref="255637246"/>
    <nd ref="255637247"/>
    <nd ref="304412541"/>
    <nd ref="304412534"/>
    <nd ref="667744533"/>
    <nd ref="667744534"/>
    <nd ref="667744535"/>
    <nd ref="304412528"/>
    <nd ref="667744536"/>
    <nd ref="667744544"/>
    <nd ref="667744545"/>
    <nd ref="667744546"/>
    <nd ref="304412524"/>
    <nd ref="667744558"/>
    <nd ref="667744568"/>
    <nd ref="332948377"/>
    <nd ref="667744612"/>
    <nd ref="304412520"/>
    <nd ref="667744614"/>
    <nd ref="667744652"/>
    <nd ref="667744658"/>
    <tag k="highway" v="primary"/>
    <tag k="maxspeed" v="80"/>
    <tag k="name" v="Riverina Highway"/>
    <tag k="source" v="nearmap"/>
  </way>
  <way id="32425015" version="13" timestamp="2010-03-18T09:45:34Z" uid="74617" user="JohnSmith" changeset="4159765">
    <nd ref="667743880"/>
    <nd ref="331109250"/>
    <nd ref="329658086"/>
    <nd ref="667743931"/>
    <nd ref="667743932"/>
    <nd ref="668592545"/>
    <nd ref="255369083"/>
    <nd ref="667744251"/>
    <nd ref="667744252"/>
    <nd ref="255369084"/>
    <nd ref="667744253"/>
    <nd ref="667744254"/>
    <nd ref="255369085"/>
    <nd ref="667744255"/>
    <nd ref="255369086"/>
    <nd ref="255369087"/>
    <nd ref="667744258"/>
    <nd ref="668617717"/>
    <nd ref="667744259"/>
    <nd ref="255369088"/>
    <nd ref="255637234"/>
    <nd ref="667744260"/>
    <nd ref="255637235"/>
    <nd ref="667744454"/>
    <nd ref="255637236"/>
    <nd ref="667744455"/>
    <nd ref="255637237"/>
    <nd ref="667744456"/>
    <nd ref="255637238"/>
    <nd ref="667744457"/>
    <nd ref="255637239"/>
    <nd ref="667744458"/>
    <nd ref="667744459"/>
    <nd ref="255637241"/>
    <nd ref="255637242"/>
    <nd ref="255637243"/>
    <nd ref="667744460"/>
    <nd ref="255637244"/>
    <nd ref="255637245"/>
    <nd ref="667744461"/>
    <nd ref="255637246"/>
    <nd ref="255637247"/>
    <nd ref="304412541"/>
    <nd ref="304412534"/>
    <nd ref="667744533"/>
    <nd ref="667744534"/>
    <nd ref="667744535"/>
    <nd ref="304412528"/>
    <nd ref="667744536"/>
    <nd ref="667744544"/>
    <nd ref="667744545"/>
    <nd ref="667744546"/>
    <nd ref="304412524"/>
    <nd ref="667744558"/>
    <nd ref="667744568"/>
    <nd ref="332948377"/>
    <nd ref="667744612"/>
    <nd ref="304412520"/>
    <nd ref="667744614"/>
    <nd ref="667744652"/>
    <nd ref="667744658"/>
    <tag k="highway" v="primary"/>
    <tag k="maxspeed" v="80"/>
    <tag k="name" v="Riverina Highway"/>
    <tag k="source" v="nearmap"/>
  </way>
  <way id="32425016" version="1" timestamp="2009-03-22T08:40:07Z" uid="12188" user="Babis" changeset="843134">
    <nd ref="364628978"/>
    <nd ref="364628979"/>
    <tag k="created_by" v="Potlatch 0.10f"/>
  </way>
  <way id="32425016" version="2" timestamp="2009-03-22T08:40:39Z" uid="12188" user="Babis" changeset="843134">
    <nd ref="364628978"/>
    <nd ref="364628979"/>
    <tag k="created_by" v="Potlatch 0.10f"/>
    <tag k="highway" v="residential"/>
    <tag k="name" v="Κερασούντος"/>
    <tag k="name:en" v="Kerasssountos"/>
    <tag k="source" v="Yahoo"/>
  </way>
  <way id="32425027" version="3" timestamp="2010-03-18T05:00:46Z" uid="74617" user="JohnSmith" changeset="4158637">
    <nd ref="364629012"/>
    <nd ref="364629013"/>
    <tag k="aeroway" v="runway"/>
    <tag k="name" v="07/25"/>
    <tag k="surface" v="paved"/>
  </way>
  <way id="32425027" version="4" timestamp="2010-03-18T10:02:02Z" uid="74617" user="JohnSmith" changeset="4159863">
    <nd ref="364629012"/>
    <nd ref="668642027"/>
    <nd ref="668642057"/>
    <nd ref="668642051"/>
    <nd ref="364629013"/>
    <tag k="aeroway" v="runway"/>
    <tag k="name" v="07/25"/>
    <tag k="surface" v="paved"/>
  </way>
  <way id="32425027" version="5" timestamp="2010-03-18T10:08:08Z" uid="74617" user="JohnSmith" changeset="4159911">
    <nd ref="364629012"/>
    <nd ref="668642027"/>
    <nd ref="668644726"/>
    <nd ref="668644735"/>
    <nd ref="668642057"/>
    <nd ref="668642051"/>
    <nd ref="364629013"/>
    <tag k="aeroway" v="runway"/>
    <tag k="name" v="07/25"/>
    <tag k="surface" v="paved"/>
  </way>
  <way id="32425027" version="6" timestamp="2010-07-23T06:01:24Z" uid="4467" user="Rosscoe" changeset="5292689">
    <nd ref="364629012"/>
    <nd ref="668642027"/>
    <nd ref="668644726"/>
    <nd ref="668642051"/>
    <nd ref="364629013"/>
    <tag k="aeroway" v="runway"/>
    <tag k="name" v="07/25"/>
    <tag k="surface" v="paved"/>
  </way>
  <way id="32425034" version="1" timestamp="2009-03-22T08:42:26Z" uid="12188" user="Babis" changeset="843134">
    <nd ref="364629056"/>
    <nd ref="364629057"/>
    <nd ref="364629058"/>
    <tag k="created_by" v="Potlatch 0.10f"/>
  </way>
  <way id="32425034" version="2" timestamp="2009-03-22T08:43:30Z" uid="12188" user="Babis" changeset="843134">
    <nd ref="364629056"/>
    <nd ref="364629057"/>
    <nd ref="364629058"/>
    <tag k="created_by" v="Potlatch 0.10f"/>
    <tag k="highway" v="residential"/>
    <tag k="name" v="Επισκοπής"/>
    <tag k="name:en" v="Episkopis"/>
    <tag k="source" v="Yahoo"/>
  </way>
  <way id="32425034" version="3" timestamp="2011-03-20T19:11:00Z" uid="23785" user="greecemapper" changeset="7620407">
    <nd ref="364629056"/>
    <nd ref="364629057"/>
    <nd ref="1210930691"/>
    <nd ref="364629058"/>
    <tag k="highway" v="residential"/>
    <tag k="name" v="Επισκοπής"/>
    <tag k="name:en" v="Episkopis"/>
    <tag k="source" v="Yahoo"/>
  </way>
  <way id="32425038" version="5" timestamp="2010-03-18T06:57:33Z" uid="74617" user="JohnSmith" changeset="4158996">
    <nd ref="667742270"/>
    <nd ref="668473673"/>
    <nd ref="364629086"/>
    <tag k="highway" v="residential"/>
    <tag k="name" v="Short Street"/>
  </way>
  <way id="32425038" version="6" timestamp="2010-07-07T07:50:51Z" uid="74617" user="JohnSmith" changeset="5156250">
    <nd ref="667742270"/>
    <nd ref="668473673"/>
    <nd ref="364629086"/>
    <tag k="highway" v="residential"/>
    <tag k="maxspeed" v="50"/>
    <tag k="maxspeed:source" v="default residential speed limit in Australia"/>
    <tag k="name" v="Short Street"/>
  </way>
  <way id="32425038" version="7" timestamp="2012-01-18T15:07:44Z" uid="147510" user="woodpeck_fixbot" changeset="10427327">
    <nd ref="667742270"/>
    <nd ref="668473673"/>
    <nd ref="364629086"/>
    <tag k="highway" v="residential"/>
    <tag k="name" v="Short Street"/>
  </way>
  <way id="32425047" version="1" timestamp="2009-03-22T08:43:40Z" uid="12188" user="Babis" changeset="843134">
    <nd ref="364629310"/>
    <nd ref="364629311"/>
    <tag k="created_by" v="Potlatch 0.10f"/>
    <tag k="highway" v="residential"/>
  </way>
  <way id="32425048" version="2" timestamp="2010-03-16T12:14:35Z" uid="74617" user="JohnSmith" changeset="4142801">
    <nd ref="364629312"/>
    <nd ref="667304291"/>
    <tag k="highway" v="residential"/>
    <tag k="source" v="nearmap"/>
  </way>
  <way id="32425048" version="3" timestamp="2010-03-18T07:29:46Z" uid="74617" user="JohnSmith" changeset="4159097">
    <nd ref="364629312"/>
    <nd ref="668476362"/>
    <nd ref="668476368"/>
    <nd ref="667304291"/>
    <tag k="highway" v="residential"/>
    <tag k="source" v="nearmap"/>
  </way>
  <way id="32425048" version="4" timestamp="2010-07-07T07:52:11Z" uid="74617" user="JohnSmith" changeset="5156250">
    <nd ref="364629312"/>
    <nd ref="668476362"/>
    <nd ref="668476368"/>
    <nd ref="667304291"/>
    <tag k="highway" v="residential"/>
    <tag k="maxspeed" v="50"/>
    <tag k="maxspeed:source" v="default residential speed limit in Australia"/>
    <tag k="source" v="nearmap"/>
  </way>
  <way id="32425048" version="5" timestamp="2012-01-18T15:07:46Z" uid="147510" user="woodpeck_fixbot" changeset="10427327">
    <nd ref="364629312"/>
    <nd ref="668476362"/>
    <nd ref="668476368"/>
    <nd ref="667304291"/>
    <tag k="highway" v="residential"/>
    <tag k="source" v="nearmap"/>
  </way>
  <way id="32425053" version="2" timestamp="2010-03-18T05:01:32Z" uid="74617" user="JohnSmith" changeset="4158637">
    <nd ref="364629328"/>
    <nd ref="364629329"/>
  </way>
  <way id="32425053" version="3" timestamp="2010-03-18T06:57:34Z" uid="74617" user="JohnSmith" changeset="4158996">
    <nd ref="668473686"/>
    <nd ref="668473680"/>
    <nd ref="668473681"/>
    <nd ref="668473682"/>
    <tag k="highway" v="residential"/>
    <tag k="maxspeed" v="50"/>
    <tag k="name" v="Keene Street"/>
    <tag k="source" v="nearmap"/>
  </way>
  <way id="32425053" version="4" timestamp="2010-03-18T07:35:45Z" uid="74617" user="JohnSmith" changeset="4159129">
    <nd ref="668473686"/>
    <nd ref="668477474"/>
    <nd ref="668473680"/>
    <nd ref="668473681"/>
    <nd ref="668473682"/>
    <tag k="highway" v="residential"/>
    <tag k="maxspeed" v="50"/>
    <tag k="name" v="Keene Street"/>
    <tag k="source" v="nearmap"/>
  </way>
  <way id="32425053" version="5" timestamp="2012-01-18T15:07:49Z" uid="147510" user="woodpeck_fixbot" changeset="10427327">
    <nd ref="668473686"/>
    <nd ref="668477474"/>
    <nd ref="668473680"/>
    <nd ref="668473681"/>
    <nd ref="668473682"/>
    <tag k="source" v="nearmap"/>
  </way>
  <way id="32425055" version="2" timestamp="2010-03-18T05:01:32Z" uid="74617" user="JohnSmith" changeset="4158637">
    <nd ref="364629330"/>
    <nd ref="364629331"/>
    <nd ref="364629332"/>
  </way>
  <way id="32425055" version="3" timestamp="2010-03-18T06:57:34Z" uid="74617" user="JohnSmith" changeset="4158996"/>
  <way id="32425058" version="1" timestamp="2009-03-22T08:44:54Z" uid="12188" user="Babis" changeset="843134">
    <nd ref="364629416"/>
    <nd ref="364629417"/>
    <nd ref="362573736"/>
    <nd ref="364629418"/>
    <nd ref="364629419"/>
    <nd ref="364629420"/>
    <nd ref="364629421"/>
    <tag k="created_by" v="Potlatch 0.10f"/>
  </way>
  <way id="32425058" version="2" timestamp="2009-03-22T08:45:23Z" uid="12188" user="Babis" changeset="843134">
    <nd ref="364629416"/>
    <nd ref="364629417"/>
    <nd ref="362573736"/>
    <nd ref="364629418"/>
    <nd ref="364629419"/>
    <nd ref="364629420"/>
    <nd ref="364629421"/>
    <tag k="created_by" v="Potlatch 0.10f"/>
    <tag k="highway" v="residential"/>
    <tag k="name" v="Ηπείρου"/>
    <tag k="name:en" v="Ipirou"/>
    <tag k="source" v="Yahoo"/>
  </way>
  <way id="32425058" version="3" timestamp="2011-03-20T19:10:08Z" uid="23785" user="greecemapper" changeset="7620407">
    <nd ref="364629416"/>
    <nd ref="364629417"/>
    <nd ref="1210930726"/>
    <nd ref="362573736"/>
    <nd ref="364629418"/>
    <nd ref="364629419"/>
    <nd ref="364629420"/>
    <nd ref="364629421"/>
    <tag k="highway" v="residential"/>
    <tag k="name" v="Ηπείρου"/>
    <tag k="name:en" v="Ipirou"/>
    <tag k="source" v="Yahoo"/>
  </way>
  <way id="32425066" version="1" timestamp="2009-03-22T08:46:12Z" uid="12188" user="Babis" changeset="843134">
    <nd ref="364629456"/>
    <nd ref="364629457"/>
    <nd ref="364629458"/>
    <nd ref="362579350"/>
    <tag k="created_by" v="Potlatch 0.10f"/>
  </way>
  <way id="32425066" version="2" timestamp="2009-03-22T08:46:24Z" uid="12188" user="Babis" changeset="843134">
    <nd ref="364629456"/>
    <nd ref="364629457"/>
    <nd ref="364629458"/>
    <nd ref="362579350"/>
    <tag k="created_by" v="Potlatch 0.10f"/>
    <tag k="highway" v="residential"/>
    <tag k="name" v="Ηπείρου"/>
    <tag k="name:en" v="Ipirou"/>
    <tag k="source" v="Yahoo"/>
  </way>
  <way id="32425066" version="3" timestamp="2009-03-22T08:46:49Z" uid="12188" user="Babis" changeset="843134">
    <nd ref="364629456"/>
    <nd ref="364629457"/>
    <nd ref="364629458"/>
    <nd ref="362579350"/>
    <tag k="created_by" v="Potlatch 0.10f"/>
    <tag k="highway" v="residential"/>
    <tag k="name" v="Αφεντούλη"/>
    <tag k="name:en" v="Afentouli"/>
    <tag k="source" v="Yahoo"/>
  </way>
  <way id="32425066" version="4" timestamp="2011-03-20T19:10:00Z" uid="23785" user="greecemapper" changeset="7620407">
    <nd ref="364629456"/>
    <nd ref="364629457"/>
    <nd ref="364629458"/>
    <nd ref="362579350"/>
    <nd ref="364628505"/>
    <tag k="highway" v="residential"/>
    <tag k="name" v="Αφεντούλη"/>
    <tag k="name:en" v="Afentouli"/>
    <tag k="source" v="Yahoo"/>
  </way>
  <way id="32425067" version="3" timestamp="2010-03-22T05:47:07Z" uid="20587" user="balrog-kun" changeset="4199043">
    <nd ref="40041272"/>
    <nd ref="39661219"/>
    <nd ref="40093267"/>
    <nd ref="40093270"/>
    <nd ref="40093272"/>
    <nd ref="40093274"/>
    <nd ref="40093277"/>
    <nd ref="40093281"/>
    <nd ref="40093283"/>
    <nd ref="40050872"/>
    <nd ref="40093286"/>
    <nd ref="40093288"/>
    <nd ref="39992820"/>
    <nd ref="40093292"/>
    <nd ref="40057796"/>
    <nd ref="40093295"/>
    <nd ref="40026465"/>
    <tag k="created_by" v="Potlatch 0.10f"/>
    <tag k="highway" v="primary"/>
    <tag k="name" v="Klamath Falls-Malin Highway"/>
    <tag k="name_1" v="State Highway 39"/>
    <tag k="name_2" v="State Highway 140"/>
    <tag k="name_3" v="Highway 140"/>
    <tag k="name_4" v="Highway 39"/>
    <tag k="ref" v="OR 39; OR 140"/>
    <tag k="tiger:cfcc" v="A31"/>
    <tag k="tiger:county" v="Klamath, OR"/>
    <tag k="tiger:name_base" v="Klamath Falls-Malin"/>
    <tag k="tiger:name_base_1" v="State Highway 39"/>
    <tag k="tiger:name_base_2" v="State Highway 140"/>
    <tag k="tiger:name_base_3" v="Highway 140"/>
    <tag k="tiger:name_base_4" v="Highway 39"/>
    <tag k="tiger:name_type" v="Hwy"/>
    <tag k="tiger:reviewed" v="no"/>
    <tag k="tiger:separated" v="no"/>
    <tag k="tiger:source" v="tiger_import_dch_v0.6_20070808"/>
    <tag k="tiger:tlid" v="156660592:156660755:156660955:156660957:156660216:156661050:156660586:156660974:156660097:156699036:156699042:156699043:156699037:156710373"/>
    <tag k="tiger:zip_left" v="97603"/>
    <tag k="tiger:zip_right" v="97603"/>
  </way>
  <way id="32425067" version="4" timestamp="2010-07-08T02:28:07Z" uid="92286" user="Paul Johnson" changeset="5163079">
    <nd ref="40041272"/>
    <nd ref="39661219"/>
    <nd ref="40093267"/>
    <nd ref="40093270"/>
    <nd ref="40093272"/>
    <nd ref="40093274"/>
    <nd ref="40093277"/>
    <nd ref="40093281"/>
    <nd ref="40093283"/>
    <nd ref="40050872"/>
    <nd ref="40093286"/>
    <nd ref="40093288"/>
    <nd ref="39992820"/>
    <nd ref="40093292"/>
    <nd ref="40057796"/>
    <nd ref="40093295"/>
    <nd ref="40026465"/>
    <tag k="highway" v="primary"/>
    <tag k="name" v="Klamath Falls-Malin Highway"/>
    <tag k="name_1" v="State Highway 39"/>
    <tag k="name_2" v="State Highway 140"/>
    <tag k="name_3" v="Highway 140"/>
    <tag k="name_4" v="Highway 39"/>
    <tag k="ref" v="OR 140"/>
    <tag k="tiger:cfcc" v="A31"/>
    <tag k="tiger:county" v="Klamath, OR"/>
    <tag k="tiger:name_base" v="Klamath Falls-Malin"/>
    <tag k="tiger:name_base_1" v="State Highway 39"/>
    <tag k="tiger:name_base_2" v="State Highway 140"/>
    <tag k="tiger:name_base_3" v="Highway 140"/>
    <tag k="tiger:name_base_4" v="Highway 39"/>
    <tag k="tiger:name_type" v="Hwy"/>
    <tag k="tiger:reviewed" v="no"/>
    <tag k="tiger:separated" v="no"/>
    <tag k="tiger:source" v="tiger_import_dch_v0.6_20070808"/>
    <tag k="tiger:tlid" v="156660592:156660755:156660955:156660957:156660216:156661050:156660586:156660974:156660097:156699036:156699042:156699043:156699037:156710373"/>
    <tag k="tiger:zip_left" v="97603"/>
    <tag k="tiger:zip_right" v="97603"/>
  </way>
  <way id="32425067" version="5" timestamp="2010-07-18T00:14:26Z" uid="46482" user="Leon K" changeset="5247223">
    <nd ref="40041272"/>
    <nd ref="39661219"/>
    <nd ref="40093267"/>
    <nd ref="822316949"/>
    <tag k="highway" v="primary"/>
    <tag k="name" v="Klamath Falls-Malin Highway"/>
    <tag k="name_1" v="State Highway 39"/>
    <tag k="name_2" v="State Highway 140"/>
    <tag k="name_3" v="Highway 140"/>
    <tag k="name_4" v="Highway 39"/>
    <tag k="ref" v="OR 140"/>
    <tag k="tiger:cfcc" v="A31"/>
    <tag k="tiger:county" v="Klamath, OR"/>
    <tag k="tiger:name_base" v="Klamath Falls-Malin"/>
    <tag k="tiger:name_base_1" v="State Highway 39"/>
    <tag k="tiger:name_base_2" v="State Highway 140"/>
    <tag k="tiger:name_base_3" v="Highway 140"/>
    <tag k="tiger:name_base_4" v="Highway 39"/>
    <tag k="tiger:name_type" v="Hwy"/>
    <tag k="tiger:reviewed" v="no"/>
    <tag k="tiger:separated" v="no"/>
    <tag k="tiger:source" v="tiger_import_dch_v0.6_20070808"/>
    <tag k="tiger:tlid" v="156660592:156660755:156660955:156660957:156660216:156661050:156660586:156660974:156660097:156699036:156699042:156699043:156699037:156710373"/>
    <tag k="tiger:zip_left" v="97603"/>
    <tag k="tiger:zip_right" v="97603"/>
  </way>
  <way id="32425067" version="6" timestamp="2010-07-18T00:14:30Z" uid="46482" user="Leon K" changeset="5247223">
    <nd ref="40041272"/>
    <nd ref="39661219"/>
    <nd ref="40093267"/>
    <tag k="highway" v="primary"/>
    <tag k="name" v="Klamath Falls-Malin Highway"/>
    <tag k="name_1" v="State Highway 39"/>
    <tag k="name_2" v="State Highway 140"/>
    <tag k="name_3" v="Highway 140"/>
    <tag k="name_4" v="Highway 39"/>
    <tag k="ref" v="OR 140"/>
    <tag k="tiger:cfcc" v="A31"/>
    <tag k="tiger:county" v="Klamath, OR"/>
    <tag k="tiger:name_base" v="Klamath Falls-Malin"/>
    <tag k="tiger:name_base_1" v="State Highway 39"/>
    <tag k="tiger:name_base_2" v="State Highway 140"/>
    <tag k="tiger:name_base_3" v="Highway 140"/>
    <tag k="tiger:name_base_4" v="Highway 39"/>
    <tag k="tiger:name_type" v="Hwy"/>
    <tag k="tiger:reviewed" v="no"/>
    <tag k="tiger:separated" v="no"/>
    <tag k="tiger:source" v="tiger_import_dch_v0.6_20070808"/>
    <tag k="tiger:tlid" v="156660592:156660755:156660955:156660957:156660216:156661050:156660586:156660974:156660097:156699036:156699042:156699043:156699037:156710373"/>
    <tag k="tiger:zip_left" v="97603"/>
    <tag k="tiger:zip_right" v="97603"/>
  </way>
  <way id="32425067" version="7" timestamp="2010-12-10T22:51:41Z" uid="373763" user="ylekot" changeset="6612255">
    <nd ref="40041272"/>
    <nd ref="39661219"/>
    <nd ref="40093267"/>
    <tag k="highway" v="primary"/>
    <tag k="name" v="Klamath Falls-Malin Highway"/>
    <tag k="name_1" v="State Highway 39"/>
    <tag k="name_2" v="State Highway 140"/>
    <tag k="name_3" v="Highway 140"/>
    <tag k="name_4" v="Highway 39"/>
    <tag k="ref" v="OR 39; OR 140"/>
    <tag k="tiger:cfcc" v="A31"/>
    <tag k="tiger:county" v="Klamath, OR"/>
    <tag k="tiger:name_base" v="Klamath Falls-Malin"/>
    <tag k="tiger:name_base_1" v="State Highway 39"/>
    <tag k="tiger:name_base_2" v="State Highway 140"/>
    <tag k="tiger:name_base_3" v="Highway 140"/>
    <tag k="tiger:name_base_4" v="Highway 39"/>
    <tag k="tiger:name_type" v="Hwy"/>
    <tag k="tiger:reviewed" v="no"/>
    <tag k="tiger:separated" v="no"/>
    <tag k="tiger:source" v="tiger_import_dch_v0.6_20070808"/>
    <tag k="tiger:tlid" v="156660592:156660755:156660955:156660957:156660216:156661050:156660586:156660974:156660097:156699036:156699042:156699043:156699037:156710373"/>
    <tag k="tiger:zip_left" v="97603"/>
    <tag k="tiger:zip_right" v="97603"/>
  </way>
  <way id="32425067" version="8" timestamp="2010-12-22T03:19:40Z" uid="373763" user="ylekot" changeset="6732050">
    <nd ref="40041272"/>
    <nd ref="39661219"/>
    <nd ref="40093267"/>
    <tag k="highway" v="primary"/>
    <tag k="name" v="Klamath Falls-Malin Highway"/>
    <tag k="name_1" v="State Highway 39"/>
    <tag k="name_2" v="State Highway 140"/>
    <tag k="name_3" v="Highway 140"/>
    <tag k="name_4" v="Highway 39"/>
    <tag k="ref" v="OR39-149"/>
    <tag k="tiger:cfcc" v="A31"/>
    <tag k="tiger:county" v="Klamath, OR"/>
    <tag k="tiger:name_base" v="Klamath Falls-Malin"/>
    <tag k="tiger:name_base_1" v="State Highway 39"/>
    <tag k="tiger:name_base_2" v="State Highway 140"/>
    <tag k="tiger:name_base_3" v="Highway 140"/>
    <tag k="tiger:name_base_4" v="Highway 39"/>
    <tag k="tiger:name_type" v="Hwy"/>
    <tag k="tiger:reviewed" v="no"/>
    <tag k="tiger:separated" v="no"/>
    <tag k="tiger:source" v="tiger_import_dch_v0.6_20070808"/>
    <tag k="tiger:tlid" v="156660592:156660755:156660955:156660957:156660216:156661050:156660586:156660974:156660097:156699036:156699042:156699043:156699037:156710373"/>
    <tag k="tiger:zip_left" v="97603"/>
    <tag k="tiger:zip_right" v="97603"/>
  </way>
  <way id="32425067" version="9" timestamp="2010-12-25T22:11:06Z" uid="373763" user="ylekot" changeset="6764145">
    <nd ref="40041272"/>
    <nd ref="39661219"/>
    <nd ref="40093267"/>
    <tag k="highway" v="primary"/>
    <tag k="name" v="Klamath Falls-Malin Highway"/>
    <tag k="name_1" v="State Highway 39"/>
    <tag k="name_2" v="State Highway 140"/>
    <tag k="name_3" v="Highway 140"/>
    <tag k="name_4" v="Highway 39"/>
    <tag k="ref" v="OR39-140"/>
    <tag k="tiger:cfcc" v="A31"/>
    <tag k="tiger:county" v="Klamath, OR"/>
    <tag k="tiger:name_base" v="Klamath Falls-Malin"/>
    <tag k="tiger:name_base_1" v="State Highway 39"/>
    <tag k="tiger:name_base_2" v="State Highway 140"/>
    <tag k="tiger:name_base_3" v="Highway 140"/>
    <tag k="tiger:name_base_4" v="Highway 39"/>
    <tag k="tiger:name_type" v="Hwy"/>
    <tag k="tiger:reviewed" v="no"/>
    <tag k="tiger:separated" v="no"/>
    <tag k="tiger:source" v="tiger_import_dch_v0.6_20070808"/>
    <tag k="tiger:tlid" v="156660592:156660755:156660955:156660957:156660216:156661050:156660586:156660974:156660097:156699036:156699042:156699043:156699037:156710373"/>
    <tag k="tiger:zip_left" v="97603"/>
    <tag k="tiger:zip_right" v="97603"/>
  </way>
  <way id="32425067" version="10" timestamp="2011-07-19T21:35:19Z" uid="473471" user="NE3" changeset="8773162">
    <nd ref="40041272"/>
    <nd ref="39661219"/>
    <nd ref="40093267"/>
    <tag k="NHS" v="yes"/>
    <tag k="highway" v="primary"/>
    <tag k="name" v="Klamath Falls-Malin Highway"/>
    <tag k="name_1" v="State Highway 39"/>
    <tag k="name_2" v="State Highway 140"/>
    <tag k="name_3" v="Highway 140"/>
    <tag k="name_4" v="Highway 39"/>
    <tag k="ref" v="OR 39;OR 140"/>
    <tag k="tiger:cfcc" v="A31"/>
    <tag k="tiger:county" v="Klamath, OR"/>
    <tag k="tiger:name_base" v="Klamath Falls-Malin"/>
    <tag k="tiger:name_base_1" v="State Highway 39"/>
    <tag k="tiger:name_base_2" v="State Highway 140"/>
    <tag k="tiger:name_base_3" v="Highway 140"/>
    <tag k="tiger:name_base_4" v="Highway 39"/>
    <tag k="tiger:name_type" v="Hwy"/>
    <tag k="tiger:reviewed" v="no"/>
    <tag k="tiger:separated" v="no"/>
    <tag k="tiger:source" v="tiger_import_dch_v0.6_20070808"/>
    <tag k="tiger:tlid" v="156660592:156660755:156660955:156660957:156660216:156661050:156660586:156660974:156660097:156699036:156699042:156699043:156699037:156710373"/>
    <tag k="tiger:zip_left" v="97603"/>
    <tag k="tiger:zip_right" v="97603"/>
  </way>
  <way id="32425067" version="11" timestamp="2011-08-09T13:04:59Z" uid="207745" user="NE2" changeset="8967018">
    <nd ref="40041272"/>
    <nd ref="39661219"/>
    <nd ref="40093267"/>
    <tag k="NHS" v="yes"/>
    <tag k="highway" v="primary"/>
    <tag k="name" v="Klamath Falls-Malin Highway"/>
    <tag k="ref" v="OR 39;OR 140"/>
    <tag k="tiger:cfcc" v="A31"/>
    <tag k="tiger:county" v="Klamath, OR"/>
    <tag k="tiger:name_base" v="Klamath Falls-Malin"/>
    <tag k="tiger:name_base_1" v="State Highway 39"/>
    <tag k="tiger:name_base_2" v="State Highway 140"/>
    <tag k="tiger:name_base_3" v="Highway 140"/>
    <tag k="tiger:name_base_4" v="Highway 39"/>
    <tag k="tiger:name_type" v="Hwy"/>
    <tag k="tiger:reviewed" v="no"/>
    <tag k="tiger:separated" v="no"/>
    <tag k="tiger:source" v="tiger_import_dch_v0.6_20070808"/>
    <tag k="tiger:tlid" v="156660592:156660755:156660955:156660957:156660216:156661050:156660586:156660974:156660097:156699036:156699042:156699043:156699037:156710373"/>
    <tag k="tiger:zip_left" v="97603"/>
    <tag k="tiger:zip_right" v="97603"/>
  </way>
  <way id="32425076" version="1" timestamp="2009-03-22T08:47:07Z" uid="12188" user="Babis" changeset="843134">
    <nd ref="364629475"/>
    <nd ref="364629476"/>
    <nd ref="364629477"/>
    <tag k="created_by" v="Potlatch 0.10f"/>
  </way>
  <way id="32425076" version="2" timestamp="2009-03-22T08:48:15Z" uid="12188" user="Babis" changeset="843134">
    <nd ref="364629511"/>
    <nd ref="364629476"/>
    <nd ref="364629477"/>
    <tag k="created_by" v="Potlatch 0.10f"/>
  </way>
  <way id="32425076" version="3" timestamp="2009-03-22T08:48:56Z" uid="12188" user="Babis" changeset="843134">
    <nd ref="364629511"/>
    <nd ref="364629476"/>
    <nd ref="364629477"/>
    <tag k="created_by" v="Potlatch 0.10f"/>
    <tag k="highway" v="residential"/>
    <tag k="name" v="Ακταίων"/>
    <tag k="name:en" v="Akteon"/>
    <tag k="source" v="Yahoo"/>
  </way>
  <way id="32425098" version="1" timestamp="2009-03-22T08:49:58Z" uid="12188" user="Babis" changeset="843134">
    <nd ref="364629576"/>
    <nd ref="364629577"/>
    <nd ref="364629578"/>
    <tag k="created_by" v="Potlatch 0.10f"/>
  </way>
  <way id="32425098" version="2" timestamp="2009-03-22T08:50:46Z" uid="12188" user="Babis" changeset="843134">
    <nd ref="364629576"/>
    <nd ref="364629577"/>
    <nd ref="364629578"/>
    <tag k="created_by" v="Potlatch 0.10f"/>
    <tag k="highway" v="residential"/>
    <tag k="name" v="Συρράκου"/>
    <tag k="name:en" v="Sirrakou"/>
    <tag k="source" v="Yahoo"/>
  </way>
  <way id="32425098" version="3" timestamp="2009-03-22T08:51:18Z" uid="12188" user="Babis" changeset="843134">
    <nd ref="364629576"/>
    <nd ref="364629577"/>
    <nd ref="364629761"/>
    <nd ref="364629578"/>
    <tag k="created_by" v="Potlatch 0.10f"/>
    <tag k="highway" v="residential"/>
    <tag k="name" v="Συρράκου"/>
    <tag k="name:en" v="Sirrakou"/>
    <tag k="source" v="Yahoo"/>
  </way>
  <way id="32425119" version="8" timestamp="2010-07-08T18:57:57Z" uid="74617" user="JohnSmith" changeset="5167338">
    <nd ref="364629748"/>
    <nd ref="480466150"/>
    <nd ref="364630043"/>
    <nd ref="480466154"/>
    <nd ref="364629749"/>
    <nd ref="480466157"/>
    <nd ref="364630163"/>
    <nd ref="480466160"/>
    <nd ref="364629750"/>
    <nd ref="480466165"/>
    <nd ref="364630167"/>
    <nd ref="480466171"/>
    <nd ref="364629752"/>
    <nd ref="480466175"/>
    <nd ref="480466176"/>
    <nd ref="364630170"/>
    <nd ref="480466178"/>
    <nd ref="364629748"/>
    <tag k="highway" v="residential"/>
    <tag k="junction" v="roundabout"/>
    <tag k="maxspeed" v="50"/>
    <tag k="maxspeed:source" v="default residential speed limit in Australia"/>
    <tag k="name" v="Lauderdale Road"/>
  </way>
  <way id="32425119" version="9" timestamp="2012-01-18T15:07:50Z" uid="147510" user="woodpeck_fixbot" changeset="10427327">
    <nd ref="364629748"/>
    <nd ref="480466150"/>
    <nd ref="364630043"/>
    <nd ref="480466154"/>
    <nd ref="364629749"/>
    <nd ref="480466157"/>
    <nd ref="364630163"/>
    <nd ref="480466160"/>
    <nd ref="364629750"/>
    <nd ref="480466165"/>
    <nd ref="364630167"/>
    <nd ref="480466171"/>
    <nd ref="364629752"/>
    <nd ref="480466175"/>
    <nd ref="480466176"/>
    <nd ref="364630170"/>
    <nd ref="480466178"/>
    <nd ref="364629748"/>
    <tag k="highway" v="residential"/>
    <tag k="junction" v="roundabout"/>
    <tag k="name" v="Lauderdale Road"/>
  </way>
  <way id="32425128" version="1" timestamp="2009-03-22T08:51:17Z" uid="12188" user="Babis" changeset="843134">
    <nd ref="364629760"/>
    <nd ref="364629761"/>
    <nd ref="364104168"/>
    <tag k="created_by" v="Potlatch 0.10f"/>
    <tag k="highway" v="residential"/>
  </way>
  <way id="32425128" version="2" timestamp="2009-03-22T08:51:31Z" uid="12188" user="Babis" changeset="843134">
    <nd ref="364629760"/>
    <nd ref="364629761"/>
    <nd ref="364629775"/>
    <nd ref="364104168"/>
    <tag k="created_by" v="Potlatch 0.10f"/>
    <tag k="highway" v="residential"/>
  </way>
  <way id="32425130" version="1" timestamp="2009-03-22T08:51:31Z" uid="12188" user="Babis" changeset="843134">
    <nd ref="364629775"/>
    <nd ref="363824389"/>
    <tag k="created_by" v="Potlatch 0.10f"/>
  </way>
  <way id="32425130" version="2" timestamp="2009-03-22T08:52:04Z" uid="12188" user="Babis" changeset="843134">
    <nd ref="364629775"/>
    <nd ref="363824389"/>
    <tag k="created_by" v="Potlatch 0.10f"/>
    <tag k="highway" v="residential"/>
    <tag k="name" v="Αυλώνος"/>
    <tag k="name:en" v="Avlonos"/>
    <tag k="source" v="Yahoo"/>
  </way>
  <way id="32425134" version="8" timestamp="2010-07-08T18:58:28Z" uid="74617" user="JohnSmith" changeset="5167338">
    <nd ref="364629750"/>
    <nd ref="364629805"/>
    <nd ref="364629808"/>
    <nd ref="364629810"/>
    <nd ref="653948776"/>
    <nd ref="364629974"/>
    <nd ref="364630004"/>
    <tag k="highway" v="residential"/>
    <tag k="maxspeed" v="50"/>
    <tag k="maxspeed:source" v="default residential speed limit in Australia"/>
    <tag k="name" v="Lauderdale Road"/>
  </way>
  <way id="32425134" version="9" timestamp="2010-09-30T06:44:59Z" uid="320632" user="Zulu99" changeset="5917328">
    <nd ref="364629750"/>
    <nd ref="364629805"/>
    <nd ref="364629808"/>
    <nd ref="364629810"/>
    <nd ref="653948776"/>
    <nd ref="931482295"/>
    <nd ref="364629974"/>
    <nd ref="364630004"/>
    <tag k="highway" v="residential"/>
    <tag k="maxspeed" v="50"/>
    <tag k="maxspeed:source" v="default residential speed limit in Australia"/>
    <tag k="name" v="Lauderdale Road"/>
  </way>
  <way id="32425134" version="10" timestamp="2012-01-18T15:07:52Z" uid="147510" user="woodpeck_fixbot" changeset="10427327">
    <nd ref="364629750"/>
    <nd ref="364629805"/>
    <nd ref="364629808"/>
    <nd ref="364629810"/>
    <nd ref="653948776"/>
    <nd ref="931482295"/>
    <nd ref="364629974"/>
    <nd ref="364630004"/>
    <tag k="highway" v="residential"/>
    <tag k="name" v="Lauderdale Road"/>
  </way>
  <way id="32425157" version="2" timestamp="2010-03-22T05:47:08Z" uid="20587" user="balrog-kun" changeset="4199043">
    <nd ref="40026529"/>
    <nd ref="40012570"/>
    <nd ref="40026533"/>
    <nd ref="40026536"/>
    <nd ref="40026539"/>
    <nd ref="39965821"/>
    <nd ref="40026543"/>
    <nd ref="40026546"/>
    <nd ref="40026549"/>
    <nd ref="40004080"/>
    <nd ref="40026554"/>
    <nd ref="40026557"/>
    <nd ref="40026559"/>
    <nd ref="40026561"/>
    <nd ref="40026564"/>
    <nd ref="39737853"/>
    <nd ref="40026569"/>
    <nd ref="39737855"/>
    <nd ref="40026572"/>
    <nd ref="40026574"/>
    <nd ref="40026577"/>
    <nd ref="40026581"/>
    <nd ref="40026583"/>
    <nd ref="40026585"/>
    <nd ref="40026587"/>
    <nd ref="40026588"/>
    <nd ref="40026592"/>
    <nd ref="40026594"/>
    <nd ref="39798326"/>
    <nd ref="40026599"/>
    <nd ref="39839198"/>
    <nd ref="40026603"/>
    <nd ref="40026607"/>
    <nd ref="40026609"/>
    <nd ref="39901006"/>
    <nd ref="39748087"/>
    <nd ref="40026612"/>
    <nd ref="40026615"/>
    <nd ref="40026617"/>
    <nd ref="40026620"/>
    <nd ref="40026622"/>
    <nd ref="40026625"/>
    <nd ref="40026628"/>
    <nd ref="40026631"/>
    <nd ref="40026635"/>
    <nd ref="40026638"/>
    <nd ref="40026641"/>
    <tag k="created_by" v="Potlatch 0.10f"/>
    <tag k="highway" v="primary"/>
    <tag k="name" v="South 6th Street"/>
    <tag k="name_1" v="State Highway 39 (Bus)"/>
    <tag k="tiger:cfcc" v="A31"/>
    <tag k="tiger:county" v="Klamath, OR"/>
    <tag k="tiger:name_base" v="6th"/>
    <tag k="tiger:name_base_1" v="State Highway 39 (Bus)"/>
    <tag k="tiger:name_direction_prefix" v="S"/>
    <tag k="tiger:name_type" v="St"/>
    <tag k="tiger:reviewed" v="no"/>
    <tag k="tiger:separated" v="no"/>
    <tag k="tiger:source" v="tiger_import_dch_v0.6_20070808"/>
    <tag k="tiger:tlid" v="156657561:156657598:156657573:156659323:156657665:156659328:156657679:156657641:156657611"/>
    <tag k="tiger:zip_left" v="97603"/>
    <tag k="tiger:zip_right" v="97601"/>
  </way>
  <way id="32425157" version="3" timestamp="2010-07-07T18:10:14Z" uid="92286" user="Paul Johnson" changeset="5160407">
    <nd ref="40026529"/>
    <nd ref="40012570"/>
    <nd ref="40026533"/>
    <nd ref="40026536"/>
    <nd ref="40026539"/>
    <nd ref="39965821"/>
    <nd ref="40026543"/>
    <nd ref="40026546"/>
    <nd ref="40026549"/>
    <nd ref="40004080"/>
    <nd ref="40026554"/>
    <nd ref="40026557"/>
    <nd ref="40026559"/>
    <nd ref="40026561"/>
    <nd ref="40026564"/>
    <nd ref="39737853"/>
    <nd ref="40026569"/>
    <nd ref="454108045"/>
    <nd ref="40026572"/>
    <nd ref="40026574"/>
    <nd ref="40026577"/>
    <nd ref="40026581"/>
    <nd ref="40026583"/>
    <nd ref="40026585"/>
    <nd ref="40026587"/>
    <nd ref="40026588"/>
    <nd ref="40026592"/>
    <nd ref="40217826"/>
    <nd ref="39798326"/>
    <nd ref="40026599"/>
    <nd ref="39839198"/>
    <nd ref="40026603"/>
    <nd ref="40026607"/>
    <nd ref="40026609"/>
    <nd ref="39901006"/>
    <nd ref="39748087"/>
    <nd ref="40168003"/>
    <nd ref="40026615"/>
    <nd ref="40026617"/>
    <nd ref="40026620"/>
    <nd ref="40026622"/>
    <nd ref="40026625"/>
    <nd ref="40026628"/>
    <nd ref="40026631"/>
    <nd ref="40026635"/>
    <nd ref="40026638"/>
    <nd ref="40026641"/>
    <tag k="highway" v="primary"/>
    <tag k="name" v="South 6th Street"/>
    <tag k="name_1" v="State Highway 39 (Bus)"/>
    <tag k="tiger:cfcc" v="A31"/>
    <tag k="tiger:county" v="Klamath, OR"/>
    <tag k="tiger:name_base" v="6th"/>
    <tag k="tiger:name_base_1" v="State Highway 39 (Bus)"/>
    <tag k="tiger:name_direction_prefix" v="S"/>
    <tag k="tiger:name_type" v="St"/>
    <tag k="tiger:reviewed" v="no"/>
    <tag k="tiger:separated" v="no"/>
    <tag k="tiger:source" v="tiger_import_dch_v0.6_20070808"/>
    <tag k="tiger:tlid" v="156657561:156657598:156657573:156659323:156657665:156659328:156657679:156657641:156657611"/>
    <tag k="tiger:zip_left" v="97603"/>
    <tag k="tiger:zip_right" v="97601"/>
  </way>
  <way id="32425157" version="4" timestamp="2010-07-18T13:05:54Z" uid="46482" user="Leon K" changeset="5250976"/>
  <way id="32425166" version="1" timestamp="2009-03-22T08:52:32Z" uid="12188" user="Babis" changeset="843134">
    <nd ref="364630000"/>
    <nd ref="364630001"/>
    <nd ref="364630002"/>
    <tag k="created_by" v="Potlatch 0.10f"/>
    <tag k="highway" v="residential"/>
  </way>
  <way id="32425169" version="1" timestamp="2009-03-22T08:52:54Z" uid="12188" user="Babis" changeset="843134">
    <nd ref="364630014"/>
    <nd ref="364630015"/>
    <tag k="created_by" v="Potlatch 0.10f"/>
  </way>
  <way id="32425169" version="2" timestamp="2009-03-22T08:53:34Z" uid="12188" user="Babis" changeset="843134">
    <nd ref="364630014"/>
    <nd ref="364630015"/>
    <tag k="created_by" v="Potlatch 0.10f"/>
    <tag k="highway" v="residential"/>
    <tag k="name" v="Διδυμοτείχου"/>
    <tag k="name:en" v="Didimotihou"/>
    <tag k="source" v="Yahoo"/>
  </way>
  <way id="32425188" version="4" timestamp="2010-03-22T05:47:09Z" uid="20587" user="balrog-kun" changeset="4199043">
    <nd ref="40068114"/>
    <nd ref="40033206"/>
    <nd ref="39851771"/>
    <nd ref="40046204"/>
    <nd ref="39852096"/>
    <nd ref="40083118"/>
    <nd ref="40100933"/>
    <tag k="created_by" v="Potlatch 0.10f"/>
    <tag k="highway" v="tertiary"/>
    <tag k="name" v="Main Street"/>
    <tag k="name_1" v="United States Highway 97 (Bus)"/>
    <tag k="name_2" v="State Highway 39 (Bus)"/>
    <tag k="ref" v="US 97 Business; US:OR 39 Business"/>
    <tag k="tiger:cfcc" v="A21"/>
    <tag k="tiger:county" v="Klamath, OR"/>
    <tag k="tiger:name_base" v="Main"/>
    <tag k="tiger:name_base_1" v="United States Highway 97 (Bus)"/>
    <tag k="tiger:name_base_2" v="State Highway 39 (Bus)"/>
    <tag k="tiger:name_type" v="St"/>
    <tag k="tiger:reviewed" v="no"/>
    <tag k="tiger:separated" v="no"/>
    <tag k="tiger:source" v="tiger_import_dch_v0.6_20070808"/>
    <tag k="tiger:tlid" v="156658157:156657449:156659304:156657504:156657479:156657459:156657591:156657671:156658118:156657645:156657617"/>
    <tag k="tiger:zip_left" v="97601"/>
    <tag k="tiger:zip_right" v="97601"/>
  </way>
  <way id="32425188" version="5" timestamp="2011-12-31T13:12:48Z" uid="207745" user="NE2" changeset="10254526">
    <nd ref="40068114"/>
    <nd ref="40033206"/>
    <nd ref="39851771"/>
    <nd ref="40046204"/>
    <nd ref="39852096"/>
    <nd ref="40083118"/>
    <nd ref="40100933"/>
    <tag k="highway" v="tertiary"/>
    <tag k="name" v="Main Street"/>
    <tag k="tiger:cfcc" v="A21"/>
    <tag k="tiger:county" v="Klamath, OR"/>
    <tag k="tiger:name_base" v="Main"/>
    <tag k="tiger:name_base_1" v="United States Highway 97 (Bus)"/>
    <tag k="tiger:name_base_2" v="State Highway 39 (Bus)"/>
    <tag k="tiger:name_type" v="St"/>
    <tag k="tiger:reviewed" v="no"/>
    <tag k="tiger:separated" v="no"/>
    <tag k="tiger:source" v="tiger_import_dch_v0.6_20070808"/>
    <tag k="tiger:tlid" v="156658157:156657449:156659304:156657504:156657479:156657459:156657591:156657671:156658118:156657645:156657617"/>
    <tag k="tiger:zip_left" v="97601"/>
    <tag k="tiger:zip_right" v="97601"/>
  </way>
  <way id="32425188" version="6" timestamp="2012-01-01T02:48:23Z" uid="92286" user="Paul Johnson" changeset="10259049">
    <nd ref="40068114"/>
    <nd ref="1572277907"/>
    <tag k="highway" v="tertiary"/>
    <tag k="name" v="Main Street"/>
    <tag k="tiger:cfcc" v="A21"/>
    <tag k="tiger:county" v="Klamath, OR"/>
    <tag k="tiger:name_base" v="Main"/>
    <tag k="tiger:name_base_1" v="United States Highway 97 (Bus)"/>
    <tag k="tiger:name_base_2" v="State Highway 39 (Bus)"/>
    <tag k="tiger:name_type" v="St"/>
    <tag k="tiger:reviewed" v="no"/>
    <tag k="tiger:separated" v="no"/>
    <tag k="tiger:source" v="tiger_import_dch_v0.6_20070808"/>
    <tag k="tiger:tlid" v="156658157:156657449:156659304:156657504:156657479:156657459:156657591:156657671:156658118:156657645:156657617"/>
    <tag k="tiger:zip_left" v="97601"/>
    <tag k="tiger:zip_right" v="97601"/>
  </way>
  <way id="32425201" version="1" timestamp="2009-03-22T08:54:22Z" uid="12188" user="Babis" changeset="843134">
    <nd ref="364630364"/>
    <nd ref="364630365"/>
    <nd ref="364630366"/>
    <tag k="created_by" v="Potlatch 0.10f"/>
  </way>
  <way id="32425201" version="2" timestamp="2009-03-22T08:55:06Z" uid="12188" user="Babis" changeset="843134">
    <nd ref="364630364"/>
    <nd ref="364630365"/>
    <nd ref="364630366"/>
    <tag k="created_by" v="Potlatch 0.10f"/>
    <tag k="highway" v="residential"/>
    <tag k="name" v="Αμόργου"/>
    <tag k="name:en" v="Amorgou"/>
    <tag k="source" v="Yahoo"/>
  </way>
  <way id="32425210" version="1" timestamp="2009-03-22T08:55:25Z" uid="12188" user="Babis" changeset="843134">
    <nd ref="364630582"/>
    <nd ref="364630583"/>
    <nd ref="362558389"/>
    <tag k="created_by" v="Potlatch 0.10f"/>
  </way>
  <way id="32425210" version="2" timestamp="2009-03-22T08:55:55Z" uid="12188" user="Babis" changeset="843134">
    <nd ref="364630582"/>
    <nd ref="364630583"/>
    <nd ref="362558389"/>
    <tag k="created_by" v="Potlatch 0.10f"/>
    <tag k="highway" v="residential"/>
    <tag k="name" v="Στασινοπούλου"/>
    <tag k="name:en" v="Stasinopoulou"/>
    <tag k="source" v="Yahoo"/>
  </way>
  <way id="32425228" version="1" timestamp="2009-03-22T08:56:33Z" uid="12188" user="Babis" changeset="843134">
    <nd ref="364630858"/>
    <nd ref="364630859"/>
    <tag k="created_by" v="Potlatch 0.10f"/>
  </way>
  <way id="32425228" version="2" timestamp="2009-03-22T08:57:05Z" uid="12188" user="Babis" changeset="843134">
    <nd ref="364630858"/>
    <nd ref="364630859"/>
    <tag k="created_by" v="Potlatch 0.10f"/>
    <tag k="highway" v="residential"/>
    <tag k="name" v="Φλωρίνης"/>
    <tag k="name:en" v="Florinis"/>
    <tag k="source" v="Yahoo"/>
  </way>
  <way id="32425252" version="1" timestamp="2009-03-22T08:58:09Z" uid="12188" user="Babis" changeset="843134">
    <nd ref="364631155"/>
    <nd ref="364631156"/>
    <nd ref="364631157"/>
    <nd ref="364631158"/>
    <nd ref="288678882"/>
    <nd ref="364631159"/>
    <tag k="created_by" v="Potlatch 0.10f"/>
  </way>
  <way id="32425252" version="2" timestamp="2009-03-22T08:59:11Z" uid="12188" user="Babis" changeset="843134">
    <nd ref="364631155"/>
    <nd ref="364631156"/>
    <nd ref="364631157"/>
    <nd ref="364631158"/>
    <nd ref="288678882"/>
    <nd ref="364631159"/>
    <tag k="created_by" v="Potlatch 0.10f"/>
    <tag k="highway" v="residential"/>
    <tag k="name" v="Μανζάρου"/>
    <tag k="name:en" v="Mantzarou"/>
    <tag k="source" v="Yahoo"/>
  </way>
  <way id="32425252" version="3" timestamp="2009-03-22T09:18:17Z" uid="12188" user="Babis" changeset="843134">
    <nd ref="364631155"/>
    <nd ref="364631156"/>
    <nd ref="364631157"/>
    <nd ref="364636242"/>
    <nd ref="364631158"/>
    <nd ref="288678882"/>
    <nd ref="364631159"/>
    <tag k="created_by" v="Potlatch 0.10f"/>
    <tag k="highway" v="residential"/>
    <tag k="name" v="Μανζάρου"/>
    <tag k="name:en" v="Mantzarou"/>
    <tag k="source" v="Yahoo"/>
  </way>
  <way id="32425252" version="4" timestamp="2010-11-29T21:48:45Z" uid="23785" user="greecemapper" changeset="6490171">
    <nd ref="364631155"/>
    <nd ref="364631156"/>
    <nd ref="364631157"/>
    <nd ref="364636242"/>
    <nd ref="1012810025"/>
    <tag k="highway" v="residential"/>
    <tag k="name" v="Μανζάρου"/>
    <tag k="name:en" v="Mantzarou"/>
    <tag k="source" v="Yahoo"/>
  </way>
  <way id="32425258" version="1" timestamp="2009-03-22T08:59:41Z" uid="12188" user="Babis" changeset="843134">
    <nd ref="362561950"/>
    <nd ref="364631202"/>
    <tag k="created_by" v="Potlatch 0.10f"/>
  </way>
  <way id="32425258" version="2" timestamp="2009-03-22T09:00:07Z" uid="12188" user="Babis" changeset="843134">
    <nd ref="362561950"/>
    <nd ref="364631202"/>
    <tag k="created_by" v="Potlatch 0.10f"/>
    <tag k="highway" v="residential"/>
    <tag k="name" v="Μανζάρου"/>
    <tag k="name:en" v="Mantzarou"/>
    <tag k="source" v="Yahoo"/>
  </way>
  <way id="32425258" version="3" timestamp="2009-03-22T09:01:04Z" uid="12188" user="Babis" changeset="843134">
    <nd ref="362561950"/>
    <nd ref="364631202"/>
    <tag k="created_by" v="Potlatch 0.10f"/>
    <tag k="highway" v="residential"/>
    <tag k="name" v="Σινά"/>
    <tag k="name:en" v="Sina"/>
    <tag k="source" v="Yahoo"/>
  </way>
  <way id="32425261" version="1" timestamp="2009-03-22T08:59:59Z" uid="12188" user="Babis" changeset="843134">
    <nd ref="364631209"/>
    <nd ref="362561952"/>
    <tag k="created_by" v="Potlatch 0.10f"/>
  </way>
  <way id="32425261" version="2" timestamp="2009-03-22T09:00:37Z" uid="12188" user="Babis" changeset="843134">
    <nd ref="364631209"/>
    <nd ref="362561952"/>
    <tag k="created_by" v="Potlatch 0.10f"/>
    <tag k="highway" v="residential"/>
    <tag k="name" v="Αρσακείου"/>
    <tag k="name:en" v="Arsakiou"/>
    <tag k="source" v="Yahoo"/>
  </way>
  <way id="32425261" version="3" timestamp="2009-03-22T09:23:40Z" uid="12188" user="Babis" changeset="843134">
    <nd ref="364636785"/>
    <nd ref="364636786"/>
    <nd ref="364631209"/>
    <nd ref="362561952"/>
    <tag k="created_by" v="Potlatch 0.10f"/>
    <tag k="highway" v="residential"/>
    <tag k="name" v="Αρσακείου"/>
    <tag k="name:en" v="Arsakiou"/>
    <tag k="source" v="Yahoo"/>
  </way>
  <way id="32425261" version="4" timestamp="2010-11-29T21:48:42Z" uid="23785" user="greecemapper" changeset="6490171">
    <nd ref="364636785"/>
    <nd ref="364636786"/>
    <nd ref="1012809985"/>
    <nd ref="364631209"/>
    <nd ref="362561952"/>
    <tag k="highway" v="residential"/>
    <tag k="name" v="Αρσακείου"/>
    <tag k="name:en" v="Arsakiou"/>
    <tag k="source" v="Yahoo"/>
  </way>
  <way id="32425297" version="3" timestamp="2010-07-09T04:13:54Z" uid="74617" user="JohnSmith" changeset="5170825">
    <nd ref="540430248"/>
    <nd ref="364631406"/>
    <nd ref="364631407"/>
    <tag k="highway" v="residential"/>
    <tag k="maxspeed" v="50"/>
    <tag k="maxspeed:source" v="default residential speed limit in Australia"/>
    <tag k="name" v="ViewHill Crescent"/>
  </way>
  <way id="32425297" version="4" timestamp="2011-01-14T22:20:29Z" uid="395515" user="Haylock" changeset="6972124">
    <nd ref="540430248"/>
    <nd ref="364631406"/>
    <tag k="highway" v="residential"/>
    <tag k="maxspeed" v="50"/>
    <tag k="maxspeed:source" v="default residential speed limit in Australia"/>
    <tag k="name" v="ViewHill Crescent"/>
  </way>
  <way id="32425297" version="5" timestamp="2011-01-14T22:40:02Z" uid="395515" user="Haylock" changeset="6972200">
    <nd ref="540430248"/>
    <nd ref="1103954418"/>
    <nd ref="364631406"/>
    <tag k="highway" v="residential"/>
    <tag k="maxspeed" v="50"/>
    <tag k="maxspeed:source" v="default residential speed limit in Australia"/>
    <tag k="name" v="ViewHill Crescent"/>
  </way>
  <way id="32425297" version="6" timestamp="2011-01-15T07:07:25Z" uid="395515" user="Haylock" changeset="6973955">
    <nd ref="540430248"/>
    <nd ref="1103954418"/>
    <nd ref="364631406"/>
    <tag k="highway" v="residential"/>
    <tag k="maxspeed" v="50"/>
    <tag k="maxspeed:source" v="default residential speed limit in Australia"/>
    <tag k="name" v="View Hill Crescent"/>
  </way>
  <way id="32425297" version="7" timestamp="2012-01-18T15:07:53Z" uid="147510" user="woodpeck_fixbot" changeset="10427327">
    <nd ref="540430248"/>
    <nd ref="1103954418"/>
    <nd ref="364631406"/>
    <tag k="highway" v="residential"/>
    <tag k="name" v="View Hill Crescent"/>
  </way>
  <way id="32425305" version="1" timestamp="2009-03-22T09:02:40Z" uid="12188" user="Babis" changeset="843134">
    <nd ref="364631657"/>
    <nd ref="251128122"/>
    <nd ref="364631658"/>
    <nd ref="364631659"/>
    <nd ref="362565239"/>
    <tag k="created_by" v="Potlatch 0.10f"/>
  </way>
  <way id="32425305" version="2" timestamp="2009-03-22T09:03:02Z" uid="12188" user="Babis" changeset="843134">
    <nd ref="251128066"/>
    <nd ref="251128122"/>
    <nd ref="364631658"/>
    <nd ref="364631659"/>
    <nd ref="362565239"/>
    <tag k="created_by" v="Potlatch 0.10f"/>
  </way>
  <way id="32425305" version="3" timestamp="2009-03-22T09:03:46Z" uid="12188" user="Babis" changeset="843134">
    <nd ref="251128066"/>
    <nd ref="251128122"/>
    <nd ref="364631658"/>
    <nd ref="364631659"/>
    <nd ref="362565239"/>
    <tag k="created_by" v="Potlatch 0.10f"/>
    <tag k="highway" v="residential"/>
    <tag k="name" v="Καλλικράτειας"/>
    <tag k="name:en" v="Kallikratias"/>
    <tag k="source" v="Yahoo"/>
  </way>
  <way id="32425305" version="4" timestamp="2009-03-22T09:07:11Z" uid="12188" user="Babis" changeset="843134">
    <nd ref="251128066"/>
    <nd ref="364632360"/>
    <nd ref="251128122"/>
    <nd ref="364631658"/>
    <nd ref="364631659"/>
    <nd ref="362565239"/>
    <tag k="created_by" v="Potlatch 0.10f"/>
    <tag k="highway" v="residential"/>
    <tag k="name" v="Καλλικράτειας"/>
    <tag k="name:en" v="Kallikratias"/>
    <tag k="source" v="Yahoo"/>
  </way>
  <way id="32425305" version="5" timestamp="2009-03-22T09:10:48Z" uid="12188" user="Babis" changeset="843134">
    <nd ref="251128066"/>
    <nd ref="364632360"/>
    <nd ref="251128122"/>
    <nd ref="364631658"/>
    <nd ref="364631659"/>
    <nd ref="362565239"/>
    <tag k="created_by" v="Potlatch 0.10f"/>
    <tag k="highway" v="residential"/>
    <tag k="name" v="Καλλικράτειας"/>
    <tag k="name:en" v="Kallikratias"/>
    <tag k="source" v="Yahoo"/>
  </way>
  <way id="32425305" version="6" timestamp="2009-03-22T09:11:12Z" uid="12188" user="Babis" changeset="843134">
    <nd ref="251128066"/>
    <nd ref="364632360"/>
    <nd ref="364633724"/>
    <nd ref="251128122"/>
    <nd ref="364631658"/>
    <nd ref="364631659"/>
    <nd ref="362565239"/>
    <tag k="created_by" v="Potlatch 0.10f"/>
    <tag k="highway" v="residential"/>
    <tag k="name" v="Καλλικράτειας"/>
    <tag k="name:en" v="Kallikratias"/>
    <tag k="source" v="Yahoo"/>
  </way>
  <way id="32425305" version="7" timestamp="2010-11-29T21:48:32Z" uid="23785" user="greecemapper" changeset="6490171">
    <nd ref="251128066"/>
    <nd ref="364632360"/>
    <nd ref="364633724"/>
    <nd ref="251128122"/>
    <nd ref="364631658"/>
    <nd ref="364631659"/>
    <nd ref="1012810005"/>
    <nd ref="362565239"/>
    <tag k="highway" v="residential"/>
    <tag k="name" v="Καλλικράτειας"/>
    <tag k="name:en" v="Kallikratias"/>
    <tag k="source" v="Yahoo"/>
  </way>
  <way id="32425305" version="8" timestamp="2011-01-24T20:31:43Z" uid="653" user="aitolos" changeset="7077610">
    <nd ref="251128066"/>
    <nd ref="364632360"/>
    <nd ref="364633724"/>
    <nd ref="251128122"/>
    <nd ref="364631658"/>
    <tag k="highway" v="residential"/>
    <tag k="name" v="Καλλικράτειας"/>
    <tag k="name:en" v="Kallikratias"/>
    <tag k="source" v="Yahoo"/>
  </way>
  <way id="32425388" version="3" timestamp="2009-11-03T20:10:11Z" uid="23543" user="jkjk" changeset="3027823">
    <nd ref="364632046"/>
    <nd ref="365128149"/>
    <nd ref="365128145"/>
    <nd ref="365128141"/>
    <nd ref="364632064"/>
    <tag k="highway" v="residential"/>
    <tag k="name" v="Hakenova"/>
  </way>
  <way id="32425423" version="2" timestamp="2009-11-03T20:10:11Z" uid="23543" user="jkjk" changeset="3027823">
    <nd ref="364632071"/>
    <nd ref="364632178"/>
    <nd ref="364632064"/>
    <tag k="highway" v="residential"/>
    <tag k="name" v="Kapitána Jaroše"/>
  </way>
  <way id="32425471" version="1" timestamp="2009-03-22T09:07:10Z" uid="12188" user="Babis" changeset="843134">
    <nd ref="364632359"/>
    <nd ref="251127425"/>
    <nd ref="364632360"/>
    <nd ref="364632361"/>
    <nd ref="251128244"/>
    <nd ref="251128199"/>
    <nd ref="364632362"/>
    <nd ref="251128108"/>
    <nd ref="364632363"/>
    <nd ref="251126863"/>
    <tag k="created_by" v="Potlatch 0.10f"/>
  </way>
  <way id="32425471" version="2" timestamp="2009-03-22T09:08:52Z" uid="12188" user="Babis" changeset="843134">
    <nd ref="364632359"/>
    <nd ref="251127425"/>
    <nd ref="364632360"/>
    <nd ref="364632361"/>
    <nd ref="251128244"/>
    <nd ref="251128199"/>
    <nd ref="364632362"/>
    <nd ref="251128108"/>
    <nd ref="364632363"/>
    <nd ref="251126863"/>
    <tag k="created_by" v="Potlatch 0.10f"/>
  </way>
  <way id="32425471" version="3" timestamp="2009-03-22T09:09:09Z" uid="12188" user="Babis" changeset="843134">
    <nd ref="364632359"/>
    <nd ref="251127425"/>
    <nd ref="364632360"/>
    <nd ref="364632361"/>
    <nd ref="251128244"/>
    <nd ref="251128199"/>
    <nd ref="364632362"/>
    <tag k="created_by" v="Potlatch 0.10f"/>
  </way>
  <way id="32425471" version="4" timestamp="2009-03-22T09:10:02Z" uid="12188" user="Babis" changeset="843134">
    <nd ref="251128068"/>
    <nd ref="251127425"/>
    <nd ref="364632360"/>
    <nd ref="364632361"/>
    <nd ref="251128244"/>
    <nd ref="251128199"/>
    <nd ref="364632362"/>
    <tag k="created_by" v="Potlatch 0.10f"/>
    <tag k="highway" v="residential"/>
    <tag k="name" v="Ηρακλείου"/>
    <tag k="name:en" v="Irakliou"/>
    <tag k="source" v="Yahoo"/>
  </way>
  <way id="32425471" version="5" timestamp="2009-03-22T09:11:11Z" uid="12188" user="Babis" changeset="843134">
    <nd ref="251128068"/>
    <nd ref="364633721"/>
    <nd ref="251127425"/>
    <nd ref="364632360"/>
    <nd ref="364632361"/>
    <nd ref="251128244"/>
    <nd ref="251128199"/>
    <nd ref="364632362"/>
    <tag k="created_by" v="Potlatch 0.10f"/>
    <tag k="highway" v="residential"/>
    <tag k="name" v="Ηρακλείου"/>
    <tag k="name:en" v="Irakliou"/>
    <tag k="source" v="Yahoo"/>
  </way>
  <way id="32425471" version="6" timestamp="2009-03-22T09:23:38Z" uid="12188" user="Babis" changeset="843134">
    <nd ref="251128068"/>
    <nd ref="364636785"/>
    <nd ref="364633721"/>
    <nd ref="251127425"/>
    <nd ref="364632360"/>
    <nd ref="364632361"/>
    <nd ref="251128244"/>
    <nd ref="251128199"/>
    <nd ref="364632362"/>
    <tag k="created_by" v="Potlatch 0.10f"/>
    <tag k="highway" v="residential"/>
    <tag k="name" v="Ηρακλείου"/>
    <tag k="name:en" v="Irakliou"/>
    <tag k="source" v="Yahoo"/>
  </way>
  <way id="32425471" version="7" timestamp="2009-10-11T10:07:40Z" uid="12188" user="Babis" changeset="2812414">
    <nd ref="364636785"/>
    <nd ref="364633721"/>
    <nd ref="251127425"/>
    <nd ref="364632360"/>
    <nd ref="364632361"/>
    <nd ref="251128244"/>
    <nd ref="251128199"/>
    <nd ref="364632362"/>
    <tag k="highway" v="residential"/>
    <tag k="name" v="Ηρακλείου"/>
    <tag k="name:en" v="Irakliou"/>
    <tag k="source" v="Yahoo"/>
  </way>
  <way id="32425471" version="8" timestamp="2010-11-29T22:02:06Z" uid="23785" user="greecemapper" changeset="6490283">
    <nd ref="364636785"/>
    <nd ref="364633721"/>
    <nd ref="251127425"/>
    <nd ref="364632360"/>
    <nd ref="364632361"/>
    <nd ref="251128244"/>
    <nd ref="251128199"/>
    <nd ref="1012825547"/>
    <nd ref="364632362"/>
    <tag k="highway" v="residential"/>
    <tag k="name" v="Ηρακλείου"/>
    <tag k="name:en" v="Irakliou"/>
    <tag k="source" v="Yahoo"/>
  </way>
  <way id="32425472" version="3" timestamp="2010-05-12T07:40:31Z" uid="4467" user="Rosscoe" changeset="4674937">
    <nd ref="251447485"/>
    <nd ref="251447486"/>
    <nd ref="251447487"/>
    <nd ref="730567052"/>
    <nd ref="730567054"/>
    <nd ref="251447488"/>
    <tag k="highway" v="residential"/>
    <tag k="name" v="Wingrove Street"/>
    <tag k="source" v="nearmap"/>
    <tag k="source:name" v="Collins 1936"/>
  </way>
  <way id="32425472" version="4" timestamp="2010-07-09T04:57:26Z" uid="74617" user="JohnSmith" changeset="5170972">
    <nd ref="251447485"/>
    <nd ref="251447486"/>
    <nd ref="251447487"/>
    <nd ref="730567052"/>
    <nd ref="730567054"/>
    <nd ref="251447488"/>
    <tag k="highway" v="residential"/>
    <tag k="maxspeed" v="50"/>
    <tag k="maxspeed:source" v="default residential speed limit in Australia"/>
    <tag k="name" v="Wingrove Street"/>
    <tag k="source" v="nearmap"/>
    <tag k="source:name" v="Collins 1936"/>
  </way>
  <way id="32425472" version="5" timestamp="2012-01-18T15:07:58Z" uid="147510" user="woodpeck_fixbot" changeset="10427327">
    <nd ref="251447485"/>
    <nd ref="251447486"/>
    <nd ref="251447487"/>
    <nd ref="730567052"/>
    <nd ref="730567054"/>
    <nd ref="251447488"/>
    <tag k="highway" v="residential"/>
    <tag k="name" v="Wingrove Street"/>
    <tag k="source" v="nearmap"/>
    <tag k="source:name" v="Collins 1936"/>
  </way>
  <way id="32425472" version="6" timestamp="2012-03-23T11:44:28Z" uid="211804" user="KenS" changeset="11072932">
    <nd ref="251447485"/>
    <nd ref="251447486"/>
    <nd ref="1687058584"/>
    <nd ref="1687058586"/>
    <nd ref="1687058589"/>
    <tag k="highway" v="residential"/>
    <tag k="name" v="Wingrove Street"/>
    <tag k="source" v="nearmap"/>
    <tag k="source:name" v="Collins 1936"/>
  </way>
  <way id="32425479" version="4" timestamp="2010-05-12T07:40:32Z" uid="4467" user="Rosscoe" changeset="4674937">
    <nd ref="364632412"/>
    <nd ref="730567056"/>
    <nd ref="251447551"/>
    <nd ref="251447485"/>
    <tag k="cycleway" v="lane"/>
    <tag k="highway" v="residential"/>
    <tag k="name" v="Wingrove Street"/>
    <tag k="source" v="nearmap"/>
    <tag k="source:name" v="Collins 1936"/>
  </way>
  <way id="32425479" version="5" timestamp="2010-07-09T04:55:36Z" uid="74617" user="JohnSmith" changeset="5170972">
    <nd ref="364632412"/>
    <nd ref="730567056"/>
    <nd ref="251447551"/>
    <nd ref="251447485"/>
    <tag k="cycleway" v="lane"/>
    <tag k="highway" v="residential"/>
    <tag k="maxspeed" v="50"/>
    <tag k="maxspeed:source" v="default residential speed limit in Australia"/>
    <tag k="name" v="Wingrove Street"/>
    <tag k="source" v="nearmap"/>
    <tag k="source:name" v="Collins 1936"/>
  </way>
  <way id="32425479" version="6" timestamp="2012-01-18T15:08:00Z" uid="147510" user="woodpeck_fixbot" changeset="10427327">
    <nd ref="364632412"/>
    <nd ref="730567056"/>
    <nd ref="251447551"/>
    <nd ref="251447485"/>
    <tag k="cycleway" v="lane"/>
    <tag k="highway" v="residential"/>
    <tag k="name" v="Wingrove Street"/>
    <tag k="source" v="nearmap"/>
    <tag k="source:name" v="Collins 1936"/>
  </way>
  <way id="32425479" version="7" timestamp="2012-03-23T11:30:32Z" uid="211804" user="KenS" changeset="11072811">
    <nd ref="364632412"/>
    <nd ref="251447551"/>
    <nd ref="251447485"/>
    <tag k="cycleway" v="lane"/>
    <tag k="highway" v="residential"/>
    <tag k="name" v="Wingrove Street"/>
    <tag k="source" v="nearmap"/>
    <tag k="source:name" v="Collins 1936"/>
  </way>
  <way id="32425480" version="3" timestamp="2010-05-12T07:40:32Z" uid="4467" user="Rosscoe" changeset="4674937"/>
  <way id="32425511" version="1" timestamp="2009-03-22T09:09:09Z" uid="12188" user="Babis" changeset="843134">
    <nd ref="364632362"/>
    <nd ref="251128108"/>
    <nd ref="364632363"/>
    <nd ref="251126863"/>
    <tag k="created_by" v="Potlatch 0.10f"/>
  </way>
  <way id="32425511" version="2" timestamp="2009-03-22T09:10:13Z" uid="12188" user="Babis" changeset="843134">
    <nd ref="364632362"/>
    <nd ref="251128108"/>
    <nd ref="364632363"/>
    <nd ref="251126863"/>
    <tag k="created_by" v="Potlatch 0.10f"/>
    <tag k="highway" v="residential"/>
  </way>
  <way id="32425511" version="3" timestamp="2010-11-29T22:02:02Z" uid="23785" user="greecemapper" changeset="6490283">
    <nd ref="364632362"/>
    <nd ref="1012825722"/>
    <nd ref="251128144"/>
    <tag k="highway" v="residential"/>
  </way>
  <way id="32425511" version="4" timestamp="2011-02-27T14:35:42Z" uid="653" user="aitolos" changeset="7410376">
    <nd ref="364632362"/>
    <nd ref="1012825722"/>
    <nd ref="251128144"/>
    <tag k="highway" v="residential"/>
    <tag k="name" v="Ηρακλείου"/>
  </way>
  <way id="32425545" version="8" timestamp="2010-07-09T05:02:21Z" uid="74617" user="JohnSmith" changeset="5170972">
    <nd ref="251447474"/>
    <nd ref="251447839"/>
    <nd ref="251447476"/>
    <nd ref="251447477"/>
    <nd ref="251447478"/>
    <nd ref="251447479"/>
    <nd ref="251447845"/>
    <nd ref="251447480"/>
    <nd ref="251447481"/>
    <nd ref="251447482"/>
    <nd ref="251447483"/>
    <nd ref="364632413"/>
    <tag k="cycleway" v="lane"/>
    <tag k="highway" v="residential"/>
    <tag k="maxspeed" v="50"/>
    <tag k="maxspeed:source" v="default residential speed limit in Australia"/>
    <tag k="name" v="Wingrove Street"/>
    <tag k="source" v="Yahoo"/>
    <tag k="source:name" v="Collins 1936"/>
  </way>
  <way id="32425545" version="9" timestamp="2011-08-07T21:43:44Z" uid="320632" user="Zulu99" changeset="8952319">
    <nd ref="251447474"/>
    <nd ref="251447839"/>
    <nd ref="1390223493"/>
    <nd ref="251447476"/>
    <nd ref="251447477"/>
    <nd ref="251447478"/>
    <nd ref="251447479"/>
    <nd ref="251447845"/>
    <nd ref="251447480"/>
    <nd ref="251447481"/>
    <nd ref="251447482"/>
    <nd ref="251447483"/>
    <nd ref="364632413"/>
    <tag k="cycleway" v="lane"/>
    <tag k="highway" v="residential"/>
    <tag k="maxspeed" v="50"/>
    <tag k="maxspeed:source" v="default residential speed limit in Australia"/>
    <tag k="name" v="Wingrove Street"/>
    <tag k="source" v="Yahoo"/>
    <tag k="source:name" v="Collins 1936"/>
  </way>
  <way id="32425545" version="10" timestamp="2012-01-18T15:08:01Z" uid="147510" user="woodpeck_fixbot" changeset="10427327">
    <nd ref="251447474"/>
    <nd ref="251447839"/>
    <nd ref="1390223493"/>
    <nd ref="251447476"/>
    <nd ref="251447477"/>
    <nd ref="251447478"/>
    <nd ref="251447479"/>
    <nd ref="251447845"/>
    <nd ref="251447480"/>
    <nd ref="251447481"/>
    <nd ref="251447482"/>
    <nd ref="251447483"/>
    <nd ref="364632413"/>
    <tag k="cycleway" v="lane"/>
    <tag k="highway" v="residential"/>
    <tag k="name" v="Wingrove Street"/>
    <tag k="source" v="Yahoo"/>
    <tag k="source:name" v="Collins 1936"/>
  </way>
  <way id="32425577" version="1" timestamp="2009-03-22T09:11:10Z" uid="12188" user="Babis" changeset="843134">
    <nd ref="364633721"/>
    <nd ref="364633722"/>
    <nd ref="364633723"/>
    <nd ref="364633724"/>
    <tag k="created_by" v="Potlatch 0.10f"/>
  </way>
  <way id="32425577" version="2" timestamp="2009-03-22T09:11:20Z" uid="12188" user="Babis" changeset="843134">
    <nd ref="364633721"/>
    <nd ref="364633722"/>
    <nd ref="364633723"/>
    <nd ref="364633724"/>
    <tag k="created_by" v="Potlatch 0.10f"/>
    <tag k="highway" v="residential"/>
    <tag k="source" v="Yahoo"/>
  </way>
  <way id="32425577" version="3" timestamp="2009-03-22T09:11:47Z" uid="12188" user="Babis" changeset="843134">
    <nd ref="364633721"/>
    <nd ref="364633722"/>
    <nd ref="364633947"/>
    <nd ref="364633723"/>
    <nd ref="364633724"/>
    <tag k="created_by" v="Potlatch 0.10f"/>
    <tag k="highway" v="residential"/>
    <tag k="source" v="Yahoo"/>
  </way>
  <way id="32425577" version="4" timestamp="2011-02-27T14:35:17Z" uid="653" user="aitolos" changeset="7410376">
    <nd ref="364633721"/>
    <nd ref="364633722"/>
    <nd ref="364633947"/>
    <nd ref="364633946"/>
    <tag k="highway" v="residential"/>
    <tag k="source" v="Yahoo"/>
  </way>
  <way id="32425602" version="1" timestamp="2009-03-22T09:11:46Z" uid="12188" user="Babis" changeset="843134">
    <nd ref="364633946"/>
    <nd ref="364633947"/>
    <tag k="created_by" v="Potlatch 0.10f"/>
    <tag k="highway" v="residential"/>
  </way>
  <way id="32425602" version="2" timestamp="2011-02-27T14:35:43Z" uid="653" user="aitolos" changeset="7410376"/>
  <way id="32425653" version="1" timestamp="2009-03-22T09:13:26Z" uid="12188" user="Babis" changeset="843134">
    <nd ref="364634736"/>
    <nd ref="364634737"/>
    <tag k="created_by" v="Potlatch 0.10f"/>
  </way>
  <way id="32425653" version="2" timestamp="2009-03-22T09:15:24Z" uid="12188" user="Babis" changeset="843134">
    <nd ref="364634736"/>
    <nd ref="364634737"/>
    <tag k="created_by" v="Potlatch 0.10f"/>
    <tag k="highway" v="residential"/>
    <tag k="name" v="Δωδεκανήσου"/>
    <tag k="name:en" v="Dodekanisou"/>
    <tag k="source" v="Yahoo"/>
  </way>
  <way id="32425653" version="3" timestamp="2009-03-22T09:18:16Z" uid="12188" user="Babis" changeset="843134">
    <nd ref="364634736"/>
    <nd ref="364636239"/>
    <nd ref="364634737"/>
    <tag k="created_by" v="Potlatch 0.10f"/>
    <tag k="highway" v="residential"/>
    <tag k="name" v="Δωδεκανήσου"/>
    <tag k="name:en" v="Dodekanisou"/>
    <tag k="source" v="Yahoo"/>
  </way>
  <way id="32425653" version="4" timestamp="2009-03-22T10:08:42Z" uid="12188" user="Babis" changeset="843134">
    <nd ref="364644073"/>
    <nd ref="364636239"/>
    <nd ref="364634737"/>
    <tag k="created_by" v="Potlatch 0.10f"/>
    <tag k="highway" v="residential"/>
    <tag k="name" v="Δωδεκανήσου"/>
    <tag k="name:en" v="Dodekanisou"/>
    <tag k="source" v="Yahoo"/>
  </way>
  <way id="32425653" version="5" timestamp="2009-03-22T10:11:30Z" uid="12188" user="Babis" changeset="843134">
    <nd ref="364644073"/>
    <nd ref="364636239"/>
    <nd ref="364634737"/>
    <tag k="created_by" v="Potlatch 0.10f"/>
    <tag k="highway" v="residential"/>
    <tag k="name" v="Δωδεκανήσου"/>
    <tag k="name:en" v="Dodekanisou"/>
    <tag k="source" v="GPS"/>
  </way>
  <way id="32425653" version="6" timestamp="2009-03-22T10:14:38Z" uid="12188" user="Babis" changeset="843134">
    <nd ref="364644073"/>
    <nd ref="364645188"/>
    <nd ref="364636239"/>
    <nd ref="364634737"/>
    <tag k="created_by" v="Potlatch 0.10f"/>
    <tag k="highway" v="residential"/>
    <tag k="name" v="Δωδεκανήσου"/>
    <tag k="name:en" v="Dodekanisou"/>
    <tag k="source" v="GPS"/>
  </way>
  <way id="32425653" version="7" timestamp="2009-03-22T10:17:22Z" uid="12188" user="Babis" changeset="843134">
    <nd ref="364644073"/>
    <nd ref="364645188"/>
    <nd ref="364636239"/>
    <nd ref="364645756"/>
    <nd ref="364634737"/>
    <tag k="created_by" v="Potlatch 0.10f"/>
    <tag k="highway" v="residential"/>
    <tag k="name" v="Δωδεκανήσου"/>
    <tag k="name:en" v="Dodekanisou"/>
    <tag k="source" v="GPS"/>
  </way>
  <way id="32425653" version="8" timestamp="2010-11-29T21:48:31Z" uid="23785" user="greecemapper" changeset="6490171">
    <nd ref="364644073"/>
    <nd ref="364645188"/>
    <nd ref="364636239"/>
    <nd ref="364645756"/>
    <nd ref="1012809898"/>
    <nd ref="364634737"/>
    <tag k="highway" v="residential"/>
    <tag k="name" v="Δωδεκανήσου"/>
    <tag k="name:en" v="Dodekanisou"/>
    <tag k="source" v="GPS"/>
  </way>
  <way id="32425678" version="1" timestamp="2009-03-22T09:15:33Z" uid="12188" user="Babis" changeset="843134">
    <nd ref="364635388"/>
    <nd ref="364635390"/>
    <tag k="created_by" v="Potlatch 0.10f"/>
  </way>
  <way id="32425678" version="2" timestamp="2009-03-22T09:16:04Z" uid="12188" user="Babis" changeset="843134">
    <nd ref="364635388"/>
    <nd ref="364635390"/>
    <tag k="created_by" v="Potlatch 0.10f"/>
    <tag k="highway" v="residential"/>
    <tag k="name" v="Επτανήσου"/>
    <tag k="name:en" v="Eptanisou"/>
    <tag k="source" v="Yahoo"/>
  </way>
  <way id="32425678" version="3" timestamp="2009-03-22T10:17:18Z" uid="12188" user="Babis" changeset="843134">
    <nd ref="364635388"/>
    <nd ref="364645755"/>
    <nd ref="364635390"/>
    <tag k="created_by" v="Potlatch 0.10f"/>
    <tag k="highway" v="residential"/>
    <tag k="name" v="Επτανήσου"/>
    <tag k="name:en" v="Eptanisou"/>
    <tag k="source" v="Yahoo"/>
  </way>
  <way id="32425681" version="1" timestamp="2009-03-22T09:16:02Z" uid="7617" user="Franc" changeset="842657">
    <nd ref="359506001"/>
    <nd ref="359506010"/>
    <nd ref="359506015"/>
    <nd ref="359506022"/>
    <nd ref="359506028"/>
    <nd ref="359506038"/>
    <tag k="admin_level" v="10"/>
    <tag k="attribution" v="Based on Australian Bureau of Statistics data"/>
    <tag k="boundary" v="administrative"/>
    <tag k="source" v="ABS_2006"/>
  </way>
  <way id="32425681" version="2" timestamp="2009-11-14T12:03:27Z" uid="117890" user="Jonathan Trott" changeset="3112508">
    <nd ref="359506001"/>
    <nd ref="359506010"/>
    <nd ref="359506015"/>
    <nd ref="359506022"/>
    <nd ref="359506028"/>
    <nd ref="359506038"/>
    <tag k="admin_level" v="10"/>
    <tag k="attribution" v="Based on Australian Bureau of Statistics data"/>
    <tag k="boundary" v="administrative"/>
    <tag k="source" v="ABS_2006"/>
  </way>
  <way id="32425727" version="1" timestamp="2009-03-22T09:18:15Z" uid="12188" user="Babis" changeset="843134">
    <nd ref="364636239"/>
    <nd ref="364636240"/>
    <nd ref="364636241"/>
    <nd ref="364636242"/>
    <tag k="created_by" v="Potlatch 0.10f"/>
    <tag k="highway" v="residential"/>
    <tag k="name" v="Τυρνάβου"/>
    <tag k="name:en" v="Tirnavou"/>
    <tag k="source" v="Yahoo"/>
  </way>
  <way id="32425727" version="2" timestamp="2009-03-22T09:19:37Z" uid="12188" user="Babis" changeset="843134">
    <nd ref="364636239"/>
    <nd ref="364636240"/>
    <nd ref="364636241"/>
    <nd ref="364636561"/>
    <nd ref="364636242"/>
    <tag k="created_by" v="Potlatch 0.10f"/>
    <tag k="highway" v="residential"/>
    <tag k="name" v="Τυρνάβου"/>
    <tag k="name:en" v="Tirnavou"/>
    <tag k="source" v="Yahoo"/>
  </way>
  <way id="32425727" version="3" timestamp="2009-03-22T09:20:23Z" uid="12188" user="Babis" changeset="843134">
    <nd ref="364636239"/>
    <nd ref="364636240"/>
    <nd ref="364636241"/>
    <nd ref="364636561"/>
    <nd ref="364636585"/>
    <nd ref="364636242"/>
    <tag k="created_by" v="Potlatch 0.10f"/>
    <tag k="highway" v="residential"/>
    <tag k="name" v="Τυρνάβου"/>
    <tag k="name:en" v="Tirnavou"/>
    <tag k="source" v="Yahoo"/>
  </way>
  <way id="32425727" version="4" timestamp="2009-03-22T09:21:41Z" uid="12188" user="Babis" changeset="843134">
    <nd ref="364636239"/>
    <nd ref="364636240"/>
    <nd ref="364636241"/>
    <nd ref="364636561"/>
    <nd ref="364636585"/>
    <nd ref="364636675"/>
    <nd ref="364636242"/>
    <tag k="created_by" v="Potlatch 0.10f"/>
    <tag k="highway" v="residential"/>
    <tag k="name" v="Τυρνάβου"/>
    <tag k="name:en" v="Tirnavou"/>
    <tag k="source" v="Yahoo"/>
  </way>
  <way id="32425727" version="5" timestamp="2009-03-22T09:22:00Z" uid="12188" user="Babis" changeset="843134">
    <nd ref="364636239"/>
    <nd ref="364636240"/>
    <nd ref="364636241"/>
    <nd ref="364636561"/>
    <nd ref="364636585"/>
    <nd ref="364636675"/>
    <nd ref="364636739"/>
    <nd ref="364636242"/>
    <tag k="created_by" v="Potlatch 0.10f"/>
    <tag k="highway" v="residential"/>
    <tag k="name" v="Τυρνάβου"/>
    <tag k="name:en" v="Tirnavou"/>
    <tag k="source" v="Yahoo"/>
  </way>
  <way id="32425727" version="6" timestamp="2009-03-22T10:10:17Z" uid="12188" user="Babis" changeset="843134">
    <nd ref="364636239"/>
    <nd ref="364636240"/>
    <nd ref="364644539"/>
    <nd ref="364636241"/>
    <nd ref="364636561"/>
    <nd ref="364636585"/>
    <nd ref="364636675"/>
    <nd ref="364636739"/>
    <nd ref="364636242"/>
    <tag k="created_by" v="Potlatch 0.10f"/>
    <tag k="highway" v="residential"/>
    <tag k="name" v="Τυρνάβου"/>
    <tag k="name:en" v="Tirnavou"/>
    <tag k="source" v="Yahoo"/>
  </way>
  <way id="32425727" version="7" timestamp="2009-03-22T10:14:28Z" uid="12188" user="Babis" changeset="843134">
    <nd ref="364636239"/>
    <nd ref="364645181"/>
    <nd ref="364636240"/>
    <nd ref="364644539"/>
    <nd ref="364636241"/>
    <nd ref="364636561"/>
    <nd ref="364636585"/>
    <nd ref="364636675"/>
    <nd ref="364636739"/>
    <nd ref="364636242"/>
    <tag k="created_by" v="Potlatch 0.10f"/>
    <tag k="highway" v="residential"/>
    <tag k="name" v="Τυρνάβου"/>
    <tag k="name:en" v="Tirnavou"/>
    <tag k="source" v="Yahoo"/>
  </way>
  <way id="32425727" version="8" timestamp="2010-11-29T21:48:46Z" uid="23785" user="greecemapper" changeset="6490171">
    <nd ref="364636239"/>
    <nd ref="364645181"/>
    <nd ref="364636240"/>
    <nd ref="364644539"/>
    <nd ref="364636241"/>
    <nd ref="364636561"/>
    <nd ref="364636585"/>
    <nd ref="364636675"/>
    <nd ref="1012809938"/>
    <nd ref="364636739"/>
    <nd ref="364636242"/>
    <tag k="highway" v="residential"/>
    <tag k="name" v="Τυρνάβου"/>
    <tag k="name:en" v="Tirnavou"/>
    <tag k="source" v="Yahoo"/>
  </way>
  <way id="32425739" version="1" timestamp="2009-03-22T09:19:35Z" uid="12188" user="Babis" changeset="843134">
    <nd ref="364636558"/>
    <nd ref="364636559"/>
    <nd ref="364636560"/>
    <nd ref="364636561"/>
    <tag k="created_by" v="Potlatch 0.10f"/>
  </way>
  <way id="32425739" version="2" timestamp="2009-03-22T09:20:25Z" uid="12188" user="Babis" changeset="843134">
    <nd ref="364636558"/>
    <nd ref="364636559"/>
    <nd ref="364636560"/>
    <nd ref="364636561"/>
    <tag k="created_by" v="Potlatch 0.10f"/>
    <tag k="highway" v="residential"/>
    <tag k="name" v="Δραγατσανίου"/>
    <tag k="name:en" v="Dragatsaniou"/>
    <tag k="source" v="Yahoo"/>
  </way>
  <way id="32425739" version="3" timestamp="2010-11-29T21:48:32Z" uid="23785" user="greecemapper" changeset="6490171">
    <nd ref="364636558"/>
    <nd ref="364636559"/>
    <nd ref="1012809992"/>
    <nd ref="364636560"/>
    <nd ref="364636561"/>
    <tag k="highway" v="residential"/>
    <tag k="name" v="Δραγατσανίου"/>
    <tag k="name:en" v="Dragatsaniou"/>
    <tag k="source" v="Yahoo"/>
  </way>
  <way id="32425746" version="1" timestamp="2009-03-22T09:20:23Z" uid="12188" user="Babis" changeset="843134">
    <nd ref="364636585"/>
    <nd ref="364636586"/>
    <tag k="created_by" v="Potlatch 0.10f"/>
    <tag k="highway" v="residential"/>
    <tag k="name" v="Δραγατσανίου"/>
    <tag k="name:en" v="Dragatsaniou"/>
    <tag k="source" v="Yahoo"/>
  </way>
  <way id="32425746" version="2" timestamp="2009-03-22T10:15:15Z" uid="12188" user="Babis" changeset="843134">
    <nd ref="364636585"/>
    <nd ref="364645305"/>
    <nd ref="364636586"/>
    <tag k="created_by" v="Potlatch 0.10f"/>
    <tag k="highway" v="residential"/>
    <tag k="name" v="Δραγατσανίου"/>
    <tag k="name:en" v="Dragatsaniou"/>
    <tag k="source" v="Yahoo"/>
  </way>
  <way id="32425757" version="1" timestamp="2009-03-22T09:21:39Z" uid="12188" user="Babis" changeset="843134">
    <nd ref="362561947"/>
    <nd ref="364636675"/>
    <tag k="created_by" v="Potlatch 0.10f"/>
  </way>
  <way id="32425757" version="2" timestamp="2009-03-22T09:22:07Z" uid="12188" user="Babis" changeset="843134">
    <nd ref="362561947"/>
    <nd ref="364636675"/>
    <tag k="created_by" v="Potlatch 0.10f"/>
    <tag k="highway" v="residential"/>
    <tag k="name" v="Επτανήσου"/>
    <tag k="name:en" v="Eptanisou"/>
    <tag k="source" v="Yahoo"/>
  </way>
  <way id="32425757" version="3" timestamp="2009-03-22T09:23:10Z" uid="12188" user="Babis" changeset="843134">
    <nd ref="362561947"/>
    <nd ref="364636675"/>
    <tag k="created_by" v="Potlatch 0.10f"/>
    <tag k="highway" v="residential"/>
    <tag k="name" v="Ηγουμενίτσας"/>
    <tag k="name:en" v="Igoumenitsas"/>
    <tag k="source" v="Yahoo"/>
  </way>
  <way id="32425760" version="1" timestamp="2009-03-22T09:21:59Z" uid="12188" user="Babis" changeset="843134">
    <nd ref="364636739"/>
    <nd ref="362561949"/>
    <tag k="created_by" v="Potlatch 0.10f"/>
  </way>
  <way id="32425760" version="2" timestamp="2009-03-22T09:22:36Z" uid="12188" user="Babis" changeset="843134">
    <nd ref="364636739"/>
    <nd ref="362561949"/>
    <tag k="created_by" v="Potlatch 0.10f"/>
    <tag k="highway" v="residential"/>
    <tag k="name" v="Βύρωνος"/>
    <tag k="name:en" v="Vironos"/>
    <tag k="source" v="Yahoo"/>
  </way>
  <way id="32425844" version="1" timestamp="2009-03-22T09:30:37Z" uid="59758" user="rendle" changeset="845630">
    <nd ref="364637319"/>
    <nd ref="364637321"/>
    <nd ref="364637322"/>
    <nd ref="364637323"/>
    <nd ref="364637324"/>
    <nd ref="364637325"/>
    <nd ref="364637326"/>
    <nd ref="364637327"/>
    <nd ref="364637328"/>
    <nd ref="364637329"/>
    <nd ref="364637331"/>
    <nd ref="364637332"/>
    <nd ref="364637333"/>
    <nd ref="364637334"/>
    <tag k="created_by" v="Potlatch 0.10f"/>
  </way>
  <way id="32425844" version="2" timestamp="2009-03-22T09:34:22Z" uid="59758" user="rendle" changeset="845630">
    <nd ref="364637909"/>
    <nd ref="364637319"/>
    <nd ref="364637321"/>
    <nd ref="364637322"/>
    <nd ref="364637323"/>
    <nd ref="364637324"/>
    <nd ref="364637325"/>
    <nd ref="364637326"/>
    <nd ref="364637327"/>
    <nd ref="364637328"/>
    <nd ref="364637329"/>
    <nd ref="364637331"/>
    <nd ref="364637332"/>
    <nd ref="364637333"/>
    <nd ref="364637334"/>
    <tag k="created_by" v="Potlatch 0.10f"/>
    <tag k="highway" v="residential"/>
    <tag k="name" v="Grote Kouterstraat"/>
  </way>
  <way id="32425844" version="3" timestamp="2009-03-22T09:48:56Z" uid="59758" user="rendle" changeset="845630">
    <nd ref="364637909"/>
    <nd ref="364637319"/>
    <nd ref="364637321"/>
    <nd ref="364637322"/>
    <nd ref="364640654"/>
    <nd ref="364637323"/>
    <nd ref="364637324"/>
    <nd ref="364637325"/>
    <nd ref="364637326"/>
    <nd ref="364637327"/>
    <nd ref="364637328"/>
    <nd ref="364637329"/>
    <nd ref="364637331"/>
    <nd ref="364637332"/>
    <nd ref="364637333"/>
    <nd ref="364637334"/>
    <tag k="created_by" v="Potlatch 0.10f"/>
    <tag k="highway" v="residential"/>
    <tag k="name" v="Grote Kouterstraat"/>
  </way>
  <way id="32425844" version="4" timestamp="2009-03-22T09:52:40Z" uid="59758" user="rendle" changeset="845630">
    <nd ref="364637909"/>
    <nd ref="364637319"/>
    <nd ref="364637321"/>
    <nd ref="364637322"/>
    <nd ref="364640654"/>
    <nd ref="364637323"/>
    <nd ref="364641477"/>
    <nd ref="364637324"/>
    <nd ref="364637325"/>
    <nd ref="364637326"/>
    <nd ref="364637327"/>
    <nd ref="364637328"/>
    <nd ref="364637329"/>
    <nd ref="364637331"/>
    <nd ref="364637332"/>
    <nd ref="364637333"/>
    <nd ref="364637334"/>
    <tag k="created_by" v="Potlatch 0.10f"/>
    <tag k="highway" v="residential"/>
    <tag k="name" v="Grote Kouterstraat"/>
  </way>
  <way id="32425844" version="5" timestamp="2012-01-19T23:36:07Z" uid="138772" user="lodde1949" changeset="10442328"/>
  <way id="32425989" version="1" timestamp="2009-03-22T09:36:53Z" uid="59758" user="rendle" changeset="845630">
    <nd ref="364637334"/>
    <nd ref="364638572"/>
    <nd ref="364638573"/>
    <nd ref="364638574"/>
    <nd ref="364638575"/>
    <nd ref="364638576"/>
    <nd ref="364638577"/>
    <nd ref="364638578"/>
    <nd ref="364638579"/>
    <nd ref="364638580"/>
    <nd ref="364638581"/>
    <nd ref="364638582"/>
    <tag k="created_by" v="Potlatch 0.10f"/>
    <tag k="highway" v="track"/>
    <tag k="tracktype" v="grade2"/>
  </way>
  <way id="32425989" version="2" timestamp="2009-03-22T09:39:06Z" uid="59758" user="rendle" changeset="845630">
    <nd ref="364637334"/>
    <nd ref="364638572"/>
    <nd ref="364638573"/>
    <nd ref="364638574"/>
    <nd ref="364638575"/>
    <nd ref="364638576"/>
    <nd ref="364638577"/>
    <nd ref="364638578"/>
    <nd ref="364638579"/>
    <nd ref="364638580"/>
    <nd ref="364638581"/>
    <nd ref="364638741"/>
    <nd ref="364638582"/>
    <tag k="created_by" v="Potlatch 0.10f"/>
    <tag k="highway" v="track"/>
    <tag k="tracktype" v="grade2"/>
  </way>
  <way id="32425989" version="3" timestamp="2009-03-22T09:40:41Z" uid="59758" user="rendle" changeset="845630">
    <nd ref="364637334"/>
    <nd ref="364638572"/>
    <nd ref="364638573"/>
    <nd ref="364638574"/>
    <nd ref="364638575"/>
    <nd ref="364638576"/>
    <nd ref="364638577"/>
    <nd ref="364638578"/>
    <nd ref="364638579"/>
    <nd ref="364638580"/>
    <nd ref="364638936"/>
    <nd ref="364638581"/>
    <nd ref="364638741"/>
    <nd ref="364638582"/>
    <tag k="created_by" v="Potlatch 0.10f"/>
    <tag k="highway" v="track"/>
    <tag k="tracktype" v="grade2"/>
  </way>
  <way id="32425989" version="4" timestamp="2012-01-19T23:36:23Z" uid="138772" user="lodde1949" changeset="10442328"/>
  <way id="32425996" version="1" timestamp="2009-03-22T09:37:33Z" uid="59758" user="rendle" changeset="845630">
    <nd ref="364638576"/>
    <nd ref="364638597"/>
    <nd ref="364638598"/>
    <nd ref="364638599"/>
    <nd ref="364638600"/>
    <nd ref="364638601"/>
    <tag k="created_by" v="Potlatch 0.10f"/>
    <tag k="highway" v="track"/>
    <tag k="tracktype" v="grade2"/>
  </way>
  <way id="32425996" version="2" timestamp="2012-01-19T23:36:24Z" uid="138772" user="lodde1949" changeset="10442328"/>
  <way id="32425998" version="1" timestamp="2009-03-22T09:38:04Z" uid="59758" user="rendle" changeset="845630">
    <nd ref="364638626"/>
    <nd ref="364638627"/>
    <nd ref="364638628"/>
    <nd ref="364638629"/>
    <nd ref="364638630"/>
    <nd ref="364638631"/>
    <nd ref="364638632"/>
    <nd ref="364638633"/>
    <nd ref="364638634"/>
    <nd ref="364638635"/>
    <nd ref="364638636"/>
    <nd ref="364638637"/>
    <nd ref="364638638"/>
    <nd ref="364638639"/>
    <tag k="created_by" v="Potlatch 0.10f"/>
  </way>
  <way id="32425998" version="2" timestamp="2009-03-22T09:38:29Z" uid="59758" user="rendle" changeset="845630">
    <nd ref="364638626"/>
    <nd ref="364638627"/>
    <nd ref="364638628"/>
    <nd ref="364638629"/>
    <nd ref="364638630"/>
    <nd ref="364638631"/>
    <nd ref="364638632"/>
    <nd ref="364638633"/>
    <nd ref="364638634"/>
    <nd ref="364638635"/>
    <nd ref="364638636"/>
    <nd ref="364638637"/>
    <nd ref="364638638"/>
    <nd ref="364638639"/>
    <tag k="created_by" v="Potlatch 0.10f"/>
  </way>
  <way id="32425998" version="3" timestamp="2009-03-22T09:39:05Z" uid="59758" user="rendle" changeset="845630">
    <nd ref="364638626"/>
    <nd ref="364638627"/>
    <nd ref="364638628"/>
    <nd ref="364638629"/>
    <nd ref="364638630"/>
    <nd ref="364638631"/>
    <nd ref="364638632"/>
    <nd ref="364638633"/>
    <nd ref="364638634"/>
    <nd ref="364638635"/>
    <nd ref="364638636"/>
    <nd ref="364638637"/>
    <nd ref="364638638"/>
    <nd ref="364638741"/>
    <tag k="created_by" v="Potlatch 0.10f"/>
    <tag k="highway" v="track"/>
    <tag k="tracktype" v="grade2"/>
  </way>
  <way id="32425998" version="4" timestamp="2010-03-28T13:52:27Z" uid="221137" user="Piepo" changeset="4256732">
    <nd ref="582009528"/>
    <nd ref="676702661"/>
    <nd ref="676702666"/>
    <nd ref="676702672"/>
    <nd ref="676702674"/>
    <nd ref="676702676"/>
    <nd ref="676702681"/>
    <nd ref="364638627"/>
    <nd ref="364638628"/>
    <nd ref="364638629"/>
    <nd ref="364638630"/>
    <nd ref="364638631"/>
    <nd ref="364638632"/>
    <nd ref="364638633"/>
    <nd ref="364638634"/>
    <nd ref="364638635"/>
    <nd ref="364638636"/>
    <nd ref="364638637"/>
    <nd ref="364638638"/>
    <nd ref="364638741"/>
    <tag k="highway" v="track"/>
    <tag k="tracktype" v="grade2"/>
  </way>
  <way id="32425998" version="5" timestamp="2012-01-19T23:36:20Z" uid="138772" user="lodde1949" changeset="10442328"/>
</osm>
