<?xml version='1.0' encoding='UTF-8'?>
<osm version="0.6" generator="libosmium/2.20.0">
  <way id="32598025" version="2" timestamp="2009-09-30T15:18:14Z" uid="36809" user="pfoten_weg_!_" changeset="2689341">
    <nd ref="270367576"/>
    <nd ref="270367577"/>
    <nd ref="364776055"/>
    <nd ref="21140520"/>
    <tag k="highway" v="residential"/>
    <tag k="maxspeed" v="30"/>
    <tag k="name" v="Schornstraße"/>
  </way>
  <way id="32598025" version="3" timestamp="2010-11-07T21:07:55Z" uid="50629" user="reimarh" changeset="6316112"/>
  <way id="32598138" version="2" timestamp="2009-09-12T19:57:27Z" uid="20587" user="balrog-kun" changeset="2462174">
    <nd ref="366575726"/>
    <nd ref="366575725"/>
    <nd ref="366575720"/>
    <nd ref="366575718"/>
    <nd ref="366575724"/>
    <nd ref="366575722"/>
    <nd ref="366575728"/>
    <nd ref="366575729"/>
    <nd ref="366575727"/>
    <nd ref="366575726"/>
    <tag k="landuse" v="industrial"/>
    <tag k="man_made" v="wastewater_plant"/>
    <tag k="name" v="Oczyszczalnia ścieków"/>
    <tag k="source" v="http://ump.waw.pl/ retrieved 22:26:18 03/25/09 (UMP-Przemysl/src/PRZEMYSL.obszary.txt)"/>
  </way>
  <way id="32598139" version="2" timestamp="2009-09-12T19:57:20Z" uid="20587" user="balrog-kun" changeset="2462174">
    <nd ref="366575897"/>
    <nd ref="366575898"/>
    <nd ref="366575899"/>
    <nd ref="366575900"/>
    <nd ref="366575897"/>
    <tag k="leisure" v="park"/>
    <tag k="name" v="Park Baśki Puzon"/>
    <tag k="source" v="http://ump.waw.pl/ retrieved 22:26:18 03/25/09 (UMP-Przemysl/src/PRZEMYSL.obszary.txt)"/>
  </way>
  <way id="32598145" version="2" timestamp="2009-09-12T19:57:32Z" uid="20587" user="balrog-kun" changeset="2462174">
    <nd ref="366576071"/>
    <nd ref="366576061"/>
    <nd ref="366576064"/>
    <nd ref="366576074"/>
    <nd ref="366576075"/>
    <nd ref="366576072"/>
    <nd ref="366576071"/>
    <tag k="landuse" v="industrial"/>
    <tag k="name" v="Zakłady Mięsne Sokołów S.A."/>
    <tag k="source" v="http://ump.waw.pl/ retrieved 22:26:18 03/25/09 (UMP-Przemysl/src/PRZEMYSL.obszary.txt)"/>
  </way>
  <way id="32598146" version="2" timestamp="2009-09-12T19:57:24Z" uid="20587" user="balrog-kun" changeset="2462174">
    <nd ref="366576088"/>
    <nd ref="366576089"/>
    <nd ref="366576085"/>
    <nd ref="366576086"/>
    <nd ref="366576068"/>
    <nd ref="366576088"/>
    <tag k="landuse" v="industrial"/>
    <tag k="name" v="RZE Jarosław"/>
    <tag k="source" v="http://ump.waw.pl/ retrieved 22:26:18 03/25/09 (UMP-Przemysl/src/PRZEMYSL.obszary.txt)"/>
  </way>
  <way id="32598149" version="2" timestamp="2009-09-12T19:57:22Z" uid="20587" user="balrog-kun" changeset="2462174">
    <nd ref="366576044"/>
    <nd ref="366576059"/>
    <nd ref="366576050"/>
    <nd ref="366576026"/>
    <nd ref="366576022"/>
    <nd ref="366576029"/>
    <nd ref="366576044"/>
    <tag k="amenity" v="hospital"/>
    <tag k="building" v="hall"/>
    <tag k="name" v="COM Jarosław"/>
    <tag k="source" v="http://ump.waw.pl/ retrieved 22:26:18 03/25/09 (UMP-Przemysl/src/PRZEMYSL.obszary.txt)"/>
  </way>
  <way id="32598149" version="3" timestamp="2011-08-06T00:55:37Z" uid="467703" user="ZbigniewCzernik" changeset="8934109">
    <nd ref="366576044"/>
    <nd ref="366576059"/>
    <nd ref="366576050"/>
    <nd ref="1387965986"/>
    <nd ref="366576026"/>
    <nd ref="366576022"/>
    <nd ref="366576029"/>
    <nd ref="366576044"/>
    <tag k="amenity" v="hospital"/>
    <tag k="building" v="hall"/>
    <tag k="name" v="COM Jarosław"/>
  </way>
  <way id="32598150" version="2" timestamp="2009-09-12T19:57:24Z" uid="20587" user="balrog-kun" changeset="2462174">
    <nd ref="366576039"/>
    <nd ref="366576042"/>
    <nd ref="366576041"/>
    <nd ref="366576047"/>
    <nd ref="366576039"/>
    <tag k="amenity" v="place_of_worship"/>
    <tag k="building" v="yes"/>
    <tag k="denomination" v="roman_catholic"/>
    <tag k="name" v="Klasztor"/>
    <tag k="religion" v="christian"/>
    <tag k="source" v="http://ump.waw.pl/ retrieved 22:26:18 03/25/09 (UMP-Przemysl/src/PRZEMYSL.obszary.txt)"/>
  </way>
  <way id="32598151" version="2" timestamp="2009-09-12T19:57:21Z" uid="20587" user="balrog-kun" changeset="2462174">
    <nd ref="366576012"/>
    <nd ref="366576015"/>
    <nd ref="366576016"/>
    <nd ref="366576019"/>
    <nd ref="366576021"/>
    <nd ref="366575988"/>
    <nd ref="366575990"/>
    <nd ref="366575992"/>
    <nd ref="366575993"/>
    <nd ref="366575995"/>
    <nd ref="366575999"/>
    <nd ref="366576003"/>
    <nd ref="366576004"/>
    <nd ref="366576040"/>
    <nd ref="366576012"/>
    <tag k="landuse" v="allotments"/>
    <tag k="name" v="Ogródki działkowe"/>
    <tag k="source" v="http://ump.waw.pl/ retrieved 22:26:18 03/25/09 (UMP-Przemysl/src/PRZEMYSL.obszary.txt)"/>
  </way>
  <way id="32598152" version="2" timestamp="2009-09-12T19:57:25Z" uid="20587" user="balrog-kun" changeset="2462174">
    <nd ref="366575744"/>
    <nd ref="366575749"/>
    <nd ref="366575752"/>
    <nd ref="366576006"/>
    <nd ref="366576007"/>
    <nd ref="366576008"/>
    <nd ref="366575744"/>
    <tag k="landuse" v="allotments"/>
    <tag k="name" v="Ogródki działkowe"/>
    <tag k="source" v="http://ump.waw.pl/ retrieved 22:26:18 03/25/09 (UMP-Przemysl/src/PRZEMYSL.obszary.txt)"/>
  </way>
  <way id="32598154" version="2" timestamp="2009-09-12T19:57:24Z" uid="20587" user="balrog-kun" changeset="2462174">
    <nd ref="366575831"/>
    <nd ref="366575730"/>
    <nd ref="366575733"/>
    <nd ref="366575734"/>
    <nd ref="366575735"/>
    <nd ref="366575740"/>
    <nd ref="366575831"/>
    <tag k="landuse" v="allotments"/>
    <tag k="name" v="Ogródki działkowe"/>
    <tag k="source" v="http://ump.waw.pl/ retrieved 22:26:18 03/25/09 (UMP-Przemysl/src/PRZEMYSL.obszary.txt)"/>
  </way>
  <way id="32598163" version="2" timestamp="2009-09-12T19:57:19Z" uid="20587" user="balrog-kun" changeset="2462174">
    <nd ref="366576152"/>
    <nd ref="366576150"/>
    <nd ref="366576148"/>
    <nd ref="366576147"/>
    <nd ref="366576152"/>
    <tag k="landuse" v="cemetery"/>
    <tag k="name" v="Cmentarz Żydowski"/>
    <tag k="religion" v="jewish"/>
    <tag k="source" v="http://ump.waw.pl/ retrieved 22:26:18 03/25/09 (UMP-Przemysl/src/PRZEMYSL.obszary.txt)"/>
  </way>
  <way id="32598785" version="4" timestamp="2009-07-06T12:58:32Z" uid="43863" user="Rundling" changeset="1752786">
    <nd ref="366583646"/>
    <nd ref="33979094"/>
    <nd ref="33979095"/>
    <tag k="bicycle" v="yes"/>
    <tag k="highway" v="primary"/>
    <tag k="maxspeed" v="100"/>
    <tag k="ref" v="B 3"/>
  </way>
  <way id="32598785" version="5" timestamp="2009-12-28T11:33:19Z" uid="35560" user="HeikoE" changeset="3470478">
    <nd ref="366583646"/>
    <nd ref="33979094"/>
    <nd ref="33979095"/>
    <tag k="bicycle" v="yes"/>
    <tag k="highway" v="primary"/>
    <tag k="maxspeed" v="DE:rural"/>
    <tag k="ref" v="B 3"/>
  </way>
  <way id="32598785" version="6" timestamp="2010-06-04T10:17:38Z" uid="45882" user="smarties" changeset="4899871">
    <nd ref="366583646"/>
    <nd ref="33979094"/>
    <nd ref="33979095"/>
    <tag k="bicycle" v="yes"/>
    <tag k="cycleway" v="track"/>
    <tag k="highway" v="primary"/>
    <tag k="maxspeed" v="DE:rural"/>
    <tag k="ref" v="B 3"/>
  </way>
  <way id="32598785" version="7" timestamp="2010-09-13T10:07:34Z" uid="104779" user="ABRob" changeset="5768179">
    <nd ref="366583646"/>
    <nd ref="33979094"/>
    <nd ref="33979095"/>
    <tag k="bicycle" v="yes"/>
    <tag k="cycleway" v="track"/>
    <tag k="highway" v="primary"/>
    <tag k="maxspeed" v="100"/>
    <tag k="ref" v="B 3"/>
    <tag k="source:maxspeed" v="DE:rural"/>
    <tag k="zone:traffic" v="DE:rural"/>
  </way>
  <way id="32598785" version="8" timestamp="2011-01-14T11:30:41Z" uid="347762" user="Heideammer" changeset="6966273">
    <nd ref="366583646"/>
    <nd ref="33979094"/>
    <nd ref="1103120304"/>
    <nd ref="33979095"/>
    <tag k="bicycle" v="yes"/>
    <tag k="cycleway" v="track"/>
    <tag k="highway" v="primary"/>
    <tag k="maxspeed" v="100"/>
    <tag k="ref" v="B 3"/>
    <tag k="source:maxspeed" v="DE:rural"/>
    <tag k="zone:traffic" v="DE:rural"/>
  </way>
</osm>
