<?xml version='1.0' encoding='UTF-8'?>
<osm version="0.6" generator="libosmium/2.20.0">
  <way id="3264704" version="3" timestamp="2010-07-21T18:37:45Z" uid="9581" user="Lobelt" changeset="5281175">
    <nd ref="15507799"/>
    <nd ref="15599440"/>
    <nd ref="828000400"/>
    <nd ref="10854289"/>
    <nd ref="15599441"/>
    <nd ref="10854249"/>
    <nd ref="10854246"/>
    <tag k="highway" v="residential"/>
    <tag k="motor_vehicle" v="destination"/>
    <tag k="name" v="Alte Postgasse"/>
  </way>
  <way id="3264704" version="4" timestamp="2012-03-28T20:08:09Z" uid="110838" user="Bernhard W" changeset="11130628">
    <nd ref="15507799"/>
    <nd ref="15599440"/>
    <nd ref="828000400"/>
    <nd ref="10854289"/>
    <nd ref="15599441"/>
    <nd ref="10854249"/>
    <nd ref="10854246"/>
    <tag k="highway" v="residential"/>
    <tag k="motor_vehicle" v="destination"/>
    <tag k="name" v="Alte Postgasse"/>
    <tag k="odbl" v="clear"/>
  </way>
  <way id="3264704" version="5" timestamp="2012-03-29T00:25:54Z" uid="110838" user="Bernhard W" changeset="11132529">
    <nd ref="15507799"/>
    <nd ref="15599440"/>
    <nd ref="828000400"/>
    <nd ref="10854289"/>
    <nd ref="15599441"/>
    <nd ref="10854249"/>
    <nd ref="10854246"/>
    <tag k="highway" v="residential"/>
    <tag k="motor_vehicle" v="destination"/>
    <tag k="name" v="Alte Postgasse"/>
    <tag k="odbl" v="clean"/>
  </way>
  <way id="3264704" version="6" timestamp="2012-03-30T22:49:32Z" uid="110838" user="Bernhard W" changeset="11160937">
    <nd ref="15507799"/>
    <nd ref="15599440"/>
    <nd ref="828000400"/>
    <nd ref="10854289"/>
    <nd ref="15599441"/>
    <nd ref="10854249"/>
    <nd ref="10854246"/>
    <tag k="highway" v="residential"/>
    <tag k="motor_vehicle" v="destination"/>
    <tag k="name" v="Alte Postgasse"/>
  </way>
  <way id="3264705" version="2" timestamp="2010-07-21T18:48:57Z" uid="9581" user="Lobelt" changeset="5281263">
    <nd ref="10854245"/>
    <nd ref="10854248"/>
    <nd ref="10854247"/>
    <nd ref="10854246"/>
    <nd ref="16350524"/>
    <nd ref="828020499"/>
    <nd ref="828020482"/>
    <nd ref="16351369"/>
    <nd ref="10854251"/>
    <tag k="highway" v="residential"/>
    <tag k="name" v="Entengasse"/>
  </way>
  <way id="3264705" version="3" timestamp="2012-03-28T20:08:08Z" uid="110838" user="Bernhard W" changeset="11130628">
    <nd ref="10854245"/>
    <nd ref="10854248"/>
    <nd ref="10854247"/>
    <nd ref="10854246"/>
    <nd ref="16350524"/>
    <nd ref="828020499"/>
    <nd ref="828020482"/>
    <nd ref="16351369"/>
    <nd ref="10854251"/>
    <tag k="highway" v="residential"/>
    <tag k="name" v="Entengasse"/>
    <tag k="odbl" v="clear"/>
  </way>
  <way id="3264705" version="4" timestamp="2012-03-29T00:25:54Z" uid="110838" user="Bernhard W" changeset="11132529">
    <nd ref="10854245"/>
    <nd ref="10854248"/>
    <nd ref="10854247"/>
    <nd ref="10854246"/>
    <nd ref="16350524"/>
    <nd ref="828020499"/>
    <nd ref="828020482"/>
    <nd ref="16351369"/>
    <nd ref="10854251"/>
    <tag k="highway" v="residential"/>
    <tag k="name" v="Entengasse"/>
    <tag k="odbl" v="clean"/>
  </way>
  <way id="3264705" version="5" timestamp="2012-03-30T22:49:34Z" uid="110838" user="Bernhard W" changeset="11160937">
    <nd ref="10854245"/>
    <nd ref="10854248"/>
    <nd ref="10854247"/>
    <nd ref="10854246"/>
    <nd ref="16350524"/>
    <nd ref="828020499"/>
    <nd ref="828020482"/>
    <nd ref="16351369"/>
    <nd ref="10854251"/>
    <tag k="highway" v="residential"/>
    <tag k="name" v="Entengasse"/>
  </way>
  <way id="3264715" version="4" timestamp="2010-07-20T21:52:46Z" uid="9581" user="Lobelt" changeset="5274701">
    <nd ref="10854259"/>
    <nd ref="826835140"/>
    <nd ref="16051428"/>
    <nd ref="16051431"/>
    <nd ref="16257526"/>
    <nd ref="16051442"/>
    <nd ref="16051434"/>
    <tag k="highway" v="residential"/>
    <tag k="maxspeed" v="30"/>
    <tag k="name" v="Schulstraße"/>
  </way>
  <way id="3264715" version="5" timestamp="2012-03-28T20:08:08Z" uid="110838" user="Bernhard W" changeset="11130628">
    <nd ref="10854259"/>
    <nd ref="826835140"/>
    <nd ref="16051428"/>
    <nd ref="16051431"/>
    <nd ref="16257526"/>
    <nd ref="16051442"/>
    <nd ref="16051434"/>
    <tag k="highway" v="residential"/>
    <tag k="maxspeed" v="30"/>
    <tag k="name" v="Schulstraße"/>
    <tag k="odbl" v="clear"/>
  </way>
  <way id="3264715" version="6" timestamp="2012-03-29T00:27:37Z" uid="110838" user="Bernhard W" changeset="11132529">
    <nd ref="10854259"/>
    <nd ref="826835140"/>
    <nd ref="16051428"/>
    <nd ref="16051431"/>
    <nd ref="16257526"/>
    <nd ref="16051442"/>
    <nd ref="16051434"/>
    <tag k="highway" v="residential"/>
    <tag k="maxspeed" v="30"/>
    <tag k="name" v="Schulstraße"/>
    <tag k="odbl" v="clean"/>
  </way>
  <way id="3264715" version="7" timestamp="2012-03-30T22:55:03Z" uid="110838" user="Bernhard W" changeset="11160968">
    <nd ref="10854259"/>
    <nd ref="826835140"/>
    <nd ref="16051428"/>
    <nd ref="16051431"/>
    <nd ref="16257526"/>
    <nd ref="16051442"/>
    <nd ref="16051434"/>
    <tag k="highway" v="residential"/>
    <tag k="maxspeed" v="30"/>
    <tag k="name" v="Schulstraße"/>
  </way>
  <way id="3264806" version="2" timestamp="2010-10-03T20:16:41Z" uid="9581" user="Lobelt" changeset="5948350">
    <nd ref="10854267"/>
    <nd ref="15507406"/>
    <nd ref="15507407"/>
    <nd ref="15507408"/>
    <nd ref="15507409"/>
    <tag k="highway" v="residential"/>
    <tag k="maxspeed" v="30"/>
    <tag k="name" v="Dr.-Bender-Straße"/>
  </way>
  <way id="3264806" version="3" timestamp="2012-03-29T00:27:37Z" uid="110838" user="Bernhard W" changeset="11132529">
    <nd ref="10854267"/>
    <nd ref="15507406"/>
    <nd ref="15507407"/>
    <nd ref="15507408"/>
    <nd ref="15507409"/>
    <tag k="highway" v="residential"/>
    <tag k="maxspeed" v="30"/>
    <tag k="name" v="Dr.-Bender-Straße"/>
    <tag k="odbl" v="clean"/>
  </way>
  <way id="3264806" version="4" timestamp="2012-03-30T23:08:00Z" uid="110838" user="Bernhard W" changeset="11161037">
    <nd ref="10854267"/>
    <nd ref="15507406"/>
    <nd ref="15507407"/>
    <nd ref="15507408"/>
    <nd ref="15507409"/>
    <tag k="highway" v="residential"/>
    <tag k="maxspeed" v="30"/>
    <tag k="name" v="Dr.-Bender-Straße"/>
  </way>
</osm>
