<?xml version='1.0' encoding='UTF-8'?>
<osm version="0.6" generator="libosmium/2.20.0">
  <way id="32721056" version="2" timestamp="2009-04-24T11:17:29Z" uid="34428" user="usm78-gis" changeset="926124">
    <nd ref="368193029"/>
    <nd ref="368193032"/>
    <nd ref="368193039"/>
    <nd ref="368193040"/>
    <nd ref="368193034"/>
    <nd ref="368193035"/>
    <nd ref="368193036"/>
    <nd ref="368193038"/>
    <nd ref="368193033"/>
    <nd ref="368193030"/>
    <nd ref="368193029"/>
    <tag k="building" v="yes"/>
  </way>
  <way id="32721056" version="3" timestamp="2011-11-07T09:43:44Z" uid="386821" user="paavolobja" changeset="9763021">
    <nd ref="368193029"/>
    <nd ref="368193032"/>
    <nd ref="368193039"/>
    <nd ref="368193040"/>
    <nd ref="368193034"/>
    <nd ref="368193035"/>
    <nd ref="368193036"/>
    <nd ref="368193038"/>
    <nd ref="368193033"/>
    <nd ref="368193030"/>
    <nd ref="368193029"/>
    <tag k="addr:housenumber" v="19"/>
    <tag k="addr:street" v="Расстанная улица"/>
    <tag k="building" v="yes"/>
  </way>
  <way id="32721294" version="3" timestamp="2009-09-30T16:25:10Z" uid="36809" user="pfoten_weg_!_" changeset="2690373">
    <nd ref="93895227"/>
    <nd ref="93895242"/>
    <tag k="highway" v="service"/>
    <tag k="name" v="Oberer Graben"/>
    <tag k="service" v="parking_aisle"/>
  </way>
  <way id="32721615" version="3" timestamp="2009-09-30T16:25:17Z" uid="36809" user="pfoten_weg_!_" changeset="2690373">
    <nd ref="330992511"/>
    <nd ref="330992533"/>
    <tag k="bicycle" v="yes"/>
    <tag k="foot" v="yes"/>
    <tag k="highway" v="path"/>
    <tag k="motorcar" v="no"/>
    <tag k="motorcycle" v="yes"/>
    <tag k="name" v="Franziskusweg"/>
  </way>
</osm>
