<?xml version='1.0' encoding='UTF-8'?>
<osm version="0.6" generator="libosmium/2.20.0">
  <way id="33002032" version="1" timestamp="2009-04-10T22:03:48Z" uid="110593" user="esetzer" changeset="395521">
    <nd ref="371823849"/>
    <nd ref="371824056"/>
    <tag k="created_by" v="Merkaartor 0.11"/>
    <tag k="name" v="Union Pacific Railroad"/>
    <tag k="railway" v="siding"/>
  </way>
  <way id="33002032" version="2" timestamp="2009-04-10T23:20:41Z" uid="110593" user="esetzer" changeset="396303">
    <nd ref="371823849"/>
    <nd ref="371880910"/>
    <nd ref="371824056"/>
    <tag k="created_by" v="Merkaartor 0.11"/>
    <tag k="name" v="Union Pacific Railroad"/>
    <tag k="railway" v="siding"/>
    <tag k="tracks" v="2"/>
  </way>
  <way id="33002032" version="3" timestamp="2009-04-15T22:58:21Z" uid="110593" user="esetzer" changeset="572593">
    <nd ref="371823849"/>
    <nd ref="371880910"/>
    <nd ref="371824056"/>
    <tag k="created_by" v="Merkaartor 0.11"/>
    <tag k="name" v="Union Pacific Railroad"/>
    <tag k="operator" v="Union Pacific Railroad"/>
    <tag k="railway" v="rail"/>
    <tag k="service" v="siding"/>
    <tag k="tracks" v="2"/>
  </way>
  <way id="33002032" version="4" timestamp="2009-09-18T18:47:50Z" uid="110593" user="esetzer" changeset="2527301">
    <nd ref="371823849"/>
    <nd ref="371880910"/>
    <nd ref="371824056"/>
    <tag k="created_by" v="Merkaartor 0.11"/>
    <tag k="name" v="Salt Lake City Southern Railroad"/>
    <tag k="note" v="Genesee and Wyoming owns Utah Railway, which owns Salt Lake City Southern"/>
    <tag k="old_name" v="Union Pacific Railroad"/>
    <tag k="operator" v="Genesee and Wyoming Railroad"/>
    <tag k="railway" v="rail"/>
    <tag k="service" v="siding"/>
    <tag k="tracks" v="2"/>
  </way>
  <way id="33002032" version="5" timestamp="2011-03-29T00:06:45Z" uid="207745" user="NE2" changeset="7702646">
    <nd ref="371823849"/>
    <nd ref="371880910"/>
    <nd ref="371824056"/>
    <tag k="name" v="Salt Lake City Southern Railroad"/>
    <tag k="note" v="Genesee and Wyoming owns Utah Railway, which owns Salt Lake City Southern"/>
    <tag k="operator" v="Genesee and Wyoming Railroad"/>
    <tag k="railway" v="rail"/>
    <tag k="service" v="siding"/>
    <tag k="tracks" v="2"/>
  </way>
  <way id="33002032" version="6" timestamp="2011-03-29T00:18:27Z" uid="207745" user="NE2" changeset="7702646">
    <nd ref="371823849"/>
    <nd ref="371880910"/>
    <nd ref="371824056"/>
    <tag k="operator" v="Salt Lake City Southern Railroad"/>
    <tag k="railway" v="rail"/>
    <tag k="service" v="siding"/>
    <tag k="tracks" v="2"/>
  </way>
  <way id="33002035" version="1" timestamp="2009-04-10T22:03:52Z" uid="110593" user="esetzer" changeset="395521">
    <nd ref="371824069"/>
    <nd ref="371824093"/>
    <nd ref="371824108"/>
    <nd ref="371824113"/>
    <nd ref="371006024"/>
    <nd ref="371006023"/>
    <nd ref="371006022"/>
    <nd ref="83579519"/>
    <nd ref="83579526"/>
    <nd ref="83579531"/>
    <nd ref="371824069"/>
    <tag k="amenity" v="parking"/>
    <tag k="created_by" v="Merkaartor 0.11"/>
  </way>
  <way id="33002035" version="2" timestamp="2009-04-10T23:36:45Z" uid="110593" user="esetzer" changeset="396303">
    <nd ref="371824069"/>
    <nd ref="371824093"/>
    <nd ref="371886189"/>
    <nd ref="371886001"/>
    <nd ref="371886050"/>
    <nd ref="371886042"/>
    <nd ref="371886021"/>
    <nd ref="371885994"/>
    <nd ref="371885962"/>
    <nd ref="371824108"/>
    <nd ref="371885957"/>
    <nd ref="371885951"/>
    <nd ref="371824113"/>
    <nd ref="371006024"/>
    <nd ref="371006023"/>
    <nd ref="371006022"/>
    <nd ref="83579519"/>
    <nd ref="83579526"/>
    <nd ref="83579531"/>
    <nd ref="371824069"/>
    <tag k="amenity" v="parking"/>
    <tag k="created_by" v="Merkaartor 0.11"/>
  </way>
  <way id="33002035" version="3" timestamp="2009-06-14T01:42:01Z" uid="110593" user="esetzer" changeset="1509940"/>
  <way id="33002404" version="4" timestamp="2010-03-22T06:27:37Z" uid="20587" user="balrog-kun" changeset="4199043">
    <nd ref="40618779"/>
    <nd ref="40618781"/>
    <tag k="created_by" v="Potlatch 0.10f"/>
    <tag k="highway" v="residential"/>
    <tag k="name" v="North Delaware Avenue"/>
    <tag k="tiger:cfcc" v="A41"/>
    <tag k="tiger:county" v="Multnomah, OR"/>
    <tag k="tiger:name_base" v="Delaware"/>
    <tag k="tiger:name_direction_prefix" v="N"/>
    <tag k="tiger:reviewed" v="no"/>
    <tag k="tiger:separated" v="no"/>
    <tag k="tiger:source" v="tiger_import_dch_v0.6_20070808"/>
    <tag k="tiger:tlid" v="157495256:157563618:157581920:157581921:157495258"/>
    <tag k="tiger:zip_left" v="97217"/>
    <tag k="tiger:zip_right" v="97217"/>
  </way>
  <way id="33002404" version="5" timestamp="2011-08-05T18:43:52Z" uid="362111" user="Mele Sax-Barnett" changeset="8931634">
    <nd ref="40618779"/>
    <nd ref="1387744814"/>
    <nd ref="1387744815"/>
    <nd ref="40618781"/>
    <tag k="highway" v="residential"/>
    <tag k="name" v="North Delaware Avenue"/>
    <tag k="tiger:cfcc" v="A41"/>
    <tag k="tiger:county" v="Multnomah, OR"/>
    <tag k="tiger:name_base" v="Delaware"/>
    <tag k="tiger:name_direction_prefix" v="N"/>
    <tag k="tiger:reviewed" v="no"/>
    <tag k="tiger:separated" v="no"/>
    <tag k="tiger:source" v="tiger_import_dch_v0.6_20070808"/>
    <tag k="tiger:tlid" v="157495256:157563618:157581920:157581921:157495258"/>
    <tag k="tiger:zip_left" v="97217"/>
    <tag k="tiger:zip_right" v="97217"/>
  </way>
  <way id="33002479" version="3" timestamp="2009-08-26T09:59:59Z" uid="36809" user="pfoten_weg_!_" changeset="2265457">
    <nd ref="371838645"/>
    <nd ref="371838648"/>
    <nd ref="371838649"/>
    <nd ref="371838651"/>
    <nd ref="371838653"/>
    <nd ref="371838655"/>
    <nd ref="371838656"/>
    <nd ref="371838658"/>
    <nd ref="371838660"/>
    <nd ref="371838662"/>
    <nd ref="371838665"/>
    <nd ref="371838666"/>
    <nd ref="371838667"/>
    <nd ref="371838645"/>
    <tag k="addr:housenumber" v="50"/>
    <tag k="amenity" v="school"/>
    <tag k="name" v="Grundschule Großhaderner Straße"/>
  </way>
  <way id="33002479" version="4" timestamp="2009-09-05T19:32:56Z" uid="43078" user="bib" changeset="2384285">
    <nd ref="371838645"/>
    <nd ref="371838648"/>
    <nd ref="371838649"/>
    <nd ref="371838651"/>
    <nd ref="371838653"/>
    <nd ref="371838655"/>
    <nd ref="371838656"/>
    <nd ref="485184885"/>
    <nd ref="371838658"/>
    <nd ref="371838660"/>
    <nd ref="371838662"/>
    <nd ref="371838665"/>
    <nd ref="371838666"/>
    <nd ref="371838667"/>
    <nd ref="371838645"/>
    <tag k="addr:housenumber" v="50"/>
    <tag k="amenity" v="school"/>
    <tag k="name" v="Grundschule Großhaderner Straße"/>
  </way>
  <way id="33002591" version="1" timestamp="2009-04-10T22:26:21Z" uid="26515" user="Simon Ward" changeset="416977">
    <nd ref="32056582"/>
    <nd ref="3353210"/>
    <nd ref="268646635"/>
    <nd ref="3353211"/>
    <nd ref="3353203"/>
    <nd ref="3353176"/>
    <nd ref="3353201"/>
    <nd ref="3353177"/>
    <nd ref="3353198"/>
    <nd ref="3353181"/>
    <nd ref="3450937"/>
    <tag k="created_by" v="JOSM"/>
    <tag k="highway" v="trunk"/>
    <tag k="name" v="Downing Street"/>
    <tag k="oneway" v="yes"/>
    <tag k="ref" v="A6"/>
  </way>
  <way id="33002591" version="2" timestamp="2010-08-30T23:22:48Z" uid="47487" user="IJMacD" changeset="5641431">
    <nd ref="32056582"/>
    <nd ref="3353210"/>
    <nd ref="268646635"/>
    <nd ref="3353211"/>
    <nd ref="3353203"/>
    <nd ref="3353176"/>
    <nd ref="3353201"/>
    <nd ref="3353177"/>
    <nd ref="3353198"/>
    <nd ref="3353181"/>
    <nd ref="889528269"/>
    <tag k="highway" v="trunk"/>
    <tag k="name" v="Downing Street"/>
    <tag k="oneway" v="yes"/>
    <tag k="ref" v="A6"/>
  </way>
  <way id="33002591" version="3" timestamp="2010-11-24T15:36:17Z" uid="47487" user="IJMacD" changeset="6447709">
    <nd ref="32056582"/>
    <nd ref="3353210"/>
    <nd ref="268646635"/>
    <nd ref="3353211"/>
    <nd ref="3353203"/>
    <nd ref="3353176"/>
    <nd ref="3353201"/>
    <nd ref="3353177"/>
    <nd ref="3353198"/>
    <nd ref="1002563953"/>
    <nd ref="3353181"/>
    <nd ref="1002564094"/>
    <nd ref="889528269"/>
    <tag k="highway" v="trunk"/>
    <tag k="name" v="Downing Street"/>
    <tag k="oneway" v="yes"/>
    <tag k="ref" v="A6"/>
  </way>
  <way id="33002591" version="4" timestamp="2011-07-10T21:32:39Z" uid="5926" user="c2r" changeset="8688793">
    <nd ref="32056582"/>
    <nd ref="3353210"/>
    <nd ref="268646635"/>
    <nd ref="3353211"/>
    <nd ref="3353203"/>
    <nd ref="1357129724"/>
    <nd ref="3353176"/>
    <nd ref="3353201"/>
    <nd ref="3353177"/>
    <nd ref="3353198"/>
    <nd ref="1002563953"/>
    <nd ref="3353181"/>
    <nd ref="1002564094"/>
    <nd ref="889528269"/>
    <tag k="highway" v="trunk"/>
    <tag k="name" v="Downing Street"/>
    <tag k="oneway" v="yes"/>
    <tag k="ref" v="A6"/>
  </way>
  <way id="33002591" version="5" timestamp="2011-07-10T21:47:23Z" uid="5926" user="c2r" changeset="8688793">
    <nd ref="32056582"/>
    <nd ref="3353210"/>
    <nd ref="268646635"/>
    <nd ref="3353211"/>
    <nd ref="3353203"/>
    <nd ref="1357129724"/>
    <nd ref="1357137511"/>
    <nd ref="3353176"/>
    <nd ref="3353201"/>
    <nd ref="3353177"/>
    <nd ref="3353198"/>
    <nd ref="1002563953"/>
    <nd ref="3353181"/>
    <nd ref="1002564094"/>
    <nd ref="889528269"/>
    <tag k="highway" v="trunk"/>
    <tag k="name" v="Downing Street"/>
    <tag k="oneway" v="yes"/>
    <tag k="ref" v="A6"/>
  </way>
  <way id="33002591" version="6" timestamp="2011-11-22T01:06:24Z" uid="549376" user="Delusion23" changeset="9903788">
    <nd ref="32056582"/>
    <nd ref="3353210"/>
    <nd ref="268646635"/>
    <nd ref="3353211"/>
    <nd ref="1512225162"/>
    <nd ref="1357129724"/>
    <nd ref="1357137511"/>
    <nd ref="3353176"/>
    <nd ref="3353201"/>
    <nd ref="3353177"/>
    <nd ref="3353198"/>
    <nd ref="1002563953"/>
    <nd ref="3353181"/>
    <nd ref="1002564094"/>
    <nd ref="889528269"/>
    <tag k="highway" v="trunk"/>
    <tag k="name" v="Downing Street"/>
    <tag k="oneway" v="yes"/>
    <tag k="ref" v="A6"/>
  </way>
  <way id="33002591" version="7" timestamp="2011-11-22T01:16:25Z" uid="549376" user="Delusion23" changeset="9903852">
    <nd ref="32056582"/>
    <nd ref="3353210"/>
    <nd ref="268646635"/>
    <nd ref="3353211"/>
    <nd ref="1512225162"/>
    <tag k="highway" v="trunk"/>
    <tag k="name" v="Downing Street"/>
    <tag k="oneway" v="yes"/>
    <tag k="ref" v="A6"/>
  </way>
  <way id="33002591" version="8" timestamp="2012-01-10T19:51:44Z" uid="184757" user="97wrangler" changeset="10354678">
    <nd ref="32056582"/>
    <nd ref="3353210"/>
    <nd ref="268646635"/>
    <tag k="highway" v="trunk"/>
    <tag k="name" v="Downing Street"/>
    <tag k="oneway" v="yes"/>
    <tag k="ref" v="A6"/>
  </way>
  <way id="33002591" version="9" timestamp="2012-03-13T06:45:00Z" uid="9065" user="brianboru" changeset="10963405"/>
  <way id="33002732" version="3" timestamp="2010-03-22T06:27:37Z" uid="20587" user="balrog-kun" changeset="4199043">
    <nd ref="40459349"/>
    <nd ref="40536970"/>
    <nd ref="40536973"/>
    <tag k="created_by" v="Potlatch 0.10f"/>
    <tag k="highway" v="residential"/>
    <tag k="name" v="North Courtenay Avenue"/>
    <tag k="tiger:cfcc" v="A41"/>
    <tag k="tiger:county" v="Multnomah, OR"/>
    <tag k="tiger:name_base" v="Courtenay"/>
    <tag k="tiger:name_direction_prefix" v="N"/>
    <tag k="tiger:reviewed" v="no"/>
    <tag k="tiger:separated" v="no"/>
    <tag k="tiger:source" v="tiger_import_dch_v0.6_20070808"/>
    <tag k="tiger:tlid" v="157494443:157494446:157494449:157494414"/>
    <tag k="tiger:zip_left" v="97203"/>
    <tag k="tiger:zip_right" v="97203"/>
  </way>
  <way id="33002732" version="4" timestamp="2011-10-27T21:54:33Z" uid="362111" user="Mele Sax-Barnett" changeset="9672544">
    <nd ref="40459349"/>
    <nd ref="1482789232"/>
    <nd ref="40536970"/>
    <nd ref="40536973"/>
    <tag k="highway" v="residential"/>
    <tag k="name" v="North Courtenay Avenue"/>
    <tag k="tiger:cfcc" v="A41"/>
    <tag k="tiger:county" v="Multnomah, OR"/>
    <tag k="tiger:name_base" v="Courtenay"/>
    <tag k="tiger:name_direction_prefix" v="N"/>
    <tag k="tiger:reviewed" v="no"/>
    <tag k="tiger:separated" v="no"/>
    <tag k="tiger:source" v="tiger_import_dch_v0.6_20070808"/>
    <tag k="tiger:tlid" v="157494443:157494446:157494449:157494414"/>
    <tag k="tiger:zip_left" v="97203"/>
    <tag k="tiger:zip_right" v="97203"/>
  </way>
  <way id="33002732" version="5" timestamp="2012-01-04T19:17:38Z" uid="92286" user="Paul Johnson" changeset="10294249">
    <nd ref="40459349"/>
    <nd ref="1482789232"/>
    <nd ref="40536970"/>
    <nd ref="40536973"/>
    <tag k="highway" v="residential"/>
    <tag k="maxspeed" v="25 mph"/>
    <tag k="name" v="North Courtenay Avenue"/>
    <tag k="tiger:cfcc" v="A41"/>
    <tag k="tiger:county" v="Multnomah, OR"/>
    <tag k="tiger:name_base" v="Courtenay"/>
    <tag k="tiger:name_direction_prefix" v="N"/>
    <tag k="tiger:reviewed" v="no"/>
    <tag k="tiger:separated" v="no"/>
    <tag k="tiger:source" v="tiger_import_dch_v0.6_20070808"/>
    <tag k="tiger:tlid" v="157494443:157494446:157494449:157494414"/>
    <tag k="tiger:zip_left" v="97203"/>
    <tag k="tiger:zip_right" v="97203"/>
  </way>
  <way id="33002823" version="4" timestamp="2009-09-04T21:19:41Z" uid="36809" user="pfoten_weg_!_" changeset="2374562">
    <nd ref="371852514"/>
    <nd ref="371852489"/>
    <nd ref="371852492"/>
    <tag k="bicycle" v="designated"/>
    <tag k="foot" v="designated"/>
    <tag k="highway" v="path"/>
  </way>
  <way id="33002823" version="5" timestamp="2010-03-28T15:35:54Z" uid="224490" user="Geo-Tobi" changeset="4258090">
    <nd ref="371852514"/>
    <nd ref="371852489"/>
    <nd ref="371852492"/>
    <tag k="foot" v="yes"/>
    <tag k="highway" v="cycleway"/>
  </way>
  <way id="33002890" version="3" timestamp="2009-09-04T21:10:59Z" uid="36809" user="pfoten_weg_!_" changeset="2374562">
    <nd ref="148674897"/>
    <nd ref="371853716"/>
    <tag k="highway" v="cycleway"/>
  </way>
  <way id="33002955" version="4" timestamp="2010-03-22T06:27:37Z" uid="20587" user="balrog-kun" changeset="4199043">
    <nd ref="40546000"/>
    <nd ref="40434946"/>
    <nd ref="40546003"/>
    <nd ref="40434930"/>
    <nd ref="40412920"/>
    <tag k="highway" v="residential"/>
    <tag k="name" v="North Ensign Street"/>
    <tag k="tiger:cfcc" v="A41"/>
    <tag k="tiger:county" v="Multnomah, OR"/>
    <tag k="tiger:name_base" v="Ensign"/>
    <tag k="tiger:name_direction_prefix" v="N"/>
    <tag k="tiger:reviewed" v="no"/>
    <tag k="tiger:separated" v="no"/>
    <tag k="tiger:source" v="tiger_import_dch_v0.6_20070808"/>
    <tag k="tiger:tlid" v="157579832:157579834:157579835:157579836:157579837:157494861"/>
    <tag k="tiger:zip_left" v="97217"/>
    <tag k="tiger:zip_right" v="97217"/>
  </way>
  <way id="33002955" version="5" timestamp="2011-08-11T18:19:12Z" uid="362111" user="Mele Sax-Barnett" changeset="8988052">
    <nd ref="40546000"/>
    <nd ref="40434946"/>
    <tag k="highway" v="residential"/>
    <tag k="name" v="North Ensign Street"/>
    <tag k="oneway" v="yes"/>
    <tag k="tiger:cfcc" v="A41"/>
    <tag k="tiger:county" v="Multnomah, OR"/>
    <tag k="tiger:name_base" v="Ensign"/>
    <tag k="tiger:name_direction_prefix" v="N"/>
    <tag k="tiger:reviewed" v="no"/>
    <tag k="tiger:separated" v="no"/>
    <tag k="tiger:source" v="tiger_import_dch_v0.6_20070808"/>
    <tag k="tiger:tlid" v="157579832:157579834:157579835:157579836:157579837:157494861"/>
    <tag k="tiger:zip_left" v="97217"/>
    <tag k="tiger:zip_right" v="97217"/>
  </way>
  <way id="33002955" version="6" timestamp="2011-10-28T19:24:36Z" uid="362111" user="Mele Sax-Barnett" changeset="9679477">
    <nd ref="40546000"/>
    <nd ref="40434946"/>
    <tag k="highway" v="service"/>
    <tag k="oneway" v="yes"/>
    <tag k="tiger:cfcc" v="A41"/>
    <tag k="tiger:county" v="Multnomah, OR"/>
    <tag k="tiger:name_base" v="Ensign"/>
    <tag k="tiger:name_direction_prefix" v="N"/>
    <tag k="tiger:reviewed" v="no"/>
    <tag k="tiger:separated" v="no"/>
    <tag k="tiger:source" v="tiger_import_dch_v0.6_20070808"/>
    <tag k="tiger:tlid" v="157579832:157579834:157579835:157579836:157579837:157494861"/>
    <tag k="tiger:zip_left" v="97217"/>
    <tag k="tiger:zip_right" v="97217"/>
  </way>
</osm>
