<?xml version='1.0' encoding='UTF-8'?>
<osm version="0.6" generator="libosmium/2.20.0">
  <way id="33065590" version="4" timestamp="2010-04-07T13:35:51Z" uid="20587" user="balrog-kun" changeset="4353646">
    <nd ref="372970800"/>
    <nd ref="226028249"/>
    <nd ref="656501141"/>
    <nd ref="656501146"/>
    <nd ref="656501147"/>
    <nd ref="656501149"/>
    <nd ref="656501151"/>
    <nd ref="656501152"/>
    <tag k="highway" v="residential"/>
    <tag k="name" v="West Farm Street"/>
    <tag k="tiger:cfcc" v="A41"/>
    <tag k="tiger:county" v="Jim Wells, TX"/>
    <tag k="tiger:name_base" v="Farm"/>
    <tag k="tiger:name_direction_prefix" v="W"/>
    <tag k="tiger:name_type" v="St"/>
    <tag k="tiger:reviewed" v="no"/>
    <tag k="tiger:separated" v="no"/>
    <tag k="tiger:source" v="tiger_import_dch_v0.6_20070830"/>
    <tag k="tiger:tlid" v="21515279"/>
    <tag k="tiger:zip_left" v="78332"/>
    <tag k="tiger:zip_left_1" v="78332"/>
    <tag k="tiger:zip_left_2" v="78332"/>
    <tag k="tiger:zip_left_3" v="78332"/>
    <tag k="tiger:zip_right" v="78332"/>
  </way>
  <way id="33065601" version="2" timestamp="2010-04-03T13:47:40Z" uid="20587" user="balrog-kun" changeset="4312927">
    <nd ref="83585382"/>
    <nd ref="83584857"/>
    <nd ref="83705815"/>
    <tag k="created_by" v="Potlatch 0.10f"/>
    <tag k="highway" v="residential"/>
    <tag k="name" v="South 1200 West"/>
    <tag k="name_1" v="South 1200 West"/>
    <tag k="name_2" v="South 12th West"/>
    <tag k="tiger:cfcc" v="A41"/>
    <tag k="tiger:county" v="Salt Lake, UT"/>
    <tag k="tiger:name_base" v="1200"/>
    <tag k="tiger:name_base_1" v="1200 West"/>
    <tag k="tiger:name_base_2" v="12th West"/>
    <tag k="tiger:name_direction_prefix" v="S"/>
    <tag k="tiger:name_direction_prefix_1" v="S"/>
    <tag k="tiger:name_direction_prefix_2" v="S"/>
    <tag k="tiger:name_direction_suffix" v="W"/>
    <tag k="tiger:reviewed" v="no"/>
    <tag k="tiger:separated" v="no"/>
    <tag k="tiger:source" v="tiger_import_dch_v0.6_20070830"/>
    <tag k="tiger:tlid" v="176071487:176071474:176071477:176071482:176071491:176071492:176066256"/>
    <tag k="tiger:zip_left" v="84104"/>
    <tag k="tiger:zip_right" v="84104"/>
  </way>
  <way id="33065601" version="3" timestamp="2010-08-05T07:38:40Z" uid="321736" user="Kevin Atkinson" changeset="5405091">
    <nd ref="83585382"/>
    <nd ref="83584857"/>
    <nd ref="83705815"/>
    <tag k="highway" v="residential"/>
    <tag k="loc_name" v="12th West"/>
    <tag k="name" v="1200 West"/>
    <tag k="name:full" v="South 1200 West"/>
    <tag k="name:prefix" v="S"/>
    <tag k="tiger:cfcc" v="A41"/>
    <tag k="tiger:county" v="Salt Lake, UT"/>
    <tag k="tiger:name_base" v="1200"/>
    <tag k="tiger:name_base_1" v="1200 West"/>
    <tag k="tiger:name_base_2" v="12th West"/>
    <tag k="tiger:name_direction_prefix" v="S"/>
    <tag k="tiger:name_direction_prefix_1" v="S"/>
    <tag k="tiger:name_direction_prefix_2" v="S"/>
    <tag k="tiger:name_direction_suffix" v="W"/>
    <tag k="tiger:reviewed" v="no"/>
    <tag k="tiger:separated" v="no"/>
    <tag k="tiger:source" v="tiger_import_dch_v0.6_20070830"/>
    <tag k="tiger:tlid" v="176071487:176071474:176071477:176071482:176071491:176071492:176066256"/>
    <tag k="tiger:zip_left" v="84104"/>
    <tag k="tiger:zip_right" v="84104"/>
  </way>
  <way id="33065641" version="2" timestamp="2010-04-03T13:47:41Z" uid="20587" user="balrog-kun" changeset="4312927">
    <nd ref="83557589"/>
    <nd ref="83663230"/>
    <nd ref="83655246"/>
    <nd ref="83641890"/>
    <nd ref="83585378"/>
    <tag k="created_by" v="Potlatch 0.10f"/>
    <tag k="highway" v="residential"/>
    <tag k="name" v="South 1300 West"/>
    <tag k="name_1" v="South 1300 West"/>
    <tag k="name_2" v="South 13th West"/>
    <tag k="tiger:cfcc" v="A41"/>
    <tag k="tiger:county" v="Salt Lake, UT"/>
    <tag k="tiger:name_base" v="1300"/>
    <tag k="tiger:name_base_1" v="1300 West"/>
    <tag k="tiger:name_base_2" v="13th West"/>
    <tag k="tiger:name_direction_prefix" v="S"/>
    <tag k="tiger:name_direction_prefix_1" v="S"/>
    <tag k="tiger:name_direction_prefix_2" v="S"/>
    <tag k="tiger:name_direction_suffix" v="W"/>
    <tag k="tiger:reviewed" v="no"/>
    <tag k="tiger:separated" v="no"/>
    <tag k="tiger:source" v="tiger_import_dch_v0.6_20070830"/>
    <tag k="tiger:tlid" v="176071470:176066235:176071454:176071456:176071459"/>
    <tag k="tiger:zip_left" v="84104"/>
    <tag k="tiger:zip_right" v="84104"/>
  </way>
  <way id="33065641" version="3" timestamp="2010-08-05T07:26:19Z" uid="321736" user="Kevin Atkinson" changeset="5405091">
    <nd ref="83557589"/>
    <nd ref="83663230"/>
    <nd ref="83655246"/>
    <nd ref="83641890"/>
    <nd ref="83585378"/>
    <tag k="highway" v="residential"/>
    <tag k="loc_name" v="13th West"/>
    <tag k="name" v="1300 West"/>
    <tag k="name:full" v="South 1300 West"/>
    <tag k="name:prefix" v="S"/>
    <tag k="tiger:cfcc" v="A41"/>
    <tag k="tiger:county" v="Salt Lake, UT"/>
    <tag k="tiger:name_base" v="1300"/>
    <tag k="tiger:name_base_1" v="1300 West"/>
    <tag k="tiger:name_base_2" v="13th West"/>
    <tag k="tiger:name_direction_prefix" v="S"/>
    <tag k="tiger:name_direction_prefix_1" v="S"/>
    <tag k="tiger:name_direction_prefix_2" v="S"/>
    <tag k="tiger:name_direction_suffix" v="W"/>
    <tag k="tiger:reviewed" v="no"/>
    <tag k="tiger:separated" v="no"/>
    <tag k="tiger:source" v="tiger_import_dch_v0.6_20070830"/>
    <tag k="tiger:tlid" v="176071470:176066235:176071454:176071456:176071459"/>
    <tag k="tiger:zip_left" v="84104"/>
    <tag k="tiger:zip_right" v="84104"/>
  </way>
  <way id="33065774" version="1" timestamp="2009-04-11T23:10:16Z" uid="8807" user="brendanpuck" changeset="447485">
    <nd ref="237752225"/>
    <nd ref="237676067"/>
    <nd ref="237752227"/>
    <nd ref="237752229"/>
    <nd ref="237752232"/>
    <nd ref="237752234"/>
    <tag k="highway" v="residential"/>
    <tag k="name" v="Burgess Pl"/>
    <tag k="tiger:cfcc" v="A41"/>
    <tag k="tiger:county" v="DuPage, IL"/>
    <tag k="tiger:name_base" v="Burgess"/>
    <tag k="tiger:name_type" v="Pl"/>
    <tag k="tiger:reviewed" v="no"/>
    <tag k="tiger:separated" v="no"/>
    <tag k="tiger:source" v="tiger_import_dch_v0.6_20070809"/>
    <tag k="tiger:tlid" v="112733520:112680149"/>
    <tag k="tiger:upload_uuid" v="bulk_upload.pl-3f69f4e1-b66c-4277-9b2a-1347f8f5e03c"/>
    <tag k="tiger:zip_left" v="60561"/>
    <tag k="tiger:zip_right" v="60561"/>
  </way>
  <way id="33065812" version="1" timestamp="2009-04-11T23:11:34Z" uid="61114" user="Trav" changeset="436101">
    <nd ref="130214667"/>
    <nd ref="130214668"/>
    <nd ref="130214669"/>
    <nd ref="218085742"/>
    <tag k="created_by" v="Merkaartor 0.14"/>
    <tag k="highway" v="residential"/>
    <tag k="name" v="Peach Tree Road"/>
    <tag k="source:name" v="survey"/>
  </way>
  <way id="33065812" version="2" timestamp="2010-07-08T00:22:32Z" uid="74617" user="JohnSmith" changeset="5162525">
    <nd ref="130214667"/>
    <nd ref="130214668"/>
    <nd ref="130214669"/>
    <nd ref="218085742"/>
    <tag k="highway" v="residential"/>
    <tag k="maxspeed" v="50"/>
    <tag k="maxspeed:source" v="default residential speed limit in Australia"/>
    <tag k="name" v="Peach Tree Road"/>
    <tag k="source:name" v="survey"/>
  </way>
  <way id="33065812" version="3" timestamp="2012-01-18T18:56:10Z" uid="147510" user="woodpeck_fixbot" changeset="10429293">
    <nd ref="130214667"/>
    <nd ref="130214668"/>
    <nd ref="130214669"/>
    <nd ref="218085742"/>
    <tag k="highway" v="residential"/>
    <tag k="name" v="Peach Tree Road"/>
    <tag k="source:name" v="survey"/>
  </way>
  <way id="33065816" version="1" timestamp="2009-04-11T23:11:51Z" uid="61114" user="Trav" changeset="436101">
    <nd ref="130215261"/>
    <nd ref="372971856"/>
    <tag k="created_by" v="Merkaartor 0.14"/>
    <tag k="highway" v="footway"/>
    <tag k="source" v="approximation,survey"/>
  </way>
  <way id="33065816" version="2" timestamp="2010-06-26T01:39:23Z" uid="18713" user="Diego" changeset="5077919">
    <nd ref="130215261"/>
    <nd ref="790668174"/>
    <tag k="highway" v="footway"/>
    <tag k="source" v="approximation,survey"/>
  </way>
  <way id="33065837" version="4" timestamp="2010-04-03T13:47:42Z" uid="20587" user="balrog-kun" changeset="4312927">
    <nd ref="373039014"/>
    <nd ref="83538317"/>
    <nd ref="374383584"/>
    <nd ref="83538319"/>
    <nd ref="83529964"/>
    <tag k="created_by" v="Potlatch 0.10f"/>
    <tag k="highway" v="residential"/>
    <tag k="name" v="South 4800 West"/>
    <tag k="name_1" v="4800 West"/>
    <tag k="tiger:cfcc" v="A41"/>
    <tag k="tiger:county" v="Salt Lake, UT"/>
    <tag k="tiger:name_base" v="4800 West"/>
    <tag k="tiger:name_base_1" v="4800 West"/>
    <tag k="tiger:name_direction_prefix" v="S"/>
    <tag k="tiger:reviewed" v="no"/>
    <tag k="tiger:separated" v="no"/>
    <tag k="tiger:source" v="tiger_import_dch_v0.6_20070830"/>
    <tag k="tiger:tlid" v="176111754"/>
    <tag k="tiger:zip_left" v="84104"/>
  </way>
  <way id="33065837" version="5" timestamp="2010-08-05T07:36:30Z" uid="321736" user="Kevin Atkinson" changeset="5405091">
    <nd ref="373039014"/>
    <nd ref="83538317"/>
    <nd ref="374383584"/>
    <nd ref="83538319"/>
    <nd ref="83529964"/>
    <tag k="highway" v="residential"/>
    <tag k="loc_name" v="48th West"/>
    <tag k="name" v="4800 West"/>
    <tag k="name:full" v="South 4800 West"/>
    <tag k="name:prefix" v="S"/>
    <tag k="tiger:cfcc" v="A41"/>
    <tag k="tiger:county" v="Salt Lake, UT"/>
    <tag k="tiger:name_base" v="4800 West"/>
    <tag k="tiger:name_base_1" v="4800 West"/>
    <tag k="tiger:name_direction_prefix" v="S"/>
    <tag k="tiger:reviewed" v="no"/>
    <tag k="tiger:separated" v="no"/>
    <tag k="tiger:source" v="tiger_import_dch_v0.6_20070830"/>
    <tag k="tiger:tlid" v="176111754"/>
    <tag k="tiger:zip_left" v="84104"/>
  </way>
  <way id="33065973" version="1" timestamp="2009-04-11T23:24:45Z" uid="34428" user="usm78-gis" changeset="432108">
    <nd ref="365417925"/>
    <nd ref="365417937"/>
    <nd ref="365417870"/>
    <nd ref="365417764"/>
    <nd ref="365417766"/>
    <nd ref="365417769"/>
    <nd ref="365417773"/>
    <nd ref="365417777"/>
    <nd ref="365417780"/>
    <nd ref="365417782"/>
    <nd ref="365392855"/>
    <nd ref="365417789"/>
    <nd ref="365417792"/>
    <nd ref="365417796"/>
    <tag k="addr:postcode" v="194044"/>
    <tag k="cladr:code" v="78000000000185200"/>
    <tag k="cladr:name" v="Пироговская"/>
    <tag k="cladr:suffix" v="Набережная"/>
    <tag k="highway" v="primary"/>
    <tag k="name" v="Пироговская наб."/>
    <tag k="oneway" v="yes"/>
  </way>
  <way id="33065973" version="2" timestamp="2010-07-31T10:58:43Z" uid="127299" user="Batareikin" changeset="5361652">
    <nd ref="365417925"/>
    <nd ref="365417937"/>
    <nd ref="365417870"/>
    <nd ref="365417764"/>
    <nd ref="365417766"/>
    <nd ref="365417769"/>
    <nd ref="365417773"/>
    <nd ref="365417777"/>
    <nd ref="365417780"/>
    <nd ref="365417782"/>
    <nd ref="365392855"/>
    <nd ref="365417789"/>
    <nd ref="365417792"/>
    <nd ref="365417796"/>
    <tag k="addr:postcode" v="194044"/>
    <tag k="cladr:code" v="78000000000185200"/>
    <tag k="cladr:name" v="Пироговская"/>
    <tag k="cladr:suffix" v="Набережная"/>
    <tag k="highway" v="primary"/>
    <tag k="name" v="Пироговская набережная"/>
    <tag k="oneway" v="yes"/>
  </way>
  <way id="33065973" version="3" timestamp="2011-05-26T11:03:18Z" uid="13502" user="Alexander Leschinsky" changeset="8252473">
    <nd ref="365417925"/>
    <nd ref="365417937"/>
    <nd ref="365417870"/>
    <nd ref="365417764"/>
    <nd ref="365417766"/>
    <nd ref="365417769"/>
    <nd ref="365417773"/>
    <nd ref="365417777"/>
    <nd ref="365417780"/>
    <nd ref="1300548343"/>
    <nd ref="365417782"/>
    <nd ref="365392855"/>
    <nd ref="365417789"/>
    <nd ref="365417792"/>
    <nd ref="365417796"/>
    <tag k="addr:postcode" v="194044"/>
    <tag k="cladr:code" v="78000000000185200"/>
    <tag k="cladr:name" v="Пироговская"/>
    <tag k="cladr:suffix" v="Набережная"/>
    <tag k="highway" v="primary"/>
    <tag k="name" v="Пироговская набережная"/>
    <tag k="oneway" v="yes"/>
  </way>
  <way id="33065973" version="4" timestamp="2011-05-28T12:26:47Z" uid="37041" user="unxed" changeset="8271261"/>
  <way id="33065975" version="1" timestamp="2009-04-11T23:24:47Z" uid="34428" user="usm78-gis" changeset="432108">
    <nd ref="365417758"/>
    <nd ref="365417925"/>
    <tag k="bridge" v="yes"/>
    <tag k="created_by" v="JOSM"/>
    <tag k="highway" v="secondary"/>
    <tag k="layer" v="1"/>
    <tag k="name" v="Сампсониевский мост"/>
  </way>
  <way id="33065975" version="2" timestamp="2009-05-28T07:22:02Z" uid="13502" user="Alexander Leschinsky" changeset="1340193">
    <nd ref="365417758"/>
    <nd ref="365417925"/>
    <tag k="created_by" v="JOSM"/>
    <tag k="highway" v="secondary"/>
    <tag k="layer" v="1"/>
    <tag k="name" v="Сампсониевский мост"/>
  </way>
  <way id="33065975" version="3" timestamp="2009-10-07T12:08:52Z" uid="140521" user="Fortress" changeset="2770826">
    <nd ref="365417758"/>
    <nd ref="365417925"/>
    <tag k="highway" v="secondary"/>
    <tag k="layer" v="1"/>
    <tag k="name" v="Сампсониевский мост"/>
    <tag k="oneway" v="yes"/>
  </way>
  <way id="33065975" version="4" timestamp="2011-08-23T08:46:57Z" uid="446083" user="yuryleb" changeset="9101387">
    <nd ref="365417758"/>
    <nd ref="365417925"/>
    <tag k="highway" v="secondary"/>
    <tag k="lanes" v="2"/>
    <tag k="layer" v="1"/>
    <tag k="name" v="Сампсониевский мост"/>
    <tag k="oneway" v="yes"/>
  </way>
  <way id="33065977" version="1" timestamp="2009-04-11T23:24:50Z" uid="34428" user="usm78-gis" changeset="432108">
    <nd ref="365417925"/>
    <nd ref="365418022"/>
    <tag k="highway" v="secondary"/>
    <tag k="name" v="Финляндский пр."/>
  </way>
  <way id="33065977" version="2" timestamp="2009-04-13T05:18:37Z" uid="30590" user="KekcuHa" changeset="465146">
    <nd ref="365417925"/>
    <nd ref="365418022"/>
    <tag k="addr:postcode" v="194044"/>
    <tag k="cladr:code" v="78000000000146300"/>
    <tag k="cladr:name" v="Финляндский"/>
    <tag k="cladr:suffix" v="Проспект"/>
    <tag k="highway" v="secondary"/>
    <tag k="name" v="Финляндский пр."/>
  </way>
  <way id="33065977" version="3" timestamp="2009-10-07T12:07:49Z" uid="140521" user="Fortress" changeset="2770826">
    <nd ref="365417925"/>
    <nd ref="365418022"/>
    <tag k="addr:postcode" v="194044"/>
    <tag k="cladr:code" v="78000000000146300"/>
    <tag k="cladr:name" v="Финляндский"/>
    <tag k="cladr:suffix" v="Проспект"/>
    <tag k="highway" v="secondary"/>
    <tag k="layer" v="1"/>
    <tag k="name" v="Финляндский пр."/>
  </way>
  <way id="33065977" version="4" timestamp="2009-10-07T12:08:31Z" uid="140521" user="Fortress" changeset="2770826">
    <nd ref="365417925"/>
    <nd ref="365418022"/>
    <tag k="highway" v="secondary"/>
    <tag k="layer" v="1"/>
    <tag k="name" v="Сампсониевский мост"/>
  </way>
  <way id="33065977" version="5" timestamp="2009-10-07T12:08:58Z" uid="140521" user="Fortress" changeset="2770826">
    <nd ref="365417925"/>
    <nd ref="365418022"/>
    <tag k="highway" v="secondary"/>
    <tag k="layer" v="1"/>
    <tag k="name" v="Сампсониевский мост"/>
    <tag k="oneway" v="yes"/>
  </way>
  <way id="33065977" version="6" timestamp="2011-08-23T08:46:57Z" uid="446083" user="yuryleb" changeset="9101387">
    <nd ref="365417925"/>
    <nd ref="365418022"/>
    <tag k="highway" v="secondary"/>
    <tag k="lanes" v="2"/>
    <tag k="layer" v="1"/>
    <tag k="name" v="Сампсониевский мост"/>
    <tag k="oneway" v="yes"/>
  </way>
  <way id="33065978" version="1" timestamp="2009-04-11T23:24:53Z" uid="34428" user="usm78-gis" changeset="432108">
    <nd ref="365417929"/>
    <nd ref="365417925"/>
    <tag k="highway" v="secondary"/>
    <tag k="name" v="Финляндский пр."/>
  </way>
  <way id="33065978" version="2" timestamp="2009-04-13T05:18:44Z" uid="30590" user="KekcuHa" changeset="465146">
    <nd ref="365417929"/>
    <nd ref="365417925"/>
    <tag k="addr:postcode" v="194044"/>
    <tag k="cladr:code" v="78000000000146300"/>
    <tag k="cladr:name" v="Финляндский"/>
    <tag k="cladr:suffix" v="Проспект"/>
    <tag k="highway" v="secondary"/>
    <tag k="name" v="Финляндский пр."/>
  </way>
  <way id="33065978" version="3" timestamp="2009-07-12T21:46:02Z" uid="95117" user="one_half_3544" changeset="1812217">
    <nd ref="365417929"/>
    <nd ref="365417925"/>
    <tag k="addr:postcode" v="194044"/>
    <tag k="cladr:code" v="78000000000146300"/>
    <tag k="cladr:name" v="Финляндский"/>
    <tag k="cladr:suffix" v="Проспект"/>
    <tag k="highway" v="secondary"/>
    <tag k="name" v="Финляндский пр."/>
    <tag k="railway" v="tram"/>
  </way>
  <way id="33065978" version="4" timestamp="2010-07-31T10:59:51Z" uid="127299" user="Batareikin" changeset="5361652">
    <nd ref="365417929"/>
    <nd ref="365417925"/>
    <tag k="addr:postcode" v="194044"/>
    <tag k="cladr:code" v="78000000000146300"/>
    <tag k="cladr:name" v="Финляндский"/>
    <tag k="cladr:suffix" v="Проспект"/>
    <tag k="highway" v="secondary"/>
    <tag k="name" v="Финляндский проспект"/>
    <tag k="railway" v="tram"/>
  </way>
  <way id="33065978" version="5" timestamp="2011-09-01T06:58:20Z" uid="446083" user="yuryleb" changeset="9181957">
    <nd ref="365417929"/>
    <nd ref="365417925"/>
    <tag k="addr:postcode" v="194044"/>
    <tag k="cladr:code" v="78000000000146300"/>
    <tag k="cladr:name" v="Финляндский"/>
    <tag k="cladr:suffix" v="Проспект"/>
    <tag k="highway" v="secondary"/>
    <tag k="lanes" v="4"/>
    <tag k="name" v="Финляндский проспект"/>
    <tag k="railway" v="tram"/>
  </way>
  <way id="33065978" version="6" timestamp="2011-09-27T19:41:08Z" uid="143266" user="Sergey Astakhov" changeset="9413878">
    <nd ref="365417929"/>
    <nd ref="365417925"/>
    <tag k="addr:postcode" v="194044"/>
    <tag k="highway" v="secondary"/>
    <tag k="lanes" v="4"/>
    <tag k="name" v="Финляндский проспект"/>
    <tag k="railway" v="tram"/>
  </way>
  <way id="33065978" version="7" timestamp="2011-12-02T10:53:29Z" uid="42429" user="FK270673" changeset="10015654">
    <nd ref="365417929"/>
    <nd ref="365417925"/>
    <tag k="addr:postcode" v="194044"/>
    <tag k="electrified" v="contact_line"/>
    <tag k="frequency" v="0"/>
    <tag k="gauge" v="1520"/>
    <tag k="highway" v="secondary"/>
    <tag k="lanes" v="4"/>
    <tag k="name" v="Финляндский проспект"/>
    <tag k="railway" v="tram"/>
    <tag k="voltage" v="550"/>
  </way>
  <way id="33065978" version="8" timestamp="2012-03-22T23:13:48Z" uid="39040" user="Dinamik" changeset="11068950">
    <nd ref="365417929"/>
    <nd ref="365417925"/>
    <tag k="addr:postcode" v="194044"/>
    <tag k="highway" v="secondary"/>
    <tag k="lanes" v="4"/>
    <tag k="name" v="Финляндский проспект"/>
  </way>
  <way id="33065979" version="1" timestamp="2009-04-11T23:24:55Z" uid="34428" user="usm78-gis" changeset="432108">
    <nd ref="365392785"/>
    <nd ref="365392793"/>
    <nd ref="237674"/>
    <tag k="cladr:code" v="78000000000006800"/>
    <tag k="cladr:name" v="Академика Лебедева"/>
    <tag k="cladr:suffix" v="Улица"/>
    <tag k="highway" v="secondary"/>
    <tag k="name" v="Академика Лебедева ул."/>
    <tag k="oneway" v="yes"/>
  </way>
  <way id="33065979" version="2" timestamp="2009-05-22T08:01:20Z" uid="81821" user="alexsaf" changeset="1283225">
    <nd ref="365392785"/>
    <nd ref="365392793"/>
    <nd ref="409486322"/>
    <nd ref="237674"/>
    <tag k="cladr:code" v="78000000000006800"/>
    <tag k="cladr:name" v="Академика Лебедева"/>
    <tag k="cladr:suffix" v="Улица"/>
    <tag k="highway" v="secondary"/>
    <tag k="name" v="Академика Лебедева ул."/>
    <tag k="oneway" v="yes"/>
  </way>
  <way id="33065979" version="3" timestamp="2009-07-12T21:46:00Z" uid="95117" user="one_half_3544" changeset="1812217">
    <nd ref="365392785"/>
    <nd ref="365392793"/>
    <nd ref="409486322"/>
    <nd ref="237674"/>
    <tag k="cladr:code" v="78000000000006800"/>
    <tag k="cladr:name" v="Академика Лебедева"/>
    <tag k="cladr:suffix" v="Улица"/>
    <tag k="highway" v="secondary"/>
    <tag k="name" v="Академика Лебедева ул."/>
    <tag k="oneway" v="yes"/>
    <tag k="railway" v="tram"/>
  </way>
  <way id="33065979" version="4" timestamp="2010-02-12T23:28:50Z" uid="13502" user="Alexander Leschinsky" changeset="3861212">
    <nd ref="365392785"/>
    <nd ref="365392793"/>
    <nd ref="409486322"/>
    <nd ref="237674"/>
    <tag k="cladr:code" v="78000000000006800"/>
    <tag k="cladr:name" v="Академика Лебедева"/>
    <tag k="cladr:suffix" v="Улица"/>
    <tag k="highway" v="secondary"/>
    <tag k="name" v="Академика Лебедева ул."/>
    <tag k="railway" v="tram"/>
  </way>
  <way id="33065979" version="5" timestamp="2010-07-31T10:58:29Z" uid="127299" user="Batareikin" changeset="5361652">
    <nd ref="365392785"/>
    <nd ref="365392793"/>
    <nd ref="409486322"/>
    <nd ref="237674"/>
    <tag k="cladr:code" v="78000000000006800"/>
    <tag k="cladr:name" v="Академика Лебедева"/>
    <tag k="cladr:suffix" v="Улица"/>
    <tag k="highway" v="secondary"/>
    <tag k="name" v="улица Академика Лебедева"/>
    <tag k="railway" v="tram"/>
  </way>
  <way id="33065979" version="6" timestamp="2010-09-29T19:41:58Z" uid="51045" user="Geogast" changeset="5914586">
    <nd ref="365392785"/>
    <nd ref="365392793"/>
    <nd ref="409486322"/>
    <nd ref="237674"/>
    <tag k="cladr:code" v="78000000000006800"/>
    <tag k="cladr:name" v="Академика Лебедева"/>
    <tag k="cladr:suffix" v="Улица"/>
    <tag k="highway" v="secondary"/>
    <tag k="name" v="улица Академика Лебедева"/>
    <tag k="railway" v="tram"/>
    <tag k="trolley_wire" v="yes"/>
  </way>
  <way id="33065979" version="7" timestamp="2011-08-23T08:46:58Z" uid="446083" user="yuryleb" changeset="9101387">
    <nd ref="365392785"/>
    <nd ref="365392793"/>
    <nd ref="409486322"/>
    <nd ref="237674"/>
    <tag k="cladr:code" v="78000000000006800"/>
    <tag k="cladr:name" v="Академика Лебедева"/>
    <tag k="cladr:suffix" v="Улица"/>
    <tag k="highway" v="secondary"/>
    <tag k="lanes" v="4"/>
    <tag k="name" v="улица Академика Лебедева"/>
    <tag k="railway" v="tram"/>
    <tag k="trolley_wire" v="yes"/>
  </way>
  <way id="33065979" version="8" timestamp="2011-09-01T12:06:03Z" uid="37041" user="unxed" changeset="9184004">
    <nd ref="365392785"/>
    <nd ref="1420034514"/>
    <nd ref="365392793"/>
    <nd ref="409486322"/>
    <nd ref="237674"/>
    <tag k="cladr:code" v="78000000000006800"/>
    <tag k="cladr:name" v="Академика Лебедева"/>
    <tag k="cladr:suffix" v="Улица"/>
    <tag k="highway" v="secondary"/>
    <tag k="lanes" v="4"/>
    <tag k="name" v="улица Академика Лебедева"/>
    <tag k="railway" v="tram"/>
    <tag k="trolley_wire" v="yes"/>
  </way>
  <way id="33065979" version="9" timestamp="2011-09-27T19:30:24Z" uid="143266" user="Sergey Astakhov" changeset="9413826">
    <nd ref="365392785"/>
    <nd ref="1420034514"/>
    <nd ref="365392793"/>
    <nd ref="409486322"/>
    <nd ref="237674"/>
    <tag k="highway" v="secondary"/>
    <tag k="lanes" v="4"/>
    <tag k="name" v="улица Академика Лебедева"/>
    <tag k="railway" v="tram"/>
    <tag k="trolley_wire" v="yes"/>
  </way>
  <way id="33065979" version="10" timestamp="2012-03-22T22:53:20Z" uid="39040" user="Dinamik" changeset="11068821">
    <nd ref="365392785"/>
    <nd ref="1420034514"/>
    <nd ref="365392793"/>
    <nd ref="409486322"/>
    <nd ref="237674"/>
    <tag k="highway" v="secondary"/>
    <tag k="lanes" v="4"/>
    <tag k="name" v="улица Академика Лебедева"/>
    <tag k="trolley_wire" v="yes"/>
  </way>
  <way id="33065980" version="1" timestamp="2009-04-11T23:24:57Z" uid="34428" user="usm78-gis" changeset="432108">
    <nd ref="365392785"/>
    <nd ref="372975059"/>
    <tag k="highway" v="secondary"/>
  </way>
  <way id="33065980" version="2" timestamp="2009-04-26T20:44:26Z" uid="34428" user="usm78-gis" changeset="981287"/>
</osm>
