<?xml version='1.0' encoding='UTF-8'?>
<osm version="0.6" generator="libosmium/2.20.0">
  <way id="33087083" version="3" timestamp="2009-11-29T22:49:30Z" uid="200463" user="harmagedon" changeset="3251061">
    <nd ref="372920488"/>
    <nd ref="373382098"/>
    <nd ref="373382100"/>
    <nd ref="373382102"/>
    <nd ref="373382105"/>
    <nd ref="373382109"/>
    <nd ref="247710080"/>
    <tag k="highway" v="service"/>
    <tag k="tracktype" v="grade3"/>
  </way>
  <way id="33087083" version="4" timestamp="2010-03-24T18:52:49Z" uid="117440" user="Obermadl" changeset="4223520">
    <nd ref="372920488"/>
    <nd ref="373382098"/>
    <nd ref="373382100"/>
    <nd ref="373382102"/>
    <nd ref="373382105"/>
    <nd ref="373382109"/>
    <nd ref="673547060"/>
    <nd ref="247710080"/>
    <tag k="highway" v="service"/>
    <tag k="tracktype" v="grade3"/>
  </way>
  <way id="33087133" version="1" timestamp="2009-04-12T17:33:59Z" uid="30632" user="antblant" changeset="444363">
    <nd ref="338322012"/>
    <nd ref="338322484"/>
    <tag k="created_by" v="Potlatch 0.10f"/>
    <tag k="highway" v="primary"/>
    <tag k="name" v="Ku Słońcu"/>
    <tag k="oneway" v="yes"/>
    <tag k="ref" v="10"/>
  </way>
  <way id="33087133" version="2" timestamp="2009-11-03T01:43:17Z" uid="36809" user="pfoten_weg_!_" changeset="3021530">
    <nd ref="338322012"/>
    <nd ref="338322484"/>
    <tag k="highway" v="primary"/>
    <tag k="name" v="Ku Słońcu"/>
    <tag k="oneway" v="yes"/>
    <tag k="ref" v="10"/>
  </way>
  <way id="33087133" version="3" timestamp="2012-02-26T17:00:41Z" uid="603523" user="diverpl" changeset="10800474">
    <nd ref="338322012"/>
    <nd ref="1648907443"/>
    <nd ref="1648907451"/>
    <nd ref="1648907476"/>
    <nd ref="338322484"/>
    <tag k="highway" v="primary"/>
    <tag k="name" v="Ku Słońcu"/>
    <tag k="oneway" v="yes"/>
    <tag k="ref" v="10"/>
  </way>
  <way id="33087169" version="4" timestamp="2009-10-13T23:13:29Z" uid="36809" user="pfoten_weg_!_" changeset="2841207">
    <nd ref="373381924"/>
    <nd ref="373383202"/>
    <nd ref="373382660"/>
    <tag k="access" v="destination"/>
    <tag k="highway" v="residential"/>
    <tag k="name" v="Alpinistraße"/>
    <tag k="name:it" v="via Alpini"/>
  </way>
  <way id="33087237" version="1" timestamp="2009-04-12T17:34:56Z" uid="30632" user="antblant" changeset="444363">
    <nd ref="254178779"/>
    <nd ref="254067040"/>
    <nd ref="254059614"/>
    <tag k="created_by" v="Potlatch 0.10f"/>
    <tag k="highway" v="primary"/>
    <tag k="name" v="Aleja Piastów"/>
    <tag k="oneway" v="yes"/>
    <tag k="ref" v="10"/>
    <tag k="source" v="UMP-PL, ./UMP-Szczecin/src/SZCZECIN.ulice.txt"/>
  </way>
  <way id="33087237" version="2" timestamp="2009-04-12T17:35:57Z" uid="30632" user="antblant" changeset="444363">
    <nd ref="254178779"/>
    <nd ref="254067040"/>
    <tag k="created_by" v="Potlatch 0.10f"/>
    <tag k="highway" v="primary"/>
    <tag k="name" v="Aleja Piastów"/>
    <tag k="oneway" v="yes"/>
    <tag k="ref" v="10"/>
    <tag k="source" v="UMP-PL, ./UMP-Szczecin/src/SZCZECIN.ulice.txt"/>
  </way>
  <way id="33087237" version="3" timestamp="2009-11-03T01:43:00Z" uid="36809" user="pfoten_weg_!_" changeset="3021530">
    <nd ref="254178779"/>
    <nd ref="254067040"/>
    <tag k="highway" v="primary"/>
    <tag k="name" v="Aleja Piastów"/>
    <tag k="oneway" v="yes"/>
    <tag k="ref" v="10"/>
    <tag k="source" v="UMP-PL, ./UMP-Szczecin/src/SZCZECIN.ulice.txt"/>
  </way>
  <way id="33087267" version="1" timestamp="2009-04-12T17:35:16Z" uid="30632" user="antblant" changeset="444363">
    <nd ref="254067027"/>
    <nd ref="254178779"/>
    <tag k="created_by" v="Potlatch 0.10f"/>
    <tag k="highway" v="primary"/>
    <tag k="name" v="Ku Słońcu"/>
    <tag k="ref" v="10"/>
  </way>
  <way id="33087267" version="2" timestamp="2009-04-13T09:12:04Z" uid="30632" user="antblant" changeset="475237">
    <nd ref="254067027"/>
    <nd ref="373812121"/>
    <nd ref="254178779"/>
    <tag k="created_by" v="Potlatch 0.10f"/>
    <tag k="highway" v="primary"/>
    <tag k="name" v="Ku Słońcu"/>
    <tag k="ref" v="10"/>
  </way>
  <way id="33087267" version="3" timestamp="2009-11-03T01:43:19Z" uid="36809" user="pfoten_weg_!_" changeset="3021530">
    <nd ref="254067027"/>
    <nd ref="373812121"/>
    <nd ref="254178779"/>
    <tag k="highway" v="primary"/>
    <tag k="name" v="Ku Słońcu"/>
    <tag k="ref" v="10"/>
  </way>
  <way id="33087267" version="4" timestamp="2011-11-19T08:53:18Z" uid="345347" user="Jaszek" changeset="9871147">
    <nd ref="254067027"/>
    <nd ref="373812121"/>
    <nd ref="254178779"/>
    <tag k="highway" v="primary"/>
    <tag k="name" v="Ku Słońcu"/>
    <tag k="oneway" v="yes"/>
    <tag k="ref" v="10"/>
  </way>
  <way id="33087267" version="5" timestamp="2012-02-16T18:05:07Z" uid="603523" user="diverpl" changeset="10703931">
    <nd ref="254067027"/>
    <nd ref="373812121"/>
    <nd ref="1635505314"/>
    <nd ref="254178779"/>
    <tag k="highway" v="primary"/>
    <tag k="name" v="Ku Słońcu"/>
    <tag k="oneway" v="yes"/>
    <tag k="ref" v="10"/>
  </way>
  <way id="33087295" version="3" timestamp="2009-10-13T23:13:30Z" uid="36809" user="pfoten_weg_!_" changeset="2841207">
    <nd ref="373383202"/>
    <nd ref="373383272"/>
    <tag k="access" v="destination"/>
    <tag k="highway" v="residential"/>
    <tag k="name" v="Alpinistraße"/>
    <tag k="name:it" v="via Alpini"/>
  </way>
  <way id="33087301" version="8" timestamp="2011-06-04T23:16:54Z" uid="16922" user="amai" changeset="8344189">
    <nd ref="370478610"/>
    <nd ref="1241591127"/>
    <nd ref="247895182"/>
    <nd ref="1241591126"/>
    <nd ref="247895183"/>
    <nd ref="247895184"/>
    <nd ref="1241591125"/>
    <nd ref="1241591052"/>
    <nd ref="247895185"/>
    <nd ref="247895186"/>
    <nd ref="1241591030"/>
    <nd ref="247895187"/>
    <nd ref="247895188"/>
    <nd ref="247895189"/>
    <nd ref="247895190"/>
    <nd ref="247895191"/>
    <nd ref="1241591028"/>
    <nd ref="247895192"/>
    <nd ref="999283534"/>
    <nd ref="369697535"/>
    <nd ref="369697536"/>
    <nd ref="999283535"/>
    <nd ref="369697537"/>
    <nd ref="999283537"/>
    <nd ref="999283539"/>
    <nd ref="369697538"/>
    <nd ref="369697539"/>
    <nd ref="369697540"/>
    <nd ref="369697541"/>
    <nd ref="369697542"/>
    <nd ref="369697543"/>
    <nd ref="313005310"/>
    <nd ref="313005309"/>
    <nd ref="313005308"/>
    <nd ref="313005307"/>
    <nd ref="313005306"/>
    <nd ref="313005305"/>
    <nd ref="313005304"/>
    <nd ref="313005303"/>
    <nd ref="1312439130"/>
    <nd ref="313005302"/>
    <nd ref="1312439193"/>
    <nd ref="313005301"/>
    <nd ref="313005300"/>
    <nd ref="313005299"/>
    <nd ref="313005298"/>
    <nd ref="313005297"/>
    <nd ref="423813666"/>
    <nd ref="313005296"/>
    <nd ref="313005295"/>
    <nd ref="423813699"/>
    <nd ref="423813667"/>
    <nd ref="313005294"/>
    <nd ref="313005293"/>
    <nd ref="313005292"/>
    <nd ref="313005291"/>
    <nd ref="313005290"/>
    <nd ref="313005289"/>
    <nd ref="1117910978"/>
    <nd ref="313005288"/>
    <nd ref="1117911126"/>
    <nd ref="1117910989"/>
    <nd ref="313005287"/>
    <nd ref="1117911710"/>
    <nd ref="1117911631"/>
    <nd ref="1117911793"/>
    <nd ref="313005286"/>
    <tag k="highway" v="secondary"/>
    <tag k="int_ref" v="AH19"/>
    <tag k="lanes" v="4"/>
    <tag k="ref" v="304"/>
    <tag k="source" v="GPS; sign"/>
  </way>
  <way id="33087301" version="9" timestamp="2011-08-12T11:18:32Z" uid="104414" user="Willi2006" changeset="8993625">
    <nd ref="370478610"/>
    <nd ref="1241591127"/>
    <nd ref="247895182"/>
    <nd ref="1241591126"/>
    <nd ref="247895183"/>
    <nd ref="247895184"/>
    <nd ref="1241591125"/>
    <nd ref="1241591052"/>
    <nd ref="247895185"/>
    <nd ref="247895186"/>
    <nd ref="1241591030"/>
    <nd ref="247895187"/>
    <nd ref="247895188"/>
    <nd ref="247895189"/>
    <nd ref="247895190"/>
    <nd ref="247895191"/>
    <nd ref="1241591028"/>
    <nd ref="247895192"/>
    <nd ref="999283534"/>
    <nd ref="369697535"/>
    <nd ref="369697536"/>
    <nd ref="999283535"/>
    <nd ref="369697537"/>
    <nd ref="999283537"/>
    <nd ref="999283539"/>
    <nd ref="369697538"/>
    <nd ref="369697539"/>
    <nd ref="369697540"/>
    <nd ref="369697541"/>
    <nd ref="369697542"/>
    <nd ref="369697543"/>
    <nd ref="313005310"/>
    <nd ref="313005308"/>
    <nd ref="313005307"/>
    <nd ref="313005306"/>
    <nd ref="313005305"/>
    <nd ref="313005304"/>
    <nd ref="313005303"/>
    <nd ref="1312439130"/>
    <nd ref="313005302"/>
    <nd ref="1312439193"/>
    <nd ref="313005301"/>
    <nd ref="313005300"/>
    <nd ref="313005299"/>
    <nd ref="313005298"/>
    <nd ref="313005297"/>
    <nd ref="423813666"/>
    <nd ref="313005296"/>
    <nd ref="313005295"/>
    <nd ref="423813699"/>
    <nd ref="423813667"/>
    <nd ref="313005294"/>
    <nd ref="313005293"/>
    <nd ref="313005292"/>
    <nd ref="313005291"/>
    <nd ref="313005290"/>
    <nd ref="313005289"/>
    <nd ref="1117910978"/>
    <nd ref="313005288"/>
    <nd ref="1117911126"/>
    <nd ref="1117910989"/>
    <nd ref="313005287"/>
    <nd ref="1117911710"/>
    <nd ref="1117911631"/>
    <nd ref="1117911793"/>
    <nd ref="313005286"/>
    <tag k="highway" v="secondary"/>
    <tag k="int_ref" v="AH19"/>
    <tag k="lanes" v="4"/>
    <tag k="ref" v="304"/>
    <tag k="source" v="GPS; sign"/>
  </way>
  <way id="33087301" version="10" timestamp="2012-02-03T08:39:27Z" uid="381887" user="RocketMan" changeset="10574007">
    <nd ref="370478610"/>
    <nd ref="1241591127"/>
    <nd ref="247895182"/>
    <nd ref="1241591126"/>
    <nd ref="1616486209"/>
    <nd ref="247895183"/>
    <tag k="highway" v="secondary"/>
    <tag k="int_ref" v="AH19"/>
    <tag k="lanes" v="4"/>
    <tag k="oneway" v="yes"/>
    <tag k="ref" v="304"/>
    <tag k="source" v="GPS; sign"/>
  </way>
  <way id="33087301" version="11" timestamp="2012-02-04T02:56:32Z" uid="381887" user="RocketMan" changeset="10580984">
    <nd ref="1616495502"/>
    <nd ref="1616495508"/>
    <nd ref="1616495518"/>
    <nd ref="247895158"/>
    <nd ref="972790163"/>
    <nd ref="1330187792"/>
    <nd ref="1616490758"/>
    <nd ref="1616490736"/>
    <nd ref="247895159"/>
    <nd ref="1616492300"/>
    <nd ref="1616490747"/>
    <nd ref="247895160"/>
    <nd ref="1616476303"/>
    <nd ref="247895161"/>
    <nd ref="1616488371"/>
    <nd ref="1241591060"/>
    <nd ref="1616488377"/>
    <nd ref="247895162"/>
    <nd ref="1616488374"/>
    <nd ref="247895163"/>
    <nd ref="1616488392"/>
    <nd ref="247895164"/>
    <nd ref="1616488381"/>
    <nd ref="247895165"/>
    <nd ref="1616488379"/>
    <nd ref="247895166"/>
    <nd ref="1616488389"/>
    <nd ref="1616488391"/>
    <nd ref="1616488373"/>
    <nd ref="247895167"/>
    <nd ref="247895168"/>
    <nd ref="1616488384"/>
    <nd ref="247895169"/>
    <nd ref="1616488388"/>
    <nd ref="247895170"/>
    <nd ref="1616488383"/>
    <nd ref="247895171"/>
    <nd ref="1241591113"/>
    <nd ref="247895172"/>
    <nd ref="1241591056"/>
    <nd ref="1241591058"/>
    <nd ref="1241591032"/>
    <nd ref="247895173"/>
    <nd ref="247895174"/>
    <nd ref="1616488378"/>
    <nd ref="247895175"/>
    <nd ref="1241591026"/>
    <nd ref="247895176"/>
    <nd ref="1241591029"/>
    <nd ref="247895177"/>
    <nd ref="1616488375"/>
    <nd ref="1241591025"/>
    <nd ref="247895178"/>
    <nd ref="247895179"/>
    <nd ref="1241591024"/>
    <nd ref="247895180"/>
    <nd ref="1241591022"/>
    <nd ref="1241591128"/>
    <nd ref="247895181"/>
    <nd ref="370478610"/>
    <nd ref="1241591127"/>
    <nd ref="247895182"/>
    <nd ref="1241591126"/>
    <nd ref="1616486209"/>
    <nd ref="247895183"/>
    <tag k="highway" v="secondary"/>
    <tag k="int_ref" v="AH19"/>
    <tag k="lanes" v="4"/>
    <tag k="oneway" v="yes"/>
    <tag k="ref" v="304"/>
    <tag k="source" v="GPS; sign"/>
  </way>
  <way id="33087301" version="12" timestamp="2012-03-09T01:52:05Z" uid="61891" user="stephankn" changeset="10915567"/>
  <way id="33087327" version="1" timestamp="2009-04-12T17:35:57Z" uid="30632" user="antblant" changeset="444363">
    <nd ref="254067040"/>
    <nd ref="254059614"/>
    <tag k="created_by" v="Potlatch 0.10f"/>
    <tag k="highway" v="primary"/>
    <tag k="name" v="Aleja Piastów"/>
    <tag k="oneway" v="yes"/>
    <tag k="ref" v="10"/>
    <tag k="source" v="UMP-PL, ./UMP-Szczecin/src/SZCZECIN.ulice.txt"/>
  </way>
  <way id="33087327" version="2" timestamp="2009-04-12T17:36:15Z" uid="30632" user="antblant" changeset="444363">
    <nd ref="254067040"/>
    <nd ref="254059614"/>
    <tag k="created_by" v="Potlatch 0.10f"/>
    <tag k="highway" v="secondary"/>
    <tag k="name" v="Aleja Piastów"/>
    <tag k="oneway" v="yes"/>
    <tag k="source" v="UMP-PL, ./UMP-Szczecin/src/SZCZECIN.ulice.txt"/>
  </way>
  <way id="33087327" version="3" timestamp="2009-05-20T19:50:02Z" uid="30632" user="antblant" changeset="1268448">
    <nd ref="254067040"/>
    <nd ref="254059614"/>
    <tag k="created_by" v="Potlatch 0.10f"/>
    <tag k="highway" v="tertiary"/>
    <tag k="name" v="Aleja Piastów"/>
    <tag k="oneway" v="yes"/>
    <tag k="source" v="UMP-PL, ./UMP-Szczecin/src/SZCZECIN.ulice.txt"/>
  </way>
  <way id="33087327" version="4" timestamp="2009-11-03T01:43:33Z" uid="36809" user="pfoten_weg_!_" changeset="3021530">
    <nd ref="254067040"/>
    <nd ref="254059614"/>
    <tag k="highway" v="tertiary"/>
    <tag k="name" v="Aleja Piastów"/>
    <tag k="oneway" v="yes"/>
    <tag k="source" v="UMP-PL, ./UMP-Szczecin/src/SZCZECIN.ulice.txt"/>
  </way>
  <way id="33087327" version="5" timestamp="2012-02-16T18:05:02Z" uid="603523" user="diverpl" changeset="10703931">
    <nd ref="254067040"/>
    <nd ref="1635505342"/>
    <nd ref="254059614"/>
    <tag k="highway" v="tertiary"/>
    <tag k="name" v="Aleja Piastów"/>
    <tag k="oneway" v="yes"/>
    <tag k="source" v="UMP-PL, ./UMP-Szczecin/src/SZCZECIN.ulice.txt"/>
  </way>
  <way id="33087340" version="5" timestamp="2009-10-13T23:13:31Z" uid="36809" user="pfoten_weg_!_" changeset="2841207">
    <nd ref="373383272"/>
    <nd ref="373383444"/>
    <tag k="highway" v="path"/>
  </way>
  <way id="33087365" version="1" timestamp="2009-04-12T17:36:19Z" uid="30632" user="antblant" changeset="444363">
    <nd ref="254067040"/>
    <nd ref="254059613"/>
    <nd ref="254059608"/>
    <nd ref="254059607"/>
    <nd ref="254059610"/>
    <tag k="created_by" v="Potlatch 0.10f"/>
    <tag k="highway" v="primary"/>
    <tag k="name" v="Gabriela Narutowicza"/>
    <tag k="oneway" v="yes"/>
    <tag k="ref" v="10"/>
    <tag k="source" v="UMP-PL, ./UMP-Szczecin/src/SZCZECIN.ulice.txt"/>
  </way>
  <way id="33087365" version="2" timestamp="2009-11-03T01:43:28Z" uid="36809" user="pfoten_weg_!_" changeset="3021530">
    <nd ref="254067040"/>
    <nd ref="254059613"/>
    <nd ref="254059608"/>
    <nd ref="254059607"/>
    <nd ref="254059610"/>
    <tag k="highway" v="primary"/>
    <tag k="name" v="Gabriela Narutowicza"/>
    <tag k="oneway" v="yes"/>
    <tag k="ref" v="10"/>
    <tag k="source" v="UMP-PL, ./UMP-Szczecin/src/SZCZECIN.ulice.txt"/>
  </way>
  <way id="33087381" version="1" timestamp="2009-04-12T17:36:27Z" uid="12188" user="Babis" changeset="447991">
    <nd ref="364752572"/>
    <nd ref="373383224"/>
    <nd ref="373383373"/>
    <tag k="created_by" v="Potlatch 0.10f"/>
    <tag k="highway" v="residential"/>
  </way>
  <way id="33087381" version="2" timestamp="2010-01-08T09:12:33Z" uid="12188" user="Babis" changeset="3568364">
    <nd ref="364752572"/>
    <nd ref="373383224"/>
    <nd ref="373383373"/>
    <tag k="highway" v="residential"/>
  </way>
  <way id="33087381" version="3" timestamp="2010-01-08T09:13:47Z" uid="12188" user="Babis" changeset="3568364">
    <nd ref="364752572"/>
    <nd ref="373383224"/>
    <nd ref="373383373"/>
    <tag k="highway" v="residential"/>
    <tag k="name" v="Μενελάου"/>
    <tag k="name:en" v="Memelaou"/>
    <tag k="source" v="GPS"/>
  </way>
  <way id="33087410" version="4" timestamp="2009-10-13T23:13:31Z" uid="36809" user="pfoten_weg_!_" changeset="2841207">
    <nd ref="373383444"/>
    <nd ref="373383773"/>
    <tag k="highway" v="residential"/>
    <tag k="name" v="Peter-Mitterhofer-Straße"/>
    <tag k="name:it" v="via Peter Mitterhofer"/>
  </way>
  <way id="33087432" version="1" timestamp="2009-04-12T17:37:02Z" uid="30632" user="antblant" changeset="444363">
    <nd ref="254067118"/>
    <nd ref="254067119"/>
    <nd ref="254059610"/>
    <tag k="created_by" v="Potlatch 0.10f"/>
    <tag k="highway" v="primary"/>
    <tag k="name" v="Mikołaja Kopernika"/>
    <tag k="ref" v="10"/>
    <tag k="source" v="UMP-PL, ./UMP-Szczecin/src/SZCZECIN.ulice.txt"/>
  </way>
  <way id="33087432" version="2" timestamp="2009-04-12T17:37:09Z" uid="30632" user="antblant" changeset="444363">
    <nd ref="254067118"/>
    <nd ref="254067119"/>
    <nd ref="254059610"/>
    <tag k="created_by" v="Potlatch 0.10f"/>
    <tag k="highway" v="primary"/>
    <tag k="name" v="Mikołaja Kopernika"/>
    <tag k="oneway" v="yes"/>
    <tag k="ref" v="10"/>
    <tag k="source" v="UMP-PL, ./UMP-Szczecin/src/SZCZECIN.ulice.txt"/>
  </way>
  <way id="33087432" version="3" timestamp="2009-06-01T12:33:05Z" uid="30632" user="antblant" changeset="1379225">
    <nd ref="254059610"/>
    <nd ref="254067119"/>
    <nd ref="254067118"/>
    <tag k="created_by" v="Potlatch 0.10f"/>
    <tag k="highway" v="primary"/>
    <tag k="name" v="Mikołaja Kopernika"/>
    <tag k="oneway" v="yes"/>
    <tag k="ref" v="10"/>
    <tag k="source" v="UMP-PL, ./UMP-Szczecin/src/SZCZECIN.ulice.txt"/>
  </way>
  <way id="33087432" version="4" timestamp="2009-11-03T01:43:44Z" uid="36809" user="pfoten_weg_!_" changeset="3021530">
    <nd ref="254059610"/>
    <nd ref="254067119"/>
    <nd ref="254067118"/>
    <tag k="highway" v="primary"/>
    <tag k="name" v="Mikołaja Kopernika"/>
    <tag k="oneway" v="yes"/>
    <tag k="ref" v="10"/>
    <tag k="source" v="UMP-PL, ./UMP-Szczecin/src/SZCZECIN.ulice.txt"/>
  </way>
  <way id="33087445" version="2" timestamp="2009-10-13T23:12:59Z" uid="36809" user="pfoten_weg_!_" changeset="2841207">
    <nd ref="373374531"/>
    <nd ref="373374533"/>
    <tag k="highway" v="residential"/>
    <tag k="name" v="Gebirgsjägerstraße"/>
  </way>
  <way id="33087445" version="3" timestamp="2011-07-29T21:06:11Z" uid="489889" user="lou67" changeset="8867249">
    <nd ref="1378010639"/>
    <nd ref="373374531"/>
    <nd ref="1378010633"/>
    <nd ref="373374533"/>
    <tag k="highway" v="residential"/>
    <tag k="name" v="Gebirgsjägerstraße"/>
  </way>
  <way id="33087475" version="1" timestamp="2009-04-12T17:37:44Z" uid="30632" user="antblant" changeset="444363">
    <nd ref="301510282"/>
    <nd ref="301510283"/>
    <nd ref="254059614"/>
    <nd ref="254067030"/>
    <tag k="created_by" v="Potlatch 0.10f"/>
    <tag k="highway" v="primary"/>
    <tag k="name" v="Gabriela Narutowicza"/>
    <tag k="oneway" v="yes"/>
    <tag k="ref" v="10"/>
  </way>
  <way id="33087475" version="2" timestamp="2009-11-03T01:43:29Z" uid="36809" user="pfoten_weg_!_" changeset="3021530">
    <nd ref="301510282"/>
    <nd ref="301510283"/>
    <nd ref="254059614"/>
    <nd ref="254067030"/>
    <tag k="highway" v="primary"/>
    <tag k="name" v="Gabriela Narutowicza"/>
    <tag k="oneway" v="yes"/>
    <tag k="ref" v="10"/>
  </way>
  <way id="33087475" version="3" timestamp="2010-03-23T11:16:59Z" uid="20587" user="balrog-kun" changeset="4211110">
    <nd ref="301510282"/>
    <nd ref="301510283"/>
    <nd ref="254059614"/>
    <nd ref="672681812"/>
    <nd ref="254067030"/>
    <tag k="highway" v="primary"/>
    <tag k="name" v="Gabriela Narutowicza"/>
    <tag k="oneway" v="yes"/>
    <tag k="ref" v="10"/>
  </way>
  <way id="33087475" version="4" timestamp="2012-02-16T18:05:06Z" uid="603523" user="diverpl" changeset="10703931">
    <nd ref="301510282"/>
    <nd ref="301510283"/>
    <nd ref="1635505348"/>
    <nd ref="254059614"/>
    <nd ref="672681812"/>
    <nd ref="254067030"/>
    <tag k="highway" v="primary"/>
    <tag k="name" v="Gabriela Narutowicza"/>
    <tag k="oneway" v="yes"/>
    <tag k="ref" v="10"/>
  </way>
  <way id="33087484" version="1" timestamp="2009-04-12T17:37:54Z" uid="30632" user="antblant" changeset="444363">
    <nd ref="301510282"/>
    <nd ref="254059607"/>
    <tag k="created_by" v="Potlatch 0.10f"/>
    <tag k="highway" v="residential"/>
    <tag k="name" v="Księcia Bogusława X"/>
    <tag k="source" v="UMP-PL, ./UMP-Szczecin/src/SZCZECIN.ulice.txt"/>
  </way>
  <way id="33087484" version="2" timestamp="2009-11-03T01:43:45Z" uid="36809" user="pfoten_weg_!_" changeset="3021530">
    <nd ref="301510282"/>
    <nd ref="254059607"/>
    <tag k="highway" v="residential"/>
    <tag k="name" v="Księcia Bogusława X"/>
    <tag k="source" v="UMP-PL, ./UMP-Szczecin/src/SZCZECIN.ulice.txt"/>
  </way>
  <way id="33087497" version="1" timestamp="2009-04-12T17:38:08Z" uid="30632" user="antblant" changeset="444363">
    <nd ref="254067517"/>
    <nd ref="301510282"/>
    <tag k="created_by" v="Potlatch 0.10f"/>
    <tag k="highway" v="primary"/>
    <tag k="name" v="Księcia Bogusława X"/>
    <tag k="source" v="UMP-PL, ./UMP-Szczecin/src/SZCZECIN.ulice.txt"/>
  </way>
  <way id="33087497" version="2" timestamp="2009-04-12T17:38:24Z" uid="30632" user="antblant" changeset="444363">
    <nd ref="254067517"/>
    <nd ref="301510282"/>
    <tag k="created_by" v="Potlatch 0.10f"/>
    <tag k="highway" v="primary"/>
    <tag k="name" v="Księcia Bogusława X"/>
    <tag k="oneway" v="yes"/>
    <tag k="source" v="UMP-PL, ./UMP-Szczecin/src/SZCZECIN.ulice.txt"/>
  </way>
  <way id="33087497" version="3" timestamp="2009-11-03T01:43:41Z" uid="36809" user="pfoten_weg_!_" changeset="3021530">
    <nd ref="254067517"/>
    <nd ref="301510282"/>
    <tag k="highway" v="primary"/>
    <tag k="name" v="Księcia Bogusława X"/>
    <tag k="oneway" v="yes"/>
    <tag k="source" v="UMP-PL, ./UMP-Szczecin/src/SZCZECIN.ulice.txt"/>
  </way>
  <way id="33087497" version="4" timestamp="2011-11-19T09:01:04Z" uid="345347" user="Jaszek" changeset="9871252">
    <nd ref="254067517"/>
    <nd ref="301510282"/>
    <tag k="highway" v="tertiary"/>
    <tag k="name" v="Księcia Bogusława X"/>
    <tag k="oneway" v="yes"/>
    <tag k="source" v="UMP-PL, ./UMP-Szczecin/src/SZCZECIN.ulice.txt"/>
  </way>
  <way id="33087514" version="1" timestamp="2009-04-12T17:38:28Z" uid="30632" user="antblant" changeset="444363">
    <nd ref="254067117"/>
    <nd ref="254067118"/>
    <tag k="created_by" v="Potlatch 0.10f"/>
    <tag k="highway" v="primary"/>
    <tag k="name" v="Mikołaja Kopernika"/>
    <tag k="ref" v="10"/>
    <tag k="source" v="UMP-PL, ./UMP-Szczecin/src/SZCZECIN.ulice.txt"/>
  </way>
  <way id="33087514" version="2" timestamp="2009-04-12T17:38:42Z" uid="30632" user="antblant" changeset="444363">
    <nd ref="254067118"/>
    <nd ref="254067117"/>
    <tag k="created_by" v="Potlatch 0.10f"/>
    <tag k="highway" v="primary"/>
    <tag k="name" v="Mikołaja Kopernika"/>
    <tag k="oneway" v="yes"/>
    <tag k="ref" v="10"/>
    <tag k="source" v="UMP-PL, ./UMP-Szczecin/src/SZCZECIN.ulice.txt"/>
  </way>
  <way id="33087514" version="3" timestamp="2009-04-12T18:02:18Z" uid="30632" user="antblant" changeset="444363">
    <nd ref="254067118"/>
    <nd ref="254067117"/>
    <tag k="created_by" v="Potlatch 0.10f"/>
    <tag k="highway" v="primary"/>
    <tag k="name" v="Mikołaja Kopernika"/>
    <tag k="ref" v="10"/>
    <tag k="source" v="UMP-PL, ./UMP-Szczecin/src/SZCZECIN.ulice.txt"/>
  </way>
  <way id="33087514" version="4" timestamp="2009-11-03T01:43:40Z" uid="36809" user="pfoten_weg_!_" changeset="3021530">
    <nd ref="254067118"/>
    <nd ref="254067117"/>
    <tag k="highway" v="primary"/>
    <tag k="name" v="Mikołaja Kopernika"/>
    <tag k="ref" v="10"/>
    <tag k="source" v="UMP-PL, ./UMP-Szczecin/src/SZCZECIN.ulice.txt"/>
  </way>
  <way id="33087519" version="2" timestamp="2009-06-11T16:10:35Z" uid="43863" user="Rundling" changeset="1488782">
    <nd ref="371681988"/>
    <nd ref="378017265"/>
    <nd ref="371690335"/>
    <nd ref="371681993"/>
    <nd ref="371681996"/>
    <nd ref="371682001"/>
    <nd ref="371682005"/>
    <nd ref="371682007"/>
    <nd ref="371682012"/>
    <nd ref="371682592"/>
    <nd ref="371682016"/>
    <nd ref="371682019"/>
    <nd ref="371682024"/>
    <nd ref="371682027"/>
    <nd ref="371682031"/>
    <nd ref="373384521"/>
    <tag k="highway" v="track"/>
    <tag k="surface" v="dirt"/>
  </way>
  <way id="33087519" version="3" timestamp="2009-07-02T22:43:45Z" uid="58950" user="mfi" changeset="1714488">
    <nd ref="371681988"/>
    <nd ref="378017265"/>
    <nd ref="371690335"/>
    <nd ref="371681993"/>
    <nd ref="371681996"/>
    <nd ref="371682001"/>
    <nd ref="371682005"/>
    <nd ref="371682007"/>
    <nd ref="371682012"/>
    <nd ref="371682592"/>
    <nd ref="371682016"/>
    <nd ref="371682019"/>
    <nd ref="371682024"/>
    <nd ref="371682027"/>
    <nd ref="418805078"/>
    <nd ref="373384521"/>
    <tag k="highway" v="track"/>
    <tag k="surface" v="dirt"/>
  </way>
  <way id="33087519" version="4" timestamp="2010-01-14T20:59:11Z" uid="93244" user="aven" changeset="3620036">
    <nd ref="371681988"/>
    <nd ref="378017265"/>
    <nd ref="371690335"/>
    <nd ref="371681993"/>
    <nd ref="371681996"/>
    <nd ref="371682001"/>
    <nd ref="371682005"/>
    <nd ref="371682592"/>
    <nd ref="371682016"/>
    <nd ref="371682019"/>
    <nd ref="371682024"/>
    <nd ref="418805078"/>
    <nd ref="373384521"/>
    <tag k="highway" v="track"/>
    <tag k="surface" v="dirt"/>
  </way>
  <way id="33087519" version="5" timestamp="2010-09-20T08:04:32Z" uid="116873" user="DMT" changeset="5826818">
    <nd ref="371681988"/>
    <nd ref="378017265"/>
    <nd ref="371690335"/>
    <nd ref="371681993"/>
    <nd ref="371681996"/>
    <nd ref="371682001"/>
    <nd ref="371682005"/>
    <nd ref="371682592"/>
    <nd ref="371682016"/>
    <nd ref="371682019"/>
    <nd ref="371682024"/>
    <nd ref="418805078"/>
    <nd ref="373384521"/>
    <nd ref="919434287"/>
    <nd ref="919434289"/>
    <tag k="highway" v="track"/>
    <tag k="surface" v="dirt"/>
  </way>
  <way id="33087519" version="6" timestamp="2010-11-02T10:27:25Z" uid="45882" user="smarties" changeset="6266555">
    <nd ref="371681988"/>
    <nd ref="378017265"/>
    <nd ref="371690335"/>
    <nd ref="371681993"/>
    <nd ref="371681996"/>
    <nd ref="371682001"/>
    <nd ref="371682005"/>
    <nd ref="371682592"/>
    <nd ref="371682016"/>
    <nd ref="371682019"/>
    <nd ref="371682024"/>
    <nd ref="418805078"/>
    <tag k="highway" v="track"/>
    <tag k="surface" v="dirt"/>
  </way>
  <way id="33087550" version="1" timestamp="2009-04-12T17:38:49Z" uid="30632" user="antblant" changeset="444363">
    <nd ref="254067517"/>
    <nd ref="254067128"/>
    <nd ref="254067041"/>
    <tag k="created_by" v="Potlatch 0.10f"/>
    <tag k="highway" v="residential"/>
    <tag k="name" v="Mariana Langiewicza"/>
    <tag k="source" v="UMP-PL, ./UMP-Szczecin/src/SZCZECIN.ulice.txt"/>
  </way>
  <way id="33087550" version="2" timestamp="2009-11-03T01:43:25Z" uid="36809" user="pfoten_weg_!_" changeset="3021530">
    <nd ref="254067517"/>
    <nd ref="254067128"/>
    <nd ref="254067041"/>
    <tag k="highway" v="residential"/>
    <tag k="name" v="Mariana Langiewicza"/>
    <tag k="source" v="UMP-PL, ./UMP-Szczecin/src/SZCZECIN.ulice.txt"/>
  </way>
  <way id="33087561" version="2" timestamp="2009-04-16T22:41:06Z" uid="6975" user="ulfl" changeset="598814">
    <nd ref="373384808"/>
    <nd ref="373384811"/>
    <nd ref="373384814"/>
    <nd ref="373384816"/>
    <nd ref="373384808"/>
    <tag k="name" v="Delbar"/>
    <tag k="shop" v="garden_centre"/>
  </way>
  <way id="33087629" version="1" timestamp="2009-04-12T17:40:00Z" uid="12188" user="Babis" changeset="447991">
    <nd ref="270467030"/>
    <nd ref="270467031"/>
    <nd ref="270599678"/>
    <nd ref="270467032"/>
    <nd ref="270467033"/>
    <nd ref="270467034"/>
    <nd ref="270599497"/>
    <nd ref="270467035"/>
    <nd ref="270467036"/>
    <nd ref="270467037"/>
    <nd ref="270599165"/>
    <nd ref="270467038"/>
    <tag k="created_by" v="Potlatch 0.10f"/>
    <tag k="highway" v="residential"/>
  </way>
  <way id="33087629" version="2" timestamp="2009-04-12T17:40:10Z" uid="12188" user="Babis" changeset="447991">
    <nd ref="270467030"/>
    <nd ref="373385318"/>
    <nd ref="373385321"/>
    <nd ref="270599678"/>
    <nd ref="270467032"/>
    <nd ref="270467033"/>
    <nd ref="270467034"/>
    <nd ref="270599497"/>
    <nd ref="270467035"/>
    <nd ref="270467036"/>
    <nd ref="270467037"/>
    <nd ref="270599165"/>
    <nd ref="270467038"/>
    <tag k="created_by" v="Potlatch 0.10f"/>
    <tag k="highway" v="residential"/>
  </way>
  <way id="33087629" version="3" timestamp="2009-04-16T11:19:42Z" uid="12188" user="Babis" changeset="578233">
    <nd ref="270467030"/>
    <nd ref="373385318"/>
    <nd ref="373385321"/>
    <nd ref="270599678"/>
    <nd ref="270467032"/>
    <tag k="created_by" v="Potlatch 0.10f"/>
    <tag k="highway" v="residential"/>
  </way>
  <way id="33087629" version="4" timestamp="2009-04-16T11:19:58Z" uid="12188" user="Babis" changeset="578233"/>
  <way id="33087897" version="7" timestamp="2009-10-13T23:12:46Z" uid="36809" user="pfoten_weg_!_" changeset="2841207">
    <nd ref="373386440"/>
    <nd ref="373389076"/>
    <nd ref="373386680"/>
    <nd ref="373386687"/>
    <nd ref="373386799"/>
    <nd ref="373386691"/>
    <nd ref="373386694"/>
    <nd ref="373386698"/>
    <tag k="highway" v="residential"/>
    <tag k="name" v="Josef-Mair-Straße"/>
    <tag k="name:it" v="via Josef Mair"/>
  </way>
  <way id="33087897" version="8" timestamp="2011-05-07T13:35:11Z" uid="91825" user="abaumg" changeset="8073535">
    <nd ref="373386440"/>
    <nd ref="373389076"/>
    <nd ref="373386680"/>
    <nd ref="373386687"/>
    <nd ref="373386799"/>
    <nd ref="1275837352"/>
    <nd ref="373386691"/>
    <nd ref="373386694"/>
    <nd ref="373386698"/>
    <tag k="highway" v="residential"/>
    <tag k="name" v="Josef-Mair-Straße"/>
    <tag k="name:it" v="via Josef Mair"/>
  </way>
  <way id="33087899" version="1" timestamp="2009-04-12T17:43:32Z" uid="12188" user="Babis" changeset="447991">
    <nd ref="373385343"/>
    <nd ref="373386679"/>
    <nd ref="373386683"/>
    <nd ref="373386686"/>
    <nd ref="373386690"/>
    <nd ref="373386693"/>
    <nd ref="373386696"/>
    <nd ref="373386700"/>
    <nd ref="373386702"/>
    <nd ref="373386704"/>
    <nd ref="373386707"/>
    <nd ref="373386709"/>
    <nd ref="373386711"/>
    <nd ref="373386712"/>
    <nd ref="373386713"/>
    <nd ref="373386714"/>
    <nd ref="373386717"/>
    <nd ref="373386719"/>
    <nd ref="270597107"/>
    <tag k="created_by" v="Potlatch 0.10f"/>
  </way>
  <way id="33087899" version="2" timestamp="2009-04-12T17:44:00Z" uid="12188" user="Babis" changeset="447991">
    <nd ref="373385343"/>
    <nd ref="373386679"/>
    <nd ref="373386683"/>
    <nd ref="373386686"/>
    <nd ref="373386690"/>
    <nd ref="373386693"/>
    <nd ref="373386696"/>
    <nd ref="373386700"/>
    <nd ref="373386702"/>
    <nd ref="373386704"/>
    <nd ref="373386707"/>
    <nd ref="373386709"/>
    <nd ref="373386711"/>
    <nd ref="373386712"/>
    <nd ref="373386713"/>
    <nd ref="373386714"/>
    <nd ref="373386717"/>
    <nd ref="373386719"/>
    <nd ref="270597107"/>
    <tag k="admin_level" v="8"/>
    <tag k="boundary" v="administrative"/>
    <tag k="created_by" v="Potlatch 0.10f"/>
  </way>
  <way id="33087915" version="4" timestamp="2009-10-13T23:13:04Z" uid="36809" user="pfoten_weg_!_" changeset="2841207">
    <nd ref="373386796"/>
    <nd ref="373386797"/>
    <nd ref="373386799"/>
    <tag k="highway" v="residential"/>
    <tag k="name" v="Oswald-von-Wolkenstein-Straße"/>
    <tag k="surface" v="unpaved"/>
  </way>
  <way id="33087926" version="1" timestamp="2009-04-12T17:43:48Z" uid="107956" user="gps-ant" changeset="459805">
    <nd ref="330673359"/>
    <nd ref="373386866"/>
    <nd ref="373386868"/>
    <nd ref="373386871"/>
    <nd ref="373386876"/>
    <nd ref="373386878"/>
    <nd ref="373386882"/>
    <nd ref="373386884"/>
    <nd ref="373386888"/>
    <nd ref="373386892"/>
    <nd ref="373386895"/>
    <nd ref="373386899"/>
    <nd ref="373386902"/>
    <nd ref="373386906"/>
    <nd ref="373386909"/>
    <tag k="created_by" v="Potlatch 0.10f"/>
  </way>
  <way id="33087926" version="2" timestamp="2009-04-12T17:44:19Z" uid="107956" user="gps-ant" changeset="459805">
    <nd ref="330673359"/>
    <nd ref="373386866"/>
    <nd ref="373386868"/>
    <nd ref="373386871"/>
    <nd ref="373386876"/>
    <nd ref="373386878"/>
    <nd ref="373386882"/>
    <nd ref="373386884"/>
    <nd ref="373386888"/>
    <nd ref="373386892"/>
    <nd ref="373386895"/>
    <nd ref="373386899"/>
    <nd ref="373386902"/>
    <nd ref="373386906"/>
    <nd ref="373386909"/>
    <tag k="created_by" v="Potlatch 0.10f"/>
  </way>
  <way id="33087926" version="3" timestamp="2009-04-12T17:45:29Z" uid="107956" user="gps-ant" changeset="459805">
    <nd ref="330673359"/>
    <nd ref="373386866"/>
    <nd ref="373386868"/>
    <nd ref="373386871"/>
    <nd ref="373386876"/>
    <nd ref="373386878"/>
    <nd ref="373386882"/>
    <nd ref="373386884"/>
    <nd ref="373386888"/>
    <nd ref="373386892"/>
    <nd ref="373387703"/>
    <nd ref="373386895"/>
    <nd ref="373386899"/>
    <nd ref="373386902"/>
    <nd ref="373386906"/>
    <nd ref="373386909"/>
    <tag k="created_by" v="Potlatch 0.10f"/>
  </way>
  <way id="33087926" version="4" timestamp="2009-04-12T17:45:37Z" uid="107956" user="gps-ant" changeset="459805">
    <nd ref="330673359"/>
    <nd ref="373386866"/>
    <nd ref="373386868"/>
    <nd ref="373386871"/>
    <nd ref="373386876"/>
    <nd ref="373386878"/>
    <nd ref="373386882"/>
    <nd ref="373386884"/>
    <nd ref="373386888"/>
    <nd ref="373386892"/>
    <nd ref="373387703"/>
    <nd ref="373386895"/>
    <nd ref="373386899"/>
    <nd ref="373386902"/>
    <nd ref="373386906"/>
    <nd ref="373386909"/>
    <tag k="created_by" v="Potlatch 0.10f"/>
  </way>
  <way id="33087926" version="5" timestamp="2009-04-12T17:46:08Z" uid="107956" user="gps-ant" changeset="459805">
    <nd ref="330673359"/>
    <nd ref="373386866"/>
    <nd ref="373386868"/>
    <nd ref="373386871"/>
    <nd ref="373386876"/>
    <nd ref="373386878"/>
    <nd ref="373386882"/>
    <nd ref="373386884"/>
    <nd ref="373386888"/>
    <nd ref="373386892"/>
    <nd ref="373387703"/>
    <nd ref="373386895"/>
    <nd ref="373386899"/>
    <nd ref="373386902"/>
    <nd ref="373386906"/>
    <nd ref="373386909"/>
    <tag k="created_by" v="Potlatch 0.10f"/>
  </way>
  <way id="33087926" version="6" timestamp="2009-04-12T17:53:14Z" uid="107956" user="gps-ant" changeset="459805">
    <nd ref="330673359"/>
    <nd ref="373386866"/>
    <nd ref="373386868"/>
    <nd ref="373386871"/>
    <nd ref="373386876"/>
    <nd ref="373386878"/>
    <nd ref="373386882"/>
    <nd ref="373386884"/>
    <nd ref="373386888"/>
    <nd ref="373386892"/>
    <nd ref="373387703"/>
    <tag k="created_by" v="Potlatch 0.10f"/>
  </way>
  <way id="33087926" version="7" timestamp="2009-04-12T18:24:28Z" uid="107956" user="gps-ant" changeset="459805">
    <nd ref="330673359"/>
    <nd ref="373386866"/>
    <nd ref="373386868"/>
    <nd ref="373386871"/>
    <nd ref="373386876"/>
    <nd ref="373386878"/>
    <nd ref="373386882"/>
    <nd ref="373386884"/>
    <nd ref="373386888"/>
    <nd ref="373386892"/>
    <nd ref="373387703"/>
    <tag k="created_by" v="Potlatch 0.10f"/>
  </way>
  <way id="33087926" version="8" timestamp="2009-04-12T18:30:35Z" uid="107956" user="gps-ant" changeset="459805">
    <nd ref="330673359"/>
    <nd ref="373386866"/>
    <nd ref="373386868"/>
    <nd ref="373386871"/>
    <nd ref="373386876"/>
    <nd ref="373386878"/>
    <nd ref="373386882"/>
    <nd ref="373386884"/>
    <nd ref="373386888"/>
    <nd ref="373386892"/>
    <nd ref="373387703"/>
    <tag k="created_by" v="Potlatch 0.10f"/>
    <tag k="highway" v="secondary"/>
    <tag k="name" v="Pesti Ãºt"/>
  </way>
  <way id="33087926" version="9" timestamp="2009-04-12T18:48:51Z" uid="107956" user="gps-ant" changeset="459805">
    <nd ref="330673359"/>
    <nd ref="373386866"/>
    <nd ref="373386868"/>
    <nd ref="373386871"/>
    <nd ref="373386876"/>
    <nd ref="373386878"/>
    <nd ref="373386882"/>
    <nd ref="373386884"/>
    <nd ref="373386888"/>
    <nd ref="373386892"/>
    <nd ref="373387703"/>
    <tag k="created_by" v="Potlatch 0.10f"/>
    <tag k="highway" v="tertiary"/>
    <tag k="name" v="Pesti Ãºt"/>
  </way>
  <way id="33087926" version="10" timestamp="2009-04-12T18:51:53Z" uid="107956" user="gps-ant" changeset="459805">
    <nd ref="330673359"/>
    <nd ref="373386866"/>
    <nd ref="373386868"/>
    <nd ref="373386871"/>
    <nd ref="373386876"/>
    <nd ref="373386878"/>
    <nd ref="373386882"/>
    <nd ref="373386884"/>
    <nd ref="373386888"/>
    <nd ref="373386892"/>
    <tag k="created_by" v="Potlatch 0.10f"/>
    <tag k="highway" v="tertiary"/>
    <tag k="name" v="Pesti Ãºt"/>
  </way>
  <way id="33087926" version="11" timestamp="2009-04-12T18:52:29Z" uid="107956" user="gps-ant" changeset="459805">
    <nd ref="330673359"/>
    <nd ref="373386866"/>
    <nd ref="373386868"/>
    <nd ref="373386871"/>
    <nd ref="373386876"/>
    <nd ref="373386878"/>
    <nd ref="373386882"/>
    <nd ref="373386884"/>
    <nd ref="373386888"/>
    <nd ref="373386892"/>
    <nd ref="373418325"/>
    <tag k="created_by" v="Potlatch 0.10f"/>
    <tag k="highway" v="tertiary"/>
    <tag k="name" v="Pesti Ãºt"/>
  </way>
  <way id="33087926" version="12" timestamp="2009-04-12T19:05:27Z" uid="107956" user="gps-ant" changeset="459805">
    <nd ref="330673359"/>
    <nd ref="373386866"/>
    <nd ref="373386868"/>
    <nd ref="373386871"/>
    <nd ref="373386876"/>
    <nd ref="373386878"/>
    <nd ref="373386882"/>
    <nd ref="373386884"/>
    <nd ref="373386888"/>
    <nd ref="373386892"/>
    <nd ref="373418325"/>
    <tag k="created_by" v="Potlatch 0.10f"/>
    <tag k="highway" v="residential"/>
    <tag k="name" v="Pesti Ãºt"/>
  </way>
  <way id="33087926" version="13" timestamp="2009-04-12T20:31:14Z" uid="107956" user="gps-ant" changeset="459805">
    <nd ref="330673359"/>
    <nd ref="373386866"/>
    <nd ref="373386868"/>
    <nd ref="373386871"/>
    <nd ref="373386876"/>
    <nd ref="373386878"/>
    <nd ref="373386882"/>
    <nd ref="373386884"/>
    <nd ref="373386888"/>
    <nd ref="373386892"/>
    <nd ref="373418325"/>
    <tag k="created_by" v="Potlatch 0.10f"/>
    <tag k="highway" v="residential"/>
    <tag k="name" v="Pesti ut"/>
  </way>
  <way id="33087926" version="14" timestamp="2009-07-21T13:16:36Z" uid="107956" user="gps-ant" changeset="1895100">
    <nd ref="330673359"/>
    <nd ref="373386866"/>
    <nd ref="373386868"/>
    <nd ref="373386871"/>
    <nd ref="373386876"/>
    <nd ref="373386878"/>
    <nd ref="373386882"/>
    <nd ref="373386884"/>
    <nd ref="373386888"/>
    <nd ref="373386892"/>
    <nd ref="373418325"/>
    <tag k="created_by" v="Potlatch 0.10f"/>
    <tag k="highway" v="residential"/>
    <tag k="name" v="Pesti út"/>
  </way>
  <way id="33087926" version="15" timestamp="2009-08-14T14:52:45Z" uid="36129" user="City-busz" changeset="2143918"/>
</osm>
