<?xml version='1.0' encoding='UTF-8'?>
<osm version="0.6" generator="libosmium/2.20.0">
  <way id="33153058" version="1" timestamp="2009-04-14T00:42:02Z" uid="20587" user="balrog-kun" changeset="511475">
    <nd ref="374750361"/>
    <nd ref="374750373"/>
    <nd ref="374750385"/>
    <nd ref="374750395"/>
    <nd ref="374750361"/>
    <tag k="landuse" v="reservoir"/>
  </way>
  <way id="33153059" version="1" timestamp="2009-04-14T00:42:03Z" uid="20587" user="balrog-kun" changeset="511475">
    <nd ref="374750474"/>
    <nd ref="374750483"/>
    <tag k="highway" v="residential"/>
    <tag k="surface" v="unpaved"/>
  </way>
  <way id="33153062" version="1" timestamp="2009-04-14T00:42:05Z" uid="20587" user="balrog-kun" changeset="511475">
    <nd ref="374750510"/>
    <nd ref="374750525"/>
    <tag k="highway" v="living_street"/>
  </way>
  <way id="33153063" version="1" timestamp="2009-04-14T00:42:06Z" uid="20587" user="balrog-kun" changeset="511475">
    <nd ref="374750539"/>
    <nd ref="374750549"/>
    <tag k="highway" v="residential"/>
    <tag k="name" v="Łasicy"/>
    <tag k="surface" v="unpaved"/>
  </way>
  <way id="33153063" version="2" timestamp="2009-10-20T22:46:18Z" uid="20587" user="balrog-kun" changeset="2908055">
    <nd ref="374750539"/>
    <nd ref="374750549"/>
    <tag k="highway" v="residential"/>
    <tag k="name" v="Łasicy"/>
    <tag k="noexit" v="yes"/>
    <tag k="surface" v="unpaved"/>
  </way>
  <way id="33153064" version="1" timestamp="2009-04-14T00:42:06Z" uid="20587" user="balrog-kun" changeset="511475">
    <nd ref="374750563"/>
    <nd ref="374750573"/>
    <nd ref="374750587"/>
    <tag k="highway" v="residential"/>
    <tag k="name" v="Niezabudki"/>
    <tag k="note" v="TODO"/>
    <tag k="surface" v="unpaved"/>
  </way>
  <way id="33153064" version="2" timestamp="2009-10-20T22:45:41Z" uid="20587" user="balrog-kun" changeset="2908055">
    <nd ref="374750563"/>
    <nd ref="374750573"/>
    <nd ref="374750587"/>
    <tag k="highway" v="residential"/>
    <tag k="name" v="Niezabudki"/>
    <tag k="noexit" v="yes"/>
    <tag k="note" v="TODO"/>
    <tag k="surface" v="unpaved"/>
  </way>
  <way id="33153065" version="1" timestamp="2009-04-14T00:42:07Z" uid="20587" user="balrog-kun" changeset="511475">
    <nd ref="374750600"/>
    <nd ref="374750617"/>
    <nd ref="374750628"/>
    <tag k="highway" v="residential"/>
    <tag k="name" v="Lisia"/>
    <tag k="surface" v="unpaved"/>
  </way>
  <way id="33153066" version="1" timestamp="2009-04-14T00:42:08Z" uid="20587" user="balrog-kun" changeset="511475">
    <nd ref="374750628"/>
    <nd ref="374750650"/>
    <tag k="highway" v="residential"/>
    <tag k="name" v="Konwaliowa"/>
    <tag k="surface" v="unpaved"/>
  </way>
  <way id="33153066" version="2" timestamp="2009-10-20T22:46:09Z" uid="20587" user="balrog-kun" changeset="2908055">
    <nd ref="374750628"/>
    <nd ref="374750650"/>
    <tag k="highway" v="residential"/>
    <tag k="name" v="Konwaliowa"/>
    <tag k="noexit" v="yes"/>
    <tag k="surface" v="unpaved"/>
  </way>
  <way id="33153069" version="1" timestamp="2009-04-14T00:42:08Z" uid="20587" user="balrog-kun" changeset="511475">
    <nd ref="374750664"/>
    <nd ref="374750677"/>
    <tag k="highway" v="living_street"/>
    <tag k="name" v="Kuny"/>
  </way>
  <way id="33153069" version="2" timestamp="2011-02-15T23:34:45Z" uid="277387" user="rogal" changeset="7300223">
    <nd ref="374750664"/>
    <nd ref="374750677"/>
    <tag k="highway" v="residential"/>
    <tag k="name" v="Kuny"/>
  </way>
  <way id="33153071" version="1" timestamp="2009-04-14T00:42:08Z" uid="20587" user="balrog-kun" changeset="511475">
    <nd ref="374750689"/>
    <nd ref="374750704"/>
    <tag k="highway" v="living_street"/>
    <tag k="name" v="Jeża"/>
  </way>
  <way id="33153071" version="2" timestamp="2011-02-15T23:34:55Z" uid="277387" user="rogal" changeset="7300223">
    <nd ref="374750689"/>
    <nd ref="374750704"/>
    <tag k="highway" v="residential"/>
    <tag k="name" v="Jeża"/>
  </way>
  <way id="33153072" version="1" timestamp="2009-04-14T00:42:09Z" uid="20587" user="balrog-kun" changeset="511475">
    <nd ref="374750724"/>
    <nd ref="374750750"/>
    <tag k="highway" v="residential"/>
    <tag k="name" v="Piżmaka"/>
  </way>
  <way id="33153073" version="1" timestamp="2009-04-14T00:42:10Z" uid="20587" user="balrog-kun" changeset="511475">
    <nd ref="374750768"/>
    <nd ref="297688813"/>
    <tag k="highway" v="track"/>
  </way>
  <way id="33153074" version="1" timestamp="2009-04-14T00:42:10Z" uid="20587" user="balrog-kun" changeset="511475">
    <nd ref="374750791"/>
    <nd ref="374750818"/>
    <nd ref="374750832"/>
    <nd ref="374750850"/>
    <nd ref="374750867"/>
    <nd ref="374750791"/>
    <tag k="leisure" v="nature_reserve"/>
    <tag k="name" v="Rezerwat Uroczysko Stephana"/>
    <tag k="note" v="TODO"/>
  </way>
  <way id="33153247" version="2" timestamp="2009-12-10T07:02:19Z" uid="4467" user="Rosscoe" changeset="3339435">
    <nd ref="374758936"/>
    <nd ref="374758948"/>
    <nd ref="374758960"/>
    <nd ref="374758968"/>
    <nd ref="374758973"/>
    <nd ref="374758981"/>
    <nd ref="374758994"/>
    <nd ref="374759005"/>
    <nd ref="584779482"/>
    <nd ref="584779485"/>
    <nd ref="584779490"/>
    <nd ref="374759016"/>
    <nd ref="584779501"/>
    <nd ref="584779503"/>
    <nd ref="374759028"/>
    <nd ref="584779521"/>
    <nd ref="374759040"/>
    <nd ref="584779530"/>
    <nd ref="584779523"/>
    <nd ref="584779548"/>
    <nd ref="584779550"/>
    <nd ref="374759050"/>
    <nd ref="584779560"/>
    <nd ref="584779558"/>
    <nd ref="584779553"/>
    <nd ref="374759063"/>
    <nd ref="374759075"/>
    <nd ref="584779516"/>
    <nd ref="584779519"/>
    <nd ref="374759088"/>
    <nd ref="374759101"/>
    <nd ref="584779513"/>
    <nd ref="584779507"/>
    <nd ref="584779423"/>
    <nd ref="374758936"/>
    <tag k="leisure" v="park"/>
    <tag k="name" v="Jack Roper Reserve"/>
  </way>
  <way id="33153392" version="2" timestamp="2009-08-03T12:56:37Z" uid="4467" user="Rosscoe" changeset="2025199">
    <nd ref="324240975"/>
    <nd ref="324240977"/>
    <tag k="highway" v="residential"/>
  </way>
  <way id="33153392" version="3" timestamp="2009-08-10T18:07:00Z" uid="83382" user="c-j-b" changeset="2100853">
    <nd ref="324240975"/>
    <nd ref="461084416"/>
    <nd ref="324240977"/>
    <tag k="highway" v="residential"/>
    <tag k="name" v="Simpson Avenue"/>
  </way>
  <way id="33153617" version="1" timestamp="2009-04-14T00:52:04Z" uid="104930" user="butlerm" changeset="539800">
    <nd ref="374780347"/>
    <nd ref="374780352"/>
    <nd ref="374780357"/>
    <nd ref="374780362"/>
    <nd ref="374780371"/>
    <nd ref="374780377"/>
    <nd ref="374780347"/>
    <tag k="building" v="yes"/>
    <tag k="construction" v="yes"/>
    <tag k="created_by" v="Potlatch 0.10f"/>
  </way>
  <way id="33153617" version="2" timestamp="2009-04-14T00:52:29Z" uid="104930" user="butlerm" changeset="539800">
    <nd ref="374780347"/>
    <nd ref="374780352"/>
    <nd ref="374780357"/>
    <nd ref="374780362"/>
    <nd ref="374780371"/>
    <nd ref="374780377"/>
    <nd ref="374780347"/>
    <tag k="building" v="yes"/>
    <tag k="construction" v="yes"/>
    <tag k="created_by" v="Potlatch 0.10f"/>
    <tag k="name" v="LDS Church Archives"/>
  </way>
  <way id="33153617" version="10" timestamp="2009-04-15T20:23:31Z" uid="6975" user="ulfl" changeset="559714">
    <nd ref="374780347"/>
    <nd ref="374780352"/>
    <nd ref="374780357"/>
    <nd ref="374780362"/>
    <nd ref="374780371"/>
    <nd ref="374780377"/>
    <nd ref="374780347"/>
    <tag k="building" v="yes"/>
    <tag k="denomination" v="LDS"/>
    <tag k="name" v="Church History Library"/>
    <tag k="note" v="scheduled to open May 2009"/>
  </way>
  <way id="33153617" version="11" timestamp="2009-08-26T22:14:19Z" uid="157189" user="wrk3" changeset="2272710">
    <nd ref="374780347"/>
    <nd ref="374780352"/>
    <nd ref="374780357"/>
    <nd ref="374780362"/>
    <nd ref="374780371"/>
    <nd ref="374780377"/>
    <nd ref="374780347"/>
    <tag k="building" v="yes"/>
    <tag k="denomination" v="LDS"/>
    <tag k="name" v="Church History Library"/>
    <tag k="note" v="Now open"/>
  </way>
  <way id="33153617" version="12" timestamp="2010-03-09T02:50:12Z" uid="1679" user="andrewpmk" changeset="4077899">
    <nd ref="374780347"/>
    <nd ref="374780352"/>
    <nd ref="374780357"/>
    <nd ref="374780362"/>
    <nd ref="374780371"/>
    <nd ref="374780377"/>
    <nd ref="374780347"/>
    <tag k="amenity" v="library"/>
    <tag k="building" v="yes"/>
    <tag k="denomination" v="LDS"/>
    <tag k="name" v="Church History Library"/>
    <tag k="note" v="Now open"/>
    <tag k="operator" v="The Church of Jesus Christ of Latter-day Saints"/>
  </way>
  <way id="33153617" version="13" timestamp="2010-12-20T22:02:40Z" uid="51045" user="Geogast" changeset="6720757">
    <nd ref="374780347"/>
    <nd ref="374780352"/>
    <nd ref="374780357"/>
    <nd ref="374780362"/>
    <nd ref="374780371"/>
    <nd ref="374780377"/>
    <nd ref="374780347"/>
    <tag k="amenity" v="library"/>
    <tag k="building" v="yes"/>
    <tag k="denomination" v="mormon"/>
    <tag k="name" v="Church History Library"/>
    <tag k="note" v="Now open"/>
    <tag k="operator" v="The Church of Jesus Christ of Latter-day Saints"/>
    <tag k="religion" v="christian"/>
  </way>
  <way id="33153673" version="1" timestamp="2009-04-14T00:53:11Z" uid="20587" user="balrog-kun" changeset="511475">
    <nd ref="374783717"/>
    <nd ref="374783734"/>
    <nd ref="374783740"/>
    <tag k="highway" v="residential"/>
    <tag k="name" v="Zajęczy Trop"/>
    <tag k="surface" v="unpaved"/>
  </way>
  <way id="33153675" version="1" timestamp="2009-04-14T00:53:11Z" uid="20587" user="balrog-kun" changeset="511475">
    <nd ref="374783793"/>
    <nd ref="374783825"/>
    <tag k="highway" v="track"/>
  </way>
  <way id="33153675" version="2" timestamp="2009-04-14T01:24:06Z" uid="20587" user="balrog-kun" changeset="511475">
    <nd ref="374783793"/>
    <nd ref="374783825"/>
    <tag k="highway" v="track"/>
    <tag k="name" v="Władysława Jagiełły"/>
  </way>
  <way id="33153675" version="3" timestamp="2009-10-20T22:43:00Z" uid="20587" user="balrog-kun" changeset="2908055">
    <nd ref="374783793"/>
    <nd ref="537200903"/>
    <nd ref="374783825"/>
    <tag k="highway" v="track"/>
    <tag k="name" v="Władysława Jagiełły"/>
  </way>
  <way id="33153676" version="1" timestamp="2009-04-14T00:53:11Z" uid="20587" user="balrog-kun" changeset="511475">
    <nd ref="374783775"/>
    <nd ref="374783783"/>
    <nd ref="374783793"/>
    <nd ref="374783805"/>
    <nd ref="374783815"/>
    <tag k="highway" v="track"/>
  </way>
  <way id="33153676" version="2" timestamp="2009-10-20T22:42:59Z" uid="20587" user="balrog-kun" changeset="2908055">
    <nd ref="374783775"/>
    <nd ref="537200896"/>
    <nd ref="374783783"/>
    <nd ref="374783793"/>
    <nd ref="374783805"/>
    <nd ref="374783815"/>
    <tag k="highway" v="track"/>
  </way>
  <way id="33153676" version="3" timestamp="2009-11-02T13:09:33Z" uid="20587" user="balrog-kun" changeset="3016114">
    <nd ref="374783775"/>
    <nd ref="537200896"/>
    <nd ref="374783783"/>
    <nd ref="374783793"/>
    <tag k="highway" v="track"/>
  </way>
  <way id="33153677" version="1" timestamp="2009-04-14T00:53:11Z" uid="20587" user="balrog-kun" changeset="511475">
    <nd ref="374783856"/>
    <nd ref="339888969"/>
    <nd ref="339888972"/>
    <nd ref="374783864"/>
    <tag k="highway" v="track"/>
    <tag k="name" v="Dworkowa"/>
    <tag k="source" v="tourist_information"/>
  </way>
  <way id="33153677" version="2" timestamp="2011-10-16T17:08:38Z" uid="403964" user="bartekent" changeset="9574614">
    <nd ref="1469566241"/>
    <nd ref="339888969"/>
    <nd ref="339888972"/>
    <nd ref="1469566736"/>
    <tag k="highway" v="residential"/>
    <tag k="name" v="Dworkowa"/>
    <tag k="source" v="tourist_information"/>
  </way>
  <way id="33153678" version="1" timestamp="2009-04-14T00:53:11Z" uid="20587" user="balrog-kun" changeset="511475">
    <nd ref="374783835"/>
    <nd ref="374783864"/>
    <tag k="highway" v="residential"/>
    <tag k="name" v="Bukietowa"/>
    <tag k="source" v="tourist_information"/>
    <tag k="surface" v="unpaved"/>
  </way>
</osm>
