<?xml version='1.0' encoding='UTF-8'?>
<osm version="0.6" generator="libosmium/2.20.0">
  <way id="33238159" version="4" timestamp="2011-03-15T20:13:21Z" uid="33382" user="de_muur" changeset="7569879">
    <nd ref="377083385"/>
    <nd ref="323858838"/>
    <tag k="highway" v="tertiary"/>
    <tag k="name" v="Eitzendorfer Straße"/>
    <tag k="ref" v="K 142"/>
    <tag k="surface" v="paved"/>
  </way>
  <way id="33238159" version="5" timestamp="2011-12-25T12:08:11Z" uid="57645" user="KartoGrapHiti" changeset="10199122">
    <nd ref="377083385"/>
    <nd ref="323858838"/>
    <tag k="footway" v="no"/>
    <tag k="highway" v="tertiary"/>
    <tag k="name" v="Eitzendorfer Straße"/>
    <tag k="ref" v="K 142"/>
    <tag k="surface" v="paved"/>
  </way>
  <way id="33238167" version="4" timestamp="2011-03-16T18:49:55Z" uid="33382" user="de_muur" changeset="7578365">
    <nd ref="377083539"/>
    <nd ref="377083510"/>
    <tag k="hgv" v="destination"/>
    <tag k="highway" v="residential"/>
    <tag k="maxspeed" v="50"/>
    <tag k="name" v="Mühlenweg"/>
  </way>
  <way id="33238167" version="5" timestamp="2011-12-25T12:08:14Z" uid="57645" user="KartoGrapHiti" changeset="10199122">
    <nd ref="377083539"/>
    <nd ref="377083510"/>
    <tag k="footway" v="no"/>
    <tag k="hgv" v="destination"/>
    <tag k="highway" v="residential"/>
    <tag k="maxspeed" v="50"/>
    <tag k="name" v="Mühlenweg"/>
  </way>
  <way id="33238170" version="4" timestamp="2011-03-16T18:50:19Z" uid="33382" user="de_muur" changeset="7578365">
    <nd ref="377083510"/>
    <nd ref="33617604"/>
    <tag k="hgv" v="destination"/>
    <tag k="highway" v="residential"/>
    <tag k="maxspeed" v="30"/>
    <tag k="name" v="Mühlenweg"/>
  </way>
  <way id="33238170" version="5" timestamp="2011-12-25T12:08:14Z" uid="57645" user="KartoGrapHiti" changeset="10199122">
    <nd ref="377083510"/>
    <nd ref="33617604"/>
    <tag k="footway" v="no"/>
    <tag k="hgv" v="destination"/>
    <tag k="highway" v="residential"/>
    <tag k="maxspeed" v="30"/>
    <tag k="name" v="Mühlenweg"/>
  </way>
  <way id="33238177" version="4" timestamp="2010-04-10T20:21:12Z" uid="33382" user="de_muur" changeset="4386862">
    <nd ref="33601307"/>
    <nd ref="33601311"/>
    <nd ref="33601314"/>
    <nd ref="33601316"/>
    <nd ref="33601318"/>
    <nd ref="33601319"/>
    <nd ref="274794268"/>
    <nd ref="692021855"/>
    <tag k="highway" v="secondary"/>
    <tag k="maxspeed" v="50"/>
    <tag k="ref" v="L 202"/>
    <tag k="surface" v="paved"/>
  </way>
  <way id="33238177" version="5" timestamp="2011-02-02T15:56:49Z" uid="33382" user="de_muur" changeset="7165930">
    <nd ref="33601294"/>
    <nd ref="33601298"/>
    <nd ref="33601302"/>
    <nd ref="256128387"/>
    <nd ref="33601307"/>
    <nd ref="33601311"/>
    <nd ref="33601314"/>
    <nd ref="33601316"/>
    <nd ref="33601318"/>
    <nd ref="33601319"/>
    <nd ref="274794268"/>
    <tag k="highway" v="secondary"/>
    <tag k="maxspeed" v="50"/>
    <tag k="ref" v="L 202"/>
    <tag k="surface" v="paved"/>
  </way>
  <way id="33238182" version="3" timestamp="2011-03-16T18:50:47Z" uid="33382" user="de_muur" changeset="7578365">
    <nd ref="36738975"/>
    <nd ref="377083625"/>
    <nd ref="1063810671"/>
    <nd ref="1063810686"/>
    <nd ref="1063810714"/>
    <nd ref="1063810753"/>
    <nd ref="1063810649"/>
    <nd ref="1063810677"/>
    <nd ref="1063810643"/>
    <nd ref="1063810744"/>
    <tag k="FIXME" v="Weg geht weiter"/>
    <tag k="highway" v="unclassified"/>
    <tag k="name" v="In der Weide"/>
  </way>
  <way id="33238182" version="4" timestamp="2011-11-05T23:53:13Z" uid="76114" user="Letus" changeset="9751697">
    <nd ref="36738975"/>
    <nd ref="377083625"/>
    <nd ref="1063810671"/>
    <nd ref="1492894026"/>
    <nd ref="1063810686"/>
    <nd ref="1063810714"/>
    <nd ref="1063810753"/>
    <nd ref="1063810649"/>
    <nd ref="1063810677"/>
    <nd ref="1063810643"/>
    <nd ref="1063810744"/>
    <tag k="FIXME" v="Weg geht weiter"/>
    <tag k="highway" v="unclassified"/>
    <tag k="name" v="In der Weide"/>
  </way>
  <way id="33238186" version="5" timestamp="2011-03-16T18:50:27Z" uid="33382" user="de_muur" changeset="7578365">
    <nd ref="36738975"/>
    <nd ref="377086187"/>
    <nd ref="36738973"/>
    <nd ref="36738983"/>
    <nd ref="349258879"/>
    <nd ref="377086568"/>
    <tag k="highway" v="unclassified"/>
    <tag k="name" v="Hollener Weg"/>
  </way>
  <way id="33238193" version="4" timestamp="2010-04-06T19:44:29Z" uid="33382" user="de_muur" changeset="4348125">
    <nd ref="687010971"/>
    <nd ref="377084055"/>
    <nd ref="36732717"/>
    <nd ref="36732716"/>
    <nd ref="379266436"/>
    <nd ref="379266456"/>
    <nd ref="36732715"/>
    <tag k="highway" v="secondary"/>
    <tag k="maxspeed" v="50"/>
    <tag k="surface" v="paved"/>
  </way>
  <way id="33238193" version="5" timestamp="2010-04-24T09:40:58Z" uid="33382" user="de_muur" changeset="4510311">
    <nd ref="687010971"/>
    <nd ref="377084055"/>
    <nd ref="36732717"/>
    <nd ref="36732716"/>
    <nd ref="379266436"/>
    <nd ref="379266456"/>
    <nd ref="36732715"/>
    <tag k="highway" v="secondary"/>
    <tag k="maxspeed" v="50"/>
    <tag k="name" v="Bremer Straße"/>
    <tag k="surface" v="paved"/>
  </way>
  <way id="33238193" version="6" timestamp="2010-10-05T09:55:32Z" uid="45882" user="smarties" changeset="5959919">
    <nd ref="687010971"/>
    <nd ref="377084055"/>
    <nd ref="36732717"/>
    <nd ref="36732716"/>
    <nd ref="379266436"/>
    <nd ref="379266456"/>
    <nd ref="36732715"/>
    <tag k="highway" v="secondary"/>
    <tag k="maxspeed" v="50"/>
    <tag k="name" v="Bremer Straße"/>
    <tag k="ref" v="L 331"/>
    <tag k="surface" v="paved"/>
  </way>
  <way id="33238193" version="7" timestamp="2010-12-25T11:28:40Z" uid="57645" user="KartoGrapHiti" changeset="6760121">
    <nd ref="687010971"/>
    <nd ref="377084055"/>
    <nd ref="36732717"/>
    <nd ref="36732716"/>
    <nd ref="379266436"/>
    <nd ref="379266456"/>
    <nd ref="1063807167"/>
    <nd ref="36732715"/>
    <tag k="highway" v="secondary"/>
    <tag k="maxspeed" v="50"/>
    <tag k="name" v="Bremer Straße"/>
    <tag k="ref" v="L 331"/>
    <tag k="surface" v="paved"/>
  </way>
  <way id="33238235" version="3" timestamp="2011-03-15T20:13:25Z" uid="33382" user="de_muur" changeset="7569879">
    <nd ref="377086028"/>
    <nd ref="377086010"/>
    <tag k="bridge" v="yes"/>
    <tag k="highway" v="tertiary"/>
    <tag k="name" v="Eitzendorfer Straße"/>
    <tag k="ref" v="K 142"/>
    <tag k="surface" v="paved"/>
  </way>
  <way id="33238235" version="4" timestamp="2011-12-25T11:47:43Z" uid="57645" user="KartoGrapHiti" changeset="10198988">
    <nd ref="377086028"/>
    <nd ref="377086010"/>
    <tag k="bridge" v="yes"/>
    <tag k="highway" v="tertiary"/>
    <tag k="maxspeed" v="100"/>
    <tag k="name" v="Eitzendorfer Straße"/>
    <tag k="ref" v="K 142"/>
    <tag k="surface" v="paved"/>
  </way>
  <way id="33238235" version="5" timestamp="2011-12-25T12:08:11Z" uid="57645" user="KartoGrapHiti" changeset="10199122">
    <nd ref="377086028"/>
    <nd ref="377086010"/>
    <tag k="bridge" v="yes"/>
    <tag k="footway" v="no"/>
    <tag k="highway" v="tertiary"/>
    <tag k="maxspeed" v="100"/>
    <tag k="name" v="Eitzendorfer Straße"/>
    <tag k="ref" v="K 142"/>
    <tag k="surface" v="paved"/>
  </way>
  <way id="33238237" version="4" timestamp="2011-03-15T20:13:18Z" uid="33382" user="de_muur" changeset="7569879">
    <nd ref="377086010"/>
    <nd ref="256128270"/>
    <nd ref="377083406"/>
    <tag k="highway" v="tertiary"/>
    <tag k="name" v="Eitzendorfer Straße"/>
    <tag k="ref" v="K 142"/>
    <tag k="surface" v="paved"/>
  </way>
  <way id="33238237" version="5" timestamp="2011-12-25T11:47:44Z" uid="57645" user="KartoGrapHiti" changeset="10198988">
    <nd ref="377086010"/>
    <nd ref="256128270"/>
    <nd ref="377083406"/>
    <tag k="highway" v="tertiary"/>
    <tag k="maxspeed" v="100"/>
    <tag k="name" v="Eitzendorfer Straße"/>
    <tag k="ref" v="K 142"/>
    <tag k="surface" v="paved"/>
  </way>
  <way id="33238237" version="6" timestamp="2011-12-25T12:08:11Z" uid="57645" user="KartoGrapHiti" changeset="10199122">
    <nd ref="377086010"/>
    <nd ref="256128270"/>
    <nd ref="377083406"/>
    <tag k="footway" v="no"/>
    <tag k="highway" v="tertiary"/>
    <tag k="maxspeed" v="100"/>
    <tag k="name" v="Eitzendorfer Straße"/>
    <tag k="ref" v="K 142"/>
    <tag k="surface" v="paved"/>
  </way>
  <way id="33238279" version="1" timestamp="2009-04-15T22:03:53Z" uid="30632" user="antblant" changeset="575745">
    <nd ref="27261138"/>
    <nd ref="27261140"/>
    <nd ref="27261141"/>
    <nd ref="27261142"/>
    <nd ref="27261143"/>
    <nd ref="27261101"/>
    <nd ref="27261144"/>
    <nd ref="24341463"/>
    <nd ref="27261145"/>
    <nd ref="27261146"/>
    <nd ref="27261149"/>
    <nd ref="27261150"/>
    <nd ref="27261151"/>
    <nd ref="27261147"/>
    <nd ref="27261152"/>
    <nd ref="27261153"/>
    <nd ref="24341460"/>
    <nd ref="27261154"/>
    <nd ref="27261097"/>
    <nd ref="27261098"/>
    <nd ref="27261155"/>
    <nd ref="27261156"/>
    <nd ref="27261096"/>
    <tag k="created_by" v="Potlatch 0.10f"/>
    <tag k="highway" v="primary"/>
    <tag k="ref" v="22"/>
  </way>
  <way id="33238279" version="2" timestamp="2010-09-11T20:54:46Z" uid="107566" user="Yabba" changeset="5753376">
    <nd ref="27261138"/>
    <nd ref="27261140"/>
    <nd ref="27261141"/>
    <nd ref="27261142"/>
    <nd ref="27261143"/>
    <nd ref="27261101"/>
    <nd ref="27261144"/>
    <nd ref="24341463"/>
    <nd ref="27261145"/>
    <nd ref="27261146"/>
    <nd ref="27261149"/>
    <nd ref="27261150"/>
    <nd ref="27261151"/>
    <nd ref="27261147"/>
    <nd ref="27261152"/>
    <nd ref="27261153"/>
    <nd ref="24341460"/>
    <nd ref="27261154"/>
    <nd ref="27261097"/>
    <nd ref="27261098"/>
    <nd ref="27261155"/>
    <nd ref="27261156"/>
    <nd ref="27261096"/>
    <tag k="highway" v="primary"/>
    <tag k="ref" v="22"/>
    <tag k="source" v="GPS"/>
  </way>
  <way id="33238279" version="3" timestamp="2010-09-11T22:26:52Z" uid="107566" user="Yabba" changeset="5754519">
    <nd ref="27261138"/>
    <nd ref="27261140"/>
    <nd ref="27261141"/>
    <nd ref="27261142"/>
    <nd ref="27261143"/>
    <nd ref="27261101"/>
    <nd ref="27261144"/>
    <nd ref="24341463"/>
    <nd ref="27261145"/>
    <nd ref="27261146"/>
    <nd ref="27261149"/>
    <nd ref="27261150"/>
    <nd ref="27261151"/>
    <nd ref="27261147"/>
    <nd ref="27261152"/>
    <nd ref="27261153"/>
    <nd ref="24341460"/>
    <nd ref="27261154"/>
    <nd ref="27261097"/>
    <nd ref="27261098"/>
    <nd ref="27261155"/>
    <nd ref="27261156"/>
    <nd ref="27261096"/>
    <tag k="highway" v="primary"/>
    <tag k="maxspeed" v="90"/>
    <tag k="ref" v="22"/>
    <tag k="source" v="GPS"/>
  </way>
  <way id="33238279" version="4" timestamp="2010-09-18T20:23:17Z" uid="107566" user="Yabba" changeset="5814815">
    <nd ref="27261138"/>
    <nd ref="27261140"/>
    <nd ref="27261141"/>
    <nd ref="27261142"/>
    <nd ref="27261143"/>
    <nd ref="27261101"/>
    <nd ref="27261144"/>
    <nd ref="24341463"/>
    <nd ref="917284401"/>
    <nd ref="917284403"/>
    <nd ref="917284406"/>
    <nd ref="917284409"/>
    <nd ref="27261145"/>
    <nd ref="27261146"/>
    <nd ref="27261149"/>
    <nd ref="27261150"/>
    <nd ref="27261151"/>
    <nd ref="27261147"/>
    <nd ref="27261152"/>
    <nd ref="27261153"/>
    <nd ref="24341460"/>
    <nd ref="27261154"/>
    <nd ref="27261097"/>
    <nd ref="27261098"/>
    <nd ref="27261155"/>
    <nd ref="27261156"/>
    <nd ref="27261096"/>
    <tag k="highway" v="primary"/>
    <tag k="maxspeed" v="90"/>
    <tag k="ref" v="22"/>
    <tag k="source" v="GPS"/>
  </way>
  <way id="33238279" version="5" timestamp="2011-03-10T20:26:34Z" uid="107566" user="Yabba" changeset="7517930">
    <nd ref="27261138"/>
    <nd ref="27261140"/>
    <nd ref="27261141"/>
    <nd ref="1195832199"/>
    <nd ref="27261142"/>
    <nd ref="27261143"/>
    <nd ref="27261101"/>
    <nd ref="27261144"/>
    <nd ref="24341463"/>
    <nd ref="917284401"/>
    <nd ref="917284403"/>
    <nd ref="917284406"/>
    <nd ref="917284409"/>
    <nd ref="27261145"/>
    <nd ref="27261146"/>
    <nd ref="27261149"/>
    <nd ref="27261150"/>
    <nd ref="27261151"/>
    <nd ref="27261147"/>
    <nd ref="27261152"/>
    <nd ref="27261153"/>
    <nd ref="24341460"/>
    <nd ref="27261154"/>
    <nd ref="27261097"/>
    <nd ref="27261098"/>
    <nd ref="27261155"/>
    <nd ref="27261156"/>
    <nd ref="27261096"/>
    <tag k="highway" v="primary"/>
    <tag k="maxspeed" v="90"/>
    <tag k="ref" v="22"/>
    <tag k="source" v="GPS"/>
  </way>
  <way id="33238279" version="6" timestamp="2011-03-10T20:28:51Z" uid="107566" user="Yabba" changeset="7517956">
    <nd ref="27261138"/>
    <nd ref="27261140"/>
    <nd ref="27261141"/>
    <nd ref="1195832199"/>
    <nd ref="27261142"/>
    <nd ref="27261143"/>
    <nd ref="27261101"/>
    <nd ref="27261144"/>
    <nd ref="24341463"/>
    <nd ref="917284401"/>
    <nd ref="917284403"/>
    <nd ref="917284406"/>
    <nd ref="917284409"/>
    <nd ref="27261145"/>
    <nd ref="27261146"/>
    <nd ref="27261149"/>
    <nd ref="1195835285"/>
    <nd ref="27261150"/>
    <nd ref="27261151"/>
    <nd ref="27261147"/>
    <nd ref="27261152"/>
    <nd ref="27261153"/>
    <nd ref="24341460"/>
    <nd ref="27261154"/>
    <nd ref="27261097"/>
    <nd ref="27261098"/>
    <nd ref="27261155"/>
    <nd ref="27261156"/>
    <nd ref="27261096"/>
    <tag k="highway" v="primary"/>
    <tag k="maxspeed" v="90"/>
    <tag k="ref" v="22"/>
    <tag k="source" v="GPS"/>
  </way>
  <way id="33238279" version="7" timestamp="2011-03-10T20:30:11Z" uid="107566" user="Yabba" changeset="7517965">
    <nd ref="27261138"/>
    <nd ref="27261140"/>
    <nd ref="27261141"/>
    <nd ref="1195832199"/>
    <nd ref="27261142"/>
    <nd ref="27261143"/>
    <nd ref="27261101"/>
    <nd ref="27261144"/>
    <nd ref="24341463"/>
    <nd ref="917284401"/>
    <nd ref="917284403"/>
    <nd ref="917284406"/>
    <nd ref="917284409"/>
    <nd ref="27261145"/>
    <nd ref="27261146"/>
    <nd ref="27261149"/>
    <nd ref="1195835285"/>
    <nd ref="27261150"/>
    <nd ref="27261151"/>
    <nd ref="27261147"/>
    <nd ref="27261152"/>
    <nd ref="27261153"/>
    <nd ref="24341460"/>
    <nd ref="27261154"/>
    <nd ref="1195836630"/>
    <nd ref="27261097"/>
    <nd ref="27261098"/>
    <nd ref="27261155"/>
    <nd ref="27261156"/>
    <nd ref="27261096"/>
    <tag k="highway" v="primary"/>
    <tag k="maxspeed" v="90"/>
    <tag k="ref" v="22"/>
    <tag k="source" v="GPS"/>
  </way>
  <way id="33238279" version="8" timestamp="2011-03-10T20:30:48Z" uid="107566" user="Yabba" changeset="7517971">
    <nd ref="27261138"/>
    <nd ref="27261140"/>
    <nd ref="27261141"/>
    <nd ref="1195832199"/>
    <nd ref="27261142"/>
    <nd ref="27261143"/>
    <nd ref="27261101"/>
    <nd ref="27261144"/>
    <nd ref="24341463"/>
    <nd ref="917284401"/>
    <nd ref="917284403"/>
    <nd ref="917284406"/>
    <nd ref="917284409"/>
    <nd ref="27261145"/>
    <nd ref="27261146"/>
    <nd ref="27261149"/>
    <nd ref="1195835285"/>
    <nd ref="27261150"/>
    <nd ref="27261151"/>
    <nd ref="27261147"/>
    <nd ref="27261152"/>
    <nd ref="27261153"/>
    <nd ref="24341460"/>
    <nd ref="27261154"/>
    <nd ref="1195836630"/>
    <nd ref="27261097"/>
    <nd ref="27261098"/>
    <nd ref="1195836926"/>
    <nd ref="27261155"/>
    <nd ref="27261156"/>
    <nd ref="27261096"/>
    <tag k="highway" v="primary"/>
    <tag k="maxspeed" v="90"/>
    <tag k="ref" v="22"/>
    <tag k="source" v="GPS"/>
  </way>
  <way id="33238279" version="9" timestamp="2011-06-09T13:55:03Z" uid="107566" user="Yabba" changeset="8388629">
    <nd ref="27261138"/>
    <nd ref="27261140"/>
    <nd ref="27261141"/>
    <nd ref="1195832199"/>
    <nd ref="27261142"/>
    <nd ref="27261143"/>
    <nd ref="27261101"/>
    <nd ref="27261144"/>
    <nd ref="24341463"/>
    <nd ref="917284401"/>
    <nd ref="917284403"/>
    <nd ref="917284406"/>
    <nd ref="917284409"/>
    <nd ref="27261145"/>
    <nd ref="27261146"/>
    <nd ref="27261149"/>
    <nd ref="1195835285"/>
    <nd ref="27261150"/>
    <nd ref="27261151"/>
    <nd ref="27261147"/>
    <nd ref="27261152"/>
    <nd ref="27261153"/>
    <nd ref="1317215312"/>
    <nd ref="24341460"/>
    <nd ref="27261154"/>
    <nd ref="1195836630"/>
    <nd ref="27261097"/>
    <nd ref="27261098"/>
    <nd ref="1195836926"/>
    <nd ref="27261155"/>
    <nd ref="27261156"/>
    <nd ref="27261096"/>
    <tag k="highway" v="primary"/>
    <tag k="maxspeed" v="90"/>
    <tag k="ref" v="22"/>
    <tag k="source" v="GPS"/>
  </way>
  <way id="33238279" version="10" timestamp="2011-09-14T11:29:36Z" uid="91056" user="Yarl" changeset="9298448">
    <nd ref="27261138"/>
    <nd ref="27261140"/>
    <nd ref="27261141"/>
    <nd ref="1195832199"/>
    <nd ref="27261142"/>
    <nd ref="27261143"/>
    <nd ref="27261101"/>
    <nd ref="27261144"/>
    <nd ref="24341463"/>
    <nd ref="917284401"/>
    <nd ref="917284403"/>
    <nd ref="917284406"/>
    <nd ref="917284409"/>
    <nd ref="27261145"/>
    <nd ref="27261146"/>
    <nd ref="27261149"/>
    <nd ref="1195835285"/>
    <nd ref="27261150"/>
    <nd ref="27261151"/>
    <nd ref="27261147"/>
    <nd ref="27261152"/>
    <nd ref="27261153"/>
    <nd ref="1317215312"/>
    <nd ref="24341460"/>
    <nd ref="27261154"/>
    <nd ref="1195836630"/>
    <nd ref="27261097"/>
    <nd ref="27261098"/>
    <nd ref="1195836926"/>
    <nd ref="27261156"/>
    <nd ref="27261096"/>
    <tag k="highway" v="primary"/>
    <tag k="maxspeed" v="90"/>
    <tag k="ref" v="22"/>
    <tag k="source" v="GPS"/>
  </way>
  <way id="33238279" version="11" timestamp="2012-03-29T13:02:29Z" uid="222568" user="Pfad-Finder" changeset="11138448"/>
  <way id="33238282" version="3" timestamp="2010-04-14T14:48:25Z" uid="33382" user="de_muur" changeset="4423123">
    <nd ref="377005250"/>
    <nd ref="377005221"/>
    <nd ref="377006117"/>
    <nd ref="377005153"/>
    <tag k="bicycle" v="designated"/>
    <tag k="foot" v="designated"/>
    <tag k="highway" v="path"/>
    <tag k="surface" v="asphalt"/>
  </way>
  <way id="33238669" version="1" timestamp="2009-04-15T22:08:25Z" uid="26515" user="Simon Ward" changeset="586372">
    <nd ref="377095673"/>
    <nd ref="377095660"/>
    <tag k="bridge" v="yes"/>
    <tag k="created_by" v="Potlatch 0.10f"/>
    <tag k="layer" v="1"/>
    <tag k="name" v="Rugby-Birmingham-Stafford Line"/>
    <tag k="railway" v="rail"/>
    <tag k="source" v="survey"/>
  </way>
  <way id="33238669" version="2" timestamp="2011-10-29T18:14:00Z" uid="458747" user="The Islander" changeset="9686985">
    <nd ref="377095673"/>
    <nd ref="377095660"/>
    <tag k="bridge" v="yes"/>
    <tag k="electrified" v="contact_line"/>
    <tag k="layer" v="1"/>
    <tag k="name" v="Rugby-Birmingham-Stafford Line"/>
    <tag k="railway" v="rail"/>
    <tag k="source" v="survey"/>
  </way>
  <way id="33238669" version="3" timestamp="2011-10-30T17:26:59Z" uid="42429" user="FK270673" changeset="9695955">
    <nd ref="377095673"/>
    <nd ref="377095660"/>
    <tag k="bridge" v="yes"/>
    <tag k="electrified" v="contact_line"/>
    <tag k="frequency" v="50"/>
    <tag k="gauge" v="1435"/>
    <tag k="layer" v="1"/>
    <tag k="name" v="Rugby-Birmingham-Stafford Line"/>
    <tag k="railway" v="rail"/>
    <tag k="source" v="survey"/>
    <tag k="voltage" v="25000"/>
  </way>
  <way id="33238669" version="4" timestamp="2012-01-31T13:13:24Z" uid="9065" user="brianboru" changeset="10549158"/>
  <way id="33238670" version="1" timestamp="2009-04-15T22:08:26Z" uid="26515" user="Simon Ward" changeset="586372">
    <nd ref="377095660"/>
    <nd ref="290235759"/>
    <nd ref="290235757"/>
    <nd ref="290235755"/>
    <nd ref="262868853"/>
    <tag k="created_by" v="Potlatch 0.10f"/>
    <tag k="name" v="Rugby-Birmingham-Stafford Line"/>
    <tag k="railway" v="rail"/>
    <tag k="source" v="npe"/>
  </way>
  <way id="33238670" version="2" timestamp="2011-02-14T17:47:41Z" uid="9065" user="brianboru" changeset="7287793">
    <nd ref="377095660"/>
    <nd ref="290235759"/>
    <nd ref="1153006103"/>
    <nd ref="290235757"/>
    <nd ref="1153006096"/>
    <nd ref="290235755"/>
    <nd ref="1153006102"/>
    <nd ref="262868853"/>
    <tag k="name" v="Rugby-Birmingham-Stafford Line"/>
    <tag k="railway" v="rail"/>
    <tag k="source" v="npe"/>
  </way>
  <way id="33238670" version="3" timestamp="2011-07-07T19:10:51Z" uid="460951" user="tompople" changeset="8660200">
    <nd ref="377095660"/>
    <nd ref="290235759"/>
    <nd ref="1352857325"/>
    <nd ref="1153006103"/>
    <nd ref="290235757"/>
    <nd ref="1352857301"/>
    <nd ref="1153006096"/>
    <nd ref="290235755"/>
    <nd ref="1153006102"/>
    <nd ref="262868853"/>
    <tag k="name" v="Rugby-Birmingham-Stafford Line"/>
    <tag k="railway" v="rail"/>
    <tag k="source" v="npe"/>
  </way>
  <way id="33238670" version="4" timestamp="2011-07-24T18:37:52Z" uid="460951" user="tompople" changeset="8819720">
    <nd ref="377095660"/>
    <nd ref="290235759"/>
    <nd ref="1352857325"/>
    <nd ref="1153006103"/>
    <nd ref="1372785181"/>
    <nd ref="1372784693"/>
    <nd ref="290235757"/>
    <nd ref="1352857301"/>
    <nd ref="1153006096"/>
    <nd ref="290235755"/>
    <nd ref="1153006102"/>
    <nd ref="262868853"/>
    <tag k="name" v="Rugby-Birmingham-Stafford Line"/>
    <tag k="railway" v="rail"/>
    <tag k="source" v="npe"/>
  </way>
  <way id="33238670" version="5" timestamp="2011-10-29T18:14:10Z" uid="458747" user="The Islander" changeset="9686985">
    <nd ref="377095660"/>
    <nd ref="290235759"/>
    <nd ref="1352857325"/>
    <nd ref="1153006103"/>
    <nd ref="1372785181"/>
    <nd ref="1372784693"/>
    <nd ref="290235757"/>
    <nd ref="1352857301"/>
    <nd ref="1153006096"/>
    <nd ref="290235755"/>
    <nd ref="1153006102"/>
    <nd ref="262868853"/>
    <tag k="electrified" v="contact_line"/>
    <tag k="name" v="Rugby-Birmingham-Stafford Line"/>
    <tag k="railway" v="rail"/>
    <tag k="source" v="npe"/>
  </way>
  <way id="33238670" version="6" timestamp="2011-10-30T17:26:49Z" uid="42429" user="FK270673" changeset="9695955">
    <nd ref="377095660"/>
    <nd ref="290235759"/>
    <nd ref="1352857325"/>
    <nd ref="1153006103"/>
    <nd ref="1372785181"/>
    <nd ref="1372784693"/>
    <nd ref="290235757"/>
    <nd ref="1352857301"/>
    <nd ref="1153006096"/>
    <nd ref="290235755"/>
    <nd ref="1153006102"/>
    <nd ref="262868853"/>
    <tag k="electrified" v="contact_line"/>
    <tag k="frequency" v="50"/>
    <tag k="gauge" v="1435"/>
    <tag k="name" v="Rugby-Birmingham-Stafford Line"/>
    <tag k="railway" v="rail"/>
    <tag k="source" v="npe"/>
    <tag k="voltage" v="25000"/>
  </way>
  <way id="33238670" version="7" timestamp="2011-12-09T16:04:12Z" uid="9065" user="brianboru" changeset="10074081">
    <nd ref="377095660"/>
    <nd ref="290235759"/>
    <nd ref="1352857325"/>
    <nd ref="1153006103"/>
    <nd ref="290235757"/>
    <nd ref="1352857301"/>
    <nd ref="1153006096"/>
    <nd ref="290235755"/>
    <nd ref="1153006102"/>
    <nd ref="262868853"/>
    <tag k="electrified" v="contact_line"/>
    <tag k="frequency" v="50"/>
    <tag k="gauge" v="1435"/>
    <tag k="name" v="Rugby-Birmingham-Stafford Line"/>
    <tag k="railway" v="rail"/>
    <tag k="source" v="npe"/>
    <tag k="voltage" v="25000"/>
  </way>
  <way id="33238670" version="8" timestamp="2012-01-31T13:13:24Z" uid="9065" user="brianboru" changeset="10549158"/>
  <way id="33238798" version="2" timestamp="2009-12-09T21:16:54Z" uid="200463" user="harmagedon" changeset="3336909">
    <nd ref="267780594"/>
    <nd ref="267780606"/>
    <nd ref="267780608"/>
    <tag k="highway" v="service"/>
  </way>
  <way id="33238798" version="3" timestamp="2010-05-02T23:05:10Z" uid="5735" user="ColinMarquardt" changeset="4591032">
    <nd ref="267780594"/>
    <nd ref="718040604"/>
    <nd ref="718040606"/>
    <nd ref="267780606"/>
    <nd ref="267780608"/>
    <tag k="highway" v="service"/>
  </way>
  <way id="33238798" version="4" timestamp="2011-06-14T18:15:50Z" uid="117958" user="geo-ranger" changeset="8440101">
    <nd ref="267780594"/>
    <nd ref="718040604"/>
    <nd ref="718040606"/>
    <nd ref="267780606"/>
    <nd ref="267780608"/>
    <tag k="highway" v="service"/>
    <tag k="service" v="parking_aisle"/>
  </way>
  <way id="33238801" version="2" timestamp="2009-12-09T21:16:52Z" uid="200463" user="harmagedon" changeset="3336909">
    <nd ref="251650279"/>
    <nd ref="251650282"/>
    <nd ref="251650284"/>
    <nd ref="251650292"/>
    <nd ref="251650294"/>
    <nd ref="251650298"/>
    <nd ref="251650303"/>
    <nd ref="251650305"/>
    <nd ref="251650308"/>
    <tag k="highway" v="footway"/>
    <tag k="name" v="Spitzsteinschlüchte"/>
  </way>
  <way id="33238801" version="3" timestamp="2010-05-02T22:53:30Z" uid="5735" user="ColinMarquardt" changeset="4591032">
    <nd ref="251650279"/>
    <nd ref="251650282"/>
    <nd ref="251650284"/>
    <nd ref="251650294"/>
    <tag k="highway" v="footway"/>
    <tag k="name" v="Spitzsteinschlüchte"/>
  </way>
  <way id="33238801" version="4" timestamp="2010-11-27T08:56:58Z" uid="91717" user="Elbindianer" changeset="6467769">
    <nd ref="251650279"/>
    <nd ref="251650282"/>
    <nd ref="251650284"/>
    <nd ref="251650294"/>
    <tag k="highway" v="footway"/>
    <tag k="name" v="Spitzsteinschlüchte"/>
    <tag k="note" v="Gibt es diesen Weg tatsächlich?"/>
  </way>
  <way id="33238801" version="5" timestamp="2011-05-07T15:24:35Z" uid="192740" user="ruhn" changeset="8074424">
    <nd ref="251650279"/>
    <nd ref="251650282"/>
    <nd ref="251650284"/>
    <nd ref="251650294"/>
    <tag k="highway" v="path"/>
    <tag k="name" v="Spitzsteinschlüchte"/>
    <tag k="note" v="Gibt es diesen Weg tatsächlich?"/>
  </way>
</osm>
