<?xml version='1.0' encoding='UTF-8'?>
<osm version="0.6" generator="libosmium/2.20.0">
  <way id="33373130" version="2" timestamp="2009-12-10T00:08:32Z" uid="200463" user="harmagedon" changeset="3338481">
    <nd ref="379679830"/>
    <nd ref="379679831"/>
    <tag k="bridge" v="yes"/>
    <tag k="highway" v="tertiary"/>
    <tag k="layer" v="1"/>
  </way>
  <way id="33373133" version="2" timestamp="2009-12-10T00:08:32Z" uid="200463" user="harmagedon" changeset="3338481">
    <nd ref="379679831"/>
    <nd ref="272508130"/>
    <nd ref="272508132"/>
    <tag k="highway" v="tertiary"/>
  </way>
  <way id="33373133" version="3" timestamp="2011-03-07T22:41:14Z" uid="249331" user="oSmNoAsE" changeset="7489796">
    <nd ref="379679831"/>
    <nd ref="1191802009"/>
    <nd ref="272508130"/>
    <nd ref="272508132"/>
    <tag k="highway" v="tertiary"/>
    <tag k="name" v="Neundorfer StraÃŸe"/>
    <tag k="ref" v="K 8615"/>
  </way>
  <way id="33373474" version="3" timestamp="2009-05-17T12:02:49Z" uid="70800" user="Cellpaq" changeset="1221251">
    <nd ref="32043284"/>
    <nd ref="379682292"/>
    <tag k="highway" v="residential"/>
    <tag k="maxspeed" v="30"/>
    <tag k="name" v="Hartpenninger Weg"/>
  </way>
  <way id="33373474" version="4" timestamp="2011-02-03T16:17:10Z" uid="42393" user="mawi42" changeset="7175247">
    <nd ref="32043284"/>
    <nd ref="1133941816"/>
    <nd ref="379682292"/>
    <tag k="highway" v="residential"/>
    <tag k="maxspeed" v="30"/>
    <tag k="name" v="Hartpenninger Weg"/>
  </way>
  <way id="33373616" version="3" timestamp="2011-01-03T01:22:43Z" uid="49111" user="Markus B" changeset="6845646">
    <nd ref="379684266"/>
    <nd ref="379684267"/>
    <nd ref="379684270"/>
    <nd ref="379684271"/>
    <nd ref="379684272"/>
    <nd ref="379684274"/>
    <nd ref="1080002025"/>
    <nd ref="379684275"/>
    <nd ref="379684276"/>
    <nd ref="1080002093"/>
    <nd ref="1080002021"/>
    <nd ref="379684278"/>
    <nd ref="1080001824"/>
    <nd ref="379684279"/>
    <nd ref="379684266"/>
    <tag k="amenity" v="school"/>
    <tag k="building" v="yes"/>
    <tag k="name" v="Schulhaus Hans-Asper"/>
  </way>
</osm>
