<?xml version='1.0' encoding='UTF-8'?>
<osm version="0.6" generator="libosmium/2.20.0">
  <way id="33464074" version="3" timestamp="2009-12-09T20:29:07Z" uid="200463" user="harmagedon" changeset="3336536">
    <nd ref="312271816"/>
    <nd ref="380832041"/>
    <tag k="highway" v="track"/>
    <tag k="tracktype" v="grade4"/>
  </way>
  <way id="33464439" version="1" timestamp="2009-04-22T17:33:53Z" uid="36809" user="pfoten_weg_!_" changeset="902924">
    <nd ref="380839773"/>
    <nd ref="380839771"/>
    <nd ref="380839778"/>
    <nd ref="380839774"/>
    <nd ref="380839783"/>
    <nd ref="299020799"/>
    <nd ref="380839767"/>
    <nd ref="380839764"/>
    <nd ref="380839772"/>
    <nd ref="380839770"/>
    <nd ref="380839780"/>
    <nd ref="380839776"/>
    <nd ref="380839784"/>
    <nd ref="380839781"/>
    <nd ref="380839752"/>
    <nd ref="380839751"/>
    <nd ref="380839756"/>
    <nd ref="380839755"/>
    <nd ref="380839759"/>
    <nd ref="380839758"/>
    <nd ref="380839762"/>
    <nd ref="380839761"/>
    <nd ref="380839765"/>
    <nd ref="380839768"/>
    <nd ref="380839773"/>
    <tag k="addr:city" v="München"/>
    <tag k="addr:country" v="DE"/>
    <tag k="addr:housenumber" v="27 b"/>
    <tag k="addr:postcode" v="81476"/>
    <tag k="addr:street" v="Stäblistraße"/>
    <tag k="amenity" v="public_building"/>
    <tag k="created_by" v="RambaZamba"/>
    <tag k="layer" v="1"/>
    <tag k="name" v="Stäblibad"/>
    <tag k="source" v="survey"/>
    <tag k="sport" v="swimming"/>
  </way>
  <way id="33464439" version="2" timestamp="2009-05-07T18:27:23Z" uid="106615" user="matafumar" changeset="1110186">
    <nd ref="380839773"/>
    <nd ref="380839771"/>
    <nd ref="380839778"/>
    <nd ref="380839774"/>
    <nd ref="380839783"/>
    <nd ref="299020799"/>
    <nd ref="380839767"/>
    <nd ref="380839764"/>
    <nd ref="380839772"/>
    <nd ref="380839770"/>
    <nd ref="380839780"/>
    <nd ref="380839776"/>
    <nd ref="380839784"/>
    <nd ref="380839781"/>
    <nd ref="380839752"/>
    <nd ref="380839751"/>
    <nd ref="380839756"/>
    <nd ref="380839755"/>
    <nd ref="380839759"/>
    <nd ref="380839758"/>
    <nd ref="380839762"/>
    <nd ref="380839761"/>
    <nd ref="380839765"/>
    <nd ref="380839768"/>
    <nd ref="380839773"/>
    <tag k="addr:city" v="München"/>
    <tag k="addr:country" v="DE"/>
    <tag k="addr:housenumber" v="27 b"/>
    <tag k="addr:postcode" v="81476"/>
    <tag k="addr:street" v="Stäblistraße"/>
    <tag k="amenity" v="public_building"/>
    <tag k="building" v="yes"/>
    <tag k="name" v="Stäblibad"/>
    <tag k="source" v="survey"/>
    <tag k="sport" v="swimming"/>
  </way>
  <way id="33464439" version="3" timestamp="2009-05-12T22:33:45Z" uid="36809" user="pfoten_weg_!_" changeset="1170315"/>
  <way id="33464453" version="1" timestamp="2009-04-22T17:34:19Z" uid="43967" user="railsnail" changeset="902774">
    <nd ref="380236942"/>
    <nd ref="380840305"/>
    <tag k="highway" v="pedestrian"/>
  </way>
</osm>
