<?xml version='1.0' encoding='UTF-8'?>
<osm version="0.6" generator="libosmium/2.20.0">
  <way id="33467174" version="2" timestamp="2009-10-02T19:50:40Z" uid="86259" user="hasse_osm_korinthenkacker" changeset="2716821">
    <nd ref="154783"/>
    <nd ref="70450104"/>
    <nd ref="70450073"/>
    <tag k="highway" v="service"/>
    <tag k="oneway" v="yes"/>
  </way>
  <way id="33467174" version="3" timestamp="2010-10-16T09:16:31Z" uid="55868" user="fralfral" changeset="6055874">
    <nd ref="154783"/>
    <nd ref="70450104"/>
    <nd ref="70450073"/>
    <tag k="highway" v="service"/>
    <tag k="oneway" v="yes"/>
    <tag k="service" v="parking_aisle"/>
  </way>
  <way id="33467174" version="4" timestamp="2011-07-16T16:08:45Z" uid="28378" user="PHerison" changeset="8740722">
    <nd ref="154783"/>
    <nd ref="70450104"/>
    <nd ref="1363597757"/>
    <nd ref="70450073"/>
    <tag k="highway" v="service"/>
    <tag k="oneway" v="yes"/>
    <tag k="service" v="parking_aisle"/>
  </way>
  <way id="33467174" version="5" timestamp="2011-07-16T20:10:48Z" uid="28378" user="PHerison" changeset="8742616">
    <nd ref="154783"/>
    <nd ref="70450104"/>
    <nd ref="1363597757"/>
    <nd ref="70450073"/>
    <tag k="highway" v="service"/>
    <tag k="oneway" v="yes"/>
  </way>
  <way id="33467395" version="1" timestamp="2009-04-22T17:53:30Z" uid="36809" user="pfoten_weg_!_" changeset="903277">
    <nd ref="286335204"/>
    <nd ref="286335206"/>
    <nd ref="279050643"/>
    <tag k="created_by" v="RambaZamba"/>
    <tag k="highway" v="secondary"/>
    <tag k="name" v="Neurieder Straße"/>
    <tag k="oneway" v="yes"/>
    <tag k="source" v="survey"/>
  </way>
  <way id="33467395" version="2" timestamp="2009-05-30T23:18:17Z" uid="36809" user="pfoten_weg_!_" changeset="1364369">
    <nd ref="286335204"/>
    <nd ref="286335206"/>
    <nd ref="279050643"/>
    <tag k="created_by" v="RambaZamba"/>
    <tag k="highway" v="secondary"/>
    <tag k="name" v="Neurieder Straße"/>
    <tag k="oneway" v="yes"/>
    <tag k="ref" v="St 2344"/>
    <tag k="source" v="survey"/>
  </way>
  <way id="33467395" version="3" timestamp="2009-06-09T09:53:47Z" uid="36809" user="pfoten_weg_!_" changeset="1466742">
    <nd ref="286335204"/>
    <nd ref="286335206"/>
    <nd ref="413289262"/>
    <tag k="created_by" v="RambaZamba"/>
    <tag k="highway" v="secondary"/>
    <tag k="name" v="Neurieder Straße"/>
    <tag k="oneway" v="yes"/>
    <tag k="ref" v="St 2344"/>
    <tag k="source" v="survey"/>
  </way>
  <way id="33467395" version="4" timestamp="2009-07-14T17:23:43Z" uid="36809" user="pfoten_weg_!_" changeset="1828881">
    <nd ref="286335204"/>
    <nd ref="286335206"/>
    <nd ref="413289262"/>
    <tag k="discovered_by" v="RambaZamba"/>
    <tag k="highway" v="secondary"/>
    <tag k="name" v="Neurieder Straße"/>
    <tag k="oneway" v="yes"/>
    <tag k="ref" v="St 2344"/>
    <tag k="source" v="survey"/>
  </way>
  <way id="33467395" version="5" timestamp="2009-08-28T20:08:33Z" uid="156995" user="HampelZamba" changeset="2294580">
    <nd ref="286335204"/>
    <nd ref="286335206"/>
    <nd ref="413289262"/>
    <tag k="highway" v="secondary"/>
    <tag k="name" v="Neurieder Straße"/>
    <tag k="oneway" v="yes"/>
    <tag k="ref" v="St 2344"/>
    <tag k="source" v="survey"/>
  </way>
  <way id="33467395" version="6" timestamp="2009-08-28T21:06:04Z" uid="36809" user="pfoten_weg_!_" changeset="2295155">
    <nd ref="286335204"/>
    <nd ref="286335206"/>
    <nd ref="413289262"/>
    <tag k="discovered_by" v="RambaZamba"/>
    <tag k="highway" v="secondary"/>
    <tag k="name" v="Neurieder Straße"/>
    <tag k="oneway" v="yes"/>
    <tag k="ref" v="St 2344"/>
    <tag k="source" v="survey"/>
  </way>
  <way id="33467395" version="7" timestamp="2009-08-30T09:33:42Z" uid="156995" user="HampelZamba" changeset="2310659">
    <nd ref="286335204"/>
    <nd ref="286335206"/>
    <nd ref="413289262"/>
    <tag k="highway" v="secondary"/>
    <tag k="name" v="Neurieder Straße"/>
    <tag k="oneway" v="yes"/>
    <tag k="ref" v="St 2344"/>
    <tag k="source" v="survey"/>
  </way>
  <way id="33467395" version="8" timestamp="2009-09-01T10:52:10Z" uid="36809" user="pfoten_weg_!_" changeset="2335754">
    <nd ref="286335204"/>
    <nd ref="286335206"/>
    <nd ref="413289262"/>
    <tag k="highway" v="secondary"/>
    <tag k="name" v="Neurieder Straße"/>
    <tag k="oneway" v="yes"/>
    <tag k="ref" v="St 2344"/>
    <tag k="source" v="survey"/>
  </way>
  <way id="33467395" version="9" timestamp="2009-10-02T18:00:17Z" uid="86259" user="hasse_osm_korinthenkacker" changeset="2715119">
    <nd ref="286335204"/>
    <nd ref="286335206"/>
    <nd ref="413289262"/>
    <tag k="highway" v="secondary"/>
    <tag k="name" v="Neurieder Straße"/>
    <tag k="oneway" v="yes"/>
    <tag k="ref" v="St 2344"/>
  </way>
  <way id="33467395" version="10" timestamp="2010-12-08T19:26:51Z" uid="80117" user="kartenleser" changeset="6588480">
    <nd ref="286335204"/>
    <nd ref="413289262"/>
    <tag k="highway" v="secondary"/>
    <tag k="name" v="Neurieder Straße"/>
    <tag k="oneway" v="yes"/>
    <tag k="ref" v="St 2344"/>
  </way>
  <way id="33467395" version="11" timestamp="2011-11-17T18:07:40Z" uid="554744" user="Catweazle2011" changeset="9856200">
    <nd ref="286335204"/>
    <nd ref="413289262"/>
    <tag k="highway" v="secondary"/>
    <tag k="maxspeed" v="50"/>
    <tag k="name" v="Neurieder Straße"/>
    <tag k="oneway" v="yes"/>
    <tag k="ref" v="St 2344"/>
  </way>
  <way id="33467395" version="12" timestamp="2011-12-14T20:41:03Z" uid="13832" user="Peter14" changeset="10119277">
    <nd ref="286335204"/>
    <nd ref="1546303930"/>
    <tag k="highway" v="secondary"/>
    <tag k="maxspeed" v="50"/>
    <tag k="name" v="Neurieder Straße"/>
    <tag k="oneway" v="yes"/>
    <tag k="ref" v="St 2344"/>
  </way>
  <way id="33467395" version="13" timestamp="2011-12-21T18:10:51Z" uid="13832" user="Peter14" changeset="10173962"/>
  <way id="33467396" version="1" timestamp="2009-04-22T17:53:31Z" uid="36809" user="pfoten_weg_!_" changeset="903277">
    <nd ref="376748"/>
    <nd ref="286335135"/>
    <nd ref="380874728"/>
    <nd ref="380874736"/>
    <nd ref="380874731"/>
    <nd ref="286335200"/>
    <tag k="created_by" v="RambaZamba"/>
    <tag k="highway" v="secondary"/>
    <tag k="layer" v="0"/>
    <tag k="name" v="3 AS"/>
    <tag k="oneway" v="yes"/>
    <tag k="osmarender:renderName" v="no"/>
    <tag k="ref" v="St 2344"/>
    <tag k="source" v="survey"/>
  </way>
  <way id="33467396" version="2" timestamp="2009-07-14T17:23:31Z" uid="36809" user="pfoten_weg_!_" changeset="1828881">
    <nd ref="376748"/>
    <nd ref="286335135"/>
    <nd ref="380874728"/>
    <nd ref="380874736"/>
    <nd ref="380874731"/>
    <nd ref="286335200"/>
    <tag k="discovered_by" v="RambaZamba"/>
    <tag k="highway" v="secondary"/>
    <tag k="layer" v="0"/>
    <tag k="name" v="3 AS"/>
    <tag k="oneway" v="yes"/>
    <tag k="osmarender:renderName" v="no"/>
    <tag k="ref" v="St 2344"/>
    <tag k="source" v="survey"/>
  </way>
  <way id="33467396" version="3" timestamp="2009-07-18T17:14:21Z" uid="9402" user="ludwich" changeset="1865720">
    <nd ref="376748"/>
    <nd ref="286335135"/>
    <nd ref="380874728"/>
    <nd ref="380874736"/>
    <nd ref="380874731"/>
    <nd ref="286335200"/>
    <tag k="discovered_by" v="RambaZamba"/>
    <tag k="highway" v="secondary"/>
    <tag k="layer" v="0"/>
    <tag k="oneway" v="yes"/>
    <tag k="osmarender:renderName" v="no"/>
    <tag k="ref" v="St 2344"/>
    <tag k="source" v="survey"/>
  </way>
  <way id="33467396" version="4" timestamp="2009-07-26T02:53:39Z" uid="36809" user="pfoten_weg_!_" changeset="1940167"/>
  <way id="33467490" version="3" timestamp="2009-09-30T13:48:46Z" uid="36809" user="pfoten_weg_!_" changeset="2688655">
    <nd ref="380876594"/>
    <nd ref="380876596"/>
    <nd ref="380876598"/>
    <nd ref="380876600"/>
    <nd ref="380876602"/>
    <nd ref="380876604"/>
    <nd ref="380876606"/>
    <nd ref="380876608"/>
    <nd ref="380876609"/>
    <nd ref="380876611"/>
    <nd ref="380871099"/>
    <nd ref="380880607"/>
    <nd ref="380880609"/>
    <nd ref="380880611"/>
    <nd ref="380880612"/>
    <nd ref="380880614"/>
    <nd ref="380880616"/>
    <nd ref="380880618"/>
    <nd ref="380880619"/>
    <nd ref="380880621"/>
    <nd ref="380880623"/>
    <nd ref="380880625"/>
    <tag k="highway" v="track"/>
    <tag k="tracktype" v="grade4"/>
  </way>
  <way id="33467490" version="4" timestamp="2009-12-21T09:40:25Z" uid="94149" user="markusri" changeset="3418705">
    <nd ref="380876594"/>
    <nd ref="380876596"/>
    <nd ref="380876598"/>
    <nd ref="380876600"/>
    <nd ref="380876602"/>
    <nd ref="380876604"/>
    <nd ref="380876606"/>
    <nd ref="380876608"/>
    <nd ref="380876609"/>
    <nd ref="380876611"/>
    <nd ref="380871099"/>
    <nd ref="380880607"/>
    <nd ref="380880609"/>
    <nd ref="380880611"/>
    <nd ref="380880612"/>
    <nd ref="380880614"/>
    <nd ref="380880616"/>
    <nd ref="380880618"/>
    <nd ref="380880619"/>
    <nd ref="380880621"/>
    <nd ref="380880623"/>
    <nd ref="380880625"/>
    <tag k="highway" v="track"/>
    <tag k="surface" v="unpaved"/>
    <tag k="tracktype" v="grade4"/>
  </way>
</osm>
