<?xml version='1.0' encoding='UTF-8'?>
<osm version="0.6" generator="libosmium/2.20.0">
  <way id="3356031" version="3" timestamp="2008-07-05T17:12:11Z" uid="6975" user="ulfl" changeset="398437">
    <nd ref="5274460"/>
    <nd ref="5274800"/>
    <nd ref="16557390"/>
    <nd ref="5274801"/>
    <tag k="bicycleRoute" v="NR5 RR7"/>
    <tag k="highway" v="residential"/>
    <tag k="lcn_ref" v="7"/>
    <tag k="name" v="Trinity Street"/>
    <tag k="ncn_ref" v="5"/>
    <tag k="route" v="ncn"/>
  </way>
  <way id="3356031" version="4" timestamp="2008-07-19T00:26:03Z" uid="27408" user="Andrew Chadwick" changeset="542101">
    <nd ref="5274458"/>
    <nd ref="5274800"/>
    <nd ref="16557390"/>
    <nd ref="5274801"/>
    <tag k="bicycleRoute" v="NR5 RR7"/>
    <tag k="highway" v="residential"/>
    <tag k="lcn_ref" v="7"/>
    <tag k="name" v="Trinity Street"/>
    <tag k="ncn_ref" v="5"/>
    <tag k="route" v="ncn"/>
  </way>
  <way id="3356031" version="5" timestamp="2008-10-14T10:27:50Z" uid="3984" user="Socks" changeset="321152">
    <nd ref="5274458"/>
    <nd ref="5274800"/>
    <nd ref="16557390"/>
    <nd ref="304528768"/>
    <nd ref="5274801"/>
    <tag k="bicycleRoute" v="NR5 RR7"/>
    <tag k="created_by" v="Potlatch 0.10e"/>
    <tag k="highway" v="residential"/>
    <tag k="lcn_ref" v="7"/>
    <tag k="name" v="Trinity Street"/>
    <tag k="ncn_ref" v="5"/>
    <tag k="route" v="ncn"/>
  </way>
  <way id="3356031" version="6" timestamp="2008-12-28T15:53:04Z" uid="27408" user="Andrew Chadwick" changeset="649373">
    <nd ref="5274458"/>
    <nd ref="16557390"/>
    <nd ref="304528768"/>
    <nd ref="322562127"/>
    <nd ref="5274801"/>
    <tag k="bicycleRoute" v="NR5 RR7"/>
    <tag k="created_by" v="osm2go v0.6-8"/>
    <tag k="highway" v="residential"/>
    <tag k="lcn_ref" v="7"/>
    <tag k="name" v="Trinity Street"/>
    <tag k="ncn_ref" v="5"/>
    <tag k="route" v="ncn"/>
  </way>
  <way id="3356031" version="7" timestamp="2009-01-17T21:48:08Z" uid="7037" user="Gregory Williams" changeset="800355">
    <nd ref="5274458"/>
    <nd ref="16557390"/>
    <nd ref="304528768"/>
    <nd ref="322562127"/>
    <nd ref="5274801"/>
    <tag k="highway" v="residential"/>
    <tag k="lcn_ref" v="7"/>
    <tag k="name" v="Trinity Street"/>
    <tag k="ncn_ref" v="5"/>
  </way>
  <way id="3356031" version="8" timestamp="2009-01-29T19:11:34Z" uid="74570" user="Richard Mann" changeset="851584">
    <nd ref="5274458"/>
    <nd ref="16557390"/>
    <nd ref="304528768"/>
    <nd ref="322562127"/>
    <nd ref="5274801"/>
    <tag k="created_by" v="Potlatch 0.10f"/>
    <tag k="highway" v="residential"/>
    <tag k="lcn" v="yes"/>
    <tag k="name" v="Trinity Street"/>
    <tag k="ncn_ref" v="5"/>
  </way>
  <way id="3356031" version="9" timestamp="2009-04-14T00:07:31Z" uid="27408" user="Andrew Chadwick" changeset="528010">
    <nd ref="5274458"/>
    <nd ref="16557390"/>
    <nd ref="304528768"/>
    <nd ref="322562127"/>
    <nd ref="374644387"/>
    <nd ref="5274801"/>
    <tag k="created_by" v="Potlatch 0.10f"/>
    <tag k="highway" v="residential"/>
    <tag k="lcn" v="yes"/>
    <tag k="name" v="Trinity Street"/>
    <tag k="ncn_ref" v="5"/>
  </way>
  <way id="3356031" version="10" timestamp="2009-07-06T11:25:04Z" uid="84263" user="Robert Whittaker" changeset="1752036">
    <nd ref="5274458"/>
    <nd ref="16557390"/>
    <nd ref="304528768"/>
    <nd ref="322562127"/>
    <nd ref="374644387"/>
    <nd ref="5274801"/>
    <tag k="created_by" v="Potlatch 0.10f"/>
    <tag k="highway" v="residential"/>
    <tag k="lcn" v="yes"/>
    <tag k="name" v="Trinity Street"/>
  </way>
  <way id="3356031" version="11" timestamp="2009-08-26T15:54:30Z" uid="27408" user="Andrew Chadwick" changeset="2268869">
    <nd ref="5274458"/>
    <nd ref="16557390"/>
    <nd ref="304528768"/>
    <nd ref="322562127"/>
    <nd ref="374644387"/>
    <nd ref="5274801"/>
    <tag k="highway" v="residential"/>
    <tag k="lcn" v="yes"/>
    <tag k="maxspeed" v="20 mph"/>
    <tag k="maxspeed:note" v="Oxford 20 mph zone"/>
    <tag k="name" v="Trinity Street"/>
  </way>
  <way id="3356031" version="12" timestamp="2011-02-02T11:13:59Z" uid="74570" user="Richard Mann" changeset="7163538">
    <nd ref="5274458"/>
    <nd ref="1132243668"/>
    <nd ref="16557390"/>
    <nd ref="304528768"/>
    <nd ref="322562127"/>
    <nd ref="374644387"/>
    <nd ref="5274801"/>
    <tag k="highway" v="residential"/>
    <tag k="lcn" v="yes"/>
    <tag k="maxspeed" v="20 mph"/>
    <tag k="maxspeed:note" v="Oxford 20 mph zone"/>
    <tag k="name" v="Trinity Street"/>
  </way>
  <way id="3356031" version="13" timestamp="2011-04-13T00:09:43Z" uid="27408" user="Andrew Chadwick" changeset="7847972">
    <nd ref="5274458"/>
    <nd ref="1132243668"/>
    <nd ref="16557390"/>
    <nd ref="304528768"/>
    <nd ref="322562127"/>
    <nd ref="374644387"/>
    <nd ref="1242671671"/>
    <nd ref="5274801"/>
    <tag k="highway" v="residential"/>
    <tag k="lcn" v="yes"/>
    <tag k="maxspeed" v="20 mph"/>
    <tag k="maxspeed:note" v="Oxford 20 mph zone"/>
    <tag k="name" v="Trinity Street"/>
  </way>
  <way id="3356031" version="14" timestamp="2011-05-12T10:24:23Z" uid="74570" user="Richard Mann" changeset="8120592"/>
  <way id="3356034" version="3" timestamp="2008-07-05T17:12:09Z" uid="6975" user="ulfl" changeset="398437">
    <nd ref="5274801"/>
    <nd ref="5274802"/>
    <nd ref="5274803"/>
    <nd ref="28923353"/>
    <tag k="bicycleRoute" v="NR5 RR7"/>
    <tag k="highway" v="residential"/>
    <tag k="lcn_ref" v="7"/>
    <tag k="name" v="Blackfriars Road"/>
    <tag k="ncn_ref" v="5"/>
    <tag k="route" v="ncn"/>
  </way>
  <way id="3356034" version="4" timestamp="2009-01-17T21:43:09Z" uid="7037" user="Gregory Williams" changeset="800355">
    <nd ref="5274801"/>
    <nd ref="5274802"/>
    <nd ref="5274803"/>
    <nd ref="28923353"/>
    <tag k="highway" v="residential"/>
    <tag k="lcn_ref" v="7"/>
    <tag k="name" v="Blackfriars Road"/>
    <tag k="ncn_ref" v="5"/>
    <tag k="route" v="ncn"/>
  </way>
  <way id="3356034" version="5" timestamp="2009-01-29T19:11:15Z" uid="74570" user="Richard Mann" changeset="851584">
    <nd ref="5274801"/>
    <nd ref="5274802"/>
    <nd ref="5274803"/>
    <nd ref="28923353"/>
    <tag k="created_by" v="Potlatch 0.10f"/>
    <tag k="highway" v="residential"/>
    <tag k="lcn" v="yes"/>
    <tag k="name" v="Blackfriars Road"/>
    <tag k="ncn_ref" v="5"/>
    <tag k="route" v="ncn"/>
  </way>
  <way id="3356034" version="6" timestamp="2009-04-14T00:07:43Z" uid="27408" user="Andrew Chadwick" changeset="528010">
    <nd ref="5274801"/>
    <nd ref="5274802"/>
    <nd ref="374644299"/>
    <nd ref="28923355"/>
    <nd ref="374644372"/>
    <nd ref="28923353"/>
    <tag k="created_by" v="Potlatch 0.10f"/>
    <tag k="highway" v="residential"/>
    <tag k="lcn" v="yes"/>
    <tag k="name" v="Blackfriars Road"/>
    <tag k="ncn_ref" v="5"/>
    <tag k="route" v="ncn"/>
  </way>
  <way id="3356034" version="7" timestamp="2009-04-23T21:17:35Z" uid="27408" user="Andrew Chadwick" changeset="919687">
    <nd ref="5274801"/>
    <nd ref="5274802"/>
    <nd ref="374644299"/>
    <nd ref="28923355"/>
    <tag k="created_by" v="Potlatch 0.10f"/>
    <tag k="highway" v="residential"/>
    <tag k="lcn" v="yes"/>
    <tag k="name" v="Blackfriars Road"/>
    <tag k="ncn_ref" v="5"/>
  </way>
  <way id="3356034" version="8" timestamp="2009-06-21T08:17:42Z" uid="74570" user="Richard Mann" changeset="1580286">
    <nd ref="5274801"/>
    <nd ref="5274802"/>
    <nd ref="374644299"/>
    <nd ref="28923355"/>
    <tag k="created_by" v="Potlatch 0.10f"/>
    <tag k="highway" v="residential"/>
    <tag k="name" v="Blackfriars Road"/>
    <tag k="ncn_ref" v="5"/>
  </way>
  <way id="3356034" version="9" timestamp="2009-07-06T11:25:02Z" uid="84263" user="Robert Whittaker" changeset="1752036">
    <nd ref="5274801"/>
    <nd ref="5274802"/>
    <nd ref="374644299"/>
    <nd ref="28923355"/>
    <tag k="created_by" v="Potlatch 0.10f"/>
    <tag k="highway" v="residential"/>
    <tag k="name" v="Blackfriars Road"/>
  </way>
  <way id="3356034" version="10" timestamp="2009-08-26T15:54:03Z" uid="27408" user="Andrew Chadwick" changeset="2268869">
    <nd ref="5274801"/>
    <nd ref="5274802"/>
    <nd ref="374644299"/>
    <nd ref="28923355"/>
    <tag k="highway" v="residential"/>
    <tag k="maxspeed" v="20 mph"/>
    <tag k="maxspeed:note" v="Oxford 20 mph zone"/>
    <tag k="name" v="Blackfriars Road"/>
  </way>
  <way id="3356034" version="11" timestamp="2011-04-13T00:09:41Z" uid="27408" user="Andrew Chadwick" changeset="7847972">
    <nd ref="5274801"/>
    <nd ref="1242671670"/>
    <nd ref="5274802"/>
    <nd ref="374644299"/>
    <nd ref="28923355"/>
    <tag k="highway" v="residential"/>
    <tag k="maxspeed" v="20 mph"/>
    <tag k="maxspeed:note" v="Oxford 20 mph zone"/>
    <tag k="name" v="Blackfriars Road"/>
  </way>
</osm>
