<?xml version='1.0' encoding='UTF-8'?>
<osm version="0.6" generator="libosmium/2.20.0">
  <way id="33574178" version="2" timestamp="2009-07-26T01:12:44Z" uid="4467" user="Rosscoe" changeset="1939873">
    <nd ref="380198558"/>
    <nd ref="372198921"/>
    <tag k="highway" v="residential"/>
    <tag k="lanes" v="1"/>
    <tag k="maxspeed" v="50"/>
    <tag k="name" v="Ida Street"/>
    <tag k="noname" v="&lt;different&gt;"/>
    <tag k="surface" v="paved"/>
  </way>
  <way id="33574178" version="3" timestamp="2009-07-26T01:21:44Z" uid="4467" user="Rosscoe" changeset="1939895">
    <nd ref="380198558"/>
    <nd ref="372198921"/>
    <tag k="highway" v="residential"/>
    <tag k="lanes" v="1"/>
    <tag k="maxspeed" v="50"/>
    <tag k="name" v="Ida Street"/>
    <tag k="surface" v="paved"/>
  </way>
  <way id="33574179" version="2" timestamp="2009-07-26T01:12:44Z" uid="4467" user="Rosscoe" changeset="1939873">
    <nd ref="383568252"/>
    <nd ref="383568213"/>
    <nd ref="372194565"/>
    <tag k="highway" v="residential"/>
    <tag k="lanes" v="1"/>
    <tag k="maxspeed" v="50"/>
    <tag k="name" v="Tilmouth Court"/>
    <tag k="noname" v="&lt;different&gt;"/>
    <tag k="surface" v="paved"/>
  </way>
  <way id="33574179" version="3" timestamp="2009-07-26T01:21:45Z" uid="4467" user="Rosscoe" changeset="1939895">
    <nd ref="383568252"/>
    <nd ref="383568213"/>
    <nd ref="372194565"/>
    <tag k="highway" v="residential"/>
    <tag k="lanes" v="1"/>
    <tag k="maxspeed" v="50"/>
    <tag k="name" v="Tilmouth Court"/>
    <tag k="surface" v="paved"/>
  </way>
</osm>
