<?xml version='1.0' encoding='UTF-8'?>
<osm version="0.6" generator="libosmium/2.20.0">
  <way id="33585007" version="5" timestamp="2009-09-29T00:31:56Z" uid="36809" user="pfoten_weg_!_" changeset="2671824">
    <nd ref="262983263"/>
    <nd ref="262983250"/>
    <nd ref="262983249"/>
    <nd ref="262983248"/>
    <nd ref="262983247"/>
    <nd ref="262983246"/>
    <nd ref="262983245"/>
    <nd ref="262983244"/>
    <nd ref="416944990"/>
    <nd ref="416915019"/>
    <nd ref="262983243"/>
    <nd ref="262983242"/>
    <nd ref="262983241"/>
    <nd ref="262983239"/>
    <nd ref="262983240"/>
    <nd ref="262983214"/>
    <tag k="highway" v="primary"/>
    <tag k="name" v="Via Campiglio - Kampillerweg"/>
    <tag k="name:de" v="Kampillerweg"/>
    <tag k="name:it" v="Via Campiglio"/>
    <tag k="ref" v="SS12"/>
  </way>
  <way id="33585007" version="6" timestamp="2009-09-29T01:01:48Z" uid="36809" user="pfoten_weg_!_" changeset="2671929">
    <nd ref="262983263"/>
    <nd ref="262983250"/>
    <nd ref="262983249"/>
    <nd ref="262983248"/>
    <nd ref="262983247"/>
    <nd ref="262983246"/>
    <nd ref="262983245"/>
    <nd ref="262983244"/>
    <nd ref="416944990"/>
    <nd ref="416915019"/>
    <nd ref="262983243"/>
    <nd ref="262983242"/>
    <nd ref="262983241"/>
    <nd ref="262983239"/>
    <nd ref="262983240"/>
    <nd ref="262983214"/>
    <tag k="highway" v="primary"/>
    <tag k="name" v="Via Campiglio - Kampillerweg"/>
    <tag k="name:de" v="Kampillerweg"/>
    <tag k="name:it" v="Via Campiglio"/>
    <tag k="ref" v="SS12"/>
  </way>
  <way id="33585007" version="7" timestamp="2009-09-29T01:27:34Z" uid="36809" user="pfoten_weg_!_" changeset="2671929">
    <nd ref="262983263"/>
    <nd ref="262983250"/>
    <nd ref="262983249"/>
    <nd ref="262983248"/>
    <nd ref="262983247"/>
    <nd ref="262983246"/>
    <nd ref="262983245"/>
    <nd ref="262983244"/>
    <nd ref="416944990"/>
    <nd ref="416915019"/>
    <nd ref="262983243"/>
    <nd ref="262983242"/>
    <nd ref="262983241"/>
    <nd ref="262983239"/>
    <nd ref="262983240"/>
    <nd ref="262983214"/>
    <tag k="highway" v="primary"/>
    <tag k="name" v="Via Campiglio - Kampillerweg"/>
    <tag k="name:de" v="Kampillerweg"/>
    <tag k="name:it" v="Via Campiglio"/>
    <tag k="ref" v="SS12"/>
  </way>
  <way id="33585007" version="8" timestamp="2009-09-29T01:57:47Z" uid="36809" user="pfoten_weg_!_" changeset="2672141">
    <nd ref="262983263"/>
    <nd ref="262983250"/>
    <nd ref="262983249"/>
    <nd ref="262983248"/>
    <nd ref="262983247"/>
    <nd ref="262983246"/>
    <nd ref="262983245"/>
    <nd ref="262983244"/>
    <nd ref="416944990"/>
    <nd ref="416915019"/>
    <nd ref="262983243"/>
    <nd ref="262983242"/>
    <nd ref="262983241"/>
    <nd ref="262983239"/>
    <nd ref="262983240"/>
    <nd ref="262983214"/>
    <tag k="highway" v="primary"/>
    <tag k="name" v="Via Campiglio - Kampillerweg"/>
    <tag k="name:de" v="Kampillerweg"/>
    <tag k="name:it" v="Via Campiglio"/>
    <tag k="ref" v="SS12"/>
  </way>
  <way id="33585007" version="9" timestamp="2009-09-29T02:32:04Z" uid="36809" user="pfoten_weg_!_" changeset="2672254">
    <nd ref="262983263"/>
    <nd ref="262983250"/>
    <nd ref="262983249"/>
    <nd ref="262983248"/>
    <nd ref="262983247"/>
    <nd ref="262983246"/>
    <nd ref="262983245"/>
    <nd ref="262983244"/>
    <nd ref="416944990"/>
    <nd ref="416915019"/>
    <nd ref="262983243"/>
    <nd ref="262983242"/>
    <nd ref="262983241"/>
    <nd ref="262983239"/>
    <nd ref="262983240"/>
    <nd ref="262983214"/>
    <tag k="highway" v="primary"/>
    <tag k="name" v="Via Campiglio - Kampillerweg"/>
    <tag k="name:de" v="Kampillerweg"/>
    <tag k="name:it" v="Via Campiglio"/>
    <tag k="ref" v="SS12"/>
  </way>
  <way id="33585007" version="10" timestamp="2010-03-03T23:17:53Z" uid="132225" user="MaximusIT" changeset="4029457">
    <nd ref="262983263"/>
    <nd ref="262983250"/>
    <nd ref="262983249"/>
    <nd ref="262983248"/>
    <nd ref="262983247"/>
    <nd ref="262983246"/>
    <nd ref="262983245"/>
    <nd ref="262983244"/>
    <nd ref="416944990"/>
    <nd ref="416915019"/>
    <nd ref="262983243"/>
    <nd ref="262983242"/>
    <nd ref="262983241"/>
    <nd ref="262983239"/>
    <nd ref="262983240"/>
    <nd ref="262983214"/>
    <tag k="highway" v="primary"/>
    <tag k="name" v="Innsbrucker Str. - Via Innsbruck"/>
    <tag k="name:de" v="Innsbrucker Straße"/>
    <tag k="name:it" v="Via Innsbruck"/>
    <tag k="ref" v="SS12"/>
  </way>
  <way id="33585007" version="11" timestamp="2010-10-02T16:49:14Z" uid="334153" user="Alexander Roalter" changeset="5937613">
    <nd ref="262983263"/>
    <nd ref="262983250"/>
    <nd ref="262983249"/>
    <nd ref="262983248"/>
    <nd ref="262983247"/>
    <nd ref="262983246"/>
    <nd ref="262983245"/>
    <nd ref="262983244"/>
    <nd ref="416944990"/>
    <nd ref="416915019"/>
    <nd ref="262983243"/>
    <nd ref="262983242"/>
    <nd ref="262983241"/>
    <nd ref="262983239"/>
    <nd ref="262983240"/>
    <nd ref="262983214"/>
    <tag k="highway" v="primary"/>
    <tag k="name" v="Innsbrucker Str. - Via Innsbruck"/>
    <tag k="name:de" v="Innsbrucker Straße"/>
    <tag k="name:it" v="Via Innsbruck"/>
    <tag k="nat_ref" v="SS 12"/>
    <tag k="ref" v="SS 12"/>
  </way>
  <way id="33585007" version="12" timestamp="2010-11-11T00:09:00Z" uid="334153" user="Alexander Roalter" changeset="6340690">
    <nd ref="262983263"/>
    <nd ref="984891927"/>
    <nd ref="262983250"/>
    <nd ref="262983249"/>
    <nd ref="262983248"/>
    <nd ref="262983247"/>
    <nd ref="262983246"/>
    <nd ref="262983245"/>
    <nd ref="262983244"/>
    <nd ref="416944990"/>
    <nd ref="416915019"/>
    <nd ref="262983243"/>
    <nd ref="262983242"/>
    <nd ref="262983241"/>
    <nd ref="262983239"/>
    <nd ref="262983240"/>
    <nd ref="262983214"/>
    <tag k="highway" v="primary"/>
    <tag k="name" v="Innsbrucker Str. - Via Innsbruck"/>
    <tag k="name:de" v="Innsbrucker Straße"/>
    <tag k="name:it" v="Via Innsbruck"/>
    <tag k="nat_ref" v="SS12"/>
    <tag k="ref" v="SS12"/>
  </way>
  <way id="33585007" version="13" timestamp="2010-11-11T00:11:41Z" uid="334153" user="Alexander Roalter" changeset="6340705">
    <nd ref="262983263"/>
    <nd ref="984891927"/>
    <nd ref="984894749"/>
    <tag k="bridge" v="yes"/>
    <tag k="highway" v="primary"/>
    <tag k="layer" v="1"/>
    <tag k="name" v="Innsbrucker Str. - Via Innsbruck"/>
    <tag k="name:de" v="Innsbrucker Straße"/>
    <tag k="name:it" v="Via Innsbruck"/>
    <tag k="nat_ref" v="SS12"/>
    <tag k="ref" v="SS12"/>
  </way>
  <way id="33585928" version="1" timestamp="2009-04-24T18:26:29Z" uid="9581" user="Lobelt" changeset="931833">
    <nd ref="383777855"/>
    <nd ref="383777857"/>
    <nd ref="383777858"/>
    <nd ref="383777856"/>
    <nd ref="383777855"/>
    <tag k="building" v="yes"/>
  </way>
  <way id="33585928" version="2" timestamp="2010-12-31T11:56:57Z" uid="9581" user="Lobelt" changeset="6818771">
    <nd ref="383777855"/>
    <nd ref="383777857"/>
    <nd ref="383777858"/>
    <nd ref="383777856"/>
    <nd ref="383777855"/>
    <tag k="addr:city" v="Orlamünde"/>
    <tag k="addr:housenumber" v="52"/>
    <tag k="addr:postcode" v="07768"/>
    <tag k="addr:street" v="Burgstraße"/>
    <tag k="building" v="yes"/>
  </way>
  <way id="33585930" version="1" timestamp="2009-04-24T18:26:29Z" uid="9581" user="Lobelt" changeset="931833">
    <nd ref="383777859"/>
    <nd ref="383777861"/>
    <nd ref="383777865"/>
    <nd ref="383777862"/>
    <nd ref="383777860"/>
    <nd ref="383777859"/>
    <tag k="building" v="yes"/>
  </way>
  <way id="33585930" version="2" timestamp="2010-12-31T11:57:27Z" uid="9581" user="Lobelt" changeset="6818771">
    <nd ref="383777859"/>
    <nd ref="383777861"/>
    <nd ref="383777865"/>
    <nd ref="383777862"/>
    <nd ref="383777860"/>
    <nd ref="383777859"/>
    <tag k="addr:city" v="Orlamünde"/>
    <tag k="addr:housenumber" v="50"/>
    <tag k="addr:postcode" v="07768"/>
    <tag k="addr:street" v="Burgstraße"/>
    <tag k="building" v="yes"/>
  </way>
  <way id="33585932" version="1" timestamp="2009-04-24T18:26:29Z" uid="9581" user="Lobelt" changeset="931833">
    <nd ref="383777861"/>
    <nd ref="383777863"/>
    <nd ref="383777864"/>
    <nd ref="383777865"/>
    <nd ref="383777861"/>
    <tag k="building" v="yes"/>
  </way>
  <way id="33585932" version="2" timestamp="2010-12-31T11:57:07Z" uid="9581" user="Lobelt" changeset="6818771">
    <nd ref="383777861"/>
    <nd ref="383777863"/>
    <nd ref="383777864"/>
    <nd ref="383777865"/>
    <nd ref="383777861"/>
    <tag k="addr:city" v="Orlamünde"/>
    <tag k="addr:housenumber" v="48"/>
    <tag k="addr:postcode" v="07768"/>
    <tag k="addr:street" v="Burgstraße"/>
    <tag k="building" v="yes"/>
  </way>
  <way id="33585933" version="1" timestamp="2009-04-24T18:26:29Z" uid="9581" user="Lobelt" changeset="931833">
    <nd ref="383777863"/>
    <nd ref="383777866"/>
    <nd ref="383777873"/>
    <nd ref="383777867"/>
    <nd ref="383777868"/>
    <nd ref="383777869"/>
    <nd ref="383777870"/>
    <nd ref="383777864"/>
    <nd ref="383777863"/>
    <tag k="building" v="yes"/>
  </way>
  <way id="33585933" version="2" timestamp="2010-12-31T11:57:42Z" uid="9581" user="Lobelt" changeset="6818771">
    <nd ref="383777863"/>
    <nd ref="383777866"/>
    <nd ref="383777873"/>
    <nd ref="383777867"/>
    <nd ref="383777868"/>
    <nd ref="383777869"/>
    <nd ref="383777870"/>
    <nd ref="383777864"/>
    <nd ref="383777863"/>
    <tag k="addr:city" v="Orlamünde"/>
    <tag k="addr:housenumber" v="46"/>
    <tag k="addr:postcode" v="07768"/>
    <tag k="addr:street" v="Burgstraße"/>
    <tag k="building" v="yes"/>
  </way>
  <way id="33585935" version="1" timestamp="2009-04-24T18:26:29Z" uid="9581" user="Lobelt" changeset="931833">
    <nd ref="383777866"/>
    <nd ref="383777871"/>
    <nd ref="383777872"/>
    <nd ref="383777873"/>
    <nd ref="383777866"/>
    <tag k="building" v="yes"/>
  </way>
  <way id="33585935" version="2" timestamp="2010-12-31T11:57:24Z" uid="9581" user="Lobelt" changeset="6818771">
    <nd ref="383777866"/>
    <nd ref="383777871"/>
    <nd ref="383777872"/>
    <nd ref="383777873"/>
    <nd ref="383777866"/>
    <tag k="addr:city" v="Orlamünde"/>
    <tag k="addr:housenumber" v="44"/>
    <tag k="addr:postcode" v="07768"/>
    <tag k="addr:street" v="Burgstraße"/>
    <tag k="building" v="yes"/>
  </way>
  <way id="33585937" version="1" timestamp="2009-04-24T18:26:29Z" uid="9581" user="Lobelt" changeset="931833">
    <nd ref="383777871"/>
    <nd ref="383777874"/>
    <nd ref="383777875"/>
    <nd ref="383777876"/>
    <nd ref="383777886"/>
    <nd ref="383777877"/>
    <nd ref="383777878"/>
    <nd ref="383777879"/>
    <nd ref="383777872"/>
    <nd ref="383777871"/>
    <tag k="building" v="yes"/>
  </way>
  <way id="33585937" version="2" timestamp="2010-12-31T11:57:14Z" uid="9581" user="Lobelt" changeset="6818771">
    <nd ref="383777871"/>
    <nd ref="383777874"/>
    <nd ref="383777875"/>
    <nd ref="383777876"/>
    <nd ref="383777886"/>
    <nd ref="1075126432"/>
    <nd ref="383777877"/>
    <nd ref="383777878"/>
    <nd ref="383777879"/>
    <nd ref="383777872"/>
    <nd ref="383777871"/>
    <tag k="addr:city" v="Orlamünde"/>
    <tag k="addr:housenumber" v="42"/>
    <tag k="addr:postcode" v="07768"/>
    <tag k="addr:street" v="Burgstraße"/>
    <tag k="building" v="yes"/>
  </way>
  <way id="33585938" version="1" timestamp="2009-04-24T18:26:29Z" uid="9581" user="Lobelt" changeset="931833">
    <nd ref="383777874"/>
    <nd ref="383777880"/>
    <nd ref="383777881"/>
    <nd ref="383777882"/>
    <nd ref="383777883"/>
    <nd ref="383777875"/>
    <nd ref="383777874"/>
    <tag k="building" v="yes"/>
  </way>
  <way id="33585938" version="2" timestamp="2010-12-31T11:57:09Z" uid="9581" user="Lobelt" changeset="6818771">
    <nd ref="383777874"/>
    <nd ref="383777880"/>
    <nd ref="383777881"/>
    <nd ref="383777882"/>
    <nd ref="383777883"/>
    <nd ref="383777875"/>
    <nd ref="383777874"/>
    <tag k="addr:city" v="Orlamünde"/>
    <tag k="addr:housenumber" v="40"/>
    <tag k="addr:postcode" v="07768"/>
    <tag k="addr:street" v="Burgstraße"/>
    <tag k="building" v="yes"/>
  </way>
  <way id="33585940" version="1" timestamp="2009-04-24T18:26:29Z" uid="9581" user="Lobelt" changeset="931833">
    <nd ref="383777882"/>
    <nd ref="383777884"/>
    <nd ref="383777885"/>
    <nd ref="383777877"/>
    <nd ref="383777886"/>
    <nd ref="383777887"/>
    <nd ref="383777883"/>
    <nd ref="383777882"/>
    <tag k="building" v="yes"/>
  </way>
  <way id="33585940" version="2" timestamp="2010-12-31T11:57:41Z" uid="9581" user="Lobelt" changeset="6818771">
    <nd ref="383777882"/>
    <nd ref="383777884"/>
    <nd ref="1075126432"/>
    <nd ref="383777886"/>
    <nd ref="383777887"/>
    <nd ref="383777883"/>
    <nd ref="383777882"/>
    <tag k="building" v="yes"/>
  </way>
  <way id="33585942" version="1" timestamp="2009-04-24T18:26:29Z" uid="9581" user="Lobelt" changeset="931833">
    <nd ref="383777888"/>
    <nd ref="383777892"/>
    <nd ref="383777889"/>
    <nd ref="383777884"/>
    <nd ref="383777882"/>
    <nd ref="383777881"/>
    <nd ref="383777888"/>
    <tag k="building" v="yes"/>
  </way>
  <way id="33585942" version="2" timestamp="2010-12-31T11:57:22Z" uid="9581" user="Lobelt" changeset="6818771">
    <nd ref="383777888"/>
    <nd ref="383777892"/>
    <nd ref="383777889"/>
    <nd ref="383777884"/>
    <nd ref="383777882"/>
    <nd ref="383777881"/>
    <nd ref="383777888"/>
    <tag k="addr:city" v="Orlamünde"/>
    <tag k="addr:housenumber" v="38"/>
    <tag k="addr:postcode" v="07768"/>
    <tag k="addr:street" v="Burgstraße"/>
    <tag k="building" v="yes"/>
  </way>
  <way id="33585944" version="1" timestamp="2009-04-24T18:26:29Z" uid="9581" user="Lobelt" changeset="931833">
    <nd ref="383777890"/>
    <nd ref="383777891"/>
    <nd ref="383777889"/>
    <nd ref="383777892"/>
    <nd ref="383777890"/>
    <tag k="building" v="yes"/>
  </way>
  <way id="33585944" version="2" timestamp="2010-12-31T11:57:02Z" uid="9581" user="Lobelt" changeset="6818771">
    <nd ref="383777890"/>
    <nd ref="383777891"/>
    <nd ref="1075126392"/>
    <nd ref="383777889"/>
    <nd ref="383777892"/>
    <nd ref="383777890"/>
    <tag k="addr:city" v="Orlamünde"/>
    <tag k="addr:housenumber" v="36"/>
    <tag k="addr:postcode" v="07768"/>
    <tag k="addr:street" v="Burgstraße"/>
    <tag k="building" v="yes"/>
  </way>
  <way id="33585946" version="1" timestamp="2009-04-24T18:26:29Z" uid="9581" user="Lobelt" changeset="931833">
    <nd ref="383777893"/>
    <nd ref="383777894"/>
    <nd ref="383777899"/>
    <nd ref="383777895"/>
    <nd ref="383777891"/>
    <nd ref="383777890"/>
    <nd ref="383777893"/>
    <tag k="building" v="yes"/>
  </way>
  <way id="33585946" version="2" timestamp="2010-12-31T11:57:32Z" uid="9581" user="Lobelt" changeset="6818771">
    <nd ref="383777893"/>
    <nd ref="383777894"/>
    <nd ref="383777899"/>
    <nd ref="383777895"/>
    <nd ref="383777891"/>
    <nd ref="383777890"/>
    <nd ref="383777893"/>
    <tag k="addr:city" v="Orlamünde"/>
    <tag k="addr:housenumber" v="34"/>
    <tag k="addr:postcode" v="07768"/>
    <tag k="addr:street" v="Burgstraße"/>
    <tag k="building" v="yes"/>
  </way>
  <way id="33585948" version="1" timestamp="2009-04-24T18:26:29Z" uid="9581" user="Lobelt" changeset="931833">
    <nd ref="383777896"/>
    <nd ref="383777897"/>
    <nd ref="383777898"/>
    <nd ref="383777899"/>
    <nd ref="383777894"/>
    <nd ref="383777896"/>
    <tag k="building" v="yes"/>
  </way>
  <way id="33585948" version="2" timestamp="2010-12-31T11:57:13Z" uid="9581" user="Lobelt" changeset="6818771">
    <nd ref="383777896"/>
    <nd ref="383777897"/>
    <nd ref="383777898"/>
    <nd ref="1075126410"/>
    <nd ref="383777899"/>
    <nd ref="383777894"/>
    <nd ref="383777896"/>
    <tag k="addr:city" v="Orlamünde"/>
    <tag k="addr:housenumber" v="32"/>
    <tag k="addr:postcode" v="07768"/>
    <tag k="addr:street" v="Burgstraße"/>
    <tag k="building" v="yes"/>
  </way>
  <way id="33585949" version="1" timestamp="2009-04-24T18:26:29Z" uid="9581" user="Lobelt" changeset="931833">
    <nd ref="383777895"/>
    <nd ref="383777900"/>
    <nd ref="383777901"/>
    <nd ref="383777902"/>
    <nd ref="383777903"/>
    <nd ref="383777904"/>
    <nd ref="383777905"/>
    <nd ref="383777891"/>
    <nd ref="383777895"/>
    <tag k="building" v="yes"/>
  </way>
  <way id="33585949" version="2" timestamp="2010-12-31T11:56:59Z" uid="9581" user="Lobelt" changeset="6818771">
    <nd ref="383777895"/>
    <nd ref="383777899"/>
    <nd ref="1075126410"/>
    <nd ref="383777900"/>
    <nd ref="383777901"/>
    <nd ref="383777902"/>
    <nd ref="383777895"/>
    <tag k="building" v="yes"/>
  </way>
</osm>
