<?xml version='1.0' encoding='UTF-8'?>
<osm version="0.6" generator="libosmium/2.20.0">
  <way id="33629140" version="4" timestamp="2009-08-15T13:01:38Z" uid="4467" user="Rosscoe" changeset="2153865">
    <nd ref="250286141"/>
    <nd ref="83247538"/>
    <nd ref="83247539"/>
    <nd ref="250433135"/>
    <nd ref="83244262"/>
    <nd ref="83247540"/>
    <tag k="highway" v="primary"/>
    <tag k="name" v="Brisbane Street"/>
  </way>
  <way id="33629140" version="5" timestamp="2009-11-04T05:12:23Z" uid="4467" user="Rosscoe" changeset="3030311">
    <nd ref="83234686"/>
    <nd ref="360170441"/>
    <nd ref="250286141"/>
    <nd ref="83247538"/>
    <nd ref="83247539"/>
    <nd ref="250433135"/>
    <nd ref="83244262"/>
    <nd ref="83247540"/>
    <tag k="highway" v="primary"/>
    <tag k="name" v="Brisbane Street"/>
  </way>
  <way id="33629140" version="6" timestamp="2009-11-08T03:28:39Z" uid="4467" user="Rosscoe" changeset="3060714">
    <nd ref="83234686"/>
    <nd ref="360170441"/>
    <nd ref="250286141"/>
    <nd ref="83247538"/>
    <nd ref="83247539"/>
    <nd ref="250433135"/>
    <nd ref="83244262"/>
    <nd ref="83247540"/>
    <tag k="highway" v="trunk"/>
    <tag k="name" v="Brisbane Street"/>
  </way>
  <way id="33629140" version="7" timestamp="2009-11-08T03:32:43Z" uid="4467" user="Rosscoe" changeset="3060714">
    <nd ref="83234686"/>
    <nd ref="360170441"/>
    <nd ref="250286141"/>
    <nd ref="83247538"/>
    <nd ref="83247539"/>
    <nd ref="250433135"/>
    <nd ref="83244262"/>
    <tag k="highway" v="trunk"/>
    <tag k="name" v="Brisbane Street"/>
  </way>
  <way id="33629140" version="8" timestamp="2009-11-08T03:32:47Z" uid="4467" user="Rosscoe" changeset="3060714">
    <nd ref="83234686"/>
    <nd ref="360170441"/>
    <nd ref="250286141"/>
    <nd ref="83247538"/>
    <nd ref="83247539"/>
    <nd ref="250433135"/>
    <tag k="highway" v="trunk"/>
    <tag k="name" v="Brisbane Street"/>
  </way>
  <way id="33629140" version="9" timestamp="2010-01-12T05:06:42Z" uid="129220" user="igc35" changeset="3600906">
    <nd ref="83234686"/>
    <nd ref="360170441"/>
    <nd ref="250286141"/>
    <nd ref="83247538"/>
    <nd ref="83247539"/>
    <nd ref="612013452"/>
    <nd ref="250433135"/>
    <tag k="highway" v="trunk"/>
    <tag k="name" v="Brisbane Street"/>
  </way>
  <way id="33629140" version="10" timestamp="2010-05-08T11:20:44Z" uid="1649" user="Chuq" changeset="4638013">
    <nd ref="83234686"/>
    <nd ref="360170441"/>
    <nd ref="250286141"/>
    <nd ref="83247538"/>
    <nd ref="83247539"/>
    <nd ref="612013452"/>
    <nd ref="726278748"/>
    <tag k="highway" v="trunk"/>
    <tag k="name" v="Brisbane Street"/>
  </way>
  <way id="33629140" version="11" timestamp="2010-08-01T02:38:02Z" uid="223157" user="markus_g" changeset="5367282">
    <nd ref="83234686"/>
    <nd ref="360170441"/>
    <nd ref="250286141"/>
    <nd ref="83247538"/>
    <nd ref="83247539"/>
    <nd ref="612013452"/>
    <nd ref="726297784"/>
    <tag k="highway" v="trunk"/>
    <tag k="name" v="Brisbane Street"/>
  </way>
  <way id="33629140" version="12" timestamp="2011-06-05T00:47:15Z" uid="219876" user="madhousetas" changeset="8344488">
    <nd ref="83234686"/>
    <nd ref="360170441"/>
    <nd ref="250286141"/>
    <nd ref="1312470706"/>
    <nd ref="83247538"/>
    <nd ref="1312470707"/>
    <nd ref="83247539"/>
    <nd ref="612013452"/>
    <nd ref="726297784"/>
    <tag k="highway" v="trunk"/>
    <tag k="name" v="Brisbane Street"/>
  </way>
  <way id="33629145" version="4" timestamp="2009-08-15T13:01:39Z" uid="4467" user="Rosscoe" changeset="2153865">
    <nd ref="83234686"/>
    <nd ref="360170441"/>
    <nd ref="250286141"/>
    <tag k="highway" v="primary"/>
    <tag k="name" v="Brisbane Street"/>
  </way>
  <way id="33629145" version="5" timestamp="2009-11-04T05:12:23Z" uid="4467" user="Rosscoe" changeset="3030311"/>
  <way id="33629193" version="2" timestamp="2009-09-30T13:50:26Z" uid="36809" user="pfoten_weg_!_" changeset="2688655">
    <nd ref="384706792"/>
    <nd ref="384699907"/>
    <tag k="highway" v="track"/>
    <tag k="tracktype" v="grade4"/>
  </way>
  <way id="33629193" version="3" timestamp="2009-10-31T11:04:50Z" uid="94149" user="markusri" changeset="2996193">
    <nd ref="384706792"/>
    <nd ref="548201297"/>
    <nd ref="384699907"/>
    <tag k="highway" v="track"/>
    <tag k="tracktype" v="grade4"/>
  </way>
  <way id="33629193" version="4" timestamp="2009-12-21T12:51:54Z" uid="94149" user="markusri" changeset="3419796">
    <nd ref="384706792"/>
    <nd ref="548201297"/>
    <nd ref="384699907"/>
    <tag k="highway" v="track"/>
    <tag k="surface" v="unpaved"/>
    <tag k="tracktype" v="grade4"/>
  </way>
  <way id="33629193" version="5" timestamp="2011-01-07T11:41:54Z" uid="7596" user="ck3d" changeset="6891710">
    <nd ref="384706792"/>
    <nd ref="384699907"/>
    <tag k="highway" v="track"/>
    <tag k="surface" v="unpaved"/>
    <tag k="tracktype" v="grade4"/>
  </way>
  <way id="33629213" version="3" timestamp="2009-12-21T03:03:46Z" uid="30201" user="rrankin" changeset="3418230">
    <nd ref="332785760"/>
    <nd ref="139265194"/>
    <nd ref="332149220"/>
    <tag k="highway" v="tertiary"/>
    <tag k="name" v="Jamison Rd"/>
    <tag k="source" v="survey"/>
  </way>
  <way id="33629213" version="4" timestamp="2009-12-28T15:50:51Z" uid="4467" user="Rosscoe" changeset="3472915">
    <nd ref="332785760"/>
    <nd ref="139265194"/>
    <nd ref="332149220"/>
    <tag k="highway" v="tertiary"/>
    <tag k="name" v="Jamison Road"/>
    <tag k="source" v="survey"/>
  </way>
  <way id="33629213" version="5" timestamp="2010-12-30T11:33:12Z" uid="4467" user="Rosscoe" changeset="6808062">
    <nd ref="332785758"/>
    <nd ref="139265194"/>
    <nd ref="1072661003"/>
    <nd ref="1072660961"/>
    <nd ref="606180149"/>
    <tag k="highway" v="tertiary"/>
    <tag k="name" v="Jamison Road"/>
    <tag k="oneway" v="yes"/>
    <tag k="source" v="survey"/>
  </way>
  <way id="33629213" version="6" timestamp="2011-01-14T11:24:30Z" uid="47167" user="MCH" changeset="6966228">
    <nd ref="910565771"/>
    <nd ref="1103112603"/>
    <tag k="highway" v="tertiary"/>
    <tag k="name" v="Jamison Road"/>
    <tag k="oneway" v="yes"/>
    <tag k="source" v="survey"/>
  </way>
  <way id="33629267" version="7" timestamp="2009-08-15T12:40:06Z" uid="4467" user="Rosscoe" changeset="2153652">
    <nd ref="384714183"/>
    <nd ref="250430659"/>
    <nd ref="250433015"/>
    <nd ref="250432955"/>
    <nd ref="250432956"/>
    <tag k="highway" v="secondary"/>
    <tag k="name" v="Cimitiere Street"/>
  </way>
  <way id="33629267" version="8" timestamp="2009-11-04T04:58:49Z" uid="4467" user="Rosscoe" changeset="3030183">
    <nd ref="384714183"/>
    <nd ref="250430659"/>
    <nd ref="250433015"/>
    <nd ref="250432956"/>
    <tag k="highway" v="secondary"/>
    <tag k="name" v="Cimitiere Street"/>
  </way>
  <way id="33629268" version="3" timestamp="2010-07-07T22:10:43Z" uid="74617" user="JohnSmith" changeset="5161069">
    <nd ref="12501647"/>
    <nd ref="12501939"/>
    <tag k="highway" v="residential"/>
    <tag k="maxspeed" v="50"/>
    <tag k="maxspeed:source" v="default residential speed limit in Australia"/>
    <tag k="name" v="Fig Lane"/>
  </way>
  <way id="33629268" version="4" timestamp="2012-01-18T20:09:13Z" uid="147510" user="woodpeck_fixbot" changeset="10429293">
    <nd ref="12501647"/>
    <nd ref="12501939"/>
    <tag k="highway" v="residential"/>
    <tag k="name" v="Fig Lane"/>
  </way>
  <way id="33629271" version="6" timestamp="2011-06-09T19:22:52Z" uid="33382" user="de_muur" changeset="8391347">
    <nd ref="272404707"/>
    <nd ref="276276933"/>
    <nd ref="439722201"/>
    <tag k="highway" v="tertiary"/>
    <tag k="maxspeed" v="50"/>
    <tag k="name" v="HauptstraÃŸe"/>
    <tag k="surface" v="paved"/>
  </way>
  <way id="33629338" version="4" timestamp="2009-08-15T12:40:05Z" uid="4467" user="Rosscoe" changeset="2153652">
    <nd ref="250432618"/>
    <nd ref="384711032"/>
    <tag k="bridge" v="yes"/>
    <tag k="highway" v="trunk"/>
    <tag k="layer" v="1"/>
    <tag k="name" v="Wellington St"/>
    <tag k="oneway" v="yes"/>
    <tag k="ref" v="A8"/>
  </way>
  <way id="33629338" version="5" timestamp="2009-08-15T13:01:40Z" uid="4467" user="Rosscoe" changeset="2153865">
    <nd ref="250432618"/>
    <nd ref="384711032"/>
    <tag k="bridge" v="yes"/>
    <tag k="highway" v="trunk"/>
    <tag k="layer" v="1"/>
    <tag k="name" v="Wellington Street"/>
    <tag k="oneway" v="yes"/>
    <tag k="ref" v="A8"/>
  </way>
  <way id="33629338" version="6" timestamp="2009-08-25T00:51:49Z" uid="46482" user="Leon K" changeset="2251325">
    <nd ref="250432618"/>
    <nd ref="384711032"/>
    <tag k="bridge" v="yes"/>
    <tag k="highway" v="primary"/>
    <tag k="layer" v="1"/>
    <tag k="name" v="Wellington Street"/>
    <tag k="oneway" v="yes"/>
    <tag k="ref" v="A8"/>
  </way>
  <way id="33629338" version="7" timestamp="2009-11-04T05:19:27Z" uid="4467" user="Rosscoe" changeset="3030311">
    <nd ref="250432618"/>
    <nd ref="384711032"/>
    <tag k="bridge" v="yes"/>
    <tag k="highway" v="trunk"/>
    <tag k="layer" v="1"/>
    <tag k="name" v="Wellington Street"/>
    <tag k="oneway" v="yes"/>
    <tag k="ref" v="A8"/>
  </way>
  <way id="33629338" version="8" timestamp="2011-02-01T07:58:43Z" uid="4467" user="Rosscoe" changeset="7152257">
    <nd ref="250432618"/>
    <nd ref="384711032"/>
    <tag k="bridge" v="yes"/>
    <tag k="highway" v="trunk"/>
    <tag k="layer" v="1"/>
    <tag k="name" v="Wellington Street"/>
    <tag k="oneway" v="yes"/>
    <tag k="ref" v="A8"/>
    <tag k="source" v="survey"/>
  </way>
  <way id="33629344" version="6" timestamp="2009-08-15T13:01:39Z" uid="4467" user="Rosscoe" changeset="2153865">
    <nd ref="384711032"/>
    <nd ref="384713000"/>
    <nd ref="83230392"/>
    <nd ref="246936218"/>
    <nd ref="246936220"/>
    <nd ref="246936222"/>
    <nd ref="322701439"/>
    <nd ref="83230393"/>
    <nd ref="83230394"/>
    <nd ref="83230396"/>
    <nd ref="250434082"/>
    <nd ref="83230398"/>
    <nd ref="83233314"/>
    <nd ref="83240100"/>
    <nd ref="356138494"/>
    <nd ref="356138508"/>
    <tag k="highway" v="primary"/>
    <tag k="name" v="Wellington Street"/>
    <tag k="oneway" v="yes"/>
    <tag k="ref" v="A8"/>
  </way>
  <way id="33629344" version="7" timestamp="2009-10-06T02:33:30Z" uid="46482" user="Leon K" changeset="2756763">
    <nd ref="384711032"/>
    <nd ref="384713000"/>
    <nd ref="83230392"/>
    <nd ref="246936218"/>
    <nd ref="522283527"/>
    <nd ref="246936220"/>
    <nd ref="246936222"/>
    <nd ref="322701439"/>
    <nd ref="83230393"/>
    <nd ref="83230394"/>
    <nd ref="83230396"/>
    <nd ref="250434082"/>
    <nd ref="83230398"/>
    <nd ref="83233314"/>
    <nd ref="83240100"/>
    <nd ref="356138494"/>
    <nd ref="356138508"/>
    <tag k="highway" v="primary"/>
    <tag k="name" v="Wellington Street"/>
    <tag k="oneway" v="yes"/>
    <tag k="ref" v="A8"/>
  </way>
  <way id="33629344" version="8" timestamp="2009-11-04T05:14:42Z" uid="4467" user="Rosscoe" changeset="3030311">
    <nd ref="384711032"/>
    <nd ref="384713000"/>
    <nd ref="83230392"/>
    <nd ref="246936218"/>
    <nd ref="522283527"/>
    <nd ref="246936220"/>
    <tag k="highway" v="primary"/>
    <tag k="name" v="Wellington Street"/>
    <tag k="oneway" v="yes"/>
    <tag k="ref" v="A8"/>
  </way>
  <way id="33629344" version="9" timestamp="2009-11-04T05:19:13Z" uid="4467" user="Rosscoe" changeset="3030311">
    <nd ref="384711032"/>
    <nd ref="384713000"/>
    <nd ref="83230392"/>
    <nd ref="246936218"/>
    <nd ref="522283527"/>
    <nd ref="246936220"/>
    <tag k="highway" v="trunk"/>
    <tag k="name" v="Wellington Street"/>
    <tag k="oneway" v="yes"/>
    <tag k="ref" v="A8"/>
  </way>
  <way id="33629344" version="10" timestamp="2011-02-01T07:57:47Z" uid="4467" user="Rosscoe" changeset="7152257">
    <nd ref="384711032"/>
    <nd ref="384713000"/>
    <nd ref="83230392"/>
    <nd ref="246936218"/>
    <nd ref="522283527"/>
    <nd ref="246936220"/>
    <tag k="highway" v="trunk"/>
    <tag k="name" v="Wellington Street"/>
    <tag k="oneway" v="yes"/>
    <tag k="ref" v="A8"/>
    <tag k="source" v="survey"/>
  </way>
  <way id="33629369" version="6" timestamp="2010-07-07T22:10:33Z" uid="74617" user="JohnSmith" changeset="5161069">
    <nd ref="12501637"/>
    <nd ref="12501998"/>
    <nd ref="12502000"/>
    <nd ref="11982073"/>
    <tag k="highway" v="residential"/>
    <tag k="maxspeed" v="50"/>
    <tag k="maxspeed:source" v="default residential speed limit in Australia"/>
    <tag k="name" v="Bulwara Road"/>
  </way>
  <way id="33629369" version="7" timestamp="2012-01-18T20:09:14Z" uid="147510" user="woodpeck_fixbot" changeset="10429293">
    <nd ref="12501637"/>
    <nd ref="12501998"/>
    <nd ref="12502000"/>
    <nd ref="11982073"/>
    <tag k="highway" v="residential"/>
    <tag k="name" v="Bulwara Road"/>
  </way>
  <way id="33629387" version="6" timestamp="2009-11-04T05:20:07Z" uid="4467" user="Rosscoe" changeset="3030311">
    <nd ref="384714183"/>
    <nd ref="384716319"/>
    <nd ref="384717414"/>
    <nd ref="384717416"/>
    <nd ref="384712997"/>
    <nd ref="384712998"/>
    <nd ref="384712999"/>
    <nd ref="384713000"/>
    <tag k="highway" v="trunk_link"/>
    <tag k="oneway" v="yes"/>
  </way>
  <way id="33629387" version="7" timestamp="2010-12-10T11:38:26Z" uid="46482" user="Leon K" changeset="6604198">
    <nd ref="384714183"/>
    <nd ref="384716319"/>
    <nd ref="384717416"/>
    <nd ref="384712997"/>
    <nd ref="384712998"/>
    <nd ref="384712999"/>
    <nd ref="384713000"/>
    <tag k="highway" v="trunk_link"/>
    <tag k="oneway" v="yes"/>
  </way>
  <way id="33629387" version="8" timestamp="2011-03-12T04:32:36Z" uid="46482" user="Leon K" changeset="7529585">
    <nd ref="384714183"/>
    <nd ref="384716319"/>
    <nd ref="384717416"/>
    <nd ref="384712997"/>
    <nd ref="384712998"/>
    <nd ref="384712999"/>
    <nd ref="384713000"/>
    <tag k="highway" v="trunk_link"/>
    <tag k="name" v="Cimitere Street"/>
    <tag k="oneway" v="yes"/>
  </way>
  <way id="33629569" version="3" timestamp="2010-07-07T22:11:30Z" uid="74617" user="JohnSmith" changeset="5161069">
    <nd ref="11982073"/>
    <nd ref="12501942"/>
    <nd ref="12501941"/>
    <nd ref="12501939"/>
    <nd ref="12501938"/>
    <tag k="highway" v="residential"/>
    <tag k="maxspeed" v="50"/>
    <tag k="maxspeed:source" v="default residential speed limit in Australia"/>
    <tag k="name" v="Bulwara Road"/>
    <tag k="oneway" v="yes"/>
  </way>
  <way id="33629569" version="4" timestamp="2012-01-18T20:09:15Z" uid="147510" user="woodpeck_fixbot" changeset="10429293">
    <nd ref="11982073"/>
    <nd ref="12501942"/>
    <nd ref="12501941"/>
    <nd ref="12501939"/>
    <nd ref="12501938"/>
    <tag k="highway" v="residential"/>
    <tag k="name" v="Bulwara Road"/>
    <tag k="oneway" v="yes"/>
  </way>
  <way id="33629736" version="5" timestamp="2009-12-24T10:27:58Z" uid="30201" user="rrankin" changeset="3440994">
    <nd ref="384720196"/>
    <nd ref="12501980"/>
    <nd ref="384727816"/>
    <tag k="highway" v="residential"/>
    <tag k="name" v="Ada Place"/>
    <tag k="oneway" v="yes"/>
  </way>
  <way id="33629736" version="6" timestamp="2010-07-07T22:10:57Z" uid="74617" user="JohnSmith" changeset="5161069">
    <nd ref="384720196"/>
    <nd ref="12501980"/>
    <nd ref="384727816"/>
    <tag k="highway" v="residential"/>
    <tag k="maxspeed" v="50"/>
    <tag k="maxspeed:source" v="default residential speed limit in Australia"/>
    <tag k="name" v="Ada Place"/>
    <tag k="oneway" v="yes"/>
  </way>
  <way id="33629736" version="7" timestamp="2012-01-18T20:09:16Z" uid="147510" user="woodpeck_fixbot" changeset="10429293">
    <nd ref="384720196"/>
    <nd ref="12501980"/>
    <nd ref="384727816"/>
    <tag k="highway" v="residential"/>
    <tag k="name" v="Ada Place"/>
    <tag k="oneway" v="yes"/>
  </way>
  <way id="33629739" version="2" timestamp="2009-08-15T13:01:48Z" uid="4467" user="Rosscoe" changeset="2153865">
    <nd ref="356138494"/>
    <nd ref="250434170"/>
    <nd ref="250434144"/>
    <nd ref="83208872"/>
    <tag k="highway" v="residential"/>
    <tag k="name" v="Frankland Street"/>
  </way>
  <way id="33629739" version="3" timestamp="2010-01-13T04:34:56Z" uid="129220" user="igc35" changeset="3607739">
    <nd ref="356138494"/>
    <nd ref="250434170"/>
    <nd ref="612761203"/>
    <nd ref="612761204"/>
    <nd ref="250434144"/>
    <nd ref="612761206"/>
    <nd ref="83208872"/>
    <tag k="highway" v="residential"/>
    <tag k="name" v="Frankland Street"/>
  </way>
  <way id="33629739" version="4" timestamp="2010-07-09T05:40:54Z" uid="74617" user="JohnSmith" changeset="5170986">
    <nd ref="356138494"/>
    <nd ref="250434170"/>
    <nd ref="612761203"/>
    <nd ref="612761204"/>
    <nd ref="250434144"/>
    <nd ref="612761206"/>
    <nd ref="83208872"/>
    <tag k="highway" v="residential"/>
    <tag k="maxspeed" v="50"/>
    <tag k="maxspeed:source" v="default residential speed limit in Australia"/>
    <tag k="name" v="Frankland Street"/>
  </way>
  <way id="33629739" version="5" timestamp="2011-04-16T01:57:27Z" uid="4467" user="Rosscoe" changeset="7874975">
    <nd ref="356138494"/>
    <nd ref="250434170"/>
    <nd ref="612761203"/>
    <nd ref="612761204"/>
    <nd ref="250434144"/>
    <nd ref="612761206"/>
    <nd ref="83208872"/>
    <tag k="highway" v="residential"/>
    <tag k="maxspeed" v="50"/>
    <tag k="name" v="Frankland Street"/>
    <tag k="source:maxspeed" v="default residential speed limit in Australia"/>
  </way>
  <way id="33629739" version="6" timestamp="2011-04-30T06:38:42Z" uid="227509" user="shred" changeset="8008956">
    <nd ref="356138494"/>
    <nd ref="250434170"/>
    <nd ref="612761203"/>
    <nd ref="612761204"/>
    <nd ref="1266395109"/>
    <nd ref="250434144"/>
    <nd ref="612761206"/>
    <nd ref="83208872"/>
    <tag k="highway" v="residential"/>
    <tag k="maxspeed" v="50"/>
    <tag k="name" v="Frankland Street"/>
    <tag k="source:maxspeed" v="default residential speed limit in Australia"/>
  </way>
  <way id="33629739" version="7" timestamp="2012-01-18T20:09:17Z" uid="147510" user="woodpeck_fixbot" changeset="10429293">
    <nd ref="356138494"/>
    <nd ref="250434170"/>
    <nd ref="612761203"/>
    <nd ref="612761204"/>
    <nd ref="1266395109"/>
    <nd ref="250434144"/>
    <nd ref="612761206"/>
    <nd ref="83208872"/>
    <tag k="highway" v="residential"/>
    <tag k="name" v="Frankland Street"/>
    <tag k="source:maxspeed" v="default residential speed limit in Australia"/>
  </way>
  <way id="33629887" version="4" timestamp="2009-08-15T13:01:36Z" uid="4467" user="Rosscoe" changeset="2153865">
    <nd ref="250436931"/>
    <nd ref="83229092"/>
    <tag k="highway" v="unclassified"/>
    <tag k="name" v="York Street"/>
    <tag k="oneway" v="yes"/>
  </way>
  <way id="33629887" version="5" timestamp="2010-01-16T22:54:56Z" uid="219876" user="madhousetas" changeset="3636575">
    <nd ref="250436931"/>
    <nd ref="83229092"/>
    <nd ref="615029017"/>
    <tag k="highway" v="unclassified"/>
    <tag k="name" v="Bourke Street"/>
    <tag k="oneway" v="yes"/>
  </way>
  <way id="33629887" version="6" timestamp="2010-12-10T00:15:26Z" uid="46482" user="Leon K" changeset="6601232">
    <nd ref="250436931"/>
    <nd ref="83229092"/>
    <nd ref="615029017"/>
    <nd ref="1030236329"/>
    <nd ref="83249219"/>
    <tag k="highway" v="unclassified"/>
    <tag k="name" v="Bourke Street"/>
    <tag k="oneway" v="yes"/>
  </way>
</osm>
