<?xml version='1.0' encoding='UTF-8'?>
<osm version="0.6" generator="libosmium/2.20.0">
  <way id="33864048" version="1" timestamp="2009-04-30T23:47:36Z" uid="36809" user="pfoten_weg_!_" changeset="1031855">
    <nd ref="50801642"/>
    <nd ref="279228079"/>
    <nd ref="279228116"/>
    <nd ref="387990404"/>
    <nd ref="387990403"/>
    <nd ref="289273447"/>
    <tag k="created_by" v="RambaZamba"/>
    <tag k="highway" v="residential"/>
    <tag k="name" v="Franz-Hals-Straße"/>
    <tag k="oneway" v="yes"/>
    <tag k="source" v="survey"/>
  </way>
  <way id="33864048" version="2" timestamp="2009-06-08T12:04:18Z" uid="132988" user="ich-liebe-euch" changeset="1457959">
    <nd ref="50801642"/>
    <nd ref="279228079"/>
    <nd ref="279228116"/>
    <nd ref="387990404"/>
    <nd ref="387990403"/>
    <nd ref="289273447"/>
    <tag k="highway" v="residential"/>
    <tag k="name" v="Franz-Hals-Straße"/>
    <tag k="oneway" v="yes"/>
    <tag k="source" v="survey"/>
  </way>
  <way id="33864048" version="3" timestamp="2009-06-08T13:20:46Z" uid="36809" user="pfoten_weg_!_" changeset="1458721">
    <nd ref="50801642"/>
    <nd ref="279228079"/>
    <nd ref="279228116"/>
    <nd ref="387990404"/>
    <nd ref="387990403"/>
    <nd ref="289273447"/>
    <tag k="created_by" v="RambaZamba"/>
    <tag k="highway" v="residential"/>
    <tag k="name" v="Franz-Hals-Straße"/>
    <tag k="oneway" v="yes"/>
    <tag k="source" v="survey"/>
  </way>
  <way id="33864048" version="4" timestamp="2009-07-17T10:27:15Z" uid="42123" user="Ropino" changeset="1852930">
    <nd ref="50801642"/>
    <nd ref="279228079"/>
    <nd ref="279228116"/>
    <nd ref="387990404"/>
    <nd ref="387990403"/>
    <nd ref="289273447"/>
    <tag k="created_by" v="RambaZamba"/>
    <tag k="highway" v="residential"/>
    <tag k="name" v="Frans-Hals-Straße"/>
    <tag k="oneway" v="yes"/>
    <tag k="source" v="survey"/>
  </way>
  <way id="33864048" version="5" timestamp="2009-08-14T15:50:13Z" uid="109925" user="WanMil" changeset="2144515">
    <nd ref="50801642"/>
    <nd ref="279228079"/>
    <nd ref="279228116"/>
    <nd ref="387990404"/>
    <nd ref="387990403"/>
    <nd ref="289273447"/>
    <tag k="highway" v="residential"/>
    <tag k="name" v="Frans-Hals-Straße"/>
    <tag k="oneway" v="yes"/>
    <tag k="source" v="survey"/>
  </way>
  <way id="33864048" version="6" timestamp="2009-08-19T01:15:54Z" uid="36809" user="pfoten_weg_!_" changeset="2196346">
    <nd ref="50801642"/>
    <nd ref="279228079"/>
    <nd ref="279228116"/>
    <nd ref="387990404"/>
    <nd ref="387990403"/>
    <nd ref="289273447"/>
    <tag k="discovered_by" v="RambaZamba"/>
    <tag k="highway" v="residential"/>
    <tag k="name" v="Frans-Hals-Straße"/>
    <tag k="oneway" v="yes"/>
    <tag k="source" v="survey"/>
  </way>
  <way id="33864048" version="7" timestamp="2009-08-30T09:34:15Z" uid="156995" user="HampelZamba" changeset="2310659">
    <nd ref="50801642"/>
    <nd ref="279228079"/>
    <nd ref="279228116"/>
    <nd ref="387990404"/>
    <nd ref="387990403"/>
    <nd ref="289273447"/>
    <tag k="highway" v="residential"/>
    <tag k="name" v="Frans-Hals-Straße"/>
    <tag k="oneway" v="yes"/>
    <tag k="source" v="survey"/>
  </way>
  <way id="33864048" version="8" timestamp="2009-09-01T10:39:17Z" uid="36809" user="pfoten_weg_!_" changeset="2335754">
    <nd ref="50801642"/>
    <nd ref="279228079"/>
    <nd ref="279228116"/>
    <nd ref="387990404"/>
    <nd ref="387990403"/>
    <nd ref="289273447"/>
    <tag k="highway" v="residential"/>
    <tag k="name" v="Frans-Hals-Straße"/>
    <tag k="oneway" v="yes"/>
    <tag k="source" v="survey"/>
  </way>
  <way id="33864048" version="9" timestamp="2009-10-03T17:24:36Z" uid="179968" user="Ich_hasse_doitsche_OSM-Korinthenkacker" changeset="2727049">
    <nd ref="50801642"/>
    <nd ref="279228079"/>
    <nd ref="279228116"/>
    <nd ref="387990404"/>
    <nd ref="387990403"/>
    <nd ref="289273447"/>
    <tag k="highway" v="residential"/>
    <tag k="maxspeed" v="30"/>
    <tag k="name" v="Frans-Hals-Straße"/>
    <tag k="oneway" v="yes"/>
    <tag k="source" v="survey"/>
  </way>
  <way id="33864048" version="10" timestamp="2009-10-03T17:41:52Z" uid="179968" user="Ich_hasse_doitsche_OSM-Korinthenkacker" changeset="2727120">
    <nd ref="50801642"/>
    <nd ref="279228079"/>
    <nd ref="279228116"/>
    <nd ref="387990404"/>
    <nd ref="387990403"/>
    <nd ref="289273447"/>
    <tag k="highway" v="residential"/>
    <tag k="maxspeed" v="30"/>
    <tag k="name" v="Frans-Hals-Straße"/>
    <tag k="oneway" v="yes"/>
  </way>
  <way id="33864048" version="11" timestamp="2010-12-17T08:44:23Z" uid="42393" user="mawi42" changeset="6684429">
    <nd ref="50801642"/>
    <nd ref="279228079"/>
    <nd ref="279228116"/>
    <nd ref="1042400667"/>
    <nd ref="387990404"/>
    <nd ref="1042400701"/>
    <nd ref="387990403"/>
    <nd ref="1042400683"/>
    <nd ref="1042400666"/>
    <nd ref="289273447"/>
    <tag k="highway" v="residential"/>
    <tag k="maxspeed" v="30"/>
    <tag k="name" v="Frans-Hals-Straße"/>
    <tag k="oneway" v="yes"/>
  </way>
  <way id="33864048" version="12" timestamp="2011-08-10T21:20:18Z" uid="344972" user="osralimto" changeset="8980806"/>
</osm>
