<?xml version='1.0' encoding='UTF-8'?>
<osm version="0.6" generator="libosmium/2.20.0">
  <way id="33945347" version="1" timestamp="2009-05-02T18:59:42Z" uid="43967" user="railsnail" changeset="1051895">
    <nd ref="389022229"/>
    <nd ref="389027559"/>
    <nd ref="389027560"/>
    <nd ref="389027561"/>
    <nd ref="389027562"/>
    <nd ref="389027563"/>
    <nd ref="389027564"/>
    <nd ref="389027565"/>
    <nd ref="389027566"/>
    <nd ref="389027567"/>
    <nd ref="389027568"/>
    <tag k="highway" v="path"/>
  </way>
  <way id="33945894" version="8" timestamp="2009-10-17T15:27:29Z" uid="20587" user="balrog-kun" changeset="2875188">
    <nd ref="128054135"/>
    <nd ref="392055926"/>
    <nd ref="128054143"/>
    <nd ref="128054153"/>
    <nd ref="128054159"/>
    <nd ref="128054165"/>
    <nd ref="392671401"/>
    <nd ref="128054172"/>
    <nd ref="128054178"/>
    <nd ref="408761188"/>
    <tag k="highway" v="primary"/>
    <tag k="lanes" v="2"/>
    <tag k="name" v="Jerzego Szajnowicza-Iwanowicza"/>
    <tag k="oneway" v="yes"/>
    <tag k="ref" v="46"/>
  </way>
  <way id="33945894" version="9" timestamp="2010-05-28T08:35:50Z" uid="19417" user="xjr" changeset="4828574">
    <nd ref="128054135"/>
    <nd ref="392055926"/>
    <nd ref="128054143"/>
    <nd ref="128054153"/>
    <nd ref="128054159"/>
    <nd ref="128054165"/>
    <nd ref="392671401"/>
    <nd ref="128054172"/>
    <nd ref="128054178"/>
    <tag k="highway" v="primary"/>
    <tag k="lanes" v="2"/>
    <tag k="name" v="Jerzego Szajnowicza-Iwanowicza"/>
    <tag k="oneway" v="yes"/>
    <tag k="ref" v="46"/>
  </way>
  <way id="33945894" version="10" timestamp="2010-06-21T11:50:30Z" uid="19417" user="xjr" changeset="5041996">
    <nd ref="128054135"/>
    <nd ref="392055926"/>
    <tag k="highway" v="primary"/>
    <tag k="lanes" v="2"/>
    <tag k="name" v="Jerzego Szajnowicza-Iwanowicza"/>
    <tag k="oneway" v="yes"/>
    <tag k="ref" v="46"/>
  </way>
  <way id="33945894" version="11" timestamp="2010-10-23T21:39:06Z" uid="30632" user="antblant" changeset="6151968">
    <nd ref="128054135"/>
    <nd ref="392055926"/>
    <tag k="highway" v="primary"/>
    <tag k="lanes" v="2"/>
    <tag k="name" v="Jerzego Szajnowicza-Iwanowicza"/>
    <tag k="oneway" v="yes"/>
  </way>
</osm>
