<?xml version='1.0' encoding='UTF-8'?>
<osm version="0.6" generator="libosmium/2.20.0">
  <way id="33960640" version="7" timestamp="2011-01-04T00:35:50Z" uid="6269" user="Mueck" changeset="6856599">
    <nd ref="389040134"/>
    <nd ref="25615883"/>
    <nd ref="1081339748"/>
    <nd ref="1081339746"/>
    <nd ref="993668940"/>
    <nd ref="25615884"/>
    <tag k="cycleway" v="lane"/>
    <tag k="highway" v="secondary"/>
    <tag k="maxspeed" v="50"/>
    <tag k="name" v="Langener Landstraße"/>
    <tag k="surface" v="paved"/>
  </way>
  <way id="33960640" version="8" timestamp="2012-02-23T17:08:29Z" uid="61005" user="nkbre" changeset="10770108">
    <nd ref="1644407964"/>
    <nd ref="25615883"/>
    <nd ref="1081339748"/>
    <nd ref="1081339746"/>
    <nd ref="993668940"/>
    <nd ref="25615884"/>
    <tag k="cycleway" v="lane"/>
    <tag k="highway" v="secondary"/>
    <tag k="maxspeed" v="50"/>
    <tag k="name" v="Langener Landstraße"/>
    <tag k="surface" v="paved"/>
  </way>
  <way id="33960640" version="9" timestamp="2012-03-03T01:29:34Z" uid="45882" user="smarties" changeset="10853996">
    <nd ref="1656969923"/>
    <nd ref="25615883"/>
    <nd ref="1081339748"/>
    <nd ref="1081339746"/>
    <nd ref="993668940"/>
    <nd ref="25615884"/>
    <tag k="cycleway" v="lane"/>
    <tag k="highway" v="secondary"/>
    <tag k="maxspeed" v="50"/>
    <tag k="name" v="Langener Landstraße"/>
    <tag k="surface" v="paved"/>
  </way>
  <way id="33960932" version="14" timestamp="2011-01-23T01:26:30Z" uid="6269" user="Mueck" changeset="7057261">
    <nd ref="192604327"/>
    <nd ref="1116379802"/>
    <nd ref="992663142"/>
    <nd ref="30208144"/>
    <nd ref="389832020"/>
    <nd ref="30208145"/>
    <nd ref="1001114248"/>
    <nd ref="25615879"/>
    <nd ref="1116379589"/>
    <nd ref="1116379633"/>
    <nd ref="662428619"/>
    <nd ref="497549313"/>
    <nd ref="1116379593"/>
    <nd ref="25615880"/>
    <nd ref="320904498"/>
    <tag k="cycleway" v="lane"/>
    <tag k="highway" v="secondary"/>
    <tag k="maxspeed" v="50"/>
    <tag k="name" v="Leher Landstraße"/>
    <tag k="ref" v="L 135"/>
    <tag k="surface" v="paved"/>
  </way>
  <way id="33960932" version="15" timestamp="2011-01-23T02:07:22Z" uid="6269" user="Mueck" changeset="7057261">
    <nd ref="192604327"/>
    <nd ref="1116379802"/>
    <nd ref="992663142"/>
    <nd ref="30208144"/>
    <nd ref="389832020"/>
    <nd ref="1116390088"/>
    <nd ref="30208145"/>
    <nd ref="1001114248"/>
    <nd ref="25615879"/>
    <nd ref="1116379589"/>
    <nd ref="1116379633"/>
    <nd ref="662428619"/>
    <nd ref="497549313"/>
    <nd ref="1116379593"/>
    <nd ref="25615880"/>
    <nd ref="320904498"/>
    <tag k="cycleway" v="lane"/>
    <tag k="highway" v="secondary"/>
    <tag k="maxspeed" v="50"/>
    <tag k="name" v="Leher Landstraße"/>
    <tag k="ref" v="L 135"/>
    <tag k="surface" v="paved"/>
  </way>
  <way id="33960932" version="16" timestamp="2012-03-03T01:30:06Z" uid="45882" user="smarties" changeset="10853996"/>
</osm>
