<?xml version='1.0' encoding='UTF-8'?>
<osm version="0.6" generator="libosmium/2.20.0">
  <way id="33968089" version="1" timestamp="2009-05-02T20:14:32Z" uid="1066" user="pavel" changeset="1053687">
    <nd ref="389053081"/>
    <nd ref="389053084"/>
    <nd ref="389053086"/>
    <nd ref="389053088"/>
    <nd ref="389053090"/>
    <nd ref="389053092"/>
    <nd ref="389053094"/>
    <nd ref="389053096"/>
    <tag k="highway" v="footway"/>
  </way>
  <way id="33968090" version="1" timestamp="2009-05-02T20:14:33Z" uid="1066" user="pavel" changeset="1053687">
    <nd ref="389053099"/>
    <nd ref="389053101"/>
    <nd ref="389053103"/>
    <nd ref="389053104"/>
    <nd ref="389053105"/>
    <nd ref="389053106"/>
    <nd ref="389053107"/>
    <nd ref="389053108"/>
    <nd ref="389053109"/>
    <nd ref="389053110"/>
    <nd ref="389053113"/>
    <nd ref="389053112"/>
    <nd ref="389053099"/>
    <tag k="building" v="yes"/>
  </way>
  <way id="33968090" version="2" timestamp="2011-02-06T20:42:46Z" uid="3516" user="BiIbo" changeset="7204886">
    <nd ref="389053099"/>
    <nd ref="389053101"/>
    <nd ref="389053103"/>
    <nd ref="389053104"/>
    <nd ref="389053105"/>
    <nd ref="389053106"/>
    <nd ref="389053107"/>
    <nd ref="389053108"/>
    <nd ref="389053109"/>
    <nd ref="389053112"/>
    <nd ref="1139720565"/>
    <nd ref="1139718685"/>
    <nd ref="1139719302"/>
    <nd ref="1139718598"/>
    <nd ref="389053099"/>
    <tag k="building" v="yes"/>
  </way>
  <way id="33968122" version="8" timestamp="2011-01-04T00:25:12Z" uid="6269" user="Mueck" changeset="6856599">
    <nd ref="389054293"/>
    <nd ref="1081326254"/>
    <nd ref="389056516"/>
    <nd ref="389056520"/>
    <nd ref="1081326223"/>
    <nd ref="389056523"/>
    <nd ref="389055309"/>
    <tag k="highway" v="residential"/>
    <tag k="maxspeed" v="30"/>
    <tag k="name" v="Im Eichengrund"/>
    <tag k="source" v="survey"/>
    <tag k="surface" v="paved"/>
  </way>
  <way id="33968147" version="6" timestamp="2010-12-17T00:43:44Z" uid="6269" user="Mueck" changeset="6683028">
    <nd ref="389055310"/>
    <nd ref="1042023894"/>
    <nd ref="389054292"/>
    <nd ref="389054204"/>
    <nd ref="389139643"/>
    <nd ref="761228088"/>
    <nd ref="1042023982"/>
    <nd ref="253375162"/>
    <nd ref="1042024159"/>
    <nd ref="389041782"/>
    <nd ref="253375346"/>
    <nd ref="389042239"/>
    <nd ref="253375347"/>
    <nd ref="253375348"/>
    <nd ref="253375349"/>
    <tag k="bicycle" v="yes"/>
    <tag k="foot" v="yes"/>
    <tag k="highway" v="unclassified"/>
    <tag k="layer" v="0"/>
    <tag k="maxspeed" v="30"/>
    <tag k="name" v="Am Parkbahnhof"/>
    <tag k="source" v="GPS"/>
    <tag k="surface" v="asphalt"/>
  </way>
  <way id="33968157" version="2" timestamp="2010-06-29T19:09:41Z" uid="74617" user="JohnSmith" changeset="5108182">
    <nd ref="389056552"/>
    <nd ref="389056555"/>
    <nd ref="389056557"/>
    <nd ref="389056560"/>
    <nd ref="389056552"/>
    <tag k="fixme" v="sport=football is ambiguous, see http://wiki.osm.org/wiki/Football for more details"/>
    <tag k="sport" v="football"/>
  </way>
  <way id="33968157" version="3" timestamp="2011-04-12T22:45:05Z" uid="435625" user="blueal" changeset="7847635">
    <nd ref="389056552"/>
    <nd ref="389056555"/>
    <nd ref="389056557"/>
    <nd ref="389056560"/>
    <nd ref="389056552"/>
    <tag k="fixme" v="sport=football is ambiguous, see http://wiki.osm.org/wiki/Football for more details"/>
    <tag k="leisure" v="sports_centre"/>
    <tag k="sport" v="football"/>
  </way>
  <way id="33968221" version="14" timestamp="2010-12-17T00:43:45Z" uid="6269" user="Mueck" changeset="6683028">
    <nd ref="841990258"/>
    <nd ref="506516715"/>
    <nd ref="841988521"/>
    <nd ref="1042023957"/>
    <nd ref="841987975"/>
    <tag k="highway" v="unclassified"/>
    <tag k="maxspeed" v="30"/>
    <tag k="name" v="Rasenweg"/>
    <tag k="source" v="survey"/>
    <tag k="surface" v="paved"/>
  </way>
  <way id="33968221" version="15" timestamp="2011-11-15T22:11:26Z" uid="404753" user="Tom@OSM" changeset="9839667">
    <nd ref="841990258"/>
    <nd ref="506516715"/>
    <tag k="highway" v="unclassified"/>
    <tag k="maxspeed" v="30"/>
    <tag k="name" v="Rasenweg"/>
    <tag k="source" v="survey"/>
    <tag k="surface" v="paved"/>
  </way>
  <way id="33968234" version="1" timestamp="2009-05-02T20:18:01Z" uid="110593" user="esetzer" changeset="1053735">
    <nd ref="83630755"/>
    <nd ref="370998639"/>
    <nd ref="370998637"/>
    <nd ref="83645987"/>
    <nd ref="83650628"/>
    <nd ref="83615427"/>
    <nd ref="83546139"/>
    <nd ref="83548485"/>
    <nd ref="83548483"/>
    <nd ref="83630755"/>
    <tag k="created_by" v="Merkaartor 0.11"/>
    <tag k="landuse" v="residential"/>
  </way>
  <way id="33968234" version="2" timestamp="2009-08-17T15:21:40Z" uid="104930" user="butlerm" changeset="2179055">
    <nd ref="83630755"/>
    <nd ref="370998639"/>
    <nd ref="370998637"/>
    <nd ref="83645987"/>
    <nd ref="83650628"/>
    <nd ref="469836738"/>
    <nd ref="83548485"/>
    <nd ref="83548483"/>
    <nd ref="83630755"/>
    <tag k="created_by" v="Merkaartor 0.11"/>
    <tag k="landuse" v="residential"/>
  </way>
  <way id="33968234" version="3" timestamp="2012-01-03T00:07:19Z" uid="8909" user="mvexel" changeset="10277649"/>
  <way id="33968291" version="8" timestamp="2010-12-17T00:43:45Z" uid="6269" user="Mueck" changeset="6683028">
    <nd ref="389063696"/>
    <nd ref="1042024059"/>
    <nd ref="389064523"/>
    <tag k="highway" v="living_street"/>
    <tag k="name" v="Königsberger Straße"/>
    <tag k="surface" v="paved"/>
  </way>
  <way id="33968307" version="4" timestamp="2010-12-17T00:43:45Z" uid="6269" user="Mueck" changeset="6683028">
    <nd ref="389064544"/>
    <nd ref="1042023885"/>
    <nd ref="1042024127"/>
    <nd ref="389065183"/>
    <tag k="highway" v="residential"/>
    <tag k="maxspeed" v="30"/>
    <tag k="name" v="Elbinger Straße"/>
    <tag k="source" v="i-Blue 747"/>
    <tag k="surface" v="paved"/>
  </way>
  <way id="33968323" version="5" timestamp="2010-04-03T13:48:26Z" uid="20587" user="balrog-kun" changeset="4312927">
    <nd ref="84411845"/>
    <nd ref="566895673"/>
    <nd ref="84426366"/>
    <nd ref="84433691"/>
    <nd ref="299897669"/>
    <nd ref="84405462"/>
    <nd ref="84413228"/>
    <nd ref="338859092"/>
    <nd ref="84404080"/>
    <nd ref="84433693"/>
    <nd ref="84415870"/>
    <nd ref="84427895"/>
    <nd ref="84429301"/>
    <nd ref="473391708"/>
    <nd ref="473391705"/>
    <nd ref="84431631"/>
    <nd ref="346529957"/>
    <nd ref="346529965"/>
    <nd ref="84433699"/>
    <nd ref="84433703"/>
    <nd ref="84431191"/>
    <nd ref="84420536"/>
    <nd ref="84433705"/>
    <nd ref="312380748"/>
    <nd ref="301304468"/>
    <nd ref="84433707"/>
    <nd ref="312380746"/>
    <nd ref="560988076"/>
    <nd ref="299188105"/>
    <nd ref="312427939"/>
    <nd ref="84426275"/>
    <tag k="highway" v="secondary"/>
    <tag k="name" v="West 4000 South"/>
    <tag k="name_1" v="State Route 37"/>
    <tag k="ref" v="UT-37"/>
    <tag k="tiger:cfcc" v="A31"/>
    <tag k="tiger:county" v="Weber, UT"/>
    <tag k="tiger:name_base" v="4000"/>
    <tag k="tiger:name_base_1" v="State Route 37"/>
    <tag k="tiger:name_direction_prefix" v="W"/>
    <tag k="tiger:name_direction_suffix" v="S"/>
    <tag k="tiger:reviewed" v="yes"/>
    <tag k="tiger:separated" v="no"/>
    <tag k="tiger:source" v="tiger_import_dch_v0.6_20070830"/>
    <tag k="tiger:tlid" v="155691517:155691584:155691537"/>
    <tag k="tiger:zip_left" v="84315"/>
    <tag k="tiger:zip_right" v="84315"/>
  </way>
  <way id="33968323" version="6" timestamp="2010-05-20T01:34:42Z" uid="65769" user="Val" changeset="4753446">
    <nd ref="84411845"/>
    <nd ref="566895673"/>
    <nd ref="84426366"/>
    <nd ref="299897669"/>
    <nd ref="84405462"/>
    <nd ref="84413228"/>
    <nd ref="740241618"/>
    <nd ref="338859092"/>
    <nd ref="84404080"/>
    <nd ref="84433693"/>
    <nd ref="84415870"/>
    <nd ref="84427895"/>
    <nd ref="84429301"/>
    <nd ref="473391708"/>
    <nd ref="473391705"/>
    <nd ref="84431631"/>
    <nd ref="346529957"/>
    <nd ref="346529965"/>
    <nd ref="84433699"/>
    <nd ref="84433703"/>
    <nd ref="84431191"/>
    <nd ref="84420536"/>
    <nd ref="84433705"/>
    <nd ref="312380748"/>
    <nd ref="301304468"/>
    <nd ref="84433707"/>
    <nd ref="312380746"/>
    <nd ref="560988076"/>
    <nd ref="299188105"/>
    <nd ref="312427939"/>
    <nd ref="84426275"/>
    <tag k="highway" v="secondary"/>
    <tag k="name" v="West 4000 South"/>
    <tag k="name_1" v="State Route 37"/>
    <tag k="ref" v="UT-37"/>
    <tag k="tiger:cfcc" v="A31"/>
    <tag k="tiger:county" v="Weber, UT"/>
    <tag k="tiger:name_base" v="4000"/>
    <tag k="tiger:name_base_1" v="State Route 37"/>
    <tag k="tiger:name_direction_prefix" v="W"/>
    <tag k="tiger:name_direction_suffix" v="S"/>
    <tag k="tiger:reviewed" v="yes"/>
    <tag k="tiger:separated" v="no"/>
    <tag k="tiger:source" v="tiger_import_dch_v0.6_20070830"/>
    <tag k="tiger:tlid" v="155691517:155691584:155691537"/>
    <tag k="tiger:zip_left" v="84315"/>
    <tag k="tiger:zip_right" v="84315"/>
  </way>
  <way id="33968323" version="7" timestamp="2011-03-25T06:22:15Z" uid="207745" user="NE2" changeset="7662129">
    <nd ref="84411845"/>
    <nd ref="566895673"/>
    <nd ref="84426366"/>
    <nd ref="299897669"/>
    <nd ref="84405462"/>
    <nd ref="84413228"/>
    <nd ref="740241618"/>
    <nd ref="338859092"/>
    <nd ref="84404080"/>
    <nd ref="84433693"/>
    <nd ref="84415870"/>
    <nd ref="84427895"/>
    <nd ref="84429301"/>
    <nd ref="473391708"/>
    <nd ref="473391705"/>
    <nd ref="84431631"/>
    <nd ref="346529957"/>
    <nd ref="346529965"/>
    <nd ref="84433699"/>
    <nd ref="84433703"/>
    <nd ref="84431191"/>
    <nd ref="84420536"/>
    <nd ref="84433705"/>
    <nd ref="312380748"/>
    <nd ref="301304468"/>
    <nd ref="84433707"/>
    <nd ref="312380746"/>
    <nd ref="560988076"/>
    <nd ref="299188105"/>
    <nd ref="312427939"/>
    <nd ref="84426275"/>
    <tag k="highway" v="secondary"/>
    <tag k="name" v="West 4000 South"/>
    <tag k="ref" v="UT-37"/>
    <tag k="tiger:cfcc" v="A31"/>
    <tag k="tiger:county" v="Weber, UT"/>
    <tag k="tiger:name_base" v="4000"/>
    <tag k="tiger:name_base_1" v="State Route 37"/>
    <tag k="tiger:name_direction_prefix" v="W"/>
    <tag k="tiger:name_direction_suffix" v="S"/>
    <tag k="tiger:reviewed" v="yes"/>
    <tag k="tiger:separated" v="no"/>
    <tag k="tiger:source" v="tiger_import_dch_v0.6_20070830"/>
    <tag k="tiger:tlid" v="155691517:155691584:155691537"/>
    <tag k="tiger:zip_left" v="84315"/>
    <tag k="tiger:zip_right" v="84315"/>
  </way>
  <way id="33968343" version="1" timestamp="2009-05-02T20:22:18Z" uid="49111" user="Markus B" changeset="1053790">
    <nd ref="389070249"/>
    <nd ref="389070251"/>
    <nd ref="389070253"/>
    <nd ref="389070255"/>
    <nd ref="389070249"/>
    <tag k="amenity" v="restaurant"/>
    <tag k="building" v="yes"/>
    <tag k="cuisine" v="regional"/>
    <tag k="name" v="Gasthaus Lang"/>
    <tag k="tourism" v="guest_house"/>
  </way>
  <way id="33968343" version="2" timestamp="2010-05-28T15:14:11Z" uid="49111" user="Markus B" changeset="4831950">
    <nd ref="389070249"/>
    <nd ref="389070251"/>
    <nd ref="389070253"/>
    <nd ref="389070255"/>
    <nd ref="389070249"/>
    <tag k="amenity" v="restaurant"/>
    <tag k="building" v="yes"/>
    <tag k="cuisine" v="regional"/>
    <tag k="name" v="Gasthaus Lang"/>
    <tag k="smokefree" v="yes"/>
    <tag k="tourism" v="guest_house"/>
  </way>
  <way id="33968343" version="3" timestamp="2010-06-13T23:10:25Z" uid="49111" user="Markus B" changeset="4983912">
    <nd ref="389070249"/>
    <nd ref="389070251"/>
    <nd ref="389070253"/>
    <nd ref="389070255"/>
    <nd ref="389070249"/>
    <tag k="addr:city" v="Simmelsdorf"/>
    <tag k="addr:country" v="DE"/>
    <tag k="addr:housenumber" v="9"/>
    <tag k="addr:postcode" v="91245"/>
    <tag k="addr:street" v="Bahnhofstraße"/>
    <tag k="amenity" v="restaurant"/>
    <tag k="building" v="yes"/>
    <tag k="cuisine" v="regional"/>
    <tag k="name" v="Gasthaus Lang"/>
    <tag k="opening_hours" v="Mo off"/>
    <tag k="phone" v="09155-237"/>
    <tag k="smoking" v="no"/>
    <tag k="smoking:outside" v="yes"/>
    <tag k="tourism" v="guest_house"/>
  </way>
  <way id="33968343" version="4" timestamp="2010-06-13T23:17:01Z" uid="49111" user="Markus B" changeset="4983976">
    <nd ref="389070249"/>
    <nd ref="389070251"/>
    <nd ref="389070253"/>
    <nd ref="389070255"/>
    <nd ref="389070249"/>
    <tag k="addr:city" v="Simmelsdorf"/>
    <tag k="addr:country" v="DE"/>
    <tag k="addr:housenumber" v="9"/>
    <tag k="addr:postcode" v="91245"/>
    <tag k="addr:street" v="Bahnhofstraße"/>
    <tag k="amenity" v="restaurant"/>
    <tag k="building" v="yes"/>
    <tag k="cuisine" v="regional"/>
    <tag k="name" v="Gasthaus Lang"/>
    <tag k="opening_hours" v="Mo off"/>
    <tag k="phone" v="09155-237"/>
    <tag k="smoking" v="no"/>
    <tag k="smoking:outside" v="yes"/>
    <tag k="tourism" v="guest_house"/>
    <tag k="website" v="http://landhaus-lang.de"/>
  </way>
  <way id="33968343" version="5" timestamp="2011-11-16T17:00:14Z" uid="449569" user="Nautic" changeset="9846620">
    <nd ref="389070249"/>
    <nd ref="389070251"/>
    <nd ref="389070253"/>
    <nd ref="389070255"/>
    <nd ref="389070249"/>
    <tag k="addr:city" v="Simmelsdorf"/>
    <tag k="addr:country" v="DE"/>
    <tag k="addr:housenumber" v="9"/>
    <tag k="addr:postcode" v="91245"/>
    <tag k="addr:street" v="Bahnhofstraße"/>
    <tag k="amenity" v="restaurant"/>
    <tag k="building" v="yes"/>
    <tag k="cuisine" v="regional"/>
    <tag k="name" v="Gasthaus Lang"/>
    <tag k="opening_hours" v="Mo off"/>
    <tag k="phone" v="09155-237"/>
    <tag k="smoking" v="no"/>
    <tag k="smoking:outside" v="yes"/>
    <tag k="tourism" v="guest_house"/>
    <tag k="website" v="http://landgasthaus-lang.de"/>
  </way>
  <way id="33968344" version="1" timestamp="2009-05-02T20:22:18Z" uid="49111" user="Markus B" changeset="1053790">
    <nd ref="389070259"/>
    <nd ref="389070261"/>
    <nd ref="389070262"/>
    <nd ref="389070264"/>
    <nd ref="389070259"/>
  </way>
  <way id="33968344" version="2" timestamp="2009-12-04T13:45:50Z" uid="118856" user="staehler" changeset="3288433">
    <nd ref="389070259"/>
    <nd ref="389070261"/>
    <nd ref="389070262"/>
    <nd ref="389070264"/>
    <nd ref="389070259"/>
    <tag k="building" v="yes"/>
  </way>
  <way id="33968360" version="6" timestamp="2010-12-17T00:43:46Z" uid="6269" user="Mueck" changeset="6683028">
    <nd ref="389067750"/>
    <nd ref="1042023968"/>
    <nd ref="508912833"/>
    <nd ref="389073843"/>
    <nd ref="389073585"/>
    <tag k="bicycle" v="yes"/>
    <tag k="foot" v="yes"/>
    <tag k="highway" v="cycleway"/>
    <tag k="horse" v="no"/>
    <tag k="motorcycle" v="no"/>
    <tag k="surface" v="unpaved"/>
  </way>
  <way id="33968390" version="8" timestamp="2010-12-15T19:02:49Z" uid="6269" user="Mueck" changeset="6670427">
    <nd ref="841989322"/>
    <nd ref="401830238"/>
    <nd ref="401830239"/>
    <nd ref="401830240"/>
    <nd ref="841988600"/>
    <nd ref="401830242"/>
    <nd ref="1039624663"/>
    <nd ref="401830245"/>
    <nd ref="1039624867"/>
    <nd ref="401830246"/>
    <nd ref="1039624555"/>
    <nd ref="401830247"/>
    <nd ref="389073585"/>
    <nd ref="389073589"/>
    <nd ref="841989074"/>
    <nd ref="841990255"/>
    <nd ref="841990279"/>
    <nd ref="1039624648"/>
    <nd ref="1039624840"/>
    <nd ref="841988800"/>
    <nd ref="389073610"/>
    <nd ref="389073612"/>
    <nd ref="389073613"/>
    <nd ref="841989342"/>
    <nd ref="841989863"/>
    <tag k="bicycle" v="yes"/>
    <tag k="foot" v="yes"/>
    <tag k="highway" v="cycleway"/>
    <tag k="horse" v="no"/>
    <tag k="motorcycle" v="no"/>
    <tag k="surface" v="unpaved"/>
  </way>
  <way id="33968390" version="9" timestamp="2010-12-17T00:43:47Z" uid="6269" user="Mueck" changeset="6683028">
    <nd ref="841989322"/>
    <nd ref="1042024123"/>
    <nd ref="401830238"/>
    <nd ref="401830239"/>
    <nd ref="401830240"/>
    <nd ref="841988600"/>
    <nd ref="401830242"/>
    <nd ref="1039624663"/>
    <nd ref="401830245"/>
    <nd ref="1039624867"/>
    <nd ref="401830246"/>
    <nd ref="1039624555"/>
    <nd ref="401830247"/>
    <nd ref="389073585"/>
    <nd ref="389073589"/>
    <nd ref="841989074"/>
    <nd ref="841990255"/>
    <nd ref="841990279"/>
    <nd ref="1039624648"/>
    <nd ref="1039624840"/>
    <nd ref="841988800"/>
    <nd ref="389073610"/>
    <nd ref="389073612"/>
    <nd ref="389073613"/>
    <nd ref="841989342"/>
    <nd ref="1042024017"/>
    <tag k="bicycle" v="yes"/>
    <tag k="foot" v="yes"/>
    <tag k="highway" v="cycleway"/>
    <tag k="horse" v="no"/>
    <tag k="motorcycle" v="no"/>
    <tag k="surface" v="unpaved"/>
  </way>
  <way id="33968390" version="10" timestamp="2012-03-23T15:12:26Z" uid="45882" user="smarties" changeset="11074854">
    <nd ref="841989322"/>
    <nd ref="1042024123"/>
    <nd ref="401830238"/>
    <nd ref="401830239"/>
    <nd ref="401830240"/>
    <nd ref="841988600"/>
    <nd ref="401830242"/>
    <nd ref="1039624663"/>
    <nd ref="401830245"/>
    <nd ref="1039624867"/>
    <nd ref="401830246"/>
    <nd ref="1039624555"/>
    <nd ref="401830247"/>
    <nd ref="389073585"/>
    <nd ref="389073589"/>
    <nd ref="841989074"/>
    <nd ref="841990255"/>
    <nd ref="841990279"/>
    <nd ref="1039624648"/>
    <nd ref="1039624840"/>
    <nd ref="841988800"/>
    <nd ref="389073610"/>
    <nd ref="389073612"/>
    <nd ref="389073613"/>
    <nd ref="841989342"/>
    <nd ref="1687324668"/>
    <tag k="bicycle" v="yes"/>
    <tag k="foot" v="yes"/>
    <tag k="highway" v="cycleway"/>
    <tag k="horse" v="no"/>
    <tag k="motorcycle" v="no"/>
    <tag k="surface" v="unpaved"/>
  </way>
  <way id="33968394" version="5" timestamp="2010-12-17T00:43:46Z" uid="6269" user="Mueck" changeset="6683028">
    <nd ref="1042023965"/>
    <nd ref="1042024017"/>
    <nd ref="389072005"/>
    <tag k="foot" v="yes"/>
    <tag k="highway" v="cycleway"/>
    <tag k="source" v="GPS"/>
    <tag k="surface" v="paved"/>
  </way>
  <way id="33968394" version="6" timestamp="2011-01-05T02:09:14Z" uid="6269" user="Mueck" changeset="6867970">
    <nd ref="1042023965"/>
    <nd ref="1042024017"/>
    <tag k="foot" v="yes"/>
    <tag k="highway" v="cycleway"/>
    <tag k="source" v="GPS"/>
    <tag k="surface" v="paved"/>
  </way>
  <way id="33968394" version="7" timestamp="2011-05-30T10:02:02Z" uid="114813" user="Chrisuu" changeset="8289601">
    <nd ref="1042023965"/>
    <nd ref="1305643065"/>
    <nd ref="1042024017"/>
    <tag k="foot" v="yes"/>
    <tag k="highway" v="cycleway"/>
    <tag k="source" v="GPS"/>
    <tag k="surface" v="paved"/>
  </way>
  <way id="33968394" version="8" timestamp="2012-03-23T15:12:49Z" uid="45882" user="smarties" changeset="11074854"/>
  <way id="33968402" version="3" timestamp="2010-12-17T00:43:46Z" uid="6269" user="Mueck" changeset="6683028">
    <nd ref="389040803"/>
    <nd ref="1042024112"/>
    <nd ref="1042024147"/>
    <nd ref="841988468"/>
    <tag k="foot" v="yes"/>
    <tag k="highway" v="cycleway"/>
    <tag k="surface" v="paved"/>
  </way>
  <way id="33968402" version="4" timestamp="2012-03-23T15:12:49Z" uid="45882" user="smarties" changeset="11074854"/>
  <way id="33968405" version="5" timestamp="2010-12-17T00:43:46Z" uid="6269" user="Mueck" changeset="6683028">
    <nd ref="389067750"/>
    <nd ref="1042024014"/>
    <nd ref="389075827"/>
    <tag k="highway" v="residential"/>
    <tag k="maxspeed" v="30"/>
    <tag k="name" v="Heilsberger Straße"/>
    <tag k="source" v="i-Blue 747"/>
    <tag k="surface" v="paved"/>
  </way>
  <way id="33968414" version="7" timestamp="2010-12-17T00:43:47Z" uid="6269" user="Mueck" changeset="6683028">
    <nd ref="389075827"/>
    <nd ref="389067280"/>
    <nd ref="1042023981"/>
    <nd ref="389076390"/>
    <nd ref="389076392"/>
    <nd ref="1042024084"/>
    <nd ref="389076394"/>
    <nd ref="389076396"/>
    <tag k="highway" v="living_street"/>
    <tag k="name" v="Heilsberger Straße"/>
    <tag k="source" v="i-Blue 747"/>
    <tag k="surface" v="paved"/>
  </way>
  <way id="33968720" version="5" timestamp="2010-12-11T02:16:59Z" uid="6269" user="Mueck" changeset="6617640">
    <nd ref="1032485625"/>
    <nd ref="389077705"/>
    <nd ref="389077709"/>
    <nd ref="389077712"/>
    <nd ref="389077628"/>
    <tag k="highway" v="unclassified"/>
    <tag k="name" v="Alabamastraße"/>
    <tag k="source" v="GPS"/>
    <tag k="surface" v="paved"/>
  </way>
  <way id="33968768" version="5" timestamp="2010-12-11T02:16:59Z" uid="6269" user="Mueck" changeset="6617640">
    <nd ref="96952937"/>
    <nd ref="96952939"/>
    <nd ref="389078721"/>
    <nd ref="506576681"/>
    <nd ref="1032485697"/>
    <nd ref="506576679"/>
    <nd ref="506576678"/>
    <nd ref="506576676"/>
    <nd ref="506576675"/>
    <nd ref="1032485648"/>
    <nd ref="506576673"/>
    <nd ref="506576672"/>
    <tag k="highway" v="unclassified"/>
    <tag k="maxspeed" v="50"/>
    <tag k="name" v="Washingtonstraße"/>
    <tag k="surface" v="paved"/>
  </way>
  <way id="33968849" version="6" timestamp="2011-01-21T22:32:13Z" uid="6269" user="Mueck" changeset="7045402">
    <nd ref="389079513"/>
    <nd ref="389079516"/>
    <nd ref="389080081"/>
    <nd ref="389080080"/>
    <nd ref="389080079"/>
    <tag k="highway" v="residential"/>
    <tag k="maxspeed" v="30"/>
    <tag k="name" v="Ringstraße"/>
    <tag k="surface" v="paved"/>
  </way>
  <way id="33968891" version="5" timestamp="2011-01-21T22:32:14Z" uid="6269" user="Mueck" changeset="7045402">
    <nd ref="389079900"/>
    <nd ref="1113949991"/>
    <nd ref="1113949919"/>
    <nd ref="1113949904"/>
    <nd ref="1113949882"/>
    <nd ref="389079899"/>
    <tag k="highway" v="residential"/>
    <tag k="maxspeed" v="30"/>
    <tag k="name" v="Am Schluck"/>
    <tag k="source" v="GPS"/>
    <tag k="surface" v="paved"/>
  </way>
  <way id="33968894" version="6" timestamp="2011-01-21T22:32:14Z" uid="6269" user="Mueck" changeset="7045402">
    <nd ref="389079514"/>
    <nd ref="389079515"/>
    <nd ref="389080657"/>
    <nd ref="665484878"/>
    <nd ref="1113949915"/>
    <nd ref="1113950099"/>
    <nd ref="389080231"/>
    <tag k="highway" v="residential"/>
    <tag k="maxspeed" v="30"/>
    <tag k="name" v="Alte Bahnhofstraße"/>
    <tag k="source" v="GPS"/>
    <tag k="surface" v="cobblestone"/>
  </way>
  <way id="33968894" version="7" timestamp="2012-03-03T01:28:43Z" uid="45882" user="smarties" changeset="10853996">
    <nd ref="389079514"/>
    <nd ref="389079515"/>
    <nd ref="389080657"/>
    <nd ref="665484878"/>
    <nd ref="1113949915"/>
    <nd ref="1113950099"/>
    <nd ref="1656970016"/>
    <tag k="highway" v="residential"/>
    <tag k="maxspeed" v="30"/>
    <tag k="name" v="Alte Bahnhofstraße"/>
    <tag k="source" v="GPS"/>
    <tag k="surface" v="cobblestone"/>
  </way>
  <way id="33968913" version="4" timestamp="2011-01-21T22:32:14Z" uid="6269" user="Mueck" changeset="7045402">
    <nd ref="389080018"/>
    <nd ref="1113950129"/>
    <nd ref="389080019"/>
    <nd ref="389080020"/>
    <nd ref="1113949989"/>
    <nd ref="1113949811"/>
    <nd ref="1113949880"/>
    <nd ref="1113949854"/>
    <nd ref="389080021"/>
    <nd ref="389080022"/>
    <nd ref="389080017"/>
    <tag k="highway" v="residential"/>
    <tag k="maxspeed" v="30"/>
    <tag k="name" v="Dingener Straße"/>
    <tag k="source" v="GPS"/>
    <tag k="surface" v="paved"/>
  </way>
  <way id="33968919" version="5" timestamp="2011-01-21T22:32:14Z" uid="6269" user="Mueck" changeset="7045402">
    <nd ref="389080579"/>
    <nd ref="389080580"/>
    <nd ref="389080581"/>
    <nd ref="389080582"/>
    <nd ref="389080583"/>
    <nd ref="389080029"/>
    <tag k="highway" v="residential"/>
    <tag k="maxspeed" v="30"/>
    <tag k="name" v="Am Schwatt"/>
    <tag k="surface" v="paved"/>
  </way>
  <way id="33968920" version="6" timestamp="2011-01-21T22:32:14Z" uid="6269" user="Mueck" changeset="7045402">
    <nd ref="389080018"/>
    <nd ref="389080028"/>
    <nd ref="389080017"/>
    <nd ref="1113950093"/>
    <nd ref="389079899"/>
    <nd ref="389079513"/>
    <nd ref="389047104"/>
    <nd ref="389047397"/>
    <nd ref="389046997"/>
    <nd ref="1113950098"/>
    <nd ref="389079514"/>
    <nd ref="389081029"/>
    <tag k="highway" v="residential"/>
    <tag k="maxspeed" v="30"/>
    <tag k="name" v="Freerkedamm"/>
    <tag k="surface" v="paved"/>
  </way>
  <way id="33968985" version="4" timestamp="2011-01-21T22:32:15Z" uid="6269" user="Mueck" changeset="7045402">
    <nd ref="389080579"/>
    <nd ref="389080029"/>
    <nd ref="389080028"/>
    <tag k="highway" v="residential"/>
    <tag k="maxspeed" v="30"/>
    <tag k="name" v="Am Schwatt"/>
    <tag k="surface" v="paved"/>
  </way>
  <way id="33968994" version="6" timestamp="2011-01-21T22:32:15Z" uid="6269" user="Mueck" changeset="7045402">
    <nd ref="389080657"/>
    <nd ref="389080658"/>
    <nd ref="389080660"/>
    <nd ref="389080662"/>
    <nd ref="1113949830"/>
    <nd ref="1113949892"/>
    <nd ref="665484882"/>
    <nd ref="389080608"/>
    <nd ref="389081031"/>
    <nd ref="389080609"/>
    <nd ref="1113950065"/>
    <nd ref="299786541"/>
    <tag k="highway" v="residential"/>
    <tag k="maxspeed" v="30"/>
    <tag k="name" v="Barwarder Weg"/>
    <tag k="source" v="GPS"/>
    <tag k="surface" v="paved"/>
  </way>
  <way id="33968994" version="7" timestamp="2011-05-26T08:46:09Z" uid="114813" user="Chrisuu" changeset="8251337">
    <nd ref="389080657"/>
    <nd ref="389080658"/>
    <nd ref="389080660"/>
    <nd ref="389080662"/>
    <nd ref="1113949830"/>
    <nd ref="1113949892"/>
    <nd ref="665484882"/>
    <nd ref="389080608"/>
    <nd ref="389081031"/>
    <nd ref="1300485916"/>
    <nd ref="389080609"/>
    <nd ref="1113950065"/>
    <nd ref="299786541"/>
    <tag k="highway" v="residential"/>
    <tag k="maxspeed" v="30"/>
    <tag k="name" v="Barwarder Weg"/>
    <tag k="source" v="GPS"/>
    <tag k="surface" v="paved"/>
  </way>
</osm>
