<?xml version='1.0' encoding='UTF-8'?>
<osm version="0.6" generator="libosmium/2.20.0">
  <way id="34102547" version="4" timestamp="2009-12-04T08:04:33Z" uid="7617" user="Franc" changeset="3286537">
    <nd ref="26359557"/>
    <nd ref="580661803"/>
    <nd ref="31437750"/>
    <tag k="abutters" v="residential"/>
    <tag k="highway" v="secondary"/>
    <tag k="maxspeed" v="50"/>
    <tag k="name" v="Lenthall Street"/>
  </way>
  <way id="34102547" version="5" timestamp="2009-12-10T02:31:20Z" uid="30201" user="rrankin" changeset="3338883">
    <nd ref="26359557"/>
    <nd ref="580661803"/>
    <nd ref="31437750"/>
    <tag k="highway" v="secondary"/>
    <tag k="maxspeed" v="50"/>
    <tag k="name" v="Lenthall Street"/>
  </way>
  <way id="34102547" version="6" timestamp="2010-12-31T07:35:48Z" uid="389517" user="good2010" changeset="6816922">
    <nd ref="26359557"/>
    <nd ref="580661803"/>
    <nd ref="31437750"/>
    <tag k="highway" v="secondary"/>
    <tag k="lanes" v="2"/>
    <tag k="maxspeed" v="50"/>
    <tag k="name" v="Lenthall Street"/>
  </way>
  <way id="34102547" version="7" timestamp="2010-12-31T23:16:27Z" uid="389517" user="good2010" changeset="6824135">
    <nd ref="26359557"/>
    <nd ref="1076225200"/>
    <nd ref="1076225202"/>
    <nd ref="580661803"/>
    <nd ref="1076225206"/>
    <nd ref="31437750"/>
    <tag k="highway" v="secondary"/>
    <tag k="lanes" v="2"/>
    <tag k="maxspeed" v="50"/>
    <tag k="name" v="Lenthall Street"/>
    <tag k="source" v="nearmap"/>
  </way>
  <way id="34102633" version="3" timestamp="2009-10-24T14:38:22Z" uid="85955" user="Gerd Höweler" changeset="2938378">
    <nd ref="33997032"/>
    <nd ref="317328823"/>
    <nd ref="31397644"/>
    <nd ref="356633540"/>
    <nd ref="292154899"/>
    <nd ref="31397638"/>
    <nd ref="336361465"/>
    <nd ref="33997029"/>
    <nd ref="33997027"/>
    <nd ref="31397626"/>
    <nd ref="317328824"/>
    <nd ref="31397625"/>
    <nd ref="33997025"/>
    <nd ref="33997022"/>
    <nd ref="31397624"/>
    <tag k="highway" v="secondary"/>
    <tag k="name" v="Milser Straße"/>
    <tag k="ref" v="L 779"/>
  </way>
  <way id="34102633" version="4" timestamp="2011-12-21T23:21:24Z" uid="60824" user="Carsten Güse" changeset="10176240">
    <nd ref="33997032"/>
    <nd ref="317328823"/>
    <nd ref="31397644"/>
    <nd ref="356633540"/>
    <nd ref="292154899"/>
    <nd ref="31397638"/>
    <nd ref="336361465"/>
    <nd ref="33997029"/>
    <nd ref="33997027"/>
    <nd ref="31397626"/>
    <nd ref="317328824"/>
    <nd ref="31397625"/>
    <nd ref="33997025"/>
    <nd ref="33997022"/>
    <nd ref="1557683151"/>
    <nd ref="31397624"/>
    <tag k="highway" v="secondary"/>
    <tag k="name" v="Milser Straße"/>
    <tag k="ref" v="L 779"/>
  </way>
  <way id="34102633" version="5" timestamp="2011-12-30T14:15:13Z" uid="461103" user="nomatrix" changeset="10245626">
    <nd ref="33997032"/>
    <nd ref="317328823"/>
    <nd ref="31397644"/>
    <nd ref="356633540"/>
    <nd ref="292154899"/>
    <tag k="highway" v="secondary"/>
    <tag k="name" v="Milser Straße"/>
    <tag k="ref" v="L 779"/>
  </way>
  <way id="34102633" version="6" timestamp="2011-12-31T06:05:03Z" uid="461103" user="nomatrix" changeset="10252021">
    <nd ref="33997032"/>
    <nd ref="31397644"/>
    <nd ref="356633540"/>
    <nd ref="292154899"/>
    <tag k="highway" v="secondary"/>
    <tag k="name" v="Milser Straße"/>
    <tag k="ref" v="L 779"/>
  </way>
  <way id="34102633" version="7" timestamp="2012-03-22T08:54:06Z" uid="461103" user="nomatrix" changeset="11060477">
    <nd ref="33997032"/>
    <nd ref="1685654232"/>
    <nd ref="1685654228"/>
    <nd ref="31397644"/>
    <nd ref="356633540"/>
    <nd ref="292154899"/>
    <tag k="highway" v="secondary"/>
    <tag k="name" v="Milser Straße"/>
    <tag k="ref" v="L 779"/>
  </way>
  <way id="34102639" version="2" timestamp="2009-07-07T17:50:57Z" uid="85955" user="Gerd Höweler" changeset="1764748">
    <nd ref="281604306"/>
    <nd ref="122439929"/>
    <nd ref="122445010"/>
    <nd ref="31397621"/>
    <tag k="highway" v="primary"/>
    <tag k="maxspeed" v="70"/>
    <tag k="name" v="Herforder Straße"/>
    <tag k="ref" v="B 61"/>
  </way>
  <way id="34102639" version="3" timestamp="2010-12-07T11:54:16Z" uid="223354" user="Gimbly" changeset="6573720">
    <nd ref="281604306"/>
    <nd ref="122439929"/>
    <nd ref="122445010"/>
    <nd ref="1026357952"/>
    <nd ref="31397621"/>
    <tag k="highway" v="primary"/>
    <tag k="maxspeed" v="70"/>
    <tag k="name" v="Herforder Straße"/>
    <tag k="ref" v="B 61"/>
  </way>
  <way id="34102639" version="4" timestamp="2010-12-17T20:02:04Z" uid="109925" user="WanMil" changeset="6690147">
    <nd ref="281604306"/>
    <nd ref="122439929"/>
    <nd ref="122445010"/>
    <nd ref="1026357952"/>
    <tag k="highway" v="primary"/>
    <tag k="maxspeed" v="70"/>
    <tag k="name" v="Herforder Straße"/>
    <tag k="ref" v="B 61"/>
  </way>
  <way id="34102639" version="5" timestamp="2011-12-21T23:21:19Z" uid="60824" user="Carsten Güse" changeset="10176240">
    <nd ref="281604306"/>
    <nd ref="122439929"/>
    <nd ref="1557683394"/>
    <tag k="highway" v="primary"/>
    <tag k="maxspeed" v="70"/>
    <tag k="name" v="Herforder Straße"/>
    <tag k="ref" v="B 61"/>
  </way>
  <way id="34102639" version="6" timestamp="2011-12-22T14:15:04Z" uid="60824" user="Carsten Güse" changeset="10179935">
    <nd ref="281604306"/>
    <nd ref="122439929"/>
    <nd ref="1558204276"/>
    <nd ref="1557683394"/>
    <tag k="highway" v="primary"/>
    <tag k="maxspeed" v="70"/>
    <tag k="name" v="Herforder Straße"/>
    <tag k="ref" v="B 61"/>
  </way>
  <way id="34102639" version="7" timestamp="2011-12-22T22:56:52Z" uid="60824" user="Carsten Güse" changeset="10183706">
    <nd ref="281604306"/>
    <nd ref="1558666159"/>
    <nd ref="122439929"/>
    <nd ref="1558204276"/>
    <nd ref="1557683394"/>
    <tag k="highway" v="primary"/>
    <tag k="maxspeed" v="70"/>
    <tag k="name" v="Herforder Straße"/>
    <tag k="ref" v="B 61"/>
  </way>
  <way id="34102641" version="2" timestamp="2009-11-08T18:44:25Z" uid="85955" user="Gerd Höweler" changeset="3066510">
    <nd ref="259063229"/>
    <nd ref="285494245"/>
    <nd ref="285494208"/>
    <nd ref="299021218"/>
    <nd ref="359904278"/>
    <nd ref="283033428"/>
    <nd ref="559658013"/>
    <nd ref="280111414"/>
    <tag k="highway" v="secondary"/>
    <tag k="name" v="Braker Straße"/>
    <tag k="ref" v="L 804"/>
    <tag k="source" v="survey"/>
  </way>
  <way id="34102641" version="3" timestamp="2010-04-03T16:05:34Z" uid="85955" user="Gerd Höweler" changeset="4314575">
    <nd ref="259063229"/>
    <nd ref="285494245"/>
    <nd ref="285494208"/>
    <nd ref="299021218"/>
    <nd ref="359904278"/>
    <nd ref="283033428"/>
    <nd ref="559658013"/>
    <nd ref="280111414"/>
    <tag k="highway" v="secondary"/>
    <tag k="maxspeed" v="50"/>
    <tag k="name" v="Braker Straße"/>
    <tag k="ref" v="L 804"/>
    <tag k="source" v="survey"/>
  </way>
  <way id="34102641" version="4" timestamp="2010-05-08T14:26:20Z" uid="124466" user="Heros" changeset="4639517">
    <nd ref="259063229"/>
    <nd ref="285494245"/>
    <nd ref="285494208"/>
    <nd ref="299021218"/>
    <nd ref="359904278"/>
    <nd ref="283033428"/>
    <nd ref="559658013"/>
    <nd ref="726573048"/>
    <nd ref="280111414"/>
    <tag k="highway" v="secondary"/>
    <tag k="maxspeed" v="50"/>
    <tag k="name" v="Braker Straße"/>
    <tag k="ref" v="L 804"/>
    <tag k="source" v="survey"/>
  </way>
  <way id="34102642" version="2" timestamp="2010-07-10T19:55:46Z" uid="8619" user="cetest" changeset="5185052">
    <nd ref="44082090"/>
    <nd ref="44081071"/>
    <nd ref="44079012"/>
    <nd ref="44077980"/>
    <nd ref="390913479"/>
    <nd ref="390913481"/>
    <nd ref="634504517"/>
    <tag k="AND:importance_level" v="5"/>
    <tag k="AND_nosr_r" v="15095472"/>
    <tag k="highway" v="unclassified"/>
    <tag k="name" v="Havendam"/>
  </way>
  <way id="34102642" version="3" timestamp="2011-09-17T20:51:54Z" uid="334075" user="eggie" changeset="9327630">
    <nd ref="44082090"/>
    <nd ref="1435878316"/>
    <nd ref="44081071"/>
    <nd ref="44079012"/>
    <nd ref="44077980"/>
    <nd ref="390913479"/>
    <nd ref="390913481"/>
    <nd ref="634504517"/>
    <tag k="AND:importance_level" v="5"/>
    <tag k="AND_nosr_r" v="15095472"/>
    <tag k="highway" v="unclassified"/>
    <tag k="name" v="Havendam"/>
  </way>
  <way id="34102642" version="4" timestamp="2011-09-18T21:39:09Z" uid="191979" user="It&apos;s so funny" changeset="9337740">
    <nd ref="44082090"/>
    <nd ref="1436972536"/>
    <nd ref="1436972534"/>
    <nd ref="44081071"/>
    <nd ref="44079012"/>
    <nd ref="44077980"/>
    <nd ref="390913479"/>
    <nd ref="390913481"/>
    <nd ref="634504517"/>
    <tag k="AND:importance_level" v="5"/>
    <tag k="AND_nosr_r" v="15095472"/>
    <tag k="highway" v="unclassified"/>
    <tag k="name" v="Havendam"/>
  </way>
  <way id="34102642" version="5" timestamp="2011-09-18T21:50:42Z" uid="191979" user="It&apos;s so funny" changeset="9337887">
    <nd ref="1437004217"/>
    <nd ref="1436972536"/>
    <nd ref="1436972534"/>
    <nd ref="44081071"/>
    <nd ref="44079012"/>
    <nd ref="44077980"/>
    <nd ref="390913479"/>
    <nd ref="390913481"/>
    <nd ref="634504517"/>
    <tag k="AND:importance_level" v="5"/>
    <tag k="AND_nosr_r" v="15095472"/>
    <tag k="highway" v="unclassified"/>
    <tag k="name" v="Havendam"/>
  </way>
  <way id="34102642" version="6" timestamp="2011-11-19T13:32:01Z" uid="203114" user="Jeroen Muris" changeset="9873105">
    <nd ref="1437004217"/>
    <nd ref="1436972536"/>
    <nd ref="1436972534"/>
    <nd ref="44081071"/>
    <nd ref="44079012"/>
    <nd ref="44077980"/>
    <nd ref="390913479"/>
    <nd ref="390913481"/>
    <nd ref="1508533156"/>
    <tag k="AND:importance_level" v="5"/>
    <tag k="AND_nosr_r" v="15095472"/>
    <tag k="highway" v="unclassified"/>
    <tag k="name" v="Havendam"/>
  </way>
  <way id="34102763" version="2" timestamp="2010-04-03T16:05:34Z" uid="85955" user="Gerd Höweler" changeset="4314575">
    <nd ref="259063252"/>
    <nd ref="259063253"/>
    <nd ref="259063229"/>
    <tag k="highway" v="secondary"/>
    <tag k="maxspeed" v="50"/>
    <tag k="name" v="Braker Straße"/>
    <tag k="ref" v="L 804"/>
    <tag k="source" v="survey"/>
  </way>
  <way id="34102819" version="2" timestamp="2010-03-28T01:51:27Z" uid="20587" user="balrog-kun" changeset="4250871">
    <nd ref="123791062"/>
    <nd ref="390917050"/>
    <tag k="bridge" v="yes"/>
    <tag k="highway" v="residential"/>
    <tag k="layer" v="1"/>
    <tag k="name" v="Pioneer Boulevard"/>
    <tag k="tiger:cfcc" v="A41"/>
    <tag k="tiger:county" v="Los Angeles, CA"/>
    <tag k="tiger:name_base" v="Pioneer"/>
    <tag k="tiger:name_type" v="Blvd"/>
    <tag k="tiger:separated" v="no"/>
    <tag k="tiger:source" v="tiger_import_dch_v0.6_20070809"/>
    <tag k="tiger:tlid" v="141738899:141736882:141746688"/>
    <tag k="tiger:zip_left" v="90606"/>
    <tag k="tiger:zip_right" v="90606"/>
  </way>
  <way id="34102820" version="2" timestamp="2010-03-28T01:51:27Z" uid="20587" user="balrog-kun" changeset="4250871">
    <nd ref="390917050"/>
    <nd ref="123295085"/>
    <nd ref="123791065"/>
    <nd ref="122867186"/>
    <nd ref="254027038"/>
    <nd ref="123784218"/>
    <nd ref="123318545"/>
    <tag k="highway" v="residential"/>
    <tag k="name" v="Pioneer Boulevard"/>
    <tag k="tiger:cfcc" v="A41"/>
    <tag k="tiger:county" v="Los Angeles, CA"/>
    <tag k="tiger:name_base" v="Pioneer"/>
    <tag k="tiger:name_type" v="Blvd"/>
    <tag k="tiger:separated" v="no"/>
    <tag k="tiger:source" v="tiger_import_dch_v0.6_20070809"/>
    <tag k="tiger:tlid" v="141738899:141736882:141746688"/>
    <tag k="tiger:zip_left" v="90606"/>
    <tag k="tiger:zip_right" v="90606"/>
  </way>
  <way id="34102879" version="2" timestamp="2009-07-07T17:50:58Z" uid="85955" user="Gerd Höweler" changeset="1764748">
    <nd ref="242550706"/>
    <nd ref="122439918"/>
    <nd ref="281604306"/>
    <tag k="highway" v="primary"/>
    <tag k="maxspeed" v="70"/>
    <tag k="name" v="Herforder Straße"/>
    <tag k="ref" v="B 61"/>
  </way>
  <way id="34102879" version="3" timestamp="2009-08-21T22:14:06Z" uid="118181" user="Ömmes" changeset="2229161">
    <nd ref="242550706"/>
    <nd ref="122439918"/>
    <nd ref="472208338"/>
    <nd ref="281604306"/>
    <tag k="highway" v="primary"/>
    <tag k="maxspeed" v="70"/>
    <tag k="name" v="Herforder Straße"/>
    <tag k="ref" v="B 61"/>
  </way>
  <way id="34102879" version="4" timestamp="2011-05-08T09:18:42Z" uid="44200" user="keinseier" changeset="8080480">
    <nd ref="242550706"/>
    <nd ref="122439918"/>
    <nd ref="1276836546"/>
    <tag k="highway" v="primary"/>
    <tag k="maxspeed" v="70"/>
    <tag k="name" v="Herforder Straße"/>
    <tag k="ref" v="B 61"/>
  </way>
  <way id="34102890" version="2" timestamp="2010-07-09T03:11:50Z" uid="74617" user="JohnSmith" changeset="5170739">
    <nd ref="390918823"/>
    <nd ref="390919184"/>
    <nd ref="390919185"/>
    <tag k="highway" v="residential"/>
    <tag k="maxspeed" v="50"/>
    <tag k="maxspeed:source" v="default residential speed limit in Australia"/>
  </way>
  <way id="34102890" version="3" timestamp="2011-10-23T22:38:47Z" uid="165869" user="chdr" changeset="9639001">
    <nd ref="390918823"/>
    <nd ref="390919184"/>
    <nd ref="390919185"/>
    <tag k="highway" v="residential"/>
    <tag k="maxspeed" v="50"/>
    <tag k="maxspeed:source" v="default residential speed limit in Australia"/>
    <tag k="name" v="Glenlitta Avenue"/>
  </way>
  <way id="34102890" version="4" timestamp="2012-01-18T20:49:10Z" uid="147510" user="woodpeck_fixbot" changeset="10431441">
    <nd ref="390918823"/>
    <nd ref="390919184"/>
    <nd ref="390919185"/>
    <tag k="highway" v="residential"/>
    <tag k="name" v="Glenlitta Avenue"/>
  </way>
  <way id="34102892" version="3" timestamp="2009-12-10T14:02:27Z" uid="4467" user="Rosscoe" changeset="3341940">
    <nd ref="390919186"/>
    <nd ref="390919189"/>
    <tag k="highway" v="residential"/>
    <tag k="name" v="Rodney Court"/>
    <tag k="source" v="nearmap"/>
  </way>
  <way id="34102892" version="4" timestamp="2009-12-10T14:17:43Z" uid="4467" user="Rosscoe" changeset="3341950">
    <nd ref="390919186"/>
    <nd ref="390919189"/>
    <tag k="highway" v="residential"/>
    <tag k="name" v="Rodney Court"/>
    <tag k="source" v="nearmap"/>
  </way>
  <way id="34102892" version="5" timestamp="2010-07-09T03:10:23Z" uid="74617" user="JohnSmith" changeset="5170739">
    <nd ref="390919186"/>
    <nd ref="390919189"/>
    <tag k="highway" v="residential"/>
    <tag k="maxspeed" v="50"/>
    <tag k="maxspeed:source" v="default residential speed limit in Australia"/>
    <tag k="name" v="Rodney Court"/>
    <tag k="source" v="nearmap"/>
  </way>
  <way id="34102892" version="6" timestamp="2012-01-18T20:49:12Z" uid="147510" user="woodpeck_fixbot" changeset="10431441">
    <nd ref="390919186"/>
    <nd ref="390919189"/>
    <tag k="highway" v="residential"/>
    <tag k="name" v="Rodney Court"/>
    <tag k="source" v="nearmap"/>
  </way>
</osm>
