<?xml version='1.0' encoding='UTF-8'?>
<osm version="0.6" generator="libosmium/2.20.0">
  <way id="3424087" version="2" timestamp="2008-07-03T21:21:38Z" uid="4667" user="MapZ" changeset="390188">
    <nd ref="16931257"/>
    <nd ref="16931258"/>
    <nd ref="16931259"/>
    <tag k="access" v="residential"/>
    <tag k="created_by" v="JOSM"/>
    <tag k="highway" v="residential"/>
    <tag k="name" v="Institutstraße"/>
  </way>
  <way id="3424087" version="3" timestamp="2008-10-07T22:15:36Z" uid="4667" user="MapZ" changeset="164883">
    <nd ref="16931257"/>
    <nd ref="16931258"/>
    <nd ref="16931259"/>
    <tag k="access" v="residential"/>
    <tag k="created_by" v="JOSM"/>
    <tag k="highway" v="residential"/>
    <tag k="name" v="Institutstraße"/>
  </way>
  <way id="3424087" version="4" timestamp="2010-12-06T21:11:37Z" uid="195605" user="EM311" changeset="6568879"/>
  <way id="3424320" version="2" timestamp="2010-10-03T20:16:46Z" uid="9581" user="Lobelt" changeset="5948350">
    <nd ref="15602612"/>
    <nd ref="16932692"/>
    <nd ref="16932693"/>
    <nd ref="16932694"/>
    <nd ref="16547299"/>
    <tag k="highway" v="service"/>
  </way>
  <way id="3424644" version="2" timestamp="2010-10-03T20:16:28Z" uid="9581" user="Lobelt" changeset="5948350">
    <nd ref="15602608"/>
    <nd ref="15602607"/>
    <nd ref="16932700"/>
    <nd ref="937148851"/>
    <nd ref="937148758"/>
    <nd ref="10854274"/>
    <tag k="highway" v="residential"/>
    <tag k="maxspeed" v="30"/>
    <tag k="name" v="Grabengasse"/>
  </way>
  <way id="3424644" version="3" timestamp="2012-03-28T20:25:17Z" uid="110838" user="Bernhard W" changeset="11130920">
    <nd ref="15602608"/>
    <nd ref="15602607"/>
    <nd ref="16932700"/>
    <nd ref="937148851"/>
    <nd ref="937148758"/>
    <nd ref="10854274"/>
    <tag k="highway" v="residential"/>
    <tag k="maxspeed" v="30"/>
    <tag k="name" v="Grabengasse"/>
    <tag k="odbl" v="clear"/>
  </way>
  <way id="3424644" version="4" timestamp="2012-03-29T00:49:02Z" uid="110838" user="Bernhard W" changeset="11132529">
    <nd ref="15602608"/>
    <nd ref="15602607"/>
    <nd ref="16932700"/>
    <nd ref="937148851"/>
    <nd ref="937148758"/>
    <nd ref="10854274"/>
    <tag k="highway" v="residential"/>
    <tag k="maxspeed" v="30"/>
    <tag k="name" v="Grabengasse"/>
    <tag k="odbl" v="clean"/>
  </way>
  <way id="3424644" version="5" timestamp="2012-03-30T23:10:40Z" uid="110838" user="Bernhard W" changeset="11161051">
    <nd ref="15602608"/>
    <nd ref="15602607"/>
    <nd ref="16932700"/>
    <nd ref="937148851"/>
    <nd ref="937148758"/>
    <nd ref="10854274"/>
    <tag k="highway" v="residential"/>
    <tag k="maxspeed" v="30"/>
    <tag k="name" v="Grabengasse"/>
  </way>
  <way id="3424645" version="6" timestamp="2010-10-03T20:16:40Z" uid="9581" user="Lobelt" changeset="5948350">
    <nd ref="16051434"/>
    <nd ref="18039083"/>
    <nd ref="16932661"/>
    <nd ref="302102913"/>
    <nd ref="16932651"/>
    <nd ref="937148749"/>
    <nd ref="937148767"/>
    <nd ref="937148862"/>
    <nd ref="937148741"/>
    <nd ref="937148821"/>
    <nd ref="937148847"/>
    <nd ref="937148845"/>
    <nd ref="302102911"/>
    <nd ref="15602609"/>
    <tag k="highway" v="residential"/>
    <tag k="maxspeed" v="30"/>
    <tag k="name" v="Albert-Ludwig-Grimm-Straße"/>
  </way>
  <way id="3424645" version="7" timestamp="2012-03-28T20:25:17Z" uid="110838" user="Bernhard W" changeset="11130920">
    <nd ref="16051434"/>
    <nd ref="18039083"/>
    <nd ref="16932661"/>
    <nd ref="302102913"/>
    <nd ref="16932651"/>
    <nd ref="937148749"/>
    <nd ref="937148767"/>
    <nd ref="937148862"/>
    <nd ref="937148741"/>
    <nd ref="937148821"/>
    <nd ref="937148847"/>
    <nd ref="937148845"/>
    <nd ref="302102911"/>
    <nd ref="15602609"/>
    <tag k="highway" v="residential"/>
    <tag k="maxspeed" v="30"/>
    <tag k="name" v="Albert-Ludwig-Grimm-Straße"/>
    <tag k="odbl" v="clear"/>
  </way>
  <way id="3424645" version="8" timestamp="2012-03-29T00:27:36Z" uid="110838" user="Bernhard W" changeset="11132529">
    <nd ref="16051434"/>
    <nd ref="18039083"/>
    <nd ref="16932661"/>
    <nd ref="302102913"/>
    <nd ref="16932651"/>
    <nd ref="937148749"/>
    <nd ref="937148767"/>
    <nd ref="937148862"/>
    <nd ref="937148741"/>
    <nd ref="937148821"/>
    <nd ref="937148847"/>
    <nd ref="937148845"/>
    <nd ref="302102911"/>
    <nd ref="15602609"/>
    <tag k="highway" v="residential"/>
    <tag k="maxspeed" v="30"/>
    <tag k="name" v="Albert-Ludwig-Grimm-Straße"/>
    <tag k="odbl" v="clean"/>
  </way>
  <way id="3424645" version="9" timestamp="2012-03-30T23:07:59Z" uid="110838" user="Bernhard W" changeset="11161037">
    <nd ref="16051434"/>
    <nd ref="18039083"/>
    <nd ref="16932661"/>
    <nd ref="302102913"/>
    <nd ref="16932651"/>
    <nd ref="937148749"/>
    <nd ref="937148767"/>
    <nd ref="937148862"/>
    <nd ref="937148741"/>
    <nd ref="937148821"/>
    <nd ref="937148847"/>
    <nd ref="937148845"/>
    <nd ref="302102911"/>
    <nd ref="15602609"/>
    <tag k="highway" v="residential"/>
    <tag k="maxspeed" v="30"/>
    <tag k="name" v="Albert-Ludwig-Grimm-Straße"/>
  </way>
  <way id="3424647" version="3" timestamp="2010-10-03T20:16:51Z" uid="9581" user="Lobelt" changeset="5948350">
    <nd ref="16932650"/>
    <nd ref="16932652"/>
    <nd ref="16932659"/>
    <nd ref="16932660"/>
    <nd ref="16932645"/>
    <tag k="highway" v="footway"/>
  </way>
  <way id="3424662" version="4" timestamp="2010-10-03T20:16:44Z" uid="9581" user="Lobelt" changeset="5948350">
    <nd ref="16932674"/>
    <nd ref="16932678"/>
    <nd ref="16932673"/>
    <nd ref="16932669"/>
    <nd ref="16932668"/>
    <nd ref="16547611"/>
    <nd ref="10854274"/>
    <tag k="highway" v="living_street"/>
    <tag k="name" v="Institutstraße"/>
    <tag k="oneway" v="yes"/>
  </way>
  <way id="3424963" version="4" timestamp="2011-04-01T15:52:34Z" uid="6269" user="Mueck" changeset="7736182">
    <nd ref="16816728"/>
    <nd ref="26520157"/>
    <nd ref="502904932"/>
    <nd ref="16816729"/>
    <tag k="foot" v="yes"/>
    <tag k="highway" v="cycleway"/>
  </way>
  <way id="3424967" version="5" timestamp="2008-02-20T14:03:03Z" uid="6269" user="Mueck" changeset="164462">
    <nd ref="14961096"/>
    <nd ref="14911363"/>
    <nd ref="14911364"/>
    <tag k="created_by" v="Potlatch 0.7b"/>
    <tag k="highway" v="residential"/>
    <tag k="name" v="Victor-Gollancz-Straße"/>
    <tag k="oneway" v="true"/>
  </way>
  <way id="3424967" version="6" timestamp="2009-04-16T17:02:35Z" uid="103885" user="logicbot" changeset="603450">
    <nd ref="14961096"/>
    <nd ref="14911363"/>
    <nd ref="14911364"/>
    <tag k="created_by" v="Potlatch 0.7b"/>
    <tag k="highway" v="residential"/>
    <tag k="name" v="Victor-Gollancz-Straße"/>
    <tag k="oneway" v="yes"/>
  </way>
  <way id="3424967" version="7" timestamp="2009-06-21T18:16:44Z" uid="85761" user="klausis" changeset="1586504">
    <nd ref="14961096"/>
    <nd ref="14911363"/>
    <nd ref="14911364"/>
    <tag k="highway" v="residential"/>
    <tag k="name" v="Victor-Gollancz-Straße"/>
    <tag k="oneway" v="yes"/>
  </way>
  <way id="3424967" version="8" timestamp="2009-09-27T16:40:56Z" uid="6269" user="Mueck" changeset="2654897">
    <nd ref="14961096"/>
    <nd ref="510804928"/>
    <nd ref="14911363"/>
    <nd ref="14911364"/>
    <tag k="highway" v="residential"/>
    <tag k="name" v="Victor-Gollancz-Straße"/>
    <tag k="oneway" v="yes"/>
  </way>
  <way id="3424967" version="9" timestamp="2009-09-27T16:45:37Z" uid="6269" user="Mueck" changeset="2655011">
    <nd ref="14961096"/>
    <nd ref="510804928"/>
    <nd ref="510808423"/>
    <nd ref="14911363"/>
    <nd ref="14911364"/>
    <tag k="highway" v="residential"/>
    <tag k="name" v="Victor-Gollancz-Straße"/>
    <tag k="oneway" v="yes"/>
  </way>
  <way id="3424967" version="10" timestamp="2009-09-27T16:46:59Z" uid="6269" user="Mueck" changeset="2655011">
    <nd ref="14961096"/>
    <nd ref="510804928"/>
    <nd ref="510808423"/>
    <nd ref="14911363"/>
    <tag k="highway" v="residential"/>
    <tag k="name" v="Victor-Gollancz-Straße"/>
    <tag k="oneway" v="yes"/>
  </way>
  <way id="3424967" version="11" timestamp="2010-03-03T20:16:22Z" uid="6893" user="[HEK]the_other" changeset="4028111">
    <nd ref="14961096"/>
    <nd ref="510804928"/>
    <nd ref="14911363"/>
    <tag k="highway" v="residential"/>
    <tag k="name" v="Victor-Gollancz-Straße"/>
    <tag k="oneway" v="yes"/>
  </way>
  <way id="3424967" version="12" timestamp="2011-01-24T16:35:04Z" uid="6269" user="Mueck" changeset="7073890">
    <nd ref="14961096"/>
    <nd ref="510804928"/>
    <nd ref="1118886411"/>
    <nd ref="14911363"/>
    <tag k="highway" v="residential"/>
    <tag k="name" v="Victor-Gollancz-Straße"/>
    <tag k="oneway" v="yes"/>
  </way>
  <way id="3424967" version="13" timestamp="2012-01-16T18:23:19Z" uid="165061" user="keinname" changeset="10410364">
    <nd ref="14961096"/>
    <nd ref="510804928"/>
    <nd ref="1118886411"/>
    <nd ref="14911363"/>
    <tag k="highway" v="residential"/>
    <tag k="lanes" v="1"/>
    <tag k="name" v="Victor-Gollancz-Straße"/>
    <tag k="oneway" v="yes"/>
  </way>
</osm>
