<?xml version='1.0' encoding='UTF-8'?>
<osm version="0.6" generator="libosmium/2.20.0">
  <way id="34323360" version="3" timestamp="2010-02-15T06:04:50Z" uid="74617" user="JohnSmith" changeset="3880328">
    <nd ref="393731092"/>
    <nd ref="393731093"/>
    <nd ref="305395878"/>
    <tag k="highway" v="residential"/>
    <tag k="maxspeed" v="50"/>
    <tag k="name" v="Orchid Place"/>
  </way>
  <way id="34323360" version="4" timestamp="2012-01-18T21:00:12Z" uid="147510" user="woodpeck_fixbot" changeset="10431441">
    <nd ref="393731092"/>
    <nd ref="393731093"/>
    <nd ref="305395878"/>
    <tag k="highway" v="residential"/>
    <tag k="name" v="Orchid Place"/>
  </way>
  <way id="34323361" version="2" timestamp="2010-02-15T06:04:46Z" uid="74617" user="JohnSmith" changeset="3880328">
    <nd ref="393731095"/>
    <nd ref="393731096"/>
    <nd ref="393731092"/>
    <nd ref="393731097"/>
    <tag k="highway" v="service"/>
    <tag k="maxspeed" v="50"/>
    <tag k="name" v="Orchid Place"/>
  </way>
  <way id="34323361" version="3" timestamp="2012-01-18T21:00:14Z" uid="147510" user="woodpeck_fixbot" changeset="10431441">
    <nd ref="393731095"/>
    <nd ref="393731096"/>
    <nd ref="393731092"/>
    <nd ref="393731097"/>
    <tag k="highway" v="service"/>
    <tag k="name" v="Orchid Place"/>
  </way>
  <way id="34323377" version="8" timestamp="2009-10-11T22:23:03Z" uid="20587" user="balrog-kun" changeset="2820869">
    <nd ref="270765320"/>
    <nd ref="270765321"/>
    <nd ref="498758216"/>
    <nd ref="270765322"/>
    <nd ref="415030420"/>
    <nd ref="415035569"/>
    <nd ref="270765323"/>
    <tag k="highway" v="tertiary"/>
    <tag k="name" v="Marszałka Ferdinanda Focha"/>
  </way>
  <way id="34323377" version="9" timestamp="2009-10-31T20:22:00Z" uid="19417" user="xjr" changeset="3001084">
    <nd ref="496381816"/>
    <nd ref="270765321"/>
    <nd ref="498758216"/>
    <nd ref="270765322"/>
    <nd ref="415030420"/>
    <nd ref="415035569"/>
    <nd ref="270765323"/>
    <tag k="highway" v="secondary"/>
    <tag k="name" v="Marszałka Ferdinanda Focha"/>
    <tag k="oneway" v="yes"/>
  </way>
  <way id="34323377" version="10" timestamp="2009-11-26T17:59:23Z" uid="164487" user="LoveMaps" changeset="3221952">
    <nd ref="496381816"/>
    <nd ref="270765321"/>
    <nd ref="571525189"/>
    <nd ref="498758216"/>
    <nd ref="571525198"/>
    <nd ref="270765322"/>
    <nd ref="415030420"/>
    <nd ref="415035569"/>
    <nd ref="270765323"/>
    <tag k="highway" v="secondary"/>
    <tag k="name" v="Marszałka Ferdinanda Focha"/>
    <tag k="oneway" v="yes"/>
  </way>
  <way id="34323377" version="11" timestamp="2009-11-27T19:17:01Z" uid="164487" user="LoveMaps" changeset="3230811">
    <nd ref="496381816"/>
    <nd ref="270765321"/>
    <nd ref="571525189"/>
    <nd ref="498758216"/>
    <nd ref="571525198"/>
    <nd ref="270765322"/>
    <nd ref="415030420"/>
    <nd ref="572313970"/>
    <nd ref="415035569"/>
    <nd ref="270765323"/>
    <tag k="highway" v="secondary"/>
    <tag k="name" v="Marszałka Ferdinanda Focha"/>
    <tag k="oneway" v="yes"/>
  </way>
  <way id="34323377" version="12" timestamp="2009-11-27T19:58:40Z" uid="164487" user="LoveMaps" changeset="3231177">
    <nd ref="496381816"/>
    <nd ref="270765321"/>
    <nd ref="571525189"/>
    <nd ref="498758216"/>
    <nd ref="571525198"/>
    <nd ref="270765322"/>
    <nd ref="415030420"/>
    <nd ref="572313970"/>
    <nd ref="415035569"/>
    <nd ref="270765323"/>
    <nd ref="34519775"/>
    <tag k="highway" v="secondary"/>
    <tag k="name" v="Marszałka Ferdinanda Focha"/>
    <tag k="oneway" v="yes"/>
  </way>
  <way id="34323377" version="13" timestamp="2009-11-28T07:44:17Z" uid="164487" user="LoveMaps" changeset="3233873"/>
  <way id="34323448" version="5" timestamp="2010-10-03T03:28:24Z" uid="20587" user="balrog-kun" changeset="5941061">
    <nd ref="589813086"/>
    <nd ref="34342171"/>
    <nd ref="589813083"/>
    <nd ref="34342140"/>
    <tag k="highway" v="residential"/>
    <tag k="name" v="Dworcowa"/>
    <tag k="oneway" v="yes"/>
    <tag k="source_ref" v="gps survey"/>
  </way>
  <way id="34323448" version="6" timestamp="2011-08-11T14:44:53Z" uid="164487" user="LoveMaps" changeset="8986227">
    <nd ref="589813086"/>
    <nd ref="34342171"/>
    <nd ref="589813083"/>
    <nd ref="1395038400"/>
    <nd ref="34342140"/>
    <tag k="highway" v="residential"/>
    <tag k="name" v="Dworcowa"/>
    <tag k="oneway" v="yes"/>
    <tag k="source_ref" v="gps survey"/>
  </way>
  <way id="34323448" version="7" timestamp="2012-03-15T13:02:42Z" uid="450764" user="minmer" changeset="10988117">
    <nd ref="589813086"/>
    <nd ref="34342171"/>
    <nd ref="589813083"/>
    <nd ref="1395038400"/>
    <nd ref="1675743370"/>
    <nd ref="34342140"/>
    <tag k="highway" v="residential"/>
    <tag k="name" v="Dworcowa"/>
    <tag k="oneway" v="yes"/>
    <tag k="source_ref" v="gps survey"/>
  </way>
</osm>
