<?xml version='1.0' encoding='UTF-8'?>
<osm version="0.6" generator="libosmium/2.20.0">
  <way id="34344378" version="4" timestamp="2009-09-01T10:07:20Z" uid="36809" user="pfoten_weg_!_" changeset="2335514">
    <nd ref="288917367"/>
    <nd ref="288917369"/>
    <nd ref="288917355"/>
    <nd ref="325178190"/>
    <nd ref="325178191"/>
    <nd ref="325178192"/>
    <nd ref="325178193"/>
    <nd ref="325178194"/>
    <nd ref="276884609"/>
    <nd ref="376798584"/>
    <nd ref="276884610"/>
    <nd ref="276884611"/>
    <nd ref="436632273"/>
    <tag k="highway" v="residential"/>
    <tag k="maxspeed" v="30"/>
    <tag k="name" v="Bahnhofstraße"/>
    <tag k="source" v="survey"/>
  </way>
  <way id="34344378" version="5" timestamp="2010-08-15T11:57:13Z" uid="69238" user="my-STR" changeset="5498404">
    <nd ref="288917367"/>
    <nd ref="288917369"/>
    <nd ref="288917355"/>
    <tag k="highway" v="residential"/>
    <tag k="maxspeed" v="30"/>
    <tag k="name" v="Bahnhofstraße"/>
    <tag k="source" v="survey"/>
  </way>
  <way id="34344378" version="6" timestamp="2010-08-20T19:30:11Z" uid="326057" user="Knalli" changeset="5546608">
    <nd ref="288917367"/>
    <nd ref="870925109"/>
    <nd ref="288917369"/>
    <nd ref="870925168"/>
    <nd ref="288917355"/>
    <tag k="highway" v="residential"/>
    <tag k="maxspeed" v="30"/>
    <tag k="name" v="Bahnhofstraße"/>
    <tag k="source" v="survey"/>
  </way>
  <way id="34344378" version="7" timestamp="2012-03-13T21:17:47Z" uid="315015" user="WernerP" changeset="10972202">
    <nd ref="288917367"/>
    <nd ref="870925109"/>
    <nd ref="1673859479"/>
    <nd ref="870925168"/>
    <nd ref="288917355"/>
    <tag k="highway" v="residential"/>
    <tag k="maxspeed" v="30"/>
    <tag k="name" v="Bahnhofstraße"/>
    <tag k="source" v="survey"/>
  </way>
  <way id="34344502" version="6" timestamp="2009-10-16T13:03:05Z" uid="186548" user="fojhtirf" changeset="2864551">
    <nd ref="323137692"/>
    <nd ref="533707080"/>
    <nd ref="533707079"/>
    <nd ref="412553142"/>
    <nd ref="277293080"/>
    <nd ref="448131559"/>
    <nd ref="277293081"/>
    <nd ref="282021926"/>
    <nd ref="448131558"/>
    <nd ref="277293082"/>
    <nd ref="277293083"/>
    <tag k="hazmat" v="designated"/>
    <tag k="highway" v="tertiary"/>
    <tag k="name" v="Dielinger Straße"/>
    <tag k="ref" v="K 75"/>
    <tag k="source" v="http://wiki.openstreetmap.org/wiki/Import/Catalogue/Strassen_NRW"/>
    <tag k="strassen-nrw:abs" v="3516007O3516006O"/>
  </way>
  <way id="34344502" version="7" timestamp="2009-10-25T12:56:16Z" uid="186548" user="fojhtirf" changeset="2945938">
    <nd ref="323137692"/>
    <nd ref="533707080"/>
    <nd ref="533707079"/>
    <nd ref="540152022"/>
    <nd ref="412553142"/>
    <nd ref="277293080"/>
    <nd ref="448131559"/>
    <nd ref="277293081"/>
    <nd ref="282021926"/>
    <nd ref="448131558"/>
    <nd ref="277293082"/>
    <nd ref="277293083"/>
    <tag k="hazmat" v="designated"/>
    <tag k="highway" v="tertiary"/>
    <tag k="name" v="Dielinger Straße"/>
    <tag k="ref" v="K 75"/>
    <tag k="source" v="http://wiki.openstreetmap.org/wiki/Import/Catalogue/Strassen_NRW"/>
    <tag k="strassen-nrw:abs" v="3516007O3516006O"/>
  </way>
  <way id="34344502" version="8" timestamp="2009-11-27T20:52:04Z" uid="184628" user="MiLk" changeset="3231592">
    <nd ref="323137692"/>
    <nd ref="533707080"/>
    <nd ref="533707079"/>
    <nd ref="540152022"/>
    <nd ref="412553142"/>
    <nd ref="277293080"/>
    <nd ref="448131559"/>
    <nd ref="277293081"/>
    <nd ref="282021926"/>
    <nd ref="448131558"/>
    <nd ref="277293082"/>
    <nd ref="572488926"/>
    <nd ref="277293083"/>
    <tag k="hazmat" v="designated"/>
    <tag k="highway" v="tertiary"/>
    <tag k="name" v="Dielinger Straße"/>
    <tag k="ref" v="K 75"/>
    <tag k="source" v="http://wiki.openstreetmap.org/wiki/Import/Catalogue/Strassen_NRW"/>
    <tag k="strassen-nrw:abs" v="3516007O3516006O"/>
  </way>
  <way id="34344502" version="9" timestamp="2011-01-07T19:39:28Z" uid="104779" user="ABRob" changeset="6896157">
    <nd ref="323137692"/>
    <nd ref="533707080"/>
    <nd ref="533707079"/>
    <nd ref="540152022"/>
    <nd ref="412553142"/>
    <nd ref="277293080"/>
    <nd ref="448131559"/>
    <nd ref="277293081"/>
    <nd ref="282021926"/>
    <nd ref="448131558"/>
    <nd ref="277293082"/>
    <nd ref="572488926"/>
    <nd ref="277293083"/>
    <tag k="hazmat" v="designated"/>
    <tag k="highway" v="tertiary"/>
    <tag k="name" v="Dielinger Straße"/>
    <tag k="postal_code" v="32351"/>
    <tag k="ref" v="K 75"/>
    <tag k="source" v="http://wiki.openstreetmap.org/wiki/Import/Catalogue/Strassen_NRW"/>
    <tag k="strassen-nrw:abs" v="3516007O3516006O"/>
  </way>
  <way id="34344502" version="10" timestamp="2011-02-27T20:52:00Z" uid="114430" user="Chenshi" changeset="7415348">
    <nd ref="323137692"/>
    <nd ref="540152022"/>
    <nd ref="412553142"/>
    <nd ref="1177886758"/>
    <nd ref="277293080"/>
    <nd ref="448131559"/>
    <nd ref="277293081"/>
    <nd ref="282021926"/>
    <nd ref="448131558"/>
    <nd ref="277293082"/>
    <nd ref="572488926"/>
    <nd ref="277293083"/>
    <tag k="hazmat" v="designated"/>
    <tag k="highway" v="tertiary"/>
    <tag k="name" v="Dielinger Straße"/>
    <tag k="postal_code" v="32351"/>
    <tag k="ref" v="K 75"/>
    <tag k="source" v="http://wiki.openstreetmap.org/wiki/Import/Catalogue/Strassen_NRW"/>
    <tag k="strassen-nrw:abs" v="3516007O3516006O"/>
  </way>
  <way id="34344502" version="11" timestamp="2012-02-06T15:42:04Z" uid="114430" user="Chenshi" changeset="10604010">
    <nd ref="323137692"/>
    <nd ref="540152022"/>
    <nd ref="412553142"/>
    <nd ref="1177886758"/>
    <nd ref="277293080"/>
    <nd ref="448131559"/>
    <nd ref="1620346935"/>
    <nd ref="277293081"/>
    <nd ref="282021926"/>
    <nd ref="448131558"/>
    <nd ref="277293082"/>
    <nd ref="572488926"/>
    <nd ref="277293083"/>
    <tag k="hazmat" v="designated"/>
    <tag k="highway" v="tertiary"/>
    <tag k="name" v="Dielinger Straße"/>
    <tag k="postal_code" v="32351"/>
    <tag k="ref" v="K 75"/>
    <tag k="source" v="http://wiki.openstreetmap.org/wiki/Import/Catalogue/Strassen_NRW"/>
    <tag k="strassen-nrw:abs" v="3516007O3516006O"/>
    <tag k="surface" v="asphalt"/>
  </way>
  <way id="34344502" version="12" timestamp="2012-02-07T11:03:37Z" uid="184628" user="MiLk" changeset="10610999">
    <nd ref="323137692"/>
    <nd ref="1621421581"/>
    <nd ref="1621421607"/>
    <nd ref="1177886758"/>
    <nd ref="277293080"/>
    <nd ref="448131559"/>
    <nd ref="1620346935"/>
    <nd ref="277293081"/>
    <nd ref="282021926"/>
    <nd ref="448131558"/>
    <nd ref="277293082"/>
    <nd ref="572488926"/>
    <nd ref="277293083"/>
    <tag k="hazmat" v="designated"/>
    <tag k="highway" v="tertiary"/>
    <tag k="name" v="Dielinger Straße"/>
    <tag k="postal_code" v="32351"/>
    <tag k="ref" v="K 75"/>
    <tag k="source" v="http://wiki.openstreetmap.org/wiki/Import/Catalogue/Strassen_NRW"/>
    <tag k="strassen-nrw:abs" v="3516007O3516006O"/>
    <tag k="surface" v="asphalt"/>
  </way>
  <way id="34344568" version="4" timestamp="2009-09-01T10:06:58Z" uid="36809" user="pfoten_weg_!_" changeset="2335514">
    <nd ref="436632276"/>
    <nd ref="393946526"/>
    <nd ref="393946527"/>
    <nd ref="393946528"/>
    <nd ref="393946530"/>
    <nd ref="393946531"/>
    <nd ref="393946532"/>
    <nd ref="393946533"/>
    <nd ref="393946534"/>
    <nd ref="393946535"/>
    <nd ref="393946536"/>
    <nd ref="393946537"/>
    <nd ref="393946538"/>
    <nd ref="393946539"/>
    <nd ref="393946540"/>
    <nd ref="393946541"/>
    <nd ref="393946542"/>
    <nd ref="289069205"/>
    <tag k="highway" v="track"/>
    <tag k="surface" v="gravel"/>
  </way>
  <way id="34344568" version="5" timestamp="2011-12-11T11:12:51Z" uid="119281" user="RudiXXL" changeset="10088452">
    <nd ref="436632276"/>
    <nd ref="393946526"/>
    <nd ref="393946527"/>
    <nd ref="1250240745"/>
    <nd ref="393946528"/>
    <nd ref="393946530"/>
    <nd ref="393946531"/>
    <nd ref="393946532"/>
    <nd ref="393946533"/>
    <nd ref="393946534"/>
    <nd ref="393946535"/>
    <nd ref="393946536"/>
    <nd ref="393946537"/>
    <nd ref="393946538"/>
    <nd ref="393946539"/>
    <nd ref="393946540"/>
    <nd ref="393946541"/>
    <nd ref="393946542"/>
    <nd ref="289069205"/>
    <tag k="highway" v="track"/>
    <tag k="surface" v="gravel"/>
  </way>
</osm>
