<?xml version='1.0' encoding='UTF-8'?>
<osm version="0.6" generator="libosmium/2.20.0">
  <way id="34354214" version="2" timestamp="2010-04-03T07:59:30Z" uid="7617" user="Franc" changeset="4310344">
    <nd ref="15183176"/>
    <nd ref="70182472"/>
    <nd ref="15183188"/>
    <nd ref="15183190"/>
    <nd ref="683068279"/>
    <tag k="highway" v="secondary"/>
    <tag k="name" v="Somerville Street"/>
  </way>
  <way id="34354214" version="3" timestamp="2011-02-13T03:54:48Z" uid="389517" user="good2010" changeset="7271685">
    <nd ref="15183176"/>
    <nd ref="70182472"/>
    <nd ref="15183188"/>
    <nd ref="15183190"/>
    <nd ref="683068279"/>
    <tag k="highway" v="secondary"/>
    <tag k="maxspeed" v="50"/>
    <tag k="name" v="Somerville Street"/>
  </way>
  <way id="34354220" version="2" timestamp="2010-07-08T02:54:30Z" uid="74617" user="JohnSmith" changeset="5163091">
    <nd ref="15183171"/>
    <nd ref="15183173"/>
    <nd ref="31992572"/>
    <nd ref="15183176"/>
    <tag k="highway" v="residential"/>
    <tag k="maxspeed" v="50"/>
    <tag k="maxspeed:source" v="default residential speed limit in Australia"/>
    <tag k="name" v="Gore Street"/>
  </way>
  <way id="34354220" version="3" timestamp="2012-01-18T21:01:49Z" uid="147510" user="woodpeck_fixbot" changeset="10431441">
    <nd ref="15183171"/>
    <nd ref="15183173"/>
    <nd ref="31992572"/>
    <nd ref="15183176"/>
    <tag k="highway" v="residential"/>
    <tag k="name" v="Gore Street"/>
  </way>
  <way id="34354887" version="2" timestamp="2010-07-27T14:06:53Z" uid="33382" user="de_muur" changeset="5329748">
    <nd ref="314719263"/>
    <nd ref="271139729"/>
    <nd ref="271139730"/>
    <tag k="highway" v="residential"/>
    <tag k="name" v="Am Bahnhof"/>
    <tag k="surface" v="paved"/>
  </way>
  <way id="34354895" version="3" timestamp="2010-07-25T16:44:00Z" uid="33382" user="de_muur" changeset="5313671">
    <nd ref="314720721"/>
    <nd ref="314719261"/>
    <nd ref="314719263"/>
    <tag k="highway" v="residential"/>
    <tag k="name" v="BahnhofstraÃŸe"/>
    <tag k="surface" v="cobblestone"/>
  </way>
</osm>
