<?xml version='1.0' encoding='UTF-8'?>
<osm version="0.6" generator="libosmium/2.20.0">
  <way id="34476023" version="4" timestamp="2010-07-08T16:39:34Z" uid="74617" user="JohnSmith" changeset="5167338">
    <nd ref="398025556"/>
    <nd ref="398027076"/>
    <tag k="highway" v="residential"/>
    <tag k="maxspeed" v="50"/>
    <tag k="maxspeed:source" v="default residential speed limit in Australia"/>
    <tag k="name" v="Valley Road"/>
    <tag k="source" v="GPS"/>
    <tag k="surface" v="paved"/>
  </way>
  <way id="34476023" version="5" timestamp="2012-01-18T21:09:19Z" uid="147510" user="woodpeck_fixbot" changeset="10431441">
    <nd ref="398025556"/>
    <nd ref="398027076"/>
    <tag k="highway" v="residential"/>
    <tag k="name" v="Valley Road"/>
    <tag k="source" v="GPS"/>
    <tag k="surface" v="paved"/>
  </way>
  <way id="34476692" version="5" timestamp="2009-08-09T00:21:02Z" uid="4467" user="Rosscoe" changeset="2080651">
    <nd ref="311881639"/>
    <nd ref="311881640"/>
    <nd ref="311881590"/>
    <tag k="highway" v="residential"/>
    <tag k="name" v="Waimea Street"/>
    <tag k="source" v="GPS"/>
    <tag k="surface" v="paved"/>
  </way>
  <way id="34476692" version="6" timestamp="2010-03-30T12:59:06Z" uid="7617" user="Franc" changeset="4276387">
    <nd ref="311881639"/>
    <nd ref="678470473"/>
    <nd ref="311881640"/>
    <nd ref="311881590"/>
    <tag k="highway" v="residential"/>
    <tag k="name" v="Waimea Street"/>
    <tag k="source" v="GPS"/>
    <tag k="surface" v="paved"/>
  </way>
  <way id="34476692" version="7" timestamp="2010-07-08T16:38:30Z" uid="74617" user="JohnSmith" changeset="5167338">
    <nd ref="311881639"/>
    <nd ref="678470473"/>
    <nd ref="311881640"/>
    <nd ref="311881590"/>
    <tag k="highway" v="residential"/>
    <tag k="maxspeed" v="50"/>
    <tag k="maxspeed:source" v="default residential speed limit in Australia"/>
    <tag k="name" v="Waimea Street"/>
    <tag k="source" v="GPS"/>
    <tag k="surface" v="paved"/>
  </way>
  <way id="34476692" version="8" timestamp="2012-01-18T21:09:20Z" uid="147510" user="woodpeck_fixbot" changeset="10431441">
    <nd ref="311881639"/>
    <nd ref="678470473"/>
    <nd ref="311881640"/>
    <nd ref="311881590"/>
    <tag k="highway" v="residential"/>
    <tag k="name" v="Waimea Street"/>
    <tag k="source" v="GPS"/>
    <tag k="surface" v="paved"/>
  </way>
  <way id="34476750" version="5" timestamp="2009-08-09T00:21:03Z" uid="4467" user="Rosscoe" changeset="2080651">
    <nd ref="311881589"/>
    <nd ref="311881603"/>
    <nd ref="398041095"/>
    <nd ref="398041098"/>
    <nd ref="398041103"/>
    <nd ref="401081235"/>
    <nd ref="401082045"/>
    <nd ref="311881639"/>
    <tag k="highway" v="residential"/>
    <tag k="name" v="Murri Street"/>
    <tag k="source" v="GPS"/>
    <tag k="surface" v="paved"/>
  </way>
  <way id="34476750" version="6" timestamp="2010-04-17T09:13:39Z" uid="30201" user="rrankin" changeset="4445701">
    <nd ref="311881589"/>
    <nd ref="311881603"/>
    <nd ref="398041095"/>
    <nd ref="398041098"/>
    <nd ref="398041103"/>
    <nd ref="401081235"/>
    <nd ref="699625768"/>
    <nd ref="401082045"/>
    <nd ref="311881639"/>
    <tag k="highway" v="residential"/>
    <tag k="name" v="Murri Street"/>
    <tag k="source" v="GPS"/>
    <tag k="surface" v="paved"/>
  </way>
  <way id="34476750" version="7" timestamp="2010-07-08T16:38:25Z" uid="74617" user="JohnSmith" changeset="5167338">
    <nd ref="311881589"/>
    <nd ref="311881603"/>
    <nd ref="398041095"/>
    <nd ref="398041098"/>
    <nd ref="398041103"/>
    <nd ref="401081235"/>
    <nd ref="699625768"/>
    <nd ref="401082045"/>
    <nd ref="311881639"/>
    <tag k="highway" v="residential"/>
    <tag k="maxspeed" v="50"/>
    <tag k="maxspeed:source" v="default residential speed limit in Australia"/>
    <tag k="name" v="Murri Street"/>
    <tag k="source" v="GPS"/>
    <tag k="surface" v="paved"/>
  </way>
  <way id="34476750" version="8" timestamp="2012-01-18T21:09:22Z" uid="147510" user="woodpeck_fixbot" changeset="10431441">
    <nd ref="311881589"/>
    <nd ref="311881603"/>
    <nd ref="398041095"/>
    <nd ref="398041098"/>
    <nd ref="398041103"/>
    <nd ref="401081235"/>
    <nd ref="699625768"/>
    <nd ref="401082045"/>
    <nd ref="311881639"/>
    <tag k="highway" v="residential"/>
    <tag k="name" v="Murri Street"/>
    <tag k="source" v="GPS"/>
    <tag k="surface" v="paved"/>
  </way>
  <way id="34476862" version="2" timestamp="2009-08-09T00:21:03Z" uid="4467" user="Rosscoe" changeset="2080651">
    <nd ref="20973485"/>
    <nd ref="398042032"/>
    <tag k="highway" v="residential"/>
    <tag k="name" v="Waratah Avenue"/>
  </way>
  <way id="34476862" version="3" timestamp="2010-07-08T16:39:26Z" uid="74617" user="JohnSmith" changeset="5167338">
    <nd ref="20973485"/>
    <nd ref="398042032"/>
    <tag k="highway" v="residential"/>
    <tag k="maxspeed" v="50"/>
    <tag k="maxspeed:source" v="default residential speed limit in Australia"/>
    <tag k="name" v="Waratah Avenue"/>
  </way>
  <way id="34476862" version="4" timestamp="2012-01-18T21:09:23Z" uid="147510" user="woodpeck_fixbot" changeset="10431441">
    <nd ref="20973485"/>
    <nd ref="398042032"/>
    <tag k="highway" v="residential"/>
    <tag k="name" v="Waratah Avenue"/>
  </way>
  <way id="34476992" version="3" timestamp="2010-07-08T16:39:29Z" uid="74617" user="JohnSmith" changeset="5167338">
    <nd ref="398043025"/>
    <nd ref="20973485"/>
    <nd ref="292225277"/>
    <tag k="highway" v="residential"/>
    <tag k="maxspeed" v="50"/>
    <tag k="maxspeed:source" v="default residential speed limit in Australia"/>
    <tag k="name" v="Warialda Street"/>
    <tag k="source" v="GPS"/>
    <tag k="surface" v="paved"/>
  </way>
  <way id="34476992" version="4" timestamp="2012-01-18T21:09:25Z" uid="147510" user="woodpeck_fixbot" changeset="10431441">
    <nd ref="398043025"/>
    <nd ref="20973485"/>
    <nd ref="292225277"/>
    <tag k="highway" v="residential"/>
    <tag k="name" v="Warialda Street"/>
    <tag k="source" v="GPS"/>
    <tag k="surface" v="paved"/>
  </way>
</osm>
