<?xml version='1.0' encoding='UTF-8'?>
<osm version="0.6" generator="libosmium/2.20.0">
  <way id="34479369" version="2" timestamp="2010-04-12T11:10:17Z" uid="49111" user="Markus B" changeset="4403293">
    <nd ref="128771476"/>
    <nd ref="31167274"/>
    <nd ref="283506952"/>
    <nd ref="283506931"/>
    <nd ref="283506932"/>
    <nd ref="31167277"/>
    <nd ref="283506953"/>
    <nd ref="254743144"/>
    <nd ref="31167280"/>
    <nd ref="694152832"/>
    <nd ref="254746245"/>
    <nd ref="293350475"/>
    <nd ref="31167281"/>
    <tag k="highway" v="tertiary"/>
    <tag k="name" v="Eckenhaider Hauptstraße"/>
    <tag k="ref" v="ERH 11"/>
  </way>
  <way id="34479369" version="3" timestamp="2010-04-12T21:31:27Z" uid="244353" user="Flowzn" changeset="4409167">
    <nd ref="128771476"/>
    <nd ref="31167274"/>
    <nd ref="283506952"/>
    <nd ref="283506931"/>
    <nd ref="283506932"/>
    <nd ref="31167277"/>
    <nd ref="694707804"/>
    <nd ref="283506953"/>
    <nd ref="254743144"/>
    <nd ref="31167280"/>
    <nd ref="694152832"/>
    <nd ref="254746245"/>
    <nd ref="293350475"/>
    <nd ref="31167281"/>
    <tag k="highway" v="tertiary"/>
    <tag k="name" v="Eckenhaider Hauptstraße"/>
    <tag k="ref" v="ERH 11"/>
  </way>
  <way id="34479396" version="7" timestamp="2010-11-16T14:09:12Z" uid="20587" user="balrog-kun" changeset="6385303">
    <nd ref="32335036"/>
    <nd ref="32335038"/>
    <nd ref="289889581"/>
    <nd ref="132490139"/>
    <nd ref="991294816"/>
    <nd ref="32335040"/>
    <tag k="cycleway" v="lane"/>
    <tag k="highway" v="secondary"/>
    <tag k="maxspeed" v="50"/>
    <tag k="name" v="Northumberland Road"/>
    <tag k="name:en" v="Northumberland Road"/>
    <tag k="name:ga" v="Bóthar Nortumbar"/>
    <tag k="ref" v="R118"/>
  </way>
  <way id="34479396" version="8" timestamp="2011-04-26T15:03:00Z" uid="166593" user="Nick Burrett" changeset="7975720">
    <nd ref="32335036"/>
    <nd ref="32335038"/>
    <nd ref="289889581"/>
    <nd ref="132490139"/>
    <nd ref="32335040"/>
    <tag k="cycleway" v="lane"/>
    <tag k="highway" v="secondary"/>
    <tag k="maxspeed" v="50"/>
    <tag k="name" v="Northumberland Road"/>
    <tag k="name:en" v="Northumberland Road"/>
    <tag k="name:ga" v="Bóthar Nortumbar"/>
    <tag k="ref" v="R118"/>
  </way>
  <way id="34479396" version="9" timestamp="2011-04-26T19:43:15Z" uid="166593" user="Nick Burrett" changeset="7978844">
    <nd ref="32335036"/>
    <nd ref="32335038"/>
    <nd ref="289889581"/>
    <nd ref="132490139"/>
    <nd ref="1261227681"/>
    <tag k="cycleway" v="lane"/>
    <tag k="highway" v="secondary"/>
    <tag k="maxspeed" v="50"/>
    <tag k="name" v="Northumberland Road"/>
    <tag k="name:en" v="Northumberland Road"/>
    <tag k="name:ga" v="Bóthar Nortumbar"/>
    <tag k="ref" v="R118"/>
  </way>
  <way id="34479396" version="10" timestamp="2011-09-06T00:10:47Z" uid="6367" user="mackerski" changeset="9223422"/>
  <way id="34479771" version="4" timestamp="2010-09-29T15:37:53Z" uid="49111" user="Markus B" changeset="5912720">
    <nd ref="398146326"/>
    <nd ref="12249960"/>
    <nd ref="12249961"/>
    <nd ref="322704274"/>
    <nd ref="930248339"/>
    <nd ref="930248164"/>
    <nd ref="930248246"/>
    <nd ref="12249963"/>
    <tag k="highway" v="tertiary"/>
  </way>
  <way id="34479771" version="5" timestamp="2011-11-21T06:28:23Z" uid="479256" user="geodreieck4711" changeset="9893472">
    <nd ref="398146326"/>
    <nd ref="1511159541"/>
    <nd ref="12249960"/>
    <nd ref="1511159538"/>
    <nd ref="12249961"/>
    <nd ref="322704274"/>
    <nd ref="930248339"/>
    <nd ref="930248164"/>
    <nd ref="930248246"/>
    <nd ref="12249963"/>
    <tag k="highway" v="tertiary"/>
    <tag k="ref" v="ERH 10"/>
  </way>
  <way id="34479771" version="6" timestamp="2011-11-22T23:50:35Z" uid="479256" user="geodreieck4711" changeset="9915281">
    <nd ref="398146326"/>
    <nd ref="1511159541"/>
    <nd ref="12249960"/>
    <nd ref="1511159538"/>
    <nd ref="12249961"/>
    <nd ref="1513521345"/>
    <nd ref="322704274"/>
    <nd ref="930248339"/>
    <nd ref="930248164"/>
    <nd ref="930248246"/>
    <nd ref="12249963"/>
    <tag k="highway" v="tertiary"/>
    <tag k="ref" v="ERH 10"/>
  </way>
  <way id="34479814" version="1" timestamp="2009-05-14T08:22:30Z" uid="123517" user="Qichina" changeset="1185032">
    <nd ref="398155133"/>
    <nd ref="398155137"/>
    <nd ref="398155141"/>
    <nd ref="398155144"/>
    <nd ref="398155148"/>
    <nd ref="398155152"/>
    <nd ref="398155157"/>
    <tag k="highway" v="unclassified"/>
  </way>
  <way id="34479814" version="2" timestamp="2009-07-19T13:01:39Z" uid="123517" user="Qichina" changeset="1873070">
    <nd ref="398155133"/>
    <nd ref="398155137"/>
    <nd ref="398155141"/>
    <nd ref="398155144"/>
    <nd ref="398155148"/>
    <nd ref="398155152"/>
    <nd ref="398155157"/>
    <tag k="highway" v="unclassified"/>
  </way>
  <way id="34479814" version="3" timestamp="2011-04-20T08:20:42Z" uid="82399" user="kcordina" changeset="7913846">
    <nd ref="398155133"/>
    <nd ref="398155137"/>
    <nd ref="1252208640"/>
    <nd ref="398155141"/>
    <nd ref="398155144"/>
    <nd ref="398155157"/>
    <nd ref="1252208697"/>
    <nd ref="1252208674"/>
    <tag k="highway" v="unclassified"/>
    <tag k="name" v="Borromeo Way"/>
  </way>
  <way id="34479814" version="4" timestamp="2012-01-25T10:40:38Z" uid="57884" user="EdLoach" changeset="10492241"/>
  <way id="34479987" version="8" timestamp="2010-04-05T15:54:53Z" uid="20587" user="balrog-kun" changeset="4334369">
    <nd ref="544144546"/>
    <nd ref="25765977"/>
    <nd ref="176528156"/>
    <nd ref="176528157"/>
    <nd ref="176528158"/>
    <nd ref="176476937"/>
    <nd ref="176528159"/>
    <nd ref="588229168"/>
    <nd ref="176410759"/>
    <nd ref="176528162"/>
    <nd ref="176456310"/>
    <tag k="highway" v="tertiary"/>
    <tag k="history" v="Retrieved from v1"/>
    <tag k="name" v="Pearl Street"/>
    <tag k="name_1" v="Pearl Parkway"/>
    <tag k="tiger:cfcc" v="A45"/>
    <tag k="tiger:county" v="Boulder, CO"/>
    <tag k="tiger:name_base" v="Pearl"/>
    <tag k="tiger:name_base_1" v="Pearl"/>
    <tag k="tiger:name_type" v="St"/>
    <tag k="tiger:name_type_1" v="Pky"/>
    <tag k="tiger:reviewed" v="no"/>
    <tag k="tiger:separated" v="yes"/>
    <tag k="tiger:source" v="tiger_import_dch_v0.6_20070809"/>
    <tag k="tiger:tlid" v="188232576:188232624:188232570:220755711:188232566:220761352:220755712"/>
  </way>
  <way id="34479987" version="9" timestamp="2011-05-30T02:31:19Z" uid="21931" user="amm" changeset="8287730">
    <nd ref="544144546"/>
    <nd ref="25765977"/>
    <nd ref="176528156"/>
    <nd ref="1305395321"/>
    <tag k="highway" v="tertiary"/>
    <tag k="history" v="Retrieved from v1"/>
    <tag k="maxspeed" v="20 mph"/>
    <tag k="name" v="Pearl Street"/>
    <tag k="name_1" v="Pearl Parkway"/>
    <tag k="tiger:cfcc" v="A45"/>
    <tag k="tiger:county" v="Boulder, CO"/>
    <tag k="tiger:name_base" v="Pearl"/>
    <tag k="tiger:name_base_1" v="Pearl"/>
    <tag k="tiger:name_type" v="St"/>
    <tag k="tiger:name_type_1" v="Pky"/>
    <tag k="tiger:reviewed" v="no"/>
    <tag k="tiger:separated" v="yes"/>
    <tag k="tiger:source" v="tiger_import_dch_v0.6_20070809"/>
    <tag k="tiger:tlid" v="188232576:188232624:188232570:220755711:188232566:220761352:220755712"/>
  </way>
  <way id="34479989" version="3" timestamp="2010-04-05T15:54:53Z" uid="20587" user="balrog-kun" changeset="4334369">
    <nd ref="176528131"/>
    <nd ref="176417625"/>
    <nd ref="176528136"/>
    <nd ref="176528146"/>
    <nd ref="176528154"/>
    <tag k="highway" v="pedestrian"/>
    <tag k="history" v="Retrieved from v1"/>
    <tag k="name" v="Pearl Street"/>
    <tag k="name_1" v="Pearl Parkway"/>
    <tag k="tiger:cfcc" v="A45"/>
    <tag k="tiger:county" v="Boulder, CO"/>
    <tag k="tiger:name_base" v="Pearl"/>
    <tag k="tiger:name_base_1" v="Pearl"/>
    <tag k="tiger:name_type" v="St"/>
    <tag k="tiger:name_type_1" v="Pky"/>
    <tag k="tiger:reviewed" v="no"/>
    <tag k="tiger:separated" v="yes"/>
    <tag k="tiger:source" v="tiger_import_dch_v0.6_20070809"/>
    <tag k="tiger:tlid" v="188232576:188232624:188232570:220755711:188232566:220761352:220755712"/>
  </way>
  <way id="34479989" version="4" timestamp="2011-10-04T06:07:42Z" uid="21931" user="amm" changeset="9466450">
    <nd ref="176528131"/>
    <nd ref="176417625"/>
    <nd ref="176528136"/>
    <nd ref="176528146"/>
    <nd ref="25765921"/>
    <tag k="highway" v="pedestrian"/>
    <tag k="history" v="Retrieved from v1"/>
    <tag k="name" v="Pearl Street"/>
    <tag k="name_1" v="Pearl Parkway"/>
    <tag k="tiger:cfcc" v="A45"/>
    <tag k="tiger:county" v="Boulder, CO"/>
    <tag k="tiger:name_base" v="Pearl"/>
    <tag k="tiger:name_base_1" v="Pearl"/>
    <tag k="tiger:name_type" v="St"/>
    <tag k="tiger:name_type_1" v="Pky"/>
    <tag k="tiger:reviewed" v="no"/>
    <tag k="tiger:separated" v="yes"/>
    <tag k="tiger:source" v="tiger_import_dch_v0.6_20070809"/>
    <tag k="tiger:tlid" v="188232576:188232624:188232570:220755711:188232566:220761352:220755712"/>
  </way>
</osm>
