<?xml version='1.0' encoding='UTF-8'?>
<osm version="0.6" generator="libosmium/2.20.0">
  <way id="34557106" version="1" timestamp="2009-05-15T13:06:05Z" uid="43863" user="Rundling" changeset="1199344">
    <nd ref="293883926"/>
    <nd ref="291770242"/>
    <nd ref="400879599"/>
    <nd ref="291770150"/>
    <nd ref="291770151"/>
    <nd ref="400879608"/>
    <nd ref="351719387"/>
    <nd ref="291770152"/>
    <nd ref="291770153"/>
    <nd ref="351719374"/>
    <nd ref="291770154"/>
    <nd ref="400879649"/>
    <nd ref="291770244"/>
    <tag k="created_by" v="Potlatch 0.10b"/>
    <tag k="highway" v="tertiary"/>
    <tag k="ref" v="K 31"/>
  </way>
  <way id="34557106" version="2" timestamp="2009-05-15T13:58:59Z" uid="43863" user="Rundling" changeset="1199932">
    <nd ref="293883926"/>
    <nd ref="291770242"/>
    <nd ref="400879599"/>
    <nd ref="400879608"/>
    <nd ref="351719387"/>
    <nd ref="291770152"/>
    <nd ref="351719374"/>
    <nd ref="291770154"/>
    <nd ref="400879649"/>
    <nd ref="291770244"/>
    <tag k="created_by" v="Potlatch 0.10b"/>
    <tag k="highway" v="tertiary"/>
    <tag k="ref" v="K 31"/>
  </way>
  <way id="34557106" version="3" timestamp="2009-05-22T12:35:12Z" uid="43863" user="Rundling" changeset="1285691">
    <nd ref="293883926"/>
    <nd ref="291770242"/>
    <nd ref="400879599"/>
    <nd ref="400879608"/>
    <nd ref="351719387"/>
    <nd ref="291770152"/>
    <nd ref="351719374"/>
    <nd ref="409646658"/>
    <nd ref="291770154"/>
    <nd ref="400879649"/>
    <nd ref="291770244"/>
    <tag k="created_by" v="Potlatch 0.10b"/>
    <tag k="highway" v="tertiary"/>
    <tag k="ref" v="K 31"/>
  </way>
  <way id="34557106" version="4" timestamp="2009-08-12T20:14:58Z" uid="25729" user="Spongilla" changeset="2123500">
    <nd ref="293883926"/>
    <nd ref="291770242"/>
    <nd ref="400879599"/>
    <nd ref="400879608"/>
    <nd ref="351719387"/>
    <nd ref="291770152"/>
    <nd ref="351719374"/>
    <nd ref="462738501"/>
    <nd ref="409646658"/>
    <nd ref="291770154"/>
    <nd ref="400879649"/>
    <nd ref="291770244"/>
    <tag k="created_by" v="Potlatch 0.10b"/>
    <tag k="highway" v="tertiary"/>
    <tag k="ref" v="K 31"/>
  </way>
  <way id="34557106" version="5" timestamp="2009-12-20T18:32:50Z" uid="87429" user="k4r573n" changeset="3415908">
    <nd ref="293883926"/>
    <nd ref="291770242"/>
    <nd ref="597394937"/>
    <nd ref="400879599"/>
    <nd ref="400879608"/>
    <nd ref="351719387"/>
    <nd ref="291770152"/>
    <nd ref="351719374"/>
    <nd ref="462738501"/>
    <nd ref="409646658"/>
    <nd ref="291770154"/>
    <nd ref="400879649"/>
    <nd ref="291770244"/>
    <tag k="highway" v="tertiary"/>
    <tag k="ref" v="K 31"/>
  </way>
  <way id="34557106" version="6" timestamp="2009-12-25T14:06:00Z" uid="43863" user="Rundling" changeset="3448326">
    <nd ref="293883926"/>
    <nd ref="291770242"/>
    <nd ref="597394937"/>
    <nd ref="400879599"/>
    <nd ref="400879608"/>
    <nd ref="351719387"/>
    <nd ref="291770152"/>
    <nd ref="351719374"/>
    <nd ref="462738501"/>
    <nd ref="409646658"/>
    <nd ref="400879649"/>
    <nd ref="291770244"/>
    <tag k="highway" v="tertiary"/>
    <tag k="ref" v="K 31"/>
  </way>
  <way id="34557106" version="7" timestamp="2010-01-05T21:46:11Z" uid="87429" user="k4r573n" changeset="3549314">
    <nd ref="293883926"/>
    <nd ref="291770242"/>
    <nd ref="597394937"/>
    <tag k="highway" v="tertiary"/>
    <tag k="maxspeed" v="50"/>
    <tag k="ref" v="K 31"/>
  </way>
  <way id="34557835" version="5" timestamp="2009-08-09T00:21:03Z" uid="4467" user="Rosscoe" changeset="2080651">
    <nd ref="401081235"/>
    <nd ref="398041106"/>
    <nd ref="398041108"/>
    <nd ref="398041110"/>
    <tag k="highway" v="residential"/>
    <tag k="name" v="Murri Street"/>
    <tag k="source" v="GPS"/>
    <tag k="surface" v="paved"/>
  </way>
  <way id="34557835" version="6" timestamp="2010-03-30T12:59:05Z" uid="7617" user="Franc" changeset="4276387">
    <nd ref="401081235"/>
    <nd ref="398041106"/>
    <nd ref="678470472"/>
    <nd ref="398041108"/>
    <nd ref="398041110"/>
    <tag k="highway" v="residential"/>
    <tag k="name" v="Murri Street"/>
    <tag k="source" v="GPS"/>
    <tag k="surface" v="paved"/>
  </way>
  <way id="34557835" version="7" timestamp="2010-07-08T16:38:17Z" uid="74617" user="JohnSmith" changeset="5167338">
    <nd ref="401081235"/>
    <nd ref="398041106"/>
    <nd ref="678470472"/>
    <nd ref="398041108"/>
    <nd ref="398041110"/>
    <tag k="highway" v="residential"/>
    <tag k="maxspeed" v="50"/>
    <tag k="maxspeed:source" v="default residential speed limit in Australia"/>
    <tag k="name" v="Murri Street"/>
    <tag k="source" v="GPS"/>
    <tag k="surface" v="paved"/>
  </way>
  <way id="34557835" version="8" timestamp="2012-01-18T21:12:39Z" uid="147510" user="woodpeck_fixbot" changeset="10431441">
    <nd ref="401081235"/>
    <nd ref="398041106"/>
    <nd ref="678470472"/>
    <nd ref="398041108"/>
    <nd ref="398041110"/>
    <tag k="highway" v="residential"/>
    <tag k="name" v="Murri Street"/>
    <tag k="source" v="GPS"/>
    <tag k="surface" v="paved"/>
  </way>
</osm>
