<?xml version='1.0' encoding='UTF-8'?>
<osm version="0.6" generator="libosmium/2.20.0">
  <way id="34754010" version="2" timestamp="2009-12-06T23:34:11Z" uid="200463" user="harmagedon" changeset="3311555">
    <nd ref="299233203"/>
    <nd ref="38423263"/>
    <tag k="highway" v="secondary"/>
    <tag k="maxspeed" v="50"/>
    <tag k="name" v="Neuburger Straße"/>
  </way>
  <way id="34754010" version="3" timestamp="2010-07-19T21:14:22Z" uid="152074" user="beweta" changeset="5265252">
    <nd ref="299233203"/>
    <nd ref="38423263"/>
    <tag k="highway" v="secondary"/>
    <tag k="maxspeed" v="50"/>
    <tag k="name" v="Neuburger Straße"/>
    <tag k="ref" v="St 2110"/>
  </way>
  <way id="34754010" version="4" timestamp="2010-08-20T02:02:25Z" uid="65957" user="Michael_K" changeset="5540397">
    <nd ref="299233203"/>
    <nd ref="38423263"/>
    <tag k="highway" v="secondary"/>
    <tag k="lanes" v="4"/>
    <tag k="maxspeed" v="DE:urban"/>
    <tag k="name" v="Neuburger Straße"/>
    <tag k="ref" v="St 2110"/>
  </way>
  <way id="34754010" version="5" timestamp="2010-09-13T10:35:49Z" uid="104779" user="ABRob" changeset="5768179">
    <nd ref="299233203"/>
    <nd ref="38423263"/>
    <tag k="highway" v="secondary"/>
    <tag k="lanes" v="4"/>
    <tag k="maxspeed" v="50"/>
    <tag k="name" v="Neuburger Straße"/>
    <tag k="ref" v="St 2110"/>
    <tag k="zone:maxspeed" v="DE:urban"/>
    <tag k="zone:traffic" v="DE:urban"/>
  </way>
  <way id="34754010" version="6" timestamp="2011-03-03T19:52:15Z" uid="27223" user="Tordanik" changeset="7448934">
    <nd ref="299233203"/>
    <nd ref="1184794795"/>
    <nd ref="38423263"/>
    <tag k="highway" v="secondary"/>
    <tag k="lanes" v="4"/>
    <tag k="maxspeed" v="50"/>
    <tag k="name" v="Neuburger Straße"/>
    <tag k="ref" v="St 2110"/>
    <tag k="zone:maxspeed" v="DE:urban"/>
    <tag k="zone:traffic" v="DE:urban"/>
  </way>
  <way id="34754010" version="7" timestamp="2011-06-19T07:11:44Z" uid="221374" user="michl_laeufer" changeset="8480564">
    <nd ref="299233203"/>
    <nd ref="1184794795"/>
    <nd ref="38423263"/>
    <tag k="highway" v="tertiary"/>
    <tag k="lanes" v="4"/>
    <tag k="maxspeed" v="50"/>
    <tag k="name" v="Neuburger Straße"/>
    <tag k="ref" v="St 2110"/>
    <tag k="zone:maxspeed" v="DE:urban"/>
    <tag k="zone:traffic" v="DE:urban"/>
  </way>
  <way id="34754010" version="8" timestamp="2011-06-19T07:28:48Z" uid="221374" user="michl_laeufer" changeset="8480676">
    <nd ref="299233203"/>
    <nd ref="1184794795"/>
    <nd ref="38423263"/>
    <tag k="highway" v="tertiary"/>
    <tag k="lanes" v="4"/>
    <tag k="maxspeed" v="50"/>
    <tag k="name" v="Neuburger Straße"/>
    <tag k="zone:maxspeed" v="DE:urban"/>
    <tag k="zone:traffic" v="DE:urban"/>
  </way>
  <way id="34754011" version="2" timestamp="2009-12-06T23:34:13Z" uid="200463" user="harmagedon" changeset="3311555">
    <nd ref="299233204"/>
    <nd ref="38423263"/>
    <tag k="highway" v="secondary"/>
    <tag k="name" v="Danziger Straße"/>
  </way>
  <way id="34754011" version="3" timestamp="2011-03-03T19:05:02Z" uid="27223" user="Tordanik" changeset="7448560">
    <nd ref="299233204"/>
    <nd ref="38423263"/>
    <tag k="highway" v="secondary"/>
    <tag k="name" v="Danziger Straße"/>
    <tag k="surface" v="asphalt"/>
  </way>
  <way id="34754011" version="4" timestamp="2011-03-03T19:52:15Z" uid="27223" user="Tordanik" changeset="7448934">
    <nd ref="299233204"/>
    <nd ref="1184794782"/>
    <nd ref="38423263"/>
    <tag k="highway" v="secondary"/>
    <tag k="name" v="Danziger Straße"/>
    <tag k="surface" v="asphalt"/>
  </way>
  <way id="34754011" version="5" timestamp="2011-06-19T07:28:48Z" uid="221374" user="michl_laeufer" changeset="8480676">
    <nd ref="299233204"/>
    <nd ref="1184794782"/>
    <nd ref="38423263"/>
    <tag k="highway" v="secondary"/>
    <tag k="name" v="Danziger Straße"/>
    <tag k="ref" v="St 2110"/>
    <tag k="surface" v="asphalt"/>
  </way>
  <way id="34754938" version="5" timestamp="2010-07-06T09:48:55Z" uid="74617" user="JohnSmith" changeset="5147679">
    <nd ref="243824443"/>
    <nd ref="775848249"/>
    <nd ref="775848250"/>
    <nd ref="243827608"/>
    <nd ref="775848061"/>
    <nd ref="775848063"/>
    <nd ref="244492713"/>
    <tag k="highway" v="unclassified"/>
    <tag k="maxspeed" v="50"/>
    <tag k="maxspeed:source" v="default residential speed limit in Australia"/>
    <tag k="name" v="Eagleview Place"/>
    <tag k="oneway" v="yes"/>
  </way>
  <way id="34754938" version="6" timestamp="2012-01-18T21:25:18Z" uid="147510" user="woodpeck_fixbot" changeset="10431441">
    <nd ref="243824443"/>
    <nd ref="775848249"/>
    <nd ref="775848250"/>
    <nd ref="243827608"/>
    <nd ref="775848061"/>
    <nd ref="775848063"/>
    <nd ref="244492713"/>
    <tag k="highway" v="unclassified"/>
    <tag k="name" v="Eagleview Place"/>
    <tag k="oneway" v="yes"/>
  </way>
  <way id="34754941" version="10" timestamp="2010-07-06T09:49:47Z" uid="74617" user="JohnSmith" changeset="5147679">
    <nd ref="345104002"/>
    <nd ref="775844633"/>
    <nd ref="775844616"/>
    <nd ref="775844478"/>
    <nd ref="775844479"/>
    <nd ref="775844480"/>
    <nd ref="345103748"/>
    <nd ref="775844481"/>
    <nd ref="345103750"/>
    <nd ref="775844482"/>
    <nd ref="775844483"/>
    <nd ref="775844484"/>
    <nd ref="775844485"/>
    <nd ref="345103751"/>
    <nd ref="775844532"/>
    <nd ref="775844486"/>
    <nd ref="775844535"/>
    <nd ref="775844613"/>
    <nd ref="775844614"/>
    <nd ref="775844615"/>
    <nd ref="775845578"/>
    <nd ref="345104002"/>
    <tag k="highway" v="unclassified"/>
    <tag k="maxspeed" v="50"/>
    <tag k="maxspeed:source" v="default residential speed limit in Australia"/>
    <tag k="name" v="Fison Avenue East"/>
    <tag k="oneway" v="yes"/>
  </way>
  <way id="34754941" version="11" timestamp="2012-01-18T21:25:21Z" uid="147510" user="woodpeck_fixbot" changeset="10431441">
    <nd ref="345104002"/>
    <nd ref="775844633"/>
    <nd ref="775844616"/>
    <nd ref="775844478"/>
    <nd ref="775844479"/>
    <nd ref="775844480"/>
    <nd ref="345103748"/>
    <nd ref="775844481"/>
    <nd ref="345103750"/>
    <nd ref="775844482"/>
    <nd ref="775844483"/>
    <nd ref="775844484"/>
    <nd ref="775844485"/>
    <nd ref="345103751"/>
    <nd ref="775844532"/>
    <nd ref="775844486"/>
    <nd ref="775844535"/>
    <nd ref="775844613"/>
    <nd ref="775844614"/>
    <nd ref="775844615"/>
    <nd ref="775845578"/>
    <nd ref="345104002"/>
    <tag k="highway" v="unclassified"/>
    <tag k="name" v="Fison Avenue East"/>
    <tag k="oneway" v="yes"/>
  </way>
  <way id="34754942" version="3" timestamp="2010-07-06T09:52:51Z" uid="74617" user="JohnSmith" changeset="5147679">
    <nd ref="405340347"/>
    <nd ref="244695026"/>
    <nd ref="243825168"/>
    <nd ref="243827766"/>
    <tag k="highway" v="unclassified"/>
    <tag k="maxspeed" v="50"/>
    <tag k="maxspeed:source" v="default residential speed limit in Australia"/>
    <tag k="name" v="Harvey Street North"/>
    <tag k="oneway" v="yes"/>
  </way>
  <way id="34754942" version="4" timestamp="2012-01-18T21:25:24Z" uid="147510" user="woodpeck_fixbot" changeset="10431441">
    <nd ref="405340347"/>
    <nd ref="244695026"/>
    <nd ref="243825168"/>
    <nd ref="243827766"/>
    <tag k="highway" v="unclassified"/>
    <tag k="name" v="Harvey Street North"/>
    <tag k="oneway" v="yes"/>
  </way>
  <way id="34754943" version="3" timestamp="2010-07-06T09:50:50Z" uid="74617" user="JohnSmith" changeset="5147679">
    <nd ref="243827766"/>
    <nd ref="244492613"/>
    <nd ref="244492573"/>
    <nd ref="405340347"/>
    <tag k="highway" v="unclassified"/>
    <tag k="maxspeed" v="50"/>
    <tag k="maxspeed:source" v="default residential speed limit in Australia"/>
    <tag k="name" v="Harvey Street North"/>
    <tag k="oneway" v="yes"/>
  </way>
  <way id="34754943" version="4" timestamp="2012-01-18T21:25:26Z" uid="147510" user="woodpeck_fixbot" changeset="10431441">
    <nd ref="243827766"/>
    <nd ref="244492613"/>
    <nd ref="244492573"/>
    <nd ref="405340347"/>
    <tag k="highway" v="unclassified"/>
    <tag k="name" v="Harvey Street North"/>
    <tag k="oneway" v="yes"/>
  </way>
  <way id="34754946" version="4" timestamp="2010-07-06T09:51:31Z" uid="74617" user="JohnSmith" changeset="5147679">
    <nd ref="315721340"/>
    <nd ref="405340363"/>
    <nd ref="315721939"/>
    <nd ref="660100612"/>
    <nd ref="660100635"/>
    <nd ref="451518210"/>
    <tag k="highway" v="unclassified"/>
    <tag k="maxspeed" v="50"/>
    <tag k="maxspeed:source" v="default residential speed limit in Australia"/>
  </way>
  <way id="34754946" version="5" timestamp="2012-01-18T21:25:27Z" uid="147510" user="woodpeck_fixbot" changeset="10431441">
    <nd ref="315721340"/>
    <nd ref="405340363"/>
    <nd ref="315721939"/>
    <nd ref="660100612"/>
    <nd ref="660100635"/>
    <nd ref="451518210"/>
    <tag k="highway" v="unclassified"/>
  </way>
  <way id="34754947" version="5" timestamp="2010-07-06T09:48:53Z" uid="74617" user="JohnSmith" changeset="5147679">
    <nd ref="405340366"/>
    <nd ref="316426184"/>
    <nd ref="410182253"/>
    <nd ref="660100622"/>
    <nd ref="660100642"/>
    <nd ref="578659655"/>
    <tag k="highway" v="unclassified"/>
    <tag k="maxspeed" v="50"/>
    <tag k="maxspeed:source" v="default residential speed limit in Australia"/>
    <tag k="name" v="Amy Johnson Place"/>
  </way>
  <way id="34754947" version="6" timestamp="2012-01-18T21:25:32Z" uid="147510" user="woodpeck_fixbot" changeset="10431441">
    <nd ref="405340366"/>
    <nd ref="316426184"/>
    <nd ref="410182253"/>
    <nd ref="660100622"/>
    <nd ref="660100642"/>
    <nd ref="578659655"/>
    <tag k="highway" v="unclassified"/>
    <tag k="name" v="Amy Johnson Place"/>
  </way>
  <way id="34754948" version="4" timestamp="2010-07-06T09:48:31Z" uid="74617" user="JohnSmith" changeset="5147679">
    <nd ref="316425777"/>
    <nd ref="316425778"/>
    <nd ref="316425595"/>
    <nd ref="315721852"/>
    <nd ref="315721854"/>
    <nd ref="315721855"/>
    <tag k="highway" v="unclassified"/>
    <tag k="maxspeed" v="50"/>
    <tag k="maxspeed:source" v="default residential speed limit in Australia"/>
    <tag k="name" v="Taylor Place"/>
    <tag k="oneway" v="yes"/>
  </way>
  <way id="34754948" version="5" timestamp="2012-01-18T21:25:33Z" uid="147510" user="woodpeck_fixbot" changeset="10431441">
    <nd ref="316425777"/>
    <nd ref="316425778"/>
    <nd ref="316425595"/>
    <nd ref="315721852"/>
    <nd ref="315721854"/>
    <nd ref="315721855"/>
    <tag k="highway" v="unclassified"/>
    <tag k="name" v="Taylor Place"/>
    <tag k="oneway" v="yes"/>
  </way>
</osm>
