<?xml version='1.0' encoding='UTF-8'?>
<osm version="0.6" generator="libosmium/2.20.0">
  <way id="34793426" version="2" timestamp="2010-06-29T20:48:33Z" uid="74617" user="JohnSmith" changeset="5109183">
    <nd ref="406862168"/>
    <nd ref="406862170"/>
    <nd ref="406862172"/>
    <nd ref="406862175"/>
    <nd ref="406862182"/>
    <nd ref="406862184"/>
    <nd ref="406862168"/>
    <tag k="fixme" v="sport=rugby is ambiguous, see http://wiki.osm.org/wiki/Tag:sport%3Drugby for more details"/>
    <tag k="leisure" v="pitch"/>
    <tag k="name" v="Strathmore Rugby Club"/>
    <tag k="sport" v="rugby"/>
  </way>
  <way id="34793426" version="3" timestamp="2012-03-07T20:35:50Z" uid="106609" user="Clarinet2" changeset="10903647">
    <nd ref="406862168"/>
    <nd ref="406862170"/>
    <nd ref="406862172"/>
    <nd ref="406862175"/>
    <nd ref="406862182"/>
    <nd ref="406862184"/>
    <nd ref="406862168"/>
    <tag k="leisure" v="pitch"/>
    <tag k="name" v="Strathmore Rugby Club"/>
    <tag k="source" v="survey"/>
    <tag k="sport" v="rugby_union"/>
  </way>
  <way id="34793818" version="2" timestamp="2010-08-18T20:49:23Z" uid="9581" user="Lobelt" changeset="5530542">
    <nd ref="27407368"/>
    <nd ref="867396510"/>
    <nd ref="406871109"/>
    <tag k="highway" v="residential"/>
    <tag k="maxspeed" v="30"/>
    <tag k="name" v="Zum Sportplatz"/>
  </way>
  <way id="34793818" version="3" timestamp="2012-02-08T15:09:39Z" uid="468938" user="Friedel-C" changeset="10625447">
    <nd ref="27407368"/>
    <nd ref="867396510"/>
    <nd ref="406871109"/>
    <tag k="highway" v="residential"/>
    <tag k="lcn" v="yes"/>
    <tag k="maxspeed" v="30"/>
    <tag k="name" v="Zum Sportplatz"/>
  </way>
  <way id="34793818" version="4" timestamp="2012-03-04T14:52:14Z" uid="55687" user="dschuwa" changeset="10869338"/>
</osm>
