<?xml version='1.0' encoding='UTF-8'?>
<osm version="0.6" generator="libosmium/2.20.0">
  <way id="34873013" version="5" timestamp="2010-03-22T06:29:53Z" uid="20587" user="balrog-kun" changeset="4199043">
    <nd ref="408902771"/>
    <nd ref="408902802"/>
    <tag k="bridge" v="yes"/>
    <tag k="comment" v="Named after Sam Baldock."/>
    <tag k="highway" v="motorway"/>
    <tag k="layer" v="1"/>
    <tag k="name" v="Baldock Freeway"/>
    <tag k="name_1" v="Pacific Highway"/>
    <tag k="oneway" v="yes"/>
    <tag k="ref" v="I 5"/>
    <tag k="source:name" v="ODOT"/>
    <tag k="tiger:cfcc" v="A15"/>
    <tag k="tiger:county" v="Lane, OR"/>
    <tag k="tiger:name_base" v="I-5"/>
    <tag k="tiger:name_base_1" v="Pacific"/>
    <tag k="tiger:name_type_1" v="Hwy"/>
    <tag k="tiger:separated" v="yes"/>
    <tag k="tiger:source" v="tiger_import_dch_v0.6_20070808"/>
    <tag k="tiger:tlid" v="178145613:178145614:178211492:178145737"/>
  </way>
  <way id="34873013" version="6" timestamp="2011-02-01T05:30:36Z" uid="373763" user="ylekot" changeset="7151674">
    <nd ref="408902771"/>
    <nd ref="408902802"/>
    <tag k="alt_name" v="Pacific Highway #1"/>
    <tag k="bridge" v="yes"/>
    <tag k="comment" v="Named after Sam Baldock."/>
    <tag k="highway" v="motorway"/>
    <tag k="layer" v="1"/>
    <tag k="name" v="Interstate 5"/>
    <tag k="name_1" v="Pacific Highway"/>
    <tag k="oneway" v="yes"/>
    <tag k="ref" v="I 5"/>
    <tag k="source:name" v="ODOT"/>
    <tag k="tiger:cfcc" v="A15"/>
    <tag k="tiger:county" v="Lane, OR"/>
    <tag k="tiger:name_base" v="I-5"/>
    <tag k="tiger:name_base_1" v="Pacific"/>
    <tag k="tiger:name_type_1" v="Hwy"/>
    <tag k="tiger:separated" v="yes"/>
    <tag k="tiger:source" v="tiger_import_dch_v0.6_20070808"/>
    <tag k="tiger:tlid" v="178145613:178145614:178211492:178145737"/>
  </way>
  <way id="34873013" version="7" timestamp="2011-03-26T01:20:13Z" uid="92286" user="Paul Johnson" changeset="7670923">
    <nd ref="408902771"/>
    <nd ref="408902802"/>
    <tag k="alt_name" v="Pacific Highway #1"/>
    <tag k="bicycle" v="yes"/>
    <tag k="bridge" v="yes"/>
    <tag k="comment" v="Named after Sam Baldock."/>
    <tag k="highway" v="motorway"/>
    <tag k="layer" v="1"/>
    <tag k="name" v="Interstate 5"/>
    <tag k="name_1" v="Pacific Highway"/>
    <tag k="oneway" v="yes"/>
    <tag k="ref" v="I 5"/>
    <tag k="source:name" v="ODOT"/>
    <tag k="tiger:cfcc" v="A15"/>
    <tag k="tiger:county" v="Lane, OR"/>
    <tag k="tiger:name_base" v="I-5"/>
    <tag k="tiger:name_base_1" v="Pacific"/>
    <tag k="tiger:name_type_1" v="Hwy"/>
    <tag k="tiger:separated" v="yes"/>
    <tag k="tiger:source" v="tiger_import_dch_v0.6_20070808"/>
    <tag k="tiger:tlid" v="178145613:178145614:178211492:178145737"/>
  </way>
  <way id="34873013" version="8" timestamp="2011-07-31T13:38:44Z" uid="207745" user="NE2" changeset="8880952">
    <nd ref="408902771"/>
    <nd ref="408902802"/>
    <tag k="alt_name" v="Pacific Highway #1"/>
    <tag k="bicycle" v="yes"/>
    <tag k="bridge" v="yes"/>
    <tag k="comment" v="Named after Sam Baldock."/>
    <tag k="highway" v="motorway"/>
    <tag k="layer" v="1"/>
    <tag k="name" v="Pacific Highway"/>
    <tag k="oneway" v="yes"/>
    <tag k="ref" v="I 5"/>
    <tag k="source:name" v="ODOT"/>
    <tag k="tiger:cfcc" v="A15"/>
    <tag k="tiger:county" v="Lane, OR"/>
    <tag k="tiger:name_base" v="I-5"/>
    <tag k="tiger:name_base_1" v="Pacific"/>
    <tag k="tiger:name_type_1" v="Hwy"/>
    <tag k="tiger:separated" v="yes"/>
    <tag k="tiger:source" v="tiger_import_dch_v0.6_20070808"/>
    <tag k="tiger:tlid" v="178145613:178145614:178211492:178145737"/>
  </way>
  <way id="34873013" version="9" timestamp="2011-08-02T22:19:56Z" uid="207745" user="NE2" changeset="8905725">
    <nd ref="408902771"/>
    <nd ref="408902802"/>
    <tag k="alt_name" v="Pacific Highway #1"/>
    <tag k="bicycle" v="yes"/>
    <tag k="bridge" v="yes"/>
    <tag k="comment" v="Named after Sam Baldock."/>
    <tag k="highway" v="motorway"/>
    <tag k="lanes" v="2"/>
    <tag k="layer" v="1"/>
    <tag k="name" v="Pacific Highway"/>
    <tag k="oneway" v="yes"/>
    <tag k="ref" v="I 5"/>
    <tag k="source:name" v="ODOT"/>
    <tag k="tiger:cfcc" v="A15"/>
    <tag k="tiger:county" v="Lane, OR"/>
    <tag k="tiger:name_base" v="I-5"/>
    <tag k="tiger:name_base_1" v="Pacific"/>
    <tag k="tiger:name_type_1" v="Hwy"/>
    <tag k="tiger:separated" v="yes"/>
    <tag k="tiger:source" v="tiger_import_dch_v0.6_20070808"/>
    <tag k="tiger:tlid" v="178145613:178145614:178211492:178145737"/>
  </way>
  <way id="34873013" version="10" timestamp="2011-11-25T17:18:22Z" uid="207745" user="NE2" changeset="9945867">
    <nd ref="408902771"/>
    <nd ref="408902802"/>
    <tag k="alt_name" v="Pacific Highway #1"/>
    <tag k="bicycle" v="yes"/>
    <tag k="bridge" v="yes"/>
    <tag k="comment" v="Named after Sam Baldock."/>
    <tag k="hgv" v="designated"/>
    <tag k="highway" v="motorway"/>
    <tag k="lanes" v="2"/>
    <tag k="layer" v="1"/>
    <tag k="name" v="Pacific Highway"/>
    <tag k="oneway" v="yes"/>
    <tag k="ref" v="I 5"/>
    <tag k="source:name" v="ODOT"/>
    <tag k="tiger:cfcc" v="A15"/>
    <tag k="tiger:county" v="Lane, OR"/>
    <tag k="tiger:name_base" v="I-5"/>
    <tag k="tiger:name_base_1" v="Pacific"/>
    <tag k="tiger:name_type_1" v="Hwy"/>
    <tag k="tiger:separated" v="yes"/>
    <tag k="tiger:source" v="tiger_import_dch_v0.6_20070808"/>
    <tag k="tiger:tlid" v="178145613:178145614:178211492:178145737"/>
  </way>
  <way id="34873014" version="5" timestamp="2010-03-22T06:29:53Z" uid="20587" user="balrog-kun" changeset="4199043">
    <nd ref="408902802"/>
    <nd ref="408902805"/>
    <tag k="comment" v="Named after Sam Baldock."/>
    <tag k="highway" v="motorway"/>
    <tag k="name" v="Baldock Freeway"/>
    <tag k="name_1" v="Pacific Highway"/>
    <tag k="oneway" v="yes"/>
    <tag k="ref" v="I 5"/>
    <tag k="source:name" v="ODOT"/>
    <tag k="tiger:cfcc" v="A15"/>
    <tag k="tiger:county" v="Lane, OR"/>
    <tag k="tiger:name_base" v="I-5"/>
    <tag k="tiger:name_base_1" v="Pacific"/>
    <tag k="tiger:name_type_1" v="Hwy"/>
    <tag k="tiger:separated" v="yes"/>
    <tag k="tiger:source" v="tiger_import_dch_v0.6_20070808"/>
    <tag k="tiger:tlid" v="178145613:178145614:178211492:178145737"/>
  </way>
  <way id="34873014" version="6" timestamp="2011-02-01T05:30:36Z" uid="373763" user="ylekot" changeset="7151674">
    <nd ref="408902802"/>
    <nd ref="408902805"/>
    <tag k="alt_name" v="Pacific Highway #1"/>
    <tag k="comment" v="Named after Sam Baldock."/>
    <tag k="highway" v="motorway"/>
    <tag k="name" v="Interstate 5"/>
    <tag k="name_1" v="Pacific Highway"/>
    <tag k="oneway" v="yes"/>
    <tag k="ref" v="I 5"/>
    <tag k="source:name" v="ODOT"/>
    <tag k="tiger:cfcc" v="A15"/>
    <tag k="tiger:county" v="Lane, OR"/>
    <tag k="tiger:name_base" v="I-5"/>
    <tag k="tiger:name_base_1" v="Pacific"/>
    <tag k="tiger:name_type_1" v="Hwy"/>
    <tag k="tiger:separated" v="yes"/>
    <tag k="tiger:source" v="tiger_import_dch_v0.6_20070808"/>
    <tag k="tiger:tlid" v="178145613:178145614:178211492:178145737"/>
  </way>
  <way id="34873014" version="7" timestamp="2011-03-26T01:22:44Z" uid="92286" user="Paul Johnson" changeset="7670923">
    <nd ref="408902802"/>
    <nd ref="408902805"/>
    <tag k="alt_name" v="Pacific Highway #1"/>
    <tag k="bicycle" v="yes"/>
    <tag k="comment" v="Named after Sam Baldock."/>
    <tag k="highway" v="motorway"/>
    <tag k="name" v="Interstate 5"/>
    <tag k="name_1" v="Pacific Highway"/>
    <tag k="oneway" v="yes"/>
    <tag k="ref" v="I 5"/>
    <tag k="source:name" v="ODOT"/>
    <tag k="tiger:cfcc" v="A15"/>
    <tag k="tiger:county" v="Lane, OR"/>
    <tag k="tiger:name_base" v="I-5"/>
    <tag k="tiger:name_base_1" v="Pacific"/>
    <tag k="tiger:name_type_1" v="Hwy"/>
    <tag k="tiger:separated" v="yes"/>
    <tag k="tiger:source" v="tiger_import_dch_v0.6_20070808"/>
    <tag k="tiger:tlid" v="178145613:178145614:178211492:178145737"/>
  </way>
  <way id="34873014" version="8" timestamp="2011-07-31T13:39:19Z" uid="207745" user="NE2" changeset="8880952">
    <nd ref="408902802"/>
    <nd ref="408902805"/>
    <tag k="alt_name" v="Pacific Highway #1"/>
    <tag k="bicycle" v="yes"/>
    <tag k="comment" v="Named after Sam Baldock."/>
    <tag k="highway" v="motorway"/>
    <tag k="name" v="Pacific Highway"/>
    <tag k="oneway" v="yes"/>
    <tag k="ref" v="I 5"/>
    <tag k="source:name" v="ODOT"/>
    <tag k="tiger:cfcc" v="A15"/>
    <tag k="tiger:county" v="Lane, OR"/>
    <tag k="tiger:name_base" v="I-5"/>
    <tag k="tiger:name_base_1" v="Pacific"/>
    <tag k="tiger:name_type_1" v="Hwy"/>
    <tag k="tiger:separated" v="yes"/>
    <tag k="tiger:source" v="tiger_import_dch_v0.6_20070808"/>
    <tag k="tiger:tlid" v="178145613:178145614:178211492:178145737"/>
  </way>
  <way id="34873014" version="9" timestamp="2011-08-02T22:19:33Z" uid="207745" user="NE2" changeset="8905725">
    <nd ref="408902802"/>
    <nd ref="408902805"/>
    <tag k="alt_name" v="Pacific Highway #1"/>
    <tag k="bicycle" v="yes"/>
    <tag k="comment" v="Named after Sam Baldock."/>
    <tag k="highway" v="motorway"/>
    <tag k="lanes" v="2"/>
    <tag k="name" v="Pacific Highway"/>
    <tag k="oneway" v="yes"/>
    <tag k="ref" v="I 5"/>
    <tag k="source:name" v="ODOT"/>
    <tag k="tiger:cfcc" v="A15"/>
    <tag k="tiger:county" v="Lane, OR"/>
    <tag k="tiger:name_base" v="I-5"/>
    <tag k="tiger:name_base_1" v="Pacific"/>
    <tag k="tiger:name_type_1" v="Hwy"/>
    <tag k="tiger:separated" v="yes"/>
    <tag k="tiger:source" v="tiger_import_dch_v0.6_20070808"/>
    <tag k="tiger:tlid" v="178145613:178145614:178211492:178145737"/>
  </way>
  <way id="34873014" version="10" timestamp="2011-11-25T17:17:23Z" uid="207745" user="NE2" changeset="9945867">
    <nd ref="408902802"/>
    <nd ref="408902805"/>
    <tag k="alt_name" v="Pacific Highway #1"/>
    <tag k="bicycle" v="yes"/>
    <tag k="comment" v="Named after Sam Baldock."/>
    <tag k="hgv" v="designated"/>
    <tag k="highway" v="motorway"/>
    <tag k="lanes" v="2"/>
    <tag k="name" v="Pacific Highway"/>
    <tag k="oneway" v="yes"/>
    <tag k="ref" v="I 5"/>
    <tag k="source:name" v="ODOT"/>
    <tag k="tiger:cfcc" v="A15"/>
    <tag k="tiger:county" v="Lane, OR"/>
    <tag k="tiger:name_base" v="I-5"/>
    <tag k="tiger:name_base_1" v="Pacific"/>
    <tag k="tiger:name_type_1" v="Hwy"/>
    <tag k="tiger:separated" v="yes"/>
    <tag k="tiger:source" v="tiger_import_dch_v0.6_20070808"/>
    <tag k="tiger:tlid" v="178145613:178145614:178211492:178145737"/>
  </way>
  <way id="34873015" version="5" timestamp="2010-03-22T06:29:53Z" uid="20587" user="balrog-kun" changeset="4199043">
    <nd ref="408902805"/>
    <nd ref="408902808"/>
    <tag k="bridge" v="yes"/>
    <tag k="comment" v="Named after Sam Baldock."/>
    <tag k="highway" v="motorway"/>
    <tag k="layer" v="1"/>
    <tag k="name" v="Baldock Freeway"/>
    <tag k="name_1" v="Pacific Highway"/>
    <tag k="oneway" v="yes"/>
    <tag k="ref" v="I 5"/>
    <tag k="source:name" v="ODOT"/>
    <tag k="tiger:cfcc" v="A15"/>
    <tag k="tiger:county" v="Lane, OR"/>
    <tag k="tiger:name_base" v="I-5"/>
    <tag k="tiger:name_base_1" v="Pacific"/>
    <tag k="tiger:name_type_1" v="Hwy"/>
    <tag k="tiger:separated" v="yes"/>
    <tag k="tiger:source" v="tiger_import_dch_v0.6_20070808"/>
    <tag k="tiger:tlid" v="178145613:178145614:178211492:178145737"/>
  </way>
  <way id="34873015" version="6" timestamp="2011-02-01T05:30:36Z" uid="373763" user="ylekot" changeset="7151674">
    <nd ref="408902805"/>
    <nd ref="408902808"/>
    <tag k="alt_name" v="Pacific Highway #1"/>
    <tag k="bridge" v="yes"/>
    <tag k="comment" v="Named after Sam Baldock."/>
    <tag k="highway" v="motorway"/>
    <tag k="layer" v="1"/>
    <tag k="name" v="Interstate 5"/>
    <tag k="name_1" v="Pacific Highway"/>
    <tag k="oneway" v="yes"/>
    <tag k="ref" v="I 5"/>
    <tag k="source:name" v="ODOT"/>
    <tag k="tiger:cfcc" v="A15"/>
    <tag k="tiger:county" v="Lane, OR"/>
    <tag k="tiger:name_base" v="I-5"/>
    <tag k="tiger:name_base_1" v="Pacific"/>
    <tag k="tiger:name_type_1" v="Hwy"/>
    <tag k="tiger:separated" v="yes"/>
    <tag k="tiger:source" v="tiger_import_dch_v0.6_20070808"/>
    <tag k="tiger:tlid" v="178145613:178145614:178211492:178145737"/>
  </way>
  <way id="34873015" version="7" timestamp="2011-03-26T01:24:55Z" uid="92286" user="Paul Johnson" changeset="7670923">
    <nd ref="408902805"/>
    <nd ref="408902808"/>
    <tag k="alt_name" v="Pacific Highway #1"/>
    <tag k="bicycle" v="yes"/>
    <tag k="bridge" v="yes"/>
    <tag k="comment" v="Named after Sam Baldock."/>
    <tag k="highway" v="motorway"/>
    <tag k="layer" v="1"/>
    <tag k="name" v="Interstate 5"/>
    <tag k="name_1" v="Pacific Highway"/>
    <tag k="oneway" v="yes"/>
    <tag k="ref" v="I 5"/>
    <tag k="source:name" v="ODOT"/>
    <tag k="tiger:cfcc" v="A15"/>
    <tag k="tiger:county" v="Lane, OR"/>
    <tag k="tiger:name_base" v="I-5"/>
    <tag k="tiger:name_base_1" v="Pacific"/>
    <tag k="tiger:name_type_1" v="Hwy"/>
    <tag k="tiger:separated" v="yes"/>
    <tag k="tiger:source" v="tiger_import_dch_v0.6_20070808"/>
    <tag k="tiger:tlid" v="178145613:178145614:178211492:178145737"/>
  </way>
  <way id="34873015" version="8" timestamp="2011-07-31T13:39:08Z" uid="207745" user="NE2" changeset="8880952">
    <nd ref="408902805"/>
    <nd ref="408902808"/>
    <tag k="alt_name" v="Pacific Highway #1"/>
    <tag k="bicycle" v="yes"/>
    <tag k="bridge" v="yes"/>
    <tag k="comment" v="Named after Sam Baldock."/>
    <tag k="highway" v="motorway"/>
    <tag k="layer" v="1"/>
    <tag k="name" v="Pacific Highway"/>
    <tag k="oneway" v="yes"/>
    <tag k="ref" v="I 5"/>
    <tag k="source:name" v="ODOT"/>
    <tag k="tiger:cfcc" v="A15"/>
    <tag k="tiger:county" v="Lane, OR"/>
    <tag k="tiger:name_base" v="I-5"/>
    <tag k="tiger:name_base_1" v="Pacific"/>
    <tag k="tiger:name_type_1" v="Hwy"/>
    <tag k="tiger:separated" v="yes"/>
    <tag k="tiger:source" v="tiger_import_dch_v0.6_20070808"/>
    <tag k="tiger:tlid" v="178145613:178145614:178211492:178145737"/>
  </way>
  <way id="34873015" version="9" timestamp="2011-08-02T22:19:40Z" uid="207745" user="NE2" changeset="8905725">
    <nd ref="408902805"/>
    <nd ref="408902808"/>
    <tag k="alt_name" v="Pacific Highway #1"/>
    <tag k="bicycle" v="yes"/>
    <tag k="bridge" v="yes"/>
    <tag k="comment" v="Named after Sam Baldock."/>
    <tag k="highway" v="motorway"/>
    <tag k="lanes" v="2"/>
    <tag k="layer" v="1"/>
    <tag k="name" v="Pacific Highway"/>
    <tag k="oneway" v="yes"/>
    <tag k="ref" v="I 5"/>
    <tag k="source:name" v="ODOT"/>
    <tag k="tiger:cfcc" v="A15"/>
    <tag k="tiger:county" v="Lane, OR"/>
    <tag k="tiger:name_base" v="I-5"/>
    <tag k="tiger:name_base_1" v="Pacific"/>
    <tag k="tiger:name_type_1" v="Hwy"/>
    <tag k="tiger:separated" v="yes"/>
    <tag k="tiger:source" v="tiger_import_dch_v0.6_20070808"/>
    <tag k="tiger:tlid" v="178145613:178145614:178211492:178145737"/>
  </way>
  <way id="34873015" version="10" timestamp="2011-11-25T17:17:44Z" uid="207745" user="NE2" changeset="9945867">
    <nd ref="408902805"/>
    <nd ref="408902808"/>
    <tag k="alt_name" v="Pacific Highway #1"/>
    <tag k="bicycle" v="yes"/>
    <tag k="bridge" v="yes"/>
    <tag k="comment" v="Named after Sam Baldock."/>
    <tag k="hgv" v="designated"/>
    <tag k="highway" v="motorway"/>
    <tag k="lanes" v="2"/>
    <tag k="layer" v="1"/>
    <tag k="name" v="Pacific Highway"/>
    <tag k="oneway" v="yes"/>
    <tag k="ref" v="I 5"/>
    <tag k="source:name" v="ODOT"/>
    <tag k="tiger:cfcc" v="A15"/>
    <tag k="tiger:county" v="Lane, OR"/>
    <tag k="tiger:name_base" v="I-5"/>
    <tag k="tiger:name_base_1" v="Pacific"/>
    <tag k="tiger:name_type_1" v="Hwy"/>
    <tag k="tiger:separated" v="yes"/>
    <tag k="tiger:source" v="tiger_import_dch_v0.6_20070808"/>
    <tag k="tiger:tlid" v="178145613:178145614:178211492:178145737"/>
  </way>
  <way id="34873016" version="7" timestamp="2010-03-22T06:29:53Z" uid="20587" user="balrog-kun" changeset="4199043">
    <nd ref="408902808"/>
    <nd ref="408902812"/>
    <nd ref="408902813"/>
    <nd ref="408904302"/>
    <nd ref="408904304"/>
    <nd ref="408904305"/>
    <nd ref="408907357"/>
    <tag k="comment" v="Named after Sam Baldock."/>
    <tag k="highway" v="motorway"/>
    <tag k="name" v="Baldock Freeway"/>
    <tag k="name_1" v="Pacific Highway"/>
    <tag k="oneway" v="yes"/>
    <tag k="ref" v="I 5"/>
    <tag k="source:name" v="ODOT"/>
    <tag k="tiger:cfcc" v="A15"/>
    <tag k="tiger:county" v="Lane, OR"/>
    <tag k="tiger:name_base" v="I-5"/>
    <tag k="tiger:name_base_1" v="Pacific"/>
    <tag k="tiger:name_type_1" v="Hwy"/>
    <tag k="tiger:separated" v="yes"/>
    <tag k="tiger:source" v="tiger_import_dch_v0.6_20070808"/>
    <tag k="tiger:tlid" v="178145613:178145614:178211492:178145737"/>
  </way>
  <way id="34873016" version="8" timestamp="2011-02-01T05:30:37Z" uid="373763" user="ylekot" changeset="7151674">
    <nd ref="408902808"/>
    <nd ref="408902812"/>
    <nd ref="408902813"/>
    <nd ref="408904302"/>
    <nd ref="408904304"/>
    <nd ref="408904305"/>
    <nd ref="408907357"/>
    <tag k="alt_name" v="Pacific Highway #1"/>
    <tag k="comment" v="Named after Sam Baldock."/>
    <tag k="highway" v="motorway"/>
    <tag k="name" v="Interstate 5"/>
    <tag k="name_1" v="Pacific Highway"/>
    <tag k="oneway" v="yes"/>
    <tag k="ref" v="I 5"/>
    <tag k="source:name" v="ODOT"/>
    <tag k="tiger:cfcc" v="A15"/>
    <tag k="tiger:county" v="Lane, OR"/>
    <tag k="tiger:name_base" v="I-5"/>
    <tag k="tiger:name_base_1" v="Pacific"/>
    <tag k="tiger:name_type_1" v="Hwy"/>
    <tag k="tiger:separated" v="yes"/>
    <tag k="tiger:source" v="tiger_import_dch_v0.6_20070808"/>
    <tag k="tiger:tlid" v="178145613:178145614:178211492:178145737"/>
  </way>
  <way id="34873016" version="9" timestamp="2011-03-26T01:23:52Z" uid="92286" user="Paul Johnson" changeset="7670923">
    <nd ref="408902808"/>
    <nd ref="408902812"/>
    <nd ref="408902813"/>
    <nd ref="408904302"/>
    <nd ref="408904304"/>
    <nd ref="408904305"/>
    <nd ref="408907357"/>
    <tag k="alt_name" v="Pacific Highway #1"/>
    <tag k="bicycle" v="yes"/>
    <tag k="comment" v="Named after Sam Baldock."/>
    <tag k="highway" v="motorway"/>
    <tag k="name" v="Interstate 5"/>
    <tag k="name_1" v="Pacific Highway"/>
    <tag k="oneway" v="yes"/>
    <tag k="ref" v="I 5"/>
    <tag k="source:name" v="ODOT"/>
    <tag k="tiger:cfcc" v="A15"/>
    <tag k="tiger:county" v="Lane, OR"/>
    <tag k="tiger:name_base" v="I-5"/>
    <tag k="tiger:name_base_1" v="Pacific"/>
    <tag k="tiger:name_type_1" v="Hwy"/>
    <tag k="tiger:separated" v="yes"/>
    <tag k="tiger:source" v="tiger_import_dch_v0.6_20070808"/>
    <tag k="tiger:tlid" v="178145613:178145614:178211492:178145737"/>
  </way>
  <way id="34873016" version="10" timestamp="2011-07-31T13:39:39Z" uid="207745" user="NE2" changeset="8880952">
    <nd ref="408902808"/>
    <nd ref="408902812"/>
    <nd ref="408902813"/>
    <nd ref="408904302"/>
    <nd ref="408904304"/>
    <nd ref="408904305"/>
    <nd ref="408907357"/>
    <tag k="alt_name" v="Pacific Highway #1"/>
    <tag k="bicycle" v="yes"/>
    <tag k="comment" v="Named after Sam Baldock."/>
    <tag k="highway" v="motorway"/>
    <tag k="name" v="Pacific Highway"/>
    <tag k="oneway" v="yes"/>
    <tag k="ref" v="I 5"/>
    <tag k="source:name" v="ODOT"/>
    <tag k="tiger:cfcc" v="A15"/>
    <tag k="tiger:county" v="Lane, OR"/>
    <tag k="tiger:name_base" v="I-5"/>
    <tag k="tiger:name_base_1" v="Pacific"/>
    <tag k="tiger:name_type_1" v="Hwy"/>
    <tag k="tiger:separated" v="yes"/>
    <tag k="tiger:source" v="tiger_import_dch_v0.6_20070808"/>
    <tag k="tiger:tlid" v="178145613:178145614:178211492:178145737"/>
  </way>
  <way id="34873016" version="11" timestamp="2011-08-02T22:20:29Z" uid="207745" user="NE2" changeset="8905725">
    <nd ref="408902808"/>
    <nd ref="408902812"/>
    <nd ref="408902813"/>
    <nd ref="408904302"/>
    <nd ref="408904304"/>
    <nd ref="408904305"/>
    <nd ref="408907357"/>
    <tag k="alt_name" v="Pacific Highway #1"/>
    <tag k="bicycle" v="yes"/>
    <tag k="comment" v="Named after Sam Baldock."/>
    <tag k="highway" v="motorway"/>
    <tag k="lanes" v="2"/>
    <tag k="name" v="Pacific Highway"/>
    <tag k="oneway" v="yes"/>
    <tag k="ref" v="I 5"/>
    <tag k="source:name" v="ODOT"/>
    <tag k="tiger:cfcc" v="A15"/>
    <tag k="tiger:county" v="Lane, OR"/>
    <tag k="tiger:name_base" v="I-5"/>
    <tag k="tiger:name_base_1" v="Pacific"/>
    <tag k="tiger:name_type_1" v="Hwy"/>
    <tag k="tiger:separated" v="yes"/>
    <tag k="tiger:source" v="tiger_import_dch_v0.6_20070808"/>
    <tag k="tiger:tlid" v="178145613:178145614:178211492:178145737"/>
  </way>
  <way id="34873016" version="12" timestamp="2011-11-25T17:19:18Z" uid="207745" user="NE2" changeset="9945867">
    <nd ref="408902808"/>
    <nd ref="408902812"/>
    <nd ref="408902813"/>
    <nd ref="408904302"/>
    <nd ref="408904304"/>
    <nd ref="408904305"/>
    <nd ref="408907357"/>
    <tag k="alt_name" v="Pacific Highway #1"/>
    <tag k="bicycle" v="yes"/>
    <tag k="comment" v="Named after Sam Baldock."/>
    <tag k="hgv" v="designated"/>
    <tag k="highway" v="motorway"/>
    <tag k="lanes" v="2"/>
    <tag k="name" v="Pacific Highway"/>
    <tag k="oneway" v="yes"/>
    <tag k="ref" v="I 5"/>
    <tag k="source:name" v="ODOT"/>
    <tag k="tiger:cfcc" v="A15"/>
    <tag k="tiger:county" v="Lane, OR"/>
    <tag k="tiger:name_base" v="I-5"/>
    <tag k="tiger:name_base_1" v="Pacific"/>
    <tag k="tiger:name_type_1" v="Hwy"/>
    <tag k="tiger:separated" v="yes"/>
    <tag k="tiger:source" v="tiger_import_dch_v0.6_20070808"/>
    <tag k="tiger:tlid" v="178145613:178145614:178211492:178145737"/>
  </way>
  <way id="34873017" version="2" timestamp="2010-03-22T06:29:53Z" uid="20587" user="balrog-kun" changeset="4199043">
    <nd ref="408902816"/>
    <nd ref="40296584"/>
    <tag k="bridge" v="yes"/>
    <tag k="highway" v="residential"/>
    <tag k="layer" v="1"/>
    <tag k="name" v="Bond Butte Drive"/>
    <tag k="name_1" v="Bond Butte Road"/>
    <tag k="tiger:cfcc" v="A41"/>
    <tag k="tiger:county" v="Linn, OR"/>
    <tag k="tiger:name_base" v="Bond Butte"/>
    <tag k="tiger:name_base_1" v="Bond Butte"/>
    <tag k="tiger:reviewed" v="no"/>
    <tag k="tiger:separated" v="no"/>
    <tag k="tiger:source" v="tiger_import_dch_v0.6_20070808"/>
    <tag k="tiger:tlid" v="156077104:156077493:156077108:156087187:156093671:156077232"/>
  </way>
  <way id="34873018" version="2" timestamp="2010-03-22T06:29:54Z" uid="20587" user="balrog-kun" changeset="4199043">
    <nd ref="40296584"/>
    <nd ref="40362285"/>
    <nd ref="40328627"/>
    <tag k="highway" v="residential"/>
    <tag k="name" v="Bond Butte Drive"/>
    <tag k="name_1" v="Bond Butte Road"/>
    <tag k="tiger:cfcc" v="A41"/>
    <tag k="tiger:county" v="Linn, OR"/>
    <tag k="tiger:name_base" v="Bond Butte"/>
    <tag k="tiger:name_base_1" v="Bond Butte"/>
    <tag k="tiger:reviewed" v="no"/>
    <tag k="tiger:separated" v="no"/>
    <tag k="tiger:source" v="tiger_import_dch_v0.6_20070808"/>
    <tag k="tiger:tlid" v="156077104:156077493:156077108:156087187:156093671:156077232"/>
  </way>
  <way id="34873597" version="2" timestamp="2010-03-22T06:29:54Z" uid="20587" user="balrog-kun" changeset="4199043">
    <nd ref="408904358"/>
    <nd ref="40303348"/>
    <nd ref="40281508"/>
    <nd ref="40309084"/>
    <nd ref="40309087"/>
    <nd ref="40309089"/>
    <nd ref="40309093"/>
    <nd ref="40309095"/>
    <nd ref="40309098"/>
    <nd ref="40309101"/>
    <nd ref="40309103"/>
    <nd ref="40309104"/>
    <nd ref="40309106"/>
    <nd ref="40309107"/>
    <nd ref="40309108"/>
    <nd ref="40309109"/>
    <nd ref="40309110"/>
    <nd ref="40309111"/>
    <nd ref="40309113"/>
    <nd ref="40301112"/>
    <tag k="highway" v="residential"/>
    <tag k="name" v="Lake Creek Drive"/>
    <tag k="name_1" v="Lake Creek Road"/>
    <tag k="tiger:cfcc" v="A41"/>
    <tag k="tiger:county" v="Linn, OR"/>
    <tag k="tiger:name_base" v="Lake Creek"/>
    <tag k="tiger:name_base_1" v="Lake Creek"/>
    <tag k="tiger:reviewed" v="no"/>
    <tag k="tiger:separated" v="no"/>
    <tag k="tiger:source" v="tiger_import_dch_v0.6_20070808"/>
    <tag k="tiger:tlid" v="156077068"/>
  </way>
  <way id="34873600" version="2" timestamp="2010-03-22T06:29:54Z" uid="20587" user="balrog-kun" changeset="4199043">
    <nd ref="408904315"/>
    <nd ref="408904358"/>
    <tag k="bridge" v="yes"/>
    <tag k="highway" v="residential"/>
    <tag k="layer" v="1"/>
    <tag k="name" v="Lake Creek Drive"/>
    <tag k="name_1" v="Lake Creek Road"/>
    <tag k="tiger:cfcc" v="A41"/>
    <tag k="tiger:county" v="Linn, OR"/>
    <tag k="tiger:name_base" v="Lake Creek"/>
    <tag k="tiger:name_base_1" v="Lake Creek"/>
    <tag k="tiger:reviewed" v="no"/>
    <tag k="tiger:separated" v="no"/>
    <tag k="tiger:source" v="tiger_import_dch_v0.6_20070808"/>
    <tag k="tiger:tlid" v="156077068"/>
  </way>
  <way id="34873725" version="1" timestamp="2009-05-21T11:47:29Z" uid="7617" user="Franc" changeset="1275200">
    <nd ref="408905207"/>
    <nd ref="408905210"/>
    <nd ref="408905214"/>
    <nd ref="408905216"/>
    <nd ref="408905218"/>
    <nd ref="408905220"/>
    <nd ref="408905231"/>
    <nd ref="408905222"/>
    <nd ref="408905228"/>
    <nd ref="408905224"/>
    <nd ref="408905226"/>
    <nd ref="408905207"/>
    <tag k="landuse" v="recreation_ground"/>
    <tag k="source" v="yahoo_imagery"/>
  </way>
  <way id="34873727" version="1" timestamp="2009-05-21T11:47:29Z" uid="7617" user="Franc" changeset="1275200">
    <nd ref="408905232"/>
    <nd ref="408905234"/>
    <tag k="highway" v="service"/>
    <tag k="source" v="yahoo_imagery"/>
  </way>
  <way id="34873728" version="1" timestamp="2009-05-21T11:47:29Z" uid="7617" user="Franc" changeset="1275200">
    <nd ref="408905236"/>
    <nd ref="408905237"/>
    <nd ref="408905238"/>
    <nd ref="408905239"/>
    <nd ref="408905236"/>
    <tag k="leisure" v="pitch"/>
  </way>
  <way id="34873729" version="1" timestamp="2009-05-21T11:47:29Z" uid="7617" user="Franc" changeset="1275200">
    <nd ref="408905240"/>
    <nd ref="408905241"/>
    <nd ref="408905242"/>
    <nd ref="408905243"/>
    <nd ref="408905240"/>
    <tag k="leisure" v="pitch"/>
  </way>
  <way id="34873730" version="1" timestamp="2009-05-21T11:47:29Z" uid="7617" user="Franc" changeset="1275200">
    <nd ref="40755227"/>
    <nd ref="408905244"/>
    <nd ref="408905245"/>
    <nd ref="408905246"/>
    <nd ref="408905247"/>
    <nd ref="408905248"/>
    <nd ref="185923562"/>
    <tag k="highway" v="residential"/>
    <tag k="source" v="yahoo_imagery"/>
  </way>
  <way id="34873730" version="2" timestamp="2009-07-12T12:52:35Z" uid="7617" user="Franc" changeset="1806804">
    <nd ref="408866155"/>
    <nd ref="408866157"/>
    <nd ref="408866158"/>
    <nd ref="408866161"/>
    <nd ref="40755196"/>
    <nd ref="40755216"/>
    <nd ref="40755227"/>
    <nd ref="408905244"/>
    <nd ref="408905245"/>
    <nd ref="408905246"/>
    <nd ref="408905247"/>
    <nd ref="408905248"/>
    <nd ref="185923562"/>
    <tag k="created_by" v="Potlatch 0.10f"/>
    <tag k="highway" v="residential"/>
    <tag k="name" v="Broadbeach Boulevard"/>
    <tag k="source" v="survey"/>
  </way>
  <way id="34873730" version="3" timestamp="2010-04-30T00:42:59Z" uid="244897" user="M526244" changeset="4562593">
    <nd ref="408866155"/>
    <nd ref="408866157"/>
    <nd ref="408866158"/>
    <nd ref="712779134"/>
    <nd ref="408866161"/>
    <nd ref="712779135"/>
    <nd ref="712779136"/>
    <nd ref="712779137"/>
    <nd ref="712779138"/>
    <nd ref="40755196"/>
    <nd ref="40755216"/>
    <nd ref="40755227"/>
    <nd ref="408905244"/>
    <nd ref="408905245"/>
    <nd ref="408905246"/>
    <nd ref="408905247"/>
    <nd ref="408905248"/>
    <nd ref="185923562"/>
    <tag k="highway" v="residential"/>
    <tag k="name" v="Broadbeach Boulevard"/>
    <tag k="source" v="survey;nearmap"/>
  </way>
  <way id="34873730" version="4" timestamp="2010-04-30T00:52:42Z" uid="244897" user="M526244" changeset="4562660">
    <nd ref="40754664"/>
    <nd ref="408866150"/>
    <nd ref="408866152"/>
    <nd ref="408866153"/>
    <nd ref="408866155"/>
    <nd ref="408866157"/>
    <tag k="highway" v="residential"/>
    <tag k="name" v="Amrick Avenue"/>
    <tag k="source" v="survey;nearmap; survey"/>
  </way>
  <way id="34873730" version="5" timestamp="2010-04-30T01:35:21Z" uid="244897" user="M526244" changeset="4562660"/>
  <way id="34873731" version="1" timestamp="2009-05-21T11:47:29Z" uid="7617" user="Franc" changeset="1275200">
    <nd ref="408905245"/>
    <nd ref="408905249"/>
    <nd ref="408905250"/>
    <tag k="highway" v="residential"/>
    <tag k="source" v="yahoo_imagery"/>
  </way>
  <way id="34873731" version="2" timestamp="2010-04-30T00:42:59Z" uid="244897" user="M526244" changeset="4562593">
    <nd ref="408905245"/>
    <nd ref="408905249"/>
    <nd ref="408905250"/>
    <tag k="highway" v="residential"/>
    <tag k="oneway" v="yes"/>
    <tag k="source" v="yahoo_imagery"/>
  </way>
  <way id="34873731" version="3" timestamp="2010-07-06T17:46:23Z" uid="74617" user="JohnSmith" changeset="5152225">
    <nd ref="408905245"/>
    <nd ref="408905249"/>
    <nd ref="408905250"/>
    <tag k="highway" v="residential"/>
    <tag k="maxspeed" v="50"/>
    <tag k="maxspeed:source" v="default residential speed limit in Australia"/>
    <tag k="oneway" v="yes"/>
    <tag k="source" v="yahoo_imagery"/>
  </way>
  <way id="34873731" version="4" timestamp="2012-01-18T21:41:47Z" uid="147510" user="woodpeck_fixbot" changeset="10431441">
    <nd ref="408905245"/>
    <nd ref="408905249"/>
    <nd ref="408905250"/>
    <tag k="highway" v="residential"/>
    <tag k="oneway" v="yes"/>
    <tag k="source" v="yahoo_imagery"/>
  </way>
  <way id="34873733" version="1" timestamp="2009-05-21T11:47:29Z" uid="7617" user="Franc" changeset="1275200">
    <nd ref="408905251"/>
    <nd ref="408905265"/>
    <nd ref="408905253"/>
    <tag k="highway" v="residential"/>
    <tag k="source" v="yahoo_imagery"/>
  </way>
  <way id="34873733" version="2" timestamp="2009-07-12T12:52:34Z" uid="7617" user="Franc" changeset="1806804">
    <nd ref="408905251"/>
    <nd ref="408905265"/>
    <nd ref="408905253"/>
    <tag k="highway" v="residential"/>
    <tag k="name" v="Federation Avenue"/>
    <tag k="source" v="survey"/>
  </way>
  <way id="34873733" version="3" timestamp="2010-07-06T17:40:03Z" uid="74617" user="JohnSmith" changeset="5152225">
    <nd ref="408905251"/>
    <nd ref="408905265"/>
    <nd ref="408905253"/>
    <tag k="highway" v="residential"/>
    <tag k="maxspeed" v="50"/>
    <tag k="maxspeed:source" v="default residential speed limit in Australia"/>
    <tag k="name" v="Federation Avenue"/>
    <tag k="source" v="survey"/>
  </way>
  <way id="34873733" version="4" timestamp="2012-01-18T21:41:51Z" uid="147510" user="woodpeck_fixbot" changeset="10431441">
    <nd ref="408905251"/>
    <nd ref="408905265"/>
    <nd ref="408905253"/>
    <tag k="highway" v="residential"/>
    <tag k="name" v="Federation Avenue"/>
    <tag k="source" v="survey"/>
  </way>
  <way id="34873734" version="1" timestamp="2009-05-21T11:47:29Z" uid="7617" user="Franc" changeset="1275200">
    <nd ref="408905255"/>
    <nd ref="408905257"/>
    <nd ref="408905259"/>
    <nd ref="408905261"/>
    <nd ref="408905263"/>
    <nd ref="408905265"/>
    <tag k="highway" v="residential"/>
    <tag k="source" v="yahoo_imagery"/>
  </way>
  <way id="34873734" version="2" timestamp="2009-07-12T12:52:35Z" uid="7617" user="Franc" changeset="1806804">
    <nd ref="408905255"/>
    <nd ref="408905257"/>
    <nd ref="408905259"/>
    <nd ref="408905261"/>
    <nd ref="408905263"/>
    <nd ref="408905265"/>
    <tag k="highway" v="residential"/>
    <tag k="name" v="Capricornia Avenue"/>
    <tag k="source" v="survey"/>
  </way>
  <way id="34873734" version="3" timestamp="2009-07-16T12:19:13Z" uid="7617" user="Franc" changeset="1844496">
    <nd ref="408905255"/>
    <nd ref="408905257"/>
    <nd ref="442573105"/>
    <nd ref="408905259"/>
    <nd ref="408905261"/>
    <nd ref="408905263"/>
    <nd ref="408905265"/>
    <tag k="highway" v="residential"/>
    <tag k="name" v="Capricornia Avenue"/>
    <tag k="source" v="survey"/>
  </way>
  <way id="34873734" version="4" timestamp="2010-07-06T17:46:58Z" uid="74617" user="JohnSmith" changeset="5152225">
    <nd ref="408905255"/>
    <nd ref="408905257"/>
    <nd ref="442573105"/>
    <nd ref="408905259"/>
    <nd ref="408905261"/>
    <nd ref="408905263"/>
    <nd ref="408905265"/>
    <tag k="highway" v="residential"/>
    <tag k="maxspeed" v="50"/>
    <tag k="maxspeed:source" v="default residential speed limit in Australia"/>
    <tag k="name" v="Capricornia Avenue"/>
    <tag k="source" v="survey"/>
  </way>
  <way id="34873734" version="5" timestamp="2012-01-18T21:41:56Z" uid="147510" user="woodpeck_fixbot" changeset="10431441">
    <nd ref="408905255"/>
    <nd ref="408905257"/>
    <nd ref="442573105"/>
    <nd ref="408905259"/>
    <nd ref="408905261"/>
    <nd ref="408905263"/>
    <nd ref="408905265"/>
    <tag k="highway" v="residential"/>
    <tag k="name" v="Capricornia Avenue"/>
    <tag k="source" v="survey"/>
  </way>
  <way id="34873735" version="1" timestamp="2009-05-21T11:47:29Z" uid="7617" user="Franc" changeset="1275200">
    <nd ref="408905269"/>
    <nd ref="408905270"/>
    <nd ref="408905272"/>
    <nd ref="408905274"/>
    <nd ref="408905276"/>
    <nd ref="408905278"/>
    <nd ref="408905280"/>
    <nd ref="408905282"/>
    <nd ref="408905269"/>
    <tag k="leisure" v="park"/>
    <tag k="source" v="yahoo_imagery"/>
  </way>
  <way id="34873735" version="2" timestamp="2009-12-18T09:35:22Z" uid="4467" user="Rosscoe" changeset="3399159">
    <nd ref="408905269"/>
    <nd ref="408905270"/>
    <nd ref="408905272"/>
    <nd ref="408905274"/>
    <nd ref="408905276"/>
    <nd ref="408905278"/>
    <nd ref="595562177"/>
    <nd ref="408905280"/>
    <nd ref="408905282"/>
    <nd ref="408905269"/>
    <tag k="leisure" v="park"/>
    <tag k="source" v="yahoo_imagery"/>
  </way>
  <way id="34873737" version="1" timestamp="2009-05-21T11:47:29Z" uid="7617" user="Franc" changeset="1275200">
    <nd ref="263988381"/>
    <nd ref="263988382"/>
    <nd ref="263988383"/>
    <nd ref="263988321"/>
    <nd ref="263988384"/>
    <nd ref="263988385"/>
    <nd ref="263988386"/>
    <nd ref="263988387"/>
    <nd ref="263988440"/>
    <nd ref="263988388"/>
    <nd ref="263988389"/>
    <nd ref="263988390"/>
    <nd ref="263988406"/>
    <tag k="created_by" v="Potlatch 0.9a"/>
    <tag k="highway" v="residential"/>
  </way>
  <way id="34873737" version="2" timestamp="2009-05-26T03:33:15Z" uid="7617" user="Franc" changeset="1322224">
    <nd ref="263988381"/>
    <nd ref="263988382"/>
    <nd ref="263988321"/>
    <nd ref="263988384"/>
    <nd ref="263988385"/>
    <nd ref="263988386"/>
    <nd ref="263988387"/>
    <nd ref="263988440"/>
    <nd ref="263988388"/>
    <nd ref="263988389"/>
    <nd ref="263988390"/>
    <nd ref="263988406"/>
    <tag k="created_by" v="Potlatch 0.9a"/>
    <tag k="highway" v="residential"/>
  </way>
  <way id="34873737" version="3" timestamp="2009-07-14T07:37:32Z" uid="7617" user="Franc" changeset="1824415">
    <nd ref="263988381"/>
    <nd ref="263988382"/>
    <nd ref="263988384"/>
    <nd ref="263988385"/>
    <nd ref="263988386"/>
    <nd ref="263988387"/>
    <nd ref="263988440"/>
    <nd ref="263988388"/>
    <nd ref="263988389"/>
    <nd ref="263988390"/>
    <nd ref="263988406"/>
    <nd ref="263988424"/>
    <nd ref="263988391"/>
    <nd ref="263988392"/>
    <nd ref="263988283"/>
    <tag k="created_by" v="Potlatch 0.9a"/>
    <tag k="highway" v="residential"/>
    <tag k="name" v="Allambi Avenue"/>
  </way>
  <way id="34873737" version="4" timestamp="2010-07-06T17:45:17Z" uid="74617" user="JohnSmith" changeset="5152225">
    <nd ref="263988381"/>
    <nd ref="263988382"/>
    <nd ref="263988384"/>
    <nd ref="263988385"/>
    <nd ref="263988386"/>
    <nd ref="263988387"/>
    <nd ref="263988440"/>
    <nd ref="263988388"/>
    <nd ref="263988389"/>
    <nd ref="263988390"/>
    <nd ref="263988406"/>
    <nd ref="263988424"/>
    <nd ref="263988391"/>
    <nd ref="263988392"/>
    <nd ref="263988283"/>
    <tag k="highway" v="residential"/>
    <tag k="maxspeed" v="50"/>
    <tag k="maxspeed:source" v="default residential speed limit in Australia"/>
    <tag k="name" v="Allambi Avenue"/>
  </way>
  <way id="34873737" version="5" timestamp="2012-01-18T21:42:00Z" uid="147510" user="woodpeck_fixbot" changeset="10431441">
    <nd ref="263988381"/>
    <nd ref="263988382"/>
    <nd ref="263988384"/>
    <nd ref="263988385"/>
    <nd ref="263988386"/>
    <nd ref="263988387"/>
    <nd ref="263988440"/>
    <nd ref="263988388"/>
    <nd ref="263988389"/>
    <nd ref="263988390"/>
    <nd ref="263988406"/>
    <nd ref="263988424"/>
    <nd ref="263988391"/>
    <nd ref="263988392"/>
    <nd ref="263988283"/>
    <tag k="highway" v="residential"/>
    <tag k="name" v="Allambi Avenue"/>
  </way>
  <way id="34873739" version="1" timestamp="2009-05-21T11:47:29Z" uid="7617" user="Franc" changeset="1275200">
    <nd ref="263988406"/>
    <nd ref="263988424"/>
    <nd ref="263988391"/>
    <nd ref="263988392"/>
    <nd ref="263988283"/>
    <tag k="created_by" v="Potlatch 0.9a"/>
    <tag k="highway" v="residential"/>
  </way>
  <way id="34873739" version="2" timestamp="2009-07-14T07:37:33Z" uid="7617" user="Franc" changeset="1824415"/>
  <way id="34873740" version="1" timestamp="2009-05-21T11:47:29Z" uid="7617" user="Franc" changeset="1275200">
    <nd ref="408905441"/>
    <nd ref="408866192"/>
    <nd ref="32184654"/>
    <nd ref="408866190"/>
    <tag k="created_by" v="Potlatch 0.10e"/>
    <tag k="highway" v="residential"/>
    <tag k="name" v="Monaco Street"/>
    <tag k="source:name" v="survey"/>
  </way>
  <way id="34873740" version="2" timestamp="2010-03-01T16:56:50Z" uid="114230" user="danerikk" changeset="4009724">
    <nd ref="408905441"/>
    <nd ref="408866192"/>
    <nd ref="32184654"/>
    <nd ref="408866190"/>
    <tag k="highway" v="residential"/>
    <tag k="name" v="Monaco Street"/>
    <tag k="source:name" v="survey"/>
  </way>
  <way id="34873740" version="3" timestamp="2010-03-01T16:58:31Z" uid="114230" user="danerikk" changeset="4009724">
    <nd ref="408905441"/>
    <nd ref="658463908"/>
    <nd ref="408866192"/>
    <nd ref="32184654"/>
    <nd ref="408866190"/>
    <tag k="highway" v="residential"/>
    <tag k="name" v="Monaco Street"/>
    <tag k="source:name" v="survey"/>
  </way>
  <way id="34873740" version="4" timestamp="2010-07-06T17:45:50Z" uid="74617" user="JohnSmith" changeset="5152225">
    <nd ref="408905441"/>
    <nd ref="658463908"/>
    <nd ref="408866192"/>
    <nd ref="32184654"/>
    <nd ref="408866190"/>
    <tag k="highway" v="residential"/>
    <tag k="maxspeed" v="50"/>
    <tag k="maxspeed:source" v="default residential speed limit in Australia"/>
    <tag k="name" v="Monaco Street"/>
    <tag k="source:name" v="survey"/>
  </way>
  <way id="34873740" version="5" timestamp="2012-01-18T21:42:04Z" uid="147510" user="woodpeck_fixbot" changeset="10431441">
    <nd ref="408905441"/>
    <nd ref="658463908"/>
    <nd ref="408866192"/>
    <nd ref="32184654"/>
    <nd ref="408866190"/>
    <tag k="highway" v="residential"/>
    <tag k="name" v="Monaco Street"/>
    <tag k="source:name" v="survey"/>
  </way>
  <way id="34873741" version="1" timestamp="2009-05-21T11:47:30Z" uid="7617" user="Franc" changeset="1275200">
    <nd ref="408905444"/>
    <nd ref="408905441"/>
    <tag k="bridge" v="yes"/>
    <tag k="created_by" v="Potlatch 0.10e"/>
    <tag k="highway" v="residential"/>
    <tag k="layer" v="1"/>
    <tag k="name" v="Monaco Street"/>
    <tag k="source:name" v="survey"/>
  </way>
  <way id="34873741" version="2" timestamp="2010-07-06T17:43:44Z" uid="74617" user="JohnSmith" changeset="5152225">
    <nd ref="408905444"/>
    <nd ref="408905441"/>
    <tag k="bridge" v="yes"/>
    <tag k="highway" v="residential"/>
    <tag k="layer" v="1"/>
    <tag k="maxspeed" v="50"/>
    <tag k="maxspeed:source" v="default residential speed limit in Australia"/>
    <tag k="name" v="Monaco Street"/>
    <tag k="source:name" v="survey"/>
  </way>
  <way id="34873741" version="3" timestamp="2012-01-18T21:42:06Z" uid="147510" user="woodpeck_fixbot" changeset="10431441">
    <nd ref="408905444"/>
    <nd ref="408905441"/>
    <tag k="bridge" v="yes"/>
    <tag k="highway" v="residential"/>
    <tag k="layer" v="1"/>
    <tag k="name" v="Monaco Street"/>
    <tag k="source:name" v="survey"/>
  </way>
  <way id="34873742" version="1" timestamp="2009-05-21T11:47:30Z" uid="7617" user="Franc" changeset="1275200">
    <nd ref="408905450"/>
    <nd ref="408905454"/>
    <tag k="highway" v="residential"/>
    <tag k="source" v="yahoo_imagery"/>
  </way>
  <way id="34873742" version="2" timestamp="2010-07-06T17:25:08Z" uid="74617" user="JohnSmith" changeset="5152225">
    <nd ref="408905450"/>
    <nd ref="408905454"/>
    <tag k="highway" v="residential"/>
    <tag k="maxspeed" v="50"/>
    <tag k="maxspeed:source" v="default residential speed limit in Australia"/>
    <tag k="source" v="yahoo_imagery"/>
  </way>
  <way id="34873742" version="3" timestamp="2012-01-18T21:42:09Z" uid="147510" user="woodpeck_fixbot" changeset="10431441">
    <nd ref="408905450"/>
    <nd ref="408905454"/>
    <tag k="highway" v="residential"/>
    <tag k="source" v="yahoo_imagery"/>
  </way>
  <way id="34873744" version="1" timestamp="2009-05-21T11:47:30Z" uid="7617" user="Franc" changeset="1275200">
    <nd ref="408905458"/>
    <nd ref="12348667"/>
    <nd ref="12348664"/>
    <tag k="highway" v="residential"/>
    <tag k="name" v="Paradise Island"/>
  </way>
  <way id="34873744" version="2" timestamp="2010-07-06T17:32:38Z" uid="74617" user="JohnSmith" changeset="5152225">
    <nd ref="408905458"/>
    <nd ref="12348667"/>
    <nd ref="12348664"/>
    <tag k="highway" v="residential"/>
    <tag k="maxspeed" v="50"/>
    <tag k="maxspeed:source" v="default residential speed limit in Australia"/>
    <tag k="name" v="Paradise Island"/>
  </way>
  <way id="34873744" version="3" timestamp="2012-01-18T21:42:10Z" uid="147510" user="woodpeck_fixbot" changeset="10431441">
    <nd ref="408905458"/>
    <nd ref="12348667"/>
    <nd ref="12348664"/>
    <tag k="highway" v="residential"/>
    <tag k="name" v="Paradise Island"/>
  </way>
  <way id="34873745" version="1" timestamp="2009-05-21T11:47:30Z" uid="7617" user="Franc" changeset="1275200">
    <nd ref="408905516"/>
    <nd ref="408905519"/>
    <tag k="highway" v="residential"/>
    <tag k="source" v="yahoo_imagery"/>
  </way>
  <way id="34873745" version="2" timestamp="2010-04-30T01:34:57Z" uid="244897" user="M526244" changeset="4562660">
    <nd ref="408905516"/>
    <nd ref="408905519"/>
    <tag k="highway" v="residential"/>
    <tag k="name" v="River Terrace"/>
    <tag k="source" v="yahoo_imagery"/>
  </way>
  <way id="34873745" version="3" timestamp="2010-07-06T17:30:54Z" uid="74617" user="JohnSmith" changeset="5152225">
    <nd ref="408905516"/>
    <nd ref="408905519"/>
    <tag k="highway" v="residential"/>
    <tag k="maxspeed" v="50"/>
    <tag k="maxspeed:source" v="default residential speed limit in Australia"/>
    <tag k="name" v="River Terrace"/>
    <tag k="source" v="yahoo_imagery"/>
  </way>
  <way id="34873745" version="4" timestamp="2012-01-18T21:42:12Z" uid="147510" user="woodpeck_fixbot" changeset="10431441">
    <nd ref="408905516"/>
    <nd ref="408905519"/>
    <tag k="highway" v="residential"/>
    <tag k="name" v="River Terrace"/>
    <tag k="source" v="yahoo_imagery"/>
  </way>
  <way id="34873746" version="1" timestamp="2009-05-21T11:47:30Z" uid="7617" user="Franc" changeset="1275200">
    <nd ref="408905575"/>
    <nd ref="408905590"/>
    <nd ref="408905593"/>
    <nd ref="408905596"/>
    <nd ref="408905599"/>
    <tag k="highway" v="residential"/>
    <tag k="source" v="yahoo_imagery"/>
  </way>
  <way id="34873746" version="2" timestamp="2009-07-16T10:55:52Z" uid="7617" user="Franc" changeset="1843924">
    <nd ref="408905599"/>
    <nd ref="408905596"/>
    <nd ref="408905593"/>
    <nd ref="408905590"/>
    <nd ref="408905575"/>
    <tag k="highway" v="residential"/>
    <tag k="name" v="The Lido"/>
    <tag k="oneway" v="yes"/>
    <tag k="source" v="survey"/>
  </way>
  <way id="34873746" version="3" timestamp="2010-07-06T17:27:16Z" uid="74617" user="JohnSmith" changeset="5152225">
    <nd ref="408905599"/>
    <nd ref="408905596"/>
    <nd ref="408905593"/>
    <nd ref="408905590"/>
    <nd ref="408905575"/>
    <tag k="highway" v="residential"/>
    <tag k="maxspeed" v="50"/>
    <tag k="maxspeed:source" v="default residential speed limit in Australia"/>
    <tag k="name" v="The Lido"/>
    <tag k="oneway" v="yes"/>
    <tag k="source" v="survey"/>
  </way>
  <way id="34873746" version="4" timestamp="2012-01-18T21:42:13Z" uid="147510" user="woodpeck_fixbot" changeset="10431441">
    <nd ref="408905599"/>
    <nd ref="408905596"/>
    <nd ref="408905593"/>
    <nd ref="408905590"/>
    <nd ref="408905575"/>
    <tag k="highway" v="residential"/>
    <tag k="name" v="The Lido"/>
    <tag k="oneway" v="yes"/>
    <tag k="source" v="survey"/>
  </way>
  <way id="34873748" version="1" timestamp="2009-05-21T11:47:30Z" uid="7617" user="Franc" changeset="1275200">
    <nd ref="408905575"/>
    <nd ref="408905572"/>
    <nd ref="39701847"/>
    <nd ref="408905602"/>
    <nd ref="408905605"/>
    <nd ref="39701851"/>
    <tag k="created_by" v="Tways 0.2"/>
    <tag k="highway" v="residential"/>
  </way>
  <way id="34873748" version="2" timestamp="2009-07-16T10:55:51Z" uid="7617" user="Franc" changeset="1843924">
    <nd ref="408905575"/>
    <nd ref="408905572"/>
    <nd ref="39701847"/>
    <nd ref="408905602"/>
    <nd ref="39701851"/>
    <tag k="created_by" v="Tways 0.2"/>
    <tag k="highway" v="residential"/>
    <tag k="name" v="The Lido"/>
    <tag k="source" v="survey"/>
  </way>
  <way id="34873748" version="3" timestamp="2010-07-06T17:31:23Z" uid="74617" user="JohnSmith" changeset="5152225">
    <nd ref="408905575"/>
    <nd ref="408905572"/>
    <nd ref="39701847"/>
    <nd ref="408905602"/>
    <nd ref="39701851"/>
    <tag k="highway" v="residential"/>
    <tag k="maxspeed" v="50"/>
    <tag k="maxspeed:source" v="default residential speed limit in Australia"/>
    <tag k="name" v="The Lido"/>
    <tag k="source" v="survey"/>
  </way>
  <way id="34873748" version="4" timestamp="2012-01-18T21:42:15Z" uid="147510" user="woodpeck_fixbot" changeset="10431441">
    <nd ref="408905575"/>
    <nd ref="408905572"/>
    <nd ref="39701847"/>
    <nd ref="408905602"/>
    <nd ref="39701851"/>
    <tag k="highway" v="residential"/>
    <tag k="name" v="The Lido"/>
    <tag k="source" v="survey"/>
  </way>
  <way id="34873749" version="1" timestamp="2009-05-21T11:47:30Z" uid="7617" user="Franc" changeset="1275200">
    <nd ref="408905659"/>
    <nd ref="408905662"/>
    <nd ref="408905665"/>
    <nd ref="408905667"/>
    <nd ref="408905670"/>
    <nd ref="408905673"/>
    <nd ref="408905676"/>
    <nd ref="408905678"/>
    <nd ref="408905682"/>
    <nd ref="408905684"/>
    <nd ref="408905687"/>
    <nd ref="408905689"/>
    <nd ref="408905692"/>
    <nd ref="408905695"/>
    <nd ref="408905697"/>
    <nd ref="408905701"/>
    <nd ref="408905704"/>
    <nd ref="408905707"/>
    <nd ref="408905710"/>
    <nd ref="408905734"/>
    <nd ref="408905736"/>
    <nd ref="408905739"/>
    <nd ref="408905741"/>
    <nd ref="408905743"/>
    <nd ref="408905745"/>
    <nd ref="408905747"/>
    <nd ref="408905659"/>
    <tag k="natural" v="land"/>
  </way>
  <way id="34873749" version="2" timestamp="2011-11-24T14:31:20Z" uid="338866" user="tiger" changeset="9932369">
    <nd ref="408905659"/>
    <nd ref="408905747"/>
    <nd ref="408905745"/>
    <nd ref="408905743"/>
    <nd ref="408905741"/>
    <nd ref="408905739"/>
    <nd ref="408905736"/>
    <nd ref="408905734"/>
    <nd ref="408905710"/>
    <nd ref="408905707"/>
    <nd ref="408905704"/>
    <nd ref="408905701"/>
    <nd ref="408905697"/>
    <nd ref="408905695"/>
    <nd ref="408905692"/>
    <nd ref="408905689"/>
    <nd ref="408905687"/>
    <nd ref="408905684"/>
    <nd ref="408905682"/>
    <nd ref="408905678"/>
    <nd ref="408905676"/>
    <nd ref="408905673"/>
    <nd ref="408905670"/>
    <nd ref="408905667"/>
    <nd ref="408905665"/>
    <nd ref="408905662"/>
    <nd ref="408905659"/>
    <tag k="natural" v="land"/>
  </way>
  <way id="34873749" version="3" timestamp="2012-03-27T01:12:09Z" uid="349913" user="Peter W34" changeset="11112030"/>
</osm>
