<?xml version='1.0' encoding='UTF-8'?>
<osm version="0.6" generator="libosmium/2.20.0">
  <way id="34876037" version="3" timestamp="2010-03-14T20:40:24Z" uid="163746" user="anti_bot-nonsense" changeset="4128666">
    <nd ref="169580143"/>
    <nd ref="438284568"/>
    <nd ref="192470885"/>
    <nd ref="123978133"/>
    <nd ref="301278916"/>
    <nd ref="314573688"/>
    <nd ref="265224295"/>
    <tag k="highway" v="tertiary"/>
    <tag k="name" v="Bułgarska"/>
  </way>
  <way id="34876037" version="4" timestamp="2010-07-21T14:27:38Z" uid="19417" user="xjr" changeset="5279343">
    <nd ref="438284568"/>
    <nd ref="827568382"/>
    <nd ref="169580143"/>
    <tag k="highway" v="tertiary"/>
    <tag k="name" v="Bułgarska"/>
    <tag k="oneway" v="yes"/>
  </way>
  <way id="34876037" version="5" timestamp="2010-09-25T20:47:05Z" uid="41981" user="deejay1" changeset="5874455">
    <nd ref="438284568"/>
    <nd ref="827568382"/>
    <nd ref="925845283"/>
    <nd ref="169580143"/>
    <tag k="highway" v="tertiary"/>
    <tag k="name" v="Bułgarska"/>
    <tag k="oneway" v="yes"/>
  </way>
  <way id="34876063" version="1" timestamp="2009-05-21T12:53:46Z" uid="20587" user="balrog-kun" changeset="1276078">
    <nd ref="408977238"/>
    <nd ref="408977240"/>
    <tag k="highway" v="living_street"/>
    <tag k="name" v="Orzechowa"/>
  </way>
  <way id="34876064" version="1" timestamp="2009-05-21T12:53:46Z" uid="20587" user="balrog-kun" changeset="1276078">
    <nd ref="324548472"/>
    <nd ref="408977241"/>
    <tag k="highway" v="living_street"/>
  </way>
  <way id="34876065" version="1" timestamp="2009-05-21T12:53:46Z" uid="20587" user="balrog-kun" changeset="1276078">
    <nd ref="408977242"/>
    <nd ref="408977244"/>
    <nd ref="408977245"/>
    <tag k="highway" v="living_street"/>
  </way>
  <way id="34876066" version="1" timestamp="2009-05-21T12:53:46Z" uid="20587" user="balrog-kun" changeset="1276078">
    <nd ref="408977246"/>
    <nd ref="408977247"/>
    <tag k="highway" v="living_street"/>
    <tag k="name" v="Biedronki"/>
  </way>
  <way id="34876067" version="1" timestamp="2009-05-21T12:53:46Z" uid="20587" user="balrog-kun" changeset="1276078">
    <nd ref="408977249"/>
    <nd ref="408977250"/>
    <tag k="highway" v="living_street"/>
    <tag k="name" v="Koźlara"/>
    <tag k="note" v="TODO"/>
  </way>
  <way id="34876068" version="1" timestamp="2009-05-21T12:53:47Z" uid="20587" user="balrog-kun" changeset="1276078">
    <nd ref="408977251"/>
    <nd ref="408977252"/>
    <tag k="highway" v="living_street"/>
    <tag k="name" v="Dębowa"/>
  </way>
  <way id="34876069" version="1" timestamp="2009-05-21T12:53:47Z" uid="20587" user="balrog-kun" changeset="1276078">
    <nd ref="408977254"/>
    <nd ref="408977255"/>
    <nd ref="408977256"/>
    <nd ref="408977257"/>
    <nd ref="408977258"/>
    <tag k="highway" v="service"/>
  </way>
  <way id="34876069" version="2" timestamp="2011-01-26T12:18:30Z" uid="91056" user="Yarl" changeset="7092854">
    <nd ref="408977254"/>
    <nd ref="408977255"/>
    <nd ref="1121645798"/>
    <nd ref="1121645867"/>
    <nd ref="408977256"/>
    <nd ref="408977257"/>
    <nd ref="408977258"/>
    <tag k="highway" v="service"/>
  </way>
  <way id="34876069" version="3" timestamp="2011-05-12T23:22:59Z" uid="100448" user="kietlak" changeset="8127365">
    <nd ref="408977254"/>
    <nd ref="408977255"/>
    <nd ref="1121645798"/>
    <nd ref="1121645867"/>
    <nd ref="408977256"/>
    <nd ref="408977257"/>
    <nd ref="408977258"/>
    <tag k="access" v="private"/>
    <tag k="highway" v="service"/>
  </way>
  <way id="34876069" version="4" timestamp="2011-11-13T21:18:55Z" uid="475943" user="sir-mapalot" changeset="9819383">
    <nd ref="408977254"/>
    <nd ref="408977255"/>
    <nd ref="1121645798"/>
    <nd ref="1121645867"/>
    <nd ref="408977256"/>
    <nd ref="408977257"/>
    <nd ref="408977258"/>
    <nd ref="1502118923"/>
    <tag k="access" v="private"/>
    <tag k="highway" v="service"/>
  </way>
  <way id="34876070" version="1" timestamp="2009-05-21T12:53:47Z" uid="20587" user="balrog-kun" changeset="1276078">
    <nd ref="408977261"/>
    <nd ref="408977273"/>
    <nd ref="408977262"/>
    <nd ref="408977264"/>
    <nd ref="408977265"/>
    <nd ref="408977266"/>
    <nd ref="408977267"/>
    <nd ref="408977269"/>
    <nd ref="408977270"/>
    <tag k="highway" v="living_street"/>
  </way>
  <way id="34876070" version="2" timestamp="2010-04-08T01:37:26Z" uid="20587" user="balrog-kun" changeset="4360552">
    <nd ref="408977261"/>
    <nd ref="688164093"/>
    <nd ref="408977273"/>
    <nd ref="408977262"/>
    <nd ref="408977264"/>
    <nd ref="408977265"/>
    <nd ref="408977266"/>
    <nd ref="408977267"/>
    <nd ref="408977269"/>
    <nd ref="408977270"/>
    <tag k="highway" v="living_street"/>
    <tag k="maxspeed" v="20"/>
  </way>
  <way id="34876070" version="3" timestamp="2011-11-08T12:02:17Z" uid="550476" user="fishcrosser" changeset="9772581">
    <nd ref="1495253043"/>
    <nd ref="1495253030"/>
    <nd ref="688164093"/>
    <nd ref="408977273"/>
    <nd ref="408977262"/>
    <nd ref="408977264"/>
    <nd ref="408977265"/>
    <nd ref="408977266"/>
    <nd ref="408977267"/>
    <nd ref="408977269"/>
    <nd ref="408977270"/>
    <tag k="access" v="yes"/>
    <tag k="bicycle" v="yes"/>
    <tag k="foot" v="yes"/>
    <tag k="highway" v="living_street"/>
    <tag k="maxspeed" v="20"/>
    <tag k="motor_vehicle" v="yes"/>
    <tag k="oneway" v="no"/>
  </way>
  <way id="34876070" version="4" timestamp="2011-12-18T19:10:33Z" uid="550476" user="fishcrosser" changeset="10149711">
    <nd ref="1495253043"/>
    <nd ref="1495253030"/>
    <nd ref="688164093"/>
    <nd ref="408977273"/>
    <nd ref="1552571086"/>
    <nd ref="408977262"/>
    <nd ref="408977264"/>
    <nd ref="408977265"/>
    <nd ref="408977266"/>
    <nd ref="408977267"/>
    <nd ref="408977269"/>
    <nd ref="408977270"/>
    <tag k="access" v="yes"/>
    <tag k="bicycle" v="yes"/>
    <tag k="foot" v="yes"/>
    <tag k="highway" v="living_street"/>
    <tag k="maxspeed" v="20"/>
    <tag k="motor_vehicle" v="yes"/>
    <tag k="oneway" v="no"/>
  </way>
  <way id="34876071" version="1" timestamp="2009-05-21T12:53:47Z" uid="20587" user="balrog-kun" changeset="1276078">
    <nd ref="408977265"/>
    <nd ref="408977271"/>
    <tag k="highway" v="living_street"/>
  </way>
  <way id="34876071" version="2" timestamp="2011-12-18T19:10:34Z" uid="550476" user="fishcrosser" changeset="10149711">
    <nd ref="408977265"/>
    <nd ref="408977271"/>
    <nd ref="1552571069"/>
    <nd ref="1552571100"/>
    <nd ref="1552571006"/>
    <nd ref="1552571213"/>
    <nd ref="1552571180"/>
    <nd ref="1552570919"/>
    <nd ref="1552571232"/>
    <nd ref="1552571093"/>
    <nd ref="1552571088"/>
    <nd ref="408977271"/>
    <tag k="highway" v="living_street"/>
  </way>
  <way id="34876072" version="1" timestamp="2009-05-21T12:53:47Z" uid="20587" user="balrog-kun" changeset="1276078">
    <nd ref="408977273"/>
    <nd ref="408977274"/>
    <nd ref="408977275"/>
    <nd ref="408977276"/>
    <nd ref="408977278"/>
    <nd ref="408977279"/>
    <nd ref="408977280"/>
    <tag k="highway" v="living_street"/>
    <tag k="name" v="Paproci"/>
  </way>
  <way id="34876073" version="1" timestamp="2009-05-21T12:53:47Z" uid="20587" user="balrog-kun" changeset="1276078">
    <nd ref="408977283"/>
    <nd ref="408977285"/>
    <nd ref="408977287"/>
    <nd ref="408977284"/>
    <nd ref="408977283"/>
    <tag k="amenity" v="cityhall"/>
    <tag k="building" v="offices"/>
    <tag k="name" v="Urząd Miasta i Gminy Konstancin"/>
  </way>
  <way id="34876106" version="4" timestamp="2010-03-14T20:35:47Z" uid="163746" user="anti_bot-nonsense" changeset="4128666">
    <nd ref="169580143"/>
    <nd ref="301277757"/>
    <nd ref="169581485"/>
    <nd ref="169581483"/>
    <nd ref="301277662"/>
    <nd ref="408978225"/>
    <tag k="highway" v="tertiary"/>
    <tag k="name" v="Bułgarska"/>
    <tag k="oneway" v="yes"/>
  </way>
  <way id="34876106" version="5" timestamp="2010-04-23T08:32:59Z" uid="245493" user="ChooseN" changeset="4501601">
    <nd ref="169580143"/>
    <nd ref="704328366"/>
    <nd ref="301277757"/>
    <nd ref="169581485"/>
    <nd ref="169581483"/>
    <nd ref="301277662"/>
    <nd ref="408978225"/>
    <tag k="highway" v="tertiary"/>
    <tag k="name" v="Bułgarska"/>
    <tag k="oneway" v="yes"/>
  </way>
  <way id="34876106" version="6" timestamp="2010-07-21T14:27:34Z" uid="19417" user="xjr" changeset="5279343">
    <nd ref="169580143"/>
    <nd ref="704328366"/>
    <nd ref="301277757"/>
    <nd ref="169581485"/>
    <nd ref="301277662"/>
    <nd ref="408978225"/>
    <tag k="highway" v="tertiary"/>
    <tag k="name" v="Bułgarska"/>
    <tag k="oneway" v="yes"/>
  </way>
  <way id="34876106" version="7" timestamp="2010-09-25T20:47:04Z" uid="41981" user="deejay1" changeset="5874455">
    <nd ref="169580143"/>
    <nd ref="925845286"/>
    <nd ref="704328366"/>
    <nd ref="301277757"/>
    <nd ref="169581485"/>
    <nd ref="301277662"/>
    <nd ref="408978225"/>
    <tag k="highway" v="tertiary"/>
    <tag k="name" v="Bułgarska"/>
    <tag k="oneway" v="yes"/>
  </way>
  <way id="34876120" version="2" timestamp="2010-03-14T20:41:37Z" uid="163746" user="anti_bot-nonsense" changeset="4128666">
    <nd ref="301273773"/>
    <nd ref="301273732"/>
    <nd ref="247478491"/>
    <nd ref="247478492"/>
    <nd ref="247478493"/>
    <nd ref="301273911"/>
    <nd ref="247478494"/>
    <nd ref="247478482"/>
    <tag k="highway" v="secondary"/>
    <tag k="name" v="Bukowska"/>
    <tag k="oneway" v="yes"/>
    <tag k="ref" v="307"/>
  </way>
  <way id="34876120" version="3" timestamp="2010-07-21T14:27:37Z" uid="19417" user="xjr" changeset="5279343">
    <nd ref="301273773"/>
    <nd ref="301273732"/>
    <nd ref="247478491"/>
    <nd ref="247478492"/>
    <nd ref="247478493"/>
    <nd ref="301273911"/>
    <nd ref="827568438"/>
    <nd ref="247478482"/>
    <tag k="highway" v="secondary"/>
    <tag k="name" v="Bukowska"/>
    <tag k="oneway" v="yes"/>
    <tag k="ref" v="307"/>
  </way>
  <way id="34876120" version="4" timestamp="2010-07-28T00:42:37Z" uid="88909" user="miko101" changeset="5334567">
    <nd ref="301273773"/>
    <nd ref="301273732"/>
    <nd ref="247478491"/>
    <nd ref="247478492"/>
    <nd ref="247478493"/>
    <nd ref="301273911"/>
    <tag k="highway" v="secondary"/>
    <tag k="name" v="Bukowska"/>
    <tag k="oneway" v="yes"/>
    <tag k="ref" v="307"/>
  </way>
  <way id="34876120" version="5" timestamp="2011-04-12T21:31:52Z" uid="345946" user="sasza" changeset="7847138">
    <nd ref="301273773"/>
    <nd ref="301273732"/>
    <nd ref="247478491"/>
    <nd ref="247478492"/>
    <nd ref="247478493"/>
    <nd ref="1242548606"/>
    <nd ref="1242548607"/>
    <tag k="highway" v="secondary"/>
    <tag k="name" v="Bukowska"/>
    <tag k="oneway" v="yes"/>
    <tag k="ref" v="307"/>
  </way>
  <way id="34876120" version="6" timestamp="2011-08-12T18:00:11Z" uid="72235" user="Basstoelpel" changeset="8998357">
    <nd ref="301273773"/>
    <nd ref="301273732"/>
    <nd ref="247478491"/>
    <nd ref="247478492"/>
    <nd ref="247478493"/>
    <nd ref="1242548606"/>
    <nd ref="1242548607"/>
    <nd ref="1242548593"/>
    <tag k="highway" v="secondary"/>
    <tag k="name" v="Bukowska"/>
    <tag k="oneway" v="yes"/>
    <tag k="ref" v="307"/>
  </way>
  <way id="34876120" version="7" timestamp="2011-11-10T07:12:38Z" uid="345946" user="sasza" changeset="9786723">
    <nd ref="301273773"/>
    <nd ref="301273732"/>
    <nd ref="247478491"/>
    <nd ref="247478492"/>
    <nd ref="247478493"/>
    <nd ref="1242548606"/>
    <nd ref="1242548593"/>
    <tag k="highway" v="secondary"/>
    <tag k="name" v="Bukowska"/>
    <tag k="oneway" v="yes"/>
    <tag k="ref" v="307"/>
  </way>
  <way id="34876171" version="1" timestamp="2009-05-21T12:58:47Z" uid="59758" user="rendle" changeset="1275679">
    <nd ref="408980785"/>
    <nd ref="408980787"/>
    <nd ref="408980789"/>
    <nd ref="408980785"/>
  </way>
  <way id="34876171" version="2" timestamp="2009-05-21T12:59:11Z" uid="59758" user="rendle" changeset="1275679">
    <nd ref="408980785"/>
    <nd ref="408980787"/>
    <nd ref="408980789"/>
    <nd ref="408980785"/>
    <tag k="sport" v="boules"/>
  </way>
  <way id="34876171" version="3" timestamp="2012-01-18T18:47:42Z" uid="138772" user="lodde1949" changeset="10430191"/>
  <way id="34876208" version="1" timestamp="2009-05-21T13:00:43Z" uid="20587" user="balrog-kun" changeset="1276167">
    <nd ref="408981948"/>
    <nd ref="322138902"/>
    <nd ref="322139004"/>
    <tag k="highway" v="footway"/>
  </way>
  <way id="34876208" version="2" timestamp="2009-11-28T11:02:44Z" uid="20587" user="balrog-kun" changeset="3234882">
    <nd ref="408981948"/>
    <nd ref="322138902"/>
    <nd ref="322139004"/>
    <tag k="highway" v="footway"/>
    <tag k="name" v="Źródlana"/>
    <tag k="old_name" v="Konstancja?"/>
  </way>
  <way id="34876208" version="3" timestamp="2011-03-06T20:15:26Z" uid="98542" user="wajak" changeset="7477711">
    <nd ref="408981948"/>
    <nd ref="322138902"/>
    <nd ref="322139004"/>
    <tag k="highway" v="pedestrian"/>
    <tag k="name" v="Źródlana"/>
    <tag k="old_name" v="Konstancja?"/>
  </way>
  <way id="34876209" version="1" timestamp="2009-05-21T13:00:43Z" uid="20587" user="balrog-kun" changeset="1276167">
    <nd ref="408981967"/>
    <nd ref="408981968"/>
    <nd ref="408981970"/>
    <nd ref="408981971"/>
    <tag k="highway" v="service"/>
  </way>
  <way id="34876216" version="2" timestamp="2011-03-27T05:40:42Z" uid="20587" user="balrog-kun" changeset="7682307"/>
  <way id="34876264" version="2" timestamp="2010-03-14T20:54:37Z" uid="163746" user="anti_bot-nonsense" changeset="4128666">
    <nd ref="155507961"/>
    <nd ref="306421715"/>
    <nd ref="306431473"/>
    <nd ref="257546434"/>
    <nd ref="306431472"/>
    <tag k="highway" v="residential"/>
    <tag k="name" v="Szamotulska"/>
  </way>
  <way id="34876264" version="3" timestamp="2011-07-26T17:19:16Z" uid="307277" user="jacenty" changeset="8837804">
    <nd ref="155507961"/>
    <nd ref="1374990705"/>
    <nd ref="306421715"/>
    <nd ref="306431473"/>
    <nd ref="257546434"/>
    <nd ref="306431472"/>
    <tag k="highway" v="residential"/>
    <tag k="name" v="Szamotulska"/>
  </way>
  <way id="34876313" version="2" timestamp="2010-03-14T20:28:36Z" uid="163746" user="anti_bot-nonsense" changeset="4128666">
    <nd ref="282086096"/>
    <nd ref="314633195"/>
    <nd ref="314633210"/>
    <nd ref="314817939"/>
    <nd ref="314633206"/>
    <nd ref="247477918"/>
    <tag k="highway" v="secondary"/>
    <tag k="name" v="Bukowska"/>
    <tag k="ref" v="307"/>
  </way>
  <way id="34876331" version="2" timestamp="2010-03-14T20:57:51Z" uid="163746" user="anti_bot-nonsense" changeset="4128666">
    <nd ref="155507961"/>
    <nd ref="282086096"/>
    <tag k="highway" v="secondary"/>
    <tag k="name" v="Bukowska"/>
    <tag k="ref" v="307"/>
  </way>
  <way id="34876346" version="2" timestamp="2010-07-25T23:28:14Z" uid="4467" user="Rosscoe" changeset="5317533">
    <nd ref="408986299"/>
    <nd ref="97597730"/>
    <tag k="bridge" v="yes"/>
    <tag k="created_by" v="Potlatch 0.4c"/>
    <tag k="highway" v="secondary"/>
    <tag k="layer" v="1"/>
    <tag k="name" v="Plummers Lane"/>
    <tag k="source" v="survey"/>
    <tag k="surface" v="paved"/>
  </way>
  <way id="34876346" version="3" timestamp="2010-11-09T12:43:57Z" uid="67896" user="mrpulley" changeset="6327702">
    <nd ref="408986299"/>
    <nd ref="97597730"/>
    <tag k="bridge" v="yes"/>
    <tag k="highway" v="secondary"/>
    <tag k="layer" v="1"/>
    <tag k="name" v="Plummers Lane"/>
    <tag k="ref" v="T12"/>
    <tag k="source" v="survey"/>
    <tag k="surface" v="paved"/>
  </way>
  <way id="34876348" version="2" timestamp="2010-07-25T23:28:15Z" uid="4467" user="Rosscoe" changeset="5317533">
    <nd ref="97592872"/>
    <nd ref="407924725"/>
    <tag k="bridge" v="yes"/>
    <tag k="created_by" v="Potlatch 0.4c"/>
    <tag k="highway" v="secondary"/>
    <tag k="layer" v="1"/>
    <tag k="name" v="South West Rocks Road"/>
    <tag k="ref" v="T12"/>
  </way>
  <way id="34876348" version="3" timestamp="2010-11-09T12:44:00Z" uid="67896" user="mrpulley" changeset="6327702">
    <nd ref="97592872"/>
    <nd ref="407924725"/>
    <tag k="bridge" v="yes"/>
    <tag k="highway" v="secondary"/>
    <tag k="layer" v="1"/>
    <tag k="name" v="South West Rocks Road"/>
    <tag k="ref" v="T12"/>
  </way>
  <way id="34876351" version="2" timestamp="2010-07-25T23:28:17Z" uid="4467" user="Rosscoe" changeset="5317533">
    <nd ref="407884259"/>
    <nd ref="408986387"/>
    <tag k="access" v="private"/>
    <tag k="bridge" v="yes"/>
    <tag k="highway" v="unclassified"/>
    <tag k="layer" v="1"/>
    <tag k="name" v="Boyters Lane"/>
    <tag k="source" v="extrapolation"/>
  </way>
  <way id="34876353" version="2" timestamp="2010-07-25T23:28:19Z" uid="4467" user="Rosscoe" changeset="5317533">
    <nd ref="97592883"/>
    <nd ref="97592884"/>
    <tag k="bridge" v="yes"/>
    <tag k="created_by" v="Potlatch 0.4c"/>
    <tag k="highway" v="secondary"/>
    <tag k="layer" v="1"/>
    <tag k="name" v="South West Rocks Road"/>
    <tag k="ref" v="T12"/>
    <tag k="surface" v="paved"/>
  </way>
  <way id="34876353" version="3" timestamp="2010-11-09T12:44:01Z" uid="67896" user="mrpulley" changeset="6327702">
    <nd ref="97592883"/>
    <nd ref="97592884"/>
    <tag k="bridge" v="yes"/>
    <tag k="highway" v="secondary"/>
    <tag k="layer" v="1"/>
    <tag k="name" v="South West Rocks Road"/>
    <tag k="ref" v="T12"/>
    <tag k="surface" v="paved"/>
  </way>
  <way id="34876375" version="2" timestamp="2010-07-25T23:28:21Z" uid="4467" user="Rosscoe" changeset="5317533">
    <nd ref="408986625"/>
    <nd ref="408986627"/>
    <nd ref="408986629"/>
    <tag k="bridge" v="yes"/>
    <tag k="highway" v="footway"/>
    <tag k="layer" v="1"/>
    <tag k="name" v="Back Creek Footbridge"/>
    <tag k="source" v="GPS"/>
  </way>
  <way id="34876376" version="2" timestamp="2010-07-25T23:28:23Z" uid="4467" user="Rosscoe" changeset="5317533">
    <nd ref="408986627"/>
    <nd ref="408986631"/>
    <tag k="bridge" v="yes"/>
    <tag k="highway" v="footway"/>
    <tag k="layer" v="1"/>
    <tag k="name" v="Back Creek Footbridge"/>
    <tag k="source" v="GPS"/>
  </way>
  <way id="34876381" version="2" timestamp="2010-07-25T23:28:24Z" uid="4467" user="Rosscoe" changeset="5317533">
    <nd ref="97601239"/>
    <nd ref="408986649"/>
    <tag k="bridge" v="yes"/>
    <tag k="created_by" v="Potlatch 0.4c"/>
    <tag k="highway" v="residential"/>
    <tag k="lanes" v="1"/>
    <tag k="layer" v="1"/>
    <tag k="name" v="New Entrance Road"/>
    <tag k="source" v="GPS"/>
    <tag k="surface" v="paved"/>
  </way>
  <way id="34876386" version="3" timestamp="2010-07-01T16:07:43Z" uid="20587" user="balrog-kun" changeset="5121713">
    <nd ref="314628011"/>
    <nd ref="314625901"/>
    <nd ref="341398186"/>
    <nd ref="314625872"/>
    <nd ref="316268680"/>
    <nd ref="206351465"/>
    <nd ref="514572332"/>
    <nd ref="206351466"/>
    <tag k="highway" v="secondary"/>
    <tag k="maxweight" v="16"/>
    <tag k="name" v="Jana Henryka Dąbrowskiego"/>
  </way>
  <way id="34876386" version="4" timestamp="2011-09-01T09:38:06Z" uid="19417" user="xjr" changeset="9182940">
    <nd ref="314628011"/>
    <nd ref="314625901"/>
    <nd ref="1419925747"/>
    <nd ref="314625872"/>
    <nd ref="206351465"/>
    <nd ref="514572332"/>
    <tag k="highway" v="secondary"/>
    <tag k="maxweight" v="16"/>
    <tag k="name" v="Jana Henryka Dąbrowskiego"/>
  </way>
  <way id="34876386" version="5" timestamp="2011-12-18T20:27:00Z" uid="88909" user="miko101" changeset="10150463">
    <nd ref="314628011"/>
    <nd ref="314625901"/>
    <nd ref="1419925747"/>
    <nd ref="314625872"/>
    <nd ref="1552719464"/>
    <nd ref="206351465"/>
    <nd ref="514572332"/>
    <tag k="highway" v="secondary"/>
    <tag k="maxweight" v="16"/>
    <tag k="name" v="Jana Henryka Dąbrowskiego"/>
  </way>
  <way id="34876595" version="2" timestamp="2010-04-25T17:42:25Z" uid="58091" user="Andreas M" changeset="4524227">
    <nd ref="408991451"/>
    <nd ref="408991522"/>
    <nd ref="408991524"/>
    <nd ref="408991526"/>
    <nd ref="408991528"/>
    <nd ref="408991530"/>
    <nd ref="408991532"/>
    <nd ref="408991534"/>
    <nd ref="408991536"/>
    <nd ref="408991538"/>
    <nd ref="408991540"/>
    <nd ref="408991541"/>
    <nd ref="408991542"/>
    <nd ref="706464958"/>
    <nd ref="408991544"/>
    <nd ref="408991546"/>
    <nd ref="408991548"/>
    <nd ref="408991553"/>
    <nd ref="408991555"/>
    <nd ref="408991557"/>
    <nd ref="408991559"/>
    <nd ref="408991560"/>
    <nd ref="408991472"/>
    <tag k="foot" v="yes"/>
    <tag k="highway" v="footway"/>
  </way>
  <way id="34876595" version="3" timestamp="2010-12-13T18:33:18Z" uid="47064" user="7503146" changeset="6650545">
    <nd ref="408991451"/>
    <nd ref="408991522"/>
    <nd ref="408991524"/>
    <nd ref="408991526"/>
    <nd ref="408991528"/>
    <nd ref="408991530"/>
    <nd ref="408991532"/>
    <nd ref="408991534"/>
    <nd ref="408991536"/>
    <nd ref="408991538"/>
    <nd ref="408991540"/>
    <nd ref="408991541"/>
    <nd ref="408991542"/>
    <nd ref="706464958"/>
    <nd ref="408991544"/>
    <nd ref="408991546"/>
    <nd ref="408991548"/>
    <nd ref="408991553"/>
    <nd ref="408991555"/>
    <nd ref="408991557"/>
    <nd ref="408991559"/>
    <nd ref="408991560"/>
    <nd ref="366608288"/>
    <tag k="foot" v="yes"/>
    <tag k="highway" v="footway"/>
  </way>
  <way id="34876696" version="3" timestamp="2010-09-21T16:52:57Z" uid="164966" user="linuss1" changeset="5838552">
    <nd ref="68666884"/>
    <nd ref="278456828"/>
    <nd ref="275234753"/>
    <nd ref="68666285"/>
    <nd ref="68843235"/>
    <nd ref="408991910"/>
    <nd ref="316878876"/>
    <nd ref="68665493"/>
    <tag k="cycleway" v="lane"/>
    <tag k="highway" v="tertiary"/>
    <tag k="maxspeed" v="50"/>
    <tag k="name" v="Feldstraße"/>
  </way>
  <way id="34876696" version="4" timestamp="2012-01-31T16:20:40Z" uid="208474" user="Joke123" changeset="10550618">
    <nd ref="68666884"/>
    <nd ref="278456828"/>
    <nd ref="275234753"/>
    <nd ref="68666285"/>
    <nd ref="68843235"/>
    <nd ref="408991910"/>
    <nd ref="1613197367"/>
    <nd ref="316878876"/>
    <nd ref="68665493"/>
    <tag k="cycleway" v="lane"/>
    <tag k="highway" v="tertiary"/>
    <tag k="maxspeed" v="50"/>
    <tag k="name" v="Feldstraße"/>
  </way>
  <way id="34876973" version="1" timestamp="2009-05-21T13:16:12Z" uid="20587" user="balrog-kun" changeset="1276326">
    <nd ref="408993444"/>
    <nd ref="408993445"/>
    <nd ref="408993446"/>
    <nd ref="408993447"/>
    <nd ref="408993448"/>
    <nd ref="408993444"/>
    <tag k="amenity" v="school"/>
  </way>
</osm>
