<?xml version='1.0' encoding='UTF-8'?>
<osm version="0.6" generator="libosmium/2.20.0">
  <way id="34897791" version="4" timestamp="2010-08-04T17:46:49Z" uid="9581" user="Lobelt" changeset="5401263">
    <nd ref="244397467"/>
    <nd ref="244397468"/>
    <nd ref="244397469"/>
    <nd ref="244397470"/>
    <nd ref="244397471"/>
    <nd ref="244397472"/>
    <nd ref="244398366"/>
    <nd ref="244399199"/>
    <nd ref="244399251"/>
    <nd ref="244398367"/>
    <nd ref="244399252"/>
    <nd ref="244398368"/>
    <nd ref="363890126"/>
    <nd ref="274858256"/>
    <nd ref="244398369"/>
    <nd ref="363890095"/>
    <nd ref="244398370"/>
    <nd ref="244398371"/>
    <nd ref="244398372"/>
    <nd ref="244398373"/>
    <nd ref="244398374"/>
    <nd ref="244398375"/>
    <nd ref="244398376"/>
    <nd ref="244398377"/>
    <nd ref="244398378"/>
    <tag k="cables" v="12"/>
    <tag k="name" v="380 kV Brauweiler West; Sechtem Nord|Süd; 220 kV Knapsack 2b"/>
    <tag k="operator" v="RWE"/>
    <tag k="power" v="line"/>
    <tag k="ref" v="4101"/>
    <tag k="source" v="yahoo"/>
    <tag k="voltage" v="380000;220000"/>
    <tag k="wires" v="quad"/>
  </way>
  <way id="34897791" version="5" timestamp="2010-08-22T18:22:03Z" uid="92274" user="adjuva" changeset="5563999">
    <nd ref="244397467"/>
    <nd ref="244397468"/>
    <nd ref="244397469"/>
    <nd ref="244397470"/>
    <nd ref="244397471"/>
    <nd ref="244397472"/>
    <nd ref="244398366"/>
    <nd ref="244399199"/>
    <nd ref="244399251"/>
    <nd ref="244398367"/>
    <nd ref="244399252"/>
    <nd ref="244398368"/>
    <nd ref="363890126"/>
    <nd ref="274858256"/>
    <nd ref="244398369"/>
    <nd ref="363890095"/>
    <nd ref="244398370"/>
    <nd ref="244398371"/>
    <nd ref="244398372"/>
    <nd ref="244398373"/>
    <nd ref="244398374"/>
    <nd ref="244398375"/>
    <nd ref="244398376"/>
    <nd ref="244398377"/>
    <nd ref="244398378"/>
    <tag k="cables" v="12"/>
    <tag k="frequency" v="50"/>
    <tag k="name" v="380 kV Brauweiler West; Sechtem Nord|Süd; 220 kV Knapsack 2b"/>
    <tag k="operator" v="RWE"/>
    <tag k="power" v="line"/>
    <tag k="ref" v="4101"/>
    <tag k="source" v="yahoo"/>
    <tag k="voltage" v="380000;220000"/>
    <tag k="wires" v="quad"/>
  </way>
  <way id="34897792" version="10" timestamp="2010-08-04T17:39:40Z" uid="9581" user="Lobelt" changeset="5401263">
    <nd ref="363903401"/>
    <nd ref="244397676"/>
    <nd ref="244397677"/>
    <nd ref="244397678"/>
    <nd ref="244397679"/>
    <nd ref="244397680"/>
    <nd ref="244397681"/>
    <nd ref="409290774"/>
    <nd ref="409290775"/>
    <nd ref="409290776"/>
    <nd ref="409290777"/>
    <nd ref="409290778"/>
    <nd ref="409290779"/>
    <nd ref="409290780"/>
    <nd ref="770019922"/>
    <nd ref="770019936"/>
    <nd ref="770019915"/>
    <nd ref="770019925"/>
    <nd ref="770019908"/>
    <nd ref="770019911"/>
    <nd ref="278390016"/>
    <tag k="cables" v="10"/>
    <tag k="frequency" v="50;16.7"/>
    <tag k="name" v="380 kV Sechtem Nord|Süd; 110 kV Bahnstrom Köln - Sindorf 1|2"/>
    <tag k="operator" v="RWE"/>
    <tag k="operator:2" v="DB_Energie"/>
    <tag k="power" v="line"/>
    <tag k="ref" v="4101"/>
    <tag k="ref:2" v="Köln - Sindorf"/>
    <tag k="source" v="survey"/>
    <tag k="voltage" v="380000;110000"/>
    <tag k="wires" v="quad;single"/>
  </way>
  <way id="34897792" version="11" timestamp="2011-10-13T14:06:21Z" uid="133419" user="dachefte" changeset="9547493">
    <nd ref="363903401"/>
    <nd ref="244397676"/>
    <nd ref="244397677"/>
    <nd ref="244397678"/>
    <nd ref="244397679"/>
    <nd ref="244397681"/>
    <nd ref="409290774"/>
    <nd ref="409290775"/>
    <nd ref="409290776"/>
    <nd ref="409290777"/>
    <nd ref="409290778"/>
    <nd ref="409290779"/>
    <nd ref="409290780"/>
    <nd ref="770019922"/>
    <nd ref="770019936"/>
    <nd ref="770019915"/>
    <nd ref="770019925"/>
    <nd ref="770019908"/>
    <nd ref="770019911"/>
    <nd ref="278390016"/>
    <tag k="cables" v="10"/>
    <tag k="frequency" v="50;16.7"/>
    <tag k="name" v="380 kV Sechtem Nord|Süd; 110 kV Bahnstrom Köln - Sindorf 1|2"/>
    <tag k="operator" v="RWE"/>
    <tag k="operator:2" v="DB_Energie"/>
    <tag k="power" v="line"/>
    <tag k="ref" v="4101"/>
    <tag k="ref:2" v="Köln - Sindorf"/>
    <tag k="source" v="survey"/>
    <tag k="voltage" v="380000;110000"/>
    <tag k="wires" v="quad;single"/>
  </way>
  <way id="34897792" version="12" timestamp="2011-11-21T09:28:29Z" uid="337868" user="robert-t" changeset="9894637">
    <nd ref="363903401"/>
    <nd ref="244397676"/>
    <nd ref="244397677"/>
    <nd ref="244397678"/>
    <nd ref="244397679"/>
    <nd ref="244397681"/>
    <nd ref="409290774"/>
    <nd ref="409290775"/>
    <nd ref="409290776"/>
    <nd ref="409290777"/>
    <nd ref="409290778"/>
    <nd ref="409290779"/>
    <nd ref="409290780"/>
    <nd ref="770019922"/>
    <nd ref="770019936"/>
    <nd ref="770019915"/>
    <nd ref="770019925"/>
    <nd ref="770019908"/>
    <nd ref="770019911"/>
    <nd ref="1511333382"/>
    <nd ref="278390016"/>
    <tag k="cables" v="10"/>
    <tag k="frequency" v="50;16.7"/>
    <tag k="name" v="380 kV Sechtem Nord|Süd; 110 kV Bahnstrom Köln - Sindorf 1|2"/>
    <tag k="operator" v="RWE"/>
    <tag k="operator:2" v="DB_Energie"/>
    <tag k="power" v="line"/>
    <tag k="ref" v="4101"/>
    <tag k="ref:2" v="Köln - Sindorf"/>
    <tag k="source" v="survey"/>
    <tag k="voltage" v="380000;110000"/>
    <tag k="wires" v="quad;single"/>
  </way>
  <way id="34897818" version="3" timestamp="2010-04-02T17:34:50Z" uid="20587" user="balrog-kun" changeset="4304500">
    <nd ref="409290918"/>
    <nd ref="409290919"/>
    <nd ref="53252771"/>
    <nd ref="409290888"/>
    <nd ref="409290891"/>
    <nd ref="409290898"/>
    <nd ref="409290902"/>
    <nd ref="409290904"/>
    <nd ref="409290905"/>
    <nd ref="409290908"/>
    <nd ref="409290909"/>
    <nd ref="409290910"/>
    <nd ref="409290914"/>
    <nd ref="409290917"/>
    <nd ref="409290918"/>
    <tag k="highway" v="residential"/>
    <tag k="name" v="North Riverside Drive"/>
    <tag k="oneway" v="yes"/>
    <tag k="tiger:cfcc" v="A41"/>
    <tag k="tiger:county" v="King, WA"/>
    <tag k="tiger:name_base" v="Riverside"/>
    <tag k="tiger:name_direction_prefix" v="N"/>
    <tag k="tiger:reviewed" v="no"/>
    <tag k="tiger:separated" v="no"/>
    <tag k="tiger:source" v="tiger_import_dch_v0.6_20070830"/>
    <tag k="tiger:tlid" v="186631530"/>
    <tag k="tiger:zip_left" v="98055"/>
    <tag k="tiger:zip_right" v="98055"/>
  </way>
  <way id="34897998" version="1" timestamp="2009-05-21T23:24:50Z" uid="99207" user="Lar Kiesel" changeset="1281300">
    <nd ref="409291661"/>
    <nd ref="409291683"/>
    <nd ref="409291662"/>
    <tag k="highway" v="motorway_link"/>
  </way>
  <way id="34897998" version="2" timestamp="2009-06-14T19:51:43Z" uid="99207" user="Lar Kiesel" changeset="1519066">
    <nd ref="409291661"/>
    <nd ref="409291683"/>
    <nd ref="409291662"/>
    <tag k="highway" v="motorway_link"/>
    <tag k="oneway" v="yes"/>
  </way>
</osm>
