<?xml version='1.0' encoding='UTF-8'?>
<osm version="0.6" generator="libosmium/2.20.0">
  <way id="34900223" version="2" timestamp="2009-09-27T09:09:34Z" uid="12188" user="Babis" changeset="2649861">
    <nd ref="250659268"/>
    <nd ref="250659267"/>
    <nd ref="250659266"/>
    <nd ref="250659265"/>
    <nd ref="250659264"/>
    <nd ref="364338865"/>
    <nd ref="250659263"/>
    <nd ref="250659224"/>
    <tag k="highway" v="residential"/>
    <tag k="name" v="Διαγόρα; Λυκούργου"/>
    <tag k="oneway" v="yes"/>
    <tag k="source" v="GPS"/>
  </way>
  <way id="34900223" version="3" timestamp="2009-09-27T09:09:56Z" uid="12188" user="Babis" changeset="2649861">
    <nd ref="250659268"/>
    <nd ref="250659267"/>
    <nd ref="250659266"/>
    <nd ref="250659265"/>
    <nd ref="250659264"/>
    <nd ref="364338865"/>
    <nd ref="250659263"/>
    <nd ref="250659224"/>
    <tag k="highway" v="residential"/>
    <tag k="oneway" v="yes"/>
    <tag k="source" v="GPS"/>
  </way>
  <way id="34900223" version="4" timestamp="2009-09-27T09:10:04Z" uid="12188" user="Babis" changeset="2649861">
    <nd ref="250659268"/>
    <nd ref="250659267"/>
    <nd ref="250659266"/>
    <nd ref="250659265"/>
    <nd ref="250659264"/>
    <nd ref="364338865"/>
    <nd ref="250659263"/>
    <nd ref="250659224"/>
    <nd ref="250659082"/>
    <tag k="highway" v="residential"/>
    <tag k="oneway" v="yes"/>
    <tag k="source" v="GPS"/>
  </way>
  <way id="34900223" version="5" timestamp="2009-09-27T09:10:05Z" uid="12188" user="Babis" changeset="2649861"/>
  <way id="34900249" version="3" timestamp="2010-03-28T02:06:45Z" uid="20587" user="balrog-kun" changeset="4250871">
    <nd ref="409340626"/>
    <nd ref="409340627"/>
    <tag k="bridge" v="yes"/>
    <tag k="highway" v="motorway"/>
    <tag k="layer" v="3"/>
    <tag k="name" v="Orange Freeway"/>
    <tag k="oneway" v="yes"/>
    <tag k="ref" v="CA 57"/>
    <tag k="tiger:cfcc" v="A15"/>
    <tag k="tiger:county" v="Los Angeles, CA"/>
    <tag k="tiger:name_base" v="Orange"/>
    <tag k="tiger:name_base_1" v="State Highway 57"/>
    <tag k="tiger:name_type" v="Fwy"/>
    <tag k="tiger:separated" v="yes"/>
    <tag k="tiger:source" v="tiger_import_dch_v0.6_20070809"/>
    <tag k="tiger:tlid" v="141806919:141806922:141806925:141806928"/>
  </way>
  <way id="34900249" version="4" timestamp="2010-07-09T21:10:21Z" uid="239998" user="Sundance" changeset="5177154">
    <nd ref="409340626"/>
    <nd ref="409340627"/>
    <tag k="bridge" v="yes"/>
    <tag k="highway" v="motorway"/>
    <tag k="is_in" v="Los Angeles, CA"/>
    <tag k="layer" v="3"/>
    <tag k="name" v="Orange Freeway"/>
    <tag k="name_1" v="State Route 57"/>
    <tag k="oneway" v="yes"/>
    <tag k="ref" v="CA 57"/>
  </way>
  <way id="34900249" version="5" timestamp="2011-07-29T05:22:32Z" uid="207745" user="NE2" changeset="8860294">
    <nd ref="409340626"/>
    <nd ref="409340627"/>
    <tag k="bridge" v="yes"/>
    <tag k="highway" v="motorway"/>
    <tag k="is_in" v="Los Angeles, CA"/>
    <tag k="lanes" v="3"/>
    <tag k="layer" v="3"/>
    <tag k="name" v="Orange Freeway"/>
    <tag k="oneway" v="yes"/>
    <tag k="ref" v="CA 57"/>
  </way>
  <way id="34900249" version="6" timestamp="2011-11-25T14:47:32Z" uid="207745" user="NE2" changeset="9943893">
    <nd ref="409340626"/>
    <nd ref="409340627"/>
    <tag k="bridge" v="yes"/>
    <tag k="hgv:national_network" v="yes"/>
    <tag k="highway" v="motorway"/>
    <tag k="is_in" v="Los Angeles, CA"/>
    <tag k="lanes" v="3"/>
    <tag k="layer" v="3"/>
    <tag k="name" v="Orange Freeway"/>
    <tag k="oneway" v="yes"/>
    <tag k="ref" v="CA 57"/>
    <tag k="source:hgv:national_network" v="Title 23: Highways Part 658 http://ecfr.gpoaccess.gov/cgi/t/text/text-idx?c=ecfr&amp;rgn=div5&amp;view=text&amp;node=23:1.0.1.7.33&amp;idno=23"/>
  </way>
  <way id="34900249" version="7" timestamp="2011-11-25T17:16:08Z" uid="207745" user="NE2" changeset="9945963">
    <nd ref="409340626"/>
    <nd ref="409340627"/>
    <tag k="bridge" v="yes"/>
    <tag k="hgv" v="designated"/>
    <tag k="hgv:national_network" v="yes"/>
    <tag k="highway" v="motorway"/>
    <tag k="is_in" v="Los Angeles, CA"/>
    <tag k="lanes" v="3"/>
    <tag k="layer" v="3"/>
    <tag k="name" v="Orange Freeway"/>
    <tag k="oneway" v="yes"/>
    <tag k="ref" v="CA 57"/>
    <tag k="source:hgv:national_network" v="Title 23: Highways Part 658 http://ecfr.gpoaccess.gov/cgi/t/text/text-idx?c=ecfr&amp;rgn=div5&amp;view=text&amp;node=23:1.0.1.7.33&amp;idno=23"/>
  </way>
  <way id="34900249" version="8" timestamp="2012-03-26T11:46:34Z" uid="28775" user="StellanL" changeset="11105018"/>
  <way id="34900250" version="3" timestamp="2010-03-28T02:06:45Z" uid="20587" user="balrog-kun" changeset="4250871">
    <nd ref="409340627"/>
    <nd ref="409340622"/>
    <nd ref="394928578"/>
    <tag k="highway" v="motorway"/>
    <tag k="name" v="Orange Freeway"/>
    <tag k="oneway" v="yes"/>
    <tag k="ref" v="CA 57"/>
    <tag k="tiger:cfcc" v="A15"/>
    <tag k="tiger:county" v="Los Angeles, CA"/>
    <tag k="tiger:name_base" v="Orange"/>
    <tag k="tiger:name_base_1" v="State Highway 57"/>
    <tag k="tiger:name_type" v="Fwy"/>
    <tag k="tiger:separated" v="yes"/>
    <tag k="tiger:source" v="tiger_import_dch_v0.6_20070809"/>
    <tag k="tiger:tlid" v="141806919:141806922:141806925:141806928"/>
  </way>
  <way id="34900250" version="4" timestamp="2010-07-09T21:10:22Z" uid="239998" user="Sundance" changeset="5177154">
    <nd ref="409340627"/>
    <nd ref="409340622"/>
    <nd ref="394928578"/>
    <tag k="highway" v="motorway"/>
    <tag k="is_in" v="Los Angeles, CA"/>
    <tag k="name" v="Orange Freeway"/>
    <tag k="name_1" v="State Route 57"/>
    <tag k="oneway" v="yes"/>
    <tag k="ref" v="CA 57"/>
  </way>
  <way id="34900250" version="5" timestamp="2011-07-29T05:22:39Z" uid="207745" user="NE2" changeset="8860294">
    <nd ref="409340627"/>
    <nd ref="409340622"/>
    <nd ref="394928578"/>
    <tag k="highway" v="motorway"/>
    <tag k="is_in" v="Los Angeles, CA"/>
    <tag k="lanes" v="3"/>
    <tag k="name" v="Orange Freeway"/>
    <tag k="oneway" v="yes"/>
    <tag k="ref" v="CA 57"/>
  </way>
  <way id="34900250" version="6" timestamp="2011-11-25T14:47:39Z" uid="207745" user="NE2" changeset="9943893">
    <nd ref="409340627"/>
    <nd ref="409340622"/>
    <nd ref="394928578"/>
    <tag k="hgv:national_network" v="yes"/>
    <tag k="highway" v="motorway"/>
    <tag k="is_in" v="Los Angeles, CA"/>
    <tag k="lanes" v="3"/>
    <tag k="name" v="Orange Freeway"/>
    <tag k="oneway" v="yes"/>
    <tag k="ref" v="CA 57"/>
    <tag k="source:hgv:national_network" v="Title 23: Highways Part 658 http://ecfr.gpoaccess.gov/cgi/t/text/text-idx?c=ecfr&amp;rgn=div5&amp;view=text&amp;node=23:1.0.1.7.33&amp;idno=23"/>
  </way>
  <way id="34900250" version="7" timestamp="2011-11-25T17:16:28Z" uid="207745" user="NE2" changeset="9945963">
    <nd ref="409340627"/>
    <nd ref="409340622"/>
    <nd ref="394928578"/>
    <tag k="hgv" v="designated"/>
    <tag k="hgv:national_network" v="yes"/>
    <tag k="highway" v="motorway"/>
    <tag k="is_in" v="Los Angeles, CA"/>
    <tag k="lanes" v="3"/>
    <tag k="name" v="Orange Freeway"/>
    <tag k="oneway" v="yes"/>
    <tag k="ref" v="CA 57"/>
    <tag k="source:hgv:national_network" v="Title 23: Highways Part 658 http://ecfr.gpoaccess.gov/cgi/t/text/text-idx?c=ecfr&amp;rgn=div5&amp;view=text&amp;node=23:1.0.1.7.33&amp;idno=23"/>
  </way>
  <way id="34900250" version="8" timestamp="2012-03-26T11:46:35Z" uid="28775" user="StellanL" changeset="11105018"/>
  <way id="34900265" version="3" timestamp="2010-03-28T02:06:46Z" uid="20587" user="balrog-kun" changeset="4250871">
    <nd ref="409376048"/>
    <nd ref="409376024"/>
    <tag k="bridge" v="yes"/>
    <tag k="highway" v="motorway"/>
    <tag k="layer" v="1"/>
    <tag k="name" v="Chino Valley Freeway"/>
    <tag k="oneway" v="yes"/>
    <tag k="ref" v="CA 71"/>
  </way>
  <way id="34900265" version="4" timestamp="2011-07-29T09:25:29Z" uid="207745" user="NE2" changeset="8861519">
    <nd ref="409376048"/>
    <nd ref="409376024"/>
    <tag k="bridge" v="yes"/>
    <tag k="highway" v="motorway"/>
    <tag k="lanes" v="3"/>
    <tag k="layer" v="1"/>
    <tag k="name" v="Chino Valley Freeway"/>
    <tag k="oneway" v="yes"/>
    <tag k="ref" v="CA 71"/>
  </way>
  <way id="34900265" version="5" timestamp="2011-08-01T05:03:32Z" uid="3392" user="SimMoonXP" changeset="8887186">
    <nd ref="409376048"/>
    <nd ref="409376024"/>
    <tag k="bridge" v="yes"/>
    <tag k="highway" v="motorway_link"/>
    <tag k="lanes" v="3"/>
    <tag k="layer" v="1"/>
    <tag k="name" v="Chino Valley Freeway"/>
    <tag k="oneway" v="yes"/>
    <tag k="ref" v="CA 71"/>
  </way>
  <way id="34900265" version="6" timestamp="2011-08-07T11:55:50Z" uid="207745" user="NE2" changeset="8945765">
    <nd ref="409376048"/>
    <nd ref="409376024"/>
    <tag k="bridge" v="yes"/>
    <tag k="highway" v="motorway_link"/>
    <tag k="lanes" v="1"/>
    <tag k="layer" v="1"/>
    <tag k="oneway" v="yes"/>
  </way>
  <way id="34900266" version="4" timestamp="2010-03-28T02:06:46Z" uid="20587" user="balrog-kun" changeset="4250871">
    <nd ref="409376049"/>
    <nd ref="122404529"/>
    <tag k="highway" v="motorway"/>
    <tag k="name" v="Chino Valley Freeway"/>
    <tag k="oneway" v="yes"/>
    <tag k="ref" v="CA 71"/>
  </way>
  <way id="34900266" version="5" timestamp="2011-07-29T09:25:32Z" uid="207745" user="NE2" changeset="8861519">
    <nd ref="409376049"/>
    <nd ref="122404529"/>
    <tag k="highway" v="motorway"/>
    <tag k="lanes" v="3"/>
    <tag k="name" v="Chino Valley Freeway"/>
    <tag k="oneway" v="yes"/>
    <tag k="ref" v="CA 71"/>
  </way>
  <way id="34900266" version="6" timestamp="2011-08-01T05:03:36Z" uid="3392" user="SimMoonXP" changeset="8887186"/>
  <way id="34900267" version="3" timestamp="2010-03-28T02:06:47Z" uid="20587" user="balrog-kun" changeset="4250871">
    <nd ref="32599439"/>
    <nd ref="409376049"/>
    <tag k="bridge" v="yes"/>
    <tag k="highway" v="motorway"/>
    <tag k="layer" v="1"/>
    <tag k="name" v="Chino Valley Freeway"/>
    <tag k="oneway" v="yes"/>
    <tag k="ref" v="CA 71"/>
  </way>
  <way id="34900267" version="4" timestamp="2011-07-29T09:25:27Z" uid="207745" user="NE2" changeset="8861519">
    <nd ref="32599439"/>
    <nd ref="409376049"/>
    <tag k="bridge" v="yes"/>
    <tag k="highway" v="motorway"/>
    <tag k="lanes" v="3"/>
    <tag k="layer" v="1"/>
    <tag k="name" v="Chino Valley Freeway"/>
    <tag k="oneway" v="yes"/>
    <tag k="ref" v="CA 71"/>
  </way>
  <way id="34900267" version="5" timestamp="2011-08-01T05:03:36Z" uid="3392" user="SimMoonXP" changeset="8887186"/>
  <way id="34900268" version="5" timestamp="2010-03-28T02:06:47Z" uid="20587" user="balrog-kun" changeset="4250871">
    <nd ref="409376024"/>
    <nd ref="122541300"/>
    <nd ref="32583552"/>
    <nd ref="32583648"/>
    <nd ref="32581143"/>
    <nd ref="409454278"/>
    <tag k="highway" v="motorway"/>
    <tag k="name" v="Chino Valley Freeway"/>
    <tag k="oneway" v="yes"/>
    <tag k="ref" v="CA 71"/>
  </way>
  <way id="34900268" version="6" timestamp="2011-07-29T09:25:29Z" uid="207745" user="NE2" changeset="8861519">
    <nd ref="409376024"/>
    <nd ref="122541300"/>
    <tag k="highway" v="motorway"/>
    <tag k="lanes" v="3"/>
    <tag k="name" v="Chino Valley Freeway"/>
    <tag k="oneway" v="yes"/>
    <tag k="ref" v="CA 71"/>
  </way>
  <way id="34900268" version="7" timestamp="2011-08-01T05:03:33Z" uid="3392" user="SimMoonXP" changeset="8887186">
    <nd ref="409376024"/>
    <nd ref="1381313598"/>
    <tag k="highway" v="motorway_link"/>
    <tag k="lanes" v="3"/>
    <tag k="name" v="Chino Valley Freeway"/>
    <tag k="oneway" v="yes"/>
    <tag k="ref" v="CA 71"/>
  </way>
  <way id="34900268" version="8" timestamp="2011-08-07T11:55:49Z" uid="207745" user="NE2" changeset="8945765">
    <nd ref="409376024"/>
    <nd ref="1381313598"/>
    <tag k="highway" v="motorway_link"/>
    <tag k="lanes" v="1"/>
    <tag k="oneway" v="yes"/>
  </way>
  <way id="34900268" version="9" timestamp="2012-03-26T11:46:35Z" uid="28775" user="StellanL" changeset="11105018"/>
  <way id="34900269" version="2" timestamp="2010-03-28T02:06:47Z" uid="20587" user="balrog-kun" changeset="4250871">
    <nd ref="122901205"/>
    <nd ref="409376053"/>
    <tag k="bridge" v="yes"/>
    <tag k="highway" v="tertiary"/>
    <tag k="layer" v="1"/>
    <tag k="name" v="Ridgeway Street"/>
    <tag k="tiger:cfcc" v="A41"/>
    <tag k="tiger:county" v="Los Angeles, CA"/>
    <tag k="tiger:name_base" v="Ridgeway"/>
    <tag k="tiger:name_type" v="St"/>
    <tag k="tiger:separated" v="no"/>
    <tag k="tiger:source" v="tiger_import_dch_v0.6_20070809"/>
    <tag k="tiger:tlid" v="141729288:141729433:141729439:141729441:141729452:141729454:141729554:141729470:141771864"/>
    <tag k="tiger:zip_left" v="91768"/>
    <tag k="tiger:zip_right" v="91768"/>
  </way>
  <way id="34900269" version="3" timestamp="2012-03-26T11:46:15Z" uid="28775" user="StellanL" changeset="11105018">
    <nd ref="1691813936"/>
    <nd ref="1691813922"/>
    <tag k="bridge" v="yes"/>
    <tag k="highway" v="tertiary"/>
    <tag k="layer" v="1"/>
    <tag k="name" v="Ridgeway Street"/>
    <tag k="tiger:cfcc" v="A41"/>
    <tag k="tiger:county" v="Los Angeles, CA"/>
    <tag k="tiger:name_base" v="Ridgeway"/>
    <tag k="tiger:name_type" v="St"/>
    <tag k="tiger:separated" v="no"/>
    <tag k="tiger:source" v="tiger_import_dch_v0.6_20070809"/>
    <tag k="tiger:tlid" v="141729288:141729433:141729439:141729441:141729452:141729454:141729554:141729470:141771864"/>
    <tag k="tiger:zip_left" v="91768"/>
    <tag k="tiger:zip_right" v="91768"/>
  </way>
  <way id="34900270" version="2" timestamp="2010-03-28T02:06:47Z" uid="20587" user="balrog-kun" changeset="4250871">
    <nd ref="409376053"/>
    <nd ref="122901207"/>
    <nd ref="409376029"/>
    <nd ref="122901211"/>
    <nd ref="122901214"/>
    <tag k="highway" v="tertiary"/>
    <tag k="name" v="Ridgeway Street"/>
    <tag k="tiger:cfcc" v="A41"/>
    <tag k="tiger:county" v="Los Angeles, CA"/>
    <tag k="tiger:name_base" v="Ridgeway"/>
    <tag k="tiger:name_type" v="St"/>
    <tag k="tiger:separated" v="no"/>
    <tag k="tiger:source" v="tiger_import_dch_v0.6_20070809"/>
    <tag k="tiger:tlid" v="141729288:141729433:141729439:141729441:141729452:141729454:141729554:141729470:141771864"/>
    <tag k="tiger:zip_left" v="91768"/>
    <tag k="tiger:zip_right" v="91768"/>
  </way>
  <way id="34900270" version="3" timestamp="2012-03-26T11:46:14Z" uid="28775" user="StellanL" changeset="11105018">
    <nd ref="1691813922"/>
    <nd ref="122901207"/>
    <nd ref="1691813917"/>
    <nd ref="122901211"/>
    <nd ref="122901214"/>
    <tag k="highway" v="tertiary"/>
    <tag k="name" v="Ridgeway Street"/>
    <tag k="tiger:cfcc" v="A41"/>
    <tag k="tiger:county" v="Los Angeles, CA"/>
    <tag k="tiger:name_base" v="Ridgeway"/>
    <tag k="tiger:name_type" v="St"/>
    <tag k="tiger:separated" v="no"/>
    <tag k="tiger:source" v="tiger_import_dch_v0.6_20070809"/>
    <tag k="tiger:tlid" v="141729288:141729433:141729439:141729441:141729452:141729454:141729554:141729470:141771864"/>
    <tag k="tiger:zip_left" v="91768"/>
    <tag k="tiger:zip_right" v="91768"/>
  </way>
  <way id="34900271" version="3" timestamp="2010-03-28T02:06:47Z" uid="20587" user="balrog-kun" changeset="4250871">
    <nd ref="122974828"/>
    <nd ref="122974826"/>
    <nd ref="409340503"/>
    <tag k="highway" v="motorway"/>
    <tag k="name" v="Orange Freeway"/>
    <tag k="oneway" v="yes"/>
    <tag k="ref" v="CA 57"/>
    <tag k="tiger:cfcc" v="A11"/>
    <tag k="tiger:county" v="Los Angeles, CA"/>
    <tag k="tiger:name_base" v="Orange"/>
    <tag k="tiger:name_base_1" v="State Highway 57"/>
    <tag k="tiger:name_type" v="Fwy"/>
    <tag k="tiger:separated" v="no"/>
    <tag k="tiger:source" v="tiger_import_dch_v0.6_20070809"/>
    <tag k="tiger:tlid" v="141729269:141729274:141729362:141729381:141729383:141729412:141729415:141730360:141730368:141730374:141730376:141730417:141771862:141781738:141806926:141806927:141806931:141820029:142244758:142244759:142252614:142252615:142674455"/>
  </way>
  <way id="34900271" version="4" timestamp="2011-07-29T05:22:30Z" uid="207745" user="NE2" changeset="8860294">
    <nd ref="122974828"/>
    <nd ref="122974826"/>
    <tag k="highway" v="motorway"/>
    <tag k="lanes" v="3"/>
    <tag k="name" v="Orange Freeway"/>
    <tag k="oneway" v="yes"/>
    <tag k="ref" v="CA 57"/>
    <tag k="tiger:cfcc" v="A11"/>
    <tag k="tiger:county" v="Los Angeles, CA"/>
    <tag k="tiger:name_base" v="Orange"/>
    <tag k="tiger:name_base_1" v="State Highway 57"/>
    <tag k="tiger:name_type" v="Fwy"/>
    <tag k="tiger:separated" v="no"/>
    <tag k="tiger:source" v="tiger_import_dch_v0.6_20070809"/>
    <tag k="tiger:tlid" v="141729269:141729274:141729362:141729381:141729383:141729412:141729415:141730360:141730368:141730374:141730376:141730417:141771862:141781738:141806926:141806927:141806931:141820029:142244758:142244759:142252614:142252615:142674455"/>
  </way>
  <way id="34900271" version="5" timestamp="2011-11-25T14:47:25Z" uid="207745" user="NE2" changeset="9943893">
    <nd ref="122974828"/>
    <nd ref="122974826"/>
    <tag k="hgv:national_network" v="yes"/>
    <tag k="highway" v="motorway"/>
    <tag k="lanes" v="3"/>
    <tag k="name" v="Orange Freeway"/>
    <tag k="oneway" v="yes"/>
    <tag k="ref" v="CA 57"/>
    <tag k="source:hgv:national_network" v="Title 23: Highways Part 658 http://ecfr.gpoaccess.gov/cgi/t/text/text-idx?c=ecfr&amp;rgn=div5&amp;view=text&amp;node=23:1.0.1.7.33&amp;idno=23"/>
    <tag k="tiger:cfcc" v="A11"/>
    <tag k="tiger:county" v="Los Angeles, CA"/>
    <tag k="tiger:name_base" v="Orange"/>
    <tag k="tiger:name_base_1" v="State Highway 57"/>
    <tag k="tiger:name_type" v="Fwy"/>
    <tag k="tiger:separated" v="no"/>
    <tag k="tiger:source" v="tiger_import_dch_v0.6_20070809"/>
    <tag k="tiger:tlid" v="141729269:141729274:141729362:141729381:141729383:141729412:141729415:141730360:141730368:141730374:141730376:141730417:141771862:141781738:141806926:141806927:141806931:141820029:142244758:142244759:142252614:142252615:142674455"/>
  </way>
  <way id="34900271" version="6" timestamp="2011-11-25T17:16:12Z" uid="207745" user="NE2" changeset="9945963">
    <nd ref="122974828"/>
    <nd ref="122974826"/>
    <tag k="hgv" v="designated"/>
    <tag k="hgv:national_network" v="yes"/>
    <tag k="highway" v="motorway"/>
    <tag k="lanes" v="3"/>
    <tag k="name" v="Orange Freeway"/>
    <tag k="oneway" v="yes"/>
    <tag k="ref" v="CA 57"/>
    <tag k="source:hgv:national_network" v="Title 23: Highways Part 658 http://ecfr.gpoaccess.gov/cgi/t/text/text-idx?c=ecfr&amp;rgn=div5&amp;view=text&amp;node=23:1.0.1.7.33&amp;idno=23"/>
    <tag k="tiger:cfcc" v="A11"/>
    <tag k="tiger:county" v="Los Angeles, CA"/>
    <tag k="tiger:name_base" v="Orange"/>
    <tag k="tiger:name_base_1" v="State Highway 57"/>
    <tag k="tiger:name_type" v="Fwy"/>
    <tag k="tiger:separated" v="no"/>
    <tag k="tiger:source" v="tiger_import_dch_v0.6_20070809"/>
    <tag k="tiger:tlid" v="141729269:141729274:141729362:141729381:141729383:141729412:141729415:141730360:141730368:141730374:141730376:141730417:141771862:141781738:141806926:141806927:141806931:141820029:142244758:142244759:142252614:142252615:142674455"/>
  </way>
  <way id="34900272" version="3" timestamp="2010-03-28T02:06:47Z" uid="20587" user="balrog-kun" changeset="4250871">
    <nd ref="409340508"/>
    <nd ref="409340625"/>
    <tag k="bridge" v="yes"/>
    <tag k="highway" v="motorway"/>
    <tag k="layer" v="1"/>
    <tag k="name" v="Orange Freeway"/>
    <tag k="oneway" v="yes"/>
    <tag k="ref" v="CA 57"/>
    <tag k="tiger:cfcc" v="A15"/>
    <tag k="tiger:county" v="Los Angeles, CA"/>
    <tag k="tiger:name_base" v="Orange"/>
    <tag k="tiger:name_base_1" v="State Highway 57"/>
    <tag k="tiger:name_type" v="Fwy"/>
    <tag k="tiger:separated" v="yes"/>
    <tag k="tiger:source" v="tiger_import_dch_v0.6_20070809"/>
    <tag k="tiger:tlid" v="141806919:141806922:141806925:141806928"/>
  </way>
  <way id="34900272" version="4" timestamp="2011-07-29T05:22:35Z" uid="207745" user="NE2" changeset="8860294">
    <nd ref="409340508"/>
    <nd ref="409340625"/>
    <tag k="bridge" v="yes"/>
    <tag k="highway" v="motorway"/>
    <tag k="lanes" v="3"/>
    <tag k="layer" v="1"/>
    <tag k="name" v="Orange Freeway"/>
    <tag k="oneway" v="yes"/>
    <tag k="ref" v="CA 57"/>
    <tag k="tiger:cfcc" v="A15"/>
    <tag k="tiger:county" v="Los Angeles, CA"/>
    <tag k="tiger:name_base" v="Orange"/>
    <tag k="tiger:name_base_1" v="State Highway 57"/>
    <tag k="tiger:name_type" v="Fwy"/>
    <tag k="tiger:separated" v="yes"/>
    <tag k="tiger:source" v="tiger_import_dch_v0.6_20070809"/>
    <tag k="tiger:tlid" v="141806919:141806922:141806925:141806928"/>
  </way>
  <way id="34900272" version="5" timestamp="2011-11-25T14:47:02Z" uid="207745" user="NE2" changeset="9943893">
    <nd ref="409340508"/>
    <nd ref="409340625"/>
    <tag k="bridge" v="yes"/>
    <tag k="hgv:national_network" v="yes"/>
    <tag k="highway" v="motorway"/>
    <tag k="lanes" v="3"/>
    <tag k="layer" v="1"/>
    <tag k="name" v="Orange Freeway"/>
    <tag k="oneway" v="yes"/>
    <tag k="ref" v="CA 57"/>
    <tag k="source:hgv:national_network" v="Title 23: Highways Part 658 http://ecfr.gpoaccess.gov/cgi/t/text/text-idx?c=ecfr&amp;rgn=div5&amp;view=text&amp;node=23:1.0.1.7.33&amp;idno=23"/>
    <tag k="tiger:cfcc" v="A15"/>
    <tag k="tiger:county" v="Los Angeles, CA"/>
    <tag k="tiger:name_base" v="Orange"/>
    <tag k="tiger:name_base_1" v="State Highway 57"/>
    <tag k="tiger:name_type" v="Fwy"/>
    <tag k="tiger:separated" v="yes"/>
    <tag k="tiger:source" v="tiger_import_dch_v0.6_20070809"/>
    <tag k="tiger:tlid" v="141806919:141806922:141806925:141806928"/>
  </way>
  <way id="34900272" version="6" timestamp="2011-11-25T17:15:59Z" uid="207745" user="NE2" changeset="9945963">
    <nd ref="409340508"/>
    <nd ref="409340625"/>
    <tag k="bridge" v="yes"/>
    <tag k="hgv" v="designated"/>
    <tag k="hgv:national_network" v="yes"/>
    <tag k="highway" v="motorway"/>
    <tag k="lanes" v="3"/>
    <tag k="layer" v="1"/>
    <tag k="name" v="Orange Freeway"/>
    <tag k="oneway" v="yes"/>
    <tag k="ref" v="CA 57"/>
    <tag k="source:hgv:national_network" v="Title 23: Highways Part 658 http://ecfr.gpoaccess.gov/cgi/t/text/text-idx?c=ecfr&amp;rgn=div5&amp;view=text&amp;node=23:1.0.1.7.33&amp;idno=23"/>
    <tag k="tiger:cfcc" v="A15"/>
    <tag k="tiger:county" v="Los Angeles, CA"/>
    <tag k="tiger:name_base" v="Orange"/>
    <tag k="tiger:name_base_1" v="State Highway 57"/>
    <tag k="tiger:name_type" v="Fwy"/>
    <tag k="tiger:separated" v="yes"/>
    <tag k="tiger:source" v="tiger_import_dch_v0.6_20070809"/>
    <tag k="tiger:tlid" v="141806919:141806922:141806925:141806928"/>
  </way>
  <way id="34900276" version="3" timestamp="2010-03-28T02:06:48Z" uid="20587" user="balrog-kun" changeset="4250871">
    <nd ref="409340510"/>
    <nd ref="122974828"/>
    <tag k="bridge" v="yes"/>
    <tag k="highway" v="motorway"/>
    <tag k="layer" v="1"/>
    <tag k="name" v="Orange Freeway"/>
    <tag k="oneway" v="yes"/>
    <tag k="ref" v="CA 57"/>
    <tag k="tiger:cfcc" v="A11"/>
    <tag k="tiger:county" v="Los Angeles, CA"/>
    <tag k="tiger:name_base" v="Orange"/>
    <tag k="tiger:name_base_1" v="State Highway 57"/>
    <tag k="tiger:name_type" v="Fwy"/>
    <tag k="tiger:separated" v="no"/>
    <tag k="tiger:source" v="tiger_import_dch_v0.6_20070809"/>
    <tag k="tiger:tlid" v="141729269:141729274:141729362:141729381:141729383:141729412:141729415:141730360:141730368:141730374:141730376:141730417:141771862:141781738:141806926:141806927:141806931:141820029:142244758:142244759:142252614:142252615:142674455"/>
  </way>
  <way id="34900276" version="4" timestamp="2011-07-29T05:22:32Z" uid="207745" user="NE2" changeset="8860294">
    <nd ref="409340510"/>
    <nd ref="122974828"/>
    <tag k="bridge" v="yes"/>
    <tag k="highway" v="motorway"/>
    <tag k="lanes" v="3"/>
    <tag k="layer" v="1"/>
    <tag k="name" v="Orange Freeway"/>
    <tag k="oneway" v="yes"/>
    <tag k="ref" v="CA 57"/>
    <tag k="tiger:cfcc" v="A11"/>
    <tag k="tiger:county" v="Los Angeles, CA"/>
    <tag k="tiger:name_base" v="Orange"/>
    <tag k="tiger:name_base_1" v="State Highway 57"/>
    <tag k="tiger:name_type" v="Fwy"/>
    <tag k="tiger:separated" v="no"/>
    <tag k="tiger:source" v="tiger_import_dch_v0.6_20070809"/>
    <tag k="tiger:tlid" v="141729269:141729274:141729362:141729381:141729383:141729412:141729415:141730360:141730368:141730374:141730376:141730417:141771862:141781738:141806926:141806927:141806931:141820029:142244758:142244759:142252614:142252615:142674455"/>
  </way>
  <way id="34900276" version="5" timestamp="2011-11-25T14:47:31Z" uid="207745" user="NE2" changeset="9943893">
    <nd ref="409340510"/>
    <nd ref="122974828"/>
    <tag k="bridge" v="yes"/>
    <tag k="hgv:national_network" v="yes"/>
    <tag k="highway" v="motorway"/>
    <tag k="lanes" v="3"/>
    <tag k="layer" v="1"/>
    <tag k="name" v="Orange Freeway"/>
    <tag k="oneway" v="yes"/>
    <tag k="ref" v="CA 57"/>
    <tag k="source:hgv:national_network" v="Title 23: Highways Part 658 http://ecfr.gpoaccess.gov/cgi/t/text/text-idx?c=ecfr&amp;rgn=div5&amp;view=text&amp;node=23:1.0.1.7.33&amp;idno=23"/>
    <tag k="tiger:cfcc" v="A11"/>
    <tag k="tiger:county" v="Los Angeles, CA"/>
    <tag k="tiger:name_base" v="Orange"/>
    <tag k="tiger:name_base_1" v="State Highway 57"/>
    <tag k="tiger:name_type" v="Fwy"/>
    <tag k="tiger:separated" v="no"/>
    <tag k="tiger:source" v="tiger_import_dch_v0.6_20070809"/>
    <tag k="tiger:tlid" v="141729269:141729274:141729362:141729381:141729383:141729412:141729415:141730360:141730368:141730374:141730376:141730417:141771862:141781738:141806926:141806927:141806931:141820029:142244758:142244759:142252614:142252615:142674455"/>
  </way>
  <way id="34900276" version="6" timestamp="2011-11-25T17:15:52Z" uid="207745" user="NE2" changeset="9945963">
    <nd ref="409340510"/>
    <nd ref="122974828"/>
    <tag k="bridge" v="yes"/>
    <tag k="hgv" v="designated"/>
    <tag k="hgv:national_network" v="yes"/>
    <tag k="highway" v="motorway"/>
    <tag k="lanes" v="3"/>
    <tag k="layer" v="1"/>
    <tag k="name" v="Orange Freeway"/>
    <tag k="oneway" v="yes"/>
    <tag k="ref" v="CA 57"/>
    <tag k="source:hgv:national_network" v="Title 23: Highways Part 658 http://ecfr.gpoaccess.gov/cgi/t/text/text-idx?c=ecfr&amp;rgn=div5&amp;view=text&amp;node=23:1.0.1.7.33&amp;idno=23"/>
    <tag k="tiger:cfcc" v="A11"/>
    <tag k="tiger:county" v="Los Angeles, CA"/>
    <tag k="tiger:name_base" v="Orange"/>
    <tag k="tiger:name_base_1" v="State Highway 57"/>
    <tag k="tiger:name_type" v="Fwy"/>
    <tag k="tiger:separated" v="no"/>
    <tag k="tiger:source" v="tiger_import_dch_v0.6_20070809"/>
    <tag k="tiger:tlid" v="141729269:141729274:141729362:141729381:141729383:141729412:141729415:141730360:141730368:141730374:141730376:141730417:141771862:141781738:141806926:141806927:141806931:141820029:142244758:142244759:142252614:142252615:142674455"/>
  </way>
  <way id="34900277" version="3" timestamp="2010-03-28T02:06:48Z" uid="20587" user="balrog-kun" changeset="4250871">
    <nd ref="409340625"/>
    <nd ref="409340626"/>
    <tag k="highway" v="motorway"/>
    <tag k="name" v="Orange Freeway"/>
    <tag k="oneway" v="yes"/>
    <tag k="ref" v="CA 57"/>
    <tag k="tiger:cfcc" v="A15"/>
    <tag k="tiger:county" v="Los Angeles, CA"/>
    <tag k="tiger:name_base" v="Orange"/>
    <tag k="tiger:name_base_1" v="State Highway 57"/>
    <tag k="tiger:name_type" v="Fwy"/>
    <tag k="tiger:separated" v="yes"/>
    <tag k="tiger:source" v="tiger_import_dch_v0.6_20070809"/>
    <tag k="tiger:tlid" v="141806919:141806922:141806925:141806928"/>
  </way>
  <way id="34900277" version="4" timestamp="2011-07-29T05:22:27Z" uid="207745" user="NE2" changeset="8860294">
    <nd ref="409340625"/>
    <nd ref="409340626"/>
    <tag k="highway" v="motorway"/>
    <tag k="lanes" v="3"/>
    <tag k="name" v="Orange Freeway"/>
    <tag k="oneway" v="yes"/>
    <tag k="ref" v="CA 57"/>
    <tag k="tiger:cfcc" v="A15"/>
    <tag k="tiger:county" v="Los Angeles, CA"/>
    <tag k="tiger:name_base" v="Orange"/>
    <tag k="tiger:name_base_1" v="State Highway 57"/>
    <tag k="tiger:name_type" v="Fwy"/>
    <tag k="tiger:separated" v="yes"/>
    <tag k="tiger:source" v="tiger_import_dch_v0.6_20070809"/>
    <tag k="tiger:tlid" v="141806919:141806922:141806925:141806928"/>
  </way>
  <way id="34900277" version="5" timestamp="2011-11-25T14:47:01Z" uid="207745" user="NE2" changeset="9943893">
    <nd ref="409340625"/>
    <nd ref="409340626"/>
    <tag k="hgv:national_network" v="yes"/>
    <tag k="highway" v="motorway"/>
    <tag k="lanes" v="3"/>
    <tag k="name" v="Orange Freeway"/>
    <tag k="oneway" v="yes"/>
    <tag k="ref" v="CA 57"/>
    <tag k="source:hgv:national_network" v="Title 23: Highways Part 658 http://ecfr.gpoaccess.gov/cgi/t/text/text-idx?c=ecfr&amp;rgn=div5&amp;view=text&amp;node=23:1.0.1.7.33&amp;idno=23"/>
    <tag k="tiger:cfcc" v="A15"/>
    <tag k="tiger:county" v="Los Angeles, CA"/>
    <tag k="tiger:name_base" v="Orange"/>
    <tag k="tiger:name_base_1" v="State Highway 57"/>
    <tag k="tiger:name_type" v="Fwy"/>
    <tag k="tiger:separated" v="yes"/>
    <tag k="tiger:source" v="tiger_import_dch_v0.6_20070809"/>
    <tag k="tiger:tlid" v="141806919:141806922:141806925:141806928"/>
  </way>
  <way id="34900277" version="6" timestamp="2011-11-25T17:16:00Z" uid="207745" user="NE2" changeset="9945963">
    <nd ref="409340625"/>
    <nd ref="409340626"/>
    <tag k="hgv" v="designated"/>
    <tag k="hgv:national_network" v="yes"/>
    <tag k="highway" v="motorway"/>
    <tag k="lanes" v="3"/>
    <tag k="name" v="Orange Freeway"/>
    <tag k="oneway" v="yes"/>
    <tag k="ref" v="CA 57"/>
    <tag k="source:hgv:national_network" v="Title 23: Highways Part 658 http://ecfr.gpoaccess.gov/cgi/t/text/text-idx?c=ecfr&amp;rgn=div5&amp;view=text&amp;node=23:1.0.1.7.33&amp;idno=23"/>
    <tag k="tiger:cfcc" v="A15"/>
    <tag k="tiger:county" v="Los Angeles, CA"/>
    <tag k="tiger:name_base" v="Orange"/>
    <tag k="tiger:name_base_1" v="State Highway 57"/>
    <tag k="tiger:name_type" v="Fwy"/>
    <tag k="tiger:separated" v="yes"/>
    <tag k="tiger:source" v="tiger_import_dch_v0.6_20070809"/>
    <tag k="tiger:tlid" v="141806919:141806922:141806925:141806928"/>
  </way>
  <way id="34900277" version="7" timestamp="2012-03-26T11:46:14Z" uid="28775" user="StellanL" changeset="11105018">
    <nd ref="409340625"/>
    <nd ref="1691813912"/>
    <tag k="hgv" v="designated"/>
    <tag k="hgv:national_network" v="yes"/>
    <tag k="highway" v="motorway"/>
    <tag k="lanes" v="3"/>
    <tag k="name" v="Orange Freeway"/>
    <tag k="oneway" v="yes"/>
    <tag k="ref" v="CA 57"/>
    <tag k="source:hgv:national_network" v="Title 23: Highways Part 658 http://ecfr.gpoaccess.gov/cgi/t/text/text-idx?c=ecfr&amp;rgn=div5&amp;view=text&amp;node=23:1.0.1.7.33&amp;idno=23"/>
    <tag k="tiger:cfcc" v="A15"/>
    <tag k="tiger:county" v="Los Angeles, CA"/>
    <tag k="tiger:name_base" v="Orange"/>
    <tag k="tiger:name_base_1" v="State Highway 57"/>
    <tag k="tiger:name_type" v="Fwy"/>
    <tag k="tiger:separated" v="yes"/>
    <tag k="tiger:source" v="tiger_import_dch_v0.6_20070809"/>
    <tag k="tiger:tlid" v="141806919:141806922:141806925:141806928"/>
  </way>
  <way id="34900333" version="2" timestamp="2010-07-08T18:53:55Z" uid="74617" user="JohnSmith" changeset="5167338">
    <nd ref="409389513"/>
    <nd ref="409389514"/>
    <nd ref="409389516"/>
    <tag k="highway" v="residential"/>
    <tag k="maxspeed" v="50"/>
    <tag k="maxspeed:source" v="default residential speed limit in Australia"/>
    <tag k="name" v="Ashton Place"/>
  </way>
  <way id="34900333" version="3" timestamp="2012-01-18T21:42:18Z" uid="147510" user="woodpeck_fixbot" changeset="10431441">
    <nd ref="409389513"/>
    <nd ref="409389514"/>
    <nd ref="409389516"/>
    <tag k="highway" v="residential"/>
    <tag k="name" v="Ashton Place"/>
  </way>
  <way id="34900334" version="2" timestamp="2010-07-08T19:04:12Z" uid="74617" user="JohnSmith" changeset="5167338">
    <nd ref="409389517"/>
    <nd ref="409389518"/>
    <nd ref="409389519"/>
    <tag k="highway" v="residential"/>
    <tag k="maxspeed" v="50"/>
    <tag k="maxspeed:source" v="default residential speed limit in Australia"/>
    <tag k="name" v="Lorraine Court"/>
  </way>
  <way id="34900334" version="3" timestamp="2012-01-18T21:42:21Z" uid="147510" user="woodpeck_fixbot" changeset="10431441">
    <nd ref="409389517"/>
    <nd ref="409389518"/>
    <nd ref="409389519"/>
    <tag k="highway" v="residential"/>
    <tag k="name" v="Lorraine Court"/>
  </way>
  <way id="34900335" version="3" timestamp="2010-07-08T19:00:29Z" uid="74617" user="JohnSmith" changeset="5167338">
    <nd ref="409389521"/>
    <nd ref="409389523"/>
    <tag k="highway" v="residential"/>
    <tag k="maxspeed" v="50"/>
    <tag k="maxspeed:source" v="default residential speed limit in Australia"/>
    <tag k="name" v="Harness Place"/>
  </way>
  <way id="34900335" version="4" timestamp="2012-01-18T21:42:22Z" uid="147510" user="woodpeck_fixbot" changeset="10431441">
    <nd ref="409389521"/>
    <nd ref="409389523"/>
    <tag k="highway" v="residential"/>
    <tag k="name" v="Harness Place"/>
  </way>
  <way id="34900341" version="3" timestamp="2009-08-10T01:47:26Z" uid="4467" user="Rosscoe" changeset="2092291">
    <nd ref="409389558"/>
    <nd ref="409389559"/>
    <nd ref="409389561"/>
    <nd ref="409389562"/>
    <tag k="highway" v="service"/>
    <tag k="service" v="parking_aisle"/>
    <tag k="surface" v="paved"/>
  </way>
</osm>
