<?xml version='1.0' encoding='UTF-8'?>
<osm version="0.6" generator="libosmium/2.20.0">
  <way id="34916032" version="1" timestamp="2009-05-22T12:35:11Z" uid="43863" user="Rundling" changeset="1285691">
    <nd ref="409646656"/>
    <nd ref="409646657"/>
    <nd ref="409646658"/>
    <tag k="access" v="agricultural"/>
    <tag k="highway" v="track"/>
    <tag k="surface" v="cobblestone"/>
    <tag k="tracktype" v="grade3"/>
  </way>
  <way id="34916033" version="1" timestamp="2009-05-22T12:35:12Z" uid="43863" user="Rundling" changeset="1285691">
    <nd ref="311751093"/>
    <nd ref="409646659"/>
    <nd ref="409646660"/>
    <tag k="access" v="agricultural"/>
    <tag k="highway" v="track"/>
    <tag k="surface" v="cobblestone"/>
    <tag k="tracktype" v="grade3"/>
  </way>
  <way id="34916202" version="2" timestamp="2009-09-30T12:55:52Z" uid="36809" user="pfoten_weg_!_" changeset="2687909">
    <nd ref="388473957"/>
    <nd ref="409653171"/>
    <nd ref="409653174"/>
    <tag k="highway" v="track"/>
    <tag k="tracktype" v="grade5"/>
  </way>
  <way id="34916215" version="2" timestamp="2010-07-25T14:07:37Z" uid="33382" user="de_muur" changeset="5312208">
    <nd ref="409654392"/>
    <nd ref="409654396"/>
    <nd ref="409654402"/>
    <nd ref="832770106"/>
    <nd ref="409654406"/>
    <nd ref="409654409"/>
    <nd ref="409654392"/>
    <tag k="amenity" v="parking"/>
    <tag k="capacity" v="50"/>
    <tag k="disabled_spaces" v="2"/>
    <tag k="name" v="REWE"/>
    <tag k="parking" v="surface"/>
  </way>
  <way id="34916215" version="3" timestamp="2010-09-15T00:56:07Z" uid="70696" user="xybot" changeset="5781758">
    <nd ref="409654392"/>
    <nd ref="409654396"/>
    <nd ref="409654402"/>
    <nd ref="832770106"/>
    <nd ref="409654406"/>
    <nd ref="409654409"/>
    <nd ref="409654392"/>
    <tag k="amenity" v="parking"/>
    <tag k="capacity" v="50"/>
    <tag k="capacity:disabled" v="2"/>
    <tag k="name" v="REWE"/>
    <tag k="parking" v="surface"/>
  </way>
  <way id="34916222" version="7" timestamp="2010-09-26T09:29:00Z" uid="33382" user="de_muur" changeset="5878610">
    <nd ref="409654558"/>
    <nd ref="409654563"/>
    <nd ref="409654569"/>
    <nd ref="409654574"/>
    <nd ref="926285583"/>
    <nd ref="409654579"/>
    <tag k="highway" v="unclassified"/>
    <tag k="layer" v="0"/>
    <tag k="maxspeed" v="50"/>
    <tag k="name" v="An der Lehmkuhle"/>
    <tag k="width" v="3"/>
  </way>
  <way id="34916250" version="2" timestamp="2009-09-30T12:55:46Z" uid="36809" user="pfoten_weg_!_" changeset="2687909">
    <nd ref="380696589"/>
    <nd ref="409655149"/>
    <nd ref="409655151"/>
    <nd ref="409655153"/>
    <nd ref="409655155"/>
    <nd ref="388473957"/>
    <tag k="highway" v="track"/>
    <tag k="tracktype" v="grade5"/>
  </way>
  <way id="34916263" version="2" timestamp="2009-09-30T12:55:48Z" uid="36809" user="pfoten_weg_!_" changeset="2687909">
    <nd ref="409655155"/>
    <nd ref="409655905"/>
    <nd ref="409655910"/>
    <nd ref="409655915"/>
    <nd ref="409655918"/>
    <nd ref="409655923"/>
    <tag k="highway" v="track"/>
    <tag k="tracktype" v="grade4"/>
  </way>
  <way id="34916397" version="2" timestamp="2009-09-30T16:27:27Z" uid="36809" user="pfoten_weg_!_" changeset="2690373">
    <nd ref="409667050"/>
    <nd ref="409667053"/>
    <nd ref="409667056"/>
    <nd ref="409667058"/>
    <nd ref="409667060"/>
    <nd ref="265753408"/>
    <tag k="highway" v="residential"/>
    <tag k="name" v="Fichtenstraße"/>
  </way>
  <way id="34916397" version="3" timestamp="2010-07-12T15:53:53Z" uid="64756" user="alegria6208" changeset="5200070">
    <nd ref="409667050"/>
    <nd ref="409667053"/>
    <nd ref="409667056"/>
    <nd ref="409667060"/>
    <tag k="highway" v="residential"/>
    <tag k="name" v="Fichtenstraße"/>
  </way>
  <way id="34916397" version="4" timestamp="2010-07-12T16:19:18Z" uid="64756" user="alegria6208" changeset="5200348"/>
  <way id="34916397" version="5" timestamp="2010-07-13T18:04:24Z" uid="145231" user="woodpeck_repair" changeset="5210220">
    <nd ref="409667050"/>
    <nd ref="409667053"/>
    <nd ref="409667056"/>
    <nd ref="409667058"/>
    <nd ref="409667060"/>
    <nd ref="265753408"/>
    <tag k="highway" v="residential"/>
    <tag k="name" v="Fichtenstraße"/>
  </way>
  <way id="34916398" version="2" timestamp="2009-09-30T16:27:26Z" uid="36809" user="pfoten_weg_!_" changeset="2690373">
    <nd ref="409667069"/>
    <nd ref="409667071"/>
    <nd ref="409667072"/>
    <nd ref="409667074"/>
    <nd ref="409667076"/>
    <nd ref="409667077"/>
    <nd ref="409667069"/>
    <tag k="denomination" v="catholic"/>
    <tag k="landuse" v="cemetery"/>
    <tag k="religion" v="christian"/>
  </way>
  <way id="34916398" version="3" timestamp="2010-07-12T15:53:31Z" uid="64756" user="alegria6208" changeset="5200070">
    <nd ref="409667076"/>
    <nd ref="409667077"/>
    <tag k="denomination" v="catholic"/>
    <tag k="landuse" v="cemetery"/>
    <tag k="religion" v="christian"/>
  </way>
  <way id="34916398" version="4" timestamp="2010-07-12T16:18:21Z" uid="64756" user="alegria6208" changeset="5200348"/>
  <way id="34916398" version="5" timestamp="2010-07-13T18:04:25Z" uid="145231" user="woodpeck_repair" changeset="5210220">
    <nd ref="409667069"/>
    <nd ref="409667071"/>
    <nd ref="409667072"/>
    <nd ref="409667074"/>
    <nd ref="409667076"/>
    <nd ref="409667077"/>
    <nd ref="409667069"/>
    <tag k="denomination" v="catholic"/>
    <tag k="landuse" v="cemetery"/>
    <tag k="religion" v="christian"/>
  </way>
  <way id="34916399" version="2" timestamp="2009-09-30T16:27:25Z" uid="36809" user="pfoten_weg_!_" changeset="2690373">
    <nd ref="409667079"/>
    <nd ref="409667081"/>
    <nd ref="409667082"/>
    <tag k="highway" v="residential"/>
    <tag k="name" v="Escherstraße"/>
  </way>
  <way id="34916399" version="3" timestamp="2010-07-12T15:55:35Z" uid="64756" user="alegria6208" changeset="5200070">
    <nd ref="409667079"/>
    <nd ref="409667081"/>
    <tag k="highway" v="residential"/>
    <tag k="name" v="Escherstraße"/>
  </way>
  <way id="34916399" version="4" timestamp="2010-07-12T16:19:34Z" uid="64756" user="alegria6208" changeset="5200348"/>
  <way id="34916399" version="5" timestamp="2010-07-13T18:04:26Z" uid="145231" user="woodpeck_repair" changeset="5210220">
    <nd ref="409667079"/>
    <nd ref="409667081"/>
    <nd ref="409667082"/>
    <tag k="highway" v="residential"/>
    <tag k="name" v="Escherstraße"/>
  </way>
  <way id="34916401" version="2" timestamp="2009-09-30T16:27:32Z" uid="36809" user="pfoten_weg_!_" changeset="2690373">
    <nd ref="409667104"/>
    <nd ref="409667106"/>
    <tag k="bridge" v="yes"/>
    <tag k="highway" v="tertiary"/>
    <tag k="layer" v="1"/>
    <tag k="name" v="Ettinger Straße"/>
    <tag k="ref" v="WM 10"/>
  </way>
  <way id="34916401" version="3" timestamp="2010-07-12T16:18:57Z" uid="64756" user="alegria6208" changeset="5200348"/>
  <way id="34916401" version="4" timestamp="2010-07-13T18:04:27Z" uid="145231" user="woodpeck_repair" changeset="5210220">
    <nd ref="409667104"/>
    <nd ref="409667106"/>
    <tag k="bridge" v="yes"/>
    <tag k="highway" v="tertiary"/>
    <tag k="layer" v="1"/>
    <tag k="name" v="Ettinger Straße"/>
    <tag k="ref" v="WM 10"/>
  </way>
  <way id="34916405" version="3" timestamp="2009-09-30T16:27:33Z" uid="36809" user="pfoten_weg_!_" changeset="2690373">
    <nd ref="270268410"/>
    <nd ref="409667143"/>
    <nd ref="450181435"/>
    <nd ref="409667150"/>
    <nd ref="450181436"/>
    <nd ref="409667153"/>
    <tag k="highway" v="track"/>
    <tag k="motor_vehicle" v="agricultural"/>
    <tag k="tracktype" v="grade1"/>
  </way>
  <way id="34916406" version="2" timestamp="2009-09-30T16:27:32Z" uid="36809" user="pfoten_weg_!_" changeset="2690373">
    <nd ref="294033649"/>
    <nd ref="409667111"/>
    <nd ref="409667114"/>
    <nd ref="409667116"/>
    <nd ref="409667118"/>
    <nd ref="409667121"/>
    <nd ref="409667123"/>
    <nd ref="409667125"/>
    <nd ref="409667128"/>
    <nd ref="409667129"/>
    <nd ref="409667132"/>
    <nd ref="409667135"/>
    <tag k="highway" v="track"/>
    <tag k="motor_vehicle" v="agricultural"/>
    <tag k="tracktype" v="grade1"/>
  </way>
  <way id="34916407" version="2" timestamp="2009-09-30T16:27:33Z" uid="36809" user="pfoten_weg_!_" changeset="2690373">
    <nd ref="409667118"/>
    <nd ref="409667193"/>
    <tag k="highway" v="track"/>
    <tag k="motor_vehicle" v="agricultural"/>
    <tag k="tracktype" v="grade1"/>
  </way>
  <way id="34916407" version="3" timestamp="2009-11-28T15:10:56Z" uid="187613" user="wrg" changeset="3236939"/>
  <way id="34916408" version="3" timestamp="2009-09-30T16:27:29Z" uid="36809" user="pfoten_weg_!_" changeset="2690373">
    <nd ref="450181482"/>
    <nd ref="450181481"/>
    <nd ref="450181480"/>
    <nd ref="450181479"/>
    <nd ref="450181478"/>
    <nd ref="450181483"/>
    <nd ref="450181490"/>
    <nd ref="450181477"/>
    <nd ref="409667210"/>
    <nd ref="450181476"/>
    <nd ref="450181475"/>
    <nd ref="409667206"/>
    <nd ref="450181474"/>
    <nd ref="409667135"/>
    <nd ref="409667137"/>
    <nd ref="450181473"/>
    <nd ref="409667203"/>
    <tag k="highway" v="service"/>
    <tag k="motor_vehicle" v="destination"/>
    <tag k="name" v="Butterberg"/>
    <tag k="service" v="alley"/>
  </way>
  <way id="34916409" version="3" timestamp="2009-09-30T16:27:29Z" uid="36809" user="pfoten_weg_!_" changeset="2690373">
    <nd ref="409667137"/>
    <nd ref="450181472"/>
    <nd ref="409667140"/>
    <nd ref="450181471"/>
    <nd ref="409667143"/>
    <nd ref="409667145"/>
    <nd ref="409667147"/>
    <tag k="highway" v="track"/>
    <tag k="tracktype" v="grade1"/>
  </way>
  <way id="34916410" version="3" timestamp="2009-09-30T16:27:27Z" uid="36809" user="pfoten_weg_!_" changeset="2690373">
    <nd ref="409667153"/>
    <nd ref="409667154"/>
    <nd ref="409667157"/>
    <nd ref="409667159"/>
    <nd ref="409667161"/>
    <nd ref="409667164"/>
    <nd ref="409667166"/>
    <nd ref="409667168"/>
    <nd ref="409667217"/>
    <tag k="highway" v="track"/>
    <tag k="motor_vehicle" v="agricultural"/>
    <tag k="tracktype" v="grade2"/>
  </way>
  <way id="34916411" version="2" timestamp="2009-09-30T16:27:28Z" uid="36809" user="pfoten_weg_!_" changeset="2690373">
    <nd ref="409667217"/>
    <nd ref="409667170"/>
    <nd ref="409667173"/>
    <nd ref="409667175"/>
    <nd ref="409667177"/>
    <nd ref="409667180"/>
    <tag k="highway" v="track"/>
    <tag k="tracktype" v="grade3"/>
  </way>
  <way id="34916412" version="2" timestamp="2009-09-30T16:27:30Z" uid="36809" user="pfoten_weg_!_" changeset="2690373">
    <nd ref="409667180"/>
    <nd ref="409667183"/>
    <nd ref="409667184"/>
    <nd ref="409667187"/>
    <nd ref="409667191"/>
    <nd ref="300618048"/>
    <tag k="highway" v="track"/>
    <tag k="tracktype" v="grade5"/>
  </way>
  <way id="34916413" version="3" timestamp="2009-09-30T16:27:31Z" uid="36809" user="pfoten_weg_!_" changeset="2690373">
    <nd ref="409667219"/>
    <nd ref="409667223"/>
    <nd ref="409667226"/>
    <nd ref="409667227"/>
    <nd ref="445350493"/>
    <nd ref="445350494"/>
    <nd ref="445350495"/>
    <tag k="highway" v="residential"/>
    <tag k="name" v="Mühlgasse"/>
  </way>
  <way id="34916413" version="4" timestamp="2010-07-12T16:18:47Z" uid="64756" user="alegria6208" changeset="5200348"/>
  <way id="34916413" version="5" timestamp="2010-07-13T18:04:30Z" uid="145231" user="woodpeck_repair" changeset="5210220">
    <nd ref="409667219"/>
    <nd ref="409667223"/>
    <nd ref="409667226"/>
    <nd ref="409667227"/>
    <nd ref="445350493"/>
    <nd ref="445350494"/>
    <nd ref="445350495"/>
    <tag k="highway" v="residential"/>
    <tag k="name" v="Mühlgasse"/>
  </way>
  <way id="34916453" version="9" timestamp="2011-05-08T19:12:54Z" uid="9581" user="Lobelt" changeset="8086383">
    <nd ref="409675018"/>
    <nd ref="409675007"/>
    <nd ref="409675013"/>
    <nd ref="409675015"/>
    <nd ref="409675017"/>
    <nd ref="456315976"/>
    <nd ref="467094919"/>
    <nd ref="456315977"/>
    <nd ref="1271387807"/>
    <nd ref="456315979"/>
    <tag k="highway" v="residential"/>
    <tag k="name" v="Rue Mathias Schou"/>
    <tag k="surface" v="paved"/>
  </way>
  <way id="34916453" version="10" timestamp="2011-06-23T15:32:47Z" uid="38220" user="pierrelux" changeset="8522958">
    <nd ref="409675018"/>
    <nd ref="409675007"/>
    <nd ref="409675013"/>
    <nd ref="409675015"/>
    <nd ref="409675017"/>
    <nd ref="456315976"/>
    <nd ref="467094919"/>
    <nd ref="456315977"/>
    <nd ref="1271387807"/>
    <nd ref="456315979"/>
    <tag k="highway" v="residential"/>
    <tag k="maxwidth" v="7"/>
    <tag k="name" v="Rue Mathias Schou"/>
    <tag k="surface" v="asphalt"/>
  </way>
  <way id="34916453" version="11" timestamp="2012-02-17T12:30:46Z" uid="127573" user="wilda69" changeset="10710675">
    <nd ref="409675018"/>
    <nd ref="409675007"/>
    <nd ref="409675013"/>
    <nd ref="409675015"/>
    <nd ref="409675017"/>
    <nd ref="456315976"/>
    <nd ref="467094919"/>
    <nd ref="456315977"/>
    <nd ref="1271387807"/>
    <nd ref="456315979"/>
    <tag k="highway" v="residential"/>
    <tag k="maxwidth" v="7"/>
    <tag k="name" v="Rue Mathias Schou"/>
    <tag k="oneway" v="yes"/>
    <tag k="surface" v="asphalt"/>
  </way>
  <way id="34916453" version="12" timestamp="2012-02-17T12:39:31Z" uid="127573" user="wilda69" changeset="10710675">
    <nd ref="409675018"/>
    <nd ref="409675007"/>
    <nd ref="409675013"/>
    <nd ref="409675015"/>
    <nd ref="409675017"/>
    <nd ref="456315976"/>
    <tag k="highway" v="residential"/>
    <tag k="maxwidth" v="7"/>
    <tag k="name" v="Rue Mathias Schou"/>
    <tag k="oneway" v="yes"/>
    <tag k="surface" v="asphalt"/>
  </way>
  <way id="34916622" version="1" timestamp="2009-05-22T13:02:46Z" uid="74617" user="JohnSmith" changeset="1285932">
    <nd ref="334392866"/>
    <nd ref="409679893"/>
    <nd ref="409679894"/>
    <nd ref="334392993"/>
    <nd ref="334392992"/>
    <nd ref="334392991"/>
    <nd ref="334392990"/>
    <nd ref="334392989"/>
    <nd ref="334392988"/>
    <nd ref="332977305"/>
    <tag k="created_by" v="Potlatch 0.10f"/>
    <tag k="highway" v="residential"/>
  </way>
  <way id="34916857" version="1" timestamp="2009-05-22T13:12:16Z" uid="74617" user="JohnSmith" changeset="1286029">
    <nd ref="409453945"/>
    <nd ref="409453962"/>
    <nd ref="409453939"/>
    <nd ref="409453944"/>
    <tag k="highway" v="residential"/>
    <tag k="maxspeed" v="50"/>
    <tag k="name" v="Long Street"/>
    <tag k="surface" v="paved"/>
  </way>
  <way id="34916857" version="2" timestamp="2009-05-24T11:15:15Z" uid="74617" user="JohnSmith" changeset="1304396">
    <nd ref="409453945"/>
    <nd ref="409453962"/>
    <nd ref="409453939"/>
    <nd ref="409453944"/>
    <tag k="highway" v="residential"/>
    <tag k="maxspeed" v="50"/>
    <tag k="name" v="Long Street"/>
    <tag k="source" v="survey"/>
    <tag k="surface" v="paved"/>
  </way>
  <way id="34916857" version="3" timestamp="2010-05-09T01:56:01Z" uid="74617" user="JohnSmith" changeset="4644427">
    <nd ref="409453945"/>
    <nd ref="409453962"/>
    <nd ref="409453939"/>
    <nd ref="409453944"/>
    <tag k="highway" v="residential"/>
    <tag k="maxspeed" v="50"/>
    <tag k="name" v="Long Street"/>
    <tag k="source" v="survey"/>
  </way>
  <way id="34916892" version="5" timestamp="2009-08-26T14:15:25Z" uid="36809" user="pfoten_weg_!_" changeset="2267796">
    <nd ref="398425"/>
    <nd ref="409683583"/>
    <nd ref="446776535"/>
    <nd ref="446778947"/>
    <nd ref="409683581"/>
    <nd ref="409683580"/>
    <nd ref="409683586"/>
    <nd ref="409683579"/>
    <nd ref="446780030"/>
    <nd ref="409683577"/>
    <nd ref="409683578"/>
    <tag k="highway" v="service"/>
    <tag k="service" v="parking_aisle"/>
  </way>
  <way id="34916893" version="5" timestamp="2009-08-26T14:14:12Z" uid="36809" user="pfoten_weg_!_" changeset="2267796">
    <nd ref="446193900"/>
    <nd ref="409683585"/>
    <nd ref="446195458"/>
    <nd ref="409683587"/>
    <nd ref="409683588"/>
    <nd ref="409683589"/>
    <nd ref="446193901"/>
    <tag k="barrier" v="wall"/>
  </way>
  <way id="34916894" version="4" timestamp="2009-08-26T14:17:15Z" uid="36809" user="pfoten_weg_!_" changeset="2267796">
    <nd ref="409683581"/>
    <nd ref="409683590"/>
    <nd ref="409683591"/>
    <nd ref="446778756"/>
    <nd ref="409683592"/>
    <tag k="embankment" v="yes"/>
    <tag k="highway" v="footway"/>
    <tag k="surface" v="unpaved"/>
    <tag k="width" v="1"/>
  </way>
  <way id="34916895" version="3" timestamp="2009-08-26T14:18:30Z" uid="36809" user="pfoten_weg_!_" changeset="2267796">
    <nd ref="409683591"/>
    <nd ref="409683593"/>
    <nd ref="446778762"/>
    <nd ref="409683596"/>
    <nd ref="446778763"/>
    <nd ref="409683599"/>
    <nd ref="446778767"/>
    <nd ref="409683601"/>
    <nd ref="409683602"/>
    <tag k="embankment" v="yes"/>
    <tag k="highway" v="footway"/>
    <tag k="surface" v="unpaved"/>
    <tag k="width" v="1"/>
  </way>
  <way id="34916896" version="3" timestamp="2009-08-26T14:14:21Z" uid="36809" user="pfoten_weg_!_" changeset="2267796">
    <nd ref="409683609"/>
    <nd ref="446778756"/>
    <tag k="embankment" v="yes"/>
    <tag k="highway" v="footway"/>
    <tag k="surface" v="unpaved"/>
    <tag k="width" v="1"/>
  </way>
  <way id="34916911" version="5" timestamp="2010-03-22T06:30:04Z" uid="20587" user="balrog-kun" changeset="4199043">
    <nd ref="409683708"/>
    <nd ref="409683751"/>
    <tag k="bridge" v="yes"/>
    <tag k="comment" v="Named after Sam Baldock."/>
    <tag k="highway" v="motorway"/>
    <tag k="layer" v="1"/>
    <tag k="name" v="Baldock Freeway"/>
    <tag k="name_1" v="Pacific Highway"/>
    <tag k="oneway" v="yes"/>
    <tag k="ref" v="I 5"/>
    <tag k="source:name" v="ODOT"/>
    <tag k="tiger:cfcc" v="A15"/>
    <tag k="tiger:county" v="Lane, OR"/>
    <tag k="tiger:name_base" v="I-5"/>
    <tag k="tiger:name_base_1" v="Pacific"/>
    <tag k="tiger:name_type_1" v="Hwy"/>
    <tag k="tiger:separated" v="yes"/>
    <tag k="tiger:source" v="tiger_import_dch_v0.6_20070808"/>
    <tag k="tiger:tlid" v="178145613:178145614:178211492:178145737"/>
  </way>
  <way id="34916911" version="6" timestamp="2010-03-29T18:15:24Z" uid="92286" user="Paul Johnson" changeset="4269960">
    <nd ref="409683708"/>
    <nd ref="409683751"/>
    <tag k="bridge" v="yes"/>
    <tag k="comment" v="Named after Sam Baldock."/>
    <tag k="highway" v="motorway"/>
    <tag k="name" v="Baldock Freeway"/>
    <tag k="name_1" v="Pacific Highway"/>
    <tag k="oneway" v="yes"/>
    <tag k="ref" v="I 5"/>
    <tag k="source:name" v="ODOT"/>
    <tag k="tiger:cfcc" v="A15"/>
    <tag k="tiger:county" v="Lane, OR"/>
    <tag k="tiger:name_base" v="I-5"/>
    <tag k="tiger:name_base_1" v="Pacific"/>
    <tag k="tiger:name_type_1" v="Hwy"/>
    <tag k="tiger:separated" v="yes"/>
    <tag k="tiger:source" v="tiger_import_dch_v0.6_20070808"/>
    <tag k="tiger:tlid" v="178145613:178145614:178211492:178145737"/>
  </way>
  <way id="34916911" version="7" timestamp="2011-01-31T05:39:59Z" uid="373763" user="ylekot" changeset="7142182">
    <nd ref="409683708"/>
    <nd ref="409683751"/>
    <tag k="alt_name" v="Pacific Highway #1"/>
    <tag k="bridge" v="yes"/>
    <tag k="comment" v="Named after Sam Baldock."/>
    <tag k="highway" v="motorway"/>
    <tag k="name" v="Interstate 5"/>
    <tag k="name_1" v="Pacific Highway"/>
    <tag k="oneway" v="yes"/>
    <tag k="ref" v="I 5"/>
    <tag k="source:name" v="ODOT"/>
    <tag k="tiger:cfcc" v="A15"/>
    <tag k="tiger:county" v="Lane, OR"/>
    <tag k="tiger:name_base" v="I-5"/>
    <tag k="tiger:name_base_1" v="Pacific"/>
    <tag k="tiger:name_type_1" v="Hwy"/>
    <tag k="tiger:separated" v="yes"/>
    <tag k="tiger:source" v="tiger_import_dch_v0.6_20070808"/>
    <tag k="tiger:tlid" v="178145613:178145614:178211492:178145737"/>
  </way>
  <way id="34916911" version="8" timestamp="2011-03-26T01:20:03Z" uid="92286" user="Paul Johnson" changeset="7670923">
    <nd ref="409683708"/>
    <nd ref="409683751"/>
    <tag k="alt_name" v="Pacific Highway #1"/>
    <tag k="bicycle" v="yes"/>
    <tag k="bridge" v="yes"/>
    <tag k="comment" v="Named after Sam Baldock."/>
    <tag k="highway" v="motorway"/>
    <tag k="name" v="Interstate 5"/>
    <tag k="name_1" v="Pacific Highway"/>
    <tag k="oneway" v="yes"/>
    <tag k="ref" v="I 5"/>
    <tag k="source:name" v="ODOT"/>
    <tag k="tiger:cfcc" v="A15"/>
    <tag k="tiger:county" v="Lane, OR"/>
    <tag k="tiger:name_base" v="I-5"/>
    <tag k="tiger:name_base_1" v="Pacific"/>
    <tag k="tiger:name_type_1" v="Hwy"/>
    <tag k="tiger:separated" v="yes"/>
    <tag k="tiger:source" v="tiger_import_dch_v0.6_20070808"/>
    <tag k="tiger:tlid" v="178145613:178145614:178211492:178145737"/>
  </way>
  <way id="34916911" version="9" timestamp="2011-07-31T13:38:50Z" uid="207745" user="NE2" changeset="8880952">
    <nd ref="409683708"/>
    <nd ref="409683751"/>
    <tag k="alt_name" v="Pacific Highway #1"/>
    <tag k="bicycle" v="yes"/>
    <tag k="bridge" v="yes"/>
    <tag k="comment" v="Named after Sam Baldock."/>
    <tag k="highway" v="motorway"/>
    <tag k="name" v="Pacific Highway"/>
    <tag k="oneway" v="yes"/>
    <tag k="ref" v="I 5"/>
    <tag k="source:name" v="ODOT"/>
    <tag k="tiger:cfcc" v="A15"/>
    <tag k="tiger:county" v="Lane, OR"/>
    <tag k="tiger:name_base" v="I-5"/>
    <tag k="tiger:name_base_1" v="Pacific"/>
    <tag k="tiger:name_type_1" v="Hwy"/>
    <tag k="tiger:separated" v="yes"/>
    <tag k="tiger:source" v="tiger_import_dch_v0.6_20070808"/>
    <tag k="tiger:tlid" v="178145613:178145614:178211492:178145737"/>
  </way>
  <way id="34916911" version="10" timestamp="2011-08-02T22:20:07Z" uid="207745" user="NE2" changeset="8905725">
    <nd ref="409683708"/>
    <nd ref="409683751"/>
    <tag k="alt_name" v="Pacific Highway #1"/>
    <tag k="bicycle" v="yes"/>
    <tag k="bridge" v="yes"/>
    <tag k="comment" v="Named after Sam Baldock."/>
    <tag k="highway" v="motorway"/>
    <tag k="lanes" v="2"/>
    <tag k="name" v="Pacific Highway"/>
    <tag k="oneway" v="yes"/>
    <tag k="ref" v="I 5"/>
    <tag k="source:name" v="ODOT"/>
    <tag k="tiger:cfcc" v="A15"/>
    <tag k="tiger:county" v="Lane, OR"/>
    <tag k="tiger:name_base" v="I-5"/>
    <tag k="tiger:name_base_1" v="Pacific"/>
    <tag k="tiger:name_type_1" v="Hwy"/>
    <tag k="tiger:separated" v="yes"/>
    <tag k="tiger:source" v="tiger_import_dch_v0.6_20070808"/>
    <tag k="tiger:tlid" v="178145613:178145614:178211492:178145737"/>
  </way>
  <way id="34916911" version="11" timestamp="2011-11-25T17:17:31Z" uid="207745" user="NE2" changeset="9945867">
    <nd ref="409683708"/>
    <nd ref="409683751"/>
    <tag k="alt_name" v="Pacific Highway #1"/>
    <tag k="bicycle" v="yes"/>
    <tag k="bridge" v="yes"/>
    <tag k="comment" v="Named after Sam Baldock."/>
    <tag k="hgv" v="designated"/>
    <tag k="highway" v="motorway"/>
    <tag k="lanes" v="2"/>
    <tag k="name" v="Pacific Highway"/>
    <tag k="oneway" v="yes"/>
    <tag k="ref" v="I 5"/>
    <tag k="source:name" v="ODOT"/>
    <tag k="tiger:cfcc" v="A15"/>
    <tag k="tiger:county" v="Lane, OR"/>
    <tag k="tiger:name_base" v="I-5"/>
    <tag k="tiger:name_base_1" v="Pacific"/>
    <tag k="tiger:name_type_1" v="Hwy"/>
    <tag k="tiger:separated" v="yes"/>
    <tag k="tiger:source" v="tiger_import_dch_v0.6_20070808"/>
    <tag k="tiger:tlid" v="178145613:178145614:178211492:178145737"/>
  </way>
  <way id="34916912" version="5" timestamp="2010-03-22T06:30:05Z" uid="20587" user="balrog-kun" changeset="4199043">
    <nd ref="409683751"/>
    <nd ref="408875050"/>
    <nd ref="408875052"/>
    <nd ref="408875053"/>
    <nd ref="408875056"/>
    <nd ref="408875058"/>
    <nd ref="408875060"/>
    <nd ref="408875062"/>
    <nd ref="408875065"/>
    <tag k="comment" v="Named after Sam Baldock."/>
    <tag k="highway" v="motorway"/>
    <tag k="name" v="Baldock Freeway"/>
    <tag k="name_1" v="Pacific Highway"/>
    <tag k="oneway" v="yes"/>
    <tag k="ref" v="I 5"/>
    <tag k="source:name" v="ODOT"/>
    <tag k="tiger:cfcc" v="A15"/>
    <tag k="tiger:county" v="Lane, OR"/>
    <tag k="tiger:name_base" v="I-5"/>
    <tag k="tiger:name_base_1" v="Pacific"/>
    <tag k="tiger:name_type_1" v="Hwy"/>
    <tag k="tiger:separated" v="yes"/>
    <tag k="tiger:source" v="tiger_import_dch_v0.6_20070808"/>
    <tag k="tiger:tlid" v="178145613:178145614:178211492:178145737"/>
  </way>
  <way id="34916912" version="6" timestamp="2011-01-31T05:39:59Z" uid="373763" user="ylekot" changeset="7142182">
    <nd ref="409683751"/>
    <nd ref="408875050"/>
    <nd ref="408875052"/>
    <nd ref="408875053"/>
    <nd ref="408875056"/>
    <nd ref="408875058"/>
    <nd ref="408875060"/>
    <nd ref="408875062"/>
    <nd ref="408875065"/>
    <tag k="alt_name" v="Pacific Highway #1"/>
    <tag k="comment" v="Named after Sam Baldock."/>
    <tag k="highway" v="motorway"/>
    <tag k="name" v="Interstate 5"/>
    <tag k="name_1" v="Pacific Highway"/>
    <tag k="oneway" v="yes"/>
    <tag k="ref" v="I 5"/>
    <tag k="source:name" v="ODOT"/>
    <tag k="tiger:cfcc" v="A15"/>
    <tag k="tiger:county" v="Lane, OR"/>
    <tag k="tiger:name_base" v="I-5"/>
    <tag k="tiger:name_base_1" v="Pacific"/>
    <tag k="tiger:name_type_1" v="Hwy"/>
    <tag k="tiger:separated" v="yes"/>
    <tag k="tiger:source" v="tiger_import_dch_v0.6_20070808"/>
    <tag k="tiger:tlid" v="178145613:178145614:178211492:178145737"/>
  </way>
  <way id="34916912" version="7" timestamp="2011-03-26T01:21:45Z" uid="92286" user="Paul Johnson" changeset="7670923">
    <nd ref="409683751"/>
    <nd ref="408875050"/>
    <nd ref="408875052"/>
    <nd ref="408875053"/>
    <nd ref="408875056"/>
    <nd ref="408875058"/>
    <nd ref="408875060"/>
    <nd ref="408875062"/>
    <nd ref="408875065"/>
    <tag k="alt_name" v="Pacific Highway #1"/>
    <tag k="bicycle" v="yes"/>
    <tag k="comment" v="Named after Sam Baldock."/>
    <tag k="highway" v="motorway"/>
    <tag k="name" v="Interstate 5"/>
    <tag k="name_1" v="Pacific Highway"/>
    <tag k="oneway" v="yes"/>
    <tag k="ref" v="I 5"/>
    <tag k="source:name" v="ODOT"/>
    <tag k="tiger:cfcc" v="A15"/>
    <tag k="tiger:county" v="Lane, OR"/>
    <tag k="tiger:name_base" v="I-5"/>
    <tag k="tiger:name_base_1" v="Pacific"/>
    <tag k="tiger:name_type_1" v="Hwy"/>
    <tag k="tiger:separated" v="yes"/>
    <tag k="tiger:source" v="tiger_import_dch_v0.6_20070808"/>
    <tag k="tiger:tlid" v="178145613:178145614:178211492:178145737"/>
  </way>
  <way id="34916912" version="8" timestamp="2011-07-31T13:39:42Z" uid="207745" user="NE2" changeset="8880952">
    <nd ref="409683751"/>
    <nd ref="408875050"/>
    <nd ref="408875052"/>
    <nd ref="408875053"/>
    <nd ref="408875056"/>
    <nd ref="408875058"/>
    <nd ref="408875060"/>
    <nd ref="408875062"/>
    <nd ref="408875065"/>
    <tag k="alt_name" v="Pacific Highway #1"/>
    <tag k="bicycle" v="yes"/>
    <tag k="comment" v="Named after Sam Baldock."/>
    <tag k="highway" v="motorway"/>
    <tag k="name" v="Pacific Highway"/>
    <tag k="oneway" v="yes"/>
    <tag k="ref" v="I 5"/>
    <tag k="source:name" v="ODOT"/>
    <tag k="tiger:cfcc" v="A15"/>
    <tag k="tiger:county" v="Lane, OR"/>
    <tag k="tiger:name_base" v="I-5"/>
    <tag k="tiger:name_base_1" v="Pacific"/>
    <tag k="tiger:name_type_1" v="Hwy"/>
    <tag k="tiger:separated" v="yes"/>
    <tag k="tiger:source" v="tiger_import_dch_v0.6_20070808"/>
    <tag k="tiger:tlid" v="178145613:178145614:178211492:178145737"/>
  </way>
  <way id="34916912" version="9" timestamp="2011-08-02T22:20:31Z" uid="207745" user="NE2" changeset="8905725">
    <nd ref="409683751"/>
    <nd ref="408875050"/>
    <nd ref="408875052"/>
    <nd ref="408875053"/>
    <nd ref="408875056"/>
    <nd ref="408875058"/>
    <nd ref="408875060"/>
    <nd ref="408875062"/>
    <nd ref="408875065"/>
    <tag k="alt_name" v="Pacific Highway #1"/>
    <tag k="bicycle" v="yes"/>
    <tag k="comment" v="Named after Sam Baldock."/>
    <tag k="highway" v="motorway"/>
    <tag k="lanes" v="2"/>
    <tag k="name" v="Pacific Highway"/>
    <tag k="oneway" v="yes"/>
    <tag k="ref" v="I 5"/>
    <tag k="source:name" v="ODOT"/>
    <tag k="tiger:cfcc" v="A15"/>
    <tag k="tiger:county" v="Lane, OR"/>
    <tag k="tiger:name_base" v="I-5"/>
    <tag k="tiger:name_base_1" v="Pacific"/>
    <tag k="tiger:name_type_1" v="Hwy"/>
    <tag k="tiger:separated" v="yes"/>
    <tag k="tiger:source" v="tiger_import_dch_v0.6_20070808"/>
    <tag k="tiger:tlid" v="178145613:178145614:178211492:178145737"/>
  </way>
  <way id="34916912" version="10" timestamp="2011-11-25T17:19:27Z" uid="207745" user="NE2" changeset="9945867">
    <nd ref="409683751"/>
    <nd ref="408875050"/>
    <nd ref="408875052"/>
    <nd ref="408875053"/>
    <nd ref="408875056"/>
    <nd ref="408875058"/>
    <nd ref="408875060"/>
    <nd ref="408875062"/>
    <nd ref="408875065"/>
    <tag k="alt_name" v="Pacific Highway #1"/>
    <tag k="bicycle" v="yes"/>
    <tag k="comment" v="Named after Sam Baldock."/>
    <tag k="hgv" v="designated"/>
    <tag k="highway" v="motorway"/>
    <tag k="lanes" v="2"/>
    <tag k="name" v="Pacific Highway"/>
    <tag k="oneway" v="yes"/>
    <tag k="ref" v="I 5"/>
    <tag k="source:name" v="ODOT"/>
    <tag k="tiger:cfcc" v="A15"/>
    <tag k="tiger:county" v="Lane, OR"/>
    <tag k="tiger:name_base" v="I-5"/>
    <tag k="tiger:name_base_1" v="Pacific"/>
    <tag k="tiger:name_type_1" v="Hwy"/>
    <tag k="tiger:separated" v="yes"/>
    <tag k="tiger:source" v="tiger_import_dch_v0.6_20070808"/>
    <tag k="tiger:tlid" v="178145613:178145614:178211492:178145737"/>
  </way>
  <way id="34916999" version="5" timestamp="2010-03-22T06:30:05Z" uid="20587" user="balrog-kun" changeset="4199043">
    <nd ref="409685607"/>
    <nd ref="408892578"/>
    <nd ref="408892580"/>
    <nd ref="408892581"/>
    <nd ref="408892582"/>
    <nd ref="408892583"/>
    <nd ref="408892584"/>
    <nd ref="408892586"/>
    <nd ref="408892587"/>
    <nd ref="408892588"/>
    <nd ref="408893785"/>
    <nd ref="408893787"/>
    <tag k="comment" v="Named after Sam Baldock."/>
    <tag k="highway" v="motorway"/>
    <tag k="name" v="Baldock Freeway"/>
    <tag k="name_1" v="Pacific Highway"/>
    <tag k="oneway" v="yes"/>
    <tag k="ref" v="I 5"/>
    <tag k="source:name" v="ODOT"/>
    <tag k="tiger:cfcc" v="A15"/>
    <tag k="tiger:county" v="Lane, OR"/>
    <tag k="tiger:name_base" v="I-5"/>
    <tag k="tiger:name_base_1" v="Pacific"/>
    <tag k="tiger:name_type_1" v="Hwy"/>
    <tag k="tiger:separated" v="yes"/>
    <tag k="tiger:source" v="tiger_import_dch_v0.6_20070808"/>
    <tag k="tiger:tlid" v="178145613:178145614:178211492:178145737"/>
  </way>
  <way id="34916999" version="6" timestamp="2011-02-01T05:14:08Z" uid="373763" user="ylekot" changeset="7151637">
    <nd ref="409685607"/>
    <nd ref="408892578"/>
    <nd ref="408892580"/>
    <nd ref="408892581"/>
    <nd ref="408892582"/>
    <nd ref="408892583"/>
    <nd ref="408892584"/>
    <nd ref="408892586"/>
    <nd ref="408892587"/>
    <nd ref="408892588"/>
    <nd ref="408893785"/>
    <nd ref="408893787"/>
    <tag k="alt_name" v="Pacific Highway #1"/>
    <tag k="comment" v="Named after Sam Baldock."/>
    <tag k="highway" v="motorway"/>
    <tag k="name" v="Interstate 5"/>
    <tag k="name_1" v="Pacific Highway"/>
    <tag k="oneway" v="yes"/>
    <tag k="ref" v="I 5"/>
    <tag k="source:name" v="ODOT"/>
    <tag k="tiger:cfcc" v="A15"/>
    <tag k="tiger:county" v="Lane, OR"/>
    <tag k="tiger:name_base" v="I-5"/>
    <tag k="tiger:name_base_1" v="Pacific"/>
    <tag k="tiger:name_type_1" v="Hwy"/>
    <tag k="tiger:separated" v="yes"/>
    <tag k="tiger:source" v="tiger_import_dch_v0.6_20070808"/>
    <tag k="tiger:tlid" v="178145613:178145614:178211492:178145737"/>
  </way>
  <way id="34916999" version="7" timestamp="2011-03-26T01:22:18Z" uid="92286" user="Paul Johnson" changeset="7670923">
    <nd ref="409685607"/>
    <nd ref="408892578"/>
    <nd ref="408892580"/>
    <nd ref="408892581"/>
    <nd ref="408892582"/>
    <nd ref="408892583"/>
    <nd ref="408892584"/>
    <nd ref="408892586"/>
    <nd ref="408892587"/>
    <nd ref="408892588"/>
    <nd ref="408893785"/>
    <nd ref="408893787"/>
    <tag k="alt_name" v="Pacific Highway #1"/>
    <tag k="bicycle" v="yes"/>
    <tag k="comment" v="Named after Sam Baldock."/>
    <tag k="highway" v="motorway"/>
    <tag k="name" v="Interstate 5"/>
    <tag k="name_1" v="Pacific Highway"/>
    <tag k="oneway" v="yes"/>
    <tag k="ref" v="I 5"/>
    <tag k="source:name" v="ODOT"/>
    <tag k="tiger:cfcc" v="A15"/>
    <tag k="tiger:county" v="Lane, OR"/>
    <tag k="tiger:name_base" v="I-5"/>
    <tag k="tiger:name_base_1" v="Pacific"/>
    <tag k="tiger:name_type_1" v="Hwy"/>
    <tag k="tiger:separated" v="yes"/>
    <tag k="tiger:source" v="tiger_import_dch_v0.6_20070808"/>
    <tag k="tiger:tlid" v="178145613:178145614:178211492:178145737"/>
  </way>
  <way id="34916999" version="8" timestamp="2011-07-31T13:38:31Z" uid="207745" user="NE2" changeset="8880952">
    <nd ref="409685607"/>
    <nd ref="408892578"/>
    <nd ref="408892580"/>
    <nd ref="408892581"/>
    <nd ref="408892582"/>
    <nd ref="408892583"/>
    <nd ref="408892584"/>
    <nd ref="408892586"/>
    <nd ref="408892587"/>
    <nd ref="408892588"/>
    <nd ref="408893785"/>
    <nd ref="408893787"/>
    <tag k="alt_name" v="Pacific Highway #1"/>
    <tag k="bicycle" v="yes"/>
    <tag k="comment" v="Named after Sam Baldock."/>
    <tag k="highway" v="motorway"/>
    <tag k="name" v="Pacific Highway"/>
    <tag k="oneway" v="yes"/>
    <tag k="ref" v="I 5"/>
    <tag k="source:name" v="ODOT"/>
    <tag k="tiger:cfcc" v="A15"/>
    <tag k="tiger:county" v="Lane, OR"/>
    <tag k="tiger:name_base" v="I-5"/>
    <tag k="tiger:name_base_1" v="Pacific"/>
    <tag k="tiger:name_type_1" v="Hwy"/>
    <tag k="tiger:separated" v="yes"/>
    <tag k="tiger:source" v="tiger_import_dch_v0.6_20070808"/>
    <tag k="tiger:tlid" v="178145613:178145614:178211492:178145737"/>
  </way>
  <way id="34916999" version="9" timestamp="2011-08-02T22:19:26Z" uid="207745" user="NE2" changeset="8905725">
    <nd ref="409685607"/>
    <nd ref="408892578"/>
    <nd ref="408892580"/>
    <nd ref="408892581"/>
    <nd ref="408892582"/>
    <nd ref="408892583"/>
    <nd ref="408892584"/>
    <nd ref="408892586"/>
    <nd ref="408892587"/>
    <nd ref="408892588"/>
    <nd ref="408893785"/>
    <nd ref="408893787"/>
    <tag k="alt_name" v="Pacific Highway #1"/>
    <tag k="bicycle" v="yes"/>
    <tag k="comment" v="Named after Sam Baldock."/>
    <tag k="highway" v="motorway"/>
    <tag k="lanes" v="2"/>
    <tag k="name" v="Pacific Highway"/>
    <tag k="oneway" v="yes"/>
    <tag k="ref" v="I 5"/>
    <tag k="source:name" v="ODOT"/>
    <tag k="tiger:cfcc" v="A15"/>
    <tag k="tiger:county" v="Lane, OR"/>
    <tag k="tiger:name_base" v="I-5"/>
    <tag k="tiger:name_base_1" v="Pacific"/>
    <tag k="tiger:name_type_1" v="Hwy"/>
    <tag k="tiger:separated" v="yes"/>
    <tag k="tiger:source" v="tiger_import_dch_v0.6_20070808"/>
    <tag k="tiger:tlid" v="178145613:178145614:178211492:178145737"/>
  </way>
  <way id="34916999" version="10" timestamp="2011-11-25T17:16:11Z" uid="207745" user="NE2" changeset="9945867">
    <nd ref="409685607"/>
    <nd ref="408892578"/>
    <nd ref="408892580"/>
    <nd ref="408892581"/>
    <nd ref="408892582"/>
    <nd ref="408892583"/>
    <nd ref="408892584"/>
    <nd ref="408892586"/>
    <nd ref="408892587"/>
    <nd ref="408892588"/>
    <nd ref="408893785"/>
    <nd ref="408893787"/>
    <tag k="alt_name" v="Pacific Highway #1"/>
    <tag k="bicycle" v="yes"/>
    <tag k="comment" v="Named after Sam Baldock."/>
    <tag k="hgv" v="designated"/>
    <tag k="highway" v="motorway"/>
    <tag k="lanes" v="2"/>
    <tag k="name" v="Pacific Highway"/>
    <tag k="oneway" v="yes"/>
    <tag k="ref" v="I 5"/>
    <tag k="source:name" v="ODOT"/>
    <tag k="tiger:cfcc" v="A15"/>
    <tag k="tiger:county" v="Lane, OR"/>
    <tag k="tiger:name_base" v="I-5"/>
    <tag k="tiger:name_base_1" v="Pacific"/>
    <tag k="tiger:name_type_1" v="Hwy"/>
    <tag k="tiger:separated" v="yes"/>
    <tag k="tiger:source" v="tiger_import_dch_v0.6_20070808"/>
    <tag k="tiger:tlid" v="178145613:178145614:178211492:178145737"/>
  </way>
</osm>
