<?xml version='1.0' encoding='UTF-8'?>
<osm version="0.6" generator="libosmium/2.20.0">
  <way id="34979423" version="1" timestamp="2009-05-23T23:40:43Z" uid="30632" user="antblant" changeset="1300701">
    <nd ref="254067854"/>
    <nd ref="254067853"/>
    <nd ref="254067852"/>
    <tag k="created_by" v="Potlatch 0.9c"/>
    <tag k="highway" v="track"/>
    <tag k="source" v="UMP-PL, ./UMP-Szczecin/src/SZCZECIN.ulice.txt"/>
    <tag k="surface" v="unpaved"/>
  </way>
  <way id="34979423" version="2" timestamp="2009-05-23T23:40:56Z" uid="30632" user="antblant" changeset="1300701">
    <nd ref="254067854"/>
    <nd ref="254067853"/>
    <nd ref="254067852"/>
    <tag k="created_by" v="Potlatch 0.9c"/>
    <tag k="highway" v="track"/>
    <tag k="name" v="Miętowa"/>
    <tag k="source" v="UMP-PL, ./UMP-Szczecin/src/SZCZECIN.ulice.txt"/>
    <tag k="surface" v="unpaved"/>
  </way>
  <way id="34979423" version="3" timestamp="2009-05-25T17:08:27Z" uid="30632" user="antblant" changeset="1318400">
    <nd ref="254067854"/>
    <nd ref="254067853"/>
    <tag k="highway" v="residential"/>
    <tag k="name" v="Miętowa"/>
    <tag k="surface" v="unpaved"/>
  </way>
  <way id="34979607" version="1" timestamp="2009-05-23T23:41:39Z" uid="30632" user="antblant" changeset="1300701">
    <nd ref="254067854"/>
    <nd ref="410383514"/>
    <tag k="name" v="Maciejki"/>
  </way>
  <way id="34979607" version="2" timestamp="2010-02-03T21:18:44Z" uid="35127" user="wopozka" changeset="3786380">
    <nd ref="254067854"/>
    <nd ref="410383514"/>
    <tag k="highway" v="track"/>
    <tag k="name" v="Maciejki"/>
  </way>
</osm>
