<?xml version='1.0' encoding='UTF-8'?>
<osm version="0.6" generator="libosmium/2.20.0">
  <way id="35104283" version="4" timestamp="2009-10-28T22:03:49Z" uid="164966" user="linuss1" changeset="2977427">
    <nd ref="247375576"/>
    <nd ref="247375874"/>
    <nd ref="247375875"/>
    <nd ref="247375876"/>
    <nd ref="247375877"/>
    <nd ref="247375878"/>
    <nd ref="247375879"/>
    <nd ref="247375880"/>
    <nd ref="247375881"/>
    <nd ref="247375882"/>
    <nd ref="247375883"/>
    <nd ref="247375884"/>
    <nd ref="544235401"/>
    <nd ref="247377515"/>
    <tag k="highway" v="secondary"/>
    <tag k="ref" v="L 261"/>
  </way>
  <way id="35104283" version="5" timestamp="2011-09-09T20:26:05Z" uid="208052" user="Jochen Kiene" changeset="9257687">
    <nd ref="247375576"/>
    <nd ref="247375874"/>
    <nd ref="1428326516"/>
    <nd ref="247375875"/>
    <nd ref="1428326521"/>
    <nd ref="247375876"/>
    <nd ref="247375877"/>
    <nd ref="247375878"/>
    <nd ref="247375879"/>
    <nd ref="247375880"/>
    <nd ref="247375881"/>
    <nd ref="247375882"/>
    <nd ref="247375883"/>
    <nd ref="247375884"/>
    <nd ref="544235401"/>
    <nd ref="247377515"/>
    <tag k="highway" v="secondary"/>
    <tag k="ref" v="L 261"/>
  </way>
  <way id="35104283" version="6" timestamp="2012-01-28T18:16:21Z" uid="454746" user="Krümel71" changeset="10523390">
    <nd ref="247375576"/>
    <nd ref="247375874"/>
    <nd ref="1428326516"/>
    <nd ref="247375875"/>
    <nd ref="1428326521"/>
    <nd ref="247375876"/>
    <nd ref="247375877"/>
    <nd ref="247375878"/>
    <nd ref="247375879"/>
    <nd ref="247375880"/>
    <nd ref="247375881"/>
    <nd ref="247375882"/>
    <nd ref="247375883"/>
    <nd ref="247375884"/>
    <nd ref="544235401"/>
    <nd ref="247377515"/>
    <tag k="highway" v="secondary"/>
    <tag k="rcn" v="yes"/>
    <tag k="rcn_ref" v="rvnsh"/>
    <tag k="ref" v="L 261"/>
  </way>
  <way id="35104287" version="2" timestamp="2009-11-06T21:44:28Z" uid="164966" user="linuss1" changeset="3051999">
    <nd ref="81571415"/>
    <nd ref="558605281"/>
    <nd ref="21534819"/>
    <nd ref="280461900"/>
    <nd ref="21534822"/>
    <nd ref="280460797"/>
    <nd ref="280459896"/>
    <nd ref="21534830"/>
    <nd ref="280459359"/>
    <nd ref="280459356"/>
    <nd ref="280460999"/>
    <nd ref="21534834"/>
    <nd ref="280460038"/>
    <tag k="highway" v="secondary"/>
    <tag k="name" v="Hauptstraße"/>
    <tag k="ref" v="L 262"/>
  </way>
  <way id="35104287" version="3" timestamp="2010-05-20T09:03:07Z" uid="290221" user="MotoClaude" changeset="4755072">
    <nd ref="81571415"/>
    <nd ref="558605281"/>
    <nd ref="21534819"/>
    <nd ref="280461900"/>
    <nd ref="21534822"/>
    <nd ref="280460797"/>
    <nd ref="280459896"/>
    <nd ref="21534830"/>
    <nd ref="280459359"/>
    <nd ref="280459356"/>
    <nd ref="740590451"/>
    <nd ref="280460999"/>
    <nd ref="21534834"/>
    <nd ref="280460038"/>
    <tag k="highway" v="secondary"/>
    <tag k="name" v="Hauptstraße"/>
    <tag k="ref" v="L 262"/>
  </way>
  <way id="35104287" version="4" timestamp="2010-12-30T08:10:11Z" uid="317484" user="Foerderadler" changeset="6806420">
    <nd ref="81571415"/>
    <nd ref="558605281"/>
    <nd ref="21534819"/>
    <nd ref="280461900"/>
    <nd ref="21534822"/>
    <nd ref="280460797"/>
    <nd ref="280459896"/>
    <nd ref="21534830"/>
    <nd ref="280459359"/>
    <nd ref="280459356"/>
    <nd ref="740590451"/>
    <nd ref="280460999"/>
    <nd ref="21534834"/>
    <nd ref="280460038"/>
    <tag k="highway" v="secondary"/>
    <tag k="name" v="Hauptstraße"/>
    <tag k="ref" v="L 261"/>
  </way>
  <way id="35104287" version="5" timestamp="2011-05-29T15:55:46Z" uid="121541" user="PatEric" changeset="8282232">
    <nd ref="81571415"/>
    <nd ref="558605281"/>
    <nd ref="21534819"/>
    <nd ref="280461900"/>
    <nd ref="21534822"/>
    <nd ref="280460797"/>
    <tag k="highway" v="secondary"/>
    <tag k="maxspeed" v="50"/>
    <tag k="name" v="Hauptstraße"/>
    <tag k="ref" v="L 261"/>
  </way>
  <way id="35104287" version="6" timestamp="2011-05-30T12:35:47Z" uid="39691" user="yzemaze" changeset="8291017">
    <nd ref="81571415"/>
    <nd ref="1304900237"/>
    <nd ref="558605281"/>
    <nd ref="21534819"/>
    <nd ref="280461900"/>
    <nd ref="21534822"/>
    <nd ref="280460797"/>
    <tag k="highway" v="secondary"/>
    <tag k="maxspeed" v="50"/>
    <tag k="name" v="Hauptstraße"/>
    <tag k="ref" v="L 261"/>
  </way>
  <way id="35104910" version="4" timestamp="2010-03-28T02:08:46Z" uid="20587" user="balrog-kun" changeset="4250871">
    <nd ref="411834424"/>
    <nd ref="411834425"/>
    <tag k="bridge" v="yes"/>
    <tag k="highway" v="motorway"/>
    <tag k="layer" v="1"/>
    <tag k="name" v="Ontario Freeway"/>
    <tag k="oneway" v="yes"/>
    <tag k="ref" v="I 15"/>
    <tag k="tiger:cfcc" v="A15"/>
    <tag k="tiger:county" v="San Bernardino, CA"/>
    <tag k="tiger:name_base" v="I-15"/>
    <tag k="tiger:name_base_1" v="Mojave"/>
    <tag k="tiger:name_type_1" v="Fwy"/>
    <tag k="tiger:separated" v="yes"/>
    <tag k="tiger:source" v="tiger_import_dch_v0.6_20070809"/>
    <tag k="tiger:tlid" v="144638826:144639574:144767235:144767236:144639592:144639603:144639611:145225788:144591755:144591504:145225787:144638521:144590864:144638534:144639070:144639076:144723205:144723203:144723206:144639056:144731305:144731306:144638301:144638318:144638457:14463"/>
  </way>
  <way id="35104910" version="5" timestamp="2011-07-31T15:22:42Z" uid="207745" user="NE2" changeset="8881942">
    <nd ref="411834424"/>
    <nd ref="411834425"/>
    <tag k="bridge" v="yes"/>
    <tag k="highway" v="motorway"/>
    <tag k="lanes" v="4"/>
    <tag k="layer" v="1"/>
    <tag k="name" v="Ontario Freeway"/>
    <tag k="oneway" v="yes"/>
    <tag k="ref" v="I 15"/>
    <tag k="tiger:cfcc" v="A15"/>
    <tag k="tiger:county" v="San Bernardino, CA"/>
    <tag k="tiger:name_base" v="I-15"/>
    <tag k="tiger:name_base_1" v="Mojave"/>
    <tag k="tiger:name_type_1" v="Fwy"/>
    <tag k="tiger:separated" v="yes"/>
    <tag k="tiger:source" v="tiger_import_dch_v0.6_20070809"/>
    <tag k="tiger:tlid" v="144638826:144639574:144767235:144767236:144639592:144639603:144639611:145225788:144591755:144591504:145225787:144638521:144590864:144638534:144639070:144639076:144723205:144723203:144723206:144639056:144731305:144731306:144638301:144638318:144638457:14463"/>
  </way>
  <way id="35104910" version="6" timestamp="2011-11-25T14:45:32Z" uid="207745" user="NE2" changeset="9943893">
    <nd ref="411834424"/>
    <nd ref="411834425"/>
    <tag k="bridge" v="yes"/>
    <tag k="hgv" v="designated"/>
    <tag k="highway" v="motorway"/>
    <tag k="lanes" v="4"/>
    <tag k="layer" v="1"/>
    <tag k="name" v="Ontario Freeway"/>
    <tag k="oneway" v="yes"/>
    <tag k="ref" v="I 15"/>
    <tag k="tiger:cfcc" v="A15"/>
    <tag k="tiger:county" v="San Bernardino, CA"/>
    <tag k="tiger:name_base" v="I-15"/>
    <tag k="tiger:name_base_1" v="Mojave"/>
    <tag k="tiger:name_type_1" v="Fwy"/>
    <tag k="tiger:separated" v="yes"/>
    <tag k="tiger:source" v="tiger_import_dch_v0.6_20070809"/>
    <tag k="tiger:tlid" v="144638826:144639574:144767235:144767236:144639592:144639603:144639611:145225788:144591755:144591504:145225787:144638521:144590864:144638534:144639070:144639076:144723205:144723203:144723206:144639056:144731305:144731306:144638301:144638318:144638457:14463"/>
  </way>
  <way id="35104911" version="4" timestamp="2010-03-28T02:08:46Z" uid="20587" user="balrog-kun" changeset="4250871">
    <nd ref="411834425"/>
    <nd ref="411635305"/>
    <tag k="highway" v="motorway"/>
    <tag k="name" v="Ontario Freeway"/>
    <tag k="oneway" v="yes"/>
    <tag k="ref" v="I 15"/>
    <tag k="tiger:cfcc" v="A15"/>
    <tag k="tiger:county" v="San Bernardino, CA"/>
    <tag k="tiger:name_base" v="I-15"/>
    <tag k="tiger:name_base_1" v="Mojave"/>
    <tag k="tiger:name_type_1" v="Fwy"/>
    <tag k="tiger:separated" v="yes"/>
    <tag k="tiger:source" v="tiger_import_dch_v0.6_20070809"/>
    <tag k="tiger:tlid" v="144638826:144639574:144767235:144767236:144639592:144639603:144639611:145225788:144591755:144591504:145225787:144638521:144590864:144638534:144639070:144639076:144723205:144723203:144723206:144639056:144731305:144731306:144638301:144638318:144638457:14463"/>
  </way>
  <way id="35104911" version="5" timestamp="2011-07-31T15:22:59Z" uid="207745" user="NE2" changeset="8881942">
    <nd ref="411834425"/>
    <nd ref="411635305"/>
    <tag k="highway" v="motorway"/>
    <tag k="lanes" v="4"/>
    <tag k="name" v="Ontario Freeway"/>
    <tag k="oneway" v="yes"/>
    <tag k="ref" v="I 15"/>
    <tag k="tiger:cfcc" v="A15"/>
    <tag k="tiger:county" v="San Bernardino, CA"/>
    <tag k="tiger:name_base" v="I-15"/>
    <tag k="tiger:name_base_1" v="Mojave"/>
    <tag k="tiger:name_type_1" v="Fwy"/>
    <tag k="tiger:separated" v="yes"/>
    <tag k="tiger:source" v="tiger_import_dch_v0.6_20070809"/>
    <tag k="tiger:tlid" v="144638826:144639574:144767235:144767236:144639592:144639603:144639611:145225788:144591755:144591504:145225787:144638521:144590864:144638534:144639070:144639076:144723205:144723203:144723206:144639056:144731305:144731306:144638301:144638318:144638457:14463"/>
  </way>
  <way id="35104911" version="6" timestamp="2011-11-25T14:45:47Z" uid="207745" user="NE2" changeset="9943893">
    <nd ref="411834425"/>
    <nd ref="411635305"/>
    <tag k="hgv" v="designated"/>
    <tag k="highway" v="motorway"/>
    <tag k="lanes" v="4"/>
    <tag k="name" v="Ontario Freeway"/>
    <tag k="oneway" v="yes"/>
    <tag k="ref" v="I 15"/>
    <tag k="tiger:cfcc" v="A15"/>
    <tag k="tiger:county" v="San Bernardino, CA"/>
    <tag k="tiger:name_base" v="I-15"/>
    <tag k="tiger:name_base_1" v="Mojave"/>
    <tag k="tiger:name_type_1" v="Fwy"/>
    <tag k="tiger:separated" v="yes"/>
    <tag k="tiger:source" v="tiger_import_dch_v0.6_20070809"/>
    <tag k="tiger:tlid" v="144638826:144639574:144767235:144767236:144639592:144639603:144639611:145225788:144591755:144591504:145225787:144638521:144590864:144638534:144639070:144639076:144723205:144723203:144723206:144639056:144731305:144731306:144638301:144638318:144638457:14463"/>
  </way>
  <way id="35104912" version="5" timestamp="2010-03-28T02:08:46Z" uid="20587" user="balrog-kun" changeset="4250871">
    <nd ref="411834426"/>
    <nd ref="411637028"/>
    <tag k="highway" v="motorway"/>
    <tag k="name" v="CHP Ofcr. John Bailey Mem. Freeway"/>
    <tag k="name_1" v="Ontario Freeway"/>
    <tag k="oneway" v="yes"/>
    <tag k="ref" v="I 15"/>
    <tag k="tiger:cfcc" v="A15"/>
    <tag k="tiger:county" v="San Bernardino, CA"/>
    <tag k="tiger:name_base" v="I-15"/>
    <tag k="tiger:name_base_1" v="Mojave"/>
    <tag k="tiger:name_type_1" v="Fwy"/>
    <tag k="tiger:separated" v="yes"/>
    <tag k="tiger:source" v="tiger_import_dch_v0.6_20070809"/>
    <tag k="tiger:tlid" v="144638826:144639574:144767235:144767236:144639592:144639603:144639611:145225788:144591755:144591504:145225787:144638521:144590864:144638534:144639070:144639076:144723205:144723203:144723206:144639056:144731305:144731306:144638301:144638318:144638457:14463"/>
  </way>
  <way id="35104912" version="6" timestamp="2010-07-06T15:46:34Z" uid="239998" user="Sundance" changeset="5151519">
    <nd ref="411834426"/>
    <nd ref="411637028"/>
    <tag k="highway" v="motorway"/>
    <tag k="is_in" v="San Bernardino, CA"/>
    <tag k="name" v="CHP Ofcr. John Bailey Mem. Freeway"/>
    <tag k="name_1" v="Ontario Freeway"/>
    <tag k="name_2" v="Interstate 15"/>
    <tag k="oneway" v="yes"/>
    <tag k="ref" v="I 15"/>
  </way>
  <way id="35104912" version="7" timestamp="2011-01-05T19:39:08Z" uid="82317" user="AM909" changeset="6875325">
    <nd ref="411834426"/>
    <nd ref="411637028"/>
    <tag k="highway" v="motorway"/>
    <tag k="is_in" v="San Bernardino, CA"/>
    <tag k="name" v="Ontario Freeway"/>
    <tag k="official_name" v="CHP Ofcr. John Bailey Mem. Freeway"/>
    <tag k="oneway" v="yes"/>
    <tag k="ref" v="I 15"/>
    <tag k="source" v="bing_imagery_0.06m_200701"/>
  </way>
  <way id="35104912" version="8" timestamp="2011-07-31T15:22:41Z" uid="207745" user="NE2" changeset="8881942">
    <nd ref="411834426"/>
    <nd ref="411637028"/>
    <tag k="highway" v="motorway"/>
    <tag k="is_in" v="San Bernardino, CA"/>
    <tag k="lanes" v="4"/>
    <tag k="name" v="Ontario Freeway"/>
    <tag k="official_name" v="CHP Ofcr. John Bailey Mem. Freeway"/>
    <tag k="oneway" v="yes"/>
    <tag k="ref" v="I 15"/>
    <tag k="source" v="bing_imagery_0.06m_200701"/>
  </way>
  <way id="35104912" version="9" timestamp="2011-11-25T14:46:11Z" uid="207745" user="NE2" changeset="9943893">
    <nd ref="411834426"/>
    <nd ref="411637028"/>
    <tag k="hgv" v="designated"/>
    <tag k="highway" v="motorway"/>
    <tag k="is_in" v="San Bernardino, CA"/>
    <tag k="lanes" v="4"/>
    <tag k="name" v="Ontario Freeway"/>
    <tag k="official_name" v="CHP Ofcr. John Bailey Mem. Freeway"/>
    <tag k="oneway" v="yes"/>
    <tag k="ref" v="I 15"/>
    <tag k="source" v="bing_imagery_0.06m_200701"/>
  </way>
  <way id="35104913" version="4" timestamp="2010-03-28T02:08:47Z" uid="20587" user="balrog-kun" changeset="4250871">
    <nd ref="411834427"/>
    <nd ref="411834426"/>
    <tag k="bridge" v="yes"/>
    <tag k="highway" v="motorway"/>
    <tag k="layer" v="1"/>
    <tag k="name" v="Ontario Freeway"/>
    <tag k="oneway" v="yes"/>
    <tag k="ref" v="I 15"/>
    <tag k="tiger:cfcc" v="A15"/>
    <tag k="tiger:county" v="San Bernardino, CA"/>
    <tag k="tiger:name_base" v="I-15"/>
    <tag k="tiger:name_base_1" v="Mojave"/>
    <tag k="tiger:name_type_1" v="Fwy"/>
    <tag k="tiger:separated" v="yes"/>
    <tag k="tiger:source" v="tiger_import_dch_v0.6_20070809"/>
    <tag k="tiger:tlid" v="144638826:144639574:144767235:144767236:144639592:144639603:144639611:145225788:144591755:144591504:145225787:144638521:144590864:144638534:144639070:144639076:144723205:144723203:144723206:144639056:144731305:144731306:144638301:144638318:144638457:14463"/>
  </way>
  <way id="35104913" version="5" timestamp="2011-07-31T15:22:59Z" uid="207745" user="NE2" changeset="8881942">
    <nd ref="411834427"/>
    <nd ref="411834426"/>
    <tag k="bridge" v="yes"/>
    <tag k="highway" v="motorway"/>
    <tag k="lanes" v="4"/>
    <tag k="layer" v="1"/>
    <tag k="name" v="Ontario Freeway"/>
    <tag k="oneway" v="yes"/>
    <tag k="ref" v="I 15"/>
    <tag k="tiger:cfcc" v="A15"/>
    <tag k="tiger:county" v="San Bernardino, CA"/>
    <tag k="tiger:name_base" v="I-15"/>
    <tag k="tiger:name_base_1" v="Mojave"/>
    <tag k="tiger:name_type_1" v="Fwy"/>
    <tag k="tiger:separated" v="yes"/>
    <tag k="tiger:source" v="tiger_import_dch_v0.6_20070809"/>
    <tag k="tiger:tlid" v="144638826:144639574:144767235:144767236:144639592:144639603:144639611:145225788:144591755:144591504:145225787:144638521:144590864:144638534:144639070:144639076:144723205:144723203:144723206:144639056:144731305:144731306:144638301:144638318:144638457:14463"/>
  </way>
  <way id="35104913" version="6" timestamp="2011-11-25T14:46:22Z" uid="207745" user="NE2" changeset="9943893">
    <nd ref="411834427"/>
    <nd ref="411834426"/>
    <tag k="bridge" v="yes"/>
    <tag k="hgv" v="designated"/>
    <tag k="highway" v="motorway"/>
    <tag k="lanes" v="4"/>
    <tag k="layer" v="1"/>
    <tag k="name" v="Ontario Freeway"/>
    <tag k="oneway" v="yes"/>
    <tag k="ref" v="I 15"/>
    <tag k="tiger:cfcc" v="A15"/>
    <tag k="tiger:county" v="San Bernardino, CA"/>
    <tag k="tiger:name_base" v="I-15"/>
    <tag k="tiger:name_base_1" v="Mojave"/>
    <tag k="tiger:name_type_1" v="Fwy"/>
    <tag k="tiger:separated" v="yes"/>
    <tag k="tiger:source" v="tiger_import_dch_v0.6_20070809"/>
    <tag k="tiger:tlid" v="144638826:144639574:144767235:144767236:144639592:144639603:144639611:145225788:144591755:144591504:145225787:144638521:144590864:144638534:144639070:144639076:144723205:144723203:144723206:144639056:144731305:144731306:144638301:144638318:144638457:14463"/>
  </way>
  <way id="35104916" version="4" timestamp="2010-03-28T02:08:47Z" uid="20587" user="balrog-kun" changeset="4250871">
    <nd ref="411637023"/>
    <nd ref="411834427"/>
    <tag k="highway" v="motorway"/>
    <tag k="name" v="Ontario Freeway"/>
    <tag k="oneway" v="yes"/>
    <tag k="ref" v="I 15"/>
    <tag k="tiger:cfcc" v="A15"/>
    <tag k="tiger:county" v="San Bernardino, CA"/>
    <tag k="tiger:name_base" v="I-15"/>
    <tag k="tiger:name_base_1" v="Mojave"/>
    <tag k="tiger:name_type_1" v="Fwy"/>
    <tag k="tiger:separated" v="yes"/>
    <tag k="tiger:source" v="tiger_import_dch_v0.6_20070809"/>
    <tag k="tiger:tlid" v="144638826:144639574:144767235:144767236:144639592:144639603:144639611:145225788:144591755:144591504:145225787:144638521:144590864:144638534:144639070:144639076:144723205:144723203:144723206:144639056:144731305:144731306:144638301:144638318:144638457:14463"/>
  </way>
  <way id="35104916" version="5" timestamp="2011-07-31T15:23:01Z" uid="207745" user="NE2" changeset="8881942">
    <nd ref="411637023"/>
    <nd ref="411834427"/>
    <tag k="highway" v="motorway"/>
    <tag k="lanes" v="4"/>
    <tag k="name" v="Ontario Freeway"/>
    <tag k="oneway" v="yes"/>
    <tag k="ref" v="I 15"/>
    <tag k="tiger:cfcc" v="A15"/>
    <tag k="tiger:county" v="San Bernardino, CA"/>
    <tag k="tiger:name_base" v="I-15"/>
    <tag k="tiger:name_base_1" v="Mojave"/>
    <tag k="tiger:name_type_1" v="Fwy"/>
    <tag k="tiger:separated" v="yes"/>
    <tag k="tiger:source" v="tiger_import_dch_v0.6_20070809"/>
    <tag k="tiger:tlid" v="144638826:144639574:144767235:144767236:144639592:144639603:144639611:145225788:144591755:144591504:145225787:144638521:144590864:144638534:144639070:144639076:144723205:144723203:144723206:144639056:144731305:144731306:144638301:144638318:144638457:14463"/>
  </way>
  <way id="35104916" version="6" timestamp="2011-11-25T14:45:57Z" uid="207745" user="NE2" changeset="9943893">
    <nd ref="411637023"/>
    <nd ref="411834427"/>
    <tag k="hgv" v="designated"/>
    <tag k="highway" v="motorway"/>
    <tag k="lanes" v="4"/>
    <tag k="name" v="Ontario Freeway"/>
    <tag k="oneway" v="yes"/>
    <tag k="ref" v="I 15"/>
    <tag k="tiger:cfcc" v="A15"/>
    <tag k="tiger:county" v="San Bernardino, CA"/>
    <tag k="tiger:name_base" v="I-15"/>
    <tag k="tiger:name_base_1" v="Mojave"/>
    <tag k="tiger:name_type_1" v="Fwy"/>
    <tag k="tiger:separated" v="yes"/>
    <tag k="tiger:source" v="tiger_import_dch_v0.6_20070809"/>
    <tag k="tiger:tlid" v="144638826:144639574:144767235:144767236:144639592:144639603:144639611:145225788:144591755:144591504:145225787:144638521:144590864:144638534:144639070:144639076:144723205:144723203:144723206:144639056:144731305:144731306:144638301:144638318:144638457:14463"/>
  </way>
  <way id="35104917" version="4" timestamp="2010-03-28T02:08:47Z" uid="20587" user="balrog-kun" changeset="4250871">
    <nd ref="411637019"/>
    <nd ref="411637023"/>
    <tag k="bridge" v="yes"/>
    <tag k="highway" v="motorway"/>
    <tag k="layer" v="1"/>
    <tag k="name" v="Ontario Freeway"/>
    <tag k="oneway" v="yes"/>
    <tag k="ref" v="I 15"/>
    <tag k="tiger:cfcc" v="A15"/>
    <tag k="tiger:county" v="San Bernardino, CA"/>
    <tag k="tiger:name_base" v="I-15"/>
    <tag k="tiger:name_base_1" v="Mojave"/>
    <tag k="tiger:name_type_1" v="Fwy"/>
    <tag k="tiger:separated" v="yes"/>
    <tag k="tiger:source" v="tiger_import_dch_v0.6_20070809"/>
    <tag k="tiger:tlid" v="144638826:144639574:144767235:144767236:144639592:144639603:144639611:145225788:144591755:144591504:145225787:144638521:144590864:144638534:144639070:144639076:144723205:144723203:144723206:144639056:144731305:144731306:144638301:144638318:144638457:14463"/>
  </way>
  <way id="35104917" version="5" timestamp="2011-07-31T15:22:50Z" uid="207745" user="NE2" changeset="8881942">
    <nd ref="411637019"/>
    <nd ref="411637023"/>
    <tag k="bridge" v="yes"/>
    <tag k="highway" v="motorway"/>
    <tag k="lanes" v="4"/>
    <tag k="layer" v="1"/>
    <tag k="name" v="Ontario Freeway"/>
    <tag k="oneway" v="yes"/>
    <tag k="ref" v="I 15"/>
    <tag k="tiger:cfcc" v="A15"/>
    <tag k="tiger:county" v="San Bernardino, CA"/>
    <tag k="tiger:name_base" v="I-15"/>
    <tag k="tiger:name_base_1" v="Mojave"/>
    <tag k="tiger:name_type_1" v="Fwy"/>
    <tag k="tiger:separated" v="yes"/>
    <tag k="tiger:source" v="tiger_import_dch_v0.6_20070809"/>
    <tag k="tiger:tlid" v="144638826:144639574:144767235:144767236:144639592:144639603:144639611:145225788:144591755:144591504:145225787:144638521:144590864:144638534:144639070:144639076:144723205:144723203:144723206:144639056:144731305:144731306:144638301:144638318:144638457:14463"/>
  </way>
  <way id="35104917" version="6" timestamp="2011-11-25T14:46:11Z" uid="207745" user="NE2" changeset="9943893">
    <nd ref="411637019"/>
    <nd ref="411637023"/>
    <tag k="bridge" v="yes"/>
    <tag k="hgv" v="designated"/>
    <tag k="highway" v="motorway"/>
    <tag k="lanes" v="4"/>
    <tag k="layer" v="1"/>
    <tag k="name" v="Ontario Freeway"/>
    <tag k="oneway" v="yes"/>
    <tag k="ref" v="I 15"/>
    <tag k="tiger:cfcc" v="A15"/>
    <tag k="tiger:county" v="San Bernardino, CA"/>
    <tag k="tiger:name_base" v="I-15"/>
    <tag k="tiger:name_base_1" v="Mojave"/>
    <tag k="tiger:name_type_1" v="Fwy"/>
    <tag k="tiger:separated" v="yes"/>
    <tag k="tiger:source" v="tiger_import_dch_v0.6_20070809"/>
    <tag k="tiger:tlid" v="144638826:144639574:144767235:144767236:144639592:144639603:144639611:145225788:144591755:144591504:145225787:144638521:144590864:144638534:144639070:144639076:144723205:144723203:144723206:144639056:144731305:144731306:144638301:144638318:144638457:14463"/>
  </way>
  <way id="35104918" version="4" timestamp="2010-03-28T02:08:47Z" uid="20587" user="balrog-kun" changeset="4250871">
    <nd ref="411635305"/>
    <nd ref="411636577"/>
    <tag k="bridge" v="yes"/>
    <tag k="highway" v="motorway"/>
    <tag k="layer" v="1"/>
    <tag k="name" v="Ontario Freeway"/>
    <tag k="oneway" v="yes"/>
    <tag k="ref" v="I 15"/>
    <tag k="tiger:cfcc" v="A15"/>
    <tag k="tiger:county" v="San Bernardino, CA"/>
    <tag k="tiger:name_base" v="I-15"/>
    <tag k="tiger:name_base_1" v="Mojave"/>
    <tag k="tiger:name_type_1" v="Fwy"/>
    <tag k="tiger:separated" v="yes"/>
    <tag k="tiger:source" v="tiger_import_dch_v0.6_20070809"/>
    <tag k="tiger:tlid" v="144638826:144639574:144767235:144767236:144639592:144639603:144639611:145225788:144591755:144591504:145225787:144638521:144590864:144638534:144639070:144639076:144723205:144723203:144723206:144639056:144731305:144731306:144638301:144638318:144638457:14463"/>
  </way>
  <way id="35104918" version="5" timestamp="2011-02-04T08:29:58Z" uid="82317" user="AM909" changeset="7180825">
    <nd ref="411635305"/>
    <nd ref="1135296589"/>
    <nd ref="411636577"/>
    <tag k="bridge" v="yes"/>
    <tag k="highway" v="motorway"/>
    <tag k="layer" v="1"/>
    <tag k="name" v="Ontario Freeway"/>
    <tag k="oneway" v="yes"/>
    <tag k="ref" v="I 15"/>
    <tag k="tiger:cfcc" v="A15"/>
    <tag k="tiger:county" v="San Bernardino, CA"/>
    <tag k="tiger:name_base" v="I-15"/>
    <tag k="tiger:name_base_1" v="Mojave"/>
    <tag k="tiger:name_type_1" v="Fwy"/>
    <tag k="tiger:separated" v="yes"/>
    <tag k="tiger:source" v="tiger_import_dch_v0.6_20070809"/>
    <tag k="tiger:tlid" v="144638826:144639574:144767235:144767236:144639592:144639603:144639611:145225788:144591755:144591504:145225787:144638521:144590864:144638534:144639070:144639076:144723205:144723203:144723206:144639056:144731305:144731306:144638301:144638318:144638457:14463"/>
  </way>
  <way id="35104918" version="6" timestamp="2011-07-31T15:23:03Z" uid="207745" user="NE2" changeset="8881942">
    <nd ref="411635305"/>
    <nd ref="1135296589"/>
    <nd ref="411636577"/>
    <tag k="bridge" v="yes"/>
    <tag k="highway" v="motorway"/>
    <tag k="lanes" v="4"/>
    <tag k="layer" v="1"/>
    <tag k="name" v="Ontario Freeway"/>
    <tag k="oneway" v="yes"/>
    <tag k="ref" v="I 15"/>
    <tag k="tiger:cfcc" v="A15"/>
    <tag k="tiger:county" v="San Bernardino, CA"/>
    <tag k="tiger:name_base" v="I-15"/>
    <tag k="tiger:name_base_1" v="Mojave"/>
    <tag k="tiger:name_type_1" v="Fwy"/>
    <tag k="tiger:separated" v="yes"/>
    <tag k="tiger:source" v="tiger_import_dch_v0.6_20070809"/>
    <tag k="tiger:tlid" v="144638826:144639574:144767235:144767236:144639592:144639603:144639611:145225788:144591755:144591504:145225787:144638521:144590864:144638534:144639070:144639076:144723205:144723203:144723206:144639056:144731305:144731306:144638301:144638318:144638457:14463"/>
  </way>
  <way id="35104918" version="7" timestamp="2011-11-25T14:46:39Z" uid="207745" user="NE2" changeset="9943893">
    <nd ref="411635305"/>
    <nd ref="1135296589"/>
    <nd ref="411636577"/>
    <tag k="bridge" v="yes"/>
    <tag k="hgv" v="designated"/>
    <tag k="highway" v="motorway"/>
    <tag k="lanes" v="4"/>
    <tag k="layer" v="1"/>
    <tag k="name" v="Ontario Freeway"/>
    <tag k="oneway" v="yes"/>
    <tag k="ref" v="I 15"/>
    <tag k="tiger:cfcc" v="A15"/>
    <tag k="tiger:county" v="San Bernardino, CA"/>
    <tag k="tiger:name_base" v="I-15"/>
    <tag k="tiger:name_base_1" v="Mojave"/>
    <tag k="tiger:name_type_1" v="Fwy"/>
    <tag k="tiger:separated" v="yes"/>
    <tag k="tiger:source" v="tiger_import_dch_v0.6_20070809"/>
    <tag k="tiger:tlid" v="144638826:144639574:144767235:144767236:144639592:144639603:144639611:145225788:144591755:144591504:145225787:144638521:144590864:144638534:144639070:144639076:144723205:144723203:144723206:144639056:144731305:144731306:144638301:144638318:144638457:14463"/>
  </way>
  <way id="35104919" version="6" timestamp="2010-03-28T02:08:47Z" uid="20587" user="balrog-kun" changeset="4250871">
    <nd ref="411636577"/>
    <nd ref="411636578"/>
    <tag k="highway" v="motorway"/>
    <tag k="name" v="Ontario Freeway"/>
    <tag k="oneway" v="yes"/>
    <tag k="ref" v="I 15"/>
    <tag k="tiger:cfcc" v="A15"/>
    <tag k="tiger:county" v="San Bernardino, CA"/>
    <tag k="tiger:name_base" v="I-15"/>
    <tag k="tiger:name_base_1" v="Mojave"/>
    <tag k="tiger:name_type_1" v="Fwy"/>
    <tag k="tiger:separated" v="yes"/>
    <tag k="tiger:source" v="tiger_import_dch_v0.6_20070809"/>
    <tag k="tiger:tlid" v="144638826:144639574:144767235:144767236:144639592:144639603:144639611:145225788:144591755:144591504:145225787:144638521:144590864:144638534:144639070:144639076:144723205:144723203:144723206:144639056:144731305:144731306:144638301:144638318:144638457:14463"/>
  </way>
  <way id="35104919" version="7" timestamp="2011-07-31T15:22:56Z" uid="207745" user="NE2" changeset="8881942">
    <nd ref="411636577"/>
    <nd ref="411636578"/>
    <tag k="highway" v="motorway"/>
    <tag k="lanes" v="4"/>
    <tag k="name" v="Ontario Freeway"/>
    <tag k="oneway" v="yes"/>
    <tag k="ref" v="I 15"/>
    <tag k="tiger:cfcc" v="A15"/>
    <tag k="tiger:county" v="San Bernardino, CA"/>
    <tag k="tiger:name_base" v="I-15"/>
    <tag k="tiger:name_base_1" v="Mojave"/>
    <tag k="tiger:name_type_1" v="Fwy"/>
    <tag k="tiger:separated" v="yes"/>
    <tag k="tiger:source" v="tiger_import_dch_v0.6_20070809"/>
    <tag k="tiger:tlid" v="144638826:144639574:144767235:144767236:144639592:144639603:144639611:145225788:144591755:144591504:145225787:144638521:144590864:144638534:144639070:144639076:144723205:144723203:144723206:144639056:144731305:144731306:144638301:144638318:144638457:14463"/>
  </way>
  <way id="35104919" version="8" timestamp="2011-11-25T14:45:26Z" uid="207745" user="NE2" changeset="9943893">
    <nd ref="411636577"/>
    <nd ref="411636578"/>
    <tag k="hgv" v="designated"/>
    <tag k="highway" v="motorway"/>
    <tag k="lanes" v="4"/>
    <tag k="name" v="Ontario Freeway"/>
    <tag k="oneway" v="yes"/>
    <tag k="ref" v="I 15"/>
    <tag k="tiger:cfcc" v="A15"/>
    <tag k="tiger:county" v="San Bernardino, CA"/>
    <tag k="tiger:name_base" v="I-15"/>
    <tag k="tiger:name_base_1" v="Mojave"/>
    <tag k="tiger:name_type_1" v="Fwy"/>
    <tag k="tiger:separated" v="yes"/>
    <tag k="tiger:source" v="tiger_import_dch_v0.6_20070809"/>
    <tag k="tiger:tlid" v="144638826:144639574:144767235:144767236:144639592:144639603:144639611:145225788:144591755:144591504:145225787:144638521:144590864:144638534:144639070:144639076:144723205:144723203:144723206:144639056:144731305:144731306:144638301:144638318:144638457:14463"/>
  </way>
  <way id="35104926" version="5" timestamp="2010-03-28T02:08:48Z" uid="20587" user="balrog-kun" changeset="4250871">
    <nd ref="411637028"/>
    <nd ref="411634223"/>
    <tag k="bridge" v="yes"/>
    <tag k="highway" v="motorway"/>
    <tag k="layer" v="1"/>
    <tag k="name" v="CHP Ofcr. John Bailey Mem. Freeway"/>
    <tag k="name_1" v="Ontario Freeway"/>
    <tag k="oneway" v="yes"/>
    <tag k="ref" v="I 15"/>
    <tag k="tiger:cfcc" v="A15"/>
    <tag k="tiger:county" v="San Bernardino, CA"/>
    <tag k="tiger:name_base" v="I-15"/>
    <tag k="tiger:name_base_1" v="Mojave"/>
    <tag k="tiger:name_type_1" v="Fwy"/>
    <tag k="tiger:separated" v="yes"/>
    <tag k="tiger:source" v="tiger_import_dch_v0.6_20070809"/>
    <tag k="tiger:tlid" v="144638826:144639574:144767235:144767236:144639592:144639603:144639611:145225788:144591755:144591504:145225787:144638521:144590864:144638534:144639070:144639076:144723205:144723203:144723206:144639056:144731305:144731306:144638301:144638318:144638457:14463"/>
  </way>
  <way id="35104926" version="6" timestamp="2011-01-05T19:42:01Z" uid="82317" user="AM909" changeset="6875325">
    <nd ref="411637028"/>
    <nd ref="411634223"/>
    <tag k="bridge" v="yes"/>
    <tag k="highway" v="motorway"/>
    <tag k="layer" v="1"/>
    <tag k="name" v="Ontario Freeway"/>
    <tag k="official_name" v="CHP Ofcr. John Bailey Mem. Freeway"/>
    <tag k="oneway" v="yes"/>
    <tag k="ref" v="I 15"/>
    <tag k="source" v="bing_imagery_0.06m_200701"/>
    <tag k="tiger:cfcc" v="A15"/>
    <tag k="tiger:county" v="San Bernardino, CA"/>
    <tag k="tiger:name_base" v="I-15"/>
    <tag k="tiger:name_base_1" v="Mojave"/>
    <tag k="tiger:name_type_1" v="Fwy"/>
    <tag k="tiger:separated" v="yes"/>
    <tag k="tiger:source" v="tiger_import_dch_v0.6_20070809"/>
    <tag k="tiger:tlid" v="144638826:144639574:144767235:144767236:144639592:144639603:144639611:145225788:144591755:144591504:145225787:144638521:144590864:144638534:144639070:144639076:144723205:144723203:144723206:144639056:144731305:144731306:144638301:144638318:144638457:14463"/>
  </way>
  <way id="35104926" version="7" timestamp="2011-07-31T15:22:49Z" uid="207745" user="NE2" changeset="8881942">
    <nd ref="411637028"/>
    <nd ref="411634223"/>
    <tag k="bridge" v="yes"/>
    <tag k="highway" v="motorway"/>
    <tag k="lanes" v="4"/>
    <tag k="layer" v="1"/>
    <tag k="name" v="Ontario Freeway"/>
    <tag k="official_name" v="CHP Ofcr. John Bailey Mem. Freeway"/>
    <tag k="oneway" v="yes"/>
    <tag k="ref" v="I 15"/>
    <tag k="source" v="bing_imagery_0.06m_200701"/>
    <tag k="tiger:cfcc" v="A15"/>
    <tag k="tiger:county" v="San Bernardino, CA"/>
    <tag k="tiger:name_base" v="I-15"/>
    <tag k="tiger:name_base_1" v="Mojave"/>
    <tag k="tiger:name_type_1" v="Fwy"/>
    <tag k="tiger:separated" v="yes"/>
    <tag k="tiger:source" v="tiger_import_dch_v0.6_20070809"/>
    <tag k="tiger:tlid" v="144638826:144639574:144767235:144767236:144639592:144639603:144639611:145225788:144591755:144591504:145225787:144638521:144590864:144638534:144639070:144639076:144723205:144723203:144723206:144639056:144731305:144731306:144638301:144638318:144638457:14463"/>
  </way>
  <way id="35104926" version="8" timestamp="2011-11-25T14:45:42Z" uid="207745" user="NE2" changeset="9943893">
    <nd ref="411637028"/>
    <nd ref="411634223"/>
    <tag k="bridge" v="yes"/>
    <tag k="hgv" v="designated"/>
    <tag k="highway" v="motorway"/>
    <tag k="lanes" v="4"/>
    <tag k="layer" v="1"/>
    <tag k="name" v="Ontario Freeway"/>
    <tag k="official_name" v="CHP Ofcr. John Bailey Mem. Freeway"/>
    <tag k="oneway" v="yes"/>
    <tag k="ref" v="I 15"/>
    <tag k="source" v="bing_imagery_0.06m_200701"/>
    <tag k="tiger:cfcc" v="A15"/>
    <tag k="tiger:county" v="San Bernardino, CA"/>
    <tag k="tiger:name_base" v="I-15"/>
    <tag k="tiger:name_base_1" v="Mojave"/>
    <tag k="tiger:name_type_1" v="Fwy"/>
    <tag k="tiger:separated" v="yes"/>
    <tag k="tiger:source" v="tiger_import_dch_v0.6_20070809"/>
    <tag k="tiger:tlid" v="144638826:144639574:144767235:144767236:144639592:144639603:144639611:145225788:144591755:144591504:145225787:144638521:144590864:144638534:144639070:144639076:144723205:144723203:144723206:144639056:144731305:144731306:144638301:144638318:144638457:14463"/>
  </way>
  <way id="35104927" version="5" timestamp="2010-03-28T02:08:48Z" uid="20587" user="balrog-kun" changeset="4250871">
    <nd ref="411636576"/>
    <nd ref="411834424"/>
    <tag k="highway" v="motorway"/>
    <tag k="name" v="CHP Ofcr. John Bailey Mem. Freeway"/>
    <tag k="name_1" v="Ontario Freeway"/>
    <tag k="oneway" v="yes"/>
    <tag k="ref" v="I 15"/>
    <tag k="tiger:cfcc" v="A15"/>
    <tag k="tiger:county" v="San Bernardino, CA"/>
    <tag k="tiger:name_base" v="I-15"/>
    <tag k="tiger:name_base_1" v="Mojave"/>
    <tag k="tiger:name_type_1" v="Fwy"/>
    <tag k="tiger:separated" v="yes"/>
    <tag k="tiger:source" v="tiger_import_dch_v0.6_20070809"/>
    <tag k="tiger:tlid" v="144638826:144639574:144767235:144767236:144639592:144639603:144639611:145225788:144591755:144591504:145225787:144638521:144590864:144638534:144639070:144639076:144723205:144723203:144723206:144639056:144731305:144731306:144638301:144638318:144638457:14463"/>
  </way>
  <way id="35104927" version="6" timestamp="2010-07-06T15:46:34Z" uid="239998" user="Sundance" changeset="5151519">
    <nd ref="411636576"/>
    <nd ref="411834424"/>
    <tag k="highway" v="motorway"/>
    <tag k="is_in" v="San Bernardino, CA"/>
    <tag k="name" v="CHP Ofcr. John Bailey Mem. Freeway"/>
    <tag k="name_1" v="Ontario Freeway"/>
    <tag k="name_2" v="Interstate 15"/>
    <tag k="oneway" v="yes"/>
    <tag k="ref" v="I 15"/>
    <tag k="tiger:source" v="tiger_import_dch_v0.6_20070809"/>
    <tag k="tiger:tlid" v="144638826:144639574:144767235:144767236:144639592:144639603:144639611:145225788:144591755:144591504:145225787:144638521:144590864:144638534:144639070:144639076:144723205:144723203:144723206:144639056:144731305:144731306:144638301:144638318:144638457:14463"/>
  </way>
  <way id="35104927" version="7" timestamp="2011-01-05T19:39:28Z" uid="82317" user="AM909" changeset="6875325">
    <nd ref="411636576"/>
    <nd ref="411834424"/>
    <tag k="highway" v="motorway"/>
    <tag k="is_in" v="San Bernardino, CA"/>
    <tag k="name" v="Ontario Freeway"/>
    <tag k="official_name" v="CHP Ofcr. John Bailey Mem. Freeway"/>
    <tag k="oneway" v="yes"/>
    <tag k="ref" v="I 15"/>
    <tag k="source" v="bing_imagery_0.06m_200701"/>
    <tag k="tiger:source" v="tiger_import_dch_v0.6_20070809"/>
    <tag k="tiger:tlid" v="144638826:144639574:144767235:144767236:144639592:144639603:144639611:145225788:144591755:144591504:145225787:144638521:144590864:144638534:144639070:144639076:144723205:144723203:144723206:144639056:144731305:144731306:144638301:144638318:144638457:14463"/>
  </way>
  <way id="35104927" version="8" timestamp="2011-07-31T15:22:34Z" uid="207745" user="NE2" changeset="8881942">
    <nd ref="411636576"/>
    <nd ref="411834424"/>
    <tag k="highway" v="motorway"/>
    <tag k="is_in" v="San Bernardino, CA"/>
    <tag k="lanes" v="4"/>
    <tag k="name" v="Ontario Freeway"/>
    <tag k="official_name" v="CHP Ofcr. John Bailey Mem. Freeway"/>
    <tag k="oneway" v="yes"/>
    <tag k="ref" v="I 15"/>
    <tag k="source" v="bing_imagery_0.06m_200701"/>
    <tag k="tiger:source" v="tiger_import_dch_v0.6_20070809"/>
    <tag k="tiger:tlid" v="144638826:144639574:144767235:144767236:144639592:144639603:144639611:145225788:144591755:144591504:145225787:144638521:144590864:144638534:144639070:144639076:144723205:144723203:144723206:144639056:144731305:144731306:144638301:144638318:144638457:14463"/>
  </way>
  <way id="35104927" version="9" timestamp="2011-11-25T14:45:58Z" uid="207745" user="NE2" changeset="9943893">
    <nd ref="411636576"/>
    <nd ref="411834424"/>
    <tag k="hgv" v="designated"/>
    <tag k="highway" v="motorway"/>
    <tag k="is_in" v="San Bernardino, CA"/>
    <tag k="lanes" v="4"/>
    <tag k="name" v="Ontario Freeway"/>
    <tag k="official_name" v="CHP Ofcr. John Bailey Mem. Freeway"/>
    <tag k="oneway" v="yes"/>
    <tag k="ref" v="I 15"/>
    <tag k="source" v="bing_imagery_0.06m_200701"/>
    <tag k="tiger:source" v="tiger_import_dch_v0.6_20070809"/>
    <tag k="tiger:tlid" v="144638826:144639574:144767235:144767236:144639592:144639603:144639611:145225788:144591755:144591504:145225787:144638521:144590864:144638534:144639070:144639076:144723205:144723203:144723206:144639056:144731305:144731306:144638301:144638318:144638457:14463"/>
  </way>
  <way id="35104950" version="4" timestamp="2010-11-01T21:39:22Z" uid="9581" user="Lobelt" changeset="6262731">
    <nd ref="411834963"/>
    <nd ref="411834964"/>
    <nd ref="411834965"/>
    <nd ref="472673824"/>
    <nd ref="472673825"/>
    <nd ref="974133758"/>
    <tag k="highway" v="track"/>
    <tag k="tracktype" v="grade2"/>
  </way>
</osm>
