<?xml version='1.0' encoding='UTF-8'?>
<osm version="0.6" generator="libosmium/2.20.0">
  <way id="35237153" version="2" timestamp="2010-03-31T09:15:54Z" uid="38528" user="acrosscanadatrails" changeset="4283663">
    <nd ref="413042114"/>
    <nd ref="413026022"/>
    <nd ref="679049008"/>
    <nd ref="413032907"/>
    <tag k="attribution" v="GeoBase速"/>
    <tag k="geobase:acquisitionTechnique" v="Vector Data"/>
    <tag k="geobase:datasetName" v="NRN:Ontario"/>
    <tag k="geobase:uuid" v="370bb696d6e9459c83247f7cc482da0a"/>
    <tag k="highway" v="residential"/>
    <tag k="is_in" v="Ontario,Canada"/>
    <tag k="lanes" v="2"/>
    <tag k="name" v="George Street"/>
    <tag k="source" v="Geobase_Import_2009"/>
    <tag k="statscan:rbuid" v="4031488"/>
  </way>
  <way id="35237153" version="3" timestamp="2012-01-30T04:29:58Z" uid="28895" user="PurpleMustang" changeset="10536626">
    <nd ref="413042114"/>
    <nd ref="413026022"/>
    <nd ref="413032907"/>
    <tag k="attribution" v="GeoBase速"/>
    <tag k="geobase:acquisitionTechnique" v="Vector Data"/>
    <tag k="geobase:datasetName" v="NRN:Ontario"/>
    <tag k="geobase:uuid" v="370bb696d6e9459c83247f7cc482da0a"/>
    <tag k="highway" v="residential"/>
    <tag k="is_in" v="Ontario,Canada"/>
    <tag k="lanes" v="2"/>
    <tag k="name" v="George Street"/>
    <tag k="source" v="Geobase_Import_2009"/>
    <tag k="statscan:rbuid" v="4031488"/>
  </way>
  <way id="35237296" version="2" timestamp="2010-04-23T00:08:26Z" uid="38528" user="acrosscanadatrails" changeset="4500034">
    <nd ref="413157392"/>
    <nd ref="413133177"/>
    <nd ref="413047467"/>
    <nd ref="413159347"/>
    <nd ref="413159136"/>
    <nd ref="413159088"/>
    <nd ref="413115577"/>
    <nd ref="413111918"/>
    <nd ref="413107512"/>
    <nd ref="413229586"/>
    <nd ref="413247178"/>
    <nd ref="413266124"/>
    <nd ref="704149325"/>
    <nd ref="412991462"/>
    <tag k="attribution" v="GeoBase速"/>
    <tag k="geobase:acquisitionTechnique" v="GPS"/>
    <tag k="geobase:datasetName" v="NRN:Ontario"/>
    <tag k="geobase:uuid" v="2753df6c60f14d698e418a88a2e787f3"/>
    <tag k="highway" v="residential"/>
    <tag k="is_in" v="Ontario,Canada"/>
    <tag k="lanes" v="2"/>
    <tag k="name" v="Beech Street"/>
    <tag k="source" v="Geobase_Import_2009"/>
    <tag k="statscan:rbuid" v="4029823"/>
    <tag k="surface" v="unpaved"/>
  </way>
  <way id="35237296" version="3" timestamp="2012-01-30T03:15:21Z" uid="28895" user="PurpleMustang" changeset="10536409">
    <nd ref="413157392"/>
    <nd ref="413133177"/>
    <nd ref="413047467"/>
    <nd ref="413159347"/>
    <nd ref="413159136"/>
    <nd ref="413159088"/>
    <nd ref="413115577"/>
    <nd ref="413111918"/>
    <nd ref="413107512"/>
    <nd ref="413229586"/>
    <nd ref="413247178"/>
    <nd ref="413266124"/>
    <nd ref="412991462"/>
    <tag k="attribution" v="GeoBase速"/>
    <tag k="geobase:acquisitionTechnique" v="GPS"/>
    <tag k="geobase:datasetName" v="NRN:Ontario"/>
    <tag k="geobase:uuid" v="2753df6c60f14d698e418a88a2e787f3"/>
    <tag k="highway" v="residential"/>
    <tag k="is_in" v="Ontario,Canada"/>
    <tag k="lanes" v="2"/>
    <tag k="name" v="Beech Street"/>
    <tag k="source" v="Geobase_Import_2009"/>
    <tag k="statscan:rbuid" v="4029823"/>
    <tag k="surface" v="unpaved"/>
  </way>
  <way id="35237893" version="2" timestamp="2010-07-09T05:39:21Z" uid="74617" user="JohnSmith" changeset="5170986">
    <nd ref="413281602"/>
    <nd ref="413281606"/>
    <nd ref="413281603"/>
    <nd ref="413281604"/>
    <nd ref="413281605"/>
    <nd ref="413281597"/>
    <tag k="highway" v="residential"/>
    <tag k="maxspeed" v="50"/>
    <tag k="maxspeed:source" v="default residential speed limit in Australia"/>
    <tag k="name" v="Magnet Street"/>
  </way>
  <way id="35237893" version="3" timestamp="2012-01-18T22:07:17Z" uid="147510" user="woodpeck_fixbot" changeset="10431441">
    <nd ref="413281602"/>
    <nd ref="413281606"/>
    <nd ref="413281603"/>
    <nd ref="413281604"/>
    <nd ref="413281605"/>
    <nd ref="413281597"/>
    <tag k="highway" v="residential"/>
    <tag k="name" v="Magnet Street"/>
  </way>
  <way id="35237894" version="2" timestamp="2010-07-09T05:42:36Z" uid="74617" user="JohnSmith" changeset="5170986">
    <nd ref="316914380"/>
    <nd ref="413281608"/>
    <nd ref="413281612"/>
    <nd ref="413281619"/>
    <nd ref="413281606"/>
    <tag k="highway" v="residential"/>
    <tag k="maxspeed" v="50"/>
    <tag k="maxspeed:source" v="default residential speed limit in Australia"/>
    <tag k="name" v="Dalkeith Street"/>
  </way>
  <way id="35237894" version="3" timestamp="2012-01-18T22:07:18Z" uid="147510" user="woodpeck_fixbot" changeset="10431441">
    <nd ref="316914380"/>
    <nd ref="413281608"/>
    <nd ref="413281612"/>
    <nd ref="413281619"/>
    <nd ref="413281606"/>
    <tag k="highway" v="residential"/>
    <tag k="name" v="Dalkeith Street"/>
  </way>
  <way id="35237895" version="2" timestamp="2010-07-09T05:41:40Z" uid="74617" user="JohnSmith" changeset="5170986">
    <nd ref="413281620"/>
    <nd ref="413281627"/>
    <nd ref="413281626"/>
    <nd ref="413281625"/>
    <nd ref="413281624"/>
    <nd ref="413281611"/>
    <nd ref="413281623"/>
    <nd ref="413281622"/>
    <nd ref="413281621"/>
    <nd ref="413281607"/>
    <tag k="highway" v="residential"/>
    <tag k="maxspeed" v="50"/>
    <tag k="maxspeed:source" v="default residential speed limit in Australia"/>
    <tag k="name" v="Yarloop Street"/>
  </way>
  <way id="35237895" version="3" timestamp="2012-01-18T22:07:20Z" uid="147510" user="woodpeck_fixbot" changeset="10431441">
    <nd ref="413281620"/>
    <nd ref="413281627"/>
    <nd ref="413281626"/>
    <nd ref="413281625"/>
    <nd ref="413281624"/>
    <nd ref="413281611"/>
    <nd ref="413281623"/>
    <nd ref="413281622"/>
    <nd ref="413281621"/>
    <nd ref="413281607"/>
    <tag k="highway" v="residential"/>
    <tag k="name" v="Yarloop Street"/>
  </way>
  <way id="35237896" version="2" timestamp="2010-07-09T05:42:23Z" uid="74617" user="JohnSmith" changeset="5170986">
    <nd ref="413281611"/>
    <nd ref="413281612"/>
    <nd ref="413281613"/>
    <nd ref="413281614"/>
    <nd ref="413281615"/>
    <nd ref="413281600"/>
    <tag k="highway" v="residential"/>
    <tag k="maxspeed" v="50"/>
    <tag k="maxspeed:source" v="default residential speed limit in Australia"/>
    <tag k="name" v="Innaloo Street"/>
  </way>
  <way id="35237896" version="3" timestamp="2012-01-18T22:07:21Z" uid="147510" user="woodpeck_fixbot" changeset="10431441">
    <nd ref="413281611"/>
    <nd ref="413281612"/>
    <nd ref="413281613"/>
    <nd ref="413281614"/>
    <nd ref="413281615"/>
    <nd ref="413281600"/>
    <tag k="highway" v="residential"/>
    <tag k="name" v="Innaloo Street"/>
  </way>
  <way id="35237897" version="2" timestamp="2010-07-09T05:41:33Z" uid="74617" user="JohnSmith" changeset="5170986">
    <nd ref="413281596"/>
    <nd ref="413281616"/>
    <nd ref="413281617"/>
    <nd ref="413281618"/>
    <nd ref="413281619"/>
    <nd ref="413281620"/>
    <tag k="highway" v="residential"/>
    <tag k="maxspeed" v="50"/>
    <tag k="maxspeed:source" v="default residential speed limit in Australia"/>
    <tag k="name" v="Bunbury Street"/>
  </way>
  <way id="35237897" version="3" timestamp="2012-01-18T22:07:22Z" uid="147510" user="woodpeck_fixbot" changeset="10431441">
    <nd ref="413281596"/>
    <nd ref="413281616"/>
    <nd ref="413281617"/>
    <nd ref="413281618"/>
    <nd ref="413281619"/>
    <nd ref="413281620"/>
    <tag k="highway" v="residential"/>
    <tag k="name" v="Bunbury Street"/>
  </way>
  <way id="35237898" version="2" timestamp="2010-07-09T05:40:43Z" uid="74617" user="JohnSmith" changeset="5170986">
    <nd ref="413281607"/>
    <nd ref="413281608"/>
    <nd ref="413281609"/>
    <nd ref="413281610"/>
    <nd ref="413281601"/>
    <tag k="highway" v="residential"/>
    <tag k="maxspeed" v="50"/>
    <tag k="maxspeed:source" v="default residential speed limit in Australia"/>
    <tag k="name" v="Carlisle Street"/>
  </way>
  <way id="35237898" version="3" timestamp="2012-01-18T22:07:23Z" uid="147510" user="woodpeck_fixbot" changeset="10431441">
    <nd ref="413281607"/>
    <nd ref="413281608"/>
    <nd ref="413281609"/>
    <nd ref="413281610"/>
    <nd ref="413281601"/>
    <tag k="highway" v="residential"/>
    <tag k="name" v="Carlisle Street"/>
  </way>
  <way id="35237899" version="2" timestamp="2010-07-09T05:39:52Z" uid="74617" user="JohnSmith" changeset="5170986">
    <nd ref="413281628"/>
    <nd ref="413281629"/>
    <nd ref="413281630"/>
    <tag k="highway" v="residential"/>
    <tag k="maxspeed" v="50"/>
    <tag k="maxspeed:source" v="default residential speed limit in Australia"/>
    <tag k="name" v="Anson Street"/>
  </way>
  <way id="35237899" version="3" timestamp="2012-01-18T22:07:32Z" uid="147510" user="woodpeck_fixbot" changeset="10431441">
    <nd ref="413281628"/>
    <nd ref="413281629"/>
    <nd ref="413281630"/>
    <tag k="highway" v="residential"/>
    <tag k="name" v="Anson Street"/>
  </way>
  <way id="35237900" version="2" timestamp="2010-07-09T05:38:52Z" uid="74617" user="JohnSmith" changeset="5170986">
    <nd ref="413281631"/>
    <nd ref="413281638"/>
    <nd ref="413281632"/>
    <nd ref="413281637"/>
    <nd ref="413281633"/>
    <nd ref="413281629"/>
    <nd ref="413281634"/>
    <nd ref="413281635"/>
    <nd ref="413281636"/>
    <tag k="highway" v="residential"/>
    <tag k="maxspeed" v="50"/>
    <tag k="maxspeed:source" v="default residential speed limit in Australia"/>
    <tag k="name" v="Brooks Court"/>
  </way>
  <way id="35237900" version="3" timestamp="2012-01-18T22:07:33Z" uid="147510" user="woodpeck_fixbot" changeset="10431441">
    <nd ref="413281631"/>
    <nd ref="413281638"/>
    <nd ref="413281632"/>
    <nd ref="413281637"/>
    <nd ref="413281633"/>
    <nd ref="413281629"/>
    <nd ref="413281634"/>
    <nd ref="413281635"/>
    <nd ref="413281636"/>
    <tag k="highway" v="residential"/>
    <tag k="name" v="Brooks Court"/>
  </way>
  <way id="35237901" version="2" timestamp="2010-07-09T05:42:07Z" uid="74617" user="JohnSmith" changeset="5170986">
    <nd ref="413281639"/>
    <nd ref="413281640"/>
    <nd ref="413281641"/>
    <nd ref="413281642"/>
    <tag k="highway" v="residential"/>
    <tag k="maxspeed" v="50"/>
    <tag k="maxspeed:source" v="default residential speed limit in Australia"/>
    <tag k="name" v="Craig Street"/>
  </way>
  <way id="35237901" version="3" timestamp="2012-01-18T22:07:35Z" uid="147510" user="woodpeck_fixbot" changeset="10431441">
    <nd ref="413281639"/>
    <nd ref="413281640"/>
    <nd ref="413281641"/>
    <nd ref="413281642"/>
    <tag k="highway" v="residential"/>
    <tag k="name" v="Craig Street"/>
  </way>
  <way id="35237902" version="2" timestamp="2010-07-09T05:41:18Z" uid="74617" user="JohnSmith" changeset="5170986">
    <nd ref="413281643"/>
    <nd ref="413281648"/>
    <nd ref="413281644"/>
    <nd ref="413281645"/>
    <tag k="highway" v="residential"/>
    <tag k="maxspeed" v="50"/>
    <tag k="maxspeed:source" v="default residential speed limit in Australia"/>
    <tag k="name" v="Humphrey Street"/>
  </way>
  <way id="35237902" version="3" timestamp="2012-01-18T22:07:36Z" uid="147510" user="woodpeck_fixbot" changeset="10431441">
    <nd ref="413281643"/>
    <nd ref="413281648"/>
    <nd ref="413281644"/>
    <nd ref="413281645"/>
    <tag k="highway" v="residential"/>
    <tag k="name" v="Humphrey Street"/>
  </way>
  <way id="35237903" version="2" timestamp="2009-11-09T14:13:34Z" uid="4467" user="Rosscoe" changeset="3073687">
    <nd ref="413281646"/>
    <nd ref="559982689"/>
    <nd ref="413281654"/>
    <nd ref="413281656"/>
    <nd ref="413281658"/>
    <nd ref="413281647"/>
    <tag k="highway" v="residential"/>
    <tag k="name" v="Fryett Street"/>
  </way>
  <way id="35237903" version="3" timestamp="2010-07-09T05:40:30Z" uid="74617" user="JohnSmith" changeset="5170986">
    <nd ref="413281646"/>
    <nd ref="559982689"/>
    <nd ref="413281654"/>
    <nd ref="413281656"/>
    <nd ref="413281658"/>
    <nd ref="413281647"/>
    <tag k="highway" v="residential"/>
    <tag k="maxspeed" v="50"/>
    <tag k="maxspeed:source" v="default residential speed limit in Australia"/>
    <tag k="name" v="Fryett Street"/>
  </way>
  <way id="35237903" version="4" timestamp="2012-01-18T22:07:37Z" uid="147510" user="woodpeck_fixbot" changeset="10431441">
    <nd ref="413281646"/>
    <nd ref="559982689"/>
    <nd ref="413281654"/>
    <nd ref="413281656"/>
    <nd ref="413281658"/>
    <nd ref="413281647"/>
    <tag k="highway" v="residential"/>
    <tag k="name" v="Fryett Street"/>
  </way>
  <way id="35237904" version="2" timestamp="2009-11-09T14:13:35Z" uid="4467" user="Rosscoe" changeset="3073687">
    <nd ref="413281648"/>
    <nd ref="559982689"/>
    <nd ref="413281650"/>
    <nd ref="413281649"/>
    <tag k="highway" v="residential"/>
    <tag k="name" v="Carins Street"/>
  </way>
  <way id="35237904" version="3" timestamp="2009-11-09T14:29:51Z" uid="4467" user="Rosscoe" changeset="3073789"/>
  <way id="35237905" version="2" timestamp="2010-07-09T05:41:14Z" uid="74617" user="JohnSmith" changeset="5170986">
    <nd ref="413281650"/>
    <nd ref="413281655"/>
    <nd ref="413281657"/>
    <nd ref="413281659"/>
    <nd ref="413281651"/>
    <tag k="highway" v="residential"/>
    <tag k="maxspeed" v="50"/>
    <tag k="maxspeed:source" v="default residential speed limit in Australia"/>
    <tag k="name" v="Hogarth Street"/>
  </way>
  <way id="35237905" version="3" timestamp="2012-01-18T22:07:38Z" uid="147510" user="woodpeck_fixbot" changeset="10431441">
    <nd ref="413281650"/>
    <nd ref="413281655"/>
    <nd ref="413281657"/>
    <nd ref="413281659"/>
    <nd ref="413281651"/>
    <tag k="highway" v="residential"/>
    <tag k="name" v="Hogarth Street"/>
  </way>
  <way id="35237906" version="2" timestamp="2010-07-09T05:40:24Z" uid="74617" user="JohnSmith" changeset="5170986">
    <nd ref="413281652"/>
    <nd ref="413281649"/>
    <tag k="highway" v="residential"/>
    <tag k="maxspeed" v="50"/>
    <tag k="maxspeed:source" v="default residential speed limit in Australia"/>
    <tag k="name" v="Renfern Street"/>
  </way>
  <way id="35237906" version="3" timestamp="2012-01-18T22:07:39Z" uid="147510" user="woodpeck_fixbot" changeset="10431441">
    <nd ref="413281652"/>
    <nd ref="413281649"/>
    <tag k="highway" v="residential"/>
    <tag k="name" v="Renfern Street"/>
  </way>
  <way id="35237907" version="2" timestamp="2009-11-09T14:29:51Z" uid="4467" user="Rosscoe" changeset="3073789">
    <nd ref="413281648"/>
    <nd ref="559982689"/>
    <nd ref="413281650"/>
    <nd ref="413281649"/>
    <nd ref="413281653"/>
    <tag k="highway" v="residential"/>
    <tag k="name" v="Carins Street"/>
  </way>
  <way id="35237907" version="3" timestamp="2010-07-09T05:39:33Z" uid="74617" user="JohnSmith" changeset="5170986">
    <nd ref="413281648"/>
    <nd ref="559982689"/>
    <nd ref="413281650"/>
    <nd ref="413281649"/>
    <nd ref="413281653"/>
    <tag k="highway" v="residential"/>
    <tag k="maxspeed" v="50"/>
    <tag k="maxspeed:source" v="default residential speed limit in Australia"/>
    <tag k="name" v="Carins Street"/>
  </way>
  <way id="35237907" version="4" timestamp="2012-01-18T22:07:40Z" uid="147510" user="woodpeck_fixbot" changeset="10431441">
    <nd ref="413281648"/>
    <nd ref="559982689"/>
    <nd ref="413281650"/>
    <nd ref="413281649"/>
    <nd ref="413281653"/>
    <tag k="highway" v="residential"/>
    <tag k="name" v="Carins Street"/>
  </way>
  <way id="35237908" version="2" timestamp="2010-07-09T05:38:26Z" uid="74617" user="JohnSmith" changeset="5170986">
    <nd ref="413281654"/>
    <nd ref="413281655"/>
    <tag k="highway" v="residential"/>
    <tag k="maxspeed" v="50"/>
    <tag k="maxspeed:source" v="default residential speed limit in Australia"/>
    <tag k="name" v="Tattersall Street"/>
  </way>
  <way id="35237908" version="3" timestamp="2012-01-18T22:07:41Z" uid="147510" user="woodpeck_fixbot" changeset="10431441">
    <nd ref="413281654"/>
    <nd ref="413281655"/>
    <tag k="highway" v="residential"/>
    <tag k="name" v="Tattersall Street"/>
  </way>
  <way id="35237909" version="2" timestamp="2010-07-09T05:41:47Z" uid="74617" user="JohnSmith" changeset="5170986">
    <nd ref="413281656"/>
    <nd ref="413281657"/>
    <tag k="highway" v="residential"/>
    <tag k="maxspeed" v="50"/>
    <tag k="maxspeed:source" v="default residential speed limit in Australia"/>
    <tag k="name" v="Skemp Street"/>
  </way>
  <way id="35237909" version="3" timestamp="2012-01-18T22:07:42Z" uid="147510" user="woodpeck_fixbot" changeset="10431441">
    <nd ref="413281656"/>
    <nd ref="413281657"/>
    <tag k="highway" v="residential"/>
    <tag k="name" v="Skemp Street"/>
  </way>
  <way id="35237910" version="2" timestamp="2010-07-09T05:41:00Z" uid="74617" user="JohnSmith" changeset="5170986">
    <nd ref="413281658"/>
    <nd ref="413281659"/>
    <tag k="highway" v="residential"/>
    <tag k="maxspeed" v="50"/>
    <tag k="maxspeed:source" v="default residential speed limit in Australia"/>
    <tag k="name" v="Pritchard Street"/>
  </way>
  <way id="35237910" version="3" timestamp="2012-01-18T22:07:42Z" uid="147510" user="woodpeck_fixbot" changeset="10431441">
    <nd ref="413281658"/>
    <nd ref="413281659"/>
    <tag k="highway" v="residential"/>
    <tag k="name" v="Pritchard Street"/>
  </way>
  <way id="35237911" version="2" timestamp="2010-07-09T05:40:10Z" uid="74617" user="JohnSmith" changeset="5170986">
    <nd ref="413281660"/>
    <nd ref="413281681"/>
    <nd ref="413281661"/>
    <nd ref="413281662"/>
    <nd ref="413281663"/>
    <nd ref="413281664"/>
    <nd ref="413281665"/>
    <nd ref="413281666"/>
    <tag k="highway" v="residential"/>
    <tag k="maxspeed" v="50"/>
    <tag k="maxspeed:source" v="default residential speed limit in Australia"/>
    <tag k="name" v="Emita Parade"/>
  </way>
  <way id="35237911" version="3" timestamp="2012-01-18T22:07:43Z" uid="147510" user="woodpeck_fixbot" changeset="10431441">
    <nd ref="413281660"/>
    <nd ref="413281681"/>
    <nd ref="413281661"/>
    <nd ref="413281662"/>
    <nd ref="413281663"/>
    <nd ref="413281664"/>
    <nd ref="413281665"/>
    <nd ref="413281666"/>
    <tag k="highway" v="residential"/>
    <tag k="name" v="Emita Parade"/>
  </way>
  <way id="35237912" version="2" timestamp="2010-07-09T05:40:52Z" uid="74617" user="JohnSmith" changeset="5170986">
    <nd ref="413281667"/>
    <nd ref="413281683"/>
    <nd ref="413281688"/>
    <nd ref="413281672"/>
    <nd ref="413281653"/>
    <nd ref="413281666"/>
    <nd ref="413281668"/>
    <tag k="highway" v="residential"/>
    <tag k="maxspeed" v="50"/>
    <tag k="maxspeed:source" v="default residential speed limit in Australia"/>
    <tag k="name" v="Regent Street"/>
  </way>
  <way id="35237912" version="3" timestamp="2012-01-18T22:07:44Z" uid="147510" user="woodpeck_fixbot" changeset="10431441">
    <nd ref="413281667"/>
    <nd ref="413281683"/>
    <nd ref="413281688"/>
    <nd ref="413281672"/>
    <nd ref="413281653"/>
    <nd ref="413281666"/>
    <nd ref="413281668"/>
    <tag k="highway" v="residential"/>
    <tag k="name" v="Regent Street"/>
  </way>
  <way id="35237914" version="2" timestamp="2010-07-09T05:39:04Z" uid="74617" user="JohnSmith" changeset="5170986">
    <nd ref="413281672"/>
    <nd ref="413281673"/>
    <nd ref="413281674"/>
    <nd ref="413281662"/>
    <tag k="highway" v="residential"/>
    <tag k="maxspeed" v="50"/>
    <tag k="maxspeed:source" v="default residential speed limit in Australia"/>
    <tag k="name" v="Kigoma Street"/>
  </way>
  <way id="35237914" version="3" timestamp="2012-01-18T22:07:44Z" uid="147510" user="woodpeck_fixbot" changeset="10431441">
    <nd ref="413281672"/>
    <nd ref="413281673"/>
    <nd ref="413281674"/>
    <nd ref="413281662"/>
    <tag k="highway" v="residential"/>
    <tag k="name" v="Kigoma Street"/>
  </way>
  <way id="35237915" version="2" timestamp="2010-07-09T05:42:17Z" uid="74617" user="JohnSmith" changeset="5170986">
    <nd ref="413281675"/>
    <nd ref="413281676"/>
    <nd ref="413281677"/>
    <nd ref="413281661"/>
    <tag k="highway" v="residential"/>
    <tag k="maxspeed" v="50"/>
    <tag k="maxspeed:source" v="default residential speed limit in Australia"/>
    <tag k="name" v="Yollar Place"/>
  </way>
  <way id="35237915" version="3" timestamp="2012-01-18T22:07:46Z" uid="147510" user="woodpeck_fixbot" changeset="10431441">
    <nd ref="413281675"/>
    <nd ref="413281676"/>
    <nd ref="413281677"/>
    <nd ref="413281661"/>
    <tag k="highway" v="residential"/>
    <tag k="name" v="Yollar Place"/>
  </way>
  <way id="35237916" version="2" timestamp="2010-07-09T05:41:27Z" uid="74617" user="JohnSmith" changeset="5170986">
    <nd ref="413281678"/>
    <nd ref="413281679"/>
    <nd ref="413281680"/>
    <nd ref="413281681"/>
    <tag k="highway" v="residential"/>
    <tag k="maxspeed" v="50"/>
    <tag k="maxspeed:source" v="default residential speed limit in Australia"/>
    <tag k="name" v="Whitemark Place"/>
  </way>
  <way id="35237916" version="3" timestamp="2012-01-18T22:07:48Z" uid="147510" user="woodpeck_fixbot" changeset="10431441">
    <nd ref="413281678"/>
    <nd ref="413281679"/>
    <nd ref="413281680"/>
    <nd ref="413281681"/>
    <tag k="highway" v="residential"/>
    <tag k="name" v="Whitemark Place"/>
  </way>
  <way id="35237917" version="2" timestamp="2010-07-09T05:40:38Z" uid="74617" user="JohnSmith" changeset="5170986">
    <nd ref="413281682"/>
    <nd ref="413281683"/>
    <tag k="highway" v="residential"/>
    <tag k="maxspeed" v="50"/>
    <tag k="maxspeed:source" v="default residential speed limit in Australia"/>
    <tag k="name" v="Parangana Place"/>
  </way>
  <way id="35237917" version="3" timestamp="2012-01-18T22:07:49Z" uid="147510" user="woodpeck_fixbot" changeset="10431441">
    <nd ref="413281682"/>
    <nd ref="413281683"/>
    <tag k="highway" v="residential"/>
    <tag k="name" v="Parangana Place"/>
  </way>
  <way id="35237918" version="2" timestamp="2010-07-09T05:39:47Z" uid="74617" user="JohnSmith" changeset="5170986">
    <nd ref="413281684"/>
    <nd ref="413281685"/>
    <nd ref="413281686"/>
    <nd ref="413281687"/>
    <nd ref="413281688"/>
    <tag k="highway" v="residential"/>
    <tag k="maxspeed" v="50"/>
    <tag k="maxspeed:source" v="default residential speed limit in Australia"/>
    <tag k="name" v="Bibra Place"/>
  </way>
  <way id="35237918" version="3" timestamp="2012-01-18T22:08:04Z" uid="147510" user="woodpeck_fixbot" changeset="10431441">
    <nd ref="413281684"/>
    <nd ref="413281685"/>
    <nd ref="413281686"/>
    <nd ref="413281687"/>
    <nd ref="413281688"/>
    <tag k="highway" v="residential"/>
    <tag k="name" v="Bibra Place"/>
  </way>
  <way id="35237919" version="2" timestamp="2010-07-09T05:38:45Z" uid="74617" user="JohnSmith" changeset="5170986">
    <nd ref="322728303"/>
    <nd ref="413281689"/>
    <nd ref="413281690"/>
    <nd ref="413281691"/>
    <nd ref="413281692"/>
    <nd ref="413281693"/>
    <nd ref="413281694"/>
    <nd ref="413281695"/>
    <nd ref="413281696"/>
    <nd ref="413281697"/>
    <nd ref="413281698"/>
    <nd ref="413281699"/>
    <nd ref="413281700"/>
    <nd ref="413281695"/>
    <tag k="highway" v="residential"/>
    <tag k="maxspeed" v="50"/>
    <tag k="maxspeed:source" v="default residential speed limit in Australia"/>
    <tag k="name" v="Waverley Road"/>
  </way>
  <way id="35237919" version="3" timestamp="2011-11-19T23:59:16Z" uid="227509" user="shred" changeset="9879104">
    <nd ref="322728303"/>
    <nd ref="413281689"/>
    <nd ref="413281690"/>
    <nd ref="1509288550"/>
    <nd ref="413281691"/>
    <nd ref="413281692"/>
    <nd ref="413281693"/>
    <nd ref="413281694"/>
    <nd ref="413281695"/>
    <nd ref="413281696"/>
    <nd ref="413281697"/>
    <nd ref="413281698"/>
    <nd ref="413281699"/>
    <nd ref="413281700"/>
    <nd ref="413281695"/>
    <tag k="highway" v="residential"/>
    <tag k="maxspeed" v="50"/>
    <tag k="maxspeed:source" v="default residential speed limit in Australia"/>
    <tag k="name" v="Waverley Road"/>
  </way>
  <way id="35237919" version="4" timestamp="2012-01-18T22:08:25Z" uid="147510" user="woodpeck_fixbot" changeset="10431441">
    <nd ref="322728303"/>
    <nd ref="413281689"/>
    <nd ref="413281690"/>
    <nd ref="1509288550"/>
    <nd ref="413281691"/>
    <nd ref="413281692"/>
    <nd ref="413281693"/>
    <nd ref="413281694"/>
    <nd ref="413281695"/>
    <nd ref="413281696"/>
    <nd ref="413281697"/>
    <nd ref="413281698"/>
    <nd ref="413281699"/>
    <nd ref="413281700"/>
    <nd ref="413281695"/>
    <tag k="highway" v="residential"/>
    <tag k="name" v="Waverley Road"/>
  </way>
</osm>
