<?xml version='1.0' encoding='UTF-8'?>
<osm version="0.6" generator="libosmium/2.20.0">
  <way id="3531084" version="8" timestamp="2008-08-17T14:38:27Z" uid="20587" user="balrog-kun" changeset="290382"/>
  <way id="3531542" version="3" timestamp="2009-08-06T18:28:38Z" uid="6269" user="Mueck" changeset="2058802">
    <nd ref="17198874"/>
    <nd ref="17198875"/>
    <nd ref="23621174"/>
    <nd ref="17198876"/>
    <tag k="highway" v="cycleway"/>
  </way>
  <way id="3531542" version="4" timestamp="2009-08-06T18:28:43Z" uid="6269" user="Mueck" changeset="2058802"/>
  <way id="3531547" version="3" timestamp="2009-05-12T10:08:26Z" uid="6269" user="Mueck" changeset="1162331"/>
  <way id="3531548" version="4" timestamp="2008-07-30T09:38:15Z" uid="6269" user="Mueck" changeset="628766">
    <nd ref="18308830"/>
    <nd ref="28783867"/>
    <nd ref="16261968"/>
    <nd ref="17070827"/>
    <nd ref="16261971"/>
    <nd ref="29399591"/>
    <tag k="created_by" v="Potlatch 0.10a"/>
    <tag k="highway" v="primary"/>
    <tag k="name" v="Rheinstraße"/>
    <tag k="note" v="im SHP des NVK: I"/>
  </way>
  <way id="3531548" version="5" timestamp="2008-08-04T17:50:42Z" uid="6269" user="Mueck" changeset="54102">
    <nd ref="18308830"/>
    <nd ref="28783867"/>
    <nd ref="16261968"/>
    <nd ref="17070827"/>
    <nd ref="16261971"/>
    <nd ref="29399591"/>
    <tag k="created_by" v="Potlatch 0.10b"/>
    <tag k="highway" v="secondary"/>
    <tag k="name" v="Rheinstraße"/>
    <tag k="note" v="im SHP des NVK: II"/>
  </way>
  <way id="3531548" version="6" timestamp="2008-08-04T17:51:12Z" uid="6269" user="Mueck" changeset="54102">
    <nd ref="18308830"/>
    <nd ref="28783867"/>
    <nd ref="16261968"/>
    <nd ref="17070827"/>
    <nd ref="16261971"/>
    <nd ref="29399591"/>
    <tag k="created_by" v="Potlatch 0.10b"/>
    <tag k="highway" v="secondary"/>
    <tag k="name" v="Rheinstraße"/>
    <tag k="note" v="im SHP des NVK: II"/>
  </way>
  <way id="3531548" version="7" timestamp="2008-08-04T17:52:11Z" uid="6269" user="Mueck" changeset="54102">
    <nd ref="18308830"/>
    <nd ref="28783867"/>
    <nd ref="16261968"/>
    <nd ref="17070827"/>
    <nd ref="16261971"/>
    <nd ref="29399591"/>
    <tag k="created_by" v="Potlatch 0.10b"/>
    <tag k="highway" v="secondary"/>
    <tag k="name" v="Rheinstraße"/>
    <tag k="note" v="im SHP des NVK: II"/>
  </way>
  <way id="3531548" version="8" timestamp="2009-01-05T14:11:27Z" uid="16330" user="aluka" changeset="739153">
    <nd ref="18308830"/>
    <nd ref="28783867"/>
    <tag k="created_by" v="Potlatch 0.10b"/>
    <tag k="highway" v="secondary"/>
    <tag k="note" v="im SHP des NVK: II"/>
  </way>
  <way id="3531548" version="9" timestamp="2009-06-21T15:32:33Z" uid="85761" user="klausis" changeset="1584316">
    <nd ref="18308830"/>
    <nd ref="28783867"/>
    <tag k="highway" v="secondary"/>
    <tag k="note" v="im SHP des NVK: II"/>
  </way>
  <way id="3531548" version="10" timestamp="2011-02-02T06:01:26Z" uid="163673" user="Free_Jan" changeset="7161719">
    <nd ref="18308830"/>
    <nd ref="28783867"/>
    <tag k="highway" v="secondary"/>
    <tag k="note" v="im SHP des NVK: II"/>
    <tag k="oneway" v="yes"/>
  </way>
  <way id="3531548" version="11" timestamp="2012-01-14T10:51:13Z" uid="16330" user="aluka" changeset="10386206">
    <nd ref="18308830"/>
    <nd ref="28783867"/>
    <tag k="highway" v="primary"/>
    <tag k="note" v="im SHP des NVK: II"/>
    <tag k="oneway" v="yes"/>
  </way>
  <way id="3531548" version="12" timestamp="2012-02-12T17:16:50Z" uid="165061" user="keinname" changeset="10665379">
    <nd ref="18308830"/>
    <nd ref="28783867"/>
    <tag k="highway" v="primary"/>
    <tag k="lanes" v="3"/>
    <tag k="note" v="im SHP des NVK: II"/>
    <tag k="oneway" v="yes"/>
  </way>
  <way id="3531549" version="2" timestamp="2008-05-18T14:45:21Z" uid="16922" user="amai" changeset="474593">
    <nd ref="14890774"/>
    <nd ref="21498803"/>
    <nd ref="14912566"/>
    <nd ref="14912567"/>
    <nd ref="21498797"/>
    <nd ref="31263504"/>
    <tag k="created_by" v="Potlatch 0.9a"/>
    <tag k="highway" v="primary"/>
    <tag k="name" v="Karl-Wilhelm-Straße"/>
  </way>
  <way id="3531549" version="3" timestamp="2008-07-30T09:58:50Z" uid="6269" user="Mueck" changeset="628766">
    <nd ref="14890774"/>
    <nd ref="21498803"/>
    <nd ref="14912566"/>
    <nd ref="14912567"/>
    <nd ref="21498797"/>
    <nd ref="31263504"/>
    <tag k="created_by" v="Potlatch 0.10a"/>
    <tag k="highway" v="secondary"/>
    <tag k="name" v="Karl-Wilhelm-Straße"/>
    <tag k="note" v="im SHP des NVK: II"/>
  </way>
  <way id="3531549" version="4" timestamp="2009-06-19T13:02:34Z" uid="85761" user="klausis" changeset="1564619">
    <nd ref="14890774"/>
    <nd ref="21498803"/>
    <nd ref="14912566"/>
    <nd ref="14912567"/>
    <nd ref="21498797"/>
    <nd ref="31263504"/>
    <tag k="highway" v="secondary"/>
    <tag k="name" v="Karl-Wilhelm-Straße"/>
    <tag k="note" v="im SHP des NVK: II"/>
  </way>
  <way id="3531549" version="5" timestamp="2009-08-11T10:43:09Z" uid="151735" user="Sophie Werner" changeset="2106879">
    <nd ref="14890774"/>
    <nd ref="461678706"/>
    <tag k="cycleway" v="lane"/>
    <tag k="highway" v="secondary"/>
    <tag k="name" v="Karl-Wilhelm-Straße"/>
    <tag k="note" v="im SHP des NVK: II"/>
  </way>
  <way id="3531549" version="6" timestamp="2009-08-12T07:52:26Z" uid="151735" user="Sophie Werner" changeset="2115851">
    <nd ref="14890774"/>
    <nd ref="461678706"/>
    <tag k="bicycle" v="designated"/>
    <tag k="cycleway" v="lane"/>
    <tag k="highway" v="secondary"/>
    <tag k="name" v="Karl-Wilhelm-Straße"/>
    <tag k="note" v="im SHP des NVK: II"/>
  </way>
  <way id="3531549" version="7" timestamp="2009-09-01T18:35:00Z" uid="38515" user="Sören" changeset="2341237">
    <nd ref="462271714"/>
    <nd ref="461678706"/>
    <tag k="bicycle" v="designated"/>
    <tag k="cycleway" v="lane"/>
    <tag k="highway" v="secondary"/>
    <tag k="name" v="Karl-Wilhelm-Straße"/>
    <tag k="note" v="im SHP des NVK: II"/>
  </way>
  <way id="3531549" version="8" timestamp="2011-02-04T00:37:59Z" uid="6269" user="Mueck" changeset="7179414"/>
  <way id="3531551" version="2" timestamp="2011-04-06T22:39:15Z" uid="6269" user="Mueck" changeset="7789512">
    <nd ref="15612369"/>
    <nd ref="15612392"/>
    <nd ref="1235299507"/>
    <nd ref="29948652"/>
    <nd ref="15612364"/>
    <nd ref="15612365"/>
    <tag k="highway" v="unclassified"/>
    <tag k="name" v="Im Vogelsand"/>
  </way>
  <way id="3531551" version="3" timestamp="2011-11-06T12:44:30Z" uid="118352" user="kamarc" changeset="9754753">
    <nd ref="15612369"/>
    <nd ref="15612392"/>
    <nd ref="1493193128"/>
    <nd ref="1235299507"/>
    <nd ref="29948652"/>
    <nd ref="15612364"/>
    <nd ref="15612365"/>
    <tag k="highway" v="unclassified"/>
    <tag k="name" v="Im Vogelsand"/>
  </way>
  <way id="3531552" version="2" timestamp="2008-08-09T01:08:51Z" uid="6269" user="Mueck" changeset="154032">
    <nd ref="15612356"/>
    <nd ref="26290861"/>
    <nd ref="25971894"/>
    <nd ref="25379641"/>
    <nd ref="18911745"/>
    <nd ref="15612355"/>
    <nd ref="31685133"/>
    <nd ref="15612354"/>
    <tag k="created_by" v="Potlatch 0.10b"/>
    <tag k="highway" v="tertiary"/>
    <tag k="name" v="Rintheimer Querallee"/>
    <tag k="note" v="im SHP des NVK: III"/>
  </way>
  <way id="3531552" version="3" timestamp="2009-02-09T15:29:08Z" uid="84848" user="elisa" changeset="311226">
    <nd ref="15612356"/>
    <nd ref="26290861"/>
    <nd ref="343685022"/>
    <tag k="created_by" v="Merkaartor 0.13"/>
    <tag k="highway" v="tertiary"/>
    <tag k="lanes" v="4"/>
    <tag k="name" v="Rintheimer Querallee"/>
    <tag k="note" v="im SHP des NVK: III"/>
  </way>
  <way id="3531552" version="4" timestamp="2009-04-22T19:39:23Z" uid="6269" user="Mueck" changeset="904745">
    <nd ref="15612356"/>
    <nd ref="381134398"/>
    <nd ref="26290861"/>
    <nd ref="343685022"/>
    <tag k="created_by" v="Merkaartor 0.13"/>
    <tag k="highway" v="tertiary"/>
    <tag k="lanes" v="4"/>
    <tag k="name" v="Rintheimer Querallee"/>
    <tag k="note" v="im SHP des NVK: III"/>
  </way>
  <way id="3531552" version="5" timestamp="2009-06-19T13:02:51Z" uid="85761" user="klausis" changeset="1564619">
    <nd ref="15612356"/>
    <nd ref="381134398"/>
    <nd ref="26290861"/>
    <nd ref="343685022"/>
    <tag k="highway" v="tertiary"/>
    <tag k="lanes" v="4"/>
    <tag k="name" v="Rintheimer Querallee"/>
    <tag k="note" v="im SHP des NVK: III"/>
  </way>
  <way id="3531552" version="6" timestamp="2012-03-23T22:12:22Z" uid="35468" user="Blunauer" changeset="11079141">
    <nd ref="15612356"/>
    <nd ref="381134398"/>
    <nd ref="26290861"/>
    <nd ref="343685022"/>
    <tag k="highway" v="tertiary"/>
    <tag k="lanes" v="4"/>
    <tag k="name" v="Rintheimer Querallee"/>
    <tag k="note" v="im SHP des NVK: III"/>
  </way>
  <way id="3531552" version="7" timestamp="2012-03-25T12:48:36Z" uid="35468" user="Blunauer" changeset="11094709"/>
  <way id="3531553" version="2" timestamp="2008-02-20T13:34:53Z" uid="6269" user="Mueck" changeset="164462">
    <nd ref="14912575"/>
    <nd ref="21498802"/>
    <nd ref="21498799"/>
    <nd ref="21498798"/>
    <nd ref="14911465"/>
    <tag k="created_by" v="Potlatch 0.7b"/>
    <tag k="highway" v="residential"/>
    <tag k="name" v="Ludwig-Wilhelm-Straße"/>
  </way>
  <way id="3531553" version="3" timestamp="2008-06-14T21:46:27Z" uid="34984" user="fennek" changeset="162842">
    <nd ref="14912575"/>
    <nd ref="21498802"/>
    <nd ref="21498799"/>
    <tag k="created_by" v="Potlatch 0.7b"/>
    <tag k="highway" v="service"/>
    <tag k="name" v="Ludwig-Wilhelm-Straße"/>
  </way>
  <way id="3531553" version="4" timestamp="2009-06-19T13:02:51Z" uid="85761" user="klausis" changeset="1564619">
    <nd ref="14912575"/>
    <nd ref="21498802"/>
    <nd ref="21498799"/>
    <tag k="highway" v="service"/>
    <tag k="name" v="Ludwig-Wilhelm-Straße"/>
  </way>
  <way id="3531553" version="5" timestamp="2011-04-04T01:29:31Z" uid="6269" user="Mueck" changeset="7760460">
    <nd ref="14912575"/>
    <nd ref="1231749874"/>
    <nd ref="21498802"/>
    <nd ref="1231749971"/>
    <tag k="highway" v="service"/>
    <tag k="name" v="Ludwig-Wilhelm-Straße"/>
  </way>
  <way id="3531557" version="2" timestamp="2008-03-29T17:25:20Z" uid="16922" user="amai" changeset="420423">
    <nd ref="16375847"/>
    <nd ref="16375849"/>
    <tag k="created_by" v="Potlatch 0.8"/>
    <tag k="highway" v="living_street"/>
    <tag k="name" v="Veilchenstraße"/>
  </way>
  <way id="3531557" version="3" timestamp="2008-06-30T16:11:28Z" uid="29717" user="eumiro" changeset="348176">
    <nd ref="16375847"/>
    <nd ref="274957351"/>
    <nd ref="274957349"/>
    <tag k="created_by" v="Potlatch 0.8"/>
    <tag k="highway" v="living_street"/>
    <tag k="name" v="Veilchenstraße"/>
  </way>
  <way id="3531557" version="4" timestamp="2009-02-01T22:28:57Z" uid="6269" user="Mueck" changeset="68685">
    <nd ref="16375847"/>
    <nd ref="339879724"/>
    <nd ref="274957351"/>
    <nd ref="274957349"/>
    <tag k="created_by" v="Potlatch 0.10f"/>
    <tag k="highway" v="living_street"/>
    <tag k="name" v="Veilchenstraße"/>
  </way>
  <way id="3531557" version="5" timestamp="2009-04-27T11:26:06Z" uid="6269" user="Mueck" changeset="989391">
    <nd ref="16375847"/>
    <nd ref="339879724"/>
    <nd ref="274957351"/>
    <tag k="created_by" v="Potlatch 0.10f"/>
    <tag k="highway" v="living_street"/>
    <tag k="name" v="Veilchenstraße"/>
  </way>
  <way id="3531557" version="6" timestamp="2009-06-19T13:02:52Z" uid="85761" user="klausis" changeset="1564619">
    <nd ref="16375847"/>
    <nd ref="339879724"/>
    <nd ref="274957351"/>
    <tag k="highway" v="living_street"/>
    <tag k="name" v="Veilchenstraße"/>
  </way>
  <way id="3531560" version="5" timestamp="2011-04-06T22:39:15Z" uid="6269" user="Mueck" changeset="7789512">
    <nd ref="15612392"/>
    <nd ref="1235299511"/>
    <nd ref="15612410"/>
    <nd ref="340178354"/>
    <tag k="highway" v="unclassified"/>
    <tag k="name" v="Wilhelm-Schickard-Straße"/>
  </way>
  <way id="3531560" version="6" timestamp="2011-11-06T12:44:30Z" uid="118352" user="kamarc" changeset="9754753">
    <nd ref="15612392"/>
    <nd ref="1235299511"/>
    <nd ref="1493193038"/>
    <nd ref="15612410"/>
    <nd ref="340178354"/>
    <tag k="highway" v="unclassified"/>
    <tag k="name" v="Wilhelm-Schickard-Straße"/>
  </way>
  <way id="3531560" version="7" timestamp="2012-02-22T21:54:20Z" uid="165061" user="keinname" changeset="10763567">
    <nd ref="15612392"/>
    <nd ref="1235299511"/>
    <nd ref="1643560877"/>
    <nd ref="1493193038"/>
    <nd ref="15612410"/>
    <nd ref="340178354"/>
    <tag k="highway" v="unclassified"/>
    <tag k="name" v="Wilhelm-Schickard-Straße"/>
  </way>
  <way id="3531561" version="3" timestamp="2011-04-06T22:39:15Z" uid="6269" user="Mueck" changeset="7789512">
    <nd ref="15612392"/>
    <nd ref="1235299524"/>
    <nd ref="15612394"/>
    <tag k="highway" v="unclassified"/>
    <tag k="name" v="Wilhelm-Schickard-Straße"/>
  </way>
  <way id="3531563" version="3" timestamp="2011-02-10T23:16:25Z" uid="6269" user="Mueck" changeset="7250518">
    <nd ref="26699574"/>
    <nd ref="1146328868"/>
    <nd ref="1146328871"/>
    <nd ref="1146328874"/>
    <nd ref="26699576"/>
    <nd ref="15612360"/>
    <nd ref="1115689135"/>
    <nd ref="15612362"/>
    <nd ref="15612364"/>
    <nd ref="29948655"/>
    <nd ref="15612412"/>
    <nd ref="15612413"/>
    <nd ref="15612415"/>
    <nd ref="15612417"/>
    <nd ref="15612418"/>
    <nd ref="15612421"/>
    <nd ref="15612423"/>
    <nd ref="15612424"/>
    <nd ref="15612427"/>
    <nd ref="15612429"/>
    <nd ref="15612430"/>
    <nd ref="15612432"/>
    <nd ref="15612412"/>
    <tag k="highway" v="unclassified"/>
    <tag k="name" v="Albert-Nestler-Straße"/>
  </way>
  <way id="3531563" version="4" timestamp="2011-03-04T14:53:35Z" uid="165061" user="keinname" changeset="7454993">
    <nd ref="26699574"/>
    <nd ref="1146328868"/>
    <nd ref="1146328871"/>
    <nd ref="1146328874"/>
    <nd ref="26699576"/>
    <nd ref="15612360"/>
    <nd ref="1115689135"/>
    <nd ref="15612362"/>
    <nd ref="15612364"/>
    <nd ref="29948655"/>
    <nd ref="15612412"/>
    <tag k="highway" v="unclassified"/>
    <tag k="name" v="Albert-Nestler-Straße"/>
  </way>
  <way id="3531563" version="5" timestamp="2011-03-08T10:33:43Z" uid="10849" user="Markus (Iffze)" changeset="7492713">
    <nd ref="26699574"/>
    <nd ref="1146328868"/>
    <nd ref="1146328871"/>
    <nd ref="1146328874"/>
    <nd ref="26699576"/>
    <nd ref="15612360"/>
    <nd ref="1115689135"/>
    <nd ref="15612362"/>
    <nd ref="15612364"/>
    <nd ref="29948655"/>
    <nd ref="1192490234"/>
    <nd ref="1185891341"/>
    <tag k="highway" v="unclassified"/>
    <tag k="name" v="Albert-Nestler-Straße"/>
  </way>
  <way id="3531563" version="6" timestamp="2012-01-19T13:08:34Z" uid="165061" user="keinname" changeset="10437089">
    <nd ref="26699574"/>
    <nd ref="1146328868"/>
    <nd ref="1146328871"/>
    <nd ref="1146328874"/>
    <nd ref="26699576"/>
    <tag k="highway" v="unclassified"/>
    <tag k="maxspeed" v="50"/>
    <tag k="name" v="Albert-Nestler-Straße"/>
    <tag k="source:maxspeed" v="DE:urban"/>
  </way>
  <way id="3531565" version="5" timestamp="2011-04-06T22:39:15Z" uid="6269" user="Mueck" changeset="7789512">
    <nd ref="15612359"/>
    <nd ref="1115789079"/>
    <nd ref="1115789101"/>
    <nd ref="1116117285"/>
    <nd ref="1115789055"/>
    <nd ref="26699575"/>
    <nd ref="1235299512"/>
    <nd ref="15612370"/>
    <tag k="highway" v="unclassified"/>
  </way>
  <way id="3531567" version="6" timestamp="2011-04-06T22:39:16Z" uid="6269" user="Mueck" changeset="7789512">
    <nd ref="15612358"/>
    <nd ref="796447724"/>
    <nd ref="796445759"/>
    <nd ref="15612443"/>
    <nd ref="15612433"/>
    <nd ref="340178355"/>
    <nd ref="1235299501"/>
    <nd ref="340178356"/>
    <nd ref="340178357"/>
    <nd ref="15612370"/>
    <tag k="highway" v="cycleway"/>
    <tag k="source" v="survey"/>
    <tag k="surface" v="paved"/>
  </way>
  <way id="3531567" version="7" timestamp="2011-05-23T07:15:14Z" uid="11854" user="beate" changeset="8223633">
    <nd ref="15612358"/>
    <nd ref="796447724"/>
    <nd ref="796445759"/>
    <nd ref="15612443"/>
    <nd ref="15612433"/>
    <nd ref="340178355"/>
    <nd ref="1235299501"/>
    <nd ref="340178356"/>
    <nd ref="340178357"/>
    <nd ref="15612370"/>
    <tag k="highway" v="cycleway"/>
    <tag k="name" v="Zum Gewann Blöße"/>
    <tag k="source" v="survey"/>
    <tag k="surface" v="paved"/>
  </way>
  <way id="3531567" version="8" timestamp="2011-11-06T12:44:30Z" uid="118352" user="kamarc" changeset="9754753">
    <nd ref="15612358"/>
    <nd ref="796447724"/>
    <nd ref="796445759"/>
    <nd ref="15612443"/>
    <nd ref="15612433"/>
    <nd ref="340178355"/>
    <nd ref="1235299501"/>
    <nd ref="340178356"/>
    <nd ref="340178357"/>
    <nd ref="15612370"/>
    <tag k="highway" v="service"/>
    <tag k="name" v="Zum Gewann Blöße"/>
    <tag k="source" v="survey"/>
    <tag k="surface" v="paved"/>
  </way>
  <way id="3531567" version="9" timestamp="2012-03-25T17:14:58Z" uid="35468" user="Blunauer" changeset="11097360">
    <nd ref="15612358"/>
    <nd ref="796447724"/>
    <nd ref="796445759"/>
    <nd ref="15612443"/>
    <nd ref="1690580547"/>
    <nd ref="1690580546"/>
    <nd ref="15612433"/>
    <nd ref="340178355"/>
    <nd ref="1235299501"/>
    <nd ref="340178356"/>
    <nd ref="340178357"/>
    <nd ref="1690580520"/>
    <nd ref="15612370"/>
    <tag k="highway" v="service"/>
    <tag k="name" v="Zum Gewann Blöße"/>
    <tag k="source" v="survey"/>
    <tag k="surface" v="paved"/>
  </way>
  <way id="3531568" version="2" timestamp="2008-07-30T10:28:35Z" uid="6269" user="Mueck" changeset="628766">
    <nd ref="21498796"/>
    <nd ref="21498811"/>
    <nd ref="21618136"/>
    <nd ref="14911409"/>
    <nd ref="29947553"/>
    <nd ref="14911410"/>
    <nd ref="21421061"/>
    <nd ref="14911403"/>
    <tag k="created_by" v="Potlatch 0.10a"/>
    <tag k="highway" v="secondary"/>
    <tag k="name" v="Wolfartsweierer Straße"/>
    <tag k="note" v="im SHP des NVK: II"/>
  </way>
  <way id="3531568" version="3" timestamp="2009-02-05T16:35:21Z" uid="84848" user="elisa" changeset="176709">
    <nd ref="21498796"/>
    <nd ref="21498811"/>
    <nd ref="341182001"/>
    <tag k="created_by" v="Merkaartor 0.13"/>
    <tag k="highway" v="secondary"/>
    <tag k="lanes" v="3"/>
    <tag k="name" v="Wolfartsweierer Straße"/>
    <tag k="note" v="im SHP des NVK: II"/>
  </way>
  <way id="3531568" version="4" timestamp="2009-06-16T14:16:30Z" uid="77204" user="aps" changeset="1535533">
    <nd ref="21498796"/>
    <nd ref="421656398"/>
    <nd ref="21498811"/>
    <nd ref="341182001"/>
    <tag k="highway" v="secondary"/>
    <tag k="lanes" v="3"/>
    <tag k="name" v="Wolfartsweierer Straße"/>
    <tag k="note" v="im SHP des NVK: II"/>
  </way>
  <way id="3531568" version="5" timestamp="2009-08-13T09:09:05Z" uid="151735" user="Sophie Werner" changeset="2128694">
    <nd ref="21498796"/>
    <nd ref="421656398"/>
    <nd ref="463206977"/>
    <tag k="bicycle" v="designated"/>
    <tag k="cycleway" v=""/>
    <tag k="highway" v="secondary"/>
    <tag k="lanes" v="3"/>
    <tag k="name" v="Wolfartsweierer Straße"/>
    <tag k="note" v="im SHP des NVK: II"/>
  </way>
  <way id="3531568" version="6" timestamp="2009-08-15T10:12:26Z" uid="70696" user="xybot" changeset="2151193">
    <nd ref="21498796"/>
    <nd ref="421656398"/>
    <nd ref="463206977"/>
    <tag k="bicycle" v="designated"/>
    <tag k="highway" v="secondary"/>
    <tag k="lanes" v="3"/>
    <tag k="name" v="Wolfartsweierer Straße"/>
    <tag k="note" v="im SHP des NVK: II"/>
  </way>
  <way id="3531568" version="7" timestamp="2009-08-17T09:46:06Z" uid="151735" user="Sophie Werner" changeset="2175646">
    <nd ref="21498796"/>
    <nd ref="421656398"/>
    <nd ref="463206977"/>
    <tag k="bicycle" v="designated"/>
    <tag k="cycleway" v="lane"/>
    <tag k="highway" v="secondary"/>
    <tag k="lanes" v="3"/>
    <tag k="name" v="Wolfartsweierer Straße"/>
    <tag k="note" v="im SHP des NVK: II"/>
  </way>
  <way id="3531568" version="8" timestamp="2010-05-02T23:49:57Z" uid="6269" user="Mueck" changeset="4591215">
    <nd ref="21498796"/>
    <nd ref="718121853"/>
    <nd ref="421656398"/>
    <nd ref="463206977"/>
    <tag k="bicycle" v="designated"/>
    <tag k="cycleway" v="lane"/>
    <tag k="highway" v="secondary"/>
    <tag k="lanes" v="3"/>
    <tag k="name" v="Wolfartsweierer Straße"/>
    <tag k="note" v="im SHP des NVK: II"/>
  </way>
  <way id="3531568" version="9" timestamp="2011-02-04T15:12:51Z" uid="6269" user="Mueck" changeset="7184150">
    <nd ref="21498796"/>
    <nd ref="421656398"/>
    <nd ref="463206977"/>
    <tag k="bicycle" v="designated"/>
    <tag k="cycleway" v="lane"/>
    <tag k="highway" v="secondary"/>
    <tag k="lanes" v="3"/>
    <tag k="name" v="Wolfartsweierer Straße"/>
    <tag k="note" v="im SHP des NVK: II"/>
  </way>
  <way id="3531568" version="10" timestamp="2011-03-21T23:41:14Z" uid="6269" user="Mueck" changeset="7632655">
    <nd ref="21498796"/>
    <nd ref="1212673664"/>
    <nd ref="421656398"/>
    <nd ref="463206977"/>
    <tag k="bicycle" v="designated"/>
    <tag k="cycleway" v="lane"/>
    <tag k="highway" v="secondary"/>
    <tag k="lanes" v="3"/>
    <tag k="name" v="Wolfartsweierer Straße"/>
    <tag k="note" v="im SHP des NVK: II"/>
  </way>
  <way id="3531568" version="11" timestamp="2011-08-02T21:36:26Z" uid="493999" user="BastiaanH" changeset="8905384">
    <nd ref="21498796"/>
    <nd ref="1383570883"/>
    <nd ref="1212673664"/>
    <nd ref="421656398"/>
    <nd ref="463206977"/>
    <tag k="bicycle" v="designated"/>
    <tag k="cycleway" v="lane"/>
    <tag k="highway" v="secondary"/>
    <tag k="lanes" v="3"/>
    <tag k="name" v="Wolfartsweierer Straße"/>
    <tag k="note" v="im SHP des NVK: II"/>
  </way>
  <way id="3531568" version="12" timestamp="2011-10-26T12:23:00Z" uid="442210" user="dwausr" changeset="9659753"/>
  <way id="3531573" version="4" timestamp="2008-02-13T23:21:47Z" uid="6269" user="Mueck" changeset="116769">
    <nd ref="27549652"/>
    <nd ref="89104997"/>
    <nd ref="26065449"/>
    <nd ref="15357716"/>
    <nd ref="15357717"/>
    <nd ref="15357718"/>
    <nd ref="15357720"/>
    <nd ref="15357721"/>
    <nd ref="15357722"/>
    <tag k="created_by" v="Potlatch 0.7a"/>
    <tag k="highway" v="secondary"/>
    <tag k="maxspeed" v="50"/>
    <tag k="name" v="August-Bebel-Straße"/>
  </way>
  <way id="3531573" version="5" timestamp="2008-02-23T18:33:34Z" uid="3585" user="SlowRider" changeset="184699">
    <nd ref="27549652"/>
    <nd ref="89104997"/>
    <nd ref="26065449"/>
    <nd ref="248931150"/>
    <nd ref="15357716"/>
    <nd ref="248931114"/>
    <nd ref="248931143"/>
    <nd ref="248931140"/>
    <nd ref="248931134"/>
    <nd ref="15357717"/>
    <nd ref="248931127"/>
    <nd ref="248931122"/>
    <nd ref="15357718"/>
    <nd ref="15357720"/>
    <nd ref="15357721"/>
    <nd ref="15357722"/>
    <tag k="created_by" v="Potlatch 0.7a"/>
    <tag k="highway" v="secondary"/>
    <tag k="maxspeed" v="50"/>
    <tag k="name" v="August-Bebel-Straße"/>
  </way>
  <way id="3531573" version="6" timestamp="2008-02-23T18:54:54Z" uid="3585" user="SlowRider" changeset="184699">
    <nd ref="27549652"/>
    <nd ref="89104997"/>
    <nd ref="26065449"/>
    <nd ref="248933321"/>
    <nd ref="248931150"/>
    <nd ref="15357716"/>
    <nd ref="248933318"/>
    <nd ref="248931114"/>
    <nd ref="248931143"/>
    <nd ref="248933316"/>
    <nd ref="248933308"/>
    <nd ref="248931140"/>
    <nd ref="248933314"/>
    <nd ref="248931134"/>
    <nd ref="248933313"/>
    <nd ref="15357717"/>
    <nd ref="248931127"/>
    <nd ref="248931122"/>
    <nd ref="15357718"/>
    <nd ref="15357720"/>
    <nd ref="15357721"/>
    <nd ref="15357722"/>
    <tag k="created_by" v="Potlatch 0.7a"/>
    <tag k="highway" v="secondary"/>
    <tag k="maxspeed" v="50"/>
    <tag k="name" v="August-Bebel-Straße"/>
  </way>
  <way id="3531573" version="7" timestamp="2008-04-30T12:32:12Z" uid="16330" user="aluka" changeset="294370">
    <nd ref="27549652"/>
    <nd ref="89104997"/>
    <nd ref="26065449"/>
    <nd ref="248933321"/>
    <nd ref="248931150"/>
    <nd ref="15357716"/>
    <nd ref="248933318"/>
    <nd ref="248931114"/>
    <nd ref="248931143"/>
    <nd ref="248933316"/>
    <nd ref="248933308"/>
    <nd ref="248931140"/>
    <nd ref="248933314"/>
    <nd ref="248931134"/>
    <nd ref="248933313"/>
    <nd ref="15357717"/>
    <nd ref="248931127"/>
    <nd ref="248931122"/>
    <nd ref="15357718"/>
    <nd ref="15357720"/>
    <nd ref="15357721"/>
    <nd ref="15357722"/>
    <tag k="created_by" v="Potlatch 0.7a"/>
    <tag k="highway" v="secondary"/>
    <tag k="maxspeed" v="50"/>
    <tag k="name" v="August-Bebel-Straße"/>
  </way>
  <way id="3531573" version="8" timestamp="2008-07-06T17:42:00Z" uid="16330" user="aluka" changeset="411491">
    <nd ref="27549652"/>
    <nd ref="89104997"/>
    <nd ref="26065449"/>
    <nd ref="248933321"/>
    <nd ref="248931150"/>
    <nd ref="15357716"/>
    <nd ref="248933318"/>
    <nd ref="248931114"/>
    <nd ref="248931143"/>
    <nd ref="248933316"/>
    <nd ref="248933308"/>
    <nd ref="248931140"/>
    <nd ref="248933314"/>
    <nd ref="248931134"/>
    <nd ref="248933313"/>
    <nd ref="15357717"/>
    <nd ref="248931127"/>
    <nd ref="248931122"/>
    <nd ref="15357718"/>
    <nd ref="15357720"/>
    <nd ref="15357721"/>
    <nd ref="15357722"/>
    <tag k="created_by" v="Potlatch 0.7a"/>
    <tag k="highway" v="secondary"/>
    <tag k="maxspeed" v="50"/>
    <tag k="name" v="August-Bebel-Straße"/>
    <tag k="postal_code" v="76187"/>
  </way>
  <way id="3531573" version="9" timestamp="2008-07-23T05:58:19Z" uid="52374" user="Grax" changeset="572836">
    <nd ref="27549652"/>
    <nd ref="89104997"/>
    <nd ref="26065449"/>
    <nd ref="248933321"/>
    <nd ref="248931150"/>
    <nd ref="15357716"/>
    <nd ref="248933318"/>
    <nd ref="248931114"/>
    <nd ref="248931143"/>
    <nd ref="248933316"/>
    <nd ref="248933308"/>
    <nd ref="248931140"/>
    <nd ref="248933314"/>
    <nd ref="248931134"/>
    <nd ref="248933313"/>
    <nd ref="15357717"/>
    <nd ref="248931127"/>
    <nd ref="248931122"/>
    <nd ref="15357718"/>
    <nd ref="15357720"/>
    <nd ref="15357721"/>
    <nd ref="15357722"/>
    <tag k="created_by" v="Potlatch 0.7a"/>
    <tag k="highway" v="secondary"/>
    <tag k="maxspeed" v="50"/>
    <tag k="name" v="August-Bebel-Straße"/>
    <tag k="oneway" v="no"/>
    <tag k="postal_code" v="76187"/>
  </way>
  <way id="3531573" version="10" timestamp="2008-07-30T09:27:31Z" uid="6269" user="Mueck" changeset="628766">
    <nd ref="27549652"/>
    <nd ref="89104997"/>
    <nd ref="26065449"/>
    <nd ref="248933321"/>
    <nd ref="248931150"/>
    <nd ref="15357716"/>
    <nd ref="248933318"/>
    <nd ref="248931114"/>
    <nd ref="248931143"/>
    <nd ref="248933316"/>
    <nd ref="248933308"/>
    <nd ref="248931140"/>
    <nd ref="248933314"/>
    <nd ref="248931134"/>
    <nd ref="248933313"/>
    <nd ref="15357717"/>
    <nd ref="248931127"/>
    <nd ref="248931122"/>
    <nd ref="15357718"/>
    <nd ref="15357720"/>
    <nd ref="15357721"/>
    <nd ref="15357722"/>
    <tag k="created_by" v="Potlatch 0.10a"/>
    <tag k="highway" v="tertiary"/>
    <tag k="maxspeed" v="50"/>
    <tag k="name" v="August-Bebel-Straße"/>
    <tag k="note" v="im SHP des NVK: III"/>
    <tag k="oneway" v="no"/>
    <tag k="postal_code" v="76187"/>
  </way>
  <way id="3531573" version="11" timestamp="2009-01-17T13:43:16Z" uid="16330" user="aluka" changeset="798969">
    <nd ref="27549652"/>
    <nd ref="89104997"/>
    <nd ref="26065449"/>
    <nd ref="248933321"/>
    <nd ref="248931150"/>
    <nd ref="15357716"/>
    <nd ref="248933318"/>
    <nd ref="248931114"/>
    <nd ref="248931143"/>
    <nd ref="248933316"/>
    <nd ref="248933308"/>
    <nd ref="248931140"/>
    <nd ref="248933314"/>
    <nd ref="248931134"/>
    <nd ref="248933313"/>
    <nd ref="15357717"/>
    <tag k="created_by" v="Potlatch 0.10a"/>
    <tag k="highway" v="tertiary"/>
    <tag k="maxspeed" v="50"/>
    <tag k="name" v="August-Bebel-Straße"/>
    <tag k="note" v="im SHP des NVK: III"/>
    <tag k="oneway" v="no"/>
    <tag k="postal_code" v="76187"/>
  </way>
  <way id="3531573" version="12" timestamp="2009-06-21T15:32:49Z" uid="85761" user="klausis" changeset="1584316">
    <nd ref="27549652"/>
    <nd ref="89104997"/>
    <nd ref="26065449"/>
    <nd ref="248933321"/>
    <nd ref="248931150"/>
    <nd ref="15357716"/>
    <nd ref="248933318"/>
    <nd ref="248931114"/>
    <nd ref="248931143"/>
    <nd ref="248933316"/>
    <nd ref="248933308"/>
    <nd ref="248931140"/>
    <nd ref="248933314"/>
    <nd ref="248931134"/>
    <nd ref="248933313"/>
    <nd ref="15357717"/>
    <tag k="highway" v="tertiary"/>
    <tag k="maxspeed" v="50"/>
    <tag k="name" v="August-Bebel-Straße"/>
    <tag k="note" v="im SHP des NVK: III"/>
    <tag k="oneway" v="no"/>
    <tag k="postal_code" v="76187"/>
  </way>
  <way id="3531573" version="13" timestamp="2011-10-09T20:01:15Z" uid="212553" user="ARWIE" changeset="9516691">
    <nd ref="26065449"/>
    <nd ref="1460468042"/>
    <nd ref="1460468037"/>
    <nd ref="1460468036"/>
    <nd ref="248933321"/>
    <nd ref="248931150"/>
    <nd ref="15357716"/>
    <nd ref="248933318"/>
    <nd ref="248931114"/>
    <nd ref="1460467978"/>
    <nd ref="248931143"/>
    <nd ref="248933316"/>
    <nd ref="248933308"/>
    <nd ref="248931140"/>
    <nd ref="248933314"/>
    <nd ref="248931134"/>
    <nd ref="248933313"/>
    <nd ref="15357717"/>
    <tag k="highway" v="tertiary"/>
    <tag k="maxspeed" v="50"/>
    <tag k="name" v="August-Bebel-Straße"/>
    <tag k="note" v="im SHP des NVK: III"/>
    <tag k="oneway" v="no"/>
    <tag k="postal_code" v="76187"/>
  </way>
  <way id="3531647" version="6" timestamp="2011-02-02T14:38:04Z" uid="6269" user="Mueck" changeset="7165051">
    <nd ref="412346"/>
    <nd ref="1132375115"/>
    <nd ref="412347"/>
    <nd ref="286069026"/>
    <nd ref="412348"/>
    <tag k="highway" v="primary"/>
    <tag k="name" v="Am Entenfang"/>
    <tag k="oneway" v="yes"/>
  </way>
  <way id="3531647" version="7" timestamp="2012-01-05T16:43:36Z" uid="580631" user="Sworrs" changeset="10302787">
    <nd ref="412346"/>
    <nd ref="1132375115"/>
    <nd ref="412347"/>
    <nd ref="286069026"/>
    <nd ref="412348"/>
    <tag k="access" v="yes"/>
    <tag k="bicycle" v="yes"/>
    <tag k="cycleway" v="lane"/>
    <tag k="highway" v="primary"/>
    <tag k="lanes" v="3"/>
    <tag k="maxspeed" v="50"/>
    <tag k="motor_vehicle" v="yes"/>
    <tag k="name" v="Am Entenfang"/>
    <tag k="oneway" v="yes"/>
    <tag k="surface" v="asphalt"/>
  </way>
  <way id="3531647" version="8" timestamp="2012-02-07T22:58:01Z" uid="165061" user="keinname" changeset="10618069">
    <nd ref="412346"/>
    <nd ref="1132375115"/>
    <nd ref="412347"/>
    <nd ref="286069026"/>
    <nd ref="412348"/>
    <tag k="access" v="yes"/>
    <tag k="bicycle" v="yes"/>
    <tag k="cycleway" v="lane"/>
    <tag k="highway" v="primary"/>
    <tag k="lanes" v="3"/>
    <tag k="lanes:turnleft" v="1"/>
    <tag k="maxspeed" v="50"/>
    <tag k="motor_vehicle" v="yes"/>
    <tag k="name" v="Am Entenfang"/>
    <tag k="oneway" v="yes"/>
    <tag k="surface" v="asphalt"/>
  </way>
  <way id="3531648" version="2" timestamp="2008-03-31T19:43:17Z" uid="16922" user="amai" changeset="434241">
    <nd ref="412344"/>
    <nd ref="412345"/>
    <nd ref="26470142"/>
    <tag k="created_by" v="Potlatch 0.8a"/>
    <tag k="highway" v="primary"/>
    <tag k="name" v="Vogesenbrücke"/>
    <tag k="oneway" v="true"/>
  </way>
  <way id="3531648" version="3" timestamp="2009-04-16T17:11:51Z" uid="103885" user="logicbot" changeset="603450">
    <nd ref="412344"/>
    <nd ref="412345"/>
    <nd ref="26470142"/>
    <tag k="created_by" v="Potlatch 0.8a"/>
    <tag k="highway" v="primary"/>
    <tag k="name" v="Vogesenbrücke"/>
    <tag k="oneway" v="yes"/>
  </way>
  <way id="3531648" version="4" timestamp="2009-06-21T15:31:58Z" uid="85761" user="klausis" changeset="1584316">
    <nd ref="412344"/>
    <nd ref="412345"/>
    <nd ref="26470142"/>
    <tag k="highway" v="primary"/>
    <tag k="name" v="Vogesenbrücke"/>
    <tag k="oneway" v="yes"/>
  </way>
  <way id="3531648" version="5" timestamp="2011-01-29T17:34:10Z" uid="163673" user="Free_Jan" changeset="7124835">
    <nd ref="412344"/>
    <nd ref="1126475855"/>
    <nd ref="412345"/>
    <nd ref="1126475580"/>
    <nd ref="1126475907"/>
    <nd ref="1126475781"/>
    <nd ref="26470142"/>
    <tag k="highway" v="primary"/>
    <tag k="name" v="Vogesenbrücke"/>
    <tag k="oneway" v="yes"/>
  </way>
  <way id="3531648" version="6" timestamp="2011-02-14T23:32:29Z" uid="6269" user="Mueck" changeset="7290890">
    <nd ref="26470125"/>
    <nd ref="412344"/>
    <nd ref="1126475855"/>
    <nd ref="1153718275"/>
    <nd ref="412345"/>
    <nd ref="1126475580"/>
    <nd ref="1126475907"/>
    <nd ref="1126475781"/>
    <nd ref="26470142"/>
    <tag k="highway" v="primary"/>
    <tag k="name" v="Vogesenbrücke"/>
    <tag k="oneway" v="yes"/>
  </way>
  <way id="3531648" version="7" timestamp="2011-05-01T10:21:26Z" uid="6270" user="mikes" changeset="8019554">
    <nd ref="26470125"/>
    <nd ref="412344"/>
    <tag k="highway" v="primary"/>
    <tag k="name" v="Vogesenbrücke"/>
    <tag k="oneway" v="yes"/>
  </way>
  <way id="3531648" version="8" timestamp="2012-02-07T22:59:23Z" uid="165061" user="keinname" changeset="10618069">
    <nd ref="26470125"/>
    <nd ref="412344"/>
    <tag k="highway" v="primary"/>
    <tag k="lanes" v="2"/>
    <tag k="name" v="Vogesenbrücke"/>
    <tag k="oneway" v="yes"/>
  </way>
  <way id="3531770" version="7" timestamp="2010-11-06T17:08:34Z" uid="6269" user="Mueck" changeset="6304139">
    <nd ref="14961462"/>
    <nd ref="25996949"/>
    <nd ref="27046212"/>
    <tag k="highway" v="primary"/>
    <tag k="maxspeed" v="50"/>
    <tag k="name" v="Michelinstraße"/>
    <tag k="oneway" v="yes"/>
    <tag k="ref" v="B 36"/>
  </way>
  <way id="3531770" version="8" timestamp="2011-02-14T23:32:30Z" uid="6269" user="Mueck" changeset="7290890">
    <nd ref="1153718518"/>
    <nd ref="1153718837"/>
    <nd ref="1153718189"/>
    <nd ref="1153718430"/>
    <nd ref="1153718167"/>
    <nd ref="25996949"/>
    <nd ref="27046212"/>
    <tag k="highway" v="primary"/>
    <tag k="maxspeed" v="50"/>
    <tag k="name" v="Michelinstraße"/>
    <tag k="oneway" v="yes"/>
    <tag k="ref" v="B 36"/>
  </way>
  <way id="3531772" version="2" timestamp="2008-02-20T12:00:05Z" uid="6269" user="Mueck" changeset="164462">
    <nd ref="26468439"/>
    <nd ref="14961465"/>
    <nd ref="25997985"/>
    <nd ref="14961464"/>
    <nd ref="14961463"/>
    <nd ref="31154326"/>
    <tag k="created_by" v="Potlatch 0.7b"/>
    <tag k="highway" v="primary"/>
    <tag k="name" v="Eckenerstraße"/>
    <tag k="oneway" v="true"/>
    <tag k="ref" v="B36"/>
  </way>
  <way id="3531772" version="3" timestamp="2008-06-18T19:59:39Z" uid="24920" user="Schusch" changeset="210028">
    <nd ref="26468439"/>
    <nd ref="14961465"/>
    <nd ref="25997985"/>
    <nd ref="14961464"/>
    <nd ref="14961463"/>
    <nd ref="31154326"/>
    <tag k="created_by" v="Potlatch 0.9c"/>
    <tag k="highway" v="primary"/>
    <tag k="name" v="Eckenerstraße"/>
    <tag k="oneway" v="true"/>
    <tag k="ref" v="B 36"/>
  </way>
  <way id="3531772" version="4" timestamp="2009-04-16T17:11:57Z" uid="103885" user="logicbot" changeset="603450">
    <nd ref="26468439"/>
    <nd ref="14961465"/>
    <nd ref="25997985"/>
    <nd ref="14961464"/>
    <nd ref="14961463"/>
    <nd ref="31154326"/>
    <tag k="created_by" v="Potlatch 0.9c"/>
    <tag k="highway" v="primary"/>
    <tag k="name" v="Eckenerstraße"/>
    <tag k="oneway" v="yes"/>
    <tag k="ref" v="B 36"/>
  </way>
  <way id="3531772" version="5" timestamp="2009-05-31T14:14:21Z" uid="128858" user="heiner1" changeset="1369424">
    <nd ref="26468439"/>
    <nd ref="14961465"/>
    <nd ref="25997985"/>
    <nd ref="14961464"/>
    <nd ref="14961463"/>
    <nd ref="31154326"/>
    <tag k="created_by" v="Potlatch 0.9c"/>
    <tag k="highway" v="primary"/>
    <tag k="maxspeed" v="50"/>
    <tag k="name" v="Eckenerstraße"/>
    <tag k="oneway" v="yes"/>
    <tag k="ref" v="B 36"/>
  </way>
  <way id="3531772" version="6" timestamp="2009-06-21T14:38:08Z" uid="85761" user="klausis" changeset="1583914">
    <nd ref="26468439"/>
    <nd ref="14961465"/>
    <nd ref="25997985"/>
    <nd ref="14961464"/>
    <nd ref="14961463"/>
    <nd ref="31154326"/>
    <tag k="highway" v="primary"/>
    <tag k="maxspeed" v="50"/>
    <tag k="name" v="Eckenerstraße"/>
    <tag k="oneway" v="yes"/>
    <tag k="ref" v="B 36"/>
  </way>
  <way id="3531772" version="7" timestamp="2011-02-01T06:13:58Z" uid="163673" user="Free_Jan" changeset="7151797">
    <nd ref="26468439"/>
    <nd ref="14961465"/>
    <nd ref="1130680654"/>
    <nd ref="1130680862"/>
    <nd ref="1130680624"/>
    <nd ref="25997985"/>
    <nd ref="14961464"/>
    <nd ref="14961463"/>
    <nd ref="31154326"/>
    <tag k="highway" v="primary"/>
    <tag k="maxspeed" v="50"/>
    <tag k="name" v="Eckenerstraße"/>
    <tag k="oneway" v="yes"/>
    <tag k="ref" v="B 36"/>
  </way>
  <way id="3531772" version="8" timestamp="2011-02-15T00:29:50Z" uid="6269" user="Mueck" changeset="7291158">
    <nd ref="26468439"/>
    <nd ref="14961465"/>
    <nd ref="1130680654"/>
    <nd ref="1130680862"/>
    <nd ref="1130680624"/>
    <nd ref="25997985"/>
    <nd ref="1153816657"/>
    <nd ref="14961464"/>
    <nd ref="1153816663"/>
    <nd ref="14961463"/>
    <nd ref="31154326"/>
    <tag k="highway" v="primary"/>
    <tag k="maxspeed" v="50"/>
    <tag k="name" v="Eckenerstraße"/>
    <tag k="oneway" v="yes"/>
    <tag k="ref" v="B 36"/>
  </way>
  <way id="3531927" version="3" timestamp="2008-09-25T21:04:38Z" uid="6269" user="Mueck" changeset="695572">
    <nd ref="15520042"/>
    <nd ref="135838510"/>
    <nd ref="16082746"/>
    <nd ref="31236259"/>
    <nd ref="16082744"/>
    <nd ref="16082743"/>
    <nd ref="17496594"/>
    <nd ref="299828909"/>
    <tag k="created_by" v="Potlatch 0.10b"/>
    <tag k="highway" v="residential"/>
    <tag k="name" v="Schillerstraße"/>
  </way>
  <way id="3531927" version="4" timestamp="2009-06-21T15:28:56Z" uid="85761" user="klausis" changeset="1584316">
    <nd ref="15520042"/>
    <nd ref="135838510"/>
    <nd ref="16082746"/>
    <nd ref="31236259"/>
    <nd ref="16082744"/>
    <nd ref="16082743"/>
    <nd ref="17496594"/>
    <nd ref="299828909"/>
    <tag k="highway" v="residential"/>
    <tag k="name" v="Schillerstraße"/>
  </way>
  <way id="3531927" version="5" timestamp="2010-07-05T18:58:36Z" uid="11776" user="Marcus Wolschon" changeset="5144543">
    <nd ref="15520042"/>
    <nd ref="135838510"/>
    <nd ref="16082746"/>
    <nd ref="31236259"/>
    <nd ref="16082744"/>
    <nd ref="16082743"/>
    <nd ref="17496594"/>
    <nd ref="299828909"/>
    <tag k="created_by" v="Vespucci 0.6.6-beta"/>
    <tag k="highway" v="residential"/>
    <tag k="name" v="Schillerstraße"/>
    <tag k="oneway" v="yes"/>
  </way>
  <way id="3531927" version="6" timestamp="2010-07-22T06:16:05Z" uid="11776" user="Marcus Wolschon" changeset="5284299">
    <nd ref="15520042"/>
    <nd ref="135838510"/>
    <nd ref="16082746"/>
    <nd ref="31236259"/>
    <nd ref="16082744"/>
    <nd ref="16082743"/>
    <nd ref="17496594"/>
    <nd ref="299828909"/>
    <tag k="created_by" v="Vespucci 0.6.6-beta"/>
    <tag k="highway" v="residential"/>
    <tag k="maxspeed" v="30"/>
    <tag k="name" v="Schillerstraße"/>
    <tag k="oneway" v="yes"/>
  </way>
  <way id="3531927" version="7" timestamp="2010-10-15T22:37:43Z" uid="149205" user="Anubis" changeset="6053065">
    <nd ref="15520042"/>
    <nd ref="135838510"/>
    <nd ref="16082746"/>
    <nd ref="31236259"/>
    <nd ref="16082744"/>
    <nd ref="16082743"/>
    <nd ref="17496594"/>
    <nd ref="299828909"/>
    <tag k="highway" v="residential"/>
    <tag k="maxspeed" v="30"/>
    <tag k="name" v="Schillerstraße"/>
    <tag k="oneway" v="yes"/>
  </way>
  <way id="3531927" version="8" timestamp="2011-01-30T13:03:49Z" uid="6269" user="Mueck" changeset="7133406">
    <nd ref="15520042"/>
    <nd ref="135838510"/>
    <nd ref="1127895571"/>
    <nd ref="16082746"/>
    <nd ref="1127895605"/>
    <nd ref="31236259"/>
    <nd ref="16082744"/>
    <nd ref="16082743"/>
    <nd ref="17496594"/>
    <nd ref="299828909"/>
    <tag k="highway" v="residential"/>
    <tag k="maxspeed" v="30"/>
    <tag k="name" v="Schillerstraße"/>
    <tag k="oneway" v="yes"/>
  </way>
  <way id="3531927" version="9" timestamp="2011-01-30T13:17:50Z" uid="6269" user="Mueck" changeset="7133406">
    <nd ref="15520042"/>
    <nd ref="135838510"/>
    <nd ref="1127895571"/>
    <nd ref="16082746"/>
    <nd ref="1127895605"/>
    <nd ref="1127916121"/>
    <nd ref="1127916137"/>
    <nd ref="1127916116"/>
    <nd ref="31236259"/>
    <nd ref="1127916126"/>
    <nd ref="16082744"/>
    <nd ref="1127916176"/>
    <nd ref="16082743"/>
    <nd ref="1127916168"/>
    <nd ref="1127916166"/>
    <nd ref="1127916118"/>
    <nd ref="1127916132"/>
    <nd ref="1127916161"/>
    <nd ref="1127916158"/>
    <nd ref="17496594"/>
    <nd ref="299828909"/>
    <tag k="highway" v="residential"/>
    <tag k="maxspeed" v="30"/>
    <tag k="name" v="Schillerstraße"/>
    <tag k="oneway" v="yes"/>
  </way>
  <way id="3531927" version="10" timestamp="2011-01-30T14:07:55Z" uid="6269" user="Mueck" changeset="7134515">
    <nd ref="15520042"/>
    <nd ref="135838510"/>
    <nd ref="1127895571"/>
    <nd ref="1127959400"/>
    <nd ref="16082746"/>
    <nd ref="1127895605"/>
    <nd ref="1127916121"/>
    <nd ref="1127916137"/>
    <nd ref="1127916116"/>
    <nd ref="31236259"/>
    <nd ref="1127916126"/>
    <nd ref="16082744"/>
    <nd ref="1127916176"/>
    <nd ref="16082743"/>
    <nd ref="1127916168"/>
    <nd ref="1127916166"/>
    <nd ref="1127916118"/>
    <nd ref="1127916132"/>
    <nd ref="1127916161"/>
    <nd ref="1127916158"/>
    <nd ref="17496594"/>
    <nd ref="299828909"/>
    <tag k="highway" v="residential"/>
    <tag k="maxspeed" v="30"/>
    <tag k="name" v="Schillerstraße"/>
    <tag k="oneway" v="yes"/>
  </way>
  <way id="3531927" version="11" timestamp="2011-01-31T12:59:43Z" uid="6269" user="Mueck" changeset="7144777">
    <nd ref="15520042"/>
    <nd ref="135838510"/>
    <nd ref="1127895571"/>
    <nd ref="1127959400"/>
    <nd ref="16082746"/>
    <nd ref="1127895605"/>
    <nd ref="1127916121"/>
    <nd ref="1127916137"/>
    <nd ref="1127916116"/>
    <nd ref="31236259"/>
    <nd ref="1127916126"/>
    <nd ref="16082744"/>
    <nd ref="1127916176"/>
    <nd ref="16082743"/>
    <nd ref="1127916168"/>
    <nd ref="1127916166"/>
    <nd ref="1127916118"/>
    <nd ref="1127916132"/>
    <nd ref="1127916161"/>
    <nd ref="1127916158"/>
    <nd ref="1129382387"/>
    <nd ref="1129382378"/>
    <nd ref="17496594"/>
    <nd ref="1129382361"/>
    <nd ref="1129382377"/>
    <nd ref="1129382383"/>
    <nd ref="299828909"/>
    <tag k="highway" v="residential"/>
    <tag k="maxspeed" v="30"/>
    <tag k="name" v="Schillerstraße"/>
    <tag k="oneway" v="yes"/>
  </way>
  <way id="3531927" version="12" timestamp="2011-01-31T15:24:36Z" uid="6269" user="Mueck" changeset="7145926">
    <nd ref="15520042"/>
    <nd ref="135838510"/>
    <nd ref="1127895571"/>
    <nd ref="1127959400"/>
    <nd ref="16082746"/>
    <nd ref="1127895605"/>
    <nd ref="1127916121"/>
    <nd ref="1127916137"/>
    <nd ref="1127916116"/>
    <nd ref="31236259"/>
    <nd ref="1127916126"/>
    <nd ref="16082744"/>
    <nd ref="1127916176"/>
    <nd ref="16082743"/>
    <nd ref="1127916168"/>
    <nd ref="1127916166"/>
    <nd ref="1127916118"/>
    <nd ref="1127916132"/>
    <nd ref="1127916161"/>
    <nd ref="1127916158"/>
    <nd ref="1129382387"/>
    <nd ref="1129382378"/>
    <nd ref="17496594"/>
    <nd ref="1129382361"/>
    <nd ref="1129382377"/>
    <nd ref="1129382383"/>
    <nd ref="1129495074"/>
    <nd ref="299828909"/>
    <tag k="highway" v="residential"/>
    <tag k="maxspeed" v="30"/>
    <tag k="name" v="Schillerstraße"/>
    <tag k="oneway" v="yes"/>
  </way>
  <way id="3531927" version="13" timestamp="2012-02-18T18:21:06Z" uid="60137" user="michael2402" changeset="10722878">
    <nd ref="15520042"/>
    <nd ref="1637995915"/>
    <nd ref="1127895571"/>
    <nd ref="1637995933"/>
    <nd ref="1637995945"/>
    <nd ref="1637995946"/>
    <nd ref="31236259"/>
    <nd ref="1127916126"/>
    <nd ref="1637995988"/>
    <nd ref="1127916176"/>
    <nd ref="1637996083"/>
    <nd ref="1637996132"/>
    <nd ref="1127916168"/>
    <nd ref="1127916166"/>
    <nd ref="1637996200"/>
    <nd ref="1637996219"/>
    <tag k="electrified" v="contact_line"/>
    <tag k="frequency" v="0"/>
    <tag k="gauge" v="1435"/>
    <tag k="highway" v="residential"/>
    <tag k="maxspeed" v="30"/>
    <tag k="name" v="Schillerstraße"/>
    <tag k="oneway" v="yes"/>
    <tag k="railway" v="tram"/>
    <tag k="voltage" v="750"/>
  </way>
</osm>
