<?xml version='1.0' encoding='UTF-8'?>
<osm version="0.6" generator="libosmium/2.20.0">
  <way id="35320052" version="11" timestamp="2011-03-07T23:37:22Z" uid="16922" user="amai" changeset="7490165">
    <nd ref="1045117068"/>
    <nd ref="1045146987"/>
    <nd ref="413995723"/>
    <nd ref="413995725"/>
    <nd ref="1045117061"/>
    <nd ref="415332287"/>
    <nd ref="1045082704"/>
    <nd ref="413995726"/>
    <nd ref="413995727"/>
    <nd ref="413995728"/>
    <nd ref="413995729"/>
    <nd ref="413995730"/>
    <nd ref="413995731"/>
    <nd ref="413995734"/>
    <nd ref="413995736"/>
    <nd ref="1044987876"/>
    <nd ref="413995737"/>
    <nd ref="1044987883"/>
    <nd ref="1044987859"/>
    <nd ref="413995738"/>
    <nd ref="415331525"/>
    <nd ref="413995739"/>
    <nd ref="1191890436"/>
    <nd ref="413995740"/>
    <tag k="highway" v="unclassified"/>
    <tag k="source" v="Bing"/>
  </way>
  <way id="35320052" version="12" timestamp="2011-03-13T12:48:18Z" uid="16922" user="amai" changeset="7544313">
    <nd ref="1045117068"/>
    <nd ref="1045146987"/>
    <nd ref="1200088611"/>
    <nd ref="413995723"/>
    <nd ref="413995725"/>
    <nd ref="1045117061"/>
    <nd ref="415332287"/>
    <nd ref="1045082704"/>
    <nd ref="413995726"/>
    <nd ref="413995727"/>
    <nd ref="413995728"/>
    <nd ref="413995729"/>
    <nd ref="413995730"/>
    <nd ref="413995731"/>
    <nd ref="413995734"/>
    <nd ref="413995736"/>
    <nd ref="1044987876"/>
    <nd ref="413995737"/>
    <nd ref="1044987883"/>
    <nd ref="1044987859"/>
    <nd ref="413995738"/>
    <nd ref="415331525"/>
    <nd ref="413995739"/>
    <nd ref="1191890436"/>
    <nd ref="413995740"/>
    <tag k="highway" v="unclassified"/>
    <tag k="source" v="Bing"/>
  </way>
  <way id="35320052" version="13" timestamp="2012-02-15T22:31:46Z" uid="61891" user="stephankn" changeset="10697326"/>
  <way id="35320135" version="1" timestamp="2009-06-01T11:34:27Z" uid="30632" user="antblant" changeset="1378769">
    <nd ref="413996369"/>
    <nd ref="413996373"/>
    <nd ref="413996370"/>
    <tag k="highway" v="residential"/>
    <tag k="name" v="Kamienna"/>
    <tag k="source" v="http://ump.waw.pl/ retrieved 14:27:22 06/01/09 (UMP-Szczecin/src/MIERZYN.ulice.txt)"/>
  </way>
  <way id="35320135" version="2" timestamp="2009-09-17T18:45:57Z" uid="30632" user="antblant" changeset="2515619">
    <nd ref="413996369"/>
    <nd ref="413996370"/>
    <tag k="highway" v="living_street"/>
    <tag k="name" v="Kamienna"/>
    <tag k="source" v="http://ump.waw.pl/ retrieved 14:27:22 06/01/09 (UMP-Szczecin/src/MIERZYN.ulice.txt)"/>
  </way>
  <way id="35320136" version="1" timestamp="2009-06-01T11:34:27Z" uid="30632" user="antblant" changeset="1378769">
    <nd ref="267915610"/>
    <nd ref="413996351"/>
    <nd ref="413996353"/>
    <nd ref="413996352"/>
    <tag k="highway" v="residential"/>
    <tag k="name" v="Tęczowa"/>
    <tag k="source" v="http://ump.waw.pl/ retrieved 14:27:22 06/01/09 (UMP-Szczecin/src/MIERZYN.ulice.txt)"/>
  </way>
  <way id="35320136" version="2" timestamp="2009-09-15T14:38:39Z" uid="30632" user="antblant" changeset="2493182">
    <nd ref="267915610"/>
    <nd ref="413996351"/>
    <nd ref="497121882"/>
    <nd ref="413996352"/>
    <nd ref="497121883"/>
    <tag k="highway" v="residential"/>
    <tag k="name" v="Tęczowa"/>
  </way>
  <way id="35320137" version="1" timestamp="2009-06-01T11:34:27Z" uid="30632" user="antblant" changeset="1378769">
    <nd ref="413996384"/>
    <nd ref="413996371"/>
    <nd ref="413996376"/>
    <nd ref="413996377"/>
    <tag k="highway" v="residential"/>
    <tag k="name" v="Krzemienna"/>
    <tag k="source" v="http://ump.waw.pl/ retrieved 14:27:22 06/01/09 (UMP-Szczecin/src/MIERZYN.ulice.txt)"/>
  </way>
  <way id="35320137" version="2" timestamp="2009-09-17T18:45:58Z" uid="30632" user="antblant" changeset="2515619">
    <nd ref="413996384"/>
    <nd ref="413996371"/>
    <nd ref="413996376"/>
    <nd ref="413996377"/>
    <tag k="highway" v="living_street"/>
    <tag k="name" v="Krzemienna"/>
    <tag k="source" v="http://ump.waw.pl/ retrieved 14:27:22 06/01/09 (UMP-Szczecin/src/MIERZYN.ulice.txt)"/>
  </way>
  <way id="35320138" version="1" timestamp="2009-06-01T11:34:27Z" uid="30632" user="antblant" changeset="1378769">
    <nd ref="413996382"/>
    <nd ref="413996355"/>
    <nd ref="413996354"/>
    <nd ref="413996357"/>
    <nd ref="413996356"/>
    <tag k="highway" v="residential"/>
    <tag k="name" v="Epokowa"/>
    <tag k="source" v="http://ump.waw.pl/ retrieved 14:27:22 06/01/09 (UMP-Szczecin/src/MIERZYN.ulice.txt)"/>
  </way>
  <way id="35320139" version="1" timestamp="2009-06-01T11:34:27Z" uid="30632" user="antblant" changeset="1378769">
    <nd ref="413996385"/>
    <nd ref="413996377"/>
    <nd ref="413996374"/>
    <nd ref="413996375"/>
    <nd ref="413996370"/>
    <nd ref="413996380"/>
    <nd ref="413996381"/>
    <tag k="highway" v="residential"/>
    <tag k="name" v="Wykopaliskowa"/>
    <tag k="source" v="http://ump.waw.pl/ retrieved 14:27:22 06/01/09 (UMP-Szczecin/src/MIERZYN.ulice.txt)"/>
  </way>
  <way id="35320139" version="2" timestamp="2009-09-17T15:49:16Z" uid="30632" user="antblant" changeset="2513679">
    <nd ref="271963695"/>
    <nd ref="499268754"/>
    <nd ref="499268749"/>
    <nd ref="499268745"/>
    <nd ref="499268740"/>
    <nd ref="499268734"/>
    <nd ref="413996385"/>
    <nd ref="413996377"/>
    <nd ref="413996374"/>
    <nd ref="413996375"/>
    <nd ref="413996370"/>
    <nd ref="413996380"/>
    <nd ref="413996381"/>
    <tag k="highway" v="residential"/>
    <tag k="name" v="Wykopaliskowa"/>
    <tag k="source" v="http://ump.waw.pl/ retrieved 14:27:22 06/01/09 (UMP-Szczecin/src/MIERZYN.ulice.txt)"/>
  </way>
  <way id="35320139" version="3" timestamp="2009-09-17T18:45:58Z" uid="30632" user="antblant" changeset="2515619">
    <nd ref="271963695"/>
    <nd ref="499268754"/>
    <nd ref="499268749"/>
    <nd ref="499268745"/>
    <nd ref="499268740"/>
    <nd ref="499268734"/>
    <nd ref="413996385"/>
    <tag k="highway" v="living_street"/>
    <tag k="name" v="Piotra"/>
  </way>
  <way id="35320140" version="1" timestamp="2009-06-01T11:34:27Z" uid="30632" user="antblant" changeset="1378769">
    <nd ref="413996356"/>
    <nd ref="413996359"/>
    <nd ref="413996358"/>
    <nd ref="413996361"/>
    <nd ref="413996360"/>
    <nd ref="413996363"/>
    <nd ref="413996354"/>
    <tag k="highway" v="residential"/>
    <tag k="name" v="Słowiańska"/>
    <tag k="source" v="http://ump.waw.pl/ retrieved 14:27:22 06/01/09 (UMP-Szczecin/src/MIERZYN.ulice.txt)"/>
  </way>
  <way id="35320141" version="1" timestamp="2009-06-01T11:34:27Z" uid="30632" user="antblant" changeset="1378769">
    <nd ref="413996368"/>
    <nd ref="413996378"/>
    <nd ref="413996379"/>
    <nd ref="413996375"/>
    <tag k="highway" v="residential"/>
    <tag k="source" v="http://ump.waw.pl/ retrieved 14:27:22 06/01/09 (UMP-Szczecin/src/MIERZYN.ulice.txt)"/>
  </way>
  <way id="35320141" version="2" timestamp="2009-09-15T14:38:36Z" uid="30632" user="antblant" changeset="2493182">
    <nd ref="413996368"/>
    <nd ref="413996378"/>
    <nd ref="413996379"/>
    <nd ref="413996375"/>
    <tag k="highway" v="residential"/>
    <tag k="name" v="Łużycka"/>
    <tag k="source" v="http://ump.waw.pl/ retrieved 14:27:22 06/01/09 (UMP-Szczecin/src/MIERZYN.ulice.txt)"/>
  </way>
  <way id="35320141" version="3" timestamp="2009-09-17T18:45:59Z" uid="30632" user="antblant" changeset="2515619">
    <nd ref="413996368"/>
    <nd ref="413996378"/>
    <nd ref="413996379"/>
    <nd ref="413996375"/>
    <tag k="highway" v="living_street"/>
    <tag k="name" v="Łużycka"/>
    <tag k="source" v="http://ump.waw.pl/ retrieved 14:27:22 06/01/09 (UMP-Szczecin/src/MIERZYN.ulice.txt)"/>
  </way>
  <way id="35320142" version="1" timestamp="2009-06-01T11:34:27Z" uid="30632" user="antblant" changeset="1378769">
    <nd ref="413996372"/>
    <nd ref="413996380"/>
    <tag k="highway" v="residential"/>
    <tag k="source" v="http://ump.waw.pl/ retrieved 14:27:22 06/01/09 (UMP-Szczecin/src/MIERZYN.ulice.txt)"/>
  </way>
  <way id="35320142" version="2" timestamp="2009-09-17T18:45:59Z" uid="30632" user="antblant" changeset="2515619"/>
  <way id="35320143" version="1" timestamp="2009-06-01T11:34:27Z" uid="30632" user="antblant" changeset="1378769">
    <nd ref="413996357"/>
    <nd ref="413996362"/>
    <nd ref="413996365"/>
    <tag k="highway" v="residential"/>
    <tag k="source" v="http://ump.waw.pl/ retrieved 14:27:22 06/01/09 (UMP-Szczecin/src/MIERZYN.ulice.txt)"/>
  </way>
  <way id="35320144" version="1" timestamp="2009-06-01T11:34:27Z" uid="30632" user="antblant" changeset="1378769">
    <nd ref="413996362"/>
    <nd ref="413996364"/>
    <tag k="highway" v="living_street"/>
    <tag k="source" v="http://ump.waw.pl/ retrieved 14:27:22 06/01/09 (UMP-Szczecin/src/MIERZYN.ulice.txt)"/>
  </way>
  <way id="35320144" version="2" timestamp="2009-09-15T14:38:34Z" uid="30632" user="antblant" changeset="2493182">
    <nd ref="413996362"/>
    <nd ref="413996364"/>
    <tag k="highway" v="living_street"/>
    <tag k="name" v="Epokowa"/>
    <tag k="source" v="http://ump.waw.pl/ retrieved 14:27:22 06/01/09 (UMP-Szczecin/src/MIERZYN.ulice.txt)"/>
  </way>
  <way id="35320145" version="1" timestamp="2009-06-01T11:34:27Z" uid="30632" user="antblant" changeset="1378769">
    <nd ref="413996383"/>
    <nd ref="413996368"/>
    <nd ref="413996369"/>
    <nd ref="413996366"/>
    <nd ref="413996365"/>
    <nd ref="413996367"/>
    <tag k="highway" v="residential"/>
    <tag k="name" v="Archeologiczna"/>
    <tag k="source" v="http://ump.waw.pl/ retrieved 14:27:22 06/01/09 (UMP-Szczecin/src/MIERZYN.ulice.txt)"/>
  </way>
  <way id="35320145" version="2" timestamp="2009-09-15T14:38:40Z" uid="30632" user="antblant" changeset="2493182">
    <nd ref="497121888"/>
    <nd ref="413996383"/>
    <tag k="highway" v="residential"/>
    <tag k="name" v="Pawła"/>
  </way>
  <way id="35320145" version="3" timestamp="2009-09-17T18:45:58Z" uid="30632" user="antblant" changeset="2515619">
    <nd ref="499486586"/>
    <nd ref="499486582"/>
    <tag k="highway" v="footway"/>
  </way>
  <way id="35320146" version="1" timestamp="2009-06-01T11:34:27Z" uid="30632" user="antblant" changeset="1378769">
    <nd ref="413996372"/>
    <nd ref="413996366"/>
    <tag k="highway" v="residential"/>
    <tag k="name" v="Historyczna"/>
    <tag k="source" v="http://ump.waw.pl/ retrieved 14:27:22 06/01/09 (UMP-Szczecin/src/MIERZYN.ulice.txt)"/>
  </way>
  <way id="35320146" version="2" timestamp="2009-09-17T18:45:58Z" uid="30632" user="antblant" changeset="2515619">
    <nd ref="413996366"/>
    <nd ref="413996372"/>
    <nd ref="413996380"/>
    <tag k="highway" v="living_street"/>
    <tag k="name" v="Historyczna"/>
    <tag k="source" v="http://ump.waw.pl/ retrieved 14:27:22 06/01/09 (UMP-Szczecin/src/MIERZYN.ulice.txt)"/>
  </way>
  <way id="35320149" version="1" timestamp="2009-06-01T11:34:50Z" uid="125599" user="towi" changeset="1378380">
    <nd ref="309414616"/>
    <nd ref="309405216"/>
    <nd ref="309405219"/>
    <tag k="created_by" v="Potlatch 0.10f"/>
    <tag k="highway" v="footway"/>
  </way>
  <way id="35320149" version="2" timestamp="2010-05-11T19:01:33Z" uid="111106" user="westfa" changeset="4671386">
    <nd ref="309414616"/>
    <nd ref="309405216"/>
    <nd ref="309405219"/>
    <tag k="highway" v="footway"/>
  </way>
  <way id="35320149" version="3" timestamp="2012-03-18T14:05:43Z" uid="12448" user="Hartmut Holzgraefe" changeset="11019176"/>
  <way id="35320150" version="1" timestamp="2009-06-01T11:34:50Z" uid="125599" user="towi" changeset="1378380">
    <nd ref="309405210"/>
    <nd ref="309405212"/>
    <nd ref="309405214"/>
    <nd ref="309414616"/>
    <tag k="bridge" v="yes"/>
    <tag k="created_by" v="Potlatch 0.10f"/>
    <tag k="highway" v="footway"/>
    <tag k="surface" v="wood"/>
  </way>
  <way id="35320150" version="2" timestamp="2010-05-11T19:01:46Z" uid="111106" user="westfa" changeset="4671386">
    <nd ref="309405210"/>
    <nd ref="309405212"/>
    <nd ref="309405214"/>
    <nd ref="309414616"/>
    <tag k="bridge" v="yes"/>
    <tag k="highway" v="footway"/>
    <tag k="surface" v="wood"/>
  </way>
  <way id="35320150" version="3" timestamp="2010-09-20T09:15:47Z" uid="29639" user="bielebog" changeset="5827326">
    <nd ref="919471268"/>
    <nd ref="309405210"/>
    <tag k="bridge" v="yes"/>
    <tag k="highway" v="steps"/>
    <tag k="surface" v="wood"/>
  </way>
  <way id="35320150" version="4" timestamp="2012-03-18T14:05:23Z" uid="12448" user="Hartmut Holzgraefe" changeset="11019176">
    <nd ref="919471268"/>
    <nd ref="309405210"/>
    <tag k="bridge" v="yes"/>
    <tag k="highway" v="steps"/>
    <tag k="odbl" v="clean"/>
    <tag k="surface" v="wood"/>
  </way>
  <way id="35320150" version="5" timestamp="2012-03-20T22:39:23Z" uid="595444" user="sandkorn" changeset="11046583">
    <nd ref="919471268"/>
    <nd ref="309405210"/>
    <tag k="bridge" v="yes"/>
    <tag k="highway" v="steps"/>
    <tag k="odbl" v="clean"/>
    <tag k="step_count" v="17"/>
    <tag k="surface" v="wood"/>
  </way>
  <way id="35320151" version="1" timestamp="2009-06-01T11:34:55Z" uid="125599" user="towi" changeset="1378380">
    <nd ref="413996400"/>
    <nd ref="413996401"/>
    <nd ref="413996402"/>
    <nd ref="413996403"/>
    <nd ref="413996400"/>
    <tag k="historic" v="rebuilt"/>
    <tag k="man_made" v="windmill"/>
    <tag k="name" v="Mühle"/>
    <tag k="tourism" v="museum"/>
  </way>
  <way id="35320151" version="2" timestamp="2009-06-06T10:46:20Z" uid="125599" user="towi" changeset="1436831">
    <nd ref="413996400"/>
    <nd ref="413996401"/>
    <nd ref="413996402"/>
    <nd ref="413996403"/>
    <nd ref="413996400"/>
    <tag k="historic" v="rebuilt"/>
    <tag k="level" v="1"/>
    <tag k="man_made" v="windmill"/>
    <tag k="name" v="Mühle"/>
    <tag k="tourism" v="museum"/>
  </way>
  <way id="35320152" version="1" timestamp="2009-06-01T11:34:55Z" uid="125599" user="towi" changeset="1378380">
    <nd ref="413996392"/>
    <nd ref="43641809"/>
  </way>
  <way id="35320152" version="2" timestamp="2009-06-01T11:50:03Z" uid="125599" user="towi" changeset="1378380">
    <nd ref="413996392"/>
    <nd ref="43641809"/>
    <tag k="highway" v="residential"/>
    <tag k="name" v="Wertherstr"/>
  </way>
  <way id="35320152" version="3" timestamp="2009-06-03T21:45:11Z" uid="70696" user="xybot" changeset="1416845">
    <nd ref="413996392"/>
    <nd ref="43641809"/>
    <tag k="highway" v="residential"/>
    <tag k="name" v="Wertherstraße"/>
  </way>
  <way id="35320152" version="4" timestamp="2009-06-11T08:36:25Z" uid="124466" user="Heros" changeset="1484697"/>
  <way id="35320321" version="2" timestamp="2009-12-09T16:03:07Z" uid="200463" user="harmagedon" changeset="3334003">
    <nd ref="413998482"/>
    <nd ref="413998480"/>
    <tag k="bridge" v="yes"/>
    <tag k="layer" v="1"/>
    <tag k="railway" v="rail"/>
    <tag k="source" v="Landsat"/>
  </way>
  <way id="35320321" version="3" timestamp="2011-11-04T08:16:54Z" uid="42429" user="FK270673" changeset="9736510">
    <nd ref="413998482"/>
    <nd ref="413998480"/>
    <tag k="bridge" v="yes"/>
    <tag k="electrified" v="no"/>
    <tag k="gauge" v="1435"/>
    <tag k="layer" v="1"/>
    <tag k="railway" v="rail"/>
    <tag k="source" v="Landsat"/>
  </way>
  <way id="35320321" version="4" timestamp="2012-03-12T23:14:51Z" uid="479256" user="geodreieck4711" changeset="10961785"/>
  <way id="35320331" version="1" timestamp="2009-06-01T11:41:02Z" uid="125599" user="towi" changeset="1378380">
    <nd ref="413998562"/>
    <nd ref="413998563"/>
    <nd ref="413998564"/>
    <nd ref="413998565"/>
    <nd ref="413998566"/>
    <nd ref="413998567"/>
    <nd ref="413998562"/>
    <tag k="fee" v="yes"/>
    <tag k="historic" v="rebuilt"/>
    <tag k="name" v="Bauernhausmuseum"/>
    <tag k="note" v="closed in January"/>
    <tag k="tourism" v="museum"/>
  </way>
  <way id="35320331" version="2" timestamp="2009-08-10T18:48:45Z" uid="94327" user="YvonneBentele" changeset="2101371">
    <nd ref="413998562"/>
    <nd ref="413998563"/>
    <nd ref="413998564"/>
    <nd ref="413998565"/>
    <nd ref="413998566"/>
    <nd ref="413998567"/>
    <nd ref="413998562"/>
    <tag k="addr:city" v="Bielefeld"/>
    <tag k="addr:country" v="DE"/>
    <tag k="addr:housenumber" v="82"/>
    <tag k="addr:postcode" v="33619"/>
    <tag k="addr:street" v="Dornberger Straße"/>
    <tag k="fee" v="yes"/>
    <tag k="historic" v="rebuilt"/>
    <tag k="name" v="Bauernhausmuseum"/>
    <tag k="note" v="closed in January"/>
    <tag k="tourism" v="museum"/>
    <tag k="wikipedia" v="yes"/>
  </way>
  <way id="35320331" version="3" timestamp="2010-06-23T11:00:55Z" uid="111106" user="westfa" changeset="5058017">
    <nd ref="413998562"/>
    <nd ref="413998563"/>
    <nd ref="413998564"/>
    <nd ref="413998565"/>
    <nd ref="413998566"/>
    <nd ref="413998567"/>
    <nd ref="413998562"/>
    <tag k="addr:city" v="Bielefeld"/>
    <tag k="addr:country" v="DE"/>
    <tag k="addr:housenumber" v="82"/>
    <tag k="addr:postcode" v="33619"/>
    <tag k="addr:street" v="Dornberger Straße"/>
    <tag k="fee" v="yes"/>
    <tag k="historic" v="rebuilt"/>
    <tag k="name" v="Bauernhausmuseum"/>
    <tag k="note" v="closed in January"/>
    <tag k="opening_hours" v="Tu-Fr 10:00-18:00; Sa-Su 11:00-18:00"/>
    <tag k="tourism" v="museum"/>
    <tag k="website" v="http://www.bielefelder-bauernhausmuseum.de/"/>
    <tag k="wikipedia" v="http://de.wikipedia.org/wiki/Bauernhausmuseum_Bielefeld"/>
  </way>
  <way id="35320331" version="4" timestamp="2011-01-04T23:37:30Z" uid="124466" user="Heros" changeset="6867326">
    <nd ref="413998562"/>
    <nd ref="413998563"/>
    <nd ref="413998564"/>
    <nd ref="413998565"/>
    <nd ref="413998566"/>
    <nd ref="413998567"/>
    <nd ref="413998562"/>
    <tag k="addr:city" v="Bielefeld"/>
    <tag k="addr:country" v="DE"/>
    <tag k="addr:housenumber" v="82"/>
    <tag k="addr:postcode" v="33619"/>
    <tag k="addr:street" v="Dornberger Straße"/>
    <tag k="area" v="yes"/>
    <tag k="fee" v="yes"/>
    <tag k="historic" v="rebuilt"/>
    <tag k="name" v="Bauernhausmuseum"/>
    <tag k="note" v="closed in January"/>
    <tag k="opening_hours" v="Tu-Fr 10:00-18:00; Sa-Su 11:00-18:00"/>
    <tag k="tourism" v="museum"/>
    <tag k="website" v="http://www.bielefelder-bauernhausmuseum.de/"/>
    <tag k="wikipedia" v="http://de.wikipedia.org/wiki/Bauernhausmuseum_Bielefeld"/>
  </way>
  <way id="35320331" version="5" timestamp="2011-11-19T20:16:39Z" uid="107703" user="herisusa" changeset="9877003">
    <nd ref="413998563"/>
    <nd ref="413998564"/>
    <nd ref="1508987380"/>
    <nd ref="413998565"/>
    <nd ref="413998566"/>
    <nd ref="1508987386"/>
    <nd ref="1508987383"/>
    <nd ref="413998563"/>
    <tag k="addr:city" v="Bielefeld"/>
    <tag k="addr:country" v="DE"/>
    <tag k="addr:housenumber" v="82"/>
    <tag k="addr:postcode" v="33619"/>
    <tag k="addr:street" v="Dornberger Straße"/>
    <tag k="area" v="yes"/>
    <tag k="fee" v="yes"/>
    <tag k="historic" v="rebuilt"/>
    <tag k="name" v="Bauernhausmuseum"/>
    <tag k="note" v="closed in January"/>
    <tag k="opening_hours" v="Tu-Fr 10:00-18:00; Sa-Su 11:00-18:00"/>
    <tag k="tourism" v="museum"/>
    <tag k="website" v="http://www.bielefelder-bauernhausmuseum.de/"/>
    <tag k="wikipedia" v="http://de.wikipedia.org/wiki/Bauernhausmuseum_Bielefeld"/>
  </way>
  <way id="35320364" version="4" timestamp="2011-03-07T23:37:11Z" uid="16922" user="amai" changeset="7490165">
    <nd ref="1045041677"/>
    <nd ref="1191890183"/>
    <nd ref="1045041553"/>
    <nd ref="1191890178"/>
    <nd ref="1045041620"/>
    <nd ref="1045041499"/>
    <nd ref="1045041600"/>
    <nd ref="413998929"/>
    <nd ref="413998928"/>
    <nd ref="1045041662"/>
    <nd ref="1045041531"/>
    <nd ref="1045041566"/>
    <nd ref="1045041472"/>
    <nd ref="1045041687"/>
    <nd ref="1045041616"/>
    <nd ref="1045041467"/>
    <nd ref="1045041671"/>
    <nd ref="1045041591"/>
    <nd ref="1045041497"/>
    <nd ref="1045041474"/>
    <nd ref="1045041703"/>
    <nd ref="1045041619"/>
    <nd ref="1045041659"/>
    <nd ref="1045041559"/>
    <nd ref="1045041465"/>
    <nd ref="1045041669"/>
    <nd ref="1045041717"/>
    <nd ref="1045041629"/>
    <nd ref="1045041528"/>
    <tag k="highway" v="motorway_link"/>
    <tag k="oneway" v="yes"/>
    <tag k="ref" v="9"/>
    <tag k="source" v="Bing"/>
  </way>
  <way id="35320364" version="5" timestamp="2012-02-15T22:31:49Z" uid="61891" user="stephankn" changeset="10697326"/>
  <way id="35320478" version="5" timestamp="2010-04-11T13:53:41Z" uid="9581" user="Lobelt" changeset="4393899">
    <nd ref="414001621"/>
    <nd ref="414001619"/>
    <nd ref="414001616"/>
    <nd ref="414001614"/>
    <nd ref="414001612"/>
    <nd ref="414001610"/>
    <nd ref="414001607"/>
    <nd ref="414001605"/>
    <nd ref="414001599"/>
    <nd ref="414001597"/>
    <nd ref="414001595"/>
    <nd ref="414001592"/>
    <nd ref="414001590"/>
    <nd ref="414001588"/>
    <nd ref="414001586"/>
    <nd ref="414001585"/>
    <nd ref="414001584"/>
    <nd ref="414001583"/>
    <nd ref="414001582"/>
    <nd ref="414001581"/>
    <nd ref="414001580"/>
    <nd ref="414001579"/>
    <nd ref="414001578"/>
    <nd ref="414001577"/>
    <nd ref="414001576"/>
    <nd ref="414001575"/>
    <nd ref="414001574"/>
    <nd ref="414001572"/>
    <nd ref="414001570"/>
    <nd ref="414001567"/>
    <nd ref="414001561"/>
    <nd ref="414001558"/>
    <nd ref="414001556"/>
    <nd ref="414001554"/>
    <nd ref="414001551"/>
    <nd ref="414001547"/>
    <nd ref="414001544"/>
    <nd ref="414053964"/>
    <nd ref="353922769"/>
    <nd ref="353922767"/>
    <tag k="foot" v="yes"/>
    <tag k="highway" v="track"/>
    <tag k="tracktype" v="grade1"/>
  </way>
  <way id="35320478" version="6" timestamp="2010-04-18T18:43:34Z" uid="66458" user="dkick" changeset="4461294">
    <nd ref="414001621"/>
    <nd ref="414001619"/>
    <nd ref="414001616"/>
    <nd ref="414001614"/>
    <nd ref="414001612"/>
    <nd ref="414001610"/>
    <nd ref="414001607"/>
    <nd ref="414001605"/>
    <nd ref="414001599"/>
    <nd ref="414001597"/>
    <nd ref="414001595"/>
    <nd ref="414001592"/>
    <nd ref="414001590"/>
    <nd ref="414001588"/>
    <nd ref="414001586"/>
    <nd ref="414001585"/>
    <nd ref="414001584"/>
    <nd ref="414001583"/>
    <nd ref="414001582"/>
    <nd ref="414001581"/>
    <nd ref="414001580"/>
    <nd ref="414001579"/>
    <nd ref="414001578"/>
    <nd ref="414001577"/>
    <nd ref="414001576"/>
    <nd ref="414001575"/>
    <nd ref="414001574"/>
    <nd ref="414001572"/>
    <nd ref="414001570"/>
    <nd ref="414001567"/>
    <nd ref="414001561"/>
    <nd ref="414001558"/>
    <nd ref="414001556"/>
    <nd ref="414001554"/>
    <nd ref="414001551"/>
    <nd ref="414001547"/>
    <nd ref="414001544"/>
    <nd ref="414053964"/>
    <tag k="foot" v="yes"/>
    <tag k="highway" v="track"/>
    <tag k="tracktype" v="grade1"/>
  </way>
  <way id="35320478" version="7" timestamp="2011-01-21T18:29:48Z" uid="146071" user="ulikoehler" changeset="7043081">
    <nd ref="414001621"/>
    <nd ref="414001619"/>
    <nd ref="414001614"/>
    <nd ref="414001612"/>
    <nd ref="414001607"/>
    <nd ref="414001605"/>
    <nd ref="414001599"/>
    <nd ref="414001583"/>
    <nd ref="414001582"/>
    <nd ref="414001579"/>
    <nd ref="414001576"/>
    <nd ref="414001575"/>
    <nd ref="414001574"/>
    <nd ref="414001572"/>
    <nd ref="414001570"/>
    <nd ref="414001567"/>
    <nd ref="414001558"/>
    <nd ref="414001554"/>
    <nd ref="414001551"/>
    <nd ref="414053964"/>
    <tag k="foot" v="yes"/>
    <tag k="highway" v="track"/>
    <tag k="tracktype" v="grade1"/>
  </way>
  <way id="35320478" version="8" timestamp="2011-04-23T20:11:03Z" uid="156845" user="hpahlke" changeset="7947047">
    <nd ref="414001621"/>
    <nd ref="414001619"/>
    <nd ref="414001614"/>
    <nd ref="414001612"/>
    <nd ref="414001607"/>
    <nd ref="414001605"/>
    <nd ref="414001599"/>
    <nd ref="414001583"/>
    <nd ref="414001582"/>
    <nd ref="414001579"/>
    <nd ref="414001576"/>
    <nd ref="414001575"/>
    <nd ref="414001574"/>
    <nd ref="414001572"/>
    <nd ref="414001570"/>
    <nd ref="414001567"/>
    <nd ref="1257094208"/>
    <nd ref="414001558"/>
    <nd ref="1257094308"/>
    <tag k="foot" v="yes"/>
    <tag k="highway" v="track"/>
    <tag k="tracktype" v="grade2"/>
  </way>
  <way id="35320478" version="9" timestamp="2011-07-03T18:44:48Z" uid="367722" user="dornweg" changeset="8622377">
    <nd ref="414001621"/>
    <nd ref="414001619"/>
    <nd ref="414001614"/>
    <nd ref="1348342871"/>
    <nd ref="1348342926"/>
    <nd ref="414001612"/>
    <nd ref="1348342877"/>
    <tag k="foot" v="yes"/>
    <tag k="highway" v="track"/>
    <tag k="surface" v="gravel"/>
    <tag k="tracktype" v="grade2"/>
  </way>
  <way id="35320479" version="1" timestamp="2009-06-01T11:47:08Z" uid="58091" user="Andreas M" changeset="1378863">
    <nd ref="414001994"/>
    <nd ref="414001996"/>
    <nd ref="414001998"/>
    <nd ref="414002000"/>
    <nd ref="414002002"/>
    <nd ref="414002004"/>
    <nd ref="414002005"/>
    <nd ref="414002007"/>
    <nd ref="414001994"/>
    <tag k="building" v="yes"/>
  </way>
  <way id="35320479" version="2" timestamp="2011-03-09T08:44:25Z" uid="99800" user="wolfbert" changeset="7501703">
    <nd ref="414001994"/>
    <nd ref="1193865407"/>
    <nd ref="414001996"/>
    <nd ref="414001998"/>
    <nd ref="1193865373"/>
    <nd ref="1193865400"/>
    <nd ref="1193865455"/>
    <nd ref="1193865464"/>
    <nd ref="1193865447"/>
    <nd ref="414002000"/>
    <nd ref="414002002"/>
    <nd ref="1193865386"/>
    <nd ref="1193865417"/>
    <nd ref="1193865397"/>
    <nd ref="1193865441"/>
    <nd ref="1193865437"/>
    <nd ref="1193865474"/>
    <nd ref="1193865435"/>
    <nd ref="1193865448"/>
    <nd ref="1193865411"/>
    <nd ref="1193865419"/>
    <nd ref="414002004"/>
    <nd ref="414002005"/>
    <nd ref="414002007"/>
    <nd ref="414001994"/>
    <tag k="building" v="yes"/>
  </way>
  <way id="35320479" version="3" timestamp="2012-03-23T10:54:24Z" uid="99800" user="wolfbert" changeset="11072525"/>
  <way id="35320480" version="1" timestamp="2009-06-01T11:47:08Z" uid="58091" user="Andreas M" changeset="1378863">
    <nd ref="414002000"/>
    <nd ref="414002009"/>
    <nd ref="414002010"/>
    <nd ref="414002012"/>
    <nd ref="414002025"/>
    <nd ref="414002027"/>
    <nd ref="414002029"/>
    <nd ref="414002031"/>
    <nd ref="414002032"/>
    <nd ref="414001998"/>
    <nd ref="414002000"/>
    <tag k="addr:city" v="Wien"/>
    <tag k="addr:country" v="AT"/>
    <tag k="addr:housenumber" v="19-21"/>
    <tag k="addr:postcode" v="1020"/>
    <tag k="addr:street" v="Wohlmutstraße"/>
    <tag k="building" v="yes"/>
  </way>
  <way id="35320480" version="2" timestamp="2011-03-09T08:44:28Z" uid="99800" user="wolfbert" changeset="7501703">
    <nd ref="414002000"/>
    <nd ref="414002009"/>
    <nd ref="1193865456"/>
    <nd ref="1193865473"/>
    <nd ref="1193865434"/>
    <nd ref="1193865444"/>
    <nd ref="414002010"/>
    <nd ref="1193865399"/>
    <nd ref="1193865372"/>
    <nd ref="1193865378"/>
    <nd ref="1193865418"/>
    <nd ref="414002012"/>
    <nd ref="414002025"/>
    <nd ref="414002027"/>
    <nd ref="414002029"/>
    <nd ref="414002031"/>
    <nd ref="414002032"/>
    <nd ref="414001998"/>
    <nd ref="1193865373"/>
    <nd ref="1193865463"/>
    <nd ref="1193865432"/>
    <nd ref="1193865447"/>
    <nd ref="414002000"/>
    <tag k="addr:city" v="Wien"/>
    <tag k="addr:country" v="AT"/>
    <tag k="addr:housenumber" v="19-21"/>
    <tag k="addr:postcode" v="1020"/>
    <tag k="addr:street" v="Wohlmutstraße"/>
    <tag k="building" v="yes"/>
  </way>
  <way id="35320480" version="3" timestamp="2012-03-23T10:54:24Z" uid="99800" user="wolfbert" changeset="11072525"/>
  <way id="35320481" version="1" timestamp="2009-06-01T11:47:08Z" uid="58091" user="Andreas M" changeset="1378863">
    <nd ref="414002031"/>
    <nd ref="414002034"/>
    <nd ref="414002036"/>
    <nd ref="414002038"/>
    <nd ref="414002039"/>
    <nd ref="414002042"/>
    <nd ref="414002043"/>
    <nd ref="414002045"/>
    <nd ref="414002047"/>
    <nd ref="414002048"/>
    <nd ref="414002050"/>
    <nd ref="414002032"/>
    <nd ref="414002031"/>
    <tag k="building" v="yes"/>
  </way>
  <way id="35320481" version="2" timestamp="2011-03-09T08:44:20Z" uid="99800" user="wolfbert" changeset="7501703">
    <nd ref="414002031"/>
    <nd ref="414002034"/>
    <nd ref="1193865450"/>
    <nd ref="1193865468"/>
    <nd ref="414002036"/>
    <nd ref="1193865384"/>
    <nd ref="1193865439"/>
    <nd ref="1193865404"/>
    <nd ref="414002038"/>
    <nd ref="1193865425"/>
    <nd ref="414002039"/>
    <nd ref="414002042"/>
    <nd ref="414002043"/>
    <nd ref="414002045"/>
    <nd ref="414002048"/>
    <nd ref="414002032"/>
    <nd ref="414002031"/>
    <tag k="building" v="yes"/>
  </way>
  <way id="35320481" version="3" timestamp="2012-03-23T10:54:24Z" uid="99800" user="wolfbert" changeset="11072525"/>
  <way id="35320482" version="1" timestamp="2009-06-01T11:47:08Z" uid="58091" user="Andreas M" changeset="1378863">
    <nd ref="414001994"/>
    <nd ref="414002051"/>
    <nd ref="414002053"/>
    <nd ref="414002092"/>
    <nd ref="414002055"/>
    <nd ref="414002056"/>
    <nd ref="414002007"/>
    <nd ref="414001994"/>
    <tag k="building" v="yes"/>
  </way>
  <way id="35320482" version="2" timestamp="2011-03-09T08:44:43Z" uid="99800" user="wolfbert" changeset="7501703">
    <nd ref="414001994"/>
    <nd ref="414002051"/>
    <nd ref="414002053"/>
    <nd ref="414002092"/>
    <nd ref="1193865382"/>
    <nd ref="1193865431"/>
    <nd ref="414002055"/>
    <nd ref="414002056"/>
    <nd ref="414002007"/>
    <nd ref="414001994"/>
    <tag k="building" v="yes"/>
  </way>
  <way id="35320482" version="3" timestamp="2012-03-23T10:54:24Z" uid="99800" user="wolfbert" changeset="11072525"/>
  <way id="35320483" version="1" timestamp="2009-06-01T11:47:08Z" uid="58091" user="Andreas M" changeset="1378863">
    <nd ref="414002045"/>
    <nd ref="414002058"/>
    <nd ref="414002059"/>
    <nd ref="414002061"/>
    <nd ref="414002063"/>
    <nd ref="414002064"/>
    <nd ref="414002043"/>
    <nd ref="414002045"/>
    <tag k="addr:city" v="Wien"/>
    <tag k="addr:country" v="AT"/>
    <tag k="addr:housenumber" v="15"/>
    <tag k="addr:postcode" v="1020"/>
    <tag k="addr:street" v="Obermüllnerstraße"/>
    <tag k="building" v="yes"/>
  </way>
  <way id="35320483" version="2" timestamp="2011-03-09T08:44:35Z" uid="99800" user="wolfbert" changeset="7501703">
    <nd ref="414002045"/>
    <nd ref="414002058"/>
    <nd ref="414002059"/>
    <nd ref="414002061"/>
    <nd ref="1193865459"/>
    <nd ref="1193865423"/>
    <nd ref="1193865439"/>
    <nd ref="1193865404"/>
    <nd ref="414002063"/>
    <nd ref="414002064"/>
    <nd ref="414002043"/>
    <nd ref="414002045"/>
    <tag k="addr:city" v="Wien"/>
    <tag k="addr:country" v="AT"/>
    <tag k="addr:housenumber" v="15"/>
    <tag k="addr:postcode" v="1020"/>
    <tag k="addr:street" v="Obermüllnerstraße"/>
    <tag k="building" v="yes"/>
  </way>
  <way id="35320483" version="3" timestamp="2012-03-23T10:54:24Z" uid="99800" user="wolfbert" changeset="11072525"/>
  <way id="35320484" version="1" timestamp="2009-06-01T11:47:08Z" uid="58091" user="Andreas M" changeset="1378863">
    <nd ref="414002058"/>
    <nd ref="414002066"/>
    <nd ref="414002068"/>
    <nd ref="414002069"/>
    <nd ref="414002071"/>
    <nd ref="414002073"/>
    <nd ref="414002059"/>
    <nd ref="414002058"/>
    <tag k="building" v="yes"/>
  </way>
  <way id="35320484" version="2" timestamp="2011-03-09T08:44:33Z" uid="99800" user="wolfbert" changeset="7501703">
    <nd ref="414002058"/>
    <nd ref="414002066"/>
    <nd ref="414002068"/>
    <nd ref="414002069"/>
    <nd ref="414002071"/>
    <nd ref="414002073"/>
    <nd ref="1193865446"/>
    <nd ref="1193865391"/>
    <nd ref="1193865412"/>
    <nd ref="1193865476"/>
    <nd ref="414002059"/>
    <nd ref="414002058"/>
    <tag k="building" v="yes"/>
  </way>
  <way id="35320484" version="3" timestamp="2012-03-23T10:54:24Z" uid="99800" user="wolfbert" changeset="11072525"/>
  <way id="35320485" version="1" timestamp="2009-06-01T11:47:08Z" uid="58091" user="Andreas M" changeset="1378863">
    <nd ref="414002069"/>
    <nd ref="414002075"/>
    <nd ref="414002076"/>
    <nd ref="414002078"/>
    <nd ref="414002080"/>
    <nd ref="414002071"/>
    <nd ref="414002069"/>
    <tag k="addr:city" v="Wien"/>
    <tag k="addr:country" v="AT"/>
    <tag k="addr:housenumber" v="10"/>
    <tag k="addr:postcode" v="1020"/>
    <tag k="addr:street" v="Feuerbachstraße"/>
    <tag k="building" v="yes"/>
  </way>
  <way id="35320485" version="2" timestamp="2011-03-09T08:44:26Z" uid="99800" user="wolfbert" changeset="7501703">
    <nd ref="414002069"/>
    <nd ref="414002075"/>
    <nd ref="1193865478"/>
    <nd ref="414002071"/>
    <nd ref="414002069"/>
    <tag k="addr:city" v="Wien"/>
    <tag k="addr:country" v="AT"/>
    <tag k="addr:housenumber" v="10"/>
    <tag k="addr:postcode" v="1020"/>
    <tag k="addr:street" v="Feuerbachstraße"/>
    <tag k="building" v="yes"/>
  </way>
  <way id="35320485" version="3" timestamp="2012-03-23T10:54:24Z" uid="99800" user="wolfbert" changeset="11072525"/>
  <way id="35320486" version="1" timestamp="2009-06-01T11:47:08Z" uid="58091" user="Andreas M" changeset="1378863">
    <nd ref="414002075"/>
    <nd ref="414002082"/>
    <nd ref="414002083"/>
    <nd ref="414002085"/>
    <nd ref="414002087"/>
    <nd ref="414002076"/>
    <nd ref="414002075"/>
    <tag k="addr:city" v="Wien"/>
    <tag k="addr:country" v="AT"/>
    <tag k="addr:housenumber" v="8"/>
    <tag k="addr:postcode" v="1020"/>
    <tag k="addr:street" v="Feuerbachstraße"/>
    <tag k="building" v="yes"/>
  </way>
  <way id="35320486" version="2" timestamp="2011-03-09T08:44:23Z" uid="99800" user="wolfbert" changeset="7501703">
    <nd ref="414002075"/>
    <nd ref="414002082"/>
    <nd ref="414002083"/>
    <nd ref="414002085"/>
    <nd ref="414002087"/>
    <nd ref="1193865408"/>
    <nd ref="1193865471"/>
    <nd ref="414002076"/>
    <nd ref="1193865478"/>
    <nd ref="414002075"/>
    <tag k="addr:city" v="Wien"/>
    <tag k="addr:country" v="AT"/>
    <tag k="addr:housenumber" v="8"/>
    <tag k="addr:postcode" v="1020"/>
    <tag k="addr:street" v="Feuerbachstraße"/>
    <tag k="building" v="yes"/>
  </way>
  <way id="35320486" version="3" timestamp="2012-03-23T10:54:25Z" uid="99800" user="wolfbert" changeset="11072525"/>
  <way id="35320487" version="1" timestamp="2009-06-01T11:47:09Z" uid="58091" user="Andreas M" changeset="1378863">
    <nd ref="414002082"/>
    <nd ref="414002088"/>
    <nd ref="414002090"/>
    <nd ref="414002083"/>
    <nd ref="414002082"/>
    <tag k="addr:city" v="Wien"/>
    <tag k="addr:country" v="AT"/>
    <tag k="addr:housenumber" v="6"/>
    <tag k="addr:postcode" v="1020"/>
    <tag k="addr:street" v="Feuerbachstraße"/>
    <tag k="building" v="yes"/>
  </way>
  <way id="35320487" version="2" timestamp="2011-03-09T08:44:41Z" uid="99800" user="wolfbert" changeset="7501703">
    <nd ref="414002082"/>
    <nd ref="414002088"/>
    <nd ref="414002090"/>
    <nd ref="1193865413"/>
    <nd ref="1193865390"/>
    <nd ref="1193865422"/>
    <nd ref="414002009"/>
    <nd ref="1193865381"/>
    <nd ref="1193865451"/>
    <nd ref="1193865436"/>
    <nd ref="1193865477"/>
    <nd ref="414002083"/>
    <nd ref="414002082"/>
    <tag k="addr:city" v="Wien"/>
    <tag k="addr:country" v="AT"/>
    <tag k="addr:housenumber" v="6"/>
    <tag k="addr:postcode" v="1020"/>
    <tag k="addr:street" v="Feuerbachstraße"/>
    <tag k="building" v="yes"/>
  </way>
  <way id="35320487" version="3" timestamp="2012-03-23T10:54:25Z" uid="99800" user="wolfbert" changeset="11072525"/>
  <way id="35320488" version="1" timestamp="2009-06-01T11:47:09Z" uid="58091" user="Andreas M" changeset="1378863">
    <nd ref="414002088"/>
    <nd ref="414002053"/>
    <nd ref="414002092"/>
    <nd ref="414002090"/>
    <nd ref="414002088"/>
    <tag k="addr:city" v="Wien"/>
    <tag k="addr:country" v="AT"/>
    <tag k="addr:housenumber" v="4"/>
    <tag k="addr:postcode" v="1020"/>
    <tag k="addr:street" v="Feuerbachstraße"/>
    <tag k="building" v="yes"/>
  </way>
  <way id="35320488" version="2" timestamp="2011-03-09T08:44:38Z" uid="99800" user="wolfbert" changeset="7501703">
    <nd ref="414002088"/>
    <nd ref="414002053"/>
    <nd ref="414002092"/>
    <nd ref="1193865386"/>
    <nd ref="414002002"/>
    <nd ref="414002009"/>
    <nd ref="1193865422"/>
    <nd ref="414002090"/>
    <nd ref="414002088"/>
    <tag k="addr:city" v="Wien"/>
    <tag k="addr:country" v="AT"/>
    <tag k="addr:housenumber" v="4"/>
    <tag k="addr:postcode" v="1020"/>
    <tag k="addr:street" v="Feuerbachstraße"/>
    <tag k="building" v="yes"/>
  </way>
  <way id="35320488" version="3" timestamp="2012-03-23T10:54:24Z" uid="99800" user="wolfbert" changeset="11072525"/>
</osm>
