<?xml version='1.0' encoding='UTF-8'?>
<osm version="0.6" generator="libosmium/2.20.0">
  <way id="35375037" version="1" timestamp="2009-06-02T14:14:44Z" uid="25211" user="la4de" changeset="1404380">
    <nd ref="29678296"/>
    <nd ref="260227643"/>
    <nd ref="29678297"/>
    <nd ref="386916749"/>
    <nd ref="266873298"/>
    <nd ref="29678298"/>
    <nd ref="414728200"/>
    <nd ref="29678299"/>
    <nd ref="414728197"/>
    <nd ref="29678300"/>
    <nd ref="386916750"/>
    <nd ref="29678301"/>
    <nd ref="29678302"/>
    <nd ref="386916751"/>
    <nd ref="29678303"/>
    <nd ref="266873329"/>
    <nd ref="29678304"/>
    <nd ref="29678305"/>
    <nd ref="414728189"/>
    <nd ref="29678306"/>
    <nd ref="414728187"/>
    <nd ref="414728186"/>
    <nd ref="29678307"/>
    <nd ref="386916752"/>
    <nd ref="29678308"/>
    <nd ref="29678309"/>
    <nd ref="274885173"/>
    <nd ref="413867716"/>
    <nd ref="414728183"/>
    <nd ref="29678310"/>
    <nd ref="386916753"/>
    <nd ref="29678311"/>
    <nd ref="414728182"/>
    <nd ref="414728181"/>
    <nd ref="29678312"/>
    <nd ref="386916754"/>
    <nd ref="29678313"/>
    <nd ref="386916755"/>
    <nd ref="29678314"/>
    <nd ref="414728178"/>
    <nd ref="386916756"/>
    <nd ref="29678315"/>
    <nd ref="386916331"/>
    <nd ref="386916757"/>
    <nd ref="414728177"/>
    <nd ref="29678316"/>
    <nd ref="248753572"/>
    <nd ref="29678317"/>
    <nd ref="29678318"/>
    <tag k="created_by" v="Potlatch 0.10b"/>
    <tag k="highway" v="primary"/>
    <tag k="maxspeed" v="100"/>
    <tag k="name" v="Inkoon rannikkotie"/>
    <tag k="ref" v="51"/>
  </way>
  <way id="35375037" version="2" timestamp="2009-06-05T19:53:17Z" uid="132212" user="Migro" changeset="1432497">
    <nd ref="29678296"/>
    <nd ref="260227643"/>
    <nd ref="29678297"/>
    <nd ref="386916749"/>
    <nd ref="266873298"/>
    <nd ref="29678298"/>
    <nd ref="414728200"/>
    <nd ref="29678299"/>
    <nd ref="414728197"/>
    <nd ref="29678300"/>
    <nd ref="386916750"/>
    <nd ref="29678301"/>
    <nd ref="29678302"/>
    <nd ref="386916751"/>
    <nd ref="29678303"/>
    <nd ref="266873329"/>
    <nd ref="29678304"/>
    <nd ref="29678305"/>
    <nd ref="414728189"/>
    <nd ref="29678306"/>
    <nd ref="414728187"/>
    <nd ref="414728186"/>
    <nd ref="29678307"/>
    <nd ref="386916752"/>
    <nd ref="29678308"/>
    <nd ref="29678309"/>
    <nd ref="274885173"/>
    <nd ref="413867716"/>
    <nd ref="414728183"/>
    <nd ref="29678310"/>
    <nd ref="386916753"/>
    <nd ref="29678311"/>
    <nd ref="414728182"/>
    <nd ref="414728181"/>
    <nd ref="29678312"/>
    <nd ref="386916754"/>
    <nd ref="29678313"/>
    <nd ref="386916755"/>
    <nd ref="29678314"/>
    <nd ref="414728178"/>
    <nd ref="386916756"/>
    <nd ref="29678315"/>
    <nd ref="386916331"/>
    <nd ref="386916757"/>
    <nd ref="414728177"/>
    <nd ref="29678316"/>
    <nd ref="248753572"/>
    <nd ref="29678317"/>
    <nd ref="29678318"/>
    <tag k="created_by" v="Potlatch 0.10b"/>
    <tag k="highway" v="primary"/>
    <tag k="maxspeed" v="100"/>
    <tag k="name" v="Ingå Kustvägen"/>
    <tag k="name:fi" v="Inkoon rannikkotie"/>
    <tag k="ref" v="51"/>
  </way>
  <way id="35375037" version="3" timestamp="2009-07-14T06:07:59Z" uid="4660" user="alv" changeset="1823792">
    <nd ref="29678296"/>
    <nd ref="260227643"/>
    <nd ref="29678297"/>
    <nd ref="386916749"/>
    <nd ref="266873298"/>
    <nd ref="29678298"/>
    <nd ref="414728200"/>
    <nd ref="29678299"/>
    <nd ref="414728197"/>
    <nd ref="29678300"/>
    <nd ref="386916750"/>
    <nd ref="29678301"/>
    <nd ref="29678302"/>
    <nd ref="386916751"/>
    <nd ref="29678303"/>
    <nd ref="266873329"/>
    <nd ref="29678304"/>
    <nd ref="29678305"/>
    <nd ref="414728189"/>
    <nd ref="29678306"/>
    <nd ref="414728187"/>
    <nd ref="414728186"/>
    <nd ref="29678307"/>
    <nd ref="386916752"/>
    <nd ref="29678308"/>
    <nd ref="29678309"/>
    <nd ref="274885173"/>
    <nd ref="413867716"/>
    <nd ref="414728183"/>
    <nd ref="29678310"/>
    <nd ref="386916753"/>
    <nd ref="29678311"/>
    <nd ref="414728182"/>
    <nd ref="414728181"/>
    <nd ref="29678312"/>
    <nd ref="386916754"/>
    <nd ref="29678313"/>
    <nd ref="386916755"/>
    <nd ref="29678314"/>
    <nd ref="414728178"/>
    <nd ref="386916756"/>
    <nd ref="29678315"/>
    <nd ref="386916331"/>
    <nd ref="386916757"/>
    <nd ref="414728177"/>
    <nd ref="29678316"/>
    <nd ref="248753572"/>
    <nd ref="29678317"/>
    <nd ref="29678318"/>
    <tag k="highway" v="primary"/>
    <tag k="lanes" v="2"/>
    <tag k="lit" v="no"/>
    <tag k="maxspeed" v="100"/>
    <tag k="name" v="Ingå Kustvägen"/>
    <tag k="name:fi" v="Inkoon rannikkotie"/>
    <tag k="ref" v="51"/>
  </way>
  <way id="35375037" version="4" timestamp="2009-07-14T10:16:30Z" uid="4660" user="alv" changeset="1825496">
    <nd ref="29678296"/>
    <nd ref="260227643"/>
    <nd ref="29678297"/>
    <nd ref="386916749"/>
    <nd ref="266873298"/>
    <nd ref="29678298"/>
    <tag k="highway" v="primary"/>
    <tag k="lanes" v="2"/>
    <tag k="lit" v="no"/>
    <tag k="maxspeed" v="100"/>
    <tag k="name" v="Ingå Kustvägen"/>
    <tag k="name:fi" v="Inkoon rannikkotie"/>
    <tag k="ref" v="51"/>
  </way>
  <way id="35375037" version="5" timestamp="2009-12-07T21:31:24Z" uid="188502" user="rhampf" changeset="3319665">
    <nd ref="29678296"/>
    <nd ref="260227643"/>
    <nd ref="29678297"/>
    <nd ref="386916749"/>
    <nd ref="266873298"/>
    <nd ref="29678298"/>
    <tag k="highway" v="primary"/>
    <tag k="lanes" v="2"/>
    <tag k="lit" v="no"/>
    <tag k="maxspeed" v="100"/>
    <tag k="maxspeed:seasonal:winter" v="80"/>
    <tag k="name" v="Ingå Kustvägen"/>
    <tag k="name:fi" v="Inkoon rannikkotie"/>
    <tag k="name:sv" v="Ingå kustvägen"/>
    <tag k="ref" v="51"/>
  </way>
  <way id="35375037" version="6" timestamp="2010-07-31T11:02:27Z" uid="4660" user="alv" changeset="5361681">
    <nd ref="29678296"/>
    <nd ref="260227643"/>
    <nd ref="29678297"/>
    <nd ref="386916749"/>
    <nd ref="266873298"/>
    <nd ref="29678298"/>
    <tag k="highway" v="primary"/>
    <tag k="lanes" v="2"/>
    <tag k="lit" v="no"/>
    <tag k="maxspeed" v="100"/>
    <tag k="maxspeed:seasonal:winter" v="80"/>
    <tag k="name" v="Ingå Kustvägen"/>
    <tag k="name:fi" v="Inkoon rannikkotie"/>
    <tag k="name:sv" v="Ingå kustvägen"/>
    <tag k="ref" v="51"/>
    <tag k="surface" v="paved"/>
  </way>
  <way id="35375038" version="1" timestamp="2009-06-02T14:14:45Z" uid="25211" user="la4de" changeset="1404380">
    <nd ref="414728214"/>
    <nd ref="29678292"/>
    <nd ref="414728213"/>
    <nd ref="260227808"/>
    <nd ref="29678293"/>
    <nd ref="260227758"/>
    <nd ref="29678294"/>
    <tag k="created_by" v="Potlatch 0.10b"/>
    <tag k="highway" v="primary"/>
    <tag k="maxspeed" v="100"/>
    <tag k="name" v="Inkoon rannikkotie"/>
    <tag k="ref" v="51"/>
  </way>
  <way id="35375038" version="2" timestamp="2009-06-05T19:53:10Z" uid="132212" user="Migro" changeset="1432497">
    <nd ref="414728214"/>
    <nd ref="29678292"/>
    <nd ref="414728213"/>
    <nd ref="260227808"/>
    <nd ref="29678293"/>
    <nd ref="260227758"/>
    <nd ref="29678294"/>
    <tag k="created_by" v="Potlatch 0.10b"/>
    <tag k="highway" v="primary"/>
    <tag k="maxspeed" v="100"/>
    <tag k="name" v="Ingå Kustvägen"/>
    <tag k="name:fi" v="Inkoon rannikkotie"/>
    <tag k="ref" v="51"/>
  </way>
  <way id="35375038" version="3" timestamp="2009-07-14T06:07:59Z" uid="4660" user="alv" changeset="1823792">
    <nd ref="414728214"/>
    <nd ref="29678292"/>
    <nd ref="414728213"/>
    <nd ref="260227808"/>
    <nd ref="29678293"/>
    <nd ref="260227758"/>
    <nd ref="29678294"/>
    <tag k="highway" v="primary"/>
    <tag k="lanes" v="2"/>
    <tag k="lit" v="no"/>
    <tag k="maxspeed" v="100"/>
    <tag k="name" v="Ingå Kustvägen"/>
    <tag k="name:fi" v="Inkoon rannikkotie"/>
    <tag k="ref" v="51"/>
  </way>
  <way id="35375038" version="4" timestamp="2009-12-07T21:31:22Z" uid="188502" user="rhampf" changeset="3319665">
    <nd ref="414728214"/>
    <nd ref="29678292"/>
    <nd ref="414728213"/>
    <nd ref="260227808"/>
    <nd ref="29678293"/>
    <nd ref="260227758"/>
    <nd ref="29678294"/>
    <tag k="highway" v="primary"/>
    <tag k="lanes" v="2"/>
    <tag k="lit" v="no"/>
    <tag k="maxspeed" v="100"/>
    <tag k="maxspeed:seasonal:winter" v="80"/>
    <tag k="name" v="Ingå Kustvägen"/>
    <tag k="name:fi" v="Inkoon rannikkotie"/>
    <tag k="name:sv" v="Ingå kustvägen"/>
    <tag k="ref" v="51"/>
  </way>
  <way id="35375038" version="5" timestamp="2010-07-31T11:02:29Z" uid="4660" user="alv" changeset="5361681">
    <nd ref="414728214"/>
    <nd ref="29678292"/>
    <nd ref="414728213"/>
    <nd ref="260227808"/>
    <nd ref="29678293"/>
    <nd ref="260227758"/>
    <nd ref="29678294"/>
    <tag k="highway" v="primary"/>
    <tag k="lanes" v="2"/>
    <tag k="lit" v="no"/>
    <tag k="maxspeed" v="100"/>
    <tag k="maxspeed:seasonal:winter" v="80"/>
    <tag k="name" v="Ingå Kustvägen"/>
    <tag k="name:fi" v="Inkoon rannikkotie"/>
    <tag k="name:sv" v="Ingå kustvägen"/>
    <tag k="ref" v="51"/>
    <tag k="surface" v="paved"/>
  </way>
  <way id="35375038" version="6" timestamp="2011-03-28T15:06:13Z" uid="188502" user="rhampf" changeset="7697366">
    <nd ref="414728214"/>
    <nd ref="29678292"/>
    <nd ref="414728213"/>
    <nd ref="260227808"/>
    <nd ref="29678293"/>
    <nd ref="1223186977"/>
    <nd ref="260227758"/>
    <nd ref="29678294"/>
    <tag k="highway" v="primary"/>
    <tag k="lanes" v="2"/>
    <tag k="lit" v="no"/>
    <tag k="maxspeed" v="100"/>
    <tag k="maxspeed:seasonal:winter" v="80"/>
    <tag k="name" v="Ingå Kustvägen"/>
    <tag k="name:fi" v="Inkoon rannikkotie"/>
    <tag k="name:sv" v="Ingå kustvägen"/>
    <tag k="ref" v="51"/>
    <tag k="surface" v="paved"/>
  </way>
  <way id="35375039" version="1" timestamp="2009-06-02T14:14:45Z" uid="25211" user="la4de" changeset="1404380">
    <nd ref="414728231"/>
    <nd ref="260228000"/>
    <nd ref="29678288"/>
    <nd ref="258923323"/>
    <nd ref="260227900"/>
    <nd ref="260227893"/>
    <nd ref="29678289"/>
    <nd ref="260227894"/>
    <nd ref="29678290"/>
    <nd ref="258928457"/>
    <nd ref="29678291"/>
    <nd ref="258931342"/>
    <nd ref="414728214"/>
    <tag k="created_by" v="Potlatch 0.10b"/>
    <tag k="highway" v="primary"/>
    <tag k="maxspeed" v="80"/>
    <tag k="name" v="Inkoon rannikkotie"/>
    <tag k="ref" v="51"/>
  </way>
  <way id="35375039" version="2" timestamp="2009-06-05T19:53:07Z" uid="132212" user="Migro" changeset="1432497">
    <nd ref="414728231"/>
    <nd ref="260228000"/>
    <nd ref="29678288"/>
    <nd ref="258923323"/>
    <nd ref="260227900"/>
    <nd ref="260227893"/>
    <nd ref="29678289"/>
    <nd ref="260227894"/>
    <nd ref="29678290"/>
    <nd ref="258928457"/>
    <nd ref="29678291"/>
    <nd ref="258931342"/>
    <nd ref="414728214"/>
    <tag k="created_by" v="Potlatch 0.10b"/>
    <tag k="highway" v="primary"/>
    <tag k="maxspeed" v="80"/>
    <tag k="name" v="Ingå Kustvägen"/>
    <tag k="name:fi" v="Inkoon rannikkotie"/>
    <tag k="ref" v="51"/>
  </way>
  <way id="35375039" version="3" timestamp="2009-07-14T06:07:59Z" uid="4660" user="alv" changeset="1823792">
    <nd ref="414728231"/>
    <nd ref="260228000"/>
    <nd ref="29678288"/>
    <nd ref="258923323"/>
    <nd ref="260227900"/>
    <nd ref="260227893"/>
    <nd ref="29678289"/>
    <nd ref="260227894"/>
    <nd ref="29678290"/>
    <nd ref="441530658"/>
    <tag k="highway" v="primary"/>
    <tag k="lanes" v="2"/>
    <tag k="lit" v="no"/>
    <tag k="maxspeed" v="80"/>
    <tag k="name" v="Ingå Kustvägen"/>
    <tag k="name:fi" v="Inkoon rannikkotie"/>
    <tag k="ref" v="51"/>
  </way>
  <way id="35375039" version="4" timestamp="2009-12-07T21:31:20Z" uid="188502" user="rhampf" changeset="3319665">
    <nd ref="414728231"/>
    <nd ref="583006286"/>
    <nd ref="260228000"/>
    <nd ref="29678288"/>
    <nd ref="258923323"/>
    <nd ref="260227900"/>
    <nd ref="260227893"/>
    <nd ref="29678289"/>
    <nd ref="260227894"/>
    <nd ref="29678290"/>
    <nd ref="441530658"/>
    <tag k="highway" v="primary"/>
    <tag k="lanes" v="2"/>
    <tag k="lit" v="no"/>
    <tag k="maxspeed" v="80"/>
    <tag k="name" v="Ingå Kustvägen"/>
    <tag k="name:fi" v="Inkoon rannikkotie"/>
    <tag k="name:sv" v="Ingå kustvägen"/>
    <tag k="ref" v="51"/>
  </way>
  <way id="35375039" version="5" timestamp="2011-10-13T08:17:30Z" uid="43619" user="Virex" changeset="9544994">
    <nd ref="414728231"/>
    <nd ref="583006286"/>
    <nd ref="260228000"/>
    <nd ref="29678288"/>
    <nd ref="258923323"/>
    <nd ref="260227900"/>
    <nd ref="260227893"/>
    <nd ref="29678289"/>
    <nd ref="260227894"/>
    <nd ref="441530658"/>
    <tag k="highway" v="primary"/>
    <tag k="lanes" v="2"/>
    <tag k="lit" v="no"/>
    <tag k="maxspeed" v="80"/>
    <tag k="name" v="Ingå Kustvägen"/>
    <tag k="name:fi" v="Inkoon rannikkotie"/>
    <tag k="name:sv" v="Ingå kustvägen"/>
    <tag k="ref" v="51"/>
  </way>
  <way id="35375039" version="6" timestamp="2011-10-15T12:36:40Z" uid="4660" user="alv" changeset="9563116">
    <nd ref="414728231"/>
    <nd ref="583006286"/>
    <nd ref="260228000"/>
    <nd ref="29678288"/>
    <nd ref="258923323"/>
    <nd ref="260227900"/>
    <nd ref="260227893"/>
    <nd ref="29678289"/>
    <nd ref="260227894"/>
    <nd ref="29678290"/>
    <nd ref="441530658"/>
    <tag k="highway" v="primary"/>
    <tag k="lanes" v="2"/>
    <tag k="lit" v="no"/>
    <tag k="maxspeed" v="80"/>
    <tag k="name" v="Ingå Kustvägen"/>
    <tag k="name:fi" v="Inkoon rannikkotie"/>
    <tag k="name:sv" v="Ingå kustvägen"/>
    <tag k="ref" v="51"/>
  </way>
  <way id="35375388" version="1" timestamp="2009-06-02T14:28:33Z" uid="25211" user="la4de" changeset="1404509">
    <nd ref="260228332"/>
    <nd ref="414731251"/>
    <nd ref="29678274"/>
    <nd ref="260228333"/>
    <nd ref="260228498"/>
    <nd ref="29678275"/>
    <nd ref="260228499"/>
    <nd ref="260228274"/>
    <nd ref="29678276"/>
    <nd ref="260228265"/>
    <nd ref="29678277"/>
    <nd ref="260228235"/>
    <nd ref="260228218"/>
    <nd ref="29678278"/>
    <nd ref="414731239"/>
    <nd ref="260228236"/>
    <nd ref="29678279"/>
    <nd ref="414731236"/>
    <nd ref="259047118"/>
    <nd ref="260228120"/>
    <nd ref="29678280"/>
    <nd ref="260228121"/>
    <nd ref="259047119"/>
    <nd ref="29678281"/>
    <nd ref="260228053"/>
    <nd ref="29678282"/>
    <nd ref="260228054"/>
    <nd ref="29678283"/>
    <nd ref="242546375"/>
    <nd ref="260227995"/>
    <nd ref="414731227"/>
    <nd ref="29678284"/>
    <nd ref="414731225"/>
    <nd ref="260227996"/>
    <nd ref="29678285"/>
    <nd ref="260227997"/>
    <nd ref="294561755"/>
    <nd ref="29678286"/>
    <nd ref="260227998"/>
    <nd ref="29678287"/>
    <nd ref="260227999"/>
    <nd ref="283765308"/>
    <nd ref="414728231"/>
    <tag k="created_by" v="Potlatch 0.10b"/>
    <tag k="highway" v="primary"/>
    <tag k="maxspeed" v="100"/>
    <tag k="name" v="Inkoon rannikkotie"/>
    <tag k="ref" v="51"/>
  </way>
  <way id="35375388" version="2" timestamp="2009-06-05T19:53:13Z" uid="132212" user="Migro" changeset="1432497">
    <nd ref="260228332"/>
    <nd ref="414731251"/>
    <nd ref="29678274"/>
    <nd ref="260228333"/>
    <nd ref="260228498"/>
    <nd ref="29678275"/>
    <nd ref="260228499"/>
    <nd ref="260228274"/>
    <nd ref="29678276"/>
    <nd ref="260228265"/>
    <nd ref="29678277"/>
    <nd ref="260228235"/>
    <nd ref="260228218"/>
    <nd ref="29678278"/>
    <nd ref="414731239"/>
    <nd ref="260228236"/>
    <nd ref="29678279"/>
    <nd ref="414731236"/>
    <nd ref="259047118"/>
    <nd ref="260228120"/>
    <nd ref="29678280"/>
    <nd ref="260228121"/>
    <nd ref="259047119"/>
    <nd ref="29678281"/>
    <nd ref="260228053"/>
    <nd ref="29678282"/>
    <nd ref="260228054"/>
    <nd ref="29678283"/>
    <nd ref="242546375"/>
    <nd ref="260227995"/>
    <nd ref="414731227"/>
    <nd ref="29678284"/>
    <nd ref="414731225"/>
    <nd ref="260227996"/>
    <nd ref="29678285"/>
    <nd ref="260227997"/>
    <nd ref="294561755"/>
    <nd ref="29678286"/>
    <nd ref="260227998"/>
    <nd ref="29678287"/>
    <nd ref="260227999"/>
    <nd ref="283765308"/>
    <nd ref="414728231"/>
    <tag k="created_by" v="Potlatch 0.10b"/>
    <tag k="highway" v="primary"/>
    <tag k="maxspeed" v="100"/>
    <tag k="name" v="Ingå Kustvägen"/>
    <tag k="name:fi" v="nkoon rannikkotie"/>
    <tag k="ref" v="51"/>
  </way>
  <way id="35375388" version="3" timestamp="2009-07-08T15:46:39Z" uid="81395" user="mauko" changeset="1773589">
    <nd ref="260228332"/>
    <nd ref="414731251"/>
    <nd ref="29678274"/>
    <nd ref="260228333"/>
    <nd ref="260228498"/>
    <nd ref="29678275"/>
    <nd ref="260228499"/>
    <nd ref="260228274"/>
    <nd ref="29678276"/>
    <nd ref="260228265"/>
    <nd ref="29678277"/>
    <nd ref="260228235"/>
    <nd ref="260228218"/>
    <nd ref="29678278"/>
    <nd ref="414731239"/>
    <nd ref="260228236"/>
    <nd ref="29678279"/>
    <nd ref="414731236"/>
    <nd ref="259047118"/>
    <nd ref="260228120"/>
    <nd ref="437355809"/>
    <nd ref="29678280"/>
    <nd ref="260228121"/>
    <nd ref="259047119"/>
    <nd ref="29678281"/>
    <nd ref="260228053"/>
    <nd ref="29678282"/>
    <nd ref="260228054"/>
    <nd ref="29678283"/>
    <nd ref="242546375"/>
    <nd ref="260227995"/>
    <nd ref="414731227"/>
    <nd ref="29678284"/>
    <nd ref="414731225"/>
    <nd ref="260227996"/>
    <nd ref="29678285"/>
    <nd ref="260227997"/>
    <nd ref="294561755"/>
    <nd ref="29678286"/>
    <nd ref="260227998"/>
    <nd ref="29678287"/>
    <nd ref="260227999"/>
    <nd ref="283765308"/>
    <nd ref="414728231"/>
    <tag k="created_by" v="Potlatch 0.10b"/>
    <tag k="highway" v="primary"/>
    <tag k="maxspeed" v="100"/>
    <tag k="name" v="Ingå Kustvägen"/>
    <tag k="name:fi" v="nkoon rannikkotie"/>
    <tag k="ref" v="51"/>
  </way>
  <way id="35375388" version="4" timestamp="2009-07-14T06:07:59Z" uid="4660" user="alv" changeset="1823792">
    <nd ref="260228332"/>
    <nd ref="414731251"/>
    <nd ref="29678274"/>
    <nd ref="260228333"/>
    <nd ref="260228498"/>
    <nd ref="29678275"/>
    <nd ref="260228499"/>
    <nd ref="260228274"/>
    <nd ref="29678276"/>
    <nd ref="260228265"/>
    <nd ref="29678277"/>
    <nd ref="260228235"/>
    <nd ref="260228218"/>
    <nd ref="29678278"/>
    <nd ref="414731239"/>
    <nd ref="260228236"/>
    <nd ref="29678279"/>
    <nd ref="414731236"/>
    <nd ref="259047118"/>
    <nd ref="260228120"/>
    <nd ref="437355809"/>
    <nd ref="29678280"/>
    <nd ref="260228121"/>
    <nd ref="259047119"/>
    <nd ref="29678281"/>
    <nd ref="260228053"/>
    <nd ref="29678282"/>
    <nd ref="260228054"/>
    <nd ref="29678283"/>
    <nd ref="242546375"/>
    <nd ref="260227995"/>
    <nd ref="414731227"/>
    <nd ref="29678284"/>
    <nd ref="414731225"/>
    <nd ref="260227996"/>
    <nd ref="29678285"/>
    <nd ref="260227997"/>
    <nd ref="294561755"/>
    <nd ref="29678286"/>
    <nd ref="260227998"/>
    <nd ref="29678287"/>
    <nd ref="260227999"/>
    <nd ref="283765308"/>
    <nd ref="414728231"/>
    <tag k="highway" v="primary"/>
    <tag k="lanes" v="2"/>
    <tag k="lit" v="no"/>
    <tag k="maxspeed" v="100"/>
    <tag k="name" v="Ingå Kustvägen"/>
    <tag k="name:fi" v="nkoon rannikkotie"/>
    <tag k="ref" v="51"/>
    <tag k="surface" v="paved"/>
  </way>
  <way id="35375388" version="5" timestamp="2009-11-04T21:24:54Z" uid="188502" user="rhampf" changeset="3036466">
    <nd ref="260228332"/>
    <nd ref="414731251"/>
    <nd ref="29678274"/>
    <nd ref="555061168"/>
    <nd ref="260228333"/>
    <nd ref="260228498"/>
    <nd ref="29678275"/>
    <nd ref="260228499"/>
    <nd ref="260228274"/>
    <nd ref="29678276"/>
    <nd ref="260228265"/>
    <nd ref="29678277"/>
    <nd ref="260228235"/>
    <nd ref="260228218"/>
    <nd ref="29678278"/>
    <nd ref="414731239"/>
    <nd ref="260228236"/>
    <nd ref="29678279"/>
    <nd ref="414731236"/>
    <nd ref="259047118"/>
    <nd ref="260228120"/>
    <nd ref="437355809"/>
    <nd ref="29678280"/>
    <nd ref="260228121"/>
    <nd ref="259047119"/>
    <nd ref="29678281"/>
    <nd ref="260228053"/>
    <nd ref="29678282"/>
    <nd ref="260228054"/>
    <nd ref="29678283"/>
    <nd ref="242546375"/>
    <nd ref="260227995"/>
    <nd ref="414731227"/>
    <nd ref="29678284"/>
    <nd ref="414731225"/>
    <nd ref="260227996"/>
    <nd ref="29678285"/>
    <nd ref="260227997"/>
    <nd ref="294561755"/>
    <nd ref="29678286"/>
    <nd ref="260227998"/>
    <nd ref="29678287"/>
    <nd ref="260227999"/>
    <nd ref="283765308"/>
    <nd ref="414728231"/>
    <tag k="highway" v="primary"/>
    <tag k="lanes" v="2"/>
    <tag k="lit" v="no"/>
    <tag k="maxspeed" v="100"/>
    <tag k="name" v="Ingå Kustvägen"/>
    <tag k="name:fi" v="nkoon rannikkotie"/>
    <tag k="ref" v="51"/>
    <tag k="surface" v="paved"/>
  </way>
  <way id="35375388" version="6" timestamp="2009-12-02T22:45:11Z" uid="188502" user="rhampf" changeset="3276339">
    <nd ref="260228332"/>
    <nd ref="414731251"/>
    <nd ref="29678274"/>
    <nd ref="555061168"/>
    <nd ref="260228333"/>
    <nd ref="260228498"/>
    <nd ref="29678275"/>
    <nd ref="260228499"/>
    <nd ref="578481980"/>
    <nd ref="260228274"/>
    <nd ref="29678276"/>
    <nd ref="260228265"/>
    <nd ref="29678277"/>
    <nd ref="260228235"/>
    <nd ref="260228218"/>
    <nd ref="29678278"/>
    <nd ref="414731239"/>
    <nd ref="260228236"/>
    <nd ref="29678279"/>
    <nd ref="414731236"/>
    <nd ref="259047118"/>
    <nd ref="260228120"/>
    <nd ref="437355809"/>
    <nd ref="29678280"/>
    <nd ref="260228121"/>
    <nd ref="259047119"/>
    <nd ref="29678281"/>
    <nd ref="260228053"/>
    <nd ref="29678282"/>
    <nd ref="260228054"/>
    <nd ref="29678283"/>
    <nd ref="242546375"/>
    <nd ref="260227995"/>
    <nd ref="414731227"/>
    <nd ref="29678284"/>
    <nd ref="414731225"/>
    <nd ref="260227996"/>
    <nd ref="29678285"/>
    <nd ref="260227997"/>
    <nd ref="294561755"/>
    <nd ref="29678286"/>
    <nd ref="260227998"/>
    <nd ref="29678287"/>
    <nd ref="260227999"/>
    <nd ref="283765308"/>
    <nd ref="414728231"/>
    <tag k="highway" v="primary"/>
    <tag k="lanes" v="2"/>
    <tag k="lit" v="no"/>
    <tag k="maxspeed" v="100"/>
    <tag k="name" v="Ingå Kustvägen"/>
    <tag k="name:fi" v="nkoon rannikkotie"/>
    <tag k="ref" v="51"/>
    <tag k="surface" v="paved"/>
  </way>
  <way id="35375388" version="7" timestamp="2009-12-07T21:31:17Z" uid="188502" user="rhampf" changeset="3319665">
    <nd ref="260228332"/>
    <nd ref="414731251"/>
    <nd ref="29678274"/>
    <nd ref="555061168"/>
    <nd ref="260228333"/>
    <nd ref="260228498"/>
    <nd ref="29678275"/>
    <nd ref="260228499"/>
    <nd ref="578481980"/>
    <nd ref="260228274"/>
    <nd ref="29678276"/>
    <nd ref="260228265"/>
    <nd ref="29678277"/>
    <nd ref="260228235"/>
    <nd ref="260228218"/>
    <nd ref="29678278"/>
    <nd ref="414731239"/>
    <nd ref="260228236"/>
    <nd ref="29678279"/>
    <nd ref="414731236"/>
    <nd ref="259047118"/>
    <nd ref="260228120"/>
    <nd ref="437355809"/>
    <nd ref="29678280"/>
    <nd ref="260228121"/>
    <nd ref="259047119"/>
    <nd ref="29678281"/>
    <nd ref="260228053"/>
    <nd ref="29678282"/>
    <nd ref="260228054"/>
    <nd ref="29678283"/>
    <nd ref="242546375"/>
    <nd ref="260227995"/>
    <nd ref="414731227"/>
    <nd ref="29678284"/>
    <nd ref="414731225"/>
    <nd ref="260227996"/>
    <nd ref="29678285"/>
    <nd ref="260227997"/>
    <nd ref="294561755"/>
    <nd ref="29678286"/>
    <nd ref="260227998"/>
    <nd ref="29678287"/>
    <nd ref="260227999"/>
    <nd ref="414728231"/>
    <tag k="highway" v="primary"/>
    <tag k="lanes" v="2"/>
    <tag k="lit" v="no"/>
    <tag k="maxspeed" v="100"/>
    <tag k="maxspeed:seasonal:winter" v="80"/>
    <tag k="name" v="Ingå Kustvägen"/>
    <tag k="name:fi" v="Inkoon rannikkotie"/>
    <tag k="name:sv" v="Ingå kustvägen"/>
    <tag k="ref" v="51"/>
    <tag k="surface" v="paved"/>
  </way>
  <way id="35375388" version="8" timestamp="2010-03-20T15:38:41Z" uid="187085" user="Juha Mustonen" changeset="4181094">
    <nd ref="260228332"/>
    <nd ref="414731251"/>
    <nd ref="29678274"/>
    <nd ref="555061168"/>
    <nd ref="260228333"/>
    <nd ref="260228498"/>
    <nd ref="29678275"/>
    <nd ref="260228499"/>
    <nd ref="578481980"/>
    <nd ref="260228274"/>
    <nd ref="29678276"/>
    <nd ref="670504840"/>
    <nd ref="260228265"/>
    <nd ref="29678277"/>
    <nd ref="260228235"/>
    <nd ref="260228218"/>
    <nd ref="29678278"/>
    <nd ref="414731239"/>
    <nd ref="260228236"/>
    <nd ref="29678279"/>
    <nd ref="414731236"/>
    <nd ref="259047118"/>
    <nd ref="260228120"/>
    <nd ref="437355809"/>
    <nd ref="29678280"/>
    <nd ref="260228121"/>
    <nd ref="259047119"/>
    <nd ref="29678281"/>
    <nd ref="260228053"/>
    <nd ref="29678282"/>
    <nd ref="260228054"/>
    <nd ref="29678283"/>
    <nd ref="242546375"/>
    <nd ref="260227995"/>
    <nd ref="414731227"/>
    <nd ref="29678284"/>
    <nd ref="414731225"/>
    <nd ref="260227996"/>
    <nd ref="29678285"/>
    <nd ref="260227997"/>
    <nd ref="294561755"/>
    <nd ref="29678286"/>
    <nd ref="260227998"/>
    <nd ref="29678287"/>
    <nd ref="260227999"/>
    <nd ref="414728231"/>
    <tag k="highway" v="primary"/>
    <tag k="lanes" v="2"/>
    <tag k="lit" v="no"/>
    <tag k="maxspeed" v="100"/>
    <tag k="maxspeed:seasonal:winter" v="80"/>
    <tag k="name" v="Ingå Kustvägen"/>
    <tag k="name:fi" v="Inkoon rannikkotie"/>
    <tag k="name:sv" v="Ingå kustvägen"/>
    <tag k="ref" v="51"/>
    <tag k="surface" v="paved"/>
  </way>
  <way id="35375388" version="9" timestamp="2010-04-21T10:57:42Z" uid="266933" user="yaree" changeset="4485159">
    <nd ref="260228332"/>
    <nd ref="414731251"/>
    <nd ref="29678274"/>
    <nd ref="555061168"/>
    <nd ref="260228333"/>
    <nd ref="260228498"/>
    <nd ref="29678275"/>
    <nd ref="260228499"/>
    <nd ref="578481980"/>
    <tag k="highway" v="primary"/>
    <tag k="lanes" v="2"/>
    <tag k="lit" v="no"/>
    <tag k="maxspeed" v="100"/>
    <tag k="maxspeed:seasonal:winter" v="80"/>
    <tag k="name" v="Ingå Kustvägen"/>
    <tag k="name:fi" v="Inkoon rannikkotie"/>
    <tag k="name:sv" v="Ingå kustvägen"/>
    <tag k="ref" v="51"/>
    <tag k="surface" v="paved"/>
  </way>
  <way id="35375390" version="1" timestamp="2009-06-02T14:28:33Z" uid="25211" user="la4de" changeset="1404509">
    <nd ref="268257307"/>
    <nd ref="414731264"/>
    <nd ref="29678269"/>
    <nd ref="29678270"/>
    <nd ref="414731261"/>
    <nd ref="260228885"/>
    <nd ref="29678271"/>
    <nd ref="414731260"/>
    <nd ref="260228620"/>
    <nd ref="414731255"/>
    <nd ref="29678272"/>
    <tag k="created_by" v="Potlatch 0.10b"/>
    <tag k="highway" v="primary"/>
    <tag k="maxspeed" v="100"/>
    <tag k="name" v="Inkoon rannikkotie"/>
    <tag k="ref" v="51"/>
  </way>
  <way id="35375390" version="2" timestamp="2009-06-05T19:53:13Z" uid="132212" user="Migro" changeset="1432497">
    <nd ref="268257307"/>
    <nd ref="414731264"/>
    <nd ref="29678269"/>
    <nd ref="29678270"/>
    <nd ref="414731261"/>
    <nd ref="260228885"/>
    <nd ref="29678271"/>
    <nd ref="414731260"/>
    <nd ref="260228620"/>
    <nd ref="414731255"/>
    <nd ref="29678272"/>
    <tag k="created_by" v="Potlatch 0.10b"/>
    <tag k="highway" v="primary"/>
    <tag k="maxspeed" v="100"/>
    <tag k="name" v="Ingå Kustvägen"/>
    <tag k="name:fi" v="Inkoon rannikkotie"/>
    <tag k="ref" v="51"/>
  </way>
  <way id="35375390" version="3" timestamp="2009-07-14T06:07:59Z" uid="4660" user="alv" changeset="1823792">
    <nd ref="268257307"/>
    <nd ref="414731264"/>
    <nd ref="29678269"/>
    <tag k="highway" v="primary"/>
    <tag k="lanes" v="2"/>
    <tag k="lit" v="yes"/>
    <tag k="maxspeed" v="100"/>
    <tag k="name" v="Ingå Kustvägen"/>
    <tag k="name:fi" v="Inkoon rannikkotie"/>
    <tag k="ref" v="51"/>
  </way>
  <way id="35375390" version="4" timestamp="2011-10-18T11:13:42Z" uid="188502" user="rhampf" changeset="9590226">
    <nd ref="268257307"/>
    <nd ref="1471930956"/>
    <nd ref="414731264"/>
    <nd ref="29678269"/>
    <tag k="highway" v="primary"/>
    <tag k="lanes" v="2"/>
    <tag k="lit" v="yes"/>
    <tag k="maxspeed" v="100"/>
    <tag k="name" v="Ingå Kustvägen"/>
    <tag k="name:fi" v="Inkoon rannikkotie"/>
    <tag k="ref" v="51"/>
  </way>
  <way id="35375865" version="1" timestamp="2009-06-02T14:50:44Z" uid="43863" user="Rundling" changeset="1404707">
    <nd ref="414735379"/>
    <nd ref="414735401"/>
    <nd ref="414735380"/>
    <nd ref="414735381"/>
    <nd ref="414735382"/>
    <nd ref="414735383"/>
    <nd ref="414735384"/>
    <nd ref="414735385"/>
    <nd ref="414735386"/>
    <nd ref="414735387"/>
    <nd ref="414735388"/>
    <nd ref="414735389"/>
    <nd ref="414735390"/>
    <nd ref="414735391"/>
    <nd ref="414735392"/>
    <nd ref="414735393"/>
    <nd ref="414735394"/>
    <nd ref="414735395"/>
    <nd ref="414735396"/>
    <nd ref="414735397"/>
    <nd ref="414735398"/>
    <nd ref="414735399"/>
    <nd ref="414735400"/>
    <nd ref="414735379"/>
    <tag k="landuse" v="farmland"/>
  </way>
  <way id="35375865" version="2" timestamp="2011-01-25T17:14:54Z" uid="43863" user="Rundling" changeset="7085549">
    <nd ref="414735379"/>
    <nd ref="414735401"/>
    <nd ref="414735380"/>
    <nd ref="414735381"/>
    <nd ref="414735382"/>
    <nd ref="414735383"/>
    <nd ref="414735384"/>
    <nd ref="414735385"/>
    <nd ref="414735386"/>
    <nd ref="414735387"/>
    <nd ref="414735388"/>
    <nd ref="414735389"/>
    <nd ref="414735390"/>
    <nd ref="414735391"/>
    <nd ref="414735392"/>
    <nd ref="414735393"/>
    <nd ref="414735394"/>
    <nd ref="414735395"/>
    <nd ref="1120063761"/>
    <nd ref="1120063764"/>
    <nd ref="414735396"/>
    <nd ref="414735397"/>
    <nd ref="414735398"/>
    <nd ref="414735399"/>
    <nd ref="414735400"/>
    <nd ref="414735379"/>
    <tag k="landuse" v="farmland"/>
  </way>
  <way id="35375865" version="3" timestamp="2011-02-01T10:31:51Z" uid="51324" user="OPerivar" changeset="7153322">
    <nd ref="414735379"/>
    <nd ref="414735401"/>
    <nd ref="414735380"/>
    <nd ref="414735381"/>
    <nd ref="414735382"/>
    <nd ref="414735383"/>
    <nd ref="1130825105"/>
    <nd ref="414735384"/>
    <nd ref="414735385"/>
    <nd ref="414735386"/>
    <nd ref="414735387"/>
    <nd ref="414735388"/>
    <nd ref="414735389"/>
    <nd ref="414735390"/>
    <nd ref="414735391"/>
    <nd ref="414735392"/>
    <nd ref="414735393"/>
    <nd ref="414735394"/>
    <nd ref="414735395"/>
    <nd ref="1120063761"/>
    <nd ref="1120063764"/>
    <nd ref="414735396"/>
    <nd ref="414735397"/>
    <nd ref="414735398"/>
    <nd ref="414735399"/>
    <nd ref="414735400"/>
    <nd ref="414735379"/>
    <tag k="landuse" v="farmland"/>
  </way>
</osm>
