<?xml version='1.0' encoding='UTF-8'?>
<osm version="0.6" generator="libosmium/2.20.0">
  <way id="35376007" version="5" timestamp="2009-09-29T00:32:22Z" uid="36809" user="pfoten_weg_!_" changeset="2671824">
    <nd ref="270513281"/>
    <nd ref="414736932"/>
    <nd ref="414736933"/>
    <nd ref="414736934"/>
    <nd ref="414736936"/>
    <nd ref="414736938"/>
    <nd ref="414736940"/>
    <nd ref="414736942"/>
    <nd ref="414736944"/>
    <nd ref="414736947"/>
    <nd ref="414736949"/>
    <nd ref="414736952"/>
    <nd ref="414736954"/>
    <nd ref="414736958"/>
    <nd ref="414736959"/>
    <nd ref="414736962"/>
    <nd ref="414736965"/>
    <nd ref="414736968"/>
    <nd ref="414736970"/>
    <nd ref="414736973"/>
    <nd ref="414736976"/>
    <nd ref="414736978"/>
    <nd ref="414736980"/>
    <nd ref="414736982"/>
    <nd ref="414736983"/>
    <nd ref="414736984"/>
    <nd ref="414736985"/>
    <nd ref="414736986"/>
    <nd ref="414736987"/>
    <nd ref="414736988"/>
    <nd ref="414736989"/>
    <nd ref="414736990"/>
    <nd ref="270514892"/>
    <tag k="highway" v="path"/>
    <tag k="name" v="A"/>
    <tag k="ref" v="A"/>
    <tag k="sac_scale" v="hiking"/>
  </way>
  <way id="35376007" version="6" timestamp="2009-09-29T01:02:14Z" uid="36809" user="pfoten_weg_!_" changeset="2671929">
    <nd ref="270513281"/>
    <nd ref="414736932"/>
    <nd ref="414736933"/>
    <nd ref="414736934"/>
    <nd ref="414736936"/>
    <nd ref="414736938"/>
    <nd ref="414736940"/>
    <nd ref="414736942"/>
    <nd ref="414736944"/>
    <nd ref="414736947"/>
    <nd ref="414736949"/>
    <nd ref="414736952"/>
    <nd ref="414736954"/>
    <nd ref="414736958"/>
    <nd ref="414736959"/>
    <nd ref="414736962"/>
    <nd ref="414736965"/>
    <nd ref="414736968"/>
    <nd ref="414736970"/>
    <nd ref="414736973"/>
    <nd ref="414736976"/>
    <nd ref="414736978"/>
    <nd ref="414736980"/>
    <nd ref="414736982"/>
    <nd ref="414736983"/>
    <nd ref="414736984"/>
    <nd ref="414736985"/>
    <nd ref="414736986"/>
    <nd ref="414736987"/>
    <nd ref="414736988"/>
    <nd ref="414736989"/>
    <nd ref="414736990"/>
    <nd ref="270514892"/>
    <tag k="highway" v="path"/>
    <tag k="name" v="A"/>
    <tag k="ref" v="A"/>
    <tag k="sac_scale" v="hiking"/>
  </way>
  <way id="35376007" version="7" timestamp="2009-09-29T01:27:58Z" uid="36809" user="pfoten_weg_!_" changeset="2671929">
    <nd ref="270513281"/>
    <nd ref="414736932"/>
    <nd ref="414736933"/>
    <nd ref="414736934"/>
    <nd ref="414736936"/>
    <nd ref="414736938"/>
    <nd ref="414736940"/>
    <nd ref="414736942"/>
    <nd ref="414736944"/>
    <nd ref="414736947"/>
    <nd ref="414736949"/>
    <nd ref="414736952"/>
    <nd ref="414736954"/>
    <nd ref="414736958"/>
    <nd ref="414736959"/>
    <nd ref="414736962"/>
    <nd ref="414736965"/>
    <nd ref="414736968"/>
    <nd ref="414736970"/>
    <nd ref="414736973"/>
    <nd ref="414736976"/>
    <nd ref="414736978"/>
    <nd ref="414736980"/>
    <nd ref="414736982"/>
    <nd ref="414736983"/>
    <nd ref="414736984"/>
    <nd ref="414736985"/>
    <nd ref="414736986"/>
    <nd ref="414736987"/>
    <nd ref="414736988"/>
    <nd ref="414736989"/>
    <nd ref="414736990"/>
    <nd ref="270514892"/>
    <tag k="highway" v="path"/>
    <tag k="name" v="A"/>
    <tag k="ref" v="A"/>
    <tag k="sac_scale" v="hiking"/>
  </way>
  <way id="35376007" version="8" timestamp="2009-09-29T01:58:14Z" uid="36809" user="pfoten_weg_!_" changeset="2672141">
    <nd ref="270513281"/>
    <nd ref="414736932"/>
    <nd ref="414736933"/>
    <nd ref="414736934"/>
    <nd ref="414736936"/>
    <nd ref="414736938"/>
    <nd ref="414736940"/>
    <nd ref="414736942"/>
    <nd ref="414736944"/>
    <nd ref="414736947"/>
    <nd ref="414736949"/>
    <nd ref="414736952"/>
    <nd ref="414736954"/>
    <nd ref="414736958"/>
    <nd ref="414736959"/>
    <nd ref="414736962"/>
    <nd ref="414736965"/>
    <nd ref="414736968"/>
    <nd ref="414736970"/>
    <nd ref="414736973"/>
    <nd ref="414736976"/>
    <nd ref="414736978"/>
    <nd ref="414736980"/>
    <nd ref="414736982"/>
    <nd ref="414736983"/>
    <nd ref="414736984"/>
    <nd ref="414736985"/>
    <nd ref="414736986"/>
    <nd ref="414736987"/>
    <nd ref="414736988"/>
    <nd ref="414736989"/>
    <nd ref="414736990"/>
    <nd ref="270514892"/>
    <tag k="highway" v="path"/>
    <tag k="name" v="A"/>
    <tag k="ref" v="A"/>
    <tag k="sac_scale" v="hiking"/>
  </way>
  <way id="35376007" version="9" timestamp="2009-09-29T02:32:28Z" uid="36809" user="pfoten_weg_!_" changeset="2672254">
    <nd ref="270513281"/>
    <nd ref="414736932"/>
    <nd ref="414736933"/>
    <nd ref="414736934"/>
    <nd ref="414736936"/>
    <nd ref="414736938"/>
    <nd ref="414736940"/>
    <nd ref="414736942"/>
    <nd ref="414736944"/>
    <nd ref="414736947"/>
    <nd ref="414736949"/>
    <nd ref="414736952"/>
    <nd ref="414736954"/>
    <nd ref="414736958"/>
    <nd ref="414736959"/>
    <nd ref="414736962"/>
    <nd ref="414736965"/>
    <nd ref="414736968"/>
    <nd ref="414736970"/>
    <nd ref="414736973"/>
    <nd ref="414736976"/>
    <nd ref="414736978"/>
    <nd ref="414736980"/>
    <nd ref="414736982"/>
    <nd ref="414736983"/>
    <nd ref="414736984"/>
    <nd ref="414736985"/>
    <nd ref="414736986"/>
    <nd ref="414736987"/>
    <nd ref="414736988"/>
    <nd ref="414736989"/>
    <nd ref="414736990"/>
    <nd ref="270514892"/>
    <tag k="highway" v="path"/>
    <tag k="name" v="A"/>
    <tag k="ref" v="A"/>
    <tag k="sac_scale" v="hiking"/>
  </way>
  <way id="35376070" version="3" timestamp="2009-11-14T02:07:27Z" uid="99207" user="Lar Kiesel" changeset="3110273">
    <nd ref="133313369"/>
    <nd ref="414737416"/>
    <tag k="highway" v="motorway"/>
    <tag k="name" v="I-80"/>
    <tag k="oneway" v="yes"/>
    <tag k="ref" v="I-80"/>
  </way>
  <way id="35376070" version="4" timestamp="2009-12-05T01:52:26Z" uid="99207" user="Lar Kiesel" changeset="3292890">
    <nd ref="133313369"/>
    <nd ref="414737416"/>
    <tag k="highway" v="motorway"/>
    <tag k="name" v="I-80"/>
    <tag k="oneway" v="yes"/>
    <tag k="ref" v="I 80"/>
  </way>
  <way id="35376070" version="5" timestamp="2011-06-27T22:49:10Z" uid="473471" user="NE3" changeset="8567175">
    <nd ref="133313369"/>
    <nd ref="414737416"/>
    <tag k="highway" v="motorway"/>
    <tag k="lanes" v="3"/>
    <tag k="oneway" v="yes"/>
    <tag k="ref" v="I 80"/>
  </way>
  <way id="35376070" version="6" timestamp="2011-10-17T11:23:58Z" uid="207745" user="NE2" changeset="9580997">
    <nd ref="133313369"/>
    <nd ref="414737416"/>
    <tag k="bicycle" v="no"/>
    <tag k="highway" v="motorway"/>
    <tag k="lanes" v="3"/>
    <tag k="oneway" v="yes"/>
    <tag k="ref" v="I 80"/>
  </way>
  <way id="35376071" version="2" timestamp="2009-12-05T01:52:24Z" uid="99207" user="Lar Kiesel" changeset="3292890">
    <nd ref="133313316"/>
    <nd ref="133312796"/>
    <tag k="bridge" v="yes"/>
    <tag k="highway" v="residential"/>
    <tag k="layer" v="1"/>
    <tag k="name" v="W Park Hwy"/>
    <tag k="name_1" v="State Highway 66"/>
    <tag k="tiger:cfcc" v="A41"/>
    <tag k="tiger:county" v="Cass, NE"/>
    <tag k="tiger:name_base" v="Park"/>
    <tag k="tiger:name_base_1" v="State Highway 66"/>
    <tag k="tiger:name_direction_prefix" v="W"/>
    <tag k="tiger:name_type" v="Hwy"/>
    <tag k="tiger:reviewed" v="aerial"/>
    <tag k="tiger:separated" v="no"/>
    <tag k="tiger:source" v="tiger_import_dch_v0.6_20070813"/>
    <tag k="tiger:tlid" v="10376941:10376917:10375324:10375290"/>
    <tag k="tiger:upload_uuid" v="bulk_upload.pl-14a345d7-73f3-48aa-b90e-927dc8452a99"/>
  </way>
  <way id="35376071" version="3" timestamp="2010-04-07T18:32:14Z" uid="20587" user="balrog-kun" changeset="4355872">
    <nd ref="133313316"/>
    <nd ref="133312796"/>
    <tag k="bridge" v="yes"/>
    <tag k="highway" v="residential"/>
    <tag k="layer" v="1"/>
    <tag k="name" v="West Park Highway"/>
    <tag k="name_1" v="State Highway 66"/>
    <tag k="tiger:cfcc" v="A41"/>
    <tag k="tiger:county" v="Cass, NE"/>
    <tag k="tiger:name_base" v="Park"/>
    <tag k="tiger:name_base_1" v="State Highway 66"/>
    <tag k="tiger:name_direction_prefix" v="W"/>
    <tag k="tiger:name_type" v="Hwy"/>
    <tag k="tiger:reviewed" v="aerial"/>
    <tag k="tiger:separated" v="no"/>
    <tag k="tiger:source" v="tiger_import_dch_v0.6_20070813"/>
    <tag k="tiger:tlid" v="10376941:10376917:10375324:10375290"/>
  </way>
  <way id="35376071" version="4" timestamp="2011-02-06T04:30:08Z" uid="193314" user="mdroads" changeset="7199861">
    <nd ref="133313316"/>
    <nd ref="133312796"/>
    <tag k="bridge" v="yes"/>
    <tag k="highway" v="secondary"/>
    <tag k="layer" v="1"/>
    <tag k="name" v="West Park Highway"/>
    <tag k="name_1" v="State Highway 66"/>
    <tag k="tiger:cfcc" v="A41"/>
    <tag k="tiger:county" v="Cass, NE"/>
    <tag k="tiger:name_base" v="Park"/>
    <tag k="tiger:name_base_1" v="State Highway 66"/>
    <tag k="tiger:name_direction_prefix" v="W"/>
    <tag k="tiger:name_type" v="Hwy"/>
    <tag k="tiger:reviewed" v="aerial"/>
    <tag k="tiger:separated" v="no"/>
    <tag k="tiger:source" v="tiger_import_dch_v0.6_20070813"/>
    <tag k="tiger:tlid" v="10376941:10376917:10375324:10375290"/>
  </way>
  <way id="35376071" version="5" timestamp="2011-02-06T04:44:15Z" uid="193314" user="mdroads" changeset="7199861">
    <nd ref="133313316"/>
    <nd ref="133312796"/>
    <tag k="bridge" v="yes"/>
    <tag k="highway" v="secondary"/>
    <tag k="layer" v="1"/>
    <tag k="name" v="West Park Highway"/>
    <tag k="name_1" v="State Highway 66"/>
    <tag k="ref" v="NE 66"/>
    <tag k="tiger:cfcc" v="A41"/>
    <tag k="tiger:county" v="Cass, NE"/>
    <tag k="tiger:name_base" v="Park"/>
    <tag k="tiger:name_base_1" v="State Highway 66"/>
    <tag k="tiger:name_direction_prefix" v="W"/>
    <tag k="tiger:name_type" v="Hwy"/>
    <tag k="tiger:reviewed" v="aerial"/>
    <tag k="tiger:separated" v="no"/>
    <tag k="tiger:source" v="tiger_import_dch_v0.6_20070813"/>
    <tag k="tiger:tlid" v="10376941:10376917:10375324:10375290"/>
  </way>
  <way id="35376072" version="2" timestamp="2009-12-05T01:52:22Z" uid="99207" user="Lar Kiesel" changeset="3292890">
    <nd ref="133293275"/>
    <nd ref="133293278"/>
    <tag k="bridge" v="yes"/>
    <tag k="highway" v="residential"/>
    <tag k="layer" v="1"/>
    <tag k="name" v="262nd St"/>
    <tag k="tiger:cfcc" v="A41"/>
    <tag k="tiger:county" v="Cass, NE"/>
    <tag k="tiger:name_base" v="262nd"/>
    <tag k="tiger:name_type" v="St"/>
    <tag k="tiger:reviewed" v="aerial"/>
    <tag k="tiger:separated" v="no"/>
    <tag k="tiger:source" v="tiger_import_dch_v0.6_20070813"/>
    <tag k="tiger:tlid" v="10369313:10369315:10374596:10369316:10369317:10376731:10368566:10368567:10368557:10368562:10368563:10362837:10368564:10368565:10368558:10368559:10367970:10367971:10350076:10367968:10367969:10360999:10350414:10366270:10366271:10350505:10350326:10366266:103"/>
    <tag k="tiger:upload_uuid" v="bulk_upload.pl-14a345d7-73f3-48aa-b90e-927dc8452a99"/>
    <tag k="tiger:zip_left" v="68003"/>
    <tag k="tiger:zip_right" v="68003"/>
  </way>
  <way id="35376072" version="3" timestamp="2010-04-07T18:32:14Z" uid="20587" user="balrog-kun" changeset="4355872">
    <nd ref="133293275"/>
    <nd ref="133293278"/>
    <tag k="bridge" v="yes"/>
    <tag k="highway" v="residential"/>
    <tag k="layer" v="1"/>
    <tag k="name" v="262nd Street"/>
    <tag k="tiger:cfcc" v="A41"/>
    <tag k="tiger:county" v="Cass, NE"/>
    <tag k="tiger:name_base" v="262nd"/>
    <tag k="tiger:name_type" v="St"/>
    <tag k="tiger:reviewed" v="aerial"/>
    <tag k="tiger:separated" v="no"/>
    <tag k="tiger:source" v="tiger_import_dch_v0.6_20070813"/>
    <tag k="tiger:tlid" v="10369313:10369315:10374596:10369316:10369317:10376731:10368566:10368567:10368557:10368562:10368563:10362837:10368564:10368565:10368558:10368559:10367970:10367971:10350076:10367968:10367969:10360999:10350414:10366270:10366271:10350505:10350326:10366266:103"/>
    <tag k="tiger:zip_left" v="68003"/>
    <tag k="tiger:zip_right" v="68003"/>
  </way>
  <way id="35376073" version="2" timestamp="2010-04-07T18:32:14Z" uid="20587" user="balrog-kun" changeset="4355872">
    <nd ref="133293278"/>
    <nd ref="133293280"/>
    <nd ref="133293284"/>
    <nd ref="133293288"/>
    <nd ref="133293291"/>
    <nd ref="133221184"/>
    <nd ref="133293298"/>
    <nd ref="133161564"/>
    <nd ref="133293302"/>
    <nd ref="133161699"/>
    <nd ref="133293306"/>
    <nd ref="133293310"/>
    <nd ref="133293316"/>
    <nd ref="133161784"/>
    <nd ref="133293321"/>
    <nd ref="133150553"/>
    <nd ref="133293324"/>
    <nd ref="133293326"/>
    <nd ref="133293330"/>
    <nd ref="133293333"/>
    <nd ref="133293336"/>
    <nd ref="133163078"/>
    <nd ref="133293338"/>
    <nd ref="133293341"/>
    <nd ref="133293343"/>
    <nd ref="133171318"/>
    <nd ref="133293345"/>
    <nd ref="133189922"/>
    <nd ref="133293349"/>
    <nd ref="133189960"/>
    <nd ref="133293353"/>
    <nd ref="133293358"/>
    <nd ref="133293361"/>
    <nd ref="133293365"/>
    <nd ref="133293368"/>
    <nd ref="133293371"/>
    <nd ref="133293373"/>
    <nd ref="133293376"/>
    <nd ref="133293380"/>
    <nd ref="133293385"/>
    <nd ref="133293387"/>
    <nd ref="133293390"/>
    <nd ref="133293392"/>
    <nd ref="133293397"/>
    <nd ref="133293405"/>
    <nd ref="133293409"/>
    <nd ref="133293414"/>
    <nd ref="133241863"/>
    <nd ref="133293416"/>
    <nd ref="133293418"/>
    <nd ref="133241876"/>
    <nd ref="133241906"/>
    <nd ref="133293421"/>
    <nd ref="133293428"/>
    <nd ref="133293431"/>
    <nd ref="133293435"/>
    <nd ref="133293439"/>
    <nd ref="133191855"/>
    <nd ref="133293444"/>
    <nd ref="133293448"/>
    <nd ref="133293452"/>
    <nd ref="133272343"/>
    <nd ref="133293458"/>
    <nd ref="133253331"/>
    <nd ref="133253366"/>
    <nd ref="133293461"/>
    <nd ref="133293465"/>
    <nd ref="133293469"/>
    <nd ref="133293474"/>
    <nd ref="133293478"/>
    <nd ref="133293480"/>
    <nd ref="133293481"/>
    <nd ref="133226002"/>
    <nd ref="133226026"/>
    <nd ref="133293484"/>
    <nd ref="133293487"/>
    <nd ref="133293491"/>
    <nd ref="133293495"/>
    <nd ref="133293499"/>
    <nd ref="133293502"/>
    <nd ref="133293506"/>
    <nd ref="133293508"/>
    <nd ref="133293511"/>
    <nd ref="133293516"/>
    <nd ref="133226042"/>
    <nd ref="133293520"/>
    <nd ref="133279757"/>
    <nd ref="133293522"/>
    <nd ref="133293526"/>
    <nd ref="133293528"/>
    <nd ref="133293532"/>
    <nd ref="133293535"/>
    <nd ref="133293540"/>
    <nd ref="133293543"/>
    <nd ref="133293548"/>
    <nd ref="133293553"/>
    <nd ref="133293556"/>
    <nd ref="133293560"/>
    <nd ref="133293565"/>
    <nd ref="133293569"/>
    <nd ref="133293572"/>
    <nd ref="133293574"/>
    <nd ref="133174191"/>
    <nd ref="133293578"/>
    <nd ref="133293582"/>
    <nd ref="133236746"/>
    <nd ref="133293587"/>
    <nd ref="133293593"/>
    <nd ref="133293595"/>
    <nd ref="133264468"/>
    <nd ref="133293598"/>
    <nd ref="133293601"/>
    <nd ref="133293604"/>
    <nd ref="133293611"/>
    <nd ref="133293614"/>
    <nd ref="133235515"/>
    <nd ref="133293618"/>
    <nd ref="133293622"/>
    <nd ref="133293625"/>
    <nd ref="133293629"/>
    <nd ref="133249547"/>
    <nd ref="133186584"/>
    <nd ref="133293633"/>
    <nd ref="133290992"/>
    <nd ref="133242436"/>
    <nd ref="133293637"/>
    <nd ref="133293641"/>
    <nd ref="133293645"/>
    <nd ref="133242449"/>
    <nd ref="133188977"/>
    <nd ref="133293649"/>
    <nd ref="133293652"/>
    <nd ref="133293655"/>
    <nd ref="133289895"/>
    <tag k="highway" v="residential"/>
    <tag k="name" v="262nd Street"/>
    <tag k="tiger:cfcc" v="A41"/>
    <tag k="tiger:county" v="Cass, NE"/>
    <tag k="tiger:name_base" v="262nd"/>
    <tag k="tiger:name_type" v="St"/>
    <tag k="tiger:reviewed" v="no"/>
    <tag k="tiger:separated" v="no"/>
    <tag k="tiger:source" v="tiger_import_dch_v0.6_20070813"/>
    <tag k="tiger:tlid" v="10369313:10369315:10374596:10369316:10369317:10376731:10368566:10368567:10368557:10368562:10368563:10362837:10368564:10368565:10368558:10368559:10367970:10367971:10350076:10367968:10367969:10360999:10350414:10366270:10366271:10350505:10350326:10366266:103"/>
    <tag k="tiger:zip_left" v="68003"/>
    <tag k="tiger:zip_right" v="68003"/>
  </way>
  <way id="35376073" version="3" timestamp="2011-08-27T15:53:30Z" uid="28378" user="PHerison" changeset="9139028">
    <nd ref="133293278"/>
    <nd ref="133293280"/>
    <nd ref="133293284"/>
    <nd ref="133293288"/>
    <nd ref="133293291"/>
    <nd ref="133221184"/>
    <nd ref="133293298"/>
    <nd ref="133161564"/>
    <nd ref="133293302"/>
    <nd ref="133161699"/>
    <nd ref="133293306"/>
    <nd ref="133293310"/>
    <nd ref="133293316"/>
    <nd ref="133161784"/>
    <nd ref="133293321"/>
    <nd ref="133150553"/>
    <nd ref="133293324"/>
    <nd ref="133293326"/>
    <nd ref="133293330"/>
    <nd ref="133293333"/>
    <nd ref="133293336"/>
    <nd ref="133163078"/>
    <nd ref="133293338"/>
    <nd ref="133293341"/>
    <nd ref="133293343"/>
    <nd ref="133171318"/>
    <nd ref="133293345"/>
    <nd ref="133189922"/>
    <nd ref="133293349"/>
    <nd ref="133189960"/>
    <nd ref="133293353"/>
    <nd ref="133293358"/>
    <nd ref="133293361"/>
    <nd ref="133293368"/>
    <nd ref="133293371"/>
    <tag k="highway" v="residential"/>
    <tag k="name" v="262nd Street"/>
    <tag k="tiger:cfcc" v="A41"/>
    <tag k="tiger:county" v="Cass, NE"/>
    <tag k="tiger:name_base" v="262nd"/>
    <tag k="tiger:name_type" v="St"/>
    <tag k="tiger:reviewed" v="no"/>
    <tag k="tiger:separated" v="no"/>
    <tag k="tiger:source" v="tiger_import_dch_v0.6_20070813"/>
    <tag k="tiger:tlid" v="10369313:10369315:10374596:10369316:10369317:10376731:10368566:10368567:10368557:10368562:10368563:10362837:10368564:10368565:10368558:10368559:10367970:10367971:10350076:10367968:10367969:10360999:10350414:10366270:10366271:10350505:10350326:10366266:103"/>
    <tag k="tiger:zip_left" v="68003"/>
    <tag k="tiger:zip_right" v="68003"/>
  </way>
  <way id="35376074" version="2" timestamp="2009-11-14T02:07:41Z" uid="99207" user="Lar Kiesel" changeset="3110273">
    <nd ref="414737445"/>
    <nd ref="414737446"/>
    <tag k="bridge" v="yes"/>
    <tag k="highway" v="motorway"/>
    <tag k="name" v="I-80"/>
    <tag k="oneway" v="yes"/>
    <tag k="ref" v="I-80"/>
  </way>
  <way id="35376074" version="3" timestamp="2009-11-17T04:01:20Z" uid="99207" user="Lar Kiesel" changeset="3138329">
    <nd ref="414737445"/>
    <nd ref="414737446"/>
    <tag k="bridge" v="yes"/>
    <tag k="highway" v="motorway"/>
    <tag k="name" v="I-80"/>
    <tag k="oneway" v="yes"/>
    <tag k="ref" v="I 80"/>
  </way>
  <way id="35376074" version="4" timestamp="2009-12-05T01:52:22Z" uid="99207" user="Lar Kiesel" changeset="3292890">
    <nd ref="414737445"/>
    <nd ref="414737446"/>
    <tag k="bridge" v="yes"/>
    <tag k="highway" v="motorway"/>
    <tag k="layer" v="1"/>
    <tag k="name" v="I-80"/>
    <tag k="oneway" v="yes"/>
    <tag k="ref" v="I 80"/>
  </way>
  <way id="35376074" version="5" timestamp="2011-06-27T22:46:24Z" uid="473471" user="NE3" changeset="8567175">
    <nd ref="414737445"/>
    <nd ref="414737446"/>
    <tag k="FIXME" v="Is construction done?"/>
    <tag k="bridge" v="yes"/>
    <tag k="construction" v="widening"/>
    <tag k="highway" v="motorway"/>
    <tag k="lanes" v="2"/>
    <tag k="layer" v="1"/>
    <tag k="oneway" v="yes"/>
    <tag k="ref" v="I 80"/>
  </way>
  <way id="35376074" version="6" timestamp="2011-10-17T11:24:04Z" uid="207745" user="NE2" changeset="9580997">
    <nd ref="414737445"/>
    <nd ref="414737446"/>
    <tag k="FIXME" v="Is construction done?"/>
    <tag k="bicycle" v="no"/>
    <tag k="bridge" v="yes"/>
    <tag k="construction" v="widening"/>
    <tag k="highway" v="motorway"/>
    <tag k="lanes" v="2"/>
    <tag k="layer" v="1"/>
    <tag k="oneway" v="yes"/>
    <tag k="ref" v="I 80"/>
  </way>
  <way id="35376075" version="2" timestamp="2009-11-14T02:07:51Z" uid="99207" user="Lar Kiesel" changeset="3110273">
    <nd ref="414737446"/>
    <nd ref="414737447"/>
    <nd ref="414737448"/>
    <tag k="highway" v="motorway"/>
    <tag k="name" v="I-80"/>
    <tag k="oneway" v="yes"/>
    <tag k="ref" v="I-80"/>
  </way>
  <way id="35376075" version="3" timestamp="2009-11-17T04:01:26Z" uid="99207" user="Lar Kiesel" changeset="3138329">
    <nd ref="414737446"/>
    <nd ref="414737447"/>
    <nd ref="414737448"/>
    <tag k="highway" v="motorway"/>
    <tag k="name" v="I-80"/>
    <tag k="oneway" v="yes"/>
    <tag k="ref" v="I 80"/>
  </way>
  <way id="35376075" version="4" timestamp="2011-06-27T22:50:01Z" uid="473471" user="NE3" changeset="8567175">
    <nd ref="414737446"/>
    <nd ref="414737447"/>
    <nd ref="414737448"/>
    <tag k="FIXME" v="Is construction done?"/>
    <tag k="construction" v="widening"/>
    <tag k="highway" v="motorway"/>
    <tag k="lanes" v="2"/>
    <tag k="oneway" v="yes"/>
    <tag k="ref" v="I 80"/>
  </way>
  <way id="35376075" version="5" timestamp="2011-10-17T11:24:31Z" uid="207745" user="NE2" changeset="9580997">
    <nd ref="414737446"/>
    <nd ref="414737447"/>
    <nd ref="414737448"/>
    <tag k="FIXME" v="Is construction done?"/>
    <tag k="bicycle" v="no"/>
    <tag k="construction" v="widening"/>
    <tag k="highway" v="motorway"/>
    <tag k="lanes" v="2"/>
    <tag k="oneway" v="yes"/>
    <tag k="ref" v="I 80"/>
  </way>
  <way id="35376076" version="2" timestamp="2009-11-14T02:07:48Z" uid="99207" user="Lar Kiesel" changeset="3110273">
    <nd ref="414737448"/>
    <nd ref="414737449"/>
    <tag k="bridge" v="yes"/>
    <tag k="highway" v="motorway"/>
    <tag k="name" v="I-80"/>
    <tag k="oneway" v="yes"/>
    <tag k="ref" v="I-80"/>
  </way>
  <way id="35376076" version="3" timestamp="2009-11-17T04:01:25Z" uid="99207" user="Lar Kiesel" changeset="3138329">
    <nd ref="414737448"/>
    <nd ref="414737449"/>
    <tag k="bridge" v="yes"/>
    <tag k="highway" v="motorway"/>
    <tag k="name" v="I-80"/>
    <tag k="oneway" v="yes"/>
    <tag k="ref" v="I 80"/>
  </way>
  <way id="35376076" version="4" timestamp="2011-06-27T22:37:39Z" uid="473471" user="NE3" changeset="8567175">
    <nd ref="414737448"/>
    <nd ref="414737449"/>
    <tag k="FIXME" v="Is construction done?"/>
    <tag k="bridge" v="yes"/>
    <tag k="construction" v="widening"/>
    <tag k="highway" v="motorway"/>
    <tag k="lanes" v="2"/>
    <tag k="oneway" v="yes"/>
    <tag k="ref" v="I 80"/>
  </way>
  <way id="35376076" version="5" timestamp="2011-10-17T11:23:17Z" uid="207745" user="NE2" changeset="9580997">
    <nd ref="414737448"/>
    <nd ref="414737449"/>
    <tag k="FIXME" v="Is construction done?"/>
    <tag k="bicycle" v="no"/>
    <tag k="bridge" v="yes"/>
    <tag k="construction" v="widening"/>
    <tag k="highway" v="motorway"/>
    <tag k="lanes" v="2"/>
    <tag k="oneway" v="yes"/>
    <tag k="ref" v="I 80"/>
  </way>
  <way id="35376077" version="2" timestamp="2009-11-14T02:07:59Z" uid="99207" user="Lar Kiesel" changeset="3110273">
    <nd ref="414737449"/>
    <nd ref="414737450"/>
    <nd ref="414737451"/>
    <nd ref="133177185"/>
    <nd ref="414737452"/>
    <nd ref="414737453"/>
    <nd ref="133177073"/>
    <nd ref="414737454"/>
    <nd ref="414737455"/>
    <nd ref="414737457"/>
    <nd ref="414737458"/>
    <nd ref="414737459"/>
    <nd ref="414737460"/>
    <nd ref="414737461"/>
    <nd ref="414737462"/>
    <nd ref="414737463"/>
    <nd ref="414737464"/>
    <nd ref="414737465"/>
    <nd ref="414737466"/>
    <nd ref="414737467"/>
    <nd ref="414737468"/>
    <nd ref="414737469"/>
    <nd ref="414737470"/>
    <nd ref="414737471"/>
    <nd ref="414737472"/>
    <nd ref="414737473"/>
    <nd ref="133189136"/>
    <nd ref="414737474"/>
    <nd ref="414737475"/>
    <nd ref="133176309"/>
    <tag k="highway" v="motorway"/>
    <tag k="name" v="I-80"/>
    <tag k="oneway" v="yes"/>
    <tag k="ref" v="I-80"/>
  </way>
  <way id="35376077" version="3" timestamp="2009-11-17T04:01:25Z" uid="99207" user="Lar Kiesel" changeset="3138329">
    <nd ref="414737449"/>
    <nd ref="414737450"/>
    <nd ref="414737451"/>
    <nd ref="133177185"/>
    <nd ref="414737452"/>
    <nd ref="414737453"/>
    <nd ref="133177073"/>
    <nd ref="414737454"/>
    <nd ref="414737455"/>
    <nd ref="414737457"/>
    <nd ref="414737458"/>
    <nd ref="414737459"/>
    <nd ref="414737460"/>
    <nd ref="414737461"/>
    <nd ref="414737462"/>
    <nd ref="414737463"/>
    <nd ref="414737464"/>
    <nd ref="414737465"/>
    <nd ref="414737466"/>
    <nd ref="414737467"/>
    <nd ref="414737468"/>
    <nd ref="414737469"/>
    <nd ref="414737470"/>
    <nd ref="414737471"/>
    <nd ref="414737472"/>
    <nd ref="414737473"/>
    <nd ref="133189136"/>
    <nd ref="414737474"/>
    <nd ref="414737475"/>
    <nd ref="133176309"/>
    <tag k="highway" v="motorway"/>
    <tag k="name" v="I-80"/>
    <tag k="oneway" v="yes"/>
    <tag k="ref" v="I 80"/>
  </way>
  <way id="35376077" version="4" timestamp="2011-06-27T22:41:03Z" uid="473471" user="NE3" changeset="8567175">
    <nd ref="414737449"/>
    <nd ref="414737450"/>
    <nd ref="414737451"/>
    <nd ref="133177185"/>
    <nd ref="414737452"/>
    <nd ref="414737453"/>
    <nd ref="133177073"/>
    <nd ref="414737454"/>
    <nd ref="414737455"/>
    <nd ref="414737457"/>
    <nd ref="414737458"/>
    <nd ref="414737459"/>
    <nd ref="414737460"/>
    <nd ref="414737461"/>
    <nd ref="414737462"/>
    <nd ref="414737463"/>
    <nd ref="414737464"/>
    <nd ref="414737465"/>
    <nd ref="414737466"/>
    <nd ref="414737467"/>
    <nd ref="414737468"/>
    <nd ref="414737469"/>
    <nd ref="414737470"/>
    <nd ref="414737471"/>
    <nd ref="414737472"/>
    <nd ref="414737473"/>
    <nd ref="133189136"/>
    <nd ref="414737474"/>
    <nd ref="414737475"/>
    <nd ref="133176309"/>
    <tag k="FIXME" v="Is construction done?"/>
    <tag k="construction" v="widening"/>
    <tag k="highway" v="motorway"/>
    <tag k="lanes" v="2"/>
    <tag k="oneway" v="yes"/>
    <tag k="ref" v="I 80"/>
  </way>
  <way id="35376077" version="5" timestamp="2011-08-27T19:08:49Z" uid="28378" user="PHerison" changeset="9140606">
    <nd ref="414737449"/>
    <nd ref="414737450"/>
    <nd ref="414737451"/>
    <nd ref="133177185"/>
    <nd ref="414737452"/>
    <nd ref="414737453"/>
    <nd ref="133177073"/>
    <nd ref="414737454"/>
    <nd ref="414737455"/>
    <nd ref="414737457"/>
    <nd ref="414737458"/>
    <nd ref="414737459"/>
    <nd ref="414737460"/>
    <nd ref="414737461"/>
    <nd ref="414737462"/>
    <nd ref="414737463"/>
    <nd ref="414737464"/>
    <nd ref="1415190361"/>
    <tag k="FIXME" v="Is construction done?"/>
    <tag k="construction" v="widening"/>
    <tag k="highway" v="motorway"/>
    <tag k="lanes" v="2"/>
    <tag k="oneway" v="yes"/>
    <tag k="ref" v="I 80"/>
  </way>
  <way id="35376077" version="6" timestamp="2011-10-17T11:23:07Z" uid="207745" user="NE2" changeset="9580997">
    <nd ref="414737449"/>
    <nd ref="414737450"/>
    <nd ref="414737451"/>
    <nd ref="133177185"/>
    <nd ref="414737452"/>
    <nd ref="414737453"/>
    <nd ref="133177073"/>
    <nd ref="414737454"/>
    <nd ref="414737455"/>
    <nd ref="414737457"/>
    <nd ref="414737458"/>
    <nd ref="414737459"/>
    <nd ref="414737460"/>
    <nd ref="414737461"/>
    <nd ref="414737462"/>
    <nd ref="414737463"/>
    <nd ref="414737464"/>
    <nd ref="1415190361"/>
    <tag k="FIXME" v="Is construction done?"/>
    <tag k="bicycle" v="no"/>
    <tag k="construction" v="widening"/>
    <tag k="highway" v="motorway"/>
    <tag k="lanes" v="2"/>
    <tag k="oneway" v="yes"/>
    <tag k="ref" v="I 80"/>
  </way>
  <way id="35376078" version="2" timestamp="2009-12-05T01:52:21Z" uid="99207" user="Lar Kiesel" changeset="3292890">
    <nd ref="133276793"/>
    <nd ref="133276805"/>
    <tag k="bridge" v="yes"/>
    <tag k="highway" v="secondary"/>
    <tag k="layer" v="1"/>
    <tag k="name" v="238th St"/>
    <tag k="name_1" v="State Highway 63"/>
    <tag k="tiger:cfcc" v="A31"/>
    <tag k="tiger:county" v="Cass, NE"/>
    <tag k="tiger:name_base" v="238th"/>
    <tag k="tiger:name_base_1" v="State Highway 63"/>
    <tag k="tiger:name_type" v="St"/>
    <tag k="tiger:reviewed" v="aerial"/>
    <tag k="tiger:separated" v="no"/>
    <tag k="tiger:source" v="tiger_import_dch_v0.6_20070813"/>
    <tag k="tiger:tlid" v="10369242:10369244:10369246:10369247:10347500:10357108:10349562:10347479:10349921:10349754:10357692:10349929:10349967:10349968:10351196:10365810:10365811"/>
    <tag k="tiger:upload_uuid" v="bulk_upload.pl-14a345d7-73f3-48aa-b90e-927dc8452a99"/>
    <tag k="tiger:zip_left" v="68366"/>
    <tag k="tiger:zip_right" v="68003"/>
  </way>
  <way id="35376078" version="3" timestamp="2010-04-07T18:32:17Z" uid="20587" user="balrog-kun" changeset="4355872">
    <nd ref="133276793"/>
    <nd ref="133276805"/>
    <tag k="bridge" v="yes"/>
    <tag k="highway" v="secondary"/>
    <tag k="layer" v="1"/>
    <tag k="name" v="238th Street"/>
    <tag k="name_1" v="State Highway 63"/>
    <tag k="tiger:cfcc" v="A31"/>
    <tag k="tiger:county" v="Cass, NE"/>
    <tag k="tiger:name_base" v="238th"/>
    <tag k="tiger:name_base_1" v="State Highway 63"/>
    <tag k="tiger:name_type" v="St"/>
    <tag k="tiger:reviewed" v="aerial"/>
    <tag k="tiger:separated" v="no"/>
    <tag k="tiger:source" v="tiger_import_dch_v0.6_20070813"/>
    <tag k="tiger:tlid" v="10369242:10369244:10369246:10369247:10347500:10357108:10349562:10347479:10349921:10349754:10357692:10349929:10349967:10349968:10351196:10365810:10365811"/>
    <tag k="tiger:zip_left" v="68366"/>
    <tag k="tiger:zip_right" v="68003"/>
  </way>
  <way id="35376079" version="2" timestamp="2010-04-07T18:32:17Z" uid="20587" user="balrog-kun" changeset="4355872">
    <nd ref="133276805"/>
    <nd ref="133177150"/>
    <nd ref="133236140"/>
    <nd ref="133276812"/>
    <nd ref="133160539"/>
    <nd ref="133219196"/>
    <nd ref="133160562"/>
    <nd ref="133219137"/>
    <nd ref="133219077"/>
    <nd ref="133276816"/>
    <nd ref="133276821"/>
    <nd ref="133276837"/>
    <nd ref="133160483"/>
    <nd ref="133160467"/>
    <nd ref="133160528"/>
    <nd ref="133276841"/>
    <nd ref="133276844"/>
    <nd ref="133276847"/>
    <nd ref="133276850"/>
    <nd ref="133276853"/>
    <nd ref="133276856"/>
    <nd ref="133276860"/>
    <nd ref="133276862"/>
    <nd ref="133276866"/>
    <nd ref="133276870"/>
    <nd ref="133276873"/>
    <nd ref="133276876"/>
    <nd ref="133276879"/>
    <nd ref="133276883"/>
    <nd ref="133276886"/>
    <nd ref="133276889"/>
    <nd ref="133276891"/>
    <nd ref="133144181"/>
    <nd ref="133210843"/>
    <nd ref="133276894"/>
    <nd ref="133163112"/>
    <nd ref="133276897"/>
    <nd ref="133276901"/>
    <nd ref="133276904"/>
    <nd ref="133276907"/>
    <nd ref="133276911"/>
    <nd ref="133276913"/>
    <tag k="highway" v="secondary"/>
    <tag k="name" v="238th Street"/>
    <tag k="name_1" v="State Highway 63"/>
    <tag k="tiger:cfcc" v="A31"/>
    <tag k="tiger:county" v="Cass, NE"/>
    <tag k="tiger:name_base" v="238th"/>
    <tag k="tiger:name_base_1" v="State Highway 63"/>
    <tag k="tiger:name_type" v="St"/>
    <tag k="tiger:reviewed" v="no"/>
    <tag k="tiger:separated" v="no"/>
    <tag k="tiger:source" v="tiger_import_dch_v0.6_20070813"/>
    <tag k="tiger:tlid" v="10369242:10369244:10369246:10369247:10347500:10357108:10349562:10347479:10349921:10349754:10357692:10349929:10349967:10349968:10351196:10365810:10365811"/>
    <tag k="tiger:zip_left" v="68366"/>
    <tag k="tiger:zip_right" v="68003"/>
  </way>
  <way id="35376079" version="3" timestamp="2011-02-06T04:30:07Z" uid="193314" user="mdroads" changeset="7199861">
    <nd ref="133276805"/>
    <nd ref="133177150"/>
    <nd ref="133236140"/>
    <nd ref="133276812"/>
    <nd ref="133160539"/>
    <nd ref="133219196"/>
    <nd ref="133160562"/>
    <nd ref="133219137"/>
    <nd ref="133219077"/>
    <nd ref="133276816"/>
    <nd ref="133276821"/>
    <nd ref="133276837"/>
    <nd ref="133160483"/>
    <nd ref="133160467"/>
    <nd ref="133160528"/>
    <nd ref="133276841"/>
    <nd ref="133276844"/>
    <nd ref="133276847"/>
    <nd ref="133276850"/>
    <nd ref="133276853"/>
    <nd ref="133276856"/>
    <nd ref="133276860"/>
    <nd ref="133276862"/>
    <nd ref="133276866"/>
    <nd ref="133276870"/>
    <nd ref="133276873"/>
    <nd ref="133276876"/>
    <nd ref="133276879"/>
    <nd ref="133276883"/>
    <nd ref="133276886"/>
    <nd ref="133276889"/>
    <nd ref="133276891"/>
    <nd ref="133144181"/>
    <nd ref="133210843"/>
    <nd ref="133276894"/>
    <nd ref="133163112"/>
    <nd ref="133276897"/>
    <nd ref="133276901"/>
    <nd ref="133276904"/>
    <nd ref="133276907"/>
    <nd ref="133276911"/>
    <nd ref="133276913"/>
    <tag k="highway" v="secondary"/>
    <tag k="name" v="238th Street"/>
    <tag k="name_1" v="State Highway 63"/>
    <tag k="ref" v="NE 63"/>
    <tag k="tiger:cfcc" v="A31"/>
    <tag k="tiger:county" v="Cass, NE"/>
    <tag k="tiger:name_base" v="238th"/>
    <tag k="tiger:name_base_1" v="State Highway 63"/>
    <tag k="tiger:name_type" v="St"/>
    <tag k="tiger:reviewed" v="no"/>
    <tag k="tiger:separated" v="no"/>
    <tag k="tiger:source" v="tiger_import_dch_v0.6_20070813"/>
    <tag k="tiger:tlid" v="10369242:10369244:10369246:10369247:10347500:10357108:10349562:10347479:10349921:10349754:10357692:10349929:10349967:10349968:10351196:10365810:10365811"/>
    <tag k="tiger:zip_left" v="68366"/>
    <tag k="tiger:zip_right" v="68003"/>
  </way>
  <way id="35376079" version="4" timestamp="2011-08-27T15:53:27Z" uid="28378" user="PHerison" changeset="9139028">
    <nd ref="133276805"/>
    <nd ref="133177150"/>
    <nd ref="133236140"/>
    <nd ref="133276812"/>
    <nd ref="133160539"/>
    <nd ref="133219196"/>
    <nd ref="133160562"/>
    <nd ref="133219137"/>
    <nd ref="133219077"/>
    <nd ref="133276816"/>
    <nd ref="133276821"/>
    <nd ref="133276837"/>
    <nd ref="133160483"/>
    <nd ref="133160467"/>
    <nd ref="133160528"/>
    <nd ref="133276841"/>
    <nd ref="133276844"/>
    <nd ref="133276847"/>
    <nd ref="133276850"/>
    <nd ref="133276853"/>
    <nd ref="133276856"/>
    <nd ref="133276860"/>
    <nd ref="133276862"/>
    <nd ref="133276866"/>
    <nd ref="133276870"/>
    <nd ref="133276873"/>
    <tag k="highway" v="secondary"/>
    <tag k="name" v="238th Street"/>
    <tag k="name_1" v="State Highway 63"/>
    <tag k="ref" v="NE 63"/>
    <tag k="tiger:cfcc" v="A31"/>
    <tag k="tiger:county" v="Cass, NE"/>
    <tag k="tiger:name_base" v="238th"/>
    <tag k="tiger:name_base_1" v="State Highway 63"/>
    <tag k="tiger:name_type" v="St"/>
    <tag k="tiger:reviewed" v="no"/>
    <tag k="tiger:separated" v="no"/>
    <tag k="tiger:source" v="tiger_import_dch_v0.6_20070813"/>
    <tag k="tiger:tlid" v="10369242:10369244:10369246:10369247:10347500:10357108:10349562:10347479:10349921:10349754:10357692:10349929:10349967:10349968:10351196:10365810:10365811"/>
    <tag k="tiger:zip_left" v="68366"/>
    <tag k="tiger:zip_right" v="68003"/>
  </way>
  <way id="35376080" version="2" timestamp="2010-04-07T18:32:18Z" uid="20587" user="balrog-kun" changeset="4355872">
    <nd ref="133312526"/>
    <nd ref="133313011"/>
    <tag k="bridge" v="yes"/>
    <tag k="highway" v="residential"/>
    <tag k="name" v="Church Road"/>
    <tag k="tiger:cfcc" v="A41"/>
    <tag k="tiger:county" v="Cass, NE"/>
    <tag k="tiger:name_base" v="Church"/>
    <tag k="tiger:name_type" v="Rd"/>
    <tag k="tiger:reviewed" v="yes"/>
    <tag k="tiger:separated" v="no"/>
    <tag k="tiger:source" v="tiger_import_dch_v0.6_20070813"/>
    <tag k="tiger:tlid" v="10368230:10368232:10368234:10368236:10368237:10362125:10362126:10367912:10367913:10359730:10347904"/>
  </way>
  <way id="35376081" version="2" timestamp="2010-04-07T18:32:19Z" uid="20587" user="balrog-kun" changeset="4355872">
    <nd ref="133313011"/>
    <nd ref="133316839"/>
    <nd ref="133294770"/>
    <tag k="highway" v="residential"/>
    <tag k="name" v="Church Road"/>
    <tag k="tiger:cfcc" v="A41"/>
    <tag k="tiger:county" v="Cass, NE"/>
    <tag k="tiger:name_base" v="Church"/>
    <tag k="tiger:name_type" v="Rd"/>
    <tag k="tiger:reviewed" v="no"/>
    <tag k="tiger:separated" v="no"/>
    <tag k="tiger:source" v="tiger_import_dch_v0.6_20070813"/>
    <tag k="tiger:tlid" v="10368230:10368232:10368234:10368236:10368237:10362125:10362126:10367912:10367913:10359730:10347904"/>
  </way>
  <way id="35376084" version="2" timestamp="2010-04-07T18:32:19Z" uid="20587" user="balrog-kun" changeset="4355872">
    <nd ref="133291998"/>
    <nd ref="133292002"/>
    <nd ref="133292007"/>
    <nd ref="133292011"/>
    <nd ref="133292014"/>
    <nd ref="133200012"/>
    <nd ref="133292017"/>
    <nd ref="133292027"/>
    <nd ref="133292031"/>
    <nd ref="133247782"/>
    <nd ref="133247650"/>
    <nd ref="133292034"/>
    <nd ref="133292042"/>
    <nd ref="133292046"/>
    <nd ref="133189398"/>
    <nd ref="133292051"/>
    <nd ref="133189368"/>
    <nd ref="133189322"/>
    <nd ref="133189280"/>
    <nd ref="133292056"/>
    <nd ref="133292059"/>
    <nd ref="133292062"/>
    <nd ref="133292064"/>
    <nd ref="133292067"/>
    <nd ref="133292069"/>
    <nd ref="133241791"/>
    <tag k="highway" v="residential"/>
    <tag k="name" v="202nd Street"/>
    <tag k="tiger:cfcc" v="A41"/>
    <tag k="tiger:county" v="Cass, NE"/>
    <tag k="tiger:name_base" v="202nd"/>
    <tag k="tiger:name_type" v="St"/>
    <tag k="tiger:reviewed" v="no"/>
    <tag k="tiger:separated" v="no"/>
    <tag k="tiger:source" v="tiger_import_dch_v0.6_20070813"/>
    <tag k="tiger:tlid" v="10379141:10379142:10367870:10367872:10367874:10367876:10367877:10367378:10366554:10367380:10367381"/>
  </way>
  <way id="35376085" version="2" timestamp="2010-04-07T18:32:20Z" uid="20587" user="balrog-kun" changeset="4355872">
    <nd ref="414737477"/>
    <nd ref="135094276"/>
    <tag k="bridge" v="yes"/>
    <tag k="highway" v="residential"/>
    <tag k="name" v="Bluff Road"/>
    <tag k="tiger:cfcc" v="A41"/>
    <tag k="tiger:county" v="Lancaster, NE"/>
    <tag k="tiger:name_base" v="Bluff"/>
    <tag k="tiger:name_type" v="Rd"/>
    <tag k="tiger:reviewed" v="aerial"/>
    <tag k="tiger:separated" v="no"/>
    <tag k="tiger:source" v="tiger_import_dch_v0.6_20070813"/>
    <tag k="tiger:tlid" v="28290358:28246384:28246364"/>
    <tag k="tiger:zip_left" v="68462"/>
    <tag k="tiger:zip_right" v="68462"/>
  </way>
  <way id="35376087" version="2" timestamp="2009-11-14T02:07:58Z" uid="99207" user="Lar Kiesel" changeset="3110273">
    <nd ref="414737507"/>
    <nd ref="414737508"/>
    <tag k="bridge" v="yes"/>
    <tag k="highway" v="motorway"/>
    <tag k="name" v="I-80"/>
    <tag k="oneway" v="yes"/>
    <tag k="ref" v="I-80"/>
  </way>
  <way id="35376087" version="3" timestamp="2009-11-17T04:01:24Z" uid="99207" user="Lar Kiesel" changeset="3138329">
    <nd ref="414737507"/>
    <nd ref="414737508"/>
    <tag k="bridge" v="yes"/>
    <tag k="highway" v="motorway"/>
    <tag k="name" v="I-80"/>
    <tag k="oneway" v="yes"/>
    <tag k="ref" v="I 80"/>
  </way>
  <way id="35376087" version="4" timestamp="2011-06-27T22:46:06Z" uid="473471" user="NE3" changeset="8567175">
    <nd ref="414737507"/>
    <nd ref="414737508"/>
    <tag k="FIXME" v="Is construction done?"/>
    <tag k="bridge" v="yes"/>
    <tag k="construction" v="widening"/>
    <tag k="highway" v="motorway"/>
    <tag k="lanes" v="2"/>
    <tag k="oneway" v="yes"/>
    <tag k="ref" v="I 80"/>
  </way>
  <way id="35376087" version="5" timestamp="2011-10-17T11:23:46Z" uid="207745" user="NE2" changeset="9580997">
    <nd ref="414737507"/>
    <nd ref="414737508"/>
    <tag k="FIXME" v="Is construction done?"/>
    <tag k="bicycle" v="no"/>
    <tag k="bridge" v="yes"/>
    <tag k="construction" v="widening"/>
    <tag k="highway" v="motorway"/>
    <tag k="lanes" v="2"/>
    <tag k="oneway" v="yes"/>
    <tag k="ref" v="I 80"/>
  </way>
  <way id="35376088" version="2" timestamp="2009-11-14T02:07:50Z" uid="99207" user="Lar Kiesel" changeset="3110273">
    <nd ref="414737508"/>
    <nd ref="414737509"/>
    <tag k="highway" v="motorway"/>
    <tag k="name" v="I-80"/>
    <tag k="oneway" v="yes"/>
    <tag k="ref" v="I-80"/>
  </way>
  <way id="35376088" version="3" timestamp="2009-11-17T04:01:24Z" uid="99207" user="Lar Kiesel" changeset="3138329">
    <nd ref="414737508"/>
    <nd ref="414737509"/>
    <tag k="highway" v="motorway"/>
    <tag k="name" v="I-80"/>
    <tag k="oneway" v="yes"/>
    <tag k="ref" v="I 80"/>
  </way>
  <way id="35376088" version="4" timestamp="2011-06-27T22:49:36Z" uid="473471" user="NE3" changeset="8567175">
    <nd ref="414737508"/>
    <nd ref="414737509"/>
    <tag k="FIXME" v="Is construction done?"/>
    <tag k="construction" v="widening"/>
    <tag k="highway" v="motorway"/>
    <tag k="lanes" v="2"/>
    <tag k="oneway" v="yes"/>
    <tag k="ref" v="I 80"/>
  </way>
  <way id="35376088" version="5" timestamp="2011-10-17T11:23:11Z" uid="207745" user="NE2" changeset="9580997">
    <nd ref="414737508"/>
    <nd ref="414737509"/>
    <tag k="FIXME" v="Is construction done?"/>
    <tag k="bicycle" v="no"/>
    <tag k="construction" v="widening"/>
    <tag k="highway" v="motorway"/>
    <tag k="lanes" v="2"/>
    <tag k="oneway" v="yes"/>
    <tag k="ref" v="I 80"/>
  </way>
  <way id="35376089" version="2" timestamp="2009-11-14T02:07:50Z" uid="99207" user="Lar Kiesel" changeset="3110273">
    <nd ref="414737509"/>
    <nd ref="414737510"/>
    <tag k="bridge" v="yes"/>
    <tag k="highway" v="motorway"/>
    <tag k="name" v="I-80"/>
    <tag k="oneway" v="yes"/>
    <tag k="ref" v="I-80"/>
  </way>
  <way id="35376089" version="3" timestamp="2009-11-17T04:01:27Z" uid="99207" user="Lar Kiesel" changeset="3138329">
    <nd ref="414737509"/>
    <nd ref="414737510"/>
    <tag k="bridge" v="yes"/>
    <tag k="highway" v="motorway"/>
    <tag k="name" v="I-80"/>
    <tag k="oneway" v="yes"/>
    <tag k="ref" v="I 80"/>
  </way>
  <way id="35376089" version="4" timestamp="2009-12-05T01:52:23Z" uid="99207" user="Lar Kiesel" changeset="3292890">
    <nd ref="414737509"/>
    <nd ref="414737510"/>
    <tag k="bridge" v="yes"/>
    <tag k="highway" v="motorway"/>
    <tag k="layer" v="1"/>
    <tag k="name" v="I-80"/>
    <tag k="oneway" v="yes"/>
    <tag k="ref" v="I 80"/>
  </way>
  <way id="35376089" version="5" timestamp="2011-06-27T22:37:18Z" uid="473471" user="NE3" changeset="8567175">
    <nd ref="414737509"/>
    <nd ref="414737510"/>
    <tag k="FIXME" v="Is construction done?"/>
    <tag k="bridge" v="yes"/>
    <tag k="construction" v="widening"/>
    <tag k="highway" v="motorway"/>
    <tag k="lanes" v="2"/>
    <tag k="layer" v="1"/>
    <tag k="oneway" v="yes"/>
    <tag k="ref" v="I 80"/>
  </way>
  <way id="35376089" version="6" timestamp="2011-10-17T11:23:42Z" uid="207745" user="NE2" changeset="9580997">
    <nd ref="414737509"/>
    <nd ref="414737510"/>
    <tag k="FIXME" v="Is construction done?"/>
    <tag k="bicycle" v="no"/>
    <tag k="bridge" v="yes"/>
    <tag k="construction" v="widening"/>
    <tag k="highway" v="motorway"/>
    <tag k="lanes" v="2"/>
    <tag k="layer" v="1"/>
    <tag k="oneway" v="yes"/>
    <tag k="ref" v="I 80"/>
  </way>
  <way id="35376090" version="2" timestamp="2009-11-14T02:07:49Z" uid="99207" user="Lar Kiesel" changeset="3110273">
    <nd ref="414737510"/>
    <nd ref="414737512"/>
    <nd ref="414737513"/>
    <nd ref="414737514"/>
    <nd ref="414737515"/>
    <nd ref="414737516"/>
    <nd ref="414737517"/>
    <nd ref="414737518"/>
    <nd ref="414737519"/>
    <nd ref="414737520"/>
    <nd ref="414737521"/>
    <nd ref="133205091"/>
    <nd ref="133163687"/>
    <nd ref="414737522"/>
    <nd ref="414737523"/>
    <nd ref="133163811"/>
    <nd ref="414737524"/>
    <nd ref="414737525"/>
    <nd ref="414737526"/>
    <nd ref="133159342"/>
    <nd ref="414737527"/>
    <nd ref="414737528"/>
    <nd ref="414737529"/>
    <nd ref="414737530"/>
    <nd ref="414737531"/>
    <nd ref="133159434"/>
    <nd ref="414737532"/>
    <nd ref="414737537"/>
    <nd ref="133158058"/>
    <nd ref="414737533"/>
    <tag k="highway" v="motorway"/>
    <tag k="name" v="I-80"/>
    <tag k="oneway" v="yes"/>
    <tag k="ref" v="I-80"/>
  </way>
  <way id="35376090" version="3" timestamp="2009-11-17T04:01:29Z" uid="99207" user="Lar Kiesel" changeset="3138329">
    <nd ref="414737510"/>
    <nd ref="414737512"/>
    <nd ref="414737513"/>
    <nd ref="414737514"/>
    <nd ref="414737515"/>
    <nd ref="414737516"/>
    <nd ref="414737517"/>
    <nd ref="414737518"/>
    <nd ref="414737519"/>
    <nd ref="414737520"/>
    <nd ref="414737521"/>
    <nd ref="133205091"/>
    <nd ref="133163687"/>
    <nd ref="414737522"/>
    <nd ref="414737523"/>
    <nd ref="133163811"/>
    <nd ref="414737524"/>
    <nd ref="414737525"/>
    <nd ref="414737526"/>
    <nd ref="133159342"/>
    <nd ref="414737527"/>
    <nd ref="414737528"/>
    <nd ref="414737529"/>
    <nd ref="414737530"/>
    <nd ref="414737531"/>
    <nd ref="133159434"/>
    <nd ref="414737532"/>
    <nd ref="414737537"/>
    <nd ref="133158058"/>
    <nd ref="414737533"/>
    <tag k="highway" v="motorway"/>
    <tag k="name" v="I-80"/>
    <tag k="oneway" v="yes"/>
    <tag k="ref" v="I 80"/>
  </way>
  <way id="35376090" version="4" timestamp="2011-06-27T22:40:44Z" uid="473471" user="NE3" changeset="8567175">
    <nd ref="414737510"/>
    <nd ref="414737512"/>
    <nd ref="414737513"/>
    <nd ref="414737514"/>
    <nd ref="414737515"/>
    <nd ref="414737516"/>
    <nd ref="414737517"/>
    <nd ref="414737518"/>
    <nd ref="414737519"/>
    <nd ref="414737520"/>
    <nd ref="414737521"/>
    <nd ref="133205091"/>
    <nd ref="133163687"/>
    <nd ref="414737522"/>
    <nd ref="414737523"/>
    <nd ref="133163811"/>
    <nd ref="414737524"/>
    <nd ref="414737525"/>
    <nd ref="414737526"/>
    <nd ref="133159342"/>
    <nd ref="414737527"/>
    <nd ref="414737528"/>
    <nd ref="414737529"/>
    <tag k="FIXME" v="Is construction done?"/>
    <tag k="construction" v="widening"/>
    <tag k="highway" v="motorway"/>
    <tag k="lanes" v="2"/>
    <tag k="oneway" v="yes"/>
    <tag k="ref" v="I 80"/>
  </way>
  <way id="35376090" version="5" timestamp="2011-08-27T19:08:51Z" uid="28378" user="PHerison" changeset="9140606">
    <nd ref="414737510"/>
    <nd ref="414737512"/>
    <nd ref="414737513"/>
    <nd ref="414737514"/>
    <nd ref="414737515"/>
    <tag k="FIXME" v="Is construction done?"/>
    <tag k="construction" v="widening"/>
    <tag k="highway" v="motorway"/>
    <tag k="lanes" v="2"/>
    <tag k="oneway" v="yes"/>
    <tag k="ref" v="I 80"/>
  </way>
  <way id="35376090" version="6" timestamp="2011-10-17T11:24:56Z" uid="207745" user="NE2" changeset="9580997">
    <nd ref="414737510"/>
    <nd ref="414737512"/>
    <nd ref="414737513"/>
    <nd ref="414737514"/>
    <nd ref="414737515"/>
    <tag k="FIXME" v="Is construction done?"/>
    <tag k="bicycle" v="no"/>
    <tag k="construction" v="widening"/>
    <tag k="highway" v="motorway"/>
    <tag k="lanes" v="2"/>
    <tag k="oneway" v="yes"/>
    <tag k="ref" v="I 80"/>
  </way>
  <way id="35376091" version="2" timestamp="2009-11-14T02:07:37Z" uid="99207" user="Lar Kiesel" changeset="3110273">
    <nd ref="414737533"/>
    <nd ref="414737535"/>
    <tag k="bridge" v="yes"/>
    <tag k="highway" v="motorway"/>
    <tag k="name" v="I-80"/>
    <tag k="oneway" v="yes"/>
    <tag k="ref" v="I-80"/>
  </way>
  <way id="35376091" version="3" timestamp="2009-12-05T01:52:26Z" uid="99207" user="Lar Kiesel" changeset="3292890">
    <nd ref="414737533"/>
    <nd ref="414737535"/>
    <tag k="bridge" v="yes"/>
    <tag k="highway" v="motorway"/>
    <tag k="layer" v="1"/>
    <tag k="name" v="I-80"/>
    <tag k="oneway" v="yes"/>
    <tag k="ref" v="I 80"/>
  </way>
  <way id="35376091" version="4" timestamp="2011-06-27T22:43:43Z" uid="473471" user="NE3" changeset="8567175">
    <nd ref="414737533"/>
    <nd ref="414737535"/>
    <tag k="bridge" v="yes"/>
    <tag k="highway" v="motorway"/>
    <tag k="lanes" v="3"/>
    <tag k="layer" v="1"/>
    <tag k="oneway" v="yes"/>
    <tag k="ref" v="I 80"/>
  </way>
  <way id="35376091" version="5" timestamp="2011-10-17T11:23:49Z" uid="207745" user="NE2" changeset="9580997">
    <nd ref="414737533"/>
    <nd ref="414737535"/>
    <tag k="bicycle" v="no"/>
    <tag k="bridge" v="yes"/>
    <tag k="highway" v="motorway"/>
    <tag k="lanes" v="3"/>
    <tag k="layer" v="1"/>
    <tag k="oneway" v="yes"/>
    <tag k="ref" v="I 80"/>
  </way>
  <way id="35376092" version="3" timestamp="2009-11-14T02:07:37Z" uid="99207" user="Lar Kiesel" changeset="3110273">
    <nd ref="414737535"/>
    <nd ref="135865984"/>
    <tag k="highway" v="motorway"/>
    <tag k="name" v="I-80"/>
    <tag k="oneway" v="yes"/>
    <tag k="ref" v="I-80"/>
  </way>
  <way id="35376092" version="4" timestamp="2009-12-05T01:52:26Z" uid="99207" user="Lar Kiesel" changeset="3292890">
    <nd ref="414737535"/>
    <nd ref="135865984"/>
    <tag k="highway" v="motorway"/>
    <tag k="name" v="I-80"/>
    <tag k="oneway" v="yes"/>
    <tag k="ref" v="I 80"/>
  </way>
  <way id="35376092" version="5" timestamp="2011-06-27T22:47:09Z" uid="473471" user="NE3" changeset="8567175">
    <nd ref="414737535"/>
    <nd ref="135865984"/>
    <tag k="highway" v="motorway"/>
    <tag k="lanes" v="3"/>
    <tag k="oneway" v="yes"/>
    <tag k="ref" v="I 80"/>
  </way>
  <way id="35376092" version="6" timestamp="2011-10-17T11:23:29Z" uid="207745" user="NE2" changeset="9580997">
    <nd ref="414737535"/>
    <nd ref="135865984"/>
    <tag k="bicycle" v="no"/>
    <tag k="highway" v="motorway"/>
    <tag k="lanes" v="3"/>
    <tag k="oneway" v="yes"/>
    <tag k="ref" v="I 80"/>
  </way>
  <way id="35376093" version="2" timestamp="2009-11-14T02:07:28Z" uid="99207" user="Lar Kiesel" changeset="3110273">
    <nd ref="414737416"/>
    <nd ref="414737417"/>
    <tag k="bridge" v="yes"/>
    <tag k="highway" v="motorway"/>
    <tag k="name" v="I-80"/>
    <tag k="oneway" v="yes"/>
    <tag k="ref" v="I-80"/>
  </way>
  <way id="35376093" version="3" timestamp="2009-12-05T01:52:26Z" uid="99207" user="Lar Kiesel" changeset="3292890">
    <nd ref="414737416"/>
    <nd ref="414737417"/>
    <tag k="bridge" v="yes"/>
    <tag k="highway" v="motorway"/>
    <tag k="layer" v="1"/>
    <tag k="name" v="I-80"/>
    <tag k="oneway" v="yes"/>
    <tag k="ref" v="I 80"/>
  </way>
  <way id="35376093" version="4" timestamp="2011-06-27T22:50:28Z" uid="473471" user="NE3" changeset="8567175">
    <nd ref="414737416"/>
    <nd ref="414737417"/>
    <tag k="bridge" v="yes"/>
    <tag k="highway" v="motorway"/>
    <tag k="lanes" v="3"/>
    <tag k="layer" v="1"/>
    <tag k="oneway" v="yes"/>
    <tag k="ref" v="I 80"/>
  </way>
  <way id="35376093" version="5" timestamp="2011-10-17T11:24:00Z" uid="207745" user="NE2" changeset="9580997">
    <nd ref="414737416"/>
    <nd ref="414737417"/>
    <tag k="bicycle" v="no"/>
    <tag k="bridge" v="yes"/>
    <tag k="highway" v="motorway"/>
    <tag k="lanes" v="3"/>
    <tag k="layer" v="1"/>
    <tag k="oneway" v="yes"/>
    <tag k="ref" v="I 80"/>
  </way>
  <way id="35376094" version="2" timestamp="2009-11-14T02:07:39Z" uid="99207" user="Lar Kiesel" changeset="3110273">
    <nd ref="414737417"/>
    <nd ref="133158054"/>
    <nd ref="414737418"/>
    <nd ref="414737419"/>
    <nd ref="414737420"/>
    <nd ref="414737421"/>
    <nd ref="133147769"/>
    <nd ref="414737422"/>
    <nd ref="414737423"/>
    <nd ref="414737424"/>
    <nd ref="414737425"/>
    <nd ref="414737426"/>
    <nd ref="133161090"/>
    <nd ref="414737427"/>
    <nd ref="414737428"/>
    <nd ref="414737429"/>
    <nd ref="414737430"/>
    <nd ref="414737431"/>
    <nd ref="414737432"/>
    <nd ref="414737433"/>
    <nd ref="133205089"/>
    <nd ref="414737434"/>
    <nd ref="414737435"/>
    <nd ref="414737436"/>
    <nd ref="414737437"/>
    <nd ref="414737438"/>
    <nd ref="414737439"/>
    <nd ref="414737440"/>
    <nd ref="414737441"/>
    <nd ref="414737442"/>
    <nd ref="414737443"/>
    <nd ref="414737444"/>
    <nd ref="414737445"/>
    <tag k="highway" v="motorway"/>
    <tag k="name" v="I-80"/>
    <tag k="oneway" v="yes"/>
    <tag k="ref" v="I-80"/>
  </way>
  <way id="35376094" version="3" timestamp="2009-11-17T04:01:30Z" uid="99207" user="Lar Kiesel" changeset="3138329">
    <nd ref="414737417"/>
    <nd ref="133158054"/>
    <nd ref="414737418"/>
    <nd ref="414737419"/>
    <nd ref="414737420"/>
    <nd ref="414737421"/>
    <nd ref="133147769"/>
    <nd ref="414737422"/>
    <nd ref="414737423"/>
    <nd ref="414737424"/>
    <nd ref="414737425"/>
    <nd ref="414737426"/>
    <nd ref="133161090"/>
    <nd ref="414737427"/>
    <nd ref="414737428"/>
    <nd ref="414737429"/>
    <nd ref="414737430"/>
    <nd ref="414737431"/>
    <nd ref="414737432"/>
    <nd ref="414737433"/>
    <nd ref="133205089"/>
    <nd ref="414737434"/>
    <nd ref="414737435"/>
    <nd ref="414737436"/>
    <nd ref="414737437"/>
    <nd ref="414737438"/>
    <nd ref="414737439"/>
    <nd ref="414737440"/>
    <nd ref="414737441"/>
    <nd ref="414737442"/>
    <nd ref="414737443"/>
    <nd ref="414737444"/>
    <nd ref="414737445"/>
    <tag k="highway" v="motorway"/>
    <tag k="name" v="I-80"/>
    <tag k="oneway" v="yes"/>
    <tag k="ref" v="I 80"/>
  </way>
  <way id="35376094" version="4" timestamp="2011-06-27T22:38:04Z" uid="473471" user="NE3" changeset="8567175">
    <nd ref="414737417"/>
    <nd ref="133158054"/>
    <nd ref="414737418"/>
    <nd ref="414737419"/>
    <nd ref="414737420"/>
    <nd ref="414737421"/>
    <nd ref="133147769"/>
    <nd ref="414737422"/>
    <nd ref="414737423"/>
    <nd ref="414737424"/>
    <tag k="highway" v="motorway"/>
    <tag k="lanes" v="3"/>
    <tag k="oneway" v="yes"/>
    <tag k="ref" v="I 80"/>
  </way>
  <way id="35376094" version="5" timestamp="2011-10-17T11:22:19Z" uid="207745" user="NE2" changeset="9580997">
    <nd ref="414737417"/>
    <nd ref="133158054"/>
    <nd ref="414737418"/>
    <nd ref="414737419"/>
    <nd ref="414737420"/>
    <nd ref="414737421"/>
    <nd ref="133147769"/>
    <nd ref="414737422"/>
    <nd ref="414737423"/>
    <nd ref="414737424"/>
    <tag k="bicycle" v="no"/>
    <tag k="highway" v="motorway"/>
    <tag k="lanes" v="3"/>
    <tag k="oneway" v="yes"/>
    <tag k="ref" v="I 80"/>
  </way>
  <way id="35376175" version="2" timestamp="2009-11-14T02:07:34Z" uid="99207" user="Lar Kiesel" changeset="3110273">
    <nd ref="135865984"/>
    <nd ref="135865971"/>
    <tag k="bridge" v="yes"/>
    <tag k="highway" v="motorway"/>
    <tag k="name" v="I-80"/>
    <tag k="oneway" v="yes"/>
    <tag k="ref" v="I 80"/>
    <tag k="tiger:cfcc" v="A15"/>
    <tag k="tiger:county" v="Sarpy, NE"/>
    <tag k="tiger:name_base" v="I-80"/>
    <tag k="tiger:reviewed" v="aerial"/>
    <tag k="tiger:separated" v="yes"/>
    <tag k="tiger:source" v="tiger_import_dch_v0.6_20070813"/>
    <tag k="tiger:tlid" v="217527298:217527266:217527269:217533082:217533083:217527193:217527194:217527195:217527270:217527310:217527313:217527314:217527315:217527243:217527244:217527245:217527246:217526178:217526179:217531053:28506675:217528079:28505630:28505627:28505628:28505631:"/>
    <tag k="tiger:upload_uuid" v="bulk_upload.pl-66dbe279-3ef2-477f-9cf3-fed1186310f8"/>
  </way>
  <way id="35376175" version="3" timestamp="2009-12-05T01:52:27Z" uid="99207" user="Lar Kiesel" changeset="3292890">
    <nd ref="135865984"/>
    <nd ref="135865971"/>
    <tag k="bridge" v="yes"/>
    <tag k="highway" v="motorway"/>
    <tag k="layer" v="1"/>
    <tag k="name" v="I-80"/>
    <tag k="oneway" v="yes"/>
    <tag k="ref" v="I 80"/>
    <tag k="tiger:cfcc" v="A15"/>
    <tag k="tiger:county" v="Sarpy, NE"/>
    <tag k="tiger:name_base" v="I-80"/>
    <tag k="tiger:reviewed" v="aerial"/>
    <tag k="tiger:separated" v="yes"/>
    <tag k="tiger:source" v="tiger_import_dch_v0.6_20070813"/>
    <tag k="tiger:tlid" v="217527298:217527266:217527269:217533082:217533083:217527193:217527194:217527195:217527270:217527310:217527313:217527314:217527315:217527243:217527244:217527245:217527246:217526178:217526179:217531053:28506675:217528079:28505630:28505627:28505628:28505631:"/>
    <tag k="tiger:upload_uuid" v="bulk_upload.pl-66dbe279-3ef2-477f-9cf3-fed1186310f8"/>
  </way>
  <way id="35376175" version="4" timestamp="2011-06-27T22:43:33Z" uid="473471" user="NE3" changeset="8567175">
    <nd ref="135865984"/>
    <nd ref="135865971"/>
    <tag k="bridge" v="yes"/>
    <tag k="highway" v="motorway"/>
    <tag k="lanes" v="3"/>
    <tag k="layer" v="1"/>
    <tag k="oneway" v="yes"/>
    <tag k="ref" v="I 80"/>
    <tag k="tiger:cfcc" v="A15"/>
    <tag k="tiger:county" v="Sarpy, NE"/>
    <tag k="tiger:name_base" v="I-80"/>
    <tag k="tiger:reviewed" v="aerial"/>
    <tag k="tiger:separated" v="yes"/>
    <tag k="tiger:source" v="tiger_import_dch_v0.6_20070813"/>
    <tag k="tiger:tlid" v="217527298:217527266:217527269:217533082:217533083:217527193:217527194:217527195:217527270:217527310:217527313:217527314:217527315:217527243:217527244:217527245:217527246:217526178:217526179:217531053:28506675:217528079:28505630:28505627:28505628:28505631:"/>
    <tag k="tiger:upload_uuid" v="bulk_upload.pl-66dbe279-3ef2-477f-9cf3-fed1186310f8"/>
  </way>
  <way id="35376175" version="5" timestamp="2011-10-17T11:23:55Z" uid="207745" user="NE2" changeset="9580997">
    <nd ref="135865984"/>
    <nd ref="135865971"/>
    <tag k="bicycle" v="no"/>
    <tag k="bridge" v="yes"/>
    <tag k="highway" v="motorway"/>
    <tag k="lanes" v="3"/>
    <tag k="layer" v="1"/>
    <tag k="oneway" v="yes"/>
    <tag k="ref" v="I 80"/>
    <tag k="tiger:cfcc" v="A15"/>
    <tag k="tiger:county" v="Sarpy, NE"/>
    <tag k="tiger:name_base" v="I-80"/>
    <tag k="tiger:reviewed" v="aerial"/>
    <tag k="tiger:separated" v="yes"/>
    <tag k="tiger:source" v="tiger_import_dch_v0.6_20070813"/>
    <tag k="tiger:tlid" v="217527298:217527266:217527269:217533082:217533083:217527193:217527194:217527195:217527270:217527310:217527313:217527314:217527315:217527243:217527244:217527245:217527246:217526178:217526179:217531053:28506675:217528079:28505630:28505627:28505628:28505631:"/>
    <tag k="tiger:upload_uuid" v="bulk_upload.pl-66dbe279-3ef2-477f-9cf3-fed1186310f8"/>
  </way>
  <way id="35376256" version="3" timestamp="2009-07-18T17:41:50Z" uid="123517" user="Qichina" changeset="1865658"/>
  <way id="35376446" version="1" timestamp="2009-06-02T15:11:44Z" uid="43863" user="Rundling" changeset="1404888">
    <nd ref="274291181"/>
    <nd ref="274292025"/>
    <tag k="access" v="agricultural"/>
    <tag k="highway" v="track"/>
    <tag k="motorcar" v="yes"/>
    <tag k="motorcycle" v="yes"/>
    <tag k="surface" v="gravel"/>
    <tag k="tracktype" v="grade3"/>
  </way>
  <way id="35376446" version="2" timestamp="2011-01-25T17:14:53Z" uid="43863" user="Rundling" changeset="7085549">
    <nd ref="274291181"/>
    <nd ref="1120063763"/>
    <nd ref="1120063760"/>
    <nd ref="274292025"/>
    <tag k="access" v="agricultural"/>
    <tag k="highway" v="track"/>
    <tag k="motorcar" v="yes"/>
    <tag k="motorcycle" v="yes"/>
    <tag k="surface" v="gravel"/>
    <tag k="tracktype" v="grade3"/>
  </way>
  <way id="35376837" version="1" timestamp="2009-06-02T15:30:41Z" uid="58091" user="Andreas M" changeset="1405042">
    <nd ref="414773664"/>
    <nd ref="414773665"/>
    <nd ref="414773666"/>
    <nd ref="414773667"/>
    <nd ref="414773668"/>
    <nd ref="414773669"/>
    <nd ref="414773664"/>
    <tag k="building" v="yes"/>
  </way>
  <way id="35376837" version="2" timestamp="2012-03-22T21:22:33Z" uid="99800" user="wolfbert" changeset="11068014"/>
  <way id="35376838" version="1" timestamp="2009-06-02T15:30:41Z" uid="58091" user="Andreas M" changeset="1405042">
    <nd ref="414773668"/>
    <nd ref="414773670"/>
    <nd ref="414773671"/>
    <nd ref="414773669"/>
    <nd ref="414773668"/>
    <tag k="addr:city" v="Wien"/>
    <tag k="addr:country" v="AT"/>
    <tag k="addr:housenumber" v="3"/>
    <tag k="addr:postcode" v="1020"/>
    <tag k="addr:street" v="Harkortstrae"/>
    <tag k="building" v="yes"/>
  </way>
  <way id="35376838" version="2" timestamp="2012-03-22T21:22:34Z" uid="99800" user="wolfbert" changeset="11068014"/>
  <way id="35376839" version="1" timestamp="2009-06-02T15:30:41Z" uid="58091" user="Andreas M" changeset="1405042">
    <nd ref="414773671"/>
    <nd ref="414773672"/>
    <nd ref="414773673"/>
    <nd ref="414773674"/>
    <nd ref="414773675"/>
    <nd ref="414773670"/>
    <nd ref="414773671"/>
    <tag k="building" v="yes"/>
  </way>
  <way id="35376839" version="2" timestamp="2012-03-22T21:22:33Z" uid="99800" user="wolfbert" changeset="11068014"/>
  <way id="35376840" version="1" timestamp="2009-06-02T15:30:41Z" uid="58091" user="Andreas M" changeset="1405042">
    <nd ref="414773665"/>
    <nd ref="414773676"/>
    <nd ref="414773677"/>
    <nd ref="414773678"/>
    <nd ref="414773679"/>
    <nd ref="414773680"/>
    <nd ref="414773681"/>
    <nd ref="414773682"/>
    <nd ref="414773683"/>
    <nd ref="414773684"/>
    <nd ref="414773685"/>
    <nd ref="414773666"/>
    <nd ref="414773665"/>
    <tag k="addr:city" v="Wien"/>
    <tag k="addr:country" v="AT"/>
    <tag k="addr:housenumber" v="28"/>
    <tag k="addr:postcode" v="1020"/>
    <tag k="addr:street" v="Lassallestrae"/>
    <tag k="building" v="yes"/>
  </way>
  <way id="35376840" version="2" timestamp="2009-10-03T17:50:32Z" uid="12295" user="mapper_07" changeset="2727349">
    <nd ref="414773665"/>
    <nd ref="414773676"/>
    <nd ref="414773677"/>
    <nd ref="414773678"/>
    <nd ref="414773679"/>
    <nd ref="414773680"/>
    <nd ref="414773681"/>
    <nd ref="414773682"/>
    <nd ref="414773683"/>
    <nd ref="414773684"/>
    <nd ref="414773685"/>
    <nd ref="414773666"/>
    <nd ref="414773665"/>
    <tag k="addr:city" v="Wien"/>
    <tag k="addr:country" v="AT"/>
    <tag k="addr:housename" v="Pichlerhof"/>
    <tag k="addr:housenumber" v="28"/>
    <tag k="addr:postcode" v="1020"/>
    <tag k="addr:street" v="Lassallestrae"/>
    <tag k="building" v="yes"/>
  </way>
  <way id="35376840" version="3" timestamp="2012-03-22T21:22:33Z" uid="99800" user="wolfbert" changeset="11068014"/>
  <way id="35376841" version="1" timestamp="2009-06-02T15:30:41Z" uid="58091" user="Andreas M" changeset="1405042">
    <nd ref="414773676"/>
    <nd ref="414773686"/>
    <nd ref="414773687"/>
    <nd ref="414773688"/>
    <nd ref="414773689"/>
    <nd ref="414773690"/>
    <nd ref="414773691"/>
    <nd ref="414773681"/>
    <nd ref="414773680"/>
    <nd ref="414773692"/>
    <nd ref="414773693"/>
    <nd ref="414773677"/>
    <nd ref="414773676"/>
    <tag k="addr:city" v="Wien"/>
    <tag k="addr:country" v="AT"/>
    <tag k="addr:housenumber" v="30"/>
    <tag k="addr:postcode" v="1020"/>
    <tag k="addr:street" v="Lassallestrae"/>
    <tag k="building" v="yes"/>
  </way>
  <way id="35376841" version="2" timestamp="2012-03-22T21:22:34Z" uid="99800" user="wolfbert" changeset="11068014"/>
  <way id="35376842" version="1" timestamp="2009-06-02T15:30:41Z" uid="58091" user="Andreas M" changeset="1405042">
    <nd ref="414773686"/>
    <nd ref="414773706"/>
    <nd ref="414773705"/>
    <nd ref="414773694"/>
    <nd ref="414773695"/>
    <nd ref="414773696"/>
    <nd ref="414773697"/>
    <nd ref="414773691"/>
    <nd ref="414773690"/>
    <nd ref="414773698"/>
    <nd ref="414773699"/>
    <nd ref="414773687"/>
    <nd ref="414773686"/>
    <tag k="addr:city" v="Wien"/>
    <tag k="addr:country" v="AT"/>
    <tag k="addr:housenumber" v="32"/>
    <tag k="addr:postcode" v="1020"/>
    <tag k="addr:street" v="Lassallestrae"/>
    <tag k="building" v="yes"/>
  </way>
  <way id="35376842" version="2" timestamp="2012-03-22T21:22:34Z" uid="99800" user="wolfbert" changeset="11068014"/>
  <way id="35376843" version="1" timestamp="2009-06-02T15:30:41Z" uid="58091" user="Andreas M" changeset="1405042">
    <nd ref="414773706"/>
    <nd ref="414773702"/>
    <nd ref="414773704"/>
    <nd ref="414773707"/>
    <nd ref="414773709"/>
    <nd ref="414773700"/>
    <nd ref="414773708"/>
    <nd ref="414773697"/>
    <nd ref="414773696"/>
    <nd ref="414773701"/>
    <nd ref="414773703"/>
    <nd ref="414773705"/>
    <nd ref="414773706"/>
    <tag k="addr:city" v="Wien"/>
    <tag k="addr:country" v="AT"/>
    <tag k="addr:housenumber" v="34"/>
    <tag k="addr:postcode" v="1020"/>
    <tag k="addr:street" v="Lassallestrae"/>
    <tag k="building" v="yes"/>
  </way>
  <way id="35376843" version="2" timestamp="2012-03-22T21:22:35Z" uid="99800" user="wolfbert" changeset="11068014"/>
  <way id="35376844" version="1" timestamp="2009-06-02T15:30:41Z" uid="58091" user="Andreas M" changeset="1405042">
    <nd ref="414773702"/>
    <nd ref="414773710"/>
    <nd ref="414773711"/>
    <nd ref="414773712"/>
    <nd ref="414773713"/>
    <nd ref="414773704"/>
    <nd ref="414773702"/>
    <tag k="building" v="yes"/>
  </way>
  <way id="35376844" version="2" timestamp="2012-03-22T21:22:33Z" uid="99800" user="wolfbert" changeset="11068014"/>
  <way id="35376845" version="1" timestamp="2009-06-02T15:30:41Z" uid="58091" user="Andreas M" changeset="1405042">
    <nd ref="414773711"/>
    <nd ref="414773712"/>
    <nd ref="414773714"/>
    <nd ref="414773715"/>
    <nd ref="414773708"/>
    <nd ref="414773743"/>
    <nd ref="414773716"/>
    <nd ref="414773722"/>
    <nd ref="414773717"/>
    <nd ref="414773711"/>
    <tag k="addr:city" v="Wien"/>
    <tag k="addr:country" v="AT"/>
    <tag k="addr:housenumber" v="6"/>
    <tag k="addr:postcode" v="1020"/>
    <tag k="addr:street" v="Radingerstrae"/>
    <tag k="building" v="yes"/>
  </way>
  <way id="35376845" version="2" timestamp="2012-03-22T21:22:35Z" uid="99800" user="wolfbert" changeset="11068014"/>
  <way id="35376846" version="1" timestamp="2009-06-02T15:30:41Z" uid="58091" user="Andreas M" changeset="1405042">
    <nd ref="414773717"/>
    <nd ref="414773718"/>
    <nd ref="414773719"/>
    <nd ref="414773720"/>
    <nd ref="414773721"/>
    <nd ref="414773722"/>
    <nd ref="414773717"/>
    <tag k="building" v="yes"/>
  </way>
  <way id="35376846" version="2" timestamp="2012-03-22T21:22:32Z" uid="99800" user="wolfbert" changeset="11068014"/>
  <way id="35376847" version="1" timestamp="2009-06-02T15:30:41Z" uid="58091" user="Andreas M" changeset="1405042">
    <nd ref="414773719"/>
    <nd ref="414773720"/>
    <nd ref="414773716"/>
    <nd ref="414773743"/>
    <nd ref="414773744"/>
    <nd ref="414773745"/>
    <nd ref="414773742"/>
    <nd ref="414773741"/>
    <nd ref="414773739"/>
    <nd ref="414773740"/>
    <nd ref="414773723"/>
    <nd ref="414773733"/>
    <nd ref="414773719"/>
    <tag k="addr:city" v="Wien"/>
    <tag k="addr:country" v="AT"/>
    <tag k="addr:housenumber" v="31-33"/>
    <tag k="addr:postcode" v="1020"/>
    <tag k="addr:street" v="Ybbsstrae"/>
    <tag k="building" v="yes"/>
  </way>
  <way id="35376847" version="2" timestamp="2012-03-22T21:22:34Z" uid="99800" user="wolfbert" changeset="11068014"/>
  <way id="35376848" version="1" timestamp="2009-06-02T15:30:42Z" uid="58091" user="Andreas M" changeset="1405042">
    <nd ref="414773674"/>
    <nd ref="414773724"/>
    <nd ref="414773725"/>
    <nd ref="414773726"/>
    <nd ref="414773727"/>
    <nd ref="414773728"/>
    <nd ref="414773729"/>
    <nd ref="414773730"/>
    <nd ref="414773731"/>
    <nd ref="414773736"/>
    <nd ref="414773732"/>
    <nd ref="414773673"/>
    <nd ref="414773674"/>
    <tag k="addr:city" v="Wien"/>
    <tag k="addr:country" v="AT"/>
    <tag k="addr:housenumber" v="27"/>
    <tag k="addr:postcode" v="1020"/>
    <tag k="addr:street" v="Ybbsstrae"/>
    <tag k="building" v="yes"/>
  </way>
  <way id="35376848" version="2" timestamp="2012-03-22T21:22:33Z" uid="99800" user="wolfbert" changeset="11068014"/>
  <way id="35376849" version="1" timestamp="2009-06-02T15:30:42Z" uid="58091" user="Andreas M" changeset="1405042">
    <nd ref="414773736"/>
    <nd ref="414773738"/>
    <nd ref="414773735"/>
    <nd ref="414773729"/>
    <nd ref="414773728"/>
    <nd ref="414773739"/>
    <nd ref="414773740"/>
    <nd ref="414773734"/>
    <nd ref="414773737"/>
    <nd ref="414773723"/>
    <nd ref="414773733"/>
    <nd ref="414773732"/>
    <nd ref="414773736"/>
    <tag k="addr:city" v="Wien"/>
    <tag k="addr:country" v="AT"/>
    <tag k="addr:housenumber" v="29"/>
    <tag k="addr:postcode" v="1020"/>
    <tag k="addr:street" v="Ybbsstrae"/>
    <tag k="building" v="yes"/>
  </way>
  <way id="35376849" version="2" timestamp="2012-03-22T21:22:34Z" uid="99800" user="wolfbert" changeset="11068014"/>
  <way id="35376850" version="1" timestamp="2009-06-02T15:30:42Z" uid="58091" user="Andreas M" changeset="1405042">
    <nd ref="414773746"/>
    <nd ref="414773747"/>
    <nd ref="414773748"/>
    <nd ref="414773749"/>
    <nd ref="414773750"/>
    <nd ref="414773751"/>
    <nd ref="414773746"/>
    <tag k="building" v="yes"/>
  </way>
  <way id="35376850" version="2" timestamp="2011-02-27T18:57:58Z" uid="99800" user="wolfbert" changeset="7414198">
    <nd ref="414773746"/>
    <nd ref="414773747"/>
    <nd ref="414773748"/>
    <nd ref="1177649061"/>
    <nd ref="1177649121"/>
    <nd ref="1177649104"/>
    <nd ref="1177649099"/>
    <nd ref="1177649127"/>
    <nd ref="1177649066"/>
    <nd ref="414773749"/>
    <nd ref="414773750"/>
    <nd ref="414773751"/>
    <nd ref="414773746"/>
    <tag k="building" v="yes"/>
    <tag k="source" v="geoimage.at;Bing"/>
  </way>
  <way id="35376850" version="3" timestamp="2012-03-22T21:22:32Z" uid="99800" user="wolfbert" changeset="11068014"/>
  <way id="35376851" version="1" timestamp="2009-06-02T15:30:42Z" uid="58091" user="Andreas M" changeset="1405042">
    <nd ref="414773751"/>
    <nd ref="414773750"/>
    <nd ref="414773752"/>
    <nd ref="414773753"/>
    <nd ref="414773763"/>
    <nd ref="414773754"/>
    <nd ref="414773751"/>
    <tag k="addr:city" v="Wien"/>
    <tag k="addr:country" v="AT"/>
    <tag k="addr:housenumber" v="9"/>
    <tag k="addr:postcode" v="1020"/>
    <tag k="addr:street" v="Harkortstrae"/>
    <tag k="building" v="yes"/>
  </way>
  <way id="35376851" version="2" timestamp="2011-02-27T18:58:07Z" uid="99800" user="wolfbert" changeset="7414198">
    <nd ref="414773751"/>
    <nd ref="414773750"/>
    <nd ref="414773752"/>
    <nd ref="414773753"/>
    <nd ref="414773763"/>
    <nd ref="414773754"/>
    <nd ref="414773751"/>
    <tag k="addr:city" v="Wien"/>
    <tag k="addr:country" v="AT"/>
    <tag k="addr:housenumber" v="9"/>
    <tag k="addr:postcode" v="1020"/>
    <tag k="addr:street" v="Harkortstrae"/>
    <tag k="building" v="yes"/>
    <tag k="source" v="geoimage.at;Bing"/>
  </way>
  <way id="35376851" version="3" timestamp="2012-03-22T21:22:35Z" uid="99800" user="wolfbert" changeset="11068014"/>
  <way id="35376852" version="1" timestamp="2009-06-02T15:30:42Z" uid="58091" user="Andreas M" changeset="1405042">
    <nd ref="414773754"/>
    <nd ref="414773755"/>
    <nd ref="414773756"/>
    <nd ref="414773757"/>
    <nd ref="414773758"/>
    <nd ref="414773759"/>
    <nd ref="414773760"/>
    <nd ref="414773761"/>
    <nd ref="414773762"/>
    <nd ref="414773763"/>
    <nd ref="414773754"/>
    <tag k="building" v="yes"/>
  </way>
  <way id="35376852" version="2" timestamp="2011-02-27T18:58:03Z" uid="99800" user="wolfbert" changeset="7414198">
    <nd ref="414773754"/>
    <nd ref="414773755"/>
    <nd ref="1177649111"/>
    <nd ref="414773756"/>
    <nd ref="414773757"/>
    <nd ref="414773758"/>
    <nd ref="414773759"/>
    <nd ref="414773760"/>
    <nd ref="414773761"/>
    <nd ref="414773762"/>
    <nd ref="414773763"/>
    <nd ref="414773754"/>
    <tag k="building" v="yes"/>
    <tag k="source" v="geoimage.at;Bing"/>
  </way>
  <way id="35376852" version="3" timestamp="2012-03-22T21:22:33Z" uid="99800" user="wolfbert" changeset="11068014"/>
  <way id="35376853" version="1" timestamp="2009-06-02T15:30:42Z" uid="58091" user="Andreas M" changeset="1405042">
    <nd ref="414773747"/>
    <nd ref="414773764"/>
    <nd ref="414773765"/>
    <nd ref="414773766"/>
    <nd ref="414773767"/>
    <nd ref="414773768"/>
    <nd ref="414773769"/>
    <nd ref="414773770"/>
    <nd ref="414773771"/>
    <nd ref="414773772"/>
    <nd ref="414773773"/>
    <nd ref="414773748"/>
    <nd ref="414773747"/>
    <tag k="addr:city" v="Wien"/>
    <tag k="addr:country" v="AT"/>
    <tag k="addr:housenumber" v="28"/>
    <tag k="addr:postcode" v="1020"/>
    <tag k="addr:street" v="Ybbsstrae"/>
    <tag k="building" v="yes"/>
  </way>
  <way id="35376853" version="2" timestamp="2011-02-27T18:58:13Z" uid="99800" user="wolfbert" changeset="7414198">
    <nd ref="414773747"/>
    <nd ref="414773764"/>
    <nd ref="414773765"/>
    <nd ref="414773766"/>
    <nd ref="414773767"/>
    <nd ref="414773768"/>
    <nd ref="414773769"/>
    <nd ref="414773770"/>
    <nd ref="414773771"/>
    <nd ref="414773772"/>
    <nd ref="414773773"/>
    <nd ref="414773748"/>
    <nd ref="414773747"/>
    <tag k="addr:city" v="Wien"/>
    <tag k="addr:country" v="AT"/>
    <tag k="addr:housenumber" v="28"/>
    <tag k="addr:postcode" v="1020"/>
    <tag k="addr:street" v="Ybbsstrae"/>
    <tag k="building" v="yes"/>
    <tag k="source" v="geoimage.at;Bing"/>
  </way>
  <way id="35376853" version="3" timestamp="2012-03-22T21:22:33Z" uid="99800" user="wolfbert" changeset="11068014"/>
  <way id="35376854" version="1" timestamp="2009-06-02T15:30:42Z" uid="58091" user="Andreas M" changeset="1405042">
    <nd ref="414773764"/>
    <nd ref="414773774"/>
    <nd ref="414773775"/>
    <nd ref="414773776"/>
    <nd ref="414773777"/>
    <nd ref="414773778"/>
    <nd ref="414773779"/>
    <nd ref="414773769"/>
    <nd ref="414773768"/>
    <nd ref="414773780"/>
    <nd ref="414773781"/>
    <nd ref="414773765"/>
    <nd ref="414773764"/>
    <tag k="addr:city" v="Wien"/>
    <tag k="addr:country" v="AT"/>
    <tag k="addr:housenumber" v="30"/>
    <tag k="addr:postcode" v="1020"/>
    <tag k="addr:street" v="Ybbsstrae"/>
    <tag k="building" v="yes"/>
  </way>
  <way id="35376854" version="2" timestamp="2011-02-27T18:58:23Z" uid="99800" user="wolfbert" changeset="7414198">
    <nd ref="414773764"/>
    <nd ref="414773774"/>
    <nd ref="414773775"/>
    <nd ref="414773776"/>
    <nd ref="414773777"/>
    <nd ref="414773778"/>
    <nd ref="414773779"/>
    <nd ref="414773769"/>
    <nd ref="414773768"/>
    <nd ref="414773780"/>
    <nd ref="414773781"/>
    <nd ref="414773765"/>
    <nd ref="414773764"/>
    <tag k="addr:city" v="Wien"/>
    <tag k="addr:country" v="AT"/>
    <tag k="addr:housenumber" v="30"/>
    <tag k="addr:postcode" v="1020"/>
    <tag k="addr:street" v="Ybbsstrae"/>
    <tag k="building" v="yes"/>
    <tag k="source" v="geoimage.at;Bing"/>
  </way>
  <way id="35376854" version="3" timestamp="2012-03-22T21:22:34Z" uid="99800" user="wolfbert" changeset="11068014"/>
  <way id="35376855" version="1" timestamp="2009-06-02T15:30:42Z" uid="58091" user="Andreas M" changeset="1405042">
    <nd ref="414773774"/>
    <nd ref="414773782"/>
    <nd ref="414773783"/>
    <nd ref="414773784"/>
    <nd ref="414773785"/>
    <nd ref="414773786"/>
    <nd ref="414773787"/>
    <nd ref="414773775"/>
    <nd ref="414773774"/>
    <tag k="building" v="yes"/>
  </way>
  <way id="35376855" version="2" timestamp="2011-02-27T18:58:33Z" uid="99800" user="wolfbert" changeset="7414198">
    <nd ref="414773774"/>
    <nd ref="414773782"/>
    <nd ref="414773783"/>
    <nd ref="414773784"/>
    <nd ref="414773785"/>
    <nd ref="414773786"/>
    <nd ref="414773787"/>
    <nd ref="414773775"/>
    <nd ref="414773774"/>
    <tag k="building" v="yes"/>
    <tag k="source" v="geoimage.at;Bing"/>
  </way>
  <way id="35376855" version="3" timestamp="2012-03-22T21:22:32Z" uid="99800" user="wolfbert" changeset="11068014"/>
  <way id="35376856" version="1" timestamp="2009-06-02T15:30:42Z" uid="58091" user="Andreas M" changeset="1405042">
    <nd ref="414773785"/>
    <nd ref="414773788"/>
    <nd ref="414773789"/>
    <nd ref="414773790"/>
    <nd ref="414773791"/>
    <nd ref="414773792"/>
    <nd ref="414773793"/>
    <nd ref="414773794"/>
    <nd ref="414773795"/>
    <nd ref="414773796"/>
    <nd ref="414773799"/>
    <nd ref="414773784"/>
    <nd ref="414773785"/>
    <tag k="addr:city" v="Wien"/>
    <tag k="addr:country" v="AT"/>
    <tag k="addr:housenumber" v="5"/>
    <tag k="addr:postcode" v="1020"/>
    <tag k="addr:street" v="Ennsgasse"/>
    <tag k="building" v="yes"/>
  </way>
  <way id="35376856" version="2" timestamp="2011-02-27T18:58:28Z" uid="99800" user="wolfbert" changeset="7414198">
    <nd ref="414773785"/>
    <nd ref="414773788"/>
    <nd ref="414773789"/>
    <nd ref="414773790"/>
    <nd ref="414773791"/>
    <nd ref="414773792"/>
    <nd ref="414773793"/>
    <nd ref="414773794"/>
    <nd ref="414773795"/>
    <nd ref="414773796"/>
    <nd ref="414773799"/>
    <nd ref="414773784"/>
    <nd ref="414773785"/>
    <tag k="addr:housenumber" v="5"/>
    <tag k="building" v="yes"/>
    <tag k="source" v="geoimage.at;Bing"/>
  </way>
  <way id="35376856" version="3" timestamp="2011-03-11T22:19:09Z" uid="99800" user="wolfbert" changeset="7528167">
    <nd ref="414773785"/>
    <nd ref="414773788"/>
    <nd ref="414773789"/>
    <nd ref="414773790"/>
    <nd ref="414773791"/>
    <nd ref="414773792"/>
    <nd ref="414773793"/>
    <nd ref="414773794"/>
    <nd ref="414773795"/>
    <nd ref="414773796"/>
    <nd ref="414773799"/>
    <nd ref="414773784"/>
    <nd ref="414773785"/>
    <tag k="addr:city" v="Wien"/>
    <tag k="addr:country" v="AT"/>
    <tag k="addr:housenumber" v="5"/>
    <tag k="addr:postcode" v="1020"/>
    <tag k="addr:street" v="Ennsgasse"/>
    <tag k="building" v="yes"/>
    <tag k="source" v="geoimage.at;Bing"/>
  </way>
  <way id="35376856" version="4" timestamp="2012-03-22T21:22:35Z" uid="99800" user="wolfbert" changeset="11068014"/>
  <way id="35376857" version="1" timestamp="2009-06-02T15:30:42Z" uid="58091" user="Andreas M" changeset="1405042">
    <nd ref="414773796"/>
    <nd ref="414773801"/>
    <nd ref="414773802"/>
    <nd ref="414773793"/>
    <nd ref="414773792"/>
    <nd ref="414773803"/>
    <nd ref="414773797"/>
    <nd ref="414773798"/>
    <nd ref="414773800"/>
    <nd ref="414773757"/>
    <nd ref="414773756"/>
    <nd ref="414773799"/>
    <nd ref="414773796"/>
    <tag k="addr:city" v="Wien"/>
    <tag k="addr:country" v="AT"/>
    <tag k="addr:housenumber" v="3"/>
    <tag k="addr:postcode" v="1020"/>
    <tag k="addr:street" v="Ennsgasse"/>
    <tag k="building" v="yes"/>
  </way>
  <way id="35376857" version="2" timestamp="2011-02-27T18:58:41Z" uid="99800" user="wolfbert" changeset="7414198">
    <nd ref="414773796"/>
    <nd ref="414773801"/>
    <nd ref="414773802"/>
    <nd ref="414773793"/>
    <nd ref="414773792"/>
    <nd ref="414773803"/>
    <nd ref="414773797"/>
    <nd ref="414773798"/>
    <nd ref="414773800"/>
    <nd ref="1177649135"/>
    <nd ref="1177649113"/>
    <nd ref="414773757"/>
    <nd ref="414773756"/>
    <nd ref="414773799"/>
    <nd ref="414773796"/>
    <tag k="addr:housenumber" v="3"/>
    <tag k="building" v="yes"/>
    <tag k="source" v="geoimage.at;Bing"/>
  </way>
  <way id="35376857" version="3" timestamp="2011-03-11T22:18:52Z" uid="99800" user="wolfbert" changeset="7528167">
    <nd ref="414773796"/>
    <nd ref="414773801"/>
    <nd ref="414773802"/>
    <nd ref="414773793"/>
    <nd ref="414773792"/>
    <nd ref="414773803"/>
    <nd ref="414773797"/>
    <nd ref="414773798"/>
    <nd ref="414773800"/>
    <nd ref="1177649135"/>
    <nd ref="1177649113"/>
    <nd ref="414773757"/>
    <nd ref="414773756"/>
    <nd ref="414773799"/>
    <nd ref="414773796"/>
    <tag k="addr:city" v="Wien"/>
    <tag k="addr:country" v="AT"/>
    <tag k="addr:housenumber" v="3"/>
    <tag k="addr:postcode" v="1020"/>
    <tag k="addr:street" v="Ennsgasse"/>
    <tag k="building" v="yes"/>
    <tag k="source" v="geoimage.at;Bing"/>
  </way>
  <way id="35376857" version="4" timestamp="2012-03-22T21:22:34Z" uid="99800" user="wolfbert" changeset="11068014"/>
</osm>
