<?xml version='1.0' encoding='UTF-8'?>
<osm version="0.6" generator="libosmium/2.20.0">
  <way id="3549182" version="5" timestamp="2009-07-27T16:52:28Z" uid="9581" user="Lobelt" changeset="1957286">
    <nd ref="17474365"/>
    <nd ref="273505356"/>
    <nd ref="273505357"/>
    <nd ref="273505358"/>
    <nd ref="15238917"/>
    <tag k="created_by" v="Potlatch 0.9c"/>
    <tag k="foot" v="yes"/>
    <tag k="maxweight" v="3500kg"/>
    <tag k="motorcar" v="yes"/>
    <tag k="name" v="Drusus"/>
    <tag k="route" v="ferry"/>
  </way>
  <way id="3549182" version="6" timestamp="2010-01-18T21:35:23Z" uid="52921" user="t-i" changeset="3654332">
    <nd ref="17474365"/>
    <nd ref="273505356"/>
    <nd ref="273505357"/>
    <nd ref="273505358"/>
    <nd ref="15238917"/>
    <tag k="foot" v="yes"/>
    <tag k="maxweight" v="3.5"/>
    <tag k="motorcar" v="yes"/>
    <tag k="name" v="Drusus"/>
    <tag k="route" v="ferry"/>
  </way>
  <way id="3549182" version="7" timestamp="2010-01-20T10:00:06Z" uid="24920" user="Schusch" changeset="3665248">
    <nd ref="17474365"/>
    <nd ref="273505356"/>
    <nd ref="273505357"/>
    <nd ref="273505358"/>
    <nd ref="15238917"/>
    <tag k="foot" v="yes"/>
    <tag k="maxweight" v="3.5"/>
    <tag k="motorcar" v="yes"/>
    <tag k="name" v="Drusus"/>
    <tag k="route" v="ferry"/>
    <tag k="website" v="http://www.rheinmuenster.de/Faehrverbindungen.htm"/>
  </way>
  <way id="3549182" version="8" timestamp="2010-01-26T00:54:18Z" uid="2680" user="xylome" changeset="3716271">
    <nd ref="17474365"/>
    <nd ref="273505356"/>
    <nd ref="273505357"/>
    <nd ref="273505358"/>
    <nd ref="15238917"/>
    <tag k="TMC:cid_58:tabcd_1:LocationCode" v="54993"/>
    <tag k="foot" v="yes"/>
    <tag k="maxweight" v="3.5"/>
    <tag k="motorcar" v="yes"/>
    <tag k="name" v="Drusus"/>
    <tag k="route" v="ferry"/>
    <tag k="website" v="http://www.rheinmuenster.de/Faehrverbindungen.htm"/>
  </way>
  <way id="3549182" version="9" timestamp="2010-01-26T01:05:20Z" uid="218283" user="TMCbot" changeset="3716290">
    <nd ref="17474365"/>
    <nd ref="273505356"/>
    <nd ref="273505357"/>
    <nd ref="273505358"/>
    <nd ref="15238917"/>
    <tag k="TMC:cid_58:tabcd_1:Class" v="Point"/>
    <tag k="TMC:cid_58:tabcd_1:LCLversion" v="8.00"/>
    <tag k="TMC:cid_58:tabcd_1:LocationCode" v="54993"/>
    <tag k="TMC:cid_58:tabcd_1:NextLocationCode" v="52742"/>
    <tag k="TMC:cid_58:tabcd_1:PrevLocationCode" v="52703"/>
    <tag k="foot" v="yes"/>
    <tag k="maxweight" v="3.5"/>
    <tag k="motorcar" v="yes"/>
    <tag k="name" v="Drusus"/>
    <tag k="route" v="ferry"/>
    <tag k="website" v="http://www.rheinmuenster.de/Faehrverbindungen.htm"/>
  </way>
  <way id="3549182" version="10" timestamp="2011-06-26T17:07:41Z" uid="432582" user="bauerpower" changeset="8553905">
    <nd ref="17474365"/>
    <nd ref="273505356"/>
    <nd ref="273505357"/>
    <nd ref="273505358"/>
    <nd ref="1340012630"/>
    <tag k="TMC:cid_58:tabcd_1:Class" v="Point"/>
    <tag k="TMC:cid_58:tabcd_1:LCLversion" v="8.00"/>
    <tag k="TMC:cid_58:tabcd_1:LocationCode" v="54993"/>
    <tag k="TMC:cid_58:tabcd_1:NextLocationCode" v="52742"/>
    <tag k="TMC:cid_58:tabcd_1:PrevLocationCode" v="52703"/>
    <tag k="foot" v="yes"/>
    <tag k="maxweight" v="3.5"/>
    <tag k="motorcar" v="yes"/>
    <tag k="name" v="Drusus"/>
    <tag k="route" v="ferry"/>
    <tag k="website" v="http://www.rheinmuenster.de/Faehrverbindungen.htm"/>
  </way>
  <way id="3549182" version="11" timestamp="2011-08-06T17:34:22Z" uid="29717" user="eumiro" changeset="8940234">
    <nd ref="17474365"/>
    <nd ref="273505356"/>
    <nd ref="273505357"/>
    <nd ref="273505358"/>
    <nd ref="1340012630"/>
    <tag k="TMC:cid_58:tabcd_1:Class" v="Point"/>
    <tag k="TMC:cid_58:tabcd_1:LCLversion" v="8.00"/>
    <tag k="TMC:cid_58:tabcd_1:LocationCode" v="54993"/>
    <tag k="TMC:cid_58:tabcd_1:NextLocationCode" v="52742"/>
    <tag k="TMC:cid_58:tabcd_1:PrevLocationCode" v="52703"/>
    <tag k="bicycle" v="yes"/>
    <tag k="fee" v="no"/>
    <tag k="foot" v="yes"/>
    <tag k="maxweight" v="3.5"/>
    <tag k="motorcar" v="yes"/>
    <tag k="name" v="Drusus"/>
    <tag k="route" v="ferry"/>
    <tag k="website" v="http://www.rheinmuenster.de/Faehrverbindungen.htm"/>
  </way>
  <way id="3549182" version="12" timestamp="2011-08-27T10:01:09Z" uid="512804" user="ZDuke" changeset="9136216"/>
  <way id="3549182" version="13" timestamp="2011-10-04T07:38:11Z" uid="120949" user="dino" changeset="9467124">
    <nd ref="17474365"/>
    <nd ref="273505356"/>
    <nd ref="273505357"/>
    <nd ref="273505358"/>
    <nd ref="1340012630"/>
    <tag k="TMC:cid_58:tabcd_1:Class" v="Point"/>
    <tag k="TMC:cid_58:tabcd_1:LCLversion" v="8.00"/>
    <tag k="TMC:cid_58:tabcd_1:LocationCode" v="54993"/>
    <tag k="TMC:cid_58:tabcd_1:NextLocationCode" v="52742"/>
    <tag k="TMC:cid_58:tabcd_1:PrevLocationCode" v="52703"/>
    <tag k="bicycle" v="yes"/>
    <tag k="fee" v="no"/>
    <tag k="foot" v="yes"/>
    <tag k="maxweight" v="3.5"/>
    <tag k="motorcar" v="yes"/>
    <tag k="name" v="Drusus"/>
    <tag k="route" v="ferry"/>
    <tag k="website" v="http://www.rheinmuenster.de/Faehrverbindungen.htm"/>
  </way>
</osm>
