<?xml version='1.0' encoding='UTF-8'?>
<osm version="0.6" generator="libosmium/2.20.0">
  <way id="35563372" version="1" timestamp="2009-06-06T22:01:09Z" uid="34428" user="usm78-gis" changeset="1442920">
    <nd ref="416703277"/>
    <nd ref="22302440"/>
    <tag k="cladr:code" v="78000000000026300"/>
    <tag k="cladr:name" v="Воронежская"/>
    <tag k="cladr:suffix" v="Улица"/>
    <tag k="highway" v="residential"/>
    <tag k="name" v="Воронежская ул."/>
    <tag k="oneway" v="yes"/>
  </way>
  <way id="35563372" version="2" timestamp="2010-08-18T18:25:01Z" uid="127299" user="Batareikin" changeset="5529119">
    <nd ref="304771471"/>
    <nd ref="22302435"/>
    <nd ref="416703277"/>
    <nd ref="22302440"/>
    <nd ref="307292"/>
    <tag k="cladr:code" v="78000000000026300"/>
    <tag k="cladr:name" v="Воронежская"/>
    <tag k="cladr:suffix" v="Улица"/>
    <tag k="highway" v="residential"/>
    <tag k="name" v="Воронежская улица"/>
    <tag k="oneway" v="yes"/>
  </way>
  <way id="35563372" version="3" timestamp="2010-12-23T12:04:19Z" uid="226626" user="sokolgeo" changeset="6744537">
    <nd ref="304771471"/>
    <nd ref="22302435"/>
    <nd ref="416703277"/>
    <nd ref="22302440"/>
    <nd ref="307292"/>
    <tag k="cladr:code" v="78000000000026300"/>
    <tag k="cladr:name" v="Воронежская"/>
    <tag k="cladr:suffix" v="Улица"/>
    <tag k="highway" v="residential"/>
    <tag k="maxspeed" v="60"/>
    <tag k="name" v="Воронежская улица"/>
    <tag k="oneway" v="yes"/>
  </way>
  <way id="35563372" version="4" timestamp="2011-07-30T08:45:08Z" uid="431056" user="mbiker" changeset="8869991">
    <nd ref="304771471"/>
    <nd ref="22302435"/>
    <nd ref="416703277"/>
    <nd ref="22302440"/>
    <nd ref="1378490399"/>
    <nd ref="307292"/>
    <tag k="cladr:code" v="78000000000026300"/>
    <tag k="cladr:name" v="Воронежская"/>
    <tag k="cladr:suffix" v="Улица"/>
    <tag k="highway" v="residential"/>
    <tag k="maxspeed" v="60"/>
    <tag k="name" v="Воронежская улица"/>
    <tag k="oneway" v="yes"/>
  </way>
  <way id="35563372" version="5" timestamp="2011-08-29T17:43:56Z" uid="39040" user="Dinamik" changeset="9160000">
    <nd ref="304771471"/>
    <nd ref="22302435"/>
    <nd ref="416703277"/>
    <nd ref="22302440"/>
    <nd ref="1378490399"/>
    <nd ref="307292"/>
    <tag k="cladr:code" v="78000000000026300"/>
    <tag k="cladr:name" v="Воронежская"/>
    <tag k="cladr:suffix" v="Улица"/>
    <tag k="highway" v="residential"/>
    <tag k="name" v="Воронежская улица"/>
    <tag k="oneway" v="yes"/>
  </way>
  <way id="35563372" version="6" timestamp="2011-09-27T21:42:41Z" uid="143266" user="Sergey Astakhov" changeset="9415123">
    <nd ref="304771471"/>
    <nd ref="22302435"/>
    <nd ref="416703277"/>
    <nd ref="22302440"/>
    <nd ref="1378490399"/>
    <nd ref="307292"/>
    <tag k="highway" v="residential"/>
    <tag k="name" v="Воронежская улица"/>
    <tag k="oneway" v="yes"/>
  </way>
  <way id="35563684" version="1" timestamp="2009-06-06T22:02:19Z" uid="34428" user="usm78-gis" changeset="1442927">
    <nd ref="416704362"/>
    <nd ref="223659"/>
    <tag k="addr:postcode" v="143103"/>
    <tag k="cladr:code" v="78000000000123800"/>
    <tag k="cladr:name" v="Садовая"/>
    <tag k="cladr:suffix" v="Улица"/>
    <tag k="highway" v="tertiary"/>
    <tag k="name" v="Садовая ул."/>
  </way>
  <way id="35563684" version="2" timestamp="2009-08-13T06:58:04Z" uid="49481" user="lupin-de-mid" changeset="2127432">
    <nd ref="416704362"/>
    <nd ref="463180841"/>
    <nd ref="223659"/>
    <tag k="addr:postcode" v="143103"/>
    <tag k="cladr:code" v="78000000000123800"/>
    <tag k="cladr:name" v="Садовая"/>
    <tag k="cladr:suffix" v="Улица"/>
    <tag k="highway" v="tertiary"/>
    <tag k="name" v="Садовая ул."/>
  </way>
  <way id="35563684" version="3" timestamp="2009-08-13T09:10:15Z" uid="49481" user="lupin-de-mid" changeset="2128700">
    <nd ref="416704362"/>
    <nd ref="463180841"/>
    <nd ref="463207238"/>
    <nd ref="223659"/>
    <tag k="addr:postcode" v="143103"/>
    <tag k="cladr:code" v="78000000000123800"/>
    <tag k="cladr:name" v="Садовая"/>
    <tag k="cladr:suffix" v="Улица"/>
    <tag k="highway" v="tertiary"/>
    <tag k="name" v="Садовая ул."/>
  </way>
  <way id="35563684" version="4" timestamp="2009-09-01T17:02:15Z" uid="95117" user="one_half_3544" changeset="2339970">
    <nd ref="416704362"/>
    <nd ref="463180841"/>
    <nd ref="463207238"/>
    <nd ref="223659"/>
    <tag k="addr:postcode" v="143103"/>
    <tag k="cladr:code" v="78000000000123800"/>
    <tag k="cladr:name" v="Садовая"/>
    <tag k="cladr:suffix" v="Улица"/>
    <tag k="highway" v="tertiary"/>
    <tag k="name" v="Садовая ул."/>
    <tag k="railway" v="tram"/>
  </way>
  <way id="35563684" version="5" timestamp="2009-11-28T11:45:51Z" uid="136198" user="tmprec" changeset="3235164">
    <nd ref="463180841"/>
    <nd ref="463207238"/>
    <nd ref="223659"/>
    <tag k="addr:postcode" v="143103"/>
    <tag k="cladr:code" v="78000000000123800"/>
    <tag k="cladr:name" v="Садовая"/>
    <tag k="cladr:suffix" v="Улица"/>
    <tag k="highway" v="tertiary"/>
    <tag k="name" v="Садовая ул."/>
    <tag k="railway" v="tram"/>
  </way>
  <way id="35563684" version="6" timestamp="2009-11-28T17:41:02Z" uid="136198" user="tmprec" changeset="3238318"/>
  <way id="35563690" version="1" timestamp="2009-06-06T22:02:23Z" uid="34428" user="usm78-gis" changeset="1442927">
    <nd ref="414011836"/>
    <nd ref="414011837"/>
    <nd ref="414011838"/>
    <tag k="highway" v="pedestrian"/>
  </way>
  <way id="35563690" version="2" timestamp="2009-07-02T04:37:02Z" uid="69864" user="Ivan Komarov" changeset="1706645">
    <nd ref="416704362"/>
    <nd ref="414011837"/>
    <nd ref="414011838"/>
    <tag k="highway" v="pedestrian"/>
  </way>
  <way id="35563690" version="3" timestamp="2009-08-13T06:58:05Z" uid="49481" user="lupin-de-mid" changeset="2127432"/>
  <way id="35563703" version="1" timestamp="2009-06-06T22:02:25Z" uid="34428" user="usm78-gis" changeset="1442927">
    <nd ref="414011835"/>
    <nd ref="416704362"/>
    <nd ref="414011836"/>
    <tag k="highway" v="pedestrian"/>
  </way>
  <way id="35563703" version="2" timestamp="2009-07-02T04:36:47Z" uid="69864" user="Ivan Komarov" changeset="1706645">
    <nd ref="414011835"/>
    <nd ref="416704362"/>
    <tag k="highway" v="pedestrian"/>
  </way>
  <way id="35563703" version="3" timestamp="2009-08-13T06:58:05Z" uid="49481" user="lupin-de-mid" changeset="2127432"/>
  <way id="35563732" version="1" timestamp="2009-06-06T22:02:31Z" uid="34428" user="usm78-gis" changeset="1442927">
    <nd ref="414011834"/>
    <nd ref="412194997"/>
    <nd ref="412194998"/>
    <nd ref="246004"/>
    <tag k="addr:postcode" v="190031"/>
    <tag k="cladr:code" v="78000000000040900"/>
    <tag k="cladr:name" v="Ефимова"/>
    <tag k="cladr:suffix" v="Улица"/>
    <tag k="highway" v="residential"/>
    <tag k="name" v="Ефимова ул."/>
  </way>
  <way id="35563732" version="2" timestamp="2009-08-14T14:04:56Z" uid="49481" user="lupin-de-mid" changeset="2143400">
    <nd ref="414011834"/>
    <nd ref="465565390"/>
    <nd ref="412194997"/>
    <nd ref="412194998"/>
    <nd ref="246004"/>
    <tag k="addr:postcode" v="190031"/>
    <tag k="cladr:code" v="78000000000040900"/>
    <tag k="cladr:name" v="Ефимова"/>
    <tag k="cladr:suffix" v="Улица"/>
    <tag k="highway" v="residential"/>
    <tag k="name" v="Ефимова ул."/>
  </way>
  <way id="35563732" version="3" timestamp="2009-08-14T14:06:23Z" uid="49481" user="lupin-de-mid" changeset="2143400">
    <nd ref="414011834"/>
    <nd ref="465565390"/>
    <nd ref="465568190"/>
    <nd ref="465568187"/>
    <nd ref="412194997"/>
    <nd ref="412194998"/>
    <nd ref="246004"/>
    <tag k="addr:postcode" v="190031"/>
    <tag k="cladr:code" v="78000000000040900"/>
    <tag k="cladr:name" v="Ефимова"/>
    <tag k="cladr:suffix" v="Улица"/>
    <tag k="highway" v="residential"/>
    <tag k="name" v="Ефимова ул."/>
  </way>
  <way id="35563732" version="4" timestamp="2009-11-28T17:41:01Z" uid="136198" user="tmprec" changeset="3238318">
    <nd ref="101531795"/>
    <nd ref="465568190"/>
    <nd ref="246004"/>
    <tag k="addr:postcode" v="190031"/>
    <tag k="cladr:code" v="78000000000040900"/>
    <tag k="cladr:name" v="Ефимова"/>
    <tag k="cladr:suffix" v="Улица"/>
    <tag k="highway" v="residential"/>
    <tag k="name" v="Ефимова ул."/>
  </way>
  <way id="35563732" version="5" timestamp="2010-08-15T08:49:06Z" uid="136198" user="tmprec" changeset="5497156">
    <nd ref="101531795"/>
    <nd ref="860952776"/>
    <nd ref="246004"/>
    <tag k="addr:postcode" v="190031"/>
    <tag k="cladr:code" v="78000000000040900"/>
    <tag k="cladr:name" v="Ефимова"/>
    <tag k="cladr:suffix" v="Улица"/>
    <tag k="highway" v="residential"/>
    <tag k="name" v="Ефимова ул."/>
  </way>
  <way id="35563732" version="6" timestamp="2010-10-11T19:11:47Z" uid="81821" user="alexsaf" changeset="6014924">
    <nd ref="101531795"/>
    <nd ref="945324980"/>
    <nd ref="860952776"/>
    <nd ref="246004"/>
    <tag k="addr:postcode" v="190031"/>
    <tag k="cladr:code" v="78000000000040900"/>
    <tag k="cladr:name" v="Ефимова"/>
    <tag k="cladr:suffix" v="Улица"/>
    <tag k="highway" v="residential"/>
    <tag k="name" v="Ефимова ул."/>
  </way>
  <way id="35563732" version="7" timestamp="2010-10-21T15:22:11Z" uid="49481" user="lupin-de-mid" changeset="6128248">
    <nd ref="101531795"/>
    <nd ref="945324980"/>
    <nd ref="860952776"/>
    <nd ref="959496058"/>
    <nd ref="959496053"/>
    <nd ref="246004"/>
    <tag k="addr:postcode" v="190031"/>
    <tag k="cladr:code" v="78000000000040900"/>
    <tag k="cladr:name" v="Ефимова"/>
    <tag k="cladr:suffix" v="Улица"/>
    <tag k="highway" v="residential"/>
    <tag k="name" v="Ефимова ул."/>
  </way>
  <way id="35563732" version="8" timestamp="2010-11-03T12:41:24Z" uid="49481" user="lupin-de-mid" changeset="6275661">
    <nd ref="101531795"/>
    <nd ref="945324980"/>
    <nd ref="860952776"/>
    <nd ref="959496058"/>
    <nd ref="959496053"/>
    <nd ref="246004"/>
    <tag k="addr:postcode" v="190031"/>
    <tag k="cladr:code" v="78000000000040900"/>
    <tag k="cladr:name" v="Ефимова"/>
    <tag k="cladr:suffix" v="Улица"/>
    <tag k="highway" v="residential"/>
    <tag k="name" v="Ефимова улица"/>
  </way>
  <way id="35563732" version="9" timestamp="2011-05-03T21:03:11Z" uid="231182" user="klif22" changeset="8043854">
    <nd ref="101531795"/>
    <nd ref="945324980"/>
    <nd ref="860952776"/>
    <nd ref="959496058"/>
    <nd ref="959496053"/>
    <nd ref="246004"/>
    <tag k="addr:postcode" v="190031"/>
    <tag k="cladr:code" v="78000000000040900"/>
    <tag k="cladr:name" v="Ефимова"/>
    <tag k="cladr:suffix" v="Улица"/>
    <tag k="highway" v="residential"/>
    <tag k="name" v="улица Ефимова"/>
  </way>
  <way id="35563732" version="10" timestamp="2011-05-19T09:44:29Z" uid="456996" user="IPOLHSNA" changeset="8188239">
    <nd ref="101531795"/>
    <nd ref="945324980"/>
    <nd ref="860952776"/>
    <nd ref="959496058"/>
    <nd ref="959496053"/>
    <nd ref="246004"/>
    <tag k="addr:postcode" v="190031"/>
    <tag k="cladr:code" v="78000000000040900"/>
    <tag k="cladr:name" v="Ефимова"/>
    <tag k="cladr:suffix" v="Улица"/>
    <tag k="highway" v="residential"/>
    <tag k="name" v="улица Ефимова"/>
    <tag k="oneway" v="yes"/>
  </way>
  <way id="35563732" version="11" timestamp="2011-06-06T18:46:34Z" uid="95117" user="one_half_3544" changeset="8363120">
    <nd ref="101531795"/>
    <nd ref="945324980"/>
    <nd ref="1314375418"/>
    <tag k="addr:postcode" v="190031"/>
    <tag k="cladr:code" v="78000000000040900"/>
    <tag k="cladr:name" v="Ефимова"/>
    <tag k="cladr:suffix" v="Улица"/>
    <tag k="highway" v="residential"/>
    <tag k="name" v="улица Ефимова"/>
    <tag k="oneway" v="yes"/>
  </way>
  <way id="35563732" version="12" timestamp="2011-09-27T21:46:16Z" uid="143266" user="Sergey Astakhov" changeset="9415123">
    <nd ref="101531795"/>
    <nd ref="945324980"/>
    <nd ref="1314375418"/>
    <tag k="addr:postcode" v="190031"/>
    <tag k="highway" v="residential"/>
    <tag k="name" v="улица Ефимова"/>
    <tag k="oneway" v="yes"/>
  </way>
  <way id="35563732" version="13" timestamp="2011-12-31T12:07:46Z" uid="437809" user="Anton Khorev" changeset="10253968">
    <nd ref="1570984707"/>
    <nd ref="945324980"/>
    <nd ref="1314375418"/>
    <tag k="addr:postcode" v="190031"/>
    <tag k="highway" v="residential"/>
    <tag k="name" v="улица Ефимова"/>
    <tag k="oneway" v="yes"/>
  </way>
  <way id="35563770" version="1" timestamp="2009-06-06T22:02:37Z" uid="34428" user="usm78-gis" changeset="1442927">
    <nd ref="414011835"/>
    <nd ref="307196"/>
    <tag k="cladr:code" v="78000000000085200"/>
    <tag k="cladr:name" v="Московский"/>
    <tag k="cladr:suffix" v="Проспект"/>
    <tag k="highway" v="primary"/>
    <tag k="name" v="Московский пр."/>
  </way>
  <way id="35563770" version="2" timestamp="2009-11-28T17:41:01Z" uid="136198" user="tmprec" changeset="3238318">
    <nd ref="223659"/>
    <nd ref="307196"/>
    <nd ref="21991241"/>
    <tag k="cladr:code" v="78000000000085200"/>
    <tag k="cladr:name" v="Московский"/>
    <tag k="cladr:suffix" v="Проспект"/>
    <tag k="highway" v="primary"/>
    <tag k="name" v="Московский пр."/>
  </way>
  <way id="35563770" version="3" timestamp="2010-07-08T08:32:48Z" uid="49481" user="lupin-de-mid" changeset="5164301">
    <nd ref="223659"/>
    <nd ref="307196"/>
    <nd ref="21991241"/>
    <tag k="cladr:code" v="78000000000085200"/>
    <tag k="cladr:name" v="Московский"/>
    <tag k="cladr:suffix" v="Проспект"/>
    <tag k="highway" v="secondary"/>
    <tag k="name" v="Московский пр."/>
  </way>
  <way id="35563770" version="4" timestamp="2010-08-16T18:35:19Z" uid="136198" user="tmprec" changeset="5511723">
    <nd ref="223659"/>
    <nd ref="307196"/>
    <tag k="cladr:code" v="78000000000085200"/>
    <tag k="cladr:name" v="Московский"/>
    <tag k="cladr:suffix" v="Проспект"/>
    <tag k="highway" v="secondary"/>
    <tag k="name" v="Московский пр."/>
  </way>
  <way id="35563770" version="5" timestamp="2010-09-09T06:51:43Z" uid="301456" user="SoNiKa" changeset="5730053">
    <nd ref="223659"/>
    <nd ref="307196"/>
    <tag k="cladr:code" v="78000000000085200"/>
    <tag k="cladr:name" v="Московский"/>
    <tag k="cladr:suffix" v="Проспект"/>
    <tag k="highway" v="secondary"/>
    <tag k="name" v="Московский проспект"/>
  </way>
  <way id="35563770" version="6" timestamp="2010-10-11T19:11:46Z" uid="81821" user="alexsaf" changeset="6014924">
    <nd ref="223659"/>
    <nd ref="945324972"/>
    <nd ref="307196"/>
    <tag k="cladr:code" v="78000000000085200"/>
    <tag k="cladr:name" v="Московский"/>
    <tag k="cladr:suffix" v="Проспект"/>
    <tag k="highway" v="secondary"/>
    <tag k="name" v="Московский проспект"/>
  </way>
  <way id="35563770" version="7" timestamp="2010-10-18T20:54:53Z" uid="49481" user="lupin-de-mid" changeset="6086952">
    <nd ref="223659"/>
    <nd ref="945324972"/>
    <nd ref="307196"/>
    <tag k="cladr:code" v="78000000000085200"/>
    <tag k="cladr:name" v="Московский"/>
    <tag k="cladr:suffix" v="Проспект"/>
    <tag k="highway" v="tertiary"/>
    <tag k="name" v="Московский проспект"/>
  </way>
  <way id="35563770" version="8" timestamp="2010-11-15T04:31:03Z" uid="226626" user="sokolgeo" changeset="6374843">
    <nd ref="223659"/>
    <nd ref="945324972"/>
    <nd ref="307196"/>
    <tag k="cladr:code" v="78000000000085200"/>
    <tag k="cladr:name" v="Московский"/>
    <tag k="cladr:suffix" v="Проспект"/>
    <tag k="highway" v="tertiary"/>
    <tag k="maxspeed" v="60"/>
    <tag k="name" v="Московский проспект"/>
  </way>
  <way id="35563770" version="9" timestamp="2011-06-24T18:29:54Z" uid="95117" user="one_half_3544" changeset="8535578">
    <nd ref="223659"/>
    <nd ref="1337314624"/>
    <tag k="cladr:code" v="78000000000085200"/>
    <tag k="cladr:name" v="Московский"/>
    <tag k="cladr:suffix" v="Проспект"/>
    <tag k="highway" v="tertiary"/>
    <tag k="maxspeed" v="60"/>
    <tag k="name" v="Московский проспект"/>
  </way>
  <way id="35563770" version="10" timestamp="2011-09-15T07:30:23Z" uid="392109" user="GaM" changeset="9305479">
    <nd ref="223659"/>
    <nd ref="1337314624"/>
    <tag k="highway" v="primary"/>
    <tag k="maxspeed" v="60"/>
    <tag k="name" v="Московский проспект"/>
  </way>
  <way id="35563770" version="11" timestamp="2011-11-14T21:21:43Z" uid="39040" user="Dinamik" changeset="9829103"/>
</osm>
