<?xml version='1.0' encoding='UTF-8'?>
<osm version="0.6" generator="libosmium/2.20.0">
  <way id="35698276" version="2" timestamp="2010-03-28T02:16:12Z" uid="20587" user="balrog-kun" changeset="4250871">
    <nd ref="417948754"/>
    <nd ref="54287765"/>
    <nd ref="54287767"/>
    <tag k="highway" v="residential"/>
    <tag k="name" v="Overland Drive"/>
    <tag k="tiger:cfcc" v="A41"/>
    <tag k="tiger:county" v="Riverside, CA"/>
    <tag k="tiger:name_base" v="Overland"/>
    <tag k="tiger:name_type" v="Dr"/>
    <tag k="tiger:reviewed" v="no"/>
    <tag k="tiger:separated" v="no"/>
    <tag k="tiger:source" v="tiger_import_dch_v0.6_20070809"/>
    <tag k="tiger:tlid" v="194878490:195085082:195089654"/>
  </way>
  <way id="35698276" version="3" timestamp="2010-07-27T00:15:20Z" uid="313196" user="vvvexp97" changeset="5325488">
    <nd ref="417948754"/>
    <nd ref="54287765"/>
    <tag k="highway" v="secondary"/>
    <tag k="name" v="Overland Drive"/>
    <tag k="tiger:cfcc" v="A41"/>
    <tag k="tiger:county" v="Riverside, CA"/>
    <tag k="tiger:name_base" v="Overland"/>
    <tag k="tiger:name_type" v="Dr"/>
    <tag k="tiger:reviewed" v="no"/>
    <tag k="tiger:separated" v="no"/>
    <tag k="tiger:source" v="tiger_import_dch_v0.6_20070809"/>
    <tag k="tiger:tlid" v="194878490:195085082:195089654"/>
  </way>
  <way id="35698276" version="4" timestamp="2011-03-11T18:21:14Z" uid="313196" user="vvvexp97" changeset="7525964">
    <nd ref="417948754"/>
    <nd ref="1197083516"/>
    <nd ref="1197083566"/>
    <nd ref="54287765"/>
    <tag k="highway" v="secondary"/>
    <tag k="name" v="Overland Drive"/>
    <tag k="tiger:cfcc" v="A41"/>
    <tag k="tiger:county" v="Riverside, CA"/>
    <tag k="tiger:name_base" v="Overland"/>
    <tag k="tiger:name_type" v="Dr"/>
    <tag k="tiger:reviewed" v="no"/>
    <tag k="tiger:separated" v="no"/>
    <tag k="tiger:source" v="tiger_import_dch_v0.6_20070809"/>
    <tag k="tiger:tlid" v="194878490:195085082:195089654"/>
  </way>
  <way id="35698280" version="2" timestamp="2010-03-28T02:16:12Z" uid="20587" user="balrog-kun" changeset="4250871">
    <nd ref="54287761"/>
    <nd ref="417948754"/>
    <tag k="bridge" v="yes"/>
    <tag k="highway" v="residential"/>
    <tag k="layer" v="1"/>
    <tag k="name" v="Overland Drive"/>
    <tag k="tiger:cfcc" v="A41"/>
    <tag k="tiger:county" v="Riverside, CA"/>
    <tag k="tiger:name_base" v="Overland"/>
    <tag k="tiger:name_type" v="Dr"/>
    <tag k="tiger:reviewed" v="no"/>
    <tag k="tiger:separated" v="no"/>
    <tag k="tiger:source" v="tiger_import_dch_v0.6_20070809"/>
    <tag k="tiger:tlid" v="194878490:195085082:195089654"/>
  </way>
  <way id="35698280" version="3" timestamp="2010-07-27T00:15:20Z" uid="313196" user="vvvexp97" changeset="5325488">
    <nd ref="54287761"/>
    <nd ref="417948754"/>
    <tag k="bridge" v="yes"/>
    <tag k="highway" v="secondary"/>
    <tag k="layer" v="1"/>
    <tag k="name" v="Overland Drive"/>
    <tag k="tiger:cfcc" v="A41"/>
    <tag k="tiger:county" v="Riverside, CA"/>
    <tag k="tiger:name_base" v="Overland"/>
    <tag k="tiger:name_type" v="Dr"/>
    <tag k="tiger:reviewed" v="no"/>
    <tag k="tiger:separated" v="no"/>
    <tag k="tiger:source" v="tiger_import_dch_v0.6_20070809"/>
    <tag k="tiger:tlid" v="194878490:195085082:195089654"/>
  </way>
  <way id="35698280" version="4" timestamp="2011-03-11T18:21:14Z" uid="313196" user="vvvexp97" changeset="7525964">
    <nd ref="54287761"/>
    <nd ref="1197083444"/>
    <nd ref="1197083570"/>
    <nd ref="1197083555"/>
    <nd ref="1197083525"/>
    <nd ref="1197083463"/>
    <nd ref="1197083520"/>
    <nd ref="1197083572"/>
    <nd ref="1197083511"/>
    <nd ref="1197083548"/>
    <nd ref="417948754"/>
    <tag k="bridge" v="yes"/>
    <tag k="highway" v="secondary"/>
    <tag k="layer" v="1"/>
    <tag k="name" v="Overland Drive"/>
    <tag k="tiger:cfcc" v="A41"/>
    <tag k="tiger:county" v="Riverside, CA"/>
    <tag k="tiger:name_base" v="Overland"/>
    <tag k="tiger:name_type" v="Dr"/>
    <tag k="tiger:reviewed" v="no"/>
    <tag k="tiger:separated" v="no"/>
    <tag k="tiger:source" v="tiger_import_dch_v0.6_20070809"/>
    <tag k="tiger:tlid" v="194878490:195085082:195089654"/>
  </way>
  <way id="35698280" version="5" timestamp="2011-07-13T09:34:37Z" uid="82317" user="AM909" changeset="8710729">
    <nd ref="54287761"/>
    <nd ref="1197083444"/>
    <nd ref="1197083570"/>
    <nd ref="1197083555"/>
    <nd ref="1197083525"/>
    <nd ref="1197083463"/>
    <nd ref="1197083520"/>
    <nd ref="1197083572"/>
    <nd ref="1197083511"/>
    <nd ref="1197083548"/>
    <nd ref="417948754"/>
    <tag k="bridge" v="yes"/>
    <tag k="bridge_name" v="Overland OC"/>
    <tag k="bridge_ref" v="15/RIV/56-0792"/>
    <tag k="highway" v="secondary"/>
    <tag k="is_in:state_code" v="CA"/>
    <tag k="layer" v="1"/>
    <tag k="milepost:county" v="6.00"/>
    <tag k="name" v="Overland Drive"/>
    <tag k="note" v="Bridge ref pic from I-15 North. Incorrectly signed -792R."/>
    <tag k="source:bridge" v="bing_imagery_0.25m_201005;survey;image"/>
    <tag k="source_ref:bridge" v="AM909_DSCX9430"/>
    <tag k="tiger:cfcc" v="A41"/>
    <tag k="tiger:county" v="Riverside, CA"/>
    <tag k="tiger:name_base" v="Overland"/>
    <tag k="tiger:name_type" v="Dr"/>
    <tag k="tiger:separated" v="no"/>
    <tag k="tiger:source" v="tiger_import_dch_v0.6_20070809"/>
    <tag k="tiger:tlid" v="194878490:195085082:195089654"/>
  </way>
  <way id="35698377" version="1" timestamp="2009-06-09T15:00:41Z" uid="74617" user="JohnSmith" changeset="1469147">
    <nd ref="362280742"/>
    <nd ref="362280743"/>
    <nd ref="362280744"/>
    <nd ref="362280745"/>
    <nd ref="362280746"/>
    <nd ref="362280747"/>
    <nd ref="362280748"/>
    <nd ref="362222338"/>
    <tag k="admin_level" v="10"/>
    <tag k="attribution" v="Based on Australian Bureau of Statistics data"/>
    <tag k="boundary" v="administrative"/>
    <tag k="source" v="ABS_2006"/>
  </way>
  <way id="35698377" version="2" timestamp="2012-02-06T12:28:09Z" uid="147510" user="woodpeck_fixbot" changeset="10602275">
    <nd ref="362280742"/>
    <nd ref="362280743"/>
    <nd ref="362280744"/>
    <nd ref="362280745"/>
    <nd ref="362280746"/>
    <nd ref="362280747"/>
    <nd ref="362280748"/>
    <tag k="admin_level" v="10"/>
    <tag k="attribution" v="Based on Australian Bureau of Statistics data"/>
    <tag k="boundary" v="administrative"/>
    <tag k="source" v="ABS_2006"/>
  </way>
  <way id="35698378" version="1" timestamp="2009-06-09T15:00:41Z" uid="74617" user="JohnSmith" changeset="1469147">
    <nd ref="417948885"/>
    <nd ref="417948884"/>
    <nd ref="417948883"/>
    <nd ref="417948882"/>
    <nd ref="417948878"/>
    <nd ref="417948879"/>
    <nd ref="417948880"/>
    <nd ref="362280742"/>
    <tag k="name" v="North Coast Line"/>
    <tag k="railway" v="rail"/>
    <tag k="source" v="yahoo"/>
  </way>
  <way id="35698378" version="2" timestamp="2009-06-09T15:13:57Z" uid="74617" user="JohnSmith" changeset="1469257">
    <nd ref="362212101"/>
    <nd ref="417951871"/>
    <nd ref="417951872"/>
    <nd ref="417951873"/>
    <nd ref="417951874"/>
    <nd ref="417951875"/>
    <nd ref="417951876"/>
    <nd ref="417951877"/>
    <nd ref="417951878"/>
    <nd ref="417951879"/>
    <nd ref="417951880"/>
    <nd ref="417951881"/>
    <nd ref="417951882"/>
    <nd ref="417951883"/>
    <nd ref="417951884"/>
    <nd ref="417951885"/>
    <nd ref="417951886"/>
    <nd ref="417951889"/>
    <nd ref="417951890"/>
    <nd ref="417951891"/>
    <nd ref="417951888"/>
    <nd ref="417951892"/>
    <nd ref="417951887"/>
    <nd ref="417951894"/>
    <nd ref="417951893"/>
    <nd ref="417948885"/>
    <nd ref="417948884"/>
    <nd ref="417948883"/>
    <nd ref="417948882"/>
    <nd ref="417948878"/>
    <nd ref="417948879"/>
    <nd ref="417948880"/>
    <nd ref="362280742"/>
    <tag k="name" v="North Coast Line"/>
    <tag k="railway" v="rail"/>
    <tag k="source" v="yahoo"/>
  </way>
  <way id="35698458" version="4" timestamp="2010-03-28T02:16:12Z" uid="20587" user="balrog-kun" changeset="4250871">
    <nd ref="411244509"/>
    <nd ref="411244402"/>
    <nd ref="411244510"/>
    <nd ref="411244511"/>
    <nd ref="411244512"/>
    <nd ref="411244513"/>
    <tag k="highway" v="motorway"/>
    <tag k="name" v="I-15"/>
    <tag k="name_1" v="Escondido Freeway"/>
    <tag k="oneway" v="yes"/>
    <tag k="ref" v="I 15"/>
    <tag k="tiger:cfcc" v="A15"/>
    <tag k="tiger:county" v="Riverside, CA"/>
    <tag k="tiger:name_base" v="I-15"/>
    <tag k="tiger:name_base_1" v="Escondido"/>
    <tag k="tiger:name_type_1" v="Fwy"/>
    <tag k="tiger:separated" v="yes"/>
    <tag k="tiger:source" v="tiger_import_dch_v0.6_20070809"/>
    <tag k="tiger:tlid" v="194878318:194860905"/>
  </way>
  <way id="35698458" version="5" timestamp="2010-08-18T03:38:35Z" uid="313196" user="vvvexp97" changeset="5522922">
    <nd ref="411244509"/>
    <nd ref="411244402"/>
    <nd ref="411244510"/>
    <nd ref="411244511"/>
    <nd ref="411244512"/>
    <nd ref="411244513"/>
    <tag k="highway" v="motorway"/>
    <tag k="name" v="I-15"/>
    <tag k="name_1" v="Deputy Kent Hintergardt Memorial Highway"/>
    <tag k="oneway" v="yes"/>
    <tag k="ref" v="I 15"/>
    <tag k="tiger:cfcc" v="A15"/>
    <tag k="tiger:county" v="Riverside, CA"/>
    <tag k="tiger:name_base" v="I-15"/>
    <tag k="tiger:name_base_1" v="Escondido"/>
    <tag k="tiger:name_type_1" v="Fwy"/>
    <tag k="tiger:separated" v="yes"/>
    <tag k="tiger:source" v="tiger_import_dch_v0.6_20070809"/>
    <tag k="tiger:tlid" v="194878318:194860905"/>
  </way>
  <way id="35698458" version="6" timestamp="2010-08-18T03:42:55Z" uid="313196" user="vvvexp97" changeset="5522922">
    <nd ref="411244509"/>
    <nd ref="411244402"/>
    <nd ref="411244510"/>
    <nd ref="411244511"/>
    <nd ref="411244512"/>
    <nd ref="411244513"/>
    <tag k="highway" v="motorway"/>
    <tag k="name" v="Deputy Kent Hintergardt Memorial Highway"/>
    <tag k="name_1" v="Deputy Kent Hintergardt Memorial Highway"/>
    <tag k="oneway" v="yes"/>
    <tag k="ref" v="I 15"/>
    <tag k="tiger:cfcc" v="A15"/>
    <tag k="tiger:county" v="Riverside, CA"/>
    <tag k="tiger:name_base" v="I-15"/>
    <tag k="tiger:name_base_1" v="Escondido"/>
    <tag k="tiger:name_type_1" v="Fwy"/>
    <tag k="tiger:separated" v="yes"/>
    <tag k="tiger:source" v="tiger_import_dch_v0.6_20070809"/>
    <tag k="tiger:tlid" v="194878318:194860905"/>
  </way>
  <way id="35698458" version="7" timestamp="2011-07-13T09:34:37Z" uid="82317" user="AM909" changeset="8710729">
    <nd ref="411244509"/>
    <nd ref="411244402"/>
    <nd ref="411244510"/>
    <nd ref="411244511"/>
    <nd ref="411244512"/>
    <nd ref="411244513"/>
    <tag k="highway" v="motorway"/>
    <tag k="maxspeed" v="70 mph"/>
    <tag k="maxspeed:hgv" v="55 mph"/>
    <tag k="maxspeed:towing" v="55 mph"/>
    <tag k="name" v="Temecula Valley Freeway"/>
    <tag k="official_name" v="Deputy Kent Hintergardt Memorial Highway"/>
    <tag k="oneway" v="yes"/>
    <tag k="ref" v="I 15"/>
    <tag k="source" v="GPS;bing_imagery_0.25m_201005;survey"/>
    <tag k="source:maxspeed" v="survey;image"/>
    <tag k="source:maxspeed:hgv" v="survey;image"/>
    <tag k="source:maxspeed:towing" v="survey;image"/>
    <tag k="source_ref:maxspeed" v="AM909_DSCX9429"/>
    <tag k="source_ref:maxspeed:hgv" v="AM909_DSCX9441"/>
    <tag k="source_ref:maxspeed:towing" v="AM909_DSCX9441"/>
    <tag k="tiger:cfcc" v="A15"/>
    <tag k="tiger:county" v="Riverside, CA"/>
    <tag k="tiger:name_base" v="I-15"/>
    <tag k="tiger:name_base_1" v="Escondido"/>
    <tag k="tiger:name_type_1" v="Fwy"/>
    <tag k="tiger:separated" v="yes"/>
    <tag k="tiger:source" v="tiger_import_dch_v0.6_20070809"/>
    <tag k="tiger:tlid" v="194878318:194860905"/>
  </way>
  <way id="35698458" version="8" timestamp="2011-07-31T15:23:33Z" uid="207745" user="NE2" changeset="8881942">
    <nd ref="411244509"/>
    <nd ref="411244402"/>
    <nd ref="411244510"/>
    <nd ref="411244511"/>
    <nd ref="411244512"/>
    <nd ref="411244513"/>
    <tag k="highway" v="motorway"/>
    <tag k="lanes" v="4"/>
    <tag k="maxspeed" v="70 mph"/>
    <tag k="maxspeed:hgv" v="55 mph"/>
    <tag k="maxspeed:towing" v="55 mph"/>
    <tag k="name" v="Temecula Valley Freeway"/>
    <tag k="official_name" v="Deputy Kent Hintergardt Memorial Highway"/>
    <tag k="oneway" v="yes"/>
    <tag k="ref" v="I 15"/>
    <tag k="source" v="GPS;bing_imagery_0.25m_201005;survey"/>
    <tag k="source:maxspeed" v="survey;image"/>
    <tag k="source:maxspeed:hgv" v="survey;image"/>
    <tag k="source:maxspeed:towing" v="survey;image"/>
    <tag k="source_ref:maxspeed" v="AM909_DSCX9429"/>
    <tag k="source_ref:maxspeed:hgv" v="AM909_DSCX9441"/>
    <tag k="source_ref:maxspeed:towing" v="AM909_DSCX9441"/>
    <tag k="tiger:cfcc" v="A15"/>
    <tag k="tiger:county" v="Riverside, CA"/>
    <tag k="tiger:name_base" v="I-15"/>
    <tag k="tiger:name_base_1" v="Escondido"/>
    <tag k="tiger:name_type_1" v="Fwy"/>
    <tag k="tiger:separated" v="yes"/>
    <tag k="tiger:source" v="tiger_import_dch_v0.6_20070809"/>
    <tag k="tiger:tlid" v="194878318:194860905"/>
  </way>
  <way id="35698458" version="9" timestamp="2011-11-25T15:23:14Z" uid="207745" user="NE2" changeset="9943893">
    <nd ref="411244509"/>
    <nd ref="411244402"/>
    <nd ref="411244510"/>
    <nd ref="411244511"/>
    <nd ref="411244512"/>
    <nd ref="411244513"/>
    <tag k="hgv" v="designated"/>
    <tag k="highway" v="motorway"/>
    <tag k="lanes" v="4"/>
    <tag k="maxspeed" v="70 mph"/>
    <tag k="maxspeed:hgv" v="55 mph"/>
    <tag k="maxspeed:towing" v="55 mph"/>
    <tag k="name" v="Temecula Valley Freeway"/>
    <tag k="official_name" v="Deputy Kent Hintergardt Memorial Highway"/>
    <tag k="oneway" v="yes"/>
    <tag k="ref" v="I 15"/>
    <tag k="source" v="GPS;bing_imagery_0.25m_201005;survey"/>
    <tag k="source:maxspeed" v="survey;image"/>
    <tag k="source:maxspeed:hgv" v="survey;image"/>
    <tag k="source:maxspeed:towing" v="survey;image"/>
    <tag k="source_ref:maxspeed" v="AM909_DSCX9429"/>
    <tag k="source_ref:maxspeed:hgv" v="AM909_DSCX9441"/>
    <tag k="source_ref:maxspeed:towing" v="AM909_DSCX9441"/>
    <tag k="tiger:cfcc" v="A15"/>
    <tag k="tiger:county" v="Riverside, CA"/>
    <tag k="tiger:name_base" v="I-15"/>
    <tag k="tiger:name_base_1" v="Escondido"/>
    <tag k="tiger:name_type_1" v="Fwy"/>
    <tag k="tiger:separated" v="yes"/>
    <tag k="tiger:source" v="tiger_import_dch_v0.6_20070809"/>
    <tag k="tiger:tlid" v="194878318:194860905"/>
  </way>
  <way id="35698463" version="2" timestamp="2010-03-28T02:16:13Z" uid="20587" user="balrog-kun" changeset="4250871">
    <nd ref="411244508"/>
    <nd ref="411244509"/>
    <tag k="bridge" v="yes"/>
    <tag k="highway" v="motorway"/>
    <tag k="layer" v="1"/>
    <tag k="name" v="I-15"/>
    <tag k="name_1" v="Escondido Freeway"/>
    <tag k="oneway" v="yes"/>
    <tag k="ref" v="I 15"/>
    <tag k="tiger:cfcc" v="A15"/>
    <tag k="tiger:county" v="Riverside, CA"/>
    <tag k="tiger:name_base" v="I-15"/>
    <tag k="tiger:name_base_1" v="Escondido"/>
    <tag k="tiger:name_type_1" v="Fwy"/>
    <tag k="tiger:reviewed" v="no"/>
    <tag k="tiger:separated" v="yes"/>
    <tag k="tiger:source" v="tiger_import_dch_v0.6_20070809"/>
    <tag k="tiger:tlid" v="194878318:194860905"/>
  </way>
  <way id="35698463" version="3" timestamp="2010-08-18T03:38:36Z" uid="313196" user="vvvexp97" changeset="5522922">
    <nd ref="411244508"/>
    <nd ref="411244509"/>
    <tag k="bridge" v="yes"/>
    <tag k="highway" v="motorway"/>
    <tag k="layer" v="1"/>
    <tag k="name" v="I-15"/>
    <tag k="name_1" v="Deputy Kent Hintergardt Memorial Highway"/>
    <tag k="oneway" v="yes"/>
    <tag k="ref" v="I 15"/>
    <tag k="tiger:cfcc" v="A15"/>
    <tag k="tiger:county" v="Riverside, CA"/>
    <tag k="tiger:name_base" v="I-15"/>
    <tag k="tiger:name_base_1" v="Escondido"/>
    <tag k="tiger:name_type_1" v="Fwy"/>
    <tag k="tiger:reviewed" v="no"/>
    <tag k="tiger:separated" v="yes"/>
    <tag k="tiger:source" v="tiger_import_dch_v0.6_20070809"/>
    <tag k="tiger:tlid" v="194878318:194860905"/>
  </way>
  <way id="35698463" version="4" timestamp="2011-06-27T18:41:13Z" uid="473471" user="NE3" changeset="8564771">
    <nd ref="411244508"/>
    <nd ref="411244509"/>
    <tag k="bridge" v="yes"/>
    <tag k="highway" v="motorway"/>
    <tag k="layer" v="1"/>
    <tag k="name" v="Deputy Kent Hintergardt Memorial Highway"/>
    <tag k="oneway" v="yes"/>
    <tag k="ref" v="I 15"/>
    <tag k="tiger:cfcc" v="A15"/>
    <tag k="tiger:county" v="Riverside, CA"/>
    <tag k="tiger:name_base" v="I-15"/>
    <tag k="tiger:name_base_1" v="Escondido"/>
    <tag k="tiger:name_type_1" v="Fwy"/>
    <tag k="tiger:reviewed" v="no"/>
    <tag k="tiger:separated" v="yes"/>
    <tag k="tiger:source" v="tiger_import_dch_v0.6_20070809"/>
    <tag k="tiger:tlid" v="194878318:194860905"/>
  </way>
  <way id="35698463" version="5" timestamp="2011-07-13T09:34:39Z" uid="82317" user="AM909" changeset="8710729">
    <nd ref="411244508"/>
    <nd ref="411244509"/>
    <tag k="bridge" v="yes"/>
    <tag k="bridge_name" v="Santa Gertrudis Creek"/>
    <tag k="bridge_ref" v="15/RIV/56-0271R"/>
    <tag k="highway" v="motorway"/>
    <tag k="is_in:state_code" v="CA"/>
    <tag k="layer" v="1"/>
    <tag k="maxspeed" v="70 mph"/>
    <tag k="maxspeed:hgv" v="55 mph"/>
    <tag k="maxspeed:towing" v="55 mph"/>
    <tag k="milepost:county" v="6.73"/>
    <tag k="name" v="Temecula Valley Freeway"/>
    <tag k="note" v="Bridge ref pic from I-15 North"/>
    <tag k="official_name" v="Deputy Kent Hintergardt Memorial Highway"/>
    <tag k="oneway" v="yes"/>
    <tag k="ref" v="I 15"/>
    <tag k="source" v="GPS;bing_imagery_0.25m_201005;survey"/>
    <tag k="source:bridge" v="bing_imagery_0.25m_201005;survey;image;CDOT"/>
    <tag k="source:maxspeed" v="survey;image"/>
    <tag k="source:maxspeed:hgv" v="survey;image"/>
    <tag k="source:maxspeed:towing" v="survey;image"/>
    <tag k="source_ref:bridge" v="AM909_DSCX9434"/>
    <tag k="source_ref:maxspeed" v="AM909_DSCX9429"/>
    <tag k="source_ref:maxspeed:hgv" v="AM909_DSCX9441"/>
    <tag k="source_ref:maxspeed:towing" v="AM909_DSCX9441"/>
    <tag k="tiger:cfcc" v="A15"/>
    <tag k="tiger:county" v="Riverside, CA"/>
    <tag k="tiger:name_base" v="I-15"/>
    <tag k="tiger:name_base_1" v="Escondido"/>
    <tag k="tiger:name_type_1" v="Fwy"/>
    <tag k="tiger:separated" v="yes"/>
    <tag k="tiger:source" v="tiger_import_dch_v0.6_20070809"/>
    <tag k="tiger:tlid" v="194878318:194860905"/>
  </way>
  <way id="35698463" version="6" timestamp="2011-07-31T15:23:30Z" uid="207745" user="NE2" changeset="8881942">
    <nd ref="411244508"/>
    <nd ref="411244509"/>
    <tag k="bridge" v="yes"/>
    <tag k="bridge_name" v="Santa Gertrudis Creek"/>
    <tag k="bridge_ref" v="15/RIV/56-0271R"/>
    <tag k="highway" v="motorway"/>
    <tag k="is_in:state_code" v="CA"/>
    <tag k="lanes" v="4"/>
    <tag k="layer" v="1"/>
    <tag k="maxspeed" v="70 mph"/>
    <tag k="maxspeed:hgv" v="55 mph"/>
    <tag k="maxspeed:towing" v="55 mph"/>
    <tag k="milepost:county" v="6.73"/>
    <tag k="name" v="Temecula Valley Freeway"/>
    <tag k="note" v="Bridge ref pic from I-15 North"/>
    <tag k="official_name" v="Deputy Kent Hintergardt Memorial Highway"/>
    <tag k="oneway" v="yes"/>
    <tag k="ref" v="I 15"/>
    <tag k="source" v="GPS;bing_imagery_0.25m_201005;survey"/>
    <tag k="source:bridge" v="bing_imagery_0.25m_201005;survey;image;CDOT"/>
    <tag k="source:maxspeed" v="survey;image"/>
    <tag k="source:maxspeed:hgv" v="survey;image"/>
    <tag k="source:maxspeed:towing" v="survey;image"/>
    <tag k="source_ref:bridge" v="AM909_DSCX9434"/>
    <tag k="source_ref:maxspeed" v="AM909_DSCX9429"/>
    <tag k="source_ref:maxspeed:hgv" v="AM909_DSCX9441"/>
    <tag k="source_ref:maxspeed:towing" v="AM909_DSCX9441"/>
    <tag k="tiger:cfcc" v="A15"/>
    <tag k="tiger:county" v="Riverside, CA"/>
    <tag k="tiger:name_base" v="I-15"/>
    <tag k="tiger:name_base_1" v="Escondido"/>
    <tag k="tiger:name_type_1" v="Fwy"/>
    <tag k="tiger:separated" v="yes"/>
    <tag k="tiger:source" v="tiger_import_dch_v0.6_20070809"/>
    <tag k="tiger:tlid" v="194878318:194860905"/>
  </way>
  <way id="35698463" version="7" timestamp="2011-11-25T15:23:01Z" uid="207745" user="NE2" changeset="9943893">
    <nd ref="411244508"/>
    <nd ref="411244509"/>
    <tag k="bridge" v="yes"/>
    <tag k="bridge_name" v="Santa Gertrudis Creek"/>
    <tag k="bridge_ref" v="15/RIV/56-0271R"/>
    <tag k="hgv" v="designated"/>
    <tag k="highway" v="motorway"/>
    <tag k="is_in:state_code" v="CA"/>
    <tag k="lanes" v="4"/>
    <tag k="layer" v="1"/>
    <tag k="maxspeed" v="70 mph"/>
    <tag k="maxspeed:hgv" v="55 mph"/>
    <tag k="maxspeed:towing" v="55 mph"/>
    <tag k="milepost:county" v="6.73"/>
    <tag k="name" v="Temecula Valley Freeway"/>
    <tag k="note" v="Bridge ref pic from I-15 North"/>
    <tag k="official_name" v="Deputy Kent Hintergardt Memorial Highway"/>
    <tag k="oneway" v="yes"/>
    <tag k="ref" v="I 15"/>
    <tag k="source" v="GPS;bing_imagery_0.25m_201005;survey"/>
    <tag k="source:bridge" v="bing_imagery_0.25m_201005;survey;image;CDOT"/>
    <tag k="source:maxspeed" v="survey;image"/>
    <tag k="source:maxspeed:hgv" v="survey;image"/>
    <tag k="source:maxspeed:towing" v="survey;image"/>
    <tag k="source_ref:bridge" v="AM909_DSCX9434"/>
    <tag k="source_ref:maxspeed" v="AM909_DSCX9429"/>
    <tag k="source_ref:maxspeed:hgv" v="AM909_DSCX9441"/>
    <tag k="source_ref:maxspeed:towing" v="AM909_DSCX9441"/>
    <tag k="tiger:cfcc" v="A15"/>
    <tag k="tiger:county" v="Riverside, CA"/>
    <tag k="tiger:name_base" v="I-15"/>
    <tag k="tiger:name_base_1" v="Escondido"/>
    <tag k="tiger:name_type_1" v="Fwy"/>
    <tag k="tiger:separated" v="yes"/>
    <tag k="tiger:source" v="tiger_import_dch_v0.6_20070809"/>
    <tag k="tiger:tlid" v="194878318:194860905"/>
  </way>
  <way id="35698466" version="3" timestamp="2010-03-28T02:16:13Z" uid="20587" user="balrog-kun" changeset="4250871">
    <nd ref="411244416"/>
    <nd ref="411244418"/>
    <nd ref="411244421"/>
    <nd ref="411244423"/>
    <nd ref="411244401"/>
    <tag k="highway" v="motorway"/>
    <tag k="name" v="I-15"/>
    <tag k="name_1" v="Escondido Freeway"/>
    <tag k="oneway" v="yes"/>
    <tag k="ref" v="I 15"/>
    <tag k="tiger:cfcc" v="A15"/>
    <tag k="tiger:county" v="Riverside, CA"/>
    <tag k="tiger:name_base" v="I-15"/>
    <tag k="tiger:name_base_1" v="Escondido"/>
    <tag k="tiger:name_type_1" v="Fwy"/>
    <tag k="tiger:reviewed" v="no"/>
    <tag k="tiger:separated" v="yes"/>
    <tag k="tiger:source" v="tiger_import_dch_v0.6_20070809"/>
    <tag k="tiger:tlid" v="194878318:194860905"/>
  </way>
  <way id="35698466" version="4" timestamp="2010-08-18T03:38:38Z" uid="313196" user="vvvexp97" changeset="5522922">
    <nd ref="411244416"/>
    <nd ref="411244418"/>
    <nd ref="411244421"/>
    <nd ref="411244423"/>
    <nd ref="411244401"/>
    <tag k="highway" v="motorway"/>
    <tag k="name" v="I-15"/>
    <tag k="name_1" v="Deputy Kent Hintergardt Memorial Highway"/>
    <tag k="oneway" v="yes"/>
    <tag k="ref" v="I 15"/>
    <tag k="tiger:cfcc" v="A15"/>
    <tag k="tiger:county" v="Riverside, CA"/>
    <tag k="tiger:name_base" v="I-15"/>
    <tag k="tiger:name_base_1" v="Escondido"/>
    <tag k="tiger:name_type_1" v="Fwy"/>
    <tag k="tiger:reviewed" v="no"/>
    <tag k="tiger:separated" v="yes"/>
    <tag k="tiger:source" v="tiger_import_dch_v0.6_20070809"/>
    <tag k="tiger:tlid" v="194878318:194860905"/>
  </way>
  <way id="35698466" version="5" timestamp="2010-08-18T03:42:55Z" uid="313196" user="vvvexp97" changeset="5522922">
    <nd ref="411244416"/>
    <nd ref="411244418"/>
    <nd ref="411244421"/>
    <nd ref="411244423"/>
    <nd ref="411244401"/>
    <tag k="highway" v="motorway"/>
    <tag k="name" v="Deputy Kent Hintergardt Memorial Highway"/>
    <tag k="name_1" v="Deputy Kent Hintergardt Memorial Highway"/>
    <tag k="oneway" v="yes"/>
    <tag k="ref" v="I 15"/>
    <tag k="tiger:cfcc" v="A15"/>
    <tag k="tiger:county" v="Riverside, CA"/>
    <tag k="tiger:name_base" v="I-15"/>
    <tag k="tiger:name_base_1" v="Escondido"/>
    <tag k="tiger:name_type_1" v="Fwy"/>
    <tag k="tiger:reviewed" v="no"/>
    <tag k="tiger:separated" v="yes"/>
    <tag k="tiger:source" v="tiger_import_dch_v0.6_20070809"/>
    <tag k="tiger:tlid" v="194878318:194860905"/>
  </way>
  <way id="35698466" version="6" timestamp="2011-06-28T15:19:51Z" uid="473471" user="NE3" changeset="8572555">
    <nd ref="411244416"/>
    <nd ref="411244418"/>
    <nd ref="411244421"/>
    <nd ref="411244423"/>
    <tag k="highway" v="motorway"/>
    <tag k="name" v="Deputy Kent Hintergardt Memorial Highway"/>
    <tag k="name_1" v="Deputy Kent Hintergardt Memorial Highway"/>
    <tag k="oneway" v="yes"/>
    <tag k="ref" v="I 15"/>
    <tag k="tiger:cfcc" v="A15"/>
    <tag k="tiger:county" v="Riverside, CA"/>
    <tag k="tiger:name_base" v="I-15"/>
    <tag k="tiger:name_base_1" v="Escondido"/>
    <tag k="tiger:name_type_1" v="Fwy"/>
    <tag k="tiger:reviewed" v="no"/>
    <tag k="tiger:separated" v="yes"/>
    <tag k="tiger:source" v="tiger_import_dch_v0.6_20070809"/>
    <tag k="tiger:tlid" v="194878318:194860905"/>
  </way>
  <way id="35698466" version="7" timestamp="2011-07-13T09:35:25Z" uid="82317" user="AM909" changeset="8710729">
    <nd ref="411244416"/>
    <nd ref="411244418"/>
    <nd ref="411244421"/>
    <nd ref="411244423"/>
    <tag k="highway" v="motorway"/>
    <tag k="name" v="Temecula Valley Freeway"/>
    <tag k="official_name" v="Deputy Kent Hintergardt Memorial Highway"/>
    <tag k="oneway" v="yes"/>
    <tag k="ref" v="I 15"/>
    <tag k="tiger:cfcc" v="A15"/>
    <tag k="tiger:county" v="Riverside, CA"/>
    <tag k="tiger:name_base" v="I-15"/>
    <tag k="tiger:name_base_1" v="Escondido"/>
    <tag k="tiger:name_type_1" v="Fwy"/>
    <tag k="tiger:separated" v="yes"/>
    <tag k="tiger:source" v="tiger_import_dch_v0.6_20070809"/>
    <tag k="tiger:tlid" v="194878318:194860905"/>
  </way>
  <way id="35698466" version="8" timestamp="2011-07-31T15:23:32Z" uid="207745" user="NE2" changeset="8881942">
    <nd ref="411244416"/>
    <nd ref="411244418"/>
    <nd ref="411244421"/>
    <nd ref="411244423"/>
    <tag k="highway" v="motorway"/>
    <tag k="lanes" v="4"/>
    <tag k="name" v="Temecula Valley Freeway"/>
    <tag k="official_name" v="Deputy Kent Hintergardt Memorial Highway"/>
    <tag k="oneway" v="yes"/>
    <tag k="ref" v="I 15"/>
    <tag k="tiger:cfcc" v="A15"/>
    <tag k="tiger:county" v="Riverside, CA"/>
    <tag k="tiger:name_base" v="I-15"/>
    <tag k="tiger:name_base_1" v="Escondido"/>
    <tag k="tiger:name_type_1" v="Fwy"/>
    <tag k="tiger:separated" v="yes"/>
    <tag k="tiger:source" v="tiger_import_dch_v0.6_20070809"/>
    <tag k="tiger:tlid" v="194878318:194860905"/>
  </way>
  <way id="35698466" version="9" timestamp="2011-11-25T15:23:08Z" uid="207745" user="NE2" changeset="9943893">
    <nd ref="411244416"/>
    <nd ref="411244418"/>
    <nd ref="411244421"/>
    <nd ref="411244423"/>
    <tag k="hgv" v="designated"/>
    <tag k="highway" v="motorway"/>
    <tag k="lanes" v="4"/>
    <tag k="name" v="Temecula Valley Freeway"/>
    <tag k="official_name" v="Deputy Kent Hintergardt Memorial Highway"/>
    <tag k="oneway" v="yes"/>
    <tag k="ref" v="I 15"/>
    <tag k="tiger:cfcc" v="A15"/>
    <tag k="tiger:county" v="Riverside, CA"/>
    <tag k="tiger:name_base" v="I-15"/>
    <tag k="tiger:name_base_1" v="Escondido"/>
    <tag k="tiger:name_type_1" v="Fwy"/>
    <tag k="tiger:separated" v="yes"/>
    <tag k="tiger:source" v="tiger_import_dch_v0.6_20070809"/>
    <tag k="tiger:tlid" v="194878318:194860905"/>
  </way>
  <way id="35698467" version="2" timestamp="2010-03-28T02:16:13Z" uid="20587" user="balrog-kun" changeset="4250871">
    <nd ref="411244414"/>
    <nd ref="411244416"/>
    <tag k="bridge" v="yes"/>
    <tag k="highway" v="motorway"/>
    <tag k="layer" v="1"/>
    <tag k="name" v="I-15"/>
    <tag k="name_1" v="Escondido Freeway"/>
    <tag k="oneway" v="yes"/>
    <tag k="ref" v="I 15"/>
    <tag k="tiger:cfcc" v="A15"/>
    <tag k="tiger:county" v="Riverside, CA"/>
    <tag k="tiger:name_base" v="I-15"/>
    <tag k="tiger:name_base_1" v="Escondido"/>
    <tag k="tiger:name_type_1" v="Fwy"/>
    <tag k="tiger:reviewed" v="no"/>
    <tag k="tiger:separated" v="yes"/>
    <tag k="tiger:source" v="tiger_import_dch_v0.6_20070809"/>
    <tag k="tiger:tlid" v="194878318:194860905"/>
  </way>
  <way id="35698467" version="3" timestamp="2010-08-18T03:38:36Z" uid="313196" user="vvvexp97" changeset="5522922">
    <nd ref="411244414"/>
    <nd ref="411244416"/>
    <tag k="bridge" v="yes"/>
    <tag k="highway" v="motorway"/>
    <tag k="layer" v="1"/>
    <tag k="name" v="I-15"/>
    <tag k="name_1" v="Deputy Kent Hintergardt Memorial Highway"/>
    <tag k="oneway" v="yes"/>
    <tag k="ref" v="I 15"/>
    <tag k="tiger:cfcc" v="A15"/>
    <tag k="tiger:county" v="Riverside, CA"/>
    <tag k="tiger:name_base" v="I-15"/>
    <tag k="tiger:name_base_1" v="Escondido"/>
    <tag k="tiger:name_type_1" v="Fwy"/>
    <tag k="tiger:reviewed" v="no"/>
    <tag k="tiger:separated" v="yes"/>
    <tag k="tiger:source" v="tiger_import_dch_v0.6_20070809"/>
    <tag k="tiger:tlid" v="194878318:194860905"/>
  </way>
  <way id="35698467" version="4" timestamp="2011-06-27T18:43:06Z" uid="473471" user="NE3" changeset="8564771">
    <nd ref="411244414"/>
    <nd ref="411244416"/>
    <tag k="bridge" v="yes"/>
    <tag k="highway" v="motorway"/>
    <tag k="layer" v="1"/>
    <tag k="name" v="Deputy Kent Hintergardt Memorial Highway"/>
    <tag k="oneway" v="yes"/>
    <tag k="ref" v="I 15"/>
    <tag k="tiger:cfcc" v="A15"/>
    <tag k="tiger:county" v="Riverside, CA"/>
    <tag k="tiger:name_base" v="I-15"/>
    <tag k="tiger:name_base_1" v="Escondido"/>
    <tag k="tiger:name_type_1" v="Fwy"/>
    <tag k="tiger:reviewed" v="no"/>
    <tag k="tiger:separated" v="yes"/>
    <tag k="tiger:source" v="tiger_import_dch_v0.6_20070809"/>
    <tag k="tiger:tlid" v="194878318:194860905"/>
  </way>
  <way id="35698467" version="5" timestamp="2011-07-13T09:34:40Z" uid="82317" user="AM909" changeset="8710729">
    <nd ref="411244414"/>
    <nd ref="411244416"/>
    <tag k="bridge" v="yes"/>
    <tag k="highway" v="motorway"/>
    <tag k="layer" v="1"/>
    <tag k="name" v="Temecula Valley Freeway"/>
    <tag k="official_name" v="Deputy Kent Hintergardt Memorial Highway"/>
    <tag k="oneway" v="yes"/>
    <tag k="ref" v="I 15"/>
    <tag k="tiger:cfcc" v="A15"/>
    <tag k="tiger:county" v="Riverside, CA"/>
    <tag k="tiger:name_base" v="I-15"/>
    <tag k="tiger:name_base_1" v="Escondido"/>
    <tag k="tiger:name_type_1" v="Fwy"/>
    <tag k="tiger:separated" v="yes"/>
    <tag k="tiger:source" v="tiger_import_dch_v0.6_20070809"/>
    <tag k="tiger:tlid" v="194878318:194860905"/>
  </way>
  <way id="35698467" version="6" timestamp="2011-07-31T15:23:30Z" uid="207745" user="NE2" changeset="8881942">
    <nd ref="411244414"/>
    <nd ref="411244416"/>
    <tag k="bridge" v="yes"/>
    <tag k="highway" v="motorway"/>
    <tag k="lanes" v="4"/>
    <tag k="layer" v="1"/>
    <tag k="name" v="Temecula Valley Freeway"/>
    <tag k="official_name" v="Deputy Kent Hintergardt Memorial Highway"/>
    <tag k="oneway" v="yes"/>
    <tag k="ref" v="I 15"/>
    <tag k="tiger:cfcc" v="A15"/>
    <tag k="tiger:county" v="Riverside, CA"/>
    <tag k="tiger:name_base" v="I-15"/>
    <tag k="tiger:name_base_1" v="Escondido"/>
    <tag k="tiger:name_type_1" v="Fwy"/>
    <tag k="tiger:separated" v="yes"/>
    <tag k="tiger:source" v="tiger_import_dch_v0.6_20070809"/>
    <tag k="tiger:tlid" v="194878318:194860905"/>
  </way>
  <way id="35698467" version="7" timestamp="2011-11-25T15:22:57Z" uid="207745" user="NE2" changeset="9943893">
    <nd ref="411244414"/>
    <nd ref="411244416"/>
    <tag k="bridge" v="yes"/>
    <tag k="hgv" v="designated"/>
    <tag k="highway" v="motorway"/>
    <tag k="lanes" v="4"/>
    <tag k="layer" v="1"/>
    <tag k="name" v="Temecula Valley Freeway"/>
    <tag k="official_name" v="Deputy Kent Hintergardt Memorial Highway"/>
    <tag k="oneway" v="yes"/>
    <tag k="ref" v="I 15"/>
    <tag k="tiger:cfcc" v="A15"/>
    <tag k="tiger:county" v="Riverside, CA"/>
    <tag k="tiger:name_base" v="I-15"/>
    <tag k="tiger:name_base_1" v="Escondido"/>
    <tag k="tiger:name_type_1" v="Fwy"/>
    <tag k="tiger:separated" v="yes"/>
    <tag k="tiger:source" v="tiger_import_dch_v0.6_20070809"/>
    <tag k="tiger:tlid" v="194878318:194860905"/>
  </way>
  <way id="35698636" version="4" timestamp="2010-03-28T02:16:13Z" uid="20587" user="balrog-kun" changeset="4250871">
    <nd ref="411244404"/>
    <nd ref="411244405"/>
    <tag k="bridge" v="yes"/>
    <tag k="highway" v="motorway"/>
    <tag k="layer" v="1"/>
    <tag k="name" v="I-15"/>
    <tag k="name_1" v="Escondido Freeway"/>
    <tag k="oneway" v="yes"/>
    <tag k="ref" v="I 15"/>
    <tag k="tiger:cfcc" v="A15"/>
    <tag k="tiger:county" v="Riverside, CA"/>
    <tag k="tiger:name_base" v="I-15"/>
    <tag k="tiger:name_base_1" v="Escondido"/>
    <tag k="tiger:name_type_1" v="Fwy"/>
    <tag k="tiger:separated" v="yes"/>
    <tag k="tiger:source" v="tiger_import_dch_v0.6_20070809"/>
    <tag k="tiger:tlid" v="194878318:194860905"/>
  </way>
  <way id="35698636" version="5" timestamp="2011-06-27T18:38:18Z" uid="473471" user="NE3" changeset="8564771">
    <nd ref="411244404"/>
    <nd ref="411244405"/>
    <tag k="bridge" v="yes"/>
    <tag k="highway" v="motorway"/>
    <tag k="layer" v="1"/>
    <tag k="name" v="Escondido Freeway"/>
    <tag k="oneway" v="yes"/>
    <tag k="ref" v="I 15"/>
    <tag k="tiger:cfcc" v="A15"/>
    <tag k="tiger:county" v="Riverside, CA"/>
    <tag k="tiger:name_base" v="I-15"/>
    <tag k="tiger:name_base_1" v="Escondido"/>
    <tag k="tiger:name_type_1" v="Fwy"/>
    <tag k="tiger:separated" v="yes"/>
    <tag k="tiger:source" v="tiger_import_dch_v0.6_20070809"/>
    <tag k="tiger:tlid" v="194878318:194860905"/>
  </way>
  <way id="35698636" version="6" timestamp="2011-07-13T09:34:50Z" uid="82317" user="AM909" changeset="8710729">
    <nd ref="411244404"/>
    <nd ref="411244405"/>
    <tag k="bridge" v="yes"/>
    <tag k="highway" v="motorway"/>
    <tag k="layer" v="1"/>
    <tag k="name" v="Temecula Valley Freeway"/>
    <tag k="official_name" v="Deputy Kent Hintergardt Memorial Highway"/>
    <tag k="oneway" v="yes"/>
    <tag k="ref" v="I 15"/>
    <tag k="tiger:cfcc" v="A15"/>
    <tag k="tiger:county" v="Riverside, CA"/>
    <tag k="tiger:name_base" v="I-15"/>
    <tag k="tiger:name_base_1" v="Escondido"/>
    <tag k="tiger:name_type_1" v="Fwy"/>
    <tag k="tiger:separated" v="yes"/>
    <tag k="tiger:source" v="tiger_import_dch_v0.6_20070809"/>
    <tag k="tiger:tlid" v="194878318:194860905"/>
  </way>
  <way id="35698636" version="7" timestamp="2011-07-31T15:23:29Z" uid="207745" user="NE2" changeset="8881942">
    <nd ref="411244404"/>
    <nd ref="411244405"/>
    <tag k="bridge" v="yes"/>
    <tag k="highway" v="motorway"/>
    <tag k="lanes" v="5"/>
    <tag k="layer" v="1"/>
    <tag k="name" v="Temecula Valley Freeway"/>
    <tag k="official_name" v="Deputy Kent Hintergardt Memorial Highway"/>
    <tag k="oneway" v="yes"/>
    <tag k="ref" v="I 15"/>
    <tag k="tiger:cfcc" v="A15"/>
    <tag k="tiger:county" v="Riverside, CA"/>
    <tag k="tiger:name_base" v="I-15"/>
    <tag k="tiger:name_base_1" v="Escondido"/>
    <tag k="tiger:name_type_1" v="Fwy"/>
    <tag k="tiger:separated" v="yes"/>
    <tag k="tiger:source" v="tiger_import_dch_v0.6_20070809"/>
    <tag k="tiger:tlid" v="194878318:194860905"/>
  </way>
  <way id="35698636" version="8" timestamp="2011-11-25T15:23:01Z" uid="207745" user="NE2" changeset="9943893">
    <nd ref="411244404"/>
    <nd ref="411244405"/>
    <tag k="bridge" v="yes"/>
    <tag k="hgv" v="designated"/>
    <tag k="highway" v="motorway"/>
    <tag k="lanes" v="5"/>
    <tag k="layer" v="1"/>
    <tag k="name" v="Temecula Valley Freeway"/>
    <tag k="official_name" v="Deputy Kent Hintergardt Memorial Highway"/>
    <tag k="oneway" v="yes"/>
    <tag k="ref" v="I 15"/>
    <tag k="tiger:cfcc" v="A15"/>
    <tag k="tiger:county" v="Riverside, CA"/>
    <tag k="tiger:name_base" v="I-15"/>
    <tag k="tiger:name_base_1" v="Escondido"/>
    <tag k="tiger:name_type_1" v="Fwy"/>
    <tag k="tiger:separated" v="yes"/>
    <tag k="tiger:source" v="tiger_import_dch_v0.6_20070809"/>
    <tag k="tiger:tlid" v="194878318:194860905"/>
  </way>
  <way id="35698810" version="3" timestamp="2010-03-28T02:16:14Z" uid="20587" user="balrog-kun" changeset="4250871">
    <nd ref="411244513"/>
    <nd ref="411244514"/>
    <tag k="bridge" v="yes"/>
    <tag k="highway" v="motorway"/>
    <tag k="layer" v="1"/>
    <tag k="name" v="I-15"/>
    <tag k="name_1" v="Escondido Freeway"/>
    <tag k="oneway" v="yes"/>
    <tag k="ref" v="I 15"/>
    <tag k="tiger:cfcc" v="A15"/>
    <tag k="tiger:county" v="Riverside, CA"/>
    <tag k="tiger:name_base" v="I-15"/>
    <tag k="tiger:name_base_1" v="Escondido"/>
    <tag k="tiger:name_type_1" v="Fwy"/>
    <tag k="tiger:separated" v="yes"/>
    <tag k="tiger:source" v="tiger_import_dch_v0.6_20070809"/>
    <tag k="tiger:tlid" v="194878318:194860905"/>
  </way>
  <way id="35698810" version="4" timestamp="2011-06-27T18:51:57Z" uid="473471" user="NE3" changeset="8564771">
    <nd ref="411244513"/>
    <nd ref="411244514"/>
    <tag k="bridge" v="yes"/>
    <tag k="highway" v="motorway"/>
    <tag k="layer" v="1"/>
    <tag k="name" v="Escondido Freeway"/>
    <tag k="oneway" v="yes"/>
    <tag k="ref" v="I 15"/>
    <tag k="tiger:cfcc" v="A15"/>
    <tag k="tiger:county" v="Riverside, CA"/>
    <tag k="tiger:name_base" v="I-15"/>
    <tag k="tiger:name_base_1" v="Escondido"/>
    <tag k="tiger:name_type_1" v="Fwy"/>
    <tag k="tiger:separated" v="yes"/>
    <tag k="tiger:source" v="tiger_import_dch_v0.6_20070809"/>
    <tag k="tiger:tlid" v="194878318:194860905"/>
  </way>
  <way id="35698810" version="5" timestamp="2011-07-13T09:34:54Z" uid="82317" user="AM909" changeset="8710729">
    <nd ref="411244513"/>
    <nd ref="411244514"/>
    <tag k="bridge" v="yes"/>
    <tag k="bridge_name" v="Warm Springs Creek"/>
    <tag k="bridge_ref" v="15/RIV/56-0272R"/>
    <tag k="highway" v="motorway"/>
    <tag k="is_in:state_code" v="CA"/>
    <tag k="layer" v="1"/>
    <tag k="maxspeed" v="70 mph"/>
    <tag k="maxspeed:hgv" v="55 mph"/>
    <tag k="maxspeed:towing" v="55 mph"/>
    <tag k="milepost:county" v="7.81"/>
    <tag k="name" v="Temecula Valley Freeway"/>
    <tag k="note" v="Bridge ref pic from I-15 North"/>
    <tag k="official_name" v="Deputy Kent Hintergardt Memorial Highway"/>
    <tag k="oneway" v="yes"/>
    <tag k="ref" v="I 15"/>
    <tag k="source" v="GPS;bing_imagery_0.25m_201005;survey"/>
    <tag k="source:bridge" v="bing_imagery_0.25m_201005;survey;image"/>
    <tag k="source:maxspeed" v="survey;image"/>
    <tag k="source:maxspeed:hgv" v="survey;image"/>
    <tag k="source:maxspeed:towing" v="survey;image"/>
    <tag k="source_ref:bridge" v="AM909_DSCX9439"/>
    <tag k="source_ref:maxspeed" v="AM909_DSCX9436"/>
    <tag k="source_ref:maxspeed:hgv" v="AM909_DSCX9441"/>
    <tag k="source_ref:maxspeed:towing" v="AM909_DSCX9437"/>
    <tag k="tiger:cfcc" v="A15"/>
    <tag k="tiger:county" v="Riverside, CA"/>
    <tag k="tiger:name_base" v="I-15"/>
    <tag k="tiger:name_base_1" v="Escondido"/>
    <tag k="tiger:name_type_1" v="Fwy"/>
    <tag k="tiger:separated" v="yes"/>
    <tag k="tiger:source" v="tiger_import_dch_v0.6_20070809"/>
    <tag k="tiger:tlid" v="194878318:194860905"/>
  </way>
  <way id="35698810" version="6" timestamp="2011-07-31T15:23:28Z" uid="207745" user="NE2" changeset="8881942">
    <nd ref="411244513"/>
    <nd ref="411244514"/>
    <tag k="bridge" v="yes"/>
    <tag k="bridge_name" v="Warm Springs Creek"/>
    <tag k="bridge_ref" v="15/RIV/56-0272R"/>
    <tag k="highway" v="motorway"/>
    <tag k="is_in:state_code" v="CA"/>
    <tag k="lanes" v="4"/>
    <tag k="layer" v="1"/>
    <tag k="maxspeed" v="70 mph"/>
    <tag k="maxspeed:hgv" v="55 mph"/>
    <tag k="maxspeed:towing" v="55 mph"/>
    <tag k="milepost:county" v="7.81"/>
    <tag k="name" v="Temecula Valley Freeway"/>
    <tag k="note" v="Bridge ref pic from I-15 North"/>
    <tag k="official_name" v="Deputy Kent Hintergardt Memorial Highway"/>
    <tag k="oneway" v="yes"/>
    <tag k="ref" v="I 15"/>
    <tag k="source" v="GPS;bing_imagery_0.25m_201005;survey"/>
    <tag k="source:bridge" v="bing_imagery_0.25m_201005;survey;image"/>
    <tag k="source:maxspeed" v="survey;image"/>
    <tag k="source:maxspeed:hgv" v="survey;image"/>
    <tag k="source:maxspeed:towing" v="survey;image"/>
    <tag k="source_ref:bridge" v="AM909_DSCX9439"/>
    <tag k="source_ref:maxspeed" v="AM909_DSCX9436"/>
    <tag k="source_ref:maxspeed:hgv" v="AM909_DSCX9441"/>
    <tag k="source_ref:maxspeed:towing" v="AM909_DSCX9437"/>
    <tag k="tiger:cfcc" v="A15"/>
    <tag k="tiger:county" v="Riverside, CA"/>
    <tag k="tiger:name_base" v="I-15"/>
    <tag k="tiger:name_base_1" v="Escondido"/>
    <tag k="tiger:name_type_1" v="Fwy"/>
    <tag k="tiger:separated" v="yes"/>
    <tag k="tiger:source" v="tiger_import_dch_v0.6_20070809"/>
    <tag k="tiger:tlid" v="194878318:194860905"/>
  </way>
  <way id="35698810" version="7" timestamp="2011-11-25T15:22:52Z" uid="207745" user="NE2" changeset="9943893">
    <nd ref="411244513"/>
    <nd ref="411244514"/>
    <tag k="bridge" v="yes"/>
    <tag k="bridge_name" v="Warm Springs Creek"/>
    <tag k="bridge_ref" v="15/RIV/56-0272R"/>
    <tag k="hgv" v="designated"/>
    <tag k="highway" v="motorway"/>
    <tag k="is_in:state_code" v="CA"/>
    <tag k="lanes" v="4"/>
    <tag k="layer" v="1"/>
    <tag k="maxspeed" v="70 mph"/>
    <tag k="maxspeed:hgv" v="55 mph"/>
    <tag k="maxspeed:towing" v="55 mph"/>
    <tag k="milepost:county" v="7.81"/>
    <tag k="name" v="Temecula Valley Freeway"/>
    <tag k="note" v="Bridge ref pic from I-15 North"/>
    <tag k="official_name" v="Deputy Kent Hintergardt Memorial Highway"/>
    <tag k="oneway" v="yes"/>
    <tag k="ref" v="I 15"/>
    <tag k="source" v="GPS;bing_imagery_0.25m_201005;survey"/>
    <tag k="source:bridge" v="bing_imagery_0.25m_201005;survey;image"/>
    <tag k="source:maxspeed" v="survey;image"/>
    <tag k="source:maxspeed:hgv" v="survey;image"/>
    <tag k="source:maxspeed:towing" v="survey;image"/>
    <tag k="source_ref:bridge" v="AM909_DSCX9439"/>
    <tag k="source_ref:maxspeed" v="AM909_DSCX9436"/>
    <tag k="source_ref:maxspeed:hgv" v="AM909_DSCX9441"/>
    <tag k="source_ref:maxspeed:towing" v="AM909_DSCX9437"/>
    <tag k="tiger:cfcc" v="A15"/>
    <tag k="tiger:county" v="Riverside, CA"/>
    <tag k="tiger:name_base" v="I-15"/>
    <tag k="tiger:name_base_1" v="Escondido"/>
    <tag k="tiger:name_type_1" v="Fwy"/>
    <tag k="tiger:separated" v="yes"/>
    <tag k="tiger:source" v="tiger_import_dch_v0.6_20070809"/>
    <tag k="tiger:tlid" v="194878318:194860905"/>
  </way>
  <way id="35698820" version="3" timestamp="2010-03-28T02:16:14Z" uid="20587" user="balrog-kun" changeset="4250871">
    <nd ref="411244405"/>
    <nd ref="411244407"/>
    <nd ref="411244410"/>
    <nd ref="411244412"/>
    <nd ref="411244414"/>
    <tag k="highway" v="motorway"/>
    <tag k="name" v="I-15"/>
    <tag k="name_1" v="Escondido Freeway"/>
    <tag k="oneway" v="yes"/>
    <tag k="ref" v="I 15"/>
    <tag k="tiger:cfcc" v="A15"/>
    <tag k="tiger:county" v="Riverside, CA"/>
    <tag k="tiger:name_base" v="I-15"/>
    <tag k="tiger:name_base_1" v="Escondido"/>
    <tag k="tiger:name_type_1" v="Fwy"/>
    <tag k="tiger:separated" v="yes"/>
    <tag k="tiger:source" v="tiger_import_dch_v0.6_20070809"/>
    <tag k="tiger:tlid" v="194878318:194860905"/>
  </way>
  <way id="35698820" version="4" timestamp="2010-08-18T03:38:36Z" uid="313196" user="vvvexp97" changeset="5522922">
    <nd ref="411244405"/>
    <nd ref="411244407"/>
    <nd ref="411244410"/>
    <nd ref="411244412"/>
    <nd ref="411244414"/>
    <tag k="highway" v="motorway"/>
    <tag k="name" v="I-15"/>
    <tag k="name_1" v="Deputy Kent Hintergardt Memorial Highway"/>
    <tag k="oneway" v="yes"/>
    <tag k="ref" v="I 15"/>
    <tag k="tiger:cfcc" v="A15"/>
    <tag k="tiger:county" v="Riverside, CA"/>
    <tag k="tiger:name_base" v="I-15"/>
    <tag k="tiger:name_base_1" v="Escondido"/>
    <tag k="tiger:name_type_1" v="Fwy"/>
    <tag k="tiger:separated" v="yes"/>
    <tag k="tiger:source" v="tiger_import_dch_v0.6_20070809"/>
    <tag k="tiger:tlid" v="194878318:194860905"/>
  </way>
  <way id="35698820" version="5" timestamp="2010-08-18T03:42:56Z" uid="313196" user="vvvexp97" changeset="5522922">
    <nd ref="411244405"/>
    <nd ref="411244407"/>
    <nd ref="411244410"/>
    <nd ref="411244412"/>
    <nd ref="411244414"/>
    <tag k="highway" v="motorway"/>
    <tag k="name" v="Deputy Kent Hintergardt Memorial Highway"/>
    <tag k="name_1" v="Deputy Kent Hintergardt Memorial Highway"/>
    <tag k="oneway" v="yes"/>
    <tag k="ref" v="I 15"/>
    <tag k="tiger:cfcc" v="A15"/>
    <tag k="tiger:county" v="Riverside, CA"/>
    <tag k="tiger:name_base" v="I-15"/>
    <tag k="tiger:name_base_1" v="Escondido"/>
    <tag k="tiger:name_type_1" v="Fwy"/>
    <tag k="tiger:separated" v="yes"/>
    <tag k="tiger:source" v="tiger_import_dch_v0.6_20070809"/>
    <tag k="tiger:tlid" v="194878318:194860905"/>
  </way>
  <way id="35698820" version="6" timestamp="2011-07-13T09:35:10Z" uid="82317" user="AM909" changeset="8710729">
    <nd ref="411244405"/>
    <nd ref="411244407"/>
    <nd ref="411244410"/>
    <nd ref="411244412"/>
    <nd ref="411244414"/>
    <tag k="highway" v="motorway"/>
    <tag k="name" v="Temecula Valley Freeway"/>
    <tag k="official_name" v="Deputy Kent Hintergardt Memorial Highway"/>
    <tag k="oneway" v="yes"/>
    <tag k="ref" v="I 15"/>
    <tag k="tiger:cfcc" v="A15"/>
    <tag k="tiger:county" v="Riverside, CA"/>
    <tag k="tiger:name_base" v="I-15"/>
    <tag k="tiger:name_base_1" v="Escondido"/>
    <tag k="tiger:name_type_1" v="Fwy"/>
    <tag k="tiger:separated" v="yes"/>
    <tag k="tiger:source" v="tiger_import_dch_v0.6_20070809"/>
    <tag k="tiger:tlid" v="194878318:194860905"/>
  </way>
  <way id="35698820" version="7" timestamp="2011-07-31T15:23:32Z" uid="207745" user="NE2" changeset="8881942">
    <nd ref="411244405"/>
    <nd ref="411244407"/>
    <nd ref="411244410"/>
    <nd ref="411244412"/>
    <tag k="highway" v="motorway"/>
    <tag k="lanes" v="5"/>
    <tag k="name" v="Temecula Valley Freeway"/>
    <tag k="official_name" v="Deputy Kent Hintergardt Memorial Highway"/>
    <tag k="oneway" v="yes"/>
    <tag k="ref" v="I 15"/>
    <tag k="tiger:cfcc" v="A15"/>
    <tag k="tiger:county" v="Riverside, CA"/>
    <tag k="tiger:name_base" v="I-15"/>
    <tag k="tiger:name_base_1" v="Escondido"/>
    <tag k="tiger:name_type_1" v="Fwy"/>
    <tag k="tiger:separated" v="yes"/>
    <tag k="tiger:source" v="tiger_import_dch_v0.6_20070809"/>
    <tag k="tiger:tlid" v="194878318:194860905"/>
  </way>
  <way id="35698820" version="8" timestamp="2011-11-25T15:23:10Z" uid="207745" user="NE2" changeset="9943893">
    <nd ref="411244405"/>
    <nd ref="411244407"/>
    <nd ref="411244410"/>
    <nd ref="411244412"/>
    <tag k="hgv" v="designated"/>
    <tag k="highway" v="motorway"/>
    <tag k="lanes" v="5"/>
    <tag k="name" v="Temecula Valley Freeway"/>
    <tag k="official_name" v="Deputy Kent Hintergardt Memorial Highway"/>
    <tag k="oneway" v="yes"/>
    <tag k="ref" v="I 15"/>
    <tag k="tiger:cfcc" v="A15"/>
    <tag k="tiger:county" v="Riverside, CA"/>
    <tag k="tiger:name_base" v="I-15"/>
    <tag k="tiger:name_base_1" v="Escondido"/>
    <tag k="tiger:name_type_1" v="Fwy"/>
    <tag k="tiger:separated" v="yes"/>
    <tag k="tiger:source" v="tiger_import_dch_v0.6_20070809"/>
    <tag k="tiger:tlid" v="194878318:194860905"/>
  </way>
</osm>
