<?xml version='1.0' encoding='UTF-8'?>
<osm version="0.6" generator="libosmium/2.20.0">
  <way id="35824555" version="1" timestamp="2009-06-11T17:20:45Z" uid="9581" user="Lobelt" changeset="1489420">
    <nd ref="292169445"/>
    <nd ref="292169444"/>
    <tag k="bridge" v="yes"/>
    <tag k="highway" v="secondary"/>
    <tag k="layer" v="1"/>
    <tag k="maxspeed" v="70"/>
    <tag k="ref" v="L 527;L 524"/>
  </way>
  <way id="35824555" version="2" timestamp="2009-11-10T11:08:25Z" uid="24920" user="Schusch" changeset="3081264">
    <nd ref="292169445"/>
    <nd ref="292169444"/>
    <tag k="bridge" v="yes"/>
    <tag k="highway" v="secondary"/>
    <tag k="layer" v="1"/>
    <tag k="maxspeed" v="70"/>
    <tag k="ref" v="L 527;L 524"/>
  </way>
  <way id="35824556" version="1" timestamp="2009-06-11T17:20:45Z" uid="9581" user="Lobelt" changeset="1489420">
    <nd ref="292169444"/>
    <nd ref="371331847"/>
    <nd ref="60581305"/>
    <tag k="highway" v="secondary"/>
    <tag k="maxspeed" v="70"/>
    <tag k="ref" v="L 527;L 524"/>
  </way>
  <way id="35824556" version="2" timestamp="2009-11-10T11:08:26Z" uid="24920" user="Schusch" changeset="3081264">
    <nd ref="292169444"/>
    <nd ref="371331847"/>
    <nd ref="60581305"/>
    <tag k="highway" v="secondary"/>
    <tag k="maxspeed" v="70"/>
    <tag k="ref" v="L 527;L 524"/>
  </way>
  <way id="35824556" version="3" timestamp="2010-09-14T20:12:09Z" uid="320163" user="suerdie" changeset="5781815">
    <nd ref="292169444"/>
    <nd ref="371331847"/>
    <nd ref="60581305"/>
    <tag k="highway" v="secondary"/>
    <tag k="maxspeed" v="70"/>
    <tag k="ref" v="L 527;L 524"/>
  </way>
  <way id="35824556" version="4" timestamp="2010-09-23T19:36:40Z" uid="320163" user="suerdie" changeset="5857113">
    <nd ref="292169444"/>
    <nd ref="923114741"/>
    <nd ref="371331847"/>
    <nd ref="60581305"/>
    <tag k="highway" v="secondary"/>
    <tag k="maxspeed" v="70"/>
    <tag k="ref" v="L 527;L 524"/>
  </way>
  <way id="35824557" version="1" timestamp="2009-06-11T17:20:46Z" uid="9581" user="Lobelt" changeset="1489420">
    <nd ref="60581310"/>
    <nd ref="418824263"/>
    <nd ref="60623957"/>
    <tag k="highway" v="secondary"/>
    <tag k="oneway" v="yes"/>
  </way>
  <way id="35824557" version="2" timestamp="2009-11-10T11:08:25Z" uid="24920" user="Schusch" changeset="3081264">
    <nd ref="60581310"/>
    <nd ref="418824263"/>
    <nd ref="60623957"/>
    <tag k="highway" v="secondary"/>
    <tag k="oneway" v="yes"/>
  </way>
  <way id="35824558" version="1" timestamp="2009-06-11T17:20:46Z" uid="9581" user="Lobelt" changeset="1489420">
    <nd ref="60581310"/>
    <nd ref="59773196"/>
    <tag k="created_by" v="Potlatch alpha"/>
    <tag k="highway" v="secondary"/>
    <tag k="note" v="FIXME previously unwayed segment"/>
  </way>
  <way id="35824558" version="2" timestamp="2009-11-10T11:08:25Z" uid="24920" user="Schusch" changeset="3081264">
    <nd ref="60581310"/>
    <nd ref="59773196"/>
    <tag k="highway" v="secondary"/>
    <tag k="note" v="FIXME previously unwayed segment"/>
  </way>
  <way id="35824558" version="3" timestamp="2010-03-25T17:24:39Z" uid="13832" user="Peter14" changeset="4230987">
    <nd ref="60581310"/>
    <nd ref="59773196"/>
    <tag k="highway" v="secondary"/>
  </way>
  <way id="35824559" version="1" timestamp="2009-06-11T17:20:46Z" uid="9581" user="Lobelt" changeset="1489420">
    <nd ref="60623969"/>
    <nd ref="418824265"/>
    <nd ref="60581305"/>
    <tag k="highway" v="secondary"/>
    <tag k="maxspeed" v="70"/>
    <tag k="oneway" v="yes"/>
    <tag k="ref" v="L 527;L 524"/>
  </way>
  <way id="35824559" version="2" timestamp="2009-11-10T11:08:24Z" uid="24920" user="Schusch" changeset="3081264">
    <nd ref="60623969"/>
    <nd ref="418824265"/>
    <nd ref="60581305"/>
    <tag k="highway" v="secondary"/>
    <tag k="maxspeed" v="70"/>
    <tag k="oneway" v="yes"/>
    <tag k="ref" v="L 527;L 524"/>
  </way>
  <way id="35824559" version="3" timestamp="2011-07-02T16:02:09Z" uid="189997" user="gerd95" changeset="8609383">
    <nd ref="60623969"/>
    <nd ref="1347046387"/>
    <nd ref="418824265"/>
    <nd ref="60581305"/>
    <tag k="highway" v="secondary"/>
    <tag k="maxspeed" v="70"/>
    <tag k="oneway" v="yes"/>
    <tag k="ref" v="L 527;L 524"/>
  </way>
  <way id="35824560" version="1" timestamp="2009-06-11T17:20:46Z" uid="9581" user="Lobelt" changeset="1489420">
    <nd ref="60581305"/>
    <nd ref="60581306"/>
    <tag k="highway" v="secondary"/>
    <tag k="maxspeed" v="70"/>
    <tag k="oneway" v="yes"/>
    <tag k="ref" v="L 527;L 524"/>
  </way>
  <way id="35824560" version="2" timestamp="2009-11-10T11:08:23Z" uid="24920" user="Schusch" changeset="3081264">
    <nd ref="60581305"/>
    <nd ref="60581306"/>
    <tag k="highway" v="secondary"/>
    <tag k="maxspeed" v="70"/>
    <tag k="oneway" v="yes"/>
    <tag k="ref" v="L 527;L 524"/>
  </way>
  <way id="35824560" version="3" timestamp="2011-07-02T16:02:12Z" uid="189997" user="gerd95" changeset="8609383">
    <nd ref="60581305"/>
    <nd ref="1347046643"/>
    <nd ref="60581306"/>
    <tag k="highway" v="secondary"/>
    <tag k="maxspeed" v="70"/>
    <tag k="oneway" v="yes"/>
    <tag k="ref" v="L 527;L 524"/>
  </way>
  <way id="35824561" version="1" timestamp="2009-06-11T17:20:46Z" uid="9581" user="Lobelt" changeset="1489420">
    <nd ref="418824277"/>
    <nd ref="60581312"/>
    <tag k="highway" v="secondary"/>
    <tag k="maxspeed" v="70"/>
    <tag k="oneway" v="yes"/>
    <tag k="ref" v="L 527;L 524"/>
  </way>
  <way id="35824562" version="1" timestamp="2009-06-11T17:20:46Z" uid="9581" user="Lobelt" changeset="1489420">
    <nd ref="418824277"/>
    <nd ref="382553779"/>
    <nd ref="60139762"/>
    <nd ref="382553255"/>
    <nd ref="382551709"/>
    <nd ref="292169445"/>
    <tag k="highway" v="secondary"/>
    <tag k="maxspeed" v="70"/>
    <tag k="ref" v="L 527;L 524"/>
  </way>
  <way id="35824562" version="2" timestamp="2009-11-10T11:08:25Z" uid="24920" user="Schusch" changeset="3081264">
    <nd ref="418824277"/>
    <nd ref="382553779"/>
    <nd ref="60139762"/>
    <nd ref="382553255"/>
    <nd ref="382551709"/>
    <nd ref="292169445"/>
    <tag k="highway" v="secondary"/>
    <tag k="maxspeed" v="70"/>
    <tag k="ref" v="L 527;L 524"/>
  </way>
  <way id="35824563" version="1" timestamp="2009-06-11T17:20:46Z" uid="9581" user="Lobelt" changeset="1489420">
    <nd ref="60139719"/>
    <nd ref="418824284"/>
    <nd ref="418824280"/>
    <nd ref="406269965"/>
    <tag k="created_by" v="JOSM"/>
    <tag k="highway" v="tertiary"/>
    <tag k="oneway" v="yes"/>
    <tag k="ref" v="L 524"/>
    <tag k="source" v="survey, Royaltek RGM-3800, 2008-08;"/>
  </way>
  <way id="35824563" version="2" timestamp="2010-03-12T01:10:44Z" uid="24920" user="Schusch" changeset="4102937">
    <nd ref="60139719"/>
    <nd ref="418824284"/>
    <nd ref="418824280"/>
    <nd ref="406269965"/>
    <tag k="highway" v="tertiary"/>
    <tag k="oneway" v="yes"/>
    <tag k="ref" v="L 524"/>
    <tag k="source" v="survey, Royaltek RGM-3800, 2008-08;"/>
  </way>
  <way id="35824563" version="3" timestamp="2010-03-12T01:19:21Z" uid="24920" user="Schusch" changeset="4102974">
    <nd ref="60139719"/>
    <nd ref="418824284"/>
    <nd ref="418824280"/>
    <nd ref="406269965"/>
    <tag k="highway" v="tertiary"/>
    <tag k="oneway" v="yes"/>
    <tag k="ref" v="L 524"/>
  </way>
  <way id="35824566" version="1" timestamp="2009-06-11T17:20:46Z" uid="9581" user="Lobelt" changeset="1489420">
    <nd ref="406269965"/>
    <nd ref="410708258"/>
    <nd ref="418824285"/>
    <nd ref="418824281"/>
    <tag k="highway" v="tertiary"/>
    <tag k="oneway" v="yes"/>
    <tag k="ref" v="L 524"/>
  </way>
  <way id="35824568" version="1" timestamp="2009-06-11T17:20:46Z" uid="9581" user="Lobelt" changeset="1489420">
    <nd ref="292168291"/>
    <nd ref="292168292"/>
    <tag k="bridge" v="yes"/>
    <tag k="highway" v="secondary"/>
    <tag k="layer" v="1"/>
    <tag k="maxspeed" v="70"/>
    <tag k="name" v="Dürkheimer Straße"/>
    <tag k="ref" v="L 527"/>
  </way>
  <way id="35824568" version="2" timestamp="2009-11-10T10:38:52Z" uid="24920" user="Schusch" changeset="3080942">
    <nd ref="292168291"/>
    <nd ref="292168292"/>
    <tag k="bridge" v="yes"/>
    <tag k="highway" v="secondary"/>
    <tag k="layer" v="1"/>
    <tag k="maxspeed" v="70"/>
    <tag k="name" v="Dürkheimer Straße"/>
    <tag k="ref" v="L 527"/>
  </way>
  <way id="35824568" version="3" timestamp="2010-07-03T12:55:31Z" uid="183436" user="mtb" changeset="5124572">
    <nd ref="292168291"/>
    <nd ref="292168292"/>
    <tag k="bridge" v="yes"/>
    <tag k="highway" v="secondary"/>
    <tag k="layer" v="1"/>
    <tag k="maxspeed" v="50"/>
    <tag k="name" v="Dürkheimer Straße"/>
    <tag k="ref" v="L 527"/>
  </way>
  <way id="35824569" version="1" timestamp="2009-06-11T17:20:47Z" uid="9581" user="Lobelt" changeset="1489420">
    <nd ref="292168292"/>
    <nd ref="224364716"/>
    <nd ref="183727191"/>
    <nd ref="60139755"/>
    <tag k="highway" v="secondary"/>
    <tag k="maxspeed" v="70"/>
    <tag k="name" v="Dürkheimer Straße"/>
    <tag k="ref" v="L 527"/>
  </way>
  <way id="35824569" version="2" timestamp="2009-11-10T10:38:44Z" uid="24920" user="Schusch" changeset="3080942">
    <nd ref="292168292"/>
    <nd ref="224364716"/>
    <nd ref="183727191"/>
    <nd ref="60139755"/>
    <tag k="highway" v="secondary"/>
    <tag k="maxspeed" v="70"/>
    <tag k="name" v="Dürkheimer Straße"/>
    <tag k="ref" v="L 527"/>
  </way>
  <way id="35824569" version="3" timestamp="2010-11-08T20:41:43Z" uid="24920" user="Schusch" changeset="6323703">
    <nd ref="292168292"/>
    <nd ref="224364716"/>
    <nd ref="982792358"/>
    <nd ref="183727191"/>
    <nd ref="982792393"/>
    <nd ref="60139755"/>
    <tag k="highway" v="secondary"/>
    <tag k="maxspeed" v="70"/>
    <tag k="name" v="Dürkheimer Straße"/>
    <tag k="ref" v="L 527"/>
  </way>
  <way id="35824570" version="1" timestamp="2009-06-11T17:20:47Z" uid="9581" user="Lobelt" changeset="1489420">
    <nd ref="418824283"/>
    <nd ref="418824284"/>
    <nd ref="418824285"/>
    <nd ref="418824286"/>
    <nd ref="418824282"/>
    <tag k="highway" v="secondary"/>
    <tag k="maxspeed" v="70"/>
    <tag k="name" v="Dürkheimer Straße"/>
    <tag k="oneway" v="yes"/>
    <tag k="ref" v="L 527"/>
  </way>
  <way id="35824571" version="1" timestamp="2009-06-11T17:20:47Z" uid="9581" user="Lobelt" changeset="1489420">
    <nd ref="418824282"/>
    <nd ref="418824281"/>
    <nd ref="60139719"/>
    <nd ref="418824283"/>
    <tag k="highway" v="secondary"/>
    <tag k="maxspeed" v="70"/>
    <tag k="name" v="Dürkheimer Straße"/>
    <tag k="oneway" v="yes"/>
    <tag k="ref" v="L 527"/>
  </way>
  <way id="35824572" version="1" timestamp="2009-06-11T17:20:47Z" uid="9581" user="Lobelt" changeset="1489420">
    <nd ref="418824283"/>
    <nd ref="60139700"/>
    <nd ref="371217058"/>
    <nd ref="60139707"/>
    <nd ref="392788898"/>
    <nd ref="60139734"/>
    <nd ref="60139726"/>
    <nd ref="274976096"/>
    <nd ref="313132089"/>
    <nd ref="313132092"/>
    <nd ref="292168291"/>
    <tag k="highway" v="secondary"/>
    <tag k="maxspeed" v="70"/>
    <tag k="name" v="Dürkheimer Straße"/>
    <tag k="ref" v="L 527"/>
  </way>
  <way id="35824572" version="2" timestamp="2009-11-10T10:38:40Z" uid="24920" user="Schusch" changeset="3080942">
    <nd ref="418824283"/>
    <nd ref="60139700"/>
    <nd ref="371217058"/>
    <nd ref="60139707"/>
    <nd ref="392788898"/>
    <nd ref="60139734"/>
    <nd ref="60139726"/>
    <nd ref="274976096"/>
    <nd ref="313132089"/>
    <nd ref="313132092"/>
    <nd ref="292168291"/>
    <tag k="highway" v="secondary"/>
    <tag k="maxspeed" v="70"/>
    <tag k="name" v="Dürkheimer Straße"/>
    <tag k="ref" v="L 527"/>
  </way>
  <way id="35824572" version="3" timestamp="2010-02-27T20:31:19Z" uid="183436" user="mtb" changeset="3992384">
    <nd ref="418824283"/>
    <nd ref="60139700"/>
    <nd ref="655355736"/>
    <nd ref="371217058"/>
    <nd ref="60139707"/>
    <nd ref="392788898"/>
    <nd ref="60139734"/>
    <nd ref="60139726"/>
    <nd ref="274976096"/>
    <nd ref="313132089"/>
    <nd ref="313132092"/>
    <nd ref="292168291"/>
    <tag k="highway" v="secondary"/>
    <tag k="maxspeed" v="70"/>
    <tag k="name" v="Dürkheimer Straße"/>
    <tag k="ref" v="L 527"/>
  </way>
  <way id="35824572" version="4" timestamp="2010-07-03T12:55:00Z" uid="183436" user="mtb" changeset="5124572">
    <nd ref="418824283"/>
    <nd ref="60139700"/>
    <nd ref="655355736"/>
    <nd ref="371217058"/>
    <nd ref="60139707"/>
    <nd ref="392788898"/>
    <nd ref="60139734"/>
    <tag k="highway" v="secondary"/>
    <tag k="maxspeed" v="70"/>
    <tag k="name" v="Dürkheimer Straße"/>
    <tag k="ref" v="L 527"/>
  </way>
  <way id="35824572" version="5" timestamp="2010-08-02T21:10:01Z" uid="245137" user="maurice2010" changeset="5385054">
    <nd ref="418824283"/>
    <nd ref="60139700"/>
    <nd ref="655355736"/>
    <nd ref="371217058"/>
    <nd ref="392788898"/>
    <nd ref="60139734"/>
    <tag k="highway" v="secondary"/>
    <tag k="maxspeed" v="70"/>
    <tag k="name" v="Dürkheimer Straße"/>
    <tag k="ref" v="L 527"/>
  </way>
  <way id="35824610" version="2" timestamp="2010-03-28T02:18:04Z" uid="20587" user="balrog-kun" changeset="4250871">
    <nd ref="55949987"/>
    <nd ref="55949988"/>
    <nd ref="418825554"/>
    <tag k="highway" v="residential"/>
    <tag k="name" v="Water Street"/>
  </way>
  <way id="35824705" version="2" timestamp="2009-11-01T02:52:27Z" uid="137033" user="lubomir" changeset="3003366">
    <nd ref="418345175"/>
    <nd ref="418826820"/>
    <nd ref="540119890"/>
    <nd ref="418826821"/>
    <tag k="highway" v="residential"/>
  </way>
  <way id="35824705" version="3" timestamp="2009-11-02T01:23:09Z" uid="103253" user="gormur" changeset="3013066">
    <nd ref="418345175"/>
    <nd ref="418826820"/>
    <nd ref="540119890"/>
    <tag k="highway" v="residential"/>
  </way>
  <way id="35824705" version="4" timestamp="2009-11-02T01:34:52Z" uid="103253" user="gormur" changeset="3013122">
    <nd ref="418345175"/>
    <nd ref="418826820"/>
    <nd ref="540119890"/>
    <tag k="highway" v="residential"/>
  </way>
  <way id="35824705" version="5" timestamp="2010-05-26T14:14:14Z" uid="170106" user="sanchi" changeset="4813523">
    <nd ref="540119890"/>
    <nd ref="418826820"/>
    <nd ref="418345175"/>
    <tag k="highway" v="residential"/>
    <tag k="oneway" v="yes"/>
  </way>
  <way id="35824705" version="6" timestamp="2010-09-15T07:57:16Z" uid="55462" user="Lübeck" changeset="5784467">
    <nd ref="540119890"/>
    <nd ref="418826820"/>
    <nd ref="913101300"/>
    <nd ref="418345175"/>
    <tag k="highway" v="residential"/>
    <tag k="oneway" v="yes"/>
  </way>
  <way id="35824705" version="7" timestamp="2011-12-01T23:26:37Z" uid="53891" user="nubarron" changeset="10013340">
    <nd ref="1527385950"/>
    <nd ref="418826820"/>
    <nd ref="913101300"/>
    <nd ref="418345175"/>
    <tag k="highway" v="residential"/>
    <tag k="oneway" v="yes"/>
  </way>
  <way id="35824776" version="2" timestamp="2010-10-23T17:34:00Z" uid="9581" user="Lobelt" changeset="6148952">
    <nd ref="418827595"/>
    <nd ref="418827596"/>
    <nd ref="418827597"/>
    <nd ref="418827598"/>
    <nd ref="418827594"/>
    <nd ref="418827599"/>
    <nd ref="418827600"/>
    <nd ref="418827601"/>
    <nd ref="418827602"/>
    <nd ref="961873722"/>
    <nd ref="961873930"/>
    <nd ref="961873746"/>
    <nd ref="961873609"/>
    <nd ref="961873972"/>
    <nd ref="370170258"/>
    <tag k="highway" v="path"/>
    <tag k="surface" v="grass"/>
  </way>
  <way id="35824783" version="3" timestamp="2010-10-23T17:34:23Z" uid="9581" user="Lobelt" changeset="6148952">
    <nd ref="961873648"/>
    <nd ref="418827656"/>
    <nd ref="961874020"/>
    <tag k="barrier" v="fence"/>
  </way>
  <way id="35824856" version="2" timestamp="2010-10-23T17:35:08Z" uid="9581" user="Lobelt" changeset="6148952">
    <nd ref="961873905"/>
    <nd ref="961873731"/>
    <nd ref="961874183"/>
    <nd ref="961874057"/>
    <nd ref="961873666"/>
    <nd ref="961873864"/>
    <nd ref="961873991"/>
    <nd ref="961874107"/>
    <nd ref="961873628"/>
    <nd ref="418827603"/>
    <nd ref="418827604"/>
    <nd ref="418827605"/>
    <nd ref="418827606"/>
    <nd ref="418827607"/>
    <nd ref="961873691"/>
    <nd ref="961873767"/>
    <nd ref="961873632"/>
    <nd ref="961873905"/>
    <tag k="disused" v="yes"/>
    <tag k="landuse" v="vineyard"/>
  </way>
  <way id="35824856" version="3" timestamp="2012-01-23T15:52:44Z" uid="179033" user="Radeln" changeset="10476409">
    <nd ref="961873905"/>
    <nd ref="961873632"/>
    <nd ref="961873767"/>
    <nd ref="961873691"/>
    <nd ref="418827607"/>
    <nd ref="418827606"/>
    <nd ref="418827605"/>
    <nd ref="418827604"/>
    <nd ref="418827603"/>
    <nd ref="961873628"/>
    <nd ref="961874107"/>
    <nd ref="961873991"/>
    <nd ref="961873864"/>
    <nd ref="961873666"/>
    <nd ref="961874057"/>
    <nd ref="961874183"/>
    <nd ref="961873731"/>
    <nd ref="961873905"/>
    <tag k="disused" v="yes"/>
    <tag k="landuse" v="vineyard"/>
  </way>
</osm>
