<?xml version='1.0' encoding='UTF-8'?>
<osm version="0.6" generator="libosmium/2.20.0">
  <way id="35918411" version="2" timestamp="2010-04-02T17:35:46Z" uid="20587" user="balrog-kun" changeset="4304500">
    <nd ref="50647076"/>
    <nd ref="50723594"/>
    <nd ref="419854873"/>
    <nd ref="419854881"/>
    <nd ref="419854884"/>
    <nd ref="419854888"/>
    <nd ref="419854890"/>
    <nd ref="419854893"/>
    <tag k="highway" v="residential"/>
    <tag k="name" v="230th Drive Northeast"/>
    <tag k="tiger:cfcc" v="A41"/>
    <tag k="tiger:county" v="Snohomish, WA"/>
    <tag k="tiger:name_base" v="230th"/>
    <tag k="tiger:name_direction_suffix" v="NE"/>
    <tag k="tiger:name_type" v="Dr"/>
    <tag k="tiger:reviewed" v="no"/>
    <tag k="tiger:separated" v="no"/>
    <tag k="tiger:source" v="tiger_import_dch_v0.6_20070830"/>
    <tag k="tiger:tlid" v="187733503"/>
    <tag k="tiger:zip_left" v="98252"/>
    <tag k="tiger:zip_right" v="98252"/>
  </way>
  <way id="35918478" version="2" timestamp="2009-10-24T14:38:23Z" uid="85955" user="Gerd Höweler" changeset="2938378">
    <nd ref="419855278"/>
    <nd ref="241892719"/>
    <tag k="highway" v="tertiary"/>
    <tag k="minspeed" v="50"/>
    <tag k="name" v="Kusenweg"/>
    <tag k="ref" v="K 23"/>
  </way>
  <way id="35918478" version="3" timestamp="2012-01-22T16:21:03Z" uid="461103" user="nomatrix" changeset="10466376">
    <nd ref="419855278"/>
    <nd ref="1601337335"/>
    <nd ref="241892719"/>
    <tag k="highway" v="tertiary"/>
    <tag k="minspeed" v="50"/>
    <tag k="name" v="Kusenweg"/>
    <tag k="ref" v="K 23"/>
  </way>
  <way id="35918537" version="2" timestamp="2010-03-28T02:18:38Z" uid="20587" user="balrog-kun" changeset="4250871">
    <nd ref="65440943"/>
    <nd ref="288595939"/>
    <tag k="created_by" v="Potlatch 0.10f"/>
    <tag k="highway" v="primary"/>
    <tag k="name" v="West Santa Clara Street"/>
    <tag k="name_1" v="State Highway 82"/>
    <tag k="tiger:cfcc" v="A31"/>
    <tag k="tiger:county" v="Santa Clara, CA"/>
    <tag k="tiger:name_base" v="Santa Clara"/>
    <tag k="tiger:name_base_1" v="State Highway 82"/>
    <tag k="tiger:name_direction_prefix" v="W"/>
    <tag k="tiger:name_type" v="St"/>
    <tag k="tiger:separated" v="no"/>
    <tag k="tiger:source" v="tiger_import_dch_v0.6_20070809"/>
    <tag k="tiger:tlid" v="122987395"/>
    <tag k="tiger:zip_left" v="95126"/>
    <tag k="tiger:zip_right" v="95126"/>
  </way>
  <way id="35918538" version="3" timestamp="2010-03-28T02:18:38Z" uid="20587" user="balrog-kun" changeset="4250871">
    <nd ref="65497379"/>
    <nd ref="580402794"/>
    <nd ref="580402356"/>
    <nd ref="580403044"/>
    <nd ref="65665946"/>
    <nd ref="65665949"/>
    <nd ref="288595610"/>
    <tag k="highway" v="primary"/>
    <tag k="name" v="West San Carlos Street"/>
    <tag k="tiger:cfcc" v="A41"/>
    <tag k="tiger:county" v="Santa Clara, CA"/>
    <tag k="tiger:name_base" v="San Carlos"/>
    <tag k="tiger:name_direction_prefix" v="W"/>
    <tag k="tiger:name_type" v="St"/>
    <tag k="tiger:separated" v="no"/>
    <tag k="tiger:source" v="tiger_import_dch_v0.6_20070809"/>
    <tag k="tiger:tlid" v="122905252:122905255:122905258:122905275:122905277:122905286:122905348:122905350:122997658:122905279"/>
    <tag k="tiger:zip_left" v="95128"/>
    <tag k="tiger:zip_right" v="95128"/>
  </way>
  <way id="35918538" version="4" timestamp="2011-08-09T14:08:06Z" uid="207745" user="NE2" changeset="8967545">
    <nd ref="288595610"/>
    <nd ref="65665949"/>
    <nd ref="65665946"/>
    <nd ref="580403044"/>
    <nd ref="580402356"/>
    <nd ref="580402794"/>
    <tag k="highway" v="primary"/>
    <tag k="name" v="West San Carlos Street"/>
    <tag k="tiger:cfcc" v="A41"/>
    <tag k="tiger:county" v="Santa Clara, CA"/>
    <tag k="tiger:name_base" v="San Carlos"/>
    <tag k="tiger:name_direction_prefix" v="W"/>
    <tag k="tiger:name_type" v="St"/>
    <tag k="tiger:separated" v="no"/>
    <tag k="tiger:source" v="tiger_import_dch_v0.6_20070809"/>
    <tag k="tiger:tlid" v="122905252:122905255:122905258:122905275:122905277:122905286:122905348:122905350:122997658:122905279"/>
    <tag k="tiger:zip_left" v="95128"/>
    <tag k="tiger:zip_right" v="95128"/>
  </way>
  <way id="35918638" version="2" timestamp="2009-10-22T20:48:51Z" uid="36809" user="pfoten_weg_!_" changeset="2925342">
    <nd ref="48852236"/>
    <nd ref="82622686"/>
    <nd ref="269170919"/>
    <nd ref="82622016"/>
    <nd ref="48852231"/>
    <tag k="highway" v="secondary"/>
    <tag k="junction" v="roundabout"/>
    <tag k="name" v="Rosenheimer Straße"/>
  </way>
  <way id="35918638" version="3" timestamp="2011-11-09T19:30:45Z" uid="268988" user="Andreas Binder" changeset="9783999">
    <nd ref="48852236"/>
    <nd ref="82622686"/>
    <nd ref="269170919"/>
    <nd ref="82622016"/>
    <nd ref="48852231"/>
    <tag k="highway" v="secondary"/>
    <tag k="junction" v="roundabout"/>
    <tag k="maxspeed" v="30"/>
    <tag k="name" v="Rosenheimer Straße"/>
  </way>
  <way id="35918638" version="4" timestamp="2011-11-10T07:24:37Z" uid="268988" user="Andreas Binder" changeset="9786753">
    <nd ref="48852236"/>
    <nd ref="82622686"/>
    <nd ref="269170919"/>
    <nd ref="82622016"/>
    <nd ref="48852231"/>
    <tag k="highway" v="secondary"/>
    <tag k="junction" v="roundabout"/>
    <tag k="maxspeed" v="50"/>
    <tag k="name" v="Rosenheimer Straße"/>
  </way>
  <way id="35918638" version="5" timestamp="2011-11-14T17:52:30Z" uid="268988" user="Andreas Binder" changeset="9826895">
    <nd ref="48852236"/>
    <nd ref="82622686"/>
    <nd ref="269170919"/>
    <nd ref="82622016"/>
    <nd ref="48852231"/>
    <tag k="highway" v="secondary"/>
    <tag k="junction" v="roundabout"/>
    <tag k="maxspeed" v="30"/>
    <tag k="name" v="Rosenheimer Straße"/>
  </way>
</osm>
