<?xml version='1.0' encoding='UTF-8'?>
<osm version="0.6" generator="libosmium/2.20.0">
  <way id="35977016" version="3" timestamp="2010-07-08T19:20:15Z" uid="74617" user="JohnSmith" changeset="5168688">
    <nd ref="346523018"/>
    <nd ref="346523020"/>
    <nd ref="346523022"/>
    <tag k="highway" v="residential"/>
    <tag k="maxspeed" v="50"/>
    <tag k="maxspeed:source" v="default residential speed limit in Australia"/>
    <tag k="name" v="Nebo Court"/>
  </way>
  <way id="35977016" version="4" timestamp="2010-09-16T07:24:22Z" uid="320632" user="Zulu99" changeset="5792952">
    <nd ref="346523018"/>
    <nd ref="346523020"/>
    <nd ref="914219660"/>
    <nd ref="346523022"/>
    <tag k="highway" v="residential"/>
    <tag k="maxspeed" v="50"/>
    <tag k="maxspeed:source" v="default residential speed limit in Australia"/>
    <tag k="name" v="Nebo Court"/>
  </way>
  <way id="35977016" version="5" timestamp="2012-01-18T23:10:47Z" uid="147510" user="woodpeck_fixbot" changeset="10431441">
    <nd ref="346523018"/>
    <nd ref="346523020"/>
    <nd ref="914219660"/>
    <nd ref="346523022"/>
    <tag k="highway" v="residential"/>
    <tag k="name" v="Nebo Court"/>
  </way>
  <way id="35977191" version="4" timestamp="2010-07-08T19:26:00Z" uid="74617" user="JohnSmith" changeset="5168688">
    <nd ref="347255855"/>
    <nd ref="577464363"/>
    <nd ref="577464364"/>
    <nd ref="577464365"/>
    <nd ref="577464366"/>
    <nd ref="577464367"/>
    <nd ref="347255843"/>
    <tag k="highway" v="residential"/>
    <tag k="maxspeed" v="50"/>
    <tag k="maxspeed:source" v="default residential speed limit in Australia"/>
    <tag k="name" v="Dunk Court"/>
  </way>
  <way id="35977191" version="5" timestamp="2012-01-18T23:10:53Z" uid="147510" user="woodpeck_fixbot" changeset="10431441">
    <nd ref="347255855"/>
    <nd ref="577464363"/>
    <nd ref="577464364"/>
    <nd ref="577464365"/>
    <nd ref="577464366"/>
    <nd ref="577464367"/>
    <nd ref="347255843"/>
    <tag k="highway" v="residential"/>
    <tag k="name" v="Dunk Court"/>
  </way>
  <way id="35977196" version="4" timestamp="2010-07-08T19:20:21Z" uid="74617" user="JohnSmith" changeset="5168688">
    <nd ref="347255854"/>
    <nd ref="347255844"/>
    <nd ref="347256109"/>
    <nd ref="347255855"/>
    <nd ref="577464460"/>
    <nd ref="347255842"/>
    <nd ref="347255841"/>
    <nd ref="577464461"/>
    <nd ref="347255840"/>
    <nd ref="347255862"/>
    <nd ref="347255861"/>
    <nd ref="347255839"/>
    <nd ref="347255838"/>
    <nd ref="347255837"/>
    <nd ref="347255836"/>
    <tag k="highway" v="residential"/>
    <tag k="maxspeed" v="50"/>
    <tag k="maxspeed:source" v="default residential speed limit in Australia"/>
    <tag k="name" v="Whitsunday Drive"/>
  </way>
  <way id="35977196" version="5" timestamp="2012-01-18T23:10:54Z" uid="147510" user="woodpeck_fixbot" changeset="10431441">
    <nd ref="347255854"/>
    <nd ref="347255844"/>
    <nd ref="347256109"/>
    <nd ref="347255855"/>
    <nd ref="577464460"/>
    <nd ref="347255842"/>
    <nd ref="347255841"/>
    <nd ref="577464461"/>
    <nd ref="347255840"/>
    <nd ref="347255862"/>
    <nd ref="347255861"/>
    <nd ref="347255839"/>
    <nd ref="347255838"/>
    <nd ref="347255837"/>
    <nd ref="347255836"/>
    <tag k="highway" v="residential"/>
    <tag k="name" v="Whitsunday Drive"/>
  </way>
  <way id="35977312" version="1" timestamp="2009-06-15T08:43:49Z" uid="61114" user="Trav" changeset="1522739">
    <nd ref="82459701"/>
    <nd ref="70566705"/>
    <nd ref="70566722"/>
    <nd ref="70566744"/>
    <nd ref="70566766"/>
    <nd ref="70566629"/>
    <tag k="highway" v="residential"/>
    <tag k="name" v="Richmond Avenue"/>
    <tag k="source" v="survey"/>
  </way>
  <way id="35977312" version="2" timestamp="2010-07-08T01:18:46Z" uid="74617" user="JohnSmith" changeset="5162525">
    <nd ref="82459701"/>
    <nd ref="70566705"/>
    <nd ref="70566722"/>
    <nd ref="70566744"/>
    <nd ref="70566766"/>
    <nd ref="70566629"/>
    <tag k="highway" v="residential"/>
    <tag k="maxspeed" v="50"/>
    <tag k="maxspeed:source" v="default residential speed limit in Australia"/>
    <tag k="name" v="Richmond Avenue"/>
    <tag k="source" v="survey"/>
  </way>
  <way id="35977312" version="3" timestamp="2012-01-18T23:10:56Z" uid="147510" user="woodpeck_fixbot" changeset="10431441">
    <nd ref="82459701"/>
    <nd ref="70566705"/>
    <nd ref="70566722"/>
    <nd ref="70566744"/>
    <nd ref="70566766"/>
    <nd ref="70566629"/>
    <tag k="highway" v="residential"/>
    <tag k="name" v="Richmond Avenue"/>
    <tag k="source" v="survey"/>
  </way>
  <way id="35977314" version="1" timestamp="2009-06-15T08:43:55Z" uid="61114" user="Trav" changeset="1522739">
    <nd ref="82455910"/>
    <nd ref="387102283"/>
    <nd ref="70566671"/>
    <tag k="abutters" v="residential"/>
    <tag k="highway" v="residential"/>
    <tag k="name" v="Ellalong Road"/>
    <tag k="note" v="FIXME: Lots of bits of dual carriageway are missing"/>
    <tag k="source" v="yahoo_imagery"/>
    <tag k="source:name" v="survey"/>
  </way>
  <way id="35977314" version="2" timestamp="2009-08-02T03:41:06Z" uid="61114" user="Trav" changeset="2009472">
    <nd ref="82455910"/>
    <nd ref="454047041"/>
    <nd ref="387102283"/>
    <nd ref="454047037"/>
    <nd ref="70566671"/>
    <tag k="abutters" v="residential"/>
    <tag k="highway" v="residential"/>
    <tag k="name" v="Ellalong Road"/>
    <tag k="source" v="yahoo_imagery"/>
    <tag k="source:name" v="survey"/>
  </way>
  <way id="35977314" version="3" timestamp="2009-12-19T11:07:00Z" uid="30201" user="rrankin" changeset="3406016">
    <nd ref="82455910"/>
    <nd ref="454047041"/>
    <nd ref="387102283"/>
    <nd ref="454047037"/>
    <nd ref="70566671"/>
    <tag k="highway" v="residential"/>
    <tag k="name" v="Ellalong Road"/>
    <tag k="source" v="yahoo_imagery"/>
    <tag k="source:name" v="survey"/>
  </way>
  <way id="35977314" version="4" timestamp="2010-06-17T23:44:33Z" uid="69319" user="Rhubarb" changeset="5013183">
    <nd ref="775384431"/>
    <nd ref="454047041"/>
    <nd ref="387102283"/>
    <nd ref="454047037"/>
    <nd ref="70566671"/>
    <tag k="highway" v="residential"/>
    <tag k="name" v="Ellalong Road"/>
    <tag k="source" v="yahoo_imagery"/>
    <tag k="source:name" v="survey"/>
  </way>
  <way id="35977314" version="5" timestamp="2010-07-08T01:17:35Z" uid="74617" user="JohnSmith" changeset="5162525">
    <nd ref="775384431"/>
    <nd ref="454047041"/>
    <nd ref="387102283"/>
    <nd ref="454047037"/>
    <nd ref="70566671"/>
    <tag k="highway" v="residential"/>
    <tag k="maxspeed" v="50"/>
    <tag k="maxspeed:source" v="default residential speed limit in Australia"/>
    <tag k="name" v="Ellalong Road"/>
    <tag k="source" v="yahoo_imagery"/>
    <tag k="source:name" v="survey"/>
  </way>
  <way id="35977314" version="6" timestamp="2010-07-28T08:42:00Z" uid="4467" user="Rosscoe" changeset="5335972">
    <nd ref="775384431"/>
    <nd ref="454047041"/>
    <nd ref="387102283"/>
    <nd ref="454047037"/>
    <nd ref="836109664"/>
    <nd ref="70566671"/>
    <tag k="highway" v="residential"/>
    <tag k="maxspeed" v="50"/>
    <tag k="maxspeed:source" v="default residential speed limit in Australia"/>
    <tag k="name" v="Ellalong Road"/>
    <tag k="source" v="yahoo_imagery"/>
    <tag k="source:name" v="survey"/>
  </way>
  <way id="35977314" version="7" timestamp="2012-01-18T23:10:57Z" uid="147510" user="woodpeck_fixbot" changeset="10431441">
    <nd ref="775384431"/>
    <nd ref="454047041"/>
    <nd ref="387102283"/>
    <nd ref="454047037"/>
    <nd ref="836109664"/>
    <nd ref="70566671"/>
    <tag k="highway" v="residential"/>
    <tag k="name" v="Ellalong Road"/>
    <tag k="source" v="yahoo_imagery"/>
    <tag k="source:name" v="survey"/>
  </way>
  <way id="35977315" version="1" timestamp="2009-06-15T08:43:57Z" uid="61114" user="Trav" changeset="1522739">
    <nd ref="420518539"/>
    <nd ref="420518541"/>
    <nd ref="420518540"/>
    <nd ref="82459703"/>
    <tag k="abutters" v="residential"/>
    <tag k="bicycle" v="yes"/>
    <tag k="car" v="no"/>
    <tag k="foot" v="yes"/>
    <tag k="highway" v="service"/>
    <tag k="name" v="Bariston Avenue"/>
    <tag k="source" v="yahoo_imagery"/>
    <tag k="source:name" v="survey"/>
  </way>
  <way id="35977315" version="2" timestamp="2009-09-22T04:59:32Z" uid="4467" user="Rosscoe" changeset="2564527">
    <nd ref="420518539"/>
    <nd ref="420518541"/>
    <nd ref="420518540"/>
    <nd ref="82459703"/>
    <tag k="abutters" v="residential"/>
    <tag k="bicycle" v="yes"/>
    <tag k="foot" v="yes"/>
    <tag k="highway" v="service"/>
    <tag k="motorcar" v="no"/>
    <tag k="name" v="Bariston Avenue"/>
    <tag k="source" v="yahoo_imagery"/>
    <tag k="source:name" v="survey"/>
  </way>
  <way id="35977315" version="3" timestamp="2009-12-19T11:07:05Z" uid="30201" user="rrankin" changeset="3406016">
    <nd ref="420518539"/>
    <nd ref="420518541"/>
    <nd ref="420518540"/>
    <nd ref="82459703"/>
    <tag k="bicycle" v="yes"/>
    <tag k="foot" v="yes"/>
    <tag k="highway" v="service"/>
    <tag k="motorcar" v="no"/>
    <tag k="name" v="Bariston Avenue"/>
    <tag k="source" v="yahoo_imagery"/>
    <tag k="source:name" v="survey"/>
  </way>
  <way id="35977316" version="1" timestamp="2009-06-15T08:43:59Z" uid="61114" user="Trav" changeset="1522739">
    <nd ref="420518539"/>
    <nd ref="420518542"/>
    <tag k="highway" v="service"/>
    <tag k="name" v="Davidson Lane"/>
    <tag k="source" v="survey"/>
  </way>
  <way id="35977317" version="1" timestamp="2009-06-15T08:44:01Z" uid="61114" user="Trav" changeset="1522739">
    <nd ref="420518542"/>
    <nd ref="420518543"/>
    <tag k="highway" v="residential"/>
    <tag k="name" v="Davidson Parade"/>
    <tag k="source" v="survey"/>
  </way>
  <way id="35977317" version="2" timestamp="2010-07-08T01:18:54Z" uid="74617" user="JohnSmith" changeset="5162525">
    <nd ref="420518542"/>
    <nd ref="420518543"/>
    <tag k="highway" v="residential"/>
    <tag k="maxspeed" v="50"/>
    <tag k="maxspeed:source" v="default residential speed limit in Australia"/>
    <tag k="name" v="Davidson Parade"/>
    <tag k="source" v="survey"/>
  </way>
  <way id="35977317" version="3" timestamp="2012-01-18T23:10:59Z" uid="147510" user="woodpeck_fixbot" changeset="10431441">
    <nd ref="420518542"/>
    <nd ref="420518543"/>
    <tag k="highway" v="residential"/>
    <tag k="name" v="Davidson Parade"/>
    <tag k="source" v="survey"/>
  </way>
  <way id="35977318" version="1" timestamp="2009-06-15T08:44:04Z" uid="61114" user="Trav" changeset="1522739">
    <nd ref="420518558"/>
    <nd ref="31395264"/>
    <tag k="abutters" v="residential"/>
    <tag k="highway" v="footway"/>
    <tag k="name" v="Wudgong Walk"/>
    <tag k="source" v="yahoo_imagery"/>
    <tag k="source:name" v="survey"/>
  </way>
  <way id="35977318" version="2" timestamp="2009-12-18T06:17:16Z" uid="30201" user="rrankin" changeset="3398509">
    <nd ref="420518558"/>
    <nd ref="31395264"/>
    <tag k="highway" v="footway"/>
    <tag k="name" v="Wudgong Walk"/>
    <tag k="source" v="yahoo_imagery"/>
    <tag k="source:name" v="survey"/>
  </way>
  <way id="35977319" version="1" timestamp="2009-06-15T08:44:10Z" uid="61114" user="Trav" changeset="1522739">
    <nd ref="31395216"/>
    <nd ref="120344126"/>
    <nd ref="31395214"/>
    <tag k="highway" v="residential"/>
    <tag k="name" v="Glover Street"/>
    <tag k="source" v="survey"/>
    <tag k="source:name" v="survey"/>
  </way>
  <way id="35977319" version="2" timestamp="2010-07-08T01:17:45Z" uid="74617" user="JohnSmith" changeset="5162525">
    <nd ref="31395216"/>
    <nd ref="120344126"/>
    <nd ref="31395214"/>
    <tag k="highway" v="residential"/>
    <tag k="maxspeed" v="50"/>
    <tag k="maxspeed:source" v="default residential speed limit in Australia"/>
    <tag k="name" v="Glover Street"/>
    <tag k="source" v="survey"/>
    <tag k="source:name" v="survey"/>
  </way>
  <way id="35977319" version="3" timestamp="2012-01-18T23:11:00Z" uid="147510" user="woodpeck_fixbot" changeset="10431441">
    <nd ref="31395216"/>
    <nd ref="120344126"/>
    <nd ref="31395214"/>
    <tag k="highway" v="residential"/>
    <tag k="name" v="Glover Street"/>
    <tag k="source" v="survey"/>
    <tag k="source:name" v="survey"/>
  </way>
  <way id="35977321" version="1" timestamp="2009-06-15T08:44:17Z" uid="61114" user="Trav" changeset="1522739">
    <nd ref="420518566"/>
    <nd ref="420518568"/>
    <tag k="highway" v="steps"/>
    <tag k="source" v="approximation"/>
  </way>
  <way id="35977367" version="4" timestamp="2010-03-28T02:19:04Z" uid="20587" user="balrog-kun" changeset="4250871">
    <nd ref="65299384"/>
    <nd ref="65299389"/>
    <nd ref="65299391"/>
    <nd ref="65299392"/>
    <nd ref="65299395"/>
    <nd ref="65299397"/>
    <nd ref="258758538"/>
    <nd ref="65299400"/>
    <nd ref="65299405"/>
    <nd ref="65299406"/>
    <nd ref="65299409"/>
    <nd ref="65299417"/>
    <nd ref="65292759"/>
    <nd ref="65299424"/>
    <nd ref="65299426"/>
    <nd ref="65299429"/>
    <nd ref="65299431"/>
    <nd ref="65299435"/>
    <nd ref="65299438"/>
    <nd ref="65299440"/>
    <nd ref="65299446"/>
    <nd ref="65299449"/>
    <nd ref="65299451"/>
    <tag k="highway" v="residential"/>
    <tag k="name" v="Vallejo Street"/>
    <tag k="tiger:cfcc" v="A41"/>
    <tag k="tiger:county" v="San Francisco, CA"/>
    <tag k="tiger:name_base" v="Vallejo"/>
    <tag k="tiger:name_type" v="St"/>
    <tag k="tiger:source" v="tiger_import_dch_v0.6_20070809"/>
    <tag k="tiger:tlid" v="192279562:192279590:192279661:192279667:192279594:192279937:192279686:192279945:192279975:192279967:192279584:192279300:192280052:192280056"/>
    <tag k="tiger:zip_left" v="94123"/>
    <tag k="tiger:zip_right" v="94123"/>
  </way>
  <way id="35977367" version="5" timestamp="2010-11-18T12:34:38Z" uid="116029" user="Gregory Arenius" changeset="6399647">
    <nd ref="65299384"/>
    <nd ref="65299389"/>
    <nd ref="65299391"/>
    <nd ref="65299392"/>
    <nd ref="65299395"/>
    <nd ref="65299397"/>
    <nd ref="258758538"/>
    <tag k="highway" v="residential"/>
    <tag k="name" v="Vallejo Street"/>
    <tag k="tiger:cfcc" v="A41"/>
    <tag k="tiger:county" v="San Francisco, CA"/>
    <tag k="tiger:name_base" v="Vallejo"/>
    <tag k="tiger:name_type" v="St"/>
    <tag k="tiger:source" v="tiger_import_dch_v0.6_20070809"/>
    <tag k="tiger:tlid" v="192279562:192279590:192279661:192279667:192279594:192279937:192279686:192279945:192279975:192279967:192279584:192279300:192280052:192280056"/>
    <tag k="tiger:zip_left" v="94123"/>
    <tag k="tiger:zip_right" v="94123"/>
  </way>
  <way id="35977367" version="6" timestamp="2011-03-27T05:40:34Z" uid="20587" user="balrog-kun" changeset="7682307">
    <nd ref="65299384"/>
    <nd ref="65299389"/>
    <nd ref="65299391"/>
    <nd ref="65299392"/>
    <nd ref="65299395"/>
    <nd ref="65299397"/>
    <nd ref="258758538"/>
    <tag k="highway" v="residential"/>
    <tag k="maxweight" v="3"/>
    <tag k="name" v="Vallejo Street"/>
    <tag k="tiger:cfcc" v="A41"/>
    <tag k="tiger:county" v="San Francisco, CA"/>
    <tag k="tiger:name_base" v="Vallejo"/>
    <tag k="tiger:name_type" v="St"/>
    <tag k="tiger:source" v="tiger_import_dch_v0.6_20070809"/>
    <tag k="tiger:tlid" v="192279562:192279590:192279661:192279667:192279594:192279937:192279686:192279945:192279975:192279967:192279584:192279300:192280052:192280056"/>
    <tag k="tiger:zip_left" v="94123"/>
    <tag k="tiger:zip_right" v="94123"/>
  </way>
  <way id="35977396" version="5" timestamp="2010-03-28T02:19:04Z" uid="20587" user="balrog-kun" changeset="4250871">
    <nd ref="420519156"/>
    <nd ref="612031964"/>
    <nd ref="420519204"/>
    <nd ref="612031965"/>
    <nd ref="612031966"/>
    <nd ref="420519029"/>
    <nd ref="612031967"/>
    <nd ref="612031968"/>
    <nd ref="420519205"/>
    <nd ref="612031977"/>
    <nd ref="420519206"/>
    <tag k="highway" v="residential"/>
    <tag k="name" v="Vallejo Street"/>
  </way>
  <way id="35977396" version="6" timestamp="2012-01-17T04:39:36Z" uid="119881" user="Clorox" changeset="10414227">
    <nd ref="420519156"/>
    <nd ref="612031964"/>
    <nd ref="420519204"/>
    <nd ref="612031965"/>
    <nd ref="612031966"/>
    <nd ref="420519029"/>
    <nd ref="612031967"/>
    <nd ref="612031968"/>
    <nd ref="420519205"/>
    <nd ref="612031977"/>
    <nd ref="420519206"/>
    <tag k="highway" v="residential"/>
    <tag k="name" v="Jones Street"/>
  </way>
  <way id="35977400" version="3" timestamp="2010-07-08T19:20:46Z" uid="74617" user="JohnSmith" changeset="5168688">
    <nd ref="347198224"/>
    <nd ref="347198225"/>
    <nd ref="347198226"/>
    <tag k="highway" v="residential"/>
    <tag k="maxspeed" v="50"/>
    <tag k="maxspeed:source" v="default residential speed limit in Australia"/>
    <tag k="name" v="Caper Court"/>
  </way>
  <way id="35977400" version="4" timestamp="2012-01-18T23:11:01Z" uid="147510" user="woodpeck_fixbot" changeset="10431441">
    <nd ref="347198224"/>
    <nd ref="347198225"/>
    <nd ref="347198226"/>
    <tag k="highway" v="residential"/>
    <tag k="name" v="Caper Court"/>
  </way>
  <way id="35977526" version="3" timestamp="2010-07-08T19:18:39Z" uid="74617" user="JohnSmith" changeset="5168688">
    <nd ref="347198446"/>
    <nd ref="347198448"/>
    <nd ref="347198917"/>
    <nd ref="347198450"/>
    <nd ref="347198451"/>
    <nd ref="347198453"/>
    <nd ref="347198454"/>
    <tag k="highway" v="residential"/>
    <tag k="maxspeed" v="50"/>
    <tag k="maxspeed:source" v="default residential speed limit in Australia"/>
    <tag k="name" v="Egan Close"/>
  </way>
  <way id="35977526" version="4" timestamp="2012-01-18T23:11:02Z" uid="147510" user="woodpeck_fixbot" changeset="10431441">
    <nd ref="347198446"/>
    <nd ref="347198448"/>
    <nd ref="347198917"/>
    <nd ref="347198450"/>
    <nd ref="347198451"/>
    <nd ref="347198453"/>
    <nd ref="347198454"/>
    <tag k="highway" v="residential"/>
    <tag k="name" v="Egan Close"/>
  </way>
  <way id="35977691" version="4" timestamp="2010-05-13T13:41:42Z" uid="4467" user="Rosscoe" changeset="4686194">
    <nd ref="347229565"/>
    <nd ref="732197881"/>
    <nd ref="347229561"/>
    <nd ref="732197875"/>
    <nd ref="347229557"/>
    <nd ref="347229389"/>
    <nd ref="347229386"/>
    <nd ref="347229383"/>
    <nd ref="347229380"/>
    <nd ref="347229378"/>
    <nd ref="347229375"/>
    <nd ref="347229369"/>
    <tag k="highway" v="residential"/>
    <tag k="name" v="Purchas Street"/>
  </way>
  <way id="35977691" version="5" timestamp="2010-07-08T19:18:35Z" uid="74617" user="JohnSmith" changeset="5168688">
    <nd ref="347229565"/>
    <nd ref="732197881"/>
    <nd ref="347229561"/>
    <nd ref="732197875"/>
    <nd ref="347229557"/>
    <nd ref="347229389"/>
    <nd ref="347229386"/>
    <nd ref="347229383"/>
    <nd ref="347229380"/>
    <nd ref="347229378"/>
    <nd ref="347229375"/>
    <nd ref="347229369"/>
    <tag k="highway" v="residential"/>
    <tag k="maxspeed" v="50"/>
    <tag k="maxspeed:source" v="default residential speed limit in Australia"/>
    <tag k="name" v="Purchas Street"/>
  </way>
  <way id="35977691" version="6" timestamp="2012-01-18T23:11:04Z" uid="147510" user="woodpeck_fixbot" changeset="10431441">
    <nd ref="347229565"/>
    <nd ref="732197881"/>
    <nd ref="347229561"/>
    <nd ref="732197875"/>
    <nd ref="347229557"/>
    <nd ref="347229389"/>
    <nd ref="347229386"/>
    <nd ref="347229383"/>
    <nd ref="347229380"/>
    <nd ref="347229378"/>
    <nd ref="347229375"/>
    <nd ref="347229369"/>
    <tag k="highway" v="residential"/>
    <tag k="name" v="Purchas Street"/>
  </way>
  <way id="35977709" version="3" timestamp="2010-05-01T05:57:09Z" uid="4467" user="Rosscoe" changeset="4571708">
    <nd ref="347229372"/>
    <nd ref="347229369"/>
    <nd ref="714741238"/>
    <nd ref="714741278"/>
    <tag k="highway" v="residential"/>
    <tag k="name" v="Purchas Street"/>
  </way>
  <way id="35977709" version="4" timestamp="2010-07-08T19:19:56Z" uid="74617" user="JohnSmith" changeset="5168688">
    <nd ref="347229372"/>
    <nd ref="347229369"/>
    <nd ref="714741238"/>
    <nd ref="714741278"/>
    <tag k="highway" v="residential"/>
    <tag k="maxspeed" v="50"/>
    <tag k="maxspeed:source" v="default residential speed limit in Australia"/>
    <tag k="name" v="Purchas Street"/>
  </way>
  <way id="35977709" version="5" timestamp="2012-01-18T23:11:05Z" uid="147510" user="woodpeck_fixbot" changeset="10431441">
    <nd ref="347229372"/>
    <nd ref="347229369"/>
    <nd ref="714741238"/>
    <nd ref="714741278"/>
    <tag k="highway" v="residential"/>
    <tag k="name" v="Purchas Street"/>
  </way>
  <way id="35977729" version="3" timestamp="2010-05-01T05:57:03Z" uid="4467" user="Rosscoe" changeset="4571708">
    <nd ref="714741126"/>
    <nd ref="347229123"/>
    <nd ref="347229126"/>
    <nd ref="347229129"/>
    <nd ref="347229132"/>
    <nd ref="347229135"/>
    <nd ref="347229139"/>
    <nd ref="347229142"/>
    <nd ref="347229145"/>
    <nd ref="347229148"/>
    <nd ref="347229151"/>
    <tag k="highway" v="residential"/>
    <tag k="name" v="Latham Street"/>
  </way>
  <way id="35977729" version="4" timestamp="2010-05-13T13:41:48Z" uid="4467" user="Rosscoe" changeset="4686194">
    <nd ref="714741126"/>
    <nd ref="347229123"/>
    <nd ref="347229126"/>
    <nd ref="347229129"/>
    <nd ref="732197867"/>
    <nd ref="347229132"/>
    <nd ref="347229135"/>
    <nd ref="732197874"/>
    <nd ref="347229139"/>
    <nd ref="347229142"/>
    <nd ref="347229145"/>
    <nd ref="347229148"/>
    <nd ref="732197870"/>
    <nd ref="732197878"/>
    <nd ref="347229151"/>
    <tag k="highway" v="residential"/>
    <tag k="name" v="Latham Street"/>
  </way>
  <way id="35977729" version="5" timestamp="2010-07-08T19:18:23Z" uid="74617" user="JohnSmith" changeset="5168688">
    <nd ref="714741126"/>
    <nd ref="347229123"/>
    <nd ref="347229126"/>
    <nd ref="347229129"/>
    <nd ref="732197867"/>
    <nd ref="347229132"/>
    <nd ref="347229135"/>
    <nd ref="732197874"/>
    <nd ref="347229139"/>
    <nd ref="347229142"/>
    <nd ref="347229145"/>
    <nd ref="347229148"/>
    <nd ref="732197870"/>
    <nd ref="732197878"/>
    <nd ref="347229151"/>
    <tag k="highway" v="residential"/>
    <tag k="maxspeed" v="50"/>
    <tag k="maxspeed:source" v="default residential speed limit in Australia"/>
    <tag k="name" v="Latham Street"/>
  </way>
  <way id="35977729" version="6" timestamp="2012-01-18T23:11:07Z" uid="147510" user="woodpeck_fixbot" changeset="10431441">
    <nd ref="714741126"/>
    <nd ref="347229123"/>
    <nd ref="347229126"/>
    <nd ref="347229129"/>
    <nd ref="732197867"/>
    <nd ref="347229132"/>
    <nd ref="347229135"/>
    <nd ref="732197874"/>
    <nd ref="347229139"/>
    <nd ref="347229142"/>
    <nd ref="347229145"/>
    <nd ref="347229148"/>
    <nd ref="732197870"/>
    <nd ref="732197878"/>
    <nd ref="347229151"/>
    <tag k="highway" v="residential"/>
    <tag k="name" v="Latham Street"/>
  </way>
  <way id="35977874" version="7" timestamp="2011-02-23T15:22:47Z" uid="4467" user="Rosscoe" changeset="7373320">
    <nd ref="420522647"/>
    <nd ref="420522648"/>
    <nd ref="420522651"/>
    <nd ref="428994543"/>
    <nd ref="431063128"/>
    <nd ref="431063127"/>
    <nd ref="431063129"/>
    <nd ref="420891965"/>
    <nd ref="431063130"/>
    <nd ref="420522649"/>
    <nd ref="420891968"/>
    <nd ref="420522650"/>
    <nd ref="420522647"/>
    <tag k="landuse" v="retail"/>
  </way>
</osm>
