<?xml version='1.0' encoding='UTF-8'?>
<osm version="0.6" generator="libosmium/2.20.0">
  <way id="35985093" version="3" timestamp="2010-07-08T19:22:20Z" uid="74617" user="JohnSmith" changeset="5168688">
    <nd ref="293346134"/>
    <nd ref="347762350"/>
    <tag k="highway" v="residential"/>
    <tag k="maxspeed" v="50"/>
    <tag k="maxspeed:source" v="default residential speed limit in Australia"/>
    <tag k="name" v="Lunn Court"/>
  </way>
  <way id="35985093" version="4" timestamp="2010-08-10T01:48:17Z" uid="201443" user="stevage" changeset="5449966">
    <nd ref="293346134"/>
    <nd ref="852172414"/>
    <nd ref="852172393"/>
    <nd ref="347762350"/>
    <tag k="highway" v="residential"/>
    <tag k="maxspeed" v="50"/>
    <tag k="maxspeed:source" v="default residential speed limit in Australia"/>
    <tag k="name" v="Lunn Court"/>
  </way>
  <way id="35985093" version="5" timestamp="2012-01-18T23:13:23Z" uid="147510" user="woodpeck_fixbot" changeset="10431441">
    <nd ref="293346134"/>
    <nd ref="852172414"/>
    <nd ref="852172393"/>
    <nd ref="347762350"/>
    <tag k="highway" v="residential"/>
    <tag k="name" v="Lunn Court"/>
  </way>
  <way id="35985317" version="3" timestamp="2010-07-08T19:17:18Z" uid="74617" user="JohnSmith" changeset="5168688">
    <nd ref="354284015"/>
    <nd ref="354284033"/>
    <nd ref="354284036"/>
    <nd ref="354284042"/>
    <nd ref="354284051"/>
    <nd ref="354284059"/>
    <nd ref="354284063"/>
    <tag k="highway" v="residential"/>
    <tag k="maxspeed" v="50"/>
    <tag k="maxspeed:source" v="default residential speed limit in Australia"/>
    <tag k="name" v="Ravenswood Court"/>
  </way>
  <way id="35985317" version="4" timestamp="2012-01-18T23:13:24Z" uid="147510" user="woodpeck_fixbot" changeset="10431441">
    <nd ref="354284015"/>
    <nd ref="354284033"/>
    <nd ref="354284036"/>
    <nd ref="354284042"/>
    <nd ref="354284051"/>
    <nd ref="354284059"/>
    <nd ref="354284063"/>
    <tag k="highway" v="residential"/>
    <tag k="name" v="Ravenswood Court"/>
  </way>
  <way id="35985331" version="3" timestamp="2010-07-08T19:18:44Z" uid="74617" user="JohnSmith" changeset="5168688">
    <nd ref="354283429"/>
    <nd ref="354283466"/>
    <nd ref="354283469"/>
    <nd ref="354283477"/>
    <nd ref="354283484"/>
    <nd ref="354283490"/>
    <nd ref="354283493"/>
    <tag k="highway" v="residential"/>
    <tag k="maxspeed" v="50"/>
    <tag k="maxspeed:source" v="default residential speed limit in Australia"/>
    <tag k="name" v="Kiata Court"/>
  </way>
  <way id="35985331" version="4" timestamp="2012-01-18T23:13:25Z" uid="147510" user="woodpeck_fixbot" changeset="10431441">
    <nd ref="354283429"/>
    <nd ref="354283466"/>
    <nd ref="354283469"/>
    <nd ref="354283477"/>
    <nd ref="354283484"/>
    <nd ref="354283490"/>
    <nd ref="354283493"/>
    <tag k="highway" v="residential"/>
    <tag k="name" v="Kiata Court"/>
  </way>
  <way id="35985336" version="3" timestamp="2010-07-08T19:24:59Z" uid="74617" user="JohnSmith" changeset="5168688">
    <nd ref="354283452"/>
    <nd ref="354283456"/>
    <nd ref="354283459"/>
    <nd ref="354283429"/>
    <tag k="highway" v="residential"/>
    <tag k="maxspeed" v="50"/>
    <tag k="maxspeed:source" v="default residential speed limit in Australia"/>
    <tag k="name" v="The Terrace"/>
  </way>
  <way id="35985336" version="4" timestamp="2012-01-18T23:13:26Z" uid="147510" user="woodpeck_fixbot" changeset="10431441">
    <nd ref="354283452"/>
    <nd ref="354283456"/>
    <nd ref="354283459"/>
    <nd ref="354283429"/>
    <tag k="highway" v="residential"/>
    <tag k="name" v="The Terrace"/>
  </way>
  <way id="35985405" version="3" timestamp="2010-07-08T19:19:04Z" uid="74617" user="JohnSmith" changeset="5168688">
    <nd ref="354283415"/>
    <nd ref="354283418"/>
    <nd ref="354283421"/>
    <tag k="highway" v="residential"/>
    <tag k="maxspeed" v="50"/>
    <tag k="maxspeed:source" v="default residential speed limit in Australia"/>
    <tag k="name" v="South Terrace"/>
  </way>
  <way id="35985405" version="4" timestamp="2012-01-18T23:13:27Z" uid="147510" user="woodpeck_fixbot" changeset="10431441">
    <nd ref="354283415"/>
    <nd ref="354283418"/>
    <nd ref="354283421"/>
    <tag k="highway" v="residential"/>
    <tag k="name" v="South Terrace"/>
  </way>
  <way id="35985410" version="3" timestamp="2010-07-08T19:19:05Z" uid="74617" user="JohnSmith" changeset="5168688">
    <nd ref="354345453"/>
    <nd ref="354345461"/>
    <nd ref="354345466"/>
    <nd ref="354345474"/>
    <nd ref="354345476"/>
    <tag k="highway" v="residential"/>
    <tag k="maxspeed" v="50"/>
    <tag k="maxspeed:source" v="default residential speed limit in Australia"/>
    <tag k="name" v="Winter Way"/>
  </way>
  <way id="35985410" version="4" timestamp="2012-01-18T23:13:28Z" uid="147510" user="woodpeck_fixbot" changeset="10431441">
    <nd ref="354345453"/>
    <nd ref="354345461"/>
    <nd ref="354345466"/>
    <nd ref="354345474"/>
    <nd ref="354345476"/>
    <tag k="highway" v="residential"/>
    <tag k="name" v="Winter Way"/>
  </way>
</osm>
