<?xml version='1.0' encoding='UTF-8'?>
<osm version="0.6" generator="libosmium/2.20.0">
  <way id="36045061" version="10" timestamp="2010-04-04T23:23:43Z" uid="74617" user="JohnSmith" changeset="4327637">
    <nd ref="319152310"/>
    <nd ref="420460943"/>
    <nd ref="420460945"/>
    <nd ref="420460946"/>
    <nd ref="420460947"/>
    <nd ref="420460948"/>
    <nd ref="428722315"/>
    <nd ref="420460949"/>
    <nd ref="420460950"/>
    <nd ref="420460951"/>
    <nd ref="420460952"/>
    <tag k="alt_name" v="Geelong Ring Road"/>
    <tag k="highway" v="motorway"/>
    <tag k="lanes" v="2"/>
    <tag k="maxspeed" v="100"/>
    <tag k="name" v="Princes Freeway"/>
    <tag k="oneway" v="yes"/>
    <tag k="ref" v="M1"/>
  </way>
  <way id="36045061" version="11" timestamp="2010-04-05T08:29:59Z" uid="74617" user="JohnSmith" changeset="4330247">
    <nd ref="319152310"/>
    <nd ref="420460943"/>
    <nd ref="420460945"/>
    <nd ref="420460946"/>
    <nd ref="420460947"/>
    <nd ref="420460948"/>
    <nd ref="428722315"/>
    <nd ref="420460949"/>
    <nd ref="420460950"/>
    <nd ref="420460951"/>
    <nd ref="420460952"/>
    <tag k="alt_name" v="Geelong Ring Road"/>
    <tag k="highway" v="motorway"/>
    <tag k="lanes" v="2"/>
    <tag k="maxspeed" v="100"/>
    <tag k="name" v="Princes Freeway"/>
    <tag k="oneway" v="yes"/>
  </way>
  <way id="36045150" version="3" timestamp="2010-07-08T19:21:54Z" uid="74617" user="JohnSmith" changeset="5168688">
    <nd ref="347346494"/>
    <nd ref="347346512"/>
    <nd ref="347346516"/>
    <nd ref="347346521"/>
    <nd ref="347346527"/>
    <nd ref="347346533"/>
    <nd ref="347346539"/>
    <nd ref="347346544"/>
    <nd ref="347346548"/>
    <nd ref="347346555"/>
    <tag k="highway" v="residential"/>
    <tag k="maxspeed" v="50"/>
    <tag k="maxspeed:source" v="default residential speed limit in Australia"/>
    <tag k="name" v="Conservation Drive"/>
  </way>
  <way id="36045150" version="4" timestamp="2011-04-20T05:50:17Z" uid="4467" user="Rosscoe" changeset="7912938">
    <nd ref="347346494"/>
    <nd ref="347346512"/>
    <nd ref="347346516"/>
    <nd ref="347346521"/>
    <nd ref="347346527"/>
    <nd ref="347346533"/>
    <nd ref="347346539"/>
    <nd ref="347346544"/>
    <nd ref="347346548"/>
    <nd ref="347346555"/>
    <tag k="highway" v="residential"/>
    <tag k="maxspeed" v="50"/>
    <tag k="maxspeed:source:maxspeed" v="default residential speed limit in Australia"/>
    <tag k="name" v="Conservation Drive"/>
  </way>
  <way id="36045150" version="5" timestamp="2012-01-18T23:13:57Z" uid="147510" user="woodpeck_fixbot" changeset="10431441">
    <nd ref="347346494"/>
    <nd ref="347346512"/>
    <nd ref="347346516"/>
    <nd ref="347346521"/>
    <nd ref="347346527"/>
    <nd ref="347346533"/>
    <nd ref="347346539"/>
    <nd ref="347346544"/>
    <nd ref="347346548"/>
    <nd ref="347346555"/>
    <tag k="highway" v="residential"/>
    <tag k="maxspeed:source:maxspeed" v="default residential speed limit in Australia"/>
    <tag k="name" v="Conservation Drive"/>
  </way>
  <way id="36045653" version="3" timestamp="2010-07-08T19:21:08Z" uid="74617" user="JohnSmith" changeset="5168688">
    <nd ref="347430500"/>
    <nd ref="347429803"/>
    <nd ref="347429804"/>
    <nd ref="347429802"/>
    <tag k="highway" v="residential"/>
    <tag k="history" v="Retrieved from v1"/>
    <tag k="maxspeed" v="50"/>
    <tag k="maxspeed:source" v="default residential speed limit in Australia"/>
    <tag k="name" v="Vivid Court"/>
  </way>
  <way id="36045653" version="4" timestamp="2012-01-18T23:13:58Z" uid="147510" user="woodpeck_fixbot" changeset="10431441">
    <nd ref="347430500"/>
    <nd ref="347429803"/>
    <nd ref="347429804"/>
    <nd ref="347429802"/>
    <tag k="highway" v="residential"/>
    <tag k="history" v="Retrieved from v1"/>
    <tag k="name" v="Vivid Court"/>
  </way>
</osm>
