<?xml version='1.0' encoding='UTF-8'?>
<osm version="0.6" generator="libosmium/2.20.0">
  <way id="36121379" version="5" timestamp="2010-06-11T13:13:55Z" uid="115477" user="wowik" changeset="4962436">
    <nd ref="306524030"/>
    <nd ref="769160976"/>
    <nd ref="672638423"/>
    <nd ref="319741773"/>
    <nd ref="319741774"/>
    <nd ref="319741776"/>
    <nd ref="420047039"/>
    <tag k="addr:postcode" v="141431"/>
    <tag k="cladr:code" v="77000000000152200"/>
    <tag k="cladr:name" v="Комсомольская"/>
    <tag k="cladr:suffix" v="Улица"/>
    <tag k="highway" v="unclassified"/>
    <tag k="name" v="Комсомольская улица"/>
    <tag k="sorting_name" v="Комсомольская  улица"/>
  </way>
  <way id="36121379" version="6" timestamp="2011-09-18T19:21:54Z" uid="133332" user="AMDmi3" changeset="9336472">
    <nd ref="306524030"/>
    <nd ref="672638423"/>
    <nd ref="319741773"/>
    <nd ref="319741774"/>
    <nd ref="319741776"/>
    <nd ref="420047039"/>
    <tag k="addr:postcode" v="141431"/>
    <tag k="cladr:code" v="77000000000152200"/>
    <tag k="cladr:name" v="Комсомольская"/>
    <tag k="cladr:suffix" v="Улица"/>
    <tag k="highway" v="unclassified"/>
    <tag k="name" v="Комсомольская улица"/>
    <tag k="sorting_name" v="Комсомольская  улица"/>
  </way>
</osm>
