<?xml version='1.0' encoding='UTF-8'?>
<osm version="0.6" generator="libosmium/2.20.0">
  <way id="36235731" version="5" timestamp="2010-07-09T07:48:32Z" uid="74617" user="JohnSmith" changeset="5171569">
    <nd ref="422889324"/>
    <nd ref="422889433"/>
    <nd ref="422889439"/>
    <nd ref="597295102"/>
    <nd ref="422889447"/>
    <nd ref="422889454"/>
    <nd ref="422889462"/>
    <nd ref="422889467"/>
    <nd ref="422889473"/>
    <nd ref="422889479"/>
    <nd ref="422889497"/>
    <nd ref="422889504"/>
    <nd ref="422889512"/>
    <nd ref="422889517"/>
    <nd ref="422889521"/>
    <nd ref="422889524"/>
    <nd ref="422889525"/>
    <nd ref="422889526"/>
    <nd ref="422889527"/>
    <nd ref="422889528"/>
    <nd ref="422889530"/>
    <nd ref="422889533"/>
    <nd ref="422889535"/>
    <nd ref="422889537"/>
    <nd ref="422889540"/>
    <nd ref="422889542"/>
    <tag k="highway" v="residential"/>
    <tag k="maxspeed" v="50"/>
    <tag k="maxspeed:source" v="default residential speed limit in Australia"/>
    <tag k="name" v="Conidae Drive"/>
    <tag k="source" v="survey"/>
  </way>
  <way id="36235731" version="6" timestamp="2012-01-18T23:23:21Z" uid="147510" user="woodpeck_fixbot" changeset="10431441">
    <nd ref="422889324"/>
    <nd ref="422889433"/>
    <nd ref="422889439"/>
    <nd ref="597295102"/>
    <nd ref="422889447"/>
    <nd ref="422889454"/>
    <nd ref="422889462"/>
    <nd ref="422889467"/>
    <nd ref="422889473"/>
    <nd ref="422889479"/>
    <nd ref="422889497"/>
    <nd ref="422889504"/>
    <nd ref="422889512"/>
    <nd ref="422889517"/>
    <nd ref="422889521"/>
    <nd ref="422889524"/>
    <nd ref="422889525"/>
    <nd ref="422889526"/>
    <nd ref="422889527"/>
    <nd ref="422889528"/>
    <nd ref="422889530"/>
    <nd ref="422889533"/>
    <nd ref="422889535"/>
    <nd ref="422889537"/>
    <nd ref="422889540"/>
    <nd ref="422889542"/>
    <tag k="highway" v="residential"/>
    <tag k="name" v="Conidae Drive"/>
    <tag k="source" v="survey"/>
  </way>
  <way id="36235740" version="3" timestamp="2010-07-09T07:51:15Z" uid="74617" user="JohnSmith" changeset="5171569">
    <nd ref="422889535"/>
    <nd ref="422889557"/>
    <nd ref="422889560"/>
    <nd ref="422889563"/>
    <nd ref="422889566"/>
    <nd ref="422889569"/>
    <nd ref="422889497"/>
    <tag k="highway" v="residential"/>
    <tag k="maxspeed" v="50"/>
    <tag k="maxspeed:source" v="default residential speed limit in Australia"/>
    <tag k="name" v="Faversham Way"/>
    <tag k="source" v="survey"/>
  </way>
  <way id="36235740" version="4" timestamp="2012-01-18T23:23:23Z" uid="147510" user="woodpeck_fixbot" changeset="10431441">
    <nd ref="422889535"/>
    <nd ref="422889557"/>
    <nd ref="422889560"/>
    <nd ref="422889563"/>
    <nd ref="422889566"/>
    <nd ref="422889569"/>
    <nd ref="422889497"/>
    <tag k="highway" v="residential"/>
    <tag k="name" v="Faversham Way"/>
    <tag k="source" v="survey"/>
  </way>
  <way id="36235749" version="3" timestamp="2010-07-09T07:43:05Z" uid="74617" user="JohnSmith" changeset="5171569">
    <nd ref="422889566"/>
    <nd ref="422889576"/>
    <nd ref="422889579"/>
    <nd ref="422889583"/>
    <nd ref="597287357"/>
    <nd ref="422889587"/>
    <nd ref="422889591"/>
    <nd ref="422889557"/>
    <tag k="highway" v="residential"/>
    <tag k="maxspeed" v="50"/>
    <tag k="maxspeed:source" v="default residential speed limit in Australia"/>
    <tag k="name" v="Blythewood Way"/>
    <tag k="source" v="survey"/>
  </way>
  <way id="36235749" version="4" timestamp="2012-01-18T23:23:24Z" uid="147510" user="woodpeck_fixbot" changeset="10431441">
    <nd ref="422889566"/>
    <nd ref="422889576"/>
    <nd ref="422889579"/>
    <nd ref="422889583"/>
    <nd ref="597287357"/>
    <nd ref="422889587"/>
    <nd ref="422889591"/>
    <nd ref="422889557"/>
    <tag k="highway" v="residential"/>
    <tag k="name" v="Blythewood Way"/>
    <tag k="source" v="survey"/>
  </way>
  <way id="36235756" version="4" timestamp="2010-07-09T07:49:30Z" uid="74617" user="JohnSmith" changeset="5171569">
    <nd ref="422889540"/>
    <nd ref="422889601"/>
    <tag k="highway" v="residential"/>
    <tag k="maxspeed" v="50"/>
    <tag k="maxspeed:source" v="default residential speed limit in Australia"/>
    <tag k="name" v="Kingston Close"/>
    <tag k="source" v="survey"/>
  </way>
  <way id="36235756" version="5" timestamp="2012-01-18T23:23:25Z" uid="147510" user="woodpeck_fixbot" changeset="10431441">
    <nd ref="422889540"/>
    <nd ref="422889601"/>
    <tag k="highway" v="residential"/>
    <tag k="name" v="Kingston Close"/>
    <tag k="source" v="survey"/>
  </way>
  <way id="36235759" version="3" timestamp="2010-07-09T07:51:42Z" uid="74617" user="JohnSmith" changeset="5171569">
    <nd ref="422889560"/>
    <nd ref="422889609"/>
    <tag k="highway" v="residential"/>
    <tag k="maxspeed" v="50"/>
    <tag k="maxspeed:source" v="default residential speed limit in Australia"/>
    <tag k="name" v="Belvon Court"/>
    <tag k="source" v="survey"/>
  </way>
  <way id="36235759" version="4" timestamp="2012-01-18T23:23:26Z" uid="147510" user="woodpeck_fixbot" changeset="10431441">
    <nd ref="422889560"/>
    <nd ref="422889609"/>
    <tag k="highway" v="residential"/>
    <tag k="name" v="Belvon Court"/>
    <tag k="source" v="survey"/>
  </way>
  <way id="36235765" version="3" timestamp="2010-07-09T07:48:01Z" uid="74617" user="JohnSmith" changeset="5171569">
    <nd ref="422889537"/>
    <nd ref="422889615"/>
    <tag k="highway" v="residential"/>
    <tag k="maxspeed" v="50"/>
    <tag k="maxspeed:source" v="default residential speed limit in Australia"/>
    <tag k="name" v="Martinup Close"/>
    <tag k="source" v="survey"/>
  </way>
  <way id="36235765" version="4" timestamp="2012-01-18T23:23:26Z" uid="147510" user="woodpeck_fixbot" changeset="10431441">
    <nd ref="422889537"/>
    <nd ref="422889615"/>
    <tag k="highway" v="residential"/>
    <tag k="name" v="Martinup Close"/>
    <tag k="source" v="survey"/>
  </way>
  <way id="36235769" version="5" timestamp="2010-07-09T07:49:44Z" uid="74617" user="JohnSmith" changeset="5171569">
    <nd ref="422889454"/>
    <nd ref="422889628"/>
    <nd ref="597295103"/>
    <nd ref="422889633"/>
    <nd ref="422889636"/>
    <tag k="highway" v="residential"/>
    <tag k="maxspeed" v="50"/>
    <tag k="maxspeed:source" v="default residential speed limit in Australia"/>
    <tag k="name" v="Rainsworth Gardens"/>
    <tag k="source" v="survey"/>
  </way>
  <way id="36235769" version="6" timestamp="2012-01-18T23:23:28Z" uid="147510" user="woodpeck_fixbot" changeset="10431441">
    <nd ref="422889454"/>
    <nd ref="422889628"/>
    <nd ref="597295103"/>
    <nd ref="422889633"/>
    <nd ref="422889636"/>
    <tag k="highway" v="residential"/>
    <tag k="name" v="Rainsworth Gardens"/>
    <tag k="source" v="survey"/>
  </way>
  <way id="36235772" version="3" timestamp="2010-07-09T07:53:28Z" uid="74617" user="JohnSmith" changeset="5171569">
    <nd ref="422889563"/>
    <nd ref="597287371"/>
    <nd ref="597287359"/>
    <nd ref="422889643"/>
    <tag k="highway" v="residential"/>
    <tag k="maxspeed" v="50"/>
    <tag k="maxspeed:source" v="default residential speed limit in Australia"/>
    <tag k="name" v="Fairfield Grove"/>
    <tag k="source" v="survey"/>
  </way>
  <way id="36235772" version="4" timestamp="2012-01-18T23:23:29Z" uid="147510" user="woodpeck_fixbot" changeset="10431441">
    <nd ref="422889563"/>
    <nd ref="597287371"/>
    <nd ref="597287359"/>
    <nd ref="422889643"/>
    <tag k="highway" v="residential"/>
    <tag k="name" v="Fairfield Grove"/>
    <tag k="source" v="survey"/>
  </way>
  <way id="36235777" version="4" timestamp="2010-07-09T07:48:54Z" uid="74617" user="JohnSmith" changeset="5171569">
    <nd ref="422889447"/>
    <nd ref="422889649"/>
    <nd ref="422889652"/>
    <nd ref="422889542"/>
    <nd ref="422889653"/>
    <nd ref="422889374"/>
    <nd ref="422889401"/>
    <tag k="highway" v="residential"/>
    <tag k="maxspeed" v="50"/>
    <tag k="maxspeed:source" v="default residential speed limit in Australia"/>
    <tag k="name" v="Marybrook Road"/>
    <tag k="source" v="survey"/>
  </way>
  <way id="36235777" version="5" timestamp="2012-01-18T23:23:31Z" uid="147510" user="woodpeck_fixbot" changeset="10431441">
    <nd ref="422889447"/>
    <nd ref="422889649"/>
    <nd ref="422889652"/>
    <nd ref="422889542"/>
    <nd ref="422889653"/>
    <nd ref="422889374"/>
    <nd ref="422889401"/>
    <tag k="highway" v="residential"/>
    <tag k="name" v="Marybrook Road"/>
    <tag k="source" v="survey"/>
  </way>
  <way id="36235779" version="4" timestamp="2010-07-09T07:53:19Z" uid="74617" user="JohnSmith" changeset="5171569">
    <nd ref="422889653"/>
    <nd ref="422889654"/>
    <nd ref="422889656"/>
    <nd ref="422889660"/>
    <nd ref="422889663"/>
    <nd ref="597287391"/>
    <nd ref="422889668"/>
    <nd ref="422889673"/>
    <nd ref="422889649"/>
    <tag k="highway" v="residential"/>
    <tag k="maxspeed" v="50"/>
    <tag k="maxspeed:source" v="default residential speed limit in Australia"/>
    <tag k="name" v="Templemore Drive"/>
    <tag k="source" v="survey"/>
  </way>
  <way id="36235779" version="5" timestamp="2012-01-18T23:23:31Z" uid="147510" user="woodpeck_fixbot" changeset="10431441">
    <nd ref="422889653"/>
    <nd ref="422889654"/>
    <nd ref="422889656"/>
    <nd ref="422889660"/>
    <nd ref="422889663"/>
    <nd ref="597287391"/>
    <nd ref="422889668"/>
    <nd ref="422889673"/>
    <nd ref="422889649"/>
    <tag k="highway" v="residential"/>
    <tag k="name" v="Templemore Drive"/>
    <tag k="source" v="survey"/>
  </way>
  <way id="36235780" version="4" timestamp="2010-07-09T07:52:47Z" uid="74617" user="JohnSmith" changeset="5171569">
    <nd ref="422889654"/>
    <nd ref="422889687"/>
    <tag k="highway" v="residential"/>
    <tag k="maxspeed" v="50"/>
    <tag k="maxspeed:source" v="default residential speed limit in Australia"/>
    <tag k="name" v="Norlup Place"/>
    <tag k="source" v="survey"/>
  </way>
  <way id="36235780" version="5" timestamp="2012-01-18T23:23:33Z" uid="147510" user="woodpeck_fixbot" changeset="10431441">
    <nd ref="422889654"/>
    <nd ref="422889687"/>
    <tag k="highway" v="residential"/>
    <tag k="name" v="Norlup Place"/>
    <tag k="source" v="survey"/>
  </way>
  <way id="36235781" version="4" timestamp="2010-07-09T07:50:43Z" uid="74617" user="JohnSmith" changeset="5171569">
    <nd ref="422889656"/>
    <nd ref="422889693"/>
    <nd ref="422889695"/>
    <tag k="highway" v="residential"/>
    <tag k="maxspeed" v="50"/>
    <tag k="maxspeed:source" v="default residential speed limit in Australia"/>
    <tag k="name" v="Deepdene Close"/>
    <tag k="source" v="survey"/>
  </way>
  <way id="36235781" version="5" timestamp="2012-01-18T23:23:34Z" uid="147510" user="woodpeck_fixbot" changeset="10431441">
    <nd ref="422889656"/>
    <nd ref="422889693"/>
    <nd ref="422889695"/>
    <tag k="highway" v="residential"/>
    <tag k="name" v="Deepdene Close"/>
    <tag k="source" v="survey"/>
  </way>
  <way id="36235782" version="4" timestamp="2010-07-09T07:46:20Z" uid="74617" user="JohnSmith" changeset="5171569">
    <nd ref="422889660"/>
    <nd ref="422889702"/>
    <nd ref="422889706"/>
    <tag k="highway" v="residential"/>
    <tag k="maxspeed" v="50"/>
    <tag k="maxspeed:source" v="default residential speed limit in Australia"/>
    <tag k="name" v="Mangowine Close"/>
    <tag k="source" v="survey"/>
  </way>
  <way id="36235782" version="5" timestamp="2012-01-18T23:23:36Z" uid="147510" user="woodpeck_fixbot" changeset="10431441">
    <nd ref="422889660"/>
    <nd ref="422889702"/>
    <nd ref="422889706"/>
    <tag k="highway" v="residential"/>
    <tag k="name" v="Mangowine Close"/>
    <tag k="source" v="survey"/>
  </way>
  <way id="36235783" version="4" timestamp="2010-07-09T07:43:39Z" uid="74617" user="JohnSmith" changeset="5171569">
    <nd ref="422889652"/>
    <nd ref="422889711"/>
    <nd ref="422889714"/>
    <tag k="highway" v="residential"/>
    <tag k="maxspeed" v="50"/>
    <tag k="maxspeed:source" v="default residential speed limit in Australia"/>
    <tag k="name" v="Gallop Close"/>
    <tag k="source" v="survey"/>
  </way>
  <way id="36235783" version="5" timestamp="2012-01-18T23:23:37Z" uid="147510" user="woodpeck_fixbot" changeset="10431441">
    <nd ref="422889652"/>
    <nd ref="422889711"/>
    <nd ref="422889714"/>
    <tag k="highway" v="residential"/>
    <tag k="name" v="Gallop Close"/>
    <tag k="source" v="survey"/>
  </way>
  <way id="36235784" version="4" timestamp="2010-07-09T07:42:52Z" uid="74617" user="JohnSmith" changeset="5171569">
    <nd ref="422889673"/>
    <nd ref="422889721"/>
    <tag k="highway" v="residential"/>
    <tag k="maxspeed" v="50"/>
    <tag k="maxspeed:source" v="default residential speed limit in Australia"/>
    <tag k="name" v="Clayton Close"/>
    <tag k="source" v="survey"/>
  </way>
  <way id="36235784" version="5" timestamp="2012-01-18T23:23:38Z" uid="147510" user="woodpeck_fixbot" changeset="10431441">
    <nd ref="422889673"/>
    <nd ref="422889721"/>
    <tag k="highway" v="residential"/>
    <tag k="name" v="Clayton Close"/>
    <tag k="source" v="survey"/>
  </way>
  <way id="36235789" version="6" timestamp="2010-07-09T07:53:36Z" uid="74617" user="JohnSmith" changeset="5171569">
    <nd ref="422889517"/>
    <nd ref="422889729"/>
    <nd ref="422889732"/>
    <nd ref="597295065"/>
    <nd ref="422889736"/>
    <nd ref="422889739"/>
    <nd ref="422889750"/>
    <nd ref="422889756"/>
    <nd ref="422889761"/>
    <nd ref="422889762"/>
    <nd ref="422889763"/>
    <nd ref="621188147"/>
    <nd ref="422889764"/>
    <nd ref="422889765"/>
    <nd ref="422889766"/>
    <nd ref="422889767"/>
    <nd ref="621188148"/>
    <nd ref="422889768"/>
    <nd ref="422889530"/>
    <tag k="highway" v="residential"/>
    <tag k="maxspeed" v="50"/>
    <tag k="maxspeed:source" v="default residential speed limit in Australia"/>
    <tag k="name" v="Ellendale Drive"/>
    <tag k="source" v="survey"/>
  </way>
  <way id="36235789" version="7" timestamp="2012-01-18T23:23:40Z" uid="147510" user="woodpeck_fixbot" changeset="10431441">
    <nd ref="422889517"/>
    <nd ref="422889729"/>
    <nd ref="422889732"/>
    <nd ref="597295065"/>
    <nd ref="422889736"/>
    <nd ref="422889739"/>
    <nd ref="422889750"/>
    <nd ref="422889756"/>
    <nd ref="422889761"/>
    <nd ref="422889762"/>
    <nd ref="422889763"/>
    <nd ref="621188147"/>
    <nd ref="422889764"/>
    <nd ref="422889765"/>
    <nd ref="422889766"/>
    <nd ref="422889767"/>
    <nd ref="621188148"/>
    <nd ref="422889768"/>
    <nd ref="422889530"/>
    <tag k="highway" v="residential"/>
    <tag k="name" v="Ellendale Drive"/>
    <tag k="source" v="survey"/>
  </way>
  <way id="36235792" version="4" timestamp="2010-07-09T07:43:58Z" uid="74617" user="JohnSmith" changeset="5171569">
    <nd ref="422889739"/>
    <nd ref="422889769"/>
    <nd ref="422889770"/>
    <tag k="highway" v="residential"/>
    <tag k="maxspeed" v="50"/>
    <tag k="maxspeed:source" v="default residential speed limit in Australia"/>
    <tag k="name" v="Kalgan Close"/>
    <tag k="source" v="survey"/>
  </way>
  <way id="36235792" version="5" timestamp="2012-01-18T23:23:42Z" uid="147510" user="woodpeck_fixbot" changeset="10431441">
    <nd ref="422889739"/>
    <nd ref="422889769"/>
    <nd ref="422889770"/>
    <tag k="highway" v="residential"/>
    <tag k="name" v="Kalgan Close"/>
    <tag k="source" v="survey"/>
  </way>
  <way id="36235793" version="4" timestamp="2010-07-09T07:53:01Z" uid="74617" user="JohnSmith" changeset="5171569">
    <nd ref="422889756"/>
    <nd ref="422889771"/>
    <nd ref="422889772"/>
    <tag k="highway" v="residential"/>
    <tag k="maxspeed" v="50"/>
    <tag k="maxspeed:source" v="default residential speed limit in Australia"/>
    <tag k="name" v="Prospect Grove"/>
    <tag k="source" v="survey"/>
  </way>
  <way id="36235793" version="5" timestamp="2012-01-18T23:23:43Z" uid="147510" user="woodpeck_fixbot" changeset="10431441">
    <nd ref="422889756"/>
    <nd ref="422889771"/>
    <nd ref="422889772"/>
    <tag k="highway" v="residential"/>
    <tag k="name" v="Prospect Grove"/>
    <tag k="source" v="survey"/>
  </way>
  <way id="36235796" version="4" timestamp="2010-07-09T07:45:56Z" uid="74617" user="JohnSmith" changeset="5171569">
    <nd ref="422889764"/>
    <nd ref="422889773"/>
    <tag k="highway" v="residential"/>
    <tag k="maxspeed" v="50"/>
    <tag k="maxspeed:source" v="default residential speed limit in Australia"/>
    <tag k="name" v="Crawley Grove"/>
    <tag k="source" v="survey"/>
  </way>
  <way id="36235796" version="5" timestamp="2012-01-18T23:23:44Z" uid="147510" user="woodpeck_fixbot" changeset="10431441">
    <nd ref="422889764"/>
    <nd ref="422889773"/>
    <tag k="highway" v="residential"/>
    <tag k="name" v="Crawley Grove"/>
    <tag k="source" v="survey"/>
  </way>
  <way id="36235798" version="4" timestamp="2010-07-09T07:50:57Z" uid="74617" user="JohnSmith" changeset="5171569">
    <nd ref="422889765"/>
    <nd ref="422889774"/>
    <tag k="highway" v="residential"/>
    <tag k="maxspeed" v="50"/>
    <tag k="maxspeed:source" v="default residential speed limit in Australia"/>
    <tag k="name" v="Henton Place"/>
    <tag k="source" v="survey"/>
  </way>
  <way id="36235798" version="5" timestamp="2012-01-18T23:23:45Z" uid="147510" user="woodpeck_fixbot" changeset="10431441">
    <nd ref="422889765"/>
    <nd ref="422889774"/>
    <tag k="highway" v="residential"/>
    <tag k="name" v="Henton Place"/>
    <tag k="source" v="survey"/>
  </way>
  <way id="36235801" version="4" timestamp="2010-07-09T07:45:14Z" uid="74617" user="JohnSmith" changeset="5171569">
    <nd ref="422889732"/>
    <nd ref="422889775"/>
    <nd ref="422889776"/>
    <tag k="highway" v="residential"/>
    <tag k="maxspeed" v="50"/>
    <tag k="maxspeed:source" v="default residential speed limit in Australia"/>
    <tag k="name" v="Fairlawn Gardens"/>
    <tag k="source" v="survey"/>
  </way>
  <way id="36235801" version="5" timestamp="2012-01-18T23:23:46Z" uid="147510" user="woodpeck_fixbot" changeset="10431441">
    <nd ref="422889732"/>
    <nd ref="422889775"/>
    <nd ref="422889776"/>
    <tag k="highway" v="residential"/>
    <tag k="name" v="Fairlawn Gardens"/>
    <tag k="source" v="survey"/>
  </way>
  <way id="36235805" version="3" timestamp="2010-07-09T07:47:16Z" uid="74617" user="JohnSmith" changeset="5171569">
    <nd ref="422889527"/>
    <nd ref="422889777"/>
    <tag k="highway" v="residential"/>
    <tag k="maxspeed" v="50"/>
    <tag k="maxspeed:source" v="default residential speed limit in Australia"/>
    <tag k="name" v="Culham Gardens"/>
    <tag k="source" v="survey"/>
  </way>
  <way id="36235805" version="4" timestamp="2012-01-18T23:23:47Z" uid="147510" user="woodpeck_fixbot" changeset="10431441">
    <nd ref="422889527"/>
    <nd ref="422889777"/>
    <tag k="highway" v="residential"/>
    <tag k="name" v="Culham Gardens"/>
    <tag k="source" v="survey"/>
  </way>
  <way id="36235809" version="3" timestamp="2010-07-09T07:51:21Z" uid="74617" user="JohnSmith" changeset="5171569">
    <nd ref="422889525"/>
    <nd ref="422889778"/>
    <tag k="highway" v="residential"/>
    <tag k="maxspeed" v="50"/>
    <tag k="maxspeed:source" v="default residential speed limit in Australia"/>
    <tag k="name" v="Day Place"/>
    <tag k="source" v="survey"/>
  </way>
  <way id="36235809" version="4" timestamp="2012-01-18T23:23:48Z" uid="147510" user="woodpeck_fixbot" changeset="10431441">
    <nd ref="422889525"/>
    <nd ref="422889778"/>
    <tag k="highway" v="residential"/>
    <tag k="name" v="Day Place"/>
    <tag k="source" v="survey"/>
  </way>
  <way id="36235814" version="3" timestamp="2010-07-09T07:49:04Z" uid="74617" user="JohnSmith" changeset="5171569">
    <nd ref="422889521"/>
    <nd ref="422889779"/>
    <tag k="highway" v="residential"/>
    <tag k="maxspeed" v="50"/>
    <tag k="maxspeed:source" v="default residential speed limit in Australia"/>
    <tag k="name" v="Bell Court"/>
    <tag k="source" v="survey"/>
  </way>
  <way id="36235814" version="4" timestamp="2012-01-18T23:23:49Z" uid="147510" user="woodpeck_fixbot" changeset="10431441">
    <nd ref="422889521"/>
    <nd ref="422889779"/>
    <tag k="highway" v="residential"/>
    <tag k="name" v="Bell Court"/>
    <tag k="source" v="survey"/>
  </way>
  <way id="36235829" version="5" timestamp="2010-07-09T07:46:04Z" uid="74617" user="JohnSmith" changeset="5171569">
    <nd ref="422889783"/>
    <nd ref="422889784"/>
    <nd ref="422889785"/>
    <nd ref="422889786"/>
    <nd ref="422889787"/>
    <nd ref="422889788"/>
    <nd ref="597295062"/>
    <nd ref="422889789"/>
    <nd ref="422889790"/>
    <nd ref="422889462"/>
    <tag k="highway" v="residential"/>
    <tag k="maxspeed" v="50"/>
    <tag k="maxspeed:source" v="default residential speed limit in Australia"/>
    <tag k="name" v="Trochidae Way"/>
    <tag k="source" v="survey"/>
  </way>
  <way id="36235829" version="6" timestamp="2012-01-18T23:23:51Z" uid="147510" user="woodpeck_fixbot" changeset="10431441">
    <nd ref="422889783"/>
    <nd ref="422889784"/>
    <nd ref="422889785"/>
    <nd ref="422889786"/>
    <nd ref="422889787"/>
    <nd ref="422889788"/>
    <nd ref="597295062"/>
    <nd ref="422889789"/>
    <nd ref="422889790"/>
    <nd ref="422889462"/>
    <tag k="highway" v="residential"/>
    <tag k="name" v="Trochidae Way"/>
    <tag k="source" v="survey"/>
  </way>
  <way id="36235835" version="4" timestamp="2010-07-09T07:52:30Z" uid="74617" user="JohnSmith" changeset="5171569">
    <nd ref="422889782"/>
    <nd ref="422889791"/>
    <nd ref="422889792"/>
    <nd ref="422889793"/>
    <nd ref="422889794"/>
    <tag k="highway" v="residential"/>
    <tag k="maxspeed" v="50"/>
    <tag k="maxspeed:source" v="default residential speed limit in Australia"/>
    <tag k="name" v="Busycon Place"/>
    <tag k="source" v="survey"/>
  </way>
  <way id="36235835" version="5" timestamp="2012-01-18T23:23:53Z" uid="147510" user="woodpeck_fixbot" changeset="10431441">
    <nd ref="422889782"/>
    <nd ref="422889791"/>
    <nd ref="422889792"/>
    <nd ref="422889793"/>
    <nd ref="422889794"/>
    <tag k="highway" v="residential"/>
    <tag k="name" v="Busycon Place"/>
    <tag k="source" v="survey"/>
  </way>
  <way id="36235839" version="4" timestamp="2010-07-09T07:53:55Z" uid="74617" user="JohnSmith" changeset="5171569">
    <nd ref="422889785"/>
    <nd ref="422889795"/>
    <tag k="highway" v="residential"/>
    <tag k="maxspeed" v="50"/>
    <tag k="maxspeed:source" v="default residential speed limit in Australia"/>
    <tag k="name" v="Trochidae Way"/>
    <tag k="source" v="survey"/>
  </way>
  <way id="36235839" version="5" timestamp="2012-01-18T23:23:54Z" uid="147510" user="woodpeck_fixbot" changeset="10431441">
    <nd ref="422889785"/>
    <nd ref="422889795"/>
    <tag k="highway" v="residential"/>
    <tag k="name" v="Trochidae Way"/>
    <tag k="source" v="survey"/>
  </way>
  <way id="36235849" version="5" timestamp="2010-07-09T07:46:00Z" uid="74617" user="JohnSmith" changeset="5171569">
    <nd ref="422889781"/>
    <nd ref="422889796"/>
    <nd ref="422889797"/>
    <nd ref="422889798"/>
    <nd ref="422889799"/>
    <nd ref="597294983"/>
    <nd ref="422889800"/>
    <nd ref="422889801"/>
    <tag k="highway" v="residential"/>
    <tag k="maxspeed" v="50"/>
    <tag k="maxspeed:source" v="default residential speed limit in Australia"/>
    <tag k="name" v="Caprella Street"/>
    <tag k="source" v="survey"/>
  </way>
  <way id="36235849" version="6" timestamp="2012-01-18T23:23:54Z" uid="147510" user="woodpeck_fixbot" changeset="10431441">
    <nd ref="422889781"/>
    <nd ref="422889796"/>
    <nd ref="422889797"/>
    <nd ref="422889798"/>
    <nd ref="422889799"/>
    <nd ref="597294983"/>
    <nd ref="422889800"/>
    <nd ref="422889801"/>
    <tag k="highway" v="residential"/>
    <tag k="name" v="Caprella Street"/>
    <tag k="source" v="survey"/>
  </way>
  <way id="36235857" version="4" timestamp="2010-07-09T07:47:07Z" uid="74617" user="JohnSmith" changeset="5171569">
    <nd ref="422889797"/>
    <nd ref="422889802"/>
    <nd ref="422889803"/>
    <tag k="highway" v="residential"/>
    <tag k="maxspeed" v="50"/>
    <tag k="maxspeed:source" v="default residential speed limit in Australia"/>
    <tag k="name" v="Nandus Court"/>
    <tag k="source" v="survey"/>
  </way>
  <way id="36235857" version="5" timestamp="2012-01-18T23:23:55Z" uid="147510" user="woodpeck_fixbot" changeset="10431441">
    <nd ref="422889797"/>
    <nd ref="422889802"/>
    <nd ref="422889803"/>
    <tag k="highway" v="residential"/>
    <tag k="name" v="Nandus Court"/>
    <tag k="source" v="survey"/>
  </way>
</osm>
