<?xml version='1.0' encoding='UTF-8'?>
<osm version="0.6" generator="libosmium/2.20.0">
  <way id="36313335" version="24" timestamp="2010-04-04T01:11:23Z" uid="20587" user="balrog-kun" changeset="4318136">
    <nd ref="423609550"/>
    <nd ref="423609551"/>
    <nd ref="423621714"/>
    <nd ref="423609552"/>
    <nd ref="557856689"/>
    <nd ref="423609558"/>
    <nd ref="423609561"/>
    <nd ref="423609564"/>
    <nd ref="423623602"/>
    <nd ref="423609565"/>
    <nd ref="423609566"/>
    <nd ref="621089325"/>
    <nd ref="423609569"/>
    <nd ref="423623603"/>
    <nd ref="423609576"/>
    <nd ref="423609577"/>
    <nd ref="423609579"/>
    <nd ref="423609581"/>
    <nd ref="446701932"/>
    <nd ref="423609584"/>
    <nd ref="423609587"/>
    <nd ref="423609590"/>
    <nd ref="519366718"/>
    <nd ref="519375070"/>
    <nd ref="542865901"/>
    <nd ref="423625012"/>
    <nd ref="423625783"/>
    <nd ref="423609598"/>
    <nd ref="423627847"/>
    <nd ref="423609607"/>
    <nd ref="423609611"/>
    <nd ref="423629705"/>
    <nd ref="423609613"/>
    <nd ref="423629736"/>
    <nd ref="572596615"/>
    <nd ref="423629904"/>
    <tag k="highway" v="primary"/>
    <tag k="name" v="Austin Bluffs Parkway"/>
    <tag k="oneway" v="yes"/>
  </way>
  <way id="36313335" version="25" timestamp="2010-08-17T02:31:09Z" uid="131218" user="Chris CA" changeset="5514185">
    <nd ref="429990882"/>
    <nd ref="429989662"/>
    <nd ref="429989761"/>
    <nd ref="429989989"/>
    <nd ref="429989990"/>
    <nd ref="429988218"/>
    <nd ref="420878206"/>
    <nd ref="420888637"/>
    <nd ref="429990307"/>
    <nd ref="423609550"/>
    <nd ref="423609551"/>
    <nd ref="423621714"/>
    <nd ref="423609552"/>
    <nd ref="557856689"/>
    <nd ref="423609558"/>
    <nd ref="423609561"/>
    <nd ref="423609564"/>
    <nd ref="423623602"/>
    <nd ref="423609565"/>
    <nd ref="423609566"/>
    <nd ref="621089325"/>
    <nd ref="423609569"/>
    <nd ref="423623603"/>
    <nd ref="423609576"/>
    <nd ref="423609577"/>
    <nd ref="423609579"/>
    <nd ref="423609581"/>
    <nd ref="446701932"/>
    <nd ref="423609584"/>
    <nd ref="423609587"/>
    <nd ref="423609590"/>
    <nd ref="519366718"/>
    <nd ref="519375070"/>
    <nd ref="542865901"/>
    <nd ref="423625012"/>
    <nd ref="423625783"/>
    <nd ref="423609598"/>
    <nd ref="423627847"/>
    <nd ref="423609607"/>
    <nd ref="423609611"/>
    <nd ref="423629705"/>
    <nd ref="423609613"/>
    <nd ref="423629736"/>
    <nd ref="572596615"/>
    <nd ref="423629904"/>
    <tag k="highway" v="primary"/>
    <tag k="name" v="Austin Bluffs Parkway"/>
    <tag k="oneway" v="yes"/>
    <tag k="tiger:cfcc" v="A41"/>
  </way>
  <way id="36313335" version="26" timestamp="2010-09-12T14:42:47Z" uid="131218" user="Chris CA" changeset="5760033">
    <nd ref="429990882"/>
    <nd ref="429989662"/>
    <nd ref="429989761"/>
    <nd ref="429989989"/>
    <nd ref="429989990"/>
    <nd ref="429988218"/>
    <nd ref="420878206"/>
    <nd ref="420888637"/>
    <nd ref="429990307"/>
    <nd ref="423609550"/>
    <nd ref="423609551"/>
    <nd ref="423621714"/>
    <nd ref="423609552"/>
    <nd ref="557856689"/>
    <nd ref="423609558"/>
    <nd ref="423609561"/>
    <nd ref="423609564"/>
    <nd ref="423623602"/>
    <nd ref="423609565"/>
    <nd ref="423609566"/>
    <nd ref="621089325"/>
    <nd ref="423609569"/>
    <nd ref="423623603"/>
    <nd ref="423609576"/>
    <nd ref="423609577"/>
    <nd ref="423609579"/>
    <nd ref="423609581"/>
    <nd ref="446701932"/>
    <nd ref="423609584"/>
    <nd ref="423609587"/>
    <nd ref="423609590"/>
    <nd ref="519366718"/>
    <nd ref="519375070"/>
    <nd ref="542865901"/>
    <nd ref="423625012"/>
    <nd ref="423625783"/>
    <nd ref="423609598"/>
    <nd ref="423627847"/>
    <nd ref="908479451"/>
    <nd ref="423609607"/>
    <nd ref="423609611"/>
    <nd ref="423629705"/>
    <nd ref="423609613"/>
    <nd ref="423629736"/>
    <nd ref="572596615"/>
    <nd ref="423629904"/>
    <tag k="highway" v="primary"/>
    <tag k="name" v="Austin Bluffs Parkway"/>
    <tag k="oneway" v="yes"/>
    <tag k="tiger:cfcc" v="A41"/>
  </way>
  <way id="36313335" version="27" timestamp="2011-02-21T02:54:45Z" uid="131218" user="Chris CA" changeset="7349889">
    <nd ref="429990882"/>
    <nd ref="429989662"/>
    <nd ref="429989761"/>
    <nd ref="429989989"/>
    <nd ref="429989990"/>
    <nd ref="1164596835"/>
    <nd ref="429988218"/>
    <nd ref="420878206"/>
    <nd ref="420888637"/>
    <nd ref="429990307"/>
    <nd ref="423609550"/>
    <nd ref="423609551"/>
    <nd ref="423621714"/>
    <nd ref="423609552"/>
    <nd ref="557856689"/>
    <nd ref="423609558"/>
    <nd ref="423609561"/>
    <nd ref="423609564"/>
    <nd ref="423623602"/>
    <nd ref="423609565"/>
    <nd ref="423609566"/>
    <nd ref="621089325"/>
    <nd ref="423609569"/>
    <nd ref="423623603"/>
    <nd ref="423609576"/>
    <nd ref="423609577"/>
    <nd ref="423609579"/>
    <nd ref="423609581"/>
    <nd ref="446701932"/>
    <nd ref="423609584"/>
    <nd ref="423609587"/>
    <nd ref="423609590"/>
    <nd ref="519366718"/>
    <nd ref="519375070"/>
    <nd ref="542865901"/>
    <nd ref="423625012"/>
    <nd ref="423625783"/>
    <nd ref="423609598"/>
    <nd ref="423627847"/>
    <nd ref="908479451"/>
    <nd ref="423609607"/>
    <nd ref="423609611"/>
    <nd ref="423629705"/>
    <nd ref="423609613"/>
    <nd ref="423629736"/>
    <nd ref="572596615"/>
    <nd ref="423629904"/>
    <tag k="highway" v="primary"/>
    <tag k="name" v="Austin Bluffs Parkway"/>
    <tag k="oneway" v="yes"/>
    <tag k="tiger:cfcc" v="A41"/>
  </way>
  <way id="36313335" version="28" timestamp="2011-02-21T02:56:50Z" uid="131218" user="Chris CA" changeset="7349977">
    <nd ref="429990882"/>
    <nd ref="429989662"/>
    <nd ref="429989761"/>
    <nd ref="429989989"/>
    <nd ref="429989990"/>
    <nd ref="1164596835"/>
    <nd ref="429988218"/>
    <nd ref="420878206"/>
    <nd ref="420888637"/>
    <nd ref="429990307"/>
    <nd ref="423609550"/>
    <nd ref="423609551"/>
    <nd ref="423621714"/>
    <nd ref="1164596983"/>
    <nd ref="423609552"/>
    <nd ref="557856689"/>
    <nd ref="423609558"/>
    <nd ref="423609561"/>
    <nd ref="423609564"/>
    <nd ref="423623602"/>
    <nd ref="423609565"/>
    <nd ref="423609566"/>
    <nd ref="621089325"/>
    <nd ref="423609569"/>
    <nd ref="423623603"/>
    <nd ref="423609576"/>
    <nd ref="423609577"/>
    <nd ref="423609579"/>
    <nd ref="423609581"/>
    <nd ref="446701932"/>
    <nd ref="423609584"/>
    <nd ref="423609587"/>
    <nd ref="423609590"/>
    <nd ref="519366718"/>
    <nd ref="519375070"/>
    <nd ref="542865901"/>
    <nd ref="423625012"/>
    <nd ref="423625783"/>
    <nd ref="423609598"/>
    <nd ref="423627847"/>
    <nd ref="908479451"/>
    <nd ref="423609607"/>
    <nd ref="423609611"/>
    <nd ref="423629705"/>
    <nd ref="423609613"/>
    <nd ref="423629736"/>
    <nd ref="572596615"/>
    <nd ref="423629904"/>
    <tag k="highway" v="primary"/>
    <tag k="name" v="Austin Bluffs Parkway"/>
    <tag k="oneway" v="yes"/>
    <tag k="tiger:cfcc" v="A41"/>
  </way>
  <way id="36313335" version="29" timestamp="2011-04-20T21:39:37Z" uid="131218" user="Chris CA" changeset="7920653">
    <nd ref="429990882"/>
    <nd ref="429989662"/>
    <nd ref="429989761"/>
    <nd ref="429989989"/>
    <nd ref="429989990"/>
    <nd ref="1164596835"/>
    <nd ref="429988218"/>
    <nd ref="420878206"/>
    <nd ref="420888637"/>
    <nd ref="429990307"/>
    <nd ref="423609550"/>
    <nd ref="423609551"/>
    <nd ref="423621714"/>
    <nd ref="1164596983"/>
    <nd ref="423609552"/>
    <nd ref="557856689"/>
    <nd ref="423609558"/>
    <nd ref="423609561"/>
    <nd ref="423609564"/>
    <nd ref="423623602"/>
    <nd ref="423609565"/>
    <nd ref="423609566"/>
    <nd ref="621089325"/>
    <nd ref="423609569"/>
    <nd ref="423623603"/>
    <nd ref="423609576"/>
    <nd ref="423609577"/>
    <nd ref="423609579"/>
    <nd ref="423609581"/>
    <nd ref="446701932"/>
    <nd ref="423609584"/>
    <nd ref="423609587"/>
    <nd ref="423609590"/>
    <nd ref="519366718"/>
    <nd ref="519375070"/>
    <nd ref="542865901"/>
    <nd ref="423625783"/>
    <nd ref="423609598"/>
    <nd ref="423627847"/>
    <nd ref="1253158040"/>
    <nd ref="908479451"/>
    <nd ref="423609607"/>
    <nd ref="423609611"/>
    <nd ref="423629705"/>
    <nd ref="423609613"/>
    <nd ref="423629736"/>
    <nd ref="572596615"/>
    <nd ref="423629904"/>
    <tag k="highway" v="primary"/>
    <tag k="name" v="Austin Bluffs Parkway"/>
    <tag k="oneway" v="yes"/>
    <tag k="tiger:cfcc" v="A41"/>
  </way>
  <way id="36313335" version="30" timestamp="2011-04-20T22:34:42Z" uid="131218" user="Chris CA" changeset="7920838">
    <nd ref="429990882"/>
    <nd ref="429989662"/>
    <nd ref="429989761"/>
    <nd ref="429989989"/>
    <nd ref="429989990"/>
    <nd ref="1164596835"/>
    <nd ref="429988218"/>
    <nd ref="420878206"/>
    <nd ref="420888637"/>
    <nd ref="429990307"/>
    <nd ref="423609550"/>
    <nd ref="423609551"/>
    <nd ref="423621714"/>
    <nd ref="1164596983"/>
    <nd ref="423609552"/>
    <nd ref="557856689"/>
    <nd ref="423609558"/>
    <nd ref="423609561"/>
    <nd ref="423609564"/>
    <nd ref="423623602"/>
    <nd ref="423609565"/>
    <nd ref="423609566"/>
    <nd ref="621089325"/>
    <nd ref="423609569"/>
    <nd ref="423623603"/>
    <nd ref="423609576"/>
    <nd ref="423609577"/>
    <nd ref="423609579"/>
    <nd ref="423609581"/>
    <nd ref="446701932"/>
    <nd ref="423609584"/>
    <nd ref="423609587"/>
    <nd ref="423609590"/>
    <nd ref="519366718"/>
    <nd ref="1253188974"/>
    <nd ref="519375070"/>
    <nd ref="542865901"/>
    <nd ref="423625783"/>
    <nd ref="423609598"/>
    <nd ref="423627847"/>
    <nd ref="1253158040"/>
    <nd ref="908479451"/>
    <nd ref="423609607"/>
    <nd ref="423609611"/>
    <nd ref="423629705"/>
    <nd ref="423609613"/>
    <nd ref="423629736"/>
    <nd ref="572596615"/>
    <nd ref="423629904"/>
    <tag k="highway" v="primary"/>
    <tag k="name" v="Austin Bluffs Parkway"/>
    <tag k="oneway" v="yes"/>
    <tag k="tiger:cfcc" v="A41"/>
  </way>
  <way id="36313336" version="21" timestamp="2010-04-04T01:11:24Z" uid="20587" user="balrog-kun" changeset="4318136">
    <nd ref="423629904"/>
    <nd ref="572596657"/>
    <nd ref="555859647"/>
    <nd ref="423629927"/>
    <nd ref="423609630"/>
    <nd ref="423609633"/>
    <nd ref="423631083"/>
    <nd ref="423609634"/>
    <nd ref="423627884"/>
    <nd ref="423631168"/>
    <nd ref="423609638"/>
    <nd ref="423609640"/>
    <nd ref="423633092"/>
    <nd ref="519375102"/>
    <nd ref="519375065"/>
    <nd ref="423609643"/>
    <nd ref="423609646"/>
    <nd ref="555861442"/>
    <nd ref="423609648"/>
    <nd ref="555861455"/>
    <nd ref="423609649"/>
    <nd ref="446701928"/>
    <nd ref="423609655"/>
    <nd ref="423609657"/>
    <nd ref="423609660"/>
    <nd ref="423609661"/>
    <nd ref="423609662"/>
    <nd ref="621089323"/>
    <nd ref="423609665"/>
    <nd ref="423609667"/>
    <nd ref="423623601"/>
    <nd ref="423609670"/>
    <nd ref="434952228"/>
    <nd ref="434952271"/>
    <nd ref="423609673"/>
    <nd ref="423609675"/>
    <nd ref="423622497"/>
    <nd ref="423609685"/>
    <nd ref="553327238"/>
    <nd ref="423609686"/>
    <nd ref="423609687"/>
    <nd ref="423609690"/>
    <tag k="highway" v="primary"/>
    <tag k="name" v="Austin Bluffs Parkway"/>
    <tag k="oneway" v="yes"/>
  </way>
  <way id="36313336" version="22" timestamp="2010-08-17T02:31:27Z" uid="131218" user="Chris CA" changeset="5514185"/>
  <way id="36313409" version="2" timestamp="2010-04-03T13:50:02Z" uid="20587" user="balrog-kun" changeset="4312927">
    <nd ref="423610586"/>
    <nd ref="84746171"/>
    <tag k="highway" v="residential"/>
    <tag k="name" v="West 4200 North"/>
    <tag k="name_1" v="West 4200 North Street"/>
    <tag k="tiger:cfcc" v="A41"/>
    <tag k="tiger:county" v="Utah, UT"/>
    <tag k="tiger:name_base" v="4200"/>
    <tag k="tiger:name_base_1" v="4200 North"/>
    <tag k="tiger:name_direction_prefix" v="W"/>
    <tag k="tiger:name_direction_prefix_1" v="W"/>
    <tag k="tiger:name_direction_suffix" v="N"/>
    <tag k="tiger:name_type_1" v="St"/>
    <tag k="tiger:separated" v="no"/>
    <tag k="tiger:source" v="tiger_import_dch_v0.6_20070830"/>
    <tag k="tiger:tlid" v="134207545"/>
    <tag k="tiger:zip_left" v="84604"/>
    <tag k="tiger:zip_right" v="84604"/>
  </way>
  <way id="36313409" version="3" timestamp="2011-04-18T22:42:19Z" uid="30079" user="Ted Percival" changeset="7902173">
    <nd ref="423610586"/>
    <nd ref="1250615291"/>
    <nd ref="84746171"/>
    <tag k="highway" v="residential"/>
    <tag k="name" v="West 4200 North"/>
    <tag k="name_1" v="West 4200 North Street"/>
    <tag k="tiger:cfcc" v="A41"/>
    <tag k="tiger:county" v="Utah, UT"/>
    <tag k="tiger:name_base" v="4200"/>
    <tag k="tiger:name_base_1" v="4200 North"/>
    <tag k="tiger:name_direction_prefix" v="W"/>
    <tag k="tiger:name_direction_prefix_1" v="W"/>
    <tag k="tiger:name_direction_suffix" v="N"/>
    <tag k="tiger:name_type_1" v="St"/>
    <tag k="tiger:separated" v="no"/>
    <tag k="tiger:source" v="tiger_import_dch_v0.6_20070830"/>
    <tag k="tiger:tlid" v="134207545"/>
    <tag k="tiger:zip_left" v="84604"/>
    <tag k="tiger:zip_right" v="84604"/>
  </way>
  <way id="36313620" version="1" timestamp="2009-06-18T00:33:50Z" uid="38528" user="acrosscanadatrails" changeset="1550817">
    <nd ref="423612589"/>
    <nd ref="423612574"/>
    <tag k="addr:city" v="Sidney"/>
    <tag k="addr:city:right" v="Sidney"/>
    <tag k="addr:housenumber" v="0"/>
    <tag k="addr:housenumber:first:left" v="0"/>
    <tag k="addr:housenumber:first:right" v="0"/>
    <tag k="addr:housenumber:last:left" v="0"/>
    <tag k="addr:housenumber:last:right" v="0"/>
    <tag k="addr:province" v="British Columbia"/>
    <tag k="addr:street" v="3rd Street"/>
    <tag k="attribution" v="Natural Resources Canada"/>
    <tag k="canvec:ACQTECH" v="GPS"/>
    <tag k="canvec:ADRANGENID" v="35e29efef50d11dc9cb7000ea65e52d8"/>
    <tag k="canvec:CODE" v="1760011"/>
    <tag k="canvec:CODEPROV" v="British Columbia"/>
    <tag k="canvec:CREDATE" v="199707"/>
    <tag k="canvec:EXITNO" v="nul"/>
    <tag k="canvec:L_ADDDIRFG:3" v="Not applicable"/>
    <tag k="canvec:L_HNUMF" v="0"/>
    <tag k="canvec:L_HNUML" v="0"/>
    <tag k="canvec:L_PLACENAM" v="Sidney"/>
    <tag k="canvec:L_STNAME" v="3rd Street"/>
    <tag k="canvec:NOLANES" v="2"/>
    <tag k="canvec:PAVSTATUS" v="Paved"/>
    <tag k="canvec:PAVSURF" v="rigid"/>
    <tag k="canvec:PROVIDER" v="provincial_territorial"/>
    <tag k="canvec:Planimetric Accuracy (CMAS)" v="10"/>
    <tag k="canvec:REVDATE" v="199707"/>
    <tag k="canvec:ROADCLASS" v="Local/Street"/>
    <tag k="canvec:ROADSEG_UUID" v="158462"/>
    <tag k="canvec:RTENAME1EN" v="-"/>
    <tag k="canvec:RTENAME1FR" v="-"/>
    <tag k="canvec:RTENAME2EN" v="-"/>
    <tag k="canvec:RTENAME2FR" v="-"/>
    <tag k="canvec:RTENAME3EN" v="-"/>
    <tag k="canvec:RTENAME3FR" v="-"/>
    <tag k="canvec:RTENAME4EN" v="-"/>
    <tag k="canvec:RTENAME4FR" v="-"/>
    <tag k="canvec:RTENUMBER1" v="-"/>
    <tag k="canvec:RTENUMBER2" v="-"/>
    <tag k="canvec:RTENUMBER3" v="-"/>
    <tag k="canvec:RTENUMBER4" v="-"/>
    <tag k="canvec:RTENUMBER5" v="-"/>
    <tag k="canvec:R_ADDDIRFG" v="Not applicable"/>
    <tag k="canvec:R_HNUMF" v="0"/>
    <tag k="canvec:R_HNUML" v="0"/>
    <tag k="canvec:R_PLACENAM" v="Sidney"/>
    <tag k="canvec:R_STNAME" v="3rd Street"/>
    <tag k="canvec:SOURCEID" v="e75606e0968211d99c9f000ea65e52d8"/>
    <tag k="canvec:SOURCEID_UUID" v="e75606e0968211d99c9f000ea65e52d8"/>
    <tag k="canvec:STDVER" v="2.0"/>
    <tag k="canvec:STRUCID" v="-"/>
    <tag k="canvec:STRUCTYPE" v="none"/>
    <tag k="canvec:STRUNAMEEN" v="-"/>
    <tag k="canvec:STRUNAMEFR" v="-"/>
    <tag k="canvec:Theme" v="TR Transportation"/>
    <tag k="canvec:UNPAVSURF" v="None"/>
    <tag k="canvec:UUID" v="82f87eb3302a4317912c3ccd58185b8c"/>
    <tag k="canvec:VALDATE" v="199707"/>
    <tag k="canvec:datasetName" v="092B11"/>
    <tag k="canvec:source" v="CanVec_Feature_Catalogue_Edition_1_0_2.pdf"/>
    <tag k="created_by" v="canvec2osm"/>
    <tag k="highway" v="residential"/>
    <tag k="highway:ramp:number" v="-"/>
    <tag k="is_in" v="British Columbia"/>
    <tag k="is_in:left" v="Sidney"/>
    <tag k="lanes" v="2"/>
    <tag k="name" v="0"/>
    <tag k="name:en" v="nul"/>
    <tag k="name:fr" v="-"/>
    <tag k="paved" v="yes"/>
    <tag k="route1:number" v="-"/>
    <tag k="route2:number" v="-"/>
    <tag k="route3:number" v="-"/>
    <tag k="route4:number" v="-"/>
    <tag k="route5:number" v="-"/>
    <tag k="route:name1:fr" v="-"/>
    <tag k="route:name2:fr" v="-"/>
    <tag k="route:name3:fr" v="-"/>
    <tag k="route:name4:fr" v="-"/>
    <tag k="source" v="CanVec_Import_2009"/>
    <tag k="structure:name:en" v="nul"/>
    <tag k="surface" v="paved_concrete"/>
  </way>
  <way id="36313620" version="2" timestamp="2009-07-02T06:13:44Z" uid="38528" user="acrosscanadatrails" changeset="1707171"/>
  <way id="36313621" version="1" timestamp="2009-06-18T00:33:51Z" uid="38528" user="acrosscanadatrails" changeset="1550817">
    <nd ref="423612594"/>
    <nd ref="423612598"/>
    <tag k="addr:city" v="Sidney"/>
    <tag k="addr:city:right" v="Sidney"/>
    <tag k="addr:housenumber" v="0"/>
    <tag k="addr:housenumber:first:left" v="0"/>
    <tag k="addr:housenumber:first:right" v="0"/>
    <tag k="addr:housenumber:last:left" v="0"/>
    <tag k="addr:housenumber:last:right" v="0"/>
    <tag k="addr:province" v="British Columbia"/>
    <tag k="addr:street" v="Henry Avenue"/>
    <tag k="attribution" v="Natural Resources Canada"/>
    <tag k="canvec:ACQTECH" v="GPS"/>
    <tag k="canvec:ADRANGENID" v="5614139cf50d11dc9cb7000ea65e52d8"/>
    <tag k="canvec:CODE" v="1760011"/>
    <tag k="canvec:CODEPROV" v="British Columbia"/>
    <tag k="canvec:CREDATE" v="199707"/>
    <tag k="canvec:EXITNO" v="nul"/>
    <tag k="canvec:L_ADDDIRFG:3" v="Not applicable"/>
    <tag k="canvec:L_HNUMF" v="0"/>
    <tag k="canvec:L_HNUML" v="0"/>
    <tag k="canvec:L_PLACENAM" v="Sidney"/>
    <tag k="canvec:L_STNAME" v="Henry Avenue"/>
    <tag k="canvec:NOLANES" v="2"/>
    <tag k="canvec:PAVSTATUS" v="Paved"/>
    <tag k="canvec:PAVSURF" v="rigid"/>
    <tag k="canvec:PROVIDER" v="provincial_territorial"/>
    <tag k="canvec:Planimetric Accuracy (CMAS)" v="10"/>
    <tag k="canvec:REVDATE" v="199707"/>
    <tag k="canvec:ROADCLASS" v="Local/Street"/>
    <tag k="canvec:ROADSEG_UUID" v="224742"/>
    <tag k="canvec:RTENAME1EN" v="-"/>
    <tag k="canvec:RTENAME1FR" v="-"/>
    <tag k="canvec:RTENAME2EN" v="-"/>
    <tag k="canvec:RTENAME2FR" v="-"/>
    <tag k="canvec:RTENAME3EN" v="-"/>
    <tag k="canvec:RTENAME3FR" v="-"/>
    <tag k="canvec:RTENAME4EN" v="-"/>
    <tag k="canvec:RTENAME4FR" v="-"/>
    <tag k="canvec:RTENUMBER1" v="-"/>
    <tag k="canvec:RTENUMBER2" v="-"/>
    <tag k="canvec:RTENUMBER3" v="-"/>
    <tag k="canvec:RTENUMBER4" v="-"/>
    <tag k="canvec:RTENUMBER5" v="-"/>
    <tag k="canvec:R_ADDDIRFG" v="Not applicable"/>
    <tag k="canvec:R_HNUMF" v="0"/>
    <tag k="canvec:R_HNUML" v="0"/>
    <tag k="canvec:R_PLACENAM" v="Sidney"/>
    <tag k="canvec:R_STNAME" v="Henry Avenue"/>
    <tag k="canvec:SOURCEID" v="74486e8a968311d99c9f000ea65e52d8"/>
    <tag k="canvec:SOURCEID_UUID" v="74486e8a968311d99c9f000ea65e52d8"/>
    <tag k="canvec:STDVER" v="2.0"/>
    <tag k="canvec:STRUCID" v="-"/>
    <tag k="canvec:STRUCTYPE" v="none"/>
    <tag k="canvec:STRUNAMEEN" v="-"/>
    <tag k="canvec:STRUNAMEFR" v="-"/>
    <tag k="canvec:Theme" v="TR Transportation"/>
    <tag k="canvec:UNPAVSURF" v="None"/>
    <tag k="canvec:UUID" v="afc00a1da20d4b488297b40a3112591b"/>
    <tag k="canvec:VALDATE" v="199707"/>
    <tag k="canvec:datasetName" v="092B11"/>
    <tag k="canvec:source" v="CanVec_Feature_Catalogue_Edition_1_0_2.pdf"/>
    <tag k="created_by" v="canvec2osm"/>
    <tag k="highway" v="residential"/>
    <tag k="highway:ramp:number" v="-"/>
    <tag k="is_in" v="British Columbia"/>
    <tag k="is_in:left" v="Sidney"/>
    <tag k="lanes" v="2"/>
    <tag k="name" v="0"/>
    <tag k="name:en" v="nul"/>
    <tag k="name:fr" v="-"/>
    <tag k="paved" v="yes"/>
    <tag k="route1:number" v="-"/>
    <tag k="route2:number" v="-"/>
    <tag k="route3:number" v="-"/>
    <tag k="route4:number" v="-"/>
    <tag k="route5:number" v="-"/>
    <tag k="route:name1:fr" v="-"/>
    <tag k="route:name2:fr" v="-"/>
    <tag k="route:name3:fr" v="-"/>
    <tag k="route:name4:fr" v="-"/>
    <tag k="source" v="CanVec_Import_2009"/>
    <tag k="structure:name:en" v="nul"/>
    <tag k="surface" v="paved_concrete"/>
  </way>
  <way id="36313621" version="2" timestamp="2009-07-02T06:13:44Z" uid="38528" user="acrosscanadatrails" changeset="1707171"/>
  <way id="36313622" version="1" timestamp="2009-06-18T00:33:52Z" uid="38528" user="acrosscanadatrails" changeset="1550817">
    <nd ref="423612614"/>
    <nd ref="423612602"/>
    <tag k="addr:city" v="Sidney"/>
    <tag k="addr:city:right" v="Sidney"/>
    <tag k="addr:housenumber" v="0"/>
    <tag k="addr:housenumber:first:left" v="0"/>
    <tag k="addr:housenumber:first:right" v="0"/>
    <tag k="addr:housenumber:last:left" v="0"/>
    <tag k="addr:housenumber:last:right" v="0"/>
    <tag k="addr:province" v="British Columbia"/>
    <tag k="addr:street" v="Henry Avenue"/>
    <tag k="attribution" v="Natural Resources Canada"/>
    <tag k="canvec:ACQTECH" v="GPS"/>
    <tag k="canvec:ADRANGENID" v="06e1a1c2f50d11dc9cb7000ea65e52d8"/>
    <tag k="canvec:CODE" v="1760011"/>
    <tag k="canvec:CODEPROV" v="British Columbia"/>
    <tag k="canvec:CREDATE" v="199707"/>
    <tag k="canvec:EXITNO" v="nul"/>
    <tag k="canvec:L_ADDDIRFG:3" v="Not applicable"/>
    <tag k="canvec:L_HNUMF" v="0"/>
    <tag k="canvec:L_HNUML" v="0"/>
    <tag k="canvec:L_PLACENAM" v="Sidney"/>
    <tag k="canvec:L_STNAME" v="Henry Avenue"/>
    <tag k="canvec:NOLANES" v="2"/>
    <tag k="canvec:PAVSTATUS" v="Paved"/>
    <tag k="canvec:PAVSURF" v="rigid"/>
    <tag k="canvec:PROVIDER" v="provincial_territorial"/>
    <tag k="canvec:Planimetric Accuracy (CMAS)" v="10"/>
    <tag k="canvec:REVDATE" v="199707"/>
    <tag k="canvec:ROADCLASS" v="Local/Street"/>
    <tag k="canvec:ROADSEG_UUID" v="85567"/>
    <tag k="canvec:RTENAME1EN" v="-"/>
    <tag k="canvec:RTENAME1FR" v="-"/>
    <tag k="canvec:RTENAME2EN" v="-"/>
    <tag k="canvec:RTENAME2FR" v="-"/>
    <tag k="canvec:RTENAME3EN" v="-"/>
    <tag k="canvec:RTENAME3FR" v="-"/>
    <tag k="canvec:RTENAME4EN" v="-"/>
    <tag k="canvec:RTENAME4FR" v="-"/>
    <tag k="canvec:RTENUMBER1" v="-"/>
    <tag k="canvec:RTENUMBER2" v="-"/>
    <tag k="canvec:RTENUMBER3" v="-"/>
    <tag k="canvec:RTENUMBER4" v="-"/>
    <tag k="canvec:RTENUMBER5" v="-"/>
    <tag k="canvec:R_ADDDIRFG" v="Not applicable"/>
    <tag k="canvec:R_HNUMF" v="0"/>
    <tag k="canvec:R_HNUML" v="0"/>
    <tag k="canvec:R_PLACENAM" v="Sidney"/>
    <tag k="canvec:R_STNAME" v="Henry Avenue"/>
    <tag k="canvec:SOURCEID" v="763e42e6968311d99c9f000ea65e52d8"/>
    <tag k="canvec:SOURCEID_UUID" v="763e42e6968311d99c9f000ea65e52d8"/>
    <tag k="canvec:STDVER" v="2.0"/>
    <tag k="canvec:STRUCID" v="-"/>
    <tag k="canvec:STRUCTYPE" v="none"/>
    <tag k="canvec:STRUNAMEEN" v="-"/>
    <tag k="canvec:STRUNAMEFR" v="-"/>
    <tag k="canvec:Theme" v="TR Transportation"/>
    <tag k="canvec:UNPAVSURF" v="None"/>
    <tag k="canvec:UUID" v="f816bfb1f14545d99a55eca620815b0f"/>
    <tag k="canvec:VALDATE" v="199707"/>
    <tag k="canvec:datasetName" v="092B11"/>
    <tag k="canvec:source" v="CanVec_Feature_Catalogue_Edition_1_0_2.pdf"/>
    <tag k="created_by" v="canvec2osm"/>
    <tag k="highway" v="residential"/>
    <tag k="highway:ramp:number" v="-"/>
    <tag k="is_in" v="British Columbia"/>
    <tag k="is_in:left" v="Sidney"/>
    <tag k="lanes" v="2"/>
    <tag k="name" v="0"/>
    <tag k="name:en" v="nul"/>
    <tag k="name:fr" v="-"/>
    <tag k="paved" v="yes"/>
    <tag k="route1:number" v="-"/>
    <tag k="route2:number" v="-"/>
    <tag k="route3:number" v="-"/>
    <tag k="route4:number" v="-"/>
    <tag k="route5:number" v="-"/>
    <tag k="route:name1:fr" v="-"/>
    <tag k="route:name2:fr" v="-"/>
    <tag k="route:name3:fr" v="-"/>
    <tag k="route:name4:fr" v="-"/>
    <tag k="source" v="CanVec_Import_2009"/>
    <tag k="structure:name:en" v="nul"/>
    <tag k="surface" v="paved_concrete"/>
  </way>
  <way id="36313622" version="2" timestamp="2009-06-18T01:14:03Z" uid="38528" user="acrosscanadatrails" changeset="1550923">
    <nd ref="423612614"/>
    <nd ref="423658515"/>
    <nd ref="423612602"/>
    <tag k="addr:city" v="Sidney"/>
    <tag k="addr:city:right" v="Sidney"/>
    <tag k="addr:housenumber" v="0"/>
    <tag k="addr:housenumber:first:left" v="0"/>
    <tag k="addr:housenumber:first:right" v="0"/>
    <tag k="addr:housenumber:last:left" v="0"/>
    <tag k="addr:housenumber:last:right" v="0"/>
    <tag k="addr:province" v="British Columbia"/>
    <tag k="addr:street" v="Henry Avenue"/>
    <tag k="attribution" v="Natural Resources Canada"/>
    <tag k="canvec:ACQTECH" v="GPS"/>
    <tag k="canvec:ADRANGENID" v="06e1a1c2f50d11dc9cb7000ea65e52d8"/>
    <tag k="canvec:CODE" v="1760011"/>
    <tag k="canvec:CODEPROV" v="British Columbia"/>
    <tag k="canvec:CREDATE" v="199707"/>
    <tag k="canvec:EXITNO" v="nul"/>
    <tag k="canvec:L_ADDDIRFG:3" v="Not applicable"/>
    <tag k="canvec:L_HNUMF" v="0"/>
    <tag k="canvec:L_HNUML" v="0"/>
    <tag k="canvec:L_PLACENAM" v="Sidney"/>
    <tag k="canvec:L_STNAME" v="Henry Avenue"/>
    <tag k="canvec:NOLANES" v="2"/>
    <tag k="canvec:PAVSTATUS" v="Paved"/>
    <tag k="canvec:PAVSURF" v="rigid"/>
    <tag k="canvec:PROVIDER" v="provincial_territorial"/>
    <tag k="canvec:Planimetric Accuracy (CMAS)" v="10"/>
    <tag k="canvec:REVDATE" v="199707"/>
    <tag k="canvec:ROADCLASS" v="Local/Street"/>
    <tag k="canvec:ROADSEG_UUID" v="85567"/>
    <tag k="canvec:RTENAME1EN" v="-"/>
    <tag k="canvec:RTENAME1FR" v="-"/>
    <tag k="canvec:RTENAME2EN" v="-"/>
    <tag k="canvec:RTENAME2FR" v="-"/>
    <tag k="canvec:RTENAME3EN" v="-"/>
    <tag k="canvec:RTENAME3FR" v="-"/>
    <tag k="canvec:RTENAME4EN" v="-"/>
    <tag k="canvec:RTENAME4FR" v="-"/>
    <tag k="canvec:RTENUMBER1" v="-"/>
    <tag k="canvec:RTENUMBER2" v="-"/>
    <tag k="canvec:RTENUMBER3" v="-"/>
    <tag k="canvec:RTENUMBER4" v="-"/>
    <tag k="canvec:RTENUMBER5" v="-"/>
    <tag k="canvec:R_ADDDIRFG" v="Not applicable"/>
    <tag k="canvec:R_HNUMF" v="0"/>
    <tag k="canvec:R_HNUML" v="0"/>
    <tag k="canvec:R_PLACENAM" v="Sidney"/>
    <tag k="canvec:R_STNAME" v="Henry Avenue"/>
    <tag k="canvec:SOURCEID" v="763e42e6968311d99c9f000ea65e52d8"/>
    <tag k="canvec:SOURCEID_UUID" v="763e42e6968311d99c9f000ea65e52d8"/>
    <tag k="canvec:STDVER" v="2.0"/>
    <tag k="canvec:STRUCID" v="-"/>
    <tag k="canvec:STRUCTYPE" v="none"/>
    <tag k="canvec:STRUNAMEEN" v="-"/>
    <tag k="canvec:STRUNAMEFR" v="-"/>
    <tag k="canvec:Theme" v="TR Transportation"/>
    <tag k="canvec:UNPAVSURF" v="None"/>
    <tag k="canvec:UUID" v="f816bfb1f14545d99a55eca620815b0f"/>
    <tag k="canvec:VALDATE" v="199707"/>
    <tag k="canvec:datasetName" v="092B11"/>
    <tag k="canvec:source" v="CanVec_Feature_Catalogue_Edition_1_0_2.pdf"/>
    <tag k="created_by" v="canvec2osm"/>
    <tag k="highway" v="residential"/>
    <tag k="highway:ramp:number" v="-"/>
    <tag k="is_in" v="British Columbia"/>
    <tag k="is_in:left" v="Sidney"/>
    <tag k="lanes" v="2"/>
    <tag k="name" v="0"/>
    <tag k="name:en" v="nul"/>
    <tag k="name:fr" v="-"/>
    <tag k="paved" v="yes"/>
    <tag k="route1:number" v="-"/>
    <tag k="route2:number" v="-"/>
    <tag k="route3:number" v="-"/>
    <tag k="route4:number" v="-"/>
    <tag k="route5:number" v="-"/>
    <tag k="route:name1:fr" v="-"/>
    <tag k="route:name2:fr" v="-"/>
    <tag k="route:name3:fr" v="-"/>
    <tag k="route:name4:fr" v="-"/>
    <tag k="source" v="CanVec_Import_2009"/>
    <tag k="structure:name:en" v="nul"/>
    <tag k="surface" v="paved_concrete"/>
  </way>
  <way id="36313622" version="3" timestamp="2009-07-02T06:13:44Z" uid="38528" user="acrosscanadatrails" changeset="1707171"/>
  <way id="36313623" version="1" timestamp="2009-06-18T00:33:52Z" uid="38528" user="acrosscanadatrails" changeset="1550817">
    <nd ref="423612600"/>
    <nd ref="423612577"/>
    <tag k="addr:city" v="Sidney"/>
    <tag k="addr:city:right" v="Sidney"/>
    <tag k="addr:housenumber" v="0"/>
    <tag k="addr:housenumber:first:left" v="0"/>
    <tag k="addr:housenumber:first:right" v="0"/>
    <tag k="addr:housenumber:last:left" v="0"/>
    <tag k="addr:housenumber:last:right" v="0"/>
    <tag k="addr:province" v="British Columbia"/>
    <tag k="addr:street" v="4th Street"/>
    <tag k="attribution" v="Natural Resources Canada"/>
    <tag k="canvec:ACQTECH" v="GPS"/>
    <tag k="canvec:ADRANGENID" v="5622561ef50d11dc9cb7000ea65e52d8"/>
    <tag k="canvec:CODE" v="1760011"/>
    <tag k="canvec:CODEPROV" v="British Columbia"/>
    <tag k="canvec:CREDATE" v="199707"/>
    <tag k="canvec:EXITNO" v="nul"/>
    <tag k="canvec:L_ADDDIRFG:3" v="Not applicable"/>
    <tag k="canvec:L_HNUMF" v="0"/>
    <tag k="canvec:L_HNUML" v="0"/>
    <tag k="canvec:L_PLACENAM" v="Sidney"/>
    <tag k="canvec:L_STNAME" v="4th Street"/>
    <tag k="canvec:NOLANES" v="2"/>
    <tag k="canvec:PAVSTATUS" v="Paved"/>
    <tag k="canvec:PAVSURF" v="rigid"/>
    <tag k="canvec:PROVIDER" v="provincial_territorial"/>
    <tag k="canvec:Planimetric Accuracy (CMAS)" v="10"/>
    <tag k="canvec:REVDATE" v="199707"/>
    <tag k="canvec:ROADCLASS" v="Local/Street"/>
    <tag k="canvec:ROADSEG_UUID" v="40884"/>
    <tag k="canvec:RTENAME1EN" v="-"/>
    <tag k="canvec:RTENAME1FR" v="-"/>
    <tag k="canvec:RTENAME2EN" v="-"/>
    <tag k="canvec:RTENAME2FR" v="-"/>
    <tag k="canvec:RTENAME3EN" v="-"/>
    <tag k="canvec:RTENAME3FR" v="-"/>
    <tag k="canvec:RTENAME4EN" v="-"/>
    <tag k="canvec:RTENAME4FR" v="-"/>
    <tag k="canvec:RTENUMBER1" v="-"/>
    <tag k="canvec:RTENUMBER2" v="-"/>
    <tag k="canvec:RTENUMBER3" v="-"/>
    <tag k="canvec:RTENUMBER4" v="-"/>
    <tag k="canvec:RTENUMBER5" v="-"/>
    <tag k="canvec:R_ADDDIRFG" v="Not applicable"/>
    <tag k="canvec:R_HNUMF" v="0"/>
    <tag k="canvec:R_HNUML" v="0"/>
    <tag k="canvec:R_PLACENAM" v="Sidney"/>
    <tag k="canvec:R_STNAME" v="4th Street"/>
    <tag k="canvec:SOURCEID" v="c9ba7624968311d99c9f000ea65e52d8"/>
    <tag k="canvec:SOURCEID_UUID" v="c9ba7624968311d99c9f000ea65e52d8"/>
    <tag k="canvec:STDVER" v="2.0"/>
    <tag k="canvec:STRUCID" v="-"/>
    <tag k="canvec:STRUCTYPE" v="none"/>
    <tag k="canvec:STRUNAMEEN" v="-"/>
    <tag k="canvec:STRUNAMEFR" v="-"/>
    <tag k="canvec:Theme" v="TR Transportation"/>
    <tag k="canvec:UNPAVSURF" v="None"/>
    <tag k="canvec:UUID" v="86bac418d7064af3896080b0f47a3d87"/>
    <tag k="canvec:VALDATE" v="199707"/>
    <tag k="canvec:datasetName" v="092B11"/>
    <tag k="canvec:source" v="CanVec_Feature_Catalogue_Edition_1_0_2.pdf"/>
    <tag k="created_by" v="canvec2osm"/>
    <tag k="highway" v="residential"/>
    <tag k="highway:ramp:number" v="-"/>
    <tag k="is_in" v="British Columbia"/>
    <tag k="is_in:left" v="Sidney"/>
    <tag k="lanes" v="2"/>
    <tag k="name" v="0"/>
    <tag k="name:en" v="nul"/>
    <tag k="name:fr" v="-"/>
    <tag k="paved" v="yes"/>
    <tag k="route1:number" v="-"/>
    <tag k="route2:number" v="-"/>
    <tag k="route3:number" v="-"/>
    <tag k="route4:number" v="-"/>
    <tag k="route5:number" v="-"/>
    <tag k="route:name1:fr" v="-"/>
    <tag k="route:name2:fr" v="-"/>
    <tag k="route:name3:fr" v="-"/>
    <tag k="route:name4:fr" v="-"/>
    <tag k="source" v="CanVec_Import_2009"/>
    <tag k="structure:name:en" v="nul"/>
    <tag k="surface" v="paved_concrete"/>
  </way>
  <way id="36313623" version="2" timestamp="2009-07-02T06:13:44Z" uid="38528" user="acrosscanadatrails" changeset="1707171"/>
  <way id="36313624" version="1" timestamp="2009-06-18T00:33:53Z" uid="38528" user="acrosscanadatrails" changeset="1550817">
    <nd ref="423612606"/>
    <nd ref="423612586"/>
    <tag k="addr:city" v="Sidney"/>
    <tag k="addr:city:right" v="Sidney"/>
    <tag k="addr:housenumber" v="0"/>
    <tag k="addr:housenumber:first:left" v="0"/>
    <tag k="addr:housenumber:first:right" v="0"/>
    <tag k="addr:housenumber:last:left" v="0"/>
    <tag k="addr:housenumber:last:right" v="0"/>
    <tag k="addr:province" v="British Columbia"/>
    <tag k="addr:street" v="Henry Avenue"/>
    <tag k="attribution" v="Natural Resources Canada"/>
    <tag k="canvec:ACQTECH" v="GPS"/>
    <tag k="canvec:ADRANGENID" v="707f24ecf50d11dc9cb7000ea65e52d8"/>
    <tag k="canvec:CODE" v="1760011"/>
    <tag k="canvec:CODEPROV" v="British Columbia"/>
    <tag k="canvec:CREDATE" v="199707"/>
    <tag k="canvec:EXITNO" v="nul"/>
    <tag k="canvec:L_ADDDIRFG:3" v="Not applicable"/>
    <tag k="canvec:L_HNUMF" v="0"/>
    <tag k="canvec:L_HNUML" v="0"/>
    <tag k="canvec:L_PLACENAM" v="Sidney"/>
    <tag k="canvec:L_STNAME" v="Henry Avenue"/>
    <tag k="canvec:NOLANES" v="2"/>
    <tag k="canvec:PAVSTATUS" v="Paved"/>
    <tag k="canvec:PAVSURF" v="rigid"/>
    <tag k="canvec:PROVIDER" v="provincial_territorial"/>
    <tag k="canvec:Planimetric Accuracy (CMAS)" v="10"/>
    <tag k="canvec:REVDATE" v="199707"/>
    <tag k="canvec:ROADCLASS" v="Local/Street"/>
    <tag k="canvec:ROADSEG_UUID" v="82353"/>
    <tag k="canvec:RTENAME1EN" v="-"/>
    <tag k="canvec:RTENAME1FR" v="-"/>
    <tag k="canvec:RTENAME2EN" v="-"/>
    <tag k="canvec:RTENAME2FR" v="-"/>
    <tag k="canvec:RTENAME3EN" v="-"/>
    <tag k="canvec:RTENAME3FR" v="-"/>
    <tag k="canvec:RTENAME4EN" v="-"/>
    <tag k="canvec:RTENAME4FR" v="-"/>
    <tag k="canvec:RTENUMBER1" v="-"/>
    <tag k="canvec:RTENUMBER2" v="-"/>
    <tag k="canvec:RTENUMBER3" v="-"/>
    <tag k="canvec:RTENUMBER4" v="-"/>
    <tag k="canvec:RTENUMBER5" v="-"/>
    <tag k="canvec:R_ADDDIRFG" v="Not applicable"/>
    <tag k="canvec:R_HNUMF" v="0"/>
    <tag k="canvec:R_HNUML" v="0"/>
    <tag k="canvec:R_PLACENAM" v="Sidney"/>
    <tag k="canvec:R_STNAME" v="Henry Avenue"/>
    <tag k="canvec:SOURCEID" v="c97819be968311d99c9f000ea65e52d8"/>
    <tag k="canvec:SOURCEID_UUID" v="c97819be968311d99c9f000ea65e52d8"/>
    <tag k="canvec:STDVER" v="2.0"/>
    <tag k="canvec:STRUCID" v="-"/>
    <tag k="canvec:STRUCTYPE" v="none"/>
    <tag k="canvec:STRUNAMEEN" v="-"/>
    <tag k="canvec:STRUNAMEFR" v="-"/>
    <tag k="canvec:Theme" v="TR Transportation"/>
    <tag k="canvec:UNPAVSURF" v="None"/>
    <tag k="canvec:UUID" v="11e11b5bdbc8477ebc012484d9c88689"/>
    <tag k="canvec:VALDATE" v="199707"/>
    <tag k="canvec:datasetName" v="092B11"/>
    <tag k="canvec:source" v="CanVec_Feature_Catalogue_Edition_1_0_2.pdf"/>
    <tag k="created_by" v="canvec2osm"/>
    <tag k="highway" v="residential"/>
    <tag k="highway:ramp:number" v="-"/>
    <tag k="is_in" v="British Columbia"/>
    <tag k="is_in:left" v="Sidney"/>
    <tag k="lanes" v="2"/>
    <tag k="name" v="0"/>
    <tag k="name:en" v="nul"/>
    <tag k="name:fr" v="-"/>
    <tag k="paved" v="yes"/>
    <tag k="route1:number" v="-"/>
    <tag k="route2:number" v="-"/>
    <tag k="route3:number" v="-"/>
    <tag k="route4:number" v="-"/>
    <tag k="route5:number" v="-"/>
    <tag k="route:name1:fr" v="-"/>
    <tag k="route:name2:fr" v="-"/>
    <tag k="route:name3:fr" v="-"/>
    <tag k="route:name4:fr" v="-"/>
    <tag k="source" v="CanVec_Import_2009"/>
    <tag k="structure:name:en" v="nul"/>
    <tag k="surface" v="paved_concrete"/>
  </way>
  <way id="36313624" version="2" timestamp="2009-07-02T06:13:44Z" uid="38528" user="acrosscanadatrails" changeset="1707171"/>
  <way id="36313625" version="1" timestamp="2009-06-18T00:33:53Z" uid="38528" user="acrosscanadatrails" changeset="1550817">
    <nd ref="423612582"/>
    <nd ref="423612584"/>
    <tag k="addr:city" v="Sidney"/>
    <tag k="addr:city:right" v="Sidney"/>
    <tag k="addr:housenumber" v="0"/>
    <tag k="addr:housenumber:first:left" v="0"/>
    <tag k="addr:housenumber:first:right" v="0"/>
    <tag k="addr:housenumber:last:left" v="0"/>
    <tag k="addr:housenumber:last:right" v="0"/>
    <tag k="addr:province" v="British Columbia"/>
    <tag k="addr:street" v="Brethour Avenue"/>
    <tag k="attribution" v="Natural Resources Canada"/>
    <tag k="canvec:ACQTECH" v="GPS"/>
    <tag k="canvec:ADRANGENID" v="3473bfdaf50d11dc9cb7000ea65e52d8"/>
    <tag k="canvec:CODE" v="1760011"/>
    <tag k="canvec:CODEPROV" v="British Columbia"/>
    <tag k="canvec:CREDATE" v="199707"/>
    <tag k="canvec:EXITNO" v="nul"/>
    <tag k="canvec:L_ADDDIRFG:3" v="Not applicable"/>
    <tag k="canvec:L_HNUMF" v="0"/>
    <tag k="canvec:L_HNUML" v="0"/>
    <tag k="canvec:L_PLACENAM" v="Sidney"/>
    <tag k="canvec:L_STNAME" v="Brethour Avenue"/>
    <tag k="canvec:NOLANES" v="2"/>
    <tag k="canvec:PAVSTATUS" v="Paved"/>
    <tag k="canvec:PAVSURF" v="rigid"/>
    <tag k="canvec:PROVIDER" v="provincial_territorial"/>
    <tag k="canvec:Planimetric Accuracy (CMAS)" v="10"/>
    <tag k="canvec:REVDATE" v="199707"/>
    <tag k="canvec:ROADCLASS" v="Local/Street"/>
    <tag k="canvec:ROADSEG_UUID" v="58439"/>
    <tag k="canvec:RTENAME1EN" v="-"/>
    <tag k="canvec:RTENAME1FR" v="-"/>
    <tag k="canvec:RTENAME2EN" v="-"/>
    <tag k="canvec:RTENAME2FR" v="-"/>
    <tag k="canvec:RTENAME3EN" v="-"/>
    <tag k="canvec:RTENAME3FR" v="-"/>
    <tag k="canvec:RTENAME4EN" v="-"/>
    <tag k="canvec:RTENAME4FR" v="-"/>
    <tag k="canvec:RTENUMBER1" v="-"/>
    <tag k="canvec:RTENUMBER2" v="-"/>
    <tag k="canvec:RTENUMBER3" v="-"/>
    <tag k="canvec:RTENUMBER4" v="-"/>
    <tag k="canvec:RTENUMBER5" v="-"/>
    <tag k="canvec:R_ADDDIRFG" v="Not applicable"/>
    <tag k="canvec:R_HNUMF" v="0"/>
    <tag k="canvec:R_HNUML" v="0"/>
    <tag k="canvec:R_PLACENAM" v="Sidney"/>
    <tag k="canvec:R_STNAME" v="Brethour Avenue"/>
    <tag k="canvec:SOURCEID" v="76417d3a968311d99c9f000ea65e52d8"/>
    <tag k="canvec:SOURCEID_UUID" v="76417d3a968311d99c9f000ea65e52d8"/>
    <tag k="canvec:STDVER" v="2.0"/>
    <tag k="canvec:STRUCID" v="-"/>
    <tag k="canvec:STRUCTYPE" v="none"/>
    <tag k="canvec:STRUNAMEEN" v="-"/>
    <tag k="canvec:STRUNAMEFR" v="-"/>
    <tag k="canvec:Theme" v="TR Transportation"/>
    <tag k="canvec:UNPAVSURF" v="None"/>
    <tag k="canvec:UUID" v="c3920b2693224d1f93e68c31c13754b5"/>
    <tag k="canvec:VALDATE" v="199707"/>
    <tag k="canvec:datasetName" v="092B11"/>
    <tag k="canvec:source" v="CanVec_Feature_Catalogue_Edition_1_0_2.pdf"/>
    <tag k="created_by" v="canvec2osm"/>
    <tag k="highway" v="residential"/>
    <tag k="highway:ramp:number" v="-"/>
    <tag k="is_in" v="British Columbia"/>
    <tag k="is_in:left" v="Sidney"/>
    <tag k="lanes" v="2"/>
    <tag k="name" v="0"/>
    <tag k="name:en" v="nul"/>
    <tag k="name:fr" v="-"/>
    <tag k="paved" v="yes"/>
    <tag k="route1:number" v="-"/>
    <tag k="route2:number" v="-"/>
    <tag k="route3:number" v="-"/>
    <tag k="route4:number" v="-"/>
    <tag k="route5:number" v="-"/>
    <tag k="route:name1:fr" v="-"/>
    <tag k="route:name2:fr" v="-"/>
    <tag k="route:name3:fr" v="-"/>
    <tag k="route:name4:fr" v="-"/>
    <tag k="source" v="CanVec_Import_2009"/>
    <tag k="structure:name:en" v="nul"/>
    <tag k="surface" v="paved_concrete"/>
  </way>
  <way id="36313625" version="2" timestamp="2009-07-02T06:13:45Z" uid="38528" user="acrosscanadatrails" changeset="1707171"/>
  <way id="36313626" version="1" timestamp="2009-06-18T00:33:54Z" uid="38528" user="acrosscanadatrails" changeset="1550817">
    <nd ref="423612604"/>
    <nd ref="423612580"/>
    <tag k="addr:city" v="Sidney"/>
    <tag k="addr:city:right" v="Sidney"/>
    <tag k="addr:housenumber" v="0"/>
    <tag k="addr:housenumber:first:left" v="0"/>
    <tag k="addr:housenumber:first:right" v="0"/>
    <tag k="addr:housenumber:last:left" v="0"/>
    <tag k="addr:housenumber:last:right" v="0"/>
    <tag k="addr:province" v="British Columbia"/>
    <tag k="addr:street" v="Brethour Avenue"/>
    <tag k="attribution" v="Natural Resources Canada"/>
    <tag k="canvec:ACQTECH" v="GPS"/>
    <tag k="canvec:ADRANGENID" v="e9b141d4f50c11dc9cb7000ea65e52d8"/>
    <tag k="canvec:CODE" v="1760011"/>
    <tag k="canvec:CODEPROV" v="British Columbia"/>
    <tag k="canvec:CREDATE" v="199707"/>
    <tag k="canvec:EXITNO" v="nul"/>
    <tag k="canvec:L_ADDDIRFG:3" v="Not applicable"/>
    <tag k="canvec:L_HNUMF" v="0"/>
    <tag k="canvec:L_HNUML" v="0"/>
    <tag k="canvec:L_PLACENAM" v="Sidney"/>
    <tag k="canvec:L_STNAME" v="Brethour Avenue"/>
    <tag k="canvec:NOLANES" v="2"/>
    <tag k="canvec:PAVSTATUS" v="Paved"/>
    <tag k="canvec:PAVSURF" v="rigid"/>
    <tag k="canvec:PROVIDER" v="provincial_territorial"/>
    <tag k="canvec:Planimetric Accuracy (CMAS)" v="10"/>
    <tag k="canvec:REVDATE" v="199707"/>
    <tag k="canvec:ROADCLASS" v="Local/Street"/>
    <tag k="canvec:ROADSEG_UUID" v="200274"/>
    <tag k="canvec:RTENAME1EN" v="-"/>
    <tag k="canvec:RTENAME1FR" v="-"/>
    <tag k="canvec:RTENAME2EN" v="-"/>
    <tag k="canvec:RTENAME2FR" v="-"/>
    <tag k="canvec:RTENAME3EN" v="-"/>
    <tag k="canvec:RTENAME3FR" v="-"/>
    <tag k="canvec:RTENAME4EN" v="-"/>
    <tag k="canvec:RTENAME4FR" v="-"/>
    <tag k="canvec:RTENUMBER1" v="-"/>
    <tag k="canvec:RTENUMBER2" v="-"/>
    <tag k="canvec:RTENUMBER3" v="-"/>
    <tag k="canvec:RTENUMBER4" v="-"/>
    <tag k="canvec:RTENUMBER5" v="-"/>
    <tag k="canvec:R_ADDDIRFG" v="Not applicable"/>
    <tag k="canvec:R_HNUMF" v="0"/>
    <tag k="canvec:R_HNUML" v="0"/>
    <tag k="canvec:R_PLACENAM" v="Sidney"/>
    <tag k="canvec:R_STNAME" v="Brethour Avenue"/>
    <tag k="canvec:SOURCEID" v="2a119b3e968311d99c9f000ea65e52d8"/>
    <tag k="canvec:SOURCEID_UUID" v="2a119b3e968311d99c9f000ea65e52d8"/>
    <tag k="canvec:STDVER" v="2.0"/>
    <tag k="canvec:STRUCID" v="-"/>
    <tag k="canvec:STRUCTYPE" v="none"/>
    <tag k="canvec:STRUNAMEEN" v="-"/>
    <tag k="canvec:STRUNAMEFR" v="-"/>
    <tag k="canvec:Theme" v="TR Transportation"/>
    <tag k="canvec:UNPAVSURF" v="None"/>
    <tag k="canvec:UUID" v="915cf5da9e4548d28a44833429e9e1f7"/>
    <tag k="canvec:VALDATE" v="199707"/>
    <tag k="canvec:datasetName" v="092B11"/>
    <tag k="canvec:source" v="CanVec_Feature_Catalogue_Edition_1_0_2.pdf"/>
    <tag k="created_by" v="canvec2osm"/>
    <tag k="highway" v="residential"/>
    <tag k="highway:ramp:number" v="-"/>
    <tag k="is_in" v="British Columbia"/>
    <tag k="is_in:left" v="Sidney"/>
    <tag k="lanes" v="2"/>
    <tag k="name" v="0"/>
    <tag k="name:en" v="nul"/>
    <tag k="name:fr" v="-"/>
    <tag k="paved" v="yes"/>
    <tag k="route1:number" v="-"/>
    <tag k="route2:number" v="-"/>
    <tag k="route3:number" v="-"/>
    <tag k="route4:number" v="-"/>
    <tag k="route5:number" v="-"/>
    <tag k="route:name1:fr" v="-"/>
    <tag k="route:name2:fr" v="-"/>
    <tag k="route:name3:fr" v="-"/>
    <tag k="route:name4:fr" v="-"/>
    <tag k="source" v="CanVec_Import_2009"/>
    <tag k="structure:name:en" v="nul"/>
    <tag k="surface" v="paved_concrete"/>
  </way>
  <way id="36313626" version="2" timestamp="2009-07-02T06:13:45Z" uid="38528" user="acrosscanadatrails" changeset="1707171"/>
  <way id="36313627" version="1" timestamp="2009-06-18T00:33:55Z" uid="38528" user="acrosscanadatrails" changeset="1550817">
    <nd ref="423612608"/>
    <nd ref="423612610"/>
    <nd ref="423612596"/>
    <tag k="addr:city" v="Sidney"/>
    <tag k="addr:city:right" v="Sidney"/>
    <tag k="addr:housenumber" v="0"/>
    <tag k="addr:housenumber:first:left" v="0"/>
    <tag k="addr:housenumber:first:right" v="0"/>
    <tag k="addr:housenumber:last:left" v="0"/>
    <tag k="addr:housenumber:last:right" v="0"/>
    <tag k="addr:province" v="British Columbia"/>
    <tag k="addr:street" v="Henry Avenue"/>
    <tag k="attribution" v="Natural Resources Canada"/>
    <tag k="canvec:ACQTECH" v="GPS"/>
    <tag k="canvec:ADRANGENID" v="0a29e060f50d11dc9cb7000ea65e52d8"/>
    <tag k="canvec:CODE" v="1760011"/>
    <tag k="canvec:CODEPROV" v="British Columbia"/>
    <tag k="canvec:CREDATE" v="199707"/>
    <tag k="canvec:EXITNO" v="nul"/>
    <tag k="canvec:L_ADDDIRFG:3" v="Not applicable"/>
    <tag k="canvec:L_HNUMF" v="0"/>
    <tag k="canvec:L_HNUML" v="0"/>
    <tag k="canvec:L_PLACENAM" v="Sidney"/>
    <tag k="canvec:L_STNAME" v="Henry Avenue"/>
    <tag k="canvec:NOLANES" v="2"/>
    <tag k="canvec:PAVSTATUS" v="Paved"/>
    <tag k="canvec:PAVSURF" v="rigid"/>
    <tag k="canvec:PROVIDER" v="provincial_territorial"/>
    <tag k="canvec:Planimetric Accuracy (CMAS)" v="10"/>
    <tag k="canvec:REVDATE" v="199707"/>
    <tag k="canvec:ROADCLASS" v="Local/Street"/>
    <tag k="canvec:ROADSEG_UUID" v="66786"/>
    <tag k="canvec:RTENAME1EN" v="-"/>
    <tag k="canvec:RTENAME1FR" v="-"/>
    <tag k="canvec:RTENAME2EN" v="-"/>
    <tag k="canvec:RTENAME2FR" v="-"/>
    <tag k="canvec:RTENAME3EN" v="-"/>
    <tag k="canvec:RTENAME3FR" v="-"/>
    <tag k="canvec:RTENAME4EN" v="-"/>
    <tag k="canvec:RTENAME4FR" v="-"/>
    <tag k="canvec:RTENUMBER1" v="-"/>
    <tag k="canvec:RTENUMBER2" v="-"/>
    <tag k="canvec:RTENUMBER3" v="-"/>
    <tag k="canvec:RTENUMBER4" v="-"/>
    <tag k="canvec:RTENUMBER5" v="-"/>
    <tag k="canvec:R_ADDDIRFG" v="Not applicable"/>
    <tag k="canvec:R_HNUMF" v="0"/>
    <tag k="canvec:R_HNUML" v="0"/>
    <tag k="canvec:R_PLACENAM" v="Sidney"/>
    <tag k="canvec:R_STNAME" v="Henry Avenue"/>
    <tag k="canvec:SOURCEID" v="f6c227b6968311d99c9f000ea65e52d8"/>
    <tag k="canvec:SOURCEID_UUID" v="f6c227b6968311d99c9f000ea65e52d8"/>
    <tag k="canvec:STDVER" v="2.0"/>
    <tag k="canvec:STRUCID" v="-"/>
    <tag k="canvec:STRUCTYPE" v="none"/>
    <tag k="canvec:STRUNAMEEN" v="-"/>
    <tag k="canvec:STRUNAMEFR" v="-"/>
    <tag k="canvec:Theme" v="TR Transportation"/>
    <tag k="canvec:UNPAVSURF" v="None"/>
    <tag k="canvec:UUID" v="e7cf9586e62748b0ad7c798646f16c1a"/>
    <tag k="canvec:VALDATE" v="199707"/>
    <tag k="canvec:datasetName" v="092B11"/>
    <tag k="canvec:source" v="CanVec_Feature_Catalogue_Edition_1_0_2.pdf"/>
    <tag k="created_by" v="canvec2osm"/>
    <tag k="highway" v="residential"/>
    <tag k="highway:ramp:number" v="-"/>
    <tag k="is_in" v="British Columbia"/>
    <tag k="is_in:left" v="Sidney"/>
    <tag k="lanes" v="2"/>
    <tag k="name" v="0"/>
    <tag k="name:en" v="nul"/>
    <tag k="name:fr" v="-"/>
    <tag k="paved" v="yes"/>
    <tag k="route1:number" v="-"/>
    <tag k="route2:number" v="-"/>
    <tag k="route3:number" v="-"/>
    <tag k="route4:number" v="-"/>
    <tag k="route5:number" v="-"/>
    <tag k="route:name1:fr" v="-"/>
    <tag k="route:name2:fr" v="-"/>
    <tag k="route:name3:fr" v="-"/>
    <tag k="route:name4:fr" v="-"/>
    <tag k="source" v="CanVec_Import_2009"/>
    <tag k="structure:name:en" v="nul"/>
    <tag k="surface" v="paved_concrete"/>
  </way>
  <way id="36313627" version="2" timestamp="2009-07-02T06:13:45Z" uid="38528" user="acrosscanadatrails" changeset="1707171"/>
  <way id="36313628" version="1" timestamp="2009-06-18T00:33:55Z" uid="38528" user="acrosscanadatrails" changeset="1550817">
    <nd ref="423612591"/>
    <nd ref="423612612"/>
    <tag k="addr:city" v="Sidney"/>
    <tag k="addr:city:right" v="Sidney"/>
    <tag k="addr:housenumber" v="0"/>
    <tag k="addr:housenumber:first:left" v="0"/>
    <tag k="addr:housenumber:first:right" v="0"/>
    <tag k="addr:housenumber:last:left" v="0"/>
    <tag k="addr:housenumber:last:right" v="0"/>
    <tag k="addr:province" v="British Columbia"/>
    <tag k="addr:street" v="Mt Baker Avenue"/>
    <tag k="attribution" v="Natural Resources Canada"/>
    <tag k="canvec:ACQTECH" v="GPS"/>
    <tag k="canvec:ADRANGENID" v="3dc8c7e2f50d11dc9cb7000ea65e52d8"/>
    <tag k="canvec:CODE" v="1760011"/>
    <tag k="canvec:CODEPROV" v="British Columbia"/>
    <tag k="canvec:CREDATE" v="199707"/>
    <tag k="canvec:EXITNO" v="nul"/>
    <tag k="canvec:L_ADDDIRFG:3" v="Not applicable"/>
    <tag k="canvec:L_HNUMF" v="0"/>
    <tag k="canvec:L_HNUML" v="0"/>
    <tag k="canvec:L_PLACENAM" v="Sidney"/>
    <tag k="canvec:L_STNAME" v="Mt Baker Avenue"/>
    <tag k="canvec:NOLANES" v="2"/>
    <tag k="canvec:PAVSTATUS" v="Paved"/>
    <tag k="canvec:PAVSURF" v="rigid"/>
    <tag k="canvec:PROVIDER" v="provincial_territorial"/>
    <tag k="canvec:Planimetric Accuracy (CMAS)" v="10"/>
    <tag k="canvec:REVDATE" v="200803"/>
    <tag k="canvec:ROADCLASS" v="Local/Street"/>
    <tag k="canvec:ROADSEG_UUID" v="216499"/>
    <tag k="canvec:RTENAME1EN" v="-"/>
    <tag k="canvec:RTENAME1FR" v="-"/>
    <tag k="canvec:RTENAME2EN" v="-"/>
    <tag k="canvec:RTENAME2FR" v="-"/>
    <tag k="canvec:RTENAME3EN" v="-"/>
    <tag k="canvec:RTENAME3FR" v="-"/>
    <tag k="canvec:RTENAME4EN" v="-"/>
    <tag k="canvec:RTENAME4FR" v="-"/>
    <tag k="canvec:RTENUMBER1" v="-"/>
    <tag k="canvec:RTENUMBER2" v="-"/>
    <tag k="canvec:RTENUMBER3" v="-"/>
    <tag k="canvec:RTENUMBER4" v="-"/>
    <tag k="canvec:RTENUMBER5" v="-"/>
    <tag k="canvec:R_ADDDIRFG" v="Not applicable"/>
    <tag k="canvec:R_HNUMF" v="0"/>
    <tag k="canvec:R_HNUML" v="0"/>
    <tag k="canvec:R_PLACENAM" v="Sidney"/>
    <tag k="canvec:R_STNAME" v="Mt Baker Avenue"/>
    <tag k="canvec:SOURCEID" v="f67fb20a968311d99c9f000ea65e52d8"/>
    <tag k="canvec:SOURCEID_UUID" v="f67fb20a968311d99c9f000ea65e52d8"/>
    <tag k="canvec:STDVER" v="2.0"/>
    <tag k="canvec:STRUCID" v="-"/>
    <tag k="canvec:STRUCTYPE" v="none"/>
    <tag k="canvec:STRUNAMEEN" v="-"/>
    <tag k="canvec:STRUNAMEFR" v="-"/>
    <tag k="canvec:Theme" v="TR Transportation"/>
    <tag k="canvec:UNPAVSURF" v="None"/>
    <tag k="canvec:UUID" v="3fb14f360dcd46e385109a3544e7965f"/>
    <tag k="canvec:VALDATE" v="200803"/>
    <tag k="canvec:datasetName" v="092B11"/>
    <tag k="canvec:source" v="CanVec_Feature_Catalogue_Edition_1_0_2.pdf"/>
    <tag k="created_by" v="canvec2osm"/>
    <tag k="highway" v="residential"/>
    <tag k="highway:ramp:number" v="-"/>
    <tag k="is_in" v="British Columbia"/>
    <tag k="is_in:left" v="Sidney"/>
    <tag k="lanes" v="2"/>
    <tag k="name" v="0"/>
    <tag k="name:en" v="nul"/>
    <tag k="name:fr" v="-"/>
    <tag k="paved" v="yes"/>
    <tag k="route1:number" v="-"/>
    <tag k="route2:number" v="-"/>
    <tag k="route3:number" v="-"/>
    <tag k="route4:number" v="-"/>
    <tag k="route5:number" v="-"/>
    <tag k="route:name1:fr" v="-"/>
    <tag k="route:name2:fr" v="-"/>
    <tag k="route:name3:fr" v="-"/>
    <tag k="route:name4:fr" v="-"/>
    <tag k="source" v="CanVec_Import_2009"/>
    <tag k="structure:name:en" v="nul"/>
    <tag k="surface" v="paved_concrete"/>
  </way>
  <way id="36313628" version="2" timestamp="2009-07-02T06:13:44Z" uid="38528" user="acrosscanadatrails" changeset="1707171"/>
  <way id="36313629" version="1" timestamp="2009-06-18T00:33:56Z" uid="38528" user="acrosscanadatrails" changeset="1550817">
    <nd ref="423612593"/>
    <nd ref="423612578"/>
    <tag k="addr:city" v="Sidney"/>
    <tag k="addr:city:right" v="Sidney"/>
    <tag k="addr:housenumber" v="0"/>
    <tag k="addr:housenumber:first:left" v="0"/>
    <tag k="addr:housenumber:first:right" v="0"/>
    <tag k="addr:housenumber:last:left" v="0"/>
    <tag k="addr:housenumber:last:right" v="0"/>
    <tag k="addr:province" v="British Columbia"/>
    <tag k="addr:street" v="Henry Avenue"/>
    <tag k="attribution" v="Natural Resources Canada"/>
    <tag k="canvec:ACQTECH" v="GPS"/>
    <tag k="canvec:ADRANGENID" v="273b03dcf50d11dc9cb7000ea65e52d8"/>
    <tag k="canvec:CODE" v="1760011"/>
    <tag k="canvec:CODEPROV" v="British Columbia"/>
    <tag k="canvec:CREDATE" v="199707"/>
    <tag k="canvec:EXITNO" v="nul"/>
    <tag k="canvec:L_ADDDIRFG:3" v="Not applicable"/>
    <tag k="canvec:L_HNUMF" v="0"/>
    <tag k="canvec:L_HNUML" v="0"/>
    <tag k="canvec:L_PLACENAM" v="Sidney"/>
    <tag k="canvec:L_STNAME" v="Henry Avenue"/>
    <tag k="canvec:NOLANES" v="2"/>
    <tag k="canvec:PAVSTATUS" v="Paved"/>
    <tag k="canvec:PAVSURF" v="rigid"/>
    <tag k="canvec:PROVIDER" v="provincial_territorial"/>
    <tag k="canvec:Planimetric Accuracy (CMAS)" v="10"/>
    <tag k="canvec:REVDATE" v="199707"/>
    <tag k="canvec:ROADCLASS" v="Local/Street"/>
    <tag k="canvec:ROADSEG_UUID" v="33556"/>
    <tag k="canvec:RTENAME1EN" v="-"/>
    <tag k="canvec:RTENAME1FR" v="-"/>
    <tag k="canvec:RTENAME2EN" v="-"/>
    <tag k="canvec:RTENAME2FR" v="-"/>
    <tag k="canvec:RTENAME3EN" v="-"/>
    <tag k="canvec:RTENAME3FR" v="-"/>
    <tag k="canvec:RTENAME4EN" v="-"/>
    <tag k="canvec:RTENAME4FR" v="-"/>
    <tag k="canvec:RTENUMBER1" v="-"/>
    <tag k="canvec:RTENUMBER2" v="-"/>
    <tag k="canvec:RTENUMBER3" v="-"/>
    <tag k="canvec:RTENUMBER4" v="-"/>
    <tag k="canvec:RTENUMBER5" v="-"/>
    <tag k="canvec:R_ADDDIRFG" v="Not applicable"/>
    <tag k="canvec:R_HNUMF" v="0"/>
    <tag k="canvec:R_HNUML" v="0"/>
    <tag k="canvec:R_PLACENAM" v="Sidney"/>
    <tag k="canvec:R_STNAME" v="Henry Avenue"/>
    <tag k="canvec:SOURCEID" v="75f28752968311d99c9f000ea65e52d8"/>
    <tag k="canvec:SOURCEID_UUID" v="75f28752968311d99c9f000ea65e52d8"/>
    <tag k="canvec:STDVER" v="2.0"/>
    <tag k="canvec:STRUCID" v="-"/>
    <tag k="canvec:STRUCTYPE" v="none"/>
    <tag k="canvec:STRUNAMEEN" v="-"/>
    <tag k="canvec:STRUNAMEFR" v="-"/>
    <tag k="canvec:Theme" v="TR Transportation"/>
    <tag k="canvec:UNPAVSURF" v="None"/>
    <tag k="canvec:UUID" v="806c811a9cd14a09b58c93a1773ebf33"/>
    <tag k="canvec:VALDATE" v="199707"/>
    <tag k="canvec:datasetName" v="092B11"/>
    <tag k="canvec:source" v="CanVec_Feature_Catalogue_Edition_1_0_2.pdf"/>
    <tag k="created_by" v="canvec2osm"/>
    <tag k="highway" v="residential"/>
    <tag k="highway:ramp:number" v="-"/>
    <tag k="is_in" v="British Columbia"/>
    <tag k="is_in:left" v="Sidney"/>
    <tag k="lanes" v="2"/>
    <tag k="name" v="0"/>
    <tag k="name:en" v="nul"/>
    <tag k="name:fr" v="-"/>
    <tag k="paved" v="yes"/>
    <tag k="route1:number" v="-"/>
    <tag k="route2:number" v="-"/>
    <tag k="route3:number" v="-"/>
    <tag k="route4:number" v="-"/>
    <tag k="route5:number" v="-"/>
    <tag k="route:name1:fr" v="-"/>
    <tag k="route:name2:fr" v="-"/>
    <tag k="route:name3:fr" v="-"/>
    <tag k="route:name4:fr" v="-"/>
    <tag k="source" v="CanVec_Import_2009"/>
    <tag k="structure:name:en" v="nul"/>
    <tag k="surface" v="paved_concrete"/>
  </way>
  <way id="36313629" version="2" timestamp="2009-06-18T01:14:04Z" uid="38528" user="acrosscanadatrails" changeset="1550923">
    <nd ref="393138256"/>
    <nd ref="423612593"/>
    <nd ref="423612578"/>
    <tag k="addr:city" v="Sidney"/>
    <tag k="addr:city:right" v="Sidney"/>
    <tag k="addr:housenumber" v="0"/>
    <tag k="addr:housenumber:first:left" v="0"/>
    <tag k="addr:housenumber:first:right" v="0"/>
    <tag k="addr:housenumber:last:left" v="0"/>
    <tag k="addr:housenumber:last:right" v="0"/>
    <tag k="addr:province" v="British Columbia"/>
    <tag k="addr:street" v="Henry Avenue"/>
    <tag k="attribution" v="Natural Resources Canada"/>
    <tag k="canvec:ACQTECH" v="GPS"/>
    <tag k="canvec:ADRANGENID" v="273b03dcf50d11dc9cb7000ea65e52d8"/>
    <tag k="canvec:CODE" v="1760011"/>
    <tag k="canvec:CODEPROV" v="British Columbia"/>
    <tag k="canvec:CREDATE" v="199707"/>
    <tag k="canvec:EXITNO" v="nul"/>
    <tag k="canvec:L_ADDDIRFG:3" v="Not applicable"/>
    <tag k="canvec:L_HNUMF" v="0"/>
    <tag k="canvec:L_HNUML" v="0"/>
    <tag k="canvec:L_PLACENAM" v="Sidney"/>
    <tag k="canvec:L_STNAME" v="Henry Avenue"/>
    <tag k="canvec:NOLANES" v="2"/>
    <tag k="canvec:PAVSTATUS" v="Paved"/>
    <tag k="canvec:PAVSURF" v="rigid"/>
    <tag k="canvec:PROVIDER" v="provincial_territorial"/>
    <tag k="canvec:Planimetric Accuracy (CMAS)" v="10"/>
    <tag k="canvec:REVDATE" v="199707"/>
    <tag k="canvec:ROADCLASS" v="Local/Street"/>
    <tag k="canvec:ROADSEG_UUID" v="33556"/>
    <tag k="canvec:RTENAME1EN" v="-"/>
    <tag k="canvec:RTENAME1FR" v="-"/>
    <tag k="canvec:RTENAME2EN" v="-"/>
    <tag k="canvec:RTENAME2FR" v="-"/>
    <tag k="canvec:RTENAME3EN" v="-"/>
    <tag k="canvec:RTENAME3FR" v="-"/>
    <tag k="canvec:RTENAME4EN" v="-"/>
    <tag k="canvec:RTENAME4FR" v="-"/>
    <tag k="canvec:RTENUMBER1" v="-"/>
    <tag k="canvec:RTENUMBER2" v="-"/>
    <tag k="canvec:RTENUMBER3" v="-"/>
    <tag k="canvec:RTENUMBER4" v="-"/>
    <tag k="canvec:RTENUMBER5" v="-"/>
    <tag k="canvec:R_ADDDIRFG" v="Not applicable"/>
    <tag k="canvec:R_HNUMF" v="0"/>
    <tag k="canvec:R_HNUML" v="0"/>
    <tag k="canvec:R_PLACENAM" v="Sidney"/>
    <tag k="canvec:R_STNAME" v="Henry Avenue"/>
    <tag k="canvec:SOURCEID" v="75f28752968311d99c9f000ea65e52d8"/>
    <tag k="canvec:SOURCEID_UUID" v="75f28752968311d99c9f000ea65e52d8"/>
    <tag k="canvec:STDVER" v="2.0"/>
    <tag k="canvec:STRUCID" v="-"/>
    <tag k="canvec:STRUCTYPE" v="none"/>
    <tag k="canvec:STRUNAMEEN" v="-"/>
    <tag k="canvec:STRUNAMEFR" v="-"/>
    <tag k="canvec:Theme" v="TR Transportation"/>
    <tag k="canvec:UNPAVSURF" v="None"/>
    <tag k="canvec:UUID" v="806c811a9cd14a09b58c93a1773ebf33"/>
    <tag k="canvec:VALDATE" v="199707"/>
    <tag k="canvec:datasetName" v="092B11"/>
    <tag k="canvec:source" v="CanVec_Feature_Catalogue_Edition_1_0_2.pdf"/>
    <tag k="created_by" v="canvec2osm"/>
    <tag k="highway" v="residential"/>
    <tag k="highway:ramp:number" v="-"/>
    <tag k="is_in" v="British Columbia"/>
    <tag k="is_in:left" v="Sidney"/>
    <tag k="lanes" v="2"/>
    <tag k="name" v="0"/>
    <tag k="name:en" v="nul"/>
    <tag k="name:fr" v="-"/>
    <tag k="paved" v="yes"/>
    <tag k="route1:number" v="-"/>
    <tag k="route2:number" v="-"/>
    <tag k="route3:number" v="-"/>
    <tag k="route4:number" v="-"/>
    <tag k="route5:number" v="-"/>
    <tag k="route:name1:fr" v="-"/>
    <tag k="route:name2:fr" v="-"/>
    <tag k="route:name3:fr" v="-"/>
    <tag k="route:name4:fr" v="-"/>
    <tag k="source" v="CanVec_Import_2009"/>
    <tag k="structure:name:en" v="nul"/>
    <tag k="surface" v="paved_concrete"/>
  </way>
  <way id="36313629" version="3" timestamp="2009-07-02T06:13:44Z" uid="38528" user="acrosscanadatrails" changeset="1707171"/>
  <way id="36313630" version="1" timestamp="2009-06-18T00:33:56Z" uid="38528" user="acrosscanadatrails" changeset="1550817">
    <nd ref="423612635"/>
    <nd ref="423612619"/>
    <nd ref="423612618"/>
    <nd ref="423612627"/>
    <nd ref="423612623"/>
    <tag k="addr:city" v="Sidney"/>
    <tag k="addr:city:right" v="Sidney"/>
    <tag k="addr:housenumber" v="0"/>
    <tag k="addr:housenumber:first:left" v="0"/>
    <tag k="addr:housenumber:first:right" v="0"/>
    <tag k="addr:housenumber:last:left" v="0"/>
    <tag k="addr:housenumber:last:right" v="0"/>
    <tag k="addr:province" v="British Columbia"/>
    <tag k="addr:street" v="Beacon Onramp Avenue"/>
    <tag k="attribution" v="Natural Resources Canada"/>
    <tag k="canvec:ACQTECH" v="GPS"/>
    <tag k="canvec:ADRANGENID" v="1294835ef50d11dc9cb7000ea65e52d8"/>
    <tag k="canvec:CODE" v="1760011"/>
    <tag k="canvec:CODEPROV" v="British Columbia"/>
    <tag k="canvec:CREDATE" v="200605"/>
    <tag k="canvec:EXITNO" v="nul"/>
    <tag k="canvec:L_ADDDIRFG:3" v="Not applicable"/>
    <tag k="canvec:L_HNUMF" v="0"/>
    <tag k="canvec:L_HNUML" v="0"/>
    <tag k="canvec:L_PLACENAM" v="Sidney"/>
    <tag k="canvec:L_STNAME" v="Beacon Onramp Avenue"/>
    <tag k="canvec:NOLANES" v="1"/>
    <tag k="canvec:PAVSTATUS" v="Paved"/>
    <tag k="canvec:PAVSURF" v="rigid"/>
    <tag k="canvec:PROVIDER" v="provincial_territorial"/>
    <tag k="canvec:Planimetric Accuracy (CMAS)" v="10"/>
    <tag k="canvec:REVDATE" v="200605"/>
    <tag k="canvec:ROADSEG_UUID" v="781"/>
    <tag k="canvec:RTENAME1EN" v="-"/>
    <tag k="canvec:RTENAME1FR" v="-"/>
    <tag k="canvec:RTENAME2EN" v="-"/>
    <tag k="canvec:RTENAME2FR" v="-"/>
    <tag k="canvec:RTENAME3EN" v="-"/>
    <tag k="canvec:RTENAME3FR" v="-"/>
    <tag k="canvec:RTENAME4EN" v="-"/>
    <tag k="canvec:RTENAME4FR" v="-"/>
    <tag k="canvec:RTENUMBER1" v="-"/>
    <tag k="canvec:RTENUMBER2" v="-"/>
    <tag k="canvec:RTENUMBER3" v="-"/>
    <tag k="canvec:RTENUMBER4" v="-"/>
    <tag k="canvec:RTENUMBER5" v="-"/>
    <tag k="canvec:R_ADDDIRFG" v="Not applicable"/>
    <tag k="canvec:R_HNUMF" v="0"/>
    <tag k="canvec:R_HNUML" v="0"/>
    <tag k="canvec:R_PLACENAM" v="Sidney"/>
    <tag k="canvec:R_STNAME" v="Beacon Onramp Avenue"/>
    <tag k="canvec:SOURCEID" v="7eb72186968311d99c9f000ea65e52d8"/>
    <tag k="canvec:SOURCEID_UUID" v="7eb72186968311d99c9f000ea65e52d8"/>
    <tag k="canvec:STDVER" v="2.0"/>
    <tag k="canvec:STRUCID" v="-"/>
    <tag k="canvec:STRUCTYPE" v="none"/>
    <tag k="canvec:STRUNAMEEN" v="-"/>
    <tag k="canvec:STRUNAMEFR" v="-"/>
    <tag k="canvec:Theme" v="TR Transportation"/>
    <tag k="canvec:UNPAVSURF" v="None"/>
    <tag k="canvec:UUID" v="de5aa5dd0cba41f6b0dafbb4e4fe3643"/>
    <tag k="canvec:VALDATE" v="200605"/>
    <tag k="canvec:datasetName" v="092B11"/>
    <tag k="canvec:source" v="CanVec_Feature_Catalogue_Edition_1_0_2.pdf"/>
    <tag k="created_by" v="canvec2osm"/>
    <tag k="highway" v="ramp"/>
    <tag k="highway:ramp:number" v="-"/>
    <tag k="is_in" v="British Columbia"/>
    <tag k="is_in:left" v="Sidney"/>
    <tag k="lanes" v="1"/>
    <tag k="name" v="0"/>
    <tag k="name:en" v="nul"/>
    <tag k="name:fr" v="-"/>
    <tag k="paved" v="yes"/>
    <tag k="route1:number" v="-"/>
    <tag k="route2:number" v="-"/>
    <tag k="route3:number" v="-"/>
    <tag k="route4:number" v="-"/>
    <tag k="route5:number" v="-"/>
    <tag k="route:name1:fr" v="-"/>
    <tag k="route:name2:fr" v="-"/>
    <tag k="route:name3:fr" v="-"/>
    <tag k="route:name4:fr" v="-"/>
    <tag k="source" v="CanVec_Import_2009"/>
    <tag k="structure:name:en" v="nul"/>
    <tag k="surface" v="paved_concrete"/>
  </way>
  <way id="36313630" version="2" timestamp="2009-06-18T01:10:33Z" uid="38528" user="acrosscanadatrails" changeset="1550914">
    <nd ref="423612635"/>
    <nd ref="423612619"/>
    <nd ref="423654226"/>
    <nd ref="423612618"/>
    <nd ref="423612627"/>
    <nd ref="423612623"/>
    <tag k="addr:city" v="Sidney"/>
    <tag k="addr:city:right" v="Sidney"/>
    <tag k="addr:housenumber" v="0"/>
    <tag k="addr:housenumber:first:left" v="0"/>
    <tag k="addr:housenumber:first:right" v="0"/>
    <tag k="addr:housenumber:last:left" v="0"/>
    <tag k="addr:housenumber:last:right" v="0"/>
    <tag k="addr:province" v="British Columbia"/>
    <tag k="addr:street" v="Beacon Onramp Avenue"/>
    <tag k="attribution" v="Natural Resources Canada"/>
    <tag k="canvec:ACQTECH" v="GPS"/>
    <tag k="canvec:ADRANGENID" v="1294835ef50d11dc9cb7000ea65e52d8"/>
    <tag k="canvec:CODE" v="1760011"/>
    <tag k="canvec:CODEPROV" v="British Columbia"/>
    <tag k="canvec:CREDATE" v="200605"/>
    <tag k="canvec:EXITNO" v="nul"/>
    <tag k="canvec:L_ADDDIRFG:3" v="Not applicable"/>
    <tag k="canvec:L_HNUMF" v="0"/>
    <tag k="canvec:L_HNUML" v="0"/>
    <tag k="canvec:L_PLACENAM" v="Sidney"/>
    <tag k="canvec:L_STNAME" v="Beacon Onramp Avenue"/>
    <tag k="canvec:NOLANES" v="1"/>
    <tag k="canvec:PAVSTATUS" v="Paved"/>
    <tag k="canvec:PAVSURF" v="rigid"/>
    <tag k="canvec:PROVIDER" v="provincial_territorial"/>
    <tag k="canvec:Planimetric Accuracy (CMAS)" v="10"/>
    <tag k="canvec:REVDATE" v="200605"/>
    <tag k="canvec:ROADSEG_UUID" v="781"/>
    <tag k="canvec:RTENAME1EN" v="-"/>
    <tag k="canvec:RTENAME1FR" v="-"/>
    <tag k="canvec:RTENAME2EN" v="-"/>
    <tag k="canvec:RTENAME2FR" v="-"/>
    <tag k="canvec:RTENAME3EN" v="-"/>
    <tag k="canvec:RTENAME3FR" v="-"/>
    <tag k="canvec:RTENAME4EN" v="-"/>
    <tag k="canvec:RTENAME4FR" v="-"/>
    <tag k="canvec:RTENUMBER1" v="-"/>
    <tag k="canvec:RTENUMBER2" v="-"/>
    <tag k="canvec:RTENUMBER3" v="-"/>
    <tag k="canvec:RTENUMBER4" v="-"/>
    <tag k="canvec:RTENUMBER5" v="-"/>
    <tag k="canvec:R_ADDDIRFG" v="Not applicable"/>
    <tag k="canvec:R_HNUMF" v="0"/>
    <tag k="canvec:R_HNUML" v="0"/>
    <tag k="canvec:R_PLACENAM" v="Sidney"/>
    <tag k="canvec:R_STNAME" v="Beacon Onramp Avenue"/>
    <tag k="canvec:SOURCEID" v="7eb72186968311d99c9f000ea65e52d8"/>
    <tag k="canvec:SOURCEID_UUID" v="7eb72186968311d99c9f000ea65e52d8"/>
    <tag k="canvec:STDVER" v="2.0"/>
    <tag k="canvec:STRUCID" v="-"/>
    <tag k="canvec:STRUCTYPE" v="none"/>
    <tag k="canvec:STRUNAMEEN" v="-"/>
    <tag k="canvec:STRUNAMEFR" v="-"/>
    <tag k="canvec:Theme" v="TR Transportation"/>
    <tag k="canvec:UNPAVSURF" v="None"/>
    <tag k="canvec:UUID" v="de5aa5dd0cba41f6b0dafbb4e4fe3643"/>
    <tag k="canvec:VALDATE" v="200605"/>
    <tag k="canvec:datasetName" v="092B11"/>
    <tag k="canvec:source" v="CanVec_Feature_Catalogue_Edition_1_0_2.pdf"/>
    <tag k="created_by" v="canvec2osm"/>
    <tag k="highway" v="ramp"/>
    <tag k="highway:ramp:number" v="-"/>
    <tag k="is_in" v="British Columbia"/>
    <tag k="is_in:left" v="Sidney"/>
    <tag k="lanes" v="1"/>
    <tag k="name" v="0"/>
    <tag k="name:en" v="nul"/>
    <tag k="name:fr" v="-"/>
    <tag k="paved" v="yes"/>
    <tag k="route1:number" v="-"/>
    <tag k="route2:number" v="-"/>
    <tag k="route3:number" v="-"/>
    <tag k="route4:number" v="-"/>
    <tag k="route5:number" v="-"/>
    <tag k="route:name1:fr" v="-"/>
    <tag k="route:name2:fr" v="-"/>
    <tag k="route:name3:fr" v="-"/>
    <tag k="route:name4:fr" v="-"/>
    <tag k="source" v="CanVec_Import_2009"/>
    <tag k="structure:name:en" v="nul"/>
    <tag k="surface" v="paved_concrete"/>
  </way>
  <way id="36313630" version="3" timestamp="2010-02-27T04:51:20Z" uid="143129" user="petersfreeman" changeset="3985626">
    <nd ref="654672812"/>
    <nd ref="423612619"/>
    <nd ref="423654226"/>
    <nd ref="423612618"/>
    <nd ref="423612627"/>
    <nd ref="654672824"/>
    <tag k="addr:city" v="Sidney"/>
    <tag k="addr:city:right" v="Sidney"/>
    <tag k="addr:housenumber" v="0"/>
    <tag k="addr:housenumber:first:left" v="0"/>
    <tag k="addr:housenumber:first:right" v="0"/>
    <tag k="addr:housenumber:last:left" v="0"/>
    <tag k="addr:housenumber:last:right" v="0"/>
    <tag k="addr:province" v="British Columbia"/>
    <tag k="addr:street" v="Beacon Onramp Avenue"/>
    <tag k="attribution" v="Natural Resources Canada"/>
    <tag k="canvec:ACQTECH" v="GPS"/>
    <tag k="canvec:ADRANGENID" v="1294835ef50d11dc9cb7000ea65e52d8"/>
    <tag k="canvec:CODE" v="1760011"/>
    <tag k="canvec:CODEPROV" v="British Columbia"/>
    <tag k="canvec:CREDATE" v="200605"/>
    <tag k="canvec:EXITNO" v="nul"/>
    <tag k="canvec:L_ADDDIRFG:3" v="Not applicable"/>
    <tag k="canvec:L_HNUMF" v="0"/>
    <tag k="canvec:L_HNUML" v="0"/>
    <tag k="canvec:L_PLACENAM" v="Sidney"/>
    <tag k="canvec:L_STNAME" v="Beacon Onramp Avenue"/>
    <tag k="canvec:NOLANES" v="1"/>
    <tag k="canvec:PAVSTATUS" v="Paved"/>
    <tag k="canvec:PAVSURF" v="rigid"/>
    <tag k="canvec:PROVIDER" v="provincial_territorial"/>
    <tag k="canvec:Planimetric Accuracy (CMAS)" v="10"/>
    <tag k="canvec:REVDATE" v="200605"/>
    <tag k="canvec:ROADSEG_UUID" v="781"/>
    <tag k="canvec:RTENAME1EN" v="-"/>
    <tag k="canvec:RTENAME1FR" v="-"/>
    <tag k="canvec:RTENAME2EN" v="-"/>
    <tag k="canvec:RTENAME2FR" v="-"/>
    <tag k="canvec:RTENAME3EN" v="-"/>
    <tag k="canvec:RTENAME3FR" v="-"/>
    <tag k="canvec:RTENAME4EN" v="-"/>
    <tag k="canvec:RTENAME4FR" v="-"/>
    <tag k="canvec:RTENUMBER1" v="-"/>
    <tag k="canvec:RTENUMBER2" v="-"/>
    <tag k="canvec:RTENUMBER3" v="-"/>
    <tag k="canvec:RTENUMBER4" v="-"/>
    <tag k="canvec:RTENUMBER5" v="-"/>
    <tag k="canvec:R_ADDDIRFG" v="Not applicable"/>
    <tag k="canvec:R_HNUMF" v="0"/>
    <tag k="canvec:R_HNUML" v="0"/>
    <tag k="canvec:R_PLACENAM" v="Sidney"/>
    <tag k="canvec:R_STNAME" v="Beacon Onramp Avenue"/>
    <tag k="canvec:SOURCEID" v="7eb72186968311d99c9f000ea65e52d8"/>
    <tag k="canvec:SOURCEID_UUID" v="7eb72186968311d99c9f000ea65e52d8"/>
    <tag k="canvec:STDVER" v="2.0"/>
    <tag k="canvec:STRUCID" v="-"/>
    <tag k="canvec:STRUCTYPE" v="none"/>
    <tag k="canvec:STRUNAMEEN" v="-"/>
    <tag k="canvec:STRUNAMEFR" v="-"/>
    <tag k="canvec:Theme" v="TR Transportation"/>
    <tag k="canvec:UNPAVSURF" v="None"/>
    <tag k="canvec:UUID" v="de5aa5dd0cba41f6b0dafbb4e4fe3643"/>
    <tag k="canvec:VALDATE" v="200605"/>
    <tag k="canvec:datasetName" v="092B11"/>
    <tag k="canvec:source" v="CanVec_Feature_Catalogue_Edition_1_0_2.pdf"/>
    <tag k="highway" v="ramp"/>
    <tag k="highway:ramp:number" v="-"/>
    <tag k="is_in" v="British Columbia"/>
    <tag k="is_in:left" v="Sidney"/>
    <tag k="lanes" v="1"/>
    <tag k="name" v="0"/>
    <tag k="name:en" v="nul"/>
    <tag k="name:fr" v="-"/>
    <tag k="paved" v="yes"/>
    <tag k="route1:number" v="-"/>
    <tag k="route2:number" v="-"/>
    <tag k="route3:number" v="-"/>
    <tag k="route4:number" v="-"/>
    <tag k="route5:number" v="-"/>
    <tag k="route:name1:fr" v="-"/>
    <tag k="route:name2:fr" v="-"/>
    <tag k="route:name3:fr" v="-"/>
    <tag k="route:name4:fr" v="-"/>
    <tag k="source" v="CanVec_Import_2009"/>
    <tag k="structure:name:en" v="nul"/>
    <tag k="surface" v="paved_concrete"/>
  </way>
  <way id="36313630" version="4" timestamp="2010-06-01T06:41:25Z" uid="293149" user="Homsar123" changeset="4872077">
    <nd ref="654672812"/>
    <nd ref="423612619"/>
    <nd ref="423654226"/>
    <nd ref="423612618"/>
    <nd ref="423612627"/>
    <nd ref="654672824"/>
    <tag k="addr:city" v="Sidney"/>
    <tag k="addr:city:right" v="Sidney"/>
    <tag k="addr:housenumber" v="0"/>
    <tag k="addr:housenumber:first:left" v="0"/>
    <tag k="addr:housenumber:first:right" v="0"/>
    <tag k="addr:housenumber:last:left" v="0"/>
    <tag k="addr:housenumber:last:right" v="0"/>
    <tag k="addr:province" v="British Columbia"/>
    <tag k="addr:street" v="Beacon Onramp Avenue"/>
    <tag k="attribution" v="Natural Resources Canada"/>
    <tag k="canvec:ACQTECH" v="GPS"/>
    <tag k="canvec:ADRANGENID" v="1294835ef50d11dc9cb7000ea65e52d8"/>
    <tag k="canvec:CODE" v="1760011"/>
    <tag k="canvec:CODEPROV" v="British Columbia"/>
    <tag k="canvec:CREDATE" v="200605"/>
    <tag k="canvec:EXITNO" v="nul"/>
    <tag k="canvec:L_ADDDIRFG:3" v="Not applicable"/>
    <tag k="canvec:L_HNUMF" v="0"/>
    <tag k="canvec:L_HNUML" v="0"/>
    <tag k="canvec:L_PLACENAM" v="Sidney"/>
    <tag k="canvec:L_STNAME" v="Beacon Onramp Avenue"/>
    <tag k="canvec:NOLANES" v="1"/>
    <tag k="canvec:PAVSTATUS" v="Paved"/>
    <tag k="canvec:PAVSURF" v="rigid"/>
    <tag k="canvec:PROVIDER" v="provincial_territorial"/>
    <tag k="canvec:Planimetric Accuracy (CMAS)" v="10"/>
    <tag k="canvec:REVDATE" v="200605"/>
    <tag k="canvec:ROADSEG_UUID" v="781"/>
    <tag k="canvec:RTENAME1EN" v="-"/>
    <tag k="canvec:RTENAME1FR" v="-"/>
    <tag k="canvec:RTENAME2EN" v="-"/>
    <tag k="canvec:RTENAME2FR" v="-"/>
    <tag k="canvec:RTENAME3EN" v="-"/>
    <tag k="canvec:RTENAME3FR" v="-"/>
    <tag k="canvec:RTENAME4EN" v="-"/>
    <tag k="canvec:RTENAME4FR" v="-"/>
    <tag k="canvec:RTENUMBER1" v="-"/>
    <tag k="canvec:RTENUMBER2" v="-"/>
    <tag k="canvec:RTENUMBER3" v="-"/>
    <tag k="canvec:RTENUMBER4" v="-"/>
    <tag k="canvec:RTENUMBER5" v="-"/>
    <tag k="canvec:R_ADDDIRFG" v="Not applicable"/>
    <tag k="canvec:R_HNUMF" v="0"/>
    <tag k="canvec:R_HNUML" v="0"/>
    <tag k="canvec:R_PLACENAM" v="Sidney"/>
    <tag k="canvec:R_STNAME" v="Beacon Onramp Avenue"/>
    <tag k="canvec:SOURCEID" v="7eb72186968311d99c9f000ea65e52d8"/>
    <tag k="canvec:SOURCEID_UUID" v="7eb72186968311d99c9f000ea65e52d8"/>
    <tag k="canvec:STDVER" v="2.0"/>
    <tag k="canvec:STRUCID" v="-"/>
    <tag k="canvec:STRUCTYPE" v="none"/>
    <tag k="canvec:STRUNAMEEN" v="-"/>
    <tag k="canvec:STRUNAMEFR" v="-"/>
    <tag k="canvec:Theme" v="TR Transportation"/>
    <tag k="canvec:UNPAVSURF" v="None"/>
    <tag k="canvec:UUID" v="de5aa5dd0cba41f6b0dafbb4e4fe3643"/>
    <tag k="canvec:VALDATE" v="200605"/>
    <tag k="canvec:datasetName" v="092B11"/>
    <tag k="canvec:source" v="CanVec_Feature_Catalogue_Edition_1_0_2.pdf"/>
    <tag k="highway" v="trunk_link"/>
    <tag k="highway:ramp:number" v="-"/>
    <tag k="is_in" v="British Columbia"/>
    <tag k="is_in:left" v="Sidney"/>
    <tag k="lanes" v="1"/>
    <tag k="name" v="0"/>
    <tag k="name:en" v="nul"/>
    <tag k="name:fr" v="-"/>
    <tag k="oneway" v="yes"/>
    <tag k="paved" v="yes"/>
    <tag k="route1:number" v="-"/>
    <tag k="route2:number" v="-"/>
    <tag k="route3:number" v="-"/>
    <tag k="route4:number" v="-"/>
    <tag k="route5:number" v="-"/>
    <tag k="route:name1:fr" v="-"/>
    <tag k="route:name2:fr" v="-"/>
    <tag k="route:name3:fr" v="-"/>
    <tag k="route:name4:fr" v="-"/>
    <tag k="source" v="CanVec_Import_2009"/>
    <tag k="structure:name:en" v="nul"/>
    <tag k="surface" v="paved_concrete"/>
  </way>
  <way id="36313630" version="5" timestamp="2010-08-15T12:57:43Z" uid="103253" user="gormur" changeset="5499342">
    <nd ref="654672812"/>
    <nd ref="423612619"/>
    <nd ref="423654226"/>
    <nd ref="423612618"/>
    <nd ref="423612627"/>
    <nd ref="654672824"/>
    <tag k="addr:city" v="Sidney"/>
    <tag k="addr:city:right" v="Sidney"/>
    <tag k="addr:housenumber" v="0"/>
    <tag k="addr:housenumber:first:left" v="0"/>
    <tag k="addr:housenumber:first:right" v="0"/>
    <tag k="addr:housenumber:last:left" v="0"/>
    <tag k="addr:housenumber:last:right" v="0"/>
    <tag k="addr:province" v="British Columbia"/>
    <tag k="addr:street" v="Beacon Onramp Avenue"/>
    <tag k="attribution" v="Natural Resources Canada"/>
    <tag k="canvec:ACQTECH" v="GPS"/>
    <tag k="canvec:ADRANGENID" v="1294835ef50d11dc9cb7000ea65e52d8"/>
    <tag k="canvec:CODE" v="1760011"/>
    <tag k="canvec:CODEPROV" v="British Columbia"/>
    <tag k="canvec:CREDATE" v="200605"/>
    <tag k="canvec:EXITNO" v="nul"/>
    <tag k="canvec:L_ADDDIRFG:3" v="Not applicable"/>
    <tag k="canvec:L_HNUMF" v="0"/>
    <tag k="canvec:L_HNUML" v="0"/>
    <tag k="canvec:L_PLACENAM" v="Sidney"/>
    <tag k="canvec:L_STNAME" v="Beacon Onramp Avenue"/>
    <tag k="canvec:NOLANES" v="1"/>
    <tag k="canvec:PAVSTATUS" v="Paved"/>
    <tag k="canvec:PAVSURF" v="rigid"/>
    <tag k="canvec:PROVIDER" v="provincial_territorial"/>
    <tag k="canvec:Planimetric Accuracy (CMAS)" v="10"/>
    <tag k="canvec:REVDATE" v="200605"/>
    <tag k="canvec:ROADSEG_UUID" v="781"/>
    <tag k="canvec:RTENAME1EN" v="-"/>
    <tag k="canvec:RTENAME1FR" v="-"/>
    <tag k="canvec:RTENAME2EN" v="-"/>
    <tag k="canvec:RTENAME2FR" v="-"/>
    <tag k="canvec:RTENAME3EN" v="-"/>
    <tag k="canvec:RTENAME3FR" v="-"/>
    <tag k="canvec:RTENAME4EN" v="-"/>
    <tag k="canvec:RTENAME4FR" v="-"/>
    <tag k="canvec:RTENUMBER1" v="-"/>
    <tag k="canvec:RTENUMBER2" v="-"/>
    <tag k="canvec:RTENUMBER3" v="-"/>
    <tag k="canvec:RTENUMBER4" v="-"/>
    <tag k="canvec:RTENUMBER5" v="-"/>
    <tag k="canvec:R_ADDDIRFG" v="Not applicable"/>
    <tag k="canvec:R_HNUMF" v="0"/>
    <tag k="canvec:R_HNUML" v="0"/>
    <tag k="canvec:R_PLACENAM" v="Sidney"/>
    <tag k="canvec:R_STNAME" v="Beacon Onramp Avenue"/>
    <tag k="canvec:SOURCEID" v="7eb72186968311d99c9f000ea65e52d8"/>
    <tag k="canvec:SOURCEID_UUID" v="7eb72186968311d99c9f000ea65e52d8"/>
    <tag k="canvec:STDVER" v="2.0"/>
    <tag k="canvec:STRUCID" v="-"/>
    <tag k="canvec:STRUCTYPE" v="none"/>
    <tag k="canvec:STRUNAMEEN" v="-"/>
    <tag k="canvec:STRUNAMEFR" v="-"/>
    <tag k="canvec:Theme" v="TR Transportation"/>
    <tag k="canvec:UNPAVSURF" v="None"/>
    <tag k="canvec:UUID" v="de5aa5dd0cba41f6b0dafbb4e4fe3643"/>
    <tag k="canvec:VALDATE" v="200605"/>
    <tag k="canvec:datasetName" v="092B11"/>
    <tag k="canvec:source" v="CanVec_Feature_Catalogue_Edition_1_0_2.pdf"/>
    <tag k="highway" v="trunk_link"/>
    <tag k="highway:ramp:number" v="-"/>
    <tag k="is_in" v="British Columbia"/>
    <tag k="is_in:left" v="Sidney"/>
    <tag k="lanes" v="1"/>
    <tag k="name" v="0"/>
    <tag k="name:en" v="nul"/>
    <tag k="name:fr" v="-"/>
    <tag k="oneway" v="yes"/>
    <tag k="route1:number" v="-"/>
    <tag k="route2:number" v="-"/>
    <tag k="route3:number" v="-"/>
    <tag k="route4:number" v="-"/>
    <tag k="route5:number" v="-"/>
    <tag k="route:name1:fr" v="-"/>
    <tag k="route:name2:fr" v="-"/>
    <tag k="route:name3:fr" v="-"/>
    <tag k="route:name4:fr" v="-"/>
    <tag k="source" v="CanVec_Import_2009"/>
    <tag k="structure:name:en" v="nul"/>
    <tag k="surface" v="paved_concrete"/>
  </way>
  <way id="36313630" version="6" timestamp="2011-09-26T16:06:43Z" uid="307202" user="alester" changeset="9403224">
    <nd ref="654672812"/>
    <nd ref="423612619"/>
    <nd ref="423654226"/>
    <nd ref="423612618"/>
    <nd ref="423612627"/>
    <nd ref="654672824"/>
    <tag k="addr:city" v="Sidney"/>
    <tag k="addr:city:right" v="Sidney"/>
    <tag k="addr:housenumber" v="0"/>
    <tag k="addr:housenumber:first:left" v="0"/>
    <tag k="addr:housenumber:first:right" v="0"/>
    <tag k="addr:housenumber:last:left" v="0"/>
    <tag k="addr:housenumber:last:right" v="0"/>
    <tag k="addr:province" v="British Columbia"/>
    <tag k="addr:street" v="Beacon Onramp Avenue"/>
    <tag k="attribution" v="Natural Resources Canada"/>
    <tag k="canvec:ACQTECH" v="GPS"/>
    <tag k="canvec:ADRANGENID" v="1294835ef50d11dc9cb7000ea65e52d8"/>
    <tag k="canvec:CODE" v="1760011"/>
    <tag k="canvec:CODEPROV" v="British Columbia"/>
    <tag k="canvec:CREDATE" v="200605"/>
    <tag k="canvec:EXITNO" v="nul"/>
    <tag k="canvec:L_ADDDIRFG:3" v="Not applicable"/>
    <tag k="canvec:L_HNUMF" v="0"/>
    <tag k="canvec:L_HNUML" v="0"/>
    <tag k="canvec:L_PLACENAM" v="Sidney"/>
    <tag k="canvec:L_STNAME" v="Beacon Onramp Avenue"/>
    <tag k="canvec:NOLANES" v="1"/>
    <tag k="canvec:PAVSTATUS" v="Paved"/>
    <tag k="canvec:PAVSURF" v="rigid"/>
    <tag k="canvec:PROVIDER" v="provincial_territorial"/>
    <tag k="canvec:REVDATE" v="200605"/>
    <tag k="canvec:ROADSEG_UUID" v="781"/>
    <tag k="canvec:RTENAME1EN" v="-"/>
    <tag k="canvec:RTENAME1FR" v="-"/>
    <tag k="canvec:RTENAME2EN" v="-"/>
    <tag k="canvec:RTENAME2FR" v="-"/>
    <tag k="canvec:RTENAME3EN" v="-"/>
    <tag k="canvec:RTENAME3FR" v="-"/>
    <tag k="canvec:RTENAME4EN" v="-"/>
    <tag k="canvec:RTENAME4FR" v="-"/>
    <tag k="canvec:RTENUMBER1" v="-"/>
    <tag k="canvec:RTENUMBER2" v="-"/>
    <tag k="canvec:RTENUMBER3" v="-"/>
    <tag k="canvec:RTENUMBER4" v="-"/>
    <tag k="canvec:RTENUMBER5" v="-"/>
    <tag k="canvec:R_ADDDIRFG" v="Not applicable"/>
    <tag k="canvec:R_HNUMF" v="0"/>
    <tag k="canvec:R_HNUML" v="0"/>
    <tag k="canvec:R_PLACENAM" v="Sidney"/>
    <tag k="canvec:R_STNAME" v="Beacon Onramp Avenue"/>
    <tag k="canvec:SOURCEID" v="7eb72186968311d99c9f000ea65e52d8"/>
    <tag k="canvec:SOURCEID_UUID" v="7eb72186968311d99c9f000ea65e52d8"/>
    <tag k="canvec:STDVER" v="2.0"/>
    <tag k="canvec:STRUCID" v="-"/>
    <tag k="canvec:STRUCTYPE" v="none"/>
    <tag k="canvec:STRUNAMEEN" v="-"/>
    <tag k="canvec:STRUNAMEFR" v="-"/>
    <tag k="canvec:Theme" v="TR Transportation"/>
    <tag k="canvec:UNPAVSURF" v="None"/>
    <tag k="canvec:UUID" v="de5aa5dd0cba41f6b0dafbb4e4fe3643"/>
    <tag k="canvec:VALDATE" v="200605"/>
    <tag k="canvec:datasetName" v="092B11"/>
    <tag k="canvec:source" v="CanVec_Feature_Catalogue_Edition_1_0_2.pdf"/>
    <tag k="highway" v="motorway_link"/>
    <tag k="highway:ramp:number" v="-"/>
    <tag k="is_in" v="British Columbia"/>
    <tag k="is_in:left" v="Sidney"/>
    <tag k="lanes" v="1"/>
    <tag k="oneway" v="yes"/>
    <tag k="route1:number" v="-"/>
    <tag k="route2:number" v="-"/>
    <tag k="route3:number" v="-"/>
    <tag k="route4:number" v="-"/>
    <tag k="route5:number" v="-"/>
    <tag k="route:name1:fr" v="-"/>
    <tag k="route:name2:fr" v="-"/>
    <tag k="route:name3:fr" v="-"/>
    <tag k="route:name4:fr" v="-"/>
    <tag k="source" v="CanVec_Import_2009"/>
    <tag k="structure:name:en" v="nul"/>
    <tag k="surface" v="paved_concrete"/>
  </way>
  <way id="36313630" version="7" timestamp="2012-03-01T22:16:43Z" uid="147510" user="woodpeck_fixbot" changeset="10842511"/>
  <way id="36313630" version="8" timestamp="2012-03-12T22:26:13Z" uid="147510" user="woodpeck_fixbot" changeset="10960757">
    <nd ref="654672812"/>
    <nd ref="423612619"/>
    <nd ref="423654226"/>
    <nd ref="423612618"/>
    <nd ref="423612627"/>
    <nd ref="654672824"/>
    <tag k="addr:city" v="Sidney"/>
    <tag k="addr:city:right" v="Sidney"/>
    <tag k="addr:housenumber" v="0"/>
    <tag k="addr:housenumber:first:left" v="0"/>
    <tag k="addr:housenumber:first:right" v="0"/>
    <tag k="addr:housenumber:last:left" v="0"/>
    <tag k="addr:housenumber:last:right" v="0"/>
    <tag k="addr:province" v="British Columbia"/>
    <tag k="addr:street" v="Beacon Onramp Avenue"/>
    <tag k="attribution" v="Natural Resources Canada"/>
    <tag k="canvec:ACQTECH" v="GPS"/>
    <tag k="canvec:ADRANGENID" v="1294835ef50d11dc9cb7000ea65e52d8"/>
    <tag k="canvec:CODE" v="1760011"/>
    <tag k="canvec:CODEPROV" v="British Columbia"/>
    <tag k="canvec:CREDATE" v="200605"/>
    <tag k="canvec:EXITNO" v="nul"/>
    <tag k="canvec:L_ADDDIRFG:3" v="Not applicable"/>
    <tag k="canvec:L_HNUMF" v="0"/>
    <tag k="canvec:L_HNUML" v="0"/>
    <tag k="canvec:L_PLACENAM" v="Sidney"/>
    <tag k="canvec:L_STNAME" v="Beacon Onramp Avenue"/>
    <tag k="canvec:NOLANES" v="1"/>
    <tag k="canvec:PAVSTATUS" v="Paved"/>
    <tag k="canvec:PAVSURF" v="rigid"/>
    <tag k="canvec:PROVIDER" v="provincial_territorial"/>
    <tag k="canvec:REVDATE" v="200605"/>
    <tag k="canvec:ROADSEG_UUID" v="781"/>
    <tag k="canvec:RTENAME1EN" v="-"/>
    <tag k="canvec:RTENAME1FR" v="-"/>
    <tag k="canvec:RTENAME2EN" v="-"/>
    <tag k="canvec:RTENAME2FR" v="-"/>
    <tag k="canvec:RTENAME3EN" v="-"/>
    <tag k="canvec:RTENAME3FR" v="-"/>
    <tag k="canvec:RTENAME4EN" v="-"/>
    <tag k="canvec:RTENAME4FR" v="-"/>
    <tag k="canvec:RTENUMBER1" v="-"/>
    <tag k="canvec:RTENUMBER2" v="-"/>
    <tag k="canvec:RTENUMBER3" v="-"/>
    <tag k="canvec:RTENUMBER4" v="-"/>
    <tag k="canvec:RTENUMBER5" v="-"/>
    <tag k="canvec:R_ADDDIRFG" v="Not applicable"/>
    <tag k="canvec:R_HNUMF" v="0"/>
    <tag k="canvec:R_HNUML" v="0"/>
    <tag k="canvec:R_PLACENAM" v="Sidney"/>
    <tag k="canvec:R_STNAME" v="Beacon Onramp Avenue"/>
    <tag k="canvec:SOURCEID" v="7eb72186968311d99c9f000ea65e52d8"/>
    <tag k="canvec:SOURCEID_UUID" v="7eb72186968311d99c9f000ea65e52d8"/>
    <tag k="canvec:STDVER" v="2.0"/>
    <tag k="canvec:STRUCID" v="-"/>
    <tag k="canvec:STRUCTYPE" v="none"/>
    <tag k="canvec:STRUNAMEEN" v="-"/>
    <tag k="canvec:STRUNAMEFR" v="-"/>
    <tag k="canvec:Theme" v="TR Transportation"/>
    <tag k="canvec:UNPAVSURF" v="None"/>
    <tag k="canvec:UUID" v="de5aa5dd0cba41f6b0dafbb4e4fe3643"/>
    <tag k="canvec:VALDATE" v="200605"/>
    <tag k="canvec:datasetName" v="092B11"/>
    <tag k="canvec:source" v="CanVec_Feature_Catalogue_Edition_1_0_2.pdf"/>
    <tag k="highway" v="motorway_link"/>
    <tag k="highway:ramp:number" v="-"/>
    <tag k="is_in" v="British Columbia"/>
    <tag k="is_in:left" v="Sidney"/>
    <tag k="lanes" v="1"/>
    <tag k="oneway" v="yes"/>
    <tag k="route1:number" v="-"/>
    <tag k="route2:number" v="-"/>
    <tag k="route3:number" v="-"/>
    <tag k="route4:number" v="-"/>
    <tag k="route5:number" v="-"/>
    <tag k="route:name1:fr" v="-"/>
    <tag k="route:name2:fr" v="-"/>
    <tag k="route:name3:fr" v="-"/>
    <tag k="route:name4:fr" v="-"/>
    <tag k="source" v="CanVec_Import_2009"/>
    <tag k="structure:name:en" v="nul"/>
    <tag k="surface" v="paved_concrete"/>
  </way>
  <way id="36313630" version="9" timestamp="2012-03-15T22:04:49Z" uid="307202" user="alester" changeset="10993358"/>
  <way id="36313631" version="1" timestamp="2009-06-18T00:33:57Z" uid="38528" user="acrosscanadatrails" changeset="1550817">
    <nd ref="423612637"/>
    <nd ref="423612615"/>
    <nd ref="423612629"/>
    <nd ref="423612631"/>
    <nd ref="423612625"/>
    <nd ref="423612633"/>
    <nd ref="423612621"/>
    <tag k="addr:city" v="Sidney"/>
    <tag k="addr:city:right" v="Sidney"/>
    <tag k="addr:housenumber" v="0"/>
    <tag k="addr:housenumber:first:left" v="0"/>
    <tag k="addr:housenumber:first:right" v="0"/>
    <tag k="addr:housenumber:last:left" v="0"/>
    <tag k="addr:housenumber:last:right" v="0"/>
    <tag k="addr:province" v="British Columbia"/>
    <tag k="addr:street" v="Beacon Offramp Avenue"/>
    <tag k="attribution" v="Natural Resources Canada"/>
    <tag k="canvec:ACQTECH" v="GPS"/>
    <tag k="canvec:ADRANGENID" v="37481eb8f50d11dc9cb7000ea65e52d8"/>
    <tag k="canvec:CODE" v="1760011"/>
    <tag k="canvec:CODEPROV" v="British Columbia"/>
    <tag k="canvec:CREDATE" v="200605"/>
    <tag k="canvec:EXITNO" v="nul"/>
    <tag k="canvec:L_ADDDIRFG:3" v="Not applicable"/>
    <tag k="canvec:L_HNUMF" v="0"/>
    <tag k="canvec:L_HNUML" v="0"/>
    <tag k="canvec:L_PLACENAM" v="Sidney"/>
    <tag k="canvec:L_STNAME" v="Beacon Offramp Avenue"/>
    <tag k="canvec:NOLANES" v="1"/>
    <tag k="canvec:PAVSTATUS" v="Paved"/>
    <tag k="canvec:PAVSURF" v="rigid"/>
    <tag k="canvec:PROVIDER" v="provincial_territorial"/>
    <tag k="canvec:Planimetric Accuracy (CMAS)" v="10"/>
    <tag k="canvec:REVDATE" v="200605"/>
    <tag k="canvec:ROADSEG_UUID" v="104396"/>
    <tag k="canvec:RTENAME1EN" v="-"/>
    <tag k="canvec:RTENAME1FR" v="-"/>
    <tag k="canvec:RTENAME2EN" v="-"/>
    <tag k="canvec:RTENAME2FR" v="-"/>
    <tag k="canvec:RTENAME3EN" v="-"/>
    <tag k="canvec:RTENAME3FR" v="-"/>
    <tag k="canvec:RTENAME4EN" v="-"/>
    <tag k="canvec:RTENAME4FR" v="-"/>
    <tag k="canvec:RTENUMBER1" v="-"/>
    <tag k="canvec:RTENUMBER2" v="-"/>
    <tag k="canvec:RTENUMBER3" v="-"/>
    <tag k="canvec:RTENUMBER4" v="-"/>
    <tag k="canvec:RTENUMBER5" v="-"/>
    <tag k="canvec:R_ADDDIRFG" v="Not applicable"/>
    <tag k="canvec:R_HNUMF" v="0"/>
    <tag k="canvec:R_HNUML" v="0"/>
    <tag k="canvec:R_PLACENAM" v="Sidney"/>
    <tag k="canvec:R_STNAME" v="Beacon Offramp Avenue"/>
    <tag k="canvec:SOURCEID" v="f46212f2968211d99c9f000ea65e52d8"/>
    <tag k="canvec:SOURCEID_UUID" v="f46212f2968211d99c9f000ea65e52d8"/>
    <tag k="canvec:STDVER" v="2.0"/>
    <tag k="canvec:STRUCID" v="-"/>
    <tag k="canvec:STRUCTYPE" v="none"/>
    <tag k="canvec:STRUNAMEEN" v="-"/>
    <tag k="canvec:STRUNAMEFR" v="-"/>
    <tag k="canvec:Theme" v="TR Transportation"/>
    <tag k="canvec:UNPAVSURF" v="None"/>
    <tag k="canvec:UUID" v="bf63463bae4e46c0a9ec57e7510b7f05"/>
    <tag k="canvec:VALDATE" v="200605"/>
    <tag k="canvec:datasetName" v="092B11"/>
    <tag k="canvec:source" v="CanVec_Feature_Catalogue_Edition_1_0_2.pdf"/>
    <tag k="created_by" v="canvec2osm"/>
    <tag k="highway" v="ramp"/>
    <tag k="highway:ramp:number" v="-"/>
    <tag k="is_in" v="British Columbia"/>
    <tag k="is_in:left" v="Sidney"/>
    <tag k="lanes" v="1"/>
    <tag k="name" v="0"/>
    <tag k="name:en" v="nul"/>
    <tag k="name:fr" v="-"/>
    <tag k="paved" v="yes"/>
    <tag k="route1:number" v="-"/>
    <tag k="route2:number" v="-"/>
    <tag k="route3:number" v="-"/>
    <tag k="route4:number" v="-"/>
    <tag k="route5:number" v="-"/>
    <tag k="route:name1:fr" v="-"/>
    <tag k="route:name2:fr" v="-"/>
    <tag k="route:name3:fr" v="-"/>
    <tag k="route:name4:fr" v="-"/>
    <tag k="source" v="CanVec_Import_2009"/>
    <tag k="structure:name:en" v="nul"/>
    <tag k="surface" v="paved_concrete"/>
  </way>
  <way id="36313631" version="2" timestamp="2009-06-18T01:10:33Z" uid="38528" user="acrosscanadatrails" changeset="1550914">
    <nd ref="423612637"/>
    <nd ref="423612615"/>
    <nd ref="423612629"/>
    <nd ref="423654224"/>
    <nd ref="423612631"/>
    <nd ref="423612625"/>
    <nd ref="423612633"/>
    <nd ref="423612621"/>
    <tag k="addr:city" v="Sidney"/>
    <tag k="addr:city:right" v="Sidney"/>
    <tag k="addr:housenumber" v="0"/>
    <tag k="addr:housenumber:first:left" v="0"/>
    <tag k="addr:housenumber:first:right" v="0"/>
    <tag k="addr:housenumber:last:left" v="0"/>
    <tag k="addr:housenumber:last:right" v="0"/>
    <tag k="addr:province" v="British Columbia"/>
    <tag k="addr:street" v="Beacon Offramp Avenue"/>
    <tag k="attribution" v="Natural Resources Canada"/>
    <tag k="canvec:ACQTECH" v="GPS"/>
    <tag k="canvec:ADRANGENID" v="37481eb8f50d11dc9cb7000ea65e52d8"/>
    <tag k="canvec:CODE" v="1760011"/>
    <tag k="canvec:CODEPROV" v="British Columbia"/>
    <tag k="canvec:CREDATE" v="200605"/>
    <tag k="canvec:EXITNO" v="nul"/>
    <tag k="canvec:L_ADDDIRFG:3" v="Not applicable"/>
    <tag k="canvec:L_HNUMF" v="0"/>
    <tag k="canvec:L_HNUML" v="0"/>
    <tag k="canvec:L_PLACENAM" v="Sidney"/>
    <tag k="canvec:L_STNAME" v="Beacon Offramp Avenue"/>
    <tag k="canvec:NOLANES" v="1"/>
    <tag k="canvec:PAVSTATUS" v="Paved"/>
    <tag k="canvec:PAVSURF" v="rigid"/>
    <tag k="canvec:PROVIDER" v="provincial_territorial"/>
    <tag k="canvec:Planimetric Accuracy (CMAS)" v="10"/>
    <tag k="canvec:REVDATE" v="200605"/>
    <tag k="canvec:ROADSEG_UUID" v="104396"/>
    <tag k="canvec:RTENAME1EN" v="-"/>
    <tag k="canvec:RTENAME1FR" v="-"/>
    <tag k="canvec:RTENAME2EN" v="-"/>
    <tag k="canvec:RTENAME2FR" v="-"/>
    <tag k="canvec:RTENAME3EN" v="-"/>
    <tag k="canvec:RTENAME3FR" v="-"/>
    <tag k="canvec:RTENAME4EN" v="-"/>
    <tag k="canvec:RTENAME4FR" v="-"/>
    <tag k="canvec:RTENUMBER1" v="-"/>
    <tag k="canvec:RTENUMBER2" v="-"/>
    <tag k="canvec:RTENUMBER3" v="-"/>
    <tag k="canvec:RTENUMBER4" v="-"/>
    <tag k="canvec:RTENUMBER5" v="-"/>
    <tag k="canvec:R_ADDDIRFG" v="Not applicable"/>
    <tag k="canvec:R_HNUMF" v="0"/>
    <tag k="canvec:R_HNUML" v="0"/>
    <tag k="canvec:R_PLACENAM" v="Sidney"/>
    <tag k="canvec:R_STNAME" v="Beacon Offramp Avenue"/>
    <tag k="canvec:SOURCEID" v="f46212f2968211d99c9f000ea65e52d8"/>
    <tag k="canvec:SOURCEID_UUID" v="f46212f2968211d99c9f000ea65e52d8"/>
    <tag k="canvec:STDVER" v="2.0"/>
    <tag k="canvec:STRUCID" v="-"/>
    <tag k="canvec:STRUCTYPE" v="none"/>
    <tag k="canvec:STRUNAMEEN" v="-"/>
    <tag k="canvec:STRUNAMEFR" v="-"/>
    <tag k="canvec:Theme" v="TR Transportation"/>
    <tag k="canvec:UNPAVSURF" v="None"/>
    <tag k="canvec:UUID" v="bf63463bae4e46c0a9ec57e7510b7f05"/>
    <tag k="canvec:VALDATE" v="200605"/>
    <tag k="canvec:datasetName" v="092B11"/>
    <tag k="canvec:source" v="CanVec_Feature_Catalogue_Edition_1_0_2.pdf"/>
    <tag k="created_by" v="canvec2osm"/>
    <tag k="highway" v="ramp"/>
    <tag k="highway:ramp:number" v="-"/>
    <tag k="is_in" v="British Columbia"/>
    <tag k="is_in:left" v="Sidney"/>
    <tag k="lanes" v="1"/>
    <tag k="name" v="0"/>
    <tag k="name:en" v="nul"/>
    <tag k="name:fr" v="-"/>
    <tag k="paved" v="yes"/>
    <tag k="route1:number" v="-"/>
    <tag k="route2:number" v="-"/>
    <tag k="route3:number" v="-"/>
    <tag k="route4:number" v="-"/>
    <tag k="route5:number" v="-"/>
    <tag k="route:name1:fr" v="-"/>
    <tag k="route:name2:fr" v="-"/>
    <tag k="route:name3:fr" v="-"/>
    <tag k="route:name4:fr" v="-"/>
    <tag k="source" v="CanVec_Import_2009"/>
    <tag k="structure:name:en" v="nul"/>
    <tag k="surface" v="paved_concrete"/>
  </way>
  <way id="36313631" version="3" timestamp="2010-02-27T04:51:25Z" uid="143129" user="petersfreeman" changeset="3985626">
    <nd ref="423612637"/>
    <nd ref="423612615"/>
    <nd ref="423612629"/>
    <nd ref="423654224"/>
    <nd ref="423612631"/>
    <nd ref="423612625"/>
    <nd ref="423612633"/>
    <nd ref="423612621"/>
    <nd ref="300458266"/>
    <tag k="addr:city" v="Sidney"/>
    <tag k="addr:city:right" v="Sidney"/>
    <tag k="addr:housenumber" v="0"/>
    <tag k="addr:housenumber:first:left" v="0"/>
    <tag k="addr:housenumber:first:right" v="0"/>
    <tag k="addr:housenumber:last:left" v="0"/>
    <tag k="addr:housenumber:last:right" v="0"/>
    <tag k="addr:province" v="British Columbia"/>
    <tag k="addr:street" v="Beacon Offramp Avenue"/>
    <tag k="attribution" v="Natural Resources Canada"/>
    <tag k="canvec:ACQTECH" v="GPS"/>
    <tag k="canvec:ADRANGENID" v="37481eb8f50d11dc9cb7000ea65e52d8"/>
    <tag k="canvec:CODE" v="1760011"/>
    <tag k="canvec:CODEPROV" v="British Columbia"/>
    <tag k="canvec:CREDATE" v="200605"/>
    <tag k="canvec:EXITNO" v="nul"/>
    <tag k="canvec:L_ADDDIRFG:3" v="Not applicable"/>
    <tag k="canvec:L_HNUMF" v="0"/>
    <tag k="canvec:L_HNUML" v="0"/>
    <tag k="canvec:L_PLACENAM" v="Sidney"/>
    <tag k="canvec:L_STNAME" v="Beacon Offramp Avenue"/>
    <tag k="canvec:NOLANES" v="1"/>
    <tag k="canvec:PAVSTATUS" v="Paved"/>
    <tag k="canvec:PAVSURF" v="rigid"/>
    <tag k="canvec:PROVIDER" v="provincial_territorial"/>
    <tag k="canvec:Planimetric Accuracy (CMAS)" v="10"/>
    <tag k="canvec:REVDATE" v="200605"/>
    <tag k="canvec:ROADSEG_UUID" v="104396"/>
    <tag k="canvec:RTENAME1EN" v="-"/>
    <tag k="canvec:RTENAME1FR" v="-"/>
    <tag k="canvec:RTENAME2EN" v="-"/>
    <tag k="canvec:RTENAME2FR" v="-"/>
    <tag k="canvec:RTENAME3EN" v="-"/>
    <tag k="canvec:RTENAME3FR" v="-"/>
    <tag k="canvec:RTENAME4EN" v="-"/>
    <tag k="canvec:RTENAME4FR" v="-"/>
    <tag k="canvec:RTENUMBER1" v="-"/>
    <tag k="canvec:RTENUMBER2" v="-"/>
    <tag k="canvec:RTENUMBER3" v="-"/>
    <tag k="canvec:RTENUMBER4" v="-"/>
    <tag k="canvec:RTENUMBER5" v="-"/>
    <tag k="canvec:R_ADDDIRFG" v="Not applicable"/>
    <tag k="canvec:R_HNUMF" v="0"/>
    <tag k="canvec:R_HNUML" v="0"/>
    <tag k="canvec:R_PLACENAM" v="Sidney"/>
    <tag k="canvec:R_STNAME" v="Beacon Offramp Avenue"/>
    <tag k="canvec:SOURCEID" v="f46212f2968211d99c9f000ea65e52d8"/>
    <tag k="canvec:SOURCEID_UUID" v="f46212f2968211d99c9f000ea65e52d8"/>
    <tag k="canvec:STDVER" v="2.0"/>
    <tag k="canvec:STRUCID" v="-"/>
    <tag k="canvec:STRUCTYPE" v="none"/>
    <tag k="canvec:STRUNAMEEN" v="-"/>
    <tag k="canvec:STRUNAMEFR" v="-"/>
    <tag k="canvec:Theme" v="TR Transportation"/>
    <tag k="canvec:UNPAVSURF" v="None"/>
    <tag k="canvec:UUID" v="bf63463bae4e46c0a9ec57e7510b7f05"/>
    <tag k="canvec:VALDATE" v="200605"/>
    <tag k="canvec:datasetName" v="092B11"/>
    <tag k="canvec:source" v="CanVec_Feature_Catalogue_Edition_1_0_2.pdf"/>
    <tag k="highway" v="ramp"/>
    <tag k="highway:ramp:number" v="-"/>
    <tag k="is_in" v="British Columbia"/>
    <tag k="is_in:left" v="Sidney"/>
    <tag k="lanes" v="1"/>
    <tag k="name" v="0"/>
    <tag k="name:en" v="nul"/>
    <tag k="name:fr" v="-"/>
    <tag k="paved" v="yes"/>
    <tag k="route1:number" v="-"/>
    <tag k="route2:number" v="-"/>
    <tag k="route3:number" v="-"/>
    <tag k="route4:number" v="-"/>
    <tag k="route5:number" v="-"/>
    <tag k="route:name1:fr" v="-"/>
    <tag k="route:name2:fr" v="-"/>
    <tag k="route:name3:fr" v="-"/>
    <tag k="route:name4:fr" v="-"/>
    <tag k="source" v="CanVec_Import_2009"/>
    <tag k="structure:name:en" v="nul"/>
    <tag k="surface" v="paved_concrete"/>
  </way>
  <way id="36313631" version="4" timestamp="2010-06-01T06:41:21Z" uid="293149" user="Homsar123" changeset="4872077">
    <nd ref="423612637"/>
    <nd ref="423612615"/>
    <nd ref="423612629"/>
    <nd ref="423654224"/>
    <nd ref="423612631"/>
    <nd ref="423612625"/>
    <nd ref="423612633"/>
    <nd ref="423612621"/>
    <nd ref="300458266"/>
    <tag k="addr:city" v="Sidney"/>
    <tag k="addr:city:right" v="Sidney"/>
    <tag k="addr:province" v="British Columbia"/>
    <tag k="addr:street" v="Beacon Offramp Avenue"/>
    <tag k="attribution" v="Natural Resources Canada"/>
    <tag k="canvec:ACQTECH" v="GPS"/>
    <tag k="canvec:ADRANGENID" v="37481eb8f50d11dc9cb7000ea65e52d8"/>
    <tag k="canvec:CODE" v="1760011"/>
    <tag k="canvec:CODEPROV" v="British Columbia"/>
    <tag k="canvec:CREDATE" v="200605"/>
    <tag k="canvec:L_ADDDIRFG:3" v="Not applicable"/>
    <tag k="canvec:L_PLACENAM" v="Sidney"/>
    <tag k="canvec:L_STNAME" v="Beacon Offramp Avenue"/>
    <tag k="canvec:NOLANES" v="1"/>
    <tag k="canvec:PROVIDER" v="provincial_territorial"/>
    <tag k="canvec:Planimetric Accuracy (CMAS)" v="10"/>
    <tag k="canvec:REVDATE" v="200605"/>
    <tag k="canvec:ROADSEG_UUID" v="104396"/>
    <tag k="canvec:R_PLACENAM" v="Sidney"/>
    <tag k="canvec:R_STNAME" v="Beacon Offramp Avenue"/>
    <tag k="canvec:SOURCEID" v="f46212f2968211d99c9f000ea65e52d8"/>
    <tag k="canvec:SOURCEID_UUID" v="f46212f2968211d99c9f000ea65e52d8"/>
    <tag k="canvec:STDVER" v="2.0"/>
    <tag k="canvec:STRUCTYPE" v="none"/>
    <tag k="canvec:Theme" v="TR Transportation"/>
    <tag k="canvec:UNPAVSURF" v="None"/>
    <tag k="canvec:UUID" v="bf63463bae4e46c0a9ec57e7510b7f05"/>
    <tag k="canvec:VALDATE" v="200605"/>
    <tag k="canvec:datasetName" v="092B11"/>
    <tag k="canvec:source" v="CanVec_Feature_Catalogue_Edition_1_0_2.pdf"/>
    <tag k="highway" v="trunk_link"/>
    <tag k="highway:ramp:number" v="-"/>
    <tag k="is_in" v="British Columbia"/>
    <tag k="is_in:left" v="Sidney"/>
    <tag k="lanes" v="1"/>
    <tag k="oneway" v="yes"/>
    <tag k="route1:number" v="-"/>
    <tag k="route2:number" v="-"/>
    <tag k="route3:number" v="-"/>
    <tag k="route4:number" v="-"/>
    <tag k="route5:number" v="-"/>
    <tag k="source" v="CanVec_Import_2009"/>
    <tag k="structure:name:en" v="nul"/>
    <tag k="surface" v="paved"/>
  </way>
  <way id="36313631" version="5" timestamp="2011-09-26T16:06:45Z" uid="307202" user="alester" changeset="9403224">
    <nd ref="423612637"/>
    <nd ref="423612615"/>
    <nd ref="423612629"/>
    <nd ref="423654224"/>
    <nd ref="423612631"/>
    <nd ref="423612625"/>
    <nd ref="423612633"/>
    <nd ref="423612621"/>
    <nd ref="300458266"/>
    <tag k="addr:city" v="Sidney"/>
    <tag k="addr:city:right" v="Sidney"/>
    <tag k="addr:province" v="British Columbia"/>
    <tag k="addr:street" v="Beacon Offramp Avenue"/>
    <tag k="attribution" v="Natural Resources Canada"/>
    <tag k="canvec:ACQTECH" v="GPS"/>
    <tag k="canvec:ADRANGENID" v="37481eb8f50d11dc9cb7000ea65e52d8"/>
    <tag k="canvec:CODE" v="1760011"/>
    <tag k="canvec:CODEPROV" v="British Columbia"/>
    <tag k="canvec:CREDATE" v="200605"/>
    <tag k="canvec:L_ADDDIRFG:3" v="Not applicable"/>
    <tag k="canvec:L_PLACENAM" v="Sidney"/>
    <tag k="canvec:L_STNAME" v="Beacon Offramp Avenue"/>
    <tag k="canvec:NOLANES" v="1"/>
    <tag k="canvec:PROVIDER" v="provincial_territorial"/>
    <tag k="canvec:REVDATE" v="200605"/>
    <tag k="canvec:ROADSEG_UUID" v="104396"/>
    <tag k="canvec:R_PLACENAM" v="Sidney"/>
    <tag k="canvec:R_STNAME" v="Beacon Offramp Avenue"/>
    <tag k="canvec:SOURCEID" v="f46212f2968211d99c9f000ea65e52d8"/>
    <tag k="canvec:SOURCEID_UUID" v="f46212f2968211d99c9f000ea65e52d8"/>
    <tag k="canvec:STDVER" v="2.0"/>
    <tag k="canvec:STRUCTYPE" v="none"/>
    <tag k="canvec:Theme" v="TR Transportation"/>
    <tag k="canvec:UNPAVSURF" v="None"/>
    <tag k="canvec:UUID" v="bf63463bae4e46c0a9ec57e7510b7f05"/>
    <tag k="canvec:VALDATE" v="200605"/>
    <tag k="canvec:datasetName" v="092B11"/>
    <tag k="canvec:source" v="CanVec_Feature_Catalogue_Edition_1_0_2.pdf"/>
    <tag k="highway" v="motorway_link"/>
    <tag k="highway:ramp:number" v="-"/>
    <tag k="is_in" v="British Columbia"/>
    <tag k="is_in:left" v="Sidney"/>
    <tag k="lanes" v="1"/>
    <tag k="oneway" v="yes"/>
    <tag k="route1:number" v="-"/>
    <tag k="route2:number" v="-"/>
    <tag k="route3:number" v="-"/>
    <tag k="route4:number" v="-"/>
    <tag k="route5:number" v="-"/>
    <tag k="source" v="CanVec_Import_2009"/>
    <tag k="structure:name:en" v="nul"/>
    <tag k="surface" v="paved"/>
  </way>
  <way id="36313631" version="6" timestamp="2012-03-01T22:16:45Z" uid="147510" user="woodpeck_fixbot" changeset="10842511"/>
  <way id="36313631" version="7" timestamp="2012-03-12T22:26:18Z" uid="147510" user="woodpeck_fixbot" changeset="10960757">
    <nd ref="423612637"/>
    <nd ref="423612615"/>
    <nd ref="423612629"/>
    <nd ref="423654224"/>
    <nd ref="423612631"/>
    <nd ref="423612625"/>
    <nd ref="423612633"/>
    <nd ref="423612621"/>
    <nd ref="300458266"/>
    <tag k="addr:city" v="Sidney"/>
    <tag k="addr:city:right" v="Sidney"/>
    <tag k="addr:province" v="British Columbia"/>
    <tag k="addr:street" v="Beacon Offramp Avenue"/>
    <tag k="attribution" v="Natural Resources Canada"/>
    <tag k="canvec:ACQTECH" v="GPS"/>
    <tag k="canvec:ADRANGENID" v="37481eb8f50d11dc9cb7000ea65e52d8"/>
    <tag k="canvec:CODE" v="1760011"/>
    <tag k="canvec:CODEPROV" v="British Columbia"/>
    <tag k="canvec:CREDATE" v="200605"/>
    <tag k="canvec:L_ADDDIRFG:3" v="Not applicable"/>
    <tag k="canvec:L_PLACENAM" v="Sidney"/>
    <tag k="canvec:L_STNAME" v="Beacon Offramp Avenue"/>
    <tag k="canvec:NOLANES" v="1"/>
    <tag k="canvec:PROVIDER" v="provincial_territorial"/>
    <tag k="canvec:REVDATE" v="200605"/>
    <tag k="canvec:ROADSEG_UUID" v="104396"/>
    <tag k="canvec:R_PLACENAM" v="Sidney"/>
    <tag k="canvec:R_STNAME" v="Beacon Offramp Avenue"/>
    <tag k="canvec:SOURCEID" v="f46212f2968211d99c9f000ea65e52d8"/>
    <tag k="canvec:SOURCEID_UUID" v="f46212f2968211d99c9f000ea65e52d8"/>
    <tag k="canvec:STDVER" v="2.0"/>
    <tag k="canvec:STRUCTYPE" v="none"/>
    <tag k="canvec:Theme" v="TR Transportation"/>
    <tag k="canvec:UNPAVSURF" v="None"/>
    <tag k="canvec:UUID" v="bf63463bae4e46c0a9ec57e7510b7f05"/>
    <tag k="canvec:VALDATE" v="200605"/>
    <tag k="canvec:datasetName" v="092B11"/>
    <tag k="canvec:source" v="CanVec_Feature_Catalogue_Edition_1_0_2.pdf"/>
    <tag k="highway" v="motorway_link"/>
    <tag k="highway:ramp:number" v="-"/>
    <tag k="is_in" v="British Columbia"/>
    <tag k="is_in:left" v="Sidney"/>
    <tag k="lanes" v="1"/>
    <tag k="oneway" v="yes"/>
    <tag k="route1:number" v="-"/>
    <tag k="route2:number" v="-"/>
    <tag k="route3:number" v="-"/>
    <tag k="route4:number" v="-"/>
    <tag k="route5:number" v="-"/>
    <tag k="source" v="CanVec_Import_2009"/>
    <tag k="structure:name:en" v="nul"/>
    <tag k="surface" v="paved"/>
  </way>
  <way id="36313631" version="8" timestamp="2012-03-15T22:04:54Z" uid="307202" user="alester" changeset="10993358"/>
</osm>
