<?xml version='1.0' encoding='UTF-8'?>
<osm version="0.6" generator="libosmium/2.20.0">
  <way id="36335536" version="5" timestamp="2010-07-09T07:45:18Z" uid="74617" user="JohnSmith" changeset="5171569">
    <nd ref="423812299"/>
    <nd ref="423812310"/>
    <nd ref="423812311"/>
    <nd ref="624210785"/>
    <nd ref="423812312"/>
    <nd ref="624210790"/>
    <nd ref="423812313"/>
    <nd ref="423812300"/>
    <tag k="highway" v="residential"/>
    <tag k="maxspeed" v="50"/>
    <tag k="maxspeed:source" v="default residential speed limit in Australia"/>
    <tag k="name" v="Carina Loop"/>
    <tag k="source" v="survey"/>
  </way>
  <way id="36335536" version="6" timestamp="2012-01-18T23:30:56Z" uid="147510" user="woodpeck_fixbot" changeset="10432847">
    <nd ref="423812299"/>
    <nd ref="423812310"/>
    <nd ref="423812311"/>
    <nd ref="624210785"/>
    <nd ref="423812312"/>
    <nd ref="624210790"/>
    <nd ref="423812313"/>
    <nd ref="423812300"/>
    <tag k="highway" v="residential"/>
    <tag k="name" v="Carina Loop"/>
    <tag k="source" v="survey"/>
  </way>
  <way id="36335538" version="5" timestamp="2010-07-09T07:50:20Z" uid="74617" user="JohnSmith" changeset="5171569">
    <nd ref="33699342"/>
    <nd ref="423812315"/>
    <nd ref="423812316"/>
    <nd ref="624194369"/>
    <nd ref="423812317"/>
    <tag k="highway" v="residential"/>
    <tag k="maxspeed" v="50"/>
    <tag k="maxspeed:source" v="default residential speed limit in Australia"/>
    <tag k="name" v="Village Walk"/>
    <tag k="source" v="survey"/>
  </way>
  <way id="36335538" version="6" timestamp="2012-01-18T23:30:57Z" uid="147510" user="woodpeck_fixbot" changeset="10432847">
    <nd ref="33699342"/>
    <nd ref="423812315"/>
    <nd ref="423812316"/>
    <nd ref="624194369"/>
    <nd ref="423812317"/>
    <tag k="highway" v="residential"/>
    <tag k="name" v="Village Walk"/>
    <tag k="source" v="survey"/>
  </way>
  <way id="36335539" version="4" timestamp="2010-07-09T07:47:54Z" uid="74617" user="JohnSmith" changeset="5171569">
    <nd ref="33699341"/>
    <nd ref="423812318"/>
    <nd ref="423812319"/>
    <tag k="highway" v="residential"/>
    <tag k="maxspeed" v="50"/>
    <tag k="maxspeed:source" v="default residential speed limit in Australia"/>
    <tag k="name" v="Bleinheim Place"/>
    <tag k="source" v="survey"/>
  </way>
  <way id="36335539" version="5" timestamp="2012-01-18T23:30:58Z" uid="147510" user="woodpeck_fixbot" changeset="10432847">
    <nd ref="33699341"/>
    <nd ref="423812318"/>
    <nd ref="423812319"/>
    <tag k="highway" v="residential"/>
    <tag k="name" v="Bleinheim Place"/>
    <tag k="source" v="survey"/>
  </way>
  <way id="36335540" version="4" timestamp="2010-07-09T07:47:18Z" uid="74617" user="JohnSmith" changeset="5171569">
    <nd ref="423812320"/>
    <nd ref="423812319"/>
    <nd ref="423812321"/>
    <tag k="highway" v="residential"/>
    <tag k="maxspeed" v="50"/>
    <tag k="maxspeed:source" v="default residential speed limit in Australia"/>
    <tag k="name" v="Bleinheim Place"/>
    <tag k="source" v="survey"/>
  </way>
  <way id="36335540" version="5" timestamp="2012-01-18T23:30:59Z" uid="147510" user="woodpeck_fixbot" changeset="10432847">
    <nd ref="423812320"/>
    <nd ref="423812319"/>
    <nd ref="423812321"/>
    <tag k="highway" v="residential"/>
    <tag k="name" v="Bleinheim Place"/>
    <tag k="source" v="survey"/>
  </way>
  <way id="36335541" version="5" timestamp="2010-07-09T07:44:32Z" uid="74617" user="JohnSmith" changeset="5171569">
    <nd ref="423812283"/>
    <nd ref="423812322"/>
    <nd ref="624210055"/>
    <nd ref="423812323"/>
    <tag k="highway" v="residential"/>
    <tag k="maxspeed" v="50"/>
    <tag k="maxspeed:source" v="default residential speed limit in Australia"/>
    <tag k="name" v="St Vincent Place"/>
    <tag k="source" v="survey"/>
  </way>
  <way id="36335541" version="6" timestamp="2012-01-18T23:31:00Z" uid="147510" user="woodpeck_fixbot" changeset="10432847">
    <nd ref="423812283"/>
    <nd ref="423812322"/>
    <nd ref="624210055"/>
    <nd ref="423812323"/>
    <tag k="highway" v="residential"/>
    <tag k="name" v="St Vincent Place"/>
    <tag k="source" v="survey"/>
  </way>
  <way id="36335542" version="5" timestamp="2010-07-09T07:51:47Z" uid="74617" user="JohnSmith" changeset="5171569">
    <nd ref="33699337"/>
    <nd ref="624210380"/>
    <nd ref="423812324"/>
    <tag k="highway" v="residential"/>
    <tag k="maxspeed" v="50"/>
    <tag k="maxspeed:source" v="default residential speed limit in Australia"/>
    <tag k="name" v="Alfred Place"/>
    <tag k="source" v="survey"/>
  </way>
  <way id="36335542" version="6" timestamp="2012-01-18T23:31:01Z" uid="147510" user="woodpeck_fixbot" changeset="10432847">
    <nd ref="33699337"/>
    <nd ref="624210380"/>
    <nd ref="423812324"/>
    <tag k="highway" v="residential"/>
    <tag k="name" v="Alfred Place"/>
    <tag k="source" v="survey"/>
  </way>
  <way id="36335543" version="4" timestamp="2010-07-09T07:49:35Z" uid="74617" user="JohnSmith" changeset="5171569">
    <nd ref="423812282"/>
    <nd ref="423812325"/>
    <nd ref="423812326"/>
    <tag k="highway" v="residential"/>
    <tag k="maxspeed" v="50"/>
    <tag k="maxspeed:source" v="default residential speed limit in Australia"/>
    <tag k="name" v="Empress Court"/>
    <tag k="source" v="survey"/>
  </way>
  <way id="36335543" version="5" timestamp="2012-01-18T23:31:01Z" uid="147510" user="woodpeck_fixbot" changeset="10432847">
    <nd ref="423812282"/>
    <nd ref="423812325"/>
    <nd ref="423812326"/>
    <tag k="highway" v="residential"/>
    <tag k="name" v="Empress Court"/>
    <tag k="source" v="survey"/>
  </way>
  <way id="36335544" version="4" timestamp="2010-07-09T07:48:58Z" uid="74617" user="JohnSmith" changeset="5171569">
    <nd ref="423812281"/>
    <nd ref="423812332"/>
    <tag k="highway" v="residential"/>
    <tag k="maxspeed" v="50"/>
    <tag k="maxspeed:source" v="default residential speed limit in Australia"/>
    <tag k="name" v="Hague Court"/>
    <tag k="source" v="survey"/>
  </way>
  <way id="36335544" version="5" timestamp="2012-01-18T23:31:02Z" uid="147510" user="woodpeck_fixbot" changeset="10432847">
    <nd ref="423812281"/>
    <nd ref="423812332"/>
    <tag k="highway" v="residential"/>
    <tag k="name" v="Hague Court"/>
    <tag k="source" v="survey"/>
  </way>
  <way id="36335545" version="5" timestamp="2010-07-09T07:46:25Z" uid="74617" user="JohnSmith" changeset="5171569">
    <nd ref="423812285"/>
    <nd ref="624210187"/>
    <nd ref="423812335"/>
    <nd ref="423812336"/>
    <tag k="highway" v="residential"/>
    <tag k="maxspeed" v="50"/>
    <tag k="maxspeed:source" v="default residential speed limit in Australia"/>
    <tag k="name" v="Reliance Close"/>
    <tag k="source" v="survey"/>
  </way>
  <way id="36335545" version="6" timestamp="2012-01-18T23:31:04Z" uid="147510" user="woodpeck_fixbot" changeset="10432847">
    <nd ref="423812285"/>
    <nd ref="624210187"/>
    <nd ref="423812335"/>
    <nd ref="423812336"/>
    <tag k="highway" v="residential"/>
    <tag k="name" v="Reliance Close"/>
    <tag k="source" v="survey"/>
  </way>
  <way id="36335546" version="4" timestamp="2010-07-09T07:53:22Z" uid="74617" user="JohnSmith" changeset="5171569">
    <nd ref="423812335"/>
    <nd ref="423812340"/>
    <tag k="highway" v="residential"/>
    <tag k="maxspeed" v="50"/>
    <tag k="maxspeed:source" v="default residential speed limit in Australia"/>
    <tag k="name" v="Reliance Close"/>
    <tag k="source" v="survey"/>
  </way>
  <way id="36335546" version="5" timestamp="2012-01-18T23:31:05Z" uid="147510" user="woodpeck_fixbot" changeset="10432847">
    <nd ref="423812335"/>
    <nd ref="423812340"/>
    <tag k="highway" v="residential"/>
    <tag k="name" v="Reliance Close"/>
    <tag k="source" v="survey"/>
  </way>
  <way id="36335548" version="4" timestamp="2010-07-09T07:50:46Z" uid="74617" user="JohnSmith" changeset="5171569">
    <nd ref="423812293"/>
    <nd ref="423812355"/>
    <nd ref="423812358"/>
    <nd ref="423812361"/>
    <tag k="highway" v="residential"/>
    <tag k="maxspeed" v="50"/>
    <tag k="maxspeed:source" v="default residential speed limit in Australia"/>
    <tag k="name" v="Rainbow View"/>
    <tag k="source" v="survey"/>
  </way>
  <way id="36335548" version="5" timestamp="2012-01-18T23:31:06Z" uid="147510" user="woodpeck_fixbot" changeset="10432847">
    <nd ref="423812293"/>
    <nd ref="423812355"/>
    <nd ref="423812358"/>
    <nd ref="423812361"/>
    <tag k="highway" v="residential"/>
    <tag k="name" v="Rainbow View"/>
    <tag k="source" v="survey"/>
  </way>
  <way id="36335551" version="5" timestamp="2010-07-09T07:52:50Z" uid="74617" user="JohnSmith" changeset="5171569">
    <nd ref="423812292"/>
    <nd ref="423812366"/>
    <nd ref="624152880"/>
    <nd ref="423812367"/>
    <nd ref="423812368"/>
    <nd ref="423812370"/>
    <tag k="highway" v="residential"/>
    <tag k="maxspeed" v="50"/>
    <tag k="maxspeed:source" v="default residential speed limit in Australia"/>
    <tag k="name" v="Atalanta Rise"/>
    <tag k="source" v="survey"/>
  </way>
  <way id="36335551" version="6" timestamp="2012-01-18T23:31:07Z" uid="147510" user="woodpeck_fixbot" changeset="10432847">
    <nd ref="423812292"/>
    <nd ref="423812366"/>
    <nd ref="624152880"/>
    <nd ref="423812367"/>
    <nd ref="423812368"/>
    <nd ref="423812370"/>
    <tag k="highway" v="residential"/>
    <tag k="name" v="Atalanta Rise"/>
    <tag k="source" v="survey"/>
  </way>
  <way id="36335552" version="5" timestamp="2010-07-09T07:43:07Z" uid="74617" user="JohnSmith" changeset="5171569">
    <nd ref="423812291"/>
    <nd ref="423812372"/>
    <nd ref="624153131"/>
    <nd ref="423812294"/>
    <tag k="highway" v="residential"/>
    <tag k="maxspeed" v="50"/>
    <tag k="maxspeed:source" v="default residential speed limit in Australia"/>
    <tag k="name" v="Tahara Vale"/>
    <tag k="source" v="survey"/>
  </way>
  <way id="36335552" version="6" timestamp="2012-01-18T23:31:08Z" uid="147510" user="woodpeck_fixbot" changeset="10432847">
    <nd ref="423812291"/>
    <nd ref="423812372"/>
    <nd ref="624153131"/>
    <nd ref="423812294"/>
    <tag k="highway" v="residential"/>
    <tag k="name" v="Tahara Vale"/>
    <tag k="source" v="survey"/>
  </way>
  <way id="36335553" version="4" timestamp="2010-07-09T07:52:18Z" uid="74617" user="JohnSmith" changeset="5171569">
    <nd ref="423812290"/>
    <nd ref="423812373"/>
    <tag k="highway" v="residential"/>
    <tag k="maxspeed" v="50"/>
    <tag k="maxspeed:source" v="default residential speed limit in Australia"/>
    <tag k="name" v="Banou Court"/>
    <tag k="source" v="survey"/>
  </way>
  <way id="36335553" version="5" timestamp="2012-01-18T23:31:10Z" uid="147510" user="woodpeck_fixbot" changeset="10432847">
    <nd ref="423812290"/>
    <nd ref="423812373"/>
    <tag k="highway" v="residential"/>
    <tag k="name" v="Banou Court"/>
    <tag k="source" v="survey"/>
  </way>
  <way id="36335554" version="4" timestamp="2010-07-09T07:48:29Z" uid="74617" user="JohnSmith" changeset="5171569">
    <nd ref="423812289"/>
    <nd ref="423812374"/>
    <tag k="highway" v="residential"/>
    <tag k="maxspeed" v="50"/>
    <tag k="maxspeed:source" v="default residential speed limit in Australia"/>
    <tag k="name" v="Biscay Close"/>
    <tag k="source" v="survey"/>
  </way>
  <way id="36335554" version="5" timestamp="2012-01-18T23:31:10Z" uid="147510" user="woodpeck_fixbot" changeset="10432847">
    <nd ref="423812289"/>
    <nd ref="423812374"/>
    <tag k="highway" v="residential"/>
    <tag k="name" v="Biscay Close"/>
    <tag k="source" v="survey"/>
  </way>
  <way id="36335555" version="4" timestamp="2010-07-09T07:45:52Z" uid="74617" user="JohnSmith" changeset="5171569">
    <nd ref="315192754"/>
    <nd ref="423812375"/>
    <nd ref="423812376"/>
    <tag k="highway" v="residential"/>
    <tag k="maxspeed" v="50"/>
    <tag k="maxspeed:source" v="default residential speed limit in Australia"/>
    <tag k="name" v="Seltrust Place"/>
    <tag k="source" v="survey"/>
  </way>
  <way id="36335555" version="5" timestamp="2012-01-18T23:31:12Z" uid="147510" user="woodpeck_fixbot" changeset="10432847">
    <nd ref="315192754"/>
    <nd ref="423812375"/>
    <nd ref="423812376"/>
    <tag k="highway" v="residential"/>
    <tag k="name" v="Seltrust Place"/>
    <tag k="source" v="survey"/>
  </way>
  <way id="36335556" version="4" timestamp="2010-07-09T07:45:11Z" uid="74617" user="JohnSmith" changeset="5171569">
    <nd ref="423812288"/>
    <nd ref="423812377"/>
    <nd ref="423812378"/>
    <tag k="highway" v="residential"/>
    <tag k="maxspeed" v="50"/>
    <tag k="maxspeed:source" v="default residential speed limit in Australia"/>
    <tag k="name" v="Volunteer Place"/>
    <tag k="source" v="survey"/>
  </way>
  <way id="36335556" version="5" timestamp="2012-01-18T23:31:12Z" uid="147510" user="woodpeck_fixbot" changeset="10432847">
    <nd ref="423812288"/>
    <nd ref="423812377"/>
    <nd ref="423812378"/>
    <tag k="highway" v="residential"/>
    <tag k="name" v="Volunteer Place"/>
    <tag k="source" v="survey"/>
  </way>
  <way id="36335557" version="5" timestamp="2010-07-09T07:53:44Z" uid="74617" user="JohnSmith" changeset="5171569">
    <nd ref="423812377"/>
    <nd ref="423812379"/>
    <nd ref="624210542"/>
    <nd ref="423812380"/>
    <nd ref="423812381"/>
    <tag k="highway" v="residential"/>
    <tag k="maxspeed" v="50"/>
    <tag k="maxspeed:source" v="default residential speed limit in Australia"/>
    <tag k="name" v="Puritan Close"/>
    <tag k="source" v="survey"/>
  </way>
  <way id="36335557" version="6" timestamp="2012-01-18T23:31:13Z" uid="147510" user="woodpeck_fixbot" changeset="10432847">
    <nd ref="423812377"/>
    <nd ref="423812379"/>
    <nd ref="624210542"/>
    <nd ref="423812380"/>
    <nd ref="423812381"/>
    <tag k="highway" v="residential"/>
    <tag k="name" v="Puritan Close"/>
    <tag k="source" v="survey"/>
  </way>
  <way id="36335558" version="4" timestamp="2010-07-09T07:50:13Z" uid="74617" user="JohnSmith" changeset="5171569">
    <nd ref="423812286"/>
    <nd ref="423812382"/>
    <nd ref="423812383"/>
    <nd ref="423812384"/>
    <nd ref="423812385"/>
    <nd ref="423812386"/>
    <nd ref="423812387"/>
    <tag k="highway" v="residential"/>
    <tag k="maxspeed" v="50"/>
    <tag k="maxspeed:source" v="default residential speed limit in Australia"/>
    <tag k="name" v="Courageous Place"/>
    <tag k="source" v="survey"/>
  </way>
  <way id="36335558" version="5" timestamp="2012-01-18T23:31:14Z" uid="147510" user="woodpeck_fixbot" changeset="10432847">
    <nd ref="423812286"/>
    <nd ref="423812382"/>
    <nd ref="423812383"/>
    <nd ref="423812384"/>
    <nd ref="423812385"/>
    <nd ref="423812386"/>
    <nd ref="423812387"/>
    <tag k="highway" v="residential"/>
    <tag k="name" v="Courageous Place"/>
    <tag k="source" v="survey"/>
  </way>
  <way id="36335559" version="4" timestamp="2010-07-09T07:47:50Z" uid="74617" user="JohnSmith" changeset="5171569">
    <nd ref="423812287"/>
    <nd ref="33699199"/>
    <tag k="highway" v="residential"/>
    <tag k="maxspeed" v="50"/>
    <tag k="maxspeed:source" v="default residential speed limit in Australia"/>
    <tag k="name" v="The Gap"/>
    <tag k="source" v="survey"/>
  </way>
  <way id="36335559" version="5" timestamp="2012-01-18T23:31:15Z" uid="147510" user="woodpeck_fixbot" changeset="10432847">
    <nd ref="423812287"/>
    <nd ref="33699199"/>
    <tag k="highway" v="residential"/>
    <tag k="name" v="The Gap"/>
    <tag k="source" v="survey"/>
  </way>
  <way id="36335560" version="5" timestamp="2010-07-09T07:47:13Z" uid="74617" user="JohnSmith" changeset="5171569">
    <nd ref="423812297"/>
    <nd ref="423812388"/>
    <nd ref="423812389"/>
    <nd ref="423812390"/>
    <nd ref="423812391"/>
    <nd ref="624194390"/>
    <nd ref="624194505"/>
    <nd ref="624194507"/>
    <nd ref="624194509"/>
    <nd ref="624194442"/>
    <tag k="highway" v="residential"/>
    <tag k="maxspeed" v="50"/>
    <tag k="maxspeed:source" v="default residential speed limit in Australia"/>
    <tag k="name" v="Gloriana View"/>
    <tag k="source" v="survey"/>
  </way>
  <way id="36335560" version="6" timestamp="2012-01-18T23:31:16Z" uid="147510" user="woodpeck_fixbot" changeset="10432847">
    <nd ref="423812297"/>
    <nd ref="423812388"/>
    <nd ref="423812389"/>
    <nd ref="423812390"/>
    <nd ref="423812391"/>
    <nd ref="624194390"/>
    <nd ref="624194505"/>
    <nd ref="624194507"/>
    <nd ref="624194509"/>
    <nd ref="624194442"/>
    <tag k="highway" v="residential"/>
    <tag k="name" v="Gloriana View"/>
    <tag k="source" v="survey"/>
  </way>
  <way id="36335561" version="4" timestamp="2010-07-09T07:44:24Z" uid="74617" user="JohnSmith" changeset="5171569">
    <nd ref="423812389"/>
    <nd ref="423812392"/>
    <nd ref="423812393"/>
    <nd ref="423812394"/>
    <nd ref="423812401"/>
    <nd ref="423812405"/>
    <nd ref="423812409"/>
    <tag k="highway" v="residential"/>
    <tag k="maxspeed" v="50"/>
    <tag k="maxspeed:source" v="default residential speed limit in Australia"/>
    <tag k="name" v="Calypso Retreat"/>
    <tag k="source" v="survey"/>
  </way>
  <way id="36335561" version="5" timestamp="2012-01-18T23:31:17Z" uid="147510" user="woodpeck_fixbot" changeset="10432847">
    <nd ref="423812389"/>
    <nd ref="423812392"/>
    <nd ref="423812393"/>
    <nd ref="423812394"/>
    <nd ref="423812401"/>
    <nd ref="423812405"/>
    <nd ref="423812409"/>
    <tag k="highway" v="residential"/>
    <tag k="name" v="Calypso Retreat"/>
    <tag k="source" v="survey"/>
  </way>
  <way id="36335562" version="4" timestamp="2010-07-09T07:51:43Z" uid="74617" user="JohnSmith" changeset="5171569">
    <nd ref="423812296"/>
    <nd ref="423812419"/>
    <nd ref="423812422"/>
    <nd ref="423812426"/>
    <nd ref="423812429"/>
    <nd ref="423812431"/>
    <nd ref="423812438"/>
    <nd ref="423812441"/>
    <nd ref="423812444"/>
    <nd ref="423812447"/>
    <nd ref="423812450"/>
    <tag k="highway" v="residential"/>
    <tag k="maxspeed" v="50"/>
    <tag k="maxspeed:source" v="default residential speed limit in Australia"/>
    <tag k="name" v="Fleetwing Heights"/>
    <tag k="source" v="survey"/>
  </way>
  <way id="36335562" version="5" timestamp="2012-01-18T23:31:18Z" uid="147510" user="woodpeck_fixbot" changeset="10432847">
    <nd ref="423812296"/>
    <nd ref="423812419"/>
    <nd ref="423812422"/>
    <nd ref="423812426"/>
    <nd ref="423812429"/>
    <nd ref="423812431"/>
    <nd ref="423812438"/>
    <nd ref="423812441"/>
    <nd ref="423812444"/>
    <nd ref="423812447"/>
    <nd ref="423812450"/>
    <tag k="highway" v="residential"/>
    <tag k="name" v="Fleetwing Heights"/>
    <tag k="source" v="survey"/>
  </way>
  <way id="36335563" version="4" timestamp="2010-07-09T07:49:30Z" uid="74617" user="JohnSmith" changeset="5171569">
    <nd ref="423812393"/>
    <nd ref="423812451"/>
    <tag k="highway" v="residential"/>
    <tag k="maxspeed" v="50"/>
    <tag k="maxspeed:source" v="default residential speed limit in Australia"/>
    <tag k="name" v="Thor Court"/>
    <tag k="source" v="survey"/>
  </way>
  <way id="36335563" version="5" timestamp="2012-01-18T23:31:19Z" uid="147510" user="woodpeck_fixbot" changeset="10432847">
    <nd ref="423812393"/>
    <nd ref="423812451"/>
    <tag k="highway" v="residential"/>
    <tag k="name" v="Thor Court"/>
    <tag k="source" v="survey"/>
  </way>
  <way id="36335564" version="4" timestamp="2010-07-09T07:48:52Z" uid="74617" user="JohnSmith" changeset="5171569">
    <nd ref="423812438"/>
    <nd ref="423812452"/>
    <tag k="highway" v="residential"/>
    <tag k="maxspeed" v="50"/>
    <tag k="maxspeed:source" v="default residential speed limit in Australia"/>
    <tag k="name" v="Plymouth Cove"/>
    <tag k="source" v="survey"/>
  </way>
  <way id="36335564" version="5" timestamp="2012-01-18T23:31:19Z" uid="147510" user="woodpeck_fixbot" changeset="10432847">
    <nd ref="423812438"/>
    <nd ref="423812452"/>
    <tag k="highway" v="residential"/>
    <tag k="name" v="Plymouth Cove"/>
    <tag k="source" v="survey"/>
  </way>
  <way id="36335565" version="4" timestamp="2010-07-09T07:46:17Z" uid="74617" user="JohnSmith" changeset="5171569">
    <nd ref="423812422"/>
    <nd ref="423812460"/>
    <tag k="highway" v="residential"/>
    <tag k="maxspeed" v="50"/>
    <tag k="maxspeed:source" v="default residential speed limit in Australia"/>
    <tag k="name" v="Pegasus Rise"/>
    <tag k="source" v="survey"/>
  </way>
  <way id="36335565" version="5" timestamp="2012-01-18T23:31:21Z" uid="147510" user="woodpeck_fixbot" changeset="10432847">
    <nd ref="423812422"/>
    <nd ref="423812460"/>
    <tag k="highway" v="residential"/>
    <tag k="name" v="Pegasus Rise"/>
    <tag k="source" v="survey"/>
  </way>
  <way id="36335773" version="1" timestamp="2009-06-18T11:41:58Z" uid="36809" user="pfoten_weg_!_" changeset="1553856">
    <nd ref="423814138"/>
    <nd ref="423814141"/>
    <nd ref="423814186"/>
    <nd ref="423814116"/>
    <nd ref="423814086"/>
    <nd ref="423814149"/>
    <nd ref="423814167"/>
    <nd ref="423814103"/>
    <nd ref="423814048"/>
    <nd ref="423814053"/>
    <nd ref="423814045"/>
    <nd ref="423814129"/>
    <nd ref="423814137"/>
    <nd ref="423814042"/>
    <nd ref="423814094"/>
    <tag k="addr:street" v="Eben/Pertisau"/>
    <tag k="created_by" v="RambaZamba"/>
    <tag k="highway" v="tertiary"/>
    <tag k="layer" v="0"/>
    <tag k="name" v="Eben / Pertisau"/>
    <tag k="source" v="survey"/>
    <tag k="surface" v="paved"/>
    <tag k="width" v="6"/>
  </way>
  <way id="36335773" version="2" timestamp="2009-08-28T20:12:34Z" uid="156995" user="HampelZamba" changeset="2294580">
    <nd ref="423814138"/>
    <nd ref="423814141"/>
    <nd ref="423814186"/>
    <nd ref="423814116"/>
    <nd ref="423814086"/>
    <nd ref="423814149"/>
    <nd ref="423814167"/>
    <nd ref="423814103"/>
    <nd ref="423814048"/>
    <nd ref="423814053"/>
    <nd ref="423814045"/>
    <nd ref="423814129"/>
    <nd ref="423814137"/>
    <nd ref="423814042"/>
    <nd ref="423814094"/>
    <tag k="addr:street" v="Eben/Pertisau"/>
    <tag k="highway" v="tertiary"/>
    <tag k="layer" v="0"/>
    <tag k="name" v="Eben / Pertisau"/>
    <tag k="source" v="survey"/>
    <tag k="surface" v="paved"/>
    <tag k="width" v="6"/>
  </way>
  <way id="36335773" version="3" timestamp="2009-08-28T22:39:32Z" uid="36809" user="pfoten_weg_!_" changeset="2295972">
    <nd ref="423814138"/>
    <nd ref="423814141"/>
    <nd ref="423814186"/>
    <nd ref="423814116"/>
    <nd ref="423814086"/>
    <nd ref="423814149"/>
    <nd ref="423814167"/>
    <nd ref="423814103"/>
    <nd ref="423814048"/>
    <nd ref="423814053"/>
    <nd ref="423814045"/>
    <nd ref="423814129"/>
    <nd ref="423814137"/>
    <nd ref="423814042"/>
    <nd ref="423814094"/>
    <tag k="addr:street" v="Eben/Pertisau"/>
    <tag k="discovered_by" v="RambaZamba"/>
    <tag k="highway" v="tertiary"/>
    <tag k="layer" v="0"/>
    <tag k="name" v="Eben / Pertisau"/>
    <tag k="source" v="survey"/>
    <tag k="surface" v="paved"/>
    <tag k="width" v="6"/>
  </way>
  <way id="36335773" version="4" timestamp="2009-08-30T09:37:45Z" uid="156995" user="HampelZamba" changeset="2310659">
    <nd ref="423814138"/>
    <nd ref="423814141"/>
    <nd ref="423814186"/>
    <nd ref="423814116"/>
    <nd ref="423814086"/>
    <nd ref="423814149"/>
    <nd ref="423814167"/>
    <nd ref="423814103"/>
    <nd ref="423814048"/>
    <nd ref="423814053"/>
    <nd ref="423814045"/>
    <nd ref="423814129"/>
    <nd ref="423814137"/>
    <nd ref="423814042"/>
    <nd ref="423814094"/>
    <tag k="addr:street" v="Eben/Pertisau"/>
    <tag k="highway" v="tertiary"/>
    <tag k="layer" v="0"/>
    <tag k="name" v="Eben / Pertisau"/>
    <tag k="source" v="survey"/>
    <tag k="surface" v="paved"/>
    <tag k="width" v="6"/>
  </way>
  <way id="36335773" version="5" timestamp="2009-08-31T12:04:03Z" uid="64924" user="leck_mich_alle_am_arsch" changeset="2325486">
    <nd ref="423814138"/>
    <nd ref="423814141"/>
    <nd ref="423814186"/>
    <nd ref="423814116"/>
    <nd ref="423814086"/>
    <nd ref="423814149"/>
    <nd ref="423814167"/>
    <nd ref="423814103"/>
    <nd ref="423814048"/>
    <nd ref="423814053"/>
    <nd ref="423814045"/>
    <nd ref="423814129"/>
    <nd ref="423814137"/>
    <nd ref="423814042"/>
    <nd ref="423814094"/>
    <tag k="addr:street" v="Eben/Pertisau"/>
    <tag k="highway" v="tertiary"/>
    <tag k="layer" v="0"/>
    <tag k="name" v="Eben / Pertisau"/>
    <tag k="source" v="survey"/>
    <tag k="surface" v="paved"/>
    <tag k="width" v="6"/>
  </way>
  <way id="36335773" version="6" timestamp="2009-09-05T09:44:37Z" uid="63388" user="Dennis[B]" changeset="2378599">
    <nd ref="423814138"/>
    <nd ref="423814141"/>
    <nd ref="423814186"/>
    <nd ref="423814116"/>
    <nd ref="423814086"/>
    <nd ref="423814149"/>
    <nd ref="423814167"/>
    <nd ref="423814103"/>
    <nd ref="423814048"/>
    <nd ref="423814053"/>
    <nd ref="423814045"/>
    <nd ref="423814129"/>
    <nd ref="281450585"/>
    <nd ref="423814042"/>
    <nd ref="423814094"/>
    <tag k="addr:street" v="Eben/Pertisau"/>
    <tag k="highway" v="tertiary"/>
    <tag k="layer" v="0"/>
    <tag k="name" v="Eben / Pertisau"/>
    <tag k="source" v="survey"/>
    <tag k="surface" v="paved"/>
    <tag k="width" v="6"/>
  </way>
  <way id="36335773" version="7" timestamp="2009-09-06T06:52:23Z" uid="110263" user="werner2101" changeset="2387475">
    <nd ref="423814138"/>
    <nd ref="423814141"/>
    <nd ref="423814186"/>
    <nd ref="423814116"/>
    <nd ref="423814086"/>
    <nd ref="423814149"/>
    <nd ref="423814167"/>
    <nd ref="423814103"/>
    <nd ref="423814048"/>
    <nd ref="423814053"/>
    <nd ref="423814045"/>
    <nd ref="423814129"/>
    <nd ref="281450585"/>
    <nd ref="423814042"/>
    <nd ref="281450536"/>
    <tag k="addr:street" v="Eben/Pertisau"/>
    <tag k="highway" v="tertiary"/>
    <tag k="layer" v="0"/>
    <tag k="name" v="Eben / Pertisau"/>
    <tag k="source" v="survey"/>
    <tag k="surface" v="paved"/>
    <tag k="width" v="6"/>
  </way>
  <way id="36335773" version="8" timestamp="2009-10-15T17:44:48Z" uid="36809" user="pfoten_weg_!_" changeset="2857288"/>
  <way id="36335871" version="1" timestamp="2009-06-18T11:45:21Z" uid="36809" user="pfoten_weg_!_" changeset="1553883">
    <nd ref="422747861"/>
    <nd ref="423815791"/>
    <nd ref="423815807"/>
    <nd ref="423815805"/>
    <nd ref="423815785"/>
    <nd ref="423815786"/>
    <nd ref="423815796"/>
    <nd ref="423815801"/>
    <nd ref="423815809"/>
    <nd ref="423815783"/>
    <nd ref="423815793"/>
    <nd ref="423815799"/>
    <nd ref="423815808"/>
    <nd ref="423815810"/>
    <nd ref="423815795"/>
    <nd ref="423815802"/>
    <nd ref="423815800"/>
    <nd ref="423815788"/>
    <nd ref="423815804"/>
    <nd ref="423815806"/>
    <nd ref="423815803"/>
    <nd ref="423815798"/>
    <nd ref="423815790"/>
    <nd ref="422748773"/>
    <tag k="created_by" v="RambaZamba"/>
    <tag k="highway" v="service"/>
    <tag k="layer" v="0"/>
    <tag k="name" v="Eben / Pertisau"/>
    <tag k="source" v="survey"/>
    <tag k="width" v="4"/>
  </way>
  <way id="36335871" version="2" timestamp="2009-08-28T20:12:34Z" uid="156995" user="HampelZamba" changeset="2294580">
    <nd ref="422747861"/>
    <nd ref="423815791"/>
    <nd ref="423815807"/>
    <nd ref="423815805"/>
    <nd ref="423815785"/>
    <nd ref="423815786"/>
    <nd ref="423815796"/>
    <nd ref="423815801"/>
    <nd ref="423815809"/>
    <nd ref="423815783"/>
    <nd ref="423815793"/>
    <nd ref="423815799"/>
    <nd ref="423815808"/>
    <nd ref="423815810"/>
    <nd ref="423815795"/>
    <nd ref="423815802"/>
    <nd ref="423815800"/>
    <nd ref="423815788"/>
    <nd ref="423815804"/>
    <nd ref="423815806"/>
    <nd ref="423815803"/>
    <nd ref="423815798"/>
    <nd ref="423815790"/>
    <nd ref="422748773"/>
    <tag k="highway" v="service"/>
    <tag k="layer" v="0"/>
    <tag k="name" v="Eben / Pertisau"/>
    <tag k="source" v="survey"/>
    <tag k="width" v="4"/>
  </way>
  <way id="36335871" version="3" timestamp="2009-08-28T22:38:31Z" uid="36809" user="pfoten_weg_!_" changeset="2295972">
    <nd ref="422747861"/>
    <nd ref="423815791"/>
    <nd ref="423815807"/>
    <nd ref="423815805"/>
    <nd ref="423815785"/>
    <nd ref="423815786"/>
    <nd ref="423815796"/>
    <nd ref="423815801"/>
    <nd ref="423815809"/>
    <nd ref="423815783"/>
    <nd ref="423815793"/>
    <nd ref="423815799"/>
    <nd ref="423815808"/>
    <nd ref="423815810"/>
    <nd ref="423815795"/>
    <nd ref="423815802"/>
    <nd ref="423815800"/>
    <nd ref="423815788"/>
    <nd ref="423815804"/>
    <nd ref="423815806"/>
    <nd ref="423815803"/>
    <nd ref="423815798"/>
    <nd ref="423815790"/>
    <nd ref="422748773"/>
    <tag k="discovered_by" v="RambaZamba"/>
    <tag k="highway" v="service"/>
    <tag k="layer" v="0"/>
    <tag k="name" v="Eben / Pertisau"/>
    <tag k="source" v="survey"/>
    <tag k="width" v="4"/>
  </way>
  <way id="36335871" version="4" timestamp="2009-08-30T09:37:46Z" uid="156995" user="HampelZamba" changeset="2310659">
    <nd ref="422747861"/>
    <nd ref="423815791"/>
    <nd ref="423815807"/>
    <nd ref="423815805"/>
    <nd ref="423815785"/>
    <nd ref="423815786"/>
    <nd ref="423815796"/>
    <nd ref="423815801"/>
    <nd ref="423815809"/>
    <nd ref="423815783"/>
    <nd ref="423815793"/>
    <nd ref="423815799"/>
    <nd ref="423815808"/>
    <nd ref="423815810"/>
    <nd ref="423815795"/>
    <nd ref="423815802"/>
    <nd ref="423815800"/>
    <nd ref="423815788"/>
    <nd ref="423815804"/>
    <nd ref="423815806"/>
    <nd ref="423815803"/>
    <nd ref="423815798"/>
    <nd ref="423815790"/>
    <nd ref="422748773"/>
    <tag k="highway" v="service"/>
    <tag k="layer" v="0"/>
    <tag k="name" v="Eben / Pertisau"/>
    <tag k="source" v="survey"/>
    <tag k="width" v="4"/>
  </way>
  <way id="36335871" version="5" timestamp="2009-08-31T12:04:07Z" uid="64924" user="leck_mich_alle_am_arsch" changeset="2325486">
    <nd ref="422747861"/>
    <nd ref="423815791"/>
    <nd ref="423815807"/>
    <nd ref="423815805"/>
    <nd ref="423815785"/>
    <nd ref="423815786"/>
    <nd ref="423815796"/>
    <nd ref="423815801"/>
    <nd ref="423815809"/>
    <nd ref="423815783"/>
    <nd ref="423815793"/>
    <nd ref="423815799"/>
    <nd ref="423815808"/>
    <nd ref="423815810"/>
    <nd ref="423815795"/>
    <nd ref="423815802"/>
    <nd ref="423815800"/>
    <nd ref="423815788"/>
    <nd ref="423815804"/>
    <nd ref="423815806"/>
    <nd ref="423815803"/>
    <nd ref="423815798"/>
    <nd ref="423815790"/>
    <nd ref="422748773"/>
    <tag k="highway" v="service"/>
    <tag k="layer" v="0"/>
    <tag k="name" v="Eben / Pertisau"/>
    <tag k="source" v="survey"/>
    <tag k="width" v="4"/>
  </way>
  <way id="36335871" version="6" timestamp="2009-10-10T10:45:29Z" uid="32786" user="Netzwolf" changeset="2802200">
    <nd ref="422747861"/>
    <nd ref="423815791"/>
    <nd ref="423815807"/>
    <nd ref="423815805"/>
    <nd ref="423815785"/>
    <nd ref="423815786"/>
    <nd ref="423815796"/>
    <nd ref="423815801"/>
    <nd ref="423815809"/>
    <nd ref="423815783"/>
    <nd ref="423815793"/>
    <nd ref="423815799"/>
    <nd ref="423815808"/>
    <nd ref="423815810"/>
    <nd ref="423815795"/>
    <nd ref="423815802"/>
    <nd ref="423815800"/>
    <nd ref="423815788"/>
    <nd ref="423815804"/>
    <nd ref="423815806"/>
    <nd ref="423815803"/>
    <nd ref="423815798"/>
    <nd ref="423815790"/>
    <nd ref="422748773"/>
    <tag k="highway" v="service"/>
    <tag k="layer" v="0"/>
    <tag k="name" v="Eben / Pertisau"/>
    <tag k="source" v="survey"/>
    <tag k="width" v="4"/>
  </way>
  <way id="36335871" version="7" timestamp="2009-10-15T18:07:49Z" uid="36809" user="pfoten_weg_!_" changeset="2857512">
    <nd ref="422747861"/>
    <nd ref="423815791"/>
    <nd ref="423815807"/>
    <nd ref="423815805"/>
    <nd ref="423815785"/>
    <nd ref="423815786"/>
    <nd ref="423815796"/>
    <nd ref="423815801"/>
    <nd ref="423815809"/>
    <nd ref="423815783"/>
    <nd ref="423815793"/>
    <nd ref="423815799"/>
    <nd ref="423815808"/>
    <nd ref="423815810"/>
    <nd ref="423815795"/>
    <nd ref="423815802"/>
    <nd ref="423815800"/>
    <nd ref="423815788"/>
    <nd ref="423815804"/>
    <nd ref="423815806"/>
    <nd ref="423815803"/>
    <nd ref="423815798"/>
    <nd ref="423815790"/>
    <nd ref="422748773"/>
    <tag k="highway" v="service"/>
    <tag k="layer" v="0"/>
    <tag k="name" v="Eben / Pertisau"/>
    <tag k="width" v="4"/>
  </way>
  <way id="36335871" version="8" timestamp="2009-10-15T18:17:26Z" uid="36809" user="pfoten_weg_!_" changeset="2857719"/>
  <way id="36335943" version="4" timestamp="2010-07-09T07:46:48Z" uid="74617" user="JohnSmith" changeset="5171569">
    <nd ref="33699192"/>
    <nd ref="423816239"/>
    <nd ref="423816240"/>
    <nd ref="423816241"/>
    <nd ref="423816242"/>
    <nd ref="423816243"/>
    <nd ref="423816244"/>
    <tag k="highway" v="residential"/>
    <tag k="maxspeed" v="50"/>
    <tag k="maxspeed:source" v="default residential speed limit in Australia"/>
    <tag k="name" v="Kylena Glade"/>
    <tag k="source" v="survey"/>
  </way>
  <way id="36335943" version="5" timestamp="2012-01-18T23:31:22Z" uid="147510" user="woodpeck_fixbot" changeset="10432847">
    <nd ref="33699192"/>
    <nd ref="423816239"/>
    <nd ref="423816240"/>
    <nd ref="423816241"/>
    <nd ref="423816242"/>
    <nd ref="423816243"/>
    <nd ref="423816244"/>
    <tag k="highway" v="residential"/>
    <tag k="name" v="Kylena Glade"/>
    <tag k="source" v="survey"/>
  </way>
  <way id="36335944" version="5" timestamp="2010-07-09T07:46:02Z" uid="74617" user="JohnSmith" changeset="5171569">
    <nd ref="423816238"/>
    <nd ref="423816245"/>
    <nd ref="423816246"/>
    <nd ref="624194405"/>
    <nd ref="624194770"/>
    <nd ref="624194773"/>
    <nd ref="423816247"/>
    <tag k="highway" v="residential"/>
    <tag k="maxspeed" v="50"/>
    <tag k="maxspeed:source" v="default residential speed limit in Australia"/>
    <tag k="name" v="Aurora Grove"/>
    <tag k="source" v="survey"/>
  </way>
  <way id="36335944" version="6" timestamp="2012-01-18T23:31:23Z" uid="147510" user="woodpeck_fixbot" changeset="10432847">
    <nd ref="423816238"/>
    <nd ref="423816245"/>
    <nd ref="423816246"/>
    <nd ref="624194405"/>
    <nd ref="624194770"/>
    <nd ref="624194773"/>
    <nd ref="423816247"/>
    <tag k="highway" v="residential"/>
    <tag k="name" v="Aurora Grove"/>
    <tag k="source" v="survey"/>
  </way>
  <way id="36335945" version="4" timestamp="2010-07-09T07:43:18Z" uid="74617" user="JohnSmith" changeset="5171569">
    <nd ref="33699196"/>
    <nd ref="423816248"/>
    <nd ref="423816249"/>
    <nd ref="423816250"/>
    <nd ref="423816251"/>
    <tag k="highway" v="residential"/>
    <tag k="maxspeed" v="50"/>
    <tag k="maxspeed:source" v="default residential speed limit in Australia"/>
    <tag k="name" v="Halcyon Place"/>
    <tag k="source" v="survey"/>
  </way>
  <way id="36335945" version="5" timestamp="2012-01-18T23:31:24Z" uid="147510" user="woodpeck_fixbot" changeset="10432847">
    <nd ref="33699196"/>
    <nd ref="423816248"/>
    <nd ref="423816249"/>
    <nd ref="423816250"/>
    <nd ref="423816251"/>
    <tag k="highway" v="residential"/>
    <tag k="name" v="Halcyon Place"/>
    <tag k="source" v="survey"/>
  </way>
  <way id="36335946" version="4" timestamp="2010-07-09T07:51:00Z" uid="74617" user="JohnSmith" changeset="5171569">
    <nd ref="423816248"/>
    <nd ref="423816252"/>
    <tag k="highway" v="residential"/>
    <tag k="maxspeed" v="50"/>
    <tag k="maxspeed:source" v="default residential speed limit in Australia"/>
    <tag k="name" v="Arne Court"/>
    <tag k="source" v="survey"/>
  </way>
  <way id="36335946" version="5" timestamp="2012-01-18T23:31:24Z" uid="147510" user="woodpeck_fixbot" changeset="10432847">
    <nd ref="423816248"/>
    <nd ref="423816252"/>
    <tag k="highway" v="residential"/>
    <tag k="name" v="Arne Court"/>
    <tag k="source" v="survey"/>
  </way>
  <way id="36335947" version="5" timestamp="2010-07-09T07:48:37Z" uid="74617" user="JohnSmith" changeset="5171569">
    <nd ref="423816269"/>
    <nd ref="423816278"/>
    <nd ref="423816279"/>
    <nd ref="423816280"/>
    <nd ref="423816281"/>
    <nd ref="423816282"/>
    <nd ref="624005810"/>
    <nd ref="624005814"/>
    <nd ref="423816283"/>
    <nd ref="624103550"/>
    <nd ref="423816287"/>
    <nd ref="624103556"/>
    <nd ref="624103361"/>
    <tag k="highway" v="residential"/>
    <tag k="maxspeed" v="50"/>
    <tag k="maxspeed:source" v="default residential speed limit in Australia"/>
    <tag k="name" v="Carroo Heights"/>
    <tag k="source" v="survey"/>
  </way>
  <way id="36335947" version="6" timestamp="2012-01-18T23:31:25Z" uid="147510" user="woodpeck_fixbot" changeset="10432847">
    <nd ref="423816269"/>
    <nd ref="423816278"/>
    <nd ref="423816279"/>
    <nd ref="423816280"/>
    <nd ref="423816281"/>
    <nd ref="423816282"/>
    <nd ref="624005810"/>
    <nd ref="624005814"/>
    <nd ref="423816283"/>
    <nd ref="624103550"/>
    <nd ref="423816287"/>
    <nd ref="624103556"/>
    <nd ref="624103361"/>
    <tag k="highway" v="residential"/>
    <tag k="name" v="Carroo Heights"/>
    <tag k="source" v="survey"/>
  </way>
  <way id="36335948" version="4" timestamp="2010-07-09T07:47:57Z" uid="74617" user="JohnSmith" changeset="5171569">
    <nd ref="423816256"/>
    <nd ref="423816259"/>
    <nd ref="423816260"/>
    <tag k="highway" v="residential"/>
    <tag k="maxspeed" v="50"/>
    <tag k="maxspeed:source" v="default residential speed limit in Australia"/>
    <tag k="name" v="Wesbank Vista"/>
    <tag k="source" v="survey"/>
  </way>
  <way id="36335948" version="5" timestamp="2012-01-18T23:31:26Z" uid="147510" user="woodpeck_fixbot" changeset="10432847">
    <nd ref="423816256"/>
    <nd ref="423816259"/>
    <nd ref="423816260"/>
    <tag k="highway" v="residential"/>
    <tag k="name" v="Wesbank Vista"/>
    <tag k="source" v="survey"/>
  </way>
  <way id="36335949" version="5" timestamp="2010-07-09T07:45:21Z" uid="74617" user="JohnSmith" changeset="5171569">
    <nd ref="423816261"/>
    <nd ref="423816258"/>
    <nd ref="624194999"/>
    <nd ref="423816262"/>
    <tag k="highway" v="residential"/>
    <tag k="maxspeed" v="50"/>
    <tag k="maxspeed:source" v="default residential speed limit in Australia"/>
    <tag k="name" v="Velsheda Green"/>
    <tag k="source" v="survey"/>
  </way>
  <way id="36335949" version="6" timestamp="2012-01-18T23:31:27Z" uid="147510" user="woodpeck_fixbot" changeset="10432847">
    <nd ref="423816261"/>
    <nd ref="423816258"/>
    <nd ref="624194999"/>
    <nd ref="423816262"/>
    <tag k="highway" v="residential"/>
    <tag k="name" v="Velsheda Green"/>
    <tag k="source" v="survey"/>
  </way>
  <way id="36335951" version="6" timestamp="2010-07-09T07:50:22Z" uid="74617" user="JohnSmith" changeset="5171569">
    <nd ref="31400459"/>
    <nd ref="624184549"/>
    <nd ref="423816265"/>
    <nd ref="423816266"/>
    <nd ref="423816267"/>
    <nd ref="624005808"/>
    <nd ref="423816268"/>
    <nd ref="624096812"/>
    <nd ref="423816269"/>
    <nd ref="624096807"/>
    <nd ref="423816270"/>
    <nd ref="423816271"/>
    <nd ref="423816272"/>
    <nd ref="423816273"/>
    <nd ref="423816274"/>
    <nd ref="423816275"/>
    <nd ref="423816276"/>
    <nd ref="423816277"/>
    <nd ref="31400450"/>
    <tag k="highway" v="residential"/>
    <tag k="maxspeed" v="50"/>
    <tag k="maxspeed:source" v="default residential speed limit in Australia"/>
    <tag k="name" v="Beaumaris Boulevard"/>
    <tag k="source" v="survey"/>
  </way>
  <way id="36335951" version="7" timestamp="2012-01-18T23:31:29Z" uid="147510" user="woodpeck_fixbot" changeset="10432847">
    <nd ref="31400459"/>
    <nd ref="624184549"/>
    <nd ref="423816265"/>
    <nd ref="423816266"/>
    <nd ref="423816267"/>
    <nd ref="624005808"/>
    <nd ref="423816268"/>
    <nd ref="624096812"/>
    <nd ref="423816269"/>
    <nd ref="624096807"/>
    <nd ref="423816270"/>
    <nd ref="423816271"/>
    <nd ref="423816272"/>
    <nd ref="423816273"/>
    <nd ref="423816274"/>
    <nd ref="423816275"/>
    <nd ref="423816276"/>
    <nd ref="423816277"/>
    <nd ref="31400450"/>
    <tag k="highway" v="residential"/>
    <tag k="name" v="Beaumaris Boulevard"/>
    <tag k="source" v="survey"/>
  </way>
  <way id="36335957" version="4" timestamp="2010-07-09T07:46:16Z" uid="74617" user="JohnSmith" changeset="5171569">
    <nd ref="423816281"/>
    <nd ref="423816288"/>
    <tag k="highway" v="residential"/>
    <tag k="maxspeed" v="50"/>
    <tag k="maxspeed:source" v="default residential speed limit in Australia"/>
    <tag k="name" v="Ulta Rise"/>
    <tag k="source" v="survey"/>
  </way>
  <way id="36335957" version="5" timestamp="2012-01-18T23:31:30Z" uid="147510" user="woodpeck_fixbot" changeset="10432847">
    <nd ref="423816281"/>
    <nd ref="423816288"/>
    <tag k="highway" v="residential"/>
    <tag k="name" v="Ulta Rise"/>
    <tag k="source" v="survey"/>
  </way>
  <way id="36335958" version="4" timestamp="2010-07-09T07:53:16Z" uid="74617" user="JohnSmith" changeset="5171569">
    <nd ref="423816271"/>
    <nd ref="423816289"/>
    <tag k="highway" v="residential"/>
    <tag k="maxspeed" v="50"/>
    <tag k="maxspeed:source" v="default residential speed limit in Australia"/>
    <tag k="name" v="Oorama Court"/>
    <tag k="source" v="survey"/>
  </way>
  <way id="36335958" version="5" timestamp="2012-01-18T23:31:31Z" uid="147510" user="woodpeck_fixbot" changeset="10432847">
    <nd ref="423816271"/>
    <nd ref="423816289"/>
    <tag k="highway" v="residential"/>
    <tag k="name" v="Oorama Court"/>
    <tag k="source" v="survey"/>
  </way>
  <way id="36335959" version="4" timestamp="2010-07-09T07:51:11Z" uid="74617" user="JohnSmith" changeset="5171569">
    <nd ref="423816273"/>
    <nd ref="423816290"/>
    <nd ref="423816291"/>
    <nd ref="423816292"/>
    <nd ref="423816293"/>
    <nd ref="423816294"/>
    <nd ref="423816295"/>
    <nd ref="423816296"/>
    <nd ref="423816297"/>
    <tag k="highway" v="residential"/>
    <tag k="maxspeed" v="50"/>
    <tag k="maxspeed:source" v="default residential speed limit in Australia"/>
    <tag k="name" v="Troubridge Retreat"/>
    <tag k="source" v="survey"/>
  </way>
  <way id="36335959" version="5" timestamp="2012-01-18T23:31:32Z" uid="147510" user="woodpeck_fixbot" changeset="10432847">
    <nd ref="423816273"/>
    <nd ref="423816290"/>
    <nd ref="423816291"/>
    <nd ref="423816292"/>
    <nd ref="423816293"/>
    <nd ref="423816294"/>
    <nd ref="423816295"/>
    <nd ref="423816296"/>
    <nd ref="423816297"/>
    <tag k="highway" v="residential"/>
    <tag k="name" v="Troubridge Retreat"/>
    <tag k="source" v="survey"/>
  </way>
  <way id="36335961" version="5" timestamp="2010-07-09T07:48:11Z" uid="74617" user="JohnSmith" changeset="5171569">
    <nd ref="423816276"/>
    <nd ref="624097152"/>
    <nd ref="423816299"/>
    <nd ref="423816300"/>
    <nd ref="423816301"/>
    <nd ref="423816302"/>
    <nd ref="423816303"/>
    <nd ref="423816304"/>
    <nd ref="423816305"/>
    <nd ref="423816306"/>
    <nd ref="423816307"/>
    <nd ref="423816308"/>
    <tag k="highway" v="residential"/>
    <tag k="maxspeed" v="50"/>
    <tag k="maxspeed:source" v="default residential speed limit in Australia"/>
    <tag k="name" v="Bankfield Retreat"/>
    <tag k="source" v="survey"/>
  </way>
  <way id="36335961" version="6" timestamp="2012-01-18T23:31:32Z" uid="147510" user="woodpeck_fixbot" changeset="10432847">
    <nd ref="423816276"/>
    <nd ref="624097152"/>
    <nd ref="423816299"/>
    <nd ref="423816300"/>
    <nd ref="423816301"/>
    <nd ref="423816302"/>
    <nd ref="423816303"/>
    <nd ref="423816304"/>
    <nd ref="423816305"/>
    <nd ref="423816306"/>
    <nd ref="423816307"/>
    <nd ref="423816308"/>
    <tag k="highway" v="residential"/>
    <tag k="name" v="Bankfield Retreat"/>
    <tag k="source" v="survey"/>
  </way>
  <way id="36335962" version="4" timestamp="2010-07-09T07:43:35Z" uid="74617" user="JohnSmith" changeset="5171569">
    <nd ref="423816307"/>
    <nd ref="423816309"/>
    <nd ref="423816310"/>
    <nd ref="423816311"/>
    <tag k="highway" v="residential"/>
    <tag k="maxspeed" v="50"/>
    <tag k="maxspeed:source" v="default residential speed limit in Australia"/>
    <tag k="name" v="Barrier Green"/>
    <tag k="source" v="survey"/>
  </way>
  <way id="36335962" version="5" timestamp="2012-01-18T23:31:33Z" uid="147510" user="woodpeck_fixbot" changeset="10432847">
    <nd ref="423816307"/>
    <nd ref="423816309"/>
    <nd ref="423816310"/>
    <nd ref="423816311"/>
    <tag k="highway" v="residential"/>
    <tag k="name" v="Barrier Green"/>
    <tag k="source" v="survey"/>
  </way>
  <way id="36335963" version="4" timestamp="2010-07-09T07:52:44Z" uid="74617" user="JohnSmith" changeset="5171569">
    <nd ref="423816300"/>
    <nd ref="423816312"/>
    <nd ref="423816313"/>
    <tag k="highway" v="residential"/>
    <tag k="maxspeed" v="50"/>
    <tag k="maxspeed:source" v="default residential speed limit in Australia"/>
    <tag k="name" v="Korana Close"/>
    <tag k="source" v="survey"/>
  </way>
  <way id="36335963" version="5" timestamp="2012-01-18T23:31:34Z" uid="147510" user="woodpeck_fixbot" changeset="10432847">
    <nd ref="423816300"/>
    <nd ref="423816312"/>
    <nd ref="423816313"/>
    <tag k="highway" v="residential"/>
    <tag k="name" v="Korana Close"/>
    <tag k="source" v="survey"/>
  </way>
  <way id="36335964" version="3" timestamp="2010-07-09T07:52:02Z" uid="74617" user="JohnSmith" changeset="5171569">
    <nd ref="423816237"/>
    <nd ref="423816314"/>
    <tag k="highway" v="residential"/>
    <tag k="maxspeed" v="50"/>
    <tag k="maxspeed:source" v="default residential speed limit in Australia"/>
    <tag k="name" v="Belmore Garden"/>
    <tag k="source" v="survey"/>
  </way>
  <way id="36335964" version="4" timestamp="2012-01-18T23:31:35Z" uid="147510" user="woodpeck_fixbot" changeset="10432847">
    <nd ref="423816237"/>
    <nd ref="423816314"/>
    <tag k="highway" v="residential"/>
    <tag k="name" v="Belmore Garden"/>
    <tag k="source" v="survey"/>
  </way>
  <way id="36335965" version="4" timestamp="2010-07-09T07:49:57Z" uid="74617" user="JohnSmith" changeset="5171569">
    <nd ref="423816236"/>
    <nd ref="423816315"/>
    <tag k="highway" v="residential"/>
    <tag k="maxspeed" v="50"/>
    <tag k="maxspeed:source" v="default residential speed limit in Australia"/>
    <tag k="name" v="Minstrel Way"/>
    <tag k="source" v="survey"/>
  </way>
  <way id="36335965" version="5" timestamp="2012-01-18T23:31:36Z" uid="147510" user="woodpeck_fixbot" changeset="10432847">
    <nd ref="423816236"/>
    <nd ref="423816315"/>
    <tag k="highway" v="residential"/>
    <tag k="name" v="Minstrel Way"/>
    <tag k="source" v="survey"/>
  </way>
  <way id="36335966" version="5" timestamp="2010-07-09T07:45:38Z" uid="74617" user="JohnSmith" changeset="5171569">
    <nd ref="423816316"/>
    <nd ref="624194906"/>
    <nd ref="423816317"/>
    <nd ref="423816318"/>
    <nd ref="423816315"/>
    <nd ref="423816319"/>
    <tag k="highway" v="residential"/>
    <tag k="maxspeed" v="50"/>
    <tag k="maxspeed:source" v="default residential speed limit in Australia"/>
    <tag k="name" v="Mabena Place"/>
    <tag k="source" v="survey"/>
  </way>
  <way id="36335966" version="6" timestamp="2012-01-18T23:31:37Z" uid="147510" user="woodpeck_fixbot" changeset="10432847">
    <nd ref="423816316"/>
    <nd ref="624194906"/>
    <nd ref="423816317"/>
    <nd ref="423816318"/>
    <nd ref="423816315"/>
    <nd ref="423816319"/>
    <tag k="highway" v="residential"/>
    <tag k="name" v="Mabena Place"/>
    <tag k="source" v="survey"/>
  </way>
  <way id="36335967" version="4" timestamp="2010-07-09T07:42:48Z" uid="74617" user="JohnSmith" changeset="5171569">
    <nd ref="423816317"/>
    <nd ref="423816320"/>
    <tag k="highway" v="residential"/>
    <tag k="maxspeed" v="50"/>
    <tag k="maxspeed:source" v="default residential speed limit in Australia"/>
    <tag k="name" v="Astra Court"/>
    <tag k="source" v="survey"/>
  </way>
  <way id="36335967" version="5" timestamp="2012-01-18T23:31:37Z" uid="147510" user="woodpeck_fixbot" changeset="10432847">
    <nd ref="423816317"/>
    <nd ref="423816320"/>
    <tag k="highway" v="residential"/>
    <tag k="name" v="Astra Court"/>
    <tag k="source" v="survey"/>
  </way>
  <way id="36335968" version="4" timestamp="2010-07-09T07:45:03Z" uid="74617" user="JohnSmith" changeset="5171569">
    <nd ref="423816321"/>
    <nd ref="423816319"/>
    <nd ref="423816322"/>
    <tag k="highway" v="residential"/>
    <tag k="maxspeed" v="50"/>
    <tag k="maxspeed:source" v="default residential speed limit in Australia"/>
    <tag k="name" v="Rambler Green"/>
    <tag k="source" v="survey"/>
  </way>
  <way id="36335968" version="5" timestamp="2012-01-18T23:31:38Z" uid="147510" user="woodpeck_fixbot" changeset="10432847">
    <nd ref="423816321"/>
    <nd ref="423816319"/>
    <nd ref="423816322"/>
    <tag k="highway" v="residential"/>
    <tag k="name" v="Rambler Green"/>
    <tag k="source" v="survey"/>
  </way>
  <way id="36335971" version="4" timestamp="2010-07-09T07:47:44Z" uid="74617" user="JohnSmith" changeset="5171569">
    <nd ref="423816330"/>
    <nd ref="423816335"/>
    <tag k="highway" v="residential"/>
    <tag k="maxspeed" v="50"/>
    <tag k="maxspeed:source" v="default residential speed limit in Australia"/>
    <tag k="name" v="Latifa Close"/>
    <tag k="source" v="survey"/>
  </way>
  <way id="36335971" version="5" timestamp="2012-01-18T23:31:42Z" uid="147510" user="woodpeck_fixbot" changeset="10432847">
    <nd ref="423816330"/>
    <nd ref="423816335"/>
    <tag k="highway" v="residential"/>
    <tag k="name" v="Latifa Close"/>
    <tag k="source" v="survey"/>
  </way>
  <way id="36335972" version="6" timestamp="2010-07-09T07:47:02Z" uid="74617" user="JohnSmith" changeset="5171569">
    <nd ref="33699146"/>
    <nd ref="423816336"/>
    <nd ref="423816337"/>
    <nd ref="624194470"/>
    <nd ref="423816338"/>
    <nd ref="423816339"/>
    <nd ref="423816340"/>
    <nd ref="423816341"/>
    <nd ref="423816342"/>
    <nd ref="423816343"/>
    <tag k="highway" v="residential"/>
    <tag k="maxspeed" v="50"/>
    <tag k="maxspeed:source" v="default residential speed limit in Australia"/>
    <tag k="name" v="Volante Elbow"/>
    <tag k="source" v="survey"/>
  </way>
  <way id="36335972" version="7" timestamp="2012-01-18T23:31:43Z" uid="147510" user="woodpeck_fixbot" changeset="10432847">
    <nd ref="33699146"/>
    <nd ref="423816336"/>
    <nd ref="423816337"/>
    <nd ref="624194470"/>
    <nd ref="423816338"/>
    <nd ref="423816339"/>
    <nd ref="423816340"/>
    <nd ref="423816341"/>
    <nd ref="423816342"/>
    <nd ref="423816343"/>
    <tag k="highway" v="residential"/>
    <tag k="name" v="Volante Elbow"/>
    <tag k="source" v="survey"/>
  </way>
  <way id="36335973" version="4" timestamp="2010-07-09T07:44:15Z" uid="74617" user="JohnSmith" changeset="5171569">
    <nd ref="423816231"/>
    <nd ref="423816344"/>
    <nd ref="423816345"/>
    <tag k="highway" v="residential"/>
    <tag k="maxspeed" v="50"/>
    <tag k="maxspeed:source" v="default residential speed limit in Australia"/>
    <tag k="name" v="Baroola Place"/>
    <tag k="source" v="survey"/>
  </way>
  <way id="36335973" version="5" timestamp="2012-01-18T23:31:44Z" uid="147510" user="woodpeck_fixbot" changeset="10432847">
    <nd ref="423816231"/>
    <nd ref="423816344"/>
    <nd ref="423816345"/>
    <tag k="highway" v="residential"/>
    <tag k="name" v="Baroola Place"/>
    <tag k="source" v="survey"/>
  </way>
  <way id="36335974" version="4" timestamp="2010-07-09T07:51:38Z" uid="74617" user="JohnSmith" changeset="5171569">
    <nd ref="33699234"/>
    <nd ref="423816346"/>
    <nd ref="423816347"/>
    <tag k="highway" v="residential"/>
    <tag k="maxspeed" v="50"/>
    <tag k="maxspeed:source" v="default residential speed limit in Australia"/>
    <tag k="name" v="Yangala Close"/>
    <tag k="source" v="survey"/>
  </way>
  <way id="36335974" version="5" timestamp="2012-01-18T23:31:48Z" uid="147510" user="woodpeck_fixbot" changeset="10432847">
    <nd ref="33699234"/>
    <nd ref="423816346"/>
    <nd ref="423816347"/>
    <tag k="highway" v="residential"/>
    <tag k="name" v="Yangala Close"/>
    <tag k="source" v="survey"/>
  </way>
  <way id="36335975" version="4" timestamp="2010-07-09T07:49:23Z" uid="74617" user="JohnSmith" changeset="5171569">
    <nd ref="33699235"/>
    <nd ref="423816348"/>
    <nd ref="423816349"/>
    <tag k="highway" v="residential"/>
    <tag k="maxspeed" v="50"/>
    <tag k="maxspeed:source" v="default residential speed limit in Australia"/>
    <tag k="name" v="Arkaba Mews"/>
    <tag k="source" v="survey"/>
  </way>
  <way id="36335975" version="5" timestamp="2012-01-18T23:31:49Z" uid="147510" user="woodpeck_fixbot" changeset="10432847">
    <nd ref="33699235"/>
    <nd ref="423816348"/>
    <nd ref="423816349"/>
    <tag k="highway" v="residential"/>
    <tag k="name" v="Arkaba Mews"/>
    <tag k="source" v="survey"/>
  </way>
  <way id="36335976" version="4" timestamp="2010-07-09T07:48:46Z" uid="74617" user="JohnSmith" changeset="5171569">
    <nd ref="423816232"/>
    <nd ref="423816350"/>
    <nd ref="423816351"/>
    <nd ref="423816352"/>
    <tag k="highway" v="residential"/>
    <tag k="maxspeed" v="50"/>
    <tag k="maxspeed:source" v="default residential speed limit in Australia"/>
    <tag k="name" v="Cantara Rise"/>
    <tag k="source" v="survey"/>
  </way>
  <way id="36335976" version="5" timestamp="2012-01-18T23:31:50Z" uid="147510" user="woodpeck_fixbot" changeset="10432847">
    <nd ref="423816232"/>
    <nd ref="423816350"/>
    <nd ref="423816351"/>
    <nd ref="423816352"/>
    <tag k="highway" v="residential"/>
    <tag k="name" v="Cantara Rise"/>
    <tag k="source" v="survey"/>
  </way>
  <way id="36335977" version="4" timestamp="2010-07-09T07:46:11Z" uid="74617" user="JohnSmith" changeset="5171569">
    <nd ref="423816233"/>
    <nd ref="423816353"/>
    <nd ref="423816354"/>
    <nd ref="423816355"/>
    <nd ref="423816356"/>
    <nd ref="423816357"/>
    <tag k="highway" v="residential"/>
    <tag k="maxspeed" v="50"/>
    <tag k="maxspeed:source" v="default residential speed limit in Australia"/>
    <tag k="name" v="Barossa Heights"/>
    <tag k="source" v="survey"/>
  </way>
  <way id="36335977" version="5" timestamp="2012-01-18T23:31:53Z" uid="147510" user="woodpeck_fixbot" changeset="10432847">
    <nd ref="423816233"/>
    <nd ref="423816353"/>
    <nd ref="423816354"/>
    <nd ref="423816355"/>
    <nd ref="423816356"/>
    <nd ref="423816357"/>
    <tag k="highway" v="residential"/>
    <tag k="name" v="Barossa Heights"/>
    <tag k="source" v="survey"/>
  </way>
  <way id="36335979" version="4" timestamp="2010-07-09T07:51:06Z" uid="74617" user="JohnSmith" changeset="5171569">
    <nd ref="423816359"/>
    <nd ref="423816360"/>
    <nd ref="423816361"/>
    <nd ref="423816362"/>
    <nd ref="423816358"/>
    <nd ref="423816363"/>
    <nd ref="423816364"/>
    <nd ref="423816365"/>
    <nd ref="423816366"/>
    <nd ref="423816367"/>
    <nd ref="423816368"/>
    <tag k="highway" v="residential"/>
    <tag k="maxspeed" v="50"/>
    <tag k="maxspeed:source" v="default residential speed limit in Australia"/>
    <tag k="name" v="Grantala Close"/>
    <tag k="source" v="survey"/>
  </way>
  <way id="36335979" version="5" timestamp="2012-01-18T23:31:56Z" uid="147510" user="woodpeck_fixbot" changeset="10432847">
    <nd ref="423816359"/>
    <nd ref="423816360"/>
    <nd ref="423816361"/>
    <nd ref="423816362"/>
    <nd ref="423816358"/>
    <nd ref="423816363"/>
    <nd ref="423816364"/>
    <nd ref="423816365"/>
    <nd ref="423816366"/>
    <nd ref="423816367"/>
    <nd ref="423816368"/>
    <tag k="highway" v="residential"/>
    <tag k="name" v="Grantala Close"/>
    <tag k="source" v="survey"/>
  </way>
  <way id="36335980" version="5" timestamp="2010-07-09T07:50:34Z" uid="74617" user="JohnSmith" changeset="5171569">
    <nd ref="33699239"/>
    <nd ref="683769653"/>
    <nd ref="423816369"/>
    <nd ref="423816370"/>
    <nd ref="423816371"/>
    <nd ref="423816372"/>
    <nd ref="423816373"/>
    <nd ref="624005868"/>
    <nd ref="423816374"/>
    <nd ref="423816375"/>
    <nd ref="423816376"/>
    <tag k="highway" v="residential"/>
    <tag k="maxspeed" v="50"/>
    <tag k="maxspeed:source" v="default residential speed limit in Australia"/>
    <tag k="name" v="Copeland Gardens"/>
    <tag k="source" v="survey"/>
  </way>
  <way id="36335980" version="6" timestamp="2012-01-18T23:31:58Z" uid="147510" user="woodpeck_fixbot" changeset="10432847">
    <nd ref="33699239"/>
    <nd ref="683769653"/>
    <nd ref="423816369"/>
    <nd ref="423816370"/>
    <nd ref="423816371"/>
    <nd ref="423816372"/>
    <nd ref="423816373"/>
    <nd ref="624005868"/>
    <nd ref="423816374"/>
    <nd ref="423816375"/>
    <nd ref="423816376"/>
    <tag k="highway" v="residential"/>
    <tag k="name" v="Copeland Gardens"/>
    <tag k="source" v="survey"/>
  </way>
  <way id="36335981" version="4" timestamp="2010-07-09T07:48:05Z" uid="74617" user="JohnSmith" changeset="5171569">
    <nd ref="423816374"/>
    <nd ref="423816381"/>
    <nd ref="423816383"/>
    <nd ref="423816385"/>
    <tag k="highway" v="residential"/>
    <tag k="maxspeed" v="50"/>
    <tag k="maxspeed:source" v="default residential speed limit in Australia"/>
    <tag k="name" v="Katoora Place"/>
    <tag k="source" v="survey"/>
  </way>
  <way id="36335981" version="5" timestamp="2012-01-18T23:32:04Z" uid="147510" user="woodpeck_fixbot" changeset="10432847">
    <nd ref="423816374"/>
    <nd ref="423816381"/>
    <nd ref="423816383"/>
    <nd ref="423816385"/>
    <tag k="highway" v="residential"/>
    <tag k="name" v="Katoora Place"/>
    <tag k="source" v="survey"/>
  </way>
  <way id="36335983" version="5" timestamp="2010-07-09T07:52:37Z" uid="74617" user="JohnSmith" changeset="5171569">
    <nd ref="423816372"/>
    <nd ref="423816388"/>
    <nd ref="624103412"/>
    <nd ref="423816390"/>
    <nd ref="423816391"/>
    <nd ref="423816392"/>
    <nd ref="423816393"/>
    <nd ref="423816394"/>
    <tag k="highway" v="residential"/>
    <tag k="maxspeed" v="50"/>
    <tag k="maxspeed:source" v="default residential speed limit in Australia"/>
    <tag k="name" v="Tarcoola Retreat"/>
    <tag k="source" v="survey"/>
  </way>
  <way id="36335983" version="6" timestamp="2012-01-18T23:32:08Z" uid="147510" user="woodpeck_fixbot" changeset="10432847">
    <nd ref="423816372"/>
    <nd ref="423816388"/>
    <nd ref="624103412"/>
    <nd ref="423816390"/>
    <nd ref="423816391"/>
    <nd ref="423816392"/>
    <nd ref="423816393"/>
    <nd ref="423816394"/>
    <tag k="highway" v="residential"/>
    <tag k="name" v="Tarcoola Retreat"/>
    <tag k="source" v="survey"/>
  </way>
  <way id="36335984" version="5" timestamp="2010-07-09T07:49:37Z" uid="74617" user="JohnSmith" changeset="5171569">
    <nd ref="423816391"/>
    <nd ref="423816395"/>
    <nd ref="624103436"/>
    <nd ref="423816396"/>
    <tag k="highway" v="residential"/>
    <tag k="maxspeed" v="50"/>
    <tag k="maxspeed:source" v="default residential speed limit in Australia"/>
    <tag k="name" v="Tully Court"/>
    <tag k="source" v="survey"/>
  </way>
  <way id="36335984" version="6" timestamp="2012-01-18T23:32:13Z" uid="147510" user="woodpeck_fixbot" changeset="10432847">
    <nd ref="423816391"/>
    <nd ref="423816395"/>
    <nd ref="624103436"/>
    <nd ref="423816396"/>
    <tag k="highway" v="residential"/>
    <tag k="name" v="Tully Court"/>
    <tag k="source" v="survey"/>
  </way>
  <way id="36335985" version="5" timestamp="2010-07-09T07:47:24Z" uid="74617" user="JohnSmith" changeset="5171569">
    <nd ref="33699240"/>
    <nd ref="624103497"/>
    <nd ref="624103500"/>
    <nd ref="423816397"/>
    <tag k="highway" v="residential"/>
    <tag k="maxspeed" v="50"/>
    <tag k="maxspeed:source" v="default residential speed limit in Australia"/>
    <tag k="name" v="Maranda Grove"/>
    <tag k="source" v="survey"/>
  </way>
  <way id="36335985" version="6" timestamp="2012-01-18T23:32:15Z" uid="147510" user="woodpeck_fixbot" changeset="10432847">
    <nd ref="33699240"/>
    <nd ref="624103497"/>
    <nd ref="624103500"/>
    <nd ref="423816397"/>
    <tag k="highway" v="residential"/>
    <tag k="name" v="Maranda Grove"/>
    <tag k="source" v="survey"/>
  </way>
</osm>
