<?xml version='1.0' encoding='UTF-8'?>
<osm version="0.6" generator="libosmium/2.20.0">
  <way id="36343197" version="4" timestamp="2010-07-09T07:46:43Z" uid="74617" user="JohnSmith" changeset="5171569">
    <nd ref="423892401"/>
    <nd ref="423892402"/>
    <nd ref="423892403"/>
    <tag k="highway" v="residential"/>
    <tag k="maxspeed" v="50"/>
    <tag k="maxspeed:source" v="default residential speed limit in Australia"/>
    <tag k="name" v="Kowloon Corner"/>
    <tag k="source" v="survey"/>
  </way>
  <way id="36343197" version="5" timestamp="2012-01-18T23:34:39Z" uid="147510" user="woodpeck_fixbot" changeset="10432847">
    <nd ref="423892401"/>
    <nd ref="423892402"/>
    <nd ref="423892403"/>
    <tag k="highway" v="residential"/>
    <tag k="name" v="Kowloon Corner"/>
    <tag k="source" v="survey"/>
  </way>
  <way id="36343214" version="5" timestamp="2010-07-09T07:51:52Z" uid="74617" user="JohnSmith" changeset="5171569">
    <nd ref="423892451"/>
    <nd ref="439668470"/>
    <nd ref="439668474"/>
    <nd ref="439668479"/>
    <nd ref="423892453"/>
    <nd ref="439668483"/>
    <nd ref="439668487"/>
    <nd ref="439668491"/>
    <nd ref="439668498"/>
    <nd ref="423892457"/>
    <nd ref="439668501"/>
    <nd ref="439668504"/>
    <nd ref="439668506"/>
    <nd ref="423892459"/>
    <nd ref="439668508"/>
    <nd ref="439668510"/>
    <nd ref="439668511"/>
    <nd ref="439668514"/>
    <nd ref="423892451"/>
    <tag k="highway" v="residential"/>
    <tag k="junction" v="roundabout"/>
    <tag k="maxspeed" v="50"/>
    <tag k="maxspeed:source" v="default residential speed limit in Australia"/>
    <tag k="name" v="Kooringa Place"/>
    <tag k="source" v="survey"/>
  </way>
  <way id="36343214" version="6" timestamp="2012-01-18T23:34:40Z" uid="147510" user="woodpeck_fixbot" changeset="10432847">
    <nd ref="423892451"/>
    <nd ref="439668470"/>
    <nd ref="439668474"/>
    <nd ref="439668479"/>
    <nd ref="423892453"/>
    <nd ref="439668483"/>
    <nd ref="439668487"/>
    <nd ref="439668491"/>
    <nd ref="439668498"/>
    <nd ref="423892457"/>
    <nd ref="439668501"/>
    <nd ref="439668504"/>
    <nd ref="439668506"/>
    <nd ref="423892459"/>
    <nd ref="439668508"/>
    <nd ref="439668510"/>
    <nd ref="439668511"/>
    <nd ref="439668514"/>
    <nd ref="423892451"/>
    <tag k="highway" v="residential"/>
    <tag k="junction" v="roundabout"/>
    <tag k="name" v="Kooringa Place"/>
    <tag k="source" v="survey"/>
  </way>
  <way id="36343215" version="4" timestamp="2010-07-09T07:49:43Z" uid="74617" user="JohnSmith" changeset="5171569">
    <nd ref="423892464"/>
    <nd ref="423892465"/>
    <nd ref="423892467"/>
    <nd ref="423892451"/>
    <tag k="highway" v="residential"/>
    <tag k="maxspeed" v="50"/>
    <tag k="maxspeed:source" v="default residential speed limit in Australia"/>
    <tag k="name" v="Alliance Court"/>
    <tag k="source" v="survey"/>
  </way>
  <way id="36343215" version="5" timestamp="2012-01-18T23:34:41Z" uid="147510" user="woodpeck_fixbot" changeset="10432847">
    <nd ref="423892464"/>
    <nd ref="423892465"/>
    <nd ref="423892467"/>
    <nd ref="423892451"/>
    <tag k="highway" v="residential"/>
    <tag k="name" v="Alliance Court"/>
    <tag k="source" v="survey"/>
  </way>
  <way id="36343219" version="4" timestamp="2010-07-09T07:48:55Z" uid="74617" user="JohnSmith" changeset="5171569">
    <nd ref="423892469"/>
    <nd ref="423892459"/>
    <tag k="highway" v="residential"/>
    <tag k="maxspeed" v="50"/>
    <tag k="maxspeed:source" v="default residential speed limit in Australia"/>
    <tag k="name" v="Kooringa Place"/>
    <tag k="source" v="survey"/>
  </way>
  <way id="36343219" version="5" timestamp="2012-01-18T23:34:42Z" uid="147510" user="woodpeck_fixbot" changeset="10432847">
    <nd ref="423892469"/>
    <nd ref="423892459"/>
    <tag k="highway" v="residential"/>
    <tag k="name" v="Kooringa Place"/>
    <tag k="source" v="survey"/>
  </way>
  <way id="36343222" version="4" timestamp="2010-07-09T07:52:48Z" uid="74617" user="JohnSmith" changeset="5171569">
    <nd ref="423892457"/>
    <nd ref="423892481"/>
    <nd ref="423892483"/>
    <nd ref="423892485"/>
    <nd ref="423892486"/>
    <nd ref="423892488"/>
    <nd ref="423892490"/>
    <tag k="highway" v="residential"/>
    <tag k="maxspeed" v="50"/>
    <tag k="maxspeed:source" v="default residential speed limit in Australia"/>
    <tag k="name" v="Columbus Mews"/>
    <tag k="source" v="survey"/>
  </way>
  <way id="36343222" version="5" timestamp="2012-01-18T23:34:43Z" uid="147510" user="woodpeck_fixbot" changeset="10432847">
    <nd ref="423892457"/>
    <nd ref="423892481"/>
    <nd ref="423892483"/>
    <nd ref="423892485"/>
    <nd ref="423892486"/>
    <nd ref="423892488"/>
    <nd ref="423892490"/>
    <tag k="highway" v="residential"/>
    <tag k="name" v="Columbus Mews"/>
    <tag k="source" v="survey"/>
  </way>
  <way id="36343223" version="4" timestamp="2010-07-09T07:50:44Z" uid="74617" user="JohnSmith" changeset="5171569">
    <nd ref="423892507"/>
    <nd ref="423892509"/>
    <nd ref="423892511"/>
    <nd ref="423892442"/>
    <tag k="highway" v="residential"/>
    <tag k="maxspeed" v="50"/>
    <tag k="maxspeed:source" v="default residential speed limit in Australia"/>
    <tag k="name" v="Lapwing Rise"/>
    <tag k="source" v="survey"/>
  </way>
  <way id="36343223" version="5" timestamp="2012-01-18T23:34:44Z" uid="147510" user="woodpeck_fixbot" changeset="10432847">
    <nd ref="423892507"/>
    <nd ref="423892509"/>
    <nd ref="423892511"/>
    <nd ref="423892442"/>
    <tag k="highway" v="residential"/>
    <tag k="name" v="Lapwing Rise"/>
    <tag k="source" v="survey"/>
  </way>
  <way id="36343224" version="4" timestamp="2010-07-09T07:50:02Z" uid="74617" user="JohnSmith" changeset="5171569">
    <nd ref="423892490"/>
    <nd ref="423892518"/>
    <nd ref="423892519"/>
    <nd ref="423892521"/>
    <tag k="highway" v="residential"/>
    <tag k="maxspeed" v="50"/>
    <tag k="maxspeed:source" v="default residential speed limit in Australia"/>
    <tag k="name" v="Emden Lane"/>
    <tag k="source" v="survey"/>
  </way>
  <way id="36343224" version="5" timestamp="2012-01-18T23:34:45Z" uid="147510" user="woodpeck_fixbot" changeset="10432847">
    <nd ref="423892490"/>
    <nd ref="423892518"/>
    <nd ref="423892519"/>
    <nd ref="423892521"/>
    <tag k="highway" v="residential"/>
    <tag k="name" v="Emden Lane"/>
    <tag k="source" v="survey"/>
  </way>
  <way id="36343225" version="4" timestamp="2010-07-09T07:47:41Z" uid="74617" user="JohnSmith" changeset="5171569">
    <nd ref="423892523"/>
    <nd ref="423892524"/>
    <nd ref="423892525"/>
    <nd ref="423892526"/>
    <nd ref="423892527"/>
    <nd ref="423892531"/>
    <nd ref="423892446"/>
    <tag k="highway" v="residential"/>
    <tag k="maxspeed" v="50"/>
    <tag k="maxspeed:source" v="default residential speed limit in Australia"/>
    <tag k="name" v="Marco Polo Mews"/>
    <tag k="source" v="survey"/>
  </way>
  <way id="36343225" version="5" timestamp="2012-01-18T23:34:46Z" uid="147510" user="woodpeck_fixbot" changeset="10432847">
    <nd ref="423892523"/>
    <nd ref="423892524"/>
    <nd ref="423892525"/>
    <nd ref="423892526"/>
    <nd ref="423892527"/>
    <nd ref="423892531"/>
    <nd ref="423892446"/>
    <tag k="highway" v="residential"/>
    <tag k="name" v="Marco Polo Mews"/>
    <tag k="source" v="survey"/>
  </way>
  <way id="36343226" version="4" timestamp="2010-07-09T07:42:53Z" uid="74617" user="JohnSmith" changeset="5171569">
    <nd ref="423892531"/>
    <nd ref="423892535"/>
    <nd ref="423892536"/>
    <nd ref="423892538"/>
    <nd ref="423892540"/>
    <nd ref="423892542"/>
    <nd ref="423892545"/>
    <tag k="highway" v="residential"/>
    <tag k="maxspeed" v="50"/>
    <tag k="maxspeed:source" v="default residential speed limit in Australia"/>
    <tag k="name" v="Pilgrim Place"/>
    <tag k="source" v="survey"/>
  </way>
  <way id="36343226" version="5" timestamp="2012-01-18T23:34:47Z" uid="147510" user="woodpeck_fixbot" changeset="10432847">
    <nd ref="423892531"/>
    <nd ref="423892535"/>
    <nd ref="423892536"/>
    <nd ref="423892538"/>
    <nd ref="423892540"/>
    <nd ref="423892542"/>
    <nd ref="423892545"/>
    <tag k="highway" v="residential"/>
    <tag k="name" v="Pilgrim Place"/>
    <tag k="source" v="survey"/>
  </way>
  <way id="36343227" version="4" timestamp="2010-07-09T07:52:06Z" uid="74617" user="JohnSmith" changeset="5171569">
    <nd ref="423892490"/>
    <nd ref="423892492"/>
    <nd ref="423892496"/>
    <nd ref="423892555"/>
    <nd ref="423892550"/>
    <nd ref="423892545"/>
    <tag k="highway" v="residential"/>
    <tag k="maxspeed" v="50"/>
    <tag k="maxspeed:source" v="default residential speed limit in Australia"/>
    <tag k="name" v="Pinmore Lane"/>
    <tag k="source" v="survey"/>
  </way>
  <way id="36343227" version="5" timestamp="2012-01-18T23:34:48Z" uid="147510" user="woodpeck_fixbot" changeset="10432847">
    <nd ref="423892490"/>
    <nd ref="423892492"/>
    <nd ref="423892496"/>
    <nd ref="423892555"/>
    <nd ref="423892550"/>
    <nd ref="423892545"/>
    <tag k="highway" v="residential"/>
    <tag k="name" v="Pinmore Lane"/>
    <tag k="source" v="survey"/>
  </way>
  <way id="36343228" version="5" timestamp="2010-07-09T07:51:34Z" uid="74617" user="JohnSmith" changeset="5171569">
    <nd ref="423892448"/>
    <nd ref="423892560"/>
    <nd ref="675944040"/>
    <nd ref="423892563"/>
    <nd ref="675944047"/>
    <nd ref="423892565"/>
    <nd ref="423892424"/>
    <tag k="highway" v="residential"/>
    <tag k="maxspeed" v="50"/>
    <tag k="maxspeed:source" v="default residential speed limit in Australia"/>
    <tag k="name" v="Bergalia Mews"/>
    <tag k="source" v="survey"/>
  </way>
  <way id="36343228" version="6" timestamp="2012-01-18T23:34:49Z" uid="147510" user="woodpeck_fixbot" changeset="10432847">
    <nd ref="423892448"/>
    <nd ref="423892560"/>
    <nd ref="675944040"/>
    <nd ref="423892563"/>
    <nd ref="675944047"/>
    <nd ref="423892565"/>
    <nd ref="423892424"/>
    <tag k="highway" v="residential"/>
    <tag k="name" v="Bergalia Mews"/>
    <tag k="source" v="survey"/>
  </way>
  <way id="36343229" version="4" timestamp="2010-07-09T07:49:18Z" uid="74617" user="JohnSmith" changeset="5171569">
    <nd ref="423892563"/>
    <nd ref="423892569"/>
    <nd ref="423892570"/>
    <nd ref="423892571"/>
    <nd ref="423892573"/>
    <nd ref="423892576"/>
    <nd ref="423892578"/>
    <nd ref="675647808"/>
    <nd ref="423892580"/>
    <nd ref="423892581"/>
    <tag k="highway" v="residential"/>
    <tag k="maxspeed" v="50"/>
    <tag k="maxspeed:source" v="default residential speed limit in Australia"/>
    <tag k="name" v="Clermont Gardens"/>
    <tag k="source" v="survey"/>
  </way>
  <way id="36343229" version="5" timestamp="2012-01-18T23:34:50Z" uid="147510" user="woodpeck_fixbot" changeset="10432847">
    <nd ref="423892563"/>
    <nd ref="423892569"/>
    <nd ref="423892570"/>
    <nd ref="423892571"/>
    <nd ref="423892573"/>
    <nd ref="423892576"/>
    <nd ref="423892578"/>
    <nd ref="675647808"/>
    <nd ref="423892580"/>
    <nd ref="423892581"/>
    <tag k="highway" v="residential"/>
    <tag k="name" v="Clermont Gardens"/>
    <tag k="source" v="survey"/>
  </way>
  <way id="36343230" version="5" timestamp="2010-07-09T07:44:57Z" uid="74617" user="JohnSmith" changeset="5171569">
    <nd ref="423892527"/>
    <nd ref="423892584"/>
    <nd ref="423892586"/>
    <nd ref="423892588"/>
    <nd ref="423892591"/>
    <nd ref="423892594"/>
    <nd ref="423892599"/>
    <nd ref="423892600"/>
    <nd ref="423892603"/>
    <nd ref="423892605"/>
    <nd ref="423892608"/>
    <tag k="highway" v="residential"/>
    <tag k="maxspeed" v="50"/>
    <tag k="maxspeed:source" v="default residential speed limit in Australia"/>
    <tag k="name" v="Wilcannia Elbow"/>
    <tag k="source" v="survey"/>
  </way>
  <way id="36343230" version="6" timestamp="2012-01-18T23:34:51Z" uid="147510" user="woodpeck_fixbot" changeset="10432847">
    <nd ref="423892527"/>
    <nd ref="423892584"/>
    <nd ref="423892586"/>
    <nd ref="423892588"/>
    <nd ref="423892591"/>
    <nd ref="423892594"/>
    <nd ref="423892599"/>
    <nd ref="423892600"/>
    <nd ref="423892603"/>
    <nd ref="423892605"/>
    <nd ref="423892608"/>
    <tag k="highway" v="residential"/>
    <tag k="name" v="Wilcannia Elbow"/>
    <tag k="source" v="survey"/>
  </way>
  <way id="36343231" version="4" timestamp="2010-07-09T07:53:37Z" uid="74617" user="JohnSmith" changeset="5171569">
    <nd ref="423892545"/>
    <nd ref="423892616"/>
    <nd ref="423892523"/>
    <nd ref="423892608"/>
    <tag k="highway" v="residential"/>
    <tag k="maxspeed" v="50"/>
    <tag k="maxspeed:source" v="default residential speed limit in Australia"/>
    <tag k="name" v="Everett Lane"/>
    <tag k="source" v="survey"/>
  </way>
  <way id="36343231" version="5" timestamp="2012-01-18T23:34:52Z" uid="147510" user="woodpeck_fixbot" changeset="10432847">
    <nd ref="423892545"/>
    <nd ref="423892616"/>
    <nd ref="423892523"/>
    <nd ref="423892608"/>
    <tag k="highway" v="residential"/>
    <tag k="name" v="Everett Lane"/>
    <tag k="source" v="survey"/>
  </way>
  <way id="36343232" version="4" timestamp="2010-07-09T07:44:21Z" uid="74617" user="JohnSmith" changeset="5171569">
    <nd ref="423892591"/>
    <nd ref="423892624"/>
    <nd ref="423892634"/>
    <tag k="highway" v="residential"/>
    <tag k="maxspeed" v="50"/>
    <tag k="maxspeed:source" v="default residential speed limit in Australia"/>
    <tag k="name" v="Emila Close"/>
    <tag k="source" v="survey"/>
  </way>
  <way id="36343232" version="5" timestamp="2012-01-18T23:34:53Z" uid="147510" user="woodpeck_fixbot" changeset="10432847">
    <nd ref="423892591"/>
    <nd ref="423892624"/>
    <nd ref="423892634"/>
    <tag k="highway" v="residential"/>
    <tag k="name" v="Emila Close"/>
    <tag k="source" v="survey"/>
  </way>
  <way id="36343233" version="4" timestamp="2010-07-09T07:53:15Z" uid="74617" user="JohnSmith" changeset="5171569">
    <nd ref="423892634"/>
    <nd ref="423892641"/>
    <nd ref="423892581"/>
    <tag k="highway" v="residential"/>
    <tag k="maxspeed" v="50"/>
    <tag k="maxspeed:source" v="default residential speed limit in Australia"/>
    <tag k="name" v="Corwin Lane"/>
    <tag k="source" v="survey"/>
  </way>
  <way id="36343233" version="5" timestamp="2012-01-18T23:34:54Z" uid="147510" user="woodpeck_fixbot" changeset="10432847">
    <nd ref="423892634"/>
    <nd ref="423892641"/>
    <nd ref="423892581"/>
    <tag k="highway" v="residential"/>
    <tag k="name" v="Corwin Lane"/>
    <tag k="source" v="survey"/>
  </way>
  <way id="36343234" version="6" timestamp="2010-07-09T07:49:28Z" uid="74617" user="JohnSmith" changeset="5171569">
    <nd ref="423892472"/>
    <nd ref="423892648"/>
    <nd ref="423892650"/>
    <nd ref="423892653"/>
    <nd ref="423892655"/>
    <nd ref="423892658"/>
    <nd ref="675910195"/>
    <nd ref="423892661"/>
    <nd ref="423892664"/>
    <nd ref="423892665"/>
    <tag k="highway" v="residential"/>
    <tag k="maxspeed" v="50"/>
    <tag k="maxspeed:source" v="default residential speed limit in Australia"/>
    <tag k="name" v="Thistle Grove"/>
    <tag k="source" v="survey"/>
  </way>
  <way id="36343234" version="7" timestamp="2012-01-18T23:34:55Z" uid="147510" user="woodpeck_fixbot" changeset="10432847">
    <nd ref="423892472"/>
    <nd ref="423892648"/>
    <nd ref="423892650"/>
    <nd ref="423892653"/>
    <nd ref="423892655"/>
    <nd ref="423892658"/>
    <nd ref="675910195"/>
    <nd ref="423892661"/>
    <nd ref="423892664"/>
    <nd ref="423892665"/>
    <tag k="highway" v="residential"/>
    <tag k="name" v="Thistle Grove"/>
    <tag k="source" v="survey"/>
  </way>
  <way id="36343235" version="5" timestamp="2010-07-09T07:47:08Z" uid="74617" user="JohnSmith" changeset="5171569">
    <nd ref="423892667"/>
    <nd ref="675910528"/>
    <nd ref="423892669"/>
    <nd ref="423892671"/>
    <nd ref="423892672"/>
    <nd ref="423892674"/>
    <nd ref="423892675"/>
    <nd ref="423892678"/>
    <tag k="highway" v="residential"/>
    <tag k="maxspeed" v="50"/>
    <tag k="maxspeed:source" v="default residential speed limit in Australia"/>
    <tag k="name" v="Somersby Gardens"/>
    <tag k="source" v="survey"/>
  </way>
  <way id="36343235" version="6" timestamp="2012-01-18T23:34:56Z" uid="147510" user="woodpeck_fixbot" changeset="10432847">
    <nd ref="423892667"/>
    <nd ref="675910528"/>
    <nd ref="423892669"/>
    <nd ref="423892671"/>
    <nd ref="423892672"/>
    <nd ref="423892674"/>
    <nd ref="423892675"/>
    <nd ref="423892678"/>
    <tag k="highway" v="residential"/>
    <tag k="name" v="Somersby Gardens"/>
    <tag k="source" v="survey"/>
  </way>
  <way id="36343236" version="4" timestamp="2010-07-09T07:46:15Z" uid="74617" user="JohnSmith" changeset="5171569">
    <nd ref="423892675"/>
    <nd ref="423892690"/>
    <nd ref="423892695"/>
    <nd ref="423892655"/>
    <tag k="highway" v="residential"/>
    <tag k="maxspeed" v="50"/>
    <tag k="maxspeed:source" v="default residential speed limit in Australia"/>
    <tag k="name" v="Blythe Lane"/>
    <tag k="source" v="survey"/>
  </way>
  <way id="36343236" version="5" timestamp="2012-01-18T23:34:58Z" uid="147510" user="woodpeck_fixbot" changeset="10432847">
    <nd ref="423892675"/>
    <nd ref="423892690"/>
    <nd ref="423892695"/>
    <nd ref="423892655"/>
    <tag k="highway" v="residential"/>
    <tag k="name" v="Blythe Lane"/>
    <tag k="source" v="survey"/>
  </way>
  <way id="36343237" version="4" timestamp="2010-07-09T07:43:33Z" uid="74617" user="JohnSmith" changeset="5171569">
    <nd ref="423892669"/>
    <nd ref="423892703"/>
    <nd ref="423892706"/>
    <nd ref="423892710"/>
    <tag k="highway" v="residential"/>
    <tag k="maxspeed" v="50"/>
    <tag k="maxspeed:source" v="default residential speed limit in Australia"/>
    <tag k="name" v="Templar Place"/>
    <tag k="source" v="survey"/>
  </way>
  <way id="36343237" version="5" timestamp="2012-01-18T23:34:58Z" uid="147510" user="woodpeck_fixbot" changeset="10432847">
    <nd ref="423892669"/>
    <nd ref="423892703"/>
    <nd ref="423892706"/>
    <nd ref="423892710"/>
    <tag k="highway" v="residential"/>
    <tag k="name" v="Templar Place"/>
    <tag k="source" v="survey"/>
  </way>
  <way id="36343240" version="4" timestamp="2010-07-09T07:48:10Z" uid="74617" user="JohnSmith" changeset="5171569">
    <nd ref="423892739"/>
    <nd ref="423892723"/>
    <tag k="highway" v="residential"/>
    <tag k="maxspeed" v="50"/>
    <tag k="maxspeed:source" v="default residential speed limit in Australia"/>
    <tag k="name" v="Adriatic Way"/>
    <tag k="source" v="survey"/>
  </way>
  <way id="36343240" version="5" timestamp="2012-01-18T23:34:59Z" uid="147510" user="woodpeck_fixbot" changeset="10432847">
    <nd ref="423892739"/>
    <nd ref="423892723"/>
    <tag k="highway" v="residential"/>
    <tag k="name" v="Adriatic Way"/>
    <tag k="source" v="survey"/>
  </way>
  <way id="36343241" version="5" timestamp="2010-07-09T07:45:36Z" uid="74617" user="JohnSmith" changeset="5171569">
    <nd ref="423892741"/>
    <nd ref="423892764"/>
    <nd ref="423892769"/>
    <nd ref="423892772"/>
    <nd ref="423892775"/>
    <nd ref="423892778"/>
    <nd ref="675944823"/>
    <nd ref="423892781"/>
    <nd ref="675944826"/>
    <nd ref="423892783"/>
    <nd ref="675944838"/>
    <nd ref="423892784"/>
    <tag k="highway" v="residential"/>
    <tag k="maxspeed" v="50"/>
    <tag k="maxspeed:source" v="default residential speed limit in Australia"/>
    <tag k="name" v="Stormbird Loop"/>
    <tag k="source" v="survey"/>
  </way>
  <way id="36343241" version="6" timestamp="2012-01-18T23:35:00Z" uid="147510" user="woodpeck_fixbot" changeset="10432847">
    <nd ref="423892741"/>
    <nd ref="423892764"/>
    <nd ref="423892769"/>
    <nd ref="423892772"/>
    <nd ref="423892775"/>
    <nd ref="423892778"/>
    <nd ref="675944823"/>
    <nd ref="423892781"/>
    <nd ref="675944826"/>
    <nd ref="423892783"/>
    <nd ref="675944838"/>
    <nd ref="423892784"/>
    <tag k="highway" v="residential"/>
    <tag k="name" v="Stormbird Loop"/>
    <tag k="source" v="survey"/>
  </way>
  <way id="36343242" version="4" timestamp="2010-07-09T07:52:42Z" uid="74617" user="JohnSmith" changeset="5171569">
    <nd ref="423892744"/>
    <nd ref="423892784"/>
    <nd ref="423892794"/>
    <nd ref="423892796"/>
    <nd ref="423892799"/>
    <nd ref="423892800"/>
    <nd ref="423892803"/>
    <tag k="highway" v="residential"/>
    <tag k="maxspeed" v="50"/>
    <tag k="maxspeed:source" v="default residential speed limit in Australia"/>
    <tag k="name" v="Adriatic Way"/>
    <tag k="source" v="survey"/>
  </way>
  <way id="36343242" version="5" timestamp="2012-01-18T23:35:01Z" uid="147510" user="woodpeck_fixbot" changeset="10432847">
    <nd ref="423892744"/>
    <nd ref="423892784"/>
    <nd ref="423892794"/>
    <nd ref="423892796"/>
    <nd ref="423892799"/>
    <nd ref="423892800"/>
    <nd ref="423892803"/>
    <tag k="highway" v="residential"/>
    <tag k="name" v="Adriatic Way"/>
    <tag k="source" v="survey"/>
  </way>
  <way id="36343243" version="5" timestamp="2010-07-09T07:50:38Z" uid="74617" user="JohnSmith" changeset="5171569">
    <nd ref="423892781"/>
    <nd ref="675944803"/>
    <nd ref="675944807"/>
    <nd ref="423892808"/>
    <nd ref="675944808"/>
    <nd ref="423892810"/>
    <nd ref="423892794"/>
    <tag k="highway" v="residential"/>
    <tag k="maxspeed" v="50"/>
    <tag k="maxspeed:source" v="default residential speed limit in Australia"/>
    <tag k="name" v="Cherub Way"/>
    <tag k="source" v="survey"/>
  </way>
  <way id="36343243" version="6" timestamp="2012-01-18T23:35:02Z" uid="147510" user="woodpeck_fixbot" changeset="10432847">
    <nd ref="423892781"/>
    <nd ref="675944803"/>
    <nd ref="675944807"/>
    <nd ref="423892808"/>
    <nd ref="675944808"/>
    <nd ref="423892810"/>
    <nd ref="423892794"/>
    <tag k="highway" v="residential"/>
    <tag k="name" v="Cherub Way"/>
    <tag k="source" v="survey"/>
  </way>
  <way id="36343244" version="3" timestamp="2010-07-09T07:49:55Z" uid="74617" user="JohnSmith" changeset="5171569">
    <nd ref="423892816"/>
    <nd ref="423892803"/>
    <nd ref="423892735"/>
    <tag k="highway" v="residential"/>
    <tag k="maxspeed" v="50"/>
    <tag k="maxspeed:source" v="default residential speed limit in Australia"/>
    <tag k="name" v="Alpha Drive"/>
    <tag k="source" v="survey"/>
  </way>
  <way id="36343244" version="4" timestamp="2012-01-18T23:35:03Z" uid="147510" user="woodpeck_fixbot" changeset="10432847">
    <nd ref="423892816"/>
    <nd ref="423892803"/>
    <nd ref="423892735"/>
    <tag k="highway" v="residential"/>
    <tag k="name" v="Alpha Drive"/>
    <tag k="source" v="survey"/>
  </way>
  <way id="36343246" version="5" timestamp="2010-07-09T07:54:02Z" uid="74617" user="JohnSmith" changeset="5171569">
    <nd ref="423892831"/>
    <nd ref="423892667"/>
    <nd ref="423892841"/>
    <nd ref="423892848"/>
    <nd ref="675943926"/>
    <nd ref="423892851"/>
    <nd ref="423892816"/>
    <nd ref="675945637"/>
    <nd ref="423892434"/>
    <tag k="highway" v="residential"/>
    <tag k="maxspeed" v="50"/>
    <tag k="maxspeed:source" v="default residential speed limit in Australia"/>
    <tag k="name" v="Peterborough Drive"/>
    <tag k="source" v="survey"/>
  </way>
  <way id="36343246" version="6" timestamp="2012-01-18T23:35:04Z" uid="147510" user="woodpeck_fixbot" changeset="10432847">
    <nd ref="423892831"/>
    <nd ref="423892667"/>
    <nd ref="423892841"/>
    <nd ref="423892848"/>
    <nd ref="675943926"/>
    <nd ref="423892851"/>
    <nd ref="423892816"/>
    <nd ref="675945637"/>
    <nd ref="423892434"/>
    <tag k="highway" v="residential"/>
    <tag k="name" v="Peterborough Drive"/>
    <tag k="source" v="survey"/>
  </way>
  <way id="36343257" version="4" timestamp="2010-07-09T07:50:13Z" uid="74617" user="JohnSmith" changeset="5171569">
    <nd ref="423892935"/>
    <nd ref="423892950"/>
    <nd ref="423892956"/>
    <nd ref="423892959"/>
    <nd ref="423892962"/>
    <nd ref="423892965"/>
    <nd ref="423892969"/>
    <nd ref="423892972"/>
    <tag k="highway" v="residential"/>
    <tag k="maxspeed" v="50"/>
    <tag k="maxspeed:source" v="default residential speed limit in Australia"/>
    <tag k="name" v="Yorkshire Grove"/>
    <tag k="source" v="survey"/>
  </way>
  <way id="36343257" version="5" timestamp="2012-01-18T23:35:08Z" uid="147510" user="woodpeck_fixbot" changeset="10432847">
    <nd ref="423892935"/>
    <nd ref="423892950"/>
    <nd ref="423892956"/>
    <nd ref="423892959"/>
    <nd ref="423892962"/>
    <nd ref="423892965"/>
    <nd ref="423892969"/>
    <nd ref="423892972"/>
    <tag k="highway" v="residential"/>
    <tag k="name" v="Yorkshire Grove"/>
    <tag k="source" v="survey"/>
  </way>
  <way id="36343259" version="5" timestamp="2010-07-09T07:43:04Z" uid="74617" user="JohnSmith" changeset="5171569">
    <nd ref="423892983"/>
    <nd ref="675900287"/>
    <nd ref="675900294"/>
    <nd ref="423893008"/>
    <nd ref="675900304"/>
    <nd ref="675900308"/>
    <nd ref="423893010"/>
    <nd ref="675900317"/>
    <nd ref="423893013"/>
    <nd ref="675900334"/>
    <nd ref="675900339"/>
    <nd ref="423893015"/>
    <nd ref="675900352"/>
    <nd ref="423893008"/>
    <tag k="highway" v="residential"/>
    <tag k="maxspeed" v="50"/>
    <tag k="maxspeed:source" v="default residential speed limit in Australia"/>
    <tag k="name" v="Yatala Close"/>
    <tag k="source" v="survey"/>
  </way>
  <way id="36343259" version="6" timestamp="2012-01-18T23:35:09Z" uid="147510" user="woodpeck_fixbot" changeset="10432847">
    <nd ref="423892983"/>
    <nd ref="675900287"/>
    <nd ref="675900294"/>
    <nd ref="423893008"/>
    <nd ref="675900304"/>
    <nd ref="675900308"/>
    <nd ref="423893010"/>
    <nd ref="675900317"/>
    <nd ref="423893013"/>
    <nd ref="675900334"/>
    <nd ref="675900339"/>
    <nd ref="423893015"/>
    <nd ref="675900352"/>
    <nd ref="423893008"/>
    <tag k="highway" v="residential"/>
    <tag k="name" v="Yatala Close"/>
    <tag k="source" v="survey"/>
  </way>
  <way id="36343260" version="6" timestamp="2010-07-09T07:53:41Z" uid="74617" user="JohnSmith" changeset="5171569">
    <nd ref="423892983"/>
    <nd ref="675900389"/>
    <nd ref="423892986"/>
    <nd ref="675900395"/>
    <nd ref="423893023"/>
    <nd ref="675896256"/>
    <nd ref="423893027"/>
    <nd ref="675828063"/>
    <nd ref="423893030"/>
    <tag k="highway" v="residential"/>
    <tag k="maxspeed" v="50"/>
    <tag k="maxspeed:source" v="default residential speed limit in Australia"/>
    <tag k="name" v="Tryal Place"/>
    <tag k="source" v="survey"/>
  </way>
  <way id="36343260" version="7" timestamp="2012-01-18T23:35:11Z" uid="147510" user="woodpeck_fixbot" changeset="10432847">
    <nd ref="423892983"/>
    <nd ref="675900389"/>
    <nd ref="423892986"/>
    <nd ref="675900395"/>
    <nd ref="423893023"/>
    <nd ref="675896256"/>
    <nd ref="423893027"/>
    <nd ref="675828063"/>
    <nd ref="423893030"/>
    <tag k="highway" v="residential"/>
    <tag k="name" v="Tryal Place"/>
    <tag k="source" v="survey"/>
  </way>
  <way id="36343261" version="5" timestamp="2010-07-09T07:51:41Z" uid="74617" user="JohnSmith" changeset="5171569">
    <nd ref="423893003"/>
    <nd ref="675900167"/>
    <nd ref="423892938"/>
    <tag k="highway" v="residential"/>
    <tag k="maxspeed" v="50"/>
    <tag k="maxspeed:source" v="default residential speed limit in Australia"/>
    <tag k="name" v="Straitsman Way"/>
    <tag k="source" v="survey"/>
  </way>
  <way id="36343261" version="6" timestamp="2012-01-18T23:35:14Z" uid="147510" user="woodpeck_fixbot" changeset="10432847">
    <nd ref="423893003"/>
    <nd ref="675900167"/>
    <nd ref="423892938"/>
    <tag k="highway" v="residential"/>
    <tag k="name" v="Straitsman Way"/>
    <tag k="source" v="survey"/>
  </way>
  <way id="36343262" version="5" timestamp="2010-07-09T07:47:47Z" uid="74617" user="JohnSmith" changeset="5171569">
    <nd ref="423892989"/>
    <nd ref="423893052"/>
    <nd ref="423893057"/>
    <nd ref="423893060"/>
    <nd ref="423893062"/>
    <nd ref="675899589"/>
    <nd ref="423893064"/>
    <nd ref="423893066"/>
    <nd ref="675899606"/>
    <nd ref="423893068"/>
    <nd ref="675899616"/>
    <nd ref="423893071"/>
    <nd ref="423893023"/>
    <tag k="highway" v="residential"/>
    <tag k="maxspeed" v="50"/>
    <tag k="maxspeed:source" v="default residential speed limit in Australia"/>
    <tag k="name" v="Straitsman Way"/>
    <tag k="source" v="survey"/>
  </way>
  <way id="36343262" version="6" timestamp="2012-01-18T23:35:16Z" uid="147510" user="woodpeck_fixbot" changeset="10432847">
    <nd ref="423892989"/>
    <nd ref="423893052"/>
    <nd ref="423893057"/>
    <nd ref="423893060"/>
    <nd ref="423893062"/>
    <nd ref="675899589"/>
    <nd ref="423893064"/>
    <nd ref="423893066"/>
    <nd ref="675899606"/>
    <nd ref="423893068"/>
    <nd ref="675899616"/>
    <nd ref="423893071"/>
    <nd ref="423893023"/>
    <tag k="highway" v="residential"/>
    <tag k="name" v="Straitsman Way"/>
    <tag k="source" v="survey"/>
  </way>
  <way id="36343263" version="6" timestamp="2010-07-09T07:45:08Z" uid="74617" user="JohnSmith" changeset="5171569">
    <nd ref="423892914"/>
    <nd ref="423893085"/>
    <nd ref="423893089"/>
    <nd ref="675899789"/>
    <nd ref="423893092"/>
    <nd ref="675899796"/>
    <nd ref="675899805"/>
    <nd ref="423893097"/>
    <nd ref="675899816"/>
    <nd ref="675899826"/>
    <nd ref="423893101"/>
    <nd ref="423893105"/>
    <tag k="highway" v="residential"/>
    <tag k="maxspeed" v="50"/>
    <tag k="maxspeed:source" v="default residential speed limit in Australia"/>
    <tag k="name" v="Arabella Mews"/>
    <tag k="source" v="survey"/>
  </way>
  <way id="36343263" version="7" timestamp="2012-01-18T23:35:20Z" uid="147510" user="woodpeck_fixbot" changeset="10432847">
    <nd ref="423892914"/>
    <nd ref="423893085"/>
    <nd ref="423893089"/>
    <nd ref="675899789"/>
    <nd ref="423893092"/>
    <nd ref="675899796"/>
    <nd ref="675899805"/>
    <nd ref="423893097"/>
    <nd ref="675899816"/>
    <nd ref="675899826"/>
    <nd ref="423893101"/>
    <nd ref="423893105"/>
    <tag k="highway" v="residential"/>
    <tag k="name" v="Arabella Mews"/>
    <tag k="source" v="survey"/>
  </way>
  <way id="36343264" version="6" timestamp="2010-07-09T07:47:20Z" uid="74617" user="JohnSmith" changeset="5171569">
    <nd ref="423893092"/>
    <nd ref="423893130"/>
    <nd ref="675899868"/>
    <nd ref="423893133"/>
    <tag k="highway" v="residential"/>
    <tag k="maxspeed" v="50"/>
    <tag k="maxspeed:source" v="default residential speed limit in Australia"/>
    <tag k="name" v="Emma Court"/>
    <tag k="source" v="survey"/>
  </way>
  <way id="36343264" version="7" timestamp="2012-01-18T23:35:24Z" uid="147510" user="woodpeck_fixbot" changeset="10432847">
    <nd ref="423893092"/>
    <nd ref="423893130"/>
    <nd ref="675899868"/>
    <nd ref="423893133"/>
    <tag k="highway" v="residential"/>
    <tag k="name" v="Emma Court"/>
    <tag k="source" v="survey"/>
  </way>
  <way id="36343265" version="5" timestamp="2010-07-09T07:44:33Z" uid="74617" user="JohnSmith" changeset="5171569">
    <nd ref="423893105"/>
    <nd ref="423893138"/>
    <nd ref="564165198"/>
    <nd ref="564165204"/>
    <nd ref="423893143"/>
    <tag k="highway" v="residential"/>
    <tag k="maxspeed" v="50"/>
    <tag k="maxspeed:source" v="default residential speed limit in Australia"/>
    <tag k="name" v="Sorata Place"/>
    <tag k="source" v="survey"/>
  </way>
  <way id="36343265" version="6" timestamp="2012-01-18T23:35:26Z" uid="147510" user="woodpeck_fixbot" changeset="10432847">
    <nd ref="423893105"/>
    <nd ref="423893138"/>
    <nd ref="564165198"/>
    <nd ref="564165204"/>
    <nd ref="423893143"/>
    <tag k="highway" v="residential"/>
    <tag k="name" v="Sorata Place"/>
    <tag k="source" v="survey"/>
  </way>
  <way id="36343266" version="5" timestamp="2010-07-09T07:51:49Z" uid="74617" user="JohnSmith" changeset="5171569">
    <nd ref="423892867"/>
    <nd ref="423893149"/>
    <nd ref="675900556"/>
    <nd ref="423893152"/>
    <nd ref="423893162"/>
    <tag k="highway" v="residential"/>
    <tag k="maxspeed" v="50"/>
    <tag k="maxspeed:source" v="default residential speed limit in Australia"/>
    <tag k="name" v="Tripoli Mews"/>
    <tag k="source" v="survey"/>
  </way>
  <way id="36343266" version="6" timestamp="2012-01-18T23:35:29Z" uid="147510" user="woodpeck_fixbot" changeset="10432847">
    <nd ref="423892867"/>
    <nd ref="423893149"/>
    <nd ref="675900556"/>
    <nd ref="423893152"/>
    <nd ref="423893162"/>
    <tag k="highway" v="residential"/>
    <tag k="name" v="Tripoli Mews"/>
    <tag k="source" v="survey"/>
  </way>
  <way id="36343267" version="6" timestamp="2010-07-09T07:49:35Z" uid="74617" user="JohnSmith" changeset="5171569">
    <nd ref="423893162"/>
    <nd ref="564165220"/>
    <nd ref="564165226"/>
    <nd ref="423893169"/>
    <nd ref="564165232"/>
    <nd ref="675899431"/>
    <nd ref="423893143"/>
    <tag k="highway" v="residential"/>
    <tag k="maxspeed" v="50"/>
    <tag k="maxspeed:source" v="default residential speed limit in Australia"/>
    <tag k="name" v="Tamar Lane"/>
    <tag k="source" v="survey"/>
  </way>
  <way id="36343267" version="7" timestamp="2012-01-18T23:35:36Z" uid="147510" user="woodpeck_fixbot" changeset="10432847">
    <nd ref="423893162"/>
    <nd ref="564165220"/>
    <nd ref="564165226"/>
    <nd ref="423893169"/>
    <nd ref="564165232"/>
    <nd ref="675899431"/>
    <nd ref="423893143"/>
    <tag k="highway" v="residential"/>
    <tag k="name" v="Tamar Lane"/>
    <tag k="source" v="survey"/>
  </way>
  <way id="36343268" version="4" timestamp="2010-07-09T07:48:59Z" uid="74617" user="JohnSmith" changeset="5171569">
    <nd ref="423892858"/>
    <nd ref="423893179"/>
    <nd ref="423893182"/>
    <nd ref="423893185"/>
    <tag k="highway" v="residential"/>
    <tag k="maxspeed" v="50"/>
    <tag k="maxspeed:source" v="default residential speed limit in Australia"/>
    <tag k="name" v="Westwind Place"/>
    <tag k="source" v="survey"/>
  </way>
  <way id="36343268" version="5" timestamp="2012-01-18T23:35:41Z" uid="147510" user="woodpeck_fixbot" changeset="10432847">
    <nd ref="423892858"/>
    <nd ref="423893179"/>
    <nd ref="423893182"/>
    <nd ref="423893185"/>
    <tag k="highway" v="residential"/>
    <tag k="name" v="Westwind Place"/>
    <tag k="source" v="survey"/>
  </way>
  <way id="36343269" version="5" timestamp="2010-07-09T07:46:26Z" uid="74617" user="JohnSmith" changeset="5171569">
    <nd ref="423892897"/>
    <nd ref="423893197"/>
    <nd ref="675894346"/>
    <nd ref="423893205"/>
    <nd ref="675894370"/>
    <tag k="highway" v="residential"/>
    <tag k="maxspeed" v="50"/>
    <tag k="maxspeed:source" v="default residential speed limit in Australia"/>
    <tag k="name" v="Langley Mews"/>
    <tag k="source" v="survey"/>
  </way>
  <way id="36343269" version="6" timestamp="2012-01-18T23:35:46Z" uid="147510" user="woodpeck_fixbot" changeset="10432847">
    <nd ref="423892897"/>
    <nd ref="423893197"/>
    <nd ref="675894346"/>
    <nd ref="423893205"/>
    <nd ref="675894370"/>
    <tag k="highway" v="residential"/>
    <tag k="name" v="Langley Mews"/>
    <tag k="source" v="survey"/>
  </way>
  <way id="36343270" version="5" timestamp="2010-07-09T07:53:22Z" uid="74617" user="JohnSmith" changeset="5171569">
    <nd ref="423893213"/>
    <nd ref="423893215"/>
    <nd ref="675895375"/>
    <nd ref="423893218"/>
    <nd ref="675895383"/>
    <nd ref="423892886"/>
    <nd ref="675895386"/>
    <nd ref="675895409"/>
    <nd ref="423892888"/>
    <nd ref="675895412"/>
    <nd ref="423892890"/>
    <nd ref="423892897"/>
    <nd ref="423892877"/>
    <tag k="highway" v="residential"/>
    <tag k="maxspeed" v="50"/>
    <tag k="maxspeed:source" v="default residential speed limit in Australia"/>
    <tag k="name" v="Hartford Ramble"/>
    <tag k="source" v="survey"/>
  </way>
  <way id="36343270" version="6" timestamp="2012-01-18T23:35:52Z" uid="147510" user="woodpeck_fixbot" changeset="10432847">
    <nd ref="423893213"/>
    <nd ref="423893215"/>
    <nd ref="675895375"/>
    <nd ref="423893218"/>
    <nd ref="675895383"/>
    <nd ref="423892886"/>
    <nd ref="675895386"/>
    <nd ref="675895409"/>
    <nd ref="423892888"/>
    <nd ref="675895412"/>
    <nd ref="423892890"/>
    <nd ref="423892897"/>
    <nd ref="423892877"/>
    <tag k="highway" v="residential"/>
    <tag k="name" v="Hartford Ramble"/>
    <tag k="source" v="survey"/>
  </way>
  <way id="36343271" version="5" timestamp="2010-07-09T07:51:17Z" uid="74617" user="JohnSmith" changeset="5171569">
    <nd ref="423893149"/>
    <nd ref="675647903"/>
    <nd ref="423893227"/>
    <nd ref="423893229"/>
    <nd ref="675899927"/>
    <nd ref="423892886"/>
    <tag k="highway" v="residential"/>
    <tag k="maxspeed" v="50"/>
    <tag k="maxspeed:source" v="default residential speed limit in Australia"/>
    <tag k="name" v="Albury Lane"/>
    <tag k="source" v="survey"/>
  </way>
  <way id="36343271" version="6" timestamp="2012-01-18T23:35:56Z" uid="147510" user="woodpeck_fixbot" changeset="10432847">
    <nd ref="423893149"/>
    <nd ref="675647903"/>
    <nd ref="423893227"/>
    <nd ref="423893229"/>
    <nd ref="675899927"/>
    <nd ref="423892886"/>
    <tag k="highway" v="residential"/>
    <tag k="name" v="Albury Lane"/>
    <tag k="source" v="survey"/>
  </way>
  <way id="36343272" version="5" timestamp="2010-07-09T07:50:47Z" uid="74617" user="JohnSmith" changeset="5171569">
    <nd ref="423893244"/>
    <nd ref="675894958"/>
    <nd ref="423893248"/>
    <nd ref="675894976"/>
    <nd ref="423893213"/>
    <tag k="highway" v="residential"/>
    <tag k="maxspeed" v="50"/>
    <tag k="maxspeed:source" v="default residential speed limit in Australia"/>
    <tag k="name" v="Bremen Lane"/>
    <tag k="source" v="survey"/>
  </way>
  <way id="36343272" version="6" timestamp="2012-01-18T23:36:03Z" uid="147510" user="woodpeck_fixbot" changeset="10432847">
    <nd ref="423893244"/>
    <nd ref="675894958"/>
    <nd ref="423893248"/>
    <nd ref="675894976"/>
    <nd ref="423893213"/>
    <tag k="highway" v="residential"/>
    <tag k="name" v="Bremen Lane"/>
    <tag k="source" v="survey"/>
  </way>
  <way id="36343273" version="5" timestamp="2010-07-09T07:48:20Z" uid="74617" user="JohnSmith" changeset="5171569">
    <nd ref="423892888"/>
    <nd ref="423893256"/>
    <nd ref="675895020"/>
    <nd ref="423893258"/>
    <nd ref="423893244"/>
    <tag k="highway" v="residential"/>
    <tag k="maxspeed" v="50"/>
    <tag k="maxspeed:source" v="default residential speed limit in Australia"/>
    <tag k="name" v="Lowana Court"/>
    <tag k="source" v="survey"/>
  </way>
  <way id="36343273" version="6" timestamp="2012-01-18T23:36:08Z" uid="147510" user="woodpeck_fixbot" changeset="10432847">
    <nd ref="423892888"/>
    <nd ref="423893256"/>
    <nd ref="675895020"/>
    <nd ref="423893258"/>
    <nd ref="423893244"/>
    <tag k="highway" v="residential"/>
    <tag k="name" v="Lowana Court"/>
    <tag k="source" v="survey"/>
  </way>
  <way id="36343274" version="5" timestamp="2010-07-09T07:43:45Z" uid="74617" user="JohnSmith" changeset="5171569">
    <nd ref="423892890"/>
    <nd ref="423893264"/>
    <nd ref="423893266"/>
    <nd ref="423893268"/>
    <nd ref="675894684"/>
    <nd ref="423893271"/>
    <nd ref="675894697"/>
    <nd ref="423893291"/>
    <tag k="highway" v="residential"/>
    <tag k="maxspeed" v="50"/>
    <tag k="maxspeed:source" v="default residential speed limit in Australia"/>
    <tag k="name" v="Highlander Place"/>
    <tag k="source" v="survey"/>
  </way>
  <way id="36343274" version="6" timestamp="2012-01-18T23:36:15Z" uid="147510" user="woodpeck_fixbot" changeset="10432847">
    <nd ref="423892890"/>
    <nd ref="423893264"/>
    <nd ref="423893266"/>
    <nd ref="423893268"/>
    <nd ref="675894684"/>
    <nd ref="423893271"/>
    <nd ref="675894697"/>
    <nd ref="423893291"/>
    <tag k="highway" v="residential"/>
    <tag k="name" v="Highlander Place"/>
    <tag k="source" v="survey"/>
  </way>
  <way id="36343275" version="5" timestamp="2010-07-09T07:52:51Z" uid="74617" user="JohnSmith" changeset="5171569">
    <nd ref="423893264"/>
    <nd ref="423893306"/>
    <nd ref="675895036"/>
    <nd ref="423893311"/>
    <tag k="highway" v="residential"/>
    <tag k="maxspeed" v="50"/>
    <tag k="maxspeed:source" v="default residential speed limit in Australia"/>
    <tag k="name" v="Barham Mews"/>
    <tag k="source" v="survey"/>
  </way>
  <way id="36343275" version="6" timestamp="2012-01-18T23:36:19Z" uid="147510" user="woodpeck_fixbot" changeset="10432847">
    <nd ref="423893264"/>
    <nd ref="423893306"/>
    <nd ref="675895036"/>
    <nd ref="423893311"/>
    <tag k="highway" v="residential"/>
    <tag k="name" v="Barham Mews"/>
    <tag k="source" v="survey"/>
  </way>
  <way id="36343276" version="5" timestamp="2010-07-09T07:52:10Z" uid="74617" user="JohnSmith" changeset="5171569">
    <nd ref="423893291"/>
    <nd ref="675895043"/>
    <nd ref="675895046"/>
    <nd ref="675895051"/>
    <nd ref="675895055"/>
    <nd ref="423893311"/>
    <tag k="highway" v="residential"/>
    <tag k="maxspeed" v="50"/>
    <tag k="maxspeed:source" v="default residential speed limit in Australia"/>
    <tag k="name" v="Alto Lane"/>
    <tag k="source" v="survey"/>
  </way>
  <way id="36343276" version="6" timestamp="2012-01-18T23:36:21Z" uid="147510" user="woodpeck_fixbot" changeset="10432847">
    <nd ref="423893291"/>
    <nd ref="675895043"/>
    <nd ref="675895046"/>
    <nd ref="675895051"/>
    <nd ref="675895055"/>
    <nd ref="423893311"/>
    <tag k="highway" v="residential"/>
    <tag k="name" v="Alto Lane"/>
    <tag k="source" v="survey"/>
  </way>
  <way id="36343770" version="2" timestamp="2010-03-28T02:20:16Z" uid="20587" user="balrog-kun" changeset="4250871">
    <nd ref="423898141"/>
    <nd ref="87505122"/>
    <nd ref="423898297"/>
    <nd ref="423898301"/>
    <nd ref="87505125"/>
    <nd ref="87505127"/>
    <nd ref="87505129"/>
    <nd ref="423898323"/>
    <nd ref="87505133"/>
    <nd ref="87505136"/>
    <tag k="created_by" v="Potlatch 0.9c"/>
    <tag k="highway" v="residential"/>
    <tag k="name" v="East Holland Avenue"/>
    <tag k="tiger:cfcc" v="A41"/>
    <tag k="tiger:county" v="Fresno, CA"/>
    <tag k="tiger:name_base" v="Holland"/>
    <tag k="tiger:name_direction_prefix" v="E"/>
    <tag k="tiger:name_type" v="Ave"/>
    <tag k="tiger:reviewed" v="no"/>
    <tag k="tiger:separated" v="no"/>
    <tag k="tiger:source" v="tiger_import_dch_v0.6_20070809"/>
    <tag k="tiger:tlid" v="197577113:197577114:197577139"/>
    <tag k="tiger:zip_left" v="93726"/>
    <tag k="tiger:zip_right" v="93726"/>
  </way>
</osm>
