<?xml version='1.0' encoding='UTF-8'?>
<osm version="0.6" generator="libosmium/2.20.0">
  <way id="36375502" version="4" timestamp="2009-07-26T01:06:06Z" uid="18775" user="drlizau" changeset="1939861"/>
  <way id="36375729" version="5" timestamp="2009-07-30T14:48:47Z" uid="115477" user="wowik" changeset="1985760">
    <nd ref="253167825"/>
    <nd ref="424234378"/>
    <tag k="addr:postcode" v="124482"/>
    <tag k="bicycle" v="yes"/>
    <tag k="cladr:code" v="77000002000306700"/>
    <tag k="cladr:name" v="Центральный"/>
    <tag k="cladr:suffix" v="Проспект"/>
    <tag k="comment" v="Строящаяся дорога, уже можно ходить пешком и ехать на велосипеде"/>
    <tag k="construction" v="primary"/>
    <tag k="foot" v="yes"/>
    <tag k="highway" v="construction"/>
    <tag k="name" v="Центральный проспект"/>
  </way>
  <way id="36375729" version="6" timestamp="2009-07-30T14:50:27Z" uid="115477" user="wowik" changeset="1985760">
    <nd ref="253167825"/>
    <nd ref="424234378"/>
    <tag k="addr:postcode" v="124482"/>
    <tag k="cladr:code" v="77000002000306700"/>
    <tag k="cladr:name" v="Центральный"/>
    <tag k="cladr:suffix" v="Проспект"/>
    <tag k="comment" v="Строящаяся дорога, уже можно ходить пешком и ехать на велосипеде"/>
    <tag k="construction" v="primary"/>
    <tag k="foot" v="yes"/>
    <tag k="highway" v="construction"/>
    <tag k="name" v="Центральный проспект"/>
  </way>
  <way id="36375729" version="7" timestamp="2009-07-30T15:03:59Z" uid="115477" user="wowik" changeset="1985870">
    <nd ref="253167825"/>
    <nd ref="424234378"/>
    <tag k="addr:postcode" v="124482"/>
    <tag k="cladr:code" v="77000002000306700"/>
    <tag k="cladr:name" v="Центральный"/>
    <tag k="cladr:suffix" v="Проспект"/>
    <tag k="comment" v="Строящаяся дорога, уже можно ходить пешком и ехать на велосипеде"/>
    <tag k="construction" v="primary"/>
    <tag k="foot" v="yes"/>
    <tag k="highway" v="construction"/>
    <tag k="lanes" v="4"/>
    <tag k="name" v="Центральный проспект"/>
  </way>
  <way id="36375729" version="8" timestamp="2009-09-01T19:09:58Z" uid="109327" user="OverQuantum" changeset="2341714">
    <nd ref="253167825"/>
    <nd ref="424234378"/>
    <tag k="addr:postcode" v="124482"/>
    <tag k="cladr:code" v="77000002000306700"/>
    <tag k="cladr:name" v="Центральный"/>
    <tag k="cladr:suffix" v="Проспект"/>
    <tag k="highway" v="primary"/>
    <tag k="lanes" v="4"/>
    <tag k="name" v="Центральный проспект"/>
    <tag k="oneway" v="yes"/>
  </way>
  <way id="36375729" version="9" timestamp="2009-09-02T17:10:15Z" uid="109327" user="OverQuantum" changeset="2351074">
    <nd ref="253167825"/>
    <nd ref="424234378"/>
    <tag k="addr:postcode" v="124482"/>
    <tag k="cladr:code" v="77000002000306700"/>
    <tag k="cladr:name" v="Центральный"/>
    <tag k="cladr:suffix" v="Проспект"/>
    <tag k="highway" v="primary"/>
    <tag k="lanes" v="4"/>
    <tag k="name" v="Центральный проспект"/>
  </way>
  <way id="36375729" version="10" timestamp="2009-11-15T11:25:15Z" uid="11132" user="liosha" changeset="3120735">
    <nd ref="253167825"/>
    <nd ref="424234378"/>
    <tag k="addr:postcode" v="124482"/>
    <tag k="cladr:code" v="77000002000306700"/>
    <tag k="cladr:name" v="Центральный"/>
    <tag k="cladr:suffix" v="Проспект"/>
    <tag k="highway" v="primary"/>
    <tag k="lanes" v="4"/>
    <tag k="name" v="Центральный проспект"/>
    <tag k="omkum:code" v="30485"/>
    <tag k="sorting_name" v="Центральный  проспект"/>
  </way>
  <way id="36375729" version="11" timestamp="2009-12-16T09:58:11Z" uid="115477" user="wowik" changeset="3385456">
    <nd ref="253167825"/>
    <nd ref="424234378"/>
    <tag k="addr:postcode" v="124482"/>
    <tag k="cladr:code" v="77000002000306700"/>
    <tag k="cladr:name" v="Центральный"/>
    <tag k="cladr:suffix" v="Проспект"/>
    <tag k="highway" v="primary"/>
    <tag k="lanes" v="2"/>
    <tag k="name" v="Центральный проспект"/>
    <tag k="omkum:code" v="30485"/>
    <tag k="oneway" v="yes"/>
    <tag k="sorting_name" v="Центральный  проспект"/>
  </way>
  <way id="36375729" version="12" timestamp="2010-01-19T20:55:24Z" uid="115477" user="wowik" changeset="3662154">
    <nd ref="253167825"/>
    <nd ref="616827549"/>
    <nd ref="424234378"/>
    <tag k="addr:postcode" v="124482"/>
    <tag k="cladr:code" v="77000002000306700"/>
    <tag k="cladr:name" v="Центральный"/>
    <tag k="cladr:suffix" v="Проспект"/>
    <tag k="highway" v="primary"/>
    <tag k="lanes" v="2"/>
    <tag k="name" v="Центральный проспект"/>
    <tag k="omkum:code" v="30485"/>
    <tag k="oneway" v="yes"/>
    <tag k="sorting_name" v="Центральный  проспект"/>
  </way>
  <way id="36375729" version="13" timestamp="2010-10-29T12:33:46Z" uid="241531" user="dik_man" changeset="6218128">
    <nd ref="253167825"/>
    <nd ref="616827549"/>
    <nd ref="424234378"/>
    <tag k=" speed limits" v="40"/>
    <tag k="addr:postcode" v="124482"/>
    <tag k="cladr:code" v="77000002000306700"/>
    <tag k="cladr:name" v="Центральный"/>
    <tag k="cladr:suffix" v="Проспект"/>
    <tag k="highway" v="primary"/>
    <tag k="lanes" v="2"/>
    <tag k="name" v="Центральный проспект"/>
    <tag k="omkum:code" v="30485"/>
    <tag k="oneway" v="yes"/>
    <tag k="sorting_name" v="Центральный  проспект"/>
  </way>
  <way id="36375729" version="14" timestamp="2010-10-29T19:21:50Z" uid="70696" user="xybot" changeset="6221363">
    <nd ref="253167825"/>
    <nd ref="616827549"/>
    <nd ref="424234378"/>
    <tag k="addr:postcode" v="124482"/>
    <tag k="cladr:code" v="77000002000306700"/>
    <tag k="cladr:name" v="Центральный"/>
    <tag k="cladr:suffix" v="Проспект"/>
    <tag k="highway" v="primary"/>
    <tag k="lanes" v="2"/>
    <tag k="name" v="Центральный проспект"/>
    <tag k="omkum:code" v="30485"/>
    <tag k="oneway" v="yes"/>
    <tag k="sorting_name" v="Центральный  проспект"/>
    <tag k="speed limits" v="40"/>
  </way>
  <way id="36375729" version="15" timestamp="2011-01-28T12:10:39Z" uid="115477" user="wowik" changeset="7112325">
    <nd ref="253167825"/>
    <nd ref="1124796691"/>
    <nd ref="616827549"/>
    <nd ref="424234378"/>
    <tag k="addr:postcode" v="124482"/>
    <tag k="cladr:code" v="77000002000306700"/>
    <tag k="cladr:name" v="Центральный"/>
    <tag k="cladr:suffix" v="Проспект"/>
    <tag k="highway" v="primary"/>
    <tag k="lanes" v="2"/>
    <tag k="name" v="Центральный проспект"/>
    <tag k="omkum:code" v="30485"/>
    <tag k="oneway" v="yes"/>
    <tag k="sorting_name" v="Центральный  проспект"/>
  </way>
  <way id="36375729" version="16" timestamp="2011-04-21T10:38:42Z" uid="241531" user="dik_man" changeset="7924197">
    <nd ref="253167825"/>
    <nd ref="1124796691"/>
    <nd ref="616827549"/>
    <nd ref="424234378"/>
    <tag k="addr:postcode" v="124482"/>
    <tag k="cladr:code" v="77000002000306700"/>
    <tag k="cladr:name" v="Центральный"/>
    <tag k="cladr:suffix" v="Проспект"/>
    <tag k="highway" v="primary"/>
    <tag k="lanes" v="2"/>
    <tag k="maxspeed" v="40"/>
    <tag k="name" v="Центральный проспект"/>
    <tag k="omkum:code" v="30485"/>
    <tag k="oneway" v="yes"/>
    <tag k="sorting_name" v="Центральный  проспект"/>
  </way>
  <way id="36375729" version="17" timestamp="2011-10-09T22:39:44Z" uid="518169" user="kosatov" changeset="9517911">
    <nd ref="253167825"/>
    <nd ref="616827549"/>
    <nd ref="424234378"/>
    <tag k="addr:postcode" v="124482"/>
    <tag k="cladr:code" v="77000002000306700"/>
    <tag k="cladr:name" v="Центральный"/>
    <tag k="cladr:suffix" v="Проспект"/>
    <tag k="highway" v="primary"/>
    <tag k="lanes" v="2"/>
    <tag k="maxspeed" v="40"/>
    <tag k="name" v="Центральный проспект"/>
    <tag k="omkum:code" v="30485"/>
    <tag k="oneway" v="yes"/>
    <tag k="sorting_name" v="Центральный  проспект"/>
  </way>
  <way id="36375729" version="18" timestamp="2011-10-27T19:40:48Z" uid="518169" user="kosatov" changeset="9671386">
    <nd ref="429301186"/>
    <nd ref="253167825"/>
    <nd ref="424234378"/>
    <tag k="addr:postcode" v="124482"/>
    <tag k="cladr:code" v="77000002000306700"/>
    <tag k="cladr:name" v="Центральный"/>
    <tag k="cladr:suffix" v="Проспект"/>
    <tag k="highway" v="primary"/>
    <tag k="lanes" v="2"/>
    <tag k="maxspeed" v="40"/>
    <tag k="name" v="Центральный проспект"/>
    <tag k="omkum:code" v="30485"/>
    <tag k="oneway" v="yes"/>
    <tag k="sorting_name" v="Центральный  проспект"/>
  </way>
  <way id="36375729" version="19" timestamp="2011-10-31T17:08:59Z" uid="518169" user="kosatov" changeset="9705284">
    <nd ref="306040023"/>
    <nd ref="663694561"/>
    <nd ref="306040092"/>
    <nd ref="429301186"/>
    <nd ref="253167825"/>
    <nd ref="424234378"/>
    <tag k="addr:postcode" v="124482"/>
    <tag k="cladr:code" v="77000002000306700"/>
    <tag k="cladr:name" v="Центральный"/>
    <tag k="cladr:suffix" v="Проспект"/>
    <tag k="highway" v="primary"/>
    <tag k="lanes" v="2"/>
    <tag k="maxspeed" v="40"/>
    <tag k="name" v="Центральный проспект"/>
    <tag k="omkum:code" v="30485"/>
    <tag k="oneway" v="yes"/>
    <tag k="sorting_name" v="Центральный  проспект"/>
  </way>
  <way id="36375750" version="6" timestamp="2009-07-30T14:48:48Z" uid="115477" user="wowik" changeset="1985760">
    <nd ref="424234378"/>
    <nd ref="424234846"/>
    <tag k="addr:postcode" v="124482"/>
    <tag k="bicycle" v="yes"/>
    <tag k="bridge" v="yes"/>
    <tag k="cladr:code" v="77000002000306700"/>
    <tag k="cladr:name" v="Центральный"/>
    <tag k="cladr:suffix" v="Проспект"/>
    <tag k="comment" v="Строящийся мост, уже можно ходить пешком и ехать на велосипеде"/>
    <tag k="construction" v="primary"/>
    <tag k="foot" v="yes"/>
    <tag k="highway" v="construction"/>
    <tag k="layer" v="1"/>
    <tag k="name" v="Центральный проспект"/>
  </way>
  <way id="36375750" version="7" timestamp="2009-07-30T15:03:59Z" uid="115477" user="wowik" changeset="1985870">
    <nd ref="424234378"/>
    <nd ref="424234846"/>
    <tag k="addr:postcode" v="124482"/>
    <tag k="bicycle" v="yes"/>
    <tag k="bridge" v="yes"/>
    <tag k="cladr:code" v="77000002000306700"/>
    <tag k="cladr:name" v="Центральный"/>
    <tag k="cladr:suffix" v="Проспект"/>
    <tag k="comment" v="Строящийся мост, уже можно ходить пешком и ехать на велосипеде"/>
    <tag k="construction" v="primary"/>
    <tag k="foot" v="yes"/>
    <tag k="highway" v="construction"/>
    <tag k="lanes" v="4"/>
    <tag k="layer" v="1"/>
    <tag k="name" v="Центральный проспект"/>
  </way>
  <way id="36375750" version="8" timestamp="2009-09-01T19:09:58Z" uid="109327" user="OverQuantum" changeset="2341714">
    <nd ref="424234378"/>
    <nd ref="424234846"/>
    <tag k="addr:postcode" v="124482"/>
    <tag k="bridge" v="yes"/>
    <tag k="cladr:code" v="77000002000306700"/>
    <tag k="cladr:name" v="Центральный"/>
    <tag k="cladr:suffix" v="Проспект"/>
    <tag k="highway" v="primary"/>
    <tag k="lanes" v="4"/>
    <tag k="layer" v="1"/>
    <tag k="name" v="Центральный проспект"/>
    <tag k="oneway" v="yes"/>
  </way>
  <way id="36375750" version="9" timestamp="2009-09-02T17:10:15Z" uid="109327" user="OverQuantum" changeset="2351074">
    <nd ref="424234378"/>
    <nd ref="424234846"/>
    <tag k="addr:postcode" v="124482"/>
    <tag k="bridge" v="yes"/>
    <tag k="cladr:code" v="77000002000306700"/>
    <tag k="cladr:name" v="Центральный"/>
    <tag k="cladr:suffix" v="Проспект"/>
    <tag k="highway" v="primary"/>
    <tag k="lanes" v="4"/>
    <tag k="layer" v="1"/>
    <tag k="name" v="Центральный проспект"/>
  </way>
  <way id="36375750" version="10" timestamp="2009-11-15T11:25:16Z" uid="11132" user="liosha" changeset="3120735">
    <nd ref="424234378"/>
    <nd ref="424234846"/>
    <tag k="addr:postcode" v="124482"/>
    <tag k="bridge" v="yes"/>
    <tag k="cladr:code" v="77000002000306700"/>
    <tag k="cladr:name" v="Центральный"/>
    <tag k="cladr:suffix" v="Проспект"/>
    <tag k="highway" v="primary"/>
    <tag k="lanes" v="4"/>
    <tag k="layer" v="1"/>
    <tag k="name" v="Центральный проспект"/>
    <tag k="omkum:code" v="30485"/>
    <tag k="sorting_name" v="Центральный  проспект"/>
  </way>
  <way id="36375750" version="11" timestamp="2009-12-16T09:58:08Z" uid="115477" user="wowik" changeset="3385456">
    <nd ref="424234378"/>
    <nd ref="424234846"/>
    <tag k="addr:postcode" v="124482"/>
    <tag k="bridge" v="yes"/>
    <tag k="cladr:code" v="77000002000306700"/>
    <tag k="cladr:name" v="Центральный"/>
    <tag k="cladr:suffix" v="Проспект"/>
    <tag k="highway" v="primary"/>
    <tag k="lanes" v="2"/>
    <tag k="layer" v="1"/>
    <tag k="name" v="Центральный проспект"/>
    <tag k="omkum:code" v="30485"/>
    <tag k="oneway" v="yes"/>
    <tag k="sorting_name" v="Центральный  проспект"/>
  </way>
  <way id="36375750" version="12" timestamp="2010-10-29T12:34:13Z" uid="241531" user="dik_man" changeset="6218128">
    <nd ref="424234378"/>
    <nd ref="424234846"/>
    <tag k=" speed limits" v="40"/>
    <tag k="addr:postcode" v="124482"/>
    <tag k="bridge" v="yes"/>
    <tag k="cladr:code" v="77000002000306700"/>
    <tag k="cladr:name" v="Центральный"/>
    <tag k="cladr:suffix" v="Проспект"/>
    <tag k="highway" v="primary"/>
    <tag k="lanes" v="2"/>
    <tag k="layer" v="1"/>
    <tag k="name" v="Центральный проспект"/>
    <tag k="omkum:code" v="30485"/>
    <tag k="oneway" v="yes"/>
    <tag k="sorting_name" v="Центральный  проспект"/>
  </way>
  <way id="36375750" version="13" timestamp="2010-10-29T19:21:51Z" uid="70696" user="xybot" changeset="6221363">
    <nd ref="424234378"/>
    <nd ref="424234846"/>
    <tag k="addr:postcode" v="124482"/>
    <tag k="bridge" v="yes"/>
    <tag k="cladr:code" v="77000002000306700"/>
    <tag k="cladr:name" v="Центральный"/>
    <tag k="cladr:suffix" v="Проспект"/>
    <tag k="highway" v="primary"/>
    <tag k="lanes" v="2"/>
    <tag k="layer" v="1"/>
    <tag k="name" v="Центральный проспект"/>
    <tag k="omkum:code" v="30485"/>
    <tag k="oneway" v="yes"/>
    <tag k="sorting_name" v="Центральный  проспект"/>
    <tag k="speed limits" v="40"/>
  </way>
  <way id="36375750" version="14" timestamp="2011-03-31T22:53:00Z" uid="314211" user="OldIvantey" changeset="7730895">
    <nd ref="424234378"/>
    <nd ref="424234846"/>
    <tag k="addr:postcode" v="124482"/>
    <tag k="bridge" v="yes"/>
    <tag k="cladr:code" v="77000002000306700"/>
    <tag k="cladr:name" v="Центральный"/>
    <tag k="cladr:suffix" v="Проспект"/>
    <tag k="highway" v="primary"/>
    <tag k="lanes" v="2"/>
    <tag k="layer" v="1"/>
    <tag k="maxspeed" v="40"/>
    <tag k="name" v="Центральный проспект"/>
    <tag k="omkum:code" v="30485"/>
    <tag k="oneway" v="yes"/>
    <tag k="sorting_name" v="Центральный  проспект"/>
  </way>
  <way id="36375751" version="5" timestamp="2009-07-30T14:48:47Z" uid="115477" user="wowik" changeset="1985760">
    <nd ref="424234846"/>
    <nd ref="424234854"/>
    <nd ref="424234861"/>
    <tag k="addr:postcode" v="124482"/>
    <tag k="bicycle" v="yes"/>
    <tag k="cladr:code" v="77000002000306700"/>
    <tag k="cladr:name" v="Центральный"/>
    <tag k="cladr:suffix" v="Проспект"/>
    <tag k="comment" v="Строящаяся дорога, уже можно ходить пешком и ехать на велосипеде"/>
    <tag k="construction" v="primary"/>
    <tag k="foot" v="yes"/>
    <tag k="highway" v="construction"/>
    <tag k="name" v="Центральный проспект"/>
  </way>
  <way id="36375751" version="6" timestamp="2009-07-30T15:04:00Z" uid="115477" user="wowik" changeset="1985870">
    <nd ref="424234846"/>
    <nd ref="424234854"/>
    <nd ref="424234861"/>
    <tag k="addr:postcode" v="124482"/>
    <tag k="bicycle" v="yes"/>
    <tag k="cladr:code" v="77000002000306700"/>
    <tag k="cladr:name" v="Центральный"/>
    <tag k="cladr:suffix" v="Проспект"/>
    <tag k="comment" v="Строящаяся дорога, уже можно ходить пешком и ехать на велосипеде"/>
    <tag k="construction" v="primary"/>
    <tag k="foot" v="yes"/>
    <tag k="highway" v="construction"/>
    <tag k="lanes" v="4"/>
    <tag k="name" v="Центральный проспект"/>
  </way>
  <way id="36375751" version="7" timestamp="2009-09-01T19:09:58Z" uid="109327" user="OverQuantum" changeset="2341714">
    <nd ref="424234846"/>
    <nd ref="424234854"/>
    <nd ref="424234861"/>
    <tag k="addr:postcode" v="124482"/>
    <tag k="cladr:code" v="77000002000306700"/>
    <tag k="cladr:name" v="Центральный"/>
    <tag k="cladr:suffix" v="Проспект"/>
    <tag k="highway" v="primary"/>
    <tag k="lanes" v="4"/>
    <tag k="name" v="Центральный проспект"/>
    <tag k="oneway" v="yes"/>
  </way>
  <way id="36375751" version="8" timestamp="2009-09-02T17:10:15Z" uid="109327" user="OverQuantum" changeset="2351074">
    <nd ref="424234846"/>
    <nd ref="424234854"/>
    <nd ref="424234861"/>
    <tag k="addr:postcode" v="124482"/>
    <tag k="cladr:code" v="77000002000306700"/>
    <tag k="cladr:name" v="Центральный"/>
    <tag k="cladr:suffix" v="Проспект"/>
    <tag k="highway" v="primary"/>
    <tag k="lanes" v="4"/>
    <tag k="name" v="Центральный проспект"/>
  </way>
  <way id="36375751" version="9" timestamp="2009-09-20T12:03:23Z" uid="109327" user="OverQuantum" changeset="2544602">
    <nd ref="424234846"/>
    <nd ref="424234854"/>
    <nd ref="503113679"/>
    <nd ref="424234861"/>
    <tag k="addr:postcode" v="124482"/>
    <tag k="cladr:code" v="77000002000306700"/>
    <tag k="cladr:name" v="Центральный"/>
    <tag k="cladr:suffix" v="Проспект"/>
    <tag k="highway" v="primary"/>
    <tag k="lanes" v="4"/>
    <tag k="name" v="Центральный проспект"/>
  </way>
  <way id="36375751" version="10" timestamp="2009-09-25T11:00:35Z" uid="115477" user="wowik" changeset="2616855">
    <nd ref="424234846"/>
    <nd ref="507033502"/>
    <nd ref="424234854"/>
    <nd ref="503113679"/>
    <nd ref="424234861"/>
    <tag k="addr:postcode" v="124482"/>
    <tag k="cladr:code" v="77000002000306700"/>
    <tag k="cladr:name" v="Центральный"/>
    <tag k="cladr:suffix" v="Проспект"/>
    <tag k="highway" v="primary"/>
    <tag k="lanes" v="4"/>
    <tag k="name" v="Центральный проспект"/>
  </way>
  <way id="36375751" version="11" timestamp="2009-09-25T11:03:26Z" uid="115477" user="wowik" changeset="2616855">
    <nd ref="424234846"/>
    <nd ref="507034489"/>
    <nd ref="507033502"/>
    <nd ref="424234854"/>
    <nd ref="503113679"/>
    <nd ref="424234861"/>
    <tag k="addr:postcode" v="124482"/>
    <tag k="cladr:code" v="77000002000306700"/>
    <tag k="cladr:name" v="Центральный"/>
    <tag k="cladr:suffix" v="Проспект"/>
    <tag k="highway" v="primary"/>
    <tag k="lanes" v="4"/>
    <tag k="name" v="Центральный проспект"/>
  </way>
  <way id="36375751" version="12" timestamp="2009-11-15T11:24:47Z" uid="11132" user="liosha" changeset="3120735">
    <nd ref="424234846"/>
    <nd ref="507034489"/>
    <nd ref="507033502"/>
    <nd ref="424234854"/>
    <nd ref="503113679"/>
    <nd ref="424234861"/>
    <tag k="addr:postcode" v="124482"/>
    <tag k="cladr:code" v="77000002000306700"/>
    <tag k="cladr:name" v="Центральный"/>
    <tag k="cladr:suffix" v="Проспект"/>
    <tag k="highway" v="primary"/>
    <tag k="lanes" v="4"/>
    <tag k="name" v="Центральный проспект"/>
    <tag k="omkum:code" v="30485"/>
    <tag k="sorting_name" v="Центральный  проспект"/>
  </way>
  <way id="36375751" version="13" timestamp="2009-12-01T14:16:53Z" uid="11132" user="liosha" changeset="3264296">
    <nd ref="424234846"/>
    <nd ref="507034489"/>
    <tag k="addr:postcode" v="124482"/>
    <tag k="cladr:code" v="77000002000306700"/>
    <tag k="cladr:name" v="Центральный"/>
    <tag k="cladr:suffix" v="Проспект"/>
    <tag k="highway" v="primary"/>
    <tag k="lanes" v="4"/>
    <tag k="name" v="Центральный проспект"/>
    <tag k="omkum:code" v="30485"/>
    <tag k="sorting_name" v="Центральный  проспект"/>
  </way>
  <way id="36375751" version="14" timestamp="2009-12-16T09:58:09Z" uid="115477" user="wowik" changeset="3385456">
    <nd ref="424234846"/>
    <nd ref="593337647"/>
    <nd ref="507033502"/>
    <nd ref="424234854"/>
    <nd ref="503113679"/>
    <nd ref="424234861"/>
    <nd ref="305071009"/>
    <nd ref="305071019"/>
    <tag k="addr:postcode" v="124482"/>
    <tag k="cladr:code" v="77000002000306700"/>
    <tag k="cladr:name" v="Центральный"/>
    <tag k="cladr:suffix" v="Проспект"/>
    <tag k="highway" v="primary"/>
    <tag k="lanes" v="2; 4"/>
    <tag k="name" v="Центральный проспект"/>
    <tag k="omkum:code" v="30485"/>
    <tag k="oneway" v="yes"/>
    <tag k="sorting_name" v="Центральный  проспект"/>
  </way>
  <way id="36375751" version="15" timestamp="2009-12-16T10:03:34Z" uid="115477" user="wowik" changeset="3385480">
    <nd ref="424234846"/>
    <nd ref="593337647"/>
    <nd ref="507033502"/>
    <nd ref="424234854"/>
    <nd ref="503113679"/>
    <nd ref="424234861"/>
    <nd ref="305071009"/>
    <nd ref="305071019"/>
    <tag k="addr:postcode" v="124482"/>
    <tag k="cladr:code" v="77000002000306700"/>
    <tag k="cladr:name" v="Центральный"/>
    <tag k="cladr:suffix" v="Проспект"/>
    <tag k="highway" v="primary"/>
    <tag k="lanes" v="2"/>
    <tag k="name" v="Центральный проспект"/>
    <tag k="omkum:code" v="30485"/>
    <tag k="oneway" v="yes"/>
    <tag k="sorting_name" v="Центральный  проспект"/>
  </way>
  <way id="36375751" version="16" timestamp="2010-01-12T17:39:34Z" uid="115477" user="wowik" changeset="3604463">
    <nd ref="424234846"/>
    <nd ref="593337647"/>
    <nd ref="507033502"/>
    <nd ref="424234854"/>
    <nd ref="503113679"/>
    <nd ref="424234861"/>
    <nd ref="305071009"/>
    <tag k="addr:postcode" v="124482"/>
    <tag k="cladr:code" v="77000002000306700"/>
    <tag k="cladr:name" v="Центральный"/>
    <tag k="cladr:suffix" v="Проспект"/>
    <tag k="highway" v="primary"/>
    <tag k="lanes" v="2"/>
    <tag k="name" v="Центральный проспект"/>
    <tag k="omkum:code" v="30485"/>
    <tag k="oneway" v="yes"/>
    <tag k="sorting_name" v="Центральный  проспект"/>
  </way>
  <way id="36375751" version="17" timestamp="2010-01-12T18:02:35Z" uid="115477" user="wowik" changeset="3604898">
    <nd ref="424234846"/>
    <nd ref="593337647"/>
    <nd ref="507033502"/>
    <nd ref="424234854"/>
    <nd ref="503113679"/>
    <tag k="addr:postcode" v="124482"/>
    <tag k="cladr:code" v="77000002000306700"/>
    <tag k="cladr:name" v="Центральный"/>
    <tag k="cladr:suffix" v="Проспект"/>
    <tag k="highway" v="primary"/>
    <tag k="lanes" v="2"/>
    <tag k="name" v="Центральный проспект"/>
    <tag k="omkum:code" v="30485"/>
    <tag k="oneway" v="yes"/>
    <tag k="sorting_name" v="Центральный  проспект"/>
  </way>
  <way id="36375751" version="18" timestamp="2010-04-02T07:28:08Z" uid="115477" user="wowik" changeset="4300781">
    <nd ref="424234846"/>
    <nd ref="593337647"/>
    <nd ref="507033502"/>
    <nd ref="424234854"/>
    <nd ref="503113679"/>
    <tag k="addr:postcode" v="124460"/>
    <tag k="cladr:code" v="77000002000453700"/>
    <tag k="cladr:name" v="4806-й"/>
    <tag k="cladr:suffix" v="Проезд"/>
    <tag k="highway" v="primary"/>
    <tag k="lanes" v="2"/>
    <tag k="name" v="Проезд 4806"/>
    <tag k="omkum:code" v="30485"/>
    <tag k="oneway" v="yes"/>
    <tag k="sorting_name" v="Проезд 4806"/>
  </way>
  <way id="36375751" version="19" timestamp="2010-06-17T03:37:23Z" uid="11132" user="liosha" changeset="5005833">
    <nd ref="424234846"/>
    <nd ref="593337647"/>
    <nd ref="507033502"/>
    <nd ref="424234854"/>
    <nd ref="503113679"/>
    <tag k="addr:postcode" v="124460"/>
    <tag k="cladr:code" v="77000002000453700"/>
    <tag k="cladr:name" v="4806-й"/>
    <tag k="cladr:suffix" v="Проезд"/>
    <tag k="highway" v="primary"/>
    <tag k="lanes" v="2"/>
    <tag k="name" v="Проезд 4806"/>
    <tag k="oneway" v="yes"/>
    <tag k="sorting_name" v="Проезд 4806"/>
  </way>
  <way id="36375751" version="20" timestamp="2010-10-29T12:35:19Z" uid="241531" user="dik_man" changeset="6218128">
    <nd ref="424234846"/>
    <nd ref="593337647"/>
    <nd ref="424234854"/>
    <nd ref="503113679"/>
    <tag k="addr:postcode" v="124460"/>
    <tag k="cladr:code" v="77000002000453700"/>
    <tag k="cladr:name" v="4806-й"/>
    <tag k="cladr:suffix" v="Проезд"/>
    <tag k="highway" v="primary"/>
    <tag k="lanes" v="2"/>
    <tag k="name" v="Проезд 4806"/>
    <tag k="oneway" v="yes"/>
    <tag k="sorting_name" v="Проезд 4806"/>
  </way>
  <way id="36375751" version="21" timestamp="2010-11-18T08:57:10Z" uid="115477" user="wowik" changeset="6398408">
    <nd ref="424234846"/>
    <nd ref="593337647"/>
    <nd ref="424234854"/>
    <nd ref="503113679"/>
    <tag k="addr:postcode" v="124460"/>
    <tag k="cladr:code" v="77000002000453700"/>
    <tag k="cladr:name" v="4806-й"/>
    <tag k="cladr:suffix" v="Проезд"/>
    <tag k="highway" v="primary"/>
    <tag k="lanes" v="2"/>
    <tag k="name" v="Проезд N 4806"/>
    <tag k="oneway" v="yes"/>
    <tag k="sorting_name" v="Проезд 4806"/>
  </way>
  <way id="36375751" version="22" timestamp="2011-04-21T17:23:17Z" uid="241531" user="dik_man" changeset="7927363">
    <nd ref="424234846"/>
    <nd ref="593337647"/>
    <nd ref="424234854"/>
    <nd ref="503113679"/>
    <tag k="addr:postcode" v="124460"/>
    <tag k="cladr:code" v="77000002000453700"/>
    <tag k="cladr:name" v="4806-й"/>
    <tag k="cladr:suffix" v="Проезд"/>
    <tag k="highway" v="primary"/>
    <tag k="lanes" v="2"/>
    <tag k="maxspeed" v="60"/>
    <tag k="name" v="Проезд N 4806"/>
    <tag k="oneway" v="yes"/>
    <tag k="sorting_name" v="Проезд 4806"/>
  </way>
  <way id="36375751" version="23" timestamp="2011-10-09T22:39:44Z" uid="518169" user="kosatov" changeset="9517911">
    <nd ref="424234846"/>
    <nd ref="593337647"/>
    <nd ref="503113679"/>
    <tag k="addr:postcode" v="124460"/>
    <tag k="cladr:code" v="77000002000453700"/>
    <tag k="cladr:name" v="4806-й"/>
    <tag k="cladr:suffix" v="Проезд"/>
    <tag k="highway" v="primary"/>
    <tag k="lanes" v="2"/>
    <tag k="maxspeed" v="60"/>
    <tag k="name" v="Проезд N 4806"/>
    <tag k="oneway" v="yes"/>
    <tag k="sorting_name" v="Проезд 4806"/>
  </way>
  <way id="36375751" version="24" timestamp="2011-10-27T19:40:48Z" uid="518169" user="kosatov" changeset="9671386">
    <nd ref="424234846"/>
    <nd ref="593337647"/>
    <nd ref="503113679"/>
    <nd ref="1099952801"/>
    <nd ref="305071009"/>
    <nd ref="305071019"/>
    <tag k="addr:postcode" v="124460"/>
    <tag k="cladr:code" v="77000002000453700"/>
    <tag k="cladr:name" v="4806-й"/>
    <tag k="cladr:suffix" v="Проезд"/>
    <tag k="highway" v="primary"/>
    <tag k="lanes" v="2"/>
    <tag k="maxspeed" v="60"/>
    <tag k="name" v="Проезд N 4806"/>
    <tag k="oneway" v="yes"/>
    <tag k="sorting_name" v="Проезд 4806"/>
  </way>
  <way id="36375751" version="25" timestamp="2011-10-31T16:57:08Z" uid="518169" user="kosatov" changeset="9705284">
    <nd ref="424234846"/>
    <nd ref="503113679"/>
    <nd ref="1099952801"/>
    <nd ref="305071009"/>
    <nd ref="305071019"/>
    <tag k="addr:postcode" v="124460"/>
    <tag k="cladr:code" v="77000002000453700"/>
    <tag k="cladr:name" v="4806-й"/>
    <tag k="cladr:suffix" v="Проезд"/>
    <tag k="highway" v="primary"/>
    <tag k="lanes" v="2"/>
    <tag k="maxspeed" v="60"/>
    <tag k="name" v="Проезд N 4806"/>
    <tag k="oneway" v="yes"/>
    <tag k="sorting_name" v="Проезд 4806"/>
  </way>
  <way id="36375751" version="26" timestamp="2011-10-31T17:00:47Z" uid="518169" user="kosatov" changeset="9705284">
    <nd ref="424234846"/>
    <nd ref="503113679"/>
    <nd ref="1099952801"/>
    <nd ref="305071009"/>
    <nd ref="305071019"/>
    <nd ref="593348832"/>
    <nd ref="253166372"/>
    <tag k="addr:postcode" v="124460"/>
    <tag k="cladr:code" v="77000002000453700"/>
    <tag k="cladr:name" v="4806-й"/>
    <tag k="cladr:suffix" v="Проезд"/>
    <tag k="highway" v="primary"/>
    <tag k="lanes" v="2"/>
    <tag k="maxspeed" v="60"/>
    <tag k="name" v="Проезд N 4806"/>
    <tag k="oneway" v="yes"/>
    <tag k="sorting_name" v="Проезд 4806"/>
  </way>
  <way id="36375751" version="27" timestamp="2011-11-16T06:40:59Z" uid="481934" user="iWowik" changeset="9841495">
    <nd ref="424234846"/>
    <nd ref="503113679"/>
    <nd ref="1099952801"/>
    <nd ref="305071009"/>
    <nd ref="305071019"/>
    <nd ref="593348832"/>
    <nd ref="253166372"/>
    <tag k="addr:postcode" v="124460"/>
    <tag k="cladr:code" v="77000002000453700"/>
    <tag k="cladr:name" v="4806-й"/>
    <tag k="cladr:suffix" v="Проезд"/>
    <tag k="highway" v="primary"/>
    <tag k="lanes" v="2"/>
    <tag k="maxspeed" v="60"/>
    <tag k="name" v="Проезд N 4806"/>
    <tag k="oneway" v="yes"/>
    <tag k="sorting_name" v="Проезд 4806"/>
  </way>
</osm>
