<?xml version='1.0' encoding='UTF-8'?>
<osm version="0.6" generator="libosmium/2.20.0">
  <way id="36383583" version="1" timestamp="2009-06-18T19:55:13Z" uid="36809" user="pfoten_weg_!_" changeset="1558140">
    <nd ref="424305660"/>
    <nd ref="424305661"/>
    <nd ref="424305662"/>
    <nd ref="417787848"/>
    <nd ref="417787908"/>
    <tag k="created_by" v="RambaZamba"/>
    <tag k="highway" v="residential"/>
    <tag k="maxspeed" v="30"/>
    <tag k="name" v="Beuerberger Straße"/>
    <tag k="source" v="survey"/>
  </way>
  <way id="36383583" version="2" timestamp="2009-08-04T01:52:56Z" uid="36809" user="pfoten_weg_!_" changeset="2031346">
    <nd ref="424305660"/>
    <nd ref="424305661"/>
    <nd ref="424305662"/>
    <nd ref="417787848"/>
    <nd ref="417787908"/>
    <tag k="discovered_by" v="RambaZamba"/>
    <tag k="highway" v="residential"/>
    <tag k="maxspeed" v="30"/>
    <tag k="name" v="Beuerberger Straße"/>
    <tag k="source" v="survey"/>
  </way>
  <way id="36383583" version="3" timestamp="2009-08-14T15:50:19Z" uid="109925" user="WanMil" changeset="2144515">
    <nd ref="424305660"/>
    <nd ref="424305661"/>
    <nd ref="424305662"/>
    <nd ref="417787848"/>
    <nd ref="417787908"/>
    <tag k="highway" v="residential"/>
    <tag k="maxspeed" v="30"/>
    <tag k="name" v="Beuerberger Straße"/>
    <tag k="source" v="survey"/>
  </way>
  <way id="36383583" version="4" timestamp="2009-09-01T10:38:34Z" uid="36809" user="pfoten_weg_!_" changeset="2335754">
    <nd ref="424305660"/>
    <nd ref="424305661"/>
    <nd ref="424305662"/>
    <nd ref="417787848"/>
    <nd ref="417787908"/>
    <tag k="highway" v="residential"/>
    <tag k="maxspeed" v="30"/>
    <tag k="name" v="Beuerberger Straße"/>
    <tag k="source" v="survey"/>
  </way>
  <way id="36383583" version="5" timestamp="2009-09-04T19:44:39Z" uid="43972" user="chris66" changeset="2373761">
    <nd ref="354806870"/>
    <nd ref="424305661"/>
    <nd ref="424305662"/>
    <nd ref="417787848"/>
    <nd ref="417787908"/>
    <tag k="highway" v="residential"/>
    <tag k="maxspeed" v="30"/>
    <tag k="name" v="Beuerberger Straße"/>
    <tag k="source" v="survey"/>
  </way>
  <way id="36383583" version="6" timestamp="2009-10-03T17:44:24Z" uid="179968" user="Ich_hasse_doitsche_OSM-Korinthenkacker" changeset="2727120">
    <nd ref="354806870"/>
    <nd ref="424305661"/>
    <nd ref="424305662"/>
    <nd ref="417787848"/>
    <nd ref="417787908"/>
    <tag k="highway" v="residential"/>
    <tag k="maxspeed" v="30"/>
    <tag k="name" v="Beuerberger Straße"/>
  </way>
  <way id="36383583" version="7" timestamp="2011-01-24T16:27:42Z" uid="319840" user="octo" changeset="7074757">
    <nd ref="354806870"/>
    <nd ref="1118875533"/>
    <nd ref="424305661"/>
    <nd ref="424305662"/>
    <nd ref="417787848"/>
    <nd ref="417787908"/>
    <tag k="highway" v="residential"/>
    <tag k="maxspeed" v="30"/>
    <tag k="name" v="Beuerberger Straße"/>
  </way>
  <way id="36383584" version="1" timestamp="2009-06-18T19:55:13Z" uid="36809" user="pfoten_weg_!_" changeset="1558140">
    <nd ref="424305661"/>
    <nd ref="424305659"/>
    <tag k="created_by" v="RambaZamba"/>
    <tag k="highway" v="residential"/>
    <tag k="maxspeed" v="30"/>
    <tag k="name" v="Franz-Kaim-Straße"/>
    <tag k="source" v="survey"/>
  </way>
  <way id="36383584" version="2" timestamp="2009-08-04T01:53:20Z" uid="36809" user="pfoten_weg_!_" changeset="2031346">
    <nd ref="424305661"/>
    <nd ref="424305659"/>
    <tag k="discovered_by" v="RambaZamba"/>
    <tag k="highway" v="residential"/>
    <tag k="maxspeed" v="30"/>
    <tag k="name" v="Franz-Kaim-Straße"/>
    <tag k="source" v="survey"/>
  </way>
  <way id="36383584" version="3" timestamp="2009-08-14T15:50:18Z" uid="109925" user="WanMil" changeset="2144515">
    <nd ref="424305661"/>
    <nd ref="424305659"/>
    <tag k="highway" v="residential"/>
    <tag k="maxspeed" v="30"/>
    <tag k="name" v="Franz-Kaim-Straße"/>
    <tag k="source" v="survey"/>
  </way>
  <way id="36383584" version="4" timestamp="2009-09-01T11:05:22Z" uid="36809" user="pfoten_weg_!_" changeset="2335754">
    <nd ref="424305661"/>
    <nd ref="424305659"/>
    <tag k="highway" v="residential"/>
    <tag k="maxspeed" v="30"/>
    <tag k="name" v="Franz-Kaim-Straße"/>
    <tag k="source" v="survey"/>
  </way>
  <way id="36383584" version="5" timestamp="2009-10-03T17:44:29Z" uid="179968" user="Ich_hasse_doitsche_OSM-Korinthenkacker" changeset="2727120">
    <nd ref="424305661"/>
    <nd ref="424305659"/>
    <tag k="highway" v="residential"/>
    <tag k="maxspeed" v="30"/>
    <tag k="name" v="Franz-Kaim-Straße"/>
  </way>
  <way id="36383584" version="6" timestamp="2011-06-13T21:27:44Z" uid="11374" user="q_un_go" changeset="8431890">
    <nd ref="424305661"/>
    <nd ref="1324328849"/>
    <nd ref="424305659"/>
    <tag k="highway" v="residential"/>
    <tag k="maxspeed" v="30"/>
    <tag k="name" v="Franz-Kaim-Straße"/>
  </way>
  <way id="36383585" version="1" timestamp="2009-06-18T19:55:13Z" uid="36809" user="pfoten_weg_!_" changeset="1558140">
    <nd ref="417787908"/>
    <nd ref="424275388"/>
    <nd ref="424305664"/>
    <nd ref="424305665"/>
    <tag k="created_by" v="RambaZamba"/>
    <tag k="highway" v="residential"/>
    <tag k="maxspeed" v="30"/>
    <tag k="name" v="Noestraße"/>
    <tag k="source" v="survey"/>
  </way>
  <way id="36383585" version="2" timestamp="2009-08-04T01:53:11Z" uid="36809" user="pfoten_weg_!_" changeset="2031346">
    <nd ref="417787908"/>
    <nd ref="424275388"/>
    <nd ref="424305664"/>
    <nd ref="424305665"/>
    <tag k="discovered_by" v="RambaZamba"/>
    <tag k="highway" v="residential"/>
    <tag k="maxspeed" v="30"/>
    <tag k="name" v="Noestraße"/>
    <tag k="source" v="survey"/>
  </way>
  <way id="36383585" version="3" timestamp="2009-08-14T15:50:28Z" uid="109925" user="WanMil" changeset="2144515">
    <nd ref="417787908"/>
    <nd ref="424275388"/>
    <nd ref="424305664"/>
    <nd ref="424305665"/>
    <tag k="highway" v="residential"/>
    <tag k="maxspeed" v="30"/>
    <tag k="name" v="Noestraße"/>
    <tag k="source" v="survey"/>
  </way>
  <way id="36383585" version="4" timestamp="2009-09-01T10:43:10Z" uid="36809" user="pfoten_weg_!_" changeset="2335754">
    <nd ref="417787908"/>
    <nd ref="424275388"/>
    <nd ref="424305664"/>
    <nd ref="424305665"/>
    <tag k="highway" v="residential"/>
    <tag k="maxspeed" v="30"/>
    <tag k="name" v="Noestraße"/>
    <tag k="source" v="survey"/>
  </way>
  <way id="36383585" version="5" timestamp="2009-10-03T17:44:29Z" uid="179968" user="Ich_hasse_doitsche_OSM-Korinthenkacker" changeset="2727120">
    <nd ref="417787908"/>
    <nd ref="424275388"/>
    <nd ref="424305664"/>
    <nd ref="424305665"/>
    <tag k="highway" v="residential"/>
    <tag k="maxspeed" v="30"/>
    <tag k="name" v="Noestraße"/>
  </way>
  <way id="36383585" version="6" timestamp="2012-03-06T07:49:15Z" uid="577963" user="marook" changeset="10887480">
    <nd ref="417787908"/>
    <nd ref="424275388"/>
    <nd ref="1661999743"/>
    <nd ref="424305664"/>
    <nd ref="424305665"/>
    <tag k="highway" v="residential"/>
    <tag k="maxspeed" v="30"/>
    <tag k="name" v="Noestraße"/>
  </way>
  <way id="36383586" version="1" timestamp="2009-06-18T19:55:13Z" uid="36809" user="pfoten_weg_!_" changeset="1558140">
    <nd ref="424305665"/>
    <nd ref="424305663"/>
    <nd ref="424305666"/>
    <nd ref="424305659"/>
    <nd ref="336341855"/>
    <nd ref="417787972"/>
    <tag k="created_by" v="RambaZamba"/>
    <tag k="highway" v="residential"/>
    <tag k="maxspeed" v="30"/>
    <tag k="name" v="Noestraße"/>
    <tag k="source" v="survey"/>
  </way>
  <way id="36383586" version="2" timestamp="2009-06-18T20:37:43Z" uid="36809" user="pfoten_weg_!_" changeset="1558618">
    <nd ref="424305665"/>
    <nd ref="424305663"/>
    <nd ref="424305666"/>
    <nd ref="424305659"/>
    <nd ref="424390752"/>
    <nd ref="336341855"/>
    <nd ref="417787972"/>
    <tag k="created_by" v="RambaZamba"/>
    <tag k="highway" v="residential"/>
    <tag k="maxspeed" v="30"/>
    <tag k="name" v="Noestraße"/>
    <tag k="source" v="survey"/>
  </way>
  <way id="36383586" version="3" timestamp="2009-08-04T01:53:21Z" uid="36809" user="pfoten_weg_!_" changeset="2031346">
    <nd ref="424305665"/>
    <nd ref="424305663"/>
    <nd ref="424305666"/>
    <nd ref="424305659"/>
    <nd ref="424390752"/>
    <nd ref="336341855"/>
    <nd ref="417787972"/>
    <tag k="discovered_by" v="RambaZamba"/>
    <tag k="highway" v="residential"/>
    <tag k="maxspeed" v="30"/>
    <tag k="name" v="Noestraße"/>
    <tag k="source" v="survey"/>
  </way>
  <way id="36383586" version="4" timestamp="2009-08-14T15:50:53Z" uid="109925" user="WanMil" changeset="2144515">
    <nd ref="424305665"/>
    <nd ref="424305663"/>
    <nd ref="424305666"/>
    <nd ref="424305659"/>
    <nd ref="424390752"/>
    <nd ref="336341855"/>
    <nd ref="417787972"/>
    <tag k="highway" v="residential"/>
    <tag k="maxspeed" v="30"/>
    <tag k="name" v="Noestraße"/>
    <tag k="source" v="survey"/>
  </way>
  <way id="36383586" version="5" timestamp="2009-09-01T10:41:57Z" uid="36809" user="pfoten_weg_!_" changeset="2335754">
    <nd ref="424305665"/>
    <nd ref="424305663"/>
    <nd ref="424305666"/>
    <nd ref="424305659"/>
    <nd ref="424390752"/>
    <nd ref="336341855"/>
    <nd ref="417787972"/>
    <tag k="highway" v="residential"/>
    <tag k="maxspeed" v="30"/>
    <tag k="name" v="Noestraße"/>
    <tag k="source" v="survey"/>
  </way>
  <way id="36383586" version="6" timestamp="2009-10-03T17:44:30Z" uid="179968" user="Ich_hasse_doitsche_OSM-Korinthenkacker" changeset="2727120">
    <nd ref="424305665"/>
    <nd ref="424305663"/>
    <nd ref="424305666"/>
    <nd ref="424305659"/>
    <nd ref="424390752"/>
    <nd ref="336341855"/>
    <nd ref="417787972"/>
    <tag k="highway" v="residential"/>
    <tag k="maxspeed" v="30"/>
    <tag k="name" v="Noestraße"/>
  </way>
  <way id="36383586" version="7" timestamp="2011-01-24T16:27:43Z" uid="319840" user="octo" changeset="7074757">
    <nd ref="424305665"/>
    <nd ref="424305663"/>
    <nd ref="424305666"/>
    <nd ref="424305659"/>
    <nd ref="424390752"/>
    <nd ref="1118875531"/>
    <nd ref="336341855"/>
    <nd ref="417787972"/>
    <tag k="highway" v="residential"/>
    <tag k="maxspeed" v="30"/>
    <tag k="name" v="Noestraße"/>
  </way>
  <way id="36383587" version="1" timestamp="2009-06-18T19:55:14Z" uid="36809" user="pfoten_weg_!_" changeset="1558140">
    <nd ref="424305662"/>
    <nd ref="424305666"/>
    <tag k="created_by" v="RambaZamba"/>
    <tag k="highway" v="residential"/>
    <tag k="maxspeed" v="30"/>
    <tag k="name" v="Georgensteinstraße"/>
    <tag k="source" v="survey"/>
  </way>
  <way id="36383587" version="2" timestamp="2009-08-04T01:53:13Z" uid="36809" user="pfoten_weg_!_" changeset="2031346">
    <nd ref="424305662"/>
    <nd ref="424305666"/>
    <tag k="discovered_by" v="RambaZamba"/>
    <tag k="highway" v="residential"/>
    <tag k="maxspeed" v="30"/>
    <tag k="name" v="Georgensteinstraße"/>
    <tag k="source" v="survey"/>
  </way>
  <way id="36383587" version="3" timestamp="2009-08-14T15:50:11Z" uid="109925" user="WanMil" changeset="2144515">
    <nd ref="424305662"/>
    <nd ref="424305666"/>
    <tag k="highway" v="residential"/>
    <tag k="maxspeed" v="30"/>
    <tag k="name" v="Georgensteinstraße"/>
    <tag k="source" v="survey"/>
  </way>
  <way id="36383587" version="4" timestamp="2009-09-01T10:59:41Z" uid="36809" user="pfoten_weg_!_" changeset="2335754">
    <nd ref="424305662"/>
    <nd ref="424305666"/>
    <tag k="highway" v="residential"/>
    <tag k="maxspeed" v="30"/>
    <tag k="name" v="Georgensteinstraße"/>
    <tag k="source" v="survey"/>
  </way>
  <way id="36383587" version="5" timestamp="2009-10-03T17:44:30Z" uid="179968" user="Ich_hasse_doitsche_OSM-Korinthenkacker" changeset="2727120">
    <nd ref="424305662"/>
    <nd ref="424305666"/>
    <tag k="highway" v="residential"/>
    <tag k="maxspeed" v="30"/>
    <tag k="name" v="Georgensteinstraße"/>
  </way>
  <way id="36383587" version="6" timestamp="2011-06-13T21:27:44Z" uid="11374" user="q_un_go" changeset="8431890">
    <nd ref="424305662"/>
    <nd ref="1324328943"/>
    <nd ref="1324329870"/>
    <nd ref="424305666"/>
    <tag k="highway" v="residential"/>
    <tag k="maxspeed" v="30"/>
    <tag k="name" v="Georgensteinstraße"/>
  </way>
  <way id="36383587" version="7" timestamp="2012-03-06T07:49:15Z" uid="577963" user="marook" changeset="10887480">
    <nd ref="424305662"/>
    <nd ref="1324328943"/>
    <nd ref="1324329870"/>
    <nd ref="1661999745"/>
    <nd ref="424305666"/>
    <tag k="highway" v="residential"/>
    <tag k="maxspeed" v="30"/>
    <tag k="name" v="Georgensteinstraße"/>
  </way>
  <way id="36383936" version="5" timestamp="2010-03-28T18:05:31Z" uid="253183" user="Bastioh" changeset="4260057">
    <nd ref="285375806"/>
    <nd ref="285375818"/>
    <nd ref="285375831"/>
    <nd ref="285375843"/>
    <nd ref="441370077"/>
    <nd ref="285375854"/>
    <nd ref="285375865"/>
    <nd ref="285375875"/>
    <nd ref="424310892"/>
    <nd ref="285375882"/>
    <nd ref="444387082"/>
    <nd ref="285375891"/>
    <nd ref="285375902"/>
    <nd ref="285375910"/>
    <nd ref="289057566"/>
    <nd ref="285375930"/>
    <nd ref="438102679"/>
    <nd ref="285375943"/>
    <tag k="highway" v="residential"/>
    <tag k="maxspeed" v="30"/>
    <tag k="name" v="Professor-Haas-Straße"/>
  </way>
  <way id="36383936" version="6" timestamp="2010-04-19T16:25:45Z" uid="63107" user="brogo" changeset="4469494">
    <nd ref="285375806"/>
    <nd ref="285375818"/>
    <nd ref="285375831"/>
    <nd ref="285375843"/>
    <nd ref="441370077"/>
    <nd ref="285375854"/>
    <nd ref="285375865"/>
    <nd ref="285375875"/>
    <nd ref="424310892"/>
    <nd ref="285375882"/>
    <nd ref="444387082"/>
    <nd ref="285375891"/>
    <tag k="highway" v="residential"/>
    <tag k="maxspeed" v="30"/>
    <tag k="name" v="Professor-Haas-Straße"/>
  </way>
  <way id="36383936" version="7" timestamp="2012-03-28T19:42:11Z" uid="63107" user="brogo" changeset="11130466"/>
</osm>
