<?xml version='1.0' encoding='UTF-8'?>
<osm version="0.6" generator="libosmium/2.20.0">
  <way id="36432471" version="2" timestamp="2009-08-11T12:38:00Z" uid="4467" user="Rosscoe" changeset="2107997">
    <nd ref="424798903"/>
    <nd ref="424798904"/>
    <tag k="bridge" v="yes"/>
    <tag k="highway" v="footway"/>
    <tag k="layer" v="1"/>
  </way>
  <way id="36432471" version="3" timestamp="2010-02-03T05:54:04Z" uid="211951" user="Dr Paul Martin" changeset="3780737">
    <nd ref="627272467"/>
    <nd ref="424798903"/>
    <tag k="bridge" v="yes"/>
    <tag k="highway" v="footway"/>
    <tag k="layer" v="1"/>
  </way>
  <way id="36432471" version="4" timestamp="2010-02-03T05:54:08Z" uid="211951" user="Dr Paul Martin" changeset="3780737">
    <nd ref="627272467"/>
    <nd ref="424798903"/>
    <tag k="highway" v="footway"/>
  </way>
  <way id="36432471" version="5" timestamp="2011-03-11T00:29:35Z" uid="170282" user="rlewis" changeset="7519766">
    <nd ref="627272467"/>
    <nd ref="424798903"/>
    <tag k="highway" v="footway"/>
  </way>
  <way id="36432473" version="3" timestamp="2010-02-14T17:08:44Z" uid="74617" user="JohnSmith" changeset="3875836">
    <nd ref="424798937"/>
    <nd ref="424798933"/>
    <nd ref="424798931"/>
    <nd ref="564572568"/>
    <nd ref="564572569"/>
    <nd ref="564572570"/>
    <nd ref="564572572"/>
    <nd ref="564572586"/>
    <nd ref="564572582"/>
    <nd ref="564572583"/>
    <nd ref="564572585"/>
    <tag k="highway" v="unclassified"/>
    <tag k="maxspeed" v="50"/>
  </way>
  <way id="36432473" version="4" timestamp="2011-12-16T11:27:33Z" uid="103574" user="El Segundo can&apos;t win" changeset="10130201">
    <nd ref="424798937"/>
    <nd ref="1548559299"/>
    <nd ref="424798931"/>
    <nd ref="564572568"/>
    <nd ref="564572569"/>
    <nd ref="564572570"/>
    <nd ref="564572572"/>
    <nd ref="564572586"/>
    <nd ref="564572582"/>
    <tag k="highway" v="unclassified"/>
    <tag k="maxspeed" v="50"/>
  </way>
  <way id="36432473" version="5" timestamp="2011-12-17T00:56:40Z" uid="103574" user="El Segundo can&apos;t win" changeset="10135389"/>
  <way id="36432481" version="3" timestamp="2009-08-11T11:04:14Z" uid="4467" user="Rosscoe" changeset="2107049">
    <nd ref="424798961"/>
    <nd ref="446432034"/>
    <nd ref="446432036"/>
    <nd ref="424798963"/>
    <tag k="highway" v="primary"/>
    <tag k="is_in" v="Brisbane, QLD, Queensland, Australia"/>
    <tag k="layer" v="-1"/>
    <tag k="name" v="Ipswich Road"/>
    <tag k="note" v="tunnel"/>
    <tag k="oneway" v="yes"/>
    <tag k="ref" v="S15"/>
    <tag k="tunnel" v="yes"/>
  </way>
  <way id="36432481" version="4" timestamp="2009-11-15T04:32:29Z" uid="16385" user="morb_au" changeset="3119043">
    <nd ref="424798961"/>
    <nd ref="564553437"/>
    <nd ref="446432034"/>
    <nd ref="564553453"/>
    <nd ref="446432036"/>
    <tag k="highway" v="primary"/>
    <tag k="is_in" v="Brisbane, QLD, Queensland, Australia"/>
    <tag k="layer" v="-1"/>
    <tag k="name" v="Ipswich Road"/>
    <tag k="note" v="tunnel"/>
    <tag k="oneway" v="yes"/>
    <tag k="ref" v="S15"/>
    <tag k="tunnel" v="yes"/>
  </way>
  <way id="36432481" version="5" timestamp="2010-02-14T17:08:13Z" uid="74617" user="JohnSmith" changeset="3875836">
    <nd ref="424798961"/>
    <nd ref="564553437"/>
    <nd ref="446432034"/>
    <nd ref="564553453"/>
    <nd ref="446432036"/>
    <tag k="highway" v="primary"/>
    <tag k="layer" v="-1"/>
    <tag k="name" v="Ipswich Road"/>
    <tag k="note" v="tunnel"/>
    <tag k="oneway" v="yes"/>
    <tag k="ref" v="S15"/>
    <tag k="tunnel" v="yes"/>
  </way>
  <way id="36432481" version="6" timestamp="2010-03-21T15:14:57Z" uid="74617" user="JohnSmith" changeset="4192148">
    <nd ref="424798961"/>
    <nd ref="564553437"/>
    <nd ref="446432034"/>
    <nd ref="564553453"/>
    <nd ref="446432036"/>
    <tag k="highway" v="primary"/>
    <tag k="layer" v="-1"/>
    <tag k="note" v="tunnel"/>
    <tag k="oneway" v="yes"/>
    <tag k="tunnel" v="yes"/>
  </way>
  <way id="36432481" version="7" timestamp="2011-09-02T03:28:33Z" uid="349913" user="Peter W34" changeset="9189825">
    <nd ref="424798961"/>
    <nd ref="564553437"/>
    <nd ref="446432034"/>
    <nd ref="564553453"/>
    <nd ref="446432036"/>
    <tag k="highway" v="primary"/>
    <tag k="layer" v="-1"/>
    <tag k="name" v="Ipswich Road"/>
    <tag k="note" v="tunnel"/>
    <tag k="oneway" v="yes"/>
    <tag k="tunnel" v="yes"/>
  </way>
  <way id="36432481" version="8" timestamp="2012-01-13T02:45:23Z" uid="103574" user="Here is the repulsant snozzcumber!" changeset="10375228">
    <nd ref="424798961"/>
    <nd ref="564553437"/>
    <nd ref="446432034"/>
    <nd ref="446432036"/>
    <tag k="highway" v="primary"/>
    <tag k="layer" v="-1"/>
    <tag k="name" v="Ipswich Road"/>
    <tag k="note" v="tunnel"/>
    <tag k="oneway" v="yes"/>
    <tag k="tunnel" v="yes"/>
  </way>
  <way id="36432481" version="9" timestamp="2012-01-18T02:33:13Z" uid="103574" user="Here is the repulsant snozzcumber!" changeset="10424069">
    <nd ref="1595736609"/>
    <nd ref="1595736613"/>
    <nd ref="446432034"/>
    <nd ref="446432036"/>
    <tag k="highway" v="primary"/>
    <tag k="layer" v="-1"/>
    <tag k="name" v="Ipswich Road"/>
    <tag k="note" v="tunnel"/>
    <tag k="oneway" v="yes"/>
    <tag k="tunnel" v="yes"/>
  </way>
  <way id="36432481" version="10" timestamp="2012-01-18T02:35:46Z" uid="103574" user="Here is the repulsant snozzcumber!" changeset="10424069">
    <nd ref="1595736609"/>
    <nd ref="1595736613"/>
    <nd ref="446432034"/>
    <nd ref="446432036"/>
    <tag k="highway" v="primary"/>
    <tag k="name" v="Ipswich Road"/>
    <tag k="oneway" v="yes"/>
    <tag k="tunnel" v="yes"/>
  </way>
  <way id="36432481" version="11" timestamp="2012-02-15T23:25:20Z" uid="103574" user="Here is the repulsant snozzcumber!" changeset="10697755">
    <nd ref="1595736609"/>
    <nd ref="1595736613"/>
    <nd ref="446432034"/>
    <nd ref="1634685223"/>
    <tag k="highway" v="primary"/>
    <tag k="name" v="Ipswich Road"/>
    <tag k="oneway" v="yes"/>
    <tag k="tunnel" v="yes"/>
  </way>
  <way id="36432482" version="2" timestamp="2009-08-11T11:04:13Z" uid="4467" user="Rosscoe" changeset="2107049">
    <nd ref="424798963"/>
    <nd ref="183910657"/>
    <nd ref="21477996"/>
    <nd ref="355543285"/>
    <nd ref="94673055"/>
    <nd ref="21477998"/>
    <nd ref="183922587"/>
    <nd ref="21478001"/>
    <tag k="highway" v="primary"/>
    <tag k="is_in" v="Brisbane, QLD, Queensland, Australia"/>
    <tag k="name" v="Ipswich Road"/>
    <tag k="note" v="tunnel"/>
    <tag k="oneway" v="yes"/>
    <tag k="ref" v="S15"/>
  </way>
  <way id="36432482" version="3" timestamp="2010-02-14T17:08:50Z" uid="74617" user="JohnSmith" changeset="3875836">
    <nd ref="424798963"/>
    <nd ref="183910657"/>
    <nd ref="21477996"/>
    <nd ref="355543285"/>
    <nd ref="94673055"/>
    <nd ref="21477998"/>
    <nd ref="183922587"/>
    <nd ref="21478001"/>
    <tag k="highway" v="primary"/>
    <tag k="name" v="Ipswich Road"/>
    <tag k="note" v="tunnel"/>
    <tag k="oneway" v="yes"/>
    <tag k="ref" v="S15"/>
  </way>
  <way id="36432482" version="4" timestamp="2010-03-21T15:14:58Z" uid="74617" user="JohnSmith" changeset="4192148">
    <nd ref="424798963"/>
    <nd ref="183910657"/>
    <nd ref="21477996"/>
    <nd ref="355543285"/>
    <nd ref="94673055"/>
    <nd ref="21477998"/>
    <nd ref="183922587"/>
    <nd ref="21478001"/>
    <tag k="highway" v="primary"/>
    <tag k="note" v="tunnel"/>
    <tag k="oneway" v="yes"/>
  </way>
  <way id="36432482" version="5" timestamp="2011-01-04T16:12:33Z" uid="103782" user="Jordan Anderson" changeset="6862402">
    <nd ref="424798963"/>
    <nd ref="183910657"/>
    <nd ref="21477996"/>
    <nd ref="355543285"/>
    <nd ref="94673055"/>
    <nd ref="21477998"/>
    <nd ref="183922587"/>
    <nd ref="21478001"/>
    <tag k="highway" v="primary"/>
    <tag k="name" v="Ipswich Road"/>
    <tag k="note" v="tunnel"/>
    <tag k="oneway" v="yes"/>
  </way>
  <way id="36432482" version="6" timestamp="2012-02-15T23:25:19Z" uid="103574" user="Here is the repulsant snozzcumber!" changeset="10697755">
    <nd ref="1634685224"/>
    <nd ref="183910657"/>
    <nd ref="21477996"/>
    <nd ref="355543285"/>
    <nd ref="94673055"/>
    <nd ref="21477998"/>
    <nd ref="183922587"/>
    <nd ref="21478001"/>
    <tag k="highway" v="primary"/>
    <tag k="name" v="Ipswich Road"/>
    <tag k="note" v="tunnel"/>
    <tag k="oneway" v="yes"/>
  </way>
  <way id="36432483" version="2" timestamp="2010-02-14T17:07:58Z" uid="74617" user="JohnSmith" changeset="3875836">
    <nd ref="92286126"/>
    <nd ref="92286127"/>
    <nd ref="424798970"/>
    <nd ref="92287107"/>
    <tag k="highway" v="motorway_link"/>
    <tag k="name" v="Duke Street"/>
    <tag k="oneway" v="yes"/>
  </way>
  <way id="36432483" version="3" timestamp="2012-01-09T06:03:05Z" uid="103574" user="Here is the repulsant snozzcumber!" changeset="10339056">
    <nd ref="92286126"/>
    <nd ref="92286127"/>
    <nd ref="424798970"/>
    <nd ref="1583487572"/>
    <nd ref="1583487571"/>
    <nd ref="1583487576"/>
    <nd ref="1583487570"/>
    <nd ref="1583487573"/>
    <nd ref="1583487574"/>
    <tag k="highway" v="motorway_link"/>
    <tag k="name" v="Duke Street"/>
    <tag k="oneway" v="yes"/>
  </way>
  <way id="36432487" version="2" timestamp="2009-08-11T11:36:58Z" uid="4467" user="Rosscoe" changeset="2107374">
    <nd ref="424798978"/>
    <nd ref="401026231"/>
    <nd ref="423518028"/>
    <nd ref="423518026"/>
    <nd ref="424798980"/>
    <nd ref="401392906"/>
    <nd ref="424798982"/>
    <nd ref="424798984"/>
    <nd ref="424798986"/>
    <nd ref="424798978"/>
    <tag k="amenity" v="school"/>
    <tag k="name" v="Buranda State School"/>
  </way>
  <way id="36432487" version="3" timestamp="2010-02-03T05:53:56Z" uid="211951" user="Dr Paul Martin" changeset="3780737">
    <nd ref="424798978"/>
    <nd ref="401026231"/>
    <nd ref="423518026"/>
    <nd ref="424798980"/>
    <nd ref="401392906"/>
    <nd ref="424798982"/>
    <nd ref="424798984"/>
    <nd ref="424798986"/>
    <nd ref="424798978"/>
    <tag k="amenity" v="school"/>
    <tag k="name" v="Buranda State School"/>
  </way>
  <way id="36432487" version="4" timestamp="2010-06-12T09:52:47Z" uid="103574" user="Fairfield" changeset="4968856">
    <nd ref="424798978"/>
    <nd ref="401026231"/>
    <nd ref="423518026"/>
    <nd ref="424798980"/>
    <nd ref="401392906"/>
    <nd ref="769849989"/>
    <nd ref="769849990"/>
    <nd ref="424798982"/>
    <nd ref="424798984"/>
    <nd ref="424798986"/>
    <nd ref="769849991"/>
    <nd ref="424798978"/>
    <tag k="amenity" v="school"/>
    <tag k="name" v="Buranda State School"/>
  </way>
  <way id="36432491" version="3" timestamp="2010-08-20T00:09:00Z" uid="4467" user="Rosscoe" changeset="5540172">
    <nd ref="91793323"/>
    <nd ref="181126961"/>
    <nd ref="181127319"/>
    <nd ref="91791841"/>
    <nd ref="91791842"/>
    <nd ref="181234355"/>
    <nd ref="91791803"/>
    <nd ref="91791847"/>
    <nd ref="91791848"/>
    <nd ref="91791849"/>
    <nd ref="91791852"/>
    <nd ref="92280405"/>
    <nd ref="91791856"/>
    <tag k="highway" v="secondary"/>
    <tag k="maxspeed" v="60"/>
    <tag k="name" v="Juliette Street"/>
    <tag k="oneway" v="yes"/>
  </way>
  <way id="36432491" version="4" timestamp="2011-12-17T11:35:34Z" uid="103574" user="El Segundo can&apos;t win" changeset="10137614">
    <nd ref="91793323"/>
    <nd ref="181126961"/>
    <nd ref="181127319"/>
    <nd ref="91791841"/>
    <nd ref="91791842"/>
    <nd ref="181234355"/>
    <nd ref="91791803"/>
    <nd ref="91791847"/>
    <nd ref="91791848"/>
    <nd ref="91791849"/>
    <nd ref="91791852"/>
    <nd ref="92280405"/>
    <nd ref="1550158409"/>
    <tag k="highway" v="secondary"/>
    <tag k="maxspeed" v="60"/>
    <tag k="name" v="Juliette Street"/>
    <tag k="oneway" v="yes"/>
  </way>
  <way id="36432491" version="5" timestamp="2011-12-20T05:01:04Z" uid="103574" user="El Segundo can&apos;t win" changeset="10160927">
    <nd ref="91793323"/>
    <nd ref="181126961"/>
    <nd ref="181127319"/>
    <nd ref="91791841"/>
    <nd ref="91791842"/>
    <nd ref="181234355"/>
    <nd ref="91791803"/>
    <nd ref="91791847"/>
    <nd ref="91791848"/>
    <nd ref="91791849"/>
    <nd ref="91791852"/>
    <nd ref="1555059182"/>
    <nd ref="1550158409"/>
    <tag k="highway" v="secondary"/>
    <tag k="maxspeed" v="60"/>
    <tag k="name" v="Juliette Street"/>
    <tag k="oneway" v="yes"/>
  </way>
  <way id="36432699" version="3" timestamp="2010-08-04T17:44:21Z" uid="9581" user="Lobelt" changeset="5401263">
    <nd ref="424803957"/>
    <nd ref="424804063"/>
    <nd ref="424804066"/>
    <nd ref="424804068"/>
    <nd ref="424804071"/>
    <nd ref="424804073"/>
    <nd ref="424804075"/>
    <nd ref="424804078"/>
    <nd ref="424804080"/>
    <nd ref="424804082"/>
    <nd ref="424804084"/>
    <nd ref="424804087"/>
    <nd ref="424804089"/>
    <nd ref="424804092"/>
    <nd ref="424804094"/>
    <nd ref="424804096"/>
    <nd ref="424804099"/>
    <nd ref="424804101"/>
    <nd ref="424804104"/>
    <nd ref="424804106"/>
    <nd ref="424804108"/>
    <nd ref="424804110"/>
    <nd ref="424804113"/>
    <tag k="cables" v="6"/>
    <tag k="frequency" v="50"/>
    <tag k="name" v="Freiberg West-Etzdorf;Etzdorf-Kriebethal"/>
    <tag k="operator" v="enviaM"/>
    <tag k="power" v="line"/>
    <tag k="voltage" v="110000"/>
    <tag k="wires" v="single"/>
  </way>
  <way id="36432699" version="4" timestamp="2012-02-09T09:09:19Z" uid="114354" user="halsbacher" changeset="10631826">
    <nd ref="1624967483"/>
    <nd ref="424804063"/>
    <nd ref="424804066"/>
    <nd ref="424804068"/>
    <nd ref="424804071"/>
    <nd ref="424804073"/>
    <nd ref="424804075"/>
    <nd ref="424804078"/>
    <nd ref="424804080"/>
    <nd ref="424804082"/>
    <nd ref="424804084"/>
    <nd ref="424804087"/>
    <nd ref="424804089"/>
    <nd ref="424804092"/>
    <nd ref="424804094"/>
    <nd ref="424804096"/>
    <nd ref="424804099"/>
    <nd ref="424804101"/>
    <nd ref="424804104"/>
    <nd ref="424804106"/>
    <nd ref="424804108"/>
    <nd ref="424804110"/>
    <nd ref="424804113"/>
    <tag k="cables" v="6"/>
    <tag k="frequency" v="50"/>
    <tag k="name" v="Freiberg West-Etzdorf;Etzdorf-Kriebethal"/>
    <tag k="operator" v="enviaM"/>
    <tag k="power" v="line"/>
    <tag k="voltage" v="110000"/>
    <tag k="wires" v="single"/>
  </way>
  <way id="36432702" version="4" timestamp="2010-08-04T17:44:06Z" uid="9581" user="Lobelt" changeset="5401263">
    <nd ref="424804212"/>
    <nd ref="424804214"/>
    <nd ref="424804208"/>
    <nd ref="424804210"/>
    <nd ref="424804203"/>
    <nd ref="424804206"/>
    <nd ref="424804199"/>
    <nd ref="424804201"/>
    <nd ref="424804194"/>
    <nd ref="424804196"/>
    <nd ref="424804189"/>
    <nd ref="424804191"/>
    <nd ref="424804184"/>
    <nd ref="424804187"/>
    <nd ref="424804179"/>
    <nd ref="424804181"/>
    <nd ref="424804174"/>
    <nd ref="424804176"/>
    <nd ref="424804169"/>
    <nd ref="424804171"/>
    <nd ref="424804155"/>
    <nd ref="424804156"/>
    <nd ref="424804154"/>
    <nd ref="424804153"/>
    <nd ref="424804152"/>
    <nd ref="424804151"/>
    <nd ref="424804150"/>
    <nd ref="424804148"/>
    <nd ref="424804146"/>
    <nd ref="424804143"/>
    <nd ref="424804141"/>
    <nd ref="424804138"/>
    <nd ref="424804136"/>
    <nd ref="424804115"/>
    <nd ref="424804117"/>
    <nd ref="424804120"/>
    <tag k="cables" v="6"/>
    <tag k="frequency" v="50"/>
    <tag k="name" v="Borna-Leisnig-Bockelwitz Windpark-Etzdorf-Döbeln"/>
    <tag k="operator" v="enviaM"/>
    <tag k="power" v="line"/>
    <tag k="ref" v="6"/>
    <tag k="voltage" v="110000"/>
    <tag k="wires" v="single"/>
  </way>
  <way id="36432703" version="4" timestamp="2010-08-04T17:42:00Z" uid="9581" user="Lobelt" changeset="5401263">
    <nd ref="424804217"/>
    <nd ref="424804212"/>
    <tag k="cables" v="3"/>
    <tag k="frequency" v="50"/>
    <tag k="name" v="Borna-Leisnig-Bockelwitz Windpark-Etzdorf-Döbeln"/>
    <tag k="operator" v="enviaM"/>
    <tag k="power" v="line"/>
    <tag k="ref" v="6"/>
    <tag k="voltage" v="110000"/>
    <tag k="wires" v="single"/>
  </way>
  <way id="36432705" version="4" timestamp="2010-08-04T17:44:40Z" uid="9581" user="Lobelt" changeset="5401263">
    <nd ref="424804217"/>
    <nd ref="424804219"/>
    <tag k="cables" v="3"/>
    <tag k="frequency" v="50"/>
    <tag k="name" v="Sermuth-Leisnig-Bockelwitz Windpark-Döbeln"/>
    <tag k="operator" v="enviaM"/>
    <tag k="power" v="line"/>
    <tag k="ref" v="5"/>
    <tag k="voltage" v="110000"/>
    <tag k="wires" v="single"/>
  </way>
  <way id="36432715" version="3" timestamp="2010-08-04T17:42:31Z" uid="9581" user="Lobelt" changeset="5401263">
    <nd ref="424803957"/>
    <nd ref="271355994"/>
    <nd ref="271355995"/>
    <nd ref="271355996"/>
    <nd ref="271355998"/>
    <nd ref="271355999"/>
    <nd ref="271356000"/>
    <nd ref="271356001"/>
    <nd ref="271356002"/>
    <nd ref="271356004"/>
    <nd ref="271356005"/>
    <nd ref="271356006"/>
    <nd ref="271356007"/>
    <nd ref="271356008"/>
    <nd ref="271356009"/>
    <nd ref="271356010"/>
    <nd ref="271356011"/>
    <nd ref="271356012"/>
    <nd ref="271356013"/>
    <nd ref="271356014"/>
    <nd ref="271356015"/>
    <nd ref="271356016"/>
    <nd ref="271356017"/>
    <nd ref="271356018"/>
    <nd ref="271356019"/>
    <nd ref="271356020"/>
    <nd ref="424804016"/>
    <tag k="cables" v="6"/>
    <tag k="frequency" v="50"/>
    <tag k="name" v="Köthensdorf-Kriebethal;Etzdorf-Kriebethal"/>
    <tag k="operator" v="enviaM"/>
    <tag k="power" v="line"/>
    <tag k="voltage" v="110000"/>
    <tag k="wires" v="single"/>
  </way>
  <way id="36432715" version="4" timestamp="2012-02-09T09:09:18Z" uid="114354" user="halsbacher" changeset="10631826">
    <nd ref="1624967483"/>
    <nd ref="271355994"/>
    <nd ref="271355995"/>
    <nd ref="271355996"/>
    <nd ref="271355998"/>
    <nd ref="271355999"/>
    <nd ref="271356000"/>
    <nd ref="271356001"/>
    <nd ref="271356002"/>
    <nd ref="271356004"/>
    <nd ref="271356005"/>
    <nd ref="271356006"/>
    <nd ref="271356007"/>
    <nd ref="271356008"/>
    <nd ref="271356009"/>
    <nd ref="271356010"/>
    <nd ref="271356011"/>
    <nd ref="271356012"/>
    <nd ref="271356013"/>
    <nd ref="271356014"/>
    <nd ref="271356015"/>
    <nd ref="271356016"/>
    <nd ref="271356017"/>
    <nd ref="271356018"/>
    <nd ref="271356019"/>
    <nd ref="271356020"/>
    <nd ref="424804016"/>
    <tag k="cables" v="6"/>
    <tag k="frequency" v="50"/>
    <tag k="name" v="Köthensdorf-Kriebethal;Etzdorf-Kriebethal"/>
    <tag k="operator" v="enviaM"/>
    <tag k="power" v="line"/>
    <tag k="voltage" v="110000"/>
    <tag k="wires" v="single"/>
  </way>
  <way id="36432733" version="3" timestamp="2010-08-04T17:46:09Z" uid="9581" user="Lobelt" changeset="5401263">
    <nd ref="424803957"/>
    <nd ref="424803955"/>
    <nd ref="424803971"/>
    <nd ref="424803969"/>
    <nd ref="424803966"/>
    <nd ref="424803964"/>
    <nd ref="424803943"/>
    <nd ref="424803941"/>
    <nd ref="424803938"/>
    <nd ref="424803936"/>
    <nd ref="424803953"/>
    <nd ref="424803950"/>
    <nd ref="424803948"/>
    <nd ref="424803945"/>
    <nd ref="424803998"/>
    <nd ref="424804000"/>
    <nd ref="424803993"/>
    <nd ref="424803996"/>
    <nd ref="424804007"/>
    <nd ref="424804009"/>
    <nd ref="424804002"/>
    <nd ref="424804005"/>
    <nd ref="424803979"/>
    <nd ref="424803981"/>
    <nd ref="424803974"/>
    <nd ref="424803976"/>
    <nd ref="424803988"/>
    <nd ref="424803991"/>
    <nd ref="424803984"/>
    <nd ref="424803986"/>
    <nd ref="424804046"/>
    <nd ref="424804043"/>
    <nd ref="424804050"/>
    <nd ref="424804048"/>
    <nd ref="424804034"/>
    <nd ref="424804036"/>
    <nd ref="424804041"/>
    <nd ref="424804271"/>
    <nd ref="424804039"/>
    <nd ref="424804029"/>
    <nd ref="424804028"/>
    <nd ref="424804032"/>
    <nd ref="424804030"/>
    <nd ref="424804014"/>
    <nd ref="424804012"/>
    <nd ref="424804027"/>
    <nd ref="271355904"/>
    <tag k="cables" v="6"/>
    <tag k="frequency" v="50"/>
    <tag k="name" v="Köthensdorf-Kriebethal;Hainichen-Freiberg West"/>
    <tag k="operator" v="enviaM"/>
    <tag k="power" v="line"/>
    <tag k="voltage" v="110000"/>
    <tag k="wires" v="single"/>
  </way>
  <way id="36432733" version="4" timestamp="2012-02-09T09:09:20Z" uid="114354" user="halsbacher" changeset="10631826">
    <nd ref="1624967483"/>
    <nd ref="424803955"/>
    <nd ref="424803971"/>
    <nd ref="424803969"/>
    <nd ref="424803966"/>
    <nd ref="424803964"/>
    <nd ref="424803943"/>
    <nd ref="424803941"/>
    <nd ref="424803938"/>
    <nd ref="424803936"/>
    <nd ref="424803953"/>
    <nd ref="424803950"/>
    <nd ref="424803948"/>
    <nd ref="424803945"/>
    <nd ref="424803998"/>
    <nd ref="424804000"/>
    <nd ref="424803993"/>
    <nd ref="424803996"/>
    <nd ref="424804007"/>
    <nd ref="424804009"/>
    <nd ref="424804002"/>
    <nd ref="424804005"/>
    <nd ref="424803979"/>
    <nd ref="424803981"/>
    <nd ref="424803974"/>
    <nd ref="424803976"/>
    <nd ref="424803988"/>
    <nd ref="424803991"/>
    <nd ref="424803984"/>
    <nd ref="424803986"/>
    <nd ref="424804046"/>
    <nd ref="424804043"/>
    <nd ref="424804050"/>
    <nd ref="424804048"/>
    <nd ref="424804034"/>
    <nd ref="424804036"/>
    <nd ref="424804041"/>
    <nd ref="424804271"/>
    <nd ref="424804039"/>
    <nd ref="424804029"/>
    <nd ref="424804028"/>
    <nd ref="424804032"/>
    <nd ref="424804030"/>
    <nd ref="424804014"/>
    <nd ref="424804012"/>
    <nd ref="424804027"/>
    <nd ref="271355904"/>
    <tag k="cables" v="6"/>
    <tag k="frequency" v="50"/>
    <tag k="name" v="Köthensdorf-Kriebethal;Hainichen-Freiberg West"/>
    <tag k="operator" v="enviaM"/>
    <tag k="power" v="line"/>
    <tag k="voltage" v="110000"/>
    <tag k="wires" v="single"/>
  </way>
</osm>
