<?xml version='1.0' encoding='UTF-8'?>
<osm version="0.6" generator="libosmium/2.20.0">
  <way id="36501538" version="2" timestamp="2009-10-03T21:02:10Z" uid="20587" user="balrog-kun" changeset="2729596">
    <nd ref="420559817"/>
    <nd ref="425325152"/>
    <nd ref="425325154"/>
    <tag k="highway" v="track"/>
    <tag k="name" v="Leona Kruczkowskiego"/>
    <tag k="surface" v="gravel"/>
  </way>
  <way id="36501538" version="3" timestamp="2011-05-18T13:26:12Z" uid="352700" user="WojtekK" changeset="8181102">
    <nd ref="420559817"/>
    <nd ref="425325152"/>
    <nd ref="425325154"/>
    <tag k="highway" v="residential"/>
    <tag k="name" v="Leona Kruczkowskiego"/>
    <tag k="surface" v="gravel"/>
  </way>
  <way id="36501539" version="3" timestamp="2009-10-03T21:02:17Z" uid="20587" user="balrog-kun" changeset="2729596">
    <nd ref="425325154"/>
    <nd ref="425325157"/>
    <nd ref="425325159"/>
    <nd ref="425325161"/>
    <nd ref="425325164"/>
    <nd ref="425311327"/>
    <tag k="access" v="destination"/>
    <tag k="highway" v="track"/>
    <tag k="name" v="Leona Kruczkowskiego"/>
    <tag k="surface" v="gravel"/>
  </way>
  <way id="36501539" version="4" timestamp="2011-05-18T13:26:06Z" uid="352700" user="WojtekK" changeset="8181102">
    <nd ref="425325154"/>
    <nd ref="425325157"/>
    <nd ref="425325159"/>
    <nd ref="425325161"/>
    <nd ref="425325164"/>
    <nd ref="425311327"/>
    <tag k="highway" v="residential"/>
    <tag k="name" v="Leona Kruczkowskiego"/>
    <tag k="surface" v="gravel"/>
  </way>
  <way id="36501540" version="2" timestamp="2009-10-03T21:02:12Z" uid="20587" user="balrog-kun" changeset="2729596">
    <nd ref="425325154"/>
    <nd ref="425325156"/>
    <tag k="highway" v="track"/>
  </way>
</osm>
