<?xml version='1.0' encoding='UTF-8'?>
<osm version="0.6" generator="libosmium/2.20.0">
  <way id="3653095" version="10" timestamp="2010-01-20T23:08:43Z" uid="9581" user="Lobelt" changeset="3671384">
    <nd ref="15509289"/>
    <nd ref="336467511"/>
    <nd ref="15509291"/>
    <nd ref="294124812"/>
    <nd ref="18109653"/>
    <nd ref="294171153"/>
    <nd ref="617400682"/>
    <tag k="highway" v="tertiary"/>
    <tag k="maxspeed" v="50"/>
    <tag k="name" v="Groß-Breitenbach"/>
    <tag k="ref" v="K 9"/>
  </way>
  <way id="3653095" version="11" timestamp="2011-04-21T18:54:19Z" uid="60824" user="Carsten Güse" changeset="7928135">
    <nd ref="15509289"/>
    <nd ref="336467511"/>
    <nd ref="15509291"/>
    <nd ref="294124812"/>
    <nd ref="18109653"/>
    <nd ref="294171153"/>
    <nd ref="617400682"/>
    <tag k="highway" v="tertiary"/>
    <tag k="maxspeed" v="50"/>
    <tag k="name" v="Groß-Breitenbach"/>
    <tag k="ref" v="K 9"/>
    <tag k="surface" v="asphalt"/>
  </way>
</osm>
