<?xml version='1.0' encoding='UTF-8'?>
<osm version="0.6" generator="libosmium/2.20.0">
  <way id="36688389" version="3" timestamp="2010-07-08T19:25:32Z" uid="74617" user="JohnSmith" changeset="5168688">
    <nd ref="354266735"/>
    <nd ref="354266741"/>
    <nd ref="354266801"/>
    <nd ref="354266749"/>
    <nd ref="354266754"/>
    <nd ref="354266759"/>
    <nd ref="354266764"/>
    <tag k="highway" v="residential"/>
    <tag k="maxspeed" v="50"/>
    <tag k="maxspeed:source" v="default residential speed limit in Australia"/>
    <tag k="name" v="Stratford Way"/>
  </way>
  <way id="36688389" version="4" timestamp="2012-01-18T23:42:12Z" uid="147510" user="woodpeck_fixbot" changeset="10432847">
    <nd ref="354266735"/>
    <nd ref="354266741"/>
    <nd ref="354266801"/>
    <nd ref="354266749"/>
    <nd ref="354266754"/>
    <nd ref="354266759"/>
    <nd ref="354266764"/>
    <tag k="highway" v="residential"/>
    <tag k="name" v="Stratford Way"/>
  </way>
  <way id="36688389" version="5" timestamp="2012-03-03T03:27:43Z" uid="129966" user="Lumus" changeset="10854263">
    <nd ref="354266735"/>
    <nd ref="354266741"/>
    <nd ref="354266801"/>
    <nd ref="354266749"/>
    <nd ref="354266754"/>
    <nd ref="1657035332"/>
    <nd ref="354266759"/>
    <nd ref="354266764"/>
    <tag k="highway" v="residential"/>
    <tag k="name" v="Stratford Way"/>
  </way>
  <way id="36688561" version="2" timestamp="2010-07-08T04:59:55Z" uid="74617" user="JohnSmith" changeset="5163091">
    <nd ref="426442852"/>
    <nd ref="426501572"/>
    <nd ref="426501573"/>
    <nd ref="426501574"/>
    <nd ref="426501576"/>
    <nd ref="426501577"/>
    <nd ref="426501579"/>
    <nd ref="426501581"/>
    <nd ref="426501546"/>
    <tag k="highway" v="residential"/>
    <tag k="maxspeed" v="50"/>
    <tag k="maxspeed:source" v="default residential speed limit in Australia"/>
    <tag k="name" v="Bunker Avenue"/>
  </way>
  <way id="36688561" version="3" timestamp="2012-01-18T23:42:13Z" uid="147510" user="woodpeck_fixbot" changeset="10432847">
    <nd ref="426442852"/>
    <nd ref="426501572"/>
    <nd ref="426501573"/>
    <nd ref="426501574"/>
    <nd ref="426501576"/>
    <nd ref="426501577"/>
    <nd ref="426501579"/>
    <nd ref="426501581"/>
    <nd ref="426501546"/>
    <tag k="highway" v="residential"/>
    <tag k="name" v="Bunker Avenue"/>
  </way>
  <way id="36688562" version="2" timestamp="2010-07-08T04:59:12Z" uid="74617" user="JohnSmith" changeset="5163091">
    <nd ref="426501577"/>
    <nd ref="426501527"/>
    <tag k="highway" v="residential"/>
    <tag k="maxspeed" v="50"/>
    <tag k="maxspeed:source" v="default residential speed limit in Australia"/>
    <tag k="name" v="Hook Way"/>
  </way>
  <way id="36688562" version="3" timestamp="2012-01-18T23:42:14Z" uid="147510" user="woodpeck_fixbot" changeset="10432847">
    <nd ref="426501577"/>
    <nd ref="426501527"/>
    <tag k="highway" v="residential"/>
    <tag k="name" v="Hook Way"/>
  </way>
  <way id="36688563" version="3" timestamp="2010-07-08T05:00:17Z" uid="74617" user="JohnSmith" changeset="5163091">
    <nd ref="426501528"/>
    <nd ref="426501583"/>
    <nd ref="429444179"/>
    <tag k="highway" v="residential"/>
    <tag k="maxspeed" v="50"/>
    <tag k="maxspeed:source" v="default residential speed limit in Australia"/>
    <tag k="name" v="Tee Way"/>
  </way>
  <way id="36688563" version="4" timestamp="2012-01-18T23:42:15Z" uid="147510" user="woodpeck_fixbot" changeset="10432847">
    <nd ref="426501528"/>
    <nd ref="426501583"/>
    <nd ref="429444179"/>
    <tag k="highway" v="residential"/>
    <tag k="name" v="Tee Way"/>
  </way>
  <way id="36688564" version="2" timestamp="2010-07-08T05:00:33Z" uid="74617" user="JohnSmith" changeset="5163091">
    <nd ref="426501540"/>
    <nd ref="426501585"/>
    <tag k="highway" v="residential"/>
    <tag k="maxspeed" v="50"/>
    <tag k="maxspeed:source" v="default residential speed limit in Australia"/>
    <tag k="name" v="Green Close"/>
  </way>
  <way id="36688564" version="3" timestamp="2012-01-18T23:42:16Z" uid="147510" user="woodpeck_fixbot" changeset="10432847">
    <nd ref="426501540"/>
    <nd ref="426501585"/>
    <tag k="highway" v="residential"/>
    <tag k="name" v="Green Close"/>
  </way>
  <way id="36688565" version="2" timestamp="2010-07-08T04:59:07Z" uid="74617" user="JohnSmith" changeset="5163091">
    <nd ref="426442855"/>
    <nd ref="426501587"/>
    <nd ref="426501589"/>
    <nd ref="426501591"/>
    <nd ref="426501593"/>
    <nd ref="426501596"/>
    <nd ref="426501597"/>
    <nd ref="426501548"/>
    <tag k="highway" v="residential"/>
    <tag k="maxspeed" v="50"/>
    <tag k="maxspeed:source" v="default residential speed limit in Australia"/>
    <tag k="name" v="Wedge Street"/>
  </way>
  <way id="36688565" version="3" timestamp="2012-01-18T23:42:19Z" uid="147510" user="woodpeck_fixbot" changeset="10432847">
    <nd ref="426442855"/>
    <nd ref="426501587"/>
    <nd ref="426501589"/>
    <nd ref="426501591"/>
    <nd ref="426501593"/>
    <nd ref="426501596"/>
    <nd ref="426501597"/>
    <nd ref="426501548"/>
    <tag k="highway" v="residential"/>
    <tag k="name" v="Wedge Street"/>
  </way>
  <way id="36688566" version="2" timestamp="2010-07-08T04:58:28Z" uid="74617" user="JohnSmith" changeset="5163091">
    <nd ref="426442858"/>
    <nd ref="426501598"/>
    <tag k="highway" v="residential"/>
    <tag k="maxspeed" v="50"/>
    <tag k="maxspeed:source" v="default residential speed limit in Australia"/>
    <tag k="name" v="Par Court"/>
  </way>
  <way id="36688566" version="3" timestamp="2012-01-18T23:42:25Z" uid="147510" user="woodpeck_fixbot" changeset="10432847">
    <nd ref="426442858"/>
    <nd ref="426501598"/>
    <tag k="highway" v="residential"/>
    <tag k="name" v="Par Court"/>
  </way>
  <way id="36688567" version="2" timestamp="2010-07-08T04:59:30Z" uid="74617" user="JohnSmith" changeset="5163091">
    <nd ref="426501550"/>
    <nd ref="426501602"/>
    <tag k="highway" v="residential"/>
    <tag k="maxspeed" v="50"/>
    <tag k="maxspeed:source" v="default residential speed limit in Australia"/>
    <tag k="name" v="Scribblygum Court"/>
  </way>
  <way id="36688567" version="3" timestamp="2012-01-18T23:42:26Z" uid="147510" user="woodpeck_fixbot" changeset="10432847">
    <nd ref="426501550"/>
    <nd ref="426501602"/>
    <tag k="highway" v="residential"/>
    <tag k="name" v="Scribblygum Court"/>
  </way>
  <way id="36688568" version="2" timestamp="2010-07-08T04:59:49Z" uid="74617" user="JohnSmith" changeset="5163091">
    <nd ref="426501553"/>
    <nd ref="426501605"/>
    <nd ref="426501607"/>
    <nd ref="426501609"/>
    <nd ref="426501611"/>
    <tag k="highway" v="residential"/>
    <tag k="maxspeed" v="50"/>
    <tag k="maxspeed:source" v="default residential speed limit in Australia"/>
    <tag k="name" v="Redgum Court"/>
  </way>
  <way id="36688568" version="3" timestamp="2012-01-18T23:42:27Z" uid="147510" user="woodpeck_fixbot" changeset="10432847">
    <nd ref="426501553"/>
    <nd ref="426501605"/>
    <nd ref="426501607"/>
    <nd ref="426501609"/>
    <nd ref="426501611"/>
    <tag k="highway" v="residential"/>
    <tag k="name" v="Redgum Court"/>
  </way>
  <way id="36688569" version="2" timestamp="2010-07-08T04:58:23Z" uid="74617" user="JohnSmith" changeset="5163091">
    <nd ref="426501558"/>
    <nd ref="426501613"/>
    <nd ref="426501615"/>
    <nd ref="426501617"/>
    <nd ref="426501618"/>
    <nd ref="426501619"/>
    <tag k="highway" v="residential"/>
    <tag k="maxspeed" v="50"/>
    <tag k="maxspeed:source" v="default residential speed limit in Australia"/>
    <tag k="name" v="La Borde Court"/>
  </way>
  <way id="36688569" version="3" timestamp="2012-01-18T23:42:28Z" uid="147510" user="woodpeck_fixbot" changeset="10432847">
    <nd ref="426501558"/>
    <nd ref="426501613"/>
    <nd ref="426501615"/>
    <nd ref="426501617"/>
    <nd ref="426501618"/>
    <nd ref="426501619"/>
    <tag k="highway" v="residential"/>
    <tag k="name" v="La Borde Court"/>
  </way>
  <way id="36688570" version="2" timestamp="2010-07-08T05:00:11Z" uid="74617" user="JohnSmith" changeset="5163091">
    <nd ref="426501556"/>
    <nd ref="426501620"/>
    <nd ref="426501621"/>
    <nd ref="426501623"/>
    <nd ref="426501625"/>
    <nd ref="426501627"/>
    <nd ref="426501629"/>
    <nd ref="426501631"/>
    <nd ref="426501633"/>
    <nd ref="426501635"/>
    <nd ref="426501638"/>
    <nd ref="426501640"/>
    <nd ref="426501644"/>
    <nd ref="426501646"/>
    <nd ref="426501648"/>
    <nd ref="426501650"/>
    <nd ref="426501652"/>
    <nd ref="426501565"/>
    <tag k="highway" v="residential"/>
    <tag k="maxspeed" v="50"/>
    <tag k="maxspeed:source" v="default residential speed limit in Australia"/>
    <tag k="name" v="Gum Tree Drive"/>
  </way>
  <way id="36688570" version="3" timestamp="2012-01-18T23:42:28Z" uid="147510" user="woodpeck_fixbot" changeset="10432847">
    <nd ref="426501556"/>
    <nd ref="426501620"/>
    <nd ref="426501621"/>
    <nd ref="426501623"/>
    <nd ref="426501625"/>
    <nd ref="426501627"/>
    <nd ref="426501629"/>
    <nd ref="426501631"/>
    <nd ref="426501633"/>
    <nd ref="426501635"/>
    <nd ref="426501638"/>
    <nd ref="426501640"/>
    <nd ref="426501644"/>
    <nd ref="426501646"/>
    <nd ref="426501648"/>
    <nd ref="426501650"/>
    <nd ref="426501652"/>
    <nd ref="426501565"/>
    <tag k="highway" v="residential"/>
    <tag k="name" v="Gum Tree Drive"/>
  </way>
  <way id="36688571" version="2" timestamp="2010-07-08T04:58:46Z" uid="74617" user="JohnSmith" changeset="5163091">
    <nd ref="426501627"/>
    <nd ref="426501654"/>
    <tag k="highway" v="residential"/>
    <tag k="maxspeed" v="50"/>
    <tag k="maxspeed:source" v="default residential speed limit in Australia"/>
    <tag k="name" v="Grey Gum Court"/>
  </way>
  <way id="36688571" version="3" timestamp="2012-01-18T23:42:30Z" uid="147510" user="woodpeck_fixbot" changeset="10432847">
    <nd ref="426501627"/>
    <nd ref="426501654"/>
    <tag k="highway" v="residential"/>
    <tag k="name" v="Grey Gum Court"/>
  </way>
  <way id="36688572" version="2" timestamp="2010-07-08T04:59:01Z" uid="74617" user="JohnSmith" changeset="5163091">
    <nd ref="426501633"/>
    <nd ref="426501656"/>
    <nd ref="426501658"/>
    <nd ref="426501660"/>
    <nd ref="426501662"/>
    <nd ref="426501664"/>
    <tag k="highway" v="residential"/>
    <tag k="maxspeed" v="50"/>
    <tag k="maxspeed:source" v="default residential speed limit in Australia"/>
    <tag k="name" v="Spotted Gum Court"/>
  </way>
  <way id="36688572" version="3" timestamp="2012-01-18T23:42:30Z" uid="147510" user="woodpeck_fixbot" changeset="10432847">
    <nd ref="426501633"/>
    <nd ref="426501656"/>
    <nd ref="426501658"/>
    <nd ref="426501660"/>
    <nd ref="426501662"/>
    <nd ref="426501664"/>
    <tag k="highway" v="residential"/>
    <tag k="name" v="Spotted Gum Court"/>
  </way>
  <way id="36688573" version="2" timestamp="2010-07-08T05:00:06Z" uid="74617" user="JohnSmith" changeset="5163091">
    <nd ref="426501648"/>
    <nd ref="426501665"/>
    <nd ref="426501666"/>
    <tag k="highway" v="residential"/>
    <tag k="maxspeed" v="50"/>
    <tag k="maxspeed:source" v="default residential speed limit in Australia"/>
    <tag k="name" v="Gwen Court"/>
  </way>
  <way id="36688573" version="3" timestamp="2012-01-18T23:42:32Z" uid="147510" user="woodpeck_fixbot" changeset="10432847">
    <nd ref="426501648"/>
    <nd ref="426501665"/>
    <nd ref="426501666"/>
    <tag k="highway" v="residential"/>
    <tag k="name" v="Gwen Court"/>
  </way>
</osm>
