<?xml version='1.0' encoding='UTF-8'?>
<osm version="0.6" generator="libosmium/2.20.0">
  <way id="36683586" version="3" timestamp="2010-07-08T19:16:49Z" uid="74617" user="JohnSmith" changeset="5168688">
    <nd ref="354275248"/>
    <nd ref="354275251"/>
    <tag k="highway" v="residential"/>
    <tag k="maxspeed" v="50"/>
    <tag k="maxspeed:source" v="default residential speed limit in Australia"/>
    <tag k="name" v="William Buckley Court"/>
  </way>
  <way id="36683586" version="4" timestamp="2012-01-18T23:41:50Z" uid="147510" user="woodpeck_fixbot" changeset="10432847">
    <nd ref="354275248"/>
    <nd ref="354275251"/>
    <tag k="highway" v="residential"/>
    <tag k="name" v="William Buckley Court"/>
  </way>
  <way id="36683935" version="3" timestamp="2010-07-08T19:24:36Z" uid="74617" user="JohnSmith" changeset="5168688">
    <nd ref="354275028"/>
    <nd ref="354275035"/>
    <nd ref="354275017"/>
    <nd ref="354275023"/>
    <nd ref="354274948"/>
    <tag k="highway" v="residential"/>
    <tag k="maxspeed" v="50"/>
    <tag k="maxspeed:source" v="default residential speed limit in Australia"/>
    <tag k="name" v="James Austin Way"/>
  </way>
  <way id="36683935" version="4" timestamp="2012-01-18T23:41:51Z" uid="147510" user="woodpeck_fixbot" changeset="10432847">
    <nd ref="354275028"/>
    <nd ref="354275035"/>
    <nd ref="354275017"/>
    <nd ref="354275023"/>
    <nd ref="354274948"/>
    <tag k="highway" v="residential"/>
    <tag k="name" v="James Austin Way"/>
  </way>
</osm>
