<?xml version='1.0' encoding='UTF-8'?>
<osm version="0.6" generator="libosmium/2.20.0">
  <way id="36741082" version="3" timestamp="2010-04-02T17:35:56Z" uid="20587" user="balrog-kun" changeset="4304500">
    <nd ref="427195339"/>
    <nd ref="427072084"/>
    <nd ref="427072086"/>
    <nd ref="427072078"/>
    <nd ref="427072075"/>
    <nd ref="427072082"/>
    <nd ref="427072080"/>
    <nd ref="427072069"/>
    <nd ref="427072066"/>
    <nd ref="427072073"/>
    <nd ref="427072071"/>
    <nd ref="427072060"/>
    <nd ref="427072058"/>
    <nd ref="427072064"/>
    <nd ref="427072062"/>
    <nd ref="427072052"/>
    <nd ref="427072050"/>
    <nd ref="427072056"/>
    <nd ref="427072054"/>
    <nd ref="427072042"/>
    <nd ref="427072044"/>
    <nd ref="427072046"/>
    <nd ref="427072048"/>
    <nd ref="427072034"/>
    <nd ref="427072036"/>
    <nd ref="427072038"/>
    <nd ref="427072040"/>
    <nd ref="427072025"/>
    <nd ref="427072027"/>
    <nd ref="427072030"/>
    <nd ref="427072032"/>
    <nd ref="427072014"/>
    <nd ref="427072018"/>
    <nd ref="427072020"/>
    <nd ref="427072022"/>
    <nd ref="427071353"/>
    <nd ref="427071354"/>
    <nd ref="427071355"/>
    <nd ref="427071356"/>
    <nd ref="427071349"/>
    <nd ref="427071350"/>
    <nd ref="427071351"/>
    <nd ref="427071352"/>
    <nd ref="427071345"/>
    <nd ref="427071346"/>
    <nd ref="427071347"/>
    <nd ref="427071348"/>
    <nd ref="427071341"/>
    <nd ref="427071342"/>
    <nd ref="427071343"/>
    <nd ref="427071344"/>
    <nd ref="427071338"/>
    <nd ref="427071337"/>
    <nd ref="427071340"/>
    <nd ref="427071339"/>
    <nd ref="427071334"/>
    <nd ref="427071333"/>
    <nd ref="427071336"/>
    <nd ref="427071335"/>
    <nd ref="427071330"/>
    <nd ref="427071329"/>
    <nd ref="427071332"/>
    <nd ref="427071331"/>
    <nd ref="427071326"/>
    <nd ref="427071325"/>
    <nd ref="427071328"/>
    <nd ref="427071327"/>
    <nd ref="427071398"/>
    <nd ref="427071399"/>
    <nd ref="427071396"/>
    <nd ref="427071397"/>
    <nd ref="427071394"/>
    <nd ref="427071395"/>
    <nd ref="427071392"/>
    <nd ref="427071393"/>
    <nd ref="427071390"/>
    <nd ref="427071391"/>
    <nd ref="427071388"/>
    <nd ref="427071389"/>
    <nd ref="427071386"/>
    <nd ref="427071387"/>
    <nd ref="427071384"/>
    <nd ref="427071385"/>
    <nd ref="427071383"/>
    <nd ref="427071381"/>
    <nd ref="427071379"/>
    <nd ref="427071377"/>
    <nd ref="427071376"/>
    <nd ref="427071375"/>
    <nd ref="427071374"/>
    <nd ref="427071373"/>
    <nd ref="427071371"/>
    <nd ref="427071369"/>
    <nd ref="427071367"/>
    <nd ref="427071365"/>
    <nd ref="427071363"/>
    <nd ref="427071361"/>
    <nd ref="427071359"/>
    <nd ref="427071357"/>
    <nd ref="427071413"/>
    <nd ref="427071414"/>
    <nd ref="427071415"/>
    <nd ref="427071416"/>
    <nd ref="427071417"/>
    <nd ref="427071418"/>
    <nd ref="427071419"/>
    <nd ref="427071420"/>
    <nd ref="427071405"/>
    <nd ref="427071406"/>
    <nd ref="427071407"/>
    <nd ref="427071408"/>
    <nd ref="427071409"/>
    <nd ref="427071410"/>
    <nd ref="427071411"/>
    <nd ref="427071412"/>
    <nd ref="427071401"/>
    <nd ref="427071400"/>
    <nd ref="427071403"/>
    <nd ref="427071402"/>
    <nd ref="427071404"/>
    <tag k="NPS:NOW_TRLCSS" v="W"/>
    <tag k="US-NPS:way_id" v="N02"/>
    <tag k="attribution" v="US-NPS"/>
    <tag k="distance" v="1.0"/>
    <tag k="distance_unit" v="mi"/>
    <tag k="fixme" v="resurvey"/>
    <tag k="foot" v="yes"/>
    <tag k="highway" v="path"/>
    <tag k="horse" v="designated"/>
    <tag k="import_uuid" v="b2a6c900-5dcc-11de-8509-001e2a3ffcd7"/>
    <tag k="name" v="Mount Carrie Way Trail"/>
    <tag k="sac_scale" v="hiking"/>
    <tag k="source" v="US-NPS_import_b2a6c900-5dcc-11de-8509-001e2a3ffcd7"/>
  </way>
  <way id="36741611" version="2" timestamp="2010-03-10T02:39:57Z" uid="20587" user="balrog-kun" changeset="4086058">
    <nd ref="427090617"/>
    <nd ref="427090620"/>
    <nd ref="427090619"/>
    <nd ref="427090618"/>
    <nd ref="427090617"/>
    <tag k="building" v="yes"/>
    <tag k="landuse" v="commercial"/>
  </way>
  <way id="36741651" version="3" timestamp="2010-03-10T09:21:09Z" uid="20587" user="balrog-kun" changeset="4087406">
    <nd ref="427092074"/>
    <nd ref="427092078"/>
    <nd ref="427092083"/>
    <nd ref="427092086"/>
    <nd ref="427092074"/>
    <tag k="addr:state" v="OR"/>
    <tag k="building" v="office"/>
    <tag k="ele" v="19"/>
    <tag k="gnis:county_name" v="Multnomah"/>
    <tag k="gnis:feature_id" v="2473971"/>
    <tag k="landuse" v="commercial"/>
    <tag k="name" v="Jackson Tower"/>
  </way>
  <way id="36741651" version="4" timestamp="2012-02-28T06:43:02Z" uid="399776" user="emem" changeset="10816044">
    <nd ref="427092074"/>
    <nd ref="427092078"/>
    <nd ref="427092083"/>
    <nd ref="427092086"/>
    <nd ref="427092074"/>
    <tag k="addr:state" v="OR"/>
    <tag k="building" v="office"/>
    <tag k="building:height" v="50"/>
    <tag k="building:levels" v="12"/>
    <tag k="ele" v="19"/>
    <tag k="gnis:county_name" v="Multnomah"/>
    <tag k="gnis:feature_id" v="2473971"/>
    <tag k="landuse" v="commercial"/>
    <tag k="name" v="Jackson Tower"/>
  </way>
  <way id="36741655" version="2" timestamp="2010-03-10T20:42:49Z" uid="20587" user="balrog-kun" changeset="4093232">
    <nd ref="427092584"/>
    <nd ref="427092586"/>
    <nd ref="427092590"/>
    <nd ref="427092592"/>
    <nd ref="427092584"/>
    <tag k="building" v="office"/>
    <tag k="landuse" v="commercial"/>
    <tag k="name" v="Fox Tower"/>
  </way>
  <way id="36741655" version="3" timestamp="2010-08-05T21:18:24Z" uid="28145" user="amillar" changeset="5412246">
    <nd ref="427092584"/>
    <nd ref="427092586"/>
    <nd ref="427092590"/>
    <nd ref="427092592"/>
    <nd ref="427092584"/>
    <tag k="addr:city" v="Portland"/>
    <tag k="addr:housenumber" v="805"/>
    <tag k="addr:postcode" v="97205"/>
    <tag k="addr:state" v="OR"/>
    <tag k="addr:street" v="Southwest Broadway"/>
    <tag k="building" v="office"/>
    <tag k="landuse" v="commercial"/>
    <tag k="name" v="Fox Tower"/>
  </way>
  <way id="36741655" version="4" timestamp="2012-02-27T00:14:49Z" uid="399776" user="emem" changeset="10804719">
    <nd ref="427092584"/>
    <nd ref="427092586"/>
    <nd ref="427092590"/>
    <nd ref="427092592"/>
    <nd ref="427092584"/>
    <tag k="addr:city" v="Portland"/>
    <tag k="addr:housenumber" v="805"/>
    <tag k="addr:postcode" v="97205"/>
    <tag k="addr:state" v="OR"/>
    <tag k="addr:street" v="Southwest Broadway"/>
    <tag k="building" v="office"/>
    <tag k="building:height" v="113"/>
    <tag k="building:levels" v="27"/>
    <tag k="landuse" v="commercial"/>
    <tag k="name" v="Fox Tower"/>
  </way>
  <way id="36741655" version="5" timestamp="2012-02-28T06:43:00Z" uid="399776" user="emem" changeset="10816044">
    <nd ref="427092584"/>
    <nd ref="427092586"/>
    <nd ref="1651225063"/>
    <nd ref="1651225068"/>
    <nd ref="427092590"/>
    <nd ref="427092592"/>
    <nd ref="427092584"/>
    <tag k="addr:city" v="Portland"/>
    <tag k="addr:housenumber" v="805"/>
    <tag k="addr:postcode" v="97205"/>
    <tag k="addr:state" v="OR"/>
    <tag k="addr:street" v="Southwest Broadway"/>
    <tag k="building" v="office"/>
    <tag k="building:height" v="113"/>
    <tag k="building:levels" v="27"/>
    <tag k="landuse" v="commercial"/>
    <tag k="name" v="Fox Tower"/>
  </way>
  <way id="36741764" version="2" timestamp="2010-03-10T02:40:00Z" uid="20587" user="balrog-kun" changeset="4086058">
    <nd ref="427097558"/>
    <nd ref="427097563"/>
    <nd ref="427097567"/>
    <nd ref="427097573"/>
    <nd ref="427097577"/>
    <nd ref="427097579"/>
    <nd ref="427097580"/>
    <nd ref="427097581"/>
    <nd ref="427097558"/>
    <tag k="building" v="yes"/>
    <tag k="landuse" v="commercial"/>
  </way>
  <way id="36741777" version="2" timestamp="2010-03-10T02:39:59Z" uid="20587" user="balrog-kun" changeset="4086058">
    <nd ref="427097727"/>
    <nd ref="427097729"/>
    <nd ref="427097731"/>
    <nd ref="427097736"/>
    <nd ref="427097727"/>
    <tag k="building" v="yes"/>
    <tag k="landuse" v="commercial"/>
  </way>
  <way id="36741779" version="2" timestamp="2010-03-10T02:39:59Z" uid="20587" user="balrog-kun" changeset="4086058">
    <nd ref="427097860"/>
    <nd ref="427097861"/>
    <nd ref="427097862"/>
    <nd ref="427097864"/>
    <nd ref="427097860"/>
    <tag k="building" v="yes"/>
    <tag k="landuse" v="commercial"/>
  </way>
  <way id="36741847" version="2" timestamp="2010-03-10T02:39:59Z" uid="20587" user="balrog-kun" changeset="4086058">
    <nd ref="427098607"/>
    <nd ref="427098630"/>
    <nd ref="427098628"/>
    <nd ref="427098627"/>
    <nd ref="427098625"/>
    <nd ref="427098623"/>
    <nd ref="427098621"/>
    <nd ref="427098618"/>
    <nd ref="427098616"/>
    <nd ref="427098610"/>
    <nd ref="427098607"/>
    <tag k="amenity" v="parking"/>
  </way>
  <way id="36741851" version="3" timestamp="2010-03-10T02:39:59Z" uid="20587" user="balrog-kun" changeset="4086058">
    <nd ref="427098739"/>
    <nd ref="427098741"/>
    <nd ref="427098742"/>
    <nd ref="427098744"/>
    <nd ref="427098739"/>
    <tag k="building" v="yes"/>
    <tag k="landuse" v="commercial"/>
  </way>
  <way id="36741854" version="2" timestamp="2010-03-10T02:39:59Z" uid="20587" user="balrog-kun" changeset="4086058">
    <nd ref="427099101"/>
    <nd ref="427099109"/>
    <nd ref="427099107"/>
    <nd ref="427099104"/>
    <nd ref="427099101"/>
    <tag k="amenity" v="parking"/>
    <tag k="building" v="yes"/>
  </way>
  <way id="36741881" version="2" timestamp="2010-03-10T02:39:56Z" uid="20587" user="balrog-kun" changeset="4086058">
    <nd ref="427099281"/>
    <nd ref="427099285"/>
    <nd ref="427099287"/>
    <nd ref="427099290"/>
    <nd ref="427099281"/>
    <tag k="amenity" v="parking"/>
    <tag k="building" v="yes"/>
  </way>
  <way id="36741881" version="3" timestamp="2010-07-17T04:03:31Z" uid="97431" user="Dion Dock" changeset="5239118">
    <nd ref="427099281"/>
    <nd ref="427099285"/>
    <nd ref="427099287"/>
    <nd ref="427099290"/>
    <nd ref="427099281"/>
    <tag k="amenity" v="parking"/>
    <tag k="fee" v="yes"/>
    <tag k="parking" v="surface"/>
  </way>
  <way id="36741918" version="3" timestamp="2010-03-10T02:39:58Z" uid="20587" user="balrog-kun" changeset="4086058">
    <nd ref="427099533"/>
    <nd ref="427099534"/>
    <nd ref="427099536"/>
    <nd ref="427099539"/>
    <nd ref="427099533"/>
    <tag k="amenity" v="parking"/>
    <tag k="building" v="yes"/>
  </way>
  <way id="36741923" version="2" timestamp="2010-03-10T02:39:56Z" uid="20587" user="balrog-kun" changeset="4086058">
    <nd ref="427099727"/>
    <nd ref="427099729"/>
    <nd ref="427099731"/>
    <nd ref="427099733"/>
    <nd ref="427099727"/>
    <tag k="building" v="yes"/>
    <tag k="landuse" v="commercial"/>
  </way>
  <way id="36741995" version="2" timestamp="2010-04-02T17:35:58Z" uid="20587" user="balrog-kun" changeset="4304500">
    <nd ref="47607718"/>
    <nd ref="47607722"/>
    <nd ref="427103703"/>
    <nd ref="47473722"/>
    <tag k="highway" v="residential"/>
    <tag k="name" v="Lincoln Park Road"/>
    <tag k="oneway" v="yes"/>
    <tag k="tiger:cfcc" v="A41"/>
    <tag k="tiger:county" v="Douglas, WA"/>
    <tag k="tiger:name_base" v="Lincoln Park"/>
    <tag k="tiger:name_type" v="Rd"/>
    <tag k="tiger:reviewed" v="no"/>
    <tag k="tiger:separated" v="no"/>
    <tag k="tiger:source" v="tiger_import_dch_v0.6_20070830"/>
    <tag k="tiger:tlid" v="156904413:156904414:156882663:156904405:156904407:156904408"/>
    <tag k="tiger:zip_left" v="98802"/>
    <tag k="tiger:zip_right" v="98802"/>
  </way>
  <way id="36741996" version="2" timestamp="2010-04-02T17:35:59Z" uid="20587" user="balrog-kun" changeset="4304500">
    <nd ref="47473722"/>
    <nd ref="47464799"/>
    <tag k="highway" v="residential"/>
    <tag k="name" v="Lincoln Park Road"/>
    <tag k="tiger:cfcc" v="A41"/>
    <tag k="tiger:county" v="Douglas, WA"/>
    <tag k="tiger:name_base" v="Lincoln Park"/>
    <tag k="tiger:name_type" v="Rd"/>
    <tag k="tiger:reviewed" v="no"/>
    <tag k="tiger:separated" v="no"/>
    <tag k="tiger:source" v="tiger_import_dch_v0.6_20070830"/>
    <tag k="tiger:tlid" v="156904413:156904414:156882663:156904405:156904407:156904408"/>
    <tag k="tiger:zip_left" v="98802"/>
    <tag k="tiger:zip_right" v="98802"/>
  </way>
</osm>
