<?xml version='1.0' encoding='UTF-8'?>
<osm version="0.6" generator="libosmium/2.20.0">
  <way id="36781239" version="2" timestamp="2009-08-25T22:49:22Z" uid="36809" user="pfoten_weg_!_" changeset="2262479">
    <nd ref="306440712"/>
    <nd ref="306440713"/>
    <nd ref="306440714"/>
    <tag k="highway" v="track"/>
    <tag k="sac_scale" v="hiking"/>
    <tag k="trail_visibility" v="good"/>
  </way>
  <way id="36781262" version="2" timestamp="2010-06-18T14:43:37Z" uid="43967" user="railsnail" changeset="5016838">
    <nd ref="285969192"/>
    <nd ref="775706764"/>
    <nd ref="285969188"/>
    <nd ref="285969189"/>
    <tag k="highway" v="living_street"/>
    <tag k="name" v="Munsterplatz"/>
    <tag k="surface" v="cobblestone"/>
  </way>
  <way id="36781470" version="3" timestamp="2009-09-30T16:26:59Z" uid="36809" user="pfoten_weg_!_" changeset="2690373">
    <nd ref="268695090"/>
    <nd ref="427630776"/>
    <nd ref="427630777"/>
    <nd ref="427630778"/>
    <nd ref="267953857"/>
    <nd ref="471802653"/>
    <tag k="highway" v="residential"/>
    <tag k="maxspeed" v="30"/>
    <tag k="name" v="Kirschbaumstraße"/>
  </way>
  <way id="36781470" version="4" timestamp="2009-10-31T11:40:12Z" uid="64756" user="alegria6208" changeset="2996560">
    <nd ref="268695090"/>
    <nd ref="427630776"/>
    <nd ref="427630777"/>
    <nd ref="427630778"/>
    <nd ref="269243517"/>
    <nd ref="427636103"/>
    <nd ref="471802653"/>
    <tag k="highway" v="residential"/>
    <tag k="maxspeed" v="30"/>
    <tag k="name" v="Kirschbaumstraße"/>
  </way>
  <way id="36781470" version="5" timestamp="2010-07-12T19:45:51Z" uid="64756" user="alegria6208" changeset="5202134"/>
  <way id="36781470" version="6" timestamp="2010-07-14T00:28:42Z" uid="145231" user="woodpeck_repair" changeset="5213200">
    <nd ref="268695090"/>
    <nd ref="427630776"/>
    <nd ref="427630777"/>
    <nd ref="427630778"/>
    <nd ref="267953857"/>
    <nd ref="471802653"/>
    <tag k="highway" v="residential"/>
    <tag k="maxspeed" v="30"/>
    <tag k="name" v="Kirschbaumstraße"/>
  </way>
  <way id="36781483" version="1" timestamp="2009-06-21T15:41:24Z" uid="43863" user="Rundling" changeset="1584682">
    <nd ref="427630862"/>
    <nd ref="427630864"/>
    <tag k="bicycle" v="yes"/>
    <tag k="created_by" v="Potlatch 0.10f"/>
    <tag k="foot" v="yes"/>
    <tag k="highway" v="footway"/>
  </way>
  <way id="36781483" version="2" timestamp="2009-06-22T09:29:47Z" uid="43863" user="Rundling" changeset="1591667">
    <nd ref="427630862"/>
    <nd ref="427912523"/>
    <tag k="bicycle" v="yes"/>
    <tag k="created_by" v="Potlatch 0.10f"/>
    <tag k="foot" v="yes"/>
    <tag k="highway" v="footway"/>
  </way>
  <way id="36781483" version="3" timestamp="2009-06-22T15:02:40Z" uid="43863" user="Rundling" changeset="1594469">
    <nd ref="428016862"/>
    <nd ref="427630862"/>
    <nd ref="427912523"/>
    <tag k="bicycle" v="yes"/>
    <tag k="created_by" v="Potlatch 0.10f"/>
    <tag k="foot" v="yes"/>
    <tag k="highway" v="footway"/>
  </way>
  <way id="36781483" version="4" timestamp="2009-07-12T11:51:40Z" uid="43863" user="Rundling" changeset="1806245">
    <nd ref="428016862"/>
    <nd ref="440691045"/>
    <nd ref="427630862"/>
    <nd ref="440691036"/>
    <nd ref="427912523"/>
    <tag k="bicycle" v="yes"/>
    <tag k="foot" v="yes"/>
    <tag k="highway" v="footway"/>
  </way>
  <way id="36781613" version="1" timestamp="2009-06-21T15:42:52Z" uid="43863" user="Rundling" changeset="1584701">
    <nd ref="427631658"/>
    <nd ref="427631663"/>
    <nd ref="427631665"/>
    <nd ref="427631660"/>
    <nd ref="427631658"/>
    <tag k="addr:housenumber" v="1"/>
    <tag k="building" v="yes"/>
  </way>
  <way id="36781613" version="2" timestamp="2009-07-12T13:09:11Z" uid="43863" user="Rundling" changeset="1806958">
    <nd ref="427631658"/>
    <nd ref="427631663"/>
    <nd ref="427631665"/>
    <nd ref="427631660"/>
    <nd ref="427631658"/>
    <tag k="addr:housenumber" v="159"/>
    <tag k="building" v="yes"/>
  </way>
  <way id="36781614" version="1" timestamp="2009-06-21T15:42:52Z" uid="43863" user="Rundling" changeset="1584701">
    <nd ref="427631663"/>
    <nd ref="427631666"/>
    <nd ref="427631669"/>
    <nd ref="427631665"/>
    <nd ref="427631663"/>
    <tag k="addr:housenumber" v="2"/>
    <tag k="building" v="yes"/>
  </way>
  <way id="36781614" version="2" timestamp="2009-07-12T13:09:11Z" uid="43863" user="Rundling" changeset="1806958">
    <nd ref="427631663"/>
    <nd ref="427631666"/>
    <nd ref="427631669"/>
    <nd ref="427631665"/>
    <nd ref="427631663"/>
    <tag k="addr:housenumber" v="161"/>
    <tag k="building" v="yes"/>
  </way>
  <way id="36781615" version="1" timestamp="2009-06-21T15:42:52Z" uid="43863" user="Rundling" changeset="1584701">
    <nd ref="427631666"/>
    <nd ref="427631671"/>
    <nd ref="427631673"/>
    <nd ref="427631669"/>
    <nd ref="427631666"/>
    <tag k="addr:housenumber" v="3"/>
    <tag k="building" v="yes"/>
  </way>
  <way id="36781615" version="2" timestamp="2009-07-12T13:09:11Z" uid="43863" user="Rundling" changeset="1806958">
    <nd ref="427631666"/>
    <nd ref="427631671"/>
    <nd ref="427631673"/>
    <nd ref="427631669"/>
    <nd ref="427631666"/>
    <tag k="addr:housenumber" v="163"/>
    <tag k="building" v="yes"/>
  </way>
  <way id="36781616" version="1" timestamp="2009-06-21T15:42:52Z" uid="43863" user="Rundling" changeset="1584701">
    <nd ref="427631676"/>
    <nd ref="427631680"/>
    <nd ref="427631682"/>
    <nd ref="427631678"/>
    <nd ref="427631676"/>
    <tag k="addr:housenumber" v="1"/>
    <tag k="building" v="yes"/>
  </way>
  <way id="36781616" version="2" timestamp="2009-07-12T13:09:11Z" uid="43863" user="Rundling" changeset="1806958">
    <nd ref="427631676"/>
    <nd ref="427631680"/>
    <nd ref="427631682"/>
    <nd ref="427631678"/>
    <nd ref="427631676"/>
    <tag k="addr:housenumber" v="153"/>
    <tag k="building" v="yes"/>
  </way>
  <way id="36781617" version="1" timestamp="2009-06-21T15:42:52Z" uid="43863" user="Rundling" changeset="1584701">
    <nd ref="427631680"/>
    <nd ref="427631683"/>
    <nd ref="427631685"/>
    <nd ref="427631682"/>
    <nd ref="427631680"/>
    <tag k="addr:housenumber" v="2"/>
    <tag k="building" v="yes"/>
  </way>
  <way id="36781617" version="2" timestamp="2009-07-12T13:09:11Z" uid="43863" user="Rundling" changeset="1806958">
    <nd ref="427631680"/>
    <nd ref="427631683"/>
    <nd ref="427631685"/>
    <nd ref="427631682"/>
    <nd ref="427631680"/>
    <tag k="addr:housenumber" v="155"/>
    <tag k="building" v="yes"/>
  </way>
  <way id="36781618" version="1" timestamp="2009-06-21T15:42:53Z" uid="43863" user="Rundling" changeset="1584701">
    <nd ref="427631683"/>
    <nd ref="427631687"/>
    <nd ref="427631689"/>
    <nd ref="427631685"/>
    <nd ref="427631683"/>
    <tag k="addr:housenumber" v="3"/>
    <tag k="building" v="yes"/>
  </way>
  <way id="36781618" version="2" timestamp="2009-07-12T13:09:10Z" uid="43863" user="Rundling" changeset="1806958">
    <nd ref="427631683"/>
    <nd ref="427631687"/>
    <nd ref="427631689"/>
    <nd ref="427631685"/>
    <nd ref="427631683"/>
    <tag k="addr:housenumber" v="157"/>
    <tag k="building" v="yes"/>
  </way>
</osm>
