<?xml version='1.0' encoding='UTF-8'?>
<osm version="0.6" generator="libosmium/2.20.0">
  <way id="36813005" version="1" timestamp="2009-06-22T09:29:47Z" uid="43863" user="Rundling" changeset="1591667">
    <nd ref="313298008"/>
    <nd ref="427912523"/>
    <nd ref="427912522"/>
    <tag k="bicycle" v="yes"/>
    <tag k="created_by" v="Potlatch 0.10f"/>
    <tag k="foot" v="yes"/>
    <tag k="highway" v="footway"/>
  </way>
  <way id="36813005" version="2" timestamp="2009-07-12T12:13:05Z" uid="43863" user="Rundling" changeset="1806442">
    <nd ref="313298008"/>
    <nd ref="427912523"/>
    <nd ref="427912522"/>
    <nd ref="440691033"/>
    <nd ref="440700362"/>
    <tag k="bicycle" v="yes"/>
    <tag k="foot" v="yes"/>
    <tag k="highway" v="footway"/>
  </way>
  <way id="36813168" version="1" timestamp="2009-06-22T09:37:15Z" uid="7617" user="Franc" changeset="1591702">
    <nd ref="241927028"/>
    <nd ref="427913247"/>
    <nd ref="241927029"/>
    <nd ref="241927030"/>
    <nd ref="241927031"/>
    <nd ref="242548855"/>
    <nd ref="241927033"/>
    <nd ref="241927034"/>
    <nd ref="242548531"/>
    <nd ref="241927035"/>
    <nd ref="241927036"/>
    <nd ref="241927037"/>
    <nd ref="241927038"/>
    <nd ref="241927039"/>
    <nd ref="241927040"/>
    <nd ref="242548814"/>
    <nd ref="241927041"/>
    <nd ref="241927042"/>
    <nd ref="241927043"/>
    <nd ref="241927044"/>
    <nd ref="241927045"/>
    <tag k="created_by" v="Potlatch 0.6c"/>
    <tag k="highway" v="residential"/>
    <tag k="name" v="Becky Avenue"/>
    <tag k="source" v="survey"/>
  </way>
  <way id="36813168" version="2" timestamp="2010-07-08T01:44:31Z" uid="74617" user="JohnSmith" changeset="5162525">
    <nd ref="241927028"/>
    <nd ref="427913247"/>
    <nd ref="241927029"/>
    <nd ref="241927030"/>
    <nd ref="241927031"/>
    <nd ref="242548855"/>
    <nd ref="241927033"/>
    <nd ref="241927034"/>
    <nd ref="242548531"/>
    <nd ref="241927035"/>
    <nd ref="241927036"/>
    <nd ref="241927037"/>
    <nd ref="241927038"/>
    <nd ref="241927039"/>
    <nd ref="241927040"/>
    <nd ref="242548814"/>
    <nd ref="241927041"/>
    <nd ref="241927042"/>
    <nd ref="241927043"/>
    <nd ref="241927044"/>
    <nd ref="241927045"/>
    <tag k="highway" v="residential"/>
    <tag k="maxspeed" v="50"/>
    <tag k="maxspeed:source" v="default residential speed limit in Australia"/>
    <tag k="name" v="Becky Avenue"/>
    <tag k="source" v="survey"/>
  </way>
  <way id="36813168" version="3" timestamp="2012-01-19T00:00:57Z" uid="147510" user="woodpeck_fixbot" changeset="10432847">
    <nd ref="241927028"/>
    <nd ref="427913247"/>
    <nd ref="241927029"/>
    <nd ref="241927030"/>
    <nd ref="241927031"/>
    <nd ref="242548855"/>
    <nd ref="241927033"/>
    <nd ref="241927034"/>
    <nd ref="242548531"/>
    <nd ref="241927035"/>
    <nd ref="241927036"/>
    <nd ref="241927037"/>
    <nd ref="241927038"/>
    <nd ref="241927039"/>
    <nd ref="241927040"/>
    <nd ref="242548814"/>
    <nd ref="241927041"/>
    <nd ref="241927042"/>
    <nd ref="241927043"/>
    <nd ref="241927044"/>
    <nd ref="241927045"/>
    <tag k="highway" v="residential"/>
    <tag k="name" v="Becky Avenue"/>
    <tag k="source" v="survey"/>
  </way>
  <way id="36813169" version="1" timestamp="2009-06-22T09:37:15Z" uid="7617" user="Franc" changeset="1591702">
    <nd ref="242548861"/>
    <nd ref="242548805"/>
    <nd ref="242548806"/>
    <nd ref="242548807"/>
    <nd ref="242548808"/>
    <nd ref="242548845"/>
    <nd ref="242548809"/>
    <nd ref="242548810"/>
    <tag k="created_by" v="Potlatch 0.10f"/>
    <tag k="highway" v="residential"/>
    <tag k="layer" v="0"/>
    <tag k="name" v="Highclere Crescent"/>
    <tag k="source" v="survey"/>
  </way>
  <way id="36813169" version="2" timestamp="2010-07-08T01:46:10Z" uid="74617" user="JohnSmith" changeset="5162525">
    <nd ref="242548861"/>
    <nd ref="242548805"/>
    <nd ref="242548806"/>
    <nd ref="242548807"/>
    <nd ref="242548808"/>
    <nd ref="242548845"/>
    <nd ref="242548809"/>
    <nd ref="242548810"/>
    <tag k="highway" v="residential"/>
    <tag k="layer" v="0"/>
    <tag k="maxspeed" v="50"/>
    <tag k="maxspeed:source" v="default residential speed limit in Australia"/>
    <tag k="name" v="Highclere Crescent"/>
    <tag k="source" v="survey"/>
  </way>
  <way id="36813169" version="3" timestamp="2012-01-19T00:00:59Z" uid="147510" user="woodpeck_fixbot" changeset="10432847">
    <nd ref="242548861"/>
    <nd ref="242548805"/>
    <nd ref="242548806"/>
    <nd ref="242548807"/>
    <nd ref="242548808"/>
    <nd ref="242548845"/>
    <nd ref="242548809"/>
    <nd ref="242548810"/>
    <tag k="highway" v="residential"/>
    <tag k="layer" v="0"/>
    <tag k="name" v="Highclere Crescent"/>
    <tag k="source" v="survey"/>
  </way>
  <way id="36813195" version="3" timestamp="2009-10-13T06:59:27Z" uid="74617" user="JohnSmith" changeset="2832979">
    <nd ref="427913367"/>
    <nd ref="427913368"/>
    <nd ref="529809665"/>
    <nd ref="430028617"/>
    <nd ref="430028618"/>
    <tag k="highway" v="unclassified"/>
    <tag k="name" v="Guava Street"/>
  </way>
  <way id="36813195" version="4" timestamp="2009-10-13T07:12:38Z" uid="74617" user="JohnSmith" changeset="2833047">
    <nd ref="427913367"/>
    <nd ref="529811549"/>
    <nd ref="427913368"/>
    <nd ref="529811541"/>
    <nd ref="529809665"/>
    <nd ref="430028617"/>
    <nd ref="529811518"/>
    <nd ref="430028618"/>
    <tag k="highway" v="unclassified"/>
    <tag k="name" v="Guava Street"/>
  </way>
  <way id="36813195" version="5" timestamp="2009-10-13T09:31:09Z" uid="74617" user="JohnSmith" changeset="2834141">
    <nd ref="427913367"/>
    <nd ref="529811549"/>
    <nd ref="427913368"/>
    <nd ref="529848823"/>
    <nd ref="529811541"/>
    <nd ref="529848825"/>
    <nd ref="529809665"/>
    <nd ref="430028617"/>
    <nd ref="529811518"/>
    <nd ref="430028618"/>
    <tag k="highway" v="unclassified"/>
    <tag k="name" v="Guava Street"/>
  </way>
  <way id="36813195" version="6" timestamp="2011-01-05T05:03:55Z" uid="376317" user="straddler" changeset="6868295">
    <nd ref="427913367"/>
    <nd ref="529811549"/>
    <nd ref="427913368"/>
    <nd ref="529848823"/>
    <nd ref="529811541"/>
    <nd ref="529848825"/>
    <nd ref="529809665"/>
    <nd ref="430028617"/>
    <nd ref="529811518"/>
    <nd ref="430028618"/>
    <tag k="highway" v="residential"/>
    <tag k="name" v="Guava Street"/>
  </way>
  <way id="36813198" version="2" timestamp="2010-07-08T04:58:33Z" uid="74617" user="JohnSmith" changeset="5163091">
    <nd ref="427913374"/>
    <nd ref="427913375"/>
    <nd ref="427913371"/>
    <tag k="highway" v="residential"/>
    <tag k="maxspeed" v="50"/>
    <tag k="maxspeed:source" v="default residential speed limit in Australia"/>
    <tag k="name" v="Ellena Street"/>
  </way>
  <way id="36813198" version="3" timestamp="2010-07-26T11:49:41Z" uid="46482" user="Leon K" changeset="5320381">
    <nd ref="427913374"/>
    <nd ref="427913375"/>
    <nd ref="833821051"/>
    <nd ref="427913371"/>
    <tag k="highway" v="residential"/>
    <tag k="maxspeed" v="50"/>
    <tag k="maxspeed:source" v="default residential speed limit in Australia"/>
    <tag k="name" v="Ellena Street"/>
  </way>
  <way id="36813198" version="4" timestamp="2010-07-26T11:50:06Z" uid="46482" user="Leon K" changeset="5320381">
    <nd ref="427913374"/>
    <nd ref="427913375"/>
    <nd ref="833821051"/>
    <nd ref="833821394"/>
    <nd ref="427913371"/>
    <tag k="highway" v="residential"/>
    <tag k="maxspeed" v="50"/>
    <tag k="maxspeed:source" v="default residential speed limit in Australia"/>
    <tag k="name" v="Ellena Street"/>
  </way>
  <way id="36813198" version="5" timestamp="2010-07-26T11:50:36Z" uid="46482" user="Leon K" changeset="5320381">
    <nd ref="427913374"/>
    <nd ref="427913375"/>
    <nd ref="833821051"/>
    <nd ref="833821394"/>
    <nd ref="833821851"/>
    <nd ref="427913371"/>
    <tag k="highway" v="residential"/>
    <tag k="maxspeed" v="50"/>
    <tag k="maxspeed:source" v="default residential speed limit in Australia"/>
    <tag k="name" v="Ellena Street"/>
  </way>
  <way id="36813198" version="6" timestamp="2010-07-26T11:50:55Z" uid="46482" user="Leon K" changeset="5320381">
    <nd ref="427913374"/>
    <nd ref="427913375"/>
    <nd ref="833821051"/>
    <nd ref="833821394"/>
    <nd ref="833821851"/>
    <nd ref="833822404"/>
    <nd ref="427913371"/>
    <tag k="highway" v="residential"/>
    <tag k="maxspeed" v="50"/>
    <tag k="maxspeed:source" v="default residential speed limit in Australia"/>
    <tag k="name" v="Ellena Street"/>
  </way>
  <way id="36813198" version="7" timestamp="2010-07-26T11:51:07Z" uid="46482" user="Leon K" changeset="5320381">
    <nd ref="427913374"/>
    <nd ref="427913375"/>
    <nd ref="833821051"/>
    <nd ref="833821394"/>
    <nd ref="833821851"/>
    <nd ref="833822404"/>
    <nd ref="833822594"/>
    <nd ref="427913371"/>
    <tag k="highway" v="residential"/>
    <tag k="maxspeed" v="50"/>
    <tag k="maxspeed:source" v="default residential speed limit in Australia"/>
    <tag k="name" v="Ellena Street"/>
  </way>
  <way id="36813198" version="8" timestamp="2010-07-26T13:29:40Z" uid="74617" user="JohnSmith" changeset="5321091"/>
  <way id="36813199" version="2" timestamp="2010-07-08T04:59:33Z" uid="74617" user="JohnSmith" changeset="5163091">
    <nd ref="427913375"/>
    <nd ref="427913372"/>
    <tag k="highway" v="residential"/>
    <tag k="maxspeed" v="50"/>
    <tag k="maxspeed:source" v="default residential speed limit in Australia"/>
    <tag k="name" v="March Lane"/>
  </way>
  <way id="36813199" version="3" timestamp="2010-07-26T13:29:39Z" uid="74617" user="JohnSmith" changeset="5321091">
    <nd ref="529811740"/>
    <nd ref="427913375"/>
    <nd ref="427913372"/>
    <tag k="highway" v="residential"/>
    <tag k="maxspeed" v="50"/>
    <tag k="maxspeed:source" v="default residential speed limit in Australia"/>
    <tag k="name" v="March Lane"/>
    <tag k="source" v="nearmap"/>
  </way>
  <way id="36813199" version="4" timestamp="2012-01-19T00:01:01Z" uid="147510" user="woodpeck_fixbot" changeset="10432847">
    <nd ref="529811740"/>
    <nd ref="427913375"/>
    <nd ref="427913372"/>
    <tag k="highway" v="residential"/>
    <tag k="name" v="March Lane"/>
    <tag k="source" v="nearmap"/>
  </way>
  <way id="36813231" version="3" timestamp="2009-08-05T12:56:19Z" uid="4467" user="Rosscoe" changeset="2046023">
    <nd ref="174761719"/>
    <nd ref="427913961"/>
    <tag k="highway" v="residential"/>
    <tag k="name" v="Acacia Avenue"/>
  </way>
  <way id="36813231" version="4" timestamp="2010-07-08T03:53:32Z" uid="74617" user="JohnSmith" changeset="5163091">
    <nd ref="174761719"/>
    <nd ref="427913961"/>
    <tag k="highway" v="residential"/>
    <tag k="maxspeed" v="50"/>
    <tag k="maxspeed:source" v="default residential speed limit in Australia"/>
    <tag k="name" v="Acacia Avenue"/>
  </way>
  <way id="36813231" version="5" timestamp="2012-01-19T00:01:02Z" uid="147510" user="woodpeck_fixbot" changeset="10432847">
    <nd ref="174761719"/>
    <nd ref="427913961"/>
    <tag k="highway" v="residential"/>
    <tag k="name" v="Acacia Avenue"/>
  </way>
  <way id="36813296" version="12" timestamp="2010-05-17T19:25:33Z" uid="9581" user="Lobelt" changeset="4732070">
    <nd ref="272397868"/>
    <nd ref="408464945"/>
    <nd ref="272397869"/>
    <nd ref="272397870"/>
    <nd ref="272397871"/>
    <nd ref="272397872"/>
    <nd ref="443609802"/>
    <nd ref="417385482"/>
    <nd ref="737981499"/>
    <tag k="highway" v="secondary"/>
    <tag k="name" v="Grünstadter Straße"/>
    <tag k="ref" v="L 395"/>
  </way>
  <way id="36813296" version="13" timestamp="2011-10-04T19:36:54Z" uid="70621" user="BikeMap" changeset="9472623">
    <nd ref="272397868"/>
    <nd ref="408464945"/>
    <nd ref="272397869"/>
    <nd ref="272397870"/>
    <nd ref="272397871"/>
    <nd ref="272397872"/>
    <tag k="highway" v="secondary"/>
    <tag k="name" v="Grünstadter Straße"/>
    <tag k="ref" v="L 395"/>
  </way>
  <way id="36813296" version="14" timestamp="2012-03-20T21:00:24Z" uid="328555" user="peb12345" changeset="11045630">
    <nd ref="272397868"/>
    <nd ref="408464945"/>
    <nd ref="272397869"/>
    <nd ref="272397870"/>
    <nd ref="272397871"/>
    <nd ref="1683846563"/>
    <tag k="highway" v="secondary"/>
    <tag k="name" v="Grünstadter Straße"/>
    <tag k="ref" v="L 395"/>
  </way>
  <way id="36813306" version="2" timestamp="2009-08-05T12:50:23Z" uid="4467" user="Rosscoe" changeset="2045970">
    <nd ref="285921824"/>
    <nd ref="427913952"/>
    <nd ref="427913955"/>
    <nd ref="427913965"/>
    <nd ref="427913969"/>
    <nd ref="427913957"/>
    <nd ref="359027913"/>
    <nd ref="427913959"/>
    <nd ref="427913964"/>
    <nd ref="427913960"/>
    <nd ref="427913961"/>
    <nd ref="427913962"/>
    <nd ref="456905621"/>
    <nd ref="456905623"/>
    <nd ref="456905625"/>
    <nd ref="456905639"/>
    <nd ref="456905627"/>
    <nd ref="456905642"/>
    <nd ref="456905629"/>
    <tag k="highway" v="primary"/>
    <tag k="oneway" v="yes"/>
  </way>
  <way id="36813306" version="3" timestamp="2009-08-05T12:56:19Z" uid="4467" user="Rosscoe" changeset="2046023"/>
  <way id="36813307" version="2" timestamp="2009-08-05T12:50:23Z" uid="4467" user="Rosscoe" changeset="2045970">
    <nd ref="286621041"/>
    <nd ref="246010775"/>
    <nd ref="174761719"/>
    <nd ref="359027884"/>
    <nd ref="285922311"/>
    <nd ref="285922339"/>
    <tag k="highway" v="primary"/>
    <tag k="maxspeed" v="70"/>
    <tag k="name" v="Griffiths Road"/>
    <tag k="oneway" v="yes"/>
  </way>
  <way id="36813307" version="3" timestamp="2009-08-05T13:06:32Z" uid="4467" user="Rosscoe" changeset="2046108">
    <nd ref="286621041"/>
    <nd ref="246010775"/>
    <nd ref="174761719"/>
    <nd ref="359027884"/>
    <nd ref="285922311"/>
    <nd ref="285922339"/>
    <tag k="highway" v="primary"/>
    <tag k="maxspeed" v="70"/>
    <tag k="name" v="Griffiths Road"/>
    <tag k="oneway" v="yes"/>
    <tag k="source" v="survey"/>
    <tag k="surface" v="paved"/>
  </way>
</osm>
