<?xml version='1.0' encoding='UTF-8'?>
<osm version="0.6" generator="libosmium/2.20.0">
  <way id="37256049" version="4" timestamp="2010-04-03T16:50:49Z" uid="20587" user="balrog-kun" changeset="4312936">
    <nd ref="128597991"/>
    <nd ref="128597984"/>
    <tag k="bridge" v="yes"/>
    <tag k="highway" v="motorway"/>
    <tag k="is_in" v="Clark, ID"/>
    <tag k="layer" v="1"/>
    <tag k="name" v="Interstate Highway 15"/>
    <tag k="name_1" v="Veteran&apos;s Memorial Highway"/>
    <tag k="oneway" v="yes"/>
    <tag k="ref" v="I 15"/>
  </way>
  <way id="37256049" version="5" timestamp="2011-03-30T08:32:01Z" uid="207745" user="NE2" changeset="7713944">
    <nd ref="128597991"/>
    <nd ref="128597984"/>
    <tag k="bridge" v="yes"/>
    <tag k="highway" v="motorway"/>
    <tag k="is_in" v="Clark, ID"/>
    <tag k="layer" v="1"/>
    <tag k="name" v="Veteran&apos;s Memorial Highway"/>
    <tag k="oneway" v="yes"/>
    <tag k="ref" v="I 15"/>
  </way>
  <way id="37256049" version="6" timestamp="2011-06-27T18:40:06Z" uid="473471" user="NE3" changeset="8564771">
    <nd ref="128597991"/>
    <nd ref="128597984"/>
    <tag k="bridge" v="yes"/>
    <tag k="highway" v="motorway"/>
    <tag k="is_in" v="Clark, ID"/>
    <tag k="lanes" v="2"/>
    <tag k="layer" v="1"/>
    <tag k="name" v="Veteran&apos;s Memorial Highway"/>
    <tag k="oneway" v="yes"/>
    <tag k="ref" v="I 15"/>
  </way>
  <way id="37256049" version="7" timestamp="2011-10-16T02:40:14Z" uid="207745" user="NE2" changeset="9568862">
    <nd ref="128597991"/>
    <nd ref="128597984"/>
    <tag k="bicycle" v="yes"/>
    <tag k="bridge" v="yes"/>
    <tag k="highway" v="motorway"/>
    <tag k="is_in" v="Clark, ID"/>
    <tag k="lanes" v="2"/>
    <tag k="layer" v="1"/>
    <tag k="name" v="Veteran&apos;s Memorial Highway"/>
    <tag k="oneway" v="yes"/>
    <tag k="ref" v="I 15"/>
  </way>
  <way id="37256049" version="8" timestamp="2011-12-05T20:46:17Z" uid="207745" user="NE2" changeset="10045043">
    <nd ref="128597991"/>
    <nd ref="128597984"/>
    <tag k="bicycle" v="yes"/>
    <tag k="bridge" v="yes"/>
    <tag k="hgv" v="designated"/>
    <tag k="highway" v="motorway"/>
    <tag k="is_in" v="Clark, ID"/>
    <tag k="lanes" v="2"/>
    <tag k="layer" v="1"/>
    <tag k="name" v="Veteran&apos;s Memorial Highway"/>
    <tag k="oneway" v="yes"/>
    <tag k="ref" v="I 15"/>
  </way>
  <way id="37256051" version="4" timestamp="2010-04-03T16:50:49Z" uid="20587" user="balrog-kun" changeset="4312936">
    <nd ref="128597984"/>
    <nd ref="128597979"/>
    <nd ref="128041450"/>
    <nd ref="128597975"/>
    <nd ref="128597972"/>
    <nd ref="128597968"/>
    <nd ref="128272113"/>
    <nd ref="128597964"/>
    <nd ref="128597960"/>
    <nd ref="128597957"/>
    <nd ref="128597953"/>
    <nd ref="128597948"/>
    <nd ref="128597924"/>
    <nd ref="128597921"/>
    <nd ref="128597918"/>
    <nd ref="128597914"/>
    <nd ref="128597910"/>
    <nd ref="128597908"/>
    <nd ref="128597904"/>
    <nd ref="128597901"/>
    <nd ref="128597895"/>
    <nd ref="128597892"/>
    <nd ref="128597889"/>
    <nd ref="128597885"/>
    <nd ref="128597882"/>
    <nd ref="128597878"/>
    <nd ref="128597875"/>
    <nd ref="128597873"/>
    <nd ref="128597869"/>
    <nd ref="128597866"/>
    <nd ref="128597859"/>
    <nd ref="128597854"/>
    <nd ref="128597850"/>
    <nd ref="128597847"/>
    <nd ref="128597844"/>
    <nd ref="128597841"/>
    <nd ref="128597837"/>
    <nd ref="128597834"/>
    <nd ref="128597831"/>
    <nd ref="128597828"/>
    <nd ref="128597825"/>
    <nd ref="128597821"/>
    <nd ref="128597805"/>
    <nd ref="128597802"/>
    <nd ref="128597797"/>
    <nd ref="128597795"/>
    <nd ref="128597792"/>
    <nd ref="128597788"/>
    <nd ref="128597785"/>
    <nd ref="128597782"/>
    <nd ref="128597778"/>
    <nd ref="128597776"/>
    <nd ref="128597773"/>
    <nd ref="128597770"/>
    <nd ref="128597767"/>
    <nd ref="128597755"/>
    <nd ref="128597753"/>
    <nd ref="128211755"/>
    <nd ref="128597746"/>
    <tag k="highway" v="motorway"/>
    <tag k="is_in" v="Clark, ID"/>
    <tag k="name" v="Interstate Highway 15"/>
    <tag k="name_1" v="Veteran&apos;s Memorial Highway"/>
    <tag k="oneway" v="yes"/>
    <tag k="ref" v="I 15"/>
  </way>
  <way id="37256051" version="5" timestamp="2011-03-30T08:53:46Z" uid="207745" user="NE2" changeset="7713944">
    <nd ref="128597984"/>
    <nd ref="128597979"/>
    <nd ref="128041450"/>
    <nd ref="128597975"/>
    <nd ref="128597972"/>
    <nd ref="128597968"/>
    <nd ref="128272113"/>
    <nd ref="128597964"/>
    <nd ref="128597960"/>
    <nd ref="128597957"/>
    <nd ref="128597953"/>
    <nd ref="128597948"/>
    <nd ref="128597924"/>
    <nd ref="128597921"/>
    <nd ref="128597918"/>
    <nd ref="128597914"/>
    <nd ref="128597910"/>
    <nd ref="128597908"/>
    <nd ref="128597904"/>
    <nd ref="128597901"/>
    <nd ref="128597895"/>
    <nd ref="128597892"/>
    <nd ref="128597889"/>
    <nd ref="128597885"/>
    <nd ref="128597882"/>
    <nd ref="128597878"/>
    <nd ref="128597875"/>
    <nd ref="128597873"/>
    <nd ref="128597869"/>
    <nd ref="128597866"/>
    <nd ref="128597859"/>
    <nd ref="128597854"/>
    <nd ref="128597850"/>
    <nd ref="128597847"/>
    <nd ref="128597844"/>
    <nd ref="128597841"/>
    <nd ref="128597837"/>
    <nd ref="128597834"/>
    <nd ref="128597831"/>
    <nd ref="128597828"/>
    <nd ref="128597825"/>
    <nd ref="128597821"/>
    <nd ref="128597805"/>
    <nd ref="128597802"/>
    <nd ref="128597797"/>
    <nd ref="128597795"/>
    <nd ref="128597792"/>
    <nd ref="128597788"/>
    <nd ref="128597785"/>
    <nd ref="128597782"/>
    <nd ref="128597778"/>
    <nd ref="128597776"/>
    <nd ref="128597773"/>
    <nd ref="128597770"/>
    <nd ref="128597767"/>
    <nd ref="128597755"/>
    <nd ref="128597753"/>
    <nd ref="128211755"/>
    <nd ref="128597746"/>
    <tag k="highway" v="motorway"/>
    <tag k="is_in" v="Clark, ID"/>
    <tag k="name" v="Veteran&apos;s Memorial Highway"/>
    <tag k="oneway" v="yes"/>
    <tag k="ref" v="I 15"/>
  </way>
  <way id="37256051" version="6" timestamp="2011-06-27T18:56:07Z" uid="473471" user="NE3" changeset="8564771">
    <nd ref="128597984"/>
    <nd ref="128597979"/>
    <nd ref="128041450"/>
    <nd ref="128597975"/>
    <nd ref="128597972"/>
    <nd ref="128597968"/>
    <nd ref="128272113"/>
    <nd ref="128597964"/>
    <nd ref="128597960"/>
    <nd ref="128597957"/>
    <nd ref="128597953"/>
    <nd ref="128597948"/>
    <nd ref="128597924"/>
    <nd ref="128597921"/>
    <nd ref="128597918"/>
    <nd ref="128597914"/>
    <nd ref="128597910"/>
    <nd ref="128597908"/>
    <nd ref="128597904"/>
    <nd ref="128597901"/>
    <nd ref="128597895"/>
    <nd ref="128597892"/>
    <nd ref="128597889"/>
    <nd ref="128597885"/>
    <nd ref="128597882"/>
    <nd ref="128597878"/>
    <nd ref="128597875"/>
    <nd ref="128597873"/>
    <nd ref="128597869"/>
    <nd ref="128597866"/>
    <nd ref="128597859"/>
    <nd ref="128597854"/>
    <nd ref="128597850"/>
    <nd ref="128597847"/>
    <nd ref="128597844"/>
    <nd ref="128597841"/>
    <nd ref="128597837"/>
    <nd ref="128597834"/>
    <nd ref="128597831"/>
    <nd ref="128597828"/>
    <nd ref="128597825"/>
    <nd ref="128597821"/>
    <nd ref="128597805"/>
    <nd ref="128597802"/>
    <nd ref="128597797"/>
    <nd ref="128597795"/>
    <nd ref="128597792"/>
    <nd ref="128597788"/>
    <nd ref="128597785"/>
    <nd ref="128597782"/>
    <nd ref="128597778"/>
    <nd ref="128597776"/>
    <nd ref="128597773"/>
    <nd ref="128597770"/>
    <nd ref="128597767"/>
    <nd ref="128597755"/>
    <nd ref="128597753"/>
    <nd ref="128211755"/>
    <nd ref="128597746"/>
    <tag k="highway" v="motorway"/>
    <tag k="is_in" v="Clark, ID"/>
    <tag k="lanes" v="2"/>
    <tag k="name" v="Veteran&apos;s Memorial Highway"/>
    <tag k="oneway" v="yes"/>
    <tag k="ref" v="I 15"/>
  </way>
  <way id="37256051" version="7" timestamp="2011-10-16T02:40:19Z" uid="207745" user="NE2" changeset="9568862">
    <nd ref="128597984"/>
    <nd ref="128597979"/>
    <nd ref="128041450"/>
    <nd ref="128597975"/>
    <nd ref="128597972"/>
    <nd ref="128597968"/>
    <nd ref="128272113"/>
    <nd ref="128597964"/>
    <nd ref="128597960"/>
    <nd ref="128597957"/>
    <nd ref="128597953"/>
    <nd ref="128597948"/>
    <nd ref="128597924"/>
    <nd ref="128597921"/>
    <nd ref="128597918"/>
    <nd ref="128597914"/>
    <nd ref="128597910"/>
    <nd ref="128597908"/>
    <nd ref="128597904"/>
    <nd ref="128597901"/>
    <nd ref="128597895"/>
    <nd ref="128597892"/>
    <nd ref="128597889"/>
    <nd ref="128597885"/>
    <nd ref="128597882"/>
    <nd ref="128597878"/>
    <nd ref="128597875"/>
    <nd ref="128597873"/>
    <nd ref="128597869"/>
    <nd ref="128597866"/>
    <nd ref="128597859"/>
    <nd ref="128597854"/>
    <nd ref="128597850"/>
    <nd ref="128597847"/>
    <nd ref="128597844"/>
    <nd ref="128597841"/>
    <nd ref="128597837"/>
    <nd ref="128597834"/>
    <nd ref="128597831"/>
    <nd ref="128597828"/>
    <nd ref="128597825"/>
    <nd ref="128597821"/>
    <nd ref="128597805"/>
    <nd ref="128597802"/>
    <nd ref="128597797"/>
    <nd ref="128597795"/>
    <nd ref="128597792"/>
    <nd ref="128597788"/>
    <nd ref="128597785"/>
    <nd ref="128597782"/>
    <nd ref="128597778"/>
    <nd ref="128597776"/>
    <nd ref="128597773"/>
    <nd ref="128597770"/>
    <nd ref="128597767"/>
    <nd ref="128597755"/>
    <nd ref="128597753"/>
    <nd ref="128211755"/>
    <nd ref="128597746"/>
    <tag k="bicycle" v="yes"/>
    <tag k="highway" v="motorway"/>
    <tag k="is_in" v="Clark, ID"/>
    <tag k="lanes" v="2"/>
    <tag k="name" v="Veteran&apos;s Memorial Highway"/>
    <tag k="oneway" v="yes"/>
    <tag k="ref" v="I 15"/>
  </way>
  <way id="37256051" version="8" timestamp="2011-12-05T20:46:31Z" uid="207745" user="NE2" changeset="10045043">
    <nd ref="128597984"/>
    <nd ref="128597979"/>
    <nd ref="128041450"/>
    <nd ref="128597975"/>
    <nd ref="128597972"/>
    <nd ref="128597968"/>
    <nd ref="128272113"/>
    <nd ref="128597964"/>
    <nd ref="128597960"/>
    <nd ref="128597957"/>
    <nd ref="128597953"/>
    <nd ref="128597948"/>
    <nd ref="128597924"/>
    <nd ref="128597921"/>
    <nd ref="128597918"/>
    <nd ref="128597914"/>
    <nd ref="128597910"/>
    <nd ref="128597908"/>
    <nd ref="128597904"/>
    <nd ref="128597901"/>
    <nd ref="128597895"/>
    <nd ref="128597892"/>
    <nd ref="128597889"/>
    <nd ref="128597885"/>
    <nd ref="128597882"/>
    <nd ref="128597878"/>
    <nd ref="128597875"/>
    <nd ref="128597873"/>
    <nd ref="128597869"/>
    <nd ref="128597866"/>
    <nd ref="128597859"/>
    <nd ref="128597854"/>
    <nd ref="128597850"/>
    <nd ref="128597847"/>
    <nd ref="128597844"/>
    <nd ref="128597841"/>
    <nd ref="128597837"/>
    <nd ref="128597834"/>
    <nd ref="128597831"/>
    <nd ref="128597828"/>
    <nd ref="128597825"/>
    <nd ref="128597821"/>
    <nd ref="128597805"/>
    <nd ref="128597802"/>
    <nd ref="128597797"/>
    <nd ref="128597795"/>
    <nd ref="128597792"/>
    <nd ref="128597788"/>
    <nd ref="128597785"/>
    <nd ref="128597782"/>
    <nd ref="128597778"/>
    <nd ref="128597776"/>
    <nd ref="128597773"/>
    <nd ref="128597770"/>
    <nd ref="128597767"/>
    <nd ref="128597755"/>
    <nd ref="128597753"/>
    <nd ref="128211755"/>
    <nd ref="128597746"/>
    <tag k="bicycle" v="yes"/>
    <tag k="hgv" v="designated"/>
    <tag k="highway" v="motorway"/>
    <tag k="is_in" v="Clark, ID"/>
    <tag k="lanes" v="2"/>
    <tag k="name" v="Veteran&apos;s Memorial Highway"/>
    <tag k="oneway" v="yes"/>
    <tag k="ref" v="I 15"/>
  </way>
  <way id="37256056" version="4" timestamp="2010-04-03T16:50:50Z" uid="20587" user="balrog-kun" changeset="4312936">
    <nd ref="128599374"/>
    <nd ref="128038369"/>
    <tag k="bridge" v="yes"/>
    <tag k="highway" v="motorway"/>
    <tag k="is_in" v="Clark, ID"/>
    <tag k="layer" v="1"/>
    <tag k="name" v="Interstate Highway 15"/>
    <tag k="name_1" v="Veteran&apos;s Memorial Highway"/>
    <tag k="oneway" v="yes"/>
    <tag k="ref" v="I 15"/>
  </way>
  <way id="37256056" version="5" timestamp="2011-03-30T08:47:07Z" uid="207745" user="NE2" changeset="7713944">
    <nd ref="128599374"/>
    <nd ref="128038369"/>
    <tag k="bridge" v="yes"/>
    <tag k="highway" v="motorway"/>
    <tag k="is_in" v="Clark, ID"/>
    <tag k="layer" v="1"/>
    <tag k="name" v="Veteran&apos;s Memorial Highway"/>
    <tag k="oneway" v="yes"/>
    <tag k="ref" v="I 15"/>
  </way>
  <way id="37256056" version="6" timestamp="2011-06-27T18:39:31Z" uid="473471" user="NE3" changeset="8564771">
    <nd ref="128599374"/>
    <nd ref="128038369"/>
    <tag k="bridge" v="yes"/>
    <tag k="highway" v="motorway"/>
    <tag k="is_in" v="Clark, ID"/>
    <tag k="lanes" v="2"/>
    <tag k="layer" v="1"/>
    <tag k="name" v="Veteran&apos;s Memorial Highway"/>
    <tag k="oneway" v="yes"/>
    <tag k="ref" v="I 15"/>
  </way>
  <way id="37256056" version="7" timestamp="2011-10-16T02:40:14Z" uid="207745" user="NE2" changeset="9568862">
    <nd ref="128599374"/>
    <nd ref="128038369"/>
    <tag k="bicycle" v="yes"/>
    <tag k="bridge" v="yes"/>
    <tag k="highway" v="motorway"/>
    <tag k="is_in" v="Clark, ID"/>
    <tag k="lanes" v="2"/>
    <tag k="layer" v="1"/>
    <tag k="name" v="Veteran&apos;s Memorial Highway"/>
    <tag k="oneway" v="yes"/>
    <tag k="ref" v="I 15"/>
  </way>
  <way id="37256056" version="8" timestamp="2011-12-05T20:46:24Z" uid="207745" user="NE2" changeset="10045043">
    <nd ref="128599374"/>
    <nd ref="128038369"/>
    <tag k="bicycle" v="yes"/>
    <tag k="bridge" v="yes"/>
    <tag k="hgv" v="designated"/>
    <tag k="highway" v="motorway"/>
    <tag k="is_in" v="Clark, ID"/>
    <tag k="lanes" v="2"/>
    <tag k="layer" v="1"/>
    <tag k="name" v="Veteran&apos;s Memorial Highway"/>
    <tag k="oneway" v="yes"/>
    <tag k="ref" v="I 15"/>
  </way>
  <way id="37256057" version="6" timestamp="2010-04-03T16:50:50Z" uid="20587" user="balrog-kun" changeset="4312936">
    <nd ref="128038369"/>
    <nd ref="128599384"/>
    <nd ref="128599388"/>
    <nd ref="128272473"/>
    <nd ref="128599397"/>
    <nd ref="128599400"/>
    <nd ref="128599404"/>
    <nd ref="128599407"/>
    <nd ref="128599410"/>
    <nd ref="128599413"/>
    <nd ref="128599416"/>
    <nd ref="128599420"/>
    <nd ref="128599424"/>
    <nd ref="128599442"/>
    <nd ref="128599446"/>
    <nd ref="128599448"/>
    <nd ref="128599452"/>
    <nd ref="128599455"/>
    <nd ref="128599460"/>
    <nd ref="128599462"/>
    <nd ref="128599465"/>
    <nd ref="128599504"/>
    <nd ref="128599507"/>
    <nd ref="128599513"/>
    <nd ref="128599521"/>
    <nd ref="128599528"/>
    <nd ref="128599533"/>
    <nd ref="128599538"/>
    <nd ref="128599554"/>
    <nd ref="128599562"/>
    <nd ref="128599567"/>
    <nd ref="128599570"/>
    <nd ref="128599573"/>
    <nd ref="128599578"/>
    <nd ref="128599581"/>
    <nd ref="128141083"/>
    <nd ref="128599585"/>
    <nd ref="128599589"/>
    <nd ref="128233908"/>
    <nd ref="128599754"/>
    <tag k="highway" v="motorway"/>
    <tag k="is_in" v="Clark, ID"/>
    <tag k="name" v="Interstate 15"/>
    <tag k="name_1" v="Veteran&apos;s Memorial Highway"/>
    <tag k="oneway" v="yes"/>
    <tag k="ref" v="I 15"/>
    <tag k="source" v="Yahoo,TIGER"/>
  </way>
  <way id="37256057" version="7" timestamp="2011-03-30T08:35:41Z" uid="207745" user="NE2" changeset="7713944">
    <nd ref="128038369"/>
    <nd ref="128599384"/>
    <nd ref="128599388"/>
    <nd ref="128272473"/>
    <nd ref="128599397"/>
    <nd ref="128599400"/>
    <nd ref="128599404"/>
    <nd ref="128599407"/>
    <nd ref="128599410"/>
    <nd ref="128599413"/>
    <nd ref="128599416"/>
    <nd ref="128599420"/>
    <nd ref="128599424"/>
    <nd ref="128599442"/>
    <nd ref="128599446"/>
    <nd ref="128599448"/>
    <nd ref="128599452"/>
    <nd ref="128599455"/>
    <nd ref="128599460"/>
    <nd ref="128599462"/>
    <nd ref="128599465"/>
    <nd ref="128599504"/>
    <nd ref="128599507"/>
    <nd ref="128599513"/>
    <nd ref="128599521"/>
    <nd ref="128599528"/>
    <nd ref="128599533"/>
    <nd ref="128599538"/>
    <nd ref="128599554"/>
    <nd ref="128599562"/>
    <nd ref="128599567"/>
    <nd ref="128599570"/>
    <nd ref="128599573"/>
    <nd ref="128599578"/>
    <nd ref="128599581"/>
    <nd ref="128141083"/>
    <nd ref="128599585"/>
    <nd ref="128599589"/>
    <nd ref="128233908"/>
    <nd ref="128599754"/>
    <tag k="highway" v="motorway"/>
    <tag k="is_in" v="Clark, ID"/>
    <tag k="name" v="Veteran&apos;s Memorial Highway"/>
    <tag k="oneway" v="yes"/>
    <tag k="ref" v="I 15"/>
    <tag k="source" v="Yahoo,TIGER"/>
  </way>
  <way id="37256057" version="8" timestamp="2011-06-27T18:47:43Z" uid="473471" user="NE3" changeset="8564771">
    <nd ref="128038369"/>
    <nd ref="128599384"/>
    <nd ref="128599388"/>
    <nd ref="128272473"/>
    <nd ref="128599397"/>
    <nd ref="128599400"/>
    <nd ref="128599404"/>
    <nd ref="128599407"/>
    <nd ref="128599410"/>
    <nd ref="128599413"/>
    <nd ref="128599416"/>
    <nd ref="128599420"/>
    <nd ref="128599424"/>
    <nd ref="128599442"/>
    <nd ref="128599446"/>
    <nd ref="128599448"/>
    <nd ref="128599452"/>
    <nd ref="128599455"/>
    <nd ref="128599460"/>
    <nd ref="128599462"/>
    <nd ref="128599465"/>
    <nd ref="128599504"/>
    <nd ref="128599507"/>
    <nd ref="128599513"/>
    <nd ref="128599521"/>
    <nd ref="128599528"/>
    <nd ref="128599533"/>
    <nd ref="128599538"/>
    <nd ref="128599554"/>
    <nd ref="128599562"/>
    <nd ref="128599567"/>
    <nd ref="128599570"/>
    <nd ref="128599573"/>
    <nd ref="128599578"/>
    <nd ref="128599581"/>
    <nd ref="128141083"/>
    <nd ref="128599585"/>
    <nd ref="128599589"/>
    <nd ref="128233908"/>
    <nd ref="128599754"/>
    <tag k="highway" v="motorway"/>
    <tag k="is_in" v="Clark, ID"/>
    <tag k="lanes" v="2"/>
    <tag k="name" v="Veteran&apos;s Memorial Highway"/>
    <tag k="oneway" v="yes"/>
    <tag k="ref" v="I 15"/>
    <tag k="source" v="Yahoo,TIGER"/>
  </way>
  <way id="37256057" version="9" timestamp="2011-10-16T02:40:18Z" uid="207745" user="NE2" changeset="9568862">
    <nd ref="128038369"/>
    <nd ref="128599384"/>
    <nd ref="128599388"/>
    <nd ref="128272473"/>
    <nd ref="128599397"/>
    <nd ref="128599400"/>
    <nd ref="128599404"/>
    <nd ref="128599407"/>
    <nd ref="128599410"/>
    <nd ref="128599413"/>
    <nd ref="128599416"/>
    <nd ref="128599420"/>
    <nd ref="128599424"/>
    <nd ref="128599442"/>
    <nd ref="128599446"/>
    <nd ref="128599448"/>
    <nd ref="128599452"/>
    <nd ref="128599455"/>
    <nd ref="128599460"/>
    <nd ref="128599462"/>
    <nd ref="128599465"/>
    <nd ref="128599504"/>
    <nd ref="128599507"/>
    <nd ref="128599513"/>
    <nd ref="128599521"/>
    <nd ref="128599528"/>
    <nd ref="128599533"/>
    <nd ref="128599538"/>
    <nd ref="128599554"/>
    <nd ref="128599562"/>
    <nd ref="128599567"/>
    <nd ref="128599570"/>
    <nd ref="128599573"/>
    <nd ref="128599578"/>
    <nd ref="128599581"/>
    <nd ref="128141083"/>
    <nd ref="128599585"/>
    <nd ref="128599589"/>
    <nd ref="128233908"/>
    <nd ref="128599754"/>
    <tag k="bicycle" v="yes"/>
    <tag k="highway" v="motorway"/>
    <tag k="is_in" v="Clark, ID"/>
    <tag k="lanes" v="2"/>
    <tag k="name" v="Veteran&apos;s Memorial Highway"/>
    <tag k="oneway" v="yes"/>
    <tag k="ref" v="I 15"/>
    <tag k="source" v="Yahoo,TIGER"/>
  </way>
  <way id="37256057" version="10" timestamp="2011-12-05T20:46:29Z" uid="207745" user="NE2" changeset="10045043">
    <nd ref="128038369"/>
    <nd ref="128599384"/>
    <nd ref="128599388"/>
    <nd ref="128272473"/>
    <nd ref="128599397"/>
    <nd ref="128599400"/>
    <nd ref="128599404"/>
    <nd ref="128599407"/>
    <nd ref="128599410"/>
    <nd ref="128599413"/>
    <nd ref="128599416"/>
    <nd ref="128599420"/>
    <nd ref="128599424"/>
    <nd ref="128599442"/>
    <nd ref="128599446"/>
    <nd ref="128599448"/>
    <nd ref="128599452"/>
    <nd ref="128599455"/>
    <nd ref="128599460"/>
    <nd ref="128599462"/>
    <nd ref="128599465"/>
    <nd ref="128599504"/>
    <nd ref="128599507"/>
    <nd ref="128599513"/>
    <nd ref="128599521"/>
    <nd ref="128599528"/>
    <nd ref="128599533"/>
    <nd ref="128599538"/>
    <nd ref="128599554"/>
    <nd ref="128599562"/>
    <nd ref="128599567"/>
    <nd ref="128599570"/>
    <nd ref="128599573"/>
    <nd ref="128599578"/>
    <nd ref="128599581"/>
    <nd ref="128141083"/>
    <nd ref="128599585"/>
    <nd ref="128599589"/>
    <nd ref="128233908"/>
    <nd ref="128599754"/>
    <tag k="bicycle" v="yes"/>
    <tag k="hgv" v="designated"/>
    <tag k="highway" v="motorway"/>
    <tag k="is_in" v="Clark, ID"/>
    <tag k="lanes" v="2"/>
    <tag k="name" v="Veteran&apos;s Memorial Highway"/>
    <tag k="oneway" v="yes"/>
    <tag k="ref" v="I 15"/>
    <tag k="source" v="Yahoo,TIGER"/>
  </way>
  <way id="37256061" version="2" timestamp="2010-04-03T16:50:50Z" uid="20587" user="balrog-kun" changeset="4312936">
    <nd ref="128598118"/>
    <nd ref="128630903"/>
    <nd ref="128630909"/>
    <nd ref="128630912"/>
    <nd ref="128630916"/>
    <nd ref="128141127"/>
    <nd ref="128630919"/>
    <nd ref="128630922"/>
    <nd ref="128630926"/>
    <nd ref="128630931"/>
    <nd ref="128630935"/>
    <nd ref="128630938"/>
    <nd ref="128630941"/>
    <nd ref="128141076"/>
    <nd ref="128630945"/>
    <nd ref="128630948"/>
    <nd ref="128630951"/>
    <nd ref="128630955"/>
    <nd ref="128630958"/>
    <nd ref="128630961"/>
    <nd ref="128630965"/>
    <nd ref="128630968"/>
    <nd ref="128630971"/>
    <nd ref="128630974"/>
    <nd ref="128630977"/>
    <nd ref="128630980"/>
    <nd ref="128630983"/>
    <nd ref="128630990"/>
    <nd ref="128630993"/>
    <nd ref="128630996"/>
    <nd ref="128631000"/>
    <nd ref="128631003"/>
    <nd ref="128631007"/>
    <nd ref="128631010"/>
    <nd ref="128631013"/>
    <nd ref="128631017"/>
    <nd ref="128631021"/>
    <nd ref="128631024"/>
    <nd ref="128631027"/>
    <nd ref="128631031"/>
    <nd ref="128631034"/>
    <nd ref="128631037"/>
    <nd ref="128631041"/>
    <nd ref="128631045"/>
    <nd ref="128631048"/>
    <nd ref="128631052"/>
    <nd ref="128631056"/>
    <nd ref="128631059"/>
    <nd ref="128631062"/>
    <nd ref="128631065"/>
    <nd ref="128631069"/>
    <nd ref="128631072"/>
    <nd ref="128631075"/>
    <nd ref="128631078"/>
    <nd ref="128631081"/>
    <nd ref="128631084"/>
    <nd ref="128631087"/>
    <nd ref="128631091"/>
    <nd ref="128631094"/>
    <nd ref="128631097"/>
    <nd ref="128631101"/>
    <nd ref="128631104"/>
    <nd ref="128631106"/>
    <nd ref="128631111"/>
    <nd ref="128631115"/>
    <nd ref="128631118"/>
    <nd ref="128631121"/>
    <nd ref="128631125"/>
    <nd ref="128559166"/>
    <nd ref="128631128"/>
    <nd ref="128631131"/>
    <nd ref="128140684"/>
    <nd ref="128631135"/>
    <nd ref="128631139"/>
    <nd ref="128631143"/>
    <nd ref="128631147"/>
    <nd ref="128631150"/>
    <nd ref="128631153"/>
    <nd ref="128631157"/>
    <nd ref="128631159"/>
    <nd ref="128631161"/>
    <nd ref="128631164"/>
    <nd ref="128631165"/>
    <nd ref="128329277"/>
    <nd ref="128631167"/>
    <nd ref="128631170"/>
    <nd ref="128631172"/>
    <nd ref="128631176"/>
    <nd ref="128631178"/>
    <nd ref="128631181"/>
    <nd ref="128631183"/>
    <nd ref="128631186"/>
    <nd ref="128631188"/>
    <nd ref="128631190"/>
    <nd ref="128631193"/>
    <nd ref="128631195"/>
    <nd ref="128631198"/>
    <nd ref="128631200"/>
    <nd ref="128141089"/>
    <nd ref="128631204"/>
    <nd ref="128631206"/>
    <nd ref="128631209"/>
    <nd ref="128631212"/>
    <nd ref="128631218"/>
    <nd ref="128631224"/>
    <nd ref="128631227"/>
    <nd ref="128631229"/>
    <nd ref="128631232"/>
    <nd ref="128631234"/>
    <nd ref="128631236"/>
    <nd ref="128631240"/>
    <nd ref="128631243"/>
    <nd ref="128631247"/>
    <nd ref="128631250"/>
    <nd ref="128631255"/>
    <nd ref="128631259"/>
    <nd ref="128631262"/>
    <nd ref="128631266"/>
    <nd ref="128631269"/>
    <nd ref="128631271"/>
    <nd ref="128631274"/>
    <nd ref="128631276"/>
    <nd ref="128631279"/>
    <nd ref="128235023"/>
    <nd ref="128631281"/>
    <nd ref="128631284"/>
    <nd ref="128631287"/>
    <nd ref="128631291"/>
    <nd ref="128631294"/>
    <nd ref="128631297"/>
    <nd ref="128631301"/>
    <nd ref="128631304"/>
    <nd ref="128631307"/>
    <nd ref="128631309"/>
    <nd ref="128631310"/>
    <nd ref="128631314"/>
    <nd ref="128631317"/>
    <nd ref="128631320"/>
    <nd ref="128631325"/>
    <nd ref="128631330"/>
    <nd ref="128631333"/>
    <nd ref="128631338"/>
    <nd ref="128631346"/>
    <nd ref="128631355"/>
    <nd ref="128631360"/>
    <nd ref="128631364"/>
    <nd ref="128631367"/>
    <nd ref="128631371"/>
    <nd ref="128631374"/>
    <nd ref="128235328"/>
    <nd ref="128631378"/>
    <nd ref="128631381"/>
    <nd ref="128631384"/>
    <nd ref="128631390"/>
    <nd ref="128631397"/>
    <nd ref="128631401"/>
    <nd ref="128631404"/>
    <nd ref="128631407"/>
    <nd ref="128631411"/>
    <nd ref="128631415"/>
    <nd ref="128631418"/>
    <nd ref="128631420"/>
    <nd ref="128631424"/>
    <nd ref="128631428"/>
    <nd ref="128631431"/>
    <nd ref="128631434"/>
    <nd ref="128631440"/>
    <nd ref="128631444"/>
    <nd ref="128631447"/>
    <nd ref="128631451"/>
    <nd ref="128631454"/>
    <nd ref="128631457"/>
    <nd ref="128631461"/>
    <nd ref="128550983"/>
    <nd ref="128631465"/>
    <nd ref="128551021"/>
    <nd ref="128631469"/>
    <nd ref="128631473"/>
    <nd ref="128631477"/>
    <nd ref="128631480"/>
    <nd ref="128631484"/>
    <nd ref="128631487"/>
    <nd ref="128631491"/>
    <nd ref="128631494"/>
    <nd ref="128631496"/>
    <nd ref="128631500"/>
    <nd ref="128631503"/>
    <nd ref="128631506"/>
    <nd ref="128631510"/>
    <nd ref="128631514"/>
    <nd ref="128631517"/>
    <nd ref="128622251"/>
    <tag k="highway" v="residential"/>
    <tag k="name" v="Modoc Road"/>
    <tag k="tiger:cfcc" v="A41"/>
    <tag k="tiger:county" v="Clark, ID"/>
    <tag k="tiger:name_base" v="Modoc"/>
    <tag k="tiger:name_type" v="Rd"/>
    <tag k="tiger:reviewed" v="no"/>
    <tag k="tiger:separated" v="no"/>
    <tag k="tiger:source" v="tiger_import_dch_v0.6_20070809"/>
    <tag k="tiger:tlid" v="135437056:135437058:135437059:135420546:135437122:135437124:135437126:135437128:135437129:135437200:135437201:135437198:135420508:135435411:135437080:135437082:135437083:135420516"/>
  </way>
  <way id="37256311" version="2" timestamp="2010-04-04T01:13:40Z" uid="20587" user="balrog-kun" changeset="4318136">
    <nd ref="434069689"/>
    <nd ref="434069696"/>
    <nd ref="434069700"/>
    <nd ref="434069703"/>
    <nd ref="434069705"/>
    <nd ref="434069707"/>
    <nd ref="434069710"/>
    <nd ref="434069712"/>
    <nd ref="434069714"/>
    <nd ref="434069718"/>
    <nd ref="434069722"/>
    <nd ref="434069726"/>
    <nd ref="434069732"/>
    <nd ref="434069735"/>
    <nd ref="434069737"/>
    <nd ref="434069739"/>
    <nd ref="434069741"/>
    <nd ref="434069744"/>
    <nd ref="434069746"/>
    <nd ref="434069748"/>
    <nd ref="434069750"/>
    <nd ref="434069752"/>
    <nd ref="434069756"/>
    <nd ref="434069758"/>
    <nd ref="434069760"/>
    <nd ref="434069762"/>
    <nd ref="434069764"/>
    <nd ref="434069766"/>
    <nd ref="434069767"/>
    <nd ref="434069769"/>
    <nd ref="434069771"/>
    <nd ref="434069774"/>
    <nd ref="434069775"/>
    <nd ref="434069781"/>
    <nd ref="434069784"/>
    <nd ref="434069786"/>
    <nd ref="434069789"/>
    <nd ref="434069791"/>
    <nd ref="434069794"/>
    <nd ref="434069797"/>
    <nd ref="434069799"/>
    <nd ref="434069801"/>
    <nd ref="434069802"/>
    <nd ref="434069804"/>
    <nd ref="434069808"/>
    <nd ref="434069810"/>
    <nd ref="434069812"/>
    <nd ref="434069814"/>
    <nd ref="434069815"/>
    <nd ref="434069817"/>
    <nd ref="434069819"/>
    <nd ref="434069821"/>
    <nd ref="434069823"/>
    <nd ref="434069825"/>
    <nd ref="434069828"/>
    <nd ref="434069830"/>
    <nd ref="434069832"/>
    <nd ref="434069835"/>
    <nd ref="434069837"/>
    <nd ref="434069838"/>
    <nd ref="434069840"/>
    <nd ref="434069842"/>
    <nd ref="434069844"/>
    <nd ref="434069846"/>
    <nd ref="434069848"/>
    <nd ref="434069853"/>
    <nd ref="434069855"/>
    <nd ref="434069856"/>
    <nd ref="434069859"/>
    <nd ref="434069861"/>
    <nd ref="434069864"/>
    <nd ref="434069865"/>
    <nd ref="434069866"/>
    <nd ref="434069867"/>
    <nd ref="434069868"/>
    <nd ref="434069872"/>
    <nd ref="434069874"/>
    <nd ref="434069876"/>
    <nd ref="434069878"/>
    <nd ref="434069880"/>
    <nd ref="434069882"/>
    <nd ref="434069883"/>
    <nd ref="434069886"/>
    <nd ref="434069887"/>
    <nd ref="434069889"/>
    <nd ref="434069891"/>
    <nd ref="434069895"/>
    <nd ref="434069897"/>
    <nd ref="434069899"/>
    <nd ref="434069902"/>
    <nd ref="434069904"/>
    <nd ref="434069906"/>
    <nd ref="434069908"/>
    <tag k="highway" v="residential"/>
    <tag k="name" v="Overlook Drive"/>
  </way>
  <way id="37256317" version="2" timestamp="2010-04-04T01:13:41Z" uid="20587" user="balrog-kun" changeset="4318136">
    <nd ref="434069932"/>
    <nd ref="434069934"/>
    <nd ref="434069936"/>
    <nd ref="434069939"/>
    <nd ref="434069943"/>
    <nd ref="434069946"/>
    <nd ref="434069948"/>
    <nd ref="434069952"/>
    <nd ref="434069960"/>
    <nd ref="434069962"/>
    <nd ref="434069965"/>
    <nd ref="434069968"/>
    <nd ref="434069972"/>
    <nd ref="434069975"/>
    <nd ref="434069977"/>
    <nd ref="434069979"/>
    <nd ref="434069981"/>
    <nd ref="434069983"/>
    <nd ref="434069985"/>
    <nd ref="434069989"/>
    <nd ref="434069991"/>
    <nd ref="434069993"/>
    <nd ref="434069995"/>
    <nd ref="434069746"/>
    <nd ref="434069997"/>
    <nd ref="434069999"/>
    <nd ref="434070001"/>
    <nd ref="434070003"/>
    <nd ref="434070006"/>
    <nd ref="434070008"/>
    <nd ref="434070015"/>
    <nd ref="434070017"/>
    <nd ref="434070018"/>
    <nd ref="434070020"/>
    <nd ref="434070022"/>
    <nd ref="434070025"/>
    <nd ref="434070027"/>
    <nd ref="434070029"/>
    <nd ref="434070031"/>
    <nd ref="434070033"/>
    <nd ref="434070037"/>
    <nd ref="434070045"/>
    <nd ref="434070048"/>
    <nd ref="434070050"/>
    <nd ref="434070052"/>
    <nd ref="434070053"/>
    <nd ref="434070055"/>
    <nd ref="434070057"/>
    <nd ref="434070059"/>
    <nd ref="434070061"/>
    <nd ref="434070063"/>
    <nd ref="434070067"/>
    <nd ref="434070069"/>
    <nd ref="434070071"/>
    <nd ref="434070073"/>
    <nd ref="434070075"/>
    <nd ref="434070077"/>
    <nd ref="434070078"/>
    <nd ref="434070080"/>
    <nd ref="434070082"/>
    <nd ref="434070084"/>
    <nd ref="434070086"/>
    <nd ref="434070091"/>
    <nd ref="434070093"/>
    <nd ref="434070095"/>
    <nd ref="434070096"/>
    <nd ref="434070098"/>
    <nd ref="434070100"/>
    <nd ref="434070102"/>
    <nd ref="434070104"/>
    <nd ref="434069665"/>
    <tag k="highway" v="residential"/>
    <tag k="name" v="River Pines Road"/>
  </way>
  <way id="37256320" version="2" timestamp="2010-04-04T01:13:41Z" uid="20587" user="balrog-kun" changeset="4318136">
    <nd ref="434070129"/>
    <nd ref="434070132"/>
    <nd ref="434070134"/>
    <nd ref="434070136"/>
    <nd ref="434070138"/>
    <nd ref="434070139"/>
    <nd ref="434070140"/>
    <nd ref="434070141"/>
    <nd ref="434070142"/>
    <nd ref="434070143"/>
    <nd ref="434070144"/>
    <nd ref="434070150"/>
    <nd ref="434070153"/>
    <nd ref="434070156"/>
    <nd ref="434070159"/>
    <nd ref="434070161"/>
    <nd ref="434070163"/>
    <nd ref="434070165"/>
    <nd ref="434070167"/>
    <nd ref="434070168"/>
    <nd ref="434070170"/>
    <nd ref="434070172"/>
    <nd ref="434070181"/>
    <nd ref="434070186"/>
    <nd ref="434070189"/>
    <nd ref="434070191"/>
    <nd ref="434070194"/>
    <nd ref="434070197"/>
    <nd ref="434069848"/>
    <tag k="highway" v="residential"/>
    <tag k="name" v="Parsil Canyon Trail"/>
  </way>
  <way id="37256408" version="4" timestamp="2010-04-03T16:50:52Z" uid="20587" user="balrog-kun" changeset="4312936">
    <nd ref="434073922"/>
    <nd ref="38917319"/>
    <tag k="bridge" v="yes"/>
    <tag k="highway" v="motorway"/>
    <tag k="is_in" v="Beaverhead, MT"/>
    <tag k="layer" v="1"/>
    <tag k="name" v="Interstate 15"/>
    <tag k="name_1" v="Veteran&apos;s Memorial Highway"/>
    <tag k="oneway" v="yes"/>
    <tag k="ref" v="I 15"/>
    <tag k="source" v="Yahoo,TIGER"/>
  </way>
  <way id="37256408" version="5" timestamp="2011-03-30T08:51:47Z" uid="207745" user="NE2" changeset="7713944">
    <nd ref="434073922"/>
    <nd ref="38917319"/>
    <tag k="bridge" v="yes"/>
    <tag k="highway" v="motorway"/>
    <tag k="is_in" v="Beaverhead, MT"/>
    <tag k="layer" v="1"/>
    <tag k="name" v="Veteran&apos;s Memorial Highway"/>
    <tag k="oneway" v="yes"/>
    <tag k="ref" v="I 15"/>
    <tag k="source" v="Yahoo,TIGER"/>
  </way>
  <way id="37256408" version="6" timestamp="2011-06-27T18:44:04Z" uid="473471" user="NE3" changeset="8564771">
    <nd ref="434073922"/>
    <nd ref="38917319"/>
    <tag k="bridge" v="yes"/>
    <tag k="highway" v="motorway"/>
    <tag k="is_in" v="Beaverhead, MT"/>
    <tag k="lanes" v="2"/>
    <tag k="layer" v="1"/>
    <tag k="name" v="Veteran&apos;s Memorial Highway"/>
    <tag k="oneway" v="yes"/>
    <tag k="ref" v="I 15"/>
    <tag k="source" v="Yahoo,TIGER"/>
  </way>
  <way id="37256409" version="6" timestamp="2010-04-03T16:50:52Z" uid="20587" user="balrog-kun" changeset="4312936">
    <nd ref="38917319"/>
    <nd ref="434073851"/>
    <nd ref="40552476"/>
    <nd ref="40552484"/>
    <tag k="highway" v="motorway"/>
    <tag k="is_in" v="Beaverhead, MT"/>
    <tag k="name" v="Interstate 15"/>
    <tag k="name_1" v="Veteran&apos;s Memorial Highway"/>
    <tag k="oneway" v="yes"/>
    <tag k="ref" v="I 15"/>
    <tag k="source" v="Yahoo,TIGER"/>
  </way>
  <way id="37256409" version="7" timestamp="2011-03-30T08:38:54Z" uid="207745" user="NE2" changeset="7713944">
    <nd ref="38917319"/>
    <nd ref="434073851"/>
    <nd ref="40552476"/>
    <nd ref="40552484"/>
    <tag k="highway" v="motorway"/>
    <tag k="is_in" v="Beaverhead, MT"/>
    <tag k="name" v="Veteran&apos;s Memorial Highway"/>
    <tag k="oneway" v="yes"/>
    <tag k="ref" v="I 15"/>
    <tag k="source" v="Yahoo,TIGER"/>
  </way>
  <way id="37256409" version="8" timestamp="2011-06-27T18:51:31Z" uid="473471" user="NE3" changeset="8564771">
    <nd ref="38917319"/>
    <nd ref="434073851"/>
    <nd ref="40552476"/>
    <nd ref="40552484"/>
    <tag k="highway" v="motorway"/>
    <tag k="is_in" v="Beaverhead, MT"/>
    <tag k="lanes" v="2"/>
    <tag k="name" v="Veteran&apos;s Memorial Highway"/>
    <tag k="oneway" v="yes"/>
    <tag k="ref" v="I 15"/>
    <tag k="source" v="Yahoo,TIGER"/>
  </way>
  <way id="37256497" version="2" timestamp="2010-04-07T13:40:00Z" uid="20587" user="balrog-kun" changeset="4353646">
    <nd ref="229019433"/>
    <nd ref="229019444"/>
    <nd ref="229019453"/>
    <nd ref="229009617"/>
    <nd ref="229019459"/>
    <nd ref="434076841"/>
    <nd ref="434076839"/>
    <nd ref="229019487"/>
    <nd ref="229019491"/>
    <nd ref="434076837"/>
    <nd ref="229019502"/>
    <tag k="highway" v="residential"/>
    <tag k="name" v="Southland Boulevard"/>
    <tag k="tiger:cfcc" v="A41"/>
    <tag k="tiger:county" v="Tom Green, TX"/>
    <tag k="tiger:name_base" v="Southland"/>
    <tag k="tiger:name_type" v="Blvd"/>
    <tag k="tiger:separated" v="no"/>
    <tag k="tiger:source" v="tiger_import_dch_v0.6_20070830"/>
    <tag k="tiger:tlid" v="190696430:190696431:190695873:190680086:190680087:190696043:190680301:190680302:190680309:190680516:190680539:190680332:190680579:190680865:190680606:190680596:190680874:190680543:190680329:190680234:190680236:190690278:190680245:190680239:190680252:19069"/>
    <tag k="tiger:zip_left" v="76904"/>
    <tag k="tiger:zip_right" v="76904"/>
  </way>
  <way id="37256497" version="3" timestamp="2011-09-08T10:30:43Z" uid="37392" user="25or6to4" changeset="9243471">
    <nd ref="229019433"/>
    <nd ref="229019444"/>
    <nd ref="229019453"/>
    <nd ref="1426865439"/>
    <nd ref="229009617"/>
    <nd ref="229019459"/>
    <nd ref="1426865447"/>
    <nd ref="434076841"/>
    <nd ref="434076839"/>
    <nd ref="229019487"/>
    <nd ref="229019491"/>
    <nd ref="434076837"/>
    <nd ref="229019502"/>
    <tag k="highway" v="residential"/>
    <tag k="name" v="Southland Boulevard"/>
    <tag k="tiger:cfcc" v="A41"/>
    <tag k="tiger:county" v="Tom Green, TX"/>
    <tag k="tiger:name_base" v="Southland"/>
    <tag k="tiger:name_type" v="Blvd"/>
    <tag k="tiger:separated" v="no"/>
    <tag k="tiger:source" v="tiger_import_dch_v0.6_20070830"/>
    <tag k="tiger:tlid" v="190696430:190696431:190695873:190680086:190680087:190696043:190680301:190680302:190680309:190680516:190680539:190680332:190680579:190680865:190680606:190680596:190680874:190680543:190680329:190680234:190680236:190690278:190680245:190680239:190680252:19069"/>
    <tag k="tiger:zip_left" v="76904"/>
    <tag k="tiger:zip_right" v="76904"/>
  </way>
  <way id="37256545" version="4" timestamp="2010-04-03T16:50:53Z" uid="20587" user="balrog-kun" changeset="4312936">
    <nd ref="434079130"/>
    <nd ref="40552487"/>
    <nd ref="40552489"/>
    <nd ref="434079133"/>
    <nd ref="40552491"/>
    <nd ref="40552494"/>
    <tag k="highway" v="motorway"/>
    <tag k="is_in" v="Beaverhead, MT"/>
    <tag k="name" v="Interstate 15"/>
    <tag k="name_1" v="Veteran&apos;s Memorial Highway"/>
    <tag k="oneway" v="yes"/>
    <tag k="ref" v="I 15"/>
    <tag k="source" v="Yahoo,TIGER"/>
  </way>
  <way id="37256545" version="5" timestamp="2011-03-30T08:34:49Z" uid="207745" user="NE2" changeset="7713944">
    <nd ref="434079130"/>
    <nd ref="40552487"/>
    <nd ref="40552489"/>
    <nd ref="434079133"/>
    <nd ref="40552491"/>
    <nd ref="40552494"/>
    <tag k="highway" v="motorway"/>
    <tag k="is_in" v="Beaverhead, MT"/>
    <tag k="name" v="Veteran&apos;s Memorial Highway"/>
    <tag k="oneway" v="yes"/>
    <tag k="ref" v="I 15"/>
    <tag k="source" v="Yahoo,TIGER"/>
  </way>
  <way id="37256545" version="6" timestamp="2011-06-27T18:51:13Z" uid="473471" user="NE3" changeset="8564771">
    <nd ref="434079130"/>
    <nd ref="40552487"/>
    <nd ref="40552489"/>
    <nd ref="434079133"/>
    <nd ref="40552491"/>
    <nd ref="40552494"/>
    <tag k="highway" v="motorway"/>
    <tag k="is_in" v="Beaverhead, MT"/>
    <tag k="lanes" v="2"/>
    <tag k="name" v="Veteran&apos;s Memorial Highway"/>
    <tag k="oneway" v="yes"/>
    <tag k="ref" v="I 15"/>
    <tag k="source" v="Yahoo,TIGER"/>
  </way>
  <way id="37256549" version="4" timestamp="2010-04-03T16:50:53Z" uid="20587" user="balrog-kun" changeset="4312936">
    <nd ref="40552484"/>
    <nd ref="434079130"/>
    <tag k="bridge" v="yes"/>
    <tag k="highway" v="motorway"/>
    <tag k="is_in" v="Beaverhead, MT"/>
    <tag k="layer" v="1"/>
    <tag k="name" v="Interstate 15"/>
    <tag k="name_1" v="Veteran&apos;s Memorial Highway"/>
    <tag k="oneway" v="yes"/>
    <tag k="ref" v="I 15"/>
    <tag k="source" v="Yahoo,TIGER"/>
  </way>
  <way id="37256549" version="5" timestamp="2011-03-30T08:51:13Z" uid="207745" user="NE2" changeset="7713944">
    <nd ref="40552484"/>
    <nd ref="434079130"/>
    <tag k="bridge" v="yes"/>
    <tag k="highway" v="motorway"/>
    <tag k="is_in" v="Beaverhead, MT"/>
    <tag k="layer" v="1"/>
    <tag k="name" v="Veteran&apos;s Memorial Highway"/>
    <tag k="oneway" v="yes"/>
    <tag k="ref" v="I 15"/>
    <tag k="source" v="Yahoo,TIGER"/>
  </way>
  <way id="37256549" version="6" timestamp="2011-06-27T18:37:56Z" uid="473471" user="NE3" changeset="8564771">
    <nd ref="40552484"/>
    <nd ref="434079130"/>
    <tag k="bridge" v="yes"/>
    <tag k="highway" v="motorway"/>
    <tag k="is_in" v="Beaverhead, MT"/>
    <tag k="lanes" v="2"/>
    <tag k="layer" v="1"/>
    <tag k="name" v="Veteran&apos;s Memorial Highway"/>
    <tag k="oneway" v="yes"/>
    <tag k="ref" v="I 15"/>
    <tag k="source" v="Yahoo,TIGER"/>
  </way>
  <way id="37256554" version="4" timestamp="2010-04-03T16:50:53Z" uid="20587" user="balrog-kun" changeset="4312936">
    <nd ref="434079165"/>
    <nd ref="40457464"/>
    <nd ref="434079167"/>
    <nd ref="40552497"/>
    <nd ref="40552500"/>
    <nd ref="40552502"/>
    <nd ref="40552504"/>
    <nd ref="40552505"/>
    <nd ref="40552511"/>
    <nd ref="40552513"/>
    <nd ref="434079173"/>
    <nd ref="40552516"/>
    <nd ref="38934934"/>
    <nd ref="40552519"/>
    <nd ref="40552526"/>
    <nd ref="434079186"/>
    <nd ref="38951130"/>
    <nd ref="38933154"/>
    <tag k="highway" v="motorway"/>
    <tag k="is_in" v="Beaverhead, MT"/>
    <tag k="name" v="Interstate 15"/>
    <tag k="name_1" v="Veteran&apos;s Memorial Highway"/>
    <tag k="oneway" v="yes"/>
    <tag k="ref" v="I 15"/>
    <tag k="source" v="Yahoo,TIGER"/>
  </way>
  <way id="37256554" version="5" timestamp="2010-12-04T12:45:30Z" uid="28237" user="lyx" changeset="6537249">
    <nd ref="434079165"/>
    <nd ref="40457464"/>
    <nd ref="1019849657"/>
    <nd ref="434079167"/>
    <nd ref="40552497"/>
    <nd ref="40552500"/>
    <nd ref="40552502"/>
    <nd ref="40552504"/>
    <nd ref="40552505"/>
    <nd ref="40552511"/>
    <nd ref="40552513"/>
    <nd ref="434079173"/>
    <nd ref="40552516"/>
    <nd ref="1019849648"/>
    <nd ref="38934934"/>
    <nd ref="40552519"/>
    <nd ref="1019849836"/>
    <nd ref="1019849937"/>
    <nd ref="40552526"/>
    <nd ref="1019849880"/>
    <nd ref="434079186"/>
    <nd ref="38951130"/>
    <nd ref="38933154"/>
    <tag k="highway" v="motorway"/>
    <tag k="is_in" v="Beaverhead, MT"/>
    <tag k="name" v="Interstate 15"/>
    <tag k="name_1" v="Veteran&apos;s Memorial Highway"/>
    <tag k="oneway" v="yes"/>
    <tag k="ref" v="I 15"/>
    <tag k="source" v="Yahoo,TIGER"/>
  </way>
  <way id="37256554" version="6" timestamp="2011-03-30T08:44:15Z" uid="207745" user="NE2" changeset="7713944">
    <nd ref="434079165"/>
    <nd ref="40457464"/>
    <nd ref="1019849657"/>
    <nd ref="434079167"/>
    <nd ref="40552497"/>
    <nd ref="40552500"/>
    <nd ref="40552502"/>
    <nd ref="40552504"/>
    <nd ref="40552505"/>
    <nd ref="40552511"/>
    <nd ref="40552513"/>
    <nd ref="434079173"/>
    <nd ref="40552516"/>
    <nd ref="1019849648"/>
    <nd ref="38934934"/>
    <nd ref="40552519"/>
    <nd ref="1019849836"/>
    <nd ref="1019849937"/>
    <nd ref="40552526"/>
    <nd ref="1019849880"/>
    <nd ref="434079186"/>
    <nd ref="38951130"/>
    <nd ref="38933154"/>
    <tag k="highway" v="motorway"/>
    <tag k="is_in" v="Beaverhead, MT"/>
    <tag k="name" v="Veteran&apos;s Memorial Highway"/>
    <tag k="oneway" v="yes"/>
    <tag k="ref" v="I 15"/>
    <tag k="source" v="Yahoo,TIGER"/>
  </way>
  <way id="37256554" version="7" timestamp="2011-06-27T18:47:51Z" uid="473471" user="NE3" changeset="8564771">
    <nd ref="434079165"/>
    <nd ref="40457464"/>
    <nd ref="1019849657"/>
    <nd ref="434079167"/>
    <nd ref="40552497"/>
    <nd ref="40552500"/>
    <nd ref="40552502"/>
    <nd ref="40552504"/>
    <nd ref="40552505"/>
    <nd ref="40552511"/>
    <nd ref="40552513"/>
    <nd ref="434079173"/>
    <nd ref="40552516"/>
    <nd ref="1019849648"/>
    <nd ref="38934934"/>
    <nd ref="40552519"/>
    <nd ref="1019849836"/>
    <nd ref="1019849937"/>
    <nd ref="40552526"/>
    <nd ref="1019849880"/>
    <nd ref="434079186"/>
    <nd ref="38951130"/>
    <nd ref="38933154"/>
    <tag k="highway" v="motorway"/>
    <tag k="is_in" v="Beaverhead, MT"/>
    <tag k="lanes" v="2"/>
    <tag k="name" v="Veteran&apos;s Memorial Highway"/>
    <tag k="oneway" v="yes"/>
    <tag k="ref" v="I 15"/>
    <tag k="source" v="Yahoo,TIGER"/>
  </way>
  <way id="37256555" version="4" timestamp="2010-04-03T16:50:53Z" uid="20587" user="balrog-kun" changeset="4312936">
    <nd ref="40552494"/>
    <nd ref="434079165"/>
    <tag k="bridge" v="yes"/>
    <tag k="highway" v="motorway"/>
    <tag k="is_in" v="Beaverhead, MT"/>
    <tag k="layer" v="1"/>
    <tag k="name" v="Interstate 15"/>
    <tag k="name_1" v="Veteran&apos;s Memorial Highway"/>
    <tag k="oneway" v="yes"/>
    <tag k="ref" v="I 15"/>
    <tag k="source" v="Yahoo,TIGER"/>
  </way>
  <way id="37256555" version="5" timestamp="2011-03-30T08:33:39Z" uid="207745" user="NE2" changeset="7713944">
    <nd ref="40552494"/>
    <nd ref="434079165"/>
    <tag k="bridge" v="yes"/>
    <tag k="highway" v="motorway"/>
    <tag k="is_in" v="Beaverhead, MT"/>
    <tag k="layer" v="1"/>
    <tag k="name" v="Veteran&apos;s Memorial Highway"/>
    <tag k="oneway" v="yes"/>
    <tag k="ref" v="I 15"/>
    <tag k="source" v="Yahoo,TIGER"/>
  </way>
  <way id="37256555" version="6" timestamp="2011-06-27T18:55:29Z" uid="473471" user="NE3" changeset="8564771">
    <nd ref="40552494"/>
    <nd ref="434079165"/>
    <tag k="bridge" v="yes"/>
    <tag k="highway" v="motorway"/>
    <tag k="is_in" v="Beaverhead, MT"/>
    <tag k="lanes" v="2"/>
    <tag k="layer" v="1"/>
    <tag k="name" v="Veteran&apos;s Memorial Highway"/>
    <tag k="oneway" v="yes"/>
    <tag k="ref" v="I 15"/>
    <tag k="source" v="Yahoo,TIGER"/>
  </way>
  <way id="37256557" version="4" timestamp="2010-04-03T16:50:54Z" uid="20587" user="balrog-kun" changeset="4312936">
    <nd ref="38933154"/>
    <nd ref="434079242"/>
    <tag k="bridge" v="yes"/>
    <tag k="highway" v="motorway"/>
    <tag k="is_in" v="Beaverhead, MT"/>
    <tag k="layer" v="1"/>
    <tag k="name" v="Interstate 15"/>
    <tag k="name_1" v="Veteran&apos;s Memorial Highway"/>
    <tag k="oneway" v="yes"/>
    <tag k="ref" v="I 15"/>
    <tag k="source" v="Yahoo,TIGER"/>
  </way>
  <way id="37256557" version="5" timestamp="2011-03-30T08:54:33Z" uid="207745" user="NE2" changeset="7713944">
    <nd ref="38933154"/>
    <nd ref="434079242"/>
    <tag k="bridge" v="yes"/>
    <tag k="highway" v="motorway"/>
    <tag k="is_in" v="Beaverhead, MT"/>
    <tag k="layer" v="1"/>
    <tag k="name" v="Veteran&apos;s Memorial Highway"/>
    <tag k="oneway" v="yes"/>
    <tag k="ref" v="I 15"/>
    <tag k="source" v="Yahoo,TIGER"/>
  </way>
  <way id="37256557" version="6" timestamp="2011-06-27T18:45:50Z" uid="473471" user="NE3" changeset="8564771">
    <nd ref="38933154"/>
    <nd ref="434079242"/>
    <tag k="bridge" v="yes"/>
    <tag k="highway" v="motorway"/>
    <tag k="is_in" v="Beaverhead, MT"/>
    <tag k="lanes" v="2"/>
    <tag k="layer" v="1"/>
    <tag k="name" v="Veteran&apos;s Memorial Highway"/>
    <tag k="oneway" v="yes"/>
    <tag k="ref" v="I 15"/>
    <tag k="source" v="Yahoo,TIGER"/>
  </way>
  <way id="37256558" version="5" timestamp="2010-04-03T16:50:54Z" uid="20587" user="balrog-kun" changeset="4312936">
    <nd ref="434079242"/>
    <nd ref="38951127"/>
    <nd ref="40552533"/>
    <nd ref="40552535"/>
    <nd ref="40552537"/>
    <nd ref="434087190"/>
    <nd ref="40552542"/>
    <nd ref="434087193"/>
    <nd ref="40552544"/>
    <nd ref="40441769"/>
    <nd ref="40552548"/>
    <tag k="highway" v="motorway"/>
    <tag k="is_in" v="Beaverhead, MT"/>
    <tag k="name" v="Interstate 15"/>
    <tag k="name_1" v="Veteran&apos;s Memorial Highway"/>
    <tag k="oneway" v="yes"/>
    <tag k="ref" v="I 15"/>
    <tag k="source" v="Yahoo,TIGER"/>
  </way>
  <way id="37256558" version="6" timestamp="2010-12-04T14:38:19Z" uid="28237" user="lyx" changeset="6538507">
    <nd ref="434079242"/>
    <nd ref="38951127"/>
    <nd ref="40552533"/>
    <nd ref="40552535"/>
    <nd ref="40552537"/>
    <nd ref="434087190"/>
    <nd ref="40552542"/>
    <nd ref="434087193"/>
    <nd ref="40552544"/>
    <nd ref="40552548"/>
    <tag k="highway" v="motorway"/>
    <tag k="is_in" v="Beaverhead, MT"/>
    <tag k="name" v="Interstate 15"/>
    <tag k="name_1" v="Veteran&apos;s Memorial Highway"/>
    <tag k="oneway" v="yes"/>
    <tag k="ref" v="I 15"/>
    <tag k="source" v="Yahoo,TIGER"/>
  </way>
  <way id="37256558" version="7" timestamp="2011-03-30T08:32:20Z" uid="207745" user="NE2" changeset="7713944">
    <nd ref="434079242"/>
    <nd ref="38951127"/>
    <nd ref="40552533"/>
    <nd ref="40552535"/>
    <nd ref="40552537"/>
    <nd ref="434087190"/>
    <nd ref="40552542"/>
    <nd ref="434087193"/>
    <nd ref="40552544"/>
    <nd ref="40552548"/>
    <tag k="highway" v="motorway"/>
    <tag k="is_in" v="Beaverhead, MT"/>
    <tag k="name" v="Veteran&apos;s Memorial Highway"/>
    <tag k="oneway" v="yes"/>
    <tag k="ref" v="I 15"/>
    <tag k="source" v="Yahoo,TIGER"/>
  </way>
  <way id="37256558" version="8" timestamp="2011-06-27T18:53:05Z" uid="473471" user="NE3" changeset="8564771">
    <nd ref="434079242"/>
    <nd ref="38951127"/>
    <nd ref="40552533"/>
    <nd ref="40552535"/>
    <nd ref="40552537"/>
    <nd ref="434087190"/>
    <nd ref="40552542"/>
    <nd ref="434087193"/>
    <nd ref="40552544"/>
    <nd ref="40552548"/>
    <tag k="highway" v="motorway"/>
    <tag k="is_in" v="Beaverhead, MT"/>
    <tag k="lanes" v="2"/>
    <tag k="name" v="Veteran&apos;s Memorial Highway"/>
    <tag k="oneway" v="yes"/>
    <tag k="ref" v="I 15"/>
    <tag k="source" v="Yahoo,TIGER"/>
  </way>
  <way id="37256580" version="3" timestamp="2010-09-27T19:19:11Z" uid="9581" user="Lobelt" changeset="5894718">
    <nd ref="434080094"/>
    <nd ref="29137241"/>
    <tag k="bridge" v="yes"/>
    <tag k="highway" v="motorway"/>
    <tag k="int_ref" v="E 40"/>
    <tag k="lanes" v="3"/>
    <tag k="layer" v="1"/>
    <tag k="maxspeed" v="130"/>
    <tag k="oneway" v="yes"/>
    <tag k="ref" v="A 4"/>
  </way>
  <way id="37256580" version="4" timestamp="2011-08-21T12:21:56Z" uid="30077" user="ChristianW" changeset="9083518">
    <nd ref="434080094"/>
    <nd ref="29137241"/>
    <tag k="bridge" v="yes"/>
    <tag k="highway" v="motorway"/>
    <tag k="int_ref" v="E 40"/>
    <tag k="lanes" v="3"/>
    <tag k="layer" v="1"/>
    <tag k="lit" v="no"/>
    <tag k="maxspeed" v="130"/>
    <tag k="oneway" v="yes"/>
    <tag k="ref" v="A 4"/>
    <tag k="source:lit" v="http://www.autobahn-bilder.de"/>
  </way>
  <way id="37256581" version="3" timestamp="2010-09-27T19:19:16Z" uid="9581" user="Lobelt" changeset="5894718">
    <nd ref="29137241"/>
    <nd ref="29137242"/>
    <nd ref="303997414"/>
    <tag k="highway" v="motorway"/>
    <tag k="int_ref" v="E 40"/>
    <tag k="lanes" v="3"/>
    <tag k="maxspeed" v="130"/>
    <tag k="oneway" v="yes"/>
    <tag k="ref" v="A 4"/>
  </way>
  <way id="37256581" version="4" timestamp="2011-08-21T12:24:45Z" uid="30077" user="ChristianW" changeset="9083518">
    <nd ref="29137241"/>
    <nd ref="29137242"/>
    <nd ref="303997414"/>
    <tag k="highway" v="motorway"/>
    <tag k="int_ref" v="E 40"/>
    <tag k="lanes" v="3"/>
    <tag k="lit" v="no"/>
    <tag k="maxspeed" v="130"/>
    <tag k="oneway" v="yes"/>
    <tag k="ref" v="A 4"/>
    <tag k="source:lit" v="http://www.autobahn-bilder.de"/>
  </way>
  <way id="37256771" version="1" timestamp="2009-07-04T18:58:06Z" uid="9581" user="Lobelt" changeset="1732175">
    <nd ref="434085561"/>
    <nd ref="434085563"/>
    <nd ref="20977623"/>
    <tag k="highway" v="track"/>
    <tag k="motorcar" v="agricultural"/>
    <tag k="motorcycle" v="agricultural"/>
    <tag k="surface" v="paved"/>
    <tag k="tracktype" v="grade1"/>
  </way>
  <way id="37256771" version="2" timestamp="2012-03-29T22:04:31Z" uid="6390" user="grenzdebil_bonn" changeset="11145172"/>
  <way id="37256778" version="2" timestamp="2009-09-22T18:36:59Z" uid="9581" user="Lobelt" changeset="2575057">
    <nd ref="434085742"/>
    <nd ref="434085744"/>
    <nd ref="434085745"/>
    <nd ref="434085747"/>
    <nd ref="434085748"/>
    <nd ref="434085749"/>
    <nd ref="434085751"/>
    <nd ref="434085752"/>
    <nd ref="434085753"/>
    <nd ref="434085755"/>
    <nd ref="434085756"/>
    <nd ref="434085757"/>
    <nd ref="434085759"/>
    <nd ref="434085760"/>
    <nd ref="434085761"/>
    <nd ref="505682895"/>
    <nd ref="434085763"/>
    <nd ref="434085764"/>
    <nd ref="434085765"/>
    <nd ref="434085767"/>
    <nd ref="434085768"/>
    <nd ref="434085769"/>
    <nd ref="434085771"/>
    <tag k="highway" v="track"/>
    <tag k="surface" v="grass"/>
    <tag k="tracktype" v="grade3"/>
  </way>
  <way id="37256853" version="4" timestamp="2010-04-03T16:50:54Z" uid="20587" user="balrog-kun" changeset="4312936">
    <nd ref="40552548"/>
    <nd ref="40552555"/>
    <tag k="bridge" v="yes"/>
    <tag k="highway" v="motorway"/>
    <tag k="is_in" v="Beaverhead, MT"/>
    <tag k="layer" v="1"/>
    <tag k="name" v="Interstate 15"/>
    <tag k="name_1" v="Veteran&apos;s Memorial Highway"/>
    <tag k="oneway" v="yes"/>
    <tag k="ref" v="I 15"/>
    <tag k="source" v="Yahoo,TIGER"/>
  </way>
  <way id="37256853" version="5" timestamp="2011-03-30T08:51:47Z" uid="207745" user="NE2" changeset="7713944">
    <nd ref="40552548"/>
    <nd ref="40552555"/>
    <tag k="bridge" v="yes"/>
    <tag k="highway" v="motorway"/>
    <tag k="is_in" v="Beaverhead, MT"/>
    <tag k="layer" v="1"/>
    <tag k="name" v="Veteran&apos;s Memorial Highway"/>
    <tag k="oneway" v="yes"/>
    <tag k="ref" v="I 15"/>
    <tag k="source" v="Yahoo,TIGER"/>
  </way>
  <way id="37256853" version="6" timestamp="2011-06-27T18:51:59Z" uid="473471" user="NE3" changeset="8564771">
    <nd ref="40552548"/>
    <nd ref="40552555"/>
    <tag k="bridge" v="yes"/>
    <tag k="highway" v="motorway"/>
    <tag k="is_in" v="Beaverhead, MT"/>
    <tag k="lanes" v="2"/>
    <tag k="layer" v="1"/>
    <tag k="name" v="Veteran&apos;s Memorial Highway"/>
    <tag k="oneway" v="yes"/>
    <tag k="ref" v="I 15"/>
    <tag k="source" v="Yahoo,TIGER"/>
  </way>
  <way id="37256854" version="7" timestamp="2010-04-03T16:50:54Z" uid="20587" user="balrog-kun" changeset="4312936">
    <nd ref="40552555"/>
    <nd ref="40552558"/>
    <nd ref="40552560"/>
    <nd ref="434087227"/>
    <nd ref="40552562"/>
    <nd ref="40552564"/>
    <nd ref="40552566"/>
    <nd ref="40552567"/>
    <nd ref="434087236"/>
    <nd ref="434087240"/>
    <nd ref="434087242"/>
    <nd ref="434087246"/>
    <tag k="highway" v="motorway"/>
    <tag k="is_in" v="Beaverhead, MT"/>
    <tag k="name" v="Interstate 15"/>
    <tag k="name_1" v="Veteran&apos;s Memorial Highway"/>
    <tag k="oneway" v="yes"/>
    <tag k="ref" v="I 15"/>
    <tag k="source" v="Yahoo,TIGER"/>
  </way>
  <way id="37256854" version="8" timestamp="2011-03-30T08:29:11Z" uid="207745" user="NE2" changeset="7713944">
    <nd ref="40552555"/>
    <nd ref="40552558"/>
    <nd ref="40552560"/>
    <nd ref="434087227"/>
    <nd ref="40552562"/>
    <nd ref="40552564"/>
    <nd ref="40552566"/>
    <nd ref="40552567"/>
    <nd ref="434087236"/>
    <nd ref="434087240"/>
    <nd ref="434087242"/>
    <nd ref="434087246"/>
    <tag k="highway" v="motorway"/>
    <tag k="is_in" v="Beaverhead, MT"/>
    <tag k="name" v="Veteran&apos;s Memorial Highway"/>
    <tag k="oneway" v="yes"/>
    <tag k="ref" v="I 15"/>
    <tag k="source" v="Yahoo,TIGER"/>
  </way>
  <way id="37256854" version="9" timestamp="2011-06-27T18:41:28Z" uid="473471" user="NE3" changeset="8564771">
    <nd ref="40552555"/>
    <nd ref="40552558"/>
    <nd ref="40552560"/>
    <nd ref="434087227"/>
    <nd ref="40552562"/>
    <nd ref="40552564"/>
    <nd ref="40552566"/>
    <nd ref="40552567"/>
    <nd ref="434087236"/>
    <nd ref="434087240"/>
    <nd ref="434087242"/>
    <nd ref="434087246"/>
    <tag k="highway" v="motorway"/>
    <tag k="is_in" v="Beaverhead, MT"/>
    <tag k="lanes" v="2"/>
    <tag k="name" v="Veteran&apos;s Memorial Highway"/>
    <tag k="oneway" v="yes"/>
    <tag k="ref" v="I 15"/>
    <tag k="source" v="Yahoo,TIGER"/>
  </way>
  <way id="37256856" version="4" timestamp="2011-04-21T06:58:31Z" uid="66036" user="h4v" changeset="7922583">
    <nd ref="482657359"/>
    <nd ref="434087307"/>
    <nd ref="434087310"/>
    <nd ref="434087312"/>
    <tag k="highway" v="residential"/>
    <tag k="name" v="Pabianka"/>
    <tag k="surface" v="unpaved"/>
  </way>
  <way id="37256857" version="6" timestamp="2010-04-03T16:50:54Z" uid="20587" user="balrog-kun" changeset="4312936">
    <nd ref="434087282"/>
    <nd ref="38964235"/>
    <nd ref="40552587"/>
    <nd ref="40552589"/>
    <nd ref="40552592"/>
    <nd ref="40545930"/>
    <nd ref="40552599"/>
    <nd ref="40552605"/>
    <nd ref="40552607"/>
    <nd ref="40552610"/>
    <nd ref="40552615"/>
    <nd ref="40552618"/>
    <nd ref="40552620"/>
    <nd ref="40522235"/>
    <nd ref="40552622"/>
    <nd ref="40552625"/>
    <nd ref="434087306"/>
    <nd ref="40552627"/>
    <nd ref="434087309"/>
    <nd ref="38925166"/>
    <nd ref="40552637"/>
    <nd ref="40552641"/>
    <nd ref="40552644"/>
    <nd ref="38945222"/>
    <tag k="highway" v="motorway"/>
    <tag k="is_in" v="Beaverhead, MT"/>
    <tag k="name" v="Interstate 15"/>
    <tag k="name_1" v="Veteran&apos;s Memorial Highway"/>
    <tag k="oneway" v="yes"/>
    <tag k="ref" v="I 15"/>
    <tag k="source" v="Yahoo,TIGER"/>
  </way>
  <way id="37256857" version="7" timestamp="2010-12-04T14:38:14Z" uid="28237" user="lyx" changeset="6538507">
    <nd ref="434087282"/>
    <nd ref="38964235"/>
    <nd ref="40552587"/>
    <nd ref="40552589"/>
    <nd ref="40552592"/>
    <nd ref="40545930"/>
    <nd ref="40552599"/>
    <nd ref="40552605"/>
    <nd ref="40552607"/>
    <nd ref="1020071508"/>
    <nd ref="40552610"/>
    <nd ref="40552615"/>
    <nd ref="40552618"/>
    <nd ref="40552620"/>
    <nd ref="40522235"/>
    <nd ref="40552622"/>
    <nd ref="40552625"/>
    <nd ref="434087306"/>
    <nd ref="40552627"/>
    <nd ref="434087309"/>
    <nd ref="38925166"/>
    <nd ref="40552637"/>
    <nd ref="40552641"/>
    <nd ref="40552644"/>
    <nd ref="1020071531"/>
    <nd ref="38945222"/>
    <tag k="highway" v="motorway"/>
    <tag k="is_in" v="Beaverhead, MT"/>
    <tag k="name" v="Interstate 15"/>
    <tag k="name_1" v="Veteran&apos;s Memorial Highway"/>
    <tag k="oneway" v="yes"/>
    <tag k="ref" v="I 15"/>
    <tag k="source" v="Yahoo,TIGER"/>
  </way>
  <way id="37256857" version="8" timestamp="2011-03-30T08:38:17Z" uid="207745" user="NE2" changeset="7713944">
    <nd ref="434087282"/>
    <nd ref="38964235"/>
    <nd ref="40552587"/>
    <nd ref="40552589"/>
    <nd ref="40552592"/>
    <nd ref="40545930"/>
    <nd ref="40552599"/>
    <nd ref="40552605"/>
    <nd ref="40552607"/>
    <nd ref="1020071508"/>
    <nd ref="40552610"/>
    <nd ref="40552615"/>
    <nd ref="40552618"/>
    <nd ref="40552620"/>
    <nd ref="40522235"/>
    <nd ref="40552622"/>
    <nd ref="40552625"/>
    <nd ref="434087306"/>
    <nd ref="40552627"/>
    <nd ref="434087309"/>
    <nd ref="38925166"/>
    <nd ref="40552637"/>
    <nd ref="40552641"/>
    <nd ref="40552644"/>
    <nd ref="1020071531"/>
    <nd ref="38945222"/>
    <tag k="highway" v="motorway"/>
    <tag k="is_in" v="Beaverhead, MT"/>
    <tag k="name" v="Veteran&apos;s Memorial Highway"/>
    <tag k="oneway" v="yes"/>
    <tag k="ref" v="I 15"/>
    <tag k="source" v="Yahoo,TIGER"/>
  </way>
  <way id="37256857" version="9" timestamp="2011-06-27T18:53:32Z" uid="473471" user="NE3" changeset="8564771">
    <nd ref="434087282"/>
    <nd ref="38964235"/>
    <nd ref="40552587"/>
    <nd ref="40552589"/>
    <nd ref="40552592"/>
    <nd ref="40545930"/>
    <nd ref="40552599"/>
    <nd ref="40552605"/>
    <nd ref="40552607"/>
    <nd ref="1020071508"/>
    <nd ref="40552610"/>
    <nd ref="40552615"/>
    <nd ref="40552618"/>
    <nd ref="40552620"/>
    <nd ref="40522235"/>
    <nd ref="40552622"/>
    <nd ref="40552625"/>
    <nd ref="434087306"/>
    <nd ref="40552627"/>
    <nd ref="434087309"/>
    <nd ref="38925166"/>
    <nd ref="40552637"/>
    <nd ref="40552641"/>
    <nd ref="40552644"/>
    <nd ref="1020071531"/>
    <nd ref="38945222"/>
    <tag k="highway" v="motorway"/>
    <tag k="is_in" v="Beaverhead, MT"/>
    <tag k="lanes" v="2"/>
    <tag k="name" v="Veteran&apos;s Memorial Highway"/>
    <tag k="oneway" v="yes"/>
    <tag k="ref" v="I 15"/>
    <tag k="source" v="Yahoo,TIGER"/>
  </way>
  <way id="37256858" version="6" timestamp="2011-04-21T06:58:41Z" uid="66036" user="h4v" changeset="7922583">
    <nd ref="434087320"/>
    <nd ref="482660628"/>
    <nd ref="482660774"/>
    <nd ref="434087310"/>
    <nd ref="482660397"/>
    <tag k="highway" v="residential"/>
    <tag k="name" v="Samopomocy"/>
    <tag k="surface" v="unpaved"/>
  </way>
  <way id="37256859" version="5" timestamp="2011-04-21T06:58:36Z" uid="66036" user="h4v" changeset="7922583">
    <nd ref="305268704"/>
    <nd ref="434087324"/>
    <nd ref="1212344878"/>
    <nd ref="434087271"/>
    <nd ref="434087327"/>
    <nd ref="471566169"/>
    <nd ref="434087320"/>
    <nd ref="434087335"/>
    <nd ref="434087337"/>
    <nd ref="434087313"/>
    <tag k="highway" v="residential"/>
    <tag k="name" v="abieniec"/>
    <tag k="surface" v="unpaved"/>
  </way>
  <way id="37256864" version="2" timestamp="2011-03-15T02:01:53Z" uid="66036" user="h4v" changeset="7562862">
    <nd ref="281169638"/>
    <nd ref="434087416"/>
    <nd ref="434087422"/>
    <nd ref="434087425"/>
    <nd ref="434087427"/>
    <nd ref="434087431"/>
    <nd ref="434087293"/>
    <nd ref="434087436"/>
    <nd ref="434087439"/>
    <nd ref="434087441"/>
    <nd ref="434087443"/>
    <nd ref="434087444"/>
    <nd ref="434087447"/>
    <nd ref="434087450"/>
    <nd ref="434087452"/>
    <nd ref="434087454"/>
    <nd ref="434087456"/>
    <nd ref="434087460"/>
    <nd ref="434087462"/>
    <nd ref="434087464"/>
    <tag k="highway" v="footway"/>
  </way>
  <way id="37256865" version="4" timestamp="2010-04-03T16:50:55Z" uid="20587" user="balrog-kun" changeset="4312936">
    <nd ref="434087246"/>
    <nd ref="434087282"/>
    <tag k="bridge" v="yes"/>
    <tag k="highway" v="motorway"/>
    <tag k="is_in" v="Beaverhead, MT"/>
    <tag k="layer" v="1"/>
    <tag k="name" v="Interstate 15"/>
    <tag k="name_1" v="Veteran&apos;s Memorial Highway"/>
    <tag k="oneway" v="yes"/>
    <tag k="ref" v="I 15"/>
    <tag k="source" v="Yahoo,TIGER"/>
  </way>
  <way id="37256865" version="5" timestamp="2011-03-30T08:43:37Z" uid="207745" user="NE2" changeset="7713944">
    <nd ref="434087246"/>
    <nd ref="434087282"/>
    <tag k="bridge" v="yes"/>
    <tag k="highway" v="motorway"/>
    <tag k="is_in" v="Beaverhead, MT"/>
    <tag k="layer" v="1"/>
    <tag k="name" v="Veteran&apos;s Memorial Highway"/>
    <tag k="oneway" v="yes"/>
    <tag k="ref" v="I 15"/>
    <tag k="source" v="Yahoo,TIGER"/>
  </way>
  <way id="37256865" version="6" timestamp="2011-06-27T18:42:32Z" uid="473471" user="NE3" changeset="8564771">
    <nd ref="434087246"/>
    <nd ref="434087282"/>
    <tag k="bridge" v="yes"/>
    <tag k="highway" v="motorway"/>
    <tag k="is_in" v="Beaverhead, MT"/>
    <tag k="lanes" v="2"/>
    <tag k="layer" v="1"/>
    <tag k="name" v="Veteran&apos;s Memorial Highway"/>
    <tag k="oneway" v="yes"/>
    <tag k="ref" v="I 15"/>
    <tag k="source" v="Yahoo,TIGER"/>
  </way>
</osm>
