<?xml version='1.0' encoding='UTF-8'?>
<osm version="0.6" generator="libosmium/2.20.0">
  <way id="37267529" version="4" timestamp="2010-04-03T21:08:28Z" uid="20587" user="balrog-kun" changeset="4315899">
    <nd ref="434208053"/>
    <nd ref="434208060"/>
    <tag k="bridge" v="yes"/>
    <tag k="highway" v="motorway"/>
    <tag k="layer" v="1"/>
    <tag k="name" v="Interstate 15"/>
    <tag k="name_1" v="Veteran&apos;s Memorial Highway"/>
    <tag k="oneway" v="yes"/>
    <tag k="ref" v="I 15"/>
    <tag k="source" v="Yahoo,TIGER"/>
  </way>
  <way id="37267529" version="5" timestamp="2011-03-30T08:38:04Z" uid="207745" user="NE2" changeset="7713944">
    <nd ref="434208053"/>
    <nd ref="434208060"/>
    <tag k="bridge" v="yes"/>
    <tag k="highway" v="motorway"/>
    <tag k="layer" v="1"/>
    <tag k="name" v="Veteran&apos;s Memorial Highway"/>
    <tag k="oneway" v="yes"/>
    <tag k="ref" v="I 15"/>
    <tag k="source" v="Yahoo,TIGER"/>
  </way>
  <way id="37267529" version="6" timestamp="2011-05-05T22:33:19Z" uid="448442" user="they" changeset="8061626">
    <nd ref="434208053"/>
    <nd ref="1273687068"/>
    <nd ref="434208060"/>
    <tag k="bridge" v="yes"/>
    <tag k="highway" v="motorway"/>
    <tag k="layer" v="1"/>
    <tag k="name" v="Veteran&apos;s Memorial Highway"/>
    <tag k="oneway" v="yes"/>
    <tag k="ref" v="I 15"/>
    <tag k="source" v="Yahoo,TIGER"/>
  </way>
  <way id="37267529" version="7" timestamp="2011-06-27T18:44:13Z" uid="473471" user="NE3" changeset="8564771">
    <nd ref="434208053"/>
    <nd ref="1273687068"/>
    <nd ref="434208060"/>
    <tag k="bridge" v="yes"/>
    <tag k="highway" v="motorway"/>
    <tag k="lanes" v="2"/>
    <tag k="layer" v="1"/>
    <tag k="name" v="Veteran&apos;s Memorial Highway"/>
    <tag k="oneway" v="yes"/>
    <tag k="ref" v="I 15"/>
    <tag k="source" v="Yahoo,TIGER"/>
  </way>
  <way id="37267553" version="4" timestamp="2010-04-03T21:08:29Z" uid="20587" user="balrog-kun" changeset="4315899">
    <nd ref="434208060"/>
    <nd ref="434208061"/>
    <nd ref="434208062"/>
    <nd ref="434208063"/>
    <nd ref="434208064"/>
    <nd ref="434208065"/>
    <nd ref="46036461"/>
    <nd ref="434208066"/>
    <nd ref="434208067"/>
    <nd ref="434208068"/>
    <nd ref="434208069"/>
    <nd ref="46036477"/>
    <nd ref="434208070"/>
    <nd ref="434208071"/>
    <nd ref="434208072"/>
    <nd ref="434208074"/>
    <nd ref="434208075"/>
    <nd ref="434208076"/>
    <nd ref="434208077"/>
    <nd ref="434208079"/>
    <nd ref="434208080"/>
    <nd ref="434208081"/>
    <nd ref="434208082"/>
    <nd ref="434208084"/>
    <nd ref="434208085"/>
    <nd ref="434208086"/>
    <nd ref="434208087"/>
    <nd ref="434208089"/>
    <nd ref="434208090"/>
    <nd ref="434208057"/>
    <nd ref="434208091"/>
    <nd ref="434208092"/>
    <nd ref="434208056"/>
    <nd ref="434208093"/>
    <nd ref="434208094"/>
    <nd ref="434208095"/>
    <nd ref="434208096"/>
    <nd ref="434208097"/>
    <nd ref="434208098"/>
    <nd ref="434208099"/>
    <nd ref="434208100"/>
    <nd ref="434208101"/>
    <nd ref="434208102"/>
    <nd ref="434208103"/>
    <nd ref="434208104"/>
    <nd ref="434208105"/>
    <nd ref="434208107"/>
    <nd ref="434208108"/>
    <nd ref="434208109"/>
    <nd ref="434208110"/>
    <nd ref="434208111"/>
    <nd ref="434208113"/>
    <nd ref="434208114"/>
    <nd ref="434208115"/>
    <nd ref="434208117"/>
    <nd ref="434208118"/>
    <nd ref="434208120"/>
    <nd ref="434208121"/>
    <nd ref="434207699"/>
    <nd ref="434207700"/>
    <nd ref="434207701"/>
    <nd ref="434207702"/>
    <nd ref="434207703"/>
    <nd ref="434207704"/>
    <nd ref="434207705"/>
    <nd ref="434207706"/>
    <nd ref="434207707"/>
    <nd ref="434207708"/>
    <tag k="highway" v="motorway"/>
    <tag k="name" v="Interstate 15"/>
    <tag k="name_1" v="Veteran&apos;s Memorial Highway"/>
    <tag k="oneway" v="yes"/>
    <tag k="ref" v="I 15"/>
    <tag k="source" v="Yahoo,TIGER"/>
  </way>
  <way id="37267553" version="5" timestamp="2010-12-03T01:39:27Z" uid="28237" user="lyx" changeset="6521953">
    <nd ref="434208060"/>
    <nd ref="434208061"/>
    <nd ref="434208062"/>
    <nd ref="434208063"/>
    <nd ref="434208064"/>
    <nd ref="434208065"/>
    <nd ref="46036461"/>
    <nd ref="434208066"/>
    <nd ref="434208067"/>
    <nd ref="434208068"/>
    <nd ref="434208069"/>
    <nd ref="46036477"/>
    <nd ref="434208070"/>
    <nd ref="434208071"/>
    <nd ref="434208072"/>
    <nd ref="434208074"/>
    <nd ref="434208075"/>
    <nd ref="434208076"/>
    <nd ref="434208077"/>
    <nd ref="434208079"/>
    <nd ref="434208080"/>
    <nd ref="434208081"/>
    <nd ref="434208082"/>
    <nd ref="434208084"/>
    <nd ref="434208085"/>
    <nd ref="434208086"/>
    <nd ref="434208087"/>
    <nd ref="434208089"/>
    <nd ref="434208090"/>
    <nd ref="434208057"/>
    <nd ref="434208091"/>
    <tag k="highway" v="motorway"/>
    <tag k="name" v="Interstate 15"/>
    <tag k="name_1" v="Veteran&apos;s Memorial Highway"/>
    <tag k="oneway" v="yes"/>
    <tag k="ref" v="I 15"/>
    <tag k="source" v="Yahoo,TIGER"/>
  </way>
  <way id="37267553" version="6" timestamp="2011-03-30T08:52:07Z" uid="207745" user="NE2" changeset="7713944">
    <nd ref="434208060"/>
    <nd ref="434208061"/>
    <nd ref="434208062"/>
    <nd ref="434208063"/>
    <nd ref="434208064"/>
    <nd ref="434208065"/>
    <nd ref="46036461"/>
    <nd ref="434208066"/>
    <nd ref="434208067"/>
    <nd ref="434208068"/>
    <nd ref="434208069"/>
    <nd ref="46036477"/>
    <nd ref="434208070"/>
    <nd ref="434208071"/>
    <nd ref="434208072"/>
    <nd ref="434208074"/>
    <nd ref="434208075"/>
    <nd ref="434208076"/>
    <nd ref="434208077"/>
    <nd ref="434208079"/>
    <nd ref="434208080"/>
    <nd ref="434208081"/>
    <nd ref="434208082"/>
    <nd ref="434208084"/>
    <nd ref="434208085"/>
    <nd ref="434208086"/>
    <nd ref="434208087"/>
    <nd ref="434208089"/>
    <nd ref="434208090"/>
    <nd ref="434208057"/>
    <nd ref="434208091"/>
    <tag k="highway" v="motorway"/>
    <tag k="name" v="Veteran&apos;s Memorial Highway"/>
    <tag k="oneway" v="yes"/>
    <tag k="ref" v="I 15"/>
    <tag k="source" v="Yahoo,TIGER"/>
  </way>
  <way id="37267553" version="7" timestamp="2011-06-27T18:46:59Z" uid="473471" user="NE3" changeset="8564771">
    <nd ref="434208060"/>
    <nd ref="434208061"/>
    <nd ref="434208062"/>
    <nd ref="434208063"/>
    <nd ref="434208064"/>
    <nd ref="434208065"/>
    <nd ref="46036461"/>
    <nd ref="434208066"/>
    <nd ref="434208067"/>
    <nd ref="434208068"/>
    <nd ref="434208069"/>
    <nd ref="46036477"/>
    <nd ref="434208070"/>
    <nd ref="434208071"/>
    <nd ref="434208072"/>
    <nd ref="434208074"/>
    <nd ref="434208075"/>
    <nd ref="434208076"/>
    <nd ref="434208077"/>
    <nd ref="434208079"/>
    <nd ref="434208080"/>
    <nd ref="434208081"/>
    <nd ref="434208082"/>
    <nd ref="434208084"/>
    <nd ref="434208085"/>
    <nd ref="434208086"/>
    <nd ref="434208087"/>
    <nd ref="434208089"/>
    <nd ref="434208090"/>
    <nd ref="434208057"/>
    <nd ref="434208091"/>
    <tag k="highway" v="motorway"/>
    <tag k="lanes" v="2"/>
    <tag k="name" v="Veteran&apos;s Memorial Highway"/>
    <tag k="oneway" v="yes"/>
    <tag k="ref" v="I 15"/>
    <tag k="source" v="Yahoo,TIGER"/>
  </way>
</osm>
