<?xml version='1.0' encoding='UTF-8'?>
<osm version="0.6" generator="libosmium/2.20.0">
  <way id="3727019" version="2" timestamp="2008-10-31T10:00:44Z" uid="7617" user="Franc" changeset="638517">
    <nd ref="18464078"/>
    <nd ref="308880788"/>
    <nd ref="18463506"/>
    <nd ref="18464079"/>
    <tag k="abutters" v="residential"/>
    <tag k="created_by" v="JOSM"/>
    <tag k="highway" v="residential"/>
    <tag k="name" v="Lander Street"/>
  </way>
  <way id="3727019" version="3" timestamp="2009-08-13T21:30:19Z" uid="104101" user="swanilli" changeset="2137086">
    <nd ref="18464078"/>
    <nd ref="308880788"/>
    <nd ref="18463506"/>
    <nd ref="18464079"/>
    <nd ref="464776473"/>
    <nd ref="464776471"/>
    <tag k="abutters" v="residential"/>
    <tag k="highway" v="residential"/>
    <tag k="name" v="Lander Street"/>
  </way>
  <way id="3727019" version="4" timestamp="2009-11-14T12:05:48Z" uid="117890" user="Jonathan Trott" changeset="3112508">
    <nd ref="18464078"/>
    <nd ref="308880788"/>
    <nd ref="18463506"/>
    <nd ref="18464079"/>
    <nd ref="464776473"/>
    <nd ref="464776471"/>
    <tag k="abutters" v="residential"/>
    <tag k="highway" v="residential"/>
    <tag k="name" v="Lander Street"/>
  </way>
  <way id="3727019" version="5" timestamp="2009-11-25T12:41:05Z" uid="7617" user="Franc" changeset="3211848">
    <nd ref="18464078"/>
    <nd ref="18463506"/>
    <nd ref="18464079"/>
    <nd ref="464776473"/>
    <nd ref="464776471"/>
    <tag k="abutters" v="residential"/>
    <tag k="highway" v="residential"/>
    <tag k="name" v="Lander Street"/>
  </way>
  <way id="3727019" version="6" timestamp="2009-12-24T10:27:43Z" uid="30201" user="rrankin" changeset="3440994">
    <nd ref="18464078"/>
    <nd ref="18463506"/>
    <nd ref="18464079"/>
    <nd ref="464776473"/>
    <nd ref="464776471"/>
    <tag k="highway" v="residential"/>
    <tag k="name" v="Lander Street"/>
  </way>
  <way id="3727019" version="7" timestamp="2010-07-07T22:10:08Z" uid="74617" user="JohnSmith" changeset="5161069">
    <nd ref="18464078"/>
    <nd ref="18463506"/>
    <nd ref="18464079"/>
    <nd ref="464776473"/>
    <nd ref="464776471"/>
    <tag k="highway" v="residential"/>
    <tag k="maxspeed" v="50"/>
    <tag k="maxspeed:source" v="default residential speed limit in Australia"/>
    <tag k="name" v="Lander Street"/>
  </way>
  <way id="3727019" version="8" timestamp="2011-06-11T01:12:55Z" uid="20949" user="Ebenezer" changeset="8402208">
    <nd ref="18464078"/>
    <nd ref="18463506"/>
    <nd ref="18464079"/>
    <tag k="highway" v="residential"/>
    <tag k="maxspeed" v="50"/>
    <tag k="maxspeed:source" v="default residential speed limit in Australia"/>
    <tag k="name" v="Lander Street"/>
  </way>
  <way id="3727019" version="9" timestamp="2012-01-08T02:34:20Z" uid="147510" user="woodpeck_fixbot" changeset="10327743">
    <nd ref="18464078"/>
    <nd ref="18463506"/>
    <nd ref="18464079"/>
    <tag k="highway" v="residential"/>
    <tag k="name" v="Lander Street"/>
  </way>
  <way id="3727020" version="2" timestamp="2007-10-16T09:57:54Z" uid="7617" user="Franc" changeset="200414">
    <nd ref="18464097"/>
    <nd ref="18464098"/>
    <nd ref="18464102"/>
    <nd ref="18464116"/>
    <nd ref="18464106"/>
    <nd ref="18464109"/>
    <nd ref="18463534"/>
    <nd ref="18464080"/>
    <nd ref="18464091"/>
    <tag k="abutters" v="residential"/>
    <tag k="created_by" v="JOSM"/>
    <tag k="highway" v="residential"/>
    <tag k="name" v="Boundary Street"/>
  </way>
  <way id="3727020" version="3" timestamp="2007-10-31T03:51:34Z" uid="7617" user="Franc" changeset="365765">
    <nd ref="18464097"/>
    <nd ref="93293003"/>
    <nd ref="18464098"/>
    <nd ref="18464102"/>
    <nd ref="18464116"/>
    <nd ref="18464106"/>
    <nd ref="18464109"/>
    <nd ref="18463534"/>
    <nd ref="18464080"/>
    <nd ref="18464091"/>
    <tag k="abutters" v="residential"/>
    <tag k="created_by" v="JOSM"/>
    <tag k="highway" v="residential"/>
    <tag k="name" v="Boundary Street"/>
  </way>
  <way id="3727020" version="4" timestamp="2009-11-14T12:08:21Z" uid="117890" user="Jonathan Trott" changeset="3112508">
    <nd ref="18464097"/>
    <nd ref="93293003"/>
    <nd ref="18464098"/>
    <nd ref="18464102"/>
    <nd ref="18464116"/>
    <nd ref="18464106"/>
    <nd ref="18464109"/>
    <nd ref="18463534"/>
    <nd ref="18464080"/>
    <nd ref="18464091"/>
    <tag k="abutters" v="residential"/>
    <tag k="highway" v="residential"/>
    <tag k="name" v="Boundary Street"/>
  </way>
  <way id="3727020" version="5" timestamp="2009-12-03T10:48:45Z" uid="7617" user="Franc" changeset="3279510">
    <nd ref="18464097"/>
    <nd ref="18464098"/>
    <nd ref="579444641"/>
    <nd ref="18464102"/>
    <nd ref="18464116"/>
    <nd ref="18464106"/>
    <nd ref="18464109"/>
    <nd ref="18463534"/>
    <nd ref="18464080"/>
    <nd ref="18464091"/>
    <tag k="abutters" v="residential"/>
    <tag k="highway" v="residential"/>
    <tag k="name" v="Boundary Street"/>
  </way>
  <way id="3727020" version="6" timestamp="2009-12-24T10:27:51Z" uid="30201" user="rrankin" changeset="3440994">
    <nd ref="18464097"/>
    <nd ref="18464098"/>
    <nd ref="579444641"/>
    <nd ref="18464102"/>
    <nd ref="18464116"/>
    <nd ref="18464106"/>
    <nd ref="18464109"/>
    <nd ref="18463534"/>
    <nd ref="18464080"/>
    <nd ref="18464091"/>
    <tag k="highway" v="residential"/>
    <tag k="name" v="Boundary Street"/>
  </way>
  <way id="3727020" version="7" timestamp="2010-07-07T22:09:49Z" uid="74617" user="JohnSmith" changeset="5161069">
    <nd ref="18464097"/>
    <nd ref="18464098"/>
    <nd ref="579444641"/>
    <nd ref="18464102"/>
    <nd ref="18464116"/>
    <nd ref="18464106"/>
    <nd ref="18464109"/>
    <nd ref="18463534"/>
    <nd ref="18464080"/>
    <nd ref="18464091"/>
    <tag k="highway" v="residential"/>
    <tag k="maxspeed" v="50"/>
    <tag k="maxspeed:source" v="default residential speed limit in Australia"/>
    <tag k="name" v="Boundary Street"/>
  </way>
  <way id="3727020" version="8" timestamp="2010-08-31T09:40:34Z" uid="7617" user="Franc" changeset="5643767">
    <nd ref="18464097"/>
    <nd ref="18464098"/>
    <nd ref="579444641"/>
    <nd ref="18464102"/>
    <nd ref="18464116"/>
    <nd ref="18464106"/>
    <nd ref="18464109"/>
    <nd ref="18463534"/>
    <nd ref="890193107"/>
    <nd ref="18464091"/>
    <tag k="highway" v="residential"/>
    <tag k="maxspeed" v="50"/>
    <tag k="maxspeed:source" v="default residential speed limit in Australia"/>
    <tag k="name" v="Boundary Street"/>
  </way>
  <way id="3727020" version="9" timestamp="2010-10-23T02:44:23Z" uid="7617" user="Franc" changeset="6141823">
    <nd ref="18464097"/>
    <nd ref="961054478"/>
    <nd ref="18464098"/>
    <nd ref="579444641"/>
    <nd ref="18464102"/>
    <nd ref="18464116"/>
    <nd ref="18464106"/>
    <nd ref="18464109"/>
    <nd ref="18463534"/>
    <nd ref="890193107"/>
    <nd ref="18464091"/>
    <tag k="highway" v="residential"/>
    <tag k="maxspeed" v="50"/>
    <tag k="maxspeed:source" v="default residential speed limit in Australia"/>
    <tag k="name" v="Boundary Street"/>
  </way>
  <way id="3727020" version="10" timestamp="2011-03-07T17:11:14Z" uid="47419" user="ploppy" changeset="7486260">
    <nd ref="18464097"/>
    <nd ref="961054478"/>
    <nd ref="18464098"/>
    <tag k="highway" v="residential"/>
    <tag k="maxspeed" v="50"/>
    <tag k="maxspeed:source" v="default residential speed limit in Australia"/>
    <tag k="name" v="Boundary Street"/>
    <tag k="oneway" v="yes"/>
  </way>
  <way id="3727020" version="11" timestamp="2012-01-08T02:34:21Z" uid="147510" user="woodpeck_fixbot" changeset="10327743">
    <nd ref="18464097"/>
    <nd ref="961054478"/>
    <nd ref="18464098"/>
    <tag k="highway" v="residential"/>
    <tag k="name" v="Boundary Street"/>
    <tag k="oneway" v="yes"/>
  </way>
  <way id="3727038" version="3" timestamp="2009-12-03T10:48:46Z" uid="7617" user="Franc" changeset="3279510">
    <nd ref="18464092"/>
    <nd ref="579444638"/>
    <nd ref="18464102"/>
    <tag k="abutters" v="residential"/>
    <tag k="highway" v="residential"/>
    <tag k="name" v="Vine Street"/>
  </way>
  <way id="3727038" version="4" timestamp="2009-12-24T10:27:51Z" uid="30201" user="rrankin" changeset="3440994">
    <nd ref="18464092"/>
    <nd ref="579444638"/>
    <nd ref="18464102"/>
    <tag k="highway" v="residential"/>
    <tag k="name" v="Vine Street"/>
  </way>
  <way id="3727038" version="5" timestamp="2010-06-24T10:32:05Z" uid="7617" user="Franc" changeset="5065038">
    <nd ref="18464092"/>
    <nd ref="786898335"/>
    <nd ref="579444638"/>
    <nd ref="18464102"/>
    <tag k="highway" v="residential"/>
    <tag k="name" v="Vine Street"/>
  </way>
  <way id="3727038" version="6" timestamp="2010-07-07T22:10:00Z" uid="74617" user="JohnSmith" changeset="5161069">
    <nd ref="18464092"/>
    <nd ref="786898335"/>
    <nd ref="579444638"/>
    <nd ref="18464102"/>
    <tag k="highway" v="residential"/>
    <tag k="maxspeed" v="50"/>
    <tag k="maxspeed:source" v="default residential speed limit in Australia"/>
    <tag k="name" v="Vine Street"/>
  </way>
  <way id="3727038" version="7" timestamp="2012-01-08T02:34:22Z" uid="147510" user="woodpeck_fixbot" changeset="10327743">
    <nd ref="18464092"/>
    <nd ref="786898335"/>
    <nd ref="579444638"/>
    <nd ref="18464102"/>
    <tag k="highway" v="residential"/>
    <tag k="name" v="Vine Street"/>
  </way>
  <way id="3727040" version="2" timestamp="2007-10-16T09:57:54Z" uid="7617" user="Franc" changeset="200414">
    <nd ref="15158952"/>
    <nd ref="18464079"/>
    <nd ref="18464318"/>
    <nd ref="18464091"/>
    <nd ref="18464082"/>
    <nd ref="18464112"/>
    <nd ref="18464092"/>
    <nd ref="17850378"/>
    <tag k="created_by" v="JOSM"/>
    <tag k="highway" v="unclassified"/>
    <tag k="name" v="Shepherd Street"/>
  </way>
  <way id="3727040" version="3" timestamp="2008-02-27T12:28:26Z" uid="7617" user="Franc" changeset="216849">
    <nd ref="15158952"/>
    <nd ref="18464079"/>
    <nd ref="249454647"/>
    <nd ref="18464318"/>
    <nd ref="18464091"/>
    <nd ref="18464082"/>
    <nd ref="18464112"/>
    <nd ref="18464092"/>
    <nd ref="17850378"/>
    <tag k="created_by" v="JOSM"/>
    <tag k="highway" v="unclassified"/>
    <tag k="name" v="Shepherd Street"/>
  </way>
  <way id="3727040" version="4" timestamp="2008-08-21T12:25:54Z" uid="7617" user="Franc" changeset="355023">
    <nd ref="15158952"/>
    <nd ref="18464079"/>
    <nd ref="289896855"/>
    <nd ref="249454647"/>
    <nd ref="18464318"/>
    <nd ref="18464091"/>
    <nd ref="18464082"/>
    <nd ref="18464112"/>
    <nd ref="18464092"/>
    <nd ref="17850378"/>
    <tag k="created_by" v="JOSM"/>
    <tag k="highway" v="unclassified"/>
    <tag k="name" v="Shepherd Street"/>
  </way>
  <way id="3727040" version="5" timestamp="2008-11-22T01:05:59Z" uid="20949" user="Ebenezer" changeset="779243">
    <nd ref="15158952"/>
    <nd ref="18464079"/>
    <nd ref="289896855"/>
    <nd ref="249454647"/>
    <nd ref="18464318"/>
    <nd ref="18464091"/>
    <nd ref="18464082"/>
    <nd ref="18464112"/>
    <nd ref="18464092"/>
    <nd ref="17850378"/>
    <tag k="created_by" v="Potlatch 0.10f"/>
    <tag k="highway" v="residential"/>
    <tag k="lcn" v="yes"/>
    <tag k="name" v="Shepherd Street"/>
  </way>
  <way id="3727040" version="6" timestamp="2009-08-16T07:12:34Z" uid="7617" user="Franc" changeset="2160817">
    <nd ref="15158952"/>
    <nd ref="18464079"/>
    <nd ref="289896855"/>
    <nd ref="249454647"/>
    <nd ref="18464318"/>
    <nd ref="469089295"/>
    <nd ref="18464091"/>
    <nd ref="18464082"/>
    <nd ref="18464112"/>
    <nd ref="18464092"/>
    <nd ref="17850378"/>
    <tag k="created_by" v="Potlatch 0.10f"/>
    <tag k="highway" v="residential"/>
    <tag k="lcn" v="yes"/>
    <tag k="name" v="Shepherd Street"/>
  </way>
  <way id="3727040" version="7" timestamp="2009-11-14T12:05:48Z" uid="117890" user="Jonathan Trott" changeset="3112508">
    <nd ref="15158952"/>
    <nd ref="18464079"/>
    <nd ref="289896855"/>
    <nd ref="249454647"/>
    <nd ref="18464318"/>
    <nd ref="469089295"/>
    <nd ref="18464091"/>
    <nd ref="18464082"/>
    <nd ref="18464112"/>
    <nd ref="18464092"/>
    <nd ref="17850378"/>
    <tag k="highway" v="residential"/>
    <tag k="lcn" v="yes"/>
    <tag k="name" v="Shepherd Street"/>
  </way>
  <way id="3727040" version="8" timestamp="2010-07-07T22:11:48Z" uid="74617" user="JohnSmith" changeset="5161069">
    <nd ref="15158952"/>
    <nd ref="18464079"/>
    <nd ref="289896855"/>
    <nd ref="249454647"/>
    <nd ref="18464318"/>
    <nd ref="469089295"/>
    <nd ref="18464091"/>
    <nd ref="18464082"/>
    <nd ref="18464112"/>
    <nd ref="18464092"/>
    <nd ref="17850378"/>
    <tag k="highway" v="residential"/>
    <tag k="lcn" v="yes"/>
    <tag k="maxspeed" v="50"/>
    <tag k="maxspeed:source" v="default residential speed limit in Australia"/>
    <tag k="name" v="Shepherd Street"/>
  </way>
  <way id="3727040" version="9" timestamp="2010-08-31T09:40:33Z" uid="7617" user="Franc" changeset="5643767">
    <nd ref="15158952"/>
    <nd ref="18464079"/>
    <nd ref="289896855"/>
    <nd ref="249454647"/>
    <nd ref="18464318"/>
    <nd ref="469089295"/>
    <nd ref="18464091"/>
    <nd ref="890193110"/>
    <nd ref="18464082"/>
    <nd ref="18464112"/>
    <nd ref="890193120"/>
    <nd ref="18464092"/>
    <nd ref="17850378"/>
    <tag k="highway" v="residential"/>
    <tag k="lcn" v="yes"/>
    <tag k="maxspeed" v="50"/>
    <tag k="maxspeed:source" v="default residential speed limit in Australia"/>
    <tag k="name" v="Shepherd Street"/>
  </way>
  <way id="3727040" version="10" timestamp="2010-10-23T02:44:20Z" uid="7617" user="Franc" changeset="6141823">
    <nd ref="15158952"/>
    <nd ref="18464079"/>
    <nd ref="249454647"/>
    <nd ref="18464318"/>
    <nd ref="469089295"/>
    <nd ref="18464091"/>
    <nd ref="890193110"/>
    <nd ref="18464082"/>
    <nd ref="18464112"/>
    <nd ref="961054443"/>
    <nd ref="890193120"/>
    <nd ref="18464092"/>
    <nd ref="17850378"/>
    <tag k="highway" v="residential"/>
    <tag k="lcn" v="yes"/>
    <tag k="maxspeed" v="50"/>
    <tag k="maxspeed:source" v="default residential speed limit in Australia"/>
    <tag k="name" v="Shepherd Street"/>
  </way>
  <way id="3727040" version="11" timestamp="2011-06-11T00:58:23Z" uid="20949" user="Ebenezer" changeset="8402156">
    <nd ref="15158952"/>
    <nd ref="18464079"/>
    <nd ref="1319621116"/>
    <nd ref="249454647"/>
    <nd ref="18464318"/>
    <nd ref="469089295"/>
    <nd ref="18464091"/>
    <nd ref="890193110"/>
    <nd ref="18464082"/>
    <nd ref="18464112"/>
    <nd ref="961054443"/>
    <nd ref="890193120"/>
    <nd ref="18464092"/>
    <nd ref="17850378"/>
    <tag k="highway" v="residential"/>
    <tag k="lcn" v="yes"/>
    <tag k="maxspeed" v="50"/>
    <tag k="maxspeed:source" v="default residential speed limit in Australia"/>
    <tag k="name" v="Shepherd Street"/>
  </way>
  <way id="3727040" version="12" timestamp="2012-01-08T02:34:23Z" uid="147510" user="woodpeck_fixbot" changeset="10327743">
    <nd ref="15158952"/>
    <nd ref="18464079"/>
    <nd ref="1319621116"/>
    <nd ref="249454647"/>
    <nd ref="18464318"/>
    <nd ref="469089295"/>
    <nd ref="18464091"/>
    <nd ref="890193110"/>
    <nd ref="18464082"/>
    <nd ref="18464112"/>
    <nd ref="961054443"/>
    <nd ref="890193120"/>
    <nd ref="18464092"/>
    <nd ref="17850378"/>
    <tag k="highway" v="residential"/>
    <tag k="lcn" v="yes"/>
    <tag k="name" v="Shepherd Street"/>
  </way>
  <way id="3727040" version="13" timestamp="2012-01-12T22:39:17Z" uid="7523" user="inas" changeset="10374433"/>
  <way id="3727041" version="3" timestamp="2010-08-31T09:40:35Z" uid="7617" user="Franc" changeset="5643767"/>
  <way id="3727047" version="3" timestamp="2009-12-24T10:27:49Z" uid="30201" user="rrankin" changeset="3440994">
    <nd ref="18464318"/>
    <nd ref="18463521"/>
    <nd ref="15158966"/>
    <tag k="highway" v="residential"/>
    <tag k="name" v="Calder Road"/>
  </way>
  <way id="3727047" version="4" timestamp="2010-07-07T22:11:09Z" uid="74617" user="JohnSmith" changeset="5161069">
    <nd ref="18464318"/>
    <nd ref="18463521"/>
    <nd ref="15158966"/>
    <tag k="highway" v="residential"/>
    <tag k="maxspeed" v="50"/>
    <tag k="maxspeed:source" v="default residential speed limit in Australia"/>
    <tag k="name" v="Calder Road"/>
  </way>
  <way id="3727047" version="5" timestamp="2012-01-08T02:34:25Z" uid="147510" user="woodpeck_fixbot" changeset="10327743">
    <nd ref="18464318"/>
    <nd ref="18463521"/>
    <nd ref="15158966"/>
    <tag k="highway" v="residential"/>
    <tag k="name" v="Calder Road"/>
  </way>
  <way id="3727050" version="1" timestamp="2007-09-15T13:31:28Z" uid="7617" user="Franc" changeset="437118">
    <nd ref="18464343"/>
    <nd ref="52071336"/>
    <nd ref="52071325"/>
    <nd ref="52071332"/>
    <nd ref="18464349"/>
    <tag k="created_by" v="Potlatch alpha"/>
    <tag k="highway" v="unclassified"/>
    <tag k="name" v="Daniels Street"/>
  </way>
  <way id="3727050" version="2" timestamp="2009-11-14T12:08:27Z" uid="117890" user="Jonathan Trott" changeset="3112508">
    <nd ref="18464343"/>
    <nd ref="52071336"/>
    <nd ref="52071325"/>
    <nd ref="52071332"/>
    <nd ref="18464349"/>
    <tag k="highway" v="unclassified"/>
    <tag k="name" v="Daniels Street"/>
  </way>
  <way id="3727050" version="3" timestamp="2010-04-25T07:08:06Z" uid="7617" user="Franc" changeset="4518185">
    <nd ref="18464343"/>
    <nd ref="705792120"/>
    <nd ref="52071336"/>
    <nd ref="52071325"/>
    <nd ref="52071332"/>
    <nd ref="18464349"/>
    <tag k="highway" v="unclassified"/>
    <tag k="name" v="Daniels Street"/>
  </way>
  <way id="3727050" version="4" timestamp="2012-03-06T04:05:17Z" uid="602082" user="mvmaps" changeset="10886673">
    <nd ref="18464343"/>
    <nd ref="705792120"/>
    <nd ref="52071336"/>
    <nd ref="52071325"/>
    <nd ref="52071332"/>
    <nd ref="1661813655"/>
    <tag k="highway" v="unclassified"/>
    <tag k="name" v="Daniels Street"/>
  </way>
  <way id="3727194" version="1" timestamp="2007-05-11T23:50:22Z" uid="7617" user="Franc" changeset="45507">
    <nd ref="18464722"/>
    <nd ref="18464749"/>
    <nd ref="18464738"/>
    <nd ref="18464776"/>
    <nd ref="18464722"/>
    <tag k="created_by" v="JOSM"/>
    <tag k="cycleway" v="lane"/>
    <tag k="highway" v="unclassified"/>
  </way>
  <way id="3727194" version="2" timestamp="2007-12-23T22:53:33Z" uid="7617" user="Franc" changeset="404616"/>
  <way id="3727196" version="1" timestamp="2007-05-11T23:43:01Z" uid="7617" user="Franc" changeset="45507">
    <nd ref="18464776"/>
    <nd ref="26359829"/>
    <tag k="created_by" v="JOSM"/>
    <tag k="highway" v="unclassified"/>
    <tag k="name" v="Queen Street"/>
  </way>
  <way id="3727196" version="2" timestamp="2007-12-23T22:53:31Z" uid="7617" user="Franc" changeset="404616"/>
  <way id="3727198" version="1" timestamp="2007-05-11T23:43:00Z" uid="7617" user="Franc" changeset="45507">
    <nd ref="15446505"/>
    <nd ref="26359819"/>
    <nd ref="18464817"/>
    <tag k="created_by" v="JOSM"/>
    <tag k="highway" v="unclassified"/>
    <tag k="name" v="Morley Avenue"/>
  </way>
  <way id="3727198" version="2" timestamp="2007-12-23T22:53:17Z" uid="7617" user="Franc" changeset="404616">
    <nd ref="186154687"/>
    <nd ref="26359819"/>
    <nd ref="186154650"/>
    <nd ref="57944039"/>
    <nd ref="18464849"/>
    <tag k="created_by" v="JOSM"/>
    <tag k="highway" v="unclassified"/>
    <tag k="name" v="Morley Avenue"/>
  </way>
  <way id="3727198" version="3" timestamp="2009-12-28T00:51:19Z" uid="12203" user="brainwad" changeset="3468245">
    <nd ref="186154687"/>
    <nd ref="26359819"/>
    <nd ref="186154650"/>
    <nd ref="57944039"/>
    <nd ref="18464849"/>
    <tag k="highway" v="unclassified"/>
    <tag k="maxspeed" v="40"/>
    <tag k="name" v="Morley Avenue"/>
    <tag k="note" v="Roseberry 40 zone"/>
  </way>
  <way id="3727198" version="4" timestamp="2010-01-30T06:10:55Z" uid="30201" user="rrankin" changeset="3748418">
    <nd ref="622831973"/>
    <nd ref="26359819"/>
    <nd ref="622831986"/>
    <tag k="highway" v="unclassified"/>
    <tag k="maxspeed" v="40"/>
    <tag k="name" v="Morley Avenue"/>
    <tag k="note" v="Roseberry 40 zone"/>
  </way>
  <way id="3727202" version="1" timestamp="2007-05-11T23:43:01Z" uid="7617" user="Franc" changeset="45507">
    <nd ref="18464819"/>
    <nd ref="26359820"/>
    <nd ref="15446520"/>
    <tag k="created_by" v="JOSM"/>
    <tag k="highway" v="unclassified"/>
    <tag k="name" v="Hayes Road"/>
  </way>
  <way id="3727202" version="2" timestamp="2007-12-23T22:53:34Z" uid="7617" user="Franc" changeset="404616"/>
  <way id="3727239" version="1" timestamp="2007-09-22T13:38:52Z" uid="7617" user="Franc" changeset="496029">
    <nd ref="18465408"/>
    <nd ref="26359800"/>
    <nd ref="18464720"/>
    <tag k="created_by" v="JOSM"/>
    <tag k="highway" v="residential"/>
    <tag k="name" v="Tweedmouth Avenue"/>
    <tag k="source:name" v="survey"/>
  </way>
  <way id="3727239" version="2" timestamp="2009-12-28T00:51:17Z" uid="12203" user="brainwad" changeset="3468245">
    <nd ref="18465408"/>
    <nd ref="26359800"/>
    <nd ref="18464720"/>
    <tag k="highway" v="residential"/>
    <tag k="maxspeed" v="40"/>
    <tag k="name" v="Tweedmouth Avenue"/>
    <tag k="note" v="Roseberry 40 zone"/>
    <tag k="source:name" v="survey"/>
  </way>
  <way id="3727241" version="2" timestamp="2007-12-19T19:41:05Z" uid="7617" user="Franc" changeset="363349">
    <nd ref="178855304"/>
    <nd ref="26360062"/>
    <nd ref="18465435"/>
    <nd ref="18465418"/>
    <tag k="abutters" v="industrial"/>
    <tag k="created_by" v="JOSM"/>
    <tag k="highway" v="unclassified"/>
    <tag k="name" v="Merchant Street"/>
  </way>
  <way id="3727241" version="3" timestamp="2008-02-15T00:30:47Z" uid="7617" user="Franc" changeset="122829">
    <nd ref="178855304"/>
    <nd ref="247701820"/>
    <nd ref="26360062"/>
    <nd ref="18465435"/>
    <nd ref="18465418"/>
    <tag k="abutters" v="industrial"/>
    <tag k="created_by" v="JOSM"/>
    <tag k="highway" v="unclassified"/>
    <tag k="name" v="Merchant Street"/>
  </way>
  <way id="3727241" version="4" timestamp="2008-03-22T13:27:30Z" uid="7617" user="Franc" changeset="371117">
    <nd ref="178855304"/>
    <nd ref="247701820"/>
    <nd ref="26360062"/>
    <nd ref="18465435"/>
    <nd ref="253328965"/>
    <nd ref="18465418"/>
    <tag k="abutters" v="industrial"/>
    <tag k="created_by" v="JOSM"/>
    <tag k="highway" v="unclassified"/>
    <tag k="name" v="Merchant Street"/>
  </way>
  <way id="3727241" version="5" timestamp="2008-03-22T13:36:42Z" uid="7617" user="Franc" changeset="371117">
    <nd ref="178855304"/>
    <nd ref="247701820"/>
    <nd ref="26360062"/>
    <nd ref="18465435"/>
    <tag k="abutters" v="industrial"/>
    <tag k="created_by" v="JOSM"/>
    <tag k="highway" v="unclassified"/>
    <tag k="name" v="Merchant Street"/>
  </way>
  <way id="3727241" version="6" timestamp="2009-05-16T21:33:25Z" uid="7617" user="Franc" changeset="1215953">
    <nd ref="178855304"/>
    <nd ref="247701820"/>
    <nd ref="26360062"/>
    <nd ref="401909986"/>
    <nd ref="18465435"/>
    <tag k="abutters" v="industrial"/>
    <tag k="created_by" v="JOSM"/>
    <tag k="highway" v="unclassified"/>
    <tag k="name" v="Merchant Street"/>
  </way>
  <way id="3727241" version="7" timestamp="2009-12-10T02:31:08Z" uid="30201" user="rrankin" changeset="3338883">
    <nd ref="178855304"/>
    <nd ref="247701820"/>
    <nd ref="26360062"/>
    <nd ref="401909986"/>
    <nd ref="18465435"/>
    <tag k="highway" v="unclassified"/>
    <tag k="name" v="Merchant Street"/>
  </way>
  <way id="3727241" version="8" timestamp="2009-12-28T00:51:12Z" uid="12203" user="brainwad" changeset="3468245">
    <nd ref="178855304"/>
    <nd ref="247701820"/>
    <nd ref="26360062"/>
    <nd ref="401909986"/>
    <nd ref="18465435"/>
    <tag k="highway" v="unclassified"/>
    <tag k="maxspeed" v="50"/>
    <tag k="name" v="Merchant Street"/>
  </way>
  <way id="3727241" version="9" timestamp="2010-01-26T05:37:32Z" uid="7617" user="Franc" changeset="3716724">
    <nd ref="178855304"/>
    <nd ref="247701820"/>
    <nd ref="620372404"/>
    <tag k="highway" v="unclassified"/>
    <tag k="maxspeed" v="50"/>
    <tag k="name" v="Merchant Street"/>
  </way>
  <way id="3727242" version="2" timestamp="2008-03-22T13:36:39Z" uid="7617" user="Franc" changeset="371117">
    <nd ref="18465418"/>
    <nd ref="253330249"/>
    <nd ref="18465423"/>
    <nd ref="18465440"/>
    <tag k="abutters" v="industrial"/>
    <tag k="created_by" v="JOSM"/>
    <tag k="highway" v="unclassified"/>
    <tag k="name" v="Bronti Street"/>
  </way>
  <way id="3727242" version="3" timestamp="2009-12-10T02:31:09Z" uid="30201" user="rrankin" changeset="3338883">
    <nd ref="18465418"/>
    <nd ref="253330249"/>
    <nd ref="18465423"/>
    <nd ref="18465440"/>
    <tag k="highway" v="unclassified"/>
    <tag k="name" v="Bronti Street"/>
  </way>
  <way id="3727242" version="4" timestamp="2010-11-20T22:12:39Z" uid="7617" user="Franc" changeset="6418560">
    <nd ref="18465418"/>
    <nd ref="18465423"/>
    <nd ref="18465440"/>
    <tag k="highway" v="unclassified"/>
    <tag k="name" v="Bronti Street"/>
  </way>
  <way id="3727242" version="5" timestamp="2011-03-20T02:49:42Z" uid="7617" user="Franc" changeset="7612358">
    <nd ref="18465418"/>
    <nd ref="18465423"/>
    <nd ref="1210013678"/>
    <tag k="highway" v="unclassified"/>
    <tag k="name" v="Bronti Street"/>
  </way>
  <way id="3727243" version="2" timestamp="2008-03-22T13:27:29Z" uid="7617" user="Franc" changeset="371117">
    <nd ref="18465423"/>
    <nd ref="18465427"/>
    <nd ref="253328955"/>
    <tag k="abutters" v="industrial"/>
    <tag k="created_by" v="JOSM"/>
    <tag k="highway" v="classified"/>
    <tag k="name" v="Beresford Street"/>
  </way>
  <way id="3727243" version="3" timestamp="2008-03-22T13:36:40Z" uid="7617" user="Franc" changeset="371117">
    <nd ref="18465423"/>
    <nd ref="253328955"/>
    <tag k="abutters" v="industrial"/>
    <tag k="created_by" v="JOSM"/>
    <tag k="highway" v="classified"/>
    <tag k="name" v="Beresford Street"/>
  </way>
  <way id="3727243" version="4" timestamp="2008-05-19T03:18:23Z" uid="17425" user="jackb" changeset="477315">
    <nd ref="18465423"/>
    <nd ref="253328955"/>
    <tag k="abutters" v="industrial"/>
    <tag k="created_by" v="JOSM"/>
    <tag k="highway" v="unclassified"/>
    <tag k="name" v="Beresford Street"/>
  </way>
  <way id="3727243" version="5" timestamp="2009-02-03T11:06:38Z" uid="7617" user="Franc" changeset="101319">
    <nd ref="18465423"/>
    <nd ref="340185276"/>
    <tag k="abutters" v="industrial"/>
    <tag k="created_by" v="JOSM"/>
    <tag k="highway" v="unclassified"/>
    <tag k="name" v="Beresford Street"/>
  </way>
  <way id="3727243" version="6" timestamp="2009-05-16T23:03:34Z" uid="7617" user="Franc" changeset="1216464">
    <nd ref="18465423"/>
    <nd ref="340185276"/>
    <tag k="abutters" v="industrial"/>
    <tag k="created_by" v="JOSM"/>
    <tag k="highway" v="unclassified"/>
    <tag k="name" v="Beresford Street"/>
    <tag k="source" v="survey"/>
  </way>
  <way id="3727243" version="7" timestamp="2009-12-10T02:31:09Z" uid="30201" user="rrankin" changeset="3338883">
    <nd ref="18465423"/>
    <nd ref="340185276"/>
    <tag k="highway" v="unclassified"/>
    <tag k="name" v="Beresford Street"/>
    <tag k="source" v="survey"/>
  </way>
  <way id="3727258" version="1" timestamp="2007-09-08T03:10:10Z" uid="7617" user="Franc" changeset="386336">
    <nd ref="18465623"/>
    <nd ref="18465642"/>
    <tag k="created_by" v="JOSM"/>
    <tag k="highway" v="motorway_link"/>
    <tag k="oneway" v="yes"/>
  </way>
  <way id="3727258" version="2" timestamp="2009-10-20T04:42:53Z" uid="117890" user="Jonathan Trott" changeset="2899867">
    <nd ref="18465623"/>
    <nd ref="18465642"/>
    <tag k="highway" v="motorway_link"/>
    <tag k="oneway" v="yes"/>
  </way>
  <way id="3727258" version="3" timestamp="2009-12-27T03:35:15Z" uid="12203" user="brainwad" changeset="3460027">
    <nd ref="18465623"/>
    <nd ref="18465642"/>
    <tag k="highway" v="motorway_link"/>
    <tag k="maxspeed" v="70"/>
    <tag k="oneway" v="yes"/>
  </way>
  <way id="3727258" version="4" timestamp="2010-12-11T11:01:54Z" uid="67896" user="mrpulley" changeset="6621333">
    <nd ref="18465623"/>
    <nd ref="18465642"/>
    <tag k="highway" v="motorway_link"/>
    <tag k="maxspeed" v="70"/>
    <tag k="oneway" v="yes"/>
    <tag k="surface" v="asphalt"/>
  </way>
  <way id="3727258" version="5" timestamp="2011-02-11T08:31:08Z" uid="389517" user="good2010" changeset="7252878">
    <nd ref="18465623"/>
    <nd ref="1146889289"/>
    <nd ref="18465642"/>
    <tag k="highway" v="motorway_link"/>
    <tag k="maxspeed" v="70"/>
    <tag k="oneway" v="yes"/>
    <tag k="surface" v="asphalt"/>
  </way>
  <way id="3727258" version="6" timestamp="2011-02-11T10:29:19Z" uid="389517" user="good2010" changeset="7253771">
    <nd ref="18465623"/>
    <nd ref="1146889289"/>
    <nd ref="18465642"/>
    <tag k="highway" v="motorway_link"/>
    <tag k="maxspeed" v="70"/>
    <tag k="oneway" v="yes"/>
    <tag k="source" v="neamap"/>
    <tag k="surface" v="asphalt"/>
  </way>
  <way id="3727258" version="7" timestamp="2011-02-14T00:03:45Z" uid="389517" user="good2010" changeset="7282115">
    <nd ref="18465623"/>
    <nd ref="1146889289"/>
    <nd ref="18465642"/>
    <tag k="highway" v="motorway_link"/>
    <tag k="maxspeed" v="70"/>
    <tag k="oneway" v="yes"/>
    <tag k="source" v="nearmap"/>
    <tag k="surface" v="asphalt"/>
  </way>
  <way id="3727259" version="3" timestamp="2008-03-08T11:51:51Z" uid="7617" user="Franc" changeset="286745">
    <nd ref="26452885"/>
    <nd ref="45996025"/>
    <nd ref="45995952"/>
    <nd ref="26448255"/>
    <nd ref="26448256"/>
    <nd ref="45995973"/>
    <nd ref="26448257"/>
    <nd ref="18465652"/>
    <nd ref="251119864"/>
    <nd ref="45996281"/>
    <nd ref="46010804"/>
    <nd ref="134311963"/>
    <nd ref="18465648"/>
    <nd ref="31485170"/>
    <nd ref="31485172"/>
    <nd ref="31485174"/>
    <nd ref="26359921"/>
    <nd ref="26359922"/>
    <nd ref="31485150"/>
    <nd ref="26359923"/>
    <nd ref="31485161"/>
    <tag k="created_by" v="Potlatch 0.5d"/>
    <tag k="highway" v="secondary"/>
    <tag k="name" v="Page Street"/>
  </way>
  <way id="3727259" version="4" timestamp="2009-12-27T03:35:13Z" uid="12203" user="brainwad" changeset="3460027">
    <nd ref="26452885"/>
    <nd ref="45996025"/>
    <nd ref="45995952"/>
    <nd ref="26448255"/>
    <nd ref="26448256"/>
    <nd ref="45995973"/>
    <nd ref="26448257"/>
    <nd ref="18465652"/>
    <nd ref="251119864"/>
    <nd ref="45996281"/>
    <nd ref="46010804"/>
    <nd ref="134311963"/>
    <nd ref="18465648"/>
    <nd ref="31485170"/>
    <nd ref="31485172"/>
    <nd ref="31485174"/>
    <nd ref="26359921"/>
    <nd ref="26359922"/>
    <nd ref="31485150"/>
    <nd ref="26359923"/>
    <nd ref="31485161"/>
    <tag k="highway" v="secondary"/>
    <tag k="maxspeed" v="50"/>
    <tag k="name" v="Page Street"/>
  </way>
  <way id="3727259" version="5" timestamp="2009-12-29T16:30:59Z" uid="12203" user="brainwad" changeset="3482747">
    <nd ref="26452885"/>
    <nd ref="45996025"/>
    <nd ref="45995952"/>
    <nd ref="26448255"/>
    <nd ref="26448256"/>
    <nd ref="45995973"/>
    <nd ref="600936057"/>
    <tag k="highway" v="secondary"/>
    <tag k="maxspeed" v="50"/>
    <tag k="name" v="Page Street"/>
  </way>
  <way id="3727259" version="6" timestamp="2010-01-26T05:37:32Z" uid="7617" user="Franc" changeset="3716724">
    <nd ref="26452885"/>
    <nd ref="45996025"/>
    <nd ref="45995952"/>
    <nd ref="620372377"/>
    <nd ref="26448255"/>
    <nd ref="26448256"/>
    <nd ref="45995973"/>
    <nd ref="600936057"/>
    <tag k="highway" v="secondary"/>
    <tag k="maxspeed" v="50"/>
    <tag k="name" v="Page Street"/>
  </way>
  <way id="3727259" version="7" timestamp="2010-05-14T14:15:36Z" uid="7617" user="Franc" changeset="4696518">
    <nd ref="26452885"/>
    <nd ref="45996025"/>
    <nd ref="45995952"/>
    <nd ref="620372377"/>
    <nd ref="734052067"/>
    <nd ref="26448255"/>
    <nd ref="26448256"/>
    <nd ref="45995973"/>
    <nd ref="734052069"/>
    <nd ref="600936057"/>
    <tag k="highway" v="secondary"/>
    <tag k="maxspeed" v="50"/>
    <tag k="name" v="Page Street"/>
  </way>
  <way id="3727318" version="7" timestamp="2010-04-17T23:09:18Z" uid="7617" user="Franc" changeset="4453295">
    <nd ref="134313317"/>
    <nd ref="18465660"/>
    <tag k="highway" v="secondary"/>
    <tag k="maxspeed" v="50"/>
    <tag k="name" v="Banks Avenue"/>
  </way>
  <way id="3727318" version="8" timestamp="2010-09-15T10:02:26Z" uid="79475" user="AlexOnTheBus" changeset="5785269">
    <nd ref="134313317"/>
    <nd ref="18465660"/>
    <tag k="highway" v="primary"/>
    <tag k="maxspeed" v="50"/>
    <tag k="name" v="Banks Avenue"/>
  </way>
  <way id="3727363" version="6" timestamp="2007-12-18T12:22:59Z" uid="7617" user="Franc" changeset="352342">
    <nd ref="18465662"/>
    <nd ref="134311966"/>
    <nd ref="134319140"/>
    <nd ref="134318693"/>
    <nd ref="134318131"/>
    <nd ref="18466205"/>
    <nd ref="18466206"/>
    <tag k="abutters" v="industrial"/>
    <tag k="created_by" v="Potlatch 0.5d"/>
    <tag k="highway" v="primary"/>
    <tag k="name" v="Denison Avenue"/>
  </way>
  <way id="3727363" version="7" timestamp="2008-02-04T14:35:08Z" uid="12203" user="brainwad" changeset="37738">
    <nd ref="18465662"/>
    <nd ref="134311966"/>
    <nd ref="134319140"/>
    <nd ref="134318693"/>
    <nd ref="134318131"/>
    <nd ref="18466205"/>
    <nd ref="18466206"/>
    <tag k="abutters" v="industrial"/>
    <tag k="created_by" v="Potlatch 0.7"/>
    <tag k="highway" v="secondary"/>
    <tag k="name" v="Denison Avenue"/>
  </way>
  <way id="3727363" version="8" timestamp="2009-08-02T03:30:30Z" uid="7617" user="Franc" changeset="2009429">
    <nd ref="18465662"/>
    <nd ref="134311966"/>
    <nd ref="134319140"/>
    <nd ref="134318693"/>
    <nd ref="134318131"/>
    <nd ref="454043526"/>
    <nd ref="18466205"/>
    <nd ref="18466206"/>
    <tag k="abutters" v="industrial"/>
    <tag k="created_by" v="Potlatch 0.7"/>
    <tag k="highway" v="secondary"/>
    <tag k="name" v="Denison Avenue"/>
  </way>
  <way id="3727363" version="9" timestamp="2009-12-10T02:31:06Z" uid="30201" user="rrankin" changeset="3338883">
    <nd ref="18465662"/>
    <nd ref="134311966"/>
    <nd ref="134319140"/>
    <nd ref="134318693"/>
    <nd ref="134318131"/>
    <nd ref="454043526"/>
    <nd ref="18466205"/>
    <nd ref="18466206"/>
    <tag k="highway" v="secondary"/>
    <tag k="name" v="Denison Avenue"/>
  </way>
  <way id="3727363" version="10" timestamp="2009-12-27T03:35:14Z" uid="12203" user="brainwad" changeset="3460027">
    <nd ref="18465662"/>
    <nd ref="134311966"/>
    <nd ref="134319140"/>
    <nd ref="134318693"/>
    <nd ref="134318131"/>
    <nd ref="454043526"/>
    <nd ref="18466205"/>
    <nd ref="18466206"/>
    <tag k="highway" v="secondary"/>
    <tag k="maxspeed" v="60"/>
    <tag k="name" v="Denison Avenue"/>
  </way>
  <way id="3727363" version="11" timestamp="2010-09-15T10:01:56Z" uid="79475" user="AlexOnTheBus" changeset="5785269">
    <nd ref="18465662"/>
    <nd ref="134311966"/>
    <nd ref="134319140"/>
    <nd ref="134318693"/>
    <nd ref="134318131"/>
    <nd ref="454043526"/>
    <nd ref="18466205"/>
    <nd ref="18466206"/>
    <tag k="highway" v="primary"/>
    <tag k="maxspeed" v="60"/>
    <tag k="name" v="Denison Avenue"/>
  </way>
  <way id="3727379" version="1" timestamp="2007-08-21T09:05:23Z" uid="7617" user="Franc" changeset="238419">
    <nd ref="18466206"/>
    <nd ref="29707059"/>
    <nd ref="18466374"/>
    <nd ref="35429544"/>
    <nd ref="18466375"/>
    <nd ref="18466376"/>
    <nd ref="35429541"/>
    <nd ref="35429536"/>
    <nd ref="35429539"/>
    <nd ref="14758008"/>
    <nd ref="33474601"/>
    <tag k="created_by" v="Potlatch alpha"/>
    <tag k="highway" v="primary"/>
    <tag k="name" v="Beauchamp Road"/>
  </way>
  <way id="3727379" version="2" timestamp="2008-02-04T14:35:04Z" uid="12203" user="brainwad" changeset="37738">
    <nd ref="14759383"/>
    <nd ref="196320365"/>
    <nd ref="29707085"/>
    <nd ref="29706996"/>
    <nd ref="82266230"/>
    <nd ref="82266238"/>
    <nd ref="18466379"/>
    <nd ref="18466206"/>
    <nd ref="29707059"/>
    <nd ref="18466374"/>
    <nd ref="35429544"/>
    <nd ref="18466375"/>
    <nd ref="18466376"/>
    <nd ref="35429541"/>
    <nd ref="35429536"/>
    <nd ref="35429539"/>
    <nd ref="14758008"/>
    <nd ref="33474601"/>
    <tag k="created_by" v="Potlatch 0.7"/>
    <tag k="highway" v="secondary"/>
    <tag k="name" v="Beauchamp Road"/>
  </way>
  <way id="3727379" version="3" timestamp="2008-03-02T02:11:57Z" uid="7617" user="Franc" changeset="247531">
    <nd ref="14759383"/>
    <nd ref="196320365"/>
    <nd ref="29707085"/>
    <nd ref="29706996"/>
    <nd ref="82266230"/>
    <nd ref="82266238"/>
    <nd ref="18466379"/>
    <nd ref="18466206"/>
    <nd ref="29707059"/>
    <nd ref="249962869"/>
    <nd ref="18466374"/>
    <nd ref="35429544"/>
    <nd ref="18466375"/>
    <nd ref="18466376"/>
    <nd ref="35429541"/>
    <nd ref="35429536"/>
    <nd ref="35429539"/>
    <nd ref="14758008"/>
    <nd ref="33474601"/>
    <tag k="created_by" v="Potlatch 0.7"/>
    <tag k="highway" v="secondary"/>
    <tag k="name" v="Beauchamp Road"/>
  </way>
  <way id="3727379" version="4" timestamp="2009-08-02T03:30:29Z" uid="7617" user="Franc" changeset="2009429">
    <nd ref="14759383"/>
    <nd ref="196320365"/>
    <nd ref="29707085"/>
    <nd ref="29706996"/>
    <nd ref="82266230"/>
    <nd ref="82266238"/>
    <nd ref="18466379"/>
    <nd ref="454043541"/>
    <nd ref="18466206"/>
    <nd ref="29707059"/>
    <nd ref="249962869"/>
    <nd ref="18466374"/>
    <nd ref="35429544"/>
    <nd ref="18466375"/>
    <nd ref="18466376"/>
    <nd ref="35429541"/>
    <nd ref="35429536"/>
    <nd ref="35429539"/>
    <nd ref="14758008"/>
    <nd ref="33474601"/>
    <tag k="created_by" v="Potlatch 0.7"/>
    <tag k="highway" v="secondary"/>
    <tag k="name" v="Beauchamp Road"/>
  </way>
  <way id="3727379" version="5" timestamp="2009-12-27T03:35:15Z" uid="12203" user="brainwad" changeset="3460027">
    <nd ref="14759383"/>
    <nd ref="196320365"/>
    <nd ref="29707085"/>
    <nd ref="29706996"/>
    <nd ref="82266230"/>
    <nd ref="82266238"/>
    <nd ref="18466379"/>
    <nd ref="454043541"/>
    <nd ref="18466206"/>
    <nd ref="29707059"/>
    <nd ref="249962869"/>
    <nd ref="18466374"/>
    <nd ref="35429544"/>
    <nd ref="18466375"/>
    <nd ref="18466376"/>
    <nd ref="35429541"/>
    <nd ref="35429536"/>
    <nd ref="35429539"/>
    <nd ref="14758008"/>
    <nd ref="33474601"/>
    <tag k="highway" v="secondary"/>
    <tag k="maxspeed" v="60"/>
    <tag k="name" v="Beauchamp Road"/>
  </way>
  <way id="3727379" version="6" timestamp="2009-12-29T16:31:02Z" uid="12203" user="brainwad" changeset="3482747">
    <nd ref="14759383"/>
    <nd ref="196320365"/>
    <nd ref="29707085"/>
    <nd ref="29706996"/>
    <nd ref="82266230"/>
    <tag k="highway" v="secondary"/>
    <tag k="maxspeed" v="60"/>
    <tag k="maxspeed:(Mo-Fr 08:00-09:30,14:30-16:00)" v="40"/>
    <tag k="name" v="Beauchamp Road"/>
    <tag k="restriction" v="school_zone"/>
  </way>
  <way id="3727379" version="7" timestamp="2010-04-17T22:38:31Z" uid="7617" user="Franc" changeset="4453111">
    <nd ref="14759383"/>
    <nd ref="196320365"/>
    <nd ref="29707085"/>
    <nd ref="29706996"/>
    <nd ref="700401503"/>
    <tag k="highway" v="secondary"/>
    <tag k="maxspeed" v="60"/>
    <tag k="maxspeed:(Mo-Fr 08:00-09:30,14:30-16:00)" v="40"/>
    <tag k="name" v="Beauchamp Road"/>
    <tag k="restriction" v="school_zone"/>
  </way>
  <way id="3727379" version="8" timestamp="2011-12-06T10:30:26Z" uid="349913" user="Peter W34" changeset="10048706">
    <nd ref="14759383"/>
    <nd ref="196320365"/>
    <nd ref="29707085"/>
    <nd ref="29706996"/>
    <nd ref="700401503"/>
    <tag k="highway" v="secondary"/>
    <tag k="maxspeed" v="60"/>
    <tag k="maxspeed:restriction" v="40"/>
    <tag k="name" v="Beauchamp Road"/>
    <tag k="restriction" v="school_zone"/>
    <tag k="restriction_hours" v="Mo-Fr 08:00-09:30;14:30-16:00"/>
  </way>
  <way id="3727551" version="2" timestamp="2007-11-23T10:04:38Z" uid="7617" user="Franc" changeset="597185">
    <nd ref="18320669"/>
    <nd ref="18467460"/>
    <nd ref="18467461"/>
    <nd ref="18467462"/>
    <nd ref="130040463"/>
    <nd ref="18467466"/>
    <tag k="created_by" v="JOSM"/>
    <tag k="highway" v="unclassified"/>
    <tag k="oneway" v="yes"/>
  </way>
  <way id="3727551" version="3" timestamp="2008-12-31T23:29:41Z" uid="7617" user="Franc" changeset="694669">
    <nd ref="18320669"/>
    <nd ref="18467460"/>
    <nd ref="18467461"/>
    <nd ref="18467462"/>
    <nd ref="130040463"/>
    <nd ref="18467466"/>
    <tag k="created_by" v="JOSM"/>
    <tag k="highway" v="unclassified"/>
    <tag k="name" v="Cromwell Place"/>
    <tag k="oneway" v="yes"/>
    <tag k="source" v="survey"/>
  </way>
  <way id="3727551" version="4" timestamp="2009-03-12T09:38:41Z" uid="67896" user="mrpulley" changeset="796379">
    <nd ref="18320669"/>
    <nd ref="18467460"/>
    <tag k="created_by" v="Potlatch 0.10f"/>
    <tag k="highway" v="unclassified"/>
    <tag k="name" v="Cromwell Place"/>
    <tag k="oneway" v="yes"/>
    <tag k="source" v="survey"/>
  </way>
  <way id="3727551" version="5" timestamp="2010-01-22T12:30:26Z" uid="7617" user="Franc" changeset="3682744">
    <nd ref="18320669"/>
    <nd ref="618033416"/>
    <nd ref="18467460"/>
    <tag k="highway" v="unclassified"/>
    <tag k="name" v="Cromwell Place"/>
    <tag k="oneway" v="yes"/>
    <tag k="source" v="survey"/>
  </way>
  <way id="3727552" version="1" timestamp="2007-08-19T01:48:00Z" uid="7617" user="Franc" changeset="230016">
    <nd ref="18467509"/>
    <nd ref="18467526"/>
    <nd ref="18467511"/>
    <nd ref="18467466"/>
    <nd ref="18467491"/>
    <tag k="created_by" v="JOSM"/>
    <tag k="highway" v="unclassified"/>
    <tag k="name" v="Franklin Street"/>
  </way>
  <way id="3727552" version="2" timestamp="2009-12-29T16:31:06Z" uid="12203" user="brainwad" changeset="3482747">
    <nd ref="18467509"/>
    <nd ref="18467526"/>
    <nd ref="600936077"/>
    <tag k="highway" v="unclassified"/>
    <tag k="name" v="Franklin Street"/>
  </way>
  <way id="3727552" version="3" timestamp="2010-01-22T12:30:25Z" uid="7617" user="Franc" changeset="3682744">
    <nd ref="18467509"/>
    <nd ref="618033408"/>
    <nd ref="18467526"/>
    <nd ref="600936077"/>
    <tag k="highway" v="unclassified"/>
    <tag k="name" v="Franklin Street"/>
  </way>
  <way id="3727553" version="1" timestamp="2007-05-21T04:31:55Z" uid="7617" user="Franc" changeset="60129">
    <nd ref="18467481"/>
    <nd ref="18467513"/>
    <tag k="created_by" v="Potlatch alpha"/>
    <tag k="highway" v="service"/>
  </way>
  <way id="3727555" version="3" timestamp="2010-07-07T21:43:52Z" uid="74617" user="JohnSmith" changeset="5161069">
    <nd ref="18467511"/>
    <nd ref="18468993"/>
    <tag k="highway" v="residential"/>
    <tag k="maxspeed" v="50"/>
    <tag k="maxspeed:(Mo-Fr 08:00-09:30,14:30-16:00)" v="40"/>
    <tag k="maxspeed:source" v="default residential speed limit in Australia"/>
    <tag k="name" v="Victoria Street"/>
    <tag k="restriction" v="school_zone"/>
  </way>
  <way id="3727555" version="4" timestamp="2011-12-06T08:30:27Z" uid="349913" user="Peter W34" changeset="10047949">
    <nd ref="18467511"/>
    <nd ref="18468993"/>
    <tag k="highway" v="residential"/>
    <tag k="maxspeed" v="50"/>
    <tag k="maxspeed:restriction" v="40"/>
    <tag k="maxspeed:source" v="default residential speed limit in Australia"/>
    <tag k="name" v="Victoria Street"/>
    <tag k="restriction" v="school_zone"/>
    <tag k="restriction_hours" v="Mo-Fr 08:00-09:30;14:30-16:00"/>
  </way>
  <way id="3727555" version="5" timestamp="2012-01-08T02:34:26Z" uid="147510" user="woodpeck_fixbot" changeset="10327743">
    <nd ref="18467511"/>
    <nd ref="18468993"/>
    <tag k="highway" v="residential"/>
    <tag k="maxspeed:restriction" v="40"/>
    <tag k="name" v="Victoria Street"/>
    <tag k="restriction" v="school_zone"/>
    <tag k="restriction_hours" v="Mo-Fr 08:00-09:30;14:30-16:00"/>
  </way>
  <way id="3727779" version="2" timestamp="2008-07-05T14:05:15Z" uid="7617" user="Franc" changeset="399725">
    <nd ref="18320664"/>
    <nd ref="18467509"/>
    <tag k="created_by" v="JOSM"/>
    <tag k="highway" v="unclassified"/>
  </way>
  <way id="3727779" version="3" timestamp="2010-06-30T10:42:55Z" uid="20949" user="Ebenezer" changeset="5112500">
    <nd ref="18320664"/>
    <nd ref="796794662"/>
    <nd ref="18467509"/>
    <tag k="highway" v="unclassified"/>
  </way>
  <way id="3727779" version="4" timestamp="2011-06-13T14:08:32Z" uid="7617" user="Franc" changeset="8426865">
    <nd ref="18320664"/>
    <nd ref="18467509"/>
    <tag k="highway" v="unclassified"/>
  </way>
  <way id="3727780" version="2" timestamp="2007-12-29T22:53:29Z" uid="7617" user="Franc" changeset="466800">
    <nd ref="18468996"/>
    <nd ref="18467517"/>
    <nd ref="18467520"/>
    <nd ref="18468993"/>
    <nd ref="196321257"/>
    <nd ref="18468992"/>
    <tag k="abutters" v="residential"/>
    <tag k="created_by" v="JOSM"/>
    <tag k="highway" v="residential"/>
    <tag k="name" v="Ireton Street"/>
  </way>
  <way id="3727780" version="3" timestamp="2008-05-11T01:36:11Z" uid="7617" user="Franc" changeset="402271"/>
  <way id="3727782" version="2" timestamp="2007-12-29T22:53:26Z" uid="7617" user="Franc" changeset="466800">
    <nd ref="18468997"/>
    <nd ref="18468998"/>
    <nd ref="18468995"/>
    <nd ref="18468994"/>
    <nd ref="196321268"/>
    <nd ref="18468969"/>
    <tag k="abutters" v="residential"/>
    <tag k="created_by" v="JOSM"/>
    <tag k="highway" v="residential"/>
    <tag k="name" v="Raglan Street"/>
  </way>
  <way id="3727782" version="3" timestamp="2008-05-24T23:22:18Z" uid="7617" user="Franc" changeset="514338">
    <nd ref="29413180"/>
    <nd ref="29413185"/>
    <nd ref="18468998"/>
    <nd ref="18468995"/>
    <nd ref="18468994"/>
    <nd ref="196321268"/>
    <nd ref="18468969"/>
    <tag k="abutters" v="residential"/>
    <tag k="created_by" v="JOSM"/>
    <tag k="highway" v="residential"/>
    <tag k="name" v="Raglan Street"/>
    <tag k="source" v="survey"/>
  </way>
  <way id="3727782" version="4" timestamp="2010-07-07T21:43:29Z" uid="74617" user="JohnSmith" changeset="5161069">
    <nd ref="29413180"/>
    <nd ref="29413185"/>
    <nd ref="18468998"/>
    <nd ref="18468995"/>
    <nd ref="18468994"/>
    <nd ref="196321268"/>
    <nd ref="18468969"/>
    <tag k="highway" v="residential"/>
    <tag k="maxspeed" v="50"/>
    <tag k="maxspeed:source" v="default residential speed limit in Australia"/>
    <tag k="name" v="Raglan Street"/>
    <tag k="source" v="survey"/>
  </way>
  <way id="3727782" version="5" timestamp="2012-01-08T02:34:27Z" uid="147510" user="woodpeck_fixbot" changeset="10327743">
    <nd ref="29413180"/>
    <nd ref="29413185"/>
    <nd ref="18468998"/>
    <nd ref="18468995"/>
    <nd ref="18468994"/>
    <nd ref="196321268"/>
    <nd ref="18468969"/>
    <tag k="highway" v="residential"/>
    <tag k="name" v="Raglan Street"/>
    <tag k="source" v="survey"/>
  </way>
  <way id="3727783" version="2" timestamp="2010-07-07T21:44:34Z" uid="74617" user="JohnSmith" changeset="5161069">
    <nd ref="18468972"/>
    <nd ref="18468999"/>
    <tag k="highway" v="residential"/>
    <tag k="maxspeed" v="50"/>
    <tag k="maxspeed:source" v="default residential speed limit in Australia"/>
    <tag k="name" v="Fox Street"/>
  </way>
  <way id="3727783" version="3" timestamp="2012-01-08T02:34:28Z" uid="147510" user="woodpeck_fixbot" changeset="10327743">
    <nd ref="18468972"/>
    <nd ref="18468999"/>
    <tag k="highway" v="residential"/>
    <tag k="name" v="Fox Street"/>
  </way>
  <way id="3727784" version="2" timestamp="2008-05-11T01:36:12Z" uid="7617" user="Franc" changeset="402271"/>
  <way id="3727785" version="2" timestamp="2008-05-25T06:32:59Z" uid="7617" user="Franc" changeset="514473">
    <nd ref="18469012"/>
    <nd ref="18467530"/>
    <nd ref="18467532"/>
    <nd ref="18469022"/>
    <nd ref="18468986"/>
    <tag k="created_by" v="JOSM"/>
    <tag k="highway" v="unclassified"/>
    <tag k="name" v="Howe Street"/>
    <tag k="source" v="survey"/>
  </way>
  <way id="3727786" version="1" timestamp="2007-08-19T01:47:43Z" uid="7617" user="Franc" changeset="230016">
    <nd ref="18468987"/>
    <nd ref="18468989"/>
    <nd ref="18468990"/>
    <nd ref="18469026"/>
    <tag k="created_by" v="JOSM"/>
    <tag k="highway" v="service"/>
  </way>
  <way id="3727786" version="2" timestamp="2010-11-21T00:00:02Z" uid="7617" user="Franc" changeset="6419198">
    <nd ref="18468987"/>
    <nd ref="997151526"/>
    <nd ref="18468989"/>
    <nd ref="997151423"/>
    <nd ref="18468990"/>
    <nd ref="18469026"/>
    <tag k="highway" v="service"/>
    <tag k="service" v="parking_aisle"/>
  </way>
  <way id="3727793" version="1" timestamp="2007-08-18T14:12:38Z" uid="7617" user="Franc" changeset="228645">
    <nd ref="18468969"/>
    <nd ref="18469036"/>
    <nd ref="34924261"/>
    <nd ref="18468972"/>
    <nd ref="18468975"/>
    <nd ref="18468978"/>
    <nd ref="18468981"/>
    <nd ref="18468984"/>
    <nd ref="34924260"/>
    <nd ref="18468985"/>
    <nd ref="34924259"/>
    <nd ref="18468986"/>
    <tag k="created_by" v="JOSM"/>
    <tag k="highway" v="unclassified"/>
    <tag k="name" v="Bay Parade"/>
  </way>
  <way id="3727793" version="2" timestamp="2010-11-21T00:00:31Z" uid="7617" user="Franc" changeset="6419198">
    <nd ref="18468969"/>
    <nd ref="18469036"/>
    <nd ref="997152329"/>
    <nd ref="18468972"/>
    <nd ref="18468975"/>
    <nd ref="18468978"/>
    <nd ref="18468984"/>
    <nd ref="34924260"/>
    <nd ref="997151098"/>
    <nd ref="18468985"/>
    <nd ref="34924259"/>
    <nd ref="18468986"/>
    <tag k="highway" v="unclassified"/>
    <tag k="name" v="Bay Parade"/>
  </way>
  <way id="3727794" version="1" timestamp="2007-05-18T04:50:05Z" uid="7617" user="Franc" changeset="55187">
    <nd ref="18469091"/>
    <nd ref="18469094"/>
    <nd ref="18469097"/>
    <nd ref="18469079"/>
    <nd ref="18469082"/>
    <tag k="created_by" v="JOSM"/>
    <tag k="highway" v="unclassified"/>
  </way>
  <way id="3727794" version="2" timestamp="2007-12-17T07:41:11Z" uid="308" user="MichaelCollinson" changeset="340493">
    <nd ref="18469091"/>
    <nd ref="18469094"/>
    <nd ref="18469097"/>
    <nd ref="18469079"/>
    <tag k="created_by" v="Potlatch 0.5d"/>
    <tag k="highway" v="unclassified"/>
  </way>
  <way id="3727794" version="3" timestamp="2007-12-17T07:41:39Z" uid="308" user="MichaelCollinson" changeset="340493">
    <nd ref="18469091"/>
    <nd ref="18469094"/>
    <nd ref="18469097"/>
    <nd ref="18469079"/>
    <tag k="created_by" v="Potlatch 0.5d"/>
    <tag k="highway" v="unclassified"/>
  </way>
  <way id="3727794" version="4" timestamp="2009-07-08T12:39:35Z" uid="18713" user="Diego" changeset="1772194">
    <nd ref="18469082"/>
    <nd ref="18469085"/>
    <nd ref="18469089"/>
    <nd ref="18469091"/>
    <nd ref="18469094"/>
    <nd ref="18469097"/>
    <nd ref="18469079"/>
    <tag k="created_by" v="Potlatch 0.5d"/>
    <tag k="highway" v="service"/>
    <tag k="name" v="Fishermans Road"/>
    <tag k="oneway" v="yes"/>
    <tag k="service" v="parking_aisle"/>
  </way>
</osm>
