<?xml version='1.0' encoding='UTF-8'?>
<osm version="0.6" generator="libosmium/2.20.0">
  <way id="3736923" version="2" timestamp="2008-01-21T11:49:17Z" uid="7617" user="Franc" changeset="677964">
    <nd ref="18507467"/>
    <nd ref="18511470"/>
    <nd ref="18511462"/>
    <nd ref="18507602"/>
    <tag k="created_by" v="JOSM"/>
    <tag k="highway" v="unclassified"/>
    <tag k="name" v="Marine Parade"/>
    <tag k="source:name" v="survey"/>
  </way>
  <way id="3736923" version="3" timestamp="2009-12-30T02:15:06Z" uid="12203" user="brainwad" changeset="3486874">
    <nd ref="18507467"/>
    <nd ref="18511470"/>
    <nd ref="18511462"/>
    <nd ref="18507602"/>
    <tag k="highway" v="unclassified"/>
    <tag k="maxspeed" v="50"/>
    <tag k="name" v="Marine Parade"/>
    <tag k="source:maxspeed" v="state_limit"/>
    <tag k="source:name" v="survey"/>
  </way>
  <way id="3736923" version="4" timestamp="2010-11-21T10:40:00Z" uid="7617" user="Franc" changeset="6421193">
    <nd ref="18507467"/>
    <nd ref="18511470"/>
    <nd ref="18507602"/>
    <tag k="highway" v="unclassified"/>
    <tag k="maxspeed" v="50"/>
    <tag k="name" v="Marine Parade"/>
    <tag k="source:maxspeed" v="state_limit"/>
    <tag k="source:name" v="survey"/>
  </way>
  <way id="3736929" version="2" timestamp="2008-08-17T03:27:42Z" uid="7617" user="Franc" changeset="286525">
    <nd ref="18511504"/>
    <nd ref="288639312"/>
    <nd ref="18497106"/>
    <nd ref="18511494"/>
    <nd ref="18511487"/>
    <nd ref="18507560"/>
    <tag k="created_by" v="JOSM"/>
    <tag k="highway" v="residential"/>
    <tag k="name" v="Lurline Street"/>
  </way>
  <way id="3736929" version="3" timestamp="2009-12-30T02:13:29Z" uid="12203" user="brainwad" changeset="3486874">
    <nd ref="18511504"/>
    <nd ref="288639312"/>
    <nd ref="18497106"/>
    <nd ref="18511494"/>
    <nd ref="18511487"/>
    <nd ref="18507560"/>
    <tag k="highway" v="residential"/>
    <tag k="maxspeed" v="50"/>
    <tag k="name" v="Lurline Street"/>
    <tag k="source:maxspeed" v="state_limit"/>
  </way>
  <way id="3736929" version="4" timestamp="2010-11-21T10:40:03Z" uid="7617" user="Franc" changeset="6421193">
    <nd ref="18511504"/>
    <nd ref="288639312"/>
    <nd ref="18497106"/>
    <nd ref="18511487"/>
    <nd ref="18507560"/>
    <tag k="highway" v="residential"/>
    <tag k="maxspeed" v="50"/>
    <tag k="name" v="Lurline Street"/>
    <tag k="source:maxspeed" v="state_limit"/>
  </way>
  <way id="3736932" version="3" timestamp="2010-11-21T10:39:59Z" uid="7617" user="Franc" changeset="6421193">
    <nd ref="18507560"/>
    <nd ref="18507551"/>
    <nd ref="997582678"/>
    <nd ref="18507542"/>
    <nd ref="18507535"/>
    <nd ref="997582737"/>
    <nd ref="18507526"/>
    <nd ref="18507518"/>
    <nd ref="18511514"/>
    <nd ref="18507513"/>
    <tag k="abutters" v="residential"/>
    <tag k="highway" v="residential"/>
    <tag k="maxspeed" v="50"/>
    <tag k="name" v="Waterside Avenue"/>
    <tag k="source:maxspeed" v="state_limit"/>
  </way>
  <way id="3736936" version="2" timestamp="2008-08-17T03:27:43Z" uid="7617" user="Franc" changeset="286525">
    <nd ref="18493158"/>
    <nd ref="18511518"/>
    <nd ref="18511533"/>
    <nd ref="18511543"/>
    <nd ref="18511551"/>
    <nd ref="18511558"/>
    <nd ref="18511568"/>
    <nd ref="18511581"/>
    <nd ref="18511588"/>
    <nd ref="18511594"/>
    <nd ref="18511601"/>
    <nd ref="18511610"/>
    <nd ref="18497106"/>
    <tag k="abutters" v="residential"/>
    <tag k="created_by" v="JOSM"/>
    <tag k="highway" v="residential"/>
    <tag k="name" v="Mermaid Avenue"/>
  </way>
  <way id="3736936" version="3" timestamp="2009-12-30T02:13:30Z" uid="12203" user="brainwad" changeset="3486874">
    <nd ref="18493158"/>
    <nd ref="18511518"/>
    <nd ref="18511533"/>
    <nd ref="18511543"/>
    <nd ref="18511551"/>
    <nd ref="18511558"/>
    <nd ref="18511568"/>
    <nd ref="18511581"/>
    <nd ref="18511588"/>
    <nd ref="18511594"/>
    <nd ref="18511601"/>
    <nd ref="18511610"/>
    <nd ref="18497106"/>
    <tag k="abutters" v="residential"/>
    <tag k="highway" v="residential"/>
    <tag k="maxspeed" v="50"/>
    <tag k="name" v="Mermaid Avenue"/>
    <tag k="source:maxspeed" v="state_limit"/>
  </way>
  <way id="3736936" version="4" timestamp="2010-03-15T10:19:30Z" uid="20949" user="Ebenezer" changeset="4133264">
    <nd ref="18493158"/>
    <nd ref="666780239"/>
    <nd ref="18511518"/>
    <nd ref="18511533"/>
    <nd ref="18511543"/>
    <nd ref="18511551"/>
    <nd ref="18511558"/>
    <nd ref="18511568"/>
    <nd ref="18511581"/>
    <nd ref="18511588"/>
    <nd ref="18511594"/>
    <nd ref="18511601"/>
    <nd ref="18511610"/>
    <nd ref="18497106"/>
    <tag k="abutters" v="residential"/>
    <tag k="highway" v="residential"/>
    <tag k="maxspeed" v="50"/>
    <tag k="name" v="Mermaid Avenue"/>
    <tag k="source:maxspeed" v="state_limit"/>
  </way>
  <way id="3736936" version="5" timestamp="2010-11-21T10:39:57Z" uid="7617" user="Franc" changeset="6421193">
    <nd ref="18493158"/>
    <nd ref="666780239"/>
    <nd ref="18511518"/>
    <nd ref="18511533"/>
    <nd ref="18511543"/>
    <nd ref="18511551"/>
    <nd ref="18511558"/>
    <nd ref="18511568"/>
    <nd ref="997582772"/>
    <nd ref="18511581"/>
    <nd ref="18511588"/>
    <nd ref="997582655"/>
    <nd ref="18511594"/>
    <nd ref="18511601"/>
    <nd ref="18511610"/>
    <nd ref="18497106"/>
    <tag k="abutters" v="residential"/>
    <tag k="highway" v="residential"/>
    <tag k="maxspeed" v="50"/>
    <tag k="name" v="Mermaid Avenue"/>
    <tag k="source:maxspeed" v="state_limit"/>
  </way>
  <way id="3736944" version="2" timestamp="2008-02-16T21:57:17Z" uid="7617" user="Franc" changeset="137190">
    <nd ref="18511832"/>
    <nd ref="247938154"/>
    <nd ref="18511841"/>
    <tag k="abutters" v="residential"/>
    <tag k="created_by" v="JOSM"/>
    <tag k="highway" v="residential"/>
    <tag k="name" v="Boomerang Street"/>
    <tag k="source" v="yahoo_imagery"/>
  </way>
  <way id="3736944" version="3" timestamp="2009-12-30T02:14:51Z" uid="12203" user="brainwad" changeset="3486874">
    <nd ref="18511832"/>
    <nd ref="247938154"/>
    <nd ref="18511841"/>
    <tag k="abutters" v="residential"/>
    <tag k="highway" v="residential"/>
    <tag k="maxspeed" v="50"/>
    <tag k="name" v="Boomerang Street"/>
    <tag k="source" v="yahoo_imagery"/>
    <tag k="source:maxspeed" v="state_limit"/>
  </way>
  <way id="3736946" version="2" timestamp="2010-07-07T21:44:24Z" uid="74617" user="JohnSmith" changeset="5161069">
    <nd ref="18511725"/>
    <nd ref="18511709"/>
    <nd ref="18511702"/>
    <tag k="highway" v="residential"/>
    <tag k="maxspeed" v="50"/>
    <tag k="maxspeed:source" v="default residential speed limit in Australia"/>
    <tag k="name" v="Liguria Street"/>
  </way>
  <way id="3736946" version="3" timestamp="2012-01-08T02:34:30Z" uid="147510" user="woodpeck_fixbot" changeset="10327743">
    <nd ref="18511725"/>
    <nd ref="18511709"/>
    <nd ref="18511702"/>
    <tag k="highway" v="residential"/>
    <tag k="name" v="Liguria Street"/>
  </way>
  <way id="3736954" version="2" timestamp="2007-10-23T08:34:56Z" uid="7617" user="Franc" changeset="296276">
    <nd ref="18511995"/>
    <nd ref="84350483"/>
    <nd ref="84350512"/>
    <nd ref="84350565"/>
    <nd ref="84350471"/>
    <tag k="abutters" v="residential"/>
    <tag k="created_by" v="JOSM"/>
    <tag k="highway" v="service"/>
    <tag k="name" v="Bundock Lane"/>
    <tag k="source" v="survey &amp; Yahoo Imagery"/>
  </way>
  <way id="3736954" version="3" timestamp="2007-10-23T08:35:44Z" uid="7617" user="Franc" changeset="296276">
    <nd ref="18511995"/>
    <nd ref="84350483"/>
    <nd ref="84350512"/>
    <nd ref="84350565"/>
    <nd ref="84351344"/>
    <nd ref="84350471"/>
    <tag k="abutters" v="residential"/>
    <tag k="created_by" v="JOSM"/>
    <tag k="highway" v="service"/>
    <tag k="name" v="Bundock Lane"/>
    <tag k="source" v="survey &amp; Yahoo Imagery"/>
  </way>
  <way id="3736954" version="4" timestamp="2007-11-20T04:23:07Z" uid="7617" user="Franc" changeset="578612">
    <nd ref="18511995"/>
    <nd ref="84350483"/>
    <nd ref="84350512"/>
    <nd ref="84350565"/>
    <nd ref="84351344"/>
    <nd ref="84350471"/>
    <nd ref="124869517"/>
    <tag k="abutters" v="residential"/>
    <tag k="created_by" v="JOSM"/>
    <tag k="highway" v="service"/>
    <tag k="name" v="Bundock Lane"/>
    <tag k="source" v="survey &amp; Yahoo Imagery"/>
  </way>
  <way id="3736954" version="5" timestamp="2009-12-10T02:31:11Z" uid="30201" user="rrankin" changeset="3338883">
    <nd ref="18511995"/>
    <nd ref="84350483"/>
    <nd ref="84350512"/>
    <nd ref="84350565"/>
    <nd ref="84351344"/>
    <nd ref="84350471"/>
    <nd ref="124869517"/>
    <tag k="highway" v="service"/>
    <tag k="name" v="Bundock Lane"/>
    <tag k="source" v="survey &amp; Yahoo Imagery"/>
  </way>
  <way id="3736954" version="6" timestamp="2009-12-30T02:14:52Z" uid="12203" user="brainwad" changeset="3486874">
    <nd ref="18511995"/>
    <nd ref="84350483"/>
    <nd ref="84350512"/>
    <nd ref="84350565"/>
    <nd ref="84351344"/>
    <nd ref="84350471"/>
    <nd ref="124869517"/>
    <tag k="highway" v="service"/>
    <tag k="maxspeed" v="50"/>
    <tag k="name" v="Bundock Lane"/>
    <tag k="source" v="survey &amp; Yahoo Imagery"/>
    <tag k="source:maxspeed" v="state_limit"/>
  </way>
  <way id="3736954" version="7" timestamp="2010-01-04T11:45:30Z" uid="7617" user="Franc" changeset="3536418">
    <nd ref="18511995"/>
    <nd ref="84350483"/>
    <nd ref="84350512"/>
    <nd ref="84350565"/>
    <nd ref="84351344"/>
    <nd ref="84350471"/>
    <tag k="highway" v="service"/>
    <tag k="maxspeed" v="50"/>
    <tag k="name" v="Bundock Lane"/>
    <tag k="source" v="survey &amp; Yahoo Imagery"/>
    <tag k="source:maxspeed" v="state_limit"/>
  </way>
  <way id="3736957" version="2" timestamp="2007-10-23T08:34:57Z" uid="7617" user="Franc" changeset="296276">
    <nd ref="18320708"/>
    <nd ref="43295367"/>
    <nd ref="46173944"/>
    <nd ref="18521203"/>
    <nd ref="84350527"/>
    <nd ref="18521228"/>
    <nd ref="18512005"/>
    <tag k="created_by" v="Potlatch alpha"/>
    <tag k="highway" v="secondary"/>
    <tag k="name" v="Rainbow Street"/>
  </way>
  <way id="3736957" version="3" timestamp="2008-01-01T00:41:02Z" uid="7617" user="Franc" changeset="498172">
    <nd ref="18320708"/>
    <nd ref="43295367"/>
    <nd ref="46173944"/>
    <nd ref="199991333"/>
    <nd ref="18521203"/>
    <nd ref="84350527"/>
    <nd ref="18521228"/>
    <nd ref="18512005"/>
    <tag k="created_by" v="Potlatch alpha"/>
    <tag k="highway" v="secondary"/>
    <tag k="name" v="Rainbow Street"/>
  </way>
  <way id="3736957" version="4" timestamp="2009-12-27T03:35:09Z" uid="12203" user="brainwad" changeset="3460027">
    <nd ref="18320708"/>
    <nd ref="43295367"/>
    <nd ref="46173944"/>
    <nd ref="199991333"/>
    <nd ref="18521203"/>
    <nd ref="84350527"/>
    <nd ref="18521228"/>
    <nd ref="18512005"/>
    <tag k="highway" v="secondary"/>
    <tag k="maxspeed" v="50"/>
    <tag k="name" v="Rainbow Street"/>
  </way>
  <way id="3736957" version="5" timestamp="2009-12-29T15:01:27Z" uid="12203" user="brainwad" changeset="3481945">
    <nd ref="18320708"/>
    <nd ref="43295367"/>
    <tag k="highway" v="secondary"/>
    <tag k="maxspeed" v="50"/>
    <tag k="maxspeed:(Mo-Fr 08:00-09:30,14:30-16:00)" v="40"/>
    <tag k="name" v="Rainbow Street"/>
    <tag k="restriction" v="school_zone"/>
  </way>
  <way id="3736957" version="6" timestamp="2010-09-15T09:42:49Z" uid="79475" user="AlexOnTheBus" changeset="5785269">
    <nd ref="18320708"/>
    <nd ref="43295367"/>
    <tag k="highway" v="primary"/>
    <tag k="maxspeed" v="50"/>
    <tag k="maxspeed:(Mo-Fr 08:00-09:30,14:30-16:00)" v="40"/>
    <tag k="name" v="Rainbow Street"/>
    <tag k="restriction" v="school_zone"/>
  </way>
  <way id="3736957" version="7" timestamp="2011-12-13T22:58:42Z" uid="349913" user="Peter W34" changeset="10112055">
    <nd ref="18320708"/>
    <nd ref="43295367"/>
    <tag k="highway" v="primary"/>
    <tag k="maxspeed" v="60"/>
    <tag k="maxspeed:restriction" v="40"/>
    <tag k="name" v="Rainbow Street"/>
    <tag k="restriction" v="school_zone"/>
    <tag k="restriction_hours" v="Mo-Fr 08:00-09:30;14:30-16:00"/>
    <tag k="source" v="survey"/>
  </way>
</osm>
