<?xml version='1.0' encoding='UTF-8'?>
<osm version="0.6" generator="libosmium/2.20.0">
  <way id="3737762" version="1" timestamp="2007-09-27T07:38:36Z" uid="7617" user="Franc" changeset="523631">
    <nd ref="18493177"/>
    <nd ref="18516305"/>
    <nd ref="59954452"/>
    <nd ref="18516314"/>
    <tag k="abutters" v="residential"/>
    <tag k="created_by" v="JOSM"/>
    <tag k="highway" v="residential"/>
    <tag k="name" v="Cuzco Street"/>
  </way>
  <way id="3737762" version="2" timestamp="2009-12-30T02:13:27Z" uid="12203" user="brainwad" changeset="3486874">
    <nd ref="18493177"/>
    <nd ref="18516305"/>
    <nd ref="59954452"/>
    <nd ref="18516314"/>
    <tag k="abutters" v="residential"/>
    <tag k="highway" v="residential"/>
    <tag k="maxspeed" v="50"/>
    <tag k="name" v="Cuzco Street"/>
    <tag k="source:maxspeed" v="state_limit"/>
  </way>
  <way id="3737763" version="1" timestamp="2007-09-27T07:38:37Z" uid="7617" user="Franc" changeset="523631">
    <nd ref="18516305"/>
    <nd ref="18516340"/>
    <nd ref="18516323"/>
    <nd ref="18521288"/>
    <nd ref="18516329"/>
    <nd ref="59954455"/>
    <nd ref="59954454"/>
    <tag k="abutters" v="residential"/>
    <tag k="created_by" v="JOSM"/>
    <tag k="highway" v="residential"/>
    <tag k="name" v="Denning Street"/>
  </way>
  <way id="3737763" version="2" timestamp="2008-01-20T00:56:28Z" uid="7617" user="Franc" changeset="670062">
    <nd ref="18516305"/>
    <nd ref="18516340"/>
    <nd ref="18516323"/>
    <nd ref="18521288"/>
    <nd ref="240378484"/>
    <nd ref="18516329"/>
    <nd ref="59954455"/>
    <nd ref="59954454"/>
    <tag k="abutters" v="residential"/>
    <tag k="created_by" v="JOSM"/>
    <tag k="highway" v="residential"/>
    <tag k="name" v="Denning Street"/>
  </way>
  <way id="3737763" version="3" timestamp="2008-10-06T05:03:28Z" uid="7617" user="Franc" changeset="92013">
    <nd ref="18516305"/>
    <nd ref="302484092"/>
    <nd ref="18516340"/>
    <nd ref="302484086"/>
    <nd ref="18516323"/>
    <nd ref="18521288"/>
    <nd ref="240378484"/>
    <nd ref="18516329"/>
    <nd ref="59954455"/>
    <nd ref="59954454"/>
    <tag k="abutters" v="residential"/>
    <tag k="created_by" v="JOSM"/>
    <tag k="highway" v="residential"/>
    <tag k="name" v="Denning Street"/>
  </way>
  <way id="3737763" version="4" timestamp="2008-12-31T23:29:33Z" uid="7617" user="Franc" changeset="694669">
    <nd ref="324185620"/>
    <nd ref="324185623"/>
    <nd ref="324185626"/>
    <nd ref="302484092"/>
    <tag k="abutters" v="residential"/>
    <tag k="created_by" v="JOSM"/>
    <tag k="highway" v="residential"/>
    <tag k="name" v="Denning Street"/>
    <tag k="source" v="survey"/>
  </way>
  <way id="3737763" version="5" timestamp="2009-12-30T02:14:59Z" uid="12203" user="brainwad" changeset="3486874">
    <nd ref="324185620"/>
    <nd ref="324185623"/>
    <nd ref="324185626"/>
    <nd ref="302484092"/>
    <tag k="abutters" v="residential"/>
    <tag k="highway" v="residential"/>
    <tag k="maxspeed" v="50"/>
    <tag k="name" v="Denning Street"/>
    <tag k="source" v="survey"/>
    <tag k="source:maxspeed" v="state_limit"/>
  </way>
  <way id="3737768" version="1" timestamp="2007-09-27T07:40:11Z" uid="7617" user="Franc" changeset="523631">
    <nd ref="59954453"/>
    <nd ref="18516404"/>
    <tag k="abutters" v="residential"/>
    <tag k="created_by" v="JOSM"/>
    <tag k="highway" v="residential"/>
    <tag k="name" v="Palmer Street"/>
  </way>
  <way id="3737768" version="2" timestamp="2009-12-30T02:13:28Z" uid="12203" user="brainwad" changeset="3486874">
    <nd ref="59954453"/>
    <nd ref="18516404"/>
    <tag k="abutters" v="residential"/>
    <tag k="highway" v="residential"/>
    <tag k="maxspeed" v="50"/>
    <tag k="name" v="Palmer Street"/>
    <tag k="source:maxspeed" v="state_limit"/>
  </way>
  <way id="3737770" version="1" timestamp="2007-09-27T07:38:38Z" uid="7617" user="Franc" changeset="523631">
    <nd ref="18516323"/>
    <nd ref="18516348"/>
    <nd ref="59954451"/>
    <nd ref="18516356"/>
    <tag k="abutters" v="residential"/>
    <tag k="created_by" v="JOSM"/>
    <tag k="highway" v="residential"/>
    <tag k="name" v="Pearce Street"/>
  </way>
  <way id="3737770" version="2" timestamp="2009-12-30T02:13:28Z" uid="12203" user="brainwad" changeset="3486874">
    <nd ref="18516323"/>
    <nd ref="18516348"/>
    <nd ref="59954451"/>
    <nd ref="18516356"/>
    <tag k="abutters" v="residential"/>
    <tag k="highway" v="residential"/>
    <tag k="maxspeed" v="50"/>
    <tag k="name" v="Pearce Street"/>
    <tag k="source:maxspeed" v="state_limit"/>
  </way>
  <way id="3737782" version="1" timestamp="2007-09-27T07:38:34Z" uid="7617" user="Franc" changeset="523631">
    <nd ref="18516468"/>
    <nd ref="18516588"/>
    <nd ref="18516601"/>
    <nd ref="18516602"/>
    <tag k="created_by" v="Potlatch alpha"/>
    <tag k="foot" v="yes"/>
    <tag k="highway" v="cycleway"/>
    <tag k="surface" v="paved"/>
  </way>
</osm>
