<?xml version='1.0' encoding='UTF-8'?>
<osm version="0.6" generator="libosmium/2.20.0">
  <way id="37379004" version="1" timestamp="2009-07-07T14:56:57Z" uid="43863" user="Rundling" changeset="1763157">
    <nd ref="436364704"/>
    <nd ref="436364705"/>
    <nd ref="436364703"/>
    <nd ref="436364699"/>
    <nd ref="436364700"/>
    <nd ref="436364701"/>
    <nd ref="436364702"/>
    <tag k="highway" v="service"/>
    <tag k="service" v="parking_aisle"/>
    <tag k="surface" v="paved"/>
  </way>
  <way id="37379004" version="2" timestamp="2009-11-07T15:53:15Z" uid="167471" user="AnhÃ¤ufer" changeset="3056685">
    <nd ref="436364704"/>
    <nd ref="558945165"/>
    <nd ref="558945169"/>
    <nd ref="436364705"/>
    <nd ref="436364703"/>
    <nd ref="436364699"/>
    <nd ref="436364700"/>
    <nd ref="558945158"/>
    <nd ref="436364701"/>
    <nd ref="436364702"/>
    <tag k="highway" v="service"/>
    <tag k="service" v="parking_aisle"/>
    <tag k="surface" v="paved"/>
  </way>
  <way id="37379004" version="3" timestamp="2010-02-07T15:36:52Z" uid="43863" user="Rundling" changeset="3815341">
    <nd ref="436364704"/>
    <nd ref="558945165"/>
    <nd ref="558945169"/>
    <nd ref="436364705"/>
    <nd ref="436364703"/>
    <nd ref="436364700"/>
    <nd ref="558945158"/>
    <nd ref="436364701"/>
    <nd ref="436364702"/>
    <tag k="highway" v="service"/>
    <tag k="service" v="parking_aisle"/>
    <tag k="surface" v="paved"/>
  </way>
  <way id="37379005" version="1" timestamp="2009-07-07T14:56:57Z" uid="43863" user="Rundling" changeset="1763157">
    <nd ref="436364705"/>
    <nd ref="436364706"/>
    <nd ref="436364707"/>
    <nd ref="436364708"/>
    <tag k="highway" v="service"/>
    <tag k="service" v="parking_aisle"/>
    <tag k="surface" v="paved"/>
  </way>
  <way id="37379330" version="4" timestamp="2010-07-09T21:00:27Z" uid="74617" user="JohnSmith" changeset="5176956">
    <nd ref="347565692"/>
    <nd ref="347565694"/>
    <tag k="highway" v="residential"/>
    <tag k="maxspeed" v="50"/>
    <tag k="maxspeed:source" v="default residential speed limit in Australia"/>
    <tag k="name" v="Hilda Street"/>
  </way>
  <way id="37379330" version="5" timestamp="2012-01-19T01:10:15Z" uid="147510" user="woodpeck_fixbot" changeset="10433378">
    <nd ref="347565692"/>
    <nd ref="347565694"/>
    <tag k="highway" v="residential"/>
    <tag k="name" v="Hilda Street"/>
  </way>
  <way id="37379332" version="4" timestamp="2010-07-09T21:13:24Z" uid="74617" user="JohnSmith" changeset="5176956">
    <nd ref="347606434"/>
    <nd ref="347606437"/>
    <tag k="highway" v="residential"/>
    <tag k="maxspeed" v="50"/>
    <tag k="maxspeed:source" v="default residential speed limit in Australia"/>
    <tag k="name" v="Armadale Crescent"/>
  </way>
  <way id="37379332" version="5" timestamp="2012-01-19T01:10:16Z" uid="147510" user="woodpeck_fixbot" changeset="10433378">
    <nd ref="347606434"/>
    <nd ref="347606437"/>
    <tag k="highway" v="residential"/>
    <tag k="name" v="Armadale Crescent"/>
  </way>
  <way id="37379332" version="6" timestamp="2012-03-30T13:36:30Z" uid="142807" user="SDavies" changeset="11154177">
    <nd ref="347606434"/>
    <nd ref="1697793662"/>
    <nd ref="347606437"/>
    <tag k="highway" v="residential"/>
    <tag k="name" v="Armadale Crescent"/>
  </way>
  <way id="37379333" version="2" timestamp="2010-07-09T20:55:00Z" uid="74617" user="JohnSmith" changeset="5176956">
    <nd ref="347606437"/>
    <nd ref="347606439"/>
    <nd ref="347606441"/>
    <nd ref="347606444"/>
    <tag k="highway" v="residential"/>
    <tag k="maxspeed" v="50"/>
    <tag k="maxspeed:source" v="default residential speed limit in Australia"/>
    <tag k="name" v="Armadale Crescent"/>
    <tag k="source" v="Yahoo Imagery"/>
  </way>
  <way id="37379333" version="3" timestamp="2012-01-19T01:10:17Z" uid="147510" user="woodpeck_fixbot" changeset="10433378">
    <nd ref="347606437"/>
    <nd ref="347606439"/>
    <nd ref="347606441"/>
    <nd ref="347606444"/>
    <tag k="highway" v="residential"/>
    <tag k="name" v="Armadale Crescent"/>
    <tag k="source" v="Yahoo Imagery"/>
  </way>
  <way id="37379335" version="6" timestamp="2010-07-09T21:08:05Z" uid="74617" user="JohnSmith" changeset="5176956">
    <nd ref="436369455"/>
    <nd ref="436369457"/>
    <nd ref="347606459"/>
    <nd ref="436369467"/>
    <nd ref="436369470"/>
    <nd ref="436369473"/>
    <nd ref="347606434"/>
    <tag k="highway" v="residential"/>
    <tag k="maxspeed" v="50"/>
    <tag k="maxspeed:source" v="default residential speed limit in Australia"/>
    <tag k="source" v="Yahoo Imagery"/>
  </way>
  <way id="37379335" version="7" timestamp="2011-02-20T09:52:53Z" uid="134344" user="Andrew Gregory" changeset="7340098">
    <nd ref="436369455"/>
    <nd ref="436369457"/>
    <nd ref="347606459"/>
    <nd ref="436369467"/>
    <nd ref="436369470"/>
    <nd ref="436369473"/>
    <nd ref="347606434"/>
    <tag k="highway" v="residential"/>
    <tag k="maxspeed" v="50"/>
    <tag k="maxspeed:source" v="default residential speed limit in Australia"/>
    <tag k="name" v="Mullewa Crescent"/>
    <tag k="source" v="survey"/>
  </way>
  <way id="37379335" version="8" timestamp="2012-01-19T01:10:18Z" uid="147510" user="woodpeck_fixbot" changeset="10433378">
    <nd ref="436369455"/>
    <nd ref="436369457"/>
    <nd ref="347606459"/>
    <nd ref="436369467"/>
    <nd ref="436369470"/>
    <nd ref="436369473"/>
    <nd ref="347606434"/>
    <tag k="highway" v="residential"/>
    <tag k="name" v="Mullewa Crescent"/>
    <tag k="source" v="survey"/>
  </way>
  <way id="37379336" version="2" timestamp="2010-07-09T20:53:36Z" uid="74617" user="JohnSmith" changeset="5176956">
    <nd ref="347606345"/>
    <nd ref="347606347"/>
    <nd ref="347606349"/>
    <nd ref="347606352"/>
    <nd ref="347606354"/>
    <nd ref="347606356"/>
    <nd ref="347606359"/>
    <nd ref="347606361"/>
    <tag k="highway" v="residential"/>
    <tag k="maxspeed" v="50"/>
    <tag k="maxspeed:source" v="default residential speed limit in Australia"/>
    <tag k="name" v="Warralong Crescent"/>
    <tag k="source" v="Yahoo Imagery"/>
  </way>
  <way id="37379336" version="3" timestamp="2012-01-19T01:10:21Z" uid="147510" user="woodpeck_fixbot" changeset="10433378">
    <nd ref="347606345"/>
    <nd ref="347606347"/>
    <nd ref="347606349"/>
    <nd ref="347606352"/>
    <nd ref="347606354"/>
    <nd ref="347606356"/>
    <nd ref="347606359"/>
    <nd ref="347606361"/>
    <tag k="highway" v="residential"/>
    <tag k="name" v="Warralong Crescent"/>
    <tag k="source" v="Yahoo Imagery"/>
  </way>
  <way id="37379336" version="4" timestamp="2012-03-23T12:56:36Z" uid="142807" user="SDavies" changeset="11073547">
    <nd ref="347606345"/>
    <nd ref="1687136974"/>
    <nd ref="347606347"/>
    <nd ref="1687136997"/>
    <nd ref="347606349"/>
    <nd ref="347606352"/>
    <nd ref="347606354"/>
    <nd ref="347606356"/>
    <nd ref="1687136996"/>
    <nd ref="1687137018"/>
    <nd ref="347606359"/>
    <nd ref="347606361"/>
    <tag k="highway" v="residential"/>
    <tag k="name" v="Warralong Crescent"/>
    <tag k="source" v="Yahoo Imagery"/>
  </way>
  <way id="37379389" version="2" timestamp="2010-04-03T21:08:44Z" uid="20587" user="balrog-kun" changeset="4315899">
    <nd ref="436370493"/>
    <nd ref="46333980"/>
    <tag k="bridge" v="yes"/>
    <tag k="highway" v="residential"/>
    <tag k="layer" v="1"/>
    <tag k="name" v="Underdal Road"/>
    <tag k="tiger:cfcc" v="A41"/>
    <tag k="tiger:county" v="Toole, MT"/>
    <tag k="tiger:name_base" v="Underdal"/>
    <tag k="tiger:name_type" v="Rd"/>
    <tag k="tiger:reviewed" v="no"/>
    <tag k="tiger:separated" v="no"/>
    <tag k="tiger:source" v="tiger_import_dch_v0.6_20070813"/>
    <tag k="tiger:tlid" v="204297278:204286345:204286346:204286661:204286521"/>
    <tag k="tiger:zip_left" v="59474"/>
    <tag k="tiger:zip_right" v="59474"/>
  </way>
  <way id="37379389" version="3" timestamp="2010-11-23T23:59:42Z" uid="28237" user="lyx" changeset="6443723">
    <nd ref="436370493"/>
    <nd ref="46333980"/>
    <tag k="bridge" v="yes"/>
    <tag k="highway" v="unclassified"/>
    <tag k="layer" v="1"/>
    <tag k="name" v="Underdal Road"/>
    <tag k="source" v="yahoo"/>
    <tag k="tiger:cfcc" v="A41"/>
    <tag k="tiger:county" v="Toole, MT"/>
    <tag k="tiger:name_base" v="Underdal"/>
    <tag k="tiger:name_type" v="Rd"/>
    <tag k="tiger:separated" v="no"/>
    <tag k="tiger:source" v="tiger_import_dch_v0.6_20070813"/>
    <tag k="tiger:tlid" v="204297278:204286345:204286346:204286661:204286521"/>
    <tag k="tiger:zip_left" v="59474"/>
    <tag k="tiger:zip_right" v="59474"/>
  </way>
  <way id="37379389" version="4" timestamp="2011-12-08T22:03:30Z" uid="239998" user="Sundance" changeset="10069227">
    <nd ref="436370493"/>
    <nd ref="46333980"/>
    <tag k="addr:postcode" v="59474"/>
    <tag k="bridge" v="yes"/>
    <tag k="highway" v="unclassified"/>
    <tag k="is_in" v="Toole, MT"/>
    <tag k="layer" v="1"/>
    <tag k="name" v="Underdal Road"/>
    <tag k="tiger:source" v="tiger_import_dch_v0.6_20070813"/>
    <tag k="tiger:tlid" v="204297278:204286345:204286346:204286661:204286521"/>
  </way>
  <way id="37379584" version="4" timestamp="2010-07-09T21:14:10Z" uid="74617" user="JohnSmith" changeset="5176956">
    <nd ref="347565700"/>
    <nd ref="347565665"/>
    <tag k="highway" v="residential"/>
    <tag k="maxspeed" v="50"/>
    <tag k="maxspeed:source" v="default residential speed limit in Australia"/>
    <tag k="name" v="Lawler Street"/>
  </way>
  <way id="37379584" version="5" timestamp="2012-01-19T01:10:22Z" uid="147510" user="woodpeck_fixbot" changeset="10433378">
    <nd ref="347565700"/>
    <nd ref="347565665"/>
    <tag k="highway" v="residential"/>
    <tag k="name" v="Lawler Street"/>
  </way>
  <way id="37379585" version="2" timestamp="2010-07-09T20:55:55Z" uid="74617" user="JohnSmith" changeset="5176956">
    <nd ref="347565665"/>
    <nd ref="347565688"/>
    <nd ref="347565686"/>
    <tag k="highway" v="residential"/>
    <tag k="maxspeed" v="50"/>
    <tag k="maxspeed:source" v="default residential speed limit in Australia"/>
    <tag k="name" v="Lawler Street"/>
    <tag k="source" v="Yahoo Imagery"/>
  </way>
  <way id="37379585" version="3" timestamp="2012-01-19T01:10:25Z" uid="147510" user="woodpeck_fixbot" changeset="10433378">
    <nd ref="347565665"/>
    <nd ref="347565688"/>
    <nd ref="347565686"/>
    <tag k="highway" v="residential"/>
    <tag k="name" v="Lawler Street"/>
    <tag k="source" v="Yahoo Imagery"/>
  </way>
  <way id="37379586" version="4" timestamp="2010-07-09T21:04:25Z" uid="74617" user="JohnSmith" changeset="5176956">
    <nd ref="347565667"/>
    <nd ref="347565678"/>
    <nd ref="347565665"/>
    <tag k="highway" v="residential"/>
    <tag k="maxspeed" v="50"/>
    <tag k="maxspeed:source" v="default residential speed limit in Australia"/>
    <tag k="name" v="Hunter Street"/>
  </way>
  <way id="37379586" version="5" timestamp="2012-01-19T01:10:26Z" uid="147510" user="woodpeck_fixbot" changeset="10433378">
    <nd ref="347565667"/>
    <nd ref="347565678"/>
    <nd ref="347565665"/>
    <tag k="highway" v="residential"/>
    <tag k="name" v="Hunter Street"/>
  </way>
  <way id="37379588" version="3" timestamp="2010-07-09T20:54:45Z" uid="74617" user="JohnSmith" changeset="5176956">
    <nd ref="347565667"/>
    <nd ref="347565674"/>
    <nd ref="347565661"/>
    <nd ref="790770849"/>
    <tag k="highway" v="residential"/>
    <tag k="maxspeed" v="50"/>
    <tag k="maxspeed:source" v="default residential speed limit in Australia"/>
    <tag k="name" v="Paddington Street"/>
    <tag k="source" v="Yahoo Imagery"/>
  </way>
  <way id="37379588" version="4" timestamp="2012-01-19T01:10:28Z" uid="147510" user="woodpeck_fixbot" changeset="10433378">
    <nd ref="347565667"/>
    <nd ref="347565674"/>
    <nd ref="347565661"/>
    <nd ref="790770849"/>
    <tag k="highway" v="residential"/>
    <tag k="name" v="Paddington Street"/>
    <tag k="source" v="Yahoo Imagery"/>
  </way>
  <way id="37379589" version="4" timestamp="2010-07-09T21:00:04Z" uid="74617" user="JohnSmith" changeset="5176956">
    <nd ref="347565663"/>
    <nd ref="347565667"/>
    <tag k="highway" v="residential"/>
    <tag k="maxspeed" v="50"/>
    <tag k="maxspeed:source" v="default residential speed limit in Australia"/>
    <tag k="name" v="Paddington Street"/>
  </way>
  <way id="37379589" version="5" timestamp="2012-01-19T01:10:29Z" uid="147510" user="woodpeck_fixbot" changeset="10433378">
    <nd ref="347565663"/>
    <nd ref="347565667"/>
    <tag k="highway" v="residential"/>
    <tag k="name" v="Paddington Street"/>
  </way>
  <way id="37379591" version="4" timestamp="2010-07-09T21:13:04Z" uid="74617" user="JohnSmith" changeset="5176956">
    <nd ref="313713711"/>
    <nd ref="436372075"/>
    <tag k="highway" v="residential"/>
    <tag k="maxspeed" v="50"/>
    <tag k="maxspeed:source" v="default residential speed limit in Australia"/>
    <tag k="name" v="Blake Street"/>
  </way>
  <way id="37379591" version="5" timestamp="2012-01-19T01:10:30Z" uid="147510" user="woodpeck_fixbot" changeset="10433378">
    <nd ref="313713711"/>
    <nd ref="436372075"/>
    <tag k="highway" v="residential"/>
    <tag k="name" v="Blake Street"/>
  </way>
  <way id="37379591" version="6" timestamp="2012-03-22T13:05:10Z" uid="142807" user="SDavies" changeset="11062548">
    <nd ref="313713711"/>
    <nd ref="1685880544"/>
    <nd ref="436372075"/>
    <tag k="highway" v="residential"/>
    <tag k="name" v="Blake Street"/>
  </way>
  <way id="37379592" version="4" timestamp="2010-07-09T20:58:29Z" uid="74617" user="JohnSmith" changeset="5176956">
    <nd ref="347563291"/>
    <nd ref="347563364"/>
    <nd ref="347563356"/>
    <nd ref="347563289"/>
    <nd ref="347563371"/>
    <nd ref="347563277"/>
    <nd ref="347563348"/>
    <nd ref="347563718"/>
    <nd ref="347563267"/>
    <nd ref="313713711"/>
    <tag k="highway" v="residential"/>
    <tag k="maxspeed" v="50"/>
    <tag k="maxspeed:source" v="default residential speed limit in Australia"/>
    <tag k="name" v="Northam Street"/>
  </way>
  <way id="37379592" version="5" timestamp="2012-01-19T01:10:31Z" uid="147510" user="woodpeck_fixbot" changeset="10433378">
    <nd ref="347563291"/>
    <nd ref="347563364"/>
    <nd ref="347563356"/>
    <nd ref="347563289"/>
    <nd ref="347563371"/>
    <nd ref="347563277"/>
    <nd ref="347563348"/>
    <nd ref="347563718"/>
    <nd ref="347563267"/>
    <nd ref="313713711"/>
    <tag k="highway" v="residential"/>
    <tag k="name" v="Northam Street"/>
  </way>
  <way id="37379666" version="3" timestamp="2010-03-28T02:28:19Z" uid="20587" user="balrog-kun" changeset="4250871">
    <nd ref="436375872"/>
    <nd ref="436375895"/>
    <nd ref="436375854"/>
    <tag k="highway" v="residential"/>
    <tag k="name" v="Betty Lane"/>
    <tag k="oneway" v="yes"/>
    <tag k="tiger:cfcc" v="A41"/>
    <tag k="tiger:county" v="San Mateo, CA"/>
    <tag k="tiger:name_base" v="Betty"/>
    <tag k="tiger:name_type" v="Ln"/>
    <tag k="tiger:separated" v="no"/>
    <tag k="tiger:source" v="tiger_import_dch_v0.6_20070809"/>
    <tag k="tiger:tlid" v="192379443"/>
    <tag k="tiger:zip_left" v="94402"/>
    <tag k="tiger:zip_right" v="94402"/>
  </way>
  <way id="37379666" version="4" timestamp="2011-01-21T03:45:27Z" uid="201724" user="mk408" changeset="7036772">
    <nd ref="436375872"/>
    <nd ref="436375895"/>
    <nd ref="436375854"/>
    <tag k="highway" v="tertiary"/>
    <tag k="name" v="Betty Lane"/>
    <tag k="oneway" v="yes"/>
    <tag k="tiger:county" v="San Mateo, CA"/>
    <tag k="tiger:name_base" v="Betty"/>
    <tag k="tiger:name_type" v="Ln"/>
    <tag k="tiger:zip_left" v="94402"/>
    <tag k="tiger:zip_right" v="94402"/>
  </way>
  <way id="37379666" version="5" timestamp="2011-02-25T05:59:15Z" uid="25510" user="Apo42" changeset="7387605">
    <nd ref="436375872"/>
    <nd ref="436375895"/>
    <nd ref="436375854"/>
    <tag k="highway" v="residential"/>
    <tag k="name" v="Betty Lane"/>
    <tag k="oneway" v="yes"/>
    <tag k="tiger:county" v="San Mateo, CA"/>
    <tag k="tiger:name_base" v="Betty"/>
    <tag k="tiger:name_type" v="Ln"/>
    <tag k="tiger:zip_left" v="94402"/>
    <tag k="tiger:zip_right" v="94402"/>
  </way>
  <way id="37379667" version="3" timestamp="2010-03-28T02:28:19Z" uid="20587" user="balrog-kun" changeset="4250871">
    <nd ref="436375895"/>
    <nd ref="436375893"/>
    <tag k="highway" v="residential"/>
    <tag k="name" v="Betty Lane"/>
  </way>
  <way id="37379744" version="3" timestamp="2009-10-18T00:10:24Z" uid="36809" user="pfoten_weg_!_" changeset="2879001">
    <nd ref="55899288"/>
    <nd ref="458901305"/>
    <nd ref="436380190"/>
    <nd ref="436380191"/>
    <nd ref="458901309"/>
    <nd ref="436380192"/>
    <nd ref="458901310"/>
    <nd ref="436380193"/>
    <nd ref="458901315"/>
    <nd ref="436380194"/>
    <nd ref="458901316"/>
    <nd ref="436380195"/>
    <nd ref="436380196"/>
    <nd ref="436380197"/>
    <nd ref="436380198"/>
    <nd ref="436380199"/>
    <nd ref="436380200"/>
    <nd ref="436380201"/>
    <nd ref="436380218"/>
    <tag k="highway" v="residential"/>
    <tag k="name" v="Schleierweg"/>
  </way>
  <way id="37379744" version="4" timestamp="2009-11-05T20:17:21Z" uid="64756" user="alegria6208" changeset="3043474">
    <nd ref="55899288"/>
    <nd ref="458901305"/>
    <nd ref="436380190"/>
    <nd ref="436380191"/>
    <nd ref="458901309"/>
    <nd ref="436380192"/>
    <nd ref="458901310"/>
    <nd ref="436380193"/>
    <nd ref="458901315"/>
    <nd ref="436380194"/>
    <nd ref="458901316"/>
    <nd ref="436380195"/>
    <nd ref="436380196"/>
    <tag k="highway" v="residential"/>
    <tag k="name" v="Schleierweg"/>
    <tag k="oneway" v="no"/>
  </way>
  <way id="37379744" version="5" timestamp="2009-11-06T03:57:37Z" uid="36809" user="pfoten_weg_!_" changeset="3045160">
    <nd ref="55899288"/>
    <nd ref="458901305"/>
    <nd ref="436380190"/>
    <nd ref="436380191"/>
    <nd ref="458901309"/>
    <nd ref="436380192"/>
    <nd ref="458901310"/>
    <nd ref="436380193"/>
    <nd ref="458901315"/>
    <nd ref="436380194"/>
    <nd ref="458901316"/>
    <nd ref="436380195"/>
    <nd ref="436380196"/>
    <tag k="highway" v="residential"/>
    <tag k="name" v="Schleierweg"/>
    <tag k="oneway" v="no"/>
  </way>
  <way id="37379744" version="6" timestamp="2010-07-12T15:54:44Z" uid="64756" user="alegria6208" changeset="5200070">
    <nd ref="436380190"/>
    <nd ref="436380191"/>
    <nd ref="458901309"/>
    <nd ref="436380192"/>
    <nd ref="458901310"/>
    <nd ref="436380193"/>
    <nd ref="458901315"/>
    <nd ref="436380194"/>
    <nd ref="458901316"/>
    <nd ref="436380195"/>
    <nd ref="436380196"/>
    <tag k="highway" v="residential"/>
    <tag k="name" v="Schleierweg"/>
    <tag k="oneway" v="no"/>
  </way>
  <way id="37379744" version="7" timestamp="2010-07-13T18:07:34Z" uid="145231" user="woodpeck_repair" changeset="5210220">
    <nd ref="55899288"/>
    <nd ref="458901305"/>
    <nd ref="436380190"/>
    <nd ref="436380191"/>
    <nd ref="458901309"/>
    <nd ref="436380192"/>
    <nd ref="458901310"/>
    <nd ref="436380193"/>
    <nd ref="458901315"/>
    <nd ref="436380194"/>
    <nd ref="458901316"/>
    <nd ref="436380195"/>
    <nd ref="436380196"/>
    <tag k="highway" v="residential"/>
    <tag k="name" v="Schleierweg"/>
    <tag k="oneway" v="no"/>
  </way>
  <way id="37379744" version="8" timestamp="2011-03-06T19:43:04Z" uid="417684" user="Maler" changeset="7476864">
    <nd ref="55899288"/>
    <nd ref="458901305"/>
    <nd ref="436380190"/>
    <nd ref="436380191"/>
    <nd ref="458901309"/>
    <nd ref="436380192"/>
    <nd ref="458901310"/>
    <nd ref="436380193"/>
    <nd ref="458901315"/>
    <nd ref="436380194"/>
    <nd ref="458901316"/>
    <nd ref="1189840200"/>
    <nd ref="436380195"/>
    <nd ref="1189840511"/>
    <nd ref="1189840499"/>
    <nd ref="1189840505"/>
    <nd ref="1189840602"/>
    <nd ref="436380196"/>
    <tag k="highway" v="residential"/>
    <tag k="name" v="Schleierweg"/>
    <tag k="oneway" v="no"/>
  </way>
</osm>
