<?xml version='1.0' encoding='UTF-8'?>
<osm version="0.6" generator="libosmium/2.20.0">
  <way id="37402272" version="2" timestamp="2010-04-03T13:51:10Z" uid="20587" user="balrog-kun" changeset="4312927">
    <nd ref="83601599"/>
    <nd ref="83768839"/>
    <nd ref="83641423"/>
    <tag k="highway" v="residential"/>
    <tag k="name" v="West Shirttail Cor"/>
    <tag k="tiger:cfcc" v="A41"/>
    <tag k="tiger:county" v="San Juan, UT"/>
    <tag k="tiger:name_base" v="Shirttail Cor"/>
    <tag k="tiger:name_direction_prefix" v="W"/>
    <tag k="tiger:reviewed" v="no"/>
    <tag k="tiger:separated" v="no"/>
    <tag k="tiger:source" v="tiger_import_dch_v0.6_20070830"/>
    <tag k="tiger:tlid" v="177056096:177056268:177056106"/>
  </way>
  <way id="37402598" version="2" timestamp="2010-04-02T17:39:45Z" uid="20587" user="balrog-kun" changeset="4304500">
    <nd ref="50777103"/>
    <nd ref="50805734"/>
    <tag k="highway" v="residential"/>
    <tag k="name" v="178th Place Southwest"/>
    <tag k="tiger:cfcc" v="A41"/>
    <tag k="tiger:county" v="Snohomish, WA"/>
    <tag k="tiger:name_base" v="178th"/>
    <tag k="tiger:name_direction_suffix" v="SW"/>
    <tag k="tiger:reviewed" v="no"/>
    <tag k="tiger:separated" v="no"/>
    <tag k="tiger:source" v="tiger_import_dch_v0.6_20070830"/>
    <tag k="tiger:tlid" v="187769091:187754269"/>
    <tag k="tiger:zip_left" v="98037"/>
    <tag k="tiger:zip_right" v="98037"/>
  </way>
  <way id="37402606" version="3" timestamp="2010-04-02T17:39:45Z" uid="20587" user="balrog-kun" changeset="4304500">
    <nd ref="436871492"/>
    <nd ref="436871502"/>
    <nd ref="436871512"/>
    <nd ref="436871532"/>
    <nd ref="436871542"/>
    <nd ref="436871557"/>
    <tag k="highway" v="residential"/>
    <tag k="name" v="179th Place Southwest"/>
    <tag k="source" v="yahoo_wms;survey"/>
  </way>
  <way id="37402610" version="3" timestamp="2010-04-02T17:39:45Z" uid="20587" user="balrog-kun" changeset="4304500">
    <nd ref="436871567"/>
    <nd ref="436871578"/>
    <nd ref="436871588"/>
    <nd ref="436871598"/>
    <nd ref="436871512"/>
    <nd ref="436871607"/>
    <nd ref="436871619"/>
    <nd ref="436871621"/>
    <nd ref="436871622"/>
    <nd ref="436871625"/>
    <nd ref="436871632"/>
    <tag k="highway" v="residential"/>
    <tag k="name" v="33rd Place West"/>
    <tag k="source" v="yahoo_wms;survey"/>
  </way>
  <way id="37402611" version="3" timestamp="2010-04-02T17:39:46Z" uid="20587" user="balrog-kun" changeset="4304500">
    <nd ref="436871588"/>
    <nd ref="436871650"/>
    <nd ref="436871660"/>
    <tag k="highway" v="residential"/>
    <tag k="name" v="178th Place Southwest"/>
    <tag k="source" v="yahoo_wms;survey"/>
  </way>
  <way id="37402616" version="3" timestamp="2010-04-02T17:39:46Z" uid="20587" user="balrog-kun" changeset="4304500">
    <nd ref="436871502"/>
    <nd ref="436871682"/>
    <nd ref="436871689"/>
    <nd ref="436871708"/>
    <nd ref="436871716"/>
    <tag k="highway" v="residential"/>
    <tag k="name" v="178th Place Southwest"/>
    <tag k="source" v="yahoo_wms;survey"/>
  </way>
  <way id="37402620" version="3" timestamp="2010-04-02T17:39:46Z" uid="20587" user="balrog-kun" changeset="4304500">
    <nd ref="50697420"/>
    <nd ref="436871748"/>
    <nd ref="436871751"/>
    <nd ref="436871767"/>
    <tag k="highway" v="residential"/>
    <tag k="name" v="177th Place Southwest"/>
    <tag k="source" v="yahoo_wms;survey"/>
  </way>
  <way id="37402689" version="2" timestamp="2010-04-02T17:39:46Z" uid="20587" user="balrog-kun" changeset="4304500">
    <nd ref="436872437"/>
    <nd ref="50696262"/>
    <tag k="bridge" v="yes"/>
    <tag k="highway" v="secondary"/>
    <tag k="layer" v="1"/>
    <tag k="name" v="164th Street Southwest"/>
    <tag k="tiger:cfcc" v="A41"/>
    <tag k="tiger:county" v="Snohomish, WA"/>
    <tag k="tiger:name_base" v="164th"/>
    <tag k="tiger:name_direction_suffix" v="SW"/>
    <tag k="tiger:reviewed" v="no"/>
    <tag k="tiger:separated" v="no"/>
    <tag k="tiger:source" v="tiger_import_dch_v0.6_20070830"/>
    <tag k="tiger:tlid" v="187759030:187759031:187759050:187759054"/>
    <tag k="tiger:zip_left" v="98087"/>
    <tag k="tiger:zip_right" v="98087"/>
  </way>
  <way id="37402690" version="3" timestamp="2010-04-02T17:39:47Z" uid="20587" user="balrog-kun" changeset="4304500">
    <nd ref="50696262"/>
    <nd ref="50671714"/>
    <nd ref="50776264"/>
    <nd ref="50698065"/>
    <nd ref="50759969"/>
    <nd ref="50707338"/>
    <nd ref="412121198"/>
    <tag k="addr:postcode" v="98087"/>
    <tag k="highway" v="secondary"/>
    <tag k="is_in" v="Snohomish, WA"/>
    <tag k="name" v="164th Street Southwest"/>
    <tag k="source" v="Yahoo,TIGER"/>
  </way>
</osm>
