<?xml version='1.0' encoding='UTF-8'?>
<osm version="0.6" generator="libosmium/2.20.0">
  <way id="37416108" version="2" timestamp="2010-04-07T13:40:55Z" uid="20587" user="balrog-kun" changeset="4353646">
    <nd ref="437331397"/>
    <nd ref="437331398"/>
    <nd ref="437331399"/>
    <nd ref="437331400"/>
    <nd ref="437331401"/>
    <nd ref="437331402"/>
    <nd ref="437331403"/>
    <nd ref="437331404"/>
    <nd ref="437331405"/>
    <nd ref="437331406"/>
    <nd ref="437331407"/>
    <nd ref="437331408"/>
    <nd ref="437331409"/>
    <nd ref="437331397"/>
    <tag k="building" v="yes"/>
    <tag k="name" v="IBM Building 045"/>
  </way>
  <way id="37416108" version="3" timestamp="2011-04-07T00:41:44Z" uid="47892" user="richlv" changeset="7790443">
    <nd ref="437331398"/>
    <nd ref="437331399"/>
    <nd ref="437331400"/>
    <nd ref="437331401"/>
    <nd ref="437331402"/>
    <nd ref="437331403"/>
    <nd ref="437331404"/>
    <nd ref="437331405"/>
    <nd ref="437331406"/>
    <nd ref="437331407"/>
    <nd ref="437331408"/>
    <nd ref="437331409"/>
    <nd ref="437331398"/>
    <tag k="building" v="yes"/>
    <tag k="name" v="IBM Building 045"/>
  </way>
  <way id="37416352" version="3" timestamp="2009-09-01T10:08:46Z" uid="36809" user="pfoten_weg_!_" changeset="2335514">
    <nd ref="288917367"/>
    <nd ref="325171287"/>
    <nd ref="325171289"/>
    <nd ref="393945651"/>
    <nd ref="325171291"/>
    <nd ref="325171293"/>
    <nd ref="376798609"/>
    <nd ref="325171295"/>
    <nd ref="325171297"/>
    <nd ref="378219163"/>
    <nd ref="276795663"/>
    <nd ref="288917361"/>
    <nd ref="378219181"/>
    <nd ref="288917360"/>
    <nd ref="471527750"/>
    <nd ref="288917359"/>
    <nd ref="288917357"/>
    <tag k="highway" v="residential"/>
    <tag k="maxspeed" v="30"/>
    <tag k="name" v="Dr.-Gerbl-Straße; Bahnhofstraße; Dr.-Gerbl-Straße"/>
    <tag k="source" v="survey"/>
  </way>
  <way id="37416352" version="4" timestamp="2009-11-03T00:17:59Z" uid="107037" user="ulfm" changeset="3021340"/>
  <way id="37416506" version="5" timestamp="2009-10-20T12:05:59Z" uid="36809" user="pfoten_weg_!_" changeset="2902112">
    <nd ref="78420173"/>
    <nd ref="355573796"/>
    <nd ref="60615818"/>
    <nd ref="355573797"/>
    <nd ref="60615819"/>
    <nd ref="60615820"/>
    <nd ref="355573772"/>
    <nd ref="60615821"/>
    <nd ref="355573773"/>
    <nd ref="249547180"/>
    <nd ref="60615822"/>
    <nd ref="442934179"/>
    <nd ref="60615823"/>
    <nd ref="60615824"/>
    <nd ref="60615825"/>
    <nd ref="60615826"/>
    <nd ref="442688284"/>
    <nd ref="60615827"/>
    <nd ref="60615828"/>
    <nd ref="442934183"/>
    <nd ref="60615829"/>
    <nd ref="442688288"/>
    <nd ref="289171190"/>
    <nd ref="60615830"/>
    <nd ref="442934194"/>
    <nd ref="60615831"/>
    <nd ref="442934202"/>
    <nd ref="442934205"/>
    <nd ref="442688289"/>
    <nd ref="442934213"/>
    <nd ref="442934216"/>
    <nd ref="60615832"/>
    <nd ref="249547215"/>
    <nd ref="442934222"/>
    <nd ref="442688290"/>
    <nd ref="60615833"/>
    <nd ref="442934235"/>
    <nd ref="60615834"/>
    <nd ref="442934242"/>
    <nd ref="442934247"/>
    <nd ref="442934252"/>
    <nd ref="60615835"/>
    <nd ref="442934259"/>
    <nd ref="60615836"/>
    <nd ref="151269450"/>
    <nd ref="60615837"/>
    <nd ref="60615838"/>
    <nd ref="451658457"/>
    <nd ref="60615839"/>
    <nd ref="451658458"/>
    <nd ref="451658459"/>
    <nd ref="451658460"/>
    <nd ref="60615840"/>
    <nd ref="451658462"/>
    <nd ref="60615841"/>
    <nd ref="60615842"/>
    <nd ref="451658464"/>
    <nd ref="451658465"/>
    <nd ref="60615843"/>
    <nd ref="60615844"/>
    <nd ref="60615845"/>
    <tag k="highway" v="tertiary"/>
    <tag k="name" v="Fraßhauser Straße"/>
    <tag k="postal_code" v="83623"/>
    <tag k="ref" v="TÖL 9"/>
  </way>
  <way id="37416506" version="6" timestamp="2010-02-16T09:12:32Z" uid="42393" user="mawi42" changeset="3890210">
    <nd ref="78420173"/>
    <nd ref="355573796"/>
    <nd ref="60615818"/>
    <nd ref="355573797"/>
    <nd ref="60615819"/>
    <nd ref="60615820"/>
    <nd ref="355573772"/>
    <nd ref="60615821"/>
    <nd ref="355573773"/>
    <nd ref="249547180"/>
    <nd ref="60615822"/>
    <nd ref="442934179"/>
    <nd ref="60615823"/>
    <nd ref="60615824"/>
    <nd ref="60615825"/>
    <nd ref="60615826"/>
    <nd ref="442688284"/>
    <nd ref="60615827"/>
    <nd ref="60615828"/>
    <nd ref="442934183"/>
    <nd ref="60615829"/>
    <nd ref="442688288"/>
    <nd ref="289171190"/>
    <nd ref="60615830"/>
    <nd ref="442934194"/>
    <nd ref="60615831"/>
    <nd ref="442934202"/>
    <nd ref="442934205"/>
    <nd ref="442688289"/>
    <nd ref="442934213"/>
    <nd ref="442934216"/>
    <nd ref="60615832"/>
    <nd ref="249547215"/>
    <nd ref="442934222"/>
    <nd ref="442688290"/>
    <nd ref="60615833"/>
    <nd ref="442934235"/>
    <nd ref="60615834"/>
    <nd ref="442934242"/>
    <nd ref="442934247"/>
    <nd ref="442934252"/>
    <nd ref="60615835"/>
    <nd ref="442934259"/>
    <nd ref="60615836"/>
    <nd ref="151269450"/>
    <nd ref="60615837"/>
    <nd ref="60615838"/>
    <nd ref="451658457"/>
    <nd ref="60615839"/>
    <nd ref="451658458"/>
    <nd ref="451658459"/>
    <nd ref="451658460"/>
    <nd ref="60615840"/>
    <nd ref="451658462"/>
    <nd ref="60615841"/>
    <nd ref="641183848"/>
    <nd ref="60615842"/>
    <nd ref="641183852"/>
    <nd ref="451658464"/>
    <nd ref="451658465"/>
    <nd ref="60615843"/>
    <nd ref="60615844"/>
    <nd ref="60615845"/>
    <tag k="highway" v="tertiary"/>
    <tag k="name" v="Fraßhauser Straße"/>
    <tag k="postal_code" v="83623"/>
    <tag k="ref" v="TÖL 9"/>
  </way>
  <way id="37416506" version="7" timestamp="2010-05-04T13:48:28Z" uid="42393" user="mawi42" changeset="4604253">
    <nd ref="78420173"/>
    <nd ref="355573796"/>
    <nd ref="60615818"/>
    <nd ref="355573797"/>
    <nd ref="60615819"/>
    <nd ref="60615820"/>
    <nd ref="355573772"/>
    <nd ref="60615821"/>
    <nd ref="355573773"/>
    <nd ref="249547180"/>
    <nd ref="60615822"/>
    <nd ref="442934179"/>
    <nd ref="60615823"/>
    <nd ref="60615824"/>
    <nd ref="60615825"/>
    <nd ref="60615826"/>
    <nd ref="442688284"/>
    <nd ref="60615827"/>
    <nd ref="60615828"/>
    <nd ref="442934183"/>
    <nd ref="60615829"/>
    <nd ref="442688288"/>
    <nd ref="289171190"/>
    <nd ref="720904249"/>
    <nd ref="60615830"/>
    <nd ref="442934194"/>
    <nd ref="720904250"/>
    <nd ref="60615831"/>
    <nd ref="442934202"/>
    <nd ref="720904251"/>
    <nd ref="442934205"/>
    <nd ref="720904252"/>
    <nd ref="442688289"/>
    <nd ref="442934213"/>
    <nd ref="442934216"/>
    <nd ref="60615832"/>
    <nd ref="249547215"/>
    <nd ref="442934222"/>
    <nd ref="442688290"/>
    <nd ref="60615833"/>
    <nd ref="442934235"/>
    <nd ref="60615834"/>
    <nd ref="442934242"/>
    <nd ref="442934247"/>
    <nd ref="442934252"/>
    <nd ref="60615835"/>
    <nd ref="442934259"/>
    <nd ref="60615836"/>
    <nd ref="151269450"/>
    <nd ref="60615837"/>
    <nd ref="60615838"/>
    <nd ref="451658457"/>
    <nd ref="60615839"/>
    <nd ref="451658458"/>
    <nd ref="451658459"/>
    <nd ref="451658460"/>
    <nd ref="60615840"/>
    <nd ref="451658462"/>
    <nd ref="60615841"/>
    <nd ref="641183848"/>
    <nd ref="60615842"/>
    <nd ref="641183852"/>
    <nd ref="451658464"/>
    <nd ref="451658465"/>
    <nd ref="60615843"/>
    <nd ref="60615844"/>
    <nd ref="60615845"/>
    <tag k="highway" v="tertiary"/>
    <tag k="name" v="Fraßhauser Straße"/>
    <tag k="postal_code" v="83623"/>
    <tag k="ref" v="TÖL 9"/>
  </way>
  <way id="37416506" version="8" timestamp="2010-05-25T19:35:30Z" uid="8748" user="ToniE" changeset="4807211">
    <nd ref="78420173"/>
    <nd ref="355573796"/>
    <nd ref="60615818"/>
    <nd ref="355573797"/>
    <tag k="highway" v="tertiary"/>
    <tag k="maxspeed" v="50"/>
    <tag k="name" v="Fraßhauser Straße"/>
    <tag k="postal_code" v="83623"/>
    <tag k="ref" v="TÖL 9"/>
  </way>
  <way id="37416506" version="9" timestamp="2010-08-15T19:59:10Z" uid="8748" user="ToniE" changeset="5503777">
    <nd ref="78420173"/>
    <nd ref="861771335"/>
    <nd ref="355573796"/>
    <nd ref="60615818"/>
    <nd ref="355573797"/>
    <tag k="highway" v="tertiary"/>
    <tag k="maxspeed" v="50"/>
    <tag k="name" v="Fraßhauser Straße"/>
    <tag k="postal_code" v="83623"/>
    <tag k="ref" v="TÖL 9"/>
    <tag k="smoothness" v="good"/>
    <tag k="surface" v="asphalt"/>
  </way>
  <way id="37416615" version="3" timestamp="2009-08-23T22:25:59Z" uid="68769" user="david lynch" changeset="2237511">
    <nd ref="437345398"/>
    <nd ref="437345399"/>
    <nd ref="437345400"/>
    <nd ref="437345401"/>
    <nd ref="437345405"/>
    <nd ref="437345407"/>
    <nd ref="437345408"/>
    <nd ref="437345409"/>
    <nd ref="437345410"/>
    <nd ref="437345411"/>
    <nd ref="437345412"/>
    <nd ref="437345413"/>
    <nd ref="437345414"/>
    <nd ref="437345415"/>
    <nd ref="437345416"/>
    <nd ref="437345417"/>
    <nd ref="437345418"/>
    <nd ref="437345419"/>
    <nd ref="437345420"/>
    <nd ref="437345421"/>
    <nd ref="437345422"/>
    <nd ref="437345423"/>
    <nd ref="437345398"/>
    <tag k="area" v="yes"/>
    <tag k="leisure" v="park"/>
    <tag k="name" v="Eilers Park"/>
  </way>
  <way id="37416615" version="4" timestamp="2011-10-29T02:37:20Z" uid="332709" user="moosejaw" changeset="9681337">
    <nd ref="437345398"/>
    <nd ref="437345399"/>
    <nd ref="437345400"/>
    <nd ref="437345401"/>
    <nd ref="437345405"/>
    <nd ref="437345407"/>
    <nd ref="437345408"/>
    <nd ref="437345409"/>
    <nd ref="437345410"/>
    <nd ref="437345411"/>
    <nd ref="437345412"/>
    <nd ref="437345413"/>
    <nd ref="437345414"/>
    <nd ref="437345415"/>
    <nd ref="437345416"/>
    <nd ref="437345417"/>
    <nd ref="437345418"/>
    <nd ref="437345419"/>
    <nd ref="437345420"/>
    <nd ref="437345421"/>
    <nd ref="437345422"/>
    <nd ref="437345423"/>
    <nd ref="437345398"/>
    <tag k="leisure" v="park"/>
    <tag k="name" v="Eilers Park"/>
  </way>
  <way id="37416624" version="1" timestamp="2009-07-08T15:34:22Z" uid="43863" user="Rundling" changeset="1773505">
    <nd ref="437345507"/>
    <nd ref="437345509"/>
    <nd ref="437345510"/>
    <nd ref="437345508"/>
    <nd ref="437345507"/>
    <tag k="addr:city" v="Uelzen"/>
    <tag k="addr:country" v="DE"/>
    <tag k="addr:housenumber" v="6"/>
    <tag k="addr:postcode" v="29525"/>
    <tag k="addr:street" v="Dachsgang"/>
    <tag k="building" v="yes"/>
  </way>
  <way id="37416625" version="1" timestamp="2009-07-08T15:34:22Z" uid="43863" user="Rundling" changeset="1773505">
    <nd ref="437345509"/>
    <nd ref="437345511"/>
    <nd ref="437345512"/>
    <nd ref="437345510"/>
    <nd ref="437345509"/>
    <tag k="addr:city" v="Uelzen"/>
    <tag k="addr:country" v="DE"/>
    <tag k="addr:housenumber" v="4"/>
    <tag k="addr:postcode" v="29525"/>
    <tag k="addr:street" v="Dachsgang"/>
    <tag k="building" v="yes"/>
  </way>
  <way id="37416626" version="1" timestamp="2009-07-08T15:34:22Z" uid="43863" user="Rundling" changeset="1773505">
    <nd ref="437345511"/>
    <nd ref="437345513"/>
    <nd ref="437345514"/>
    <nd ref="437345512"/>
    <nd ref="437345511"/>
    <tag k="addr:city" v="Uelzen"/>
    <tag k="addr:country" v="DE"/>
    <tag k="addr:housenumber" v="2"/>
    <tag k="addr:postcode" v="29525"/>
    <tag k="addr:street" v="Dachsgang"/>
    <tag k="building" v="yes"/>
  </way>
  <way id="37416627" version="1" timestamp="2009-07-08T15:34:22Z" uid="43863" user="Rundling" changeset="1773505">
    <nd ref="437345515"/>
    <nd ref="437345517"/>
    <nd ref="437345518"/>
    <nd ref="437345516"/>
    <nd ref="437345515"/>
    <tag k="addr:housenumber" v="12"/>
    <tag k="addr:street" v="Dachsgang"/>
    <tag k="building" v="yes"/>
  </way>
  <way id="37416628" version="1" timestamp="2009-07-08T15:34:23Z" uid="43863" user="Rundling" changeset="1773505">
    <nd ref="437345517"/>
    <nd ref="437345519"/>
    <nd ref="437345520"/>
    <nd ref="437345518"/>
    <nd ref="437345517"/>
    <tag k="addr:housenumber" v="10"/>
    <tag k="addr:street" v="Dachsgang"/>
    <tag k="building" v="yes"/>
  </way>
  <way id="37416629" version="1" timestamp="2009-07-08T15:34:23Z" uid="43863" user="Rundling" changeset="1773505">
    <nd ref="437345519"/>
    <nd ref="437345521"/>
    <nd ref="437345522"/>
    <nd ref="437345520"/>
    <nd ref="437345519"/>
    <tag k="addr:housenumber" v="8"/>
    <tag k="addr:street" v="Dachsgang"/>
    <tag k="building" v="yes"/>
  </way>
  <way id="37416630" version="1" timestamp="2009-07-08T15:34:23Z" uid="43863" user="Rundling" changeset="1773505">
    <nd ref="437345523"/>
    <nd ref="437345525"/>
    <nd ref="437345526"/>
    <nd ref="437345524"/>
    <nd ref="437345523"/>
    <tag k="addr:housenumber" v="18"/>
    <tag k="building" v="yes"/>
  </way>
  <way id="37416631" version="1" timestamp="2009-07-08T15:34:23Z" uid="43863" user="Rundling" changeset="1773505">
    <nd ref="437345525"/>
    <nd ref="437345527"/>
    <nd ref="437345528"/>
    <nd ref="437345526"/>
    <nd ref="437345525"/>
    <tag k="addr:housenumber" v="16"/>
    <tag k="building" v="yes"/>
  </way>
  <way id="37416632" version="1" timestamp="2009-07-08T15:34:23Z" uid="43863" user="Rundling" changeset="1773505">
    <nd ref="437345527"/>
    <nd ref="437345529"/>
    <nd ref="437345530"/>
    <nd ref="437345528"/>
    <nd ref="437345527"/>
    <tag k="addr:housenumber" v="14"/>
    <tag k="building" v="yes"/>
  </way>
  <way id="37416633" version="1" timestamp="2009-07-08T15:34:23Z" uid="43863" user="Rundling" changeset="1773505">
    <nd ref="437345531"/>
    <nd ref="437345533"/>
    <nd ref="437345534"/>
    <nd ref="437345532"/>
    <nd ref="437345531"/>
    <tag k="addr:housenumber" v="24"/>
    <tag k="building" v="yes"/>
  </way>
  <way id="37416634" version="1" timestamp="2009-07-08T15:34:24Z" uid="43863" user="Rundling" changeset="1773505">
    <nd ref="437345533"/>
    <nd ref="437345535"/>
    <nd ref="437345536"/>
    <nd ref="437345534"/>
    <nd ref="437345533"/>
    <tag k="addr:housenumber" v="22"/>
    <tag k="building" v="yes"/>
  </way>
  <way id="37416635" version="1" timestamp="2009-07-08T15:34:24Z" uid="43863" user="Rundling" changeset="1773505">
    <nd ref="437345535"/>
    <nd ref="437345537"/>
    <nd ref="437345538"/>
    <nd ref="437345536"/>
    <nd ref="437345535"/>
    <tag k="addr:housenumber" v="20"/>
    <tag k="building" v="yes"/>
  </way>
  <way id="37416747" version="1" timestamp="2009-07-08T15:43:54Z" uid="43863" user="Rundling" changeset="1773568">
    <nd ref="305342890"/>
    <nd ref="437354852"/>
    <nd ref="437354854"/>
    <nd ref="437354848"/>
    <nd ref="437354857"/>
    <nd ref="437354849"/>
    <nd ref="437354850"/>
    <nd ref="437354859"/>
    <nd ref="437354851"/>
    <tag k="highway" v="footway"/>
    <tag k="surface" v="cobblestone"/>
  </way>
  <way id="37416747" version="2" timestamp="2009-07-08T15:50:40Z" uid="43863" user="Rundling" changeset="1773620">
    <nd ref="305342890"/>
    <nd ref="437354855"/>
    <nd ref="437354854"/>
    <nd ref="437354848"/>
    <nd ref="437354857"/>
    <nd ref="437354849"/>
    <nd ref="437354850"/>
    <nd ref="437354859"/>
    <nd ref="437354851"/>
    <nd ref="437359949"/>
    <nd ref="437359945"/>
    <tag k="bicycle" v="yes"/>
    <tag k="highway" v="footway"/>
    <tag k="surface" v="unpaved"/>
  </way>
  <way id="37416747" version="3" timestamp="2009-07-08T16:01:23Z" uid="43863" user="Rundling" changeset="1773711">
    <nd ref="305342890"/>
    <nd ref="437365559"/>
    <nd ref="437354855"/>
    <nd ref="437365557"/>
    <nd ref="437365544"/>
    <nd ref="437365554"/>
    <nd ref="437365555"/>
    <nd ref="437354854"/>
    <nd ref="437354848"/>
    <nd ref="437354857"/>
    <nd ref="437354849"/>
    <nd ref="437354850"/>
    <nd ref="437354859"/>
    <nd ref="437354851"/>
    <nd ref="437359949"/>
    <nd ref="437359945"/>
    <tag k="bicycle" v="yes"/>
    <tag k="highway" v="footway"/>
    <tag k="surface" v="unpaved"/>
  </way>
  <way id="37416748" version="1" timestamp="2009-07-08T15:43:55Z" uid="43863" user="Rundling" changeset="1773568">
    <nd ref="437354855"/>
    <nd ref="437354853"/>
    <tag k="access" v="private"/>
    <tag k="bicycle" v="no"/>
    <tag k="foot" v="yes"/>
    <tag k="goods" v="no"/>
    <tag k="hgv" v="no"/>
    <tag k="highway" v="footway"/>
    <tag k="horse" v="no"/>
    <tag k="motorcar" v="no"/>
    <tag k="motorcycle" v="no"/>
    <tag k="psv" v="no"/>
    <tag k="surface" v="cobblestone"/>
  </way>
  <way id="37416749" version="1" timestamp="2009-07-08T15:43:55Z" uid="43863" user="Rundling" changeset="1773568">
    <nd ref="437354854"/>
    <nd ref="437354856"/>
    <tag k="access" v="private"/>
    <tag k="bicycle" v="no"/>
    <tag k="foot" v="yes"/>
    <tag k="goods" v="no"/>
    <tag k="hgv" v="no"/>
    <tag k="highway" v="footway"/>
    <tag k="horse" v="no"/>
    <tag k="motorcar" v="no"/>
    <tag k="motorcycle" v="no"/>
    <tag k="psv" v="no"/>
    <tag k="surface" v="cobblestone"/>
  </way>
  <way id="37416749" version="2" timestamp="2009-07-08T16:01:23Z" uid="43863" user="Rundling" changeset="1773711">
    <nd ref="437365541"/>
    <nd ref="437365542"/>
    <nd ref="437365549"/>
    <nd ref="437365551"/>
    <nd ref="437354854"/>
    <tag k="bicycle" v="yes"/>
    <tag k="highway" v="footway"/>
    <tag k="surface" v="cobblestone"/>
  </way>
  <way id="37416750" version="1" timestamp="2009-07-08T15:43:55Z" uid="43863" user="Rundling" changeset="1773568">
    <nd ref="437354857"/>
    <nd ref="437354858"/>
    <tag k="access" v="private"/>
    <tag k="bicycle" v="no"/>
    <tag k="foot" v="yes"/>
    <tag k="goods" v="no"/>
    <tag k="hgv" v="no"/>
    <tag k="highway" v="footway"/>
    <tag k="horse" v="no"/>
    <tag k="motorcar" v="no"/>
    <tag k="motorcycle" v="no"/>
    <tag k="psv" v="no"/>
    <tag k="surface" v="cobblestone"/>
  </way>
  <way id="37416751" version="1" timestamp="2009-07-08T15:43:55Z" uid="43863" user="Rundling" changeset="1773568">
    <nd ref="437354859"/>
    <nd ref="437354860"/>
    <tag k="access" v="private"/>
    <tag k="bicycle" v="no"/>
    <tag k="foot" v="yes"/>
    <tag k="goods" v="no"/>
    <tag k="hgv" v="no"/>
    <tag k="highway" v="footway"/>
    <tag k="horse" v="no"/>
    <tag k="motorcar" v="no"/>
    <tag k="motorcycle" v="no"/>
    <tag k="psv" v="no"/>
    <tag k="surface" v="cobblestone"/>
  </way>
  <way id="37416752" version="1" timestamp="2009-07-08T15:43:55Z" uid="43863" user="Rundling" changeset="1773568">
    <nd ref="437354860"/>
    <nd ref="437354861"/>
    <tag k="access" v="private"/>
    <tag k="bicycle" v="no"/>
    <tag k="foot" v="yes"/>
    <tag k="goods" v="no"/>
    <tag k="hgv" v="no"/>
    <tag k="highway" v="steps"/>
    <tag k="horse" v="no"/>
    <tag k="motorcar" v="no"/>
    <tag k="motorcycle" v="no"/>
    <tag k="psv" v="no"/>
    <tag k="surface" v="cobblestone"/>
  </way>
  <way id="37416858" version="1" timestamp="2009-07-08T15:50:38Z" uid="43863" user="Rundling" changeset="1773620">
    <nd ref="309732576"/>
    <nd ref="437359925"/>
    <nd ref="437359926"/>
    <nd ref="437359927"/>
    <nd ref="437359928"/>
    <nd ref="437359930"/>
    <nd ref="437359934"/>
    <nd ref="437359937"/>
    <tag k="highway" v="track"/>
    <tag k="tracktype" v="grade3"/>
  </way>
  <way id="37416859" version="1" timestamp="2009-07-08T15:50:38Z" uid="43863" user="Rundling" changeset="1773620">
    <nd ref="437359940"/>
    <nd ref="437359945"/>
    <nd ref="437359942"/>
    <tag k="highway" v="track"/>
    <tag k="tracktype" v="grade3"/>
  </way>
  <way id="37416859" version="2" timestamp="2010-08-25T20:24:35Z" uid="292562" user="WMWDe" changeset="5593449">
    <nd ref="437359940"/>
    <nd ref="879399394"/>
    <nd ref="437359945"/>
    <nd ref="437359942"/>
    <nd ref="423990268"/>
    <tag k="highway" v="track"/>
    <tag k="tracktype" v="grade3"/>
  </way>
  <way id="37416860" version="1" timestamp="2009-07-08T15:50:38Z" uid="43863" user="Rundling" changeset="1773620">
    <nd ref="437359949"/>
    <nd ref="437359952"/>
    <nd ref="309732523"/>
    <tag k="bicycle" v="yes"/>
    <tag k="highway" v="footway"/>
    <tag k="surface" v="cobblestone"/>
  </way>
  <way id="37416874" version="2" timestamp="2009-09-18T15:20:10Z" uid="23543" user="jkjk" changeset="2525434"/>
</osm>
