<?xml version='1.0' encoding='UTF-8'?>
<osm version="0.6" generator="libosmium/2.20.0">
  <way id="37503190" version="1" timestamp="2009-07-09T23:41:09Z" uid="20587" user="balrog-kun" changeset="1785153">
    <nd ref="319674604"/>
    <nd ref="319674787"/>
    <tag k="highway" v="pedestrian"/>
    <tag k="name" v="Calle de Prudencio Morales"/>
  </way>
  <way id="37503191" version="1" timestamp="2009-07-09T23:41:09Z" uid="20587" user="balrog-kun" changeset="1785153">
    <nd ref="319674787"/>
    <nd ref="335690932"/>
    <nd ref="337286843"/>
    <nd ref="335690954"/>
    <tag k="highway" v="residential"/>
    <tag k="name" v="Calle de Prudencio Morales"/>
    <tag k="oneway" v="yes"/>
  </way>
  <way id="37503193" version="1" timestamp="2009-07-09T23:41:09Z" uid="20587" user="balrog-kun" changeset="1785153">
    <nd ref="438825075"/>
    <nd ref="319674601"/>
    <tag k="highway" v="pedestrian"/>
    <tag k="name" v="Pasaje de la Maestra Librada Alvarado"/>
  </way>
  <way id="37503194" version="1" timestamp="2009-07-09T23:41:09Z" uid="20587" user="balrog-kun" changeset="1785153">
    <nd ref="438825076"/>
    <nd ref="438825086"/>
    <nd ref="319674786"/>
    <nd ref="438825077"/>
    <nd ref="438825078"/>
    <nd ref="438825079"/>
    <tag k="highway" v="residential"/>
    <tag k="name" v="Calle de Américo Vespucio"/>
    <tag k="oneway" v="yes"/>
  </way>
  <way id="37503195" version="1" timestamp="2009-07-09T23:41:09Z" uid="20587" user="balrog-kun" changeset="1785153">
    <nd ref="438825081"/>
    <nd ref="438825084"/>
    <nd ref="438825083"/>
    <nd ref="319674596"/>
    <tag k="highway" v="residential"/>
    <tag k="name" v="Calle de Mary Sánchez"/>
    <tag k="oneway" v="yes"/>
  </way>
  <way id="37503195" version="2" timestamp="2009-07-24T16:00:52Z" uid="20587" user="balrog-kun" changeset="1926660">
    <nd ref="438825081"/>
    <nd ref="438825084"/>
    <nd ref="447084808"/>
    <nd ref="438825083"/>
    <nd ref="319674596"/>
    <tag k="highway" v="residential"/>
    <tag k="name" v="Calle de Mary Sánchez"/>
    <tag k="oneway" v="yes"/>
  </way>
  <way id="37503196" version="1" timestamp="2009-07-09T23:41:10Z" uid="20587" user="balrog-kun" changeset="1785153">
    <nd ref="438825084"/>
    <nd ref="438825091"/>
    <nd ref="438825086"/>
    <tag k="highway" v="residential"/>
    <tag k="oneway" v="yes"/>
    <tag k="unnamed" v="yes"/>
  </way>
  <way id="37503196" version="2" timestamp="2009-07-24T16:00:49Z" uid="20587" user="balrog-kun" changeset="1926660">
    <nd ref="438825084"/>
    <nd ref="438825091"/>
    <nd ref="438825086"/>
    <tag k="highway" v="residential"/>
    <tag k="name" v="Calle de Egido"/>
    <tag k="oneway" v="yes"/>
  </way>
  <way id="37503197" version="1" timestamp="2009-07-09T23:41:10Z" uid="20587" user="balrog-kun" changeset="1785153">
    <nd ref="438825088"/>
    <nd ref="438825090"/>
    <nd ref="438825091"/>
    <tag k="highway" v="residential"/>
    <tag k="oneway" v="yes"/>
    <tag k="unnamed" v="yes"/>
  </way>
  <way id="37503197" version="2" timestamp="2009-07-24T16:00:46Z" uid="20587" user="balrog-kun" changeset="1926660">
    <nd ref="438825088"/>
    <nd ref="438825090"/>
    <nd ref="438825091"/>
    <tag k="highway" v="residential"/>
    <tag k="name" v="Calle de Pajonales"/>
    <tag k="oneway" v="yes"/>
  </way>
  <way id="37503197" version="3" timestamp="2009-12-20T23:56:39Z" uid="82267" user="rolandom" changeset="3417901">
    <nd ref="438825091"/>
    <nd ref="438825090"/>
    <nd ref="438825088"/>
    <tag k="highway" v="residential"/>
    <tag k="name" v="Calle de Pajonales"/>
    <tag k="oneway" v="yes"/>
  </way>
  <way id="37503197" version="4" timestamp="2009-12-20T23:58:56Z" uid="82267" user="rolandom" changeset="3417911">
    <nd ref="438825088"/>
    <nd ref="438825090"/>
    <nd ref="438825091"/>
    <tag k="highway" v="residential"/>
    <tag k="name" v="Calle de Pajonales"/>
    <tag k="oneway" v="yes"/>
  </way>
  <way id="37503197" version="5" timestamp="2009-12-20T23:59:05Z" uid="82267" user="rolandom" changeset="3417911">
    <nd ref="438825091"/>
    <nd ref="438825090"/>
    <nd ref="438825088"/>
    <tag k="highway" v="residential"/>
    <tag k="name" v="Calle de Pajonales"/>
    <tag k="oneway" v="yes"/>
  </way>
  <way id="37503198" version="1" timestamp="2009-07-09T23:41:10Z" uid="20587" user="balrog-kun" changeset="1785153">
    <nd ref="319674596"/>
    <nd ref="438825088"/>
    <nd ref="438825076"/>
    <tag k="highway" v="residential"/>
    <tag k="name" v="Calle de Alonso de Ojeda"/>
  </way>
  <way id="37503198" version="2" timestamp="2009-07-09T23:44:58Z" uid="20587" user="balrog-kun" changeset="1785161">
    <nd ref="319674596"/>
    <nd ref="438825088"/>
    <nd ref="438825076"/>
    <tag k="highway" v="residential"/>
    <tag k="name" v="Calle de Alonso de Ojeda"/>
    <tag k="oneway" v="yes"/>
  </way>
  <way id="37503199" version="1" timestamp="2009-07-09T23:41:10Z" uid="20587" user="balrog-kun" changeset="1785153">
    <nd ref="438825076"/>
    <nd ref="319674598"/>
    <tag k="highway" v="pedestrian"/>
    <tag k="name" v="Calle de Alonso de Ojeda"/>
  </way>
  <way id="37503201" version="1" timestamp="2009-07-09T23:41:10Z" uid="20587" user="balrog-kun" changeset="1785153">
    <nd ref="319674589"/>
    <nd ref="319674591"/>
    <nd ref="319674594"/>
    <tag k="highway" v="pedestrian"/>
    <tag k="name" v="Calle de La Caleta"/>
  </way>
  <way id="37503202" version="1" timestamp="2009-07-09T23:41:10Z" uid="20587" user="balrog-kun" changeset="1785153">
    <nd ref="319674589"/>
    <nd ref="438825097"/>
    <nd ref="337288020"/>
    <tag k="highway" v="residential"/>
    <tag k="name" v="Calle de La Caleta"/>
  </way>
  <way id="37503203" version="1" timestamp="2009-07-09T23:41:10Z" uid="20587" user="balrog-kun" changeset="1785153">
    <nd ref="319674756"/>
    <nd ref="338287435"/>
    <nd ref="337288019"/>
    <nd ref="438825097"/>
    <tag k="highway" v="residential"/>
  </way>
  <way id="37503203" version="2" timestamp="2009-07-24T16:00:53Z" uid="20587" user="balrog-kun" changeset="1926660">
    <nd ref="319674574"/>
    <nd ref="319674756"/>
    <nd ref="338287435"/>
    <nd ref="337288019"/>
    <nd ref="438825097"/>
    <tag k="highway" v="residential"/>
    <tag k="name" v="Calle de Satautejo"/>
  </way>
  <way id="37503204" version="1" timestamp="2009-07-09T23:41:10Z" uid="20587" user="balrog-kun" changeset="1785153">
    <nd ref="319674611"/>
    <nd ref="319142461"/>
    <nd ref="319142462"/>
    <nd ref="319674715"/>
    <tag k="highway" v="pedestrian"/>
    <tag k="name" v="Calle de Tenerife"/>
  </way>
</osm>
