<?xml version='1.0' encoding='UTF-8'?>
<osm version="0.6" generator="libosmium/2.20.0">
  <way id="37675345" version="1" timestamp="2009-07-14T13:44:49Z" uid="43863" user="Rundling" changeset="1827037">
    <nd ref="441694898"/>
    <nd ref="441694900"/>
    <nd ref="441694901"/>
    <nd ref="441694902"/>
    <nd ref="441694904"/>
    <nd ref="441694905"/>
    <nd ref="441694907"/>
    <nd ref="441694908"/>
    <nd ref="441694898"/>
    <tag k="landuse" v="meadow"/>
    <tag k="name" v="Heinrich Wiese"/>
  </way>
  <way id="37675345" version="2" timestamp="2010-01-29T16:09:41Z" uid="43863" user="Rundling" changeset="3744290">
    <nd ref="441694898"/>
    <nd ref="441694901"/>
    <nd ref="441694902"/>
    <nd ref="441694904"/>
    <nd ref="441694905"/>
    <nd ref="441694907"/>
    <nd ref="441694908"/>
    <nd ref="622424401"/>
    <nd ref="441694898"/>
    <tag k="landuse" v="meadow"/>
    <tag k="name" v="Heinrich Wiese"/>
  </way>
  <way id="37675435" version="1" timestamp="2009-07-14T13:49:44Z" uid="43863" user="Rundling" changeset="1827078">
    <nd ref="441696473"/>
    <nd ref="441696476"/>
    <nd ref="441696477"/>
    <nd ref="441696478"/>
    <nd ref="441696479"/>
    <nd ref="441696480"/>
    <nd ref="441696481"/>
    <nd ref="441696482"/>
    <nd ref="441696483"/>
    <nd ref="441696484"/>
    <nd ref="441696485"/>
    <nd ref="441696486"/>
    <nd ref="441696487"/>
    <nd ref="441696488"/>
    <nd ref="441696489"/>
    <nd ref="441696490"/>
    <nd ref="441696491"/>
    <nd ref="441696492"/>
    <nd ref="441696493"/>
    <nd ref="441696494"/>
    <nd ref="441696495"/>
    <nd ref="441696496"/>
    <nd ref="441696497"/>
    <nd ref="441696498"/>
    <nd ref="441696499"/>
    <nd ref="441696500"/>
    <nd ref="441696501"/>
    <nd ref="441696502"/>
    <nd ref="441696503"/>
    <nd ref="441696504"/>
    <nd ref="441696505"/>
    <nd ref="441696506"/>
    <nd ref="441696507"/>
    <nd ref="441696508"/>
    <nd ref="441696509"/>
    <nd ref="441696510"/>
    <nd ref="441696511"/>
    <nd ref="441696512"/>
    <nd ref="441696513"/>
    <nd ref="441696514"/>
    <nd ref="441696515"/>
    <nd ref="441696516"/>
    <nd ref="441696473"/>
    <tag k="landuse" v="farmland"/>
  </way>
  <way id="37675435" version="2" timestamp="2010-11-15T13:07:18Z" uid="80279" user="freies Wendland" changeset="6377210">
    <nd ref="441696473"/>
    <nd ref="441696476"/>
    <nd ref="441696477"/>
    <nd ref="441696478"/>
    <nd ref="441696479"/>
    <nd ref="441696480"/>
    <nd ref="441696481"/>
    <nd ref="441696482"/>
    <nd ref="441696483"/>
    <nd ref="441696484"/>
    <nd ref="441696485"/>
    <nd ref="441696486"/>
    <nd ref="441696487"/>
    <nd ref="441696488"/>
    <nd ref="441696489"/>
    <nd ref="441696490"/>
    <nd ref="990033402"/>
    <nd ref="990033261"/>
    <nd ref="441696491"/>
    <nd ref="441696492"/>
    <nd ref="441696493"/>
    <nd ref="441696494"/>
    <nd ref="441696495"/>
    <nd ref="441696496"/>
    <nd ref="441696497"/>
    <nd ref="441696498"/>
    <nd ref="441696499"/>
    <nd ref="441696500"/>
    <nd ref="441696501"/>
    <nd ref="441696502"/>
    <nd ref="441696503"/>
    <nd ref="441696504"/>
    <nd ref="441696505"/>
    <nd ref="441696506"/>
    <nd ref="441696507"/>
    <nd ref="441696508"/>
    <nd ref="441696509"/>
    <nd ref="441696510"/>
    <nd ref="441696511"/>
    <nd ref="441696512"/>
    <nd ref="441696513"/>
    <nd ref="441696514"/>
    <nd ref="441696515"/>
    <nd ref="441696516"/>
    <nd ref="441696473"/>
    <tag k="landuse" v="farmland"/>
  </way>
  <way id="37675435" version="3" timestamp="2011-07-19T08:43:17Z" uid="51324" user="OPerivar" changeset="8765173">
    <nd ref="441696473"/>
    <nd ref="1366409065"/>
    <nd ref="1366409063"/>
    <nd ref="441696476"/>
    <nd ref="441696477"/>
    <nd ref="441696478"/>
    <nd ref="441696479"/>
    <nd ref="441696480"/>
    <nd ref="441696481"/>
    <nd ref="441696482"/>
    <nd ref="441696483"/>
    <nd ref="441696484"/>
    <nd ref="1366409069"/>
    <nd ref="441696485"/>
    <nd ref="441696486"/>
    <nd ref="441696487"/>
    <nd ref="1366409068"/>
    <nd ref="1366409067"/>
    <nd ref="441696488"/>
    <nd ref="441696489"/>
    <nd ref="441696490"/>
    <nd ref="1366409062"/>
    <nd ref="1366409064"/>
    <nd ref="990033402"/>
    <nd ref="990033261"/>
    <nd ref="441696491"/>
    <nd ref="441696492"/>
    <nd ref="1366409061"/>
    <nd ref="441696493"/>
    <nd ref="441696494"/>
    <nd ref="441696495"/>
    <nd ref="441696496"/>
    <nd ref="441696497"/>
    <nd ref="441696498"/>
    <nd ref="441696499"/>
    <nd ref="441696500"/>
    <nd ref="441696501"/>
    <nd ref="441696502"/>
    <nd ref="441696503"/>
    <nd ref="441696504"/>
    <nd ref="441696505"/>
    <nd ref="441696506"/>
    <nd ref="441696507"/>
    <nd ref="441696508"/>
    <nd ref="441696509"/>
    <nd ref="441696510"/>
    <nd ref="441696511"/>
    <nd ref="441696512"/>
    <nd ref="441696513"/>
    <nd ref="1366409053"/>
    <nd ref="441696514"/>
    <nd ref="441696515"/>
    <nd ref="441696516"/>
    <nd ref="441696473"/>
  </way>
  <way id="37675683" version="4" timestamp="2009-07-25T06:18:24Z" uid="33382" user="de_muur" changeset="1931068">
    <nd ref="441699497"/>
    <nd ref="441699603"/>
    <tag k="highway" v="residential"/>
    <tag k="oneway" v="yes"/>
    <tag k="surface" v="cobblestone"/>
  </way>
  <way id="37675683" version="5" timestamp="2009-08-25T11:33:55Z" uid="55462" user="Lübeck" changeset="2255355">
    <nd ref="441699497"/>
    <nd ref="441699603"/>
    <tag k="highway" v="residential"/>
    <tag k="name" v="Plettengang"/>
    <tag k="oneway" v="yes"/>
    <tag k="surface" v="cobblestone"/>
  </way>
  <way id="37675690" version="3" timestamp="2009-07-25T06:18:23Z" uid="33382" user="de_muur" changeset="1931068">
    <nd ref="441699847"/>
    <nd ref="441699848"/>
    <nd ref="441699849"/>
    <nd ref="441699851"/>
    <nd ref="441699852"/>
    <nd ref="447703618"/>
    <tag k="highway" v="footway"/>
  </way>
  <way id="37675690" version="4" timestamp="2011-04-13T10:29:37Z" uid="63107" user="brogo" changeset="7850465">
    <nd ref="441699847"/>
    <nd ref="441699848"/>
    <nd ref="1243046972"/>
    <nd ref="441699849"/>
    <nd ref="441699851"/>
    <nd ref="441699852"/>
    <nd ref="447703618"/>
    <tag k="highway" v="footway"/>
  </way>
  <way id="37675692" version="2" timestamp="2010-07-06T09:20:38Z" uid="74617" user="JohnSmith" changeset="5147679">
    <nd ref="441699878"/>
    <nd ref="441699877"/>
    <nd ref="441699875"/>
    <tag k="highway" v="residential"/>
    <tag k="maxspeed" v="50"/>
    <tag k="maxspeed:source" v="default residential speed limit in Australia"/>
    <tag k="name" v="Charlotte Street"/>
  </way>
  <way id="37675692" version="3" timestamp="2012-01-19T01:38:48Z" uid="147510" user="woodpeck_fixbot" changeset="10433378">
    <nd ref="441699878"/>
    <nd ref="441699877"/>
    <nd ref="441699875"/>
    <tag k="highway" v="residential"/>
    <tag k="name" v="Charlotte Street"/>
  </way>
  <way id="37675697" version="2" timestamp="2010-07-06T09:15:08Z" uid="74617" user="JohnSmith" changeset="5147679">
    <nd ref="439111304"/>
    <nd ref="82773680"/>
    <nd ref="278901386"/>
    <tag k="highway" v="residential"/>
    <tag k="maxspeed" v="50"/>
    <tag k="maxspeed:source" v="default residential speed limit in Australia"/>
    <tag k="name" v="Playfield Street"/>
  </way>
  <way id="37675697" version="3" timestamp="2012-01-19T01:38:49Z" uid="147510" user="woodpeck_fixbot" changeset="10433378">
    <nd ref="439111304"/>
    <nd ref="82773680"/>
    <nd ref="278901386"/>
    <tag k="highway" v="residential"/>
    <tag k="name" v="Playfield Street"/>
  </way>
  <way id="37675698" version="2" timestamp="2011-02-24T08:44:12Z" uid="4467" user="Rosscoe" changeset="7379520">
    <nd ref="265008351"/>
    <nd ref="441699933"/>
    <nd ref="441699931"/>
    <nd ref="441699930"/>
    <nd ref="441699929"/>
    <nd ref="441699928"/>
    <nd ref="265011080"/>
    <nd ref="441699920"/>
    <nd ref="441699921"/>
    <nd ref="441699922"/>
    <nd ref="441699923"/>
    <nd ref="441699924"/>
    <nd ref="441699926"/>
    <nd ref="441699927"/>
    <tag k="access" v="permissive"/>
    <tag k="highway" v="service"/>
  </way>
  <way id="37675723" version="2" timestamp="2009-07-25T06:18:22Z" uid="33382" user="de_muur" changeset="1931068">
    <nd ref="441699603"/>
    <nd ref="441699847"/>
    <tag k="highway" v="steps"/>
  </way>
  <way id="37675723" version="3" timestamp="2009-08-25T11:33:55Z" uid="55462" user="Lübeck" changeset="2255355">
    <nd ref="441699603"/>
    <nd ref="441699847"/>
    <tag k="highway" v="steps"/>
  </way>
  <way id="37675725" version="3" timestamp="2009-07-25T06:18:23Z" uid="33382" user="de_muur" changeset="1931068">
    <nd ref="441699852"/>
    <nd ref="441699853"/>
    <tag k="highway" v="steps"/>
  </way>
  <way id="37675736" version="2" timestamp="2009-11-22T23:29:45Z" uid="20587" user="balrog-kun" changeset="3192033">
    <nd ref="441699587"/>
    <nd ref="441699280"/>
    <tag k="highway" v="residential"/>
    <tag k="name" v="Mazurska"/>
    <tag k="source" v="UMP-PL, ./UMP-Warszawa/src/OTWOCK.ulice.txt"/>
    <tag k="surface" v="unpaved"/>
  </way>
  <way id="37675736" version="3" timestamp="2010-03-14T20:12:34Z" uid="30632" user="antblant" changeset="4129105">
    <nd ref="549431408"/>
    <nd ref="441699280"/>
    <tag k="highway" v="residential"/>
    <tag k="name" v="Mazurska"/>
    <tag k="source" v="UMP-PL, ./UMP-Warszawa/src/OTWOCK.ulice.txt"/>
    <tag k="surface" v="unpaved"/>
  </way>
  <way id="37675736" version="4" timestamp="2011-01-22T20:09:34Z" uid="363680" user="leszekg" changeset="7054700">
    <nd ref="549431408"/>
    <nd ref="441699280"/>
    <tag k="addr:city" v="Otwock"/>
    <tag k="highway" v="residential"/>
    <tag k="name" v="Mazurska"/>
    <tag k="source" v="UMP-PL, ./UMP-Warszawa/src/OTWOCK.ulice.txt"/>
    <tag k="surface" v="unpaved"/>
  </way>
  <way id="37675736" version="5" timestamp="2012-01-19T21:30:27Z" uid="467703" user="Zbigniew Czernik" changeset="10441448">
    <nd ref="549431408"/>
    <nd ref="441699280"/>
    <tag k="addr:city" v="Otwock"/>
    <tag k="highway" v="track"/>
    <tag k="name" v="Mazurska"/>
    <tag k="source" v="UMP-PL, ./UMP-Warszawa/src/OTWOCK.ulice.txt"/>
    <tag k="surface" v="unpaved"/>
    <tag k="tracktype" v="grade1"/>
  </way>
  <way id="37675737" version="2" timestamp="2009-11-01T12:20:12Z" uid="20587" user="balrog-kun" changeset="3005634">
    <nd ref="441699187"/>
    <nd ref="441700561"/>
    <nd ref="441699806"/>
    <nd ref="441699805"/>
    <nd ref="417081057"/>
    <nd ref="441700560"/>
    <nd ref="441699754"/>
    <nd ref="441700563"/>
    <nd ref="441700055"/>
    <nd ref="441699224"/>
    <nd ref="441699098"/>
    <nd ref="441700604"/>
    <tag k="highway" v="residential"/>
    <tag k="name" v="Grunwaldzka"/>
    <tag k="source" v="UMP-PL, ./UMP-Warszawa/src/OTWOCK.ulice.txt"/>
    <tag k="surface" v="unpaved"/>
  </way>
  <way id="37675737" version="3" timestamp="2009-11-23T01:11:03Z" uid="20587" user="balrog-kun" changeset="3192263">
    <nd ref="441699187"/>
    <nd ref="441700561"/>
    <nd ref="441699806"/>
    <nd ref="441699805"/>
    <tag k="highway" v="residential"/>
    <tag k="name" v="Grunwaldzka"/>
    <tag k="source" v="UMP-PL, ./UMP-Warszawa/src/OTWOCK.ulice.txt"/>
    <tag k="surface" v="unpaved"/>
  </way>
  <way id="37675737" version="4" timestamp="2012-01-19T21:29:40Z" uid="467703" user="Zbigniew Czernik" changeset="10441448">
    <nd ref="441699187"/>
    <nd ref="441700561"/>
    <nd ref="441699806"/>
    <nd ref="441699805"/>
    <tag k="highway" v="track"/>
    <tag k="name" v="Grunwaldzka"/>
    <tag k="source" v="UMP-PL, ./UMP-Warszawa/src/OTWOCK.ulice.txt"/>
    <tag k="surface" v="unpaved"/>
    <tag k="tracktype" v="grade1"/>
  </way>
  <way id="37675739" version="2" timestamp="2009-11-22T23:29:46Z" uid="20587" user="balrog-kun" changeset="3192033">
    <nd ref="441700045"/>
    <nd ref="441700067"/>
    <nd ref="441699127"/>
    <nd ref="441700064"/>
    <nd ref="441699776"/>
    <nd ref="441700065"/>
    <tag k="highway" v="residential"/>
    <tag k="name" v="Wczasowa"/>
    <tag k="source" v="UMP-PL, ./UMP-Warszawa/src/OTWOCK.ulice.txt"/>
    <tag k="surface" v="unpaved"/>
  </way>
  <way id="37675739" version="3" timestamp="2012-01-19T21:31:19Z" uid="467703" user="Zbigniew Czernik" changeset="10441448">
    <nd ref="441700045"/>
    <nd ref="441700067"/>
    <nd ref="441699127"/>
    <nd ref="441700064"/>
    <nd ref="441699776"/>
    <nd ref="441700065"/>
    <tag k="highway" v="track"/>
    <tag k="name" v="Wczasowa"/>
    <tag k="source" v="UMP-PL, ./UMP-Warszawa/src/OTWOCK.ulice.txt"/>
    <tag k="surface" v="unpaved"/>
    <tag k="tracktype" v="grade1"/>
  </way>
  <way id="37675739" version="4" timestamp="2012-03-29T11:33:27Z" uid="586806" user="tomalost" changeset="11137063">
    <nd ref="441700045"/>
    <nd ref="1696044730"/>
    <nd ref="441700067"/>
    <nd ref="441699127"/>
    <nd ref="441700064"/>
    <nd ref="441699776"/>
    <nd ref="441700065"/>
    <tag k="highway" v="track"/>
    <tag k="name" v="Wczasowa"/>
    <tag k="source" v="UMP-PL, ./UMP-Warszawa/src/OTWOCK.ulice.txt"/>
    <tag k="surface" v="unpaved"/>
    <tag k="tracktype" v="grade1"/>
  </way>
  <way id="37675739" version="5" timestamp="2012-03-29T11:39:45Z" uid="586806" user="tomalost" changeset="11137063">
    <nd ref="441700045"/>
    <nd ref="1696044730"/>
    <nd ref="1696048437"/>
    <nd ref="441700067"/>
    <nd ref="441699127"/>
    <nd ref="441700064"/>
    <nd ref="441699776"/>
    <nd ref="441700065"/>
    <tag k="highway" v="track"/>
    <tag k="name" v="Wczasowa"/>
    <tag k="source" v="UMP-PL, ./UMP-Warszawa/src/OTWOCK.ulice.txt"/>
    <tag k="surface" v="unpaved"/>
    <tag k="tracktype" v="grade1"/>
  </way>
  <way id="37675740" version="2" timestamp="2009-11-01T12:20:20Z" uid="20587" user="balrog-kun" changeset="3005634">
    <nd ref="441699704"/>
    <nd ref="441700076"/>
    <nd ref="441700052"/>
    <tag k="highway" v="residential"/>
    <tag k="name" v="Skrzyneckiego"/>
    <tag k="source" v="UMP-PL, ./UMP-Warszawa/src/OTWOCK.ulice.txt"/>
    <tag k="surface" v="unpaved"/>
  </way>
  <way id="37675740" version="3" timestamp="2009-11-22T23:30:00Z" uid="20587" user="balrog-kun" changeset="3192033">
    <nd ref="441699704"/>
    <nd ref="441700076"/>
    <nd ref="441700052"/>
    <tag k="highway" v="residential"/>
    <tag k="name" v="Aleja Generała Jana Skrzyneckiego"/>
    <tag k="source" v="UMP-PL, ./UMP-Warszawa/src/OTWOCK.ulice.txt"/>
    <tag k="surface" v="unpaved"/>
  </way>
  <way id="37675740" version="4" timestamp="2009-11-23T00:29:52Z" uid="20587" user="balrog-kun" changeset="3192263">
    <nd ref="441699704"/>
    <nd ref="568878565"/>
    <tag k="highway" v="residential"/>
    <tag k="name" v="Aleja Generała Jana Skrzyneckiego"/>
    <tag k="source" v="UMP-PL, ./UMP-Warszawa/src/OTWOCK.ulice.txt"/>
    <tag k="surface" v="unpaved"/>
  </way>
  <way id="37675740" version="5" timestamp="2012-01-19T21:28:54Z" uid="467703" user="Zbigniew Czernik" changeset="10441448">
    <nd ref="441699704"/>
    <nd ref="568878565"/>
    <tag k="highway" v="track"/>
    <tag k="name" v="Aleja Generała Jana Skrzyneckiego"/>
    <tag k="source" v="UMP-PL, ./UMP-Warszawa/src/OTWOCK.ulice.txt"/>
    <tag k="surface" v="unpaved"/>
    <tag k="tracktype" v="grade1"/>
  </way>
  <way id="37675741" version="2" timestamp="2009-11-01T12:20:15Z" uid="20587" user="balrog-kun" changeset="3005634">
    <nd ref="441699141"/>
    <nd ref="441699136"/>
    <tag k="highway" v="residential"/>
    <tag k="name" v="Górna"/>
    <tag k="source" v="UMP-PL, ./UMP-Warszawa/src/OTWOCK.ulice.txt"/>
    <tag k="surface" v="unpaved"/>
  </way>
  <way id="37675741" version="3" timestamp="2012-01-19T21:29:43Z" uid="467703" user="Zbigniew Czernik" changeset="10441448">
    <nd ref="441699141"/>
    <nd ref="441699136"/>
    <tag k="highway" v="track"/>
    <tag k="name" v="Górna"/>
    <tag k="source" v="UMP-PL, ./UMP-Warszawa/src/OTWOCK.ulice.txt"/>
    <tag k="surface" v="unpaved"/>
    <tag k="tracktype" v="grade1"/>
  </way>
  <way id="37675742" version="2" timestamp="2009-10-20T22:45:11Z" uid="20587" user="balrog-kun" changeset="2908055"/>
  <way id="37675743" version="2" timestamp="2009-11-01T12:20:22Z" uid="20587" user="balrog-kun" changeset="3005634">
    <nd ref="441699233"/>
    <nd ref="441700221"/>
    <nd ref="441700215"/>
    <nd ref="441700225"/>
    <tag k="highway" v="residential"/>
    <tag k="name" v="Zamenhofa"/>
    <tag k="source" v="UMP-PL, ./UMP-Warszawa/src/OTWOCK.ulice.txt"/>
    <tag k="surface" v="unpaved"/>
  </way>
  <way id="37675743" version="3" timestamp="2009-11-22T23:30:01Z" uid="20587" user="balrog-kun" changeset="3192033">
    <nd ref="441699233"/>
    <nd ref="441700221"/>
    <nd ref="441700215"/>
    <tag k="highway" v="residential"/>
    <tag k="name" v="Doktora Ludwika Zamenhofa"/>
    <tag k="source" v="UMP-PL, ./UMP-Warszawa/src/OTWOCK.ulice.txt"/>
    <tag k="surface" v="unpaved"/>
  </way>
  <way id="37675743" version="4" timestamp="2012-01-19T21:29:20Z" uid="467703" user="Zbigniew Czernik" changeset="10441448">
    <nd ref="441699233"/>
    <nd ref="441700221"/>
    <nd ref="441700215"/>
    <tag k="highway" v="track"/>
    <tag k="name" v="Doktora Ludwika Zamenhofa"/>
    <tag k="source" v="UMP-PL, ./UMP-Warszawa/src/OTWOCK.ulice.txt"/>
    <tag k="surface" v="unpaved"/>
    <tag k="tracktype" v="grade1"/>
  </way>
  <way id="37675744" version="2" timestamp="2009-11-22T23:29:43Z" uid="20587" user="balrog-kun" changeset="3192033">
    <nd ref="441699269"/>
    <nd ref="311993126"/>
    <tag k="highway" v="residential"/>
    <tag k="name" v="Napoleońska"/>
    <tag k="source" v="UMP-PL, ./UMP-Warszawa/src/OTWOCK.ulice.txt"/>
    <tag k="surface" v="unpaved"/>
  </way>
  <way id="37675744" version="3" timestamp="2011-01-22T20:09:12Z" uid="363680" user="leszekg" changeset="7054700">
    <nd ref="441699269"/>
    <nd ref="311993126"/>
    <tag k="addr:city" v="Otwock"/>
    <tag k="highway" v="residential"/>
    <tag k="name" v="Napoleońska"/>
    <tag k="source" v="UMP-PL, ./UMP-Warszawa/src/OTWOCK.ulice.txt"/>
    <tag k="surface" v="unpaved"/>
  </way>
  <way id="37675744" version="4" timestamp="2012-01-19T21:30:31Z" uid="467703" user="Zbigniew Czernik" changeset="10441448">
    <nd ref="441699269"/>
    <nd ref="1598153861"/>
    <nd ref="1598153865"/>
    <tag k="addr:city" v="Otwock"/>
    <tag k="highway" v="track"/>
    <tag k="name" v="Napoleońska"/>
    <tag k="source" v="UMP-PL, ./UMP-Warszawa/src/OTWOCK.ulice.txt"/>
    <tag k="surface" v="unpaved"/>
    <tag k="tracktype" v="grade1"/>
  </way>
  <way id="37675746" version="2" timestamp="2009-11-01T12:20:20Z" uid="20587" user="balrog-kun" changeset="3005634">
    <nd ref="441699207"/>
    <nd ref="441700514"/>
    <nd ref="441700082"/>
    <tag k="highway" v="residential"/>
    <tag k="name" v="Rejtana"/>
    <tag k="source" v="UMP-PL, ./UMP-Warszawa/src/OTWOCK.ulice.txt"/>
    <tag k="surface" v="unpaved"/>
  </way>
  <way id="37675746" version="3" timestamp="2012-01-19T21:30:53Z" uid="467703" user="Zbigniew Czernik" changeset="10441448">
    <nd ref="441699207"/>
    <nd ref="441700514"/>
    <nd ref="441700082"/>
    <tag k="highway" v="track"/>
    <tag k="name" v="Rejtana"/>
    <tag k="source" v="UMP-PL, ./UMP-Warszawa/src/OTWOCK.ulice.txt"/>
    <tag k="surface" v="unpaved"/>
    <tag k="tracktype" v="grade1"/>
  </way>
  <way id="37675748" version="2" timestamp="2009-11-22T23:29:47Z" uid="20587" user="balrog-kun" changeset="3192033">
    <nd ref="441699266"/>
    <nd ref="441699780"/>
    <nd ref="441699779"/>
    <nd ref="441699778"/>
    <tag k="highway" v="residential"/>
    <tag k="name" v="Podmiejska"/>
    <tag k="source" v="UMP-PL, ./UMP-Warszawa/src/OTWOCK.ulice.txt"/>
    <tag k="surface" v="unpaved"/>
  </way>
  <way id="37675748" version="3" timestamp="2011-01-22T20:09:45Z" uid="363680" user="leszekg" changeset="7054700">
    <nd ref="441699266"/>
    <nd ref="441699780"/>
    <nd ref="441699779"/>
    <nd ref="441699778"/>
    <tag k="addr:city" v="Otwock"/>
    <tag k="highway" v="residential"/>
    <tag k="name" v="Podmiejska"/>
    <tag k="source" v="UMP-PL, ./UMP-Warszawa/src/OTWOCK.ulice.txt"/>
    <tag k="surface" v="unpaved"/>
  </way>
  <way id="37675748" version="4" timestamp="2012-01-19T21:30:43Z" uid="467703" user="Zbigniew Czernik" changeset="10441448">
    <nd ref="441699266"/>
    <nd ref="441699780"/>
    <tag k="addr:city" v="Otwock"/>
    <tag k="highway" v="track"/>
    <tag k="name" v="Podmiejska"/>
    <tag k="source" v="UMP-PL, ./UMP-Warszawa/src/OTWOCK.ulice.txt"/>
    <tag k="surface" v="unpaved"/>
    <tag k="tracktype" v="grade1"/>
  </way>
  <way id="37675749" version="2" timestamp="2009-11-22T23:30:00Z" uid="20587" user="balrog-kun" changeset="3192033">
    <nd ref="441699216"/>
    <nd ref="441699059"/>
    <tag k="highway" v="residential"/>
    <tag k="name" v="Szpitalna"/>
    <tag k="source" v="UMP-PL, ./UMP-Warszawa/src/OTWOCK.ulice.txt"/>
    <tag k="surface" v="unpaved"/>
  </way>
  <way id="37675749" version="3" timestamp="2012-01-19T21:31:07Z" uid="467703" user="Zbigniew Czernik" changeset="10441448">
    <nd ref="441699216"/>
    <nd ref="441699059"/>
    <tag k="highway" v="track"/>
    <tag k="name" v="Szpitalna"/>
    <tag k="source" v="UMP-PL, ./UMP-Warszawa/src/OTWOCK.ulice.txt"/>
    <tag k="surface" v="unpaved"/>
    <tag k="tracktype" v="grade1"/>
  </way>
  <way id="37675750" version="2" timestamp="2009-11-22T23:30:01Z" uid="20587" user="balrog-kun" changeset="3192033">
    <nd ref="441700498"/>
    <nd ref="441700481"/>
    <tag k="highway" v="residential"/>
    <tag k="name" v="Zagajników"/>
    <tag k="source" v="UMP-PL, ./UMP-Warszawa/src/OTWOCK.ulice.txt"/>
    <tag k="surface" v="unpaved"/>
  </way>
  <way id="37675751" version="2" timestamp="2009-11-01T12:20:20Z" uid="20587" user="balrog-kun" changeset="3005634">
    <nd ref="441699948"/>
    <nd ref="441699955"/>
    <nd ref="441700518"/>
    <nd ref="441700514"/>
    <nd ref="441700513"/>
    <nd ref="441699231"/>
    <nd ref="441700516"/>
    <tag k="highway" v="residential"/>
    <tag k="name" v="Syrokomli"/>
    <tag k="source" v="UMP-PL, ./UMP-Warszawa/src/OTWOCK.ulice.txt"/>
    <tag k="surface" v="unpaved"/>
  </way>
  <way id="37675751" version="3" timestamp="2012-01-19T21:31:04Z" uid="467703" user="Zbigniew Czernik" changeset="10441448">
    <nd ref="441699948"/>
    <nd ref="441699955"/>
    <nd ref="441700518"/>
    <nd ref="441700514"/>
    <nd ref="441700513"/>
    <nd ref="441699231"/>
    <nd ref="441700516"/>
    <tag k="highway" v="track"/>
    <tag k="name" v="Syrokomli"/>
    <tag k="source" v="UMP-PL, ./UMP-Warszawa/src/OTWOCK.ulice.txt"/>
    <tag k="surface" v="unpaved"/>
    <tag k="tracktype" v="grade1"/>
  </way>
  <way id="37675752" version="2" timestamp="2009-11-01T12:20:22Z" uid="20587" user="balrog-kun" changeset="3005634">
    <nd ref="441700311"/>
    <nd ref="441700078"/>
    <tag k="highway" v="residential"/>
    <tag k="name" v="Łowiecka"/>
    <tag k="source" v="UMP-PL, ./UMP-Warszawa/src/OTWOCK.ulice.txt"/>
    <tag k="surface" v="unpaved"/>
  </way>
  <way id="37675752" version="3" timestamp="2012-01-19T21:31:56Z" uid="467703" user="Zbigniew Czernik" changeset="10441448">
    <nd ref="441700311"/>
    <nd ref="441700078"/>
    <tag k="highway" v="track"/>
    <tag k="name" v="Łowiecka"/>
    <tag k="source" v="UMP-PL, ./UMP-Warszawa/src/OTWOCK.ulice.txt"/>
    <tag k="surface" v="unpaved"/>
    <tag k="tracktype" v="grade1"/>
  </way>
  <way id="37675754" version="2" timestamp="2009-11-01T12:20:18Z" uid="20587" user="balrog-kun" changeset="3005634">
    <nd ref="441699234"/>
    <nd ref="441699762"/>
    <nd ref="441700075"/>
    <tag k="highway" v="residential"/>
    <tag k="name" v="Zamkowa"/>
    <tag k="source" v="UMP-PL, ./UMP-Warszawa/src/OTWOCK.ulice.txt"/>
    <tag k="surface" v="unpaved"/>
  </way>
  <way id="37675754" version="3" timestamp="2012-01-19T21:31:38Z" uid="467703" user="Zbigniew Czernik" changeset="10441448">
    <nd ref="441699234"/>
    <nd ref="441699762"/>
    <nd ref="441700075"/>
    <tag k="highway" v="track"/>
    <tag k="name" v="Zamkowa"/>
    <tag k="source" v="UMP-PL, ./UMP-Warszawa/src/OTWOCK.ulice.txt"/>
    <tag k="surface" v="unpaved"/>
    <tag k="tracktype" v="grade1"/>
  </way>
  <way id="37675756" version="2" timestamp="2010-03-14T20:12:38Z" uid="30632" user="antblant" changeset="4129105">
    <nd ref="549432716"/>
    <nd ref="549432715"/>
    <nd ref="549432713"/>
    <nd ref="549432710"/>
    <nd ref="549432702"/>
    <nd ref="549432695"/>
    <nd ref="441699871"/>
    <nd ref="441699870"/>
    <tag k="highway" v="residential"/>
    <tag k="source" v="UMP-PL, ./UMP-Warszawa/src/OTWOCK.ulice.txt"/>
  </way>
  <way id="37675756" version="3" timestamp="2010-08-14T12:48:21Z" uid="56410" user="andis_project" changeset="5490318">
    <nd ref="860159351"/>
    <nd ref="549432716"/>
    <nd ref="549432715"/>
    <nd ref="549432713"/>
    <nd ref="549432710"/>
    <nd ref="549432702"/>
    <nd ref="549432695"/>
    <nd ref="441699871"/>
    <nd ref="441699870"/>
    <tag k="highway" v="residential"/>
    <tag k="source" v="UMP-PL, ./UMP-Warszawa/src/OTWOCK.ulice.txt"/>
  </way>
  <way id="37675756" version="4" timestamp="2011-02-19T02:12:58Z" uid="20587" user="balrog-kun" changeset="7328304">
    <nd ref="860159351"/>
    <nd ref="549432716"/>
    <nd ref="549432715"/>
    <nd ref="549432713"/>
    <nd ref="549432710"/>
    <nd ref="549432702"/>
    <nd ref="549432695"/>
    <nd ref="441699871"/>
    <nd ref="441699870"/>
    <tag k="highway" v="residential"/>
    <tag k="source" v="UMP-PL, ./UMP-Warszawa/src/OTWOCK.ulice.txt"/>
  </way>
  <way id="37675757" version="2" timestamp="2009-11-01T12:20:12Z" uid="20587" user="balrog-kun" changeset="3005634">
    <nd ref="441699583"/>
    <nd ref="441699582"/>
    <nd ref="441699528"/>
    <tag k="highway" v="track"/>
    <tag k="source" v="UMP-PL, ./UMP-Warszawa/src/OTWOCK.ulice.txt"/>
  </way>
  <way id="37675758" version="2" timestamp="2009-11-01T12:20:18Z" uid="20587" user="balrog-kun" changeset="3005634">
    <nd ref="441699235"/>
    <nd ref="441699760"/>
    <nd ref="441700309"/>
    <nd ref="441700310"/>
    <nd ref="441700075"/>
    <nd ref="441700311"/>
    <nd ref="441700074"/>
    <tag k="highway" v="residential"/>
    <tag k="name" v="Łowiecka"/>
    <tag k="source" v="UMP-PL, ./UMP-Warszawa/src/OTWOCK.ulice.txt"/>
    <tag k="surface" v="unpaved"/>
  </way>
  <way id="37675758" version="3" timestamp="2009-11-23T00:29:51Z" uid="20587" user="balrog-kun" changeset="3192263">
    <nd ref="441699235"/>
    <nd ref="441699760"/>
    <tag k="highway" v="residential"/>
    <tag k="name" v="Łowiecka"/>
    <tag k="source" v="UMP-PL, ./UMP-Warszawa/src/OTWOCK.ulice.txt"/>
    <tag k="surface" v="unpaved"/>
  </way>
  <way id="37675758" version="4" timestamp="2012-01-19T21:31:56Z" uid="467703" user="Zbigniew Czernik" changeset="10441448">
    <nd ref="441699235"/>
    <nd ref="441699760"/>
    <tag k="highway" v="track"/>
    <tag k="name" v="Łowiecka"/>
    <tag k="source" v="UMP-PL, ./UMP-Warszawa/src/OTWOCK.ulice.txt"/>
    <tag k="surface" v="unpaved"/>
    <tag k="tracktype" v="grade1"/>
  </way>
  <way id="37675759" version="2" timestamp="2009-11-23T01:11:06Z" uid="20587" user="balrog-kun" changeset="3192263">
    <nd ref="441699064"/>
    <nd ref="441699755"/>
    <nd ref="441699754"/>
    <nd ref="441699757"/>
    <nd ref="441699756"/>
    <nd ref="417081145"/>
    <tag k="highway" v="track"/>
    <tag k="source" v="UMP-PL, ./UMP-Warszawa/src/OTWOCK.ulice.txt"/>
  </way>
  <way id="37675759" version="3" timestamp="2011-04-09T23:04:06Z" uid="98542" user="wajak" changeset="7818269">
    <nd ref="1239304030"/>
    <nd ref="1239304195"/>
    <nd ref="1239303853"/>
    <nd ref="1239303919"/>
    <nd ref="1239304102"/>
    <nd ref="1239303784"/>
    <nd ref="1239303882"/>
    <nd ref="441699064"/>
    <tag k="highway" v="track"/>
    <tag k="tracktype" v="grade3"/>
  </way>
  <way id="37675760" version="2" timestamp="2009-11-23T01:11:06Z" uid="20587" user="balrog-kun" changeset="3192263">
    <nd ref="417081014"/>
    <nd ref="441700570"/>
    <tag k="highway" v="track"/>
    <tag k="source" v="UMP-PL, ./UMP-Warszawa/src/OTWOCK.ulice.txt"/>
  </way>
  <way id="37675761" version="2" timestamp="2009-11-22T23:30:02Z" uid="20587" user="balrog-kun" changeset="3192033">
    <nd ref="441700495"/>
    <nd ref="441700498"/>
    <nd ref="441700500"/>
    <nd ref="441700486"/>
    <tag k="highway" v="residential"/>
    <tag k="name" v="Żurawia"/>
    <tag k="source" v="UMP-PL, ./UMP-Warszawa/src/OTWOCK.ulice.txt"/>
    <tag k="surface" v="unpaved"/>
  </way>
  <way id="37675762" version="2" timestamp="2009-10-31T22:49:13Z" uid="20587" user="balrog-kun" changeset="3002253">
    <nd ref="441699501"/>
    <nd ref="311570403"/>
    <nd ref="441699502"/>
    <nd ref="441699503"/>
    <nd ref="441699056"/>
    <nd ref="441699504"/>
    <nd ref="441699506"/>
    <nd ref="441699519"/>
    <nd ref="441699520"/>
    <nd ref="441699521"/>
    <nd ref="441699236"/>
    <tag k="highway" v="tertiary"/>
    <tag k="name" v="Józefa Poniatowskiego"/>
    <tag k="source" v="UMP-PL, ./UMP-Warszawa/src/OTWOCK.ulice.txt"/>
  </way>
  <way id="37675762" version="3" timestamp="2009-11-22T23:29:41Z" uid="20587" user="balrog-kun" changeset="3192033">
    <nd ref="441699501"/>
    <nd ref="311570403"/>
    <nd ref="441699502"/>
    <nd ref="441699503"/>
    <nd ref="441699056"/>
    <nd ref="441699504"/>
    <nd ref="441699506"/>
    <tag k="highway" v="tertiary"/>
    <tag k="name" v="Księcia Józefa Poniatowskiego"/>
    <tag k="source" v="UMP-PL, ./UMP-Warszawa/src/OTWOCK.ulice.txt"/>
  </way>
  <way id="37675762" version="4" timestamp="2011-09-10T10:25:48Z" uid="416579" user="Freddie Chopin" changeset="9260933">
    <nd ref="441699501"/>
    <nd ref="311570403"/>
    <nd ref="441699502"/>
    <nd ref="441699503"/>
    <nd ref="441699056"/>
    <tag k="highway" v="tertiary"/>
    <tag k="name" v="Księcia Józefa Poniatowskiego"/>
  </way>
  <way id="37675762" version="5" timestamp="2012-01-19T21:30:11Z" uid="467703" user="Zbigniew Czernik" changeset="10441448">
    <nd ref="441699501"/>
    <nd ref="311570403"/>
    <nd ref="441699502"/>
    <nd ref="441699503"/>
    <nd ref="441699056"/>
    <tag k="highway" v="residential"/>
    <tag k="name" v="Księcia Józefa Poniatowskiego"/>
  </way>
  <way id="37675763" version="2" timestamp="2009-11-01T12:20:18Z" uid="20587" user="balrog-kun" changeset="3005634">
    <nd ref="441699048"/>
    <nd ref="441700074"/>
    <nd ref="441700078"/>
    <nd ref="441700076"/>
    <tag k="highway" v="residential"/>
    <tag k="name" v="Wojskiego"/>
    <tag k="source" v="UMP-PL, ./UMP-Warszawa/src/OTWOCK.ulice.txt"/>
    <tag k="surface" v="unpaved"/>
  </way>
  <way id="37675763" version="3" timestamp="2012-01-19T21:31:34Z" uid="467703" user="Zbigniew Czernik" changeset="10441448">
    <nd ref="441699048"/>
    <nd ref="441700074"/>
    <nd ref="441700078"/>
    <nd ref="441700076"/>
    <tag k="highway" v="track"/>
    <tag k="name" v="Wojskiego"/>
    <tag k="source" v="UMP-PL, ./UMP-Warszawa/src/OTWOCK.ulice.txt"/>
    <tag k="surface" v="unpaved"/>
    <tag k="tracktype" v="grade1"/>
  </way>
  <way id="37675764" version="2" timestamp="2009-11-01T12:20:12Z" uid="20587" user="balrog-kun" changeset="3005634">
    <nd ref="441699818"/>
    <nd ref="441700509"/>
    <tag k="highway" v="residential"/>
    <tag k="name" v="Przygody"/>
    <tag k="source" v="UMP-PL, ./UMP-Warszawa/src/OTWOCK.ulice.txt"/>
    <tag k="surface" v="unpaved"/>
  </way>
  <way id="37675764" version="3" timestamp="2012-01-19T21:30:50Z" uid="467703" user="Zbigniew Czernik" changeset="10441448">
    <nd ref="441699818"/>
    <nd ref="441700509"/>
    <tag k="highway" v="track"/>
    <tag k="name" v="Przygody"/>
    <tag k="source" v="UMP-PL, ./UMP-Warszawa/src/OTWOCK.ulice.txt"/>
    <tag k="surface" v="unpaved"/>
    <tag k="tracktype" v="grade1"/>
  </way>
  <way id="37675765" version="2" timestamp="2009-11-01T12:20:16Z" uid="20587" user="balrog-kun" changeset="3005634">
    <nd ref="441699097"/>
    <nd ref="441699096"/>
    <tag k="highway" v="residential"/>
    <tag k="name" v="Lisia"/>
    <tag k="source" v="UMP-PL, ./UMP-Warszawa/src/OTWOCK.ulice.txt"/>
    <tag k="surface" v="unpaved"/>
  </way>
  <way id="37675765" version="3" timestamp="2012-01-19T21:30:19Z" uid="467703" user="Zbigniew Czernik" changeset="10441448">
    <nd ref="441699097"/>
    <nd ref="441699096"/>
    <tag k="highway" v="track"/>
    <tag k="name" v="Lisia"/>
    <tag k="source" v="UMP-PL, ./UMP-Warszawa/src/OTWOCK.ulice.txt"/>
    <tag k="surface" v="unpaved"/>
    <tag k="tracktype" v="grade1"/>
  </way>
  <way id="37675767" version="2" timestamp="2009-11-01T12:20:16Z" uid="20587" user="balrog-kun" changeset="3005634">
    <nd ref="441700364"/>
    <nd ref="441699192"/>
    <nd ref="441700357"/>
    <nd ref="441700202"/>
    <tag k="highway" v="residential"/>
    <tag k="name" v="Wiewiórcza"/>
    <tag k="source" v="UMP-PL, ./UMP-Warszawa/src/OTWOCK.ulice.txt"/>
    <tag k="surface" v="unpaved"/>
  </way>
  <way id="37675767" version="3" timestamp="2012-01-19T21:31:22Z" uid="467703" user="Zbigniew Czernik" changeset="10441448">
    <nd ref="441700364"/>
    <nd ref="441699192"/>
    <nd ref="441700357"/>
    <nd ref="441700202"/>
    <tag k="highway" v="track"/>
    <tag k="name" v="Wiewiórcza"/>
    <tag k="source" v="UMP-PL, ./UMP-Warszawa/src/OTWOCK.ulice.txt"/>
    <tag k="surface" v="unpaved"/>
    <tag k="tracktype" v="grade1"/>
  </way>
  <way id="37675768" version="2" timestamp="2009-11-22T23:29:42Z" uid="20587" user="balrog-kun" changeset="3192033">
    <nd ref="441699531"/>
    <nd ref="441699572"/>
    <nd ref="441699582"/>
    <tag k="highway" v="residential"/>
    <tag k="name" v="Kazimierza Pułaskiego"/>
    <tag k="source" v="UMP-PL, ./UMP-Warszawa/src/OTWOCK.ulice.txt"/>
  </way>
  <way id="37675770" version="2" timestamp="2009-11-22T23:29:42Z" uid="20587" user="balrog-kun" changeset="3192033">
    <nd ref="441699790"/>
    <nd ref="441699789"/>
    <nd ref="441699788"/>
    <nd ref="441699827"/>
    <tag k="highway" v="residential"/>
    <tag k="name" v="Inwalidów"/>
    <tag k="source" v="UMP-PL, ./UMP-Warszawa/src/OTWOCK.ulice.txt"/>
    <tag k="surface" v="unpaved"/>
  </way>
  <way id="37675770" version="3" timestamp="2012-01-19T21:29:48Z" uid="467703" user="Zbigniew Czernik" changeset="10441448">
    <nd ref="441699790"/>
    <nd ref="441699789"/>
    <nd ref="441699788"/>
    <nd ref="441699827"/>
    <tag k="highway" v="track"/>
    <tag k="name" v="Inwalidów"/>
    <tag k="source" v="UMP-PL, ./UMP-Warszawa/src/OTWOCK.ulice.txt"/>
    <tag k="surface" v="unpaved"/>
    <tag k="tracktype" v="grade1"/>
  </way>
  <way id="37675772" version="2" timestamp="2009-11-22T23:29:46Z" uid="20587" user="balrog-kun" changeset="3192033">
    <nd ref="441699724"/>
    <nd ref="441700272"/>
    <nd ref="441700281"/>
    <tag k="highway" v="residential"/>
    <tag k="name" v="Rysia"/>
    <tag k="source" v="UMP-PL, ./UMP-Warszawa/src/OTWOCK.ulice.txt"/>
    <tag k="surface" v="unpaved"/>
  </way>
  <way id="37675772" version="3" timestamp="2012-01-19T21:30:55Z" uid="467703" user="Zbigniew Czernik" changeset="10441448">
    <nd ref="441699724"/>
    <nd ref="441700272"/>
    <nd ref="441700281"/>
    <tag k="highway" v="track"/>
    <tag k="name" v="Rysia"/>
    <tag k="source" v="UMP-PL, ./UMP-Warszawa/src/OTWOCK.ulice.txt"/>
    <tag k="surface" v="unpaved"/>
    <tag k="tracktype" v="grade1"/>
  </way>
  <way id="37675774" version="2" timestamp="2009-11-22T23:30:00Z" uid="20587" user="balrog-kun" changeset="3192033">
    <nd ref="441699057"/>
    <nd ref="441699999"/>
    <tag k="highway" v="residential"/>
    <tag k="name" v="Świerkowa"/>
    <tag k="source" v="UMP-PL, ./UMP-Warszawa/src/OTWOCK.ulice.txt"/>
    <tag k="surface" v="unpaved"/>
  </way>
  <way id="37675774" version="3" timestamp="2012-01-19T21:32:01Z" uid="467703" user="Zbigniew Czernik" changeset="10441448">
    <nd ref="441699057"/>
    <nd ref="441699999"/>
    <tag k="highway" v="track"/>
    <tag k="name" v="Świerkowa"/>
    <tag k="source" v="UMP-PL, ./UMP-Warszawa/src/OTWOCK.ulice.txt"/>
    <tag k="surface" v="unpaved"/>
    <tag k="tracktype" v="grade1"/>
  </way>
  <way id="37675775" version="2" timestamp="2009-11-01T12:20:14Z" uid="20587" user="balrog-kun" changeset="3005634">
    <nd ref="441700049"/>
    <nd ref="441699114"/>
    <nd ref="441700044"/>
    <nd ref="441700043"/>
    <nd ref="441700023"/>
    <tag k="highway" v="residential"/>
    <tag k="name" v="Brzozowa"/>
    <tag k="source" v="UMP-PL, ./UMP-Warszawa/src/OTWOCK.ulice.txt"/>
    <tag k="surface" v="unpaved"/>
  </way>
  <way id="37675775" version="3" timestamp="2012-01-19T21:29:08Z" uid="467703" user="Zbigniew Czernik" changeset="10441448">
    <nd ref="441700049"/>
    <nd ref="441699114"/>
    <nd ref="441700044"/>
    <nd ref="441700043"/>
    <nd ref="441700023"/>
    <tag k="highway" v="track"/>
    <tag k="name" v="Brzozowa"/>
    <tag k="source" v="UMP-PL, ./UMP-Warszawa/src/OTWOCK.ulice.txt"/>
    <tag k="surface" v="unpaved"/>
    <tag k="tracktype" v="grade1"/>
  </way>
  <way id="37675776" version="2" timestamp="2009-11-01T12:20:20Z" uid="20587" user="balrog-kun" changeset="3005634">
    <nd ref="441699705"/>
    <nd ref="441700076"/>
    <tag k="highway" v="residential"/>
    <tag k="name" v="Zaściankowa"/>
    <tag k="source" v="UMP-PL, ./UMP-Warszawa/src/OTWOCK.ulice.txt"/>
    <tag k="surface" v="unpaved"/>
  </way>
  <way id="37675776" version="3" timestamp="2012-01-19T21:31:39Z" uid="467703" user="Zbigniew Czernik" changeset="10441448">
    <nd ref="441699705"/>
    <nd ref="441700076"/>
    <tag k="highway" v="track"/>
    <tag k="name" v="Zaściankowa"/>
    <tag k="source" v="UMP-PL, ./UMP-Warszawa/src/OTWOCK.ulice.txt"/>
    <tag k="surface" v="unpaved"/>
    <tag k="tracktype" v="grade1"/>
  </way>
  <way id="37675777" version="2" timestamp="2009-11-23T00:29:52Z" uid="20587" user="balrog-kun" changeset="3192263">
    <nd ref="441700418"/>
    <nd ref="441700421"/>
    <nd ref="441700423"/>
    <nd ref="441700425"/>
    <nd ref="441700428"/>
    <nd ref="441700430"/>
    <nd ref="441700432"/>
    <nd ref="441700434"/>
    <nd ref="441700438"/>
    <nd ref="441700439"/>
    <nd ref="441700441"/>
    <nd ref="441700443"/>
    <nd ref="441700445"/>
    <nd ref="441700382"/>
    <nd ref="441700381"/>
    <nd ref="441700384"/>
    <nd ref="441700383"/>
    <nd ref="441700388"/>
    <nd ref="441700386"/>
    <nd ref="441700392"/>
    <nd ref="441700390"/>
    <nd ref="441700396"/>
    <nd ref="441700394"/>
    <nd ref="441700402"/>
    <nd ref="441700398"/>
    <nd ref="441700405"/>
    <nd ref="441699181"/>
    <tag k="highway" v="unclassified"/>
    <tag k="source" v="UMP-PL, ./UMP-Warszawa/src/OTWOCK.ulice.txt"/>
    <tag k="surface" v="unpaved"/>
  </way>
  <way id="37675777" version="3" timestamp="2011-12-25T23:08:29Z" uid="467703" user="Zbigniew Czernik" changeset="10203345">
    <nd ref="441700418"/>
    <nd ref="441700421"/>
    <nd ref="441700423"/>
    <nd ref="441700425"/>
    <nd ref="441700428"/>
    <nd ref="441700430"/>
    <nd ref="441700432"/>
    <nd ref="441700434"/>
    <nd ref="441700438"/>
    <nd ref="441700439"/>
    <nd ref="441700441"/>
    <nd ref="441700443"/>
    <nd ref="441700445"/>
    <nd ref="441700382"/>
    <nd ref="441700381"/>
    <nd ref="441700384"/>
    <nd ref="441700383"/>
    <nd ref="441700388"/>
    <nd ref="441700386"/>
    <nd ref="441700392"/>
    <nd ref="441700390"/>
    <nd ref="441700396"/>
    <nd ref="441700394"/>
    <nd ref="441700402"/>
    <nd ref="441700398"/>
    <nd ref="441700405"/>
    <nd ref="441699181"/>
    <tag k="highway" v="track"/>
    <tag k="source" v="UMP-PL, ./UMP-Warszawa/src/OTWOCK.ulice.txt"/>
    <tag k="surface" v="unpaved"/>
    <tag k="tracktype" v="grade1"/>
  </way>
  <way id="37675779" version="2" timestamp="2009-11-22T23:29:47Z" uid="20587" user="balrog-kun" changeset="3192033">
    <nd ref="441699612"/>
    <nd ref="441699554"/>
    <tag k="highway" v="residential"/>
    <tag k="name" v="Pułtuska"/>
    <tag k="source" v="UMP-PL, ./UMP-Warszawa/src/OTWOCK.ulice.txt"/>
    <tag k="surface" v="unpaved"/>
  </way>
  <way id="37675779" version="3" timestamp="2011-01-22T20:09:33Z" uid="363680" user="leszekg" changeset="7054700">
    <nd ref="441699612"/>
    <nd ref="441699554"/>
    <tag k="addr:city" v="Otwock"/>
    <tag k="highway" v="residential"/>
    <tag k="name" v="Pułtuska"/>
    <tag k="source" v="UMP-PL, ./UMP-Warszawa/src/OTWOCK.ulice.txt"/>
    <tag k="surface" v="unpaved"/>
  </way>
  <way id="37675779" version="4" timestamp="2012-01-19T21:30:51Z" uid="467703" user="Zbigniew Czernik" changeset="10441448">
    <nd ref="441699612"/>
    <nd ref="441699554"/>
    <tag k="addr:city" v="Otwock"/>
    <tag k="highway" v="track"/>
    <tag k="name" v="Pułtuska"/>
    <tag k="source" v="UMP-PL, ./UMP-Warszawa/src/OTWOCK.ulice.txt"/>
    <tag k="surface" v="unpaved"/>
    <tag k="tracktype" v="grade1"/>
  </way>
  <way id="37675780" version="2" timestamp="2010-10-02T20:01:14Z" uid="20587" user="balrog-kun" changeset="5939312">
    <nd ref="311564755"/>
    <nd ref="441699083"/>
    <nd ref="441699080"/>
    <nd ref="441699081"/>
    <nd ref="441699078"/>
    <nd ref="441699079"/>
    <nd ref="366683381"/>
    <tag k="UMP_Level" v="2"/>
    <tag k="highway" v="tertiary"/>
    <tag k="name" v="Samorządowa"/>
    <tag k="source" v="UMP-PL, ./UMP-Warszawa/src/OTWOCK.ulice.txt"/>
  </way>
  <way id="37675780" version="3" timestamp="2012-01-19T21:30:57Z" uid="467703" user="Zbigniew Czernik" changeset="10441448">
    <nd ref="311564755"/>
    <nd ref="1598154931"/>
    <nd ref="441699083"/>
    <nd ref="441699080"/>
    <nd ref="441699081"/>
    <nd ref="441699078"/>
    <nd ref="441699079"/>
    <nd ref="366683381"/>
    <tag k="highway" v="residential"/>
    <tag k="name" v="Samorządowa"/>
    <tag k="source" v="UMP-PL, ./UMP-Warszawa/src/OTWOCK.ulice.txt"/>
  </way>
  <way id="37675782" version="2" timestamp="2009-11-22T23:29:44Z" uid="20587" user="balrog-kun" changeset="3192033">
    <nd ref="441699544"/>
    <nd ref="441699540"/>
    <tag k="highway" v="residential"/>
    <tag k="name" v="Lachowicza"/>
    <tag k="source" v="UMP-PL, ./UMP-Warszawa/src/OTWOCK.ulice.txt"/>
    <tag k="surface" v="unpaved"/>
  </way>
  <way id="37675782" version="3" timestamp="2012-01-19T21:30:14Z" uid="467703" user="Zbigniew Czernik" changeset="10441448">
    <nd ref="441699544"/>
    <nd ref="441699540"/>
    <tag k="highway" v="track"/>
    <tag k="name" v="Lachowicza"/>
    <tag k="source" v="UMP-PL, ./UMP-Warszawa/src/OTWOCK.ulice.txt"/>
    <tag k="surface" v="unpaved"/>
    <tag k="tracktype" v="grade1"/>
  </way>
  <way id="37675784" version="2" timestamp="2009-10-20T22:44:58Z" uid="20587" user="balrog-kun" changeset="2908055"/>
  <way id="37675785" version="2" timestamp="2009-11-22T23:29:46Z" uid="20587" user="balrog-kun" changeset="3192033">
    <nd ref="441699123"/>
    <nd ref="441700062"/>
    <nd ref="441699773"/>
    <nd ref="441700281"/>
    <tag k="highway" v="residential"/>
    <tag k="name" v="Chrobrego"/>
    <tag k="source" v="UMP-PL, ./UMP-Warszawa/src/OTWOCK.ulice.txt"/>
    <tag k="surface" v="unpaved"/>
  </way>
  <way id="37675785" version="3" timestamp="2012-01-19T21:29:10Z" uid="467703" user="Zbigniew Czernik" changeset="10441448">
    <nd ref="441699123"/>
    <nd ref="441700062"/>
    <nd ref="441699773"/>
    <nd ref="441700281"/>
    <tag k="highway" v="track"/>
    <tag k="name" v="Chrobrego"/>
    <tag k="source" v="UMP-PL, ./UMP-Warszawa/src/OTWOCK.ulice.txt"/>
    <tag k="surface" v="unpaved"/>
    <tag k="tracktype" v="grade1"/>
  </way>
  <way id="37675787" version="2" timestamp="2009-11-01T12:20:16Z" uid="20587" user="balrog-kun" changeset="3005634">
    <nd ref="441699095"/>
    <nd ref="441699094"/>
    <nd ref="441699096"/>
    <nd ref="441699100"/>
    <tag k="highway" v="residential"/>
    <tag k="name" v="Zajęcza"/>
    <tag k="source" v="UMP-PL, ./UMP-Warszawa/src/OTWOCK.ulice.txt"/>
    <tag k="surface" v="unpaved"/>
  </way>
  <way id="37675787" version="3" timestamp="2012-01-19T21:31:38Z" uid="467703" user="Zbigniew Czernik" changeset="10441448">
    <nd ref="441699095"/>
    <nd ref="441699094"/>
    <nd ref="441699096"/>
    <nd ref="441699100"/>
    <tag k="highway" v="track"/>
    <tag k="name" v="Zajęcza"/>
    <tag k="source" v="UMP-PL, ./UMP-Warszawa/src/OTWOCK.ulice.txt"/>
    <tag k="surface" v="unpaved"/>
    <tag k="tracktype" v="grade1"/>
  </way>
  <way id="37675788" version="2" timestamp="2009-11-23T00:29:50Z" uid="20587" user="balrog-kun" changeset="3192263">
    <nd ref="441700209"/>
    <nd ref="441700506"/>
    <tag k="highway" v="residential"/>
    <tag k="name" v="Żurawia"/>
    <tag k="source" v="UMP-PL, ./UMP-Warszawa/src/OTWOCK.ulice.txt"/>
  </way>
  <way id="37675790" version="2" timestamp="2009-11-01T12:20:19Z" uid="20587" user="balrog-kun" changeset="3005634">
    <nd ref="441699801"/>
    <nd ref="441699706"/>
    <tag k="highway" v="residential"/>
    <tag k="name" v="Zosi"/>
    <tag k="source" v="UMP-PL, ./UMP-Warszawa/src/OTWOCK.ulice.txt"/>
    <tag k="surface" v="unpaved"/>
  </way>
  <way id="37675790" version="3" timestamp="2012-01-19T21:31:40Z" uid="467703" user="Zbigniew Czernik" changeset="10441448">
    <nd ref="441699801"/>
    <nd ref="441699706"/>
    <tag k="highway" v="track"/>
    <tag k="name" v="Zosi"/>
    <tag k="source" v="UMP-PL, ./UMP-Warszawa/src/OTWOCK.ulice.txt"/>
    <tag k="surface" v="unpaved"/>
    <tag k="tracktype" v="grade1"/>
  </way>
  <way id="37675791" version="2" timestamp="2009-11-01T12:20:13Z" uid="20587" user="balrog-kun" changeset="3005634">
    <nd ref="441699537"/>
    <nd ref="441699546"/>
    <tag k="highway" v="residential"/>
    <tag k="name" v="Nałkowskiej"/>
    <tag k="source" v="UMP-PL, ./UMP-Warszawa/src/OTWOCK.ulice.txt"/>
    <tag k="surface" v="unpaved"/>
  </way>
  <way id="37675791" version="3" timestamp="2012-01-19T21:30:32Z" uid="467703" user="Zbigniew Czernik" changeset="10441448">
    <nd ref="441699537"/>
    <nd ref="441699546"/>
    <tag k="highway" v="track"/>
    <tag k="name" v="Nałkowskiej"/>
    <tag k="source" v="UMP-PL, ./UMP-Warszawa/src/OTWOCK.ulice.txt"/>
    <tag k="surface" v="unpaved"/>
    <tag k="tracktype" v="grade1"/>
  </way>
  <way id="37675792" version="2" timestamp="2009-11-22T23:29:44Z" uid="20587" user="balrog-kun" changeset="3192033">
    <nd ref="441700106"/>
    <nd ref="441699524"/>
    <tag k="highway" v="residential"/>
    <tag k="name" v="Kołobrzeska"/>
    <tag k="source" v="UMP-PL, ./UMP-Warszawa/src/OTWOCK.ulice.txt"/>
    <tag k="surface" v="unpaved"/>
  </way>
  <way id="37675792" version="3" timestamp="2011-01-22T20:09:50Z" uid="363680" user="leszekg" changeset="7054700">
    <nd ref="441700106"/>
    <nd ref="441699524"/>
    <tag k="addr:city" v="Otwock"/>
    <tag k="highway" v="residential"/>
    <tag k="name" v="Kołobrzeska"/>
    <tag k="source" v="UMP-PL, ./UMP-Warszawa/src/OTWOCK.ulice.txt"/>
    <tag k="surface" v="unpaved"/>
  </way>
  <way id="37675792" version="4" timestamp="2012-01-19T21:30:05Z" uid="467703" user="Zbigniew Czernik" changeset="10441448">
    <nd ref="441700106"/>
    <nd ref="441699524"/>
    <tag k="addr:city" v="Otwock"/>
    <tag k="highway" v="track"/>
    <tag k="name" v="Kołobrzeska"/>
    <tag k="source" v="UMP-PL, ./UMP-Warszawa/src/OTWOCK.ulice.txt"/>
    <tag k="surface" v="unpaved"/>
    <tag k="tracktype" v="grade1"/>
  </way>
  <way id="37675794" version="2" timestamp="2009-11-01T12:20:14Z" uid="20587" user="balrog-kun" changeset="3005634">
    <nd ref="441699769"/>
    <nd ref="441699766"/>
    <nd ref="441699661"/>
    <tag k="highway" v="track"/>
    <tag k="source" v="UMP-PL, ./UMP-Warszawa/src/OTWOCK.ulice.txt"/>
  </way>
  <way id="37675795" version="2" timestamp="2009-11-01T12:20:16Z" uid="20587" user="balrog-kun" changeset="3005634">
    <nd ref="441699092"/>
    <nd ref="441700061"/>
    <nd ref="441700057"/>
    <tag k="highway" v="residential"/>
    <tag k="name" v="Kukułcza"/>
    <tag k="source" v="UMP-PL, ./UMP-Warszawa/src/OTWOCK.ulice.txt"/>
    <tag k="surface" v="unpaved"/>
  </way>
  <way id="37675795" version="3" timestamp="2012-01-19T21:30:13Z" uid="467703" user="Zbigniew Czernik" changeset="10441448">
    <nd ref="441699092"/>
    <nd ref="441700061"/>
    <nd ref="441700057"/>
    <tag k="highway" v="track"/>
    <tag k="name" v="Kukułcza"/>
    <tag k="source" v="UMP-PL, ./UMP-Warszawa/src/OTWOCK.ulice.txt"/>
    <tag k="surface" v="unpaved"/>
    <tag k="tracktype" v="grade1"/>
  </way>
  <way id="37675796" version="2" timestamp="2009-11-22T23:29:44Z" uid="20587" user="balrog-kun" changeset="3192033">
    <nd ref="441699609"/>
    <nd ref="441700301"/>
    <nd ref="441700035"/>
    <nd ref="441699559"/>
    <nd ref="441699496"/>
    <tag k="highway" v="residential"/>
    <tag k="name" v="Gdańska"/>
    <tag k="source" v="UMP-PL, ./UMP-Warszawa/src/OTWOCK.ulice.txt"/>
    <tag k="surface" v="unpaved"/>
  </way>
  <way id="37675796" version="3" timestamp="2011-01-22T20:09:31Z" uid="363680" user="leszekg" changeset="7054700">
    <nd ref="441699609"/>
    <nd ref="441700301"/>
    <nd ref="441700035"/>
    <nd ref="441699559"/>
    <nd ref="441699496"/>
    <tag k="addr:city" v="Otwock"/>
    <tag k="highway" v="residential"/>
    <tag k="name" v="Gdańska"/>
    <tag k="source" v="UMP-PL, ./UMP-Warszawa/src/OTWOCK.ulice.txt"/>
    <tag k="surface" v="unpaved"/>
  </way>
  <way id="37675796" version="4" timestamp="2012-01-19T21:29:28Z" uid="467703" user="Zbigniew Czernik" changeset="10441448">
    <nd ref="441699609"/>
    <nd ref="441700301"/>
    <nd ref="441700035"/>
    <nd ref="441699559"/>
    <nd ref="441699496"/>
    <tag k="addr:city" v="Otwock"/>
    <tag k="highway" v="track"/>
    <tag k="name" v="Gdańska"/>
    <tag k="source" v="UMP-PL, ./UMP-Warszawa/src/OTWOCK.ulice.txt"/>
    <tag k="surface" v="unpaved"/>
    <tag k="tracktype" v="grade1"/>
  </way>
  <way id="37675800" version="2" timestamp="2009-11-22T23:29:45Z" uid="20587" user="balrog-kun" changeset="3192033">
    <nd ref="441699591"/>
    <nd ref="441699462"/>
    <tag k="highway" v="residential"/>
    <tag k="name" v="Krakowska"/>
    <tag k="source" v="UMP-PL, ./UMP-Warszawa/src/OTWOCK.ulice.txt"/>
    <tag k="surface" v="unpaved"/>
  </way>
  <way id="37675800" version="3" timestamp="2011-01-22T20:09:39Z" uid="363680" user="leszekg" changeset="7054700">
    <nd ref="441699591"/>
    <nd ref="441699462"/>
    <tag k="addr:city" v="Otwock"/>
    <tag k="highway" v="residential"/>
    <tag k="name" v="Krakowska"/>
    <tag k="source" v="UMP-PL, ./UMP-Warszawa/src/OTWOCK.ulice.txt"/>
    <tag k="surface" v="unpaved"/>
  </way>
  <way id="37675800" version="4" timestamp="2012-01-19T21:30:07Z" uid="467703" user="Zbigniew Czernik" changeset="10441448">
    <nd ref="441699591"/>
    <nd ref="1598153574"/>
    <nd ref="1598153571"/>
    <nd ref="441699459"/>
    <tag k="addr:city" v="Otwock"/>
    <tag k="highway" v="track"/>
    <tag k="name" v="Krakowska"/>
    <tag k="source" v="UMP-PL, ./UMP-Warszawa/src/OTWOCK.ulice.txt"/>
    <tag k="surface" v="unpaved"/>
    <tag k="tracktype" v="grade1"/>
  </way>
  <way id="37675801" version="2" timestamp="2009-11-22T23:30:00Z" uid="20587" user="balrog-kun" changeset="3192033">
    <nd ref="441699061"/>
    <nd ref="441699693"/>
    <nd ref="441699733"/>
    <nd ref="441699732"/>
    <nd ref="441699731"/>
    <nd ref="537248359"/>
    <tag k="highway" v="residential"/>
    <tag k="name" v="Marii Konopnickiej"/>
    <tag k="source" v="UMP-PL, ./UMP-Warszawa/src/OTWOCK.ulice.txt"/>
  </way>
  <way id="37675802" version="2" timestamp="2009-11-01T12:20:14Z" uid="20587" user="balrog-kun" changeset="3005634">
    <nd ref="441699741"/>
    <nd ref="441700250"/>
    <nd ref="441700252"/>
    <tag k="highway" v="residential"/>
    <tag k="name" v="Sputników"/>
    <tag k="source" v="UMP-PL, ./UMP-Warszawa/src/OTWOCK.ulice.txt"/>
    <tag k="surface" v="unpaved"/>
  </way>
  <way id="37675802" version="3" timestamp="2012-01-19T21:31:00Z" uid="467703" user="Zbigniew Czernik" changeset="10441448">
    <nd ref="441699741"/>
    <nd ref="441700250"/>
    <nd ref="441700252"/>
    <tag k="highway" v="track"/>
    <tag k="name" v="Sputników"/>
    <tag k="source" v="UMP-PL, ./UMP-Warszawa/src/OTWOCK.ulice.txt"/>
    <tag k="surface" v="unpaved"/>
    <tag k="tracktype" v="grade1"/>
  </way>
  <way id="37675803" version="2" timestamp="2009-10-20T22:44:51Z" uid="20587" user="balrog-kun" changeset="2908055"/>
  <way id="37675804" version="2" timestamp="2009-11-23T00:29:53Z" uid="20587" user="balrog-kun" changeset="3192263">
    <nd ref="441699150"/>
    <nd ref="441699846"/>
    <tag k="highway" v="tertiary"/>
    <tag k="source" v="UMP-PL, ./UMP-Warszawa/src/OTWOCK.ulice.txt"/>
  </way>
  <way id="37675804" version="3" timestamp="2010-08-14T12:48:46Z" uid="56410" user="andis_project" changeset="5490318">
    <nd ref="441700613"/>
    <nd ref="441699846"/>
    <tag k="highway" v="tertiary"/>
    <tag k="source" v="UMP-PL, ./UMP-Warszawa/src/OTWOCK.ulice.txt"/>
  </way>
  <way id="37675805" version="2" timestamp="2009-11-22T23:29:45Z" uid="20587" user="balrog-kun" changeset="3192033">
    <nd ref="441699585"/>
    <nd ref="441700121"/>
    <nd ref="441699457"/>
    <tag k="highway" v="residential"/>
    <tag k="name" v="Giżycka"/>
    <tag k="source" v="UMP-PL, ./UMP-Warszawa/src/OTWOCK.ulice.txt"/>
    <tag k="surface" v="unpaved"/>
  </way>
  <way id="37675805" version="3" timestamp="2011-01-22T20:09:10Z" uid="363680" user="leszekg" changeset="7054700">
    <nd ref="441699585"/>
    <nd ref="441700121"/>
    <nd ref="441699457"/>
    <tag k="addr:city" v="Otwock"/>
    <tag k="highway" v="residential"/>
    <tag k="name" v="Giżycka"/>
    <tag k="source" v="UMP-PL, ./UMP-Warszawa/src/OTWOCK.ulice.txt"/>
    <tag k="surface" v="unpaved"/>
  </way>
  <way id="37675805" version="4" timestamp="2011-10-07T22:01:30Z" uid="403964" user="bartekent" changeset="9497871"/>
  <way id="37675808" version="2" timestamp="2009-11-22T23:29:46Z" uid="20587" user="balrog-kun" changeset="3192033">
    <nd ref="441699721"/>
    <nd ref="441700303"/>
    <tag k="highway" v="residential"/>
    <tag k="name" v="Wiślana"/>
    <tag k="source" v="UMP-PL, ./UMP-Warszawa/src/OTWOCK.ulice.txt"/>
    <tag k="surface" v="unpaved"/>
  </way>
  <way id="37675808" version="3" timestamp="2012-01-19T21:31:33Z" uid="467703" user="Zbigniew Czernik" changeset="10441448">
    <nd ref="441699721"/>
    <nd ref="441700303"/>
    <tag k="highway" v="track"/>
    <tag k="name" v="Wiślana"/>
    <tag k="source" v="UMP-PL, ./UMP-Warszawa/src/OTWOCK.ulice.txt"/>
    <tag k="surface" v="unpaved"/>
    <tag k="tracktype" v="grade1"/>
  </way>
  <way id="37675809" version="2" timestamp="2009-11-22T23:29:53Z" uid="20587" user="balrog-kun" changeset="3192033">
    <nd ref="441700372"/>
    <nd ref="441700319"/>
    <nd ref="441700317"/>
    <tag k="highway" v="residential"/>
    <tag k="name" v="Hajduczka"/>
    <tag k="source" v="UMP-PL, ./UMP-Warszawa/src/OTWOCK.ulice.txt"/>
    <tag k="surface" v="unpaved"/>
  </way>
  <way id="37675810" version="2" timestamp="2009-10-20T22:45:08Z" uid="20587" user="balrog-kun" changeset="2908055"/>
  <way id="37675811" version="2" timestamp="2010-10-02T20:01:17Z" uid="20587" user="balrog-kun" changeset="5939312">
    <nd ref="441699080"/>
    <nd ref="441700258"/>
    <tag k="highway" v="residential"/>
    <tag k="name" v="Księdza Stanisława Konarskiego"/>
    <tag k="source" v="UMP-PL, ./UMP-Warszawa/src/OTWOCK.ulice.txt"/>
  </way>
  <way id="37675812" version="2" timestamp="2009-11-01T12:20:14Z" uid="20587" user="balrog-kun" changeset="3005634">
    <nd ref="441699493"/>
    <nd ref="441699491"/>
    <nd ref="441699495"/>
    <nd ref="441699494"/>
    <nd ref="441699543"/>
    <tag k="highway" v="residential"/>
    <tag k="name" v="Przewoska"/>
    <tag k="source" v="UMP-PL, ./UMP-Warszawa/src/OTWOCK.ulice.txt"/>
    <tag k="surface" v="unpaved"/>
  </way>
  <way id="37675812" version="3" timestamp="2012-01-19T21:30:49Z" uid="467703" user="Zbigniew Czernik" changeset="10441448">
    <nd ref="441699493"/>
    <nd ref="441699491"/>
    <nd ref="441699495"/>
    <nd ref="441699494"/>
    <nd ref="441699543"/>
    <tag k="highway" v="track"/>
    <tag k="name" v="Przewoska"/>
    <tag k="source" v="UMP-PL, ./UMP-Warszawa/src/OTWOCK.ulice.txt"/>
    <tag k="surface" v="unpaved"/>
    <tag k="tracktype" v="grade1"/>
  </way>
  <way id="37675814" version="2" timestamp="2009-11-01T12:20:20Z" uid="20587" user="balrog-kun" changeset="3005634">
    <nd ref="441699932"/>
    <nd ref="441699938"/>
    <nd ref="441699730"/>
    <nd ref="441699944"/>
    <nd ref="441699947"/>
    <nd ref="441699948"/>
    <nd ref="441699949"/>
    <nd ref="441699213"/>
    <tag k="highway" v="residential"/>
    <tag k="name" v="Krasińskiego"/>
    <tag k="source" v="UMP-PL, ./UMP-Warszawa/src/OTWOCK.ulice.txt"/>
    <tag k="surface" v="unpaved"/>
  </way>
  <way id="37675814" version="3" timestamp="2009-11-22T23:30:00Z" uid="20587" user="balrog-kun" changeset="3192033">
    <nd ref="441699932"/>
    <nd ref="441699938"/>
    <nd ref="537248359"/>
    <nd ref="441699944"/>
    <nd ref="441699947"/>
    <nd ref="441699948"/>
    <nd ref="441699949"/>
    <nd ref="441699213"/>
    <tag k="highway" v="residential"/>
    <tag k="name" v="Krasińskiego"/>
    <tag k="source" v="UMP-PL, ./UMP-Warszawa/src/OTWOCK.ulice.txt"/>
    <tag k="surface" v="unpaved"/>
  </way>
  <way id="37675814" version="4" timestamp="2011-02-08T18:54:53Z" uid="98542" user="wajak" changeset="7229461">
    <nd ref="441699932"/>
    <nd ref="441699938"/>
    <nd ref="537248359"/>
    <tag k="highway" v="residential"/>
    <tag k="name" v="Krasińskiego"/>
    <tag k="source" v="UMP-PL, ./UMP-Warszawa/src/OTWOCK.ulice.txt"/>
    <tag k="surface" v="unpaved"/>
  </way>
  <way id="37675814" version="5" timestamp="2012-01-19T21:30:08Z" uid="467703" user="Zbigniew Czernik" changeset="10441448">
    <nd ref="441699932"/>
    <nd ref="441699938"/>
    <nd ref="537248359"/>
    <tag k="highway" v="track"/>
    <tag k="name" v="Krasińskiego"/>
    <tag k="source" v="UMP-PL, ./UMP-Warszawa/src/OTWOCK.ulice.txt"/>
    <tag k="surface" v="unpaved"/>
    <tag k="tracktype" v="grade1"/>
  </way>
  <way id="37675815" version="2" timestamp="2009-11-22T23:30:01Z" uid="20587" user="balrog-kun" changeset="3192033">
    <nd ref="441699085"/>
    <nd ref="441699184"/>
    <nd ref="441699161"/>
    <nd ref="441699190"/>
    <nd ref="441699162"/>
    <nd ref="441699159"/>
    <nd ref="441699160"/>
    <nd ref="441699166"/>
    <nd ref="441699168"/>
    <nd ref="441699163"/>
    <nd ref="441699165"/>
    <tag k="highway" v="residential"/>
    <tag k="name" v="Laskowa"/>
    <tag k="source" v="UMP-PL, ./UMP-Warszawa/src/OTWOCK.ulice.txt"/>
    <tag k="surface" v="unpaved"/>
  </way>
  <way id="37675815" version="3" timestamp="2010-03-14T20:12:38Z" uid="30632" user="antblant" changeset="4129105">
    <nd ref="441699085"/>
    <nd ref="441699184"/>
    <nd ref="441699161"/>
    <nd ref="441699190"/>
    <nd ref="549433685"/>
    <nd ref="441699159"/>
    <nd ref="441699160"/>
    <nd ref="441699166"/>
    <nd ref="441699168"/>
    <nd ref="441699163"/>
    <nd ref="441699165"/>
    <tag k="highway" v="residential"/>
    <tag k="name" v="Laskowa"/>
    <tag k="source" v="UMP-PL, ./UMP-Warszawa/src/OTWOCK.ulice.txt"/>
    <tag k="surface" v="unpaved"/>
  </way>
  <way id="37675815" version="4" timestamp="2011-02-19T02:13:30Z" uid="20587" user="balrog-kun" changeset="7328304">
    <nd ref="441699085"/>
    <nd ref="1160459527"/>
    <nd ref="1160459298"/>
    <nd ref="441699184"/>
    <nd ref="1160460139"/>
    <nd ref="1160459056"/>
    <nd ref="1160458049"/>
    <nd ref="1160459915"/>
    <nd ref="1160457836"/>
    <nd ref="441699161"/>
    <nd ref="441699190"/>
    <nd ref="549433685"/>
    <nd ref="441699159"/>
    <nd ref="441699160"/>
    <nd ref="441699166"/>
    <nd ref="441699168"/>
    <nd ref="441699163"/>
    <nd ref="441699165"/>
    <tag k="highway" v="residential"/>
    <tag k="name" v="Laskowa"/>
    <tag k="source" v="UMP-PL, ./UMP-Warszawa/src/OTWOCK.ulice.txt"/>
    <tag k="surface" v="unpaved"/>
  </way>
  <way id="37675816" version="2" timestamp="2009-11-22T23:29:53Z" uid="20587" user="balrog-kun" changeset="3192033">
    <nd ref="441700367"/>
    <nd ref="441700324"/>
    <tag k="highway" v="residential"/>
    <tag k="name" v="Skrzetuskiego"/>
    <tag k="source" v="UMP-PL, ./UMP-Warszawa/src/OTWOCK.ulice.txt"/>
    <tag k="surface" v="unpaved"/>
  </way>
  <way id="37675817" version="2" timestamp="2009-11-22T23:29:48Z" uid="20587" user="balrog-kun" changeset="3192033">
    <nd ref="441699223"/>
    <nd ref="441699712"/>
    <tag k="highway" v="residential"/>
    <tag k="name" v="Kruczkowskiego"/>
    <tag k="source" v="UMP-PL, ./UMP-Warszawa/src/OTWOCK.ulice.txt"/>
    <tag k="surface" v="unpaved"/>
  </way>
  <way id="37675817" version="3" timestamp="2012-01-19T21:30:09Z" uid="467703" user="Zbigniew Czernik" changeset="10441448">
    <nd ref="441699223"/>
    <nd ref="441699712"/>
    <tag k="highway" v="track"/>
    <tag k="name" v="Kruczkowskiego"/>
    <tag k="source" v="UMP-PL, ./UMP-Warszawa/src/OTWOCK.ulice.txt"/>
    <tag k="surface" v="unpaved"/>
    <tag k="tracktype" v="grade1"/>
  </way>
  <way id="37675819" version="2" timestamp="2009-11-01T12:20:21Z" uid="20587" user="balrog-kun" changeset="3005634">
    <nd ref="441699911"/>
    <nd ref="441700086"/>
    <nd ref="441699947"/>
    <nd ref="441699962"/>
    <nd ref="441700085"/>
    <nd ref="441700080"/>
    <nd ref="441700079"/>
    <nd ref="441700082"/>
    <nd ref="441700081"/>
    <nd ref="441699232"/>
    <tag k="highway" v="residential"/>
    <tag k="name" v="Kubusia Puchatka"/>
    <tag k="source" v="UMP-PL, ./UMP-Warszawa/src/OTWOCK.ulice.txt"/>
    <tag k="surface" v="unpaved"/>
  </way>
  <way id="37675819" version="3" timestamp="2012-01-19T21:30:12Z" uid="467703" user="Zbigniew Czernik" changeset="10441448">
    <nd ref="441699911"/>
    <nd ref="441700086"/>
    <nd ref="441699947"/>
    <nd ref="441699962"/>
    <nd ref="441700085"/>
    <nd ref="441700080"/>
    <nd ref="441700079"/>
    <nd ref="441700082"/>
    <nd ref="441700081"/>
    <nd ref="441699232"/>
    <tag k="highway" v="track"/>
    <tag k="name" v="Kubusia Puchatka"/>
    <tag k="source" v="UMP-PL, ./UMP-Warszawa/src/OTWOCK.ulice.txt"/>
    <tag k="surface" v="unpaved"/>
    <tag k="tracktype" v="grade1"/>
  </way>
  <way id="37675823" version="2" timestamp="2009-11-22T23:29:46Z" uid="20587" user="balrog-kun" changeset="3192033">
    <nd ref="441699592"/>
    <nd ref="441699461"/>
    <tag k="highway" v="residential"/>
    <tag k="name" v="Kwiatowa"/>
    <tag k="source" v="UMP-PL, ./UMP-Warszawa/src/OTWOCK.ulice.txt"/>
    <tag k="surface" v="unpaved"/>
  </way>
  <way id="37675823" version="3" timestamp="2011-01-22T20:09:44Z" uid="363680" user="leszekg" changeset="7054700">
    <nd ref="441699592"/>
    <nd ref="441699461"/>
    <tag k="addr:city" v="Otwock"/>
    <tag k="highway" v="residential"/>
    <tag k="name" v="Kwiatowa"/>
    <tag k="source" v="UMP-PL, ./UMP-Warszawa/src/OTWOCK.ulice.txt"/>
    <tag k="surface" v="unpaved"/>
  </way>
  <way id="37675823" version="4" timestamp="2012-01-19T21:30:13Z" uid="467703" user="Zbigniew Czernik" changeset="10441448">
    <nd ref="441699592"/>
    <nd ref="441699461"/>
    <tag k="addr:city" v="Otwock"/>
    <tag k="highway" v="track"/>
    <tag k="name" v="Kwiatowa"/>
    <tag k="source" v="UMP-PL, ./UMP-Warszawa/src/OTWOCK.ulice.txt"/>
    <tag k="surface" v="unpaved"/>
    <tag k="tracktype" v="grade1"/>
  </way>
  <way id="37675824" version="2" timestamp="2009-11-01T12:20:16Z" uid="20587" user="balrog-kun" changeset="3005634">
    <nd ref="441700305"/>
    <nd ref="441700341"/>
    <tag k="highway" v="residential"/>
    <tag k="name" v="Szczygła"/>
    <tag k="source" v="UMP-PL, ./UMP-Warszawa/src/OTWOCK.ulice.txt"/>
    <tag k="surface" v="unpaved"/>
  </way>
  <way id="37675824" version="3" timestamp="2012-01-19T21:31:05Z" uid="467703" user="Zbigniew Czernik" changeset="10441448">
    <nd ref="441700305"/>
    <nd ref="441700341"/>
    <tag k="highway" v="track"/>
    <tag k="name" v="Szczygla"/>
    <tag k="source" v="UMP-PL, ./UMP-Warszawa/src/OTWOCK.ulice.txt"/>
    <tag k="surface" v="unpaved"/>
    <tag k="tracktype" v="grade1"/>
  </way>
  <way id="37675825" version="2" timestamp="2010-03-14T20:12:33Z" uid="30632" user="antblant" changeset="4129105">
    <nd ref="441700101"/>
    <nd ref="441700106"/>
    <nd ref="441700098"/>
    <nd ref="441700108"/>
    <nd ref="441700091"/>
    <nd ref="441700092"/>
    <nd ref="549431408"/>
    <tag k="highway" v="unclassified"/>
    <tag k="source" v="UMP-PL, ./UMP-Warszawa/src/OTWOCK.ulice.txt"/>
    <tag k="surface" v="unpaved"/>
  </way>
  <way id="37675825" version="3" timestamp="2011-12-25T23:15:23Z" uid="467703" user="Zbigniew Czernik" changeset="10203345">
    <nd ref="441700101"/>
    <nd ref="441700106"/>
    <nd ref="441700098"/>
    <nd ref="441700108"/>
    <nd ref="441700091"/>
    <nd ref="441700092"/>
    <nd ref="549431408"/>
    <tag k="highway" v="track"/>
    <tag k="source" v="UMP-PL, ./UMP-Warszawa/src/OTWOCK.ulice.txt"/>
    <tag k="surface" v="unpaved"/>
    <tag k="tracktype" v="grade1"/>
  </way>
  <way id="37675826" version="2" timestamp="2009-11-01T12:20:19Z" uid="20587" user="balrog-kun" changeset="3005634">
    <nd ref="441700132"/>
    <nd ref="441700128"/>
    <nd ref="441700094"/>
    <tag k="highway" v="residential"/>
    <tag k="name" v="Litewska"/>
    <tag k="source" v="UMP-PL, ./UMP-Warszawa/src/OTWOCK.ulice.txt"/>
    <tag k="surface" v="unpaved"/>
  </way>
  <way id="37675826" version="3" timestamp="2009-11-22T23:29:58Z" uid="20587" user="balrog-kun" changeset="3192033">
    <nd ref="441700132"/>
    <nd ref="537248338"/>
    <tag k="highway" v="residential"/>
    <tag k="name" v="Litewska"/>
    <tag k="source" v="UMP-PL, ./UMP-Warszawa/src/OTWOCK.ulice.txt"/>
    <tag k="surface" v="unpaved"/>
  </way>
  <way id="37675826" version="4" timestamp="2012-01-19T21:30:19Z" uid="467703" user="Zbigniew Czernik" changeset="10441448">
    <nd ref="441700132"/>
    <nd ref="537248338"/>
    <tag k="highway" v="track"/>
    <tag k="name" v="Litewska"/>
    <tag k="source" v="UMP-PL, ./UMP-Warszawa/src/OTWOCK.ulice.txt"/>
    <tag k="surface" v="unpaved"/>
    <tag k="tracktype" v="grade1"/>
  </way>
  <way id="37675829" version="2" timestamp="2009-10-20T22:45:29Z" uid="20587" user="balrog-kun" changeset="2908055"/>
  <way id="37675830" version="2" timestamp="2009-11-23T00:29:49Z" uid="20587" user="balrog-kun" changeset="3192263">
    <nd ref="441699271"/>
    <nd ref="441700565"/>
    <nd ref="441700564"/>
    <nd ref="441700555"/>
    <tag k="highway" v="footway"/>
    <tag k="source" v="UMP-PL, ./UMP-Warszawa/src/OTWOCK.ulice.txt"/>
  </way>
  <way id="37675830" version="3" timestamp="2011-02-05T08:45:07Z" uid="98542" user="wajak" changeset="7189980">
    <nd ref="441699271"/>
    <nd ref="441700565"/>
    <nd ref="441700564"/>
    <nd ref="441700555"/>
    <tag k="highway" v="track"/>
    <tag k="source" v="UMP-PL, ./UMP-Warszawa/src/OTWOCK.ulice.txt"/>
  </way>
  <way id="37675833" version="2" timestamp="2009-11-22T23:29:44Z" uid="20587" user="balrog-kun" changeset="3192033">
    <nd ref="441699726"/>
    <nd ref="441699772"/>
    <tag k="highway" v="residential"/>
    <tag k="name" v="Bracka"/>
    <tag k="source" v="UMP-PL, ./UMP-Warszawa/src/OTWOCK.ulice.txt"/>
    <tag k="surface" v="unpaved"/>
  </way>
  <way id="37675833" version="3" timestamp="2012-01-19T21:29:06Z" uid="467703" user="Zbigniew Czernik" changeset="10441448">
    <nd ref="441699726"/>
    <nd ref="441699772"/>
    <tag k="highway" v="residential"/>
    <tag k="name" v="Bracka"/>
    <tag k="source" v="UMP-PL, ./UMP-Warszawa/src/OTWOCK.ulice.txt"/>
    <tag k="surface" v="unpaved"/>
  </way>
  <way id="37675835" version="2" timestamp="2009-11-01T12:20:19Z" uid="20587" user="balrog-kun" changeset="3005634">
    <nd ref="441699737"/>
    <nd ref="441699798"/>
    <nd ref="441699799"/>
    <nd ref="441699800"/>
    <nd ref="441699525"/>
    <nd ref="441699801"/>
    <nd ref="441699761"/>
    <nd ref="441699794"/>
    <nd ref="441699795"/>
    <nd ref="441699705"/>
    <tag k="highway" v="residential"/>
    <tag k="name" v="Sułkowskiego"/>
    <tag k="source" v="UMP-PL, ./UMP-Warszawa/src/OTWOCK.ulice.txt"/>
    <tag k="surface" v="unpaved"/>
  </way>
  <way id="37675835" version="3" timestamp="2009-11-22T23:29:59Z" uid="20587" user="balrog-kun" changeset="3192033">
    <nd ref="441699737"/>
    <nd ref="441699798"/>
    <nd ref="441699799"/>
    <nd ref="441699800"/>
    <nd ref="441699525"/>
    <tag k="highway" v="residential"/>
    <tag k="name" v="Józefa Sułkowskiego"/>
    <tag k="source" v="UMP-PL, ./UMP-Warszawa/src/OTWOCK.ulice.txt"/>
    <tag k="surface" v="unpaved"/>
  </way>
  <way id="37675835" version="4" timestamp="2012-01-19T21:29:57Z" uid="467703" user="Zbigniew Czernik" changeset="10441448">
    <nd ref="441699737"/>
    <nd ref="441699798"/>
    <nd ref="441699799"/>
    <nd ref="441699800"/>
    <nd ref="441699525"/>
    <tag k="highway" v="track"/>
    <tag k="name" v="Józefa Sułkowskiego"/>
    <tag k="source" v="UMP-PL, ./UMP-Warszawa/src/OTWOCK.ulice.txt"/>
    <tag k="surface" v="unpaved"/>
    <tag k="tracktype" v="grade1"/>
  </way>
  <way id="37675836" version="2" timestamp="2009-11-01T12:20:19Z" uid="20587" user="balrog-kun" changeset="3005634">
    <nd ref="441699236"/>
    <nd ref="441699706"/>
    <nd ref="441699707"/>
    <nd ref="441699704"/>
    <nd ref="441699705"/>
    <nd ref="441699702"/>
    <tag k="highway" v="residential"/>
    <tag k="name" v="Poniatowskiego"/>
    <tag k="source" v="UMP-PL, ./UMP-Warszawa/src/OTWOCK.ulice.txt"/>
    <tag k="surface" v="unpaved"/>
  </way>
  <way id="37675836" version="3" timestamp="2009-11-22T23:29:59Z" uid="20587" user="balrog-kun" changeset="3192033">
    <nd ref="441699236"/>
    <nd ref="441699706"/>
    <nd ref="441699707"/>
    <nd ref="441699704"/>
    <nd ref="441699705"/>
    <nd ref="441699702"/>
    <tag k="highway" v="residential"/>
    <tag k="name" v="Księcia Józefa Poniatowskiego"/>
    <tag k="source" v="UMP-PL, ./UMP-Warszawa/src/OTWOCK.ulice.txt"/>
    <tag k="surface" v="unpaved"/>
  </way>
  <way id="37675836" version="4" timestamp="2012-01-19T21:30:12Z" uid="467703" user="Zbigniew Czernik" changeset="10441448">
    <nd ref="441699236"/>
    <nd ref="441699706"/>
    <nd ref="441699707"/>
    <nd ref="441699704"/>
    <nd ref="441699705"/>
    <nd ref="441699702"/>
    <tag k="highway" v="track"/>
    <tag k="name" v="Księcia Józefa Poniatowskiego"/>
    <tag k="source" v="UMP-PL, ./UMP-Warszawa/src/OTWOCK.ulice.txt"/>
    <tag k="surface" v="unpaved"/>
    <tag k="tracktype" v="grade1"/>
  </way>
  <way id="37675837" version="2" timestamp="2009-11-01T12:20:21Z" uid="20587" user="balrog-kun" changeset="3005634">
    <nd ref="441699749"/>
    <nd ref="441699742"/>
    <nd ref="441699743"/>
    <nd ref="441699744"/>
    <nd ref="441699733"/>
    <nd ref="441699745"/>
    <nd ref="441699209"/>
    <tag k="highway" v="residential"/>
    <tag k="name" v="Cybulskiego"/>
    <tag k="source" v="UMP-PL, ./UMP-Warszawa/src/OTWOCK.ulice.txt"/>
    <tag k="surface" v="unpaved"/>
  </way>
  <way id="37675837" version="3" timestamp="2012-01-19T21:29:13Z" uid="467703" user="Zbigniew Czernik" changeset="10441448">
    <nd ref="441699749"/>
    <nd ref="441699742"/>
    <nd ref="441699743"/>
    <nd ref="441699744"/>
    <nd ref="441699733"/>
    <nd ref="441699745"/>
    <nd ref="1598154172"/>
    <nd ref="366683847"/>
    <tag k="highway" v="track"/>
    <tag k="name" v="Cybulskiego"/>
    <tag k="source" v="UMP-PL, ./UMP-Warszawa/src/OTWOCK.ulice.txt"/>
    <tag k="surface" v="unpaved"/>
    <tag k="tracktype" v="grade1"/>
  </way>
  <way id="37675839" version="2" timestamp="2009-10-20T22:45:18Z" uid="20587" user="balrog-kun" changeset="2908055"/>
  <way id="37675841" version="2" timestamp="2009-11-22T23:29:47Z" uid="20587" user="balrog-kun" changeset="3192033">
    <nd ref="441699626"/>
    <nd ref="441699560"/>
    <nd ref="441699266"/>
    <tag k="highway" v="residential"/>
    <tag k="name" v="Wileńska"/>
    <tag k="source" v="UMP-PL, ./UMP-Warszawa/src/OTWOCK.ulice.txt"/>
    <tag k="surface" v="unpaved"/>
  </way>
  <way id="37675841" version="3" timestamp="2011-01-22T20:09:38Z" uid="363680" user="leszekg" changeset="7054700">
    <nd ref="441699626"/>
    <nd ref="441699560"/>
    <nd ref="441699266"/>
    <tag k="addr:city" v="Otwock"/>
    <tag k="highway" v="residential"/>
    <tag k="name" v="Wileńska"/>
    <tag k="source" v="UMP-PL, ./UMP-Warszawa/src/OTWOCK.ulice.txt"/>
    <tag k="surface" v="unpaved"/>
  </way>
  <way id="37675841" version="4" timestamp="2012-01-19T21:31:22Z" uid="467703" user="Zbigniew Czernik" changeset="10441448">
    <nd ref="441699626"/>
    <nd ref="441699560"/>
    <nd ref="441699266"/>
    <tag k="addr:city" v="Otwock"/>
    <tag k="highway" v="track"/>
    <tag k="name" v="Wileńska"/>
    <tag k="source" v="UMP-PL, ./UMP-Warszawa/src/OTWOCK.ulice.txt"/>
    <tag k="surface" v="unpaved"/>
    <tag k="tracktype" v="grade1"/>
  </way>
  <way id="37675842" version="2" timestamp="2009-11-22T23:30:02Z" uid="20587" user="balrog-kun" changeset="3192033">
    <nd ref="441699750"/>
    <nd ref="441699753"/>
    <nd ref="441699752"/>
    <nd ref="441699746"/>
    <nd ref="441699751"/>
    <tag k="highway" v="residential"/>
    <tag k="name" v="Żabia"/>
    <tag k="source" v="UMP-PL, ./UMP-Warszawa/src/OTWOCK.ulice.txt"/>
    <tag k="surface" v="unpaved"/>
  </way>
  <way id="37675843" version="2" timestamp="2009-11-01T12:20:13Z" uid="20587" user="balrog-kun" changeset="3005634">
    <nd ref="441700069"/>
    <nd ref="441699740"/>
    <tag k="highway" v="residential"/>
    <tag k="name" v="Sołtana"/>
    <tag k="source" v="UMP-PL, ./UMP-Warszawa/src/OTWOCK.ulice.txt"/>
    <tag k="surface" v="unpaved"/>
  </way>
  <way id="37675843" version="3" timestamp="2012-01-19T21:30:59Z" uid="467703" user="Zbigniew Czernik" changeset="10441448">
    <nd ref="441700069"/>
    <nd ref="441699740"/>
    <tag k="highway" v="track"/>
    <tag k="name" v="Sołtana"/>
    <tag k="source" v="UMP-PL, ./UMP-Warszawa/src/OTWOCK.ulice.txt"/>
    <tag k="surface" v="unpaved"/>
    <tag k="tracktype" v="grade1"/>
  </way>
  <way id="37675846" version="2" timestamp="2009-11-22T23:29:47Z" uid="20587" user="balrog-kun" changeset="3192033">
    <nd ref="441699278"/>
    <nd ref="441699619"/>
    <tag k="highway" v="residential"/>
    <tag k="name" v="Poznańska"/>
    <tag k="source" v="UMP-PL, ./UMP-Warszawa/src/OTWOCK.ulice.txt"/>
    <tag k="surface" v="unpaved"/>
  </way>
  <way id="37675846" version="3" timestamp="2011-01-22T20:09:34Z" uid="363680" user="leszekg" changeset="7054700">
    <nd ref="441699278"/>
    <nd ref="441699619"/>
    <tag k="addr:city" v="Otwock"/>
    <tag k="highway" v="residential"/>
    <tag k="name" v="Poznańska"/>
    <tag k="source" v="UMP-PL, ./UMP-Warszawa/src/OTWOCK.ulice.txt"/>
    <tag k="surface" v="unpaved"/>
  </way>
  <way id="37675846" version="4" timestamp="2012-01-19T21:30:47Z" uid="467703" user="Zbigniew Czernik" changeset="10441448">
    <nd ref="441699278"/>
    <nd ref="441699619"/>
    <tag k="addr:city" v="Otwock"/>
    <tag k="highway" v="track"/>
    <tag k="name" v="Poznańska"/>
    <tag k="source" v="UMP-PL, ./UMP-Warszawa/src/OTWOCK.ulice.txt"/>
    <tag k="surface" v="unpaved"/>
    <tag k="tracktype" v="grade1"/>
  </way>
  <way id="37675847" version="2" timestamp="2009-11-01T12:20:21Z" uid="20587" user="balrog-kun" changeset="3005634">
    <nd ref="441699744"/>
    <nd ref="441699899"/>
    <nd ref="441699938"/>
    <tag k="highway" v="residential"/>
    <tag k="name" v="Kurnakowicza"/>
    <tag k="source" v="UMP-PL, ./UMP-Warszawa/src/OTWOCK.ulice.txt"/>
    <tag k="surface" v="unpaved"/>
  </way>
  <way id="37675847" version="3" timestamp="2012-01-19T21:30:13Z" uid="467703" user="Zbigniew Czernik" changeset="10441448">
    <nd ref="441699744"/>
    <nd ref="441699899"/>
    <nd ref="441699938"/>
    <tag k="highway" v="track"/>
    <tag k="name" v="Kurnakowicza"/>
    <tag k="source" v="UMP-PL, ./UMP-Warszawa/src/OTWOCK.ulice.txt"/>
    <tag k="surface" v="unpaved"/>
    <tag k="tracktype" v="grade1"/>
  </way>
  <way id="37675849" version="2" timestamp="2010-10-02T20:01:17Z" uid="20587" user="balrog-kun" changeset="5939312">
    <nd ref="311564755"/>
    <nd ref="441700254"/>
    <nd ref="441700253"/>
    <nd ref="441700008"/>
    <tag k="highway" v="residential"/>
    <tag k="name" v="Klonowa"/>
    <tag k="source" v="UMP-PL, ./UMP-Warszawa/src/OTWOCK.ulice.txt"/>
  </way>
  <way id="37675849" version="3" timestamp="2012-01-19T21:29:06Z" uid="467703" user="Zbigniew Czernik" changeset="10441448">
    <nd ref="311564755"/>
    <nd ref="1598154928"/>
    <nd ref="441700254"/>
    <nd ref="1239304030"/>
    <nd ref="441700171"/>
    <nd ref="441700165"/>
    <tag k="highway" v="residential"/>
    <tag k="name" v="Borowa"/>
  </way>
  <way id="37675852" version="2" timestamp="2009-11-01T12:20:23Z" uid="20587" user="balrog-kun" changeset="3005634">
    <nd ref="417080953"/>
    <nd ref="441700476"/>
    <nd ref="441700479"/>
    <nd ref="441700593"/>
    <nd ref="441700592"/>
    <nd ref="441700591"/>
    <nd ref="441700590"/>
    <nd ref="441700597"/>
    <nd ref="441700596"/>
    <nd ref="441700595"/>
    <nd ref="441700594"/>
    <nd ref="441700585"/>
    <nd ref="441699229"/>
    <tag k="highway" v="track"/>
    <tag k="source" v="UMP-PL, ./UMP-Warszawa/src/OTWOCK.ulice.txt"/>
  </way>
  <way id="37675852" version="3" timestamp="2011-02-19T02:12:54Z" uid="20587" user="balrog-kun" changeset="7328304">
    <nd ref="417080953"/>
    <nd ref="441700476"/>
    <nd ref="441700479"/>
    <nd ref="441700593"/>
    <nd ref="441700592"/>
    <nd ref="441700591"/>
    <nd ref="441700590"/>
    <nd ref="441700597"/>
    <nd ref="441700596"/>
    <nd ref="1160458146"/>
    <nd ref="441700595"/>
    <nd ref="441700594"/>
    <nd ref="1160458189"/>
    <nd ref="441700585"/>
    <nd ref="441699229"/>
    <tag k="highway" v="track"/>
    <tag k="source" v="UMP-PL, ./UMP-Warszawa/src/OTWOCK.ulice.txt"/>
  </way>
  <way id="37675853" version="2" timestamp="2009-11-22T23:30:01Z" uid="20587" user="balrog-kun" changeset="3192033">
    <nd ref="441699073"/>
    <nd ref="441699187"/>
    <nd ref="441699190"/>
    <nd ref="441699181"/>
    <tag k="highway" v="residential"/>
    <tag k="name" v="Wyszyńskiego"/>
    <tag k="source" v="UMP-PL, ./UMP-Warszawa/src/OTWOCK.ulice.txt"/>
    <tag k="surface" v="unpaved"/>
  </way>
  <way id="37675853" version="3" timestamp="2009-11-24T10:48:42Z" uid="20587" user="balrog-kun" changeset="3203233">
    <nd ref="441699073"/>
    <nd ref="441699187"/>
    <nd ref="441699190"/>
    <nd ref="441699181"/>
    <tag k="highway" v="residential"/>
    <tag k="name" v="Kardynała Stefana Wyszyńskiego"/>
    <tag k="source" v="UMP-PL, ./UMP-Warszawa/src/OTWOCK.ulice.txt"/>
    <tag k="surface" v="unpaved"/>
  </way>
  <way id="37675854" version="2" timestamp="2009-11-01T12:20:22Z" uid="20587" user="balrog-kun" changeset="3005634">
    <nd ref="441700221"/>
    <nd ref="441700219"/>
    <tag k="highway" v="track"/>
    <tag k="source" v="UMP-PL, ./UMP-Warszawa/src/OTWOCK.ulice.txt"/>
  </way>
  <way id="37675855" version="2" timestamp="2009-11-23T00:29:48Z" uid="20587" user="balrog-kun" changeset="3192263">
    <nd ref="441699141"/>
    <nd ref="441699142"/>
    <nd ref="568878560"/>
    <tag k="highway" v="residential"/>
    <tag k="name" v="Górna"/>
    <tag k="source" v="UMP-PL, ./UMP-Warszawa/src/OTWOCK.ulice.txt"/>
  </way>
  <way id="37675856" version="2" timestamp="2009-11-22T23:29:43Z" uid="20587" user="balrog-kun" changeset="3192033">
    <nd ref="441699459"/>
    <nd ref="441699634"/>
    <tag k="highway" v="residential"/>
    <tag k="name" v="Krakowska"/>
    <tag k="source" v="UMP-PL, ./UMP-Warszawa/src/OTWOCK.ulice.txt"/>
    <tag k="surface" v="unpaved"/>
  </way>
  <way id="37675856" version="3" timestamp="2011-01-22T20:09:11Z" uid="363680" user="leszekg" changeset="7054700">
    <nd ref="441699459"/>
    <nd ref="441699634"/>
    <tag k="addr:city" v="Otwock"/>
    <tag k="highway" v="residential"/>
    <tag k="name" v="Krakowska"/>
    <tag k="source" v="UMP-PL, ./UMP-Warszawa/src/OTWOCK.ulice.txt"/>
    <tag k="surface" v="unpaved"/>
  </way>
  <way id="37675856" version="4" timestamp="2012-01-19T21:30:07Z" uid="467703" user="Zbigniew Czernik" changeset="10441448">
    <nd ref="441699459"/>
    <nd ref="441699634"/>
    <tag k="addr:city" v="Otwock"/>
    <tag k="highway" v="track"/>
    <tag k="name" v="Krakowska"/>
    <tag k="source" v="UMP-PL, ./UMP-Warszawa/src/OTWOCK.ulice.txt"/>
    <tag k="surface" v="unpaved"/>
    <tag k="tracktype" v="grade1"/>
  </way>
  <way id="37675857" version="2" timestamp="2009-11-22T23:30:02Z" uid="20587" user="balrog-kun" changeset="3192033">
    <nd ref="441699747"/>
    <nd ref="441699748"/>
    <nd ref="441699751"/>
    <tag k="highway" v="residential"/>
    <tag k="name" v="Mlądzka"/>
    <tag k="source" v="UMP-PL, ./UMP-Warszawa/src/OTWOCK.ulice.txt"/>
    <tag k="surface" v="unpaved"/>
  </way>
  <way id="37675862" version="2" timestamp="2009-10-31T22:49:12Z" uid="20587" user="balrog-kun" changeset="3002253">
    <nd ref="441699835"/>
    <nd ref="441699840"/>
    <nd ref="441699029"/>
    <tag k="highway" v="unclassified"/>
    <tag k="name" v="Jana III Sobieskiego"/>
    <tag k="source" v="UMP-PL, ./UMP-Warszawa/src/OTWOCK.ulice.txt"/>
    <tag k="surface" v="unpaved"/>
  </way>
  <way id="37675862" version="3" timestamp="2009-11-01T12:20:14Z" uid="20587" user="balrog-kun" changeset="3005634">
    <nd ref="441699835"/>
    <nd ref="441699840"/>
    <nd ref="441699029"/>
    <tag k="highway" v="residential"/>
    <tag k="name" v="Jana III Sobieskiego"/>
    <tag k="source" v="UMP-PL, ./UMP-Warszawa/src/OTWOCK.ulice.txt"/>
    <tag k="surface" v="unpaved"/>
  </way>
  <way id="37675862" version="4" timestamp="2011-01-22T20:08:58Z" uid="363680" user="leszekg" changeset="7054700">
    <nd ref="441699835"/>
    <nd ref="441699840"/>
    <nd ref="441699029"/>
    <tag k="addr:city" v="Otwock"/>
    <tag k="highway" v="residential"/>
    <tag k="name" v="Jana III Sobieskiego"/>
    <tag k="source" v="UMP-PL, ./UMP-Warszawa/src/OTWOCK.ulice.txt"/>
    <tag k="surface" v="unpaved"/>
  </way>
  <way id="37675862" version="5" timestamp="2012-01-19T21:29:51Z" uid="467703" user="Zbigniew Czernik" changeset="10441448">
    <nd ref="441699835"/>
    <nd ref="441699840"/>
    <nd ref="441699029"/>
    <tag k="addr:city" v="Otwock"/>
    <tag k="highway" v="track"/>
    <tag k="name" v="Jana III Sobieskiego"/>
    <tag k="source" v="UMP-PL, ./UMP-Warszawa/src/OTWOCK.ulice.txt"/>
    <tag k="surface" v="unpaved"/>
    <tag k="tracktype" v="grade1"/>
  </way>
  <way id="37675864" version="2" timestamp="2009-11-22T23:29:42Z" uid="20587" user="balrog-kun" changeset="3192033">
    <nd ref="441699054"/>
    <nd ref="441699854"/>
    <nd ref="441699843"/>
    <tag k="highway" v="footway"/>
    <tag k="source" v="UMP-PL, ./UMP-Warszawa/src/OTWOCK.ulice.txt"/>
  </way>
  <way id="37675865" version="2" timestamp="2009-11-01T12:20:16Z" uid="20587" user="balrog-kun" changeset="3005634">
    <nd ref="441699197"/>
    <nd ref="441699192"/>
    <nd ref="441699201"/>
    <nd ref="441699191"/>
    <nd ref="441699194"/>
    <nd ref="441699193"/>
    <nd ref="441699221"/>
    <nd ref="441699090"/>
    <tag k="highway" v="residential"/>
    <tag k="name" v="Poetycka"/>
    <tag k="source" v="UMP-PL, ./UMP-Warszawa/src/OTWOCK.ulice.txt"/>
    <tag k="surface" v="unpaved"/>
  </way>
  <way id="37675865" version="3" timestamp="2012-01-19T21:30:43Z" uid="467703" user="Zbigniew Czernik" changeset="10441448">
    <nd ref="441699197"/>
    <nd ref="441699192"/>
    <nd ref="441699201"/>
    <nd ref="441699191"/>
    <nd ref="441699194"/>
    <nd ref="441699193"/>
    <nd ref="441699221"/>
    <nd ref="441699090"/>
    <tag k="highway" v="track"/>
    <tag k="name" v="Poetycka"/>
    <tag k="source" v="UMP-PL, ./UMP-Warszawa/src/OTWOCK.ulice.txt"/>
    <tag k="surface" v="unpaved"/>
    <tag k="tracktype" v="grade1"/>
  </way>
  <way id="37675868" version="2" timestamp="2009-10-20T22:42:18Z" uid="20587" user="balrog-kun" changeset="2908055">
    <nd ref="441699579"/>
    <nd ref="441699580"/>
    <nd ref="441699559"/>
    <nd ref="441699558"/>
    <nd ref="311555174"/>
    <nd ref="441699560"/>
    <nd ref="441699555"/>
    <nd ref="441699554"/>
    <nd ref="441699557"/>
    <nd ref="441699556"/>
    <nd ref="441699566"/>
    <nd ref="441699565"/>
    <nd ref="441699568"/>
    <nd ref="281378196"/>
    <nd ref="441699543"/>
    <nd ref="441699567"/>
    <nd ref="441699562"/>
    <nd ref="441699561"/>
    <tag k="highway" v="residential"/>
    <tag k="name" v="Wiejska"/>
    <tag k="source" v="UMP-PL, ./UMP-Warszawa/src/OTWOCK.ulice.txt"/>
  </way>
  <way id="37675868" version="3" timestamp="2011-01-22T20:09:35Z" uid="363680" user="leszekg" changeset="7054700">
    <nd ref="441699579"/>
    <nd ref="441699580"/>
    <nd ref="441699559"/>
    <nd ref="441699558"/>
    <nd ref="311555174"/>
    <nd ref="441699560"/>
    <nd ref="441699555"/>
    <nd ref="441699554"/>
    <nd ref="441699557"/>
    <nd ref="441699556"/>
    <nd ref="441699566"/>
    <nd ref="441699565"/>
    <nd ref="441699568"/>
    <nd ref="281378196"/>
    <nd ref="441699543"/>
    <nd ref="441699567"/>
    <nd ref="441699562"/>
    <nd ref="441699561"/>
    <tag k="addr:city" v="Otwock"/>
    <tag k="highway" v="residential"/>
    <tag k="name" v="Wiejska"/>
    <tag k="source" v="UMP-PL, ./UMP-Warszawa/src/OTWOCK.ulice.txt"/>
  </way>
  <way id="37675868" version="4" timestamp="2011-10-07T22:01:20Z" uid="403964" user="bartekent" changeset="9497871">
    <nd ref="441699579"/>
    <nd ref="1458160146"/>
    <nd ref="441699580"/>
    <nd ref="441699559"/>
    <nd ref="441699558"/>
    <nd ref="311555174"/>
    <nd ref="441699560"/>
    <nd ref="441699555"/>
    <nd ref="441699554"/>
    <nd ref="441699557"/>
    <nd ref="441699556"/>
    <nd ref="441699566"/>
    <nd ref="441699565"/>
    <nd ref="441699568"/>
    <nd ref="281378196"/>
    <nd ref="441699543"/>
    <nd ref="441699567"/>
    <nd ref="1458160480"/>
    <nd ref="441699562"/>
    <nd ref="441699561"/>
    <tag k="addr:city" v="Otwock"/>
    <tag k="highway" v="residential"/>
    <tag k="name" v="Wiejska"/>
    <tag k="source" v="UMP-PL, ./UMP-Warszawa/src/OTWOCK.ulice.txt"/>
  </way>
  <way id="37675869" version="2" timestamp="2009-11-22T23:29:46Z" uid="20587" user="balrog-kun" changeset="3192033">
    <nd ref="441699723"/>
    <nd ref="441699611"/>
    <tag k="highway" v="residential"/>
    <tag k="name" v="Chełmska"/>
    <tag k="source" v="UMP-PL, ./UMP-Warszawa/src/OTWOCK.ulice.txt"/>
    <tag k="surface" v="unpaved"/>
  </way>
  <way id="37675869" version="3" timestamp="2011-01-22T20:09:30Z" uid="363680" user="leszekg" changeset="7054700">
    <nd ref="441699723"/>
    <nd ref="441699611"/>
    <tag k="addr:city" v="Otwock"/>
    <tag k="highway" v="residential"/>
    <tag k="name" v="Chełmska"/>
    <tag k="source" v="UMP-PL, ./UMP-Warszawa/src/OTWOCK.ulice.txt"/>
    <tag k="surface" v="unpaved"/>
  </way>
  <way id="37675869" version="4" timestamp="2012-01-19T21:29:10Z" uid="467703" user="Zbigniew Czernik" changeset="10441448">
    <nd ref="441699723"/>
    <nd ref="441699611"/>
    <tag k="addr:city" v="Otwock"/>
    <tag k="highway" v="track"/>
    <tag k="name" v="Chełmska"/>
    <tag k="source" v="UMP-PL, ./UMP-Warszawa/src/OTWOCK.ulice.txt"/>
    <tag k="surface" v="unpaved"/>
    <tag k="tracktype" v="grade1"/>
  </way>
  <way id="37675871" version="2" timestamp="2009-11-22T23:30:02Z" uid="20587" user="balrog-kun" changeset="3192033">
    <nd ref="441699149"/>
    <nd ref="441699174"/>
    <nd ref="441699177"/>
    <nd ref="441699169"/>
    <nd ref="441699173"/>
    <tag k="highway" v="residential"/>
    <tag k="name" v="Nadrzeczna"/>
    <tag k="source" v="UMP-PL, ./UMP-Warszawa/src/OTWOCK.ulice.txt"/>
    <tag k="surface" v="unpaved"/>
  </way>
  <way id="37675871" version="3" timestamp="2010-08-14T12:48:45Z" uid="56410" user="andis_project" changeset="5490318">
    <nd ref="441699149"/>
    <nd ref="441699174"/>
    <nd ref="860159306"/>
    <nd ref="441699169"/>
    <nd ref="441699177"/>
    <tag k="highway" v="residential"/>
    <tag k="name" v="Nadrzeczna"/>
    <tag k="source" v="UMP-PL, ./UMP-Warszawa/src/OTWOCK.ulice.txt"/>
    <tag k="surface" v="unpaved"/>
  </way>
  <way id="37675871" version="4" timestamp="2011-02-19T02:12:51Z" uid="20587" user="balrog-kun" changeset="7328304">
    <nd ref="441699149"/>
    <nd ref="1160460279"/>
    <nd ref="441699174"/>
    <nd ref="860159306"/>
    <nd ref="1160458229"/>
    <nd ref="441699169"/>
    <nd ref="441699177"/>
    <tag k="highway" v="residential"/>
    <tag k="name" v="Nadrzeczna"/>
    <tag k="source" v="UMP-PL, ./UMP-Warszawa/src/OTWOCK.ulice.txt"/>
    <tag k="surface" v="unpaved"/>
  </way>
  <way id="37675872" version="2" timestamp="2009-11-22T23:29:58Z" uid="20587" user="balrog-kun" changeset="3192033">
    <nd ref="441699521"/>
    <nd ref="441699736"/>
    <nd ref="441699737"/>
    <tag k="highway" v="residential"/>
    <tag k="name" v="Henryka Dąbrowskiego"/>
    <tag k="source" v="UMP-PL, ./UMP-Warszawa/src/OTWOCK.ulice.txt"/>
  </way>
  <way id="37675873" version="2" timestamp="2009-11-01T12:20:20Z" uid="20587" user="balrog-kun" changeset="3005634">
    <nd ref="441700218"/>
    <nd ref="441700215"/>
    <nd ref="441700216"/>
    <nd ref="441700085"/>
    <tag k="highway" v="residential"/>
    <tag k="name" v="Norwida"/>
    <tag k="source" v="UMP-PL, ./UMP-Warszawa/src/OTWOCK.ulice.txt"/>
    <tag k="surface" v="unpaved"/>
  </way>
  <way id="37675873" version="3" timestamp="2009-11-22T23:30:00Z" uid="20587" user="balrog-kun" changeset="3192033">
    <nd ref="441700218"/>
    <nd ref="441700215"/>
    <tag k="highway" v="residential"/>
    <tag k="name" v="Norwida"/>
    <tag k="source" v="UMP-PL, ./UMP-Warszawa/src/OTWOCK.ulice.txt"/>
    <tag k="surface" v="unpaved"/>
  </way>
  <way id="37675873" version="4" timestamp="2012-01-19T21:30:34Z" uid="467703" user="Zbigniew Czernik" changeset="10441448">
    <nd ref="441700218"/>
    <nd ref="441700215"/>
    <tag k="highway" v="track"/>
    <tag k="name" v="Norwida"/>
    <tag k="source" v="UMP-PL, ./UMP-Warszawa/src/OTWOCK.ulice.txt"/>
    <tag k="surface" v="unpaved"/>
    <tag k="tracktype" v="grade1"/>
  </way>
  <way id="37675875" version="2" timestamp="2009-11-22T23:30:02Z" uid="20587" user="balrog-kun" changeset="3192033">
    <nd ref="441699147"/>
    <nd ref="441699146"/>
    <nd ref="441699154"/>
    <tag k="highway" v="residential"/>
    <tag k="name" v="Wspaniała"/>
    <tag k="source" v="UMP-PL, ./UMP-Warszawa/src/OTWOCK.ulice.txt"/>
    <tag k="surface" v="unpaved"/>
  </way>
  <way id="37675875" version="3" timestamp="2011-02-19T02:12:57Z" uid="20587" user="balrog-kun" changeset="7328304">
    <nd ref="441699147"/>
    <nd ref="1160460225"/>
    <nd ref="441699146"/>
    <nd ref="1160457768"/>
    <tag k="highway" v="residential"/>
    <tag k="name" v="Wspaniała"/>
    <tag k="surface" v="unpaved"/>
  </way>
  <way id="37675876" version="2" timestamp="2009-11-22T23:29:43Z" uid="20587" user="balrog-kun" changeset="3192033">
    <nd ref="441699270"/>
    <nd ref="441699558"/>
    <nd ref="441700037"/>
    <nd ref="441699593"/>
    <tag k="highway" v="residential"/>
    <tag k="name" v="Lwowska"/>
    <tag k="source" v="UMP-PL, ./UMP-Warszawa/src/OTWOCK.ulice.txt"/>
    <tag k="surface" v="unpaved"/>
  </way>
  <way id="37675876" version="3" timestamp="2011-01-22T20:09:13Z" uid="363680" user="leszekg" changeset="7054700">
    <nd ref="441699270"/>
    <nd ref="441699558"/>
    <nd ref="441700037"/>
    <nd ref="441699593"/>
    <tag k="addr:city" v="Otwock"/>
    <tag k="highway" v="residential"/>
    <tag k="name" v="Lwowska"/>
    <tag k="source" v="UMP-PL, ./UMP-Warszawa/src/OTWOCK.ulice.txt"/>
    <tag k="surface" v="unpaved"/>
  </way>
  <way id="37675876" version="4" timestamp="2012-01-19T21:30:22Z" uid="467703" user="Zbigniew Czernik" changeset="10441448">
    <nd ref="441699270"/>
    <nd ref="441699558"/>
    <nd ref="441700037"/>
    <nd ref="441699593"/>
    <tag k="addr:city" v="Otwock"/>
    <tag k="highway" v="track"/>
    <tag k="name" v="Lwowska"/>
    <tag k="source" v="UMP-PL, ./UMP-Warszawa/src/OTWOCK.ulice.txt"/>
    <tag k="surface" v="unpaved"/>
    <tag k="tracktype" v="grade1"/>
  </way>
  <way id="37675879" version="2" timestamp="2009-11-22T23:30:00Z" uid="20587" user="balrog-kun" changeset="3192033">
    <nd ref="441699062"/>
    <nd ref="441700276"/>
    <nd ref="441699745"/>
    <tag k="highway" v="residential"/>
    <tag k="name" v="Kilińskiego"/>
    <tag k="source" v="UMP-PL, ./UMP-Warszawa/src/OTWOCK.ulice.txt"/>
    <tag k="surface" v="unpaved"/>
  </way>
  <way id="37675879" version="3" timestamp="2012-01-19T21:30:01Z" uid="467703" user="Zbigniew Czernik" changeset="10441448">
    <nd ref="441699062"/>
    <nd ref="441700276"/>
    <nd ref="441699745"/>
    <tag k="highway" v="track"/>
    <tag k="name" v="Kilińskiego"/>
    <tag k="source" v="UMP-PL, ./UMP-Warszawa/src/OTWOCK.ulice.txt"/>
    <tag k="surface" v="unpaved"/>
    <tag k="tracktype" v="grade1"/>
  </way>
  <way id="37675880" version="2" timestamp="2009-11-22T23:29:45Z" uid="20587" user="balrog-kun" changeset="3192033">
    <nd ref="441699239"/>
    <nd ref="441700611"/>
    <nd ref="441699240"/>
    <nd ref="441699237"/>
    <nd ref="441699238"/>
    <tag k="highway" v="residential"/>
    <tag k="name" v="Łąkowa"/>
    <tag k="source" v="UMP-PL, ./UMP-Warszawa/src/OTWOCK.ulice.txt"/>
    <tag k="surface" v="unpaved"/>
  </way>
  <way id="37675880" version="3" timestamp="2011-10-07T21:28:34Z" uid="403964" user="bartekent" changeset="9497871">
    <nd ref="441699239"/>
    <nd ref="441700611"/>
    <nd ref="441699240"/>
    <nd ref="1458146344"/>
    <nd ref="441699237"/>
    <nd ref="441699238"/>
    <tag k="highway" v="residential"/>
    <tag k="name" v="Łąkowa"/>
    <tag k="source" v="UMP-PL, ./UMP-Warszawa/src/OTWOCK.ulice.txt"/>
    <tag k="surface" v="unpaved"/>
  </way>
  <way id="37675880" version="4" timestamp="2012-01-19T21:31:44Z" uid="467703" user="Zbigniew Czernik" changeset="10441448">
    <nd ref="441699240"/>
    <nd ref="286830405"/>
    <tag k="highway" v="path"/>
  </way>
  <way id="37675884" version="2" timestamp="2009-11-22T23:29:44Z" uid="20587" user="balrog-kun" changeset="3192033">
    <nd ref="441700098"/>
    <nd ref="441699279"/>
    <tag k="highway" v="residential"/>
    <tag k="name" v="Poznańska"/>
    <tag k="source" v="UMP-PL, ./UMP-Warszawa/src/OTWOCK.ulice.txt"/>
    <tag k="surface" v="unpaved"/>
  </way>
  <way id="37675884" version="3" timestamp="2011-01-22T20:08:59Z" uid="363680" user="leszekg" changeset="7054700">
    <nd ref="441700098"/>
    <nd ref="441699279"/>
    <tag k="addr:city" v="Otwock"/>
    <tag k="highway" v="residential"/>
    <tag k="name" v="Poznańska"/>
    <tag k="source" v="UMP-PL, ./UMP-Warszawa/src/OTWOCK.ulice.txt"/>
    <tag k="surface" v="unpaved"/>
  </way>
  <way id="37675884" version="4" timestamp="2012-01-19T21:30:47Z" uid="467703" user="Zbigniew Czernik" changeset="10441448">
    <nd ref="441700098"/>
    <nd ref="441699279"/>
    <tag k="addr:city" v="Otwock"/>
    <tag k="highway" v="track"/>
    <tag k="name" v="Poznańska"/>
    <tag k="source" v="UMP-PL, ./UMP-Warszawa/src/OTWOCK.ulice.txt"/>
    <tag k="surface" v="unpaved"/>
    <tag k="tracktype" v="grade1"/>
  </way>
  <way id="37675885" version="2" timestamp="2009-11-01T12:20:16Z" uid="20587" user="balrog-kun" changeset="3005634">
    <nd ref="441700084"/>
    <nd ref="441700574"/>
    <tag k="highway" v="residential"/>
    <tag k="name" v="Ziołowa"/>
    <tag k="source" v="UMP-PL, ./UMP-Warszawa/src/OTWOCK.ulice.txt"/>
    <tag k="surface" v="unpaved"/>
  </way>
  <way id="37675885" version="3" timestamp="2012-01-19T21:31:40Z" uid="467703" user="Zbigniew Czernik" changeset="10441448">
    <nd ref="441700084"/>
    <nd ref="441700574"/>
    <tag k="highway" v="track"/>
    <tag k="name" v="Ziołowa"/>
    <tag k="source" v="UMP-PL, ./UMP-Warszawa/src/OTWOCK.ulice.txt"/>
    <tag k="surface" v="unpaved"/>
    <tag k="tracktype" v="grade1"/>
  </way>
  <way id="37675886" version="2" timestamp="2009-11-22T23:29:53Z" uid="20587" user="balrog-kun" changeset="3192033">
    <nd ref="441700374"/>
    <nd ref="441700320"/>
    <tag k="highway" v="residential"/>
    <tag k="name" v="Jana Kazimierza"/>
    <tag k="source" v="UMP-PL, ./UMP-Warszawa/src/OTWOCK.ulice.txt"/>
    <tag k="surface" v="unpaved"/>
  </way>
  <way id="37675887" version="2" timestamp="2009-11-01T12:20:14Z" uid="20587" user="balrog-kun" changeset="3005634">
    <nd ref="441700589"/>
    <nd ref="441700588"/>
    <nd ref="441700587"/>
    <nd ref="441700586"/>
    <nd ref="441699032"/>
    <tag k="highway" v="residential"/>
    <tag k="name" v="Piaskowa"/>
    <tag k="source" v="UMP-PL, ./UMP-Warszawa/src/OTWOCK.ulice.txt"/>
    <tag k="surface" v="unpaved"/>
  </way>
  <way id="37675887" version="3" timestamp="2011-01-22T20:09:04Z" uid="363680" user="leszekg" changeset="7054700">
    <nd ref="441700589"/>
    <nd ref="441700588"/>
    <nd ref="441700587"/>
    <nd ref="441700586"/>
    <nd ref="441699032"/>
    <tag k="addr:city" v="Otwock"/>
    <tag k="highway" v="residential"/>
    <tag k="name" v="Piaskowa"/>
    <tag k="source" v="UMP-PL, ./UMP-Warszawa/src/OTWOCK.ulice.txt"/>
    <tag k="surface" v="unpaved"/>
  </way>
  <way id="37675887" version="4" timestamp="2012-01-19T21:30:41Z" uid="467703" user="Zbigniew Czernik" changeset="10441448">
    <nd ref="441700589"/>
    <nd ref="441700588"/>
    <nd ref="441700587"/>
    <nd ref="441700586"/>
    <nd ref="441699032"/>
    <tag k="addr:city" v="Otwock"/>
    <tag k="highway" v="track"/>
    <tag k="name" v="Piaskowa"/>
    <tag k="source" v="UMP-PL, ./UMP-Warszawa/src/OTWOCK.ulice.txt"/>
    <tag k="surface" v="unpaved"/>
    <tag k="tracktype" v="grade1"/>
  </way>
  <way id="37675888" version="2" timestamp="2009-11-22T23:30:00Z" uid="20587" user="balrog-kun" changeset="3192033">
    <nd ref="441699693"/>
    <nd ref="441700276"/>
    <nd ref="441699219"/>
    <tag k="highway" v="residential"/>
    <tag k="name" v="Jagiellońska"/>
    <tag k="source" v="UMP-PL, ./UMP-Warszawa/src/OTWOCK.ulice.txt"/>
    <tag k="surface" v="unpaved"/>
  </way>
  <way id="37675888" version="3" timestamp="2012-01-19T21:29:49Z" uid="467703" user="Zbigniew Czernik" changeset="10441448">
    <nd ref="441699693"/>
    <nd ref="441700276"/>
    <nd ref="441699219"/>
    <tag k="highway" v="track"/>
    <tag k="name" v="Jagiellońska"/>
    <tag k="source" v="UMP-PL, ./UMP-Warszawa/src/OTWOCK.ulice.txt"/>
    <tag k="surface" v="unpaved"/>
    <tag k="tracktype" v="grade1"/>
  </way>
  <way id="37675889" version="2" timestamp="2009-11-22T23:30:01Z" uid="20587" user="balrog-kun" changeset="3192033">
    <nd ref="441700483"/>
    <nd ref="441700500"/>
    <nd ref="441700484"/>
    <tag k="highway" v="residential"/>
    <tag k="name" v="Koralowa"/>
    <tag k="source" v="UMP-PL, ./UMP-Warszawa/src/OTWOCK.ulice.txt"/>
    <tag k="surface" v="unpaved"/>
  </way>
  <way id="37675891" version="2" timestamp="2009-11-22T23:29:44Z" uid="20587" user="balrog-kun" changeset="3192033">
    <nd ref="441699499"/>
    <nd ref="441699156"/>
    <tag k="highway" v="residential"/>
    <tag k="name" v="Bartosza"/>
    <tag k="source" v="UMP-PL, ./UMP-Warszawa/src/OTWOCK.ulice.txt"/>
    <tag k="surface" v="unpaved"/>
  </way>
  <way id="37675891" version="3" timestamp="2011-01-22T20:09:06Z" uid="363680" user="leszekg" changeset="7054700">
    <nd ref="441699499"/>
    <nd ref="441699156"/>
    <tag k="addr:city" v="Otwock"/>
    <tag k="highway" v="residential"/>
    <tag k="name" v="Bartosza"/>
    <tag k="source" v="UMP-PL, ./UMP-Warszawa/src/OTWOCK.ulice.txt"/>
    <tag k="surface" v="unpaved"/>
  </way>
  <way id="37675891" version="4" timestamp="2012-01-19T21:29:03Z" uid="467703" user="Zbigniew Czernik" changeset="10441448">
    <nd ref="441699499"/>
    <nd ref="1598154202"/>
    <nd ref="441699156"/>
    <tag k="addr:city" v="Otwock"/>
    <tag k="highway" v="track"/>
    <tag k="name" v="Bartosza"/>
    <tag k="source" v="UMP-PL, ./UMP-Warszawa/src/OTWOCK.ulice.txt"/>
    <tag k="surface" v="unpaved"/>
    <tag k="tracktype" v="grade1"/>
  </way>
  <way id="37675892" version="2" timestamp="2009-11-22T23:29:45Z" uid="20587" user="balrog-kun" changeset="3192033">
    <nd ref="441699729"/>
    <nd ref="441699601"/>
    <tag k="highway" v="residential"/>
    <tag k="name" v="Radomska"/>
    <tag k="source" v="UMP-PL, ./UMP-Warszawa/src/OTWOCK.ulice.txt"/>
    <tag k="surface" v="unpaved"/>
  </way>
  <way id="37675892" version="3" timestamp="2011-01-22T20:09:37Z" uid="363680" user="leszekg" changeset="7054700">
    <nd ref="441699729"/>
    <nd ref="441699601"/>
    <tag k="addr:city" v="Otwock"/>
    <tag k="highway" v="residential"/>
    <tag k="name" v="Radomska"/>
    <tag k="source" v="UMP-PL, ./UMP-Warszawa/src/OTWOCK.ulice.txt"/>
    <tag k="surface" v="unpaved"/>
  </way>
  <way id="37675892" version="4" timestamp="2012-01-19T21:30:52Z" uid="467703" user="Zbigniew Czernik" changeset="10441448">
    <nd ref="441699729"/>
    <nd ref="441699601"/>
    <tag k="addr:city" v="Otwock"/>
    <tag k="highway" v="track"/>
    <tag k="name" v="Radomska"/>
    <tag k="source" v="UMP-PL, ./UMP-Warszawa/src/OTWOCK.ulice.txt"/>
    <tag k="surface" v="unpaved"/>
    <tag k="tracktype" v="grade1"/>
  </way>
  <way id="37675895" version="2" timestamp="2009-11-22T23:29:44Z" uid="20587" user="balrog-kun" changeset="3192033">
    <nd ref="441699496"/>
    <nd ref="441699155"/>
    <tag k="highway" v="residential"/>
    <tag k="name" v="Wiśniowa"/>
    <tag k="source" v="UMP-PL, ./UMP-Warszawa/src/OTWOCK.ulice.txt"/>
    <tag k="surface" v="unpaved"/>
  </way>
  <way id="37675895" version="3" timestamp="2011-01-22T20:09:42Z" uid="363680" user="leszekg" changeset="7054700">
    <nd ref="441699496"/>
    <nd ref="441699155"/>
    <tag k="addr:city" v="Otwock"/>
    <tag k="highway" v="residential"/>
    <tag k="name" v="Wiśniowa"/>
    <tag k="source" v="UMP-PL, ./UMP-Warszawa/src/OTWOCK.ulice.txt"/>
    <tag k="surface" v="unpaved"/>
  </way>
  <way id="37675895" version="4" timestamp="2012-01-19T21:31:33Z" uid="467703" user="Zbigniew Czernik" changeset="10441448">
    <nd ref="1598154187"/>
    <nd ref="1598154193"/>
    <nd ref="441699155"/>
    <tag k="addr:city" v="Otwock"/>
    <tag k="highway" v="track"/>
    <tag k="name" v="Wiśniowa"/>
    <tag k="source" v="UMP-PL, ./UMP-Warszawa/src/OTWOCK.ulice.txt"/>
    <tag k="surface" v="unpaved"/>
    <tag k="tracktype" v="grade1"/>
  </way>
  <way id="37675896" version="2" timestamp="2009-11-01T12:20:16Z" uid="20587" user="balrog-kun" changeset="3005634">
    <nd ref="441700359"/>
    <nd ref="441699197"/>
    <nd ref="441700207"/>
    <tag k="highway" v="residential"/>
    <tag k="name" v="Tuwima"/>
    <tag k="source" v="UMP-PL, ./UMP-Warszawa/src/OTWOCK.ulice.txt"/>
    <tag k="surface" v="unpaved"/>
  </way>
  <way id="37675896" version="3" timestamp="2012-01-19T21:31:14Z" uid="467703" user="Zbigniew Czernik" changeset="10441448">
    <nd ref="441700359"/>
    <nd ref="441699197"/>
    <nd ref="441700207"/>
    <tag k="highway" v="track"/>
    <tag k="name" v="Tuwima"/>
    <tag k="source" v="UMP-PL, ./UMP-Warszawa/src/OTWOCK.ulice.txt"/>
    <tag k="surface" v="unpaved"/>
    <tag k="tracktype" v="grade1"/>
  </way>
  <way id="37675897" version="2" timestamp="2009-11-23T00:29:50Z" uid="20587" user="balrog-kun" changeset="3192263">
    <nd ref="301251863"/>
    <nd ref="568878562"/>
    <tag k="highway" v="residential"/>
    <tag k="name" v="Świerczewskiego"/>
    <tag k="source" v="UMP-PL, ./UMP-Warszawa/src/OTWOCK.ulice.txt"/>
  </way>
  <way id="37675897" version="3" timestamp="2012-01-19T21:29:58Z" uid="467703" user="Zbigniew Czernik" changeset="10441448">
    <nd ref="301251863"/>
    <nd ref="568878562"/>
    <tag k="highway" v="residential"/>
    <tag k="name" v="Karola Świerczewskiego"/>
    <tag k="source" v="UMP-PL, ./UMP-Warszawa/src/OTWOCK.ulice.txt"/>
  </way>
  <way id="37675898" version="2" timestamp="2009-11-22T23:29:47Z" uid="20587" user="balrog-kun" changeset="3192033">
    <nd ref="441699684"/>
    <nd ref="441699566"/>
    <tag k="highway" v="residential"/>
    <tag k="name" v="Gdyńska"/>
    <tag k="source" v="UMP-PL, ./UMP-Warszawa/src/OTWOCK.ulice.txt"/>
    <tag k="surface" v="unpaved"/>
  </way>
  <way id="37675898" version="3" timestamp="2011-01-22T20:09:00Z" uid="363680" user="leszekg" changeset="7054700">
    <nd ref="441699684"/>
    <nd ref="441699566"/>
    <tag k="addr:city" v="Otwock"/>
    <tag k="highway" v="residential"/>
    <tag k="name" v="Gdyńska"/>
    <tag k="source" v="UMP-PL, ./UMP-Warszawa/src/OTWOCK.ulice.txt"/>
    <tag k="surface" v="unpaved"/>
  </way>
  <way id="37675898" version="4" timestamp="2012-01-19T21:29:28Z" uid="467703" user="Zbigniew Czernik" changeset="10441448">
    <nd ref="441699684"/>
    <nd ref="441699566"/>
    <tag k="addr:city" v="Otwock"/>
    <tag k="highway" v="track"/>
    <tag k="name" v="Gdyńska"/>
    <tag k="source" v="UMP-PL, ./UMP-Warszawa/src/OTWOCK.ulice.txt"/>
    <tag k="surface" v="unpaved"/>
    <tag k="tracktype" v="grade1"/>
  </way>
  <way id="37675906" version="2" timestamp="2009-11-01T12:20:19Z" uid="20587" user="balrog-kun" changeset="3005634">
    <nd ref="441699707"/>
    <nd ref="441699760"/>
    <nd ref="441699762"/>
    <nd ref="441699041"/>
    <tag k="highway" v="residential"/>
    <tag k="name" v="Tadeusza"/>
    <tag k="source" v="UMP-PL, ./UMP-Warszawa/src/OTWOCK.ulice.txt"/>
    <tag k="surface" v="unpaved"/>
  </way>
  <way id="37675906" version="3" timestamp="2009-11-23T00:29:51Z" uid="20587" user="balrog-kun" changeset="3192263">
    <nd ref="441699707"/>
    <nd ref="441699760"/>
    <tag k="highway" v="residential"/>
    <tag k="name" v="Tadeusza"/>
    <tag k="source" v="UMP-PL, ./UMP-Warszawa/src/OTWOCK.ulice.txt"/>
    <tag k="surface" v="unpaved"/>
  </way>
  <way id="37675906" version="4" timestamp="2012-01-19T21:31:10Z" uid="467703" user="Zbigniew Czernik" changeset="10441448">
    <nd ref="441699707"/>
    <nd ref="441699760"/>
    <tag k="highway" v="track"/>
    <tag k="name" v="Tadeusza"/>
    <tag k="source" v="UMP-PL, ./UMP-Warszawa/src/OTWOCK.ulice.txt"/>
    <tag k="surface" v="unpaved"/>
    <tag k="tracktype" v="grade1"/>
  </way>
  <way id="37675910" version="2" timestamp="2009-11-22T23:29:47Z" uid="20587" user="balrog-kun" changeset="3192033">
    <nd ref="441699565"/>
    <nd ref="441699685"/>
    <tag k="highway" v="residential"/>
    <tag k="name" v="Wrocławska"/>
    <tag k="source" v="UMP-PL, ./UMP-Warszawa/src/OTWOCK.ulice.txt"/>
    <tag k="surface" v="unpaved"/>
  </way>
  <way id="37675910" version="3" timestamp="2011-01-22T20:09:39Z" uid="363680" user="leszekg" changeset="7054700">
    <nd ref="441699565"/>
    <nd ref="441699685"/>
    <tag k="addr:city" v="Otwock"/>
    <tag k="highway" v="residential"/>
    <tag k="name" v="Wrocławska"/>
    <tag k="source" v="UMP-PL, ./UMP-Warszawa/src/OTWOCK.ulice.txt"/>
    <tag k="surface" v="unpaved"/>
  </way>
  <way id="37675910" version="4" timestamp="2012-01-19T21:31:34Z" uid="467703" user="Zbigniew Czernik" changeset="10441448">
    <nd ref="441699565"/>
    <nd ref="441699685"/>
    <tag k="addr:city" v="Otwock"/>
    <tag k="highway" v="track"/>
    <tag k="name" v="Wrocławska"/>
    <tag k="source" v="UMP-PL, ./UMP-Warszawa/src/OTWOCK.ulice.txt"/>
    <tag k="surface" v="unpaved"/>
    <tag k="tracktype" v="grade1"/>
  </way>
  <way id="37675914" version="2" timestamp="2009-11-01T12:20:12Z" uid="20587" user="balrog-kun" changeset="3005634">
    <nd ref="441699087"/>
    <nd ref="441699097"/>
    <nd ref="441699105"/>
    <tag k="highway" v="residential"/>
    <tag k="name" v="Kasztanowa"/>
    <tag k="source" v="UMP-PL, ./UMP-Warszawa/src/OTWOCK.ulice.txt"/>
    <tag k="surface" v="unpaved"/>
  </way>
  <way id="37675914" version="3" timestamp="2012-01-19T21:29:59Z" uid="467703" user="Zbigniew Czernik" changeset="10441448">
    <nd ref="441699087"/>
    <nd ref="441699097"/>
    <nd ref="441699105"/>
    <tag k="highway" v="track"/>
    <tag k="name" v="Kasztanowa"/>
    <tag k="source" v="UMP-PL, ./UMP-Warszawa/src/OTWOCK.ulice.txt"/>
    <tag k="surface" v="unpaved"/>
    <tag k="tracktype" v="grade1"/>
  </way>
  <way id="37675919" version="2" timestamp="2009-11-22T23:29:47Z" uid="20587" user="balrog-kun" changeset="3192033">
    <nd ref="441699680"/>
    <nd ref="441699556"/>
    <tag k="highway" v="residential"/>
    <tag k="name" v="Poznańska"/>
    <tag k="source" v="UMP-PL, ./UMP-Warszawa/src/OTWOCK.ulice.txt"/>
    <tag k="surface" v="unpaved"/>
  </way>
  <way id="37675919" version="3" timestamp="2011-01-22T20:09:25Z" uid="363680" user="leszekg" changeset="7054700">
    <nd ref="441699680"/>
    <nd ref="441699556"/>
    <tag k="addr:city" v="Otwock"/>
    <tag k="highway" v="residential"/>
    <tag k="name" v="Poznańska"/>
    <tag k="source" v="UMP-PL, ./UMP-Warszawa/src/OTWOCK.ulice.txt"/>
    <tag k="surface" v="unpaved"/>
  </way>
  <way id="37675919" version="4" timestamp="2012-01-19T21:30:48Z" uid="467703" user="Zbigniew Czernik" changeset="10441448">
    <nd ref="441699680"/>
    <nd ref="441699556"/>
    <tag k="addr:city" v="Otwock"/>
    <tag k="highway" v="track"/>
    <tag k="name" v="Poznańska"/>
    <tag k="source" v="UMP-PL, ./UMP-Warszawa/src/OTWOCK.ulice.txt"/>
    <tag k="surface" v="unpaved"/>
    <tag k="tracktype" v="grade1"/>
  </way>
  <way id="37675922" version="2" timestamp="2009-11-01T12:20:13Z" uid="20587" user="balrog-kun" changeset="3005634">
    <nd ref="441699552"/>
    <nd ref="441699547"/>
    <tag k="highway" v="residential"/>
    <tag k="name" v="Gałczyńskiego"/>
    <tag k="source" v="UMP-PL, ./UMP-Warszawa/src/OTWOCK.ulice.txt"/>
    <tag k="surface" v="unpaved"/>
  </way>
  <way id="37675922" version="3" timestamp="2009-11-23T01:11:04Z" uid="20587" user="balrog-kun" changeset="3192263">
    <nd ref="441699552"/>
    <nd ref="441699547"/>
    <tag k="highway" v="residential"/>
    <tag k="name" v="Konstantego IldefonsaGałczyńskiego"/>
    <tag k="source" v="UMP-PL, ./UMP-Warszawa/src/OTWOCK.ulice.txt"/>
    <tag k="surface" v="unpaved"/>
  </way>
  <way id="37675922" version="4" timestamp="2012-01-19T21:30:02Z" uid="467703" user="Zbigniew Czernik" changeset="10441448">
    <nd ref="441699552"/>
    <nd ref="441699547"/>
    <tag k="highway" v="track"/>
    <tag k="name" v="Konstantego IldefonsaGałczyńskiego"/>
    <tag k="source" v="UMP-PL, ./UMP-Warszawa/src/OTWOCK.ulice.txt"/>
    <tag k="surface" v="unpaved"/>
    <tag k="tracktype" v="grade1"/>
  </way>
  <way id="37675926" version="2" timestamp="2009-10-20T22:45:57Z" uid="20587" user="balrog-kun" changeset="2908055">
    <nd ref="441699054"/>
    <nd ref="441699055"/>
    <nd ref="441699056"/>
    <nd ref="441699050"/>
    <nd ref="311564726"/>
    <tag k="UMP_Level" v="2"/>
    <tag k="highway" v="tertiary"/>
    <tag k="name" v="Filipowicza"/>
    <tag k="source" v="UMP-PL, ./UMP-Warszawa/src/OTWOCK.ulice.txt"/>
  </way>
  <way id="37675926" version="3" timestamp="2009-10-31T22:49:12Z" uid="20587" user="balrog-kun" changeset="3002253">
    <nd ref="441699054"/>
    <nd ref="441699055"/>
    <nd ref="441699056"/>
    <nd ref="441699050"/>
    <nd ref="311564726"/>
    <tag k="highway" v="tertiary"/>
    <tag k="name" v="Filipowicza"/>
    <tag k="source" v="UMP-PL, ./UMP-Warszawa/src/OTWOCK.ulice.txt"/>
  </way>
  <way id="37675926" version="4" timestamp="2009-11-22T23:29:42Z" uid="20587" user="balrog-kun" changeset="3192033">
    <nd ref="441699054"/>
    <nd ref="441699055"/>
    <nd ref="441699056"/>
    <tag k="highway" v="tertiary"/>
    <tag k="name" v="Generała Juliana Filipowicza"/>
    <tag k="source" v="UMP-PL, ./UMP-Warszawa/src/OTWOCK.ulice.txt"/>
  </way>
  <way id="37675926" version="5" timestamp="2012-01-19T21:29:30Z" uid="467703" user="Zbigniew Czernik" changeset="10441448">
    <nd ref="441699054"/>
    <nd ref="1598153525"/>
    <nd ref="441699055"/>
    <nd ref="441699056"/>
    <tag k="highway" v="tertiary"/>
    <tag k="name" v="Generała Juliana Filipowicza"/>
    <tag k="source" v="UMP-PL, ./UMP-Warszawa/src/OTWOCK.ulice.txt"/>
  </way>
  <way id="37675928" version="2" timestamp="2009-11-01T12:20:21Z" uid="20587" user="balrog-kun" changeset="3005634">
    <nd ref="441699944"/>
    <nd ref="441699905"/>
    <nd ref="441700124"/>
    <nd ref="441700217"/>
    <tag k="highway" v="residential"/>
    <tag k="name" v="Kilińskiego"/>
    <tag k="source" v="UMP-PL, ./UMP-Warszawa/src/OTWOCK.ulice.txt"/>
    <tag k="surface" v="unpaved"/>
  </way>
  <way id="37675928" version="3" timestamp="2012-01-19T21:30:01Z" uid="467703" user="Zbigniew Czernik" changeset="10441448">
    <nd ref="441699944"/>
    <nd ref="441699905"/>
    <nd ref="441700124"/>
    <nd ref="441700217"/>
    <tag k="highway" v="track"/>
    <tag k="name" v="Kilińskiego"/>
    <tag k="source" v="UMP-PL, ./UMP-Warszawa/src/OTWOCK.ulice.txt"/>
    <tag k="surface" v="unpaved"/>
    <tag k="tracktype" v="grade1"/>
  </way>
  <way id="37675929" version="2" timestamp="2009-12-09T02:44:26Z" uid="200463" user="harmagedon" changeset="3330572">
    <nd ref="441700818"/>
    <nd ref="287104770"/>
    <nd ref="287104772"/>
    <nd ref="287104773"/>
    <nd ref="287104776"/>
    <nd ref="287104786"/>
    <nd ref="287104789"/>
    <nd ref="287104791"/>
    <nd ref="287104793"/>
    <nd ref="287104796"/>
    <nd ref="287104800"/>
    <nd ref="287104802"/>
    <nd ref="287104807"/>
    <nd ref="287104813"/>
    <nd ref="287104817"/>
    <nd ref="287104821"/>
    <nd ref="287104825"/>
    <nd ref="287104829"/>
    <nd ref="287104833"/>
    <nd ref="287104837"/>
    <nd ref="287104842"/>
    <nd ref="287104849"/>
    <nd ref="287104854"/>
    <nd ref="287104858"/>
    <nd ref="287104862"/>
    <nd ref="287104866"/>
    <nd ref="287104869"/>
    <nd ref="287104874"/>
    <nd ref="287104879"/>
    <nd ref="287104886"/>
    <nd ref="287104895"/>
    <nd ref="287104903"/>
    <nd ref="287104910"/>
    <nd ref="287104915"/>
    <nd ref="287104922"/>
    <nd ref="287104927"/>
    <nd ref="287104930"/>
    <nd ref="287104934"/>
    <nd ref="287104938"/>
    <nd ref="287104942"/>
    <nd ref="287104948"/>
    <nd ref="287104952"/>
    <nd ref="287104959"/>
    <nd ref="287104965"/>
    <nd ref="287104971"/>
    <nd ref="287104976"/>
    <nd ref="287104982"/>
    <nd ref="287104988"/>
    <nd ref="287104993"/>
    <nd ref="287104998"/>
    <nd ref="287105005"/>
    <nd ref="287105010"/>
    <nd ref="287105016"/>
    <nd ref="287105024"/>
    <nd ref="287105029"/>
    <nd ref="287105035"/>
    <nd ref="287105042"/>
    <nd ref="287105048"/>
    <nd ref="287105055"/>
    <nd ref="287105062"/>
    <nd ref="287105067"/>
    <nd ref="287105073"/>
    <nd ref="287105081"/>
    <nd ref="287105084"/>
    <nd ref="287105092"/>
    <nd ref="287105095"/>
    <nd ref="287105097"/>
    <nd ref="287105099"/>
    <nd ref="287105100"/>
    <nd ref="287105102"/>
    <nd ref="287105103"/>
    <nd ref="287105104"/>
    <nd ref="287105105"/>
    <nd ref="287105108"/>
    <nd ref="287105110"/>
    <nd ref="287105112"/>
    <nd ref="287105113"/>
    <nd ref="287105115"/>
    <nd ref="287105116"/>
    <nd ref="287105117"/>
    <nd ref="287105120"/>
    <nd ref="287105121"/>
    <nd ref="287105122"/>
    <nd ref="287105124"/>
    <nd ref="287105127"/>
    <nd ref="287105131"/>
    <nd ref="287105134"/>
    <nd ref="287105136"/>
    <nd ref="287105138"/>
    <nd ref="287105141"/>
    <nd ref="287105143"/>
    <nd ref="287105144"/>
    <nd ref="287105146"/>
    <nd ref="287105148"/>
    <nd ref="287105149"/>
    <nd ref="287105153"/>
    <nd ref="287105156"/>
    <nd ref="287105159"/>
    <nd ref="287105163"/>
    <nd ref="287105167"/>
    <nd ref="287105171"/>
    <nd ref="287105174"/>
    <nd ref="287105177"/>
    <nd ref="287105181"/>
    <nd ref="287105193"/>
    <nd ref="287105200"/>
    <nd ref="287105202"/>
    <nd ref="287105203"/>
    <nd ref="287105204"/>
    <nd ref="287105206"/>
    <nd ref="287105207"/>
    <nd ref="287105210"/>
    <nd ref="287105211"/>
    <nd ref="287105213"/>
    <nd ref="287105217"/>
    <nd ref="287105225"/>
    <nd ref="287105228"/>
    <nd ref="287105229"/>
    <nd ref="287105230"/>
    <nd ref="287105232"/>
    <nd ref="287105233"/>
    <nd ref="287105234"/>
    <nd ref="287105236"/>
    <nd ref="287105239"/>
    <nd ref="287105242"/>
    <nd ref="287105245"/>
    <nd ref="287105247"/>
    <nd ref="287105250"/>
    <nd ref="287105253"/>
    <nd ref="287105257"/>
    <nd ref="287105261"/>
    <nd ref="287105265"/>
    <nd ref="287105269"/>
    <nd ref="287105273"/>
    <nd ref="287105275"/>
    <nd ref="287105279"/>
    <nd ref="287105282"/>
    <nd ref="287105289"/>
    <nd ref="287105293"/>
    <nd ref="287105297"/>
    <nd ref="287105300"/>
    <nd ref="287105303"/>
    <nd ref="287105307"/>
    <nd ref="287105311"/>
    <nd ref="287105315"/>
    <nd ref="287105318"/>
    <nd ref="287105321"/>
    <nd ref="287105324"/>
    <nd ref="287105328"/>
    <nd ref="287105331"/>
    <nd ref="287105334"/>
    <nd ref="287105337"/>
    <nd ref="287105340"/>
    <nd ref="287105344"/>
    <nd ref="287105347"/>
    <nd ref="287105350"/>
    <nd ref="287105354"/>
    <nd ref="287105357"/>
    <nd ref="287105360"/>
    <nd ref="287105363"/>
    <nd ref="287105366"/>
    <nd ref="287105369"/>
    <nd ref="287105372"/>
    <nd ref="287105375"/>
    <nd ref="287105378"/>
    <nd ref="287105381"/>
    <nd ref="287105384"/>
    <nd ref="287105387"/>
    <nd ref="287105390"/>
    <nd ref="287105393"/>
    <nd ref="287105396"/>
    <nd ref="287105399"/>
    <nd ref="287105402"/>
    <nd ref="287105406"/>
    <nd ref="287105410"/>
    <nd ref="287105413"/>
    <nd ref="287105416"/>
    <nd ref="287105420"/>
    <nd ref="287105422"/>
    <nd ref="287105425"/>
    <nd ref="287105429"/>
    <nd ref="287105436"/>
    <nd ref="287105448"/>
    <nd ref="287105454"/>
    <nd ref="287105459"/>
    <nd ref="287105465"/>
    <nd ref="287105471"/>
    <nd ref="287105475"/>
    <nd ref="287105478"/>
    <nd ref="287105481"/>
    <nd ref="287105484"/>
    <nd ref="287105487"/>
    <nd ref="287105490"/>
    <nd ref="287105493"/>
    <nd ref="287105496"/>
    <nd ref="287105499"/>
    <nd ref="287105502"/>
    <nd ref="287105505"/>
    <nd ref="287105508"/>
    <nd ref="287105512"/>
    <nd ref="287105515"/>
    <nd ref="287105518"/>
    <nd ref="287105520"/>
    <nd ref="287105524"/>
    <nd ref="287105527"/>
    <nd ref="287105531"/>
    <nd ref="287105534"/>
    <nd ref="287105538"/>
    <nd ref="287105541"/>
    <nd ref="287105544"/>
    <nd ref="287105546"/>
    <nd ref="287105559"/>
    <nd ref="287105568"/>
    <nd ref="287105569"/>
    <nd ref="287105570"/>
    <nd ref="287105571"/>
    <nd ref="287105572"/>
    <nd ref="287105574"/>
    <nd ref="287105575"/>
    <nd ref="287105577"/>
    <nd ref="287105579"/>
    <nd ref="287105580"/>
    <nd ref="287105582"/>
    <nd ref="287105584"/>
    <nd ref="287105586"/>
    <nd ref="287105588"/>
    <nd ref="287105590"/>
    <nd ref="287105592"/>
    <nd ref="287105594"/>
    <nd ref="287105599"/>
    <nd ref="287105602"/>
    <nd ref="287105605"/>
    <tag k="highway" v="unclassified"/>
  </way>
  <way id="37675929" version="3" timestamp="2010-08-06T08:58:13Z" uid="124815" user="gerhard81" changeset="5414804">
    <nd ref="441700818"/>
    <nd ref="287104770"/>
    <nd ref="287104772"/>
    <nd ref="287104773"/>
    <nd ref="287104776"/>
    <nd ref="287104786"/>
    <nd ref="287104789"/>
    <nd ref="287104791"/>
    <nd ref="287104793"/>
    <nd ref="287104796"/>
    <nd ref="287104800"/>
    <nd ref="287104802"/>
    <nd ref="287104807"/>
    <nd ref="287104813"/>
    <nd ref="287104817"/>
    <nd ref="287104821"/>
    <nd ref="287104825"/>
    <nd ref="287104829"/>
    <nd ref="287104833"/>
    <nd ref="287104837"/>
    <nd ref="287104842"/>
    <nd ref="287104849"/>
    <nd ref="287104854"/>
    <nd ref="287104858"/>
    <tag k="highway" v="unclassified"/>
    <tag k="name" v="Baureith"/>
  </way>
  <way id="37675929" version="4" timestamp="2010-10-05T10:58:42Z" uid="211966" user="Hetzi" changeset="5960305">
    <nd ref="441700818"/>
    <nd ref="287104770"/>
    <nd ref="287104772"/>
    <nd ref="287104773"/>
    <nd ref="287104776"/>
    <nd ref="287104786"/>
    <nd ref="287104789"/>
    <nd ref="287104791"/>
    <nd ref="287104793"/>
    <nd ref="287104796"/>
    <nd ref="287104800"/>
    <nd ref="287104802"/>
    <nd ref="287104813"/>
    <nd ref="287104817"/>
    <nd ref="287104821"/>
    <nd ref="287104825"/>
    <nd ref="287104829"/>
    <nd ref="287104833"/>
    <nd ref="287104837"/>
    <nd ref="287104842"/>
    <nd ref="287104849"/>
    <nd ref="287104854"/>
    <nd ref="287104858"/>
    <tag k="highway" v="unclassified"/>
    <tag k="name" v="Baureith"/>
  </way>
  <way id="37675929" version="5" timestamp="2010-10-09T08:13:22Z" uid="65631" user="Dominik Hurnaus" changeset="5991594">
    <nd ref="441700818"/>
    <nd ref="287104770"/>
    <nd ref="287104772"/>
    <nd ref="287104773"/>
    <nd ref="287104776"/>
    <nd ref="287104786"/>
    <nd ref="287104789"/>
    <nd ref="287104791"/>
    <nd ref="287104793"/>
    <nd ref="287104796"/>
    <nd ref="287104800"/>
    <nd ref="287104802"/>
    <nd ref="287104813"/>
    <nd ref="287104817"/>
    <nd ref="287104821"/>
    <nd ref="287104825"/>
    <nd ref="942283338"/>
    <nd ref="287104829"/>
    <nd ref="287104833"/>
    <nd ref="287104837"/>
    <nd ref="287104842"/>
    <nd ref="287104849"/>
    <nd ref="287104854"/>
    <nd ref="287104858"/>
    <tag k="highway" v="unclassified"/>
    <tag k="name" v="Baureith"/>
  </way>
  <way id="37675930" version="2" timestamp="2009-11-22T23:29:54Z" uid="20587" user="balrog-kun" changeset="3192033">
    <nd ref="441700314"/>
    <nd ref="441700312"/>
    <nd ref="441700348"/>
    <tag k="highway" v="residential"/>
    <tag k="name" v="Kossaka"/>
    <tag k="source" v="UMP-PL, ./UMP-Warszawa/src/OTWOCK.ulice.txt"/>
    <tag k="surface" v="unpaved"/>
  </way>
  <way id="37675931" version="2" timestamp="2009-10-20T22:44:48Z" uid="20587" user="balrog-kun" changeset="2908055"/>
  <way id="37675932" version="2" timestamp="2009-11-01T12:20:19Z" uid="20587" user="balrog-kun" changeset="3005634">
    <nd ref="441699236"/>
    <nd ref="441699799"/>
    <nd ref="441699836"/>
    <nd ref="441699810"/>
    <tag k="highway" v="residential"/>
    <tag k="name" v="11 Listopada"/>
    <tag k="source" v="UMP-PL, ./UMP-Warszawa/src/OTWOCK.ulice.txt"/>
    <tag k="surface" v="unpaved"/>
  </way>
  <way id="37675932" version="3" timestamp="2012-01-19T21:32:04Z" uid="467703" user="Zbigniew Czernik" changeset="10441448">
    <nd ref="441699236"/>
    <nd ref="441699799"/>
    <nd ref="441699836"/>
    <nd ref="441699810"/>
    <tag k="highway" v="track"/>
    <tag k="name" v="11 Listopada"/>
    <tag k="source" v="UMP-PL, ./UMP-Warszawa/src/OTWOCK.ulice.txt"/>
    <tag k="surface" v="unpaved"/>
    <tag k="tracktype" v="grade1"/>
  </way>
  <way id="37675934" version="2" timestamp="2009-11-01T12:20:13Z" uid="20587" user="balrog-kun" changeset="3005634">
    <nd ref="441699274"/>
    <nd ref="441699540"/>
    <nd ref="441699553"/>
    <nd ref="441699535"/>
    <tag k="highway" v="residential"/>
    <tag k="name" v="Ługi"/>
    <tag k="source" v="UMP-PL, ./UMP-Warszawa/src/OTWOCK.ulice.txt"/>
    <tag k="surface" v="unpaved"/>
  </way>
  <way id="37675934" version="3" timestamp="2011-10-07T22:01:20Z" uid="403964" user="bartekent" changeset="9497871">
    <nd ref="441699274"/>
    <nd ref="441699540"/>
    <nd ref="441699553"/>
    <nd ref="1458160437"/>
    <nd ref="441699535"/>
    <tag k="highway" v="residential"/>
    <tag k="name" v="Ługi"/>
    <tag k="source" v="UMP-PL, ./UMP-Warszawa/src/OTWOCK.ulice.txt"/>
    <tag k="surface" v="unpaved"/>
  </way>
  <way id="37675934" version="4" timestamp="2012-01-19T21:31:59Z" uid="467703" user="Zbigniew Czernik" changeset="10441448">
    <nd ref="441699274"/>
    <nd ref="441699540"/>
    <nd ref="441699553"/>
    <nd ref="1458160437"/>
    <nd ref="441699535"/>
    <tag k="highway" v="track"/>
    <tag k="name" v="Ługi"/>
    <tag k="source" v="UMP-PL, ./UMP-Warszawa/src/OTWOCK.ulice.txt"/>
    <tag k="surface" v="unpaved"/>
    <tag k="tracktype" v="grade1"/>
  </way>
  <way id="37675936" version="2" timestamp="2009-11-23T00:29:48Z" uid="20587" user="balrog-kun" changeset="3192263">
    <nd ref="301252299"/>
    <nd ref="441699095"/>
    <nd ref="441699093"/>
    <nd ref="441699694"/>
    <nd ref="441699695"/>
    <nd ref="366683564"/>
    <nd ref="441699687"/>
    <nd ref="441699688"/>
    <nd ref="366683381"/>
    <tag k="highway" v="residential"/>
    <tag k="name" v="Władysława Reymonta"/>
    <tag k="source" v="UMP-PL, ./UMP-Warszawa/src/OTWOCK.ulice.txt"/>
  </way>
  <way id="37675936" version="3" timestamp="2009-11-23T00:44:01Z" uid="20587" user="balrog-kun" changeset="3192263">
    <nd ref="301252299"/>
    <nd ref="441699095"/>
    <tag k="highway" v="residential"/>
    <tag k="name" v="Władysława Reymonta"/>
    <tag k="source" v="UMP-PL, ./UMP-Warszawa/src/OTWOCK.ulice.txt"/>
  </way>
  <way id="37675938" version="2" timestamp="2009-11-22T23:30:02Z" uid="20587" user="balrog-kun" changeset="3192033">
    <nd ref="441699806"/>
    <nd ref="441699807"/>
    <tag k="highway" v="residential"/>
    <tag k="name" v="Jabłońska"/>
    <tag k="source" v="UMP-PL, ./UMP-Warszawa/src/OTWOCK.ulice.txt"/>
    <tag k="surface" v="unpaved"/>
  </way>
  <way id="37675938" version="3" timestamp="2012-01-19T21:29:49Z" uid="467703" user="Zbigniew Czernik" changeset="10441448">
    <nd ref="441699806"/>
    <nd ref="441699807"/>
    <tag k="highway" v="track"/>
    <tag k="name" v="Jabłońska"/>
    <tag k="source" v="UMP-PL, ./UMP-Warszawa/src/OTWOCK.ulice.txt"/>
    <tag k="surface" v="unpaved"/>
    <tag k="tracktype" v="grade1"/>
  </way>
  <way id="37675939" version="2" timestamp="2009-11-22T23:29:46Z" uid="20587" user="balrog-kun" changeset="3192033">
    <nd ref="441699609"/>
    <nd ref="441699727"/>
    <nd ref="441699785"/>
    <tag k="highway" v="residential"/>
    <tag k="name" v="Jodłowa"/>
    <tag k="source" v="UMP-PL, ./UMP-Warszawa/src/OTWOCK.ulice.txt"/>
    <tag k="surface" v="unpaved"/>
  </way>
  <way id="37675939" version="3" timestamp="2011-01-22T20:09:46Z" uid="363680" user="leszekg" changeset="7054700">
    <nd ref="441699609"/>
    <nd ref="441699727"/>
    <nd ref="441699785"/>
    <tag k="addr:city" v="Otwock"/>
    <tag k="highway" v="residential"/>
    <tag k="name" v="Jodłowa"/>
    <tag k="source" v="UMP-PL, ./UMP-Warszawa/src/OTWOCK.ulice.txt"/>
    <tag k="surface" v="unpaved"/>
  </way>
  <way id="37675939" version="4" timestamp="2012-01-19T21:29:54Z" uid="467703" user="Zbigniew Czernik" changeset="10441448">
    <nd ref="441699609"/>
    <nd ref="441699727"/>
    <tag k="addr:city" v="Otwock"/>
    <tag k="highway" v="track"/>
    <tag k="name" v="Jodłowa"/>
    <tag k="source" v="UMP-PL, ./UMP-Warszawa/src/OTWOCK.ulice.txt"/>
    <tag k="surface" v="unpaved"/>
    <tag k="tracktype" v="grade1"/>
  </way>
  <way id="37675940" version="2" timestamp="2009-11-22T23:29:47Z" uid="20587" user="balrog-kun" changeset="3192033">
    <nd ref="441699696"/>
    <nd ref="441699697"/>
    <nd ref="441699700"/>
    <nd ref="441699780"/>
    <nd ref="441699793"/>
    <tag k="highway" v="residential"/>
    <tag k="name" v="Olszowa"/>
    <tag k="source" v="UMP-PL, ./UMP-Warszawa/src/OTWOCK.ulice.txt"/>
    <tag k="surface" v="unpaved"/>
  </way>
  <way id="37675940" version="3" timestamp="2011-01-22T20:09:22Z" uid="363680" user="leszekg" changeset="7054700">
    <nd ref="441699696"/>
    <nd ref="441699697"/>
    <nd ref="441699700"/>
    <nd ref="441699780"/>
    <nd ref="441699793"/>
    <tag k="addr:city" v="Otwock"/>
    <tag k="highway" v="residential"/>
    <tag k="name" v="Olszowa"/>
    <tag k="source" v="UMP-PL, ./UMP-Warszawa/src/OTWOCK.ulice.txt"/>
    <tag k="surface" v="unpaved"/>
  </way>
  <way id="37675940" version="4" timestamp="2012-01-19T21:30:36Z" uid="467703" user="Zbigniew Czernik" changeset="10441448">
    <nd ref="441699696"/>
    <nd ref="441699697"/>
    <nd ref="441699700"/>
    <nd ref="441699780"/>
    <nd ref="441699779"/>
    <nd ref="441699793"/>
    <tag k="addr:city" v="Otwock"/>
    <tag k="highway" v="track"/>
    <tag k="name" v="Olszowa"/>
    <tag k="source" v="UMP-PL, ./UMP-Warszawa/src/OTWOCK.ulice.txt"/>
    <tag k="surface" v="unpaved"/>
    <tag k="tracktype" v="grade1"/>
  </way>
  <way id="37675941" version="2" timestamp="2009-11-01T12:20:15Z" uid="20587" user="balrog-kun" changeset="3005634">
    <nd ref="441700588"/>
    <nd ref="441700580"/>
    <nd ref="441700581"/>
    <nd ref="441700578"/>
    <nd ref="441700579"/>
    <nd ref="441700568"/>
    <nd ref="441699145"/>
    <tag k="highway" v="track"/>
    <tag k="source" v="UMP-PL, ./UMP-Warszawa/src/OTWOCK.ulice.txt"/>
  </way>
  <way id="37675941" version="3" timestamp="2011-01-22T20:09:14Z" uid="363680" user="leszekg" changeset="7054700">
    <nd ref="441700588"/>
    <nd ref="441700580"/>
    <nd ref="441700581"/>
    <nd ref="441700578"/>
    <nd ref="441700579"/>
    <nd ref="441700568"/>
    <nd ref="441699145"/>
    <tag k="addr:city" v="Otwock"/>
    <tag k="highway" v="track"/>
    <tag k="source" v="UMP-PL, ./UMP-Warszawa/src/OTWOCK.ulice.txt"/>
  </way>
  <way id="37675943" version="2" timestamp="2009-10-20T22:44:47Z" uid="20587" user="balrog-kun" changeset="2908055"/>
  <way id="37675944" version="2" timestamp="2009-11-23T01:11:06Z" uid="20587" user="balrog-kun" changeset="3192263">
    <nd ref="441699063"/>
    <nd ref="441700607"/>
    <tag k="highway" v="residential"/>
    <tag k="source" v="UMP-PL, ./UMP-Warszawa/src/OTWOCK.ulice.txt"/>
  </way>
  <way id="37675945" version="2" timestamp="2009-11-22T23:29:45Z" uid="20587" user="balrog-kun" changeset="3192033">
    <nd ref="441700034"/>
    <nd ref="441699596"/>
    <tag k="highway" v="residential"/>
    <tag k="name" v="Braniewska"/>
    <tag k="source" v="UMP-PL, ./UMP-Warszawa/src/OTWOCK.ulice.txt"/>
    <tag k="surface" v="unpaved"/>
  </way>
  <way id="37675945" version="3" timestamp="2011-01-22T20:09:28Z" uid="363680" user="leszekg" changeset="7054700">
    <nd ref="441700034"/>
    <nd ref="441699596"/>
    <tag k="addr:city" v="Otwock"/>
    <tag k="highway" v="residential"/>
    <tag k="name" v="Braniewska"/>
    <tag k="source" v="UMP-PL, ./UMP-Warszawa/src/OTWOCK.ulice.txt"/>
    <tag k="surface" v="unpaved"/>
  </way>
  <way id="37675945" version="4" timestamp="2012-01-19T21:29:07Z" uid="467703" user="Zbigniew Czernik" changeset="10441448">
    <nd ref="441700034"/>
    <nd ref="441699596"/>
    <tag k="addr:city" v="Otwock"/>
    <tag k="highway" v="track"/>
    <tag k="name" v="Braniewska"/>
    <tag k="source" v="UMP-PL, ./UMP-Warszawa/src/OTWOCK.ulice.txt"/>
    <tag k="surface" v="unpaved"/>
    <tag k="tracktype" v="grade1"/>
  </way>
  <way id="37675946" version="2" timestamp="2009-11-01T12:20:19Z" uid="20587" user="balrog-kun" changeset="3005634">
    <nd ref="441699786"/>
    <nd ref="441699874"/>
    <nd ref="441699787"/>
    <nd ref="441699876"/>
    <tag k="highway" v="residential"/>
    <tag k="name" v="Prądzyńskiego"/>
    <tag k="source" v="UMP-PL, ./UMP-Warszawa/src/OTWOCK.ulice.txt"/>
    <tag k="surface" v="unpaved"/>
  </way>
  <way id="37675946" version="3" timestamp="2009-11-22T23:29:59Z" uid="20587" user="balrog-kun" changeset="3192033">
    <nd ref="441699786"/>
    <nd ref="441699874"/>
    <nd ref="441699787"/>
    <nd ref="441699876"/>
    <tag k="highway" v="residential"/>
    <tag k="name" v="Ignacego Prądzyńskiego"/>
    <tag k="source" v="UMP-PL, ./UMP-Warszawa/src/OTWOCK.ulice.txt"/>
    <tag k="surface" v="unpaved"/>
  </way>
  <way id="37675946" version="4" timestamp="2012-01-19T21:29:47Z" uid="467703" user="Zbigniew Czernik" changeset="10441448">
    <nd ref="441699786"/>
    <nd ref="441699874"/>
    <nd ref="441699787"/>
    <nd ref="441699876"/>
    <tag k="highway" v="track"/>
    <tag k="name" v="Ignacego Prądzyńskiego"/>
    <tag k="source" v="UMP-PL, ./UMP-Warszawa/src/OTWOCK.ulice.txt"/>
    <tag k="surface" v="unpaved"/>
    <tag k="tracktype" v="grade1"/>
  </way>
  <way id="37675947" version="2" timestamp="2009-11-01T12:20:19Z" uid="20587" user="balrog-kun" changeset="3005634">
    <nd ref="441699882"/>
    <nd ref="441699876"/>
    <nd ref="441699822"/>
    <nd ref="441699737"/>
    <tag k="highway" v="residential"/>
    <tag k="name" v="Traugutta"/>
    <tag k="source" v="UMP-PL, ./UMP-Warszawa/src/OTWOCK.ulice.txt"/>
    <tag k="surface" v="unpaved"/>
  </way>
  <way id="37675947" version="3" timestamp="2009-11-22T23:29:58Z" uid="20587" user="balrog-kun" changeset="3192033">
    <nd ref="441699882"/>
    <nd ref="441699876"/>
    <nd ref="441699822"/>
    <nd ref="441699737"/>
    <tag k="highway" v="residential"/>
    <tag k="name" v="Romualda Traugutta"/>
    <tag k="source" v="UMP-PL, ./UMP-Warszawa/src/OTWOCK.ulice.txt"/>
    <tag k="surface" v="unpaved"/>
  </way>
  <way id="37675947" version="4" timestamp="2012-01-19T21:30:54Z" uid="467703" user="Zbigniew Czernik" changeset="10441448">
    <nd ref="441699882"/>
    <nd ref="441699876"/>
    <nd ref="441699822"/>
    <nd ref="441699737"/>
    <tag k="highway" v="track"/>
    <tag k="name" v="Romualda Traugutta"/>
    <tag k="source" v="UMP-PL, ./UMP-Warszawa/src/OTWOCK.ulice.txt"/>
    <tag k="surface" v="unpaved"/>
    <tag k="tracktype" v="grade1"/>
  </way>
  <way id="37675948" version="2" timestamp="2009-11-01T12:20:16Z" uid="20587" user="balrog-kun" changeset="3005634">
    <nd ref="441700355"/>
    <nd ref="441700379"/>
    <tag k="highway" v="track"/>
    <tag k="source" v="UMP-PL, ./UMP-Warszawa/src/OTWOCK.ulice.txt"/>
  </way>
  <way id="37675949" version="2" timestamp="2009-11-01T12:20:21Z" uid="20587" user="balrog-kun" changeset="3005634">
    <nd ref="441699944"/>
    <nd ref="441700216"/>
    <nd ref="441700219"/>
    <nd ref="441700220"/>
    <nd ref="441700081"/>
    <tag k="highway" v="residential"/>
    <tag k="name" v="Fredry"/>
    <tag k="source" v="UMP-PL, ./UMP-Warszawa/src/OTWOCK.ulice.txt"/>
    <tag k="surface" v="unpaved"/>
  </way>
  <way id="37675949" version="3" timestamp="2012-01-19T21:29:25Z" uid="467703" user="Zbigniew Czernik" changeset="10441448">
    <nd ref="441699944"/>
    <nd ref="441700216"/>
    <nd ref="441700219"/>
    <nd ref="441700220"/>
    <nd ref="441700081"/>
    <tag k="highway" v="track"/>
    <tag k="name" v="Fredry"/>
    <tag k="source" v="UMP-PL, ./UMP-Warszawa/src/OTWOCK.ulice.txt"/>
    <tag k="surface" v="unpaved"/>
    <tag k="tracktype" v="grade1"/>
  </way>
  <way id="37675950" version="2" timestamp="2009-11-22T23:29:45Z" uid="20587" user="balrog-kun" changeset="3192033">
    <nd ref="441700101"/>
    <nd ref="441699523"/>
    <tag k="highway" v="residential"/>
    <tag k="name" v="Wrocławska"/>
    <tag k="source" v="UMP-PL, ./UMP-Warszawa/src/OTWOCK.ulice.txt"/>
    <tag k="surface" v="unpaved"/>
  </way>
  <way id="37675950" version="3" timestamp="2011-01-22T20:09:19Z" uid="363680" user="leszekg" changeset="7054700">
    <nd ref="441700101"/>
    <nd ref="441699523"/>
    <tag k="addr:city" v="Otwock"/>
    <tag k="highway" v="residential"/>
    <tag k="name" v="Wrocławska"/>
    <tag k="source" v="UMP-PL, ./UMP-Warszawa/src/OTWOCK.ulice.txt"/>
    <tag k="surface" v="unpaved"/>
  </way>
  <way id="37675950" version="4" timestamp="2012-01-19T21:31:34Z" uid="467703" user="Zbigniew Czernik" changeset="10441448">
    <nd ref="441700101"/>
    <nd ref="441699523"/>
    <tag k="addr:city" v="Otwock"/>
    <tag k="highway" v="track"/>
    <tag k="name" v="Wrocławska"/>
    <tag k="source" v="UMP-PL, ./UMP-Warszawa/src/OTWOCK.ulice.txt"/>
    <tag k="surface" v="unpaved"/>
    <tag k="tracktype" v="grade1"/>
  </way>
  <way id="37675951" version="2" timestamp="2009-11-22T23:29:45Z" uid="20587" user="balrog-kun" changeset="3192033">
    <nd ref="441700091"/>
    <nd ref="441700114"/>
    <nd ref="441700113"/>
    <tag k="highway" v="residential"/>
    <tag k="name" v="Koszalińska"/>
    <tag k="source" v="UMP-PL, ./UMP-Warszawa/src/OTWOCK.ulice.txt"/>
    <tag k="surface" v="unpaved"/>
  </way>
  <way id="37675951" version="3" timestamp="2012-01-19T21:30:05Z" uid="467703" user="Zbigniew Czernik" changeset="10441448">
    <nd ref="441700091"/>
    <nd ref="441700114"/>
    <nd ref="441700113"/>
    <tag k="highway" v="track"/>
    <tag k="name" v="Koszalińska"/>
    <tag k="source" v="UMP-PL, ./UMP-Warszawa/src/OTWOCK.ulice.txt"/>
    <tag k="surface" v="unpaved"/>
    <tag k="tracktype" v="grade1"/>
  </way>
  <way id="37675952" version="2" timestamp="2009-11-01T12:20:23Z" uid="20587" user="balrog-kun" changeset="3005634">
    <nd ref="366683964"/>
    <nd ref="441700157"/>
    <nd ref="441700147"/>
    <nd ref="417080939"/>
    <nd ref="441699230"/>
    <tag k="highway" v="residential"/>
    <tag k="name" v="Reymonta"/>
    <tag k="source" v="UMP-PL, ./UMP-Warszawa/src/OTWOCK.ulice.txt"/>
    <tag k="surface" v="unpaved"/>
  </way>
  <way id="37675952" version="3" timestamp="2009-11-23T00:29:52Z" uid="20587" user="balrog-kun" changeset="3192263">
    <nd ref="366683964"/>
    <nd ref="441700157"/>
    <nd ref="441700147"/>
    <nd ref="417080939"/>
    <nd ref="441699230"/>
    <tag k="highway" v="residential"/>
    <tag k="name" v="Władysława Reymonta"/>
    <tag k="source" v="UMP-PL, ./UMP-Warszawa/src/OTWOCK.ulice.txt"/>
    <tag k="surface" v="unpaved"/>
  </way>
  <way id="37675952" version="4" timestamp="2011-02-08T18:54:51Z" uid="98542" user="wajak" changeset="7229461">
    <nd ref="366683964"/>
    <nd ref="1142574800"/>
    <tag k="highway" v="residential"/>
    <tag k="name" v="Władysława Reymonta"/>
    <tag k="source" v="UMP-PL, ./UMP-Warszawa/src/OTWOCK.ulice.txt"/>
    <tag k="surface" v="unpaved"/>
  </way>
  <way id="37675952" version="5" timestamp="2012-01-19T21:31:37Z" uid="467703" user="Zbigniew Czernik" changeset="10441448">
    <nd ref="366683964"/>
    <nd ref="1142574800"/>
    <tag k="highway" v="track"/>
    <tag k="name" v="Władysława Reymonta"/>
    <tag k="source" v="UMP-PL, ./UMP-Warszawa/src/OTWOCK.ulice.txt"/>
    <tag k="surface" v="unpaved"/>
    <tag k="tracktype" v="grade1"/>
  </way>
  <way id="37675953" version="2" timestamp="2009-11-23T00:29:50Z" uid="20587" user="balrog-kun" changeset="3192263">
    <nd ref="441699137"/>
    <nd ref="441699138"/>
    <nd ref="441699139"/>
    <nd ref="441699025"/>
    <nd ref="441699141"/>
    <tag k="highway" v="residential"/>
    <tag k="name" v="Adama Mickiewicza"/>
    <tag k="source" v="UMP-PL, ./UMP-Warszawa/src/OTWOCK.ulice.txt"/>
  </way>
  <way id="37675953" version="3" timestamp="2010-06-09T06:55:00Z" uid="71112" user="Kacper Perschke" changeset="4942722">
    <nd ref="441699137"/>
    <nd ref="441699138"/>
    <nd ref="441699139"/>
    <nd ref="767705548"/>
    <nd ref="441699025"/>
    <nd ref="441699141"/>
    <tag k="highway" v="residential"/>
    <tag k="name" v="Adama Mickiewicza"/>
    <tag k="source" v="UMP-PL, ./UMP-Warszawa/src/OTWOCK.ulice.txt"/>
  </way>
  <way id="37675953" version="4" timestamp="2011-02-15T23:45:04Z" uid="277387" user="rogal" changeset="7300268">
    <nd ref="441699137"/>
    <nd ref="441699138"/>
    <nd ref="441699139"/>
    <nd ref="767705548"/>
    <nd ref="1155537095"/>
    <nd ref="441699025"/>
    <nd ref="441699141"/>
    <tag k="highway" v="residential"/>
    <tag k="name" v="Adama Mickiewicza"/>
    <tag k="source" v="UMP-PL, ./UMP-Warszawa/src/OTWOCK.ulice.txt"/>
  </way>
  <way id="37675954" version="2" timestamp="2009-11-22T23:29:45Z" uid="20587" user="balrog-kun" changeset="3192033">
    <nd ref="441700108"/>
    <nd ref="441700113"/>
    <nd ref="441699456"/>
    <tag k="highway" v="residential"/>
    <tag k="name" v="Szczecińska"/>
    <tag k="source" v="UMP-PL, ./UMP-Warszawa/src/OTWOCK.ulice.txt"/>
    <tag k="surface" v="unpaved"/>
  </way>
  <way id="37675954" version="3" timestamp="2011-01-22T20:09:23Z" uid="363680" user="leszekg" changeset="7054700">
    <nd ref="441700108"/>
    <nd ref="441700113"/>
    <nd ref="441699456"/>
    <tag k="addr:city" v="Otwock"/>
    <tag k="highway" v="residential"/>
    <tag k="name" v="Szczecińska"/>
    <tag k="source" v="UMP-PL, ./UMP-Warszawa/src/OTWOCK.ulice.txt"/>
    <tag k="surface" v="unpaved"/>
  </way>
  <way id="37675954" version="4" timestamp="2012-01-19T21:31:04Z" uid="467703" user="Zbigniew Czernik" changeset="10441448">
    <nd ref="441700108"/>
    <nd ref="441700113"/>
    <nd ref="441699456"/>
    <tag k="addr:city" v="Otwock"/>
    <tag k="highway" v="track"/>
    <tag k="name" v="Szczecińska"/>
    <tag k="source" v="UMP-PL, ./UMP-Warszawa/src/OTWOCK.ulice.txt"/>
    <tag k="surface" v="unpaved"/>
    <tag k="tracktype" v="grade1"/>
  </way>
  <way id="37675957" version="2" timestamp="2009-11-22T23:30:00Z" uid="20587" user="balrog-kun" changeset="3192033">
    <nd ref="441699211"/>
    <nd ref="441700124"/>
    <nd ref="441699732"/>
    <tag k="highway" v="residential"/>
    <tag k="name" v="Chłodna"/>
    <tag k="source" v="UMP-PL, ./UMP-Warszawa/src/OTWOCK.ulice.txt"/>
    <tag k="surface" v="unpaved"/>
  </way>
  <way id="37675957" version="3" timestamp="2012-01-19T21:29:11Z" uid="467703" user="Zbigniew Czernik" changeset="10441448">
    <nd ref="441699211"/>
    <nd ref="441700124"/>
    <nd ref="441699732"/>
    <tag k="highway" v="track"/>
    <tag k="name" v="Chłodna"/>
    <tag k="source" v="UMP-PL, ./UMP-Warszawa/src/OTWOCK.ulice.txt"/>
    <tag k="surface" v="unpaved"/>
    <tag k="tracktype" v="grade1"/>
  </way>
  <way id="37675958" version="2" timestamp="2009-10-31T22:49:13Z" uid="20587" user="balrog-kun" changeset="3002253">
    <nd ref="441699042"/>
    <nd ref="441699534"/>
    <nd ref="441699506"/>
    <nd ref="441699533"/>
    <nd ref="441699532"/>
    <nd ref="441699531"/>
    <tag k="highway" v="tertiary"/>
    <tag k="name" v="Pułaskiego"/>
    <tag k="source" v="UMP-PL, ./UMP-Warszawa/src/OTWOCK.ulice.txt"/>
  </way>
  <way id="37675958" version="3" timestamp="2009-11-22T23:29:59Z" uid="20587" user="balrog-kun" changeset="3192033">
    <nd ref="441699042"/>
    <nd ref="441699534"/>
    <tag k="highway" v="tertiary"/>
    <tag k="name" v="Kazimierza Pułaskiego"/>
    <tag k="source" v="UMP-PL, ./UMP-Warszawa/src/OTWOCK.ulice.txt"/>
  </way>
  <way id="37675958" version="4" timestamp="2012-01-19T21:30:00Z" uid="467703" user="Zbigniew Czernik" changeset="10441448">
    <nd ref="441699042"/>
    <nd ref="441699534"/>
    <tag k="highway" v="residential"/>
    <tag k="name" v="Kazimierza Pułaskiego"/>
    <tag k="source" v="UMP-PL, ./UMP-Warszawa/src/OTWOCK.ulice.txt"/>
  </way>
  <way id="37675960" version="2" timestamp="2009-11-22T23:29:46Z" uid="20587" user="balrog-kun" changeset="3192033">
    <nd ref="441700303"/>
    <nd ref="441700065"/>
    <nd ref="441700281"/>
    <nd ref="441700302"/>
    <tag k="highway" v="residential"/>
    <tag k="name" v="Łokietka"/>
    <tag k="source" v="UMP-PL, ./UMP-Warszawa/src/OTWOCK.ulice.txt"/>
    <tag k="surface" v="unpaved"/>
  </way>
  <way id="37675960" version="3" timestamp="2012-01-19T21:31:55Z" uid="467703" user="Zbigniew Czernik" changeset="10441448">
    <nd ref="441700303"/>
    <nd ref="441700065"/>
    <nd ref="441700281"/>
    <nd ref="441700302"/>
    <tag k="highway" v="track"/>
    <tag k="name" v="Łokietka"/>
    <tag k="source" v="UMP-PL, ./UMP-Warszawa/src/OTWOCK.ulice.txt"/>
    <tag k="surface" v="unpaved"/>
    <tag k="tracktype" v="grade1"/>
  </way>
  <way id="37675961" version="2" timestamp="2009-11-22T23:30:02Z" uid="20587" user="balrog-kun" changeset="3192033">
    <nd ref="441700485"/>
    <nd ref="441700474"/>
    <tag k="highway" v="residential"/>
    <tag k="name" v="Młynarska"/>
    <tag k="source" v="UMP-PL, ./UMP-Warszawa/src/OTWOCK.ulice.txt"/>
    <tag k="surface" v="unpaved"/>
  </way>
  <way id="37675962" version="2" timestamp="2009-10-20T22:45:11Z" uid="20587" user="balrog-kun" changeset="2908055"/>
  <way id="37675963" version="2" timestamp="2009-11-01T12:20:20Z" uid="20587" user="balrog-kun" changeset="3005634">
    <nd ref="441700076"/>
    <nd ref="441700071"/>
    <nd ref="441700070"/>
    <nd ref="441700073"/>
    <tag k="highway" v="residential"/>
    <tag k="name" v="Bukowa"/>
    <tag k="source" v="UMP-PL, ./UMP-Warszawa/src/OTWOCK.ulice.txt"/>
    <tag k="surface" v="unpaved"/>
  </way>
  <way id="37675963" version="3" timestamp="2012-01-19T21:29:09Z" uid="467703" user="Zbigniew Czernik" changeset="10441448">
    <nd ref="441700076"/>
    <nd ref="441700071"/>
    <nd ref="441700070"/>
    <nd ref="441700073"/>
    <tag k="highway" v="track"/>
    <tag k="name" v="Bukowa"/>
    <tag k="source" v="UMP-PL, ./UMP-Warszawa/src/OTWOCK.ulice.txt"/>
    <tag k="surface" v="unpaved"/>
    <tag k="tracktype" v="grade1"/>
  </way>
  <way id="37675964" version="2" timestamp="2009-11-01T12:20:14Z" uid="20587" user="balrog-kun" changeset="3005634">
    <nd ref="441699835"/>
    <nd ref="441699738"/>
    <tag k="highway" v="residential"/>
    <tag k="name" v="Paderewskiego"/>
    <tag k="source" v="UMP-PL, ./UMP-Warszawa/src/OTWOCK.ulice.txt"/>
    <tag k="surface" v="unpaved"/>
  </way>
  <way id="37675964" version="3" timestamp="2011-01-22T20:09:32Z" uid="363680" user="leszekg" changeset="7054700">
    <nd ref="441699835"/>
    <nd ref="441699738"/>
    <tag k="addr:city" v="Otwock"/>
    <tag k="highway" v="residential"/>
    <tag k="name" v="Paderewskiego"/>
    <tag k="source" v="UMP-PL, ./UMP-Warszawa/src/OTWOCK.ulice.txt"/>
    <tag k="surface" v="unpaved"/>
  </way>
  <way id="37675964" version="4" timestamp="2012-01-19T21:30:40Z" uid="467703" user="Zbigniew Czernik" changeset="10441448">
    <nd ref="441699835"/>
    <nd ref="441699738"/>
    <tag k="addr:city" v="Otwock"/>
    <tag k="highway" v="track"/>
    <tag k="name" v="Paderewskiego"/>
    <tag k="source" v="UMP-PL, ./UMP-Warszawa/src/OTWOCK.ulice.txt"/>
    <tag k="surface" v="unpaved"/>
    <tag k="tracktype" v="grade1"/>
  </way>
  <way id="37675965" version="2" timestamp="2009-11-22T23:30:01Z" uid="20587" user="balrog-kun" changeset="3192033">
    <nd ref="441699058"/>
    <nd ref="441699992"/>
    <tag k="highway" v="residential"/>
    <tag k="name" v="Gliniecka"/>
    <tag k="source" v="UMP-PL, ./UMP-Warszawa/src/OTWOCK.ulice.txt"/>
    <tag k="surface" v="unpaved"/>
  </way>
  <way id="37675965" version="3" timestamp="2012-01-19T21:29:32Z" uid="467703" user="Zbigniew Czernik" changeset="10441448">
    <nd ref="441699058"/>
    <nd ref="441699992"/>
    <tag k="highway" v="track"/>
    <tag k="name" v="Gliniecka"/>
    <tag k="source" v="UMP-PL, ./UMP-Warszawa/src/OTWOCK.ulice.txt"/>
    <tag k="surface" v="unpaved"/>
    <tag k="tracktype" v="grade1"/>
  </way>
  <way id="37675966" version="2" timestamp="2009-11-01T12:20:21Z" uid="20587" user="balrog-kun" changeset="3005634">
    <nd ref="441699916"/>
    <nd ref="441700520"/>
    <nd ref="441699949"/>
    <nd ref="441700517"/>
    <nd ref="441699979"/>
    <tag k="highway" v="residential"/>
    <tag k="name" v="Orzeszkowej"/>
    <tag k="source" v="UMP-PL, ./UMP-Warszawa/src/OTWOCK.ulice.txt"/>
    <tag k="surface" v="unpaved"/>
  </way>
  <way id="37675966" version="3" timestamp="2009-11-22T23:30:00Z" uid="20587" user="balrog-kun" changeset="3192033">
    <nd ref="441699916"/>
    <nd ref="441700520"/>
    <nd ref="441699949"/>
    <nd ref="441700517"/>
    <nd ref="441699979"/>
    <tag k="highway" v="residential"/>
    <tag k="name" v="Elizy Orzeszkowej"/>
    <tag k="source" v="UMP-PL, ./UMP-Warszawa/src/OTWOCK.ulice.txt"/>
    <tag k="surface" v="unpaved"/>
  </way>
  <way id="37675966" version="4" timestamp="2011-02-08T18:54:52Z" uid="98542" user="wajak" changeset="7229461">
    <nd ref="441699916"/>
    <nd ref="441700520"/>
    <nd ref="441699949"/>
    <tag k="highway" v="residential"/>
    <tag k="name" v="Elizy Orzeszkowej"/>
    <tag k="source" v="UMP-PL, ./UMP-Warszawa/src/OTWOCK.ulice.txt"/>
    <tag k="surface" v="unpaved"/>
  </way>
  <way id="37675966" version="5" timestamp="2012-01-19T21:29:23Z" uid="467703" user="Zbigniew Czernik" changeset="10441448">
    <nd ref="441699916"/>
    <nd ref="441700520"/>
    <nd ref="441699949"/>
    <tag k="highway" v="track"/>
    <tag k="name" v="Elizy Orzeszkowej"/>
    <tag k="source" v="UMP-PL, ./UMP-Warszawa/src/OTWOCK.ulice.txt"/>
    <tag k="surface" v="unpaved"/>
    <tag k="tracktype" v="grade1"/>
  </way>
  <way id="37675967" version="2" timestamp="2009-11-01T12:20:13Z" uid="20587" user="balrog-kun" changeset="3005634">
    <nd ref="441699535"/>
    <nd ref="441700263"/>
    <nd ref="441700246"/>
    <nd ref="441700229"/>
    <tag k="highway" v="track"/>
    <tag k="source" v="UMP-PL, ./UMP-Warszawa/src/OTWOCK.ulice.txt"/>
  </way>
  <way id="37675968" version="2" timestamp="2009-11-01T12:20:17Z" uid="20587" user="balrog-kun" changeset="3005634">
    <nd ref="441700512"/>
    <nd ref="441700332"/>
    <nd ref="441700511"/>
    <tag k="highway" v="residential"/>
    <tag k="name" v="Sucha"/>
    <tag k="source" v="UMP-PL, ./UMP-Warszawa/src/OTWOCK.ulice.txt"/>
    <tag k="surface" v="unpaved"/>
  </way>
  <way id="37675968" version="3" timestamp="2012-01-19T21:31:03Z" uid="467703" user="Zbigniew Czernik" changeset="10441448">
    <nd ref="441700512"/>
    <nd ref="441700332"/>
    <nd ref="441700511"/>
    <tag k="highway" v="track"/>
    <tag k="name" v="Sucha"/>
    <tag k="source" v="UMP-PL, ./UMP-Warszawa/src/OTWOCK.ulice.txt"/>
    <tag k="surface" v="unpaved"/>
    <tag k="tracktype" v="grade1"/>
  </way>
  <way id="37675969" version="2" timestamp="2009-11-22T23:29:44Z" uid="20587" user="balrog-kun" changeset="3192033">
    <nd ref="441699034"/>
    <nd ref="441699580"/>
    <nd ref="441700304"/>
    <nd ref="441700029"/>
    <tag k="highway" v="residential"/>
    <tag k="name" v="Wiosenna"/>
    <tag k="source" v="UMP-PL, ./UMP-Warszawa/src/OTWOCK.ulice.txt"/>
    <tag k="surface" v="unpaved"/>
  </way>
  <way id="37675969" version="3" timestamp="2011-01-22T20:09:03Z" uid="363680" user="leszekg" changeset="7054700">
    <nd ref="441699034"/>
    <nd ref="441699580"/>
    <nd ref="441700304"/>
    <nd ref="441700029"/>
    <tag k="addr:city" v="Otwock"/>
    <tag k="highway" v="residential"/>
    <tag k="name" v="Wiosenna"/>
    <tag k="source" v="UMP-PL, ./UMP-Warszawa/src/OTWOCK.ulice.txt"/>
    <tag k="surface" v="unpaved"/>
  </way>
  <way id="37675969" version="4" timestamp="2012-01-19T21:31:25Z" uid="467703" user="Zbigniew Czernik" changeset="10441448">
    <nd ref="441699034"/>
    <nd ref="441699580"/>
    <nd ref="441700304"/>
    <nd ref="441700029"/>
    <tag k="addr:city" v="Otwock"/>
    <tag k="highway" v="track"/>
    <tag k="name" v="Wiosenna"/>
    <tag k="source" v="UMP-PL, ./UMP-Warszawa/src/OTWOCK.ulice.txt"/>
    <tag k="surface" v="unpaved"/>
    <tag k="tracktype" v="grade1"/>
  </way>
  <way id="37675970" version="2" timestamp="2009-11-01T12:20:13Z" uid="20587" user="balrog-kun" changeset="3005634">
    <nd ref="441699570"/>
    <nd ref="441699583"/>
    <tag k="highway" v="residential"/>
    <tag k="name" v="Parkowa"/>
    <tag k="source" v="UMP-PL, ./UMP-Warszawa/src/OTWOCK.ulice.txt"/>
    <tag k="surface" v="unpaved"/>
  </way>
  <way id="37675970" version="3" timestamp="2012-01-19T21:30:40Z" uid="467703" user="Zbigniew Czernik" changeset="10441448">
    <nd ref="441699570"/>
    <nd ref="441699583"/>
    <tag k="highway" v="track"/>
    <tag k="name" v="Parkowa"/>
    <tag k="source" v="UMP-PL, ./UMP-Warszawa/src/OTWOCK.ulice.txt"/>
    <tag k="surface" v="unpaved"/>
    <tag k="tracktype" v="grade1"/>
  </way>
  <way id="37675972" version="2" timestamp="2009-11-01T12:20:12Z" uid="20587" user="balrog-kun" changeset="3005634">
    <nd ref="441699093"/>
    <nd ref="441699107"/>
    <tag k="highway" v="residential"/>
    <tag k="name" v="Pusta"/>
    <tag k="source" v="UMP-PL, ./UMP-Warszawa/src/OTWOCK.ulice.txt"/>
    <tag k="surface" v="unpaved"/>
  </way>
  <way id="37675972" version="3" timestamp="2012-01-19T21:30:50Z" uid="467703" user="Zbigniew Czernik" changeset="10441448">
    <nd ref="441699093"/>
    <nd ref="441699107"/>
    <tag k="highway" v="track"/>
    <tag k="name" v="Pusta"/>
    <tag k="source" v="UMP-PL, ./UMP-Warszawa/src/OTWOCK.ulice.txt"/>
    <tag k="surface" v="unpaved"/>
    <tag k="tracktype" v="grade1"/>
  </way>
  <way id="37675974" version="2" timestamp="2009-11-22T23:29:44Z" uid="20587" user="balrog-kun" changeset="3192033">
    <nd ref="441699522"/>
    <nd ref="441699841"/>
    <tag k="highway" v="residential"/>
    <tag k="name" v="Lubelska"/>
    <tag k="source" v="UMP-PL, ./UMP-Warszawa/src/OTWOCK.ulice.txt"/>
    <tag k="surface" v="unpaved"/>
  </way>
  <way id="37675974" version="3" timestamp="2012-01-19T21:30:21Z" uid="467703" user="Zbigniew Czernik" changeset="10441448">
    <nd ref="441699522"/>
    <nd ref="441699841"/>
    <tag k="highway" v="track"/>
    <tag k="name" v="Lubelska"/>
    <tag k="source" v="UMP-PL, ./UMP-Warszawa/src/OTWOCK.ulice.txt"/>
    <tag k="surface" v="unpaved"/>
    <tag k="tracktype" v="grade1"/>
  </way>
  <way id="37675975" version="2" timestamp="2009-11-01T12:20:22Z" uid="20587" user="balrog-kun" changeset="3005634">
    <nd ref="338494522"/>
    <nd ref="441699832"/>
    <nd ref="441699833"/>
    <nd ref="441699830"/>
    <nd ref="441699831"/>
    <tag k="highway" v="residential"/>
    <tag k="name" v="Literacka"/>
    <tag k="source" v="UMP-PL, ./UMP-Warszawa/src/OTWOCK.ulice.txt"/>
    <tag k="surface" v="unpaved"/>
  </way>
  <way id="37675975" version="3" timestamp="2012-01-19T21:30:19Z" uid="467703" user="Zbigniew Czernik" changeset="10441448">
    <nd ref="338494522"/>
    <nd ref="441699832"/>
    <nd ref="441699833"/>
    <nd ref="441699830"/>
    <nd ref="441699831"/>
    <tag k="highway" v="track"/>
    <tag k="name" v="Literacka"/>
    <tag k="source" v="UMP-PL, ./UMP-Warszawa/src/OTWOCK.ulice.txt"/>
    <tag k="surface" v="unpaved"/>
    <tag k="tracktype" v="grade1"/>
  </way>
  <way id="37675978" version="2" timestamp="2010-03-14T20:12:32Z" uid="30632" user="antblant" changeset="4129105">
    <nd ref="441699605"/>
    <nd ref="441699272"/>
    <nd ref="549431408"/>
    <nd ref="549431410"/>
    <nd ref="441699585"/>
    <nd ref="441699586"/>
    <nd ref="441699591"/>
    <nd ref="441699592"/>
    <nd ref="441699589"/>
    <tag k="highway" v="residential"/>
    <tag k="name" v="Tysiąclecia"/>
    <tag k="source" v="UMP-PL, ./UMP-Warszawa/src/OTWOCK.ulice.txt"/>
  </way>
  <way id="37675978" version="3" timestamp="2011-10-07T22:01:22Z" uid="403964" user="bartekent" changeset="9497871">
    <nd ref="1458160205"/>
    <nd ref="441699272"/>
    <nd ref="1458160305"/>
    <nd ref="549431408"/>
    <nd ref="549431410"/>
    <nd ref="441699585"/>
    <nd ref="1458160459"/>
    <nd ref="441699586"/>
    <nd ref="441699591"/>
    <nd ref="441699592"/>
    <nd ref="441699589"/>
    <tag k="highway" v="residential"/>
    <tag k="name" v="Tysiąclecia"/>
    <tag k="source" v="UMP-PL, ./UMP-Warszawa/src/OTWOCK.ulice.txt"/>
  </way>
  <way id="37675980" version="3" timestamp="2011-02-19T02:13:11Z" uid="20587" user="balrog-kun" changeset="7328304">
    <nd ref="441699147"/>
    <nd ref="441699153"/>
    <nd ref="1160457957"/>
    <nd ref="441699152"/>
    <nd ref="1160459410"/>
    <nd ref="1160460086"/>
    <nd ref="1160460464"/>
    <nd ref="441700613"/>
    <tag k="highway" v="residential"/>
    <tag k="name" v="Wspaniała"/>
    <tag k="source" v="UMP-PL, ./UMP-Warszawa/src/OTWOCK.ulice.txt"/>
  </way>
  <way id="37675984" version="2" timestamp="2009-11-22T23:29:53Z" uid="20587" user="balrog-kun" changeset="3192033">
    <nd ref="441700326"/>
    <nd ref="441700324"/>
    <nd ref="441700320"/>
    <nd ref="441700319"/>
    <tag k="highway" v="residential"/>
    <tag k="name" v="Juranda"/>
    <tag k="source" v="UMP-PL, ./UMP-Warszawa/src/OTWOCK.ulice.txt"/>
    <tag k="surface" v="unpaved"/>
  </way>
  <way id="37675987" version="2" timestamp="2009-11-22T23:29:54Z" uid="20587" user="balrog-kun" changeset="3192033">
    <nd ref="441700328"/>
    <nd ref="441700370"/>
    <nd ref="441700326"/>
    <tag k="highway" v="residential"/>
    <tag k="name" v="Bilewiczówny"/>
    <tag k="source" v="UMP-PL, ./UMP-Warszawa/src/OTWOCK.ulice.txt"/>
    <tag k="surface" v="unpaved"/>
  </way>
  <way id="37675988" version="2" timestamp="2009-11-01T12:20:13Z" uid="20587" user="balrog-kun" changeset="3005634">
    <nd ref="441699538"/>
    <nd ref="441699550"/>
    <tag k="highway" v="residential"/>
    <tag k="name" v="Korczaka"/>
    <tag k="source" v="UMP-PL, ./UMP-Warszawa/src/OTWOCK.ulice.txt"/>
    <tag k="surface" v="unpaved"/>
  </way>
  <way id="37675988" version="3" timestamp="2012-01-19T21:30:03Z" uid="467703" user="Zbigniew Czernik" changeset="10441448">
    <nd ref="441699538"/>
    <nd ref="441699550"/>
    <tag k="highway" v="track"/>
    <tag k="name" v="Korczaka"/>
    <tag k="source" v="UMP-PL, ./UMP-Warszawa/src/OTWOCK.ulice.txt"/>
    <tag k="surface" v="unpaved"/>
    <tag k="tracktype" v="grade1"/>
  </way>
  <way id="37675989" version="2" timestamp="2009-11-01T12:20:19Z" uid="20587" user="balrog-kun" changeset="3005634">
    <nd ref="441700567"/>
    <nd ref="441700572"/>
    <nd ref="441700573"/>
    <tag k="highway" v="residential"/>
    <tag k="name" v="Bagnista"/>
    <tag k="source" v="UMP-PL, ./UMP-Warszawa/src/OTWOCK.ulice.txt"/>
    <tag k="surface" v="unpaved"/>
  </way>
  <way id="37675989" version="3" timestamp="2009-11-23T00:29:51Z" uid="20587" user="balrog-kun" changeset="3192263">
    <nd ref="417080939"/>
    <nd ref="441700567"/>
    <tag k="highway" v="cycleway"/>
  </way>
  <way id="37675991" version="2" timestamp="2009-11-01T12:20:21Z" uid="20587" user="balrog-kun" changeset="3005634">
    <nd ref="441700520"/>
    <nd ref="441700086"/>
    <tag k="highway" v="residential"/>
    <tag k="name" v="Niemcewicza"/>
    <tag k="source" v="UMP-PL, ./UMP-Warszawa/src/OTWOCK.ulice.txt"/>
    <tag k="surface" v="unpaved"/>
  </way>
  <way id="37675991" version="3" timestamp="2012-01-19T21:30:33Z" uid="467703" user="Zbigniew Czernik" changeset="10441448">
    <nd ref="441700520"/>
    <nd ref="441700086"/>
    <tag k="highway" v="track"/>
    <tag k="name" v="Niemcewicza"/>
    <tag k="source" v="UMP-PL, ./UMP-Warszawa/src/OTWOCK.ulice.txt"/>
    <tag k="surface" v="unpaved"/>
    <tag k="tracktype" v="grade1"/>
  </way>
  <way id="37675993" version="2" timestamp="2009-11-01T12:20:19Z" uid="20587" user="balrog-kun" changeset="3005634">
    <nd ref="441700087"/>
    <nd ref="441700089"/>
    <tag k="highway" v="residential"/>
    <tag k="name" v="Lipowa"/>
    <tag k="source" v="UMP-PL, ./UMP-Warszawa/src/OTWOCK.ulice.txt"/>
    <tag k="surface" v="unpaved"/>
  </way>
  <way id="37675993" version="3" timestamp="2012-01-19T21:30:18Z" uid="467703" user="Zbigniew Czernik" changeset="10441448">
    <nd ref="441700087"/>
    <nd ref="441700089"/>
    <tag k="highway" v="track"/>
    <tag k="name" v="Lipowa"/>
    <tag k="source" v="UMP-PL, ./UMP-Warszawa/src/OTWOCK.ulice.txt"/>
    <tag k="surface" v="unpaved"/>
    <tag k="tracktype" v="grade1"/>
  </way>
  <way id="37675995" version="2" timestamp="2009-11-01T12:20:23Z" uid="20587" user="balrog-kun" changeset="3005634">
    <nd ref="441699251"/>
    <nd ref="441699245"/>
    <nd ref="441699246"/>
    <nd ref="441699243"/>
    <nd ref="441699244"/>
    <nd ref="441699241"/>
    <nd ref="441699242"/>
    <tag k="highway" v="residential"/>
    <tag k="name" v="Batalionów Chłopskich"/>
    <tag k="source" v="UMP-PL, ./UMP-Warszawa/src/OTWOCK.ulice.txt"/>
    <tag k="surface" v="unpaved"/>
  </way>
  <way id="37675995" version="3" timestamp="2012-01-19T21:29:03Z" uid="467703" user="Zbigniew Czernik" changeset="10441448">
    <nd ref="441699251"/>
    <nd ref="441699245"/>
    <nd ref="441699246"/>
    <nd ref="441699243"/>
    <nd ref="441699244"/>
    <nd ref="441699241"/>
    <nd ref="441699242"/>
    <tag k="highway" v="track"/>
    <tag k="name" v="Batalionów Chłopskich"/>
    <tag k="source" v="UMP-PL, ./UMP-Warszawa/src/OTWOCK.ulice.txt"/>
    <tag k="surface" v="unpaved"/>
    <tag k="tracktype" v="grade1"/>
  </way>
  <way id="37675996" version="2" timestamp="2009-10-20T22:42:17Z" uid="20587" user="balrog-kun" changeset="2908055">
    <nd ref="441699236"/>
    <nd ref="441699235"/>
    <nd ref="441699234"/>
    <nd ref="441699039"/>
    <nd ref="441700609"/>
    <nd ref="338494254"/>
    <nd ref="338494522"/>
    <nd ref="441699233"/>
    <nd ref="441699232"/>
    <nd ref="441699231"/>
    <nd ref="417073736"/>
    <nd ref="417073717"/>
    <nd ref="441700567"/>
    <nd ref="441699230"/>
    <nd ref="441699229"/>
    <nd ref="441699228"/>
    <nd ref="441699227"/>
    <nd ref="441699226"/>
    <nd ref="441699225"/>
    <nd ref="441699250"/>
    <nd ref="441699251"/>
    <nd ref="441699248"/>
    <nd ref="441699249"/>
    <nd ref="441699247"/>
    <nd ref="419034365"/>
    <tag k="UMP_Level" v="2"/>
    <tag k="highway" v="tertiary"/>
    <tag k="name" v="Narutowicza"/>
    <tag k="source" v="UMP-PL, ./UMP-Warszawa/src/OTWOCK.ulice.txt"/>
  </way>
  <way id="37675996" version="3" timestamp="2009-10-31T22:49:32Z" uid="20587" user="balrog-kun" changeset="3002253">
    <nd ref="441699236"/>
    <nd ref="441699235"/>
    <nd ref="441699234"/>
    <nd ref="441699039"/>
    <nd ref="441700609"/>
    <nd ref="338494254"/>
    <nd ref="338494522"/>
    <nd ref="441699233"/>
    <nd ref="441699232"/>
    <nd ref="441699231"/>
    <nd ref="417073736"/>
    <nd ref="417073717"/>
    <nd ref="441700567"/>
    <nd ref="441699230"/>
    <nd ref="441699229"/>
    <nd ref="441699228"/>
    <nd ref="441699227"/>
    <nd ref="441699226"/>
    <nd ref="441699225"/>
    <nd ref="441699250"/>
    <nd ref="441699251"/>
    <nd ref="441699248"/>
    <nd ref="441699249"/>
    <nd ref="441699247"/>
    <nd ref="419034365"/>
    <tag k="highway" v="tertiary"/>
    <tag k="name" v="Narutowicza"/>
    <tag k="source" v="UMP-PL, ./UMP-Warszawa/src/OTWOCK.ulice.txt"/>
  </way>
  <way id="37675996" version="4" timestamp="2009-11-22T23:29:41Z" uid="20587" user="balrog-kun" changeset="3192033">
    <nd ref="441699236"/>
    <nd ref="441699235"/>
    <nd ref="441699234"/>
    <nd ref="441699039"/>
    <nd ref="441700609"/>
    <tag k="highway" v="tertiary"/>
    <tag k="name" v="Gabriela Narutowicza"/>
    <tag k="source" v="UMP-PL, ./UMP-Warszawa/src/OTWOCK.ulice.txt"/>
  </way>
  <way id="37675996" version="5" timestamp="2011-04-09T23:04:08Z" uid="98542" user="wajak" changeset="7818269">
    <nd ref="441699236"/>
    <nd ref="441699235"/>
    <nd ref="441699234"/>
    <nd ref="441700609"/>
    <tag k="highway" v="tertiary"/>
    <tag k="name" v="Gabriela Narutowicza"/>
    <tag k="source" v="UMP-PL, ./UMP-Warszawa/src/OTWOCK.ulice.txt"/>
  </way>
  <way id="37675997" version="2" timestamp="2009-11-01T12:20:17Z" uid="20587" user="balrog-kun" changeset="3005634">
    <nd ref="441699834"/>
    <nd ref="441700353"/>
    <nd ref="441700355"/>
    <nd ref="441700349"/>
    <nd ref="441700351"/>
    <nd ref="441700212"/>
    <tag k="highway" v="residential"/>
    <tag k="name" v="Otwocka"/>
    <tag k="source" v="UMP-PL, ./UMP-Warszawa/src/OTWOCK.ulice.txt"/>
    <tag k="surface" v="unpaved"/>
  </way>
  <way id="37675997" version="3" timestamp="2012-01-19T21:30:39Z" uid="467703" user="Zbigniew Czernik" changeset="10441448">
    <nd ref="441699834"/>
    <nd ref="441700353"/>
    <nd ref="441700355"/>
    <nd ref="441700349"/>
    <nd ref="441700351"/>
    <nd ref="441700212"/>
    <tag k="highway" v="track"/>
    <tag k="name" v="Otwocka"/>
    <tag k="source" v="UMP-PL, ./UMP-Warszawa/src/OTWOCK.ulice.txt"/>
    <tag k="surface" v="unpaved"/>
    <tag k="tracktype" v="grade1"/>
  </way>
  <way id="37675998" version="2" timestamp="2009-11-22T23:29:46Z" uid="20587" user="balrog-kun" changeset="3192033">
    <nd ref="441699728"/>
    <nd ref="441699784"/>
    <tag k="highway" v="residential"/>
    <tag k="name" v="Podleśna"/>
    <tag k="source" v="UMP-PL, ./UMP-Warszawa/src/OTWOCK.ulice.txt"/>
    <tag k="surface" v="unpaved"/>
  </way>
  <way id="37675998" version="3" timestamp="2011-01-22T20:09:10Z" uid="363680" user="leszekg" changeset="7054700">
    <nd ref="441699728"/>
    <nd ref="441699784"/>
    <tag k="addr:city" v="Otwock"/>
    <tag k="highway" v="residential"/>
    <tag k="name" v="Podleśna"/>
    <tag k="source" v="UMP-PL, ./UMP-Warszawa/src/OTWOCK.ulice.txt"/>
    <tag k="surface" v="unpaved"/>
  </way>
  <way id="37675998" version="4" timestamp="2012-01-19T21:30:42Z" uid="467703" user="Zbigniew Czernik" changeset="10441448">
    <nd ref="441699728"/>
    <nd ref="441699784"/>
    <tag k="addr:city" v="Otwock"/>
    <tag k="highway" v="residential"/>
    <tag k="name" v="Podleśna"/>
    <tag k="source" v="UMP-PL, ./UMP-Warszawa/src/OTWOCK.ulice.txt"/>
    <tag k="surface" v="unpaved"/>
  </way>
  <way id="37675999" version="2" timestamp="2009-11-22T23:30:00Z" uid="20587" user="balrog-kun" changeset="3192033">
    <nd ref="441699791"/>
    <nd ref="441699790"/>
    <nd ref="441699713"/>
    <tag k="highway" v="residential"/>
    <tag k="name" v="Willowa"/>
    <tag k="source" v="UMP-PL, ./UMP-Warszawa/src/OTWOCK.ulice.txt"/>
    <tag k="surface" v="unpaved"/>
  </way>
  <way id="37675999" version="3" timestamp="2012-01-19T21:31:24Z" uid="467703" user="Zbigniew Czernik" changeset="10441448">
    <nd ref="441699791"/>
    <nd ref="441699790"/>
    <nd ref="441699713"/>
    <tag k="highway" v="track"/>
    <tag k="name" v="Willowa"/>
    <tag k="source" v="UMP-PL, ./UMP-Warszawa/src/OTWOCK.ulice.txt"/>
    <tag k="surface" v="unpaved"/>
    <tag k="tracktype" v="grade1"/>
  </way>
</osm>
