<?xml version='1.0' encoding='UTF-8'?>
<osm version="0.6" generator="libosmium/2.20.0">
  <way id="37710020" version="1" timestamp="2009-07-15T16:51:36Z" uid="110593" user="esetzer" changeset="1837928">
    <nd ref="384772007"/>
    <nd ref="442200467"/>
    <tag k="created_by" v="Merkaartor 0.11"/>
    <tag k="electrifed" v="contact_line"/>
    <tag k="frequency" v="0"/>
    <tag k="name" v="UTA TRAX University Line"/>
    <tag k="railway" v="tram"/>
    <tag k="service" v="yard"/>
    <tag k="voltage" v="750"/>
  </way>
  <way id="37710020" version="2" timestamp="2009-11-01T20:53:28Z" uid="42123" user="Ropino" changeset="3011168">
    <nd ref="384772007"/>
    <nd ref="442200467"/>
    <tag k="electrified" v="contact_line"/>
    <tag k="frequency" v="0"/>
    <tag k="name" v="UTA TRAX University Line"/>
    <tag k="railway" v="tram"/>
    <tag k="service" v="yard"/>
    <tag k="voltage" v="750"/>
  </way>
  <way id="37710020" version="3" timestamp="2011-03-29T00:06:44Z" uid="207745" user="NE2" changeset="7702646">
    <nd ref="83629879"/>
    <nd ref="365759083"/>
    <nd ref="365759085"/>
    <nd ref="365759087"/>
    <nd ref="365759089"/>
    <nd ref="365759103"/>
    <nd ref="365759081"/>
    <nd ref="365760045"/>
    <nd ref="365760046"/>
    <nd ref="365760047"/>
    <nd ref="365760048"/>
    <nd ref="365760049"/>
    <nd ref="365760050"/>
    <nd ref="606312148"/>
    <nd ref="365760051"/>
    <nd ref="365760052"/>
    <nd ref="365760523"/>
    <nd ref="365760518"/>
    <nd ref="365760519"/>
    <nd ref="365760524"/>
    <nd ref="365760525"/>
    <nd ref="365760520"/>
    <nd ref="365760522"/>
    <nd ref="365760521"/>
    <nd ref="384772006"/>
    <nd ref="365760053"/>
    <nd ref="384772007"/>
    <nd ref="442200467"/>
    <tag k="electrified" v="contact_line"/>
    <tag k="frequency" v="0"/>
    <tag k="name" v="University Line"/>
    <tag k="railway" v="light_rail"/>
    <tag k="voltage" v="750"/>
  </way>
  <way id="37710020" version="4" timestamp="2011-11-28T01:11:27Z" uid="8909" user="mvexel" changeset="9973750">
    <nd ref="83629879"/>
    <nd ref="365759083"/>
    <nd ref="365759085"/>
    <nd ref="1520496594"/>
    <nd ref="365759087"/>
    <nd ref="365759089"/>
    <nd ref="365759103"/>
    <nd ref="365759081"/>
    <nd ref="365760045"/>
    <nd ref="365760046"/>
    <nd ref="365760047"/>
    <nd ref="365760048"/>
    <nd ref="365760049"/>
    <nd ref="365760050"/>
    <nd ref="606312148"/>
    <nd ref="365760051"/>
    <nd ref="365760052"/>
    <nd ref="365760523"/>
    <nd ref="365760518"/>
    <nd ref="365760519"/>
    <nd ref="365760524"/>
    <nd ref="365760525"/>
    <nd ref="365760520"/>
    <nd ref="365760522"/>
    <nd ref="365760521"/>
    <nd ref="384772006"/>
    <nd ref="365760053"/>
    <nd ref="384772007"/>
    <nd ref="442200467"/>
    <tag k="electrified" v="contact_line"/>
    <tag k="frequency" v="0"/>
    <tag k="name" v="University Line"/>
    <tag k="railway" v="light_rail"/>
    <tag k="voltage" v="750"/>
  </way>
  <way id="37710020" version="5" timestamp="2011-12-01T03:16:45Z" uid="8909" user="mvexel" changeset="10004975">
    <nd ref="83629879"/>
    <nd ref="365759083"/>
    <nd ref="365759085"/>
    <nd ref="1520496594"/>
    <nd ref="365759087"/>
    <nd ref="365759089"/>
    <nd ref="365759103"/>
    <nd ref="365759081"/>
    <nd ref="365760045"/>
    <nd ref="365760046"/>
    <nd ref="365760047"/>
    <nd ref="365760048"/>
    <nd ref="365760049"/>
    <nd ref="365760050"/>
    <nd ref="606312148"/>
    <nd ref="365760051"/>
    <nd ref="365760052"/>
    <nd ref="365760523"/>
    <nd ref="365760518"/>
    <nd ref="365760519"/>
    <nd ref="365760524"/>
    <nd ref="365760525"/>
    <nd ref="365760520"/>
    <nd ref="365760522"/>
    <nd ref="365760521"/>
    <nd ref="384772006"/>
    <nd ref="365760053"/>
    <nd ref="384772007"/>
    <nd ref="442200467"/>
    <tag k="electrified" v="contact_line"/>
    <tag k="frequency" v="0"/>
    <tag k="name" v="Red Line"/>
    <tag k="railway" v="light_rail"/>
    <tag k="voltage" v="750"/>
  </way>
  <way id="37710020" version="6" timestamp="2011-12-03T17:21:39Z" uid="8909" user="mvexel" changeset="10026550">
    <nd ref="83629879"/>
    <nd ref="365759083"/>
    <nd ref="365759085"/>
    <nd ref="1520496594"/>
    <nd ref="365759087"/>
    <nd ref="1529792814"/>
    <nd ref="365759089"/>
    <nd ref="365759103"/>
    <nd ref="365759081"/>
    <nd ref="365760045"/>
    <nd ref="365760046"/>
    <nd ref="365760047"/>
    <nd ref="365760048"/>
    <nd ref="365760049"/>
    <nd ref="365760050"/>
    <nd ref="606312148"/>
    <nd ref="365760051"/>
    <nd ref="365760052"/>
    <nd ref="365760523"/>
    <nd ref="365760518"/>
    <nd ref="365760519"/>
    <nd ref="365760524"/>
    <nd ref="365760525"/>
    <nd ref="365760520"/>
    <nd ref="365760522"/>
    <nd ref="365760521"/>
    <nd ref="384772006"/>
    <nd ref="365760053"/>
    <nd ref="384772007"/>
    <nd ref="442200467"/>
    <tag k="electrified" v="contact_line"/>
    <tag k="frequency" v="0"/>
    <tag k="name" v="Red Line"/>
    <tag k="railway" v="light_rail"/>
    <tag k="voltage" v="750"/>
  </way>
  <way id="37710020" version="7" timestamp="2011-12-04T18:20:10Z" uid="8909" user="mvexel" changeset="10036045">
    <nd ref="83629879"/>
    <nd ref="365759083"/>
    <nd ref="365759085"/>
    <nd ref="1520496594"/>
    <nd ref="365759087"/>
    <nd ref="1529792814"/>
    <nd ref="365759089"/>
    <nd ref="365759103"/>
    <nd ref="1528501529"/>
    <nd ref="365759081"/>
    <nd ref="365760045"/>
    <nd ref="365760046"/>
    <nd ref="365760047"/>
    <nd ref="365760048"/>
    <nd ref="365760049"/>
    <nd ref="365760050"/>
    <nd ref="606312148"/>
    <nd ref="365760051"/>
    <nd ref="365760052"/>
    <nd ref="365760523"/>
    <nd ref="365760518"/>
    <nd ref="365760519"/>
    <nd ref="365760524"/>
    <nd ref="365760525"/>
    <nd ref="365760520"/>
    <nd ref="365760522"/>
    <nd ref="365760521"/>
    <nd ref="384772006"/>
    <nd ref="365760053"/>
    <nd ref="384772007"/>
    <nd ref="442200467"/>
    <tag k="electrified" v="contact_line"/>
    <tag k="frequency" v="0"/>
    <tag k="name" v="Red Line"/>
    <tag k="railway" v="light_rail"/>
    <tag k="voltage" v="750"/>
  </way>
  <way id="37710020" version="8" timestamp="2012-01-10T17:26:31Z" uid="8909" user="mvexel" changeset="10353227"/>
  <way id="37710091" version="2" timestamp="2010-03-22T06:33:07Z" uid="20587" user="balrog-kun" changeset="4199043">
    <nd ref="40125148"/>
    <nd ref="40125151"/>
    <tag k="bridge" v="yes"/>
    <tag k="created_by" v="Potlatch 0.10f"/>
    <tag k="highway" v="primary"/>
    <tag k="layer" v="1"/>
    <tag k="name" v="Southside Expressway"/>
    <tag k="name_2" v="Johns Ave"/>
    <tag k="ref" v="US:WA 140"/>
    <tag k="tiger:cfcc" v="A31"/>
    <tag k="tiger:county" v="Klamath, OR"/>
    <tag k="tiger:name_base" v="Southside"/>
    <tag k="tiger:name_base_1" v="State Highway 140"/>
    <tag k="tiger:name_base_2" v="Johns"/>
    <tag k="tiger:name_type" v="Expy"/>
    <tag k="tiger:name_type_2" v="Ave"/>
    <tag k="tiger:reviewed" v="no"/>
    <tag k="tiger:separated" v="no"/>
    <tag k="tiger:source" v="tiger_import_dch_v0.6_20070808"/>
    <tag k="tiger:tlid" v="156661056:156698883:156707659:156707660:156697611:156697613:156697615:156700145:156700146:156700147:156697618:156697620"/>
    <tag k="tiger:zip_left" v="97603"/>
    <tag k="tiger:zip_right" v="97603"/>
  </way>
  <way id="37710091" version="3" timestamp="2010-07-08T02:27:24Z" uid="92286" user="Paul Johnson" changeset="5163079">
    <nd ref="40125148"/>
    <nd ref="40125151"/>
    <tag k="bridge" v="yes"/>
    <tag k="highway" v="primary"/>
    <tag k="layer" v="1"/>
    <tag k="name" v="Southside Expressway"/>
    <tag k="name_2" v="Johns Ave"/>
    <tag k="ref" v="OR 140"/>
    <tag k="tiger:cfcc" v="A31"/>
    <tag k="tiger:county" v="Klamath, OR"/>
    <tag k="tiger:name_base" v="Southside"/>
    <tag k="tiger:name_base_1" v="State Highway 140"/>
    <tag k="tiger:name_base_2" v="Johns"/>
    <tag k="tiger:name_type" v="Expy"/>
    <tag k="tiger:name_type_2" v="Ave"/>
    <tag k="tiger:reviewed" v="no"/>
    <tag k="tiger:separated" v="no"/>
    <tag k="tiger:source" v="tiger_import_dch_v0.6_20070808"/>
    <tag k="tiger:tlid" v="156661056:156698883:156707659:156707660:156697611:156697613:156697615:156700145:156700146:156700147:156697618:156697620"/>
    <tag k="tiger:zip_left" v="97603"/>
    <tag k="tiger:zip_right" v="97603"/>
  </way>
  <way id="37710091" version="4" timestamp="2010-07-17T12:49:33Z" uid="46482" user="Leon K" changeset="5242213">
    <nd ref="40125148"/>
    <nd ref="40125151"/>
    <tag k="bridge" v="yes"/>
    <tag k="highway" v="primary"/>
    <tag k="layer" v="1"/>
    <tag k="name" v="Southside Expressway"/>
    <tag k="name_2" v="Johns Ave"/>
    <tag k="ref" v="OR 140"/>
    <tag k="tiger:cfcc" v="A31"/>
    <tag k="tiger:county" v="Klamath, OR"/>
    <tag k="tiger:name_base" v="Southside"/>
    <tag k="tiger:name_base_1" v="State Highway 140"/>
    <tag k="tiger:name_base_2" v="Johns"/>
    <tag k="tiger:name_type" v="Expy"/>
    <tag k="tiger:name_type_2" v="Ave"/>
    <tag k="tiger:separated" v="no"/>
    <tag k="tiger:source" v="tiger_import_dch_v0.6_20070808"/>
    <tag k="tiger:tlid" v="156661056:156698883:156707659:156707660:156697611:156697613:156697615:156700145:156700146:156700147:156697618:156697620"/>
    <tag k="tiger:zip_left" v="97603"/>
    <tag k="tiger:zip_right" v="97603"/>
  </way>
  <way id="37710091" version="5" timestamp="2010-07-17T23:45:09Z" uid="46482" user="Leon K" changeset="5247095">
    <nd ref="40125148"/>
    <nd ref="40125151"/>
    <tag k="bridge" v="yes"/>
    <tag k="highway" v="tertiary"/>
    <tag k="layer" v="1"/>
    <tag k="name" v="Southside Expressway"/>
    <tag k="name_2" v="Johns Ave"/>
    <tag k="ref" v="OR 140"/>
    <tag k="tiger:cfcc" v="A31"/>
    <tag k="tiger:county" v="Klamath, OR"/>
    <tag k="tiger:name_base" v="Southside"/>
    <tag k="tiger:name_base_1" v="State Highway 140"/>
    <tag k="tiger:name_base_2" v="Johns"/>
    <tag k="tiger:name_type" v="Expy"/>
    <tag k="tiger:name_type_2" v="Ave"/>
    <tag k="tiger:separated" v="no"/>
    <tag k="tiger:source" v="tiger_import_dch_v0.6_20070808"/>
    <tag k="tiger:tlid" v="156661056:156698883:156707659:156707660:156697611:156697613:156697615:156700145:156700146:156700147:156697618:156697620"/>
    <tag k="tiger:zip_left" v="97603"/>
    <tag k="tiger:zip_right" v="97603"/>
  </way>
  <way id="37710091" version="6" timestamp="2010-07-17T23:47:44Z" uid="46482" user="Leon K" changeset="5247103">
    <nd ref="40125148"/>
    <nd ref="40125151"/>
    <tag k="bridge" v="yes"/>
    <tag k="highway" v="secondary"/>
    <tag k="layer" v="1"/>
    <tag k="name" v="Southside Expressway"/>
    <tag k="name_2" v="Johns Ave"/>
    <tag k="ref" v="OR 140"/>
    <tag k="tiger:cfcc" v="A31"/>
    <tag k="tiger:county" v="Klamath, OR"/>
    <tag k="tiger:name_base" v="Southside"/>
    <tag k="tiger:name_base_1" v="State Highway 140"/>
    <tag k="tiger:name_base_2" v="Johns"/>
    <tag k="tiger:name_type" v="Expy"/>
    <tag k="tiger:name_type_2" v="Ave"/>
    <tag k="tiger:separated" v="no"/>
    <tag k="tiger:source" v="tiger_import_dch_v0.6_20070808"/>
    <tag k="tiger:tlid" v="156661056:156698883:156707659:156707660:156697611:156697613:156697615:156700145:156700146:156700147:156697618:156697620"/>
    <tag k="tiger:zip_left" v="97603"/>
    <tag k="tiger:zip_right" v="97603"/>
  </way>
  <way id="37710091" version="7" timestamp="2010-12-10T22:51:45Z" uid="373763" user="ylekot" changeset="6612255">
    <nd ref="40125148"/>
    <nd ref="40125151"/>
    <tag k="bridge" v="yes"/>
    <tag k="highway" v="trunk"/>
    <tag k="layer" v="1"/>
    <tag k="name" v="Southside Expressway"/>
    <tag k="name_2" v="Johns Ave"/>
    <tag k="ref" v="OR 140"/>
    <tag k="tiger:cfcc" v="A31"/>
    <tag k="tiger:county" v="Klamath, OR"/>
    <tag k="tiger:name_base" v="Southside"/>
    <tag k="tiger:name_base_1" v="State Highway 140"/>
    <tag k="tiger:name_base_2" v="Johns"/>
    <tag k="tiger:name_type" v="Expy"/>
    <tag k="tiger:name_type_2" v="Ave"/>
    <tag k="tiger:separated" v="no"/>
    <tag k="tiger:source" v="tiger_import_dch_v0.6_20070808"/>
    <tag k="tiger:tlid" v="156661056:156698883:156707659:156707660:156697611:156697613:156697615:156700145:156700146:156700147:156697618:156697620"/>
    <tag k="tiger:zip_left" v="97603"/>
    <tag k="tiger:zip_right" v="97603"/>
  </way>
  <way id="37710091" version="8" timestamp="2011-06-23T02:07:31Z" uid="473471" user="NE3" changeset="8520254">
    <nd ref="40125148"/>
    <nd ref="40125151"/>
    <tag k="bridge" v="yes"/>
    <tag k="highway" v="trunk"/>
    <tag k="lanes" v="2"/>
    <tag k="layer" v="1"/>
    <tag k="name" v="Southside Expressway"/>
    <tag k="name_2" v="Johns Ave"/>
    <tag k="ref" v="OR 140"/>
    <tag k="tiger:cfcc" v="A31"/>
    <tag k="tiger:county" v="Klamath, OR"/>
    <tag k="tiger:name_base" v="Southside"/>
    <tag k="tiger:name_base_1" v="State Highway 140"/>
    <tag k="tiger:name_base_2" v="Johns"/>
    <tag k="tiger:name_type" v="Expy"/>
    <tag k="tiger:name_type_2" v="Ave"/>
    <tag k="tiger:separated" v="no"/>
    <tag k="tiger:source" v="tiger_import_dch_v0.6_20070808"/>
    <tag k="tiger:tlid" v="156661056:156698883:156707659:156707660:156697611:156697613:156697615:156700145:156700146:156700147:156697618:156697620"/>
    <tag k="tiger:zip_left" v="97603"/>
    <tag k="tiger:zip_right" v="97603"/>
  </way>
  <way id="37710091" version="9" timestamp="2011-07-19T21:38:52Z" uid="473471" user="NE3" changeset="8773162">
    <nd ref="40125148"/>
    <nd ref="40125151"/>
    <tag k="NHS" v="yes"/>
    <tag k="bridge" v="yes"/>
    <tag k="highway" v="trunk"/>
    <tag k="lanes" v="2"/>
    <tag k="layer" v="1"/>
    <tag k="name" v="Southside Expressway"/>
    <tag k="name_2" v="Johns Ave"/>
    <tag k="ref" v="OR 140"/>
    <tag k="tiger:cfcc" v="A31"/>
    <tag k="tiger:county" v="Klamath, OR"/>
    <tag k="tiger:name_base" v="Southside"/>
    <tag k="tiger:name_base_1" v="State Highway 140"/>
    <tag k="tiger:name_base_2" v="Johns"/>
    <tag k="tiger:name_type" v="Expy"/>
    <tag k="tiger:name_type_2" v="Ave"/>
    <tag k="tiger:separated" v="no"/>
    <tag k="tiger:source" v="tiger_import_dch_v0.6_20070808"/>
    <tag k="tiger:tlid" v="156661056:156698883:156707659:156707660:156697611:156697613:156697615:156700145:156700146:156700147:156697618:156697620"/>
    <tag k="tiger:zip_left" v="97603"/>
    <tag k="tiger:zip_right" v="97603"/>
  </way>
  <way id="37710091" version="10" timestamp="2011-11-25T17:30:38Z" uid="207745" user="NE2" changeset="9945867">
    <nd ref="40125148"/>
    <nd ref="40125151"/>
    <tag k="NHS" v="yes"/>
    <tag k="bridge" v="yes"/>
    <tag k="hgv" v="designated"/>
    <tag k="hgv:national_network" v="yes"/>
    <tag k="highway" v="trunk"/>
    <tag k="lanes" v="2"/>
    <tag k="layer" v="1"/>
    <tag k="name" v="Southside Expressway"/>
    <tag k="name_2" v="Johns Ave"/>
    <tag k="ref" v="OR 140"/>
    <tag k="source:hgv:national_network" v="Title 23: Highways Part 658 http://ecfr.gpoaccess.gov/cgi/t/text/text-idx?c=ecfr&amp;rgn=div5&amp;view=text&amp;node=23:1.0.1.7.33&amp;idno=23"/>
    <tag k="tiger:cfcc" v="A31"/>
    <tag k="tiger:county" v="Klamath, OR"/>
    <tag k="tiger:name_base" v="Southside"/>
    <tag k="tiger:name_base_1" v="State Highway 140"/>
    <tag k="tiger:name_base_2" v="Johns"/>
    <tag k="tiger:name_type" v="Expy"/>
    <tag k="tiger:name_type_2" v="Ave"/>
    <tag k="tiger:separated" v="no"/>
    <tag k="tiger:source" v="tiger_import_dch_v0.6_20070808"/>
    <tag k="tiger:tlid" v="156661056:156698883:156707659:156707660:156697611:156697613:156697615:156700145:156700146:156700147:156697618:156697620"/>
    <tag k="tiger:zip_left" v="97603"/>
    <tag k="tiger:zip_right" v="97603"/>
  </way>
  <way id="37710092" version="2" timestamp="2010-03-22T06:33:08Z" uid="20587" user="balrog-kun" changeset="4199043">
    <nd ref="40125151"/>
    <nd ref="40063334"/>
    <nd ref="40125162"/>
    <nd ref="40125165"/>
    <nd ref="40125168"/>
    <nd ref="40125169"/>
    <nd ref="40125172"/>
    <nd ref="40125175"/>
    <nd ref="40125178"/>
    <nd ref="40125181"/>
    <nd ref="40125183"/>
    <nd ref="40125187"/>
    <nd ref="40125190"/>
    <nd ref="40125192"/>
    <nd ref="40125195"/>
    <nd ref="40125198"/>
    <nd ref="40125201"/>
    <nd ref="40103032"/>
    <nd ref="40125204"/>
    <nd ref="40125207"/>
    <nd ref="40125212"/>
    <nd ref="40125215"/>
    <nd ref="40030552"/>
    <nd ref="40125217"/>
    <nd ref="40125221"/>
    <nd ref="40125224"/>
    <nd ref="40125226"/>
    <nd ref="40125228"/>
    <nd ref="40125232"/>
    <nd ref="40125234"/>
    <nd ref="40125236"/>
    <nd ref="40125237"/>
    <nd ref="40125240"/>
    <nd ref="40053669"/>
    <nd ref="40125244"/>
    <nd ref="40125246"/>
    <nd ref="40125249"/>
    <nd ref="40125252"/>
    <nd ref="40125254"/>
    <nd ref="40125257"/>
    <nd ref="40125260"/>
    <nd ref="40125264"/>
    <nd ref="40125266"/>
    <nd ref="40125270"/>
    <nd ref="40125273"/>
    <nd ref="39851058"/>
    <nd ref="40125277"/>
    <nd ref="40041269"/>
    <nd ref="364629508"/>
    <nd ref="364629509"/>
    <nd ref="40041272"/>
    <tag k="created_by" v="Potlatch 0.10f"/>
    <tag k="highway" v="primary"/>
    <tag k="name" v="Southside Expressway"/>
    <tag k="name_2" v="Johns Ave"/>
    <tag k="ref" v="US:WA 140"/>
    <tag k="tiger:cfcc" v="A31"/>
    <tag k="tiger:county" v="Klamath, OR"/>
    <tag k="tiger:name_base" v="Southside"/>
    <tag k="tiger:name_base_1" v="State Highway 140"/>
    <tag k="tiger:name_base_2" v="Johns"/>
    <tag k="tiger:name_type" v="Expy"/>
    <tag k="tiger:name_type_2" v="Ave"/>
    <tag k="tiger:reviewed" v="no"/>
    <tag k="tiger:separated" v="no"/>
    <tag k="tiger:source" v="tiger_import_dch_v0.6_20070808"/>
    <tag k="tiger:tlid" v="156661056:156698883:156707659:156707660:156697611:156697613:156697615:156700145:156700146:156700147:156697618:156697620"/>
    <tag k="tiger:zip_left" v="97603"/>
    <tag k="tiger:zip_right" v="97603"/>
  </way>
  <way id="37710092" version="3" timestamp="2010-07-07T18:09:20Z" uid="92286" user="Paul Johnson" changeset="5160407">
    <nd ref="40125151"/>
    <nd ref="40063334"/>
    <nd ref="40125162"/>
    <nd ref="40125165"/>
    <nd ref="40125168"/>
    <nd ref="40125169"/>
    <nd ref="40125172"/>
    <nd ref="40125175"/>
    <nd ref="40125178"/>
    <nd ref="40125181"/>
    <nd ref="40125183"/>
    <nd ref="40125187"/>
    <nd ref="40125190"/>
    <nd ref="40125192"/>
    <nd ref="40125195"/>
    <nd ref="40125198"/>
    <nd ref="40125201"/>
    <nd ref="40103032"/>
    <nd ref="40125204"/>
    <nd ref="40125207"/>
    <nd ref="40125212"/>
    <nd ref="40125215"/>
    <nd ref="40030552"/>
    <nd ref="40125217"/>
    <nd ref="40125221"/>
    <nd ref="40125224"/>
    <nd ref="40136201"/>
    <nd ref="40125228"/>
    <nd ref="40125232"/>
    <nd ref="40125234"/>
    <nd ref="40125236"/>
    <nd ref="40125237"/>
    <nd ref="40125240"/>
    <nd ref="40053669"/>
    <nd ref="40125244"/>
    <nd ref="40125246"/>
    <nd ref="40125249"/>
    <nd ref="40125252"/>
    <nd ref="40125254"/>
    <nd ref="40125257"/>
    <nd ref="40125260"/>
    <nd ref="40125264"/>
    <nd ref="40125266"/>
    <nd ref="40125270"/>
    <nd ref="40125273"/>
    <nd ref="39851058"/>
    <nd ref="40125277"/>
    <nd ref="40041269"/>
    <nd ref="364629508"/>
    <nd ref="364629509"/>
    <nd ref="40041272"/>
    <tag k="highway" v="primary"/>
    <tag k="name" v="Southside Expressway"/>
    <tag k="name_2" v="Johns Ave"/>
    <tag k="ref" v="US:WA 140"/>
    <tag k="tiger:cfcc" v="A31"/>
    <tag k="tiger:county" v="Klamath, OR"/>
    <tag k="tiger:name_base" v="Southside"/>
    <tag k="tiger:name_base_1" v="State Highway 140"/>
    <tag k="tiger:name_base_2" v="Johns"/>
    <tag k="tiger:name_type" v="Expy"/>
    <tag k="tiger:name_type_2" v="Ave"/>
    <tag k="tiger:reviewed" v="no"/>
    <tag k="tiger:separated" v="no"/>
    <tag k="tiger:source" v="tiger_import_dch_v0.6_20070808"/>
    <tag k="tiger:tlid" v="156661056:156698883:156707659:156707660:156697611:156697613:156697615:156700145:156700146:156700147:156697618:156697620"/>
    <tag k="tiger:zip_left" v="97603"/>
    <tag k="tiger:zip_right" v="97603"/>
  </way>
  <way id="37710092" version="4" timestamp="2010-07-08T02:27:33Z" uid="92286" user="Paul Johnson" changeset="5163079">
    <nd ref="40125151"/>
    <nd ref="40063334"/>
    <nd ref="40125162"/>
    <nd ref="40125165"/>
    <nd ref="40125168"/>
    <nd ref="40125169"/>
    <nd ref="40125172"/>
    <nd ref="40125175"/>
    <nd ref="40125178"/>
    <nd ref="40125181"/>
    <nd ref="40125183"/>
    <nd ref="40125187"/>
    <nd ref="40125190"/>
    <nd ref="40125192"/>
    <nd ref="40125195"/>
    <nd ref="40125198"/>
    <nd ref="40125201"/>
    <nd ref="40103032"/>
    <nd ref="40125204"/>
    <nd ref="40125207"/>
    <nd ref="40125212"/>
    <nd ref="40125215"/>
    <nd ref="40030552"/>
    <nd ref="40125217"/>
    <nd ref="40125221"/>
    <nd ref="40125224"/>
    <nd ref="40136201"/>
    <nd ref="40125228"/>
    <nd ref="40125232"/>
    <nd ref="40125234"/>
    <nd ref="40125236"/>
    <nd ref="40125237"/>
    <nd ref="40125240"/>
    <nd ref="40053669"/>
    <nd ref="40125244"/>
    <nd ref="40125246"/>
    <nd ref="40125249"/>
    <nd ref="40125252"/>
    <nd ref="40125254"/>
    <nd ref="40125257"/>
    <nd ref="40125260"/>
    <nd ref="40125264"/>
    <nd ref="40125266"/>
    <nd ref="40125270"/>
    <nd ref="40125273"/>
    <nd ref="39851058"/>
    <nd ref="40125277"/>
    <nd ref="40041269"/>
    <nd ref="364629508"/>
    <nd ref="364629509"/>
    <nd ref="40041272"/>
    <tag k="highway" v="primary"/>
    <tag k="name" v="Southside Expressway"/>
    <tag k="name_2" v="Johns Ave"/>
    <tag k="ref" v="OR 140"/>
    <tag k="tiger:cfcc" v="A31"/>
    <tag k="tiger:county" v="Klamath, OR"/>
    <tag k="tiger:name_base" v="Southside"/>
    <tag k="tiger:name_base_1" v="State Highway 140"/>
    <tag k="tiger:name_base_2" v="Johns"/>
    <tag k="tiger:name_type" v="Expy"/>
    <tag k="tiger:name_type_2" v="Ave"/>
    <tag k="tiger:reviewed" v="no"/>
    <tag k="tiger:separated" v="no"/>
    <tag k="tiger:source" v="tiger_import_dch_v0.6_20070808"/>
    <tag k="tiger:tlid" v="156661056:156698883:156707659:156707660:156697611:156697613:156697615:156700145:156700146:156700147:156697618:156697620"/>
    <tag k="tiger:zip_left" v="97603"/>
    <tag k="tiger:zip_right" v="97603"/>
  </way>
  <way id="37710092" version="5" timestamp="2010-07-17T12:50:19Z" uid="46482" user="Leon K" changeset="5242213">
    <nd ref="40125151"/>
    <nd ref="40063334"/>
    <nd ref="40125162"/>
    <nd ref="40125165"/>
    <nd ref="40125168"/>
    <nd ref="40125169"/>
    <nd ref="40125172"/>
    <nd ref="40125175"/>
    <nd ref="40125178"/>
    <nd ref="40125181"/>
    <nd ref="40125183"/>
    <nd ref="40125187"/>
    <nd ref="40125190"/>
    <nd ref="40125192"/>
    <nd ref="40125195"/>
    <nd ref="40125198"/>
    <nd ref="40125201"/>
    <nd ref="40125204"/>
    <nd ref="40125207"/>
    <nd ref="40125212"/>
    <nd ref="40125215"/>
    <nd ref="40030552"/>
    <nd ref="40125217"/>
    <nd ref="40125221"/>
    <nd ref="40125224"/>
    <nd ref="40136201"/>
    <nd ref="40125228"/>
    <nd ref="40125232"/>
    <nd ref="40125234"/>
    <nd ref="40125236"/>
    <nd ref="40125237"/>
    <nd ref="40125240"/>
    <nd ref="40053669"/>
    <nd ref="40125244"/>
    <nd ref="40125246"/>
    <nd ref="40125249"/>
    <nd ref="40125252"/>
    <nd ref="40125254"/>
    <nd ref="40125257"/>
    <nd ref="40125260"/>
    <nd ref="40125264"/>
    <nd ref="40125266"/>
    <nd ref="40125270"/>
    <nd ref="40125273"/>
    <nd ref="39851058"/>
    <nd ref="40125277"/>
    <nd ref="40041269"/>
    <nd ref="364629508"/>
    <nd ref="364629509"/>
    <nd ref="40041272"/>
    <tag k="highway" v="primary"/>
    <tag k="name" v="Southside Expressway"/>
    <tag k="name_2" v="Johns Ave"/>
    <tag k="ref" v="OR 140"/>
    <tag k="tiger:cfcc" v="A31"/>
    <tag k="tiger:county" v="Klamath, OR"/>
    <tag k="tiger:name_base" v="Southside"/>
    <tag k="tiger:name_base_1" v="State Highway 140"/>
    <tag k="tiger:name_base_2" v="Johns"/>
    <tag k="tiger:name_type" v="Expy"/>
    <tag k="tiger:name_type_2" v="Ave"/>
    <tag k="tiger:reviewed" v="no"/>
    <tag k="tiger:separated" v="no"/>
    <tag k="tiger:source" v="tiger_import_dch_v0.6_20070808"/>
    <tag k="tiger:tlid" v="156661056:156698883:156707659:156707660:156697611:156697613:156697615:156700145:156700146:156700147:156697618:156697620"/>
    <tag k="tiger:zip_left" v="97603"/>
    <tag k="tiger:zip_right" v="97603"/>
  </way>
  <way id="37710092" version="6" timestamp="2010-07-17T12:50:59Z" uid="46482" user="Leon K" changeset="5242213">
    <nd ref="40125151"/>
    <nd ref="40063334"/>
    <nd ref="40125162"/>
    <nd ref="40125165"/>
    <nd ref="40125168"/>
    <nd ref="40125169"/>
    <nd ref="40125172"/>
    <nd ref="40125175"/>
    <nd ref="40125178"/>
    <nd ref="40125181"/>
    <nd ref="40125183"/>
    <nd ref="40125187"/>
    <nd ref="40125190"/>
    <nd ref="40125192"/>
    <nd ref="821827960"/>
    <nd ref="40125195"/>
    <nd ref="40125198"/>
    <nd ref="40125201"/>
    <nd ref="40125204"/>
    <nd ref="40125207"/>
    <nd ref="40125212"/>
    <nd ref="40125215"/>
    <nd ref="40030552"/>
    <nd ref="40125217"/>
    <nd ref="40125221"/>
    <nd ref="40125224"/>
    <nd ref="40136201"/>
    <nd ref="40125228"/>
    <nd ref="40125232"/>
    <nd ref="40125234"/>
    <nd ref="40125236"/>
    <nd ref="40125237"/>
    <nd ref="40125240"/>
    <nd ref="40053669"/>
    <nd ref="40125244"/>
    <nd ref="40125246"/>
    <nd ref="40125249"/>
    <nd ref="40125252"/>
    <nd ref="40125254"/>
    <nd ref="40125257"/>
    <nd ref="40125260"/>
    <nd ref="40125264"/>
    <nd ref="40125266"/>
    <nd ref="40125270"/>
    <nd ref="40125273"/>
    <nd ref="39851058"/>
    <nd ref="40125277"/>
    <nd ref="40041269"/>
    <nd ref="364629508"/>
    <nd ref="364629509"/>
    <nd ref="40041272"/>
    <tag k="highway" v="primary"/>
    <tag k="name" v="Southside Expressway"/>
    <tag k="name_2" v="Johns Ave"/>
    <tag k="ref" v="OR 140"/>
    <tag k="tiger:cfcc" v="A31"/>
    <tag k="tiger:county" v="Klamath, OR"/>
    <tag k="tiger:name_base" v="Southside"/>
    <tag k="tiger:name_base_1" v="State Highway 140"/>
    <tag k="tiger:name_base_2" v="Johns"/>
    <tag k="tiger:name_type" v="Expy"/>
    <tag k="tiger:name_type_2" v="Ave"/>
    <tag k="tiger:reviewed" v="no"/>
    <tag k="tiger:separated" v="no"/>
    <tag k="tiger:source" v="tiger_import_dch_v0.6_20070808"/>
    <tag k="tiger:tlid" v="156661056:156698883:156707659:156707660:156697611:156697613:156697615:156700145:156700146:156700147:156697618:156697620"/>
    <tag k="tiger:zip_left" v="97603"/>
    <tag k="tiger:zip_right" v="97603"/>
  </way>
  <way id="37710092" version="7" timestamp="2010-07-17T12:52:33Z" uid="46482" user="Leon K" changeset="5242213">
    <nd ref="40125151"/>
    <nd ref="40063334"/>
    <nd ref="40125162"/>
    <nd ref="40125165"/>
    <nd ref="40125168"/>
    <nd ref="40125169"/>
    <nd ref="40125172"/>
    <nd ref="40125175"/>
    <nd ref="40125178"/>
    <nd ref="40125181"/>
    <nd ref="40125183"/>
    <nd ref="40125187"/>
    <nd ref="40125190"/>
    <nd ref="40125192"/>
    <nd ref="821827960"/>
    <nd ref="40125195"/>
    <nd ref="40125198"/>
    <nd ref="40125201"/>
    <nd ref="40125204"/>
    <nd ref="40125207"/>
    <nd ref="40125212"/>
    <nd ref="40125215"/>
    <nd ref="40030552"/>
    <nd ref="40125217"/>
    <nd ref="40125221"/>
    <nd ref="40125224"/>
    <nd ref="40136201"/>
    <nd ref="40125228"/>
    <nd ref="40125232"/>
    <nd ref="40125234"/>
    <nd ref="40125236"/>
    <nd ref="40125237"/>
    <nd ref="40125240"/>
    <nd ref="40053669"/>
    <nd ref="40125244"/>
    <nd ref="40125246"/>
    <nd ref="40125249"/>
    <nd ref="40125252"/>
    <nd ref="40125254"/>
    <nd ref="40125257"/>
    <nd ref="40125260"/>
    <nd ref="40125264"/>
    <nd ref="40125266"/>
    <nd ref="40125270"/>
    <nd ref="40125273"/>
    <nd ref="39851058"/>
    <nd ref="40125277"/>
    <nd ref="40041269"/>
    <nd ref="364629508"/>
    <nd ref="364629509"/>
    <nd ref="40041272"/>
    <tag k="highway" v="primary"/>
    <tag k="name" v="Southside Expressway"/>
    <tag k="name_2" v="Johns Ave"/>
    <tag k="ref" v="OR 140"/>
    <tag k="tiger:cfcc" v="A31"/>
    <tag k="tiger:county" v="Klamath, OR"/>
    <tag k="tiger:name_base" v="Southside"/>
    <tag k="tiger:name_base_1" v="State Highway 140"/>
    <tag k="tiger:name_base_2" v="Johns"/>
    <tag k="tiger:name_type" v="Expy"/>
    <tag k="tiger:name_type_2" v="Ave"/>
    <tag k="tiger:separated" v="no"/>
    <tag k="tiger:source" v="tiger_import_dch_v0.6_20070808"/>
    <tag k="tiger:tlid" v="156661056:156698883:156707659:156707660:156697611:156697613:156697615:156700145:156700146:156700147:156697618:156697620"/>
    <tag k="tiger:zip_left" v="97603"/>
    <tag k="tiger:zip_right" v="97603"/>
  </way>
  <way id="37710092" version="8" timestamp="2010-07-17T23:45:05Z" uid="46482" user="Leon K" changeset="5247095">
    <nd ref="40125151"/>
    <nd ref="40063334"/>
    <nd ref="40125162"/>
    <nd ref="40125165"/>
    <nd ref="40125168"/>
    <nd ref="40125169"/>
    <nd ref="40125172"/>
    <nd ref="40125175"/>
    <nd ref="40125178"/>
    <nd ref="40125181"/>
    <nd ref="40125183"/>
    <nd ref="40125187"/>
    <nd ref="40125190"/>
    <nd ref="40125192"/>
    <nd ref="821827960"/>
    <nd ref="40125195"/>
    <nd ref="40125198"/>
    <nd ref="40125201"/>
    <nd ref="40125204"/>
    <nd ref="40125207"/>
    <nd ref="40125212"/>
    <nd ref="40125215"/>
    <nd ref="40030552"/>
    <nd ref="40125217"/>
    <nd ref="40125221"/>
    <nd ref="40125224"/>
    <nd ref="40136201"/>
    <nd ref="40125228"/>
    <nd ref="40125232"/>
    <nd ref="40125234"/>
    <nd ref="40125236"/>
    <nd ref="40125237"/>
    <nd ref="40125240"/>
    <nd ref="40053669"/>
    <nd ref="40125244"/>
    <nd ref="40125246"/>
    <nd ref="40125249"/>
    <nd ref="40125252"/>
    <nd ref="40125254"/>
    <nd ref="40125257"/>
    <nd ref="40125260"/>
    <nd ref="40125264"/>
    <nd ref="40125266"/>
    <nd ref="40125270"/>
    <nd ref="40125273"/>
    <nd ref="39851058"/>
    <nd ref="40125277"/>
    <nd ref="40041269"/>
    <nd ref="364629508"/>
    <nd ref="364629509"/>
    <nd ref="40041272"/>
    <tag k="highway" v="tertiary"/>
    <tag k="name" v="Southside Expressway"/>
    <tag k="name_2" v="Johns Ave"/>
    <tag k="ref" v="OR 140"/>
    <tag k="tiger:cfcc" v="A31"/>
    <tag k="tiger:county" v="Klamath, OR"/>
    <tag k="tiger:name_base" v="Southside"/>
    <tag k="tiger:name_base_1" v="State Highway 140"/>
    <tag k="tiger:name_base_2" v="Johns"/>
    <tag k="tiger:name_type" v="Expy"/>
    <tag k="tiger:name_type_2" v="Ave"/>
    <tag k="tiger:separated" v="no"/>
    <tag k="tiger:source" v="tiger_import_dch_v0.6_20070808"/>
    <tag k="tiger:tlid" v="156661056:156698883:156707659:156707660:156697611:156697613:156697615:156700145:156700146:156700147:156697618:156697620"/>
    <tag k="tiger:zip_left" v="97603"/>
    <tag k="tiger:zip_right" v="97603"/>
  </way>
  <way id="37710092" version="9" timestamp="2010-07-17T23:47:50Z" uid="46482" user="Leon K" changeset="5247103">
    <nd ref="40125151"/>
    <nd ref="40063334"/>
    <nd ref="40125162"/>
    <nd ref="40125165"/>
    <nd ref="40125168"/>
    <nd ref="40125169"/>
    <nd ref="40125172"/>
    <nd ref="40125175"/>
    <nd ref="40125178"/>
    <nd ref="40125181"/>
    <nd ref="40125183"/>
    <nd ref="40125187"/>
    <nd ref="40125190"/>
    <nd ref="40125192"/>
    <nd ref="821827960"/>
    <nd ref="40125195"/>
    <nd ref="40125198"/>
    <nd ref="40125201"/>
    <nd ref="40125204"/>
    <nd ref="40125207"/>
    <nd ref="40125212"/>
    <nd ref="40125215"/>
    <nd ref="40030552"/>
    <nd ref="40125217"/>
    <nd ref="40125221"/>
    <nd ref="40125224"/>
    <nd ref="40136201"/>
    <nd ref="40125228"/>
    <nd ref="40125232"/>
    <nd ref="40125234"/>
    <nd ref="40125236"/>
    <nd ref="40125237"/>
    <nd ref="40125240"/>
    <nd ref="40053669"/>
    <nd ref="40125244"/>
    <nd ref="40125246"/>
    <nd ref="40125249"/>
    <nd ref="40125252"/>
    <nd ref="40125254"/>
    <nd ref="40125257"/>
    <nd ref="40125260"/>
    <nd ref="40125264"/>
    <nd ref="40125266"/>
    <nd ref="40125270"/>
    <nd ref="40125273"/>
    <nd ref="39851058"/>
    <nd ref="40125277"/>
    <nd ref="40041269"/>
    <nd ref="364629508"/>
    <nd ref="364629509"/>
    <nd ref="40041272"/>
    <tag k="highway" v="secondary"/>
    <tag k="name" v="Southside Expressway"/>
    <tag k="name_2" v="Johns Ave"/>
    <tag k="ref" v="OR 140"/>
    <tag k="tiger:cfcc" v="A31"/>
    <tag k="tiger:county" v="Klamath, OR"/>
    <tag k="tiger:name_base" v="Southside"/>
    <tag k="tiger:name_base_1" v="State Highway 140"/>
    <tag k="tiger:name_base_2" v="Johns"/>
    <tag k="tiger:name_type" v="Expy"/>
    <tag k="tiger:name_type_2" v="Ave"/>
    <tag k="tiger:separated" v="no"/>
    <tag k="tiger:source" v="tiger_import_dch_v0.6_20070808"/>
    <tag k="tiger:tlid" v="156661056:156698883:156707659:156707660:156697611:156697613:156697615:156700145:156700146:156700147:156697618:156697620"/>
    <tag k="tiger:zip_left" v="97603"/>
    <tag k="tiger:zip_right" v="97603"/>
  </way>
  <way id="37710092" version="10" timestamp="2010-07-17T23:48:48Z" uid="46482" user="Leon K" changeset="5247103">
    <nd ref="40125151"/>
    <nd ref="40063334"/>
    <nd ref="40125162"/>
    <nd ref="40125165"/>
    <nd ref="40125168"/>
    <nd ref="40125169"/>
    <nd ref="40125172"/>
    <nd ref="40125175"/>
    <nd ref="40125178"/>
    <nd ref="40125181"/>
    <nd ref="40125183"/>
    <nd ref="40125187"/>
    <nd ref="40125190"/>
    <nd ref="40125192"/>
    <nd ref="821827960"/>
    <nd ref="40125195"/>
    <nd ref="40125198"/>
    <nd ref="40125201"/>
    <nd ref="40125204"/>
    <nd ref="40125207"/>
    <nd ref="40125212"/>
    <nd ref="40125215"/>
    <nd ref="40030552"/>
    <nd ref="40125217"/>
    <nd ref="40125221"/>
    <nd ref="40125224"/>
    <nd ref="40136201"/>
    <nd ref="40125228"/>
    <nd ref="40125232"/>
    <nd ref="40125234"/>
    <nd ref="40125236"/>
    <nd ref="40125237"/>
    <nd ref="40125240"/>
    <nd ref="40053669"/>
    <nd ref="40125244"/>
    <nd ref="40125246"/>
    <nd ref="40125249"/>
    <nd ref="40125252"/>
    <nd ref="40125254"/>
    <nd ref="822311956"/>
    <nd ref="40125257"/>
    <nd ref="40125260"/>
    <nd ref="822311957"/>
    <nd ref="40125264"/>
    <nd ref="40125266"/>
    <nd ref="40125270"/>
    <nd ref="40125273"/>
    <nd ref="39851058"/>
    <nd ref="40125277"/>
    <nd ref="40041269"/>
    <nd ref="364629508"/>
    <nd ref="364629509"/>
    <nd ref="40041272"/>
    <tag k="highway" v="secondary"/>
    <tag k="name" v="Southside Expressway"/>
    <tag k="name_2" v="Johns Ave"/>
    <tag k="ref" v="OR 140"/>
    <tag k="tiger:cfcc" v="A31"/>
    <tag k="tiger:county" v="Klamath, OR"/>
    <tag k="tiger:name_base" v="Southside"/>
    <tag k="tiger:name_base_1" v="State Highway 140"/>
    <tag k="tiger:name_base_2" v="Johns"/>
    <tag k="tiger:name_type" v="Expy"/>
    <tag k="tiger:name_type_2" v="Ave"/>
    <tag k="tiger:separated" v="no"/>
    <tag k="tiger:source" v="tiger_import_dch_v0.6_20070808"/>
    <tag k="tiger:tlid" v="156661056:156698883:156707659:156707660:156697611:156697613:156697615:156700145:156700146:156700147:156697618:156697620"/>
    <tag k="tiger:zip_left" v="97603"/>
    <tag k="tiger:zip_right" v="97603"/>
  </way>
  <way id="37710092" version="11" timestamp="2010-07-23T12:17:25Z" uid="46482" user="Leon K" changeset="5295174">
    <nd ref="40125151"/>
    <nd ref="40063334"/>
    <nd ref="40125162"/>
    <nd ref="40125165"/>
    <nd ref="40125168"/>
    <nd ref="40125169"/>
    <nd ref="40125172"/>
    <nd ref="40125175"/>
    <nd ref="40125178"/>
    <nd ref="40125181"/>
    <nd ref="40125183"/>
    <nd ref="40125187"/>
    <nd ref="40125190"/>
    <nd ref="40125192"/>
    <nd ref="821827960"/>
    <nd ref="40125195"/>
    <nd ref="40125198"/>
    <nd ref="40125201"/>
    <nd ref="40125204"/>
    <nd ref="40125207"/>
    <nd ref="40125212"/>
    <nd ref="40125215"/>
    <nd ref="40030552"/>
    <nd ref="40125217"/>
    <nd ref="40125221"/>
    <nd ref="40125224"/>
    <nd ref="40125228"/>
    <nd ref="40125232"/>
    <nd ref="40125234"/>
    <nd ref="40125236"/>
    <nd ref="40125237"/>
    <nd ref="40125240"/>
    <nd ref="40053669"/>
    <nd ref="40125244"/>
    <nd ref="40125246"/>
    <nd ref="40125249"/>
    <nd ref="40125252"/>
    <nd ref="40125254"/>
    <nd ref="822311956"/>
    <nd ref="40125257"/>
    <nd ref="40125260"/>
    <nd ref="822311957"/>
    <nd ref="40125264"/>
    <nd ref="40125266"/>
    <nd ref="40125270"/>
    <nd ref="40125273"/>
    <nd ref="39851058"/>
    <nd ref="40125277"/>
    <nd ref="40041269"/>
    <nd ref="364629508"/>
    <nd ref="364629509"/>
    <nd ref="40041272"/>
    <tag k="highway" v="secondary"/>
    <tag k="name" v="Southside Expressway"/>
    <tag k="name_2" v="Johns Ave"/>
    <tag k="ref" v="OR 140"/>
    <tag k="tiger:cfcc" v="A31"/>
    <tag k="tiger:county" v="Klamath, OR"/>
    <tag k="tiger:name_base" v="Southside"/>
    <tag k="tiger:name_base_1" v="State Highway 140"/>
    <tag k="tiger:name_base_2" v="Johns"/>
    <tag k="tiger:name_type" v="Expy"/>
    <tag k="tiger:name_type_2" v="Ave"/>
    <tag k="tiger:separated" v="no"/>
    <tag k="tiger:source" v="tiger_import_dch_v0.6_20070808"/>
    <tag k="tiger:tlid" v="156661056:156698883:156707659:156707660:156697611:156697613:156697615:156700145:156700146:156700147:156697618:156697620"/>
    <tag k="tiger:zip_left" v="97603"/>
    <tag k="tiger:zip_right" v="97603"/>
  </way>
  <way id="37710092" version="12" timestamp="2010-12-10T22:51:42Z" uid="373763" user="ylekot" changeset="6612255">
    <nd ref="40125151"/>
    <nd ref="40063334"/>
    <nd ref="40125162"/>
    <nd ref="40125165"/>
    <nd ref="40125168"/>
    <nd ref="40125169"/>
    <nd ref="40125172"/>
    <nd ref="40125175"/>
    <nd ref="40125178"/>
    <nd ref="40125181"/>
    <nd ref="40125183"/>
    <nd ref="40125187"/>
    <nd ref="40125190"/>
    <nd ref="40125192"/>
    <nd ref="821827960"/>
    <nd ref="40125195"/>
    <nd ref="40125198"/>
    <nd ref="40125201"/>
    <nd ref="40125204"/>
    <nd ref="40125207"/>
    <nd ref="40125212"/>
    <nd ref="40125215"/>
    <nd ref="40030552"/>
    <nd ref="40125217"/>
    <nd ref="40125221"/>
    <nd ref="40125224"/>
    <nd ref="40125228"/>
    <nd ref="40125232"/>
    <nd ref="40125234"/>
    <nd ref="40125236"/>
    <nd ref="40125237"/>
    <nd ref="40125240"/>
    <nd ref="40053669"/>
    <nd ref="40125244"/>
    <nd ref="40125246"/>
    <nd ref="40125249"/>
    <nd ref="40125252"/>
    <nd ref="40125254"/>
    <nd ref="822311956"/>
    <nd ref="40125257"/>
    <nd ref="40125260"/>
    <nd ref="822311957"/>
    <nd ref="40125264"/>
    <nd ref="40125266"/>
    <nd ref="40125270"/>
    <nd ref="40125273"/>
    <nd ref="39851058"/>
    <nd ref="40125277"/>
    <nd ref="40041269"/>
    <nd ref="364629508"/>
    <nd ref="364629509"/>
    <nd ref="40041272"/>
    <tag k="highway" v="trunk"/>
    <tag k="name" v="Southside Expressway"/>
    <tag k="name_2" v="Johns Ave"/>
    <tag k="ref" v="OR 140"/>
    <tag k="tiger:cfcc" v="A31"/>
    <tag k="tiger:county" v="Klamath, OR"/>
    <tag k="tiger:name_base" v="Southside"/>
    <tag k="tiger:name_base_1" v="State Highway 140"/>
    <tag k="tiger:name_base_2" v="Johns"/>
    <tag k="tiger:name_type" v="Expy"/>
    <tag k="tiger:name_type_2" v="Ave"/>
    <tag k="tiger:separated" v="no"/>
    <tag k="tiger:source" v="tiger_import_dch_v0.6_20070808"/>
    <tag k="tiger:tlid" v="156661056:156698883:156707659:156707660:156697611:156697613:156697615:156700145:156700146:156700147:156697618:156697620"/>
    <tag k="tiger:zip_left" v="97603"/>
    <tag k="tiger:zip_right" v="97603"/>
  </way>
  <way id="37710092" version="13" timestamp="2011-04-19T01:47:49Z" uid="97431" user="Dion Dock" changeset="7902760">
    <nd ref="40125151"/>
    <nd ref="40063334"/>
    <nd ref="40125162"/>
    <nd ref="40125165"/>
    <nd ref="40125168"/>
    <nd ref="40125169"/>
    <nd ref="40125172"/>
    <nd ref="40125175"/>
    <nd ref="40125178"/>
    <nd ref="40125181"/>
    <nd ref="40125183"/>
    <nd ref="40125187"/>
    <nd ref="40125190"/>
    <nd ref="40125192"/>
    <nd ref="821827960"/>
    <nd ref="40125195"/>
    <nd ref="40125198"/>
    <nd ref="40125201"/>
    <nd ref="40125204"/>
    <nd ref="40125207"/>
    <nd ref="40125212"/>
    <nd ref="1250714946"/>
    <nd ref="40125215"/>
    <nd ref="40030552"/>
    <nd ref="40125217"/>
    <nd ref="40125221"/>
    <nd ref="40125224"/>
    <nd ref="40125228"/>
    <nd ref="40125232"/>
    <nd ref="40125234"/>
    <nd ref="40125236"/>
    <nd ref="40125237"/>
    <nd ref="40125240"/>
    <nd ref="40053669"/>
    <nd ref="40125244"/>
    <nd ref="40125246"/>
    <nd ref="40125249"/>
    <nd ref="40125252"/>
    <nd ref="40125254"/>
    <nd ref="822311956"/>
    <nd ref="40125257"/>
    <nd ref="40125260"/>
    <nd ref="822311957"/>
    <nd ref="40125264"/>
    <nd ref="40125266"/>
    <nd ref="40125270"/>
    <nd ref="40125273"/>
    <nd ref="39851058"/>
    <nd ref="40125277"/>
    <nd ref="40041269"/>
    <nd ref="364629508"/>
    <nd ref="364629509"/>
    <nd ref="40041272"/>
    <tag k="highway" v="trunk"/>
    <tag k="name" v="Southside Expressway"/>
    <tag k="name_2" v="Johns Ave"/>
    <tag k="ref" v="OR 140"/>
    <tag k="tiger:cfcc" v="A31"/>
    <tag k="tiger:county" v="Klamath, OR"/>
    <tag k="tiger:name_base" v="Southside"/>
    <tag k="tiger:name_base_1" v="State Highway 140"/>
    <tag k="tiger:name_base_2" v="Johns"/>
    <tag k="tiger:name_type" v="Expy"/>
    <tag k="tiger:name_type_2" v="Ave"/>
    <tag k="tiger:separated" v="no"/>
    <tag k="tiger:source" v="tiger_import_dch_v0.6_20070808"/>
    <tag k="tiger:tlid" v="156661056:156698883:156707659:156707660:156697611:156697613:156697615:156700145:156700146:156700147:156697618:156697620"/>
    <tag k="tiger:zip_left" v="97603"/>
    <tag k="tiger:zip_right" v="97603"/>
  </way>
  <way id="37710092" version="14" timestamp="2011-06-23T02:14:35Z" uid="473471" user="NE3" changeset="8520254">
    <nd ref="40125151"/>
    <nd ref="40063334"/>
    <nd ref="40125162"/>
    <nd ref="40125165"/>
    <nd ref="40125168"/>
    <nd ref="40125169"/>
    <nd ref="40125172"/>
    <nd ref="40125175"/>
    <nd ref="40125178"/>
    <nd ref="40125181"/>
    <nd ref="40125183"/>
    <nd ref="40125187"/>
    <nd ref="40125190"/>
    <nd ref="40125192"/>
    <nd ref="821827960"/>
    <nd ref="40125195"/>
    <nd ref="40125198"/>
    <nd ref="40125201"/>
    <nd ref="40125204"/>
    <nd ref="40125207"/>
    <nd ref="40125212"/>
    <nd ref="1250714946"/>
    <nd ref="40125215"/>
    <nd ref="40030552"/>
    <nd ref="40125217"/>
    <nd ref="40125221"/>
    <nd ref="40125224"/>
    <nd ref="40125228"/>
    <nd ref="40125232"/>
    <nd ref="40125234"/>
    <nd ref="40125236"/>
    <nd ref="40125237"/>
    <nd ref="40125240"/>
    <nd ref="40053669"/>
    <nd ref="40125244"/>
    <nd ref="40125246"/>
    <nd ref="40125249"/>
    <nd ref="40125252"/>
    <nd ref="40125254"/>
    <nd ref="822311956"/>
    <nd ref="40125257"/>
    <nd ref="40125260"/>
    <nd ref="822311957"/>
    <nd ref="40125264"/>
    <nd ref="40125266"/>
    <nd ref="40125270"/>
    <nd ref="40125273"/>
    <nd ref="39851058"/>
    <nd ref="40125277"/>
    <nd ref="40041269"/>
    <nd ref="364629508"/>
    <nd ref="364629509"/>
    <nd ref="40041272"/>
    <tag k="highway" v="trunk"/>
    <tag k="lanes" v="2"/>
    <tag k="name" v="Southside Expressway"/>
    <tag k="name_2" v="Johns Ave"/>
    <tag k="ref" v="OR 140"/>
    <tag k="tiger:cfcc" v="A31"/>
    <tag k="tiger:county" v="Klamath, OR"/>
    <tag k="tiger:name_base" v="Southside"/>
    <tag k="tiger:name_base_1" v="State Highway 140"/>
    <tag k="tiger:name_base_2" v="Johns"/>
    <tag k="tiger:name_type" v="Expy"/>
    <tag k="tiger:name_type_2" v="Ave"/>
    <tag k="tiger:separated" v="no"/>
    <tag k="tiger:source" v="tiger_import_dch_v0.6_20070808"/>
    <tag k="tiger:tlid" v="156661056:156698883:156707659:156707660:156697611:156697613:156697615:156700145:156700146:156700147:156697618:156697620"/>
    <tag k="tiger:zip_left" v="97603"/>
    <tag k="tiger:zip_right" v="97603"/>
  </way>
  <way id="37710092" version="15" timestamp="2011-07-19T21:38:53Z" uid="473471" user="NE3" changeset="8773162">
    <nd ref="40125151"/>
    <nd ref="40063334"/>
    <nd ref="40125162"/>
    <nd ref="40125165"/>
    <nd ref="40125168"/>
    <nd ref="40125169"/>
    <nd ref="40125172"/>
    <nd ref="40125175"/>
    <nd ref="40125178"/>
    <nd ref="40125181"/>
    <nd ref="40125183"/>
    <nd ref="40125187"/>
    <nd ref="40125190"/>
    <nd ref="40125192"/>
    <nd ref="821827960"/>
    <nd ref="40125195"/>
    <nd ref="40125198"/>
    <nd ref="40125201"/>
    <nd ref="40125204"/>
    <nd ref="40125207"/>
    <nd ref="40125212"/>
    <nd ref="1250714946"/>
    <nd ref="40125215"/>
    <nd ref="40030552"/>
    <nd ref="40125217"/>
    <nd ref="40125221"/>
    <nd ref="40125224"/>
    <nd ref="40125228"/>
    <nd ref="40125232"/>
    <nd ref="40125234"/>
    <nd ref="40125236"/>
    <nd ref="40125237"/>
    <nd ref="40125240"/>
    <nd ref="40053669"/>
    <nd ref="40125244"/>
    <nd ref="40125246"/>
    <nd ref="40125249"/>
    <nd ref="40125252"/>
    <nd ref="40125254"/>
    <nd ref="822311956"/>
    <nd ref="40125257"/>
    <nd ref="40125260"/>
    <nd ref="822311957"/>
    <nd ref="40125264"/>
    <nd ref="40125266"/>
    <nd ref="40125270"/>
    <nd ref="40125273"/>
    <nd ref="39851058"/>
    <nd ref="40125277"/>
    <nd ref="40041269"/>
    <nd ref="364629508"/>
    <nd ref="364629509"/>
    <nd ref="40041272"/>
    <tag k="NHS" v="yes"/>
    <tag k="highway" v="trunk"/>
    <tag k="lanes" v="2"/>
    <tag k="name" v="Southside Expressway"/>
    <tag k="name_2" v="Johns Ave"/>
    <tag k="ref" v="OR 140"/>
    <tag k="tiger:cfcc" v="A31"/>
    <tag k="tiger:county" v="Klamath, OR"/>
    <tag k="tiger:name_base" v="Southside"/>
    <tag k="tiger:name_base_1" v="State Highway 140"/>
    <tag k="tiger:name_base_2" v="Johns"/>
    <tag k="tiger:name_type" v="Expy"/>
    <tag k="tiger:name_type_2" v="Ave"/>
    <tag k="tiger:separated" v="no"/>
    <tag k="tiger:source" v="tiger_import_dch_v0.6_20070808"/>
    <tag k="tiger:tlid" v="156661056:156698883:156707659:156707660:156697611:156697613:156697615:156700145:156700146:156700147:156697618:156697620"/>
    <tag k="tiger:zip_left" v="97603"/>
    <tag k="tiger:zip_right" v="97603"/>
  </way>
  <way id="37710092" version="16" timestamp="2011-11-25T17:30:40Z" uid="207745" user="NE2" changeset="9945867">
    <nd ref="40125151"/>
    <nd ref="40063334"/>
    <nd ref="40125162"/>
    <nd ref="40125165"/>
    <nd ref="40125168"/>
    <nd ref="40125169"/>
    <nd ref="40125172"/>
    <nd ref="40125175"/>
    <nd ref="40125178"/>
    <nd ref="40125181"/>
    <nd ref="40125183"/>
    <nd ref="40125187"/>
    <nd ref="40125190"/>
    <nd ref="40125192"/>
    <nd ref="821827960"/>
    <nd ref="40125195"/>
    <nd ref="40125198"/>
    <nd ref="40125201"/>
    <nd ref="40125204"/>
    <nd ref="40125207"/>
    <nd ref="40125212"/>
    <nd ref="1250714946"/>
    <nd ref="40125215"/>
    <nd ref="40030552"/>
    <nd ref="40125217"/>
    <nd ref="40125221"/>
    <nd ref="40125224"/>
    <nd ref="40125228"/>
    <nd ref="40125232"/>
    <nd ref="40125234"/>
    <nd ref="40125236"/>
    <nd ref="40125237"/>
    <nd ref="40125240"/>
    <nd ref="40053669"/>
    <nd ref="40125244"/>
    <nd ref="40125246"/>
    <nd ref="40125249"/>
    <nd ref="40125252"/>
    <nd ref="40125254"/>
    <nd ref="822311956"/>
    <nd ref="40125257"/>
    <nd ref="40125260"/>
    <nd ref="822311957"/>
    <nd ref="40125264"/>
    <nd ref="40125266"/>
    <nd ref="40125270"/>
    <nd ref="40125273"/>
    <nd ref="39851058"/>
    <nd ref="40125277"/>
    <nd ref="40041269"/>
    <nd ref="364629508"/>
    <nd ref="364629509"/>
    <nd ref="40041272"/>
    <tag k="NHS" v="yes"/>
    <tag k="hgv" v="designated"/>
    <tag k="hgv:national_network" v="yes"/>
    <tag k="highway" v="trunk"/>
    <tag k="lanes" v="2"/>
    <tag k="name" v="Southside Expressway"/>
    <tag k="name_2" v="Johns Ave"/>
    <tag k="ref" v="OR 140"/>
    <tag k="source:hgv:national_network" v="Title 23: Highways Part 658 http://ecfr.gpoaccess.gov/cgi/t/text/text-idx?c=ecfr&amp;rgn=div5&amp;view=text&amp;node=23:1.0.1.7.33&amp;idno=23"/>
    <tag k="tiger:cfcc" v="A31"/>
    <tag k="tiger:county" v="Klamath, OR"/>
    <tag k="tiger:name_base" v="Southside"/>
    <tag k="tiger:name_base_1" v="State Highway 140"/>
    <tag k="tiger:name_base_2" v="Johns"/>
    <tag k="tiger:name_type" v="Expy"/>
    <tag k="tiger:name_type_2" v="Ave"/>
    <tag k="tiger:separated" v="no"/>
    <tag k="tiger:source" v="tiger_import_dch_v0.6_20070808"/>
    <tag k="tiger:tlid" v="156661056:156698883:156707659:156707660:156697611:156697613:156697615:156700145:156700146:156700147:156697618:156697620"/>
    <tag k="tiger:zip_left" v="97603"/>
    <tag k="tiger:zip_right" v="97603"/>
  </way>
  <way id="37710093" version="2" timestamp="2010-03-22T06:33:09Z" uid="20587" user="balrog-kun" changeset="4199043">
    <nd ref="40125134"/>
    <nd ref="40125143"/>
    <tag k="bridge" v="yes"/>
    <tag k="created_by" v="Potlatch 0.10f"/>
    <tag k="highway" v="primary"/>
    <tag k="layer" v="1"/>
    <tag k="name" v="Southside Expressway"/>
    <tag k="name_2" v="Johns Ave"/>
    <tag k="ref" v="US:WA 140"/>
    <tag k="tiger:cfcc" v="A31"/>
    <tag k="tiger:county" v="Klamath, OR"/>
    <tag k="tiger:name_base" v="Southside"/>
    <tag k="tiger:name_base_1" v="State Highway 140"/>
    <tag k="tiger:name_base_2" v="Johns"/>
    <tag k="tiger:name_type" v="Expy"/>
    <tag k="tiger:name_type_2" v="Ave"/>
    <tag k="tiger:reviewed" v="no"/>
    <tag k="tiger:separated" v="no"/>
    <tag k="tiger:source" v="tiger_import_dch_v0.6_20070808"/>
    <tag k="tiger:tlid" v="156661056:156698883:156707659:156707660:156697611:156697613:156697615:156700145:156700146:156700147:156697618:156697620"/>
    <tag k="tiger:zip_left" v="97603"/>
    <tag k="tiger:zip_right" v="97603"/>
  </way>
  <way id="37710093" version="3" timestamp="2010-07-08T02:27:40Z" uid="92286" user="Paul Johnson" changeset="5163079">
    <nd ref="40125134"/>
    <nd ref="40125143"/>
    <tag k="bridge" v="yes"/>
    <tag k="highway" v="primary"/>
    <tag k="layer" v="1"/>
    <tag k="name" v="Southside Expressway"/>
    <tag k="name_2" v="Johns Ave"/>
    <tag k="ref" v="OR 140"/>
    <tag k="tiger:cfcc" v="A31"/>
    <tag k="tiger:county" v="Klamath, OR"/>
    <tag k="tiger:name_base" v="Southside"/>
    <tag k="tiger:name_base_1" v="State Highway 140"/>
    <tag k="tiger:name_base_2" v="Johns"/>
    <tag k="tiger:name_type" v="Expy"/>
    <tag k="tiger:name_type_2" v="Ave"/>
    <tag k="tiger:reviewed" v="no"/>
    <tag k="tiger:separated" v="no"/>
    <tag k="tiger:source" v="tiger_import_dch_v0.6_20070808"/>
    <tag k="tiger:tlid" v="156661056:156698883:156707659:156707660:156697611:156697613:156697615:156700145:156700146:156700147:156697618:156697620"/>
    <tag k="tiger:zip_left" v="97603"/>
    <tag k="tiger:zip_right" v="97603"/>
  </way>
  <way id="37710093" version="4" timestamp="2010-07-17T12:49:31Z" uid="46482" user="Leon K" changeset="5242213">
    <nd ref="40125134"/>
    <nd ref="40125143"/>
    <tag k="bridge" v="yes"/>
    <tag k="highway" v="primary"/>
    <tag k="layer" v="1"/>
    <tag k="name" v="Southside Expressway"/>
    <tag k="name_2" v="Johns Ave"/>
    <tag k="ref" v="OR 140"/>
    <tag k="tiger:cfcc" v="A31"/>
    <tag k="tiger:county" v="Klamath, OR"/>
    <tag k="tiger:name_base" v="Southside"/>
    <tag k="tiger:name_base_1" v="State Highway 140"/>
    <tag k="tiger:name_base_2" v="Johns"/>
    <tag k="tiger:name_type" v="Expy"/>
    <tag k="tiger:name_type_2" v="Ave"/>
    <tag k="tiger:separated" v="no"/>
    <tag k="tiger:source" v="tiger_import_dch_v0.6_20070808"/>
    <tag k="tiger:tlid" v="156661056:156698883:156707659:156707660:156697611:156697613:156697615:156700145:156700146:156700147:156697618:156697620"/>
    <tag k="tiger:zip_left" v="97603"/>
    <tag k="tiger:zip_right" v="97603"/>
  </way>
  <way id="37710093" version="5" timestamp="2010-07-17T23:45:18Z" uid="46482" user="Leon K" changeset="5247095">
    <nd ref="40125134"/>
    <nd ref="40125143"/>
    <tag k="bridge" v="yes"/>
    <tag k="highway" v="tertiary"/>
    <tag k="layer" v="1"/>
    <tag k="name" v="Southside Expressway"/>
    <tag k="name_2" v="Johns Ave"/>
    <tag k="ref" v="OR 140"/>
    <tag k="tiger:cfcc" v="A31"/>
    <tag k="tiger:county" v="Klamath, OR"/>
    <tag k="tiger:name_base" v="Southside"/>
    <tag k="tiger:name_base_1" v="State Highway 140"/>
    <tag k="tiger:name_base_2" v="Johns"/>
    <tag k="tiger:name_type" v="Expy"/>
    <tag k="tiger:name_type_2" v="Ave"/>
    <tag k="tiger:separated" v="no"/>
    <tag k="tiger:source" v="tiger_import_dch_v0.6_20070808"/>
    <tag k="tiger:tlid" v="156661056:156698883:156707659:156707660:156697611:156697613:156697615:156700145:156700146:156700147:156697618:156697620"/>
    <tag k="tiger:zip_left" v="97603"/>
    <tag k="tiger:zip_right" v="97603"/>
  </way>
  <way id="37710093" version="6" timestamp="2010-07-17T23:47:31Z" uid="46482" user="Leon K" changeset="5247103">
    <nd ref="40125134"/>
    <nd ref="40125143"/>
    <tag k="bridge" v="yes"/>
    <tag k="highway" v="secondary"/>
    <tag k="layer" v="1"/>
    <tag k="name" v="Southside Expressway"/>
    <tag k="name_2" v="Johns Ave"/>
    <tag k="ref" v="OR 140"/>
    <tag k="tiger:cfcc" v="A31"/>
    <tag k="tiger:county" v="Klamath, OR"/>
    <tag k="tiger:name_base" v="Southside"/>
    <tag k="tiger:name_base_1" v="State Highway 140"/>
    <tag k="tiger:name_base_2" v="Johns"/>
    <tag k="tiger:name_type" v="Expy"/>
    <tag k="tiger:name_type_2" v="Ave"/>
    <tag k="tiger:separated" v="no"/>
    <tag k="tiger:source" v="tiger_import_dch_v0.6_20070808"/>
    <tag k="tiger:tlid" v="156661056:156698883:156707659:156707660:156697611:156697613:156697615:156700145:156700146:156700147:156697618:156697620"/>
    <tag k="tiger:zip_left" v="97603"/>
    <tag k="tiger:zip_right" v="97603"/>
  </way>
  <way id="37710093" version="7" timestamp="2010-12-10T22:51:43Z" uid="373763" user="ylekot" changeset="6612255">
    <nd ref="40125134"/>
    <nd ref="40125143"/>
    <tag k="bridge" v="yes"/>
    <tag k="highway" v="trunk"/>
    <tag k="layer" v="1"/>
    <tag k="name" v="Southside Expressway"/>
    <tag k="name_2" v="Johns Ave"/>
    <tag k="ref" v="OR 140"/>
    <tag k="tiger:cfcc" v="A31"/>
    <tag k="tiger:county" v="Klamath, OR"/>
    <tag k="tiger:name_base" v="Southside"/>
    <tag k="tiger:name_base_1" v="State Highway 140"/>
    <tag k="tiger:name_base_2" v="Johns"/>
    <tag k="tiger:name_type" v="Expy"/>
    <tag k="tiger:name_type_2" v="Ave"/>
    <tag k="tiger:separated" v="no"/>
    <tag k="tiger:source" v="tiger_import_dch_v0.6_20070808"/>
    <tag k="tiger:tlid" v="156661056:156698883:156707659:156707660:156697611:156697613:156697615:156700145:156700146:156700147:156697618:156697620"/>
    <tag k="tiger:zip_left" v="97603"/>
    <tag k="tiger:zip_right" v="97603"/>
  </way>
  <way id="37710093" version="8" timestamp="2011-06-23T02:09:17Z" uid="473471" user="NE3" changeset="8520254">
    <nd ref="40125134"/>
    <nd ref="40125143"/>
    <tag k="bridge" v="yes"/>
    <tag k="highway" v="trunk"/>
    <tag k="lanes" v="2"/>
    <tag k="layer" v="1"/>
    <tag k="name" v="Southside Expressway"/>
    <tag k="name_2" v="Johns Ave"/>
    <tag k="ref" v="OR 140"/>
    <tag k="tiger:cfcc" v="A31"/>
    <tag k="tiger:county" v="Klamath, OR"/>
    <tag k="tiger:name_base" v="Southside"/>
    <tag k="tiger:name_base_1" v="State Highway 140"/>
    <tag k="tiger:name_base_2" v="Johns"/>
    <tag k="tiger:name_type" v="Expy"/>
    <tag k="tiger:name_type_2" v="Ave"/>
    <tag k="tiger:separated" v="no"/>
    <tag k="tiger:source" v="tiger_import_dch_v0.6_20070808"/>
    <tag k="tiger:tlid" v="156661056:156698883:156707659:156707660:156697611:156697613:156697615:156700145:156700146:156700147:156697618:156697620"/>
    <tag k="tiger:zip_left" v="97603"/>
    <tag k="tiger:zip_right" v="97603"/>
  </way>
  <way id="37710093" version="9" timestamp="2011-07-19T21:38:52Z" uid="473471" user="NE3" changeset="8773162">
    <nd ref="40125134"/>
    <nd ref="40125143"/>
    <tag k="NHS" v="yes"/>
    <tag k="bridge" v="yes"/>
    <tag k="highway" v="trunk"/>
    <tag k="lanes" v="2"/>
    <tag k="layer" v="1"/>
    <tag k="name" v="Southside Expressway"/>
    <tag k="name_2" v="Johns Ave"/>
    <tag k="ref" v="OR 140"/>
    <tag k="tiger:cfcc" v="A31"/>
    <tag k="tiger:county" v="Klamath, OR"/>
    <tag k="tiger:name_base" v="Southside"/>
    <tag k="tiger:name_base_1" v="State Highway 140"/>
    <tag k="tiger:name_base_2" v="Johns"/>
    <tag k="tiger:name_type" v="Expy"/>
    <tag k="tiger:name_type_2" v="Ave"/>
    <tag k="tiger:separated" v="no"/>
    <tag k="tiger:source" v="tiger_import_dch_v0.6_20070808"/>
    <tag k="tiger:tlid" v="156661056:156698883:156707659:156707660:156697611:156697613:156697615:156700145:156700146:156700147:156697618:156697620"/>
    <tag k="tiger:zip_left" v="97603"/>
    <tag k="tiger:zip_right" v="97603"/>
  </way>
  <way id="37710093" version="10" timestamp="2011-11-25T17:30:39Z" uid="207745" user="NE2" changeset="9945867">
    <nd ref="40125134"/>
    <nd ref="40125143"/>
    <tag k="NHS" v="yes"/>
    <tag k="bridge" v="yes"/>
    <tag k="hgv" v="designated"/>
    <tag k="hgv:national_network" v="yes"/>
    <tag k="highway" v="trunk"/>
    <tag k="lanes" v="2"/>
    <tag k="layer" v="1"/>
    <tag k="name" v="Southside Expressway"/>
    <tag k="name_2" v="Johns Ave"/>
    <tag k="ref" v="OR 140"/>
    <tag k="source:hgv:national_network" v="Title 23: Highways Part 658 http://ecfr.gpoaccess.gov/cgi/t/text/text-idx?c=ecfr&amp;rgn=div5&amp;view=text&amp;node=23:1.0.1.7.33&amp;idno=23"/>
    <tag k="tiger:cfcc" v="A31"/>
    <tag k="tiger:county" v="Klamath, OR"/>
    <tag k="tiger:name_base" v="Southside"/>
    <tag k="tiger:name_base_1" v="State Highway 140"/>
    <tag k="tiger:name_base_2" v="Johns"/>
    <tag k="tiger:name_type" v="Expy"/>
    <tag k="tiger:name_type_2" v="Ave"/>
    <tag k="tiger:separated" v="no"/>
    <tag k="tiger:source" v="tiger_import_dch_v0.6_20070808"/>
    <tag k="tiger:tlid" v="156661056:156698883:156707659:156707660:156697611:156697613:156697615:156700145:156700146:156700147:156697618:156697620"/>
    <tag k="tiger:zip_left" v="97603"/>
    <tag k="tiger:zip_right" v="97603"/>
  </way>
  <way id="37710094" version="2" timestamp="2010-03-22T06:33:09Z" uid="20587" user="balrog-kun" changeset="4199043">
    <nd ref="40125143"/>
    <nd ref="442201647"/>
    <nd ref="442201648"/>
    <nd ref="442201651"/>
    <nd ref="442201654"/>
    <nd ref="442201657"/>
    <nd ref="442201655"/>
    <nd ref="442201652"/>
    <nd ref="40125145"/>
    <nd ref="40125148"/>
    <tag k="created_by" v="Potlatch 0.10f"/>
    <tag k="highway" v="primary"/>
    <tag k="name" v="Southside Expressway"/>
    <tag k="name_2" v="Johns Ave"/>
    <tag k="ref" v="US:WA 140"/>
    <tag k="tiger:cfcc" v="A31"/>
    <tag k="tiger:county" v="Klamath, OR"/>
    <tag k="tiger:name_base" v="Southside"/>
    <tag k="tiger:name_base_1" v="State Highway 140"/>
    <tag k="tiger:name_base_2" v="Johns"/>
    <tag k="tiger:name_type" v="Expy"/>
    <tag k="tiger:name_type_2" v="Ave"/>
    <tag k="tiger:reviewed" v="no"/>
    <tag k="tiger:separated" v="no"/>
    <tag k="tiger:source" v="tiger_import_dch_v0.6_20070808"/>
    <tag k="tiger:tlid" v="156661056:156698883:156707659:156707660:156697611:156697613:156697615:156700145:156700146:156700147:156697618:156697620"/>
    <tag k="tiger:zip_left" v="97603"/>
    <tag k="tiger:zip_right" v="97603"/>
  </way>
  <way id="37710094" version="3" timestamp="2010-07-08T02:27:42Z" uid="92286" user="Paul Johnson" changeset="5163079">
    <nd ref="40125143"/>
    <nd ref="442201647"/>
    <nd ref="442201648"/>
    <nd ref="442201651"/>
    <nd ref="442201654"/>
    <nd ref="442201657"/>
    <nd ref="442201655"/>
    <nd ref="442201652"/>
    <nd ref="40125145"/>
    <nd ref="40125148"/>
    <tag k="highway" v="primary"/>
    <tag k="name" v="Southside Expressway"/>
    <tag k="name_2" v="Johns Ave"/>
    <tag k="ref" v="OR 140"/>
    <tag k="tiger:cfcc" v="A31"/>
    <tag k="tiger:county" v="Klamath, OR"/>
    <tag k="tiger:name_base" v="Southside"/>
    <tag k="tiger:name_base_1" v="State Highway 140"/>
    <tag k="tiger:name_base_2" v="Johns"/>
    <tag k="tiger:name_type" v="Expy"/>
    <tag k="tiger:name_type_2" v="Ave"/>
    <tag k="tiger:reviewed" v="no"/>
    <tag k="tiger:separated" v="no"/>
    <tag k="tiger:source" v="tiger_import_dch_v0.6_20070808"/>
    <tag k="tiger:tlid" v="156661056:156698883:156707659:156707660:156697611:156697613:156697615:156700145:156700146:156700147:156697618:156697620"/>
    <tag k="tiger:zip_left" v="97603"/>
    <tag k="tiger:zip_right" v="97603"/>
  </way>
  <way id="37710094" version="4" timestamp="2010-07-17T12:49:24Z" uid="46482" user="Leon K" changeset="5242213">
    <nd ref="40125143"/>
    <nd ref="442201647"/>
    <nd ref="442201648"/>
    <nd ref="442201651"/>
    <nd ref="442201654"/>
    <nd ref="442201657"/>
    <nd ref="442201655"/>
    <nd ref="442201652"/>
    <nd ref="40125145"/>
    <nd ref="40125148"/>
    <tag k="highway" v="primary"/>
    <tag k="name" v="Southside Expressway"/>
    <tag k="name_2" v="Johns Ave"/>
    <tag k="ref" v="OR 140"/>
    <tag k="tiger:cfcc" v="A31"/>
    <tag k="tiger:county" v="Klamath, OR"/>
    <tag k="tiger:name_base" v="Southside"/>
    <tag k="tiger:name_base_1" v="State Highway 140"/>
    <tag k="tiger:name_base_2" v="Johns"/>
    <tag k="tiger:name_type" v="Expy"/>
    <tag k="tiger:name_type_2" v="Ave"/>
    <tag k="tiger:separated" v="no"/>
    <tag k="tiger:source" v="tiger_import_dch_v0.6_20070808"/>
    <tag k="tiger:tlid" v="156661056:156698883:156707659:156707660:156697611:156697613:156697615:156700145:156700146:156700147:156697618:156697620"/>
    <tag k="tiger:zip_left" v="97603"/>
    <tag k="tiger:zip_right" v="97603"/>
  </way>
  <way id="37710094" version="5" timestamp="2010-07-17T23:45:15Z" uid="46482" user="Leon K" changeset="5247095">
    <nd ref="40125143"/>
    <nd ref="442201647"/>
    <nd ref="442201648"/>
    <nd ref="442201651"/>
    <nd ref="442201654"/>
    <nd ref="442201657"/>
    <nd ref="442201655"/>
    <nd ref="442201652"/>
    <nd ref="40125145"/>
    <nd ref="40125148"/>
    <tag k="highway" v="tertiary"/>
    <tag k="name" v="Southside Expressway"/>
    <tag k="name_2" v="Johns Ave"/>
    <tag k="ref" v="OR 140"/>
    <tag k="tiger:cfcc" v="A31"/>
    <tag k="tiger:county" v="Klamath, OR"/>
    <tag k="tiger:name_base" v="Southside"/>
    <tag k="tiger:name_base_1" v="State Highway 140"/>
    <tag k="tiger:name_base_2" v="Johns"/>
    <tag k="tiger:name_type" v="Expy"/>
    <tag k="tiger:name_type_2" v="Ave"/>
    <tag k="tiger:separated" v="no"/>
    <tag k="tiger:source" v="tiger_import_dch_v0.6_20070808"/>
    <tag k="tiger:tlid" v="156661056:156698883:156707659:156707660:156697611:156697613:156697615:156700145:156700146:156700147:156697618:156697620"/>
    <tag k="tiger:zip_left" v="97603"/>
    <tag k="tiger:zip_right" v="97603"/>
  </way>
  <way id="37710094" version="6" timestamp="2010-07-17T23:47:39Z" uid="46482" user="Leon K" changeset="5247103">
    <nd ref="40125143"/>
    <nd ref="442201647"/>
    <nd ref="442201648"/>
    <nd ref="442201651"/>
    <nd ref="442201654"/>
    <nd ref="442201657"/>
    <nd ref="442201655"/>
    <nd ref="442201652"/>
    <nd ref="40125145"/>
    <nd ref="40125148"/>
    <tag k="highway" v="secondary"/>
    <tag k="name" v="Southside Expressway"/>
    <tag k="name_2" v="Johns Ave"/>
    <tag k="ref" v="OR 140"/>
    <tag k="tiger:cfcc" v="A31"/>
    <tag k="tiger:county" v="Klamath, OR"/>
    <tag k="tiger:name_base" v="Southside"/>
    <tag k="tiger:name_base_1" v="State Highway 140"/>
    <tag k="tiger:name_base_2" v="Johns"/>
    <tag k="tiger:name_type" v="Expy"/>
    <tag k="tiger:name_type_2" v="Ave"/>
    <tag k="tiger:separated" v="no"/>
    <tag k="tiger:source" v="tiger_import_dch_v0.6_20070808"/>
    <tag k="tiger:tlid" v="156661056:156698883:156707659:156707660:156697611:156697613:156697615:156700145:156700146:156700147:156697618:156697620"/>
    <tag k="tiger:zip_left" v="97603"/>
    <tag k="tiger:zip_right" v="97603"/>
  </way>
  <way id="37710094" version="7" timestamp="2010-12-10T22:51:44Z" uid="373763" user="ylekot" changeset="6612255">
    <nd ref="40125143"/>
    <nd ref="442201647"/>
    <nd ref="442201648"/>
    <nd ref="442201651"/>
    <nd ref="442201654"/>
    <nd ref="442201657"/>
    <nd ref="442201655"/>
    <nd ref="442201652"/>
    <nd ref="40125145"/>
    <nd ref="40125148"/>
    <tag k="highway" v="trunk"/>
    <tag k="name" v="Southside Expressway"/>
    <tag k="name_2" v="Johns Ave"/>
    <tag k="ref" v="OR 140"/>
    <tag k="tiger:cfcc" v="A31"/>
    <tag k="tiger:county" v="Klamath, OR"/>
    <tag k="tiger:name_base" v="Southside"/>
    <tag k="tiger:name_base_1" v="State Highway 140"/>
    <tag k="tiger:name_base_2" v="Johns"/>
    <tag k="tiger:name_type" v="Expy"/>
    <tag k="tiger:name_type_2" v="Ave"/>
    <tag k="tiger:separated" v="no"/>
    <tag k="tiger:source" v="tiger_import_dch_v0.6_20070808"/>
    <tag k="tiger:tlid" v="156661056:156698883:156707659:156707660:156697611:156697613:156697615:156700145:156700146:156700147:156697618:156697620"/>
    <tag k="tiger:zip_left" v="97603"/>
    <tag k="tiger:zip_right" v="97603"/>
  </way>
  <way id="37710094" version="8" timestamp="2011-06-23T02:03:26Z" uid="473471" user="NE3" changeset="8520254">
    <nd ref="40125143"/>
    <nd ref="442201647"/>
    <nd ref="442201648"/>
    <nd ref="442201651"/>
    <nd ref="442201654"/>
    <nd ref="442201657"/>
    <nd ref="442201655"/>
    <nd ref="442201652"/>
    <nd ref="40125145"/>
    <nd ref="40125148"/>
    <tag k="highway" v="trunk"/>
    <tag k="lanes" v="2"/>
    <tag k="name" v="Southside Expressway"/>
    <tag k="name_2" v="Johns Ave"/>
    <tag k="ref" v="OR 140"/>
    <tag k="tiger:cfcc" v="A31"/>
    <tag k="tiger:county" v="Klamath, OR"/>
    <tag k="tiger:name_base" v="Southside"/>
    <tag k="tiger:name_base_1" v="State Highway 140"/>
    <tag k="tiger:name_base_2" v="Johns"/>
    <tag k="tiger:name_type" v="Expy"/>
    <tag k="tiger:name_type_2" v="Ave"/>
    <tag k="tiger:separated" v="no"/>
    <tag k="tiger:source" v="tiger_import_dch_v0.6_20070808"/>
    <tag k="tiger:tlid" v="156661056:156698883:156707659:156707660:156697611:156697613:156697615:156700145:156700146:156700147:156697618:156697620"/>
    <tag k="tiger:zip_left" v="97603"/>
    <tag k="tiger:zip_right" v="97603"/>
  </way>
  <way id="37710094" version="9" timestamp="2011-07-19T21:38:52Z" uid="473471" user="NE3" changeset="8773162">
    <nd ref="40125143"/>
    <nd ref="442201647"/>
    <nd ref="442201648"/>
    <nd ref="442201651"/>
    <nd ref="442201654"/>
    <nd ref="442201657"/>
    <nd ref="442201655"/>
    <nd ref="442201652"/>
    <nd ref="40125145"/>
    <nd ref="40125148"/>
    <tag k="NHS" v="yes"/>
    <tag k="highway" v="trunk"/>
    <tag k="lanes" v="2"/>
    <tag k="name" v="Southside Expressway"/>
    <tag k="name_2" v="Johns Ave"/>
    <tag k="ref" v="OR 140"/>
    <tag k="tiger:cfcc" v="A31"/>
    <tag k="tiger:county" v="Klamath, OR"/>
    <tag k="tiger:name_base" v="Southside"/>
    <tag k="tiger:name_base_1" v="State Highway 140"/>
    <tag k="tiger:name_base_2" v="Johns"/>
    <tag k="tiger:name_type" v="Expy"/>
    <tag k="tiger:name_type_2" v="Ave"/>
    <tag k="tiger:separated" v="no"/>
    <tag k="tiger:source" v="tiger_import_dch_v0.6_20070808"/>
    <tag k="tiger:tlid" v="156661056:156698883:156707659:156707660:156697611:156697613:156697615:156700145:156700146:156700147:156697618:156697620"/>
    <tag k="tiger:zip_left" v="97603"/>
    <tag k="tiger:zip_right" v="97603"/>
  </way>
  <way id="37710094" version="10" timestamp="2011-11-25T17:30:37Z" uid="207745" user="NE2" changeset="9945867">
    <nd ref="40125143"/>
    <nd ref="442201647"/>
    <nd ref="442201648"/>
    <nd ref="442201651"/>
    <nd ref="442201654"/>
    <nd ref="442201657"/>
    <nd ref="442201655"/>
    <nd ref="442201652"/>
    <nd ref="40125145"/>
    <nd ref="40125148"/>
    <tag k="NHS" v="yes"/>
    <tag k="hgv" v="designated"/>
    <tag k="hgv:national_network" v="yes"/>
    <tag k="highway" v="trunk"/>
    <tag k="lanes" v="2"/>
    <tag k="name" v="Southside Expressway"/>
    <tag k="name_2" v="Johns Ave"/>
    <tag k="ref" v="OR 140"/>
    <tag k="source:hgv:national_network" v="Title 23: Highways Part 658 http://ecfr.gpoaccess.gov/cgi/t/text/text-idx?c=ecfr&amp;rgn=div5&amp;view=text&amp;node=23:1.0.1.7.33&amp;idno=23"/>
    <tag k="tiger:cfcc" v="A31"/>
    <tag k="tiger:county" v="Klamath, OR"/>
    <tag k="tiger:name_base" v="Southside"/>
    <tag k="tiger:name_base_1" v="State Highway 140"/>
    <tag k="tiger:name_base_2" v="Johns"/>
    <tag k="tiger:name_type" v="Expy"/>
    <tag k="tiger:name_type_2" v="Ave"/>
    <tag k="tiger:separated" v="no"/>
    <tag k="tiger:source" v="tiger_import_dch_v0.6_20070808"/>
    <tag k="tiger:tlid" v="156661056:156698883:156707659:156707660:156697611:156697613:156697615:156700145:156700146:156700147:156697618:156697620"/>
    <tag k="tiger:zip_left" v="97603"/>
    <tag k="tiger:zip_right" v="97603"/>
  </way>
  <way id="37710095" version="4" timestamp="2010-03-22T06:33:10Z" uid="20587" user="balrog-kun" changeset="4199043">
    <nd ref="40087546"/>
    <nd ref="40087548"/>
    <tag k="bridge" v="yes"/>
    <tag k="highway" v="primary"/>
    <tag k="layer" v="1"/>
    <tag k="name" v="The Dalles-California Highway"/>
    <tag k="ref" v="US 97"/>
    <tag k="source" v="Yahoo image"/>
  </way>
  <way id="37710095" version="5" timestamp="2011-06-15T12:32:13Z" uid="207745" user="NE2" changeset="8446347">
    <nd ref="40087546"/>
    <nd ref="40087548"/>
    <tag k="bridge" v="yes"/>
    <tag k="highway" v="trunk"/>
    <tag k="lanes" v="2"/>
    <tag k="layer" v="1"/>
    <tag k="name" v="The Dalles-California Highway"/>
    <tag k="ref" v="US 97"/>
    <tag k="source" v="Yahoo image"/>
  </way>
  <way id="37710095" version="6" timestamp="2011-07-06T23:36:55Z" uid="473471" user="NE3" changeset="8653193">
    <nd ref="40087546"/>
    <nd ref="40087548"/>
    <tag k="NHS" v="yes"/>
    <tag k="bridge" v="yes"/>
    <tag k="highway" v="trunk"/>
    <tag k="lanes" v="2"/>
    <tag k="layer" v="1"/>
    <tag k="name" v="The Dalles-California Highway"/>
    <tag k="ref" v="US 97"/>
    <tag k="source" v="Yahoo image"/>
  </way>
  <way id="37710095" version="7" timestamp="2011-11-25T17:38:09Z" uid="207745" user="NE2" changeset="9945867">
    <nd ref="40087546"/>
    <nd ref="40087548"/>
    <tag k="NHS" v="yes"/>
    <tag k="bridge" v="yes"/>
    <tag k="hgv" v="designated"/>
    <tag k="hgv:national_network" v="yes"/>
    <tag k="highway" v="trunk"/>
    <tag k="lanes" v="2"/>
    <tag k="layer" v="1"/>
    <tag k="name" v="The Dalles-California Highway"/>
    <tag k="ref" v="US 97"/>
    <tag k="source" v="Yahoo image"/>
    <tag k="source:hgv:national_network" v="Title 23: Highways Part 658 http://ecfr.gpoaccess.gov/cgi/t/text/text-idx?c=ecfr&amp;rgn=div5&amp;view=text&amp;node=23:1.0.1.7.33&amp;idno=23"/>
  </way>
  <way id="37710096" version="4" timestamp="2010-03-22T06:33:10Z" uid="20587" user="balrog-kun" changeset="4199043">
    <nd ref="40087548"/>
    <nd ref="40087550"/>
    <nd ref="40087553"/>
    <nd ref="40087555"/>
    <nd ref="40087557"/>
    <nd ref="40087559"/>
    <nd ref="40087562"/>
    <tag k="highway" v="primary"/>
    <tag k="name" v="The Dalles-California Highway"/>
    <tag k="ref" v="US 97"/>
    <tag k="source" v="Yahoo image"/>
  </way>
  <way id="37710096" version="5" timestamp="2011-06-15T12:36:55Z" uid="207745" user="NE2" changeset="8446347">
    <nd ref="40087548"/>
    <nd ref="40087550"/>
    <nd ref="40087553"/>
    <nd ref="40087555"/>
    <nd ref="40087557"/>
    <nd ref="40087559"/>
    <nd ref="40087562"/>
    <tag k="highway" v="trunk"/>
    <tag k="lanes" v="2"/>
    <tag k="name" v="The Dalles-California Highway"/>
    <tag k="ref" v="US 97"/>
    <tag k="source" v="Yahoo image"/>
  </way>
  <way id="37710096" version="6" timestamp="2011-07-06T23:37:26Z" uid="473471" user="NE3" changeset="8653193">
    <nd ref="40087548"/>
    <nd ref="40087550"/>
    <nd ref="40087553"/>
    <nd ref="40087555"/>
    <nd ref="40087557"/>
    <nd ref="40087559"/>
    <nd ref="40087562"/>
    <tag k="NHS" v="yes"/>
    <tag k="highway" v="trunk"/>
    <tag k="lanes" v="2"/>
    <tag k="name" v="The Dalles-California Highway"/>
    <tag k="ref" v="US 97"/>
    <tag k="source" v="Yahoo image"/>
  </way>
  <way id="37710096" version="7" timestamp="2011-11-25T17:39:59Z" uid="207745" user="NE2" changeset="9945867">
    <nd ref="40087548"/>
    <nd ref="40087550"/>
    <nd ref="40087553"/>
    <nd ref="40087555"/>
    <nd ref="40087557"/>
    <nd ref="40087559"/>
    <nd ref="40087562"/>
    <tag k="NHS" v="yes"/>
    <tag k="hgv" v="designated"/>
    <tag k="hgv:national_network" v="yes"/>
    <tag k="highway" v="trunk"/>
    <tag k="lanes" v="2"/>
    <tag k="name" v="The Dalles-California Highway"/>
    <tag k="ref" v="US 97"/>
    <tag k="source" v="Yahoo image"/>
    <tag k="source:hgv:national_network" v="Title 23: Highways Part 658 http://ecfr.gpoaccess.gov/cgi/t/text/text-idx?c=ecfr&amp;rgn=div5&amp;view=text&amp;node=23:1.0.1.7.33&amp;idno=23"/>
  </way>
  <way id="37710096" version="8" timestamp="2012-01-01T02:48:33Z" uid="92286" user="Paul Johnson" changeset="10259049">
    <nd ref="40087548"/>
    <nd ref="1572277698"/>
    <tag k="NHS" v="yes"/>
    <tag k="hgv" v="designated"/>
    <tag k="hgv:national_network" v="yes"/>
    <tag k="highway" v="trunk"/>
    <tag k="lanes" v="2"/>
    <tag k="name" v="The Dalles-California Highway"/>
    <tag k="ref" v="US 97"/>
    <tag k="source" v="Yahoo image"/>
    <tag k="source:hgv:national_network" v="Title 23: Highways Part 658 http://ecfr.gpoaccess.gov/cgi/t/text/text-idx?c=ecfr&amp;rgn=div5&amp;view=text&amp;node=23:1.0.1.7.33&amp;idno=23"/>
  </way>
  <way id="37710097" version="3" timestamp="2010-03-22T06:33:10Z" uid="20587" user="balrog-kun" changeset="4199043">
    <nd ref="40087562"/>
    <nd ref="40087572"/>
    <tag k="bridge" v="yes"/>
    <tag k="created_by" v="Potlatch 0.10f"/>
    <tag k="highway" v="primary"/>
    <tag k="layer" v="1"/>
    <tag k="name" v="The Dalles-California Highway"/>
    <tag k="ref" v="US 97"/>
  </way>
  <way id="37710097" version="4" timestamp="2011-06-15T12:31:07Z" uid="207745" user="NE2" changeset="8446347">
    <nd ref="40087562"/>
    <nd ref="40087572"/>
    <tag k="bridge" v="yes"/>
    <tag k="highway" v="trunk"/>
    <tag k="lanes" v="2"/>
    <tag k="layer" v="1"/>
    <tag k="name" v="The Dalles-California Highway"/>
    <tag k="ref" v="US 97"/>
  </way>
  <way id="37710097" version="5" timestamp="2011-07-06T23:36:52Z" uid="473471" user="NE3" changeset="8653193">
    <nd ref="40087562"/>
    <nd ref="40087572"/>
    <tag k="NHS" v="yes"/>
    <tag k="bridge" v="yes"/>
    <tag k="highway" v="trunk"/>
    <tag k="lanes" v="2"/>
    <tag k="layer" v="1"/>
    <tag k="name" v="The Dalles-California Highway"/>
    <tag k="ref" v="US 97"/>
  </way>
  <way id="37710097" version="6" timestamp="2011-11-25T17:38:24Z" uid="207745" user="NE2" changeset="9945867">
    <nd ref="40087562"/>
    <nd ref="40087572"/>
    <tag k="NHS" v="yes"/>
    <tag k="bridge" v="yes"/>
    <tag k="hgv" v="designated"/>
    <tag k="hgv:national_network" v="yes"/>
    <tag k="highway" v="trunk"/>
    <tag k="lanes" v="2"/>
    <tag k="layer" v="1"/>
    <tag k="name" v="The Dalles-California Highway"/>
    <tag k="ref" v="US 97"/>
    <tag k="source:hgv:national_network" v="Title 23: Highways Part 658 http://ecfr.gpoaccess.gov/cgi/t/text/text-idx?c=ecfr&amp;rgn=div5&amp;view=text&amp;node=23:1.0.1.7.33&amp;idno=23"/>
  </way>
  <way id="37710097" version="7" timestamp="2012-01-01T02:48:34Z" uid="92286" user="Paul Johnson" changeset="10259049">
    <nd ref="40087562"/>
    <nd ref="40087572"/>
    <tag k="NHS" v="yes"/>
    <tag k="bridge" v="yes"/>
    <tag k="hgv" v="designated"/>
    <tag k="hgv:national_network" v="yes"/>
    <tag k="highway" v="trunk"/>
    <tag k="lanes" v="2"/>
    <tag k="name" v="The Dalles-California Highway"/>
    <tag k="ref" v="US 97"/>
    <tag k="source:hgv:national_network" v="Title 23: Highways Part 658 http://ecfr.gpoaccess.gov/cgi/t/text/text-idx?c=ecfr&amp;rgn=div5&amp;view=text&amp;node=23:1.0.1.7.33&amp;idno=23"/>
  </way>
  <way id="37710098" version="3" timestamp="2010-03-22T06:33:10Z" uid="20587" user="balrog-kun" changeset="4199043">
    <nd ref="40087572"/>
    <nd ref="40087576"/>
    <tag k="created_by" v="Potlatch 0.10f"/>
    <tag k="highway" v="primary"/>
    <tag k="name" v="The Dalles-California Highway"/>
    <tag k="ref" v="US 97"/>
  </way>
  <way id="37710098" version="4" timestamp="2011-06-15T11:48:37Z" uid="207745" user="NE2" changeset="8446347">
    <nd ref="40087572"/>
    <nd ref="40087576"/>
    <tag k="highway" v="trunk"/>
    <tag k="lanes" v="2"/>
    <tag k="name" v="The Dalles-California Highway"/>
    <tag k="ref" v="US 97"/>
  </way>
  <way id="37710098" version="5" timestamp="2011-07-06T23:36:46Z" uid="473471" user="NE3" changeset="8653193">
    <nd ref="40087572"/>
    <nd ref="40087576"/>
    <tag k="NHS" v="yes"/>
    <tag k="highway" v="trunk"/>
    <tag k="lanes" v="2"/>
    <tag k="name" v="The Dalles-California Highway"/>
    <tag k="ref" v="US 97"/>
  </way>
  <way id="37710098" version="6" timestamp="2011-11-25T17:38:45Z" uid="207745" user="NE2" changeset="9945867">
    <nd ref="40087572"/>
    <nd ref="40087576"/>
    <tag k="NHS" v="yes"/>
    <tag k="hgv" v="designated"/>
    <tag k="hgv:national_network" v="yes"/>
    <tag k="highway" v="trunk"/>
    <tag k="lanes" v="2"/>
    <tag k="name" v="The Dalles-California Highway"/>
    <tag k="ref" v="US 97"/>
    <tag k="source:hgv:national_network" v="Title 23: Highways Part 658 http://ecfr.gpoaccess.gov/cgi/t/text/text-idx?c=ecfr&amp;rgn=div5&amp;view=text&amp;node=23:1.0.1.7.33&amp;idno=23"/>
  </way>
  <way id="37710098" version="7" timestamp="2012-01-01T02:48:39Z" uid="92286" user="Paul Johnson" changeset="10259049">
    <nd ref="40087572"/>
    <nd ref="1572277715"/>
    <nd ref="1572277720"/>
    <tag k="NHS" v="yes"/>
    <tag k="hgv" v="designated"/>
    <tag k="hgv:national_network" v="yes"/>
    <tag k="highway" v="trunk"/>
    <tag k="lanes" v="2"/>
    <tag k="name" v="The Dalles-California Highway"/>
    <tag k="ref" v="US 97"/>
    <tag k="source:hgv:national_network" v="Title 23: Highways Part 658 http://ecfr.gpoaccess.gov/cgi/t/text/text-idx?c=ecfr&amp;rgn=div5&amp;view=text&amp;node=23:1.0.1.7.33&amp;idno=23"/>
  </way>
  <way id="37710102" version="3" timestamp="2010-03-22T06:33:10Z" uid="20587" user="balrog-kun" changeset="4199043">
    <nd ref="442268319"/>
    <nd ref="442268321"/>
    <nd ref="442268323"/>
    <nd ref="442268324"/>
    <nd ref="442201692"/>
    <nd ref="442201717"/>
    <tag k="bridge" v="yes"/>
    <tag k="highway" v="trunk"/>
    <tag k="layer" v="1"/>
    <tag k="name" v="The Dalles-California Highway"/>
    <tag k="ref" v="US 97"/>
  </way>
  <way id="37710102" version="4" timestamp="2010-08-15T19:57:41Z" uid="63936" user="MojaveNC" changeset="5503756">
    <nd ref="442268319"/>
    <nd ref="442268321"/>
    <nd ref="442268323"/>
    <nd ref="442268324"/>
    <nd ref="442201692"/>
    <nd ref="442201717"/>
    <tag k="bridge" v="yes"/>
    <tag k="highway" v="motorway"/>
    <tag k="layer" v="1"/>
    <tag k="name" v="The Dalles-California Highway"/>
    <tag k="ref" v="US 97"/>
  </way>
  <way id="37710102" version="5" timestamp="2011-06-26T17:23:21Z" uid="473471" user="NE3" changeset="8553918">
    <nd ref="442268319"/>
    <nd ref="442268321"/>
    <nd ref="442268323"/>
    <nd ref="442268324"/>
    <nd ref="442201692"/>
    <nd ref="442201717"/>
    <tag k="FIXME" v="not dual carriageway"/>
    <tag k="bridge" v="yes"/>
    <tag k="highway" v="motorway"/>
    <tag k="lanes" v="1"/>
    <tag k="layer" v="1"/>
    <tag k="name" v="The Dalles-California Highway"/>
    <tag k="ref" v="US 97"/>
  </way>
  <way id="37710102" version="6" timestamp="2011-07-06T23:37:23Z" uid="473471" user="NE3" changeset="8653193">
    <nd ref="442268319"/>
    <nd ref="442268321"/>
    <nd ref="442268323"/>
    <nd ref="442268324"/>
    <nd ref="442201692"/>
    <nd ref="442201717"/>
    <tag k="FIXME" v="not dual carriageway"/>
    <tag k="NHS" v="yes"/>
    <tag k="bridge" v="yes"/>
    <tag k="highway" v="motorway"/>
    <tag k="lanes" v="1"/>
    <tag k="layer" v="1"/>
    <tag k="name" v="The Dalles-California Highway"/>
    <tag k="ref" v="US 97"/>
  </way>
  <way id="37710102" version="7" timestamp="2011-11-25T17:39:54Z" uid="207745" user="NE2" changeset="9945867">
    <nd ref="442268319"/>
    <nd ref="442268321"/>
    <nd ref="442268323"/>
    <nd ref="442268324"/>
    <nd ref="442201692"/>
    <nd ref="442201717"/>
    <tag k="FIXME" v="not dual carriageway"/>
    <tag k="NHS" v="yes"/>
    <tag k="bridge" v="yes"/>
    <tag k="hgv" v="designated"/>
    <tag k="hgv:national_network" v="yes"/>
    <tag k="highway" v="motorway"/>
    <tag k="lanes" v="1"/>
    <tag k="layer" v="1"/>
    <tag k="name" v="The Dalles-California Highway"/>
    <tag k="oneway" v="yes"/>
    <tag k="ref" v="US 97"/>
    <tag k="source:hgv:national_network" v="Title 23: Highways Part 658 http://ecfr.gpoaccess.gov/cgi/t/text/text-idx?c=ecfr&amp;rgn=div5&amp;view=text&amp;node=23:1.0.1.7.33&amp;idno=23"/>
  </way>
  <way id="37710102" version="8" timestamp="2012-01-01T02:48:45Z" uid="92286" user="Paul Johnson" changeset="10259049">
    <nd ref="442268319"/>
    <nd ref="442268321"/>
    <nd ref="442268323"/>
    <nd ref="442268324"/>
    <nd ref="1572277862"/>
    <nd ref="442201692"/>
    <nd ref="442201717"/>
    <tag k="NHS" v="yes"/>
    <tag k="bridge" v="yes"/>
    <tag k="hgv" v="designated"/>
    <tag k="hgv:national_network" v="yes"/>
    <tag k="highway" v="trunk"/>
    <tag k="lanes" v="2"/>
    <tag k="name" v="The Dalles-California Highway"/>
    <tag k="ref" v="US 97"/>
    <tag k="source:hgv:national_network" v="Title 23: Highways Part 658 http://ecfr.gpoaccess.gov/cgi/t/text/text-idx?c=ecfr&amp;rgn=div5&amp;view=text&amp;node=23:1.0.1.7.33&amp;idno=23"/>
  </way>
  <way id="37710103" version="3" timestamp="2010-03-22T06:33:11Z" uid="20587" user="balrog-kun" changeset="4199043">
    <nd ref="40087655"/>
    <nd ref="442201640"/>
    <nd ref="40087667"/>
    <tag k="bridge" v="yes"/>
    <tag k="created_by" v="Potlatch 0.10f"/>
    <tag k="highway" v="trunk"/>
    <tag k="layer" v="1"/>
    <tag k="name" v="The Dalles-California Highway"/>
    <tag k="ref" v="US 97"/>
  </way>
  <way id="37710103" version="4" timestamp="2010-08-15T19:57:37Z" uid="63936" user="MojaveNC" changeset="5503756">
    <nd ref="40087655"/>
    <nd ref="442201640"/>
    <nd ref="40087667"/>
    <tag k="bridge" v="yes"/>
    <tag k="created_by" v="Potlatch 0.10f"/>
    <tag k="highway" v="motorway"/>
    <tag k="layer" v="1"/>
    <tag k="name" v="The Dalles-California Highway"/>
    <tag k="ref" v="US 97"/>
  </way>
  <way id="37710103" version="5" timestamp="2010-12-10T22:44:44Z" uid="373763" user="ylekot" changeset="6611865">
    <nd ref="40087655"/>
    <nd ref="442201640"/>
    <nd ref="40087667"/>
    <tag k="bridge" v="yes"/>
    <tag k="highway" v="motorway"/>
    <tag k="layer" v="1"/>
    <tag k="name" v="The Dalles-California Highway"/>
    <tag k="oneway" v="yes"/>
    <tag k="ref" v="US 97"/>
  </way>
  <way id="37710103" version="6" timestamp="2011-06-26T17:21:13Z" uid="473471" user="NE3" changeset="8553918">
    <nd ref="40087655"/>
    <nd ref="442201640"/>
    <nd ref="40087667"/>
    <tag k="bridge" v="yes"/>
    <tag k="highway" v="motorway"/>
    <tag k="lanes" v="2"/>
    <tag k="layer" v="1"/>
    <tag k="name" v="The Dalles-California Highway"/>
    <tag k="oneway" v="yes"/>
    <tag k="ref" v="US 97"/>
  </way>
  <way id="37710103" version="7" timestamp="2011-07-06T23:37:05Z" uid="473471" user="NE3" changeset="8653193">
    <nd ref="40087655"/>
    <nd ref="442201640"/>
    <nd ref="40087667"/>
    <tag k="NHS" v="yes"/>
    <tag k="bridge" v="yes"/>
    <tag k="highway" v="motorway"/>
    <tag k="lanes" v="2"/>
    <tag k="layer" v="1"/>
    <tag k="name" v="The Dalles-California Highway"/>
    <tag k="oneway" v="yes"/>
    <tag k="ref" v="US 97"/>
  </way>
  <way id="37710103" version="8" timestamp="2011-11-25T17:39:13Z" uid="207745" user="NE2" changeset="9945867">
    <nd ref="40087655"/>
    <nd ref="442201640"/>
    <nd ref="40087667"/>
    <tag k="NHS" v="yes"/>
    <tag k="bridge" v="yes"/>
    <tag k="hgv" v="designated"/>
    <tag k="hgv:national_network" v="yes"/>
    <tag k="highway" v="motorway"/>
    <tag k="lanes" v="2"/>
    <tag k="layer" v="1"/>
    <tag k="name" v="The Dalles-California Highway"/>
    <tag k="oneway" v="yes"/>
    <tag k="ref" v="US 97"/>
    <tag k="source:hgv:national_network" v="Title 23: Highways Part 658 http://ecfr.gpoaccess.gov/cgi/t/text/text-idx?c=ecfr&amp;rgn=div5&amp;view=text&amp;node=23:1.0.1.7.33&amp;idno=23"/>
  </way>
  <way id="37710103" version="9" timestamp="2012-01-01T02:49:20Z" uid="92286" user="Paul Johnson" changeset="10259049"/>
  <way id="37710104" version="3" timestamp="2010-03-22T06:33:11Z" uid="20587" user="balrog-kun" changeset="4199043">
    <nd ref="40087667"/>
    <nd ref="442201638"/>
    <nd ref="40087670"/>
    <nd ref="40087678"/>
    <nd ref="40087681"/>
    <nd ref="442201679"/>
    <nd ref="442201680"/>
    <nd ref="40087686"/>
    <tag k="created_by" v="Potlatch 0.10f"/>
    <tag k="highway" v="trunk"/>
    <tag k="name" v="The Dalles-California Highway"/>
    <tag k="ref" v="US 97"/>
  </way>
  <way id="37710104" version="4" timestamp="2010-08-15T19:57:39Z" uid="63936" user="MojaveNC" changeset="5503756">
    <nd ref="40087667"/>
    <nd ref="442201638"/>
    <nd ref="40087670"/>
    <nd ref="40087678"/>
    <nd ref="40087681"/>
    <nd ref="442201679"/>
    <nd ref="442201680"/>
    <nd ref="40087686"/>
    <tag k="created_by" v="Potlatch 0.10f"/>
    <tag k="highway" v="motorway"/>
    <tag k="name" v="The Dalles-California Highway"/>
    <tag k="ref" v="US 97"/>
  </way>
  <way id="37710104" version="5" timestamp="2010-12-10T22:44:41Z" uid="373763" user="ylekot" changeset="6611865">
    <nd ref="40087667"/>
    <nd ref="442201638"/>
    <nd ref="40087670"/>
    <nd ref="40087678"/>
    <nd ref="40087681"/>
    <nd ref="442201679"/>
    <nd ref="442201680"/>
    <nd ref="40087686"/>
    <tag k="highway" v="motorway"/>
    <tag k="name" v="The Dalles-California Highway"/>
    <tag k="oneway" v="yes"/>
    <tag k="ref" v="US 97"/>
  </way>
  <way id="37710104" version="6" timestamp="2011-06-26T17:23:03Z" uid="473471" user="NE3" changeset="8553918">
    <nd ref="40087667"/>
    <nd ref="442201638"/>
    <nd ref="40087670"/>
    <nd ref="40087678"/>
    <nd ref="40087681"/>
    <nd ref="442201679"/>
    <tag k="highway" v="motorway"/>
    <tag k="lanes" v="2"/>
    <tag k="name" v="The Dalles-California Highway"/>
    <tag k="oneway" v="yes"/>
    <tag k="ref" v="US 97"/>
  </way>
  <way id="37710104" version="7" timestamp="2011-07-06T23:37:23Z" uid="473471" user="NE3" changeset="8653193">
    <nd ref="40087667"/>
    <nd ref="442201638"/>
    <nd ref="40087670"/>
    <nd ref="40087678"/>
    <nd ref="40087681"/>
    <nd ref="442201679"/>
    <tag k="NHS" v="yes"/>
    <tag k="highway" v="motorway"/>
    <tag k="lanes" v="2"/>
    <tag k="name" v="The Dalles-California Highway"/>
    <tag k="oneway" v="yes"/>
    <tag k="ref" v="US 97"/>
  </way>
  <way id="37710104" version="8" timestamp="2011-11-25T17:39:56Z" uid="207745" user="NE2" changeset="9945867">
    <nd ref="40087667"/>
    <nd ref="442201638"/>
    <nd ref="40087670"/>
    <nd ref="40087678"/>
    <nd ref="40087681"/>
    <nd ref="442201679"/>
    <tag k="NHS" v="yes"/>
    <tag k="hgv" v="designated"/>
    <tag k="hgv:national_network" v="yes"/>
    <tag k="highway" v="motorway"/>
    <tag k="lanes" v="2"/>
    <tag k="name" v="The Dalles-California Highway"/>
    <tag k="oneway" v="yes"/>
    <tag k="ref" v="US 97"/>
    <tag k="source:hgv:national_network" v="Title 23: Highways Part 658 http://ecfr.gpoaccess.gov/cgi/t/text/text-idx?c=ecfr&amp;rgn=div5&amp;view=text&amp;node=23:1.0.1.7.33&amp;idno=23"/>
  </way>
  <way id="37710104" version="9" timestamp="2012-01-01T02:49:20Z" uid="92286" user="Paul Johnson" changeset="10259049"/>
  <way id="37710105" version="3" timestamp="2010-03-22T06:33:11Z" uid="20587" user="balrog-kun" changeset="4199043">
    <nd ref="442201727"/>
    <nd ref="442201729"/>
    <nd ref="442201731"/>
    <tag k="bridge" v="yes"/>
    <tag k="highway" v="trunk"/>
    <tag k="layer" v="1"/>
    <tag k="name" v="The Dalles-California Highway"/>
    <tag k="ref" v="US 97"/>
  </way>
  <way id="37710105" version="4" timestamp="2010-08-15T19:57:37Z" uid="63936" user="MojaveNC" changeset="5503756">
    <nd ref="442201727"/>
    <nd ref="442201729"/>
    <nd ref="442201731"/>
    <tag k="bridge" v="yes"/>
    <tag k="highway" v="motorway"/>
    <tag k="layer" v="1"/>
    <tag k="name" v="The Dalles-California Highway"/>
    <tag k="ref" v="US 97"/>
  </way>
  <way id="37710105" version="5" timestamp="2010-12-10T22:44:42Z" uid="373763" user="ylekot" changeset="6611865">
    <nd ref="442201727"/>
    <nd ref="442201729"/>
    <nd ref="442201731"/>
    <tag k="bridge" v="yes"/>
    <tag k="highway" v="motorway"/>
    <tag k="layer" v="1"/>
    <tag k="name" v="The Dalles-California Highway"/>
    <tag k="oneway" v="yes"/>
    <tag k="ref" v="US 97"/>
  </way>
  <way id="37710105" version="6" timestamp="2011-06-26T17:20:54Z" uid="473471" user="NE3" changeset="8553918">
    <nd ref="442201727"/>
    <nd ref="442201729"/>
    <nd ref="442201731"/>
    <tag k="bridge" v="yes"/>
    <tag k="highway" v="motorway"/>
    <tag k="lanes" v="2"/>
    <tag k="layer" v="1"/>
    <tag k="name" v="The Dalles-California Highway"/>
    <tag k="oneway" v="yes"/>
    <tag k="ref" v="US 97"/>
  </way>
  <way id="37710105" version="7" timestamp="2011-07-06T23:37:04Z" uid="473471" user="NE3" changeset="8653193">
    <nd ref="442201727"/>
    <nd ref="442201729"/>
    <nd ref="442201731"/>
    <tag k="NHS" v="yes"/>
    <tag k="bridge" v="yes"/>
    <tag k="highway" v="motorway"/>
    <tag k="lanes" v="2"/>
    <tag k="layer" v="1"/>
    <tag k="name" v="The Dalles-California Highway"/>
    <tag k="oneway" v="yes"/>
    <tag k="ref" v="US 97"/>
  </way>
  <way id="37710105" version="8" timestamp="2011-11-25T17:39:13Z" uid="207745" user="NE2" changeset="9945867">
    <nd ref="442201727"/>
    <nd ref="442201729"/>
    <nd ref="442201731"/>
    <tag k="NHS" v="yes"/>
    <tag k="bridge" v="yes"/>
    <tag k="hgv" v="designated"/>
    <tag k="hgv:national_network" v="yes"/>
    <tag k="highway" v="motorway"/>
    <tag k="lanes" v="2"/>
    <tag k="layer" v="1"/>
    <tag k="name" v="The Dalles-California Highway"/>
    <tag k="oneway" v="yes"/>
    <tag k="ref" v="US 97"/>
    <tag k="source:hgv:national_network" v="Title 23: Highways Part 658 http://ecfr.gpoaccess.gov/cgi/t/text/text-idx?c=ecfr&amp;rgn=div5&amp;view=text&amp;node=23:1.0.1.7.33&amp;idno=23"/>
  </way>
  <way id="37710105" version="9" timestamp="2012-01-01T02:49:19Z" uid="92286" user="Paul Johnson" changeset="10259049"/>
  <way id="37710106" version="3" timestamp="2010-03-22T06:33:11Z" uid="20587" user="balrog-kun" changeset="4199043">
    <nd ref="442201731"/>
    <nd ref="442201733"/>
    <nd ref="442201747"/>
    <nd ref="442201735"/>
    <tag k="highway" v="trunk"/>
    <tag k="name" v="The Dalles-California Highway"/>
    <tag k="ref" v="US 97"/>
  </way>
  <way id="37710106" version="4" timestamp="2010-08-15T19:57:32Z" uid="63936" user="MojaveNC" changeset="5503756">
    <nd ref="442201731"/>
    <nd ref="442201733"/>
    <nd ref="442201747"/>
    <nd ref="442201735"/>
    <tag k="highway" v="motorway"/>
    <tag k="name" v="The Dalles-California Highway"/>
    <tag k="ref" v="US 97"/>
  </way>
  <way id="37710106" version="5" timestamp="2010-12-10T22:44:43Z" uid="373763" user="ylekot" changeset="6611865">
    <nd ref="442201731"/>
    <nd ref="442201733"/>
    <nd ref="442201747"/>
    <nd ref="442201735"/>
    <tag k="highway" v="motorway"/>
    <tag k="name" v="The Dalles-California Highway"/>
    <tag k="oneway" v="yes"/>
    <tag k="ref" v="US 97"/>
  </way>
  <way id="37710106" version="6" timestamp="2011-06-26T17:14:23Z" uid="473471" user="NE3" changeset="8553918">
    <nd ref="442201731"/>
    <nd ref="442201733"/>
    <nd ref="442201747"/>
    <nd ref="442201735"/>
    <tag k="highway" v="motorway"/>
    <tag k="lanes" v="2"/>
    <tag k="name" v="The Dalles-California Highway"/>
    <tag k="oneway" v="yes"/>
    <tag k="ref" v="US 97"/>
  </way>
  <way id="37710106" version="7" timestamp="2011-07-06T23:37:14Z" uid="473471" user="NE3" changeset="8653193">
    <nd ref="442201731"/>
    <nd ref="442201733"/>
    <nd ref="442201747"/>
    <nd ref="442201735"/>
    <tag k="NHS" v="yes"/>
    <tag k="highway" v="motorway"/>
    <tag k="lanes" v="2"/>
    <tag k="name" v="The Dalles-California Highway"/>
    <tag k="oneway" v="yes"/>
    <tag k="ref" v="US 97"/>
  </way>
  <way id="37710106" version="8" timestamp="2011-11-25T17:39:25Z" uid="207745" user="NE2" changeset="9945867">
    <nd ref="442201731"/>
    <nd ref="442201733"/>
    <nd ref="442201747"/>
    <nd ref="442201735"/>
    <tag k="NHS" v="yes"/>
    <tag k="hgv" v="designated"/>
    <tag k="hgv:national_network" v="yes"/>
    <tag k="highway" v="motorway"/>
    <tag k="lanes" v="2"/>
    <tag k="name" v="The Dalles-California Highway"/>
    <tag k="oneway" v="yes"/>
    <tag k="ref" v="US 97"/>
    <tag k="source:hgv:national_network" v="Title 23: Highways Part 658 http://ecfr.gpoaccess.gov/cgi/t/text/text-idx?c=ecfr&amp;rgn=div5&amp;view=text&amp;node=23:1.0.1.7.33&amp;idno=23"/>
  </way>
  <way id="37710106" version="9" timestamp="2012-01-01T02:49:21Z" uid="92286" user="Paul Johnson" changeset="10259049"/>
  <way id="37710107" version="2" timestamp="2010-03-22T06:33:11Z" uid="20587" user="balrog-kun" changeset="4199043">
    <nd ref="442201743"/>
    <nd ref="442201745"/>
    <tag k="bridge" v="yes"/>
    <tag k="highway" v="residential"/>
    <tag k="layer" v="1"/>
    <tag k="name" v="Riverside Drive"/>
    <tag k="tiger:cfcc" v="A41"/>
    <tag k="tiger:county" v="Klamath, OR"/>
    <tag k="tiger:name_base" v="Riverside"/>
    <tag k="tiger:name_type" v="Dr"/>
    <tag k="tiger:reviewed" v="no"/>
    <tag k="tiger:separated" v="no"/>
    <tag k="tiger:source" v="tiger_import_dch_v0.6_20070808"/>
    <tag k="tiger:tlid" v="156659609:156657832:156657837:156657847:156657854:156706224:156706225:156658709:156657868:156657886:156658711:156657858"/>
    <tag k="tiger:zip_left" v="97601"/>
    <tag k="tiger:zip_right" v="97601"/>
  </way>
  <way id="37710108" version="2" timestamp="2010-03-22T06:33:12Z" uid="20587" user="balrog-kun" changeset="4199043">
    <nd ref="442201745"/>
    <nd ref="442201742"/>
    <nd ref="442201746"/>
    <nd ref="40088974"/>
    <nd ref="40202438"/>
    <nd ref="40057874"/>
    <nd ref="40202444"/>
    <nd ref="40162631"/>
    <nd ref="40097116"/>
    <nd ref="40202451"/>
    <nd ref="40202454"/>
    <nd ref="40202458"/>
    <nd ref="40047055"/>
    <tag k="highway" v="residential"/>
    <tag k="name" v="Riverside Drive"/>
    <tag k="tiger:cfcc" v="A41"/>
    <tag k="tiger:county" v="Klamath, OR"/>
    <tag k="tiger:name_base" v="Riverside"/>
    <tag k="tiger:name_type" v="Dr"/>
    <tag k="tiger:reviewed" v="no"/>
    <tag k="tiger:separated" v="no"/>
    <tag k="tiger:source" v="tiger_import_dch_v0.6_20070808"/>
    <tag k="tiger:tlid" v="156659609:156657832:156657837:156657847:156657854:156706224:156706225:156658709:156657868:156657886:156658711:156657858"/>
    <tag k="tiger:zip_left" v="97601"/>
    <tag k="tiger:zip_right" v="97601"/>
  </way>
  <way id="37710109" version="3" timestamp="2010-03-22T06:33:12Z" uid="20587" user="balrog-kun" changeset="4199043">
    <nd ref="442201735"/>
    <nd ref="442201738"/>
    <tag k="bridge" v="yes"/>
    <tag k="highway" v="trunk"/>
    <tag k="layer" v="1"/>
    <tag k="name" v="The Dalles-California Highway"/>
    <tag k="ref" v="US 97"/>
  </way>
  <way id="37710109" version="4" timestamp="2010-08-15T19:57:32Z" uid="63936" user="MojaveNC" changeset="5503756">
    <nd ref="442201735"/>
    <nd ref="442201738"/>
    <tag k="bridge" v="yes"/>
    <tag k="highway" v="motorway"/>
    <tag k="layer" v="1"/>
    <tag k="name" v="The Dalles-California Highway"/>
    <tag k="ref" v="US 97"/>
  </way>
  <way id="37710109" version="5" timestamp="2010-12-10T22:44:43Z" uid="373763" user="ylekot" changeset="6611865">
    <nd ref="442201735"/>
    <nd ref="442201738"/>
    <tag k="bridge" v="yes"/>
    <tag k="highway" v="motorway"/>
    <tag k="layer" v="1"/>
    <tag k="name" v="The Dalles-California Highway"/>
    <tag k="oneway" v="yes"/>
    <tag k="ref" v="US 97"/>
  </way>
  <way id="37710109" version="6" timestamp="2011-06-26T17:23:08Z" uid="473471" user="NE3" changeset="8553918">
    <nd ref="442201735"/>
    <nd ref="442201738"/>
    <tag k="bridge" v="yes"/>
    <tag k="highway" v="motorway"/>
    <tag k="lanes" v="2"/>
    <tag k="layer" v="1"/>
    <tag k="name" v="The Dalles-California Highway"/>
    <tag k="oneway" v="yes"/>
    <tag k="ref" v="US 97"/>
  </way>
  <way id="37710109" version="7" timestamp="2011-07-06T23:36:47Z" uid="473471" user="NE3" changeset="8653193">
    <nd ref="442201735"/>
    <nd ref="442201738"/>
    <tag k="NHS" v="yes"/>
    <tag k="bridge" v="yes"/>
    <tag k="highway" v="motorway"/>
    <tag k="lanes" v="2"/>
    <tag k="layer" v="1"/>
    <tag k="name" v="The Dalles-California Highway"/>
    <tag k="oneway" v="yes"/>
    <tag k="ref" v="US 97"/>
  </way>
  <way id="37710109" version="8" timestamp="2011-11-25T17:38:32Z" uid="207745" user="NE2" changeset="9945867">
    <nd ref="442201735"/>
    <nd ref="442201738"/>
    <tag k="NHS" v="yes"/>
    <tag k="bridge" v="yes"/>
    <tag k="hgv" v="designated"/>
    <tag k="hgv:national_network" v="yes"/>
    <tag k="highway" v="motorway"/>
    <tag k="lanes" v="2"/>
    <tag k="layer" v="1"/>
    <tag k="name" v="The Dalles-California Highway"/>
    <tag k="oneway" v="yes"/>
    <tag k="ref" v="US 97"/>
    <tag k="source:hgv:national_network" v="Title 23: Highways Part 658 http://ecfr.gpoaccess.gov/cgi/t/text/text-idx?c=ecfr&amp;rgn=div5&amp;view=text&amp;node=23:1.0.1.7.33&amp;idno=23"/>
  </way>
  <way id="37710109" version="9" timestamp="2012-01-01T02:49:21Z" uid="92286" user="Paul Johnson" changeset="10259049"/>
  <way id="37710110" version="3" timestamp="2010-03-22T06:33:12Z" uid="20587" user="balrog-kun" changeset="4199043">
    <nd ref="442201738"/>
    <nd ref="442201755"/>
    <nd ref="442201759"/>
    <nd ref="442201754"/>
    <nd ref="442201751"/>
    <nd ref="442201740"/>
    <nd ref="442201760"/>
    <nd ref="442201762"/>
    <nd ref="442201764"/>
    <nd ref="442201767"/>
    <nd ref="442201768"/>
    <nd ref="442201770"/>
    <nd ref="442201782"/>
    <nd ref="442201771"/>
    <nd ref="442201780"/>
    <nd ref="40087576"/>
    <tag k="highway" v="trunk"/>
    <tag k="name" v="The Dalles-California Highway"/>
    <tag k="oneway" v="yes"/>
    <tag k="ref" v="US 97"/>
  </way>
  <way id="37710110" version="4" timestamp="2010-08-15T19:57:30Z" uid="63936" user="MojaveNC" changeset="5503756">
    <nd ref="442201738"/>
    <nd ref="442201755"/>
    <nd ref="442201759"/>
    <nd ref="442201754"/>
    <nd ref="442201751"/>
    <nd ref="442201740"/>
    <nd ref="442201760"/>
    <nd ref="442201762"/>
    <nd ref="442201764"/>
    <nd ref="442201767"/>
    <nd ref="442201768"/>
    <nd ref="442201770"/>
    <nd ref="442201782"/>
    <nd ref="442201771"/>
    <nd ref="442201780"/>
    <nd ref="40087576"/>
    <tag k="highway" v="motorway"/>
    <tag k="name" v="The Dalles-California Highway"/>
    <tag k="oneway" v="yes"/>
    <tag k="ref" v="US 97"/>
  </way>
  <way id="37710110" version="5" timestamp="2011-06-26T17:18:22Z" uid="473471" user="NE3" changeset="8553918">
    <nd ref="442201738"/>
    <nd ref="442201755"/>
    <nd ref="442201759"/>
    <nd ref="442201754"/>
    <nd ref="442201751"/>
    <nd ref="442201740"/>
    <nd ref="442201760"/>
    <nd ref="442201762"/>
    <nd ref="442201764"/>
    <nd ref="442201767"/>
    <nd ref="442201768"/>
    <nd ref="442201770"/>
    <nd ref="442201782"/>
    <nd ref="1340011724"/>
    <tag k="highway" v="motorway"/>
    <tag k="lanes" v="2"/>
    <tag k="name" v="The Dalles-California Highway"/>
    <tag k="oneway" v="yes"/>
    <tag k="ref" v="US 97"/>
  </way>
  <way id="37710110" version="6" timestamp="2011-07-06T23:36:35Z" uid="473471" user="NE3" changeset="8653193">
    <nd ref="442201738"/>
    <nd ref="442201755"/>
    <nd ref="442201759"/>
    <nd ref="442201754"/>
    <nd ref="442201751"/>
    <nd ref="442201740"/>
    <nd ref="442201760"/>
    <nd ref="442201762"/>
    <nd ref="442201764"/>
    <nd ref="442201767"/>
    <nd ref="442201768"/>
    <nd ref="442201770"/>
    <nd ref="442201782"/>
    <nd ref="1340011724"/>
    <tag k="NHS" v="yes"/>
    <tag k="highway" v="motorway"/>
    <tag k="lanes" v="2"/>
    <tag k="name" v="The Dalles-California Highway"/>
    <tag k="oneway" v="yes"/>
    <tag k="ref" v="US 97"/>
  </way>
  <way id="37710110" version="7" timestamp="2011-11-25T17:37:51Z" uid="207745" user="NE2" changeset="9945867">
    <nd ref="442201738"/>
    <nd ref="442201755"/>
    <nd ref="442201759"/>
    <nd ref="442201754"/>
    <nd ref="442201751"/>
    <nd ref="442201740"/>
    <nd ref="442201760"/>
    <nd ref="442201762"/>
    <nd ref="442201764"/>
    <nd ref="442201767"/>
    <nd ref="442201768"/>
    <nd ref="442201770"/>
    <nd ref="442201782"/>
    <nd ref="1340011724"/>
    <tag k="NHS" v="yes"/>
    <tag k="hgv" v="designated"/>
    <tag k="hgv:national_network" v="yes"/>
    <tag k="highway" v="motorway"/>
    <tag k="lanes" v="2"/>
    <tag k="name" v="The Dalles-California Highway"/>
    <tag k="oneway" v="yes"/>
    <tag k="ref" v="US 97"/>
    <tag k="source:hgv:national_network" v="Title 23: Highways Part 658 http://ecfr.gpoaccess.gov/cgi/t/text/text-idx?c=ecfr&amp;rgn=div5&amp;view=text&amp;node=23:1.0.1.7.33&amp;idno=23"/>
  </way>
  <way id="37710110" version="8" timestamp="2012-01-01T02:49:20Z" uid="92286" user="Paul Johnson" changeset="10259049"/>
  <way id="37710111" version="3" timestamp="2010-03-22T06:33:12Z" uid="20587" user="balrog-kun" changeset="4199043">
    <nd ref="442201636"/>
    <nd ref="442201748"/>
    <tag k="bridge" v="yes"/>
    <tag k="created_by" v="Potlatch 0.10f"/>
    <tag k="highway" v="trunk"/>
    <tag k="layer" v="1"/>
    <tag k="name" v="The Dalles-California Highway"/>
    <tag k="ref" v="US 97"/>
  </way>
  <way id="37710111" version="4" timestamp="2010-08-15T19:57:31Z" uid="63936" user="MojaveNC" changeset="5503756">
    <nd ref="442201636"/>
    <nd ref="442201748"/>
    <tag k="bridge" v="yes"/>
    <tag k="created_by" v="Potlatch 0.10f"/>
    <tag k="highway" v="motorway"/>
    <tag k="layer" v="1"/>
    <tag k="name" v="The Dalles-California Highway"/>
    <tag k="ref" v="US 97"/>
  </way>
  <way id="37710111" version="5" timestamp="2011-06-26T17:14:30Z" uid="473471" user="NE3" changeset="8553918">
    <nd ref="442201636"/>
    <nd ref="442201748"/>
    <tag k="bridge" v="yes"/>
    <tag k="highway" v="motorway"/>
    <tag k="lanes" v="2"/>
    <tag k="layer" v="1"/>
    <tag k="name" v="The Dalles-California Highway"/>
    <tag k="ref" v="US 97"/>
  </way>
  <way id="37710111" version="6" timestamp="2011-07-06T23:36:52Z" uid="473471" user="NE3" changeset="8653193">
    <nd ref="442201636"/>
    <nd ref="442201748"/>
    <tag k="NHS" v="yes"/>
    <tag k="bridge" v="yes"/>
    <tag k="highway" v="motorway"/>
    <tag k="lanes" v="2"/>
    <tag k="layer" v="1"/>
    <tag k="name" v="The Dalles-California Highway"/>
    <tag k="ref" v="US 97"/>
  </way>
  <way id="37710111" version="7" timestamp="2011-11-25T17:38:15Z" uid="207745" user="NE2" changeset="9945867">
    <nd ref="442201636"/>
    <nd ref="442201748"/>
    <tag k="NHS" v="yes"/>
    <tag k="bridge" v="yes"/>
    <tag k="hgv" v="designated"/>
    <tag k="hgv:national_network" v="yes"/>
    <tag k="highway" v="motorway"/>
    <tag k="lanes" v="2"/>
    <tag k="layer" v="1"/>
    <tag k="name" v="The Dalles-California Highway"/>
    <tag k="oneway" v="yes"/>
    <tag k="ref" v="US 97"/>
    <tag k="source:hgv:national_network" v="Title 23: Highways Part 658 http://ecfr.gpoaccess.gov/cgi/t/text/text-idx?c=ecfr&amp;rgn=div5&amp;view=text&amp;node=23:1.0.1.7.33&amp;idno=23"/>
  </way>
  <way id="37710111" version="8" timestamp="2012-01-01T02:49:18Z" uid="92286" user="Paul Johnson" changeset="10259049"/>
  <way id="37710112" version="3" timestamp="2010-03-22T06:33:13Z" uid="20587" user="balrog-kun" changeset="4199043">
    <nd ref="442201748"/>
    <nd ref="39899563"/>
    <nd ref="39787537"/>
    <nd ref="40087653"/>
    <nd ref="40087655"/>
    <tag k="created_by" v="Potlatch 0.10f"/>
    <tag k="highway" v="trunk"/>
    <tag k="name" v="The Dalles-California Highway"/>
    <tag k="ref" v="US 97"/>
  </way>
  <way id="37710112" version="4" timestamp="2010-08-15T19:57:33Z" uid="63936" user="MojaveNC" changeset="5503756">
    <nd ref="442201748"/>
    <nd ref="39899563"/>
    <nd ref="39787537"/>
    <nd ref="40087653"/>
    <nd ref="40087655"/>
    <tag k="created_by" v="Potlatch 0.10f"/>
    <tag k="highway" v="motorway"/>
    <tag k="name" v="The Dalles-California Highway"/>
    <tag k="ref" v="US 97"/>
  </way>
  <way id="37710112" version="5" timestamp="2010-12-10T22:44:44Z" uid="373763" user="ylekot" changeset="6611865">
    <nd ref="442201748"/>
    <nd ref="39899563"/>
    <nd ref="39787537"/>
    <nd ref="40087653"/>
    <nd ref="40087655"/>
    <tag k="highway" v="motorway"/>
    <tag k="name" v="The Dalles-California Highway"/>
    <tag k="oneway" v="yes"/>
    <tag k="ref" v="US 97"/>
  </way>
  <way id="37710112" version="6" timestamp="2011-06-26T17:11:30Z" uid="473471" user="NE3" changeset="8553918">
    <nd ref="442201748"/>
    <nd ref="39899563"/>
    <nd ref="39787537"/>
    <nd ref="40087653"/>
    <nd ref="40087655"/>
    <tag k="highway" v="motorway"/>
    <tag k="lanes" v="2"/>
    <tag k="name" v="The Dalles-California Highway"/>
    <tag k="oneway" v="yes"/>
    <tag k="ref" v="US 97"/>
  </way>
  <way id="37710112" version="7" timestamp="2011-07-06T23:37:21Z" uid="473471" user="NE3" changeset="8653193">
    <nd ref="442201748"/>
    <nd ref="39899563"/>
    <nd ref="39787537"/>
    <nd ref="40087653"/>
    <nd ref="40087655"/>
    <tag k="NHS" v="yes"/>
    <tag k="highway" v="motorway"/>
    <tag k="lanes" v="2"/>
    <tag k="name" v="The Dalles-California Highway"/>
    <tag k="oneway" v="yes"/>
    <tag k="ref" v="US 97"/>
  </way>
  <way id="37710112" version="8" timestamp="2011-11-25T17:39:40Z" uid="207745" user="NE2" changeset="9945867">
    <nd ref="442201748"/>
    <nd ref="39899563"/>
    <nd ref="39787537"/>
    <nd ref="40087653"/>
    <nd ref="40087655"/>
    <tag k="NHS" v="yes"/>
    <tag k="hgv" v="designated"/>
    <tag k="hgv:national_network" v="yes"/>
    <tag k="highway" v="motorway"/>
    <tag k="lanes" v="2"/>
    <tag k="name" v="The Dalles-California Highway"/>
    <tag k="oneway" v="yes"/>
    <tag k="ref" v="US 97"/>
    <tag k="source:hgv:national_network" v="Title 23: Highways Part 658 http://ecfr.gpoaccess.gov/cgi/t/text/text-idx?c=ecfr&amp;rgn=div5&amp;view=text&amp;node=23:1.0.1.7.33&amp;idno=23"/>
  </way>
  <way id="37710112" version="9" timestamp="2012-01-01T02:49:20Z" uid="92286" user="Paul Johnson" changeset="10259049"/>
  <way id="37710115" version="3" timestamp="2010-03-22T06:33:13Z" uid="20587" user="balrog-kun" changeset="4199043">
    <nd ref="40087576"/>
    <nd ref="40087578"/>
    <nd ref="40087582"/>
    <nd ref="442201783"/>
    <nd ref="40087586"/>
    <nd ref="40087589"/>
    <nd ref="40087592"/>
    <nd ref="40087596"/>
    <nd ref="40087599"/>
    <nd ref="40087603"/>
    <nd ref="39706801"/>
    <nd ref="442201749"/>
    <nd ref="442201752"/>
    <nd ref="442201757"/>
    <nd ref="442201633"/>
    <nd ref="442201636"/>
    <tag k="created_by" v="Potlatch 0.10f"/>
    <tag k="highway" v="trunk"/>
    <tag k="name" v="The Dalles-California Highway"/>
    <tag k="oneway" v="yes"/>
    <tag k="ref" v="US 97"/>
  </way>
  <way id="37710115" version="4" timestamp="2010-08-15T19:57:28Z" uid="63936" user="MojaveNC" changeset="5503756">
    <nd ref="40087576"/>
    <nd ref="40087578"/>
    <nd ref="40087582"/>
    <nd ref="442201783"/>
    <nd ref="40087586"/>
    <nd ref="40087589"/>
    <nd ref="40087592"/>
    <nd ref="40087596"/>
    <nd ref="40087599"/>
    <nd ref="40087603"/>
    <nd ref="39706801"/>
    <nd ref="442201749"/>
    <nd ref="442201752"/>
    <nd ref="442201757"/>
    <nd ref="442201633"/>
    <nd ref="442201636"/>
    <tag k="created_by" v="Potlatch 0.10f"/>
    <tag k="highway" v="motorway"/>
    <tag k="name" v="The Dalles-California Highway"/>
    <tag k="oneway" v="yes"/>
    <tag k="ref" v="US 97"/>
  </way>
  <way id="37710115" version="5" timestamp="2011-06-26T17:15:17Z" uid="473471" user="NE3" changeset="8553918">
    <nd ref="40087576"/>
    <nd ref="40087578"/>
    <nd ref="40087582"/>
    <nd ref="442201783"/>
    <nd ref="40087586"/>
    <nd ref="40087589"/>
    <nd ref="40087592"/>
    <nd ref="40087596"/>
    <nd ref="40087599"/>
    <nd ref="40087603"/>
    <nd ref="39706801"/>
    <nd ref="442201749"/>
    <nd ref="442201752"/>
    <nd ref="442201757"/>
    <nd ref="442201633"/>
    <nd ref="442201636"/>
    <tag k="highway" v="motorway"/>
    <tag k="lanes" v="2"/>
    <tag k="name" v="The Dalles-California Highway"/>
    <tag k="oneway" v="yes"/>
    <tag k="ref" v="US 97"/>
  </way>
  <way id="37710115" version="6" timestamp="2011-07-06T23:36:38Z" uid="473471" user="NE3" changeset="8653193">
    <nd ref="40087576"/>
    <nd ref="40087578"/>
    <nd ref="40087582"/>
    <nd ref="442201783"/>
    <nd ref="40087586"/>
    <nd ref="40087589"/>
    <nd ref="40087592"/>
    <nd ref="40087596"/>
    <nd ref="40087599"/>
    <nd ref="40087603"/>
    <nd ref="39706801"/>
    <nd ref="442201749"/>
    <nd ref="442201752"/>
    <nd ref="442201757"/>
    <nd ref="442201633"/>
    <nd ref="442201636"/>
    <tag k="NHS" v="yes"/>
    <tag k="highway" v="motorway"/>
    <tag k="lanes" v="2"/>
    <tag k="name" v="The Dalles-California Highway"/>
    <tag k="oneway" v="yes"/>
    <tag k="ref" v="US 97"/>
  </way>
  <way id="37710115" version="7" timestamp="2011-11-25T17:38:00Z" uid="207745" user="NE2" changeset="9945867">
    <nd ref="40087576"/>
    <nd ref="40087578"/>
    <nd ref="40087582"/>
    <nd ref="442201783"/>
    <nd ref="40087586"/>
    <nd ref="40087589"/>
    <nd ref="40087592"/>
    <nd ref="40087596"/>
    <nd ref="40087599"/>
    <nd ref="40087603"/>
    <nd ref="39706801"/>
    <nd ref="442201749"/>
    <nd ref="442201752"/>
    <nd ref="442201757"/>
    <nd ref="442201633"/>
    <nd ref="442201636"/>
    <tag k="NHS" v="yes"/>
    <tag k="hgv" v="designated"/>
    <tag k="hgv:national_network" v="yes"/>
    <tag k="highway" v="motorway"/>
    <tag k="lanes" v="2"/>
    <tag k="name" v="The Dalles-California Highway"/>
    <tag k="oneway" v="yes"/>
    <tag k="ref" v="US 97"/>
    <tag k="source:hgv:national_network" v="Title 23: Highways Part 658 http://ecfr.gpoaccess.gov/cgi/t/text/text-idx?c=ecfr&amp;rgn=div5&amp;view=text&amp;node=23:1.0.1.7.33&amp;idno=23"/>
  </way>
  <way id="37710115" version="8" timestamp="2012-01-01T02:49:18Z" uid="92286" user="Paul Johnson" changeset="10259049"/>
  <way id="37710317" version="2" timestamp="2010-03-28T10:11:33Z" uid="20587" user="balrog-kun" changeset="4254597">
    <nd ref="65537190"/>
    <nd ref="65537233"/>
    <nd ref="317349621"/>
    <nd ref="317349622"/>
    <nd ref="413761074"/>
    <nd ref="317349623"/>
    <nd ref="317349624"/>
    <nd ref="413761075"/>
    <nd ref="65537234"/>
    <nd ref="317349625"/>
    <nd ref="65537237"/>
    <nd ref="413761071"/>
    <nd ref="413761072"/>
    <nd ref="65537242"/>
    <nd ref="413761070"/>
    <nd ref="317349585"/>
    <nd ref="413761069"/>
    <nd ref="317349586"/>
    <nd ref="65537109"/>
    <tag k="highway" v="tertiary"/>
    <tag k="name" v="Old Santa Cruz Highway"/>
    <tag k="tiger:cfcc" v="A41"/>
    <tag k="tiger:county" v="Santa Clara, CA"/>
    <tag k="tiger:name_base" v="Old Santa Cruz"/>
    <tag k="tiger:name_type" v="Hwy"/>
    <tag k="tiger:reviewed" v="no"/>
    <tag k="tiger:separated" v="no"/>
    <tag k="tiger:source" v="tiger_import_dch_v0.6_20070809"/>
    <tag k="tiger:tlid" v="122945045"/>
    <tag k="tiger:zip_left" v="95033"/>
    <tag k="tiger:zip_left_1" v="95033"/>
  </way>
  <way id="37710346" version="1" timestamp="2009-07-15T16:59:56Z" uid="110593" user="esetzer" changeset="1838001">
    <nd ref="442211839"/>
    <nd ref="442211859"/>
    <nd ref="442211901"/>
    <nd ref="442211928"/>
    <tag k="created_by" v="Merkaartor 0.11"/>
    <tag k="operator" v="Utah Transit Authority"/>
    <tag k="railway" v="platform"/>
  </way>
  <way id="37710346" version="2" timestamp="2009-09-24T07:48:28Z" uid="110593" user="esetzer" changeset="2603002">
    <nd ref="442211839"/>
    <nd ref="442211859"/>
    <nd ref="442211901"/>
    <nd ref="442211928"/>
    <tag k="created_by" v="Merkaartor 0.11"/>
    <tag k="operator" v="Utah Transit Authority"/>
    <tag k="railway" v="platform"/>
    <tag k="wheelchair" v="yes"/>
  </way>
  <way id="37710347" version="1" timestamp="2009-07-15T17:00:00Z" uid="110593" user="esetzer" changeset="1838001">
    <nd ref="442211997"/>
    <nd ref="442212028"/>
    <nd ref="442212059"/>
    <nd ref="442212091"/>
    <tag k="created_by" v="Merkaartor 0.11"/>
    <tag k="operator" v="Utah Transit Authority"/>
    <tag k="railway" v="platform"/>
  </way>
  <way id="37710347" version="2" timestamp="2009-09-24T07:48:29Z" uid="110593" user="esetzer" changeset="2603002">
    <nd ref="442211997"/>
    <nd ref="442212028"/>
    <nd ref="442212059"/>
    <nd ref="442212091"/>
    <tag k="created_by" v="Merkaartor 0.11"/>
    <tag k="operator" v="Utah Transit Authority"/>
    <tag k="railway" v="platform"/>
    <tag k="wheelchair" v="yes"/>
  </way>
  <way id="37710347" version="3" timestamp="2009-10-24T19:11:02Z" uid="110593" user="esetzer" changeset="2940985">
    <nd ref="442211997"/>
    <nd ref="442212028"/>
    <nd ref="442212059"/>
    <nd ref="442212091"/>
    <tag k="created_by" v="Merkaartor 0.11"/>
    <tag k="operator" v="Utah Transit Authority"/>
    <tag k="railway" v="platform"/>
    <tag k="wheelchair" v="yes"/>
  </way>
  <way id="37710348" version="1" timestamp="2009-07-15T17:00:01Z" uid="110593" user="esetzer" changeset="1838001">
    <nd ref="442211997"/>
    <nd ref="384772006"/>
    <nd ref="442211839"/>
    <tag k="created_by" v="Merkaartor 0.11"/>
    <tag k="highway" v="footway"/>
  </way>
  <way id="37710349" version="1" timestamp="2009-07-15T17:00:02Z" uid="110593" user="esetzer" changeset="1838001">
    <nd ref="442212059"/>
    <nd ref="384772007"/>
    <nd ref="442211901"/>
    <tag k="created_by" v="Merkaartor 0.11"/>
    <tag k="highway" v="footway"/>
  </way>
  <way id="37710546" version="1" timestamp="2009-07-15T17:04:23Z" uid="110593" user="esetzer" changeset="1838040">
    <nd ref="442218571"/>
    <nd ref="442218634"/>
    <tag k="created_by" v="Merkaartor 0.11"/>
    <tag k="highway" v="service"/>
  </way>
  <way id="37710560" version="1" timestamp="2009-07-15T17:05:33Z" uid="110593" user="esetzer" changeset="1838056">
    <nd ref="392048170"/>
    <nd ref="442220282"/>
    <nd ref="442220297"/>
    <nd ref="384759368"/>
    <tag k="created_by" v="Merkaartor 0.11"/>
    <tag k="highway" v="footway"/>
  </way>
  <way id="37710560" version="2" timestamp="2011-11-27T06:44:19Z" uid="8909" user="mvexel" changeset="9963629"/>
  <way id="37710762" version="6" timestamp="2010-04-07T13:42:02Z" uid="20587" user="balrog-kun" changeset="4353646">
    <nd ref="442229446"/>
    <nd ref="442229441"/>
    <nd ref="442229435"/>
    <nd ref="442235012"/>
    <nd ref="442229429"/>
    <nd ref="442229426"/>
    <nd ref="442228030"/>
    <tag k="created_by" v="Potlatch 0.10d"/>
    <tag k="highway" v="tertiary"/>
    <tag k="name" v="South Fretz Avenue"/>
    <tag k="oneway" v="yes"/>
    <tag k="tiger:cfcc" v="A41"/>
    <tag k="tiger:county" v="Oklahoma, OK"/>
    <tag k="tiger:name_base" v="Fretz"/>
    <tag k="tiger:name_direction_prefix" v="S"/>
    <tag k="tiger:name_type" v="Ave"/>
    <tag k="tiger:reviewed" v="no"/>
    <tag k="tiger:separated" v="no"/>
    <tag k="tiger:source" v="tiger_import_dch_v0.6_20070829"/>
    <tag k="tiger:tlid" v="100435469:100435470"/>
    <tag k="tiger:zip_left" v="73013"/>
  </way>
  <way id="37710763" version="1" timestamp="2009-07-15T17:10:47Z" uid="110593" user="esetzer" changeset="1838101">
    <nd ref="442229509"/>
    <nd ref="442229550"/>
    <nd ref="442229593"/>
    <nd ref="442229618"/>
    <nd ref="442229655"/>
    <nd ref="442229701"/>
    <nd ref="442229735"/>
    <nd ref="442229760"/>
    <nd ref="442229799"/>
    <nd ref="442229824"/>
    <nd ref="442229509"/>
    <tag k="created_by" v="Merkaartor 0.11"/>
    <tag k="leisure" v="garden"/>
    <tag k="note" v="What is this actually intended to be?"/>
  </way>
  <way id="37710783" version="1" timestamp="2009-07-15T17:10:59Z" uid="110593" user="esetzer" changeset="1838105">
    <nd ref="442229919"/>
    <nd ref="442230478"/>
    <tag k="created_by" v="Merkaartor 0.11"/>
    <tag k="highway" v="footway"/>
  </way>
  <way id="37710783" version="2" timestamp="2009-10-20T16:47:03Z" uid="110593" user="esetzer" changeset="2904993">
    <nd ref="442229919"/>
    <nd ref="536775107"/>
    <nd ref="442230478"/>
    <tag k="created_by" v="Merkaartor 0.11"/>
    <tag k="highway" v="footway"/>
  </way>
  <way id="37710783" version="3" timestamp="2011-11-28T01:11:32Z" uid="8909" user="mvexel" changeset="9973750">
    <nd ref="442229919"/>
    <nd ref="1520496546"/>
    <nd ref="536775107"/>
    <nd ref="442230478"/>
    <tag k="highway" v="footway"/>
  </way>
  <way id="37710970" version="1" timestamp="2009-07-15T17:13:29Z" uid="110593" user="esetzer" changeset="1838131">
    <nd ref="442234588"/>
    <nd ref="442234642"/>
    <nd ref="441996735"/>
    <nd ref="441996734"/>
    <nd ref="442234588"/>
    <tag k="created_by" v="Merkaartor 0.11"/>
    <tag k="landuse" v="forest"/>
  </way>
  <way id="37710970" version="2" timestamp="2009-09-22T02:48:39Z" uid="104930" user="butlerm" changeset="2564035">
    <nd ref="442234588"/>
    <nd ref="442234642"/>
    <nd ref="441996735"/>
    <nd ref="441996734"/>
    <nd ref="442234588"/>
    <tag k="landuse" v="forest"/>
  </way>
  <way id="37710999" version="1" timestamp="2009-07-15T17:15:31Z" uid="38528" user="acrosscanadatrails" changeset="1838146">
    <nd ref="442236741"/>
    <nd ref="442236751"/>
    <tag k="attribution" v="GeoBase"/>
    <tag k="geobase:acquisitionTechnique" v="GPS"/>
    <tag k="geobase:datasetName" v="NRN:British Columbia"/>
    <tag k="geobase:uuid" v="eabcc792968211d99c9f000ea65e52d8"/>
    <tag k="highway" v="residential"/>
    <tag k="is_in" v="Sooke,British Columbia"/>
    <tag k="lanes" v="2"/>
    <tag k="name" v="Wright Road"/>
    <tag k="source" v="Geobase_Import_2009"/>
  </way>
  <way id="37710999" version="2" timestamp="2012-01-30T12:07:11Z" uid="147510" user="woodpeck_fixbot" changeset="10538137"/>
</osm>
