<?xml version='1.0' encoding='UTF-8'?>
<osm version="0.6" generator="libosmium/2.20.0">
  <way id="37712199" version="1" timestamp="2009-07-15T18:01:44Z" uid="43863" user="Rundling" changeset="1838554">
    <nd ref="442287930"/>
    <nd ref="442287926"/>
    <nd ref="442287923"/>
    <nd ref="442287929"/>
    <nd ref="442287930"/>
    <tag k="building" v="yes"/>
  </way>
  <way id="37712199" version="2" timestamp="2009-07-17T10:18:07Z" uid="43863" user="Rundling" changeset="1852839">
    <nd ref="442287930"/>
    <nd ref="442287926"/>
    <nd ref="442287923"/>
    <nd ref="442287929"/>
    <nd ref="442287930"/>
    <tag k="addr:city" v="Uelzen"/>
    <tag k="addr:country" v="DE"/>
    <tag k="addr:housenumber" v="14"/>
    <tag k="addr:postcode" v="29525"/>
    <tag k="addr:street" v="Barkhagen"/>
    <tag k="building" v="yes"/>
  </way>
  <way id="37712199" version="3" timestamp="2009-07-17T10:59:40Z" uid="43863" user="Rundling" changeset="1853160">
    <nd ref="442287930"/>
    <nd ref="442926966"/>
    <nd ref="442926967"/>
    <nd ref="442287929"/>
    <nd ref="442287930"/>
    <tag k="addr:city" v="Uelzen"/>
    <tag k="addr:country" v="DE"/>
    <tag k="addr:housenumber" v="14"/>
    <tag k="addr:postcode" v="29525"/>
    <tag k="addr:street" v="Barkhagen"/>
    <tag k="building" v="yes"/>
  </way>
  <way id="37712200" version="1" timestamp="2009-07-15T18:01:44Z" uid="43863" user="Rundling" changeset="1838554">
    <nd ref="442287941"/>
    <nd ref="442287935"/>
    <nd ref="442287933"/>
    <nd ref="442287938"/>
    <nd ref="442287941"/>
    <tag k="building" v="yes"/>
  </way>
  <way id="37712200" version="2" timestamp="2009-07-17T10:18:06Z" uid="43863" user="Rundling" changeset="1852839">
    <nd ref="442287941"/>
    <nd ref="442287935"/>
    <nd ref="442287933"/>
    <nd ref="442287938"/>
    <nd ref="442287941"/>
    <tag k="addr:city" v="Uelzen"/>
    <tag k="addr:country" v="DE"/>
    <tag k="addr:housenumber" v="30"/>
    <tag k="addr:postcode" v="29525"/>
    <tag k="addr:street" v="Barkhagen"/>
    <tag k="building" v="yes"/>
  </way>
  <way id="37712200" version="3" timestamp="2009-07-17T10:59:42Z" uid="43863" user="Rundling" changeset="1853160">
    <nd ref="442287941"/>
    <nd ref="442926950"/>
    <nd ref="442926951"/>
    <nd ref="442287938"/>
    <nd ref="442287941"/>
    <tag k="addr:city" v="Uelzen"/>
    <tag k="addr:country" v="DE"/>
    <tag k="addr:housenumber" v="30"/>
    <tag k="addr:postcode" v="29525"/>
    <tag k="addr:street" v="Barkhagen"/>
    <tag k="building" v="yes"/>
  </way>
  <way id="37712201" version="1" timestamp="2009-07-15T18:01:44Z" uid="43863" user="Rundling" changeset="1838554">
    <nd ref="442287949"/>
    <nd ref="442287944"/>
    <nd ref="442287943"/>
    <nd ref="442287946"/>
    <nd ref="442287949"/>
    <tag k="building" v="yes"/>
  </way>
  <way id="37712201" version="2" timestamp="2009-07-17T10:18:08Z" uid="43863" user="Rundling" changeset="1852839">
    <nd ref="442287949"/>
    <nd ref="442287944"/>
    <nd ref="442287943"/>
    <nd ref="442287946"/>
    <nd ref="442287949"/>
    <tag k="addr:city" v="Uelzen"/>
    <tag k="addr:country" v="DE"/>
    <tag k="addr:housenumber" v="28"/>
    <tag k="addr:postcode" v="29525"/>
    <tag k="addr:street" v="Barkhagen"/>
    <tag k="building" v="yes"/>
  </way>
  <way id="37712201" version="3" timestamp="2009-07-17T10:59:42Z" uid="43863" user="Rundling" changeset="1853160">
    <nd ref="442287949"/>
    <nd ref="442926952"/>
    <nd ref="442926953"/>
    <nd ref="442287946"/>
    <nd ref="442287949"/>
    <tag k="addr:city" v="Uelzen"/>
    <tag k="addr:country" v="DE"/>
    <tag k="addr:housenumber" v="28"/>
    <tag k="addr:postcode" v="29525"/>
    <tag k="addr:street" v="Barkhagen"/>
    <tag k="building" v="yes"/>
  </way>
  <way id="37712202" version="1" timestamp="2009-07-15T18:01:44Z" uid="43863" user="Rundling" changeset="1838554">
    <nd ref="442287954"/>
    <nd ref="442287951"/>
    <nd ref="442287950"/>
    <nd ref="442287952"/>
    <nd ref="442287954"/>
    <tag k="building" v="yes"/>
  </way>
  <way id="37712202" version="2" timestamp="2009-07-17T10:18:07Z" uid="43863" user="Rundling" changeset="1852839">
    <nd ref="442287954"/>
    <nd ref="442287951"/>
    <nd ref="442287950"/>
    <nd ref="442287952"/>
    <nd ref="442287954"/>
    <tag k="addr:city" v="Uelzen"/>
    <tag k="addr:country" v="DE"/>
    <tag k="addr:housenumber" v="26"/>
    <tag k="addr:postcode" v="29525"/>
    <tag k="addr:street" v="Barkhagen"/>
    <tag k="building" v="yes"/>
  </way>
  <way id="37712202" version="3" timestamp="2009-07-17T10:59:40Z" uid="43863" user="Rundling" changeset="1853160">
    <nd ref="442287954"/>
    <nd ref="442926954"/>
    <nd ref="442926955"/>
    <nd ref="442287952"/>
    <nd ref="442287954"/>
    <tag k="addr:city" v="Uelzen"/>
    <tag k="addr:country" v="DE"/>
    <tag k="addr:housenumber" v="26"/>
    <tag k="addr:postcode" v="29525"/>
    <tag k="addr:street" v="Barkhagen"/>
    <tag k="building" v="yes"/>
  </way>
  <way id="37712203" version="1" timestamp="2009-07-15T18:01:45Z" uid="43863" user="Rundling" changeset="1838554">
    <nd ref="442287974"/>
    <nd ref="442287969"/>
    <nd ref="442287955"/>
    <nd ref="442287972"/>
    <nd ref="442287974"/>
    <tag k="building" v="yes"/>
  </way>
  <way id="37712203" version="2" timestamp="2009-07-17T10:18:09Z" uid="43863" user="Rundling" changeset="1852839">
    <nd ref="442287974"/>
    <nd ref="442287969"/>
    <nd ref="442287955"/>
    <nd ref="442287972"/>
    <nd ref="442287974"/>
    <tag k="addr:city" v="Uelzen"/>
    <tag k="addr:country" v="DE"/>
    <tag k="addr:housenumber" v="24"/>
    <tag k="addr:postcode" v="29525"/>
    <tag k="addr:street" v="Barkhagen"/>
    <tag k="building" v="yes"/>
  </way>
  <way id="37712203" version="3" timestamp="2009-07-17T10:59:41Z" uid="43863" user="Rundling" changeset="1853160">
    <nd ref="442287974"/>
    <nd ref="442926956"/>
    <nd ref="442926957"/>
    <nd ref="442287972"/>
    <nd ref="442287974"/>
    <tag k="addr:city" v="Uelzen"/>
    <tag k="addr:country" v="DE"/>
    <tag k="addr:housenumber" v="24"/>
    <tag k="addr:postcode" v="29525"/>
    <tag k="addr:street" v="Barkhagen"/>
    <tag k="building" v="yes"/>
  </way>
  <way id="37712204" version="1" timestamp="2009-07-15T18:01:45Z" uid="43863" user="Rundling" changeset="1838554">
    <nd ref="442287987"/>
    <nd ref="442287981"/>
    <nd ref="442287976"/>
    <nd ref="442287984"/>
    <nd ref="442287987"/>
    <tag k="building" v="yes"/>
  </way>
  <way id="37712204" version="2" timestamp="2009-07-17T10:18:06Z" uid="43863" user="Rundling" changeset="1852839">
    <nd ref="442287987"/>
    <nd ref="442287981"/>
    <nd ref="442287976"/>
    <nd ref="442287984"/>
    <nd ref="442287987"/>
    <tag k="addr:city" v="Uelzen"/>
    <tag k="addr:country" v="DE"/>
    <tag k="addr:housenumber" v="22"/>
    <tag k="addr:postcode" v="29525"/>
    <tag k="addr:street" v="Barkhagen"/>
    <tag k="building" v="yes"/>
  </way>
  <way id="37712204" version="3" timestamp="2009-07-17T10:59:41Z" uid="43863" user="Rundling" changeset="1853160">
    <nd ref="442287987"/>
    <nd ref="442926958"/>
    <nd ref="442926959"/>
    <nd ref="442287984"/>
    <nd ref="442287987"/>
    <tag k="addr:city" v="Uelzen"/>
    <tag k="addr:country" v="DE"/>
    <tag k="addr:housenumber" v="22"/>
    <tag k="addr:postcode" v="29525"/>
    <tag k="addr:street" v="Barkhagen"/>
    <tag k="building" v="yes"/>
  </way>
  <way id="37712205" version="1" timestamp="2009-07-15T18:01:45Z" uid="43863" user="Rundling" changeset="1838554">
    <nd ref="442288000"/>
    <nd ref="442287993"/>
    <nd ref="442287990"/>
    <nd ref="442287996"/>
    <nd ref="442288000"/>
    <tag k="building" v="yes"/>
  </way>
  <way id="37712205" version="2" timestamp="2009-07-17T10:18:09Z" uid="43863" user="Rundling" changeset="1852839">
    <nd ref="442288000"/>
    <nd ref="442287993"/>
    <nd ref="442287990"/>
    <nd ref="442287996"/>
    <nd ref="442288000"/>
    <tag k="addr:city" v="Uelzen"/>
    <tag k="addr:country" v="DE"/>
    <tag k="addr:housenumber" v="20"/>
    <tag k="addr:postcode" v="29525"/>
    <tag k="addr:street" v="Barkhagen"/>
    <tag k="building" v="yes"/>
  </way>
  <way id="37712205" version="3" timestamp="2009-07-17T10:59:42Z" uid="43863" user="Rundling" changeset="1853160">
    <nd ref="442288000"/>
    <nd ref="442926960"/>
    <nd ref="442926961"/>
    <nd ref="442287996"/>
    <nd ref="442288000"/>
    <tag k="addr:city" v="Uelzen"/>
    <tag k="addr:country" v="DE"/>
    <tag k="addr:housenumber" v="20"/>
    <tag k="addr:postcode" v="29525"/>
    <tag k="addr:street" v="Barkhagen"/>
    <tag k="building" v="yes"/>
  </way>
  <way id="37712206" version="1" timestamp="2009-07-15T18:01:45Z" uid="43863" user="Rundling" changeset="1838554">
    <nd ref="442288015"/>
    <nd ref="442288008"/>
    <nd ref="442288004"/>
    <nd ref="442288011"/>
    <nd ref="442288015"/>
    <tag k="building" v="yes"/>
  </way>
  <way id="37712206" version="2" timestamp="2009-07-17T10:18:08Z" uid="43863" user="Rundling" changeset="1852839">
    <nd ref="442288015"/>
    <nd ref="442288008"/>
    <nd ref="442288004"/>
    <nd ref="442288011"/>
    <nd ref="442288015"/>
    <tag k="addr:city" v="Uelzen"/>
    <tag k="addr:country" v="DE"/>
    <tag k="addr:housenumber" v="18"/>
    <tag k="addr:postcode" v="29525"/>
    <tag k="addr:street" v="Barkhagen"/>
    <tag k="building" v="yes"/>
  </way>
  <way id="37712206" version="3" timestamp="2009-07-17T10:59:41Z" uid="43863" user="Rundling" changeset="1853160">
    <nd ref="442288015"/>
    <nd ref="442926962"/>
    <nd ref="442926963"/>
    <nd ref="442288011"/>
    <nd ref="442288015"/>
    <tag k="addr:city" v="Uelzen"/>
    <tag k="addr:country" v="DE"/>
    <tag k="addr:housenumber" v="18"/>
    <tag k="addr:postcode" v="29525"/>
    <tag k="addr:street" v="Barkhagen"/>
    <tag k="building" v="yes"/>
  </way>
  <way id="37712207" version="1" timestamp="2009-07-15T18:01:45Z" uid="43863" user="Rundling" changeset="1838554">
    <nd ref="442288026"/>
    <nd ref="442288021"/>
    <nd ref="442288019"/>
    <nd ref="442288024"/>
    <nd ref="442288026"/>
    <tag k="building" v="yes"/>
  </way>
  <way id="37712207" version="2" timestamp="2009-07-17T10:18:09Z" uid="43863" user="Rundling" changeset="1852839">
    <nd ref="442288026"/>
    <nd ref="442288021"/>
    <nd ref="442288019"/>
    <nd ref="442288024"/>
    <nd ref="442288026"/>
    <tag k="addr:city" v="Uelzen"/>
    <tag k="addr:country" v="DE"/>
    <tag k="addr:housenumber" v="16"/>
    <tag k="addr:postcode" v="29525"/>
    <tag k="addr:street" v="Barkhagen"/>
    <tag k="building" v="yes"/>
  </way>
  <way id="37712207" version="3" timestamp="2009-07-17T10:59:42Z" uid="43863" user="Rundling" changeset="1853160">
    <nd ref="442288026"/>
    <nd ref="442926964"/>
    <nd ref="442926965"/>
    <nd ref="442288024"/>
    <nd ref="442288026"/>
    <tag k="addr:city" v="Uelzen"/>
    <tag k="addr:country" v="DE"/>
    <tag k="addr:housenumber" v="16"/>
    <tag k="addr:postcode" v="29525"/>
    <tag k="addr:street" v="Barkhagen"/>
    <tag k="building" v="yes"/>
  </way>
  <way id="37712208" version="1" timestamp="2009-07-15T18:01:45Z" uid="43863" user="Rundling" changeset="1838554">
    <nd ref="442288033"/>
    <nd ref="442288029"/>
    <nd ref="442288027"/>
    <nd ref="442288031"/>
    <nd ref="442288033"/>
    <tag k="building" v="yes"/>
  </way>
  <way id="37712208" version="2" timestamp="2009-07-17T10:18:07Z" uid="43863" user="Rundling" changeset="1852839">
    <nd ref="442288033"/>
    <nd ref="442288029"/>
    <nd ref="442288027"/>
    <nd ref="442288031"/>
    <nd ref="442288033"/>
    <tag k="addr:city" v="Uelzen"/>
    <tag k="addr:country" v="DE"/>
    <tag k="addr:housenumber" v="10"/>
    <tag k="addr:postcode" v="29525"/>
    <tag k="addr:street" v="Barkhagen"/>
    <tag k="building" v="yes"/>
  </way>
  <way id="37712208" version="3" timestamp="2009-07-17T10:59:42Z" uid="43863" user="Rundling" changeset="1853160">
    <nd ref="442288033"/>
    <nd ref="442926970"/>
    <nd ref="442926971"/>
    <nd ref="442288031"/>
    <nd ref="442288033"/>
    <tag k="addr:city" v="Uelzen"/>
    <tag k="addr:country" v="DE"/>
    <tag k="addr:housenumber" v="10"/>
    <tag k="addr:postcode" v="29525"/>
    <tag k="addr:street" v="Barkhagen"/>
    <tag k="building" v="yes"/>
  </way>
  <way id="37712209" version="1" timestamp="2009-07-15T18:01:45Z" uid="43863" user="Rundling" changeset="1838554">
    <nd ref="442288042"/>
    <nd ref="442288037"/>
    <nd ref="442288035"/>
    <nd ref="442288039"/>
    <nd ref="442288042"/>
    <tag k="building" v="yes"/>
  </way>
  <way id="37712209" version="2" timestamp="2009-07-17T10:18:07Z" uid="43863" user="Rundling" changeset="1852839">
    <nd ref="442288042"/>
    <nd ref="442288037"/>
    <nd ref="442288035"/>
    <nd ref="442288039"/>
    <nd ref="442288042"/>
    <tag k="addr:city" v="Uelzen"/>
    <tag k="addr:country" v="DE"/>
    <tag k="addr:housenumber" v="12"/>
    <tag k="addr:postcode" v="29525"/>
    <tag k="addr:street" v="Barkhagen"/>
    <tag k="building" v="yes"/>
  </way>
  <way id="37712209" version="3" timestamp="2009-07-17T10:59:41Z" uid="43863" user="Rundling" changeset="1853160">
    <nd ref="442288042"/>
    <nd ref="442926968"/>
    <nd ref="442926969"/>
    <nd ref="442288039"/>
    <nd ref="442288042"/>
    <tag k="addr:city" v="Uelzen"/>
    <tag k="addr:country" v="DE"/>
    <tag k="addr:housenumber" v="12"/>
    <tag k="addr:postcode" v="29525"/>
    <tag k="addr:street" v="Barkhagen"/>
    <tag k="building" v="yes"/>
  </way>
  <way id="37712216" version="2" timestamp="2010-04-07T13:42:03Z" uid="20587" user="balrog-kun" changeset="4353646">
    <nd ref="442228030"/>
    <nd ref="442228033"/>
    <nd ref="442228036"/>
    <nd ref="442228039"/>
    <nd ref="442228041"/>
    <tag k="created_by" v="Potlatch 0.10d"/>
    <tag k="highway" v="tertiary"/>
    <tag k="name" v="South Fretz Avenue"/>
    <tag k="tiger:cfcc" v="A41"/>
    <tag k="tiger:county" v="Oklahoma, OK"/>
    <tag k="tiger:name_base" v="Fretz"/>
    <tag k="tiger:name_direction_prefix" v="S"/>
    <tag k="tiger:name_type" v="Ave"/>
    <tag k="tiger:reviewed" v="no"/>
    <tag k="tiger:separated" v="no"/>
    <tag k="tiger:source" v="tiger_import_dch_v0.6_20070829"/>
    <tag k="tiger:tlid" v="100435469:100435470"/>
    <tag k="tiger:zip_left" v="73013"/>
  </way>
  <way id="37712234" version="3" timestamp="2010-04-07T13:42:03Z" uid="20587" user="balrog-kun" changeset="4353646">
    <nd ref="442228030"/>
    <nd ref="442228420"/>
    <nd ref="442228028"/>
    <nd ref="442231018"/>
    <nd ref="442228025"/>
    <nd ref="442228022"/>
    <nd ref="442228020"/>
    <nd ref="442228017"/>
    <nd ref="442228014"/>
    <nd ref="441514123"/>
    <nd ref="147511392"/>
    <nd ref="147480725"/>
    <nd ref="441514294"/>
    <nd ref="147511390"/>
    <nd ref="303148985"/>
    <nd ref="441514293"/>
    <nd ref="303148983"/>
    <nd ref="441514295"/>
    <nd ref="303149674"/>
    <tag k="created_by" v="Potlatch 0.10d"/>
    <tag k="highway" v="tertiary"/>
    <tag k="name" v="South Fretz Avenue"/>
    <tag k="tiger:cfcc" v="A41"/>
    <tag k="tiger:county" v="Oklahoma, OK"/>
    <tag k="tiger:name_base" v="Fretz"/>
    <tag k="tiger:name_direction_prefix" v="S"/>
    <tag k="tiger:name_type" v="Ave"/>
    <tag k="tiger:reviewed" v="no"/>
    <tag k="tiger:separated" v="no"/>
    <tag k="tiger:source" v="tiger_import_dch_v0.6_20070829"/>
    <tag k="tiger:tlid" v="100435469:100435470"/>
    <tag k="tiger:zip_left" v="73013"/>
  </way>
  <way id="37712235" version="2" timestamp="2009-07-20T00:08:54Z" uid="23543" user="jkjk" changeset="1879809"/>
  <way id="37712373" version="3" timestamp="2010-03-22T06:33:14Z" uid="20587" user="balrog-kun" changeset="4199043">
    <nd ref="40041612"/>
    <nd ref="40041616"/>
    <nd ref="40041618"/>
    <nd ref="40041621"/>
    <nd ref="40041624"/>
    <nd ref="39747500"/>
    <nd ref="40041627"/>
    <nd ref="39747481"/>
    <nd ref="40041630"/>
    <nd ref="40041633"/>
    <nd ref="40041636"/>
    <nd ref="39839994"/>
    <nd ref="39655505"/>
    <nd ref="40041642"/>
    <nd ref="40041648"/>
    <nd ref="40041650"/>
    <nd ref="40041652"/>
    <nd ref="40041655"/>
    <nd ref="40041658"/>
    <nd ref="40041663"/>
    <nd ref="39732737"/>
    <nd ref="39732762"/>
    <nd ref="40041668"/>
    <nd ref="39732588"/>
    <nd ref="40041673"/>
    <nd ref="40041676"/>
    <nd ref="40041679"/>
    <nd ref="40041682"/>
    <nd ref="40041686"/>
    <nd ref="39732575"/>
    <nd ref="40041690"/>
    <nd ref="40041693"/>
    <nd ref="40041697"/>
    <nd ref="40041700"/>
    <nd ref="40041703"/>
    <nd ref="39913386"/>
    <nd ref="39800238"/>
    <nd ref="39800322"/>
    <nd ref="39800213"/>
    <nd ref="39992982"/>
    <nd ref="40041711"/>
    <nd ref="40041713"/>
    <nd ref="40041715"/>
    <nd ref="40041717"/>
    <nd ref="40041720"/>
    <nd ref="40041724"/>
    <nd ref="40041726"/>
    <nd ref="40041729"/>
    <nd ref="40041732"/>
    <nd ref="40041735"/>
    <nd ref="40041738"/>
    <nd ref="40041741"/>
    <nd ref="40041743"/>
    <nd ref="40041748"/>
    <nd ref="40041751"/>
    <nd ref="40041753"/>
    <nd ref="40041755"/>
    <nd ref="40041757"/>
    <nd ref="40041759"/>
    <nd ref="40041761"/>
    <nd ref="40041764"/>
    <nd ref="40041768"/>
    <nd ref="40041771"/>
    <nd ref="40041774"/>
    <nd ref="40041777"/>
    <nd ref="39680476"/>
    <nd ref="40041781"/>
    <nd ref="40041783"/>
    <nd ref="40041785"/>
    <nd ref="40041790"/>
    <nd ref="40041793"/>
    <nd ref="40041796"/>
    <nd ref="40041800"/>
    <nd ref="40041802"/>
    <nd ref="40041806"/>
    <nd ref="40041809"/>
    <nd ref="40041812"/>
    <nd ref="40041816"/>
    <nd ref="40041819"/>
    <nd ref="40041822"/>
    <nd ref="40041826"/>
    <nd ref="40041829"/>
    <nd ref="40041832"/>
    <nd ref="39607271"/>
    <nd ref="40041835"/>
    <nd ref="40041838"/>
    <nd ref="40041843"/>
    <nd ref="40041846"/>
    <nd ref="40041849"/>
    <nd ref="40041852"/>
    <nd ref="40041854"/>
    <nd ref="40041857"/>
    <nd ref="40041860"/>
    <nd ref="40041863"/>
    <nd ref="40041869"/>
    <nd ref="40041872"/>
    <nd ref="40041875"/>
    <nd ref="40041879"/>
    <nd ref="40041881"/>
    <nd ref="40041884"/>
    <nd ref="40041887"/>
    <nd ref="40041890"/>
    <nd ref="40041893"/>
    <nd ref="40041897"/>
    <nd ref="40041899"/>
    <nd ref="40041902"/>
    <nd ref="40041904"/>
    <nd ref="40041907"/>
    <nd ref="40041910"/>
    <nd ref="40041913"/>
    <nd ref="40041915"/>
    <nd ref="40041917"/>
    <nd ref="40041920"/>
    <nd ref="40041923"/>
    <nd ref="40041926"/>
    <nd ref="40041929"/>
    <nd ref="40041932"/>
    <nd ref="40041935"/>
    <nd ref="40041938"/>
    <nd ref="40041942"/>
    <nd ref="40041945"/>
    <nd ref="40041948"/>
    <nd ref="40041951"/>
    <nd ref="40041954"/>
    <nd ref="40041956"/>
    <nd ref="40041958"/>
    <nd ref="40041960"/>
    <nd ref="40041961"/>
    <nd ref="40041963"/>
    <nd ref="40041964"/>
    <nd ref="40041965"/>
    <nd ref="40041966"/>
    <nd ref="40041968"/>
    <nd ref="40041970"/>
    <nd ref="40041972"/>
    <nd ref="40041976"/>
    <nd ref="40041979"/>
    <nd ref="40041982"/>
    <nd ref="40041985"/>
    <nd ref="40041987"/>
    <nd ref="40041991"/>
    <nd ref="40041993"/>
    <nd ref="40041995"/>
    <nd ref="40041997"/>
    <nd ref="40042000"/>
    <nd ref="40042003"/>
    <nd ref="40042006"/>
    <nd ref="40042008"/>
    <nd ref="40042010"/>
    <nd ref="40042012"/>
    <nd ref="40042015"/>
    <nd ref="40042019"/>
    <nd ref="40042020"/>
    <nd ref="40042023"/>
    <nd ref="40042026"/>
    <nd ref="40042029"/>
    <nd ref="40042031"/>
    <nd ref="40042033"/>
    <nd ref="40042034"/>
    <nd ref="40042036"/>
    <nd ref="40042039"/>
    <nd ref="40042041"/>
    <nd ref="40042045"/>
    <nd ref="40042048"/>
    <nd ref="40042051"/>
    <nd ref="40042054"/>
    <nd ref="40042056"/>
    <nd ref="40042059"/>
    <nd ref="40042060"/>
    <nd ref="40042063"/>
    <nd ref="40042066"/>
    <nd ref="40042070"/>
    <nd ref="40042072"/>
    <nd ref="39844666"/>
    <nd ref="40042076"/>
    <nd ref="40042080"/>
    <nd ref="39844641"/>
    <nd ref="40042083"/>
    <nd ref="39825090"/>
    <nd ref="40042088"/>
    <nd ref="40042091"/>
    <nd ref="40042094"/>
    <nd ref="40042097"/>
    <nd ref="40042098"/>
    <nd ref="40042101"/>
    <nd ref="40042104"/>
    <nd ref="40042108"/>
    <nd ref="40042111"/>
    <nd ref="40042113"/>
    <nd ref="40042115"/>
    <nd ref="40042120"/>
    <nd ref="40042123"/>
    <nd ref="40042126"/>
    <nd ref="40042129"/>
    <nd ref="40042131"/>
    <nd ref="40042134"/>
    <nd ref="40042137"/>
    <nd ref="40042140"/>
    <nd ref="40042141"/>
    <nd ref="40042142"/>
    <nd ref="40042145"/>
    <nd ref="40042147"/>
    <nd ref="40042150"/>
    <nd ref="40042153"/>
    <nd ref="40042155"/>
    <nd ref="40042157"/>
    <nd ref="40000971"/>
    <nd ref="40042162"/>
    <nd ref="39694178"/>
    <nd ref="39694720"/>
    <nd ref="40042169"/>
    <nd ref="40042173"/>
    <nd ref="40042176"/>
    <nd ref="40042179"/>
    <nd ref="39766621"/>
    <nd ref="40042183"/>
    <nd ref="40042186"/>
    <nd ref="39709912"/>
    <nd ref="40000927"/>
    <nd ref="40042193"/>
    <nd ref="40042198"/>
    <nd ref="40042201"/>
    <nd ref="39911253"/>
    <nd ref="39911262"/>
    <nd ref="40042208"/>
    <nd ref="40042211"/>
    <nd ref="40042214"/>
    <nd ref="40042217"/>
    <nd ref="39876540"/>
    <nd ref="39810132"/>
    <nd ref="40042222"/>
    <nd ref="39699340"/>
    <nd ref="40042227"/>
    <nd ref="40042230"/>
    <nd ref="39810098"/>
    <nd ref="40042233"/>
    <nd ref="39892140"/>
    <nd ref="39599389"/>
    <nd ref="40013565"/>
    <nd ref="40042242"/>
    <nd ref="39942633"/>
    <nd ref="40042246"/>
    <nd ref="40033105"/>
    <nd ref="39964478"/>
    <nd ref="40042251"/>
    <nd ref="39624376"/>
    <nd ref="40042255"/>
    <nd ref="39818025"/>
    <nd ref="39817786"/>
    <nd ref="40042260"/>
    <nd ref="40042264"/>
    <nd ref="40042267"/>
    <nd ref="39834731"/>
    <nd ref="40000020"/>
    <nd ref="39838438"/>
    <nd ref="40042272"/>
    <nd ref="39838457"/>
    <nd ref="40042277"/>
    <nd ref="40021745"/>
    <nd ref="39714323"/>
    <nd ref="40042282"/>
    <nd ref="39680692"/>
    <nd ref="40042287"/>
    <nd ref="40042290"/>
    <nd ref="40042292"/>
    <nd ref="40042296"/>
    <nd ref="40042299"/>
    <nd ref="39680189"/>
    <nd ref="40042303"/>
    <nd ref="40042305"/>
    <nd ref="39680153"/>
    <nd ref="39758165"/>
    <nd ref="40042308"/>
    <nd ref="40042311"/>
    <nd ref="40042314"/>
    <nd ref="40042317"/>
    <nd ref="40042319"/>
    <nd ref="40042323"/>
    <nd ref="40042325"/>
    <nd ref="40042327"/>
    <nd ref="40042330"/>
    <nd ref="40042335"/>
    <nd ref="40042338"/>
    <nd ref="40042341"/>
    <nd ref="40042344"/>
    <nd ref="40020967"/>
    <nd ref="40042347"/>
    <nd ref="40042349"/>
    <nd ref="40042351"/>
    <nd ref="39915332"/>
    <nd ref="40042354"/>
    <nd ref="39677512"/>
    <nd ref="40042360"/>
    <nd ref="40042363"/>
    <nd ref="40042366"/>
    <nd ref="40042369"/>
    <nd ref="40042372"/>
    <nd ref="40042375"/>
    <nd ref="40042378"/>
    <nd ref="40042381"/>
    <nd ref="40042386"/>
    <nd ref="40042391"/>
    <nd ref="40042395"/>
    <nd ref="40042397"/>
    <nd ref="40042401"/>
    <nd ref="40042404"/>
    <nd ref="39853597"/>
    <nd ref="39642640"/>
    <nd ref="40042409"/>
    <nd ref="39698753"/>
    <nd ref="40042412"/>
    <nd ref="40038707"/>
    <nd ref="40042415"/>
    <nd ref="40042420"/>
    <nd ref="40042423"/>
    <nd ref="40042425"/>
    <nd ref="40042427"/>
    <nd ref="40042428"/>
    <nd ref="39980192"/>
    <nd ref="40038650"/>
    <nd ref="40017331"/>
    <nd ref="40042437"/>
    <nd ref="40042439"/>
    <nd ref="40042442"/>
    <nd ref="39898035"/>
    <nd ref="40042445"/>
    <nd ref="40042448"/>
    <nd ref="40042451"/>
    <nd ref="39674777"/>
    <nd ref="40042456"/>
    <nd ref="40042458"/>
    <nd ref="40042461"/>
    <nd ref="39641441"/>
    <nd ref="40042465"/>
    <nd ref="40042468"/>
    <nd ref="40028581"/>
    <nd ref="40042474"/>
    <nd ref="40042477"/>
    <nd ref="39717662"/>
    <nd ref="40023684"/>
    <nd ref="40042481"/>
    <nd ref="40042485"/>
    <nd ref="40042488"/>
    <nd ref="40042492"/>
    <nd ref="40042496"/>
    <nd ref="40042498"/>
    <nd ref="40042502"/>
    <nd ref="40042505"/>
    <nd ref="40042507"/>
    <nd ref="40042508"/>
    <nd ref="40042511"/>
    <nd ref="40042513"/>
    <nd ref="40042515"/>
    <nd ref="40042517"/>
    <nd ref="39637581"/>
    <nd ref="40042522"/>
    <nd ref="40042526"/>
    <nd ref="40042530"/>
    <nd ref="40012992"/>
    <nd ref="40042536"/>
    <nd ref="40042539"/>
    <nd ref="40042542"/>
    <nd ref="39803146"/>
    <nd ref="40042549"/>
    <nd ref="40042553"/>
    <nd ref="39757530"/>
    <nd ref="39919731"/>
    <nd ref="39916172"/>
    <nd ref="40042560"/>
    <nd ref="40042561"/>
    <nd ref="40042564"/>
    <nd ref="39975871"/>
    <nd ref="40042566"/>
    <nd ref="40042568"/>
    <nd ref="39966752"/>
    <nd ref="40042573"/>
    <nd ref="39919635"/>
    <nd ref="39824327"/>
    <nd ref="40042577"/>
    <nd ref="40042580"/>
    <nd ref="40002715"/>
    <nd ref="39949339"/>
    <nd ref="39925652"/>
    <nd ref="39881004"/>
    <nd ref="39949301"/>
    <nd ref="39945069"/>
    <nd ref="40042593"/>
    <nd ref="40017602"/>
    <nd ref="40002672"/>
    <nd ref="39988584"/>
    <nd ref="40042599"/>
    <nd ref="40042602"/>
    <nd ref="40042604"/>
    <nd ref="39750928"/>
    <nd ref="40042606"/>
    <nd ref="39830849"/>
    <nd ref="40042611"/>
    <nd ref="39703523"/>
    <nd ref="39703245"/>
    <nd ref="39863240"/>
    <nd ref="39831279"/>
    <nd ref="39702160"/>
    <nd ref="40001942"/>
    <nd ref="39961416"/>
    <nd ref="39892343"/>
    <nd ref="39892359"/>
    <nd ref="39787554"/>
    <nd ref="40042628"/>
    <nd ref="39787568"/>
    <nd ref="40042633"/>
    <nd ref="39750895"/>
    <nd ref="39750924"/>
    <nd ref="40042639"/>
    <nd ref="39633422"/>
    <nd ref="40042644"/>
    <nd ref="40042647"/>
    <nd ref="40042650"/>
    <nd ref="39607641"/>
    <nd ref="39803015"/>
    <nd ref="39644975"/>
    <nd ref="40042658"/>
    <nd ref="40042662"/>
    <nd ref="40042665"/>
    <nd ref="39975791"/>
    <nd ref="39816211"/>
    <nd ref="39904291"/>
    <nd ref="40042668"/>
    <nd ref="39803189"/>
    <nd ref="40042671"/>
    <nd ref="40042674"/>
    <nd ref="40042678"/>
    <nd ref="40042682"/>
    <nd ref="40042685"/>
    <nd ref="40042688"/>
    <nd ref="39808472"/>
    <nd ref="40042695"/>
    <nd ref="40042698"/>
    <nd ref="39656540"/>
    <nd ref="40042703"/>
    <nd ref="40042708"/>
    <nd ref="39913923"/>
    <nd ref="40042715"/>
    <nd ref="39682026"/>
    <nd ref="297112903"/>
    <nd ref="40042721"/>
    <nd ref="40042724"/>
    <nd ref="39682014"/>
    <nd ref="39873080"/>
    <nd ref="40042729"/>
    <nd ref="40042732"/>
    <nd ref="40042734"/>
    <nd ref="40042737"/>
    <nd ref="39800204"/>
    <nd ref="40042742"/>
    <nd ref="40042745"/>
    <nd ref="40042749"/>
    <nd ref="40042753"/>
    <nd ref="40042756"/>
    <nd ref="40042759"/>
    <nd ref="39760757"/>
    <nd ref="39974440"/>
    <tag k="highway" v="primary"/>
    <tag k="name" v="The Dalles-California Highway"/>
    <tag k="ref" v="US 97"/>
    <tag k="tiger:cfcc" v="A21"/>
    <tag k="tiger:county" v="Klamath, OR"/>
    <tag k="tiger:name_base" v="United States Highway 97"/>
    <tag k="tiger:name_base_1" v="The Dalles-California"/>
    <tag k="tiger:name_type_1" v="Hwy"/>
    <tag k="tiger:reviewed" v="no"/>
    <tag k="tiger:separated" v="no"/>
    <tag k="tiger:source" v="tiger_import_dch_v0.6_20070808"/>
    <tag k="tiger:tlid" v="156669493:156669496:156668894:156669031:156668995:156668896:156669073:156669078:156669123:156669141:156669144:156669150:156704674:156704675:156669609:156669233:156669237:156698085:156669263:156669272:156669307:156669273:156669314:156698086:156668344:15666"/>
  </way>
  <way id="37712373" version="4" timestamp="2010-06-29T14:54:48Z" uid="129255" user="Binary Alchemy" changeset="5106514">
    <nd ref="40041612"/>
    <nd ref="40041616"/>
    <nd ref="40041618"/>
    <nd ref="40041621"/>
    <nd ref="40041624"/>
    <nd ref="39747500"/>
    <nd ref="40041627"/>
    <nd ref="39747481"/>
    <nd ref="40041630"/>
    <nd ref="40041633"/>
    <nd ref="40041636"/>
    <nd ref="39839994"/>
    <nd ref="39655505"/>
    <nd ref="40041642"/>
    <nd ref="40041648"/>
    <nd ref="40041650"/>
    <nd ref="40041652"/>
    <nd ref="40041655"/>
    <nd ref="40041658"/>
    <nd ref="40041663"/>
    <nd ref="39732737"/>
    <nd ref="39732762"/>
    <nd ref="40041668"/>
    <nd ref="39732588"/>
    <nd ref="40041673"/>
    <nd ref="40041676"/>
    <nd ref="40041679"/>
    <nd ref="40041682"/>
    <nd ref="40041686"/>
    <nd ref="39732575"/>
    <nd ref="40041690"/>
    <nd ref="40041693"/>
    <nd ref="40041697"/>
    <nd ref="40041700"/>
    <nd ref="40041703"/>
    <nd ref="39913386"/>
    <nd ref="39800238"/>
    <nd ref="39800322"/>
    <nd ref="39800213"/>
    <nd ref="39992982"/>
    <nd ref="40041711"/>
    <nd ref="40041713"/>
    <nd ref="40041715"/>
    <nd ref="40041717"/>
    <nd ref="40041720"/>
    <nd ref="40041724"/>
    <nd ref="40041726"/>
    <nd ref="40041729"/>
    <nd ref="40041732"/>
    <nd ref="40041735"/>
    <nd ref="40041738"/>
    <nd ref="40041741"/>
    <nd ref="40041743"/>
    <nd ref="40041748"/>
    <nd ref="40041751"/>
    <nd ref="40041753"/>
    <nd ref="40041755"/>
    <nd ref="40041757"/>
    <nd ref="40041759"/>
    <nd ref="40041761"/>
    <nd ref="40041764"/>
    <nd ref="40041768"/>
    <nd ref="40041771"/>
    <nd ref="40041774"/>
    <nd ref="40041777"/>
    <nd ref="39680476"/>
    <nd ref="40041781"/>
    <nd ref="40041783"/>
    <nd ref="40041785"/>
    <nd ref="40041790"/>
    <nd ref="40041793"/>
    <nd ref="40041796"/>
    <nd ref="40041800"/>
    <nd ref="40041802"/>
    <nd ref="40041806"/>
    <nd ref="40041809"/>
    <nd ref="40041812"/>
    <nd ref="40041816"/>
    <nd ref="40041819"/>
    <nd ref="40041822"/>
    <nd ref="40041826"/>
    <nd ref="40041829"/>
    <nd ref="40041832"/>
    <nd ref="39607271"/>
    <nd ref="40041835"/>
    <nd ref="40041838"/>
    <nd ref="40041843"/>
    <nd ref="40041846"/>
    <nd ref="40041849"/>
    <nd ref="40041852"/>
    <nd ref="40041854"/>
    <nd ref="40041857"/>
    <nd ref="40041860"/>
    <nd ref="40041863"/>
    <nd ref="40041869"/>
    <nd ref="40041872"/>
    <nd ref="40041875"/>
    <nd ref="40041879"/>
    <nd ref="40041881"/>
    <nd ref="40041884"/>
    <nd ref="40041887"/>
    <nd ref="40041890"/>
    <nd ref="40041893"/>
    <nd ref="40041897"/>
    <nd ref="40041899"/>
    <nd ref="40041902"/>
    <nd ref="40041904"/>
    <nd ref="40041907"/>
    <nd ref="40041910"/>
    <nd ref="40041913"/>
    <nd ref="40041915"/>
    <nd ref="40041917"/>
    <nd ref="40041920"/>
    <nd ref="40041923"/>
    <nd ref="40041926"/>
    <nd ref="40041929"/>
    <nd ref="40041932"/>
    <nd ref="40041935"/>
    <nd ref="40041938"/>
    <nd ref="40041942"/>
    <nd ref="40041945"/>
    <nd ref="40041948"/>
    <nd ref="40041951"/>
    <nd ref="40041954"/>
    <nd ref="40041956"/>
    <nd ref="40041958"/>
    <nd ref="40041960"/>
    <nd ref="40041961"/>
    <nd ref="40041963"/>
    <nd ref="40041964"/>
    <nd ref="40041965"/>
    <nd ref="40041966"/>
    <nd ref="40041968"/>
    <nd ref="40041970"/>
    <nd ref="40041972"/>
    <nd ref="40041976"/>
    <nd ref="40041979"/>
    <nd ref="40041982"/>
    <nd ref="40041985"/>
    <nd ref="40041987"/>
    <nd ref="40041991"/>
    <nd ref="40041993"/>
    <nd ref="40041995"/>
    <nd ref="40041997"/>
    <nd ref="40042000"/>
    <nd ref="40042003"/>
    <nd ref="40042006"/>
    <nd ref="40042008"/>
    <nd ref="40042010"/>
    <nd ref="40042012"/>
    <nd ref="40042015"/>
    <nd ref="40042019"/>
    <nd ref="40042020"/>
    <nd ref="40042023"/>
    <nd ref="40042026"/>
    <nd ref="40042029"/>
    <nd ref="40042031"/>
    <nd ref="40042033"/>
    <nd ref="40042034"/>
    <nd ref="40042036"/>
    <nd ref="40042039"/>
    <nd ref="40042041"/>
    <nd ref="40042045"/>
    <nd ref="40042048"/>
    <nd ref="40042051"/>
    <nd ref="40042054"/>
    <nd ref="40042056"/>
    <nd ref="40042059"/>
    <nd ref="40042060"/>
    <nd ref="40042063"/>
    <nd ref="40042066"/>
    <nd ref="40042070"/>
    <nd ref="40042072"/>
    <nd ref="39844666"/>
    <nd ref="40042076"/>
    <nd ref="40042080"/>
    <nd ref="39844641"/>
    <nd ref="40042083"/>
    <nd ref="39825090"/>
    <nd ref="40042088"/>
    <nd ref="40042091"/>
    <nd ref="40042094"/>
    <nd ref="40042097"/>
    <nd ref="40042098"/>
    <nd ref="40042101"/>
    <nd ref="40042104"/>
    <nd ref="40042108"/>
    <nd ref="40042111"/>
    <nd ref="40042113"/>
    <nd ref="40042115"/>
    <nd ref="40042120"/>
    <nd ref="40042123"/>
    <nd ref="40042126"/>
    <nd ref="40042129"/>
    <nd ref="40042131"/>
    <nd ref="40042134"/>
    <nd ref="40042137"/>
    <nd ref="40042140"/>
    <nd ref="40042141"/>
    <nd ref="40042142"/>
    <nd ref="40042145"/>
    <nd ref="40042147"/>
    <nd ref="40042150"/>
    <nd ref="40042153"/>
    <nd ref="40042155"/>
    <nd ref="40042157"/>
    <nd ref="40000971"/>
    <nd ref="40042162"/>
    <nd ref="39694178"/>
    <nd ref="39694720"/>
    <nd ref="40042169"/>
    <nd ref="40042173"/>
    <nd ref="40042176"/>
    <nd ref="40042179"/>
    <nd ref="39766621"/>
    <nd ref="40042183"/>
    <nd ref="40042186"/>
    <nd ref="39709912"/>
    <nd ref="40000927"/>
    <nd ref="40042193"/>
    <nd ref="40042198"/>
    <nd ref="40042201"/>
    <nd ref="39911253"/>
    <nd ref="39911262"/>
    <nd ref="40042208"/>
    <nd ref="40042211"/>
    <nd ref="40042214"/>
    <nd ref="40042217"/>
    <nd ref="39876540"/>
    <nd ref="39810132"/>
    <nd ref="40042222"/>
    <nd ref="39699340"/>
    <nd ref="40042227"/>
    <nd ref="40042230"/>
    <nd ref="39810098"/>
    <nd ref="40042233"/>
    <nd ref="39892140"/>
    <nd ref="39599389"/>
    <nd ref="40013565"/>
    <nd ref="40042242"/>
    <nd ref="39942633"/>
    <nd ref="40042246"/>
    <nd ref="40033105"/>
    <nd ref="39964478"/>
    <nd ref="40042251"/>
    <nd ref="39624376"/>
    <nd ref="40042255"/>
    <nd ref="39818025"/>
    <nd ref="39817786"/>
    <nd ref="40042260"/>
    <nd ref="40042264"/>
    <nd ref="40042267"/>
    <nd ref="39834731"/>
    <nd ref="40000020"/>
    <nd ref="39838438"/>
    <nd ref="40042272"/>
    <nd ref="39838457"/>
    <nd ref="40042277"/>
    <nd ref="40021745"/>
    <nd ref="39714323"/>
    <nd ref="40042282"/>
    <nd ref="39680692"/>
    <nd ref="40042287"/>
    <nd ref="40042290"/>
    <nd ref="40042292"/>
    <nd ref="40042296"/>
    <nd ref="40042299"/>
    <nd ref="39680189"/>
    <nd ref="40042303"/>
    <nd ref="40042305"/>
    <nd ref="39680153"/>
    <nd ref="39758165"/>
    <nd ref="40042308"/>
    <nd ref="40042311"/>
    <nd ref="40042314"/>
    <nd ref="40042317"/>
    <nd ref="40042319"/>
    <nd ref="40042323"/>
    <nd ref="40042325"/>
    <nd ref="40042327"/>
    <nd ref="40042330"/>
    <nd ref="40042335"/>
    <nd ref="40042338"/>
    <nd ref="40042341"/>
    <nd ref="40042344"/>
    <nd ref="40020967"/>
    <nd ref="40042347"/>
    <nd ref="40042349"/>
    <nd ref="40042351"/>
    <nd ref="39915332"/>
    <nd ref="40042354"/>
    <nd ref="39677512"/>
    <nd ref="40042360"/>
    <nd ref="40042363"/>
    <nd ref="40042366"/>
    <nd ref="40042369"/>
    <nd ref="40042372"/>
    <nd ref="40042375"/>
    <nd ref="40042378"/>
    <nd ref="40042381"/>
    <nd ref="40042386"/>
    <nd ref="40042391"/>
    <nd ref="40042395"/>
    <nd ref="40042397"/>
    <nd ref="40042401"/>
    <nd ref="40042404"/>
    <nd ref="39853597"/>
    <nd ref="39642640"/>
    <nd ref="40042409"/>
    <nd ref="39698753"/>
    <nd ref="40042412"/>
    <nd ref="40038707"/>
    <nd ref="40042415"/>
    <nd ref="40042420"/>
    <nd ref="40042423"/>
    <nd ref="40042425"/>
    <nd ref="40042427"/>
    <nd ref="40042428"/>
    <nd ref="39980192"/>
    <nd ref="40038650"/>
    <nd ref="40017331"/>
    <nd ref="40042437"/>
    <nd ref="40042439"/>
    <nd ref="40042442"/>
    <nd ref="39898035"/>
    <nd ref="40042445"/>
    <nd ref="40042448"/>
    <nd ref="40042451"/>
    <nd ref="39674777"/>
    <nd ref="40042456"/>
    <nd ref="40042458"/>
    <nd ref="40042461"/>
    <nd ref="39641441"/>
    <nd ref="40042465"/>
    <nd ref="40042468"/>
    <nd ref="40028581"/>
    <nd ref="40042474"/>
    <nd ref="40042477"/>
    <nd ref="39717662"/>
    <nd ref="40023684"/>
    <nd ref="40042481"/>
    <nd ref="40042485"/>
    <nd ref="40042488"/>
    <nd ref="40042492"/>
    <nd ref="40042496"/>
    <nd ref="40042498"/>
    <nd ref="40042502"/>
    <nd ref="40042505"/>
    <nd ref="40042507"/>
    <nd ref="40042508"/>
    <nd ref="40042511"/>
    <nd ref="40042513"/>
    <nd ref="40042515"/>
    <nd ref="40042517"/>
    <nd ref="39637581"/>
    <nd ref="40042522"/>
    <nd ref="40042526"/>
    <nd ref="40042530"/>
    <nd ref="40012992"/>
    <nd ref="40042536"/>
    <nd ref="40042539"/>
    <nd ref="40042542"/>
    <nd ref="39803146"/>
    <nd ref="40042549"/>
    <nd ref="40042553"/>
    <nd ref="39757530"/>
    <nd ref="39919731"/>
    <nd ref="39916172"/>
    <nd ref="40042560"/>
    <nd ref="40042561"/>
    <nd ref="40042564"/>
    <nd ref="39975871"/>
    <nd ref="40042566"/>
    <nd ref="40042568"/>
    <nd ref="39966752"/>
    <nd ref="40042573"/>
    <nd ref="39919635"/>
    <nd ref="39824327"/>
    <nd ref="40042577"/>
    <nd ref="40042580"/>
    <nd ref="40002715"/>
    <nd ref="39949339"/>
    <nd ref="39925652"/>
    <nd ref="39881004"/>
    <nd ref="39949301"/>
    <nd ref="39945069"/>
    <nd ref="40042593"/>
    <nd ref="40017602"/>
    <nd ref="40002672"/>
    <nd ref="39988584"/>
    <nd ref="40042599"/>
    <nd ref="40042602"/>
    <nd ref="40042604"/>
    <nd ref="39750928"/>
    <nd ref="40042606"/>
    <nd ref="39830849"/>
    <nd ref="40042611"/>
    <nd ref="39703523"/>
    <nd ref="39703245"/>
    <nd ref="39863240"/>
    <nd ref="39831279"/>
    <nd ref="39702160"/>
    <nd ref="40001942"/>
    <nd ref="39961416"/>
    <nd ref="795892586"/>
    <nd ref="39892343"/>
    <nd ref="39892359"/>
    <nd ref="795892580"/>
    <nd ref="39787554"/>
    <nd ref="40042628"/>
    <nd ref="39787568"/>
    <nd ref="40042633"/>
    <nd ref="39750895"/>
    <nd ref="39750924"/>
    <nd ref="40042639"/>
    <nd ref="39633422"/>
    <nd ref="40042644"/>
    <nd ref="40042647"/>
    <nd ref="40042650"/>
    <nd ref="39607641"/>
    <nd ref="39803015"/>
    <nd ref="39644975"/>
    <nd ref="40042658"/>
    <nd ref="40042662"/>
    <nd ref="40042665"/>
    <nd ref="39975791"/>
    <nd ref="39816211"/>
    <nd ref="39904291"/>
    <nd ref="40042668"/>
    <nd ref="39803189"/>
    <nd ref="40042671"/>
    <nd ref="40042674"/>
    <nd ref="40042678"/>
    <nd ref="40042682"/>
    <nd ref="40042685"/>
    <nd ref="40042688"/>
    <nd ref="39808472"/>
    <nd ref="40042695"/>
    <nd ref="40042698"/>
    <nd ref="39656540"/>
    <nd ref="40042703"/>
    <nd ref="40042708"/>
    <nd ref="39913923"/>
    <nd ref="40042715"/>
    <nd ref="39682026"/>
    <nd ref="297112903"/>
    <nd ref="40042721"/>
    <nd ref="40042724"/>
    <nd ref="39682014"/>
    <nd ref="39873080"/>
    <nd ref="40042729"/>
    <nd ref="40042732"/>
    <nd ref="40042734"/>
    <nd ref="40042737"/>
    <nd ref="39800204"/>
    <nd ref="40042742"/>
    <nd ref="40042745"/>
    <nd ref="40042749"/>
    <nd ref="40042753"/>
    <nd ref="40042756"/>
    <nd ref="40042759"/>
    <nd ref="39760757"/>
    <nd ref="39974440"/>
    <tag k="highway" v="primary"/>
    <tag k="name" v="The Dalles-California Highway"/>
    <tag k="ref" v="US 97"/>
    <tag k="tiger:cfcc" v="A21"/>
    <tag k="tiger:county" v="Klamath, OR"/>
    <tag k="tiger:name_base" v="United States Highway 97"/>
    <tag k="tiger:name_base_1" v="The Dalles-California"/>
    <tag k="tiger:name_type_1" v="Hwy"/>
    <tag k="tiger:reviewed" v="no"/>
    <tag k="tiger:separated" v="no"/>
    <tag k="tiger:source" v="tiger_import_dch_v0.6_20070808"/>
    <tag k="tiger:tlid" v="156669493:156669496:156668894:156669031:156668995:156668896:156669073:156669078:156669123:156669141:156669144:156669150:156704674:156704675:156669609:156669233:156669237:156698085:156669263:156669272:156669307:156669273:156669314:156698086:156668344:15666"/>
  </way>
  <way id="37712373" version="5" timestamp="2010-07-07T18:22:43Z" uid="92286" user="Paul Johnson" changeset="5160407">
    <nd ref="40041612"/>
    <nd ref="40041616"/>
    <nd ref="40041618"/>
    <nd ref="40041621"/>
    <nd ref="40041624"/>
    <nd ref="39747500"/>
    <nd ref="40041627"/>
    <nd ref="39747481"/>
    <nd ref="40041630"/>
    <nd ref="40041633"/>
    <nd ref="40041636"/>
    <nd ref="39839994"/>
    <nd ref="39655505"/>
    <nd ref="40041642"/>
    <nd ref="40041648"/>
    <nd ref="40041650"/>
    <nd ref="40041652"/>
    <nd ref="40041655"/>
    <nd ref="40041658"/>
    <nd ref="40041663"/>
    <nd ref="39732737"/>
    <nd ref="39732762"/>
    <nd ref="40041668"/>
    <nd ref="39732588"/>
    <nd ref="40041673"/>
    <nd ref="40041676"/>
    <nd ref="40041679"/>
    <nd ref="40041682"/>
    <nd ref="40041686"/>
    <nd ref="39732575"/>
    <nd ref="40041690"/>
    <nd ref="40041693"/>
    <nd ref="40041697"/>
    <nd ref="40041700"/>
    <nd ref="40041703"/>
    <nd ref="39913386"/>
    <nd ref="39800238"/>
    <nd ref="39800322"/>
    <nd ref="39800213"/>
    <nd ref="39992982"/>
    <nd ref="40041711"/>
    <nd ref="40041713"/>
    <nd ref="40041715"/>
    <nd ref="40041717"/>
    <nd ref="40041720"/>
    <nd ref="40041724"/>
    <nd ref="40041726"/>
    <nd ref="40041729"/>
    <nd ref="40041732"/>
    <nd ref="40041735"/>
    <nd ref="40041738"/>
    <nd ref="40041741"/>
    <nd ref="40041743"/>
    <nd ref="40041748"/>
    <nd ref="40041751"/>
    <nd ref="40041753"/>
    <nd ref="40041755"/>
    <nd ref="40041757"/>
    <nd ref="40041759"/>
    <nd ref="40041761"/>
    <nd ref="40041764"/>
    <nd ref="40041768"/>
    <nd ref="40041771"/>
    <nd ref="40041774"/>
    <nd ref="40041777"/>
    <nd ref="39680476"/>
    <nd ref="40041781"/>
    <nd ref="40041783"/>
    <nd ref="40041785"/>
    <nd ref="40041790"/>
    <nd ref="40041793"/>
    <nd ref="40041796"/>
    <nd ref="40041800"/>
    <nd ref="40041802"/>
    <nd ref="40041806"/>
    <nd ref="40041809"/>
    <nd ref="40041812"/>
    <nd ref="40041816"/>
    <nd ref="40041819"/>
    <nd ref="40041822"/>
    <nd ref="40041826"/>
    <nd ref="40041829"/>
    <nd ref="40041832"/>
    <nd ref="39607271"/>
    <nd ref="40041835"/>
    <nd ref="40041838"/>
    <nd ref="40041843"/>
    <nd ref="40041846"/>
    <nd ref="40041849"/>
    <nd ref="40041852"/>
    <nd ref="40041854"/>
    <nd ref="40041857"/>
    <nd ref="40041860"/>
    <nd ref="40041863"/>
    <nd ref="40041869"/>
    <nd ref="40041872"/>
    <nd ref="40041875"/>
    <nd ref="40041879"/>
    <nd ref="40041881"/>
    <nd ref="40041884"/>
    <nd ref="40041887"/>
    <nd ref="40041890"/>
    <nd ref="40041893"/>
    <nd ref="40041897"/>
    <nd ref="40041899"/>
    <nd ref="40041902"/>
    <nd ref="40041904"/>
    <nd ref="40041907"/>
    <nd ref="40041910"/>
    <nd ref="40041913"/>
    <nd ref="40041915"/>
    <nd ref="40041917"/>
    <nd ref="40041920"/>
    <nd ref="40041923"/>
    <nd ref="40041926"/>
    <nd ref="40041929"/>
    <nd ref="40041932"/>
    <nd ref="40041935"/>
    <nd ref="40041938"/>
    <nd ref="40041942"/>
    <nd ref="40041945"/>
    <nd ref="40041948"/>
    <nd ref="40041951"/>
    <nd ref="40041954"/>
    <nd ref="40041956"/>
    <nd ref="40041958"/>
    <nd ref="40041960"/>
    <nd ref="40041961"/>
    <nd ref="40041963"/>
    <nd ref="40041964"/>
    <nd ref="40041965"/>
    <nd ref="40041966"/>
    <nd ref="40041968"/>
    <nd ref="40041970"/>
    <nd ref="40041972"/>
    <nd ref="40041976"/>
    <nd ref="40041979"/>
    <nd ref="40041982"/>
    <nd ref="40041985"/>
    <nd ref="40041987"/>
    <nd ref="40041991"/>
    <nd ref="40041993"/>
    <nd ref="40041995"/>
    <nd ref="40041997"/>
    <nd ref="40042000"/>
    <nd ref="40042003"/>
    <nd ref="40042006"/>
    <nd ref="40042008"/>
    <nd ref="40042010"/>
    <nd ref="40042012"/>
    <nd ref="40042015"/>
    <nd ref="40042019"/>
    <nd ref="40042020"/>
    <nd ref="40042023"/>
    <nd ref="40042026"/>
    <nd ref="40042029"/>
    <nd ref="40042031"/>
    <nd ref="40042033"/>
    <nd ref="40042034"/>
    <nd ref="40042036"/>
    <nd ref="40042039"/>
    <nd ref="40042041"/>
    <nd ref="40042045"/>
    <nd ref="40042048"/>
    <nd ref="40042051"/>
    <nd ref="40042054"/>
    <nd ref="40042056"/>
    <nd ref="40042059"/>
    <nd ref="40042060"/>
    <nd ref="40042063"/>
    <nd ref="40042066"/>
    <nd ref="40042070"/>
    <nd ref="40042072"/>
    <nd ref="39844666"/>
    <nd ref="40042076"/>
    <nd ref="40042080"/>
    <nd ref="39844641"/>
    <nd ref="40042083"/>
    <nd ref="39825090"/>
    <nd ref="40042088"/>
    <nd ref="40042091"/>
    <nd ref="40042094"/>
    <nd ref="40042097"/>
    <nd ref="40042098"/>
    <nd ref="40042101"/>
    <nd ref="40042104"/>
    <nd ref="40042108"/>
    <nd ref="40042111"/>
    <nd ref="40042113"/>
    <nd ref="40042115"/>
    <nd ref="40042120"/>
    <nd ref="40042123"/>
    <nd ref="40042126"/>
    <nd ref="40042129"/>
    <nd ref="40042131"/>
    <nd ref="40042134"/>
    <nd ref="40042137"/>
    <nd ref="40042140"/>
    <nd ref="40042141"/>
    <nd ref="40042142"/>
    <nd ref="40042145"/>
    <nd ref="40042147"/>
    <nd ref="40042150"/>
    <nd ref="40042153"/>
    <nd ref="40042155"/>
    <nd ref="40042157"/>
    <nd ref="40000971"/>
    <nd ref="40042162"/>
    <nd ref="39694178"/>
    <nd ref="39694720"/>
    <nd ref="40042169"/>
    <nd ref="40042173"/>
    <nd ref="40042176"/>
    <nd ref="40042179"/>
    <nd ref="39766621"/>
    <nd ref="40168614"/>
    <nd ref="40042186"/>
    <nd ref="39709912"/>
    <nd ref="40000927"/>
    <nd ref="40042193"/>
    <nd ref="40042198"/>
    <nd ref="40042201"/>
    <nd ref="39911253"/>
    <nd ref="39911262"/>
    <nd ref="40042208"/>
    <nd ref="40042211"/>
    <nd ref="40042214"/>
    <nd ref="40042217"/>
    <nd ref="39876540"/>
    <nd ref="39810132"/>
    <nd ref="40042222"/>
    <nd ref="39699340"/>
    <nd ref="40042227"/>
    <nd ref="40042230"/>
    <nd ref="39810098"/>
    <nd ref="40042233"/>
    <nd ref="39892140"/>
    <nd ref="39599389"/>
    <nd ref="40013565"/>
    <nd ref="40042242"/>
    <nd ref="39942633"/>
    <nd ref="40042246"/>
    <nd ref="40033105"/>
    <nd ref="39964478"/>
    <nd ref="40042251"/>
    <nd ref="39624376"/>
    <nd ref="40042255"/>
    <nd ref="39818025"/>
    <nd ref="39817786"/>
    <nd ref="40042260"/>
    <nd ref="40042264"/>
    <nd ref="40042267"/>
    <nd ref="39834731"/>
    <nd ref="40000020"/>
    <nd ref="39838438"/>
    <nd ref="40042272"/>
    <nd ref="39838457"/>
    <nd ref="40042277"/>
    <nd ref="40021745"/>
    <nd ref="39714323"/>
    <nd ref="40042282"/>
    <nd ref="39680692"/>
    <nd ref="40042287"/>
    <nd ref="40042290"/>
    <nd ref="40042292"/>
    <nd ref="40042296"/>
    <nd ref="40042299"/>
    <nd ref="39680189"/>
    <nd ref="40042303"/>
    <nd ref="40042305"/>
    <nd ref="39680153"/>
    <nd ref="39758165"/>
    <nd ref="40042308"/>
    <nd ref="40042311"/>
    <nd ref="40042314"/>
    <nd ref="40042317"/>
    <nd ref="40042319"/>
    <nd ref="40042323"/>
    <nd ref="40042325"/>
    <nd ref="40042327"/>
    <nd ref="40042330"/>
    <nd ref="40042335"/>
    <nd ref="40042338"/>
    <nd ref="40042341"/>
    <nd ref="40042344"/>
    <nd ref="40020967"/>
    <nd ref="40042347"/>
    <nd ref="40042349"/>
    <nd ref="40042351"/>
    <nd ref="39915332"/>
    <nd ref="40042354"/>
    <nd ref="39677512"/>
    <nd ref="40042360"/>
    <nd ref="40042363"/>
    <nd ref="40042366"/>
    <nd ref="40042369"/>
    <nd ref="40042372"/>
    <nd ref="40042375"/>
    <nd ref="40042378"/>
    <nd ref="40042381"/>
    <nd ref="40042386"/>
    <nd ref="40042391"/>
    <nd ref="40042395"/>
    <nd ref="40042397"/>
    <nd ref="40042401"/>
    <nd ref="40042404"/>
    <nd ref="39853597"/>
    <nd ref="39642640"/>
    <nd ref="40042409"/>
    <nd ref="39698753"/>
    <nd ref="40042412"/>
    <nd ref="40038707"/>
    <nd ref="40042415"/>
    <nd ref="40042420"/>
    <nd ref="40042423"/>
    <nd ref="40042425"/>
    <nd ref="40042427"/>
    <nd ref="40042428"/>
    <nd ref="39980192"/>
    <nd ref="40038650"/>
    <nd ref="40017331"/>
    <nd ref="40042437"/>
    <nd ref="40042439"/>
    <nd ref="40042442"/>
    <nd ref="39898035"/>
    <nd ref="40042445"/>
    <nd ref="40042448"/>
    <nd ref="40042451"/>
    <nd ref="39674777"/>
    <nd ref="40042456"/>
    <nd ref="40042458"/>
    <nd ref="40042461"/>
    <nd ref="39641441"/>
    <nd ref="40042465"/>
    <nd ref="40042468"/>
    <nd ref="40028581"/>
    <nd ref="40042474"/>
    <nd ref="40042477"/>
    <nd ref="39717662"/>
    <nd ref="40023684"/>
    <nd ref="40042481"/>
    <nd ref="40042485"/>
    <nd ref="40042488"/>
    <nd ref="40042492"/>
    <nd ref="40042496"/>
    <nd ref="40042498"/>
    <nd ref="40042502"/>
    <nd ref="40042505"/>
    <nd ref="40042507"/>
    <nd ref="40042508"/>
    <nd ref="40042511"/>
    <nd ref="40042513"/>
    <nd ref="40042515"/>
    <nd ref="40042517"/>
    <nd ref="39637581"/>
    <nd ref="40042522"/>
    <nd ref="40042526"/>
    <nd ref="40042530"/>
    <nd ref="40012992"/>
    <nd ref="40042536"/>
    <nd ref="40042539"/>
    <nd ref="40042542"/>
    <nd ref="39803146"/>
    <nd ref="40042549"/>
    <nd ref="40042553"/>
    <nd ref="39757530"/>
    <nd ref="39919731"/>
    <nd ref="39916172"/>
    <nd ref="40042560"/>
    <nd ref="40042561"/>
    <nd ref="40042564"/>
    <nd ref="39975871"/>
    <nd ref="40042566"/>
    <nd ref="40042568"/>
    <nd ref="39966752"/>
    <nd ref="40042573"/>
    <nd ref="39919635"/>
    <nd ref="39824327"/>
    <nd ref="40042577"/>
    <nd ref="40042580"/>
    <nd ref="40002715"/>
    <nd ref="39949339"/>
    <nd ref="39925652"/>
    <nd ref="39881004"/>
    <nd ref="39949301"/>
    <nd ref="39945069"/>
    <nd ref="40042593"/>
    <nd ref="40017602"/>
    <nd ref="40002672"/>
    <nd ref="39988584"/>
    <nd ref="40042599"/>
    <nd ref="40042602"/>
    <nd ref="40042604"/>
    <nd ref="39750928"/>
    <nd ref="40042606"/>
    <nd ref="39830849"/>
    <nd ref="40042611"/>
    <nd ref="39703523"/>
    <nd ref="39703245"/>
    <nd ref="39863240"/>
    <nd ref="39831279"/>
    <nd ref="39702160"/>
    <nd ref="40001942"/>
    <nd ref="39961416"/>
    <nd ref="795892586"/>
    <nd ref="39892343"/>
    <nd ref="39892359"/>
    <nd ref="795892580"/>
    <nd ref="39787554"/>
    <nd ref="40042628"/>
    <nd ref="39787568"/>
    <nd ref="40042633"/>
    <nd ref="39750895"/>
    <nd ref="39750924"/>
    <nd ref="40042639"/>
    <nd ref="39633422"/>
    <nd ref="40042644"/>
    <nd ref="40042647"/>
    <nd ref="40042650"/>
    <nd ref="39607641"/>
    <nd ref="39803015"/>
    <nd ref="39644975"/>
    <nd ref="40042658"/>
    <nd ref="40042662"/>
    <nd ref="40042665"/>
    <nd ref="39975791"/>
    <nd ref="39816211"/>
    <nd ref="39904291"/>
    <nd ref="40042668"/>
    <nd ref="39803189"/>
    <nd ref="40042671"/>
    <nd ref="40042674"/>
    <nd ref="40042678"/>
    <nd ref="40042682"/>
    <nd ref="40042685"/>
    <nd ref="40042688"/>
    <nd ref="39808472"/>
    <nd ref="40042695"/>
    <nd ref="40042698"/>
    <nd ref="39656540"/>
    <nd ref="40042703"/>
    <nd ref="40042708"/>
    <nd ref="39913923"/>
    <nd ref="40042715"/>
    <nd ref="39682026"/>
    <nd ref="297112903"/>
    <nd ref="40042721"/>
    <nd ref="40042724"/>
    <nd ref="39682014"/>
    <nd ref="39873080"/>
    <nd ref="40042729"/>
    <nd ref="40042732"/>
    <nd ref="40042734"/>
    <nd ref="40042737"/>
    <nd ref="39800204"/>
    <nd ref="40042742"/>
    <nd ref="40042745"/>
    <nd ref="40042749"/>
    <nd ref="40042753"/>
    <nd ref="40042756"/>
    <nd ref="40042759"/>
    <nd ref="39760757"/>
    <nd ref="39974440"/>
    <tag k="highway" v="primary"/>
    <tag k="name" v="The Dalles-California Highway"/>
    <tag k="ref" v="US 97"/>
    <tag k="tiger:cfcc" v="A21"/>
    <tag k="tiger:county" v="Klamath, OR"/>
    <tag k="tiger:name_base" v="United States Highway 97"/>
    <tag k="tiger:name_base_1" v="The Dalles-California"/>
    <tag k="tiger:name_type_1" v="Hwy"/>
    <tag k="tiger:reviewed" v="no"/>
    <tag k="tiger:separated" v="no"/>
    <tag k="tiger:source" v="tiger_import_dch_v0.6_20070808"/>
    <tag k="tiger:tlid" v="156669493:156669496:156668894:156669031:156668995:156668896:156669073:156669078:156669123:156669141:156669144:156669150:156704674:156704675:156669609:156669233:156669237:156698085:156669263:156669272:156669307:156669273:156669314:156698086:156668344:15666"/>
  </way>
  <way id="37712373" version="6" timestamp="2010-07-17T12:56:31Z" uid="46482" user="Leon K" changeset="5242274">
    <nd ref="40041612"/>
    <nd ref="40041616"/>
    <nd ref="40041618"/>
    <nd ref="40041621"/>
    <nd ref="40041624"/>
    <nd ref="39747500"/>
    <nd ref="40041627"/>
    <nd ref="39747481"/>
    <nd ref="40041630"/>
    <nd ref="40041633"/>
    <nd ref="40041636"/>
    <nd ref="39839994"/>
    <nd ref="39655505"/>
    <nd ref="40041642"/>
    <nd ref="40041648"/>
    <nd ref="40041650"/>
    <nd ref="40041652"/>
    <nd ref="40041655"/>
    <nd ref="40041658"/>
    <nd ref="40041663"/>
    <nd ref="39732737"/>
    <nd ref="39732762"/>
    <nd ref="40041668"/>
    <nd ref="39732588"/>
    <nd ref="40041673"/>
    <nd ref="40041676"/>
    <nd ref="40041679"/>
    <nd ref="40041682"/>
    <nd ref="40041686"/>
    <nd ref="39732575"/>
    <nd ref="40041690"/>
    <nd ref="40041693"/>
    <nd ref="40041697"/>
    <nd ref="40041700"/>
    <nd ref="40041703"/>
    <nd ref="39913386"/>
    <nd ref="39800238"/>
    <nd ref="39800322"/>
    <nd ref="39800213"/>
    <nd ref="39992982"/>
    <nd ref="40041711"/>
    <nd ref="40041713"/>
    <nd ref="40041715"/>
    <nd ref="40041717"/>
    <nd ref="40041720"/>
    <nd ref="40041724"/>
    <nd ref="40041726"/>
    <nd ref="40041729"/>
    <nd ref="40041732"/>
    <nd ref="40041735"/>
    <nd ref="40041738"/>
    <nd ref="40041741"/>
    <nd ref="40041743"/>
    <nd ref="40041748"/>
    <nd ref="40041751"/>
    <nd ref="40041753"/>
    <nd ref="40041755"/>
    <nd ref="40041757"/>
    <nd ref="40041759"/>
    <nd ref="40041761"/>
    <nd ref="40041764"/>
    <nd ref="40041768"/>
    <nd ref="40041771"/>
    <nd ref="40041774"/>
    <nd ref="40041777"/>
    <nd ref="39680476"/>
    <nd ref="40041781"/>
    <nd ref="40041783"/>
    <nd ref="40041785"/>
    <nd ref="40041790"/>
    <nd ref="40041793"/>
    <nd ref="40041796"/>
    <nd ref="40041800"/>
    <nd ref="40041802"/>
    <nd ref="40041806"/>
    <nd ref="40041809"/>
    <nd ref="40041812"/>
    <nd ref="40041816"/>
    <nd ref="40041819"/>
    <nd ref="40041822"/>
    <nd ref="40041826"/>
    <nd ref="40041829"/>
    <nd ref="40041832"/>
    <nd ref="39607271"/>
    <nd ref="40041835"/>
    <nd ref="40041838"/>
    <nd ref="40041843"/>
    <nd ref="40041846"/>
    <nd ref="40041849"/>
    <nd ref="40041852"/>
    <nd ref="40041854"/>
    <nd ref="40041857"/>
    <nd ref="40041860"/>
    <nd ref="40041863"/>
    <nd ref="40041869"/>
    <nd ref="40041872"/>
    <nd ref="40041875"/>
    <nd ref="40041879"/>
    <nd ref="40041881"/>
    <nd ref="40041884"/>
    <nd ref="40041887"/>
    <nd ref="40041890"/>
    <nd ref="40041893"/>
    <nd ref="40041897"/>
    <nd ref="40041899"/>
    <nd ref="40041902"/>
    <nd ref="40041904"/>
    <nd ref="40041907"/>
    <nd ref="40041910"/>
    <nd ref="40041913"/>
    <nd ref="40041915"/>
    <nd ref="40041917"/>
    <nd ref="40041920"/>
    <nd ref="40041923"/>
    <nd ref="40041926"/>
    <nd ref="40041929"/>
    <nd ref="40041932"/>
    <nd ref="40041935"/>
    <nd ref="40041938"/>
    <nd ref="40041942"/>
    <nd ref="40041945"/>
    <nd ref="40041948"/>
    <nd ref="40041951"/>
    <nd ref="40041954"/>
    <nd ref="40041956"/>
    <nd ref="40041958"/>
    <nd ref="40041960"/>
    <nd ref="40041961"/>
    <nd ref="40041963"/>
    <nd ref="40041964"/>
    <nd ref="40041965"/>
    <nd ref="40041966"/>
    <nd ref="40041968"/>
    <nd ref="40041970"/>
    <nd ref="40041972"/>
    <nd ref="40041976"/>
    <nd ref="40041979"/>
    <nd ref="40041982"/>
    <nd ref="40041985"/>
    <nd ref="40041987"/>
    <nd ref="40041991"/>
    <nd ref="40041993"/>
    <nd ref="40041995"/>
    <nd ref="40041997"/>
    <nd ref="40042000"/>
    <nd ref="40042003"/>
    <nd ref="40042006"/>
    <nd ref="40042008"/>
    <nd ref="40042010"/>
    <nd ref="40042012"/>
    <nd ref="40042015"/>
    <nd ref="40042019"/>
    <nd ref="40042020"/>
    <nd ref="40042023"/>
    <nd ref="40042026"/>
    <nd ref="40042029"/>
    <nd ref="40042031"/>
    <nd ref="40042033"/>
    <nd ref="40042034"/>
    <nd ref="40042036"/>
    <nd ref="40042039"/>
    <nd ref="40042041"/>
    <nd ref="40042045"/>
    <nd ref="40042048"/>
    <nd ref="40042051"/>
    <nd ref="40042054"/>
    <nd ref="40042056"/>
    <nd ref="40042059"/>
    <nd ref="40042060"/>
    <nd ref="40042063"/>
    <nd ref="40042066"/>
    <nd ref="40042070"/>
    <nd ref="40042072"/>
    <nd ref="39844666"/>
    <nd ref="40042076"/>
    <nd ref="40042080"/>
    <nd ref="39844641"/>
    <nd ref="40042083"/>
    <nd ref="39825090"/>
    <nd ref="40042088"/>
    <nd ref="40042091"/>
    <nd ref="40042094"/>
    <nd ref="40042097"/>
    <nd ref="40042098"/>
    <nd ref="40042101"/>
    <nd ref="40042104"/>
    <nd ref="40042108"/>
    <nd ref="40042111"/>
    <nd ref="40042113"/>
    <nd ref="40042115"/>
    <nd ref="40042120"/>
    <nd ref="40042123"/>
    <nd ref="40042126"/>
    <nd ref="40042129"/>
    <nd ref="40042131"/>
    <nd ref="40042134"/>
    <nd ref="40042137"/>
    <nd ref="40042140"/>
    <nd ref="40042141"/>
    <nd ref="40042142"/>
    <nd ref="40042145"/>
    <nd ref="40042147"/>
    <nd ref="40042150"/>
    <nd ref="40042153"/>
    <nd ref="40042155"/>
    <nd ref="40042157"/>
    <nd ref="40000971"/>
    <nd ref="40042162"/>
    <nd ref="39694178"/>
    <nd ref="39694720"/>
    <nd ref="40042169"/>
    <nd ref="40042173"/>
    <nd ref="40042176"/>
    <nd ref="40042179"/>
    <nd ref="39766621"/>
    <nd ref="821835562"/>
    <tag k="highway" v="primary"/>
    <tag k="name" v="The Dalles-California Highway"/>
    <tag k="ref" v="US 97"/>
    <tag k="tiger:cfcc" v="A21"/>
    <tag k="tiger:county" v="Klamath, OR"/>
    <tag k="tiger:name_base" v="United States Highway 97"/>
    <tag k="tiger:name_base_1" v="The Dalles-California"/>
    <tag k="tiger:name_type_1" v="Hwy"/>
    <tag k="tiger:reviewed" v="no"/>
    <tag k="tiger:separated" v="no"/>
    <tag k="tiger:source" v="tiger_import_dch_v0.6_20070808"/>
    <tag k="tiger:tlid" v="156669493:156669496:156668894:156669031:156668995:156668896:156669073:156669078:156669123:156669141:156669144:156669150:156704674:156704675:156669609:156669233:156669237:156698085:156669263:156669272:156669307:156669273:156669314:156698086:156668344:15666"/>
  </way>
  <way id="37712373" version="7" timestamp="2010-08-15T19:57:48Z" uid="63936" user="MojaveNC" changeset="5503756">
    <nd ref="40041612"/>
    <nd ref="40041616"/>
    <tag k="highway" v="primary"/>
    <tag k="name" v="The Dalles-California Highway"/>
    <tag k="ref" v="US 97"/>
    <tag k="tiger:cfcc" v="A21"/>
    <tag k="tiger:county" v="Klamath, OR"/>
    <tag k="tiger:name_base" v="United States Highway 97"/>
    <tag k="tiger:name_base_1" v="The Dalles-California"/>
    <tag k="tiger:name_type_1" v="Hwy"/>
    <tag k="tiger:reviewed" v="no"/>
    <tag k="tiger:separated" v="no"/>
    <tag k="tiger:source" v="tiger_import_dch_v0.6_20070808"/>
    <tag k="tiger:tlid" v="156669493:156669496:156668894:156669031:156668995:156668896:156669073:156669078:156669123:156669141:156669144:156669150:156704674:156704675:156669609:156669233:156669237:156698085:156669263:156669272:156669307:156669273:156669314:156698086:156668344:15666"/>
  </way>
  <way id="37712373" version="8" timestamp="2010-12-10T22:44:45Z" uid="373763" user="ylekot" changeset="6611865">
    <nd ref="40041612"/>
    <nd ref="40041616"/>
    <tag k="highway" v="motorway"/>
    <tag k="name" v="The Dalles-California Highway"/>
    <tag k="ref" v="US 97"/>
    <tag k="tiger:cfcc" v="A21"/>
    <tag k="tiger:county" v="Klamath, OR"/>
    <tag k="tiger:name_base" v="United States Highway 97"/>
    <tag k="tiger:name_base_1" v="The Dalles-California"/>
    <tag k="tiger:name_type_1" v="Hwy"/>
    <tag k="tiger:reviewed" v="no"/>
    <tag k="tiger:separated" v="no"/>
    <tag k="tiger:source" v="tiger_import_dch_v0.6_20070808"/>
    <tag k="tiger:tlid" v="156669493:156669496:156668894:156669031:156668995:156668896:156669073:156669078:156669123:156669141:156669144:156669150:156704674:156704675:156669609:156669233:156669237:156698085:156669263:156669272:156669307:156669273:156669314:156698086:156668344:15666"/>
  </way>
  <way id="37712373" version="9" timestamp="2011-01-19T22:14:54Z" uid="207745" user="NE2" changeset="7025536">
    <nd ref="40041612"/>
    <nd ref="40041616"/>
    <tag k="highway" v="motorway"/>
    <tag k="name" v="The Dalles-California Highway"/>
    <tag k="oneway" v="no"/>
    <tag k="ref" v="US 97"/>
    <tag k="tiger:cfcc" v="A21"/>
    <tag k="tiger:county" v="Klamath, OR"/>
    <tag k="tiger:name_base" v="United States Highway 97"/>
    <tag k="tiger:name_base_1" v="The Dalles-California"/>
    <tag k="tiger:name_type_1" v="Hwy"/>
    <tag k="tiger:reviewed" v="no"/>
    <tag k="tiger:separated" v="no"/>
    <tag k="tiger:source" v="tiger_import_dch_v0.6_20070808"/>
    <tag k="tiger:tlid" v="156669493:156669496:156668894:156669031:156668995:156668896:156669073:156669078:156669123:156669141:156669144:156669150:156704674:156704675:156669609:156669233:156669237:156698085:156669263:156669272:156669307:156669273:156669314:156698086:156668344:15666"/>
  </way>
  <way id="37712373" version="10" timestamp="2011-06-26T17:21:51Z" uid="473471" user="NE3" changeset="8553918">
    <nd ref="40041612"/>
    <nd ref="1340011805"/>
    <tag k="highway" v="motorway"/>
    <tag k="lanes" v="4"/>
    <tag k="name" v="The Dalles-California Highway"/>
    <tag k="oneway" v="no"/>
    <tag k="ref" v="US 97"/>
    <tag k="tiger:cfcc" v="A21"/>
    <tag k="tiger:county" v="Klamath, OR"/>
    <tag k="tiger:name_base" v="United States Highway 97"/>
    <tag k="tiger:name_base_1" v="The Dalles-California"/>
    <tag k="tiger:name_type_1" v="Hwy"/>
    <tag k="tiger:reviewed" v="no"/>
    <tag k="tiger:separated" v="no"/>
    <tag k="tiger:source" v="tiger_import_dch_v0.6_20070808"/>
    <tag k="tiger:tlid" v="156669493:156669496:156668894:156669031:156668995:156668896:156669073:156669078:156669123:156669141:156669144:156669150:156704674:156704675:156669609:156669233:156669237:156698085:156669263:156669272:156669307:156669273:156669314:156698086:156668344:15666"/>
  </way>
  <way id="37712373" version="11" timestamp="2011-07-06T23:36:54Z" uid="473471" user="NE3" changeset="8653193">
    <nd ref="40041612"/>
    <nd ref="1340011805"/>
    <tag k="NHS" v="yes"/>
    <tag k="highway" v="motorway"/>
    <tag k="lanes" v="4"/>
    <tag k="name" v="The Dalles-California Highway"/>
    <tag k="oneway" v="no"/>
    <tag k="ref" v="US 97"/>
    <tag k="tiger:cfcc" v="A21"/>
    <tag k="tiger:county" v="Klamath, OR"/>
    <tag k="tiger:name_base" v="United States Highway 97"/>
    <tag k="tiger:name_base_1" v="The Dalles-California"/>
    <tag k="tiger:name_type_1" v="Hwy"/>
    <tag k="tiger:reviewed" v="no"/>
    <tag k="tiger:separated" v="no"/>
    <tag k="tiger:source" v="tiger_import_dch_v0.6_20070808"/>
    <tag k="tiger:tlid" v="156669493:156669496:156668894:156669031:156668995:156668896:156669073:156669078:156669123:156669141:156669144:156669150:156704674:156704675:156669609:156669233:156669237:156698085:156669263:156669272:156669307:156669273:156669314:156698086:156668344:15666"/>
  </way>
  <way id="37712373" version="12" timestamp="2011-11-25T17:38:48Z" uid="207745" user="NE2" changeset="9945867">
    <nd ref="40041612"/>
    <nd ref="1340011805"/>
    <tag k="NHS" v="yes"/>
    <tag k="hgv" v="designated"/>
    <tag k="hgv:national_network" v="yes"/>
    <tag k="highway" v="motorway"/>
    <tag k="lanes" v="4"/>
    <tag k="name" v="The Dalles-California Highway"/>
    <tag k="oneway" v="no"/>
    <tag k="ref" v="US 97"/>
    <tag k="source:hgv:national_network" v="Title 23: Highways Part 658 http://ecfr.gpoaccess.gov/cgi/t/text/text-idx?c=ecfr&amp;rgn=div5&amp;view=text&amp;node=23:1.0.1.7.33&amp;idno=23"/>
    <tag k="tiger:cfcc" v="A21"/>
    <tag k="tiger:county" v="Klamath, OR"/>
    <tag k="tiger:name_base" v="United States Highway 97"/>
    <tag k="tiger:name_base_1" v="The Dalles-California"/>
    <tag k="tiger:name_type_1" v="Hwy"/>
    <tag k="tiger:reviewed" v="no"/>
    <tag k="tiger:separated" v="no"/>
    <tag k="tiger:source" v="tiger_import_dch_v0.6_20070808"/>
    <tag k="tiger:tlid" v="156669493:156669496:156668894:156669031:156668995:156668896:156669073:156669078:156669123:156669141:156669144:156669150:156704674:156704675:156669609:156669233:156669237:156698085:156669263:156669272:156669307:156669273:156669314:156698086:156668344:15666"/>
  </way>
  <way id="37712373" version="13" timestamp="2012-01-01T02:49:20Z" uid="92286" user="Paul Johnson" changeset="10259049"/>
  <way id="37712384" version="2" timestamp="2010-03-22T06:33:23Z" uid="20587" user="balrog-kun" changeset="4199043">
    <nd ref="442289717"/>
    <nd ref="442289715"/>
    <tag k="bridge" v="yes"/>
    <tag k="highway" v="trunk"/>
    <tag k="layer" v="1"/>
    <tag k="name" v="The Dalles-California Highway"/>
    <tag k="oneway" v="yes"/>
    <tag k="ref" v="US 97"/>
    <tag k="source" v="Yahoo image"/>
  </way>
  <way id="37712384" version="3" timestamp="2010-12-10T22:44:46Z" uid="373763" user="ylekot" changeset="6611865">
    <nd ref="442289717"/>
    <nd ref="442289715"/>
    <tag k="bridge" v="yes"/>
    <tag k="highway" v="motorway"/>
    <tag k="layer" v="1"/>
    <tag k="name" v="The Dalles-California Highway"/>
    <tag k="oneway" v="yes"/>
    <tag k="ref" v="US 97"/>
    <tag k="source" v="Yahoo image"/>
  </way>
  <way id="37712384" version="4" timestamp="2011-06-26T17:17:28Z" uid="473471" user="NE3" changeset="8553918">
    <nd ref="442289717"/>
    <nd ref="442289715"/>
    <tag k="bridge" v="yes"/>
    <tag k="highway" v="motorway"/>
    <tag k="lanes" v="2"/>
    <tag k="layer" v="1"/>
    <tag k="name" v="The Dalles-California Highway"/>
    <tag k="oneway" v="yes"/>
    <tag k="ref" v="US 97"/>
    <tag k="source" v="Yahoo image"/>
  </way>
  <way id="37712384" version="5" timestamp="2011-07-06T23:36:44Z" uid="473471" user="NE3" changeset="8653193">
    <nd ref="442289717"/>
    <nd ref="442289715"/>
    <tag k="NHS" v="yes"/>
    <tag k="bridge" v="yes"/>
    <tag k="highway" v="motorway"/>
    <tag k="lanes" v="2"/>
    <tag k="layer" v="1"/>
    <tag k="name" v="The Dalles-California Highway"/>
    <tag k="oneway" v="yes"/>
    <tag k="ref" v="US 97"/>
    <tag k="source" v="Yahoo image"/>
  </way>
  <way id="37712384" version="6" timestamp="2011-11-25T17:38:21Z" uid="207745" user="NE2" changeset="9945867">
    <nd ref="442289717"/>
    <nd ref="442289715"/>
    <tag k="NHS" v="yes"/>
    <tag k="bridge" v="yes"/>
    <tag k="hgv" v="designated"/>
    <tag k="hgv:national_network" v="yes"/>
    <tag k="highway" v="motorway"/>
    <tag k="lanes" v="2"/>
    <tag k="layer" v="1"/>
    <tag k="name" v="The Dalles-California Highway"/>
    <tag k="oneway" v="yes"/>
    <tag k="ref" v="US 97"/>
    <tag k="source" v="Yahoo image"/>
    <tag k="source:hgv:national_network" v="Title 23: Highways Part 658 http://ecfr.gpoaccess.gov/cgi/t/text/text-idx?c=ecfr&amp;rgn=div5&amp;view=text&amp;node=23:1.0.1.7.33&amp;idno=23"/>
  </way>
  <way id="37712384" version="7" timestamp="2012-01-01T02:49:21Z" uid="92286" user="Paul Johnson" changeset="10259049"/>
  <way id="37712385" version="2" timestamp="2010-03-22T06:33:23Z" uid="20587" user="balrog-kun" changeset="4199043">
    <nd ref="442289715"/>
    <nd ref="442289713"/>
    <tag k="highway" v="trunk"/>
    <tag k="name" v="The Dalles-California Highway"/>
    <tag k="oneway" v="yes"/>
    <tag k="ref" v="US 97"/>
    <tag k="source" v="Yahoo image"/>
  </way>
  <way id="37712385" version="3" timestamp="2010-12-10T22:44:46Z" uid="373763" user="ylekot" changeset="6611865">
    <nd ref="442289715"/>
    <nd ref="442289713"/>
    <tag k="highway" v="motorway"/>
    <tag k="name" v="The Dalles-California Highway"/>
    <tag k="oneway" v="yes"/>
    <tag k="ref" v="US 97"/>
    <tag k="source" v="Yahoo image"/>
  </way>
  <way id="37712385" version="4" timestamp="2011-06-26T17:13:48Z" uid="473471" user="NE3" changeset="8553918">
    <nd ref="442289715"/>
    <nd ref="442289713"/>
    <tag k="highway" v="motorway"/>
    <tag k="lanes" v="2"/>
    <tag k="name" v="The Dalles-California Highway"/>
    <tag k="oneway" v="yes"/>
    <tag k="ref" v="US 97"/>
    <tag k="source" v="Yahoo image"/>
  </way>
  <way id="37712385" version="5" timestamp="2011-07-06T23:36:55Z" uid="473471" user="NE3" changeset="8653193">
    <nd ref="442289715"/>
    <nd ref="442289713"/>
    <tag k="NHS" v="yes"/>
    <tag k="highway" v="motorway"/>
    <tag k="lanes" v="2"/>
    <tag k="name" v="The Dalles-California Highway"/>
    <tag k="oneway" v="yes"/>
    <tag k="ref" v="US 97"/>
    <tag k="source" v="Yahoo image"/>
  </way>
  <way id="37712385" version="6" timestamp="2011-11-25T17:38:29Z" uid="207745" user="NE2" changeset="9945867">
    <nd ref="442289715"/>
    <nd ref="442289713"/>
    <tag k="NHS" v="yes"/>
    <tag k="hgv" v="designated"/>
    <tag k="hgv:national_network" v="yes"/>
    <tag k="highway" v="motorway"/>
    <tag k="lanes" v="2"/>
    <tag k="name" v="The Dalles-California Highway"/>
    <tag k="oneway" v="yes"/>
    <tag k="ref" v="US 97"/>
    <tag k="source" v="Yahoo image"/>
    <tag k="source:hgv:national_network" v="Title 23: Highways Part 658 http://ecfr.gpoaccess.gov/cgi/t/text/text-idx?c=ecfr&amp;rgn=div5&amp;view=text&amp;node=23:1.0.1.7.33&amp;idno=23"/>
  </way>
  <way id="37712385" version="7" timestamp="2012-01-01T02:49:20Z" uid="92286" user="Paul Johnson" changeset="10259049"/>
  <way id="37712386" version="2" timestamp="2010-03-22T06:33:23Z" uid="20587" user="balrog-kun" changeset="4199043">
    <nd ref="442289708"/>
    <nd ref="442289709"/>
    <tag k="bridge" v="yes"/>
    <tag k="highway" v="trunk"/>
    <tag k="layer" v="1"/>
    <tag k="name" v="The Dalles-California Highway"/>
    <tag k="oneway" v="yes"/>
    <tag k="ref" v="US 97"/>
    <tag k="source" v="Yahoo image"/>
  </way>
  <way id="37712386" version="3" timestamp="2010-12-10T22:44:47Z" uid="373763" user="ylekot" changeset="6611865">
    <nd ref="442289708"/>
    <nd ref="442289709"/>
    <tag k="bridge" v="yes"/>
    <tag k="highway" v="motorway"/>
    <tag k="layer" v="1"/>
    <tag k="name" v="The Dalles-California Highway"/>
    <tag k="oneway" v="yes"/>
    <tag k="ref" v="US 97"/>
    <tag k="source" v="Yahoo image"/>
  </way>
  <way id="37712386" version="4" timestamp="2011-06-26T17:22:10Z" uid="473471" user="NE3" changeset="8553918">
    <nd ref="442289708"/>
    <nd ref="442289709"/>
    <tag k="bridge" v="yes"/>
    <tag k="highway" v="motorway"/>
    <tag k="lanes" v="2"/>
    <tag k="layer" v="1"/>
    <tag k="name" v="The Dalles-California Highway"/>
    <tag k="oneway" v="yes"/>
    <tag k="ref" v="US 97"/>
    <tag k="source" v="Yahoo image"/>
  </way>
  <way id="37712386" version="5" timestamp="2011-07-06T23:36:49Z" uid="473471" user="NE3" changeset="8653193">
    <nd ref="442289708"/>
    <nd ref="442289709"/>
    <tag k="NHS" v="yes"/>
    <tag k="bridge" v="yes"/>
    <tag k="highway" v="motorway"/>
    <tag k="lanes" v="2"/>
    <tag k="layer" v="1"/>
    <tag k="name" v="The Dalles-California Highway"/>
    <tag k="oneway" v="yes"/>
    <tag k="ref" v="US 97"/>
    <tag k="source" v="Yahoo image"/>
  </way>
  <way id="37712386" version="6" timestamp="2011-11-25T17:38:48Z" uid="207745" user="NE2" changeset="9945867">
    <nd ref="442289708"/>
    <nd ref="442289709"/>
    <tag k="NHS" v="yes"/>
    <tag k="bridge" v="yes"/>
    <tag k="hgv" v="designated"/>
    <tag k="hgv:national_network" v="yes"/>
    <tag k="highway" v="motorway"/>
    <tag k="lanes" v="2"/>
    <tag k="layer" v="1"/>
    <tag k="name" v="The Dalles-California Highway"/>
    <tag k="oneway" v="yes"/>
    <tag k="ref" v="US 97"/>
    <tag k="source" v="Yahoo image"/>
    <tag k="source:hgv:national_network" v="Title 23: Highways Part 658 http://ecfr.gpoaccess.gov/cgi/t/text/text-idx?c=ecfr&amp;rgn=div5&amp;view=text&amp;node=23:1.0.1.7.33&amp;idno=23"/>
  </way>
  <way id="37712386" version="7" timestamp="2012-01-01T02:49:19Z" uid="92286" user="Paul Johnson" changeset="10259049"/>
  <way id="37712387" version="2" timestamp="2010-03-22T06:33:23Z" uid="20587" user="balrog-kun" changeset="4199043">
    <nd ref="442289709"/>
    <nd ref="442289710"/>
    <nd ref="40041612"/>
    <tag k="highway" v="trunk"/>
    <tag k="name" v="The Dalles-California Highway"/>
    <tag k="oneway" v="yes"/>
    <tag k="ref" v="US 97"/>
    <tag k="source" v="Yahoo image"/>
  </way>
  <way id="37712387" version="3" timestamp="2010-12-10T22:44:47Z" uid="373763" user="ylekot" changeset="6611865">
    <nd ref="442289709"/>
    <nd ref="442289710"/>
    <nd ref="40041612"/>
    <tag k="highway" v="motorway"/>
    <tag k="name" v="The Dalles-California Highway"/>
    <tag k="oneway" v="yes"/>
    <tag k="ref" v="US 97"/>
    <tag k="source" v="Yahoo image"/>
  </way>
  <way id="37712387" version="4" timestamp="2011-06-26T17:20:12Z" uid="473471" user="NE3" changeset="8553918">
    <nd ref="442289709"/>
    <nd ref="442289710"/>
    <nd ref="40041612"/>
    <tag k="highway" v="motorway"/>
    <tag k="lanes" v="2"/>
    <tag k="name" v="The Dalles-California Highway"/>
    <tag k="oneway" v="yes"/>
    <tag k="ref" v="US 97"/>
    <tag k="source" v="Yahoo image"/>
  </way>
  <way id="37712387" version="5" timestamp="2011-07-06T23:37:04Z" uid="473471" user="NE3" changeset="8653193">
    <nd ref="442289709"/>
    <nd ref="442289710"/>
    <nd ref="40041612"/>
    <tag k="NHS" v="yes"/>
    <tag k="highway" v="motorway"/>
    <tag k="lanes" v="2"/>
    <tag k="name" v="The Dalles-California Highway"/>
    <tag k="oneway" v="yes"/>
    <tag k="ref" v="US 97"/>
    <tag k="source" v="Yahoo image"/>
  </way>
  <way id="37712387" version="6" timestamp="2011-11-25T17:39:04Z" uid="207745" user="NE2" changeset="9945867">
    <nd ref="442289709"/>
    <nd ref="442289710"/>
    <nd ref="40041612"/>
    <tag k="NHS" v="yes"/>
    <tag k="hgv" v="designated"/>
    <tag k="hgv:national_network" v="yes"/>
    <tag k="highway" v="motorway"/>
    <tag k="lanes" v="2"/>
    <tag k="name" v="The Dalles-California Highway"/>
    <tag k="oneway" v="yes"/>
    <tag k="ref" v="US 97"/>
    <tag k="source" v="Yahoo image"/>
    <tag k="source:hgv:national_network" v="Title 23: Highways Part 658 http://ecfr.gpoaccess.gov/cgi/t/text/text-idx?c=ecfr&amp;rgn=div5&amp;view=text&amp;node=23:1.0.1.7.33&amp;idno=23"/>
  </way>
  <way id="37712387" version="7" timestamp="2012-01-01T02:49:20Z" uid="92286" user="Paul Johnson" changeset="10259049"/>
  <way id="37712388" version="2" timestamp="2010-03-22T06:33:24Z" uid="20587" user="balrog-kun" changeset="4199043">
    <nd ref="442289706"/>
    <nd ref="442289707"/>
    <tag k="bridge" v="yes"/>
    <tag k="highway" v="trunk"/>
    <tag k="layer" v="1"/>
    <tag k="name" v="The Dalles-California Highway"/>
    <tag k="oneway" v="yes"/>
    <tag k="ref" v="US 97"/>
    <tag k="source" v="Yahoo image"/>
  </way>
  <way id="37712388" version="3" timestamp="2010-12-10T22:44:48Z" uid="373763" user="ylekot" changeset="6611865">
    <nd ref="442289706"/>
    <nd ref="442289707"/>
    <tag k="bridge" v="yes"/>
    <tag k="highway" v="motorway"/>
    <tag k="layer" v="1"/>
    <tag k="name" v="The Dalles-California Highway"/>
    <tag k="oneway" v="yes"/>
    <tag k="ref" v="US 97"/>
    <tag k="source" v="Yahoo image"/>
  </way>
  <way id="37712388" version="4" timestamp="2011-06-26T17:20:30Z" uid="473471" user="NE3" changeset="8553918">
    <nd ref="442289706"/>
    <nd ref="442289707"/>
    <tag k="bridge" v="yes"/>
    <tag k="highway" v="motorway"/>
    <tag k="lanes" v="2"/>
    <tag k="layer" v="1"/>
    <tag k="name" v="The Dalles-California Highway"/>
    <tag k="oneway" v="yes"/>
    <tag k="ref" v="US 97"/>
    <tag k="source" v="Yahoo image"/>
  </way>
  <way id="37712388" version="5" timestamp="2011-07-06T23:36:47Z" uid="473471" user="NE3" changeset="8653193">
    <nd ref="442289706"/>
    <nd ref="442289707"/>
    <tag k="NHS" v="yes"/>
    <tag k="bridge" v="yes"/>
    <tag k="highway" v="motorway"/>
    <tag k="lanes" v="2"/>
    <tag k="layer" v="1"/>
    <tag k="name" v="The Dalles-California Highway"/>
    <tag k="oneway" v="yes"/>
    <tag k="ref" v="US 97"/>
    <tag k="source" v="Yahoo image"/>
  </way>
  <way id="37712388" version="6" timestamp="2011-11-25T17:38:12Z" uid="207745" user="NE2" changeset="9945867">
    <nd ref="442289706"/>
    <nd ref="442289707"/>
    <tag k="NHS" v="yes"/>
    <tag k="bridge" v="yes"/>
    <tag k="hgv" v="designated"/>
    <tag k="hgv:national_network" v="yes"/>
    <tag k="highway" v="motorway"/>
    <tag k="lanes" v="2"/>
    <tag k="layer" v="1"/>
    <tag k="name" v="The Dalles-California Highway"/>
    <tag k="oneway" v="yes"/>
    <tag k="ref" v="US 97"/>
    <tag k="source" v="Yahoo image"/>
    <tag k="source:hgv:national_network" v="Title 23: Highways Part 658 http://ecfr.gpoaccess.gov/cgi/t/text/text-idx?c=ecfr&amp;rgn=div5&amp;view=text&amp;node=23:1.0.1.7.33&amp;idno=23"/>
  </way>
  <way id="37712388" version="7" timestamp="2012-01-01T02:49:20Z" uid="92286" user="Paul Johnson" changeset="10259049"/>
  <way id="37712389" version="2" timestamp="2010-03-22T06:33:24Z" uid="20587" user="balrog-kun" changeset="4199043">
    <nd ref="442289707"/>
    <nd ref="442289708"/>
    <tag k="highway" v="trunk"/>
    <tag k="name" v="The Dalles-California Highway"/>
    <tag k="oneway" v="yes"/>
    <tag k="ref" v="US 97"/>
    <tag k="source" v="Yahoo image"/>
  </way>
  <way id="37712389" version="3" timestamp="2010-12-10T22:44:49Z" uid="373763" user="ylekot" changeset="6611865">
    <nd ref="442289707"/>
    <nd ref="442289708"/>
    <tag k="highway" v="motorway"/>
    <tag k="name" v="The Dalles-California Highway"/>
    <tag k="oneway" v="yes"/>
    <tag k="ref" v="US 97"/>
    <tag k="source" v="Yahoo image"/>
  </way>
  <way id="37712389" version="4" timestamp="2011-06-26T17:17:35Z" uid="473471" user="NE3" changeset="8553918">
    <nd ref="442289707"/>
    <nd ref="442289708"/>
    <tag k="highway" v="motorway"/>
    <tag k="lanes" v="2"/>
    <tag k="name" v="The Dalles-California Highway"/>
    <tag k="oneway" v="yes"/>
    <tag k="ref" v="US 97"/>
    <tag k="source" v="Yahoo image"/>
  </way>
  <way id="37712389" version="5" timestamp="2011-07-06T23:36:45Z" uid="473471" user="NE3" changeset="8653193">
    <nd ref="442289707"/>
    <nd ref="442289708"/>
    <tag k="NHS" v="yes"/>
    <tag k="highway" v="motorway"/>
    <tag k="lanes" v="2"/>
    <tag k="name" v="The Dalles-California Highway"/>
    <tag k="oneway" v="yes"/>
    <tag k="ref" v="US 97"/>
    <tag k="source" v="Yahoo image"/>
  </way>
  <way id="37712389" version="6" timestamp="2011-11-25T17:38:20Z" uid="207745" user="NE2" changeset="9945867">
    <nd ref="442289707"/>
    <nd ref="442289708"/>
    <tag k="NHS" v="yes"/>
    <tag k="hgv" v="designated"/>
    <tag k="hgv:national_network" v="yes"/>
    <tag k="highway" v="motorway"/>
    <tag k="lanes" v="2"/>
    <tag k="name" v="The Dalles-California Highway"/>
    <tag k="oneway" v="yes"/>
    <tag k="ref" v="US 97"/>
    <tag k="source" v="Yahoo image"/>
    <tag k="source:hgv:national_network" v="Title 23: Highways Part 658 http://ecfr.gpoaccess.gov/cgi/t/text/text-idx?c=ecfr&amp;rgn=div5&amp;view=text&amp;node=23:1.0.1.7.33&amp;idno=23"/>
  </way>
  <way id="37712389" version="7" timestamp="2012-01-01T02:49:18Z" uid="92286" user="Paul Johnson" changeset="10259049"/>
  <way id="37712390" version="2" timestamp="2010-03-22T06:33:24Z" uid="20587" user="balrog-kun" changeset="4199043">
    <nd ref="442289713"/>
    <nd ref="442289712"/>
    <tag k="bridge" v="yes"/>
    <tag k="highway" v="trunk"/>
    <tag k="layer" v="1"/>
    <tag k="name" v="The Dalles-California Highway"/>
    <tag k="oneway" v="yes"/>
    <tag k="ref" v="US 97"/>
    <tag k="source" v="Yahoo image"/>
  </way>
  <way id="37712390" version="3" timestamp="2010-12-10T22:44:49Z" uid="373763" user="ylekot" changeset="6611865">
    <nd ref="442289713"/>
    <nd ref="442289712"/>
    <tag k="bridge" v="yes"/>
    <tag k="highway" v="motorway"/>
    <tag k="layer" v="1"/>
    <tag k="name" v="The Dalles-California Highway"/>
    <tag k="oneway" v="yes"/>
    <tag k="ref" v="US 97"/>
    <tag k="source" v="Yahoo image"/>
  </way>
  <way id="37712390" version="4" timestamp="2011-06-26T17:24:47Z" uid="473471" user="NE3" changeset="8553918">
    <nd ref="442289713"/>
    <nd ref="442289712"/>
    <tag k="bridge" v="yes"/>
    <tag k="highway" v="motorway"/>
    <tag k="lanes" v="2"/>
    <tag k="layer" v="1"/>
    <tag k="name" v="The Dalles-California Highway"/>
    <tag k="oneway" v="yes"/>
    <tag k="ref" v="US 97"/>
    <tag k="source" v="Yahoo image"/>
  </way>
  <way id="37712390" version="5" timestamp="2011-07-06T23:36:52Z" uid="473471" user="NE3" changeset="8653193">
    <nd ref="442289713"/>
    <nd ref="442289712"/>
    <tag k="NHS" v="yes"/>
    <tag k="bridge" v="yes"/>
    <tag k="highway" v="motorway"/>
    <tag k="lanes" v="2"/>
    <tag k="layer" v="1"/>
    <tag k="name" v="The Dalles-California Highway"/>
    <tag k="oneway" v="yes"/>
    <tag k="ref" v="US 97"/>
    <tag k="source" v="Yahoo image"/>
  </way>
  <way id="37712390" version="6" timestamp="2011-11-25T17:38:41Z" uid="207745" user="NE2" changeset="9945867">
    <nd ref="442289713"/>
    <nd ref="442289712"/>
    <tag k="NHS" v="yes"/>
    <tag k="bridge" v="yes"/>
    <tag k="hgv" v="designated"/>
    <tag k="hgv:national_network" v="yes"/>
    <tag k="highway" v="motorway"/>
    <tag k="lanes" v="2"/>
    <tag k="layer" v="1"/>
    <tag k="name" v="The Dalles-California Highway"/>
    <tag k="oneway" v="yes"/>
    <tag k="ref" v="US 97"/>
    <tag k="source" v="Yahoo image"/>
    <tag k="source:hgv:national_network" v="Title 23: Highways Part 658 http://ecfr.gpoaccess.gov/cgi/t/text/text-idx?c=ecfr&amp;rgn=div5&amp;view=text&amp;node=23:1.0.1.7.33&amp;idno=23"/>
  </way>
  <way id="37712390" version="7" timestamp="2012-01-01T02:49:21Z" uid="92286" user="Paul Johnson" changeset="10259049"/>
  <way id="37712391" version="2" timestamp="2010-03-22T06:33:24Z" uid="20587" user="balrog-kun" changeset="4199043">
    <nd ref="442289712"/>
    <nd ref="442268275"/>
    <nd ref="442268277"/>
    <nd ref="442268279"/>
    <nd ref="442268281"/>
    <nd ref="442268283"/>
    <nd ref="442268285"/>
    <nd ref="442268287"/>
    <nd ref="442268289"/>
    <nd ref="442268292"/>
    <nd ref="442268294"/>
    <nd ref="442268295"/>
    <nd ref="442268297"/>
    <nd ref="442268306"/>
    <nd ref="442268309"/>
    <nd ref="442268311"/>
    <nd ref="442268313"/>
    <nd ref="442268315"/>
    <nd ref="442268317"/>
    <nd ref="442268319"/>
    <tag k="highway" v="trunk"/>
    <tag k="name" v="The Dalles-California Highway"/>
    <tag k="oneway" v="yes"/>
    <tag k="ref" v="US 97"/>
    <tag k="source" v="Yahoo image"/>
  </way>
  <way id="37712391" version="3" timestamp="2010-12-10T22:44:50Z" uid="373763" user="ylekot" changeset="6611865">
    <nd ref="442289712"/>
    <nd ref="442268275"/>
    <nd ref="442268277"/>
    <nd ref="442268279"/>
    <nd ref="442268281"/>
    <nd ref="442268283"/>
    <nd ref="442268285"/>
    <nd ref="442268287"/>
    <nd ref="442268289"/>
    <nd ref="442268292"/>
    <nd ref="442268294"/>
    <nd ref="442268295"/>
    <nd ref="442268297"/>
    <nd ref="442268306"/>
    <nd ref="442268309"/>
    <nd ref="442268311"/>
    <nd ref="442268313"/>
    <nd ref="442268315"/>
    <nd ref="442268317"/>
    <nd ref="442268319"/>
    <tag k="highway" v="motorway"/>
    <tag k="name" v="The Dalles-California Highway"/>
    <tag k="oneway" v="yes"/>
    <tag k="ref" v="US 97"/>
    <tag k="source" v="Yahoo image"/>
  </way>
  <way id="37712391" version="4" timestamp="2011-06-26T17:22:21Z" uid="473471" user="NE3" changeset="8553918">
    <nd ref="442289712"/>
    <nd ref="442268275"/>
    <nd ref="442268277"/>
    <nd ref="442268279"/>
    <nd ref="442268281"/>
    <nd ref="442268283"/>
    <nd ref="1340011780"/>
    <tag k="highway" v="motorway"/>
    <tag k="lanes" v="2"/>
    <tag k="name" v="The Dalles-California Highway"/>
    <tag k="oneway" v="yes"/>
    <tag k="ref" v="US 97"/>
    <tag k="source" v="Yahoo image"/>
  </way>
  <way id="37712391" version="5" timestamp="2011-07-06T23:37:24Z" uid="473471" user="NE3" changeset="8653193">
    <nd ref="442289712"/>
    <nd ref="442268275"/>
    <nd ref="442268277"/>
    <nd ref="442268279"/>
    <nd ref="442268281"/>
    <nd ref="442268283"/>
    <nd ref="1340011780"/>
    <tag k="NHS" v="yes"/>
    <tag k="highway" v="motorway"/>
    <tag k="lanes" v="2"/>
    <tag k="name" v="The Dalles-California Highway"/>
    <tag k="oneway" v="yes"/>
    <tag k="ref" v="US 97"/>
    <tag k="source" v="Yahoo image"/>
  </way>
  <way id="37712391" version="6" timestamp="2011-11-25T17:40:04Z" uid="207745" user="NE2" changeset="9945867">
    <nd ref="442289712"/>
    <nd ref="442268275"/>
    <nd ref="442268277"/>
    <nd ref="442268279"/>
    <nd ref="442268281"/>
    <nd ref="442268283"/>
    <nd ref="1340011780"/>
    <tag k="NHS" v="yes"/>
    <tag k="hgv" v="designated"/>
    <tag k="hgv:national_network" v="yes"/>
    <tag k="highway" v="motorway"/>
    <tag k="lanes" v="2"/>
    <tag k="name" v="The Dalles-California Highway"/>
    <tag k="oneway" v="yes"/>
    <tag k="ref" v="US 97"/>
    <tag k="source" v="Yahoo image"/>
    <tag k="source:hgv:national_network" v="Title 23: Highways Part 658 http://ecfr.gpoaccess.gov/cgi/t/text/text-idx?c=ecfr&amp;rgn=div5&amp;view=text&amp;node=23:1.0.1.7.33&amp;idno=23"/>
  </way>
  <way id="37712391" version="7" timestamp="2012-01-01T02:49:19Z" uid="92286" user="Paul Johnson" changeset="10259049"/>
  <way id="37712394" version="4" timestamp="2010-04-07T13:42:04Z" uid="20587" user="balrog-kun" changeset="4353646">
    <nd ref="442289857"/>
    <nd ref="442289970"/>
    <nd ref="442289972"/>
    <nd ref="147394458"/>
    <tag k="created_by" v="Potlatch 0.10b"/>
    <tag k="highway" v="residential"/>
    <tag k="name" v="West 9th Street"/>
    <tag k="tiger:cfcc" v="A41"/>
    <tag k="tiger:county" v="Oklahoma, OK"/>
    <tag k="tiger:name_base" v="9th"/>
    <tag k="tiger:name_direction_prefix" v="W"/>
    <tag k="tiger:name_type" v="St"/>
    <tag k="tiger:reviewed" v="no"/>
    <tag k="tiger:separated" v="no"/>
    <tag k="tiger:source" v="tiger_import_dch_v0.6_20070829"/>
    <tag k="tiger:tlid" v="100429282:100430133:100430134:100408480:100386458"/>
    <tag k="tiger:zip_left" v="73003"/>
    <tag k="tiger:zip_right" v="73003"/>
  </way>
  <way id="37712397" version="4" timestamp="2010-04-07T13:42:05Z" uid="20587" user="balrog-kun" changeset="4353646">
    <nd ref="442289915"/>
    <nd ref="147394464"/>
    <nd ref="468547875"/>
    <nd ref="147394466"/>
    <tag k="created_by" v="Potlatch 0.10b"/>
    <tag k="highway" v="residential"/>
    <tag k="name" v="West 9th Street"/>
    <tag k="tiger:cfcc" v="A41"/>
    <tag k="tiger:county" v="Oklahoma, OK"/>
    <tag k="tiger:name_base" v="9th"/>
    <tag k="tiger:name_direction_prefix" v="W"/>
    <tag k="tiger:name_type" v="St"/>
    <tag k="tiger:reviewed" v="no"/>
    <tag k="tiger:separated" v="no"/>
    <tag k="tiger:source" v="tiger_import_dch_v0.6_20070829"/>
    <tag k="tiger:tlid" v="100429282:100430133:100430134:100408480:100386458"/>
    <tag k="tiger:zip_left" v="73003"/>
    <tag k="tiger:zip_right" v="73003"/>
  </way>
  <way id="37712403" version="3" timestamp="2010-04-07T13:42:07Z" uid="20587" user="balrog-kun" changeset="4353646">
    <nd ref="442290015"/>
    <nd ref="147499637"/>
    <nd ref="147408663"/>
    <tag k="highway" v="residential"/>
    <tag k="name" v="West 8th Street"/>
    <tag k="tiger:cfcc" v="A41"/>
    <tag k="tiger:county" v="Oklahoma, OK"/>
    <tag k="tiger:name_base" v="8th"/>
    <tag k="tiger:name_direction_prefix" v="W"/>
    <tag k="tiger:name_type" v="St"/>
    <tag k="tiger:reviewed" v="no"/>
    <tag k="tiger:separated" v="no"/>
    <tag k="tiger:source" v="tiger_import_dch_v0.6_20070829"/>
    <tag k="tiger:tlid" v="100386441:100386456"/>
    <tag k="tiger:zip_left" v="73003"/>
    <tag k="tiger:zip_right" v="73003"/>
  </way>
  <way id="37712455" version="1" timestamp="2009-07-15T18:10:43Z" uid="43863" user="Rundling" changeset="1838664">
    <nd ref="442290439"/>
    <nd ref="442073905"/>
    <tag k="barrier" v="fence"/>
  </way>
  <way id="37712624" version="1" timestamp="2009-07-15T18:14:24Z" uid="23543" user="jkjk" changeset="1838710">
    <nd ref="355732384"/>
    <nd ref="442291674"/>
    <nd ref="442291676"/>
    <nd ref="442291679"/>
    <nd ref="442291681"/>
    <nd ref="442291682"/>
    <nd ref="442291685"/>
    <nd ref="442291686"/>
    <nd ref="355732384"/>
    <tag k="building" v="yes"/>
  </way>
  <way id="37712625" version="1" timestamp="2009-07-15T18:14:24Z" uid="23543" user="jkjk" changeset="1838710">
    <nd ref="442291681"/>
    <nd ref="442291687"/>
    <nd ref="442291688"/>
    <nd ref="442291694"/>
    <nd ref="355732383"/>
    <nd ref="442291686"/>
    <nd ref="442291685"/>
    <nd ref="442291682"/>
    <nd ref="442291681"/>
    <tag k="building" v="yes"/>
  </way>
  <way id="37712626" version="1" timestamp="2009-07-15T18:14:24Z" uid="23543" user="jkjk" changeset="1838710">
    <nd ref="442291688"/>
    <nd ref="442291689"/>
    <nd ref="442291690"/>
    <nd ref="442291691"/>
    <nd ref="442291692"/>
    <nd ref="442291693"/>
    <nd ref="355732381"/>
    <nd ref="355732383"/>
    <nd ref="442291694"/>
    <nd ref="442291688"/>
    <tag k="building" v="yes"/>
  </way>
  <way id="37712626" version="2" timestamp="2009-09-03T13:47:32Z" uid="3516" user="BiIbo" changeset="2359989">
    <nd ref="442291688"/>
    <nd ref="442291689"/>
    <nd ref="442291690"/>
    <nd ref="442291691"/>
    <nd ref="442291692"/>
    <nd ref="442291693"/>
    <nd ref="355732381"/>
    <nd ref="355732383"/>
    <nd ref="442291694"/>
    <nd ref="442291688"/>
    <tag k="building" v="yes"/>
  </way>
  <way id="37712627" version="1" timestamp="2009-07-15T18:14:25Z" uid="23543" user="jkjk" changeset="1838710">
    <nd ref="442291689"/>
    <nd ref="442291695"/>
    <nd ref="442291696"/>
    <nd ref="442291697"/>
    <nd ref="442291698"/>
    <nd ref="442291693"/>
    <nd ref="442291692"/>
    <nd ref="442291691"/>
    <nd ref="442291689"/>
    <tag k="building" v="yes"/>
  </way>
  <way id="37712627" version="2" timestamp="2009-09-03T13:47:30Z" uid="3516" user="BiIbo" changeset="2359989">
    <nd ref="442291689"/>
    <nd ref="442291695"/>
    <nd ref="442291696"/>
    <nd ref="442291697"/>
    <nd ref="442291698"/>
    <nd ref="442291693"/>
    <nd ref="442291692"/>
    <nd ref="442291691"/>
    <nd ref="442291690"/>
    <nd ref="442291689"/>
    <tag k="building" v="yes"/>
  </way>
  <way id="37712628" version="1" timestamp="2009-07-15T18:14:25Z" uid="23543" user="jkjk" changeset="1838710">
    <nd ref="442291695"/>
    <nd ref="442291699"/>
    <nd ref="442291700"/>
    <nd ref="442291701"/>
    <nd ref="442291702"/>
    <nd ref="442291703"/>
    <nd ref="442291704"/>
    <nd ref="442291705"/>
    <nd ref="442291706"/>
    <nd ref="442291707"/>
    <nd ref="442291708"/>
    <nd ref="248222537"/>
    <nd ref="442291709"/>
    <nd ref="442291698"/>
    <nd ref="442291695"/>
    <tag k="building" v="yes"/>
  </way>
  <way id="37712628" version="2" timestamp="2009-09-03T13:47:27Z" uid="3516" user="BiIbo" changeset="2359989">
    <nd ref="442291695"/>
    <nd ref="442291699"/>
    <nd ref="442291700"/>
    <nd ref="442291701"/>
    <nd ref="442291702"/>
    <nd ref="442291703"/>
    <nd ref="442291704"/>
    <nd ref="442291705"/>
    <nd ref="442291706"/>
    <nd ref="442291707"/>
    <nd ref="442291708"/>
    <nd ref="248222537"/>
    <nd ref="442291709"/>
    <nd ref="442291698"/>
    <nd ref="442291697"/>
    <nd ref="442291696"/>
    <nd ref="442291695"/>
    <tag k="building" v="yes"/>
  </way>
  <way id="37712629" version="1" timestamp="2009-07-15T18:14:26Z" uid="23543" user="jkjk" changeset="1838710">
    <nd ref="442291699"/>
    <nd ref="442291710"/>
    <nd ref="442291711"/>
    <nd ref="442291712"/>
    <nd ref="248222537"/>
    <nd ref="442291708"/>
    <nd ref="442291707"/>
    <nd ref="442291706"/>
    <nd ref="442291700"/>
    <nd ref="442291699"/>
    <tag k="building" v="yes"/>
  </way>
  <way id="37712629" version="2" timestamp="2011-02-03T16:51:37Z" uid="3516" user="BiIbo" changeset="7175410">
    <nd ref="442291699"/>
    <nd ref="442291710"/>
    <nd ref="442291711"/>
    <nd ref="442291712"/>
    <nd ref="248222537"/>
    <nd ref="442291708"/>
    <nd ref="442291707"/>
    <nd ref="442291706"/>
    <nd ref="442291700"/>
    <nd ref="442291699"/>
    <tag k="building" v="yes"/>
    <tag k="building:levels" v="5"/>
  </way>
  <way id="37712630" version="1" timestamp="2009-07-15T18:14:26Z" uid="23543" user="jkjk" changeset="1838710">
    <nd ref="442291713"/>
    <nd ref="442291714"/>
    <nd ref="442291715"/>
    <nd ref="442291716"/>
    <nd ref="442291717"/>
    <nd ref="442291713"/>
    <tag k="building" v="yes"/>
  </way>
  <way id="37712631" version="1" timestamp="2009-07-15T18:14:27Z" uid="23543" user="jkjk" changeset="1838710">
    <nd ref="442291716"/>
    <nd ref="442291719"/>
    <nd ref="442291720"/>
    <nd ref="442291721"/>
    <nd ref="442291722"/>
    <nd ref="442291723"/>
    <nd ref="442291739"/>
    <nd ref="442291724"/>
    <nd ref="442291774"/>
    <nd ref="442291785"/>
    <nd ref="442291725"/>
    <nd ref="442291726"/>
    <nd ref="442291762"/>
    <nd ref="442291727"/>
    <nd ref="442291713"/>
    <nd ref="442291717"/>
    <nd ref="442291716"/>
    <tag k="building" v="yes"/>
  </way>
  <way id="37712632" version="1" timestamp="2009-07-15T18:14:27Z" uid="23543" user="jkjk" changeset="1838710">
    <nd ref="442291721"/>
    <nd ref="442291728"/>
    <nd ref="442291729"/>
    <nd ref="442291730"/>
    <nd ref="442291731"/>
    <nd ref="442291732"/>
    <nd ref="442291733"/>
    <nd ref="442291734"/>
    <nd ref="442291735"/>
    <nd ref="442291736"/>
    <nd ref="442291737"/>
    <nd ref="442291738"/>
    <nd ref="442291739"/>
    <nd ref="442291723"/>
    <nd ref="442291722"/>
    <nd ref="442291721"/>
    <tag k="building" v="yes"/>
  </way>
  <way id="37712632" version="2" timestamp="2010-07-16T19:55:28Z" uid="3516" user="BiIbo" changeset="5237451">
    <nd ref="442291721"/>
    <nd ref="442291728"/>
    <nd ref="442291729"/>
    <nd ref="442291730"/>
    <nd ref="442291731"/>
    <nd ref="442291732"/>
    <nd ref="442291733"/>
    <nd ref="442291736"/>
    <nd ref="442291737"/>
    <nd ref="442291738"/>
    <nd ref="442291739"/>
    <nd ref="442291723"/>
    <nd ref="442291722"/>
    <nd ref="442291721"/>
    <tag k="building" v="yes"/>
  </way>
  <way id="37712633" version="1" timestamp="2009-07-15T18:14:28Z" uid="23543" user="jkjk" changeset="1838710">
    <nd ref="442291740"/>
    <nd ref="442291741"/>
    <nd ref="442291742"/>
    <nd ref="442291743"/>
    <nd ref="442291740"/>
  </way>
  <way id="37712634" version="1" timestamp="2009-07-15T18:14:28Z" uid="23543" user="jkjk" changeset="1838710">
    <nd ref="442291727"/>
    <nd ref="442291744"/>
    <nd ref="442291745"/>
    <nd ref="442291746"/>
    <nd ref="442291747"/>
    <nd ref="442291748"/>
    <nd ref="442291749"/>
    <nd ref="442291750"/>
    <nd ref="442291751"/>
    <nd ref="442291752"/>
    <nd ref="442291753"/>
    <nd ref="442291754"/>
    <nd ref="442291755"/>
    <nd ref="442291756"/>
    <nd ref="442291757"/>
    <nd ref="442291758"/>
    <nd ref="442291759"/>
    <nd ref="442291760"/>
    <nd ref="442291761"/>
    <nd ref="442291762"/>
    <nd ref="442291727"/>
    <tag k="building" v="yes"/>
  </way>
  <way id="37712635" version="1" timestamp="2009-07-15T18:14:29Z" uid="23543" user="jkjk" changeset="1838710">
    <nd ref="442291744"/>
    <nd ref="442291763"/>
    <nd ref="442291764"/>
    <nd ref="442291765"/>
    <nd ref="442291766"/>
    <nd ref="442291767"/>
    <nd ref="442291768"/>
    <nd ref="442291769"/>
    <nd ref="442291770"/>
    <nd ref="442291771"/>
    <nd ref="442291772"/>
    <nd ref="442291773"/>
    <nd ref="442291746"/>
    <nd ref="442291745"/>
    <nd ref="442291744"/>
    <tag k="building" v="yes"/>
  </way>
  <way id="37712641" version="1" timestamp="2009-07-15T18:14:29Z" uid="23543" user="jkjk" changeset="1838710">
    <nd ref="442291772"/>
    <nd ref="442291731"/>
    <nd ref="442291732"/>
    <nd ref="442291733"/>
    <nd ref="442291734"/>
    <nd ref="442291736"/>
    <nd ref="442291737"/>
    <nd ref="442291738"/>
    <nd ref="442291739"/>
    <nd ref="442291724"/>
    <nd ref="442291774"/>
    <nd ref="442291775"/>
    <nd ref="442291776"/>
    <nd ref="442291777"/>
    <nd ref="442291784"/>
    <nd ref="442291785"/>
    <nd ref="442291725"/>
    <nd ref="442291726"/>
    <nd ref="442291762"/>
    <nd ref="442291761"/>
    <nd ref="442291759"/>
    <nd ref="442291758"/>
    <nd ref="442291757"/>
    <nd ref="442291786"/>
    <nd ref="442291787"/>
    <nd ref="442291788"/>
    <nd ref="442291789"/>
    <nd ref="442291790"/>
    <nd ref="442291791"/>
    <nd ref="442291792"/>
    <nd ref="442291793"/>
    <nd ref="442291794"/>
    <nd ref="442291795"/>
    <nd ref="442291796"/>
    <nd ref="442291797"/>
    <nd ref="442291798"/>
    <nd ref="442291799"/>
    <nd ref="442291800"/>
    <nd ref="442291801"/>
    <nd ref="442291755"/>
    <nd ref="442291754"/>
    <nd ref="442291753"/>
    <nd ref="442291752"/>
    <nd ref="442291748"/>
    <nd ref="442291747"/>
    <nd ref="442291746"/>
    <nd ref="442291773"/>
    <nd ref="442291772"/>
    <tag k="building" v="yes"/>
  </way>
  <way id="37712641" version="2" timestamp="2010-07-16T19:55:29Z" uid="3516" user="BiIbo" changeset="5237451">
    <nd ref="442291772"/>
    <nd ref="442291731"/>
    <nd ref="442291732"/>
    <nd ref="442291733"/>
    <nd ref="442291736"/>
    <nd ref="442291737"/>
    <nd ref="442291738"/>
    <nd ref="442291739"/>
    <nd ref="442291724"/>
    <nd ref="442291774"/>
    <nd ref="442291775"/>
    <nd ref="442291776"/>
    <nd ref="442291777"/>
    <nd ref="442291784"/>
    <nd ref="442291785"/>
    <nd ref="442291725"/>
    <nd ref="442291726"/>
    <nd ref="442291762"/>
    <nd ref="442291761"/>
    <nd ref="442291760"/>
    <nd ref="442291759"/>
    <nd ref="442291758"/>
    <nd ref="442291757"/>
    <nd ref="442291786"/>
    <nd ref="442291787"/>
    <nd ref="442291788"/>
    <nd ref="442291789"/>
    <nd ref="442291790"/>
    <nd ref="442291791"/>
    <nd ref="442291792"/>
    <nd ref="442291793"/>
    <nd ref="442291794"/>
    <nd ref="442291795"/>
    <nd ref="442291796"/>
    <nd ref="442291797"/>
    <nd ref="442291798"/>
    <nd ref="442291799"/>
    <nd ref="442291800"/>
    <nd ref="442291801"/>
    <nd ref="442291755"/>
    <nd ref="442291754"/>
    <nd ref="442291753"/>
    <nd ref="442291752"/>
    <nd ref="442291748"/>
    <nd ref="442291747"/>
    <nd ref="442291746"/>
    <nd ref="442291773"/>
    <nd ref="442291772"/>
    <tag k="building" v="yes"/>
  </way>
  <way id="37712647" version="1" timestamp="2009-07-15T18:14:30Z" uid="23543" user="jkjk" changeset="1838710">
    <nd ref="442291729"/>
    <nd ref="442291802"/>
    <nd ref="442291803"/>
    <nd ref="442291804"/>
    <nd ref="442291805"/>
    <nd ref="442291806"/>
    <nd ref="442291807"/>
    <nd ref="442291808"/>
    <nd ref="442291730"/>
    <nd ref="442291729"/>
    <tag k="building" v="yes"/>
  </way>
  <way id="37712648" version="1" timestamp="2009-07-15T18:14:30Z" uid="23543" user="jkjk" changeset="1838710">
    <nd ref="442291809"/>
    <nd ref="442291811"/>
    <nd ref="442291813"/>
    <nd ref="442291815"/>
    <nd ref="442291809"/>
  </way>
  <way id="37712649" version="1" timestamp="2009-07-15T18:14:30Z" uid="23543" user="jkjk" changeset="1838710">
    <nd ref="442291803"/>
    <nd ref="442291816"/>
    <nd ref="442291818"/>
    <nd ref="442291820"/>
    <nd ref="442291822"/>
    <nd ref="442291827"/>
    <nd ref="442291828"/>
    <nd ref="442291829"/>
    <nd ref="442291830"/>
    <nd ref="442291808"/>
    <nd ref="442291807"/>
    <nd ref="442291806"/>
    <nd ref="442291805"/>
    <nd ref="442291804"/>
    <nd ref="442291803"/>
    <tag k="building" v="yes"/>
  </way>
  <way id="37712650" version="1" timestamp="2009-07-15T18:14:30Z" uid="23543" user="jkjk" changeset="1838710">
    <nd ref="442291816"/>
    <nd ref="442291831"/>
    <nd ref="442291832"/>
    <nd ref="442291833"/>
    <nd ref="442291834"/>
    <nd ref="442291835"/>
    <nd ref="442291836"/>
    <nd ref="442291837"/>
    <nd ref="442291830"/>
    <nd ref="442291829"/>
    <nd ref="442291828"/>
    <nd ref="442291827"/>
    <nd ref="442291822"/>
    <nd ref="442291820"/>
    <nd ref="442291818"/>
    <nd ref="442291816"/>
    <tag k="building" v="yes"/>
  </way>
  <way id="37712651" version="1" timestamp="2009-07-15T18:14:31Z" uid="23543" user="jkjk" changeset="1838710">
    <nd ref="442291832"/>
    <nd ref="442291838"/>
    <nd ref="442291839"/>
    <nd ref="442291840"/>
    <nd ref="442291841"/>
    <nd ref="442291833"/>
    <nd ref="442291832"/>
    <tag k="building" v="yes"/>
  </way>
  <way id="37712652" version="1" timestamp="2009-07-15T18:14:31Z" uid="23543" user="jkjk" changeset="1838710">
    <nd ref="442291841"/>
    <nd ref="442291842"/>
    <nd ref="442291843"/>
    <nd ref="442291837"/>
    <nd ref="442291836"/>
    <nd ref="442291844"/>
    <nd ref="442291845"/>
    <nd ref="442291834"/>
    <nd ref="442291833"/>
    <nd ref="442291841"/>
    <tag k="building" v="yes"/>
  </way>
  <way id="37712653" version="1" timestamp="2009-07-15T18:14:31Z" uid="23543" user="jkjk" changeset="1838710">
    <nd ref="313246832"/>
    <nd ref="313246831"/>
    <nd ref="313246830"/>
    <nd ref="313246829"/>
    <nd ref="313246828"/>
    <nd ref="313246827"/>
    <nd ref="313246826"/>
    <nd ref="313246825"/>
    <nd ref="313246824"/>
    <nd ref="313246823"/>
    <nd ref="313246822"/>
    <nd ref="313246853"/>
    <nd ref="442291916"/>
    <nd ref="442291914"/>
    <nd ref="442291908"/>
    <nd ref="442291903"/>
    <nd ref="442291899"/>
    <nd ref="442291873"/>
    <nd ref="442291874"/>
    <nd ref="442291878"/>
    <nd ref="442291880"/>
    <nd ref="442291891"/>
    <nd ref="442291895"/>
    <nd ref="442291846"/>
    <nd ref="442291847"/>
    <nd ref="442291848"/>
    <nd ref="313246839"/>
    <nd ref="313246838"/>
    <nd ref="442291849"/>
    <nd ref="442291850"/>
    <nd ref="442291851"/>
    <nd ref="442291852"/>
    <nd ref="442291853"/>
    <nd ref="442291854"/>
    <nd ref="442291855"/>
    <nd ref="442291856"/>
    <nd ref="442291857"/>
    <nd ref="442291858"/>
    <nd ref="442291859"/>
    <nd ref="442291860"/>
    <nd ref="442291861"/>
    <nd ref="442291862"/>
    <nd ref="442291863"/>
    <nd ref="442291864"/>
    <nd ref="442291865"/>
    <nd ref="442291866"/>
    <nd ref="442291867"/>
    <nd ref="442291868"/>
    <nd ref="442291869"/>
    <nd ref="442291870"/>
    <nd ref="442291871"/>
    <nd ref="442291872"/>
    <nd ref="313246836"/>
    <nd ref="313246835"/>
    <nd ref="313246834"/>
    <nd ref="313246833"/>
    <nd ref="313246832"/>
    <tag k="building" v="yes"/>
  </way>
  <way id="37712729" version="2" timestamp="2010-09-23T10:51:03Z" uid="115477" user="wowik" changeset="5852695">
    <nd ref="442292795"/>
    <nd ref="442292796"/>
    <nd ref="922445838"/>
    <nd ref="442292797"/>
    <nd ref="442292798"/>
    <nd ref="922445839"/>
    <nd ref="442292795"/>
    <tag k="natural" v="water"/>
    <tag k="source" v="Landsat"/>
  </way>
  <way id="37712908" version="1" timestamp="2009-07-15T18:22:25Z" uid="43863" user="Rundling" changeset="1838812">
    <nd ref="442294685"/>
    <nd ref="442294687"/>
    <nd ref="442294688"/>
    <nd ref="442294692"/>
    <nd ref="442294685"/>
    <tag k="addr:city" v="Uelzen"/>
    <tag k="addr:country" v="DE"/>
    <tag k="addr:housenumber" v="28"/>
    <tag k="addr:postcode" v="29525"/>
    <tag k="addr:street" v="Hochgraefestrae"/>
    <tag k="building" v="yes"/>
  </way>
  <way id="37712908" version="2" timestamp="2009-07-22T23:20:26Z" uid="26492" user="phobie" changeset="1910111">
    <nd ref="438151578"/>
    <nd ref="442294687"/>
    <nd ref="442294688"/>
    <nd ref="442294692"/>
    <nd ref="438151578"/>
    <tag k="addr:city" v="Uelzen"/>
    <tag k="addr:country" v="DE"/>
    <tag k="addr:housenumber" v="28"/>
    <tag k="addr:postcode" v="29525"/>
    <tag k="addr:street" v="Hochgraefestrae"/>
    <tag k="building" v="yes"/>
  </way>
  <way id="37712908" version="3" timestamp="2009-07-23T14:50:10Z" uid="43863" user="Rundling" changeset="1916351">
    <nd ref="438151578"/>
    <nd ref="446187129"/>
    <nd ref="446187130"/>
    <nd ref="442294688"/>
    <nd ref="442294692"/>
    <nd ref="438151578"/>
    <tag k="addr:city" v="Uelzen"/>
    <tag k="addr:country" v="DE"/>
    <tag k="addr:housenumber" v="28"/>
    <tag k="addr:postcode" v="29525"/>
    <tag k="addr:street" v="Hochgraefestrae"/>
    <tag k="building" v="yes"/>
  </way>
  <way id="37712908" version="4" timestamp="2009-07-24T12:49:04Z" uid="44221" user="dcp" changeset="1925092"/>
  <way id="37712960" version="2" timestamp="2011-04-11T20:54:50Z" uid="23543" user="jkjk" changeset="7837485">
    <nd ref="442295018"/>
    <nd ref="442295019"/>
    <nd ref="442295020"/>
    <nd ref="442295021"/>
    <nd ref="442295022"/>
    <nd ref="442295023"/>
    <nd ref="442295024"/>
    <nd ref="442295025"/>
    <nd ref="442295026"/>
    <nd ref="442295027"/>
    <nd ref="442295028"/>
    <nd ref="442295029"/>
    <nd ref="442295030"/>
    <nd ref="442295031"/>
    <nd ref="442295032"/>
    <nd ref="442295033"/>
    <nd ref="442295034"/>
    <nd ref="442295035"/>
    <nd ref="442295036"/>
    <tag k="highway" v="unclassified"/>
  </way>
  <way id="37712965" version="2" timestamp="2011-04-11T20:54:59Z" uid="23543" user="jkjk" changeset="7837485">
    <nd ref="442295023"/>
    <nd ref="442295085"/>
    <nd ref="442295086"/>
    <nd ref="442295087"/>
    <nd ref="442295088"/>
    <nd ref="442295089"/>
    <nd ref="442295090"/>
    <nd ref="442295091"/>
    <nd ref="442295092"/>
    <nd ref="442295093"/>
    <nd ref="442295094"/>
    <nd ref="442295095"/>
    <nd ref="442295096"/>
    <nd ref="442295097"/>
    <nd ref="442295098"/>
    <nd ref="442295099"/>
    <nd ref="442295100"/>
    <nd ref="442295101"/>
    <nd ref="442295102"/>
    <tag k="highway" v="unclassified"/>
  </way>
  <way id="37712966" version="3" timestamp="2011-04-11T20:55:29Z" uid="23543" user="jkjk" changeset="7837485">
    <nd ref="442295102"/>
    <nd ref="442295104"/>
    <nd ref="442295105"/>
    <nd ref="442295106"/>
    <nd ref="442295107"/>
    <nd ref="442295108"/>
    <nd ref="442295109"/>
    <nd ref="442295110"/>
    <nd ref="442295112"/>
    <nd ref="442295113"/>
    <nd ref="442295114"/>
    <tag k="highway" v="unclassified"/>
  </way>
</osm>
