<?xml version='1.0' encoding='UTF-8'?>
<osm version="0.6" generator="libosmium/2.20.0">
  <way id="37714131" version="1" timestamp="2009-07-15T18:54:55Z" uid="43863" user="Rundling" changeset="1839186">
    <nd ref="442306646"/>
    <nd ref="442306647"/>
    <nd ref="442306648"/>
    <nd ref="442306649"/>
    <nd ref="442306650"/>
    <nd ref="442306651"/>
    <nd ref="442306652"/>
    <nd ref="442306653"/>
    <nd ref="442306654"/>
    <nd ref="442306647"/>
    <tag k="highway" v="service"/>
    <tag k="service" v="parking_aisle"/>
    <tag k="surface" v="paved"/>
  </way>
  <way id="37714131" version="2" timestamp="2009-07-16T04:38:05Z" uid="43863" user="Rundling" changeset="1841489">
    <nd ref="442306646"/>
    <nd ref="442306647"/>
    <nd ref="442306648"/>
    <nd ref="442306649"/>
    <nd ref="442306650"/>
    <nd ref="442306652"/>
    <nd ref="442306653"/>
    <nd ref="442306654"/>
    <nd ref="442306647"/>
    <tag k="highway" v="service"/>
    <tag k="service" v="parking_aisle"/>
    <tag k="surface" v="paved"/>
  </way>
  <way id="37714132" version="1" timestamp="2009-07-15T18:54:55Z" uid="43863" user="Rundling" changeset="1839186">
    <nd ref="442306655"/>
    <nd ref="442306656"/>
    <nd ref="442306657"/>
    <nd ref="442306658"/>
    <nd ref="442306659"/>
    <nd ref="442306660"/>
    <nd ref="442306661"/>
    <nd ref="442306655"/>
    <tag k="building" v="yes"/>
    <tag k="name" v="Mega Company"/>
    <tag k="shop" v="electronics"/>
  </way>
  <way id="37714132" version="2" timestamp="2011-03-24T15:03:00Z" uid="43863" user="Rundling" changeset="7656632">
    <nd ref="1215987425"/>
    <nd ref="1215987419"/>
    <nd ref="442306657"/>
    <nd ref="442306658"/>
    <nd ref="442306659"/>
    <nd ref="442306660"/>
    <nd ref="442306661"/>
    <nd ref="1215987425"/>
    <tag k="building" v="yes"/>
    <tag k="name" v="Mega Company"/>
    <tag k="shop" v="electronics"/>
  </way>
  <way id="37714133" version="1" timestamp="2009-07-15T18:54:56Z" uid="43863" user="Rundling" changeset="1839186">
    <nd ref="442306648"/>
    <nd ref="442306662"/>
    <tag k="highway" v="service"/>
    <tag k="service" v="parking_aisle"/>
    <tag k="surface" v="paved"/>
  </way>
  <way id="37714845" version="1" timestamp="2009-07-15T19:07:22Z" uid="43863" user="Rundling" changeset="1839328">
    <nd ref="442318251"/>
    <nd ref="441858671"/>
    <tag k="leisure" v="pitch"/>
    <tag k="name" v="Tennisclub"/>
    <tag k="sport" v="tennis"/>
  </way>
  <way id="37714845" version="2" timestamp="2009-07-15T19:09:54Z" uid="43863" user="Rundling" changeset="1839353">
    <nd ref="441890742"/>
    <nd ref="442318251"/>
    <nd ref="441858671"/>
    <nd ref="441858672"/>
    <nd ref="441858674"/>
    <nd ref="441890742"/>
    <tag k="leisure" v="pitch"/>
    <tag k="name" v="Tennisclub"/>
    <tag k="sport" v="tennis"/>
  </way>
  <way id="37714845" version="3" timestamp="2009-07-16T06:52:58Z" uid="43863" user="Rundling" changeset="1842200">
    <nd ref="441890742"/>
    <nd ref="442473918"/>
    <nd ref="442318251"/>
    <nd ref="441858671"/>
    <nd ref="441858672"/>
    <nd ref="441858674"/>
    <nd ref="442473917"/>
    <nd ref="441890742"/>
    <tag k="leisure" v="pitch"/>
    <tag k="name" v="Tennisclub"/>
    <tag k="sport" v="tennis"/>
  </way>
  <way id="37714845" version="4" timestamp="2009-07-16T06:55:20Z" uid="43863" user="Rundling" changeset="1842219">
    <nd ref="441890742"/>
    <nd ref="442473918"/>
    <nd ref="442318251"/>
    <nd ref="441858671"/>
    <nd ref="441858672"/>
    <nd ref="441858674"/>
    <nd ref="442473917"/>
    <nd ref="441890742"/>
    <tag k="landuse" v="meadow"/>
    <tag k="name" v="Tennisclub von 1991 in Uelzen e.V."/>
  </way>
  <way id="37714845" version="5" timestamp="2009-07-17T10:12:19Z" uid="43863" user="Rundling" changeset="1852786">
    <nd ref="441890742"/>
    <nd ref="442473918"/>
    <nd ref="442318251"/>
    <nd ref="441858671"/>
    <nd ref="441858672"/>
    <nd ref="442912719"/>
    <nd ref="441858674"/>
    <nd ref="442473917"/>
    <nd ref="441890742"/>
    <tag k="landuse" v="meadow"/>
    <tag k="name" v="Tennisclub von 1991 in Uelzen e.V."/>
  </way>
  <way id="37714845" version="6" timestamp="2009-07-17T13:43:57Z" uid="43863" user="Rundling" changeset="1854566">
    <nd ref="442980093"/>
    <nd ref="442980094"/>
    <nd ref="442980095"/>
    <nd ref="442980096"/>
    <nd ref="442980099"/>
    <nd ref="442980100"/>
    <nd ref="442980101"/>
    <nd ref="442980093"/>
    <tag k="landuse" v="meadow"/>
    <tag k="name" v="Tennisclub von 1991 in Uelzen e.V."/>
  </way>
  <way id="37714846" version="1" timestamp="2009-07-15T19:07:22Z" uid="43863" user="Rundling" changeset="1839328">
    <nd ref="442318251"/>
    <nd ref="441890742"/>
    <nd ref="441858674"/>
    <nd ref="441858672"/>
    <nd ref="442318253"/>
    <tag k="barrier" v="fence"/>
  </way>
  <way id="37714846" version="2" timestamp="2009-07-15T19:09:54Z" uid="43863" user="Rundling" changeset="1839353"/>
  <way id="37714847" version="1" timestamp="2009-07-15T19:07:23Z" uid="43863" user="Rundling" changeset="1839328">
    <nd ref="322763466"/>
    <nd ref="442318251"/>
    <tag k="barrier" v="fence"/>
  </way>
  <way id="37714847" version="2" timestamp="2009-07-15T19:09:54Z" uid="43863" user="Rundling" changeset="1839353"/>
  <way id="37714849" version="2" timestamp="2009-11-22T23:29:54Z" uid="20587" user="balrog-kun" changeset="3192033">
    <nd ref="442316342"/>
    <nd ref="442316130"/>
    <nd ref="442316749"/>
    <tag k="highway" v="residential"/>
    <tag k="name" v="Luksusowa"/>
    <tag k="source" v="UMP-PL, ./UMP-Warszawa/src/JOZEFOW.ulice.txt"/>
    <tag k="surface" v="unpaved"/>
  </way>
  <way id="37714849" version="3" timestamp="2011-04-03T17:36:40Z" uid="91056" user="Yarl" changeset="7756848">
    <nd ref="442316342"/>
    <nd ref="442316130"/>
    <nd ref="1231159100"/>
    <nd ref="1231158961"/>
    <nd ref="442316749"/>
    <tag k="highway" v="residential"/>
    <tag k="name" v="Luksusowa"/>
    <tag k="source" v="UMP-PL, ./UMP-Warszawa/src/JOZEFOW.ulice.txt"/>
    <tag k="surface" v="unpaved"/>
  </way>
  <way id="37714849" version="4" timestamp="2012-01-19T21:30:21Z" uid="467703" user="Zbigniew Czernik" changeset="10441448">
    <nd ref="442316342"/>
    <nd ref="442316130"/>
    <nd ref="1231159100"/>
    <nd ref="1231158961"/>
    <nd ref="442316749"/>
    <tag k="highway" v="track"/>
    <tag k="name" v="Luksusowa"/>
    <tag k="source" v="UMP-PL, ./UMP-Warszawa/src/JOZEFOW.ulice.txt"/>
    <tag k="surface" v="unpaved"/>
    <tag k="tracktype" v="grade1"/>
  </way>
  <way id="37714851" version="2" timestamp="2009-11-22T23:29:54Z" uid="20587" user="balrog-kun" changeset="3192033">
    <nd ref="442316128"/>
    <nd ref="442316763"/>
    <nd ref="442316779"/>
    <nd ref="442316782"/>
    <nd ref="442316639"/>
    <nd ref="442316786"/>
    <nd ref="442316633"/>
    <nd ref="442316626"/>
    <nd ref="442316618"/>
    <nd ref="442316665"/>
    <nd ref="442316514"/>
    <tag k="highway" v="residential"/>
    <tag k="name" v="Żeromskiego"/>
    <tag k="source" v="UMP-PL, ./UMP-Warszawa/src/JOZEFOW.ulice.txt"/>
    <tag k="surface" v="unpaved"/>
  </way>
  <way id="37714851" version="3" timestamp="2012-01-19T21:32:02Z" uid="467703" user="Zbigniew Czernik" changeset="10441448">
    <nd ref="442316128"/>
    <nd ref="442316763"/>
    <nd ref="442316779"/>
    <nd ref="442316782"/>
    <nd ref="442316639"/>
    <nd ref="442316786"/>
    <nd ref="442316633"/>
    <nd ref="442316626"/>
    <nd ref="442316618"/>
    <nd ref="442316665"/>
    <nd ref="442316514"/>
    <tag k="highway" v="track"/>
    <tag k="name" v="Żeromskiego"/>
    <tag k="source" v="UMP-PL, ./UMP-Warszawa/src/JOZEFOW.ulice.txt"/>
    <tag k="surface" v="unpaved"/>
    <tag k="tracktype" v="grade1"/>
  </way>
  <way id="37714852" version="2" timestamp="2009-11-22T23:29:53Z" uid="20587" user="balrog-kun" changeset="3192033">
    <nd ref="442315858"/>
    <nd ref="442315626"/>
    <tag k="highway" v="residential"/>
    <tag k="name" v="Różana"/>
    <tag k="source" v="UMP-PL, ./UMP-Warszawa/src/JOZEFOW.ulice.txt"/>
    <tag k="surface" v="unpaved"/>
  </way>
  <way id="37714852" version="3" timestamp="2011-04-03T17:36:44Z" uid="91056" user="Yarl" changeset="7756848">
    <nd ref="442315858"/>
    <nd ref="1231159345"/>
    <nd ref="442315626"/>
    <tag k="highway" v="residential"/>
    <tag k="name" v="Różana"/>
    <tag k="source" v="UMP-PL, ./UMP-Warszawa/src/JOZEFOW.ulice.txt"/>
    <tag k="surface" v="unpaved"/>
  </way>
  <way id="37714852" version="4" timestamp="2012-01-19T21:30:55Z" uid="467703" user="Zbigniew Czernik" changeset="10441448">
    <nd ref="442315858"/>
    <nd ref="1231159345"/>
    <nd ref="442315626"/>
    <tag k="highway" v="track"/>
    <tag k="name" v="Różana"/>
    <tag k="source" v="UMP-PL, ./UMP-Warszawa/src/JOZEFOW.ulice.txt"/>
    <tag k="surface" v="unpaved"/>
    <tag k="tracktype" v="grade1"/>
  </way>
  <way id="37714853" version="2" timestamp="2009-11-01T12:20:15Z" uid="20587" user="balrog-kun" changeset="3005634">
    <nd ref="442317261"/>
    <nd ref="442317254"/>
    <tag k="highway" v="residential"/>
    <tag k="name" v="Żytnia"/>
    <tag k="source" v="UMP-PL, ./UMP-Warszawa/src/JOZEFOW.ulice.txt"/>
    <tag k="surface" v="unpaved"/>
  </way>
  <way id="37714853" version="3" timestamp="2012-01-19T21:32:03Z" uid="467703" user="Zbigniew Czernik" changeset="10441448">
    <nd ref="442317261"/>
    <nd ref="442317254"/>
    <tag k="highway" v="track"/>
    <tag k="name" v="Żytnia"/>
    <tag k="source" v="UMP-PL, ./UMP-Warszawa/src/JOZEFOW.ulice.txt"/>
    <tag k="surface" v="unpaved"/>
    <tag k="tracktype" v="grade1"/>
  </way>
  <way id="37714855" version="2" timestamp="2009-11-22T23:29:52Z" uid="20587" user="balrog-kun" changeset="3192033">
    <nd ref="308058412"/>
    <nd ref="442316862"/>
    <tag k="highway" v="residential"/>
    <tag k="name" v="15 Sierpnia"/>
    <tag k="source" v="UMP-PL, ./UMP-Warszawa/src/JOZEFOW.ulice.txt"/>
    <tag k="surface" v="unpaved"/>
  </way>
  <way id="37714855" version="3" timestamp="2012-01-19T21:32:04Z" uid="467703" user="Zbigniew Czernik" changeset="10441448">
    <nd ref="308058412"/>
    <nd ref="442316862"/>
    <tag k="highway" v="track"/>
    <tag k="name" v="15 Sierpnia"/>
    <tag k="source" v="UMP-PL, ./UMP-Warszawa/src/JOZEFOW.ulice.txt"/>
    <tag k="surface" v="unpaved"/>
    <tag k="tracktype" v="grade1"/>
  </way>
  <way id="37714862" version="2" timestamp="2009-11-22T23:29:56Z" uid="20587" user="balrog-kun" changeset="3192033">
    <nd ref="442317005"/>
    <nd ref="442316992"/>
    <nd ref="442316002"/>
    <tag k="highway" v="residential"/>
    <tag k="name" v="Księcia Józefa Poniatowskiego"/>
    <tag k="source" v="UMP-PL, ./UMP-Warszawa/src/JOZEFOW.ulice.txt"/>
    <tag k="surface" v="unpaved"/>
  </way>
  <way id="37714862" version="3" timestamp="2012-01-19T21:30:11Z" uid="467703" user="Zbigniew Czernik" changeset="10441448">
    <nd ref="442317005"/>
    <nd ref="442316992"/>
    <nd ref="442316002"/>
    <tag k="highway" v="track"/>
    <tag k="name" v="Księcia Józefa Poniatowskiego"/>
    <tag k="source" v="UMP-PL, ./UMP-Warszawa/src/JOZEFOW.ulice.txt"/>
    <tag k="surface" v="unpaved"/>
    <tag k="tracktype" v="grade1"/>
  </way>
  <way id="37714863" version="2" timestamp="2009-11-22T23:29:48Z" uid="20587" user="balrog-kun" changeset="3192033">
    <nd ref="442315773"/>
    <nd ref="442316986"/>
    <nd ref="442315607"/>
    <tag k="highway" v="residential"/>
    <tag k="name" v="Wrzosowa"/>
    <tag k="source" v="UMP-PL, ./UMP-Warszawa/src/JOZEFOW.ulice.txt"/>
    <tag k="surface" v="unpaved"/>
  </way>
  <way id="37714863" version="3" timestamp="2012-01-19T21:31:35Z" uid="467703" user="Zbigniew Czernik" changeset="10441448">
    <nd ref="442315773"/>
    <nd ref="442316986"/>
    <nd ref="442315607"/>
    <tag k="highway" v="track"/>
    <tag k="name" v="Wrzosowa"/>
    <tag k="source" v="UMP-PL, ./UMP-Warszawa/src/JOZEFOW.ulice.txt"/>
    <tag k="surface" v="unpaved"/>
    <tag k="tracktype" v="grade1"/>
  </way>
  <way id="37714864" version="2" timestamp="2009-11-22T23:29:55Z" uid="20587" user="balrog-kun" changeset="3192033">
    <nd ref="442316132"/>
    <nd ref="442316382"/>
    <nd ref="442316174"/>
    <nd ref="442316131"/>
    <tag k="highway" v="residential"/>
    <tag k="name" v="Dobra"/>
    <tag k="source" v="UMP-PL, ./UMP-Warszawa/src/JOZEFOW.ulice.txt"/>
    <tag k="surface" v="unpaved"/>
  </way>
  <way id="37714864" version="3" timestamp="2012-01-19T21:29:19Z" uid="467703" user="Zbigniew Czernik" changeset="10441448">
    <nd ref="442316132"/>
    <nd ref="442316382"/>
    <nd ref="442316174"/>
    <nd ref="442316131"/>
    <tag k="highway" v="track"/>
    <tag k="name" v="Dobra"/>
    <tag k="source" v="UMP-PL, ./UMP-Warszawa/src/JOZEFOW.ulice.txt"/>
    <tag k="surface" v="unpaved"/>
    <tag k="tracktype" v="grade1"/>
  </way>
  <way id="37714866" version="2" timestamp="2009-11-22T23:29:49Z" uid="20587" user="balrog-kun" changeset="3192033">
    <nd ref="442317361"/>
    <nd ref="442317377"/>
    <nd ref="442317200"/>
    <nd ref="442317553"/>
    <tag k="highway" v="residential"/>
    <tag k="name" v="Wiosenna"/>
    <tag k="source" v="UMP-PL, ./UMP-Warszawa/src/JOZEFOW.ulice.txt"/>
    <tag k="surface" v="unpaved"/>
  </way>
  <way id="37714866" version="3" timestamp="2012-01-19T21:31:25Z" uid="467703" user="Zbigniew Czernik" changeset="10441448">
    <nd ref="442317361"/>
    <nd ref="442317377"/>
    <nd ref="442317200"/>
    <nd ref="442317553"/>
    <tag k="highway" v="track"/>
    <tag k="name" v="Wiosenna"/>
    <tag k="source" v="UMP-PL, ./UMP-Warszawa/src/JOZEFOW.ulice.txt"/>
    <tag k="surface" v="unpaved"/>
    <tag k="tracktype" v="grade1"/>
  </way>
  <way id="37714867" version="2" timestamp="2009-11-22T23:29:55Z" uid="20587" user="balrog-kun" changeset="3192033">
    <nd ref="442316174"/>
    <nd ref="442316732"/>
    <nd ref="442316763"/>
    <nd ref="442316061"/>
    <tag k="highway" v="residential"/>
    <tag k="name" v="Gałczyńskiego"/>
    <tag k="source" v="UMP-PL, ./UMP-Warszawa/src/JOZEFOW.ulice.txt"/>
    <tag k="surface" v="unpaved"/>
  </way>
  <way id="37714867" version="3" timestamp="2012-01-19T21:29:28Z" uid="467703" user="Zbigniew Czernik" changeset="10441448">
    <nd ref="442316174"/>
    <nd ref="442316732"/>
    <nd ref="442316763"/>
    <nd ref="442316061"/>
    <tag k="highway" v="track"/>
    <tag k="name" v="Gałczyńskiego"/>
    <tag k="source" v="UMP-PL, ./UMP-Warszawa/src/JOZEFOW.ulice.txt"/>
    <tag k="surface" v="unpaved"/>
    <tag k="tracktype" v="grade1"/>
  </way>
  <way id="37714873" version="2" timestamp="2009-11-01T12:20:18Z" uid="20587" user="balrog-kun" changeset="3005634">
    <nd ref="442316722"/>
    <nd ref="442316728"/>
    <nd ref="442316393"/>
    <nd ref="442316711"/>
    <nd ref="442316716"/>
    <tag k="highway" v="residential"/>
    <tag k="name" v="Szałasowa"/>
    <tag k="source" v="UMP-PL, ./UMP-Warszawa/src/JOZEFOW.ulice.txt"/>
    <tag k="surface" v="unpaved"/>
  </way>
  <way id="37714874" version="2" timestamp="2009-11-01T12:20:15Z" uid="20587" user="balrog-kun" changeset="3005634">
    <nd ref="442316824"/>
    <nd ref="442316818"/>
    <nd ref="442316837"/>
    <nd ref="442316832"/>
    <nd ref="442316849"/>
    <nd ref="442316843"/>
    <tag k="highway" v="residential"/>
    <tag k="name" v="Wronia"/>
    <tag k="source" v="UMP-PL, ./UMP-Warszawa/src/JOZEFOW.ulice.txt"/>
    <tag k="surface" v="unpaved"/>
  </way>
  <way id="37714874" version="3" timestamp="2012-01-19T21:31:35Z" uid="467703" user="Zbigniew Czernik" changeset="10441448">
    <nd ref="442316824"/>
    <nd ref="442316818"/>
    <nd ref="442316837"/>
    <nd ref="442316832"/>
    <nd ref="442316849"/>
    <nd ref="442316843"/>
    <tag k="highway" v="track"/>
    <tag k="name" v="Wronia"/>
    <tag k="source" v="UMP-PL, ./UMP-Warszawa/src/JOZEFOW.ulice.txt"/>
    <tag k="surface" v="unpaved"/>
    <tag k="tracktype" v="grade1"/>
  </way>
  <way id="37714876" version="2" timestamp="2009-11-22T23:29:55Z" uid="20587" user="balrog-kun" changeset="3192033">
    <nd ref="442316027"/>
    <nd ref="442316633"/>
    <nd ref="442316776"/>
    <nd ref="442316440"/>
    <tag k="highway" v="residential"/>
    <tag k="name" v="Narutowicza"/>
    <tag k="source" v="UMP-PL, ./UMP-Warszawa/src/JOZEFOW.ulice.txt"/>
    <tag k="surface" v="unpaved"/>
  </way>
  <way id="37714876" version="3" timestamp="2012-01-19T21:30:32Z" uid="467703" user="Zbigniew Czernik" changeset="10441448">
    <nd ref="442316027"/>
    <nd ref="442316633"/>
    <nd ref="442316776"/>
    <nd ref="442316440"/>
    <tag k="highway" v="track"/>
    <tag k="name" v="Narutowicza"/>
    <tag k="source" v="UMP-PL, ./UMP-Warszawa/src/JOZEFOW.ulice.txt"/>
    <tag k="surface" v="unpaved"/>
    <tag k="tracktype" v="grade1"/>
  </way>
  <way id="37714877" version="2" timestamp="2009-11-22T23:29:48Z" uid="20587" user="balrog-kun" changeset="3192033">
    <nd ref="442315827"/>
    <nd ref="442315615"/>
    <tag k="highway" v="residential"/>
    <tag k="name" v="Kasztanowa"/>
    <tag k="source" v="UMP-PL, ./UMP-Warszawa/src/JOZEFOW.ulice.txt"/>
    <tag k="surface" v="unpaved"/>
  </way>
  <way id="37714877" version="3" timestamp="2012-01-19T21:29:59Z" uid="467703" user="Zbigniew Czernik" changeset="10441448">
    <nd ref="442315827"/>
    <nd ref="442315615"/>
    <tag k="highway" v="track"/>
    <tag k="name" v="Kasztanowa"/>
    <tag k="source" v="UMP-PL, ./UMP-Warszawa/src/JOZEFOW.ulice.txt"/>
    <tag k="surface" v="unpaved"/>
    <tag k="tracktype" v="grade1"/>
  </way>
  <way id="37714882" version="2" timestamp="2009-11-22T23:29:56Z" uid="20587" user="balrog-kun" changeset="3192033">
    <nd ref="442317055"/>
    <nd ref="442316299"/>
    <nd ref="442316381"/>
    <nd ref="442317027"/>
    <tag k="highway" v="residential"/>
    <tag k="name" v="Chłopickiego"/>
    <tag k="source" v="UMP-PL, ./UMP-Warszawa/src/JOZEFOW.ulice.txt"/>
    <tag k="surface" v="unpaved"/>
  </way>
  <way id="37714882" version="3" timestamp="2012-01-19T21:29:12Z" uid="467703" user="Zbigniew Czernik" changeset="10441448">
    <nd ref="442317055"/>
    <nd ref="442316299"/>
    <nd ref="442316381"/>
    <nd ref="442317027"/>
    <tag k="highway" v="track"/>
    <tag k="name" v="Chłopickiego"/>
    <tag k="source" v="UMP-PL, ./UMP-Warszawa/src/JOZEFOW.ulice.txt"/>
    <tag k="surface" v="unpaved"/>
    <tag k="tracktype" v="grade1"/>
  </way>
  <way id="37714883" version="2" timestamp="2009-11-22T23:30:02Z" uid="20587" user="balrog-kun" changeset="3192033">
    <nd ref="442317900"/>
    <nd ref="442317899"/>
    <nd ref="442317898"/>
    <nd ref="442317325"/>
    <tag k="highway" v="residential"/>
    <tag k="name" v="Mieni"/>
    <tag k="source" v="UMP-PL, ./UMP-Warszawa/src/JOZEFOW.ulice.txt"/>
    <tag k="surface" v="unpaved"/>
  </way>
  <way id="37714883" version="3" timestamp="2011-02-06T10:28:44Z" uid="98542" user="wajak" changeset="7201661">
    <nd ref="442317900"/>
    <nd ref="442317899"/>
    <tag k="highway" v="residential"/>
    <tag k="name" v="Mieni"/>
    <tag k="source" v="UMP-PL, ./UMP-Warszawa/src/JOZEFOW.ulice.txt"/>
    <tag k="surface" v="unpaved"/>
  </way>
  <way id="37714884" version="2" timestamp="2009-11-22T23:29:57Z" uid="20587" user="balrog-kun" changeset="3192033">
    <nd ref="442316053"/>
    <nd ref="442316654"/>
    <nd ref="442315807"/>
    <tag k="highway" v="residential"/>
    <tag k="name" v="Bukowa"/>
    <tag k="source" v="UMP-PL, ./UMP-Warszawa/src/JOZEFOW.ulice.txt"/>
    <tag k="surface" v="unpaved"/>
  </way>
  <way id="37714884" version="3" timestamp="2012-01-19T21:29:08Z" uid="467703" user="Zbigniew Czernik" changeset="10441448">
    <nd ref="442316053"/>
    <nd ref="442316654"/>
    <nd ref="442315807"/>
    <tag k="highway" v="track"/>
    <tag k="name" v="Bukowa"/>
    <tag k="source" v="UMP-PL, ./UMP-Warszawa/src/JOZEFOW.ulice.txt"/>
    <tag k="surface" v="unpaved"/>
    <tag k="tracktype" v="grade1"/>
  </way>
  <way id="37714885" version="2" timestamp="2009-11-22T23:29:48Z" uid="20587" user="balrog-kun" changeset="3192033">
    <nd ref="442317357"/>
    <nd ref="442317444"/>
    <nd ref="442317315"/>
    <nd ref="442317358"/>
    <nd ref="442317377"/>
    <nd ref="442317381"/>
    <tag k="highway" v="residential"/>
    <tag k="name" v="Kościuszki"/>
    <tag k="source" v="UMP-PL, ./UMP-Warszawa/src/JOZEFOW.ulice.txt"/>
    <tag k="surface" v="unpaved"/>
  </way>
  <way id="37714885" version="3" timestamp="2011-04-02T18:04:37Z" uid="91056" user="Yarl" changeset="7746517">
    <nd ref="442317357"/>
    <nd ref="442317444"/>
    <nd ref="442317315"/>
    <nd ref="442317358"/>
    <nd ref="442317377"/>
    <nd ref="442317381"/>
    <tag k="highway" v="residential"/>
    <tag k="name" v="Tadeusza Kościuszki"/>
    <tag k="surface" v="unpaved"/>
  </way>
  <way id="37714885" version="4" timestamp="2012-01-19T21:31:12Z" uid="467703" user="Zbigniew Czernik" changeset="10441448">
    <nd ref="442317357"/>
    <nd ref="442317444"/>
    <nd ref="442317315"/>
    <nd ref="442317358"/>
    <nd ref="442317377"/>
    <nd ref="442317381"/>
    <tag k="highway" v="track"/>
    <tag k="name" v="Tadeusza Kościuszki"/>
    <tag k="surface" v="unpaved"/>
    <tag k="tracktype" v="grade1"/>
  </way>
  <way id="37714889" version="2" timestamp="2009-11-22T23:29:51Z" uid="20587" user="balrog-kun" changeset="3192033">
    <nd ref="442316262"/>
    <nd ref="442316246"/>
    <nd ref="442316255"/>
    <tag k="highway" v="residential"/>
    <tag k="name" v="Dąbrowskiej"/>
    <tag k="source" v="UMP-PL, ./UMP-Warszawa/src/JOZEFOW.ulice.txt"/>
    <tag k="surface" v="unpaved"/>
  </way>
  <way id="37714889" version="3" timestamp="2012-01-19T21:29:21Z" uid="467703" user="Zbigniew Czernik" changeset="10441448">
    <nd ref="442316262"/>
    <nd ref="442316246"/>
    <nd ref="442316255"/>
    <tag k="highway" v="track"/>
    <tag k="name" v="Dąbrowskiej"/>
    <tag k="source" v="UMP-PL, ./UMP-Warszawa/src/JOZEFOW.ulice.txt"/>
    <tag k="surface" v="unpaved"/>
    <tag k="tracktype" v="grade1"/>
  </way>
  <way id="37714890" version="2" timestamp="2009-11-22T23:29:52Z" uid="20587" user="balrog-kun" changeset="3192033">
    <nd ref="442317348"/>
    <nd ref="442317506"/>
    <tag k="highway" v="residential"/>
    <tag k="name" v="Reja"/>
    <tag k="source" v="UMP-PL, ./UMP-Warszawa/src/JOZEFOW.ulice.txt"/>
    <tag k="surface" v="unpaved"/>
  </way>
  <way id="37714890" version="3" timestamp="2012-01-19T21:30:53Z" uid="467703" user="Zbigniew Czernik" changeset="10441448">
    <nd ref="442317348"/>
    <nd ref="442317506"/>
    <tag k="highway" v="track"/>
    <tag k="name" v="Reja"/>
    <tag k="source" v="UMP-PL, ./UMP-Warszawa/src/JOZEFOW.ulice.txt"/>
    <tag k="surface" v="unpaved"/>
    <tag k="tracktype" v="grade1"/>
  </way>
  <way id="37714894" version="2" timestamp="2009-10-31T22:49:20Z" uid="20587" user="balrog-kun" changeset="3002253">
    <nd ref="442315504"/>
    <nd ref="442315468"/>
    <nd ref="442315510"/>
    <nd ref="442315517"/>
    <nd ref="442315523"/>
    <nd ref="442315533"/>
    <nd ref="442315459"/>
    <nd ref="442315528"/>
    <nd ref="442315547"/>
    <nd ref="442315539"/>
    <nd ref="442315561"/>
    <nd ref="442315552"/>
    <tag k="highway" v="residential"/>
    <tag k="name" v="Wiejska"/>
    <tag k="source" v="UMP-PL, ./UMP-Warszawa/src/JOZEFOW.ulice.txt"/>
    <tag k="surface" v="unpaved"/>
  </way>
  <way id="37714894" version="3" timestamp="2011-04-03T17:36:35Z" uid="91056" user="Yarl" changeset="7756848">
    <nd ref="1231159218"/>
    <nd ref="442315504"/>
    <nd ref="442315468"/>
    <nd ref="442315510"/>
    <nd ref="442315517"/>
    <nd ref="442315523"/>
    <nd ref="442315533"/>
    <nd ref="442315459"/>
    <nd ref="442315528"/>
    <nd ref="1231159092"/>
    <nd ref="442315547"/>
    <nd ref="1231159220"/>
    <nd ref="1231159112"/>
    <nd ref="442315539"/>
    <nd ref="1231159172"/>
    <nd ref="442315561"/>
    <nd ref="442315552"/>
    <nd ref="1231159093"/>
    <nd ref="1231158982"/>
    <nd ref="1138856103"/>
    <tag k="highway" v="track"/>
    <tag k="name" v="Wiejska"/>
    <tag k="tracktype" v="grade1"/>
  </way>
  <way id="37714894" version="4" timestamp="2011-05-12T14:45:37Z" uid="422794" user="Fjl" changeset="8122920">
    <nd ref="1231159218"/>
    <nd ref="1281360595"/>
    <nd ref="442315504"/>
    <nd ref="442315468"/>
    <nd ref="1281363564"/>
    <nd ref="442315510"/>
    <nd ref="1281363567"/>
    <nd ref="442315517"/>
    <nd ref="442315523"/>
    <nd ref="442315533"/>
    <nd ref="442315459"/>
    <nd ref="442315528"/>
    <nd ref="1231159092"/>
    <nd ref="442315547"/>
    <nd ref="1231159220"/>
    <nd ref="1231159112"/>
    <nd ref="442315539"/>
    <nd ref="1231159172"/>
    <nd ref="442315561"/>
    <nd ref="442315552"/>
    <nd ref="1231159093"/>
    <nd ref="1231158982"/>
    <nd ref="1138856103"/>
    <tag k="highway" v="track"/>
    <tag k="name" v="Wiejska"/>
    <tag k="tracktype" v="grade1"/>
  </way>
  <way id="37714894" version="5" timestamp="2011-12-17T16:46:31Z" uid="98542" user="wajak" changeset="10139708">
    <nd ref="1231159218"/>
    <nd ref="1281360595"/>
    <nd ref="442315504"/>
    <nd ref="1550534788"/>
    <nd ref="442315468"/>
    <nd ref="1281363564"/>
    <nd ref="442315510"/>
    <nd ref="1281363567"/>
    <nd ref="442315517"/>
    <nd ref="442315523"/>
    <nd ref="442315533"/>
    <nd ref="442315459"/>
    <nd ref="442315528"/>
    <nd ref="1231159092"/>
    <nd ref="442315547"/>
    <nd ref="1231159220"/>
    <nd ref="1231159112"/>
    <nd ref="442315539"/>
    <nd ref="1231159172"/>
    <nd ref="442315561"/>
    <nd ref="442315552"/>
    <nd ref="1231159093"/>
    <nd ref="1231158982"/>
    <nd ref="1138856103"/>
    <tag k="highway" v="track"/>
    <tag k="name" v="Wiejska"/>
    <tag k="tracktype" v="grade3"/>
  </way>
  <way id="37714895" version="2" timestamp="2009-11-22T23:29:52Z" uid="20587" user="balrog-kun" changeset="3192033">
    <nd ref="442316013"/>
    <nd ref="442315880"/>
    <tag k="highway" v="residential"/>
    <tag k="name" v="Szczygła"/>
    <tag k="source" v="UMP-PL, ./UMP-Warszawa/src/JOZEFOW.ulice.txt"/>
    <tag k="surface" v="unpaved"/>
  </way>
  <way id="37714895" version="3" timestamp="2012-01-19T21:31:05Z" uid="467703" user="Zbigniew Czernik" changeset="10441448">
    <nd ref="442316013"/>
    <nd ref="442315880"/>
    <tag k="highway" v="track"/>
    <tag k="name" v="Szczygła"/>
    <tag k="source" v="UMP-PL, ./UMP-Warszawa/src/JOZEFOW.ulice.txt"/>
    <tag k="surface" v="unpaved"/>
    <tag k="tracktype" v="grade1"/>
  </way>
  <way id="37714897" version="2" timestamp="2009-11-22T23:29:51Z" uid="20587" user="balrog-kun" changeset="3192033">
    <nd ref="442316910"/>
    <nd ref="442317950"/>
    <nd ref="442317328"/>
    <nd ref="442315957"/>
    <tag k="highway" v="residential"/>
    <tag k="name" v="Żurawia"/>
    <tag k="source" v="UMP-PL, ./UMP-Warszawa/src/JOZEFOW.ulice.txt"/>
    <tag k="surface" v="unpaved"/>
  </way>
  <way id="37714897" version="3" timestamp="2012-01-19T21:32:03Z" uid="467703" user="Zbigniew Czernik" changeset="10441448">
    <nd ref="442316910"/>
    <nd ref="442317950"/>
    <nd ref="442317328"/>
    <nd ref="442315957"/>
    <tag k="highway" v="track"/>
    <tag k="name" v="Żurawia"/>
    <tag k="source" v="UMP-PL, ./UMP-Warszawa/src/JOZEFOW.ulice.txt"/>
    <tag k="surface" v="unpaved"/>
    <tag k="tracktype" v="grade1"/>
  </way>
  <way id="37714898" version="2" timestamp="2009-11-22T23:29:49Z" uid="20587" user="balrog-kun" changeset="3192033">
    <nd ref="442317402"/>
    <nd ref="442317358"/>
    <nd ref="442317203"/>
    <nd ref="305437436"/>
    <nd ref="442317389"/>
    <nd ref="442317359"/>
    <tag k="highway" v="residential"/>
    <tag k="name" v="Zielona"/>
    <tag k="source" v="UMP-PL, ./UMP-Warszawa/src/JOZEFOW.ulice.txt"/>
    <tag k="surface" v="unpaved"/>
  </way>
  <way id="37714898" version="3" timestamp="2012-01-19T21:31:40Z" uid="467703" user="Zbigniew Czernik" changeset="10441448">
    <nd ref="442317402"/>
    <nd ref="442317358"/>
    <nd ref="442317203"/>
    <nd ref="305437436"/>
    <nd ref="442317389"/>
    <nd ref="442317359"/>
    <tag k="highway" v="track"/>
    <tag k="name" v="Zielona"/>
    <tag k="source" v="UMP-PL, ./UMP-Warszawa/src/JOZEFOW.ulice.txt"/>
    <tag k="surface" v="unpaved"/>
    <tag k="tracktype" v="grade1"/>
  </way>
  <way id="37714900" version="2" timestamp="2009-11-22T23:29:51Z" uid="20587" user="balrog-kun" changeset="3192033">
    <nd ref="442315889"/>
    <nd ref="442316858"/>
    <nd ref="442316677"/>
    <nd ref="442315636"/>
    <tag k="highway" v="residential"/>
    <tag k="name" v="Adama Mickiewicza"/>
    <tag k="source" v="UMP-PL, ./UMP-Warszawa/src/JOZEFOW.ulice.txt"/>
    <tag k="surface" v="unpaved"/>
  </way>
  <way id="37714900" version="3" timestamp="2012-01-19T21:28:52Z" uid="467703" user="Zbigniew Czernik" changeset="10441448">
    <nd ref="442315889"/>
    <nd ref="442316858"/>
    <nd ref="442316677"/>
    <nd ref="442315636"/>
    <tag k="highway" v="track"/>
    <tag k="name" v="Adama Mickiewicza"/>
    <tag k="source" v="UMP-PL, ./UMP-Warszawa/src/JOZEFOW.ulice.txt"/>
    <tag k="surface" v="unpaved"/>
    <tag k="tracktype" v="grade1"/>
  </way>
  <way id="37714901" version="2" timestamp="2009-11-22T23:29:52Z" uid="20587" user="balrog-kun" changeset="3192033">
    <nd ref="442315882"/>
    <nd ref="442316014"/>
    <tag k="highway" v="residential"/>
    <tag k="name" v="Słowicza"/>
    <tag k="source" v="UMP-PL, ./UMP-Warszawa/src/JOZEFOW.ulice.txt"/>
    <tag k="surface" v="unpaved"/>
  </way>
  <way id="37714901" version="3" timestamp="2012-01-19T21:31:09Z" uid="467703" user="Zbigniew Czernik" changeset="10441448">
    <nd ref="442315882"/>
    <nd ref="442316014"/>
    <tag k="highway" v="track"/>
    <tag k="name" v="Słowicza"/>
    <tag k="source" v="UMP-PL, ./UMP-Warszawa/src/JOZEFOW.ulice.txt"/>
    <tag k="surface" v="unpaved"/>
    <tag k="tracktype" v="grade1"/>
  </way>
  <way id="37714903" version="2" timestamp="2009-11-22T23:29:55Z" uid="20587" user="balrog-kun" changeset="3192033">
    <nd ref="442316383"/>
    <nd ref="442316639"/>
    <nd ref="442316031"/>
    <tag k="highway" v="residential"/>
    <tag k="name" v="aleja Szucha"/>
    <tag k="source" v="UMP-PL, ./UMP-Warszawa/src/JOZEFOW.ulice.txt"/>
    <tag k="surface" v="unpaved"/>
  </way>
  <way id="37714903" version="3" timestamp="2011-04-03T17:36:23Z" uid="91056" user="Yarl" changeset="7756848">
    <nd ref="442316383"/>
    <nd ref="1231159343"/>
    <nd ref="442316639"/>
    <nd ref="442316031"/>
    <tag k="highway" v="residential"/>
    <tag k="name" v="aleja Szucha"/>
    <tag k="source" v="UMP-PL, ./UMP-Warszawa/src/JOZEFOW.ulice.txt"/>
    <tag k="surface" v="unpaved"/>
  </way>
  <way id="37714903" version="4" timestamp="2012-01-19T21:31:41Z" uid="467703" user="Zbigniew Czernik" changeset="10441448">
    <nd ref="442316383"/>
    <nd ref="1231159343"/>
    <nd ref="442316639"/>
    <nd ref="442316031"/>
    <tag k="highway" v="track"/>
    <tag k="name" v="aleja Szucha"/>
    <tag k="source" v="UMP-PL, ./UMP-Warszawa/src/JOZEFOW.ulice.txt"/>
    <tag k="surface" v="unpaved"/>
    <tag k="tracktype" v="grade1"/>
  </way>
  <way id="37714905" version="2" timestamp="2009-11-22T23:29:52Z" uid="20587" user="balrog-kun" changeset="3192033">
    <nd ref="442315917"/>
    <nd ref="442316897"/>
    <nd ref="442316889"/>
    <nd ref="442316901"/>
    <tag k="highway" v="residential"/>
    <tag k="name" v="Pstrągowa"/>
    <tag k="source" v="UMP-PL, ./UMP-Warszawa/src/JOZEFOW.ulice.txt"/>
    <tag k="surface" v="unpaved"/>
  </way>
  <way id="37714905" version="3" timestamp="2011-04-03T17:36:26Z" uid="91056" user="Yarl" changeset="7756848">
    <nd ref="442315917"/>
    <nd ref="442316897"/>
    <nd ref="442316889"/>
    <nd ref="1231159118"/>
    <nd ref="442316901"/>
    <tag k="highway" v="residential"/>
    <tag k="name" v="Pstrągowa"/>
    <tag k="source" v="UMP-PL, ./UMP-Warszawa/src/JOZEFOW.ulice.txt"/>
    <tag k="surface" v="unpaved"/>
  </way>
  <way id="37714905" version="4" timestamp="2012-01-19T21:30:50Z" uid="467703" user="Zbigniew Czernik" changeset="10441448">
    <nd ref="442315917"/>
    <nd ref="442316897"/>
    <nd ref="442316889"/>
    <nd ref="1231159118"/>
    <nd ref="442316901"/>
    <tag k="highway" v="track"/>
    <tag k="name" v="Pstrągowa"/>
    <tag k="source" v="UMP-PL, ./UMP-Warszawa/src/JOZEFOW.ulice.txt"/>
    <tag k="surface" v="unpaved"/>
    <tag k="tracktype" v="grade1"/>
  </way>
  <way id="37714915" version="2" timestamp="2009-11-22T23:29:49Z" uid="20587" user="balrog-kun" changeset="3192033">
    <nd ref="442317132"/>
    <nd ref="305435742"/>
    <nd ref="442316533"/>
    <nd ref="442317133"/>
    <nd ref="442317120"/>
    <nd ref="442317123"/>
    <nd ref="442317126"/>
    <tag k="highway" v="residential"/>
    <tag k="name" v="Mała"/>
    <tag k="source" v="UMP-PL, ./UMP-Warszawa/src/JOZEFOW.ulice.txt"/>
    <tag k="surface" v="unpaved"/>
  </way>
  <way id="37714915" version="3" timestamp="2012-01-19T21:30:28Z" uid="467703" user="Zbigniew Czernik" changeset="10441448">
    <nd ref="442317132"/>
    <nd ref="305435742"/>
    <nd ref="442316533"/>
    <nd ref="442317133"/>
    <nd ref="442317120"/>
    <nd ref="442317123"/>
    <nd ref="442317126"/>
    <tag k="highway" v="residential"/>
    <tag k="name" v="Mała"/>
    <tag k="source" v="UMP-PL, ./UMP-Warszawa/src/JOZEFOW.ulice.txt"/>
    <tag k="surface" v="unpaved"/>
  </way>
  <way id="37714924" version="2" timestamp="2009-11-01T12:20:15Z" uid="20587" user="balrog-kun" changeset="3005634">
    <nd ref="274811535"/>
    <nd ref="442317949"/>
    <nd ref="442317948"/>
    <nd ref="442318021"/>
    <tag k="highway" v="track"/>
    <tag k="source" v="UMP-PL, ./UMP-Warszawa/src/JOZEFOW.ulice.txt"/>
  </way>
  <way id="37714925" version="2" timestamp="2009-11-22T23:29:57Z" uid="20587" user="balrog-kun" changeset="3192033">
    <nd ref="442316174"/>
    <nd ref="442316157"/>
    <tag k="highway" v="residential"/>
    <tag k="name" v="Kwiatowa"/>
    <tag k="source" v="UMP-PL, ./UMP-Warszawa/src/JOZEFOW.ulice.txt"/>
    <tag k="surface" v="unpaved"/>
  </way>
  <way id="37714925" version="3" timestamp="2012-01-19T21:30:14Z" uid="467703" user="Zbigniew Czernik" changeset="10441448">
    <nd ref="442316174"/>
    <nd ref="442316157"/>
    <tag k="highway" v="track"/>
    <tag k="name" v="Kwiatowa"/>
    <tag k="source" v="UMP-PL, ./UMP-Warszawa/src/JOZEFOW.ulice.txt"/>
    <tag k="surface" v="unpaved"/>
    <tag k="tracktype" v="grade1"/>
  </way>
  <way id="37714928" version="2" timestamp="2009-11-22T23:29:53Z" uid="20587" user="balrog-kun" changeset="3192033">
    <nd ref="442316879"/>
    <nd ref="442316889"/>
    <nd ref="442316894"/>
    <tag k="highway" v="residential"/>
    <tag k="name" v="Nadświdrzańska"/>
    <tag k="source" v="UMP-PL, ./UMP-Warszawa/src/JOZEFOW.ulice.txt"/>
    <tag k="surface" v="unpaved"/>
  </way>
  <way id="37714928" version="3" timestamp="2012-01-19T21:30:31Z" uid="467703" user="Zbigniew Czernik" changeset="10441448">
    <nd ref="442316879"/>
    <nd ref="442316889"/>
    <nd ref="442316894"/>
    <tag k="highway" v="track"/>
    <tag k="name" v="Nadświdrzańska"/>
    <tag k="source" v="UMP-PL, ./UMP-Warszawa/src/JOZEFOW.ulice.txt"/>
    <tag k="surface" v="unpaved"/>
    <tag k="tracktype" v="grade1"/>
  </way>
  <way id="37714931" version="2" timestamp="2009-11-22T23:29:52Z" uid="20587" user="balrog-kun" changeset="3192033">
    <nd ref="442316964"/>
    <nd ref="442315969"/>
    <nd ref="442316865"/>
    <tag k="highway" v="residential"/>
    <tag k="name" v="Akacjowa"/>
    <tag k="source" v="UMP-PL, ./UMP-Warszawa/src/JOZEFOW.ulice.txt"/>
    <tag k="surface" v="unpaved"/>
  </way>
  <way id="37714931" version="3" timestamp="2012-01-19T21:28:53Z" uid="467703" user="Zbigniew Czernik" changeset="10441448">
    <nd ref="442316964"/>
    <nd ref="442315969"/>
    <nd ref="442316865"/>
    <tag k="highway" v="track"/>
    <tag k="name" v="Akacjowa"/>
    <tag k="source" v="UMP-PL, ./UMP-Warszawa/src/JOZEFOW.ulice.txt"/>
    <tag k="surface" v="unpaved"/>
    <tag k="tracktype" v="grade1"/>
  </way>
  <way id="37714934" version="2" timestamp="2009-11-22T23:29:52Z" uid="20587" user="balrog-kun" changeset="3192033">
    <nd ref="442316986"/>
    <nd ref="442316015"/>
    <tag k="highway" v="residential"/>
    <tag k="name" v="Jeżynowa"/>
    <tag k="source" v="UMP-PL, ./UMP-Warszawa/src/JOZEFOW.ulice.txt"/>
    <tag k="surface" v="unpaved"/>
  </way>
  <way id="37714934" version="3" timestamp="2012-01-19T21:29:54Z" uid="467703" user="Zbigniew Czernik" changeset="10441448">
    <nd ref="442316986"/>
    <nd ref="442316015"/>
    <tag k="highway" v="track"/>
    <tag k="name" v="Jeżynowa"/>
    <tag k="source" v="UMP-PL, ./UMP-Warszawa/src/JOZEFOW.ulice.txt"/>
    <tag k="surface" v="unpaved"/>
    <tag k="tracktype" v="grade1"/>
  </way>
  <way id="37714935" version="2" timestamp="2009-11-22T23:29:49Z" uid="20587" user="balrog-kun" changeset="3192033">
    <nd ref="442317083"/>
    <nd ref="442317090"/>
    <tag k="highway" v="residential"/>
    <tag k="name" v="Teatralna"/>
    <tag k="source" v="UMP-PL, ./UMP-Warszawa/src/JOZEFOW.ulice.txt"/>
    <tag k="surface" v="unpaved"/>
  </way>
  <way id="37714935" version="3" timestamp="2012-01-19T21:31:12Z" uid="467703" user="Zbigniew Czernik" changeset="10441448">
    <nd ref="442317083"/>
    <nd ref="442317090"/>
    <tag k="highway" v="track"/>
    <tag k="name" v="Teatralna"/>
    <tag k="source" v="UMP-PL, ./UMP-Warszawa/src/JOZEFOW.ulice.txt"/>
    <tag k="surface" v="unpaved"/>
    <tag k="tracktype" v="grade1"/>
  </way>
  <way id="37714937" version="2" timestamp="2009-11-22T23:29:52Z" uid="20587" user="balrog-kun" changeset="3192033">
    <nd ref="442316684"/>
    <nd ref="442315605"/>
    <tag k="highway" v="residential"/>
    <tag k="name" v="Jesionowa"/>
    <tag k="source" v="UMP-PL, ./UMP-Warszawa/src/JOZEFOW.ulice.txt"/>
    <tag k="surface" v="unpaved"/>
  </way>
  <way id="37714937" version="3" timestamp="2012-01-19T21:29:53Z" uid="467703" user="Zbigniew Czernik" changeset="10441448">
    <nd ref="442316684"/>
    <nd ref="442315605"/>
    <tag k="highway" v="track"/>
    <tag k="name" v="Jesionowa"/>
    <tag k="source" v="UMP-PL, ./UMP-Warszawa/src/JOZEFOW.ulice.txt"/>
    <tag k="surface" v="unpaved"/>
    <tag k="tracktype" v="grade1"/>
  </way>
  <way id="37714938" version="2" timestamp="2009-11-01T12:20:17Z" uid="20587" user="balrog-kun" changeset="3005634">
    <nd ref="442315493"/>
    <nd ref="442316444"/>
    <nd ref="442316440"/>
    <nd ref="442315578"/>
    <nd ref="442316184"/>
    <nd ref="442316353"/>
    <nd ref="442316320"/>
    <nd ref="442316455"/>
    <nd ref="442316266"/>
    <nd ref="442316451"/>
    <tag k="highway" v="residential"/>
    <tag k="name" v="Rejtana"/>
    <tag k="source" v="UMP-PL, ./UMP-Warszawa/src/JOZEFOW.ulice.txt"/>
    <tag k="surface" v="unpaved"/>
  </way>
  <way id="37714938" version="3" timestamp="2011-04-03T17:36:42Z" uid="91056" user="Yarl" changeset="7756848">
    <nd ref="442315493"/>
    <nd ref="442316444"/>
    <nd ref="442316440"/>
    <nd ref="442315578"/>
    <nd ref="442316184"/>
    <nd ref="442316353"/>
    <tag k="highway" v="track"/>
    <tag k="name" v="Tadeusza Rejtana"/>
  </way>
  <way id="37714940" version="2" timestamp="2009-11-22T23:29:49Z" uid="20587" user="balrog-kun" changeset="3192033">
    <nd ref="305436597"/>
    <nd ref="442317120"/>
    <nd ref="442317075"/>
    <nd ref="442317187"/>
    <nd ref="442317184"/>
    <nd ref="442317180"/>
    <tag k="highway" v="residential"/>
    <tag k="name" v="Wawerska"/>
    <tag k="source" v="UMP-PL, ./UMP-Warszawa/src/JOZEFOW.ulice.txt"/>
    <tag k="surface" v="unpaved"/>
  </way>
  <way id="37714940" version="3" timestamp="2011-04-02T20:42:38Z" uid="91056" user="Yarl" changeset="7747695">
    <nd ref="305436597"/>
    <nd ref="1229766629"/>
    <nd ref="442317120"/>
    <nd ref="1229766730"/>
    <nd ref="442317075"/>
    <nd ref="442317187"/>
    <nd ref="442317184"/>
    <nd ref="442317180"/>
    <tag k="highway" v="residential"/>
    <tag k="name" v="Wawerska"/>
    <tag k="source" v="UMP-PL, ./UMP-Warszawa/src/JOZEFOW.ulice.txt"/>
    <tag k="surface" v="unpaved"/>
  </way>
  <way id="37714940" version="4" timestamp="2012-01-19T21:31:19Z" uid="467703" user="Zbigniew Czernik" changeset="10441448">
    <nd ref="305436597"/>
    <nd ref="1229766629"/>
    <nd ref="442317120"/>
    <nd ref="1229766730"/>
    <nd ref="442317075"/>
    <nd ref="442317187"/>
    <nd ref="442317184"/>
    <nd ref="442317180"/>
    <tag k="highway" v="residential"/>
    <tag k="name" v="Wawerska"/>
    <tag k="source" v="UMP-PL, ./UMP-Warszawa/src/JOZEFOW.ulice.txt"/>
    <tag k="surface" v="unpaved"/>
  </way>
  <way id="37714942" version="2" timestamp="2009-11-22T23:29:55Z" uid="20587" user="balrog-kun" changeset="3192033">
    <nd ref="442316061"/>
    <nd ref="442316128"/>
    <nd ref="442316124"/>
    <tag k="highway" v="residential"/>
    <tag k="name" v="Kasprowicza"/>
    <tag k="source" v="UMP-PL, ./UMP-Warszawa/src/JOZEFOW.ulice.txt"/>
    <tag k="surface" v="unpaved"/>
  </way>
  <way id="37714942" version="3" timestamp="2011-02-06T10:28:58Z" uid="98542" user="wajak" changeset="7201661">
    <nd ref="442316061"/>
    <nd ref="442316128"/>
    <nd ref="442316124"/>
    <tag k="highway" v="residential"/>
    <tag k="name" v="Kasprowicza"/>
    <tag k="source" v="UMP-PL, ./UMP-Warszawa/src/JOZEFOW.ulice.txt"/>
    <tag k="surface" v="unpaved"/>
  </way>
  <way id="37714942" version="4" timestamp="2012-01-19T21:29:59Z" uid="467703" user="Zbigniew Czernik" changeset="10441448">
    <nd ref="442316061"/>
    <nd ref="442316128"/>
    <nd ref="442316124"/>
    <tag k="highway" v="track"/>
    <tag k="name" v="Kasprowicza"/>
    <tag k="source" v="UMP-PL, ./UMP-Warszawa/src/JOZEFOW.ulice.txt"/>
    <tag k="surface" v="unpaved"/>
    <tag k="tracktype" v="grade1"/>
  </way>
  <way id="37714943" version="2" timestamp="2009-11-01T12:20:15Z" uid="20587" user="balrog-kun" changeset="3005634">
    <nd ref="442316251"/>
    <nd ref="442316436"/>
    <nd ref="442316285"/>
    <nd ref="442316431"/>
    <nd ref="442316372"/>
    <nd ref="442316412"/>
    <nd ref="442316406"/>
    <nd ref="442316420"/>
    <nd ref="442316416"/>
    <nd ref="442316393"/>
    <nd ref="442316451"/>
    <tag k="highway" v="residential"/>
    <tag k="name" v="Złotej Jesieni"/>
    <tag k="source" v="UMP-PL, ./UMP-Warszawa/src/JOZEFOW.ulice.txt"/>
    <tag k="surface" v="unpaved"/>
  </way>
  <way id="37714943" version="3" timestamp="2011-04-03T17:36:31Z" uid="91056" user="Yarl" changeset="7756848">
    <nd ref="442316251"/>
    <nd ref="442316436"/>
    <nd ref="442316285"/>
    <nd ref="442316431"/>
    <nd ref="442316372"/>
    <nd ref="442316412"/>
    <nd ref="442316406"/>
    <nd ref="442316420"/>
    <nd ref="442316416"/>
    <nd ref="442316393"/>
    <nd ref="442316451"/>
    <tag k="highway" v="residential"/>
    <tag k="name" v="Złotej Jesieni"/>
    <tag k="source" v="UMP-PL, ./UMP-Warszawa/src/JOZEFOW.ulice.txt"/>
    <tag k="surface" v="unpaved"/>
  </way>
  <way id="37714943" version="4" timestamp="2012-01-19T21:31:41Z" uid="467703" user="Zbigniew Czernik" changeset="10441448">
    <nd ref="442316251"/>
    <nd ref="442316436"/>
    <nd ref="442316285"/>
    <nd ref="442316431"/>
    <nd ref="442316372"/>
    <nd ref="442316412"/>
    <nd ref="442316406"/>
    <nd ref="442316420"/>
    <nd ref="442316416"/>
    <nd ref="442316393"/>
    <nd ref="442316451"/>
    <tag k="highway" v="track"/>
    <tag k="name" v="Złotej Jesieni"/>
    <tag k="source" v="UMP-PL, ./UMP-Warszawa/src/JOZEFOW.ulice.txt"/>
    <tag k="surface" v="unpaved"/>
    <tag k="tracktype" v="grade1"/>
  </way>
  <way id="37714946" version="2" timestamp="2009-11-22T23:29:55Z" uid="20587" user="balrog-kun" changeset="3192033">
    <nd ref="442316099"/>
    <nd ref="442317020"/>
    <tag k="highway" v="residential"/>
    <tag k="name" v="Cisowa"/>
    <tag k="source" v="UMP-PL, ./UMP-Warszawa/src/JOZEFOW.ulice.txt"/>
    <tag k="surface" v="unpaved"/>
  </way>
  <way id="37714946" version="3" timestamp="2012-01-19T21:29:12Z" uid="467703" user="Zbigniew Czernik" changeset="10441448">
    <nd ref="442316099"/>
    <nd ref="442317020"/>
    <tag k="highway" v="track"/>
    <tag k="name" v="Cisowa"/>
    <tag k="source" v="UMP-PL, ./UMP-Warszawa/src/JOZEFOW.ulice.txt"/>
    <tag k="surface" v="unpaved"/>
    <tag k="tracktype" v="grade1"/>
  </way>
  <way id="37714947" version="2" timestamp="2009-11-22T23:29:49Z" uid="20587" user="balrog-kun" changeset="3192033">
    <nd ref="442317096"/>
    <nd ref="442317198"/>
    <nd ref="442317184"/>
    <nd ref="442317143"/>
    <nd ref="442316560"/>
    <tag k="highway" v="residential"/>
    <tag k="name" v="Wąska"/>
    <tag k="source" v="UMP-PL, ./UMP-Warszawa/src/JOZEFOW.ulice.txt"/>
    <tag k="surface" v="unpaved"/>
  </way>
  <way id="37714947" version="3" timestamp="2012-01-19T21:31:36Z" uid="467703" user="Zbigniew Czernik" changeset="10441448">
    <nd ref="442317096"/>
    <nd ref="442317198"/>
    <nd ref="442317184"/>
    <nd ref="442317143"/>
    <nd ref="442316560"/>
    <tag k="highway" v="track"/>
    <tag k="name" v="Wąska"/>
    <tag k="source" v="UMP-PL, ./UMP-Warszawa/src/JOZEFOW.ulice.txt"/>
    <tag k="surface" v="unpaved"/>
    <tag k="tracktype" v="grade1"/>
  </way>
  <way id="37714948" version="2" timestamp="2009-11-22T23:29:49Z" uid="20587" user="balrog-kun" changeset="3192033">
    <nd ref="442317561"/>
    <nd ref="442317464"/>
    <tag k="highway" v="residential"/>
    <tag k="name" v="Błękitna"/>
    <tag k="source" v="UMP-PL, ./UMP-Warszawa/src/JOZEFOW.ulice.txt"/>
    <tag k="surface" v="unpaved"/>
  </way>
  <way id="37714948" version="3" timestamp="2011-04-02T18:04:34Z" uid="91056" user="Yarl" changeset="7746517">
    <nd ref="442317561"/>
    <nd ref="442317464"/>
    <tag k="highway" v="residential"/>
    <tag k="name" v="Błękitna"/>
    <tag k="surface" v="unpaved"/>
  </way>
  <way id="37714948" version="4" timestamp="2012-01-19T21:29:09Z" uid="467703" user="Zbigniew Czernik" changeset="10441448">
    <nd ref="442317561"/>
    <nd ref="442317464"/>
    <tag k="highway" v="track"/>
    <tag k="name" v="Błękitna"/>
    <tag k="surface" v="unpaved"/>
    <tag k="tracktype" v="grade1"/>
  </way>
  <way id="37714950" version="2" timestamp="2009-11-22T23:29:55Z" uid="20587" user="balrog-kun" changeset="3192033">
    <nd ref="442315753"/>
    <nd ref="442316006"/>
    <tag k="highway" v="residential"/>
    <tag k="name" v="Lipowa"/>
    <tag k="source" v="UMP-PL, ./UMP-Warszawa/src/JOZEFOW.ulice.txt"/>
    <tag k="surface" v="unpaved"/>
  </way>
  <way id="37714950" version="3" timestamp="2012-01-19T21:30:18Z" uid="467703" user="Zbigniew Czernik" changeset="10441448">
    <nd ref="442315753"/>
    <nd ref="442316006"/>
    <tag k="highway" v="track"/>
    <tag k="name" v="Lipowa"/>
    <tag k="source" v="UMP-PL, ./UMP-Warszawa/src/JOZEFOW.ulice.txt"/>
    <tag k="surface" v="unpaved"/>
    <tag k="tracktype" v="grade1"/>
  </way>
  <way id="37714952" version="2" timestamp="2009-11-22T23:29:51Z" uid="20587" user="balrog-kun" changeset="3192033">
    <nd ref="442317267"/>
    <nd ref="442317527"/>
    <tag k="highway" v="residential"/>
    <tag k="name" v="Krucza"/>
    <tag k="source" v="UMP-PL, ./UMP-Warszawa/src/JOZEFOW.ulice.txt"/>
    <tag k="surface" v="unpaved"/>
  </way>
  <way id="37714952" version="3" timestamp="2012-01-19T21:30:09Z" uid="467703" user="Zbigniew Czernik" changeset="10441448">
    <nd ref="442317267"/>
    <nd ref="442317527"/>
    <tag k="highway" v="track"/>
    <tag k="name" v="Krucza"/>
    <tag k="source" v="UMP-PL, ./UMP-Warszawa/src/JOZEFOW.ulice.txt"/>
    <tag k="surface" v="unpaved"/>
    <tag k="tracktype" v="grade1"/>
  </way>
  <way id="37714954" version="2" timestamp="2009-11-22T23:29:48Z" uid="20587" user="balrog-kun" changeset="3192033">
    <nd ref="442316065"/>
    <nd ref="442316116"/>
    <nd ref="442316200"/>
    <nd ref="442316177"/>
    <nd ref="442316246"/>
    <nd ref="442316249"/>
    <nd ref="442316251"/>
    <tag k="highway" v="residential"/>
    <tag k="name" v="Konopnickiej"/>
    <tag k="source" v="UMP-PL, ./UMP-Warszawa/src/JOZEFOW.ulice.txt"/>
    <tag k="surface" v="unpaved"/>
  </way>
  <way id="37714954" version="3" timestamp="2012-01-19T21:30:02Z" uid="467703" user="Zbigniew Czernik" changeset="10441448">
    <nd ref="442316065"/>
    <nd ref="442316116"/>
    <nd ref="442316200"/>
    <nd ref="442316177"/>
    <nd ref="442316246"/>
    <nd ref="442316249"/>
    <nd ref="442316251"/>
    <tag k="highway" v="track"/>
    <tag k="name" v="Konopnickiej"/>
    <tag k="source" v="UMP-PL, ./UMP-Warszawa/src/JOZEFOW.ulice.txt"/>
    <tag k="surface" v="unpaved"/>
    <tag k="tracktype" v="grade1"/>
  </way>
  <way id="37714964" version="2" timestamp="2009-11-22T23:29:54Z" uid="20587" user="balrog-kun" changeset="3192033">
    <nd ref="442315574"/>
    <nd ref="442316198"/>
    <nd ref="442316356"/>
    <tag k="highway" v="residential"/>
    <tag k="name" v="Prosta"/>
    <tag k="source" v="UMP-PL, ./UMP-Warszawa/src/JOZEFOW.ulice.txt"/>
    <tag k="surface" v="unpaved"/>
  </way>
  <way id="37714964" version="3" timestamp="2011-04-03T17:36:15Z" uid="91056" user="Yarl" changeset="7756848">
    <nd ref="442315574"/>
    <nd ref="442316198"/>
    <nd ref="442316356"/>
    <tag k="highway" v="track"/>
    <tag k="name" v="Prosta"/>
  </way>
  <way id="37714965" version="2" timestamp="2009-11-22T23:29:56Z" uid="20587" user="balrog-kun" changeset="3192033">
    <nd ref="442316999"/>
    <nd ref="442317047"/>
    <tag k="highway" v="residential"/>
    <tag k="name" v="Sikorskiego"/>
    <tag k="source" v="UMP-PL, ./UMP-Warszawa/src/JOZEFOW.ulice.txt"/>
    <tag k="surface" v="unpaved"/>
  </way>
  <way id="37714965" version="3" timestamp="2012-01-19T21:30:57Z" uid="467703" user="Zbigniew Czernik" changeset="10441448">
    <nd ref="442316999"/>
    <nd ref="442317047"/>
    <tag k="highway" v="track"/>
    <tag k="name" v="Sikorskiego"/>
    <tag k="source" v="UMP-PL, ./UMP-Warszawa/src/JOZEFOW.ulice.txt"/>
    <tag k="surface" v="unpaved"/>
    <tag k="tracktype" v="grade1"/>
  </way>
  <way id="37714969" version="2" timestamp="2009-11-22T23:29:53Z" uid="20587" user="balrog-kun" changeset="3192033">
    <nd ref="442316913"/>
    <nd ref="442316918"/>
    <tag k="highway" v="residential"/>
    <tag k="name" v="Żabia"/>
    <tag k="source" v="UMP-PL, ./UMP-Warszawa/src/JOZEFOW.ulice.txt"/>
    <tag k="surface" v="unpaved"/>
  </way>
  <way id="37714969" version="3" timestamp="2012-01-19T21:32:01Z" uid="467703" user="Zbigniew Czernik" changeset="10441448">
    <nd ref="442316913"/>
    <nd ref="442316918"/>
    <tag k="highway" v="track"/>
    <tag k="name" v="Żabia"/>
    <tag k="source" v="UMP-PL, ./UMP-Warszawa/src/JOZEFOW.ulice.txt"/>
    <tag k="surface" v="unpaved"/>
    <tag k="tracktype" v="grade1"/>
  </way>
  <way id="37714971" version="2" timestamp="2009-11-22T23:29:57Z" uid="20587" user="balrog-kun" changeset="3192033">
    <nd ref="442316312"/>
    <nd ref="442316229"/>
    <tag k="highway" v="residential"/>
    <tag k="name" v="Zapolskiej"/>
    <tag k="source" v="UMP-PL, ./UMP-Warszawa/src/JOZEFOW.ulice.txt"/>
    <tag k="surface" v="unpaved"/>
  </way>
  <way id="37714971" version="3" timestamp="2012-01-19T21:31:39Z" uid="467703" user="Zbigniew Czernik" changeset="10441448">
    <nd ref="442316312"/>
    <nd ref="442316229"/>
    <tag k="highway" v="track"/>
    <tag k="name" v="Zapolskiej"/>
    <tag k="source" v="UMP-PL, ./UMP-Warszawa/src/JOZEFOW.ulice.txt"/>
    <tag k="surface" v="unpaved"/>
    <tag k="tracktype" v="grade1"/>
  </way>
  <way id="37714972" version="2" timestamp="2009-11-22T23:29:54Z" uid="20587" user="balrog-kun" changeset="3192033">
    <nd ref="442316383"/>
    <nd ref="442315569"/>
    <nd ref="442316776"/>
    <nd ref="442316755"/>
    <nd ref="442315498"/>
    <tag k="highway" v="residential"/>
    <tag k="name" v="Główna"/>
    <tag k="source" v="UMP-PL, ./UMP-Warszawa/src/JOZEFOW.ulice.txt"/>
    <tag k="surface" v="unpaved"/>
  </way>
  <way id="37714972" version="3" timestamp="2012-01-19T21:29:43Z" uid="467703" user="Zbigniew Czernik" changeset="10441448">
    <nd ref="442316383"/>
    <nd ref="442315569"/>
    <nd ref="442316776"/>
    <nd ref="442316755"/>
    <nd ref="442315498"/>
    <tag k="highway" v="track"/>
    <tag k="name" v="Główna"/>
    <tag k="source" v="UMP-PL, ./UMP-Warszawa/src/JOZEFOW.ulice.txt"/>
    <tag k="surface" v="unpaved"/>
    <tag k="tracktype" v="grade1"/>
  </way>
  <way id="37714974" version="2" timestamp="2009-11-22T23:29:53Z" uid="20587" user="balrog-kun" changeset="3192033">
    <nd ref="442315984"/>
    <nd ref="442316699"/>
    <nd ref="442316869"/>
    <tag k="highway" v="residential"/>
    <tag k="name" v="Jesiotrowa"/>
    <tag k="source" v="UMP-PL, ./UMP-Warszawa/src/JOZEFOW.ulice.txt"/>
    <tag k="surface" v="unpaved"/>
  </way>
  <way id="37714974" version="3" timestamp="2012-01-19T21:29:53Z" uid="467703" user="Zbigniew Czernik" changeset="10441448">
    <nd ref="442315984"/>
    <nd ref="442316699"/>
    <nd ref="442316869"/>
    <tag k="highway" v="track"/>
    <tag k="name" v="Jesiotrowa"/>
    <tag k="source" v="UMP-PL, ./UMP-Warszawa/src/JOZEFOW.ulice.txt"/>
    <tag k="surface" v="unpaved"/>
    <tag k="tracktype" v="grade1"/>
  </way>
  <way id="37714975" version="2" timestamp="2009-11-22T23:29:54Z" uid="20587" user="balrog-kun" changeset="3192033">
    <nd ref="442316131"/>
    <nd ref="442316130"/>
    <nd ref="442316188"/>
    <nd ref="442316184"/>
    <nd ref="442316198"/>
    <nd ref="442315483"/>
    <nd ref="442315533"/>
    <nd ref="442316194"/>
    <tag k="highway" v="residential"/>
    <tag k="name" v="Dobra"/>
    <tag k="source" v="UMP-PL, ./UMP-Warszawa/src/JOZEFOW.ulice.txt"/>
    <tag k="surface" v="unpaved"/>
  </way>
  <way id="37714975" version="3" timestamp="2011-04-03T17:36:24Z" uid="91056" user="Yarl" changeset="7756848">
    <nd ref="442316131"/>
    <nd ref="442316130"/>
    <nd ref="442316188"/>
    <nd ref="1231159138"/>
    <nd ref="442316184"/>
    <tag k="highway" v="residential"/>
    <tag k="name" v="Dobra"/>
    <tag k="source" v="UMP-PL, ./UMP-Warszawa/src/JOZEFOW.ulice.txt"/>
    <tag k="surface" v="unpaved"/>
  </way>
  <way id="37714975" version="4" timestamp="2012-01-19T21:29:19Z" uid="467703" user="Zbigniew Czernik" changeset="10441448">
    <nd ref="442316131"/>
    <nd ref="442316130"/>
    <nd ref="442316188"/>
    <nd ref="1231159138"/>
    <nd ref="442316184"/>
    <tag k="highway" v="track"/>
    <tag k="name" v="Dobra"/>
    <tag k="source" v="UMP-PL, ./UMP-Warszawa/src/JOZEFOW.ulice.txt"/>
    <tag k="surface" v="unpaved"/>
    <tag k="tracktype" v="grade1"/>
  </way>
  <way id="37714976" version="2" timestamp="2009-11-01T12:20:18Z" uid="20587" user="balrog-kun" changeset="3005634">
    <nd ref="442316170"/>
    <nd ref="442316181"/>
    <tag k="highway" v="residential"/>
    <tag k="name" v="Kwiatowa"/>
    <tag k="source" v="UMP-PL, ./UMP-Warszawa/src/JOZEFOW.ulice.txt"/>
    <tag k="surface" v="unpaved"/>
  </way>
  <way id="37714976" version="3" timestamp="2011-04-03T17:36:26Z" uid="91056" user="Yarl" changeset="7756848">
    <nd ref="442316170"/>
    <nd ref="1231159095"/>
    <nd ref="442316181"/>
    <tag k="highway" v="residential"/>
    <tag k="name" v="Kwiatowa"/>
    <tag k="source" v="UMP-PL, ./UMP-Warszawa/src/JOZEFOW.ulice.txt"/>
    <tag k="surface" v="unpaved"/>
  </way>
  <way id="37714979" version="2" timestamp="2009-11-22T23:29:51Z" uid="20587" user="balrog-kun" changeset="3192033">
    <nd ref="356391536"/>
    <nd ref="442317132"/>
    <nd ref="442317088"/>
    <tag k="highway" v="residential"/>
    <tag k="name" v="Teatralna"/>
    <tag k="source" v="UMP-PL, ./UMP-Warszawa/src/JOZEFOW.ulice.txt"/>
    <tag k="surface" v="unpaved"/>
  </way>
  <way id="37714979" version="3" timestamp="2012-01-19T21:31:13Z" uid="467703" user="Zbigniew Czernik" changeset="10441448">
    <nd ref="356391536"/>
    <nd ref="442317132"/>
    <nd ref="442317088"/>
    <tag k="highway" v="track"/>
    <tag k="name" v="Teatralna"/>
    <tag k="source" v="UMP-PL, ./UMP-Warszawa/src/JOZEFOW.ulice.txt"/>
    <tag k="surface" v="unpaved"/>
    <tag k="tracktype" v="grade1"/>
  </way>
  <way id="37714983" version="2" timestamp="2009-11-22T23:29:54Z" uid="20587" user="balrog-kun" changeset="3192033">
    <nd ref="442316369"/>
    <nd ref="442316291"/>
    <tag k="highway" v="residential"/>
    <tag k="name" v="Nałkowskiej"/>
    <tag k="source" v="UMP-PL, ./UMP-Warszawa/src/JOZEFOW.ulice.txt"/>
    <tag k="surface" v="unpaved"/>
  </way>
  <way id="37714983" version="3" timestamp="2012-01-19T21:30:33Z" uid="467703" user="Zbigniew Czernik" changeset="10441448">
    <nd ref="442316369"/>
    <nd ref="442316291"/>
    <tag k="highway" v="track"/>
    <tag k="name" v="Nałkowskiej"/>
    <tag k="source" v="UMP-PL, ./UMP-Warszawa/src/JOZEFOW.ulice.txt"/>
    <tag k="surface" v="unpaved"/>
    <tag k="tracktype" v="grade1"/>
  </way>
  <way id="37714988" version="2" timestamp="2009-11-22T23:29:55Z" uid="20587" user="balrog-kun" changeset="3192033">
    <nd ref="442316109"/>
    <nd ref="442316069"/>
    <tag k="highway" v="residential"/>
    <tag k="name" v="Otwocka"/>
    <tag k="source" v="UMP-PL, ./UMP-Warszawa/src/JOZEFOW.ulice.txt"/>
    <tag k="surface" v="unpaved"/>
  </way>
  <way id="37714988" version="3" timestamp="2012-01-19T21:30:39Z" uid="467703" user="Zbigniew Czernik" changeset="10441448">
    <nd ref="442316109"/>
    <nd ref="442316069"/>
    <tag k="highway" v="track"/>
    <tag k="name" v="Otwocka"/>
    <tag k="source" v="UMP-PL, ./UMP-Warszawa/src/JOZEFOW.ulice.txt"/>
    <tag k="surface" v="unpaved"/>
    <tag k="tracktype" v="grade1"/>
  </way>
  <way id="37714991" version="2" timestamp="2009-11-22T23:29:57Z" uid="20587" user="balrog-kun" changeset="3192033">
    <nd ref="442316061"/>
    <nd ref="442315837"/>
    <tag k="highway" v="residential"/>
    <tag k="name" v="Jagodowa"/>
    <tag k="source" v="UMP-PL, ./UMP-Warszawa/src/JOZEFOW.ulice.txt"/>
    <tag k="surface" v="unpaved"/>
  </way>
  <way id="37714991" version="3" timestamp="2012-01-19T21:29:50Z" uid="467703" user="Zbigniew Czernik" changeset="10441448">
    <nd ref="442316061"/>
    <nd ref="442315837"/>
    <tag k="highway" v="track"/>
    <tag k="name" v="Jagodowa"/>
    <tag k="source" v="UMP-PL, ./UMP-Warszawa/src/JOZEFOW.ulice.txt"/>
    <tag k="surface" v="unpaved"/>
    <tag k="tracktype" v="grade1"/>
  </way>
  <way id="37714994" version="2" timestamp="2009-11-22T23:29:57Z" uid="20587" user="balrog-kun" changeset="3192033">
    <nd ref="442316253"/>
    <nd ref="442317952"/>
    <nd ref="442317017"/>
    <nd ref="442317951"/>
    <nd ref="442316252"/>
    <tag k="highway" v="residential"/>
    <tag k="name" v="Kossaka"/>
    <tag k="source" v="UMP-PL, ./UMP-Warszawa/src/JOZEFOW.ulice.txt"/>
    <tag k="surface" v="unpaved"/>
  </way>
  <way id="37714994" version="3" timestamp="2012-01-19T21:30:04Z" uid="467703" user="Zbigniew Czernik" changeset="10441448">
    <nd ref="442316253"/>
    <nd ref="442317952"/>
    <nd ref="442317017"/>
    <nd ref="442317951"/>
    <nd ref="442316252"/>
    <tag k="highway" v="track"/>
    <tag k="name" v="Kossaka"/>
    <tag k="source" v="UMP-PL, ./UMP-Warszawa/src/JOZEFOW.ulice.txt"/>
    <tag k="surface" v="unpaved"/>
    <tag k="tracktype" v="grade1"/>
  </way>
</osm>
