<?xml version='1.0' encoding='UTF-8'?>
<osm version="0.6" generator="libosmium/2.20.0">
  <way id="37790103" version="2" timestamp="2010-07-08T20:18:18Z" uid="74617" user="JohnSmith" changeset="5168730">
    <nd ref="302822641"/>
    <nd ref="302822642"/>
    <nd ref="443279899"/>
    <tag k="highway" v="residential"/>
    <tag k="maxspeed" v="50"/>
    <tag k="maxspeed:source" v="default residential speed limit in Australia"/>
    <tag k="name" v="Freeman Street"/>
    <tag k="oneway" v="yes"/>
  </way>
  <way id="37790103" version="3" timestamp="2011-11-27T12:27:37Z" uid="11111" user="melb_guy" changeset="9966023">
    <nd ref="302822641"/>
    <nd ref="302822642"/>
    <nd ref="443279899"/>
    <tag k="highway" v="residential"/>
    <tag k="maxspeed" v="40"/>
    <tag k="name" v="Freeman Street"/>
    <tag k="oneway" v="yes"/>
  </way>
  <way id="37790103" version="4" timestamp="2012-01-19T01:46:51Z" uid="147510" user="woodpeck_fixbot" changeset="10433378">
    <nd ref="302822641"/>
    <nd ref="302822642"/>
    <nd ref="443279899"/>
    <tag k="highway" v="residential"/>
    <tag k="name" v="Freeman Street"/>
    <tag k="oneway" v="yes"/>
  </way>
  <way id="37790741" version="2" timestamp="2010-07-09T05:02:48Z" uid="74617" user="JohnSmith" changeset="5170972">
    <nd ref="250933635"/>
    <nd ref="250933593"/>
    <nd ref="331415844"/>
    <nd ref="250933662"/>
    <nd ref="250933660"/>
    <nd ref="443288643"/>
    <nd ref="250933584"/>
    <nd ref="250479826"/>
    <tag k="highway" v="residential"/>
    <tag k="maxspeed" v="50"/>
    <tag k="maxspeed:source" v="default residential speed limit in Australia"/>
    <tag k="name" v="Lord Street"/>
    <tag k="oneway" v="yes"/>
    <tag k="source" v="Yahoo"/>
  </way>
  <way id="37790741" version="3" timestamp="2011-10-12T05:44:59Z" uid="11111" user="melb_guy" changeset="9535783">
    <nd ref="250933635"/>
    <nd ref="250933593"/>
    <nd ref="331415844"/>
    <nd ref="250933662"/>
    <nd ref="250933660"/>
    <nd ref="443288643"/>
    <nd ref="250933584"/>
    <nd ref="1463547116"/>
    <nd ref="1463547096"/>
    <tag k="highway" v="residential"/>
    <tag k="maxspeed" v="50"/>
    <tag k="maxspeed:source" v="default residential speed limit in Australia"/>
    <tag k="name" v="Lord Street"/>
    <tag k="oneway" v="yes"/>
    <tag k="source" v="Yahoo"/>
  </way>
  <way id="37790741" version="4" timestamp="2012-01-19T01:46:53Z" uid="147510" user="woodpeck_fixbot" changeset="10433378">
    <nd ref="250933635"/>
    <nd ref="250933593"/>
    <nd ref="331415844"/>
    <nd ref="250933662"/>
    <nd ref="250933660"/>
    <nd ref="443288643"/>
    <nd ref="250933584"/>
    <nd ref="1463547116"/>
    <nd ref="1463547096"/>
    <tag k="highway" v="residential"/>
    <tag k="name" v="Lord Street"/>
    <tag k="oneway" v="yes"/>
    <tag k="source" v="Yahoo"/>
  </way>
  <way id="37790742" version="2" timestamp="2010-07-09T04:54:35Z" uid="74617" user="JohnSmith" changeset="5170972">
    <nd ref="250933639"/>
    <nd ref="250933638"/>
    <tag k="highway" v="residential"/>
    <tag k="maxspeed" v="50"/>
    <tag k="maxspeed:source" v="default residential speed limit in Australia"/>
    <tag k="name" v="Canterbury Street"/>
    <tag k="oneway" v="yes"/>
  </way>
  <way id="37790742" version="3" timestamp="2012-01-19T01:46:54Z" uid="147510" user="woodpeck_fixbot" changeset="10433378">
    <nd ref="250933639"/>
    <nd ref="250933638"/>
    <tag k="highway" v="residential"/>
    <tag k="name" v="Canterbury Street"/>
    <tag k="oneway" v="yes"/>
  </way>
  <way id="37790743" version="2" timestamp="2010-07-09T04:56:43Z" uid="74617" user="JohnSmith" changeset="5170972">
    <nd ref="250933639"/>
    <nd ref="250933631"/>
    <tag k="highway" v="residential"/>
    <tag k="maxspeed" v="50"/>
    <tag k="maxspeed:source" v="default residential speed limit in Australia"/>
    <tag k="name" v="Canterbury Street"/>
    <tag k="oneway" v="yes"/>
  </way>
  <way id="37790743" version="3" timestamp="2012-01-19T01:46:55Z" uid="147510" user="woodpeck_fixbot" changeset="10433378">
    <nd ref="250933639"/>
    <nd ref="250933631"/>
    <tag k="highway" v="residential"/>
    <tag k="name" v="Canterbury Street"/>
    <tag k="oneway" v="yes"/>
  </way>
  <way id="37790744" version="2" timestamp="2010-07-09T04:55:59Z" uid="74617" user="JohnSmith" changeset="5170972">
    <nd ref="250933638"/>
    <nd ref="250933636"/>
    <tag k="highway" v="residential"/>
    <tag k="maxspeed" v="50"/>
    <tag k="maxspeed:source" v="default residential speed limit in Australia"/>
    <tag k="name" v="Boyd Street"/>
    <tag k="oneway" v="yes"/>
    <tag k="source" v="yahoo"/>
    <tag k="source:name" v="Collins 1936"/>
  </way>
  <way id="37790744" version="3" timestamp="2012-01-19T01:46:56Z" uid="147510" user="woodpeck_fixbot" changeset="10433378">
    <nd ref="250933638"/>
    <nd ref="250933636"/>
    <tag k="highway" v="residential"/>
    <tag k="name" v="Boyd Street"/>
    <tag k="oneway" v="yes"/>
    <tag k="source" v="yahoo"/>
    <tag k="source:name" v="Collins 1936"/>
  </way>
  <way id="37790767" version="1" timestamp="2009-07-18T09:47:11Z" uid="33382" user="de_muur" changeset="1861824">
    <nd ref="392868932"/>
    <nd ref="443288944"/>
    <nd ref="443288945"/>
    <nd ref="443288946"/>
    <tag k="highway" v="track"/>
    <tag k="surface" v="unpaved"/>
    <tag k="tracktype" v="grade4"/>
  </way>
  <way id="37790767" version="2" timestamp="2011-10-22T17:38:38Z" uid="42429" user="FK270673" changeset="9626267">
    <nd ref="443288944"/>
    <nd ref="443288945"/>
    <nd ref="443288946"/>
    <tag k="highway" v="track"/>
    <tag k="surface" v="unpaved"/>
    <tag k="tracktype" v="grade4"/>
  </way>
  <way id="37790899" version="2" timestamp="2011-06-01T16:05:58Z" uid="115477" user="wowik" changeset="8311498">
    <nd ref="443289866"/>
    <nd ref="1307844627"/>
    <nd ref="443289867"/>
    <nd ref="1307844293"/>
    <nd ref="443289868"/>
    <nd ref="443289869"/>
    <nd ref="1307844500"/>
    <nd ref="1307844400"/>
    <nd ref="1307844253"/>
    <nd ref="1307844338"/>
    <nd ref="443289866"/>
    <tag k="addr:city" v="Москва"/>
    <tag k="addr:country" v="RU"/>
    <tag k="addr:housenumber" v="37 к1"/>
    <tag k="addr:street" v="Ленинградское шоссе"/>
    <tag k="building" v="yes"/>
  </way>
</osm>
