<?xml version='1.0' encoding='UTF-8'?>
<osm version="0.6" generator="libosmium/2.20.0">
  <way id="37819629" version="1" timestamp="2009-07-19T04:50:30Z" uid="18775" user="drlizau" changeset="1869385">
    <nd ref="443576093"/>
    <nd ref="443576094"/>
    <nd ref="443576095"/>
    <nd ref="443576096"/>
    <nd ref="443576097"/>
    <nd ref="443576098"/>
    <nd ref="443576099"/>
    <nd ref="443576100"/>
    <nd ref="443576093"/>
    <tag k="leisure" v="playground"/>
    <tag k="name" v="Chandler Park"/>
  </way>
  <way id="37819629" version="2" timestamp="2009-12-19T10:30:13Z" uid="18775" user="drlizau" changeset="3405759">
    <nd ref="443576093"/>
    <nd ref="443576094"/>
    <nd ref="443576095"/>
    <nd ref="443576096"/>
    <nd ref="443576097"/>
    <nd ref="443576098"/>
    <nd ref="443576099"/>
    <nd ref="443576100"/>
    <nd ref="443576093"/>
    <tag k="leisure" v="park"/>
    <tag k="name" v="Chandler Park"/>
  </way>
  <way id="37819630" version="1" timestamp="2009-07-19T04:50:30Z" uid="18775" user="drlizau" changeset="1869385">
    <nd ref="188240084"/>
    <nd ref="188240190"/>
    <tag k="highway" v="residential"/>
  </way>
  <way id="37819630" version="2" timestamp="2010-06-01T12:26:12Z" uid="18775" user="drlizau" changeset="4874087">
    <nd ref="188240084"/>
    <nd ref="188240190"/>
    <tag k="highway" v="residential"/>
    <tag k="name" v="Dal Broi Street"/>
    <tag k="source" v="survey"/>
  </way>
  <way id="37819630" version="3" timestamp="2010-07-07T08:11:46Z" uid="74617" user="JohnSmith" changeset="5156250">
    <nd ref="188240084"/>
    <nd ref="188240190"/>
    <tag k="highway" v="residential"/>
    <tag k="maxspeed" v="50"/>
    <tag k="maxspeed:source" v="default residential speed limit in Australia"/>
    <tag k="name" v="Dal Broi Street"/>
    <tag k="source" v="survey"/>
  </way>
  <way id="37819630" version="4" timestamp="2010-10-31T10:48:37Z" uid="19626" user="Swamp" changeset="6236944">
    <nd ref="188240084"/>
    <nd ref="188240190"/>
    <tag k="highway" v="residential"/>
    <tag k="maxspeed" v="50"/>
    <tag k="name" v="Dal Broi Street"/>
    <tag k="source" v="survey"/>
  </way>
  <way id="37819630" version="5" timestamp="2012-01-19T01:49:59Z" uid="147510" user="woodpeck_fixbot" changeset="10433378">
    <nd ref="188240084"/>
    <nd ref="188240190"/>
    <tag k="highway" v="residential"/>
    <tag k="name" v="Dal Broi Street"/>
    <tag k="source" v="survey"/>
  </way>
  <way id="37819634" version="2" timestamp="2010-07-09T18:38:53Z" uid="74617" user="JohnSmith" changeset="5175636">
    <nd ref="359560614"/>
    <nd ref="359560615"/>
    <nd ref="359560616"/>
    <nd ref="359559985"/>
    <tag k="highway" v="residential"/>
    <tag k="maxspeed" v="50"/>
    <tag k="maxspeed:source" v="default residential speed limit in Australia"/>
    <tag k="name" v="Telstar Drive"/>
  </way>
  <way id="37819634" version="3" timestamp="2011-10-24T20:09:09Z" uid="142807" user="SDavies" changeset="9647101">
    <nd ref="359560614"/>
    <nd ref="359560615"/>
    <nd ref="359560616"/>
    <nd ref="359559985"/>
    <tag k="highway" v="tertiary"/>
    <tag k="maxspeed" v="50"/>
    <tag k="maxspeed:source" v="default residential speed limit in Australia"/>
    <tag k="name" v="Telstar Drive"/>
  </way>
  <way id="37819634" version="4" timestamp="2012-01-19T01:50:00Z" uid="147510" user="woodpeck_fixbot" changeset="10433378">
    <nd ref="359560614"/>
    <nd ref="359560615"/>
    <nd ref="359560616"/>
    <nd ref="359559985"/>
    <tag k="highway" v="tertiary"/>
    <tag k="name" v="Telstar Drive"/>
  </way>
  <way id="37819635" version="5" timestamp="2010-07-09T18:24:51Z" uid="74617" user="JohnSmith" changeset="5175636">
    <nd ref="359559985"/>
    <nd ref="679716925"/>
    <nd ref="359560618"/>
    <nd ref="679716919"/>
    <nd ref="359560619"/>
    <nd ref="696273171"/>
    <tag k="highway" v="residential"/>
    <tag k="maxspeed" v="50"/>
    <tag k="maxspeed:source" v="default residential speed limit in Australia"/>
    <tag k="name" v="Telstar Drive"/>
  </way>
  <way id="37819635" version="6" timestamp="2011-10-08T19:31:29Z" uid="142807" user="SDavies" changeset="9505784">
    <nd ref="359559985"/>
    <nd ref="1459251638"/>
    <nd ref="679716925"/>
    <nd ref="359560618"/>
    <nd ref="679716919"/>
    <nd ref="359560619"/>
    <nd ref="696273171"/>
    <tag k="highway" v="residential"/>
    <tag k="maxspeed" v="50"/>
    <tag k="maxspeed:source" v="default residential speed limit in Australia"/>
    <tag k="name" v="Telstar Drive"/>
  </way>
  <way id="37819635" version="7" timestamp="2011-10-24T20:09:09Z" uid="142807" user="SDavies" changeset="9647101">
    <nd ref="359559985"/>
    <nd ref="1459251638"/>
    <nd ref="679716925"/>
    <nd ref="359560618"/>
    <nd ref="679716919"/>
    <nd ref="359560619"/>
    <nd ref="696273171"/>
    <tag k="highway" v="tertiary"/>
    <tag k="maxspeed" v="50"/>
    <tag k="maxspeed:source" v="default residential speed limit in Australia"/>
    <tag k="name" v="Telstar Drive"/>
  </way>
  <way id="37819635" version="8" timestamp="2012-01-19T01:50:01Z" uid="147510" user="woodpeck_fixbot" changeset="10433378">
    <nd ref="359559985"/>
    <nd ref="1459251638"/>
    <nd ref="679716925"/>
    <nd ref="359560618"/>
    <nd ref="679716919"/>
    <nd ref="359560619"/>
    <nd ref="696273171"/>
    <tag k="highway" v="tertiary"/>
    <tag k="name" v="Telstar Drive"/>
  </way>
  <way id="37819637" version="2" timestamp="2010-07-09T18:27:51Z" uid="74617" user="JohnSmith" changeset="5175636">
    <nd ref="359304127"/>
    <nd ref="359304129"/>
    <nd ref="359304131"/>
    <nd ref="359318166"/>
    <nd ref="59614594"/>
    <tag k="highway" v="residential"/>
    <tag k="maxspeed" v="50"/>
    <tag k="maxspeed:source" v="default residential speed limit in Australia"/>
    <tag k="name" v="Redgum Way"/>
  </way>
  <way id="37819637" version="3" timestamp="2012-01-19T01:50:03Z" uid="147510" user="woodpeck_fixbot" changeset="10433378">
    <nd ref="359304127"/>
    <nd ref="359304129"/>
    <nd ref="359304131"/>
    <nd ref="359318166"/>
    <nd ref="59614594"/>
    <tag k="highway" v="residential"/>
    <tag k="name" v="Redgum Way"/>
  </way>
  <way id="37819638" version="2" timestamp="2010-05-19T14:31:41Z" uid="4467" user="Rosscoe" changeset="4748690">
    <nd ref="59614594"/>
    <nd ref="59614596"/>
    <nd ref="59614598"/>
    <nd ref="739484392"/>
    <tag k="highway" v="secondary"/>
    <tag k="name" v="Bottlebrush Drive"/>
  </way>
  <way id="37819638" version="3" timestamp="2011-10-24T16:52:57Z" uid="142807" user="SDavies" changeset="9645133">
    <nd ref="59614594"/>
    <nd ref="59614596"/>
    <nd ref="59614598"/>
    <nd ref="739484392"/>
    <tag k="highway" v="tertiary"/>
    <tag k="name" v="Bottlebrush Drive"/>
  </way>
  <way id="37819639" version="5" timestamp="2010-05-19T14:31:33Z" uid="4467" user="Rosscoe" changeset="4748690">
    <nd ref="59614598"/>
    <nd ref="50576126"/>
    <nd ref="739484366"/>
    <nd ref="366081972"/>
    <nd ref="76125671"/>
    <nd ref="739484367"/>
    <nd ref="594373980"/>
    <nd ref="359315850"/>
    <nd ref="594373984"/>
    <nd ref="50576128"/>
    <tag k="highway" v="secondary"/>
    <tag k="name" v="Benara Road"/>
    <tag k="oneway" v="yes"/>
    <tag k="source" v="nearmap"/>
  </way>
  <way id="37819639" version="6" timestamp="2010-05-19T14:33:15Z" uid="4467" user="Rosscoe" changeset="4748707">
    <nd ref="59614598"/>
    <nd ref="50576126"/>
    <nd ref="739484366"/>
    <nd ref="366081972"/>
    <nd ref="76125671"/>
    <nd ref="739484367"/>
    <nd ref="594373980"/>
    <nd ref="359315850"/>
    <nd ref="594373984"/>
    <nd ref="739486075"/>
    <nd ref="50576128"/>
    <tag k="highway" v="secondary"/>
    <tag k="name" v="Benara Road"/>
    <tag k="oneway" v="yes"/>
    <tag k="source" v="nearmap"/>
  </way>
  <way id="37819639" version="7" timestamp="2011-09-24T07:00:59Z" uid="142807" user="SDavies" changeset="9381877">
    <nd ref="59614598"/>
    <nd ref="50576126"/>
    <nd ref="1444145654"/>
    <nd ref="739484366"/>
    <nd ref="366081972"/>
    <nd ref="76125671"/>
    <nd ref="739484367"/>
    <nd ref="594373980"/>
    <nd ref="359315850"/>
    <nd ref="594373984"/>
    <nd ref="739486075"/>
    <nd ref="50576128"/>
    <tag k="highway" v="secondary"/>
    <tag k="name" v="Benara Road"/>
    <tag k="oneway" v="yes"/>
    <tag k="source" v="nearmap"/>
  </way>
  <way id="37819639" version="8" timestamp="2011-09-28T12:03:28Z" uid="142807" user="SDavies" changeset="9418752">
    <nd ref="59614598"/>
    <nd ref="50576126"/>
    <nd ref="1444145654"/>
    <nd ref="739484366"/>
    <nd ref="366081972"/>
    <nd ref="76125671"/>
    <nd ref="739484367"/>
    <nd ref="594373980"/>
    <nd ref="359315850"/>
    <nd ref="1447953679"/>
    <nd ref="594373984"/>
    <nd ref="739486075"/>
    <nd ref="50576128"/>
    <tag k="highway" v="secondary"/>
    <tag k="name" v="Benara Road"/>
    <tag k="oneway" v="yes"/>
    <tag k="source" v="nearmap"/>
  </way>
  <way id="37819639" version="9" timestamp="2011-11-29T12:37:45Z" uid="142807" user="SDavies" changeset="9987287">
    <nd ref="59614598"/>
    <nd ref="50576126"/>
    <tag k="highway" v="secondary"/>
    <tag k="name" v="Benara Road"/>
    <tag k="oneway" v="yes"/>
    <tag k="source" v="nearmap"/>
  </way>
  <way id="37819639" version="10" timestamp="2012-01-06T13:08:38Z" uid="142807" user="SDavies" changeset="10311122">
    <nd ref="59614598"/>
    <nd ref="50576126"/>
    <tag k="highway" v="primary"/>
    <tag k="name" v="Benara Road"/>
    <tag k="oneway" v="yes"/>
    <tag k="source" v="nearmap"/>
  </way>
  <way id="37819640" version="3" timestamp="2010-05-19T14:31:39Z" uid="4467" user="Rosscoe" changeset="4748690">
    <nd ref="283715504"/>
    <nd ref="584708078"/>
    <nd ref="359318542"/>
    <nd ref="59614598"/>
    <tag k="highway" v="secondary"/>
    <tag k="name" v="Benara Road"/>
    <tag k="oneway" v="yes"/>
    <tag k="source" v="nearmap"/>
  </way>
  <way id="37819640" version="4" timestamp="2012-01-06T13:08:38Z" uid="142807" user="SDavies" changeset="10311122">
    <nd ref="283715504"/>
    <nd ref="584708078"/>
    <nd ref="359318542"/>
    <tag k="highway" v="secondary"/>
    <tag k="name" v="Benara Road"/>
    <tag k="oneway" v="yes"/>
    <tag k="source" v="nearmap"/>
  </way>
  <way id="37819667" version="2" timestamp="2010-07-09T18:23:33Z" uid="74617" user="JohnSmith" changeset="5175636">
    <nd ref="359306202"/>
    <nd ref="359306204"/>
    <nd ref="359306205"/>
    <nd ref="359306207"/>
    <nd ref="359306208"/>
    <nd ref="359306212"/>
    <nd ref="359306211"/>
    <nd ref="365217957"/>
    <nd ref="359307150"/>
    <nd ref="359306209"/>
    <tag k="highway" v="residential"/>
    <tag k="maxspeed" v="50"/>
    <tag k="maxspeed:source" v="default residential speed limit in Australia"/>
  </way>
  <way id="37819667" version="3" timestamp="2011-09-24T08:19:03Z" uid="142807" user="SDavies" changeset="9382195">
    <nd ref="359306202"/>
    <nd ref="359306204"/>
    <nd ref="359306205"/>
    <nd ref="359306207"/>
    <nd ref="359306208"/>
    <nd ref="359306212"/>
    <nd ref="359306211"/>
    <nd ref="365217957"/>
    <nd ref="359307150"/>
    <nd ref="1444237357"/>
    <nd ref="359306209"/>
    <tag k="highway" v="residential"/>
    <tag k="maxspeed" v="50"/>
    <tag k="maxspeed:source" v="default residential speed limit in Australia"/>
  </way>
  <way id="37819667" version="4" timestamp="2011-10-04T18:05:54Z" uid="142807" user="SDavies" changeset="9471648">
    <nd ref="359306202"/>
    <nd ref="359306204"/>
    <nd ref="359306205"/>
    <nd ref="359306207"/>
    <nd ref="359306208"/>
    <nd ref="359306212"/>
    <nd ref="359306211"/>
    <nd ref="365217957"/>
    <nd ref="359307150"/>
    <nd ref="1444237357"/>
    <nd ref="359306209"/>
    <tag k="highway" v="residential"/>
    <tag k="maxspeed" v="50"/>
    <tag k="maxspeed:source" v="default residential speed limit in Australia"/>
    <tag k="name" v="Sacramento Avenue"/>
  </way>
  <way id="37819667" version="5" timestamp="2011-10-24T20:09:10Z" uid="142807" user="SDavies" changeset="9647101">
    <nd ref="359306202"/>
    <nd ref="359306204"/>
    <nd ref="359306205"/>
    <nd ref="359306207"/>
    <nd ref="359306208"/>
    <nd ref="359306212"/>
    <nd ref="359306211"/>
    <nd ref="365217957"/>
    <nd ref="359307150"/>
    <nd ref="1444237357"/>
    <nd ref="359306209"/>
    <tag k="highway" v="tertiary"/>
    <tag k="maxspeed" v="50"/>
    <tag k="maxspeed:source" v="default residential speed limit in Australia"/>
    <tag k="name" v="Sacramento Avenue"/>
  </way>
  <way id="37819667" version="6" timestamp="2012-01-19T01:50:04Z" uid="147510" user="woodpeck_fixbot" changeset="10433378">
    <nd ref="359306202"/>
    <nd ref="359306204"/>
    <nd ref="359306205"/>
    <nd ref="359306207"/>
    <nd ref="359306208"/>
    <nd ref="359306212"/>
    <nd ref="359306211"/>
    <nd ref="365217957"/>
    <nd ref="359307150"/>
    <nd ref="1444237357"/>
    <nd ref="359306209"/>
    <tag k="highway" v="tertiary"/>
    <tag k="name" v="Sacramento Avenue"/>
  </way>
  <way id="37819672" version="4" timestamp="2010-07-11T10:53:11Z" uid="7617" user="Franc" changeset="5189073">
    <nd ref="443579684"/>
    <nd ref="811231557"/>
    <tag k="highway" v="tertiary"/>
    <tag k="name" v="Rockford Road"/>
    <tag k="restriction" v="school_zone"/>
  </way>
</osm>
