<?xml version='1.0' encoding='UTF-8'?>
<osm version="0.6" generator="libosmium/2.20.0">
  <way id="3784005" version="15" timestamp="2010-03-27T07:39:50Z" uid="20587" user="balrog-kun" changeset="4244079">
    <nd ref="583125802"/>
    <nd ref="72535443"/>
    <nd ref="583125798"/>
    <nd ref="583125800"/>
    <tag k="highway" v="secondary"/>
    <tag k="name" v="Soto Street"/>
    <tag k="source" v="survey;image;usgs_imagery;LACA;LACDPW"/>
    <tag k="source_ref" v="AM909_DSCQ2259;ABK5202-001;RS179-044"/>
  </way>
  <way id="3784005" version="16" timestamp="2010-05-10T19:17:54Z" uid="36489" user="jerjozwik" changeset="4662337">
    <nd ref="583125802"/>
    <nd ref="72535443"/>
    <nd ref="583125800"/>
    <tag k="highway" v="secondary"/>
    <tag k="name" v="Soto Street"/>
    <tag k="source" v="gpx"/>
  </way>
  <way id="3784009" version="12" timestamp="2010-03-27T07:39:50Z" uid="20587" user="balrog-kun" changeset="4244079">
    <nd ref="122883974"/>
    <nd ref="180203397"/>
    <nd ref="18882138"/>
    <nd ref="180203393"/>
    <nd ref="122820159"/>
    <tag k="highway" v="residential"/>
    <tag k="name" v="Marianna Avenue"/>
    <tag k="source" v="survey;image;usgs_imagery"/>
    <tag k="source_ref" v="AM909_DSCQ2241;AM909_DSCQ2242"/>
  </way>
  <way id="3784009" version="13" timestamp="2011-06-22T01:32:47Z" uid="351693" user="ctr112280" changeset="8510386">
    <nd ref="1334120655"/>
    <nd ref="1334120657"/>
    <nd ref="1334120662"/>
    <nd ref="180203397"/>
    <nd ref="18882138"/>
    <nd ref="180203393"/>
    <nd ref="122820159"/>
    <tag k="highway" v="residential"/>
    <tag k="name" v="Marianna Avenue"/>
    <tag k="source" v="survey;image;usgs_imagery"/>
    <tag k="source_ref" v="AM909_DSCQ2241;AM909_DSCQ2242"/>
  </way>
  <way id="3784009" version="14" timestamp="2011-10-30T18:13:57Z" uid="119881" user="Clorox" changeset="9696606">
    <nd ref="1334120655"/>
    <nd ref="1334120657"/>
    <nd ref="1334120662"/>
    <nd ref="180203397"/>
    <nd ref="18882138"/>
    <nd ref="180203393"/>
    <nd ref="122820159"/>
    <tag k="highway" v="secondary"/>
    <tag k="name" v="Marianna Avenue"/>
    <tag k="source" v="survey;image;usgs_imagery"/>
    <tag k="source_ref" v="AM909_DSCQ2241;AM909_DSCQ2242"/>
  </way>
  <way id="3784010" version="9" timestamp="2010-03-27T07:39:51Z" uid="20587" user="balrog-kun" changeset="4244079">
    <nd ref="353033723"/>
    <nd ref="353033724"/>
    <nd ref="353033725"/>
    <nd ref="353033726"/>
    <nd ref="76369368"/>
    <nd ref="252994603"/>
    <nd ref="252994604"/>
    <nd ref="122599108"/>
    <nd ref="583125842"/>
    <nd ref="18882216"/>
    <tag k="highway" v="residential"/>
    <tag k="name" v="Fowler Street"/>
    <tag k="source" v="survey;image;usgs_imagery"/>
    <tag k="source_ref" v="AM909_DSCQ2249"/>
  </way>
  <way id="3784012" version="5" timestamp="2010-03-27T07:39:51Z" uid="20587" user="balrog-kun" changeset="4244079">
    <nd ref="281506189"/>
    <nd ref="18882205"/>
    <nd ref="122819728"/>
    <nd ref="123118809"/>
    <nd ref="18882193"/>
    <nd ref="18882168"/>
    <nd ref="35833887"/>
    <tag k="highway" v="residential"/>
    <tag k="name" v="Gates Street"/>
    <tag k="source" v="survey;image;usgs_imagery"/>
    <tag k="source_ref" v="AM909_DSCR9641"/>
  </way>
  <way id="3784013" version="4" timestamp="2010-03-27T07:39:51Z" uid="20587" user="balrog-kun" changeset="4244079">
    <nd ref="18882156"/>
    <nd ref="537075755"/>
    <nd ref="537075024"/>
    <nd ref="18882037"/>
    <tag k="highway" v="residential"/>
    <tag k="name" v="Stratford Road"/>
  </way>
  <way id="3784015" version="9" timestamp="2010-03-27T07:39:51Z" uid="20587" user="balrog-kun" changeset="4244079">
    <nd ref="281506299"/>
    <nd ref="281506300"/>
    <nd ref="281506301"/>
    <nd ref="281506167"/>
    <nd ref="76413024"/>
    <nd ref="72448838"/>
    <nd ref="123654490"/>
    <nd ref="72402774"/>
    <nd ref="18882281"/>
    <nd ref="35833871"/>
    <nd ref="123268278"/>
    <nd ref="122962620"/>
    <nd ref="18882259"/>
    <tag k="highway" v="residential"/>
    <tag k="name" v="Eastlake Avenue"/>
    <tag k="source" v="survey;image;usgs_imagery"/>
    <tag k="source_ref" v="AM909_DSCR9639"/>
  </way>
  <way id="3784017" version="9" timestamp="2010-03-27T07:39:52Z" uid="20587" user="balrog-kun" changeset="4244079">
    <nd ref="27062252"/>
    <nd ref="181766258"/>
    <nd ref="122809000"/>
    <nd ref="122809001"/>
    <nd ref="123142085"/>
    <nd ref="123284981"/>
    <nd ref="123633022"/>
    <nd ref="122833235"/>
    <nd ref="27062255"/>
    <nd ref="123134593"/>
    <nd ref="18882037"/>
    <nd ref="27062256"/>
    <nd ref="569674122"/>
    <nd ref="569524402"/>
    <nd ref="18882053"/>
    <tag k="highway" v="residential"/>
    <tag k="name" v="Oak Street"/>
  </way>
  <way id="3784017" version="10" timestamp="2010-05-18T11:27:02Z" uid="82317" user="AM909" changeset="4737707">
    <nd ref="27062252"/>
    <nd ref="181766258"/>
    <nd ref="122809000"/>
    <nd ref="122809001"/>
    <nd ref="123142085"/>
    <nd ref="123284981"/>
    <nd ref="123633022"/>
    <nd ref="122833235"/>
    <nd ref="27062255"/>
    <nd ref="123134593"/>
    <nd ref="18882037"/>
    <nd ref="27062256"/>
    <nd ref="569674122"/>
    <nd ref="569524402"/>
    <tag k="highway" v="residential"/>
    <tag k="name" v="Oak Street"/>
    <tag k="source" v="usgs_imagery;survey;image"/>
    <tag k="source_ref" v="AM909_DSCU3211"/>
  </way>
  <way id="3784018" version="8" timestamp="2010-03-27T07:39:52Z" uid="20587" user="balrog-kun" changeset="4244079">
    <nd ref="72535459"/>
    <nd ref="25627213"/>
    <nd ref="18882186"/>
    <nd ref="252990400"/>
    <nd ref="252990401"/>
    <nd ref="252990403"/>
    <nd ref="353033748"/>
    <nd ref="353033750"/>
    <nd ref="353033751"/>
    <nd ref="353033752"/>
    <nd ref="353033723"/>
    <tag k="highway" v="secondary"/>
    <tag k="name" v="Indiana Street"/>
    <tag k="source" v="survey;image;usgs_imagery"/>
    <tag k="source_ref" v="AM909_DSCQ2254"/>
  </way>
  <way id="3784018" version="9" timestamp="2010-05-10T19:16:24Z" uid="36489" user="jerjozwik" changeset="4662337">
    <nd ref="72535459"/>
    <nd ref="25627213"/>
    <nd ref="18882186"/>
    <nd ref="252990401"/>
    <nd ref="252990403"/>
    <nd ref="353033750"/>
    <nd ref="353033751"/>
    <nd ref="353033752"/>
    <nd ref="353033723"/>
    <tag k="highway" v="secondary"/>
    <tag k="name" v="Indiana Street"/>
    <tag k="source" v="survey;image;usgs_imagery"/>
    <tag k="source_ref" v="AM909_DSCQ2254"/>
  </way>
  <way id="3784018" version="10" timestamp="2010-05-10T19:42:23Z" uid="36489" user="jerjozwik" changeset="4662337">
    <nd ref="72535459"/>
    <nd ref="25627213"/>
    <nd ref="18882186"/>
    <nd ref="252990403"/>
    <nd ref="353033750"/>
    <nd ref="353033751"/>
    <nd ref="353033752"/>
    <nd ref="353033723"/>
    <tag k="highway" v="secondary"/>
    <tag k="name" v="Indiana Street"/>
    <tag k="source" v="survey;image;usgs_imagery"/>
    <tag k="source_ref" v="AM909_DSCQ2254"/>
  </way>
  <way id="3784893" version="1" timestamp="2007-05-18T15:26:50Z" uid="5871" user="Banny" changeset="56438">
    <nd ref="16048891"/>
    <nd ref="16048892"/>
    <nd ref="12248601"/>
    <nd ref="12248555"/>
    <tag k="created_by" v="pyosmeditor"/>
    <tag k="name" v="Barbarastraße"/>
  </way>
  <way id="3784893" version="2" timestamp="2008-04-08T19:00:47Z" uid="33373" user="gerchle" changeset="90408">
    <nd ref="16048891"/>
    <nd ref="16048892"/>
    <nd ref="12248601"/>
    <nd ref="12248555"/>
    <tag k="created_by" v="Potlatch 0.8a"/>
    <tag k="highway" v="residential"/>
    <tag k="name" v="Barbarastraße"/>
  </way>
  <way id="3784893" version="3" timestamp="2008-04-08T19:01:21Z" uid="33373" user="gerchle" changeset="90408">
    <nd ref="16048887"/>
    <nd ref="16048891"/>
    <nd ref="16048892"/>
    <nd ref="12248601"/>
    <nd ref="12248555"/>
    <tag k="created_by" v="Potlatch 0.8a"/>
    <tag k="highway" v="residential"/>
    <tag k="name" v="Barbarastraße"/>
    <tag k="note" v="FIXME previously unwayed segment"/>
  </way>
  <way id="3784893" version="4" timestamp="2008-04-08T19:01:32Z" uid="33373" user="gerchle" changeset="90408">
    <nd ref="16048887"/>
    <nd ref="16048891"/>
    <nd ref="16048892"/>
    <nd ref="12248601"/>
    <nd ref="12248555"/>
    <tag k="created_by" v="Potlatch 0.8a"/>
    <tag k="highway" v="residential"/>
    <tag k="name" v="Barbarastraße"/>
  </way>
  <way id="3784893" version="5" timestamp="2008-04-09T07:25:28Z" uid="33373" user="gerchle" changeset="91466">
    <nd ref="16048887"/>
    <nd ref="16048891"/>
    <nd ref="256543130"/>
    <nd ref="16048892"/>
    <nd ref="12248601"/>
    <nd ref="12248555"/>
    <tag k="created_by" v="Potlatch 0.8a"/>
    <tag k="highway" v="residential"/>
    <tag k="name" v="Barbarastraße"/>
  </way>
  <way id="3784893" version="6" timestamp="2008-05-24T22:53:55Z" uid="38919" user="krza" changeset="515067">
    <nd ref="16048887"/>
    <nd ref="16048891"/>
    <nd ref="256543130"/>
    <nd ref="16048892"/>
    <nd ref="12248601"/>
    <nd ref="266709296"/>
    <nd ref="12248555"/>
    <tag k="created_by" v="Potlatch 0.9a"/>
    <tag k="highway" v="residential"/>
    <tag k="name" v="Barbarastraße"/>
  </way>
  <way id="3784893" version="7" timestamp="2008-05-24T23:11:04Z" uid="38919" user="krza" changeset="515067">
    <nd ref="16048887"/>
    <nd ref="16048891"/>
    <nd ref="256543130"/>
    <nd ref="16048892"/>
    <nd ref="12248601"/>
    <nd ref="266710517"/>
    <nd ref="266709296"/>
    <nd ref="12248555"/>
    <tag k="created_by" v="Potlatch 0.9a"/>
    <tag k="highway" v="residential"/>
    <tag k="name" v="Barbarastraße"/>
  </way>
  <way id="3784893" version="8" timestamp="2008-05-24T23:12:34Z" uid="38919" user="krza" changeset="515067">
    <nd ref="16048887"/>
    <nd ref="16048891"/>
    <nd ref="256543130"/>
    <nd ref="16048892"/>
    <nd ref="12248601"/>
    <nd ref="266710517"/>
    <tag k="created_by" v="Potlatch 0.9a"/>
    <tag k="highway" v="residential"/>
    <tag k="name" v="Barbarastraße"/>
  </way>
  <way id="3784893" version="9" timestamp="2008-05-24T23:13:48Z" uid="38919" user="krza" changeset="515067">
    <nd ref="16048887"/>
    <nd ref="16048891"/>
    <nd ref="256543130"/>
    <nd ref="16048892"/>
    <nd ref="12248601"/>
    <nd ref="266710517"/>
    <tag k="created_by" v="Potlatch 0.9a"/>
    <tag k="highway" v="residential"/>
    <tag k="name" v="Barbarastraße"/>
  </way>
  <way id="3784893" version="10" timestamp="2008-05-24T23:14:43Z" uid="38919" user="krza" changeset="515067">
    <nd ref="266710761"/>
    <nd ref="16048891"/>
    <nd ref="256543130"/>
    <nd ref="16048892"/>
    <nd ref="12248601"/>
    <nd ref="266710517"/>
    <tag k="created_by" v="Potlatch 0.9a"/>
    <tag k="highway" v="residential"/>
    <tag k="name" v="Barbarastraße"/>
  </way>
  <way id="3784893" version="11" timestamp="2008-05-24T23:23:27Z" uid="38919" user="krza" changeset="515067">
    <nd ref="266710761"/>
    <nd ref="266713496"/>
    <nd ref="16048891"/>
    <nd ref="256543130"/>
    <nd ref="16048892"/>
    <nd ref="12248601"/>
    <nd ref="266710517"/>
    <tag k="created_by" v="Potlatch 0.9a"/>
    <tag k="highway" v="residential"/>
    <tag k="name" v="Barbarastraße"/>
  </way>
  <way id="3784893" version="12" timestamp="2008-07-19T12:20:30Z" uid="38919" user="krza" changeset="536496">
    <nd ref="266710761"/>
    <nd ref="266713496"/>
    <nd ref="16048891"/>
    <nd ref="256543130"/>
    <nd ref="279511329"/>
    <nd ref="16048892"/>
    <nd ref="279511331"/>
    <nd ref="12248601"/>
    <nd ref="266710517"/>
    <tag k="created_by" v="Potlatch 0.10"/>
    <tag k="highway" v="residential"/>
    <tag k="name" v="Barbarastraße"/>
  </way>
  <way id="3784893" version="13" timestamp="2008-07-19T13:21:02Z" uid="38919" user="krza" changeset="536496">
    <nd ref="266710761"/>
    <nd ref="266713496"/>
    <nd ref="16048891"/>
    <nd ref="256543130"/>
    <nd ref="279511329"/>
    <nd ref="16048892"/>
    <nd ref="279511331"/>
    <nd ref="12248601"/>
    <nd ref="279529993"/>
    <tag k="created_by" v="Potlatch 0.10"/>
    <tag k="highway" v="residential"/>
    <tag k="name" v="Barbarastraße"/>
  </way>
  <way id="3784893" version="14" timestamp="2008-07-20T00:36:32Z" uid="38919" user="krza" changeset="546391">
    <nd ref="256543914"/>
    <nd ref="279668990"/>
    <nd ref="279668991"/>
    <nd ref="266713496"/>
    <nd ref="16048891"/>
    <nd ref="256543130"/>
    <nd ref="279511329"/>
    <nd ref="16048892"/>
    <nd ref="279511331"/>
    <nd ref="12248601"/>
    <nd ref="279529993"/>
    <tag k="created_by" v="Potlatch 0.10"/>
    <tag k="highway" v="residential"/>
    <tag k="name" v="Barbarastraße"/>
  </way>
  <way id="3784893" version="15" timestamp="2008-07-20T00:36:40Z" uid="38919" user="krza" changeset="546391">
    <nd ref="256543914"/>
    <nd ref="279669013"/>
    <nd ref="279668991"/>
    <nd ref="266713496"/>
    <nd ref="16048891"/>
    <nd ref="256543130"/>
    <nd ref="279511329"/>
    <nd ref="16048892"/>
    <nd ref="279511331"/>
    <nd ref="12248601"/>
    <nd ref="279529993"/>
    <tag k="created_by" v="Potlatch 0.10"/>
    <tag k="highway" v="residential"/>
    <tag k="name" v="Barbarastraße"/>
  </way>
  <way id="3784893" version="16" timestamp="2008-07-20T00:38:14Z" uid="38919" user="krza" changeset="546391">
    <nd ref="279669013"/>
    <nd ref="279668991"/>
    <nd ref="266713496"/>
    <nd ref="16048891"/>
    <nd ref="256543130"/>
    <nd ref="279511329"/>
    <nd ref="16048892"/>
    <nd ref="279511331"/>
    <nd ref="12248601"/>
    <nd ref="279529993"/>
    <tag k="created_by" v="Potlatch 0.10"/>
    <tag k="highway" v="residential"/>
    <tag k="name" v="Barbarastraße"/>
  </way>
  <way id="3784893" version="17" timestamp="2008-07-20T00:38:20Z" uid="38919" user="krza" changeset="546391">
    <nd ref="266710761"/>
    <nd ref="279668991"/>
    <nd ref="266713496"/>
    <nd ref="16048891"/>
    <nd ref="256543130"/>
    <nd ref="279511329"/>
    <nd ref="16048892"/>
    <nd ref="279511331"/>
    <nd ref="12248601"/>
    <nd ref="279529993"/>
    <tag k="created_by" v="Potlatch 0.10"/>
    <tag k="highway" v="residential"/>
    <tag k="name" v="Barbarastraße"/>
  </way>
  <way id="3784893" version="18" timestamp="2008-07-20T00:38:42Z" uid="38919" user="krza" changeset="546391">
    <nd ref="266710761"/>
    <nd ref="279668991"/>
    <nd ref="266713496"/>
    <nd ref="16048891"/>
    <nd ref="256543130"/>
    <nd ref="279511329"/>
    <nd ref="16048892"/>
    <nd ref="279511331"/>
    <nd ref="12248601"/>
    <nd ref="279529993"/>
    <tag k="created_by" v="Potlatch 0.10"/>
    <tag k="highway" v="residential"/>
    <tag k="name" v="Barbarastraße"/>
  </way>
  <way id="3784893" version="19" timestamp="2008-07-20T00:39:02Z" uid="38919" user="krza" changeset="546391">
    <nd ref="256543914"/>
    <nd ref="279669138"/>
    <nd ref="266710761"/>
    <nd ref="279668991"/>
    <nd ref="266713496"/>
    <nd ref="16048891"/>
    <nd ref="256543130"/>
    <nd ref="279511329"/>
    <nd ref="16048892"/>
    <nd ref="279511331"/>
    <nd ref="12248601"/>
    <nd ref="279529993"/>
    <tag k="created_by" v="Potlatch 0.10"/>
    <tag k="highway" v="residential"/>
    <tag k="name" v="Barbarastraße"/>
  </way>
  <way id="3784893" version="20" timestamp="2008-07-20T00:39:29Z" uid="38919" user="krza" changeset="546391">
    <nd ref="256543914"/>
    <nd ref="279669138"/>
    <nd ref="266710761"/>
    <nd ref="279668991"/>
    <nd ref="266713496"/>
    <nd ref="16048891"/>
    <nd ref="256543130"/>
    <nd ref="279511329"/>
    <nd ref="16048892"/>
    <nd ref="279511331"/>
    <nd ref="12248601"/>
    <nd ref="279529993"/>
    <tag k="created_by" v="Potlatch 0.10"/>
    <tag k="highway" v="residential"/>
    <tag k="name" v="Barbarastraße"/>
  </way>
  <way id="3784893" version="21" timestamp="2008-07-20T00:39:36Z" uid="38919" user="krza" changeset="546391">
    <nd ref="256543914"/>
    <nd ref="279669138"/>
    <nd ref="266710761"/>
    <nd ref="279668991"/>
    <nd ref="266713496"/>
    <nd ref="16048891"/>
    <nd ref="256543130"/>
    <nd ref="279511329"/>
    <nd ref="16048892"/>
    <nd ref="279511331"/>
    <nd ref="12248601"/>
    <nd ref="279529993"/>
    <tag k="created_by" v="Potlatch 0.10"/>
    <tag k="highway" v="residential"/>
    <tag k="name" v="Barbarastraße"/>
  </way>
  <way id="3784893" version="22" timestamp="2008-07-20T00:39:43Z" uid="38919" user="krza" changeset="546391">
    <nd ref="256543914"/>
    <nd ref="279669138"/>
    <nd ref="266710761"/>
    <tag k="created_by" v="Potlatch 0.10"/>
    <tag k="highway" v="residential"/>
    <tag k="name" v="Barbarastraße"/>
  </way>
  <way id="3784893" version="23" timestamp="2008-07-20T00:39:58Z" uid="38919" user="krza" changeset="546391">
    <nd ref="256543914"/>
    <nd ref="279669138"/>
    <nd ref="266710761"/>
    <tag k="created_by" v="Potlatch 0.10"/>
    <tag k="highway" v="residential"/>
    <tag k="name" v="Barbarastraße"/>
    <tag k="oneway" v="yes"/>
    <tag k="osmarender:renderName" v="no"/>
  </way>
  <way id="3784893" version="24" timestamp="2008-07-20T00:42:23Z" uid="38919" user="krza" changeset="546391">
    <nd ref="256543914"/>
    <nd ref="279669138"/>
    <nd ref="266710761"/>
    <tag k="created_by" v="Potlatch 0.10"/>
    <tag k="highway" v="residential"/>
    <tag k="name" v="Barbarastraße"/>
    <tag k="oneway" v="yes"/>
    <tag k="osmarender:renderName" v="no"/>
  </way>
  <way id="3784893" version="25" timestamp="2010-05-16T18:45:56Z" uid="225990" user="muetzekoeln" changeset="4720926">
    <nd ref="256543914"/>
    <nd ref="279669138"/>
    <nd ref="266710761"/>
    <tag k="highway" v="unclassified"/>
    <tag k="name" v="Barbarastraße"/>
    <tag k="oneway" v="yes"/>
    <tag k="osmarender:renderName" v="no"/>
  </way>
  <way id="3784893" version="26" timestamp="2011-01-06T21:39:26Z" uid="207745" user="NE2" changeset="6886621">
    <nd ref="256543914"/>
    <nd ref="279669138"/>
    <nd ref="266710761"/>
    <tag k="highway" v="unclassified"/>
    <tag k="name" v="Barbarastraße"/>
    <tag k="oneway" v="yes"/>
  </way>
  <way id="3784893" version="27" timestamp="2012-03-25T08:15:35Z" uid="116044" user="berndw" changeset="11092253"/>
</osm>
