<?xml version='1.0' encoding='UTF-8'?>
<osm version="0.6" generator="libosmium/2.20.0">
  <way id="38044298" version="2" timestamp="2009-08-07T23:25:54Z" uid="99207" user="Lar Kiesel" changeset="2071015"/>
  <way id="38044621" version="4" timestamp="2011-03-21T19:38:35Z" uid="9581" user="Lobelt" changeset="7630973"/>
  <way id="38044892" version="3" timestamp="2010-04-03T17:13:53Z" uid="20587" user="balrog-kun" changeset="4313610">
    <nd ref="142885168"/>
    <nd ref="142800656"/>
    <nd ref="142854990"/>
    <tag k="highway" v="residential"/>
    <tag k="name" v="Pojoaque Road Northeast"/>
    <tag k="tiger:cfcc" v="A41"/>
    <tag k="tiger:county" v="Luna, NM"/>
    <tag k="tiger:name_base" v="Pojoaque"/>
    <tag k="tiger:name_direction_suffix" v="NE"/>
    <tag k="tiger:name_type" v="Rd"/>
    <tag k="tiger:reviewed" v="no"/>
    <tag k="tiger:separated" v="no"/>
    <tag k="tiger:source" v="tiger_import_dch_v0.6_20070828"/>
    <tag k="tiger:tlid" v="201343113:201343115:201329555:201329565:201329562:201329566:201329567:201329714"/>
  </way>
  <way id="38044896" version="3" timestamp="2010-04-03T17:13:54Z" uid="20587" user="balrog-kun" changeset="4313610">
    <nd ref="142896159"/>
    <nd ref="142800660"/>
    <nd ref="142854992"/>
    <tag k="highway" v="residential"/>
    <tag k="name" v="Poco Loco Road Northeast"/>
    <tag k="tiger:cfcc" v="A41"/>
    <tag k="tiger:county" v="Luna, NM"/>
    <tag k="tiger:name_base" v="Poco Loco"/>
    <tag k="tiger:name_direction_suffix" v="NE"/>
    <tag k="tiger:name_type" v="Rd"/>
    <tag k="tiger:reviewed" v="no"/>
    <tag k="tiger:separated" v="no"/>
    <tag k="tiger:source" v="tiger_import_dch_v0.6_20070828"/>
    <tag k="tiger:tlid" v="201343111:201329545:201329546:201329549:201343112:201329800:201329716:201329539"/>
  </way>
  <way id="38044906" version="3" timestamp="2010-04-03T17:13:54Z" uid="20587" user="balrog-kun" changeset="4313610">
    <nd ref="142885150"/>
    <nd ref="142789820"/>
    <nd ref="142800663"/>
    <nd ref="142854993"/>
    <tag k="highway" v="residential"/>
    <tag k="name" v="Pojoaque Road Northeast"/>
    <tag k="tiger:cfcc" v="A41"/>
    <tag k="tiger:county" v="Luna, NM"/>
    <tag k="tiger:name_base" v="Pojoaque"/>
    <tag k="tiger:name_direction_suffix" v="NE"/>
    <tag k="tiger:name_type" v="Rd"/>
    <tag k="tiger:reviewed" v="no"/>
    <tag k="tiger:separated" v="no"/>
    <tag k="tiger:source" v="tiger_import_dch_v0.6_20070828"/>
    <tag k="tiger:tlid" v="201329523:201329524:201343108:201329531:201329533:201329534:201329535:201343109"/>
  </way>
  <way id="38044911" version="3" timestamp="2010-04-03T17:13:54Z" uid="20587" user="balrog-kun" changeset="4313610">
    <nd ref="142901337"/>
    <nd ref="142789822"/>
    <nd ref="142800666"/>
    <nd ref="142854999"/>
    <tag k="highway" v="residential"/>
    <tag k="name" v="Maricopa Road Northeast"/>
    <tag k="tiger:cfcc" v="A41"/>
    <tag k="tiger:county" v="Luna, NM"/>
    <tag k="tiger:name_base" v="Maricopa"/>
    <tag k="tiger:name_direction_suffix" v="NE"/>
    <tag k="tiger:name_type" v="Rd"/>
    <tag k="tiger:reviewed" v="no"/>
    <tag k="tiger:separated" v="no"/>
    <tag k="tiger:source" v="tiger_import_dch_v0.6_20070828"/>
    <tag k="tiger:tlid" v="201329508:201329842:201329819:201329510:201329513:201343106:201329506:201329516:201343107"/>
    <tag k="tiger:zip_left" v="88030"/>
    <tag k="tiger:zip_left_1" v="88030"/>
  </way>
  <way id="38044913" version="3" timestamp="2010-04-03T17:13:54Z" uid="20587" user="balrog-kun" changeset="4313610">
    <nd ref="142869628"/>
    <nd ref="142806301"/>
    <nd ref="142789826"/>
    <nd ref="142800670"/>
    <nd ref="142855005"/>
    <tag k="highway" v="residential"/>
    <tag k="name" v="Huerfeno Road Northeast"/>
    <tag k="tiger:cfcc" v="A41"/>
    <tag k="tiger:county" v="Luna, NM"/>
    <tag k="tiger:name_base" v="Huerfeno"/>
    <tag k="tiger:name_direction_suffix" v="NE"/>
    <tag k="tiger:name_type" v="Rd"/>
    <tag k="tiger:reviewed" v="no"/>
    <tag k="tiger:separated" v="no"/>
    <tag k="tiger:source" v="tiger_import_dch_v0.6_20070828"/>
    <tag k="tiger:tlid" v="201329498:201329494:201329495:201329488:201343104:201343105"/>
  </way>
  <way id="38044914" version="3" timestamp="2010-04-03T17:13:54Z" uid="20587" user="balrog-kun" changeset="4313610">
    <nd ref="142883685"/>
    <nd ref="142854137"/>
    <nd ref="142854064"/>
    <nd ref="142883689"/>
    <nd ref="142883693"/>
    <nd ref="142850202"/>
    <tag k="highway" v="residential"/>
    <tag k="name" v="Hopi Road Northeast"/>
    <tag k="tiger:cfcc" v="A41"/>
    <tag k="tiger:county" v="Luna, NM"/>
    <tag k="tiger:name_base" v="Hopi"/>
    <tag k="tiger:name_direction_suffix" v="NE"/>
    <tag k="tiger:name_type" v="Rd"/>
    <tag k="tiger:reviewed" v="no"/>
    <tag k="tiger:separated" v="no"/>
    <tag k="tiger:source" v="tiger_import_dch_v0.6_20070828"/>
    <tag k="tiger:tlid" v="201329472:201343102:201329478:201329479:201341074:201343103:201329474:201329482:201340512"/>
  </way>
  <way id="38044929" version="3" timestamp="2010-04-03T17:13:55Z" uid="20587" user="balrog-kun" changeset="4313610">
    <nd ref="142883578"/>
    <nd ref="142854068"/>
    <nd ref="142883581"/>
    <nd ref="142850205"/>
    <tag k="highway" v="residential"/>
    <tag k="name" v="Guaymas Road Northeast"/>
    <tag k="tiger:cfcc" v="A41"/>
    <tag k="tiger:county" v="Luna, NM"/>
    <tag k="tiger:name_base" v="Guaymas"/>
    <tag k="tiger:name_direction_suffix" v="NE"/>
    <tag k="tiger:name_type" v="Rd"/>
    <tag k="tiger:reviewed" v="no"/>
    <tag k="tiger:separated" v="no"/>
    <tag k="tiger:source" v="tiger_import_dch_v0.6_20070828"/>
    <tag k="tiger:tlid" v="201329461:201329462:201343100:201329465:201329467:201343101"/>
  </way>
  <way id="38044929" version="4" timestamp="2012-03-01T19:51:34Z" uid="239998" user="Sundance" changeset="10841545">
    <nd ref="142883578"/>
    <nd ref="142854068"/>
    <nd ref="142883581"/>
    <nd ref="142850205"/>
    <tag k="highway" v="track"/>
    <tag k="is_in" v="Luna, NM"/>
    <tag k="name" v="Guaymas Road Northeast"/>
    <tag k="tiger:source" v="tiger_import_dch_v0.6_20070828"/>
    <tag k="tiger:tlid" v="201329461:201329462:201343100:201329465:201329467:201343101"/>
  </way>
  <way id="38044932" version="3" timestamp="2010-04-03T17:13:55Z" uid="20587" user="balrog-kun" changeset="4313610">
    <nd ref="142887831"/>
    <nd ref="142854072"/>
    <nd ref="142887835"/>
    <nd ref="142850208"/>
    <tag k="highway" v="residential"/>
    <tag k="name" v="Espejo Road Northeast"/>
    <tag k="tiger:cfcc" v="A41"/>
    <tag k="tiger:county" v="Luna, NM"/>
    <tag k="tiger:name_base" v="Espejo"/>
    <tag k="tiger:name_direction_suffix" v="NE"/>
    <tag k="tiger:name_type" v="Rd"/>
    <tag k="tiger:reviewed" v="no"/>
    <tag k="tiger:separated" v="no"/>
    <tag k="tiger:source" v="tiger_import_dch_v0.6_20070828"/>
    <tag k="tiger:tlid" v="201329451:201329448:201343098:201329452:201329455:201343099"/>
  </way>
  <way id="38044932" version="4" timestamp="2012-03-01T19:51:34Z" uid="239998" user="Sundance" changeset="10841545">
    <nd ref="142887831"/>
    <nd ref="142854072"/>
    <nd ref="142887835"/>
    <nd ref="142850208"/>
    <tag k="highway" v="track"/>
    <tag k="is_in" v="Luna, NM"/>
    <tag k="name" v="Espejo Road Northeast"/>
    <tag k="tiger:source" v="tiger_import_dch_v0.6_20070828"/>
    <tag k="tiger:tlid" v="201329451:201329448:201343098:201329452:201329455:201343099"/>
  </way>
  <way id="38044935" version="2" timestamp="2010-04-03T17:13:55Z" uid="20587" user="balrog-kun" changeset="4313610">
    <nd ref="142854078"/>
    <nd ref="142866154"/>
    <nd ref="142854151"/>
    <nd ref="142806314"/>
    <nd ref="142866156"/>
    <nd ref="142789845"/>
    <tag k="highway" v="residential"/>
    <tag k="name" v="Solindo Road Northeast"/>
    <tag k="tiger:cfcc" v="A41"/>
    <tag k="tiger:county" v="Luna, NM"/>
    <tag k="tiger:name_base" v="Solindo"/>
    <tag k="tiger:name_direction_suffix" v="NE"/>
    <tag k="tiger:name_type" v="Rd"/>
    <tag k="tiger:reviewed" v="no"/>
    <tag k="tiger:separated" v="no"/>
    <tag k="tiger:source" v="tiger_import_dch_v0.6_20070828"/>
    <tag k="tiger:tlid" v="201329442:201329830:201343096:201329436:201329441:201343097"/>
  </way>
  <way id="38044937" version="3" timestamp="2010-04-03T17:13:55Z" uid="20587" user="balrog-kun" changeset="4313610">
    <nd ref="142896219"/>
    <nd ref="142850217"/>
    <tag k="highway" v="residential"/>
    <tag k="name" v="Decanso Road Northeast"/>
    <tag k="tiger:cfcc" v="A41"/>
    <tag k="tiger:county" v="Luna, NM"/>
    <tag k="tiger:name_base" v="Decanso"/>
    <tag k="tiger:name_direction_suffix" v="NE"/>
    <tag k="tiger:name_type" v="Rd"/>
    <tag k="tiger:reviewed" v="no"/>
    <tag k="tiger:separated" v="no"/>
    <tag k="tiger:source" v="tiger_import_dch_v0.6_20070828"/>
    <tag k="tiger:tlid" v="201329428:201329833:201343092:201343094"/>
  </way>
  <way id="38044937" version="4" timestamp="2012-03-01T19:51:35Z" uid="239998" user="Sundance" changeset="10841545">
    <nd ref="142896219"/>
    <nd ref="142850217"/>
    <tag k="highway" v="track"/>
    <tag k="is)in" v="Luna, NM"/>
    <tag k="name" v="Decanso Road Northeast"/>
    <tag k="tiger:source" v="tiger_import_dch_v0.6_20070828"/>
    <tag k="tiger:tlid" v="201329428:201329833:201343092:201343094"/>
  </way>
  <way id="38044942" version="1" timestamp="2009-07-24T16:00:28Z" uid="20587" user="balrog-kun" changeset="1926660">
    <nd ref="447084659"/>
    <nd ref="447084660"/>
    <nd ref="447084661"/>
    <tag k="highway" v="pedestrian"/>
    <tag k="name" v="Plazoleta Carrasco"/>
  </way>
  <way id="38044942" version="2" timestamp="2011-06-14T08:41:22Z" uid="86194" user="Jonay" changeset="8434833">
    <nd ref="447084659"/>
    <nd ref="447084660"/>
    <nd ref="447084661"/>
    <tag k="foot" v="yes"/>
    <tag k="highway" v="pedestrian"/>
    <tag k="motor_vehicle" v="no"/>
    <tag k="name" v="Plazoleta de Cairasco"/>
    <tag k="note" v="NOT &quot;Carrasco&quot;, it is &quot;Plazoleta de Cairasco&quot;"/>
    <tag k="source" v="Survey"/>
  </way>
  <way id="38044943" version="1" timestamp="2009-07-24T16:00:28Z" uid="20587" user="balrog-kun" changeset="1926660">
    <nd ref="370582206"/>
    <nd ref="370582208"/>
    <tag k="highway" v="residential"/>
    <tag k="name" v="Calle de San Francisco"/>
  </way>
  <way id="38044943" version="2" timestamp="2009-12-06T23:16:49Z" uid="86194" user="Jonay" changeset="3311256">
    <nd ref="370582206"/>
    <nd ref="370582208"/>
    <tag k="highway" v="residential"/>
    <tag k="name" v="Calle de San Francisco"/>
    <tag k="oneway" v="yes"/>
  </way>
  <way id="38044943" version="3" timestamp="2011-12-20T20:56:18Z" uid="86194" user="Jonay" changeset="10166958"/>
  <way id="38044945" version="1" timestamp="2009-07-24T16:00:28Z" uid="20587" user="balrog-kun" changeset="1926660">
    <nd ref="447084662"/>
    <nd ref="447084663"/>
    <tag k="highway" v="residential"/>
    <tag k="note" v="TODO: name"/>
  </way>
  <way id="38044947" version="1" timestamp="2009-07-24T16:00:28Z" uid="20587" user="balrog-kun" changeset="1926660">
    <nd ref="447084664"/>
    <nd ref="447084663"/>
    <nd ref="447084665"/>
    <tag k="highway" v="residential"/>
    <tag k="name" v="Calle San Justo"/>
  </way>
  <way id="38044949" version="1" timestamp="2009-07-24T16:00:28Z" uid="20587" user="balrog-kun" changeset="1926660">
    <nd ref="447084667"/>
    <nd ref="447084676"/>
    <nd ref="447084674"/>
    <tag k="highway" v="residential"/>
    <tag k="name" v="Calle de Manindra"/>
  </way>
  <way id="38044949" version="2" timestamp="2011-01-25T12:35:57Z" uid="147383" user="Eric Dantie" changeset="7083173">
    <nd ref="447084674"/>
    <nd ref="447084676"/>
    <nd ref="447084667"/>
    <tag k="highway" v="residential"/>
    <tag k="name" v="Calle de Manindra"/>
    <tag k="oneway" v="yes"/>
  </way>
  <way id="38044949" version="3" timestamp="2011-12-20T20:56:17Z" uid="86194" user="Jonay" changeset="10166958">
    <nd ref="447084674"/>
    <nd ref="447084676"/>
    <tag k="highway" v="residential"/>
    <tag k="name" v="Calle de Manindra"/>
    <tag k="oneway" v="yes"/>
  </way>
  <way id="38044950" version="1" timestamp="2009-07-24T16:00:28Z" uid="20587" user="balrog-kun" changeset="1926660">
    <nd ref="447084676"/>
    <nd ref="447084678"/>
    <tag k="highway" v="residential"/>
    <tag k="name" v="Calle del Doctor Juan de Padilla"/>
  </way>
  <way id="38044950" version="2" timestamp="2011-01-25T12:35:58Z" uid="147383" user="Eric Dantie" changeset="7083173">
    <nd ref="447084676"/>
    <nd ref="447084678"/>
    <tag k="highway" v="residential"/>
    <tag k="name" v="Calle del Doctor Juan de Padilla"/>
    <tag k="oneway" v="yes"/>
  </way>
  <way id="38044950" version="3" timestamp="2011-12-20T20:56:13Z" uid="86194" user="Jonay" changeset="10166958">
    <nd ref="447084676"/>
    <nd ref="332416479"/>
    <tag k="highway" v="residential"/>
    <tag k="name" v="Calle del Doctor Juan de Padilla"/>
    <tag k="oneway" v="yes"/>
  </way>
  <way id="38044950" version="4" timestamp="2011-12-20T23:36:04Z" uid="86194" user="Jonay" changeset="10168093">
    <nd ref="447084676"/>
    <nd ref="1556414656"/>
    <nd ref="332416479"/>
    <tag k="highway" v="residential"/>
    <tag k="name" v="Calle del Doctor Juan de Padilla"/>
    <tag k="oneway" v="yes"/>
  </way>
  <way id="38044951" version="1" timestamp="2009-07-24T16:00:28Z" uid="20587" user="balrog-kun" changeset="1926660">
    <nd ref="447084680"/>
    <nd ref="447084681"/>
    <tag k="highway" v="residential"/>
    <tag k="name" v="Calle Luna"/>
  </way>
  <way id="38044951" version="2" timestamp="2009-09-28T14:29:18Z" uid="86194" user="Jonay" changeset="2665431">
    <nd ref="447084680"/>
    <nd ref="447084681"/>
    <tag k="highway" v="residential"/>
    <tag k="name" v="Calle Luna"/>
    <tag k="oneway" v="yes"/>
  </way>
  <way id="38044951" version="3" timestamp="2011-12-20T20:56:17Z" uid="86194" user="Jonay" changeset="10166958"/>
  <way id="38044954" version="1" timestamp="2009-07-24T16:00:28Z" uid="20587" user="balrog-kun" changeset="1926660">
    <nd ref="447084683"/>
    <nd ref="447084685"/>
    <tag k="highway" v="residential"/>
    <tag k="name" v="Calle Travieso"/>
  </way>
  <way id="38044954" version="2" timestamp="2011-01-25T19:37:51Z" uid="147383" user="Eric Dantie" changeset="7086683">
    <nd ref="447084683"/>
    <nd ref="447084685"/>
    <tag k="highway" v="pedestrian"/>
    <tag k="name" v="Calle Travieso"/>
  </way>
  <way id="38044956" version="1" timestamp="2009-07-24T16:00:29Z" uid="20587" user="balrog-kun" changeset="1926660">
    <nd ref="447084685"/>
    <nd ref="447084692"/>
    <tag k="highway" v="pedestrian"/>
    <tag k="name" v="Calle Travieso"/>
  </way>
  <way id="38044958" version="1" timestamp="2009-07-24T16:00:29Z" uid="20587" user="balrog-kun" changeset="1926660">
    <nd ref="447084694"/>
    <nd ref="447084697"/>
    <tag k="highway" v="residential"/>
    <tag k="name" v="Calle Villavicenod"/>
    <tag k="note" v="TODO: name"/>
  </way>
  <way id="38044958" version="2" timestamp="2009-09-09T06:21:54Z" uid="40397" user="Zartbitter" changeset="2421716">
    <nd ref="447084694"/>
    <nd ref="447084697"/>
    <tag k="highway" v="residential"/>
    <tag k="name" v="Calle Villavicencio"/>
  </way>
  <way id="38044958" version="3" timestamp="2011-01-25T19:37:51Z" uid="147383" user="Eric Dantie" changeset="7086683">
    <nd ref="447084694"/>
    <nd ref="447084697"/>
    <tag k="highway" v="pedestrian"/>
    <tag k="name" v="Calle Villavicencio"/>
  </way>
  <way id="38044961" version="1" timestamp="2009-07-24T16:00:29Z" uid="20587" user="balrog-kun" changeset="1926660">
    <nd ref="447084699"/>
    <nd ref="447084702"/>
    <tag k="highway" v="pedestrian"/>
    <tag k="name" v="Calle Arena"/>
  </way>
  <way id="38044962" version="1" timestamp="2009-07-24T16:00:29Z" uid="20587" user="balrog-kun" changeset="1926660">
    <nd ref="447084707"/>
    <nd ref="447084704"/>
    <nd ref="447084706"/>
    <nd ref="442370881"/>
    <tag k="highway" v="pedestrian"/>
    <tag k="name" v="Calle Constantino"/>
  </way>
  <way id="38044962" version="2" timestamp="2011-12-20T20:56:15Z" uid="86194" user="Jonay" changeset="10166958">
    <nd ref="447084707"/>
    <nd ref="447084704"/>
    <nd ref="447084706"/>
    <tag k="highway" v="pedestrian"/>
    <tag k="name" v="Calle Constantino"/>
  </way>
  <way id="38044963" version="1" timestamp="2009-07-24T16:00:29Z" uid="20587" user="balrog-kun" changeset="1926660">
    <nd ref="447084714"/>
    <nd ref="447084718"/>
    <tag k="highway" v="service"/>
  </way>
  <way id="38044964" version="1" timestamp="2009-07-24T16:00:29Z" uid="20587" user="balrog-kun" changeset="1926660">
    <nd ref="447084721"/>
    <nd ref="337258952"/>
    <tag k="highway" v="residential"/>
    <tag k="name" v="Calle Perdomo"/>
  </way>
  <way id="38044964" version="2" timestamp="2009-12-24T11:42:54Z" uid="86194" user="Jonay" changeset="3441487">
    <nd ref="447084721"/>
    <nd ref="337258952"/>
    <tag k="highway" v="residential"/>
    <tag k="name" v="Calle Perdomo"/>
    <tag k="oneway" v="yes"/>
  </way>
  <way id="38044964" version="3" timestamp="2011-12-20T23:36:03Z" uid="86194" user="Jonay" changeset="10168093">
    <nd ref="1556414610"/>
    <nd ref="1556414674"/>
    <nd ref="1556414645"/>
    <nd ref="447084721"/>
    <nd ref="337258952"/>
    <tag k="highway" v="residential"/>
    <tag k="name" v="Calle Perdomo"/>
    <tag k="oneway" v="yes"/>
  </way>
  <way id="38044965" version="1" timestamp="2009-07-24T16:00:29Z" uid="20587" user="balrog-kun" changeset="1926660">
    <nd ref="439213084"/>
    <nd ref="436673214"/>
    <nd ref="332416447"/>
    <nd ref="341158915"/>
    <tag k="highway" v="residential"/>
    <tag k="name" v="Calle Domingo J. Navarro"/>
  </way>
  <way id="38044965" version="2" timestamp="2010-03-02T21:23:31Z" uid="86194" user="Jonay" changeset="4020379">
    <nd ref="341158915"/>
    <nd ref="332416447"/>
    <nd ref="436673214"/>
    <nd ref="439213084"/>
    <tag k="highway" v="residential"/>
    <tag k="lanes" v="1"/>
    <tag k="name" v="Calle Domingo J. Navarro"/>
    <tag k="oneway" v="yes"/>
  </way>
  <way id="38044965" version="3" timestamp="2011-12-20T20:56:13Z" uid="86194" user="Jonay" changeset="10166958">
    <nd ref="332416447"/>
    <nd ref="436673214"/>
    <nd ref="439213084"/>
    <tag k="highway" v="residential"/>
    <tag k="lanes" v="1"/>
    <tag k="name" v="Calle Domingo J. Navarro"/>
    <tag k="oneway" v="yes"/>
  </way>
  <way id="38044966" version="1" timestamp="2009-07-24T16:00:29Z" uid="20587" user="balrog-kun" changeset="1926660">
    <nd ref="447084742"/>
    <nd ref="447084744"/>
    <tag k="highway" v="residential"/>
    <tag k="name" v="Calle Eduardo"/>
  </way>
  <way id="38044966" version="2" timestamp="2009-09-17T16:05:47Z" uid="86194" user="Jonay" changeset="2513813">
    <nd ref="447084744"/>
    <nd ref="447084742"/>
    <tag k="highway" v="residential"/>
    <tag k="name" v="Calle Eduardo"/>
    <tag k="oneway" v="yes"/>
  </way>
  <way id="38044967" version="1" timestamp="2009-07-24T16:00:30Z" uid="20587" user="balrog-kun" changeset="1926660">
    <nd ref="447084749"/>
    <nd ref="447084752"/>
    <nd ref="447084759"/>
    <nd ref="447084761"/>
    <nd ref="447084749"/>
    <tag k="landuse" v="retail"/>
    <tag k="name" v="Mercado General"/>
  </way>
  <way id="38044967" version="2" timestamp="2009-09-14T11:08:28Z" uid="86194" user="Jonay" changeset="2480604">
    <nd ref="447084749"/>
    <nd ref="447084752"/>
    <nd ref="447084759"/>
    <nd ref="447084761"/>
    <nd ref="447084749"/>
    <tag k="landuse" v="retail"/>
    <tag k="name" v="Mercado Central"/>
  </way>
  <way id="38044968" version="1" timestamp="2009-07-24T16:00:30Z" uid="20587" user="balrog-kun" changeset="1926660">
    <nd ref="447084763"/>
    <nd ref="447084765"/>
    <tag k="highway" v="residential"/>
    <tag k="name" v="Calle de Humo"/>
    <tag k="note" v="TODO: name"/>
  </way>
  <way id="38044969" version="1" timestamp="2009-07-24T16:00:30Z" uid="20587" user="balrog-kun" changeset="1926660">
    <nd ref="447084772"/>
    <nd ref="447084778"/>
    <nd ref="447084780"/>
    <nd ref="447084782"/>
    <nd ref="447084772"/>
    <tag k="building" v="hall"/>
    <tag k="name" v="FundaciÃ³n de Alejandro Hidalgo y Romero"/>
  </way>
  <way id="38044970" version="1" timestamp="2009-07-24T16:00:30Z" uid="20587" user="balrog-kun" changeset="1926660">
    <nd ref="319674589"/>
    <nd ref="447084808"/>
    <tag k="highway" v="pedestrian"/>
    <tag k="name" v="Calle de La Caleta"/>
  </way>
  <way id="38044971" version="1" timestamp="2009-07-24T16:00:30Z" uid="20587" user="balrog-kun" changeset="1926660">
    <nd ref="335690930"/>
    <nd ref="447084970"/>
    <nd ref="337288020"/>
    <nd ref="337288019"/>
    <nd ref="447084810"/>
    <tag k="highway" v="residential"/>
    <tag k="name" v="Calle de Vasco de Gama"/>
  </way>
  <way id="38044972" version="1" timestamp="2009-07-24T16:00:30Z" uid="20587" user="balrog-kun" changeset="1926660">
    <nd ref="447084813"/>
    <nd ref="447084815"/>
    <nd ref="335691995"/>
    <nd ref="447084819"/>
    <nd ref="447084836"/>
    <nd ref="447084816"/>
    <nd ref="319674559"/>
    <tag k="highway" v="residential"/>
    <tag k="name" v="Calle Gamonal"/>
  </way>
  <way id="38044973" version="1" timestamp="2009-07-24T16:00:30Z" uid="20587" user="balrog-kun" changeset="1926660">
    <nd ref="319674571"/>
    <nd ref="447084846"/>
    <nd ref="447084853"/>
    <nd ref="447084819"/>
    <nd ref="447084825"/>
    <tag k="highway" v="residential"/>
    <tag k="name" v="Calle de Valsendero"/>
  </way>
  <way id="38044974" version="1" timestamp="2009-07-24T16:00:31Z" uid="20587" user="balrog-kun" changeset="1926660">
    <nd ref="447084833"/>
    <nd ref="447084836"/>
    <tag k="highway" v="residential"/>
  </way>
  <way id="38044975" version="1" timestamp="2009-07-24T16:00:31Z" uid="20587" user="balrog-kun" changeset="1926660">
    <nd ref="447084827"/>
    <nd ref="447084828"/>
    <nd ref="447084830"/>
    <nd ref="447084825"/>
    <nd ref="447084833"/>
    <tag k="highway" v="living_street"/>
    <tag k="name" v="Calle Gamonal"/>
  </way>
  <way id="38044976" version="1" timestamp="2009-07-24T16:00:31Z" uid="20587" user="balrog-kun" changeset="1926660">
    <nd ref="447084844"/>
    <nd ref="447084846"/>
    <nd ref="447084848"/>
    <tag k="highway" v="residential"/>
    <tag k="name" v="Calle de Timagan"/>
  </way>
  <way id="38044977" version="1" timestamp="2009-07-24T16:00:31Z" uid="20587" user="balrog-kun" changeset="1926660">
    <nd ref="319674751"/>
    <nd ref="337286840"/>
    <nd ref="432719315"/>
    <nd ref="447084838"/>
    <nd ref="319674751"/>
    <tag k="area" v="yes"/>
    <tag k="highway" v="pedestrian"/>
    <tag k="name" v="Plaza del Pueblo"/>
  </way>
  <way id="38044978" version="1" timestamp="2009-07-24T16:00:31Z" uid="20587" user="balrog-kun" changeset="1926660">
    <nd ref="447084851"/>
    <nd ref="447084853"/>
    <nd ref="447084855"/>
    <tag k="highway" v="residential"/>
    <tag k="name" v="Calle de Aguatona"/>
  </way>
  <way id="38044980" version="1" timestamp="2009-07-24T16:00:31Z" uid="20587" user="balrog-kun" changeset="1926660">
    <nd ref="447084858"/>
    <nd ref="447084870"/>
    <nd ref="447084867"/>
    <tag k="highway" v="pedestrian"/>
  </way>
  <way id="38044981" version="1" timestamp="2009-07-24T16:00:31Z" uid="20587" user="balrog-kun" changeset="1926660">
    <nd ref="319674546"/>
    <nd ref="447084879"/>
    <nd ref="447084870"/>
    <tag k="highway" v="pedestrian"/>
  </way>
  <way id="38044982" version="1" timestamp="2009-07-24T16:00:31Z" uid="20587" user="balrog-kun" changeset="1926660">
    <nd ref="319674740"/>
    <nd ref="447084873"/>
    <nd ref="447084876"/>
    <nd ref="447084879"/>
    <nd ref="447084881"/>
    <tag k="highway" v="residential"/>
    <tag k="name" v="Calle de Blas de Lezo"/>
  </way>
  <way id="38044983" version="1" timestamp="2009-07-24T16:00:32Z" uid="20587" user="balrog-kun" changeset="1926660">
    <nd ref="319674545"/>
    <nd ref="319674546"/>
    <nd ref="319674547"/>
    <nd ref="319674548"/>
    <nd ref="319674549"/>
    <nd ref="319674550"/>
    <nd ref="319674551"/>
    <nd ref="319674552"/>
    <nd ref="447084881"/>
    <nd ref="319674553"/>
    <nd ref="319674554"/>
    <nd ref="319674555"/>
    <nd ref="447084867"/>
    <nd ref="319674556"/>
    <nd ref="319674557"/>
    <nd ref="319674558"/>
    <nd ref="319674559"/>
    <nd ref="319674560"/>
    <nd ref="319674561"/>
    <nd ref="319674562"/>
    <nd ref="319674563"/>
    <nd ref="319674564"/>
    <nd ref="319674565"/>
    <nd ref="338286294"/>
    <nd ref="319674567"/>
    <nd ref="319674568"/>
    <nd ref="447084848"/>
    <nd ref="319674569"/>
    <nd ref="319674570"/>
    <nd ref="319674571"/>
    <nd ref="319674572"/>
    <nd ref="319674573"/>
    <nd ref="319674574"/>
    <nd ref="319674575"/>
    <nd ref="319674576"/>
    <nd ref="319674577"/>
    <nd ref="319674578"/>
    <nd ref="319674585"/>
    <nd ref="319674586"/>
    <nd ref="447084810"/>
    <nd ref="319674587"/>
    <nd ref="319674588"/>
    <nd ref="319674589"/>
    <tag k="highway" v="pedestrian"/>
  </way>
  <way id="38044984" version="1" timestamp="2009-07-24T16:00:32Z" uid="20587" user="balrog-kun" changeset="1926660">
    <nd ref="447084884"/>
    <nd ref="447084887"/>
    <tag k="highway" v="residential"/>
  </way>
  <way id="38044985" version="1" timestamp="2009-07-24T16:00:32Z" uid="20587" user="balrog-kun" changeset="1926660">
    <nd ref="338286897"/>
    <nd ref="319674533"/>
    <nd ref="338286843"/>
    <nd ref="319674736"/>
    <nd ref="319674535"/>
    <nd ref="338286293"/>
    <nd ref="319674539"/>
    <nd ref="319674538"/>
    <tag k="highway" v="residential"/>
    <tag k="name" v="Calle del Coronel Rocha"/>
  </way>
  <way id="38044985" version="2" timestamp="2009-07-24T21:58:39Z" uid="20587" user="balrog-kun" changeset="1929748">
    <nd ref="338286897"/>
    <nd ref="319674533"/>
    <nd ref="338286843"/>
    <nd ref="319674736"/>
    <nd ref="319674535"/>
    <nd ref="338286293"/>
    <nd ref="319674539"/>
    <nd ref="319674538"/>
    <tag k="highway" v="tertiary"/>
    <tag k="name" v="Calle del Coronel Rocha"/>
  </way>
  <way id="38044986" version="1" timestamp="2009-07-24T16:00:32Z" uid="20587" user="balrog-kun" changeset="1926660">
    <nd ref="447084887"/>
    <nd ref="319674545"/>
    <nd ref="319674543"/>
    <nd ref="319674539"/>
    <tag k="highway" v="residential"/>
    <tag k="name" v="Calle de Los Hermanos Jorge Marrero"/>
  </way>
  <way id="38044987" version="1" timestamp="2009-07-24T16:00:33Z" uid="20587" user="balrog-kun" changeset="1926660">
    <nd ref="447084898"/>
    <nd ref="447084901"/>
    <nd ref="447084910"/>
    <nd ref="338285999"/>
    <nd ref="337286263"/>
    <nd ref="338287039"/>
    <nd ref="338285921"/>
    <nd ref="447084903"/>
    <nd ref="447084906"/>
    <tag k="highway" v="residential"/>
    <tag k="name" v="Calle de Tinguaro"/>
    <tag k="oneway" v="yes"/>
  </way>
  <way id="38044987" version="2" timestamp="2009-07-24T21:58:39Z" uid="20587" user="balrog-kun" changeset="1929748">
    <nd ref="447084898"/>
    <nd ref="447084901"/>
    <nd ref="447084910"/>
    <nd ref="338285999"/>
    <nd ref="337286263"/>
    <nd ref="338287039"/>
    <nd ref="447581016"/>
    <nd ref="338285921"/>
    <nd ref="447084903"/>
    <nd ref="447084906"/>
    <tag k="highway" v="residential"/>
    <tag k="name" v="Calle de Tinguaro"/>
    <tag k="oneway" v="yes"/>
  </way>
  <way id="38044988" version="1" timestamp="2009-07-24T16:00:33Z" uid="20587" user="balrog-kun" changeset="1926660">
    <nd ref="447084923"/>
    <nd ref="447084926"/>
    <tag k="highway" v="service"/>
    <tag k="name" v="Calle de Magallanes"/>
  </way>
  <way id="38044989" version="1" timestamp="2009-07-24T16:00:33Z" uid="20587" user="balrog-kun" changeset="1926660">
    <nd ref="447084930"/>
    <nd ref="335690948"/>
    <nd ref="447084933"/>
    <tag k="highway" v="residential"/>
  </way>
  <way id="38044990" version="1" timestamp="2009-07-24T16:00:33Z" uid="20587" user="balrog-kun" changeset="1926660">
    <nd ref="447084910"/>
    <nd ref="447084933"/>
    <nd ref="335690948"/>
    <nd ref="447084930"/>
    <nd ref="338285999"/>
    <nd ref="447084910"/>
    <tag k="leisure" v="common"/>
  </way>
  <way id="38044991" version="1" timestamp="2009-07-24T16:00:33Z" uid="20587" user="balrog-kun" changeset="1926660">
    <nd ref="447084930"/>
    <nd ref="447084937"/>
    <tag k="highway" v="residential"/>
  </way>
  <way id="38044992" version="1" timestamp="2009-07-24T16:00:33Z" uid="20587" user="balrog-kun" changeset="1926660">
    <nd ref="447084940"/>
    <nd ref="447084944"/>
    <nd ref="447084963"/>
    <tag k="highway" v="residential"/>
    <tag k="name" v="Calle de Tajaraste"/>
  </way>
  <way id="38044993" version="1" timestamp="2009-07-24T16:00:34Z" uid="20587" user="balrog-kun" changeset="1926660">
    <nd ref="438825078"/>
    <nd ref="447084967"/>
    <nd ref="447084970"/>
    <tag k="highway" v="residential"/>
    <tag k="name" v="Calle de Garita"/>
  </way>
  <way id="38044994" version="1" timestamp="2009-07-24T16:00:34Z" uid="20587" user="balrog-kun" changeset="1926660">
    <nd ref="319142462"/>
    <nd ref="319142918"/>
    <nd ref="319144049"/>
    <nd ref="435577696"/>
    <nd ref="319144180"/>
    <nd ref="319143432"/>
    <nd ref="319143433"/>
    <nd ref="319143720"/>
    <nd ref="319674757"/>
    <nd ref="319143435"/>
    <tag k="highway" v="tertiary"/>
    <tag k="name" v="Calle de Albareda"/>
    <tag k="oneway" v="yes"/>
  </way>
  <way id="38044994" version="2" timestamp="2010-02-15T01:28:40Z" uid="38239" user="Daeron" changeset="3879931">
    <nd ref="319142462"/>
    <nd ref="319142918"/>
    <nd ref="319144049"/>
    <nd ref="435646801"/>
    <nd ref="319144180"/>
    <nd ref="319143432"/>
    <nd ref="319143433"/>
    <nd ref="319143720"/>
    <nd ref="319674757"/>
    <nd ref="319143435"/>
    <tag k="highway" v="tertiary"/>
    <tag k="name" v="Calle de Albareda"/>
    <tag k="oneway" v="yes"/>
  </way>
</osm>
