<?xml version='1.0' encoding='UTF-8'?>
<osm version="0.6" generator="libosmium/2.20.0">
  <way id="38078417" version="2" timestamp="2011-06-09T06:25:53Z" uid="9581" user="Lobelt" changeset="8385496">
    <nd ref="447864990"/>
    <nd ref="274214508"/>
    <nd ref="274214511"/>
    <nd ref="274214512"/>
    <nd ref="274214518"/>
    <nd ref="274214521"/>
    <nd ref="274214522"/>
    <nd ref="274214524"/>
    <nd ref="274214526"/>
    <nd ref="274214530"/>
    <nd ref="274214532"/>
    <nd ref="274214534"/>
    <nd ref="274214536"/>
    <nd ref="274214537"/>
    <nd ref="274214540"/>
    <nd ref="274214541"/>
    <nd ref="274214544"/>
    <nd ref="274214545"/>
    <nd ref="274214548"/>
    <nd ref="274214549"/>
    <nd ref="274214552"/>
    <nd ref="274214553"/>
    <nd ref="274214557"/>
    <nd ref="274214559"/>
    <nd ref="274214561"/>
    <nd ref="274214563"/>
    <nd ref="274214565"/>
    <nd ref="274214567"/>
    <nd ref="274214568"/>
    <nd ref="274214571"/>
    <nd ref="274214572"/>
    <nd ref="269321023"/>
    <tag k="name" v="Oehrenbach"/>
    <tag k="waterway" v="stream"/>
  </way>
  <way id="38078417" version="3" timestamp="2011-07-27T20:27:47Z" uid="47051" user="ttobi" changeset="8848941">
    <nd ref="447864990"/>
    <nd ref="274214508"/>
    <nd ref="274214511"/>
    <nd ref="274214512"/>
    <nd ref="274214518"/>
    <nd ref="274214521"/>
    <nd ref="274214522"/>
    <nd ref="274214524"/>
    <nd ref="274214526"/>
    <nd ref="274214530"/>
    <nd ref="274214532"/>
    <nd ref="274214534"/>
    <nd ref="274214536"/>
    <nd ref="274214537"/>
    <nd ref="274214540"/>
    <nd ref="274214541"/>
    <nd ref="274214544"/>
    <nd ref="274214545"/>
    <nd ref="274214548"/>
    <nd ref="274214549"/>
    <nd ref="1376195060"/>
    <tag k="name" v="Oehrenbach"/>
    <tag k="waterway" v="stream"/>
  </way>
  <way id="38078571" version="2" timestamp="2009-07-26T01:43:19Z" uid="18775" user="drlizau" changeset="1939957">
    <nd ref="447866675"/>
    <nd ref="447866676"/>
    <tag k="name" v="Familja Murati"/>
    <tag k="note" v="Edmond Murati Residenc"/>
  </way>
  <way id="38078571" version="3" timestamp="2009-07-27T21:50:35Z" uid="149694" user="Edmond Murati" changeset="1960210">
    <nd ref="447866675"/>
    <nd ref="447866676"/>
    <tag k="highway" v="residential"/>
    <tag k="name" v="Rruga e Malisheves"/>
    <tag k="note" v="Edmond Murati Residenc"/>
  </way>
  <way id="38078624" version="2" timestamp="2010-06-29T19:06:36Z" uid="74617" user="JohnSmith" changeset="5108182">
    <nd ref="447867135"/>
    <nd ref="447867136"/>
    <nd ref="447867137"/>
    <nd ref="447867138"/>
    <nd ref="447867139"/>
    <nd ref="447867140"/>
    <nd ref="447867141"/>
    <nd ref="447867142"/>
    <nd ref="447867143"/>
    <nd ref="447867135"/>
    <tag k="fixme" v="sport=football is ambiguous, see http://wiki.osm.org/wiki/Football for more details"/>
    <tag k="leisure" v="pitch"/>
    <tag k="name" v="Wilson&apos;s Field"/>
    <tag k="sport" v="football"/>
  </way>
  <way id="38078624" version="3" timestamp="2010-10-20T21:20:49Z" uid="61942" user="SomeoneElse" changeset="6120217">
    <nd ref="447867135"/>
    <nd ref="447867136"/>
    <nd ref="447867137"/>
    <nd ref="447867138"/>
    <nd ref="447867139"/>
    <nd ref="447867140"/>
    <nd ref="447867141"/>
    <nd ref="447867142"/>
    <nd ref="447867143"/>
    <nd ref="447867135"/>
    <tag k="landuse" v="recreation_ground"/>
    <tag k="name" v="Wilson&apos;s Field"/>
    <tag k="sport" v="football"/>
  </way>
  <way id="38078624" version="4" timestamp="2011-12-22T19:07:49Z" uid="61942" user="SomeoneElse" changeset="10182147"/>
  <way id="38078861" version="1" timestamp="2009-07-25T15:25:58Z" uid="64977" user="CLoeser" changeset="1935382">
    <nd ref="447869110"/>
    <nd ref="447869111"/>
    <nd ref="447869112"/>
    <nd ref="447869113"/>
    <nd ref="447869114"/>
    <nd ref="447869115"/>
    <nd ref="447869110"/>
    <tag k="name" v="Hafen Heiligenstedten"/>
    <tag k="natural" v="water"/>
  </way>
  <way id="38078861" version="2" timestamp="2009-07-26T15:01:21Z" uid="64977" user="CLoeser" changeset="1945609">
    <nd ref="447869110"/>
    <nd ref="447869111"/>
    <nd ref="447869112"/>
    <nd ref="447869113"/>
    <nd ref="447869114"/>
    <nd ref="447869115"/>
    <nd ref="447869110"/>
    <tag k="area" v="yes"/>
    <tag k="name" v="Hafen Heiligenstedten der Seglervereinigung Itzehoe"/>
    <tag k="url" v="http://www.stoerschipper.de/"/>
    <tag k="waterway" v="dock"/>
  </way>
  <way id="38078861" version="3" timestamp="2011-06-03T16:22:44Z" uid="333740" user="chkr" changeset="8331058"/>
  <way id="38078863" version="1" timestamp="2009-07-25T15:26:00Z" uid="64977" user="CLoeser" changeset="1935382">
    <nd ref="447869116"/>
    <nd ref="447869117"/>
    <nd ref="447869118"/>
    <nd ref="447869119"/>
    <nd ref="447869120"/>
    <nd ref="447869121"/>
    <nd ref="447869122"/>
    <nd ref="447869123"/>
    <nd ref="447869124"/>
    <nd ref="447869125"/>
    <nd ref="447869126"/>
    <nd ref="447869127"/>
    <nd ref="447869128"/>
    <nd ref="447869116"/>
    <tag k="landuse" v="residential"/>
  </way>
  <way id="38078968" version="3" timestamp="2009-09-12T02:47:32Z" uid="36809" user="pfoten_weg_!_" changeset="2453290">
    <nd ref="447870227"/>
    <nd ref="447870228"/>
    <nd ref="447870229"/>
    <nd ref="447870230"/>
    <nd ref="262943719"/>
    <tag k="highway" v="residential"/>
    <tag k="name" v="Kleinmichlstrasse"/>
    <tag k="name:de" v="Kleinmichlstrasse"/>
    <tag k="name:it" v="Via Kleinmichl"/>
  </way>
  <way id="38078968" version="4" timestamp="2012-01-22T20:59:45Z" uid="144382" user="SHuehne" changeset="10469769"/>
  <way id="38078969" version="3" timestamp="2009-09-12T02:47:32Z" uid="36809" user="pfoten_weg_!_" changeset="2453290">
    <nd ref="447870231"/>
    <nd ref="447870232"/>
    <nd ref="447870233"/>
    <nd ref="447870234"/>
    <nd ref="262943719"/>
    <tag k="highway" v="residential"/>
    <tag k="name" v="Marinzenweg"/>
    <tag k="name:de" v="Marinzenweg"/>
    <tag k="name:it" v="Via Marinzen"/>
  </way>
  <way id="38078969" version="4" timestamp="2012-01-22T20:59:45Z" uid="144382" user="SHuehne" changeset="10469769"/>
  <way id="38078970" version="3" timestamp="2009-08-28T22:53:25Z" uid="36809" user="pfoten_weg_!_" changeset="2296048">
    <nd ref="447870235"/>
    <nd ref="447870236"/>
    <nd ref="447870237"/>
    <tag k="discovered_by" v="RambaZamba"/>
    <tag k="highway" v="residential"/>
    <tag k="name" v="Via Bullaccia"/>
    <tag k="name:de" v="Puflatchstraße"/>
  </way>
  <way id="38078970" version="4" timestamp="2009-08-28T23:07:56Z" uid="36809" user="pfoten_weg_!_" changeset="2296111">
    <nd ref="447870235"/>
    <nd ref="447870236"/>
    <nd ref="447870237"/>
    <tag k="discovered_by" v="RambaZamba"/>
    <tag k="highway" v="residential"/>
    <tag k="name" v="Via Bullaccia"/>
    <tag k="name:de" v="Puflatchstraße"/>
    <tag k="source" v="survey"/>
  </way>
  <way id="38078970" version="5" timestamp="2009-08-30T09:39:31Z" uid="156995" user="HampelZamba" changeset="2310659">
    <nd ref="447870235"/>
    <nd ref="447870236"/>
    <nd ref="447870237"/>
    <tag k="highway" v="residential"/>
    <tag k="name" v="Via Bullaccia"/>
    <tag k="name:de" v="Puflatchstraße"/>
    <tag k="source" v="survey"/>
  </way>
  <way id="38078970" version="6" timestamp="2009-08-30T10:02:31Z" uid="36809" user="pfoten_weg_!_" changeset="2311149">
    <nd ref="447870235"/>
    <nd ref="447870236"/>
    <nd ref="447870237"/>
    <tag k="discovered_by" v="RambaZamba"/>
    <tag k="highway" v="residential"/>
    <tag k="name" v="Via Bullaccia"/>
    <tag k="name:de" v="Puflatchstraße"/>
    <tag k="source" v="survey"/>
  </way>
  <way id="38078970" version="7" timestamp="2009-08-30T10:07:25Z" uid="156995" user="HampelZamba" changeset="2311254">
    <nd ref="447870235"/>
    <nd ref="447870236"/>
    <nd ref="447870237"/>
    <tag k="highway" v="residential"/>
    <tag k="name" v="Via Bullaccia"/>
    <tag k="name:de" v="Puflatchstraße"/>
    <tag k="source" v="survey"/>
  </way>
  <way id="38078970" version="8" timestamp="2009-08-30T10:20:13Z" uid="36809" user="pfoten_weg_!_" changeset="2311385">
    <nd ref="447870235"/>
    <nd ref="447870236"/>
    <nd ref="447870237"/>
    <tag k="highway" v="residential"/>
    <tag k="name" v="Via Bullaccia"/>
    <tag k="name:de" v="Puflatchstraße"/>
    <tag k="source" v="survey by RambaZamba"/>
  </way>
  <way id="38078970" version="9" timestamp="2009-08-30T10:21:16Z" uid="156995" user="HampelZamba" changeset="2311254">
    <nd ref="447870235"/>
    <nd ref="447870236"/>
    <nd ref="447870237"/>
    <tag k="highway" v="residential"/>
    <tag k="name" v="Via Bullaccia"/>
    <tag k="name:de" v="Puflatchstraße"/>
    <tag k="source" v="survey"/>
  </way>
  <way id="38078970" version="10" timestamp="2009-08-30T10:39:50Z" uid="36809" user="pfoten_weg_!_" changeset="2311615">
    <nd ref="447870235"/>
    <nd ref="447870236"/>
    <nd ref="447870237"/>
    <tag k="highway" v="residential"/>
    <tag k="name" v="Via Bullaccia"/>
    <tag k="name:de" v="Puflatchstraße"/>
    <tag k="source" v="survey"/>
  </way>
  <way id="38078970" version="11" timestamp="2009-08-30T15:46:27Z" uid="69238" user="my-STR" changeset="2314681">
    <nd ref="477535675"/>
    <nd ref="447870235"/>
    <nd ref="447870236"/>
    <nd ref="447870237"/>
    <tag k="highway" v="residential"/>
    <tag k="name" v="Via Bullaccia"/>
    <tag k="name:de" v="Puflatchstraße"/>
    <tag k="source" v="survey"/>
  </way>
  <way id="38078970" version="12" timestamp="2009-09-08T17:39:29Z" uid="109925" user="WanMil" changeset="2416744">
    <nd ref="477535675"/>
    <nd ref="447870235"/>
    <nd ref="447870236"/>
    <nd ref="447870237"/>
    <tag k="highway" v="residential"/>
    <tag k="name" v="Puflatschstrasse"/>
    <tag k="name:de" v="Puflatschstrasse"/>
    <tag k="name:it" v="Via Bullaccia"/>
    <tag k="source" v="survey"/>
  </way>
  <way id="38078970" version="13" timestamp="2009-09-12T02:47:30Z" uid="36809" user="pfoten_weg_!_" changeset="2453290">
    <nd ref="477535675"/>
    <nd ref="447870235"/>
    <nd ref="447870236"/>
    <nd ref="447870237"/>
    <tag k="highway" v="residential"/>
    <tag k="name" v="Puflatschstrasse"/>
    <tag k="name:de" v="Puflatschstrasse"/>
    <tag k="name:it" v="Via Bullaccia"/>
    <tag k="source" v="survey"/>
  </way>
  <way id="38078970" version="14" timestamp="2009-09-30T11:43:54Z" uid="36809" user="pfoten_weg_!_" changeset="2687353">
    <nd ref="477535675"/>
    <nd ref="447870235"/>
    <nd ref="447870236"/>
    <nd ref="447870237"/>
    <tag k="highway" v="residential"/>
    <tag k="name" v="Puflatschstrasse"/>
    <tag k="name:de" v="Puflatschstrasse"/>
    <tag k="name:it" v="Via Bullaccia"/>
  </way>
  <way id="38078970" version="15" timestamp="2012-01-22T20:59:45Z" uid="144382" user="SHuehne" changeset="10469769"/>
  <way id="38078971" version="5" timestamp="2009-09-12T02:47:30Z" uid="36809" user="pfoten_weg_!_" changeset="2453290">
    <nd ref="472152084"/>
    <nd ref="472152086"/>
    <nd ref="472152088"/>
    <nd ref="472152092"/>
    <nd ref="472150242"/>
    <nd ref="472152095"/>
    <nd ref="472152129"/>
    <nd ref="472152138"/>
    <nd ref="447870238"/>
    <nd ref="447870239"/>
    <nd ref="447870240"/>
    <nd ref="447870241"/>
    <nd ref="447870242"/>
    <nd ref="447870243"/>
    <nd ref="447870244"/>
    <nd ref="262943719"/>
    <tag k="highway" v="residential"/>
    <tag k="name" v="Marinzenweg"/>
    <tag k="name:de" v="Marinzenweg"/>
    <tag k="name:it" v="Via Marinzen"/>
  </way>
  <way id="38078971" version="6" timestamp="2012-01-22T20:59:45Z" uid="144382" user="SHuehne" changeset="10469769"/>
</osm>
