<?xml version='1.0' encoding='UTF-8'?>
<osm version="0.6" generator="libosmium/2.20.0">
  <way id="38105117" version="3" timestamp="2009-08-10T03:02:03Z" uid="20587" user="balrog-kun" changeset="2092482"/>
  <way id="38105219" version="2" timestamp="2010-05-14T08:44:50Z" uid="58091" user="Andreas M" changeset="4693437"/>
  <way id="38105356" version="3" timestamp="2010-07-08T03:54:15Z" uid="74617" user="JohnSmith" changeset="5163091">
    <nd ref="287012888"/>
    <nd ref="287012947"/>
    <nd ref="287012596"/>
    <tag k="highway" v="residential"/>
    <tag k="maxspeed" v="50"/>
    <tag k="maxspeed:source" v="default residential speed limit in Australia"/>
    <tag k="name" v="Railway Terrace"/>
    <tag k="oneway" v="yes"/>
  </way>
  <way id="38105356" version="4" timestamp="2012-01-19T02:24:33Z" uid="147510" user="woodpeck_fixbot" changeset="10433378">
    <nd ref="287012888"/>
    <nd ref="287012947"/>
    <nd ref="287012596"/>
    <tag k="highway" v="residential"/>
    <tag k="name" v="Railway Terrace"/>
    <tag k="oneway" v="yes"/>
  </way>
  <way id="38105358" version="2" timestamp="2010-07-08T03:53:35Z" uid="74617" user="JohnSmith" changeset="5163091">
    <nd ref="287012926"/>
    <nd ref="287012956"/>
    <nd ref="287012888"/>
    <tag k="highway" v="residential"/>
    <tag k="maxspeed" v="50"/>
    <tag k="maxspeed:source" v="default residential speed limit in Australia"/>
    <tag k="name" v="Railway Terrace"/>
  </way>
  <way id="38105358" version="3" timestamp="2012-01-19T02:24:34Z" uid="147510" user="woodpeck_fixbot" changeset="10433378">
    <nd ref="287012926"/>
    <nd ref="287012956"/>
    <nd ref="287012888"/>
    <tag k="highway" v="residential"/>
    <tag k="name" v="Railway Terrace"/>
  </way>
  <way id="38105372" version="2" timestamp="2010-07-08T03:53:44Z" uid="74617" user="JohnSmith" changeset="5163091">
    <nd ref="448225576"/>
    <nd ref="448225589"/>
    <tag k="highway" v="residential"/>
    <tag k="maxspeed" v="50"/>
    <tag k="maxspeed:source" v="default residential speed limit in Australia"/>
    <tag k="name" v="Whyte Street"/>
  </way>
  <way id="38105372" version="3" timestamp="2012-01-19T02:24:35Z" uid="147510" user="woodpeck_fixbot" changeset="10433378">
    <nd ref="448225576"/>
    <nd ref="448225589"/>
    <tag k="highway" v="residential"/>
    <tag k="name" v="Whyte Street"/>
  </way>
  <way id="38105525" version="2" timestamp="2010-07-08T16:20:18Z" uid="74617" user="JohnSmith" changeset="5167338">
    <nd ref="292818541"/>
    <nd ref="448227425"/>
    <nd ref="448227426"/>
    <tag k="highway" v="residential"/>
    <tag k="maxspeed" v="50"/>
    <tag k="maxspeed:source" v="default residential speed limit in Australia"/>
    <tag k="name" v="Betts Place"/>
    <tag k="source" v="GPS"/>
    <tag k="surface" v="asphalt"/>
  </way>
  <way id="38105525" version="3" timestamp="2012-01-19T02:24:36Z" uid="147510" user="woodpeck_fixbot" changeset="10433378">
    <nd ref="292818541"/>
    <nd ref="448227425"/>
    <nd ref="448227426"/>
    <tag k="highway" v="residential"/>
    <tag k="name" v="Betts Place"/>
    <tag k="source" v="GPS"/>
    <tag k="surface" v="asphalt"/>
  </way>
  <way id="38105526" version="2" timestamp="2010-07-08T16:21:19Z" uid="74617" user="JohnSmith" changeset="5167338">
    <nd ref="448227415"/>
    <nd ref="448227427"/>
    <nd ref="448227428"/>
    <nd ref="448227429"/>
    <nd ref="448227430"/>
    <nd ref="448227431"/>
    <nd ref="448227432"/>
    <nd ref="448227416"/>
    <tag k="highway" v="residential"/>
    <tag k="maxspeed" v="50"/>
    <tag k="maxspeed:source" v="default residential speed limit in Australia"/>
    <tag k="name" v="Booth Crescent"/>
    <tag k="source" v="GPS"/>
    <tag k="surface" v="asphalt"/>
  </way>
  <way id="38105526" version="3" timestamp="2012-01-19T02:24:38Z" uid="147510" user="woodpeck_fixbot" changeset="10433378">
    <nd ref="448227415"/>
    <nd ref="448227427"/>
    <nd ref="448227428"/>
    <nd ref="448227429"/>
    <nd ref="448227430"/>
    <nd ref="448227431"/>
    <nd ref="448227432"/>
    <nd ref="448227416"/>
    <tag k="highway" v="residential"/>
    <tag k="name" v="Booth Crescent"/>
    <tag k="source" v="GPS"/>
    <tag k="surface" v="asphalt"/>
  </way>
  <way id="38105527" version="2" timestamp="2010-07-08T16:22:26Z" uid="74617" user="JohnSmith" changeset="5167338">
    <nd ref="448227431"/>
    <nd ref="448227433"/>
    <tag k="highway" v="residential"/>
    <tag k="maxspeed" v="50"/>
    <tag k="maxspeed:source" v="default residential speed limit in Australia"/>
    <tag k="name" v="Daley Place"/>
    <tag k="source" v="GPS"/>
    <tag k="surface" v="asphalt"/>
  </way>
  <way id="38105527" version="3" timestamp="2012-01-19T02:24:39Z" uid="147510" user="woodpeck_fixbot" changeset="10433378">
    <nd ref="448227431"/>
    <nd ref="448227433"/>
    <tag k="highway" v="residential"/>
    <tag k="name" v="Daley Place"/>
    <tag k="source" v="GPS"/>
    <tag k="surface" v="asphalt"/>
  </way>
  <way id="38105528" version="2" timestamp="2010-07-08T16:21:30Z" uid="74617" user="JohnSmith" changeset="5167338">
    <nd ref="292818539"/>
    <nd ref="448227434"/>
    <tag k="highway" v="residential"/>
    <tag k="maxspeed" v="50"/>
    <tag k="maxspeed:source" v="default residential speed limit in Australia"/>
    <tag k="name" v="Tom Close"/>
    <tag k="source" v="GPS"/>
    <tag k="surface" v="asphalt"/>
  </way>
  <way id="38105528" version="3" timestamp="2012-01-19T02:24:40Z" uid="147510" user="woodpeck_fixbot" changeset="10433378">
    <nd ref="292818539"/>
    <nd ref="448227434"/>
    <tag k="highway" v="residential"/>
    <tag k="name" v="Tom Close"/>
    <tag k="source" v="GPS"/>
    <tag k="surface" v="asphalt"/>
  </way>
  <way id="38105529" version="2" timestamp="2010-07-08T16:22:46Z" uid="74617" user="JohnSmith" changeset="5167338">
    <nd ref="292818772"/>
    <nd ref="448227435"/>
    <nd ref="448227436"/>
    <tag k="highway" v="residential"/>
    <tag k="maxspeed" v="50"/>
    <tag k="maxspeed:source" v="default residential speed limit in Australia"/>
    <tag k="name" v="Rodd Place"/>
    <tag k="source" v="GPS"/>
    <tag k="surface" v="asphalt"/>
  </way>
  <way id="38105529" version="3" timestamp="2012-01-19T02:24:41Z" uid="147510" user="woodpeck_fixbot" changeset="10433378">
    <nd ref="292818772"/>
    <nd ref="448227435"/>
    <nd ref="448227436"/>
    <tag k="highway" v="residential"/>
    <tag k="name" v="Rodd Place"/>
    <tag k="source" v="GPS"/>
    <tag k="surface" v="asphalt"/>
  </way>
  <way id="38105530" version="2" timestamp="2010-07-08T16:20:14Z" uid="74617" user="JohnSmith" changeset="5167338">
    <nd ref="292818770"/>
    <nd ref="448227438"/>
    <nd ref="448227440"/>
    <nd ref="448227443"/>
    <nd ref="448227451"/>
    <nd ref="448227454"/>
    <nd ref="448227457"/>
    <tag k="highway" v="residential"/>
    <tag k="maxspeed" v="50"/>
    <tag k="maxspeed:source" v="default residential speed limit in Australia"/>
    <tag k="name" v="Pinnock Place"/>
    <tag k="source" v="GPS"/>
    <tag k="surface" v="asphalt"/>
  </way>
  <way id="38105530" version="3" timestamp="2012-01-19T02:24:42Z" uid="147510" user="woodpeck_fixbot" changeset="10433378">
    <nd ref="292818770"/>
    <nd ref="448227438"/>
    <nd ref="448227440"/>
    <nd ref="448227443"/>
    <nd ref="448227451"/>
    <nd ref="448227454"/>
    <nd ref="448227457"/>
    <tag k="highway" v="residential"/>
    <tag k="name" v="Pinnock Place"/>
    <tag k="source" v="GPS"/>
    <tag k="surface" v="asphalt"/>
  </way>
  <way id="38105531" version="2" timestamp="2010-07-08T16:21:17Z" uid="74617" user="JohnSmith" changeset="5167338">
    <nd ref="292818528"/>
    <nd ref="448227463"/>
    <nd ref="448227467"/>
    <nd ref="448227470"/>
    <tag k="highway" v="residential"/>
    <tag k="maxspeed" v="50"/>
    <tag k="maxspeed:source" v="default residential speed limit in Australia"/>
    <tag k="name" v="Gallagher Place"/>
    <tag k="source" v="GPS"/>
    <tag k="surface" v="asphalt"/>
  </way>
  <way id="38105531" version="3" timestamp="2012-01-19T02:24:43Z" uid="147510" user="woodpeck_fixbot" changeset="10433378">
    <nd ref="292818528"/>
    <nd ref="448227463"/>
    <nd ref="448227467"/>
    <nd ref="448227470"/>
    <tag k="highway" v="residential"/>
    <tag k="name" v="Gallagher Place"/>
    <tag k="source" v="GPS"/>
    <tag k="surface" v="asphalt"/>
  </way>
  <way id="38105535" version="2" timestamp="2010-07-08T16:20:31Z" uid="74617" user="JohnSmith" changeset="5167338">
    <nd ref="292818521"/>
    <nd ref="448227486"/>
    <tag k="highway" v="residential"/>
    <tag k="maxspeed" v="50"/>
    <tag k="maxspeed:source" v="default residential speed limit in Australia"/>
    <tag k="name" v="Hopkins Place"/>
    <tag k="source" v="GPS"/>
    <tag k="surface" v="asphalt"/>
  </way>
  <way id="38105535" version="3" timestamp="2012-01-19T02:24:44Z" uid="147510" user="woodpeck_fixbot" changeset="10433378">
    <nd ref="292818521"/>
    <nd ref="448227486"/>
    <tag k="highway" v="residential"/>
    <tag k="name" v="Hopkins Place"/>
    <tag k="source" v="GPS"/>
    <tag k="surface" v="asphalt"/>
  </way>
  <way id="38105540" version="2" timestamp="2010-07-08T16:21:34Z" uid="74617" user="JohnSmith" changeset="5167338">
    <nd ref="448227421"/>
    <nd ref="448227495"/>
    <tag k="highway" v="residential"/>
    <tag k="maxspeed" v="50"/>
    <tag k="maxspeed:source" v="default residential speed limit in Australia"/>
    <tag k="name" v="Thorpe Place"/>
    <tag k="source" v="GPS"/>
    <tag k="surface" v="asphalt"/>
  </way>
  <way id="38105540" version="3" timestamp="2012-01-19T02:24:46Z" uid="147510" user="woodpeck_fixbot" changeset="10433378">
    <nd ref="448227421"/>
    <nd ref="448227495"/>
    <tag k="highway" v="residential"/>
    <tag k="name" v="Thorpe Place"/>
    <tag k="source" v="GPS"/>
    <tag k="surface" v="asphalt"/>
  </way>
  <way id="38105541" version="2" timestamp="2010-07-08T16:19:10Z" uid="74617" user="JohnSmith" changeset="5167338">
    <nd ref="292818508"/>
    <nd ref="448227500"/>
    <nd ref="448227502"/>
    <nd ref="448227505"/>
    <nd ref="448227507"/>
    <tag k="highway" v="residential"/>
    <tag k="maxspeed" v="50"/>
    <tag k="maxspeed:source" v="default residential speed limit in Australia"/>
    <tag k="name" v="Niven Place"/>
    <tag k="source" v="GPS"/>
    <tag k="surface" v="asphalt"/>
  </way>
  <way id="38105541" version="3" timestamp="2012-01-19T02:24:47Z" uid="147510" user="woodpeck_fixbot" changeset="10433378">
    <nd ref="292818508"/>
    <nd ref="448227500"/>
    <nd ref="448227502"/>
    <nd ref="448227505"/>
    <nd ref="448227507"/>
    <tag k="highway" v="residential"/>
    <tag k="name" v="Niven Place"/>
    <tag k="source" v="GPS"/>
    <tag k="surface" v="asphalt"/>
  </way>
  <way id="38105542" version="2" timestamp="2010-07-08T16:20:20Z" uid="74617" user="JohnSmith" changeset="5167338">
    <nd ref="448227420"/>
    <nd ref="448227518"/>
    <nd ref="448227522"/>
    <nd ref="448227534"/>
    <nd ref="292818510"/>
    <tag k="highway" v="residential"/>
    <tag k="maxspeed" v="50"/>
    <tag k="maxspeed:source" v="default residential speed limit in Australia"/>
    <tag k="name" v="Magnolia Way"/>
    <tag k="source" v="GPS"/>
    <tag k="surface" v="asphalt"/>
  </way>
  <way id="38105542" version="3" timestamp="2012-01-19T02:24:48Z" uid="147510" user="woodpeck_fixbot" changeset="10433378">
    <nd ref="448227420"/>
    <nd ref="448227518"/>
    <nd ref="448227522"/>
    <nd ref="448227534"/>
    <nd ref="292818510"/>
    <tag k="highway" v="residential"/>
    <tag k="name" v="Magnolia Way"/>
    <tag k="source" v="GPS"/>
    <tag k="surface" v="asphalt"/>
  </way>
  <way id="38105555" version="2" timestamp="2010-07-08T16:22:36Z" uid="74617" user="JohnSmith" changeset="5167338">
    <nd ref="448227575"/>
    <nd ref="345167601"/>
    <tag k="highway" v="residential"/>
    <tag k="maxspeed" v="50"/>
    <tag k="maxspeed:source" v="default residential speed limit in Australia"/>
    <tag k="name" v="Dalton Street"/>
  </way>
  <way id="38105555" version="3" timestamp="2010-09-04T04:37:07Z" uid="67896" user="mrpulley" changeset="5675537">
    <nd ref="448227575"/>
    <nd ref="345167601"/>
    <tag k="highway" v="residential"/>
    <tag k="maxspeed" v="50"/>
    <tag k="maxspeed:source" v="default residential speed limit in Australia"/>
    <tag k="name" v="Dalton Street"/>
    <tag k="surface" v="asphalt"/>
  </way>
  <way id="38105555" version="4" timestamp="2012-01-19T02:24:50Z" uid="147510" user="woodpeck_fixbot" changeset="10433378">
    <nd ref="448227575"/>
    <nd ref="345167601"/>
    <tag k="highway" v="residential"/>
    <tag k="name" v="Dalton Street"/>
    <tag k="surface" v="asphalt"/>
  </way>
  <way id="38105579" version="1" timestamp="2009-07-26T12:20:26Z" uid="7617" user="Franc" changeset="1944032">
    <nd ref="251223115"/>
    <nd ref="251223116"/>
    <tag k="created_by" v="Potlatch 0.7b"/>
    <tag k="highway" v="residential"/>
  </way>
  <way id="38105579" version="2" timestamp="2009-07-26T19:14:52Z" uid="7617" user="Franc" changeset="1948535">
    <nd ref="251223115"/>
    <nd ref="251223116"/>
    <tag k="created_by" v="Potlatch 0.7b"/>
    <tag k="highway" v="residential"/>
    <tag k="name" v="Saracen Road"/>
    <tag k="source" v="survey"/>
  </way>
  <way id="38105579" version="3" timestamp="2010-07-08T00:25:50Z" uid="74617" user="JohnSmith" changeset="5162525">
    <nd ref="251223115"/>
    <nd ref="251223116"/>
    <tag k="highway" v="residential"/>
    <tag k="maxspeed" v="50"/>
    <tag k="maxspeed:source" v="default residential speed limit in Australia"/>
    <tag k="name" v="Saracen Road"/>
    <tag k="source" v="survey"/>
  </way>
  <way id="38105579" version="4" timestamp="2012-01-19T02:24:51Z" uid="147510" user="woodpeck_fixbot" changeset="10433378">
    <nd ref="251223115"/>
    <nd ref="251223116"/>
    <tag k="highway" v="residential"/>
    <tag k="name" v="Saracen Road"/>
    <tag k="source" v="survey"/>
  </way>
  <way id="38105609" version="4" timestamp="2009-12-26T10:14:43Z" uid="58091" user="Andreas M" changeset="3453278">
    <nd ref="448228080"/>
    <nd ref="448228081"/>
    <nd ref="448228082"/>
    <nd ref="448228083"/>
    <nd ref="448228080"/>
    <tag k="amenity" v="parking"/>
  </way>
  <way id="38105609" version="5" timestamp="2010-08-31T14:50:30Z" uid="33458" user="Hendric Stattmann" changeset="5646159">
    <nd ref="448228080"/>
    <nd ref="448228081"/>
    <nd ref="890483635"/>
    <nd ref="448228082"/>
    <nd ref="448228083"/>
    <nd ref="448228080"/>
    <tag k="amenity" v="parking"/>
  </way>
  <way id="38105801" version="5" timestamp="2009-12-26T10:14:43Z" uid="58091" user="Andreas M" changeset="3453278">
    <nd ref="448231676"/>
    <nd ref="448235999"/>
    <nd ref="448236003"/>
    <nd ref="448236006"/>
    <nd ref="448236011"/>
    <nd ref="448231645"/>
    <nd ref="448231649"/>
    <nd ref="254627022"/>
    <nd ref="448231668"/>
    <nd ref="448231671"/>
    <nd ref="448231674"/>
    <nd ref="448231676"/>
    <tag k="building" v="yes"/>
  </way>
  <way id="38105801" version="6" timestamp="2010-06-20T18:38:41Z" uid="33458" user="Hendric Stattmann" changeset="5035913">
    <nd ref="448231676"/>
    <nd ref="448235999"/>
    <nd ref="448236003"/>
    <nd ref="448236006"/>
    <nd ref="448236011"/>
    <nd ref="448231645"/>
    <nd ref="448231649"/>
    <nd ref="778499549"/>
    <nd ref="254627022"/>
    <nd ref="448231668"/>
    <nd ref="448231671"/>
    <nd ref="448231674"/>
    <nd ref="448231676"/>
    <tag k="building" v="yes"/>
  </way>
  <way id="38105801" version="7" timestamp="2012-03-05T14:42:58Z" uid="617646" user="abmsgis" changeset="10880054">
    <nd ref="448231676"/>
    <nd ref="448235999"/>
    <nd ref="448236003"/>
    <nd ref="448236006"/>
    <nd ref="448236011"/>
    <nd ref="448231645"/>
    <nd ref="448231649"/>
    <nd ref="778499549"/>
    <nd ref="254627022"/>
    <nd ref="448231668"/>
    <nd ref="448231671"/>
    <nd ref="448231674"/>
    <nd ref="448231676"/>
    <tag k="building" v="office"/>
  </way>
  <way id="38105864" version="2" timestamp="2010-04-07T13:43:19Z" uid="20587" user="balrog-kun" changeset="4353646">
    <nd ref="227322056"/>
    <nd ref="227322082"/>
    <nd ref="227322086"/>
    <nd ref="227322091"/>
    <nd ref="227322098"/>
    <tag k="highway" v="unclassified"/>
    <tag k="name" v="North Service Road"/>
    <tag k="name_1" v="I-20H (Bus)"/>
    <tag k="tiger:cfcc" v="A31"/>
    <tag k="tiger:county" v="Mitchell, TX"/>
    <tag k="tiger:name_base" v="N Service Road"/>
    <tag k="tiger:name_base_1" v="I-20H (Bus)"/>
    <tag k="tiger:reviewed" v="no"/>
    <tag k="tiger:separated" v="no"/>
    <tag k="tiger:source" v="tiger_import_dch_v0.6_20070830"/>
    <tag k="tiger:tlid" v="183124051:183123984:183123884"/>
  </way>
  <way id="38105864" version="3" timestamp="2011-03-09T09:19:13Z" uid="207745" user="NE2" changeset="7501981">
    <nd ref="227322056"/>
    <nd ref="227322082"/>
    <nd ref="227322086"/>
    <nd ref="227322091"/>
    <nd ref="227322098"/>
    <tag k="highway" v="secondary"/>
    <tag k="name" v="North Service Road"/>
    <tag k="name_1" v="I-20H (Bus)"/>
    <tag k="old_ref" v="Loop 333"/>
    <tag k="ref" v="I 20 Business"/>
    <tag k="tiger:cfcc" v="A31"/>
    <tag k="tiger:county" v="Mitchell, TX"/>
    <tag k="tiger:name_base" v="N Service Road"/>
    <tag k="tiger:name_base_1" v="I-20H (Bus)"/>
    <tag k="tiger:reviewed" v="no"/>
    <tag k="tiger:separated" v="no"/>
    <tag k="tiger:source" v="tiger_import_dch_v0.6_20070830"/>
    <tag k="tiger:tlid" v="183124051:183123984:183123884"/>
  </way>
  <way id="38105864" version="4" timestamp="2012-01-02T05:25:07Z" uid="207745" user="NE2" changeset="10267780">
    <nd ref="227322098"/>
    <nd ref="227322091"/>
    <nd ref="227322086"/>
    <nd ref="227322082"/>
    <nd ref="227322056"/>
    <tag k="highway" v="secondary"/>
    <tag k="name" v="North Service Road"/>
    <tag k="old_ref" v="Loop 333"/>
    <tag k="ref" v="I 20 Business"/>
    <tag k="tiger:cfcc" v="A31"/>
    <tag k="tiger:county" v="Mitchell, TX"/>
    <tag k="tiger:name_base" v="N Service Road"/>
    <tag k="tiger:name_base_1" v="I-20H (Bus)"/>
    <tag k="tiger:reviewed" v="no"/>
    <tag k="tiger:separated" v="no"/>
    <tag k="tiger:source" v="tiger_import_dch_v0.6_20070830"/>
    <tag k="tiger:tlid" v="183124051:183123984:183123884"/>
  </way>
  <way id="38105864" version="5" timestamp="2012-01-03T09:38:15Z" uid="207745" user="NE2" changeset="10279358">
    <nd ref="227322098"/>
    <nd ref="227322091"/>
    <nd ref="227322086"/>
    <nd ref="227322082"/>
    <nd ref="227322056"/>
    <tag k="highway" v="secondary"/>
    <tag k="name" v="North Service Road"/>
    <tag k="old_ref" v="Loop 333 (old US 80)"/>
    <tag k="ref" v="I 20 Business"/>
    <tag k="tiger:cfcc" v="A31"/>
    <tag k="tiger:county" v="Mitchell, TX"/>
    <tag k="tiger:name_base" v="N Service Road"/>
    <tag k="tiger:name_base_1" v="I-20H (Bus)"/>
    <tag k="tiger:reviewed" v="no"/>
    <tag k="tiger:separated" v="no"/>
    <tag k="tiger:source" v="tiger_import_dch_v0.6_20070830"/>
    <tag k="tiger:tlid" v="183124051:183123984:183123884"/>
  </way>
  <way id="38105864" version="6" timestamp="2012-03-02T01:47:40Z" uid="37392" user="25or6to4" changeset="10843999">
    <nd ref="227322098"/>
    <nd ref="227322091"/>
    <nd ref="227322086"/>
    <nd ref="227322082"/>
    <nd ref="227322056"/>
    <tag k="highway" v="secondary"/>
    <tag k="name" v="North Service Road"/>
    <tag k="old_ref" v="Loop 333 (old US 80)"/>
    <tag k="ref" v="I 20 Business"/>
    <tag k="tiger:cfcc" v="A31"/>
    <tag k="tiger:county" v="Mitchell, TX"/>
    <tag k="tiger:name_base" v="N Service Road"/>
    <tag k="tiger:name_base_1" v="I-20H (Bus)"/>
    <tag k="tiger:separated" v="no"/>
    <tag k="tiger:source" v="tiger_import_dch_v0.6_20070830"/>
    <tag k="tiger:tlid" v="183124051:183123984:183123884"/>
  </way>
</osm>
