<?xml version='1.0' encoding='UTF-8'?>
<osm version="0.6" generator="libosmium/2.20.0">
  <way id="38106079" version="2" timestamp="2010-07-09T05:57:34Z" uid="74617" user="JohnSmith" changeset="5171134">
    <nd ref="325336488"/>
    <nd ref="325338615"/>
    <nd ref="325338616"/>
    <nd ref="325338617"/>
    <nd ref="325338618"/>
    <nd ref="325338619"/>
    <nd ref="325338621"/>
    <nd ref="325338623"/>
    <nd ref="325338616"/>
    <tag k="highway" v="residential"/>
    <tag k="maxspeed" v="50"/>
    <tag k="maxspeed:source" v="default residential speed limit in Australia"/>
  </way>
  <way id="38106079" version="3" timestamp="2012-01-19T02:24:52Z" uid="147510" user="woodpeck_fixbot" changeset="10433378">
    <nd ref="325336488"/>
    <nd ref="325338615"/>
    <nd ref="325338616"/>
    <nd ref="325338617"/>
    <nd ref="325338618"/>
    <nd ref="325338619"/>
    <nd ref="325338621"/>
    <nd ref="325338623"/>
    <nd ref="325338616"/>
    <tag k="highway" v="residential"/>
  </way>
  <way id="38106114" version="2" timestamp="2010-06-12T10:43:06Z" uid="30201" user="rrankin" changeset="4969186">
    <nd ref="448236470"/>
    <nd ref="448236492"/>
    <nd ref="448236500"/>
    <nd ref="448236450"/>
    <nd ref="448236507"/>
    <nd ref="448236405"/>
    <tag k="highway" v="footway"/>
  </way>
  <way id="38106186" version="2" timestamp="2010-04-03T21:08:48Z" uid="20587" user="balrog-kun" changeset="4315899">
    <nd ref="448249961"/>
    <nd ref="39132333"/>
    <nd ref="39207932"/>
    <nd ref="39207933"/>
    <nd ref="38912469"/>
    <nd ref="38912499"/>
    <tag k="fixme" v="really a track: there&apos;s an interchange!"/>
    <tag k="highway" v="track"/>
    <tag k="name" v="Fly Creek Road"/>
    <tag k="tiger:cfcc" v="A51"/>
    <tag k="tiger:county" v="Big Horn, MT"/>
    <tag k="tiger:name_base" v="Fly Creek"/>
    <tag k="tiger:name_type" v="Rd"/>
    <tag k="tiger:reviewed" v="no"/>
    <tag k="tiger:separated" v="no"/>
    <tag k="tiger:source" v="tiger_import_dch_v0.6_20070813"/>
    <tag k="tiger:tlid" v="181622282:181622206:181632643:181622195:181632647"/>
  </way>
  <way id="38106186" version="3" timestamp="2011-04-01T22:31:39Z" uid="239998" user="Sundance" changeset="7740058">
    <nd ref="448249961"/>
    <nd ref="39132333"/>
    <nd ref="39207932"/>
    <nd ref="1228515512"/>
    <nd ref="1228515513"/>
    <nd ref="39207933"/>
    <nd ref="38912469"/>
    <nd ref="38912499"/>
    <tag k="highway" v="residential"/>
    <tag k="name" v="Fly Creek Road"/>
    <tag k="tiger:county" v="Big Horn, MT"/>
    <tag k="tiger:source" v="tiger_import_dch_v0.6_20070813"/>
    <tag k="tiger:tlid" v="181622282:181622206:181632643:181622195:181632647"/>
  </way>
  <way id="38106187" version="3" timestamp="2010-04-03T21:08:49Z" uid="20587" user="balrog-kun" changeset="4315899">
    <nd ref="448249842"/>
    <nd ref="448249961"/>
    <tag k="bridge" v="yes"/>
    <tag k="fixme" v="really a track: there&apos;s an interchange!"/>
    <tag k="highway" v="track"/>
    <tag k="layer" v="1"/>
    <tag k="name" v="Fly Creek Road"/>
    <tag k="tiger:cfcc" v="A51"/>
    <tag k="tiger:county" v="Big Horn, MT"/>
    <tag k="tiger:name_base" v="Fly Creek"/>
    <tag k="tiger:name_type" v="Rd"/>
    <tag k="tiger:reviewed" v="aerial"/>
    <tag k="tiger:separated" v="no"/>
    <tag k="tiger:source" v="tiger_import_dch_v0.6_20070813"/>
    <tag k="tiger:tlid" v="181622282:181622206:181632643:181622195:181632647"/>
  </way>
  <way id="38106187" version="4" timestamp="2011-04-01T22:31:40Z" uid="239998" user="Sundance" changeset="7740058">
    <nd ref="448249842"/>
    <nd ref="448249961"/>
    <tag k="bridge" v="yes"/>
    <tag k="highway" v="residential"/>
    <tag k="is_in" v="Big Horn, MT"/>
    <tag k="layer" v="1"/>
    <tag k="name" v="Fly Creek Road"/>
    <tag k="tiger:source" v="tiger_import_dch_v0.6_20070813"/>
    <tag k="tiger:tlid" v="181622282:181622206:181632643:181622195:181632647"/>
  </way>
  <way id="38106311" version="1" timestamp="2009-07-26T12:43:27Z" uid="74617" user="JohnSmith" changeset="1944289">
    <nd ref="448254465"/>
    <nd ref="331365357"/>
    <nd ref="274527322"/>
    <nd ref="448254468"/>
    <tag k="highway" v="trunk"/>
    <tag k="maxspeed" v="60"/>
    <tag k="name" v="King Georges Road"/>
    <tag k="oneway" v="yes"/>
    <tag k="ref" v="MR3;D5"/>
    <tag k="restriction" v="school_zone"/>
    <tag k="school_zone_maxspeed" v="40"/>
    <tag k="school_zone_on" v="8:00-9:30;14:30-16:00"/>
  </way>
  <way id="38106311" version="2" timestamp="2010-03-31T11:01:11Z" uid="74617" user="JohnSmith" changeset="4284266">
    <nd ref="448254465"/>
    <nd ref="331365357"/>
    <nd ref="274527322"/>
    <nd ref="448254468"/>
    <tag k="highway" v="trunk"/>
    <tag k="maxspeed" v="60"/>
    <tag k="name" v="King Georges Road"/>
    <tag k="oneway" v="yes"/>
    <tag k="ref" v="D5"/>
    <tag k="restriction" v="school_zone"/>
    <tag k="school_zone_maxspeed" v="40"/>
    <tag k="school_zone_on" v="8:00-9:30;14:30-16:00"/>
  </way>
  <way id="38106311" version="3" timestamp="2010-04-10T06:35:44Z" uid="7617" user="Franc" changeset="4379539">
    <nd ref="448254465"/>
    <nd ref="331365357"/>
    <nd ref="274527322"/>
    <nd ref="691178317"/>
    <nd ref="448254468"/>
    <tag k="highway" v="trunk"/>
    <tag k="maxspeed" v="60"/>
    <tag k="name" v="King Georges Road"/>
    <tag k="oneway" v="yes"/>
    <tag k="ref" v="D5"/>
    <tag k="restriction" v="school_zone"/>
    <tag k="school_zone_maxspeed" v="40"/>
    <tag k="school_zone_on" v="8:00-9:30;14:30-16:00"/>
  </way>
  <way id="38106311" version="4" timestamp="2010-06-28T08:44:32Z" uid="299678" user="peteramjet" changeset="5095738">
    <nd ref="448254465"/>
    <nd ref="331365357"/>
    <nd ref="274527322"/>
    <nd ref="691178317"/>
    <nd ref="448254468"/>
    <tag k="highway" v="trunk"/>
    <tag k="maxspeed" v="60"/>
    <tag k="name" v="King Georges Road"/>
    <tag k="oneway" v="yes"/>
    <tag k="ref" v="MR3"/>
    <tag k="restriction" v="school_zone"/>
    <tag k="school_zone_maxspeed" v="40"/>
    <tag k="school_zone_on" v="8:00-9:30;14:30-16:00"/>
  </way>
  <way id="38106311" version="5" timestamp="2010-07-08T11:08:12Z" uid="299678" user="peteramjet" changeset="5164989">
    <nd ref="448254465"/>
    <nd ref="331365357"/>
    <nd ref="274527322"/>
    <nd ref="691178317"/>
    <nd ref="448254468"/>
    <tag k="highway" v="trunk"/>
    <tag k="maxspeed" v="60"/>
    <tag k="name" v="King Georges Road"/>
    <tag k="oneway" v="yes"/>
    <tag k="restriction" v="school_zone"/>
    <tag k="school_zone_maxspeed" v="40"/>
    <tag k="school_zone_on" v="8:00-9:30;14:30-16:00"/>
  </way>
  <way id="38106311" version="6" timestamp="2010-12-28T11:32:33Z" uid="333194" user="happyOOO" changeset="6787010">
    <nd ref="448254465"/>
    <nd ref="331365357"/>
    <nd ref="274527322"/>
    <nd ref="691178317"/>
    <nd ref="448254468"/>
    <tag k="highway" v="trunk"/>
    <tag k="lanes" v="3"/>
    <tag k="maxspeed" v="60"/>
    <tag k="name" v="King Georges Road"/>
    <tag k="oneway" v="yes"/>
    <tag k="restriction" v="school_zone"/>
    <tag k="school_zone_maxspeed" v="40"/>
    <tag k="school_zone_on" v="8:00-9:30;14:30-16:00"/>
  </way>
  <way id="38106311" version="7" timestamp="2012-01-31T06:39:53Z" uid="54784" user="Tom Hollander" changeset="10546288">
    <nd ref="448254465"/>
    <nd ref="331365357"/>
    <nd ref="274527322"/>
    <nd ref="691178317"/>
    <nd ref="448254468"/>
    <tag k="highway" v="trunk"/>
    <tag k="lanes" v="3"/>
    <tag k="maxspeed" v="60"/>
    <tag k="name" v="King Georges Road"/>
    <tag k="oneway" v="yes"/>
    <tag k="ref" v="MR3"/>
    <tag k="restriction" v="school_zone"/>
    <tag k="school_zone_maxspeed" v="40"/>
    <tag k="school_zone_on" v="8:00-9:30;14:30-16:00"/>
  </way>
  <way id="38106311" version="8" timestamp="2012-03-07T22:51:45Z" uid="7523" user="inas" changeset="10904797"/>
  <way id="38106312" version="1" timestamp="2009-07-26T12:43:27Z" uid="74617" user="JohnSmith" changeset="1944289">
    <nd ref="448254468"/>
    <nd ref="60006569"/>
    <nd ref="241647672"/>
    <nd ref="269262480"/>
    <tag k="highway" v="trunk"/>
    <tag k="maxspeed" v="60"/>
    <tag k="name" v="King Georges Road"/>
    <tag k="oneway" v="yes"/>
    <tag k="ref" v="MR3;D5"/>
  </way>
  <way id="38106312" version="2" timestamp="2010-03-31T11:01:11Z" uid="74617" user="JohnSmith" changeset="4284266">
    <nd ref="448254468"/>
    <nd ref="60006569"/>
    <nd ref="241647672"/>
    <nd ref="269262480"/>
    <tag k="highway" v="trunk"/>
    <tag k="maxspeed" v="60"/>
    <tag k="name" v="King Georges Road"/>
    <tag k="oneway" v="yes"/>
    <tag k="ref" v="D5"/>
  </way>
  <way id="38106312" version="3" timestamp="2010-05-15T14:40:10Z" uid="7617" user="Franc" changeset="4706870">
    <nd ref="448254468"/>
    <nd ref="60006569"/>
    <nd ref="735110000"/>
    <tag k="highway" v="trunk"/>
    <tag k="maxspeed" v="60"/>
    <tag k="name" v="King Georges Road"/>
    <tag k="oneway" v="yes"/>
    <tag k="ref" v="D5"/>
    <tag k="restriction" v="school_zone"/>
  </way>
  <way id="38106312" version="4" timestamp="2010-06-28T08:44:31Z" uid="299678" user="peteramjet" changeset="5095738">
    <nd ref="448254468"/>
    <nd ref="60006569"/>
    <nd ref="735110000"/>
    <tag k="highway" v="trunk"/>
    <tag k="maxspeed" v="60"/>
    <tag k="name" v="King Georges Road"/>
    <tag k="oneway" v="yes"/>
    <tag k="ref" v="MR3"/>
    <tag k="restriction" v="school_zone"/>
  </way>
  <way id="38106312" version="5" timestamp="2010-07-08T11:08:11Z" uid="299678" user="peteramjet" changeset="5164989">
    <nd ref="448254468"/>
    <nd ref="60006569"/>
    <nd ref="735110000"/>
    <tag k="highway" v="trunk"/>
    <tag k="maxspeed" v="60"/>
    <tag k="name" v="King Georges Road"/>
    <tag k="oneway" v="yes"/>
    <tag k="restriction" v="school_zone"/>
  </way>
  <way id="38106312" version="6" timestamp="2010-12-28T11:32:34Z" uid="333194" user="happyOOO" changeset="6787010">
    <nd ref="448254468"/>
    <nd ref="60006569"/>
    <nd ref="735110000"/>
    <tag k="highway" v="trunk"/>
    <tag k="lanes" v="3"/>
    <tag k="maxspeed" v="60"/>
    <tag k="name" v="King Georges Road"/>
    <tag k="oneway" v="yes"/>
    <tag k="restriction" v="school_zone"/>
  </way>
  <way id="38106312" version="7" timestamp="2012-01-31T06:39:54Z" uid="54784" user="Tom Hollander" changeset="10546288">
    <nd ref="448254468"/>
    <nd ref="60006569"/>
    <nd ref="735110000"/>
    <tag k="highway" v="trunk"/>
    <tag k="lanes" v="3"/>
    <tag k="maxspeed" v="60"/>
    <tag k="name" v="King Georges Road"/>
    <tag k="oneway" v="yes"/>
    <tag k="ref" v="MR3"/>
    <tag k="restriction" v="school_zone"/>
  </way>
  <way id="38106312" version="8" timestamp="2012-03-07T22:51:46Z" uid="7523" user="inas" changeset="10904797"/>
  <way id="38106313" version="1" timestamp="2009-07-26T12:43:27Z" uid="74617" user="JohnSmith" changeset="1944289">
    <nd ref="241647751"/>
    <nd ref="241647765"/>
    <nd ref="331365405"/>
    <nd ref="448254467"/>
    <tag k="highway" v="trunk"/>
    <tag k="maxspeed" v="60"/>
    <tag k="name" v="King Georges Road"/>
    <tag k="oneway" v="yes"/>
    <tag k="ref" v="MR3;D5"/>
    <tag k="restriction" v="school_zone"/>
    <tag k="school_zone_maxspeed" v="40"/>
    <tag k="school_zone_on" v="8:00-9:30;14:30-16:00"/>
  </way>
  <way id="38106313" version="2" timestamp="2010-03-31T11:01:11Z" uid="74617" user="JohnSmith" changeset="4284266">
    <nd ref="241647751"/>
    <nd ref="241647765"/>
    <nd ref="331365405"/>
    <nd ref="448254467"/>
    <tag k="highway" v="trunk"/>
    <tag k="maxspeed" v="60"/>
    <tag k="name" v="King Georges Road"/>
    <tag k="oneway" v="yes"/>
    <tag k="ref" v="D5"/>
    <tag k="restriction" v="school_zone"/>
    <tag k="school_zone_maxspeed" v="40"/>
    <tag k="school_zone_on" v="8:00-9:30;14:30-16:00"/>
  </way>
  <way id="38106313" version="3" timestamp="2010-04-10T06:35:44Z" uid="7617" user="Franc" changeset="4379539">
    <nd ref="241647751"/>
    <nd ref="691178318"/>
    <nd ref="241647765"/>
    <nd ref="331365405"/>
    <nd ref="448254467"/>
    <tag k="highway" v="trunk"/>
    <tag k="maxspeed" v="60"/>
    <tag k="name" v="King Georges Road"/>
    <tag k="oneway" v="yes"/>
    <tag k="ref" v="D5"/>
    <tag k="restriction" v="school_zone"/>
    <tag k="school_zone_maxspeed" v="40"/>
    <tag k="school_zone_on" v="8:00-9:30;14:30-16:00"/>
  </way>
  <way id="38106313" version="4" timestamp="2010-06-28T08:44:32Z" uid="299678" user="peteramjet" changeset="5095738">
    <nd ref="241647751"/>
    <nd ref="691178318"/>
    <nd ref="241647765"/>
    <nd ref="331365405"/>
    <nd ref="448254467"/>
    <tag k="highway" v="trunk"/>
    <tag k="maxspeed" v="60"/>
    <tag k="name" v="King Georges Road"/>
    <tag k="oneway" v="yes"/>
    <tag k="ref" v="MR3"/>
    <tag k="restriction" v="school_zone"/>
    <tag k="school_zone_maxspeed" v="40"/>
    <tag k="school_zone_on" v="8:00-9:30;14:30-16:00"/>
  </way>
  <way id="38106313" version="5" timestamp="2010-07-08T11:08:12Z" uid="299678" user="peteramjet" changeset="5164989">
    <nd ref="241647751"/>
    <nd ref="691178318"/>
    <nd ref="241647765"/>
    <nd ref="331365405"/>
    <nd ref="448254467"/>
    <tag k="highway" v="trunk"/>
    <tag k="maxspeed" v="60"/>
    <tag k="name" v="King Georges Road"/>
    <tag k="oneway" v="yes"/>
    <tag k="restriction" v="school_zone"/>
    <tag k="school_zone_maxspeed" v="40"/>
    <tag k="school_zone_on" v="8:00-9:30;14:30-16:00"/>
  </way>
  <way id="38106313" version="6" timestamp="2010-12-28T11:32:34Z" uid="333194" user="happyOOO" changeset="6787010">
    <nd ref="241647751"/>
    <nd ref="691178318"/>
    <nd ref="241647765"/>
    <nd ref="331365405"/>
    <nd ref="448254467"/>
    <tag k="highway" v="trunk"/>
    <tag k="lanes" v="3"/>
    <tag k="maxspeed" v="60"/>
    <tag k="name" v="King Georges Road"/>
    <tag k="oneway" v="yes"/>
    <tag k="restriction" v="school_zone"/>
    <tag k="school_zone_maxspeed" v="40"/>
    <tag k="school_zone_on" v="8:00-9:30;14:30-16:00"/>
  </way>
  <way id="38106313" version="7" timestamp="2012-01-31T06:39:54Z" uid="54784" user="Tom Hollander" changeset="10546288">
    <nd ref="241647751"/>
    <nd ref="691178318"/>
    <nd ref="241647765"/>
    <nd ref="331365405"/>
    <nd ref="448254467"/>
    <tag k="highway" v="trunk"/>
    <tag k="lanes" v="3"/>
    <tag k="maxspeed" v="60"/>
    <tag k="name" v="King Georges Road"/>
    <tag k="oneway" v="yes"/>
    <tag k="ref" v="MR3"/>
    <tag k="restriction" v="school_zone"/>
    <tag k="school_zone_maxspeed" v="40"/>
    <tag k="school_zone_on" v="8:00-9:30;14:30-16:00"/>
  </way>
  <way id="38106313" version="8" timestamp="2012-03-07T05:56:16Z" uid="7523" user="inas" changeset="10896791">
    <nd ref="241647751"/>
    <nd ref="691178318"/>
    <nd ref="241647765"/>
    <nd ref="331365405"/>
    <nd ref="448254467"/>
    <tag k="highway" v="trunk"/>
    <tag k="lanes" v="3"/>
    <tag k="maxspeed" v="60"/>
    <tag k="name" v="King Georges Road"/>
    <tag k="network" v="MR"/>
    <tag k="oneway" v="yes"/>
    <tag k="ref" v="3"/>
    <tag k="restriction" v="school_zone"/>
    <tag k="school_zone_maxspeed" v="40"/>
    <tag k="school_zone_on" v="8:00-9:30;14:30-16:00"/>
  </way>
  <way id="38106313" version="9" timestamp="2012-03-07T22:51:45Z" uid="7523" user="inas" changeset="10904797"/>
  <way id="38106314" version="1" timestamp="2009-07-26T12:43:27Z" uid="74617" user="JohnSmith" changeset="1944289">
    <nd ref="448254467"/>
    <nd ref="26638283"/>
    <tag k="highway" v="trunk"/>
    <tag k="maxspeed" v="60"/>
    <tag k="name" v="King Georges Road"/>
    <tag k="oneway" v="yes"/>
    <tag k="ref" v="MR3;D5"/>
  </way>
  <way id="38106314" version="2" timestamp="2010-03-31T11:01:10Z" uid="74617" user="JohnSmith" changeset="4284266">
    <nd ref="448254467"/>
    <nd ref="26638283"/>
    <nd ref="60006557"/>
    <nd ref="679077632"/>
    <nd ref="60006558"/>
    <tag k="highway" v="trunk"/>
    <tag k="maxspeed" v="60"/>
    <tag k="name" v="King Georges Road"/>
    <tag k="oneway" v="yes"/>
    <tag k="ref" v="D5"/>
  </way>
  <way id="38106314" version="3" timestamp="2010-06-28T08:44:29Z" uid="299678" user="peteramjet" changeset="5095738">
    <nd ref="448254467"/>
    <nd ref="26638283"/>
    <nd ref="60006557"/>
    <nd ref="679077632"/>
    <nd ref="60006558"/>
    <tag k="highway" v="trunk"/>
    <tag k="maxspeed" v="60"/>
    <tag k="name" v="King Georges Road"/>
    <tag k="oneway" v="yes"/>
    <tag k="ref" v="MR3"/>
  </way>
  <way id="38106314" version="4" timestamp="2010-07-03T21:56:11Z" uid="7617" user="Franc" changeset="5128435">
    <nd ref="448254467"/>
    <nd ref="26638283"/>
    <nd ref="799683233"/>
    <tag k="highway" v="trunk"/>
    <tag k="maxspeed" v="60"/>
    <tag k="name" v="King Georges Road"/>
    <tag k="oneway" v="yes"/>
    <tag k="ref" v="MR3"/>
    <tag k="restriction" v="school_zone"/>
  </way>
  <way id="38106314" version="5" timestamp="2010-07-08T11:08:13Z" uid="299678" user="peteramjet" changeset="5164989">
    <nd ref="448254467"/>
    <nd ref="26638283"/>
    <nd ref="799683233"/>
    <tag k="highway" v="trunk"/>
    <tag k="maxspeed" v="60"/>
    <tag k="name" v="King Georges Road"/>
    <tag k="oneway" v="yes"/>
    <tag k="restriction" v="school_zone"/>
  </way>
  <way id="38106314" version="6" timestamp="2010-11-14T06:36:57Z" uid="7617" user="Franc" changeset="6363993">
    <nd ref="448254467"/>
    <nd ref="988537909"/>
    <nd ref="988537807"/>
    <nd ref="799683233"/>
    <tag k="highway" v="trunk"/>
    <tag k="maxspeed" v="60"/>
    <tag k="name" v="King Georges Road"/>
    <tag k="oneway" v="yes"/>
    <tag k="restriction" v="school_zone"/>
  </way>
  <way id="38106314" version="7" timestamp="2010-12-28T11:32:34Z" uid="333194" user="happyOOO" changeset="6787010">
    <nd ref="448254467"/>
    <nd ref="988537909"/>
    <nd ref="988537807"/>
    <nd ref="799683233"/>
    <tag k="highway" v="trunk"/>
    <tag k="lanes" v="3"/>
    <tag k="maxspeed" v="60"/>
    <tag k="name" v="King Georges Road"/>
    <tag k="oneway" v="yes"/>
    <tag k="restriction" v="school_zone"/>
  </way>
  <way id="38106314" version="8" timestamp="2011-01-04T01:34:59Z" uid="389517" user="good2010" changeset="6856868">
    <nd ref="448254467"/>
    <nd ref="988537909"/>
    <nd ref="988537807"/>
    <nd ref="1081396697"/>
    <nd ref="799683233"/>
    <tag k="highway" v="trunk"/>
    <tag k="lanes" v="3"/>
    <tag k="maxspeed" v="60"/>
    <tag k="name" v="King Georges Road"/>
    <tag k="oneway" v="yes"/>
    <tag k="restriction" v="school_zone"/>
  </way>
  <way id="38106314" version="9" timestamp="2012-01-31T06:39:55Z" uid="54784" user="Tom Hollander" changeset="10546288">
    <nd ref="448254467"/>
    <nd ref="988537909"/>
    <nd ref="988537807"/>
    <nd ref="1081396697"/>
    <nd ref="799683233"/>
    <tag k="highway" v="trunk"/>
    <tag k="lanes" v="3"/>
    <tag k="maxspeed" v="60"/>
    <tag k="name" v="King Georges Road"/>
    <tag k="oneway" v="yes"/>
    <tag k="ref" v="MR3"/>
    <tag k="restriction" v="school_zone"/>
  </way>
  <way id="38106314" version="10" timestamp="2012-03-07T05:56:15Z" uid="7523" user="inas" changeset="10896791">
    <nd ref="448254467"/>
    <nd ref="988537909"/>
    <nd ref="988537807"/>
    <nd ref="1081396697"/>
    <nd ref="799683233"/>
    <tag k="highway" v="trunk"/>
    <tag k="lanes" v="3"/>
    <tag k="maxspeed" v="60"/>
    <tag k="name" v="King Georges Road"/>
    <tag k="network" v="MR"/>
    <tag k="oneway" v="yes"/>
    <tag k="ref" v="3"/>
    <tag k="restriction" v="school_zone"/>
  </way>
  <way id="38106314" version="11" timestamp="2012-03-07T22:51:44Z" uid="7523" user="inas" changeset="10904797"/>
  <way id="38106492" version="3" timestamp="2010-07-08T03:54:00Z" uid="74617" user="JohnSmith" changeset="5163091">
    <nd ref="287012878"/>
    <nd ref="287012240"/>
    <nd ref="287012580"/>
    <tag k="highway" v="residential"/>
    <tag k="maxspeed" v="50"/>
    <tag k="maxspeed:source" v="default residential speed limit in Australia"/>
    <tag k="name" v="Rawson Street"/>
  </way>
  <way id="38106492" version="4" timestamp="2012-01-19T02:24:53Z" uid="147510" user="woodpeck_fixbot" changeset="10433378">
    <nd ref="287012878"/>
    <nd ref="287012240"/>
    <nd ref="287012580"/>
    <tag k="highway" v="residential"/>
    <tag k="name" v="Rawson Street"/>
  </way>
  <way id="38106545" version="2" timestamp="2011-02-11T18:47:09Z" uid="16922" user="amai" changeset="7257900">
    <nd ref="448263295"/>
    <nd ref="448263297"/>
    <tag k="highway" v="residential"/>
    <tag k="name:en" v="Soi Sena Ruk"/>
  </way>
  <way id="38106545" version="3" timestamp="2012-03-24T22:19:12Z" uid="100662" user="Paul_012" changeset="11089672">
    <nd ref="448263295"/>
    <nd ref="448263297"/>
    <tag k="highway" v="unclassified"/>
    <tag k="name:en" v="Soi Sena Ruk"/>
  </way>
  <way id="38106746" version="2" timestamp="2010-05-10T18:29:48Z" uid="74617" user="JohnSmith" changeset="4662022">
    <nd ref="448272038"/>
    <nd ref="728732080"/>
    <nd ref="448272056"/>
    <tag k="bridge" v="yes"/>
    <tag k="highway" v="footway"/>
    <tag k="layer" v="1"/>
  </way>
  <way id="38106766" version="2" timestamp="2011-02-24T10:25:55Z" uid="4467" user="Rosscoe" changeset="7380128">
    <nd ref="448274168"/>
    <nd ref="448274171"/>
    <nd ref="448274173"/>
    <nd ref="1169749082"/>
    <nd ref="448274176"/>
    <nd ref="1169749042"/>
    <nd ref="1169749095"/>
    <nd ref="1169749056"/>
    <nd ref="448274168"/>
    <tag k="amenity" v="parking"/>
  </way>
  <way id="38106767" version="2" timestamp="2010-02-09T02:04:35Z" uid="74617" user="JohnSmith" changeset="3828705">
    <nd ref="448274178"/>
    <nd ref="448206193"/>
    <nd ref="263228964"/>
    <tag k="highway" v="service"/>
  </way>
  <way id="38106767" version="3" timestamp="2011-02-24T10:25:44Z" uid="4467" user="Rosscoe" changeset="7380128">
    <nd ref="263228964"/>
    <nd ref="448206193"/>
    <nd ref="1169749045"/>
    <nd ref="448274190"/>
    <nd ref="448274187"/>
    <nd ref="448274185"/>
    <nd ref="448274182"/>
    <nd ref="448274180"/>
    <nd ref="263228970"/>
    <nd ref="448206206"/>
    <nd ref="448206209"/>
    <nd ref="448206166"/>
    <nd ref="448206212"/>
    <nd ref="448206217"/>
    <nd ref="263228966"/>
    <tag k="highway" v="service"/>
  </way>
  <way id="38106768" version="2" timestamp="2011-02-24T10:26:01Z" uid="4467" user="Rosscoe" changeset="7380128"/>
  <way id="38106840" version="2" timestamp="2010-05-10T18:29:55Z" uid="74617" user="JohnSmith" changeset="4662022"/>
  <way id="38106841" version="2" timestamp="2010-05-10T18:29:55Z" uid="74617" user="JohnSmith" changeset="4662022"/>
  <way id="38106915" version="2" timestamp="2010-07-08T03:53:45Z" uid="74617" user="JohnSmith" changeset="5163091">
    <nd ref="324219345"/>
    <nd ref="324219346"/>
    <nd ref="324219069"/>
    <nd ref="324219347"/>
    <tag k="highway" v="residential"/>
    <tag k="maxspeed" v="50"/>
    <tag k="maxspeed:source" v="default residential speed limit in Australia"/>
    <tag k="name" v="Moate Street"/>
  </way>
  <way id="38106915" version="3" timestamp="2012-01-19T02:24:55Z" uid="147510" user="woodpeck_fixbot" changeset="10433378">
    <nd ref="324219345"/>
    <nd ref="324219346"/>
    <nd ref="324219069"/>
    <nd ref="324219347"/>
    <tag k="highway" v="residential"/>
    <tag k="name" v="Moate Street"/>
  </way>
  <way id="38106945" version="3" timestamp="2011-02-24T10:25:43Z" uid="4467" user="Rosscoe" changeset="7380128">
    <nd ref="448279171"/>
    <nd ref="448279172"/>
    <nd ref="448279173"/>
    <nd ref="448279174"/>
    <nd ref="448279175"/>
    <nd ref="448279176"/>
    <nd ref="448279177"/>
    <nd ref="448279178"/>
    <nd ref="448279179"/>
    <nd ref="448279180"/>
    <nd ref="448279181"/>
    <nd ref="448279182"/>
    <nd ref="448279183"/>
    <nd ref="448279184"/>
    <nd ref="448279185"/>
    <nd ref="1169749093"/>
    <nd ref="1169749016"/>
    <nd ref="263229195"/>
    <nd ref="1169749083"/>
    <nd ref="448279187"/>
    <nd ref="549765776"/>
    <nd ref="448279171"/>
    <tag k="attribution" v="Based on data from State of Queensland (Department of Environment and Resource Management) 2009"/>
    <tag k="landuse" v="residential"/>
    <tag k="source" v="au.qld.dcdb_lite"/>
  </way>
  <way id="38106947" version="2" timestamp="2011-02-24T10:25:17Z" uid="4467" user="Rosscoe" changeset="7380128">
    <nd ref="448279181"/>
    <nd ref="448279188"/>
    <nd ref="448279186"/>
    <nd ref="1169749028"/>
    <nd ref="1169749084"/>
    <nd ref="448279184"/>
    <nd ref="448279183"/>
    <nd ref="448279182"/>
    <nd ref="448279181"/>
    <tag k="leisure" v="common"/>
  </way>
</osm>
