<?xml version='1.0' encoding='UTF-8'?>
<osm version="0.6" generator="libosmium/2.20.0">
  <way id="38134034" version="3" timestamp="2010-04-03T13:52:02Z" uid="20587" user="balrog-kun" changeset="4312927">
    <nd ref="84005978"/>
    <nd ref="84005980"/>
    <nd ref="84005982"/>
    <nd ref="83998890"/>
    <nd ref="84005984"/>
    <nd ref="83998725"/>
    <nd ref="84005986"/>
    <nd ref="84005988"/>
    <nd ref="84005990"/>
    <nd ref="84005992"/>
    <nd ref="84005996"/>
    <nd ref="84005998"/>
    <nd ref="83968286"/>
    <tag k="highway" v="track"/>
    <tag k="name" v="Ophir Canyon Road"/>
    <tag k="tiger:cfcc" v="A41"/>
    <tag k="tiger:county" v="Tooele, UT"/>
    <tag k="tiger:name_base" v="Ophir Canyon"/>
    <tag k="tiger:name_type" v="Rd"/>
    <tag k="tiger:reviewed" v="no"/>
    <tag k="tiger:separated" v="no"/>
    <tag k="tiger:source" v="tiger_import_dch_v0.6_20070830"/>
    <tag k="tiger:tlid" v="155395515:155395514:155395516:155374024:155395523:155400310:155397887:155397888:155375987:155375991:155374013"/>
    <tag k="tracktype" v="grade1"/>
  </way>
  <way id="38134045" version="1" timestamp="2009-07-27T03:43:45Z" uid="74617" user="JohnSmith" changeset="1951118">
    <nd ref="324952628"/>
    <nd ref="324952618"/>
    <tag k="foot" v="yes"/>
    <tag k="highway" v="cycleway"/>
    <tag k="layer" v="-1"/>
    <tag k="tunnel" v="yes"/>
  </way>
  <way id="38134046" version="1" timestamp="2009-07-27T03:43:46Z" uid="74617" user="JohnSmith" changeset="1951118">
    <nd ref="324952618"/>
    <nd ref="324952609"/>
    <nd ref="324952600"/>
    <nd ref="172030908"/>
    <tag k="foot" v="yes"/>
    <tag k="highway" v="cycleway"/>
  </way>
  <way id="38134046" version="2" timestamp="2010-09-20T23:11:42Z" uid="4481" user="Leigh" changeset="5833712">
    <nd ref="324952618"/>
    <nd ref="919952510"/>
    <nd ref="324952609"/>
    <nd ref="324952600"/>
    <nd ref="172030908"/>
    <tag k="foot" v="yes"/>
    <tag k="highway" v="cycleway"/>
  </way>
  <way id="38134046" version="3" timestamp="2010-12-08T12:11:23Z" uid="4481" user="Leigh" changeset="6584348">
    <nd ref="324952618"/>
    <nd ref="919952510"/>
    <nd ref="324952609"/>
    <nd ref="324952600"/>
    <nd ref="172030908"/>
    <tag k="bicycle" v="designated"/>
    <tag k="foot" v="designated"/>
    <tag k="highway" v="path"/>
    <tag k="segregated" v="no"/>
  </way>
  <way id="38134047" version="2" timestamp="2009-08-04T15:49:58Z" uid="74617" user="JohnSmith" changeset="2036932">
    <nd ref="448814858"/>
    <nd ref="25975675"/>
    <nd ref="25975676"/>
    <nd ref="25975677"/>
    <nd ref="25975678"/>
    <nd ref="25975679"/>
    <nd ref="25975680"/>
    <nd ref="245506511"/>
    <tag k="highway" v="motorway"/>
    <tag k="maxspeed" v="60"/>
    <tag k="name" v="Pacific Highway"/>
    <tag k="oneway" v="yes"/>
    <tag k="ref" v="NH1"/>
    <tag k="source" v="survey"/>
  </way>
  <way id="38134047" version="3" timestamp="2009-09-08T00:26:34Z" uid="24459" user="RRover" changeset="2409264">
    <nd ref="448814858"/>
    <nd ref="25975675"/>
    <nd ref="25975676"/>
    <nd ref="25975677"/>
    <nd ref="488964175"/>
    <nd ref="25975678"/>
    <nd ref="25975679"/>
    <nd ref="25975680"/>
    <nd ref="245506511"/>
    <tag k="highway" v="motorway"/>
    <tag k="maxspeed" v="60"/>
    <tag k="name" v="Pacific Highway"/>
    <tag k="oneway" v="yes"/>
    <tag k="ref" v="NH1"/>
    <tag k="source" v="survey"/>
  </way>
  <way id="38134047" version="4" timestamp="2010-03-29T13:14:50Z" uid="74617" user="JohnSmith" changeset="4267260">
    <nd ref="448814858"/>
    <nd ref="25975675"/>
    <nd ref="25975676"/>
    <nd ref="25975677"/>
    <nd ref="488964175"/>
    <nd ref="25975678"/>
    <nd ref="25975679"/>
    <nd ref="25975680"/>
    <nd ref="245506511"/>
    <tag k="highway" v="motorway"/>
    <tag k="maxspeed" v="60"/>
    <tag k="oneway" v="yes"/>
    <tag k="source" v="survey"/>
  </way>
  <way id="38134047" version="5" timestamp="2010-07-11T01:16:55Z" uid="299678" user="peteramjet" changeset="5186404">
    <nd ref="448814858"/>
    <nd ref="25975675"/>
    <nd ref="25975676"/>
    <nd ref="25975677"/>
    <nd ref="488964175"/>
    <nd ref="25975678"/>
    <nd ref="25975679"/>
    <nd ref="25975680"/>
    <nd ref="245506511"/>
    <tag k="highway" v="motorway"/>
    <tag k="maxspeed" v="60"/>
    <tag k="name" v="Pacific Highway"/>
    <tag k="oneway" v="yes"/>
    <tag k="source" v="survey"/>
  </way>
  <way id="38134047" version="6" timestamp="2010-09-06T02:09:08Z" uid="24459" user="RRover" changeset="5693994">
    <nd ref="448814858"/>
    <nd ref="25975675"/>
    <nd ref="25975676"/>
    <nd ref="25975677"/>
    <nd ref="488964175"/>
    <nd ref="25975678"/>
    <nd ref="25975679"/>
    <nd ref="25975680"/>
    <nd ref="245506511"/>
    <tag k="highway" v="motorway"/>
    <tag k="maxspeed" v="60"/>
    <tag k="name" v="Pacific Highway"/>
    <tag k="oneway" v="yes"/>
    <tag k="ref" v="NH1"/>
    <tag k="source" v="survey"/>
  </way>
  <way id="38134047" version="7" timestamp="2012-01-19T02:25:22Z" uid="147510" user="woodpeck_fixbot" changeset="10433378">
    <nd ref="448814858"/>
    <nd ref="25975675"/>
    <nd ref="25975676"/>
    <nd ref="25975677"/>
    <nd ref="488964175"/>
    <nd ref="25975678"/>
    <nd ref="25975679"/>
    <nd ref="25975680"/>
    <nd ref="245506511"/>
    <tag k="highway" v="motorway"/>
    <tag k="name" v="Pacific Highway"/>
    <tag k="oneway" v="yes"/>
    <tag k="ref" v="NH1"/>
    <tag k="source" v="survey"/>
  </way>
  <way id="38134048" version="2" timestamp="2009-08-03T11:02:50Z" uid="4467" user="Rosscoe" changeset="2024137"/>
  <way id="38134049" version="6" timestamp="2010-04-03T13:52:03Z" uid="20587" user="balrog-kun" changeset="4312927">
    <nd ref="83960901"/>
    <nd ref="83960903"/>
    <nd ref="83960904"/>
    <nd ref="83921089"/>
    <nd ref="83920146"/>
    <nd ref="83960906"/>
    <nd ref="448815912"/>
    <nd ref="83960908"/>
    <nd ref="448815913"/>
    <nd ref="83960911"/>
    <nd ref="83960913"/>
    <nd ref="83960915"/>
    <nd ref="83960840"/>
    <nd ref="83960916"/>
    <nd ref="83960917"/>
    <nd ref="83960918"/>
    <nd ref="448815357"/>
    <nd ref="83960919"/>
    <nd ref="448815343"/>
    <nd ref="448815344"/>
    <nd ref="448815345"/>
    <nd ref="83960921"/>
    <nd ref="83960923"/>
    <nd ref="83960925"/>
    <nd ref="83960927"/>
    <nd ref="83960930"/>
    <nd ref="83960932"/>
    <nd ref="83960933"/>
    <nd ref="448815346"/>
    <nd ref="448815347"/>
    <nd ref="83960934"/>
    <nd ref="448815348"/>
    <nd ref="83960935"/>
    <nd ref="83960938"/>
    <nd ref="83960940"/>
    <nd ref="83960942"/>
    <nd ref="84005943"/>
    <nd ref="84005945"/>
    <nd ref="84005947"/>
    <nd ref="84005949"/>
    <nd ref="84005952"/>
    <nd ref="84005954"/>
    <nd ref="84005956"/>
    <nd ref="84005958"/>
    <nd ref="84005960"/>
    <nd ref="84005962"/>
    <nd ref="84005964"/>
    <nd ref="84005966"/>
    <nd ref="84005968"/>
    <nd ref="83920429"/>
    <nd ref="448814855"/>
    <nd ref="84005970"/>
    <nd ref="84005972"/>
    <nd ref="84001655"/>
    <nd ref="84005974"/>
    <nd ref="84005976"/>
    <nd ref="84005978"/>
    <tag k="highway" v="tertiary"/>
    <tag k="name" v="Ophir Canyon Road"/>
    <tag k="tiger:cfcc" v="A41"/>
    <tag k="tiger:county" v="Tooele, UT"/>
    <tag k="tiger:name_base" v="Ophir Canyon"/>
    <tag k="tiger:name_type" v="Rd"/>
    <tag k="tiger:reviewed" v="no"/>
    <tag k="tiger:separated" v="no"/>
    <tag k="tiger:source" v="tiger_import_dch_v0.6_20070830"/>
    <tag k="tiger:tlid" v="155395515:155395514:155395516:155374024:155395523:155400310:155397887:155397888:155375987:155375991:155374013"/>
  </way>
  <way id="38134116" version="1" timestamp="2009-07-27T03:47:24Z" uid="74617" user="JohnSmith" changeset="1951131">
    <nd ref="327390683"/>
    <nd ref="326945460"/>
    <tag k="highway" v="footway"/>
    <tag k="layer" v="-1"/>
    <tag k="name" v="Whitby Walkway"/>
    <tag k="surface" v="paved"/>
    <tag k="tunnel" v="yes"/>
  </way>
  <way id="38134117" version="1" timestamp="2009-07-27T03:47:24Z" uid="74617" user="JohnSmith" changeset="1951131">
    <nd ref="326945460"/>
    <nd ref="326945481"/>
    <nd ref="326945505"/>
    <nd ref="326945522"/>
    <nd ref="326945541"/>
    <nd ref="326945562"/>
    <nd ref="326945578"/>
    <nd ref="326945596"/>
    <nd ref="326945615"/>
    <nd ref="326945639"/>
    <nd ref="326945664"/>
    <nd ref="326945677"/>
    <nd ref="326945703"/>
    <nd ref="326945730"/>
    <nd ref="326945754"/>
    <nd ref="326945765"/>
    <nd ref="326945778"/>
    <nd ref="326945790"/>
    <nd ref="184379513"/>
    <tag k="highway" v="footway"/>
    <tag k="name" v="Whitby Walkway"/>
    <tag k="surface" v="paved"/>
  </way>
  <way id="38134120" version="1" timestamp="2009-07-27T03:47:24Z" uid="74617" user="JohnSmith" changeset="1951131">
    <nd ref="324871627"/>
    <nd ref="324871635"/>
    <tag k="bicycle" v="yes"/>
    <tag k="foot" v="yes"/>
    <tag k="highway" v="cycleway"/>
    <tag k="layer" v="-1"/>
    <tag k="name" v="Whitby Walkway"/>
    <tag k="surface" v="paved"/>
    <tag k="tunnel" v="yes"/>
  </way>
  <way id="38134120" version="2" timestamp="2010-12-08T12:11:28Z" uid="4481" user="Leigh" changeset="6584348">
    <nd ref="324871627"/>
    <nd ref="324871635"/>
    <tag k="bicycle" v="designated"/>
    <tag k="foot" v="designated"/>
    <tag k="highway" v="path"/>
    <tag k="layer" v="-1"/>
    <tag k="name" v="Whitby Walkway"/>
    <tag k="segregated" v="no"/>
    <tag k="surface" v="paved"/>
    <tag k="tunnel" v="yes"/>
  </way>
  <way id="38134122" version="1" timestamp="2009-07-27T03:47:24Z" uid="74617" user="JohnSmith" changeset="1951131">
    <nd ref="324871635"/>
    <nd ref="324871642"/>
    <nd ref="324871649"/>
    <nd ref="324871657"/>
    <nd ref="324871664"/>
    <tag k="bicycle" v="yes"/>
    <tag k="foot" v="yes"/>
    <tag k="highway" v="cycleway"/>
    <tag k="name" v="Whitby Walkway"/>
    <tag k="surface" v="paved"/>
  </way>
  <way id="38134122" version="2" timestamp="2010-12-08T12:11:22Z" uid="4481" user="Leigh" changeset="6584348">
    <nd ref="324871635"/>
    <nd ref="324871642"/>
    <nd ref="324871649"/>
    <nd ref="324871657"/>
    <nd ref="324871664"/>
    <tag k="bicycle" v="designated"/>
    <tag k="foot" v="designated"/>
    <tag k="highway" v="path"/>
    <tag k="name" v="Whitby Walkway"/>
    <tag k="segregated" v="no"/>
    <tag k="surface" v="paved"/>
  </way>
  <way id="38134123" version="1" timestamp="2009-07-27T03:47:24Z" uid="74617" user="JohnSmith" changeset="1951131">
    <nd ref="324871664"/>
    <nd ref="324871672"/>
    <tag k="bicycle" v="yes"/>
    <tag k="bridge" v="yes"/>
    <tag k="foot" v="yes"/>
    <tag k="highway" v="cycleway"/>
    <tag k="layer" v="1"/>
    <tag k="name" v="Whitby Walkway"/>
    <tag k="surface" v="paved"/>
  </way>
  <way id="38134123" version="2" timestamp="2010-12-08T12:11:24Z" uid="4481" user="Leigh" changeset="6584348">
    <nd ref="324871664"/>
    <nd ref="324871672"/>
    <tag k="bicycle" v="designated"/>
    <tag k="bridge" v="yes"/>
    <tag k="foot" v="designated"/>
    <tag k="highway" v="path"/>
    <tag k="layer" v="1"/>
    <tag k="name" v="Whitby Walkway"/>
    <tag k="segregated" v="no"/>
    <tag k="surface" v="paved"/>
  </way>
  <way id="38134125" version="1" timestamp="2009-07-27T03:47:24Z" uid="74617" user="JohnSmith" changeset="1951131">
    <nd ref="324871672"/>
    <nd ref="324871679"/>
    <nd ref="324871686"/>
    <nd ref="324871694"/>
    <nd ref="324871702"/>
    <nd ref="324871709"/>
    <nd ref="324871721"/>
    <nd ref="324871735"/>
    <nd ref="361045407"/>
    <nd ref="324871750"/>
    <nd ref="361045415"/>
    <nd ref="324871765"/>
    <nd ref="361045425"/>
    <nd ref="324871780"/>
    <tag k="bicycle" v="yes"/>
    <tag k="foot" v="yes"/>
    <tag k="highway" v="cycleway"/>
    <tag k="name" v="Whitby Walkway"/>
    <tag k="surface" v="paved"/>
  </way>
  <way id="38134125" version="2" timestamp="2010-12-08T12:11:25Z" uid="4481" user="Leigh" changeset="6584348">
    <nd ref="324871672"/>
    <nd ref="324871679"/>
    <nd ref="324871686"/>
    <nd ref="324871694"/>
    <nd ref="324871702"/>
    <nd ref="324871709"/>
    <nd ref="324871721"/>
    <nd ref="324871735"/>
    <nd ref="361045407"/>
    <nd ref="324871750"/>
    <nd ref="361045415"/>
    <nd ref="324871765"/>
    <nd ref="361045425"/>
    <nd ref="324871780"/>
    <tag k="bicycle" v="designated"/>
    <tag k="foot" v="designated"/>
    <tag k="highway" v="path"/>
    <tag k="name" v="Whitby Walkway"/>
    <tag k="segregated" v="no"/>
    <tag k="surface" v="paved"/>
  </way>
  <way id="38134127" version="1" timestamp="2009-07-27T03:47:24Z" uid="74617" user="JohnSmith" changeset="1951131">
    <nd ref="324871993"/>
    <nd ref="324871999"/>
    <tag k="bicycle" v="yes"/>
    <tag k="foot" v="yes"/>
    <tag k="highway" v="cycleway"/>
    <tag k="layer" v="-1"/>
    <tag k="name" v="Whitby Walkway"/>
    <tag k="surface" v="paved"/>
    <tag k="tunnel" v="yes"/>
  </way>
  <way id="38134127" version="2" timestamp="2010-12-08T12:11:27Z" uid="4481" user="Leigh" changeset="6584348">
    <nd ref="324871993"/>
    <nd ref="324871999"/>
    <tag k="bicycle" v="designated"/>
    <tag k="foot" v="designated"/>
    <tag k="highway" v="path"/>
    <tag k="layer" v="-1"/>
    <tag k="name" v="Whitby Walkway"/>
    <tag k="segregated" v="no"/>
    <tag k="surface" v="paved"/>
    <tag k="tunnel" v="yes"/>
  </way>
  <way id="38134128" version="1" timestamp="2009-07-27T03:47:24Z" uid="74617" user="JohnSmith" changeset="1951131">
    <nd ref="324871999"/>
    <nd ref="324872007"/>
    <nd ref="324872015"/>
    <nd ref="324872022"/>
    <nd ref="324872030"/>
    <nd ref="324872038"/>
    <nd ref="324872046"/>
    <nd ref="324872054"/>
    <nd ref="324872062"/>
    <nd ref="324872070"/>
    <nd ref="324872077"/>
    <nd ref="324872084"/>
    <nd ref="324872091"/>
    <nd ref="324872100"/>
    <nd ref="324872108"/>
    <nd ref="324872117"/>
    <nd ref="324872124"/>
    <nd ref="324872131"/>
    <nd ref="172028607"/>
    <tag k="bicycle" v="yes"/>
    <tag k="foot" v="yes"/>
    <tag k="highway" v="cycleway"/>
    <tag k="name" v="Whitby Walkway"/>
    <tag k="surface" v="paved"/>
  </way>
  <way id="38134128" version="2" timestamp="2010-12-08T12:11:25Z" uid="4481" user="Leigh" changeset="6584348">
    <nd ref="324871999"/>
    <nd ref="324872007"/>
    <nd ref="324872015"/>
    <nd ref="324872022"/>
    <nd ref="324872030"/>
    <nd ref="324872038"/>
    <nd ref="324872046"/>
    <nd ref="324872054"/>
    <nd ref="324872062"/>
    <nd ref="324872070"/>
    <nd ref="324872077"/>
    <nd ref="324872084"/>
    <nd ref="324872091"/>
    <nd ref="324872100"/>
    <nd ref="324872108"/>
    <nd ref="324872117"/>
    <nd ref="324872124"/>
    <nd ref="324872131"/>
    <nd ref="172028607"/>
    <tag k="bicycle" v="designated"/>
    <tag k="foot" v="designated"/>
    <tag k="highway" v="path"/>
    <tag k="name" v="Whitby Walkway"/>
    <tag k="segregated" v="no"/>
    <tag k="surface" v="paved"/>
  </way>
  <way id="38134129" version="1" timestamp="2009-07-27T03:47:24Z" uid="74617" user="JohnSmith" changeset="1951131">
    <nd ref="324871780"/>
    <nd ref="324871791"/>
    <tag k="bicycle" v="yes"/>
    <tag k="bridge" v="yes"/>
    <tag k="foot" v="yes"/>
    <tag k="highway" v="cycleway"/>
    <tag k="layer" v="1"/>
    <tag k="name" v="Whitby Walkway"/>
    <tag k="surface" v="paved"/>
  </way>
  <way id="38134129" version="2" timestamp="2010-12-08T12:11:26Z" uid="4481" user="Leigh" changeset="6584348">
    <nd ref="324871780"/>
    <nd ref="324871791"/>
    <tag k="bicycle" v="designated"/>
    <tag k="bridge" v="yes"/>
    <tag k="foot" v="designated"/>
    <tag k="highway" v="path"/>
    <tag k="layer" v="1"/>
    <tag k="name" v="Whitby Walkway"/>
    <tag k="segregated" v="no"/>
    <tag k="surface" v="paved"/>
  </way>
  <way id="38134131" version="1" timestamp="2009-07-27T03:47:25Z" uid="74617" user="JohnSmith" changeset="1951131">
    <nd ref="324871791"/>
    <nd ref="361049529"/>
    <nd ref="326979371"/>
    <nd ref="361049535"/>
    <nd ref="361049540"/>
    <nd ref="324871798"/>
    <nd ref="324871806"/>
    <nd ref="324871813"/>
    <nd ref="324871820"/>
    <nd ref="324871828"/>
    <nd ref="324871836"/>
    <nd ref="361363704"/>
    <nd ref="361363728"/>
    <nd ref="324871844"/>
    <nd ref="361363718"/>
    <nd ref="324871852"/>
    <nd ref="324871859"/>
    <nd ref="324871867"/>
    <nd ref="324871875"/>
    <nd ref="324871882"/>
    <nd ref="324871890"/>
    <nd ref="324871898"/>
    <nd ref="324871905"/>
    <nd ref="361363694"/>
    <nd ref="361363648"/>
    <nd ref="361363666"/>
    <nd ref="361363683"/>
    <nd ref="361363657"/>
    <nd ref="361363673"/>
    <nd ref="324871913"/>
    <nd ref="324871920"/>
    <nd ref="324871928"/>
    <nd ref="324871936"/>
    <nd ref="324871940"/>
    <nd ref="324871941"/>
    <nd ref="324871942"/>
    <nd ref="324871945"/>
    <nd ref="324871953"/>
    <nd ref="361363526"/>
    <nd ref="324871960"/>
    <nd ref="324871968"/>
    <nd ref="324871977"/>
    <nd ref="324871986"/>
    <nd ref="326946513"/>
    <nd ref="326946312"/>
    <nd ref="326946335"/>
    <nd ref="324871993"/>
    <tag k="bicycle" v="yes"/>
    <tag k="foot" v="yes"/>
    <tag k="highway" v="cycleway"/>
    <tag k="name" v="Whitby Walkway"/>
    <tag k="surface" v="paved"/>
  </way>
  <way id="38134131" version="2" timestamp="2010-12-08T12:11:29Z" uid="4481" user="Leigh" changeset="6584348">
    <nd ref="324871791"/>
    <nd ref="361049529"/>
    <nd ref="326979371"/>
    <nd ref="361049535"/>
    <nd ref="361049540"/>
    <nd ref="324871798"/>
    <nd ref="324871806"/>
    <nd ref="324871813"/>
    <nd ref="324871820"/>
    <nd ref="324871828"/>
    <nd ref="324871836"/>
    <nd ref="361363704"/>
    <nd ref="361363728"/>
    <nd ref="324871844"/>
    <nd ref="361363718"/>
    <nd ref="324871852"/>
    <nd ref="324871859"/>
    <nd ref="324871867"/>
    <nd ref="324871875"/>
    <nd ref="324871882"/>
    <nd ref="324871890"/>
    <nd ref="324871898"/>
    <nd ref="324871905"/>
    <nd ref="361363694"/>
    <nd ref="361363648"/>
    <nd ref="361363666"/>
    <nd ref="361363683"/>
    <nd ref="361363657"/>
    <nd ref="361363673"/>
    <nd ref="324871913"/>
    <nd ref="324871920"/>
    <nd ref="324871928"/>
    <nd ref="324871936"/>
    <nd ref="324871940"/>
    <nd ref="324871941"/>
    <nd ref="324871942"/>
    <nd ref="324871945"/>
    <nd ref="324871953"/>
    <nd ref="361363526"/>
    <nd ref="324871960"/>
    <nd ref="324871968"/>
    <nd ref="324871977"/>
    <nd ref="324871986"/>
    <nd ref="326946513"/>
    <nd ref="326946312"/>
    <nd ref="326946335"/>
    <nd ref="324871993"/>
    <tag k="bicycle" v="designated"/>
    <tag k="foot" v="designated"/>
    <tag k="highway" v="path"/>
    <tag k="name" v="Whitby Walkway"/>
    <tag k="segregated" v="no"/>
    <tag k="surface" v="paved"/>
  </way>
  <way id="38134131" version="3" timestamp="2011-12-22T21:56:57Z" uid="4481" user="Leigh" changeset="10183366">
    <nd ref="324871791"/>
    <nd ref="361049529"/>
    <nd ref="326979371"/>
    <nd ref="361049535"/>
    <nd ref="361049540"/>
    <nd ref="324871798"/>
    <nd ref="324871806"/>
    <nd ref="324871813"/>
    <nd ref="324871820"/>
    <nd ref="324871828"/>
    <nd ref="324871836"/>
    <nd ref="361363704"/>
    <nd ref="361363728"/>
    <nd ref="324871844"/>
    <nd ref="361363718"/>
    <nd ref="324871852"/>
    <nd ref="324871859"/>
    <nd ref="324871867"/>
    <nd ref="324871875"/>
    <nd ref="1558641782"/>
    <nd ref="324871882"/>
    <nd ref="324871890"/>
    <nd ref="324871898"/>
    <nd ref="324871905"/>
    <nd ref="361363694"/>
    <nd ref="361363648"/>
    <nd ref="361363666"/>
    <nd ref="361363683"/>
    <nd ref="361363657"/>
    <nd ref="361363673"/>
    <nd ref="324871913"/>
    <nd ref="324871920"/>
    <nd ref="324871928"/>
    <nd ref="324871936"/>
    <nd ref="324871940"/>
    <nd ref="324871941"/>
    <nd ref="324871942"/>
    <nd ref="324871945"/>
    <nd ref="324871953"/>
    <nd ref="361363526"/>
    <nd ref="324871960"/>
    <nd ref="324871968"/>
    <nd ref="324871977"/>
    <nd ref="324871986"/>
    <nd ref="326946513"/>
    <nd ref="326946312"/>
    <nd ref="326946335"/>
    <nd ref="324871993"/>
    <tag k="bicycle" v="designated"/>
    <tag k="foot" v="designated"/>
    <tag k="highway" v="path"/>
    <tag k="name" v="Whitby Walkway"/>
    <tag k="segregated" v="no"/>
    <tag k="surface" v="paved"/>
  </way>
  <way id="38134235" version="3" timestamp="2010-03-29T13:19:35Z" uid="74617" user="JohnSmith" changeset="4267300">
    <nd ref="25975518"/>
    <nd ref="25975519"/>
    <nd ref="25975520"/>
    <nd ref="25975521"/>
    <nd ref="25975522"/>
    <nd ref="25975523"/>
    <nd ref="25975524"/>
    <nd ref="25975525"/>
    <nd ref="423572649"/>
    <nd ref="130032105"/>
    <nd ref="310493161"/>
    <nd ref="423576766"/>
    <nd ref="25975526"/>
    <nd ref="207681844"/>
    <nd ref="423577741"/>
    <nd ref="449431485"/>
    <tag k="highway" v="motorway"/>
    <tag k="lanes" v="2"/>
    <tag k="maxspeed" v="100"/>
    <tag k="oneway" v="yes"/>
  </way>
  <way id="38134235" version="4" timestamp="2010-07-11T01:08:52Z" uid="299678" user="peteramjet" changeset="5186404">
    <nd ref="25975518"/>
    <nd ref="25975519"/>
    <nd ref="25975520"/>
    <nd ref="25975521"/>
    <nd ref="25975522"/>
    <nd ref="25975523"/>
    <nd ref="25975524"/>
    <nd ref="25975525"/>
    <nd ref="423572649"/>
    <nd ref="130032105"/>
    <nd ref="310493161"/>
    <nd ref="423576766"/>
    <nd ref="25975526"/>
    <nd ref="207681844"/>
    <nd ref="423577741"/>
    <nd ref="449431485"/>
    <tag k="highway" v="motorway"/>
    <tag k="lanes" v="2"/>
    <tag k="maxspeed" v="100"/>
    <tag k="name" v="Pacific Highway"/>
    <tag k="oneway" v="yes"/>
  </way>
  <way id="38134235" version="5" timestamp="2010-08-22T23:59:06Z" uid="24459" user="RRover" changeset="5566961">
    <nd ref="25975518"/>
    <nd ref="25975519"/>
    <nd ref="25975520"/>
    <nd ref="25975521"/>
    <nd ref="25975522"/>
    <nd ref="25975523"/>
    <nd ref="25975524"/>
    <nd ref="25975525"/>
    <nd ref="423572649"/>
    <nd ref="130032105"/>
    <nd ref="310493161"/>
    <nd ref="423576766"/>
    <nd ref="25975526"/>
    <nd ref="207681844"/>
    <nd ref="423577741"/>
    <nd ref="449431485"/>
    <tag k="highway" v="motorway"/>
    <tag k="lanes" v="2"/>
    <tag k="maxspeed" v="100"/>
    <tag k="name" v="Pacific Highway"/>
    <tag k="oneway" v="yes"/>
    <tag k="ref" v="NH-1"/>
  </way>
  <way id="38134235" version="6" timestamp="2010-09-01T09:20:23Z" uid="299678" user="peteramjet" changeset="5652363">
    <nd ref="25975518"/>
    <nd ref="25975519"/>
    <nd ref="25975520"/>
    <nd ref="25975521"/>
    <nd ref="25975522"/>
    <nd ref="25975523"/>
    <nd ref="25975524"/>
    <nd ref="25975525"/>
    <nd ref="423572649"/>
    <nd ref="130032105"/>
    <nd ref="310493161"/>
    <nd ref="423576766"/>
    <nd ref="25975526"/>
    <nd ref="207681844"/>
    <nd ref="423577741"/>
    <nd ref="449431485"/>
    <tag k="highway" v="motorway"/>
    <tag k="lanes" v="2"/>
    <tag k="maxspeed" v="100"/>
    <tag k="name" v="Pacific Highway"/>
    <tag k="oneway" v="yes"/>
  </way>
  <way id="38134235" version="7" timestamp="2010-09-14T05:57:23Z" uid="24459" user="RRover" changeset="5775452">
    <nd ref="25975518"/>
    <nd ref="25975519"/>
    <nd ref="25975520"/>
    <nd ref="25975521"/>
    <nd ref="25975522"/>
    <nd ref="25975523"/>
    <nd ref="25975524"/>
    <nd ref="25975525"/>
    <nd ref="423572649"/>
    <nd ref="130032105"/>
    <nd ref="310493161"/>
    <nd ref="423576766"/>
    <nd ref="25975526"/>
    <nd ref="207681844"/>
    <nd ref="423577741"/>
    <nd ref="449431485"/>
    <tag k="highway" v="motorway"/>
    <tag k="lanes" v="2"/>
    <tag k="maxspeed" v="100"/>
    <tag k="name" v="Pacific Highway"/>
    <tag k="oneway" v="yes"/>
    <tag k="ref" v="NH1"/>
  </way>
  <way id="38134235" version="8" timestamp="2011-01-27T08:04:43Z" uid="4467" user="Rosscoe" changeset="7100928">
    <nd ref="25975518"/>
    <nd ref="25975519"/>
    <nd ref="25975520"/>
    <nd ref="25975521"/>
    <nd ref="25975522"/>
    <nd ref="25975523"/>
    <nd ref="25975524"/>
    <nd ref="25975525"/>
    <nd ref="130032105"/>
    <nd ref="207681844"/>
    <nd ref="423577741"/>
    <nd ref="1123131557"/>
    <tag k="highway" v="motorway"/>
    <tag k="lanes" v="2"/>
    <tag k="maxspeed" v="100"/>
    <tag k="name" v="Pacific Highway"/>
    <tag k="oneway" v="yes"/>
    <tag k="ref" v="NH1"/>
  </way>
  <way id="38134262" version="2" timestamp="2010-04-03T04:17:50Z" uid="20587" user="balrog-kun" changeset="4309442">
    <nd ref="448816895"/>
    <nd ref="175272609"/>
    <tag k="highway" v="secondary"/>
    <tag k="name" v="North Houghton Road"/>
    <tag k="tiger:cfcc" v="A41"/>
    <tag k="tiger:county" v="Pima, AZ"/>
    <tag k="tiger:name_base" v="Houghton"/>
    <tag k="tiger:name_direction_prefix" v="N"/>
    <tag k="tiger:name_type" v="Rd"/>
    <tag k="tiger:separated" v="no"/>
    <tag k="tiger:source" v="tiger_import_dch_v0.6_20070809"/>
    <tag k="tiger:tlid" v="121187264:121187284:121187285"/>
  </way>
  <way id="38134263" version="2" timestamp="2010-04-03T04:17:50Z" uid="20587" user="balrog-kun" changeset="4309442">
    <nd ref="175568457"/>
    <nd ref="448816895"/>
    <tag k="bridge" v="yes"/>
    <tag k="highway" v="secondary"/>
    <tag k="layer" v="1"/>
    <tag k="name" v="North Houghton Road"/>
    <tag k="tiger:cfcc" v="A41"/>
    <tag k="tiger:county" v="Pima, AZ"/>
    <tag k="tiger:name_base" v="Houghton"/>
    <tag k="tiger:name_direction_prefix" v="N"/>
    <tag k="tiger:name_type" v="Rd"/>
    <tag k="tiger:separated" v="no"/>
    <tag k="tiger:source" v="tiger_import_dch_v0.6_20070809"/>
    <tag k="tiger:tlid" v="121187264:121187284:121187285"/>
  </way>
  <way id="38134359" version="4" timestamp="2010-04-04T01:19:20Z" uid="20587" user="balrog-kun" changeset="4318136">
    <nd ref="88500629"/>
    <nd ref="477086283"/>
    <nd ref="477086284"/>
    <nd ref="477086254"/>
    <nd ref="477086285"/>
    <nd ref="477086286"/>
    <nd ref="477086287"/>
    <nd ref="477086288"/>
    <nd ref="477086289"/>
    <nd ref="477086290"/>
    <nd ref="477086291"/>
    <nd ref="477086292"/>
    <nd ref="448818210"/>
    <nd ref="448818211"/>
    <nd ref="448818212"/>
    <nd ref="448818213"/>
    <nd ref="448818214"/>
    <nd ref="448818207"/>
    <nd ref="448818215"/>
    <nd ref="448818216"/>
    <nd ref="448818217"/>
    <nd ref="448818218"/>
    <nd ref="448818219"/>
    <nd ref="448818220"/>
    <nd ref="448818208"/>
    <nd ref="448818221"/>
    <nd ref="448818222"/>
    <nd ref="448818223"/>
    <nd ref="448818224"/>
    <nd ref="448818225"/>
    <nd ref="448818226"/>
    <nd ref="448818227"/>
    <nd ref="448818228"/>
    <nd ref="448818229"/>
    <nd ref="448818230"/>
    <nd ref="448818231"/>
    <nd ref="448818232"/>
    <nd ref="477085390"/>
    <tag k="highway" v="residential"/>
    <tag k="name" v="Timberline Road; Timberline Road"/>
    <tag k="oneway" v="yes"/>
    <tag k="tiger:cfcc" v="A41"/>
    <tag k="tiger:county" v="Douglas, CO"/>
    <tag k="tiger:name_base" v="Timberline"/>
    <tag k="tiger:name_type" v="Rd"/>
    <tag k="tiger:reviewed" v="yes"/>
    <tag k="tiger:separated" v="no"/>
    <tag k="tiger:source" v="tiger_import_dch_v0.6_20070809"/>
    <tag k="tiger:tlid" v="130811023:130819289:130819291:130810202:130810205:130811956:130811505:130811047:130811982:130820682:130820683:130801199:130838245:130838246:130810159:130801225:130801200"/>
    <tag k="tiger:zip_left" v="80130"/>
    <tag k="tiger:zip_right" v="80130"/>
  </way>
  <way id="38134359" version="5" timestamp="2011-08-25T05:52:19Z" uid="42429" user="FK270673" changeset="9118375">
    <nd ref="88500629"/>
    <nd ref="477086283"/>
    <nd ref="477086284"/>
    <nd ref="477086254"/>
    <nd ref="477086285"/>
    <nd ref="477086286"/>
    <nd ref="477086287"/>
    <nd ref="477086288"/>
    <nd ref="477086289"/>
    <nd ref="477086290"/>
    <nd ref="477086291"/>
    <nd ref="477086292"/>
    <nd ref="448818210"/>
    <nd ref="448818211"/>
    <nd ref="448818212"/>
    <nd ref="448818213"/>
    <nd ref="448818214"/>
    <nd ref="448818207"/>
    <nd ref="448818215"/>
    <nd ref="448818216"/>
    <nd ref="448818217"/>
    <nd ref="448818218"/>
    <nd ref="448818219"/>
    <nd ref="448818220"/>
    <nd ref="448818208"/>
    <nd ref="448818221"/>
    <nd ref="448818222"/>
    <nd ref="448818223"/>
    <nd ref="448818224"/>
    <nd ref="448818225"/>
    <nd ref="448818226"/>
    <nd ref="448818227"/>
    <nd ref="448818228"/>
    <nd ref="448818229"/>
    <nd ref="448818230"/>
    <nd ref="448818231"/>
    <nd ref="448818232"/>
    <nd ref="477085390"/>
    <tag k="highway" v="tertiary"/>
    <tag k="name" v="Timberline Road; Timberline Road"/>
    <tag k="oneway" v="yes"/>
    <tag k="tiger:cfcc" v="A41"/>
    <tag k="tiger:county" v="Douglas, CO"/>
    <tag k="tiger:name_base" v="Timberline"/>
    <tag k="tiger:name_type" v="Rd"/>
    <tag k="tiger:reviewed" v="yes"/>
    <tag k="tiger:separated" v="no"/>
    <tag k="tiger:source" v="tiger_import_dch_v0.6_20070809"/>
    <tag k="tiger:tlid" v="130811023:130819289:130819291:130810202:130810205:130811956:130811505:130811047:130811982:130820682:130820683:130801199:130838245:130838246:130810159:130801225:130801200"/>
    <tag k="tiger:zip_left" v="80130"/>
    <tag k="tiger:zip_right" v="80130"/>
  </way>
  <way id="38134360" version="3" timestamp="2010-04-04T01:19:20Z" uid="20587" user="balrog-kun" changeset="4318136">
    <nd ref="88522483"/>
    <nd ref="88522486"/>
    <nd ref="448817271"/>
    <nd ref="88522488"/>
    <nd ref="448817272"/>
    <nd ref="88522490"/>
    <nd ref="448817273"/>
    <nd ref="448817274"/>
    <nd ref="448817275"/>
    <nd ref="88522491"/>
    <nd ref="88522493"/>
    <nd ref="448817276"/>
    <nd ref="448817277"/>
    <nd ref="88519934"/>
    <nd ref="88522495"/>
    <nd ref="448818205"/>
    <nd ref="88522496"/>
    <nd ref="448817278"/>
    <nd ref="88522498"/>
    <nd ref="88522500"/>
    <nd ref="447988555"/>
    <nd ref="88522501"/>
    <nd ref="448818206"/>
    <nd ref="448817279"/>
    <nd ref="88522504"/>
    <nd ref="88522507"/>
    <nd ref="88450985"/>
    <nd ref="477086152"/>
    <nd ref="88522509"/>
    <nd ref="88522511"/>
    <nd ref="477086174"/>
    <nd ref="88522513"/>
    <nd ref="477086180"/>
    <nd ref="88463379"/>
    <nd ref="88522515"/>
    <nd ref="447991973"/>
    <nd ref="88500629"/>
    <tag k="highway" v="residential"/>
    <tag k="name" v="Timberline Road"/>
    <tag k="oneway" v="yes"/>
    <tag k="tiger:cfcc" v="A41"/>
    <tag k="tiger:county" v="Douglas, CO"/>
    <tag k="tiger:name_base" v="Timberline"/>
    <tag k="tiger:name_type" v="Rd"/>
    <tag k="tiger:reviewed" v="yes; no"/>
    <tag k="tiger:separated" v="no"/>
    <tag k="tiger:source" v="tiger_import_dch_v0.6_20070809"/>
    <tag k="tiger:tlid" v="130811023:130819289:130819291:130810202:130810205:130811956:130811505:130811047:130811982:130820682:130820683:130801199:130838245:130838246:130810159:130801225:130801200"/>
    <tag k="tiger:zip_left" v="80130"/>
    <tag k="tiger:zip_right" v="80130"/>
  </way>
  <way id="38134360" version="4" timestamp="2011-08-25T05:52:17Z" uid="42429" user="FK270673" changeset="9118375">
    <nd ref="88522483"/>
    <nd ref="88522486"/>
    <nd ref="448817271"/>
    <nd ref="88522488"/>
    <nd ref="448817272"/>
    <nd ref="88522490"/>
    <nd ref="448817273"/>
    <nd ref="448817274"/>
    <nd ref="448817275"/>
    <nd ref="88522491"/>
    <nd ref="88522493"/>
    <nd ref="448817276"/>
    <nd ref="448817277"/>
    <nd ref="88519934"/>
    <nd ref="88522495"/>
    <nd ref="448818205"/>
    <nd ref="88522496"/>
    <nd ref="448817278"/>
    <nd ref="88522498"/>
    <nd ref="88522500"/>
    <nd ref="447988555"/>
    <nd ref="88522501"/>
    <nd ref="448818206"/>
    <nd ref="448817279"/>
    <nd ref="88522504"/>
    <nd ref="88522507"/>
    <nd ref="88450985"/>
    <nd ref="477086152"/>
    <nd ref="88522509"/>
    <nd ref="88522511"/>
    <nd ref="477086174"/>
    <nd ref="88522513"/>
    <nd ref="477086180"/>
    <nd ref="88463379"/>
    <nd ref="88522515"/>
    <nd ref="447991973"/>
    <nd ref="88500629"/>
    <tag k="highway" v="tertiary"/>
    <tag k="name" v="Timberline Road"/>
    <tag k="oneway" v="yes"/>
    <tag k="tiger:cfcc" v="A41"/>
    <tag k="tiger:county" v="Douglas, CO"/>
    <tag k="tiger:name_base" v="Timberline"/>
    <tag k="tiger:name_type" v="Rd"/>
    <tag k="tiger:reviewed" v="yes; no"/>
    <tag k="tiger:separated" v="no"/>
    <tag k="tiger:source" v="tiger_import_dch_v0.6_20070809"/>
    <tag k="tiger:tlid" v="130811023:130819289:130819291:130810202:130810205:130811956:130811505:130811047:130811982:130820682:130820683:130801199:130838245:130838246:130810159:130801225:130801200"/>
    <tag k="tiger:zip_left" v="80130"/>
    <tag k="tiger:zip_right" v="80130"/>
  </way>
  <way id="38134411" version="2" timestamp="2010-07-07T10:39:22Z" uid="74617" user="JohnSmith" changeset="5157498">
    <nd ref="281407695"/>
    <nd ref="281407719"/>
    <nd ref="281407730"/>
    <nd ref="281407732"/>
    <nd ref="281407754"/>
    <nd ref="448819185"/>
    <nd ref="281407734"/>
    <nd ref="281407739"/>
    <nd ref="281407740"/>
    <nd ref="281407741"/>
    <nd ref="281407742"/>
    <nd ref="281407743"/>
    <nd ref="281407744"/>
    <nd ref="281407745"/>
    <nd ref="281407746"/>
    <nd ref="281407747"/>
    <nd ref="281407748"/>
    <tag k="highway" v="residential"/>
    <tag k="maxspeed" v="50"/>
    <tag k="maxspeed:source" v="default residential speed limit in Australia"/>
    <tag k="name" v="Boronia Street"/>
    <tag k="source" v="survey"/>
  </way>
  <way id="38134411" version="3" timestamp="2012-01-19T02:25:23Z" uid="147510" user="woodpeck_fixbot" changeset="10433378">
    <nd ref="281407695"/>
    <nd ref="281407719"/>
    <nd ref="281407730"/>
    <nd ref="281407732"/>
    <nd ref="281407754"/>
    <nd ref="448819185"/>
    <nd ref="281407734"/>
    <nd ref="281407739"/>
    <nd ref="281407740"/>
    <nd ref="281407741"/>
    <nd ref="281407742"/>
    <nd ref="281407743"/>
    <nd ref="281407744"/>
    <nd ref="281407745"/>
    <nd ref="281407746"/>
    <nd ref="281407747"/>
    <nd ref="281407748"/>
    <tag k="highway" v="residential"/>
    <tag k="name" v="Boronia Street"/>
    <tag k="source" v="survey"/>
  </way>
  <way id="38134414" version="2" timestamp="2010-04-03T13:52:07Z" uid="20587" user="balrog-kun" changeset="4312927">
    <nd ref="84006627"/>
    <nd ref="84004288"/>
    <nd ref="84006629"/>
    <tag k="highway" v="residential"/>
    <tag k="name" v="Canyon Road"/>
    <tag k="tiger:cfcc" v="A41"/>
    <tag k="tiger:county" v="Tooele, UT"/>
    <tag k="tiger:name_base" v="Canyon"/>
    <tag k="tiger:name_type" v="Rd"/>
    <tag k="tiger:reviewed" v="no"/>
    <tag k="tiger:separated" v="no"/>
    <tag k="tiger:source" v="tiger_import_dch_v0.6_20070830"/>
    <tag k="tiger:tlid" v="155391441"/>
  </way>
  <way id="38134715" version="3" timestamp="2009-11-11T04:16:24Z" uid="20587" user="balrog-kun" changeset="3087263">
    <nd ref="448822536"/>
    <nd ref="448822537"/>
    <nd ref="448822538"/>
    <nd ref="448822539"/>
    <nd ref="448822540"/>
    <tag k="highway" v="living_street"/>
    <tag k="name" v="Konstantego Ildefonsa Gałczyńskiego"/>
  </way>
  <way id="38134734" version="3" timestamp="2009-08-09T12:46:55Z" uid="4467" user="Rosscoe" changeset="2085146">
    <nd ref="448822867"/>
    <nd ref="448822868"/>
    <nd ref="448822869"/>
    <nd ref="340323316"/>
    <nd ref="448822870"/>
    <nd ref="448822871"/>
    <nd ref="448822872"/>
    <tag k="highway" v="residential"/>
    <tag k="maxspeed" v="50"/>
    <tag k="name" v="Fitzgerald Street"/>
    <tag k="source" v="survey"/>
  </way>
  <way id="38134734" version="4" timestamp="2009-08-14T04:40:38Z" uid="24459" user="RRover" changeset="2138423">
    <nd ref="448822867"/>
    <nd ref="448822868"/>
    <nd ref="448822869"/>
    <nd ref="340323316"/>
    <nd ref="448822870"/>
    <nd ref="448822871"/>
    <nd ref="448822872"/>
    <nd ref="465186763"/>
    <tag k="highway" v="residential"/>
    <tag k="maxspeed" v="50"/>
    <tag k="name" v="Fitzgerald Street"/>
    <tag k="source" v="survey"/>
  </way>
  <way id="38134734" version="5" timestamp="2009-08-14T05:23:06Z" uid="24459" user="RRover" changeset="2138612">
    <nd ref="448822867"/>
    <nd ref="448822868"/>
    <nd ref="448822869"/>
    <nd ref="340323316"/>
    <tag k="highway" v="residential"/>
    <tag k="maxspeed" v="50"/>
    <tag k="name" v="Fitzgerald Street"/>
    <tag k="source" v="survey"/>
  </way>
  <way id="38134818" version="1" timestamp="2009-07-27T04:58:38Z" uid="74617" user="JohnSmith" changeset="1951378">
    <nd ref="448810479"/>
    <nd ref="448824249"/>
    <tag k="bridge" v="yes"/>
    <tag k="construction" v="motorway"/>
    <tag k="highway" v="construction"/>
    <tag k="layer" v="1"/>
    <tag k="name" v="Bruce Highway"/>
    <tag k="oneway" v="yes"/>
    <tag k="ref" v="M1"/>
    <tag k="source" v="extrapolation"/>
  </way>
  <way id="38134818" version="2" timestamp="2009-07-27T10:28:33Z" uid="74617" user="JohnSmith" changeset="1953988">
    <nd ref="448810479"/>
    <nd ref="448824249"/>
    <tag k="bridge" v="yes"/>
    <tag k="construction" v="motorway"/>
    <tag k="highway" v="construction"/>
    <tag k="layer" v="1"/>
    <tag k="name" v="Bruce Highway"/>
    <tag k="oneway" v="yes"/>
    <tag k="ref" v="M1"/>
    <tag k="source" v="extrapolation"/>
    <tag k="source:url" v="http://www.mainroads.qld.gov.au/en/Projects/A-Z-Search/A-E/Bruce-Highway-Cooroy-to-Curra.aspx"/>
  </way>
  <way id="38134818" version="3" timestamp="2010-04-04T23:11:20Z" uid="74617" user="JohnSmith" changeset="4327637">
    <nd ref="448810479"/>
    <nd ref="448824249"/>
    <tag k="bridge" v="yes"/>
    <tag k="construction" v="motorway"/>
    <tag k="highway" v="construction"/>
    <tag k="layer" v="1"/>
    <tag k="name" v="Bruce Highway"/>
    <tag k="oneway" v="yes"/>
    <tag k="source" v="extrapolation"/>
    <tag k="source:url" v="http://www.mainroads.qld.gov.au/en/Projects/A-Z-Search/A-E/Bruce-Highway-Cooroy-to-Curra.aspx"/>
  </way>
  <way id="38134819" version="1" timestamp="2009-07-27T04:58:38Z" uid="74617" user="JohnSmith" changeset="1951378">
    <nd ref="448824249"/>
    <nd ref="448810480"/>
    <nd ref="448810481"/>
    <nd ref="448810482"/>
    <nd ref="448810483"/>
    <nd ref="448810484"/>
    <tag k="construction" v="motorway"/>
    <tag k="highway" v="construction"/>
    <tag k="name" v="Bruce Highway"/>
    <tag k="oneway" v="yes"/>
    <tag k="ref" v="M1"/>
    <tag k="source" v="extrapolation"/>
  </way>
  <way id="38134819" version="2" timestamp="2009-07-27T05:00:36Z" uid="74617" user="JohnSmith" changeset="1951384">
    <nd ref="448824249"/>
    <nd ref="448824330"/>
    <nd ref="448824332"/>
    <nd ref="448824335"/>
    <nd ref="448824337"/>
    <nd ref="448810480"/>
    <nd ref="448810481"/>
    <nd ref="448824339"/>
    <nd ref="448810482"/>
    <nd ref="448810483"/>
    <nd ref="448810484"/>
    <tag k="construction" v="motorway"/>
    <tag k="highway" v="construction"/>
    <tag k="name" v="Bruce Highway"/>
    <tag k="oneway" v="yes"/>
    <tag k="ref" v="M1"/>
    <tag k="source" v="extrapolation"/>
  </way>
  <way id="38134819" version="3" timestamp="2009-07-27T09:38:50Z" uid="74617" user="JohnSmith" changeset="1953580">
    <nd ref="448824249"/>
    <nd ref="448899046"/>
    <nd ref="448899064"/>
    <nd ref="448899050"/>
    <tag k="construction" v="motorway"/>
    <tag k="highway" v="construction"/>
    <tag k="name" v="Bruce Highway"/>
    <tag k="oneway" v="yes"/>
    <tag k="ref" v="M1"/>
    <tag k="source" v="extrapolation"/>
  </way>
  <way id="38134819" version="4" timestamp="2009-07-27T10:28:31Z" uid="74617" user="JohnSmith" changeset="1953988">
    <nd ref="448824249"/>
    <nd ref="448899046"/>
    <nd ref="448899064"/>
    <nd ref="448899050"/>
    <tag k="construction" v="motorway"/>
    <tag k="highway" v="construction"/>
    <tag k="name" v="Bruce Highway"/>
    <tag k="oneway" v="yes"/>
    <tag k="ref" v="M1"/>
    <tag k="source" v="extrapolation"/>
    <tag k="source:url" v="http://www.mainroads.qld.gov.au/en/Projects/A-Z-Search/A-E/Bruce-Highway-Cooroy-to-Curra.aspx"/>
  </way>
  <way id="38134819" version="5" timestamp="2010-04-04T23:11:20Z" uid="74617" user="JohnSmith" changeset="4327637">
    <nd ref="448824249"/>
    <nd ref="448899046"/>
    <nd ref="448899064"/>
    <nd ref="448899050"/>
    <tag k="construction" v="motorway"/>
    <tag k="highway" v="construction"/>
    <tag k="name" v="Bruce Highway"/>
    <tag k="oneway" v="yes"/>
    <tag k="source" v="extrapolation"/>
    <tag k="source:url" v="http://www.mainroads.qld.gov.au/en/Projects/A-Z-Search/A-E/Bruce-Highway-Cooroy-to-Curra.aspx"/>
  </way>
  <way id="38134820" version="1" timestamp="2009-07-27T04:58:38Z" uid="74617" user="JohnSmith" changeset="1951378">
    <nd ref="448810490"/>
    <nd ref="448810489"/>
    <nd ref="448810488"/>
    <nd ref="448810487"/>
    <nd ref="448810486"/>
    <nd ref="448810485"/>
    <nd ref="448810472"/>
    <nd ref="448810471"/>
    <nd ref="448810470"/>
    <nd ref="243656460"/>
    <nd ref="448810460"/>
    <nd ref="448810463"/>
    <tag k="construction" v="motorway"/>
    <tag k="highway" v="construction"/>
    <tag k="name" v="Bruce Highway"/>
    <tag k="oneway" v="yes"/>
    <tag k="ref" v="M1"/>
    <tag k="source" v="extrapolation"/>
  </way>
  <way id="38134820" version="2" timestamp="2009-07-27T05:03:18Z" uid="74617" user="JohnSmith" changeset="1951398">
    <nd ref="448810490"/>
    <nd ref="448810489"/>
    <nd ref="448824841"/>
    <tag k="construction" v="motorway"/>
    <tag k="highway" v="construction"/>
    <tag k="name" v="Bruce Highway"/>
    <tag k="oneway" v="yes"/>
    <tag k="ref" v="M1"/>
    <tag k="source" v="extrapolation"/>
  </way>
  <way id="38134820" version="3" timestamp="2009-07-27T05:06:50Z" uid="74617" user="JohnSmith" changeset="1951407">
    <nd ref="448810490"/>
    <nd ref="448810489"/>
    <tag k="construction" v="motorway"/>
    <tag k="highway" v="construction"/>
    <tag k="name" v="Bruce Highway"/>
    <tag k="oneway" v="yes"/>
    <tag k="ref" v="M1"/>
    <tag k="source" v="extrapolation"/>
  </way>
  <way id="38134820" version="4" timestamp="2009-07-27T10:28:29Z" uid="74617" user="JohnSmith" changeset="1953988">
    <nd ref="448810490"/>
    <nd ref="448810489"/>
    <tag k="construction" v="motorway"/>
    <tag k="highway" v="construction"/>
    <tag k="name" v="Bruce Highway"/>
    <tag k="oneway" v="yes"/>
    <tag k="ref" v="M1"/>
    <tag k="source" v="extrapolation"/>
    <tag k="source:url" v="http://www.mainroads.qld.gov.au/en/Projects/A-Z-Search/A-E/Bruce-Highway-Cooroy-to-Curra.aspx"/>
  </way>
  <way id="38134820" version="5" timestamp="2010-04-04T23:11:20Z" uid="74617" user="JohnSmith" changeset="4327637">
    <nd ref="448810490"/>
    <nd ref="448810489"/>
    <tag k="construction" v="motorway"/>
    <tag k="highway" v="construction"/>
    <tag k="name" v="Bruce Highway"/>
    <tag k="oneway" v="yes"/>
    <tag k="source" v="extrapolation"/>
    <tag k="source:url" v="http://www.mainroads.qld.gov.au/en/Projects/A-Z-Search/A-E/Bruce-Highway-Cooroy-to-Curra.aspx"/>
  </way>
  <way id="38134821" version="1" timestamp="2009-07-27T04:58:38Z" uid="74617" user="JohnSmith" changeset="1951378">
    <nd ref="448824250"/>
    <nd ref="448810490"/>
    <tag k="bridge" v="yes"/>
    <tag k="construction" v="motorway"/>
    <tag k="highway" v="construction"/>
    <tag k="layer" v="1"/>
    <tag k="name" v="Bruce Highway"/>
    <tag k="oneway" v="yes"/>
    <tag k="ref" v="M1"/>
    <tag k="source" v="extrapolation"/>
  </way>
  <way id="38134821" version="2" timestamp="2009-07-27T10:28:33Z" uid="74617" user="JohnSmith" changeset="1953988">
    <nd ref="448824250"/>
    <nd ref="448810490"/>
    <tag k="bridge" v="yes"/>
    <tag k="construction" v="motorway"/>
    <tag k="highway" v="construction"/>
    <tag k="layer" v="1"/>
    <tag k="name" v="Bruce Highway"/>
    <tag k="oneway" v="yes"/>
    <tag k="ref" v="M1"/>
    <tag k="source" v="extrapolation"/>
    <tag k="source:url" v="http://www.mainroads.qld.gov.au/en/Projects/A-Z-Search/A-E/Bruce-Highway-Cooroy-to-Curra.aspx"/>
  </way>
  <way id="38134821" version="3" timestamp="2010-04-04T23:11:20Z" uid="74617" user="JohnSmith" changeset="4327637">
    <nd ref="448824250"/>
    <nd ref="448810490"/>
    <tag k="bridge" v="yes"/>
    <tag k="construction" v="motorway"/>
    <tag k="highway" v="construction"/>
    <tag k="layer" v="1"/>
    <tag k="name" v="Bruce Highway"/>
    <tag k="oneway" v="yes"/>
    <tag k="source" v="extrapolation"/>
    <tag k="source:url" v="http://www.mainroads.qld.gov.au/en/Projects/A-Z-Search/A-E/Bruce-Highway-Cooroy-to-Curra.aspx"/>
  </way>
  <way id="38134854" version="1" timestamp="2009-07-27T05:03:16Z" uid="74617" user="JohnSmith" changeset="1951398">
    <nd ref="448824837"/>
    <nd ref="448824836"/>
    <tag k="bridge" v="yes"/>
    <tag k="construction" v="motorway"/>
    <tag k="highway" v="construction"/>
    <tag k="layer" v="1"/>
    <tag k="name" v="Bruce Highway"/>
    <tag k="oneway" v="yes"/>
    <tag k="ref" v="M1"/>
    <tag k="source" v="extrapolation"/>
  </way>
  <way id="38134854" version="2" timestamp="2009-07-27T10:28:30Z" uid="74617" user="JohnSmith" changeset="1953988">
    <nd ref="448824837"/>
    <nd ref="448824836"/>
    <tag k="bridge" v="yes"/>
    <tag k="construction" v="motorway"/>
    <tag k="highway" v="construction"/>
    <tag k="layer" v="1"/>
    <tag k="name" v="Bruce Highway"/>
    <tag k="oneway" v="yes"/>
    <tag k="ref" v="M1"/>
    <tag k="source" v="extrapolation"/>
    <tag k="source:url" v="http://www.mainroads.qld.gov.au/en/Projects/A-Z-Search/A-E/Bruce-Highway-Cooroy-to-Curra.aspx"/>
  </way>
  <way id="38134854" version="3" timestamp="2010-04-04T23:11:18Z" uid="74617" user="JohnSmith" changeset="4327637">
    <nd ref="448824837"/>
    <nd ref="448824836"/>
    <tag k="bridge" v="yes"/>
    <tag k="construction" v="motorway"/>
    <tag k="highway" v="construction"/>
    <tag k="layer" v="1"/>
    <tag k="name" v="Bruce Highway"/>
    <tag k="oneway" v="yes"/>
    <tag k="source" v="extrapolation"/>
    <tag k="source:url" v="http://www.mainroads.qld.gov.au/en/Projects/A-Z-Search/A-E/Bruce-Highway-Cooroy-to-Curra.aspx"/>
  </way>
  <way id="38134855" version="1" timestamp="2009-07-27T05:03:16Z" uid="74617" user="JohnSmith" changeset="1951398">
    <nd ref="448824836"/>
    <nd ref="448810469"/>
    <nd ref="448824832"/>
    <nd ref="448810473"/>
    <nd ref="448810474"/>
    <nd ref="448810475"/>
    <nd ref="448810476"/>
    <nd ref="448810477"/>
    <nd ref="448824838"/>
    <tag k="construction" v="motorway"/>
    <tag k="highway" v="construction"/>
    <tag k="name" v="Bruce Highway"/>
    <tag k="oneway" v="yes"/>
    <tag k="ref" v="M1"/>
    <tag k="source" v="extrapolation"/>
  </way>
  <way id="38134855" version="2" timestamp="2009-07-27T05:06:50Z" uid="74617" user="JohnSmith" changeset="1951407">
    <nd ref="448824836"/>
    <nd ref="448810469"/>
    <nd ref="448824832"/>
    <nd ref="448810473"/>
    <nd ref="448810474"/>
    <tag k="construction" v="motorway"/>
    <tag k="highway" v="construction"/>
    <tag k="name" v="Bruce Highway"/>
    <tag k="oneway" v="yes"/>
    <tag k="ref" v="M1"/>
    <tag k="source" v="extrapolation"/>
  </way>
  <way id="38134855" version="3" timestamp="2009-07-27T09:38:54Z" uid="74617" user="JohnSmith" changeset="1953580">
    <nd ref="448824836"/>
    <nd ref="448810469"/>
    <tag k="construction" v="motorway"/>
    <tag k="highway" v="construction"/>
    <tag k="name" v="Bruce Highway"/>
    <tag k="oneway" v="yes"/>
    <tag k="ref" v="M1"/>
    <tag k="source" v="extrapolation"/>
  </way>
  <way id="38134855" version="4" timestamp="2009-07-27T10:28:32Z" uid="74617" user="JohnSmith" changeset="1953988">
    <nd ref="448824836"/>
    <nd ref="448810469"/>
    <tag k="construction" v="motorway"/>
    <tag k="highway" v="construction"/>
    <tag k="name" v="Bruce Highway"/>
    <tag k="oneway" v="yes"/>
    <tag k="ref" v="M1"/>
    <tag k="source" v="extrapolation"/>
    <tag k="source:url" v="http://www.mainroads.qld.gov.au/en/Projects/A-Z-Search/A-E/Bruce-Highway-Cooroy-to-Curra.aspx"/>
  </way>
  <way id="38134855" version="5" timestamp="2010-04-04T23:11:18Z" uid="74617" user="JohnSmith" changeset="4327637">
    <nd ref="448824836"/>
    <nd ref="448810469"/>
    <tag k="construction" v="motorway"/>
    <tag k="highway" v="construction"/>
    <tag k="name" v="Bruce Highway"/>
    <tag k="oneway" v="yes"/>
    <tag k="source" v="extrapolation"/>
    <tag k="source:url" v="http://www.mainroads.qld.gov.au/en/Projects/A-Z-Search/A-E/Bruce-Highway-Cooroy-to-Curra.aspx"/>
  </way>
  <way id="38134856" version="1" timestamp="2009-07-27T05:03:16Z" uid="74617" user="JohnSmith" changeset="1951398">
    <nd ref="448824835"/>
    <nd ref="448824834"/>
    <tag k="bridge" v="yes"/>
    <tag k="construction" v="motorway"/>
    <tag k="highway" v="construction"/>
    <tag k="layer" v="1"/>
    <tag k="name" v="Bruce Highway"/>
    <tag k="oneway" v="yes"/>
    <tag k="ref" v="M1"/>
    <tag k="source" v="extrapolation"/>
  </way>
  <way id="38134856" version="2" timestamp="2009-07-27T10:28:30Z" uid="74617" user="JohnSmith" changeset="1953988">
    <nd ref="448824835"/>
    <nd ref="448824834"/>
    <tag k="bridge" v="yes"/>
    <tag k="construction" v="motorway"/>
    <tag k="highway" v="construction"/>
    <tag k="layer" v="1"/>
    <tag k="name" v="Bruce Highway"/>
    <tag k="oneway" v="yes"/>
    <tag k="ref" v="M1"/>
    <tag k="source" v="extrapolation"/>
    <tag k="source:url" v="http://www.mainroads.qld.gov.au/en/Projects/A-Z-Search/A-E/Bruce-Highway-Cooroy-to-Curra.aspx"/>
  </way>
  <way id="38134856" version="3" timestamp="2010-04-04T23:11:18Z" uid="74617" user="JohnSmith" changeset="4327637">
    <nd ref="448824835"/>
    <nd ref="448824834"/>
    <tag k="bridge" v="yes"/>
    <tag k="construction" v="motorway"/>
    <tag k="highway" v="construction"/>
    <tag k="layer" v="1"/>
    <tag k="name" v="Bruce Highway"/>
    <tag k="oneway" v="yes"/>
    <tag k="source" v="extrapolation"/>
    <tag k="source:url" v="http://www.mainroads.qld.gov.au/en/Projects/A-Z-Search/A-E/Bruce-Highway-Cooroy-to-Curra.aspx"/>
  </way>
  <way id="38134857" version="1" timestamp="2009-07-27T05:03:16Z" uid="74617" user="JohnSmith" changeset="1951398">
    <nd ref="448824834"/>
    <nd ref="448810470"/>
    <nd ref="243656460"/>
    <nd ref="448810460"/>
    <nd ref="448810463"/>
    <tag k="construction" v="motorway"/>
    <tag k="highway" v="construction"/>
    <tag k="name" v="Bruce Highway"/>
    <tag k="oneway" v="yes"/>
    <tag k="ref" v="M1"/>
    <tag k="source" v="extrapolation"/>
  </way>
  <way id="38134857" version="2" timestamp="2009-07-27T09:38:54Z" uid="74617" user="JohnSmith" changeset="1953580">
    <nd ref="448824834"/>
    <nd ref="448810470"/>
    <nd ref="448899086"/>
    <tag k="construction" v="motorway"/>
    <tag k="highway" v="construction"/>
    <tag k="name" v="Bruce Highway"/>
    <tag k="oneway" v="yes"/>
    <tag k="ref" v="M1"/>
    <tag k="source" v="extrapolation"/>
  </way>
  <way id="38134857" version="3" timestamp="2009-07-27T10:24:18Z" uid="74617" user="JohnSmith" changeset="1953961">
    <nd ref="448824834"/>
    <nd ref="448810470"/>
    <nd ref="448899086"/>
    <nd ref="448899087"/>
    <nd ref="448810460"/>
    <nd ref="448810463"/>
    <tag k="construction" v="motorway"/>
    <tag k="highway" v="construction"/>
    <tag k="name" v="Bruce Highway"/>
    <tag k="oneway" v="yes"/>
    <tag k="ref" v="M1"/>
    <tag k="source" v="extrapolation"/>
  </way>
  <way id="38134857" version="4" timestamp="2009-07-27T10:28:32Z" uid="74617" user="JohnSmith" changeset="1953988">
    <nd ref="448824834"/>
    <nd ref="448810470"/>
    <nd ref="448899086"/>
    <nd ref="448899087"/>
    <nd ref="448810460"/>
    <nd ref="448810463"/>
    <tag k="construction" v="motorway"/>
    <tag k="highway" v="construction"/>
    <tag k="name" v="Bruce Highway"/>
    <tag k="oneway" v="yes"/>
    <tag k="ref" v="M1"/>
    <tag k="source" v="extrapolation"/>
    <tag k="source:url" v="http://www.mainroads.qld.gov.au/en/Projects/A-Z-Search/A-E/Bruce-Highway-Cooroy-to-Curra.aspx"/>
  </way>
  <way id="38134857" version="5" timestamp="2010-04-04T23:11:17Z" uid="74617" user="JohnSmith" changeset="4327637">
    <nd ref="448824834"/>
    <nd ref="448810470"/>
    <nd ref="448899086"/>
    <nd ref="448899087"/>
    <nd ref="448810460"/>
    <nd ref="448810463"/>
    <tag k="construction" v="motorway"/>
    <tag k="highway" v="construction"/>
    <tag k="name" v="Bruce Highway"/>
    <tag k="oneway" v="yes"/>
    <tag k="source" v="extrapolation"/>
    <tag k="source:url" v="http://www.mainroads.qld.gov.au/en/Projects/A-Z-Search/A-E/Bruce-Highway-Cooroy-to-Curra.aspx"/>
  </way>
  <way id="38134858" version="1" timestamp="2009-07-27T05:03:16Z" uid="74617" user="JohnSmith" changeset="1951398">
    <nd ref="448824841"/>
    <nd ref="448824840"/>
    <tag k="bridge" v="yes"/>
    <tag k="construction" v="motorway"/>
    <tag k="highway" v="construction"/>
    <tag k="layer" v="1"/>
    <tag k="name" v="Bruce Highway"/>
    <tag k="oneway" v="yes"/>
    <tag k="ref" v="M1"/>
    <tag k="source" v="extrapolation"/>
  </way>
  <way id="38134858" version="2" timestamp="2009-07-27T05:06:50Z" uid="74617" user="JohnSmith" changeset="1951407">
    <nd ref="448810489"/>
    <nd ref="448825227"/>
    <tag k="bridge" v="yes"/>
    <tag k="construction" v="motorway"/>
    <tag k="highway" v="construction"/>
    <tag k="layer" v="1"/>
    <tag k="name" v="Bruce Highway"/>
    <tag k="oneway" v="yes"/>
    <tag k="ref" v="M1"/>
    <tag k="source" v="extrapolation"/>
  </way>
  <way id="38134858" version="3" timestamp="2009-07-27T10:28:33Z" uid="74617" user="JohnSmith" changeset="1953988">
    <nd ref="448810489"/>
    <nd ref="448825227"/>
    <tag k="bridge" v="yes"/>
    <tag k="construction" v="motorway"/>
    <tag k="highway" v="construction"/>
    <tag k="layer" v="1"/>
    <tag k="name" v="Bruce Highway"/>
    <tag k="oneway" v="yes"/>
    <tag k="ref" v="M1"/>
    <tag k="source" v="extrapolation"/>
    <tag k="source:url" v="http://www.mainroads.qld.gov.au/en/Projects/A-Z-Search/A-E/Bruce-Highway-Cooroy-to-Curra.aspx"/>
  </way>
  <way id="38134858" version="4" timestamp="2010-04-04T23:11:20Z" uid="74617" user="JohnSmith" changeset="4327637">
    <nd ref="448810489"/>
    <nd ref="448825227"/>
    <tag k="bridge" v="yes"/>
    <tag k="construction" v="motorway"/>
    <tag k="highway" v="construction"/>
    <tag k="layer" v="1"/>
    <tag k="name" v="Bruce Highway"/>
    <tag k="oneway" v="yes"/>
    <tag k="source" v="extrapolation"/>
    <tag k="source:url" v="http://www.mainroads.qld.gov.au/en/Projects/A-Z-Search/A-E/Bruce-Highway-Cooroy-to-Curra.aspx"/>
  </way>
  <way id="38134859" version="1" timestamp="2009-07-27T05:03:16Z" uid="74617" user="JohnSmith" changeset="1951398">
    <nd ref="448824840"/>
    <nd ref="448810488"/>
    <nd ref="448810487"/>
    <nd ref="448810486"/>
    <nd ref="448810485"/>
    <nd ref="448810472"/>
    <nd ref="448824833"/>
    <nd ref="448810471"/>
    <nd ref="448824835"/>
    <tag k="construction" v="motorway"/>
    <tag k="highway" v="construction"/>
    <tag k="name" v="Bruce Highway"/>
    <tag k="oneway" v="yes"/>
    <tag k="ref" v="M1"/>
    <tag k="source" v="extrapolation"/>
  </way>
  <way id="38134859" version="2" timestamp="2009-07-27T05:06:51Z" uid="74617" user="JohnSmith" changeset="1951407"/>
  <way id="38134860" version="1" timestamp="2009-07-27T05:03:16Z" uid="74617" user="JohnSmith" changeset="1951398">
    <nd ref="448824838"/>
    <nd ref="448824839"/>
    <tag k="bridge" v="yes"/>
    <tag k="construction" v="motorway"/>
    <tag k="highway" v="construction"/>
    <tag k="layer" v="1"/>
    <tag k="name" v="Bruce Highway"/>
    <tag k="oneway" v="yes"/>
    <tag k="ref" v="M1"/>
    <tag k="source" v="extrapolation"/>
  </way>
  <way id="38134860" version="2" timestamp="2009-07-27T05:06:51Z" uid="74617" user="JohnSmith" changeset="1951407"/>
  <way id="38134861" version="1" timestamp="2009-07-27T05:03:17Z" uid="74617" user="JohnSmith" changeset="1951398">
    <nd ref="448824839"/>
    <nd ref="448810478"/>
    <nd ref="448810479"/>
    <tag k="construction" v="motorway"/>
    <tag k="highway" v="construction"/>
    <tag k="name" v="Bruce Highway"/>
    <tag k="oneway" v="yes"/>
    <tag k="ref" v="M1"/>
    <tag k="source" v="extrapolation"/>
  </way>
  <way id="38134861" version="2" timestamp="2009-07-27T05:06:50Z" uid="74617" user="JohnSmith" changeset="1951407">
    <nd ref="448824838"/>
    <nd ref="448810478"/>
    <tag k="bridge" v="yes"/>
    <tag k="construction" v="motorway"/>
    <tag k="highway" v="construction"/>
    <tag k="layer" v="1"/>
    <tag k="name" v="Bruce Highway"/>
    <tag k="oneway" v="yes"/>
    <tag k="ref" v="M1"/>
    <tag k="source" v="extrapolation"/>
  </way>
  <way id="38134861" version="3" timestamp="2009-07-27T10:28:33Z" uid="74617" user="JohnSmith" changeset="1953988">
    <nd ref="448824838"/>
    <nd ref="448810478"/>
    <tag k="bridge" v="yes"/>
    <tag k="construction" v="motorway"/>
    <tag k="highway" v="construction"/>
    <tag k="layer" v="1"/>
    <tag k="name" v="Bruce Highway"/>
    <tag k="oneway" v="yes"/>
    <tag k="ref" v="M1"/>
    <tag k="source" v="extrapolation"/>
    <tag k="source:url" v="http://www.mainroads.qld.gov.au/en/Projects/A-Z-Search/A-E/Bruce-Highway-Cooroy-to-Curra.aspx"/>
  </way>
  <way id="38134861" version="4" timestamp="2010-04-04T23:11:20Z" uid="74617" user="JohnSmith" changeset="4327637">
    <nd ref="448824838"/>
    <nd ref="448810478"/>
    <tag k="bridge" v="yes"/>
    <tag k="construction" v="motorway"/>
    <tag k="highway" v="construction"/>
    <tag k="layer" v="1"/>
    <tag k="name" v="Bruce Highway"/>
    <tag k="oneway" v="yes"/>
    <tag k="source" v="extrapolation"/>
    <tag k="source:url" v="http://www.mainroads.qld.gov.au/en/Projects/A-Z-Search/A-E/Bruce-Highway-Cooroy-to-Curra.aspx"/>
  </way>
  <way id="38134881" version="1" timestamp="2009-07-27T05:04:54Z" uid="4467" user="Rosscoe" changeset="1951401">
    <nd ref="448825032"/>
    <nd ref="448825035"/>
    <nd ref="448808263"/>
    <nd ref="448825034"/>
    <nd ref="448825030"/>
    <nd ref="448825033"/>
    <nd ref="448825031"/>
    <nd ref="448825036"/>
    <nd ref="448825032"/>
    <tag k="highway" v="residential"/>
    <tag k="junction" v="roundabout"/>
  </way>
  <way id="38134881" version="2" timestamp="2010-03-06T01:53:42Z" uid="57437" user="Canley" changeset="4046343">
    <nd ref="448825032"/>
    <nd ref="660911730"/>
    <nd ref="660911731"/>
    <nd ref="660911732"/>
    <nd ref="448808263"/>
    <nd ref="660911733"/>
    <nd ref="660911734"/>
    <nd ref="660911735"/>
    <nd ref="660911736"/>
    <nd ref="448825030"/>
    <nd ref="660911737"/>
    <nd ref="660911738"/>
    <nd ref="660911739"/>
    <nd ref="448825031"/>
    <nd ref="660911740"/>
    <nd ref="660911741"/>
    <nd ref="660911742"/>
    <nd ref="448825032"/>
    <tag k="highway" v="residential"/>
    <tag k="junction" v="roundabout"/>
  </way>
  <way id="38134881" version="3" timestamp="2010-07-08T18:38:35Z" uid="74617" user="JohnSmith" changeset="5167338">
    <nd ref="448825032"/>
    <nd ref="660911730"/>
    <nd ref="660911731"/>
    <nd ref="660911732"/>
    <nd ref="448808263"/>
    <nd ref="660911733"/>
    <nd ref="660911734"/>
    <nd ref="660911735"/>
    <nd ref="660911736"/>
    <nd ref="448825030"/>
    <nd ref="660911737"/>
    <nd ref="660911738"/>
    <nd ref="660911739"/>
    <nd ref="448825031"/>
    <nd ref="660911740"/>
    <nd ref="660911741"/>
    <nd ref="660911742"/>
    <nd ref="448825032"/>
    <tag k="highway" v="residential"/>
    <tag k="junction" v="roundabout"/>
    <tag k="maxspeed" v="50"/>
    <tag k="maxspeed:source" v="default residential speed limit in Australia"/>
  </way>
  <way id="38134882" version="1" timestamp="2009-07-27T05:04:55Z" uid="4467" user="Rosscoe" changeset="1951401">
    <nd ref="448825030"/>
    <nd ref="448808264"/>
    <tag k="highway" v="residential"/>
  </way>
  <way id="38134882" version="2" timestamp="2010-07-08T18:31:59Z" uid="74617" user="JohnSmith" changeset="5167338">
    <nd ref="448825030"/>
    <nd ref="448808264"/>
    <tag k="highway" v="residential"/>
    <tag k="maxspeed" v="50"/>
    <tag k="maxspeed:source" v="default residential speed limit in Australia"/>
  </way>
  <way id="38134883" version="1" timestamp="2009-07-27T05:04:55Z" uid="4467" user="Rosscoe" changeset="1951401">
    <nd ref="448825031"/>
    <nd ref="448808266"/>
    <tag k="highway" v="residential"/>
  </way>
  <way id="38134883" version="2" timestamp="2010-07-08T18:23:28Z" uid="74617" user="JohnSmith" changeset="5167338">
    <nd ref="448825031"/>
    <nd ref="448808266"/>
    <tag k="highway" v="residential"/>
    <tag k="maxspeed" v="50"/>
    <tag k="maxspeed:source" v="default residential speed limit in Australia"/>
  </way>
  <way id="38134901" version="1" timestamp="2009-07-27T05:06:48Z" uid="74617" user="JohnSmith" changeset="1951407">
    <nd ref="448825225"/>
    <nd ref="448825226"/>
    <tag k="bridge" v="yes"/>
    <tag k="construction" v="motorway"/>
    <tag k="highway" v="construction"/>
    <tag k="layer" v="1"/>
    <tag k="name" v="Bruce Highway"/>
    <tag k="oneway" v="yes"/>
    <tag k="ref" v="M1"/>
    <tag k="source" v="extrapolation"/>
  </way>
  <way id="38134901" version="2" timestamp="2009-07-27T10:28:32Z" uid="74617" user="JohnSmith" changeset="1953988">
    <nd ref="448825225"/>
    <nd ref="448825226"/>
    <tag k="bridge" v="yes"/>
    <tag k="construction" v="motorway"/>
    <tag k="highway" v="construction"/>
    <tag k="layer" v="1"/>
    <tag k="name" v="Bruce Highway"/>
    <tag k="oneway" v="yes"/>
    <tag k="ref" v="M1"/>
    <tag k="source" v="extrapolation"/>
    <tag k="source:url" v="http://www.mainroads.qld.gov.au/en/Projects/A-Z-Search/A-E/Bruce-Highway-Cooroy-to-Curra.aspx"/>
  </way>
  <way id="38134901" version="3" timestamp="2010-04-04T23:11:14Z" uid="74617" user="JohnSmith" changeset="4327637">
    <nd ref="448825225"/>
    <nd ref="448825226"/>
    <tag k="bridge" v="yes"/>
    <tag k="construction" v="motorway"/>
    <tag k="highway" v="construction"/>
    <tag k="layer" v="1"/>
    <tag k="name" v="Bruce Highway"/>
    <tag k="oneway" v="yes"/>
    <tag k="source" v="extrapolation"/>
    <tag k="source:url" v="http://www.mainroads.qld.gov.au/en/Projects/A-Z-Search/A-E/Bruce-Highway-Cooroy-to-Curra.aspx"/>
  </way>
  <way id="38134902" version="1" timestamp="2009-07-27T05:06:48Z" uid="74617" user="JohnSmith" changeset="1951407">
    <nd ref="448825226"/>
    <nd ref="448810453"/>
    <nd ref="448810457"/>
    <nd ref="448810458"/>
    <nd ref="448810464"/>
    <tag k="construction" v="motorway"/>
    <tag k="highway" v="construction"/>
    <tag k="name" v="Bruce Highway"/>
    <tag k="oneway" v="yes"/>
    <tag k="ref" v="M1"/>
    <tag k="source" v="extrapolation"/>
  </way>
  <way id="38134902" version="2" timestamp="2009-07-27T10:28:33Z" uid="74617" user="JohnSmith" changeset="1953988">
    <nd ref="448825226"/>
    <nd ref="448810453"/>
    <nd ref="448810457"/>
    <nd ref="448810458"/>
    <nd ref="448810464"/>
    <tag k="construction" v="motorway"/>
    <tag k="highway" v="construction"/>
    <tag k="name" v="Bruce Highway"/>
    <tag k="oneway" v="yes"/>
    <tag k="ref" v="M1"/>
    <tag k="source" v="extrapolation"/>
    <tag k="source:url" v="http://www.mainroads.qld.gov.au/en/Projects/A-Z-Search/A-E/Bruce-Highway-Cooroy-to-Curra.aspx"/>
  </way>
  <way id="38134902" version="3" timestamp="2010-04-04T23:11:17Z" uid="74617" user="JohnSmith" changeset="4327637">
    <nd ref="448825226"/>
    <nd ref="448810453"/>
    <nd ref="448810457"/>
    <nd ref="448810458"/>
    <nd ref="448810464"/>
    <tag k="construction" v="motorway"/>
    <tag k="highway" v="construction"/>
    <tag k="name" v="Bruce Highway"/>
    <tag k="oneway" v="yes"/>
    <tag k="source" v="extrapolation"/>
    <tag k="source:url" v="http://www.mainroads.qld.gov.au/en/Projects/A-Z-Search/A-E/Bruce-Highway-Cooroy-to-Curra.aspx"/>
  </way>
  <way id="38134903" version="1" timestamp="2009-07-27T05:06:48Z" uid="74617" user="JohnSmith" changeset="1951407">
    <nd ref="448825224"/>
    <nd ref="448825223"/>
    <tag k="bridge" v="yes"/>
    <tag k="construction" v="motorway"/>
    <tag k="highway" v="construction"/>
    <tag k="layer" v="1"/>
    <tag k="name" v="Bruce Highway"/>
    <tag k="oneway" v="yes"/>
    <tag k="ref" v="M1"/>
    <tag k="source" v="extrapolation"/>
  </way>
  <way id="38134903" version="2" timestamp="2009-07-27T10:28:33Z" uid="74617" user="JohnSmith" changeset="1953988">
    <nd ref="448825224"/>
    <nd ref="448825223"/>
    <tag k="bridge" v="yes"/>
    <tag k="construction" v="motorway"/>
    <tag k="highway" v="construction"/>
    <tag k="layer" v="1"/>
    <tag k="name" v="Bruce Highway"/>
    <tag k="oneway" v="yes"/>
    <tag k="ref" v="M1"/>
    <tag k="source" v="extrapolation"/>
    <tag k="source:url" v="http://www.mainroads.qld.gov.au/en/Projects/A-Z-Search/A-E/Bruce-Highway-Cooroy-to-Curra.aspx"/>
  </way>
  <way id="38134903" version="3" timestamp="2010-04-04T23:11:16Z" uid="74617" user="JohnSmith" changeset="4327637">
    <nd ref="448825224"/>
    <nd ref="448825223"/>
    <tag k="bridge" v="yes"/>
    <tag k="construction" v="motorway"/>
    <tag k="highway" v="construction"/>
    <tag k="layer" v="1"/>
    <tag k="name" v="Bruce Highway"/>
    <tag k="oneway" v="yes"/>
    <tag k="source" v="extrapolation"/>
    <tag k="source:url" v="http://www.mainroads.qld.gov.au/en/Projects/A-Z-Search/A-E/Bruce-Highway-Cooroy-to-Curra.aspx"/>
  </way>
  <way id="38134904" version="1" timestamp="2009-07-27T05:06:48Z" uid="74617" user="JohnSmith" changeset="1951407">
    <nd ref="448825223"/>
    <nd ref="416344180"/>
    <nd ref="448810279"/>
    <nd ref="448810278"/>
    <nd ref="448809977"/>
    <nd ref="448809976"/>
    <nd ref="249204772"/>
    <nd ref="243558020"/>
    <nd ref="448809390"/>
    <nd ref="448809389"/>
    <nd ref="448809388"/>
    <nd ref="448809387"/>
    <nd ref="448809386"/>
    <nd ref="448809385"/>
    <nd ref="448809384"/>
    <nd ref="448809383"/>
    <nd ref="448809374"/>
    <nd ref="448809373"/>
    <nd ref="448809372"/>
    <nd ref="448809371"/>
    <nd ref="448809370"/>
    <nd ref="448809369"/>
    <nd ref="448809368"/>
    <nd ref="448809113"/>
    <nd ref="362754934"/>
    <nd ref="448809112"/>
    <nd ref="448809111"/>
    <nd ref="448809110"/>
    <nd ref="448809109"/>
    <nd ref="448809108"/>
    <nd ref="448809107"/>
    <nd ref="448809106"/>
    <nd ref="448809105"/>
    <nd ref="448809104"/>
    <nd ref="448809103"/>
    <nd ref="448809102"/>
    <nd ref="448809101"/>
    <nd ref="448809100"/>
    <nd ref="448809099"/>
    <nd ref="448809098"/>
    <nd ref="448809097"/>
    <nd ref="448809096"/>
    <nd ref="448809095"/>
    <nd ref="448809094"/>
    <nd ref="448809093"/>
    <nd ref="448809092"/>
    <nd ref="448809091"/>
    <nd ref="448809090"/>
    <nd ref="448809089"/>
    <nd ref="448809088"/>
    <nd ref="448808986"/>
    <nd ref="448808985"/>
    <tag k="construction" v="motorway"/>
    <tag k="highway" v="construction"/>
    <tag k="name" v="Bruce Highway"/>
    <tag k="oneway" v="yes"/>
    <tag k="ref" v="M1"/>
    <tag k="source" v="extrapolation"/>
  </way>
  <way id="38134904" version="2" timestamp="2009-07-27T09:38:56Z" uid="74617" user="JohnSmith" changeset="1953580">
    <nd ref="448825223"/>
    <nd ref="416344180"/>
    <nd ref="448810279"/>
    <nd ref="448899152"/>
    <nd ref="448810278"/>
    <nd ref="448899122"/>
    <tag k="construction" v="motorway"/>
    <tag k="highway" v="construction"/>
    <tag k="name" v="Bruce Highway"/>
    <tag k="oneway" v="yes"/>
    <tag k="ref" v="M1"/>
    <tag k="source" v="extrapolation"/>
    <tag k="source:url" v="http://www.mainroads.qld.gov.au/en/Projects/A-Z-Search/A-E/Bruce-Highway-Cooroy-to-Curra.aspx"/>
  </way>
  <way id="38134904" version="3" timestamp="2010-04-04T23:11:16Z" uid="74617" user="JohnSmith" changeset="4327637">
    <nd ref="448825223"/>
    <nd ref="416344180"/>
    <nd ref="448810279"/>
    <nd ref="448899152"/>
    <nd ref="448810278"/>
    <nd ref="448899122"/>
    <tag k="construction" v="motorway"/>
    <tag k="highway" v="construction"/>
    <tag k="name" v="Bruce Highway"/>
    <tag k="oneway" v="yes"/>
    <tag k="source" v="extrapolation"/>
    <tag k="source:url" v="http://www.mainroads.qld.gov.au/en/Projects/A-Z-Search/A-E/Bruce-Highway-Cooroy-to-Curra.aspx"/>
  </way>
  <way id="38134905" version="1" timestamp="2009-07-27T05:06:49Z" uid="74617" user="JohnSmith" changeset="1951407">
    <nd ref="448810474"/>
    <nd ref="448810475"/>
    <tag k="bridge" v="yes"/>
    <tag k="construction" v="motorway"/>
    <tag k="highway" v="construction"/>
    <tag k="layer" v="1"/>
    <tag k="name" v="Bruce Highway"/>
    <tag k="oneway" v="yes"/>
    <tag k="ref" v="M1"/>
    <tag k="source" v="extrapolation"/>
  </way>
  <way id="38134905" version="2" timestamp="2009-07-27T10:28:29Z" uid="74617" user="JohnSmith" changeset="1953988">
    <nd ref="448810474"/>
    <nd ref="448810475"/>
    <tag k="bridge" v="yes"/>
    <tag k="construction" v="motorway"/>
    <tag k="highway" v="construction"/>
    <tag k="layer" v="1"/>
    <tag k="name" v="Bruce Highway"/>
    <tag k="oneway" v="yes"/>
    <tag k="ref" v="M1"/>
    <tag k="source" v="extrapolation"/>
    <tag k="source:url" v="http://www.mainroads.qld.gov.au/en/Projects/A-Z-Search/A-E/Bruce-Highway-Cooroy-to-Curra.aspx"/>
  </way>
  <way id="38134905" version="3" timestamp="2010-04-04T23:11:17Z" uid="74617" user="JohnSmith" changeset="4327637">
    <nd ref="448810474"/>
    <nd ref="448810475"/>
    <tag k="bridge" v="yes"/>
    <tag k="construction" v="motorway"/>
    <tag k="highway" v="construction"/>
    <tag k="layer" v="1"/>
    <tag k="name" v="Bruce Highway"/>
    <tag k="oneway" v="yes"/>
    <tag k="source" v="extrapolation"/>
    <tag k="source:url" v="http://www.mainroads.qld.gov.au/en/Projects/A-Z-Search/A-E/Bruce-Highway-Cooroy-to-Curra.aspx"/>
  </way>
  <way id="38134906" version="1" timestamp="2009-07-27T05:06:49Z" uid="74617" user="JohnSmith" changeset="1951407">
    <nd ref="448810475"/>
    <nd ref="448810476"/>
    <nd ref="448810477"/>
    <nd ref="448824838"/>
    <tag k="construction" v="motorway"/>
    <tag k="highway" v="construction"/>
    <tag k="name" v="Bruce Highway"/>
    <tag k="oneway" v="yes"/>
    <tag k="ref" v="M1"/>
    <tag k="source" v="extrapolation"/>
  </way>
  <way id="38134906" version="2" timestamp="2009-07-27T10:28:33Z" uid="74617" user="JohnSmith" changeset="1953988">
    <nd ref="448810475"/>
    <nd ref="448810476"/>
    <nd ref="448810477"/>
    <nd ref="448824838"/>
    <tag k="construction" v="motorway"/>
    <tag k="highway" v="construction"/>
    <tag k="name" v="Bruce Highway"/>
    <tag k="oneway" v="yes"/>
    <tag k="ref" v="M1"/>
    <tag k="source" v="extrapolation"/>
    <tag k="source:url" v="http://www.mainroads.qld.gov.au/en/Projects/A-Z-Search/A-E/Bruce-Highway-Cooroy-to-Curra.aspx"/>
  </way>
  <way id="38134906" version="3" timestamp="2010-04-04T23:11:13Z" uid="74617" user="JohnSmith" changeset="4327637">
    <nd ref="448810475"/>
    <nd ref="448810476"/>
    <nd ref="448810477"/>
    <nd ref="448824838"/>
    <tag k="construction" v="motorway"/>
    <tag k="highway" v="construction"/>
    <tag k="name" v="Bruce Highway"/>
    <tag k="oneway" v="yes"/>
    <tag k="source" v="extrapolation"/>
    <tag k="source:url" v="http://www.mainroads.qld.gov.au/en/Projects/A-Z-Search/A-E/Bruce-Highway-Cooroy-to-Curra.aspx"/>
  </way>
  <way id="38134907" version="1" timestamp="2009-07-27T05:06:49Z" uid="74617" user="JohnSmith" changeset="1951407">
    <nd ref="448810486"/>
    <nd ref="448810485"/>
    <tag k="bridge" v="yes"/>
    <tag k="construction" v="motorway"/>
    <tag k="highway" v="construction"/>
    <tag k="layer" v="1"/>
    <tag k="name" v="Bruce Highway"/>
    <tag k="oneway" v="yes"/>
    <tag k="ref" v="M1"/>
    <tag k="source" v="extrapolation"/>
  </way>
  <way id="38134907" version="2" timestamp="2009-07-27T10:28:31Z" uid="74617" user="JohnSmith" changeset="1953988">
    <nd ref="448810486"/>
    <nd ref="448810485"/>
    <tag k="bridge" v="yes"/>
    <tag k="construction" v="motorway"/>
    <tag k="highway" v="construction"/>
    <tag k="layer" v="1"/>
    <tag k="name" v="Bruce Highway"/>
    <tag k="oneway" v="yes"/>
    <tag k="ref" v="M1"/>
    <tag k="source" v="extrapolation"/>
    <tag k="source:url" v="http://www.mainroads.qld.gov.au/en/Projects/A-Z-Search/A-E/Bruce-Highway-Cooroy-to-Curra.aspx"/>
  </way>
  <way id="38134907" version="3" timestamp="2010-04-04T23:11:17Z" uid="74617" user="JohnSmith" changeset="4327637">
    <nd ref="448810486"/>
    <nd ref="448810485"/>
    <tag k="bridge" v="yes"/>
    <tag k="construction" v="motorway"/>
    <tag k="highway" v="construction"/>
    <tag k="layer" v="1"/>
    <tag k="name" v="Bruce Highway"/>
    <tag k="oneway" v="yes"/>
    <tag k="source" v="extrapolation"/>
    <tag k="source:url" v="http://www.mainroads.qld.gov.au/en/Projects/A-Z-Search/A-E/Bruce-Highway-Cooroy-to-Curra.aspx"/>
  </way>
  <way id="38134908" version="1" timestamp="2009-07-27T05:06:49Z" uid="74617" user="JohnSmith" changeset="1951407">
    <nd ref="448810485"/>
    <nd ref="448810472"/>
    <nd ref="448824833"/>
    <nd ref="448810471"/>
    <nd ref="448824835"/>
    <tag k="construction" v="motorway"/>
    <tag k="highway" v="construction"/>
    <tag k="name" v="Bruce Highway"/>
    <tag k="oneway" v="yes"/>
    <tag k="ref" v="M1"/>
    <tag k="source" v="extrapolation"/>
  </way>
  <way id="38134908" version="2" timestamp="2009-07-27T09:38:41Z" uid="74617" user="JohnSmith" changeset="1953580">
    <nd ref="448810485"/>
    <nd ref="448810472"/>
    <tag k="construction" v="motorway"/>
    <tag k="highway" v="construction"/>
    <tag k="name" v="Bruce Highway"/>
    <tag k="oneway" v="yes"/>
    <tag k="ref" v="M1"/>
    <tag k="source" v="extrapolation"/>
  </way>
  <way id="38134908" version="3" timestamp="2009-07-27T10:28:30Z" uid="74617" user="JohnSmith" changeset="1953988">
    <nd ref="448810485"/>
    <nd ref="448810472"/>
    <tag k="construction" v="motorway"/>
    <tag k="highway" v="construction"/>
    <tag k="name" v="Bruce Highway"/>
    <tag k="oneway" v="yes"/>
    <tag k="ref" v="M1"/>
    <tag k="source" v="extrapolation"/>
    <tag k="source:url" v="http://www.mainroads.qld.gov.au/en/Projects/A-Z-Search/A-E/Bruce-Highway-Cooroy-to-Curra.aspx"/>
  </way>
  <way id="38134908" version="4" timestamp="2009-10-06T14:32:23Z" uid="74617" user="JohnSmith" changeset="2761311">
    <nd ref="448810485"/>
    <nd ref="522910410"/>
    <nd ref="448810472"/>
    <tag k="construction" v="motorway"/>
    <tag k="highway" v="construction"/>
    <tag k="name" v="Bruce Highway"/>
    <tag k="oneway" v="yes"/>
    <tag k="ref" v="M1"/>
    <tag k="source" v="extrapolation"/>
    <tag k="source:url" v="http://www.mainroads.qld.gov.au/en/Projects/A-Z-Search/A-E/Bruce-Highway-Cooroy-to-Curra.aspx"/>
  </way>
  <way id="38134908" version="5" timestamp="2010-04-04T23:11:17Z" uid="74617" user="JohnSmith" changeset="4327637">
    <nd ref="448810485"/>
    <nd ref="522910410"/>
    <nd ref="448810472"/>
    <tag k="construction" v="motorway"/>
    <tag k="highway" v="construction"/>
    <tag k="name" v="Bruce Highway"/>
    <tag k="oneway" v="yes"/>
    <tag k="source" v="extrapolation"/>
    <tag k="source:url" v="http://www.mainroads.qld.gov.au/en/Projects/A-Z-Search/A-E/Bruce-Highway-Cooroy-to-Curra.aspx"/>
  </way>
  <way id="38134909" version="1" timestamp="2009-07-27T05:06:49Z" uid="74617" user="JohnSmith" changeset="1951407">
    <nd ref="448810478"/>
    <nd ref="448810479"/>
    <tag k="construction" v="motorway"/>
    <tag k="highway" v="construction"/>
    <tag k="name" v="Bruce Highway"/>
    <tag k="oneway" v="yes"/>
    <tag k="ref" v="M1"/>
    <tag k="source" v="extrapolation"/>
  </way>
  <way id="38134909" version="2" timestamp="2009-07-27T10:28:32Z" uid="74617" user="JohnSmith" changeset="1953988">
    <nd ref="448810478"/>
    <nd ref="448810479"/>
    <tag k="construction" v="motorway"/>
    <tag k="highway" v="construction"/>
    <tag k="name" v="Bruce Highway"/>
    <tag k="oneway" v="yes"/>
    <tag k="ref" v="M1"/>
    <tag k="source" v="extrapolation"/>
    <tag k="source:url" v="http://www.mainroads.qld.gov.au/en/Projects/A-Z-Search/A-E/Bruce-Highway-Cooroy-to-Curra.aspx"/>
  </way>
  <way id="38134909" version="3" timestamp="2010-04-04T23:11:20Z" uid="74617" user="JohnSmith" changeset="4327637">
    <nd ref="448810478"/>
    <nd ref="448810479"/>
    <tag k="construction" v="motorway"/>
    <tag k="highway" v="construction"/>
    <tag k="name" v="Bruce Highway"/>
    <tag k="oneway" v="yes"/>
    <tag k="source" v="extrapolation"/>
    <tag k="source:url" v="http://www.mainroads.qld.gov.au/en/Projects/A-Z-Search/A-E/Bruce-Highway-Cooroy-to-Curra.aspx"/>
  </way>
  <way id="38134910" version="1" timestamp="2009-07-27T05:06:49Z" uid="74617" user="JohnSmith" changeset="1951407">
    <nd ref="448825227"/>
    <nd ref="448810488"/>
    <nd ref="448810487"/>
    <nd ref="448810486"/>
    <tag k="construction" v="motorway"/>
    <tag k="highway" v="construction"/>
    <tag k="name" v="Bruce Highway"/>
    <tag k="oneway" v="yes"/>
    <tag k="ref" v="M1"/>
    <tag k="source" v="extrapolation"/>
  </way>
  <way id="38134910" version="2" timestamp="2009-07-27T10:28:32Z" uid="74617" user="JohnSmith" changeset="1953988">
    <nd ref="448825227"/>
    <nd ref="448810488"/>
    <nd ref="448810487"/>
    <nd ref="448810486"/>
    <tag k="construction" v="motorway"/>
    <tag k="highway" v="construction"/>
    <tag k="name" v="Bruce Highway"/>
    <tag k="oneway" v="yes"/>
    <tag k="ref" v="M1"/>
    <tag k="source" v="extrapolation"/>
    <tag k="source:url" v="http://www.mainroads.qld.gov.au/en/Projects/A-Z-Search/A-E/Bruce-Highway-Cooroy-to-Curra.aspx"/>
  </way>
  <way id="38134910" version="3" timestamp="2010-04-04T23:11:13Z" uid="74617" user="JohnSmith" changeset="4327637">
    <nd ref="448825227"/>
    <nd ref="448810488"/>
    <nd ref="448810487"/>
    <nd ref="448810486"/>
    <tag k="construction" v="motorway"/>
    <tag k="highway" v="construction"/>
    <tag k="name" v="Bruce Highway"/>
    <tag k="oneway" v="yes"/>
    <tag k="source" v="extrapolation"/>
    <tag k="source:url" v="http://www.mainroads.qld.gov.au/en/Projects/A-Z-Search/A-E/Bruce-Highway-Cooroy-to-Curra.aspx"/>
  </way>
  <way id="38134947" version="5" timestamp="2010-07-09T03:22:27Z" uid="74617" user="JohnSmith" changeset="5170713">
    <nd ref="448825433"/>
    <nd ref="689777881"/>
    <nd ref="689777882"/>
    <nd ref="730509808"/>
    <nd ref="730511206"/>
    <nd ref="448825439"/>
    <nd ref="448825440"/>
    <tag k="highway" v="residential"/>
    <tag k="maxspeed" v="50"/>
    <tag k="maxspeed:source" v="default residential speed limit in Australia"/>
  </way>
  <way id="38134947" version="6" timestamp="2010-08-03T00:07:02Z" uid="201443" user="stevage" changeset="5386012">
    <nd ref="448825433"/>
    <nd ref="689777881"/>
    <nd ref="689777882"/>
    <nd ref="730509808"/>
    <nd ref="730511206"/>
    <nd ref="448825439"/>
    <nd ref="448825440"/>
    <tag k="highway" v="residential"/>
    <tag k="maxspeed" v="50"/>
    <tag k="maxspeed:source" v="default residential speed limit in Australia"/>
    <tag k="source" v="nearmap"/>
  </way>
  <way id="38134947" version="7" timestamp="2012-01-19T02:25:25Z" uid="147510" user="woodpeck_fixbot" changeset="10433378">
    <nd ref="448825433"/>
    <nd ref="689777881"/>
    <nd ref="689777882"/>
    <nd ref="730509808"/>
    <nd ref="730511206"/>
    <nd ref="448825439"/>
    <nd ref="448825440"/>
    <tag k="highway" v="residential"/>
    <tag k="source" v="nearmap"/>
  </way>
  <way id="38134948" version="3" timestamp="2010-07-09T03:22:55Z" uid="74617" user="JohnSmith" changeset="5170713">
    <nd ref="448825441"/>
    <nd ref="730510722"/>
    <tag k="highway" v="residential"/>
    <tag k="maxspeed" v="50"/>
    <tag k="maxspeed:source" v="default residential speed limit in Australia"/>
  </way>
  <way id="38134948" version="4" timestamp="2012-01-19T02:25:27Z" uid="147510" user="woodpeck_fixbot" changeset="10433378">
    <nd ref="448825441"/>
    <nd ref="730510722"/>
    <tag k="highway" v="residential"/>
  </way>
  <way id="38134949" version="4" timestamp="2010-07-09T03:24:38Z" uid="74617" user="JohnSmith" changeset="5170713">
    <nd ref="448825439"/>
    <nd ref="730511401"/>
    <nd ref="448825443"/>
    <nd ref="730510891"/>
    <nd ref="448825444"/>
    <tag k="highway" v="residential"/>
    <tag k="maxspeed" v="50"/>
    <tag k="maxspeed:source" v="default residential speed limit in Australia"/>
  </way>
  <way id="38134949" version="5" timestamp="2011-03-26T06:02:29Z" uid="11111" user="melb_guy" changeset="7672260">
    <nd ref="448825439"/>
    <nd ref="730511401"/>
    <nd ref="448825443"/>
    <nd ref="730510891"/>
    <nd ref="1218565878"/>
    <nd ref="448825444"/>
    <tag k="highway" v="residential"/>
    <tag k="maxspeed" v="50"/>
    <tag k="maxspeed:source" v="default residential speed limit in Australia"/>
  </way>
  <way id="38134949" version="6" timestamp="2012-01-19T02:25:28Z" uid="147510" user="woodpeck_fixbot" changeset="10433378">
    <nd ref="448825439"/>
    <nd ref="730511401"/>
    <nd ref="448825443"/>
    <nd ref="730510891"/>
    <nd ref="1218565878"/>
    <nd ref="448825444"/>
    <tag k="highway" v="residential"/>
  </way>
  <way id="38134998" version="1" timestamp="2009-07-27T05:15:58Z" uid="4467" user="Rosscoe" changeset="1951444">
    <nd ref="448825913"/>
    <nd ref="448825919"/>
    <nd ref="448825914"/>
    <nd ref="448825918"/>
    <nd ref="448825915"/>
    <nd ref="448825917"/>
    <nd ref="364214300"/>
    <nd ref="448825916"/>
    <nd ref="448825913"/>
    <tag k="highway" v="secondary"/>
    <tag k="junction" v="roundabout"/>
    <tag k="name" v="Bungower Road"/>
  </way>
  <way id="38134998" version="2" timestamp="2009-08-30T00:28:30Z" uid="79475" user="AlexOnTheBus" changeset="2308023">
    <nd ref="448825913"/>
    <nd ref="448825919"/>
    <nd ref="448825914"/>
    <nd ref="448825918"/>
    <nd ref="448825915"/>
    <nd ref="448825917"/>
    <nd ref="364214300"/>
    <nd ref="448825916"/>
    <nd ref="448825913"/>
    <tag k="highway" v="tertiary"/>
    <tag k="junction" v="roundabout"/>
    <tag k="name" v="Bungower Road"/>
  </way>
  <way id="38134999" version="1" timestamp="2009-07-27T05:15:58Z" uid="4467" user="Rosscoe" changeset="1951444">
    <nd ref="448825913"/>
    <nd ref="236609670"/>
    <nd ref="317473631"/>
    <nd ref="448825912"/>
    <nd ref="448825920"/>
    <tag k="highway" v="secondary"/>
    <tag k="name" v="Bungower Road"/>
  </way>
  <way id="38134999" version="2" timestamp="2009-08-30T00:28:30Z" uid="79475" user="AlexOnTheBus" changeset="2308023">
    <nd ref="448825913"/>
    <nd ref="236609670"/>
    <nd ref="317473631"/>
    <nd ref="448825912"/>
    <nd ref="448825920"/>
    <tag k="highway" v="tertiary"/>
    <tag k="name" v="Bungower Road"/>
  </way>
  <way id="38134999" version="3" timestamp="2010-12-05T03:33:34Z" uid="201443" user="stevage" changeset="6546435">
    <nd ref="448825913"/>
    <nd ref="236609670"/>
    <nd ref="317473631"/>
    <nd ref="448825912"/>
    <nd ref="1021517866"/>
    <nd ref="448825920"/>
    <tag k="highway" v="tertiary"/>
    <tag k="name" v="Bungower Road"/>
  </way>
  <way id="38134999" version="4" timestamp="2010-12-16T05:53:51Z" uid="201443" user="stevage" changeset="6673756">
    <nd ref="448825913"/>
    <nd ref="236609670"/>
    <nd ref="1040695881"/>
    <nd ref="317473631"/>
    <nd ref="448825912"/>
    <nd ref="1021517866"/>
    <nd ref="448825920"/>
    <tag k="highway" v="tertiary"/>
    <tag k="name" v="Bungower Road"/>
  </way>
</osm>
