<?xml version='1.0' encoding='UTF-8'?>
<osm version="0.6" generator="libosmium/2.20.0">
  <way id="38324107" version="3" timestamp="2009-11-13T15:52:43Z" uid="171838" user="argrath" changeset="3106911">
    <nd ref="452500684"/>
    <nd ref="562946570"/>
    <nd ref="441641765"/>
    <tag k="highway" v="unclassified"/>
    <tag k="oneway" v="yes"/>
  </way>
  <way id="38324107" version="4" timestamp="2009-11-24T06:17:24Z" uid="127167" user="ignis" changeset="3201796"/>
  <way id="38324181" version="2" timestamp="2009-08-08T01:32:36Z" uid="20587" user="balrog-kun" changeset="2071289">
    <nd ref="421918387"/>
    <nd ref="452501080"/>
    <tag k="highway" v="residential"/>
    <tag k="name" v="Dworska"/>
  </way>
  <way id="38324186" version="2" timestamp="2010-03-16T21:58:22Z" uid="163746" user="anti_bot-nonsense" changeset="4147354">
    <nd ref="150624205"/>
    <nd ref="150656422"/>
    <nd ref="150656423"/>
    <nd ref="150656425"/>
    <nd ref="150656426"/>
    <nd ref="150656427"/>
    <nd ref="150656428"/>
    <nd ref="268238823"/>
    <nd ref="150656430"/>
    <nd ref="150656431"/>
    <nd ref="150656432"/>
    <nd ref="150656433"/>
    <tag k="highway" v="secondary"/>
    <tag k="lanes" v="3"/>
    <tag k="name" v="Hlonda"/>
    <tag k="oneway" v="yes"/>
  </way>
  <way id="38324186" version="3" timestamp="2010-07-24T02:32:48Z" uid="20587" user="balrog-kun" changeset="5300444">
    <nd ref="150624205"/>
    <nd ref="150656422"/>
    <nd ref="150656423"/>
    <nd ref="150656425"/>
    <nd ref="150656426"/>
    <nd ref="150656427"/>
    <nd ref="150656428"/>
    <nd ref="268238823"/>
    <nd ref="150656430"/>
    <nd ref="150656431"/>
    <nd ref="150656432"/>
    <nd ref="150656433"/>
    <tag k="highway" v="secondary"/>
    <tag k="lanes" v="3"/>
    <tag k="name" v="Prymasa Augusta Hlonda"/>
    <tag k="oneway" v="yes"/>
  </way>
  <way id="38324186" version="4" timestamp="2010-11-10T22:16:00Z" uid="88909" user="miko101" changeset="6340015">
    <nd ref="150624205"/>
    <nd ref="150656422"/>
    <nd ref="150656423"/>
    <nd ref="150656425"/>
    <tag k="highway" v="secondary"/>
    <tag k="lanes" v="3"/>
    <tag k="name" v="Prymasa Augusta Hlonda"/>
    <tag k="oneway" v="yes"/>
  </way>
  <way id="38324186" version="5" timestamp="2010-11-10T22:16:06Z" uid="88909" user="miko101" changeset="6340015">
    <nd ref="150624205"/>
    <nd ref="150656422"/>
    <nd ref="150656423"/>
    <nd ref="150656425"/>
    <tag k="highway" v="secondary"/>
    <tag k="int_ref" v="E 261"/>
    <tag k="lanes" v="3"/>
    <tag k="name" v="Prymasa Augusta Hlonda"/>
    <tag k="oneway" v="yes"/>
    <tag k="ref" v="5"/>
  </way>
  <way id="38324186" version="6" timestamp="2010-11-10T22:17:21Z" uid="88909" user="miko101" changeset="6340015">
    <nd ref="150624205"/>
    <nd ref="150656422"/>
    <nd ref="150656423"/>
    <nd ref="150656425"/>
    <tag k="highway" v="secondary"/>
    <tag k="int_ref" v="E 261"/>
    <tag k="name" v="Prymasa Augusta Hlonda"/>
    <tag k="oneway" v="yes"/>
    <tag k="ref" v="5"/>
  </way>
  <way id="38324186" version="7" timestamp="2010-11-12T18:27:20Z" uid="113415" user="tomek-k" changeset="6352945">
    <nd ref="150624205"/>
    <nd ref="150656422"/>
    <nd ref="150656423"/>
    <nd ref="986839162"/>
    <tag k="highway" v="secondary"/>
    <tag k="int_ref" v="E 261"/>
    <tag k="name" v="Prymasa Augusta Hlonda"/>
    <tag k="oneway" v="yes"/>
    <tag k="ref" v="5"/>
  </way>
  <way id="38324186" version="8" timestamp="2010-11-12T18:33:14Z" uid="113415" user="tomek-k" changeset="6352945">
    <nd ref="150624205"/>
    <nd ref="150656422"/>
    <nd ref="150656423"/>
    <nd ref="986839162"/>
    <tag k="highway" v="secondary"/>
    <tag k="int_ref" v="E 261"/>
    <tag k="name" v="Główna"/>
    <tag k="oneway" v="yes"/>
    <tag k="ref" v="5"/>
  </way>
  <way id="38324186" version="9" timestamp="2010-11-12T18:36:03Z" uid="113415" user="tomek-k" changeset="6353014">
    <nd ref="150624205"/>
    <nd ref="150656422"/>
    <nd ref="150656423"/>
    <nd ref="986839162"/>
    <tag k="highway" v="primary"/>
    <tag k="int_ref" v="E 261"/>
    <tag k="name" v="Główna"/>
    <tag k="oneway" v="yes"/>
    <tag k="ref" v="5"/>
  </way>
  <way id="38324362" version="1" timestamp="2009-07-31T13:05:09Z" uid="64977" user="CLoeser" changeset="1994544">
    <nd ref="452503140"/>
    <nd ref="452503141"/>
    <nd ref="452503142"/>
    <nd ref="452503143"/>
    <nd ref="452503140"/>
    <tag k="amenity" v="parking"/>
  </way>
  <way id="38324362" version="2" timestamp="2012-02-04T17:50:07Z" uid="66904" user="OSchlüter" changeset="10586851"/>
  <way id="38324363" version="1" timestamp="2009-07-31T13:05:10Z" uid="64977" user="CLoeser" changeset="1994544">
    <nd ref="452503144"/>
    <nd ref="452503145"/>
    <nd ref="452503146"/>
    <nd ref="452503147"/>
    <nd ref="452503144"/>
    <tag k="shop" v="supermarket"/>
  </way>
  <way id="38324363" version="2" timestamp="2012-02-04T17:50:07Z" uid="66904" user="OSchlüter" changeset="10586851"/>
  <way id="38324364" version="1" timestamp="2009-07-31T13:05:13Z" uid="64977" user="CLoeser" changeset="1994544">
    <nd ref="452503148"/>
    <nd ref="452503149"/>
    <nd ref="452503150"/>
    <nd ref="452503151"/>
    <nd ref="452503152"/>
    <nd ref="452503153"/>
    <nd ref="452503154"/>
    <nd ref="452503155"/>
    <nd ref="452503156"/>
    <nd ref="452503157"/>
    <nd ref="452503158"/>
    <nd ref="452503159"/>
    <nd ref="452503160"/>
    <nd ref="452503161"/>
    <nd ref="452503163"/>
    <nd ref="452503164"/>
    <nd ref="452503165"/>
    <nd ref="452503166"/>
    <nd ref="452503167"/>
    <nd ref="452503168"/>
    <nd ref="452503169"/>
    <nd ref="452503170"/>
    <nd ref="452503148"/>
    <tag k="landuse" v="residential"/>
  </way>
  <way id="38324364" version="2" timestamp="2010-05-10T08:07:53Z" uid="75388" user="Svalbard" changeset="4656799"/>
  <way id="38324365" version="1" timestamp="2009-07-31T13:05:14Z" uid="64977" user="CLoeser" changeset="1994544">
    <nd ref="452503171"/>
    <nd ref="452503172"/>
    <nd ref="452503173"/>
    <nd ref="452503174"/>
    <nd ref="452503171"/>
    <tag k="landuse" v="greenfield"/>
  </way>
  <way id="38324365" version="2" timestamp="2012-02-04T17:50:06Z" uid="66904" user="OSchlüter" changeset="10586851"/>
  <way id="38324366" version="1" timestamp="2009-07-31T13:05:15Z" uid="64977" user="CLoeser" changeset="1994544">
    <nd ref="452503175"/>
    <nd ref="452503176"/>
    <nd ref="452503177"/>
    <nd ref="452503178"/>
    <nd ref="452503175"/>
    <tag k="amenity" v="parking"/>
  </way>
  <way id="38324366" version="2" timestamp="2012-02-04T17:50:07Z" uid="66904" user="OSchlüter" changeset="10586851"/>
  <way id="38324439" version="2" timestamp="2009-08-10T01:47:25Z" uid="4467" user="Rosscoe" changeset="2092291">
    <nd ref="409389562"/>
    <nd ref="409389563"/>
    <nd ref="409389565"/>
    <nd ref="409389561"/>
    <tag k="highway" v="service"/>
    <tag k="service" v="parking_aisle"/>
    <tag k="surface" v="paved"/>
  </way>
  <way id="38324830" version="2" timestamp="2010-10-14T15:22:29Z" uid="96874" user="Quedel" changeset="6040209">
    <nd ref="452507125"/>
    <nd ref="452507130"/>
    <nd ref="452507129"/>
    <nd ref="452507128"/>
    <nd ref="452507127"/>
    <nd ref="452507120"/>
    <nd ref="452507125"/>
    <tag k="highway" v="pedestrian"/>
    <tag k="layer" v="1"/>
    <tag k="name" v="Notaufnahme"/>
  </way>
  <way id="38324832" version="2" timestamp="2010-09-30T15:41:36Z" uid="96874" user="Quedel" changeset="5921031">
    <nd ref="298863101"/>
    <nd ref="298862710"/>
    <nd ref="931881983"/>
    <nd ref="290174298"/>
    <tag k="highway" v="residential"/>
    <tag k="layer" v="0"/>
    <tag k="name" v="Ditfurter Weg"/>
    <tag k="surface" v="paved"/>
  </way>
  <way id="38324832" version="3" timestamp="2010-09-30T16:49:51Z" uid="96874" user="Quedel" changeset="5921549">
    <nd ref="298863101"/>
    <nd ref="298862710"/>
    <nd ref="931881983"/>
    <nd ref="290174298"/>
    <tag k="highway" v="residential"/>
    <tag k="layer" v="0"/>
    <tag k="maxspeed" v="50"/>
    <tag k="name" v="Ditfurter Weg"/>
    <tag k="surface" v="paved"/>
  </way>
  <way id="38324832" version="4" timestamp="2010-10-17T22:16:47Z" uid="96874" user="Quedel" changeset="6072345">
    <nd ref="298863101"/>
    <nd ref="955301046"/>
    <nd ref="298862710"/>
    <nd ref="931881983"/>
    <nd ref="290174298"/>
    <tag k="highway" v="residential"/>
    <tag k="layer" v="0"/>
    <tag k="maxspeed" v="50"/>
    <tag k="name" v="Ditfurter Weg"/>
    <tag k="surface" v="paved"/>
  </way>
  <way id="38324832" version="5" timestamp="2010-10-20T18:20:07Z" uid="96874" user="Quedel" changeset="6118586">
    <nd ref="298863101"/>
    <nd ref="955301046"/>
    <tag k="highway" v="residential"/>
    <tag k="layer" v="0"/>
    <tag k="maxspeed" v="50"/>
    <tag k="name" v="Ditfurter Weg"/>
    <tag k="surface" v="paved"/>
  </way>
  <way id="38324833" version="3" timestamp="2010-10-14T16:31:35Z" uid="96874" user="Quedel" changeset="6040209">
    <nd ref="290174296"/>
    <nd ref="355714518"/>
    <nd ref="298862668"/>
    <nd ref="298862679"/>
    <nd ref="948300837"/>
    <nd ref="298863101"/>
    <tag k="highway" v="residential"/>
    <tag k="maxspeed" v="30"/>
    <tag k="name" v="Ditfurter Weg"/>
    <tag k="surface" v="paved"/>
  </way>
  <way id="38324833" version="4" timestamp="2010-10-20T18:20:09Z" uid="96874" user="Quedel" changeset="6118586">
    <nd ref="290174296"/>
    <nd ref="355714518"/>
    <tag k="highway" v="residential"/>
    <tag k="maxspeed" v="30"/>
    <tag k="name" v="Ditfurter Weg"/>
    <tag k="parking:lane:both" v="no_parking"/>
    <tag k="surface" v="paved"/>
  </way>
  <way id="38324834" version="2" timestamp="2010-10-14T15:22:42Z" uid="96874" user="Quedel" changeset="6040209">
    <nd ref="452507125"/>
    <nd ref="452507126"/>
    <nd ref="298862677"/>
    <tag k="bridge" v="no"/>
    <tag k="highway" v="service"/>
    <tag k="layer" v="1"/>
    <tag k="name" v="Ditfurter Weg"/>
    <tag k="service" v="driveway"/>
    <tag k="surface" v="paved"/>
    <tag k="traffic_sign" v="DE:250,DE:1020-30"/>
    <tag k="vehicle" v="destination"/>
  </way>
  <way id="38324972" version="1" timestamp="2009-07-31T13:34:01Z" uid="4467" user="Rosscoe" changeset="1994766">
    <nd ref="92211502"/>
    <nd ref="92211501"/>
    <nd ref="92211500"/>
    <nd ref="92211498"/>
    <nd ref="92211497"/>
    <nd ref="92211496"/>
    <nd ref="92212565"/>
    <nd ref="251499094"/>
    <tag k="highway" v="secondary"/>
    <tag k="oneway" v="yes"/>
  </way>
  <way id="38324972" version="2" timestamp="2011-06-21T10:11:13Z" uid="22094" user="Chadzopkyo" changeset="8503066"/>
  <way id="38324973" version="1" timestamp="2009-07-31T13:34:01Z" uid="4467" user="Rosscoe" changeset="1994766">
    <nd ref="251497770"/>
    <nd ref="251497771"/>
    <nd ref="417308374"/>
    <nd ref="417308377"/>
    <nd ref="251497927"/>
    <nd ref="251497497"/>
    <nd ref="251497603"/>
    <nd ref="251497509"/>
    <nd ref="251497510"/>
    <nd ref="251497564"/>
    <tag k="highway" v="secondary"/>
    <tag k="name" v="Redland Bay Road"/>
    <tag k="oneway" v="yes"/>
    <tag k="ref" v="44"/>
  </way>
  <way id="38324973" version="2" timestamp="2010-02-22T08:29:32Z" uid="22094" user="Chadzopkyo" changeset="3941520">
    <nd ref="251497770"/>
    <nd ref="251497771"/>
    <nd ref="417308377"/>
    <nd ref="650035394"/>
    <nd ref="251497927"/>
    <nd ref="251497497"/>
    <nd ref="251497603"/>
    <nd ref="251497509"/>
    <nd ref="251497510"/>
    <nd ref="251497564"/>
    <tag k="highway" v="secondary"/>
    <tag k="name" v="Redland Bay Road"/>
    <tag k="oneway" v="yes"/>
    <tag k="ref" v="44"/>
  </way>
  <way id="38324973" version="3" timestamp="2010-03-21T08:56:57Z" uid="74617" user="JohnSmith" changeset="4188225"/>
</osm>
