<?xml version='1.0' encoding='UTF-8'?>
<osm version="0.6" generator="libosmium/2.20.0">
  <way id="38480157" version="5" timestamp="2010-04-03T13:52:59Z" uid="20587" user="balrog-kun" changeset="4312927">
    <nd ref="83893630"/>
    <nd ref="83893628"/>
    <nd ref="83893631"/>
    <nd ref="83893633"/>
    <nd ref="83893634"/>
    <nd ref="83893636"/>
    <nd ref="83893638"/>
    <nd ref="83893640"/>
    <nd ref="83893642"/>
    <nd ref="83893644"/>
    <nd ref="83893645"/>
    <nd ref="83893646"/>
    <nd ref="83893649"/>
    <nd ref="83893651"/>
    <nd ref="83893653"/>
    <nd ref="83893655"/>
    <nd ref="83893657"/>
    <nd ref="83893658"/>
    <nd ref="83893659"/>
    <nd ref="83893660"/>
    <nd ref="83893661"/>
    <nd ref="83893662"/>
    <nd ref="83893663"/>
    <nd ref="83893664"/>
    <nd ref="83893666"/>
    <nd ref="83893668"/>
    <nd ref="83893669"/>
    <nd ref="83908110"/>
    <nd ref="83908112"/>
    <nd ref="83908113"/>
    <nd ref="454947896"/>
    <nd ref="454947902"/>
    <nd ref="83908114"/>
    <tag k="highway" v="tertiary"/>
    <tag k="name" v="Frontage Road"/>
    <tag k="tiger:cfcc" v="A41"/>
    <tag k="tiger:county" v="Tooele, UT"/>
    <tag k="tiger:name_base" v="Frontage"/>
    <tag k="tiger:name_type" v="Rd"/>
    <tag k="tiger:reviewed" v="no"/>
    <tag k="tiger:separated" v="no"/>
    <tag k="tiger:source" v="tiger_import_dch_v0.6_20070830"/>
    <tag k="tiger:tlid" v="155383929:155383916:155394577:155383933"/>
  </way>
  <way id="38480501" version="2" timestamp="2010-07-08T03:31:39Z" uid="74617" user="JohnSmith" changeset="5163091">
    <nd ref="357468593"/>
    <nd ref="357468596"/>
    <nd ref="357471946"/>
    <nd ref="357468599"/>
    <nd ref="357468602"/>
    <nd ref="357468605"/>
    <nd ref="357468609"/>
    <nd ref="357468611"/>
    <nd ref="357468613"/>
    <tag k="highway" v="residential"/>
    <tag k="maxspeed" v="50"/>
    <tag k="maxspeed:source" v="default residential speed limit in Australia"/>
    <tag k="name" v="Fishermans Bend Avenue"/>
    <tag k="source" v="Yahoo"/>
  </way>
  <way id="38480501" version="3" timestamp="2012-01-19T02:39:10Z" uid="147510" user="woodpeck_fixbot" changeset="10433378">
    <nd ref="357468593"/>
    <nd ref="357468596"/>
    <nd ref="357471946"/>
    <nd ref="357468599"/>
    <nd ref="357468602"/>
    <nd ref="357468605"/>
    <nd ref="357468609"/>
    <nd ref="357468611"/>
    <nd ref="357468613"/>
    <tag k="highway" v="residential"/>
    <tag k="name" v="Fishermans Bend Avenue"/>
    <tag k="source" v="Yahoo"/>
  </way>
  <way id="38480502" version="2" timestamp="2010-07-08T03:33:43Z" uid="74617" user="JohnSmith" changeset="5163091">
    <nd ref="357473763"/>
    <nd ref="357473764"/>
    <nd ref="357473766"/>
    <nd ref="357473768"/>
    <nd ref="357473612"/>
    <nd ref="357473771"/>
    <tag k="highway" v="residential"/>
    <tag k="maxspeed" v="50"/>
    <tag k="maxspeed:source" v="default residential speed limit in Australia"/>
    <tag k="name" v="Gwydir Street"/>
    <tag k="source" v="Yahoo"/>
  </way>
  <way id="38480502" version="3" timestamp="2012-01-19T02:39:12Z" uid="147510" user="woodpeck_fixbot" changeset="10433378">
    <nd ref="357473763"/>
    <nd ref="357473764"/>
    <nd ref="357473766"/>
    <nd ref="357473768"/>
    <nd ref="357473612"/>
    <nd ref="357473771"/>
    <tag k="highway" v="residential"/>
    <tag k="name" v="Gwydir Street"/>
    <tag k="source" v="Yahoo"/>
  </way>
  <way id="38480502" version="4" timestamp="2012-02-27T07:16:51Z" uid="119007" user="imroy" changeset="10806022">
    <nd ref="357473763"/>
    <nd ref="357473764"/>
    <nd ref="357473766"/>
    <nd ref="357473768"/>
    <nd ref="357473612"/>
    <nd ref="1650063388"/>
    <nd ref="357473771"/>
    <tag k="highway" v="residential"/>
    <tag k="name" v="Gwydir Street"/>
    <tag k="source" v="Yahoo"/>
  </way>
  <way id="38480503" version="2" timestamp="2010-07-08T03:32:09Z" uid="74617" user="JohnSmith" changeset="5163091">
    <nd ref="357473945"/>
    <nd ref="357473390"/>
    <tag k="highway" v="residential"/>
    <tag k="maxspeed" v="50"/>
    <tag k="maxspeed:source" v="default residential speed limit in Australia"/>
    <tag k="name" v="Highclere Street"/>
    <tag k="source" v="Yahoo"/>
  </way>
  <way id="38480503" version="3" timestamp="2012-01-19T02:39:13Z" uid="147510" user="woodpeck_fixbot" changeset="10433378">
    <nd ref="357473945"/>
    <nd ref="357473390"/>
    <tag k="highway" v="residential"/>
    <tag k="name" v="Highclere Street"/>
    <tag k="source" v="Yahoo"/>
  </way>
  <way id="38480504" version="4" timestamp="2010-05-16T13:55:01Z" uid="4467" user="Rosscoe" changeset="4717339">
    <nd ref="357474010"/>
    <nd ref="357474012"/>
    <nd ref="357473945"/>
    <nd ref="736495086"/>
    <tag k="highway" v="residential"/>
    <tag k="name" v="Brooke Avenue"/>
    <tag k="source" v="Yahoo"/>
  </way>
  <way id="38480504" version="5" timestamp="2010-07-08T03:32:28Z" uid="74617" user="JohnSmith" changeset="5163091">
    <nd ref="357474010"/>
    <nd ref="357474012"/>
    <nd ref="357473945"/>
    <nd ref="736495086"/>
    <tag k="highway" v="residential"/>
    <tag k="maxspeed" v="50"/>
    <tag k="maxspeed:source" v="default residential speed limit in Australia"/>
    <tag k="name" v="Brooke Avenue"/>
    <tag k="source" v="Yahoo"/>
  </way>
  <way id="38480504" version="6" timestamp="2012-01-19T02:39:15Z" uid="147510" user="woodpeck_fixbot" changeset="10433378">
    <nd ref="357474010"/>
    <nd ref="357474012"/>
    <nd ref="357473945"/>
    <nd ref="736495086"/>
    <tag k="highway" v="residential"/>
    <tag k="name" v="Brooke Avenue"/>
    <tag k="source" v="Yahoo"/>
  </way>
  <way id="38480684" version="3" timestamp="2009-08-29T18:58:01Z" uid="9581" user="Lobelt" changeset="2305385">
    <nd ref="269177137"/>
    <nd ref="269177138"/>
    <nd ref="269177139"/>
    <tag k="created_by" v="Potlatch 0.9c"/>
    <tag k="highway" v="track"/>
    <tag k="tracktype" v="grade1"/>
  </way>
  <way id="38480684" version="4" timestamp="2009-09-29T17:28:25Z" uid="149205" user="Anubis" changeset="2679807">
    <nd ref="269177137"/>
    <nd ref="269177138"/>
    <nd ref="269177139"/>
    <tag k="highway" v="track"/>
    <tag k="tracktype" v="grade1"/>
  </way>
  <way id="38480684" version="5" timestamp="2010-08-15T14:25:13Z" uid="279457" user="Piddi" changeset="5500310">
    <nd ref="269177137"/>
    <nd ref="269177138"/>
    <nd ref="269177139"/>
    <tag k="highway" v="track"/>
    <tag k="name" v="Siegelhain"/>
    <tag k="tracktype" v="grade1"/>
  </way>
  <way id="38480684" version="6" timestamp="2010-08-15T14:26:53Z" uid="279457" user="Piddi" changeset="5500310">
    <nd ref="269177137"/>
    <nd ref="269177138"/>
    <nd ref="269177139"/>
    <tag k="addr:city" v="Hockenheim"/>
    <tag k="addr:postcode" v="68766"/>
    <tag k="highway" v="track"/>
    <tag k="name" v="Siegelhain"/>
    <tag k="tracktype" v="grade1"/>
  </way>
  <way id="38480775" version="2" timestamp="2011-02-06T01:24:01Z" uid="6269" user="Mueck" changeset="7199360">
    <nd ref="21519913"/>
    <nd ref="16809411"/>
    <nd ref="482682"/>
    <nd ref="25523853"/>
    <nd ref="31088992"/>
    <nd ref="31088995"/>
    <tag k="highway" v="motorway_link"/>
    <tag k="oneway" v="yes"/>
  </way>
  <way id="38480775" version="3" timestamp="2011-02-06T02:46:47Z" uid="6269" user="Mueck" changeset="7199586">
    <nd ref="21519913"/>
    <nd ref="16809411"/>
    <nd ref="482682"/>
    <nd ref="25523853"/>
    <nd ref="31088992"/>
    <nd ref="1138439859"/>
    <nd ref="31088995"/>
    <tag k="highway" v="motorway_link"/>
    <tag k="oneway" v="yes"/>
  </way>
  <way id="38480775" version="4" timestamp="2011-10-24T14:51:26Z" uid="442210" user="dwausr" changeset="9644118"/>
  <way id="38480776" version="5" timestamp="2011-02-06T01:24:01Z" uid="6269" user="Mueck" changeset="7199360">
    <nd ref="1138332338"/>
    <nd ref="410559800"/>
    <nd ref="526208"/>
    <tag k="cycleway" v="track"/>
    <tag k="highway" v="trunk"/>
    <tag k="lanes" v="3"/>
    <tag k="maxspeed" v="60"/>
    <tag k="motorroad" v="no"/>
    <tag k="name" v="Durlacher Allee"/>
    <tag k="oneway" v="yes"/>
    <tag k="ref" v="B 10"/>
  </way>
  <way id="38480776" version="6" timestamp="2011-10-06T14:59:39Z" uid="4499" user="Jochen Topf" changeset="9486264">
    <nd ref="1138332338"/>
    <nd ref="410559800"/>
    <nd ref="526208"/>
    <tag k="cycleway" v="track"/>
    <tag k="highway" v="trunk"/>
    <tag k="lanes" v="3"/>
    <tag k="maxspeed" v="60"/>
    <tag k="motorroad" v="no"/>
    <tag k="name" v="Durlacher Allee"/>
    <tag k="oneway" v="yes"/>
    <tag k="ref" v="B 10"/>
    <tag k="tmc" v="DE:20287-30893"/>
  </way>
  <way id="38480776" version="7" timestamp="2011-10-13T15:03:32Z" uid="4499" user="Jochen Topf" changeset="9547928">
    <nd ref="1138332338"/>
    <nd ref="410559800"/>
    <nd ref="526208"/>
    <tag k="cycleway" v="track"/>
    <tag k="highway" v="trunk"/>
    <tag k="lanes" v="3"/>
    <tag k="maxspeed" v="60"/>
    <tag k="motorroad" v="no"/>
    <tag k="name" v="Durlacher Allee"/>
    <tag k="oneway" v="yes"/>
    <tag k="ref" v="B 10"/>
    <tag k="tmc" v="DE:30893+20287"/>
  </way>
  <way id="38480776" version="8" timestamp="2011-10-19T13:39:38Z" uid="165061" user="keinname" changeset="9597875">
    <nd ref="1138332338"/>
    <nd ref="410559800"/>
    <nd ref="526208"/>
    <tag k="highway" v="trunk"/>
    <tag k="lanes" v="3"/>
    <tag k="lanes:through" v="2"/>
    <tag k="lanes:turnright" v="1"/>
    <tag k="maxspeed" v="60"/>
    <tag k="motorroad" v="no"/>
    <tag k="name" v="Durlacher Allee"/>
    <tag k="oneway" v="yes"/>
    <tag k="ref" v="B 10"/>
    <tag k="tmc" v="DE:30893+20287"/>
  </way>
  <way id="38480776" version="9" timestamp="2011-10-24T14:51:15Z" uid="442210" user="dwausr" changeset="9644118"/>
  <way id="38480777" version="2" timestamp="2010-07-08T03:33:07Z" uid="74617" user="JohnSmith" changeset="5163091">
    <nd ref="454959432"/>
    <nd ref="454959431"/>
    <tag k="highway" v="residential"/>
    <tag k="maxspeed" v="50"/>
    <tag k="maxspeed:source" v="default residential speed limit in Australia"/>
    <tag k="name" v="Jonathon Close"/>
  </way>
  <way id="38480777" version="3" timestamp="2012-01-19T02:39:17Z" uid="147510" user="woodpeck_fixbot" changeset="10433378">
    <nd ref="454959432"/>
    <nd ref="454959431"/>
    <tag k="highway" v="residential"/>
    <tag k="name" v="Jonathon Close"/>
  </way>
  <way id="38480778" version="2" timestamp="2010-07-08T03:32:22Z" uid="74617" user="JohnSmith" changeset="5163091">
    <nd ref="454959434"/>
    <nd ref="454959427"/>
    <tag k="highway" v="residential"/>
    <tag k="maxspeed" v="50"/>
    <tag k="maxspeed:source" v="default residential speed limit in Australia"/>
    <tag k="name" v="Seaspray Close"/>
  </way>
  <way id="38480778" version="3" timestamp="2012-01-19T02:39:19Z" uid="147510" user="woodpeck_fixbot" changeset="10433378">
    <nd ref="454959434"/>
    <nd ref="454959427"/>
    <tag k="highway" v="residential"/>
    <tag k="name" v="Seaspray Close"/>
  </way>
  <way id="38480819" version="1" timestamp="2009-08-03T08:42:46Z" uid="61114" user="Trav" changeset="2022935">
    <nd ref="82468227"/>
    <nd ref="454963793"/>
    <nd ref="82469867"/>
    <nd ref="454963822"/>
    <nd ref="454963838"/>
    <nd ref="454963852"/>
    <nd ref="454963865"/>
    <nd ref="82460198"/>
    <tag k="abutters" v="residential"/>
    <tag k="highway" v="residential"/>
    <tag k="name" v="Levick Street"/>
    <tag k="source" v="survey"/>
  </way>
  <way id="38480819" version="2" timestamp="2009-12-19T11:07:04Z" uid="30201" user="rrankin" changeset="3406016">
    <nd ref="82468227"/>
    <nd ref="454963793"/>
    <nd ref="82469867"/>
    <nd ref="454963822"/>
    <nd ref="454963838"/>
    <nd ref="454963852"/>
    <nd ref="454963865"/>
    <nd ref="82460198"/>
    <tag k="highway" v="residential"/>
    <tag k="name" v="Levick Street"/>
    <tag k="source" v="survey"/>
  </way>
  <way id="38480819" version="3" timestamp="2010-07-08T01:17:12Z" uid="74617" user="JohnSmith" changeset="5162525">
    <nd ref="82468227"/>
    <nd ref="454963793"/>
    <nd ref="82469867"/>
    <nd ref="454963822"/>
    <nd ref="454963838"/>
    <nd ref="454963852"/>
    <nd ref="454963865"/>
    <nd ref="82460198"/>
    <tag k="highway" v="residential"/>
    <tag k="maxspeed" v="50"/>
    <tag k="maxspeed:source" v="default residential speed limit in Australia"/>
    <tag k="name" v="Levick Street"/>
    <tag k="source" v="survey"/>
  </way>
  <way id="38480819" version="4" timestamp="2012-01-19T02:39:20Z" uid="147510" user="woodpeck_fixbot" changeset="10433378">
    <nd ref="82468227"/>
    <nd ref="454963793"/>
    <nd ref="82469867"/>
    <nd ref="454963822"/>
    <nd ref="454963838"/>
    <nd ref="454963852"/>
    <nd ref="454963865"/>
    <nd ref="82460198"/>
    <tag k="highway" v="residential"/>
    <tag k="name" v="Levick Street"/>
    <tag k="source" v="survey"/>
  </way>
  <way id="38480823" version="1" timestamp="2009-08-03T08:42:47Z" uid="61114" user="Trav" changeset="2022935">
    <nd ref="82460198"/>
    <nd ref="82460195"/>
    <nd ref="82460192"/>
    <nd ref="82460188"/>
    <nd ref="82460185"/>
    <nd ref="82460182"/>
    <nd ref="454963893"/>
    <tag k="abutters" v="residential"/>
    <tag k="highway" v="residential"/>
    <tag k="name" v="Tobruk Avenue"/>
    <tag k="source" v="survey"/>
  </way>
  <way id="38480823" version="2" timestamp="2009-12-19T11:06:59Z" uid="30201" user="rrankin" changeset="3406016">
    <nd ref="82460198"/>
    <nd ref="82460195"/>
    <nd ref="82460192"/>
    <nd ref="82460188"/>
    <nd ref="82460185"/>
    <nd ref="82460182"/>
    <nd ref="454963893"/>
    <tag k="highway" v="residential"/>
    <tag k="name" v="Tobruk Avenue"/>
    <tag k="source" v="survey"/>
  </way>
  <way id="38480823" version="3" timestamp="2010-01-06T09:17:27Z" uid="9477" user="NilbogAus" changeset="3551706">
    <nd ref="82460198"/>
    <nd ref="82460195"/>
    <nd ref="82460192"/>
    <nd ref="606334632"/>
    <nd ref="82460188"/>
    <nd ref="82460185"/>
    <nd ref="82460182"/>
    <nd ref="454963893"/>
    <tag k="highway" v="residential"/>
    <tag k="name" v="Tobruk Avenue"/>
    <tag k="source" v="survey"/>
  </way>
  <way id="38480823" version="4" timestamp="2010-07-08T01:19:31Z" uid="74617" user="JohnSmith" changeset="5162525">
    <nd ref="82460198"/>
    <nd ref="82460195"/>
    <nd ref="82460192"/>
    <nd ref="606334632"/>
    <nd ref="82460188"/>
    <nd ref="82460185"/>
    <nd ref="82460182"/>
    <nd ref="454963893"/>
    <tag k="highway" v="residential"/>
    <tag k="maxspeed" v="50"/>
    <tag k="maxspeed:source" v="default residential speed limit in Australia"/>
    <tag k="name" v="Tobruk Avenue"/>
    <tag k="source" v="survey"/>
  </way>
  <way id="38480823" version="5" timestamp="2010-11-01T01:40:45Z" uid="365425" user="Bicylce NSW" changeset="6250561">
    <nd ref="82460198"/>
    <nd ref="82460195"/>
    <nd ref="82460192"/>
    <nd ref="606334632"/>
    <nd ref="82460188"/>
    <nd ref="82460185"/>
    <nd ref="82460182"/>
    <nd ref="454963893"/>
    <tag k="highway" v="residential"/>
    <tag k="lcn" v="yes"/>
    <tag k="maxspeed" v="50"/>
    <tag k="maxspeed:source" v="default residential speed limit in Australia"/>
    <tag k="name" v="Tobruk Avenue"/>
    <tag k="source" v="survey"/>
  </way>
  <way id="38480823" version="6" timestamp="2012-01-19T02:39:22Z" uid="147510" user="woodpeck_fixbot" changeset="10433378">
    <nd ref="82460198"/>
    <nd ref="82460195"/>
    <nd ref="82460192"/>
    <nd ref="606334632"/>
    <nd ref="82460188"/>
    <nd ref="82460185"/>
    <nd ref="82460182"/>
    <nd ref="454963893"/>
    <tag k="highway" v="residential"/>
    <tag k="lcn" v="yes"/>
    <tag k="name" v="Tobruk Avenue"/>
    <tag k="source" v="survey"/>
  </way>
  <way id="38480843" version="1" timestamp="2009-08-03T08:42:50Z" uid="61114" user="Trav" changeset="2022935">
    <nd ref="454963893"/>
    <nd ref="82460180"/>
    <nd ref="82455930"/>
    <tag k="abutters" v="residential"/>
    <tag k="highway" v="residential"/>
    <tag k="name" v="Samora Avenue"/>
    <tag k="source" v="survey"/>
    <tag k="source:name" v="historical"/>
  </way>
  <way id="38480843" version="2" timestamp="2009-12-19T11:07:07Z" uid="30201" user="rrankin" changeset="3406016">
    <nd ref="454963893"/>
    <nd ref="82460180"/>
    <nd ref="82455930"/>
    <tag k="highway" v="residential"/>
    <tag k="name" v="Samora Avenue"/>
    <tag k="source" v="survey"/>
    <tag k="source:name" v="historical"/>
  </way>
  <way id="38480843" version="3" timestamp="2010-07-08T01:18:04Z" uid="74617" user="JohnSmith" changeset="5162525">
    <nd ref="454963893"/>
    <nd ref="82460180"/>
    <nd ref="82455930"/>
    <tag k="highway" v="residential"/>
    <tag k="maxspeed" v="50"/>
    <tag k="maxspeed:source" v="default residential speed limit in Australia"/>
    <tag k="name" v="Samora Avenue"/>
    <tag k="source" v="survey"/>
    <tag k="source:name" v="historical"/>
  </way>
  <way id="38480843" version="4" timestamp="2010-11-01T01:40:45Z" uid="365425" user="Bicylce NSW" changeset="6250561">
    <nd ref="454963893"/>
    <nd ref="82460180"/>
    <nd ref="82455930"/>
    <tag k="highway" v="residential"/>
    <tag k="lcn" v="yes"/>
    <tag k="maxspeed" v="50"/>
    <tag k="maxspeed:source" v="default residential speed limit in Australia"/>
    <tag k="name" v="Samora Avenue"/>
    <tag k="source" v="survey"/>
    <tag k="source:name" v="historical"/>
  </way>
  <way id="38480843" version="5" timestamp="2012-01-19T02:39:23Z" uid="147510" user="woodpeck_fixbot" changeset="10433378">
    <nd ref="454963893"/>
    <nd ref="82460180"/>
    <nd ref="82455930"/>
    <tag k="highway" v="residential"/>
    <tag k="lcn" v="yes"/>
    <tag k="name" v="Samora Avenue"/>
    <tag k="source" v="survey"/>
    <tag k="source:name" v="historical"/>
  </way>
  <way id="38480845" version="1" timestamp="2009-08-03T08:42:50Z" uid="61114" user="Trav" changeset="2022935">
    <nd ref="82455930"/>
    <nd ref="82455903"/>
    <tag k="abutters" v="residential"/>
    <tag k="highway" v="residential"/>
    <tag k="name" v="Ryries Parade"/>
    <tag k="source" v="survey"/>
  </way>
  <way id="38480845" version="2" timestamp="2009-12-19T11:07:07Z" uid="30201" user="rrankin" changeset="3406016">
    <nd ref="82455930"/>
    <nd ref="82455903"/>
    <tag k="highway" v="residential"/>
    <tag k="name" v="Ryries Parade"/>
    <tag k="source" v="survey"/>
  </way>
  <way id="38480845" version="3" timestamp="2010-07-08T01:18:51Z" uid="74617" user="JohnSmith" changeset="5162525">
    <nd ref="82455930"/>
    <nd ref="82455903"/>
    <tag k="highway" v="residential"/>
    <tag k="maxspeed" v="50"/>
    <tag k="maxspeed:source" v="default residential speed limit in Australia"/>
    <tag k="name" v="Ryries Parade"/>
    <tag k="source" v="survey"/>
  </way>
  <way id="38480845" version="4" timestamp="2010-11-01T02:55:06Z" uid="365425" user="Bicylce NSW" changeset="6251243">
    <nd ref="82455930"/>
    <nd ref="973332765"/>
    <nd ref="82455903"/>
    <tag k="highway" v="residential"/>
    <tag k="lcn" v="yes"/>
    <tag k="maxspeed" v="50"/>
    <tag k="maxspeed:source" v="default residential speed limit in Australia"/>
    <tag k="name" v="Ryries Parade"/>
    <tag k="source" v="survey"/>
  </way>
  <way id="38480845" version="5" timestamp="2012-01-19T02:39:24Z" uid="147510" user="woodpeck_fixbot" changeset="10433378">
    <nd ref="82455930"/>
    <nd ref="973332765"/>
    <nd ref="82455903"/>
    <tag k="highway" v="residential"/>
    <tag k="lcn" v="yes"/>
    <tag k="name" v="Ryries Parade"/>
    <tag k="source" v="survey"/>
  </way>
  <way id="38480851" version="1" timestamp="2009-08-03T08:42:52Z" uid="61114" user="Trav" changeset="2022935">
    <nd ref="82455930"/>
    <nd ref="454963945"/>
    <tag k="highway" v="service"/>
    <tag k="name" v="Samora Avenue"/>
    <tag k="source" v="survey"/>
  </way>
  <way id="38480868" version="1" timestamp="2009-08-03T08:42:55Z" uid="61114" user="Trav" changeset="2022935">
    <nd ref="82460182"/>
    <nd ref="454963952"/>
    <tag k="highway" v="steps"/>
    <tag k="source" v="approximation"/>
  </way>
  <way id="38480868" version="2" timestamp="2010-01-06T09:17:30Z" uid="9477" user="NilbogAus" changeset="3551706">
    <nd ref="454963952"/>
    <nd ref="82460182"/>
    <tag k="highway" v="steps"/>
    <tag k="source" v="survey"/>
  </way>
</osm>
