<?xml version='1.0' encoding='UTF-8'?>
<osm version="0.6" generator="libosmium/2.20.0">
  <way id="38559090" version="5" timestamp="2010-04-04T01:20:43Z" uid="20587" user="balrog-kun" changeset="4318136">
    <nd ref="177334390"/>
    <nd ref="177236233"/>
    <nd ref="177243803"/>
    <nd ref="456665088"/>
    <tag k="CDOT_route" v="006G"/>
    <tag k="highway" v="motorway"/>
    <tag k="name" v="West 6th Avenue"/>
    <tag k="oneway" v="yes"/>
    <tag k="ref" v="US 6"/>
    <tag k="tiger:cfcc" v="A41"/>
    <tag k="tiger:county" v="Jefferson, CO"/>
    <tag k="tiger:name_base" v="6th"/>
    <tag k="tiger:name_direction_prefix" v="W"/>
    <tag k="tiger:name_type" v="Ave"/>
    <tag k="tiger:separated" v="no"/>
    <tag k="tiger:source" v="tiger_import_dch_v0.6_20070809"/>
    <tag k="tiger:tlid" v="177319898"/>
  </way>
  <way id="38559090" version="6" timestamp="2011-02-26T06:40:21Z" uid="207745" user="NE2" changeset="7396830">
    <nd ref="177334390"/>
    <nd ref="177236233"/>
    <nd ref="177243803"/>
    <nd ref="456665088"/>
    <tag k="CDOT_route" v="006G"/>
    <tag k="highway" v="motorway"/>
    <tag k="name" v="West 6th Avenue Freeway"/>
    <tag k="oneway" v="yes"/>
    <tag k="ref" v="US 6"/>
    <tag k="tiger:cfcc" v="A41"/>
    <tag k="tiger:county" v="Jefferson, CO"/>
    <tag k="tiger:name_base" v="6th"/>
    <tag k="tiger:name_direction_prefix" v="W"/>
    <tag k="tiger:name_type" v="Ave"/>
    <tag k="tiger:separated" v="no"/>
    <tag k="tiger:source" v="tiger_import_dch_v0.6_20070809"/>
    <tag k="tiger:tlid" v="177319898"/>
  </way>
  <way id="38559090" version="7" timestamp="2011-06-25T15:44:20Z" uid="473471" user="NE3" changeset="8543716">
    <nd ref="177334390"/>
    <nd ref="177236233"/>
    <nd ref="177243803"/>
    <nd ref="456665088"/>
    <tag k="CDOT_route" v="006G"/>
    <tag k="highway" v="motorway"/>
    <tag k="lanes" v="3"/>
    <tag k="name" v="West 6th Avenue Freeway"/>
    <tag k="oneway" v="yes"/>
    <tag k="ref" v="US 6"/>
    <tag k="tiger:cfcc" v="A41"/>
    <tag k="tiger:county" v="Jefferson, CO"/>
    <tag k="tiger:name_base" v="6th"/>
    <tag k="tiger:name_direction_prefix" v="W"/>
    <tag k="tiger:name_type" v="Ave"/>
    <tag k="tiger:separated" v="no"/>
    <tag k="tiger:source" v="tiger_import_dch_v0.6_20070809"/>
    <tag k="tiger:tlid" v="177319898"/>
  </way>
  <way id="38559090" version="8" timestamp="2011-07-07T02:12:23Z" uid="473471" user="NE3" changeset="8653554">
    <nd ref="177334390"/>
    <nd ref="177236233"/>
    <nd ref="177243803"/>
    <nd ref="456665088"/>
    <tag k="CDOT_route" v="006G"/>
    <tag k="NHS" v="yes"/>
    <tag k="highway" v="motorway"/>
    <tag k="lanes" v="3"/>
    <tag k="name" v="West 6th Avenue Freeway"/>
    <tag k="oneway" v="yes"/>
    <tag k="ref" v="US 6"/>
    <tag k="tiger:cfcc" v="A41"/>
    <tag k="tiger:county" v="Jefferson, CO"/>
    <tag k="tiger:name_base" v="6th"/>
    <tag k="tiger:name_direction_prefix" v="W"/>
    <tag k="tiger:name_type" v="Ave"/>
    <tag k="tiger:separated" v="no"/>
    <tag k="tiger:source" v="tiger_import_dch_v0.6_20070809"/>
    <tag k="tiger:tlid" v="177319898"/>
  </way>
  <way id="38559090" version="9" timestamp="2011-10-15T12:41:41Z" uid="207745" user="NE2" changeset="9562979">
    <nd ref="177334390"/>
    <nd ref="177236233"/>
    <nd ref="177243803"/>
    <nd ref="456665088"/>
    <tag k="CDOT_route" v="006G"/>
    <tag k="NHS" v="yes"/>
    <tag k="bicycle" v="no"/>
    <tag k="highway" v="motorway"/>
    <tag k="lanes" v="3"/>
    <tag k="name" v="West 6th Avenue Freeway"/>
    <tag k="oneway" v="yes"/>
    <tag k="ref" v="US 6"/>
    <tag k="tiger:cfcc" v="A41"/>
    <tag k="tiger:county" v="Jefferson, CO"/>
    <tag k="tiger:name_base" v="6th"/>
    <tag k="tiger:name_direction_prefix" v="W"/>
    <tag k="tiger:name_type" v="Ave"/>
    <tag k="tiger:separated" v="no"/>
    <tag k="tiger:source" v="tiger_import_dch_v0.6_20070809"/>
    <tag k="tiger:tlid" v="177319898"/>
  </way>
</osm>
