<?xml version='1.0' encoding='UTF-8'?>
<osm version="0.6" generator="libosmium/2.20.0">
  <way id="38550043" version="4" timestamp="2010-04-06T14:38:44Z" uid="20587" user="balrog-kun" changeset="4342997">
    <nd ref="456358638"/>
    <nd ref="456358813"/>
    <tag k="bridge" v="yes"/>
    <tag k="highway" v="secondary"/>
    <tag k="layer" v="1"/>
    <tag k="name" v="Kansas Avenue"/>
    <tag k="name_1" v="State Highway 32"/>
    <tag k="name_2" v="Old Highway 132"/>
    <tag k="tiger:cfcc" v="A31"/>
    <tag k="tiger:county" v="Wyandotte, KS"/>
    <tag k="tiger:name_base" v="Kansas"/>
    <tag k="tiger:name_base_1" v="State Highway 32"/>
    <tag k="tiger:name_base_2" v="Old Hwy 132"/>
    <tag k="tiger:name_type" v="Ave"/>
    <tag k="tiger:reviewed" v="yes"/>
    <tag k="tiger:separated" v="no"/>
    <tag k="tiger:source" v="tiger_import_dch_v0.6_20070812"/>
    <tag k="tiger:tlid" v="91150380:91150377"/>
    <tag k="tiger:zip_left" v="66105"/>
    <tag k="tiger:zip_right" v="66105"/>
  </way>
  <way id="38550043" version="5" timestamp="2011-02-18T20:01:06Z" uid="207745" user="NE2" changeset="7325732">
    <nd ref="456358638"/>
    <nd ref="456358813"/>
    <tag k="bridge" v="yes"/>
    <tag k="highway" v="primary"/>
    <tag k="layer" v="1"/>
    <tag k="name" v="Kansas Avenue"/>
    <tag k="name_1" v="State Highway 32"/>
    <tag k="name_2" v="Old Highway 132"/>
    <tag k="tiger:cfcc" v="A31"/>
    <tag k="tiger:county" v="Wyandotte, KS"/>
    <tag k="tiger:name_base" v="Kansas"/>
    <tag k="tiger:name_base_1" v="State Highway 32"/>
    <tag k="tiger:name_base_2" v="Old Hwy 132"/>
    <tag k="tiger:name_type" v="Ave"/>
    <tag k="tiger:reviewed" v="yes"/>
    <tag k="tiger:separated" v="no"/>
    <tag k="tiger:source" v="tiger_import_dch_v0.6_20070812"/>
    <tag k="tiger:tlid" v="91150380:91150377"/>
    <tag k="tiger:zip_left" v="66105"/>
    <tag k="tiger:zip_right" v="66105"/>
  </way>
  <way id="38550043" version="6" timestamp="2011-10-19T17:31:12Z" uid="207745" user="NE2" changeset="9601867">
    <nd ref="456358638"/>
    <nd ref="456358813"/>
    <tag k="bridge" v="yes"/>
    <tag k="highway" v="primary"/>
    <tag k="layer" v="1"/>
    <tag k="name" v="Kansas Avenue"/>
    <tag k="ref" v="K 32"/>
    <tag k="tiger:cfcc" v="A31"/>
    <tag k="tiger:county" v="Wyandotte, KS"/>
    <tag k="tiger:name_base" v="Kansas"/>
    <tag k="tiger:name_base_1" v="State Highway 32"/>
    <tag k="tiger:name_base_2" v="Old Hwy 132"/>
    <tag k="tiger:name_type" v="Ave"/>
    <tag k="tiger:reviewed" v="yes"/>
    <tag k="tiger:separated" v="no"/>
    <tag k="tiger:source" v="tiger_import_dch_v0.6_20070812"/>
    <tag k="tiger:tlid" v="91150380:91150377"/>
    <tag k="tiger:zip_left" v="66105"/>
    <tag k="tiger:zip_right" v="66105"/>
  </way>
  <way id="38550043" version="7" timestamp="2011-10-20T05:26:16Z" uid="262151" user="ToeBee" changeset="9605356">
    <nd ref="456358638"/>
    <nd ref="456358813"/>
    <tag k="bridge" v="yes"/>
    <tag k="highway" v="primary"/>
    <tag k="layer" v="1"/>
    <tag k="name" v="Kansas Avenue"/>
    <tag k="name_1" v="State Highway 32"/>
    <tag k="name_2" v="Old Highway 132"/>
    <tag k="tiger:cfcc" v="A31"/>
    <tag k="tiger:county" v="Wyandotte, KS"/>
    <tag k="tiger:name_base" v="Kansas"/>
    <tag k="tiger:name_base_1" v="State Highway 32"/>
    <tag k="tiger:name_base_2" v="Old Hwy 132"/>
    <tag k="tiger:name_type" v="Ave"/>
    <tag k="tiger:reviewed" v="yes"/>
    <tag k="tiger:separated" v="no"/>
    <tag k="tiger:source" v="tiger_import_dch_v0.6_20070812"/>
    <tag k="tiger:tlid" v="91150380:91150377"/>
    <tag k="tiger:zip_left" v="66105"/>
    <tag k="tiger:zip_right" v="66105"/>
  </way>
  <way id="38550043" version="8" timestamp="2012-03-16T23:06:13Z" uid="213956" user="route56" changeset="11003537">
    <nd ref="456358638"/>
    <nd ref="456358813"/>
    <tag k="HFCS" v="Major Arterial (Urban)"/>
    <tag k="bridge" v="yes"/>
    <tag k="highway" v="primary"/>
    <tag k="layer" v="1"/>
    <tag k="name" v="Kansas Avenue"/>
    <tag k="name_1" v="State Highway 32"/>
    <tag k="name_2" v="Old Highway 132"/>
    <tag k="old_ref" v="KS 132"/>
    <tag k="ref" v="KS 32"/>
    <tag k="tiger:cfcc" v="A31"/>
    <tag k="tiger:county" v="Wyandotte, KS"/>
    <tag k="tiger:name_base" v="Kansas"/>
    <tag k="tiger:name_base_1" v="State Highway 32"/>
    <tag k="tiger:name_base_2" v="Old Hwy 132"/>
    <tag k="tiger:name_type" v="Ave"/>
    <tag k="tiger:reviewed" v="yes"/>
    <tag k="tiger:separated" v="no"/>
    <tag k="tiger:source" v="tiger_import_dch_v0.6_20070812"/>
    <tag k="tiger:tlid" v="91150380:91150377"/>
    <tag k="tiger:zip_left" v="66105"/>
    <tag k="tiger:zip_right" v="66105"/>
  </way>
  <way id="38550076" version="3" timestamp="2010-04-06T14:38:45Z" uid="20587" user="balrog-kun" changeset="4342997">
    <nd ref="456358813"/>
    <nd ref="123410465"/>
    <nd ref="123410467"/>
    <nd ref="123410469"/>
    <nd ref="123410472"/>
    <nd ref="123410475"/>
    <nd ref="123410477"/>
    <nd ref="123410478"/>
    <nd ref="123323198"/>
    <nd ref="123410479"/>
    <nd ref="123410482"/>
    <nd ref="123410484"/>
    <nd ref="123326839"/>
    <nd ref="123318351"/>
    <nd ref="123325550"/>
    <nd ref="123318289"/>
    <nd ref="123336587"/>
    <nd ref="123318299"/>
    <nd ref="123324306"/>
    <nd ref="123410486"/>
    <nd ref="123410492"/>
    <nd ref="123334715"/>
    <nd ref="123334760"/>
    <nd ref="123336692"/>
    <nd ref="123321609"/>
    <nd ref="123317989"/>
    <nd ref="123364027"/>
    <nd ref="123410495"/>
    <nd ref="123322483"/>
    <nd ref="123410497"/>
    <nd ref="123410499"/>
    <nd ref="123318010"/>
    <nd ref="123410500"/>
    <nd ref="123345357"/>
    <tag k="highway" v="secondary"/>
    <tag k="name" v="Kansas Avenue"/>
    <tag k="name_1" v="State Highway 32"/>
    <tag k="name_2" v="Old Highway 132"/>
    <tag k="tiger:cfcc" v="A31"/>
    <tag k="tiger:county" v="Wyandotte, KS"/>
    <tag k="tiger:name_base" v="Kansas"/>
    <tag k="tiger:name_base_1" v="State Highway 32"/>
    <tag k="tiger:name_base_2" v="Old Hwy 132"/>
    <tag k="tiger:name_type" v="Ave"/>
    <tag k="tiger:reviewed" v="no"/>
    <tag k="tiger:separated" v="no"/>
    <tag k="tiger:source" v="tiger_import_dch_v0.6_20070812"/>
    <tag k="tiger:tlid" v="91150380:91150377"/>
    <tag k="tiger:zip_left" v="66105"/>
    <tag k="tiger:zip_right" v="66105"/>
  </way>
  <way id="38550076" version="4" timestamp="2011-02-07T20:36:31Z" uid="28378" user="PHerison" changeset="7220610">
    <nd ref="456358813"/>
    <nd ref="123410465"/>
    <nd ref="123410467"/>
    <nd ref="123410469"/>
    <nd ref="123410472"/>
    <nd ref="123410475"/>
    <nd ref="123404221"/>
    <nd ref="123410477"/>
    <nd ref="123410478"/>
    <nd ref="123323198"/>
    <nd ref="123410479"/>
    <nd ref="123410482"/>
    <nd ref="123410484"/>
    <nd ref="123326839"/>
    <nd ref="123318351"/>
    <nd ref="123325550"/>
    <nd ref="123318289"/>
    <nd ref="123336587"/>
    <nd ref="123318299"/>
    <nd ref="123324306"/>
    <nd ref="123410486"/>
    <nd ref="123410492"/>
    <nd ref="123334715"/>
    <nd ref="123334760"/>
    <nd ref="123336692"/>
    <nd ref="123321609"/>
    <nd ref="123317989"/>
    <nd ref="123364027"/>
    <nd ref="123410495"/>
    <nd ref="123322483"/>
    <nd ref="123410497"/>
    <nd ref="123410499"/>
    <nd ref="123318010"/>
    <nd ref="123410500"/>
    <nd ref="123345357"/>
    <tag k="highway" v="secondary"/>
    <tag k="name" v="Kansas Avenue"/>
    <tag k="name_1" v="State Highway 32"/>
    <tag k="name_2" v="Old Highway 132"/>
    <tag k="tiger:cfcc" v="A31"/>
    <tag k="tiger:county" v="Wyandotte, KS"/>
    <tag k="tiger:name_base" v="Kansas"/>
    <tag k="tiger:name_base_1" v="State Highway 32"/>
    <tag k="tiger:name_base_2" v="Old Hwy 132"/>
    <tag k="tiger:name_type" v="Ave"/>
    <tag k="tiger:reviewed" v="no"/>
    <tag k="tiger:separated" v="no"/>
    <tag k="tiger:source" v="tiger_import_dch_v0.6_20070812"/>
    <tag k="tiger:tlid" v="91150380:91150377"/>
    <tag k="tiger:zip_left" v="66105"/>
    <tag k="tiger:zip_right" v="66105"/>
  </way>
  <way id="38550076" version="5" timestamp="2011-02-18T19:53:12Z" uid="207745" user="NE2" changeset="7325732">
    <nd ref="456358813"/>
    <nd ref="123410465"/>
    <nd ref="123410467"/>
    <nd ref="123410469"/>
    <nd ref="123410472"/>
    <nd ref="123410475"/>
    <nd ref="123404221"/>
    <nd ref="123410477"/>
    <nd ref="123410478"/>
    <nd ref="123323198"/>
    <nd ref="123410479"/>
    <nd ref="123410482"/>
    <nd ref="123410484"/>
    <nd ref="123326839"/>
    <nd ref="123318351"/>
    <nd ref="123325550"/>
    <nd ref="123318289"/>
    <nd ref="123336587"/>
    <nd ref="123318299"/>
    <nd ref="123324306"/>
    <nd ref="123410486"/>
    <nd ref="123410492"/>
    <nd ref="123334715"/>
    <nd ref="123334760"/>
    <nd ref="123336692"/>
    <nd ref="123321609"/>
    <nd ref="123317989"/>
    <nd ref="123364027"/>
    <nd ref="123410495"/>
    <nd ref="123322483"/>
    <nd ref="123410497"/>
    <nd ref="123410499"/>
    <nd ref="123410500"/>
    <nd ref="123345357"/>
    <tag k="highway" v="primary"/>
    <tag k="name" v="Kansas Avenue"/>
    <tag k="name_1" v="State Highway 32"/>
    <tag k="name_2" v="Old Highway 132"/>
    <tag k="tiger:cfcc" v="A31"/>
    <tag k="tiger:county" v="Wyandotte, KS"/>
    <tag k="tiger:name_base" v="Kansas"/>
    <tag k="tiger:name_base_1" v="State Highway 32"/>
    <tag k="tiger:name_base_2" v="Old Hwy 132"/>
    <tag k="tiger:name_type" v="Ave"/>
    <tag k="tiger:reviewed" v="no"/>
    <tag k="tiger:separated" v="no"/>
    <tag k="tiger:source" v="tiger_import_dch_v0.6_20070812"/>
    <tag k="tiger:tlid" v="91150380:91150377"/>
    <tag k="tiger:zip_left" v="66105"/>
    <tag k="tiger:zip_right" v="66105"/>
  </way>
  <way id="38550076" version="6" timestamp="2011-02-27T15:27:34Z" uid="28378" user="PHerison" changeset="7411846">
    <nd ref="456358813"/>
    <nd ref="123410465"/>
    <nd ref="123410467"/>
    <nd ref="123410469"/>
    <nd ref="123410472"/>
    <nd ref="123410475"/>
    <nd ref="123404221"/>
    <nd ref="123410477"/>
    <nd ref="123410478"/>
    <nd ref="123323198"/>
    <nd ref="123410479"/>
    <nd ref="123410482"/>
    <nd ref="123410484"/>
    <nd ref="123326839"/>
    <nd ref="123318351"/>
    <nd ref="123325550"/>
    <nd ref="123318289"/>
    <nd ref="123336587"/>
    <nd ref="123318299"/>
    <nd ref="123324306"/>
    <nd ref="123410486"/>
    <nd ref="123410492"/>
    <nd ref="123334715"/>
    <nd ref="123334760"/>
    <nd ref="123336692"/>
    <nd ref="123321609"/>
    <nd ref="123317989"/>
    <nd ref="123364027"/>
    <nd ref="123410495"/>
    <nd ref="123322483"/>
    <nd ref="1177291584"/>
    <nd ref="123410497"/>
    <nd ref="1177292789"/>
    <nd ref="123410499"/>
    <nd ref="123410500"/>
    <nd ref="123322492"/>
    <tag k="highway" v="primary"/>
    <tag k="name" v="Kansas Avenue"/>
    <tag k="name_1" v="State Highway 32"/>
    <tag k="name_2" v="Old Highway 132"/>
    <tag k="tiger:cfcc" v="A31"/>
    <tag k="tiger:county" v="Wyandotte, KS"/>
    <tag k="tiger:name_base" v="Kansas"/>
    <tag k="tiger:name_base_1" v="State Highway 32"/>
    <tag k="tiger:name_base_2" v="Old Hwy 132"/>
    <tag k="tiger:name_type" v="Ave"/>
    <tag k="tiger:reviewed" v="no"/>
    <tag k="tiger:separated" v="no"/>
    <tag k="tiger:source" v="tiger_import_dch_v0.6_20070812"/>
    <tag k="tiger:tlid" v="91150380:91150377"/>
    <tag k="tiger:zip_left" v="66105"/>
    <tag k="tiger:zip_right" v="66105"/>
  </way>
  <way id="38550076" version="7" timestamp="2011-10-03T17:43:20Z" uid="213956" user="route56" changeset="9462461">
    <nd ref="456358813"/>
    <nd ref="123410465"/>
    <nd ref="123410467"/>
    <nd ref="123410469"/>
    <nd ref="123410472"/>
    <nd ref="123410475"/>
    <nd ref="123404221"/>
    <nd ref="123410477"/>
    <nd ref="123410478"/>
    <nd ref="123323198"/>
    <nd ref="123410479"/>
    <nd ref="123410482"/>
    <nd ref="123410484"/>
    <nd ref="123326839"/>
    <nd ref="123318351"/>
    <tag k="HFCS" v="Major Arterial (Urban)"/>
    <tag k="highway" v="primary"/>
    <tag k="name" v="Kansas Avenue"/>
    <tag k="old_ref" v="KS 132"/>
    <tag k="ref" v="KS 32"/>
    <tag k="tiger:county" v="Wyandotte, KS"/>
  </way>
  <way id="38550076" version="8" timestamp="2011-10-19T17:31:12Z" uid="207745" user="NE2" changeset="9601867">
    <nd ref="456358813"/>
    <nd ref="123410465"/>
    <nd ref="123410467"/>
    <nd ref="123410469"/>
    <nd ref="123410472"/>
    <nd ref="123410475"/>
    <nd ref="123404221"/>
    <nd ref="123410477"/>
    <nd ref="123410478"/>
    <nd ref="123323198"/>
    <nd ref="123410479"/>
    <nd ref="123410482"/>
    <nd ref="123410484"/>
    <nd ref="123326839"/>
    <nd ref="123318351"/>
    <nd ref="123325550"/>
    <tag k="HFCS" v="Major Arterial (Urban)"/>
    <tag k="highway" v="primary"/>
    <tag k="name" v="Kansas Avenue"/>
    <tag k="old_ref" v="KS 132"/>
    <tag k="ref" v="KS 32"/>
    <tag k="tiger:county" v="Wyandotte, KS"/>
  </way>
  <way id="38550076" version="9" timestamp="2011-10-20T05:26:16Z" uid="262151" user="ToeBee" changeset="9605356">
    <nd ref="456358813"/>
    <nd ref="123410465"/>
    <nd ref="123410467"/>
    <nd ref="123410469"/>
    <nd ref="123410472"/>
    <nd ref="123410475"/>
    <nd ref="123404221"/>
    <nd ref="123410477"/>
    <nd ref="123410478"/>
    <nd ref="123323198"/>
    <nd ref="123410479"/>
    <nd ref="123410482"/>
    <nd ref="123410484"/>
    <nd ref="123326839"/>
    <nd ref="123318351"/>
    <tag k="HFCS" v="Major Arterial (Urban)"/>
    <tag k="highway" v="primary"/>
    <tag k="name" v="Kansas Avenue"/>
    <tag k="old_ref" v="KS 132"/>
    <tag k="ref" v="KS 32"/>
    <tag k="tiger:county" v="Wyandotte, KS"/>
  </way>
  <way id="38550501" version="7" timestamp="2010-04-06T14:38:45Z" uid="20587" user="balrog-kun" changeset="4342997">
    <nd ref="456361775"/>
    <nd ref="456361816"/>
    <tag k="bridge" v="yes"/>
    <tag k="highway" v="motorway"/>
    <tag k="layer" v="1"/>
    <tag k="name" v="South 18th Street Expressway"/>
    <tag k="oneway" v="yes"/>
    <tag k="ref" v="US 69"/>
    <tag k="tiger:cfcc" v="A45"/>
    <tag k="tiger:county" v="Wyandotte, KS"/>
    <tag k="tiger:name_base" v="18th St"/>
    <tag k="tiger:name_direction_prefix" v="S"/>
    <tag k="tiger:name_type" v="Expy"/>
    <tag k="tiger:reviewed" v="yes"/>
    <tag k="tiger:separated" v="yes"/>
    <tag k="tiger:source" v="tiger_import_dch_v0.6_20070812"/>
    <tag k="tiger:tlid" v="91149691:91149692:91142031:91142026:91149689"/>
  </way>
  <way id="38550501" version="8" timestamp="2011-02-18T20:04:54Z" uid="207745" user="NE2" changeset="7325732">
    <nd ref="456361775"/>
    <nd ref="456361816"/>
    <tag k="bridge" v="yes"/>
    <tag k="highway" v="motorway"/>
    <tag k="layer" v="1"/>
    <tag k="name" v="South 18th Street Expressway"/>
    <tag k="old_ref" v="58"/>
    <tag k="oneway" v="yes"/>
    <tag k="ref" v="US 69"/>
    <tag k="tiger:cfcc" v="A45"/>
    <tag k="tiger:county" v="Wyandotte, KS"/>
    <tag k="tiger:name_base" v="18th St"/>
    <tag k="tiger:name_direction_prefix" v="S"/>
    <tag k="tiger:name_type" v="Expy"/>
    <tag k="tiger:reviewed" v="yes"/>
    <tag k="tiger:separated" v="yes"/>
    <tag k="tiger:source" v="tiger_import_dch_v0.6_20070812"/>
    <tag k="tiger:tlid" v="91149691:91149692:91142031:91142026:91149689"/>
  </way>
  <way id="38550501" version="9" timestamp="2011-06-14T14:28:29Z" uid="207745" user="NE2" changeset="8437694">
    <nd ref="456361775"/>
    <nd ref="456361816"/>
    <tag k="bridge" v="yes"/>
    <tag k="highway" v="motorway"/>
    <tag k="lanes" v="2"/>
    <tag k="layer" v="1"/>
    <tag k="name" v="South 18th Street Expressway"/>
    <tag k="old_ref" v="58"/>
    <tag k="oneway" v="yes"/>
    <tag k="ref" v="US 69"/>
    <tag k="tiger:cfcc" v="A45"/>
    <tag k="tiger:county" v="Wyandotte, KS"/>
    <tag k="tiger:name_base" v="18th St"/>
    <tag k="tiger:name_direction_prefix" v="S"/>
    <tag k="tiger:name_type" v="Expy"/>
    <tag k="tiger:reviewed" v="yes"/>
    <tag k="tiger:separated" v="yes"/>
    <tag k="tiger:source" v="tiger_import_dch_v0.6_20070812"/>
    <tag k="tiger:tlid" v="91149691:91149692:91142031:91142026:91149689"/>
  </way>
  <way id="38550501" version="10" timestamp="2011-07-03T21:55:31Z" uid="473471" user="NE3" changeset="8624345">
    <nd ref="456361775"/>
    <nd ref="456361816"/>
    <tag k="NHS" v="yes"/>
    <tag k="bridge" v="yes"/>
    <tag k="highway" v="motorway"/>
    <tag k="lanes" v="2"/>
    <tag k="layer" v="1"/>
    <tag k="name" v="South 18th Street Expressway"/>
    <tag k="old_ref" v="58"/>
    <tag k="oneway" v="yes"/>
    <tag k="ref" v="US 69"/>
    <tag k="tiger:cfcc" v="A45"/>
    <tag k="tiger:county" v="Wyandotte, KS"/>
    <tag k="tiger:name_base" v="18th St"/>
    <tag k="tiger:name_direction_prefix" v="S"/>
    <tag k="tiger:name_type" v="Expy"/>
    <tag k="tiger:reviewed" v="yes"/>
    <tag k="tiger:separated" v="yes"/>
    <tag k="tiger:source" v="tiger_import_dch_v0.6_20070812"/>
    <tag k="tiger:tlid" v="91149691:91149692:91142031:91142026:91149689"/>
  </way>
  <way id="38550505" version="7" timestamp="2010-04-06T14:38:45Z" uid="20587" user="balrog-kun" changeset="4342997">
    <nd ref="456361816"/>
    <nd ref="456362735"/>
    <nd ref="123418487"/>
    <tag k="highway" v="motorway"/>
    <tag k="name" v="South 18th Street Expressway"/>
    <tag k="oneway" v="yes"/>
    <tag k="ref" v="US 69"/>
    <tag k="tiger:cfcc" v="A45"/>
    <tag k="tiger:county" v="Wyandotte, KS"/>
    <tag k="tiger:name_base" v="18th St"/>
    <tag k="tiger:name_direction_prefix" v="S"/>
    <tag k="tiger:name_type" v="Expy"/>
    <tag k="tiger:reviewed" v="no"/>
    <tag k="tiger:separated" v="yes"/>
    <tag k="tiger:source" v="tiger_import_dch_v0.6_20070812"/>
    <tag k="tiger:tlid" v="91149691:91149692:91142031:91142026:91149689"/>
  </way>
  <way id="38550505" version="8" timestamp="2010-06-13T20:59:18Z" uid="55958" user="elyk" changeset="4983009">
    <nd ref="456361816"/>
    <nd ref="772085938"/>
    <nd ref="456362735"/>
    <nd ref="123418487"/>
    <tag k="highway" v="motorway"/>
    <tag k="name" v="South 18th Street Expressway"/>
    <tag k="oneway" v="yes"/>
    <tag k="ref" v="US 69"/>
    <tag k="tiger:cfcc" v="A45"/>
    <tag k="tiger:county" v="Wyandotte, KS"/>
    <tag k="tiger:name_base" v="18th St"/>
    <tag k="tiger:name_direction_prefix" v="S"/>
    <tag k="tiger:name_type" v="Expy"/>
    <tag k="tiger:reviewed" v="no"/>
    <tag k="tiger:separated" v="yes"/>
    <tag k="tiger:source" v="tiger_import_dch_v0.6_20070812"/>
    <tag k="tiger:tlid" v="91149691:91149692:91142031:91142026:91149689"/>
  </way>
  <way id="38550505" version="9" timestamp="2011-02-18T19:59:12Z" uid="207745" user="NE2" changeset="7325732">
    <nd ref="456361816"/>
    <nd ref="1159702804"/>
    <tag k="highway" v="motorway"/>
    <tag k="name" v="South 18th Street Expressway"/>
    <tag k="old_ref" v="58"/>
    <tag k="oneway" v="yes"/>
    <tag k="ref" v="US 69"/>
    <tag k="tiger:cfcc" v="A45"/>
    <tag k="tiger:county" v="Wyandotte, KS"/>
    <tag k="tiger:name_base" v="18th St"/>
    <tag k="tiger:name_direction_prefix" v="S"/>
    <tag k="tiger:name_type" v="Expy"/>
    <tag k="tiger:reviewed" v="no"/>
    <tag k="tiger:separated" v="yes"/>
    <tag k="tiger:source" v="tiger_import_dch_v0.6_20070812"/>
    <tag k="tiger:tlid" v="91149691:91149692:91142031:91142026:91149689"/>
  </way>
  <way id="38550505" version="10" timestamp="2011-06-14T14:43:41Z" uid="207745" user="NE2" changeset="8437694">
    <nd ref="456361816"/>
    <nd ref="1159702804"/>
    <tag k="highway" v="motorway"/>
    <tag k="lanes" v="2"/>
    <tag k="name" v="South 18th Street Expressway"/>
    <tag k="old_ref" v="58"/>
    <tag k="oneway" v="yes"/>
    <tag k="ref" v="US 69"/>
    <tag k="tiger:cfcc" v="A45"/>
    <tag k="tiger:county" v="Wyandotte, KS"/>
    <tag k="tiger:name_base" v="18th St"/>
    <tag k="tiger:name_direction_prefix" v="S"/>
    <tag k="tiger:name_type" v="Expy"/>
    <tag k="tiger:reviewed" v="no"/>
    <tag k="tiger:separated" v="yes"/>
    <tag k="tiger:source" v="tiger_import_dch_v0.6_20070812"/>
    <tag k="tiger:tlid" v="91149691:91149692:91142031:91142026:91149689"/>
  </way>
  <way id="38550505" version="11" timestamp="2011-07-03T21:55:41Z" uid="473471" user="NE3" changeset="8624345">
    <nd ref="456361816"/>
    <nd ref="1159702804"/>
    <tag k="NHS" v="yes"/>
    <tag k="highway" v="motorway"/>
    <tag k="lanes" v="2"/>
    <tag k="name" v="South 18th Street Expressway"/>
    <tag k="old_ref" v="58"/>
    <tag k="oneway" v="yes"/>
    <tag k="ref" v="US 69"/>
    <tag k="tiger:cfcc" v="A45"/>
    <tag k="tiger:county" v="Wyandotte, KS"/>
    <tag k="tiger:name_base" v="18th St"/>
    <tag k="tiger:name_direction_prefix" v="S"/>
    <tag k="tiger:name_type" v="Expy"/>
    <tag k="tiger:reviewed" v="no"/>
    <tag k="tiger:separated" v="yes"/>
    <tag k="tiger:source" v="tiger_import_dch_v0.6_20070812"/>
    <tag k="tiger:tlid" v="91149691:91149692:91142031:91142026:91149689"/>
  </way>
  <way id="38550509" version="6" timestamp="2010-04-06T14:38:46Z" uid="20587" user="balrog-kun" changeset="4342997">
    <nd ref="456361818"/>
    <nd ref="456361796"/>
    <tag k="bridge" v="yes"/>
    <tag k="highway" v="motorway"/>
    <tag k="layer" v="1"/>
    <tag k="name" v="South 18th Street Expressway"/>
    <tag k="oneway" v="yes"/>
    <tag k="ref" v="US 69"/>
    <tag k="tiger:cfcc" v="A25"/>
    <tag k="tiger:county" v="Wyandotte, KS"/>
    <tag k="tiger:name_base" v="18th St"/>
    <tag k="tiger:name_direction_prefix" v="S"/>
    <tag k="tiger:name_type" v="Expy"/>
    <tag k="tiger:reviewed" v="yes"/>
    <tag k="tiger:separated" v="yes"/>
    <tag k="tiger:source" v="tiger_import_dch_v0.6_20070812"/>
    <tag k="tiger:tlid" v="91145643:91149997:91140433:91140435:91140404:91140386:91140389:91150525:91144079:91148465"/>
  </way>
  <way id="38550509" version="7" timestamp="2011-02-18T19:57:35Z" uid="207745" user="NE2" changeset="7325732">
    <nd ref="456361818"/>
    <nd ref="456361796"/>
    <tag k="bridge" v="yes"/>
    <tag k="highway" v="motorway"/>
    <tag k="layer" v="1"/>
    <tag k="name" v="South 18th Street Expressway"/>
    <tag k="old_ref" v="58"/>
    <tag k="oneway" v="yes"/>
    <tag k="ref" v="US 69"/>
    <tag k="tiger:cfcc" v="A25"/>
    <tag k="tiger:county" v="Wyandotte, KS"/>
    <tag k="tiger:name_base" v="18th St"/>
    <tag k="tiger:name_direction_prefix" v="S"/>
    <tag k="tiger:name_type" v="Expy"/>
    <tag k="tiger:reviewed" v="yes"/>
    <tag k="tiger:separated" v="yes"/>
    <tag k="tiger:source" v="tiger_import_dch_v0.6_20070812"/>
    <tag k="tiger:tlid" v="91145643:91149997:91140433:91140435:91140404:91140386:91140389:91150525:91144079:91148465"/>
  </way>
  <way id="38550509" version="8" timestamp="2011-06-14T14:07:45Z" uid="207745" user="NE2" changeset="8437694">
    <nd ref="456361818"/>
    <nd ref="456361796"/>
    <tag k="bridge" v="yes"/>
    <tag k="highway" v="motorway"/>
    <tag k="lanes" v="2"/>
    <tag k="layer" v="1"/>
    <tag k="name" v="South 18th Street Expressway"/>
    <tag k="old_ref" v="58"/>
    <tag k="oneway" v="yes"/>
    <tag k="ref" v="US 69"/>
    <tag k="tiger:cfcc" v="A25"/>
    <tag k="tiger:county" v="Wyandotte, KS"/>
    <tag k="tiger:name_base" v="18th St"/>
    <tag k="tiger:name_direction_prefix" v="S"/>
    <tag k="tiger:name_type" v="Expy"/>
    <tag k="tiger:reviewed" v="yes"/>
    <tag k="tiger:separated" v="yes"/>
    <tag k="tiger:source" v="tiger_import_dch_v0.6_20070812"/>
    <tag k="tiger:tlid" v="91145643:91149997:91140433:91140435:91140404:91140386:91140389:91150525:91144079:91148465"/>
  </way>
  <way id="38550509" version="9" timestamp="2011-07-03T21:55:36Z" uid="473471" user="NE3" changeset="8624345">
    <nd ref="456361818"/>
    <nd ref="456361796"/>
    <tag k="NHS" v="yes"/>
    <tag k="bridge" v="yes"/>
    <tag k="highway" v="motorway"/>
    <tag k="lanes" v="2"/>
    <tag k="layer" v="1"/>
    <tag k="name" v="South 18th Street Expressway"/>
    <tag k="old_ref" v="58"/>
    <tag k="oneway" v="yes"/>
    <tag k="ref" v="US 69"/>
    <tag k="tiger:cfcc" v="A25"/>
    <tag k="tiger:county" v="Wyandotte, KS"/>
    <tag k="tiger:name_base" v="18th St"/>
    <tag k="tiger:name_direction_prefix" v="S"/>
    <tag k="tiger:name_type" v="Expy"/>
    <tag k="tiger:reviewed" v="yes"/>
    <tag k="tiger:separated" v="yes"/>
    <tag k="tiger:source" v="tiger_import_dch_v0.6_20070812"/>
    <tag k="tiger:tlid" v="91145643:91149997:91140433:91140435:91140404:91140386:91140389:91150525:91144079:91148465"/>
  </way>
  <way id="38550513" version="7" timestamp="2010-04-06T14:38:46Z" uid="20587" user="balrog-kun" changeset="4342997">
    <nd ref="123418577"/>
    <nd ref="456362728"/>
    <nd ref="456361818"/>
    <tag k="highway" v="motorway"/>
    <tag k="name" v="South 18th Street Expressway"/>
    <tag k="oneway" v="yes"/>
    <tag k="ref" v="US 69"/>
    <tag k="tiger:cfcc" v="A25"/>
    <tag k="tiger:county" v="Wyandotte, KS"/>
    <tag k="tiger:name_base" v="18th St"/>
    <tag k="tiger:name_direction_prefix" v="S"/>
    <tag k="tiger:name_type" v="Expy"/>
    <tag k="tiger:reviewed" v="no"/>
    <tag k="tiger:separated" v="yes"/>
    <tag k="tiger:source" v="tiger_import_dch_v0.6_20070812"/>
    <tag k="tiger:tlid" v="91145643:91149997:91140433:91140435:91140404:91140386:91140389:91150525:91144079:91148465"/>
  </way>
  <way id="38550513" version="8" timestamp="2010-06-13T20:59:16Z" uid="55958" user="elyk" changeset="4983009">
    <nd ref="123418577"/>
    <nd ref="456362728"/>
    <nd ref="772086379"/>
    <nd ref="456361818"/>
    <tag k="highway" v="motorway"/>
    <tag k="name" v="South 18th Street Expressway"/>
    <tag k="oneway" v="yes"/>
    <tag k="ref" v="US 69"/>
    <tag k="tiger:cfcc" v="A25"/>
    <tag k="tiger:county" v="Wyandotte, KS"/>
    <tag k="tiger:name_base" v="18th St"/>
    <tag k="tiger:name_direction_prefix" v="S"/>
    <tag k="tiger:name_type" v="Expy"/>
    <tag k="tiger:reviewed" v="no"/>
    <tag k="tiger:separated" v="yes"/>
    <tag k="tiger:source" v="tiger_import_dch_v0.6_20070812"/>
    <tag k="tiger:tlid" v="91145643:91149997:91140433:91140435:91140404:91140386:91140389:91150525:91144079:91148465"/>
  </way>
  <way id="38550513" version="9" timestamp="2011-02-18T20:03:05Z" uid="207745" user="NE2" changeset="7325732">
    <nd ref="123418577"/>
    <nd ref="456362728"/>
    <nd ref="772086379"/>
    <nd ref="1159702849"/>
    <tag k="highway" v="motorway"/>
    <tag k="name" v="South 18th Street Expressway"/>
    <tag k="oneway" v="yes"/>
    <tag k="ref" v="US 69"/>
    <tag k="tiger:cfcc" v="A25"/>
    <tag k="tiger:county" v="Wyandotte, KS"/>
    <tag k="tiger:name_base" v="18th St"/>
    <tag k="tiger:name_direction_prefix" v="S"/>
    <tag k="tiger:name_type" v="Expy"/>
    <tag k="tiger:reviewed" v="no"/>
    <tag k="tiger:separated" v="yes"/>
    <tag k="tiger:source" v="tiger_import_dch_v0.6_20070812"/>
    <tag k="tiger:tlid" v="91145643:91149997:91140433:91140435:91140404:91140386:91140389:91150525:91144079:91148465"/>
  </way>
  <way id="38550513" version="10" timestamp="2011-06-14T14:10:37Z" uid="207745" user="NE2" changeset="8437694">
    <nd ref="123418577"/>
    <nd ref="456362728"/>
    <nd ref="772086379"/>
    <nd ref="1159702849"/>
    <tag k="highway" v="motorway"/>
    <tag k="lanes" v="2"/>
    <tag k="name" v="South 18th Street Expressway"/>
    <tag k="oneway" v="yes"/>
    <tag k="ref" v="US 69"/>
    <tag k="tiger:cfcc" v="A25"/>
    <tag k="tiger:county" v="Wyandotte, KS"/>
    <tag k="tiger:name_base" v="18th St"/>
    <tag k="tiger:name_direction_prefix" v="S"/>
    <tag k="tiger:name_type" v="Expy"/>
    <tag k="tiger:reviewed" v="no"/>
    <tag k="tiger:separated" v="yes"/>
    <tag k="tiger:source" v="tiger_import_dch_v0.6_20070812"/>
    <tag k="tiger:tlid" v="91145643:91149997:91140433:91140435:91140404:91140386:91140389:91150525:91144079:91148465"/>
  </way>
  <way id="38550513" version="11" timestamp="2011-07-03T21:55:49Z" uid="473471" user="NE3" changeset="8624345">
    <nd ref="123418577"/>
    <nd ref="456362728"/>
    <nd ref="772086379"/>
    <nd ref="1159702849"/>
    <tag k="NHS" v="yes"/>
    <tag k="highway" v="motorway"/>
    <tag k="lanes" v="2"/>
    <tag k="name" v="South 18th Street Expressway"/>
    <tag k="oneway" v="yes"/>
    <tag k="ref" v="US 69"/>
    <tag k="tiger:cfcc" v="A25"/>
    <tag k="tiger:county" v="Wyandotte, KS"/>
    <tag k="tiger:name_base" v="18th St"/>
    <tag k="tiger:name_direction_prefix" v="S"/>
    <tag k="tiger:name_type" v="Expy"/>
    <tag k="tiger:reviewed" v="no"/>
    <tag k="tiger:separated" v="yes"/>
    <tag k="tiger:source" v="tiger_import_dch_v0.6_20070812"/>
    <tag k="tiger:tlid" v="91145643:91149997:91140433:91140435:91140404:91140386:91140389:91150525:91144079:91148465"/>
  </way>
  <way id="38550635" version="8" timestamp="2010-04-06T14:38:46Z" uid="20587" user="balrog-kun" changeset="4342997">
    <nd ref="123418487"/>
    <nd ref="456363367"/>
    <nd ref="456363370"/>
    <nd ref="456362955"/>
    <tag k="bridge" v="yes"/>
    <tag k="highway" v="motorway"/>
    <tag k="layer" v="1"/>
    <tag k="name" v="South 18th Street Expressway"/>
    <tag k="oneway" v="yes"/>
    <tag k="ref" v="US 69"/>
    <tag k="tiger:cfcc" v="A45"/>
    <tag k="tiger:county" v="Wyandotte, KS"/>
    <tag k="tiger:name_base" v="18th St"/>
    <tag k="tiger:name_direction_prefix" v="S"/>
    <tag k="tiger:name_type" v="Expy"/>
    <tag k="tiger:reviewed" v="yes"/>
    <tag k="tiger:separated" v="yes"/>
    <tag k="tiger:source" v="tiger_import_dch_v0.6_20070812"/>
    <tag k="tiger:tlid" v="91149691:91149692:91142031:91142026:91149689"/>
  </way>
  <way id="38550635" version="9" timestamp="2010-06-13T20:59:19Z" uid="55958" user="elyk" changeset="4983009">
    <nd ref="123418487"/>
    <nd ref="772085986"/>
    <nd ref="772086069"/>
    <nd ref="456363367"/>
    <nd ref="456362955"/>
    <tag k="bridge" v="yes"/>
    <tag k="highway" v="motorway"/>
    <tag k="layer" v="1"/>
    <tag k="name" v="South 18th Street Expressway"/>
    <tag k="oneway" v="yes"/>
    <tag k="ref" v="US 69"/>
    <tag k="tiger:cfcc" v="A45"/>
    <tag k="tiger:county" v="Wyandotte, KS"/>
    <tag k="tiger:name_base" v="18th St"/>
    <tag k="tiger:name_direction_prefix" v="S"/>
    <tag k="tiger:name_type" v="Expy"/>
    <tag k="tiger:reviewed" v="yes"/>
    <tag k="tiger:separated" v="yes"/>
    <tag k="tiger:source" v="tiger_import_dch_v0.6_20070812"/>
    <tag k="tiger:tlid" v="91149691:91149692:91142031:91142026:91149689"/>
  </way>
  <way id="38550635" version="10" timestamp="2011-06-14T14:20:38Z" uid="207745" user="NE2" changeset="8437694">
    <nd ref="123418487"/>
    <nd ref="772085986"/>
    <nd ref="772086069"/>
    <nd ref="456363367"/>
    <nd ref="456362955"/>
    <tag k="bridge" v="yes"/>
    <tag k="highway" v="motorway"/>
    <tag k="lanes" v="2"/>
    <tag k="layer" v="1"/>
    <tag k="name" v="South 18th Street Expressway"/>
    <tag k="oneway" v="yes"/>
    <tag k="ref" v="US 69"/>
    <tag k="tiger:cfcc" v="A45"/>
    <tag k="tiger:county" v="Wyandotte, KS"/>
    <tag k="tiger:name_base" v="18th St"/>
    <tag k="tiger:name_direction_prefix" v="S"/>
    <tag k="tiger:name_type" v="Expy"/>
    <tag k="tiger:reviewed" v="yes"/>
    <tag k="tiger:separated" v="yes"/>
    <tag k="tiger:source" v="tiger_import_dch_v0.6_20070812"/>
    <tag k="tiger:tlid" v="91149691:91149692:91142031:91142026:91149689"/>
  </way>
  <way id="38550635" version="11" timestamp="2011-07-03T21:55:53Z" uid="473471" user="NE3" changeset="8624345">
    <nd ref="123418487"/>
    <nd ref="772085986"/>
    <nd ref="772086069"/>
    <nd ref="456363367"/>
    <nd ref="456362955"/>
    <tag k="NHS" v="yes"/>
    <tag k="bridge" v="yes"/>
    <tag k="highway" v="motorway"/>
    <tag k="lanes" v="2"/>
    <tag k="layer" v="1"/>
    <tag k="name" v="South 18th Street Expressway"/>
    <tag k="oneway" v="yes"/>
    <tag k="ref" v="US 69"/>
    <tag k="tiger:cfcc" v="A45"/>
    <tag k="tiger:county" v="Wyandotte, KS"/>
    <tag k="tiger:name_base" v="18th St"/>
    <tag k="tiger:name_direction_prefix" v="S"/>
    <tag k="tiger:name_type" v="Expy"/>
    <tag k="tiger:reviewed" v="yes"/>
    <tag k="tiger:separated" v="yes"/>
    <tag k="tiger:source" v="tiger_import_dch_v0.6_20070812"/>
    <tag k="tiger:tlid" v="91149691:91149692:91142031:91142026:91149689"/>
  </way>
  <way id="38550637" version="10" timestamp="2010-04-06T14:38:47Z" uid="20587" user="balrog-kun" changeset="4342997">
    <nd ref="123418588"/>
    <nd ref="456363548"/>
    <nd ref="456363240"/>
    <nd ref="123418577"/>
    <tag k="bridge" v="yes"/>
    <tag k="highway" v="motorway"/>
    <tag k="layer" v="1"/>
    <tag k="name" v="South 18th Street Expressway"/>
    <tag k="oneway" v="yes"/>
    <tag k="ref" v="US 69"/>
    <tag k="tiger:cfcc" v="A25"/>
    <tag k="tiger:county" v="Wyandotte, KS"/>
    <tag k="tiger:name_base" v="18th St"/>
    <tag k="tiger:name_direction_prefix" v="S"/>
    <tag k="tiger:name_type" v="Expy"/>
    <tag k="tiger:reviewed" v="yes"/>
    <tag k="tiger:separated" v="yes"/>
    <tag k="tiger:source" v="tiger_import_dch_v0.6_20070812"/>
    <tag k="tiger:tlid" v="91145643:91149997:91140433:91140435:91140404:91140386:91140389:91150525:91144079:91148465"/>
  </way>
  <way id="38550637" version="11" timestamp="2010-06-13T20:59:19Z" uid="55958" user="elyk" changeset="4983009">
    <nd ref="123418588"/>
    <nd ref="456363240"/>
    <nd ref="772086236"/>
    <nd ref="772085997"/>
    <nd ref="123418577"/>
    <tag k="bridge" v="yes"/>
    <tag k="highway" v="motorway"/>
    <tag k="layer" v="1"/>
    <tag k="name" v="South 18th Street Expressway"/>
    <tag k="oneway" v="yes"/>
    <tag k="ref" v="US 69"/>
    <tag k="tiger:cfcc" v="A25"/>
    <tag k="tiger:county" v="Wyandotte, KS"/>
    <tag k="tiger:name_base" v="18th St"/>
    <tag k="tiger:name_direction_prefix" v="S"/>
    <tag k="tiger:name_type" v="Expy"/>
    <tag k="tiger:reviewed" v="yes"/>
    <tag k="tiger:separated" v="yes"/>
    <tag k="tiger:source" v="tiger_import_dch_v0.6_20070812"/>
    <tag k="tiger:tlid" v="91145643:91149997:91140433:91140435:91140404:91140386:91140389:91150525:91144079:91148465"/>
  </way>
  <way id="38550637" version="12" timestamp="2011-06-14T14:48:22Z" uid="207745" user="NE2" changeset="8437694">
    <nd ref="123418588"/>
    <nd ref="456363240"/>
    <nd ref="772086236"/>
    <nd ref="772085997"/>
    <nd ref="123418577"/>
    <tag k="bridge" v="yes"/>
    <tag k="highway" v="motorway"/>
    <tag k="lanes" v="2"/>
    <tag k="layer" v="1"/>
    <tag k="name" v="South 18th Street Expressway"/>
    <tag k="oneway" v="yes"/>
    <tag k="ref" v="US 69"/>
    <tag k="tiger:cfcc" v="A25"/>
    <tag k="tiger:county" v="Wyandotte, KS"/>
    <tag k="tiger:name_base" v="18th St"/>
    <tag k="tiger:name_direction_prefix" v="S"/>
    <tag k="tiger:name_type" v="Expy"/>
    <tag k="tiger:reviewed" v="yes"/>
    <tag k="tiger:separated" v="yes"/>
    <tag k="tiger:source" v="tiger_import_dch_v0.6_20070812"/>
    <tag k="tiger:tlid" v="91145643:91149997:91140433:91140435:91140404:91140386:91140389:91150525:91144079:91148465"/>
  </way>
  <way id="38550637" version="13" timestamp="2011-07-03T21:55:54Z" uid="473471" user="NE3" changeset="8624345">
    <nd ref="123418588"/>
    <nd ref="456363240"/>
    <nd ref="772086236"/>
    <nd ref="772085997"/>
    <nd ref="123418577"/>
    <tag k="NHS" v="yes"/>
    <tag k="bridge" v="yes"/>
    <tag k="highway" v="motorway"/>
    <tag k="lanes" v="2"/>
    <tag k="layer" v="1"/>
    <tag k="name" v="South 18th Street Expressway"/>
    <tag k="oneway" v="yes"/>
    <tag k="ref" v="US 69"/>
    <tag k="tiger:cfcc" v="A25"/>
    <tag k="tiger:county" v="Wyandotte, KS"/>
    <tag k="tiger:name_base" v="18th St"/>
    <tag k="tiger:name_direction_prefix" v="S"/>
    <tag k="tiger:name_type" v="Expy"/>
    <tag k="tiger:reviewed" v="yes"/>
    <tag k="tiger:separated" v="yes"/>
    <tag k="tiger:source" v="tiger_import_dch_v0.6_20070812"/>
    <tag k="tiger:tlid" v="91145643:91149997:91140433:91140435:91140404:91140386:91140389:91150525:91144079:91148465"/>
  </way>
  <way id="38550657" version="7" timestamp="2010-04-06T14:38:47Z" uid="20587" user="balrog-kun" changeset="4342997">
    <nd ref="456362955"/>
    <nd ref="123418501"/>
    <tag k="highway" v="motorway"/>
    <tag k="name" v="South 18th Street Expressway"/>
    <tag k="oneway" v="yes"/>
    <tag k="ref" v="US 69"/>
    <tag k="tiger:cfcc" v="A45"/>
    <tag k="tiger:county" v="Wyandotte, KS"/>
    <tag k="tiger:name_base" v="18th St"/>
    <tag k="tiger:name_direction_prefix" v="S"/>
    <tag k="tiger:name_type" v="Expy"/>
    <tag k="tiger:reviewed" v="no"/>
    <tag k="tiger:separated" v="yes"/>
    <tag k="tiger:source" v="tiger_import_dch_v0.6_20070812"/>
    <tag k="tiger:tlid" v="91149691:91149692:91142031:91142026:91149689"/>
  </way>
  <way id="38550657" version="8" timestamp="2011-06-14T14:14:58Z" uid="207745" user="NE2" changeset="8437694">
    <nd ref="456362955"/>
    <nd ref="123418501"/>
    <tag k="highway" v="motorway"/>
    <tag k="lanes" v="2"/>
    <tag k="name" v="South 18th Street Expressway"/>
    <tag k="oneway" v="yes"/>
    <tag k="ref" v="US 69"/>
    <tag k="tiger:cfcc" v="A45"/>
    <tag k="tiger:county" v="Wyandotte, KS"/>
    <tag k="tiger:name_base" v="18th St"/>
    <tag k="tiger:name_direction_prefix" v="S"/>
    <tag k="tiger:name_type" v="Expy"/>
    <tag k="tiger:reviewed" v="no"/>
    <tag k="tiger:separated" v="yes"/>
    <tag k="tiger:source" v="tiger_import_dch_v0.6_20070812"/>
    <tag k="tiger:tlid" v="91149691:91149692:91142031:91142026:91149689"/>
  </way>
  <way id="38550657" version="9" timestamp="2011-07-03T21:55:37Z" uid="473471" user="NE3" changeset="8624345">
    <nd ref="456362955"/>
    <nd ref="123418501"/>
    <tag k="NHS" v="yes"/>
    <tag k="highway" v="motorway"/>
    <tag k="lanes" v="2"/>
    <tag k="name" v="South 18th Street Expressway"/>
    <tag k="oneway" v="yes"/>
    <tag k="ref" v="US 69"/>
    <tag k="tiger:cfcc" v="A45"/>
    <tag k="tiger:county" v="Wyandotte, KS"/>
    <tag k="tiger:name_base" v="18th St"/>
    <tag k="tiger:name_direction_prefix" v="S"/>
    <tag k="tiger:name_type" v="Expy"/>
    <tag k="tiger:reviewed" v="no"/>
    <tag k="tiger:separated" v="yes"/>
    <tag k="tiger:source" v="tiger_import_dch_v0.6_20070812"/>
    <tag k="tiger:tlid" v="91149691:91149692:91142031:91142026:91149689"/>
  </way>
  <way id="38550665" version="6" timestamp="2010-04-06T14:38:47Z" uid="20587" user="balrog-kun" changeset="4342997">
    <nd ref="123418590"/>
    <nd ref="123418588"/>
    <tag k="highway" v="motorway"/>
    <tag k="name" v="South 18th Street Expressway"/>
    <tag k="oneway" v="yes"/>
    <tag k="ref" v="US 69"/>
    <tag k="tiger:cfcc" v="A25"/>
    <tag k="tiger:county" v="Wyandotte, KS"/>
    <tag k="tiger:name_base" v="18th St"/>
    <tag k="tiger:name_direction_prefix" v="S"/>
    <tag k="tiger:name_type" v="Expy"/>
    <tag k="tiger:reviewed" v="no"/>
    <tag k="tiger:separated" v="yes"/>
    <tag k="tiger:source" v="tiger_import_dch_v0.6_20070812"/>
    <tag k="tiger:tlid" v="91145643:91149997:91140433:91140435:91140404:91140386:91140389:91150525:91144079:91148465"/>
  </way>
  <way id="38550665" version="7" timestamp="2011-06-14T14:41:56Z" uid="207745" user="NE2" changeset="8437694">
    <nd ref="123418590"/>
    <nd ref="123418588"/>
    <tag k="highway" v="motorway"/>
    <tag k="lanes" v="2"/>
    <tag k="name" v="South 18th Street Expressway"/>
    <tag k="oneway" v="yes"/>
    <tag k="ref" v="US 69"/>
    <tag k="tiger:cfcc" v="A25"/>
    <tag k="tiger:county" v="Wyandotte, KS"/>
    <tag k="tiger:name_base" v="18th St"/>
    <tag k="tiger:name_direction_prefix" v="S"/>
    <tag k="tiger:name_type" v="Expy"/>
    <tag k="tiger:reviewed" v="no"/>
    <tag k="tiger:separated" v="yes"/>
    <tag k="tiger:source" v="tiger_import_dch_v0.6_20070812"/>
    <tag k="tiger:tlid" v="91145643:91149997:91140433:91140435:91140404:91140386:91140389:91150525:91144079:91148465"/>
  </way>
  <way id="38550665" version="8" timestamp="2011-07-03T21:55:32Z" uid="473471" user="NE3" changeset="8624345">
    <nd ref="123418590"/>
    <nd ref="123418588"/>
    <tag k="NHS" v="yes"/>
    <tag k="highway" v="motorway"/>
    <tag k="lanes" v="2"/>
    <tag k="name" v="South 18th Street Expressway"/>
    <tag k="oneway" v="yes"/>
    <tag k="ref" v="US 69"/>
    <tag k="tiger:cfcc" v="A25"/>
    <tag k="tiger:county" v="Wyandotte, KS"/>
    <tag k="tiger:name_base" v="18th St"/>
    <tag k="tiger:name_direction_prefix" v="S"/>
    <tag k="tiger:name_type" v="Expy"/>
    <tag k="tiger:reviewed" v="no"/>
    <tag k="tiger:separated" v="yes"/>
    <tag k="tiger:source" v="tiger_import_dch_v0.6_20070812"/>
    <tag k="tiger:tlid" v="91145643:91149997:91140433:91140435:91140404:91140386:91140389:91150525:91144079:91148465"/>
  </way>
  <way id="38550709" version="7" timestamp="2010-04-06T14:38:47Z" uid="20587" user="balrog-kun" changeset="4342997">
    <nd ref="456363697"/>
    <nd ref="123418503"/>
    <tag k="highway" v="motorway"/>
    <tag k="name" v="South 18th Street Expressway"/>
    <tag k="oneway" v="yes"/>
    <tag k="ref" v="US 69"/>
    <tag k="tiger:cfcc" v="A45"/>
    <tag k="tiger:county" v="Wyandotte, KS"/>
    <tag k="tiger:name_base" v="18th St"/>
    <tag k="tiger:name_direction_prefix" v="S"/>
    <tag k="tiger:name_type" v="Expy"/>
    <tag k="tiger:reviewed" v="no"/>
    <tag k="tiger:separated" v="yes"/>
    <tag k="tiger:source" v="tiger_import_dch_v0.6_20070812"/>
    <tag k="tiger:tlid" v="91149691:91149692:91142031:91142026:91149689"/>
  </way>
  <way id="38550709" version="8" timestamp="2010-08-22T11:29:36Z" uid="28378" user="PHerison" changeset="5559980">
    <nd ref="456363697"/>
    <nd ref="873804473"/>
    <nd ref="123418503"/>
    <tag k="highway" v="motorway"/>
    <tag k="name" v="South 18th Street Expressway"/>
    <tag k="oneway" v="yes"/>
    <tag k="ref" v="US 69"/>
    <tag k="tiger:cfcc" v="A45"/>
    <tag k="tiger:county" v="Wyandotte, KS"/>
    <tag k="tiger:name_base" v="18th St"/>
    <tag k="tiger:name_direction_prefix" v="S"/>
    <tag k="tiger:name_type" v="Expy"/>
    <tag k="tiger:reviewed" v="no"/>
    <tag k="tiger:separated" v="yes"/>
    <tag k="tiger:source" v="tiger_import_dch_v0.6_20070812"/>
    <tag k="tiger:tlid" v="91149691:91149692:91142031:91142026:91149689"/>
  </way>
  <way id="38550709" version="9" timestamp="2011-06-14T14:32:25Z" uid="207745" user="NE2" changeset="8437694">
    <nd ref="456363697"/>
    <nd ref="873804473"/>
    <nd ref="123418503"/>
    <tag k="highway" v="motorway"/>
    <tag k="lanes" v="2"/>
    <tag k="name" v="South 18th Street Expressway"/>
    <tag k="oneway" v="yes"/>
    <tag k="ref" v="US 69"/>
    <tag k="tiger:cfcc" v="A45"/>
    <tag k="tiger:county" v="Wyandotte, KS"/>
    <tag k="tiger:name_base" v="18th St"/>
    <tag k="tiger:name_direction_prefix" v="S"/>
    <tag k="tiger:name_type" v="Expy"/>
    <tag k="tiger:reviewed" v="no"/>
    <tag k="tiger:separated" v="yes"/>
    <tag k="tiger:source" v="tiger_import_dch_v0.6_20070812"/>
    <tag k="tiger:tlid" v="91149691:91149692:91142031:91142026:91149689"/>
  </way>
  <way id="38550709" version="10" timestamp="2011-07-03T21:55:42Z" uid="473471" user="NE3" changeset="8624345">
    <nd ref="456363697"/>
    <nd ref="873804473"/>
    <nd ref="123418503"/>
    <tag k="NHS" v="yes"/>
    <tag k="highway" v="motorway"/>
    <tag k="lanes" v="2"/>
    <tag k="name" v="South 18th Street Expressway"/>
    <tag k="oneway" v="yes"/>
    <tag k="ref" v="US 69"/>
    <tag k="tiger:cfcc" v="A45"/>
    <tag k="tiger:county" v="Wyandotte, KS"/>
    <tag k="tiger:name_base" v="18th St"/>
    <tag k="tiger:name_direction_prefix" v="S"/>
    <tag k="tiger:name_type" v="Expy"/>
    <tag k="tiger:reviewed" v="no"/>
    <tag k="tiger:separated" v="yes"/>
    <tag k="tiger:source" v="tiger_import_dch_v0.6_20070812"/>
    <tag k="tiger:tlid" v="91149691:91149692:91142031:91142026:91149689"/>
  </way>
  <way id="38550710" version="5" timestamp="2010-04-06T14:38:48Z" uid="20587" user="balrog-kun" changeset="4342997">
    <nd ref="440618981"/>
    <nd ref="123312769"/>
    <nd ref="123328187"/>
    <tag k="highway" v="trunk"/>
    <tag k="name" v="South 18th Street Expressway"/>
    <tag k="oneway" v="yes"/>
    <tag k="ref" v="US 69"/>
    <tag k="tiger:cfcc" v="A25"/>
    <tag k="tiger:county" v="Wyandotte, KS"/>
    <tag k="tiger:name_base" v="18th St"/>
    <tag k="tiger:name_direction_prefix" v="S"/>
    <tag k="tiger:name_type" v="Expy"/>
    <tag k="tiger:reviewed" v="no"/>
    <tag k="tiger:separated" v="yes"/>
    <tag k="tiger:source" v="tiger_import_dch_v0.6_20070812"/>
    <tag k="tiger:tlid" v="91145643:91149997:91140433:91140435:91140404:91140386:91140389:91150525:91144079:91148465"/>
  </way>
  <way id="38550710" version="6" timestamp="2011-06-14T14:05:33Z" uid="207745" user="NE2" changeset="8437694">
    <nd ref="440618981"/>
    <nd ref="123312769"/>
    <nd ref="123328187"/>
    <tag k="highway" v="trunk"/>
    <tag k="lanes" v="2"/>
    <tag k="name" v="South 18th Street Expressway"/>
    <tag k="oneway" v="yes"/>
    <tag k="ref" v="US 69"/>
    <tag k="tiger:cfcc" v="A25"/>
    <tag k="tiger:county" v="Wyandotte, KS"/>
    <tag k="tiger:name_base" v="18th St"/>
    <tag k="tiger:name_direction_prefix" v="S"/>
    <tag k="tiger:name_type" v="Expy"/>
    <tag k="tiger:reviewed" v="no"/>
    <tag k="tiger:separated" v="yes"/>
    <tag k="tiger:source" v="tiger_import_dch_v0.6_20070812"/>
    <tag k="tiger:tlid" v="91145643:91149997:91140433:91140435:91140404:91140386:91140389:91150525:91144079:91148465"/>
  </way>
  <way id="38550710" version="7" timestamp="2011-07-03T21:55:44Z" uid="473471" user="NE3" changeset="8624345">
    <nd ref="440618981"/>
    <nd ref="123312769"/>
    <nd ref="123328187"/>
    <tag k="NHS" v="yes"/>
    <tag k="highway" v="trunk"/>
    <tag k="lanes" v="2"/>
    <tag k="name" v="South 18th Street Expressway"/>
    <tag k="oneway" v="yes"/>
    <tag k="ref" v="US 69"/>
    <tag k="tiger:cfcc" v="A25"/>
    <tag k="tiger:county" v="Wyandotte, KS"/>
    <tag k="tiger:name_base" v="18th St"/>
    <tag k="tiger:name_direction_prefix" v="S"/>
    <tag k="tiger:name_type" v="Expy"/>
    <tag k="tiger:reviewed" v="no"/>
    <tag k="tiger:separated" v="yes"/>
    <tag k="tiger:source" v="tiger_import_dch_v0.6_20070812"/>
    <tag k="tiger:tlid" v="91145643:91149997:91140433:91140435:91140404:91140386:91140389:91150525:91144079:91148465"/>
  </way>
  <way id="38550711" version="7" timestamp="2010-04-06T14:38:48Z" uid="20587" user="balrog-kun" changeset="4342997">
    <nd ref="456363698"/>
    <nd ref="123418590"/>
    <tag k="bridge" v="yes"/>
    <tag k="highway" v="motorway"/>
    <tag k="layer" v="1"/>
    <tag k="name" v="South 18th Street Expressway"/>
    <tag k="oneway" v="yes"/>
    <tag k="ref" v="US 69"/>
    <tag k="tiger:cfcc" v="A25"/>
    <tag k="tiger:county" v="Wyandotte, KS"/>
    <tag k="tiger:name_base" v="18th St"/>
    <tag k="tiger:name_direction_prefix" v="S"/>
    <tag k="tiger:name_type" v="Expy"/>
    <tag k="tiger:reviewed" v="yes"/>
    <tag k="tiger:separated" v="yes"/>
    <tag k="tiger:source" v="tiger_import_dch_v0.6_20070812"/>
    <tag k="tiger:tlid" v="91145643:91149997:91140433:91140435:91140404:91140386:91140389:91150525:91144079:91148465"/>
  </way>
  <way id="38550711" version="8" timestamp="2011-06-14T14:13:50Z" uid="207745" user="NE2" changeset="8437694">
    <nd ref="456363698"/>
    <nd ref="123418590"/>
    <tag k="bridge" v="yes"/>
    <tag k="highway" v="motorway"/>
    <tag k="lanes" v="2"/>
    <tag k="layer" v="1"/>
    <tag k="name" v="South 18th Street Expressway"/>
    <tag k="oneway" v="yes"/>
    <tag k="ref" v="US 69"/>
    <tag k="tiger:cfcc" v="A25"/>
    <tag k="tiger:county" v="Wyandotte, KS"/>
    <tag k="tiger:name_base" v="18th St"/>
    <tag k="tiger:name_direction_prefix" v="S"/>
    <tag k="tiger:name_type" v="Expy"/>
    <tag k="tiger:reviewed" v="yes"/>
    <tag k="tiger:separated" v="yes"/>
    <tag k="tiger:source" v="tiger_import_dch_v0.6_20070812"/>
    <tag k="tiger:tlid" v="91145643:91149997:91140433:91140435:91140404:91140386:91140389:91150525:91144079:91148465"/>
  </way>
  <way id="38550711" version="9" timestamp="2011-07-03T21:55:37Z" uid="473471" user="NE3" changeset="8624345">
    <nd ref="456363698"/>
    <nd ref="123418590"/>
    <tag k="NHS" v="yes"/>
    <tag k="bridge" v="yes"/>
    <tag k="highway" v="motorway"/>
    <tag k="lanes" v="2"/>
    <tag k="layer" v="1"/>
    <tag k="name" v="South 18th Street Expressway"/>
    <tag k="oneway" v="yes"/>
    <tag k="ref" v="US 69"/>
    <tag k="tiger:cfcc" v="A25"/>
    <tag k="tiger:county" v="Wyandotte, KS"/>
    <tag k="tiger:name_base" v="18th St"/>
    <tag k="tiger:name_direction_prefix" v="S"/>
    <tag k="tiger:name_type" v="Expy"/>
    <tag k="tiger:reviewed" v="yes"/>
    <tag k="tiger:separated" v="yes"/>
    <tag k="tiger:source" v="tiger_import_dch_v0.6_20070812"/>
    <tag k="tiger:tlid" v="91145643:91149997:91140433:91140435:91140404:91140386:91140389:91150525:91144079:91148465"/>
  </way>
  <way id="38550713" version="6" timestamp="2010-04-06T14:38:48Z" uid="20587" user="balrog-kun" changeset="4342997">
    <nd ref="123418501"/>
    <nd ref="456363697"/>
    <tag k="bridge" v="yes"/>
    <tag k="highway" v="motorway"/>
    <tag k="layer" v="1"/>
    <tag k="name" v="South 18th Street Expressway"/>
    <tag k="oneway" v="yes"/>
    <tag k="ref" v="US 69"/>
    <tag k="tiger:cfcc" v="A45"/>
    <tag k="tiger:county" v="Wyandotte, KS"/>
    <tag k="tiger:name_base" v="18th St"/>
    <tag k="tiger:name_direction_prefix" v="S"/>
    <tag k="tiger:name_type" v="Expy"/>
    <tag k="tiger:reviewed" v="yes"/>
    <tag k="tiger:separated" v="yes"/>
    <tag k="tiger:source" v="tiger_import_dch_v0.6_20070812"/>
    <tag k="tiger:tlid" v="91149691:91149692:91142031:91142026:91149689"/>
  </way>
  <way id="38550713" version="7" timestamp="2011-06-14T14:03:39Z" uid="207745" user="NE2" changeset="8437694">
    <nd ref="123418501"/>
    <nd ref="456363697"/>
    <tag k="bridge" v="yes"/>
    <tag k="highway" v="motorway"/>
    <tag k="lanes" v="2"/>
    <tag k="layer" v="1"/>
    <tag k="name" v="South 18th Street Expressway"/>
    <tag k="oneway" v="yes"/>
    <tag k="ref" v="US 69"/>
    <tag k="tiger:cfcc" v="A45"/>
    <tag k="tiger:county" v="Wyandotte, KS"/>
    <tag k="tiger:name_base" v="18th St"/>
    <tag k="tiger:name_direction_prefix" v="S"/>
    <tag k="tiger:name_type" v="Expy"/>
    <tag k="tiger:reviewed" v="yes"/>
    <tag k="tiger:separated" v="yes"/>
    <tag k="tiger:source" v="tiger_import_dch_v0.6_20070812"/>
    <tag k="tiger:tlid" v="91149691:91149692:91142031:91142026:91149689"/>
  </way>
  <way id="38550713" version="8" timestamp="2011-07-03T21:55:40Z" uid="473471" user="NE3" changeset="8624345">
    <nd ref="123418501"/>
    <nd ref="456363697"/>
    <tag k="NHS" v="yes"/>
    <tag k="bridge" v="yes"/>
    <tag k="highway" v="motorway"/>
    <tag k="lanes" v="2"/>
    <tag k="layer" v="1"/>
    <tag k="name" v="South 18th Street Expressway"/>
    <tag k="oneway" v="yes"/>
    <tag k="ref" v="US 69"/>
    <tag k="tiger:cfcc" v="A45"/>
    <tag k="tiger:county" v="Wyandotte, KS"/>
    <tag k="tiger:name_base" v="18th St"/>
    <tag k="tiger:name_direction_prefix" v="S"/>
    <tag k="tiger:name_type" v="Expy"/>
    <tag k="tiger:reviewed" v="yes"/>
    <tag k="tiger:separated" v="yes"/>
    <tag k="tiger:source" v="tiger_import_dch_v0.6_20070812"/>
    <tag k="tiger:tlid" v="91149691:91149692:91142031:91142026:91149689"/>
  </way>
  <way id="38550782" version="5" timestamp="2010-04-06T14:38:48Z" uid="20587" user="balrog-kun" changeset="4342997">
    <nd ref="123403644"/>
    <nd ref="123344187"/>
    <tag k="bridge" v="yes"/>
    <tag k="highway" v="residential"/>
    <tag k="layer" v="1"/>
    <tag k="name" v="South 12th Street"/>
    <tag k="tiger:cfcc" v="A41"/>
    <tag k="tiger:county" v="Wyandotte, KS"/>
    <tag k="tiger:name_base" v="12th"/>
    <tag k="tiger:name_direction_prefix" v="S"/>
    <tag k="tiger:name_type" v="St"/>
    <tag k="tiger:reviewed" v="yes"/>
    <tag k="tiger:separated" v="no"/>
    <tag k="tiger:source" v="tiger_import_dch_v0.6_20070812"/>
    <tag k="tiger:tlid" v="91141409:91141408:91141416"/>
    <tag k="tiger:zip_left" v="66103"/>
    <tag k="tiger:zip_right" v="66103"/>
  </way>
  <way id="38550782" version="6" timestamp="2010-05-08T12:52:30Z" uid="42429" user="FK270673" changeset="4638742">
    <nd ref="123403644"/>
    <nd ref="123344187"/>
    <tag k="bridge" v="yes"/>
    <tag k="highway" v="tertiary"/>
    <tag k="layer" v="1"/>
    <tag k="name" v="South 12th Street"/>
    <tag k="tiger:cfcc" v="A41"/>
    <tag k="tiger:county" v="Wyandotte, KS"/>
    <tag k="tiger:name_base" v="12th"/>
    <tag k="tiger:name_direction_prefix" v="S"/>
    <tag k="tiger:name_type" v="St"/>
    <tag k="tiger:reviewed" v="yes"/>
    <tag k="tiger:separated" v="no"/>
    <tag k="tiger:source" v="tiger_import_dch_v0.6_20070812"/>
    <tag k="tiger:tlid" v="91141409:91141408:91141416"/>
    <tag k="tiger:zip_left" v="66103"/>
    <tag k="tiger:zip_right" v="66103"/>
  </way>
  <way id="38550782" version="7" timestamp="2011-02-19T02:12:52Z" uid="207745" user="NE2" changeset="7328217">
    <nd ref="123403644"/>
    <nd ref="1160461425"/>
    <tag k="bridge" v="yes"/>
    <tag k="highway" v="tertiary"/>
    <tag k="layer" v="1"/>
    <tag k="name" v="South 12th Street"/>
    <tag k="tiger:cfcc" v="A41"/>
    <tag k="tiger:county" v="Wyandotte, KS"/>
    <tag k="tiger:name_base" v="12th"/>
    <tag k="tiger:name_direction_prefix" v="S"/>
    <tag k="tiger:name_type" v="St"/>
    <tag k="tiger:reviewed" v="yes"/>
    <tag k="tiger:separated" v="no"/>
    <tag k="tiger:source" v="tiger_import_dch_v0.6_20070812"/>
    <tag k="tiger:tlid" v="91141409:91141408:91141416"/>
    <tag k="tiger:zip_left" v="66103"/>
    <tag k="tiger:zip_right" v="66103"/>
  </way>
  <way id="38550782" version="8" timestamp="2011-10-03T17:43:31Z" uid="213956" user="route56" changeset="9462461">
    <nd ref="123403644"/>
    <nd ref="1160461425"/>
    <tag k="HFCS" v="Urban Collector"/>
    <tag k="bridge" v="yes"/>
    <tag k="highway" v="tertiary"/>
    <tag k="layer" v="1"/>
    <tag k="name" v="South 12th Street"/>
    <tag k="tiger:county" v="Wyandotte, KS"/>
  </way>
  <way id="38550794" version="2" timestamp="2010-04-06T14:38:48Z" uid="20587" user="balrog-kun" changeset="4342997">
    <nd ref="123344187"/>
    <nd ref="123395625"/>
    <tag k="highway" v="residential"/>
    <tag k="name" v="South 12th Street"/>
    <tag k="tiger:cfcc" v="A41"/>
    <tag k="tiger:county" v="Wyandotte, KS"/>
    <tag k="tiger:name_base" v="12th"/>
    <tag k="tiger:name_direction_prefix" v="S"/>
    <tag k="tiger:name_type" v="St"/>
    <tag k="tiger:reviewed" v="no"/>
    <tag k="tiger:separated" v="no"/>
    <tag k="tiger:source" v="tiger_import_dch_v0.6_20070812"/>
    <tag k="tiger:tlid" v="91141409:91141408:91141416"/>
    <tag k="tiger:zip_left" v="66103"/>
    <tag k="tiger:zip_right" v="66103"/>
  </way>
  <way id="38550794" version="3" timestamp="2011-02-19T02:12:51Z" uid="207745" user="NE2" changeset="7328217">
    <nd ref="123344187"/>
    <nd ref="123395625"/>
    <tag k="highway" v="tertiary"/>
    <tag k="name" v="South 12th Street"/>
    <tag k="tiger:cfcc" v="A41"/>
    <tag k="tiger:county" v="Wyandotte, KS"/>
    <tag k="tiger:name_base" v="12th"/>
    <tag k="tiger:name_direction_prefix" v="S"/>
    <tag k="tiger:name_type" v="St"/>
    <tag k="tiger:reviewed" v="no"/>
    <tag k="tiger:separated" v="no"/>
    <tag k="tiger:source" v="tiger_import_dch_v0.6_20070812"/>
    <tag k="tiger:tlid" v="91141409:91141408:91141416"/>
    <tag k="tiger:zip_left" v="66103"/>
    <tag k="tiger:zip_right" v="66103"/>
  </way>
  <way id="38550794" version="4" timestamp="2011-10-03T17:43:51Z" uid="213956" user="route56" changeset="9462461"/>
  <way id="38550982" version="8" timestamp="2010-04-06T14:38:49Z" uid="20587" user="balrog-kun" changeset="4342997">
    <nd ref="456365944"/>
    <nd ref="456367474"/>
    <tag k="bridge" v="yes"/>
    <tag k="highway" v="primary"/>
    <tag k="layer" v="1"/>
    <tag k="name" v="South 7th Street Tfwy"/>
    <tag k="ref" v="US 169"/>
    <tag k="tiger:cfcc" v="A21"/>
    <tag k="tiger:county" v="Wyandotte, KS"/>
    <tag k="tiger:name_base" v="7th Street"/>
    <tag k="tiger:name_direction_prefix" v="S"/>
    <tag k="tiger:name_type" v="Tfwy"/>
    <tag k="tiger:separated" v="no"/>
    <tag k="tiger:source" v="tiger_import_dch_v0.6_20070812"/>
    <tag k="tiger:tlid" v="91141715:91141719:91150090:91150600:91144844:91144629:91141701:91150599:91142977:91150091:91150092:91142971:91143980:91150089"/>
  </way>
  <way id="38550982" version="9" timestamp="2011-02-18T19:58:21Z" uid="207745" user="NE2" changeset="7325732">
    <nd ref="456365944"/>
    <nd ref="456367474"/>
    <tag k="bridge" v="yes"/>
    <tag k="highway" v="primary"/>
    <tag k="layer" v="1"/>
    <tag k="name" v="South 7th Street Tfwy"/>
    <tag k="old_ref" v="US 69"/>
    <tag k="ref" v="US 169"/>
    <tag k="tiger:cfcc" v="A21"/>
    <tag k="tiger:county" v="Wyandotte, KS"/>
    <tag k="tiger:name_base" v="7th Street"/>
    <tag k="tiger:name_direction_prefix" v="S"/>
    <tag k="tiger:name_type" v="Tfwy"/>
    <tag k="tiger:separated" v="no"/>
    <tag k="tiger:source" v="tiger_import_dch_v0.6_20070812"/>
    <tag k="tiger:tlid" v="91141715:91141719:91150090:91150600:91144844:91144629:91141701:91150599:91142977:91150091:91150092:91142971:91143980:91150089"/>
  </way>
  <way id="38550982" version="10" timestamp="2011-06-16T08:09:13Z" uid="207745" user="NE2" changeset="8453773">
    <nd ref="456365944"/>
    <nd ref="456367474"/>
    <tag k="bridge" v="yes"/>
    <tag k="highway" v="primary"/>
    <tag k="lanes" v="4"/>
    <tag k="layer" v="1"/>
    <tag k="name" v="South 7th Street Tfwy"/>
    <tag k="old_ref" v="US 69"/>
    <tag k="ref" v="US 169"/>
    <tag k="tiger:cfcc" v="A21"/>
    <tag k="tiger:county" v="Wyandotte, KS"/>
    <tag k="tiger:name_base" v="7th Street"/>
    <tag k="tiger:name_direction_prefix" v="S"/>
    <tag k="tiger:name_type" v="Tfwy"/>
    <tag k="tiger:separated" v="no"/>
    <tag k="tiger:source" v="tiger_import_dch_v0.6_20070812"/>
    <tag k="tiger:tlid" v="91141715:91141719:91150090:91150600:91144844:91144629:91141701:91150599:91142977:91150091:91150092:91142971:91143980:91150089"/>
  </way>
</osm>
