<?xml version='1.0' encoding='UTF-8'?>
<osm version="0.6" generator="libosmium/2.20.0">
  <way id="38670107" version="2" timestamp="2009-09-29T18:17:45Z" uid="59758" user="rendle" changeset="2680350">
    <nd ref="458092399"/>
    <nd ref="292684664"/>
    <tag k="bridge" v="yes"/>
    <tag k="highway" v="residential"/>
    <tag k="lanes" v="2"/>
    <tag k="layer" v="1"/>
    <tag k="name" v="Bontinckstraat"/>
  </way>
  <way id="38670107" version="3" timestamp="2012-01-14T09:59:38Z" uid="138772" user="lodde1949" changeset="10385817"/>
  <way id="38670108" version="4" timestamp="2009-11-07T09:30:37Z" uid="59758" user="rendle" changeset="3054209">
    <nd ref="292684664"/>
    <nd ref="292684666"/>
    <nd ref="292684667"/>
    <tag k="highway" v="residential"/>
    <tag k="lanes" v="2"/>
    <tag k="name" v="Bontinckstraat"/>
  </way>
  <way id="38670108" version="5" timestamp="2009-11-07T09:30:44Z" uid="59758" user="rendle" changeset="3054209">
    <nd ref="292684664"/>
    <nd ref="292684666"/>
    <nd ref="292684667"/>
    <tag k="bridge" v="yes"/>
    <tag k="highway" v="residential"/>
    <tag k="lanes" v="2"/>
    <tag k="name" v="Bontinckstraat"/>
  </way>
  <way id="38670108" version="6" timestamp="2012-01-14T09:59:38Z" uid="138772" user="lodde1949" changeset="10385817"/>
</osm>
