<?xml version='1.0' encoding='UTF-8'?>
<osm version="0.6" generator="libosmium/2.20.0">
  <way id="38788775" version="1" timestamp="2009-08-09T21:34:29Z" uid="6975" user="ulfl" changeset="2091358">
    <nd ref="460028428"/>
    <nd ref="460028431"/>
    <tag k="bridge" v="yes"/>
    <tag k="highway" v="road"/>
    <tag k="note" v="Br端cke der ehemalig geplanten Stecke 46"/>
    <tag k="wikipedia" v="http://de.wikipedia.org/wiki/Strecke_46"/>
  </way>
  <way id="38788775" version="2" timestamp="2010-05-02T16:11:15Z" uid="186827" user="Schmittrich" changeset="4586797">
    <nd ref="460028428"/>
    <nd ref="460028431"/>
    <nd ref="717500130"/>
    <nd ref="717500126"/>
    <nd ref="460028428"/>
    <tag k="building" v="yes"/>
    <tag k="historic" v="Autobahnruine Strecke 46"/>
    <tag k="layer" v="1"/>
    <tag k="note" v="Br端cke der ehemalig geplanten Stecke 46"/>
    <tag k="ruins" v="yes"/>
    <tag k="wikipedia" v="http://de.wikipedia.org/wiki/Strecke_46"/>
  </way>
  <way id="38788775" version="3" timestamp="2011-10-21T22:43:06Z" uid="166154" user="TomRat" changeset="9620512">
    <nd ref="460028428"/>
    <nd ref="460028431"/>
    <nd ref="717500130"/>
    <nd ref="717500126"/>
    <nd ref="460028428"/>
    <tag k="bridge" v="yes"/>
    <tag k="building" v="yes"/>
    <tag k="historic" v="Autobahnruine Strecke 46"/>
    <tag k="layer" v="1"/>
    <tag k="name" v="Strecke 46"/>
    <tag k="note" v="Br端cke der ehemalig geplanten Stecke 46"/>
    <tag k="ruins" v="yes"/>
    <tag k="wikipedia" v="http://de.wikipedia.org/wiki/Strecke_46"/>
  </way>
  <way id="38788775" version="4" timestamp="2011-10-21T23:08:33Z" uid="166154" user="TomRat" changeset="9620635">
    <nd ref="460028428"/>
    <nd ref="460028431"/>
    <nd ref="717500130"/>
    <nd ref="717500126"/>
    <nd ref="460028428"/>
    <tag k="building" v="yes"/>
    <tag k="historic" v="Autobahnruine Strecke 46"/>
    <tag k="layer" v="1"/>
    <tag k="name" v="Strecke 46"/>
    <tag k="note" v="Br端cke der ehemalig geplanten Stecke 46"/>
    <tag k="ruins" v="yes"/>
    <tag k="wikipedia" v="http://de.wikipedia.org/wiki/Strecke_46"/>
  </way>
</osm>
