<?xml version='1.0' encoding='UTF-8'?>
<osm version="0.6" generator="libosmium/2.20.0">
  <way id="38796089" version="1" timestamp="2009-08-10T02:30:38Z" uid="4467" user="Rosscoe" changeset="2092391">
    <nd ref="435173725"/>
    <nd ref="433680728"/>
    <tag k="highway" v="residential"/>
    <tag k="name" v="Azalea Road"/>
  </way>
  <way id="38796089" version="2" timestamp="2009-08-10T03:03:05Z" uid="4467" user="Rosscoe" changeset="2092485"/>
  <way id="38796181" version="1" timestamp="2009-08-10T02:37:31Z" uid="4467" user="Rosscoe" changeset="2092402">
    <nd ref="271896214"/>
    <nd ref="271896215"/>
    <nd ref="271896216"/>
    <nd ref="271896217"/>
    <nd ref="271885790"/>
    <tag k="highway" v="tertiary"/>
    <tag k="name" v="Bicentennial Way"/>
    <tag k="oneway" v="yes"/>
  </way>
  <way id="38796181" version="2" timestamp="2011-01-24T05:37:11Z" uid="310765" user="Zamias" changeset="7069807">
    <nd ref="271896214"/>
    <nd ref="271896215"/>
    <nd ref="271896216"/>
    <nd ref="271896217"/>
    <nd ref="271885790"/>
    <tag k="highway" v="tertiary"/>
    <tag k="name" v="Kremzow Road"/>
    <tag k="oneway" v="yes"/>
  </way>
  <way id="38796185" version="3" timestamp="2010-04-06T14:39:10Z" uid="20587" user="balrog-kun" changeset="4342997">
    <nd ref="123390552"/>
    <nd ref="123390554"/>
    <nd ref="123383828"/>
    <nd ref="123351897"/>
    <nd ref="123390557"/>
    <nd ref="123390560"/>
    <nd ref="123377712"/>
    <nd ref="456365944"/>
    <tag k="highway" v="primary"/>
    <tag k="name" v="South 7th Street Tfwy"/>
    <tag k="ref" v="US 169"/>
    <tag k="tiger:cfcc" v="A21"/>
    <tag k="tiger:county" v="Wyandotte, KS"/>
    <tag k="tiger:name_base" v="7th Street"/>
    <tag k="tiger:name_direction_prefix" v="S"/>
    <tag k="tiger:name_type" v="Tfwy"/>
    <tag k="tiger:reviewed" v="no"/>
    <tag k="tiger:separated" v="no"/>
    <tag k="tiger:source" v="tiger_import_dch_v0.6_20070812"/>
    <tag k="tiger:tlid" v="91141701:91141715:91141719:91142971:91142977:91143980:91144629:91144844:91150089:91150090:91150091:91150092:91150599:91150600"/>
  </way>
  <way id="38796185" version="4" timestamp="2011-02-18T19:57:11Z" uid="207745" user="NE2" changeset="7325732">
    <nd ref="123390552"/>
    <nd ref="123390554"/>
    <nd ref="123383828"/>
    <nd ref="123351897"/>
    <nd ref="123390557"/>
    <nd ref="123390560"/>
    <nd ref="123377712"/>
    <nd ref="456365944"/>
    <tag k="highway" v="primary"/>
    <tag k="name" v="South 7th Street Tfwy"/>
    <tag k="old_ref" v="US 69"/>
    <tag k="ref" v="US 169"/>
    <tag k="tiger:cfcc" v="A21"/>
    <tag k="tiger:county" v="Wyandotte, KS"/>
    <tag k="tiger:name_base" v="7th Street"/>
    <tag k="tiger:name_direction_prefix" v="S"/>
    <tag k="tiger:name_type" v="Tfwy"/>
    <tag k="tiger:reviewed" v="no"/>
    <tag k="tiger:separated" v="no"/>
    <tag k="tiger:source" v="tiger_import_dch_v0.6_20070812"/>
    <tag k="tiger:tlid" v="91141701:91141715:91141719:91142971:91142977:91143980:91144629:91144844:91150089:91150090:91150091:91150092:91150599:91150600"/>
  </way>
  <way id="38796185" version="5" timestamp="2011-02-19T01:49:36Z" uid="207745" user="NE2" changeset="7328217">
    <nd ref="123390552"/>
    <nd ref="123390554"/>
    <nd ref="123383828"/>
    <nd ref="123351897"/>
    <nd ref="123390557"/>
    <nd ref="123377712"/>
    <nd ref="456365944"/>
    <tag k="highway" v="primary"/>
    <tag k="name" v="South 7th Street Tfwy"/>
    <tag k="old_ref" v="US 69"/>
    <tag k="ref" v="US 169"/>
    <tag k="tiger:cfcc" v="A21"/>
    <tag k="tiger:county" v="Wyandotte, KS"/>
    <tag k="tiger:name_base" v="7th Street"/>
    <tag k="tiger:name_direction_prefix" v="S"/>
    <tag k="tiger:name_type" v="Tfwy"/>
    <tag k="tiger:reviewed" v="no"/>
    <tag k="tiger:separated" v="no"/>
    <tag k="tiger:source" v="tiger_import_dch_v0.6_20070812"/>
    <tag k="tiger:tlid" v="91141701:91141715:91141719:91142971:91142977:91143980:91144629:91144844:91150089:91150090:91150091:91150092:91150599:91150600"/>
  </way>
  <way id="38796185" version="6" timestamp="2011-03-12T22:40:57Z" uid="262151" user="ToeBee" changeset="7539155">
    <nd ref="123383828"/>
    <nd ref="123351897"/>
    <nd ref="123390557"/>
    <nd ref="123377712"/>
    <nd ref="456365944"/>
    <tag k="highway" v="primary"/>
    <tag k="name" v="South 7th Street Tfwy"/>
    <tag k="old_ref" v="US 69"/>
    <tag k="ref" v="US 169"/>
    <tag k="tiger:cfcc" v="A21"/>
    <tag k="tiger:county" v="Wyandotte, KS"/>
    <tag k="tiger:name_base" v="7th Street"/>
    <tag k="tiger:name_direction_prefix" v="S"/>
    <tag k="tiger:name_type" v="Tfwy"/>
    <tag k="tiger:reviewed" v="no"/>
    <tag k="tiger:separated" v="no"/>
    <tag k="tiger:source" v="tiger_import_dch_v0.6_20070812"/>
    <tag k="tiger:tlid" v="91141701:91141715:91141719:91142971:91142977:91143980:91144629:91144844:91150089:91150090:91150091:91150092:91150599:91150600"/>
  </way>
  <way id="38796185" version="7" timestamp="2011-06-16T08:07:52Z" uid="207745" user="NE2" changeset="8453773">
    <nd ref="123383828"/>
    <nd ref="123351897"/>
    <nd ref="123390557"/>
    <nd ref="123377712"/>
    <nd ref="456365944"/>
    <tag k="highway" v="primary"/>
    <tag k="lanes" v="4"/>
    <tag k="name" v="South 7th Street Tfwy"/>
    <tag k="old_ref" v="US 69"/>
    <tag k="ref" v="US 169"/>
    <tag k="tiger:cfcc" v="A21"/>
    <tag k="tiger:county" v="Wyandotte, KS"/>
    <tag k="tiger:name_base" v="7th Street"/>
    <tag k="tiger:name_direction_prefix" v="S"/>
    <tag k="tiger:name_type" v="Tfwy"/>
    <tag k="tiger:reviewed" v="no"/>
    <tag k="tiger:separated" v="no"/>
    <tag k="tiger:source" v="tiger_import_dch_v0.6_20070812"/>
    <tag k="tiger:tlid" v="91141701:91141715:91141719:91142971:91142977:91143980:91144629:91144844:91150089:91150090:91150091:91150092:91150599:91150600"/>
  </way>
  <way id="38796186" version="3" timestamp="2010-04-06T14:39:10Z" uid="20587" user="balrog-kun" changeset="4342997">
    <nd ref="123390552"/>
    <nd ref="460213417"/>
    <nd ref="460213425"/>
    <tag k="highway" v="primary"/>
    <tag k="name" v="South 7th Street Tfwy"/>
    <tag k="oneway" v="yes"/>
    <tag k="ref" v="US 169"/>
    <tag k="tiger:cfcc" v="A21"/>
    <tag k="tiger:county" v="Wyandotte, KS"/>
    <tag k="tiger:name_base" v="7th Street"/>
    <tag k="tiger:name_direction_prefix" v="S"/>
    <tag k="tiger:name_type" v="Tfwy"/>
    <tag k="tiger:reviewed" v="no"/>
    <tag k="tiger:separated" v="no"/>
    <tag k="tiger:source" v="tiger_import_dch_v0.6_20070812"/>
    <tag k="tiger:tlid" v="91151191:91151192"/>
  </way>
  <way id="38796186" version="4" timestamp="2011-02-07T20:30:56Z" uid="28378" user="PHerison" changeset="7220535">
    <nd ref="123390552"/>
    <nd ref="460213417"/>
    <nd ref="1141227538"/>
    <nd ref="460213425"/>
    <tag k="highway" v="primary"/>
    <tag k="name" v="South 7th Street Tfwy"/>
    <tag k="oneway" v="yes"/>
    <tag k="ref" v="US 169"/>
    <tag k="tiger:cfcc" v="A21"/>
    <tag k="tiger:county" v="Wyandotte, KS"/>
    <tag k="tiger:name_base" v="7th Street"/>
    <tag k="tiger:name_direction_prefix" v="S"/>
    <tag k="tiger:name_type" v="Tfwy"/>
    <tag k="tiger:reviewed" v="no"/>
    <tag k="tiger:separated" v="no"/>
    <tag k="tiger:source" v="tiger_import_dch_v0.6_20070812"/>
    <tag k="tiger:tlid" v="91151191:91151192"/>
  </way>
  <way id="38796186" version="5" timestamp="2011-02-18T19:59:18Z" uid="207745" user="NE2" changeset="7325732">
    <nd ref="123390552"/>
    <nd ref="1141227538"/>
    <nd ref="460213425"/>
    <tag k="highway" v="primary"/>
    <tag k="name" v="South 7th Street Tfwy"/>
    <tag k="old_ref" v="US 69"/>
    <tag k="oneway" v="yes"/>
    <tag k="ref" v="US 169"/>
    <tag k="tiger:cfcc" v="A21"/>
    <tag k="tiger:county" v="Wyandotte, KS"/>
    <tag k="tiger:name_base" v="7th Street"/>
    <tag k="tiger:name_direction_prefix" v="S"/>
    <tag k="tiger:name_type" v="Tfwy"/>
    <tag k="tiger:reviewed" v="no"/>
    <tag k="tiger:separated" v="no"/>
    <tag k="tiger:source" v="tiger_import_dch_v0.6_20070812"/>
    <tag k="tiger:tlid" v="91151191:91151192"/>
  </way>
  <way id="38796186" version="6" timestamp="2011-03-12T22:44:46Z" uid="262151" user="ToeBee" changeset="7539155">
    <nd ref="123383828"/>
    <nd ref="1199400684"/>
    <nd ref="1199400123"/>
    <nd ref="1141227538"/>
    <nd ref="460213425"/>
    <tag k="highway" v="primary"/>
    <tag k="name" v="South 7th Street Tfwy"/>
    <tag k="old_ref" v="US 69"/>
    <tag k="oneway" v="yes"/>
    <tag k="ref" v="US 169"/>
    <tag k="tiger:cfcc" v="A21"/>
    <tag k="tiger:county" v="Wyandotte, KS"/>
    <tag k="tiger:name_base" v="7th Street"/>
    <tag k="tiger:name_direction_prefix" v="S"/>
    <tag k="tiger:name_type" v="Tfwy"/>
    <tag k="tiger:reviewed" v="no"/>
    <tag k="tiger:separated" v="no"/>
    <tag k="tiger:source" v="tiger_import_dch_v0.6_20070812"/>
    <tag k="tiger:tlid" v="91151191:91151192"/>
  </way>
  <way id="38796186" version="7" timestamp="2011-06-16T08:21:10Z" uid="207745" user="NE2" changeset="8453773">
    <nd ref="123383828"/>
    <nd ref="1199400684"/>
    <nd ref="1199400123"/>
    <nd ref="1141227538"/>
    <nd ref="460213425"/>
    <tag k="highway" v="primary"/>
    <tag k="lanes" v="2"/>
    <tag k="name" v="South 7th Street Tfwy"/>
    <tag k="old_ref" v="US 69"/>
    <tag k="oneway" v="yes"/>
    <tag k="ref" v="US 169"/>
    <tag k="tiger:cfcc" v="A21"/>
    <tag k="tiger:county" v="Wyandotte, KS"/>
    <tag k="tiger:name_base" v="7th Street"/>
    <tag k="tiger:name_direction_prefix" v="S"/>
    <tag k="tiger:name_type" v="Tfwy"/>
    <tag k="tiger:reviewed" v="no"/>
    <tag k="tiger:separated" v="no"/>
    <tag k="tiger:source" v="tiger_import_dch_v0.6_20070812"/>
    <tag k="tiger:tlid" v="91151191:91151192"/>
  </way>
  <way id="38796187" version="4" timestamp="2010-04-06T14:39:10Z" uid="20587" user="balrog-kun" changeset="4342997">
    <nd ref="123417732"/>
    <nd ref="460213416"/>
    <nd ref="123329004"/>
    <tag k="highway" v="primary"/>
    <tag k="name" v="South 7th Street Tfwy"/>
    <tag k="oneway" v="yes"/>
    <tag k="ref" v="US 69"/>
    <tag k="tiger:cfcc" v="A21"/>
    <tag k="tiger:county" v="Wyandotte, KS"/>
    <tag k="tiger:name_base" v="7th Street"/>
    <tag k="tiger:name_direction_prefix" v="S"/>
    <tag k="tiger:name_type" v="Tfwy"/>
    <tag k="tiger:reviewed" v="no"/>
    <tag k="tiger:separated" v="no"/>
    <tag k="tiger:source" v="tiger_import_dch_v0.6_20070812"/>
    <tag k="tiger:tlid" v="91151191:91151192"/>
  </way>
  <way id="38796187" version="5" timestamp="2011-02-18T20:02:12Z" uid="207745" user="NE2" changeset="7325732">
    <nd ref="123417732"/>
    <nd ref="460213416"/>
    <nd ref="123329004"/>
    <tag k="highway" v="primary"/>
    <tag k="name" v="South 7th Street Tfwy"/>
    <tag k="old_ref" v="US 169"/>
    <tag k="oneway" v="yes"/>
    <tag k="ref" v="US 69"/>
    <tag k="tiger:cfcc" v="A21"/>
    <tag k="tiger:county" v="Wyandotte, KS"/>
    <tag k="tiger:name_base" v="7th Street"/>
    <tag k="tiger:name_direction_prefix" v="S"/>
    <tag k="tiger:name_type" v="Tfwy"/>
    <tag k="tiger:reviewed" v="no"/>
    <tag k="tiger:separated" v="no"/>
    <tag k="tiger:source" v="tiger_import_dch_v0.6_20070812"/>
    <tag k="tiger:tlid" v="91151191:91151192"/>
  </way>
  <way id="38796187" version="6" timestamp="2011-06-19T11:36:04Z" uid="207745" user="NE2" changeset="8482682">
    <nd ref="123417732"/>
    <nd ref="460213416"/>
    <nd ref="123329004"/>
    <tag k="highway" v="primary"/>
    <tag k="lanes" v="2"/>
    <tag k="name" v="South 7th Street Tfwy"/>
    <tag k="old_ref" v="US 169"/>
    <tag k="oneway" v="yes"/>
    <tag k="ref" v="US 69"/>
    <tag k="tiger:cfcc" v="A21"/>
    <tag k="tiger:county" v="Wyandotte, KS"/>
    <tag k="tiger:name_base" v="7th Street"/>
    <tag k="tiger:name_direction_prefix" v="S"/>
    <tag k="tiger:name_type" v="Tfwy"/>
    <tag k="tiger:reviewed" v="no"/>
    <tag k="tiger:separated" v="no"/>
    <tag k="tiger:source" v="tiger_import_dch_v0.6_20070812"/>
    <tag k="tiger:tlid" v="91151191:91151192"/>
  </way>
  <way id="38796188" version="2" timestamp="2010-04-06T14:39:11Z" uid="20587" user="balrog-kun" changeset="4342997">
    <nd ref="123371765"/>
    <nd ref="123336626"/>
    <tag k="highway" v="primary"/>
    <tag k="name" v="South 7th Street Tfwy"/>
    <tag k="oneway" v="yes"/>
    <tag k="tiger:cfcc" v="A21"/>
    <tag k="tiger:county" v="Wyandotte, KS"/>
    <tag k="tiger:name_base" v="7th Street"/>
    <tag k="tiger:name_direction_prefix" v="S"/>
    <tag k="tiger:name_type" v="Tfwy"/>
    <tag k="tiger:reviewed" v="no"/>
    <tag k="tiger:separated" v="no"/>
    <tag k="tiger:source" v="tiger_import_dch_v0.6_20070812"/>
    <tag k="tiger:tlid" v="91151191:91151192"/>
  </way>
  <way id="38796188" version="3" timestamp="2011-02-07T20:31:21Z" uid="28378" user="PHerison" changeset="7220535"/>
  <way id="38796189" version="4" timestamp="2010-04-06T14:39:11Z" uid="20587" user="balrog-kun" changeset="4342997">
    <nd ref="123336626"/>
    <nd ref="460213419"/>
    <tag k="highway" v="primary"/>
    <tag k="name" v="South 7th Street Tfwy"/>
    <tag k="oneway" v="yes"/>
    <tag k="ref" v="US 69"/>
    <tag k="tiger:cfcc" v="A21"/>
    <tag k="tiger:county" v="Wyandotte, KS"/>
    <tag k="tiger:name_base" v="7th Street"/>
    <tag k="tiger:name_direction_prefix" v="S"/>
    <tag k="tiger:name_type" v="Tfwy"/>
    <tag k="tiger:reviewed" v="no"/>
    <tag k="tiger:separated" v="no"/>
    <tag k="tiger:source" v="tiger_import_dch_v0.6_20070812"/>
    <tag k="tiger:tlid" v="91151191:91151192"/>
  </way>
  <way id="38796189" version="5" timestamp="2011-02-18T19:54:21Z" uid="207745" user="NE2" changeset="7325732">
    <nd ref="123336626"/>
    <nd ref="460213419"/>
    <tag k="highway" v="primary"/>
    <tag k="name" v="South 7th Street Tfwy"/>
    <tag k="old_ref" v="US 169"/>
    <tag k="oneway" v="yes"/>
    <tag k="ref" v="US 69"/>
    <tag k="tiger:cfcc" v="A21"/>
    <tag k="tiger:county" v="Wyandotte, KS"/>
    <tag k="tiger:name_base" v="7th Street"/>
    <tag k="tiger:name_direction_prefix" v="S"/>
    <tag k="tiger:name_type" v="Tfwy"/>
    <tag k="tiger:reviewed" v="no"/>
    <tag k="tiger:separated" v="no"/>
    <tag k="tiger:source" v="tiger_import_dch_v0.6_20070812"/>
    <tag k="tiger:tlid" v="91151191:91151192"/>
  </way>
  <way id="38796189" version="6" timestamp="2011-06-19T11:20:51Z" uid="207745" user="NE2" changeset="8482682">
    <nd ref="123336626"/>
    <nd ref="460213419"/>
    <tag k="highway" v="primary"/>
    <tag k="lanes" v="2"/>
    <tag k="name" v="South 7th Street Tfwy"/>
    <tag k="old_ref" v="US 169"/>
    <tag k="oneway" v="yes"/>
    <tag k="ref" v="US 69"/>
    <tag k="tiger:cfcc" v="A21"/>
    <tag k="tiger:county" v="Wyandotte, KS"/>
    <tag k="tiger:name_base" v="7th Street"/>
    <tag k="tiger:name_direction_prefix" v="S"/>
    <tag k="tiger:name_type" v="Tfwy"/>
    <tag k="tiger:reviewed" v="no"/>
    <tag k="tiger:separated" v="no"/>
    <tag k="tiger:source" v="tiger_import_dch_v0.6_20070812"/>
    <tag k="tiger:tlid" v="91151191:91151192"/>
  </way>
  <way id="38796190" version="3" timestamp="2010-04-06T14:39:11Z" uid="20587" user="balrog-kun" changeset="4342997">
    <nd ref="460213422"/>
    <nd ref="460213421"/>
    <tag k="bridge" v="yes"/>
    <tag k="highway" v="primary"/>
    <tag k="layer" v="1"/>
    <tag k="name" v="South 7th Street Tfwy"/>
    <tag k="oneway" v="yes"/>
    <tag k="ref" v="US 169"/>
    <tag k="tiger:cfcc" v="A21"/>
    <tag k="tiger:county" v="Wyandotte, KS"/>
    <tag k="tiger:name_base" v="7th Street"/>
    <tag k="tiger:name_direction_prefix" v="S"/>
    <tag k="tiger:name_type" v="Tfwy"/>
    <tag k="tiger:reviewed" v="no"/>
    <tag k="tiger:separated" v="no"/>
    <tag k="tiger:source" v="tiger_import_dch_v0.6_20070812"/>
    <tag k="tiger:tlid" v="91141701:91141715:91141719:91142971:91142977:91143980:91144629:91144844:91150089:91150090:91150091:91150092:91150599:91150600"/>
  </way>
  <way id="38796190" version="4" timestamp="2011-02-07T20:31:20Z" uid="28378" user="PHerison" changeset="7220535">
    <nd ref="123314428"/>
    <nd ref="460213421"/>
    <tag k="bridge" v="yes"/>
    <tag k="highway" v="primary"/>
    <tag k="layer" v="1"/>
    <tag k="name" v="South 7th Street Tfwy"/>
    <tag k="oneway" v="yes"/>
    <tag k="ref" v="US 169"/>
    <tag k="tiger:cfcc" v="A21"/>
    <tag k="tiger:county" v="Wyandotte, KS"/>
    <tag k="tiger:name_base" v="7th Street"/>
    <tag k="tiger:name_direction_prefix" v="S"/>
    <tag k="tiger:name_type" v="Tfwy"/>
    <tag k="tiger:reviewed" v="no"/>
    <tag k="tiger:separated" v="no"/>
    <tag k="tiger:source" v="tiger_import_dch_v0.6_20070812"/>
    <tag k="tiger:tlid" v="91141701:91141715:91141719:91142971:91142977:91143980:91144629:91144844:91150089:91150090:91150091:91150092:91150599:91150600"/>
  </way>
  <way id="38796190" version="5" timestamp="2011-02-18T19:57:44Z" uid="207745" user="NE2" changeset="7325732">
    <nd ref="123314428"/>
    <nd ref="460213421"/>
    <tag k="bridge" v="yes"/>
    <tag k="highway" v="primary"/>
    <tag k="layer" v="1"/>
    <tag k="name" v="South 7th Street Tfwy"/>
    <tag k="old_ref" v="US 69"/>
    <tag k="oneway" v="yes"/>
    <tag k="ref" v="US 169"/>
    <tag k="tiger:cfcc" v="A21"/>
    <tag k="tiger:county" v="Wyandotte, KS"/>
    <tag k="tiger:name_base" v="7th Street"/>
    <tag k="tiger:name_direction_prefix" v="S"/>
    <tag k="tiger:name_type" v="Tfwy"/>
    <tag k="tiger:reviewed" v="no"/>
    <tag k="tiger:separated" v="no"/>
    <tag k="tiger:source" v="tiger_import_dch_v0.6_20070812"/>
    <tag k="tiger:tlid" v="91141701:91141715:91141719:91142971:91142977:91143980:91144629:91144844:91150089:91150090:91150091:91150092:91150599:91150600"/>
  </way>
  <way id="38796190" version="6" timestamp="2011-06-16T08:15:58Z" uid="207745" user="NE2" changeset="8453773">
    <nd ref="123314428"/>
    <nd ref="460213421"/>
    <tag k="bridge" v="yes"/>
    <tag k="highway" v="primary"/>
    <tag k="lanes" v="2"/>
    <tag k="layer" v="1"/>
    <tag k="name" v="South 7th Street Tfwy"/>
    <tag k="old_ref" v="US 69"/>
    <tag k="oneway" v="yes"/>
    <tag k="ref" v="US 169"/>
    <tag k="tiger:cfcc" v="A21"/>
    <tag k="tiger:county" v="Wyandotte, KS"/>
    <tag k="tiger:name_base" v="7th Street"/>
    <tag k="tiger:name_direction_prefix" v="S"/>
    <tag k="tiger:name_type" v="Tfwy"/>
    <tag k="tiger:reviewed" v="no"/>
    <tag k="tiger:separated" v="no"/>
    <tag k="tiger:source" v="tiger_import_dch_v0.6_20070812"/>
    <tag k="tiger:tlid" v="91141701:91141715:91141719:91142971:91142977:91143980:91144629:91144844:91150089:91150090:91150091:91150092:91150599:91150600"/>
  </way>
  <way id="38796191" version="3" timestamp="2010-04-06T14:39:11Z" uid="20587" user="balrog-kun" changeset="4342997">
    <nd ref="460213421"/>
    <nd ref="123336619"/>
    <nd ref="123326493"/>
    <nd ref="460213424"/>
    <tag k="highway" v="primary"/>
    <tag k="name" v="South 7th Street Tfwy"/>
    <tag k="oneway" v="yes"/>
    <tag k="ref" v="US 169"/>
    <tag k="tiger:cfcc" v="A21"/>
    <tag k="tiger:county" v="Wyandotte, KS"/>
    <tag k="tiger:name_base" v="7th Street"/>
    <tag k="tiger:name_direction_prefix" v="S"/>
    <tag k="tiger:name_type" v="Tfwy"/>
    <tag k="tiger:reviewed" v="no"/>
    <tag k="tiger:separated" v="no"/>
    <tag k="tiger:source" v="tiger_import_dch_v0.6_20070812"/>
    <tag k="tiger:tlid" v="91141701:91141715:91141719:91142971:91142977:91143980:91144629:91144844:91150089:91150090:91150091:91150092:91150599:91150600"/>
  </way>
  <way id="38796191" version="4" timestamp="2011-02-18T19:59:47Z" uid="207745" user="NE2" changeset="7325732">
    <nd ref="460213421"/>
    <nd ref="123336619"/>
    <nd ref="123326493"/>
    <nd ref="460213424"/>
    <tag k="highway" v="primary"/>
    <tag k="name" v="South 7th Street Tfwy"/>
    <tag k="old_ref" v="US 69"/>
    <tag k="oneway" v="yes"/>
    <tag k="ref" v="US 169"/>
    <tag k="tiger:cfcc" v="A21"/>
    <tag k="tiger:county" v="Wyandotte, KS"/>
    <tag k="tiger:name_base" v="7th Street"/>
    <tag k="tiger:name_direction_prefix" v="S"/>
    <tag k="tiger:name_type" v="Tfwy"/>
    <tag k="tiger:reviewed" v="no"/>
    <tag k="tiger:separated" v="no"/>
    <tag k="tiger:source" v="tiger_import_dch_v0.6_20070812"/>
    <tag k="tiger:tlid" v="91141701:91141715:91141719:91142971:91142977:91143980:91144629:91144844:91150089:91150090:91150091:91150092:91150599:91150600"/>
  </way>
  <way id="38796191" version="5" timestamp="2011-06-16T08:11:35Z" uid="207745" user="NE2" changeset="8453773">
    <nd ref="460213421"/>
    <nd ref="123336619"/>
    <nd ref="123326493"/>
    <nd ref="460213424"/>
    <tag k="highway" v="primary"/>
    <tag k="lanes" v="2"/>
    <tag k="name" v="South 7th Street Tfwy"/>
    <tag k="old_ref" v="US 69"/>
    <tag k="oneway" v="yes"/>
    <tag k="ref" v="US 169"/>
    <tag k="tiger:cfcc" v="A21"/>
    <tag k="tiger:county" v="Wyandotte, KS"/>
    <tag k="tiger:name_base" v="7th Street"/>
    <tag k="tiger:name_direction_prefix" v="S"/>
    <tag k="tiger:name_type" v="Tfwy"/>
    <tag k="tiger:reviewed" v="no"/>
    <tag k="tiger:separated" v="no"/>
    <tag k="tiger:source" v="tiger_import_dch_v0.6_20070812"/>
    <tag k="tiger:tlid" v="91141701:91141715:91141719:91142971:91142977:91143980:91144629:91144844:91150089:91150090:91150091:91150092:91150599:91150600"/>
  </way>
  <way id="38796192" version="4" timestamp="2010-04-06T14:39:11Z" uid="20587" user="balrog-kun" changeset="4342997">
    <nd ref="460213419"/>
    <nd ref="460213420"/>
    <tag k="bridge" v="yes"/>
    <tag k="highway" v="primary"/>
    <tag k="layer" v="1"/>
    <tag k="name" v="South 7th Street Tfwy"/>
    <tag k="oneway" v="yes"/>
    <tag k="ref" v="US 69"/>
    <tag k="tiger:cfcc" v="A21"/>
    <tag k="tiger:county" v="Wyandotte, KS"/>
    <tag k="tiger:name_base" v="7th Street"/>
    <tag k="tiger:name_direction_prefix" v="S"/>
    <tag k="tiger:name_type" v="Tfwy"/>
    <tag k="tiger:reviewed" v="no"/>
    <tag k="tiger:separated" v="no"/>
    <tag k="tiger:source" v="tiger_import_dch_v0.6_20070812"/>
    <tag k="tiger:tlid" v="91151191:91151192"/>
  </way>
  <way id="38796192" version="5" timestamp="2011-02-18T19:58:05Z" uid="207745" user="NE2" changeset="7325732">
    <nd ref="460213419"/>
    <nd ref="460213420"/>
    <tag k="bridge" v="yes"/>
    <tag k="highway" v="primary"/>
    <tag k="layer" v="1"/>
    <tag k="name" v="South 7th Street Tfwy"/>
    <tag k="old_ref" v="US 169"/>
    <tag k="oneway" v="yes"/>
    <tag k="ref" v="US 69"/>
    <tag k="tiger:cfcc" v="A21"/>
    <tag k="tiger:county" v="Wyandotte, KS"/>
    <tag k="tiger:name_base" v="7th Street"/>
    <tag k="tiger:name_direction_prefix" v="S"/>
    <tag k="tiger:name_type" v="Tfwy"/>
    <tag k="tiger:reviewed" v="no"/>
    <tag k="tiger:separated" v="no"/>
    <tag k="tiger:source" v="tiger_import_dch_v0.6_20070812"/>
    <tag k="tiger:tlid" v="91151191:91151192"/>
  </way>
  <way id="38796192" version="6" timestamp="2011-06-19T11:15:10Z" uid="207745" user="NE2" changeset="8482682">
    <nd ref="460213419"/>
    <nd ref="460213420"/>
    <tag k="bridge" v="yes"/>
    <tag k="highway" v="primary"/>
    <tag k="lanes" v="2"/>
    <tag k="layer" v="1"/>
    <tag k="name" v="South 7th Street Tfwy"/>
    <tag k="old_ref" v="US 169"/>
    <tag k="oneway" v="yes"/>
    <tag k="ref" v="US 69"/>
    <tag k="tiger:cfcc" v="A21"/>
    <tag k="tiger:county" v="Wyandotte, KS"/>
    <tag k="tiger:name_base" v="7th Street"/>
    <tag k="tiger:name_direction_prefix" v="S"/>
    <tag k="tiger:name_type" v="Tfwy"/>
    <tag k="tiger:reviewed" v="no"/>
    <tag k="tiger:separated" v="no"/>
    <tag k="tiger:source" v="tiger_import_dch_v0.6_20070812"/>
    <tag k="tiger:tlid" v="91151191:91151192"/>
  </way>
  <way id="38796193" version="4" timestamp="2010-04-06T14:39:11Z" uid="20587" user="balrog-kun" changeset="4342997">
    <nd ref="460213420"/>
    <nd ref="123335552"/>
    <nd ref="123417735"/>
    <nd ref="123417732"/>
    <tag k="highway" v="primary"/>
    <tag k="name" v="South 7th Street Tfwy"/>
    <tag k="oneway" v="yes"/>
    <tag k="ref" v="US 69"/>
    <tag k="tiger:cfcc" v="A21"/>
    <tag k="tiger:county" v="Wyandotte, KS"/>
    <tag k="tiger:name_base" v="7th Street"/>
    <tag k="tiger:name_direction_prefix" v="S"/>
    <tag k="tiger:name_type" v="Tfwy"/>
    <tag k="tiger:reviewed" v="no"/>
    <tag k="tiger:separated" v="no"/>
    <tag k="tiger:source" v="tiger_import_dch_v0.6_20070812"/>
    <tag k="tiger:tlid" v="91151191:91151192"/>
  </way>
  <way id="38796193" version="5" timestamp="2011-02-18T20:00:10Z" uid="207745" user="NE2" changeset="7325732">
    <nd ref="460213420"/>
    <nd ref="123335552"/>
    <nd ref="123417735"/>
    <nd ref="123417732"/>
    <tag k="highway" v="primary"/>
    <tag k="name" v="South 7th Street Tfwy"/>
    <tag k="old_ref" v="US 169"/>
    <tag k="oneway" v="yes"/>
    <tag k="ref" v="US 69"/>
    <tag k="tiger:cfcc" v="A21"/>
    <tag k="tiger:county" v="Wyandotte, KS"/>
    <tag k="tiger:name_base" v="7th Street"/>
    <tag k="tiger:name_direction_prefix" v="S"/>
    <tag k="tiger:name_type" v="Tfwy"/>
    <tag k="tiger:reviewed" v="no"/>
    <tag k="tiger:separated" v="no"/>
    <tag k="tiger:source" v="tiger_import_dch_v0.6_20070812"/>
    <tag k="tiger:tlid" v="91151191:91151192"/>
  </way>
  <way id="38796193" version="6" timestamp="2011-06-19T11:21:00Z" uid="207745" user="NE2" changeset="8482682">
    <nd ref="460213420"/>
    <nd ref="123335552"/>
    <nd ref="123417735"/>
    <nd ref="123417732"/>
    <tag k="highway" v="primary"/>
    <tag k="lanes" v="2"/>
    <tag k="name" v="South 7th Street Tfwy"/>
    <tag k="old_ref" v="US 169"/>
    <tag k="oneway" v="yes"/>
    <tag k="ref" v="US 69"/>
    <tag k="tiger:cfcc" v="A21"/>
    <tag k="tiger:county" v="Wyandotte, KS"/>
    <tag k="tiger:name_base" v="7th Street"/>
    <tag k="tiger:name_direction_prefix" v="S"/>
    <tag k="tiger:name_type" v="Tfwy"/>
    <tag k="tiger:reviewed" v="no"/>
    <tag k="tiger:separated" v="no"/>
    <tag k="tiger:source" v="tiger_import_dch_v0.6_20070812"/>
    <tag k="tiger:tlid" v="91151191:91151192"/>
  </way>
  <way id="38796194" version="3" timestamp="2010-04-06T14:39:12Z" uid="20587" user="balrog-kun" changeset="4342997">
    <nd ref="460213424"/>
    <nd ref="460213426"/>
    <tag k="bridge" v="yes"/>
    <tag k="highway" v="primary"/>
    <tag k="layer" v="1"/>
    <tag k="name" v="South 7th Street Tfwy"/>
    <tag k="oneway" v="yes"/>
    <tag k="ref" v="US 169"/>
    <tag k="tiger:cfcc" v="A21"/>
    <tag k="tiger:county" v="Wyandotte, KS"/>
    <tag k="tiger:name_base" v="7th Street"/>
    <tag k="tiger:name_direction_prefix" v="S"/>
    <tag k="tiger:name_type" v="Tfwy"/>
    <tag k="tiger:reviewed" v="no"/>
    <tag k="tiger:separated" v="no"/>
    <tag k="tiger:source" v="tiger_import_dch_v0.6_20070812"/>
    <tag k="tiger:tlid" v="91141701:91141715:91141719:91142971:91142977:91143980:91144629:91144844:91150089:91150090:91150091:91150092:91150599:91150600"/>
  </way>
  <way id="38796194" version="4" timestamp="2011-02-18T20:03:14Z" uid="207745" user="NE2" changeset="7325732">
    <nd ref="460213424"/>
    <nd ref="460213426"/>
    <tag k="bridge" v="yes"/>
    <tag k="highway" v="primary"/>
    <tag k="layer" v="1"/>
    <tag k="name" v="South 7th Street Tfwy"/>
    <tag k="old_ref" v="US 69"/>
    <tag k="oneway" v="yes"/>
    <tag k="ref" v="US 169"/>
    <tag k="tiger:cfcc" v="A21"/>
    <tag k="tiger:county" v="Wyandotte, KS"/>
    <tag k="tiger:name_base" v="7th Street"/>
    <tag k="tiger:name_direction_prefix" v="S"/>
    <tag k="tiger:name_type" v="Tfwy"/>
    <tag k="tiger:reviewed" v="no"/>
    <tag k="tiger:separated" v="no"/>
    <tag k="tiger:source" v="tiger_import_dch_v0.6_20070812"/>
    <tag k="tiger:tlid" v="91141701:91141715:91141719:91142971:91142977:91143980:91144629:91144844:91150089:91150090:91150091:91150092:91150599:91150600"/>
  </way>
  <way id="38796194" version="5" timestamp="2011-06-16T08:18:21Z" uid="207745" user="NE2" changeset="8453773">
    <nd ref="460213424"/>
    <nd ref="460213426"/>
    <tag k="bridge" v="yes"/>
    <tag k="highway" v="primary"/>
    <tag k="lanes" v="2"/>
    <tag k="layer" v="1"/>
    <tag k="name" v="South 7th Street Tfwy"/>
    <tag k="old_ref" v="US 69"/>
    <tag k="oneway" v="yes"/>
    <tag k="ref" v="US 169"/>
    <tag k="tiger:cfcc" v="A21"/>
    <tag k="tiger:county" v="Wyandotte, KS"/>
    <tag k="tiger:name_base" v="7th Street"/>
    <tag k="tiger:name_direction_prefix" v="S"/>
    <tag k="tiger:name_type" v="Tfwy"/>
    <tag k="tiger:reviewed" v="no"/>
    <tag k="tiger:separated" v="no"/>
    <tag k="tiger:source" v="tiger_import_dch_v0.6_20070812"/>
    <tag k="tiger:tlid" v="91141701:91141715:91141719:91142971:91142977:91143980:91144629:91144844:91150089:91150090:91150091:91150092:91150599:91150600"/>
  </way>
  <way id="38796195" version="3" timestamp="2010-04-06T14:39:12Z" uid="20587" user="balrog-kun" changeset="4342997">
    <nd ref="460213426"/>
    <nd ref="460213418"/>
    <nd ref="123390552"/>
    <tag k="highway" v="primary"/>
    <tag k="name" v="South 7th Street Tfwy"/>
    <tag k="oneway" v="yes"/>
    <tag k="ref" v="US 169"/>
    <tag k="tiger:cfcc" v="A21"/>
    <tag k="tiger:county" v="Wyandotte, KS"/>
    <tag k="tiger:name_base" v="7th Street"/>
    <tag k="tiger:name_direction_prefix" v="S"/>
    <tag k="tiger:name_type" v="Tfwy"/>
    <tag k="tiger:reviewed" v="no"/>
    <tag k="tiger:separated" v="no"/>
    <tag k="tiger:source" v="tiger_import_dch_v0.6_20070812"/>
    <tag k="tiger:tlid" v="91141701:91141715:91141719:91142971:91142977:91143980:91144629:91144844:91150089:91150090:91150091:91150092:91150599:91150600"/>
  </way>
  <way id="38796195" version="4" timestamp="2011-02-07T20:30:55Z" uid="28378" user="PHerison" changeset="7220535">
    <nd ref="460213426"/>
    <nd ref="1141227523"/>
    <nd ref="460213418"/>
    <nd ref="123390552"/>
    <tag k="highway" v="primary"/>
    <tag k="name" v="South 7th Street Tfwy"/>
    <tag k="oneway" v="yes"/>
    <tag k="ref" v="US 169"/>
    <tag k="tiger:cfcc" v="A21"/>
    <tag k="tiger:county" v="Wyandotte, KS"/>
    <tag k="tiger:name_base" v="7th Street"/>
    <tag k="tiger:name_direction_prefix" v="S"/>
    <tag k="tiger:name_type" v="Tfwy"/>
    <tag k="tiger:reviewed" v="no"/>
    <tag k="tiger:separated" v="no"/>
    <tag k="tiger:source" v="tiger_import_dch_v0.6_20070812"/>
    <tag k="tiger:tlid" v="91141701:91141715:91141719:91142971:91142977:91143980:91144629:91144844:91150089:91150090:91150091:91150092:91150599:91150600"/>
  </way>
  <way id="38796195" version="5" timestamp="2011-02-18T20:04:51Z" uid="207745" user="NE2" changeset="7325732">
    <nd ref="460213426"/>
    <nd ref="1141227523"/>
    <nd ref="123390552"/>
    <tag k="highway" v="primary"/>
    <tag k="name" v="South 7th Street Tfwy"/>
    <tag k="old_ref" v="US 69"/>
    <tag k="oneway" v="yes"/>
    <tag k="ref" v="US 169"/>
    <tag k="tiger:cfcc" v="A21"/>
    <tag k="tiger:county" v="Wyandotte, KS"/>
    <tag k="tiger:name_base" v="7th Street"/>
    <tag k="tiger:name_direction_prefix" v="S"/>
    <tag k="tiger:name_type" v="Tfwy"/>
    <tag k="tiger:reviewed" v="no"/>
    <tag k="tiger:separated" v="no"/>
    <tag k="tiger:source" v="tiger_import_dch_v0.6_20070812"/>
    <tag k="tiger:tlid" v="91141701:91141715:91141719:91142971:91142977:91143980:91144629:91144844:91150089:91150090:91150091:91150092:91150599:91150600"/>
  </way>
  <way id="38796195" version="6" timestamp="2011-03-12T22:46:04Z" uid="262151" user="ToeBee" changeset="7539155">
    <nd ref="460213426"/>
    <nd ref="1141227523"/>
    <nd ref="123390552"/>
    <nd ref="1199400372"/>
    <nd ref="123383828"/>
    <tag k="highway" v="primary"/>
    <tag k="name" v="South 7th Street Tfwy"/>
    <tag k="old_ref" v="US 69"/>
    <tag k="oneway" v="yes"/>
    <tag k="ref" v="US 169"/>
    <tag k="tiger:cfcc" v="A21"/>
    <tag k="tiger:county" v="Wyandotte, KS"/>
    <tag k="tiger:name_base" v="7th Street"/>
    <tag k="tiger:name_direction_prefix" v="S"/>
    <tag k="tiger:name_type" v="Tfwy"/>
    <tag k="tiger:reviewed" v="no"/>
    <tag k="tiger:separated" v="no"/>
    <tag k="tiger:source" v="tiger_import_dch_v0.6_20070812"/>
    <tag k="tiger:tlid" v="91141701:91141715:91141719:91142971:91142977:91143980:91144629:91144844:91150089:91150090:91150091:91150092:91150599:91150600"/>
  </way>
  <way id="38796195" version="7" timestamp="2011-06-16T08:13:35Z" uid="207745" user="NE2" changeset="8453773">
    <nd ref="460213426"/>
    <nd ref="1141227523"/>
    <nd ref="123390552"/>
    <nd ref="1199400372"/>
    <nd ref="123383828"/>
    <tag k="highway" v="primary"/>
    <tag k="lanes" v="2"/>
    <tag k="name" v="South 7th Street Tfwy"/>
    <tag k="old_ref" v="US 69"/>
    <tag k="oneway" v="yes"/>
    <tag k="ref" v="US 169"/>
    <tag k="tiger:cfcc" v="A21"/>
    <tag k="tiger:county" v="Wyandotte, KS"/>
    <tag k="tiger:name_base" v="7th Street"/>
    <tag k="tiger:name_direction_prefix" v="S"/>
    <tag k="tiger:name_type" v="Tfwy"/>
    <tag k="tiger:reviewed" v="no"/>
    <tag k="tiger:separated" v="no"/>
    <tag k="tiger:source" v="tiger_import_dch_v0.6_20070812"/>
    <tag k="tiger:tlid" v="91141701:91141715:91141719:91142971:91142977:91143980:91144629:91144844:91150089:91150090:91150091:91150092:91150599:91150600"/>
  </way>
  <way id="38796196" version="3" timestamp="2010-04-06T14:39:12Z" uid="20587" user="balrog-kun" changeset="4342997">
    <nd ref="460213425"/>
    <nd ref="460213423"/>
    <tag k="bridge" v="yes"/>
    <tag k="highway" v="primary"/>
    <tag k="layer" v="1"/>
    <tag k="name" v="South 7th Street Tfwy"/>
    <tag k="oneway" v="yes"/>
    <tag k="ref" v="US 169"/>
    <tag k="tiger:cfcc" v="A21"/>
    <tag k="tiger:county" v="Wyandotte, KS"/>
    <tag k="tiger:name_base" v="7th Street"/>
    <tag k="tiger:name_direction_prefix" v="S"/>
    <tag k="tiger:name_type" v="Tfwy"/>
    <tag k="tiger:reviewed" v="no"/>
    <tag k="tiger:separated" v="no"/>
    <tag k="tiger:source" v="tiger_import_dch_v0.6_20070812"/>
    <tag k="tiger:tlid" v="91151191:91151192"/>
  </way>
  <way id="38796196" version="4" timestamp="2011-02-18T19:56:30Z" uid="207745" user="NE2" changeset="7325732">
    <nd ref="460213425"/>
    <nd ref="460213423"/>
    <tag k="bridge" v="yes"/>
    <tag k="highway" v="primary"/>
    <tag k="layer" v="1"/>
    <tag k="name" v="South 7th Street Tfwy"/>
    <tag k="old_ref" v="US 69"/>
    <tag k="oneway" v="yes"/>
    <tag k="ref" v="US 169"/>
    <tag k="tiger:cfcc" v="A21"/>
    <tag k="tiger:county" v="Wyandotte, KS"/>
    <tag k="tiger:name_base" v="7th Street"/>
    <tag k="tiger:name_direction_prefix" v="S"/>
    <tag k="tiger:name_type" v="Tfwy"/>
    <tag k="tiger:reviewed" v="no"/>
    <tag k="tiger:separated" v="no"/>
    <tag k="tiger:source" v="tiger_import_dch_v0.6_20070812"/>
    <tag k="tiger:tlid" v="91151191:91151192"/>
  </way>
  <way id="38796196" version="5" timestamp="2011-06-16T08:26:55Z" uid="207745" user="NE2" changeset="8453773">
    <nd ref="460213425"/>
    <nd ref="460213423"/>
    <tag k="bridge" v="yes"/>
    <tag k="highway" v="primary"/>
    <tag k="lanes" v="2"/>
    <tag k="layer" v="1"/>
    <tag k="name" v="South 7th Street Tfwy"/>
    <tag k="old_ref" v="US 69"/>
    <tag k="oneway" v="yes"/>
    <tag k="ref" v="US 169"/>
    <tag k="tiger:cfcc" v="A21"/>
    <tag k="tiger:county" v="Wyandotte, KS"/>
    <tag k="tiger:name_base" v="7th Street"/>
    <tag k="tiger:name_direction_prefix" v="S"/>
    <tag k="tiger:name_type" v="Tfwy"/>
    <tag k="tiger:reviewed" v="no"/>
    <tag k="tiger:separated" v="no"/>
    <tag k="tiger:source" v="tiger_import_dch_v0.6_20070812"/>
    <tag k="tiger:tlid" v="91151191:91151192"/>
  </way>
  <way id="38796197" version="3" timestamp="2010-04-06T14:39:12Z" uid="20587" user="balrog-kun" changeset="4342997">
    <nd ref="460213423"/>
    <nd ref="123371765"/>
    <tag k="highway" v="primary"/>
    <tag k="name" v="South 7th Street Tfwy"/>
    <tag k="oneway" v="yes"/>
    <tag k="ref" v="US 169"/>
    <tag k="tiger:cfcc" v="A21"/>
    <tag k="tiger:county" v="Wyandotte, KS"/>
    <tag k="tiger:name_base" v="7th Street"/>
    <tag k="tiger:name_direction_prefix" v="S"/>
    <tag k="tiger:name_type" v="Tfwy"/>
    <tag k="tiger:reviewed" v="no"/>
    <tag k="tiger:separated" v="no"/>
    <tag k="tiger:source" v="tiger_import_dch_v0.6_20070812"/>
    <tag k="tiger:tlid" v="91151191:91151192"/>
  </way>
  <way id="38796197" version="4" timestamp="2011-02-07T20:30:57Z" uid="28378" user="PHerison" changeset="7220535">
    <nd ref="460213423"/>
    <nd ref="123336626"/>
    <tag k="highway" v="primary"/>
    <tag k="name" v="South 7th Street Tfwy"/>
    <tag k="oneway" v="yes"/>
    <tag k="ref" v="US 169"/>
    <tag k="tiger:cfcc" v="A21"/>
    <tag k="tiger:county" v="Wyandotte, KS"/>
    <tag k="tiger:name_base" v="7th Street"/>
    <tag k="tiger:name_direction_prefix" v="S"/>
    <tag k="tiger:name_type" v="Tfwy"/>
    <tag k="tiger:reviewed" v="no"/>
    <tag k="tiger:separated" v="no"/>
    <tag k="tiger:source" v="tiger_import_dch_v0.6_20070812"/>
    <tag k="tiger:tlid" v="91151191:91151192"/>
  </way>
  <way id="38796197" version="5" timestamp="2011-02-18T19:58:48Z" uid="207745" user="NE2" changeset="7325732">
    <nd ref="460213423"/>
    <nd ref="123336626"/>
    <tag k="highway" v="primary"/>
    <tag k="name" v="South 7th Street Tfwy"/>
    <tag k="old_ref" v="US 69"/>
    <tag k="oneway" v="yes"/>
    <tag k="ref" v="US 169"/>
    <tag k="tiger:cfcc" v="A21"/>
    <tag k="tiger:county" v="Wyandotte, KS"/>
    <tag k="tiger:name_base" v="7th Street"/>
    <tag k="tiger:name_direction_prefix" v="S"/>
    <tag k="tiger:name_type" v="Tfwy"/>
    <tag k="tiger:reviewed" v="no"/>
    <tag k="tiger:separated" v="no"/>
    <tag k="tiger:source" v="tiger_import_dch_v0.6_20070812"/>
    <tag k="tiger:tlid" v="91151191:91151192"/>
  </way>
  <way id="38796197" version="6" timestamp="2011-06-16T08:22:44Z" uid="207745" user="NE2" changeset="8453773">
    <nd ref="460213423"/>
    <nd ref="123336626"/>
    <tag k="highway" v="primary"/>
    <tag k="lanes" v="2"/>
    <tag k="name" v="South 7th Street Tfwy"/>
    <tag k="old_ref" v="US 69"/>
    <tag k="oneway" v="yes"/>
    <tag k="ref" v="US 169"/>
    <tag k="tiger:cfcc" v="A21"/>
    <tag k="tiger:county" v="Wyandotte, KS"/>
    <tag k="tiger:name_base" v="7th Street"/>
    <tag k="tiger:name_direction_prefix" v="S"/>
    <tag k="tiger:name_type" v="Tfwy"/>
    <tag k="tiger:reviewed" v="no"/>
    <tag k="tiger:separated" v="no"/>
    <tag k="tiger:source" v="tiger_import_dch_v0.6_20070812"/>
    <tag k="tiger:tlid" v="91151191:91151192"/>
  </way>
  <way id="38796223" version="4" timestamp="2010-03-28T11:02:44Z" uid="20587" user="balrog-kun" changeset="4254597">
    <nd ref="460221431"/>
    <nd ref="538608770"/>
    <nd ref="538608769"/>
    <nd ref="460221444"/>
    <nd ref="538608768"/>
    <nd ref="460221464"/>
    <nd ref="538608767"/>
    <nd ref="460221482"/>
    <nd ref="538608766"/>
    <nd ref="460221495"/>
    <nd ref="538608750"/>
    <nd ref="460221508"/>
    <nd ref="538608749"/>
    <nd ref="123253124"/>
    <nd ref="538608748"/>
    <nd ref="538608747"/>
    <nd ref="538608746"/>
    <nd ref="123253121"/>
    <nd ref="538608745"/>
    <nd ref="123253118"/>
    <nd ref="123253115"/>
    <nd ref="123253112"/>
    <nd ref="123253100"/>
    <nd ref="538608744"/>
    <nd ref="123253097"/>
    <nd ref="123253089"/>
    <nd ref="538608743"/>
    <nd ref="538608742"/>
    <nd ref="123253087"/>
    <nd ref="123253085"/>
    <nd ref="538608765"/>
    <nd ref="123253083"/>
    <nd ref="538608764"/>
    <nd ref="123253081"/>
    <nd ref="538608763"/>
    <nd ref="123253079"/>
    <nd ref="538608762"/>
    <nd ref="123253076"/>
    <nd ref="538608760"/>
    <nd ref="538608759"/>
    <nd ref="538608761"/>
    <nd ref="123253073"/>
    <nd ref="538608758"/>
    <nd ref="123253070"/>
    <nd ref="123253067"/>
    <nd ref="538608757"/>
    <nd ref="538608756"/>
    <nd ref="123253064"/>
    <nd ref="538608755"/>
    <nd ref="123253061"/>
    <nd ref="538608754"/>
    <nd ref="538608753"/>
    <nd ref="123253048"/>
    <nd ref="538608752"/>
    <nd ref="538603743"/>
    <nd ref="538608751"/>
    <nd ref="123253045"/>
    <nd ref="538603741"/>
    <nd ref="538603739"/>
    <nd ref="538603736"/>
    <nd ref="538603738"/>
    <nd ref="352787067"/>
    <tag k="highway" v="tertiary"/>
    <tag k="name" v="Shoemaker Canyon Road"/>
    <tag k="tiger:cfcc" v="A41"/>
    <tag k="tiger:county" v="Los Angeles, CA"/>
    <tag k="tiger:name_base" v="Shoemaker Canyon"/>
    <tag k="tiger:name_type" v="Rd"/>
    <tag k="tiger:separated" v="no"/>
    <tag k="tiger:source" v="tiger_import_dch_v0.6_20070809"/>
    <tag k="tiger:tlid" v="141707593"/>
  </way>
  <way id="38796263" version="1" timestamp="2009-08-10T02:45:54Z" uid="4467" user="Rosscoe" changeset="2092429">
    <nd ref="273199566"/>
    <nd ref="273199568"/>
    <nd ref="273199570"/>
    <nd ref="273199572"/>
    <nd ref="271885757"/>
    <tag k="highway" v="primary_link"/>
    <tag k="oneway" v="yes"/>
  </way>
  <way id="38796264" version="1" timestamp="2009-08-10T02:45:54Z" uid="4467" user="Rosscoe" changeset="2092429">
    <nd ref="460223374"/>
    <nd ref="460223377"/>
    <nd ref="460223380"/>
    <nd ref="460223381"/>
    <nd ref="271896215"/>
    <tag k="highway" v="primary_link"/>
    <tag k="oneway" v="yes"/>
  </way>
  <way id="38796265" version="1" timestamp="2009-08-10T02:45:54Z" uid="4467" user="Rosscoe" changeset="2092429">
    <nd ref="273199375"/>
    <nd ref="460223384"/>
    <nd ref="460223387"/>
    <nd ref="460223389"/>
    <nd ref="460223392"/>
    <tag k="highway" v="primary_link"/>
    <tag k="oneway" v="yes"/>
  </way>
  <way id="38796266" version="1" timestamp="2009-08-10T02:45:55Z" uid="4467" user="Rosscoe" changeset="2092429">
    <nd ref="273199464"/>
    <nd ref="460223395"/>
    <nd ref="460223398"/>
    <nd ref="460223400"/>
    <nd ref="460223403"/>
    <tag k="highway" v="primary_link"/>
    <tag k="oneway" v="yes"/>
  </way>
</osm>
