<?xml version='1.0' encoding='UTF-8'?>
<osm version="0.6" generator="libosmium/2.20.0">
  <way id="38798942" version="1" timestamp="2009-08-10T03:39:42Z" uid="4467" user="Rosscoe" changeset="2092588">
    <nd ref="460268922"/>
    <nd ref="31770187"/>
    <nd ref="49628894"/>
    <nd ref="143309392"/>
    <nd ref="33464963"/>
    <nd ref="143288088"/>
    <nd ref="143291787"/>
    <nd ref="51135926"/>
    <nd ref="49628897"/>
    <nd ref="49628899"/>
    <tag k="highway" v="residential"/>
    <tag k="name" v="Burdett Street"/>
  </way>
  <way id="38798942" version="2" timestamp="2009-10-04T10:44:26Z" uid="9477" user="NilbogAus" changeset="2734582">
    <nd ref="460268922"/>
    <nd ref="31770187"/>
    <tag k="highway" v="residential"/>
    <tag k="name" v="Burdett Street"/>
  </way>
  <way id="38798942" version="3" timestamp="2010-07-08T00:03:51Z" uid="74617" user="JohnSmith" changeset="5162525">
    <nd ref="460268922"/>
    <nd ref="31770187"/>
    <tag k="highway" v="residential"/>
    <tag k="maxspeed" v="50"/>
    <tag k="maxspeed:source" v="default residential speed limit in Australia"/>
    <tag k="name" v="Burdett Street"/>
  </way>
  <way id="38798942" version="4" timestamp="2010-07-08T00:14:11Z" uid="74617" user="JohnSmith" changeset="5162525">
    <nd ref="460268922"/>
    <nd ref="31770187"/>
    <tag k="highway" v="residential"/>
    <tag k="maxspeed" v="50"/>
    <tag k="maxspeed:source" v="default residential speed limit in Australia"/>
    <tag k="name" v="Burdett Street"/>
  </way>
  <way id="38798943" version="1" timestamp="2009-08-10T03:39:43Z" uid="4467" user="Rosscoe" changeset="2092588">
    <nd ref="460268926"/>
    <nd ref="150988010"/>
    <nd ref="460268938"/>
    <tag k="abutters" v="residential"/>
    <tag k="highway" v="residential"/>
    <tag k="is_in" v="Hornsby, NSW, New South Wales, Australia"/>
    <tag k="name" v="Muriel Street"/>
    <tag k="source" v="survey"/>
  </way>
  <way id="38798943" version="2" timestamp="2010-01-25T08:13:42Z" uid="30201" user="rrankin" changeset="3708756">
    <nd ref="460268926"/>
    <nd ref="150988010"/>
    <nd ref="460268938"/>
    <tag k="highway" v="residential"/>
    <tag k="is_in" v="Hornsby, NSW, New South Wales, Australia"/>
    <tag k="name" v="Muriel Street"/>
    <tag k="source" v="survey"/>
  </way>
  <way id="38798943" version="3" timestamp="2010-07-08T00:05:02Z" uid="74617" user="JohnSmith" changeset="5162525">
    <nd ref="460268926"/>
    <nd ref="150988010"/>
    <nd ref="460268938"/>
    <tag k="highway" v="residential"/>
    <tag k="maxspeed" v="50"/>
    <tag k="maxspeed:source" v="default residential speed limit in Australia"/>
    <tag k="name" v="Muriel Street"/>
    <tag k="source" v="survey"/>
  </way>
  <way id="38798943" version="4" timestamp="2010-07-08T00:15:58Z" uid="74617" user="JohnSmith" changeset="5162525">
    <nd ref="460268926"/>
    <nd ref="150988010"/>
    <nd ref="460268938"/>
    <tag k="highway" v="residential"/>
    <tag k="maxspeed" v="50"/>
    <tag k="maxspeed:source" v="default residential speed limit in Australia"/>
    <tag k="name" v="Muriel Street"/>
    <tag k="source" v="survey"/>
  </way>
  <way id="38798944" version="1" timestamp="2009-08-10T03:39:43Z" uid="4467" user="Rosscoe" changeset="2092588">
    <nd ref="460268927"/>
    <nd ref="460268929"/>
    <nd ref="460268924"/>
    <nd ref="460268930"/>
    <nd ref="460268922"/>
    <nd ref="460268932"/>
    <nd ref="460268926"/>
    <nd ref="460268933"/>
    <nd ref="460268927"/>
    <tag k="highway" v="residential"/>
    <tag k="junction" v="roundabout"/>
    <tag k="name" v="Burdett Street"/>
  </way>
  <way id="38798944" version="2" timestamp="2010-07-08T00:01:14Z" uid="74617" user="JohnSmith" changeset="5162525">
    <nd ref="460268927"/>
    <nd ref="460268929"/>
    <nd ref="460268924"/>
    <nd ref="460268930"/>
    <nd ref="460268922"/>
    <nd ref="460268932"/>
    <nd ref="460268926"/>
    <nd ref="460268933"/>
    <nd ref="460268927"/>
    <tag k="highway" v="residential"/>
    <tag k="junction" v="roundabout"/>
    <tag k="maxspeed" v="50"/>
    <tag k="maxspeed:source" v="default residential speed limit in Australia"/>
    <tag k="name" v="Burdett Street"/>
  </way>
  <way id="38798944" version="3" timestamp="2010-07-08T00:11:20Z" uid="74617" user="JohnSmith" changeset="5162525">
    <nd ref="460268927"/>
    <nd ref="460268929"/>
    <nd ref="460268924"/>
    <nd ref="460268930"/>
    <nd ref="460268922"/>
    <nd ref="460268932"/>
    <nd ref="460268926"/>
    <nd ref="460268933"/>
    <nd ref="460268927"/>
    <tag k="highway" v="residential"/>
    <tag k="junction" v="roundabout"/>
    <tag k="maxspeed" v="50"/>
    <tag k="maxspeed:source" v="default residential speed limit in Australia"/>
    <tag k="name" v="Burdett Street"/>
  </way>
  <way id="38798945" version="1" timestamp="2009-08-10T03:39:43Z" uid="4467" user="Rosscoe" changeset="2092588">
    <nd ref="460268940"/>
    <nd ref="31770194"/>
    <tag k="abutters" v="residential"/>
    <tag k="highway" v="residential"/>
    <tag k="is_in" v="Hornsby, NSW, New South Wales, Australia"/>
    <tag k="name" v="Muriel Street"/>
    <tag k="source" v="survey"/>
  </way>
  <way id="38798945" version="2" timestamp="2009-10-04T10:44:31Z" uid="9477" user="NilbogAus" changeset="2734582">
    <nd ref="460268940"/>
    <nd ref="519885675"/>
    <tag k="abutters" v="residential"/>
    <tag k="highway" v="residential"/>
    <tag k="is_in" v="Hornsby, NSW, New South Wales, Australia"/>
    <tag k="name" v="Muriel Street"/>
    <tag k="source" v="survey"/>
  </way>
  <way id="38798945" version="3" timestamp="2010-01-25T08:13:43Z" uid="30201" user="rrankin" changeset="3708756">
    <nd ref="460268940"/>
    <nd ref="519885675"/>
    <tag k="highway" v="residential"/>
    <tag k="is_in" v="Hornsby, NSW, New South Wales, Australia"/>
    <tag k="name" v="Muriel Street"/>
    <tag k="source" v="survey"/>
  </way>
  <way id="38798945" version="4" timestamp="2010-07-08T00:02:22Z" uid="74617" user="JohnSmith" changeset="5162525">
    <nd ref="460268940"/>
    <nd ref="519885675"/>
    <tag k="highway" v="residential"/>
    <tag k="maxspeed" v="50"/>
    <tag k="maxspeed:source" v="default residential speed limit in Australia"/>
    <tag k="name" v="Muriel Street"/>
    <tag k="source" v="survey"/>
  </way>
  <way id="38798945" version="5" timestamp="2010-07-08T00:12:35Z" uid="74617" user="JohnSmith" changeset="5162525">
    <nd ref="460268940"/>
    <nd ref="519885675"/>
    <tag k="highway" v="residential"/>
    <tag k="maxspeed" v="50"/>
    <tag k="maxspeed:source" v="default residential speed limit in Australia"/>
    <tag k="name" v="Muriel Street"/>
    <tag k="source" v="survey"/>
  </way>
  <way id="38798946" version="1" timestamp="2009-08-10T03:39:43Z" uid="4467" user="Rosscoe" changeset="2092588">
    <nd ref="460268935"/>
    <nd ref="31770201"/>
    <tag k="highway" v="residential"/>
    <tag k="is_in" v="Hornsby, NSW, New South Wales, Australia"/>
    <tag k="name" v="Florence Street"/>
    <tag k="source" v="survey"/>
  </way>
  <way id="38798946" version="2" timestamp="2009-10-04T10:44:31Z" uid="9477" user="NilbogAus" changeset="2734582">
    <nd ref="460268935"/>
    <nd ref="519885671"/>
    <tag k="highway" v="residential"/>
    <tag k="is_in" v="Hornsby, NSW, New South Wales, Australia"/>
    <tag k="name" v="Florence Street"/>
    <tag k="source" v="survey"/>
  </way>
  <way id="38798946" version="3" timestamp="2010-07-08T00:04:17Z" uid="74617" user="JohnSmith" changeset="5162525">
    <nd ref="460268935"/>
    <nd ref="519885671"/>
    <tag k="highway" v="residential"/>
    <tag k="maxspeed" v="50"/>
    <tag k="maxspeed:source" v="default residential speed limit in Australia"/>
    <tag k="name" v="Florence Street"/>
    <tag k="source" v="survey"/>
  </way>
  <way id="38798946" version="4" timestamp="2010-07-08T00:14:49Z" uid="74617" user="JohnSmith" changeset="5162525">
    <nd ref="460268935"/>
    <nd ref="519885671"/>
    <tag k="highway" v="residential"/>
    <tag k="maxspeed" v="50"/>
    <tag k="maxspeed:source" v="default residential speed limit in Australia"/>
    <tag k="name" v="Florence Street"/>
    <tag k="source" v="survey"/>
  </way>
  <way id="38798947" version="1" timestamp="2009-08-10T03:39:43Z" uid="4467" user="Rosscoe" changeset="2092588">
    <nd ref="460268937"/>
    <nd ref="460268941"/>
    <nd ref="460268938"/>
    <nd ref="460268943"/>
    <nd ref="460268935"/>
    <nd ref="460268944"/>
    <nd ref="460268940"/>
    <nd ref="460268947"/>
    <nd ref="460268937"/>
    <tag k="highway" v="residential"/>
    <tag k="is_in" v="Hornsby, NSW, New South Wales, Australia"/>
    <tag k="junction" v="roundabout"/>
    <tag k="name" v="Florence Street"/>
    <tag k="source" v="survey"/>
  </way>
  <way id="38798947" version="2" timestamp="2010-07-07T23:59:56Z" uid="74617" user="JohnSmith" changeset="5162525">
    <nd ref="460268937"/>
    <nd ref="460268941"/>
    <nd ref="460268938"/>
    <nd ref="460268943"/>
    <nd ref="460268935"/>
    <nd ref="460268944"/>
    <nd ref="460268940"/>
    <nd ref="460268947"/>
    <nd ref="460268937"/>
    <tag k="highway" v="residential"/>
    <tag k="junction" v="roundabout"/>
    <tag k="maxspeed" v="50"/>
    <tag k="maxspeed:source" v="default residential speed limit in Australia"/>
    <tag k="name" v="Florence Street"/>
    <tag k="source" v="survey"/>
  </way>
  <way id="38798947" version="3" timestamp="2010-07-08T00:09:53Z" uid="74617" user="JohnSmith" changeset="5162525">
    <nd ref="460268937"/>
    <nd ref="460268941"/>
    <nd ref="460268938"/>
    <nd ref="460268943"/>
    <nd ref="460268935"/>
    <nd ref="460268944"/>
    <nd ref="460268940"/>
    <nd ref="460268947"/>
    <nd ref="460268937"/>
    <tag k="highway" v="residential"/>
    <tag k="junction" v="roundabout"/>
    <tag k="maxspeed" v="50"/>
    <tag k="maxspeed:source" v="default residential speed limit in Australia"/>
    <tag k="name" v="Florence Street"/>
    <tag k="source" v="survey"/>
  </way>
  <way id="38798948" version="1" timestamp="2009-08-10T03:39:43Z" uid="4467" user="Rosscoe" changeset="2092588">
    <nd ref="460268951"/>
    <nd ref="460268952"/>
    <nd ref="460268955"/>
    <nd ref="460268949"/>
    <nd ref="460268954"/>
    <nd ref="460268950"/>
    <nd ref="460268953"/>
    <nd ref="460268948"/>
    <nd ref="460268951"/>
    <tag k="highway" v="residential"/>
    <tag k="is_in" v="Hornsby, NSW, New South Wales, Australia"/>
    <tag k="junction" v="roundabout"/>
    <tag k="name" v="Linda Street"/>
    <tag k="source" v="survey"/>
  </way>
  <way id="38798948" version="2" timestamp="2010-07-08T00:00:17Z" uid="74617" user="JohnSmith" changeset="5162525">
    <nd ref="460268951"/>
    <nd ref="460268952"/>
    <nd ref="460268955"/>
    <nd ref="460268949"/>
    <nd ref="460268954"/>
    <nd ref="460268950"/>
    <nd ref="460268953"/>
    <nd ref="460268948"/>
    <nd ref="460268951"/>
    <tag k="highway" v="residential"/>
    <tag k="junction" v="roundabout"/>
    <tag k="maxspeed" v="50"/>
    <tag k="maxspeed:source" v="default residential speed limit in Australia"/>
    <tag k="name" v="Linda Street"/>
    <tag k="source" v="survey"/>
  </way>
  <way id="38798948" version="3" timestamp="2010-07-08T00:10:15Z" uid="74617" user="JohnSmith" changeset="5162525">
    <nd ref="460268951"/>
    <nd ref="460268952"/>
    <nd ref="460268955"/>
    <nd ref="460268949"/>
    <nd ref="460268954"/>
    <nd ref="460268950"/>
    <nd ref="460268953"/>
    <nd ref="460268948"/>
    <nd ref="460268951"/>
    <tag k="highway" v="residential"/>
    <tag k="junction" v="roundabout"/>
    <tag k="maxspeed" v="50"/>
    <tag k="maxspeed:source" v="default residential speed limit in Australia"/>
    <tag k="name" v="Linda Street"/>
    <tag k="source" v="survey"/>
  </way>
  <way id="38798949" version="1" timestamp="2009-08-10T03:39:43Z" uid="4467" user="Rosscoe" changeset="2092588">
    <nd ref="460268953"/>
    <nd ref="156406244"/>
    <nd ref="31023185"/>
    <tag k="highway" v="residential"/>
    <tag k="name" v="Hunter Street"/>
    <tag k="source" v="survey"/>
  </way>
  <way id="38798949" version="2" timestamp="2010-07-08T00:01:31Z" uid="74617" user="JohnSmith" changeset="5162525">
    <nd ref="460268953"/>
    <nd ref="156406244"/>
    <nd ref="31023185"/>
    <tag k="highway" v="residential"/>
    <tag k="maxspeed" v="50"/>
    <tag k="maxspeed:source" v="default residential speed limit in Australia"/>
    <tag k="name" v="Hunter Street"/>
    <tag k="source" v="survey"/>
  </way>
  <way id="38798949" version="3" timestamp="2010-07-08T00:11:39Z" uid="74617" user="JohnSmith" changeset="5162525">
    <nd ref="460268953"/>
    <nd ref="156406244"/>
    <nd ref="31023185"/>
    <tag k="highway" v="residential"/>
    <tag k="maxspeed" v="50"/>
    <tag k="maxspeed:source" v="default residential speed limit in Australia"/>
    <tag k="name" v="Hunter Street"/>
    <tag k="source" v="survey"/>
  </way>
  <way id="38798950" version="1" timestamp="2009-08-10T03:39:43Z" uid="4467" user="Rosscoe" changeset="2092588">
    <nd ref="460268951"/>
    <nd ref="32885796"/>
    <nd ref="26391691"/>
    <tag k="highway" v="residential"/>
    <tag k="is_in" v="Australia, NSW, New South Wales, Sydney, Hornsby"/>
    <tag k="name" v="Linda Street"/>
    <tag k="source" v="survey"/>
  </way>
  <way id="38798950" version="2" timestamp="2010-07-08T00:03:28Z" uid="74617" user="JohnSmith" changeset="5162525">
    <nd ref="460268951"/>
    <nd ref="32885796"/>
    <nd ref="26391691"/>
    <tag k="highway" v="residential"/>
    <tag k="maxspeed" v="50"/>
    <tag k="maxspeed:source" v="default residential speed limit in Australia"/>
    <tag k="name" v="Linda Street"/>
    <tag k="source" v="survey"/>
  </way>
  <way id="38798950" version="3" timestamp="2010-07-08T00:13:46Z" uid="74617" user="JohnSmith" changeset="5162525">
    <nd ref="460268951"/>
    <nd ref="32885796"/>
    <nd ref="26391691"/>
    <tag k="highway" v="residential"/>
    <tag k="maxspeed" v="50"/>
    <tag k="maxspeed:source" v="default residential speed limit in Australia"/>
    <tag k="name" v="Linda Street"/>
    <tag k="source" v="survey"/>
  </way>
  <way id="38798951" version="1" timestamp="2009-08-10T03:39:43Z" uid="4467" user="Rosscoe" changeset="2092588">
    <nd ref="460268962"/>
    <nd ref="460268963"/>
    <nd ref="460268968"/>
    <nd ref="460268959"/>
    <nd ref="460268966"/>
    <nd ref="460268960"/>
    <nd ref="460268965"/>
    <nd ref="460268957"/>
    <nd ref="460268962"/>
    <tag k="highway" v="residential"/>
    <tag k="is_in" v="Hornsby, NSW, New South Wales, Australia"/>
    <tag k="junction" v="roundabout"/>
    <tag k="name" v="Linda Street"/>
    <tag k="source" v="survey"/>
  </way>
  <way id="38798951" version="2" timestamp="2010-07-08T00:04:39Z" uid="74617" user="JohnSmith" changeset="5162525">
    <nd ref="460268962"/>
    <nd ref="460268963"/>
    <nd ref="460268968"/>
    <nd ref="460268959"/>
    <nd ref="460268966"/>
    <nd ref="460268960"/>
    <nd ref="460268965"/>
    <nd ref="460268957"/>
    <nd ref="460268962"/>
    <tag k="highway" v="residential"/>
    <tag k="junction" v="roundabout"/>
    <tag k="maxspeed" v="50"/>
    <tag k="maxspeed:source" v="default residential speed limit in Australia"/>
    <tag k="name" v="Linda Street"/>
    <tag k="source" v="survey"/>
  </way>
  <way id="38798951" version="3" timestamp="2010-07-08T00:15:19Z" uid="74617" user="JohnSmith" changeset="5162525">
    <nd ref="460268962"/>
    <nd ref="460268963"/>
    <nd ref="460268968"/>
    <nd ref="460268959"/>
    <nd ref="460268966"/>
    <nd ref="460268960"/>
    <nd ref="460268965"/>
    <nd ref="460268957"/>
    <nd ref="460268962"/>
    <tag k="highway" v="residential"/>
    <tag k="junction" v="roundabout"/>
    <tag k="maxspeed" v="50"/>
    <tag k="maxspeed:source" v="default residential speed limit in Australia"/>
    <tag k="name" v="Linda Street"/>
    <tag k="source" v="survey"/>
  </way>
  <way id="38798952" version="1" timestamp="2009-08-10T03:39:43Z" uid="4467" user="Rosscoe" changeset="2092588">
    <nd ref="460268962"/>
    <nd ref="136938119"/>
    <nd ref="460268954"/>
    <tag k="highway" v="residential"/>
    <tag k="is_in" v="Australia, NSW, New South Wales, Sydney, Hornsby"/>
    <tag k="name" v="Linda Street"/>
    <tag k="source" v="survey"/>
  </way>
  <way id="38798952" version="2" timestamp="2010-07-08T00:04:56Z" uid="74617" user="JohnSmith" changeset="5162525">
    <nd ref="460268962"/>
    <nd ref="136938119"/>
    <nd ref="460268954"/>
    <tag k="highway" v="residential"/>
    <tag k="maxspeed" v="50"/>
    <tag k="maxspeed:source" v="default residential speed limit in Australia"/>
    <tag k="name" v="Linda Street"/>
    <tag k="source" v="survey"/>
  </way>
  <way id="38798952" version="3" timestamp="2010-07-08T00:15:49Z" uid="74617" user="JohnSmith" changeset="5162525">
    <nd ref="460268962"/>
    <nd ref="136938119"/>
    <nd ref="460268954"/>
    <tag k="highway" v="residential"/>
    <tag k="maxspeed" v="50"/>
    <tag k="maxspeed:source" v="default residential speed limit in Australia"/>
    <tag k="name" v="Linda Street"/>
    <tag k="source" v="survey"/>
  </way>
  <way id="38798953" version="1" timestamp="2009-08-10T03:39:44Z" uid="4467" user="Rosscoe" changeset="2092588">
    <nd ref="460268965"/>
    <nd ref="26391720"/>
    <tag k="highway" v="residential"/>
    <tag k="name" v="Albert Street"/>
  </way>
  <way id="38798953" version="2" timestamp="2010-07-08T00:00:39Z" uid="74617" user="JohnSmith" changeset="5162525">
    <nd ref="460268965"/>
    <nd ref="26391720"/>
    <tag k="highway" v="residential"/>
    <tag k="maxspeed" v="50"/>
    <tag k="maxspeed:source" v="default residential speed limit in Australia"/>
    <tag k="name" v="Albert Street"/>
  </way>
  <way id="38798953" version="3" timestamp="2010-07-08T00:10:40Z" uid="74617" user="JohnSmith" changeset="5162525">
    <nd ref="460268965"/>
    <nd ref="26391720"/>
    <tag k="highway" v="residential"/>
    <tag k="maxspeed" v="50"/>
    <tag k="maxspeed:source" v="default residential speed limit in Australia"/>
    <tag k="name" v="Albert Street"/>
  </way>
  <way id="38798953" version="4" timestamp="2011-05-31T01:40:21Z" uid="9477" user="NilbogAus" changeset="8297841">
    <nd ref="460268965"/>
    <nd ref="26391720"/>
    <tag k="highway" v="residential"/>
    <tag k="maxspeed" v="50"/>
    <tag k="maxspeed:source" v="default residential speed limit in Australia"/>
    <tag k="name" v="Albert Street"/>
    <tag k="source" v="survey"/>
  </way>
  <way id="38798998" version="1" timestamp="2009-08-10T03:42:45Z" uid="4467" user="Rosscoe" changeset="2092594">
    <nd ref="460271687"/>
    <nd ref="460271688"/>
    <nd ref="460271690"/>
    <nd ref="460271692"/>
    <nd ref="460271693"/>
    <nd ref="460271695"/>
    <nd ref="460271696"/>
    <nd ref="460271698"/>
    <nd ref="460271687"/>
    <tag k="landuse" v="residential"/>
  </way>
  <way id="38798999" version="1" timestamp="2009-08-10T03:42:45Z" uid="4467" user="Rosscoe" changeset="2092594">
    <nd ref="460271699"/>
    <nd ref="460271701"/>
    <nd ref="460271702"/>
    <nd ref="460271704"/>
    <nd ref="460271705"/>
    <nd ref="460271707"/>
    <nd ref="460271708"/>
    <nd ref="460271699"/>
    <tag k="landuse" v="residential"/>
  </way>
  <way id="38798999" version="2" timestamp="2009-08-10T03:50:36Z" uid="4467" user="Rosscoe" changeset="2092607">
    <nd ref="460271699"/>
    <nd ref="460277372"/>
    <nd ref="460271701"/>
    <nd ref="460271702"/>
    <nd ref="460271704"/>
    <nd ref="460271705"/>
    <nd ref="460271707"/>
    <nd ref="460271708"/>
    <nd ref="460271699"/>
    <tag k="landuse" v="residential"/>
  </way>
  <way id="38798999" version="3" timestamp="2010-06-17T08:14:31Z" uid="9477" user="NilbogAus" changeset="5006851">
    <nd ref="460271699"/>
    <nd ref="460277372"/>
    <nd ref="460271701"/>
    <nd ref="460271702"/>
    <nd ref="774492796"/>
    <nd ref="774492801"/>
    <nd ref="774492800"/>
    <nd ref="774492794"/>
    <nd ref="774492797"/>
    <nd ref="774492799"/>
    <nd ref="460271704"/>
    <nd ref="460271705"/>
    <nd ref="460271707"/>
    <nd ref="460271708"/>
    <nd ref="460271699"/>
    <tag k="landuse" v="residential"/>
  </way>
</osm>
