<?xml version='1.0' encoding='UTF-8'?>
<osm version="0.6" generator="libosmium/2.20.0">
  <way id="38884145" version="2" timestamp="2010-03-28T11:03:11Z" uid="20587" user="balrog-kun" changeset="4254597">
    <nd ref="122793113"/>
    <nd ref="122793116"/>
    <tag k="created_by" v="Potlatch 0.10f"/>
    <tag k="highway" v="tertiary"/>
    <tag k="name" v="East Duarte Road"/>
    <tag k="tiger:cfcc" v="A41"/>
    <tag k="tiger:county" v="Los Angeles, CA"/>
    <tag k="tiger:name_base" v="Duarte"/>
    <tag k="tiger:name_direction_prefix" v="E"/>
    <tag k="tiger:name_type" v="Rd"/>
    <tag k="tiger:reviewed" v="no"/>
    <tag k="tiger:separated" v="no"/>
    <tag k="tiger:source" v="tiger_import_dch_v0.6_20070809"/>
    <tag k="tiger:tlid" v="142239191:142239192:141646808:141646731:141647370:141647374"/>
    <tag k="tiger:zip_left" v="91016"/>
    <tag k="tiger:zip_right" v="91016"/>
  </way>
  <way id="38884146" version="2" timestamp="2010-03-28T11:03:11Z" uid="20587" user="balrog-kun" changeset="4254597">
    <nd ref="461924219"/>
    <nd ref="122793113"/>
    <tag k="bridge" v="yes"/>
    <tag k="created_by" v="Potlatch 0.10f"/>
    <tag k="highway" v="tertiary"/>
    <tag k="name" v="East Duarte Road"/>
    <tag k="tiger:cfcc" v="A41"/>
    <tag k="tiger:county" v="Los Angeles, CA"/>
    <tag k="tiger:name_base" v="Duarte"/>
    <tag k="tiger:name_direction_prefix" v="E"/>
    <tag k="tiger:name_type" v="Rd"/>
    <tag k="tiger:reviewed" v="no"/>
    <tag k="tiger:separated" v="no"/>
    <tag k="tiger:source" v="tiger_import_dch_v0.6_20070809"/>
    <tag k="tiger:tlid" v="142239191:142239192:141646808:141646731:141647370:141647374"/>
    <tag k="tiger:zip_left" v="91016"/>
    <tag k="tiger:zip_right" v="91016"/>
  </way>
  <way id="38884146" version="3" timestamp="2010-11-22T04:53:33Z" uid="194231" user="Chris Bell in California" changeset="6428825">
    <nd ref="461924219"/>
    <nd ref="122793113"/>
    <tag k="bridge" v="yes"/>
    <tag k="highway" v="tertiary"/>
    <tag k="layer" v="1"/>
    <tag k="name" v="East Duarte Road"/>
    <tag k="tiger:cfcc" v="A41"/>
    <tag k="tiger:county" v="Los Angeles, CA"/>
    <tag k="tiger:name_base" v="Duarte"/>
    <tag k="tiger:name_direction_prefix" v="E"/>
    <tag k="tiger:name_type" v="Rd"/>
    <tag k="tiger:reviewed" v="no"/>
    <tag k="tiger:separated" v="no"/>
    <tag k="tiger:source" v="tiger_import_dch_v0.6_20070809"/>
    <tag k="tiger:tlid" v="142239191:142239192:141646808:141646731:141647370:141647374"/>
    <tag k="tiger:zip_left" v="91016"/>
    <tag k="tiger:zip_right" v="91016"/>
  </way>
  <way id="38884147" version="2" timestamp="2010-03-28T11:03:12Z" uid="20587" user="balrog-kun" changeset="4254597">
    <nd ref="122793110"/>
    <nd ref="123203589"/>
    <nd ref="123203592"/>
    <nd ref="123203597"/>
    <nd ref="123153646"/>
    <nd ref="123051587"/>
    <tag k="created_by" v="Potlatch 0.10f"/>
    <tag k="highway" v="residential"/>
    <tag k="name" v="Shamrock Avenue"/>
    <tag k="tiger:cfcc" v="A41"/>
    <tag k="tiger:county" v="Los Angeles, CA"/>
    <tag k="tiger:name_base" v="Shamrock"/>
    <tag k="tiger:name_type" v="Ave"/>
    <tag k="tiger:reviewed" v="no"/>
    <tag k="tiger:separated" v="no"/>
    <tag k="tiger:source" v="tiger_import_dch_v0.6_20070809"/>
    <tag k="tiger:tlid" v="141780209:141647398"/>
    <tag k="tiger:zip_left" v="91010"/>
    <tag k="tiger:zip_right" v="91010"/>
  </way>
  <way id="38884320" version="3" timestamp="2011-01-14T16:43:54Z" uid="115477" user="wowik" changeset="6968851">
    <nd ref="461926847"/>
    <nd ref="1103424838"/>
    <nd ref="1103423176"/>
    <nd ref="1103424152"/>
    <nd ref="1103423421"/>
    <nd ref="461926879"/>
    <nd ref="461927390"/>
    <nd ref="1103424206"/>
    <nd ref="1103424384"/>
    <nd ref="1103423159"/>
    <nd ref="1103423218"/>
    <nd ref="461927381"/>
    <nd ref="461926847"/>
    <tag k="addr:city" v="Зеленоград"/>
    <tag k="addr:housenumber" v="1006А"/>
    <tag k="addr:street" v="10-й Микрорайон"/>
    <tag k="building" v="yes"/>
    <tag k="is_in" v="Russia"/>
    <tag k="name" v="10-й ТЦ"/>
    <tag k="shop" v="mall"/>
  </way>
  <way id="38884320" version="4" timestamp="2011-01-25T17:30:06Z" uid="115477" user="wowik" changeset="7085695">
    <nd ref="461926847"/>
    <nd ref="1103424838"/>
    <nd ref="1103423176"/>
    <nd ref="1103424152"/>
    <nd ref="1103423421"/>
    <nd ref="461926879"/>
    <nd ref="1120079259"/>
    <nd ref="461927390"/>
    <nd ref="1103424206"/>
    <nd ref="1103424384"/>
    <nd ref="1103423159"/>
    <nd ref="1103423218"/>
    <nd ref="461927381"/>
    <nd ref="461926847"/>
    <tag k="addr:city" v="Зеленоград"/>
    <tag k="addr:housenumber" v="1006А"/>
    <tag k="addr:street" v="10-й Микрорайон"/>
    <tag k="building" v="yes"/>
    <tag k="is_in" v="Russia"/>
    <tag k="name" v="10-й ТЦ"/>
    <tag k="shop" v="mall"/>
  </way>
  <way id="38884320" version="5" timestamp="2011-06-07T20:46:39Z" uid="133332" user="AMDmi3" changeset="8374030">
    <nd ref="461926847"/>
    <nd ref="1103424838"/>
    <nd ref="1103423176"/>
    <nd ref="1103424152"/>
    <nd ref="1103423421"/>
    <nd ref="461926879"/>
    <nd ref="1120079259"/>
    <nd ref="461927390"/>
    <nd ref="1103424206"/>
    <nd ref="1103424384"/>
    <nd ref="1103423159"/>
    <nd ref="1103423218"/>
    <nd ref="461927381"/>
    <nd ref="461926847"/>
    <tag k="addr:city" v="Зеленоград"/>
    <tag k="addr:housenumber" v="1006А"/>
    <tag k="addr:street" v="10-й микрорайон"/>
    <tag k="building" v="yes"/>
    <tag k="is_in" v="Russia"/>
    <tag k="name" v="10-й ТЦ"/>
    <tag k="shop" v="mall"/>
  </way>
  <way id="38884320" version="6" timestamp="2011-09-13T10:32:14Z" uid="29320" user="Komяpa" changeset="9288237">
    <nd ref="461926847"/>
    <nd ref="1103424838"/>
    <nd ref="1103423176"/>
    <nd ref="1103424152"/>
    <nd ref="1103423421"/>
    <nd ref="461926879"/>
    <nd ref="1120079259"/>
    <nd ref="461927390"/>
    <nd ref="1103424206"/>
    <nd ref="1103424384"/>
    <nd ref="1103423159"/>
    <nd ref="1103423218"/>
    <nd ref="461927381"/>
    <nd ref="461926847"/>
    <tag k="addr:city" v="Зеленоград"/>
    <tag k="addr:country" v="RU"/>
    <tag k="addr:housenumber" v="1006А"/>
    <tag k="addr:street" v="10-й микрорайон"/>
    <tag k="building" v="yes"/>
    <tag k="name" v="10-й ТЦ"/>
    <tag k="shop" v="mall"/>
  </way>
  <way id="38884320" version="7" timestamp="2011-12-13T07:07:09Z" uid="126304" user="TarzanASG" changeset="10105192">
    <nd ref="461926847"/>
    <nd ref="1103424838"/>
    <nd ref="1103423176"/>
    <nd ref="1103424152"/>
    <nd ref="1103423421"/>
    <nd ref="461926879"/>
    <nd ref="1120079259"/>
    <nd ref="461927390"/>
    <nd ref="1103424206"/>
    <nd ref="1103424384"/>
    <nd ref="1103423159"/>
    <nd ref="1103423218"/>
    <nd ref="461927381"/>
    <nd ref="461926847"/>
    <tag k="addr:city" v="Зеленоград"/>
    <tag k="addr:country" v="RU"/>
    <tag k="addr:housenumber" v="1006А"/>
    <tag k="addr:street" v="10-й микрорайон"/>
    <tag k="building" v="retail"/>
    <tag k="name" v="10-й ТЦ"/>
    <tag k="shop" v="mall"/>
  </way>
  <way id="38884320" version="8" timestamp="2011-12-14T06:47:28Z" uid="143266" user="Sergey Astakhov" changeset="10113313">
    <nd ref="461926847"/>
    <nd ref="1103424838"/>
    <nd ref="1103423176"/>
    <nd ref="1103424152"/>
    <nd ref="1103423421"/>
    <nd ref="461926879"/>
    <nd ref="1120079259"/>
    <nd ref="461927390"/>
    <nd ref="1103424206"/>
    <nd ref="1103424384"/>
    <nd ref="1103423159"/>
    <nd ref="1103423218"/>
    <nd ref="461927381"/>
    <nd ref="461926847"/>
    <tag k="addr:city" v="Зеленоград"/>
    <tag k="addr:country" v="RU"/>
    <tag k="addr:housenumber" v="1006А"/>
    <tag k="addr:street" v="10-й микрорайон"/>
    <tag k="building" v="yes"/>
    <tag k="name" v="10-й ТЦ"/>
    <tag k="shop" v="mall"/>
  </way>
  <way id="38884320" version="9" timestamp="2012-03-27T11:56:32Z" uid="481934" user="iWowik" changeset="11115472">
    <nd ref="461926847"/>
    <nd ref="1103424838"/>
    <nd ref="1103423176"/>
    <nd ref="1103424152"/>
    <nd ref="1103423421"/>
    <nd ref="461926879"/>
    <nd ref="1120079259"/>
    <nd ref="461927390"/>
    <nd ref="1103424206"/>
    <nd ref="1103424384"/>
    <nd ref="1103423159"/>
    <nd ref="1103423218"/>
    <nd ref="461927381"/>
    <nd ref="461926847"/>
    <tag k="addr:city" v="Зеленоград"/>
    <tag k="addr:country" v="RU"/>
    <tag k="addr:housenumber" v="1006А"/>
    <tag k="addr:region" v="Москва"/>
    <tag k="addr:street" v="10-й микрорайон"/>
    <tag k="building" v="yes"/>
    <tag k="name" v="10-й ТЦ"/>
    <tag k="shop" v="mall"/>
  </way>
  <way id="38884321" version="5" timestamp="2011-01-14T16:44:35Z" uid="115477" user="wowik" changeset="6968851">
    <nd ref="461926934"/>
    <nd ref="1103422976"/>
    <nd ref="461926862"/>
    <nd ref="461926949"/>
    <nd ref="461927120"/>
    <nd ref="461927280"/>
    <nd ref="1103423143"/>
    <nd ref="461927277"/>
    <nd ref="461926890"/>
    <nd ref="461927352"/>
    <nd ref="461926934"/>
    <tag k="addr:city" v="Зеленоград"/>
    <tag k="addr:housenumber" v="1014"/>
    <tag k="addr:street" v="10-й Микрорайон"/>
    <tag k="building" v="yes"/>
    <tag k="building:levels" v="22"/>
    <tag k="is_in" v="Russia"/>
  </way>
  <way id="38884321" version="6" timestamp="2011-01-20T12:18:07Z" uid="115477" user="wowik" changeset="7029887">
    <nd ref="461926934"/>
    <nd ref="1103422976"/>
    <nd ref="1111543091"/>
    <nd ref="1111543092"/>
    <nd ref="1111543068"/>
    <nd ref="1111543094"/>
    <nd ref="1111543072"/>
    <nd ref="461926862"/>
    <nd ref="461926949"/>
    <nd ref="461927120"/>
    <nd ref="461927280"/>
    <nd ref="1103423143"/>
    <nd ref="1111543084"/>
    <nd ref="1111543077"/>
    <nd ref="1111543075"/>
    <nd ref="1111543073"/>
    <nd ref="1111543088"/>
    <nd ref="461927277"/>
    <nd ref="461926890"/>
    <nd ref="461927352"/>
    <nd ref="461926934"/>
    <tag k="addr:city" v="Зеленоград"/>
    <tag k="addr:housenumber" v="1014"/>
    <tag k="addr:street" v="10-й Микрорайон"/>
    <tag k="building" v="yes"/>
    <tag k="building:levels" v="22"/>
    <tag k="is_in" v="Russia"/>
  </way>
  <way id="38884321" version="7" timestamp="2011-06-07T20:46:39Z" uid="133332" user="AMDmi3" changeset="8374030">
    <nd ref="461926934"/>
    <nd ref="1103422976"/>
    <nd ref="1111543091"/>
    <nd ref="1111543092"/>
    <nd ref="1111543068"/>
    <nd ref="1111543094"/>
    <nd ref="1111543072"/>
    <nd ref="461926862"/>
    <nd ref="461926949"/>
    <nd ref="461927120"/>
    <nd ref="461927280"/>
    <nd ref="1103423143"/>
    <nd ref="1111543084"/>
    <nd ref="1111543077"/>
    <nd ref="1111543075"/>
    <nd ref="1111543073"/>
    <nd ref="1111543088"/>
    <nd ref="461927277"/>
    <nd ref="461926890"/>
    <nd ref="461927352"/>
    <nd ref="461926934"/>
    <tag k="addr:city" v="Зеленоград"/>
    <tag k="addr:housenumber" v="1014"/>
    <tag k="addr:street" v="10-й микрорайон"/>
    <tag k="building" v="yes"/>
    <tag k="building:levels" v="22"/>
    <tag k="is_in" v="Russia"/>
  </way>
  <way id="38884321" version="8" timestamp="2011-09-13T10:21:10Z" uid="29320" user="Komяpa" changeset="9288237">
    <nd ref="461926934"/>
    <nd ref="1103422976"/>
    <nd ref="1111543091"/>
    <nd ref="1111543092"/>
    <nd ref="1111543068"/>
    <nd ref="1111543094"/>
    <nd ref="1111543072"/>
    <nd ref="461926862"/>
    <nd ref="461926949"/>
    <nd ref="461927120"/>
    <nd ref="461927280"/>
    <nd ref="1103423143"/>
    <nd ref="1111543084"/>
    <nd ref="1111543077"/>
    <nd ref="1111543075"/>
    <nd ref="1111543073"/>
    <nd ref="1111543088"/>
    <nd ref="461927277"/>
    <nd ref="461926890"/>
    <nd ref="461927352"/>
    <nd ref="461926934"/>
    <tag k="addr:city" v="Зеленоград"/>
    <tag k="addr:country" v="RU"/>
    <tag k="addr:housenumber" v="1014"/>
    <tag k="addr:street" v="10-й микрорайон"/>
    <tag k="building" v="yes"/>
    <tag k="building:levels" v="22"/>
  </way>
  <way id="38884321" version="9" timestamp="2012-03-27T11:33:44Z" uid="481934" user="iWowik" changeset="11115472">
    <nd ref="461926934"/>
    <nd ref="1103422976"/>
    <nd ref="1111543091"/>
    <nd ref="1111543092"/>
    <nd ref="1111543068"/>
    <nd ref="1111543094"/>
    <nd ref="1111543072"/>
    <nd ref="461926862"/>
    <nd ref="461926949"/>
    <nd ref="461927120"/>
    <nd ref="461927280"/>
    <nd ref="1103423143"/>
    <nd ref="1111543084"/>
    <nd ref="1111543077"/>
    <nd ref="1111543075"/>
    <nd ref="1111543073"/>
    <nd ref="1111543088"/>
    <nd ref="461927277"/>
    <nd ref="461926890"/>
    <nd ref="461927352"/>
    <nd ref="461926934"/>
    <tag k="addr:city" v="Зеленоград"/>
    <tag k="addr:country" v="RU"/>
    <tag k="addr:housenumber" v="1014"/>
    <tag k="addr:region" v="Москва"/>
    <tag k="addr:street" v="10-й микрорайон"/>
    <tag k="building" v="yes"/>
    <tag k="building:levels" v="22"/>
  </way>
  <way id="38884322" version="3" timestamp="2010-11-11T06:10:22Z" uid="115477" user="wowik" changeset="6341308">
    <nd ref="461926779"/>
    <nd ref="461927159"/>
    <nd ref="461926989"/>
    <nd ref="461927349"/>
    <nd ref="461926943"/>
    <nd ref="461927060"/>
    <nd ref="461926854"/>
    <nd ref="461926904"/>
    <nd ref="461926941"/>
    <nd ref="461927074"/>
    <nd ref="461927033"/>
    <nd ref="461926947"/>
    <nd ref="461926779"/>
    <tag k="addr:city" v="Зеленоград"/>
    <tag k="addr:housenumber" v="1016"/>
    <tag k="addr:street" v="10-й Микрорайон"/>
    <tag k="amenity" v="school"/>
    <tag k="building" v="yes"/>
    <tag k="description" v="Учебно-воспитательный комплекс №1692, школа"/>
    <tag k="is_in" v="Russia"/>
    <tag k="name" v="Школа УВК №1692"/>
  </way>
  <way id="38884322" version="4" timestamp="2011-01-14T16:42:02Z" uid="115477" user="wowik" changeset="6968851">
    <nd ref="461927074"/>
    <nd ref="1103424424"/>
    <nd ref="1103423001"/>
    <nd ref="461927033"/>
    <nd ref="461926947"/>
    <nd ref="461926779"/>
    <nd ref="461927159"/>
    <nd ref="1103424212"/>
    <nd ref="1103423203"/>
    <nd ref="461926989"/>
    <nd ref="461927074"/>
    <tag k="addr:city" v="Зеленоград"/>
    <tag k="amenity" v="school"/>
    <tag k="building" v="yes"/>
    <tag k="building:levels" v="2"/>
    <tag k="is_in" v="Russia"/>
  </way>
  <way id="38884322" version="5" timestamp="2011-01-17T18:08:28Z" uid="115477" user="wowik" changeset="7002184">
    <nd ref="461927074"/>
    <nd ref="1103424424"/>
    <nd ref="1103423001"/>
    <nd ref="461927033"/>
    <nd ref="461926947"/>
    <nd ref="461926779"/>
    <nd ref="461927159"/>
    <nd ref="1103424212"/>
    <nd ref="1103423203"/>
    <nd ref="461926989"/>
    <nd ref="461927074"/>
    <tag k="addr:city" v="Зеленоград"/>
    <tag k="amenity" v="school"/>
    <tag k="building" v="yes"/>
    <tag k="building:levels" v="3"/>
    <tag k="is_in" v="Russia"/>
  </way>
  <way id="38884322" version="6" timestamp="2011-09-13T10:35:33Z" uid="29320" user="Komяpa" changeset="9288237">
    <nd ref="461927074"/>
    <nd ref="1103424424"/>
    <nd ref="1103423001"/>
    <nd ref="461927033"/>
    <nd ref="461926947"/>
    <nd ref="461926779"/>
    <nd ref="461927159"/>
    <nd ref="1103424212"/>
    <nd ref="1103423203"/>
    <nd ref="461926989"/>
    <nd ref="461927074"/>
    <tag k="addr:city" v="Зеленоград"/>
    <tag k="addr:country" v="RU"/>
    <tag k="amenity" v="school"/>
    <tag k="building" v="yes"/>
    <tag k="building:levels" v="3"/>
  </way>
  <way id="38884322" version="7" timestamp="2012-03-27T11:48:51Z" uid="481934" user="iWowik" changeset="11115472">
    <nd ref="461927074"/>
    <nd ref="1103424424"/>
    <nd ref="1103423001"/>
    <nd ref="461927033"/>
    <nd ref="461926947"/>
    <nd ref="461926779"/>
    <nd ref="461927159"/>
    <nd ref="1103424212"/>
    <nd ref="1103423203"/>
    <nd ref="461926989"/>
    <nd ref="461927074"/>
    <tag k="addr:city" v="Зеленоград"/>
    <tag k="addr:country" v="RU"/>
    <tag k="addr:region" v="Москва"/>
    <tag k="amenity" v="school"/>
    <tag k="building" v="yes"/>
    <tag k="building:levels" v="3"/>
  </way>
  <way id="38884323" version="3" timestamp="2011-01-21T19:49:02Z" uid="115477" user="wowik" changeset="7043826">
    <nd ref="461927003"/>
    <nd ref="461927138"/>
    <nd ref="461927010"/>
    <nd ref="461926953"/>
    <nd ref="461927003"/>
    <tag k="addr:city" v="Зеленоград"/>
    <tag k="addr:street" v="10-й Микрорайон"/>
    <tag k="building" v="yes"/>
    <tag k="building:levels" v="1"/>
    <tag k="is_in" v="Russia"/>
    <tag k="landuse" v="service"/>
  </way>
  <way id="38884323" version="4" timestamp="2011-06-07T20:46:41Z" uid="133332" user="AMDmi3" changeset="8374030">
    <nd ref="461927003"/>
    <nd ref="461927138"/>
    <nd ref="461927010"/>
    <nd ref="461926953"/>
    <nd ref="461927003"/>
    <tag k="addr:city" v="Зеленоград"/>
    <tag k="addr:street" v="10-й микрорайон"/>
    <tag k="building" v="yes"/>
    <tag k="building:levels" v="1"/>
    <tag k="is_in" v="Russia"/>
    <tag k="landuse" v="service"/>
  </way>
  <way id="38884323" version="5" timestamp="2011-09-13T10:35:33Z" uid="29320" user="Komяpa" changeset="9288237">
    <nd ref="461927003"/>
    <nd ref="461927138"/>
    <nd ref="461927010"/>
    <nd ref="461926953"/>
    <nd ref="461927003"/>
    <tag k="addr:city" v="Зеленоград"/>
    <tag k="addr:country" v="RU"/>
    <tag k="addr:street" v="10-й микрорайон"/>
    <tag k="building" v="service"/>
    <tag k="building:levels" v="1"/>
  </way>
  <way id="38884323" version="6" timestamp="2012-03-27T11:50:17Z" uid="481934" user="iWowik" changeset="11115472">
    <nd ref="461927003"/>
    <nd ref="461927138"/>
    <nd ref="461927010"/>
    <nd ref="461926953"/>
    <nd ref="461927003"/>
    <tag k="addr:city" v="Зеленоград"/>
    <tag k="addr:country" v="RU"/>
    <tag k="addr:region" v="Москва"/>
    <tag k="addr:street" v="10-й микрорайон"/>
    <tag k="building" v="service"/>
    <tag k="building:levels" v="1"/>
  </way>
  <way id="38884324" version="5" timestamp="2011-01-17T16:53:49Z" uid="115477" user="wowik" changeset="7001307">
    <nd ref="461926929"/>
    <nd ref="461926986"/>
    <nd ref="1107763680"/>
    <nd ref="461927192"/>
    <nd ref="461927218"/>
    <nd ref="461927286"/>
    <nd ref="461927308"/>
    <nd ref="1107763072"/>
    <nd ref="461927203"/>
    <nd ref="461926902"/>
    <nd ref="461926900"/>
    <nd ref="461926899"/>
    <nd ref="1107762782"/>
    <nd ref="461927007"/>
    <nd ref="461927124"/>
    <nd ref="461926845"/>
    <nd ref="461927393"/>
    <nd ref="1107763590"/>
    <nd ref="461926796"/>
    <nd ref="461927234"/>
    <nd ref="461926929"/>
    <tag k="addr:city" v="Зеленоград"/>
    <tag k="addr:housenumber" v="1005"/>
    <tag k="addr:street" v="10-й Микрорайон"/>
    <tag k="building" v="yes"/>
    <tag k="building:levels" v="22"/>
    <tag k="is_in" v="Russia"/>
  </way>
  <way id="38884324" version="6" timestamp="2011-01-20T12:16:23Z" uid="115477" user="wowik" changeset="7029863">
    <nd ref="461926929"/>
    <nd ref="461926986"/>
    <nd ref="1111541241"/>
    <nd ref="1111541214"/>
    <nd ref="1111541195"/>
    <nd ref="1111541168"/>
    <nd ref="1111541179"/>
    <nd ref="1107763680"/>
    <nd ref="461927192"/>
    <nd ref="461927218"/>
    <nd ref="461927286"/>
    <nd ref="461927308"/>
    <nd ref="1111541229"/>
    <nd ref="1111541177"/>
    <nd ref="1111541200"/>
    <nd ref="1111541207"/>
    <nd ref="1111541232"/>
    <nd ref="1107763072"/>
    <nd ref="461927203"/>
    <nd ref="461926902"/>
    <nd ref="461926900"/>
    <nd ref="461926899"/>
    <nd ref="1111541223"/>
    <nd ref="1111541175"/>
    <nd ref="1111541199"/>
    <nd ref="1111541159"/>
    <nd ref="1111541148"/>
    <nd ref="1107762782"/>
    <nd ref="461927007"/>
    <nd ref="461927124"/>
    <nd ref="461926845"/>
    <nd ref="461927393"/>
    <nd ref="1111541271"/>
    <nd ref="1111541235"/>
    <nd ref="1111541121"/>
    <nd ref="1111541257"/>
    <nd ref="1111541141"/>
    <nd ref="1107763590"/>
    <nd ref="461926796"/>
    <nd ref="461927234"/>
    <nd ref="461926929"/>
    <tag k="addr:city" v="Зеленоград"/>
    <tag k="addr:housenumber" v="1005"/>
    <tag k="addr:street" v="10-й Микрорайон"/>
    <tag k="building" v="yes"/>
    <tag k="building:levels" v="22"/>
    <tag k="is_in" v="Russia"/>
  </way>
  <way id="38884324" version="7" timestamp="2011-06-07T20:46:42Z" uid="133332" user="AMDmi3" changeset="8374030">
    <nd ref="461926929"/>
    <nd ref="461926986"/>
    <nd ref="1111541241"/>
    <nd ref="1111541214"/>
    <nd ref="1111541195"/>
    <nd ref="1111541168"/>
    <nd ref="1111541179"/>
    <nd ref="1107763680"/>
    <nd ref="461927192"/>
    <nd ref="461927218"/>
    <nd ref="461927286"/>
    <nd ref="461927308"/>
    <nd ref="1111541229"/>
    <nd ref="1111541177"/>
    <nd ref="1111541200"/>
    <nd ref="1111541207"/>
    <nd ref="1111541232"/>
    <nd ref="1107763072"/>
    <nd ref="461927203"/>
    <nd ref="461926902"/>
    <nd ref="461926900"/>
    <nd ref="461926899"/>
    <nd ref="1111541223"/>
    <nd ref="1111541175"/>
    <nd ref="1111541199"/>
    <nd ref="1111541159"/>
    <nd ref="1111541148"/>
    <nd ref="1107762782"/>
    <nd ref="461927007"/>
    <nd ref="461927124"/>
    <nd ref="461926845"/>
    <nd ref="461927393"/>
    <nd ref="1111541271"/>
    <nd ref="1111541235"/>
    <nd ref="1111541121"/>
    <nd ref="1111541257"/>
    <nd ref="1111541141"/>
    <nd ref="1107763590"/>
    <nd ref="461926796"/>
    <nd ref="461927234"/>
    <nd ref="461926929"/>
    <tag k="addr:city" v="Зеленоград"/>
    <tag k="addr:housenumber" v="1005"/>
    <tag k="addr:street" v="10-й микрорайон"/>
    <tag k="building" v="yes"/>
    <tag k="building:levels" v="22"/>
    <tag k="is_in" v="Russia"/>
  </way>
  <way id="38884324" version="8" timestamp="2011-09-13T10:21:04Z" uid="29320" user="Komяpa" changeset="9288237">
    <nd ref="461926929"/>
    <nd ref="461926986"/>
    <nd ref="1111541241"/>
    <nd ref="1111541214"/>
    <nd ref="1111541195"/>
    <nd ref="1111541168"/>
    <nd ref="1111541179"/>
    <nd ref="1107763680"/>
    <nd ref="461927192"/>
    <nd ref="461927218"/>
    <nd ref="461927286"/>
    <nd ref="461927308"/>
    <nd ref="1111541229"/>
    <nd ref="1111541177"/>
    <nd ref="1111541200"/>
    <nd ref="1111541207"/>
    <nd ref="1111541232"/>
    <nd ref="1107763072"/>
    <nd ref="461927203"/>
    <nd ref="461926902"/>
    <nd ref="461926900"/>
    <nd ref="461926899"/>
    <nd ref="1111541223"/>
    <nd ref="1111541175"/>
    <nd ref="1111541199"/>
    <nd ref="1111541159"/>
    <nd ref="1111541148"/>
    <nd ref="1107762782"/>
    <nd ref="461927007"/>
    <nd ref="461927124"/>
    <nd ref="461926845"/>
    <nd ref="461927393"/>
    <nd ref="1111541271"/>
    <nd ref="1111541235"/>
    <nd ref="1111541121"/>
    <nd ref="1111541257"/>
    <nd ref="1111541141"/>
    <nd ref="1107763590"/>
    <nd ref="461926796"/>
    <nd ref="461927234"/>
    <nd ref="461926929"/>
    <tag k="addr:city" v="Зеленоград"/>
    <tag k="addr:country" v="RU"/>
    <tag k="addr:housenumber" v="1005"/>
    <tag k="addr:street" v="10-й микрорайон"/>
    <tag k="building" v="yes"/>
    <tag k="building:levels" v="22"/>
  </way>
  <way id="38884324" version="9" timestamp="2012-03-27T11:33:34Z" uid="481934" user="iWowik" changeset="11115472">
    <nd ref="461926929"/>
    <nd ref="461926986"/>
    <nd ref="1111541241"/>
    <nd ref="1111541214"/>
    <nd ref="1111541195"/>
    <nd ref="1111541168"/>
    <nd ref="1111541179"/>
    <nd ref="1107763680"/>
    <nd ref="461927192"/>
    <nd ref="461927218"/>
    <nd ref="461927286"/>
    <nd ref="461927308"/>
    <nd ref="1111541229"/>
    <nd ref="1111541177"/>
    <nd ref="1111541200"/>
    <nd ref="1111541207"/>
    <nd ref="1111541232"/>
    <nd ref="1107763072"/>
    <nd ref="461927203"/>
    <nd ref="461926902"/>
    <nd ref="461926900"/>
    <nd ref="461926899"/>
    <nd ref="1111541223"/>
    <nd ref="1111541175"/>
    <nd ref="1111541199"/>
    <nd ref="1111541159"/>
    <nd ref="1111541148"/>
    <nd ref="1107762782"/>
    <nd ref="461927007"/>
    <nd ref="461927124"/>
    <nd ref="461926845"/>
    <nd ref="461927393"/>
    <nd ref="1111541271"/>
    <nd ref="1111541235"/>
    <nd ref="1111541121"/>
    <nd ref="1111541257"/>
    <nd ref="1111541141"/>
    <nd ref="1107763590"/>
    <nd ref="461926796"/>
    <nd ref="461927234"/>
    <nd ref="461926929"/>
    <tag k="addr:city" v="Зеленоград"/>
    <tag k="addr:country" v="RU"/>
    <tag k="addr:housenumber" v="1005"/>
    <tag k="addr:region" v="Москва"/>
    <tag k="addr:street" v="10-й микрорайон"/>
    <tag k="building" v="yes"/>
    <tag k="building:levels" v="22"/>
  </way>
  <way id="38884325" version="5" timestamp="2011-01-14T16:41:48Z" uid="115477" user="wowik" changeset="6968851">
    <nd ref="461927024"/>
    <nd ref="1103423383"/>
    <nd ref="461927254"/>
    <nd ref="461926991"/>
    <nd ref="461926959"/>
    <nd ref="461926886"/>
    <nd ref="1103423676"/>
    <nd ref="461926962"/>
    <nd ref="461926945"/>
    <nd ref="461926790"/>
    <nd ref="461927024"/>
    <tag k="addr:city" v="Зеленоград"/>
    <tag k="addr:housenumber" v="1001"/>
    <tag k="addr:street" v="10-й Микрорайон"/>
    <tag k="building" v="yes"/>
    <tag k="building:levels" v="22"/>
    <tag k="is_in" v="Russia"/>
  </way>
  <way id="38884325" version="6" timestamp="2011-06-07T20:46:43Z" uid="133332" user="AMDmi3" changeset="8374030">
    <nd ref="461927024"/>
    <nd ref="1103423383"/>
    <nd ref="461927254"/>
    <nd ref="461926991"/>
    <nd ref="461926959"/>
    <nd ref="461926886"/>
    <nd ref="1103423676"/>
    <nd ref="461926962"/>
    <nd ref="461926945"/>
    <nd ref="461926790"/>
    <nd ref="461927024"/>
    <tag k="addr:city" v="Зеленоград"/>
    <tag k="addr:housenumber" v="1001"/>
    <tag k="addr:street" v="10-й микрорайон"/>
    <tag k="building" v="yes"/>
    <tag k="building:levels" v="22"/>
    <tag k="is_in" v="Russia"/>
  </way>
  <way id="38884325" version="7" timestamp="2011-09-13T10:21:01Z" uid="29320" user="Komяpa" changeset="9288237">
    <nd ref="461927024"/>
    <nd ref="1103423383"/>
    <nd ref="461927254"/>
    <nd ref="461926991"/>
    <nd ref="461926959"/>
    <nd ref="461926886"/>
    <nd ref="1103423676"/>
    <nd ref="461926962"/>
    <nd ref="461926945"/>
    <nd ref="461926790"/>
    <nd ref="461927024"/>
    <tag k="addr:city" v="Зеленоград"/>
    <tag k="addr:country" v="RU"/>
    <tag k="addr:housenumber" v="1001"/>
    <tag k="addr:street" v="10-й микрорайон"/>
    <tag k="building" v="yes"/>
    <tag k="building:levels" v="22"/>
  </way>
  <way id="38884325" version="8" timestamp="2011-11-16T08:05:19Z" uid="481934" user="iWowik" changeset="9841495">
    <nd ref="461927024"/>
    <nd ref="1103423383"/>
    <nd ref="1504840871"/>
    <nd ref="1504840867"/>
    <nd ref="1504840869"/>
    <nd ref="1504840857"/>
    <nd ref="1504840865"/>
    <nd ref="461927254"/>
    <nd ref="461926991"/>
    <nd ref="461926959"/>
    <nd ref="461926886"/>
    <nd ref="1103423676"/>
    <nd ref="1504840873"/>
    <nd ref="1504840876"/>
    <nd ref="1504840875"/>
    <nd ref="1504840883"/>
    <nd ref="1504840881"/>
    <nd ref="461926962"/>
    <nd ref="461926945"/>
    <nd ref="461926790"/>
    <nd ref="461927024"/>
    <tag k="addr:city" v="Зеленоград"/>
    <tag k="addr:country" v="RU"/>
    <tag k="addr:housenumber" v="1001"/>
    <tag k="addr:street" v="10-й микрорайон"/>
    <tag k="building" v="yes"/>
    <tag k="building:levels" v="22"/>
  </way>
  <way id="38884325" version="9" timestamp="2012-03-27T11:33:30Z" uid="481934" user="iWowik" changeset="11115472">
    <nd ref="461927024"/>
    <nd ref="1103423383"/>
    <nd ref="1504840871"/>
    <nd ref="1504840867"/>
    <nd ref="1504840869"/>
    <nd ref="1504840857"/>
    <nd ref="1504840865"/>
    <nd ref="461927254"/>
    <nd ref="461926991"/>
    <nd ref="461926959"/>
    <nd ref="461926886"/>
    <nd ref="1103423676"/>
    <nd ref="1504840873"/>
    <nd ref="1504840876"/>
    <nd ref="1504840875"/>
    <nd ref="1504840883"/>
    <nd ref="1504840881"/>
    <nd ref="461926962"/>
    <nd ref="461926945"/>
    <nd ref="461926790"/>
    <nd ref="461927024"/>
    <tag k="addr:city" v="Зеленоград"/>
    <tag k="addr:country" v="RU"/>
    <tag k="addr:housenumber" v="1001"/>
    <tag k="addr:region" v="Москва"/>
    <tag k="addr:street" v="10-й микрорайон"/>
    <tag k="building" v="yes"/>
    <tag k="building:levels" v="22"/>
  </way>
  <way id="38884327" version="5" timestamp="2011-01-14T16:43:13Z" uid="115477" user="wowik" changeset="6968851">
    <nd ref="461926974"/>
    <nd ref="461927171"/>
    <nd ref="1103423007"/>
    <nd ref="461926800"/>
    <nd ref="461927353"/>
    <nd ref="461926781"/>
    <nd ref="461927282"/>
    <nd ref="1103424220"/>
    <nd ref="461927244"/>
    <nd ref="461926972"/>
    <nd ref="461926994"/>
    <nd ref="461926850"/>
    <nd ref="1103423134"/>
    <nd ref="461926826"/>
    <nd ref="461927295"/>
    <nd ref="461926967"/>
    <nd ref="461927131"/>
    <nd ref="1103423672"/>
    <nd ref="461926979"/>
    <nd ref="461927250"/>
    <nd ref="461926974"/>
    <tag k="addr:city" v="Зеленоград"/>
    <tag k="addr:housenumber" v="1015"/>
    <tag k="addr:street" v="10-й Микрорайон"/>
    <tag k="building" v="yes"/>
    <tag k="building:levels" v="22"/>
    <tag k="is_in" v="Russia"/>
  </way>
  <way id="38884327" version="6" timestamp="2011-01-20T12:16:28Z" uid="115477" user="wowik" changeset="7029863">
    <nd ref="461926974"/>
    <nd ref="461927171"/>
    <nd ref="1111541170"/>
    <nd ref="1111541181"/>
    <nd ref="1111541196"/>
    <nd ref="1103423007"/>
    <nd ref="1111541248"/>
    <nd ref="1111541220"/>
    <nd ref="461926800"/>
    <nd ref="461927353"/>
    <nd ref="461926781"/>
    <nd ref="461927282"/>
    <nd ref="1111541139"/>
    <nd ref="1111541144"/>
    <nd ref="1111541130"/>
    <nd ref="1111541265"/>
    <nd ref="1111541233"/>
    <nd ref="1103424220"/>
    <nd ref="461927244"/>
    <nd ref="461926972"/>
    <nd ref="461926994"/>
    <nd ref="461926850"/>
    <nd ref="1111541156"/>
    <nd ref="1111541112"/>
    <nd ref="1111541138"/>
    <nd ref="1111541264"/>
    <nd ref="1111541128"/>
    <nd ref="1103423134"/>
    <nd ref="461926826"/>
    <nd ref="461927295"/>
    <nd ref="461926967"/>
    <nd ref="461927131"/>
    <nd ref="1111541221"/>
    <nd ref="1111541209"/>
    <nd ref="1111541197"/>
    <nd ref="1111541182"/>
    <nd ref="1111541157"/>
    <nd ref="1103423672"/>
    <nd ref="461926979"/>
    <nd ref="461927250"/>
    <nd ref="461926974"/>
    <tag k="addr:city" v="Зеленоград"/>
    <tag k="addr:housenumber" v="1015"/>
    <tag k="addr:street" v="10-й Микрорайон"/>
    <tag k="building" v="yes"/>
    <tag k="building:levels" v="22"/>
    <tag k="is_in" v="Russia"/>
  </way>
  <way id="38884327" version="7" timestamp="2011-06-07T20:46:44Z" uid="133332" user="AMDmi3" changeset="8374030">
    <nd ref="461926974"/>
    <nd ref="461927171"/>
    <nd ref="1111541170"/>
    <nd ref="1111541181"/>
    <nd ref="1111541196"/>
    <nd ref="1103423007"/>
    <nd ref="1111541248"/>
    <nd ref="1111541220"/>
    <nd ref="461926800"/>
    <nd ref="461927353"/>
    <nd ref="461926781"/>
    <nd ref="461927282"/>
    <nd ref="1111541139"/>
    <nd ref="1111541144"/>
    <nd ref="1111541130"/>
    <nd ref="1111541265"/>
    <nd ref="1111541233"/>
    <nd ref="1103424220"/>
    <nd ref="461927244"/>
    <nd ref="461926972"/>
    <nd ref="461926994"/>
    <nd ref="461926850"/>
    <nd ref="1111541156"/>
    <nd ref="1111541112"/>
    <nd ref="1111541138"/>
    <nd ref="1111541264"/>
    <nd ref="1111541128"/>
    <nd ref="1103423134"/>
    <nd ref="461926826"/>
    <nd ref="461927295"/>
    <nd ref="461926967"/>
    <nd ref="461927131"/>
    <nd ref="1111541221"/>
    <nd ref="1111541209"/>
    <nd ref="1111541197"/>
    <nd ref="1111541182"/>
    <nd ref="1111541157"/>
    <nd ref="1103423672"/>
    <nd ref="461926979"/>
    <nd ref="461927250"/>
    <nd ref="461926974"/>
    <tag k="addr:city" v="Зеленоград"/>
    <tag k="addr:housenumber" v="1015"/>
    <tag k="addr:street" v="10-й микрорайон"/>
    <tag k="building" v="yes"/>
    <tag k="building:levels" v="22"/>
    <tag k="is_in" v="Russia"/>
  </way>
  <way id="38884327" version="8" timestamp="2011-09-13T10:21:11Z" uid="29320" user="Komяpa" changeset="9288237">
    <nd ref="461926974"/>
    <nd ref="461927171"/>
    <nd ref="1111541170"/>
    <nd ref="1111541181"/>
    <nd ref="1111541196"/>
    <nd ref="1103423007"/>
    <nd ref="1111541248"/>
    <nd ref="1111541220"/>
    <nd ref="461926800"/>
    <nd ref="461927353"/>
    <nd ref="461926781"/>
    <nd ref="461927282"/>
    <nd ref="1111541139"/>
    <nd ref="1111541144"/>
    <nd ref="1111541130"/>
    <nd ref="1111541265"/>
    <nd ref="1111541233"/>
    <nd ref="1103424220"/>
    <nd ref="461927244"/>
    <nd ref="461926972"/>
    <nd ref="461926994"/>
    <nd ref="461926850"/>
    <nd ref="1111541156"/>
    <nd ref="1111541112"/>
    <nd ref="1111541138"/>
    <nd ref="1111541264"/>
    <nd ref="1111541128"/>
    <nd ref="1103423134"/>
    <nd ref="461926826"/>
    <nd ref="461927295"/>
    <nd ref="461926967"/>
    <nd ref="461927131"/>
    <nd ref="1111541221"/>
    <nd ref="1111541209"/>
    <nd ref="1111541197"/>
    <nd ref="1111541182"/>
    <nd ref="1111541157"/>
    <nd ref="1103423672"/>
    <nd ref="461926979"/>
    <nd ref="461927250"/>
    <nd ref="461926974"/>
    <tag k="addr:city" v="Зеленоград"/>
    <tag k="addr:country" v="RU"/>
    <tag k="addr:housenumber" v="1015"/>
    <tag k="addr:street" v="10-й микрорайон"/>
    <tag k="building" v="yes"/>
    <tag k="building:levels" v="22"/>
  </way>
  <way id="38884327" version="9" timestamp="2012-03-27T11:33:44Z" uid="481934" user="iWowik" changeset="11115472">
    <nd ref="461926974"/>
    <nd ref="461927171"/>
    <nd ref="1111541170"/>
    <nd ref="1111541181"/>
    <nd ref="1111541196"/>
    <nd ref="1103423007"/>
    <nd ref="1111541248"/>
    <nd ref="1111541220"/>
    <nd ref="461926800"/>
    <nd ref="461927353"/>
    <nd ref="461926781"/>
    <nd ref="461927282"/>
    <nd ref="1111541139"/>
    <nd ref="1111541144"/>
    <nd ref="1111541130"/>
    <nd ref="1111541265"/>
    <nd ref="1111541233"/>
    <nd ref="1103424220"/>
    <nd ref="461927244"/>
    <nd ref="461926972"/>
    <nd ref="461926994"/>
    <nd ref="461926850"/>
    <nd ref="1111541156"/>
    <nd ref="1111541112"/>
    <nd ref="1111541138"/>
    <nd ref="1111541264"/>
    <nd ref="1111541128"/>
    <nd ref="1103423134"/>
    <nd ref="461926826"/>
    <nd ref="461927295"/>
    <nd ref="461926967"/>
    <nd ref="461927131"/>
    <nd ref="1111541221"/>
    <nd ref="1111541209"/>
    <nd ref="1111541197"/>
    <nd ref="1111541182"/>
    <nd ref="1111541157"/>
    <nd ref="1103423672"/>
    <nd ref="461926979"/>
    <nd ref="461927250"/>
    <nd ref="461926974"/>
    <tag k="addr:city" v="Зеленоград"/>
    <tag k="addr:country" v="RU"/>
    <tag k="addr:housenumber" v="1015"/>
    <tag k="addr:region" v="Москва"/>
    <tag k="addr:street" v="10-й микрорайон"/>
    <tag k="building" v="yes"/>
    <tag k="building:levels" v="22"/>
  </way>
  <way id="38884328" version="4" timestamp="2010-11-13T11:20:57Z" uid="115477" user="wowik" changeset="6356871">
    <nd ref="461927044"/>
    <nd ref="461926840"/>
    <nd ref="461926821"/>
    <nd ref="461927216"/>
    <nd ref="461927221"/>
    <nd ref="461926969"/>
    <nd ref="461927019"/>
    <nd ref="461926809"/>
    <nd ref="461926893"/>
    <nd ref="461927228"/>
    <nd ref="461926852"/>
    <nd ref="461926870"/>
    <nd ref="461927321"/>
    <nd ref="461927051"/>
    <nd ref="461927054"/>
    <nd ref="461927334"/>
    <nd ref="461927044"/>
    <tag k="addr:city" v="Зеленоград"/>
    <tag k="addr:housenumber" v="1004А"/>
    <tag k="addr:street" v="10-й Микрорайон"/>
    <tag k="amenity" v="kindergarten"/>
    <tag k="building" v="yes"/>
    <tag k="description" v="Учебно-воспитательный комплекс №1853, детский сад"/>
    <tag k="is_in" v="Russia"/>
    <tag k="name" v="детский сад УВК №1853"/>
  </way>
  <way id="38884328" version="5" timestamp="2011-01-14T16:42:54Z" uid="115477" user="wowik" changeset="6968851">
    <nd ref="461927044"/>
    <nd ref="461926840"/>
    <nd ref="461926821"/>
    <nd ref="461927216"/>
    <nd ref="461927221"/>
    <nd ref="461926969"/>
    <nd ref="461927019"/>
    <nd ref="461926809"/>
    <nd ref="461926893"/>
    <nd ref="461927228"/>
    <nd ref="461926852"/>
    <nd ref="461926870"/>
    <nd ref="461927321"/>
    <nd ref="1103424837"/>
    <nd ref="1103424055"/>
    <nd ref="461927051"/>
    <nd ref="1103423420"/>
    <nd ref="1103422995"/>
    <nd ref="461927054"/>
    <nd ref="461927334"/>
    <nd ref="461927044"/>
    <tag k="addr:city" v="Зеленоград"/>
    <tag k="addr:housenumber" v="1004А"/>
    <tag k="addr:street" v="10-й Микрорайон"/>
    <tag k="amenity" v="kindergarten"/>
    <tag k="building" v="yes"/>
    <tag k="description" v="Учебно-воспитательный комплекс №1853, детский сад"/>
    <tag k="is_in" v="Russia"/>
    <tag k="name" v="детский сад УВК №1853"/>
  </way>
  <way id="38884328" version="6" timestamp="2011-06-07T20:46:45Z" uid="133332" user="AMDmi3" changeset="8374030">
    <nd ref="461927044"/>
    <nd ref="461926840"/>
    <nd ref="461926821"/>
    <nd ref="461927216"/>
    <nd ref="461927221"/>
    <nd ref="461926969"/>
    <nd ref="461927019"/>
    <nd ref="461926809"/>
    <nd ref="461926893"/>
    <nd ref="461927228"/>
    <nd ref="461926852"/>
    <nd ref="461926870"/>
    <nd ref="461927321"/>
    <nd ref="1103424837"/>
    <nd ref="1103424055"/>
    <nd ref="461927051"/>
    <nd ref="1103423420"/>
    <nd ref="1103422995"/>
    <nd ref="461927054"/>
    <nd ref="461927334"/>
    <nd ref="461927044"/>
    <tag k="addr:city" v="Зеленоград"/>
    <tag k="addr:housenumber" v="1004А"/>
    <tag k="addr:street" v="10-й микрорайон"/>
    <tag k="amenity" v="kindergarten"/>
    <tag k="building" v="yes"/>
    <tag k="description" v="Учебно-воспитательный комплекс №1853, детский сад"/>
    <tag k="is_in" v="Russia"/>
    <tag k="name" v="детский сад УВК №1853"/>
  </way>
  <way id="38884328" version="7" timestamp="2011-09-13T10:32:02Z" uid="29320" user="Komяpa" changeset="9288237">
    <nd ref="461927044"/>
    <nd ref="461926840"/>
    <nd ref="461926821"/>
    <nd ref="461927216"/>
    <nd ref="461927221"/>
    <nd ref="461926969"/>
    <nd ref="461927019"/>
    <nd ref="461926809"/>
    <nd ref="461926893"/>
    <nd ref="461927228"/>
    <nd ref="461926852"/>
    <nd ref="461926870"/>
    <nd ref="461927321"/>
    <nd ref="1103424837"/>
    <nd ref="1103424055"/>
    <nd ref="461927051"/>
    <nd ref="1103423420"/>
    <nd ref="1103422995"/>
    <nd ref="461927054"/>
    <nd ref="461927334"/>
    <nd ref="461927044"/>
    <tag k="addr:city" v="Зеленоград"/>
    <tag k="addr:country" v="RU"/>
    <tag k="addr:housenumber" v="1004А"/>
    <tag k="addr:street" v="10-й микрорайон"/>
    <tag k="amenity" v="kindergarten"/>
    <tag k="building" v="yes"/>
    <tag k="description" v="Учебно-воспитательный комплекс №1853, детский сад"/>
    <tag k="name" v="детский сад УВК №1853"/>
  </way>
  <way id="38884328" version="8" timestamp="2012-03-27T11:48:39Z" uid="481934" user="iWowik" changeset="11115472">
    <nd ref="461927044"/>
    <nd ref="461926840"/>
    <nd ref="461926821"/>
    <nd ref="461927216"/>
    <nd ref="461927221"/>
    <nd ref="461926969"/>
    <nd ref="461927019"/>
    <nd ref="461926809"/>
    <nd ref="461926893"/>
    <nd ref="461927228"/>
    <nd ref="461926852"/>
    <nd ref="461926870"/>
    <nd ref="461927321"/>
    <nd ref="1103424837"/>
    <nd ref="1103424055"/>
    <nd ref="461927051"/>
    <nd ref="1103423420"/>
    <nd ref="1103422995"/>
    <nd ref="461927054"/>
    <nd ref="461927334"/>
    <nd ref="461927044"/>
    <tag k="addr:city" v="Зеленоград"/>
    <tag k="addr:country" v="RU"/>
    <tag k="addr:housenumber" v="1004А"/>
    <tag k="addr:region" v="Москва"/>
    <tag k="addr:street" v="10-й микрорайон"/>
    <tag k="amenity" v="kindergarten"/>
    <tag k="building" v="yes"/>
    <tag k="description" v="Учебно-воспитательный комплекс №1853, детский сад"/>
    <tag k="name" v="детский сад УВК №1853"/>
  </way>
  <way id="38884329" version="5" timestamp="2010-11-11T06:08:19Z" uid="115477" user="wowik" changeset="6341308">
    <nd ref="461926983"/>
    <nd ref="461927144"/>
    <nd ref="461927072"/>
    <nd ref="461927206"/>
    <nd ref="461926983"/>
    <tag k="addr:city" v="Зеленоград"/>
    <tag k="addr:housenumber" v="11В"/>
    <tag k="addr:street" v="10-й Микрорайон"/>
    <tag k="building" v="yes"/>
    <tag k="building:levels" v="5"/>
    <tag k="cladr:code" v="77000002000109000"/>
    <tag k="is_in" v="Russia"/>
  </way>
  <way id="38884329" version="6" timestamp="2010-11-25T10:14:41Z" uid="115477" user="wowik" changeset="6453331">
    <nd ref="461926983"/>
    <nd ref="461927144"/>
    <nd ref="461927072"/>
    <nd ref="461927206"/>
    <nd ref="461926983"/>
    <tag k="addr:city" v="Зеленоград"/>
    <tag k="addr:housenumber" v="11В"/>
    <tag k="addr:street" v="улица Гоголя"/>
    <tag k="building" v="yes"/>
    <tag k="building:levels" v="5"/>
    <tag k="cladr:code" v="77000002000109000"/>
    <tag k="is_in" v="Russia"/>
  </way>
  <way id="38884329" version="7" timestamp="2011-09-13T10:21:47Z" uid="29320" user="Komяpa" changeset="9288237">
    <nd ref="461926983"/>
    <nd ref="461927144"/>
    <nd ref="461927072"/>
    <nd ref="461927206"/>
    <nd ref="461926983"/>
    <tag k="addr:city" v="Зеленоград"/>
    <tag k="addr:country" v="RU"/>
    <tag k="addr:housenumber" v="11В"/>
    <tag k="addr:street" v="улица Гоголя"/>
    <tag k="building" v="yes"/>
    <tag k="building:levels" v="5"/>
    <tag k="cladr:code" v="77000002000109000"/>
  </way>
  <way id="38884329" version="8" timestamp="2012-03-27T11:34:42Z" uid="481934" user="iWowik" changeset="11115472">
    <nd ref="461926983"/>
    <nd ref="461927144"/>
    <nd ref="461927072"/>
    <nd ref="461927206"/>
    <nd ref="461926983"/>
    <tag k="addr:city" v="Зеленоград"/>
    <tag k="addr:country" v="RU"/>
    <tag k="addr:housenumber" v="11В"/>
    <tag k="addr:region" v="Москва"/>
    <tag k="addr:street" v="улица Гоголя"/>
    <tag k="building" v="yes"/>
    <tag k="building:levels" v="5"/>
    <tag k="cladr:code" v="77000002000109000"/>
  </way>
  <way id="38884331" version="3" timestamp="2010-11-11T06:09:59Z" uid="115477" user="wowik" changeset="6341308">
    <nd ref="461926802"/>
    <nd ref="461926936"/>
    <nd ref="461927332"/>
    <nd ref="461926833"/>
    <nd ref="461927043"/>
    <nd ref="461927179"/>
    <nd ref="461927047"/>
    <nd ref="461927327"/>
    <nd ref="461927026"/>
    <nd ref="461926993"/>
    <nd ref="461926940"/>
    <nd ref="461926938"/>
    <nd ref="461927291"/>
    <nd ref="461927080"/>
    <nd ref="461927274"/>
    <nd ref="461926831"/>
    <nd ref="461926802"/>
    <tag k="addr:city" v="Зеленоград"/>
    <tag k="addr:housenumber" v="1014А"/>
    <tag k="addr:street" v="10-й Микрорайон"/>
    <tag k="amenity" v="kindergarten"/>
    <tag k="building" v="yes"/>
    <tag k="description" v="Учебно-воспитательный комплекс №1692, детский сад"/>
    <tag k="is_in" v="Russia"/>
    <tag k="name" v="Д/с УВК №1692"/>
  </way>
  <way id="38884331" version="4" timestamp="2011-01-14T16:45:05Z" uid="115477" user="wowik" changeset="6968851">
    <nd ref="461926802"/>
    <nd ref="461926936"/>
    <nd ref="461927332"/>
    <nd ref="461926833"/>
    <nd ref="461927043"/>
    <nd ref="461927179"/>
    <nd ref="461927047"/>
    <nd ref="461927327"/>
    <nd ref="461927026"/>
    <nd ref="461926993"/>
    <nd ref="461926940"/>
    <nd ref="461926938"/>
    <nd ref="461927291"/>
    <nd ref="1103424750"/>
    <nd ref="1103424166"/>
    <nd ref="1103423467"/>
    <nd ref="1103423781"/>
    <nd ref="461927080"/>
    <nd ref="461927274"/>
    <nd ref="461926831"/>
    <nd ref="461926802"/>
    <tag k="addr:city" v="Зеленоград"/>
    <tag k="addr:housenumber" v="1014А"/>
    <tag k="addr:street" v="10-й Микрорайон"/>
    <tag k="amenity" v="kindergarten"/>
    <tag k="building" v="yes"/>
    <tag k="description" v="Учебно-воспитательный комплекс №1692, детский сад"/>
    <tag k="is_in" v="Russia"/>
    <tag k="name" v="Д/с УВК №1692"/>
  </way>
  <way id="38884331" version="5" timestamp="2011-06-07T20:46:47Z" uid="133332" user="AMDmi3" changeset="8374030">
    <nd ref="461926802"/>
    <nd ref="461926936"/>
    <nd ref="461927332"/>
    <nd ref="461926833"/>
    <nd ref="461927043"/>
    <nd ref="461927179"/>
    <nd ref="461927047"/>
    <nd ref="461927327"/>
    <nd ref="461927026"/>
    <nd ref="461926993"/>
    <nd ref="461926940"/>
    <nd ref="461926938"/>
    <nd ref="461927291"/>
    <nd ref="1103424750"/>
    <nd ref="1103424166"/>
    <nd ref="1103423467"/>
    <nd ref="1103423781"/>
    <nd ref="461927080"/>
    <nd ref="461927274"/>
    <nd ref="461926831"/>
    <nd ref="461926802"/>
    <tag k="addr:city" v="Зеленоград"/>
    <tag k="addr:housenumber" v="1014А"/>
    <tag k="addr:street" v="10-й микрорайон"/>
    <tag k="amenity" v="kindergarten"/>
    <tag k="building" v="yes"/>
    <tag k="description" v="Учебно-воспитательный комплекс №1692, детский сад"/>
    <tag k="is_in" v="Russia"/>
    <tag k="name" v="Д/с УВК №1692"/>
  </way>
  <way id="38884331" version="6" timestamp="2011-09-13T10:29:55Z" uid="29320" user="Komяpa" changeset="9288237">
    <nd ref="461926802"/>
    <nd ref="461926936"/>
    <nd ref="461927332"/>
    <nd ref="461926833"/>
    <nd ref="461927043"/>
    <nd ref="461927179"/>
    <nd ref="461927047"/>
    <nd ref="461927327"/>
    <nd ref="461927026"/>
    <nd ref="461926993"/>
    <nd ref="461926940"/>
    <nd ref="461926938"/>
    <nd ref="461927291"/>
    <nd ref="1103424750"/>
    <nd ref="1103424166"/>
    <nd ref="1103423467"/>
    <nd ref="1103423781"/>
    <nd ref="461927080"/>
    <nd ref="461927274"/>
    <nd ref="461926831"/>
    <nd ref="461926802"/>
    <tag k="addr:city" v="Зеленоград"/>
    <tag k="addr:country" v="RU"/>
    <tag k="addr:housenumber" v="1014А"/>
    <tag k="addr:street" v="10-й микрорайон"/>
    <tag k="amenity" v="kindergarten"/>
    <tag k="building" v="yes"/>
    <tag k="description" v="Учебно-воспитательный комплекс №1692, детский сад"/>
    <tag k="name" v="Д/с УВК №1692"/>
  </way>
  <way id="38884331" version="7" timestamp="2012-03-27T11:31:53Z" uid="481934" user="iWowik" changeset="11115472">
    <nd ref="461926802"/>
    <nd ref="461926936"/>
    <nd ref="461927332"/>
    <nd ref="461926833"/>
    <nd ref="461927043"/>
    <nd ref="461927179"/>
    <nd ref="461927047"/>
    <nd ref="461927327"/>
    <nd ref="461927026"/>
    <nd ref="461926993"/>
    <nd ref="461926940"/>
    <nd ref="461926938"/>
    <nd ref="461927291"/>
    <nd ref="1103424750"/>
    <nd ref="1103424166"/>
    <nd ref="1103423467"/>
    <nd ref="1103423781"/>
    <nd ref="461927080"/>
    <nd ref="461927274"/>
    <nd ref="461926831"/>
    <nd ref="461926802"/>
    <tag k="addr:city" v="Зеленоград"/>
    <tag k="addr:country" v="RU"/>
    <tag k="addr:housenumber" v="1014А"/>
    <tag k="addr:region" v="Москва"/>
    <tag k="addr:street" v="10-й микрорайон"/>
    <tag k="amenity" v="kindergarten"/>
    <tag k="building" v="yes"/>
    <tag k="description" v="Учебно-воспитательный комплекс №1692, детский сад"/>
    <tag k="name" v="Д/с УВК №1692"/>
  </way>
  <way id="38884332" version="5" timestamp="2011-01-14T16:43:26Z" uid="115477" user="wowik" changeset="6968851">
    <nd ref="461926970"/>
    <nd ref="1103423487"/>
    <nd ref="461927319"/>
    <nd ref="461926859"/>
    <nd ref="461926787"/>
    <nd ref="461927238"/>
    <nd ref="1103424191"/>
    <nd ref="461926844"/>
    <nd ref="461927311"/>
    <nd ref="461927330"/>
    <nd ref="461926970"/>
    <tag k="addr:city" v="Зеленоград"/>
    <tag k="addr:housenumber" v="1002"/>
    <tag k="addr:street" v="10-й Микрорайон"/>
    <tag k="building" v="yes"/>
    <tag k="building:levels" v="22"/>
    <tag k="is_in" v="Russia"/>
  </way>
  <way id="38884332" version="6" timestamp="2011-01-20T12:18:06Z" uid="115477" user="wowik" changeset="7029887">
    <nd ref="461926970"/>
    <nd ref="1103423487"/>
    <nd ref="1111543093"/>
    <nd ref="1111543089"/>
    <nd ref="1111543096"/>
    <nd ref="1111543097"/>
    <nd ref="1111543070"/>
    <nd ref="461927319"/>
    <nd ref="461926859"/>
    <nd ref="461926787"/>
    <nd ref="461927238"/>
    <nd ref="1103424191"/>
    <nd ref="1111543086"/>
    <nd ref="1111543082"/>
    <nd ref="1111543074"/>
    <nd ref="1111543071"/>
    <nd ref="1111543085"/>
    <nd ref="461926844"/>
    <nd ref="461927311"/>
    <nd ref="461927330"/>
    <nd ref="461926970"/>
    <tag k="addr:city" v="Зеленоград"/>
    <tag k="addr:housenumber" v="1002"/>
    <tag k="addr:street" v="10-й Микрорайон"/>
    <tag k="building" v="yes"/>
    <tag k="building:levels" v="22"/>
    <tag k="is_in" v="Russia"/>
  </way>
  <way id="38884332" version="7" timestamp="2011-06-07T20:46:47Z" uid="133332" user="AMDmi3" changeset="8374030">
    <nd ref="461926970"/>
    <nd ref="1103423487"/>
    <nd ref="1111543093"/>
    <nd ref="1111543089"/>
    <nd ref="1111543096"/>
    <nd ref="1111543097"/>
    <nd ref="1111543070"/>
    <nd ref="461927319"/>
    <nd ref="461926859"/>
    <nd ref="461926787"/>
    <nd ref="461927238"/>
    <nd ref="1103424191"/>
    <nd ref="1111543086"/>
    <nd ref="1111543082"/>
    <nd ref="1111543074"/>
    <nd ref="1111543071"/>
    <nd ref="1111543085"/>
    <nd ref="461926844"/>
    <nd ref="461927311"/>
    <nd ref="461927330"/>
    <nd ref="461926970"/>
    <tag k="addr:city" v="Зеленоград"/>
    <tag k="addr:housenumber" v="1002"/>
    <tag k="addr:street" v="10-й микрорайон"/>
    <tag k="building" v="yes"/>
    <tag k="building:levels" v="22"/>
    <tag k="is_in" v="Russia"/>
  </way>
  <way id="38884332" version="8" timestamp="2011-09-13T10:21:02Z" uid="29320" user="Komяpa" changeset="9288237">
    <nd ref="461926970"/>
    <nd ref="1103423487"/>
    <nd ref="1111543093"/>
    <nd ref="1111543089"/>
    <nd ref="1111543096"/>
    <nd ref="1111543097"/>
    <nd ref="1111543070"/>
    <nd ref="461927319"/>
    <nd ref="461926859"/>
    <nd ref="461926787"/>
    <nd ref="461927238"/>
    <nd ref="1103424191"/>
    <nd ref="1111543086"/>
    <nd ref="1111543082"/>
    <nd ref="1111543074"/>
    <nd ref="1111543071"/>
    <nd ref="1111543085"/>
    <nd ref="461926844"/>
    <nd ref="461927311"/>
    <nd ref="461927330"/>
    <nd ref="461926970"/>
    <tag k="addr:city" v="Зеленоград"/>
    <tag k="addr:country" v="RU"/>
    <tag k="addr:housenumber" v="1002"/>
    <tag k="addr:street" v="10-й микрорайон"/>
    <tag k="building" v="yes"/>
    <tag k="building:levels" v="22"/>
  </way>
  <way id="38884332" version="9" timestamp="2012-03-27T11:33:31Z" uid="481934" user="iWowik" changeset="11115472">
    <nd ref="461926970"/>
    <nd ref="1103423487"/>
    <nd ref="1111543093"/>
    <nd ref="1111543089"/>
    <nd ref="1111543096"/>
    <nd ref="1111543097"/>
    <nd ref="1111543070"/>
    <nd ref="461927319"/>
    <nd ref="461926859"/>
    <nd ref="461926787"/>
    <nd ref="461927238"/>
    <nd ref="1103424191"/>
    <nd ref="1111543086"/>
    <nd ref="1111543082"/>
    <nd ref="1111543074"/>
    <nd ref="1111543071"/>
    <nd ref="1111543085"/>
    <nd ref="461926844"/>
    <nd ref="461927311"/>
    <nd ref="461927330"/>
    <nd ref="461926970"/>
    <tag k="addr:city" v="Зеленоград"/>
    <tag k="addr:country" v="RU"/>
    <tag k="addr:housenumber" v="1002"/>
    <tag k="addr:region" v="Москва"/>
    <tag k="addr:street" v="10-й микрорайон"/>
    <tag k="building" v="yes"/>
    <tag k="building:levels" v="22"/>
  </way>
  <way id="38884333" version="3" timestamp="2011-01-14T16:44:06Z" uid="115477" user="wowik" changeset="6968851">
    <nd ref="461927175"/>
    <nd ref="461927196"/>
    <nd ref="1103424217"/>
    <nd ref="1103423290"/>
    <nd ref="1103424446"/>
    <nd ref="1103423533"/>
    <nd ref="461927168"/>
    <nd ref="461927117"/>
    <nd ref="1103423234"/>
    <nd ref="1103423048"/>
    <nd ref="1103425067"/>
    <nd ref="1103424272"/>
    <nd ref="461927175"/>
    <tag k="addr:city" v="Зеленоград"/>
    <tag k="addr:housenumber" v="1003А"/>
    <tag k="addr:street" v="10-й Микрорайон"/>
    <tag k="building" v="yes"/>
    <tag k="is_in" v="Russia"/>
    <tag k="landuse" v="service"/>
  </way>
  <way id="38884333" version="4" timestamp="2011-06-07T20:46:48Z" uid="133332" user="AMDmi3" changeset="8374030">
    <nd ref="461927175"/>
    <nd ref="461927196"/>
    <nd ref="1103424217"/>
    <nd ref="1103423290"/>
    <nd ref="1103424446"/>
    <nd ref="1103423533"/>
    <nd ref="461927168"/>
    <nd ref="461927117"/>
    <nd ref="1103423234"/>
    <nd ref="1103423048"/>
    <nd ref="1103425067"/>
    <nd ref="1103424272"/>
    <nd ref="461927175"/>
    <tag k="addr:city" v="Зеленоград"/>
    <tag k="addr:housenumber" v="1003А"/>
    <tag k="addr:street" v="10-й микрорайон"/>
    <tag k="building" v="yes"/>
    <tag k="is_in" v="Russia"/>
    <tag k="landuse" v="service"/>
  </way>
  <way id="38884333" version="5" timestamp="2011-09-13T10:21:03Z" uid="29320" user="Komяpa" changeset="9288237">
    <nd ref="461927175"/>
    <nd ref="461927196"/>
    <nd ref="1103424217"/>
    <nd ref="1103423290"/>
    <nd ref="1103424446"/>
    <nd ref="1103423533"/>
    <nd ref="461927168"/>
    <nd ref="461927117"/>
    <nd ref="1103423234"/>
    <nd ref="1103423048"/>
    <nd ref="1103425067"/>
    <nd ref="1103424272"/>
    <nd ref="461927175"/>
    <tag k="addr:city" v="Зеленоград"/>
    <tag k="addr:country" v="RU"/>
    <tag k="addr:housenumber" v="1003А"/>
    <tag k="addr:street" v="10-й микрорайон"/>
    <tag k="building" v="service"/>
  </way>
  <way id="38884333" version="6" timestamp="2012-03-27T11:33:33Z" uid="481934" user="iWowik" changeset="11115472">
    <nd ref="461927175"/>
    <nd ref="461927196"/>
    <nd ref="1103424217"/>
    <nd ref="1103423290"/>
    <nd ref="1103424446"/>
    <nd ref="1103423533"/>
    <nd ref="461927168"/>
    <nd ref="461927117"/>
    <nd ref="1103423234"/>
    <nd ref="1103423048"/>
    <nd ref="1103425067"/>
    <nd ref="1103424272"/>
    <nd ref="461927175"/>
    <tag k="addr:city" v="Зеленоград"/>
    <tag k="addr:country" v="RU"/>
    <tag k="addr:housenumber" v="1003А"/>
    <tag k="addr:region" v="Москва"/>
    <tag k="addr:street" v="10-й микрорайон"/>
    <tag k="building" v="service"/>
  </way>
  <way id="38884334" version="4" timestamp="2011-01-14T16:44:47Z" uid="115477" user="wowik" changeset="6968851">
    <nd ref="461927297"/>
    <nd ref="461927152"/>
    <nd ref="461927008"/>
    <nd ref="1103423949"/>
    <nd ref="1103422895"/>
    <nd ref="1103422890"/>
    <nd ref="1103424302"/>
    <nd ref="461927346"/>
    <nd ref="461926874"/>
    <nd ref="461926996"/>
    <nd ref="461927337"/>
    <nd ref="461927013"/>
    <nd ref="461926906"/>
    <nd ref="461927057"/>
    <nd ref="461927345"/>
    <nd ref="461926799"/>
    <nd ref="461927317"/>
    <nd ref="461926892"/>
    <nd ref="461927134"/>
    <nd ref="461926877"/>
    <nd ref="461927297"/>
    <tag k="addr:city" v="Зеленоград"/>
    <tag k="addr:housenumber" v="1005А"/>
    <tag k="addr:street" v="10-й Микрорайон"/>
    <tag k="amenity" v="school"/>
    <tag k="building" v="yes"/>
    <tag k="comment" v="Учебно-воспитательный комплекс №1853, начальная школа"/>
    <tag k="is_in" v="Russia"/>
    <tag k="name" v="школа УВК №1853"/>
  </way>
  <way id="38884334" version="5" timestamp="2011-06-07T20:46:49Z" uid="133332" user="AMDmi3" changeset="8374030">
    <nd ref="461927297"/>
    <nd ref="461927152"/>
    <nd ref="461927008"/>
    <nd ref="1103423949"/>
    <nd ref="1103422895"/>
    <nd ref="1103422890"/>
    <nd ref="1103424302"/>
    <nd ref="461927346"/>
    <nd ref="461926874"/>
    <nd ref="461926996"/>
    <nd ref="461927337"/>
    <nd ref="461927013"/>
    <nd ref="461926906"/>
    <nd ref="461927057"/>
    <nd ref="461927345"/>
    <nd ref="461926799"/>
    <nd ref="461927317"/>
    <nd ref="461926892"/>
    <nd ref="461927134"/>
    <nd ref="461926877"/>
    <nd ref="461927297"/>
    <tag k="addr:city" v="Зеленоград"/>
    <tag k="addr:housenumber" v="1005А"/>
    <tag k="addr:street" v="10-й микрорайон"/>
    <tag k="amenity" v="school"/>
    <tag k="building" v="yes"/>
    <tag k="comment" v="Учебно-воспитательный комплекс №1853, начальная школа"/>
    <tag k="is_in" v="Russia"/>
    <tag k="name" v="школа УВК №1853"/>
  </way>
  <way id="38884334" version="6" timestamp="2011-09-13T10:32:12Z" uid="29320" user="Komяpa" changeset="9288237">
    <nd ref="461927297"/>
    <nd ref="461927152"/>
    <nd ref="461927008"/>
    <nd ref="1103423949"/>
    <nd ref="1103422895"/>
    <nd ref="1103422890"/>
    <nd ref="1103424302"/>
    <nd ref="461927346"/>
    <nd ref="461926874"/>
    <nd ref="461926996"/>
    <nd ref="461927337"/>
    <nd ref="461927013"/>
    <nd ref="461926906"/>
    <nd ref="461927057"/>
    <nd ref="461927345"/>
    <nd ref="461926799"/>
    <nd ref="461927317"/>
    <nd ref="461926892"/>
    <nd ref="461927134"/>
    <nd ref="461926877"/>
    <nd ref="461927297"/>
    <tag k="addr:city" v="Зеленоград"/>
    <tag k="addr:country" v="RU"/>
    <tag k="addr:housenumber" v="1005А"/>
    <tag k="addr:street" v="10-й микрорайон"/>
    <tag k="amenity" v="school"/>
    <tag k="building" v="yes"/>
    <tag k="comment" v="Учебно-воспитательный комплекс №1853, начальная школа"/>
    <tag k="name" v="школа УВК №1853"/>
  </way>
  <way id="38884334" version="7" timestamp="2012-03-27T11:56:29Z" uid="481934" user="iWowik" changeset="11115472">
    <nd ref="461927297"/>
    <nd ref="461927152"/>
    <nd ref="461927008"/>
    <nd ref="1103423949"/>
    <nd ref="1103422895"/>
    <nd ref="1103422890"/>
    <nd ref="1103424302"/>
    <nd ref="461927346"/>
    <nd ref="461926874"/>
    <nd ref="461926996"/>
    <nd ref="461927337"/>
    <nd ref="461927013"/>
    <nd ref="461926906"/>
    <nd ref="461927057"/>
    <nd ref="461927345"/>
    <nd ref="461926799"/>
    <nd ref="461927317"/>
    <nd ref="461926892"/>
    <nd ref="461927134"/>
    <nd ref="461926877"/>
    <nd ref="461927297"/>
    <tag k="addr:city" v="Зеленоград"/>
    <tag k="addr:country" v="RU"/>
    <tag k="addr:housenumber" v="1005А"/>
    <tag k="addr:region" v="Москва"/>
    <tag k="addr:street" v="10-й микрорайон"/>
    <tag k="amenity" v="school"/>
    <tag k="building" v="yes"/>
    <tag k="comment" v="Учебно-воспитательный комплекс №1853, начальная школа"/>
    <tag k="name" v="школа УВК №1853"/>
  </way>
  <way id="38884335" version="5" timestamp="2011-01-14T16:45:06Z" uid="115477" user="wowik" changeset="6968851"/>
  <way id="38884337" version="3" timestamp="2011-01-14T16:43:23Z" uid="115477" user="wowik" changeset="6968851">
    <nd ref="461926931"/>
    <nd ref="1103423186"/>
    <nd ref="1103424947"/>
    <nd ref="461926813"/>
    <nd ref="461926952"/>
    <nd ref="461926984"/>
    <nd ref="461926931"/>
    <tag k="addr:city" v="Зеленоград"/>
    <tag k="addr:housenumber" v="21с39"/>
    <tag k="addr:street" v="улица Панфилова"/>
    <tag k="building" v="yes"/>
    <tag k="is_in" v="Russia"/>
    <tag k="landuse" v="service"/>
  </way>
  <way id="38884337" version="4" timestamp="2011-01-19T15:51:38Z" uid="70696" user="xybot" changeset="7021015">
    <nd ref="461926931"/>
    <nd ref="1103423186"/>
    <nd ref="1103424947"/>
    <nd ref="461926813"/>
    <nd ref="461926952"/>
    <nd ref="461926984"/>
    <nd ref="461926931"/>
    <tag k="addr:city" v="Зеленоград"/>
    <tag k="addr:housenumber" v="21 с39"/>
    <tag k="addr:street" v="улица Панфилова"/>
    <tag k="building" v="yes"/>
    <tag k="is_in" v="Russia"/>
    <tag k="landuse" v="service"/>
  </way>
  <way id="38884337" version="5" timestamp="2011-09-13T10:24:45Z" uid="29320" user="Komяpa" changeset="9288237">
    <nd ref="461926931"/>
    <nd ref="1103423186"/>
    <nd ref="1103424947"/>
    <nd ref="461926813"/>
    <nd ref="461926952"/>
    <nd ref="461926984"/>
    <nd ref="461926931"/>
    <tag k="addr:city" v="Зеленоград"/>
    <tag k="addr:country" v="RU"/>
    <tag k="addr:housenumber" v="21 с39"/>
    <tag k="addr:street" v="улица Панфилова"/>
    <tag k="building" v="service"/>
  </way>
  <way id="38884337" version="6" timestamp="2012-03-27T11:39:39Z" uid="481934" user="iWowik" changeset="11115472">
    <nd ref="461926931"/>
    <nd ref="1103423186"/>
    <nd ref="1103424947"/>
    <nd ref="461926813"/>
    <nd ref="461926952"/>
    <nd ref="461926984"/>
    <nd ref="461926931"/>
    <tag k="addr:city" v="Зеленоград"/>
    <tag k="addr:country" v="RU"/>
    <tag k="addr:housenumber" v="21 с39"/>
    <tag k="addr:region" v="Москва"/>
    <tag k="addr:street" v="улица Панфилова"/>
    <tag k="building" v="service"/>
  </way>
  <way id="38884338" version="5" timestamp="2011-01-14T16:44:01Z" uid="115477" user="wowik" changeset="6968851">
    <nd ref="461926785"/>
    <nd ref="461927140"/>
    <nd ref="1103424408"/>
    <nd ref="461927022"/>
    <nd ref="461927267"/>
    <nd ref="461926960"/>
    <nd ref="461927077"/>
    <nd ref="1103423250"/>
    <nd ref="461926895"/>
    <nd ref="461926816"/>
    <nd ref="461926771"/>
    <nd ref="461926841"/>
    <nd ref="1103424233"/>
    <nd ref="461926888"/>
    <nd ref="461926869"/>
    <nd ref="461926830"/>
    <nd ref="461927155"/>
    <nd ref="1103423854"/>
    <nd ref="461927356"/>
    <nd ref="461926818"/>
    <nd ref="461926785"/>
    <tag k="addr:city" v="Зеленоград"/>
    <tag k="addr:housenumber" v="1012"/>
    <tag k="addr:street" v="10-й Микрорайон"/>
    <tag k="building" v="yes"/>
    <tag k="building:levels" v="22"/>
    <tag k="is_in" v="Russia"/>
  </way>
  <way id="38884338" version="6" timestamp="2011-01-21T19:49:00Z" uid="115477" user="wowik" changeset="7043826">
    <nd ref="461926785"/>
    <nd ref="461927140"/>
    <nd ref="1113654447"/>
    <nd ref="1113654439"/>
    <nd ref="1113654455"/>
    <nd ref="1103424408"/>
    <nd ref="1113654452"/>
    <nd ref="1113654462"/>
    <nd ref="461927022"/>
    <nd ref="461927267"/>
    <nd ref="461926960"/>
    <nd ref="461927077"/>
    <nd ref="1113654465"/>
    <nd ref="1113654460"/>
    <nd ref="1113654449"/>
    <nd ref="1113654441"/>
    <nd ref="1113654445"/>
    <nd ref="1103423250"/>
    <nd ref="461926895"/>
    <nd ref="461926816"/>
    <nd ref="461926771"/>
    <nd ref="461926841"/>
    <nd ref="1113654485"/>
    <nd ref="1113654486"/>
    <nd ref="1113654477"/>
    <nd ref="1113654470"/>
    <nd ref="1113654464"/>
    <nd ref="1103424233"/>
    <nd ref="461926888"/>
    <nd ref="461926869"/>
    <nd ref="461926830"/>
    <nd ref="461927155"/>
    <nd ref="1113654488"/>
    <nd ref="1113654468"/>
    <nd ref="1113654478"/>
    <nd ref="1113654474"/>
    <nd ref="1113654471"/>
    <nd ref="1103423854"/>
    <nd ref="461927356"/>
    <nd ref="461926818"/>
    <nd ref="461926785"/>
    <tag k="addr:city" v="Зеленоград"/>
    <tag k="addr:housenumber" v="1012"/>
    <tag k="addr:street" v="10-й Микрорайон"/>
    <tag k="building" v="yes"/>
    <tag k="building:levels" v="22"/>
    <tag k="is_in" v="Russia"/>
  </way>
  <way id="38884338" version="7" timestamp="2011-06-07T20:46:32Z" uid="133332" user="AMDmi3" changeset="8374030">
    <nd ref="461926785"/>
    <nd ref="461927140"/>
    <nd ref="1113654447"/>
    <nd ref="1113654439"/>
    <nd ref="1113654455"/>
    <nd ref="1103424408"/>
    <nd ref="1113654452"/>
    <nd ref="1113654462"/>
    <nd ref="461927022"/>
    <nd ref="461927267"/>
    <nd ref="461926960"/>
    <nd ref="461927077"/>
    <nd ref="1113654465"/>
    <nd ref="1113654460"/>
    <nd ref="1113654449"/>
    <nd ref="1113654441"/>
    <nd ref="1113654445"/>
    <nd ref="1103423250"/>
    <nd ref="461926895"/>
    <nd ref="461926816"/>
    <nd ref="461926771"/>
    <nd ref="461926841"/>
    <nd ref="1113654485"/>
    <nd ref="1113654486"/>
    <nd ref="1113654477"/>
    <nd ref="1113654470"/>
    <nd ref="1113654464"/>
    <nd ref="1103424233"/>
    <nd ref="461926888"/>
    <nd ref="461926869"/>
    <nd ref="461926830"/>
    <nd ref="461927155"/>
    <nd ref="1113654488"/>
    <nd ref="1113654468"/>
    <nd ref="1113654478"/>
    <nd ref="1113654474"/>
    <nd ref="1113654471"/>
    <nd ref="1103423854"/>
    <nd ref="461927356"/>
    <nd ref="461926818"/>
    <nd ref="461926785"/>
    <tag k="addr:city" v="Зеленоград"/>
    <tag k="addr:housenumber" v="1012"/>
    <tag k="addr:street" v="10-й микрорайон"/>
    <tag k="building" v="yes"/>
    <tag k="building:levels" v="22"/>
    <tag k="is_in" v="Russia"/>
  </way>
  <way id="38884338" version="8" timestamp="2011-09-13T10:21:09Z" uid="29320" user="Komяpa" changeset="9288237">
    <nd ref="461926785"/>
    <nd ref="461927140"/>
    <nd ref="1113654447"/>
    <nd ref="1113654439"/>
    <nd ref="1113654455"/>
    <nd ref="1103424408"/>
    <nd ref="1113654452"/>
    <nd ref="1113654462"/>
    <nd ref="461927022"/>
    <nd ref="461927267"/>
    <nd ref="461926960"/>
    <nd ref="461927077"/>
    <nd ref="1113654465"/>
    <nd ref="1113654460"/>
    <nd ref="1113654449"/>
    <nd ref="1113654441"/>
    <nd ref="1113654445"/>
    <nd ref="1103423250"/>
    <nd ref="461926895"/>
    <nd ref="461926816"/>
    <nd ref="461926771"/>
    <nd ref="461926841"/>
    <nd ref="1113654485"/>
    <nd ref="1113654486"/>
    <nd ref="1113654477"/>
    <nd ref="1113654470"/>
    <nd ref="1113654464"/>
    <nd ref="1103424233"/>
    <nd ref="461926888"/>
    <nd ref="461926869"/>
    <nd ref="461926830"/>
    <nd ref="461927155"/>
    <nd ref="1113654488"/>
    <nd ref="1113654468"/>
    <nd ref="1113654478"/>
    <nd ref="1113654474"/>
    <nd ref="1113654471"/>
    <nd ref="1103423854"/>
    <nd ref="461927356"/>
    <nd ref="461926818"/>
    <nd ref="461926785"/>
    <tag k="addr:city" v="Зеленоград"/>
    <tag k="addr:country" v="RU"/>
    <tag k="addr:housenumber" v="1012"/>
    <tag k="addr:street" v="10-й микрорайон"/>
    <tag k="building" v="yes"/>
    <tag k="building:levels" v="22"/>
  </way>
  <way id="38884338" version="9" timestamp="2012-03-27T11:33:40Z" uid="481934" user="iWowik" changeset="11115472">
    <nd ref="461926785"/>
    <nd ref="461927140"/>
    <nd ref="1113654447"/>
    <nd ref="1113654439"/>
    <nd ref="1113654455"/>
    <nd ref="1103424408"/>
    <nd ref="1113654452"/>
    <nd ref="1113654462"/>
    <nd ref="461927022"/>
    <nd ref="461927267"/>
    <nd ref="461926960"/>
    <nd ref="461927077"/>
    <nd ref="1113654465"/>
    <nd ref="1113654460"/>
    <nd ref="1113654449"/>
    <nd ref="1113654441"/>
    <nd ref="1113654445"/>
    <nd ref="1103423250"/>
    <nd ref="461926895"/>
    <nd ref="461926816"/>
    <nd ref="461926771"/>
    <nd ref="461926841"/>
    <nd ref="1113654485"/>
    <nd ref="1113654486"/>
    <nd ref="1113654477"/>
    <nd ref="1113654470"/>
    <nd ref="1113654464"/>
    <nd ref="1103424233"/>
    <nd ref="461926888"/>
    <nd ref="461926869"/>
    <nd ref="461926830"/>
    <nd ref="461927155"/>
    <nd ref="1113654488"/>
    <nd ref="1113654468"/>
    <nd ref="1113654478"/>
    <nd ref="1113654474"/>
    <nd ref="1113654471"/>
    <nd ref="1103423854"/>
    <nd ref="461927356"/>
    <nd ref="461926818"/>
    <nd ref="461926785"/>
    <tag k="addr:city" v="Зеленоград"/>
    <tag k="addr:country" v="RU"/>
    <tag k="addr:housenumber" v="1012"/>
    <tag k="addr:region" v="Москва"/>
    <tag k="addr:street" v="10-й микрорайон"/>
    <tag k="building" v="yes"/>
    <tag k="building:levels" v="22"/>
  </way>
  <way id="38884340" version="5" timestamp="2010-11-11T06:08:19Z" uid="115477" user="wowik" changeset="6341308">
    <nd ref="461926828"/>
    <nd ref="461926897"/>
    <nd ref="461926860"/>
    <nd ref="461927209"/>
    <nd ref="461926828"/>
    <tag k="addr:city" v="Зеленоград"/>
    <tag k="addr:housenumber" v="11Б"/>
    <tag k="addr:street" v="10-й Микрорайон"/>
    <tag k="building" v="yes"/>
    <tag k="building:levels" v="5"/>
    <tag k="cladr:code" v="77000002000109000"/>
    <tag k="is_in" v="Russia"/>
  </way>
  <way id="38884340" version="6" timestamp="2010-11-25T10:14:40Z" uid="115477" user="wowik" changeset="6453331">
    <nd ref="461926828"/>
    <nd ref="461926897"/>
    <nd ref="461926860"/>
    <nd ref="461927209"/>
    <nd ref="461926828"/>
    <tag k="addr:city" v="Зеленоград"/>
    <tag k="addr:housenumber" v="11Б"/>
    <tag k="addr:street" v="улица Гоголя"/>
    <tag k="building" v="yes"/>
    <tag k="building:levels" v="5"/>
    <tag k="cladr:code" v="77000002000109000"/>
    <tag k="is_in" v="Russia"/>
  </way>
  <way id="38884340" version="7" timestamp="2011-09-13T10:21:47Z" uid="29320" user="Komяpa" changeset="9288237">
    <nd ref="461926828"/>
    <nd ref="461926897"/>
    <nd ref="461926860"/>
    <nd ref="461927209"/>
    <nd ref="461926828"/>
    <tag k="addr:city" v="Зеленоград"/>
    <tag k="addr:country" v="RU"/>
    <tag k="addr:housenumber" v="11Б"/>
    <tag k="addr:street" v="улица Гоголя"/>
    <tag k="building" v="yes"/>
    <tag k="building:levels" v="5"/>
    <tag k="cladr:code" v="77000002000109000"/>
  </way>
  <way id="38884340" version="8" timestamp="2012-03-27T11:34:41Z" uid="481934" user="iWowik" changeset="11115472">
    <nd ref="461926828"/>
    <nd ref="461926897"/>
    <nd ref="461926860"/>
    <nd ref="461927209"/>
    <nd ref="461926828"/>
    <tag k="addr:city" v="Зеленоград"/>
    <tag k="addr:country" v="RU"/>
    <tag k="addr:housenumber" v="11Б"/>
    <tag k="addr:region" v="Москва"/>
    <tag k="addr:street" v="улица Гоголя"/>
    <tag k="building" v="yes"/>
    <tag k="building:levels" v="5"/>
    <tag k="cladr:code" v="77000002000109000"/>
  </way>
  <way id="38884342" version="2" timestamp="2009-09-23T15:03:35Z" uid="115477" user="wowik" changeset="2596310">
    <nd ref="461926824"/>
    <nd ref="461926998"/>
    <nd ref="506240599"/>
    <nd ref="461926836"/>
    <nd ref="461926805"/>
    <nd ref="461926867"/>
    <nd ref="461926933"/>
    <nd ref="461927114"/>
    <nd ref="461927092"/>
    <nd ref="461927266"/>
    <nd ref="461927187"/>
    <nd ref="461927213"/>
    <nd ref="461927314"/>
    <nd ref="506240597"/>
    <nd ref="461927086"/>
    <nd ref="461927387"/>
    <nd ref="461926824"/>
    <tag k="addr:city" v="Зеленоград"/>
    <tag k="addr:housenumber" v="1004"/>
    <tag k="addr:street" v="10-й микрорайон"/>
    <tag k="building" v="yes"/>
    <tag k="is_in" v="Russia"/>
  </way>
  <way id="38884342" version="3" timestamp="2009-11-21T05:33:00Z" uid="11132" user="liosha" changeset="3173482">
    <nd ref="461926824"/>
    <nd ref="461926998"/>
    <nd ref="506240599"/>
    <nd ref="461926836"/>
    <nd ref="461926805"/>
    <nd ref="461926867"/>
    <nd ref="461926933"/>
    <nd ref="461927114"/>
    <nd ref="461927092"/>
    <nd ref="461927266"/>
    <nd ref="461927187"/>
    <nd ref="461927213"/>
    <nd ref="461927314"/>
    <nd ref="506240597"/>
    <nd ref="461927086"/>
    <nd ref="461927387"/>
    <nd ref="461926824"/>
    <tag k="addr:city" v="Зеленоград"/>
    <tag k="addr:housenumber" v="1004"/>
    <tag k="addr:street" v="10-й Микрорайон"/>
    <tag k="building" v="yes"/>
    <tag k="is_in" v="Russia"/>
  </way>
  <way id="38884342" version="4" timestamp="2010-08-31T11:48:06Z" uid="241531" user="dik_man" changeset="5644629">
    <nd ref="461926824"/>
    <nd ref="461926998"/>
    <nd ref="506240599"/>
    <nd ref="461926836"/>
    <nd ref="461926805"/>
    <nd ref="461926867"/>
    <nd ref="461926933"/>
    <nd ref="461927114"/>
    <nd ref="461927092"/>
    <nd ref="461927266"/>
    <nd ref="461927187"/>
    <nd ref="461927213"/>
    <nd ref="461927314"/>
    <nd ref="506240597"/>
    <nd ref="461927086"/>
    <nd ref="461927387"/>
    <nd ref="461926824"/>
    <tag k="addr:city" v="Зеленоград"/>
    <tag k="addr:housenumber" v="1004"/>
    <tag k="addr:street" v="10-й Микрорайон"/>
    <tag k="building" v="yes"/>
    <tag k="building:level" v="14"/>
    <tag k="is_in" v="Russia"/>
  </way>
  <way id="38884342" version="5" timestamp="2010-10-06T09:21:56Z" uid="241531" user="dik_man" changeset="5967337">
    <nd ref="461926824"/>
    <nd ref="461926998"/>
    <nd ref="506240599"/>
    <nd ref="461926836"/>
    <nd ref="461926805"/>
    <nd ref="461926867"/>
    <nd ref="461926933"/>
    <nd ref="461927114"/>
    <nd ref="461927092"/>
    <nd ref="461927266"/>
    <nd ref="461927187"/>
    <nd ref="461927213"/>
    <nd ref="461927314"/>
    <nd ref="506240597"/>
    <nd ref="461927086"/>
    <nd ref="461927387"/>
    <nd ref="461926824"/>
    <tag k="addr:city" v="Зеленоград"/>
    <tag k="addr:housenumber" v="1004"/>
    <tag k="addr:street" v="10-й Микрорайон"/>
    <tag k="building" v="yes"/>
    <tag k="building:levels" v="14"/>
    <tag k="is_in" v="Russia"/>
  </way>
  <way id="38884342" version="6" timestamp="2010-11-11T20:01:49Z" uid="241531" user="dik_man" changeset="6346398">
    <nd ref="461926998"/>
    <nd ref="461926998"/>
    <nd ref="461927086"/>
    <nd ref="461927387"/>
    <nd ref="461926824"/>
    <nd ref="461926998"/>
    <tag k="building" v="yes"/>
  </way>
  <way id="38884342" version="7" timestamp="2010-11-12T19:38:04Z" uid="70696" user="xybot" changeset="6353469">
    <nd ref="461926998"/>
    <nd ref="461927086"/>
    <nd ref="461927387"/>
    <nd ref="461926824"/>
    <nd ref="461926998"/>
    <tag k="building" v="yes"/>
  </way>
  <way id="38884342" version="8" timestamp="2012-03-27T08:13:32Z" uid="481934" user="iWowik" changeset="11113698">
    <nd ref="461926998"/>
    <nd ref="461927086"/>
    <nd ref="461927387"/>
    <nd ref="461926824"/>
    <nd ref="461926998"/>
    <tag k="addr:city" v="Зеленоград"/>
    <tag k="addr:country" v="RU"/>
    <tag k="building" v="yes"/>
  </way>
  <way id="38884342" version="9" timestamp="2012-03-27T11:52:01Z" uid="481934" user="iWowik" changeset="11115472">
    <nd ref="461926998"/>
    <nd ref="461927086"/>
    <nd ref="461927387"/>
    <nd ref="461926824"/>
    <nd ref="461926998"/>
    <tag k="addr:city" v="Зеленоград"/>
    <tag k="addr:country" v="RU"/>
    <tag k="addr:region" v="Москва"/>
    <tag k="building" v="yes"/>
  </way>
  <way id="38884343" version="3" timestamp="2011-01-14T16:41:56Z" uid="115477" user="wowik" changeset="6968851">
    <nd ref="461926865"/>
    <nd ref="949960628"/>
    <nd ref="763210752"/>
    <nd ref="763210753"/>
    <nd ref="763210754"/>
    <nd ref="763210755"/>
    <nd ref="763210756"/>
    <nd ref="763210757"/>
    <nd ref="763210758"/>
    <nd ref="763210751"/>
    <nd ref="461926820"/>
    <nd ref="461926882"/>
    <nd ref="461926950"/>
    <nd ref="461926865"/>
    <tag k="addr:city" v="Зеленоград"/>
    <tag k="addr:housenumber" v="1013Б"/>
    <tag k="addr:street" v="10-й Микрорайон"/>
    <tag k="amenity" v="parking"/>
    <tag k="barrier" v="wall"/>
    <tag k="is_in" v="Russia"/>
    <tag k="parking" v="surface"/>
  </way>
  <way id="38884343" version="4" timestamp="2011-06-07T20:46:34Z" uid="133332" user="AMDmi3" changeset="8374030">
    <nd ref="461926865"/>
    <nd ref="949960628"/>
    <nd ref="763210752"/>
    <nd ref="763210753"/>
    <nd ref="763210754"/>
    <nd ref="763210755"/>
    <nd ref="763210756"/>
    <nd ref="763210757"/>
    <nd ref="763210758"/>
    <nd ref="763210751"/>
    <nd ref="461926820"/>
    <nd ref="461926882"/>
    <nd ref="461926950"/>
    <nd ref="461926865"/>
    <tag k="addr:city" v="Зеленоград"/>
    <tag k="addr:housenumber" v="1013Б"/>
    <tag k="addr:street" v="10-й микрорайон"/>
    <tag k="amenity" v="parking"/>
    <tag k="barrier" v="wall"/>
    <tag k="is_in" v="Russia"/>
    <tag k="parking" v="surface"/>
  </way>
  <way id="38884343" version="5" timestamp="2011-10-12T06:32:10Z" uid="481934" user="iWowik" changeset="9535964">
    <nd ref="461926865"/>
    <nd ref="949960628"/>
    <nd ref="763210753"/>
    <nd ref="763210755"/>
    <nd ref="763210756"/>
    <nd ref="763210757"/>
    <nd ref="1463594718"/>
    <nd ref="461926882"/>
    <nd ref="461926950"/>
    <nd ref="461926865"/>
    <tag k="addr:city" v="Зеленоград"/>
    <tag k="addr:housenumber" v="1013Б"/>
    <tag k="addr:street" v="10-й микрорайон"/>
    <tag k="amenity" v="parking"/>
    <tag k="barrier" v="wall"/>
    <tag k="is_in" v="Russia"/>
    <tag k="parking" v="surface"/>
  </way>
  <way id="38884343" version="6" timestamp="2012-03-27T11:33:42Z" uid="481934" user="iWowik" changeset="11115472">
    <nd ref="461926865"/>
    <nd ref="949960628"/>
    <nd ref="763210753"/>
    <nd ref="763210755"/>
    <nd ref="763210756"/>
    <nd ref="763210757"/>
    <nd ref="1463594718"/>
    <nd ref="461926882"/>
    <nd ref="461926950"/>
    <nd ref="461926865"/>
    <tag k="addr:city" v="Зеленоград"/>
    <tag k="addr:country" v="RU"/>
    <tag k="addr:housenumber" v="1013Б"/>
    <tag k="addr:region" v="Москва"/>
    <tag k="addr:street" v="10-й микрорайон"/>
    <tag k="amenity" v="parking"/>
    <tag k="barrier" v="wall"/>
    <tag k="is_in" v="Russia"/>
    <tag k="parking" v="surface"/>
  </way>
  <way id="38884344" version="3" timestamp="2011-01-14T16:44:56Z" uid="115477" user="wowik" changeset="6968851">
    <nd ref="461926926"/>
    <nd ref="461926864"/>
    <nd ref="461927359"/>
    <nd ref="461927083"/>
    <nd ref="1103423875"/>
    <nd ref="1103424434"/>
    <nd ref="1103423515"/>
    <nd ref="1103423265"/>
    <nd ref="1103424500"/>
    <nd ref="1103425020"/>
    <nd ref="1103422996"/>
    <nd ref="1103423813"/>
    <nd ref="461926926"/>
    <tag k="addr:city" v="Зеленоград"/>
    <tag k="addr:housenumber" v="1006Б"/>
    <tag k="addr:street" v="10-й Микрорайон"/>
    <tag k="building" v="yes"/>
    <tag k="is_in" v="Russia"/>
    <tag k="landuse" v="service"/>
  </way>
  <way id="38884344" version="4" timestamp="2011-06-07T20:46:35Z" uid="133332" user="AMDmi3" changeset="8374030">
    <nd ref="461926926"/>
    <nd ref="461926864"/>
    <nd ref="461927359"/>
    <nd ref="461927083"/>
    <nd ref="1103423875"/>
    <nd ref="1103424434"/>
    <nd ref="1103423515"/>
    <nd ref="1103423265"/>
    <nd ref="1103424500"/>
    <nd ref="1103425020"/>
    <nd ref="1103422996"/>
    <nd ref="1103423813"/>
    <nd ref="461926926"/>
    <tag k="addr:city" v="Зеленоград"/>
    <tag k="addr:housenumber" v="1006Б"/>
    <tag k="addr:street" v="10-й микрорайон"/>
    <tag k="building" v="yes"/>
    <tag k="is_in" v="Russia"/>
    <tag k="landuse" v="service"/>
  </way>
  <way id="38884344" version="5" timestamp="2011-09-13T10:21:06Z" uid="29320" user="Komяpa" changeset="9288237">
    <nd ref="461926926"/>
    <nd ref="461926864"/>
    <nd ref="461927359"/>
    <nd ref="461927083"/>
    <nd ref="1103423875"/>
    <nd ref="1103424434"/>
    <nd ref="1103423515"/>
    <nd ref="1103423265"/>
    <nd ref="1103424500"/>
    <nd ref="1103425020"/>
    <nd ref="1103422996"/>
    <nd ref="1103423813"/>
    <nd ref="461926926"/>
    <tag k="addr:city" v="Зеленоград"/>
    <tag k="addr:country" v="RU"/>
    <tag k="addr:housenumber" v="1006Б"/>
    <tag k="addr:street" v="10-й микрорайон"/>
    <tag k="building" v="service"/>
  </way>
  <way id="38884344" version="6" timestamp="2012-03-27T11:33:37Z" uid="481934" user="iWowik" changeset="11115472">
    <nd ref="461926926"/>
    <nd ref="461926864"/>
    <nd ref="461927359"/>
    <nd ref="461927083"/>
    <nd ref="1103423875"/>
    <nd ref="1103424434"/>
    <nd ref="1103423515"/>
    <nd ref="1103423265"/>
    <nd ref="1103424500"/>
    <nd ref="1103425020"/>
    <nd ref="1103422996"/>
    <nd ref="1103423813"/>
    <nd ref="461926926"/>
    <tag k="addr:city" v="Зеленоград"/>
    <tag k="addr:country" v="RU"/>
    <tag k="addr:housenumber" v="1006Б"/>
    <tag k="addr:region" v="Москва"/>
    <tag k="addr:street" v="10-й микрорайон"/>
    <tag k="building" v="service"/>
  </way>
  <way id="38884345" version="5" timestamp="2011-01-14T16:42:19Z" uid="115477" user="wowik" changeset="6968851">
    <nd ref="461927306"/>
    <nd ref="461927272"/>
    <nd ref="1103422992"/>
    <nd ref="461927342"/>
    <nd ref="461927199"/>
    <nd ref="461926872"/>
    <nd ref="461926857"/>
    <nd ref="1005410535"/>
    <nd ref="1005410536"/>
    <nd ref="461926783"/>
    <nd ref="461926876"/>
    <nd ref="461927300"/>
    <nd ref="1005410540"/>
    <nd ref="1005410541"/>
    <nd ref="1005410542"/>
    <nd ref="461927304"/>
    <nd ref="461926977"/>
    <nd ref="1103424198"/>
    <nd ref="461927396"/>
    <nd ref="461927279"/>
    <nd ref="461927306"/>
    <tag k="addr:city" v="Зеленоград"/>
    <tag k="addr:housenumber" v="1006"/>
    <tag k="addr:street" v="10-й Микрорайон"/>
    <tag k="building" v="yes"/>
    <tag k="building:levels" v="22"/>
    <tag k="garmin_type" v="0x13"/>
    <tag k="is_in" v="Russia"/>
  </way>
  <way id="38884345" version="6" timestamp="2011-01-20T12:16:19Z" uid="115477" user="wowik" changeset="7029863">
    <nd ref="461927306"/>
    <nd ref="461927272"/>
    <nd ref="1111541136"/>
    <nd ref="1111541230"/>
    <nd ref="1111541124"/>
    <nd ref="1111541262"/>
    <nd ref="1111541109"/>
    <nd ref="1103422992"/>
    <nd ref="461927342"/>
    <nd ref="461927199"/>
    <nd ref="461926872"/>
    <nd ref="461926857"/>
    <nd ref="1111541204"/>
    <nd ref="1111541187"/>
    <nd ref="1111541216"/>
    <nd ref="1111541142"/>
    <nd ref="1111541160"/>
    <nd ref="1005410535"/>
    <nd ref="1005410536"/>
    <nd ref="461926783"/>
    <nd ref="461926876"/>
    <nd ref="461927300"/>
    <nd ref="1111541153"/>
    <nd ref="1111541134"/>
    <nd ref="1111541258"/>
    <nd ref="1111541108"/>
    <nd ref="1111541244"/>
    <nd ref="1005410540"/>
    <nd ref="1005410541"/>
    <nd ref="1005410542"/>
    <nd ref="461927304"/>
    <nd ref="461926977"/>
    <nd ref="1111541178"/>
    <nd ref="1111541154"/>
    <nd ref="1111541217"/>
    <nd ref="1111541165"/>
    <nd ref="1111541193"/>
    <nd ref="1103424198"/>
    <nd ref="461927396"/>
    <nd ref="461927279"/>
    <nd ref="461927306"/>
    <tag k="addr:city" v="Зеленоград"/>
    <tag k="addr:housenumber" v="1006"/>
    <tag k="addr:street" v="10-й Микрорайон"/>
    <tag k="building" v="yes"/>
    <tag k="building:levels" v="22"/>
    <tag k="garmin_type" v="0x13"/>
    <tag k="is_in" v="Russia"/>
  </way>
  <way id="38884345" version="7" timestamp="2011-06-07T20:46:34Z" uid="133332" user="AMDmi3" changeset="8374030">
    <nd ref="461927306"/>
    <nd ref="461927272"/>
    <nd ref="1111541136"/>
    <nd ref="1111541230"/>
    <nd ref="1111541124"/>
    <nd ref="1111541262"/>
    <nd ref="1111541109"/>
    <nd ref="1103422992"/>
    <nd ref="461927342"/>
    <nd ref="461927199"/>
    <nd ref="461926872"/>
    <nd ref="461926857"/>
    <nd ref="1111541204"/>
    <nd ref="1111541187"/>
    <nd ref="1111541216"/>
    <nd ref="1111541142"/>
    <nd ref="1111541160"/>
    <nd ref="1005410535"/>
    <nd ref="1005410536"/>
    <nd ref="461926783"/>
    <nd ref="461926876"/>
    <nd ref="461927300"/>
    <nd ref="1111541153"/>
    <nd ref="1111541134"/>
    <nd ref="1111541258"/>
    <nd ref="1111541108"/>
    <nd ref="1111541244"/>
    <nd ref="1005410540"/>
    <nd ref="1005410541"/>
    <nd ref="1005410542"/>
    <nd ref="461927304"/>
    <nd ref="461926977"/>
    <nd ref="1111541178"/>
    <nd ref="1111541154"/>
    <nd ref="1111541217"/>
    <nd ref="1111541165"/>
    <nd ref="1111541193"/>
    <nd ref="1103424198"/>
    <nd ref="461927396"/>
    <nd ref="461927279"/>
    <nd ref="461927306"/>
    <tag k="addr:city" v="Зеленоград"/>
    <tag k="addr:housenumber" v="1006"/>
    <tag k="addr:street" v="10-й микрорайон"/>
    <tag k="building" v="yes"/>
    <tag k="building:levels" v="22"/>
    <tag k="garmin_type" v="0x13"/>
    <tag k="is_in" v="Russia"/>
  </way>
  <way id="38884345" version="8" timestamp="2011-09-13T10:21:05Z" uid="29320" user="Komяpa" changeset="9288237">
    <nd ref="461927306"/>
    <nd ref="461927272"/>
    <nd ref="1111541136"/>
    <nd ref="1111541230"/>
    <nd ref="1111541124"/>
    <nd ref="1111541262"/>
    <nd ref="1111541109"/>
    <nd ref="1103422992"/>
    <nd ref="461927342"/>
    <nd ref="461927199"/>
    <nd ref="461926872"/>
    <nd ref="461926857"/>
    <nd ref="1111541204"/>
    <nd ref="1111541187"/>
    <nd ref="1111541216"/>
    <nd ref="1111541142"/>
    <nd ref="1111541160"/>
    <nd ref="1005410535"/>
    <nd ref="1005410536"/>
    <nd ref="461926783"/>
    <nd ref="461926876"/>
    <nd ref="461927300"/>
    <nd ref="1111541153"/>
    <nd ref="1111541134"/>
    <nd ref="1111541258"/>
    <nd ref="1111541108"/>
    <nd ref="1111541244"/>
    <nd ref="1005410540"/>
    <nd ref="1005410541"/>
    <nd ref="1005410542"/>
    <nd ref="461927304"/>
    <nd ref="461926977"/>
    <nd ref="1111541178"/>
    <nd ref="1111541154"/>
    <nd ref="1111541217"/>
    <nd ref="1111541165"/>
    <nd ref="1111541193"/>
    <nd ref="1103424198"/>
    <nd ref="461927396"/>
    <nd ref="461927279"/>
    <nd ref="461927306"/>
    <tag k="addr:city" v="Зеленоград"/>
    <tag k="addr:country" v="RU"/>
    <tag k="addr:housenumber" v="1006"/>
    <tag k="addr:street" v="10-й микрорайон"/>
    <tag k="building" v="yes"/>
    <tag k="building:levels" v="22"/>
    <tag k="garmin_type" v="0x13"/>
  </way>
  <way id="38884345" version="9" timestamp="2012-03-27T11:33:35Z" uid="481934" user="iWowik" changeset="11115472">
    <nd ref="461927306"/>
    <nd ref="461927272"/>
    <nd ref="1111541136"/>
    <nd ref="1111541230"/>
    <nd ref="1111541124"/>
    <nd ref="1111541262"/>
    <nd ref="1111541109"/>
    <nd ref="1103422992"/>
    <nd ref="461927342"/>
    <nd ref="461927199"/>
    <nd ref="461926872"/>
    <nd ref="461926857"/>
    <nd ref="1111541204"/>
    <nd ref="1111541187"/>
    <nd ref="1111541216"/>
    <nd ref="1111541142"/>
    <nd ref="1111541160"/>
    <nd ref="1005410535"/>
    <nd ref="1005410536"/>
    <nd ref="461926783"/>
    <nd ref="461926876"/>
    <nd ref="461927300"/>
    <nd ref="1111541153"/>
    <nd ref="1111541134"/>
    <nd ref="1111541258"/>
    <nd ref="1111541108"/>
    <nd ref="1111541244"/>
    <nd ref="1005410540"/>
    <nd ref="1005410541"/>
    <nd ref="1005410542"/>
    <nd ref="461927304"/>
    <nd ref="461926977"/>
    <nd ref="1111541178"/>
    <nd ref="1111541154"/>
    <nd ref="1111541217"/>
    <nd ref="1111541165"/>
    <nd ref="1111541193"/>
    <nd ref="1103424198"/>
    <nd ref="461927396"/>
    <nd ref="461927279"/>
    <nd ref="461927306"/>
    <tag k="addr:city" v="Зеленоград"/>
    <tag k="addr:country" v="RU"/>
    <tag k="addr:housenumber" v="1006"/>
    <tag k="addr:region" v="Москва"/>
    <tag k="addr:street" v="10-й микрорайон"/>
    <tag k="building" v="yes"/>
    <tag k="building:levels" v="22"/>
    <tag k="garmin_type" v="0x13"/>
  </way>
  <way id="38884346" version="4" timestamp="2011-01-14T16:42:59Z" uid="115477" user="wowik" changeset="6968851">
    <nd ref="461927256"/>
    <nd ref="1103424385"/>
    <nd ref="461926957"/>
    <nd ref="461926907"/>
    <nd ref="461927182"/>
    <nd ref="461927088"/>
    <nd ref="1103423815"/>
    <nd ref="461926811"/>
    <nd ref="461927270"/>
    <nd ref="461927260"/>
    <nd ref="461927256"/>
    <tag k="addr:city" v="Зеленоград"/>
    <tag k="addr:housenumber" v="1013"/>
    <tag k="addr:street" v="10-й Микрорайон"/>
    <tag k="building" v="yes"/>
    <tag k="building:levels" v="22"/>
    <tag k="is_in" v="Russia"/>
  </way>
  <way id="38884346" version="5" timestamp="2011-01-21T19:49:03Z" uid="115477" user="wowik" changeset="7043826">
    <nd ref="461927256"/>
    <nd ref="1103424385"/>
    <nd ref="1113654450"/>
    <nd ref="1113654453"/>
    <nd ref="1113654483"/>
    <nd ref="1113654446"/>
    <nd ref="1113654489"/>
    <nd ref="461926957"/>
    <nd ref="461926907"/>
    <nd ref="461927182"/>
    <nd ref="461927088"/>
    <nd ref="1113654475"/>
    <nd ref="1103423815"/>
    <nd ref="1113654473"/>
    <nd ref="1113654469"/>
    <nd ref="1113654461"/>
    <nd ref="1113654466"/>
    <nd ref="461926811"/>
    <nd ref="461927270"/>
    <nd ref="461927260"/>
    <nd ref="461927256"/>
    <tag k="addr:city" v="Зеленоград"/>
    <tag k="addr:housenumber" v="1013"/>
    <tag k="addr:street" v="10-й Микрорайон"/>
    <tag k="building" v="yes"/>
    <tag k="building:levels" v="22"/>
    <tag k="is_in" v="Russia"/>
  </way>
  <way id="38884346" version="6" timestamp="2011-06-07T20:46:36Z" uid="133332" user="AMDmi3" changeset="8374030">
    <nd ref="461927256"/>
    <nd ref="1103424385"/>
    <nd ref="1113654450"/>
    <nd ref="1113654453"/>
    <nd ref="1113654483"/>
    <nd ref="1113654446"/>
    <nd ref="1113654489"/>
    <nd ref="461926957"/>
    <nd ref="461926907"/>
    <nd ref="461927182"/>
    <nd ref="461927088"/>
    <nd ref="1113654475"/>
    <nd ref="1103423815"/>
    <nd ref="1113654473"/>
    <nd ref="1113654469"/>
    <nd ref="1113654461"/>
    <nd ref="1113654466"/>
    <nd ref="461926811"/>
    <nd ref="461927270"/>
    <nd ref="461927260"/>
    <nd ref="461927256"/>
    <tag k="addr:city" v="Зеленоград"/>
    <tag k="addr:housenumber" v="1013"/>
    <tag k="addr:street" v="10-й микрорайон"/>
    <tag k="building" v="yes"/>
    <tag k="building:levels" v="22"/>
    <tag k="is_in" v="Russia"/>
  </way>
  <way id="38884346" version="7" timestamp="2011-09-13T10:21:09Z" uid="29320" user="Komяpa" changeset="9288237">
    <nd ref="461927256"/>
    <nd ref="1103424385"/>
    <nd ref="1113654450"/>
    <nd ref="1113654453"/>
    <nd ref="1113654483"/>
    <nd ref="1113654446"/>
    <nd ref="1113654489"/>
    <nd ref="461926957"/>
    <nd ref="461926907"/>
    <nd ref="461927182"/>
    <nd ref="461927088"/>
    <nd ref="1113654475"/>
    <nd ref="1103423815"/>
    <nd ref="1113654473"/>
    <nd ref="1113654469"/>
    <nd ref="1113654461"/>
    <nd ref="1113654466"/>
    <nd ref="461926811"/>
    <nd ref="461927270"/>
    <nd ref="461927260"/>
    <nd ref="461927256"/>
    <tag k="addr:city" v="Зеленоград"/>
    <tag k="addr:country" v="RU"/>
    <tag k="addr:housenumber" v="1013"/>
    <tag k="addr:street" v="10-й микрорайон"/>
    <tag k="building" v="yes"/>
    <tag k="building:levels" v="22"/>
  </way>
  <way id="38884346" version="8" timestamp="2012-03-27T11:33:41Z" uid="481934" user="iWowik" changeset="11115472">
    <nd ref="461927256"/>
    <nd ref="1103424385"/>
    <nd ref="1113654450"/>
    <nd ref="1113654453"/>
    <nd ref="1113654483"/>
    <nd ref="1113654446"/>
    <nd ref="1113654489"/>
    <nd ref="461926957"/>
    <nd ref="461926907"/>
    <nd ref="461927182"/>
    <nd ref="461927088"/>
    <nd ref="1113654475"/>
    <nd ref="1103423815"/>
    <nd ref="1113654473"/>
    <nd ref="1113654469"/>
    <nd ref="1113654461"/>
    <nd ref="1113654466"/>
    <nd ref="461926811"/>
    <nd ref="461927270"/>
    <nd ref="461927260"/>
    <nd ref="461927256"/>
    <tag k="addr:city" v="Зеленоград"/>
    <tag k="addr:country" v="RU"/>
    <tag k="addr:housenumber" v="1013"/>
    <tag k="addr:region" v="Москва"/>
    <tag k="addr:street" v="10-й микрорайон"/>
    <tag k="building" v="yes"/>
    <tag k="building:levels" v="22"/>
  </way>
  <way id="38884347" version="4" timestamp="2010-11-25T10:14:40Z" uid="115477" user="wowik" changeset="6453331">
    <nd ref="461926981"/>
    <nd ref="461926823"/>
    <nd ref="461927249"/>
    <nd ref="461927284"/>
    <nd ref="461926981"/>
    <tag k="addr:city" v="Зеленоград"/>
    <tag k="addr:housenumber" v="11А"/>
    <tag k="addr:street" v="улица Гоголя"/>
    <tag k="building" v="yes"/>
    <tag k="cladr:code" v="77000002000109000"/>
    <tag k="is_in" v="Russia"/>
  </way>
  <way id="38884347" version="5" timestamp="2011-01-21T19:48:58Z" uid="115477" user="wowik" changeset="7043826">
    <nd ref="461926981"/>
    <nd ref="461926823"/>
    <nd ref="461927249"/>
    <nd ref="461927284"/>
    <nd ref="461926981"/>
    <tag k="addr:city" v="Зеленоград"/>
    <tag k="addr:housenumber" v="11А"/>
    <tag k="addr:street" v="улица Гоголя"/>
    <tag k="building" v="yes"/>
    <tag k="building:levels" v="5"/>
    <tag k="cladr:code" v="77000002000109000"/>
    <tag k="is_in" v="Russia"/>
  </way>
  <way id="38884347" version="6" timestamp="2011-09-13T10:21:47Z" uid="29320" user="Komяpa" changeset="9288237">
    <nd ref="461926981"/>
    <nd ref="461926823"/>
    <nd ref="461927249"/>
    <nd ref="461927284"/>
    <nd ref="461926981"/>
    <tag k="addr:city" v="Зеленоград"/>
    <tag k="addr:country" v="RU"/>
    <tag k="addr:housenumber" v="11А"/>
    <tag k="addr:street" v="улица Гоголя"/>
    <tag k="building" v="yes"/>
    <tag k="building:levels" v="5"/>
    <tag k="cladr:code" v="77000002000109000"/>
  </way>
  <way id="38884347" version="7" timestamp="2012-03-27T11:34:41Z" uid="481934" user="iWowik" changeset="11115472">
    <nd ref="461926981"/>
    <nd ref="461926823"/>
    <nd ref="461927249"/>
    <nd ref="461927284"/>
    <nd ref="461926981"/>
    <tag k="addr:city" v="Зеленоград"/>
    <tag k="addr:country" v="RU"/>
    <tag k="addr:housenumber" v="11А"/>
    <tag k="addr:region" v="Москва"/>
    <tag k="addr:street" v="улица Гоголя"/>
    <tag k="building" v="yes"/>
    <tag k="building:levels" v="5"/>
    <tag k="cladr:code" v="77000002000109000"/>
  </way>
  <way id="38884656" version="2" timestamp="2010-03-28T11:03:12Z" uid="20587" user="balrog-kun" changeset="4254597">
    <nd ref="461933765"/>
    <nd ref="461933781"/>
    <tag k="bridge" v="yes"/>
    <tag k="highway" v="residential"/>
    <tag k="name" v="Norumbega Road"/>
    <tag k="name_1" v="Norumbega Drive"/>
    <tag k="tiger:cfcc" v="A41"/>
    <tag k="tiger:county" v="Los Angeles, CA"/>
    <tag k="tiger:name_base" v="Norumbega"/>
    <tag k="tiger:name_base_1" v="Norumbega"/>
    <tag k="tiger:name_type" v="Rd"/>
    <tag k="tiger:name_type_1" v="Dr"/>
    <tag k="tiger:reviewed" v="no"/>
    <tag k="tiger:separated" v="no"/>
    <tag k="tiger:source" v="tiger_import_dch_v0.6_20070809"/>
    <tag k="tiger:tlid" v="142248635:142248664:142248665:142248667:142248670:142248673:142248676:141646129:141646133:141646145:141646187"/>
    <tag k="tiger:zip_left" v="91016"/>
    <tag k="tiger:zip_right" v="91016"/>
  </way>
  <way id="38884656" version="3" timestamp="2010-11-22T04:53:45Z" uid="194231" user="Chris Bell in California" changeset="6428825">
    <nd ref="461933765"/>
    <nd ref="461933781"/>
    <tag k="bridge" v="yes"/>
    <tag k="highway" v="residential"/>
    <tag k="layer" v="1"/>
    <tag k="name" v="Norumbega Road"/>
    <tag k="name_1" v="Norumbega Drive"/>
    <tag k="tiger:cfcc" v="A41"/>
    <tag k="tiger:county" v="Los Angeles, CA"/>
    <tag k="tiger:name_base" v="Norumbega"/>
    <tag k="tiger:name_base_1" v="Norumbega"/>
    <tag k="tiger:name_type" v="Rd"/>
    <tag k="tiger:name_type_1" v="Dr"/>
    <tag k="tiger:reviewed" v="no"/>
    <tag k="tiger:separated" v="no"/>
    <tag k="tiger:source" v="tiger_import_dch_v0.6_20070809"/>
    <tag k="tiger:tlid" v="142248635:142248664:142248665:142248667:142248670:142248673:142248676:141646129:141646133:141646145:141646187"/>
    <tag k="tiger:zip_left" v="91016"/>
    <tag k="tiger:zip_right" v="91016"/>
  </way>
</osm>
