<?xml version='1.0' encoding='UTF-8'?>
<osm version="0.6" generator="libosmium/2.20.0">
  <way id="39109327" version="2" timestamp="2009-11-09T20:09:13Z" uid="36809" user="pfoten_weg_!_" changeset="3076946">
    <nd ref="351882274"/>
    <nd ref="467648163"/>
    <nd ref="467648123"/>
    <nd ref="467648127"/>
    <nd ref="467648144"/>
    <nd ref="467648148"/>
    <nd ref="467648152"/>
    <nd ref="467648155"/>
    <tag k="highway" v="residential"/>
    <tag k="name" v="Waldstraße"/>
  </way>
  <way id="39109327" version="3" timestamp="2009-11-09T20:37:25Z" uid="36809" user="pfoten_weg_!_" changeset="3077264">
    <nd ref="351882274"/>
    <nd ref="467648163"/>
    <nd ref="467648123"/>
    <nd ref="467648127"/>
    <nd ref="467648144"/>
    <nd ref="467648148"/>
    <nd ref="467648152"/>
    <nd ref="467648155"/>
    <tag k="highway" v="residential"/>
    <tag k="name" v="Waldstraße"/>
  </way>
  <way id="39109327" version="4" timestamp="2009-12-21T21:45:55Z" uid="64756" user="alegria6208" changeset="3423399">
    <nd ref="351882274"/>
    <nd ref="467648163"/>
    <nd ref="467648123"/>
    <nd ref="467648127"/>
    <nd ref="467648144"/>
    <nd ref="467648148"/>
    <nd ref="467648152"/>
    <nd ref="467648155"/>
    <tag k="highway" v="residential"/>
    <tag k="name" v="Waldstraße"/>
    <tag k="oneway" v="no"/>
  </way>
  <way id="39109327" version="5" timestamp="2011-10-24T16:42:54Z" uid="8748" user="ToniE" changeset="9645024">
    <nd ref="351882274"/>
    <nd ref="467648163"/>
    <nd ref="467648123"/>
    <nd ref="1479230656"/>
    <nd ref="467648127"/>
    <nd ref="467648144"/>
    <nd ref="467648148"/>
    <nd ref="467648152"/>
    <nd ref="467648155"/>
    <tag k="highway" v="residential"/>
    <tag k="name" v="Waldstraße"/>
    <tag k="oneway" v="no"/>
  </way>
  <way id="39109328" version="2" timestamp="2009-11-09T20:09:25Z" uid="36809" user="pfoten_weg_!_" changeset="3076946">
    <nd ref="467648158"/>
    <nd ref="467648161"/>
    <nd ref="467648152"/>
    <tag k="highway" v="residential"/>
    <tag k="name" v="Waldstraße"/>
  </way>
  <way id="39109328" version="3" timestamp="2009-11-09T20:37:39Z" uid="36809" user="pfoten_weg_!_" changeset="3077264">
    <nd ref="467648158"/>
    <nd ref="467648161"/>
    <nd ref="467648152"/>
    <tag k="highway" v="residential"/>
    <tag k="name" v="Waldstraße"/>
  </way>
  <way id="39109329" version="2" timestamp="2009-11-09T20:09:24Z" uid="36809" user="pfoten_weg_!_" changeset="3076946">
    <nd ref="467648163"/>
    <nd ref="467648167"/>
    <tag k="highway" v="residential"/>
    <tag k="name" v="Waldstraße"/>
  </way>
  <way id="39109329" version="3" timestamp="2009-11-09T20:37:38Z" uid="36809" user="pfoten_weg_!_" changeset="3077264">
    <nd ref="467648163"/>
    <nd ref="467648167"/>
    <tag k="highway" v="residential"/>
    <tag k="name" v="Waldstraße"/>
  </way>
  <way id="39109330" version="2" timestamp="2009-11-09T20:09:12Z" uid="36809" user="pfoten_weg_!_" changeset="3076946">
    <nd ref="351882320"/>
    <nd ref="467648169"/>
    <nd ref="467648171"/>
    <nd ref="467648127"/>
    <tag k="highway" v="residential"/>
    <tag k="name" v="Egerländer Straße"/>
  </way>
  <way id="39109330" version="3" timestamp="2009-11-09T20:37:24Z" uid="36809" user="pfoten_weg_!_" changeset="3077264">
    <nd ref="351882320"/>
    <nd ref="467648169"/>
    <nd ref="467648171"/>
    <nd ref="467648127"/>
    <tag k="highway" v="residential"/>
    <tag k="name" v="Egerländer Straße"/>
  </way>
  <way id="39109330" version="4" timestamp="2009-12-21T21:45:55Z" uid="64756" user="alegria6208" changeset="3423399">
    <nd ref="351882320"/>
    <nd ref="467648169"/>
    <nd ref="467648171"/>
    <nd ref="467648127"/>
    <tag k="highway" v="residential"/>
    <tag k="name" v="Egerländer Straße"/>
    <tag k="oneway" v="no"/>
  </way>
  <way id="39109331" version="2" timestamp="2009-11-09T20:09:12Z" uid="36809" user="pfoten_weg_!_" changeset="3076946">
    <nd ref="467648174"/>
    <nd ref="467648177"/>
    <nd ref="467648123"/>
    <tag k="highway" v="residential"/>
    <tag k="name" v="Birkenweg"/>
  </way>
  <way id="39109331" version="3" timestamp="2009-11-09T20:37:24Z" uid="36809" user="pfoten_weg_!_" changeset="3077264">
    <nd ref="467648174"/>
    <nd ref="467648177"/>
    <nd ref="467648123"/>
    <tag k="highway" v="residential"/>
    <tag k="name" v="Birkenweg"/>
  </way>
  <way id="39109331" version="4" timestamp="2010-07-12T15:55:43Z" uid="64756" user="alegria6208" changeset="5200070">
    <nd ref="467648174"/>
    <nd ref="467648177"/>
    <tag k="highway" v="residential"/>
    <tag k="name" v="Birkenweg"/>
  </way>
  <way id="39109331" version="5" timestamp="2010-07-13T18:11:06Z" uid="145231" user="woodpeck_repair" changeset="5210220">
    <nd ref="467648174"/>
    <nd ref="467648177"/>
    <nd ref="467648123"/>
    <tag k="highway" v="residential"/>
    <tag k="name" v="Birkenweg"/>
  </way>
  <way id="39109332" version="2" timestamp="2009-11-09T20:09:23Z" uid="36809" user="pfoten_weg_!_" changeset="3076946">
    <nd ref="467648179"/>
    <nd ref="467648182"/>
    <tag k="highway" v="residential"/>
    <tag k="name" v="Erlenweg"/>
  </way>
  <way id="39109332" version="3" timestamp="2009-11-09T20:37:37Z" uid="36809" user="pfoten_weg_!_" changeset="3077264">
    <nd ref="467648179"/>
    <nd ref="467648182"/>
    <tag k="highway" v="residential"/>
    <tag k="name" v="Erlenweg"/>
  </way>
  <way id="39109332" version="4" timestamp="2009-12-21T21:45:56Z" uid="64756" user="alegria6208" changeset="3423399">
    <nd ref="467648179"/>
    <nd ref="534467238"/>
    <tag k="highway" v="residential"/>
    <tag k="name" v="Erlenweg"/>
    <tag k="oneway" v="no"/>
  </way>
  <way id="39109332" version="5" timestamp="2011-01-07T22:56:51Z" uid="42478" user="Peter-Hierholzer" changeset="6898605">
    <nd ref="467648179"/>
    <nd ref="534467238"/>
    <tag k="highway" v="residential"/>
    <tag k="name" v="Erlenweg"/>
    <tag k="oneway" v="no"/>
  </way>
  <way id="39109333" version="2" timestamp="2009-11-09T20:09:22Z" uid="36809" user="pfoten_weg_!_" changeset="3076946">
    <nd ref="467648184"/>
    <nd ref="467648187"/>
    <nd ref="467648190"/>
    <nd ref="467648193"/>
    <nd ref="467648197"/>
    <tag k="highway" v="residential"/>
    <tag k="name" v="Kirnbergwiese"/>
  </way>
  <way id="39109333" version="3" timestamp="2009-11-09T20:37:36Z" uid="36809" user="pfoten_weg_!_" changeset="3077264">
    <nd ref="467648184"/>
    <nd ref="467648187"/>
    <nd ref="467648190"/>
    <nd ref="467648193"/>
    <nd ref="467648197"/>
    <tag k="highway" v="residential"/>
    <tag k="name" v="Kirnbergwiese"/>
  </way>
  <way id="39109333" version="4" timestamp="2009-12-21T21:45:56Z" uid="64756" user="alegria6208" changeset="3423399">
    <nd ref="467648184"/>
    <nd ref="467648187"/>
    <nd ref="467648190"/>
    <nd ref="467648193"/>
    <nd ref="467648197"/>
    <tag k="highway" v="residential"/>
    <tag k="name" v="Kirnbergwiese"/>
    <tag k="oneway" v="no"/>
  </way>
  <way id="39109333" version="5" timestamp="2011-01-07T22:58:09Z" uid="42478" user="Peter-Hierholzer" changeset="6898605">
    <nd ref="467648184"/>
    <nd ref="467648187"/>
    <nd ref="467648190"/>
    <nd ref="467648193"/>
    <nd ref="467648197"/>
    <tag k="highway" v="residential"/>
    <tag k="name" v="Kirnbergwiese"/>
    <tag k="oneway" v="no"/>
  </way>
  <way id="39109334" version="2" timestamp="2009-11-09T20:09:24Z" uid="36809" user="pfoten_weg_!_" changeset="3076946">
    <nd ref="467648190"/>
    <nd ref="467648199"/>
    <nd ref="467648203"/>
    <nd ref="467648207"/>
    <nd ref="467648205"/>
    <tag k="highway" v="residential"/>
    <tag k="name" v="Eichenweg"/>
  </way>
  <way id="39109334" version="3" timestamp="2009-11-09T20:37:38Z" uid="36809" user="pfoten_weg_!_" changeset="3077264">
    <nd ref="467648190"/>
    <nd ref="467648199"/>
    <nd ref="467648203"/>
    <nd ref="467648207"/>
    <nd ref="467648205"/>
    <tag k="highway" v="residential"/>
    <tag k="name" v="Eichenweg"/>
  </way>
  <way id="39109334" version="4" timestamp="2009-12-21T21:45:56Z" uid="64756" user="alegria6208" changeset="3423399">
    <nd ref="467648190"/>
    <nd ref="467648199"/>
    <nd ref="467648203"/>
    <nd ref="467648207"/>
    <nd ref="467648205"/>
    <tag k="highway" v="residential"/>
    <tag k="name" v="Eichenweg"/>
    <tag k="oneway" v="no"/>
  </way>
  <way id="39109335" version="2" timestamp="2009-11-09T20:09:23Z" uid="36809" user="pfoten_weg_!_" changeset="3076946">
    <nd ref="467648207"/>
    <nd ref="467648211"/>
    <tag k="highway" v="residential"/>
    <tag k="name" v="Eichenweg"/>
  </way>
  <way id="39109335" version="3" timestamp="2009-11-09T20:37:37Z" uid="36809" user="pfoten_weg_!_" changeset="3077264">
    <nd ref="467648207"/>
    <nd ref="467648211"/>
    <tag k="highway" v="residential"/>
    <tag k="name" v="Eichenweg"/>
  </way>
  <way id="39109335" version="4" timestamp="2009-12-21T21:45:55Z" uid="64756" user="alegria6208" changeset="3423399">
    <nd ref="467648207"/>
    <nd ref="467648211"/>
    <tag k="highway" v="residential"/>
    <tag k="name" v="Eichenweg"/>
    <tag k="oneway" v="no"/>
  </way>
  <way id="39109336" version="2" timestamp="2009-11-09T20:08:54Z" uid="36809" user="pfoten_weg_!_" changeset="3076946">
    <nd ref="467648213"/>
    <nd ref="467648217"/>
    <nd ref="467648218"/>
    <nd ref="467648184"/>
    <tag k="highway" v="footway"/>
    <tag k="surface" v="paved"/>
  </way>
  <way id="39109336" version="3" timestamp="2009-11-09T20:37:03Z" uid="36809" user="pfoten_weg_!_" changeset="3077264">
    <nd ref="467648213"/>
    <nd ref="467648217"/>
    <nd ref="467648218"/>
    <nd ref="467648184"/>
    <tag k="highway" v="footway"/>
    <tag k="surface" v="paved"/>
  </way>
  <way id="39109336" version="4" timestamp="2011-03-26T21:16:52Z" uid="118197" user="JosmJo" changeset="7680219">
    <nd ref="467648213"/>
    <nd ref="1219701997"/>
    <nd ref="467648217"/>
    <nd ref="467648218"/>
    <nd ref="467648184"/>
    <tag k="highway" v="footway"/>
    <tag k="surface" v="paved"/>
  </way>
  <way id="39109336" version="5" timestamp="2012-03-27T22:22:31Z" uid="148776" user="meridianeum" changeset="11121675">
    <nd ref="467648213"/>
    <nd ref="1693884711"/>
    <nd ref="1219701997"/>
    <nd ref="467648217"/>
    <nd ref="467648218"/>
    <nd ref="467648184"/>
    <tag k="highway" v="footway"/>
    <tag k="surface" v="paved"/>
  </way>
</osm>
