<?xml version='1.0' encoding='UTF-8'?>
<osm version="0.6" generator="libosmium/2.20.0">
  <way id="39236010" version="1" timestamp="2009-08-17T21:07:40Z" uid="18775" user="drlizau" changeset="2183475">
    <nd ref="261737508"/>
    <nd ref="356211199"/>
    <nd ref="252819902"/>
    <nd ref="367331811"/>
    <nd ref="30102007"/>
    <nd ref="357894092"/>
    <tag k="highway" v="secondary"/>
    <tag k="name" v="Tarcutta Street"/>
  </way>
  <way id="39236010" version="2" timestamp="2011-02-27T08:29:00Z" uid="18775" user="drlizau" changeset="7407761">
    <nd ref="261737508"/>
    <nd ref="356211199"/>
    <nd ref="252819902"/>
    <nd ref="367331811"/>
    <nd ref="30102007"/>
    <nd ref="357894092"/>
    <tag k="highway" v="secondary"/>
    <tag k="maxspeed" v="50"/>
    <tag k="name" v="Tarcutta Street"/>
  </way>
  <way id="39236011" version="1" timestamp="2009-08-17T21:07:40Z" uid="18775" user="drlizau" changeset="2183475">
    <nd ref="261737508"/>
    <nd ref="356211216"/>
    <nd ref="356211225"/>
    <nd ref="261737509"/>
    <tag k="highway" v="residential"/>
    <tag k="name" v="Johnson Street"/>
  </way>
  <way id="39236011" version="2" timestamp="2010-07-07T08:05:45Z" uid="74617" user="JohnSmith" changeset="5156250">
    <nd ref="261737508"/>
    <nd ref="356211216"/>
    <nd ref="356211225"/>
    <nd ref="261737509"/>
    <tag k="highway" v="residential"/>
    <tag k="maxspeed" v="50"/>
    <tag k="maxspeed:source" v="default residential speed limit in Australia"/>
    <tag k="name" v="Johnson Street"/>
  </way>
  <way id="39236011" version="3" timestamp="2012-01-19T03:27:53Z" uid="147510" user="woodpeck_fixbot" changeset="10433650">
    <nd ref="261737508"/>
    <nd ref="356211216"/>
    <nd ref="356211225"/>
    <nd ref="261737509"/>
    <tag k="highway" v="residential"/>
    <tag k="name" v="Johnson Street"/>
  </way>
  <way id="39236012" version="1" timestamp="2009-08-17T21:07:41Z" uid="18775" user="drlizau" changeset="2183475">
    <nd ref="261737507"/>
    <nd ref="261737508"/>
    <tag k="highway" v="secondary"/>
    <tag k="name" v="Johnson Street"/>
  </way>
  <way id="39236012" version="2" timestamp="2010-07-29T16:10:19Z" uid="74617" user="JohnSmith" changeset="5347963">
    <nd ref="261737507"/>
    <nd ref="837695351"/>
    <nd ref="261737508"/>
    <tag k="highway" v="secondary"/>
    <tag k="name" v="Johnson Street"/>
  </way>
  <way id="39236012" version="3" timestamp="2011-02-27T06:48:29Z" uid="18775" user="drlizau" changeset="7407204">
    <nd ref="261737507"/>
    <nd ref="837695351"/>
    <nd ref="261737508"/>
    <tag k="highway" v="secondary"/>
    <tag k="maxspeed" v="50"/>
    <tag k="name" v="Johnson Street"/>
  </way>
  <way id="39236346" version="3" timestamp="2009-08-24T22:04:46Z" uid="36809" user="pfoten_weg_!_" changeset="2250603">
    <nd ref="286710677"/>
    <nd ref="286709285"/>
    <nd ref="286709403"/>
    <nd ref="286712569"/>
    <tag k="highway" v="residential"/>
    <tag k="lit" v="yes"/>
    <tag k="name" v="Dünenstraße"/>
    <tag k="nore:de" v="Warnung"/>
    <tag k="note" v="FIXME: ist dieser Teil living_street oder residential?"/>
    <tag k="smoothness" v="good"/>
    <tag k="surface" v="cobblestone"/>
  </way>
  <way id="39236346" version="4" timestamp="2009-08-24T22:33:46Z" uid="36809" user="pfoten_weg_!_" changeset="2250754">
    <nd ref="286710677"/>
    <nd ref="286709285"/>
    <nd ref="286709403"/>
    <nd ref="286712569"/>
    <tag k="highway" v="residential"/>
    <tag k="lit" v="yes"/>
    <tag k="name" v="Dünenstraße"/>
    <tag k="note" v="FIXME: ist dieser Teil living_street oder residential?"/>
    <tag k="smoothness" v="good"/>
    <tag k="surface" v="cobblestone"/>
  </way>
  <way id="39236346" version="5" timestamp="2009-08-24T22:48:28Z" uid="36809" user="pfoten_weg_!_" changeset="2250819">
    <nd ref="286710677"/>
    <nd ref="286709285"/>
    <nd ref="286709403"/>
    <nd ref="286712569"/>
    <tag k="discovered_by" v="RambaZamba"/>
    <tag k="highway" v="residential"/>
    <tag k="lit" v="yes"/>
    <tag k="name" v="Dünenstraße"/>
    <tag k="note" v="FIXME: ist dieser Teil living_street oder residential?"/>
    <tag k="smoothness" v="good"/>
    <tag k="surface" v="cobblestone"/>
  </way>
  <way id="39236346" version="6" timestamp="2009-08-30T07:08:02Z" uid="6808" user="wwwFrank" changeset="2309486">
    <nd ref="286710677"/>
    <nd ref="286709285"/>
    <nd ref="286709403"/>
    <nd ref="286712569"/>
    <tag k="highway" v="residential"/>
    <tag k="lit" v="yes"/>
    <tag k="name" v="Dünenstraße"/>
    <tag k="note" v="FIXME: ist dieser Teil living_street oder residential?"/>
    <tag k="smoothness" v="good"/>
    <tag k="surface" v="cobblestone"/>
  </way>
  <way id="39236346" version="7" timestamp="2009-08-31T22:20:50Z" uid="36809" user="pfoten_weg_!_" changeset="2332133">
    <nd ref="286710677"/>
    <nd ref="286709285"/>
    <nd ref="286709403"/>
    <nd ref="286712569"/>
    <tag k="highway" v="residential"/>
    <tag k="lit" v="yes"/>
    <tag k="name" v="Dünenstraße"/>
    <tag k="note" v="FIXME: ist dieser Teil living_street oder residential?"/>
    <tag k="smoothness" v="good"/>
    <tag k="surface" v="cobblestone"/>
  </way>
  <way id="39236346" version="8" timestamp="2009-09-27T22:15:50Z" uid="49785" user="mike67" changeset="2659094">
    <nd ref="286710677"/>
    <nd ref="286709285"/>
    <nd ref="286709403"/>
    <nd ref="286712569"/>
    <tag k="highway" v="living_street"/>
    <tag k="lit" v="yes"/>
    <tag k="name" v="Dünenstraße"/>
    <tag k="smoothness" v="good"/>
    <tag k="surface" v="cobblestone"/>
  </way>
  <way id="39236346" version="9" timestamp="2011-10-09T10:24:18Z" uid="406370" user="maptin" changeset="9510438">
    <nd ref="286710677"/>
    <nd ref="286709285"/>
    <nd ref="286709403"/>
    <nd ref="286712569"/>
    <tag k="highway" v="living_street"/>
    <tag k="lit" v="yes"/>
    <tag k="maxspeed" v="7"/>
    <tag k="name" v="Dünenstraße"/>
    <tag k="smoothness" v="good"/>
    <tag k="surface" v="cobblestone"/>
  </way>
  <way id="39236346" version="10" timestamp="2011-10-30T16:39:42Z" uid="25720" user="!i!" changeset="9695492">
    <nd ref="286710677"/>
    <nd ref="286709285"/>
    <nd ref="286709403"/>
    <nd ref="1485893829"/>
    <nd ref="286712569"/>
    <tag k="highway" v="living_street"/>
    <tag k="lit" v="yes"/>
    <tag k="maxspeed" v="7"/>
    <tag k="name" v="Dünenstraße"/>
    <tag k="smoothness" v="good"/>
    <tag k="surface" v="cobblestone"/>
  </way>
  <way id="39236346" version="11" timestamp="2012-01-03T08:27:59Z" uid="55462" user="Lübeck" changeset="10278995"/>
  <way id="39236347" version="2" timestamp="2009-08-24T22:06:05Z" uid="36809" user="pfoten_weg_!_" changeset="2250603">
    <nd ref="470038249"/>
    <nd ref="286709384"/>
    <nd ref="286709277"/>
    <nd ref="286709398"/>
    <nd ref="286709399"/>
    <nd ref="286709281"/>
    <nd ref="286709401"/>
    <nd ref="286710677"/>
    <tag k="highway" v="living_street"/>
    <tag k="lit" v="yes"/>
    <tag k="name" v="Dünenstraße"/>
    <tag k="nore:de" v="Warnung"/>
    <tag k="source" v="survey, photo"/>
    <tag k="surface" v="cobblestone"/>
  </way>
  <way id="39236347" version="3" timestamp="2009-08-24T22:34:30Z" uid="36809" user="pfoten_weg_!_" changeset="2250754">
    <nd ref="470038249"/>
    <nd ref="286709384"/>
    <nd ref="286709277"/>
    <nd ref="286709398"/>
    <nd ref="286709399"/>
    <nd ref="286709281"/>
    <nd ref="286709401"/>
    <nd ref="286710677"/>
    <tag k="highway" v="living_street"/>
    <tag k="lit" v="yes"/>
    <tag k="name" v="Dünenstraße"/>
    <tag k="source" v="survey, photo"/>
    <tag k="surface" v="cobblestone"/>
  </way>
  <way id="39236347" version="4" timestamp="2009-08-24T22:50:26Z" uid="36809" user="pfoten_weg_!_" changeset="2250819">
    <nd ref="470038249"/>
    <nd ref="286709384"/>
    <nd ref="286709277"/>
    <nd ref="286709398"/>
    <nd ref="286709399"/>
    <nd ref="286709281"/>
    <nd ref="286709401"/>
    <nd ref="286710677"/>
    <tag k="discovered_by" v="RambaZamba"/>
    <tag k="highway" v="living_street"/>
    <tag k="lit" v="yes"/>
    <tag k="name" v="Dünenstraße"/>
    <tag k="source" v="survey, photo"/>
    <tag k="surface" v="cobblestone"/>
  </way>
  <way id="39236347" version="5" timestamp="2009-08-30T07:08:05Z" uid="6808" user="wwwFrank" changeset="2309486">
    <nd ref="470038249"/>
    <nd ref="286709384"/>
    <nd ref="286709277"/>
    <nd ref="286709398"/>
    <nd ref="286709399"/>
    <nd ref="286709281"/>
    <nd ref="286709401"/>
    <nd ref="286710677"/>
    <tag k="highway" v="living_street"/>
    <tag k="lit" v="yes"/>
    <tag k="name" v="Dünenstraße"/>
    <tag k="source" v="survey, photo"/>
    <tag k="surface" v="cobblestone"/>
  </way>
  <way id="39236347" version="6" timestamp="2009-08-31T22:22:11Z" uid="36809" user="pfoten_weg_!_" changeset="2332133">
    <nd ref="470038249"/>
    <nd ref="286709384"/>
    <nd ref="286709277"/>
    <nd ref="286709398"/>
    <nd ref="286709399"/>
    <nd ref="286709281"/>
    <nd ref="286709401"/>
    <nd ref="286710677"/>
    <tag k="highway" v="living_street"/>
    <tag k="lit" v="yes"/>
    <tag k="name" v="Dünenstraße"/>
    <tag k="source" v="survey, photo"/>
    <tag k="surface" v="cobblestone"/>
  </way>
  <way id="39236347" version="7" timestamp="2009-10-03T08:41:30Z" uid="179968" user="Ich_hasse_doitsche_OSM-Korinthenkacker" changeset="2720861">
    <nd ref="470038249"/>
    <nd ref="286709384"/>
    <nd ref="286709277"/>
    <nd ref="286709398"/>
    <nd ref="286709399"/>
    <nd ref="286709281"/>
    <nd ref="286709401"/>
    <nd ref="286710677"/>
    <tag k="highway" v="living_street"/>
    <tag k="lit" v="yes"/>
    <tag k="name" v="Dünenstraße"/>
    <tag k="surface" v="cobblestone"/>
  </way>
  <way id="39236347" version="8" timestamp="2010-10-10T10:09:35Z" uid="6808" user="wwwFrank" changeset="6000328">
    <nd ref="470038249"/>
    <nd ref="286709384"/>
    <nd ref="286709277"/>
    <nd ref="286709398"/>
    <nd ref="286709399"/>
    <nd ref="286709281"/>
    <nd ref="286709401"/>
    <nd ref="286710677"/>
    <tag k="highway" v="living_street"/>
    <tag k="lit" v="yes"/>
    <tag k="name" v="Dünenstraße"/>
    <tag k="surface" v="cobblestone"/>
  </way>
  <way id="39236347" version="9" timestamp="2011-10-09T10:24:19Z" uid="406370" user="maptin" changeset="9510438">
    <nd ref="470038249"/>
    <nd ref="286709384"/>
    <nd ref="286709277"/>
    <nd ref="286709398"/>
    <nd ref="286709399"/>
    <nd ref="286709281"/>
    <nd ref="286709401"/>
    <nd ref="286710677"/>
    <tag k="highway" v="living_street"/>
    <tag k="lit" v="yes"/>
    <tag k="maxspeed" v="7"/>
    <tag k="name" v="Dünenstraße"/>
    <tag k="surface" v="cobblestone"/>
  </way>
  <way id="39236347" version="10" timestamp="2012-01-02T15:21:14Z" uid="55462" user="Lübeck" changeset="10271699">
    <nd ref="291920209"/>
    <nd ref="470038249"/>
    <nd ref="1574180598"/>
    <nd ref="286709384"/>
    <nd ref="286709277"/>
    <nd ref="1574180611"/>
    <nd ref="286709398"/>
    <nd ref="286709399"/>
    <nd ref="286709281"/>
    <nd ref="286709401"/>
    <nd ref="286710677"/>
    <tag k="highway" v="living_street"/>
    <tag k="lit" v="yes"/>
    <tag k="maxspeed" v="7"/>
    <tag k="name" v="Dünenstraße"/>
    <tag k="surface" v="cobblestone"/>
  </way>
  <way id="39236347" version="11" timestamp="2012-01-03T08:28:00Z" uid="55462" user="Lübeck" changeset="10278995"/>
</osm>
