<?xml version='1.0' encoding='UTF-8'?>
<osm version="0.6" generator="libosmium/2.20.0">
  <way id="39303007" version="5" timestamp="2009-08-26T07:58:38Z" uid="36809" user="pfoten_weg_!_" changeset="2264635">
    <nd ref="286981180"/>
    <nd ref="471329867"/>
    <tag k="foot" v="yes"/>
    <tag k="highway" v="path"/>
    <tag k="source" v="survey"/>
  </way>
  <way id="39303007" version="6" timestamp="2009-08-27T17:15:12Z" uid="36809" user="pfoten_weg_!_" changeset="2280372"/>
  <way id="39303008" version="2" timestamp="2009-08-24T09:10:37Z" uid="36809" user="pfoten_weg_!_" changeset="2241436"/>
  <way id="39303009" version="3" timestamp="2009-08-24T09:10:36Z" uid="36809" user="pfoten_weg_!_" changeset="2241436"/>
  <way id="39303010" version="2" timestamp="2009-08-24T09:10:37Z" uid="36809" user="pfoten_weg_!_" changeset="2241436"/>
  <way id="39303011" version="3" timestamp="2009-08-26T07:59:09Z" uid="36809" user="pfoten_weg_!_" changeset="2264635">
    <nd ref="470949308"/>
    <nd ref="470949309"/>
    <nd ref="470949310"/>
    <nd ref="470949311"/>
    <nd ref="470949308"/>
    <tag k="addr:housenumber" v="5,7"/>
    <tag k="addr:street" v="Plattlinger Straße"/>
    <tag k="building" v="yes"/>
    <tag k="source" v="Yahoo;survey"/>
  </way>
  <way id="39303011" version="4" timestamp="2009-10-02T20:43:27Z" uid="86259" user="hasse_osm_korinthenkacker" changeset="2717407"/>
  <way id="39303012" version="3" timestamp="2009-08-26T07:59:28Z" uid="36809" user="pfoten_weg_!_" changeset="2264635">
    <nd ref="470949313"/>
    <nd ref="470949315"/>
    <nd ref="470949312"/>
    <nd ref="470949314"/>
    <nd ref="470949313"/>
    <tag k="addr:housenumber" v="9,11"/>
    <tag k="addr:street" v="Plattlinger Straße"/>
    <tag k="building" v="yes"/>
    <tag k="source" v="Yahoo;survey"/>
  </way>
  <way id="39303012" version="4" timestamp="2009-10-02T20:43:27Z" uid="86259" user="hasse_osm_korinthenkacker" changeset="2717407"/>
  <way id="39303013" version="3" timestamp="2009-08-26T07:58:50Z" uid="36809" user="pfoten_weg_!_" changeset="2264635">
    <nd ref="470949317"/>
    <nd ref="470949319"/>
    <nd ref="470949316"/>
    <nd ref="470949318"/>
    <nd ref="470949317"/>
    <tag k="addr:housenumber" v="13,15"/>
    <tag k="addr:street" v="Plattlinger Straße"/>
    <tag k="building" v="yes"/>
    <tag k="source" v="Yahoo;survey"/>
  </way>
  <way id="39303013" version="4" timestamp="2009-10-02T20:43:27Z" uid="86259" user="hasse_osm_korinthenkacker" changeset="2717407"/>
  <way id="39303015" version="3" timestamp="2009-08-26T07:59:17Z" uid="36809" user="pfoten_weg_!_" changeset="2264635">
    <nd ref="470949321"/>
    <nd ref="470949323"/>
    <nd ref="470949320"/>
    <nd ref="470949322"/>
    <nd ref="470949321"/>
    <tag k="addr:housenumber" v="17,19,21"/>
    <tag k="addr:street" v="Plattlinger Straße"/>
    <tag k="building" v="yes"/>
    <tag k="source" v="Yahoo;survey"/>
  </way>
  <way id="39303015" version="4" timestamp="2009-10-02T20:43:27Z" uid="86259" user="hasse_osm_korinthenkacker" changeset="2717407"/>
  <way id="39303017" version="3" timestamp="2009-08-26T07:58:55Z" uid="36809" user="pfoten_weg_!_" changeset="2264635">
    <nd ref="470949324"/>
    <nd ref="470949325"/>
    <nd ref="470949326"/>
    <nd ref="470949327"/>
    <nd ref="470949324"/>
    <tag k="addr:housenumber" v="63"/>
    <tag k="addr:street" v="Grünbauerstraße"/>
    <tag k="building" v="yes"/>
    <tag k="source" v="Yahoo;survey"/>
  </way>
  <way id="39303017" version="4" timestamp="2009-10-02T20:43:27Z" uid="86259" user="hasse_osm_korinthenkacker" changeset="2717407"/>
  <way id="39303019" version="3" timestamp="2009-08-26T07:58:39Z" uid="36809" user="pfoten_weg_!_" changeset="2264635">
    <nd ref="470949328"/>
    <nd ref="470949329"/>
    <nd ref="470949330"/>
    <nd ref="470949331"/>
    <nd ref="470949328"/>
    <tag k="addr:street" v="Grünbauerstraße"/>
    <tag k="building" v="yes"/>
    <tag k="source" v="Yahoo;survey"/>
  </way>
  <way id="39303019" version="4" timestamp="2009-10-03T17:43:10Z" uid="179968" user="Ich_hasse_doitsche_OSM-Korinthenkacker" changeset="2727120">
    <nd ref="470949328"/>
    <nd ref="470949329"/>
    <nd ref="470949330"/>
    <nd ref="470949331"/>
    <nd ref="470949328"/>
    <tag k="addr:street" v="Grünbauerstraße"/>
    <tag k="building" v="yes"/>
  </way>
  <way id="39303019" version="5" timestamp="2010-06-01T13:22:50Z" uid="30579" user="Tiramisu" changeset="4874529">
    <nd ref="470949328"/>
    <nd ref="470949329"/>
    <nd ref="470949330"/>
    <nd ref="470949331"/>
    <nd ref="470949328"/>
    <tag k="addr:city" v="München"/>
    <tag k="addr:country" v="DE"/>
    <tag k="addr:postcode" v="81477"/>
    <tag k="addr:street" v="Grünbauerstraße"/>
    <tag k="building" v="yes"/>
  </way>
  <way id="39303019" version="6" timestamp="2010-06-01T14:40:01Z" uid="30579" user="Tiramisu" changeset="4875140">
    <nd ref="470949328"/>
    <nd ref="470949329"/>
    <nd ref="470949330"/>
    <nd ref="470949331"/>
    <nd ref="470949328"/>
    <tag k="addr:city" v="München"/>
    <tag k="addr:country" v="DE"/>
    <tag k="addr:postcode" v="81479"/>
    <tag k="addr:street" v="Grünbauerstraße"/>
    <tag k="building" v="yes"/>
  </way>
  <way id="39303019" version="7" timestamp="2011-06-18T09:46:18Z" uid="11374" user="q_un_go" changeset="8471528">
    <nd ref="470949328"/>
    <nd ref="470949329"/>
    <nd ref="1329424232"/>
    <nd ref="470949330"/>
    <nd ref="470949331"/>
    <nd ref="470949328"/>
    <tag k="addr:city" v="München"/>
    <tag k="addr:country" v="DE"/>
    <tag k="addr:postcode" v="81479"/>
    <tag k="addr:street" v="Grünbauerstraße"/>
    <tag k="building" v="yes"/>
  </way>
  <way id="39303020" version="3" timestamp="2009-08-26T07:58:56Z" uid="36809" user="pfoten_weg_!_" changeset="2264635">
    <nd ref="470949335"/>
    <nd ref="470949334"/>
    <nd ref="470949333"/>
    <nd ref="470949332"/>
    <nd ref="470949335"/>
    <tag k="addr:street" v="Grünbauerstraße"/>
    <tag k="building" v="yes"/>
    <tag k="source" v="Yahoo;survey"/>
  </way>
  <way id="39303020" version="4" timestamp="2009-10-03T17:43:10Z" uid="179968" user="Ich_hasse_doitsche_OSM-Korinthenkacker" changeset="2727120">
    <nd ref="470949335"/>
    <nd ref="470949334"/>
    <nd ref="470949333"/>
    <nd ref="470949332"/>
    <nd ref="470949335"/>
    <tag k="addr:street" v="Grünbauerstraße"/>
    <tag k="building" v="yes"/>
  </way>
  <way id="39303020" version="5" timestamp="2010-06-01T13:22:50Z" uid="30579" user="Tiramisu" changeset="4874529">
    <nd ref="470949335"/>
    <nd ref="470949334"/>
    <nd ref="470949333"/>
    <nd ref="470949332"/>
    <nd ref="470949335"/>
    <tag k="addr:city" v="München"/>
    <tag k="addr:country" v="DE"/>
    <tag k="addr:postcode" v="81477"/>
    <tag k="addr:street" v="Grünbauerstraße"/>
    <tag k="building" v="yes"/>
  </way>
  <way id="39303020" version="6" timestamp="2010-06-01T14:40:02Z" uid="30579" user="Tiramisu" changeset="4875140">
    <nd ref="470949335"/>
    <nd ref="470949334"/>
    <nd ref="470949333"/>
    <nd ref="470949332"/>
    <nd ref="470949335"/>
    <tag k="addr:city" v="München"/>
    <tag k="addr:country" v="DE"/>
    <tag k="addr:postcode" v="81479"/>
    <tag k="addr:street" v="Grünbauerstraße"/>
    <tag k="building" v="yes"/>
  </way>
  <way id="39303020" version="7" timestamp="2011-06-18T09:46:19Z" uid="11374" user="q_un_go" changeset="8471528">
    <nd ref="470949335"/>
    <nd ref="1329424246"/>
    <nd ref="1329424255"/>
    <nd ref="470949334"/>
    <nd ref="1329423988"/>
    <nd ref="470949333"/>
    <nd ref="470949332"/>
    <nd ref="470949335"/>
    <tag k="addr:city" v="München"/>
    <tag k="addr:country" v="DE"/>
    <tag k="addr:postcode" v="81479"/>
    <tag k="addr:street" v="Grünbauerstraße"/>
    <tag k="building" v="yes"/>
  </way>
  <way id="39303022" version="3" timestamp="2009-08-26T07:59:12Z" uid="36809" user="pfoten_weg_!_" changeset="2264635">
    <nd ref="470949339"/>
    <nd ref="470949338"/>
    <nd ref="470949337"/>
    <nd ref="470949336"/>
    <nd ref="470949339"/>
    <tag k="addr:street" v="Grünbauerstraße"/>
    <tag k="building" v="yes"/>
    <tag k="source" v="Yahoo;survey"/>
  </way>
  <way id="39303022" version="4" timestamp="2009-10-03T17:43:10Z" uid="179968" user="Ich_hasse_doitsche_OSM-Korinthenkacker" changeset="2727120">
    <nd ref="470949339"/>
    <nd ref="470949338"/>
    <nd ref="470949337"/>
    <nd ref="470949336"/>
    <nd ref="470949339"/>
    <tag k="addr:street" v="Grünbauerstraße"/>
    <tag k="building" v="yes"/>
  </way>
  <way id="39303022" version="5" timestamp="2010-06-01T13:22:55Z" uid="30579" user="Tiramisu" changeset="4874529">
    <nd ref="470949339"/>
    <nd ref="470949338"/>
    <nd ref="470949337"/>
    <nd ref="470949336"/>
    <nd ref="470949339"/>
    <tag k="addr:city" v="München"/>
    <tag k="addr:country" v="DE"/>
    <tag k="addr:postcode" v="81477"/>
    <tag k="addr:street" v="Grünbauerstraße"/>
    <tag k="building" v="yes"/>
  </way>
  <way id="39303022" version="6" timestamp="2010-06-01T14:40:01Z" uid="30579" user="Tiramisu" changeset="4875140">
    <nd ref="470949339"/>
    <nd ref="470949338"/>
    <nd ref="470949337"/>
    <nd ref="470949336"/>
    <nd ref="470949339"/>
    <tag k="addr:city" v="München"/>
    <tag k="addr:country" v="DE"/>
    <tag k="addr:postcode" v="81479"/>
    <tag k="addr:street" v="Grünbauerstraße"/>
    <tag k="building" v="yes"/>
  </way>
  <way id="39303024" version="3" timestamp="2009-08-26T07:59:22Z" uid="36809" user="pfoten_weg_!_" changeset="2264635">
    <nd ref="470949344"/>
    <nd ref="470949343"/>
    <nd ref="470949342"/>
    <nd ref="470949341"/>
    <nd ref="470949344"/>
    <tag k="addr:street" v="Grünbauerstraße"/>
    <tag k="building" v="yes"/>
    <tag k="source" v="Yahoo;survey"/>
  </way>
  <way id="39303024" version="4" timestamp="2009-10-03T17:43:09Z" uid="179968" user="Ich_hasse_doitsche_OSM-Korinthenkacker" changeset="2727120">
    <nd ref="470949344"/>
    <nd ref="470949343"/>
    <nd ref="470949342"/>
    <nd ref="470949341"/>
    <nd ref="470949344"/>
    <tag k="addr:street" v="Grünbauerstraße"/>
    <tag k="building" v="yes"/>
  </way>
  <way id="39303024" version="5" timestamp="2010-06-01T13:22:52Z" uid="30579" user="Tiramisu" changeset="4874529">
    <nd ref="470949344"/>
    <nd ref="470949343"/>
    <nd ref="470949342"/>
    <nd ref="470949341"/>
    <nd ref="470949344"/>
    <tag k="addr:city" v="München"/>
    <tag k="addr:country" v="DE"/>
    <tag k="addr:postcode" v="81477"/>
    <tag k="addr:street" v="Grünbauerstraße"/>
    <tag k="building" v="yes"/>
  </way>
  <way id="39303024" version="6" timestamp="2010-06-01T14:40:00Z" uid="30579" user="Tiramisu" changeset="4875140">
    <nd ref="470949344"/>
    <nd ref="470949343"/>
    <nd ref="470949342"/>
    <nd ref="470949341"/>
    <nd ref="470949344"/>
    <tag k="addr:city" v="München"/>
    <tag k="addr:country" v="DE"/>
    <tag k="addr:postcode" v="81479"/>
    <tag k="addr:street" v="Grünbauerstraße"/>
    <tag k="building" v="yes"/>
  </way>
  <way id="39303024" version="7" timestamp="2011-06-18T09:19:51Z" uid="11374" user="q_un_go" changeset="8471305">
    <nd ref="470949344"/>
    <nd ref="1329404304"/>
    <nd ref="470949343"/>
    <nd ref="470949342"/>
    <nd ref="470949341"/>
    <nd ref="1329404123"/>
    <nd ref="470949344"/>
    <tag k="addr:city" v="München"/>
    <tag k="addr:country" v="DE"/>
    <tag k="addr:postcode" v="81479"/>
    <tag k="addr:street" v="Grünbauerstraße"/>
    <tag k="building" v="yes"/>
  </way>
  <way id="39303026" version="3" timestamp="2009-08-26T07:58:51Z" uid="36809" user="pfoten_weg_!_" changeset="2264635">
    <nd ref="470949347"/>
    <nd ref="470949346"/>
    <nd ref="470949348"/>
    <nd ref="470949345"/>
    <nd ref="470949347"/>
    <tag k="addr:street" v="Grünbauerstraße"/>
    <tag k="building" v="yes"/>
    <tag k="source" v="Yahoo;survey"/>
  </way>
  <way id="39303026" version="4" timestamp="2009-10-03T17:43:09Z" uid="179968" user="Ich_hasse_doitsche_OSM-Korinthenkacker" changeset="2727120">
    <nd ref="470949347"/>
    <nd ref="470949346"/>
    <nd ref="470949348"/>
    <nd ref="470949345"/>
    <nd ref="470949347"/>
    <tag k="addr:street" v="Grünbauerstraße"/>
    <tag k="building" v="yes"/>
  </way>
  <way id="39303026" version="5" timestamp="2010-06-01T13:22:51Z" uid="30579" user="Tiramisu" changeset="4874529">
    <nd ref="470949347"/>
    <nd ref="470949346"/>
    <nd ref="470949348"/>
    <nd ref="470949345"/>
    <nd ref="470949347"/>
    <tag k="addr:city" v="München"/>
    <tag k="addr:country" v="DE"/>
    <tag k="addr:postcode" v="81477"/>
    <tag k="addr:street" v="Grünbauerstraße"/>
    <tag k="building" v="yes"/>
  </way>
  <way id="39303026" version="6" timestamp="2010-06-01T14:39:59Z" uid="30579" user="Tiramisu" changeset="4875140">
    <nd ref="470949347"/>
    <nd ref="470949346"/>
    <nd ref="470949348"/>
    <nd ref="470949345"/>
    <nd ref="470949347"/>
    <tag k="addr:city" v="München"/>
    <tag k="addr:country" v="DE"/>
    <tag k="addr:postcode" v="81479"/>
    <tag k="addr:street" v="Grünbauerstraße"/>
    <tag k="building" v="yes"/>
  </way>
  <way id="39303026" version="7" timestamp="2011-06-18T09:19:58Z" uid="11374" user="q_un_go" changeset="8471305">
    <nd ref="470949347"/>
    <nd ref="470949346"/>
    <nd ref="470949348"/>
    <nd ref="470949345"/>
    <nd ref="1329404167"/>
    <nd ref="470949347"/>
    <tag k="addr:city" v="München"/>
    <tag k="addr:country" v="DE"/>
    <tag k="addr:postcode" v="81479"/>
    <tag k="addr:street" v="Grünbauerstraße"/>
    <tag k="building" v="yes"/>
  </way>
  <way id="39303029" version="3" timestamp="2009-08-26T07:58:33Z" uid="36809" user="pfoten_weg_!_" changeset="2264635">
    <nd ref="470949349"/>
    <nd ref="470949350"/>
    <nd ref="470949351"/>
    <nd ref="470949352"/>
    <nd ref="470949353"/>
    <nd ref="470949354"/>
    <nd ref="470949349"/>
    <tag k="addr:housenumber" v="20"/>
    <tag k="addr:street" v="Breitschwertstraße"/>
    <tag k="building" v="yes"/>
    <tag k="source" v="Yahoo;survey"/>
  </way>
  <way id="39303029" version="4" timestamp="2009-10-02T20:43:28Z" uid="86259" user="hasse_osm_korinthenkacker" changeset="2717407"/>
  <way id="39303031" version="3" timestamp="2009-08-26T07:58:57Z" uid="36809" user="pfoten_weg_!_" changeset="2264635">
    <nd ref="470949355"/>
    <nd ref="470949356"/>
    <nd ref="470949357"/>
    <nd ref="470949358"/>
    <nd ref="470949355"/>
    <tag k="addr:housenumber" v="18"/>
    <tag k="addr:street" v="Breitschwertstraße"/>
    <tag k="building" v="yes"/>
    <tag k="source" v="Yahoo;survey"/>
  </way>
  <way id="39303031" version="4" timestamp="2009-10-02T20:43:28Z" uid="86259" user="hasse_osm_korinthenkacker" changeset="2717407"/>
  <way id="39303033" version="3" timestamp="2009-08-26T07:59:08Z" uid="36809" user="pfoten_weg_!_" changeset="2264635">
    <nd ref="470949359"/>
    <nd ref="470949360"/>
    <nd ref="470949361"/>
    <nd ref="470949362"/>
    <nd ref="470949359"/>
    <tag k="addr:housenumber" v="16"/>
    <tag k="addr:street" v="Breitschwertstraße"/>
    <tag k="building" v="yes"/>
    <tag k="source" v="Yahoo;survey"/>
  </way>
  <way id="39303033" version="4" timestamp="2009-10-02T20:43:28Z" uid="86259" user="hasse_osm_korinthenkacker" changeset="2717407"/>
  <way id="39303035" version="3" timestamp="2009-08-26T07:59:20Z" uid="36809" user="pfoten_weg_!_" changeset="2264635">
    <nd ref="470949363"/>
    <nd ref="470949364"/>
    <nd ref="470949365"/>
    <nd ref="470949366"/>
    <nd ref="470949367"/>
    <nd ref="470949368"/>
    <nd ref="470949369"/>
    <nd ref="470949371"/>
    <nd ref="470949363"/>
    <tag k="addr:housenumber" v="35"/>
    <tag k="addr:street" v="Grünbauerstraße"/>
    <tag k="building" v="yes"/>
    <tag k="source" v="Yahoo;survey"/>
  </way>
  <way id="39303035" version="4" timestamp="2009-10-02T20:43:28Z" uid="86259" user="hasse_osm_korinthenkacker" changeset="2717407"/>
  <way id="39303036" version="3" timestamp="2009-08-26T07:59:22Z" uid="36809" user="pfoten_weg_!_" changeset="2264635">
    <nd ref="470949372"/>
    <nd ref="470949374"/>
    <nd ref="470949375"/>
    <nd ref="470949376"/>
    <nd ref="470949372"/>
    <tag k="addr:housenumber" v="37"/>
    <tag k="addr:street" v="Grünbauerstraße"/>
    <tag k="building" v="yes"/>
    <tag k="source" v="Yahoo;survey"/>
  </way>
  <way id="39303036" version="4" timestamp="2009-10-02T20:43:28Z" uid="86259" user="hasse_osm_korinthenkacker" changeset="2717407"/>
  <way id="39303038" version="3" timestamp="2009-08-26T07:58:43Z" uid="36809" user="pfoten_weg_!_" changeset="2264635">
    <nd ref="470949377"/>
    <nd ref="470949378"/>
    <nd ref="470949379"/>
    <nd ref="470949380"/>
    <nd ref="470949377"/>
    <tag k="addr:housenumber" v="39"/>
    <tag k="addr:street" v="Grünbauerstraße"/>
    <tag k="building" v="yes"/>
    <tag k="source" v="Yahoo;survey"/>
  </way>
  <way id="39303038" version="4" timestamp="2009-10-02T20:43:28Z" uid="86259" user="hasse_osm_korinthenkacker" changeset="2717407"/>
  <way id="39303040" version="2" timestamp="2009-08-26T07:58:49Z" uid="36809" user="pfoten_weg_!_" changeset="2264635">
    <nd ref="470949381"/>
    <nd ref="470949383"/>
    <nd ref="470949384"/>
    <nd ref="470949386"/>
    <nd ref="470949381"/>
    <tag k="building" v="yes"/>
    <tag k="source" v="Yahoo;survey"/>
  </way>
  <way id="39303040" version="3" timestamp="2009-10-03T17:43:29Z" uid="179968" user="Ich_hasse_doitsche_OSM-Korinthenkacker" changeset="2727120">
    <nd ref="470949381"/>
    <nd ref="470949383"/>
    <nd ref="470949384"/>
    <nd ref="470949386"/>
    <nd ref="470949381"/>
    <tag k="building" v="yes"/>
  </way>
  <way id="39303040" version="4" timestamp="2010-06-01T13:22:54Z" uid="30579" user="Tiramisu" changeset="4874529">
    <nd ref="470949381"/>
    <nd ref="470949383"/>
    <nd ref="470949384"/>
    <nd ref="470949386"/>
    <nd ref="470949381"/>
    <tag k="addr:city" v="München"/>
    <tag k="addr:country" v="DE"/>
    <tag k="addr:postcode" v="81477"/>
    <tag k="building" v="yes"/>
  </way>
  <way id="39303040" version="5" timestamp="2010-06-01T14:40:01Z" uid="30579" user="Tiramisu" changeset="4875140">
    <nd ref="470949381"/>
    <nd ref="470949383"/>
    <nd ref="470949384"/>
    <nd ref="470949386"/>
    <nd ref="470949381"/>
    <tag k="addr:city" v="München"/>
    <tag k="addr:country" v="DE"/>
    <tag k="addr:postcode" v="81479"/>
    <tag k="building" v="yes"/>
  </way>
  <way id="39303042" version="3" timestamp="2009-08-26T07:59:30Z" uid="36809" user="pfoten_weg_!_" changeset="2264635">
    <nd ref="470949387"/>
    <nd ref="470949389"/>
    <nd ref="470949390"/>
    <nd ref="470949392"/>
    <nd ref="470949387"/>
    <tag k="addr:street" v="Grünbauerstraße"/>
    <tag k="building" v="yes"/>
    <tag k="source" v="Yahoo;survey"/>
  </way>
  <way id="39303042" version="4" timestamp="2009-10-03T17:43:29Z" uid="179968" user="Ich_hasse_doitsche_OSM-Korinthenkacker" changeset="2727120">
    <nd ref="470949387"/>
    <nd ref="470949389"/>
    <nd ref="470949390"/>
    <nd ref="470949392"/>
    <nd ref="470949387"/>
    <tag k="addr:street" v="Grünbauerstraße"/>
    <tag k="building" v="yes"/>
  </way>
  <way id="39303042" version="5" timestamp="2010-06-01T13:22:53Z" uid="30579" user="Tiramisu" changeset="4874529">
    <nd ref="470949387"/>
    <nd ref="470949389"/>
    <nd ref="470949390"/>
    <nd ref="470949392"/>
    <nd ref="470949387"/>
    <tag k="addr:city" v="München"/>
    <tag k="addr:country" v="DE"/>
    <tag k="addr:postcode" v="81477"/>
    <tag k="addr:street" v="Grünbauerstraße"/>
    <tag k="building" v="yes"/>
  </way>
  <way id="39303042" version="6" timestamp="2010-06-01T14:40:00Z" uid="30579" user="Tiramisu" changeset="4875140">
    <nd ref="470949387"/>
    <nd ref="470949389"/>
    <nd ref="470949390"/>
    <nd ref="470949392"/>
    <nd ref="470949387"/>
    <tag k="addr:city" v="München"/>
    <tag k="addr:country" v="DE"/>
    <tag k="addr:postcode" v="81479"/>
    <tag k="addr:street" v="Grünbauerstraße"/>
    <tag k="building" v="yes"/>
  </way>
  <way id="39303042" version="7" timestamp="2011-06-18T09:20:00Z" uid="11374" user="q_un_go" changeset="8471305">
    <nd ref="470949387"/>
    <nd ref="470949389"/>
    <nd ref="1329404516"/>
    <nd ref="1329403964"/>
    <nd ref="1329404829"/>
    <nd ref="1329404148"/>
    <nd ref="470949390"/>
    <nd ref="470949392"/>
    <nd ref="470949387"/>
    <tag k="addr:city" v="München"/>
    <tag k="addr:country" v="DE"/>
    <tag k="addr:postcode" v="81479"/>
    <tag k="addr:street" v="Grünbauerstraße"/>
    <tag k="building" v="yes"/>
  </way>
  <way id="39303051" version="4" timestamp="2010-02-11T03:42:41Z" uid="30201" user="rrankin" changeset="3845462">
    <nd ref="470949340"/>
    <nd ref="470949382"/>
    <nd ref="470949385"/>
    <nd ref="470949388"/>
    <nd ref="470949391"/>
    <nd ref="470949393"/>
    <nd ref="470949394"/>
    <nd ref="470949395"/>
    <nd ref="470949396"/>
    <nd ref="470949397"/>
    <nd ref="470949398"/>
    <nd ref="470949399"/>
    <nd ref="470949400"/>
    <nd ref="470949401"/>
    <nd ref="470949402"/>
    <nd ref="470949403"/>
    <nd ref="470949404"/>
    <nd ref="470949405"/>
    <nd ref="470949406"/>
    <nd ref="470949408"/>
    <nd ref="470949409"/>
    <nd ref="470949410"/>
    <nd ref="470949411"/>
    <nd ref="470949412"/>
    <nd ref="470949413"/>
    <nd ref="470949414"/>
    <nd ref="470949415"/>
    <nd ref="470949416"/>
    <nd ref="470949417"/>
    <nd ref="470949418"/>
    <nd ref="470949419"/>
    <nd ref="470949420"/>
    <nd ref="470949421"/>
    <nd ref="470949422"/>
    <nd ref="470949423"/>
    <nd ref="470949424"/>
    <nd ref="470949425"/>
    <nd ref="470949426"/>
    <nd ref="470949427"/>
    <nd ref="470949428"/>
    <nd ref="470949429"/>
    <nd ref="470949430"/>
    <nd ref="470949431"/>
    <nd ref="470949432"/>
    <nd ref="470949433"/>
    <nd ref="470949434"/>
    <nd ref="470949435"/>
    <nd ref="470794856"/>
    <tag k="highway" v="tertiary"/>
    <tag k="name" v="Wattle Tree Road"/>
    <tag k="source" v="local_knowledge"/>
  </way>
  <way id="39303052" version="2" timestamp="2010-02-11T03:42:55Z" uid="30201" user="rrankin" changeset="3845462">
    <nd ref="470949483"/>
    <nd ref="470949486"/>
    <nd ref="470949487"/>
    <nd ref="470949488"/>
    <nd ref="470949489"/>
    <nd ref="470949490"/>
    <nd ref="470949491"/>
    <tag k="highway" v="residential"/>
    <tag k="name" v="Pollard Close"/>
  </way>
  <way id="39303052" version="3" timestamp="2010-07-08T03:32:12Z" uid="74617" user="JohnSmith" changeset="5163091">
    <nd ref="470949483"/>
    <nd ref="470949486"/>
    <nd ref="470949487"/>
    <nd ref="470949488"/>
    <nd ref="470949489"/>
    <nd ref="470949490"/>
    <nd ref="470949491"/>
    <tag k="highway" v="residential"/>
    <tag k="maxspeed" v="50"/>
    <tag k="maxspeed:source" v="default residential speed limit in Australia"/>
    <tag k="name" v="Pollard Close"/>
  </way>
  <way id="39303052" version="4" timestamp="2012-01-19T03:32:25Z" uid="147510" user="woodpeck_fixbot" changeset="10433650">
    <nd ref="470949483"/>
    <nd ref="470949486"/>
    <nd ref="470949487"/>
    <nd ref="470949488"/>
    <nd ref="470949489"/>
    <nd ref="470949490"/>
    <nd ref="470949491"/>
    <tag k="highway" v="residential"/>
    <tag k="name" v="Pollard Close"/>
  </way>
  <way id="39303083" version="2" timestamp="2010-02-11T03:42:56Z" uid="30201" user="rrankin" changeset="3845462">
    <nd ref="470949472"/>
    <nd ref="470949681"/>
    <nd ref="470949682"/>
    <nd ref="470949683"/>
    <nd ref="470949684"/>
    <nd ref="470949686"/>
    <nd ref="470949688"/>
    <nd ref="470949690"/>
    <nd ref="470949691"/>
    <nd ref="470949692"/>
    <tag k="highway" v="residential"/>
    <tag k="name" v="Paterson Close"/>
  </way>
  <way id="39303083" version="3" timestamp="2010-07-08T03:33:07Z" uid="74617" user="JohnSmith" changeset="5163091">
    <nd ref="470949472"/>
    <nd ref="470949681"/>
    <nd ref="470949682"/>
    <nd ref="470949683"/>
    <nd ref="470949684"/>
    <nd ref="470949686"/>
    <nd ref="470949688"/>
    <nd ref="470949690"/>
    <nd ref="470949691"/>
    <nd ref="470949692"/>
    <tag k="highway" v="residential"/>
    <tag k="maxspeed" v="50"/>
    <tag k="maxspeed:source" v="default residential speed limit in Australia"/>
    <tag k="name" v="Paterson Close"/>
  </way>
  <way id="39303083" version="4" timestamp="2012-01-19T03:32:26Z" uid="147510" user="woodpeck_fixbot" changeset="10433650">
    <nd ref="470949472"/>
    <nd ref="470949681"/>
    <nd ref="470949682"/>
    <nd ref="470949683"/>
    <nd ref="470949684"/>
    <nd ref="470949686"/>
    <nd ref="470949688"/>
    <nd ref="470949690"/>
    <nd ref="470949691"/>
    <nd ref="470949692"/>
    <tag k="highway" v="residential"/>
    <tag k="name" v="Paterson Close"/>
  </way>
  <way id="39303084" version="3" timestamp="2010-07-06T18:38:42Z" uid="74617" user="JohnSmith" changeset="5152225">
    <nd ref="470949708"/>
    <nd ref="470949710"/>
    <tag k="highway" v="residential"/>
    <tag k="maxspeed" v="50"/>
    <tag k="maxspeed:source" v="default residential speed limit in Australia"/>
    <tag k="name" v="Rosina Street"/>
  </way>
  <way id="39303084" version="4" timestamp="2012-01-19T03:32:27Z" uid="147510" user="woodpeck_fixbot" changeset="10433650">
    <nd ref="470949708"/>
    <nd ref="470949710"/>
    <tag k="highway" v="residential"/>
    <tag k="name" v="Rosina Street"/>
  </way>
  <way id="39303086" version="3" timestamp="2010-07-06T18:36:16Z" uid="74617" user="JohnSmith" changeset="5152225">
    <nd ref="470949713"/>
    <nd ref="470949700"/>
    <tag k="highway" v="residential"/>
    <tag k="maxspeed" v="50"/>
    <tag k="maxspeed:source" v="default residential speed limit in Australia"/>
    <tag k="name" v="Goode Street"/>
  </way>
  <way id="39303086" version="4" timestamp="2010-08-02T02:07:49Z" uid="62457" user="cybercrypt" changeset="5375606">
    <nd ref="470949713"/>
    <nd ref="842871559"/>
    <tag k="highway" v="residential"/>
    <tag k="maxspeed" v="50"/>
    <tag k="maxspeed:source" v="default residential speed limit in Australia"/>
    <tag k="name" v="Goode Street"/>
  </way>
  <way id="39303086" version="5" timestamp="2010-08-02T03:25:30Z" uid="62457" user="cybercrypt" changeset="5376636">
    <nd ref="842871559"/>
    <nd ref="842893209"/>
    <nd ref="842893210"/>
    <nd ref="842893211"/>
    <nd ref="842893212"/>
    <nd ref="842893213"/>
    <tag k="highway" v="residential"/>
    <tag k="maxspeed" v="50"/>
    <tag k="maxspeed:source" v="default residential speed limit in Australia"/>
    <tag k="name" v="Goode Street"/>
  </way>
  <way id="39303086" version="6" timestamp="2012-01-19T03:32:28Z" uid="147510" user="woodpeck_fixbot" changeset="10433650">
    <nd ref="842871559"/>
    <nd ref="842893209"/>
    <nd ref="842893210"/>
    <nd ref="842893211"/>
    <nd ref="842893212"/>
    <nd ref="842893213"/>
    <tag k="highway" v="residential"/>
    <tag k="name" v="Goode Street"/>
  </way>
  <way id="39303087" version="2" timestamp="2010-07-06T18:37:36Z" uid="74617" user="JohnSmith" changeset="5152225">
    <nd ref="470949716"/>
    <nd ref="470949705"/>
    <tag k="highway" v="residential"/>
    <tag k="maxspeed" v="50"/>
    <tag k="maxspeed:source" v="default residential speed limit in Australia"/>
    <tag k="name" v="Gatfield Street"/>
  </way>
  <way id="39303087" version="3" timestamp="2010-08-02T02:09:55Z" uid="62457" user="cybercrypt" changeset="5375606">
    <nd ref="470949716"/>
    <nd ref="842872925"/>
    <nd ref="470949705"/>
    <tag k="highway" v="residential"/>
    <tag k="maxspeed" v="50"/>
    <tag k="maxspeed:source" v="default residential speed limit in Australia"/>
    <tag k="name" v="Gatfield Street"/>
  </way>
  <way id="39303087" version="4" timestamp="2010-08-02T03:18:17Z" uid="62457" user="cybercrypt" changeset="5376636">
    <nd ref="470949716"/>
    <nd ref="842872925"/>
    <nd ref="842892454"/>
    <nd ref="842892455"/>
    <nd ref="842892456"/>
    <nd ref="842892457"/>
    <nd ref="842892458"/>
    <tag k="highway" v="residential"/>
    <tag k="maxspeed" v="50"/>
    <tag k="maxspeed:source" v="default residential speed limit in Australia"/>
    <tag k="name" v="Gatfield Street"/>
  </way>
  <way id="39303087" version="5" timestamp="2010-08-02T03:18:33Z" uid="62457" user="cybercrypt" changeset="5376636">
    <nd ref="470949716"/>
    <nd ref="842872925"/>
    <nd ref="842892454"/>
    <tag k="highway" v="residential"/>
    <tag k="maxspeed" v="50"/>
    <tag k="maxspeed:source" v="default residential speed limit in Australia"/>
    <tag k="name" v="Gatfield Street"/>
  </way>
  <way id="39303087" version="6" timestamp="2011-12-23T10:17:54Z" uid="571600" user="MJames" changeset="10185883">
    <nd ref="470949716"/>
    <nd ref="842892454"/>
    <tag k="highway" v="residential"/>
    <tag k="maxspeed" v="50"/>
    <tag k="maxspeed:source" v="default residential speed limit in Australia"/>
    <tag k="name" v="Gatfield Street"/>
  </way>
  <way id="39303087" version="7" timestamp="2012-01-19T03:32:29Z" uid="147510" user="woodpeck_fixbot" changeset="10433650">
    <nd ref="470949716"/>
    <nd ref="842892454"/>
    <tag k="highway" v="residential"/>
    <tag k="name" v="Gatfield Street"/>
  </way>
  <way id="39303131" version="1" timestamp="2009-08-19T10:33:48Z" uid="38528" user="acrosscanadatrails" changeset="2199613">
    <nd ref="270000710"/>
    <nd ref="470942986"/>
    <tag k="highway" v="residential"/>
    <tag k="lanes" v="2"/>
    <tag k="name" v="Fillinger Cresent"/>
    <tag k="surface" v="paved"/>
  </way>
  <way id="39303131" version="2" timestamp="2011-10-07T15:26:50Z" uid="533223" user="michaelmag" changeset="9494955">
    <nd ref="270000710"/>
    <nd ref="470942986"/>
    <tag k="foot" v="yes"/>
    <tag k="highway" v="residential"/>
    <tag k="lanes" v="2"/>
    <tag k="name" v="Fillinger Cresent"/>
    <tag k="oneway" v="no"/>
    <tag k="surface" v="paved"/>
  </way>
  <way id="39303131" version="3" timestamp="2012-02-21T07:11:19Z" uid="307202" user="alester" changeset="10747640">
    <nd ref="270000710"/>
    <nd ref="470942986"/>
    <tag k="foot" v="yes"/>
    <tag k="highway" v="residential"/>
    <tag k="lanes" v="2"/>
    <tag k="name" v="Fillinger Crescent"/>
    <tag k="oneway" v="no"/>
    <tag k="surface" v="paved"/>
  </way>
  <way id="39303131" version="4" timestamp="2012-03-01T23:50:18Z" uid="147510" user="woodpeck_fixbot" changeset="10842511"/>
  <way id="39303131" version="5" timestamp="2012-03-13T00:42:10Z" uid="147510" user="woodpeck_fixbot" changeset="10960757">
    <nd ref="270000710"/>
    <nd ref="470942986"/>
    <tag k="foot" v="yes"/>
    <tag k="highway" v="residential"/>
    <tag k="lanes" v="2"/>
    <tag k="name" v="Fillinger Crescent"/>
    <tag k="oneway" v="no"/>
    <tag k="surface" v="paved"/>
  </way>
  <way id="39303131" version="6" timestamp="2012-03-23T01:55:25Z" uid="307202" user="alester" changeset="11069614"/>
  <way id="39303161" version="2" timestamp="2010-07-06T18:34:53Z" uid="74617" user="JohnSmith" changeset="5152225">
    <nd ref="470950218"/>
    <nd ref="470950221"/>
    <tag k="highway" v="residential"/>
    <tag k="maxspeed" v="50"/>
    <tag k="maxspeed:source" v="default residential speed limit in Australia"/>
  </way>
  <way id="39303161" version="3" timestamp="2011-12-24T02:44:40Z" uid="165869" user="chdr" changeset="10191617">
    <nd ref="470950218"/>
    <nd ref="470950221"/>
    <tag k="highway" v="residential"/>
    <tag k="maxspeed" v="50"/>
    <tag k="maxspeed:source" v="default residential speed limit in Australia"/>
    <tag k="name" v="Tradewinds Court"/>
  </way>
  <way id="39303161" version="4" timestamp="2012-01-19T03:32:30Z" uid="147510" user="woodpeck_fixbot" changeset="10433650">
    <nd ref="470950218"/>
    <nd ref="470950221"/>
    <tag k="highway" v="residential"/>
    <tag k="name" v="Tradewinds Court"/>
  </way>
  <way id="39303162" version="2" timestamp="2010-07-06T18:39:11Z" uid="74617" user="JohnSmith" changeset="5152225">
    <nd ref="470950219"/>
    <nd ref="470950222"/>
    <tag k="highway" v="residential"/>
    <tag k="maxspeed" v="50"/>
    <tag k="maxspeed:source" v="default residential speed limit in Australia"/>
  </way>
  <way id="39303162" version="3" timestamp="2011-12-24T02:44:40Z" uid="165869" user="chdr" changeset="10191617">
    <nd ref="470950219"/>
    <nd ref="470950222"/>
    <tag k="highway" v="residential"/>
    <tag k="maxspeed" v="50"/>
    <tag k="maxspeed:source" v="default residential speed limit in Australia"/>
    <tag k="name" v="Rocla Court"/>
  </way>
  <way id="39303162" version="4" timestamp="2012-01-19T03:32:31Z" uid="147510" user="woodpeck_fixbot" changeset="10433650">
    <nd ref="470950219"/>
    <nd ref="470950222"/>
    <tag k="highway" v="residential"/>
    <tag k="name" v="Rocla Court"/>
  </way>
  <way id="39303257" version="3" timestamp="2009-08-25T18:57:02Z" uid="36809" user="pfoten_weg_!_" changeset="2260316">
    <nd ref="470950673"/>
    <nd ref="470950674"/>
    <nd ref="470950675"/>
    <nd ref="470950676"/>
    <nd ref="470950673"/>
    <tag k="building" v="yes"/>
    <tag k="source" v="survey"/>
  </way>
  <way id="39303257" version="4" timestamp="2009-10-03T17:43:00Z" uid="179968" user="Ich_hasse_doitsche_OSM-Korinthenkacker" changeset="2727120">
    <nd ref="470950673"/>
    <nd ref="470950674"/>
    <nd ref="470950675"/>
    <nd ref="470950676"/>
    <nd ref="470950673"/>
    <tag k="building" v="yes"/>
  </way>
  <way id="39303257" version="5" timestamp="2010-05-03T13:17:41Z" uid="30579" user="Tiramisu" changeset="4594774">
    <nd ref="470950673"/>
    <nd ref="470950674"/>
    <nd ref="470950675"/>
    <nd ref="470950676"/>
    <nd ref="470950673"/>
    <tag k="addr:city" v="München"/>
    <tag k="addr:country" v="DE"/>
    <tag k="addr:housenumber" v="42"/>
    <tag k="addr:postcode" v="81479"/>
    <tag k="addr:street" v="Uhdestraße"/>
    <tag k="building" v="yes"/>
    <tag k="name" v="Orterer Getränkemarkt"/>
    <tag k="shop" v="beverages"/>
  </way>
  <way id="39303257" version="6" timestamp="2010-05-08T00:37:48Z" uid="200463" user="harmagedon" changeset="4635200"/>
  <way id="39303257" version="7" timestamp="2010-05-09T17:05:28Z" uid="145231" user="woodpeck_repair" changeset="4651092">
    <nd ref="470950673"/>
    <nd ref="470950674"/>
    <nd ref="470950675"/>
    <nd ref="470950676"/>
    <nd ref="470950673"/>
    <tag k="addr:city" v="München"/>
    <tag k="addr:country" v="DE"/>
    <tag k="addr:housenumber" v="42"/>
    <tag k="addr:postcode" v="81479"/>
    <tag k="addr:street" v="Uhdestraße"/>
    <tag k="building" v="yes"/>
    <tag k="name" v="Orterer Getränkemarkt"/>
    <tag k="shop" v="beverages"/>
  </way>
  <way id="39303257" version="8" timestamp="2010-06-01T13:11:15Z" uid="30579" user="Tiramisu" changeset="4874444">
    <nd ref="470950673"/>
    <nd ref="470950674"/>
    <nd ref="470950675"/>
    <nd ref="470950676"/>
    <nd ref="470950673"/>
    <tag k="addr:city" v="München"/>
    <tag k="addr:country" v="DE"/>
    <tag k="addr:housenumber" v="42"/>
    <tag k="addr:postcode" v="81477"/>
    <tag k="addr:street" v="Uhdestraße"/>
    <tag k="building" v="yes"/>
    <tag k="name" v="Orterer Getränkemarkt"/>
    <tag k="shop" v="beverages"/>
  </way>
  <way id="39303287" version="1" timestamp="2009-08-19T10:37:47Z" uid="99207" user="Lar Kiesel" changeset="2199661">
    <nd ref="470950819"/>
    <nd ref="470950819"/>
    <nd ref="470950820"/>
    <nd ref="470950822"/>
    <nd ref="470950823"/>
    <nd ref="470950826"/>
    <nd ref="470950827"/>
    <nd ref="470950828"/>
    <nd ref="470950830"/>
    <nd ref="470950831"/>
    <nd ref="470950832"/>
    <nd ref="470950834"/>
    <nd ref="470950835"/>
    <nd ref="470950837"/>
    <nd ref="470950838"/>
    <nd ref="470950840"/>
    <nd ref="470950842"/>
    <nd ref="470950843"/>
    <nd ref="470950846"/>
    <nd ref="470950848"/>
    <nd ref="470950849"/>
    <nd ref="470950850"/>
    <nd ref="470950852"/>
    <nd ref="470950856"/>
    <nd ref="470950819"/>
    <nd ref="470950864"/>
    <nd ref="470950880"/>
    <nd ref="470950888"/>
    <nd ref="113433112"/>
    <tag k="highway" v="service"/>
  </way>
  <way id="39303287" version="2" timestamp="2009-09-23T02:27:12Z" uid="166129" user="BugBuster" changeset="2587667">
    <nd ref="470950819"/>
    <nd ref="470950820"/>
    <nd ref="470950822"/>
    <nd ref="470950823"/>
    <nd ref="470950826"/>
    <nd ref="470950827"/>
    <nd ref="470950828"/>
    <nd ref="470950830"/>
    <nd ref="470950831"/>
    <nd ref="470950832"/>
    <nd ref="470950834"/>
    <nd ref="470950835"/>
    <nd ref="470950837"/>
    <nd ref="470950838"/>
    <nd ref="470950840"/>
    <nd ref="470950842"/>
    <nd ref="470950843"/>
    <nd ref="470950846"/>
    <nd ref="470950848"/>
    <nd ref="470950849"/>
    <nd ref="470950850"/>
    <nd ref="470950852"/>
    <nd ref="470950856"/>
    <nd ref="470950819"/>
    <nd ref="470950864"/>
    <nd ref="470950880"/>
    <nd ref="470950888"/>
    <nd ref="113433112"/>
    <tag k="highway" v="service"/>
  </way>
  <way id="39303289" version="1" timestamp="2009-08-19T10:37:48Z" uid="99207" user="Lar Kiesel" changeset="2199661">
    <nd ref="470950848"/>
    <nd ref="470950946"/>
    <nd ref="470950950"/>
    <nd ref="470950846"/>
    <tag k="highway" v="service"/>
    <tag k="service" v="parking_aisle"/>
  </way>
  <way id="39303296" version="1" timestamp="2009-08-19T10:37:49Z" uid="99207" user="Lar Kiesel" changeset="2199661">
    <nd ref="470950958"/>
    <nd ref="470950959"/>
    <nd ref="470950961"/>
    <nd ref="470950962"/>
    <nd ref="470950958"/>
    <tag k="amenity" v="parking"/>
  </way>
  <way id="39303302" version="1" timestamp="2009-08-19T10:37:49Z" uid="99207" user="Lar Kiesel" changeset="2199661">
    <nd ref="470950964"/>
    <nd ref="470950965"/>
    <nd ref="470950967"/>
    <nd ref="470950968"/>
    <nd ref="470950964"/>
    <tag k="leisure" v="pitch"/>
    <tag k="sport" v="basketball"/>
  </way>
  <way id="39303312" version="1" timestamp="2009-08-19T10:37:50Z" uid="99207" user="Lar Kiesel" changeset="2199661">
    <nd ref="470950970"/>
    <nd ref="470950972"/>
    <nd ref="470950973"/>
    <nd ref="470950975"/>
    <nd ref="470950970"/>
    <tag k="leisure" v="pitch"/>
  </way>
  <way id="39303318" version="1" timestamp="2009-08-19T10:37:53Z" uid="99207" user="Lar Kiesel" changeset="2199661">
    <nd ref="470950979"/>
    <nd ref="470950981"/>
    <nd ref="470950984"/>
    <nd ref="470950985"/>
    <nd ref="470950987"/>
    <nd ref="470950988"/>
    <nd ref="470950989"/>
    <nd ref="470950991"/>
    <nd ref="470950993"/>
    <nd ref="470950996"/>
    <nd ref="470950998"/>
    <nd ref="470951000"/>
    <nd ref="470951005"/>
    <nd ref="470951008"/>
    <nd ref="470951009"/>
    <nd ref="470951011"/>
    <nd ref="470951012"/>
    <nd ref="470951013"/>
    <nd ref="470951014"/>
    <nd ref="470951016"/>
    <nd ref="470950979"/>
    <tag k="building" v="yes"/>
  </way>
  <way id="39303320" version="1" timestamp="2009-08-19T10:37:56Z" uid="99207" user="Lar Kiesel" changeset="2199661">
    <nd ref="470951020"/>
    <nd ref="470951020"/>
    <nd ref="470951020"/>
    <nd ref="470951021"/>
    <nd ref="470951022"/>
    <nd ref="470951023"/>
    <nd ref="470951025"/>
    <nd ref="470951026"/>
    <nd ref="470951027"/>
    <nd ref="470951029"/>
    <nd ref="470951030"/>
    <nd ref="470951031"/>
    <nd ref="470951032"/>
    <nd ref="470951033"/>
    <nd ref="470951034"/>
    <nd ref="470951035"/>
    <nd ref="470951037"/>
    <nd ref="470951038"/>
    <nd ref="470951040"/>
    <nd ref="470951043"/>
    <nd ref="470951044"/>
    <nd ref="470951046"/>
    <nd ref="470951020"/>
    <nd ref="470951047"/>
    <nd ref="113631726"/>
    <tag k="highway" v="service"/>
  </way>
  <way id="39303320" version="2" timestamp="2009-09-23T01:59:58Z" uid="166129" user="BugBuster" changeset="2586713">
    <nd ref="470951020"/>
    <nd ref="470951020"/>
    <nd ref="470951021"/>
    <nd ref="470951022"/>
    <nd ref="470951023"/>
    <nd ref="470951025"/>
    <nd ref="470951026"/>
    <nd ref="470951027"/>
    <nd ref="470951029"/>
    <nd ref="470951030"/>
    <nd ref="470951031"/>
    <nd ref="470951032"/>
    <nd ref="470951033"/>
    <nd ref="470951034"/>
    <nd ref="470951035"/>
    <nd ref="470951037"/>
    <nd ref="470951038"/>
    <nd ref="470951040"/>
    <nd ref="470951043"/>
    <nd ref="470951044"/>
    <nd ref="470951046"/>
    <nd ref="470951020"/>
    <nd ref="470951047"/>
    <nd ref="113631726"/>
    <tag k="highway" v="service"/>
  </way>
  <way id="39303320" version="3" timestamp="2009-09-30T01:08:49Z" uid="166129" user="BugBuster" changeset="2683587">
    <nd ref="470951020"/>
    <nd ref="470951021"/>
    <nd ref="470951022"/>
    <nd ref="470951023"/>
    <nd ref="470951025"/>
    <nd ref="470951026"/>
    <nd ref="470951027"/>
    <nd ref="470951029"/>
    <nd ref="470951030"/>
    <nd ref="470951031"/>
    <nd ref="470951032"/>
    <nd ref="470951033"/>
    <nd ref="470951034"/>
    <nd ref="470951035"/>
    <nd ref="470951037"/>
    <nd ref="470951038"/>
    <nd ref="470951040"/>
    <nd ref="470951043"/>
    <nd ref="470951044"/>
    <nd ref="470951046"/>
    <nd ref="470951020"/>
    <nd ref="470951047"/>
    <nd ref="113631726"/>
    <tag k="highway" v="service"/>
  </way>
  <way id="39303321" version="1" timestamp="2009-08-19T10:37:56Z" uid="99207" user="Lar Kiesel" changeset="2199661">
    <nd ref="470951030"/>
    <nd ref="470951051"/>
    <nd ref="470951037"/>
    <tag k="highway" v="service"/>
    <tag k="service" v="parking_aisle"/>
  </way>
  <way id="39303323" version="1" timestamp="2009-08-19T10:37:57Z" uid="99207" user="Lar Kiesel" changeset="2199661">
    <nd ref="470951053"/>
    <nd ref="470951054"/>
    <nd ref="470951055"/>
    <nd ref="470951056"/>
    <nd ref="470951053"/>
    <tag k="amenity" v="parking"/>
  </way>
  <way id="39303686" version="1" timestamp="2009-08-19T10:44:23Z" uid="99207" user="Lar Kiesel" changeset="2199742">
    <nd ref="470955398"/>
    <nd ref="470955398"/>
    <nd ref="470955398"/>
    <nd ref="470955399"/>
    <nd ref="470955400"/>
    <nd ref="470955403"/>
    <nd ref="470955404"/>
    <nd ref="470955406"/>
    <nd ref="470955408"/>
    <nd ref="470955410"/>
    <nd ref="470955411"/>
    <nd ref="470955398"/>
    <nd ref="470955413"/>
    <nd ref="470955415"/>
    <nd ref="470955416"/>
    <nd ref="470955419"/>
    <nd ref="470955420"/>
    <nd ref="470955421"/>
    <nd ref="470955423"/>
    <nd ref="470955425"/>
    <nd ref="470955426"/>
    <nd ref="470955427"/>
    <nd ref="470955428"/>
    <tag k="highway" v="service"/>
  </way>
  <way id="39303686" version="2" timestamp="2009-09-23T02:12:38Z" uid="166129" user="BugBuster" changeset="2587167">
    <nd ref="470955398"/>
    <nd ref="470955398"/>
    <nd ref="470955399"/>
    <nd ref="470955400"/>
    <nd ref="470955403"/>
    <nd ref="470955404"/>
    <nd ref="470955406"/>
    <nd ref="470955408"/>
    <nd ref="470955410"/>
    <nd ref="470955411"/>
    <nd ref="470955398"/>
    <nd ref="470955413"/>
    <nd ref="470955415"/>
    <nd ref="470955416"/>
    <nd ref="470955419"/>
    <nd ref="470955420"/>
    <nd ref="470955421"/>
    <nd ref="470955423"/>
    <nd ref="470955425"/>
    <nd ref="470955426"/>
    <nd ref="470955427"/>
    <nd ref="470955428"/>
    <tag k="highway" v="service"/>
  </way>
  <way id="39303686" version="3" timestamp="2009-09-30T01:09:50Z" uid="166129" user="BugBuster" changeset="2683587">
    <nd ref="470955398"/>
    <nd ref="470955399"/>
    <nd ref="470955400"/>
    <nd ref="470955403"/>
    <nd ref="470955404"/>
    <nd ref="470955406"/>
    <nd ref="470955408"/>
    <nd ref="470955410"/>
    <nd ref="470955411"/>
    <nd ref="470955398"/>
    <nd ref="470955413"/>
    <nd ref="470955415"/>
    <nd ref="470955416"/>
    <nd ref="470955419"/>
    <nd ref="470955420"/>
    <nd ref="470955421"/>
    <nd ref="470955423"/>
    <nd ref="470955425"/>
    <nd ref="470955426"/>
    <nd ref="470955427"/>
    <nd ref="470955428"/>
    <tag k="highway" v="service"/>
  </way>
  <way id="39303691" version="1" timestamp="2009-08-19T10:44:23Z" uid="99207" user="Lar Kiesel" changeset="2199742">
    <nd ref="470955404"/>
    <nd ref="470955431"/>
    <nd ref="470955411"/>
    <nd ref="470955411"/>
    <tag k="highway" v="service"/>
  </way>
  <way id="39303691" version="2" timestamp="2009-09-23T02:30:13Z" uid="166129" user="BugBuster" changeset="2587736">
    <nd ref="470955404"/>
    <nd ref="470955431"/>
    <nd ref="470955411"/>
    <tag k="highway" v="service"/>
  </way>
  <way id="39303696" version="1" timestamp="2009-08-19T10:44:24Z" uid="99207" user="Lar Kiesel" changeset="2199742">
    <nd ref="470955434"/>
    <nd ref="470955435"/>
    <nd ref="470955437"/>
    <nd ref="470955440"/>
    <nd ref="470955434"/>
    <tag k="amenity" v="parking"/>
  </way>
  <way id="39303708" version="1" timestamp="2009-08-19T10:44:27Z" uid="99207" user="Lar Kiesel" changeset="2199742">
    <nd ref="470955441"/>
    <nd ref="470955442"/>
    <nd ref="470955444"/>
    <nd ref="470955445"/>
    <nd ref="470955446"/>
    <nd ref="470955447"/>
    <nd ref="470955448"/>
    <nd ref="470955449"/>
    <nd ref="470955450"/>
    <nd ref="470955451"/>
    <nd ref="470955452"/>
    <nd ref="470955453"/>
    <nd ref="470955454"/>
    <nd ref="470955455"/>
    <nd ref="470955456"/>
    <nd ref="470955457"/>
    <nd ref="470955458"/>
    <nd ref="470955459"/>
    <nd ref="470955460"/>
    <nd ref="470955461"/>
    <nd ref="470955441"/>
    <tag k="leisure" v="track"/>
  </way>
  <way id="39303713" version="1" timestamp="2009-08-19T10:44:27Z" uid="99207" user="Lar Kiesel" changeset="2199742">
    <nd ref="470955462"/>
    <nd ref="470955463"/>
    <nd ref="470955464"/>
    <nd ref="470955465"/>
    <nd ref="470955462"/>
    <tag k="amenity" v="school"/>
  </way>
  <way id="39303737" version="1" timestamp="2009-08-19T10:44:31Z" uid="99207" user="Lar Kiesel" changeset="2199742">
    <nd ref="470955467"/>
    <nd ref="470955467"/>
    <nd ref="470955468"/>
    <nd ref="470955469"/>
    <nd ref="470955470"/>
    <nd ref="470955471"/>
    <nd ref="470955472"/>
    <nd ref="470955473"/>
    <nd ref="470955475"/>
    <nd ref="470955477"/>
    <nd ref="470955479"/>
    <nd ref="470955481"/>
    <nd ref="470955482"/>
    <nd ref="470955467"/>
    <nd ref="470955466"/>
    <tag k="highway" v="service"/>
  </way>
  <way id="39303737" version="2" timestamp="2009-09-23T00:53:18Z" uid="166129" user="BugBuster" changeset="2584205">
    <nd ref="470955467"/>
    <nd ref="470955468"/>
    <nd ref="470955469"/>
    <nd ref="470955470"/>
    <nd ref="470955471"/>
    <nd ref="470955472"/>
    <nd ref="470955473"/>
    <nd ref="470955475"/>
    <nd ref="470955477"/>
    <nd ref="470955479"/>
    <nd ref="470955481"/>
    <nd ref="470955482"/>
    <nd ref="470955467"/>
    <nd ref="470955466"/>
    <tag k="highway" v="service"/>
  </way>
  <way id="39303743" version="1" timestamp="2009-08-19T10:44:32Z" uid="99207" user="Lar Kiesel" changeset="2199742">
    <nd ref="470955468"/>
    <nd ref="470955483"/>
    <nd ref="470955475"/>
    <tag k="highway" v="service"/>
    <tag k="service" v="parking_aisle"/>
  </way>
  <way id="39303750" version="1" timestamp="2009-08-19T10:44:32Z" uid="99207" user="Lar Kiesel" changeset="2199742">
    <nd ref="470955484"/>
    <nd ref="470955485"/>
    <nd ref="470955486"/>
    <nd ref="470955487"/>
    <nd ref="470955484"/>
    <tag k="amenity" v="parking"/>
  </way>
</osm>
