<?xml version='1.0' encoding='UTF-8'?>
<osm version="0.6" generator="libosmium/2.20.0">
  <way id="39300263" version="1" timestamp="2009-08-19T09:05:32Z" uid="99207" user="Lar Kiesel" changeset="2198777">
    <nd ref="470922632"/>
    <nd ref="470922633"/>
    <nd ref="470922634"/>
    <nd ref="470922635"/>
    <nd ref="470922636"/>
    <nd ref="470922637"/>
    <nd ref="470922638"/>
    <nd ref="470922639"/>
    <nd ref="470922640"/>
    <nd ref="470922641"/>
    <nd ref="470922642"/>
    <nd ref="470922643"/>
    <nd ref="470922644"/>
    <nd ref="470922645"/>
    <nd ref="470922646"/>
    <nd ref="470922647"/>
    <nd ref="470922648"/>
    <nd ref="470922649"/>
    <nd ref="470922650"/>
    <nd ref="470922651"/>
    <nd ref="470922652"/>
    <nd ref="470922653"/>
    <nd ref="470922632"/>
    <tag k="building" v="yes"/>
  </way>
  <way id="39300265" version="1" timestamp="2009-08-19T09:05:36Z" uid="99207" user="Lar Kiesel" changeset="2198777">
    <nd ref="470922654"/>
    <nd ref="470922655"/>
    <nd ref="470922656"/>
    <nd ref="470922657"/>
    <nd ref="470922658"/>
    <nd ref="470922659"/>
    <nd ref="470922660"/>
    <nd ref="470922661"/>
    <nd ref="470922662"/>
    <nd ref="470922663"/>
    <nd ref="470922664"/>
    <nd ref="470922666"/>
    <nd ref="470922667"/>
    <nd ref="470922668"/>
    <nd ref="470922670"/>
    <nd ref="470922671"/>
    <nd ref="470922673"/>
    <nd ref="470922674"/>
    <nd ref="470922675"/>
    <nd ref="470922676"/>
    <nd ref="470922677"/>
    <nd ref="470922678"/>
    <nd ref="470922679"/>
    <nd ref="470922680"/>
    <nd ref="470922681"/>
    <nd ref="470922654"/>
    <tag k="building" v="yes"/>
  </way>
  <way id="39300272" version="5" timestamp="2011-04-20T17:40:49Z" uid="115477" user="wowik" changeset="7918311">
    <nd ref="470923168"/>
    <nd ref="470923169"/>
    <nd ref="470923170"/>
    <nd ref="470923175"/>
    <nd ref="470923168"/>
    <tag k="addr:city" v="Москва"/>
    <tag k="addr:country" v="RU"/>
    <tag k="building" v="yes"/>
    <tag k="name" v="Мавзолей Ленина"/>
    <tag k="name:cs" v="Leninovo Mauzoleum"/>
    <tag k="name:de" v="Lenin-Mausoleum"/>
    <tag k="name:en" v="Lenin&apos;s Mausoleum"/>
    <tag k="name:es" v="Mausoleo de Lenin"/>
    <tag k="name:fr" v="Mausolée de Lénine"/>
    <tag k="name:hu" v="Lenin-mauzóleum"/>
    <tag k="name:ru" v="Мавзолей Ленина"/>
    <tag k="name:sk" v="Mauzóleum Vladimira Iľjiča Lenina"/>
    <tag k="name:vi" v="Lăng Lenin"/>
    <tag k="tourism" v="museum"/>
  </way>
  <way id="39300272" version="6" timestamp="2011-10-13T08:05:22Z" uid="481934" user="iWowik" changeset="9544633">
    <nd ref="470923168"/>
    <nd ref="470923169"/>
    <nd ref="470923170"/>
    <nd ref="470923175"/>
    <nd ref="470923168"/>
    <tag k="addr:city" v="Москва"/>
    <tag k="addr:country" v="RU"/>
    <tag k="building" v="yes"/>
    <tag k="name" v="Мавзолей Ленина"/>
    <tag k="name:be" v="Маўзалей Леніна"/>
    <tag k="name:cs" v="Leninovo Mauzoleum"/>
    <tag k="name:de" v="Lenin-Mausoleum"/>
    <tag k="name:en" v="Lenin&apos;s Mausoleum"/>
    <tag k="name:es" v="Mausoleo de Lenin"/>
    <tag k="name:fr" v="Mausolée de Lénine"/>
    <tag k="name:hu" v="Lenin-mauzóleum"/>
    <tag k="name:ru" v="Мавзолей Ленина"/>
    <tag k="name:sk" v="Mauzóleum Vladimira Iľjiča Lenina"/>
    <tag k="name:vi" v="Lăng Lenin"/>
    <tag k="tourism" v="museum"/>
  </way>
  <way id="39300863" version="4" timestamp="2009-12-27T21:25:55Z" uid="7617" user="Franc" changeset="3467072">
    <nd ref="600165580"/>
    <nd ref="55844124"/>
    <tag k="highway" v="residential"/>
    <tag k="maxspeed" v="50"/>
    <tag k="source" v="nearmap"/>
  </way>
  <way id="39300863" version="5" timestamp="2010-05-08T07:03:18Z" uid="7617" user="Franc" changeset="4636103">
    <nd ref="600165580"/>
    <nd ref="55844124"/>
    <tag k="highway" v="residential"/>
    <tag k="maxspeed" v="50"/>
    <tag k="name" v="High Street"/>
    <tag k="source" v="survey"/>
  </way>
  <way id="39300864" version="2" timestamp="2009-12-11T03:01:04Z" uid="30201" user="rrankin" changeset="3346212">
    <nd ref="448624692"/>
    <nd ref="448624694"/>
    <nd ref="448624696"/>
    <nd ref="448624699"/>
    <nd ref="585709566"/>
    <nd ref="448624703"/>
    <nd ref="448624706"/>
    <tag k="Start / End" v="Liverpool"/>
    <tag k="highway" v="cycleway"/>
    <tag k="name" v="Rail Trail"/>
    <tag k="rcn" v="yes"/>
  </way>
  <way id="39300864" version="3" timestamp="2010-05-09T11:28:06Z" uid="7617" user="Franc" changeset="4647357">
    <nd ref="448624692"/>
    <nd ref="448624694"/>
    <nd ref="448624696"/>
    <nd ref="448624699"/>
    <nd ref="585709566"/>
    <nd ref="448624703"/>
    <nd ref="727333533"/>
    <nd ref="448624706"/>
    <tag k="Start / End" v="Liverpool"/>
    <tag k="highway" v="cycleway"/>
    <tag k="name" v="Rail Trail"/>
    <tag k="rcn" v="yes"/>
  </way>
  <way id="39300864" version="4" timestamp="2011-11-17T11:51:50Z" uid="349913" user="Peter W34" changeset="9853322">
    <nd ref="448624692"/>
    <nd ref="448624694"/>
    <nd ref="448624696"/>
    <nd ref="448624699"/>
    <nd ref="585709566"/>
    <nd ref="448624703"/>
    <nd ref="727333533"/>
    <nd ref="448624706"/>
    <tag k="Start/End" v="Liverpool"/>
    <tag k="highway" v="cycleway"/>
    <tag k="name" v="Rail Trail"/>
    <tag k="rcn" v="yes"/>
  </way>
  <way id="39300864" version="5" timestamp="2011-11-27T09:55:11Z" uid="349913" user="Peter W34" changeset="9964663">
    <nd ref="448624692"/>
    <nd ref="448624694"/>
    <nd ref="448624696"/>
    <nd ref="448624699"/>
    <nd ref="585709566"/>
    <nd ref="448624703"/>
    <nd ref="727333533"/>
    <nd ref="448624706"/>
    <tag k="highway" v="cycleway"/>
    <tag k="name" v="Rail Trail"/>
    <tag k="rcn" v="yes"/>
  </way>
  <way id="39300865" version="2" timestamp="2009-12-11T01:43:42Z" uid="30201" user="rrankin" changeset="3346212">
    <nd ref="348026203"/>
    <nd ref="348026204"/>
    <tag k="bridge" v="yes"/>
    <tag k="foot" v="yes"/>
    <tag k="highway" v="footway"/>
    <tag k="layer" v="1"/>
  </way>
  <way id="39300865" version="3" timestamp="2010-05-08T07:03:21Z" uid="7617" user="Franc" changeset="4636103">
    <nd ref="348026203"/>
    <nd ref="725899407"/>
    <nd ref="348026204"/>
    <tag k="bridge" v="yes"/>
    <tag k="foot" v="yes"/>
    <tag k="highway" v="footway"/>
    <tag k="layer" v="1"/>
  </way>
  <way id="39300934" version="5" timestamp="2010-06-29T19:05:01Z" uid="74617" user="JohnSmith" changeset="5108182">
    <nd ref="470932508"/>
    <nd ref="470932509"/>
    <nd ref="470932511"/>
    <nd ref="537913574"/>
    <nd ref="537913577"/>
    <nd ref="537913579"/>
    <nd ref="537913582"/>
    <nd ref="470932512"/>
    <nd ref="470932508"/>
    <tag k="fixme" v="sport=football is ambiguous, see http://wiki.osm.org/wiki/Football for more details"/>
    <tag k="leisure" v="pitch"/>
    <tag k="sport" v="football"/>
  </way>
  <way id="39300934" version="6" timestamp="2010-11-23T16:55:19Z" uid="354722" user="Quandray" changeset="6440821">
    <nd ref="470932508"/>
    <nd ref="470932509"/>
    <nd ref="470932511"/>
    <nd ref="537913574"/>
    <nd ref="537913577"/>
    <nd ref="537913579"/>
    <nd ref="537913582"/>
    <nd ref="470932512"/>
    <nd ref="470932508"/>
    <tag k="leisure" v="pitch"/>
    <tag k="sport" v="soccer"/>
  </way>
</osm>
