<?xml version='1.0' encoding='UTF-8'?>
<osm version="0.6" generator="libosmium/2.20.0">
  <way id="39474006" version="2" timestamp="2010-08-01T03:05:34Z" uid="18775" user="drlizau" changeset="5367352">
    <nd ref="472731863"/>
    <nd ref="158605850"/>
    <tag k="highway" v="tertiary"/>
    <tag k="name" v="Tamworth Street"/>
    <tag k="source" v="GPS"/>
    <tag k="surface" v="asphalt"/>
  </way>
  <way id="39474006" version="3" timestamp="2011-04-01T14:53:40Z" uid="4467" user="Rosscoe" changeset="7736102">
    <nd ref="472731863"/>
    <nd ref="158605850"/>
    <tag k="highway" v="tertiary"/>
    <tag k="name" v="Tamworth Street"/>
    <tag k="source" v="survey"/>
    <tag k="surface" v="asphalt"/>
    <tag k="survey" v="GPS"/>
  </way>
  <way id="39474007" version="2" timestamp="2010-08-01T03:05:40Z" uid="18775" user="drlizau" changeset="5367352">
    <nd ref="318713461"/>
    <nd ref="472731891"/>
    <nd ref="472731895"/>
    <nd ref="472731863"/>
    <nd ref="318713461"/>
    <tag k="highway" v="tertiary"/>
    <tag k="junction" v="roundabout"/>
    <tag k="source" v="survey"/>
    <tag k="surface" v="asphalt"/>
  </way>
  <way id="39474007" version="3" timestamp="2011-04-01T11:47:21Z" uid="4467" user="Rosscoe" changeset="7734832">
    <nd ref="318713461"/>
    <nd ref="1227849271"/>
    <nd ref="472731891"/>
    <nd ref="1227849559"/>
    <nd ref="472731895"/>
    <nd ref="1227849703"/>
    <nd ref="472731863"/>
    <nd ref="1227849495"/>
    <nd ref="318713461"/>
    <tag k="highway" v="tertiary"/>
    <tag k="junction" v="roundabout"/>
    <tag k="source" v="survey"/>
    <tag k="surface" v="asphalt"/>
  </way>
  <way id="39474008" version="2" timestamp="2010-08-01T03:05:40Z" uid="18775" user="drlizau" changeset="5367352">
    <nd ref="170349007"/>
    <nd ref="472695194"/>
    <nd ref="472731891"/>
    <tag k="highway" v="tertiary"/>
    <tag k="name" v="Tamworth Street"/>
    <tag k="surface" v="asphalt"/>
  </way>
  <way id="39474011" version="2" timestamp="2010-08-01T03:05:33Z" uid="18775" user="drlizau" changeset="5367352">
    <nd ref="472731911"/>
    <nd ref="170367829"/>
    <nd ref="170367839"/>
    <nd ref="170318811"/>
    <nd ref="170318750"/>
    <nd ref="158605860"/>
    <nd ref="170261327"/>
    <nd ref="170261345"/>
    <nd ref="170261374"/>
    <nd ref="170261398"/>
    <nd ref="150937059"/>
    <tag k="highway" v="tertiary"/>
    <tag k="name" v="Darling Street"/>
    <tag k="surface" v="asphalt"/>
  </way>
  <way id="39474013" version="2" timestamp="2010-08-01T03:05:38Z" uid="18775" user="drlizau" changeset="5367352">
    <nd ref="472731911"/>
    <nd ref="170349007"/>
    <nd ref="472731939"/>
    <nd ref="472731944"/>
    <nd ref="472731911"/>
    <tag k="highway" v="tertiary"/>
    <tag k="junction" v="roundabout"/>
    <tag k="source" v="survey"/>
    <tag k="surface" v="asphalt"/>
  </way>
  <way id="39474014" version="2" timestamp="2010-07-07T07:46:10Z" uid="74617" user="JohnSmith" changeset="5156250">
    <nd ref="472695186"/>
    <nd ref="472695194"/>
    <tag k="highway" v="residential"/>
    <tag k="maxspeed" v="50"/>
    <tag k="maxspeed:source" v="default residential speed limit in Australia"/>
    <tag k="name" v="Allison Street"/>
    <tag k="source" v="GPS"/>
    <tag k="surface" v="asphalt"/>
  </way>
  <way id="39474014" version="3" timestamp="2011-04-01T13:42:25Z" uid="4467" user="Rosscoe" changeset="7735639">
    <nd ref="472695186"/>
    <nd ref="472695194"/>
    <tag k="highway" v="residential"/>
    <tag k="maxspeed" v="50"/>
    <tag k="name" v="Allison Street"/>
    <tag k="source" v="GPS"/>
    <tag k="source:maxspeed" v="default residential speed limit in Australia"/>
    <tag k="surface" v="asphalt"/>
  </way>
  <way id="39474014" version="4" timestamp="2011-04-01T14:54:49Z" uid="4467" user="Rosscoe" changeset="7736102">
    <nd ref="472695186"/>
    <nd ref="472695194"/>
    <tag k="highway" v="residential"/>
    <tag k="maxspeed" v="50"/>
    <tag k="name" v="Allison Street"/>
    <tag k="source" v="survey"/>
    <tag k="source:maxspeed" v="default residential speed limit in Australia"/>
    <tag k="surface" v="asphalt"/>
    <tag k="survey" v="GPS"/>
  </way>
  <way id="39474014" version="5" timestamp="2012-01-19T03:46:58Z" uid="147510" user="woodpeck_fixbot" changeset="10433650">
    <nd ref="472695186"/>
    <nd ref="472695194"/>
    <tag k="highway" v="residential"/>
    <tag k="name" v="Allison Street"/>
    <tag k="source" v="survey"/>
    <tag k="source:maxspeed" v="default residential speed limit in Australia"/>
    <tag k="surface" v="asphalt"/>
    <tag k="survey" v="GPS"/>
  </way>
  <way id="39474015" version="2" timestamp="2010-07-07T07:46:48Z" uid="74617" user="JohnSmith" changeset="5156250">
    <nd ref="472731895"/>
    <nd ref="170262466"/>
    <tag k="highway" v="residential"/>
    <tag k="maxspeed" v="50"/>
    <tag k="maxspeed:source" v="default residential speed limit in Australia"/>
    <tag k="name" v="Brisbane Street"/>
    <tag k="surface" v="asphalt"/>
  </way>
  <way id="39474015" version="3" timestamp="2011-04-01T11:47:31Z" uid="4467" user="Rosscoe" changeset="7734832">
    <nd ref="472731895"/>
    <nd ref="1227849739"/>
    <nd ref="170262466"/>
    <tag k="highway" v="residential"/>
    <tag k="maxspeed" v="50"/>
    <tag k="maxspeed:source" v="default residential speed limit in Australia"/>
    <tag k="name" v="Brisbane Street"/>
    <tag k="surface" v="asphalt"/>
  </way>
  <way id="39474015" version="4" timestamp="2011-04-01T13:42:48Z" uid="4467" user="Rosscoe" changeset="7735639">
    <nd ref="472731895"/>
    <nd ref="1227849739"/>
    <nd ref="170262466"/>
    <tag k="highway" v="residential"/>
    <tag k="maxspeed" v="50"/>
    <tag k="name" v="Brisbane Street"/>
    <tag k="source:maxspeed" v="default residential speed limit in Australia"/>
    <tag k="surface" v="asphalt"/>
  </way>
  <way id="39474015" version="5" timestamp="2012-01-19T03:46:59Z" uid="147510" user="woodpeck_fixbot" changeset="10433650">
    <nd ref="472731895"/>
    <nd ref="1227849739"/>
    <nd ref="170262466"/>
    <tag k="highway" v="residential"/>
    <tag k="name" v="Brisbane Street"/>
    <tag k="source:maxspeed" v="default residential speed limit in Australia"/>
    <tag k="surface" v="asphalt"/>
  </way>
  <way id="39474021" version="2" timestamp="2009-10-28T03:07:22Z" uid="23543" user="jkjk" changeset="2970551">
    <nd ref="472732590"/>
    <nd ref="542893785"/>
    <nd ref="683602"/>
    <nd ref="542893775"/>
    <nd ref="703198"/>
    <nd ref="683605"/>
    <nd ref="311405317"/>
    <nd ref="722706"/>
    <nd ref="273516820"/>
    <tag k="highway" v="residential"/>
    <tag k="name" v="Hvězdova"/>
  </way>
  <way id="39474021" version="3" timestamp="2010-02-10T18:31:35Z" uid="5547" user="voda" changeset="3842360">
    <nd ref="472732590"/>
    <nd ref="542893785"/>
    <nd ref="683602"/>
    <nd ref="542893775"/>
    <nd ref="703198"/>
    <nd ref="683605"/>
    <nd ref="311405317"/>
    <nd ref="635123007"/>
    <nd ref="722706"/>
    <nd ref="273516820"/>
    <tag k="highway" v="residential"/>
    <tag k="name" v="Hvězdova"/>
  </way>
  <way id="39474021" version="4" timestamp="2010-05-17T07:49:25Z" uid="3516" user="BiIbo" changeset="4726255">
    <nd ref="472732590"/>
    <nd ref="542893785"/>
    <nd ref="683602"/>
    <nd ref="542893775"/>
    <nd ref="703198"/>
    <nd ref="683605"/>
    <nd ref="311405317"/>
    <nd ref="635123007"/>
    <nd ref="722706"/>
    <nd ref="737188143"/>
    <nd ref="273516820"/>
    <tag k="highway" v="residential"/>
    <tag k="name" v="Hvězdova"/>
  </way>
  <way id="39474021" version="5" timestamp="2010-05-17T07:59:28Z" uid="3516" user="BiIbo" changeset="4726255">
    <nd ref="472732590"/>
    <nd ref="542893785"/>
    <nd ref="683602"/>
    <nd ref="542893775"/>
    <nd ref="703198"/>
    <nd ref="683605"/>
    <tag k="highway" v="residential"/>
    <tag k="name" v="Hvězdova"/>
  </way>
  <way id="39474021" version="6" timestamp="2011-09-28T20:23:19Z" uid="527259" user="Vratislav Filler" changeset="9422846">
    <nd ref="472732590"/>
    <nd ref="542893785"/>
    <nd ref="683602"/>
    <nd ref="542893775"/>
    <nd ref="1448451512"/>
    <tag k="highway" v="residential"/>
    <tag k="name" v="Hvězdova"/>
  </way>
  <way id="39474021" version="7" timestamp="2011-09-30T17:29:55Z" uid="527259" user="Vratislav Filler" changeset="9437117">
    <nd ref="472732590"/>
    <nd ref="542893785"/>
    <nd ref="683602"/>
    <nd ref="542893775"/>
    <nd ref="1448451512"/>
    <tag k="highway" v="tertiary"/>
    <tag k="name" v="Hvězdova"/>
  </way>
  <way id="39474742" version="2" timestamp="2010-04-05T11:59:01Z" uid="74617" user="JohnSmith" changeset="4331807">
    <nd ref="264439509"/>
    <nd ref="29708602"/>
    <tag k="bridge" v="yes"/>
    <tag k="highway" v="primary"/>
    <tag k="layer" v="1"/>
    <tag k="name" v="Springvale Road"/>
    <tag k="oneway" v="yes"/>
    <tag k="ref" v="52"/>
    <tag k="source" v="survey;Yahoo"/>
  </way>
  <way id="39474742" version="3" timestamp="2010-04-13T04:25:26Z" uid="11111" user="lakeyboy" changeset="4410495"/>
  <way id="39474746" version="2" timestamp="2010-04-05T11:59:00Z" uid="74617" user="JohnSmith" changeset="4331807">
    <nd ref="274550140"/>
    <nd ref="29708615"/>
    <tag k="bridge" v="yes"/>
    <tag k="highway" v="trunk"/>
    <tag k="layer" v="1"/>
    <tag k="name" v="Springvale Road"/>
    <tag k="oneway" v="yes"/>
    <tag k="ref" v="52"/>
  </way>
  <way id="39474746" version="3" timestamp="2010-04-13T04:25:14Z" uid="11111" user="lakeyboy" changeset="4410495"/>
  <way id="39474752" version="2" timestamp="2010-04-05T09:52:06Z" uid="74617" user="JohnSmith" changeset="4330839">
    <nd ref="29708615"/>
    <nd ref="264439715"/>
    <tag k="bridge" v="yes"/>
    <tag k="highway" v="trunk"/>
    <tag k="layer" v="1"/>
    <tag k="name" v="Springvale Road"/>
    <tag k="oneway" v="yes"/>
  </way>
  <way id="39474752" version="3" timestamp="2010-04-13T04:25:07Z" uid="11111" user="lakeyboy" changeset="4410495"/>
</osm>
