<?xml version='1.0' encoding='UTF-8'?>
<osm version="0.6" generator="libosmium/2.20.0">
  <way id="39543017" version="1" timestamp="2009-08-25T19:21:54Z" uid="55964" user="Evan Sebire" changeset="2260642">
    <nd ref="473790513"/>
    <nd ref="473792982"/>
    <nd ref="473790291"/>
    <nd ref="473792985"/>
    <nd ref="473792991"/>
    <nd ref="473792996"/>
    <nd ref="473793003"/>
    <nd ref="473793016"/>
    <nd ref="473793022"/>
    <nd ref="473793027"/>
    <nd ref="473793033"/>
    <nd ref="473793039"/>
    <nd ref="473793047"/>
    <nd ref="473793057"/>
    <nd ref="473793067"/>
    <nd ref="473793082"/>
    <nd ref="473793087"/>
    <nd ref="473793092"/>
    <nd ref="473793098"/>
    <nd ref="473793107"/>
    <nd ref="473793115"/>
    <nd ref="473793121"/>
    <nd ref="473793130"/>
    <tag k="highway" v="path"/>
  </way>
  <way id="39543017" version="2" timestamp="2010-04-20T11:09:29Z" uid="55964" user="Evan Sebire" changeset="4476193">
    <nd ref="473790513"/>
    <nd ref="473792982"/>
    <nd ref="473790291"/>
    <nd ref="473792985"/>
    <nd ref="473792991"/>
    <nd ref="473792996"/>
    <nd ref="473793003"/>
    <nd ref="473793016"/>
    <nd ref="473793022"/>
    <nd ref="473793027"/>
    <nd ref="473793033"/>
    <nd ref="473793039"/>
    <nd ref="473793047"/>
    <nd ref="473793057"/>
    <nd ref="473793067"/>
    <nd ref="473793082"/>
    <nd ref="473793087"/>
    <nd ref="473793092"/>
    <nd ref="473793098"/>
    <nd ref="473793107"/>
    <nd ref="473793115"/>
    <nd ref="473793121"/>
    <nd ref="473793130"/>
    <tag k="highway" v="path"/>
    <tag k="source" v="survey"/>
  </way>
  <way id="39543017" version="3" timestamp="2010-05-10T12:15:36Z" uid="55964" user="Evan Sebire" changeset="4658663">
    <nd ref="473790291"/>
    <nd ref="473792982"/>
    <nd ref="473790517"/>
    <nd ref="473790523"/>
    <nd ref="473790530"/>
    <nd ref="473790533"/>
    <nd ref="473790535"/>
    <nd ref="473790538"/>
    <nd ref="473790542"/>
    <nd ref="473790545"/>
    <nd ref="473790549"/>
    <nd ref="702458713"/>
    <tag k="highway" v="track"/>
    <tag k="source" v="survey"/>
    <tag k="tracktype" v="grade3"/>
  </way>
  <way id="39543017" version="4" timestamp="2012-02-16T13:20:48Z" uid="125339" user="efred" changeset="10701588"/>
  <way id="39543018" version="1" timestamp="2009-08-25T19:21:58Z" uid="55964" user="Evan Sebire" changeset="2260642">
    <nd ref="473793152"/>
    <nd ref="473793130"/>
    <nd ref="473793159"/>
    <nd ref="473793165"/>
    <nd ref="473793171"/>
    <nd ref="473793179"/>
    <nd ref="473793186"/>
    <nd ref="473793191"/>
    <nd ref="473793197"/>
    <nd ref="473793203"/>
    <nd ref="473793208"/>
    <nd ref="473793213"/>
    <nd ref="473793218"/>
    <nd ref="473793223"/>
    <nd ref="473793228"/>
    <nd ref="473793233"/>
    <nd ref="473793237"/>
    <nd ref="473793243"/>
    <nd ref="473793250"/>
    <nd ref="473793262"/>
    <nd ref="473793271"/>
    <nd ref="473793279"/>
    <nd ref="473793296"/>
    <nd ref="473793300"/>
    <tag k="highway" v="track"/>
  </way>
  <way id="39543018" version="2" timestamp="2010-05-10T12:15:31Z" uid="55964" user="Evan Sebire" changeset="4658663">
    <nd ref="473793152"/>
    <nd ref="473793130"/>
    <nd ref="473793159"/>
    <nd ref="473793165"/>
    <tag k="highway" v="track"/>
  </way>
  <way id="39543018" version="3" timestamp="2012-02-16T13:20:47Z" uid="125339" user="efred" changeset="10701588"/>
  <way id="39543020" version="1" timestamp="2009-08-25T19:22:00Z" uid="55964" user="Evan Sebire" changeset="2260642">
    <nd ref="473793300"/>
    <nd ref="473793308"/>
    <nd ref="473793310"/>
    <nd ref="473793313"/>
    <nd ref="473793317"/>
    <nd ref="473793328"/>
    <nd ref="473793333"/>
    <nd ref="473793338"/>
    <tag k="highway" v="unclassified"/>
  </way>
  <way id="39543020" version="2" timestamp="2010-04-20T11:09:09Z" uid="55964" user="Evan Sebire" changeset="4476193">
    <nd ref="473793300"/>
    <nd ref="473793308"/>
    <nd ref="473793310"/>
    <nd ref="473793313"/>
    <nd ref="473793317"/>
    <nd ref="473793328"/>
    <nd ref="473793333"/>
    <nd ref="473793338"/>
    <nd ref="702458690"/>
    <nd ref="702458681"/>
    <nd ref="702458684"/>
    <tag k="highway" v="unclassified"/>
    <tag k="name" v="Faltschenstrasse"/>
    <tag k="source" v="survey"/>
  </way>
  <way id="39543020" version="3" timestamp="2010-04-21T21:15:49Z" uid="55964" user="Evan Sebire" changeset="4490987"/>
  <way id="39543279" version="1" timestamp="2009-08-25T19:25:57Z" uid="55964" user="Evan Sebire" changeset="2260687">
    <nd ref="473793328"/>
    <nd ref="473796432"/>
    <nd ref="473796435"/>
    <nd ref="473796437"/>
    <nd ref="473796440"/>
    <nd ref="473796443"/>
    <nd ref="473796445"/>
    <nd ref="473796446"/>
    <nd ref="473796447"/>
    <nd ref="473796448"/>
    <nd ref="473796449"/>
    <nd ref="473796450"/>
    <nd ref="473796451"/>
    <nd ref="473796452"/>
    <nd ref="473796453"/>
    <nd ref="473796454"/>
    <nd ref="473796455"/>
    <nd ref="473796456"/>
    <nd ref="473796457"/>
    <nd ref="473796458"/>
    <nd ref="473796459"/>
    <nd ref="473796461"/>
    <nd ref="473796465"/>
    <nd ref="473796468"/>
    <nd ref="473796471"/>
    <nd ref="473796473"/>
    <nd ref="473796480"/>
    <nd ref="473796486"/>
    <nd ref="473796490"/>
    <nd ref="473796495"/>
    <nd ref="473796500"/>
    <nd ref="473796503"/>
    <nd ref="473796504"/>
    <nd ref="473796507"/>
    <nd ref="473796512"/>
    <nd ref="473796515"/>
    <nd ref="473796518"/>
    <nd ref="473796522"/>
    <tag k="highway" v="residential"/>
  </way>
  <way id="39543279" version="2" timestamp="2009-08-25T19:38:48Z" uid="55964" user="Evan Sebire" changeset="2260839">
    <nd ref="473793328"/>
    <nd ref="473796432"/>
    <nd ref="473796435"/>
    <nd ref="473796437"/>
    <nd ref="473796440"/>
    <nd ref="473796443"/>
    <nd ref="473796445"/>
    <nd ref="473796446"/>
    <nd ref="473796447"/>
    <nd ref="473796448"/>
    <nd ref="473796449"/>
    <nd ref="473796450"/>
    <nd ref="473796451"/>
    <nd ref="473796452"/>
    <nd ref="473796453"/>
    <nd ref="473796454"/>
    <nd ref="473796455"/>
    <nd ref="473796456"/>
    <nd ref="473796457"/>
    <nd ref="473796458"/>
    <nd ref="473796459"/>
    <nd ref="473796461"/>
    <nd ref="473796465"/>
    <nd ref="473796468"/>
    <nd ref="473796471"/>
    <nd ref="473796473"/>
    <nd ref="473796480"/>
    <nd ref="473796486"/>
    <nd ref="473796490"/>
    <nd ref="473796495"/>
    <nd ref="473796500"/>
    <nd ref="473796503"/>
    <nd ref="473796504"/>
    <nd ref="473796507"/>
    <nd ref="473805687"/>
    <nd ref="473796512"/>
    <nd ref="473796515"/>
    <nd ref="473796518"/>
    <nd ref="473796522"/>
    <tag k="highway" v="residential"/>
  </way>
  <way id="39543279" version="3" timestamp="2012-02-16T08:19:16Z" uid="125339" user="efred" changeset="10699522"/>
  <way id="39543311" version="2" timestamp="2010-01-24T14:31:01Z" uid="9581" user="Lobelt" changeset="3701566">
    <nd ref="373455286"/>
    <nd ref="373455289"/>
    <nd ref="619231302"/>
    <tag k="highway" v="track"/>
    <tag k="tracktype" v="grade2"/>
  </way>
  <way id="39543311" version="3" timestamp="2010-11-15T14:26:07Z" uid="297419" user="Dresl" changeset="6377800">
    <nd ref="373455286"/>
    <nd ref="373455289"/>
    <tag k="highway" v="track"/>
    <tag k="tracktype" v="grade2"/>
  </way>
  <way id="39543311" version="4" timestamp="2010-12-05T20:47:27Z" uid="297419" user="Dresl" changeset="6556124"/>
  <way id="39543567" version="2" timestamp="2009-10-23T18:25:53Z" uid="9581" user="Lobelt" changeset="2932218">
    <nd ref="473802051"/>
    <nd ref="473802052"/>
    <nd ref="473802055"/>
    <nd ref="539111233"/>
    <nd ref="539111126"/>
    <nd ref="473802065"/>
    <tag k="highway" v="unclassified"/>
    <tag k="name" v="Am Lockschuppen"/>
  </way>
  <way id="39543567" version="3" timestamp="2009-11-25T19:40:55Z" uid="45827" user="danyx" changeset="3215055">
    <nd ref="271088643"/>
    <nd ref="571174216"/>
    <nd ref="473802052"/>
    <nd ref="473802055"/>
    <nd ref="539111233"/>
    <nd ref="539111126"/>
    <nd ref="473802065"/>
    <tag k="highway" v="unclassified"/>
    <tag k="name" v="Am Lockschuppen"/>
  </way>
  <way id="39543567" version="4" timestamp="2011-03-04T23:46:33Z" uid="5735" user="ColinMarquardt" changeset="7459279">
    <nd ref="271088643"/>
    <nd ref="571174216"/>
    <nd ref="473802052"/>
    <nd ref="473802055"/>
    <nd ref="539111233"/>
    <nd ref="539111126"/>
    <nd ref="473802065"/>
    <tag k="highway" v="unclassified"/>
    <tag k="name" v="Am Lokschuppen"/>
  </way>
  <way id="39543707" version="3" timestamp="2011-01-12T10:24:39Z" uid="115477" user="wowik" changeset="6945653">
    <nd ref="473803722"/>
    <nd ref="473803639"/>
    <nd ref="473803659"/>
    <nd ref="473803656"/>
    <nd ref="473803722"/>
    <tag k="addr:city" v="Зеленоград"/>
    <tag k="addr:housenumber" v="516"/>
    <tag k="addr:street" v="5-й Микрорайон"/>
    <tag k="building" v="yes"/>
    <tag k="building:use" v="residential"/>
    <tag k="is_in" v="Russia"/>
  </way>
  <way id="39543707" version="4" timestamp="2011-06-07T20:48:19Z" uid="133332" user="AMDmi3" changeset="8374030">
    <nd ref="473803722"/>
    <nd ref="473803639"/>
    <nd ref="473803659"/>
    <nd ref="473803656"/>
    <nd ref="473803722"/>
    <tag k="addr:city" v="Зеленоград"/>
    <tag k="addr:housenumber" v="516"/>
    <tag k="addr:street" v="5-й микрорайон"/>
    <tag k="building" v="yes"/>
    <tag k="building:use" v="residential"/>
    <tag k="is_in" v="Russia"/>
  </way>
  <way id="39543707" version="5" timestamp="2011-09-13T10:27:35Z" uid="29320" user="Komяpa" changeset="9288237">
    <nd ref="473803722"/>
    <nd ref="473803639"/>
    <nd ref="473803659"/>
    <nd ref="473803656"/>
    <nd ref="473803722"/>
    <tag k="addr:city" v="Зеленоград"/>
    <tag k="addr:country" v="RU"/>
    <tag k="addr:housenumber" v="516"/>
    <tag k="addr:street" v="5-й микрорайон"/>
    <tag k="building" v="yes"/>
    <tag k="building:use" v="residential"/>
  </way>
  <way id="39543707" version="6" timestamp="2011-10-28T10:27:05Z" uid="481934" user="iWowik" changeset="9675133">
    <nd ref="473803722"/>
    <nd ref="473803639"/>
    <nd ref="473803659"/>
    <nd ref="473803656"/>
    <nd ref="473803722"/>
    <tag k="addr:city" v="Зеленоград"/>
    <tag k="addr:country" v="RU"/>
    <tag k="addr:housenumber" v="516"/>
    <tag k="addr:street" v="5-й Микрорайон"/>
    <tag k="building" v="yes"/>
    <tag k="building:use" v="residential"/>
  </way>
  <way id="39543707" version="7" timestamp="2011-11-14T20:33:35Z" uid="133332" user="AMDmi3" changeset="9828527">
    <nd ref="473803722"/>
    <nd ref="473803639"/>
    <nd ref="473803659"/>
    <nd ref="473803656"/>
    <nd ref="473803722"/>
    <tag k="addr:city" v="Зеленоград"/>
    <tag k="addr:country" v="RU"/>
    <tag k="addr:housenumber" v="516"/>
    <tag k="addr:street" v="5-й микрорайон"/>
    <tag k="building" v="yes"/>
    <tag k="building:use" v="residential"/>
  </way>
  <way id="39543707" version="8" timestamp="2012-01-10T15:22:16Z" uid="481934" user="iWowik" changeset="10352148">
    <nd ref="473803722"/>
    <nd ref="473803639"/>
    <nd ref="473803659"/>
    <nd ref="473803656"/>
    <nd ref="473803722"/>
    <tag k="addr:city" v="Зеленоград"/>
    <tag k="addr:country" v="RU"/>
    <tag k="addr:housenumber" v="516"/>
    <tag k="building" v="yes"/>
    <tag k="building:use" v="residential"/>
  </way>
  <way id="39543708" version="3" timestamp="2011-01-12T10:25:36Z" uid="115477" user="wowik" changeset="6945653">
    <nd ref="473803680"/>
    <nd ref="473803653"/>
    <nd ref="473803644"/>
    <nd ref="473803683"/>
    <nd ref="473803680"/>
    <tag k="addr:city" v="Зеленоград"/>
    <tag k="addr:housenumber" v="521"/>
    <tag k="addr:street" v="5-й Микрорайон"/>
    <tag k="building" v="yes"/>
    <tag k="building:use" v="residential"/>
    <tag k="is_in" v="Russia"/>
  </way>
  <way id="39543708" version="4" timestamp="2011-06-07T20:48:19Z" uid="133332" user="AMDmi3" changeset="8374030">
    <nd ref="473803680"/>
    <nd ref="473803653"/>
    <nd ref="473803644"/>
    <nd ref="473803683"/>
    <nd ref="473803680"/>
    <tag k="addr:city" v="Зеленоград"/>
    <tag k="addr:housenumber" v="521"/>
    <tag k="addr:street" v="5-й микрорайон"/>
    <tag k="building" v="yes"/>
    <tag k="building:use" v="residential"/>
    <tag k="is_in" v="Russia"/>
  </way>
  <way id="39543708" version="5" timestamp="2011-09-13T10:27:37Z" uid="29320" user="Komяpa" changeset="9288237">
    <nd ref="473803680"/>
    <nd ref="473803653"/>
    <nd ref="473803644"/>
    <nd ref="473803683"/>
    <nd ref="473803680"/>
    <tag k="addr:city" v="Зеленоград"/>
    <tag k="addr:country" v="RU"/>
    <tag k="addr:housenumber" v="521"/>
    <tag k="addr:street" v="5-й микрорайон"/>
    <tag k="building" v="yes"/>
    <tag k="building:use" v="residential"/>
  </way>
  <way id="39543708" version="6" timestamp="2011-10-28T10:27:07Z" uid="481934" user="iWowik" changeset="9675133">
    <nd ref="473803680"/>
    <nd ref="473803653"/>
    <nd ref="473803644"/>
    <nd ref="473803683"/>
    <nd ref="473803680"/>
    <tag k="addr:city" v="Зеленоград"/>
    <tag k="addr:country" v="RU"/>
    <tag k="addr:housenumber" v="521"/>
    <tag k="addr:street" v="5-й Микрорайон"/>
    <tag k="building" v="yes"/>
    <tag k="building:use" v="residential"/>
  </way>
  <way id="39543708" version="7" timestamp="2011-11-14T20:33:37Z" uid="133332" user="AMDmi3" changeset="9828527">
    <nd ref="473803680"/>
    <nd ref="473803653"/>
    <nd ref="473803644"/>
    <nd ref="473803683"/>
    <nd ref="473803680"/>
    <tag k="addr:city" v="Зеленоград"/>
    <tag k="addr:country" v="RU"/>
    <tag k="addr:housenumber" v="521"/>
    <tag k="addr:street" v="5-й микрорайон"/>
    <tag k="building" v="yes"/>
    <tag k="building:use" v="residential"/>
  </way>
  <way id="39543708" version="8" timestamp="2012-01-10T15:22:19Z" uid="481934" user="iWowik" changeset="10352148">
    <nd ref="473803680"/>
    <nd ref="473803653"/>
    <nd ref="473803644"/>
    <nd ref="473803683"/>
    <nd ref="473803680"/>
    <tag k="addr:city" v="Зеленоград"/>
    <tag k="addr:country" v="RU"/>
    <tag k="addr:housenumber" v="521"/>
    <tag k="building" v="yes"/>
    <tag k="building:use" v="residential"/>
    <tag k="sorting_name" v="5-й микрорайон/521"/>
  </way>
  <way id="39543709" version="3" timestamp="2011-01-12T10:25:22Z" uid="115477" user="wowik" changeset="6945653">
    <nd ref="473803721"/>
    <nd ref="473803755"/>
    <nd ref="473803634"/>
    <nd ref="473803657"/>
    <nd ref="473803721"/>
    <tag k="addr:city" v="Зеленоград"/>
    <tag k="addr:housenumber" v="510"/>
    <tag k="addr:street" v="5-й Микрорайон"/>
    <tag k="building" v="yes"/>
    <tag k="building:use" v="residential"/>
    <tag k="is_in" v="Russia"/>
  </way>
  <way id="39543709" version="4" timestamp="2011-01-17T12:51:21Z" uid="115477" user="wowik" changeset="6999083">
    <nd ref="473803721"/>
    <nd ref="1107514329"/>
    <nd ref="1107514138"/>
    <nd ref="473803755"/>
    <nd ref="1107514227"/>
    <nd ref="1107514290"/>
    <nd ref="473803634"/>
    <nd ref="1107514147"/>
    <nd ref="1107514300"/>
    <nd ref="473803657"/>
    <nd ref="1107514174"/>
    <nd ref="1107514199"/>
    <nd ref="473803721"/>
    <tag k="addr:city" v="Зеленоград"/>
    <tag k="addr:housenumber" v="510"/>
    <tag k="addr:street" v="5-й Микрорайон"/>
    <tag k="building" v="yes"/>
    <tag k="building:use" v="residential"/>
    <tag k="is_in" v="Russia"/>
  </way>
  <way id="39543709" version="5" timestamp="2011-06-07T20:48:19Z" uid="133332" user="AMDmi3" changeset="8374030">
    <nd ref="473803721"/>
    <nd ref="1107514329"/>
    <nd ref="1107514138"/>
    <nd ref="473803755"/>
    <nd ref="1107514227"/>
    <nd ref="1107514290"/>
    <nd ref="473803634"/>
    <nd ref="1107514147"/>
    <nd ref="1107514300"/>
    <nd ref="473803657"/>
    <nd ref="1107514174"/>
    <nd ref="1107514199"/>
    <nd ref="473803721"/>
    <tag k="addr:city" v="Зеленоград"/>
    <tag k="addr:housenumber" v="510"/>
    <tag k="addr:street" v="5-й микрорайон"/>
    <tag k="building" v="yes"/>
    <tag k="building:use" v="residential"/>
    <tag k="is_in" v="Russia"/>
  </way>
  <way id="39543709" version="6" timestamp="2011-09-13T10:27:33Z" uid="29320" user="Komяpa" changeset="9288237">
    <nd ref="473803721"/>
    <nd ref="1107514329"/>
    <nd ref="1107514138"/>
    <nd ref="473803755"/>
    <nd ref="1107514227"/>
    <nd ref="1107514290"/>
    <nd ref="473803634"/>
    <nd ref="1107514147"/>
    <nd ref="1107514300"/>
    <nd ref="473803657"/>
    <nd ref="1107514174"/>
    <nd ref="1107514199"/>
    <nd ref="473803721"/>
    <tag k="addr:city" v="Зеленоград"/>
    <tag k="addr:country" v="RU"/>
    <tag k="addr:housenumber" v="510"/>
    <tag k="addr:street" v="5-й микрорайон"/>
    <tag k="building" v="yes"/>
    <tag k="building:use" v="residential"/>
  </way>
  <way id="39543709" version="7" timestamp="2011-10-28T10:27:04Z" uid="481934" user="iWowik" changeset="9675133">
    <nd ref="473803721"/>
    <nd ref="1107514329"/>
    <nd ref="1107514138"/>
    <nd ref="473803755"/>
    <nd ref="1107514227"/>
    <nd ref="1107514290"/>
    <nd ref="473803634"/>
    <nd ref="1107514147"/>
    <nd ref="1107514300"/>
    <nd ref="473803657"/>
    <nd ref="1107514174"/>
    <nd ref="1107514199"/>
    <nd ref="473803721"/>
    <tag k="addr:city" v="Зеленоград"/>
    <tag k="addr:country" v="RU"/>
    <tag k="addr:housenumber" v="510"/>
    <tag k="addr:street" v="5-й Микрорайон"/>
    <tag k="building" v="yes"/>
    <tag k="building:use" v="residential"/>
  </way>
  <way id="39543709" version="8" timestamp="2011-11-14T20:33:33Z" uid="133332" user="AMDmi3" changeset="9828527">
    <nd ref="473803721"/>
    <nd ref="1107514329"/>
    <nd ref="1107514138"/>
    <nd ref="473803755"/>
    <nd ref="1107514227"/>
    <nd ref="1107514290"/>
    <nd ref="473803634"/>
    <nd ref="1107514147"/>
    <nd ref="1107514300"/>
    <nd ref="473803657"/>
    <nd ref="1107514174"/>
    <nd ref="1107514199"/>
    <nd ref="473803721"/>
    <tag k="addr:city" v="Зеленоград"/>
    <tag k="addr:country" v="RU"/>
    <tag k="addr:housenumber" v="510"/>
    <tag k="addr:street" v="5-й микрорайон"/>
    <tag k="building" v="yes"/>
    <tag k="building:use" v="residential"/>
  </way>
  <way id="39543709" version="9" timestamp="2012-01-10T15:22:13Z" uid="481934" user="iWowik" changeset="10352148">
    <nd ref="473803721"/>
    <nd ref="1107514329"/>
    <nd ref="1107514138"/>
    <nd ref="473803755"/>
    <nd ref="1107514227"/>
    <nd ref="1107514290"/>
    <nd ref="473803634"/>
    <nd ref="1107514147"/>
    <nd ref="1107514300"/>
    <nd ref="473803657"/>
    <nd ref="1107514174"/>
    <nd ref="1107514199"/>
    <nd ref="473803721"/>
    <tag k="addr:city" v="Зеленоград"/>
    <tag k="addr:country" v="RU"/>
    <tag k="addr:housenumber" v="510"/>
    <tag k="building" v="yes"/>
    <tag k="building:use" v="residential"/>
  </way>
  <way id="39543710" version="3" timestamp="2011-01-17T13:34:15Z" uid="115477" user="wowik" changeset="6999508">
    <nd ref="473803750"/>
    <nd ref="1107548432"/>
    <nd ref="1107548323"/>
    <nd ref="1107548348"/>
    <nd ref="473803686"/>
    <nd ref="1107548356"/>
    <nd ref="1107548488"/>
    <nd ref="473803734"/>
    <nd ref="1107548385"/>
    <nd ref="1107548400"/>
    <nd ref="473803671"/>
    <nd ref="1107548479"/>
    <nd ref="473803750"/>
    <tag k="addr:city" v="Зеленоград"/>
    <tag k="addr:housenumber" v="501"/>
    <tag k="addr:street" v="5-й Микрорайон"/>
    <tag k="building" v="yes"/>
    <tag k="is_in" v="Russia"/>
  </way>
  <way id="39543710" version="4" timestamp="2011-06-07T20:48:18Z" uid="133332" user="AMDmi3" changeset="8374030">
    <nd ref="473803750"/>
    <nd ref="1107548432"/>
    <nd ref="1107548323"/>
    <nd ref="1107548348"/>
    <nd ref="473803686"/>
    <nd ref="1107548356"/>
    <nd ref="1107548488"/>
    <nd ref="473803734"/>
    <nd ref="1107548385"/>
    <nd ref="1107548400"/>
    <nd ref="473803671"/>
    <nd ref="1107548479"/>
    <nd ref="473803750"/>
    <tag k="addr:city" v="Зеленоград"/>
    <tag k="addr:housenumber" v="501"/>
    <tag k="addr:street" v="5-й микрорайон"/>
    <tag k="building" v="yes"/>
    <tag k="is_in" v="Russia"/>
  </way>
  <way id="39543710" version="5" timestamp="2011-09-13T10:27:30Z" uid="29320" user="Komяpa" changeset="9288237">
    <nd ref="473803750"/>
    <nd ref="1107548432"/>
    <nd ref="1107548323"/>
    <nd ref="1107548348"/>
    <nd ref="473803686"/>
    <nd ref="1107548356"/>
    <nd ref="1107548488"/>
    <nd ref="473803734"/>
    <nd ref="1107548385"/>
    <nd ref="1107548400"/>
    <nd ref="473803671"/>
    <nd ref="1107548479"/>
    <nd ref="473803750"/>
    <tag k="addr:city" v="Зеленоград"/>
    <tag k="addr:country" v="RU"/>
    <tag k="addr:housenumber" v="501"/>
    <tag k="addr:street" v="5-й микрорайон"/>
    <tag k="building" v="yes"/>
  </way>
  <way id="39543710" version="6" timestamp="2011-10-28T10:27:02Z" uid="481934" user="iWowik" changeset="9675133">
    <nd ref="473803750"/>
    <nd ref="1107548432"/>
    <nd ref="1107548323"/>
    <nd ref="1107548348"/>
    <nd ref="473803686"/>
    <nd ref="1107548356"/>
    <nd ref="1107548488"/>
    <nd ref="473803734"/>
    <nd ref="1107548385"/>
    <nd ref="1107548400"/>
    <nd ref="473803671"/>
    <nd ref="1107548479"/>
    <nd ref="473803750"/>
    <tag k="addr:city" v="Зеленоград"/>
    <tag k="addr:country" v="RU"/>
    <tag k="addr:housenumber" v="501"/>
    <tag k="addr:street" v="5-й Микрорайон"/>
    <tag k="building" v="yes"/>
  </way>
  <way id="39543710" version="7" timestamp="2011-11-14T20:33:31Z" uid="133332" user="AMDmi3" changeset="9828527">
    <nd ref="473803750"/>
    <nd ref="1107548432"/>
    <nd ref="1107548323"/>
    <nd ref="1107548348"/>
    <nd ref="473803686"/>
    <nd ref="1107548356"/>
    <nd ref="1107548488"/>
    <nd ref="473803734"/>
    <nd ref="1107548385"/>
    <nd ref="1107548400"/>
    <nd ref="473803671"/>
    <nd ref="1107548479"/>
    <nd ref="473803750"/>
    <tag k="addr:city" v="Зеленоград"/>
    <tag k="addr:country" v="RU"/>
    <tag k="addr:housenumber" v="501"/>
    <tag k="addr:street" v="5-й микрорайон"/>
    <tag k="building" v="yes"/>
  </way>
  <way id="39543710" version="8" timestamp="2012-01-10T15:22:09Z" uid="481934" user="iWowik" changeset="10352148">
    <nd ref="473803750"/>
    <nd ref="1107548432"/>
    <nd ref="1107548323"/>
    <nd ref="1107548348"/>
    <nd ref="473803686"/>
    <nd ref="1107548356"/>
    <nd ref="1107548488"/>
    <nd ref="473803734"/>
    <nd ref="1107548385"/>
    <nd ref="1107548400"/>
    <nd ref="473803671"/>
    <nd ref="1107548479"/>
    <nd ref="473803750"/>
    <tag k="addr:city" v="Зеленоград"/>
    <tag k="addr:country" v="RU"/>
    <tag k="addr:housenumber" v="501"/>
    <tag k="building" v="yes"/>
  </way>
  <way id="39543711" version="3" timestamp="2011-01-12T10:25:01Z" uid="115477" user="wowik" changeset="6945653">
    <nd ref="473803662"/>
    <nd ref="473803749"/>
    <nd ref="473803715"/>
    <nd ref="473803730"/>
    <nd ref="473803662"/>
    <tag k="addr:city" v="Зеленоград"/>
    <tag k="addr:housenumber" v="508"/>
    <tag k="addr:street" v="5-й Микрорайон"/>
    <tag k="building" v="yes"/>
    <tag k="building:use" v="residential"/>
    <tag k="is_in" v="Russia"/>
  </way>
  <way id="39543711" version="4" timestamp="2011-01-17T12:51:30Z" uid="115477" user="wowik" changeset="6999083">
    <nd ref="473803662"/>
    <nd ref="1107514117"/>
    <nd ref="1107514202"/>
    <nd ref="473803749"/>
    <nd ref="1107514170"/>
    <nd ref="1107514293"/>
    <nd ref="1107514140"/>
    <nd ref="473803715"/>
    <nd ref="1107514255"/>
    <nd ref="473803730"/>
    <nd ref="1107514149"/>
    <nd ref="1107514230"/>
    <nd ref="473803662"/>
    <tag k="addr:city" v="Зеленоград"/>
    <tag k="addr:housenumber" v="508"/>
    <tag k="addr:street" v="5-й Микрорайон"/>
    <tag k="building" v="yes"/>
    <tag k="building:use" v="residential"/>
    <tag k="is_in" v="Russia"/>
  </way>
  <way id="39543711" version="5" timestamp="2011-06-07T20:48:17Z" uid="133332" user="AMDmi3" changeset="8374030">
    <nd ref="473803662"/>
    <nd ref="1107514117"/>
    <nd ref="1107514202"/>
    <nd ref="473803749"/>
    <nd ref="1107514170"/>
    <nd ref="1107514293"/>
    <nd ref="1107514140"/>
    <nd ref="473803715"/>
    <nd ref="1107514255"/>
    <nd ref="473803730"/>
    <nd ref="1107514149"/>
    <nd ref="1107514230"/>
    <nd ref="473803662"/>
    <tag k="addr:city" v="Зеленоград"/>
    <tag k="addr:housenumber" v="508"/>
    <tag k="addr:street" v="5-й микрорайон"/>
    <tag k="building" v="yes"/>
    <tag k="building:use" v="residential"/>
    <tag k="is_in" v="Russia"/>
  </way>
  <way id="39543711" version="6" timestamp="2011-09-13T10:27:32Z" uid="29320" user="Komяpa" changeset="9288237">
    <nd ref="473803662"/>
    <nd ref="1107514117"/>
    <nd ref="1107514202"/>
    <nd ref="473803749"/>
    <nd ref="1107514170"/>
    <nd ref="1107514293"/>
    <nd ref="1107514140"/>
    <nd ref="473803715"/>
    <nd ref="1107514255"/>
    <nd ref="473803730"/>
    <nd ref="1107514149"/>
    <nd ref="1107514230"/>
    <nd ref="473803662"/>
    <tag k="addr:city" v="Зеленоград"/>
    <tag k="addr:country" v="RU"/>
    <tag k="addr:housenumber" v="508"/>
    <tag k="addr:street" v="5-й микрорайон"/>
    <tag k="building" v="yes"/>
    <tag k="building:use" v="residential"/>
  </way>
  <way id="39543711" version="7" timestamp="2011-10-28T10:27:03Z" uid="481934" user="iWowik" changeset="9675133">
    <nd ref="473803662"/>
    <nd ref="1107514117"/>
    <nd ref="1107514202"/>
    <nd ref="473803749"/>
    <nd ref="1107514170"/>
    <nd ref="1107514293"/>
    <nd ref="1107514140"/>
    <nd ref="473803715"/>
    <nd ref="1107514255"/>
    <nd ref="473803730"/>
    <nd ref="1107514149"/>
    <nd ref="1107514230"/>
    <nd ref="473803662"/>
    <tag k="addr:city" v="Зеленоград"/>
    <tag k="addr:country" v="RU"/>
    <tag k="addr:housenumber" v="508"/>
    <tag k="addr:street" v="5-й Микрорайон"/>
    <tag k="building" v="yes"/>
    <tag k="building:use" v="residential"/>
  </way>
  <way id="39543711" version="8" timestamp="2011-11-14T20:33:33Z" uid="133332" user="AMDmi3" changeset="9828527">
    <nd ref="473803662"/>
    <nd ref="1107514117"/>
    <nd ref="1107514202"/>
    <nd ref="473803749"/>
    <nd ref="1107514170"/>
    <nd ref="1107514293"/>
    <nd ref="1107514140"/>
    <nd ref="473803715"/>
    <nd ref="1107514255"/>
    <nd ref="473803730"/>
    <nd ref="1107514149"/>
    <nd ref="1107514230"/>
    <nd ref="473803662"/>
    <tag k="addr:city" v="Зеленоград"/>
    <tag k="addr:country" v="RU"/>
    <tag k="addr:housenumber" v="508"/>
    <tag k="addr:street" v="5-й микрорайон"/>
    <tag k="building" v="yes"/>
    <tag k="building:use" v="residential"/>
  </way>
  <way id="39543711" version="9" timestamp="2012-01-10T15:22:12Z" uid="481934" user="iWowik" changeset="10352148">
    <nd ref="473803662"/>
    <nd ref="1107514117"/>
    <nd ref="1107514202"/>
    <nd ref="473803749"/>
    <nd ref="1107514170"/>
    <nd ref="1107514293"/>
    <nd ref="1107514140"/>
    <nd ref="473803715"/>
    <nd ref="1107514255"/>
    <nd ref="473803730"/>
    <nd ref="1107514149"/>
    <nd ref="1107514230"/>
    <nd ref="473803662"/>
    <tag k="addr:city" v="Зеленоград"/>
    <tag k="addr:country" v="RU"/>
    <tag k="addr:housenumber" v="508"/>
    <tag k="building" v="yes"/>
    <tag k="building:use" v="residential"/>
  </way>
  <way id="39543711" version="10" timestamp="2012-03-27T11:44:43Z" uid="481934" user="iWowik" changeset="11115472">
    <nd ref="473803662"/>
    <nd ref="1107514117"/>
    <nd ref="1107514202"/>
    <nd ref="473803749"/>
    <nd ref="1107514170"/>
    <nd ref="1107514293"/>
    <nd ref="1107514140"/>
    <nd ref="473803715"/>
    <nd ref="1107514255"/>
    <nd ref="473803730"/>
    <nd ref="1107514149"/>
    <nd ref="1107514230"/>
    <nd ref="473803662"/>
    <tag k="addr:city" v="Зеленоград"/>
    <tag k="addr:country" v="RU"/>
    <tag k="addr:housenumber" v="508"/>
    <tag k="addr:region" v="Москва"/>
    <tag k="building" v="yes"/>
    <tag k="building:use" v="residential"/>
  </way>
  <way id="39543713" version="3" timestamp="2011-01-12T10:25:19Z" uid="115477" user="wowik" changeset="6945653">
    <nd ref="473803633"/>
    <nd ref="473803635"/>
    <nd ref="473803649"/>
    <nd ref="473803674"/>
    <nd ref="473803633"/>
    <tag k="addr:city" v="Зеленоград"/>
    <tag k="addr:housenumber" v="519"/>
    <tag k="addr:street" v="5-й Микрорайон"/>
    <tag k="building" v="yes"/>
    <tag k="building:use" v="residential"/>
    <tag k="is_in" v="Russia"/>
  </way>
  <way id="39543713" version="4" timestamp="2011-06-07T20:48:16Z" uid="133332" user="AMDmi3" changeset="8374030">
    <nd ref="473803633"/>
    <nd ref="473803635"/>
    <nd ref="473803649"/>
    <nd ref="473803674"/>
    <nd ref="473803633"/>
    <tag k="addr:city" v="Зеленоград"/>
    <tag k="addr:housenumber" v="519"/>
    <tag k="addr:street" v="5-й микрорайон"/>
    <tag k="building" v="yes"/>
    <tag k="building:use" v="residential"/>
    <tag k="is_in" v="Russia"/>
  </way>
  <way id="39543713" version="5" timestamp="2011-09-13T10:27:36Z" uid="29320" user="Komяpa" changeset="9288237">
    <nd ref="473803633"/>
    <nd ref="473803635"/>
    <nd ref="473803649"/>
    <nd ref="473803674"/>
    <nd ref="473803633"/>
    <tag k="addr:city" v="Зеленоград"/>
    <tag k="addr:country" v="RU"/>
    <tag k="addr:housenumber" v="519"/>
    <tag k="addr:street" v="5-й микрорайон"/>
    <tag k="building" v="yes"/>
    <tag k="building:use" v="residential"/>
  </way>
  <way id="39543713" version="6" timestamp="2011-10-28T10:27:06Z" uid="481934" user="iWowik" changeset="9675133">
    <nd ref="473803633"/>
    <nd ref="473803635"/>
    <nd ref="473803649"/>
    <nd ref="473803674"/>
    <nd ref="473803633"/>
    <tag k="addr:city" v="Зеленоград"/>
    <tag k="addr:country" v="RU"/>
    <tag k="addr:housenumber" v="519"/>
    <tag k="addr:street" v="5-й Микрорайон"/>
    <tag k="building" v="yes"/>
    <tag k="building:use" v="residential"/>
  </way>
  <way id="39543713" version="7" timestamp="2011-11-14T20:33:36Z" uid="133332" user="AMDmi3" changeset="9828527">
    <nd ref="473803633"/>
    <nd ref="473803635"/>
    <nd ref="473803649"/>
    <nd ref="473803674"/>
    <nd ref="473803633"/>
    <tag k="addr:city" v="Зеленоград"/>
    <tag k="addr:country" v="RU"/>
    <tag k="addr:housenumber" v="519"/>
    <tag k="addr:street" v="5-й микрорайон"/>
    <tag k="building" v="yes"/>
    <tag k="building:use" v="residential"/>
  </way>
  <way id="39543713" version="8" timestamp="2012-01-10T15:22:18Z" uid="481934" user="iWowik" changeset="10352148">
    <nd ref="473803633"/>
    <nd ref="473803635"/>
    <nd ref="473803649"/>
    <nd ref="473803674"/>
    <nd ref="473803633"/>
    <tag k="addr:city" v="Зеленоград"/>
    <tag k="addr:country" v="RU"/>
    <tag k="addr:housenumber" v="519"/>
    <tag k="building" v="yes"/>
    <tag k="building:use" v="residential"/>
    <tag k="sorting_name" v="5-й микрорайон/519"/>
  </way>
  <way id="39543714" version="3" timestamp="2011-01-12T10:25:08Z" uid="115477" user="wowik" changeset="6945653">
    <nd ref="473803652"/>
    <nd ref="473803753"/>
    <nd ref="473803638"/>
    <nd ref="473803743"/>
    <nd ref="473803652"/>
    <tag k="addr:city" v="Зеленоград"/>
    <tag k="addr:housenumber" v="504"/>
    <tag k="addr:street" v="5-й Микрорайон"/>
    <tag k="building" v="yes"/>
    <tag k="building:use" v="residential"/>
    <tag k="is_in" v="Russia"/>
  </way>
  <way id="39543714" version="4" timestamp="2011-06-07T20:48:17Z" uid="133332" user="AMDmi3" changeset="8374030">
    <nd ref="473803652"/>
    <nd ref="473803753"/>
    <nd ref="473803638"/>
    <nd ref="473803743"/>
    <nd ref="473803652"/>
    <tag k="addr:city" v="Зеленоград"/>
    <tag k="addr:housenumber" v="504"/>
    <tag k="addr:street" v="5-й микрорайон"/>
    <tag k="building" v="yes"/>
    <tag k="building:use" v="residential"/>
    <tag k="is_in" v="Russia"/>
  </way>
  <way id="39543714" version="5" timestamp="2011-09-13T10:27:30Z" uid="29320" user="Komяpa" changeset="9288237">
    <nd ref="473803652"/>
    <nd ref="473803753"/>
    <nd ref="473803638"/>
    <nd ref="473803743"/>
    <nd ref="473803652"/>
    <tag k="addr:city" v="Зеленоград"/>
    <tag k="addr:country" v="RU"/>
    <tag k="addr:housenumber" v="504"/>
    <tag k="addr:street" v="5-й микрорайон"/>
    <tag k="building" v="yes"/>
    <tag k="building:use" v="residential"/>
  </way>
  <way id="39543714" version="6" timestamp="2011-10-28T10:27:02Z" uid="481934" user="iWowik" changeset="9675133">
    <nd ref="473803652"/>
    <nd ref="473803753"/>
    <nd ref="473803638"/>
    <nd ref="473803743"/>
    <nd ref="473803652"/>
    <tag k="addr:city" v="Зеленоград"/>
    <tag k="addr:country" v="RU"/>
    <tag k="addr:housenumber" v="504"/>
    <tag k="addr:street" v="5-й Микрорайон"/>
    <tag k="building" v="yes"/>
    <tag k="building:use" v="residential"/>
  </way>
  <way id="39543714" version="7" timestamp="2011-11-14T20:33:32Z" uid="133332" user="AMDmi3" changeset="9828527">
    <nd ref="473803652"/>
    <nd ref="473803753"/>
    <nd ref="473803638"/>
    <nd ref="473803743"/>
    <nd ref="473803652"/>
    <tag k="addr:city" v="Зеленоград"/>
    <tag k="addr:country" v="RU"/>
    <tag k="addr:housenumber" v="504"/>
    <tag k="addr:street" v="5-й микрорайон"/>
    <tag k="building" v="yes"/>
    <tag k="building:use" v="residential"/>
  </way>
  <way id="39543714" version="8" timestamp="2012-01-10T15:22:10Z" uid="481934" user="iWowik" changeset="10352148">
    <nd ref="473803652"/>
    <nd ref="473803753"/>
    <nd ref="473803638"/>
    <nd ref="473803743"/>
    <nd ref="473803652"/>
    <tag k="addr:city" v="Зеленоград"/>
    <tag k="addr:country" v="RU"/>
    <tag k="addr:housenumber" v="504"/>
    <tag k="building" v="yes"/>
    <tag k="building:use" v="residential"/>
  </way>
  <way id="39543714" version="9" timestamp="2012-03-27T11:44:41Z" uid="481934" user="iWowik" changeset="11115472">
    <nd ref="473803652"/>
    <nd ref="473803753"/>
    <nd ref="473803638"/>
    <nd ref="473803743"/>
    <nd ref="473803652"/>
    <tag k="addr:city" v="Зеленоград"/>
    <tag k="addr:country" v="RU"/>
    <tag k="addr:housenumber" v="504"/>
    <tag k="addr:region" v="Москва"/>
    <tag k="building" v="yes"/>
    <tag k="building:use" v="residential"/>
  </way>
  <way id="39543715" version="3" timestamp="2011-01-12T10:24:59Z" uid="115477" user="wowik" changeset="6945653">
    <nd ref="473803665"/>
    <nd ref="473803646"/>
    <nd ref="473803693"/>
    <nd ref="473803660"/>
    <nd ref="473803665"/>
    <tag k="addr:city" v="Зеленоград"/>
    <tag k="addr:housenumber" v="518"/>
    <tag k="addr:street" v="5-й Микрорайон"/>
    <tag k="building" v="yes"/>
    <tag k="building:use" v="residential"/>
    <tag k="is_in" v="Russia"/>
  </way>
  <way id="39543715" version="4" timestamp="2011-06-07T20:48:17Z" uid="133332" user="AMDmi3" changeset="8374030">
    <nd ref="473803665"/>
    <nd ref="473803646"/>
    <nd ref="473803693"/>
    <nd ref="473803660"/>
    <nd ref="473803665"/>
    <tag k="addr:city" v="Зеленоград"/>
    <tag k="addr:housenumber" v="518"/>
    <tag k="addr:street" v="5-й микрорайон"/>
    <tag k="building" v="yes"/>
    <tag k="building:use" v="residential"/>
    <tag k="is_in" v="Russia"/>
  </way>
  <way id="39543715" version="5" timestamp="2011-09-13T10:27:36Z" uid="29320" user="Komяpa" changeset="9288237">
    <nd ref="473803665"/>
    <nd ref="473803646"/>
    <nd ref="473803693"/>
    <nd ref="473803660"/>
    <nd ref="473803665"/>
    <tag k="addr:city" v="Зеленоград"/>
    <tag k="addr:country" v="RU"/>
    <tag k="addr:housenumber" v="518"/>
    <tag k="addr:street" v="5-й микрорайон"/>
    <tag k="building" v="yes"/>
    <tag k="building:use" v="residential"/>
  </way>
  <way id="39543715" version="6" timestamp="2011-10-28T10:27:06Z" uid="481934" user="iWowik" changeset="9675133">
    <nd ref="473803665"/>
    <nd ref="473803646"/>
    <nd ref="473803693"/>
    <nd ref="473803660"/>
    <nd ref="473803665"/>
    <tag k="addr:city" v="Зеленоград"/>
    <tag k="addr:country" v="RU"/>
    <tag k="addr:housenumber" v="518"/>
    <tag k="addr:street" v="5-й Микрорайон"/>
    <tag k="building" v="yes"/>
    <tag k="building:use" v="residential"/>
  </way>
  <way id="39543715" version="7" timestamp="2011-11-14T20:33:36Z" uid="133332" user="AMDmi3" changeset="9828527">
    <nd ref="473803665"/>
    <nd ref="473803646"/>
    <nd ref="473803693"/>
    <nd ref="473803660"/>
    <nd ref="473803665"/>
    <tag k="addr:city" v="Зеленоград"/>
    <tag k="addr:country" v="RU"/>
    <tag k="addr:housenumber" v="518"/>
    <tag k="addr:street" v="5-й микрорайон"/>
    <tag k="building" v="yes"/>
    <tag k="building:use" v="residential"/>
  </way>
  <way id="39543715" version="8" timestamp="2012-01-10T15:22:17Z" uid="481934" user="iWowik" changeset="10352148">
    <nd ref="473803665"/>
    <nd ref="473803646"/>
    <nd ref="473803693"/>
    <nd ref="473803660"/>
    <nd ref="473803665"/>
    <tag k="addr:city" v="Зеленоград"/>
    <tag k="addr:country" v="RU"/>
    <tag k="addr:housenumber" v="518"/>
    <tag k="building" v="yes"/>
    <tag k="building:use" v="residential"/>
    <tag k="sorting_name" v="5-й микрорайон/518"/>
  </way>
  <way id="39543716" version="3" timestamp="2011-01-12T10:24:49Z" uid="115477" user="wowik" changeset="6945653">
    <nd ref="473803707"/>
    <nd ref="473803739"/>
    <nd ref="473803645"/>
    <nd ref="473803747"/>
    <nd ref="473803707"/>
    <tag k="addr:city" v="Зеленоград"/>
    <tag k="addr:housenumber" v="513"/>
    <tag k="addr:street" v="5-й Микрорайон"/>
    <tag k="building" v="yes"/>
    <tag k="building:use" v="residential"/>
    <tag k="is_in" v="Russia"/>
  </way>
  <way id="39543716" version="4" timestamp="2011-06-07T20:48:14Z" uid="133332" user="AMDmi3" changeset="8374030">
    <nd ref="473803707"/>
    <nd ref="473803739"/>
    <nd ref="473803645"/>
    <nd ref="473803747"/>
    <nd ref="473803707"/>
    <tag k="addr:city" v="Зеленоград"/>
    <tag k="addr:housenumber" v="513"/>
    <tag k="addr:street" v="5-й микрорайон"/>
    <tag k="building" v="yes"/>
    <tag k="building:use" v="residential"/>
    <tag k="is_in" v="Russia"/>
  </way>
  <way id="39543716" version="5" timestamp="2011-09-13T10:27:34Z" uid="29320" user="Komяpa" changeset="9288237">
    <nd ref="473803707"/>
    <nd ref="473803739"/>
    <nd ref="473803645"/>
    <nd ref="473803747"/>
    <nd ref="473803707"/>
    <tag k="addr:city" v="Зеленоград"/>
    <tag k="addr:country" v="RU"/>
    <tag k="addr:housenumber" v="513"/>
    <tag k="addr:street" v="5-й микрорайон"/>
    <tag k="building" v="yes"/>
    <tag k="building:use" v="residential"/>
  </way>
  <way id="39543716" version="6" timestamp="2011-10-28T10:27:04Z" uid="481934" user="iWowik" changeset="9675133">
    <nd ref="473803707"/>
    <nd ref="473803739"/>
    <nd ref="473803645"/>
    <nd ref="473803747"/>
    <nd ref="473803707"/>
    <tag k="addr:city" v="Зеленоград"/>
    <tag k="addr:country" v="RU"/>
    <tag k="addr:housenumber" v="513"/>
    <tag k="addr:street" v="5-й Микрорайон"/>
    <tag k="building" v="yes"/>
    <tag k="building:use" v="residential"/>
  </way>
  <way id="39543716" version="7" timestamp="2011-11-14T20:33:34Z" uid="133332" user="AMDmi3" changeset="9828527">
    <nd ref="473803707"/>
    <nd ref="473803739"/>
    <nd ref="473803645"/>
    <nd ref="473803747"/>
    <nd ref="473803707"/>
    <tag k="addr:city" v="Зеленоград"/>
    <tag k="addr:country" v="RU"/>
    <tag k="addr:housenumber" v="513"/>
    <tag k="addr:street" v="5-й микрорайон"/>
    <tag k="building" v="yes"/>
    <tag k="building:use" v="residential"/>
  </way>
  <way id="39543716" version="8" timestamp="2012-01-10T15:22:14Z" uid="481934" user="iWowik" changeset="10352148">
    <nd ref="473803707"/>
    <nd ref="473803739"/>
    <nd ref="473803645"/>
    <nd ref="473803747"/>
    <nd ref="473803707"/>
    <tag k="addr:city" v="Зеленоград"/>
    <tag k="addr:country" v="RU"/>
    <tag k="addr:housenumber" v="513"/>
    <tag k="building" v="yes"/>
    <tag k="building:use" v="residential"/>
  </way>
  <way id="39543717" version="3" timestamp="2011-01-12T10:24:39Z" uid="115477" user="wowik" changeset="6945653">
    <nd ref="473803735"/>
    <nd ref="473803705"/>
    <nd ref="473803724"/>
    <nd ref="473803728"/>
    <nd ref="473803735"/>
    <tag k="addr:city" v="Зеленоград"/>
    <tag k="addr:housenumber" v="505"/>
    <tag k="addr:street" v="5-й Микрорайон"/>
    <tag k="building" v="yes"/>
    <tag k="building:use" v="residential"/>
    <tag k="is_in" v="Russia"/>
  </way>
  <way id="39543717" version="4" timestamp="2011-06-07T20:48:14Z" uid="133332" user="AMDmi3" changeset="8374030">
    <nd ref="473803735"/>
    <nd ref="473803705"/>
    <nd ref="473803724"/>
    <nd ref="473803728"/>
    <nd ref="473803735"/>
    <tag k="addr:city" v="Зеленоград"/>
    <tag k="addr:housenumber" v="505"/>
    <tag k="addr:street" v="5-й микрорайон"/>
    <tag k="building" v="yes"/>
    <tag k="building:use" v="residential"/>
    <tag k="is_in" v="Russia"/>
  </way>
  <way id="39543717" version="5" timestamp="2011-09-13T10:27:32Z" uid="29320" user="Komяpa" changeset="9288237">
    <nd ref="473803735"/>
    <nd ref="473803705"/>
    <nd ref="473803724"/>
    <nd ref="473803728"/>
    <nd ref="473803735"/>
    <tag k="addr:city" v="Зеленоград"/>
    <tag k="addr:country" v="RU"/>
    <tag k="addr:housenumber" v="505"/>
    <tag k="addr:street" v="5-й микрорайон"/>
    <tag k="building" v="yes"/>
    <tag k="building:use" v="residential"/>
  </way>
  <way id="39543717" version="6" timestamp="2011-10-28T10:27:03Z" uid="481934" user="iWowik" changeset="9675133">
    <nd ref="473803735"/>
    <nd ref="473803705"/>
    <nd ref="473803724"/>
    <nd ref="473803728"/>
    <nd ref="473803735"/>
    <tag k="addr:city" v="Зеленоград"/>
    <tag k="addr:country" v="RU"/>
    <tag k="addr:housenumber" v="505"/>
    <tag k="addr:street" v="5-й Микрорайон"/>
    <tag k="building" v="yes"/>
    <tag k="building:use" v="residential"/>
  </way>
  <way id="39543717" version="7" timestamp="2011-11-14T20:33:33Z" uid="133332" user="AMDmi3" changeset="9828527">
    <nd ref="473803735"/>
    <nd ref="473803705"/>
    <nd ref="473803724"/>
    <nd ref="473803728"/>
    <nd ref="473803735"/>
    <tag k="addr:city" v="Зеленоград"/>
    <tag k="addr:country" v="RU"/>
    <tag k="addr:housenumber" v="505"/>
    <tag k="addr:street" v="5-й микрорайон"/>
    <tag k="building" v="yes"/>
    <tag k="building:use" v="residential"/>
  </way>
  <way id="39543717" version="8" timestamp="2012-01-10T15:22:11Z" uid="481934" user="iWowik" changeset="10352148">
    <nd ref="473803735"/>
    <nd ref="473803705"/>
    <nd ref="473803724"/>
    <nd ref="473803728"/>
    <nd ref="473803735"/>
    <tag k="addr:city" v="Зеленоград"/>
    <tag k="addr:country" v="RU"/>
    <tag k="addr:housenumber" v="505"/>
    <tag k="building" v="yes"/>
    <tag k="building:use" v="residential"/>
  </way>
  <way id="39543717" version="9" timestamp="2012-03-27T11:44:42Z" uid="481934" user="iWowik" changeset="11115472">
    <nd ref="473803735"/>
    <nd ref="473803705"/>
    <nd ref="473803724"/>
    <nd ref="473803728"/>
    <nd ref="473803735"/>
    <tag k="addr:city" v="Зеленоград"/>
    <tag k="addr:country" v="RU"/>
    <tag k="addr:housenumber" v="505"/>
    <tag k="addr:region" v="Москва"/>
    <tag k="building" v="yes"/>
    <tag k="building:use" v="residential"/>
  </way>
  <way id="39543718" version="3" timestamp="2011-01-12T10:25:38Z" uid="115477" user="wowik" changeset="6945653">
    <nd ref="473803751"/>
    <nd ref="473803642"/>
    <nd ref="473803702"/>
    <nd ref="473803756"/>
    <nd ref="473803751"/>
    <tag k="addr:city" v="Зеленоград"/>
    <tag k="addr:housenumber" v="520"/>
    <tag k="addr:street" v="5-й Микрорайон"/>
    <tag k="building" v="yes"/>
    <tag k="building:use" v="residential"/>
    <tag k="is_in" v="Russia"/>
  </way>
  <way id="39543718" version="4" timestamp="2011-06-07T20:48:14Z" uid="133332" user="AMDmi3" changeset="8374030">
    <nd ref="473803751"/>
    <nd ref="473803642"/>
    <nd ref="473803702"/>
    <nd ref="473803756"/>
    <nd ref="473803751"/>
    <tag k="addr:city" v="Зеленоград"/>
    <tag k="addr:housenumber" v="520"/>
    <tag k="addr:street" v="5-й микрорайон"/>
    <tag k="building" v="yes"/>
    <tag k="building:use" v="residential"/>
    <tag k="is_in" v="Russia"/>
  </way>
  <way id="39543718" version="5" timestamp="2011-09-13T10:27:37Z" uid="29320" user="Komяpa" changeset="9288237">
    <nd ref="473803751"/>
    <nd ref="473803642"/>
    <nd ref="473803702"/>
    <nd ref="473803756"/>
    <nd ref="473803751"/>
    <tag k="addr:city" v="Зеленоград"/>
    <tag k="addr:country" v="RU"/>
    <tag k="addr:housenumber" v="520"/>
    <tag k="addr:street" v="5-й микрорайон"/>
    <tag k="building" v="yes"/>
    <tag k="building:use" v="residential"/>
  </way>
  <way id="39543718" version="6" timestamp="2011-10-28T10:27:06Z" uid="481934" user="iWowik" changeset="9675133">
    <nd ref="473803751"/>
    <nd ref="473803642"/>
    <nd ref="473803702"/>
    <nd ref="473803756"/>
    <nd ref="473803751"/>
    <tag k="addr:city" v="Зеленоград"/>
    <tag k="addr:country" v="RU"/>
    <tag k="addr:housenumber" v="520"/>
    <tag k="addr:street" v="5-й Микрорайон"/>
    <tag k="building" v="yes"/>
    <tag k="building:use" v="residential"/>
  </way>
  <way id="39543718" version="7" timestamp="2011-11-14T20:33:37Z" uid="133332" user="AMDmi3" changeset="9828527">
    <nd ref="473803751"/>
    <nd ref="473803642"/>
    <nd ref="473803702"/>
    <nd ref="473803756"/>
    <nd ref="473803751"/>
    <tag k="addr:city" v="Зеленоград"/>
    <tag k="addr:country" v="RU"/>
    <tag k="addr:housenumber" v="520"/>
    <tag k="addr:street" v="5-й микрорайон"/>
    <tag k="building" v="yes"/>
    <tag k="building:use" v="residential"/>
  </way>
  <way id="39543718" version="8" timestamp="2012-01-10T15:22:19Z" uid="481934" user="iWowik" changeset="10352148">
    <nd ref="473803751"/>
    <nd ref="473803642"/>
    <nd ref="473803702"/>
    <nd ref="473803756"/>
    <nd ref="473803751"/>
    <tag k="addr:city" v="Зеленоград"/>
    <tag k="addr:country" v="RU"/>
    <tag k="addr:housenumber" v="520"/>
    <tag k="building" v="yes"/>
    <tag k="building:use" v="residential"/>
    <tag k="sorting_name" v="5-й микрорайон/520"/>
  </way>
  <way id="39543719" version="5" timestamp="2011-01-17T12:51:27Z" uid="115477" user="wowik" changeset="6999083">
    <nd ref="473803663"/>
    <nd ref="473803632"/>
    <nd ref="473803672"/>
    <nd ref="473803688"/>
    <nd ref="473803641"/>
    <nd ref="473803678"/>
    <nd ref="1107514198"/>
    <nd ref="1107514287"/>
    <nd ref="1107514224"/>
    <nd ref="1107514127"/>
    <nd ref="1107514260"/>
    <nd ref="1107514325"/>
    <nd ref="1107514205"/>
    <nd ref="1107514299"/>
    <nd ref="473803663"/>
    <tag k="addr:city" v="Зеленоград"/>
    <tag k="addr:housenumber" v="509"/>
    <tag k="addr:street" v="5-й Микрорайон"/>
    <tag k="amenity" v="school"/>
    <tag k="building" v="yes"/>
    <tag k="building:levels" v="3"/>
    <tag k="comment" v="Ранее - Физико-Математическая Школа №1030"/>
    <tag k="is_in" v="Russia"/>
    <tag k="name" v="Лицей №1557"/>
  </way>
  <way id="39543719" version="6" timestamp="2011-04-01T17:48:26Z" uid="115477" user="wowik" changeset="7737524">
    <nd ref="473803663"/>
    <nd ref="473803632"/>
    <nd ref="473803672"/>
    <nd ref="1228118392"/>
    <nd ref="473803688"/>
    <nd ref="473803641"/>
    <nd ref="473803678"/>
    <nd ref="1107514198"/>
    <nd ref="1107514287"/>
    <nd ref="1107514224"/>
    <nd ref="1107514127"/>
    <nd ref="1107514260"/>
    <nd ref="1107514325"/>
    <nd ref="1107514205"/>
    <nd ref="1107514299"/>
    <nd ref="473803663"/>
    <tag k="addr:city" v="Зеленоград"/>
    <tag k="addr:housenumber" v="509"/>
    <tag k="addr:street" v="5-й Микрорайон"/>
    <tag k="amenity" v="school"/>
    <tag k="building" v="yes"/>
    <tag k="building:levels" v="3"/>
    <tag k="comment" v="Ранее - Физико-Математическая Школа №1030"/>
    <tag k="is_in" v="Russia"/>
    <tag k="name" v="Лицей №1557"/>
  </way>
  <way id="39543719" version="7" timestamp="2011-06-07T20:48:15Z" uid="133332" user="AMDmi3" changeset="8374030">
    <nd ref="473803663"/>
    <nd ref="473803632"/>
    <nd ref="473803672"/>
    <nd ref="1228118392"/>
    <nd ref="473803688"/>
    <nd ref="473803641"/>
    <nd ref="473803678"/>
    <nd ref="1107514198"/>
    <nd ref="1107514287"/>
    <nd ref="1107514224"/>
    <nd ref="1107514127"/>
    <nd ref="1107514260"/>
    <nd ref="1107514325"/>
    <nd ref="1107514205"/>
    <nd ref="1107514299"/>
    <nd ref="473803663"/>
    <tag k="addr:city" v="Зеленоград"/>
    <tag k="addr:housenumber" v="509"/>
    <tag k="addr:street" v="5-й микрорайон"/>
    <tag k="amenity" v="school"/>
    <tag k="building" v="yes"/>
    <tag k="building:levels" v="3"/>
    <tag k="comment" v="Ранее - Физико-Математическая Школа №1030"/>
    <tag k="is_in" v="Russia"/>
    <tag k="name" v="Лицей №1557"/>
  </way>
  <way id="39543719" version="8" timestamp="2011-09-13T10:30:32Z" uid="29320" user="Komяpa" changeset="9288237">
    <nd ref="473803663"/>
    <nd ref="473803632"/>
    <nd ref="473803672"/>
    <nd ref="1228118392"/>
    <nd ref="473803688"/>
    <nd ref="473803641"/>
    <nd ref="473803678"/>
    <nd ref="1107514198"/>
    <nd ref="1107514287"/>
    <nd ref="1107514224"/>
    <nd ref="1107514127"/>
    <nd ref="1107514260"/>
    <nd ref="1107514325"/>
    <nd ref="1107514205"/>
    <nd ref="1107514299"/>
    <nd ref="473803663"/>
    <tag k="addr:city" v="Зеленоград"/>
    <tag k="addr:country" v="RU"/>
    <tag k="addr:housenumber" v="509"/>
    <tag k="addr:street" v="5-й микрорайон"/>
    <tag k="amenity" v="school"/>
    <tag k="building" v="yes"/>
    <tag k="building:levels" v="3"/>
    <tag k="comment" v="Ранее - Физико-Математическая Школа №1030"/>
    <tag k="name" v="Лицей №1557"/>
  </way>
  <way id="39543719" version="9" timestamp="2011-10-28T10:27:07Z" uid="481934" user="iWowik" changeset="9675133">
    <nd ref="473803663"/>
    <nd ref="473803632"/>
    <nd ref="473803672"/>
    <nd ref="1228118392"/>
    <nd ref="473803688"/>
    <nd ref="473803641"/>
    <nd ref="473803678"/>
    <nd ref="1107514198"/>
    <nd ref="1107514287"/>
    <nd ref="1107514224"/>
    <nd ref="1107514127"/>
    <nd ref="1107514260"/>
    <nd ref="1107514325"/>
    <nd ref="1107514205"/>
    <nd ref="1107514299"/>
    <nd ref="473803663"/>
    <tag k="addr:city" v="Зеленоград"/>
    <tag k="addr:country" v="RU"/>
    <tag k="addr:housenumber" v="509"/>
    <tag k="addr:street" v="5-й Микрорайон"/>
    <tag k="amenity" v="school"/>
    <tag k="building" v="yes"/>
    <tag k="building:levels" v="3"/>
    <tag k="comment" v="Ранее - Физико-Математическая Школа №1030"/>
    <tag k="name" v="Лицей №1557"/>
  </way>
  <way id="39543719" version="10" timestamp="2011-11-14T20:34:28Z" uid="133332" user="AMDmi3" changeset="9828527">
    <nd ref="473803663"/>
    <nd ref="473803632"/>
    <nd ref="473803672"/>
    <nd ref="1228118392"/>
    <nd ref="473803688"/>
    <nd ref="473803641"/>
    <nd ref="473803678"/>
    <nd ref="1107514198"/>
    <nd ref="1107514287"/>
    <nd ref="1107514224"/>
    <nd ref="1107514127"/>
    <nd ref="1107514260"/>
    <nd ref="1107514325"/>
    <nd ref="1107514205"/>
    <nd ref="1107514299"/>
    <nd ref="473803663"/>
    <tag k="addr:city" v="Зеленоград"/>
    <tag k="addr:country" v="RU"/>
    <tag k="addr:housenumber" v="509"/>
    <tag k="addr:street" v="5-й микрорайон"/>
    <tag k="amenity" v="school"/>
    <tag k="building" v="yes"/>
    <tag k="building:levels" v="3"/>
    <tag k="comment" v="Ранее - Физико-Математическая Школа №1030"/>
    <tag k="name" v="Лицей №1557"/>
  </way>
  <way id="39543719" version="11" timestamp="2012-01-10T15:22:28Z" uid="481934" user="iWowik" changeset="10352148">
    <nd ref="473803663"/>
    <nd ref="473803632"/>
    <nd ref="473803672"/>
    <nd ref="1228118392"/>
    <nd ref="473803688"/>
    <nd ref="473803641"/>
    <nd ref="473803678"/>
    <nd ref="1107514198"/>
    <nd ref="1107514287"/>
    <nd ref="1107514224"/>
    <nd ref="1107514127"/>
    <nd ref="1107514260"/>
    <nd ref="1107514325"/>
    <nd ref="1107514205"/>
    <nd ref="1107514299"/>
    <nd ref="473803663"/>
    <tag k="addr:city" v="Зеленоград"/>
    <tag k="addr:country" v="RU"/>
    <tag k="addr:housenumber" v="509"/>
    <tag k="amenity" v="school"/>
    <tag k="building" v="yes"/>
    <tag k="building:levels" v="3"/>
    <tag k="comment" v="Ранее - Физико-Математическая Школа №1030"/>
    <tag k="name" v="Лицей №1557"/>
  </way>
  <way id="39543721" version="3" timestamp="2011-01-17T12:51:31Z" uid="115477" user="wowik" changeset="6999083">
    <nd ref="473803669"/>
    <nd ref="473803706"/>
    <nd ref="473803637"/>
    <nd ref="1107514157"/>
    <nd ref="1107514231"/>
    <nd ref="473803700"/>
    <nd ref="473803669"/>
    <tag k="addr:city" v="Зеленоград"/>
    <tag k="addr:housenumber" v="507"/>
    <tag k="addr:street" v="5-й Микрорайон"/>
    <tag k="amenity" v="kindergarten"/>
    <tag k="building" v="yes"/>
    <tag k="building:levels" v="3"/>
    <tag k="comment" v="Учебно-воспитательный комплекс №1890"/>
    <tag k="is_in" v="Russia"/>
    <tag k="name" v="УВК №1889"/>
  </way>
  <way id="39543721" version="4" timestamp="2011-02-02T14:11:26Z" uid="115477" user="wowik" changeset="7165087"/>
  <way id="39543722" version="3" timestamp="2011-01-12T10:25:25Z" uid="115477" user="wowik" changeset="6945653">
    <nd ref="473803668"/>
    <nd ref="473803733"/>
    <nd ref="473803696"/>
    <nd ref="473803643"/>
    <nd ref="473803668"/>
    <tag k="addr:city" v="Зеленоград"/>
    <tag k="addr:housenumber" v="503"/>
    <tag k="addr:street" v="5-й Микрорайон"/>
    <tag k="building" v="yes"/>
    <tag k="building:use" v="residential"/>
    <tag k="is_in" v="Russia"/>
  </way>
  <way id="39543722" version="4" timestamp="2011-06-07T20:48:13Z" uid="133332" user="AMDmi3" changeset="8374030">
    <nd ref="473803668"/>
    <nd ref="473803733"/>
    <nd ref="473803696"/>
    <nd ref="473803643"/>
    <nd ref="473803668"/>
    <tag k="addr:city" v="Зеленоград"/>
    <tag k="addr:housenumber" v="503"/>
    <tag k="addr:street" v="5-й микрорайон"/>
    <tag k="building" v="yes"/>
    <tag k="building:use" v="residential"/>
    <tag k="is_in" v="Russia"/>
  </way>
  <way id="39543722" version="5" timestamp="2011-09-13T10:27:30Z" uid="29320" user="Komяpa" changeset="9288237">
    <nd ref="473803668"/>
    <nd ref="473803733"/>
    <nd ref="473803696"/>
    <nd ref="473803643"/>
    <nd ref="473803668"/>
    <tag k="addr:city" v="Зеленоград"/>
    <tag k="addr:country" v="RU"/>
    <tag k="addr:housenumber" v="503"/>
    <tag k="addr:street" v="5-й микрорайон"/>
    <tag k="building" v="yes"/>
    <tag k="building:use" v="residential"/>
  </way>
  <way id="39543722" version="6" timestamp="2011-10-28T10:27:02Z" uid="481934" user="iWowik" changeset="9675133">
    <nd ref="473803668"/>
    <nd ref="473803733"/>
    <nd ref="473803696"/>
    <nd ref="473803643"/>
    <nd ref="473803668"/>
    <tag k="addr:city" v="Зеленоград"/>
    <tag k="addr:country" v="RU"/>
    <tag k="addr:housenumber" v="503"/>
    <tag k="addr:street" v="5-й Микрорайон"/>
    <tag k="building" v="yes"/>
    <tag k="building:use" v="residential"/>
  </way>
  <way id="39543722" version="7" timestamp="2011-11-14T20:33:32Z" uid="133332" user="AMDmi3" changeset="9828527">
    <nd ref="473803668"/>
    <nd ref="473803733"/>
    <nd ref="473803696"/>
    <nd ref="473803643"/>
    <nd ref="473803668"/>
    <tag k="addr:city" v="Зеленоград"/>
    <tag k="addr:country" v="RU"/>
    <tag k="addr:housenumber" v="503"/>
    <tag k="addr:street" v="5-й микрорайон"/>
    <tag k="building" v="yes"/>
    <tag k="building:use" v="residential"/>
  </way>
  <way id="39543722" version="8" timestamp="2012-01-10T15:22:10Z" uid="481934" user="iWowik" changeset="10352148">
    <nd ref="473803668"/>
    <nd ref="473803733"/>
    <nd ref="473803696"/>
    <nd ref="473803643"/>
    <nd ref="473803668"/>
    <tag k="addr:city" v="Зеленоград"/>
    <tag k="addr:country" v="RU"/>
    <tag k="addr:housenumber" v="503"/>
    <tag k="building" v="yes"/>
    <tag k="building:use" v="residential"/>
  </way>
  <way id="39543722" version="9" timestamp="2012-03-27T11:44:41Z" uid="481934" user="iWowik" changeset="11115472">
    <nd ref="473803668"/>
    <nd ref="473803733"/>
    <nd ref="473803696"/>
    <nd ref="473803643"/>
    <nd ref="473803668"/>
    <tag k="addr:city" v="Зеленоград"/>
    <tag k="addr:country" v="RU"/>
    <tag k="addr:housenumber" v="503"/>
    <tag k="addr:region" v="Москва"/>
    <tag k="building" v="yes"/>
    <tag k="building:use" v="residential"/>
  </way>
  <way id="39543723" version="3" timestamp="2011-01-12T10:25:12Z" uid="115477" user="wowik" changeset="6945653">
    <nd ref="473803727"/>
    <nd ref="473803718"/>
    <nd ref="473803697"/>
    <nd ref="473803746"/>
    <nd ref="473803727"/>
    <tag k="addr:city" v="Зеленоград"/>
    <tag k="addr:housenumber" v="511"/>
    <tag k="addr:street" v="5-й Микрорайон"/>
    <tag k="building" v="yes"/>
    <tag k="building:use" v="residential"/>
    <tag k="is_in" v="Russia"/>
  </way>
  <way id="39543723" version="4" timestamp="2011-01-17T12:51:16Z" uid="115477" user="wowik" changeset="6999083">
    <nd ref="473803727"/>
    <nd ref="1107514285"/>
    <nd ref="1107514313"/>
    <nd ref="473803718"/>
    <nd ref="1107514186"/>
    <nd ref="1107514135"/>
    <nd ref="473803697"/>
    <nd ref="1107514249"/>
    <nd ref="1107514195"/>
    <nd ref="473803746"/>
    <nd ref="1107514143"/>
    <nd ref="1107514165"/>
    <nd ref="473803727"/>
    <tag k="addr:city" v="Зеленоград"/>
    <tag k="addr:housenumber" v="511"/>
    <tag k="addr:street" v="5-й Микрорайон"/>
    <tag k="building" v="yes"/>
    <tag k="building:use" v="residential"/>
    <tag k="is_in" v="Russia"/>
  </way>
  <way id="39543723" version="5" timestamp="2011-06-07T20:48:13Z" uid="133332" user="AMDmi3" changeset="8374030">
    <nd ref="473803727"/>
    <nd ref="1107514285"/>
    <nd ref="1107514313"/>
    <nd ref="473803718"/>
    <nd ref="1107514186"/>
    <nd ref="1107514135"/>
    <nd ref="473803697"/>
    <nd ref="1107514249"/>
    <nd ref="1107514195"/>
    <nd ref="473803746"/>
    <nd ref="1107514143"/>
    <nd ref="1107514165"/>
    <nd ref="473803727"/>
    <tag k="addr:city" v="Зеленоград"/>
    <tag k="addr:housenumber" v="511"/>
    <tag k="addr:street" v="5-й микрорайон"/>
    <tag k="building" v="yes"/>
    <tag k="building:use" v="residential"/>
    <tag k="is_in" v="Russia"/>
  </way>
  <way id="39543723" version="6" timestamp="2011-09-13T10:27:33Z" uid="29320" user="Komяpa" changeset="9288237">
    <nd ref="473803727"/>
    <nd ref="1107514285"/>
    <nd ref="1107514313"/>
    <nd ref="473803718"/>
    <nd ref="1107514186"/>
    <nd ref="1107514135"/>
    <nd ref="473803697"/>
    <nd ref="1107514249"/>
    <nd ref="1107514195"/>
    <nd ref="473803746"/>
    <nd ref="1107514143"/>
    <nd ref="1107514165"/>
    <nd ref="473803727"/>
    <tag k="addr:city" v="Зеленоград"/>
    <tag k="addr:country" v="RU"/>
    <tag k="addr:housenumber" v="511"/>
    <tag k="addr:street" v="5-й микрорайон"/>
    <tag k="building" v="yes"/>
    <tag k="building:use" v="residential"/>
  </way>
  <way id="39543723" version="7" timestamp="2011-10-28T10:27:04Z" uid="481934" user="iWowik" changeset="9675133">
    <nd ref="473803727"/>
    <nd ref="1107514285"/>
    <nd ref="1107514313"/>
    <nd ref="473803718"/>
    <nd ref="1107514186"/>
    <nd ref="1107514135"/>
    <nd ref="473803697"/>
    <nd ref="1107514249"/>
    <nd ref="1107514195"/>
    <nd ref="473803746"/>
    <nd ref="1107514143"/>
    <nd ref="1107514165"/>
    <nd ref="473803727"/>
    <tag k="addr:city" v="Зеленоград"/>
    <tag k="addr:country" v="RU"/>
    <tag k="addr:housenumber" v="511"/>
    <tag k="addr:street" v="5-й Микрорайон"/>
    <tag k="building" v="yes"/>
    <tag k="building:use" v="residential"/>
  </way>
  <way id="39543723" version="8" timestamp="2011-11-14T20:33:34Z" uid="133332" user="AMDmi3" changeset="9828527">
    <nd ref="473803727"/>
    <nd ref="1107514285"/>
    <nd ref="1107514313"/>
    <nd ref="473803718"/>
    <nd ref="1107514186"/>
    <nd ref="1107514135"/>
    <nd ref="473803697"/>
    <nd ref="1107514249"/>
    <nd ref="1107514195"/>
    <nd ref="473803746"/>
    <nd ref="1107514143"/>
    <nd ref="1107514165"/>
    <nd ref="473803727"/>
    <tag k="addr:city" v="Зеленоград"/>
    <tag k="addr:country" v="RU"/>
    <tag k="addr:housenumber" v="511"/>
    <tag k="addr:street" v="5-й микрорайон"/>
    <tag k="building" v="yes"/>
    <tag k="building:use" v="residential"/>
  </way>
  <way id="39543723" version="9" timestamp="2012-01-10T15:22:13Z" uid="481934" user="iWowik" changeset="10352148">
    <nd ref="473803727"/>
    <nd ref="1107514285"/>
    <nd ref="1107514313"/>
    <nd ref="473803718"/>
    <nd ref="1107514186"/>
    <nd ref="1107514135"/>
    <nd ref="473803697"/>
    <nd ref="1107514249"/>
    <nd ref="1107514195"/>
    <nd ref="473803746"/>
    <nd ref="1107514143"/>
    <nd ref="1107514165"/>
    <nd ref="473803727"/>
    <tag k="addr:city" v="Зеленоград"/>
    <tag k="addr:country" v="RU"/>
    <tag k="addr:housenumber" v="511"/>
    <tag k="building" v="yes"/>
    <tag k="building:use" v="residential"/>
  </way>
  <way id="39543724" version="4" timestamp="2011-01-17T12:51:29Z" uid="115477" user="wowik" changeset="6999083">
    <nd ref="473803647"/>
    <nd ref="473803709"/>
    <nd ref="473803731"/>
    <nd ref="473803742"/>
    <nd ref="1107514292"/>
    <nd ref="1107514158"/>
    <nd ref="473803647"/>
    <tag k="addr:city" v="Зеленоград"/>
    <tag k="addr:housenumber" v="517"/>
    <tag k="addr:street" v="5-й Микрорайон"/>
    <tag k="amenity" v="kindergarten"/>
    <tag k="building" v="yes"/>
    <tag k="is_in" v="Russia"/>
    <tag k="name" v="Детский сад №1226"/>
    <tag k="short_name" v="Д/c №1226"/>
  </way>
  <way id="39543724" version="5" timestamp="2011-06-07T20:48:11Z" uid="133332" user="AMDmi3" changeset="8374030">
    <nd ref="473803647"/>
    <nd ref="473803709"/>
    <nd ref="473803731"/>
    <nd ref="473803742"/>
    <nd ref="1107514292"/>
    <nd ref="1107514158"/>
    <nd ref="473803647"/>
    <tag k="addr:city" v="Зеленоград"/>
    <tag k="addr:housenumber" v="517"/>
    <tag k="addr:street" v="5-й микрорайон"/>
    <tag k="amenity" v="kindergarten"/>
    <tag k="building" v="yes"/>
    <tag k="is_in" v="Russia"/>
    <tag k="name" v="Детский сад №1226"/>
    <tag k="short_name" v="Д/c №1226"/>
  </way>
  <way id="39543724" version="6" timestamp="2011-09-13T10:30:04Z" uid="29320" user="Komяpa" changeset="9288237">
    <nd ref="473803647"/>
    <nd ref="473803709"/>
    <nd ref="473803731"/>
    <nd ref="473803742"/>
    <nd ref="1107514292"/>
    <nd ref="1107514158"/>
    <nd ref="473803647"/>
    <tag k="addr:city" v="Зеленоград"/>
    <tag k="addr:country" v="RU"/>
    <tag k="addr:housenumber" v="517"/>
    <tag k="addr:street" v="5-й микрорайон"/>
    <tag k="amenity" v="kindergarten"/>
    <tag k="building" v="yes"/>
    <tag k="name" v="Детский сад №1226"/>
    <tag k="short_name" v="Д/c №1226"/>
  </way>
  <way id="39543724" version="7" timestamp="2011-10-28T10:27:01Z" uid="481934" user="iWowik" changeset="9675133">
    <nd ref="473803647"/>
    <nd ref="473803709"/>
    <nd ref="473803731"/>
    <nd ref="473803742"/>
    <nd ref="1107514292"/>
    <nd ref="1107514158"/>
    <nd ref="473803647"/>
    <tag k="addr:city" v="Зеленоград"/>
    <tag k="addr:country" v="RU"/>
    <tag k="addr:housenumber" v="517"/>
    <tag k="addr:street" v="5-й Микрорайон"/>
    <tag k="amenity" v="kindergarten"/>
    <tag k="building" v="yes"/>
    <tag k="name" v="Детский сад №1226"/>
    <tag k="short_name" v="Д/c №1226"/>
  </way>
  <way id="39543724" version="8" timestamp="2011-11-14T20:34:13Z" uid="133332" user="AMDmi3" changeset="9828527">
    <nd ref="473803647"/>
    <nd ref="473803709"/>
    <nd ref="473803731"/>
    <nd ref="473803742"/>
    <nd ref="1107514292"/>
    <nd ref="1107514158"/>
    <nd ref="473803647"/>
    <tag k="addr:city" v="Зеленоград"/>
    <tag k="addr:country" v="RU"/>
    <tag k="addr:housenumber" v="517"/>
    <tag k="addr:street" v="5-й микрорайон"/>
    <tag k="amenity" v="kindergarten"/>
    <tag k="building" v="yes"/>
    <tag k="name" v="Детский сад №1226"/>
    <tag k="short_name" v="Д/c №1226"/>
  </way>
  <way id="39543724" version="9" timestamp="2012-01-10T15:22:09Z" uid="481934" user="iWowik" changeset="10352148">
    <nd ref="473803647"/>
    <nd ref="473803709"/>
    <nd ref="473803731"/>
    <nd ref="473803742"/>
    <nd ref="1107514292"/>
    <nd ref="1107514158"/>
    <nd ref="473803647"/>
    <tag k="addr:city" v="Зеленоград"/>
    <tag k="addr:country" v="RU"/>
    <tag k="addr:housenumber" v="517"/>
    <tag k="amenity" v="kindergarten"/>
    <tag k="building" v="yes"/>
    <tag k="name" v="Детский сад №1226"/>
    <tag k="short_name" v="Д/c №1226"/>
  </way>
  <way id="39543726" version="3" timestamp="2011-01-12T10:24:42Z" uid="115477" user="wowik" changeset="6945653">
    <nd ref="473803648"/>
    <nd ref="473803719"/>
    <nd ref="473803694"/>
    <nd ref="473803640"/>
    <nd ref="473803648"/>
    <tag k="addr:city" v="Зеленоград"/>
    <tag k="addr:housenumber" v="506"/>
    <tag k="addr:street" v="5-й Микрорайон"/>
    <tag k="building" v="yes"/>
    <tag k="building:use" v="residential"/>
    <tag k="is_in" v="Russia"/>
  </way>
  <way id="39543726" version="4" timestamp="2011-06-07T20:48:11Z" uid="133332" user="AMDmi3" changeset="8374030">
    <nd ref="473803648"/>
    <nd ref="473803719"/>
    <nd ref="473803694"/>
    <nd ref="473803640"/>
    <nd ref="473803648"/>
    <tag k="addr:city" v="Зеленоград"/>
    <tag k="addr:housenumber" v="506"/>
    <tag k="addr:street" v="5-й микрорайон"/>
    <tag k="building" v="yes"/>
    <tag k="building:use" v="residential"/>
    <tag k="is_in" v="Russia"/>
  </way>
  <way id="39543726" version="5" timestamp="2011-09-13T10:27:32Z" uid="29320" user="Komяpa" changeset="9288237">
    <nd ref="473803648"/>
    <nd ref="473803719"/>
    <nd ref="473803694"/>
    <nd ref="473803640"/>
    <nd ref="473803648"/>
    <tag k="addr:city" v="Зеленоград"/>
    <tag k="addr:country" v="RU"/>
    <tag k="addr:housenumber" v="506"/>
    <tag k="addr:street" v="5-й микрорайон"/>
    <tag k="building" v="yes"/>
    <tag k="building:use" v="residential"/>
  </way>
  <way id="39543726" version="6" timestamp="2011-10-28T10:27:03Z" uid="481934" user="iWowik" changeset="9675133">
    <nd ref="473803648"/>
    <nd ref="473803719"/>
    <nd ref="473803694"/>
    <nd ref="473803640"/>
    <nd ref="473803648"/>
    <tag k="addr:city" v="Зеленоград"/>
    <tag k="addr:country" v="RU"/>
    <tag k="addr:housenumber" v="506"/>
    <tag k="addr:street" v="5-й Микрорайон"/>
    <tag k="building" v="yes"/>
    <tag k="building:use" v="residential"/>
  </way>
  <way id="39543726" version="7" timestamp="2011-11-14T20:33:33Z" uid="133332" user="AMDmi3" changeset="9828527">
    <nd ref="473803648"/>
    <nd ref="473803719"/>
    <nd ref="473803694"/>
    <nd ref="473803640"/>
    <nd ref="473803648"/>
    <tag k="addr:city" v="Зеленоград"/>
    <tag k="addr:country" v="RU"/>
    <tag k="addr:housenumber" v="506"/>
    <tag k="addr:street" v="5-й микрорайон"/>
    <tag k="building" v="yes"/>
    <tag k="building:use" v="residential"/>
  </way>
  <way id="39543726" version="8" timestamp="2012-01-10T15:22:11Z" uid="481934" user="iWowik" changeset="10352148">
    <nd ref="473803648"/>
    <nd ref="473803719"/>
    <nd ref="473803694"/>
    <nd ref="473803640"/>
    <nd ref="473803648"/>
    <tag k="addr:city" v="Зеленоград"/>
    <tag k="addr:country" v="RU"/>
    <tag k="addr:housenumber" v="506"/>
    <tag k="building" v="yes"/>
    <tag k="building:use" v="residential"/>
  </way>
  <way id="39543726" version="9" timestamp="2012-03-27T11:44:43Z" uid="481934" user="iWowik" changeset="11115472">
    <nd ref="473803648"/>
    <nd ref="473803719"/>
    <nd ref="473803694"/>
    <nd ref="473803640"/>
    <nd ref="473803648"/>
    <tag k="addr:city" v="Зеленоград"/>
    <tag k="addr:country" v="RU"/>
    <tag k="addr:housenumber" v="506"/>
    <tag k="addr:region" v="Москва"/>
    <tag k="building" v="yes"/>
    <tag k="building:use" v="residential"/>
  </way>
  <way id="39543727" version="2" timestamp="2009-09-23T16:31:57Z" uid="115477" user="wowik" changeset="2597346">
    <nd ref="473803737"/>
    <nd ref="473803725"/>
    <nd ref="473803631"/>
    <nd ref="473803691"/>
    <nd ref="473803737"/>
    <tag k="addr:city" v="Зеленоград"/>
    <tag k="addr:housenumber" v="8"/>
    <tag k="addr:street" v="улица Юности"/>
    <tag k="building" v="yes"/>
    <tag k="is_in" v="Russia"/>
  </way>
  <way id="39543727" version="3" timestamp="2010-01-20T07:47:38Z" uid="70202" user="physiocrat" changeset="3664585">
    <nd ref="473803737"/>
    <nd ref="473803725"/>
    <nd ref="473803631"/>
    <nd ref="473803691"/>
    <nd ref="473803737"/>
    <tag k="addr:city" v="Зеленоград"/>
    <tag k="addr:housenumber" v="8"/>
    <tag k="addr:street" v="улица Юности"/>
    <tag k="building" v="yes"/>
    <tag k="cladr:code" v="77000002000319800"/>
    <tag k="is_in" v="Russia"/>
  </way>
  <way id="39543727" version="4" timestamp="2011-07-11T08:56:11Z" uid="241531" user="dik_man" changeset="8691665">
    <nd ref="473803737"/>
    <nd ref="473803725"/>
    <nd ref="1357480805"/>
    <nd ref="473803631"/>
    <nd ref="1357480804"/>
    <nd ref="473803691"/>
    <nd ref="473803737"/>
    <tag k="addr:city" v="Зеленоград"/>
    <tag k="addr:housenumber" v="8"/>
    <tag k="addr:street" v="улица Юности"/>
    <tag k="building" v="yes"/>
    <tag k="cladr:code" v="77000002000319800"/>
    <tag k="is_in" v="Russia"/>
  </way>
  <way id="39543727" version="5" timestamp="2011-09-13T10:28:29Z" uid="29320" user="Komяpa" changeset="9288237">
    <nd ref="473803737"/>
    <nd ref="473803725"/>
    <nd ref="1357480805"/>
    <nd ref="473803631"/>
    <nd ref="1357480804"/>
    <nd ref="473803691"/>
    <nd ref="473803737"/>
    <tag k="addr:city" v="Зеленоград"/>
    <tag k="addr:country" v="RU"/>
    <tag k="addr:housenumber" v="8"/>
    <tag k="addr:street" v="улица Юности"/>
    <tag k="building" v="yes"/>
    <tag k="cladr:code" v="77000002000319800"/>
  </way>
  <way id="39543727" version="6" timestamp="2012-03-27T11:46:10Z" uid="481934" user="iWowik" changeset="11115472">
    <nd ref="473803737"/>
    <nd ref="473803725"/>
    <nd ref="1357480805"/>
    <nd ref="473803631"/>
    <nd ref="1357480804"/>
    <nd ref="473803691"/>
    <nd ref="473803737"/>
    <tag k="addr:city" v="Зеленоград"/>
    <tag k="addr:country" v="RU"/>
    <tag k="addr:housenumber" v="8"/>
    <tag k="addr:region" v="Москва"/>
    <tag k="addr:street" v="улица Юности"/>
    <tag k="building" v="yes"/>
    <tag k="cladr:code" v="77000002000319800"/>
  </way>
  <way id="39543728" version="3" timestamp="2011-01-12T10:25:00Z" uid="115477" user="wowik" changeset="6945653">
    <nd ref="473803744"/>
    <nd ref="473803738"/>
    <nd ref="473803703"/>
    <nd ref="473803713"/>
    <nd ref="473803744"/>
    <tag k="addr:city" v="Зеленоград"/>
    <tag k="addr:housenumber" v="515"/>
    <tag k="addr:street" v="5-й Микрорайон"/>
    <tag k="building" v="yes"/>
    <tag k="building:use" v="residential"/>
    <tag k="is_in" v="Russia"/>
  </way>
  <way id="39543728" version="4" timestamp="2011-06-07T20:48:08Z" uid="133332" user="AMDmi3" changeset="8374030">
    <nd ref="473803744"/>
    <nd ref="473803738"/>
    <nd ref="473803703"/>
    <nd ref="473803713"/>
    <nd ref="473803744"/>
    <tag k="addr:city" v="Зеленоград"/>
    <tag k="addr:housenumber" v="515"/>
    <tag k="addr:street" v="5-й микрорайон"/>
    <tag k="building" v="yes"/>
    <tag k="building:use" v="residential"/>
    <tag k="is_in" v="Russia"/>
  </way>
  <way id="39543728" version="5" timestamp="2011-09-13T10:27:35Z" uid="29320" user="Komяpa" changeset="9288237">
    <nd ref="473803744"/>
    <nd ref="473803738"/>
    <nd ref="473803703"/>
    <nd ref="473803713"/>
    <nd ref="473803744"/>
    <tag k="addr:city" v="Зеленоград"/>
    <tag k="addr:country" v="RU"/>
    <tag k="addr:housenumber" v="515"/>
    <tag k="addr:street" v="5-й микрорайон"/>
    <tag k="building" v="yes"/>
    <tag k="building:use" v="residential"/>
  </way>
  <way id="39543728" version="6" timestamp="2011-10-28T10:27:05Z" uid="481934" user="iWowik" changeset="9675133">
    <nd ref="473803744"/>
    <nd ref="473803738"/>
    <nd ref="473803703"/>
    <nd ref="473803713"/>
    <nd ref="473803744"/>
    <tag k="addr:city" v="Зеленоград"/>
    <tag k="addr:country" v="RU"/>
    <tag k="addr:housenumber" v="515"/>
    <tag k="addr:street" v="5-й Микрорайон"/>
    <tag k="building" v="yes"/>
    <tag k="building:use" v="residential"/>
  </way>
  <way id="39543728" version="7" timestamp="2011-11-14T20:33:35Z" uid="133332" user="AMDmi3" changeset="9828527">
    <nd ref="473803744"/>
    <nd ref="473803738"/>
    <nd ref="473803703"/>
    <nd ref="473803713"/>
    <nd ref="473803744"/>
    <tag k="addr:city" v="Зеленоград"/>
    <tag k="addr:country" v="RU"/>
    <tag k="addr:housenumber" v="515"/>
    <tag k="addr:street" v="5-й микрорайон"/>
    <tag k="building" v="yes"/>
    <tag k="building:use" v="residential"/>
  </way>
  <way id="39543728" version="8" timestamp="2012-01-10T15:22:15Z" uid="481934" user="iWowik" changeset="10352148">
    <nd ref="473803744"/>
    <nd ref="473803738"/>
    <nd ref="473803703"/>
    <nd ref="473803713"/>
    <nd ref="473803744"/>
    <tag k="addr:city" v="Зеленоград"/>
    <tag k="addr:country" v="RU"/>
    <tag k="addr:housenumber" v="515"/>
    <tag k="building" v="yes"/>
    <tag k="building:use" v="residential"/>
  </way>
  <way id="39543729" version="3" timestamp="2011-01-12T10:24:51Z" uid="115477" user="wowik" changeset="6945653">
    <nd ref="473803654"/>
    <nd ref="473803658"/>
    <nd ref="473803690"/>
    <nd ref="473803677"/>
    <nd ref="473803654"/>
    <tag k="addr:city" v="Зеленоград"/>
    <tag k="addr:housenumber" v="512"/>
    <tag k="addr:street" v="5-й Микрорайон"/>
    <tag k="building" v="yes"/>
    <tag k="building:use" v="residential"/>
    <tag k="is_in" v="Russia"/>
  </way>
  <way id="39543729" version="4" timestamp="2011-06-07T20:48:08Z" uid="133332" user="AMDmi3" changeset="8374030">
    <nd ref="473803654"/>
    <nd ref="473803658"/>
    <nd ref="473803690"/>
    <nd ref="473803677"/>
    <nd ref="473803654"/>
    <tag k="addr:city" v="Зеленоград"/>
    <tag k="addr:housenumber" v="512"/>
    <tag k="addr:street" v="5-й микрорайон"/>
    <tag k="building" v="yes"/>
    <tag k="building:use" v="residential"/>
    <tag k="is_in" v="Russia"/>
  </way>
  <way id="39543729" version="5" timestamp="2011-09-13T10:27:34Z" uid="29320" user="Komяpa" changeset="9288237">
    <nd ref="473803654"/>
    <nd ref="473803658"/>
    <nd ref="473803690"/>
    <nd ref="473803677"/>
    <nd ref="473803654"/>
    <tag k="addr:city" v="Зеленоград"/>
    <tag k="addr:country" v="RU"/>
    <tag k="addr:housenumber" v="512"/>
    <tag k="addr:street" v="5-й микрорайон"/>
    <tag k="building" v="yes"/>
    <tag k="building:use" v="residential"/>
  </way>
  <way id="39543729" version="6" timestamp="2011-10-28T10:27:04Z" uid="481934" user="iWowik" changeset="9675133">
    <nd ref="473803654"/>
    <nd ref="473803658"/>
    <nd ref="473803690"/>
    <nd ref="473803677"/>
    <nd ref="473803654"/>
    <tag k="addr:city" v="Зеленоград"/>
    <tag k="addr:country" v="RU"/>
    <tag k="addr:housenumber" v="512"/>
    <tag k="addr:street" v="5-й Микрорайон"/>
    <tag k="building" v="yes"/>
    <tag k="building:use" v="residential"/>
  </way>
  <way id="39543729" version="7" timestamp="2011-11-14T20:33:34Z" uid="133332" user="AMDmi3" changeset="9828527">
    <nd ref="473803654"/>
    <nd ref="473803658"/>
    <nd ref="473803690"/>
    <nd ref="473803677"/>
    <nd ref="473803654"/>
    <tag k="addr:city" v="Зеленоград"/>
    <tag k="addr:country" v="RU"/>
    <tag k="addr:housenumber" v="512"/>
    <tag k="addr:street" v="5-й микрорайон"/>
    <tag k="building" v="yes"/>
    <tag k="building:use" v="residential"/>
  </way>
  <way id="39543729" version="8" timestamp="2012-01-10T15:22:14Z" uid="481934" user="iWowik" changeset="10352148">
    <nd ref="473803654"/>
    <nd ref="473803658"/>
    <nd ref="473803690"/>
    <nd ref="473803677"/>
    <nd ref="473803654"/>
    <tag k="addr:city" v="Зеленоград"/>
    <tag k="addr:country" v="RU"/>
    <tag k="addr:housenumber" v="512"/>
    <tag k="building" v="yes"/>
    <tag k="building:use" v="residential"/>
  </way>
  <way id="39543730" version="2" timestamp="2010-01-13T15:01:54Z" uid="115477" user="wowik" changeset="3610481">
    <nd ref="473803758"/>
    <nd ref="473803759"/>
    <nd ref="473803761"/>
    <nd ref="473803760"/>
    <nd ref="473803758"/>
    <tag k="addr:city" v="Зеленоград"/>
    <tag k="addr:street" v="улица Юности"/>
    <tag k="amenity" v="parking"/>
    <tag k="is_in" v="Russia"/>
    <tag k="landuse" v="garages"/>
    <tag k="parking" v="garages"/>
  </way>
  <way id="39543730" version="3" timestamp="2010-01-13T15:02:32Z" uid="115477" user="wowik" changeset="3610481">
    <nd ref="473803758"/>
    <nd ref="473803759"/>
    <nd ref="473803761"/>
    <nd ref="473803760"/>
    <nd ref="473803758"/>
    <tag k="addr:city" v="Зеленоград"/>
    <tag k="addr:street" v="улица Юности"/>
    <tag k="amenity" v="parking"/>
    <tag k="is_in" v="Russia"/>
    <tag k="landuse" v="garages"/>
    <tag k="name" v="ГСК № 1"/>
    <tag k="parking" v="garages"/>
  </way>
  <way id="39543730" version="4" timestamp="2011-02-18T21:01:02Z" uid="206282" user="Amigo" changeset="7326405">
    <nd ref="473803758"/>
    <nd ref="473803759"/>
    <nd ref="473803761"/>
    <nd ref="473803760"/>
    <nd ref="473803758"/>
    <tag k="addr:city" v="Зеленоград"/>
    <tag k="addr:street" v="улица Юности"/>
    <tag k="is_in" v="Russia"/>
    <tag k="landuse" v="garages"/>
    <tag k="name" v="ГСК №1"/>
  </way>
  <way id="39543730" version="5" timestamp="2012-03-27T11:31:46Z" uid="481934" user="iWowik" changeset="11115472">
    <nd ref="473803758"/>
    <nd ref="473803759"/>
    <nd ref="473803761"/>
    <nd ref="473803760"/>
    <nd ref="473803758"/>
    <tag k="addr:city" v="Зеленоград"/>
    <tag k="addr:country" v="RU"/>
    <tag k="addr:region" v="Москва"/>
    <tag k="addr:street" v="улица Юности"/>
    <tag k="is_in" v="Russia"/>
    <tag k="landuse" v="garages"/>
    <tag k="name" v="ГСК №1"/>
  </way>
  <way id="39543731" version="3" timestamp="2010-11-16T09:06:20Z" uid="115477" user="wowik" changeset="6383438">
    <nd ref="473803848"/>
    <nd ref="473803901"/>
    <nd ref="473803776"/>
    <nd ref="473803789"/>
    <nd ref="473803864"/>
    <nd ref="473803912"/>
    <nd ref="473803883"/>
    <nd ref="473803859"/>
    <nd ref="473803865"/>
    <nd ref="473803788"/>
    <nd ref="473803875"/>
    <nd ref="473803780"/>
    <nd ref="473803848"/>
    <tag k="addr:city" v="Зеленоград"/>
    <tag k="addr:housenumber" v="1с2"/>
    <tag k="addr:street" v="Никольский проезд"/>
    <tag k="amenity" v="public_building"/>
    <tag k="building" v="yes"/>
    <tag k="cladr:code" v="77000002000429400"/>
    <tag k="comment" v="Воскресная школа"/>
    <tag k="is_in" v="Russia"/>
    <tag k="natural" v="fell"/>
  </way>
  <way id="39543731" version="4" timestamp="2010-11-16T09:08:45Z" uid="115477" user="wowik" changeset="6383413">
    <nd ref="473803848"/>
    <nd ref="473803901"/>
    <nd ref="473803776"/>
    <nd ref="473803789"/>
    <nd ref="473803864"/>
    <nd ref="473803912"/>
    <nd ref="473803883"/>
    <nd ref="473803859"/>
    <nd ref="473803865"/>
    <nd ref="473803788"/>
    <nd ref="473803875"/>
    <nd ref="473803780"/>
    <nd ref="473803848"/>
    <tag k="addr:city" v="Зеленоград"/>
    <tag k="addr:street" v="Никольский проезд"/>
    <tag k="amenity" v="public_building"/>
    <tag k="building" v="yes"/>
    <tag k="cladr:code" v="77000002000429400"/>
    <tag k="comment" v="Воскресная школа"/>
    <tag k="is_in" v="Russia"/>
    <tag k="natural" v="fell"/>
  </way>
  <way id="39543731" version="5" timestamp="2011-01-27T17:31:14Z" uid="115477" user="wowik" changeset="7105638">
    <nd ref="473803848"/>
    <nd ref="473803901"/>
    <nd ref="473803883"/>
    <nd ref="473803859"/>
    <nd ref="473803848"/>
    <tag k="addr:city" v="Зеленоград"/>
    <tag k="addr:street" v="Никольский проезд"/>
    <tag k="amenity" v="school"/>
    <tag k="building" v="yes"/>
    <tag k="is_in" v="Russia"/>
    <tag k="name" v="Воскресная школа"/>
  </way>
  <way id="39543731" version="6" timestamp="2011-09-13T10:29:46Z" uid="29320" user="Komяpa" changeset="9288237">
    <nd ref="473803848"/>
    <nd ref="473803901"/>
    <nd ref="473803883"/>
    <nd ref="473803859"/>
    <nd ref="473803848"/>
    <tag k="addr:city" v="Зеленоград"/>
    <tag k="addr:country" v="RU"/>
    <tag k="addr:street" v="Никольский проезд"/>
    <tag k="amenity" v="school"/>
    <tag k="building" v="yes"/>
    <tag k="name" v="Воскресная школа"/>
  </way>
  <way id="39543731" version="7" timestamp="2012-03-27T11:31:43Z" uid="481934" user="iWowik" changeset="11115472">
    <nd ref="473803848"/>
    <nd ref="473803901"/>
    <nd ref="473803883"/>
    <nd ref="473803859"/>
    <nd ref="473803848"/>
    <tag k="addr:city" v="Зеленоград"/>
    <tag k="addr:country" v="RU"/>
    <tag k="addr:region" v="Москва"/>
    <tag k="addr:street" v="Никольский проезд"/>
    <tag k="amenity" v="school"/>
    <tag k="building" v="yes"/>
    <tag k="name" v="Воскресная школа"/>
  </way>
  <way id="39543732" version="3" timestamp="2010-01-14T12:50:47Z" uid="115477" user="wowik" changeset="3616661">
    <nd ref="473803829"/>
    <nd ref="473803786"/>
    <nd ref="473803907"/>
    <nd ref="473803795"/>
    <nd ref="473803829"/>
    <tag k="addr:city" v="Зеленоград"/>
    <tag k="addr:housenumber" v="527"/>
    <tag k="addr:street" v="5-й Микрорайон"/>
    <tag k="building" v="yes"/>
    <tag k="is_in" v="Russia"/>
  </way>
  <way id="39543732" version="4" timestamp="2010-11-26T12:14:22Z" uid="115477" user="wowik" changeset="6461548">
    <nd ref="473803829"/>
    <nd ref="473803786"/>
    <nd ref="473803907"/>
    <nd ref="473803795"/>
    <nd ref="473803829"/>
    <tag k="addr:city" v="Зеленоград"/>
    <tag k="addr:housenumber" v="527"/>
    <tag k="addr:street" v="Микрорайон 5а"/>
    <tag k="building" v="yes"/>
    <tag k="is_in" v="Russia"/>
  </way>
  <way id="39543732" version="5" timestamp="2011-01-12T10:25:27Z" uid="115477" user="wowik" changeset="6945653">
    <nd ref="473803829"/>
    <nd ref="473803786"/>
    <nd ref="473803907"/>
    <nd ref="473803795"/>
    <nd ref="473803829"/>
    <tag k="addr:city" v="Зеленоград"/>
    <tag k="addr:housenumber" v="527"/>
    <tag k="addr:street" v="Микрорайон 5а"/>
    <tag k="building" v="yes"/>
    <tag k="building:use" v="residential"/>
    <tag k="is_in" v="Russia"/>
  </way>
  <way id="39543732" version="6" timestamp="2011-01-27T17:05:18Z" uid="115477" user="wowik" changeset="7105390">
    <nd ref="473803829"/>
    <nd ref="1123563890"/>
    <nd ref="1123565216"/>
    <nd ref="1123566298"/>
    <nd ref="1123564638"/>
    <nd ref="473803786"/>
    <nd ref="1123563714"/>
    <nd ref="1123564047"/>
    <nd ref="1123565417"/>
    <nd ref="1123565015"/>
    <nd ref="1123566268"/>
    <nd ref="473803907"/>
    <nd ref="1123565120"/>
    <nd ref="1123566206"/>
    <nd ref="1123564092"/>
    <nd ref="1123564441"/>
    <nd ref="1123565762"/>
    <nd ref="1123565570"/>
    <nd ref="473803795"/>
    <nd ref="1123565873"/>
    <nd ref="1123564123"/>
    <nd ref="1123565886"/>
    <nd ref="1123565495"/>
    <nd ref="1123563785"/>
    <nd ref="473803829"/>
    <tag k="addr:city" v="Зеленоград"/>
    <tag k="addr:housenumber" v="527"/>
    <tag k="addr:street" v="Микрорайон 5а"/>
    <tag k="building" v="yes"/>
    <tag k="building:use" v="residential"/>
    <tag k="is_in" v="Russia"/>
  </way>
  <way id="39543732" version="7" timestamp="2011-06-07T20:48:06Z" uid="133332" user="AMDmi3" changeset="8374030">
    <nd ref="473803829"/>
    <nd ref="1123563890"/>
    <nd ref="1123565216"/>
    <nd ref="1123566298"/>
    <nd ref="1123564638"/>
    <nd ref="473803786"/>
    <nd ref="1123563714"/>
    <nd ref="1123564047"/>
    <nd ref="1123565417"/>
    <nd ref="1123565015"/>
    <nd ref="1123566268"/>
    <nd ref="473803907"/>
    <nd ref="1123565120"/>
    <nd ref="1123566206"/>
    <nd ref="1123564092"/>
    <nd ref="1123564441"/>
    <nd ref="1123565762"/>
    <nd ref="1123565570"/>
    <nd ref="473803795"/>
    <nd ref="1123565873"/>
    <nd ref="1123564123"/>
    <nd ref="1123565886"/>
    <nd ref="1123565495"/>
    <nd ref="1123563785"/>
    <nd ref="473803829"/>
    <tag k="addr:city" v="Зеленоград"/>
    <tag k="addr:housenumber" v="527"/>
    <tag k="addr:street" v="микрорайон 5А"/>
    <tag k="building" v="yes"/>
    <tag k="building:use" v="residential"/>
    <tag k="is_in" v="Russia"/>
  </way>
  <way id="39543732" version="8" timestamp="2011-09-13T10:27:41Z" uid="29320" user="Komяpa" changeset="9288237">
    <nd ref="473803829"/>
    <nd ref="1123563890"/>
    <nd ref="1123565216"/>
    <nd ref="1123566298"/>
    <nd ref="1123564638"/>
    <nd ref="473803786"/>
    <nd ref="1123563714"/>
    <nd ref="1123564047"/>
    <nd ref="1123565417"/>
    <nd ref="1123565015"/>
    <nd ref="1123566268"/>
    <nd ref="473803907"/>
    <nd ref="1123565120"/>
    <nd ref="1123566206"/>
    <nd ref="1123564092"/>
    <nd ref="1123564441"/>
    <nd ref="1123565762"/>
    <nd ref="1123565570"/>
    <nd ref="473803795"/>
    <nd ref="1123565873"/>
    <nd ref="1123564123"/>
    <nd ref="1123565886"/>
    <nd ref="1123565495"/>
    <nd ref="1123563785"/>
    <nd ref="473803829"/>
    <tag k="addr:city" v="Зеленоград"/>
    <tag k="addr:country" v="RU"/>
    <tag k="addr:housenumber" v="527"/>
    <tag k="addr:street" v="микрорайон 5А"/>
    <tag k="building" v="yes"/>
    <tag k="building:use" v="residential"/>
  </way>
  <way id="39543732" version="9" timestamp="2011-10-28T10:14:15Z" uid="481934" user="iWowik" changeset="9675133">
    <nd ref="473803829"/>
    <nd ref="1123563890"/>
    <nd ref="1123565216"/>
    <nd ref="1123566298"/>
    <nd ref="1123564638"/>
    <nd ref="473803786"/>
    <nd ref="1123563714"/>
    <nd ref="1123564047"/>
    <nd ref="1123565417"/>
    <nd ref="1123565015"/>
    <nd ref="1123566268"/>
    <nd ref="473803907"/>
    <nd ref="1123565120"/>
    <nd ref="1123566206"/>
    <nd ref="1123564092"/>
    <nd ref="1123564441"/>
    <nd ref="1123565762"/>
    <nd ref="1123565570"/>
    <nd ref="473803795"/>
    <nd ref="1123565873"/>
    <nd ref="1123564123"/>
    <nd ref="1123565886"/>
    <nd ref="1123565495"/>
    <nd ref="1123563785"/>
    <nd ref="473803829"/>
    <tag k="addr:city" v="Зеленоград"/>
    <tag k="addr:country" v="RU"/>
    <tag k="addr:housenumber" v="527"/>
    <tag k="addr:street" v="Микрорайон 5а"/>
    <tag k="building" v="yes"/>
    <tag k="building:use" v="residential"/>
  </way>
  <way id="39543732" version="10" timestamp="2012-01-10T15:22:24Z" uid="481934" user="iWowik" changeset="10352148">
    <nd ref="473803829"/>
    <nd ref="1123563890"/>
    <nd ref="1123565216"/>
    <nd ref="1123566298"/>
    <nd ref="1123564638"/>
    <nd ref="473803786"/>
    <nd ref="1123563714"/>
    <nd ref="1123564047"/>
    <nd ref="1123565417"/>
    <nd ref="1123565015"/>
    <nd ref="1123566268"/>
    <nd ref="473803907"/>
    <nd ref="1123565120"/>
    <nd ref="1123566206"/>
    <nd ref="1123564092"/>
    <nd ref="1123564441"/>
    <nd ref="1123565762"/>
    <nd ref="1123565570"/>
    <nd ref="473803795"/>
    <nd ref="1123565873"/>
    <nd ref="1123564123"/>
    <nd ref="1123565886"/>
    <nd ref="1123565495"/>
    <nd ref="1123563785"/>
    <nd ref="473803829"/>
    <tag k="addr:city" v="Зеленоград"/>
    <tag k="addr:country" v="RU"/>
    <tag k="addr:housenumber" v="527"/>
    <tag k="building" v="yes"/>
    <tag k="building:use" v="residential"/>
    <tag k="sorting_name" v="микрорайон 5а/527"/>
  </way>
  <way id="39543732" version="11" timestamp="2012-03-27T11:44:48Z" uid="481934" user="iWowik" changeset="11115472">
    <nd ref="473803829"/>
    <nd ref="1123563890"/>
    <nd ref="1123565216"/>
    <nd ref="1123566298"/>
    <nd ref="1123564638"/>
    <nd ref="473803786"/>
    <nd ref="1123563714"/>
    <nd ref="1123564047"/>
    <nd ref="1123565417"/>
    <nd ref="1123565015"/>
    <nd ref="1123566268"/>
    <nd ref="473803907"/>
    <nd ref="1123565120"/>
    <nd ref="1123566206"/>
    <nd ref="1123564092"/>
    <nd ref="1123564441"/>
    <nd ref="1123565762"/>
    <nd ref="1123565570"/>
    <nd ref="473803795"/>
    <nd ref="1123565873"/>
    <nd ref="1123564123"/>
    <nd ref="1123565886"/>
    <nd ref="1123565495"/>
    <nd ref="1123563785"/>
    <nd ref="473803829"/>
    <tag k="addr:city" v="Зеленоград"/>
    <tag k="addr:country" v="RU"/>
    <tag k="addr:housenumber" v="527"/>
    <tag k="addr:region" v="Москва"/>
    <tag k="building" v="yes"/>
    <tag k="building:use" v="residential"/>
    <tag k="sorting_name" v="микрорайон 5а/527"/>
  </way>
  <way id="39543733" version="2" timestamp="2011-01-27T17:31:27Z" uid="115477" user="wowik" changeset="7105638">
    <nd ref="473803763"/>
    <nd ref="1123585844"/>
    <nd ref="1123585696"/>
    <nd ref="1123585826"/>
    <nd ref="473803852"/>
    <nd ref="1123585619"/>
    <nd ref="1123585730"/>
    <nd ref="1123585660"/>
    <nd ref="1123585645"/>
    <nd ref="1123585760"/>
    <nd ref="1123585887"/>
    <nd ref="1123585738"/>
    <nd ref="473803768"/>
    <nd ref="1123585775"/>
    <nd ref="1123585674"/>
    <nd ref="473803832"/>
    <nd ref="473803763"/>
    <tag k="addr:city" v="Зеленоград"/>
    <tag k="addr:street" v="Никольский проезд"/>
    <tag k="amenity" v="public_building"/>
    <tag k="building" v="yes"/>
    <tag k="is_in" v="Russia"/>
  </way>
  <way id="39543733" version="3" timestamp="2011-09-13T10:35:35Z" uid="29320" user="Komяpa" changeset="9288237">
    <nd ref="473803763"/>
    <nd ref="1123585844"/>
    <nd ref="1123585696"/>
    <nd ref="1123585826"/>
    <nd ref="473803852"/>
    <nd ref="1123585619"/>
    <nd ref="1123585730"/>
    <nd ref="1123585660"/>
    <nd ref="1123585645"/>
    <nd ref="1123585760"/>
    <nd ref="1123585887"/>
    <nd ref="1123585738"/>
    <nd ref="473803768"/>
    <nd ref="1123585775"/>
    <nd ref="1123585674"/>
    <nd ref="473803832"/>
    <nd ref="473803763"/>
    <tag k="addr:city" v="Зеленоград"/>
    <tag k="addr:country" v="RU"/>
    <tag k="addr:street" v="Никольский проезд"/>
    <tag k="amenity" v="public_building"/>
    <tag k="building" v="yes"/>
  </way>
  <way id="39543733" version="4" timestamp="2012-03-27T11:49:18Z" uid="481934" user="iWowik" changeset="11115472">
    <nd ref="473803763"/>
    <nd ref="1123585844"/>
    <nd ref="1123585696"/>
    <nd ref="1123585826"/>
    <nd ref="473803852"/>
    <nd ref="1123585619"/>
    <nd ref="1123585730"/>
    <nd ref="1123585660"/>
    <nd ref="1123585645"/>
    <nd ref="1123585760"/>
    <nd ref="1123585887"/>
    <nd ref="1123585738"/>
    <nd ref="473803768"/>
    <nd ref="1123585775"/>
    <nd ref="1123585674"/>
    <nd ref="473803832"/>
    <nd ref="473803763"/>
    <tag k="addr:city" v="Зеленоград"/>
    <tag k="addr:country" v="RU"/>
    <tag k="addr:region" v="Москва"/>
    <tag k="addr:street" v="Никольский проезд"/>
    <tag k="amenity" v="public_building"/>
    <tag k="building" v="yes"/>
  </way>
  <way id="39543734" version="2" timestamp="2010-11-16T09:02:43Z" uid="115477" user="wowik" changeset="6383413">
    <nd ref="473803812"/>
    <nd ref="473803987"/>
    <nd ref="473803846"/>
    <nd ref="473803785"/>
    <nd ref="473803812"/>
    <tag k="addr:city" v="Зеленоград"/>
    <tag k="addr:housenumber" v="1с1"/>
    <tag k="addr:street" v="Никольский проезд"/>
    <tag k="amenity" v="place_of_worship"/>
    <tag k="building" v="yes"/>
    <tag k="is_in" v="Russia"/>
    <tag k="name" v="Никольская церковь"/>
    <tag k="religion" v="christian"/>
  </way>
  <way id="39543734" version="3" timestamp="2011-01-19T15:53:37Z" uid="70696" user="xybot" changeset="7021015">
    <nd ref="473803812"/>
    <nd ref="473803987"/>
    <nd ref="473803846"/>
    <nd ref="473803785"/>
    <nd ref="473803812"/>
    <tag k="addr:city" v="Зеленоград"/>
    <tag k="addr:housenumber" v="1 с1"/>
    <tag k="addr:street" v="Никольский проезд"/>
    <tag k="amenity" v="place_of_worship"/>
    <tag k="building" v="yes"/>
    <tag k="is_in" v="Russia"/>
    <tag k="name" v="Никольская церковь"/>
    <tag k="religion" v="christian"/>
  </way>
  <way id="39543734" version="4" timestamp="2011-01-27T17:31:15Z" uid="115477" user="wowik" changeset="7105638">
    <nd ref="473803812"/>
    <nd ref="473803987"/>
    <nd ref="1123585755"/>
    <nd ref="1123585783"/>
    <nd ref="1123585634"/>
    <nd ref="1123585640"/>
    <nd ref="473803846"/>
    <nd ref="1123585725"/>
    <nd ref="1123585612"/>
    <nd ref="1123585714"/>
    <nd ref="1123585867"/>
    <nd ref="473803785"/>
    <nd ref="1123585676"/>
    <nd ref="1123585830"/>
    <nd ref="1123585701"/>
    <nd ref="1123585849"/>
    <nd ref="473803812"/>
    <tag k="addr:city" v="Зеленоград"/>
    <tag k="addr:housenumber" v="1 с1"/>
    <tag k="addr:street" v="Никольский проезд"/>
    <tag k="amenity" v="place_of_worship"/>
    <tag k="building" v="yes"/>
    <tag k="is_in" v="Russia"/>
    <tag k="name" v="Церковь Николая Чудотворца"/>
    <tag k="religion" v="christian"/>
  </way>
  <way id="39543734" version="5" timestamp="2011-09-13T10:31:42Z" uid="29320" user="Komяpa" changeset="9288237">
    <nd ref="473803812"/>
    <nd ref="473803987"/>
    <nd ref="1123585755"/>
    <nd ref="1123585783"/>
    <nd ref="1123585634"/>
    <nd ref="1123585640"/>
    <nd ref="473803846"/>
    <nd ref="1123585725"/>
    <nd ref="1123585612"/>
    <nd ref="1123585714"/>
    <nd ref="1123585867"/>
    <nd ref="473803785"/>
    <nd ref="1123585676"/>
    <nd ref="1123585830"/>
    <nd ref="1123585701"/>
    <nd ref="1123585849"/>
    <nd ref="473803812"/>
    <tag k="addr:city" v="Зеленоград"/>
    <tag k="addr:country" v="RU"/>
    <tag k="addr:housenumber" v="1 с1"/>
    <tag k="addr:street" v="Никольский проезд"/>
    <tag k="amenity" v="place_of_worship"/>
    <tag k="building" v="yes"/>
    <tag k="name" v="Церковь Николая Чудотворца"/>
    <tag k="religion" v="christian"/>
  </way>
  <way id="39543734" version="6" timestamp="2011-12-12T08:47:15Z" uid="126304" user="TarzanASG" changeset="10096498">
    <nd ref="473803812"/>
    <nd ref="473803987"/>
    <nd ref="1123585755"/>
    <nd ref="1123585783"/>
    <nd ref="1123585634"/>
    <nd ref="1123585640"/>
    <nd ref="473803846"/>
    <nd ref="1123585725"/>
    <nd ref="1123585612"/>
    <nd ref="1123585714"/>
    <nd ref="1123585867"/>
    <nd ref="473803785"/>
    <nd ref="1123585676"/>
    <nd ref="1123585830"/>
    <nd ref="1123585701"/>
    <nd ref="1123585849"/>
    <nd ref="473803812"/>
    <tag k="addr:city" v="Зеленоград"/>
    <tag k="addr:country" v="RU"/>
    <tag k="addr:housenumber" v="1 с1"/>
    <tag k="addr:street" v="Никольский проезд"/>
    <tag k="amenity" v="place_of_worship"/>
    <tag k="building" v="church"/>
    <tag k="name" v="Церковь Николая Чудотворца"/>
    <tag k="religion" v="christian"/>
  </way>
  <way id="39543734" version="7" timestamp="2011-12-14T15:23:36Z" uid="143266" user="Sergey Astakhov" changeset="10116697">
    <nd ref="473803812"/>
    <nd ref="473803987"/>
    <nd ref="1123585755"/>
    <nd ref="1123585783"/>
    <nd ref="1123585634"/>
    <nd ref="1123585640"/>
    <nd ref="473803846"/>
    <nd ref="1123585725"/>
    <nd ref="1123585612"/>
    <nd ref="1123585714"/>
    <nd ref="1123585867"/>
    <nd ref="473803785"/>
    <nd ref="1123585676"/>
    <nd ref="1123585830"/>
    <nd ref="1123585701"/>
    <nd ref="1123585849"/>
    <nd ref="473803812"/>
    <tag k="addr:city" v="Зеленоград"/>
    <tag k="addr:country" v="RU"/>
    <tag k="addr:housenumber" v="1 с1"/>
    <tag k="addr:street" v="Никольский проезд"/>
    <tag k="amenity" v="place_of_worship"/>
    <tag k="building" v="yes"/>
    <tag k="name" v="Церковь Николая Чудотворца"/>
    <tag k="religion" v="christian"/>
  </way>
  <way id="39543735" version="3" timestamp="2010-01-14T12:50:47Z" uid="115477" user="wowik" changeset="3616661">
    <nd ref="473803801"/>
    <nd ref="473803919"/>
    <nd ref="473803818"/>
    <nd ref="473803909"/>
    <nd ref="473803801"/>
    <tag k="addr:city" v="Зеленоград"/>
    <tag k="addr:housenumber" v="530"/>
    <tag k="addr:street" v="5-й Микрорайон"/>
    <tag k="building" v="yes"/>
    <tag k="is_in" v="Russia"/>
  </way>
  <way id="39543735" version="4" timestamp="2010-11-26T12:14:22Z" uid="115477" user="wowik" changeset="6461548">
    <nd ref="473803801"/>
    <nd ref="473803919"/>
    <nd ref="473803818"/>
    <nd ref="473803909"/>
    <nd ref="473803801"/>
    <tag k="addr:city" v="Зеленоград"/>
    <tag k="addr:housenumber" v="530"/>
    <tag k="addr:street" v="Микрорайон 5а"/>
    <tag k="building" v="yes"/>
    <tag k="is_in" v="Russia"/>
  </way>
  <way id="39543735" version="5" timestamp="2011-01-12T10:24:57Z" uid="115477" user="wowik" changeset="6945653">
    <nd ref="473803801"/>
    <nd ref="473803919"/>
    <nd ref="473803818"/>
    <nd ref="473803909"/>
    <nd ref="473803801"/>
    <tag k="addr:city" v="Зеленоград"/>
    <tag k="addr:housenumber" v="530"/>
    <tag k="addr:street" v="Микрорайон 5а"/>
    <tag k="building" v="yes"/>
    <tag k="building:use" v="residential"/>
    <tag k="is_in" v="Russia"/>
  </way>
  <way id="39543735" version="6" timestamp="2011-01-27T17:04:22Z" uid="115477" user="wowik" changeset="7105390">
    <nd ref="473803801"/>
    <nd ref="1123565538"/>
    <nd ref="1123564182"/>
    <nd ref="1123565916"/>
    <nd ref="1123563840"/>
    <nd ref="1123563939"/>
    <nd ref="1123565851"/>
    <nd ref="473803919"/>
    <nd ref="473803818"/>
    <nd ref="1123564589"/>
    <nd ref="1123565098"/>
    <nd ref="1123565166"/>
    <nd ref="1123566271"/>
    <nd ref="473803909"/>
    <nd ref="1123563605"/>
    <nd ref="1123563766"/>
    <nd ref="1123565474"/>
    <nd ref="1123565291"/>
    <nd ref="473803801"/>
    <tag k="addr:city" v="Зеленоград"/>
    <tag k="addr:housenumber" v="530"/>
    <tag k="addr:street" v="Микрорайон 5а"/>
    <tag k="building" v="yes"/>
    <tag k="building:use" v="residential"/>
    <tag k="is_in" v="Russia"/>
  </way>
  <way id="39543735" version="7" timestamp="2011-06-07T20:48:07Z" uid="133332" user="AMDmi3" changeset="8374030">
    <nd ref="473803801"/>
    <nd ref="1123565538"/>
    <nd ref="1123564182"/>
    <nd ref="1123565916"/>
    <nd ref="1123563840"/>
    <nd ref="1123563939"/>
    <nd ref="1123565851"/>
    <nd ref="473803919"/>
    <nd ref="473803818"/>
    <nd ref="1123564589"/>
    <nd ref="1123565098"/>
    <nd ref="1123565166"/>
    <nd ref="1123566271"/>
    <nd ref="473803909"/>
    <nd ref="1123563605"/>
    <nd ref="1123563766"/>
    <nd ref="1123565474"/>
    <nd ref="1123565291"/>
    <nd ref="473803801"/>
    <tag k="addr:city" v="Зеленоград"/>
    <tag k="addr:housenumber" v="530"/>
    <tag k="addr:street" v="микрорайон 5А"/>
    <tag k="building" v="yes"/>
    <tag k="building:use" v="residential"/>
    <tag k="is_in" v="Russia"/>
  </way>
  <way id="39543735" version="8" timestamp="2011-09-13T10:27:43Z" uid="29320" user="Komяpa" changeset="9288237">
    <nd ref="473803801"/>
    <nd ref="1123565538"/>
    <nd ref="1123564182"/>
    <nd ref="1123565916"/>
    <nd ref="1123563840"/>
    <nd ref="1123563939"/>
    <nd ref="1123565851"/>
    <nd ref="473803919"/>
    <nd ref="473803818"/>
    <nd ref="1123564589"/>
    <nd ref="1123565098"/>
    <nd ref="1123565166"/>
    <nd ref="1123566271"/>
    <nd ref="473803909"/>
    <nd ref="1123563605"/>
    <nd ref="1123563766"/>
    <nd ref="1123565474"/>
    <nd ref="1123565291"/>
    <nd ref="473803801"/>
    <tag k="addr:city" v="Зеленоград"/>
    <tag k="addr:country" v="RU"/>
    <tag k="addr:housenumber" v="530"/>
    <tag k="addr:street" v="микрорайон 5А"/>
    <tag k="building" v="yes"/>
    <tag k="building:use" v="residential"/>
  </way>
  <way id="39543735" version="9" timestamp="2011-10-28T10:14:17Z" uid="481934" user="iWowik" changeset="9675133">
    <nd ref="473803801"/>
    <nd ref="1123565538"/>
    <nd ref="1123564182"/>
    <nd ref="1123565916"/>
    <nd ref="1123563840"/>
    <nd ref="1123563939"/>
    <nd ref="1123565851"/>
    <nd ref="473803919"/>
    <nd ref="473803818"/>
    <nd ref="1123564589"/>
    <nd ref="1123565098"/>
    <nd ref="1123565166"/>
    <nd ref="1123566271"/>
    <nd ref="473803909"/>
    <nd ref="1123563605"/>
    <nd ref="1123563766"/>
    <nd ref="1123565474"/>
    <nd ref="1123565291"/>
    <nd ref="473803801"/>
    <tag k="addr:city" v="Зеленоград"/>
    <tag k="addr:country" v="RU"/>
    <tag k="addr:housenumber" v="530"/>
    <tag k="addr:street" v="Микрорайон 5а"/>
    <tag k="building" v="yes"/>
    <tag k="building:use" v="residential"/>
  </way>
  <way id="39543735" version="10" timestamp="2012-01-10T15:22:26Z" uid="481934" user="iWowik" changeset="10352148">
    <nd ref="473803801"/>
    <nd ref="1123565538"/>
    <nd ref="1123564182"/>
    <nd ref="1123565916"/>
    <nd ref="1123563840"/>
    <nd ref="1123563939"/>
    <nd ref="1123565851"/>
    <nd ref="473803919"/>
    <nd ref="473803818"/>
    <nd ref="1123564589"/>
    <nd ref="1123565098"/>
    <nd ref="1123565166"/>
    <nd ref="1123566271"/>
    <nd ref="473803909"/>
    <nd ref="1123563605"/>
    <nd ref="1123563766"/>
    <nd ref="1123565474"/>
    <nd ref="1123565291"/>
    <nd ref="473803801"/>
    <tag k="addr:city" v="Зеленоград"/>
    <tag k="addr:country" v="RU"/>
    <tag k="addr:housenumber" v="530"/>
    <tag k="building" v="yes"/>
    <tag k="building:use" v="residential"/>
  </way>
  <way id="39543735" version="11" timestamp="2012-03-27T11:44:50Z" uid="481934" user="iWowik" changeset="11115472">
    <nd ref="473803801"/>
    <nd ref="1123565538"/>
    <nd ref="1123564182"/>
    <nd ref="1123565916"/>
    <nd ref="1123563840"/>
    <nd ref="1123563939"/>
    <nd ref="1123565851"/>
    <nd ref="473803919"/>
    <nd ref="473803818"/>
    <nd ref="1123564589"/>
    <nd ref="1123565098"/>
    <nd ref="1123565166"/>
    <nd ref="1123566271"/>
    <nd ref="473803909"/>
    <nd ref="1123563605"/>
    <nd ref="1123563766"/>
    <nd ref="1123565474"/>
    <nd ref="1123565291"/>
    <nd ref="473803801"/>
    <tag k="addr:city" v="Зеленоград"/>
    <tag k="addr:country" v="RU"/>
    <tag k="addr:housenumber" v="530"/>
    <tag k="addr:region" v="Москва"/>
    <tag k="building" v="yes"/>
    <tag k="building:use" v="residential"/>
  </way>
  <way id="39543736" version="2" timestamp="2010-11-16T09:02:43Z" uid="115477" user="wowik" changeset="6383413">
    <nd ref="473803770"/>
    <nd ref="473803765"/>
    <nd ref="473803822"/>
    <nd ref="473803782"/>
    <nd ref="473803770"/>
    <tag k="addr:city" v="Зеленоград"/>
    <tag k="addr:housenumber" v="1с2"/>
    <tag k="addr:street" v="Никольский проезд"/>
    <tag k="amenity" v="public_building"/>
    <tag k="building" v="yes"/>
    <tag k="is_in" v="Russia"/>
  </way>
  <way id="39543736" version="3" timestamp="2010-11-16T09:06:20Z" uid="115477" user="wowik" changeset="6383438">
    <nd ref="473803770"/>
    <nd ref="473803765"/>
    <nd ref="473803822"/>
    <nd ref="473803782"/>
    <nd ref="473803770"/>
    <tag k="addr:city" v="Зеленоград"/>
    <tag k="addr:housenumber" v="1с1"/>
    <tag k="addr:street" v="Никольский проезд"/>
    <tag k="amenity" v="public_building"/>
    <tag k="building" v="yes"/>
    <tag k="is_in" v="Russia"/>
  </way>
  <way id="39543736" version="4" timestamp="2010-11-16T09:08:44Z" uid="115477" user="wowik" changeset="6383413">
    <nd ref="473803770"/>
    <nd ref="473803765"/>
    <nd ref="473803822"/>
    <nd ref="473803782"/>
    <nd ref="473803770"/>
    <tag k="addr:city" v="Зеленоград"/>
    <tag k="addr:street" v="Никольский проезд"/>
    <tag k="amenity" v="public_building"/>
    <tag k="building" v="yes"/>
    <tag k="is_in" v="Russia"/>
  </way>
  <way id="39543736" version="5" timestamp="2011-01-27T17:31:29Z" uid="115477" user="wowik" changeset="7105638">
    <nd ref="473803770"/>
    <nd ref="473803765"/>
    <nd ref="473803822"/>
    <nd ref="473803782"/>
    <nd ref="473803770"/>
    <tag k="addr:city" v="Зеленоград"/>
    <tag k="addr:housenumber" v="1"/>
    <tag k="addr:street" v="Никольский проезд"/>
    <tag k="building" v="yes"/>
    <tag k="is_in" v="Russia"/>
  </way>
  <way id="39543736" version="6" timestamp="2011-09-13T10:20:28Z" uid="29320" user="Komяpa" changeset="9288237">
    <nd ref="473803770"/>
    <nd ref="473803765"/>
    <nd ref="473803822"/>
    <nd ref="473803782"/>
    <nd ref="473803770"/>
    <tag k="addr:city" v="Зеленоград"/>
    <tag k="addr:country" v="RU"/>
    <tag k="addr:housenumber" v="1"/>
    <tag k="addr:street" v="Никольский проезд"/>
    <tag k="building" v="yes"/>
  </way>
  <way id="39543737" version="3" timestamp="2010-11-26T12:14:23Z" uid="115477" user="wowik" changeset="6461548">
    <nd ref="473803806"/>
    <nd ref="473803767"/>
    <nd ref="473803764"/>
    <nd ref="473803872"/>
    <nd ref="473803869"/>
    <nd ref="473803900"/>
    <nd ref="473803806"/>
    <tag k="addr:city" v="Зеленоград"/>
    <tag k="addr:housenumber" v="528"/>
    <tag k="addr:street" v="Микрорайон 5а"/>
    <tag k="amenity" v="public_building"/>
    <tag k="building" v="yes"/>
    <tag k="is_in" v="Russia"/>
    <tag k="name" v="РЭУ"/>
  </way>
  <way id="39543737" version="4" timestamp="2011-01-27T17:04:49Z" uid="115477" user="wowik" changeset="7105390">
    <nd ref="473803806"/>
    <nd ref="1123563636"/>
    <nd ref="1123566301"/>
    <nd ref="1123565221"/>
    <nd ref="1123564829"/>
    <nd ref="473803767"/>
    <nd ref="473803764"/>
    <nd ref="473803872"/>
    <nd ref="473803869"/>
    <nd ref="473803900"/>
    <nd ref="473803806"/>
    <tag k="addr:city" v="Зеленоград"/>
    <tag k="addr:housenumber" v="528"/>
    <tag k="addr:street" v="Микрорайон 5а"/>
    <tag k="amenity" v="public_building"/>
    <tag k="building" v="yes"/>
    <tag k="is_in" v="Russia"/>
    <tag k="name" v="РЭУ"/>
  </way>
  <way id="39543737" version="5" timestamp="2011-06-07T20:48:05Z" uid="133332" user="AMDmi3" changeset="8374030">
    <nd ref="473803806"/>
    <nd ref="1123563636"/>
    <nd ref="1123566301"/>
    <nd ref="1123565221"/>
    <nd ref="1123564829"/>
    <nd ref="473803767"/>
    <nd ref="473803764"/>
    <nd ref="473803872"/>
    <nd ref="473803869"/>
    <nd ref="473803900"/>
    <nd ref="473803806"/>
    <tag k="addr:city" v="Зеленоград"/>
    <tag k="addr:housenumber" v="528"/>
    <tag k="addr:street" v="микрорайон 5А"/>
    <tag k="amenity" v="public_building"/>
    <tag k="building" v="yes"/>
    <tag k="is_in" v="Russia"/>
    <tag k="name" v="РЭУ"/>
  </way>
  <way id="39543737" version="6" timestamp="2011-09-13T10:31:05Z" uid="29320" user="Komяpa" changeset="9288237">
    <nd ref="473803806"/>
    <nd ref="1123563636"/>
    <nd ref="1123566301"/>
    <nd ref="1123565221"/>
    <nd ref="1123564829"/>
    <nd ref="473803767"/>
    <nd ref="473803764"/>
    <nd ref="473803872"/>
    <nd ref="473803869"/>
    <nd ref="473803900"/>
    <nd ref="473803806"/>
    <tag k="addr:city" v="Зеленоград"/>
    <tag k="addr:country" v="RU"/>
    <tag k="addr:housenumber" v="528"/>
    <tag k="addr:street" v="микрорайон 5А"/>
    <tag k="amenity" v="public_building"/>
    <tag k="building" v="yes"/>
    <tag k="name" v="РЭУ"/>
  </way>
  <way id="39543737" version="7" timestamp="2011-10-28T10:14:19Z" uid="481934" user="iWowik" changeset="9675133">
    <nd ref="473803806"/>
    <nd ref="1123563636"/>
    <nd ref="1123566301"/>
    <nd ref="1123565221"/>
    <nd ref="1123564829"/>
    <nd ref="473803767"/>
    <nd ref="473803764"/>
    <nd ref="473803872"/>
    <nd ref="473803869"/>
    <nd ref="473803900"/>
    <nd ref="473803806"/>
    <tag k="addr:city" v="Зеленоград"/>
    <tag k="addr:country" v="RU"/>
    <tag k="addr:housenumber" v="528"/>
    <tag k="addr:street" v="Микрорайон 5а"/>
    <tag k="amenity" v="public_building"/>
    <tag k="building" v="yes"/>
    <tag k="name" v="РЭУ"/>
  </way>
  <way id="39543737" version="8" timestamp="2012-01-10T15:22:29Z" uid="481934" user="iWowik" changeset="10352148">
    <nd ref="473803806"/>
    <nd ref="1123563636"/>
    <nd ref="1123566301"/>
    <nd ref="1123565221"/>
    <nd ref="1123564829"/>
    <nd ref="473803767"/>
    <nd ref="473803764"/>
    <nd ref="473803872"/>
    <nd ref="473803869"/>
    <nd ref="473803900"/>
    <nd ref="473803806"/>
    <tag k="addr:city" v="Зеленоград"/>
    <tag k="addr:country" v="RU"/>
    <tag k="addr:housenumber" v="528"/>
    <tag k="amenity" v="public_building"/>
    <tag k="building" v="yes"/>
    <tag k="name" v="РЭУ"/>
  </way>
  <way id="39543737" version="9" timestamp="2012-03-27T11:47:50Z" uid="481934" user="iWowik" changeset="11115472">
    <nd ref="473803806"/>
    <nd ref="1123563636"/>
    <nd ref="1123566301"/>
    <nd ref="1123565221"/>
    <nd ref="1123564829"/>
    <nd ref="473803767"/>
    <nd ref="473803764"/>
    <nd ref="473803872"/>
    <nd ref="473803869"/>
    <nd ref="473803900"/>
    <nd ref="473803806"/>
    <tag k="addr:city" v="Зеленоград"/>
    <tag k="addr:country" v="RU"/>
    <tag k="addr:housenumber" v="528"/>
    <tag k="addr:region" v="Москва"/>
    <tag k="amenity" v="public_building"/>
    <tag k="building" v="yes"/>
    <tag k="name" v="РЭУ"/>
  </way>
  <way id="39543738" version="2" timestamp="2010-01-12T14:15:20Z" uid="115477" user="wowik" changeset="3602714">
    <nd ref="473803928"/>
    <nd ref="473803844"/>
    <nd ref="473803894"/>
    <nd ref="473803984"/>
    <nd ref="473803895"/>
    <nd ref="473803960"/>
    <nd ref="473803828"/>
    <nd ref="473803897"/>
    <nd ref="473803850"/>
    <nd ref="473803966"/>
    <nd ref="473803937"/>
    <nd ref="473803774"/>
    <nd ref="473803873"/>
    <nd ref="473803928"/>
    <tag k="addr:city" v="Зеленоград"/>
    <tag k="addr:housenumber" v="5"/>
    <tag k="addr:street" v="Никольский проезд"/>
    <tag k="amenity" v="public_building"/>
    <tag k="building" v="yes"/>
    <tag k="is_in" v="Russia"/>
    <tag k="name" v="Пансионат &quot;Никольский парк&quot;"/>
  </way>
  <way id="39543738" version="3" timestamp="2011-01-27T17:31:11Z" uid="115477" user="wowik" changeset="7105638">
    <nd ref="473803928"/>
    <nd ref="1123585823"/>
    <nd ref="1123585841"/>
    <nd ref="1123585665"/>
    <nd ref="1123585774"/>
    <nd ref="473803844"/>
    <nd ref="1123585627"/>
    <nd ref="1123585635"/>
    <nd ref="473803894"/>
    <nd ref="473803984"/>
    <nd ref="473803895"/>
    <nd ref="473803960"/>
    <nd ref="473803828"/>
    <nd ref="473803897"/>
    <nd ref="1123585768"/>
    <nd ref="1123585662"/>
    <nd ref="1123585704"/>
    <nd ref="1123585597"/>
    <nd ref="1123585624"/>
    <nd ref="473803850"/>
    <nd ref="1123585746"/>
    <nd ref="473803966"/>
    <nd ref="473803937"/>
    <nd ref="473803774"/>
    <nd ref="473803873"/>
    <nd ref="1123585695"/>
    <nd ref="1123585878"/>
    <nd ref="1123585618"/>
    <nd ref="1123585729"/>
    <nd ref="1123585737"/>
    <nd ref="473803928"/>
    <tag k="addr:city" v="Зеленоград"/>
    <tag k="addr:housenumber" v="5"/>
    <tag k="addr:street" v="Никольский проезд"/>
    <tag k="amenity" v="public_building"/>
    <tag k="building" v="yes"/>
    <tag k="is_in" v="Russia"/>
    <tag k="name" v="Пансионат &quot;Никольский парк&quot;"/>
  </way>
  <way id="39543738" version="4" timestamp="2011-09-13T10:30:54Z" uid="29320" user="Komяpa" changeset="9288237">
    <nd ref="473803928"/>
    <nd ref="1123585823"/>
    <nd ref="1123585841"/>
    <nd ref="1123585665"/>
    <nd ref="1123585774"/>
    <nd ref="473803844"/>
    <nd ref="1123585627"/>
    <nd ref="1123585635"/>
    <nd ref="473803894"/>
    <nd ref="473803984"/>
    <nd ref="473803895"/>
    <nd ref="473803960"/>
    <nd ref="473803828"/>
    <nd ref="473803897"/>
    <nd ref="1123585768"/>
    <nd ref="1123585662"/>
    <nd ref="1123585704"/>
    <nd ref="1123585597"/>
    <nd ref="1123585624"/>
    <nd ref="473803850"/>
    <nd ref="1123585746"/>
    <nd ref="473803966"/>
    <nd ref="473803937"/>
    <nd ref="473803774"/>
    <nd ref="473803873"/>
    <nd ref="1123585695"/>
    <nd ref="1123585878"/>
    <nd ref="1123585618"/>
    <nd ref="1123585729"/>
    <nd ref="1123585737"/>
    <nd ref="473803928"/>
    <tag k="addr:city" v="Зеленоград"/>
    <tag k="addr:country" v="RU"/>
    <tag k="addr:housenumber" v="5"/>
    <tag k="addr:street" v="Никольский проезд"/>
    <tag k="amenity" v="public_building"/>
    <tag k="building" v="yes"/>
    <tag k="name" v="Пансионат &quot;Никольский парк&quot;"/>
  </way>
  <way id="39543738" version="5" timestamp="2012-03-27T11:47:42Z" uid="481934" user="iWowik" changeset="11115472">
    <nd ref="473803928"/>
    <nd ref="1123585823"/>
    <nd ref="1123585841"/>
    <nd ref="1123585665"/>
    <nd ref="1123585774"/>
    <nd ref="473803844"/>
    <nd ref="1123585627"/>
    <nd ref="1123585635"/>
    <nd ref="473803894"/>
    <nd ref="473803984"/>
    <nd ref="473803895"/>
    <nd ref="473803960"/>
    <nd ref="473803828"/>
    <nd ref="473803897"/>
    <nd ref="1123585768"/>
    <nd ref="1123585662"/>
    <nd ref="1123585704"/>
    <nd ref="1123585597"/>
    <nd ref="1123585624"/>
    <nd ref="473803850"/>
    <nd ref="1123585746"/>
    <nd ref="473803966"/>
    <nd ref="473803937"/>
    <nd ref="473803774"/>
    <nd ref="473803873"/>
    <nd ref="1123585695"/>
    <nd ref="1123585878"/>
    <nd ref="1123585618"/>
    <nd ref="1123585729"/>
    <nd ref="1123585737"/>
    <nd ref="473803928"/>
    <tag k="addr:city" v="Зеленоград"/>
    <tag k="addr:country" v="RU"/>
    <tag k="addr:housenumber" v="5"/>
    <tag k="addr:region" v="Москва"/>
    <tag k="addr:street" v="Никольский проезд"/>
    <tag k="amenity" v="public_building"/>
    <tag k="building" v="yes"/>
    <tag k="name" v="Пансионат &quot;Никольский парк&quot;"/>
  </way>
  <way id="39543739" version="3" timestamp="2010-01-14T12:50:47Z" uid="115477" user="wowik" changeset="3616661">
    <nd ref="473803798"/>
    <nd ref="473803884"/>
    <nd ref="473803863"/>
    <nd ref="473803790"/>
    <nd ref="473803951"/>
    <nd ref="473803939"/>
    <nd ref="473803798"/>
    <tag k="addr:city" v="Зеленоград"/>
    <tag k="addr:country" v="5-й Микрорайон"/>
    <tag k="addr:housenumber" v="533"/>
    <tag k="addr:street" v="5-й Микрорайон"/>
    <tag k="building" v="yes"/>
    <tag k="is_in" v="Russia"/>
  </way>
  <way id="39543739" version="4" timestamp="2010-02-06T19:03:16Z" uid="2680" user="xylome" changeset="3807858">
    <nd ref="473803798"/>
    <nd ref="473803884"/>
    <nd ref="473803863"/>
    <nd ref="473803790"/>
    <nd ref="473803951"/>
    <nd ref="473803939"/>
    <nd ref="473803798"/>
    <tag k="addr:city" v="Зеленоград"/>
    <tag k="addr:country" v="RU"/>
    <tag k="addr:housenumber" v="533"/>
    <tag k="addr:street" v="5-й Микрорайон"/>
    <tag k="building" v="yes"/>
    <tag k="is_in" v="Russia"/>
  </way>
  <way id="39543739" version="5" timestamp="2010-11-26T12:14:22Z" uid="115477" user="wowik" changeset="6461548">
    <nd ref="473803798"/>
    <nd ref="473803884"/>
    <nd ref="473803863"/>
    <nd ref="473803790"/>
    <nd ref="473803951"/>
    <nd ref="473803939"/>
    <nd ref="473803798"/>
    <tag k="addr:city" v="Зеленоград"/>
    <tag k="addr:country" v="RU"/>
    <tag k="addr:housenumber" v="533"/>
    <tag k="addr:street" v="Микрорайон 5а"/>
    <tag k="building" v="yes"/>
    <tag k="is_in" v="Russia"/>
  </way>
  <way id="39543739" version="6" timestamp="2011-01-12T10:24:44Z" uid="115477" user="wowik" changeset="6945653">
    <nd ref="473803798"/>
    <nd ref="473803884"/>
    <nd ref="473803863"/>
    <nd ref="473803790"/>
    <nd ref="473803951"/>
    <nd ref="473803939"/>
    <nd ref="473803798"/>
    <tag k="addr:city" v="Зеленоград"/>
    <tag k="addr:country" v="RU"/>
    <tag k="addr:housenumber" v="533"/>
    <tag k="addr:street" v="Микрорайон 5а"/>
    <tag k="building" v="yes"/>
    <tag k="building:use" v="residential"/>
    <tag k="is_in" v="Russia"/>
  </way>
  <way id="39543739" version="7" timestamp="2011-01-27T17:05:22Z" uid="115477" user="wowik" changeset="7105390">
    <nd ref="473803798"/>
    <nd ref="1123563776"/>
    <nd ref="1123563827"/>
    <nd ref="1123566053"/>
    <nd ref="1123566186"/>
    <nd ref="1123565112"/>
    <nd ref="1123564413"/>
    <nd ref="1123563924"/>
    <nd ref="1123564110"/>
    <nd ref="1123565485"/>
    <nd ref="1123566328"/>
    <nd ref="1123565734"/>
    <nd ref="1123565866"/>
    <nd ref="1123564612"/>
    <nd ref="1123565408"/>
    <nd ref="1123564705"/>
    <nd ref="1123566288"/>
    <nd ref="473803884"/>
    <nd ref="1123563869"/>
    <nd ref="473803863"/>
    <nd ref="1123564198"/>
    <nd ref="1123565547"/>
    <nd ref="473803790"/>
    <nd ref="473803951"/>
    <nd ref="473803939"/>
    <nd ref="473803798"/>
    <tag k="addr:city" v="Зеленоград"/>
    <tag k="addr:country" v="RU"/>
    <tag k="addr:housenumber" v="533"/>
    <tag k="addr:street" v="Микрорайон 5а"/>
    <tag k="building" v="yes"/>
    <tag k="building:use" v="residential"/>
    <tag k="is_in" v="Russia"/>
  </way>
  <way id="39543739" version="8" timestamp="2011-06-07T20:48:05Z" uid="133332" user="AMDmi3" changeset="8374030">
    <nd ref="473803798"/>
    <nd ref="1123563776"/>
    <nd ref="1123563827"/>
    <nd ref="1123566053"/>
    <nd ref="1123566186"/>
    <nd ref="1123565112"/>
    <nd ref="1123564413"/>
    <nd ref="1123563924"/>
    <nd ref="1123564110"/>
    <nd ref="1123565485"/>
    <nd ref="1123566328"/>
    <nd ref="1123565734"/>
    <nd ref="1123565866"/>
    <nd ref="1123564612"/>
    <nd ref="1123565408"/>
    <nd ref="1123564705"/>
    <nd ref="1123566288"/>
    <nd ref="473803884"/>
    <nd ref="1123563869"/>
    <nd ref="473803863"/>
    <nd ref="1123564198"/>
    <nd ref="1123565547"/>
    <nd ref="473803790"/>
    <nd ref="473803951"/>
    <nd ref="473803939"/>
    <nd ref="473803798"/>
    <tag k="addr:city" v="Зеленоград"/>
    <tag k="addr:country" v="RU"/>
    <tag k="addr:housenumber" v="533"/>
    <tag k="addr:street" v="микрорайон 5А"/>
    <tag k="building" v="yes"/>
    <tag k="building:use" v="residential"/>
    <tag k="is_in" v="Russia"/>
  </way>
  <way id="39543739" version="9" timestamp="2011-09-13T10:27:45Z" uid="29320" user="Komяpa" changeset="9288237">
    <nd ref="473803798"/>
    <nd ref="1123563776"/>
    <nd ref="1123563827"/>
    <nd ref="1123566053"/>
    <nd ref="1123566186"/>
    <nd ref="1123565112"/>
    <nd ref="1123564413"/>
    <nd ref="1123563924"/>
    <nd ref="1123564110"/>
    <nd ref="1123565485"/>
    <nd ref="1123566328"/>
    <nd ref="1123565734"/>
    <nd ref="1123565866"/>
    <nd ref="1123564612"/>
    <nd ref="1123565408"/>
    <nd ref="1123564705"/>
    <nd ref="1123566288"/>
    <nd ref="473803884"/>
    <nd ref="1123563869"/>
    <nd ref="473803863"/>
    <nd ref="1123564198"/>
    <nd ref="1123565547"/>
    <nd ref="473803790"/>
    <nd ref="473803951"/>
    <nd ref="473803939"/>
    <nd ref="473803798"/>
    <tag k="addr:city" v="Зеленоград"/>
    <tag k="addr:country" v="RU"/>
    <tag k="addr:housenumber" v="533"/>
    <tag k="addr:street" v="микрорайон 5А"/>
    <tag k="building" v="yes"/>
    <tag k="building:use" v="residential"/>
  </way>
  <way id="39543739" version="10" timestamp="2011-10-28T10:14:18Z" uid="481934" user="iWowik" changeset="9675133">
    <nd ref="473803798"/>
    <nd ref="1123563776"/>
    <nd ref="1123563827"/>
    <nd ref="1123566053"/>
    <nd ref="1123566186"/>
    <nd ref="1123565112"/>
    <nd ref="1123564413"/>
    <nd ref="1123563924"/>
    <nd ref="1123564110"/>
    <nd ref="1123565485"/>
    <nd ref="1123566328"/>
    <nd ref="1123565734"/>
    <nd ref="1123565866"/>
    <nd ref="1123564612"/>
    <nd ref="1123565408"/>
    <nd ref="1123564705"/>
    <nd ref="1123566288"/>
    <nd ref="473803884"/>
    <nd ref="1123563869"/>
    <nd ref="473803863"/>
    <nd ref="1123564198"/>
    <nd ref="1123565547"/>
    <nd ref="473803790"/>
    <nd ref="473803951"/>
    <nd ref="473803939"/>
    <nd ref="473803798"/>
    <tag k="addr:city" v="Зеленоград"/>
    <tag k="addr:country" v="RU"/>
    <tag k="addr:housenumber" v="533"/>
    <tag k="addr:street" v="Микрорайон 5а"/>
    <tag k="building" v="yes"/>
    <tag k="building:use" v="residential"/>
  </way>
  <way id="39543739" version="11" timestamp="2012-01-10T15:22:27Z" uid="481934" user="iWowik" changeset="10352148">
    <nd ref="473803798"/>
    <nd ref="1123563776"/>
    <nd ref="1123563827"/>
    <nd ref="1123566053"/>
    <nd ref="1123566186"/>
    <nd ref="1123565112"/>
    <nd ref="1123564413"/>
    <nd ref="1123563924"/>
    <nd ref="1123564110"/>
    <nd ref="1123565485"/>
    <nd ref="1123566328"/>
    <nd ref="1123565734"/>
    <nd ref="1123565866"/>
    <nd ref="1123564612"/>
    <nd ref="1123565408"/>
    <nd ref="1123564705"/>
    <nd ref="1123566288"/>
    <nd ref="473803884"/>
    <nd ref="1123563869"/>
    <nd ref="473803863"/>
    <nd ref="1123564198"/>
    <nd ref="1123565547"/>
    <nd ref="473803790"/>
    <nd ref="473803951"/>
    <nd ref="473803939"/>
    <nd ref="473803798"/>
    <tag k="addr:city" v="Зеленоград"/>
    <tag k="addr:country" v="RU"/>
    <tag k="addr:housenumber" v="533"/>
    <tag k="building" v="yes"/>
    <tag k="building:use" v="residential"/>
  </way>
  <way id="39543739" version="12" timestamp="2012-03-27T11:44:52Z" uid="481934" user="iWowik" changeset="11115472">
    <nd ref="473803798"/>
    <nd ref="1123563776"/>
    <nd ref="1123563827"/>
    <nd ref="1123566053"/>
    <nd ref="1123566186"/>
    <nd ref="1123565112"/>
    <nd ref="1123564413"/>
    <nd ref="1123563924"/>
    <nd ref="1123564110"/>
    <nd ref="1123565485"/>
    <nd ref="1123566328"/>
    <nd ref="1123565734"/>
    <nd ref="1123565866"/>
    <nd ref="1123564612"/>
    <nd ref="1123565408"/>
    <nd ref="1123564705"/>
    <nd ref="1123566288"/>
    <nd ref="473803884"/>
    <nd ref="1123563869"/>
    <nd ref="473803863"/>
    <nd ref="1123564198"/>
    <nd ref="1123565547"/>
    <nd ref="473803790"/>
    <nd ref="473803951"/>
    <nd ref="473803939"/>
    <nd ref="473803798"/>
    <tag k="addr:city" v="Зеленоград"/>
    <tag k="addr:country" v="RU"/>
    <tag k="addr:housenumber" v="533"/>
    <tag k="addr:region" v="Москва"/>
    <tag k="building" v="yes"/>
    <tag k="building:use" v="residential"/>
  </way>
  <way id="39543740" version="3" timestamp="2010-01-14T12:50:51Z" uid="115477" user="wowik" changeset="3616661">
    <nd ref="473803808"/>
    <nd ref="473803979"/>
    <nd ref="473803778"/>
    <nd ref="473803766"/>
    <nd ref="473803808"/>
    <tag k="addr:city" v="Зеленоград"/>
    <tag k="addr:housenumber" v="526"/>
    <tag k="addr:street" v="5-й Микрорайон"/>
    <tag k="building" v="yes"/>
    <tag k="is_in" v="Russia"/>
  </way>
  <way id="39543740" version="4" timestamp="2010-11-26T12:14:23Z" uid="115477" user="wowik" changeset="6461548">
    <nd ref="473803808"/>
    <nd ref="473803979"/>
    <nd ref="473803778"/>
    <nd ref="473803766"/>
    <nd ref="473803808"/>
    <tag k="addr:city" v="Зеленоград"/>
    <tag k="addr:housenumber" v="526"/>
    <tag k="addr:street" v="Микрорайон 5а"/>
    <tag k="building" v="yes"/>
    <tag k="is_in" v="Russia"/>
  </way>
  <way id="39543740" version="5" timestamp="2011-01-12T10:25:44Z" uid="115477" user="wowik" changeset="6945653">
    <nd ref="473803808"/>
    <nd ref="473803979"/>
    <nd ref="473803778"/>
    <nd ref="473803766"/>
    <nd ref="473803808"/>
    <tag k="addr:city" v="Зеленоград"/>
    <tag k="addr:housenumber" v="526"/>
    <tag k="addr:street" v="Микрорайон 5а"/>
    <tag k="building" v="yes"/>
    <tag k="building:use" v="residential"/>
    <tag k="is_in" v="Russia"/>
  </way>
  <way id="39543740" version="6" timestamp="2011-01-27T17:04:54Z" uid="115477" user="wowik" changeset="7105390">
    <nd ref="473803808"/>
    <nd ref="1123565266"/>
    <nd ref="1123563918"/>
    <nd ref="473803979"/>
    <nd ref="1123563656"/>
    <nd ref="1123564905"/>
    <nd ref="1123566322"/>
    <nd ref="1123564236"/>
    <nd ref="1123566002"/>
    <nd ref="1123565281"/>
    <nd ref="1123564172"/>
    <nd ref="1123566260"/>
    <nd ref="1123566332"/>
    <nd ref="1123564722"/>
    <nd ref="1123565906"/>
    <nd ref="1123564247"/>
    <nd ref="1123565590"/>
    <nd ref="1123565431"/>
    <nd ref="1123563722"/>
    <nd ref="1123563930"/>
    <nd ref="1123563832"/>
    <nd ref="1123565021"/>
    <nd ref="1123566071"/>
    <nd ref="1123565158"/>
    <nd ref="1123565461"/>
    <nd ref="1123565683"/>
    <nd ref="1123564009"/>
    <nd ref="1123565526"/>
    <nd ref="473803778"/>
    <nd ref="473803766"/>
    <nd ref="1123564366"/>
    <nd ref="1123563800"/>
    <nd ref="1123565503"/>
    <nd ref="1123565134"/>
    <nd ref="1123564135"/>
    <nd ref="1123565782"/>
    <nd ref="1123564054"/>
    <nd ref="1123564562"/>
    <nd ref="1123565837"/>
    <nd ref="1123564467"/>
    <nd ref="1123566231"/>
    <nd ref="1123566132"/>
    <nd ref="1123564080"/>
    <nd ref="1123565350"/>
    <nd ref="1123563985"/>
    <nd ref="1123563756"/>
    <nd ref="1123565067"/>
    <nd ref="1123565654"/>
    <nd ref="1123564319"/>
    <nd ref="1123563680"/>
    <nd ref="1123565361"/>
    <nd ref="1123565379"/>
    <nd ref="1123565900"/>
    <nd ref="1123565521"/>
    <nd ref="1123564157"/>
    <nd ref="1123563821"/>
    <nd ref="1123565823"/>
    <nd ref="1123566247"/>
    <nd ref="1123564547"/>
    <nd ref="1123565150"/>
    <nd ref="473803808"/>
    <tag k="addr:city" v="Зеленоград"/>
    <tag k="addr:housenumber" v="526"/>
    <tag k="addr:street" v="Микрорайон 5а"/>
    <tag k="building" v="yes"/>
    <tag k="building:use" v="residential"/>
    <tag k="is_in" v="Russia"/>
  </way>
  <way id="39543740" version="7" timestamp="2011-06-07T20:48:03Z" uid="133332" user="AMDmi3" changeset="8374030">
    <nd ref="473803808"/>
    <nd ref="1123565266"/>
    <nd ref="1123563918"/>
    <nd ref="473803979"/>
    <nd ref="1123563656"/>
    <nd ref="1123564905"/>
    <nd ref="1123566322"/>
    <nd ref="1123564236"/>
    <nd ref="1123566002"/>
    <nd ref="1123565281"/>
    <nd ref="1123564172"/>
    <nd ref="1123566260"/>
    <nd ref="1123566332"/>
    <nd ref="1123564722"/>
    <nd ref="1123565906"/>
    <nd ref="1123564247"/>
    <nd ref="1123565590"/>
    <nd ref="1123565431"/>
    <nd ref="1123563722"/>
    <nd ref="1123563930"/>
    <nd ref="1123563832"/>
    <nd ref="1123565021"/>
    <nd ref="1123566071"/>
    <nd ref="1123565158"/>
    <nd ref="1123565461"/>
    <nd ref="1123565683"/>
    <nd ref="1123564009"/>
    <nd ref="1123565526"/>
    <nd ref="473803778"/>
    <nd ref="473803766"/>
    <nd ref="1123564366"/>
    <nd ref="1123563800"/>
    <nd ref="1123565503"/>
    <nd ref="1123565134"/>
    <nd ref="1123564135"/>
    <nd ref="1123565782"/>
    <nd ref="1123564054"/>
    <nd ref="1123564562"/>
    <nd ref="1123565837"/>
    <nd ref="1123564467"/>
    <nd ref="1123566231"/>
    <nd ref="1123566132"/>
    <nd ref="1123564080"/>
    <nd ref="1123565350"/>
    <nd ref="1123563985"/>
    <nd ref="1123563756"/>
    <nd ref="1123565067"/>
    <nd ref="1123565654"/>
    <nd ref="1123564319"/>
    <nd ref="1123563680"/>
    <nd ref="1123565361"/>
    <nd ref="1123565379"/>
    <nd ref="1123565900"/>
    <nd ref="1123565521"/>
    <nd ref="1123564157"/>
    <nd ref="1123563821"/>
    <nd ref="1123565823"/>
    <nd ref="1123566247"/>
    <nd ref="1123564547"/>
    <nd ref="1123565150"/>
    <nd ref="473803808"/>
    <tag k="addr:city" v="Зеленоград"/>
    <tag k="addr:housenumber" v="526"/>
    <tag k="addr:street" v="микрорайон 5А"/>
    <tag k="building" v="yes"/>
    <tag k="building:use" v="residential"/>
    <tag k="is_in" v="Russia"/>
  </way>
  <way id="39543740" version="8" timestamp="2011-09-13T10:27:40Z" uid="29320" user="Komяpa" changeset="9288237">
    <nd ref="473803808"/>
    <nd ref="1123565266"/>
    <nd ref="1123563918"/>
    <nd ref="473803979"/>
    <nd ref="1123563656"/>
    <nd ref="1123564905"/>
    <nd ref="1123566322"/>
    <nd ref="1123564236"/>
    <nd ref="1123566002"/>
    <nd ref="1123565281"/>
    <nd ref="1123564172"/>
    <nd ref="1123566260"/>
    <nd ref="1123566332"/>
    <nd ref="1123564722"/>
    <nd ref="1123565906"/>
    <nd ref="1123564247"/>
    <nd ref="1123565590"/>
    <nd ref="1123565431"/>
    <nd ref="1123563722"/>
    <nd ref="1123563930"/>
    <nd ref="1123563832"/>
    <nd ref="1123565021"/>
    <nd ref="1123566071"/>
    <nd ref="1123565158"/>
    <nd ref="1123565461"/>
    <nd ref="1123565683"/>
    <nd ref="1123564009"/>
    <nd ref="1123565526"/>
    <nd ref="473803778"/>
    <nd ref="473803766"/>
    <nd ref="1123564366"/>
    <nd ref="1123563800"/>
    <nd ref="1123565503"/>
    <nd ref="1123565134"/>
    <nd ref="1123564135"/>
    <nd ref="1123565782"/>
    <nd ref="1123564054"/>
    <nd ref="1123564562"/>
    <nd ref="1123565837"/>
    <nd ref="1123564467"/>
    <nd ref="1123566231"/>
    <nd ref="1123566132"/>
    <nd ref="1123564080"/>
    <nd ref="1123565350"/>
    <nd ref="1123563985"/>
    <nd ref="1123563756"/>
    <nd ref="1123565067"/>
    <nd ref="1123565654"/>
    <nd ref="1123564319"/>
    <nd ref="1123563680"/>
    <nd ref="1123565361"/>
    <nd ref="1123565379"/>
    <nd ref="1123565900"/>
    <nd ref="1123565521"/>
    <nd ref="1123564157"/>
    <nd ref="1123563821"/>
    <nd ref="1123565823"/>
    <nd ref="1123566247"/>
    <nd ref="1123564547"/>
    <nd ref="1123565150"/>
    <nd ref="473803808"/>
    <tag k="addr:city" v="Зеленоград"/>
    <tag k="addr:country" v="RU"/>
    <tag k="addr:housenumber" v="526"/>
    <tag k="addr:street" v="микрорайон 5А"/>
    <tag k="building" v="yes"/>
    <tag k="building:use" v="residential"/>
  </way>
  <way id="39543740" version="9" timestamp="2011-10-28T10:14:14Z" uid="481934" user="iWowik" changeset="9675133">
    <nd ref="473803808"/>
    <nd ref="1123565266"/>
    <nd ref="1123563918"/>
    <nd ref="473803979"/>
    <nd ref="1123563656"/>
    <nd ref="1123564905"/>
    <nd ref="1123566322"/>
    <nd ref="1123564236"/>
    <nd ref="1123566002"/>
    <nd ref="1123565281"/>
    <nd ref="1123564172"/>
    <nd ref="1123566260"/>
    <nd ref="1123566332"/>
    <nd ref="1123564722"/>
    <nd ref="1123565906"/>
    <nd ref="1123564247"/>
    <nd ref="1123565590"/>
    <nd ref="1123565431"/>
    <nd ref="1123563722"/>
    <nd ref="1123563930"/>
    <nd ref="1123563832"/>
    <nd ref="1123565021"/>
    <nd ref="1123566071"/>
    <nd ref="1123565158"/>
    <nd ref="1123565461"/>
    <nd ref="1123565683"/>
    <nd ref="1123564009"/>
    <nd ref="1123565526"/>
    <nd ref="473803778"/>
    <nd ref="473803766"/>
    <nd ref="1123564366"/>
    <nd ref="1123563800"/>
    <nd ref="1123565503"/>
    <nd ref="1123565134"/>
    <nd ref="1123564135"/>
    <nd ref="1123565782"/>
    <nd ref="1123564054"/>
    <nd ref="1123564562"/>
    <nd ref="1123565837"/>
    <nd ref="1123564467"/>
    <nd ref="1123566231"/>
    <nd ref="1123566132"/>
    <nd ref="1123564080"/>
    <nd ref="1123565350"/>
    <nd ref="1123563985"/>
    <nd ref="1123563756"/>
    <nd ref="1123565067"/>
    <nd ref="1123565654"/>
    <nd ref="1123564319"/>
    <nd ref="1123563680"/>
    <nd ref="1123565361"/>
    <nd ref="1123565379"/>
    <nd ref="1123565900"/>
    <nd ref="1123565521"/>
    <nd ref="1123564157"/>
    <nd ref="1123563821"/>
    <nd ref="1123565823"/>
    <nd ref="1123566247"/>
    <nd ref="1123564547"/>
    <nd ref="1123565150"/>
    <nd ref="473803808"/>
    <tag k="addr:city" v="Зеленоград"/>
    <tag k="addr:country" v="RU"/>
    <tag k="addr:housenumber" v="526"/>
    <tag k="addr:street" v="Микрорайон 5а"/>
    <tag k="building" v="yes"/>
    <tag k="building:use" v="residential"/>
  </way>
  <way id="39543740" version="10" timestamp="2012-01-10T15:22:23Z" uid="481934" user="iWowik" changeset="10352148">
    <nd ref="473803808"/>
    <nd ref="1123565266"/>
    <nd ref="1123563918"/>
    <nd ref="473803979"/>
    <nd ref="1123563656"/>
    <nd ref="1123564905"/>
    <nd ref="1123566322"/>
    <nd ref="1123564236"/>
    <nd ref="1123566002"/>
    <nd ref="1123565281"/>
    <nd ref="1123564172"/>
    <nd ref="1123566260"/>
    <nd ref="1123566332"/>
    <nd ref="1123564722"/>
    <nd ref="1123565906"/>
    <nd ref="1123564247"/>
    <nd ref="1123565590"/>
    <nd ref="1123565431"/>
    <nd ref="1123563722"/>
    <nd ref="1123563930"/>
    <nd ref="1123563832"/>
    <nd ref="1123565021"/>
    <nd ref="1123566071"/>
    <nd ref="1123565158"/>
    <nd ref="1123565461"/>
    <nd ref="1123565683"/>
    <nd ref="1123564009"/>
    <nd ref="1123565526"/>
    <nd ref="473803778"/>
    <nd ref="473803766"/>
    <nd ref="1123564366"/>
    <nd ref="1123563800"/>
    <nd ref="1123565503"/>
    <nd ref="1123565134"/>
    <nd ref="1123564135"/>
    <nd ref="1123565782"/>
    <nd ref="1123564054"/>
    <nd ref="1123564562"/>
    <nd ref="1123565837"/>
    <nd ref="1123564467"/>
    <nd ref="1123566231"/>
    <nd ref="1123566132"/>
    <nd ref="1123564080"/>
    <nd ref="1123565350"/>
    <nd ref="1123563985"/>
    <nd ref="1123563756"/>
    <nd ref="1123565067"/>
    <nd ref="1123565654"/>
    <nd ref="1123564319"/>
    <nd ref="1123563680"/>
    <nd ref="1123565361"/>
    <nd ref="1123565379"/>
    <nd ref="1123565900"/>
    <nd ref="1123565521"/>
    <nd ref="1123564157"/>
    <nd ref="1123563821"/>
    <nd ref="1123565823"/>
    <nd ref="1123566247"/>
    <nd ref="1123564547"/>
    <nd ref="1123565150"/>
    <nd ref="473803808"/>
    <tag k="addr:city" v="Зеленоград"/>
    <tag k="addr:country" v="RU"/>
    <tag k="addr:housenumber" v="526"/>
    <tag k="building" v="yes"/>
    <tag k="building:use" v="residential"/>
    <tag k="sorting_name" v="микрорайон 5а/526"/>
  </way>
  <way id="39543740" version="11" timestamp="2012-03-27T11:44:47Z" uid="481934" user="iWowik" changeset="11115472">
    <nd ref="473803808"/>
    <nd ref="1123565266"/>
    <nd ref="1123563918"/>
    <nd ref="473803979"/>
    <nd ref="1123563656"/>
    <nd ref="1123564905"/>
    <nd ref="1123566322"/>
    <nd ref="1123564236"/>
    <nd ref="1123566002"/>
    <nd ref="1123565281"/>
    <nd ref="1123564172"/>
    <nd ref="1123566260"/>
    <nd ref="1123566332"/>
    <nd ref="1123564722"/>
    <nd ref="1123565906"/>
    <nd ref="1123564247"/>
    <nd ref="1123565590"/>
    <nd ref="1123565431"/>
    <nd ref="1123563722"/>
    <nd ref="1123563930"/>
    <nd ref="1123563832"/>
    <nd ref="1123565021"/>
    <nd ref="1123566071"/>
    <nd ref="1123565158"/>
    <nd ref="1123565461"/>
    <nd ref="1123565683"/>
    <nd ref="1123564009"/>
    <nd ref="1123565526"/>
    <nd ref="473803778"/>
    <nd ref="473803766"/>
    <nd ref="1123564366"/>
    <nd ref="1123563800"/>
    <nd ref="1123565503"/>
    <nd ref="1123565134"/>
    <nd ref="1123564135"/>
    <nd ref="1123565782"/>
    <nd ref="1123564054"/>
    <nd ref="1123564562"/>
    <nd ref="1123565837"/>
    <nd ref="1123564467"/>
    <nd ref="1123566231"/>
    <nd ref="1123566132"/>
    <nd ref="1123564080"/>
    <nd ref="1123565350"/>
    <nd ref="1123563985"/>
    <nd ref="1123563756"/>
    <nd ref="1123565067"/>
    <nd ref="1123565654"/>
    <nd ref="1123564319"/>
    <nd ref="1123563680"/>
    <nd ref="1123565361"/>
    <nd ref="1123565379"/>
    <nd ref="1123565900"/>
    <nd ref="1123565521"/>
    <nd ref="1123564157"/>
    <nd ref="1123563821"/>
    <nd ref="1123565823"/>
    <nd ref="1123566247"/>
    <nd ref="1123564547"/>
    <nd ref="1123565150"/>
    <nd ref="473803808"/>
    <tag k="addr:city" v="Зеленоград"/>
    <tag k="addr:country" v="RU"/>
    <tag k="addr:housenumber" v="526"/>
    <tag k="addr:region" v="Москва"/>
    <tag k="building" v="yes"/>
    <tag k="building:use" v="residential"/>
    <tag k="sorting_name" v="микрорайон 5а/526"/>
  </way>
  <way id="39543741" version="3" timestamp="2010-01-14T12:50:50Z" uid="115477" user="wowik" changeset="3616661">
    <nd ref="473803906"/>
    <nd ref="473803783"/>
    <nd ref="473803845"/>
    <nd ref="473803935"/>
    <nd ref="473803906"/>
    <tag k="addr:city" v="Зеленоград"/>
    <tag k="addr:housenumber" v="525"/>
    <tag k="addr:street" v="5-й Микрорайон"/>
    <tag k="building" v="yes"/>
    <tag k="is_in" v="Russia"/>
  </way>
  <way id="39543741" version="4" timestamp="2010-11-26T12:14:22Z" uid="115477" user="wowik" changeset="6461548">
    <nd ref="473803906"/>
    <nd ref="473803783"/>
    <nd ref="473803845"/>
    <nd ref="473803935"/>
    <nd ref="473803906"/>
    <tag k="addr:city" v="Зеленоград"/>
    <tag k="addr:housenumber" v="525"/>
    <tag k="addr:street" v="Микрорайон 5а"/>
    <tag k="building" v="yes"/>
    <tag k="is_in" v="Russia"/>
  </way>
  <way id="39543741" version="5" timestamp="2011-01-12T10:25:33Z" uid="115477" user="wowik" changeset="6945653">
    <nd ref="473803906"/>
    <nd ref="473803783"/>
    <nd ref="473803845"/>
    <nd ref="473803935"/>
    <nd ref="473803906"/>
    <tag k="addr:city" v="Зеленоград"/>
    <tag k="addr:housenumber" v="525"/>
    <tag k="addr:street" v="Микрорайон 5а"/>
    <tag k="building" v="yes"/>
    <tag k="building:use" v="residential"/>
    <tag k="is_in" v="Russia"/>
  </way>
  <way id="39543741" version="6" timestamp="2011-01-27T17:04:40Z" uid="115477" user="wowik" changeset="7105390">
    <nd ref="473803906"/>
    <nd ref="1123564062"/>
    <nd ref="473803783"/>
    <nd ref="473803845"/>
    <nd ref="473803935"/>
    <nd ref="1123565802"/>
    <nd ref="473803906"/>
    <tag k="addr:city" v="Зеленоград"/>
    <tag k="addr:housenumber" v="525"/>
    <tag k="addr:street" v="Микрорайон 5а"/>
    <tag k="building" v="yes"/>
    <tag k="building:use" v="residential"/>
    <tag k="is_in" v="Russia"/>
  </way>
  <way id="39543741" version="7" timestamp="2011-06-07T20:48:02Z" uid="133332" user="AMDmi3" changeset="8374030">
    <nd ref="473803906"/>
    <nd ref="1123564062"/>
    <nd ref="473803783"/>
    <nd ref="473803845"/>
    <nd ref="473803935"/>
    <nd ref="1123565802"/>
    <nd ref="473803906"/>
    <tag k="addr:city" v="Зеленоград"/>
    <tag k="addr:housenumber" v="525"/>
    <tag k="addr:street" v="микрорайон 5А"/>
    <tag k="building" v="yes"/>
    <tag k="building:use" v="residential"/>
    <tag k="is_in" v="Russia"/>
  </way>
  <way id="39543741" version="8" timestamp="2011-09-13T10:27:39Z" uid="29320" user="Komяpa" changeset="9288237">
    <nd ref="473803906"/>
    <nd ref="1123564062"/>
    <nd ref="473803783"/>
    <nd ref="473803845"/>
    <nd ref="473803935"/>
    <nd ref="1123565802"/>
    <nd ref="473803906"/>
    <tag k="addr:city" v="Зеленоград"/>
    <tag k="addr:country" v="RU"/>
    <tag k="addr:housenumber" v="525"/>
    <tag k="addr:street" v="микрорайон 5А"/>
    <tag k="building" v="yes"/>
    <tag k="building:use" v="residential"/>
  </way>
  <way id="39543741" version="9" timestamp="2011-10-28T10:14:14Z" uid="481934" user="iWowik" changeset="9675133">
    <nd ref="473803906"/>
    <nd ref="1123564062"/>
    <nd ref="473803783"/>
    <nd ref="473803845"/>
    <nd ref="473803935"/>
    <nd ref="1123565802"/>
    <nd ref="473803906"/>
    <tag k="addr:city" v="Зеленоград"/>
    <tag k="addr:country" v="RU"/>
    <tag k="addr:housenumber" v="525"/>
    <tag k="addr:street" v="Микрорайон 5а"/>
    <tag k="building" v="yes"/>
    <tag k="building:use" v="residential"/>
  </way>
  <way id="39543741" version="10" timestamp="2012-01-10T15:22:22Z" uid="481934" user="iWowik" changeset="10352148">
    <nd ref="473803906"/>
    <nd ref="1123564062"/>
    <nd ref="473803783"/>
    <nd ref="473803845"/>
    <nd ref="473803935"/>
    <nd ref="1123565802"/>
    <nd ref="473803906"/>
    <tag k="addr:city" v="Зеленоград"/>
    <tag k="addr:country" v="RU"/>
    <tag k="addr:housenumber" v="525"/>
    <tag k="building" v="yes"/>
    <tag k="building:use" v="residential"/>
    <tag k="sorting_name" v="микрорайон 5а/525"/>
  </way>
  <way id="39543741" version="11" timestamp="2012-03-27T11:44:46Z" uid="481934" user="iWowik" changeset="11115472">
    <nd ref="473803906"/>
    <nd ref="1123564062"/>
    <nd ref="473803783"/>
    <nd ref="473803845"/>
    <nd ref="473803935"/>
    <nd ref="1123565802"/>
    <nd ref="473803906"/>
    <tag k="addr:city" v="Зеленоград"/>
    <tag k="addr:country" v="RU"/>
    <tag k="addr:housenumber" v="525"/>
    <tag k="addr:region" v="Москва"/>
    <tag k="building" v="yes"/>
    <tag k="building:use" v="residential"/>
    <tag k="sorting_name" v="микрорайон 5а/525"/>
  </way>
  <way id="39543742" version="2" timestamp="2010-01-14T12:50:49Z" uid="115477" user="wowik" changeset="3616661">
    <nd ref="473803803"/>
    <nd ref="473803771"/>
    <nd ref="473803929"/>
    <nd ref="473803842"/>
    <nd ref="473803946"/>
    <nd ref="473803772"/>
    <nd ref="473803942"/>
    <nd ref="473803827"/>
    <nd ref="473803904"/>
    <nd ref="473803867"/>
    <nd ref="473803847"/>
    <nd ref="473803813"/>
    <nd ref="473803803"/>
    <tag k="addr:city" v="Зеленоград"/>
    <tag k="addr:housenumber" v="532"/>
    <tag k="addr:street" v="5-й Микрорайон"/>
    <tag k="amenity" v="parking"/>
    <tag k="comment" v="ГСК, Автомойка"/>
    <tag k="is_in" v="Russia"/>
    <tag k="parking" v="garages"/>
  </way>
  <way id="39543742" version="3" timestamp="2011-01-27T17:04:16Z" uid="115477" user="wowik" changeset="7105390">
    <nd ref="473803803"/>
    <nd ref="1123565331"/>
    <nd ref="1123563974"/>
    <nd ref="473803771"/>
    <nd ref="473803929"/>
    <nd ref="473803842"/>
    <nd ref="473803946"/>
    <nd ref="473803772"/>
    <nd ref="473803942"/>
    <nd ref="1123563707"/>
    <nd ref="1123565002"/>
    <nd ref="473803827"/>
    <nd ref="473803867"/>
    <nd ref="473803847"/>
    <nd ref="473803813"/>
    <nd ref="473803803"/>
    <tag k="addr:city" v="Зеленоград"/>
    <tag k="addr:housenumber" v="532"/>
    <tag k="addr:street" v="5-й Микрорайон"/>
    <tag k="amenity" v="parking"/>
    <tag k="comment" v="ГСК, Автомойка"/>
    <tag k="is_in" v="Russia"/>
    <tag k="parking" v="garages"/>
  </way>
  <way id="39543742" version="4" timestamp="2011-06-07T20:48:04Z" uid="133332" user="AMDmi3" changeset="8374030">
    <nd ref="473803803"/>
    <nd ref="1123565331"/>
    <nd ref="1123563974"/>
    <nd ref="473803771"/>
    <nd ref="473803929"/>
    <nd ref="473803842"/>
    <nd ref="473803946"/>
    <nd ref="473803772"/>
    <nd ref="473803942"/>
    <nd ref="1123563707"/>
    <nd ref="1123565002"/>
    <nd ref="473803827"/>
    <nd ref="473803867"/>
    <nd ref="473803847"/>
    <nd ref="473803813"/>
    <nd ref="473803803"/>
    <tag k="addr:city" v="Зеленоград"/>
    <tag k="addr:housenumber" v="532"/>
    <tag k="addr:street" v="5-й микрорайон"/>
    <tag k="amenity" v="parking"/>
    <tag k="comment" v="ГСК, Автомойка"/>
    <tag k="is_in" v="Russia"/>
    <tag k="parking" v="garages"/>
  </way>
  <way id="39543742" version="5" timestamp="2011-10-28T10:27:07Z" uid="481934" user="iWowik" changeset="9675133">
    <nd ref="473803803"/>
    <nd ref="1123565331"/>
    <nd ref="1123563974"/>
    <nd ref="473803771"/>
    <nd ref="473803929"/>
    <nd ref="473803842"/>
    <nd ref="473803946"/>
    <nd ref="473803772"/>
    <nd ref="473803942"/>
    <nd ref="1123563707"/>
    <nd ref="1123565002"/>
    <nd ref="473803827"/>
    <nd ref="473803867"/>
    <nd ref="473803847"/>
    <nd ref="473803813"/>
    <nd ref="473803803"/>
    <tag k="addr:city" v="Зеленоград"/>
    <tag k="addr:housenumber" v="532"/>
    <tag k="addr:street" v="5-й Микрорайон"/>
    <tag k="amenity" v="parking"/>
    <tag k="comment" v="ГСК, Автомойка"/>
    <tag k="is_in" v="Russia"/>
    <tag k="parking" v="garages"/>
  </way>
  <way id="39543742" version="6" timestamp="2011-11-14T20:33:37Z" uid="133332" user="AMDmi3" changeset="9828527">
    <nd ref="473803803"/>
    <nd ref="1123565331"/>
    <nd ref="1123563974"/>
    <nd ref="473803771"/>
    <nd ref="473803929"/>
    <nd ref="473803842"/>
    <nd ref="473803946"/>
    <nd ref="473803772"/>
    <nd ref="473803942"/>
    <nd ref="1123563707"/>
    <nd ref="1123565002"/>
    <nd ref="473803827"/>
    <nd ref="473803867"/>
    <nd ref="473803847"/>
    <nd ref="473803813"/>
    <nd ref="473803803"/>
    <tag k="addr:city" v="Зеленоград"/>
    <tag k="addr:housenumber" v="532"/>
    <tag k="addr:street" v="5-й микрорайон"/>
    <tag k="amenity" v="parking"/>
    <tag k="comment" v="ГСК, Автомойка"/>
    <tag k="is_in" v="Russia"/>
    <tag k="parking" v="garages"/>
  </way>
  <way id="39543742" version="7" timestamp="2012-01-10T15:22:26Z" uid="481934" user="iWowik" changeset="10352148">
    <nd ref="473803803"/>
    <nd ref="1123565331"/>
    <nd ref="1123563974"/>
    <nd ref="473803771"/>
    <nd ref="473803929"/>
    <nd ref="473803842"/>
    <nd ref="473803946"/>
    <nd ref="473803772"/>
    <nd ref="473803942"/>
    <nd ref="1123563707"/>
    <nd ref="1123565002"/>
    <nd ref="473803827"/>
    <nd ref="473803867"/>
    <nd ref="473803847"/>
    <nd ref="473803813"/>
    <nd ref="473803803"/>
    <tag k="addr:city" v="Зеленоград"/>
    <tag k="addr:housenumber" v="532"/>
    <tag k="amenity" v="parking"/>
    <tag k="comment" v="ГСК, Автомойка"/>
    <tag k="is_in" v="Russia"/>
    <tag k="parking" v="garages"/>
  </way>
  <way id="39543742" version="8" timestamp="2012-03-27T11:44:52Z" uid="481934" user="iWowik" changeset="11115472">
    <nd ref="473803803"/>
    <nd ref="1123565331"/>
    <nd ref="1123563974"/>
    <nd ref="473803771"/>
    <nd ref="473803929"/>
    <nd ref="473803842"/>
    <nd ref="473803946"/>
    <nd ref="473803772"/>
    <nd ref="473803942"/>
    <nd ref="1123563707"/>
    <nd ref="1123565002"/>
    <nd ref="473803827"/>
    <nd ref="473803867"/>
    <nd ref="473803847"/>
    <nd ref="473803813"/>
    <nd ref="473803803"/>
    <tag k="addr:city" v="Зеленоград"/>
    <tag k="addr:country" v="RU"/>
    <tag k="addr:housenumber" v="532"/>
    <tag k="addr:region" v="Москва"/>
    <tag k="amenity" v="parking"/>
    <tag k="comment" v="ГСК, Автомойка"/>
    <tag k="is_in" v="Russia"/>
    <tag k="parking" v="garages"/>
  </way>
  <way id="39543743" version="3" timestamp="2010-01-14T12:50:49Z" uid="115477" user="wowik" changeset="3616661">
    <nd ref="473803969"/>
    <nd ref="473803887"/>
    <nd ref="473803821"/>
    <nd ref="473803955"/>
    <nd ref="473803924"/>
    <nd ref="473803866"/>
    <nd ref="473803922"/>
    <nd ref="473803882"/>
    <nd ref="473803800"/>
    <nd ref="473803777"/>
    <nd ref="473803890"/>
    <nd ref="473803896"/>
    <nd ref="473803870"/>
    <nd ref="473803932"/>
    <nd ref="473803941"/>
    <nd ref="473803916"/>
    <nd ref="473803878"/>
    <nd ref="473803926"/>
    <nd ref="473803769"/>
    <nd ref="473803811"/>
    <nd ref="473803794"/>
    <nd ref="473803854"/>
    <nd ref="473803969"/>
    <tag k="addr:city" v="Зеленоград"/>
    <tag k="addr:housenumber" v="529"/>
    <tag k="addr:street" v="5-й Микрорайон"/>
    <tag k="amenity" v="school"/>
    <tag k="building" v="yes"/>
    <tag k="is_in" v="Russia"/>
    <tag k="name" v="Школа №1923"/>
  </way>
  <way id="39543743" version="4" timestamp="2010-11-26T12:14:24Z" uid="115477" user="wowik" changeset="6461548">
    <nd ref="473803969"/>
    <nd ref="473803887"/>
    <nd ref="473803821"/>
    <nd ref="473803955"/>
    <nd ref="473803924"/>
    <nd ref="473803866"/>
    <nd ref="473803922"/>
    <nd ref="473803882"/>
    <nd ref="473803800"/>
    <nd ref="473803777"/>
    <nd ref="473803890"/>
    <nd ref="473803896"/>
    <nd ref="473803870"/>
    <nd ref="473803932"/>
    <nd ref="473803941"/>
    <nd ref="473803916"/>
    <nd ref="473803878"/>
    <nd ref="473803926"/>
    <nd ref="473803769"/>
    <nd ref="473803811"/>
    <nd ref="473803794"/>
    <nd ref="473803854"/>
    <nd ref="473803969"/>
    <tag k="addr:city" v="Зеленоград"/>
    <tag k="addr:housenumber" v="529"/>
    <tag k="addr:street" v="Микрорайон 5а"/>
    <tag k="amenity" v="school"/>
    <tag k="building" v="yes"/>
    <tag k="is_in" v="Russia"/>
    <tag k="name" v="Школа №1923"/>
  </way>
  <way id="39543743" version="5" timestamp="2011-01-27T17:05:10Z" uid="115477" user="wowik" changeset="7105390">
    <nd ref="473803969"/>
    <nd ref="473803887"/>
    <nd ref="473803821"/>
    <nd ref="473803955"/>
    <nd ref="473803924"/>
    <nd ref="473803866"/>
    <nd ref="1123563604"/>
    <nd ref="1123566270"/>
    <nd ref="1123565646"/>
    <nd ref="1123564749"/>
    <nd ref="473803922"/>
    <nd ref="473803882"/>
    <nd ref="473803800"/>
    <nd ref="1123564181"/>
    <nd ref="473803777"/>
    <nd ref="473803890"/>
    <nd ref="473803896"/>
    <nd ref="473803870"/>
    <nd ref="473803932"/>
    <nd ref="473803941"/>
    <nd ref="473803916"/>
    <nd ref="473803878"/>
    <nd ref="473803926"/>
    <nd ref="473803769"/>
    <nd ref="473803811"/>
    <nd ref="473803794"/>
    <nd ref="473803854"/>
    <nd ref="473803969"/>
    <tag k="addr:city" v="Зеленоград"/>
    <tag k="addr:housenumber" v="529"/>
    <tag k="addr:street" v="Микрорайон 5а"/>
    <tag k="amenity" v="school"/>
    <tag k="building" v="yes"/>
    <tag k="is_in" v="Russia"/>
    <tag k="name" v="Школа №1923"/>
  </way>
  <way id="39543743" version="6" timestamp="2011-06-07T20:48:04Z" uid="133332" user="AMDmi3" changeset="8374030">
    <nd ref="473803969"/>
    <nd ref="473803887"/>
    <nd ref="473803821"/>
    <nd ref="473803955"/>
    <nd ref="473803924"/>
    <nd ref="473803866"/>
    <nd ref="1123563604"/>
    <nd ref="1123566270"/>
    <nd ref="1123565646"/>
    <nd ref="1123564749"/>
    <nd ref="473803922"/>
    <nd ref="473803882"/>
    <nd ref="473803800"/>
    <nd ref="1123564181"/>
    <nd ref="473803777"/>
    <nd ref="473803890"/>
    <nd ref="473803896"/>
    <nd ref="473803870"/>
    <nd ref="473803932"/>
    <nd ref="473803941"/>
    <nd ref="473803916"/>
    <nd ref="473803878"/>
    <nd ref="473803926"/>
    <nd ref="473803769"/>
    <nd ref="473803811"/>
    <nd ref="473803794"/>
    <nd ref="473803854"/>
    <nd ref="473803969"/>
    <tag k="addr:city" v="Зеленоград"/>
    <tag k="addr:housenumber" v="529"/>
    <tag k="addr:street" v="микрорайон 5А"/>
    <tag k="amenity" v="school"/>
    <tag k="building" v="yes"/>
    <tag k="is_in" v="Russia"/>
    <tag k="name" v="Школа №1923"/>
  </way>
  <way id="39543743" version="7" timestamp="2011-09-13T10:31:49Z" uid="29320" user="Komяpa" changeset="9288237">
    <nd ref="473803969"/>
    <nd ref="473803887"/>
    <nd ref="473803821"/>
    <nd ref="473803955"/>
    <nd ref="473803924"/>
    <nd ref="473803866"/>
    <nd ref="1123563604"/>
    <nd ref="1123566270"/>
    <nd ref="1123565646"/>
    <nd ref="1123564749"/>
    <nd ref="473803922"/>
    <nd ref="473803882"/>
    <nd ref="473803800"/>
    <nd ref="1123564181"/>
    <nd ref="473803777"/>
    <nd ref="473803890"/>
    <nd ref="473803896"/>
    <nd ref="473803870"/>
    <nd ref="473803932"/>
    <nd ref="473803941"/>
    <nd ref="473803916"/>
    <nd ref="473803878"/>
    <nd ref="473803926"/>
    <nd ref="473803769"/>
    <nd ref="473803811"/>
    <nd ref="473803794"/>
    <nd ref="473803854"/>
    <nd ref="473803969"/>
    <tag k="addr:city" v="Зеленоград"/>
    <tag k="addr:country" v="RU"/>
    <tag k="addr:housenumber" v="529"/>
    <tag k="addr:street" v="микрорайон 5А"/>
    <tag k="amenity" v="school"/>
    <tag k="building" v="yes"/>
    <tag k="name" v="Школа №1923"/>
  </way>
  <way id="39543743" version="8" timestamp="2011-10-28T10:14:19Z" uid="481934" user="iWowik" changeset="9675133">
    <nd ref="473803969"/>
    <nd ref="473803887"/>
    <nd ref="473803821"/>
    <nd ref="473803955"/>
    <nd ref="473803924"/>
    <nd ref="473803866"/>
    <nd ref="1123563604"/>
    <nd ref="1123566270"/>
    <nd ref="1123565646"/>
    <nd ref="1123564749"/>
    <nd ref="473803922"/>
    <nd ref="473803882"/>
    <nd ref="473803800"/>
    <nd ref="1123564181"/>
    <nd ref="473803777"/>
    <nd ref="473803890"/>
    <nd ref="473803896"/>
    <nd ref="473803870"/>
    <nd ref="473803932"/>
    <nd ref="473803941"/>
    <nd ref="473803916"/>
    <nd ref="473803878"/>
    <nd ref="473803926"/>
    <nd ref="473803769"/>
    <nd ref="473803811"/>
    <nd ref="473803794"/>
    <nd ref="473803854"/>
    <nd ref="473803969"/>
    <tag k="addr:city" v="Зеленоград"/>
    <tag k="addr:country" v="RU"/>
    <tag k="addr:housenumber" v="529"/>
    <tag k="addr:street" v="Микрорайон 5а"/>
    <tag k="amenity" v="school"/>
    <tag k="building" v="yes"/>
    <tag k="name" v="Школа №1923"/>
  </way>
  <way id="39543743" version="9" timestamp="2012-01-10T15:22:30Z" uid="481934" user="iWowik" changeset="10352148">
    <nd ref="473803969"/>
    <nd ref="473803887"/>
    <nd ref="473803821"/>
    <nd ref="473803955"/>
    <nd ref="473803924"/>
    <nd ref="473803866"/>
    <nd ref="1123563604"/>
    <nd ref="1123566270"/>
    <nd ref="1123565646"/>
    <nd ref="1123564749"/>
    <nd ref="473803922"/>
    <nd ref="473803882"/>
    <nd ref="473803800"/>
    <nd ref="1123564181"/>
    <nd ref="473803777"/>
    <nd ref="473803890"/>
    <nd ref="473803896"/>
    <nd ref="473803870"/>
    <nd ref="473803932"/>
    <nd ref="473803941"/>
    <nd ref="473803916"/>
    <nd ref="473803878"/>
    <nd ref="473803926"/>
    <nd ref="473803769"/>
    <nd ref="473803811"/>
    <nd ref="473803794"/>
    <nd ref="473803854"/>
    <nd ref="473803969"/>
    <tag k="addr:city" v="Зеленоград"/>
    <tag k="addr:country" v="RU"/>
    <tag k="addr:housenumber" v="529"/>
    <tag k="amenity" v="school"/>
    <tag k="building" v="yes"/>
    <tag k="name" v="Школа №1923"/>
  </way>
  <way id="39543743" version="10" timestamp="2012-03-27T11:48:22Z" uid="481934" user="iWowik" changeset="11115472">
    <nd ref="473803969"/>
    <nd ref="473803887"/>
    <nd ref="473803821"/>
    <nd ref="473803955"/>
    <nd ref="473803924"/>
    <nd ref="473803866"/>
    <nd ref="1123563604"/>
    <nd ref="1123566270"/>
    <nd ref="1123565646"/>
    <nd ref="1123564749"/>
    <nd ref="473803922"/>
    <nd ref="473803882"/>
    <nd ref="473803800"/>
    <nd ref="1123564181"/>
    <nd ref="473803777"/>
    <nd ref="473803890"/>
    <nd ref="473803896"/>
    <nd ref="473803870"/>
    <nd ref="473803932"/>
    <nd ref="473803941"/>
    <nd ref="473803916"/>
    <nd ref="473803878"/>
    <nd ref="473803926"/>
    <nd ref="473803769"/>
    <nd ref="473803811"/>
    <nd ref="473803794"/>
    <nd ref="473803854"/>
    <nd ref="473803969"/>
    <tag k="addr:city" v="Зеленоград"/>
    <tag k="addr:country" v="RU"/>
    <tag k="addr:housenumber" v="529"/>
    <tag k="addr:region" v="Москва"/>
    <tag k="amenity" v="school"/>
    <tag k="building" v="yes"/>
    <tag k="name" v="Школа №1923"/>
  </way>
  <way id="39543744" version="2" timestamp="2011-01-27T17:05:24Z" uid="115477" user="wowik" changeset="7105390"/>
  <way id="39543745" version="3" timestamp="2011-01-27T17:05:19Z" uid="115477" user="wowik" changeset="7105390">
    <nd ref="473803791"/>
    <nd ref="473803824"/>
    <nd ref="473803980"/>
    <nd ref="473803974"/>
    <nd ref="473803851"/>
    <nd ref="1123565561"/>
    <nd ref="1123565632"/>
    <nd ref="473803855"/>
    <nd ref="473803791"/>
    <tag k="addr:city" v="Зеленоград"/>
    <tag k="building" v="yes"/>
  </way>
  <way id="39543745" version="4" timestamp="2012-03-27T11:55:55Z" uid="481934" user="iWowik" changeset="11115472">
    <nd ref="473803791"/>
    <nd ref="473803824"/>
    <nd ref="473803980"/>
    <nd ref="473803974"/>
    <nd ref="473803851"/>
    <nd ref="1123565561"/>
    <nd ref="1123565632"/>
    <nd ref="473803855"/>
    <nd ref="473803791"/>
    <tag k="addr:city" v="Зеленоград"/>
    <tag k="addr:country" v="RU"/>
    <tag k="addr:region" v="Москва"/>
    <tag k="building" v="yes"/>
  </way>
  <way id="39543746" version="2" timestamp="2010-11-16T09:12:41Z" uid="115477" user="wowik" changeset="6383413">
    <nd ref="473803881"/>
    <nd ref="473803985"/>
    <nd ref="473803816"/>
    <nd ref="473803787"/>
    <nd ref="473803982"/>
    <nd ref="473803933"/>
    <nd ref="473803949"/>
    <nd ref="473803977"/>
    <nd ref="473803874"/>
    <nd ref="473803815"/>
    <nd ref="473803877"/>
    <nd ref="473803853"/>
    <nd ref="473803970"/>
    <nd ref="473803809"/>
    <nd ref="473803952"/>
    <nd ref="473803930"/>
    <nd ref="473803948"/>
    <nd ref="473803860"/>
    <nd ref="473803886"/>
    <nd ref="473803856"/>
    <nd ref="473803967"/>
    <nd ref="473803784"/>
    <nd ref="473803953"/>
    <nd ref="473803879"/>
    <nd ref="473803893"/>
    <nd ref="473803885"/>
    <nd ref="473803944"/>
    <nd ref="473803880"/>
    <nd ref="473803945"/>
    <nd ref="473803888"/>
    <nd ref="473803849"/>
    <nd ref="473803889"/>
    <nd ref="473803915"/>
    <nd ref="473803861"/>
    <nd ref="473803957"/>
    <nd ref="473803779"/>
    <nd ref="473803871"/>
    <nd ref="473803825"/>
    <nd ref="473803797"/>
    <nd ref="473803899"/>
    <nd ref="473803903"/>
    <nd ref="473803891"/>
    <nd ref="473803862"/>
    <nd ref="473803819"/>
    <nd ref="473803881"/>
    <tag k="addr:city" v="Зеленоград"/>
    <tag k="addr:housenumber" v="3"/>
    <tag k="addr:street" v="Никольский проезд"/>
    <tag k="amenity" v="school"/>
    <tag k="building" v="yes"/>
    <tag k="is_in" v="Russia"/>
    <tag k="name" v="Психоневрологический диспансер № 22 (Детский дневной стационар) Школа-интернат №7"/>
  </way>
  <way id="39543746" version="3" timestamp="2010-11-16T09:14:42Z" uid="115477" user="wowik" changeset="6383413">
    <nd ref="473803881"/>
    <nd ref="473803985"/>
    <nd ref="473803816"/>
    <nd ref="473803787"/>
    <nd ref="473803982"/>
    <nd ref="473803933"/>
    <nd ref="473803949"/>
    <nd ref="473803977"/>
    <nd ref="473803874"/>
    <nd ref="473803815"/>
    <nd ref="473803877"/>
    <nd ref="473803853"/>
    <nd ref="473803970"/>
    <nd ref="473803809"/>
    <nd ref="473803952"/>
    <nd ref="473803930"/>
    <nd ref="473803948"/>
    <nd ref="473803860"/>
    <nd ref="473803886"/>
    <nd ref="473803856"/>
    <nd ref="473803967"/>
    <nd ref="473803784"/>
    <nd ref="473803953"/>
    <nd ref="473803879"/>
    <nd ref="473803893"/>
    <nd ref="473803885"/>
    <nd ref="473803944"/>
    <nd ref="473803880"/>
    <nd ref="473803945"/>
    <nd ref="473803888"/>
    <nd ref="473803849"/>
    <nd ref="473803889"/>
    <nd ref="473803915"/>
    <nd ref="473803861"/>
    <nd ref="473803957"/>
    <nd ref="473803779"/>
    <nd ref="473803871"/>
    <nd ref="473803825"/>
    <nd ref="473803797"/>
    <nd ref="473803899"/>
    <nd ref="473803903"/>
    <nd ref="473803891"/>
    <nd ref="473803862"/>
    <nd ref="473803819"/>
    <nd ref="473803881"/>
    <tag k="addr:city" v="Зеленоград"/>
    <tag k="addr:housenumber" v="3"/>
    <tag k="addr:street" v="Никольский проезд"/>
    <tag k="amenity" v="school"/>
    <tag k="building" v="yes"/>
    <tag k="is_in" v="Russia"/>
    <tag k="name" v="Школа-интернат №7"/>
  </way>
  <way id="39543746" version="4" timestamp="2011-01-27T17:31:22Z" uid="115477" user="wowik" changeset="7105638">
    <nd ref="473803881"/>
    <nd ref="473803985"/>
    <nd ref="473803816"/>
    <nd ref="473803787"/>
    <nd ref="473803982"/>
    <nd ref="473803933"/>
    <nd ref="473803949"/>
    <nd ref="473803977"/>
    <nd ref="473803874"/>
    <nd ref="473803815"/>
    <nd ref="1123585784"/>
    <nd ref="1123585677"/>
    <nd ref="473803877"/>
    <nd ref="473803853"/>
    <nd ref="473803970"/>
    <nd ref="473803809"/>
    <nd ref="473803952"/>
    <nd ref="473803930"/>
    <nd ref="473803948"/>
    <nd ref="473803860"/>
    <nd ref="473803886"/>
    <nd ref="473803856"/>
    <nd ref="473803967"/>
    <nd ref="473803784"/>
    <nd ref="473803953"/>
    <nd ref="473803879"/>
    <nd ref="473803893"/>
    <nd ref="473803885"/>
    <nd ref="473803944"/>
    <nd ref="473803880"/>
    <nd ref="1123585736"/>
    <nd ref="1123585876"/>
    <nd ref="1123585626"/>
    <nd ref="1123585771"/>
    <nd ref="473803945"/>
    <nd ref="473803888"/>
    <nd ref="473803849"/>
    <nd ref="473803889"/>
    <nd ref="473803915"/>
    <nd ref="473803861"/>
    <nd ref="473803957"/>
    <nd ref="473803779"/>
    <nd ref="473803871"/>
    <nd ref="473803825"/>
    <nd ref="473803797"/>
    <nd ref="473803899"/>
    <nd ref="473803903"/>
    <nd ref="473803891"/>
    <nd ref="473803862"/>
    <nd ref="473803819"/>
    <nd ref="1123585832"/>
    <nd ref="1123585663"/>
    <nd ref="1123585703"/>
    <nd ref="1123585595"/>
    <nd ref="473803881"/>
    <tag k="addr:city" v="Зеленоград"/>
    <tag k="addr:housenumber" v="3"/>
    <tag k="addr:street" v="Никольский проезд"/>
    <tag k="amenity" v="school"/>
    <tag k="building" v="yes"/>
    <tag k="is_in" v="Russia"/>
    <tag k="name" v="Школа-интернат №7"/>
  </way>
  <way id="39543746" version="5" timestamp="2011-09-13T10:31:59Z" uid="29320" user="Komяpa" changeset="9288237">
    <nd ref="473803881"/>
    <nd ref="473803985"/>
    <nd ref="473803816"/>
    <nd ref="473803787"/>
    <nd ref="473803982"/>
    <nd ref="473803933"/>
    <nd ref="473803949"/>
    <nd ref="473803977"/>
    <nd ref="473803874"/>
    <nd ref="473803815"/>
    <nd ref="1123585784"/>
    <nd ref="1123585677"/>
    <nd ref="473803877"/>
    <nd ref="473803853"/>
    <nd ref="473803970"/>
    <nd ref="473803809"/>
    <nd ref="473803952"/>
    <nd ref="473803930"/>
    <nd ref="473803948"/>
    <nd ref="473803860"/>
    <nd ref="473803886"/>
    <nd ref="473803856"/>
    <nd ref="473803967"/>
    <nd ref="473803784"/>
    <nd ref="473803953"/>
    <nd ref="473803879"/>
    <nd ref="473803893"/>
    <nd ref="473803885"/>
    <nd ref="473803944"/>
    <nd ref="473803880"/>
    <nd ref="1123585736"/>
    <nd ref="1123585876"/>
    <nd ref="1123585626"/>
    <nd ref="1123585771"/>
    <nd ref="473803945"/>
    <nd ref="473803888"/>
    <nd ref="473803849"/>
    <nd ref="473803889"/>
    <nd ref="473803915"/>
    <nd ref="473803861"/>
    <nd ref="473803957"/>
    <nd ref="473803779"/>
    <nd ref="473803871"/>
    <nd ref="473803825"/>
    <nd ref="473803797"/>
    <nd ref="473803899"/>
    <nd ref="473803903"/>
    <nd ref="473803891"/>
    <nd ref="473803862"/>
    <nd ref="473803819"/>
    <nd ref="1123585832"/>
    <nd ref="1123585663"/>
    <nd ref="1123585703"/>
    <nd ref="1123585595"/>
    <nd ref="473803881"/>
    <tag k="addr:city" v="Зеленоград"/>
    <tag k="addr:country" v="RU"/>
    <tag k="addr:housenumber" v="3"/>
    <tag k="addr:street" v="Никольский проезд"/>
    <tag k="amenity" v="school"/>
    <tag k="building" v="yes"/>
    <tag k="name" v="Школа-интернат №7"/>
  </way>
  <way id="39543746" version="6" timestamp="2012-03-27T11:48:35Z" uid="481934" user="iWowik" changeset="11115472">
    <nd ref="473803881"/>
    <nd ref="473803985"/>
    <nd ref="473803816"/>
    <nd ref="473803787"/>
    <nd ref="473803982"/>
    <nd ref="473803933"/>
    <nd ref="473803949"/>
    <nd ref="473803977"/>
    <nd ref="473803874"/>
    <nd ref="473803815"/>
    <nd ref="1123585784"/>
    <nd ref="1123585677"/>
    <nd ref="473803877"/>
    <nd ref="473803853"/>
    <nd ref="473803970"/>
    <nd ref="473803809"/>
    <nd ref="473803952"/>
    <nd ref="473803930"/>
    <nd ref="473803948"/>
    <nd ref="473803860"/>
    <nd ref="473803886"/>
    <nd ref="473803856"/>
    <nd ref="473803967"/>
    <nd ref="473803784"/>
    <nd ref="473803953"/>
    <nd ref="473803879"/>
    <nd ref="473803893"/>
    <nd ref="473803885"/>
    <nd ref="473803944"/>
    <nd ref="473803880"/>
    <nd ref="1123585736"/>
    <nd ref="1123585876"/>
    <nd ref="1123585626"/>
    <nd ref="1123585771"/>
    <nd ref="473803945"/>
    <nd ref="473803888"/>
    <nd ref="473803849"/>
    <nd ref="473803889"/>
    <nd ref="473803915"/>
    <nd ref="473803861"/>
    <nd ref="473803957"/>
    <nd ref="473803779"/>
    <nd ref="473803871"/>
    <nd ref="473803825"/>
    <nd ref="473803797"/>
    <nd ref="473803899"/>
    <nd ref="473803903"/>
    <nd ref="473803891"/>
    <nd ref="473803862"/>
    <nd ref="473803819"/>
    <nd ref="1123585832"/>
    <nd ref="1123585663"/>
    <nd ref="1123585703"/>
    <nd ref="1123585595"/>
    <nd ref="473803881"/>
    <tag k="addr:city" v="Зеленоград"/>
    <tag k="addr:country" v="RU"/>
    <tag k="addr:housenumber" v="3"/>
    <tag k="addr:region" v="Москва"/>
    <tag k="addr:street" v="Никольский проезд"/>
    <tag k="amenity" v="school"/>
    <tag k="building" v="yes"/>
    <tag k="name" v="Школа-интернат №7"/>
  </way>
  <way id="39543747" version="3" timestamp="2010-01-14T12:50:52Z" uid="115477" user="wowik" changeset="3616661">
    <nd ref="473803976"/>
    <nd ref="473803868"/>
    <nd ref="473803804"/>
    <nd ref="473803775"/>
    <nd ref="473803976"/>
    <tag k="addr:city" v="Зеленоград"/>
    <tag k="addr:housenumber" v="523"/>
    <tag k="addr:street" v="5-й Микрорайон"/>
    <tag k="building" v="yes"/>
    <tag k="is_in" v="Russia"/>
  </way>
  <way id="39543747" version="4" timestamp="2010-11-26T12:14:24Z" uid="115477" user="wowik" changeset="6461548">
    <nd ref="473803976"/>
    <nd ref="473803868"/>
    <nd ref="473803804"/>
    <nd ref="473803775"/>
    <nd ref="473803976"/>
    <tag k="addr:city" v="Зеленоград"/>
    <tag k="addr:housenumber" v="523"/>
    <tag k="addr:street" v="Микрорайон 5а"/>
    <tag k="building" v="yes"/>
    <tag k="is_in" v="Russia"/>
  </way>
  <way id="39543747" version="5" timestamp="2011-01-12T10:25:04Z" uid="115477" user="wowik" changeset="6945653">
    <nd ref="473803976"/>
    <nd ref="473803868"/>
    <nd ref="473803804"/>
    <nd ref="473803775"/>
    <nd ref="473803976"/>
    <tag k="addr:city" v="Зеленоград"/>
    <tag k="addr:housenumber" v="523"/>
    <tag k="addr:street" v="Микрорайон 5а"/>
    <tag k="building" v="yes"/>
    <tag k="building:use" v="residential"/>
    <tag k="is_in" v="Russia"/>
  </way>
  <way id="39543747" version="6" timestamp="2011-01-27T17:04:35Z" uid="115477" user="wowik" changeset="7105390">
    <nd ref="473803976"/>
    <nd ref="1123565290"/>
    <nd ref="1123565371"/>
    <nd ref="473803868"/>
    <nd ref="473803804"/>
    <nd ref="473803775"/>
    <nd ref="473803976"/>
    <tag k="addr:city" v="Зеленоград"/>
    <tag k="addr:housenumber" v="523"/>
    <tag k="addr:street" v="Микрорайон 5а"/>
    <tag k="building" v="yes"/>
    <tag k="building:use" v="residential"/>
    <tag k="is_in" v="Russia"/>
  </way>
  <way id="39543747" version="7" timestamp="2011-06-07T20:48:00Z" uid="133332" user="AMDmi3" changeset="8374030">
    <nd ref="473803976"/>
    <nd ref="1123565290"/>
    <nd ref="1123565371"/>
    <nd ref="473803868"/>
    <nd ref="473803804"/>
    <nd ref="473803775"/>
    <nd ref="473803976"/>
    <tag k="addr:city" v="Зеленоград"/>
    <tag k="addr:housenumber" v="523"/>
    <tag k="addr:street" v="микрорайон 5А"/>
    <tag k="building" v="yes"/>
    <tag k="building:use" v="residential"/>
    <tag k="is_in" v="Russia"/>
  </way>
  <way id="39543747" version="8" timestamp="2011-09-13T10:27:38Z" uid="29320" user="Komяpa" changeset="9288237">
    <nd ref="473803976"/>
    <nd ref="1123565290"/>
    <nd ref="1123565371"/>
    <nd ref="473803868"/>
    <nd ref="473803804"/>
    <nd ref="473803775"/>
    <nd ref="473803976"/>
    <tag k="addr:city" v="Зеленоград"/>
    <tag k="addr:country" v="RU"/>
    <tag k="addr:housenumber" v="523"/>
    <tag k="addr:street" v="микрорайон 5А"/>
    <tag k="building" v="yes"/>
    <tag k="building:use" v="residential"/>
  </way>
  <way id="39543747" version="9" timestamp="2011-10-28T10:14:13Z" uid="481934" user="iWowik" changeset="9675133">
    <nd ref="473803976"/>
    <nd ref="1123565290"/>
    <nd ref="1123565371"/>
    <nd ref="473803868"/>
    <nd ref="473803804"/>
    <nd ref="473803775"/>
    <nd ref="473803976"/>
    <tag k="addr:city" v="Зеленоград"/>
    <tag k="addr:country" v="RU"/>
    <tag k="addr:housenumber" v="523"/>
    <tag k="addr:street" v="Микрорайон 5а"/>
    <tag k="building" v="yes"/>
    <tag k="building:use" v="residential"/>
  </way>
  <way id="39543747" version="10" timestamp="2012-01-10T15:22:20Z" uid="481934" user="iWowik" changeset="10352148">
    <nd ref="473803976"/>
    <nd ref="1123565290"/>
    <nd ref="1123565371"/>
    <nd ref="473803868"/>
    <nd ref="473803804"/>
    <nd ref="473803775"/>
    <nd ref="473803976"/>
    <tag k="addr:city" v="Зеленоград"/>
    <tag k="addr:country" v="RU"/>
    <tag k="addr:housenumber" v="523"/>
    <tag k="building" v="yes"/>
    <tag k="building:use" v="residential"/>
    <tag k="sorting_name" v="микрорайон 5а/523"/>
  </way>
  <way id="39543747" version="11" timestamp="2012-03-27T11:44:45Z" uid="481934" user="iWowik" changeset="11115472">
    <nd ref="473803976"/>
    <nd ref="1123565290"/>
    <nd ref="1123565371"/>
    <nd ref="473803868"/>
    <nd ref="473803804"/>
    <nd ref="473803775"/>
    <nd ref="473803976"/>
    <tag k="addr:city" v="Зеленоград"/>
    <tag k="addr:country" v="RU"/>
    <tag k="addr:housenumber" v="523"/>
    <tag k="addr:region" v="Москва"/>
    <tag k="building" v="yes"/>
    <tag k="building:use" v="residential"/>
    <tag k="sorting_name" v="микрорайон 5а/523"/>
  </way>
  <way id="39543748" version="3" timestamp="2010-01-14T12:50:48Z" uid="115477" user="wowik" changeset="3616661">
    <nd ref="473803892"/>
    <nd ref="473803920"/>
    <nd ref="473803972"/>
    <nd ref="473803958"/>
    <nd ref="473803892"/>
    <tag k="addr:city" v="Зеленоград"/>
    <tag k="addr:housenumber" v="522"/>
    <tag k="addr:street" v="5-й Микрорайон"/>
    <tag k="building" v="yes"/>
    <tag k="is_in" v="Russia"/>
  </way>
  <way id="39543748" version="4" timestamp="2010-11-26T12:14:23Z" uid="115477" user="wowik" changeset="6461548">
    <nd ref="473803892"/>
    <nd ref="473803920"/>
    <nd ref="473803972"/>
    <nd ref="473803958"/>
    <nd ref="473803892"/>
    <tag k="addr:city" v="Зеленоград"/>
    <tag k="addr:housenumber" v="522"/>
    <tag k="addr:street" v="Микрорайон 5а"/>
    <tag k="building" v="yes"/>
    <tag k="is_in" v="Russia"/>
  </way>
  <way id="39543748" version="5" timestamp="2011-01-12T10:24:58Z" uid="115477" user="wowik" changeset="6945653">
    <nd ref="473803892"/>
    <nd ref="473803920"/>
    <nd ref="473803972"/>
    <nd ref="473803958"/>
    <nd ref="473803892"/>
    <tag k="addr:city" v="Зеленоград"/>
    <tag k="addr:housenumber" v="522"/>
    <tag k="addr:street" v="Микрорайон 5а"/>
    <tag k="building" v="yes"/>
    <tag k="building:use" v="residential"/>
    <tag k="is_in" v="Russia"/>
  </way>
  <way id="39543748" version="6" timestamp="2011-01-27T17:05:23Z" uid="115477" user="wowik" changeset="7105390">
    <nd ref="473803892"/>
    <nd ref="1123564959"/>
    <nd ref="1123565559"/>
    <nd ref="473803920"/>
    <nd ref="473803972"/>
    <nd ref="473803958"/>
    <nd ref="473803892"/>
    <tag k="addr:city" v="Зеленоград"/>
    <tag k="addr:housenumber" v="522"/>
    <tag k="addr:street" v="Микрорайон 5а"/>
    <tag k="building" v="yes"/>
    <tag k="building:use" v="residential"/>
    <tag k="is_in" v="Russia"/>
  </way>
  <way id="39543748" version="7" timestamp="2011-06-07T20:48:01Z" uid="133332" user="AMDmi3" changeset="8374030">
    <nd ref="473803892"/>
    <nd ref="1123564959"/>
    <nd ref="1123565559"/>
    <nd ref="473803920"/>
    <nd ref="473803972"/>
    <nd ref="473803958"/>
    <nd ref="473803892"/>
    <tag k="addr:city" v="Зеленоград"/>
    <tag k="addr:housenumber" v="522"/>
    <tag k="addr:street" v="микрорайон 5А"/>
    <tag k="building" v="yes"/>
    <tag k="building:use" v="residential"/>
    <tag k="is_in" v="Russia"/>
  </way>
  <way id="39543748" version="8" timestamp="2011-09-13T10:27:38Z" uid="29320" user="Komяpa" changeset="9288237">
    <nd ref="473803892"/>
    <nd ref="1123564959"/>
    <nd ref="1123565559"/>
    <nd ref="473803920"/>
    <nd ref="473803972"/>
    <nd ref="473803958"/>
    <nd ref="473803892"/>
    <tag k="addr:city" v="Зеленоград"/>
    <tag k="addr:country" v="RU"/>
    <tag k="addr:housenumber" v="522"/>
    <tag k="addr:street" v="микрорайон 5А"/>
    <tag k="building" v="yes"/>
    <tag k="building:use" v="residential"/>
  </way>
  <way id="39543748" version="9" timestamp="2011-10-28T10:14:12Z" uid="481934" user="iWowik" changeset="9675133">
    <nd ref="473803892"/>
    <nd ref="1123564959"/>
    <nd ref="1123565559"/>
    <nd ref="473803920"/>
    <nd ref="473803972"/>
    <nd ref="473803958"/>
    <nd ref="473803892"/>
    <tag k="addr:city" v="Зеленоград"/>
    <tag k="addr:country" v="RU"/>
    <tag k="addr:housenumber" v="522"/>
    <tag k="addr:street" v="Микрорайон 5а"/>
    <tag k="building" v="yes"/>
    <tag k="building:use" v="residential"/>
  </way>
  <way id="39543748" version="10" timestamp="2012-01-10T15:22:20Z" uid="481934" user="iWowik" changeset="10352148">
    <nd ref="473803892"/>
    <nd ref="1123564959"/>
    <nd ref="1123565559"/>
    <nd ref="473803920"/>
    <nd ref="473803972"/>
    <nd ref="473803958"/>
    <nd ref="473803892"/>
    <tag k="addr:city" v="Зеленоград"/>
    <tag k="addr:country" v="RU"/>
    <tag k="addr:housenumber" v="522"/>
    <tag k="building" v="yes"/>
    <tag k="building:use" v="residential"/>
    <tag k="sorting_name" v="микрорайон 5а/522"/>
  </way>
  <way id="39543748" version="11" timestamp="2012-03-27T11:44:44Z" uid="481934" user="iWowik" changeset="11115472">
    <nd ref="473803892"/>
    <nd ref="1123564959"/>
    <nd ref="1123565559"/>
    <nd ref="473803920"/>
    <nd ref="473803972"/>
    <nd ref="473803958"/>
    <nd ref="473803892"/>
    <tag k="addr:city" v="Зеленоград"/>
    <tag k="addr:country" v="RU"/>
    <tag k="addr:housenumber" v="522"/>
    <tag k="addr:region" v="Москва"/>
    <tag k="building" v="yes"/>
    <tag k="building:use" v="residential"/>
    <tag k="sorting_name" v="микрорайон 5а/522"/>
  </way>
  <way id="39543749" version="3" timestamp="2010-01-14T12:50:48Z" uid="115477" user="wowik" changeset="3616661">
    <nd ref="473803981"/>
    <nd ref="473803964"/>
    <nd ref="473803858"/>
    <nd ref="473803963"/>
    <nd ref="473803981"/>
    <tag k="addr:city" v="Зеленоград"/>
    <tag k="addr:housenumber" v="531"/>
    <tag k="addr:street" v="5-й Микрорайон"/>
    <tag k="building" v="yes"/>
    <tag k="is_in" v="Russia"/>
  </way>
  <way id="39543749" version="4" timestamp="2010-11-26T12:14:20Z" uid="115477" user="wowik" changeset="6461548">
    <nd ref="473803981"/>
    <nd ref="473803964"/>
    <nd ref="473803858"/>
    <nd ref="473803963"/>
    <nd ref="473803981"/>
    <tag k="addr:city" v="Зеленоград"/>
    <tag k="addr:housenumber" v="531"/>
    <tag k="addr:street" v="Микрорайон 5а"/>
    <tag k="building" v="yes"/>
    <tag k="is_in" v="Russia"/>
  </way>
  <way id="39543749" version="5" timestamp="2011-01-12T10:24:46Z" uid="115477" user="wowik" changeset="6945653">
    <nd ref="473803981"/>
    <nd ref="473803964"/>
    <nd ref="473803858"/>
    <nd ref="473803963"/>
    <nd ref="473803981"/>
    <tag k="addr:city" v="Зеленоград"/>
    <tag k="addr:housenumber" v="531"/>
    <tag k="addr:street" v="Микрорайон 5а"/>
    <tag k="building" v="yes"/>
    <tag k="building:use" v="residential"/>
    <tag k="is_in" v="Russia"/>
  </way>
  <way id="39543749" version="6" timestamp="2011-01-27T17:05:05Z" uid="115477" user="wowik" changeset="7105390">
    <nd ref="473803981"/>
    <nd ref="1123564210"/>
    <nd ref="1123564816"/>
    <nd ref="1123565954"/>
    <nd ref="1123563699"/>
    <nd ref="1123566042"/>
    <nd ref="1123563969"/>
    <nd ref="1123565326"/>
    <nd ref="1123565625"/>
    <nd ref="1123565556"/>
    <nd ref="1123563632"/>
    <nd ref="1123564031"/>
    <nd ref="1123564277"/>
    <nd ref="1123564403"/>
    <nd ref="1123565719"/>
    <nd ref="473803964"/>
    <nd ref="473803858"/>
    <nd ref="1123565401"/>
    <nd ref="1123565479"/>
    <nd ref="1123565107"/>
    <nd ref="1123563771"/>
    <nd ref="473803963"/>
    <nd ref="473803981"/>
    <tag k="addr:city" v="Зеленоград"/>
    <tag k="addr:housenumber" v="531"/>
    <tag k="addr:street" v="Микрорайон 5а"/>
    <tag k="building" v="yes"/>
    <tag k="building:use" v="residential"/>
    <tag k="is_in" v="Russia"/>
  </way>
  <way id="39543749" version="7" timestamp="2011-06-07T20:48:01Z" uid="133332" user="AMDmi3" changeset="8374030">
    <nd ref="473803981"/>
    <nd ref="1123564210"/>
    <nd ref="1123564816"/>
    <nd ref="1123565954"/>
    <nd ref="1123563699"/>
    <nd ref="1123566042"/>
    <nd ref="1123563969"/>
    <nd ref="1123565326"/>
    <nd ref="1123565625"/>
    <nd ref="1123565556"/>
    <nd ref="1123563632"/>
    <nd ref="1123564031"/>
    <nd ref="1123564277"/>
    <nd ref="1123564403"/>
    <nd ref="1123565719"/>
    <nd ref="473803964"/>
    <nd ref="473803858"/>
    <nd ref="1123565401"/>
    <nd ref="1123565479"/>
    <nd ref="1123565107"/>
    <nd ref="1123563771"/>
    <nd ref="473803963"/>
    <nd ref="473803981"/>
    <tag k="addr:city" v="Зеленоград"/>
    <tag k="addr:housenumber" v="531"/>
    <tag k="addr:street" v="микрорайон 5А"/>
    <tag k="building" v="yes"/>
    <tag k="building:use" v="residential"/>
    <tag k="is_in" v="Russia"/>
  </way>
  <way id="39543749" version="8" timestamp="2011-09-13T10:27:44Z" uid="29320" user="Komяpa" changeset="9288237">
    <nd ref="473803981"/>
    <nd ref="1123564210"/>
    <nd ref="1123564816"/>
    <nd ref="1123565954"/>
    <nd ref="1123563699"/>
    <nd ref="1123566042"/>
    <nd ref="1123563969"/>
    <nd ref="1123565326"/>
    <nd ref="1123565625"/>
    <nd ref="1123565556"/>
    <nd ref="1123563632"/>
    <nd ref="1123564031"/>
    <nd ref="1123564277"/>
    <nd ref="1123564403"/>
    <nd ref="1123565719"/>
    <nd ref="473803964"/>
    <nd ref="473803858"/>
    <nd ref="1123565401"/>
    <nd ref="1123565479"/>
    <nd ref="1123565107"/>
    <nd ref="1123563771"/>
    <nd ref="473803963"/>
    <nd ref="473803981"/>
    <tag k="addr:city" v="Зеленоград"/>
    <tag k="addr:country" v="RU"/>
    <tag k="addr:housenumber" v="531"/>
    <tag k="addr:street" v="микрорайон 5А"/>
    <tag k="building" v="yes"/>
    <tag k="building:use" v="residential"/>
  </way>
  <way id="39543749" version="9" timestamp="2011-10-28T10:14:17Z" uid="481934" user="iWowik" changeset="9675133">
    <nd ref="473803981"/>
    <nd ref="1123564210"/>
    <nd ref="1123564816"/>
    <nd ref="1123565954"/>
    <nd ref="1123563699"/>
    <nd ref="1123566042"/>
    <nd ref="1123563969"/>
    <nd ref="1123565326"/>
    <nd ref="1123565625"/>
    <nd ref="1123565556"/>
    <nd ref="1123563632"/>
    <nd ref="1123564031"/>
    <nd ref="1123564277"/>
    <nd ref="1123564403"/>
    <nd ref="1123565719"/>
    <nd ref="473803964"/>
    <nd ref="473803858"/>
    <nd ref="1123565401"/>
    <nd ref="1123565479"/>
    <nd ref="1123565107"/>
    <nd ref="1123563771"/>
    <nd ref="473803963"/>
    <nd ref="473803981"/>
    <tag k="addr:city" v="Зеленоград"/>
    <tag k="addr:country" v="RU"/>
    <tag k="addr:housenumber" v="531"/>
    <tag k="addr:street" v="Микрорайон 5а"/>
    <tag k="building" v="yes"/>
    <tag k="building:use" v="residential"/>
  </way>
  <way id="39543749" version="10" timestamp="2012-01-10T15:22:26Z" uid="481934" user="iWowik" changeset="10352148">
    <nd ref="473803981"/>
    <nd ref="1123564210"/>
    <nd ref="1123564816"/>
    <nd ref="1123565954"/>
    <nd ref="1123563699"/>
    <nd ref="1123566042"/>
    <nd ref="1123563969"/>
    <nd ref="1123565326"/>
    <nd ref="1123565625"/>
    <nd ref="1123565556"/>
    <nd ref="1123563632"/>
    <nd ref="1123564031"/>
    <nd ref="1123564277"/>
    <nd ref="1123564403"/>
    <nd ref="1123565719"/>
    <nd ref="473803964"/>
    <nd ref="473803858"/>
    <nd ref="1123565401"/>
    <nd ref="1123565479"/>
    <nd ref="1123565107"/>
    <nd ref="1123563771"/>
    <nd ref="473803963"/>
    <nd ref="473803981"/>
    <tag k="addr:city" v="Зеленоград"/>
    <tag k="addr:country" v="RU"/>
    <tag k="addr:housenumber" v="531"/>
    <tag k="building" v="yes"/>
    <tag k="building:use" v="residential"/>
  </way>
  <way id="39543749" version="11" timestamp="2012-03-27T11:44:51Z" uid="481934" user="iWowik" changeset="11115472">
    <nd ref="473803981"/>
    <nd ref="1123564210"/>
    <nd ref="1123564816"/>
    <nd ref="1123565954"/>
    <nd ref="1123563699"/>
    <nd ref="1123566042"/>
    <nd ref="1123563969"/>
    <nd ref="1123565326"/>
    <nd ref="1123565625"/>
    <nd ref="1123565556"/>
    <nd ref="1123563632"/>
    <nd ref="1123564031"/>
    <nd ref="1123564277"/>
    <nd ref="1123564403"/>
    <nd ref="1123565719"/>
    <nd ref="473803964"/>
    <nd ref="473803858"/>
    <nd ref="1123565401"/>
    <nd ref="1123565479"/>
    <nd ref="1123565107"/>
    <nd ref="1123563771"/>
    <nd ref="473803963"/>
    <nd ref="473803981"/>
    <tag k="addr:city" v="Зеленоград"/>
    <tag k="addr:country" v="RU"/>
    <tag k="addr:housenumber" v="531"/>
    <tag k="addr:region" v="Москва"/>
    <tag k="building" v="yes"/>
    <tag k="building:use" v="residential"/>
  </way>
  <way id="39543750" version="2" timestamp="2010-11-16T09:08:44Z" uid="115477" user="wowik" changeset="6383413">
    <nd ref="473803843"/>
    <nd ref="473803876"/>
    <nd ref="473803773"/>
    <nd ref="473803793"/>
    <nd ref="473803781"/>
    <nd ref="473803762"/>
    <nd ref="473803843"/>
    <tag k="addr:city" v="Зеленоград"/>
    <tag k="addr:housenumber" v="1с2"/>
    <tag k="addr:street" v="Никольский проезд"/>
    <tag k="building" v="yes"/>
    <tag k="is_in" v="Russia"/>
    <tag k="landuse" v="service"/>
    <tag k="name" v="Психо-неврологический диспансер"/>
  </way>
  <way id="39543750" version="3" timestamp="2010-11-16T09:10:10Z" uid="115477" user="wowik" changeset="6383413">
    <nd ref="473803843"/>
    <nd ref="473803876"/>
    <nd ref="473803773"/>
    <nd ref="473803793"/>
    <nd ref="473803781"/>
    <nd ref="473803762"/>
    <nd ref="473803843"/>
    <tag k="addr:city" v="Зеленоград"/>
    <tag k="addr:housenumber" v="1с2"/>
    <tag k="addr:street" v="Никольский проезд"/>
    <tag k="building" v="yes"/>
    <tag k="is_in" v="Russia"/>
    <tag k="landuse" v="service"/>
    <tag k="name" v="Психо-неврологический диспансер № 22"/>
  </way>
  <way id="39543750" version="4" timestamp="2010-11-16T09:11:14Z" uid="115477" user="wowik" changeset="6383413">
    <nd ref="473803843"/>
    <nd ref="473803876"/>
    <nd ref="473803773"/>
    <nd ref="473803793"/>
    <nd ref="473803781"/>
    <nd ref="473803762"/>
    <nd ref="473803843"/>
    <tag k="addr:city" v="Зеленоград"/>
    <tag k="addr:housenumber" v="1с2"/>
    <tag k="addr:street" v="Никольский проезд"/>
    <tag k="building" v="yes"/>
    <tag k="is_in" v="Russia"/>
    <tag k="landuse" v="service"/>
    <tag k="name" v="Психо-неврологический диспансер № 22 (Психоневрологическое отделение - стационар) "/>
  </way>
  <way id="39543750" version="5" timestamp="2010-11-16T20:52:45Z" uid="70696" user="xybot" changeset="6388249">
    <nd ref="473803843"/>
    <nd ref="473803876"/>
    <nd ref="473803773"/>
    <nd ref="473803793"/>
    <nd ref="473803781"/>
    <nd ref="473803762"/>
    <nd ref="473803843"/>
    <tag k="addr:city" v="Зеленоград"/>
    <tag k="addr:housenumber" v="1с2"/>
    <tag k="addr:street" v="Никольский проезд"/>
    <tag k="building" v="yes"/>
    <tag k="is_in" v="Russia"/>
    <tag k="landuse" v="service"/>
    <tag k="name" v="Психо-неврологический диспансер № 22 (Психоневрологическое отделение - стационар)"/>
  </way>
  <way id="39543750" version="6" timestamp="2011-01-19T15:53:37Z" uid="70696" user="xybot" changeset="7021015">
    <nd ref="473803843"/>
    <nd ref="473803876"/>
    <nd ref="473803773"/>
    <nd ref="473803793"/>
    <nd ref="473803781"/>
    <nd ref="473803762"/>
    <nd ref="473803843"/>
    <tag k="addr:city" v="Зеленоград"/>
    <tag k="addr:housenumber" v="1 с2"/>
    <tag k="addr:street" v="Никольский проезд"/>
    <tag k="building" v="yes"/>
    <tag k="is_in" v="Russia"/>
    <tag k="landuse" v="service"/>
    <tag k="name" v="Психо-неврологический диспансер № 22 (Психоневрологическое отделение - стационар)"/>
  </way>
  <way id="39543750" version="7" timestamp="2011-01-27T17:31:18Z" uid="115477" user="wowik" changeset="7105638">
    <nd ref="473803843"/>
    <nd ref="473803876"/>
    <nd ref="473803773"/>
    <nd ref="473803793"/>
    <nd ref="473803781"/>
    <nd ref="473803762"/>
    <nd ref="473803843"/>
    <tag k="addr:city" v="Зеленоград"/>
    <tag k="addr:housenumber" v="1 с2"/>
    <tag k="addr:street" v="Никольский проезд"/>
    <tag k="amenity" v="hospital"/>
    <tag k="building" v="yes"/>
    <tag k="is_in" v="Russia"/>
    <tag k="landuse" v="service"/>
    <tag k="name" v="Психо-неврологический диспансер № 22 (Психоневрологическое отделение - стационар)"/>
  </way>
  <way id="39543750" version="8" timestamp="2011-09-13T10:31:01Z" uid="29320" user="Komяpa" changeset="9288237">
    <nd ref="473803843"/>
    <nd ref="473803876"/>
    <nd ref="473803773"/>
    <nd ref="473803793"/>
    <nd ref="473803781"/>
    <nd ref="473803762"/>
    <nd ref="473803843"/>
    <tag k="addr:city" v="Зеленоград"/>
    <tag k="addr:country" v="RU"/>
    <tag k="addr:housenumber" v="1 с2"/>
    <tag k="addr:street" v="Никольский проезд"/>
    <tag k="amenity" v="hospital"/>
    <tag k="building" v="service"/>
    <tag k="name" v="Психо-неврологический диспансер № 22 (Психоневрологическое отделение - стационар)"/>
  </way>
  <way id="39543751" version="3" timestamp="2010-01-14T12:50:42Z" uid="115477" user="wowik" changeset="3616661">
    <nd ref="473803973"/>
    <nd ref="473803986"/>
    <nd ref="473803983"/>
    <nd ref="473803898"/>
    <nd ref="473803973"/>
    <tag k="addr:city" v="Зеленоград"/>
    <tag k="addr:housenumber" v="524"/>
    <tag k="addr:street" v="5-й Микрорайон"/>
    <tag k="building" v="yes"/>
    <tag k="is_in" v="Russia"/>
  </way>
  <way id="39543751" version="4" timestamp="2010-11-26T12:14:20Z" uid="115477" user="wowik" changeset="6461548">
    <nd ref="473803973"/>
    <nd ref="473803986"/>
    <nd ref="473803983"/>
    <nd ref="473803898"/>
    <nd ref="473803973"/>
    <tag k="addr:city" v="Зеленоград"/>
    <tag k="addr:housenumber" v="524"/>
    <tag k="addr:street" v="Микрорайон 5а"/>
    <tag k="building" v="yes"/>
    <tag k="is_in" v="Russia"/>
  </way>
  <way id="39543751" version="5" timestamp="2011-01-12T10:25:35Z" uid="115477" user="wowik" changeset="6945653">
    <nd ref="473803973"/>
    <nd ref="473803986"/>
    <nd ref="473803983"/>
    <nd ref="473803898"/>
    <nd ref="473803973"/>
    <tag k="addr:city" v="Зеленоград"/>
    <tag k="addr:housenumber" v="524"/>
    <tag k="addr:street" v="Микрорайон 5а"/>
    <tag k="building" v="yes"/>
    <tag k="building:use" v="residential"/>
    <tag k="is_in" v="Russia"/>
  </way>
  <way id="39543751" version="6" timestamp="2011-01-27T17:04:26Z" uid="115477" user="wowik" changeset="7105390">
    <nd ref="473803973"/>
    <nd ref="1123563938"/>
    <nd ref="473803986"/>
    <nd ref="473803983"/>
    <nd ref="473803898"/>
    <nd ref="1123565598"/>
    <nd ref="473803973"/>
    <tag k="addr:city" v="Зеленоград"/>
    <tag k="addr:housenumber" v="524"/>
    <tag k="addr:street" v="Микрорайон 5а"/>
    <tag k="building" v="yes"/>
    <tag k="building:use" v="residential"/>
    <tag k="is_in" v="Russia"/>
  </way>
  <way id="39543751" version="7" timestamp="2011-06-07T20:48:01Z" uid="133332" user="AMDmi3" changeset="8374030">
    <nd ref="473803973"/>
    <nd ref="1123563938"/>
    <nd ref="473803986"/>
    <nd ref="473803983"/>
    <nd ref="473803898"/>
    <nd ref="1123565598"/>
    <nd ref="473803973"/>
    <tag k="addr:city" v="Зеленоград"/>
    <tag k="addr:housenumber" v="524"/>
    <tag k="addr:street" v="микрорайон 5А"/>
    <tag k="building" v="yes"/>
    <tag k="building:use" v="residential"/>
    <tag k="is_in" v="Russia"/>
  </way>
  <way id="39543751" version="8" timestamp="2011-09-13T10:27:39Z" uid="29320" user="Komяpa" changeset="9288237">
    <nd ref="473803973"/>
    <nd ref="1123563938"/>
    <nd ref="473803986"/>
    <nd ref="473803983"/>
    <nd ref="473803898"/>
    <nd ref="1123565598"/>
    <nd ref="473803973"/>
    <tag k="addr:city" v="Зеленоград"/>
    <tag k="addr:country" v="RU"/>
    <tag k="addr:housenumber" v="524"/>
    <tag k="addr:street" v="микрорайон 5А"/>
    <tag k="building" v="yes"/>
    <tag k="building:use" v="residential"/>
  </way>
  <way id="39543751" version="9" timestamp="2011-10-28T10:14:14Z" uid="481934" user="iWowik" changeset="9675133">
    <nd ref="473803973"/>
    <nd ref="1123563938"/>
    <nd ref="473803986"/>
    <nd ref="473803983"/>
    <nd ref="473803898"/>
    <nd ref="1123565598"/>
    <nd ref="473803973"/>
    <tag k="addr:city" v="Зеленоград"/>
    <tag k="addr:country" v="RU"/>
    <tag k="addr:housenumber" v="524"/>
    <tag k="addr:street" v="Микрорайон 5а"/>
    <tag k="building" v="yes"/>
    <tag k="building:use" v="residential"/>
  </way>
  <way id="39543751" version="10" timestamp="2012-01-10T15:22:22Z" uid="481934" user="iWowik" changeset="10352148">
    <nd ref="473803973"/>
    <nd ref="1123563938"/>
    <nd ref="473803986"/>
    <nd ref="473803983"/>
    <nd ref="473803898"/>
    <nd ref="1123565598"/>
    <nd ref="473803973"/>
    <tag k="addr:city" v="Зеленоград"/>
    <tag k="addr:country" v="RU"/>
    <tag k="addr:housenumber" v="524"/>
    <tag k="building" v="yes"/>
    <tag k="building:use" v="residential"/>
    <tag k="sorting_name" v="микрорайон 5а/524"/>
  </way>
  <way id="39543751" version="11" timestamp="2012-03-27T11:44:46Z" uid="481934" user="iWowik" changeset="11115472">
    <nd ref="473803973"/>
    <nd ref="1123563938"/>
    <nd ref="473803986"/>
    <nd ref="473803983"/>
    <nd ref="473803898"/>
    <nd ref="1123565598"/>
    <nd ref="473803973"/>
    <tag k="addr:city" v="Зеленоград"/>
    <tag k="addr:country" v="RU"/>
    <tag k="addr:housenumber" v="524"/>
    <tag k="addr:region" v="Москва"/>
    <tag k="building" v="yes"/>
    <tag k="building:use" v="residential"/>
    <tag k="sorting_name" v="микрорайон 5а/524"/>
  </way>
  <way id="39543916" version="1" timestamp="2009-08-25T19:38:55Z" uid="55964" user="Evan Sebire" changeset="2260839">
    <nd ref="473805687"/>
    <nd ref="473805704"/>
    <nd ref="473805705"/>
    <nd ref="473805708"/>
    <nd ref="473805712"/>
    <nd ref="473805714"/>
    <nd ref="473805717"/>
    <nd ref="473805720"/>
    <nd ref="473805721"/>
    <nd ref="473805722"/>
    <nd ref="473805725"/>
    <nd ref="473805729"/>
    <nd ref="473805734"/>
    <nd ref="473805739"/>
    <nd ref="473805743"/>
    <nd ref="473805747"/>
    <nd ref="473805763"/>
    <nd ref="473805771"/>
    <nd ref="473805779"/>
    <nd ref="473805791"/>
    <nd ref="473805799"/>
    <nd ref="473805806"/>
    <nd ref="473805812"/>
    <nd ref="473805817"/>
    <nd ref="473805819"/>
    <nd ref="473805820"/>
    <nd ref="473805823"/>
    <nd ref="473805826"/>
    <nd ref="473805828"/>
    <nd ref="473805831"/>
    <nd ref="473805835"/>
    <tag k="highway" v="path"/>
  </way>
  <way id="39543916" version="2" timestamp="2012-02-16T08:19:19Z" uid="125339" user="efred" changeset="10699522"/>
</osm>
