<?xml version='1.0' encoding='UTF-8'?>
<osm version="0.6" generator="libosmium/2.20.0">
  <way id="39563016" version="4" timestamp="2010-08-17T02:30:51Z" uid="4467" user="Rosscoe" changeset="5514182">
    <nd ref="53865576"/>
    <nd ref="525355257"/>
    <nd ref="53865588"/>
    <tag k="highway" v="primary"/>
    <tag k="is_in" v="Parkville,Victoria,Australia"/>
    <tag k="lanes" v="1"/>
    <tag k="maxspeed" v="60"/>
    <tag k="name" v="Macarthur Road"/>
    <tag k="oneway" v="yes"/>
    <tag k="postal_code" v="3052"/>
    <tag k="ref" v="S83"/>
    <tag k="source" v="survey;nearmap"/>
  </way>
  <way id="39563017" version="5" timestamp="2010-10-24T07:27:07Z" uid="4467" user="Rosscoe" changeset="6153782">
    <nd ref="39690796"/>
    <nd ref="962965877"/>
    <nd ref="373070429"/>
    <tag k="highway" v="primary_link"/>
    <tag k="oneway" v="yes"/>
  </way>
  <way id="39563017" version="6" timestamp="2011-05-12T05:57:32Z" uid="11111" user="melb_guy" changeset="8118638">
    <nd ref="39690796"/>
    <nd ref="962965877"/>
    <tag k="highway" v="primary_link"/>
    <tag k="oneway" v="yes"/>
  </way>
  <way id="39563034" version="3" timestamp="2011-04-10T20:39:13Z" uid="4467" user="Rosscoe" changeset="7827395">
    <nd ref="34160669"/>
    <nd ref="33318866"/>
    <nd ref="130175887"/>
    <nd ref="242532837"/>
    <nd ref="130175881"/>
    <nd ref="99507334"/>
    <nd ref="355618367"/>
    <tag k="highway" v="primary"/>
    <tag k="is_in" v="Carlton North,Victoria,Australia"/>
    <tag k="name" v="Princes Street"/>
    <tag k="oneway" v="yes"/>
    <tag k="postal_code" v="3054"/>
    <tag k="ref" v="46;83"/>
    <tag k="source" v="survey;Yahoo"/>
  </way>
  <way id="39563034" version="4" timestamp="2011-05-20T09:11:56Z" uid="46482" user="Leon K" changeset="8196757">
    <nd ref="34160669"/>
    <nd ref="33318866"/>
    <nd ref="130175887"/>
    <nd ref="242532837"/>
    <nd ref="130175881"/>
    <nd ref="99507334"/>
    <nd ref="355618367"/>
    <tag k="highway" v="primary"/>
    <tag k="is_in" v="Carlton North,Victoria,Australia"/>
    <tag k="maxspeed" v="60"/>
    <tag k="name" v="Princes Street"/>
    <tag k="oneway" v="yes"/>
    <tag k="postal_code" v="3054"/>
    <tag k="ref" v="46;83"/>
    <tag k="source" v="survey;Yahoo"/>
  </way>
  <way id="39563036" version="9" timestamp="2011-04-10T20:38:37Z" uid="4467" user="Rosscoe" changeset="7827395">
    <nd ref="230502655"/>
    <nd ref="233255067"/>
    <nd ref="1240315498"/>
    <nd ref="233262724"/>
    <nd ref="574303138"/>
    <tag k="highway" v="trunk"/>
    <tag k="history" v="Retrieved from v4"/>
    <tag k="is_in" v="Fitzroy,Victoria,Australia"/>
    <tag k="name" v="Alexandra Parade"/>
    <tag k="oneway" v="yes"/>
    <tag k="postal_code" v="3065"/>
    <tag k="ref" v="S46;S83"/>
    <tag k="source" v="survey"/>
  </way>
  <way id="39563036" version="10" timestamp="2011-05-20T09:11:55Z" uid="46482" user="Leon K" changeset="8196757">
    <nd ref="230502655"/>
    <nd ref="233255067"/>
    <nd ref="1240315498"/>
    <nd ref="233262724"/>
    <nd ref="574303138"/>
    <tag k="highway" v="trunk"/>
    <tag k="history" v="Retrieved from v4"/>
    <tag k="is_in" v="Fitzroy,Victoria,Australia"/>
    <tag k="maxspeed" v="60"/>
    <tag k="name" v="Alexandra Parade"/>
    <tag k="oneway" v="yes"/>
    <tag k="postal_code" v="3065"/>
    <tag k="ref" v="S46;S83"/>
    <tag k="source" v="survey"/>
  </way>
  <way id="39563180" version="2" timestamp="2010-10-31T07:35:39Z" uid="4467" user="Rosscoe" changeset="6235526">
    <nd ref="61077566"/>
    <nd ref="61077777"/>
    <nd ref="61077848"/>
    <nd ref="61078073"/>
    <nd ref="61077878"/>
    <nd ref="61078059"/>
    <nd ref="61077880"/>
    <nd ref="61078057"/>
    <nd ref="61077749"/>
    <nd ref="61078048"/>
    <nd ref="61079473"/>
    <nd ref="971750515"/>
    <nd ref="61077944"/>
    <nd ref="285881488"/>
    <nd ref="60718238"/>
    <tag k="highway" v="tertiary"/>
    <tag k="name" v="Fawkner Street"/>
    <tag k="source" v="yahoo"/>
    <tag k="source:name" v="survey"/>
  </way>
  <way id="39563250" version="2" timestamp="2010-03-28T10:17:37Z" uid="20587" user="balrog-kun" changeset="4254597">
    <nd ref="474200951"/>
    <nd ref="123281801"/>
    <tag k="created_by" v="Potlatch 0.10f"/>
    <tag k="highway" v="residential"/>
    <tag k="name" v="West Gen Thad Kosciuszko Way"/>
    <tag k="tiger:cfcc" v="A41"/>
    <tag k="tiger:county" v="Los Angeles, CA"/>
    <tag k="tiger:name_base" v="Gen Thad Kosciuszko"/>
    <tag k="tiger:name_direction_prefix" v="W"/>
    <tag k="tiger:name_type" v="Way"/>
    <tag k="tiger:separated" v="no"/>
    <tag k="tiger:source" v="tiger_import_dch_v0.6_20070809"/>
    <tag k="tiger:tlid" v="141617234:141617272:141617276"/>
    <tag k="tiger:zip_left" v="90012"/>
    <tag k="tiger:zip_right" v="90012"/>
  </way>
  <way id="39563251" version="3" timestamp="2010-03-28T10:17:38Z" uid="20587" user="balrog-kun" changeset="4254597">
    <nd ref="268642772"/>
    <nd ref="671847465"/>
    <nd ref="474200951"/>
    <tag k="highway" v="residential"/>
    <tag k="name" v="West Gen Thad Kosciuszko Way"/>
    <tag k="tiger:cfcc" v="A41"/>
    <tag k="tiger:county" v="Los Angeles, CA"/>
    <tag k="tiger:name_base" v="Gen Thad Kosciuszko"/>
    <tag k="tiger:name_direction_prefix" v="W"/>
    <tag k="tiger:name_type" v="Way"/>
    <tag k="tiger:separated" v="no"/>
    <tag k="tiger:source" v="tiger_import_dch_v0.6_20070809"/>
    <tag k="tiger:tlid" v="141617234:141617272:141617276"/>
    <tag k="tiger:zip_left" v="90012"/>
    <tag k="tiger:zip_right" v="90012"/>
    <tag k="tunnel" v="yes"/>
  </way>
  <way id="39563251" version="4" timestamp="2011-07-13T18:38:20Z" uid="4951" user="PeterIto" changeset="8715343">
    <nd ref="268642772"/>
    <nd ref="671847465"/>
    <nd ref="474200951"/>
    <tag k="highway" v="residential"/>
    <tag k="layer" v="-1"/>
    <tag k="name" v="West Gen Thad Kosciuszko Way"/>
    <tag k="tiger:cfcc" v="A41"/>
    <tag k="tiger:county" v="Los Angeles, CA"/>
    <tag k="tiger:name_base" v="Gen Thad Kosciuszko"/>
    <tag k="tiger:name_direction_prefix" v="W"/>
    <tag k="tiger:name_type" v="Way"/>
    <tag k="tiger:separated" v="no"/>
    <tag k="tiger:source" v="tiger_import_dch_v0.6_20070809"/>
    <tag k="tiger:tlid" v="141617234:141617272:141617276"/>
    <tag k="tiger:zip_left" v="90012"/>
    <tag k="tiger:zip_right" v="90012"/>
    <tag k="tunnel" v="yes"/>
  </way>
</osm>
