<?xml version='1.0' encoding='UTF-8'?>
<osm version="0.6" generator="libosmium/2.20.0">
  <way id="39565125" version="3" timestamp="2010-03-22T07:34:08Z" uid="20587" user="balrog-kun" changeset="4199043">
    <nd ref="37431896"/>
    <nd ref="37532393"/>
    <tag k="bicycle" v="designated"/>
    <tag k="highway" v="secondary"/>
    <tag k="layer" v="1"/>
    <tag k="name" v="Southeast 82nd Drive"/>
  </way>
  <way id="39565125" version="4" timestamp="2010-12-19T21:20:34Z" uid="373763" user="ylekot" changeset="6710903">
    <nd ref="37431896"/>
    <nd ref="37532393"/>
    <tag k="bicycle" v="designated"/>
    <tag k="highway" v="tertiary"/>
    <tag k="layer" v="1"/>
    <tag k="name" v="Southeast 82nd Drive"/>
  </way>
  <way id="39565125" version="5" timestamp="2011-03-25T23:24:49Z" uid="92286" user="Paul Johnson" changeset="7670923">
    <nd ref="37431896"/>
    <nd ref="37532393"/>
    <tag k="highway" v="tertiary"/>
    <tag k="layer" v="1"/>
    <tag k="name" v="Southeast 82nd Drive"/>
  </way>
  <way id="39565125" version="6" timestamp="2011-04-08T22:11:18Z" uid="371688" user="betsy" changeset="7808734">
    <nd ref="37532393"/>
    <nd ref="1237852015"/>
    <nd ref="1237852039"/>
    <nd ref="37431896"/>
    <tag k="highway" v="primary"/>
    <tag k="layer" v="1"/>
    <tag k="name" v="Southeast 82nd Drive"/>
  </way>
  <way id="39565125" version="7" timestamp="2011-05-06T18:55:01Z" uid="371688" user="betsy" changeset="8067704">
    <nd ref="37532393"/>
    <nd ref="1237852015"/>
    <nd ref="1237852039"/>
    <nd ref="37431896"/>
    <tag k="highway" v="secondary"/>
    <tag k="layer" v="1"/>
    <tag k="name" v="Southeast 82nd Drive"/>
  </way>
  <way id="39565125" version="8" timestamp="2011-06-16T22:55:40Z" uid="371688" user="betsy" changeset="8460948">
    <nd ref="37532393"/>
    <nd ref="1237852015"/>
    <nd ref="1237852039"/>
    <nd ref="37431896"/>
    <tag k="RLIS:localid" v="305134"/>
    <tag k="RLIS:reviewed" v="no"/>
    <tag k="highway" v="secondary"/>
    <tag k="layer" v="1"/>
    <tag k="name" v="Southeast 82nd Drive"/>
    <tag k="name_base" v="82nd"/>
    <tag k="name_direction_prefix" v="Southeast"/>
    <tag k="name_type" v="Drive"/>
    <tag k="zip_left" v="97015"/>
    <tag k="zip_right" v="97015"/>
  </way>
  <way id="39565125" version="9" timestamp="2011-06-23T02:08:34Z" uid="473471" user="NE3" changeset="8520254">
    <nd ref="37532393"/>
    <nd ref="1237852015"/>
    <nd ref="1237852039"/>
    <nd ref="37431896"/>
    <nd ref="264723579"/>
    <tag k="RLIS:localid" v="305134"/>
    <tag k="RLIS:reviewed" v="no"/>
    <tag k="highway" v="trunk"/>
    <tag k="lanes" v="3"/>
    <tag k="layer" v="1"/>
    <tag k="name" v="Southeast 82nd Drive"/>
    <tag k="name_base" v="82nd"/>
    <tag k="name_direction_prefix" v="Southeast"/>
    <tag k="name_type" v="Drive"/>
    <tag k="note:lanes" v="1 westbound, 2 eastbound"/>
    <tag k="zip_left" v="97015"/>
    <tag k="zip_right" v="97015"/>
  </way>
  <way id="39565125" version="10" timestamp="2011-06-28T18:35:04Z" uid="371688" user="betsy" changeset="8574010">
    <nd ref="37532393"/>
    <nd ref="1237852015"/>
    <nd ref="1237852039"/>
    <nd ref="37431896"/>
    <nd ref="264723579"/>
    <tag k="RLIS:localid" v="305134"/>
    <tag k="RLIS:reviewed" v="no"/>
    <tag k="highway" v="secondary"/>
    <tag k="lanes" v="3"/>
    <tag k="layer" v="1"/>
    <tag k="name" v="Southeast 82nd Drive"/>
    <tag k="name_base" v="82nd"/>
    <tag k="name_direction_prefix" v="Southeast"/>
    <tag k="name_type" v="Drive"/>
    <tag k="note:lanes" v="1 westbound, 2 eastbound"/>
    <tag k="zip_left" v="97015"/>
    <tag k="zip_right" v="97015"/>
  </way>
  <way id="39565125" version="11" timestamp="2011-07-06T23:44:56Z" uid="362111" user="Mele Sax-Barnett" changeset="8653334">
    <nd ref="37532393"/>
    <nd ref="1237852039"/>
    <nd ref="37431896"/>
    <nd ref="264723579"/>
    <tag k="RLIS:localid" v="305134"/>
    <tag k="RLIS:reviewed" v="no"/>
    <tag k="highway" v="secondary"/>
    <tag k="lanes" v="3"/>
    <tag k="layer" v="1"/>
    <tag k="name" v="Southeast 82nd Drive"/>
    <tag k="name_base" v="82nd"/>
    <tag k="name_direction_prefix" v="Southeast"/>
    <tag k="name_type" v="Drive"/>
    <tag k="note:lanes" v="1 westbound, 2 eastbound"/>
    <tag k="zip_left" v="97015"/>
    <tag k="zip_right" v="97015"/>
  </way>
  <way id="39565125" version="12" timestamp="2011-07-14T05:16:52Z" uid="92286" user="Paul Johnson" changeset="8718482">
    <nd ref="37532393"/>
    <nd ref="1237852039"/>
    <nd ref="37431896"/>
    <tag k="RLIS:localid" v="305134"/>
    <tag k="RLIS:reviewed" v="no"/>
    <tag k="highway" v="secondary"/>
    <tag k="lanes" v="3"/>
    <tag k="layer" v="1"/>
    <tag k="name" v="Southeast 82nd Drive"/>
    <tag k="name_base" v="82nd"/>
    <tag k="name_direction_prefix" v="Southeast"/>
    <tag k="name_type" v="Drive"/>
    <tag k="note:lanes" v="1 westbound, 2 eastbound"/>
    <tag k="zip_left" v="97015"/>
    <tag k="zip_right" v="97015"/>
  </way>
  <way id="39565125" version="13" timestamp="2011-07-30T00:15:54Z" uid="371688" user="betsy" changeset="8868260">
    <nd ref="37532393"/>
    <nd ref="1237852039"/>
    <nd ref="37431896"/>
    <tag k="RLIS:bicycle" v="caution_area"/>
    <tag k="RLIS:localid" v="305134"/>
    <tag k="RLIS:reviewed" v="no"/>
    <tag k="highway" v="secondary"/>
    <tag k="lanes" v="3"/>
    <tag k="layer" v="1"/>
    <tag k="name" v="Southeast 82nd Drive"/>
    <tag k="name_base" v="82nd"/>
    <tag k="name_direction_prefix" v="Southeast"/>
    <tag k="name_type" v="Drive"/>
    <tag k="note:lanes" v="1 westbound, 2 eastbound"/>
    <tag k="zip_left" v="97015"/>
    <tag k="zip_right" v="97015"/>
  </way>
  <way id="39565125" version="14" timestamp="2011-10-19T01:58:22Z" uid="372357" user="PJ Houser" changeset="9596193">
    <nd ref="37532393"/>
    <nd ref="1237852039"/>
    <nd ref="37431896"/>
    <tag k="RLIS:bicycle" v="caution_area"/>
    <tag k="RLIS:localid" v="305134"/>
    <tag k="RLIS:reviewed" v="no"/>
    <tag k="highway" v="secondary"/>
    <tag k="lanes" v="3"/>
    <tag k="layer" v="1"/>
    <tag k="name" v="Southeast 82nd Drive"/>
    <tag k="note:lanes" v="1 westbound, 2 eastbound"/>
    <tag k="zip_left" v="97015"/>
    <tag k="zip_right" v="97015"/>
  </way>
  <way id="39565125" version="15" timestamp="2011-12-14T02:22:11Z" uid="372357" user="PJ Houser" changeset="10112700">
    <nd ref="37532393"/>
    <nd ref="1237852039"/>
    <nd ref="37431896"/>
    <tag k="RLIS:bicycle" v="caution_area"/>
    <tag k="RLIS:localid" v="305134"/>
    <tag k="RLIS:reviewed" v="no"/>
    <tag k="bicycle" v="yes"/>
    <tag k="highway" v="secondary"/>
    <tag k="lanes" v="3"/>
    <tag k="layer" v="1"/>
    <tag k="name" v="Southeast 82nd Drive"/>
    <tag k="note:lanes" v="1 westbound, 2 eastbound"/>
    <tag k="zip_left" v="97015"/>
    <tag k="zip_right" v="97015"/>
  </way>
  <way id="39565127" version="3" timestamp="2010-03-22T07:34:08Z" uid="20587" user="balrog-kun" changeset="4199043">
    <nd ref="474202107"/>
    <nd ref="474202108"/>
    <tag k="bicycle" v="designated"/>
    <tag k="bridge" v="yes"/>
    <tag k="highway" v="secondary"/>
    <tag k="layer" v="1"/>
    <tag k="name" v="Southeast 82nd Drive"/>
  </way>
  <way id="39565127" version="4" timestamp="2010-12-19T21:20:34Z" uid="373763" user="ylekot" changeset="6710903">
    <nd ref="474202107"/>
    <nd ref="474202108"/>
    <tag k="bicycle" v="designated"/>
    <tag k="bridge" v="yes"/>
    <tag k="highway" v="tertiary"/>
    <tag k="layer" v="1"/>
    <tag k="name" v="Southeast 82nd Drive"/>
  </way>
  <way id="39565127" version="5" timestamp="2010-12-22T03:28:06Z" uid="373763" user="ylekot" changeset="6732061">
    <nd ref="474202107"/>
    <nd ref="474202108"/>
    <tag k="bicycle" v="designated"/>
    <tag k="bridge" v="yes"/>
    <tag k="highway" v="tertiary"/>
    <tag k="layer" v="1"/>
    <tag k="name" v="Southeast 82nd Drive"/>
    <tag k="ref" v="OR 224"/>
  </way>
  <way id="39565127" version="6" timestamp="2010-12-22T03:28:48Z" uid="373763" user="ylekot" changeset="6732063">
    <nd ref="474202107"/>
    <nd ref="474202108"/>
    <tag k="bicycle" v="designated"/>
    <tag k="bridge" v="yes"/>
    <tag k="highway" v="trunk"/>
    <tag k="layer" v="1"/>
    <tag k="name" v="Southeast 82nd Drive"/>
    <tag k="ref" v="OR 224"/>
  </way>
  <way id="39565127" version="7" timestamp="2011-03-25T23:23:36Z" uid="92286" user="Paul Johnson" changeset="7670923">
    <nd ref="474202107"/>
    <nd ref="474202108"/>
    <tag k="bridge" v="yes"/>
    <tag k="highway" v="trunk"/>
    <tag k="layer" v="1"/>
    <tag k="name" v="Southeast 82nd Drive"/>
    <tag k="ref" v="OR 224"/>
  </way>
  <way id="39565127" version="8" timestamp="2011-04-08T22:11:12Z" uid="371688" user="betsy" changeset="7808734">
    <nd ref="474202108"/>
    <nd ref="474202107"/>
    <tag k="bridge" v="yes"/>
    <tag k="highway" v="primary"/>
    <tag k="layer" v="1"/>
    <tag k="name" v="Southeast 82nd Drive"/>
    <tag k="ref" v="OR 224"/>
  </way>
  <way id="39565127" version="9" timestamp="2011-05-06T18:54:14Z" uid="371688" user="betsy" changeset="8067704">
    <nd ref="474202108"/>
    <nd ref="474202107"/>
    <tag k="bridge" v="yes"/>
    <tag k="highway" v="secondary"/>
    <tag k="layer" v="1"/>
    <tag k="name" v="Southeast 82nd Drive"/>
    <tag k="ref" v="OR 224"/>
  </way>
  <way id="39565127" version="10" timestamp="2011-06-16T22:55:51Z" uid="371688" user="betsy" changeset="8460948">
    <nd ref="474202108"/>
    <nd ref="474202107"/>
    <tag k="RLIS:localid" v="324018"/>
    <tag k="RLIS:reviewed" v="no"/>
    <tag k="bridge" v="yes"/>
    <tag k="highway" v="secondary"/>
    <tag k="layer" v="1"/>
    <tag k="name" v="Southeast 82nd Drive"/>
    <tag k="name_base" v="82nd"/>
    <tag k="name_direction_prefix" v="Southeast"/>
    <tag k="name_type" v="Drive"/>
    <tag k="ref" v="OR 224"/>
    <tag k="zip_left" v="97015"/>
    <tag k="zip_right" v="97015"/>
  </way>
  <way id="39565127" version="11" timestamp="2011-06-23T02:10:14Z" uid="473471" user="NE3" changeset="8520254">
    <nd ref="474202108"/>
    <nd ref="474202107"/>
    <tag k="RLIS:localid" v="324018"/>
    <tag k="RLIS:reviewed" v="no"/>
    <tag k="bridge" v="yes"/>
    <tag k="highway" v="trunk"/>
    <tag k="lanes" v="4"/>
    <tag k="layer" v="1"/>
    <tag k="name" v="Southeast 82nd Drive"/>
    <tag k="name_base" v="82nd"/>
    <tag k="name_direction_prefix" v="Southeast"/>
    <tag k="name_type" v="Drive"/>
    <tag k="ref" v="OR 224"/>
    <tag k="zip_left" v="97015"/>
    <tag k="zip_right" v="97015"/>
  </way>
  <way id="39565127" version="12" timestamp="2011-06-28T18:35:06Z" uid="371688" user="betsy" changeset="8574010">
    <nd ref="474202108"/>
    <nd ref="474202107"/>
    <tag k="RLIS:localid" v="324018"/>
    <tag k="RLIS:reviewed" v="no"/>
    <tag k="bridge" v="yes"/>
    <tag k="highway" v="secondary"/>
    <tag k="lanes" v="4"/>
    <tag k="layer" v="1"/>
    <tag k="name" v="Southeast 82nd Drive"/>
    <tag k="name_base" v="82nd"/>
    <tag k="name_direction_prefix" v="Southeast"/>
    <tag k="name_type" v="Drive"/>
    <tag k="ref" v="OR 224"/>
    <tag k="zip_left" v="97015"/>
    <tag k="zip_right" v="97015"/>
  </way>
  <way id="39565127" version="13" timestamp="2011-07-30T00:15:54Z" uid="371688" user="betsy" changeset="8868260">
    <nd ref="474202108"/>
    <nd ref="474202107"/>
    <tag k="RLIS:bicycle" v="caution_area"/>
    <tag k="RLIS:localid" v="324018"/>
    <tag k="RLIS:reviewed" v="no"/>
    <tag k="bridge" v="yes"/>
    <tag k="highway" v="secondary"/>
    <tag k="lanes" v="4"/>
    <tag k="layer" v="1"/>
    <tag k="name" v="Southeast 82nd Drive"/>
    <tag k="name_base" v="82nd"/>
    <tag k="name_direction_prefix" v="Southeast"/>
    <tag k="name_type" v="Drive"/>
    <tag k="ref" v="OR 224"/>
    <tag k="zip_left" v="97015"/>
    <tag k="zip_right" v="97015"/>
  </way>
  <way id="39565127" version="14" timestamp="2011-09-15T00:59:11Z" uid="362111" user="Mele Sax-Barnett" changeset="9304448">
    <nd ref="474202108"/>
    <nd ref="474202107"/>
    <tag k="RLIS:bicycle" v="caution_area"/>
    <tag k="RLIS:localid" v="324018"/>
    <tag k="RLIS:reviewed" v="no"/>
    <tag k="bridge" v="yes"/>
    <tag k="highway" v="trunk"/>
    <tag k="lanes" v="4"/>
    <tag k="layer" v="1"/>
    <tag k="name" v="Southeast 82nd Drive"/>
    <tag k="name_base" v="82nd"/>
    <tag k="name_direction_prefix" v="Southeast"/>
    <tag k="name_type" v="Drive"/>
    <tag k="ref" v="OR 224"/>
    <tag k="zip_left" v="97015"/>
    <tag k="zip_right" v="97015"/>
  </way>
  <way id="39565127" version="15" timestamp="2011-09-15T01:12:07Z" uid="362111" user="Mele Sax-Barnett" changeset="9304467">
    <nd ref="474202108"/>
    <nd ref="474202107"/>
    <tag k="RLIS:bicycle" v="caution_area"/>
    <tag k="RLIS:localid" v="324018"/>
    <tag k="RLIS:reviewed" v="no"/>
    <tag k="bicycle" v="yes"/>
    <tag k="bridge" v="yes"/>
    <tag k="highway" v="trunk"/>
    <tag k="lanes" v="4"/>
    <tag k="layer" v="1"/>
    <tag k="name" v="Southeast 82nd Drive"/>
    <tag k="name_base" v="82nd"/>
    <tag k="name_direction_prefix" v="Southeast"/>
    <tag k="name_type" v="Drive"/>
    <tag k="ref" v="OR 224"/>
    <tag k="zip_left" v="97015"/>
    <tag k="zip_right" v="97015"/>
  </way>
  <way id="39565127" version="16" timestamp="2011-11-25T17:26:32Z" uid="207745" user="NE2" changeset="9945867">
    <nd ref="474202107"/>
    <nd ref="474202108"/>
    <tag k="RLIS:bicycle" v="caution_area"/>
    <tag k="RLIS:localid" v="324018"/>
    <tag k="RLIS:reviewed" v="no"/>
    <tag k="bicycle" v="yes"/>
    <tag k="bridge" v="yes"/>
    <tag k="hgv" v="designated"/>
    <tag k="hgv:national_network" v="yes"/>
    <tag k="highway" v="trunk"/>
    <tag k="lanes" v="4"/>
    <tag k="layer" v="1"/>
    <tag k="name" v="Southeast 82nd Drive"/>
    <tag k="name_base" v="82nd"/>
    <tag k="name_direction_prefix" v="Southeast"/>
    <tag k="name_type" v="Drive"/>
    <tag k="ref" v="OR 224"/>
    <tag k="source:hgv:national_network" v="Title 23: Highways Part 658 http://ecfr.gpoaccess.gov/cgi/t/text/text-idx?c=ecfr&amp;rgn=div5&amp;view=text&amp;node=23:1.0.1.7.33&amp;idno=23"/>
    <tag k="zip_left" v="97015"/>
    <tag k="zip_right" v="97015"/>
  </way>
  <way id="39565127" version="17" timestamp="2011-12-14T02:22:07Z" uid="372357" user="PJ Houser" changeset="10112700">
    <nd ref="474202107"/>
    <nd ref="474202108"/>
    <tag k="RLIS:bicycle" v="caution_area"/>
    <tag k="RLIS:localid" v="324018"/>
    <tag k="RLIS:reviewed" v="no"/>
    <tag k="bicycle" v="yes"/>
    <tag k="bridge" v="yes"/>
    <tag k="hgv" v="designated"/>
    <tag k="hgv:national_network" v="yes"/>
    <tag k="highway" v="trunk"/>
    <tag k="lanes" v="4"/>
    <tag k="layer" v="1"/>
    <tag k="name" v="Southeast 82nd Drive"/>
    <tag k="ref" v="OR 224"/>
    <tag k="source:hgv:national_network" v="Title 23: Highways Part 658 http://ecfr.gpoaccess.gov/cgi/t/text/text-idx?c=ecfr&amp;rgn=div5&amp;view=text&amp;node=23:1.0.1.7.33&amp;idno=23"/>
    <tag k="zip_left" v="97015"/>
    <tag k="zip_right" v="97015"/>
  </way>
  <way id="39565129" version="3" timestamp="2010-03-22T07:34:08Z" uid="20587" user="balrog-kun" changeset="4199043">
    <nd ref="474202108"/>
    <nd ref="474202097"/>
    <tag k="bicycle" v="designated"/>
    <tag k="highway" v="secondary"/>
    <tag k="layer" v="1"/>
    <tag k="name" v="Southeast 82nd Drive"/>
  </way>
  <way id="39565129" version="4" timestamp="2010-12-19T21:20:36Z" uid="373763" user="ylekot" changeset="6710903">
    <nd ref="474202108"/>
    <nd ref="474202097"/>
    <tag k="bicycle" v="designated"/>
    <tag k="highway" v="tertiary"/>
    <tag k="layer" v="1"/>
    <tag k="name" v="Southeast 82nd Drive"/>
  </way>
  <way id="39565129" version="5" timestamp="2010-12-22T03:28:06Z" uid="373763" user="ylekot" changeset="6732061">
    <nd ref="474202108"/>
    <nd ref="474202097"/>
    <tag k="bicycle" v="designated"/>
    <tag k="highway" v="tertiary"/>
    <tag k="layer" v="1"/>
    <tag k="name" v="Southeast 82nd Drive"/>
    <tag k="ref" v="OR 224"/>
  </way>
  <way id="39565129" version="6" timestamp="2010-12-22T03:28:48Z" uid="373763" user="ylekot" changeset="6732063">
    <nd ref="474202108"/>
    <nd ref="474202097"/>
    <tag k="bicycle" v="designated"/>
    <tag k="highway" v="trunk"/>
    <tag k="layer" v="1"/>
    <tag k="name" v="Southeast 82nd Drive"/>
    <tag k="ref" v="OR 224"/>
  </way>
  <way id="39565129" version="7" timestamp="2011-03-25T23:25:20Z" uid="92286" user="Paul Johnson" changeset="7670923">
    <nd ref="474202108"/>
    <nd ref="474202097"/>
    <tag k="highway" v="trunk"/>
    <tag k="layer" v="1"/>
    <tag k="name" v="Southeast 82nd Drive"/>
    <tag k="ref" v="OR 224"/>
  </way>
  <way id="39565129" version="8" timestamp="2011-04-08T22:11:11Z" uid="371688" user="betsy" changeset="7808734">
    <nd ref="474202097"/>
    <nd ref="474202108"/>
    <tag k="highway" v="trunk"/>
    <tag k="layer" v="1"/>
    <tag k="name" v="Southeast 82nd Drive"/>
    <tag k="ref" v="OR 224"/>
  </way>
  <way id="39565129" version="9" timestamp="2011-06-16T22:56:14Z" uid="371688" user="betsy" changeset="8460948">
    <nd ref="474202097"/>
    <nd ref="474202108"/>
    <tag k="highway" v="secondary"/>
    <tag k="layer" v="1"/>
    <tag k="name" v="Southeast 82nd Drive"/>
    <tag k="ref" v="OR 224"/>
  </way>
  <way id="39565129" version="10" timestamp="2011-06-23T02:09:27Z" uid="473471" user="NE3" changeset="8520254">
    <nd ref="474202097"/>
    <nd ref="474202108"/>
    <tag k="highway" v="trunk"/>
    <tag k="lanes" v="4"/>
    <tag k="layer" v="1"/>
    <tag k="name" v="Southeast 82nd Drive"/>
    <tag k="ref" v="OR 224"/>
  </way>
  <way id="39565129" version="11" timestamp="2011-06-28T18:35:06Z" uid="371688" user="betsy" changeset="8574010">
    <nd ref="474202097"/>
    <nd ref="474202108"/>
    <tag k="highway" v="secondary"/>
    <tag k="lanes" v="4"/>
    <tag k="layer" v="1"/>
    <tag k="name" v="Southeast 82nd Drive"/>
    <tag k="ref" v="OR 224"/>
  </way>
  <way id="39565129" version="12" timestamp="2011-07-06T23:44:55Z" uid="362111" user="Mele Sax-Barnett" changeset="8653334">
    <nd ref="474202097"/>
    <nd ref="1351946311"/>
    <tag k="highway" v="secondary"/>
    <tag k="lanes" v="4"/>
    <tag k="layer" v="1"/>
    <tag k="name" v="Southeast 82nd Drive"/>
    <tag k="ref" v="OR 224"/>
  </way>
  <way id="39565129" version="13" timestamp="2011-07-30T00:15:53Z" uid="371688" user="betsy" changeset="8868260">
    <nd ref="474202097"/>
    <nd ref="1351946311"/>
    <tag k="RLIS:bicycle" v="caution_area"/>
    <tag k="highway" v="secondary"/>
    <tag k="lanes" v="4"/>
    <tag k="layer" v="1"/>
    <tag k="name" v="Southeast 82nd Drive"/>
    <tag k="ref" v="OR 224"/>
  </way>
  <way id="39565129" version="14" timestamp="2011-09-12T20:06:11Z" uid="362111" user="Mele Sax-Barnett" changeset="9283700"/>
  <way id="39565145" version="3" timestamp="2010-03-22T07:34:08Z" uid="20587" user="balrog-kun" changeset="4199043">
    <nd ref="37350034"/>
    <nd ref="474202107"/>
    <tag k="bicycle" v="designated"/>
    <tag k="highway" v="secondary"/>
    <tag k="layer" v="1"/>
    <tag k="name" v="Southeast 82nd Drive"/>
  </way>
  <way id="39565145" version="4" timestamp="2010-12-22T03:28:07Z" uid="373763" user="ylekot" changeset="6732061">
    <nd ref="37350034"/>
    <nd ref="474202107"/>
    <tag k="bicycle" v="designated"/>
    <tag k="highway" v="secondary"/>
    <tag k="layer" v="1"/>
    <tag k="name" v="Southeast 82nd Drive"/>
    <tag k="ref" v="OR 224"/>
  </way>
  <way id="39565145" version="5" timestamp="2010-12-22T03:28:48Z" uid="373763" user="ylekot" changeset="6732063">
    <nd ref="37350034"/>
    <nd ref="474202107"/>
    <tag k="bicycle" v="designated"/>
    <tag k="highway" v="trunk"/>
    <tag k="layer" v="1"/>
    <tag k="name" v="Southeast 82nd Drive"/>
    <tag k="ref" v="OR 224"/>
  </way>
  <way id="39565145" version="6" timestamp="2011-03-25T23:27:01Z" uid="92286" user="Paul Johnson" changeset="7670923">
    <nd ref="37350034"/>
    <nd ref="474202107"/>
    <tag k="highway" v="trunk"/>
    <tag k="layer" v="1"/>
    <tag k="name" v="Southeast 82nd Drive"/>
    <tag k="ref" v="OR 224"/>
  </way>
  <way id="39565145" version="7" timestamp="2011-04-08T22:11:05Z" uid="371688" user="betsy" changeset="7808734">
    <nd ref="474202107"/>
    <nd ref="37350034"/>
    <tag k="highway" v="primary"/>
    <tag k="layer" v="1"/>
    <tag k="name" v="Southeast 82nd Drive"/>
    <tag k="ref" v="OR 224"/>
  </way>
  <way id="39565145" version="8" timestamp="2011-05-06T18:54:08Z" uid="371688" user="betsy" changeset="8067704">
    <nd ref="474202107"/>
    <nd ref="37350034"/>
    <tag k="highway" v="secondary"/>
    <tag k="name" v="Southeast 82nd Drive"/>
    <tag k="ref" v="OR 224"/>
  </way>
  <way id="39565145" version="9" timestamp="2011-06-16T22:55:41Z" uid="371688" user="betsy" changeset="8460948">
    <nd ref="474202107"/>
    <nd ref="37350034"/>
    <tag k="RLIS:localid" v="324018"/>
    <tag k="RLIS:reviewed" v="no"/>
    <tag k="highway" v="secondary"/>
    <tag k="name" v="Southeast 82nd Drive"/>
    <tag k="name_base" v="82nd"/>
    <tag k="name_direction_prefix" v="Southeast"/>
    <tag k="name_type" v="Drive"/>
    <tag k="ref" v="OR 224"/>
    <tag k="zip_left" v="97015"/>
    <tag k="zip_right" v="97015"/>
  </way>
  <way id="39565145" version="10" timestamp="2011-06-23T02:12:47Z" uid="473471" user="NE3" changeset="8520254">
    <nd ref="474202107"/>
    <nd ref="37350034"/>
    <tag k="RLIS:localid" v="324018"/>
    <tag k="RLIS:reviewed" v="no"/>
    <tag k="highway" v="trunk"/>
    <tag k="lanes" v="4"/>
    <tag k="name" v="Southeast 82nd Drive"/>
    <tag k="name_base" v="82nd"/>
    <tag k="name_direction_prefix" v="Southeast"/>
    <tag k="name_type" v="Drive"/>
    <tag k="ref" v="OR 224"/>
    <tag k="zip_left" v="97015"/>
    <tag k="zip_right" v="97015"/>
  </way>
  <way id="39565145" version="11" timestamp="2011-06-28T18:35:07Z" uid="371688" user="betsy" changeset="8574010">
    <nd ref="474202107"/>
    <nd ref="37350034"/>
    <tag k="RLIS:localid" v="324018"/>
    <tag k="RLIS:reviewed" v="no"/>
    <tag k="highway" v="secondary"/>
    <tag k="lanes" v="4"/>
    <tag k="name" v="Southeast 82nd Drive"/>
    <tag k="name_base" v="82nd"/>
    <tag k="name_direction_prefix" v="Southeast"/>
    <tag k="name_type" v="Drive"/>
    <tag k="ref" v="OR 224"/>
    <tag k="zip_left" v="97015"/>
    <tag k="zip_right" v="97015"/>
  </way>
  <way id="39565145" version="12" timestamp="2011-07-30T00:15:54Z" uid="371688" user="betsy" changeset="8868260">
    <nd ref="474202107"/>
    <nd ref="37350034"/>
    <tag k="RLIS:bicycle" v="caution_area"/>
    <tag k="RLIS:localid" v="324018"/>
    <tag k="RLIS:reviewed" v="no"/>
    <tag k="highway" v="secondary"/>
    <tag k="lanes" v="4"/>
    <tag k="name" v="Southeast 82nd Drive"/>
    <tag k="name_base" v="82nd"/>
    <tag k="name_direction_prefix" v="Southeast"/>
    <tag k="name_type" v="Drive"/>
    <tag k="ref" v="OR 224"/>
    <tag k="zip_left" v="97015"/>
    <tag k="zip_right" v="97015"/>
  </way>
  <way id="39565145" version="13" timestamp="2011-09-15T00:59:11Z" uid="362111" user="Mele Sax-Barnett" changeset="9304448">
    <nd ref="474202107"/>
    <nd ref="37350034"/>
    <tag k="RLIS:bicycle" v="caution_area"/>
    <tag k="RLIS:localid" v="324018"/>
    <tag k="RLIS:reviewed" v="no"/>
    <tag k="highway" v="trunk"/>
    <tag k="lanes" v="4"/>
    <tag k="name" v="Southeast 82nd Drive"/>
    <tag k="name_base" v="82nd"/>
    <tag k="name_direction_prefix" v="Southeast"/>
    <tag k="name_type" v="Drive"/>
    <tag k="ref" v="OR 224"/>
    <tag k="zip_left" v="97015"/>
    <tag k="zip_right" v="97015"/>
  </way>
  <way id="39565145" version="14" timestamp="2011-09-15T01:12:07Z" uid="362111" user="Mele Sax-Barnett" changeset="9304467">
    <nd ref="474202107"/>
    <nd ref="37350034"/>
    <tag k="RLIS:bicycle" v="caution_area"/>
    <tag k="RLIS:localid" v="324018"/>
    <tag k="RLIS:reviewed" v="no"/>
    <tag k="bicycle" v="yes"/>
    <tag k="highway" v="trunk"/>
    <tag k="lanes" v="4"/>
    <tag k="name" v="Southeast 82nd Drive"/>
    <tag k="name_base" v="82nd"/>
    <tag k="name_direction_prefix" v="Southeast"/>
    <tag k="name_type" v="Drive"/>
    <tag k="ref" v="OR 224"/>
    <tag k="zip_left" v="97015"/>
    <tag k="zip_right" v="97015"/>
  </way>
  <way id="39565145" version="15" timestamp="2011-11-25T17:26:33Z" uid="207745" user="NE2" changeset="9945867">
    <nd ref="37350034"/>
    <nd ref="474202107"/>
    <tag k="RLIS:bicycle" v="caution_area"/>
    <tag k="RLIS:localid" v="324018"/>
    <tag k="RLIS:reviewed" v="no"/>
    <tag k="bicycle" v="yes"/>
    <tag k="hgv" v="designated"/>
    <tag k="hgv:national_network" v="yes"/>
    <tag k="highway" v="trunk"/>
    <tag k="lanes" v="4"/>
    <tag k="name" v="Southeast 82nd Drive"/>
    <tag k="name_base" v="82nd"/>
    <tag k="name_direction_prefix" v="Southeast"/>
    <tag k="name_type" v="Drive"/>
    <tag k="ref" v="OR 224"/>
    <tag k="source:hgv:national_network" v="Title 23: Highways Part 658 http://ecfr.gpoaccess.gov/cgi/t/text/text-idx?c=ecfr&amp;rgn=div5&amp;view=text&amp;node=23:1.0.1.7.33&amp;idno=23"/>
    <tag k="zip_left" v="97015"/>
    <tag k="zip_right" v="97015"/>
  </way>
  <way id="39565145" version="16" timestamp="2011-12-14T02:22:08Z" uid="372357" user="PJ Houser" changeset="10112700">
    <nd ref="37350034"/>
    <nd ref="474202107"/>
    <tag k="RLIS:bicycle" v="caution_area"/>
    <tag k="RLIS:localid" v="324018"/>
    <tag k="RLIS:reviewed" v="no"/>
    <tag k="bicycle" v="yes"/>
    <tag k="hgv" v="designated"/>
    <tag k="hgv:national_network" v="yes"/>
    <tag k="highway" v="trunk"/>
    <tag k="lanes" v="4"/>
    <tag k="name" v="Southeast 82nd Drive"/>
    <tag k="ref" v="OR 224"/>
    <tag k="source:hgv:national_network" v="Title 23: Highways Part 658 http://ecfr.gpoaccess.gov/cgi/t/text/text-idx?c=ecfr&amp;rgn=div5&amp;view=text&amp;node=23:1.0.1.7.33&amp;idno=23"/>
    <tag k="zip_left" v="97015"/>
    <tag k="zip_right" v="97015"/>
  </way>
  <way id="39565146" version="3" timestamp="2010-03-22T07:34:08Z" uid="20587" user="balrog-kun" changeset="4199043">
    <nd ref="37332424"/>
    <nd ref="37350034"/>
    <tag k="bicycle" v="designated"/>
    <tag k="highway" v="secondary"/>
    <tag k="layer" v="1"/>
    <tag k="name" v="Southeast 82nd Drive"/>
  </way>
  <way id="39565146" version="4" timestamp="2010-12-19T21:20:37Z" uid="373763" user="ylekot" changeset="6710903">
    <nd ref="37332424"/>
    <nd ref="37350034"/>
    <tag k="bicycle" v="designated"/>
    <tag k="highway" v="tertiary"/>
    <tag k="layer" v="1"/>
    <tag k="name" v="Southeast 82nd Drive"/>
  </way>
  <way id="39565146" version="5" timestamp="2011-03-25T23:22:34Z" uid="92286" user="Paul Johnson" changeset="7670923">
    <nd ref="37332424"/>
    <nd ref="37350034"/>
    <tag k="highway" v="tertiary"/>
    <tag k="layer" v="1"/>
    <tag k="name" v="Southeast 82nd Drive"/>
  </way>
  <way id="39565146" version="6" timestamp="2011-04-08T22:11:10Z" uid="371688" user="betsy" changeset="7808734">
    <nd ref="37350034"/>
    <nd ref="1237852046"/>
    <nd ref="37332424"/>
    <tag k="highway" v="primary"/>
    <tag k="layer" v="1"/>
    <tag k="name" v="Southeast 82nd Drive"/>
  </way>
  <way id="39565146" version="7" timestamp="2011-05-06T18:54:19Z" uid="371688" user="betsy" changeset="8067704">
    <nd ref="37350034"/>
    <nd ref="1237852046"/>
    <nd ref="37332424"/>
    <tag k="highway" v="secondary"/>
    <tag k="name" v="Southeast 82nd Drive"/>
    <tag k="ref" v="OR 224"/>
  </way>
  <way id="39565146" version="8" timestamp="2011-06-16T22:55:46Z" uid="371688" user="betsy" changeset="8460948">
    <nd ref="37350034"/>
    <nd ref="1237852046"/>
    <nd ref="37332424"/>
    <tag k="RLIS:localid" v="305134"/>
    <tag k="RLIS:reviewed" v="no"/>
    <tag k="highway" v="secondary"/>
    <tag k="name" v="Southeast 82nd Drive"/>
    <tag k="name_base" v="82nd"/>
    <tag k="name_direction_prefix" v="Southeast"/>
    <tag k="name_type" v="Drive"/>
    <tag k="ref" v="OR 224"/>
    <tag k="zip_left" v="97015"/>
    <tag k="zip_right" v="97015"/>
  </way>
  <way id="39565146" version="9" timestamp="2011-06-23T02:07:14Z" uid="473471" user="NE3" changeset="8520254">
    <nd ref="37350034"/>
    <nd ref="1237852046"/>
    <nd ref="37332424"/>
    <tag k="RLIS:localid" v="305134"/>
    <tag k="RLIS:reviewed" v="no"/>
    <tag k="highway" v="trunk"/>
    <tag k="lanes" v="3"/>
    <tag k="name" v="Southeast 82nd Drive"/>
    <tag k="name_base" v="82nd"/>
    <tag k="name_direction_prefix" v="Southeast"/>
    <tag k="name_type" v="Drive"/>
    <tag k="note:lanes" v="1 westbound, 2 eastbound"/>
    <tag k="ref" v="OR 224"/>
    <tag k="zip_left" v="97015"/>
    <tag k="zip_right" v="97015"/>
  </way>
  <way id="39565146" version="10" timestamp="2011-06-28T18:35:06Z" uid="371688" user="betsy" changeset="8574010">
    <nd ref="37350034"/>
    <nd ref="1237852046"/>
    <nd ref="37332424"/>
    <tag k="RLIS:localid" v="305134"/>
    <tag k="RLIS:reviewed" v="no"/>
    <tag k="highway" v="secondary"/>
    <tag k="lanes" v="3"/>
    <tag k="name" v="Southeast 82nd Drive"/>
    <tag k="name_base" v="82nd"/>
    <tag k="name_direction_prefix" v="Southeast"/>
    <tag k="name_type" v="Drive"/>
    <tag k="note:lanes" v="1 westbound, 2 eastbound"/>
    <tag k="ref" v="OR 224"/>
    <tag k="zip_left" v="97015"/>
    <tag k="zip_right" v="97015"/>
  </way>
  <way id="39565146" version="11" timestamp="2011-07-30T00:15:57Z" uid="371688" user="betsy" changeset="8868260">
    <nd ref="37350034"/>
    <nd ref="1237852046"/>
    <nd ref="37332424"/>
    <tag k="RLIS:bicycle" v="caution_area"/>
    <tag k="RLIS:localid" v="305134"/>
    <tag k="RLIS:reviewed" v="no"/>
    <tag k="highway" v="secondary"/>
    <tag k="lanes" v="3"/>
    <tag k="name" v="Southeast 82nd Drive"/>
    <tag k="name_base" v="82nd"/>
    <tag k="name_direction_prefix" v="Southeast"/>
    <tag k="name_type" v="Drive"/>
    <tag k="note:lanes" v="1 westbound, 2 eastbound"/>
    <tag k="ref" v="OR 224"/>
    <tag k="zip_left" v="97015"/>
    <tag k="zip_right" v="97015"/>
  </way>
  <way id="39565146" version="12" timestamp="2011-09-15T00:59:12Z" uid="362111" user="Mele Sax-Barnett" changeset="9304448">
    <nd ref="37350034"/>
    <nd ref="1237852046"/>
    <nd ref="37332424"/>
    <tag k="RLIS:bicycle" v="caution_area"/>
    <tag k="RLIS:localid" v="305134"/>
    <tag k="RLIS:reviewed" v="no"/>
    <tag k="highway" v="trunk"/>
    <tag k="lanes" v="3"/>
    <tag k="name" v="Southeast 82nd Drive"/>
    <tag k="name_base" v="82nd"/>
    <tag k="name_direction_prefix" v="Southeast"/>
    <tag k="name_type" v="Drive"/>
    <tag k="note:lanes" v="1 westbound, 2 eastbound"/>
    <tag k="ref" v="OR 224"/>
    <tag k="zip_left" v="97015"/>
    <tag k="zip_right" v="97015"/>
  </way>
  <way id="39565146" version="13" timestamp="2011-09-15T01:12:09Z" uid="362111" user="Mele Sax-Barnett" changeset="9304467">
    <nd ref="37350034"/>
    <nd ref="1237852046"/>
    <nd ref="37332424"/>
    <tag k="RLIS:bicycle" v="caution_area"/>
    <tag k="RLIS:localid" v="305134"/>
    <tag k="RLIS:reviewed" v="no"/>
    <tag k="bicycle" v="yes"/>
    <tag k="highway" v="trunk"/>
    <tag k="lanes" v="3"/>
    <tag k="name" v="Southeast 82nd Drive"/>
    <tag k="name_base" v="82nd"/>
    <tag k="name_direction_prefix" v="Southeast"/>
    <tag k="name_type" v="Drive"/>
    <tag k="note:lanes" v="1 westbound, 2 eastbound"/>
    <tag k="ref" v="OR 224"/>
    <tag k="zip_left" v="97015"/>
    <tag k="zip_right" v="97015"/>
  </way>
  <way id="39565146" version="14" timestamp="2011-11-25T17:26:34Z" uid="207745" user="NE2" changeset="9945867">
    <nd ref="37350034"/>
    <nd ref="1237852046"/>
    <nd ref="37332424"/>
    <tag k="RLIS:bicycle" v="caution_area"/>
    <tag k="RLIS:localid" v="305134"/>
    <tag k="RLIS:reviewed" v="no"/>
    <tag k="bicycle" v="yes"/>
    <tag k="highway" v="trunk"/>
    <tag k="lanes" v="3"/>
    <tag k="name" v="Southeast 82nd Drive"/>
    <tag k="name_base" v="82nd"/>
    <tag k="name_direction_prefix" v="Southeast"/>
    <tag k="name_type" v="Drive"/>
    <tag k="note:lanes" v="1 westbound, 2 eastbound"/>
    <tag k="zip_left" v="97015"/>
    <tag k="zip_right" v="97015"/>
  </way>
  <way id="39565146" version="15" timestamp="2011-12-14T02:22:12Z" uid="372357" user="PJ Houser" changeset="10112700">
    <nd ref="37350034"/>
    <nd ref="1237852046"/>
    <nd ref="37332424"/>
    <tag k="RLIS:bicycle" v="caution_area"/>
    <tag k="RLIS:localid" v="305134"/>
    <tag k="RLIS:reviewed" v="no"/>
    <tag k="bicycle" v="yes"/>
    <tag k="highway" v="trunk"/>
    <tag k="lanes" v="3"/>
    <tag k="name" v="Southeast 82nd Drive"/>
    <tag k="note:lanes" v="1 westbound, 2 eastbound"/>
    <tag k="zip_left" v="97015"/>
    <tag k="zip_right" v="97015"/>
  </way>
  <way id="39565148" version="3" timestamp="2010-03-22T07:34:08Z" uid="20587" user="balrog-kun" changeset="4199043">
    <nd ref="37532393"/>
    <nd ref="37332424"/>
    <tag k="bicycle" v="designated"/>
    <tag k="highway" v="secondary"/>
    <tag k="layer" v="1"/>
    <tag k="name" v="Southeast 82nd Drive"/>
  </way>
  <way id="39565148" version="4" timestamp="2010-12-19T21:20:39Z" uid="373763" user="ylekot" changeset="6710903">
    <nd ref="37532393"/>
    <nd ref="37332424"/>
    <tag k="bicycle" v="designated"/>
    <tag k="highway" v="tertiary"/>
    <tag k="layer" v="1"/>
    <tag k="name" v="Southeast 82nd Drive"/>
  </way>
  <way id="39565148" version="5" timestamp="2011-03-25T23:26:10Z" uid="92286" user="Paul Johnson" changeset="7670923">
    <nd ref="37532393"/>
    <nd ref="37332424"/>
    <tag k="highway" v="tertiary"/>
    <tag k="layer" v="1"/>
    <tag k="name" v="Southeast 82nd Drive"/>
  </way>
  <way id="39565148" version="6" timestamp="2011-04-08T22:11:14Z" uid="371688" user="betsy" changeset="7808734">
    <nd ref="37332424"/>
    <nd ref="37532393"/>
    <tag k="highway" v="primary"/>
    <tag k="layer" v="1"/>
    <tag k="name" v="Southeast 82nd Drive"/>
  </way>
  <way id="39565148" version="7" timestamp="2011-05-06T18:54:41Z" uid="371688" user="betsy" changeset="8067704">
    <nd ref="37332424"/>
    <nd ref="37532393"/>
    <tag k="highway" v="secondary"/>
    <tag k="name" v="Southeast 82nd Drive"/>
    <tag k="ref" v="OR 224"/>
  </way>
  <way id="39565148" version="8" timestamp="2011-06-16T22:56:09Z" uid="371688" user="betsy" changeset="8460948">
    <nd ref="37332424"/>
    <nd ref="37532393"/>
    <tag k="RLIS:localid" v="305134"/>
    <tag k="RLIS:reviewed" v="no"/>
    <tag k="highway" v="secondary"/>
    <tag k="name" v="Southeast 82nd Drive"/>
    <tag k="name_base" v="82nd"/>
    <tag k="name_direction_prefix" v="Southeast"/>
    <tag k="name_type" v="Drive"/>
    <tag k="ref" v="OR 224"/>
    <tag k="zip_left" v="97015"/>
    <tag k="zip_right" v="97015"/>
  </way>
  <way id="39565148" version="9" timestamp="2011-06-23T02:08:57Z" uid="473471" user="NE3" changeset="8520254">
    <nd ref="37332424"/>
    <nd ref="37532393"/>
    <tag k="RLIS:localid" v="305134"/>
    <tag k="RLIS:reviewed" v="no"/>
    <tag k="highway" v="trunk"/>
    <tag k="lanes" v="3"/>
    <tag k="name" v="Southeast 82nd Drive"/>
    <tag k="name_base" v="82nd"/>
    <tag k="name_direction_prefix" v="Southeast"/>
    <tag k="name_type" v="Drive"/>
    <tag k="note:lanes" v="1 westbound, 2 eastbound"/>
    <tag k="ref" v="OR 224"/>
    <tag k="zip_left" v="97015"/>
    <tag k="zip_right" v="97015"/>
  </way>
  <way id="39565148" version="10" timestamp="2011-06-28T18:35:08Z" uid="371688" user="betsy" changeset="8574010">
    <nd ref="37332424"/>
    <nd ref="37532393"/>
    <tag k="RLIS:localid" v="305134"/>
    <tag k="RLIS:reviewed" v="no"/>
    <tag k="highway" v="secondary"/>
    <tag k="lanes" v="3"/>
    <tag k="name" v="Southeast 82nd Drive"/>
    <tag k="name_base" v="82nd"/>
    <tag k="name_direction_prefix" v="Southeast"/>
    <tag k="name_type" v="Drive"/>
    <tag k="note:lanes" v="1 westbound, 2 eastbound"/>
    <tag k="ref" v="OR 224"/>
    <tag k="zip_left" v="97015"/>
    <tag k="zip_right" v="97015"/>
  </way>
  <way id="39565148" version="11" timestamp="2011-07-06T23:44:56Z" uid="362111" user="Mele Sax-Barnett" changeset="8653334">
    <nd ref="37332424"/>
    <nd ref="1351946282"/>
    <nd ref="1351946278"/>
    <nd ref="37532393"/>
    <tag k="RLIS:localid" v="305134"/>
    <tag k="RLIS:reviewed" v="no"/>
    <tag k="highway" v="secondary"/>
    <tag k="lanes" v="3"/>
    <tag k="name" v="Southeast 82nd Drive"/>
    <tag k="name_base" v="82nd"/>
    <tag k="name_direction_prefix" v="Southeast"/>
    <tag k="name_type" v="Drive"/>
    <tag k="note:lanes" v="1 westbound, 2 eastbound"/>
    <tag k="ref" v="OR 224"/>
    <tag k="zip_left" v="97015"/>
    <tag k="zip_right" v="97015"/>
  </way>
  <way id="39565148" version="12" timestamp="2011-07-30T00:15:57Z" uid="371688" user="betsy" changeset="8868260">
    <nd ref="37332424"/>
    <nd ref="1351946282"/>
    <nd ref="1351946278"/>
    <nd ref="37532393"/>
    <tag k="RLIS:bicycle" v="caution_area"/>
    <tag k="RLIS:localid" v="305134"/>
    <tag k="RLIS:reviewed" v="no"/>
    <tag k="highway" v="secondary"/>
    <tag k="lanes" v="3"/>
    <tag k="name" v="Southeast 82nd Drive"/>
    <tag k="name_base" v="82nd"/>
    <tag k="name_direction_prefix" v="Southeast"/>
    <tag k="name_type" v="Drive"/>
    <tag k="note:lanes" v="1 westbound, 2 eastbound"/>
    <tag k="ref" v="OR 224"/>
    <tag k="zip_left" v="97015"/>
    <tag k="zip_right" v="97015"/>
  </way>
  <way id="39565148" version="13" timestamp="2011-09-15T00:59:12Z" uid="362111" user="Mele Sax-Barnett" changeset="9304448">
    <nd ref="37332424"/>
    <nd ref="1351946282"/>
    <nd ref="1433163319"/>
    <nd ref="1351946278"/>
    <nd ref="1433163318"/>
    <nd ref="37532393"/>
    <tag k="RLIS:bicycle" v="caution_area"/>
    <tag k="RLIS:localid" v="305134"/>
    <tag k="RLIS:reviewed" v="no"/>
    <tag k="highway" v="secondary"/>
    <tag k="lanes" v="3"/>
    <tag k="name" v="Southeast 82nd Drive"/>
    <tag k="name_base" v="82nd"/>
    <tag k="name_direction_prefix" v="Southeast"/>
    <tag k="name_type" v="Drive"/>
    <tag k="note:lanes" v="1 westbound, 2 eastbound"/>
    <tag k="ref" v="OR 224"/>
    <tag k="zip_left" v="97015"/>
    <tag k="zip_right" v="97015"/>
  </way>
  <way id="39565148" version="14" timestamp="2011-10-19T01:58:22Z" uid="372357" user="PJ Houser" changeset="9596193">
    <nd ref="37332424"/>
    <nd ref="1351946282"/>
    <nd ref="1433163319"/>
    <nd ref="1351946278"/>
    <nd ref="1433163318"/>
    <nd ref="37532393"/>
    <tag k="RLIS:bicycle" v="caution_area"/>
    <tag k="RLIS:localid" v="305134"/>
    <tag k="RLIS:reviewed" v="no"/>
    <tag k="highway" v="secondary"/>
    <tag k="lanes" v="3"/>
    <tag k="name" v="Southeast 82nd Drive"/>
    <tag k="note:lanes" v="1 westbound, 2 eastbound"/>
    <tag k="ref" v="OR 224"/>
    <tag k="zip_left" v="97015"/>
    <tag k="zip_right" v="97015"/>
  </way>
  <way id="39565148" version="15" timestamp="2011-11-25T17:26:35Z" uid="207745" user="NE2" changeset="9945867">
    <nd ref="37332424"/>
    <nd ref="1351946282"/>
    <nd ref="1433163319"/>
    <nd ref="1351946278"/>
    <nd ref="1433163318"/>
    <nd ref="37532393"/>
    <tag k="RLIS:bicycle" v="caution_area"/>
    <tag k="RLIS:localid" v="305134"/>
    <tag k="RLIS:reviewed" v="no"/>
    <tag k="highway" v="secondary"/>
    <tag k="lanes" v="3"/>
    <tag k="name" v="Southeast 82nd Drive"/>
    <tag k="note:lanes" v="1 westbound, 2 eastbound"/>
    <tag k="zip_left" v="97015"/>
    <tag k="zip_right" v="97015"/>
  </way>
  <way id="39565148" version="16" timestamp="2011-12-14T02:22:12Z" uid="372357" user="PJ Houser" changeset="10112700">
    <nd ref="37332424"/>
    <nd ref="1351946282"/>
    <nd ref="1433163319"/>
    <nd ref="1351946278"/>
    <nd ref="1433163318"/>
    <nd ref="37532393"/>
    <tag k="RLIS:bicycle" v="caution_area"/>
    <tag k="RLIS:localid" v="305134"/>
    <tag k="RLIS:reviewed" v="no"/>
    <tag k="bicycle" v="yes"/>
    <tag k="highway" v="secondary"/>
    <tag k="lanes" v="3"/>
    <tag k="name" v="Southeast 82nd Drive"/>
    <tag k="note:lanes" v="1 westbound, 2 eastbound"/>
    <tag k="zip_left" v="97015"/>
    <tag k="zip_right" v="97015"/>
  </way>
  <way id="39565150" version="4" timestamp="2010-03-22T07:34:08Z" uid="20587" user="balrog-kun" changeset="4199043">
    <nd ref="37306372"/>
    <nd ref="37370139"/>
    <nd ref="37487790"/>
    <nd ref="37487792"/>
    <nd ref="37487794"/>
    <nd ref="37487796"/>
    <nd ref="335035914"/>
    <nd ref="37487798"/>
    <nd ref="37487799"/>
    <nd ref="37487801"/>
    <nd ref="37487804"/>
    <nd ref="37487806"/>
    <nd ref="37487807"/>
    <nd ref="37487808"/>
    <nd ref="37487811"/>
    <nd ref="37487813"/>
    <nd ref="37487815"/>
    <nd ref="37487817"/>
    <nd ref="37395229"/>
    <nd ref="37487820"/>
    <nd ref="37487822"/>
    <tag k="bicycle" v="designated"/>
    <tag k="highway" v="tertiary"/>
    <tag k="name" v="Southeast 82nd Drive"/>
  </way>
  <way id="39565150" version="5" timestamp="2011-03-25T23:25:06Z" uid="92286" user="Paul Johnson" changeset="7670923">
    <nd ref="37306372"/>
    <nd ref="37370139"/>
    <nd ref="37487790"/>
    <nd ref="37487792"/>
    <nd ref="37487794"/>
    <nd ref="37487796"/>
    <nd ref="335035914"/>
    <nd ref="37487798"/>
    <nd ref="37487799"/>
    <nd ref="37487801"/>
    <nd ref="37487804"/>
    <nd ref="37487806"/>
    <nd ref="37487807"/>
    <nd ref="37487808"/>
    <nd ref="37487811"/>
    <nd ref="37487813"/>
    <nd ref="37487815"/>
    <nd ref="37487817"/>
    <nd ref="37395229"/>
    <nd ref="37487820"/>
    <nd ref="37487822"/>
    <tag k="highway" v="tertiary"/>
    <tag k="name" v="Southeast 82nd Drive"/>
  </way>
  <way id="39565150" version="6" timestamp="2011-03-25T23:40:05Z" uid="92286" user="Paul Johnson" changeset="7670923">
    <nd ref="37306372"/>
    <nd ref="37370139"/>
    <nd ref="37487790"/>
    <nd ref="37487792"/>
    <nd ref="37487794"/>
    <nd ref="37487796"/>
    <nd ref="335035914"/>
    <nd ref="37487798"/>
    <nd ref="37487799"/>
    <nd ref="37487801"/>
    <nd ref="37487804"/>
    <nd ref="37487806"/>
    <nd ref="37487807"/>
    <nd ref="37487808"/>
    <nd ref="37487811"/>
    <nd ref="37487813"/>
    <nd ref="37487815"/>
    <nd ref="37487817"/>
    <nd ref="37395229"/>
    <nd ref="37487820"/>
    <nd ref="37487822"/>
    <tag k="bicycle" v="yes"/>
    <tag k="highway" v="tertiary"/>
    <tag k="name" v="Southeast 82nd Drive"/>
  </way>
  <way id="39565150" version="7" timestamp="2011-04-08T22:11:08Z" uid="371688" user="betsy" changeset="7808734">
    <nd ref="37306372"/>
    <nd ref="37370139"/>
    <nd ref="37487790"/>
    <nd ref="1237852001"/>
    <nd ref="1237852013"/>
    <nd ref="37487792"/>
    <nd ref="37487794"/>
    <nd ref="37487796"/>
    <nd ref="335035914"/>
    <nd ref="37487799"/>
    <nd ref="37487801"/>
    <nd ref="37487804"/>
    <nd ref="37487806"/>
    <nd ref="1237852018"/>
    <nd ref="1237852025"/>
    <nd ref="37487807"/>
    <nd ref="37487808"/>
    <nd ref="37487811"/>
    <nd ref="37487813"/>
    <nd ref="37487815"/>
    <nd ref="1237852037"/>
    <nd ref="37487817"/>
    <nd ref="37395229"/>
    <nd ref="37487820"/>
    <nd ref="37487822"/>
    <tag k="RLIS:localid" v="305851"/>
    <tag k="RLIS:reviewed" v="no"/>
    <tag k="bicycle" v="yes"/>
    <tag k="highway" v="secondary"/>
    <tag k="name" v="Southeast 82nd Drive"/>
    <tag k="name_base" v="82nd"/>
    <tag k="name_direction_prefix" v="Southeast"/>
    <tag k="name_type" v="Drive"/>
    <tag k="zip_left" v="97015"/>
    <tag k="zip_right" v="97015"/>
  </way>
  <way id="39565150" version="8" timestamp="2011-04-30T00:50:29Z" uid="371688" user="betsy" changeset="8007983">
    <nd ref="37306372"/>
    <nd ref="37370139"/>
    <nd ref="37487790"/>
    <nd ref="1237852001"/>
    <nd ref="1237852013"/>
    <nd ref="37487792"/>
    <nd ref="37487794"/>
    <nd ref="37487796"/>
    <nd ref="335035914"/>
    <nd ref="37487799"/>
    <nd ref="37487801"/>
    <nd ref="37487804"/>
    <nd ref="37487806"/>
    <nd ref="1237852018"/>
    <nd ref="1237852025"/>
    <nd ref="37487807"/>
    <nd ref="37487808"/>
    <nd ref="37487811"/>
    <nd ref="37487813"/>
    <nd ref="37487815"/>
    <nd ref="1237852037"/>
    <nd ref="37487817"/>
    <nd ref="37395229"/>
    <nd ref="37487820"/>
    <nd ref="37487822"/>
    <tag k="RLIS:localid" v="305851"/>
    <tag k="RLIS:reviewed" v="no"/>
    <tag k="cycleway" v="lane"/>
    <tag k="highway" v="secondary"/>
    <tag k="name" v="Southeast 82nd Drive"/>
    <tag k="name_base" v="82nd"/>
    <tag k="name_direction_prefix" v="Southeast"/>
    <tag k="name_type" v="Drive"/>
    <tag k="zip_left" v="97015"/>
    <tag k="zip_right" v="97015"/>
  </way>
  <way id="39565150" version="9" timestamp="2011-06-16T22:56:23Z" uid="371688" user="betsy" changeset="8460948">
    <nd ref="37306372"/>
    <nd ref="37370139"/>
    <nd ref="37487790"/>
    <nd ref="1237852001"/>
    <nd ref="1237852013"/>
    <nd ref="37487792"/>
    <nd ref="37487794"/>
    <nd ref="37487796"/>
    <nd ref="335035914"/>
    <nd ref="37487799"/>
    <nd ref="37487801"/>
    <nd ref="37487804"/>
    <nd ref="37487806"/>
    <nd ref="1237852018"/>
    <nd ref="1237852025"/>
    <nd ref="37487807"/>
    <nd ref="37487808"/>
    <nd ref="37487811"/>
    <nd ref="37487813"/>
    <nd ref="37487815"/>
    <nd ref="1237852037"/>
    <nd ref="37487817"/>
    <nd ref="37395229"/>
    <nd ref="37487820"/>
    <nd ref="37487822"/>
    <tag k="RLIS:bicycle" v="designated"/>
    <tag k="RLIS:localid" v="305851"/>
    <tag k="RLIS:reviewed" v="no"/>
    <tag k="bicycle" v="designated"/>
    <tag k="cycleway" v="lane"/>
    <tag k="highway" v="secondary"/>
    <tag k="name" v="Southeast 82nd Drive"/>
    <tag k="name_base" v="82nd"/>
    <tag k="name_direction_prefix" v="Southeast"/>
    <tag k="name_type" v="Drive"/>
    <tag k="zip_left" v="97015"/>
    <tag k="zip_right" v="97015"/>
  </way>
  <way id="39565150" version="10" timestamp="2011-07-07T00:04:25Z" uid="362111" user="Mele Sax-Barnett" changeset="8653397">
    <nd ref="37306372"/>
    <nd ref="37370139"/>
    <nd ref="37487790"/>
    <nd ref="1237852001"/>
    <nd ref="1237852013"/>
    <nd ref="37487792"/>
    <nd ref="37487794"/>
    <nd ref="37487796"/>
    <nd ref="335035914"/>
    <nd ref="37487799"/>
    <nd ref="37487801"/>
    <nd ref="37487804"/>
    <nd ref="37487806"/>
    <nd ref="1237852018"/>
    <nd ref="1237852025"/>
    <nd ref="37487807"/>
    <nd ref="37487808"/>
    <nd ref="37487811"/>
    <nd ref="37487813"/>
    <nd ref="37487815"/>
    <nd ref="1237852037"/>
    <nd ref="1351963096"/>
    <nd ref="1351963094"/>
    <nd ref="37487817"/>
    <nd ref="37395229"/>
    <nd ref="37487822"/>
    <tag k="RLIS:bicycle" v="designated"/>
    <tag k="RLIS:localid" v="305851"/>
    <tag k="RLIS:reviewed" v="no"/>
    <tag k="bicycle" v="designated"/>
    <tag k="cycleway" v="lane"/>
    <tag k="highway" v="secondary"/>
    <tag k="name" v="Southeast 82nd Drive"/>
    <tag k="name_base" v="82nd"/>
    <tag k="name_direction_prefix" v="Southeast"/>
    <tag k="name_type" v="Drive"/>
    <tag k="zip_left" v="97015"/>
    <tag k="zip_right" v="97015"/>
  </way>
  <way id="39565150" version="11" timestamp="2011-07-22T18:29:37Z" uid="371688" user="betsy" changeset="8800091">
    <nd ref="37306372"/>
    <nd ref="37370139"/>
    <tag k="RLIS:bicycle" v="designated"/>
    <tag k="RLIS:localid" v="305851"/>
    <tag k="RLIS:reviewed" v="no"/>
    <tag k="bicycle" v="designated"/>
    <tag k="cycleway" v="lane"/>
    <tag k="highway" v="secondary"/>
    <tag k="name" v="Southeast 82nd Drive"/>
    <tag k="name_base" v="82nd"/>
    <tag k="name_direction_prefix" v="Southeast"/>
    <tag k="name_type" v="Drive"/>
    <tag k="zip_left" v="97015"/>
    <tag k="zip_right" v="97015"/>
  </way>
  <way id="39565150" version="12" timestamp="2011-09-15T01:12:08Z" uid="362111" user="Mele Sax-Barnett" changeset="9304467">
    <nd ref="37306372"/>
    <nd ref="37370139"/>
    <tag k="RLIS:localid" v="305851"/>
    <tag k="RLIS:reviewed" v="no"/>
    <tag k="highway" v="secondary"/>
    <tag k="name" v="Southeast 82nd Drive"/>
    <tag k="name_base" v="82nd"/>
    <tag k="name_direction_prefix" v="Southeast"/>
    <tag k="name_type" v="Drive"/>
    <tag k="zip_left" v="97015"/>
    <tag k="zip_right" v="97015"/>
  </way>
  <way id="39565150" version="13" timestamp="2011-10-19T01:58:21Z" uid="372357" user="PJ Houser" changeset="9596193">
    <nd ref="37306372"/>
    <nd ref="37370139"/>
    <tag k="RLIS:bicycle" v="caution_area"/>
    <tag k="RLIS:localid" v="305851"/>
    <tag k="RLIS:reviewed" v="no"/>
    <tag k="highway" v="secondary"/>
    <tag k="name" v="Southeast 82nd Drive"/>
    <tag k="zip_left" v="97015"/>
    <tag k="zip_right" v="97015"/>
  </way>
  <way id="39565150" version="14" timestamp="2011-12-14T02:22:05Z" uid="372357" user="PJ Houser" changeset="10112700">
    <nd ref="37306372"/>
    <nd ref="37370139"/>
    <tag k="RLIS:bicycle" v="caution_area"/>
    <tag k="RLIS:localid" v="305851"/>
    <tag k="RLIS:reviewed" v="no"/>
    <tag k="bicycle" v="yes"/>
    <tag k="highway" v="secondary"/>
    <tag k="name" v="Southeast 82nd Drive"/>
    <tag k="zip_left" v="97015"/>
    <tag k="zip_right" v="97015"/>
  </way>
  <way id="39565150" version="15" timestamp="2011-12-30T02:59:57Z" uid="393906" user="Grant Humphries" changeset="10241848">
    <nd ref="37306372"/>
    <nd ref="1568685681"/>
    <nd ref="37370139"/>
    <tag k="RLIS:bicycle" v="caution_area"/>
    <tag k="RLIS:localid" v="305851"/>
    <tag k="RLIS:reviewed" v="no"/>
    <tag k="bicycle" v="yes"/>
    <tag k="highway" v="secondary"/>
    <tag k="name" v="Southeast 82nd Drive"/>
    <tag k="zip_left" v="97015"/>
    <tag k="zip_right" v="97015"/>
  </way>
  <way id="39565312" version="2" timestamp="2009-10-04T19:43:51Z" uid="38528" user="acrosscanadatrails" changeset="2742299">
    <nd ref="474205965"/>
    <nd ref="474206146"/>
    <nd ref="474206150"/>
    <nd ref="474206154"/>
    <nd ref="474206157"/>
    <nd ref="520615014"/>
    <nd ref="520615015"/>
    <nd ref="474205899"/>
    <nd ref="474205912"/>
    <nd ref="474206161"/>
    <nd ref="474206164"/>
    <nd ref="474206167"/>
    <nd ref="280584217"/>
    <tag k="highway" v="residential"/>
    <tag k="name" v="Treanor Avenue"/>
  </way>
  <way id="39565312" version="3" timestamp="2010-01-31T06:28:40Z" uid="143129" user="petersfreeman" changeset="3756562">
    <nd ref="474205965"/>
    <nd ref="474206146"/>
    <nd ref="474206150"/>
    <nd ref="474206154"/>
    <nd ref="474206157"/>
    <nd ref="520615014"/>
    <nd ref="520615015"/>
    <nd ref="474205899"/>
    <nd ref="474205912"/>
    <nd ref="474206161"/>
    <nd ref="474206164"/>
    <nd ref="474206167"/>
    <nd ref="520585110"/>
    <tag k="highway" v="residential"/>
    <tag k="name" v="Treanor Avenue"/>
  </way>
  <way id="39565312" version="4" timestamp="2010-01-31T06:47:49Z" uid="143129" user="petersfreeman" changeset="3756589">
    <nd ref="474205965"/>
    <nd ref="474206146"/>
    <nd ref="474206150"/>
    <nd ref="474206154"/>
    <nd ref="474206157"/>
    <nd ref="520615014"/>
    <nd ref="520615015"/>
    <nd ref="474205899"/>
    <nd ref="474205912"/>
    <nd ref="474206161"/>
    <nd ref="474206164"/>
    <nd ref="474206167"/>
    <nd ref="520585110"/>
    <tag k="highway" v="residential"/>
    <tag k="name" v="Treanor Avenue"/>
  </way>
  <way id="39565312" version="5" timestamp="2010-02-05T02:28:56Z" uid="143129" user="petersfreeman" changeset="3795360">
    <nd ref="474205965"/>
    <nd ref="474206146"/>
    <nd ref="474206150"/>
    <nd ref="474206154"/>
    <nd ref="474206157"/>
    <nd ref="520615014"/>
    <nd ref="520615015"/>
    <nd ref="474205899"/>
    <nd ref="474205912"/>
    <nd ref="474206161"/>
    <nd ref="474206164"/>
    <nd ref="474206167"/>
    <nd ref="520579866"/>
    <tag k="highway" v="residential"/>
    <tag k="name" v="Treanor Avenue"/>
  </way>
  <way id="39565312" version="6" timestamp="2011-11-20T05:01:36Z" uid="307202" user="alester" changeset="9880192">
    <nd ref="474205965"/>
    <nd ref="474206146"/>
    <nd ref="474206150"/>
    <nd ref="474206154"/>
    <nd ref="474206157"/>
    <nd ref="520615014"/>
    <nd ref="520615015"/>
    <nd ref="474205899"/>
    <nd ref="474205912"/>
    <nd ref="474206161"/>
    <nd ref="474206164"/>
    <nd ref="474206167"/>
    <nd ref="1509423180"/>
    <nd ref="1509423181"/>
    <nd ref="520579866"/>
    <tag k="highway" v="residential"/>
    <tag k="name" v="Treanor Avenue"/>
  </way>
  <way id="39565312" version="7" timestamp="2012-03-03T17:21:38Z" uid="307202" user="alester" changeset="10860056">
    <nd ref="474205965"/>
    <nd ref="474206146"/>
    <nd ref="474206150"/>
    <nd ref="474206154"/>
    <nd ref="474206157"/>
    <nd ref="520615014"/>
    <nd ref="520615015"/>
    <nd ref="474205899"/>
    <nd ref="474205912"/>
    <nd ref="474206161"/>
    <nd ref="474206164"/>
    <nd ref="474206167"/>
    <nd ref="1509423180"/>
    <nd ref="1509423181"/>
    <tag k="highway" v="residential"/>
    <tag k="name" v="Treanor Avenue"/>
  </way>
  <way id="39565312" version="8" timestamp="2012-03-14T04:29:57Z" uid="307202" user="alester" changeset="10974301">
    <nd ref="474205965"/>
    <nd ref="474206146"/>
    <nd ref="474206150"/>
    <nd ref="474206154"/>
    <nd ref="474206157"/>
    <nd ref="520615015"/>
    <nd ref="474205899"/>
    <nd ref="474205912"/>
    <nd ref="474206161"/>
    <nd ref="474206164"/>
    <nd ref="474206167"/>
    <nd ref="1509423180"/>
    <nd ref="1509423181"/>
    <tag k="highway" v="residential"/>
    <tag k="name" v="Treanor Avenue"/>
  </way>
  <way id="39565418" version="2" timestamp="2009-12-27T09:06:00Z" uid="7617" user="Franc" changeset="3460729">
    <nd ref="26398092"/>
    <nd ref="139647142"/>
    <nd ref="599914446"/>
    <nd ref="26398093"/>
    <tag k="highway" v="residential"/>
    <tag k="source" v="nearmap"/>
  </way>
  <way id="39565418" version="3" timestamp="2009-12-30T05:50:36Z" uid="12203" user="brainwad" changeset="3487263">
    <nd ref="26398092"/>
    <nd ref="139647142"/>
    <nd ref="599914446"/>
    <nd ref="26398093"/>
    <tag k="highway" v="residential"/>
    <tag k="maxspeed" v="50"/>
    <tag k="source" v="nearmap"/>
    <tag k="source:maxspeed" v="state_limit"/>
  </way>
  <way id="39565418" version="4" timestamp="2010-03-12T08:13:20Z" uid="7617" user="Franc" changeset="4104157">
    <nd ref="26398092"/>
    <nd ref="139647142"/>
    <nd ref="599914446"/>
    <nd ref="26398093"/>
    <tag k="highway" v="residential"/>
    <tag k="maxspeed" v="50"/>
    <tag k="restriction" v="school_zone"/>
    <tag k="source" v="nearmap"/>
    <tag k="source:maxspeed" v="state_limit"/>
  </way>
  <way id="39565418" version="5" timestamp="2010-05-09T06:00:51Z" uid="244897" user="M526244" changeset="4644873">
    <nd ref="26398092"/>
    <nd ref="139647142"/>
    <nd ref="599914446"/>
    <nd ref="26398093"/>
    <tag k="highway" v="residential"/>
    <tag k="maxspeed" v="50"/>
    <tag k="name" v="Franklin Street"/>
    <tag k="restriction" v="school_zone"/>
    <tag k="source" v="nearmap"/>
    <tag k="source:maxspeed" v="state_limit"/>
  </way>
  <way id="39565419" version="2" timestamp="2009-12-11T00:43:49Z" uid="30201" user="rrankin" changeset="3346074">
    <nd ref="474218597"/>
    <nd ref="474218600"/>
    <tag k="cycleway" v="track"/>
    <tag k="foot" v="yes"/>
    <tag k="highway" v="cycleway"/>
    <tag k="lcn" v="yes"/>
    <tag k="source" v="local_knowledge"/>
  </way>
  <way id="39565528" version="3" timestamp="2010-03-22T07:34:08Z" uid="20587" user="balrog-kun" changeset="4199043">
    <nd ref="40442337"/>
    <nd ref="40405958"/>
    <nd ref="40426448"/>
    <nd ref="40405930"/>
    <nd ref="40617703"/>
    <nd ref="40617706"/>
    <nd ref="40388247"/>
    <nd ref="40617707"/>
    <nd ref="40617710"/>
    <nd ref="40617712"/>
    <nd ref="40568924"/>
    <nd ref="40617716"/>
    <nd ref="40617719"/>
    <nd ref="40617723"/>
    <nd ref="40617725"/>
    <nd ref="40617728"/>
    <nd ref="40617731"/>
    <nd ref="40617732"/>
    <nd ref="40617734"/>
    <nd ref="40421120"/>
    <nd ref="40472177"/>
    <nd ref="40421081"/>
    <nd ref="40617740"/>
    <nd ref="40617745"/>
    <nd ref="40617748"/>
    <nd ref="40617750"/>
    <nd ref="40617752"/>
    <nd ref="40407993"/>
    <nd ref="40452052"/>
    <nd ref="40426189"/>
    <nd ref="40442346"/>
    <nd ref="40617760"/>
    <nd ref="40442290"/>
    <tag k="highway" v="tertiary"/>
    <tag k="name" v="North Channel Avenue"/>
    <tag k="oneway" v="yes"/>
    <tag k="tiger:cfcc" v="A41"/>
    <tag k="tiger:county" v="Multnomah, OR"/>
    <tag k="tiger:name_base" v="Channel"/>
    <tag k="tiger:name_direction_prefix" v="N"/>
    <tag k="tiger:reviewed" v="no"/>
    <tag k="tiger:separated" v="no"/>
    <tag k="tiger:source" v="tiger_import_dch_v0.6_20070808"/>
    <tag k="tiger:tlid" v="157579916:157579917:157579854:157579855:157538336:157538090:157538083:157579872:157579874:157579876:157579878:157579879:157605779:157579994:157579996:157579998:157594833"/>
    <tag k="tiger:zip_left" v="97217"/>
    <tag k="tiger:zip_right" v="97217"/>
  </way>
  <way id="39565528" version="4" timestamp="2011-01-13T02:04:14Z" uid="121241" user="zephyr" changeset="6953601">
    <nd ref="40442337"/>
    <nd ref="40405958"/>
    <nd ref="40426448"/>
    <nd ref="40405930"/>
    <nd ref="40617703"/>
    <nd ref="40617706"/>
    <nd ref="40388247"/>
    <nd ref="40617707"/>
    <nd ref="40617710"/>
    <nd ref="40617712"/>
    <nd ref="40568924"/>
    <nd ref="40617716"/>
    <nd ref="40617719"/>
    <nd ref="40617723"/>
    <nd ref="1101022484"/>
    <nd ref="40617725"/>
    <nd ref="40617728"/>
    <nd ref="40617731"/>
    <nd ref="40617732"/>
    <nd ref="40483409"/>
    <nd ref="40617734"/>
    <nd ref="40421120"/>
    <nd ref="40472177"/>
    <nd ref="40421081"/>
    <nd ref="40617740"/>
    <nd ref="40617745"/>
    <nd ref="40617748"/>
    <nd ref="40617750"/>
    <nd ref="40617752"/>
    <nd ref="40407993"/>
    <nd ref="40452052"/>
    <nd ref="40426189"/>
    <nd ref="40442346"/>
    <nd ref="40617760"/>
    <nd ref="40442290"/>
    <tag k="highway" v="tertiary"/>
    <tag k="name" v="North Channel Avenue"/>
    <tag k="oneway" v="yes"/>
    <tag k="tiger:cfcc" v="A41"/>
    <tag k="tiger:county" v="Multnomah, OR"/>
    <tag k="tiger:name_base" v="Channel"/>
    <tag k="tiger:name_direction_prefix" v="N"/>
    <tag k="tiger:separated" v="no"/>
    <tag k="tiger:source" v="tiger_import_dch_v0.6_20070808"/>
    <tag k="tiger:tlid" v="157579916:157579917:157579854:157579855:157538336:157538090:157538083:157579872:157579874:157579876:157579878:157579879:157605779:157579994:157579996:157579998:157594833"/>
    <tag k="tiger:zip_left" v="97217"/>
    <tag k="tiger:zip_right" v="97217"/>
  </way>
  <way id="39565528" version="5" timestamp="2011-08-11T17:04:44Z" uid="362111" user="Mele Sax-Barnett" changeset="8987357">
    <nd ref="40442337"/>
    <nd ref="40405958"/>
    <nd ref="40426448"/>
    <nd ref="40405930"/>
    <nd ref="40617703"/>
    <nd ref="40617706"/>
    <nd ref="40388247"/>
    <nd ref="40617707"/>
    <nd ref="40617710"/>
    <nd ref="40617712"/>
    <nd ref="40568924"/>
    <nd ref="40617716"/>
    <nd ref="40617719"/>
    <tag k="highway" v="tertiary"/>
    <tag k="name" v="North Channel Avenue"/>
    <tag k="oneway" v="yes"/>
    <tag k="tiger:cfcc" v="A41"/>
    <tag k="tiger:county" v="Multnomah, OR"/>
    <tag k="tiger:name_base" v="Channel"/>
    <tag k="tiger:name_direction_prefix" v="N"/>
    <tag k="tiger:separated" v="no"/>
    <tag k="tiger:source" v="tiger_import_dch_v0.6_20070808"/>
    <tag k="tiger:tlid" v="157579916:157579917:157579854:157579855:157538336:157538090:157538083:157579872:157579874:157579876:157579878:157579879:157605779:157579994:157579996:157579998:157594833"/>
    <tag k="tiger:zip_left" v="97217"/>
    <tag k="tiger:zip_right" v="97217"/>
  </way>
  <way id="39565528" version="6" timestamp="2011-08-11T17:57:15Z" uid="362111" user="Mele Sax-Barnett" changeset="8987835">
    <nd ref="40442337"/>
    <nd ref="40405958"/>
    <nd ref="40426448"/>
    <nd ref="40405930"/>
    <nd ref="40617703"/>
    <nd ref="40617706"/>
    <nd ref="40388247"/>
    <nd ref="40617707"/>
    <nd ref="40617710"/>
    <nd ref="40617712"/>
    <nd ref="40568924"/>
    <nd ref="40617716"/>
    <nd ref="1395191306"/>
    <nd ref="40617719"/>
    <tag k="RLIS:localid" v="196555"/>
    <tag k="RLIS:reviewed" v="no"/>
    <tag k="highway" v="service"/>
    <tag k="name" v="North Channel Avenue"/>
    <tag k="zip_left" v="97217"/>
    <tag k="zip_right" v="97217"/>
  </way>
  <way id="39565529" version="3" timestamp="2010-03-22T07:34:09Z" uid="20587" user="balrog-kun" changeset="4199043">
    <nd ref="40651855"/>
    <nd ref="40651860"/>
    <nd ref="40651863"/>
    <nd ref="40651865"/>
    <nd ref="40651869"/>
    <nd ref="40401847"/>
    <nd ref="40452085"/>
    <nd ref="40632485"/>
    <nd ref="40651874"/>
    <nd ref="40401808"/>
    <nd ref="40651878"/>
    <nd ref="40651883"/>
    <nd ref="40651887"/>
    <nd ref="40651890"/>
    <nd ref="40651895"/>
    <nd ref="40408619"/>
    <nd ref="40651902"/>
    <nd ref="40651907"/>
    <nd ref="40651910"/>
    <nd ref="40651911"/>
    <nd ref="40651914"/>
    <nd ref="40414524"/>
    <nd ref="40408650"/>
    <nd ref="40414581"/>
    <nd ref="40651922"/>
    <nd ref="40651926"/>
    <nd ref="40651929"/>
    <nd ref="40651932"/>
    <nd ref="40651936"/>
    <nd ref="40651939"/>
    <nd ref="40651943"/>
    <nd ref="40651946"/>
    <nd ref="40651951"/>
    <nd ref="40651953"/>
    <nd ref="40412935"/>
    <nd ref="40651957"/>
    <nd ref="40651960"/>
    <nd ref="40651963"/>
    <nd ref="40546000"/>
    <nd ref="40651967"/>
    <nd ref="40651970"/>
    <nd ref="40651971"/>
    <nd ref="40545983"/>
    <nd ref="40383620"/>
    <nd ref="40383651"/>
    <nd ref="40651975"/>
    <nd ref="40383763"/>
    <nd ref="40651978"/>
    <nd ref="40393895"/>
    <nd ref="40651982"/>
    <nd ref="40651983"/>
    <nd ref="40651985"/>
    <tag k="highway" v="tertiary"/>
    <tag k="name" v="North Basin Avenue"/>
    <tag k="tiger:cfcc" v="A41"/>
    <tag k="tiger:county" v="Multnomah, OR"/>
    <tag k="tiger:name_base" v="Basin"/>
    <tag k="tiger:name_direction_prefix" v="N"/>
    <tag k="tiger:reviewed" v="no"/>
    <tag k="tiger:separated" v="no"/>
    <tag k="tiger:source" v="tiger_import_dch_v0.6_20070808"/>
    <tag k="tiger:tlid" v="157596419:157596420:157581776:157579830:157579831:157579950:157579952:157579954:157579956:157579958:157579959:157605776:157496704:157580010:157580011:157580012:157580013:157579960:157579961:157579848:157579849:157494863"/>
    <tag k="tiger:zip_left" v="97217"/>
    <tag k="tiger:zip_right" v="97217"/>
  </way>
  <way id="39565529" version="4" timestamp="2011-01-13T02:04:08Z" uid="121241" user="zephyr" changeset="6953601">
    <nd ref="40651855"/>
    <nd ref="40651860"/>
    <nd ref="40651863"/>
    <nd ref="40651865"/>
    <nd ref="40651869"/>
    <nd ref="40401847"/>
    <nd ref="40452085"/>
    <nd ref="1101022464"/>
    <nd ref="1101022320"/>
    <tag k="highway" v="tertiary"/>
    <tag k="name" v="North Basin Avenue"/>
    <tag k="oneway" v="yes"/>
    <tag k="tiger:cfcc" v="A41"/>
    <tag k="tiger:county" v="Multnomah, OR"/>
    <tag k="tiger:name_base" v="Basin"/>
    <tag k="tiger:name_direction_prefix" v="N"/>
    <tag k="tiger:separated" v="no"/>
    <tag k="tiger:source" v="tiger_import_dch_v0.6_20070808"/>
    <tag k="tiger:tlid" v="157596419:157596420:157581776:157579830:157579831:157579950:157579952:157579954:157579956:157579958:157579959:157605776:157496704:157580010:157580011:157580012:157580013:157579960:157579961:157579848:157579849:157494863"/>
    <tag k="tiger:zip_left" v="97217"/>
    <tag k="tiger:zip_right" v="97217"/>
  </way>
  <way id="39565529" version="5" timestamp="2011-08-11T17:57:13Z" uid="362111" user="Mele Sax-Barnett" changeset="8987835">
    <nd ref="40651855"/>
    <nd ref="40651860"/>
    <nd ref="40651863"/>
    <nd ref="40651865"/>
    <nd ref="1395191254"/>
    <nd ref="1395191257"/>
    <nd ref="40651869"/>
    <nd ref="40401847"/>
    <nd ref="40452085"/>
    <nd ref="1395191268"/>
    <nd ref="1101022464"/>
    <nd ref="1395191277"/>
    <nd ref="1395191280"/>
    <nd ref="1101022320"/>
    <tag k="highway" v="tertiary"/>
    <tag k="name" v="North Basin Avenue"/>
    <tag k="oneway" v="yes"/>
    <tag k="tiger:cfcc" v="A41"/>
    <tag k="tiger:county" v="Multnomah, OR"/>
    <tag k="tiger:name_base" v="Basin"/>
    <tag k="tiger:name_direction_prefix" v="N"/>
    <tag k="tiger:separated" v="no"/>
    <tag k="tiger:source" v="tiger_import_dch_v0.6_20070808"/>
    <tag k="tiger:tlid" v="157596419:157596420:157581776:157579830:157579831:157579950:157579952:157579954:157579956:157579958:157579959:157605776:157496704:157580010:157580011:157580012:157580013:157579960:157579961:157579848:157579849:157494863"/>
    <tag k="tiger:zip_left" v="97217"/>
    <tag k="tiger:zip_right" v="97217"/>
  </way>
  <way id="39565529" version="6" timestamp="2011-10-20T21:15:10Z" uid="362111" user="Mele Sax-Barnett" changeset="9612525">
    <nd ref="40651855"/>
    <nd ref="40651860"/>
    <nd ref="40651863"/>
    <nd ref="40651865"/>
    <nd ref="1395191254"/>
    <nd ref="1395191257"/>
    <nd ref="40651869"/>
    <nd ref="40401847"/>
    <nd ref="1474583324"/>
    <nd ref="40452085"/>
    <nd ref="1395191268"/>
    <nd ref="1101022464"/>
    <nd ref="1395191277"/>
    <nd ref="1395191280"/>
    <nd ref="1101022320"/>
    <tag k="highway" v="secondary"/>
    <tag k="name" v="North Basin Avenue"/>
    <tag k="oneway" v="yes"/>
    <tag k="tiger:cfcc" v="A41"/>
    <tag k="tiger:county" v="Multnomah, OR"/>
    <tag k="tiger:name_base" v="Basin"/>
    <tag k="tiger:name_direction_prefix" v="N"/>
    <tag k="tiger:separated" v="no"/>
    <tag k="tiger:source" v="tiger_import_dch_v0.6_20070808"/>
    <tag k="tiger:tlid" v="157596419:157596420:157581776:157579830:157579831:157579950:157579952:157579954:157579956:157579958:157579959:157605776:157496704:157580010:157580011:157580012:157580013:157579960:157579961:157579848:157579849:157494863"/>
    <tag k="tiger:zip_left" v="97217"/>
    <tag k="tiger:zip_right" v="97217"/>
  </way>
  <way id="39565529" version="7" timestamp="2011-10-28T19:24:25Z" uid="362111" user="Mele Sax-Barnett" changeset="9679477">
    <nd ref="40651855"/>
    <nd ref="40651860"/>
    <nd ref="40651863"/>
    <nd ref="40651865"/>
    <nd ref="1395191254"/>
    <nd ref="1395191257"/>
    <nd ref="40651869"/>
    <nd ref="40401847"/>
    <nd ref="1474583324"/>
    <nd ref="40452085"/>
    <nd ref="1395191268"/>
    <nd ref="1101022464"/>
    <nd ref="1395191277"/>
    <nd ref="1395191280"/>
    <nd ref="1101022320"/>
    <tag k="highway" v="secondary"/>
    <tag k="maxspeed" v="35 mph"/>
    <tag k="name" v="North Basin Avenue"/>
    <tag k="oneway" v="yes"/>
    <tag k="tiger:cfcc" v="A41"/>
    <tag k="tiger:county" v="Multnomah, OR"/>
    <tag k="tiger:name_base" v="Basin"/>
    <tag k="tiger:name_direction_prefix" v="N"/>
    <tag k="tiger:separated" v="no"/>
    <tag k="tiger:source" v="tiger_import_dch_v0.6_20070808"/>
    <tag k="tiger:tlid" v="157596419:157596420:157581776:157579830:157579831:157579950:157579952:157579954:157579956:157579958:157579959:157605776:157496704:157580010:157580011:157580012:157580013:157579960:157579961:157579848:157579849:157494863"/>
    <tag k="tiger:zip_left" v="97217"/>
    <tag k="tiger:zip_right" v="97217"/>
  </way>
  <way id="39565916" version="10" timestamp="2010-08-14T13:49:54Z" uid="4467" user="Rosscoe" changeset="5490882">
    <nd ref="474238475"/>
    <nd ref="474238476"/>
    <tag k="highway" v="unclassified"/>
    <tag k="name" v="Grand Cypress Boulevard"/>
    <tag k="oneway" v="yes"/>
  </way>
  <way id="39565916" version="11" timestamp="2012-01-17T21:40:05Z" uid="207745" user="NE2" changeset="10422559"/>
  <way id="39565937" version="10" timestamp="2010-08-14T13:49:56Z" uid="4467" user="Rosscoe" changeset="5490882">
    <nd ref="474238527"/>
    <nd ref="474238528"/>
    <nd ref="474238529"/>
    <nd ref="474238530"/>
    <nd ref="474238531"/>
    <nd ref="846292627"/>
    <nd ref="474238532"/>
    <nd ref="474238533"/>
    <nd ref="474238534"/>
    <nd ref="846292632"/>
    <nd ref="474238535"/>
    <nd ref="474238536"/>
    <nd ref="474238537"/>
    <nd ref="474238538"/>
    <nd ref="846292643"/>
    <nd ref="474238539"/>
    <nd ref="846288719"/>
    <nd ref="474238540"/>
    <nd ref="474238541"/>
    <nd ref="474238542"/>
    <nd ref="474238543"/>
    <nd ref="474238544"/>
    <nd ref="474238545"/>
    <nd ref="474238546"/>
    <nd ref="474238547"/>
    <nd ref="474238548"/>
    <nd ref="474238549"/>
    <nd ref="474238550"/>
    <nd ref="474238551"/>
    <nd ref="474238552"/>
    <nd ref="474238553"/>
    <nd ref="474238554"/>
    <nd ref="474238555"/>
    <nd ref="474238556"/>
    <nd ref="474238557"/>
    <nd ref="474238558"/>
    <nd ref="474238559"/>
    <nd ref="474238560"/>
    <nd ref="474238561"/>
    <nd ref="474238562"/>
    <nd ref="474238563"/>
    <nd ref="474238564"/>
    <nd ref="474238565"/>
    <nd ref="846293310"/>
    <nd ref="474238478"/>
    <nd ref="846293311"/>
    <nd ref="846285837"/>
    <nd ref="474238479"/>
    <tag k="access" v="destination"/>
    <tag k="highway" v="unclassified"/>
    <tag k="name" v="Grand Cypress Boulevard"/>
    <tag k="oneway" v="yes"/>
  </way>
  <way id="39565937" version="11" timestamp="2012-01-17T21:40:05Z" uid="207745" user="NE2" changeset="10422559"/>
</osm>
