<?xml version='1.0' encoding='UTF-8'?>
<osm version="0.6" generator="libosmium/2.20.0">
  <way id="39568398" version="3" timestamp="2011-03-19T06:39:57Z" uid="4467" user="Rosscoe" changeset="7601685">
    <nd ref="474246732"/>
    <nd ref="1208360461"/>
    <nd ref="1208360518"/>
    <nd ref="321903730"/>
    <nd ref="321902786"/>
    <nd ref="474246734"/>
    <tag k="highway" v="tertiary"/>
    <tag k="name" v="Arthur Street"/>
  </way>
  <way id="39568399" version="2" timestamp="2010-07-08T19:43:52Z" uid="74617" user="JohnSmith" changeset="5168730">
    <nd ref="299196944"/>
    <nd ref="321903707"/>
    <tag k="highway" v="residential"/>
    <tag k="maxspeed" v="50"/>
    <tag k="maxspeed:source" v="default residential speed limit in Australia"/>
    <tag k="name" v="Power Street"/>
    <tag k="source" v="MMBW"/>
  </way>
  <way id="39568399" version="3" timestamp="2012-01-19T03:49:34Z" uid="147510" user="woodpeck_fixbot" changeset="10433650">
    <nd ref="299196944"/>
    <nd ref="321903707"/>
    <tag k="highway" v="residential"/>
    <tag k="name" v="Power Street"/>
    <tag k="source" v="MMBW"/>
  </way>
  <way id="39568402" version="4" timestamp="2011-03-19T06:39:28Z" uid="4467" user="Rosscoe" changeset="7601685">
    <nd ref="474246849"/>
    <nd ref="321902726"/>
    <nd ref="1208360379"/>
    <nd ref="1208360455"/>
    <nd ref="1208360522"/>
    <nd ref="299197110"/>
    <tag k="highway" v="tertiary"/>
    <tag k="name" v="Arthur Street"/>
  </way>
  <way id="39568403" version="2" timestamp="2010-07-08T19:40:52Z" uid="74617" user="JohnSmith" changeset="5168730">
    <nd ref="299197109"/>
    <nd ref="321902825"/>
    <nd ref="321902826"/>
    <tag k="highway" v="residential"/>
    <tag k="maxspeed" v="50"/>
    <tag k="maxspeed:source" v="default residential speed limit in Australia"/>
    <tag k="name" v="Conrad Street"/>
    <tag k="source" v="MMBW"/>
  </way>
  <way id="39568403" version="3" timestamp="2012-01-19T03:49:39Z" uid="147510" user="woodpeck_fixbot" changeset="10433650">
    <nd ref="299197109"/>
    <nd ref="321902825"/>
    <nd ref="321902826"/>
    <tag k="highway" v="residential"/>
    <tag k="name" v="Conrad Street"/>
    <tag k="source" v="MMBW"/>
  </way>
</osm>
