<?xml version='1.0' encoding='UTF-8'?>
<osm version="0.6" generator="libosmium/2.20.0">
  <way id="3957547" version="1" timestamp="2007-09-14T19:00:37Z" uid="8328" user="benpre" changeset="428989">
    <nd ref="20448828"/>
    <nd ref="20448906"/>
    <nd ref="20448995"/>
    <nd ref="20449074"/>
    <nd ref="20448864"/>
    <nd ref="20448934"/>
    <nd ref="19767400"/>
    <tag k="created_by" v="JOSM"/>
    <tag k="highway" v="primary"/>
    <tag k="maxspeed" v="60"/>
    <tag k="name" v="Torgauer Straße"/>
    <tag k="oneway" v="true"/>
  </way>
  <way id="3957547" version="2" timestamp="2007-11-29T22:52:16Z" uid="19889" user="Flitzpiepe" changeset="648211">
    <nd ref="20448828"/>
    <nd ref="20448906"/>
    <nd ref="20448995"/>
    <nd ref="20449074"/>
    <nd ref="20448864"/>
    <nd ref="142654861"/>
    <nd ref="20448934"/>
    <nd ref="19767400"/>
    <tag k="created_by" v="Potlatch 0.5d"/>
    <tag k="highway" v="primary"/>
    <tag k="maxspeed" v="60"/>
    <tag k="name" v="Torgauer Straße"/>
    <tag k="oneway" v="true"/>
  </way>
  <way id="3957547" version="3" timestamp="2007-12-31T18:22:17Z" uid="5287" user="jo²" changeset="490669">
    <nd ref="20448828"/>
    <nd ref="20448864"/>
    <nd ref="19767400"/>
    <tag k="created_by" v="Potlatch 0.6"/>
    <tag k="highway" v="primary"/>
    <tag k="maxspeed" v="60"/>
    <tag k="name" v="Torgauer Straße"/>
    <tag k="oneway" v="true"/>
  </way>
  <way id="3957547" version="4" timestamp="2008-01-20T11:28:59Z" uid="23057" user="prolineserver" changeset="671217">
    <nd ref="20448828"/>
    <nd ref="20448864"/>
    <nd ref="19767400"/>
    <tag k="created_by" v="Potlatch 0.6c"/>
    <tag k="highway" v="primary"/>
    <tag k="maxspeed" v="60"/>
    <tag k="name" v="Torgauer Straße"/>
    <tag k="oneway" v="true"/>
  </way>
  <way id="3957547" version="5" timestamp="2008-01-20T11:29:23Z" uid="23057" user="prolineserver" changeset="671217">
    <nd ref="20448828"/>
    <nd ref="240489118"/>
    <nd ref="240489119"/>
    <nd ref="20448864"/>
    <nd ref="19767400"/>
    <tag k="created_by" v="Potlatch 0.6c"/>
    <tag k="highway" v="primary"/>
    <tag k="maxspeed" v="60"/>
    <tag k="name" v="Torgauer Straße"/>
    <tag k="oneway" v="true"/>
  </way>
  <way id="3957547" version="6" timestamp="2008-01-20T11:35:16Z" uid="23057" user="prolineserver" changeset="671217">
    <nd ref="20448828"/>
    <nd ref="240489118"/>
    <nd ref="240489119"/>
    <nd ref="20448864"/>
    <nd ref="19767400"/>
    <tag k="created_by" v="Potlatch 0.6c"/>
    <tag k="highway" v="primary"/>
    <tag k="maxspeed" v="60"/>
    <tag k="name" v="Torgauer Straße"/>
    <tag k="oneway" v="yes"/>
  </way>
  <way id="3957547" version="7" timestamp="2008-09-03T06:45:59Z" uid="52946" user="Proton02" changeset="507616">
    <nd ref="20448828"/>
    <nd ref="240489118"/>
    <nd ref="240489119"/>
    <nd ref="20448864"/>
    <nd ref="19767400"/>
    <tag k="created_by" v="Potlatch 0.10b"/>
    <tag k="highway" v="primary"/>
    <tag k="maxspeed" v="60"/>
    <tag k="name" v="Torgauer Straße"/>
    <tag k="oneway" v="yes"/>
    <tag k="ref" v="B 87"/>
  </way>
  <way id="3957547" version="8" timestamp="2009-04-21T18:31:26Z" uid="18069" user="Claudius Henrichs" changeset="885194">
    <nd ref="20448828"/>
    <nd ref="240489118"/>
    <nd ref="240489119"/>
    <nd ref="20448864"/>
    <nd ref="19767400"/>
    <tag k="created_by" v="Potlatch 0.10b"/>
    <tag k="highway" v="primary"/>
    <tag k="maxspeed" v="70"/>
    <tag k="name" v="Torgauer Straße"/>
    <tag k="oneway" v="yes"/>
    <tag k="ref" v="B 87"/>
  </way>
  <way id="3957547" version="9" timestamp="2010-02-27T21:28:18Z" uid="109035" user="Teddy80" changeset="3992858">
    <nd ref="20448828"/>
    <nd ref="240489118"/>
    <nd ref="240489119"/>
    <nd ref="20448864"/>
    <nd ref="19767400"/>
    <tag k="highway" v="primary"/>
    <tag k="maxspeed" v="70"/>
    <tag k="name" v="Torgauer Straße"/>
    <tag k="oneway" v="yes"/>
    <tag k="ref" v="B 87"/>
  </way>
  <way id="3957547" version="10" timestamp="2010-11-13T20:35:01Z" uid="102899" user="stw1701" changeset="6361731">
    <nd ref="20448828"/>
    <nd ref="240489118"/>
    <nd ref="240489119"/>
    <nd ref="20448864"/>
    <nd ref="19767400"/>
    <tag k="highway" v="primary"/>
    <tag k="lanes" v="2"/>
    <tag k="maxspeed" v="60"/>
    <tag k="name" v="Torgauer Straße"/>
    <tag k="oneway" v="yes"/>
    <tag k="ref" v="B 87"/>
  </way>
  <way id="3957547" version="11" timestamp="2012-01-07T16:33:21Z" uid="56798" user="Palinka" changeset="10322882">
    <nd ref="20448828"/>
    <nd ref="1581129298"/>
    <nd ref="240489118"/>
    <nd ref="240489119"/>
    <nd ref="20448864"/>
    <nd ref="19767400"/>
    <tag k="highway" v="primary"/>
    <tag k="lanes" v="2"/>
    <tag k="maxspeed" v="60"/>
    <tag k="name" v="Torgauer Straße"/>
    <tag k="oneway" v="yes"/>
    <tag k="ref" v="B 87"/>
  </way>
  <way id="3957547" version="12" timestamp="2012-03-13T22:37:31Z" uid="56798" user="Palinka" changeset="10972989"/>
</osm>
