<?xml version='1.0' encoding='UTF-8'?>
<osm version="0.6" generator="libosmium/2.20.0">
  <way id="39705317" version="2" timestamp="2010-07-09T05:31:18Z" uid="74617" user="JohnSmith" changeset="5170972">
    <nd ref="257496646"/>
    <nd ref="257496647"/>
    <tag k="highway" v="residential"/>
    <tag k="maxspeed" v="50"/>
    <tag k="maxspeed:source" v="default residential speed limit in Australia"/>
    <tag k="name" v="Sabrina Court"/>
  </way>
  <way id="39705317" version="3" timestamp="2010-07-09T05:38:51Z" uid="74617" user="JohnSmith" changeset="5170972">
    <nd ref="257496646"/>
    <nd ref="257496647"/>
    <tag k="highway" v="residential"/>
    <tag k="maxspeed" v="50"/>
    <tag k="maxspeed:source" v="default residential speed limit in Australia"/>
    <tag k="name" v="Sabrina Court"/>
  </way>
  <way id="39705317" version="4" timestamp="2011-05-07T05:50:12Z" uid="6513" user="Glen" changeset="8070564">
    <nd ref="257496646"/>
    <nd ref="1275377116"/>
    <nd ref="257496647"/>
    <tag k="highway" v="residential"/>
    <tag k="maxspeed" v="50"/>
    <tag k="maxspeed:source" v="default residential speed limit in Australia"/>
    <tag k="name" v="Sabrina Court"/>
  </way>
  <way id="39705317" version="5" timestamp="2012-01-19T04:02:48Z" uid="147510" user="woodpeck_fixbot" changeset="10433650">
    <nd ref="257496646"/>
    <nd ref="1275377116"/>
    <nd ref="257496647"/>
    <tag k="highway" v="residential"/>
    <tag k="name" v="Sabrina Court"/>
  </way>
  <way id="39705319" version="2" timestamp="2010-07-09T05:30:30Z" uid="74617" user="JohnSmith" changeset="5170972">
    <nd ref="257496647"/>
    <nd ref="257496648"/>
    <nd ref="257496649"/>
    <nd ref="476078006"/>
    <nd ref="257496650"/>
    <nd ref="257496651"/>
    <nd ref="257496652"/>
    <tag k="highway" v="residential"/>
    <tag k="maxspeed" v="50"/>
    <tag k="maxspeed:source" v="default residential speed limit in Australia"/>
    <tag k="name" v="Excalibur Place"/>
  </way>
  <way id="39705319" version="3" timestamp="2010-07-09T05:38:04Z" uid="74617" user="JohnSmith" changeset="5170972">
    <nd ref="257496647"/>
    <nd ref="257496648"/>
    <nd ref="257496649"/>
    <nd ref="476078006"/>
    <nd ref="257496650"/>
    <nd ref="257496651"/>
    <nd ref="257496652"/>
    <tag k="highway" v="residential"/>
    <tag k="maxspeed" v="50"/>
    <tag k="maxspeed:source" v="default residential speed limit in Australia"/>
    <tag k="name" v="Excalibur Place"/>
  </way>
  <way id="39705319" version="4" timestamp="2011-05-07T05:50:12Z" uid="6513" user="Glen" changeset="8070564">
    <nd ref="1275377135"/>
    <nd ref="257496647"/>
    <nd ref="257496648"/>
    <nd ref="257496649"/>
    <nd ref="476078006"/>
    <nd ref="257496650"/>
    <nd ref="257496651"/>
    <nd ref="257496652"/>
    <tag k="highway" v="residential"/>
    <tag k="maxspeed" v="50"/>
    <tag k="maxspeed:source" v="default residential speed limit in Australia"/>
    <tag k="name" v="Excalibur Place"/>
  </way>
  <way id="39705319" version="5" timestamp="2012-01-19T04:02:49Z" uid="147510" user="woodpeck_fixbot" changeset="10433650">
    <nd ref="1275377135"/>
    <nd ref="257496647"/>
    <nd ref="257496648"/>
    <nd ref="257496649"/>
    <nd ref="476078006"/>
    <nd ref="257496650"/>
    <nd ref="257496651"/>
    <nd ref="257496652"/>
    <tag k="highway" v="residential"/>
    <tag k="name" v="Excalibur Place"/>
  </way>
  <way id="39705322" version="2" timestamp="2010-07-09T05:28:25Z" uid="74617" user="JohnSmith" changeset="5170972">
    <nd ref="476078010"/>
    <nd ref="476078006"/>
    <tag k="highway" v="residential"/>
    <tag k="maxspeed" v="50"/>
    <tag k="maxspeed:source" v="default residential speed limit in Australia"/>
    <tag k="name" v="Owen Court"/>
  </way>
  <way id="39705322" version="3" timestamp="2010-07-09T05:36:09Z" uid="74617" user="JohnSmith" changeset="5170972">
    <nd ref="476078010"/>
    <nd ref="476078006"/>
    <tag k="highway" v="residential"/>
    <tag k="maxspeed" v="50"/>
    <tag k="maxspeed:source" v="default residential speed limit in Australia"/>
    <tag k="name" v="Owen Court"/>
  </way>
  <way id="39705322" version="4" timestamp="2012-01-19T04:02:50Z" uid="147510" user="woodpeck_fixbot" changeset="10433650">
    <nd ref="476078010"/>
    <nd ref="476078006"/>
    <tag k="highway" v="residential"/>
    <tag k="name" v="Owen Court"/>
  </way>
  <way id="39705334" version="2" timestamp="2010-07-09T05:29:20Z" uid="74617" user="JohnSmith" changeset="5170972">
    <nd ref="476078014"/>
    <nd ref="476078015"/>
    <nd ref="476078017"/>
    <nd ref="476078019"/>
    <nd ref="476078023"/>
    <nd ref="476078024"/>
    <nd ref="476078026"/>
    <nd ref="476078027"/>
    <nd ref="476078029"/>
    <nd ref="476078030"/>
    <nd ref="476078031"/>
    <nd ref="476078032"/>
    <nd ref="476078033"/>
    <nd ref="476078034"/>
    <nd ref="476078037"/>
    <nd ref="476078039"/>
    <tag k="highway" v="residential"/>
    <tag k="maxspeed" v="50"/>
    <tag k="maxspeed:source" v="default residential speed limit in Australia"/>
    <tag k="name" v="Karoola Road"/>
  </way>
  <way id="39705334" version="3" timestamp="2010-07-09T05:36:59Z" uid="74617" user="JohnSmith" changeset="5170972">
    <nd ref="476078014"/>
    <nd ref="476078015"/>
    <nd ref="476078017"/>
    <nd ref="476078019"/>
    <nd ref="476078023"/>
    <nd ref="476078024"/>
    <nd ref="476078026"/>
    <nd ref="476078027"/>
    <nd ref="476078029"/>
    <nd ref="476078030"/>
    <nd ref="476078031"/>
    <nd ref="476078032"/>
    <nd ref="476078033"/>
    <nd ref="476078034"/>
    <nd ref="476078037"/>
    <nd ref="476078039"/>
    <tag k="highway" v="residential"/>
    <tag k="maxspeed" v="50"/>
    <tag k="maxspeed:source" v="default residential speed limit in Australia"/>
    <tag k="name" v="Karoola Road"/>
  </way>
  <way id="39705334" version="4" timestamp="2012-01-19T04:02:51Z" uid="147510" user="woodpeck_fixbot" changeset="10433650">
    <nd ref="476078014"/>
    <nd ref="476078015"/>
    <nd ref="476078017"/>
    <nd ref="476078019"/>
    <nd ref="476078023"/>
    <nd ref="476078024"/>
    <nd ref="476078026"/>
    <nd ref="476078027"/>
    <nd ref="476078029"/>
    <nd ref="476078030"/>
    <nd ref="476078031"/>
    <nd ref="476078032"/>
    <nd ref="476078033"/>
    <nd ref="476078034"/>
    <nd ref="476078037"/>
    <nd ref="476078039"/>
    <tag k="highway" v="residential"/>
    <tag k="name" v="Karoola Road"/>
  </way>
  <way id="39705681" version="2" timestamp="2010-06-29T20:47:18Z" uid="74617" user="JohnSmith" changeset="5109183">
    <nd ref="476079017"/>
    <nd ref="476079019"/>
    <nd ref="476079022"/>
    <nd ref="476079024"/>
    <nd ref="476079017"/>
    <tag k="fixme" v="sport=rugby is ambiguous, see http://wiki.osm.org/wiki/Tag:sport%3Drugby for more details"/>
    <tag k="leisure" v="pitch"/>
    <tag k="name" v="Landare"/>
    <tag k="sport" v="rugby"/>
  </way>
  <way id="39705723" version="2" timestamp="2010-05-18T06:18:48Z" uid="30201" user="rrankin" changeset="4735630">
    <nd ref="476079105"/>
    <nd ref="476079108"/>
    <nd ref="476079110"/>
    <nd ref="476079112"/>
    <nd ref="476079115"/>
    <nd ref="476079117"/>
    <nd ref="476079119"/>
    <nd ref="476079122"/>
    <nd ref="476079125"/>
    <nd ref="738210786"/>
    <tag k="highway" v="service"/>
  </way>
</osm>
