<?xml version='1.0' encoding='UTF-8'?>
<osm version="0.6" generator="libosmium/2.20.0">
  <way id="39782151" version="3" timestamp="2010-07-25T22:49:46Z" uid="4467" user="Rosscoe" changeset="5317371">
    <nd ref="476900914"/>
    <nd ref="186689338"/>
    <tag k="bridge" v="yes"/>
    <tag k="highway" v="secondary"/>
    <tag k="layer" v="1"/>
    <tag k="maxspeed" v="100"/>
    <tag k="name" v="Bacchus Marsh Road"/>
    <tag k="ref" v="C802"/>
    <tag k="source" v="nearmap"/>
  </way>
  <way id="39782151" version="4" timestamp="2011-07-28T05:35:34Z" uid="11111" user="melb_guy" changeset="8851064">
    <nd ref="476900914"/>
    <nd ref="186689338"/>
    <tag k="bridge" v="yes"/>
    <tag k="highway" v="secondary"/>
    <tag k="layer" v="1"/>
    <tag k="maxspeed" v="80"/>
    <tag k="name" v="Bacchus Marsh Road"/>
    <tag k="ref" v="C802"/>
    <tag k="source" v="nearmap"/>
  </way>
  <way id="39782151" version="5" timestamp="2012-02-20T05:49:20Z" uid="11111" user="melb_guy" changeset="10737369"/>
  <way id="39782154" version="2" timestamp="2010-04-30T05:27:33Z" uid="74617" user="JohnSmith" changeset="4563188">
    <nd ref="186689338"/>
    <nd ref="186689339"/>
    <nd ref="186689340"/>
    <nd ref="186689341"/>
    <nd ref="186692206"/>
    <nd ref="186692208"/>
    <nd ref="186692209"/>
    <nd ref="712849192"/>
    <nd ref="476883362"/>
    <tag k="highway" v="secondary"/>
    <tag k="name" v="Bacchus Marsh Road"/>
    <tag k="ref" v="C802"/>
  </way>
  <way id="39782154" version="3" timestamp="2010-04-30T09:14:30Z" uid="74617" user="JohnSmith" changeset="4564503">
    <nd ref="186689338"/>
    <nd ref="186689339"/>
    <nd ref="186689340"/>
    <nd ref="712930811"/>
    <nd ref="186689341"/>
    <nd ref="712930828"/>
    <nd ref="712930635"/>
    <tag k="highway" v="secondary"/>
    <tag k="name" v="Bacchus Marsh Road"/>
    <tag k="ref" v="C802"/>
  </way>
  <way id="39782154" version="4" timestamp="2010-05-03T04:07:55Z" uid="11111" user="lakeyboy" changeset="4591559">
    <nd ref="186689338"/>
    <nd ref="186689339"/>
    <nd ref="712930811"/>
    <nd ref="186689341"/>
    <nd ref="712930828"/>
    <nd ref="712930635"/>
    <tag k="highway" v="secondary"/>
    <tag k="name" v="Bacchus Marsh Road"/>
    <tag k="ref" v="C802"/>
  </way>
  <way id="39782154" version="5" timestamp="2010-05-03T04:08:04Z" uid="11111" user="lakeyboy" changeset="4591559">
    <nd ref="186689338"/>
    <nd ref="718369903"/>
    <nd ref="718369904"/>
    <nd ref="186689339"/>
    <nd ref="712930811"/>
    <nd ref="186689341"/>
    <nd ref="712930828"/>
    <nd ref="712930635"/>
    <tag k="highway" v="secondary"/>
    <tag k="name" v="Bacchus Marsh Road"/>
    <tag k="ref" v="C802"/>
  </way>
  <way id="39782154" version="6" timestamp="2010-05-03T04:08:11Z" uid="11111" user="lakeyboy" changeset="4591559">
    <nd ref="186689338"/>
    <nd ref="718369903"/>
    <nd ref="718369904"/>
    <nd ref="718369905"/>
    <nd ref="718369906"/>
    <nd ref="186689339"/>
    <nd ref="718369907"/>
    <nd ref="712930811"/>
    <nd ref="186689341"/>
    <nd ref="712930828"/>
    <nd ref="712930635"/>
    <tag k="highway" v="secondary"/>
    <tag k="name" v="Bacchus Marsh Road"/>
    <tag k="ref" v="C802"/>
  </way>
  <way id="39782154" version="7" timestamp="2010-05-03T04:08:32Z" uid="11111" user="lakeyboy" changeset="4591559">
    <nd ref="186689338"/>
    <nd ref="718369913"/>
    <nd ref="718369903"/>
    <nd ref="718369904"/>
    <nd ref="718369905"/>
    <nd ref="718369906"/>
    <nd ref="186689339"/>
    <nd ref="718369907"/>
    <nd ref="712930811"/>
    <nd ref="186689341"/>
    <nd ref="712930828"/>
    <nd ref="712930635"/>
    <tag k="highway" v="secondary"/>
    <tag k="name" v="Bacchus Marsh Road"/>
    <tag k="ref" v="C802"/>
  </way>
  <way id="39782154" version="8" timestamp="2010-05-03T04:10:27Z" uid="11111" user="lakeyboy" changeset="4591559">
    <nd ref="186689338"/>
    <nd ref="718369913"/>
    <nd ref="718369903"/>
    <nd ref="718369904"/>
    <nd ref="718369905"/>
    <nd ref="718369906"/>
    <nd ref="186689339"/>
    <tag k="highway" v="secondary"/>
    <tag k="name" v="Bacchus Marsh Road"/>
    <tag k="ref" v="C802"/>
  </way>
  <way id="39782154" version="9" timestamp="2010-05-03T04:10:36Z" uid="11111" user="lakeyboy" changeset="4591559">
    <nd ref="186689338"/>
    <nd ref="718369913"/>
    <nd ref="718369903"/>
    <nd ref="718369904"/>
    <nd ref="718369905"/>
    <nd ref="718369906"/>
    <nd ref="186689339"/>
    <tag k="highway" v="secondary"/>
    <tag k="maxspeed" v="100"/>
    <tag k="name" v="Bacchus Marsh Road"/>
    <tag k="ref" v="C802"/>
  </way>
  <way id="39782154" version="10" timestamp="2010-05-03T04:15:01Z" uid="11111" user="lakeyboy" changeset="4591559">
    <nd ref="186689338"/>
    <nd ref="718369948"/>
    <nd ref="718369913"/>
    <nd ref="718369903"/>
    <nd ref="718369904"/>
    <nd ref="718369905"/>
    <nd ref="718369906"/>
    <nd ref="186689339"/>
    <tag k="highway" v="secondary"/>
    <tag k="maxspeed" v="100"/>
    <tag k="name" v="Bacchus Marsh Road"/>
    <tag k="ref" v="C802"/>
  </way>
  <way id="39782154" version="11" timestamp="2011-07-28T05:35:34Z" uid="11111" user="melb_guy" changeset="8851064">
    <nd ref="186689338"/>
    <nd ref="718369948"/>
    <nd ref="718369913"/>
    <nd ref="718369903"/>
    <nd ref="718369904"/>
    <nd ref="718369905"/>
    <nd ref="718369906"/>
    <nd ref="186689339"/>
    <nd ref="718369907"/>
    <nd ref="712930811"/>
    <nd ref="186689341"/>
    <nd ref="712930828"/>
    <nd ref="712930635"/>
    <tag k="highway" v="secondary"/>
    <tag k="maxspeed" v="80"/>
    <tag k="name" v="Bacchus Marsh Road"/>
    <tag k="ref" v="C802"/>
  </way>
  <way id="39782154" version="12" timestamp="2012-02-20T05:49:20Z" uid="11111" user="melb_guy" changeset="10737369"/>
  <way id="39782163" version="4" timestamp="2011-02-27T17:00:52Z" uid="9581" user="Lobelt" changeset="7412830">
    <nd ref="476901082"/>
    <nd ref="476901083"/>
    <nd ref="476901086"/>
    <nd ref="476901088"/>
    <nd ref="476901090"/>
    <nd ref="1177439113"/>
    <nd ref="476907207"/>
    <nd ref="476901091"/>
    <tag k="highway" v="residential"/>
    <tag k="maxspeed" v="30"/>
    <tag k="name" v="Pirolweg"/>
  </way>
  <way id="39782164" version="2" timestamp="2011-02-27T17:00:39Z" uid="9581" user="Lobelt" changeset="7412830">
    <nd ref="476901086"/>
    <nd ref="1177439225"/>
    <nd ref="1177439088"/>
    <nd ref="380493542"/>
    <tag k="highway" v="footway"/>
  </way>
</osm>
