<?xml version='1.0' encoding='UTF-8'?>
<osm version="0.6" generator="libosmium/2.20.0">
  <way id="39803460" version="3" timestamp="2010-02-15T06:09:34Z" uid="74617" user="JohnSmith" changeset="3880328">
    <nd ref="477116299"/>
    <nd ref="477116300"/>
    <tag k="highway" v="residential"/>
    <tag k="maxspeed" v="50"/>
    <tag k="name" v="Sheridan Close"/>
  </way>
  <way id="39803460" version="4" timestamp="2012-01-19T04:07:37Z" uid="147510" user="woodpeck_fixbot" changeset="10433650">
    <nd ref="477116299"/>
    <nd ref="477116300"/>
    <tag k="highway" v="residential"/>
    <tag k="name" v="Sheridan Close"/>
  </way>
  <way id="39803463" version="3" timestamp="2010-02-15T06:09:34Z" uid="74617" user="JohnSmith" changeset="3880328">
    <nd ref="477116301"/>
    <nd ref="477116302"/>
    <tag k="highway" v="residential"/>
    <tag k="maxspeed" v="50"/>
    <tag k="name" v="Stacey Close"/>
  </way>
  <way id="39803463" version="4" timestamp="2012-01-19T04:07:37Z" uid="147510" user="woodpeck_fixbot" changeset="10433650">
    <nd ref="477116301"/>
    <nd ref="477116302"/>
    <tag k="highway" v="residential"/>
    <tag k="name" v="Stacey Close"/>
  </way>
  <way id="39803469" version="3" timestamp="2010-02-15T06:09:35Z" uid="74617" user="JohnSmith" changeset="3880328">
    <nd ref="477116303"/>
    <nd ref="477116304"/>
    <nd ref="477116305"/>
    <nd ref="477116306"/>
    <nd ref="477116307"/>
    <nd ref="477116308"/>
    <nd ref="477116309"/>
    <tag k="highway" v="residential"/>
    <tag k="maxspeed" v="50"/>
    <tag k="name" v="Hendos Place"/>
  </way>
  <way id="39803469" version="4" timestamp="2012-01-19T04:07:39Z" uid="147510" user="woodpeck_fixbot" changeset="10433650">
    <nd ref="477116303"/>
    <nd ref="477116304"/>
    <nd ref="477116305"/>
    <nd ref="477116306"/>
    <nd ref="477116307"/>
    <nd ref="477116308"/>
    <nd ref="477116309"/>
    <tag k="highway" v="residential"/>
    <tag k="name" v="Hendos Place"/>
  </way>
  <way id="39803474" version="3" timestamp="2010-02-15T06:09:34Z" uid="74617" user="JohnSmith" changeset="3880328">
    <nd ref="477116310"/>
    <nd ref="477116311"/>
    <tag k="highway" v="residential"/>
    <tag k="maxspeed" v="50"/>
    <tag k="name" v="Barbarba Court"/>
  </way>
  <way id="39803474" version="4" timestamp="2012-01-19T04:07:41Z" uid="147510" user="woodpeck_fixbot" changeset="10433650">
    <nd ref="477116310"/>
    <nd ref="477116311"/>
    <tag k="highway" v="residential"/>
    <tag k="name" v="Barbarba Court"/>
  </way>
  <way id="39803476" version="3" timestamp="2010-02-15T06:09:34Z" uid="74617" user="JohnSmith" changeset="3880328">
    <nd ref="477116312"/>
    <nd ref="477116313"/>
    <tag k="highway" v="residential"/>
    <tag k="maxspeed" v="50"/>
    <tag k="name" v="Springbrook Place"/>
  </way>
  <way id="39803476" version="4" timestamp="2012-01-19T04:07:42Z" uid="147510" user="woodpeck_fixbot" changeset="10433650">
    <nd ref="477116312"/>
    <nd ref="477116313"/>
    <tag k="highway" v="residential"/>
    <tag k="name" v="Springbrook Place"/>
  </way>
  <way id="39803491" version="3" timestamp="2010-02-15T06:09:51Z" uid="74617" user="JohnSmith" changeset="3880328">
    <nd ref="477116314"/>
    <nd ref="477116315"/>
    <nd ref="477116316"/>
    <nd ref="477116317"/>
    <nd ref="477116318"/>
    <nd ref="477116319"/>
    <tag k="highway" v="residential"/>
    <tag k="maxspeed" v="50"/>
    <tag k="name" v="Frederick Street"/>
  </way>
  <way id="39803491" version="4" timestamp="2012-01-19T04:07:43Z" uid="147510" user="woodpeck_fixbot" changeset="10433650">
    <nd ref="477116314"/>
    <nd ref="477116315"/>
    <nd ref="477116316"/>
    <nd ref="477116317"/>
    <nd ref="477116318"/>
    <nd ref="477116319"/>
    <tag k="highway" v="residential"/>
    <tag k="name" v="Frederick Street"/>
  </way>
  <way id="39803504" version="3" timestamp="2010-02-15T06:09:09Z" uid="74617" user="JohnSmith" changeset="3880328">
    <nd ref="477116314"/>
    <nd ref="477116320"/>
    <nd ref="477116321"/>
    <nd ref="477116322"/>
    <nd ref="477116323"/>
    <nd ref="477116324"/>
    <nd ref="477116325"/>
    <nd ref="477116326"/>
    <nd ref="477116327"/>
    <nd ref="477116328"/>
    <nd ref="477116329"/>
    <nd ref="477116330"/>
    <tag k="highway" v="residential"/>
    <tag k="maxspeed" v="50"/>
    <tag k="name" v="Recency Crescent"/>
  </way>
  <way id="39803504" version="4" timestamp="2012-01-19T04:07:44Z" uid="147510" user="woodpeck_fixbot" changeset="10433650">
    <nd ref="477116314"/>
    <nd ref="477116320"/>
    <nd ref="477116321"/>
    <nd ref="477116322"/>
    <nd ref="477116323"/>
    <nd ref="477116324"/>
    <nd ref="477116325"/>
    <nd ref="477116326"/>
    <nd ref="477116327"/>
    <nd ref="477116328"/>
    <nd ref="477116329"/>
    <nd ref="477116330"/>
    <tag k="highway" v="residential"/>
    <tag k="name" v="Recency Crescent"/>
  </way>
  <way id="39803510" version="3" timestamp="2010-02-15T06:09:51Z" uid="74617" user="JohnSmith" changeset="3880328">
    <nd ref="477116319"/>
    <nd ref="477116331"/>
    <nd ref="477116332"/>
    <nd ref="477116333"/>
    <nd ref="477116334"/>
    <nd ref="477116335"/>
    <tag k="highway" v="residential"/>
    <tag k="maxspeed" v="50"/>
    <tag k="name" v="Ellerby Road"/>
  </way>
  <way id="39803510" version="4" timestamp="2012-01-19T04:07:45Z" uid="147510" user="woodpeck_fixbot" changeset="10433650">
    <nd ref="477116319"/>
    <nd ref="477116331"/>
    <nd ref="477116332"/>
    <nd ref="477116333"/>
    <nd ref="477116334"/>
    <nd ref="477116335"/>
    <tag k="highway" v="residential"/>
    <tag k="name" v="Ellerby Road"/>
  </way>
  <way id="39803513" version="3" timestamp="2010-02-15T06:09:09Z" uid="74617" user="JohnSmith" changeset="3880328">
    <nd ref="477116330"/>
    <nd ref="477116336"/>
    <nd ref="477116337"/>
    <tag k="highway" v="residential"/>
    <tag k="maxspeed" v="50"/>
    <tag k="name" v="Ellerby Road"/>
  </way>
  <way id="39803513" version="4" timestamp="2012-01-19T04:07:46Z" uid="147510" user="woodpeck_fixbot" changeset="10433650">
    <nd ref="477116330"/>
    <nd ref="477116336"/>
    <nd ref="477116337"/>
    <tag k="highway" v="residential"/>
    <tag k="name" v="Ellerby Road"/>
  </way>
  <way id="39803520" version="3" timestamp="2010-02-15T06:09:34Z" uid="74617" user="JohnSmith" changeset="3880328">
    <nd ref="477116338"/>
    <nd ref="477116339"/>
    <nd ref="477116340"/>
    <tag k="highway" v="residential"/>
    <tag k="maxspeed" v="50"/>
    <tag k="name" v="Courtney Place"/>
  </way>
  <way id="39803520" version="4" timestamp="2012-01-19T04:07:47Z" uid="147510" user="woodpeck_fixbot" changeset="10433650">
    <nd ref="477116338"/>
    <nd ref="477116339"/>
    <nd ref="477116340"/>
    <tag k="highway" v="residential"/>
    <tag k="name" v="Courtney Place"/>
  </way>
  <way id="39803539" version="3" timestamp="2010-02-15T06:09:08Z" uid="74617" user="JohnSmith" changeset="3880328">
    <nd ref="269459566"/>
    <nd ref="269459567"/>
    <nd ref="269459523"/>
    <nd ref="269459568"/>
    <nd ref="497609083"/>
    <nd ref="269459569"/>
    <nd ref="269459570"/>
    <nd ref="269459571"/>
    <nd ref="269459572"/>
    <nd ref="269459573"/>
    <nd ref="269459574"/>
    <tag k="highway" v="residential"/>
    <tag k="maxspeed" v="50"/>
    <tag k="name" v="Weekes Road"/>
  </way>
  <way id="39803539" version="4" timestamp="2012-01-19T04:07:48Z" uid="147510" user="woodpeck_fixbot" changeset="10433650">
    <nd ref="269459566"/>
    <nd ref="269459567"/>
    <nd ref="269459523"/>
    <nd ref="269459568"/>
    <nd ref="497609083"/>
    <nd ref="269459569"/>
    <nd ref="269459570"/>
    <nd ref="269459571"/>
    <nd ref="269459572"/>
    <nd ref="269459573"/>
    <nd ref="269459574"/>
    <tag k="highway" v="residential"/>
    <tag k="name" v="Weekes Road"/>
  </way>
  <way id="39803549" version="3" timestamp="2010-02-15T06:09:08Z" uid="74617" user="JohnSmith" changeset="3880328">
    <nd ref="477116345"/>
    <nd ref="477116346"/>
    <nd ref="477116347"/>
    <nd ref="477116348"/>
    <nd ref="477116349"/>
    <nd ref="477116350"/>
    <nd ref="477116351"/>
    <nd ref="477116352"/>
    <nd ref="477116353"/>
    <nd ref="477116354"/>
    <nd ref="477116370"/>
    <nd ref="477116368"/>
    <nd ref="477116372"/>
    <nd ref="477116373"/>
    <nd ref="475533894"/>
    <nd ref="475533895"/>
    <nd ref="475533896"/>
    <nd ref="475533897"/>
    <tag k="highway" v="residential"/>
    <tag k="maxspeed" v="50"/>
    <tag k="name" v="Joseph Avenue"/>
  </way>
  <way id="39803549" version="4" timestamp="2012-01-19T04:07:49Z" uid="147510" user="woodpeck_fixbot" changeset="10433650">
    <nd ref="477116345"/>
    <nd ref="477116346"/>
    <nd ref="477116347"/>
    <nd ref="477116348"/>
    <nd ref="477116349"/>
    <nd ref="477116350"/>
    <nd ref="477116351"/>
    <nd ref="477116352"/>
    <nd ref="477116353"/>
    <nd ref="477116354"/>
    <nd ref="477116370"/>
    <nd ref="477116368"/>
    <nd ref="477116372"/>
    <nd ref="477116373"/>
    <nd ref="475533894"/>
    <nd ref="475533895"/>
    <nd ref="475533896"/>
    <nd ref="475533897"/>
    <tag k="highway" v="residential"/>
    <tag k="name" v="Joseph Avenue"/>
  </way>
  <way id="39803553" version="3" timestamp="2010-02-15T06:09:50Z" uid="74617" user="JohnSmith" changeset="3880328">
    <nd ref="477116355"/>
    <nd ref="477116356"/>
    <tag k="highway" v="residential"/>
    <tag k="maxspeed" v="50"/>
    <tag k="name" v="Kyecody Close"/>
  </way>
  <way id="39803553" version="4" timestamp="2012-01-19T04:07:51Z" uid="147510" user="woodpeck_fixbot" changeset="10433650">
    <nd ref="477116355"/>
    <nd ref="477116356"/>
    <tag k="highway" v="residential"/>
    <tag k="name" v="Kyecody Close"/>
  </way>
  <way id="39803555" version="3" timestamp="2010-02-15T06:09:51Z" uid="74617" user="JohnSmith" changeset="3880328">
    <nd ref="477116357"/>
    <nd ref="477116356"/>
    <nd ref="477116351"/>
    <tag k="highway" v="residential"/>
    <tag k="maxspeed" v="50"/>
    <tag k="name" v="Zoe Place"/>
  </way>
  <way id="39803555" version="4" timestamp="2012-01-19T04:07:52Z" uid="147510" user="woodpeck_fixbot" changeset="10433650">
    <nd ref="477116357"/>
    <nd ref="477116356"/>
    <nd ref="477116351"/>
    <tag k="highway" v="residential"/>
    <tag k="name" v="Zoe Place"/>
  </way>
  <way id="39803557" version="3" timestamp="2010-02-15T06:09:51Z" uid="74617" user="JohnSmith" changeset="3880328">
    <nd ref="477116354"/>
    <nd ref="477116314"/>
    <nd ref="477116334"/>
    <tag k="highway" v="residential"/>
    <tag k="maxspeed" v="50"/>
    <tag k="name" v="Arthur Terrace"/>
  </way>
  <way id="39803557" version="4" timestamp="2012-01-19T04:07:53Z" uid="147510" user="woodpeck_fixbot" changeset="10433650">
    <nd ref="477116354"/>
    <nd ref="477116314"/>
    <nd ref="477116334"/>
    <tag k="highway" v="residential"/>
    <tag k="name" v="Arthur Terrace"/>
  </way>
  <way id="39803569" version="2" timestamp="2010-02-15T06:09:09Z" uid="74617" user="JohnSmith" changeset="3880328">
    <nd ref="269459564"/>
    <nd ref="477116358"/>
    <tag k="highway" v="residential"/>
    <tag k="maxspeed" v="50"/>
    <tag k="name" v="Chad Street"/>
  </way>
  <way id="39803569" version="3" timestamp="2012-01-19T04:07:54Z" uid="147510" user="woodpeck_fixbot" changeset="10433650">
    <nd ref="269459564"/>
    <nd ref="477116358"/>
    <tag k="highway" v="residential"/>
    <tag k="name" v="Chad Street"/>
  </way>
  <way id="39803571" version="3" timestamp="2010-02-15T06:09:50Z" uid="74617" user="JohnSmith" changeset="3880328">
    <nd ref="477116367"/>
    <nd ref="477116368"/>
    <tag k="highway" v="residential"/>
    <tag k="maxspeed" v="50"/>
    <tag k="name" v="Torquata Court"/>
  </way>
  <way id="39803571" version="4" timestamp="2012-01-19T04:07:55Z" uid="147510" user="woodpeck_fixbot" changeset="10433650">
    <nd ref="477116367"/>
    <nd ref="477116368"/>
    <tag k="highway" v="residential"/>
    <tag k="name" v="Torquata Court"/>
  </way>
  <way id="39803572" version="3" timestamp="2010-02-15T06:09:50Z" uid="74617" user="JohnSmith" changeset="3880328">
    <nd ref="477116369"/>
    <nd ref="477116370"/>
    <tag k="highway" v="residential"/>
    <tag k="maxspeed" v="50"/>
    <tag k="name" v="Athena Close"/>
  </way>
  <way id="39803572" version="4" timestamp="2012-01-19T04:07:57Z" uid="147510" user="woodpeck_fixbot" changeset="10433650">
    <nd ref="477116369"/>
    <nd ref="477116370"/>
    <tag k="highway" v="residential"/>
    <tag k="name" v="Athena Close"/>
  </way>
</osm>
