<?xml version='1.0' encoding='UTF-8'?>
<osm version="0.6" generator="libosmium/2.20.0">
  <way id="39801738" version="2" timestamp="2010-07-08T18:29:30Z" uid="74617" user="JohnSmith" changeset="5167338">
    <nd ref="369642335"/>
    <nd ref="477116157"/>
    <nd ref="477116158"/>
    <tag k="highway" v="residential"/>
    <tag k="maxspeed" v="50"/>
    <tag k="maxspeed:source" v="default residential speed limit in Australia"/>
    <tag k="name" v="Bryson Court"/>
  </way>
  <way id="39801738" version="3" timestamp="2012-01-19T04:07:34Z" uid="147510" user="woodpeck_fixbot" changeset="10433650">
    <nd ref="369642335"/>
    <nd ref="477116157"/>
    <nd ref="477116158"/>
    <tag k="highway" v="residential"/>
    <tag k="name" v="Bryson Court"/>
  </way>
  <way id="39801739" version="2" timestamp="2010-07-08T18:19:41Z" uid="74617" user="JohnSmith" changeset="5167338">
    <nd ref="369642336"/>
    <nd ref="477116159"/>
    <nd ref="477116160"/>
    <tag k="highway" v="residential"/>
    <tag k="maxspeed" v="50"/>
    <tag k="maxspeed:source" v="default residential speed limit in Australia"/>
    <tag k="name" v="Apollo Court"/>
  </way>
  <way id="39801739" version="3" timestamp="2012-01-19T04:07:35Z" uid="147510" user="woodpeck_fixbot" changeset="10433650">
    <nd ref="369642336"/>
    <nd ref="477116159"/>
    <nd ref="477116160"/>
    <tag k="highway" v="residential"/>
    <tag k="name" v="Apollo Court"/>
  </way>
  <way id="39801744" version="2" timestamp="2010-07-08T18:45:48Z" uid="74617" user="JohnSmith" changeset="5167338">
    <nd ref="477116156"/>
    <nd ref="477116161"/>
    <tag k="highway" v="residential"/>
    <tag k="maxspeed" v="50"/>
    <tag k="maxspeed:source" v="default residential speed limit in Australia"/>
    <tag k="name" v="Watkins Place"/>
  </way>
  <way id="39801744" version="3" timestamp="2012-01-19T04:07:36Z" uid="147510" user="woodpeck_fixbot" changeset="10433650">
    <nd ref="477116156"/>
    <nd ref="477116161"/>
    <tag k="highway" v="residential"/>
    <tag k="name" v="Watkins Place"/>
  </way>
</osm>
