<?xml version='1.0' encoding='UTF-8'?>
<osm version="0.6" generator="libosmium/2.20.0">
  <way id="39919134" version="3" timestamp="2010-08-06T01:16:11Z" uid="66036" user="h4v" changeset="5413186">
    <nd ref="304696401"/>
    <nd ref="847468455"/>
    <nd ref="577553961"/>
    <nd ref="304696402"/>
    <nd ref="297857539"/>
    <tag k="highway" v="tertiary"/>
    <tag k="name" v="Warszawska"/>
    <tag k="oneway" v="yes"/>
  </way>
  <way id="39919134" version="4" timestamp="2011-06-17T23:40:42Z" uid="446126" user="Wampcia" changeset="8469496">
    <nd ref="304696401"/>
    <nd ref="847468455"/>
    <nd ref="577553961"/>
    <nd ref="304696402"/>
    <nd ref="297857539"/>
    <tag k="highway" v="secondary"/>
    <tag k="name" v="Warszawska"/>
    <tag k="oneway" v="yes"/>
  </way>
  <way id="39919218" version="2" timestamp="2011-06-02T21:49:32Z" uid="66036" user="h4v" changeset="8324808">
    <nd ref="302140334"/>
    <nd ref="299426983"/>
    <nd ref="302131606"/>
    <tag k="highway" v="tertiary"/>
    <tag k="name" v="doktora Władysława Biegańskiego"/>
  </way>
  <way id="39919218" version="3" timestamp="2012-02-25T13:39:06Z" uid="607553" user="Duke83" changeset="10787713">
    <nd ref="302140334"/>
    <nd ref="299426983"/>
    <nd ref="302131606"/>
    <tag k="highway" v="unclassified"/>
    <tag k="name" v="doktora Władysława Biegańskiego"/>
  </way>
  <way id="39919867" version="5" timestamp="2011-05-30T00:33:14Z" uid="66036" user="h4v" changeset="8287490">
    <nd ref="302240116"/>
    <nd ref="299835971"/>
    <nd ref="30092823"/>
    <nd ref="302242121"/>
    <nd ref="285918846"/>
    <nd ref="767260314"/>
    <nd ref="30092825"/>
    <tag k="highway" v="secondary"/>
    <tag k="name" v="Zgierska"/>
  </way>
  <way id="39919867" version="6" timestamp="2012-02-25T11:54:13Z" uid="607553" user="Duke83" changeset="10786841">
    <nd ref="302240116"/>
    <nd ref="299835971"/>
    <nd ref="30092823"/>
    <nd ref="302242121"/>
    <nd ref="285918846"/>
    <nd ref="767260314"/>
    <nd ref="30092825"/>
    <tag k="highway" v="secondary"/>
    <tag k="name" v="Zgierska"/>
    <tag k="surface" v="asphalt"/>
  </way>
  <way id="39919867" version="7" timestamp="2012-02-26T11:43:14Z" uid="607553" user="Duke83" changeset="10796998">
    <nd ref="302240116"/>
    <nd ref="299835971"/>
    <nd ref="30092823"/>
    <nd ref="302242121"/>
    <nd ref="285918846"/>
    <nd ref="767260314"/>
    <nd ref="30092825"/>
    <tag k="highway" v="secondary"/>
    <tag k="lanes" v="2"/>
    <tag k="name" v="Zgierska"/>
    <tag k="surface" v="asphalt"/>
  </way>
</osm>
