<?xml version='1.0' encoding='UTF-8'?>
<osm version="0.6" generator="libosmium/2.20.0">
  <way id="39959073" version="2" timestamp="2011-03-31T00:31:24Z" uid="6269" user="Mueck" changeset="7721806">
    <nd ref="479901280"/>
    <nd ref="1226195846"/>
    <nd ref="14850472"/>
    <nd ref="108238472"/>
    <nd ref="14849535"/>
    <nd ref="108238453"/>
    <nd ref="479901327"/>
    <nd ref="479901326"/>
    <nd ref="479901280"/>
    <tag k="leisure" v="playground"/>
  </way>
  <way id="39959118" version="2" timestamp="2010-04-06T14:39:41Z" uid="20587" user="balrog-kun" changeset="4342997">
    <nd ref="479904173"/>
    <nd ref="479904177"/>
    <nd ref="479904180"/>
    <tag k="highway" v="residential"/>
    <tag k="name" v="Saddlebrooke Court"/>
  </way>
  <way id="39959118" version="3" timestamp="2011-10-14T10:21:59Z" uid="28378" user="PHerison" changeset="9554144">
    <nd ref="479904173"/>
    <nd ref="479904177"/>
    <nd ref="1466763693"/>
    <nd ref="1466763692"/>
    <nd ref="479904180"/>
    <tag k="highway" v="residential"/>
    <tag k="name" v="Saddlebrooke Court"/>
    <tag k="source" v="bing"/>
  </way>
  <way id="39959204" version="1" timestamp="2009-09-01T12:13:18Z" uid="55964" user="Evan Sebire" changeset="2336913">
    <nd ref="479911441"/>
    <nd ref="726648"/>
    <nd ref="726651"/>
    <nd ref="726654"/>
    <nd ref="726655"/>
    <nd ref="726656"/>
    <nd ref="457416117"/>
    <tag k="highway" v="unclassified"/>
    <tag k="name" v="Alte Strasse"/>
  </way>
  <way id="39959204" version="2" timestamp="2012-01-18T09:05:28Z" uid="125339" user="efred" changeset="10425478"/>
  <way id="39959205" version="1" timestamp="2009-09-01T12:13:18Z" uid="55964" user="Evan Sebire" changeset="2336913">
    <nd ref="479911438"/>
    <nd ref="479911441"/>
    <tag k="bridge" v="yes"/>
    <tag k="highway" v="unclassified"/>
    <tag k="name" v="Alte Strasse"/>
  </way>
  <way id="39959205" version="2" timestamp="2012-01-18T09:05:28Z" uid="125339" user="efred" changeset="10425478"/>
  <way id="39959523" version="2" timestamp="2010-04-03T17:14:35Z" uid="20587" user="balrog-kun" changeset="4313610">
    <nd ref="479386202"/>
    <nd ref="479924118"/>
    <nd ref="479924129"/>
    <tag k="highway" v="residential"/>
    <tag k="name" v="Lawrence Drive Northeast"/>
    <tag k="oneway" v="yes"/>
  </way>
  <way id="39959524" version="2" timestamp="2010-04-03T17:14:35Z" uid="20587" user="balrog-kun" changeset="4313610">
    <nd ref="479924129"/>
    <nd ref="479924161"/>
    <nd ref="479924080"/>
    <tag k="highway" v="residential"/>
    <tag k="name" v="Lawrence Drive Northeast"/>
    <tag k="oneway" v="yes"/>
  </way>
  <way id="39959557" version="1" timestamp="2009-09-01T12:24:10Z" uid="61114" user="Trav" changeset="2337015">
    <nd ref="79733045"/>
    <nd ref="300214845"/>
    <nd ref="79733049"/>
    <tag k="highway" v="service"/>
    <tag k="name" v="Willoughby Lane"/>
    <tag k="oneway" v="yes"/>
    <tag k="source" v="yahoo_imagery"/>
    <tag k="source:name" v="survey"/>
    <tag k="source:oneway" v="survey"/>
  </way>
  <way id="39959557" version="2" timestamp="2009-12-22T06:36:05Z" uid="7617" user="Franc" changeset="3424999">
    <nd ref="79733045"/>
    <nd ref="300214845"/>
    <nd ref="79733049"/>
    <tag k="highway" v="service"/>
    <tag k="name" v="Willoughby Lane"/>
    <tag k="oneway" v="yes"/>
    <tag k="source" v="nearmap"/>
    <tag k="source:name" v="survey"/>
    <tag k="source:oneway" v="survey"/>
  </way>
  <way id="39959557" version="3" timestamp="2010-06-21T11:04:53Z" uid="69319" user="Rhubarb" changeset="5041660">
    <nd ref="79733045"/>
    <nd ref="300214845"/>
    <nd ref="598056266"/>
    <tag k="highway" v="service"/>
    <tag k="name" v="Willoughby Lane"/>
    <tag k="oneway" v="yes"/>
    <tag k="source" v="nearmap"/>
    <tag k="source:name" v="survey"/>
    <tag k="source:oneway" v="survey"/>
  </way>
  <way id="39959727" version="1" timestamp="2009-09-01T12:29:36Z" uid="61114" user="Trav" changeset="2337078">
    <nd ref="386586149"/>
    <nd ref="386586148"/>
    <nd ref="79745770"/>
    <nd ref="79745773"/>
    <nd ref="79754587"/>
    <tag k="highway" v="service"/>
    <tag k="name" v="Alexander Lane"/>
  </way>
  <way id="39959727" version="2" timestamp="2009-12-22T06:36:04Z" uid="7617" user="Franc" changeset="3424999">
    <nd ref="386586149"/>
    <nd ref="79745770"/>
    <nd ref="79745773"/>
    <nd ref="79754587"/>
    <tag k="highway" v="service"/>
    <tag k="name" v="Alexander Lane"/>
  </way>
</osm>
