<?xml version='1.0' encoding='UTF-8'?>
<osm version="0.6" generator="libosmium/2.20.0">
  <way id="4000005" version="1" timestamp="2007-07-18T22:41:41Z" uid="7617" user="Franc" changeset="152538">
    <nd ref="18325432"/>
    <nd ref="20979610"/>
    <nd ref="20979611"/>
    <nd ref="20979612"/>
    <nd ref="18325432"/>
    <tag k="created_by" v="JOSM"/>
    <tag k="highway" v="unclassified"/>
    <tag k="roundabout" v="yes"/>
  </way>
  <way id="4000005" version="2" timestamp="2008-01-28T01:01:20Z" uid="1679" user="andrewpmk" changeset="702562">
    <nd ref="18325432"/>
    <nd ref="20979610"/>
    <nd ref="20979611"/>
    <nd ref="20979612"/>
    <nd ref="18325432"/>
    <tag k="highway" v="unclassified"/>
    <tag k="junction" v="roundabout"/>
  </way>
  <way id="4000005" version="3" timestamp="2009-05-07T10:13:55Z" uid="121555" user="WeeJock" changeset="1105533">
    <nd ref="18325432"/>
    <nd ref="391848858"/>
    <nd ref="20979610"/>
    <nd ref="20979611"/>
    <nd ref="20979612"/>
    <nd ref="18325432"/>
    <tag k="highway" v="unclassified"/>
    <tag k="junction" v="roundabout"/>
  </way>
  <way id="4000005" version="4" timestamp="2009-11-14T12:09:49Z" uid="117890" user="Jonathan Trott" changeset="3112508">
    <nd ref="18325432"/>
    <nd ref="391848858"/>
    <nd ref="20979610"/>
    <nd ref="20979611"/>
    <nd ref="20979612"/>
    <nd ref="18325432"/>
    <tag k="highway" v="unclassified"/>
    <tag k="junction" v="roundabout"/>
  </way>
  <way id="4000005" version="5" timestamp="2010-01-30T03:29:32Z" uid="30201" user="rrankin" changeset="3748150">
    <nd ref="18325432"/>
    <nd ref="391848858"/>
    <nd ref="622755677"/>
    <nd ref="20979610"/>
    <nd ref="622755681"/>
    <nd ref="20979611"/>
    <nd ref="622755680"/>
    <nd ref="20979612"/>
    <nd ref="622755679"/>
    <nd ref="18325432"/>
    <tag k="highway" v="unclassified"/>
    <tag k="junction" v="roundabout"/>
  </way>
  <way id="4000007" version="4" timestamp="2010-01-30T00:11:21Z" uid="30201" user="rrankin" changeset="3747745">
    <nd ref="20979608"/>
    <nd ref="391848837"/>
    <nd ref="20979626"/>
    <tag k="highway" v="footway"/>
    <tag k="name" v="Bent Street"/>
  </way>
  <way id="4000009" version="1" timestamp="2007-07-18T22:41:40Z" uid="7617" user="Franc" changeset="152538">
    <nd ref="20979649"/>
    <nd ref="20979638"/>
    <nd ref="20979639"/>
    <nd ref="20979640"/>
    <nd ref="20979641"/>
    <nd ref="20979642"/>
    <nd ref="20979650"/>
    <nd ref="20979643"/>
    <tag k="created_by" v="JOSM"/>
    <tag k="highway" v="footway"/>
  </way>
  <way id="4000009" version="2" timestamp="2009-05-05T12:12:36Z" uid="121555" user="WeeJock" changeset="1085917"/>
  <way id="4000010" version="4" timestamp="2010-01-30T00:11:22Z" uid="30201" user="rrankin" changeset="3747745">
    <nd ref="20979636"/>
    <nd ref="20979671"/>
    <nd ref="20979641"/>
    <tag k="highway" v="pedestrian"/>
  </way>
  <way id="4000011" version="1" timestamp="2007-07-18T22:41:39Z" uid="7617" user="Franc" changeset="152538">
    <nd ref="20979662"/>
    <nd ref="20979663"/>
    <nd ref="20979664"/>
    <nd ref="20979665"/>
    <nd ref="20979666"/>
    <tag k="created_by" v="JOSM"/>
    <tag k="highway" v="service"/>
  </way>
  <way id="4000011" version="2" timestamp="2009-11-14T12:09:41Z" uid="117890" user="Jonathan Trott" changeset="3112508">
    <nd ref="20979662"/>
    <nd ref="20979663"/>
    <nd ref="20979664"/>
    <nd ref="20979665"/>
    <nd ref="20979666"/>
    <tag k="highway" v="service"/>
  </way>
  <way id="4000011" version="3" timestamp="2010-01-30T03:29:32Z" uid="30201" user="rrankin" changeset="3748150">
    <nd ref="20979662"/>
    <nd ref="20979663"/>
    <tag k="highway" v="service"/>
  </way>
  <way id="4000012" version="4" timestamp="2010-01-30T03:29:30Z" uid="30201" user="rrankin" changeset="3748150">
    <nd ref="20979668"/>
    <nd ref="391848838"/>
    <nd ref="391848852"/>
    <nd ref="391848850"/>
    <nd ref="391848836"/>
    <nd ref="622755675"/>
    <nd ref="391848835"/>
    <nd ref="391848851"/>
    <nd ref="20979669"/>
    <nd ref="622755676"/>
    <nd ref="20979670"/>
    <nd ref="20979663"/>
    <tag k="highway" v="service"/>
    <tag k="name" v="Sutton Avenue"/>
    <tag k="oneway" v="yes"/>
  </way>
  <way id="4000013" version="1" timestamp="2007-07-18T22:41:40Z" uid="7617" user="Franc" changeset="152538">
    <nd ref="20979652"/>
    <nd ref="20979654"/>
    <nd ref="20979655"/>
    <nd ref="20979656"/>
    <tag k="created_by" v="JOSM"/>
    <tag k="highway" v="precinct"/>
  </way>
  <way id="4000013" version="2" timestamp="2009-05-07T10:13:54Z" uid="121555" user="WeeJock" changeset="1105533">
    <nd ref="20979652"/>
    <nd ref="20979654"/>
    <nd ref="391848839"/>
    <nd ref="391848834"/>
    <nd ref="20979655"/>
    <nd ref="20979656"/>
    <tag k="created_by" v="JOSM"/>
    <tag k="highway" v="precinct"/>
  </way>
  <way id="4000013" version="3" timestamp="2009-05-22T11:55:15Z" uid="47419" user="ploppy" changeset="1285305">
    <nd ref="20979652"/>
    <nd ref="20979654"/>
    <nd ref="391848839"/>
    <nd ref="391848834"/>
    <nd ref="20979655"/>
    <nd ref="20979656"/>
    <tag k="created_by" v="JOSM"/>
    <tag k="highway" v="pedestrian"/>
  </way>
  <way id="4000013" version="4" timestamp="2009-11-14T12:09:51Z" uid="117890" user="Jonathan Trott" changeset="3112508">
    <nd ref="20979652"/>
    <nd ref="20979654"/>
    <nd ref="391848839"/>
    <nd ref="391848834"/>
    <nd ref="20979655"/>
    <nd ref="20979656"/>
    <tag k="highway" v="pedestrian"/>
  </way>
  <way id="4000029" version="2" timestamp="2009-01-21T12:42:19Z" uid="7617" user="Franc" changeset="820928">
    <nd ref="20979695"/>
    <nd ref="20979694"/>
    <nd ref="334515258"/>
    <nd ref="20979693"/>
    <nd ref="20958843"/>
    <tag k="abutters" v="residential"/>
    <tag k="created_by" v="JOSM"/>
    <tag k="highway" v="unclassified"/>
    <tag k="name" v="Grafton Street"/>
  </way>
  <way id="4000029" version="3" timestamp="2009-04-12T02:11:06Z" uid="7617" user="Franc" changeset="437175">
    <nd ref="20979695"/>
    <nd ref="373029701"/>
    <nd ref="20979694"/>
    <nd ref="334515258"/>
    <nd ref="20979693"/>
    <nd ref="20958843"/>
    <tag k="abutters" v="residential"/>
    <tag k="created_by" v="JOSM"/>
    <tag k="highway" v="unclassified"/>
    <tag k="name" v="Grafton Street"/>
  </way>
  <way id="4000029" version="4" timestamp="2009-11-14T12:10:53Z" uid="117890" user="Jonathan Trott" changeset="3112508">
    <nd ref="20979695"/>
    <nd ref="373029701"/>
    <nd ref="20979694"/>
    <nd ref="334515258"/>
    <nd ref="20979693"/>
    <nd ref="20958843"/>
    <tag k="abutters" v="residential"/>
    <tag k="highway" v="unclassified"/>
    <tag k="name" v="Grafton Street"/>
  </way>
  <way id="4000029" version="5" timestamp="2010-01-29T23:46:21Z" uid="30201" user="rrankin" changeset="3747639">
    <nd ref="20979695"/>
    <nd ref="373029701"/>
    <nd ref="20979694"/>
    <nd ref="334515258"/>
    <nd ref="20979693"/>
    <nd ref="20958843"/>
    <tag k="highway" v="unclassified"/>
    <tag k="name" v="Grafton Street"/>
  </way>
  <way id="4000029" version="6" timestamp="2010-06-19T22:25:36Z" uid="20949" user="Ebenezer" changeset="5028451">
    <nd ref="20979695"/>
    <nd ref="373029701"/>
    <nd ref="20979694"/>
    <nd ref="334515258"/>
    <nd ref="20979693"/>
    <nd ref="777393656"/>
    <nd ref="20958843"/>
    <tag k="highway" v="residential"/>
    <tag k="lcn" v="yes"/>
    <tag k="name" v="Grafton Street"/>
    <tag k="source" v="nearmap"/>
  </way>
  <way id="4000029" version="7" timestamp="2010-07-07T21:47:55Z" uid="74617" user="JohnSmith" changeset="5161069">
    <nd ref="20979695"/>
    <nd ref="373029701"/>
    <nd ref="20979694"/>
    <nd ref="334515258"/>
    <nd ref="20979693"/>
    <nd ref="777393656"/>
    <nd ref="20958843"/>
    <tag k="highway" v="residential"/>
    <tag k="lcn" v="yes"/>
    <tag k="maxspeed" v="50"/>
    <tag k="maxspeed:source" v="default residential speed limit in Australia"/>
    <tag k="name" v="Grafton Street"/>
    <tag k="source" v="nearmap"/>
  </way>
  <way id="4000029" version="8" timestamp="2012-01-08T02:36:35Z" uid="147510" user="woodpeck_fixbot" changeset="10327743">
    <nd ref="20979695"/>
    <nd ref="373029701"/>
    <nd ref="20979694"/>
    <nd ref="334515258"/>
    <nd ref="20979693"/>
    <nd ref="777393656"/>
    <nd ref="20958843"/>
    <tag k="highway" v="residential"/>
    <tag k="lcn" v="yes"/>
    <tag k="name" v="Grafton Street"/>
    <tag k="source" v="nearmap"/>
  </way>
  <way id="4000030" version="4" timestamp="2009-11-09T06:25:44Z" uid="30201" user="rrankin" changeset="3070916">
    <nd ref="20979733"/>
    <nd ref="20979732"/>
    <nd ref="20979723"/>
    <nd ref="20979735"/>
    <nd ref="20979733"/>
    <tag k="highway" v="residential"/>
    <tag k="junction" v="roundabout"/>
    <tag k="name" v="Adelaide Street"/>
  </way>
  <way id="4000030" version="5" timestamp="2009-11-14T12:11:07Z" uid="117890" user="Jonathan Trott" changeset="3112508">
    <nd ref="20979733"/>
    <nd ref="20979732"/>
    <nd ref="20979723"/>
    <nd ref="20979735"/>
    <nd ref="20979733"/>
    <tag k="highway" v="residential"/>
    <tag k="junction" v="roundabout"/>
    <tag k="name" v="Adelaide Street"/>
  </way>
  <way id="4000030" version="6" timestamp="2010-06-12T22:36:17Z" uid="20949" user="Ebenezer" changeset="4974615">
    <nd ref="20979733"/>
    <nd ref="20979732"/>
    <nd ref="20979723"/>
    <nd ref="20979735"/>
    <nd ref="20979733"/>
    <tag k="highway" v="residential"/>
    <tag k="junction" v="roundabout"/>
    <tag k="lcn" v="yes"/>
    <tag k="name" v="Adelaide Street"/>
  </way>
  <way id="4000030" version="7" timestamp="2010-07-07T21:49:46Z" uid="74617" user="JohnSmith" changeset="5161069">
    <nd ref="20979733"/>
    <nd ref="20979732"/>
    <nd ref="20979723"/>
    <nd ref="20979735"/>
    <nd ref="20979733"/>
    <tag k="highway" v="residential"/>
    <tag k="junction" v="roundabout"/>
    <tag k="lcn" v="yes"/>
    <tag k="maxspeed" v="50"/>
    <tag k="maxspeed:source" v="default residential speed limit in Australia"/>
    <tag k="name" v="Adelaide Street"/>
  </way>
  <way id="4000030" version="8" timestamp="2012-01-08T02:36:36Z" uid="147510" user="woodpeck_fixbot" changeset="10327743">
    <nd ref="20979733"/>
    <nd ref="20979732"/>
    <nd ref="20979723"/>
    <nd ref="20979735"/>
    <nd ref="20979733"/>
    <tag k="highway" v="residential"/>
    <tag k="junction" v="roundabout"/>
    <tag k="lcn" v="yes"/>
    <tag k="name" v="Adelaide Street"/>
  </way>
  <way id="4000031" version="1" timestamp="2007-09-23T04:47:56Z" uid="7617" user="Franc" changeset="506102">
    <nd ref="20955149"/>
    <nd ref="58282695"/>
    <nd ref="20979731"/>
    <nd ref="14271822"/>
    <tag k="created_by" v="JOSM"/>
    <tag k="highway" v="secondary"/>
    <tag k="name" v="Oxford Street"/>
  </way>
  <way id="4000031" version="2" timestamp="2007-10-24T03:19:33Z" uid="15460" user="Douglas Kastle" changeset="299815">
    <nd ref="20955149"/>
    <nd ref="58282695"/>
    <nd ref="20979731"/>
    <nd ref="14271822"/>
    <tag k="created_by" v="JOSM"/>
    <tag k="highway" v="residential"/>
    <tag k="name" v="Oxford Street"/>
  </way>
  <way id="4000031" version="3" timestamp="2008-09-22T03:43:57Z" uid="30201" user="rrankin" changeset="678141">
    <nd ref="20955149"/>
    <nd ref="58282695"/>
    <nd ref="20979731"/>
    <nd ref="298936636"/>
    <nd ref="14271822"/>
    <tag k="created_by" v="JOSM"/>
    <tag k="highway" v="residential"/>
    <tag k="name" v="Oxford Street"/>
  </way>
  <way id="4000031" version="4" timestamp="2009-04-13T12:52:53Z" uid="18713" user="Diego" changeset="485585">
    <nd ref="20955149"/>
    <nd ref="58282695"/>
    <nd ref="20979731"/>
    <nd ref="298936636"/>
    <tag k="created_by" v="JOSM"/>
    <tag k="highway" v="residential"/>
    <tag k="name" v="Oxford Street"/>
  </way>
  <way id="4000031" version="5" timestamp="2009-11-14T12:11:04Z" uid="117890" user="Jonathan Trott" changeset="3112508">
    <nd ref="20955149"/>
    <nd ref="58282695"/>
    <nd ref="20979731"/>
    <nd ref="298936636"/>
    <tag k="highway" v="residential"/>
    <tag k="name" v="Oxford Street"/>
  </way>
  <way id="4000031" version="6" timestamp="2010-06-12T22:36:23Z" uid="20949" user="Ebenezer" changeset="4974615">
    <nd ref="20955149"/>
    <nd ref="58282695"/>
    <nd ref="770696366"/>
    <nd ref="20979731"/>
    <nd ref="770696312"/>
    <nd ref="770696365"/>
    <nd ref="298936636"/>
    <tag k="highway" v="residential"/>
    <tag k="name" v="Oxford Street"/>
  </way>
  <way id="4000031" version="7" timestamp="2010-07-07T21:55:23Z" uid="74617" user="JohnSmith" changeset="5161069">
    <nd ref="20955149"/>
    <nd ref="58282695"/>
    <nd ref="770696366"/>
    <nd ref="20979731"/>
    <nd ref="770696312"/>
    <nd ref="770696365"/>
    <nd ref="298936636"/>
    <tag k="highway" v="residential"/>
    <tag k="maxspeed" v="50"/>
    <tag k="maxspeed:source" v="default residential speed limit in Australia"/>
    <tag k="name" v="Oxford Street"/>
  </way>
  <way id="4000031" version="8" timestamp="2010-09-14T13:13:05Z" uid="79475" user="AlexOnTheBus" changeset="5778379">
    <nd ref="20955149"/>
    <nd ref="58282695"/>
    <nd ref="770696366"/>
    <nd ref="20979731"/>
    <nd ref="770696312"/>
    <nd ref="770696365"/>
    <tag k="highway" v="residential"/>
    <tag k="maxspeed" v="50"/>
    <tag k="maxspeed:source" v="default residential speed limit in Australia"/>
    <tag k="name" v="Oxford Street"/>
  </way>
  <way id="4000031" version="9" timestamp="2010-10-16T05:27:04Z" uid="7617" user="Franc" changeset="6054570">
    <nd ref="20955149"/>
    <nd ref="951198453"/>
    <nd ref="58282695"/>
    <nd ref="770696366"/>
    <nd ref="20979731"/>
    <nd ref="770696312"/>
    <nd ref="770696365"/>
    <tag k="highway" v="residential"/>
    <tag k="maxspeed" v="50"/>
    <tag k="maxspeed:source" v="default residential speed limit in Australia"/>
    <tag k="name" v="Oxford Street"/>
  </way>
  <way id="4000031" version="10" timestamp="2012-01-08T02:36:37Z" uid="147510" user="woodpeck_fixbot" changeset="10327743">
    <nd ref="20955149"/>
    <nd ref="951198453"/>
    <nd ref="58282695"/>
    <nd ref="770696366"/>
    <nd ref="20979731"/>
    <nd ref="770696312"/>
    <nd ref="770696365"/>
    <tag k="highway" v="residential"/>
    <tag k="name" v="Oxford Street"/>
  </way>
  <way id="4000033" version="4" timestamp="2010-01-29T23:46:22Z" uid="30201" user="rrankin" changeset="3747639">
    <nd ref="20979725"/>
    <nd ref="20979726"/>
    <tag k="highway" v="service"/>
    <tag k="name" v="Grafton Lane"/>
  </way>
  <way id="4000033" version="5" timestamp="2010-06-12T22:36:17Z" uid="20949" user="Ebenezer" changeset="4974615">
    <nd ref="20979725"/>
    <nd ref="770696410"/>
    <nd ref="770696411"/>
    <nd ref="20979726"/>
    <tag k="highway" v="service"/>
    <tag k="lcn" v="yes"/>
    <tag k="name" v="Grafton Lane"/>
    <tag k="source" v="nearmap"/>
  </way>
  <way id="4000034" version="1" timestamp="2007-09-23T04:47:55Z" uid="7617" user="Franc" changeset="506102">
    <nd ref="20979732"/>
    <nd ref="20979734"/>
    <tag k="created_by" v="JOSM"/>
    <tag k="highway" v="unclassified"/>
    <tag k="name" v="Adelaide Street"/>
    <tag k="source:name" v="survey"/>
  </way>
  <way id="4000034" version="2" timestamp="2007-10-15T07:38:38Z" uid="15460" user="Douglas Kastle" changeset="189385">
    <nd ref="20979732"/>
    <nd ref="20979734"/>
    <tag k="created_by" v="JOSM"/>
    <tag k="highway" v="unclassified"/>
    <tag k="name" v="Adelaide Street"/>
    <tag k="source:name" v="survey"/>
  </way>
  <way id="4000034" version="3" timestamp="2009-11-09T06:25:42Z" uid="30201" user="rrankin" changeset="3070916">
    <nd ref="20979732"/>
    <nd ref="559875704"/>
    <nd ref="559875707"/>
    <nd ref="20979734"/>
    <tag k="highway" v="unclassified"/>
    <tag k="name" v="Adelaide Street"/>
    <tag k="source:name" v="survey"/>
  </way>
  <way id="4000034" version="4" timestamp="2009-11-09T10:12:14Z" uid="30201" user="rrankin" changeset="3071998">
    <nd ref="20979732"/>
    <nd ref="559875704"/>
    <nd ref="559875707"/>
    <nd ref="20979734"/>
    <tag k="highway" v="unclassified"/>
    <tag k="name" v="Adelaide Street"/>
    <tag k="source" v="survey"/>
  </way>
  <way id="4000034" version="5" timestamp="2009-11-14T12:11:07Z" uid="117890" user="Jonathan Trott" changeset="3112508">
    <nd ref="20979732"/>
    <nd ref="559875704"/>
    <nd ref="559875707"/>
    <nd ref="20979734"/>
    <tag k="highway" v="unclassified"/>
    <tag k="name" v="Adelaide Street"/>
    <tag k="source" v="survey"/>
  </way>
  <way id="4000034" version="6" timestamp="2010-06-12T22:36:19Z" uid="20949" user="Ebenezer" changeset="4974615">
    <nd ref="20979732"/>
    <nd ref="559875704"/>
    <nd ref="559875707"/>
    <nd ref="20979734"/>
    <tag k="highway" v="residential"/>
    <tag k="lcn" v="yes"/>
    <tag k="name" v="Adelaide Street"/>
    <tag k="source" v="survey"/>
  </way>
  <way id="4000034" version="7" timestamp="2010-07-07T21:47:15Z" uid="74617" user="JohnSmith" changeset="5161069">
    <nd ref="20979732"/>
    <nd ref="559875704"/>
    <nd ref="559875707"/>
    <nd ref="20979734"/>
    <tag k="highway" v="residential"/>
    <tag k="lcn" v="yes"/>
    <tag k="maxspeed" v="50"/>
    <tag k="maxspeed:source" v="default residential speed limit in Australia"/>
    <tag k="name" v="Adelaide Street"/>
    <tag k="source" v="survey"/>
  </way>
  <way id="4000034" version="8" timestamp="2012-01-08T02:36:39Z" uid="147510" user="woodpeck_fixbot" changeset="10327743">
    <nd ref="20979732"/>
    <nd ref="559875704"/>
    <nd ref="559875707"/>
    <nd ref="20979734"/>
    <tag k="highway" v="residential"/>
    <tag k="lcn" v="yes"/>
    <tag k="name" v="Adelaide Street"/>
    <tag k="source" v="survey"/>
  </way>
  <way id="4000047" version="2" timestamp="2010-01-29T22:26:38Z" uid="30201" user="rrankin" changeset="3747149">
    <nd ref="20979769"/>
    <nd ref="20979770"/>
    <nd ref="20979771"/>
    <nd ref="20979772"/>
    <nd ref="20979773"/>
    <nd ref="20979786"/>
    <nd ref="26524714"/>
    <tag k="highway" v="secondary"/>
    <tag k="name" v="Military Road"/>
  </way>
  <way id="4000047" version="3" timestamp="2010-03-19T10:22:58Z" uid="20949" user="Ebenezer" changeset="4168655">
    <nd ref="20979769"/>
    <nd ref="669470674"/>
    <nd ref="20979770"/>
    <nd ref="20979771"/>
    <nd ref="20979772"/>
    <nd ref="20979773"/>
    <nd ref="20979786"/>
    <nd ref="26524714"/>
    <tag k="highway" v="secondary"/>
    <tag k="name" v="Military Road"/>
  </way>
  <way id="4000047" version="4" timestamp="2010-09-14T13:09:34Z" uid="79475" user="AlexOnTheBus" changeset="5778379">
    <nd ref="20979769"/>
    <nd ref="669470674"/>
    <nd ref="20979770"/>
    <nd ref="20979771"/>
    <nd ref="20979772"/>
    <nd ref="20979773"/>
    <nd ref="20979786"/>
    <nd ref="26524714"/>
    <tag k="highway" v="tertiary"/>
    <tag k="name" v="Military Road"/>
  </way>
  <way id="4000049" version="3" timestamp="2010-01-29T22:26:36Z" uid="30201" user="rrankin" changeset="3747149">
    <nd ref="20979773"/>
    <nd ref="246963952"/>
    <nd ref="20979775"/>
    <nd ref="20979784"/>
    <tag k="highway" v="residential"/>
    <tag k="name" v="Kimberley Street"/>
  </way>
  <way id="4000049" version="4" timestamp="2010-07-07T21:55:31Z" uid="74617" user="JohnSmith" changeset="5161069">
    <nd ref="20979773"/>
    <nd ref="246963952"/>
    <nd ref="20979775"/>
    <nd ref="20979784"/>
    <tag k="highway" v="residential"/>
    <tag k="maxspeed" v="50"/>
    <tag k="maxspeed:source" v="default residential speed limit in Australia"/>
    <tag k="name" v="Kimberley Street"/>
  </way>
  <way id="4000049" version="5" timestamp="2012-01-08T02:36:40Z" uid="147510" user="woodpeck_fixbot" changeset="10327743">
    <nd ref="20979773"/>
    <nd ref="246963952"/>
    <nd ref="20979775"/>
    <nd ref="20979784"/>
    <tag k="highway" v="residential"/>
    <tag k="name" v="Kimberley Street"/>
  </way>
  <way id="4000050" version="2" timestamp="2010-01-29T22:26:39Z" uid="30201" user="rrankin" changeset="3747149">
    <nd ref="20979784"/>
    <nd ref="20979785"/>
    <tag k="highway" v="residential"/>
    <tag k="name" v="Ray Street"/>
  </way>
  <way id="4000050" version="3" timestamp="2010-07-07T21:48:43Z" uid="74617" user="JohnSmith" changeset="5161069">
    <nd ref="20979784"/>
    <nd ref="20979785"/>
    <tag k="highway" v="residential"/>
    <tag k="maxspeed" v="50"/>
    <tag k="maxspeed:source" v="default residential speed limit in Australia"/>
    <tag k="name" v="Ray Street"/>
  </way>
  <way id="4000050" version="4" timestamp="2012-01-08T02:36:41Z" uid="147510" user="woodpeck_fixbot" changeset="10327743">
    <nd ref="20979784"/>
    <nd ref="20979785"/>
    <tag k="highway" v="residential"/>
    <tag k="name" v="Ray Street"/>
  </way>
  <way id="4000051" version="4" timestamp="2010-01-29T22:26:39Z" uid="30201" user="rrankin" changeset="3747149">
    <nd ref="20979787"/>
    <nd ref="20979788"/>
    <nd ref="20979789"/>
    <nd ref="20979790"/>
    <nd ref="20979791"/>
    <nd ref="20979792"/>
    <nd ref="20979793"/>
    <nd ref="20979794"/>
    <nd ref="20979795"/>
    <nd ref="20979796"/>
    <nd ref="20979797"/>
    <nd ref="20979799"/>
    <tag k="foot" v="yes"/>
    <tag k="highway" v="footway"/>
    <tag k="name" v="Cliff Top Walk"/>
    <tag k="surface" v="unpaved"/>
  </way>
  <way id="4000052" version="3" timestamp="2010-01-29T22:26:39Z" uid="30201" user="rrankin" changeset="3747149">
    <nd ref="20979799"/>
    <nd ref="20979800"/>
    <nd ref="20979801"/>
    <nd ref="20979802"/>
    <nd ref="20979803"/>
    <nd ref="20979804"/>
    <nd ref="20979805"/>
    <nd ref="20979806"/>
    <nd ref="20979807"/>
    <nd ref="20979808"/>
    <nd ref="20979809"/>
    <nd ref="20979810"/>
    <nd ref="20979811"/>
    <tag k="foot" v="yes"/>
    <tag k="highway" v="footway"/>
    <tag k="name" v="cliff top board walk"/>
  </way>
  <way id="4000053" version="5" timestamp="2009-01-24T02:49:07Z" uid="7617" user="Franc" changeset="830135">
    <nd ref="20979811"/>
    <nd ref="20979812"/>
    <nd ref="246967207"/>
    <nd ref="26524718"/>
    <nd ref="246973068"/>
    <nd ref="20979842"/>
    <tag k="abutters" v="residential"/>
    <tag k="created_by" v="Potlatch 0.7"/>
    <tag k="highway" v="residential"/>
    <tag k="name" v="Lancaster Road"/>
  </way>
  <way id="4000053" version="6" timestamp="2010-01-29T22:26:37Z" uid="30201" user="rrankin" changeset="3747149">
    <nd ref="20979811"/>
    <nd ref="20979812"/>
    <nd ref="246967207"/>
    <nd ref="26524718"/>
    <nd ref="246973068"/>
    <nd ref="20979842"/>
    <tag k="highway" v="residential"/>
    <tag k="name" v="Lancaster Road"/>
  </way>
  <way id="4000053" version="7" timestamp="2010-07-07T21:49:01Z" uid="74617" user="JohnSmith" changeset="5161069">
    <nd ref="20979811"/>
    <nd ref="20979812"/>
    <nd ref="246967207"/>
    <nd ref="26524718"/>
    <nd ref="246973068"/>
    <nd ref="20979842"/>
    <tag k="highway" v="residential"/>
    <tag k="maxspeed" v="50"/>
    <tag k="maxspeed:source" v="default residential speed limit in Australia"/>
    <tag k="name" v="Lancaster Road"/>
  </way>
  <way id="4000053" version="8" timestamp="2012-01-08T02:36:42Z" uid="147510" user="woodpeck_fixbot" changeset="10327743">
    <nd ref="20979811"/>
    <nd ref="20979812"/>
    <nd ref="246967207"/>
    <nd ref="26524718"/>
    <nd ref="246973068"/>
    <nd ref="20979842"/>
    <tag k="highway" v="residential"/>
    <tag k="name" v="Lancaster Road"/>
  </way>
  <way id="4000055" version="1" timestamp="2007-05-20T08:15:31Z" uid="7617" user="Franc" changeset="58703">
    <nd ref="20979821"/>
    <nd ref="29377781"/>
    <nd ref="20979844"/>
    <tag k="abutters" v="residential"/>
    <tag k="created_by" v="Potlatch alpha"/>
    <tag k="highway" v="residential"/>
    <tag k="name" v="Kippara Road"/>
  </way>
  <way id="4000055" version="2" timestamp="2008-02-10T09:45:32Z" uid="20949" user="Ebenezer" changeset="91276"/>
  <way id="4000056" version="2" timestamp="2009-11-08T11:31:17Z" uid="7617" user="Franc" changeset="3062741">
    <nd ref="14697000"/>
    <nd ref="20979848"/>
    <nd ref="20979849"/>
    <tag k="abutters" v="residential"/>
    <tag k="highway" v="residential"/>
    <tag k="name" v="Hastings Parade"/>
  </way>
  <way id="4000056" version="3" timestamp="2009-12-23T05:07:54Z" uid="30201" user="rrankin" changeset="3431995">
    <nd ref="14697000"/>
    <nd ref="20979848"/>
    <nd ref="20979849"/>
    <tag k="highway" v="residential"/>
    <tag k="name" v="Hastings Parade"/>
  </way>
  <way id="4000056" version="4" timestamp="2010-07-07T21:53:02Z" uid="74617" user="JohnSmith" changeset="5161069">
    <nd ref="14697000"/>
    <nd ref="20979848"/>
    <nd ref="20979849"/>
    <tag k="highway" v="residential"/>
    <tag k="maxspeed" v="50"/>
    <tag k="maxspeed:source" v="default residential speed limit in Australia"/>
    <tag k="name" v="Hastings Parade"/>
  </way>
  <way id="4000056" version="5" timestamp="2012-01-08T02:36:43Z" uid="147510" user="woodpeck_fixbot" changeset="10327743">
    <nd ref="14697000"/>
    <nd ref="20979848"/>
    <nd ref="20979849"/>
    <tag k="highway" v="residential"/>
    <tag k="name" v="Hastings Parade"/>
  </way>
  <way id="4000057" version="2" timestamp="2009-11-08T11:31:17Z" uid="7617" user="Franc" changeset="3062741">
    <nd ref="559440654"/>
    <nd ref="20979851"/>
    <tag k="abutters" v="residential"/>
    <tag k="highway" v="residential"/>
    <tag k="name" v="Bay Street"/>
  </way>
  <way id="4000057" version="3" timestamp="2009-12-23T05:07:55Z" uid="30201" user="rrankin" changeset="3431995">
    <nd ref="559440654"/>
    <nd ref="20979851"/>
    <tag k="highway" v="residential"/>
    <tag k="name" v="Bay Street"/>
  </way>
  <way id="4000057" version="4" timestamp="2010-07-07T21:49:34Z" uid="74617" user="JohnSmith" changeset="5161069">
    <nd ref="559440654"/>
    <nd ref="20979851"/>
    <tag k="highway" v="residential"/>
    <tag k="maxspeed" v="50"/>
    <tag k="maxspeed:source" v="default residential speed limit in Australia"/>
    <tag k="name" v="Bay Street"/>
  </way>
  <way id="4000057" version="5" timestamp="2012-01-08T02:36:44Z" uid="147510" user="woodpeck_fixbot" changeset="10327743">
    <nd ref="559440654"/>
    <nd ref="20979851"/>
    <tag k="highway" v="residential"/>
    <tag k="name" v="Bay Street"/>
  </way>
  <way id="4000058" version="3" timestamp="2009-12-23T05:06:57Z" uid="30201" user="rrankin" changeset="3431995">
    <nd ref="14696993"/>
    <nd ref="83989411"/>
    <tag k="highway" v="residential"/>
    <tag k="name" v="Brighton Boulevard"/>
    <tag k="oneway" v="yes"/>
  </way>
  <way id="4000058" version="4" timestamp="2010-07-07T21:51:30Z" uid="74617" user="JohnSmith" changeset="5161069">
    <nd ref="14696993"/>
    <nd ref="83989411"/>
    <tag k="highway" v="residential"/>
    <tag k="maxspeed" v="50"/>
    <tag k="maxspeed:source" v="default residential speed limit in Australia"/>
    <tag k="name" v="Brighton Boulevard"/>
    <tag k="oneway" v="yes"/>
  </way>
  <way id="4000058" version="5" timestamp="2012-01-08T02:36:45Z" uid="147510" user="woodpeck_fixbot" changeset="10327743">
    <nd ref="14696993"/>
    <nd ref="83989411"/>
    <tag k="highway" v="residential"/>
    <tag k="name" v="Brighton Boulevard"/>
    <tag k="oneway" v="yes"/>
  </way>
  <way id="4000059" version="4" timestamp="2009-12-23T05:07:22Z" uid="30201" user="rrankin" changeset="3431995">
    <nd ref="598420030"/>
    <nd ref="20979887"/>
    <nd ref="20979877"/>
    <nd ref="20979888"/>
    <nd ref="20979876"/>
    <nd ref="86307816"/>
    <nd ref="62525946"/>
    <tag k="highway" v="secondary"/>
    <tag k="name" v="Curlewis Street"/>
  </way>
  <way id="4000059" version="5" timestamp="2010-01-23T14:43:15Z" uid="7617" user="Franc" changeset="3692271">
    <nd ref="598420030"/>
    <nd ref="20979887"/>
    <nd ref="20979877"/>
    <nd ref="618698653"/>
    <nd ref="20979888"/>
    <nd ref="20979876"/>
    <nd ref="86307816"/>
    <nd ref="62525946"/>
    <tag k="highway" v="secondary"/>
    <tag k="name" v="Curlewis Street"/>
  </way>
  <way id="4000059" version="6" timestamp="2010-09-14T13:05:15Z" uid="79475" user="AlexOnTheBus" changeset="5778379">
    <nd ref="598420030"/>
    <nd ref="20979887"/>
    <tag k="highway" v="secondary"/>
    <tag k="name" v="Curlewis Street"/>
  </way>
  <way id="4000059" version="7" timestamp="2010-09-14T13:05:19Z" uid="79475" user="AlexOnTheBus" changeset="5778379">
    <nd ref="598420030"/>
    <nd ref="20979887"/>
    <tag k="highway" v="primary"/>
  </way>
  <way id="4000061" version="7" timestamp="2009-11-09T06:25:43Z" uid="30201" user="rrankin" changeset="3070916">
    <nd ref="14696976"/>
    <nd ref="20979969"/>
    <nd ref="20979879"/>
    <nd ref="60716756"/>
    <nd ref="264814669"/>
    <nd ref="264814646"/>
    <nd ref="559875808"/>
    <nd ref="62553262"/>
    <tag k="highway" v="residential"/>
    <tag k="name" v="Hall Street"/>
  </way>
  <way id="4000061" version="8" timestamp="2009-12-23T05:07:33Z" uid="30201" user="rrankin" changeset="3431995">
    <nd ref="14696986"/>
    <nd ref="14696976"/>
    <nd ref="20979969"/>
    <nd ref="20979879"/>
    <nd ref="60716756"/>
    <nd ref="264814669"/>
    <nd ref="264814646"/>
    <nd ref="559875808"/>
    <nd ref="62553262"/>
    <tag k="highway" v="residential"/>
    <tag k="name" v="Hall Street"/>
  </way>
  <way id="4000061" version="9" timestamp="2010-01-23T14:43:16Z" uid="7617" user="Franc" changeset="3692271">
    <nd ref="14696986"/>
    <nd ref="14696976"/>
    <nd ref="20979969"/>
    <nd ref="20979879"/>
    <nd ref="60716756"/>
    <nd ref="264814669"/>
    <nd ref="264814646"/>
    <nd ref="618698648"/>
    <nd ref="559875808"/>
    <nd ref="62553262"/>
    <tag k="highway" v="residential"/>
    <tag k="name" v="Hall Street"/>
  </way>
  <way id="4000061" version="10" timestamp="2010-07-07T21:51:50Z" uid="74617" user="JohnSmith" changeset="5161069">
    <nd ref="14696986"/>
    <nd ref="14696976"/>
    <nd ref="20979969"/>
    <nd ref="20979879"/>
    <nd ref="60716756"/>
    <nd ref="264814669"/>
    <nd ref="264814646"/>
    <nd ref="618698648"/>
    <nd ref="559875808"/>
    <nd ref="62553262"/>
    <tag k="highway" v="residential"/>
    <tag k="maxspeed" v="50"/>
    <tag k="maxspeed:source" v="default residential speed limit in Australia"/>
    <tag k="name" v="Hall Street"/>
  </way>
  <way id="4000061" version="11" timestamp="2011-03-12T08:36:13Z" uid="420745" user="Milap" changeset="7530618">
    <nd ref="62553262"/>
    <nd ref="559875808"/>
    <nd ref="618698648"/>
    <nd ref="264814646"/>
    <nd ref="264814669"/>
    <nd ref="60716756"/>
    <nd ref="20979879"/>
    <nd ref="20979969"/>
    <nd ref="14696976"/>
    <nd ref="14696986"/>
    <tag k="comment" v="Adding Pharmacy"/>
    <tag k="highway" v="residential"/>
    <tag k="maxspeed" v="50"/>
    <tag k="maxspeed:source" v="default residential speed limit in Australia"/>
    <tag k="name" v="Hall Street"/>
  </way>
  <way id="4000061" version="12" timestamp="2011-12-27T01:39:54Z" uid="574859" user="k2026" changeset="10212423">
    <nd ref="62553262"/>
    <nd ref="559875808"/>
    <nd ref="618698648"/>
    <nd ref="264814646"/>
    <nd ref="264814669"/>
    <nd ref="60716756"/>
    <nd ref="20979879"/>
    <nd ref="20979969"/>
    <nd ref="14696976"/>
    <nd ref="14696986"/>
    <tag k="comment" v="Adding Pharmacy"/>
    <tag k="highway" v="residential"/>
    <tag k="maxspeed" v="40"/>
    <tag k="maxspeed:source" v="default residential speed limit in Australia"/>
    <tag k="name" v="Hall Street"/>
  </way>
  <way id="4000061" version="13" timestamp="2012-01-08T02:36:47Z" uid="147510" user="woodpeck_fixbot" changeset="10327743">
    <nd ref="62553262"/>
    <nd ref="559875808"/>
    <nd ref="618698648"/>
    <nd ref="264814646"/>
    <nd ref="264814669"/>
    <nd ref="60716756"/>
    <nd ref="20979879"/>
    <nd ref="20979969"/>
    <nd ref="14696976"/>
    <nd ref="14696986"/>
    <tag k="comment" v="Adding Pharmacy"/>
    <tag k="highway" v="residential"/>
    <tag k="name" v="Hall Street"/>
  </way>
  <way id="4000062" version="5" timestamp="2009-12-23T05:07:46Z" uid="30201" user="rrankin" changeset="3431995">
    <nd ref="60711141"/>
    <nd ref="598420065"/>
    <nd ref="598420059"/>
    <nd ref="598420057"/>
    <nd ref="77565385"/>
    <tag k="highway" v="residential"/>
    <tag k="name" v="Gould Street North"/>
  </way>
  <way id="4000062" version="6" timestamp="2010-07-07T21:55:02Z" uid="74617" user="JohnSmith" changeset="5161069">
    <nd ref="60711141"/>
    <nd ref="598420065"/>
    <nd ref="598420059"/>
    <nd ref="598420057"/>
    <nd ref="77565385"/>
    <tag k="highway" v="residential"/>
    <tag k="maxspeed" v="50"/>
    <tag k="maxspeed:source" v="default residential speed limit in Australia"/>
    <tag k="name" v="Gould Street North"/>
  </way>
  <way id="4000062" version="7" timestamp="2012-01-08T02:36:48Z" uid="147510" user="woodpeck_fixbot" changeset="10327743">
    <nd ref="60711141"/>
    <nd ref="598420065"/>
    <nd ref="598420059"/>
    <nd ref="598420057"/>
    <nd ref="77565385"/>
    <tag k="highway" v="residential"/>
    <tag k="name" v="Gould Street North"/>
  </way>
  <way id="4000063" version="3" timestamp="2009-11-09T06:25:43Z" uid="30201" user="rrankin" changeset="3070916">
    <nd ref="20979886"/>
    <nd ref="20979880"/>
    <tag k="highway" v="pedestrian"/>
    <tag k="name" v="Roscoe Street"/>
  </way>
  <way id="4000067" version="2" timestamp="2008-09-22T03:43:46Z" uid="30201" user="rrankin" changeset="678141">
    <nd ref="20979881"/>
    <nd ref="20979882"/>
    <tag k="abutters" v="residential"/>
    <tag k="created_by" v="Potlatch alpha"/>
    <tag k="highway" v="unclassified"/>
    <tag k="name" v="O&apos;Brian Street"/>
  </way>
  <way id="4000067" version="3" timestamp="2009-12-23T05:07:29Z" uid="30201" user="rrankin" changeset="3431995">
    <nd ref="20979881"/>
    <nd ref="20979882"/>
    <tag k="highway" v="unclassified"/>
    <tag k="name" v="O&apos;Brian Street"/>
  </way>
  <way id="4000067" version="4" timestamp="2010-03-15T10:37:59Z" uid="20949" user="Ebenezer" changeset="4133384">
    <nd ref="20979881"/>
    <nd ref="20979882"/>
    <tag k="cycleway" v="lane"/>
    <tag k="highway" v="unclassified"/>
    <tag k="lcn" v="yes"/>
    <tag k="name" v="O&apos;Brian Street"/>
  </way>
  <way id="4000068" version="5" timestamp="2008-09-22T03:43:42Z" uid="30201" user="rrankin" changeset="678141">
    <nd ref="20979881"/>
    <nd ref="20979961"/>
    <nd ref="20979958"/>
    <nd ref="60716872"/>
    <nd ref="86307816"/>
    <nd ref="298936628"/>
    <nd ref="83989464"/>
    <nd ref="60710709"/>
    <nd ref="62516167"/>
    <tag k="created_by" v="Potlatch alpha"/>
    <tag k="highway" v="unclassified"/>
    <tag k="name" v="Glenayr Avenue"/>
  </way>
  <way id="4000068" version="6" timestamp="2009-11-08T11:31:14Z" uid="7617" user="Franc" changeset="3062741">
    <nd ref="20979881"/>
    <nd ref="20979961"/>
    <nd ref="20979958"/>
    <nd ref="60716872"/>
    <nd ref="86307816"/>
    <nd ref="298936628"/>
    <nd ref="559440653"/>
    <nd ref="83989464"/>
    <nd ref="60710709"/>
    <nd ref="62516167"/>
    <tag k="highway" v="unclassified"/>
    <tag k="name" v="Glenayr Avenue"/>
  </way>
  <way id="4000068" version="7" timestamp="2010-01-23T14:43:14Z" uid="7617" user="Franc" changeset="3692271">
    <nd ref="20979881"/>
    <nd ref="20979961"/>
    <nd ref="618698651"/>
    <nd ref="60716872"/>
    <nd ref="86307816"/>
    <nd ref="298936628"/>
    <nd ref="559440653"/>
    <nd ref="83989464"/>
    <nd ref="60710709"/>
    <nd ref="62516167"/>
    <tag k="highway" v="unclassified"/>
    <tag k="name" v="Glenayr Avenue"/>
  </way>
  <way id="4000068" version="8" timestamp="2010-03-15T10:37:59Z" uid="20949" user="Ebenezer" changeset="4133384">
    <nd ref="20979881"/>
    <nd ref="20979961"/>
    <nd ref="618698651"/>
    <nd ref="60716872"/>
    <nd ref="86307816"/>
    <nd ref="298936628"/>
    <nd ref="559440653"/>
    <nd ref="83989464"/>
    <nd ref="60710709"/>
    <nd ref="62516167"/>
    <tag k="cycleway" v="lane"/>
    <tag k="highway" v="residential"/>
    <tag k="lcn" v="yes"/>
    <tag k="name" v="Glenayr Avenue"/>
  </way>
  <way id="4000068" version="9" timestamp="2010-07-07T21:47:20Z" uid="74617" user="JohnSmith" changeset="5161069">
    <nd ref="20979881"/>
    <nd ref="20979961"/>
    <nd ref="618698651"/>
    <nd ref="60716872"/>
    <nd ref="86307816"/>
    <nd ref="298936628"/>
    <nd ref="559440653"/>
    <nd ref="83989464"/>
    <nd ref="60710709"/>
    <nd ref="62516167"/>
    <tag k="cycleway" v="lane"/>
    <tag k="highway" v="residential"/>
    <tag k="lcn" v="yes"/>
    <tag k="maxspeed" v="50"/>
    <tag k="maxspeed:source" v="default residential speed limit in Australia"/>
    <tag k="name" v="Glenayr Avenue"/>
  </way>
  <way id="4000068" version="10" timestamp="2012-01-08T02:36:50Z" uid="147510" user="woodpeck_fixbot" changeset="10327743">
    <nd ref="20979881"/>
    <nd ref="20979961"/>
    <nd ref="618698651"/>
    <nd ref="60716872"/>
    <nd ref="86307816"/>
    <nd ref="298936628"/>
    <nd ref="559440653"/>
    <nd ref="83989464"/>
    <nd ref="60710709"/>
    <nd ref="62516167"/>
    <tag k="cycleway" v="lane"/>
    <tag k="highway" v="residential"/>
    <tag k="lcn" v="yes"/>
    <tag k="name" v="Glenayr Avenue"/>
  </way>
  <way id="4000072" version="2" timestamp="2010-03-27T07:40:31Z" uid="20587" user="balrog-kun" changeset="4244079">
    <nd ref="20979976"/>
    <nd ref="20979977"/>
    <tag k="created_by" v="JOSM"/>
    <tag k="highway" v="residential"/>
    <tag k="name" v="Ultima Street"/>
  </way>
  <way id="4000073" version="3" timestamp="2010-03-27T07:40:31Z" uid="20587" user="balrog-kun" changeset="4244079">
    <nd ref="20979978"/>
    <nd ref="20979979"/>
    <nd ref="21590019"/>
    <nd ref="21590020"/>
    <nd ref="21590021"/>
    <nd ref="21590022"/>
    <nd ref="21590023"/>
    <nd ref="21590024"/>
    <nd ref="21590025"/>
    <nd ref="21590026"/>
    <nd ref="21590027"/>
    <tag k="created_by" v="JOSM"/>
    <tag k="highway" v="residential"/>
    <tag k="name" v="Avenue 65"/>
  </way>
  <way id="4000074" version="4" timestamp="2010-03-27T07:40:31Z" uid="20587" user="balrog-kun" changeset="4244079">
    <nd ref="20979981"/>
    <nd ref="616545617"/>
    <nd ref="136736212"/>
    <nd ref="616545618"/>
    <nd ref="616545619"/>
    <nd ref="20979982"/>
    <tag k="highway" v="residential"/>
    <tag k="name" v="Romble Avenue"/>
  </way>
  <way id="4000077" version="4" timestamp="2010-03-27T07:40:31Z" uid="20587" user="balrog-kun" changeset="4244079">
    <nd ref="20980018"/>
    <nd ref="20980016"/>
    <nd ref="595963751"/>
    <nd ref="595963752"/>
    <nd ref="20980017"/>
    <nd ref="595963753"/>
    <nd ref="20980019"/>
    <tag k="highway" v="tertiary"/>
    <tag k="name" v="Monterey Road"/>
    <tag k="oneway" v="yes"/>
  </way>
  <way id="4000078" version="4" timestamp="2010-03-27T07:40:31Z" uid="20587" user="balrog-kun" changeset="4244079">
    <nd ref="20980019"/>
    <nd ref="20939314"/>
    <nd ref="595963749"/>
    <nd ref="595963750"/>
    <nd ref="14919425"/>
    <nd ref="20980018"/>
    <tag k="highway" v="tertiary"/>
    <tag k="name" v="Monterey Road"/>
    <tag k="oneway" v="yes"/>
  </way>
  <way id="4000080" version="2" timestamp="2010-03-27T07:40:31Z" uid="20587" user="balrog-kun" changeset="4244079">
    <nd ref="20980029"/>
    <nd ref="20980030"/>
    <nd ref="20980031"/>
    <nd ref="20980032"/>
    <nd ref="20980033"/>
    <tag k="created_by" v="JOSM"/>
    <tag k="highway" v="residential"/>
    <tag k="name" v="Mayfair Drive"/>
  </way>
  <way id="4000080" version="3" timestamp="2012-03-10T23:03:03Z" uid="262151" user="ToeBee" changeset="10937678"/>
  <way id="4000081" version="2" timestamp="2010-03-27T07:40:31Z" uid="20587" user="balrog-kun" changeset="4244079">
    <nd ref="18361069"/>
    <nd ref="20980034"/>
    <nd ref="21687738"/>
    <nd ref="20980035"/>
    <nd ref="21687739"/>
    <tag k="created_by" v="JOSM"/>
    <tag k="highway" v="residential"/>
    <tag k="name" v="Montalvo Street"/>
  </way>
  <way id="4000081" version="3" timestamp="2012-03-10T23:55:03Z" uid="262151" user="ToeBee" changeset="10937678"/>
  <way id="4000082" version="4" timestamp="2010-03-27T07:40:31Z" uid="20587" user="balrog-kun" changeset="4244079">
    <nd ref="21687739"/>
    <nd ref="20980036"/>
    <nd ref="122775322"/>
    <nd ref="20980037"/>
    <nd ref="138554710"/>
    <nd ref="138554696"/>
    <nd ref="20980038"/>
    <nd ref="20980039"/>
    <nd ref="20980040"/>
    <nd ref="20980041"/>
    <nd ref="138554870"/>
    <nd ref="20980042"/>
    <nd ref="18660440"/>
    <nd ref="18660439"/>
    <nd ref="18660438"/>
    <nd ref="139097124"/>
    <nd ref="14965932"/>
    <tag k="created_by" v="JOSM"/>
    <tag k="highway" v="residential"/>
    <tag k="name" v="Glenalbyn Drive"/>
  </way>
  <way id="4000082" version="5" timestamp="2012-03-10T23:55:01Z" uid="262151" user="ToeBee" changeset="10937678"/>
  <way id="4000083" version="3" timestamp="2010-03-27T07:40:31Z" uid="20587" user="balrog-kun" changeset="4244079">
    <nd ref="20980044"/>
    <nd ref="20980045"/>
    <nd ref="27025623"/>
    <nd ref="20980046"/>
    <nd ref="27025617"/>
    <nd ref="20980047"/>
    <nd ref="20980048"/>
    <tag k="created_by" v="JOSM"/>
    <tag k="highway" v="residential"/>
    <tag k="name" v="Aragon Avenue"/>
  </way>
  <way id="4000083" version="4" timestamp="2012-01-31T20:35:36Z" uid="12434" user="nm7s9" changeset="10553230">
    <nd ref="1613467350"/>
    <nd ref="1613467352"/>
    <nd ref="20980045"/>
    <nd ref="27025623"/>
    <nd ref="20980046"/>
    <nd ref="27025617"/>
    <nd ref="20980047"/>
    <nd ref="20980048"/>
    <tag k="highway" v="residential"/>
    <tag k="name" v="Aragon Avenue"/>
  </way>
  <way id="4000083" version="5" timestamp="2012-02-02T20:26:20Z" uid="12434" user="nm7s9" changeset="10571024">
    <nd ref="1613467350"/>
    <nd ref="1613467352"/>
    <nd ref="20980045"/>
    <nd ref="27025623"/>
    <nd ref="20980046"/>
    <nd ref="27025617"/>
    <nd ref="20980047"/>
    <nd ref="1615984937"/>
    <tag k="highway" v="residential"/>
    <tag k="name" v="Aragon Avenue"/>
  </way>
  <way id="4000083" version="6" timestamp="2012-02-02T20:34:32Z" uid="12434" user="nm7s9" changeset="10571094">
    <nd ref="1613467350"/>
    <nd ref="1613467352"/>
    <nd ref="20980045"/>
    <nd ref="27025623"/>
    <nd ref="20980046"/>
    <nd ref="27025617"/>
    <nd ref="1615993738"/>
    <nd ref="1615984937"/>
    <tag k="highway" v="residential"/>
    <tag k="name" v="Aragon Avenue"/>
  </way>
  <way id="4000083" version="7" timestamp="2012-02-02T20:38:57Z" uid="12434" user="nm7s9" changeset="10571144">
    <nd ref="1613467350"/>
    <nd ref="1613467352"/>
    <nd ref="20980045"/>
    <nd ref="27025623"/>
    <nd ref="20980046"/>
    <nd ref="1615997128"/>
    <nd ref="1615993738"/>
    <nd ref="1615984937"/>
    <tag k="highway" v="residential"/>
    <tag k="name" v="Aragon Avenue"/>
  </way>
  <way id="4000083" version="8" timestamp="2012-02-02T20:41:45Z" uid="12434" user="nm7s9" changeset="10571172">
    <nd ref="1613467350"/>
    <nd ref="1613467352"/>
    <nd ref="20980045"/>
    <nd ref="1616000854"/>
    <nd ref="20980046"/>
    <nd ref="1615997128"/>
    <nd ref="1615993738"/>
    <nd ref="1615984937"/>
    <tag k="highway" v="residential"/>
    <tag k="name" v="Aragon Avenue"/>
  </way>
  <way id="4000083" version="9" timestamp="2012-02-02T20:43:23Z" uid="12434" user="nm7s9" changeset="10571188"/>
  <way id="4000084" version="2" timestamp="2010-03-27T07:40:31Z" uid="20587" user="balrog-kun" changeset="4244079">
    <nd ref="20980050"/>
    <nd ref="20980051"/>
    <tag k="created_by" v="JOSM"/>
    <tag k="highway" v="residential"/>
    <tag k="name" v="Alice Street"/>
  </way>
  <way id="4000084" version="3" timestamp="2012-01-31T13:11:41Z" uid="12434" user="nm7s9" changeset="10549147">
    <nd ref="20980050"/>
    <nd ref="1613060148"/>
    <tag k="highway" v="residential"/>
    <tag k="name" v="Alice Street"/>
  </way>
  <way id="4000084" version="4" timestamp="2012-02-01T12:00:44Z" uid="12434" user="nm7s9" changeset="10557986"/>
  <way id="4000085" version="2" timestamp="2010-03-27T07:40:32Z" uid="20587" user="balrog-kun" changeset="4244079">
    <nd ref="20980052"/>
    <nd ref="16222842"/>
    <tag k="created_by" v="JOSM"/>
    <tag k="highway" v="residential"/>
    <tag k="name" v="Granada Street"/>
  </way>
  <way id="4000085" version="3" timestamp="2012-01-31T13:11:47Z" uid="12434" user="nm7s9" changeset="10549147">
    <nd ref="1613060153"/>
    <nd ref="16222842"/>
    <tag k="highway" v="residential"/>
    <tag k="name" v="Granada Street"/>
  </way>
  <way id="4000085" version="4" timestamp="2012-02-01T11:57:30Z" uid="12434" user="nm7s9" changeset="10557962"/>
  <way id="4000086" version="6" timestamp="2008-10-27T09:25:41Z" uid="30201" user="rrankin" changeset="592401">
    <nd ref="20979885"/>
    <nd ref="60716754"/>
    <nd ref="264814671"/>
    <nd ref="264814644"/>
    <nd ref="20979884"/>
    <nd ref="65806655"/>
    <tag k="created_by" v="Potlatch 0.9a"/>
    <tag k="highway" v="residential"/>
    <tag k="name" v="Lamrock Avenue"/>
  </way>
  <way id="4000086" version="7" timestamp="2009-11-08T11:31:15Z" uid="7617" user="Franc" changeset="3062741">
    <nd ref="264814644"/>
    <nd ref="264814671"/>
    <nd ref="60716754"/>
    <nd ref="559440647"/>
    <nd ref="20979885"/>
    <tag k="highway" v="residential"/>
    <tag k="name" v="Lamrock Avenue"/>
    <tag k="oneway" v="yes"/>
  </way>
  <way id="4000086" version="8" timestamp="2010-02-27T05:34:36Z" uid="20949" user="Ebenezer" changeset="3985737">
    <nd ref="264814644"/>
    <nd ref="264814671"/>
    <nd ref="60716754"/>
    <nd ref="559440647"/>
    <nd ref="20979885"/>
    <tag k="cycleway" v="opposite_lane"/>
    <tag k="highway" v="residential"/>
    <tag k="lcn" v="yes"/>
    <tag k="name" v="Lamrock Avenue"/>
    <tag k="oneway" v="yes"/>
  </way>
  <way id="4000086" version="9" timestamp="2010-07-07T21:47:47Z" uid="74617" user="JohnSmith" changeset="5161069">
    <nd ref="264814644"/>
    <nd ref="264814671"/>
    <nd ref="60716754"/>
    <nd ref="559440647"/>
    <nd ref="20979885"/>
    <tag k="cycleway" v="opposite_lane"/>
    <tag k="highway" v="residential"/>
    <tag k="lcn" v="yes"/>
    <tag k="maxspeed" v="50"/>
    <tag k="maxspeed:source" v="default residential speed limit in Australia"/>
    <tag k="name" v="Lamrock Avenue"/>
    <tag k="oneway" v="yes"/>
  </way>
  <way id="4000086" version="10" timestamp="2012-01-08T02:36:52Z" uid="147510" user="woodpeck_fixbot" changeset="10327743">
    <nd ref="264814644"/>
    <nd ref="264814671"/>
    <nd ref="60716754"/>
    <nd ref="559440647"/>
    <nd ref="20979885"/>
    <tag k="cycleway" v="opposite_lane"/>
    <tag k="highway" v="residential"/>
    <tag k="lcn" v="yes"/>
    <tag k="name" v="Lamrock Avenue"/>
    <tag k="oneway" v="yes"/>
  </way>
  <way id="4000087" version="3" timestamp="2008-09-22T03:43:49Z" uid="30201" user="rrankin" changeset="678141">
    <nd ref="20980102"/>
    <nd ref="60716746"/>
    <nd ref="20980101"/>
    <tag k="created_by" v="Potlatch alpha"/>
    <tag k="highway" v="unclassified"/>
    <tag k="name" v="Sir Thomas Mitchell Road"/>
  </way>
  <way id="4000087" version="4" timestamp="2009-11-08T11:31:11Z" uid="7617" user="Franc" changeset="3062741">
    <nd ref="20980102"/>
    <nd ref="559440634"/>
    <nd ref="60716746"/>
    <nd ref="20980101"/>
    <tag k="highway" v="unclassified"/>
    <tag k="name" v="Sir Thomas Mitchell Road"/>
  </way>
  <way id="4000087" version="5" timestamp="2009-12-28T13:31:33Z" uid="7617" user="Franc" changeset="3471447">
    <nd ref="20980102"/>
    <nd ref="600382379"/>
    <nd ref="600382378"/>
    <nd ref="600382377"/>
    <nd ref="559440634"/>
    <nd ref="60716746"/>
    <nd ref="20980101"/>
    <tag k="highway" v="unclassified"/>
    <tag k="name" v="Sir Thomas Mitchell Road"/>
  </way>
  <way id="4000103" version="2" timestamp="2008-07-05T19:03:13Z" uid="6975" user="ulfl" changeset="398437">
    <nd ref="16802381"/>
    <nd ref="20980186"/>
    <nd ref="16802382"/>
    <tag k="abutters" v="industrial"/>
    <tag k="highway" v="tertiary"/>
    <tag k="is_in" v="Letchworth Garden City"/>
    <tag k="name" v="Green Lane"/>
    <tag k="oneway" v="yes"/>
    <tag k="osmarender:renderName" v="no"/>
    <tag k="source" v="GPS_Track"/>
  </way>
  <way id="4000103" version="3" timestamp="2008-12-15T11:39:00Z" uid="67359" user="bobcoates" changeset="394969">
    <nd ref="16802381"/>
    <nd ref="20980186"/>
    <nd ref="16802382"/>
    <tag k="abutters" v="industrial"/>
    <tag k="created_by" v="Potlatch 0.10f"/>
    <tag k="highway" v="tertiary"/>
    <tag k="is_in" v="Letchworth Garden City"/>
    <tag k="name" v="Green Lane"/>
    <tag k="oneway" v="yes"/>
    <tag k="osmarender:renderName" v="no"/>
    <tag k="source" v="GPS_Track"/>
  </way>
  <way id="4000103" version="4" timestamp="2008-12-15T11:39:13Z" uid="67359" user="bobcoates" changeset="394969">
    <nd ref="16802381"/>
    <nd ref="20980186"/>
    <nd ref="16802382"/>
    <tag k="abutters" v="industrial"/>
    <tag k="created_by" v="Potlatch 0.10f"/>
    <tag k="highway" v="tertiary"/>
    <tag k="is_in" v="Letchworth Garden City"/>
    <tag k="name" v="Green Lane"/>
    <tag k="oneway" v="yes"/>
    <tag k="osmarender:renderName" v="no"/>
    <tag k="source" v="GPS_Track"/>
  </way>
  <way id="4000103" version="5" timestamp="2010-12-30T13:33:13Z" uid="233042" user="CJY" changeset="6809397">
    <nd ref="16802381"/>
    <nd ref="1072821983"/>
    <nd ref="1072822017"/>
    <nd ref="20980186"/>
    <nd ref="1072821998"/>
    <nd ref="16802382"/>
    <tag k="abutters" v="industrial"/>
    <tag k="highway" v="tertiary"/>
    <tag k="is_in" v="Letchworth Garden City"/>
    <tag k="name" v="Green Lane"/>
    <tag k="oneway" v="yes"/>
    <tag k="osmarender:renderName" v="no"/>
    <tag k="source" v="GPS_Track"/>
  </way>
  <way id="4000103" version="6" timestamp="2011-09-01T02:16:19Z" uid="207745" user="NE2" changeset="9181205">
    <nd ref="16802381"/>
    <nd ref="1072821983"/>
    <nd ref="1072822017"/>
    <nd ref="20980186"/>
    <nd ref="1072821998"/>
    <nd ref="16802382"/>
    <tag k="abutters" v="industrial"/>
    <tag k="highway" v="tertiary"/>
    <tag k="is_in" v="Letchworth Garden City"/>
    <tag k="name" v="Green Lane"/>
    <tag k="oneway" v="yes"/>
    <tag k="source" v="GPS_Track"/>
  </way>
  <way id="4000103" version="7" timestamp="2011-10-07T18:50:27Z" uid="67929" user="StephenRD" changeset="9496368">
    <nd ref="16802381"/>
    <nd ref="1072821983"/>
    <nd ref="1072822017"/>
    <nd ref="20980186"/>
    <tag k="abutters" v="industrial"/>
    <tag k="highway" v="tertiary"/>
    <tag k="is_in" v="Letchworth Garden City"/>
    <tag k="name" v="Green Lane"/>
    <tag k="oneway" v="yes"/>
    <tag k="source" v="GPS_Track"/>
  </way>
  <way id="4000159" version="1" timestamp="2007-08-08T23:43:34Z" uid="4667" user="MapZ" changeset="198648">
    <nd ref="20865713"/>
    <nd ref="20865657"/>
    <nd ref="20865614"/>
    <nd ref="20865575"/>
    <nd ref="20865252"/>
    <nd ref="20865842"/>
    <nd ref="20865809"/>
    <nd ref="20865762"/>
    <nd ref="20865741"/>
    <nd ref="20865685"/>
    <nd ref="20865635"/>
    <nd ref="20865655"/>
    <nd ref="20865619"/>
    <nd ref="20865572"/>
    <nd ref="20865857"/>
    <nd ref="20865788"/>
    <nd ref="20865754"/>
    <nd ref="20865721"/>
    <nd ref="20865659"/>
    <nd ref="20865637"/>
    <nd ref="20865585"/>
    <nd ref="20865254"/>
    <nd ref="20865831"/>
    <nd ref="20865797"/>
    <nd ref="20865760"/>
    <nd ref="20865728"/>
    <nd ref="20865675"/>
    <nd ref="20865647"/>
    <nd ref="20865597"/>
    <nd ref="20865839"/>
    <nd ref="20865850"/>
    <nd ref="20865767"/>
    <nd ref="20865733"/>
    <nd ref="20865688"/>
    <nd ref="20865627"/>
    <nd ref="20865645"/>
    <nd ref="20865593"/>
    <nd ref="20865566"/>
    <nd ref="20865859"/>
    <nd ref="20865822"/>
    <nd ref="20865786"/>
    <nd ref="20865749"/>
    <nd ref="20865717"/>
    <nd ref="20865791"/>
    <nd ref="20865756"/>
    <nd ref="20865724"/>
    <nd ref="20865667"/>
    <nd ref="20865630"/>
    <nd ref="20865580"/>
    <nd ref="33778986"/>
    <nd ref="20865601"/>
    <nd ref="20865814"/>
    <nd ref="20865794"/>
    <tag k="created_by" v="JOSM"/>
    <tag k="highway" v="motorway"/>
    <tag k="name" v="A45"/>
    <tag k="ref" v="A45"/>
  </way>
  <way id="4000159" version="2" timestamp="2007-12-01T18:46:09Z" uid="3836" user="Jannis" changeset="22476">
    <nd ref="20865713"/>
    <nd ref="20865657"/>
    <nd ref="20865614"/>
    <nd ref="20865575"/>
    <nd ref="20865252"/>
    <nd ref="20865842"/>
    <nd ref="20865809"/>
    <nd ref="20865762"/>
    <nd ref="20865741"/>
    <nd ref="20865685"/>
    <nd ref="20865635"/>
    <nd ref="20865655"/>
    <nd ref="20865619"/>
    <nd ref="20865572"/>
    <nd ref="20865857"/>
    <nd ref="20865788"/>
    <nd ref="20865754"/>
    <nd ref="20865721"/>
    <nd ref="20865659"/>
    <nd ref="20865637"/>
    <nd ref="20865585"/>
    <nd ref="20865254"/>
    <nd ref="20865831"/>
    <nd ref="20865797"/>
    <nd ref="146646472"/>
    <tag k="created_by" v="JOSM"/>
    <tag k="highway" v="motorway"/>
    <tag k="name" v="A45"/>
    <tag k="ref" v="A45"/>
  </way>
  <way id="4000159" version="3" timestamp="2008-02-05T01:51:36Z" uid="5164" user="woodpeck" changeset="46622">
    <nd ref="20865713"/>
    <nd ref="20865657"/>
    <nd ref="20865614"/>
    <nd ref="20865575"/>
    <nd ref="20865252"/>
    <nd ref="20865842"/>
    <nd ref="20865809"/>
    <nd ref="20865762"/>
    <nd ref="20865741"/>
    <nd ref="20865685"/>
    <nd ref="20865635"/>
    <nd ref="20865655"/>
    <nd ref="20865619"/>
    <nd ref="20865572"/>
    <nd ref="20865857"/>
    <nd ref="20865788"/>
    <nd ref="20865754"/>
    <nd ref="20865721"/>
    <nd ref="20865659"/>
    <nd ref="20865637"/>
    <nd ref="20865585"/>
    <nd ref="20865254"/>
    <nd ref="20865831"/>
    <nd ref="20865797"/>
    <nd ref="146646472"/>
    <tag k="created_by" v="fixbot"/>
    <tag k="highway" v="motorway"/>
    <tag k="ref" v="A45"/>
  </way>
  <way id="4000159" version="4" timestamp="2008-05-15T22:41:34Z" uid="37730" user="Mius" changeset="458424">
    <nd ref="20865713"/>
    <nd ref="20865657"/>
    <nd ref="20865614"/>
    <nd ref="20865575"/>
    <nd ref="20865252"/>
    <nd ref="20865842"/>
    <nd ref="20865809"/>
    <nd ref="20865762"/>
    <nd ref="264795256"/>
    <nd ref="20865741"/>
    <nd ref="264795257"/>
    <nd ref="20865685"/>
    <nd ref="20865635"/>
    <nd ref="20865655"/>
    <nd ref="20865619"/>
    <nd ref="20865572"/>
    <nd ref="20865857"/>
    <nd ref="20865788"/>
    <nd ref="20865754"/>
    <nd ref="20865721"/>
    <nd ref="20865659"/>
    <nd ref="20865637"/>
    <nd ref="20865585"/>
    <nd ref="20865254"/>
    <nd ref="20865831"/>
    <nd ref="20865797"/>
    <nd ref="146646472"/>
    <tag k="created_by" v="fixbot"/>
    <tag k="highway" v="motorway"/>
    <tag k="ref" v="A45"/>
  </way>
  <way id="4000159" version="5" timestamp="2008-05-16T19:39:14Z" uid="3836" user="Jannis" changeset="458945">
    <nd ref="20865713"/>
    <nd ref="20865657"/>
    <nd ref="264962432"/>
    <tag k="created_by" v="fixbot"/>
    <tag k="highway" v="motorway"/>
    <tag k="oneway" v="yes"/>
    <tag k="ref" v="A45"/>
  </way>
  <way id="4000159" version="6" timestamp="2008-06-22T13:43:41Z" uid="28378" user="PHerison" changeset="256042">
    <nd ref="20865713"/>
    <nd ref="20865657"/>
    <nd ref="264962432"/>
    <tag k="created_by" v="Potlatch 0.9c"/>
    <tag k="highway" v="motorway"/>
    <tag k="int_ref" v="E41"/>
    <tag k="oneway" v="yes"/>
    <tag k="ref" v="A 45"/>
  </way>
  <way id="4000159" version="7" timestamp="2009-03-10T16:40:25Z" uid="9176" user="Maarten Deen" changeset="777551">
    <nd ref="20865713"/>
    <nd ref="20865657"/>
    <nd ref="264962432"/>
    <tag k="highway" v="motorway"/>
    <tag k="int_ref" v="E 41"/>
    <tag k="oneway" v="yes"/>
    <tag k="ref" v="A 45"/>
  </way>
  <way id="4000159" version="8" timestamp="2009-11-13T00:15:16Z" uid="64197" user="Lothar Schiborr_1" changeset="3102995">
    <nd ref="20865713"/>
    <nd ref="20865657"/>
    <nd ref="264962432"/>
    <tag k="highway" v="motorway"/>
    <tag k="int_ref" v="E 41"/>
    <tag k="oneway" v="yes"/>
    <tag k="ref" v="A 45"/>
  </way>
  <way id="4000159" version="9" timestamp="2010-12-03T14:55:30Z" uid="30077" user="ChristianW" changeset="6527098">
    <nd ref="20865713"/>
    <nd ref="20865657"/>
    <nd ref="264962432"/>
    <tag k="highway" v="motorway"/>
    <tag k="int_ref" v="E 41"/>
    <tag k="note:name" v="Der reg_name, sowie ggf. der loc_name sind dem zugehrigen Wikipediaartikel entnommen."/>
    <tag k="oneway" v="yes"/>
    <tag k="ref" v="A 45"/>
    <tag k="reg_name" v="Sauerlandlinie"/>
  </way>
  <way id="4000159" version="10" timestamp="2012-02-25T21:35:04Z" uid="418724" user="wintersportler" changeset="10792377">
    <nd ref="20865713"/>
    <nd ref="20865657"/>
    <nd ref="264962432"/>
    <tag k="highway" v="motorway"/>
    <tag k="int_ref" v="E 41"/>
    <tag k="oneway" v="yes"/>
    <tag k="ref" v="A 45"/>
  </way>
  <way id="4000159" version="11" timestamp="2012-02-25T23:44:12Z" uid="418724" user="wintersportler" changeset="10793410"/>
  <way id="4000224" version="17" timestamp="2010-12-20T13:37:31Z" uid="6269" user="Mueck" changeset="6716052">
    <nd ref="25338284"/>
    <nd ref="1051580860"/>
    <nd ref="25338280"/>
    <tag k="highway" v="motorway"/>
    <tag k="int_ref" v="E 234"/>
    <tag k="lanes" v="2"/>
    <tag k="maxspeed" v="120"/>
    <tag k="name" v="Bundesautobahn A 27"/>
    <tag k="note:name" v="Der reg_name, sowie ggf. der loc_name sind dem zugehrigen Wikipediaartikel entnommen."/>
    <tag k="oneway" v="yes"/>
    <tag k="ref" v="A 27"/>
    <tag k="reg_name" v="Schellfischlinie"/>
  </way>
  <way id="4000224" version="18" timestamp="2011-04-01T22:50:43Z" uid="422063" user="Meinereiner" changeset="7740173">
    <nd ref="25338284"/>
    <nd ref="1051580860"/>
    <nd ref="25338280"/>
    <tag k="highway" v="motorway"/>
    <tag k="int_ref" v="E 234"/>
    <tag k="lanes" v="2"/>
    <tag k="maxspeed" v="120"/>
    <tag k="note:name" v="Der reg_name, sowie ggf. der loc_name sind dem zugehrigen Wikipediaartikel entnommen."/>
    <tag k="oneway" v="yes"/>
    <tag k="ref" v="A 27"/>
    <tag k="reg_name" v="Schellfischlinie"/>
  </way>
  <way id="4000224" version="19" timestamp="2012-03-04T19:06:21Z" uid="45882" user="smarties" changeset="10872568"/>
  <way id="4000231" version="12" timestamp="2010-05-09T07:34:29Z" uid="33382" user="de_muur" changeset="4645318">
    <nd ref="26242950"/>
    <nd ref="21050499"/>
    <nd ref="20973887"/>
    <nd ref="21050482"/>
    <nd ref="21050483"/>
    <nd ref="20973888"/>
    <nd ref="26242959"/>
    <nd ref="312597021"/>
    <nd ref="20973889"/>
    <nd ref="20973890"/>
    <nd ref="20973860"/>
    <nd ref="20973861"/>
    <nd ref="26743053"/>
    <nd ref="21095911"/>
    <nd ref="31734641"/>
    <nd ref="20973862"/>
    <nd ref="312597486"/>
    <nd ref="20973863"/>
    <nd ref="20973864"/>
    <nd ref="20973865"/>
    <nd ref="257767690"/>
    <nd ref="257767691"/>
    <nd ref="20973866"/>
    <nd ref="26242963"/>
    <nd ref="20973867"/>
    <tag k="cycleway" v="lane"/>
    <tag k="highway" v="secondary"/>
    <tag k="history" v="Retrieved from v3"/>
    <tag k="maxspeed" v="50"/>
    <tag k="name" v="Horner Heerstrae"/>
    <tag k="oneway" v="yes"/>
  </way>
  <way id="4000231" version="13" timestamp="2010-06-09T19:08:48Z" uid="4473" user="EtricCeline" changeset="4948091">
    <nd ref="26242950"/>
    <nd ref="21050499"/>
    <nd ref="20973887"/>
    <nd ref="21050482"/>
    <nd ref="21050483"/>
    <nd ref="20973888"/>
    <nd ref="26242959"/>
    <nd ref="312597021"/>
    <nd ref="20973889"/>
    <nd ref="20973890"/>
    <nd ref="20973860"/>
    <nd ref="20973861"/>
    <nd ref="26743053"/>
    <nd ref="21095911"/>
    <nd ref="31734641"/>
    <nd ref="20973862"/>
    <nd ref="312597486"/>
    <nd ref="20973863"/>
    <nd ref="20973864"/>
    <nd ref="20973865"/>
    <nd ref="257767690"/>
    <nd ref="257767691"/>
    <nd ref="20973866"/>
    <nd ref="26242963"/>
    <nd ref="768090863"/>
    <nd ref="20973867"/>
    <tag k="cycleway" v="lane"/>
    <tag k="highway" v="secondary"/>
    <tag k="history" v="Retrieved from v3"/>
    <tag k="maxspeed" v="50"/>
    <tag k="name" v="Horner Heerstrae"/>
    <tag k="oneway" v="yes"/>
  </way>
  <way id="4000231" version="14" timestamp="2010-06-19T09:41:36Z" uid="4473" user="EtricCeline" changeset="5022186">
    <nd ref="26242950"/>
    <nd ref="21050499"/>
    <nd ref="20973887"/>
    <nd ref="21050482"/>
    <nd ref="21050483"/>
    <tag k="cycleway" v="lane"/>
    <tag k="highway" v="secondary"/>
    <tag k="history" v="Retrieved from v3"/>
    <tag k="maxspeed" v="50"/>
    <tag k="name" v="Horner Heerstrae"/>
    <tag k="oneway" v="yes"/>
  </way>
  <way id="4000231" version="15" timestamp="2011-01-09T17:10:03Z" uid="68030" user="Kowa" changeset="6917610">
    <nd ref="26242950"/>
    <nd ref="21050499"/>
    <nd ref="20973887"/>
    <nd ref="1094647386"/>
    <nd ref="21050482"/>
    <nd ref="21050483"/>
    <tag k="cycleway" v="lane"/>
    <tag k="highway" v="secondary"/>
    <tag k="history" v="Retrieved from v3"/>
    <tag k="maxspeed" v="50"/>
    <tag k="name" v="Horner Heerstrae"/>
    <tag k="oneway" v="yes"/>
  </way>
  <way id="4000455" version="5" timestamp="2008-10-01T02:13:48Z" uid="36809" user="pfoten_weg_!_" changeset="5644">
    <nd ref="20982565"/>
    <nd ref="20982492"/>
    <nd ref="20982507"/>
    <nd ref="20982515"/>
    <nd ref="20982560"/>
    <nd ref="20982528"/>
    <nd ref="20982553"/>
    <tag k="created_by" v="RambaZamba"/>
    <tag k="highway" v="tertiary"/>
    <tag k="maxspeed" v="30"/>
    <tag k="maxweight" v="3"/>
    <tag k="name" v="Harlachinger Berg"/>
  </way>
  <way id="4000455" version="6" timestamp="2009-02-15T13:13:30Z" uid="36809" user="pfoten_weg_!_" changeset="463903">
    <nd ref="20982565"/>
    <nd ref="20982492"/>
    <nd ref="20982507"/>
    <nd ref="20982515"/>
    <nd ref="20982560"/>
    <nd ref="20982528"/>
    <nd ref="20982553"/>
    <tag k="created_by" v="RambaZamba"/>
    <tag k="highway" v="tertiary"/>
    <tag k="maxspeed" v="30"/>
    <tag k="maxweight" v="3"/>
    <tag k="name" v="Harlachinger Berg"/>
    <tag k="source" v="survey"/>
  </way>
  <way id="4000455" version="7" timestamp="2009-04-29T17:10:09Z" uid="71041" user="TomRadfahrer" changeset="1018055">
    <nd ref="20982565"/>
    <nd ref="20982492"/>
    <tag k="created_by" v="RambaZamba"/>
    <tag k="highway" v="tertiary"/>
    <tag k="maxspeed" v="30"/>
    <tag k="maxweight" v="3"/>
    <tag k="name" v="Harlachinger Berg"/>
    <tag k="source" v="survey"/>
  </way>
  <way id="4000455" version="8" timestamp="2009-06-08T12:04:10Z" uid="132988" user="ich-liebe-euch" changeset="1457959">
    <nd ref="20982565"/>
    <nd ref="20982492"/>
    <tag k="highway" v="tertiary"/>
    <tag k="maxspeed" v="30"/>
    <tag k="maxweight" v="3"/>
    <tag k="name" v="Harlachinger Berg"/>
    <tag k="source" v="survey"/>
  </way>
  <way id="4000455" version="9" timestamp="2009-06-08T13:39:58Z" uid="36809" user="pfoten_weg_!_" changeset="1458869">
    <nd ref="20982565"/>
    <nd ref="20982492"/>
    <tag k="created_by" v="RambaZamba"/>
    <tag k="highway" v="tertiary"/>
    <tag k="maxspeed" v="30"/>
    <tag k="maxweight" v="3"/>
    <tag k="name" v="Harlachinger Berg"/>
    <tag k="source" v="survey"/>
  </way>
  <way id="4000455" version="10" timestamp="2009-09-12T21:09:56Z" uid="156995" user="HampelZamba" changeset="2462871">
    <nd ref="20982565"/>
    <nd ref="20982492"/>
    <tag k="highway" v="tertiary"/>
    <tag k="maxspeed" v="30"/>
    <tag k="maxweight" v="3"/>
    <tag k="name" v="Harlachinger Berg"/>
    <tag k="source" v="survey"/>
  </way>
  <way id="4000455" version="11" timestamp="2009-10-13T23:48:33Z" uid="36809" user="pfoten_weg_!_" changeset="2841273">
    <nd ref="20982565"/>
    <nd ref="20982492"/>
    <tag k="highway" v="tertiary"/>
    <tag k="maxspeed" v="30"/>
    <tag k="maxweight" v="3"/>
    <tag k="name" v="Harlachinger Berg"/>
  </way>
  <way id="4000455" version="12" timestamp="2012-02-25T11:53:42Z" uid="367380" user="Mloni" changeset="10786830">
    <nd ref="20982565"/>
    <nd ref="20982492"/>
    <tag k="highway" v="secondary"/>
    <tag k="maxspeed" v="30"/>
    <tag k="maxweight" v="3"/>
    <tag k="name" v="Harlachinger Berg"/>
  </way>
  <way id="4000460" version="7" timestamp="2008-10-01T02:13:54Z" uid="36809" user="pfoten_weg_!_" changeset="5644">
    <nd ref="20982553"/>
    <nd ref="20982545"/>
    <nd ref="144708692"/>
    <nd ref="20982538"/>
    <nd ref="20982529"/>
    <nd ref="119927880"/>
    <nd ref="137964370"/>
    <nd ref="20982522"/>
    <nd ref="20982479"/>
    <nd ref="20982488"/>
    <tag k="created_by" v="RambaZamba"/>
    <tag k="highway" v="tertiary"/>
    <tag k="maxweight" v="3"/>
    <tag k="name" v="Siebenbrunner Strae"/>
  </way>
  <way id="4000460" version="8" timestamp="2009-02-15T13:13:34Z" uid="36809" user="pfoten_weg_!_" changeset="463903">
    <nd ref="20982553"/>
    <nd ref="20982545"/>
    <nd ref="144708692"/>
    <nd ref="20982538"/>
    <nd ref="20982529"/>
    <nd ref="119927880"/>
    <nd ref="137964370"/>
    <nd ref="20982522"/>
    <nd ref="20982479"/>
    <nd ref="20982488"/>
    <tag k="created_by" v="RambaZamba"/>
    <tag k="highway" v="tertiary"/>
    <tag k="maxweight" v="3"/>
    <tag k="name" v="Siebenbrunner Strae"/>
    <tag k="source" v="survey"/>
  </way>
  <way id="4000460" version="9" timestamp="2009-06-08T12:04:11Z" uid="132988" user="ich-liebe-euch" changeset="1457959">
    <nd ref="20982553"/>
    <nd ref="20982545"/>
    <nd ref="144708692"/>
    <nd ref="20982538"/>
    <nd ref="20982529"/>
    <nd ref="119927880"/>
    <nd ref="137964370"/>
    <nd ref="20982522"/>
    <nd ref="20982479"/>
    <nd ref="20982488"/>
    <tag k="highway" v="tertiary"/>
    <tag k="maxweight" v="3"/>
    <tag k="name" v="Siebenbrunner Strae"/>
    <tag k="source" v="survey"/>
  </way>
  <way id="4000460" version="10" timestamp="2009-06-08T13:39:58Z" uid="36809" user="pfoten_weg_!_" changeset="1458869">
    <nd ref="20982553"/>
    <nd ref="20982545"/>
    <nd ref="144708692"/>
    <nd ref="20982538"/>
    <nd ref="20982529"/>
    <nd ref="119927880"/>
    <nd ref="137964370"/>
    <nd ref="20982522"/>
    <nd ref="20982479"/>
    <nd ref="20982488"/>
    <tag k="created_by" v="RambaZamba"/>
    <tag k="highway" v="tertiary"/>
    <tag k="maxweight" v="3"/>
    <tag k="name" v="Siebenbrunner Strae"/>
    <tag k="source" v="survey"/>
  </way>
  <way id="4000460" version="11" timestamp="2009-09-12T21:09:56Z" uid="156995" user="HampelZamba" changeset="2462871">
    <nd ref="20982553"/>
    <nd ref="20982545"/>
    <nd ref="144708692"/>
    <nd ref="20982538"/>
    <nd ref="20982529"/>
    <nd ref="119927880"/>
    <nd ref="137964370"/>
    <nd ref="20982522"/>
    <nd ref="20982479"/>
    <nd ref="20982488"/>
    <tag k="highway" v="tertiary"/>
    <tag k="maxweight" v="3"/>
    <tag k="name" v="Siebenbrunner Strae"/>
    <tag k="source" v="survey"/>
  </way>
  <way id="4000460" version="12" timestamp="2009-10-13T23:43:09Z" uid="36809" user="pfoten_weg_!_" changeset="2841273">
    <nd ref="20982553"/>
    <nd ref="20982545"/>
    <nd ref="144708692"/>
    <nd ref="20982538"/>
    <nd ref="20982529"/>
    <nd ref="119927880"/>
    <nd ref="137964370"/>
    <nd ref="20982522"/>
    <nd ref="20982479"/>
    <nd ref="20982488"/>
    <tag k="highway" v="tertiary"/>
    <tag k="maxweight" v="3"/>
    <tag k="name" v="Siebenbrunner Strae"/>
  </way>
  <way id="4000460" version="13" timestamp="2009-10-26T10:07:42Z" uid="65019" user="Kaefer84" changeset="2954726">
    <nd ref="20982553"/>
    <nd ref="20982545"/>
    <nd ref="144708692"/>
    <nd ref="20982538"/>
    <nd ref="20982529"/>
    <nd ref="119927880"/>
    <nd ref="137964370"/>
    <nd ref="20982522"/>
    <nd ref="20982479"/>
    <nd ref="20982488"/>
    <tag k="highway" v="tertiary"/>
    <tag k="maxspeed" v="50"/>
    <tag k="maxweight" v="3"/>
    <tag k="name" v="Siebenbrunner Strae"/>
  </way>
  <way id="4000460" version="14" timestamp="2009-11-15T23:01:10Z" uid="54552" user="Olivier Croquette" changeset="3128099">
    <nd ref="20982553"/>
    <nd ref="565095580"/>
    <nd ref="565095581"/>
    <nd ref="565095577"/>
    <nd ref="20982545"/>
    <nd ref="144708692"/>
    <nd ref="20982538"/>
    <nd ref="20982529"/>
    <nd ref="119927880"/>
    <nd ref="137964370"/>
    <nd ref="20982522"/>
    <nd ref="20982479"/>
    <nd ref="20982488"/>
    <tag k="highway" v="tertiary"/>
    <tag k="maxspeed" v="50"/>
    <tag k="maxweight" v="3"/>
    <tag k="name" v="Siebenbrunner Strae"/>
  </way>
  <way id="4000460" version="15" timestamp="2011-12-29T21:25:59Z" uid="13832" user="Peter14" changeset="10239949"/>
  <way id="4000673" version="3" timestamp="2008-07-15T01:33:14Z" uid="6975" user="ulfl" changeset="496348">
    <nd ref="20984211"/>
    <nd ref="20936525"/>
    <nd ref="20936521"/>
    <tag k="abutters" v="retail"/>
    <tag k="highway" v="unclassified"/>
    <tag k="maxspeed" v="32"/>
    <tag k="name" v="High Street"/>
    <tag k="oneway" v="yes"/>
  </way>
  <way id="4000673" version="4" timestamp="2008-08-02T16:47:07Z" uid="3937" user="southglos" changeset="21323">
    <nd ref="20984211"/>
    <nd ref="20936525"/>
    <nd ref="20936521"/>
    <tag k="abutters" v="retail"/>
    <tag k="highway" v="unclassified"/>
    <tag k="maxspeed" v="20mph"/>
    <tag k="name" v="High Street"/>
    <tag k="oneway" v="yes"/>
  </way>
</osm>
