<?xml version='1.0' encoding='UTF-8'?>
<osm version="0.6" generator="libosmium/2.20.0">
  <way id="40261014" version="2" timestamp="2010-07-11T10:53:15Z" uid="7617" user="Franc" changeset="5189073">
    <nd ref="485541788"/>
    <nd ref="485541789"/>
    <nd ref="811231916"/>
    <nd ref="485541790"/>
    <tag k="highway" v="unclassified"/>
    <tag k="name" v="Owen Street"/>
    <tag k="source" v="survey"/>
    <tag k="surface" v="paved"/>
  </way>
  <way id="40261015" version="2" timestamp="2010-07-11T11:59:19Z" uid="7617" user="Franc" changeset="5189661">
    <nd ref="485541795"/>
    <nd ref="485541796"/>
    <tag k="highway" v="unclassified"/>
    <tag k="name" v="Innes Street"/>
    <tag k="source" v="survey"/>
    <tag k="surface" v="paved"/>
  </way>
  <way id="40261016" version="2" timestamp="2010-07-11T10:53:14Z" uid="7617" user="Franc" changeset="5189073">
    <nd ref="485541798"/>
    <nd ref="485541799"/>
    <tag k="highway" v="unclassified"/>
    <tag k="name" v="Windeyer Street"/>
    <tag k="source" v="survey"/>
    <tag k="surface" v="paved"/>
  </way>
  <way id="40261016" version="3" timestamp="2010-07-24T04:57:09Z" uid="7617" user="Franc" changeset="5300753">
    <nd ref="485541798"/>
    <nd ref="830870301"/>
    <nd ref="485541799"/>
    <tag k="highway" v="unclassified"/>
    <tag k="name" v="Windeyer Street"/>
    <tag k="source" v="survey"/>
    <tag k="surface" v="paved"/>
  </way>
  <way id="40261017" version="6" timestamp="2010-07-11T10:53:13Z" uid="7617" user="Franc" changeset="5189073">
    <nd ref="485541818"/>
    <nd ref="485541820"/>
    <nd ref="540526079"/>
    <tag k="highway" v="unclassified"/>
    <tag k="name" v="Brundah Road"/>
    <tag k="source" v="survey"/>
    <tag k="surface" v="asphalt"/>
  </way>
  <way id="40261017" version="7" timestamp="2011-03-10T04:11:56Z" uid="74275" user="behemoth14" changeset="7510691">
    <nd ref="485541818"/>
    <nd ref="1194971834"/>
    <nd ref="1194971810"/>
    <nd ref="1194971840"/>
    <nd ref="485541820"/>
    <nd ref="540526079"/>
    <tag k="highway" v="unclassified"/>
    <tag k="name" v="Brundah Road"/>
    <tag k="source" v="survey"/>
    <tag k="surface" v="asphalt"/>
  </way>
  <way id="40261019" version="4" timestamp="2010-07-11T10:53:13Z" uid="7617" user="Franc" changeset="5189073">
    <nd ref="340362965"/>
    <nd ref="485541809"/>
    <nd ref="485541800"/>
    <nd ref="485541810"/>
    <nd ref="485541811"/>
    <nd ref="485541812"/>
    <nd ref="485541813"/>
    <nd ref="485541814"/>
    <nd ref="485541815"/>
    <nd ref="485541816"/>
    <nd ref="485541818"/>
    <tag k="highway" v="unclassified"/>
    <tag k="name" v="Rita Street"/>
    <tag k="source" v="survey"/>
    <tag k="source:name" v="Physical_Roadsign"/>
  </way>
  <way id="40261019" version="5" timestamp="2010-07-11T11:59:24Z" uid="7617" user="Franc" changeset="5189661"/>
  <way id="40261094" version="10" timestamp="2010-03-28T10:19:26Z" uid="20587" user="balrog-kun" changeset="4254597">
    <nd ref="14919141"/>
    <nd ref="515329166"/>
    <nd ref="519074695"/>
    <nd ref="123130886"/>
    <nd ref="583482117"/>
    <nd ref="123496348"/>
    <nd ref="26524655"/>
    <nd ref="122903207"/>
    <nd ref="123634350"/>
    <nd ref="122857852"/>
    <nd ref="20350932"/>
    <nd ref="502869764"/>
    <nd ref="502869770"/>
    <nd ref="502869772"/>
    <nd ref="20350935"/>
    <tag k="highway" v="residential"/>
    <tag k="name" v="Hawthorne Street"/>
  </way>
  <way id="40261094" version="11" timestamp="2010-05-15T03:00:24Z" uid="167417" user="osm-sputnik" changeset="4702167">
    <nd ref="14919141"/>
    <nd ref="515329166"/>
    <nd ref="519074695"/>
    <nd ref="123130886"/>
    <nd ref="583482117"/>
    <nd ref="123496348"/>
    <nd ref="26524655"/>
    <nd ref="122903207"/>
    <nd ref="123634350"/>
    <nd ref="122857852"/>
    <nd ref="20350932"/>
    <nd ref="502869764"/>
    <nd ref="502869770"/>
    <nd ref="502869772"/>
    <nd ref="734826876"/>
    <nd ref="20350935"/>
    <tag k="highway" v="residential"/>
    <tag k="name" v="Hawthorne Street"/>
  </way>
  <way id="40261094" version="12" timestamp="2010-05-16T05:44:19Z" uid="167417" user="osm-sputnik" changeset="4712885">
    <nd ref="14919141"/>
    <nd ref="515329166"/>
    <nd ref="519074695"/>
    <nd ref="123130886"/>
    <nd ref="583482117"/>
    <nd ref="123496348"/>
    <nd ref="26524655"/>
    <nd ref="736013616"/>
    <nd ref="122903207"/>
    <nd ref="123634350"/>
    <nd ref="122857852"/>
    <nd ref="20350932"/>
    <nd ref="502869764"/>
    <nd ref="502869770"/>
    <nd ref="502869772"/>
    <nd ref="734826876"/>
    <nd ref="20350935"/>
    <tag k="highway" v="residential"/>
    <tag k="name" v="Hawthorne Street"/>
  </way>
  <way id="40261155" version="3" timestamp="2010-04-03T13:54:22Z" uid="20587" user="balrog-kun" changeset="4312927">
    <nd ref="485544172"/>
    <nd ref="485544173"/>
    <nd ref="485544174"/>
    <nd ref="485544175"/>
    <nd ref="485544176"/>
    <nd ref="485544177"/>
    <tag k="highway" v="residential"/>
    <tag k="name" v="Brittle Bush Lane"/>
  </way>
  <way id="40261165" version="4" timestamp="2010-08-02T08:17:47Z" uid="171838" user="argrath" changeset="5378120">
    <nd ref="485544293"/>
    <nd ref="485544287"/>
    <tag k="highway" v="footway"/>
  </way>
  <way id="40261165" version="5" timestamp="2011-02-08T03:30:33Z" uid="129607" user="Mage Whopper" changeset="7223151">
    <nd ref="485544293"/>
    <nd ref="1141683808"/>
    <nd ref="485544287"/>
    <tag k="highway" v="footway"/>
  </way>
  <way id="40261166" version="2" timestamp="2010-08-02T08:17:47Z" uid="171838" user="argrath" changeset="5378120">
    <nd ref="485544296"/>
    <nd ref="485544297"/>
    <tag k="highway" v="footway"/>
  </way>
  <way id="40261279" version="2" timestamp="2010-01-23T16:13:53Z" uid="58091" user="Andreas M" changeset="3693085">
    <nd ref="485546590"/>
    <nd ref="485546592"/>
    <nd ref="485546599"/>
    <nd ref="485546600"/>
    <nd ref="485546590"/>
    <tag k="building" v="yes"/>
    <tag k="name" v="Hofer"/>
    <tag k="shop" v="supermarket"/>
  </way>
  <way id="40261279" version="3" timestamp="2010-03-10T10:30:22Z" uid="117815" user="british" changeset="4088031">
    <nd ref="485546590"/>
    <nd ref="485546592"/>
    <nd ref="663580188"/>
    <nd ref="663580187"/>
    <nd ref="663580196"/>
    <nd ref="485546599"/>
    <nd ref="663580186"/>
    <nd ref="485546600"/>
    <nd ref="485546590"/>
    <tag k="building" v="yes"/>
    <tag k="name" v="Hofer"/>
    <tag k="shop" v="supermarket"/>
  </way>
  <way id="40261279" version="4" timestamp="2010-03-10T10:33:38Z" uid="117815" user="british" changeset="4088053">
    <nd ref="485546590"/>
    <nd ref="485546592"/>
    <nd ref="663580188"/>
    <nd ref="663580187"/>
    <nd ref="663580196"/>
    <nd ref="485546599"/>
    <nd ref="663580186"/>
    <nd ref="485546600"/>
    <nd ref="485546590"/>
    <tag k="addr:city" v="Purkersdorf"/>
    <tag k="addr:country" v="AT"/>
    <tag k="addr:housenumber" v="26"/>
    <tag k="addr:postcode" v="3002"/>
    <tag k="addr:street" v="Linzer Straße"/>
    <tag k="building" v="yes"/>
    <tag k="name" v="Hofer"/>
    <tag k="shop" v="supermarket"/>
  </way>
  <way id="40261279" version="5" timestamp="2012-03-29T10:34:40Z" uid="54806" user="_al" changeset="11136273">
    <nd ref="485546590"/>
    <nd ref="485546592"/>
    <nd ref="663580188"/>
    <nd ref="663580187"/>
    <nd ref="663580196"/>
    <nd ref="485546599"/>
    <nd ref="663580186"/>
    <nd ref="485546600"/>
    <nd ref="485546590"/>
    <tag k="addr:city" v="Purkersdorf"/>
    <tag k="addr:country" v="AT"/>
    <tag k="addr:housenumber" v="26"/>
    <tag k="addr:postcode" v="3002"/>
    <tag k="addr:street" v="Linzer Straße"/>
    <tag k="building" v="yes"/>
    <tag k="name" v="Hofer"/>
    <tag k="odbl" v="clean"/>
    <tag k="shop" v="supermarket"/>
  </way>
</osm>
