<?xml version='1.0' encoding='UTF-8'?>
<osm version="0.6" generator="libosmium/2.20.0">
  <way id="40266045" version="2" timestamp="2010-07-08T17:43:18Z" uid="74617" user="JohnSmith" changeset="5167338">
    <nd ref="485595720"/>
    <nd ref="485595721"/>
    <tag k="highway" v="residential"/>
    <tag k="maxspeed" v="50"/>
    <tag k="maxspeed:source" v="default residential speed limit in Australia"/>
    <tag k="name" v="Orr Street"/>
    <tag k="surface" v="unpaved"/>
  </way>
  <way id="40266045" version="3" timestamp="2012-01-19T04:22:47Z" uid="147510" user="woodpeck_fixbot" changeset="10433650">
    <nd ref="485595720"/>
    <nd ref="485595721"/>
    <tag k="highway" v="residential"/>
    <tag k="name" v="Orr Street"/>
    <tag k="surface" v="unpaved"/>
  </way>
  <way id="40266046" version="2" timestamp="2010-07-08T17:42:41Z" uid="74617" user="JohnSmith" changeset="5167338">
    <nd ref="485595721"/>
    <nd ref="485595740"/>
    <nd ref="39274830"/>
    <tag k="highway" v="residential"/>
    <tag k="maxspeed" v="50"/>
    <tag k="maxspeed:source" v="default residential speed limit in Australia"/>
    <tag k="name" v="Orr Street"/>
  </way>
  <way id="40266046" version="3" timestamp="2012-01-19T04:22:48Z" uid="147510" user="woodpeck_fixbot" changeset="10433650">
    <nd ref="485595721"/>
    <nd ref="485595740"/>
    <nd ref="39274830"/>
    <tag k="highway" v="residential"/>
    <tag k="name" v="Orr Street"/>
  </way>
  <way id="40266047" version="2" timestamp="2010-07-08T17:42:05Z" uid="74617" user="JohnSmith" changeset="5167338">
    <nd ref="485595722"/>
    <nd ref="485595801"/>
    <nd ref="485595721"/>
    <nd ref="485595723"/>
    <tag k="highway" v="residential"/>
    <tag k="maxspeed" v="50"/>
    <tag k="maxspeed:source" v="default residential speed limit in Australia"/>
    <tag k="name" v="Bennett Stree"/>
    <tag k="surface" v="unpaved"/>
  </way>
  <way id="40266047" version="3" timestamp="2012-01-19T04:22:49Z" uid="147510" user="woodpeck_fixbot" changeset="10433650">
    <nd ref="485595722"/>
    <nd ref="485595801"/>
    <nd ref="485595721"/>
    <nd ref="485595723"/>
    <tag k="highway" v="residential"/>
    <tag k="name" v="Bennett Stree"/>
    <tag k="surface" v="unpaved"/>
  </way>
  <way id="40266049" version="3" timestamp="2010-07-08T17:42:25Z" uid="74617" user="JohnSmith" changeset="5167338">
    <nd ref="33525825"/>
    <nd ref="772638404"/>
    <nd ref="485595739"/>
    <nd ref="485595801"/>
    <nd ref="485595728"/>
    <tag k="highway" v="residential"/>
    <tag k="maxspeed" v="50"/>
    <tag k="maxspeed:source" v="default residential speed limit in Australia"/>
    <tag k="name" v="Adamson Street"/>
    <tag k="surface" v="unpaved"/>
  </way>
  <way id="40266049" version="4" timestamp="2012-01-19T04:22:50Z" uid="147510" user="woodpeck_fixbot" changeset="10433650">
    <nd ref="33525825"/>
    <nd ref="772638404"/>
    <nd ref="485595739"/>
    <nd ref="485595801"/>
    <nd ref="485595728"/>
    <tag k="highway" v="residential"/>
    <tag k="name" v="Adamson Street"/>
    <tag k="surface" v="unpaved"/>
  </way>
  <way id="40266050" version="3" timestamp="2010-07-08T17:43:14Z" uid="74617" user="JohnSmith" changeset="5167338">
    <nd ref="485595731"/>
    <nd ref="485595732"/>
    <nd ref="729670648"/>
    <nd ref="485595733"/>
    <nd ref="485595734"/>
    <nd ref="485595735"/>
    <nd ref="485595736"/>
    <nd ref="485595737"/>
    <nd ref="485595738"/>
    <nd ref="485595739"/>
    <tag k="highway" v="residential"/>
    <tag k="maxspeed" v="50"/>
    <tag k="maxspeed:source" v="default residential speed limit in Australia"/>
    <tag k="name" v="Duffy Street"/>
    <tag k="surface" v="unpaved"/>
  </way>
  <way id="40266050" version="4" timestamp="2012-01-19T04:22:51Z" uid="147510" user="woodpeck_fixbot" changeset="10433650">
    <nd ref="485595731"/>
    <nd ref="485595732"/>
    <nd ref="729670648"/>
    <nd ref="485595733"/>
    <nd ref="485595734"/>
    <nd ref="485595735"/>
    <nd ref="485595736"/>
    <nd ref="485595737"/>
    <nd ref="485595738"/>
    <nd ref="485595739"/>
    <tag k="highway" v="residential"/>
    <tag k="name" v="Duffy Street"/>
    <tag k="surface" v="unpaved"/>
  </way>
  <way id="40266052" version="2" timestamp="2010-07-08T17:42:35Z" uid="74617" user="JohnSmith" changeset="5167338">
    <nd ref="485595739"/>
    <nd ref="485595740"/>
    <tag k="highway" v="residential"/>
    <tag k="maxspeed" v="50"/>
    <tag k="maxspeed:source" v="default residential speed limit in Australia"/>
    <tag k="name" v="Drake Street"/>
    <tag k="surface" v="unpaved"/>
  </way>
  <way id="40266052" version="3" timestamp="2012-01-19T04:22:52Z" uid="147510" user="woodpeck_fixbot" changeset="10433650">
    <nd ref="485595739"/>
    <nd ref="485595740"/>
    <tag k="highway" v="residential"/>
    <tag k="name" v="Drake Street"/>
    <tag k="surface" v="unpaved"/>
  </way>
  <way id="40266056" version="2" timestamp="2010-07-08T17:42:28Z" uid="74617" user="JohnSmith" changeset="5167338">
    <nd ref="485595760"/>
    <nd ref="485595764"/>
    <nd ref="485595761"/>
    <tag k="highway" v="residential"/>
    <tag k="maxspeed" v="50"/>
    <tag k="maxspeed:source" v="default residential speed limit in Australia"/>
    <tag k="name" v="Raleigh Street"/>
    <tag k="surface" v="unpaved"/>
  </way>
  <way id="40266056" version="3" timestamp="2011-04-24T01:02:35Z" uid="4467" user="Rosscoe" changeset="7948730">
    <nd ref="485595760"/>
    <nd ref="485595764"/>
    <nd ref="485595761"/>
    <tag k="highway" v="residential"/>
    <tag k="maxspeed" v="50"/>
    <tag k="name" v="Raleigh Street"/>
    <tag k="source:maxspeed" v="default residential speed limit in Australia"/>
    <tag k="surface" v="unpaved"/>
  </way>
  <way id="40266056" version="4" timestamp="2012-01-19T04:22:53Z" uid="147510" user="woodpeck_fixbot" changeset="10433650">
    <nd ref="485595760"/>
    <nd ref="485595764"/>
    <nd ref="485595761"/>
    <tag k="highway" v="residential"/>
    <tag k="name" v="Raleigh Street"/>
    <tag k="source:maxspeed" v="default residential speed limit in Australia"/>
    <tag k="surface" v="unpaved"/>
  </way>
  <way id="40266260" version="3" timestamp="2010-07-09T06:49:11Z" uid="74617" user="JohnSmith" changeset="5171134">
    <nd ref="485597052"/>
    <nd ref="416880702"/>
    <tag k="highway" v="residential"/>
    <tag k="maxspeed" v="50"/>
    <tag k="maxspeed:source" v="default residential speed limit in Australia"/>
    <tag k="name" v="Martin Court"/>
  </way>
  <way id="40266260" version="4" timestamp="2012-01-19T04:22:54Z" uid="147510" user="woodpeck_fixbot" changeset="10433650">
    <nd ref="485597052"/>
    <nd ref="416880702"/>
    <tag k="highway" v="residential"/>
    <tag k="name" v="Martin Court"/>
  </way>
  <way id="40266298" version="4" timestamp="2010-07-09T06:48:46Z" uid="74617" user="JohnSmith" changeset="5171134">
    <nd ref="89123964"/>
    <nd ref="485597200"/>
    <tag k="highway" v="residential"/>
    <tag k="maxspeed" v="50"/>
    <tag k="maxspeed:source" v="default residential speed limit in Australia"/>
    <tag k="name" v="Martin Court"/>
    <tag k="oneway" v="yes"/>
  </way>
  <way id="40266298" version="5" timestamp="2012-01-19T04:22:55Z" uid="147510" user="woodpeck_fixbot" changeset="10433650">
    <nd ref="89123964"/>
    <nd ref="485597200"/>
    <tag k="highway" v="residential"/>
    <tag k="name" v="Martin Court"/>
    <tag k="oneway" v="yes"/>
  </way>
  <way id="40266309" version="4" timestamp="2010-07-09T06:49:22Z" uid="74617" user="JohnSmith" changeset="5171134">
    <nd ref="485597631"/>
    <nd ref="485597628"/>
    <tag k="highway" v="residential"/>
    <tag k="maxspeed" v="50"/>
    <tag k="maxspeed:source" v="default residential speed limit in Australia"/>
    <tag k="name" v="Martin Court"/>
    <tag k="oneway" v="yes"/>
  </way>
  <way id="40266309" version="5" timestamp="2012-01-19T04:22:57Z" uid="147510" user="woodpeck_fixbot" changeset="10433650">
    <nd ref="485597631"/>
    <nd ref="485597628"/>
    <tag k="highway" v="residential"/>
    <tag k="name" v="Martin Court"/>
    <tag k="oneway" v="yes"/>
  </way>
  <way id="40266604" version="3" timestamp="2010-07-08T17:43:01Z" uid="74617" user="JohnSmith" changeset="5167338">
    <nd ref="485599649"/>
    <nd ref="485599650"/>
    <nd ref="485599651"/>
    <nd ref="485599652"/>
    <nd ref="485599653"/>
    <nd ref="485599654"/>
    <nd ref="772351814"/>
    <nd ref="772351813"/>
    <tag k="highway" v="residential"/>
    <tag k="maxspeed" v="50"/>
    <tag k="maxspeed:source" v="default residential speed limit in Australia"/>
    <tag k="name" v="Henry Street"/>
    <tag k="surface" v="unpaved"/>
  </way>
  <way id="40266604" version="4" timestamp="2012-01-19T04:22:58Z" uid="147510" user="woodpeck_fixbot" changeset="10433650">
    <nd ref="485599649"/>
    <nd ref="485599650"/>
    <nd ref="485599651"/>
    <nd ref="485599652"/>
    <nd ref="485599653"/>
    <nd ref="485599654"/>
    <nd ref="772351814"/>
    <nd ref="772351813"/>
    <tag k="highway" v="residential"/>
    <tag k="name" v="Henry Street"/>
    <tag k="surface" v="unpaved"/>
  </way>
  <way id="40266878" version="3" timestamp="2011-02-20T19:26:46Z" uid="16922" user="amai" changeset="7346750">
    <nd ref="485601598"/>
    <nd ref="485601602"/>
    <nd ref="485601600"/>
    <nd ref="485601601"/>
    <nd ref="485601603"/>
    <nd ref="485601604"/>
    <nd ref="485601605"/>
    <nd ref="485601606"/>
    <nd ref="485601607"/>
    <nd ref="485601608"/>
    <nd ref="485601610"/>
    <nd ref="485601611"/>
    <nd ref="485601612"/>
    <nd ref="485601613"/>
    <nd ref="702199596"/>
    <nd ref="485601614"/>
    <nd ref="485601615"/>
    <nd ref="485601616"/>
    <nd ref="485601617"/>
    <nd ref="485601618"/>
    <tag k="highway" v="residential"/>
    <tag k="layer" v="0"/>
    <tag k="name:en" v="Charoen Krung 80"/>
    <tag k="surface" v="paved"/>
    <tag k="width" v="4"/>
  </way>
  <way id="40266878" version="4" timestamp="2012-03-21T22:21:06Z" uid="61891" user="stephankn" changeset="11057903"/>
  <way id="40266914" version="3" timestamp="2011-03-30T10:25:37Z" uid="4467" user="Rosscoe" changeset="7714633">
    <nd ref="485602983"/>
    <nd ref="485603036"/>
    <nd ref="1225112766"/>
    <nd ref="485603051"/>
    <tag k="highway" v="service"/>
    <tag k="oneway" v="yes"/>
  </way>
  <way id="40266915" version="4" timestamp="2011-03-30T10:23:39Z" uid="4467" user="Rosscoe" changeset="7714633">
    <nd ref="485603106"/>
    <nd ref="485603126"/>
    <nd ref="560714097"/>
    <nd ref="560714098"/>
    <nd ref="485603136"/>
    <nd ref="485603141"/>
    <tag k="highway" v="service"/>
    <tag k="maxspeed" v="40"/>
  </way>
  <way id="40266917" version="3" timestamp="2010-07-09T06:57:36Z" uid="74617" user="JohnSmith" changeset="5171447">
    <nd ref="485603511"/>
    <nd ref="485603514"/>
    <nd ref="485603526"/>
    <nd ref="485603530"/>
    <nd ref="485603533"/>
    <nd ref="485603537"/>
    <nd ref="620276832"/>
    <nd ref="485603540"/>
    <nd ref="485603543"/>
    <tag k="highway" v="residential"/>
    <tag k="maxspeed" v="50"/>
    <tag k="maxspeed:source" v="default residential speed limit in Australia"/>
    <tag k="name" v="Cooroyba Court"/>
  </way>
  <way id="40266917" version="4" timestamp="2012-01-19T04:22:59Z" uid="147510" user="woodpeck_fixbot" changeset="10433650">
    <nd ref="485603511"/>
    <nd ref="485603514"/>
    <nd ref="485603526"/>
    <nd ref="485603530"/>
    <nd ref="485603533"/>
    <nd ref="485603537"/>
    <nd ref="620276832"/>
    <nd ref="485603540"/>
    <nd ref="485603543"/>
    <tag k="highway" v="residential"/>
    <tag k="name" v="Cooroyba Court"/>
  </way>
</osm>
