<?xml version='1.0' encoding='UTF-8'?>
<osm version="0.6" generator="libosmium/2.20.0">
  <way id="40288094" version="4" timestamp="2010-04-03T13:54:25Z" uid="20587" user="balrog-kun" changeset="4312927">
    <nd ref="83669226"/>
    <nd ref="472545353"/>
    <nd ref="83669223"/>
    <nd ref="472545354"/>
    <nd ref="472545355"/>
    <nd ref="472545357"/>
    <nd ref="472545358"/>
    <nd ref="83669221"/>
    <tag k="highway" v="residential"/>
    <tag k="name" v="East McMillian Ln;"/>
    <tag k="tiger:cfcc" v="A41"/>
    <tag k="tiger:county" v="Salt Lake, UT"/>
    <tag k="tiger:name_base" v="McMillian"/>
    <tag k="tiger:name_direction_prefix" v="E"/>
    <tag k="tiger:name_type" v="Ln; Cir"/>
    <tag k="tiger:reviewed" v="no"/>
    <tag k="tiger:separated" v="no"/>
    <tag k="tiger:source" v="tiger_import_dch_v0.6_20070830"/>
    <tag k="tiger:tlid" v="176085076:176085088; 176110506"/>
    <tag k="tiger:zip_left" v="84107"/>
    <tag k="tiger:zip_left_1" v="84107"/>
    <tag k="tiger:zip_left_2" v="84107"/>
    <tag k="tiger:zip_right" v="84107"/>
    <tag k="tiger:zip_right_1" v="84107"/>
  </way>
  <way id="40288151" version="7" timestamp="2010-08-14T18:15:58Z" uid="16922" user="amai" changeset="5493162">
    <nd ref="486006846"/>
    <nd ref="486032191"/>
    <nd ref="486032195"/>
    <nd ref="487311065"/>
    <nd ref="860399355"/>
    <nd ref="860399210"/>
    <nd ref="486032199"/>
    <nd ref="486034549"/>
    <tag k="highway" v="secondary"/>
    <tag k="name" v="12th Street"/>
    <tag k="oneway" v="yes"/>
    <tag k="source" v="Yahoo hires"/>
  </way>
  <way id="40288151" version="8" timestamp="2010-08-21T16:30:32Z" uid="16922" user="amai" changeset="5553402">
    <nd ref="486006846"/>
    <nd ref="486032191"/>
    <nd ref="486032195"/>
    <nd ref="487311065"/>
    <nd ref="872060413"/>
    <nd ref="860399355"/>
    <nd ref="860399210"/>
    <nd ref="486032199"/>
    <nd ref="486034549"/>
    <tag k="highway" v="secondary"/>
    <tag k="name" v="12th Street"/>
    <tag k="oneway" v="yes"/>
    <tag k="source" v="Yahoo hires"/>
  </way>
  <way id="40288151" version="9" timestamp="2010-10-20T17:20:32Z" uid="16922" user="amai" changeset="6117732">
    <nd ref="486006846"/>
    <nd ref="486032191"/>
    <nd ref="486032195"/>
    <nd ref="487311065"/>
    <nd ref="872060413"/>
    <nd ref="860399355"/>
    <nd ref="958381799"/>
    <nd ref="860399210"/>
    <nd ref="486032199"/>
    <nd ref="486034549"/>
    <tag k="highway" v="secondary"/>
    <tag k="name" v="12th Street"/>
    <tag k="oneway" v="yes"/>
    <tag k="source" v="Yahoo hires"/>
  </way>
  <way id="40288151" version="10" timestamp="2012-03-28T11:36:09Z" uid="14633" user="fleclerc" changeset="11126033">
    <nd ref="486006846"/>
    <nd ref="486032191"/>
    <nd ref="486032195"/>
    <nd ref="1694613644"/>
    <nd ref="487311065"/>
    <nd ref="872060413"/>
    <nd ref="860399355"/>
    <nd ref="958381799"/>
    <nd ref="860399210"/>
    <nd ref="486032199"/>
    <nd ref="486034549"/>
    <tag k="highway" v="secondary"/>
    <tag k="name" v="12th Street"/>
    <tag k="oneway" v="yes"/>
    <tag k="source" v="Yahoo hires"/>
  </way>
  <way id="40288591" version="3" timestamp="2010-05-31T21:57:52Z" uid="151899" user="Bikeman2000" changeset="4868981">
    <nd ref="345284470"/>
    <nd ref="73648865"/>
    <nd ref="760742332"/>
    <nd ref="345284473"/>
    <nd ref="73648872"/>
    <nd ref="760742318"/>
    <nd ref="760742293"/>
    <nd ref="335433301"/>
    <nd ref="461907388"/>
    <nd ref="760742320"/>
    <nd ref="73648878"/>
    <nd ref="73648885"/>
    <nd ref="73648889"/>
    <nd ref="73648895"/>
    <nd ref="335433305"/>
    <nd ref="485944757"/>
    <tag k="highway" v="tertiary"/>
    <tag k="name" v="Pottensteiner Straße"/>
    <tag k="ref" v="BT 41"/>
  </way>
  <way id="40288591" version="4" timestamp="2011-01-13T14:36:24Z" uid="51230" user="gerzap" changeset="6957681">
    <nd ref="345284470"/>
    <nd ref="73648865"/>
    <nd ref="760742332"/>
    <nd ref="345284473"/>
    <nd ref="760742318"/>
    <nd ref="335433301"/>
    <nd ref="1102082247"/>
    <nd ref="461907388"/>
    <nd ref="73648878"/>
    <nd ref="73648885"/>
    <nd ref="73648889"/>
    <nd ref="73648895"/>
    <nd ref="1102082215"/>
    <nd ref="335433305"/>
    <nd ref="485944757"/>
    <tag k="highway" v="tertiary"/>
    <tag k="name" v="Pottensteiner Straße"/>
    <tag k="ref" v="BT 41"/>
  </way>
  <way id="40288591" version="5" timestamp="2011-05-07T15:54:54Z" uid="76791" user="luh" changeset="8074622">
    <nd ref="345284470"/>
    <nd ref="73648865"/>
    <nd ref="760742332"/>
    <nd ref="345284473"/>
    <nd ref="760742318"/>
    <nd ref="335433301"/>
    <nd ref="1102082247"/>
    <nd ref="461907388"/>
    <nd ref="73648878"/>
    <nd ref="73648885"/>
    <nd ref="73648889"/>
    <nd ref="73648895"/>
    <nd ref="1102082215"/>
    <nd ref="335433305"/>
    <nd ref="485944757"/>
    <tag k="highway" v="tertiary"/>
    <tag k="name" v="Pottensteiner Straße"/>
    <tag k="ref" v="BT 41"/>
    <tag k="source" v="gps-track"/>
  </way>
  <way id="40288591" version="6" timestamp="2011-10-19T11:23:24Z" uid="89943" user="Bengatzer" changeset="9598889">
    <nd ref="345284470"/>
    <nd ref="73648865"/>
    <nd ref="760742332"/>
    <nd ref="345284473"/>
    <nd ref="1473001727"/>
    <nd ref="760742318"/>
    <nd ref="1473001728"/>
    <nd ref="335433301"/>
    <nd ref="1102082247"/>
    <nd ref="461907388"/>
    <tag k="highway" v="tertiary"/>
    <tag k="maxspeed" v="50"/>
    <tag k="name" v="Pottensteiner Straße"/>
    <tag k="ref" v="BT 41"/>
    <tag k="source" v="gps-track"/>
    <tag k="source:maxspeed" v="DE:urban"/>
  </way>
  <way id="40288591" version="7" timestamp="2012-02-29T15:34:29Z" uid="479256" user="geodreieck4711" changeset="10829019"/>
  <way id="40288593" version="3" timestamp="2010-05-31T21:57:55Z" uid="151899" user="Bikeman2000" changeset="4868981">
    <nd ref="249122314"/>
    <nd ref="73648849"/>
    <nd ref="760742330"/>
    <nd ref="335433296"/>
    <nd ref="760742314"/>
    <nd ref="73648855"/>
    <nd ref="760742286"/>
    <nd ref="760742281"/>
    <nd ref="73648861"/>
    <nd ref="760742334"/>
    <nd ref="345284470"/>
    <tag k="highway" v="tertiary"/>
    <tag k="name" v="Pottensteiner Straße"/>
    <tag k="ref" v="BT 41"/>
  </way>
  <way id="40288593" version="4" timestamp="2011-01-13T14:37:09Z" uid="51230" user="gerzap" changeset="6957681">
    <nd ref="249122314"/>
    <nd ref="73648849"/>
    <nd ref="760742330"/>
    <nd ref="335433296"/>
    <nd ref="760742314"/>
    <nd ref="73648855"/>
    <nd ref="760742286"/>
    <nd ref="760742281"/>
    <nd ref="73648861"/>
    <nd ref="345284470"/>
    <tag k="highway" v="tertiary"/>
    <tag k="name" v="Pottensteiner Straße"/>
    <tag k="ref" v="BT 41"/>
  </way>
  <way id="40288593" version="5" timestamp="2011-05-07T15:54:51Z" uid="76791" user="luh" changeset="8074622">
    <nd ref="249122314"/>
    <nd ref="73648849"/>
    <nd ref="760742330"/>
    <nd ref="335433296"/>
    <nd ref="760742314"/>
    <nd ref="73648855"/>
    <nd ref="760742286"/>
    <nd ref="760742281"/>
    <nd ref="73648861"/>
    <nd ref="345284470"/>
    <tag k="highway" v="tertiary"/>
    <tag k="name" v="Pottensteiner Straße"/>
    <tag k="ref" v="BT 41"/>
    <tag k="source" v="gps-track"/>
  </way>
  <way id="40288593" version="6" timestamp="2011-10-19T11:23:25Z" uid="89943" user="Bengatzer" changeset="9598889">
    <nd ref="249122314"/>
    <nd ref="73648849"/>
    <nd ref="760742330"/>
    <nd ref="335433296"/>
    <nd ref="760742314"/>
    <nd ref="73648855"/>
    <nd ref="760742286"/>
    <nd ref="760742281"/>
    <nd ref="73648861"/>
    <nd ref="345284470"/>
    <tag k="highway" v="tertiary"/>
    <tag k="maxspeed" v="50"/>
    <tag k="name" v="Pottensteiner Straße"/>
    <tag k="ref" v="BT 41"/>
    <tag k="source" v="gps-track"/>
    <tag k="source:maxspeed" v="DE:urban"/>
  </way>
  <way id="40288593" version="7" timestamp="2012-02-29T15:34:29Z" uid="479256" user="geodreieck4711" changeset="10829019"/>
</osm>
