<?xml version='1.0' encoding='UTF-8'?>
<osm version="0.6" generator="libosmium/2.20.0">
  <way id="4046004" version="14" timestamp="2009-02-14T01:18:46Z" uid="36809" user="pfoten_weg_!_" changeset="423851">
    <nd ref="94959116"/>
    <nd ref="427243"/>
    <nd ref="337831511"/>
    <nd ref="303301103"/>
    <tag k="created_by" v="RambaZamba"/>
    <tag k="highway" v="primary"/>
    <tag k="name" v="Freisinger Straße"/>
    <tag k="oneway" v="true"/>
    <tag k="ref" v="B 11"/>
    <tag k="source" v="survey"/>
  </way>
  <way id="4046004" version="15" timestamp="2009-03-02T00:34:21Z" uid="66577" user="alter_schwede" changeset="724005">
    <nd ref="94959116"/>
    <nd ref="427243"/>
    <nd ref="337831511"/>
    <nd ref="303301103"/>
    <tag k="created_by" v="RambaZamba"/>
    <tag k="highway" v="primary"/>
    <tag k="name" v="Freisinger Straße"/>
    <tag k="ref" v="B 11"/>
    <tag k="source" v="survey"/>
  </way>
  <way id="4046004" version="16" timestamp="2009-03-02T00:35:06Z" uid="66577" user="alter_schwede" changeset="724005">
    <nd ref="94959116"/>
    <nd ref="427243"/>
    <nd ref="337831511"/>
    <nd ref="303301103"/>
    <tag k="highway" v="primary"/>
    <tag k="name" v="Freisinger Straße"/>
    <tag k="ref" v="B 11"/>
    <tag k="source" v="survey"/>
  </way>
  <way id="4046004" version="17" timestamp="2009-12-13T21:25:12Z" uid="56526" user="JJ Rammerl" changeset="3367291">
    <nd ref="94959116"/>
    <nd ref="427243"/>
    <tag k="highway" v="primary"/>
    <tag k="name" v="Freisinger Straße"/>
    <tag k="ref" v="B 11"/>
    <tag k="source" v="survey"/>
  </way>
  <way id="4046004" version="18" timestamp="2010-08-27T18:16:25Z" uid="322823" user="mhoram" changeset="5610118">
    <nd ref="94959116"/>
    <nd ref="427243"/>
    <tag k="highway" v="primary"/>
    <tag k="maxspeed" v="70"/>
    <tag k="name" v="Freisinger Straße"/>
    <tag k="ref" v="B 11"/>
    <tag k="source" v="survey"/>
  </way>
  <way id="4046498" version="3" timestamp="2009-11-12T01:50:18Z" uid="36809" user="pfoten_weg_!_" changeset="3095145">
    <nd ref="14485952"/>
    <nd ref="14486009"/>
    <nd ref="14485972"/>
    <tag k="highway" v="road"/>
  </way>
  <way id="4046498" version="4" timestamp="2011-02-06T09:11:37Z" uid="62236" user="Paulchen Panther" changeset="7200959">
    <nd ref="1138763325"/>
    <nd ref="1138763100"/>
    <nd ref="1138763257"/>
    <nd ref="14485952"/>
    <nd ref="14486009"/>
    <nd ref="14485972"/>
    <tag k="highway" v="track"/>
    <tag k="source" v="Bing"/>
    <tag k="tracktype" v="grade1"/>
  </way>
</osm>
