<?xml version='1.0' encoding='UTF-8'?>
<osm version="0.6" generator="libosmium/2.20.0">
  <way id="40549115" version="2" timestamp="2010-07-06T09:47:55Z" uid="74617" user="JohnSmith" changeset="5147679">
    <nd ref="77652606"/>
    <nd ref="77653842"/>
    <tag k="highway" v="residential"/>
    <tag k="maxspeed" v="50"/>
    <tag k="maxspeed:source" v="default residential speed limit in Australia"/>
  </way>
  <way id="40549115" version="3" timestamp="2012-01-19T04:31:34Z" uid="147510" user="woodpeck_fixbot" changeset="10433650">
    <nd ref="77652606"/>
    <nd ref="77653842"/>
    <tag k="highway" v="residential"/>
  </way>
  <way id="40549126" version="6" timestamp="2009-12-05T00:10:37Z" uid="20587" user="balrog-kun" changeset="3292525"/>
  <way id="40549127" version="4" timestamp="2009-12-05T00:11:08Z" uid="20587" user="balrog-kun" changeset="3292525"/>
  <way id="40549183" version="2" timestamp="2011-04-30T10:49:04Z" uid="9581" user="Lobelt" changeset="8010574">
    <nd ref="312092302"/>
    <nd ref="1266874024"/>
    <tag k="highway" v="residential"/>
    <tag k="maxspeed" v="30"/>
    <tag k="name" v="Pfrimmstraße"/>
  </way>
  <way id="40549183" version="3" timestamp="2012-03-22T21:58:36Z" uid="123364" user="Tronikon" changeset="11068341"/>
  <way id="40549184" version="2" timestamp="2010-07-22T19:29:31Z" uid="9581" user="Lobelt" changeset="5290323">
    <nd ref="312090979"/>
    <nd ref="312090974"/>
    <nd ref="312092402"/>
    <nd ref="312092376"/>
    <nd ref="312092577"/>
    <nd ref="312092601"/>
    <nd ref="312092296"/>
    <nd ref="312092600"/>
    <nd ref="312092599"/>
    <nd ref="312091395"/>
    <nd ref="312092359"/>
    <nd ref="312092598"/>
    <nd ref="312092597"/>
    <nd ref="312092596"/>
    <nd ref="829323544"/>
    <nd ref="312092595"/>
    <nd ref="312092594"/>
    <nd ref="312091307"/>
    <tag k="highway" v="residential"/>
    <tag k="name" v="Hauptstraße"/>
  </way>
  <way id="40549184" version="3" timestamp="2011-02-04T07:03:25Z" uid="22684" user="Mr_Israel" changeset="7180383">
    <nd ref="312090979"/>
    <nd ref="312090974"/>
    <nd ref="312092402"/>
    <nd ref="312092376"/>
    <nd ref="312092577"/>
    <nd ref="312092601"/>
    <nd ref="312092296"/>
    <nd ref="312092600"/>
    <nd ref="312092599"/>
    <nd ref="312091395"/>
    <nd ref="312092359"/>
    <nd ref="312092598"/>
    <nd ref="312092597"/>
    <nd ref="312092596"/>
    <nd ref="829323544"/>
    <nd ref="312092595"/>
    <nd ref="312092594"/>
    <nd ref="312091307"/>
    <tag k="highway" v="residential"/>
    <tag k="maxspeed" v="30"/>
    <tag k="name" v="Hauptstraße"/>
  </way>
  <way id="40549184" version="4" timestamp="2012-03-22T23:52:08Z" uid="123364" user="Tronikon" changeset="11069173">
    <nd ref="312090979"/>
    <nd ref="312090974"/>
    <nd ref="312092402"/>
    <nd ref="312092376"/>
    <nd ref="312092577"/>
    <nd ref="312092601"/>
    <nd ref="312092296"/>
    <nd ref="312092600"/>
    <nd ref="312092599"/>
    <nd ref="312091395"/>
    <nd ref="312092359"/>
    <nd ref="312092598"/>
    <nd ref="312092597"/>
    <nd ref="312092596"/>
    <nd ref="1686474582"/>
    <nd ref="312092595"/>
    <nd ref="312092594"/>
    <nd ref="312091307"/>
    <tag k="highway" v="residential"/>
    <tag k="maxspeed" v="30"/>
    <tag k="name" v="Hauptstraße"/>
  </way>
  <way id="40549192" version="4" timestamp="2010-06-17T19:16:59Z" uid="49111" user="Markus B" changeset="5011460">
    <nd ref="492079991"/>
    <nd ref="492079992"/>
    <nd ref="492079993"/>
    <nd ref="492079994"/>
    <nd ref="492079991"/>
    <tag k="addr:city" v="Schnaittach"/>
    <tag k="addr:country" v="DE"/>
    <tag k="addr:housenumber" v="4"/>
    <tag k="addr:postcode" v="91220"/>
    <tag k="addr:street" v="Erlanger Straße"/>
    <tag k="building" v="yes"/>
    <tag k="shop" v="shoes"/>
  </way>
  <way id="40549192" version="5" timestamp="2010-12-17T22:45:43Z" uid="82877" user="Wankmann" changeset="6691656">
    <nd ref="492079991"/>
    <nd ref="492079992"/>
    <nd ref="492079993"/>
    <nd ref="492079994"/>
    <nd ref="492079991"/>
    <tag k="addr:city" v="Schnaittach"/>
    <tag k="addr:country" v="DE"/>
    <tag k="addr:housenumber" v="4"/>
    <tag k="addr:postcode" v="91220"/>
    <tag k="addr:street" v="Erlanger Straße"/>
    <tag k="building" v="yes"/>
    <tag k="shop" v="shoes"/>
    <tag k="wheelchair" v="no"/>
  </way>
  <way id="40549192" version="6" timestamp="2011-12-17T12:29:53Z" uid="82877" user="Wankmann" changeset="10137949"/>
  <way id="40549194" version="6" timestamp="2010-06-17T19:17:00Z" uid="49111" user="Markus B" changeset="5011460">
    <nd ref="492079998"/>
    <nd ref="492079999"/>
    <nd ref="492080000"/>
    <nd ref="765928910"/>
    <nd ref="765928988"/>
    <nd ref="492080001"/>
    <nd ref="492080002"/>
    <nd ref="492080003"/>
    <nd ref="492079998"/>
    <tag k="addr:city" v="Schnaittach"/>
    <tag k="addr:country" v="DE"/>
    <tag k="addr:housenumber" v="2"/>
    <tag k="addr:postcode" v="91220"/>
    <tag k="addr:street" v="Erlanger Straße"/>
    <tag k="amenity" v="restaurant"/>
    <tag k="building" v="yes"/>
    <tag k="cuisine" v="regional"/>
    <tag k="name" v="Zur alten Post"/>
    <tag k="opening_hours" v="Sa off"/>
    <tag k="smoking" v="no"/>
  </way>
  <way id="40549194" version="7" timestamp="2011-12-17T12:29:54Z" uid="82877" user="Wankmann" changeset="10137949"/>
  <way id="40549373" version="3" timestamp="2011-04-30T10:34:42Z" uid="9581" user="Lobelt" changeset="8010493">
    <nd ref="492081686"/>
    <nd ref="492081684"/>
    <nd ref="1266812936"/>
    <nd ref="1266812996"/>
    <nd ref="492081683"/>
    <nd ref="1266812687"/>
    <nd ref="812818795"/>
    <tag k="highway" v="residential"/>
  </way>
  <way id="40549373" version="4" timestamp="2012-02-28T22:05:17Z" uid="328555" user="peb12345" changeset="10823311"/>
  <way id="40549522" version="2" timestamp="2010-03-28T10:19:53Z" uid="20587" user="balrog-kun" changeset="4254597">
    <nd ref="472555745"/>
    <nd ref="472556179"/>
    <nd ref="472556167"/>
    <nd ref="472556168"/>
    <nd ref="472556224"/>
    <nd ref="472556165"/>
    <nd ref="472556166"/>
    <nd ref="472556172"/>
    <nd ref="472556213"/>
    <nd ref="472556173"/>
    <nd ref="472556169"/>
    <nd ref="472556170"/>
    <nd ref="472556214"/>
    <tag k="highway" v="residential"/>
    <tag k="name" v="Hill Grove Street"/>
    <tag k="source" v="survey;image;yahoo_imagry"/>
    <tag k="source_ref" v="AM909_DSCN7813"/>
  </way>
  <way id="40549533" version="2" timestamp="2011-04-28T20:20:22Z" uid="9581" user="Lobelt" changeset="7998367">
    <nd ref="264973092"/>
    <nd ref="264973096"/>
    <tag k="highway" v="track"/>
    <tag k="layer" v="-1"/>
    <tag k="tracktype" v="grade1"/>
    <tag k="tunnel" v="yes"/>
  </way>
  <way id="40549534" version="2" timestamp="2011-04-28T20:20:19Z" uid="9581" user="Lobelt" changeset="7998367">
    <nd ref="264973096"/>
    <nd ref="1264116119"/>
    <nd ref="264973097"/>
    <nd ref="264973098"/>
    <nd ref="264973099"/>
    <nd ref="264973100"/>
    <nd ref="264973101"/>
    <nd ref="264973102"/>
    <nd ref="264973104"/>
    <nd ref="264973105"/>
    <nd ref="264973106"/>
    <nd ref="264973107"/>
    <nd ref="264973108"/>
    <nd ref="264973109"/>
    <nd ref="264973110"/>
    <nd ref="264973112"/>
    <nd ref="264973113"/>
    <nd ref="264973114"/>
    <nd ref="264973115"/>
    <nd ref="264973116"/>
    <nd ref="264973117"/>
    <nd ref="264973118"/>
    <nd ref="264973119"/>
    <nd ref="264973121"/>
    <nd ref="264973122"/>
    <nd ref="264973123"/>
    <nd ref="264973124"/>
    <nd ref="264973126"/>
    <nd ref="264973135"/>
    <nd ref="264973144"/>
    <nd ref="264973152"/>
    <nd ref="264973161"/>
    <nd ref="264973170"/>
    <nd ref="264973175"/>
    <tag k="highway" v="track"/>
    <tag k="tracktype" v="grade1"/>
  </way>
  <way id="40549534" version="3" timestamp="2012-02-29T12:19:40Z" uid="328555" user="peb12345" changeset="10827367"/>
  <way id="40549538" version="3" timestamp="2011-04-28T20:20:18Z" uid="9581" user="Lobelt" changeset="7998367">
    <nd ref="492082933"/>
    <nd ref="436521648"/>
    <nd ref="436521649"/>
    <nd ref="436521651"/>
    <nd ref="436521653"/>
    <nd ref="436521655"/>
    <nd ref="436521657"/>
    <nd ref="436521661"/>
    <nd ref="436521663"/>
    <nd ref="436521665"/>
    <tag k="highway" v="cycleway"/>
    <tag k="surface" v="paved"/>
  </way>
  <way id="40549538" version="4" timestamp="2012-02-28T19:53:10Z" uid="328555" user="peb12345" changeset="10822020">
    <nd ref="492082933"/>
    <nd ref="436521648"/>
    <nd ref="436521649"/>
    <nd ref="436521651"/>
    <nd ref="436521653"/>
    <nd ref="436521655"/>
    <nd ref="436521657"/>
    <nd ref="436521661"/>
    <nd ref="436521663"/>
    <nd ref="1651889300"/>
    <tag k="highway" v="cycleway"/>
    <tag k="surface" v="paved"/>
  </way>
  <way id="40549633" version="2" timestamp="2011-04-28T20:20:26Z" uid="9581" user="Lobelt" changeset="7998367"/>
  <way id="40549635" version="3" timestamp="2011-04-28T20:20:14Z" uid="9581" user="Lobelt" changeset="7998367">
    <nd ref="287833617"/>
    <nd ref="1264116043"/>
    <nd ref="1264115868"/>
    <nd ref="287833618"/>
    <nd ref="1264115644"/>
    <nd ref="287833619"/>
    <nd ref="287833620"/>
    <nd ref="1264115654"/>
    <nd ref="287833621"/>
    <nd ref="287833622"/>
    <nd ref="1264115933"/>
    <nd ref="287833623"/>
    <nd ref="514360685"/>
    <nd ref="287833624"/>
    <nd ref="287833625"/>
    <nd ref="287833626"/>
    <nd ref="287833627"/>
    <nd ref="287833628"/>
    <nd ref="287833629"/>
    <tag k="foot" v="yes"/>
    <tag k="highway" v="residential"/>
    <tag k="surface" v="paved"/>
  </way>
  <way id="40549635" version="4" timestamp="2012-02-29T14:03:33Z" uid="328555" user="peb12345" changeset="10828186"/>
  <way id="40549778" version="3" timestamp="2010-06-17T19:17:00Z" uid="49111" user="Markus B" changeset="5011460">
    <nd ref="492085506"/>
    <nd ref="492085508"/>
    <nd ref="492085509"/>
    <nd ref="492085522"/>
    <nd ref="492085506"/>
    <tag k="addr:city" v="Schnaittach"/>
    <tag k="addr:country" v="DE"/>
    <tag k="addr:housename" v="Metzgerei"/>
    <tag k="addr:housenumber" v="8"/>
    <tag k="addr:postcode" v="91220"/>
    <tag k="addr:street" v="Erlanger Straße"/>
    <tag k="building" v="yes"/>
  </way>
  <way id="40549778" version="4" timestamp="2011-01-06T23:51:57Z" uid="82877" user="Wankmann" changeset="6888523">
    <nd ref="492085506"/>
    <nd ref="492085508"/>
    <nd ref="492085509"/>
    <nd ref="1087105297"/>
    <nd ref="492085522"/>
    <nd ref="492085506"/>
    <tag k="addr:city" v="Schnaittach"/>
    <tag k="addr:country" v="DE"/>
    <tag k="addr:housename" v="Metzgerei"/>
    <tag k="addr:housenumber" v="8"/>
    <tag k="addr:postcode" v="91220"/>
    <tag k="addr:street" v="Erlanger Straße"/>
    <tag k="building" v="yes"/>
  </way>
  <way id="40549778" version="5" timestamp="2011-01-07T13:24:41Z" uid="82877" user="Wankmann" changeset="6892597">
    <nd ref="492085506"/>
    <nd ref="492085508"/>
    <nd ref="492085509"/>
    <nd ref="1087105297"/>
    <nd ref="492085522"/>
    <nd ref="1088238503"/>
    <nd ref="1088238542"/>
    <nd ref="492085506"/>
    <tag k="addr:city" v="Schnaittach"/>
    <tag k="addr:country" v="DE"/>
    <tag k="addr:housename" v="Metzgerei"/>
    <tag k="addr:housenumber" v="8"/>
    <tag k="addr:postcode" v="91220"/>
    <tag k="addr:street" v="Erlanger Straße"/>
    <tag k="building" v="yes"/>
  </way>
  <way id="40549778" version="6" timestamp="2011-02-01T12:14:48Z" uid="82877" user="Wankmann" changeset="7154075">
    <nd ref="492085506"/>
    <nd ref="492085508"/>
    <nd ref="492085509"/>
    <nd ref="1087105297"/>
    <nd ref="492085522"/>
    <nd ref="1088238503"/>
    <nd ref="1088238542"/>
    <nd ref="492085506"/>
    <tag k="addr:city" v="Schnaittach"/>
    <tag k="addr:country" v="DE"/>
    <tag k="addr:housename" v="Metzgerei"/>
    <tag k="addr:housenumber" v="1"/>
    <tag k="addr:postcode" v="91220"/>
    <tag k="addr:street" v="Krankenhausweg"/>
    <tag k="building" v="yes"/>
  </way>
  <way id="40549778" version="7" timestamp="2011-12-13T23:21:43Z" uid="82877" user="Wankmann" changeset="10112193"/>
  <way id="40549836" version="2" timestamp="2010-07-09T04:04:40Z" uid="74617" user="JohnSmith" changeset="5170825">
    <nd ref="492085927"/>
    <nd ref="492085926"/>
    <tag k="highway" v="residential"/>
    <tag k="maxspeed" v="50"/>
    <tag k="maxspeed:source" v="default residential speed limit in Australia"/>
    <tag k="name" v="Mary Street"/>
  </way>
  <way id="40549836" version="3" timestamp="2012-01-19T04:31:35Z" uid="147510" user="woodpeck_fixbot" changeset="10433650">
    <nd ref="492085927"/>
    <nd ref="492085926"/>
    <tag k="highway" v="residential"/>
    <tag k="name" v="Mary Street"/>
  </way>
  <way id="40549841" version="2" timestamp="2010-04-03T13:54:36Z" uid="20587" user="balrog-kun" changeset="4312927">
    <nd ref="83887710"/>
    <nd ref="83887711"/>
    <tag k="bridge" v="yes"/>
    <tag k="highway" v="residential"/>
    <tag k="layer" v="1"/>
    <tag k="name" v="Icy Springs Road"/>
    <tag k="tiger:cfcc" v="A41"/>
    <tag k="tiger:county" v="Summit, UT"/>
    <tag k="tiger:name_base" v="Icy Springs"/>
    <tag k="tiger:name_type" v="Rd"/>
    <tag k="tiger:reviewed" v="no"/>
    <tag k="tiger:separated" v="no"/>
    <tag k="tiger:source" v="tiger_import_dch_v0.6_20070830"/>
    <tag k="tiger:tlid" v="160621443:160621502:160621546:160621100:160621090:160621409:160621116:160620961:160620963:160617088"/>
    <tag k="tiger:zip_left" v="84017"/>
    <tag k="tiger:zip_right" v="84017"/>
  </way>
  <way id="40549842" version="2" timestamp="2010-04-03T13:54:37Z" uid="20587" user="balrog-kun" changeset="4312927">
    <nd ref="83887711"/>
    <nd ref="83887712"/>
    <nd ref="83887713"/>
    <nd ref="83887714"/>
    <nd ref="83887715"/>
    <nd ref="83849557"/>
    <nd ref="83887716"/>
    <nd ref="83887717"/>
    <nd ref="83887718"/>
    <nd ref="83887719"/>
    <nd ref="83887720"/>
    <nd ref="83887721"/>
    <nd ref="83887722"/>
    <nd ref="83887723"/>
    <nd ref="83887724"/>
    <nd ref="83877673"/>
    <nd ref="83872152"/>
    <tag k="highway" v="residential"/>
    <tag k="name" v="Icy Springs Road"/>
    <tag k="tiger:cfcc" v="A41"/>
    <tag k="tiger:county" v="Summit, UT"/>
    <tag k="tiger:name_base" v="Icy Springs"/>
    <tag k="tiger:name_type" v="Rd"/>
    <tag k="tiger:reviewed" v="no"/>
    <tag k="tiger:separated" v="no"/>
    <tag k="tiger:source" v="tiger_import_dch_v0.6_20070830"/>
    <tag k="tiger:tlid" v="160621443:160621502:160621546:160621100:160621090:160621409:160621116:160620961:160620963:160617088"/>
    <tag k="tiger:zip_left" v="84017"/>
    <tag k="tiger:zip_right" v="84017"/>
  </way>
  <way id="40549842" version="3" timestamp="2010-05-06T18:37:11Z" uid="65769" user="Val" changeset="4624174">
    <nd ref="83887711"/>
    <nd ref="83887712"/>
    <nd ref="83887713"/>
    <nd ref="83887714"/>
    <nd ref="83887715"/>
    <nd ref="83849557"/>
    <nd ref="83887716"/>
    <nd ref="83887717"/>
    <nd ref="83887718"/>
    <nd ref="724356262"/>
    <nd ref="724356263"/>
    <nd ref="724356265"/>
    <nd ref="724356267"/>
    <nd ref="724356269"/>
    <nd ref="724356270"/>
    <nd ref="83887719"/>
    <nd ref="724356273"/>
    <nd ref="724356275"/>
    <nd ref="724356276"/>
    <nd ref="83887720"/>
    <nd ref="83887721"/>
    <nd ref="83887722"/>
    <nd ref="83887723"/>
    <nd ref="83887724"/>
    <nd ref="83877673"/>
    <nd ref="83872152"/>
    <tag k="highway" v="residential"/>
    <tag k="name" v="Icy Springs Road"/>
    <tag k="tiger:cfcc" v="A41"/>
    <tag k="tiger:county" v="Summit, UT"/>
    <tag k="tiger:name_base" v="Icy Springs"/>
    <tag k="tiger:name_type" v="Rd"/>
    <tag k="tiger:reviewed" v="no"/>
    <tag k="tiger:separated" v="no"/>
    <tag k="tiger:source" v="tiger_import_dch_v0.6_20070830"/>
    <tag k="tiger:tlid" v="160621443:160621502:160621546:160621100:160621090:160621409:160621116:160620961:160620963:160617088"/>
    <tag k="tiger:zip_left" v="84017"/>
    <tag k="tiger:zip_right" v="84017"/>
  </way>
  <way id="40549843" version="2" timestamp="2010-04-03T13:54:37Z" uid="20587" user="balrog-kun" changeset="4312927">
    <nd ref="83888557"/>
    <nd ref="492086089"/>
    <tag k="bridge" v="yes"/>
    <tag k="highway" v="tertiary"/>
    <tag k="layer" v="1"/>
    <tag k="name" v="Hobson Lane"/>
    <tag k="tiger:cfcc" v="A41"/>
    <tag k="tiger:county" v="Summit, UT"/>
    <tag k="tiger:name_base" v="Hobson"/>
    <tag k="tiger:name_type" v="Ln"/>
    <tag k="tiger:reviewed" v="no"/>
    <tag k="tiger:separated" v="no"/>
    <tag k="tiger:source" v="tiger_import_dch_v0.6_20070830"/>
    <tag k="tiger:tlid" v="160621451:160621452:160620972:160621251:160621113"/>
  </way>
  <way id="40549844" version="2" timestamp="2010-04-03T13:54:37Z" uid="20587" user="balrog-kun" changeset="4312927">
    <nd ref="492086089"/>
    <nd ref="83884980"/>
    <tag k="highway" v="tertiary"/>
    <tag k="name" v="Hobson Lane"/>
    <tag k="tiger:cfcc" v="A41"/>
    <tag k="tiger:county" v="Summit, UT"/>
    <tag k="tiger:name_base" v="Hobson"/>
    <tag k="tiger:name_type" v="Ln"/>
    <tag k="tiger:reviewed" v="no"/>
    <tag k="tiger:separated" v="no"/>
    <tag k="tiger:source" v="tiger_import_dch_v0.6_20070830"/>
    <tag k="tiger:tlid" v="160621451:160621452:160620972:160621251:160621113"/>
  </way>
  <way id="40549845" version="2" timestamp="2010-04-03T13:54:37Z" uid="20587" user="balrog-kun" changeset="4312927">
    <nd ref="83892248"/>
    <nd ref="83892249"/>
    <tag k="bridge" v="yes"/>
    <tag k="highway" v="residential"/>
    <tag k="layer" v="1"/>
    <tag k="name" v="Creamery Lane"/>
    <tag k="tiger:cfcc" v="A41"/>
    <tag k="tiger:county" v="Summit, UT"/>
    <tag k="tiger:name_base" v="Creamery"/>
    <tag k="tiger:name_type" v="Ln"/>
    <tag k="tiger:reviewed" v="no"/>
    <tag k="tiger:separated" v="no"/>
    <tag k="tiger:source" v="tiger_import_dch_v0.6_20070830"/>
    <tag k="tiger:tlid" v="160623551:160623544:160623546:160623548:160623550:160623552"/>
    <tag k="tiger:zip_left" v="84017"/>
    <tag k="tiger:zip_right" v="84017"/>
  </way>
  <way id="40549846" version="2" timestamp="2010-04-03T13:54:37Z" uid="20587" user="balrog-kun" changeset="4312927">
    <nd ref="83892249"/>
    <nd ref="83892250"/>
    <nd ref="83892251"/>
    <nd ref="83892252"/>
    <nd ref="83892253"/>
    <nd ref="83891456"/>
    <tag k="highway" v="residential"/>
    <tag k="name" v="Creamery Lane"/>
    <tag k="tiger:cfcc" v="A41"/>
    <tag k="tiger:county" v="Summit, UT"/>
    <tag k="tiger:name_base" v="Creamery"/>
    <tag k="tiger:name_type" v="Ln"/>
    <tag k="tiger:reviewed" v="no"/>
    <tag k="tiger:separated" v="no"/>
    <tag k="tiger:source" v="tiger_import_dch_v0.6_20070830"/>
    <tag k="tiger:tlid" v="160623551:160623544:160623546:160623548:160623550:160623552"/>
    <tag k="tiger:zip_left" v="84017"/>
    <tag k="tiger:zip_right" v="84017"/>
  </way>
  <way id="40549847" version="2" timestamp="2010-04-03T13:54:38Z" uid="20587" user="balrog-kun" changeset="4312927">
    <nd ref="83891480"/>
    <nd ref="83888864"/>
    <tag k="bridge" v="yes"/>
    <tag k="highway" v="tertiary"/>
    <tag k="layer" v="1"/>
    <tag k="name" v="West Hoytsville Road"/>
    <tag k="name_1" v="South West Hoytsville Road"/>
    <tag k="tiger:cfcc" v="A41"/>
    <tag k="tiger:county" v="Summit, UT"/>
    <tag k="tiger:name_base" v="West Hoytsville"/>
    <tag k="tiger:name_base_1" v="West Hoytsville"/>
    <tag k="tiger:name_direction_prefix_1" v="S"/>
    <tag k="tiger:name_type" v="Rd"/>
    <tag k="tiger:name_type_1" v="Rd"/>
    <tag k="tiger:reviewed" v="no"/>
    <tag k="tiger:separated" v="no"/>
    <tag k="tiger:source" v="tiger_import_dch_v0.6_20070830"/>
    <tag k="tiger:tlid" v="160629412:160629413:160629408:160621208:160620997:160635311:160635312:160632118:160622818:160623257:160623037:160622819:160622830:160623501:160623505:160623497:160623053:160622836:160635323:160635324:160623111:160635314:160635315:160621283"/>
    <tag k="tiger:zip_left" v="84017"/>
    <tag k="tiger:zip_right" v="84017"/>
  </way>
  <way id="40549855" version="2" timestamp="2010-04-03T13:54:38Z" uid="20587" user="balrog-kun" changeset="4312927">
    <nd ref="83892457"/>
    <nd ref="492086134"/>
    <tag k="bridge" v="yes"/>
    <tag k="highway" v="tertiary"/>
    <tag k="layer" v="1"/>
    <tag k="name" v="East 100  North"/>
    <tag k="tiger:cfcc" v="A41"/>
    <tag k="tiger:county" v="Summit, UT"/>
    <tag k="tiger:name_base" v="100"/>
    <tag k="tiger:name_direction_suffix" v="N"/>
    <tag k="tiger:reviewed" v="no"/>
    <tag k="tiger:separated" v="no"/>
    <tag k="tiger:source" v="tiger_import_dch_v0.6_20070830"/>
    <tag k="tiger:tlid" v="160621453:160621108:160620904:160620908:160639562:160620909:160620899"/>
    <tag k="tiger:zip_left" v="84017"/>
    <tag k="tiger:zip_right" v="84017"/>
  </way>
  <way id="40549855" version="3" timestamp="2010-05-06T18:35:50Z" uid="65769" user="Val" changeset="4624174">
    <nd ref="83892457"/>
    <nd ref="492086134"/>
    <tag k="bridge" v="yes"/>
    <tag k="highway" v="tertiary"/>
    <tag k="layer" v="1"/>
    <tag k="name" v="East 100 North"/>
    <tag k="tiger:cfcc" v="A41"/>
    <tag k="tiger:county" v="Summit, UT"/>
    <tag k="tiger:name_base" v="100"/>
    <tag k="tiger:name_direction_suffix" v="N"/>
    <tag k="tiger:reviewed" v="no"/>
    <tag k="tiger:separated" v="no"/>
    <tag k="tiger:source" v="tiger_import_dch_v0.6_20070830"/>
    <tag k="tiger:tlid" v="160621453:160621108:160620904:160620908:160639562:160620909:160620899"/>
    <tag k="tiger:zip_left" v="84017"/>
    <tag k="tiger:zip_right" v="84017"/>
  </way>
  <way id="40549856" version="2" timestamp="2010-04-03T13:54:38Z" uid="20587" user="balrog-kun" changeset="4312927">
    <nd ref="492086134"/>
    <nd ref="83880369"/>
    <tag k="highway" v="tertiary"/>
    <tag k="name" v="East 100  North"/>
    <tag k="tiger:cfcc" v="A41"/>
    <tag k="tiger:county" v="Summit, UT"/>
    <tag k="tiger:name_base" v="100"/>
    <tag k="tiger:name_direction_suffix" v="N"/>
    <tag k="tiger:reviewed" v="no"/>
    <tag k="tiger:separated" v="no"/>
    <tag k="tiger:source" v="tiger_import_dch_v0.6_20070830"/>
    <tag k="tiger:tlid" v="160621453:160621108:160620904:160620908:160639562:160620909:160620899"/>
    <tag k="tiger:zip_left" v="84017"/>
    <tag k="tiger:zip_right" v="84017"/>
  </way>
  <way id="40549856" version="3" timestamp="2010-05-06T18:38:02Z" uid="65769" user="Val" changeset="4624174"/>
  <way id="40549857" version="2" timestamp="2010-04-03T13:54:38Z" uid="20587" user="balrog-kun" changeset="4312927">
    <nd ref="83880637"/>
    <nd ref="492086133"/>
    <tag k="bridge" v="yes"/>
    <tag k="highway" v="residential"/>
    <tag k="layer" v="1"/>
    <tag k="name" v="50  North"/>
    <tag k="tiger:cfcc" v="A41"/>
    <tag k="tiger:county" v="Summit, UT"/>
    <tag k="tiger:name_base" v="50"/>
    <tag k="tiger:name_direction_suffix" v="N"/>
    <tag k="tiger:reviewed" v="no"/>
    <tag k="tiger:separated" v="no"/>
    <tag k="tiger:source" v="tiger_import_dch_v0.6_20070830"/>
    <tag k="tiger:tlid" v="160620913:160620916:160621106:160620905:160632107:160620920"/>
    <tag k="tiger:zip_left" v="84017"/>
    <tag k="tiger:zip_right" v="84017"/>
  </way>
  <way id="40549859" version="2" timestamp="2010-04-03T13:54:38Z" uid="20587" user="balrog-kun" changeset="4312927">
    <nd ref="492086133"/>
    <nd ref="83880638"/>
    <nd ref="83880639"/>
    <tag k="highway" v="residential"/>
    <tag k="name" v="50  North"/>
    <tag k="tiger:cfcc" v="A41"/>
    <tag k="tiger:county" v="Summit, UT"/>
    <tag k="tiger:name_base" v="50"/>
    <tag k="tiger:name_direction_suffix" v="N"/>
    <tag k="tiger:reviewed" v="no"/>
    <tag k="tiger:separated" v="no"/>
    <tag k="tiger:source" v="tiger_import_dch_v0.6_20070830"/>
    <tag k="tiger:tlid" v="160620913:160620916:160621106:160620905:160632107:160620920"/>
    <tag k="tiger:zip_left" v="84017"/>
    <tag k="tiger:zip_right" v="84017"/>
  </way>
  <way id="40549860" version="2" timestamp="2010-04-03T13:54:39Z" uid="20587" user="balrog-kun" changeset="4312927">
    <nd ref="83882573"/>
    <nd ref="492086136"/>
    <tag k="bridge" v="yes"/>
    <tag k="highway" v="footway"/>
    <tag k="layer" v="1"/>
    <tag k="name" v="Union Pacific Rail Trail"/>
    <tag k="tiger:cfcc" v="A71"/>
    <tag k="tiger:county" v="Summit, UT"/>
    <tag k="tiger:name_base" v="Union Pacific Rail"/>
    <tag k="tiger:name_type" v="Trl"/>
    <tag k="tiger:reviewed" v="no"/>
    <tag k="tiger:source" v="tiger_import_dch_v0.6_20070830"/>
    <tag k="tiger:tlid" v="160638535:160621250:160621589:160621243:160621245:160621246:160640641:160640429"/>
  </way>
  <way id="40549860" version="3" timestamp="2011-03-31T11:26:40Z" uid="207745" user="NE2" changeset="7725188">
    <nd ref="83882573"/>
    <nd ref="492086136"/>
    <tag k="bridge" v="yes"/>
    <tag k="highway" v="footway"/>
    <tag k="layer" v="1"/>
    <tag k="name" v="Union Pacific Rail Trail"/>
    <tag k="old_railway_operator" v="UP"/>
    <tag k="railway" v="abandoned"/>
    <tag k="tiger:cfcc" v="A71"/>
    <tag k="tiger:county" v="Summit, UT"/>
    <tag k="tiger:name_base" v="Union Pacific Rail"/>
    <tag k="tiger:name_type" v="Trl"/>
    <tag k="tiger:reviewed" v="no"/>
    <tag k="tiger:source" v="tiger_import_dch_v0.6_20070830"/>
    <tag k="tiger:tlid" v="160638535:160621250:160621589:160621243:160621245:160621246:160640641:160640429"/>
  </way>
  <way id="40549861" version="2" timestamp="2010-04-03T13:54:39Z" uid="20587" user="balrog-kun" changeset="4312927">
    <nd ref="492086136"/>
    <nd ref="83882574"/>
    <nd ref="83882575"/>
    <nd ref="83882576"/>
    <nd ref="83882577"/>
    <nd ref="83882578"/>
    <nd ref="83882579"/>
    <nd ref="83882580"/>
    <nd ref="83882581"/>
    <nd ref="83882336"/>
    <tag k="highway" v="footway"/>
    <tag k="name" v="Union Pacific Rail Trail"/>
    <tag k="tiger:cfcc" v="A71"/>
    <tag k="tiger:county" v="Summit, UT"/>
    <tag k="tiger:name_base" v="Union Pacific Rail"/>
    <tag k="tiger:name_type" v="Trl"/>
    <tag k="tiger:reviewed" v="no"/>
    <tag k="tiger:source" v="tiger_import_dch_v0.6_20070830"/>
    <tag k="tiger:tlid" v="160638535:160621250:160621589:160621243:160621245:160621246:160640641:160640429"/>
  </way>
  <way id="40549861" version="3" timestamp="2010-05-06T18:37:18Z" uid="65769" user="Val" changeset="4624174">
    <nd ref="492086136"/>
    <nd ref="83882574"/>
    <nd ref="83882576"/>
    <nd ref="83882578"/>
    <nd ref="83882579"/>
    <nd ref="83882580"/>
    <nd ref="83882336"/>
    <tag k="highway" v="footway"/>
    <tag k="name" v="Union Pacific Rail Trail"/>
    <tag k="tiger:cfcc" v="A71"/>
    <tag k="tiger:county" v="Summit, UT"/>
    <tag k="tiger:name_base" v="Union Pacific Rail"/>
    <tag k="tiger:name_type" v="Trl"/>
    <tag k="tiger:reviewed" v="no"/>
    <tag k="tiger:source" v="tiger_import_dch_v0.6_20070830"/>
    <tag k="tiger:tlid" v="160638535:160621250:160621589:160621243:160621245:160621246:160640641:160640429"/>
  </way>
  <way id="40549861" version="4" timestamp="2011-03-31T11:27:22Z" uid="207745" user="NE2" changeset="7725188"/>
  <way id="40549862" version="2" timestamp="2010-04-03T13:54:39Z" uid="20587" user="balrog-kun" changeset="4312927">
    <nd ref="492086135"/>
    <nd ref="83887472"/>
    <tag k="bridge" v="yes"/>
    <tag k="highway" v="tertiary"/>
    <tag k="layer" v="1"/>
    <tag k="name" v="North Main Street"/>
    <tag k="tiger:cfcc" v="A41"/>
    <tag k="tiger:county" v="Summit, UT"/>
    <tag k="tiger:name_base" v="Main"/>
    <tag k="tiger:name_direction_prefix" v="N"/>
    <tag k="tiger:name_type" v="St"/>
    <tag k="tiger:reviewed" v="no"/>
    <tag k="tiger:separated" v="no"/>
    <tag k="tiger:source" v="tiger_import_dch_v0.6_20070830"/>
    <tag k="tiger:tlid" v="160629382"/>
    <tag k="tiger:zip_left" v="84017"/>
    <tag k="tiger:zip_right" v="84017"/>
  </way>
  <way id="40549862" version="3" timestamp="2011-03-26T04:33:25Z" uid="207745" user="NE2" changeset="7671930">
    <nd ref="492086135"/>
    <nd ref="83887472"/>
    <tag k="bridge" v="yes"/>
    <tag k="highway" v="tertiary"/>
    <tag k="layer" v="1"/>
    <tag k="name" v="North Main Street"/>
    <tag k="old_ref" v="SR 2"/>
    <tag k="tiger:cfcc" v="A41"/>
    <tag k="tiger:county" v="Summit, UT"/>
    <tag k="tiger:name_base" v="Main"/>
    <tag k="tiger:name_direction_prefix" v="N"/>
    <tag k="tiger:name_type" v="St"/>
    <tag k="tiger:reviewed" v="no"/>
    <tag k="tiger:separated" v="no"/>
    <tag k="tiger:source" v="tiger_import_dch_v0.6_20070830"/>
    <tag k="tiger:tlid" v="160629382"/>
    <tag k="tiger:zip_left" v="84017"/>
    <tag k="tiger:zip_right" v="84017"/>
  </way>
</osm>
