<?xml version='1.0' encoding='UTF-8'?>
<osm version="0.6" generator="libosmium/2.20.0">
  <way id="41088000" version="1" timestamp="2009-09-18T21:57:13Z" uid="30632" user="antblant" changeset="2529099">
    <nd ref="500955198"/>
    <nd ref="500955210"/>
    <nd ref="500955207"/>
    <nd ref="500955209"/>
    <tag k="highway" v="residential"/>
    <tag k="name" v="Królowej Śniegu"/>
  </way>
  <way id="41088001" version="1" timestamp="2009-09-18T21:57:13Z" uid="30632" user="antblant" changeset="2529099">
    <nd ref="500955199"/>
    <nd ref="500955200"/>
    <nd ref="500955201"/>
    <nd ref="500955202"/>
    <nd ref="500955203"/>
    <nd ref="500955204"/>
    <nd ref="500955205"/>
    <nd ref="500955206"/>
    <tag k="highway" v="residential"/>
    <tag k="name" v="Calineczki"/>
  </way>
  <way id="41088002" version="1" timestamp="2009-09-18T21:57:13Z" uid="30632" user="antblant" changeset="2529099">
    <nd ref="500955215"/>
    <nd ref="500955214"/>
    <nd ref="500955206"/>
    <nd ref="500955219"/>
    <nd ref="500955220"/>
    <nd ref="500955207"/>
    <tag k="highway" v="residential"/>
    <tag k="name" v="Królowej Śniegu"/>
  </way>
  <way id="41088003" version="1" timestamp="2009-09-18T21:57:13Z" uid="30632" user="antblant" changeset="2529099">
    <nd ref="500955214"/>
    <nd ref="500955216"/>
    <tag k="highway" v="residential"/>
    <tag k="name" v="Królowej Śniegu"/>
  </way>
  <way id="41088004" version="1" timestamp="2009-09-18T21:57:13Z" uid="30632" user="antblant" changeset="2529099">
    <nd ref="500955210"/>
    <nd ref="500955205"/>
    <tag k="highway" v="residential"/>
    <tag k="name" v="Świętego Mikołaja"/>
  </way>
  <way id="41088005" version="1" timestamp="2009-09-18T21:57:13Z" uid="30632" user="antblant" changeset="2529099">
    <nd ref="500955221"/>
    <nd ref="500955222"/>
    <tag k="highway" v="residential"/>
    <tag k="name" v="Wikingów"/>
  </way>
  <way id="41088006" version="1" timestamp="2009-09-18T21:57:13Z" uid="30632" user="antblant" changeset="2529099">
    <nd ref="254064449"/>
    <nd ref="254064423"/>
    <nd ref="254064422"/>
    <nd ref="254064071"/>
    <tag k="highway" v="track"/>
    <tag k="source" v="UMP-PL, ./UMP-Szczecin/src/SZCZECIN.ulice.txt"/>
    <tag k="surface" v="unpaved"/>
  </way>
  <way id="41088007" version="1" timestamp="2009-09-18T21:57:13Z" uid="30632" user="antblant" changeset="2529099">
    <nd ref="254060118"/>
    <nd ref="500955224"/>
    <nd ref="254060113"/>
    <nd ref="254060115"/>
    <nd ref="254060110"/>
    <nd ref="254060111"/>
    <tag k="highway" v="residential"/>
    <tag k="name" v="Północna"/>
  </way>
  <way id="41088007" version="2" timestamp="2010-05-13T01:58:22Z" uid="20587" user="balrog-kun" changeset="4682247">
    <nd ref="254060118"/>
    <nd ref="500955224"/>
    <nd ref="254060113"/>
    <nd ref="254060115"/>
    <nd ref="254060110"/>
    <nd ref="731668480"/>
    <nd ref="254060111"/>
    <tag k="highway" v="residential"/>
    <tag k="name" v="Północna"/>
  </way>
  <way id="41088007" version="3" timestamp="2011-08-13T07:02:34Z" uid="473784" user="antblant" changeset="9002534">
    <nd ref="254060118"/>
    <nd ref="1396686793"/>
    <nd ref="1396686790"/>
    <nd ref="500955224"/>
    <nd ref="254060113"/>
    <nd ref="254060115"/>
    <nd ref="254060110"/>
    <nd ref="731668480"/>
    <nd ref="254060111"/>
    <tag k="highway" v="residential"/>
    <tag k="name" v="Północna"/>
  </way>
  <way id="41088008" version="1" timestamp="2009-09-18T21:57:14Z" uid="30632" user="antblant" changeset="2529099">
    <nd ref="500955223"/>
    <nd ref="500955225"/>
    <nd ref="500955224"/>
    <tag k="highway" v="residential"/>
    <tag k="name" v="Lapońska"/>
  </way>
  <way id="41088009" version="1" timestamp="2009-09-18T21:57:14Z" uid="30632" user="antblant" changeset="2529099">
    <nd ref="500955226"/>
    <nd ref="500955227"/>
    <tag k="highway" v="service"/>
  </way>
  <way id="41088010" version="1" timestamp="2009-09-18T21:57:14Z" uid="30632" user="antblant" changeset="2529099">
    <nd ref="500955227"/>
    <nd ref="500955228"/>
    <nd ref="500955229"/>
    <nd ref="500955230"/>
    <nd ref="500955231"/>
    <nd ref="500955232"/>
    <nd ref="500955227"/>
    <tag k="landuse" v="allotments"/>
    <tag k="name" v="Rodzinny Ogród Działkowy &quot;Odnowa&quot;"/>
  </way>
  <way id="41088011" version="1" timestamp="2009-09-18T21:57:14Z" uid="30632" user="antblant" changeset="2529099">
    <nd ref="500955240"/>
    <nd ref="500955241"/>
    <tag k="highway" v="residential"/>
    <tag k="name" v="Hansa Christiana Andersena"/>
  </way>
  <way id="41088012" version="1" timestamp="2009-09-18T21:57:14Z" uid="30632" user="antblant" changeset="2529099">
    <nd ref="500955242"/>
    <nd ref="254060125"/>
    <tag k="highway" v="residential"/>
    <tag k="name" v="Hansa Christiana Andersena"/>
  </way>
  <way id="41088013" version="1" timestamp="2009-09-18T21:57:14Z" uid="30632" user="antblant" changeset="2529099">
    <nd ref="254064462"/>
    <nd ref="254064444"/>
    <nd ref="254064445"/>
    <nd ref="254064442"/>
    <nd ref="254064531"/>
    <nd ref="254064443"/>
    <nd ref="254064440"/>
    <tag k="highway" v="track"/>
    <tag k="source" v="UMP-PL, ./UMP-Szczecin/src/SZCZECIN.ulice.txt"/>
    <tag k="surface" v="unpaved"/>
  </way>
  <way id="41088014" version="1" timestamp="2009-09-18T21:57:14Z" uid="30632" user="antblant" changeset="2529099">
    <nd ref="254061904"/>
    <nd ref="254061903"/>
    <nd ref="254061867"/>
    <nd ref="254061432"/>
    <tag k="highway" v="residential"/>
    <tag k="name" v="Lodowcowa"/>
    <tag k="source" v="UMP-PL, ./UMP-Szczecin/src/SZCZECIN.ulice.txt"/>
  </way>
  <way id="41088014" version="2" timestamp="2010-05-13T01:58:13Z" uid="20587" user="balrog-kun" changeset="4682247">
    <nd ref="254061904"/>
    <nd ref="254061903"/>
    <nd ref="254061867"/>
    <nd ref="254061432"/>
    <tag k="highway" v="residential"/>
    <tag k="name" v="Lodowcowa"/>
  </way>
  <way id="41088015" version="1" timestamp="2009-09-18T21:57:14Z" uid="30632" user="antblant" changeset="2529099">
    <nd ref="254061902"/>
    <nd ref="500955252"/>
    <tag k="highway" v="residential"/>
    <tag k="name" v="Lodowcowa"/>
  </way>
  <way id="41088016" version="1" timestamp="2009-09-18T21:57:14Z" uid="30632" user="antblant" changeset="2529099">
    <nd ref="254060153"/>
    <nd ref="500955254"/>
    <nd ref="500955255"/>
    <nd ref="500955256"/>
    <tag k="highway" v="residential"/>
  </way>
  <way id="41088016" version="2" timestamp="2010-05-13T01:58:15Z" uid="20587" user="balrog-kun" changeset="4682247">
    <nd ref="254060153"/>
    <nd ref="500955254"/>
    <nd ref="731672897"/>
    <nd ref="500955255"/>
    <nd ref="731667760"/>
    <nd ref="731668640"/>
    <nd ref="731661063"/>
    <nd ref="731664564"/>
    <tag k="highway" v="living_street"/>
    <tag k="name" v="Maciejkowa"/>
    <tag k="source" v="gis.um.szczecin.pl"/>
  </way>
  <way id="41088017" version="1" timestamp="2009-09-18T21:57:14Z" uid="30632" user="antblant" changeset="2529099">
    <nd ref="254061271"/>
    <nd ref="254061266"/>
    <nd ref="254060150"/>
    <tag k="highway" v="residential"/>
    <tag k="name" v="Kredowa"/>
  </way>
  <way id="41088018" version="1" timestamp="2009-09-18T21:57:14Z" uid="30632" user="antblant" changeset="2529099">
    <nd ref="500955257"/>
    <nd ref="254064459"/>
    <nd ref="254062158"/>
    <nd ref="254064458"/>
    <nd ref="254062136"/>
    <nd ref="254064457"/>
    <nd ref="254064456"/>
    <nd ref="254064455"/>
    <nd ref="254064454"/>
    <nd ref="254064469"/>
    <nd ref="254064468"/>
    <nd ref="254064467"/>
    <nd ref="254064466"/>
    <nd ref="254064465"/>
    <nd ref="254064425"/>
    <nd ref="254065518"/>
    <nd ref="254065552"/>
    <nd ref="254065602"/>
    <nd ref="254065551"/>
    <nd ref="254060244"/>
    <tag k="highway" v="track"/>
    <tag k="name" v="Włodzimierza Ostoi-Zagórskiego"/>
    <tag k="source" v="UMP-PL, ./UMP-Szczecin/src/SZCZECIN.ulice.txt"/>
    <tag k="surface" v="unpaved"/>
  </way>
  <way id="41088018" version="2" timestamp="2010-05-13T01:58:22Z" uid="20587" user="balrog-kun" changeset="4682247">
    <nd ref="500955257"/>
    <nd ref="254064459"/>
    <nd ref="254062158"/>
    <nd ref="254062136"/>
    <nd ref="254064457"/>
    <nd ref="254064456"/>
    <nd ref="254064455"/>
    <nd ref="254064454"/>
    <nd ref="254064469"/>
    <nd ref="254064468"/>
    <nd ref="254064467"/>
    <nd ref="254064466"/>
    <nd ref="254064465"/>
    <nd ref="254064425"/>
    <nd ref="254065518"/>
    <nd ref="254065552"/>
    <nd ref="254065602"/>
    <nd ref="254065551"/>
    <nd ref="254060244"/>
    <tag k="highway" v="track"/>
    <tag k="name" v="Włodzimierza Ostoi-Zagórskiego"/>
    <tag k="source" v="UMP-PL, ./UMP-Szczecin/src/SZCZECIN.ulice.txt"/>
    <tag k="surface" v="unpaved"/>
  </way>
  <way id="41088018" version="3" timestamp="2010-05-13T14:09:57Z" uid="20587" user="balrog-kun" changeset="4686483">
    <nd ref="500955257"/>
    <nd ref="254064459"/>
    <nd ref="254062158"/>
    <nd ref="254062136"/>
    <nd ref="732235606"/>
    <nd ref="732235632"/>
    <nd ref="254064457"/>
    <nd ref="254064456"/>
    <nd ref="254064455"/>
    <nd ref="254064454"/>
    <nd ref="254064469"/>
    <nd ref="254064468"/>
    <nd ref="254064467"/>
    <nd ref="254064466"/>
    <nd ref="254064465"/>
    <nd ref="254064425"/>
    <nd ref="254065518"/>
    <nd ref="254065552"/>
    <nd ref="254065602"/>
    <nd ref="254065551"/>
    <nd ref="254060244"/>
    <tag k="highway" v="track"/>
    <tag k="name" v="Włodzimierza Ostoi-Zagórskiego"/>
    <tag k="source" v="UMP-PL, ./UMP-Szczecin/src/SZCZECIN.ulice.txt"/>
    <tag k="surface" v="unpaved"/>
  </way>
  <way id="41088018" version="4" timestamp="2011-08-12T07:19:57Z" uid="473784" user="antblant" changeset="8992577">
    <nd ref="500955257"/>
    <nd ref="254064459"/>
    <nd ref="254062158"/>
    <nd ref="254062136"/>
    <nd ref="732235606"/>
    <nd ref="732235632"/>
    <nd ref="254064457"/>
    <nd ref="254064456"/>
    <nd ref="254064455"/>
    <nd ref="254064454"/>
    <nd ref="254064469"/>
    <nd ref="254064468"/>
    <nd ref="254064467"/>
    <nd ref="254064466"/>
    <nd ref="254064465"/>
    <nd ref="254064425"/>
    <nd ref="254065518"/>
    <nd ref="254065552"/>
    <tag k="highway" v="track"/>
    <tag k="name" v="Włodzimierza Ostoi-Zagórskiego"/>
    <tag k="source" v="UMP-PL, ./UMP-Szczecin/src/SZCZECIN.ulice.txt"/>
    <tag k="surface" v="unpaved"/>
  </way>
  <way id="41088018" version="5" timestamp="2012-03-10T11:50:53Z" uid="603523" user="diverpl" changeset="10930741">
    <nd ref="500955257"/>
    <nd ref="1668541922"/>
    <nd ref="254064459"/>
    <nd ref="254062158"/>
    <nd ref="1668541924"/>
    <nd ref="1668541926"/>
    <nd ref="1668541928"/>
    <nd ref="254062136"/>
    <nd ref="732235606"/>
    <nd ref="732235632"/>
    <nd ref="254064457"/>
    <nd ref="1668541929"/>
    <nd ref="254064456"/>
    <nd ref="1668541940"/>
    <nd ref="1668541948"/>
    <nd ref="1668541951"/>
    <nd ref="254064455"/>
    <nd ref="1668541953"/>
    <nd ref="1668541955"/>
    <nd ref="254064454"/>
    <nd ref="1668541956"/>
    <nd ref="254064469"/>
    <nd ref="1668541957"/>
    <nd ref="1668541958"/>
    <nd ref="1668541959"/>
    <nd ref="254064468"/>
    <nd ref="1668541960"/>
    <nd ref="254064467"/>
    <nd ref="254064466"/>
    <nd ref="254064465"/>
    <nd ref="254064425"/>
    <nd ref="1668541961"/>
    <nd ref="1668541962"/>
    <nd ref="1668541963"/>
    <nd ref="254065518"/>
    <nd ref="254065552"/>
    <tag k="highway" v="track"/>
    <tag k="name" v="Włodzimierza Ostoi-Zagórskiego"/>
    <tag k="source" v="UMP-PL, ./UMP-Szczecin/src/SZCZECIN.ulice.txt"/>
    <tag k="surface" v="unpaved"/>
  </way>
  <way id="41088019" version="1" timestamp="2009-09-18T21:57:15Z" uid="30632" user="antblant" changeset="2529099">
    <nd ref="500955260"/>
    <nd ref="500955261"/>
    <nd ref="500955262"/>
    <nd ref="500955263"/>
    <nd ref="500955260"/>
    <tag k="power" v="station"/>
  </way>
  <way id="41088020" version="1" timestamp="2009-09-18T21:57:15Z" uid="30632" user="antblant" changeset="2529099">
    <nd ref="254060046"/>
    <nd ref="500955264"/>
    <nd ref="500955265"/>
    <nd ref="500955266"/>
    <nd ref="500955267"/>
    <nd ref="500955268"/>
    <tag k="highway" v="service"/>
  </way>
  <way id="41088020" version="2" timestamp="2010-04-27T16:37:32Z" uid="30632" user="antblant" changeset="4542527">
    <nd ref="254060046"/>
    <nd ref="500955264"/>
    <nd ref="500955265"/>
    <nd ref="500955266"/>
    <nd ref="500955267"/>
    <nd ref="500955268"/>
    <tag k="highway" v="service"/>
  </way>
  <way id="41088020" version="3" timestamp="2012-03-09T23:50:11Z" uid="603523" user="diverpl" changeset="10926619">
    <nd ref="1668082876"/>
    <nd ref="500955264"/>
    <nd ref="500955265"/>
    <nd ref="500955266"/>
    <nd ref="500955267"/>
    <nd ref="500955268"/>
    <tag k="highway" v="service"/>
  </way>
  <way id="41088021" version="1" timestamp="2009-09-18T21:57:15Z" uid="30632" user="antblant" changeset="2529099">
    <nd ref="500955269"/>
    <nd ref="500955270"/>
    <nd ref="500955272"/>
    <nd ref="500955273"/>
    <nd ref="500955274"/>
    <nd ref="500955275"/>
    <nd ref="500955276"/>
    <nd ref="500955277"/>
    <nd ref="500955278"/>
    <nd ref="500955279"/>
    <nd ref="500955280"/>
    <nd ref="500955269"/>
    <tag k="landuse" v="allotments"/>
    <tag k="name" v="Rodzinny Ogród Działkowy &quot;Nowe Życie&quot;"/>
  </way>
  <way id="41088022" version="1" timestamp="2009-09-18T21:57:15Z" uid="30632" user="antblant" changeset="2529099">
    <nd ref="500955281"/>
    <nd ref="500955282"/>
    <nd ref="500955283"/>
    <nd ref="500955284"/>
    <nd ref="500955285"/>
    <nd ref="500955286"/>
    <nd ref="500955287"/>
    <nd ref="500955288"/>
    <nd ref="500955289"/>
    <nd ref="500955290"/>
    <nd ref="500955291"/>
    <nd ref="500955292"/>
    <nd ref="500955294"/>
    <nd ref="500955295"/>
    <nd ref="500955296"/>
    <nd ref="500955297"/>
    <nd ref="500955298"/>
    <nd ref="500955299"/>
    <nd ref="500955300"/>
    <nd ref="500955281"/>
    <tag k="landuse" v="allotments"/>
    <tag k="name" v="Rodzinny Ogród Działkowy &quot;Nowe Życie&quot;"/>
  </way>
  <way id="41088056" version="1" timestamp="2009-09-18T22:00:32Z" uid="163896" user="Zbigniew Czernik" changeset="2529115">
    <nd ref="371861715"/>
    <nd ref="371862193"/>
    <nd ref="371862082"/>
    <nd ref="500953756"/>
    <nd ref="371892802"/>
    <tag k="addr:city" v="Ulanów"/>
    <tag k="highway" v="secondary"/>
    <tag k="name" v="św. Trójcy"/>
    <tag k="ref" v="858"/>
    <tag k="reg_ref" v="858"/>
  </way>
  <way id="41088056" version="2" timestamp="2009-09-20T01:06:44Z" uid="20587" user="balrog-kun" changeset="2540364">
    <nd ref="371861715"/>
    <nd ref="371862193"/>
    <nd ref="371862082"/>
    <nd ref="500953756"/>
    <nd ref="371892802"/>
    <tag k="addr:city" v="Ulanów"/>
    <tag k="highway" v="secondary"/>
    <tag k="name" v="Świętej Trójcy"/>
    <tag k="ref" v="858"/>
    <tag k="reg_ref" v="858"/>
  </way>
  <way id="41088056" version="3" timestamp="2010-06-13T05:51:51Z" uid="163896" user="Zbigniew Czernik" changeset="4975557">
    <nd ref="371861715"/>
    <nd ref="771080292"/>
    <nd ref="371862193"/>
    <nd ref="771080374"/>
    <nd ref="371862082"/>
    <nd ref="500953756"/>
    <nd ref="771080377"/>
    <nd ref="371892802"/>
    <tag k="addr:city" v="Ulanów"/>
    <tag k="highway" v="secondary"/>
    <tag k="name" v="Świętej Trójcy"/>
    <tag k="ref" v="858"/>
    <tag k="reg_ref" v="858"/>
    <tag k="source" v="survey"/>
  </way>
  <way id="41088056" version="4" timestamp="2011-04-10T02:24:53Z" uid="163896" user="Zbigniew Czernik" changeset="7818900">
    <nd ref="371861715"/>
    <nd ref="771080292"/>
    <nd ref="1239436429"/>
    <nd ref="371862193"/>
    <nd ref="1239436294"/>
    <nd ref="771080374"/>
    <nd ref="371862082"/>
    <tag k="addr:city" v="Ulanów"/>
    <tag k="highway" v="secondary"/>
    <tag k="name" v="Jana Zamojskiego"/>
    <tag k="ref" v="858"/>
    <tag k="reg_ref" v="858"/>
  </way>
  <way id="41088056" version="5" timestamp="2011-10-23T18:37:50Z" uid="467703" user="Zbigniew Czernik" changeset="9636805">
    <nd ref="371861715"/>
    <nd ref="771080292"/>
    <nd ref="1239436429"/>
    <nd ref="371862193"/>
    <nd ref="1239436294"/>
    <nd ref="771080374"/>
    <nd ref="371862082"/>
    <tag k="addr:city" v="Ulanów"/>
    <tag k="highway" v="secondary"/>
    <tag k="name" v="Jana Zamojskiego"/>
    <tag k="ref" v="858"/>
  </way>
  <way id="41088197" version="5" timestamp="2010-04-02T17:45:46Z" uid="20587" user="balrog-kun" changeset="4304500">
    <nd ref="366930211"/>
    <nd ref="50924782"/>
    <nd ref="50948159"/>
    <nd ref="51017344"/>
    <nd ref="51038897"/>
    <nd ref="50939883"/>
    <nd ref="51000614"/>
    <nd ref="50936081"/>
    <nd ref="50936519"/>
    <tag k="highway" v="trunk"/>
    <tag k="name" v="South Division Street"/>
    <tag k="oneway" v="yes"/>
    <tag k="ref" v="US 2;US 395"/>
    <tag k="tiger:cfcc" v="A41"/>
    <tag k="tiger:county" v="Spokane, WA"/>
    <tag k="tiger:name_base" v="Division"/>
    <tag k="tiger:name_direction_prefix" v="S"/>
    <tag k="tiger:name_type" v="St"/>
    <tag k="tiger:reviewed" v="no"/>
    <tag k="tiger:separated" v="no"/>
    <tag k="tiger:source" v="tiger_import_dch_v0.6_20070830"/>
    <tag k="tiger:tlid" v="189877100"/>
    <tag k="tiger:zip_left" v="99202"/>
  </way>
  <way id="41088197" version="6" timestamp="2010-09-18T01:53:21Z" uid="282329" user="compdude" changeset="5808542">
    <nd ref="366930211"/>
    <nd ref="50924782"/>
    <nd ref="50948159"/>
    <nd ref="51017344"/>
    <nd ref="51038897"/>
    <nd ref="50939883"/>
    <nd ref="51000614"/>
    <nd ref="50936081"/>
    <nd ref="50936519"/>
    <tag k="highway" v="primary"/>
    <tag k="name" v="South Division Street"/>
    <tag k="oneway" v="yes"/>
    <tag k="ref" v="US 2;US 395"/>
    <tag k="tiger:cfcc" v="A41"/>
    <tag k="tiger:county" v="Spokane, WA"/>
    <tag k="tiger:name_base" v="Division"/>
    <tag k="tiger:name_direction_prefix" v="S"/>
    <tag k="tiger:name_type" v="St"/>
    <tag k="tiger:reviewed" v="no"/>
    <tag k="tiger:separated" v="no"/>
    <tag k="tiger:source" v="tiger_import_dch_v0.6_20070830"/>
    <tag k="tiger:tlid" v="189877100"/>
    <tag k="tiger:zip_left" v="99202"/>
  </way>
  <way id="41088197" version="7" timestamp="2010-12-13T19:42:01Z" uid="207745" user="NE2" changeset="6651277">
    <nd ref="366930211"/>
    <nd ref="50924782"/>
    <nd ref="50948159"/>
    <nd ref="51017344"/>
    <nd ref="51038897"/>
    <nd ref="50939883"/>
    <nd ref="51000614"/>
    <nd ref="50936081"/>
    <nd ref="50936519"/>
    <tag k="highway" v="trunk"/>
    <tag k="name" v="South Division Street"/>
    <tag k="oneway" v="yes"/>
    <tag k="ref" v="US 2;US 395"/>
    <tag k="tiger:cfcc" v="A41"/>
    <tag k="tiger:county" v="Spokane, WA"/>
    <tag k="tiger:name_base" v="Division"/>
    <tag k="tiger:name_direction_prefix" v="S"/>
    <tag k="tiger:name_type" v="St"/>
    <tag k="tiger:reviewed" v="no"/>
    <tag k="tiger:separated" v="no"/>
    <tag k="tiger:source" v="tiger_import_dch_v0.6_20070830"/>
    <tag k="tiger:tlid" v="189877100"/>
    <tag k="tiger:zip_left" v="99202"/>
  </way>
  <way id="41088197" version="8" timestamp="2011-01-06T06:53:02Z" uid="121241" user="zephyr" changeset="6878933">
    <nd ref="366930211"/>
    <nd ref="50924782"/>
    <nd ref="50948159"/>
    <nd ref="51017344"/>
    <nd ref="51038897"/>
    <nd ref="50939883"/>
    <nd ref="51000614"/>
    <nd ref="50936081"/>
    <nd ref="50936519"/>
    <tag k="highway" v="primary"/>
    <tag k="name" v="South Division Street"/>
    <tag k="oneway" v="yes"/>
    <tag k="ref" v="US 2;US 395"/>
    <tag k="tiger:cfcc" v="A41"/>
    <tag k="tiger:county" v="Spokane, WA"/>
    <tag k="tiger:name_base" v="Division"/>
    <tag k="tiger:name_direction_prefix" v="S"/>
    <tag k="tiger:name_type" v="St"/>
    <tag k="tiger:separated" v="no"/>
    <tag k="tiger:source" v="tiger_import_dch_v0.6_20070830"/>
    <tag k="tiger:tlid" v="189877100"/>
    <tag k="tiger:zip_left" v="99202"/>
  </way>
  <way id="41088197" version="9" timestamp="2011-06-12T10:17:26Z" uid="207745" user="NE2" changeset="8413596">
    <nd ref="366930211"/>
    <nd ref="50924782"/>
    <tag k="highway" v="trunk"/>
    <tag k="lanes" v="3"/>
    <tag k="name" v="South Division Street"/>
    <tag k="oneway" v="yes"/>
    <tag k="ref" v="US 2;US 395"/>
    <tag k="tiger:cfcc" v="A41"/>
    <tag k="tiger:county" v="Spokane, WA"/>
    <tag k="tiger:name_base" v="Division"/>
    <tag k="tiger:name_direction_prefix" v="S"/>
    <tag k="tiger:name_type" v="St"/>
    <tag k="tiger:separated" v="no"/>
    <tag k="tiger:source" v="tiger_import_dch_v0.6_20070830"/>
    <tag k="tiger:tlid" v="189877100"/>
    <tag k="tiger:zip_left" v="99202"/>
  </way>
  <way id="41088197" version="10" timestamp="2011-07-06T23:34:57Z" uid="473471" user="NE3" changeset="8653193">
    <nd ref="366930211"/>
    <nd ref="50924782"/>
    <tag k="NHS" v="yes"/>
    <tag k="highway" v="trunk"/>
    <tag k="lanes" v="3"/>
    <tag k="name" v="South Division Street"/>
    <tag k="oneway" v="yes"/>
    <tag k="ref" v="US 2;US 395"/>
    <tag k="tiger:cfcc" v="A41"/>
    <tag k="tiger:county" v="Spokane, WA"/>
    <tag k="tiger:name_base" v="Division"/>
    <tag k="tiger:name_direction_prefix" v="S"/>
    <tag k="tiger:name_type" v="St"/>
    <tag k="tiger:separated" v="no"/>
    <tag k="tiger:source" v="tiger_import_dch_v0.6_20070830"/>
    <tag k="tiger:tlid" v="189877100"/>
    <tag k="tiger:zip_left" v="99202"/>
  </way>
  <way id="41088197" version="11" timestamp="2011-11-30T16:40:56Z" uid="207745" user="NE2" changeset="10000043">
    <nd ref="366930211"/>
    <nd ref="50924782"/>
    <tag k="NHS" v="yes"/>
    <tag k="hgv" v="designated"/>
    <tag k="hgv:national_network" v="yes"/>
    <tag k="highway" v="trunk"/>
    <tag k="lanes" v="3"/>
    <tag k="name" v="South Division Street"/>
    <tag k="oneway" v="yes"/>
    <tag k="ref" v="US 2;US 395"/>
    <tag k="tiger:cfcc" v="A41"/>
    <tag k="tiger:county" v="Spokane, WA"/>
    <tag k="tiger:name_base" v="Division"/>
    <tag k="tiger:name_direction_prefix" v="S"/>
    <tag k="tiger:name_type" v="St"/>
    <tag k="tiger:separated" v="no"/>
    <tag k="tiger:source" v="tiger_import_dch_v0.6_20070830"/>
    <tag k="tiger:tlid" v="189877100"/>
    <tag k="tiger:zip_left" v="99202"/>
  </way>
  <way id="41088358" version="3" timestamp="2010-05-02T15:01:52Z" uid="151899" user="Bikeman2000" changeset="4585845">
    <nd ref="266731507"/>
    <nd ref="717424597"/>
    <nd ref="266731418"/>
    <nd ref="717424598"/>
    <nd ref="266731419"/>
    <nd ref="266731420"/>
    <nd ref="266731421"/>
    <nd ref="266731422"/>
    <nd ref="266731423"/>
    <nd ref="717424600"/>
    <nd ref="717424604"/>
    <nd ref="266731424"/>
    <nd ref="717424610"/>
    <nd ref="717424612"/>
    <nd ref="266731425"/>
    <nd ref="717424617"/>
    <nd ref="717424619"/>
    <nd ref="75121895"/>
    <tag k="highway" v="residential"/>
    <tag k="layer" v="0"/>
    <tag k="name" v="Terminal Ring"/>
    <tag k="note" v="Zufahrt/Ausfahrt P2 und P3 auf Bodenebene"/>
    <tag k="oneway" v="yes"/>
  </way>
  <way id="41088358" version="4" timestamp="2011-04-24T13:25:41Z" uid="60744" user="motlib" changeset="7952701">
    <nd ref="266731507"/>
    <nd ref="717424597"/>
    <nd ref="266731418"/>
    <nd ref="717424598"/>
    <nd ref="266731419"/>
    <nd ref="266731420"/>
    <nd ref="266731421"/>
    <nd ref="266731422"/>
    <nd ref="266731423"/>
    <nd ref="1257933482"/>
    <nd ref="717424600"/>
    <nd ref="717424604"/>
    <nd ref="266731424"/>
    <nd ref="717424610"/>
    <nd ref="717424612"/>
    <nd ref="266731425"/>
    <nd ref="717424617"/>
    <nd ref="717424619"/>
    <nd ref="1257933804"/>
    <tag k="highway" v="residential"/>
    <tag k="layer" v="0"/>
    <tag k="name" v="Terminal Ring"/>
    <tag k="note" v="Zufahrt/Ausfahrt P2 und P3 auf Bodenebene"/>
    <tag k="oneway" v="yes"/>
  </way>
  <way id="41088358" version="5" timestamp="2011-11-12T03:39:24Z" uid="173844" user="Antikalk" changeset="9801622">
    <nd ref="266731507"/>
    <nd ref="717424597"/>
    <nd ref="266731418"/>
    <nd ref="1499563843"/>
    <nd ref="717424598"/>
    <nd ref="266731419"/>
    <nd ref="1499563833"/>
    <nd ref="266731420"/>
    <nd ref="266731421"/>
    <nd ref="266731422"/>
    <nd ref="266731423"/>
    <nd ref="1257933482"/>
    <nd ref="717424600"/>
    <nd ref="717424604"/>
    <nd ref="266731424"/>
    <nd ref="717424610"/>
    <nd ref="717424612"/>
    <nd ref="266731425"/>
    <nd ref="717424617"/>
    <nd ref="717424619"/>
    <nd ref="1257933804"/>
    <tag k="highway" v="residential"/>
    <tag k="layer" v="0"/>
    <tag k="name" v="Terminal Ring"/>
    <tag k="note" v="Zufahrt/Ausfahrt P2 und P3 auf Bodenebene"/>
    <tag k="oneway" v="yes"/>
  </way>
  <way id="41088358" version="6" timestamp="2011-11-12T08:39:33Z" uid="173844" user="Antikalk" changeset="9802492">
    <nd ref="266731507"/>
    <nd ref="717424597"/>
    <nd ref="266731418"/>
    <nd ref="1499563843"/>
    <nd ref="717424598"/>
    <nd ref="266731419"/>
    <nd ref="1499563833"/>
    <nd ref="266731420"/>
    <nd ref="266731421"/>
    <nd ref="266731422"/>
    <nd ref="266731423"/>
    <nd ref="1499670082"/>
    <nd ref="1257933482"/>
    <nd ref="717424600"/>
    <nd ref="717424604"/>
    <nd ref="266731424"/>
    <nd ref="717424610"/>
    <nd ref="717424612"/>
    <nd ref="266731425"/>
    <nd ref="717424617"/>
    <nd ref="717424619"/>
    <nd ref="1257933804"/>
    <tag k="highway" v="residential"/>
    <tag k="layer" v="0"/>
    <tag k="name" v="Terminal Ring"/>
    <tag k="note" v="Zufahrt/Ausfahrt P2 und P3 auf Bodenebene"/>
    <tag k="oneway" v="yes"/>
  </way>
  <way id="41088358" version="7" timestamp="2011-11-12T09:28:22Z" uid="173844" user="Antikalk" changeset="9802760">
    <nd ref="266731507"/>
    <nd ref="717424597"/>
    <nd ref="266731418"/>
    <nd ref="1499563843"/>
    <nd ref="717424598"/>
    <nd ref="266731419"/>
    <nd ref="1499563833"/>
    <nd ref="266731420"/>
    <nd ref="1499690672"/>
    <tag k="highway" v="residential"/>
    <tag k="layer" v="0"/>
    <tag k="name" v="Terminal Ring"/>
    <tag k="note" v="Zufahrt/Ausfahrt P2 und P3 auf Bodenebene"/>
    <tag k="oneway" v="yes"/>
  </way>
  <way id="41088358" version="8" timestamp="2011-12-18T22:10:22Z" uid="173844" user="Antikalk" changeset="10151437">
    <nd ref="266731507"/>
    <nd ref="1552870230"/>
    <nd ref="266731418"/>
    <nd ref="1499563843"/>
    <nd ref="1552870124"/>
    <nd ref="266731419"/>
    <nd ref="1499563833"/>
    <nd ref="266731420"/>
    <nd ref="1499690672"/>
    <tag k="highway" v="residential"/>
    <tag k="layer" v="0"/>
    <tag k="name" v="Terminal Ring"/>
    <tag k="note" v="Zufahrt/Ausfahrt P2 und P3 auf Bodenebene"/>
    <tag k="oneway" v="yes"/>
  </way>
  <way id="41088358" version="9" timestamp="2011-12-25T20:06:30Z" uid="173844" user="Antikalk" changeset="10202694"/>
  <way id="41088436" version="1" timestamp="2009-09-18T22:17:52Z" uid="20587" user="balrog-kun" changeset="2529233">
    <nd ref="453579265"/>
    <nd ref="253245598"/>
    <tag k="highway" v="primary"/>
    <tag k="ref" v="92"/>
  </way>
  <way id="41088436" version="2" timestamp="2011-09-27T22:37:36Z" uid="467703" user="Zbigniew Czernik" changeset="9414844">
    <nd ref="453579265"/>
    <nd ref="253245598"/>
    <tag k="highway" v="primary"/>
    <tag k="name" v="Sklęczkowska"/>
    <tag k="ref" v="92"/>
  </way>
  <way id="41088437" version="1" timestamp="2009-09-18T22:17:52Z" uid="20587" user="balrog-kun" changeset="2529233">
    <nd ref="294800162"/>
    <nd ref="34059718"/>
    <nd ref="34059717"/>
    <nd ref="291349681"/>
    <tag k="highway" v="primary"/>
    <tag k="name" v="Kruszyńska"/>
    <tag k="oneway" v="yes"/>
    <tag k="ref" v="62"/>
  </way>
  <way id="41088437" version="2" timestamp="2011-10-30T01:28:36Z" uid="467703" user="Zbigniew Czernik" changeset="9689983">
    <nd ref="294800162"/>
    <nd ref="1485289255"/>
    <nd ref="34059718"/>
    <nd ref="34059717"/>
    <nd ref="291349681"/>
    <tag k="highway" v="primary"/>
    <tag k="name" v="Kruszyńska"/>
    <tag k="oneway" v="yes"/>
    <tag k="ref" v="62"/>
  </way>
  <way id="41088438" version="1" timestamp="2009-09-18T22:17:52Z" uid="20587" user="balrog-kun" changeset="2529233">
    <nd ref="294120832"/>
    <nd ref="294800159"/>
    <nd ref="291364912"/>
    <nd ref="354670886"/>
    <nd ref="312034329"/>
    <nd ref="345435836"/>
    <tag k="highway" v="primary"/>
    <tag k="level" v="1"/>
    <tag k="name" v="Kruszyńska"/>
    <tag k="oneway" v="yes"/>
  </way>
  <way id="41088438" version="2" timestamp="2009-12-03T01:20:53Z" uid="163896" user="Zbigniew Czernik" changeset="3277125">
    <nd ref="294120832"/>
    <nd ref="294800159"/>
    <nd ref="578793862"/>
    <nd ref="578793867"/>
    <nd ref="291364912"/>
    <nd ref="354670886"/>
    <nd ref="312034329"/>
    <nd ref="346451268"/>
    <tag k="highway" v="primary"/>
    <tag k="level" v="1"/>
    <tag k="name" v="Kruszyńska"/>
    <tag k="oneway" v="yes"/>
  </way>
  <way id="41088438" version="3" timestamp="2011-10-30T01:06:29Z" uid="467703" user="Zbigniew Czernik" changeset="9689983">
    <nd ref="294120832"/>
    <nd ref="294800159"/>
    <nd ref="578793862"/>
    <nd ref="1485281165"/>
    <nd ref="578793867"/>
    <nd ref="291364912"/>
    <nd ref="354670886"/>
    <nd ref="312034329"/>
    <nd ref="346451268"/>
    <tag k="highway" v="primary"/>
    <tag k="level" v="1"/>
    <tag k="name" v="Kruszyńska"/>
    <tag k="oneway" v="yes"/>
  </way>
  <way id="41088438" version="4" timestamp="2011-10-30T01:28:33Z" uid="467703" user="Zbigniew Czernik" changeset="9689983">
    <nd ref="294120832"/>
    <nd ref="294800159"/>
    <nd ref="578793862"/>
    <nd ref="1485281165"/>
    <nd ref="578793867"/>
    <nd ref="1485289264"/>
    <nd ref="291364912"/>
    <nd ref="354670886"/>
    <nd ref="312034329"/>
    <nd ref="346451268"/>
    <tag k="highway" v="primary"/>
    <tag k="level" v="1"/>
    <tag k="name" v="Kruszyńska"/>
    <tag k="oneway" v="yes"/>
  </way>
  <way id="41088439" version="1" timestamp="2009-09-18T22:17:52Z" uid="20587" user="balrog-kun" changeset="2529233">
    <nd ref="499914311"/>
    <nd ref="499912622"/>
    <nd ref="499924117"/>
    <nd ref="499922378"/>
    <nd ref="499894941"/>
    <nd ref="499917470"/>
    <nd ref="499919942"/>
    <nd ref="499894713"/>
    <nd ref="499906280"/>
    <nd ref="499894673"/>
    <nd ref="499915340"/>
    <nd ref="499915443"/>
    <nd ref="499914418"/>
    <nd ref="499906409"/>
    <nd ref="499916300"/>
    <nd ref="499906506"/>
    <tag k="highway" v="trunk"/>
    <tag k="name" v="Aleja Stanisława Jachowicza"/>
    <tag k="oneway" v="1"/>
    <tag k="ref" v="60"/>
    <tag k="source" v="http://ump.waw.pl/ retrieved 23:56:29 09/12/09 (UMP-Plock/src/PLOCK.ulice.txt)"/>
  </way>
  <way id="41088439" version="2" timestamp="2011-07-17T14:04:00Z" uid="467703" user="Zibi" changeset="8748270"/>
  <way id="41088440" version="1" timestamp="2009-09-18T22:17:53Z" uid="20587" user="balrog-kun" changeset="2529233">
    <nd ref="500058279"/>
    <nd ref="499925429"/>
    <nd ref="132197107"/>
    <tag k="addr:city" v="Kampinos"/>
    <tag k="highway" v="secondary"/>
    <tag k="ref" v="580"/>
    <tag k="source" v="http://ump.waw.pl/ retrieved 23:56:29 09/12/09 (UMP-Plock/src/PLOCK.drogi.txt)"/>
  </way>
  <way id="41088440" version="2" timestamp="2009-10-01T11:47:20Z" uid="156907" user="kububa" changeset="2699412">
    <nd ref="500058279"/>
    <nd ref="499925429"/>
    <tag k="addr:city" v="Kampinos"/>
    <tag k="highway" v="secondary"/>
    <tag k="ref" v="580"/>
    <tag k="source" v="http://ump.waw.pl/ retrieved 23:56:29 09/12/09 (UMP-Plock/src/PLOCK.drogi.txt)"/>
  </way>
  <way id="41088440" version="3" timestamp="2011-01-31T10:16:49Z" uid="98542" user="wajak" changeset="7143600">
    <nd ref="500058279"/>
    <nd ref="1129287653"/>
    <nd ref="499925429"/>
    <tag k="addr:city" v="Kampinos"/>
    <tag k="highway" v="secondary"/>
    <tag k="ref" v="580"/>
    <tag k="source" v="http://ump.waw.pl/ retrieved 23:56:29 09/12/09 (UMP-Plock/src/PLOCK.drogi.txt)"/>
  </way>
  <way id="41088440" version="4" timestamp="2012-03-10T23:41:23Z" uid="98542" user="wajak" changeset="10937971">
    <nd ref="500058279"/>
    <nd ref="1129287653"/>
    <nd ref="499925429"/>
    <tag k="highway" v="secondary"/>
    <tag k="ref" v="580"/>
  </way>
  <way id="41088441" version="1" timestamp="2009-09-18T22:17:53Z" uid="20587" user="balrog-kun" changeset="2529233">
    <nd ref="29886595"/>
    <nd ref="29886597"/>
    <nd ref="29886596"/>
    <nd ref="29886598"/>
    <nd ref="500058279"/>
    <tag k="addr:city" v="Kampinos"/>
    <tag k="highway" v="secondary"/>
    <tag k="ref" v="580"/>
  </way>
  <way id="41088441" version="2" timestamp="2010-05-14T08:45:06Z" uid="44414" user="marimil" changeset="4693438">
    <nd ref="29886595"/>
    <nd ref="29886597"/>
    <nd ref="733711322"/>
    <nd ref="29886596"/>
    <nd ref="29886598"/>
    <nd ref="500058279"/>
    <tag k="addr:city" v="Kampinos"/>
    <tag k="highway" v="secondary"/>
    <tag k="ref" v="580"/>
  </way>
  <way id="41088441" version="3" timestamp="2010-10-30T20:29:46Z" uid="98542" user="wajak" changeset="6233014">
    <nd ref="29886595"/>
    <nd ref="29886597"/>
    <nd ref="733711322"/>
    <nd ref="29886596"/>
    <nd ref="29886598"/>
    <nd ref="971047599"/>
    <nd ref="500058279"/>
    <tag k="addr:city" v="Kampinos"/>
    <tag k="highway" v="secondary"/>
    <tag k="ref" v="580"/>
  </way>
  <way id="41088441" version="4" timestamp="2011-01-30T19:52:21Z" uid="98542" user="wajak" changeset="7138770">
    <nd ref="29886595"/>
    <nd ref="29886597"/>
    <nd ref="733711322"/>
    <nd ref="29886596"/>
    <nd ref="29886598"/>
    <nd ref="971047599"/>
    <tag k="addr:city" v="Kampinos"/>
    <tag k="highway" v="secondary"/>
    <tag k="ref" v="580"/>
  </way>
  <way id="41088442" version="1" timestamp="2009-09-18T22:17:53Z" uid="20587" user="balrog-kun" changeset="2529233">
    <nd ref="29886581"/>
    <nd ref="29886586"/>
    <nd ref="29886591"/>
    <nd ref="29886592"/>
    <nd ref="29886595"/>
    <tag k="addr:city" v="Wiejca"/>
    <tag k="highway" v="secondary"/>
    <tag k="ref" v="580"/>
  </way>
  <way id="41088442" version="2" timestamp="2011-03-14T21:06:03Z" uid="415548" user="ktgajowniczek" changeset="7560991">
    <nd ref="29886581"/>
    <nd ref="1202122455"/>
    <nd ref="29886586"/>
    <nd ref="29886591"/>
    <nd ref="29886592"/>
    <nd ref="29886595"/>
    <tag k="addr:city" v="Wiejca"/>
    <tag k="highway" v="secondary"/>
    <tag k="ref" v="580"/>
  </way>
  <way id="41088442" version="3" timestamp="2011-04-13T21:25:32Z" uid="156907" user="kububa" changeset="7856185">
    <nd ref="29886581"/>
    <nd ref="1202122455"/>
    <nd ref="29886586"/>
    <nd ref="29886591"/>
    <nd ref="1243809832"/>
    <nd ref="29886592"/>
    <nd ref="29886595"/>
    <tag k="addr:city" v="Wiejca"/>
    <tag k="highway" v="secondary"/>
    <tag k="ref" v="580"/>
  </way>
  <way id="41088443" version="1" timestamp="2009-09-18T22:17:53Z" uid="20587" user="balrog-kun" changeset="2529233">
    <nd ref="500960949"/>
    <nd ref="500960950"/>
    <tag k="addr:city" v="Grądy"/>
    <tag k="highway" v="secondary"/>
    <tag k="name" v="Sochaczewska"/>
    <tag k="ref" v="580"/>
  </way>
  <way id="41088444" version="1" timestamp="2009-09-18T22:17:53Z" uid="20587" user="balrog-kun" changeset="2529233">
    <nd ref="500960950"/>
    <nd ref="29886570"/>
    <nd ref="500960951"/>
    <tag k="addr:city" v="Wilków"/>
    <tag k="highway" v="secondary"/>
    <tag k="name" v="Fryderyka Chopina"/>
    <tag k="ref" v="580"/>
  </way>
  <way id="41088445" version="1" timestamp="2009-09-18T22:17:53Z" uid="20587" user="balrog-kun" changeset="2529233">
    <nd ref="500960951"/>
    <nd ref="29886572"/>
    <nd ref="29886573"/>
    <nd ref="29886576"/>
    <nd ref="499849486"/>
    <tag k="addr:city" v="Wiejca"/>
    <tag k="highway" v="secondary"/>
    <tag k="name" v="Fryderyka Chopina"/>
    <tag k="ref" v="580"/>
  </way>
  <way id="41088445" version="2" timestamp="2010-09-26T20:08:42Z" uid="22840" user="Slawek Janukowicz" changeset="5885299">
    <nd ref="500960951"/>
    <nd ref="29886572"/>
    <nd ref="29886573"/>
    <nd ref="927234572"/>
    <nd ref="29886576"/>
    <nd ref="499849486"/>
    <tag k="addr:city" v="Wiejca"/>
    <tag k="highway" v="secondary"/>
    <tag k="name" v="Fryderyka Chopina"/>
    <tag k="ref" v="580"/>
  </way>
  <way id="41088445" version="3" timestamp="2012-03-10T23:41:12Z" uid="98542" user="wajak" changeset="10937971">
    <nd ref="500960951"/>
    <nd ref="29886572"/>
    <nd ref="29886573"/>
    <nd ref="927234572"/>
    <nd ref="1669481347"/>
    <nd ref="29886576"/>
    <nd ref="499849486"/>
    <tag k="addr:city" v="Wiejca"/>
    <tag k="highway" v="secondary"/>
    <tag k="name" v="Fryderyka Chopina"/>
    <tag k="ref" v="580"/>
  </way>
  <way id="41088446" version="1" timestamp="2009-09-18T22:17:53Z" uid="20587" user="balrog-kun" changeset="2529233">
    <nd ref="499849486"/>
    <nd ref="29886578"/>
    <nd ref="29886581"/>
    <tag k="addr:city" v="Wilkowa Wieś"/>
    <tag k="highway" v="secondary"/>
    <tag k="name" v="Fryderyka Chopina"/>
    <tag k="ref" v="580"/>
  </way>
  <way id="41088446" version="2" timestamp="2010-09-26T20:08:42Z" uid="22840" user="Slawek Janukowicz" changeset="5885299">
    <nd ref="499849486"/>
    <nd ref="29886578"/>
    <nd ref="927234588"/>
    <nd ref="29886581"/>
    <tag k="addr:city" v="Wilkowa Wieś"/>
    <tag k="highway" v="secondary"/>
    <tag k="name" v="Fryderyka Chopina"/>
    <tag k="ref" v="580"/>
  </way>
  <way id="41088450" version="5" timestamp="2010-04-02T17:45:46Z" uid="20587" user="balrog-kun" changeset="4304500">
    <nd ref="366924690"/>
    <nd ref="366924982"/>
    <nd ref="366924969"/>
    <nd ref="366924968"/>
    <nd ref="366924988"/>
    <nd ref="503129690"/>
    <nd ref="50986855"/>
    <tag k="highway" v="tertiary"/>
    <tag k="name" v="South Browne Street"/>
    <tag k="tiger:cfcc" v="A41"/>
    <tag k="tiger:county" v="Spokane, WA"/>
    <tag k="tiger:name_base" v="Browne"/>
    <tag k="tiger:name_direction_prefix" v="S"/>
    <tag k="tiger:name_type" v="St"/>
    <tag k="tiger:reviewed" v="no"/>
    <tag k="tiger:separated" v="no"/>
    <tag k="tiger:source" v="tiger_import_dch_v0.6_20070830"/>
    <tag k="tiger:tlid" v="189876964"/>
    <tag k="tiger:zip_left" v="99201"/>
    <tag k="tiger:zip_right" v="99201"/>
  </way>
  <way id="41088450" version="6" timestamp="2011-01-06T13:26:53Z" uid="121241" user="zephyr" changeset="6882280">
    <nd ref="366924690"/>
    <nd ref="1085639692"/>
    <nd ref="366924982"/>
    <nd ref="1085639687"/>
    <tag k="highway" v="tertiary"/>
    <tag k="name" v="South Browne Street"/>
    <tag k="oneway" v="yes"/>
    <tag k="tiger:cfcc" v="A41"/>
    <tag k="tiger:county" v="Spokane, WA"/>
    <tag k="tiger:name_base" v="Browne"/>
    <tag k="tiger:name_direction_prefix" v="S"/>
    <tag k="tiger:name_type" v="St"/>
    <tag k="tiger:separated" v="no"/>
    <tag k="tiger:source" v="tiger_import_dch_v0.6_20070830"/>
    <tag k="tiger:tlid" v="189876964"/>
    <tag k="tiger:zip_left" v="99201"/>
    <tag k="tiger:zip_right" v="99201"/>
  </way>
  <way id="41088993" version="5" timestamp="2010-03-28T10:22:14Z" uid="20587" user="balrog-kun" changeset="4254597">
    <nd ref="122642256"/>
    <nd ref="500966894"/>
    <nd ref="500966896"/>
    <nd ref="122642252"/>
    <nd ref="596938734"/>
    <nd ref="122609412"/>
    <tag k="highway" v="service"/>
    <tag k="name" v="Edison Lane"/>
    <tag k="tiger:cfcc" v="A41"/>
    <tag k="tiger:county" v="Los Angeles, CA"/>
    <tag k="tiger:name_base" v="Edison"/>
    <tag k="tiger:name_type" v="Ln"/>
    <tag k="tiger:separated" v="no"/>
    <tag k="tiger:source" v="tiger_import_dch_v0.6_20070809"/>
    <tag k="tiger:tlid" v="141806451"/>
  </way>
  <way id="41088999" version="2" timestamp="2010-07-06T18:21:24Z" uid="74617" user="JohnSmith" changeset="5152225">
    <nd ref="488995475"/>
    <nd ref="488995716"/>
    <nd ref="488995757"/>
    <nd ref="488970565"/>
    <nd ref="488994981"/>
    <nd ref="488995792"/>
    <tag k="highway" v="residential"/>
    <tag k="maxspeed" v="50"/>
    <tag k="maxspeed:source" v="default residential speed limit in Australia"/>
    <tag k="name" v="Falconer Street"/>
  </way>
  <way id="41088999" version="3" timestamp="2012-01-19T04:47:34Z" uid="147510" user="woodpeck_fixbot" changeset="10433650">
    <nd ref="488995475"/>
    <nd ref="488995716"/>
    <nd ref="488995757"/>
    <nd ref="488970565"/>
    <nd ref="488994981"/>
    <nd ref="488995792"/>
    <tag k="highway" v="residential"/>
    <tag k="name" v="Falconer Street"/>
  </way>
</osm>
