<?xml version='1.0' encoding='UTF-8'?>
<osm version="0.6" generator="libosmium/2.20.0">
  <way id="41104299" version="1" timestamp="2009-09-19T02:08:54Z" uid="74617" user="JohnSmith" changeset="2529820">
    <nd ref="35426269"/>
    <nd ref="35426288"/>
    <nd ref="267113590"/>
    <tag k="highway" v="residential"/>
    <tag k="name" v="Dean Street"/>
  </way>
  <way id="41104299" version="2" timestamp="2009-09-19T10:38:51Z" uid="74617" user="JohnSmith" changeset="2532866">
    <nd ref="35426269"/>
    <nd ref="35426288"/>
    <nd ref="267113590"/>
    <tag k="highway" v="residential"/>
    <tag k="name" v="Dean Street"/>
  </way>
  <way id="41104299" version="3" timestamp="2010-02-08T07:26:28Z" uid="74617" user="JohnSmith" changeset="3821117">
    <nd ref="35426269"/>
    <nd ref="35426288"/>
    <nd ref="267113590"/>
    <tag k="highway" v="residential"/>
    <tag k="maxspeed" v="50"/>
    <tag k="name" v="Dean Street"/>
  </way>
  <way id="41104462" version="3" timestamp="2010-03-22T07:34:24Z" uid="20587" user="balrog-kun" changeset="4199043">
    <nd ref="501484626"/>
    <nd ref="501484629"/>
    <nd ref="501484630"/>
    <nd ref="501484633"/>
    <nd ref="614520582"/>
    <nd ref="501484635"/>
    <tag k="highway" v="unclassified"/>
    <tag k="lanes" v="2"/>
    <tag k="name" v="Southwest Columbia Street"/>
  </way>
  <way id="41104487" version="3" timestamp="2010-02-14T17:14:44Z" uid="74617" user="JohnSmith" changeset="3875836">
    <nd ref="75205330"/>
    <nd ref="75205240"/>
    <tag k="highway" v="unclassified"/>
    <tag k="maxspeed" v="50"/>
    <tag k="name" v="Terrace St"/>
    <tag k="oneway" v="yes"/>
  </way>
  <way id="41104487" version="4" timestamp="2010-04-23T05:18:59Z" uid="4467" user="Rosscoe" changeset="4500615">
    <nd ref="75205330"/>
    <nd ref="75205240"/>
    <tag k="highway" v="unclassified"/>
    <tag k="maxspeed" v="50"/>
    <tag k="name" v="Terrace Street"/>
    <tag k="oneway" v="yes"/>
  </way>
  <way id="41104487" version="5" timestamp="2011-09-15T21:52:29Z" uid="84937" user="Neil Penman" changeset="9312086">
    <nd ref="75205330"/>
    <nd ref="75205240"/>
    <tag k="highway" v="residential"/>
    <tag k="maxspeed" v="50"/>
    <tag k="name" v="Terrace Street"/>
    <tag k="oneway" v="yes"/>
  </way>
  <way id="41104487" version="6" timestamp="2012-01-19T04:47:41Z" uid="147510" user="woodpeck_fixbot" changeset="10433650">
    <nd ref="75205330"/>
    <nd ref="75205240"/>
    <tag k="highway" v="residential"/>
    <tag k="name" v="Terrace Street"/>
    <tag k="oneway" v="yes"/>
  </way>
  <way id="41104730" version="5" timestamp="2010-02-14T17:14:12Z" uid="74617" user="JohnSmith" changeset="3875836">
    <nd ref="75205334"/>
    <nd ref="563809942"/>
    <nd ref="75204824"/>
    <nd ref="563809941"/>
    <nd ref="75204825"/>
    <tag k="highway" v="residential"/>
    <tag k="maxspeed" v="50"/>
    <tag k="name" v="Sedgebrook Street"/>
    <tag k="oneway" v="yes"/>
  </way>
  <way id="41104730" version="6" timestamp="2010-04-20T03:15:32Z" uid="103574" user="Fairfield" changeset="4474022">
    <nd ref="75205334"/>
    <nd ref="563809942"/>
    <nd ref="75204824"/>
    <nd ref="563809941"/>
    <nd ref="702335009"/>
    <tag k="highway" v="residential"/>
    <tag k="maxspeed" v="50"/>
    <tag k="name" v="Sedgebrook Street"/>
    <tag k="oneway" v="yes"/>
  </way>
  <way id="41104730" version="7" timestamp="2010-04-20T03:15:49Z" uid="103574" user="Fairfield" changeset="4474022">
    <nd ref="75205334"/>
    <nd ref="563809942"/>
    <nd ref="75204824"/>
    <nd ref="563809941"/>
    <nd ref="702335010"/>
    <nd ref="702335009"/>
    <tag k="highway" v="residential"/>
    <tag k="maxspeed" v="50"/>
    <tag k="name" v="Sedgebrook Street"/>
    <tag k="oneway" v="yes"/>
  </way>
  <way id="41104730" version="8" timestamp="2011-09-15T21:52:29Z" uid="84937" user="Neil Penman" changeset="9312086">
    <nd ref="75205334"/>
    <nd ref="563809942"/>
    <nd ref="75204824"/>
    <nd ref="563809941"/>
    <nd ref="702335010"/>
    <tag k="highway" v="residential"/>
    <tag k="maxspeed" v="50"/>
    <tag k="name" v="Sedgebrook Street"/>
    <tag k="oneway" v="yes"/>
  </way>
  <way id="41104730" version="9" timestamp="2012-01-19T04:47:42Z" uid="147510" user="woodpeck_fixbot" changeset="10433650">
    <nd ref="75205334"/>
    <nd ref="563809942"/>
    <nd ref="75204824"/>
    <nd ref="563809941"/>
    <nd ref="702335010"/>
    <tag k="highway" v="residential"/>
    <tag k="name" v="Sedgebrook Street"/>
    <tag k="oneway" v="yes"/>
  </way>
</osm>
