<?xml version='1.0' encoding='UTF-8'?>
<osm version="0.6" generator="libosmium/2.20.0">
  <way id="41462030" version="4" timestamp="2010-04-02T17:47:06Z" uid="20587" user="balrog-kun" changeset="4304500">
    <nd ref="50948923"/>
    <nd ref="51016671"/>
    <tag k="bridge" v="yes"/>
    <tag k="highway" v="tertiary"/>
    <tag k="layer" v="5"/>
    <tag k="name" v="West Sunset Boulevard"/>
    <tag k="oneway" v="yes"/>
    <tag k="tiger:cfcc" v="A41"/>
    <tag k="tiger:county" v="Spokane, WA"/>
    <tag k="tiger:name_base" v="Sunset"/>
    <tag k="tiger:name_direction_prefix" v="W"/>
    <tag k="tiger:name_type" v="Blvd"/>
    <tag k="tiger:reviewed" v="no"/>
    <tag k="tiger:separated" v="no"/>
    <tag k="tiger:source" v="tiger_import_dch_v0.6_20070830"/>
    <tag k="tiger:tlid" v="189896895:189896897:189896082:189896083:189871795:189871788"/>
  </way>
  <way id="41462173" version="3" timestamp="2010-04-02T17:47:06Z" uid="20587" user="balrog-kun" changeset="4304500">
    <nd ref="51016668"/>
    <nd ref="50948923"/>
    <tag k="highway" v="tertiary"/>
    <tag k="layer" v="5"/>
    <tag k="name" v="West Sunset Boulevard"/>
    <tag k="oneway" v="yes"/>
    <tag k="tiger:cfcc" v="A41"/>
    <tag k="tiger:county" v="Spokane, WA"/>
    <tag k="tiger:name_base" v="Sunset"/>
    <tag k="tiger:name_direction_prefix" v="W"/>
    <tag k="tiger:name_type" v="Blvd"/>
    <tag k="tiger:reviewed" v="no"/>
    <tag k="tiger:separated" v="no"/>
    <tag k="tiger:source" v="tiger_import_dch_v0.6_20070830"/>
    <tag k="tiger:tlid" v="189896895:189896897:189896082:189896083:189871795:189871788"/>
  </way>
  <way id="41462178" version="3" timestamp="2010-04-02T17:47:07Z" uid="20587" user="balrog-kun" changeset="4304500">
    <nd ref="51016616"/>
    <nd ref="507151790"/>
    <nd ref="507151797"/>
    <nd ref="507155843"/>
    <nd ref="51016668"/>
    <tag k="highway" v="tertiary"/>
    <tag k="name" v="West Sunset Boulevard"/>
    <tag k="oneway" v="yes"/>
    <tag k="tiger:cfcc" v="A41"/>
    <tag k="tiger:county" v="Spokane, WA"/>
    <tag k="tiger:name_base" v="Sunset"/>
    <tag k="tiger:name_direction_prefix" v="W"/>
    <tag k="tiger:name_type" v="Blvd"/>
    <tag k="tiger:reviewed" v="no"/>
    <tag k="tiger:separated" v="no"/>
    <tag k="tiger:source" v="tiger_import_dch_v0.6_20070830"/>
    <tag k="tiger:tlid" v="189875723:189876000:189876001:189875887:189876008:189875718"/>
    <tag k="tiger:zip_left" v="99204"/>
  </way>
  <way id="41462443" version="2" timestamp="2009-10-21T00:08:38Z" uid="36809" user="pfoten_weg_!_" changeset="2908220">
    <nd ref="507177375"/>
    <nd ref="507177380"/>
    <nd ref="507177384"/>
    <nd ref="370287346"/>
    <nd ref="370287348"/>
    <nd ref="370287350"/>
    <nd ref="370287351"/>
    <nd ref="370287352"/>
    <nd ref="370287353"/>
    <nd ref="370287354"/>
    <nd ref="507177387"/>
    <nd ref="507177375"/>
    <tag k="landuse" v="quarry"/>
  </way>
  <way id="41462471" version="1" timestamp="2009-09-25T15:05:58Z" uid="137033" user="lubomir" changeset="2621194">
    <nd ref="507180190"/>
    <nd ref="507180182"/>
    <nd ref="507180185"/>
    <nd ref="507180163"/>
    <nd ref="507180190"/>
    <tag k="name" v="rybnik"/>
    <tag k="natural" v="water"/>
    <tag k="source" v="landsat"/>
  </way>
  <way id="41462472" version="1" timestamp="2009-09-25T15:05:58Z" uid="137033" user="lubomir" changeset="2621194">
    <nd ref="507180193"/>
    <nd ref="507180203"/>
    <nd ref="507180205"/>
    <nd ref="507180208"/>
    <nd ref="507180211"/>
    <nd ref="507180193"/>
    <tag k="name" v="rybnik"/>
    <tag k="natural" v="water"/>
    <tag k="source" v="landsat"/>
  </way>
  <way id="41462473" version="1" timestamp="2009-09-25T15:05:58Z" uid="137033" user="lubomir" changeset="2621194">
    <nd ref="507180169"/>
    <nd ref="507180172"/>
    <nd ref="507180175"/>
    <nd ref="507180179"/>
    <nd ref="507180169"/>
    <tag k="name" v="voda"/>
    <tag k="natural" v="water"/>
    <tag k="source" v="landsat"/>
  </way>
  <way id="41462509" version="1" timestamp="2009-09-25T15:08:20Z" uid="33382" user="de_muur" changeset="2621241">
    <nd ref="272315845"/>
    <nd ref="255548598"/>
    <tag k="highway" v="secondary"/>
    <tag k="maxspeed" v="50"/>
    <tag k="ref" v="L 208"/>
  </way>
  <way id="41462509" version="2" timestamp="2010-08-22T15:54:39Z" uid="33382" user="de_muur" changeset="5562447">
    <nd ref="272315845"/>
    <nd ref="255548598"/>
    <tag k="highway" v="secondary"/>
    <tag k="maxspeed" v="50"/>
    <tag k="ref" v="L 208"/>
    <tag k="surface" v="paved"/>
  </way>
  <way id="41462509" version="3" timestamp="2010-12-29T17:12:39Z" uid="33382" user="de_muur" changeset="6800921">
    <nd ref="272315845"/>
    <nd ref="310792715"/>
    <tag k="highway" v="secondary"/>
    <tag k="maxspeed" v="50"/>
    <tag k="ref" v="L 208"/>
    <tag k="surface" v="paved"/>
  </way>
  <way id="41462509" version="4" timestamp="2012-03-21T12:28:44Z" uid="349191" user="Glühwürmchen" changeset="11051615"/>
  <way id="41462911" version="1" timestamp="2009-09-25T15:16:09Z" uid="33382" user="de_muur" changeset="2621372">
    <nd ref="507206766"/>
    <nd ref="21686008"/>
    <nd ref="21686007"/>
    <nd ref="21686005"/>
    <nd ref="21686003"/>
    <nd ref="21686002"/>
    <nd ref="21686001"/>
    <nd ref="21686000"/>
    <nd ref="21685999"/>
    <nd ref="310786167"/>
    <nd ref="310786170"/>
    <nd ref="21685998"/>
    <nd ref="269334582"/>
    <nd ref="21685996"/>
    <nd ref="21685993"/>
    <nd ref="21685990"/>
    <nd ref="21685988"/>
    <nd ref="21685986"/>
    <nd ref="21685985"/>
    <nd ref="21685964"/>
    <nd ref="21685967"/>
    <nd ref="21685970"/>
    <nd ref="21685972"/>
    <nd ref="272455719"/>
    <nd ref="272455913"/>
    <nd ref="21685981"/>
    <nd ref="21685982"/>
    <nd ref="21685983"/>
    <tag k="highway" v="secondary"/>
    <tag k="name" v="Sachsenwaldstraße"/>
    <tag k="ref" v="L 208"/>
    <tag k="surface" v="paved"/>
  </way>
  <way id="41462911" version="2" timestamp="2010-08-22T15:54:39Z" uid="33382" user="de_muur" changeset="5562447">
    <nd ref="507206766"/>
    <nd ref="21686008"/>
    <nd ref="21686007"/>
    <nd ref="21686005"/>
    <tag k="highway" v="secondary"/>
    <tag k="maxspeed" v="70"/>
    <tag k="name" v="Sachsenwaldstraße"/>
    <tag k="ref" v="L 208"/>
    <tag k="surface" v="paved"/>
  </way>
  <way id="41462911" version="3" timestamp="2012-03-22T13:47:42Z" uid="349191" user="Glühwürmchen" changeset="11061000"/>
  <way id="41462912" version="1" timestamp="2009-09-25T15:16:09Z" uid="33382" user="de_muur" changeset="2621372">
    <nd ref="507206774"/>
    <nd ref="21296330"/>
    <tag k="highway" v="tertiary"/>
    <tag k="maxspeed" v="50"/>
    <tag k="name" v="Granderheider Straße"/>
    <tag k="ref" v="K 99"/>
    <tag k="surface" v="paved"/>
  </way>
</osm>
