<?xml version='1.0' encoding='UTF-8'?>
<osm version="0.6" generator="libosmium/2.20.0">
  <way id="41511008" version="3" timestamp="2010-07-13T15:01:27Z" uid="4467" user="Rosscoe" changeset="5208823">
    <nd ref="508274396"/>
    <nd ref="98823952"/>
    <nd ref="98828977"/>
    <nd ref="815117105"/>
    <nd ref="98828986"/>
    <nd ref="815116988"/>
    <nd ref="98828997"/>
    <nd ref="98829011"/>
    <nd ref="98829033"/>
    <nd ref="815117124"/>
    <nd ref="98829056"/>
    <nd ref="815117005"/>
    <nd ref="98829079"/>
    <nd ref="815117092"/>
    <nd ref="98829090"/>
    <nd ref="815116958"/>
    <nd ref="98829112"/>
    <nd ref="815117064"/>
    <tag k="highway" v="motorway"/>
    <tag k="name" v="Port of Brisbane Motorway"/>
    <tag k="oneway" v="no"/>
  </way>
  <way id="41511311" version="4" timestamp="2010-02-15T12:15:37Z" uid="74617" user="JohnSmith" changeset="3882541">
    <nd ref="508276481"/>
    <nd ref="508276487"/>
    <tag k="bridge" v="yes"/>
    <tag k="highway" v="residential"/>
    <tag k="maxspeed" v="50"/>
    <tag k="name" v="Gosport Street"/>
  </way>
  <way id="41511311" version="5" timestamp="2010-07-13T15:01:07Z" uid="4467" user="Rosscoe" changeset="5208823">
    <nd ref="508276481"/>
    <nd ref="508276487"/>
    <tag k="bridge" v="yes"/>
    <tag k="highway" v="residential"/>
    <tag k="layer" v="1"/>
    <tag k="maxspeed" v="50"/>
    <tag k="name" v="Gosport Street"/>
  </way>
  <way id="41511311" version="6" timestamp="2012-01-19T05:05:59Z" uid="147510" user="woodpeck_fixbot" changeset="10433650">
    <nd ref="508276481"/>
    <nd ref="508276487"/>
    <tag k="bridge" v="yes"/>
    <tag k="highway" v="residential"/>
    <tag k="layer" v="1"/>
    <tag k="name" v="Gosport Street"/>
  </way>
  <way id="41511322" version="2" timestamp="2010-02-15T12:15:36Z" uid="74617" user="JohnSmith" changeset="3882541">
    <nd ref="508276487"/>
    <nd ref="295612297"/>
    <nd ref="295612298"/>
    <nd ref="295612299"/>
    <nd ref="295612300"/>
    <tag k="highway" v="residential"/>
    <tag k="maxspeed" v="50"/>
    <tag k="name" v="Gosport Street"/>
  </way>
  <way id="41511322" version="3" timestamp="2011-11-05T05:43:54Z" uid="22094" user="Chadzopkyo" changeset="9743817">
    <nd ref="508276487"/>
    <nd ref="295612297"/>
    <nd ref="295612299"/>
    <nd ref="295612300"/>
    <tag k="highway" v="residential"/>
    <tag k="maxspeed" v="50"/>
    <tag k="name" v="Gosport Street"/>
  </way>
  <way id="41511322" version="4" timestamp="2012-01-19T05:06:00Z" uid="147510" user="woodpeck_fixbot" changeset="10433650">
    <nd ref="508276487"/>
    <nd ref="295612297"/>
    <nd ref="295612299"/>
    <nd ref="295612300"/>
    <tag k="highway" v="residential"/>
    <tag k="name" v="Gosport Street"/>
  </way>
  <way id="41511734" version="2" timestamp="2010-07-13T15:01:40Z" uid="4467" user="Rosscoe" changeset="5208823">
    <nd ref="508279012"/>
    <nd ref="98832956"/>
    <nd ref="815116977"/>
    <nd ref="98832943"/>
    <nd ref="815117064"/>
    <tag k="highway" v="motorway"/>
    <tag k="name" v="Port of Brisbane Motorway"/>
    <tag k="oneway" v="yes"/>
  </way>
</osm>
