<?xml version='1.0' encoding='UTF-8'?>
<osm version="0.6" generator="libosmium/2.20.0">
  <way id="41644149" version="2" timestamp="2010-04-03T21:09:14Z" uid="20587" user="balrog-kun" changeset="4315899">
    <nd ref="511149924"/>
    <nd ref="511149928"/>
    <nd ref="511149948"/>
    <nd ref="511149956"/>
    <nd ref="511149969"/>
    <nd ref="511149986"/>
    <nd ref="511149997"/>
    <nd ref="511150022"/>
    <nd ref="511150033"/>
    <nd ref="511150046"/>
    <nd ref="511149410"/>
    <tag k="highway" v="residential"/>
    <tag k="name" v="Meadowlark Lane"/>
  </way>
  <way id="41644296" version="2" timestamp="2009-10-28T07:19:51Z" uid="36809" user="pfoten_weg_!_" changeset="2971189">
    <nd ref="511152755"/>
    <nd ref="289616929"/>
    <nd ref="443692867"/>
    <nd ref="349242009"/>
    <nd ref="349242012"/>
    <nd ref="443692872"/>
    <nd ref="32961812"/>
    <tag k="highway" v="tertiary"/>
    <tag k="name" v="Froschhauser StraÃŸe"/>
    <tag k="oneway" v="no"/>
  </way>
  <way id="41644571" version="3" timestamp="2009-10-17T15:40:54Z" uid="20587" user="balrog-kun" changeset="2875335">
    <nd ref="497347559"/>
    <nd ref="497347555"/>
    <tag k="foot" v="yes"/>
    <tag k="highway" v="footway"/>
  </way>
  <way id="41644714" version="2" timestamp="2010-03-28T10:56:11Z" uid="20587" user="balrog-kun" changeset="4254597">
    <nd ref="15390966"/>
    <nd ref="402222167"/>
    <nd ref="402222156"/>
    <nd ref="402222165"/>
    <nd ref="402222145"/>
    <nd ref="402222177"/>
    <nd ref="15390967"/>
    <nd ref="402222143"/>
    <nd ref="402222141"/>
    <tag k="highway" v="motorway"/>
    <tag k="layer" v="1"/>
    <tag k="name" v="Pomona Fwy;Orange Freeway"/>
    <tag k="oneway" v="yes"/>
    <tag k="ref" v="CA 60;CA 57"/>
  </way>
  <way id="41644714" version="3" timestamp="2011-06-26T21:45:09Z" uid="4951" user="PeterIto" changeset="8556946">
    <nd ref="15390966"/>
    <nd ref="402222167"/>
    <nd ref="402222156"/>
    <nd ref="402222165"/>
    <nd ref="402222145"/>
    <nd ref="402222177"/>
    <nd ref="15390967"/>
    <nd ref="402222143"/>
    <nd ref="402222141"/>
    <tag k="highway" v="motorway"/>
    <tag k="name" v="Pomona Fwy;Orange Freeway"/>
    <tag k="oneway" v="yes"/>
    <tag k="ref" v="CA 60;CA 57"/>
  </way>
  <way id="41644714" version="4" timestamp="2011-07-29T05:24:33Z" uid="207745" user="NE2" changeset="8860294">
    <nd ref="15390966"/>
    <nd ref="402222167"/>
    <nd ref="402222156"/>
    <nd ref="402222165"/>
    <tag k="highway" v="motorway"/>
    <tag k="hov" v="lane"/>
    <tag k="lanes" v="7"/>
    <tag k="name" v="Pomona Fwy;Orange Freeway"/>
    <tag k="note:lanes" v="left lane is hov"/>
    <tag k="oneway" v="yes"/>
    <tag k="ref" v="CA 60;CA 57"/>
  </way>
  <way id="41644714" version="5" timestamp="2011-11-25T14:54:24Z" uid="207745" user="NE2" changeset="9943893">
    <nd ref="15390966"/>
    <nd ref="402222167"/>
    <nd ref="402222156"/>
    <nd ref="402222165"/>
    <tag k="hgv:national_network" v="yes"/>
    <tag k="highway" v="motorway"/>
    <tag k="hov" v="lane"/>
    <tag k="lanes" v="7"/>
    <tag k="name" v="Pomona Fwy;Orange Freeway"/>
    <tag k="note:lanes" v="left lane is hov"/>
    <tag k="oneway" v="yes"/>
    <tag k="ref" v="CA 60;CA 57"/>
    <tag k="source:hgv:national_network" v="Title 23: Highways Part 658 http://ecfr.gpoaccess.gov/cgi/t/text/text-idx?c=ecfr&amp;rgn=div5&amp;view=text&amp;node=23:1.0.1.7.33&amp;idno=23"/>
  </way>
  <way id="41644714" version="6" timestamp="2011-11-25T17:20:53Z" uid="207745" user="NE2" changeset="9945963">
    <nd ref="15390966"/>
    <nd ref="402222167"/>
    <nd ref="402222156"/>
    <nd ref="402222165"/>
    <tag k="hgv" v="designated"/>
    <tag k="hgv:national_network" v="yes"/>
    <tag k="highway" v="motorway"/>
    <tag k="hov" v="lane"/>
    <tag k="lanes" v="7"/>
    <tag k="name" v="Pomona Fwy;Orange Freeway"/>
    <tag k="note:lanes" v="left lane is hov"/>
    <tag k="oneway" v="yes"/>
    <tag k="ref" v="CA 60;CA 57"/>
    <tag k="source:hgv:national_network" v="Title 23: Highways Part 658 http://ecfr.gpoaccess.gov/cgi/t/text/text-idx?c=ecfr&amp;rgn=div5&amp;view=text&amp;node=23:1.0.1.7.33&amp;idno=23"/>
  </way>
  <way id="41644715" version="2" timestamp="2010-03-28T10:56:12Z" uid="20587" user="balrog-kun" changeset="4254597">
    <nd ref="15392314"/>
    <nd ref="402222144"/>
    <nd ref="15390928"/>
    <nd ref="402222155"/>
    <nd ref="15390929"/>
    <nd ref="405083751"/>
    <tag k="highway" v="motorway"/>
    <tag k="layer" v="1"/>
    <tag k="name" v="Pomona Fwy;Orange Freeway"/>
    <tag k="oneway" v="yes"/>
    <tag k="ref" v="CA 60;CA 57"/>
  </way>
  <way id="41644715" version="3" timestamp="2011-02-16T13:42:03Z" uid="82317" user="AM909" changeset="7303936">
    <nd ref="15392314"/>
    <nd ref="402222144"/>
    <nd ref="402222155"/>
    <nd ref="15390929"/>
    <nd ref="405083751"/>
    <tag k="highway" v="motorway"/>
    <tag k="layer" v="1"/>
    <tag k="name" v="Pomona Fwy;Orange Freeway"/>
    <tag k="oneway" v="yes"/>
    <tag k="ref" v="CA 60;CA 57"/>
  </way>
  <way id="41644715" version="4" timestamp="2011-06-26T21:45:09Z" uid="4951" user="PeterIto" changeset="8556946">
    <nd ref="15392314"/>
    <nd ref="402222144"/>
    <nd ref="402222155"/>
    <nd ref="15390929"/>
    <nd ref="405083751"/>
    <tag k="highway" v="motorway"/>
    <tag k="name" v="Pomona Fwy;Orange Freeway"/>
    <tag k="oneway" v="yes"/>
    <tag k="ref" v="CA 60;CA 57"/>
  </way>
  <way id="41644715" version="5" timestamp="2011-07-29T05:24:32Z" uid="207745" user="NE2" changeset="8860294">
    <nd ref="15392314"/>
    <nd ref="402222144"/>
    <tag k="highway" v="motorway"/>
    <tag k="hov" v="lane"/>
    <tag k="lanes" v="8"/>
    <tag k="name" v="Pomona Fwy;Orange Freeway"/>
    <tag k="note:lanes" v="left lane is hov"/>
    <tag k="oneway" v="yes"/>
    <tag k="ref" v="CA 60;CA 57"/>
  </way>
  <way id="41644715" version="6" timestamp="2011-11-25T14:54:24Z" uid="207745" user="NE2" changeset="9943893">
    <nd ref="15392314"/>
    <nd ref="402222144"/>
    <tag k="hgv:national_network" v="yes"/>
    <tag k="highway" v="motorway"/>
    <tag k="hov" v="lane"/>
    <tag k="lanes" v="8"/>
    <tag k="name" v="Pomona Fwy;Orange Freeway"/>
    <tag k="note:lanes" v="left lane is hov"/>
    <tag k="oneway" v="yes"/>
    <tag k="ref" v="CA 60;CA 57"/>
    <tag k="source:hgv:national_network" v="Title 23: Highways Part 658 http://ecfr.gpoaccess.gov/cgi/t/text/text-idx?c=ecfr&amp;rgn=div5&amp;view=text&amp;node=23:1.0.1.7.33&amp;idno=23"/>
  </way>
  <way id="41644715" version="7" timestamp="2011-11-25T17:20:53Z" uid="207745" user="NE2" changeset="9945963">
    <nd ref="15392314"/>
    <nd ref="402222144"/>
    <tag k="hgv" v="designated"/>
    <tag k="hgv:national_network" v="yes"/>
    <tag k="highway" v="motorway"/>
    <tag k="hov" v="lane"/>
    <tag k="lanes" v="8"/>
    <tag k="name" v="Pomona Fwy;Orange Freeway"/>
    <tag k="note:lanes" v="left lane is hov"/>
    <tag k="oneway" v="yes"/>
    <tag k="ref" v="CA 60;CA 57"/>
    <tag k="source:hgv:national_network" v="Title 23: Highways Part 658 http://ecfr.gpoaccess.gov/cgi/t/text/text-idx?c=ecfr&amp;rgn=div5&amp;view=text&amp;node=23:1.0.1.7.33&amp;idno=23"/>
  </way>
  <way id="41644716" version="2" timestamp="2010-03-28T10:56:12Z" uid="20587" user="balrog-kun" changeset="4254597">
    <nd ref="405083751"/>
    <nd ref="405083756"/>
    <nd ref="405083729"/>
    <tag k="highway" v="motorway"/>
    <tag k="layer" v="1"/>
    <tag k="name" v="Pomona Freeway"/>
    <tag k="oneway" v="yes"/>
    <tag k="ref" v="CA 60"/>
  </way>
  <way id="41644716" version="3" timestamp="2011-06-26T21:45:09Z" uid="4951" user="PeterIto" changeset="8556946">
    <nd ref="405083751"/>
    <nd ref="405083756"/>
    <nd ref="405083729"/>
    <tag k="highway" v="motorway"/>
    <tag k="name" v="Pomona Freeway"/>
    <tag k="oneway" v="yes"/>
    <tag k="ref" v="CA 60"/>
  </way>
  <way id="41644716" version="4" timestamp="2011-07-29T05:24:02Z" uid="207745" user="NE2" changeset="8860294">
    <nd ref="405083751"/>
    <nd ref="405083756"/>
    <nd ref="405083729"/>
    <tag k="highway" v="motorway"/>
    <tag k="hov" v="lane"/>
    <tag k="lanes" v="5"/>
    <tag k="name" v="Pomona Freeway"/>
    <tag k="note:lanes" v="left lane is hov"/>
    <tag k="oneway" v="yes"/>
    <tag k="ref" v="CA 60"/>
  </way>
  <way id="41644716" version="5" timestamp="2011-11-25T14:52:45Z" uid="207745" user="NE2" changeset="9943893">
    <nd ref="405083751"/>
    <nd ref="405083756"/>
    <nd ref="405083729"/>
    <tag k="hgv:national_network" v="yes"/>
    <tag k="highway" v="motorway"/>
    <tag k="hov" v="lane"/>
    <tag k="lanes" v="5"/>
    <tag k="name" v="Pomona Freeway"/>
    <tag k="note:lanes" v="left lane is hov"/>
    <tag k="oneway" v="yes"/>
    <tag k="ref" v="CA 60"/>
    <tag k="source:hgv:national_network" v="Title 23: Highways Part 658 http://ecfr.gpoaccess.gov/cgi/t/text/text-idx?c=ecfr&amp;rgn=div5&amp;view=text&amp;node=23:1.0.1.7.33&amp;idno=23"/>
  </way>
  <way id="41644716" version="6" timestamp="2011-11-25T17:19:41Z" uid="207745" user="NE2" changeset="9945963">
    <nd ref="405083751"/>
    <nd ref="405083756"/>
    <nd ref="405083729"/>
    <tag k="hgv" v="designated"/>
    <tag k="hgv:national_network" v="yes"/>
    <tag k="highway" v="motorway"/>
    <tag k="hov" v="lane"/>
    <tag k="lanes" v="5"/>
    <tag k="name" v="Pomona Freeway"/>
    <tag k="note:lanes" v="left lane is hov"/>
    <tag k="oneway" v="yes"/>
    <tag k="ref" v="CA 60"/>
    <tag k="source:hgv:national_network" v="Title 23: Highways Part 658 http://ecfr.gpoaccess.gov/cgi/t/text/text-idx?c=ecfr&amp;rgn=div5&amp;view=text&amp;node=23:1.0.1.7.33&amp;idno=23"/>
  </way>
  <way id="41644717" version="2" timestamp="2010-03-28T10:56:12Z" uid="20587" user="balrog-kun" changeset="4254597">
    <nd ref="402222141"/>
    <nd ref="402222132"/>
    <nd ref="418362271"/>
    <nd ref="15390968"/>
    <nd ref="402222112"/>
    <nd ref="402222111"/>
    <nd ref="28304605"/>
    <nd ref="402222113"/>
    <nd ref="402128777"/>
    <tag k="highway" v="motorway"/>
    <tag k="layer" v="1"/>
    <tag k="name" v="Pomona Freeway"/>
    <tag k="oneway" v="yes"/>
    <tag k="ref" v="CA 60"/>
  </way>
  <way id="41644717" version="3" timestamp="2011-02-16T13:42:39Z" uid="82317" user="AM909" changeset="7303936">
    <nd ref="402222141"/>
    <nd ref="402222132"/>
    <nd ref="418362271"/>
    <nd ref="15390968"/>
    <nd ref="402222112"/>
    <nd ref="402222111"/>
    <nd ref="28304605"/>
    <nd ref="402222113"/>
    <nd ref="1156302689"/>
    <nd ref="402128777"/>
    <tag k="highway" v="motorway"/>
    <tag k="layer" v="1"/>
    <tag k="name" v="Pomona Freeway"/>
    <tag k="oneway" v="yes"/>
    <tag k="ref" v="CA 60"/>
  </way>
  <way id="41644717" version="4" timestamp="2011-06-26T21:45:10Z" uid="4951" user="PeterIto" changeset="8556946">
    <nd ref="402222141"/>
    <nd ref="402222132"/>
    <nd ref="418362271"/>
    <nd ref="15390968"/>
    <nd ref="402222112"/>
    <nd ref="402222111"/>
    <nd ref="28304605"/>
    <nd ref="402222113"/>
    <nd ref="1156302689"/>
    <nd ref="402128777"/>
    <tag k="highway" v="motorway"/>
    <tag k="name" v="Pomona Freeway"/>
    <tag k="oneway" v="yes"/>
    <tag k="ref" v="CA 60"/>
  </way>
  <way id="41644717" version="5" timestamp="2011-07-29T05:24:26Z" uid="207745" user="NE2" changeset="8860294">
    <nd ref="402222141"/>
    <nd ref="402222132"/>
    <nd ref="418362271"/>
    <nd ref="15390968"/>
    <nd ref="402222112"/>
    <nd ref="402222111"/>
    <nd ref="1377310277"/>
    <tag k="highway" v="motorway"/>
    <tag k="hov" v="lane"/>
    <tag k="lanes" v="5"/>
    <tag k="name" v="Pomona Freeway"/>
    <tag k="note:lanes" v="left lane is hov"/>
    <tag k="oneway" v="yes"/>
    <tag k="ref" v="CA 60"/>
  </way>
  <way id="41644717" version="6" timestamp="2011-11-25T14:54:12Z" uid="207745" user="NE2" changeset="9943893">
    <nd ref="402222141"/>
    <nd ref="402222132"/>
    <nd ref="418362271"/>
    <nd ref="15390968"/>
    <nd ref="402222112"/>
    <nd ref="402222111"/>
    <nd ref="1377310277"/>
    <tag k="hgv:national_network" v="yes"/>
    <tag k="highway" v="motorway"/>
    <tag k="hov" v="lane"/>
    <tag k="lanes" v="5"/>
    <tag k="name" v="Pomona Freeway"/>
    <tag k="note:lanes" v="left lane is hov"/>
    <tag k="oneway" v="yes"/>
    <tag k="ref" v="CA 60"/>
    <tag k="source:hgv:national_network" v="Title 23: Highways Part 658 http://ecfr.gpoaccess.gov/cgi/t/text/text-idx?c=ecfr&amp;rgn=div5&amp;view=text&amp;node=23:1.0.1.7.33&amp;idno=23"/>
  </way>
  <way id="41644717" version="7" timestamp="2011-11-25T17:20:41Z" uid="207745" user="NE2" changeset="9945963">
    <nd ref="402222141"/>
    <nd ref="402222132"/>
    <nd ref="418362271"/>
    <nd ref="15390968"/>
    <nd ref="402222112"/>
    <nd ref="402222111"/>
    <nd ref="1377310277"/>
    <tag k="hgv" v="designated"/>
    <tag k="hgv:national_network" v="yes"/>
    <tag k="highway" v="motorway"/>
    <tag k="hov" v="lane"/>
    <tag k="lanes" v="5"/>
    <tag k="name" v="Pomona Freeway"/>
    <tag k="note:lanes" v="left lane is hov"/>
    <tag k="oneway" v="yes"/>
    <tag k="ref" v="CA 60"/>
    <tag k="source:hgv:national_network" v="Title 23: Highways Part 658 http://ecfr.gpoaccess.gov/cgi/t/text/text-idx?c=ecfr&amp;rgn=div5&amp;view=text&amp;node=23:1.0.1.7.33&amp;idno=23"/>
  </way>
  <way id="41644896" version="3" timestamp="2009-12-24T02:43:11Z" uid="6975" user="ulfl" changeset="3439638">
    <nd ref="511167908"/>
    <nd ref="511167913"/>
    <nd ref="511167930"/>
    <nd ref="511167935"/>
    <nd ref="511167938"/>
    <nd ref="511167945"/>
    <nd ref="511167950"/>
    <nd ref="511167955"/>
    <nd ref="511167908"/>
    <tag k="building" v="yes"/>
    <tag k="man_made" v="works"/>
  </way>
  <way id="41644896" version="4" timestamp="2012-03-25T21:58:02Z" uid="101184" user="jfd553" changeset="11100365">
    <nd ref="511167908"/>
    <nd ref="511167913"/>
    <nd ref="511167930"/>
    <nd ref="511167938"/>
    <nd ref="511167950"/>
    <nd ref="511167955"/>
    <nd ref="511167908"/>
    <tag k="building" v="yes"/>
    <tag k="man_made" v="works"/>
  </way>
  <way id="41644909" version="1" timestamp="2009-09-27T20:52:20Z" uid="137033" user="lubomir" changeset="2658513">
    <nd ref="511169229"/>
    <nd ref="511169231"/>
    <nd ref="511169233"/>
    <nd ref="511169232"/>
    <nd ref="511169229"/>
    <tag k="leisure" v="park"/>
  </way>
  <way id="41644909" version="2" timestamp="2011-11-21T09:12:52Z" uid="6475" user="NiCK_n17" changeset="9894766">
    <nd ref="511169229"/>
    <nd ref="511169231"/>
    <nd ref="511169233"/>
    <nd ref="1511320219"/>
    <nd ref="1511320220"/>
    <nd ref="1511320221"/>
    <nd ref="511169232"/>
    <nd ref="511169229"/>
    <tag k="leisure" v="park"/>
  </way>
</osm>
