<?xml version='1.0' encoding='UTF-8'?>
<osm version="0.6" generator="libosmium/2.20.0">
  <way id="4169387" version="4" timestamp="2010-03-27T07:41:17Z" uid="20587" user="balrog-kun" changeset="4244079">
    <nd ref="23963919"/>
    <nd ref="122702450"/>
    <nd ref="123130703"/>
    <tag k="created_by" v="Potlatch 0.10f"/>
    <tag k="highway" v="residential"/>
    <tag k="name" v="Redondo Avenue"/>
  </way>
  <way id="4169388" version="9" timestamp="2010-03-27T07:41:17Z" uid="20587" user="balrog-kun" changeset="4244079">
    <nd ref="36180499"/>
    <nd ref="587644260"/>
    <nd ref="587644264"/>
    <nd ref="587644269"/>
    <nd ref="587643838"/>
    <nd ref="602271477"/>
    <nd ref="587643839"/>
    <nd ref="457280461"/>
    <nd ref="457280462"/>
    <nd ref="373541507"/>
    <tag k="highway" v="primary"/>
    <tag k="name" v="Artesia Boulevard"/>
    <tag k="oneway" v="yes"/>
    <tag k="ref" v="CA 91"/>
  </way>
  <way id="4169388" version="10" timestamp="2010-04-15T05:43:57Z" uid="86782" user="maxtheheathen" changeset="4428164">
    <nd ref="36180499"/>
    <nd ref="587644260"/>
    <nd ref="587644264"/>
    <nd ref="697210989"/>
    <nd ref="587644269"/>
    <nd ref="587643838"/>
    <nd ref="602271477"/>
    <nd ref="587643839"/>
    <nd ref="457280461"/>
    <nd ref="457280462"/>
    <nd ref="373541507"/>
    <tag k="highway" v="primary"/>
    <tag k="name" v="Artesia Boulevard"/>
    <tag k="oneway" v="yes"/>
    <tag k="ref" v="CA 91"/>
  </way>
  <way id="4169388" version="11" timestamp="2010-04-15T05:44:02Z" uid="86782" user="maxtheheathen" changeset="4428164">
    <nd ref="36180499"/>
    <nd ref="587644260"/>
    <nd ref="697211003"/>
    <nd ref="587644264"/>
    <nd ref="697210989"/>
    <nd ref="587644269"/>
    <nd ref="587643838"/>
    <nd ref="602271477"/>
    <nd ref="587643839"/>
    <nd ref="457280461"/>
    <nd ref="457280462"/>
    <nd ref="373541507"/>
    <tag k="highway" v="primary"/>
    <tag k="name" v="Artesia Boulevard"/>
    <tag k="oneway" v="yes"/>
    <tag k="ref" v="CA 91"/>
  </way>
</osm>
