<?xml version='1.0' encoding='UTF-8'?>
<osm version="0.6" generator="libosmium/2.20.0">
  <way id="41881000" version="1" timestamp="2009-10-02T20:43:13Z" uid="86259" user="hasse_osm_korinthenkacker" changeset="2717407">
    <nd ref="518113758"/>
    <nd ref="518113760"/>
    <nd ref="518113762"/>
    <nd ref="518113761"/>
    <nd ref="518113758"/>
    <tag k="addr:housenumber" v="2"/>
    <tag k="addr:street" v="Bleibtreuplatz"/>
    <tag k="amenity" v="kindergarten"/>
    <tag k="building" v="yes"/>
    <tag k="name" v="Pfarrkindergarten St. Johann Baptist"/>
    <tag k="source" v="Yahoo,survey"/>
  </way>
  <way id="41881000" version="2" timestamp="2009-10-03T17:44:09Z" uid="179968" user="Ich_hasse_doitsche_OSM-Korinthenkacker" changeset="2727120">
    <nd ref="518113758"/>
    <nd ref="518113760"/>
    <nd ref="518113762"/>
    <nd ref="518113761"/>
    <nd ref="518113758"/>
    <tag k="addr:housenumber" v="2"/>
    <tag k="addr:street" v="Bleibtreuplatz"/>
    <tag k="amenity" v="kindergarten"/>
    <tag k="building" v="yes"/>
    <tag k="name" v="Pfarrkindergarten St. Johann Baptist"/>
  </way>
  <way id="41881000" version="3" timestamp="2010-05-08T20:58:30Z" uid="36809" user="pfoten_weg_!_" changeset="4643009"/>
  <way id="41881000" version="4" timestamp="2010-05-09T08:52:23Z" uid="145231" user="woodpeck_repair" changeset="4645739">
    <nd ref="518113758"/>
    <nd ref="518113760"/>
    <nd ref="518113762"/>
    <nd ref="518113761"/>
    <nd ref="518113758"/>
    <tag k="addr:housenumber" v="2"/>
    <tag k="addr:street" v="Bleibtreuplatz"/>
    <tag k="amenity" v="kindergarten"/>
    <tag k="building" v="yes"/>
    <tag k="name" v="Pfarrkindergarten St. Johann Baptist"/>
  </way>
  <way id="41881002" version="1" timestamp="2009-10-02T20:43:14Z" uid="86259" user="hasse_osm_korinthenkacker" changeset="2717407">
    <nd ref="518113752"/>
    <nd ref="518113753"/>
    <nd ref="518113755"/>
    <nd ref="518113757"/>
    <nd ref="518113752"/>
    <tag k="addr:housenumber" v="1"/>
    <tag k="addr:street" v="Begasweg"/>
    <tag k="building" v="yes"/>
    <tag k="source" v="Yahoo,survey"/>
  </way>
  <way id="41881002" version="2" timestamp="2009-10-03T17:44:09Z" uid="179968" user="Ich_hasse_doitsche_OSM-Korinthenkacker" changeset="2727120">
    <nd ref="518113752"/>
    <nd ref="518113753"/>
    <nd ref="518113755"/>
    <nd ref="518113757"/>
    <nd ref="518113752"/>
    <tag k="addr:housenumber" v="1"/>
    <tag k="addr:street" v="Begasweg"/>
    <tag k="building" v="yes"/>
  </way>
  <way id="41881002" version="3" timestamp="2010-05-08T20:58:31Z" uid="36809" user="pfoten_weg_!_" changeset="4643009"/>
  <way id="41881002" version="4" timestamp="2010-05-09T08:52:22Z" uid="145231" user="woodpeck_repair" changeset="4645739">
    <nd ref="518113752"/>
    <nd ref="518113753"/>
    <nd ref="518113755"/>
    <nd ref="518113757"/>
    <nd ref="518113752"/>
    <tag k="addr:housenumber" v="1"/>
    <tag k="addr:street" v="Begasweg"/>
    <tag k="building" v="yes"/>
  </way>
  <way id="41881003" version="1" timestamp="2009-10-02T20:43:14Z" uid="86259" user="hasse_osm_korinthenkacker" changeset="2717407">
    <nd ref="518109991"/>
    <nd ref="518110008"/>
    <nd ref="518110003"/>
    <nd ref="518109989"/>
    <nd ref="518109991"/>
    <tag k="addr:housenumber" v="63"/>
    <tag k="addr:street" v="Herterichstraße"/>
    <tag k="building" v="yes"/>
    <tag k="name" v="Hotel Sollner Hof"/>
    <tag k="source" v="Yahoo;survey"/>
    <tag k="tourism" v="hotel"/>
    <tag k="url" v="http://www.sollnerhof.de/"/>
  </way>
  <way id="41881003" version="2" timestamp="2009-10-03T17:44:09Z" uid="179968" user="Ich_hasse_doitsche_OSM-Korinthenkacker" changeset="2727120">
    <nd ref="518109991"/>
    <nd ref="518110008"/>
    <nd ref="518110003"/>
    <nd ref="518109989"/>
    <nd ref="518109991"/>
    <tag k="addr:housenumber" v="63"/>
    <tag k="addr:street" v="Herterichstraße"/>
    <tag k="building" v="yes"/>
    <tag k="name" v="Hotel Sollner Hof"/>
    <tag k="tourism" v="hotel"/>
    <tag k="url" v="http://www.sollnerhof.de/"/>
  </way>
  <way id="41881003" version="3" timestamp="2010-05-09T20:07:37Z" uid="30579" user="Tiramisu" changeset="4653615">
    <nd ref="518109991"/>
    <nd ref="518110008"/>
    <nd ref="518110003"/>
    <nd ref="518109989"/>
    <nd ref="518109991"/>
    <tag k="addr:housenumber" v="63"/>
    <tag k="addr:street" v="Herterichstraße"/>
    <tag k="building" v="yes"/>
    <tag k="name" v="Hotel Sollner Hof"/>
    <tag k="tourism" v="hotel"/>
    <tag k="website" v="http://www.sollnerhof.de/"/>
  </way>
  <way id="41881003" version="4" timestamp="2012-01-28T22:34:57Z" uid="12982" user="Michael Schulze" changeset="10525649">
    <nd ref="1609386197"/>
    <nd ref="1609386199"/>
    <nd ref="1609386193"/>
    <nd ref="1609386189"/>
    <nd ref="1609386195"/>
    <nd ref="518109989"/>
    <nd ref="518109991"/>
    <nd ref="518110008"/>
    <nd ref="1609386197"/>
    <tag k="addr:housenumber" v="63"/>
    <tag k="addr:street" v="Herterichstraße"/>
    <tag k="building" v="yes"/>
    <tag k="name" v="Hotel Sollner Hof"/>
    <tag k="tourism" v="hotel"/>
    <tag k="website" v="http://www.sollnerhof.de/"/>
  </way>
  <way id="41881004" version="1" timestamp="2009-10-02T20:43:14Z" uid="86259" user="hasse_osm_korinthenkacker" changeset="2717407">
    <nd ref="518109993"/>
    <nd ref="518109995"/>
    <nd ref="518109994"/>
    <nd ref="518109992"/>
    <nd ref="518109993"/>
    <tag k="addr:housenumber" v="65"/>
    <tag k="addr:street" v="Herterichstraße"/>
    <tag k="amenity" v="restaurant"/>
    <tag k="building" v="yes"/>
    <tag k="cuisine" v="regional"/>
    <tag k="name" v="Sollner Hof"/>
    <tag k="source" v="Yahoo;survey"/>
    <tag k="url" v="http://www.sollnerhof.de/"/>
  </way>
  <way id="41881004" version="2" timestamp="2009-10-03T17:44:08Z" uid="179968" user="Ich_hasse_doitsche_OSM-Korinthenkacker" changeset="2727120">
    <nd ref="518109993"/>
    <nd ref="518109995"/>
    <nd ref="518109994"/>
    <nd ref="518109992"/>
    <nd ref="518109993"/>
    <tag k="addr:housenumber" v="65"/>
    <tag k="addr:street" v="Herterichstraße"/>
    <tag k="amenity" v="restaurant"/>
    <tag k="building" v="yes"/>
    <tag k="cuisine" v="regional"/>
    <tag k="name" v="Sollner Hof"/>
    <tag k="url" v="http://www.sollnerhof.de/"/>
  </way>
  <way id="41881004" version="3" timestamp="2010-05-09T20:07:38Z" uid="30579" user="Tiramisu" changeset="4653615">
    <nd ref="518109993"/>
    <nd ref="518109995"/>
    <nd ref="518109994"/>
    <nd ref="518109992"/>
    <nd ref="518109993"/>
    <tag k="addr:housenumber" v="65"/>
    <tag k="addr:street" v="Herterichstraße"/>
    <tag k="amenity" v="restaurant"/>
    <tag k="building" v="yes"/>
    <tag k="cuisine" v="regional"/>
    <tag k="name" v="Sollner Hof"/>
    <tag k="website" v="http://www.sollnerhof.de/"/>
  </way>
  <way id="41881005" version="1" timestamp="2009-10-02T20:43:14Z" uid="86259" user="hasse_osm_korinthenkacker" changeset="2717407">
    <nd ref="518109988"/>
    <nd ref="518109985"/>
    <nd ref="518109984"/>
    <nd ref="518109987"/>
    <nd ref="518109988"/>
    <tag k="addr:housenumber" v="15"/>
    <tag k="addr:street" v="Bleibtreustraße"/>
    <tag k="building" v="yes"/>
    <tag k="name" v="Hotel Heigl"/>
    <tag k="source" v="Yahoo;survey"/>
    <tag k="tourism" v="hotel"/>
    <tag k="url" v="http://www.hotelheigl.de/"/>
  </way>
  <way id="41881005" version="2" timestamp="2009-10-03T17:44:09Z" uid="179968" user="Ich_hasse_doitsche_OSM-Korinthenkacker" changeset="2727120">
    <nd ref="518109988"/>
    <nd ref="518109985"/>
    <nd ref="518109984"/>
    <nd ref="518109987"/>
    <nd ref="518109988"/>
    <tag k="addr:housenumber" v="15"/>
    <tag k="addr:street" v="Bleibtreustraße"/>
    <tag k="building" v="yes"/>
    <tag k="name" v="Hotel Heigl"/>
    <tag k="tourism" v="hotel"/>
    <tag k="url" v="http://www.hotelheigl.de/"/>
  </way>
  <way id="41881005" version="3" timestamp="2010-05-09T20:07:36Z" uid="30579" user="Tiramisu" changeset="4653615">
    <nd ref="518109988"/>
    <nd ref="518109985"/>
    <nd ref="518109984"/>
    <nd ref="518109987"/>
    <nd ref="518109988"/>
    <tag k="addr:housenumber" v="15"/>
    <tag k="addr:street" v="Bleibtreustraße"/>
    <tag k="building" v="yes"/>
    <tag k="name" v="Hotel Heigl"/>
    <tag k="tourism" v="hotel"/>
    <tag k="website" v="http://www.hotelheigl.de/"/>
  </way>
  <way id="41881005" version="4" timestamp="2012-01-28T22:34:56Z" uid="12982" user="Michael Schulze" changeset="10525649">
    <nd ref="518109988"/>
    <nd ref="518109985"/>
    <nd ref="518109984"/>
    <nd ref="518109987"/>
    <nd ref="518109988"/>
    <tag k="addr:housenumber" v="15"/>
    <tag k="addr:street" v="Bleibtreustraße"/>
    <tag k="building" v="yes"/>
    <tag k="name" v="Hotel Heigl"/>
    <tag k="stars" v="3"/>
    <tag k="tourism" v="hotel"/>
    <tag k="website" v="http://www.hotelheigl.de/"/>
  </way>
  <way id="41881006" version="1" timestamp="2009-10-02T20:43:15Z" uid="86259" user="hasse_osm_korinthenkacker" changeset="2717407">
    <nd ref="518113157"/>
    <nd ref="518113151"/>
    <nd ref="518113161"/>
    <nd ref="518113162"/>
    <nd ref="518113157"/>
    <tag k="addr:housenumber" v="79"/>
    <tag k="addr:street" v="Weltistraße"/>
    <tag k="building" v="yes"/>
    <tag k="source" v="Yahoo,survey"/>
  </way>
  <way id="41881006" version="2" timestamp="2009-10-03T17:44:09Z" uid="179968" user="Ich_hasse_doitsche_OSM-Korinthenkacker" changeset="2727120">
    <nd ref="518113157"/>
    <nd ref="518113151"/>
    <nd ref="518113161"/>
    <nd ref="518113162"/>
    <nd ref="518113157"/>
    <tag k="addr:housenumber" v="79"/>
    <tag k="addr:street" v="Weltistraße"/>
    <tag k="building" v="yes"/>
  </way>
  <way id="41881006" version="3" timestamp="2010-05-08T20:58:31Z" uid="36809" user="pfoten_weg_!_" changeset="4643009"/>
  <way id="41881006" version="4" timestamp="2010-05-09T08:52:21Z" uid="145231" user="woodpeck_repair" changeset="4645739">
    <nd ref="518113157"/>
    <nd ref="518113151"/>
    <nd ref="518113161"/>
    <nd ref="518113162"/>
    <nd ref="518113157"/>
    <tag k="addr:housenumber" v="79"/>
    <tag k="addr:street" v="Weltistraße"/>
    <tag k="building" v="yes"/>
  </way>
  <way id="41881006" version="5" timestamp="2010-06-01T14:23:32Z" uid="30579" user="Tiramisu" changeset="4874979">
    <nd ref="518113157"/>
    <nd ref="518113151"/>
    <nd ref="518113161"/>
    <nd ref="518113162"/>
    <nd ref="518113157"/>
    <tag k="addr:city" v="München"/>
    <tag k="addr:country" v="DE"/>
    <tag k="addr:housenumber" v="79"/>
    <tag k="addr:postcode" v="81477"/>
    <tag k="addr:street" v="Weltistraße"/>
    <tag k="building" v="yes"/>
  </way>
  <way id="41881006" version="6" timestamp="2011-06-19T14:00:10Z" uid="11374" user="q_un_go" changeset="8484288">
    <nd ref="518113157"/>
    <nd ref="1330858009"/>
    <nd ref="1330858056"/>
    <nd ref="518113151"/>
    <nd ref="518113161"/>
    <nd ref="518113162"/>
    <nd ref="518113157"/>
    <tag k="addr:city" v="München"/>
    <tag k="addr:country" v="DE"/>
    <tag k="addr:housenumber" v="79"/>
    <tag k="addr:postcode" v="81477"/>
    <tag k="addr:street" v="Weltistraße"/>
    <tag k="building" v="yes"/>
  </way>
  <way id="41881007" version="1" timestamp="2009-10-02T20:43:15Z" uid="86259" user="hasse_osm_korinthenkacker" changeset="2717407">
    <nd ref="518109566"/>
    <nd ref="518109558"/>
    <nd ref="518109560"/>
    <nd ref="518109568"/>
    <nd ref="518109566"/>
    <tag k="addr:housenumber" v="14a"/>
    <tag k="addr:street" v="-Leibl-Straße"/>
    <tag k="building" v="yes"/>
    <tag k="source" v="Yahoo;survey"/>
  </way>
  <way id="41881007" version="2" timestamp="2009-10-03T17:44:09Z" uid="179968" user="Ich_hasse_doitsche_OSM-Korinthenkacker" changeset="2727120">
    <nd ref="518109566"/>
    <nd ref="518109558"/>
    <nd ref="518109560"/>
    <nd ref="518109568"/>
    <nd ref="518109566"/>
    <tag k="addr:housenumber" v="14a"/>
    <tag k="addr:street" v="-Leibl-Straße"/>
    <tag k="building" v="yes"/>
  </way>
  <way id="41881007" version="3" timestamp="2009-10-15T21:26:14Z" uid="36809" user="pfoten_weg_!_" changeset="2859750"/>
  <way id="41881008" version="1" timestamp="2009-10-02T20:43:15Z" uid="86259" user="hasse_osm_korinthenkacker" changeset="2717407">
    <nd ref="518109656"/>
    <nd ref="518109673"/>
    <nd ref="518109675"/>
    <nd ref="518109641"/>
    <nd ref="518109656"/>
    <tag k="addr:housenumber" v="12"/>
    <tag k="addr:street" v="-Leibl-Straße"/>
    <tag k="building" v="yes"/>
    <tag k="source" v="Yahoo;survey"/>
  </way>
  <way id="41881008" version="2" timestamp="2009-10-03T17:44:12Z" uid="179968" user="Ich_hasse_doitsche_OSM-Korinthenkacker" changeset="2727120">
    <nd ref="518109656"/>
    <nd ref="518109673"/>
    <nd ref="518109675"/>
    <nd ref="518109641"/>
    <nd ref="518109656"/>
    <tag k="addr:housenumber" v="12"/>
    <tag k="addr:street" v="-Leibl-Straße"/>
    <tag k="building" v="yes"/>
  </way>
  <way id="41881008" version="3" timestamp="2009-10-15T21:21:49Z" uid="36809" user="pfoten_weg_!_" changeset="2859725">
    <nd ref="518109656"/>
    <nd ref="518109673"/>
    <nd ref="518109675"/>
    <nd ref="518109641"/>
    <nd ref="518109656"/>
    <tag k="building" v="yes"/>
  </way>
  <way id="41881008" version="4" timestamp="2009-10-15T21:26:12Z" uid="36809" user="pfoten_weg_!_" changeset="2859750"/>
  <way id="41881009" version="1" timestamp="2009-10-02T20:43:15Z" uid="86259" user="hasse_osm_korinthenkacker" changeset="2717407">
    <nd ref="518109627"/>
    <nd ref="518109630"/>
    <nd ref="518109624"/>
    <nd ref="518109654"/>
    <nd ref="518109575"/>
    <nd ref="518109634"/>
    <nd ref="518109638"/>
    <nd ref="518109621"/>
    <nd ref="518109627"/>
    <tag k="addr:housenumber" v="12a"/>
    <tag k="addr:street" v="-Leibl-Straße"/>
    <tag k="building" v="yes"/>
    <tag k="source" v="Yahoo;survey"/>
  </way>
  <way id="41881009" version="2" timestamp="2009-10-03T17:44:11Z" uid="179968" user="Ich_hasse_doitsche_OSM-Korinthenkacker" changeset="2727120">
    <nd ref="518109627"/>
    <nd ref="518109630"/>
    <nd ref="518109624"/>
    <nd ref="518109654"/>
    <nd ref="518109575"/>
    <nd ref="518109634"/>
    <nd ref="518109638"/>
    <nd ref="518109621"/>
    <nd ref="518109627"/>
    <tag k="addr:housenumber" v="12a"/>
    <tag k="addr:street" v="-Leibl-Straße"/>
    <tag k="building" v="yes"/>
  </way>
  <way id="41881009" version="3" timestamp="2009-10-15T21:26:15Z" uid="36809" user="pfoten_weg_!_" changeset="2859750"/>
  <way id="41881011" version="1" timestamp="2009-10-02T20:43:15Z" uid="86259" user="hasse_osm_korinthenkacker" changeset="2717407">
    <nd ref="518109570"/>
    <nd ref="518109572"/>
    <nd ref="518109591"/>
    <nd ref="518109594"/>
    <nd ref="518109597"/>
    <nd ref="518109585"/>
    <nd ref="518109582"/>
    <nd ref="518109588"/>
    <nd ref="518109570"/>
    <tag k="addr:housenumber" v="14"/>
    <tag k="addr:street" v="-Leibl-Straße"/>
    <tag k="building" v="yes"/>
    <tag k="source" v="Yahoo;survey"/>
  </way>
  <way id="41881011" version="2" timestamp="2009-10-03T17:44:12Z" uid="179968" user="Ich_hasse_doitsche_OSM-Korinthenkacker" changeset="2727120">
    <nd ref="518109570"/>
    <nd ref="518109572"/>
    <nd ref="518109591"/>
    <nd ref="518109594"/>
    <nd ref="518109597"/>
    <nd ref="518109585"/>
    <nd ref="518109582"/>
    <nd ref="518109588"/>
    <nd ref="518109570"/>
    <tag k="addr:housenumber" v="14"/>
    <tag k="addr:street" v="-Leibl-Straße"/>
    <tag k="building" v="yes"/>
  </way>
  <way id="41881011" version="3" timestamp="2009-10-15T21:21:49Z" uid="36809" user="pfoten_weg_!_" changeset="2859725">
    <nd ref="518109570"/>
    <nd ref="518109572"/>
    <nd ref="518109591"/>
    <nd ref="518109594"/>
    <nd ref="518109597"/>
    <nd ref="518109585"/>
    <nd ref="518109582"/>
    <nd ref="518109588"/>
    <nd ref="518109570"/>
    <tag k="building" v="yes"/>
  </way>
  <way id="41881011" version="4" timestamp="2009-10-15T21:26:13Z" uid="36809" user="pfoten_weg_!_" changeset="2859750"/>
  <way id="41881012" version="1" timestamp="2009-10-02T20:43:15Z" uid="86259" user="hasse_osm_korinthenkacker" changeset="2717407">
    <nd ref="518109562"/>
    <nd ref="518109564"/>
    <nd ref="518109579"/>
    <nd ref="518109577"/>
    <nd ref="518109562"/>
    <tag k="addr:housenumber" v="16"/>
    <tag k="addr:street" v="-Leibl-Straße"/>
    <tag k="building" v="yes"/>
    <tag k="name" v="Villa Solln"/>
    <tag k="source" v="Yahoo;survey"/>
    <tag k="tourism" v="hotel"/>
    <tag k="url" v="http://www.villasolln.de/"/>
  </way>
  <way id="41881012" version="2" timestamp="2009-10-03T17:44:10Z" uid="179968" user="Ich_hasse_doitsche_OSM-Korinthenkacker" changeset="2727120">
    <nd ref="518109562"/>
    <nd ref="518109564"/>
    <nd ref="518109579"/>
    <nd ref="518109577"/>
    <nd ref="518109562"/>
    <tag k="addr:housenumber" v="16"/>
    <tag k="addr:street" v="-Leibl-Straße"/>
    <tag k="building" v="yes"/>
    <tag k="name" v="Villa Solln"/>
    <tag k="tourism" v="hotel"/>
    <tag k="url" v="http://www.villasolln.de/"/>
  </way>
  <way id="41881012" version="3" timestamp="2009-10-15T21:21:48Z" uid="36809" user="pfoten_weg_!_" changeset="2859725">
    <nd ref="518109562"/>
    <nd ref="518109564"/>
    <nd ref="518109579"/>
    <nd ref="518109577"/>
    <nd ref="518109562"/>
    <tag k="building" v="yes"/>
    <tag k="name" v="Villa Solln"/>
    <tag k="tourism" v="hotel"/>
    <tag k="url" v="http://www.villasolln.de/"/>
  </way>
  <way id="41881012" version="4" timestamp="2009-10-15T21:26:13Z" uid="36809" user="pfoten_weg_!_" changeset="2859750"/>
  <way id="41881013" version="1" timestamp="2009-10-02T20:43:15Z" uid="86259" user="hasse_osm_korinthenkacker" changeset="2717407">
    <nd ref="518109657"/>
    <nd ref="518109677"/>
    <nd ref="518109663"/>
    <nd ref="518109660"/>
    <nd ref="518109657"/>
    <tag k="addr:housenumber" v="10"/>
    <tag k="addr:street" v="-Leibl-Straße"/>
    <tag k="building" v="yes"/>
    <tag k="source" v="Yahoo;survey"/>
  </way>
  <way id="41881013" version="2" timestamp="2009-10-03T17:44:10Z" uid="179968" user="Ich_hasse_doitsche_OSM-Korinthenkacker" changeset="2727120">
    <nd ref="518109657"/>
    <nd ref="518109677"/>
    <nd ref="518109663"/>
    <nd ref="518109660"/>
    <nd ref="518109657"/>
    <tag k="addr:housenumber" v="10"/>
    <tag k="addr:street" v="-Leibl-Straße"/>
    <tag k="building" v="yes"/>
  </way>
  <way id="41881013" version="3" timestamp="2009-10-15T21:21:48Z" uid="36809" user="pfoten_weg_!_" changeset="2859725">
    <nd ref="518109657"/>
    <nd ref="518109677"/>
    <nd ref="518109663"/>
    <nd ref="518109660"/>
    <nd ref="518109657"/>
    <tag k="building" v="yes"/>
  </way>
  <way id="41881013" version="4" timestamp="2009-10-15T21:26:13Z" uid="36809" user="pfoten_weg_!_" changeset="2859750"/>
  <way id="41881014" version="1" timestamp="2009-10-02T20:43:15Z" uid="86259" user="hasse_osm_korinthenkacker" changeset="2717407">
    <nd ref="518112790"/>
    <nd ref="518112772"/>
    <nd ref="518112769"/>
    <nd ref="518112767"/>
    <nd ref="518112790"/>
    <tag k="addr:city" v="München"/>
    <tag k="addr:country" v="DE"/>
    <tag k="addr:housenumber" v="30"/>
    <tag k="addr:postcode" v="81476"/>
    <tag k="addr:street" v="Liesl-Karlstadt-Straße"/>
    <tag k="building" v="yes"/>
    <tag k="source" v="survey"/>
  </way>
  <way id="41881014" version="2" timestamp="2009-10-12T22:08:06Z" uid="36809" user="pfoten_weg_!_" changeset="2831291">
    <nd ref="518112790"/>
    <nd ref="518112772"/>
    <nd ref="518112769"/>
    <nd ref="518112767"/>
    <nd ref="518112790"/>
    <tag k="addr:city" v="München"/>
    <tag k="addr:country" v="DE"/>
    <tag k="addr:housenumber" v="30"/>
    <tag k="addr:postcode" v="81476"/>
    <tag k="addr:street" v="Liesl-Karlstadt-Straße"/>
    <tag k="building" v="yes"/>
  </way>
  <way id="41881015" version="1" timestamp="2009-10-02T20:43:16Z" uid="86259" user="hasse_osm_korinthenkacker" changeset="2717407">
    <nd ref="518114062"/>
    <nd ref="518114086"/>
    <nd ref="518114054"/>
    <nd ref="518114058"/>
    <nd ref="518114062"/>
    <tag k="addr:housenumber" v="17"/>
    <tag k="addr:street" v="Weltistraße"/>
    <tag k="building" v="yes"/>
    <tag k="source" v="Yahoo,survey"/>
  </way>
  <way id="41881015" version="2" timestamp="2009-10-03T17:44:11Z" uid="179968" user="Ich_hasse_doitsche_OSM-Korinthenkacker" changeset="2727120">
    <nd ref="518114062"/>
    <nd ref="518114086"/>
    <nd ref="518114054"/>
    <nd ref="518114058"/>
    <nd ref="518114062"/>
    <tag k="addr:housenumber" v="17"/>
    <tag k="addr:street" v="Weltistraße"/>
    <tag k="building" v="yes"/>
  </way>
  <way id="41881015" version="3" timestamp="2010-05-08T20:58:29Z" uid="36809" user="pfoten_weg_!_" changeset="4643009"/>
  <way id="41881015" version="4" timestamp="2010-05-09T08:52:20Z" uid="145231" user="woodpeck_repair" changeset="4645739">
    <nd ref="518114062"/>
    <nd ref="518114086"/>
    <nd ref="518114054"/>
    <nd ref="518114058"/>
    <nd ref="518114062"/>
    <tag k="addr:housenumber" v="17"/>
    <tag k="addr:street" v="Weltistraße"/>
    <tag k="building" v="yes"/>
  </way>
  <way id="41881015" version="5" timestamp="2010-06-01T14:23:31Z" uid="30579" user="Tiramisu" changeset="4874979">
    <nd ref="518114062"/>
    <nd ref="518114086"/>
    <nd ref="518114054"/>
    <nd ref="518114058"/>
    <nd ref="518114062"/>
    <tag k="addr:city" v="München"/>
    <tag k="addr:country" v="DE"/>
    <tag k="addr:housenumber" v="17"/>
    <tag k="addr:postcode" v="81477"/>
    <tag k="addr:street" v="Weltistraße"/>
    <tag k="building" v="yes"/>
  </way>
  <way id="41881015" version="6" timestamp="2010-06-06T19:34:16Z" uid="30579" user="Tiramisu" changeset="4921634">
    <nd ref="518114062"/>
    <nd ref="518114086"/>
    <nd ref="518114054"/>
    <nd ref="518114058"/>
    <nd ref="518114062"/>
    <tag k="addr:city" v="München"/>
    <tag k="addr:country" v="DE"/>
    <tag k="addr:housenumber" v="17"/>
    <tag k="addr:postcode" v="81477"/>
    <tag k="addr:street" v="Geigenbergerstraße"/>
    <tag k="building" v="yes"/>
  </way>
  <way id="41881016" version="1" timestamp="2009-10-02T20:43:16Z" uid="86259" user="hasse_osm_korinthenkacker" changeset="2717407">
    <nd ref="518113244"/>
    <nd ref="518113251"/>
    <nd ref="518113253"/>
    <nd ref="518113255"/>
    <nd ref="518113244"/>
    <tag k="addr:housenumber" v="31"/>
    <tag k="addr:street" v="Weltistraße"/>
    <tag k="building" v="yes"/>
    <tag k="source" v="Yahoo,survey"/>
  </way>
  <way id="41881016" version="2" timestamp="2009-10-03T17:44:12Z" uid="179968" user="Ich_hasse_doitsche_OSM-Korinthenkacker" changeset="2727120">
    <nd ref="518113244"/>
    <nd ref="518113251"/>
    <nd ref="518113253"/>
    <nd ref="518113255"/>
    <nd ref="518113244"/>
    <tag k="addr:housenumber" v="31"/>
    <tag k="addr:street" v="Weltistraße"/>
    <tag k="building" v="yes"/>
  </way>
  <way id="41881016" version="3" timestamp="2010-05-08T20:58:31Z" uid="36809" user="pfoten_weg_!_" changeset="4643009"/>
  <way id="41881016" version="4" timestamp="2010-05-09T08:52:18Z" uid="145231" user="woodpeck_repair" changeset="4645739">
    <nd ref="518113244"/>
    <nd ref="518113251"/>
    <nd ref="518113253"/>
    <nd ref="518113255"/>
    <nd ref="518113244"/>
    <tag k="addr:housenumber" v="31"/>
    <tag k="addr:street" v="Weltistraße"/>
    <tag k="building" v="yes"/>
  </way>
  <way id="41881016" version="5" timestamp="2010-06-01T14:23:30Z" uid="30579" user="Tiramisu" changeset="4874979">
    <nd ref="518113244"/>
    <nd ref="518113251"/>
    <nd ref="518113253"/>
    <nd ref="518113255"/>
    <nd ref="518113244"/>
    <tag k="addr:city" v="München"/>
    <tag k="addr:country" v="DE"/>
    <tag k="addr:housenumber" v="31"/>
    <tag k="addr:postcode" v="81477"/>
    <tag k="addr:street" v="Weltistraße"/>
    <tag k="building" v="yes"/>
  </way>
  <way id="41881016" version="6" timestamp="2010-06-06T19:34:15Z" uid="30579" user="Tiramisu" changeset="4921634">
    <nd ref="518113244"/>
    <nd ref="518113251"/>
    <nd ref="518113253"/>
    <nd ref="518113255"/>
    <nd ref="518113244"/>
    <tag k="addr:city" v="München"/>
    <tag k="addr:country" v="DE"/>
    <tag k="addr:housenumber" v="31"/>
    <tag k="addr:postcode" v="81477"/>
    <tag k="addr:street" v="Geigenbergerstraße"/>
    <tag k="building" v="yes"/>
  </way>
  <way id="41881017" version="1" timestamp="2009-10-02T20:43:16Z" uid="86259" user="hasse_osm_korinthenkacker" changeset="2717407">
    <nd ref="518113155"/>
    <nd ref="518113153"/>
    <nd ref="518113144"/>
    <nd ref="518113146"/>
    <nd ref="518113155"/>
    <tag k="addr:housenumber" v="77"/>
    <tag k="addr:street" v="Weltistraße"/>
    <tag k="building" v="yes"/>
    <tag k="source" v="Yahoo,survey"/>
  </way>
  <way id="41881017" version="2" timestamp="2009-10-03T17:44:12Z" uid="179968" user="Ich_hasse_doitsche_OSM-Korinthenkacker" changeset="2727120">
    <nd ref="518113155"/>
    <nd ref="518113153"/>
    <nd ref="518113144"/>
    <nd ref="518113146"/>
    <nd ref="518113155"/>
    <tag k="addr:housenumber" v="77"/>
    <tag k="addr:street" v="Weltistraße"/>
    <tag k="building" v="yes"/>
  </way>
  <way id="41881017" version="3" timestamp="2010-05-08T20:58:31Z" uid="36809" user="pfoten_weg_!_" changeset="4643009"/>
  <way id="41881017" version="4" timestamp="2010-05-09T08:52:18Z" uid="145231" user="woodpeck_repair" changeset="4645739">
    <nd ref="518113155"/>
    <nd ref="518113153"/>
    <nd ref="518113144"/>
    <nd ref="518113146"/>
    <nd ref="518113155"/>
    <tag k="addr:housenumber" v="77"/>
    <tag k="addr:street" v="Weltistraße"/>
    <tag k="building" v="yes"/>
  </way>
  <way id="41881017" version="5" timestamp="2010-06-01T14:23:22Z" uid="30579" user="Tiramisu" changeset="4874979">
    <nd ref="518113155"/>
    <nd ref="518113153"/>
    <nd ref="518113144"/>
    <nd ref="518113146"/>
    <nd ref="518113155"/>
    <tag k="addr:city" v="München"/>
    <tag k="addr:country" v="DE"/>
    <tag k="addr:housenumber" v="77"/>
    <tag k="addr:postcode" v="81477"/>
    <tag k="addr:street" v="Weltistraße"/>
    <tag k="building" v="yes"/>
  </way>
  <way id="41881018" version="1" timestamp="2009-10-02T20:43:16Z" uid="86259" user="hasse_osm_korinthenkacker" changeset="2717407">
    <nd ref="518113126"/>
    <nd ref="518113138"/>
    <nd ref="518113140"/>
    <nd ref="518113142"/>
    <nd ref="518113136"/>
    <nd ref="518113116"/>
    <nd ref="518113130"/>
    <nd ref="518113128"/>
    <nd ref="518113126"/>
    <tag k="addr:housenumber" v="45,47"/>
    <tag k="addr:street" v="Uhdestraße"/>
    <tag k="alt_name" v="Appertement Pension Welti"/>
    <tag k="building" v="yes"/>
    <tag k="name" v="Pension Welti"/>
    <tag k="source" v="Yahoo,survey"/>
    <tag k="tourism" v="hotel"/>
    <tag k="url" v="http://www.hotel-munich.de/"/>
  </way>
  <way id="41881018" version="2" timestamp="2009-10-03T17:44:12Z" uid="179968" user="Ich_hasse_doitsche_OSM-Korinthenkacker" changeset="2727120">
    <nd ref="518113126"/>
    <nd ref="518113138"/>
    <nd ref="518113140"/>
    <nd ref="518113142"/>
    <nd ref="518113136"/>
    <nd ref="518113116"/>
    <nd ref="518113130"/>
    <nd ref="518113128"/>
    <nd ref="518113126"/>
    <tag k="addr:housenumber" v="45,47"/>
    <tag k="addr:street" v="Uhdestraße"/>
    <tag k="alt_name" v="Appertement Pension Welti"/>
    <tag k="building" v="yes"/>
    <tag k="name" v="Pension Welti"/>
    <tag k="tourism" v="hotel"/>
    <tag k="url" v="http://www.hotel-munich.de/"/>
  </way>
  <way id="41881018" version="3" timestamp="2010-05-08T20:58:30Z" uid="36809" user="pfoten_weg_!_" changeset="4643009"/>
  <way id="41881018" version="4" timestamp="2010-05-09T08:52:17Z" uid="145231" user="woodpeck_repair" changeset="4645739">
    <nd ref="518113126"/>
    <nd ref="518113138"/>
    <nd ref="518113140"/>
    <nd ref="518113142"/>
    <nd ref="518113136"/>
    <nd ref="518113116"/>
    <nd ref="518113130"/>
    <nd ref="518113128"/>
    <nd ref="518113126"/>
    <tag k="addr:housenumber" v="45,47"/>
    <tag k="addr:street" v="Uhdestraße"/>
    <tag k="alt_name" v="Appertement Pension Welti"/>
    <tag k="building" v="yes"/>
    <tag k="name" v="Pension Welti"/>
    <tag k="tourism" v="hotel"/>
    <tag k="url" v="http://www.hotel-munich.de/"/>
  </way>
  <way id="41881018" version="5" timestamp="2010-06-01T14:23:29Z" uid="30579" user="Tiramisu" changeset="4874979">
    <nd ref="518113126"/>
    <nd ref="518113138"/>
    <nd ref="518113140"/>
    <nd ref="518113142"/>
    <nd ref="518113136"/>
    <nd ref="518113116"/>
    <nd ref="518113130"/>
    <nd ref="518113128"/>
    <nd ref="518113126"/>
    <tag k="addr:city" v="München"/>
    <tag k="addr:country" v="DE"/>
    <tag k="addr:housenumber" v="45,47"/>
    <tag k="addr:postcode" v="81477"/>
    <tag k="addr:street" v="Uhdestraße"/>
    <tag k="alt_name" v="Appertement Pension Welti"/>
    <tag k="building" v="yes"/>
    <tag k="name" v="Pension Welti"/>
    <tag k="tourism" v="hotel"/>
    <tag k="url" v="http://www.hotel-munich.de/"/>
  </way>
  <way id="41881018" version="6" timestamp="2011-07-02T20:18:55Z" uid="11374" user="q_un_go" changeset="8611952">
    <nd ref="518113126"/>
    <nd ref="518113138"/>
    <nd ref="1347265719"/>
    <nd ref="1347265559"/>
    <nd ref="1347265775"/>
    <nd ref="1347265805"/>
    <nd ref="518113140"/>
    <nd ref="518113142"/>
    <nd ref="518113136"/>
    <nd ref="518113116"/>
    <nd ref="518113130"/>
    <nd ref="518113128"/>
    <nd ref="518113126"/>
    <tag k="addr:city" v="München"/>
    <tag k="addr:country" v="DE"/>
    <tag k="addr:housenumber" v="45,47"/>
    <tag k="addr:postcode" v="81477"/>
    <tag k="addr:street" v="Uhdestraße"/>
    <tag k="alt_name" v="Appertement Pension Welti"/>
    <tag k="building" v="yes"/>
    <tag k="name" v="Pension Welti"/>
    <tag k="tourism" v="hotel"/>
    <tag k="url" v="http://www.hotel-munich.de/"/>
  </way>
  <way id="41881019" version="1" timestamp="2009-10-02T20:43:16Z" uid="86259" user="hasse_osm_korinthenkacker" changeset="2717407">
    <nd ref="518113094"/>
    <nd ref="518113092"/>
    <nd ref="518113096"/>
    <nd ref="518113098"/>
    <nd ref="518113094"/>
    <tag k="addr:housenumber" v="96"/>
    <tag k="addr:street" v="Weltistraße"/>
    <tag k="building" v="yes"/>
    <tag k="source" v="yahoo_aerial;survey"/>
  </way>
  <way id="41881019" version="2" timestamp="2009-10-03T17:44:12Z" uid="179968" user="Ich_hasse_doitsche_OSM-Korinthenkacker" changeset="2727120">
    <nd ref="518113094"/>
    <nd ref="518113092"/>
    <nd ref="518113096"/>
    <nd ref="518113098"/>
    <nd ref="518113094"/>
    <tag k="addr:housenumber" v="96"/>
    <tag k="addr:street" v="Weltistraße"/>
    <tag k="building" v="yes"/>
  </way>
  <way id="41881019" version="3" timestamp="2010-05-08T20:58:30Z" uid="36809" user="pfoten_weg_!_" changeset="4643009"/>
  <way id="41881019" version="4" timestamp="2010-05-09T08:52:15Z" uid="145231" user="woodpeck_repair" changeset="4645739">
    <nd ref="518113094"/>
    <nd ref="518113092"/>
    <nd ref="518113096"/>
    <nd ref="518113098"/>
    <nd ref="518113094"/>
    <tag k="addr:housenumber" v="96"/>
    <tag k="addr:street" v="Weltistraße"/>
    <tag k="building" v="yes"/>
  </way>
  <way id="41881020" version="1" timestamp="2009-10-02T20:43:16Z" uid="86259" user="hasse_osm_korinthenkacker" changeset="2717407">
    <nd ref="518113090"/>
    <nd ref="518112998"/>
    <nd ref="518113006"/>
    <nd ref="518113149"/>
    <nd ref="518113090"/>
    <tag k="addr:housenumber" v="98"/>
    <tag k="addr:street" v="Weltistraße"/>
    <tag k="building" v="yes"/>
    <tag k="source" v="yahoo_aerial;survey"/>
  </way>
  <way id="41881020" version="2" timestamp="2009-10-03T17:44:12Z" uid="179968" user="Ich_hasse_doitsche_OSM-Korinthenkacker" changeset="2727120">
    <nd ref="518113090"/>
    <nd ref="518112998"/>
    <nd ref="518113006"/>
    <nd ref="518113149"/>
    <nd ref="518113090"/>
    <tag k="addr:housenumber" v="98"/>
    <tag k="addr:street" v="Weltistraße"/>
    <tag k="building" v="yes"/>
  </way>
  <way id="41881020" version="3" timestamp="2010-05-08T20:58:31Z" uid="36809" user="pfoten_weg_!_" changeset="4643009"/>
  <way id="41881020" version="4" timestamp="2010-05-09T08:52:15Z" uid="145231" user="woodpeck_repair" changeset="4645739">
    <nd ref="518113090"/>
    <nd ref="518112998"/>
    <nd ref="518113006"/>
    <nd ref="518113149"/>
    <nd ref="518113090"/>
    <tag k="addr:housenumber" v="98"/>
    <tag k="addr:street" v="Weltistraße"/>
    <tag k="building" v="yes"/>
  </way>
  <way id="41881021" version="1" timestamp="2009-10-02T20:43:16Z" uid="86259" user="hasse_osm_korinthenkacker" changeset="2717407">
    <nd ref="518113081"/>
    <nd ref="518113079"/>
    <nd ref="518113083"/>
    <nd ref="518113086"/>
    <nd ref="518113081"/>
    <tag k="addr:housenumber" v="3"/>
    <tag k="addr:street" v="Wengleinstraße"/>
    <tag k="building" v="yes"/>
    <tag k="source" v="yahoo_aerial;survey"/>
  </way>
  <way id="41881021" version="2" timestamp="2009-10-03T17:44:12Z" uid="179968" user="Ich_hasse_doitsche_OSM-Korinthenkacker" changeset="2727120">
    <nd ref="518113081"/>
    <nd ref="518113079"/>
    <nd ref="518113083"/>
    <nd ref="518113086"/>
    <nd ref="518113081"/>
    <tag k="addr:housenumber" v="3"/>
    <tag k="addr:street" v="Wengleinstraße"/>
    <tag k="building" v="yes"/>
  </way>
  <way id="41881021" version="3" timestamp="2009-10-13T22:03:15Z" uid="36809" user="pfoten_weg_!_" changeset="2840990">
    <nd ref="518113081"/>
    <nd ref="518113086"/>
    <nd ref="518113083"/>
    <nd ref="518113079"/>
    <nd ref="530262653"/>
    <nd ref="518113081"/>
    <tag k="addr:housenumber" v="3"/>
    <tag k="addr:street" v="Wengleinstraße"/>
    <tag k="building" v="yes"/>
  </way>
  <way id="41881021" version="4" timestamp="2009-10-13T22:40:47Z" uid="36809" user="pfoten_weg_!_" changeset="2841133"/>
  <way id="41881023" version="1" timestamp="2009-10-02T20:43:16Z" uid="86259" user="hasse_osm_korinthenkacker" changeset="2717407">
    <nd ref="518113086"/>
    <nd ref="518113088"/>
    <nd ref="518113109"/>
    <nd ref="518113106"/>
    <nd ref="518113086"/>
    <tag k="addr:housenumber" v="1"/>
    <tag k="addr:street" v="Wengleinstraße"/>
    <tag k="building" v="yes"/>
    <tag k="source" v="yahoo_aerial;survey"/>
  </way>
  <way id="41881023" version="2" timestamp="2009-10-03T17:44:12Z" uid="179968" user="Ich_hasse_doitsche_OSM-Korinthenkacker" changeset="2727120">
    <nd ref="518113086"/>
    <nd ref="518113088"/>
    <nd ref="518113109"/>
    <nd ref="518113106"/>
    <nd ref="518113086"/>
    <tag k="addr:housenumber" v="1"/>
    <tag k="addr:street" v="Wengleinstraße"/>
    <tag k="building" v="yes"/>
  </way>
  <way id="41881023" version="3" timestamp="2009-10-13T22:03:15Z" uid="36809" user="pfoten_weg_!_" changeset="2840990"/>
  <way id="41881024" version="1" timestamp="2009-10-02T20:43:17Z" uid="86259" user="hasse_osm_korinthenkacker" changeset="2717407">
    <nd ref="518113849"/>
    <nd ref="518113872"/>
    <nd ref="518113221"/>
    <nd ref="518113225"/>
    <nd ref="518113227"/>
    <nd ref="518113223"/>
    <nd ref="518113212"/>
    <nd ref="518113219"/>
    <nd ref="518113230"/>
    <nd ref="518113234"/>
    <nd ref="518113232"/>
    <nd ref="518113188"/>
    <nd ref="518113849"/>
    <tag k="addr:housenumber" v="39,41,43"/>
    <tag k="addr:street" v="Geigenbergerstraße"/>
    <tag k="building" v="yes"/>
    <tag k="source" v="Yahoo,survey"/>
  </way>
  <way id="41881024" version="2" timestamp="2009-10-03T17:44:19Z" uid="179968" user="Ich_hasse_doitsche_OSM-Korinthenkacker" changeset="2727120">
    <nd ref="518113849"/>
    <nd ref="518113872"/>
    <nd ref="518113221"/>
    <nd ref="518113225"/>
    <nd ref="518113227"/>
    <nd ref="518113223"/>
    <nd ref="518113212"/>
    <nd ref="518113219"/>
    <nd ref="518113230"/>
    <nd ref="518113234"/>
    <nd ref="518113232"/>
    <nd ref="518113188"/>
    <nd ref="518113849"/>
    <tag k="addr:housenumber" v="39,41,43"/>
    <tag k="addr:street" v="Geigenbergerstraße"/>
    <tag k="building" v="yes"/>
  </way>
  <way id="41881024" version="3" timestamp="2010-05-08T20:58:31Z" uid="36809" user="pfoten_weg_!_" changeset="4643009"/>
  <way id="41881024" version="4" timestamp="2010-05-09T08:52:14Z" uid="145231" user="woodpeck_repair" changeset="4645739">
    <nd ref="518113849"/>
    <nd ref="518113872"/>
    <nd ref="518113221"/>
    <nd ref="518113225"/>
    <nd ref="518113227"/>
    <nd ref="518113223"/>
    <nd ref="518113212"/>
    <nd ref="518113219"/>
    <nd ref="518113230"/>
    <nd ref="518113234"/>
    <nd ref="518113232"/>
    <nd ref="518113188"/>
    <nd ref="518113849"/>
    <tag k="addr:housenumber" v="39,41,43"/>
    <tag k="addr:street" v="Geigenbergerstraße"/>
    <tag k="building" v="yes"/>
  </way>
  <way id="41881024" version="5" timestamp="2010-06-01T14:23:31Z" uid="30579" user="Tiramisu" changeset="4874979">
    <nd ref="518113849"/>
    <nd ref="518113872"/>
    <nd ref="518113221"/>
    <nd ref="518113225"/>
    <nd ref="518113227"/>
    <nd ref="518113223"/>
    <nd ref="518113212"/>
    <nd ref="518113219"/>
    <nd ref="518113230"/>
    <nd ref="518113234"/>
    <nd ref="518113232"/>
    <nd ref="518113188"/>
    <nd ref="518113849"/>
    <tag k="addr:city" v="München"/>
    <tag k="addr:country" v="DE"/>
    <tag k="addr:housenumber" v="39,41,43"/>
    <tag k="addr:postcode" v="81477"/>
    <tag k="addr:street" v="Geigenbergerstraße"/>
    <tag k="building" v="yes"/>
  </way>
  <way id="41881024" version="6" timestamp="2010-06-06T19:34:15Z" uid="30579" user="Tiramisu" changeset="4921634">
    <nd ref="518113849"/>
    <nd ref="518113872"/>
    <nd ref="518113221"/>
    <nd ref="518113225"/>
    <nd ref="518113227"/>
    <nd ref="518113223"/>
    <nd ref="518113212"/>
    <nd ref="518113219"/>
    <nd ref="518113230"/>
    <nd ref="518113234"/>
    <nd ref="518113232"/>
    <nd ref="518113188"/>
    <nd ref="518113849"/>
    <tag k="building" v="yes"/>
  </way>
  <way id="41881025" version="1" timestamp="2009-10-02T20:43:17Z" uid="86259" user="hasse_osm_korinthenkacker" changeset="2717407">
    <nd ref="518112935"/>
    <nd ref="518112934"/>
    <nd ref="518112933"/>
    <nd ref="518112932"/>
    <nd ref="518112935"/>
    <tag k="addr:housenumber" v="136"/>
    <tag k="addr:street" v="Herterichstraße"/>
    <tag k="amenity" v="restaurant"/>
    <tag k="building" v="yes"/>
    <tag k="cuisine" v="chinese"/>
    <tag k="name" v="China-Restaurant Pavillon"/>
    <tag k="source" v="local knowledge"/>
  </way>
  <way id="41881025" version="2" timestamp="2009-10-12T22:08:56Z" uid="36809" user="pfoten_weg_!_" changeset="2831291">
    <nd ref="518112935"/>
    <nd ref="518112934"/>
    <nd ref="518112933"/>
    <nd ref="518112932"/>
    <nd ref="518112935"/>
    <tag k="addr:housenumber" v="136"/>
    <tag k="addr:street" v="Herterichstraße"/>
    <tag k="amenity" v="restaurant"/>
    <tag k="building" v="yes"/>
    <tag k="cuisine" v="chinese"/>
    <tag k="name" v="China-Restaurant Pavillon"/>
  </way>
  <way id="41881025" version="3" timestamp="2010-07-03T18:33:36Z" uid="309463" user="gastromat" changeset="5126699">
    <nd ref="518112935"/>
    <nd ref="518112934"/>
    <nd ref="518112933"/>
    <nd ref="518112932"/>
    <nd ref="518112935"/>
    <tag k="addr:housenumber" v="136"/>
    <tag k="addr:street" v="Herterichstraße"/>
    <tag k="amenity" v="restaurant"/>
    <tag k="building" v="yes"/>
    <tag k="cuisine" v="chinese"/>
    <tag k="name" v="China-Restaurant Pavillon"/>
    <tag k="smoking" v="no"/>
  </way>
  <way id="41881026" version="1" timestamp="2009-10-02T20:43:17Z" uid="86259" user="hasse_osm_korinthenkacker" changeset="2717407">
    <nd ref="518113198"/>
    <nd ref="518113194"/>
    <nd ref="518113202"/>
    <nd ref="518113200"/>
    <nd ref="518113198"/>
    <tag k="addr:housenumber" v="67"/>
    <tag k="addr:street" v="Weltistraße"/>
  </way>
  <way id="41881026" version="2" timestamp="2010-05-08T20:58:30Z" uid="36809" user="pfoten_weg_!_" changeset="4643009"/>
  <way id="41881026" version="3" timestamp="2010-05-09T08:52:13Z" uid="145231" user="woodpeck_repair" changeset="4645739">
    <nd ref="518113198"/>
    <nd ref="518113194"/>
    <nd ref="518113202"/>
    <nd ref="518113200"/>
    <nd ref="518113198"/>
    <tag k="addr:housenumber" v="67"/>
    <tag k="addr:street" v="Weltistraße"/>
  </way>
  <way id="41881026" version="4" timestamp="2010-06-01T13:11:16Z" uid="30579" user="Tiramisu" changeset="4874444">
    <nd ref="518113198"/>
    <nd ref="518113194"/>
    <nd ref="518113202"/>
    <nd ref="518113200"/>
    <nd ref="518113198"/>
    <tag k="addr:city" v="München"/>
    <tag k="addr:country" v="DE"/>
    <tag k="addr:housenumber" v="67"/>
    <tag k="addr:postcode" v="81477"/>
    <tag k="addr:street" v="Weltistraße"/>
    <tag k="building" v="yes"/>
  </way>
  <way id="41881026" version="5" timestamp="2011-07-02T20:18:56Z" uid="11374" user="q_un_go" changeset="8611952">
    <nd ref="518113198"/>
    <nd ref="518113194"/>
    <nd ref="518113202"/>
    <nd ref="518113200"/>
    <nd ref="1347265512"/>
    <nd ref="1347265601"/>
    <nd ref="1347265642"/>
    <nd ref="518113198"/>
    <tag k="addr:city" v="München"/>
    <tag k="addr:country" v="DE"/>
    <tag k="addr:housenumber" v="67"/>
    <tag k="addr:postcode" v="81477"/>
    <tag k="addr:street" v="Weltistraße"/>
    <tag k="building" v="yes"/>
  </way>
  <way id="41881027" version="1" timestamp="2009-10-02T20:43:17Z" uid="86259" user="hasse_osm_korinthenkacker" changeset="2717407">
    <nd ref="518113077"/>
    <nd ref="518113037"/>
    <nd ref="518113040"/>
    <nd ref="518113042"/>
    <nd ref="518113077"/>
    <tag k="addr:housenumber" v="59"/>
    <tag k="addr:street" v="Weltistraße"/>
    <tag k="building" v="yes"/>
    <tag k="source" v="yahoo_aerial;survey"/>
  </way>
  <way id="41881027" version="2" timestamp="2009-10-03T17:44:19Z" uid="179968" user="Ich_hasse_doitsche_OSM-Korinthenkacker" changeset="2727120">
    <nd ref="518113077"/>
    <nd ref="518113037"/>
    <nd ref="518113040"/>
    <nd ref="518113042"/>
    <nd ref="518113077"/>
    <tag k="addr:housenumber" v="59"/>
    <tag k="addr:street" v="Weltistraße"/>
    <tag k="building" v="yes"/>
  </way>
  <way id="41881027" version="3" timestamp="2010-05-08T20:29:46Z" uid="36809" user="pfoten_weg_!_" changeset="4642739"/>
  <way id="41881027" version="4" timestamp="2010-05-09T08:52:12Z" uid="145231" user="woodpeck_repair" changeset="4645739">
    <nd ref="518113077"/>
    <nd ref="518113037"/>
    <nd ref="518113040"/>
    <nd ref="518113042"/>
    <nd ref="518113077"/>
    <tag k="addr:housenumber" v="59"/>
    <tag k="addr:street" v="Weltistraße"/>
    <tag k="building" v="yes"/>
  </way>
  <way id="41881027" version="5" timestamp="2010-06-01T13:11:15Z" uid="30579" user="Tiramisu" changeset="4874444">
    <nd ref="518113077"/>
    <nd ref="518113037"/>
    <nd ref="518113040"/>
    <nd ref="518113042"/>
    <nd ref="518113077"/>
    <tag k="addr:city" v="München"/>
    <tag k="addr:country" v="DE"/>
    <tag k="addr:housenumber" v="59"/>
    <tag k="addr:postcode" v="81477"/>
    <tag k="addr:street" v="Weltistraße"/>
    <tag k="building" v="yes"/>
  </way>
  <way id="41881027" version="6" timestamp="2011-06-26T20:50:45Z" uid="11374" user="q_un_go" changeset="8556350">
    <nd ref="518113077"/>
    <nd ref="1340374368"/>
    <nd ref="1340374263"/>
    <nd ref="518113037"/>
    <nd ref="518113040"/>
    <nd ref="518113042"/>
    <nd ref="518113077"/>
    <tag k="addr:city" v="München"/>
    <tag k="addr:country" v="DE"/>
    <tag k="addr:housenumber" v="59"/>
    <tag k="addr:postcode" v="81477"/>
    <tag k="addr:street" v="Weltistraße"/>
    <tag k="building" v="yes"/>
  </way>
  <way id="41881027" version="7" timestamp="2011-07-02T20:18:51Z" uid="11374" user="q_un_go" changeset="8611952">
    <nd ref="518113077"/>
    <nd ref="1340374368"/>
    <nd ref="1340374263"/>
    <nd ref="1347265762"/>
    <nd ref="518113037"/>
    <nd ref="518113040"/>
    <nd ref="518113042"/>
    <nd ref="1347265746"/>
    <nd ref="518113077"/>
    <tag k="addr:city" v="München"/>
    <tag k="addr:country" v="DE"/>
    <tag k="addr:housenumber" v="59"/>
    <tag k="addr:postcode" v="81477"/>
    <tag k="addr:street" v="Weltistraße"/>
    <tag k="building" v="yes"/>
  </way>
  <way id="41881028" version="1" timestamp="2009-10-02T20:43:17Z" uid="86259" user="hasse_osm_korinthenkacker" changeset="2717407">
    <nd ref="518113044"/>
    <nd ref="518113034"/>
    <nd ref="518113029"/>
    <nd ref="518113206"/>
    <nd ref="518113044"/>
    <tag k="addr:housenumber" v="61"/>
    <tag k="addr:street" v="Weltistraße"/>
    <tag k="building" v="yes"/>
    <tag k="source" v="yahoo_aerial;survey"/>
  </way>
  <way id="41881028" version="2" timestamp="2009-10-03T17:44:19Z" uid="179968" user="Ich_hasse_doitsche_OSM-Korinthenkacker" changeset="2727120">
    <nd ref="518113044"/>
    <nd ref="518113034"/>
    <nd ref="518113029"/>
    <nd ref="518113206"/>
    <nd ref="518113044"/>
    <tag k="addr:housenumber" v="61"/>
    <tag k="addr:street" v="Weltistraße"/>
    <tag k="building" v="yes"/>
  </way>
  <way id="41881028" version="3" timestamp="2010-05-08T20:29:46Z" uid="36809" user="pfoten_weg_!_" changeset="4642739"/>
  <way id="41881028" version="4" timestamp="2010-05-09T08:52:12Z" uid="145231" user="woodpeck_repair" changeset="4645739">
    <nd ref="518113044"/>
    <nd ref="518113034"/>
    <nd ref="518113029"/>
    <nd ref="518113206"/>
    <nd ref="518113044"/>
    <tag k="addr:housenumber" v="61"/>
    <tag k="addr:street" v="Weltistraße"/>
    <tag k="building" v="yes"/>
  </way>
  <way id="41881028" version="5" timestamp="2010-06-01T13:11:16Z" uid="30579" user="Tiramisu" changeset="4874444">
    <nd ref="518113044"/>
    <nd ref="518113034"/>
    <nd ref="518113029"/>
    <nd ref="518113206"/>
    <nd ref="518113044"/>
    <tag k="addr:city" v="München"/>
    <tag k="addr:country" v="DE"/>
    <tag k="addr:housenumber" v="61"/>
    <tag k="addr:postcode" v="81477"/>
    <tag k="addr:street" v="Weltistraße"/>
    <tag k="building" v="yes"/>
  </way>
  <way id="41881028" version="6" timestamp="2011-07-02T20:18:52Z" uid="11374" user="q_un_go" changeset="8611952">
    <nd ref="518113044"/>
    <nd ref="1347265900"/>
    <nd ref="518113034"/>
    <nd ref="518113029"/>
    <nd ref="518113206"/>
    <nd ref="518113044"/>
    <tag k="addr:city" v="München"/>
    <tag k="addr:country" v="DE"/>
    <tag k="addr:housenumber" v="61"/>
    <tag k="addr:postcode" v="81477"/>
    <tag k="addr:street" v="Weltistraße"/>
    <tag k="building" v="yes"/>
  </way>
  <way id="41881029" version="1" timestamp="2009-10-02T20:43:17Z" uid="86259" user="hasse_osm_korinthenkacker" changeset="2717407">
    <nd ref="518113210"/>
    <nd ref="518113209"/>
    <nd ref="518113211"/>
    <nd ref="518113032"/>
    <nd ref="518113210"/>
    <tag k="addr:housenumber" v="63"/>
    <tag k="addr:street" v="Weltistraße"/>
    <tag k="building" v="yes"/>
    <tag k="source" v="yahoo_aerial;survey"/>
  </way>
  <way id="41881029" version="2" timestamp="2009-10-03T17:44:19Z" uid="179968" user="Ich_hasse_doitsche_OSM-Korinthenkacker" changeset="2727120">
    <nd ref="518113210"/>
    <nd ref="518113209"/>
    <nd ref="518113211"/>
    <nd ref="518113032"/>
    <nd ref="518113210"/>
    <tag k="addr:housenumber" v="63"/>
    <tag k="addr:street" v="Weltistraße"/>
    <tag k="building" v="yes"/>
  </way>
  <way id="41881029" version="3" timestamp="2010-05-08T20:58:31Z" uid="36809" user="pfoten_weg_!_" changeset="4643009"/>
  <way id="41881029" version="4" timestamp="2010-05-09T08:52:10Z" uid="145231" user="woodpeck_repair" changeset="4645739">
    <nd ref="518113210"/>
    <nd ref="518113209"/>
    <nd ref="518113211"/>
    <nd ref="518113032"/>
    <nd ref="518113210"/>
    <tag k="addr:housenumber" v="63"/>
    <tag k="addr:street" v="Weltistraße"/>
    <tag k="building" v="yes"/>
  </way>
  <way id="41881029" version="5" timestamp="2010-06-01T13:11:14Z" uid="30579" user="Tiramisu" changeset="4874444">
    <nd ref="518113210"/>
    <nd ref="518113209"/>
    <nd ref="518113211"/>
    <nd ref="518113032"/>
    <nd ref="518113210"/>
    <tag k="addr:city" v="München"/>
    <tag k="addr:country" v="DE"/>
    <tag k="addr:housenumber" v="63"/>
    <tag k="addr:postcode" v="81477"/>
    <tag k="addr:street" v="Weltistraße"/>
    <tag k="building" v="yes"/>
  </way>
  <way id="41881029" version="6" timestamp="2011-07-02T20:18:56Z" uid="11374" user="q_un_go" changeset="8611952">
    <nd ref="518113210"/>
    <nd ref="1347265756"/>
    <nd ref="518113209"/>
    <nd ref="518113211"/>
    <nd ref="518113032"/>
    <nd ref="518113210"/>
    <tag k="addr:city" v="München"/>
    <tag k="addr:country" v="DE"/>
    <tag k="addr:housenumber" v="63"/>
    <tag k="addr:postcode" v="81477"/>
    <tag k="addr:street" v="Weltistraße"/>
    <tag k="building" v="yes"/>
  </way>
  <way id="41881030" version="1" timestamp="2009-10-02T20:43:17Z" uid="86259" user="hasse_osm_korinthenkacker" changeset="2717407">
    <nd ref="518113208"/>
    <nd ref="518113204"/>
    <nd ref="518113192"/>
    <nd ref="518113196"/>
    <nd ref="518113208"/>
    <tag k="addr:housenumber" v="65"/>
    <tag k="addr:street" v="Weltistraße"/>
    <tag k="building" v="yes"/>
    <tag k="source" v="yahoo_aerial;survey"/>
  </way>
  <way id="41881030" version="2" timestamp="2009-10-03T17:44:19Z" uid="179968" user="Ich_hasse_doitsche_OSM-Korinthenkacker" changeset="2727120">
    <nd ref="518113208"/>
    <nd ref="518113204"/>
    <nd ref="518113192"/>
    <nd ref="518113196"/>
    <nd ref="518113208"/>
    <tag k="addr:housenumber" v="65"/>
    <tag k="addr:street" v="Weltistraße"/>
    <tag k="building" v="yes"/>
  </way>
  <way id="41881030" version="3" timestamp="2010-05-08T20:58:30Z" uid="36809" user="pfoten_weg_!_" changeset="4643009"/>
  <way id="41881030" version="4" timestamp="2010-05-09T08:52:10Z" uid="145231" user="woodpeck_repair" changeset="4645739">
    <nd ref="518113208"/>
    <nd ref="518113204"/>
    <nd ref="518113192"/>
    <nd ref="518113196"/>
    <nd ref="518113208"/>
    <tag k="addr:housenumber" v="65"/>
    <tag k="addr:street" v="Weltistraße"/>
    <tag k="building" v="yes"/>
  </way>
  <way id="41881030" version="5" timestamp="2010-06-01T13:11:15Z" uid="30579" user="Tiramisu" changeset="4874444">
    <nd ref="518113208"/>
    <nd ref="518113204"/>
    <nd ref="518113192"/>
    <nd ref="518113196"/>
    <nd ref="518113208"/>
    <tag k="addr:city" v="München"/>
    <tag k="addr:country" v="DE"/>
    <tag k="addr:housenumber" v="65"/>
    <tag k="addr:postcode" v="81477"/>
    <tag k="addr:street" v="Weltistraße"/>
    <tag k="building" v="yes"/>
  </way>
  <way id="41881030" version="6" timestamp="2011-07-02T20:18:50Z" uid="11374" user="q_un_go" changeset="8611952">
    <nd ref="518113208"/>
    <nd ref="518113204"/>
    <nd ref="518113192"/>
    <nd ref="518113196"/>
    <nd ref="1347265663"/>
    <nd ref="518113208"/>
    <tag k="addr:city" v="München"/>
    <tag k="addr:country" v="DE"/>
    <tag k="addr:housenumber" v="65"/>
    <tag k="addr:postcode" v="81477"/>
    <tag k="addr:street" v="Weltistraße"/>
    <tag k="building" v="yes"/>
  </way>
  <way id="41881031" version="1" timestamp="2009-10-02T20:43:17Z" uid="86259" user="hasse_osm_korinthenkacker" changeset="2717407">
    <nd ref="518113057"/>
    <nd ref="518113052"/>
    <nd ref="518113055"/>
    <nd ref="518113059"/>
    <nd ref="518113057"/>
    <tag k="addr:housenumber" v="37"/>
    <tag k="addr:street" v="Gilgstraße"/>
    <tag k="building" v="yes"/>
    <tag k="source" v="yahoo_aerial;survey"/>
  </way>
  <way id="41881031" version="2" timestamp="2009-10-03T17:44:19Z" uid="179968" user="Ich_hasse_doitsche_OSM-Korinthenkacker" changeset="2727120">
    <nd ref="518113057"/>
    <nd ref="518113052"/>
    <nd ref="518113055"/>
    <nd ref="518113059"/>
    <nd ref="518113057"/>
    <tag k="addr:housenumber" v="37"/>
    <tag k="addr:street" v="Gilgstraße"/>
    <tag k="building" v="yes"/>
  </way>
  <way id="41881031" version="3" timestamp="2010-05-08T20:29:46Z" uid="36809" user="pfoten_weg_!_" changeset="4642739"/>
  <way id="41881031" version="4" timestamp="2010-05-09T08:52:09Z" uid="145231" user="woodpeck_repair" changeset="4645739">
    <nd ref="518113057"/>
    <nd ref="518113052"/>
    <nd ref="518113055"/>
    <nd ref="518113059"/>
    <nd ref="518113057"/>
    <tag k="addr:housenumber" v="37"/>
    <tag k="addr:street" v="Gilgstraße"/>
    <tag k="building" v="yes"/>
  </way>
  <way id="41881031" version="5" timestamp="2010-06-01T13:11:14Z" uid="30579" user="Tiramisu" changeset="4874444">
    <nd ref="518113057"/>
    <nd ref="518113052"/>
    <nd ref="518113055"/>
    <nd ref="518113059"/>
    <nd ref="518113057"/>
    <tag k="addr:city" v="München"/>
    <tag k="addr:country" v="DE"/>
    <tag k="addr:housenumber" v="37"/>
    <tag k="addr:postcode" v="81477"/>
    <tag k="addr:street" v="Gilgstraße"/>
    <tag k="building" v="yes"/>
  </way>
  <way id="41881031" version="6" timestamp="2011-06-26T20:50:43Z" uid="11374" user="q_un_go" changeset="8556350">
    <nd ref="518113057"/>
    <nd ref="518113052"/>
    <nd ref="518113055"/>
    <nd ref="518113059"/>
    <nd ref="1340374380"/>
    <nd ref="518113057"/>
    <tag k="addr:city" v="München"/>
    <tag k="addr:country" v="DE"/>
    <tag k="addr:housenumber" v="37"/>
    <tag k="addr:postcode" v="81477"/>
    <tag k="addr:street" v="Gilgstraße"/>
    <tag k="building" v="yes"/>
  </way>
  <way id="41881426" version="1" timestamp="2009-10-02T20:53:35Z" uid="86259" user="hasse_osm_korinthenkacker" changeset="2717552">
    <nd ref="518119456"/>
    <nd ref="518119455"/>
    <nd ref="518119450"/>
    <nd ref="518119448"/>
    <nd ref="518119451"/>
    <nd ref="518119453"/>
    <nd ref="518119452"/>
    <nd ref="518119449"/>
    <nd ref="518119447"/>
    <nd ref="518119454"/>
    <nd ref="518119456"/>
    <tag k="addr:country" v="DE"/>
    <tag k="addr:housenumber" v="45"/>
    <tag k="addr:street" v="Hans-Keis-Straße"/>
    <tag k="amenity" v="kindergarten"/>
    <tag k="building" v="yes"/>
    <tag k="layer" v="1"/>
    <tag k="name" v="Kindergarten Isarspatzen"/>
    <tag k="source" v="landsat"/>
  </way>
  <way id="41881426" version="2" timestamp="2009-10-02T21:24:45Z" uid="86259" user="hasse_osm_korinthenkacker" changeset="2717728">
    <nd ref="518119456"/>
    <nd ref="518119455"/>
    <nd ref="518119450"/>
    <nd ref="518119448"/>
    <nd ref="518119451"/>
    <nd ref="518119453"/>
    <nd ref="518119452"/>
    <nd ref="518119449"/>
    <nd ref="518119447"/>
    <nd ref="518119454"/>
    <nd ref="518119456"/>
    <tag k="addr:country" v="DE"/>
    <tag k="addr:housenumber" v="45"/>
    <tag k="addr:street" v="Hans-Keis-Straße"/>
    <tag k="amenity" v="kindergarten"/>
    <tag k="building" v="yes"/>
    <tag k="layer" v="1"/>
    <tag k="name" v="Kindergarten Isarspatzen"/>
  </way>
  <way id="41881426" version="3" timestamp="2010-05-08T20:39:38Z" uid="36809" user="pfoten_weg_!_" changeset="4642840"/>
  <way id="41881426" version="4" timestamp="2010-05-09T08:52:07Z" uid="145231" user="woodpeck_repair" changeset="4645739">
    <nd ref="518119456"/>
    <nd ref="518119455"/>
    <nd ref="518119450"/>
    <nd ref="518119448"/>
    <nd ref="518119451"/>
    <nd ref="518119453"/>
    <nd ref="518119452"/>
    <nd ref="518119449"/>
    <nd ref="518119447"/>
    <nd ref="518119454"/>
    <nd ref="518119456"/>
    <tag k="addr:country" v="DE"/>
    <tag k="addr:housenumber" v="45"/>
    <tag k="addr:street" v="Hans-Keis-Straße"/>
    <tag k="amenity" v="kindergarten"/>
    <tag k="building" v="yes"/>
    <tag k="layer" v="1"/>
    <tag k="name" v="Kindergarten Isarspatzen"/>
  </way>
  <way id="41881646" version="1" timestamp="2009-10-02T21:02:07Z" uid="86259" user="hasse_osm_korinthenkacker" changeset="2717621">
    <nd ref="299248885"/>
    <nd ref="299248808"/>
    <tag k="highway" v="residential"/>
    <tag k="name" v="Theodor-Körner-Straße"/>
    <tag k="source" v="survey"/>
  </way>
  <way id="41881646" version="2" timestamp="2009-10-02T21:25:47Z" uid="86259" user="hasse_osm_korinthenkacker" changeset="2717728">
    <nd ref="299248885"/>
    <nd ref="299248808"/>
    <tag k="highway" v="residential"/>
    <tag k="name" v="Theodor-Körner-Straße"/>
  </way>
  <way id="41881646" version="3" timestamp="2009-10-02T21:34:44Z" uid="86259" user="hasse_osm_korinthenkacker" changeset="2717862">
    <nd ref="299248885"/>
    <nd ref="299248808"/>
    <tag k="highway" v="residential"/>
    <tag k="name" v="Theodor-Körner-Straße"/>
    <tag k="source" v="survey"/>
    <tag k="surface" v="asphalt"/>
  </way>
  <way id="41881646" version="4" timestamp="2009-10-12T21:16:27Z" uid="36809" user="pfoten_weg_!_" changeset="2831027">
    <nd ref="299248885"/>
    <nd ref="299248808"/>
    <tag k="highway" v="residential"/>
    <tag k="name" v="Theodor-Körner-Straße"/>
    <tag k="surface" v="asphalt"/>
  </way>
  <way id="41881648" version="1" timestamp="2009-10-02T21:02:08Z" uid="86259" user="hasse_osm_korinthenkacker" changeset="2717621">
    <nd ref="53352431"/>
    <nd ref="264501680"/>
    <nd ref="299248808"/>
    <nd ref="53277158"/>
    <nd ref="299248809"/>
    <nd ref="32572336"/>
    <nd ref="416420504"/>
    <nd ref="299248796"/>
    <nd ref="32572338"/>
    <nd ref="299248800"/>
    <nd ref="263985374"/>
    <nd ref="278609940"/>
    <nd ref="415788587"/>
    <nd ref="413973997"/>
    <nd ref="32572341"/>
    <tag k="highway" v="residential"/>
    <tag k="name" v="Pater-Rupert-Mayer-Straße"/>
    <tag k="source" v="survey"/>
  </way>
  <way id="41881648" version="2" timestamp="2009-10-02T21:25:49Z" uid="86259" user="hasse_osm_korinthenkacker" changeset="2717728">
    <nd ref="53352431"/>
    <nd ref="264501680"/>
    <nd ref="299248808"/>
    <nd ref="53277158"/>
    <nd ref="299248809"/>
    <nd ref="32572336"/>
    <nd ref="416420504"/>
    <nd ref="299248796"/>
    <nd ref="32572338"/>
    <nd ref="299248800"/>
    <nd ref="263985374"/>
    <nd ref="278609940"/>
    <nd ref="415788587"/>
    <nd ref="413973997"/>
    <nd ref="32572341"/>
    <tag k="highway" v="residential"/>
    <tag k="name" v="Pater-Rupert-Mayer-Straße"/>
  </way>
  <way id="41881648" version="3" timestamp="2009-10-02T21:34:44Z" uid="86259" user="hasse_osm_korinthenkacker" changeset="2717862">
    <nd ref="53352431"/>
    <nd ref="264501680"/>
    <nd ref="299248808"/>
    <nd ref="53277158"/>
    <nd ref="299248809"/>
    <nd ref="32572336"/>
    <nd ref="416420504"/>
    <nd ref="299248796"/>
    <nd ref="32572338"/>
    <nd ref="299248800"/>
    <nd ref="263985374"/>
    <nd ref="278609940"/>
    <nd ref="415788587"/>
    <nd ref="413973997"/>
    <nd ref="32572341"/>
    <tag k="highway" v="residential"/>
    <tag k="name" v="Pater-Rupert-Mayer-Straße"/>
    <tag k="source" v="survey"/>
    <tag k="surface" v="asphalt"/>
  </way>
  <way id="41881648" version="4" timestamp="2009-10-12T20:31:37Z" uid="36809" user="pfoten_weg_!_" changeset="2830718">
    <nd ref="53352431"/>
    <nd ref="264501680"/>
    <nd ref="299248808"/>
    <nd ref="53277158"/>
    <nd ref="299248809"/>
    <nd ref="32572336"/>
    <nd ref="416420504"/>
    <nd ref="299248796"/>
    <nd ref="32572338"/>
    <nd ref="299248800"/>
    <nd ref="263985374"/>
    <nd ref="278609940"/>
    <nd ref="413973997"/>
    <nd ref="32572341"/>
    <tag k="highway" v="residential"/>
    <tag k="name" v="Pater-Rupert-Mayer-Straße"/>
    <tag k="source" v="survey"/>
    <tag k="surface" v="asphalt"/>
  </way>
  <way id="41881648" version="5" timestamp="2009-10-12T20:33:30Z" uid="36809" user="pfoten_weg_!_" changeset="2830745">
    <nd ref="53352431"/>
    <nd ref="264501680"/>
    <nd ref="299248808"/>
    <nd ref="53277158"/>
    <nd ref="299248809"/>
    <nd ref="529710121"/>
    <nd ref="32572336"/>
    <nd ref="416420504"/>
    <nd ref="299248796"/>
    <nd ref="32572338"/>
    <nd ref="299248800"/>
    <nd ref="263985374"/>
    <nd ref="278609940"/>
    <nd ref="413973997"/>
    <nd ref="32572341"/>
    <tag k="highway" v="residential"/>
    <tag k="name" v="Pater-Rupert-Mayer-Straße"/>
    <tag k="source" v="survey"/>
    <tag k="surface" v="asphalt"/>
  </way>
  <way id="41881648" version="6" timestamp="2009-10-12T21:11:44Z" uid="36809" user="pfoten_weg_!_" changeset="2831027">
    <nd ref="53352431"/>
    <nd ref="264501680"/>
    <nd ref="299248808"/>
    <nd ref="53277158"/>
    <nd ref="299248809"/>
    <nd ref="529710121"/>
    <nd ref="32572336"/>
    <nd ref="416420504"/>
    <nd ref="299248796"/>
    <nd ref="32572338"/>
    <nd ref="299248800"/>
    <nd ref="263985374"/>
    <nd ref="278609940"/>
    <nd ref="413973997"/>
    <nd ref="32572341"/>
    <tag k="highway" v="residential"/>
    <tag k="name" v="Pater-Rupert-Mayer-Straße"/>
    <tag k="surface" v="asphalt"/>
  </way>
  <way id="41881648" version="7" timestamp="2010-06-20T10:57:40Z" uid="127169" user="Bike_S" changeset="5031776">
    <nd ref="53352431"/>
    <nd ref="264501680"/>
    <nd ref="299248808"/>
    <nd ref="53277158"/>
    <nd ref="299248809"/>
    <nd ref="529710121"/>
    <nd ref="32572336"/>
    <nd ref="416420504"/>
    <nd ref="299248796"/>
    <nd ref="32572338"/>
    <nd ref="299248800"/>
    <nd ref="263985374"/>
    <nd ref="278609940"/>
    <nd ref="413973997"/>
    <nd ref="32572341"/>
    <tag k="highway" v="residential"/>
    <tag k="maxspeed" v="30"/>
    <tag k="name" v="Pater-Rupert-Mayer-Straße"/>
    <tag k="surface" v="asphalt"/>
  </way>
  <way id="41881648" version="8" timestamp="2010-09-21T08:51:47Z" uid="345715" user="USSEraser" changeset="5835317">
    <nd ref="53352431"/>
    <nd ref="264501680"/>
    <nd ref="299248808"/>
    <nd ref="53277158"/>
    <nd ref="299248809"/>
    <nd ref="529710121"/>
    <nd ref="32572336"/>
    <tag k="highway" v="residential"/>
    <tag k="maxspeed" v="30"/>
    <tag k="name" v="Pater-Rupert-Mayer-Straße"/>
    <tag k="surface" v="asphalt"/>
  </way>
  <way id="41881648" version="9" timestamp="2011-04-01T09:22:50Z" uid="42393" user="mawi42" changeset="7733584">
    <nd ref="53352431"/>
    <nd ref="1227760169"/>
    <nd ref="264501680"/>
    <nd ref="299248808"/>
    <nd ref="53277158"/>
    <nd ref="299248809"/>
    <nd ref="529710121"/>
    <nd ref="32572336"/>
    <tag k="highway" v="residential"/>
    <tag k="maxspeed" v="30"/>
    <tag k="name" v="Pater-Rupert-Mayer-Straße"/>
    <tag k="surface" v="asphalt"/>
  </way>
  <way id="41881648" version="10" timestamp="2012-03-02T22:47:27Z" uid="342705" user="KLMB" changeset="10853247"/>
  <way id="41881649" version="1" timestamp="2009-10-02T21:02:08Z" uid="86259" user="hasse_osm_korinthenkacker" changeset="2717621">
    <nd ref="32571887"/>
    <nd ref="264965668"/>
    <nd ref="518122546"/>
    <nd ref="299248885"/>
    <nd ref="299248791"/>
    <nd ref="299248883"/>
    <nd ref="416425315"/>
    <nd ref="299248790"/>
    <nd ref="416425318"/>
    <nd ref="299248876"/>
    <nd ref="299248811"/>
    <nd ref="518122555"/>
    <nd ref="299248891"/>
    <nd ref="344523994"/>
    <nd ref="32571894"/>
    <tag k="highway" v="residential"/>
    <tag k="name" v="Schubertstraße"/>
    <tag k="source" v="survey"/>
  </way>
  <way id="41881649" version="2" timestamp="2009-10-02T21:25:49Z" uid="86259" user="hasse_osm_korinthenkacker" changeset="2717728">
    <nd ref="32571887"/>
    <nd ref="264965668"/>
    <nd ref="518122546"/>
    <nd ref="299248885"/>
    <nd ref="299248791"/>
    <nd ref="299248883"/>
    <nd ref="416425315"/>
    <nd ref="299248790"/>
    <nd ref="416425318"/>
    <nd ref="299248876"/>
    <nd ref="299248811"/>
    <nd ref="518122555"/>
    <nd ref="299248891"/>
    <nd ref="344523994"/>
    <nd ref="32571894"/>
    <tag k="highway" v="residential"/>
    <tag k="name" v="Schubertstraße"/>
  </way>
  <way id="41881649" version="3" timestamp="2009-10-02T21:34:44Z" uid="86259" user="hasse_osm_korinthenkacker" changeset="2717862">
    <nd ref="32571887"/>
    <nd ref="264965668"/>
    <nd ref="518122546"/>
    <nd ref="299248885"/>
    <nd ref="299248791"/>
    <nd ref="299248883"/>
    <nd ref="416425315"/>
    <nd ref="299248790"/>
    <nd ref="416425318"/>
    <nd ref="299248876"/>
    <nd ref="299248811"/>
    <nd ref="518122555"/>
    <nd ref="299248891"/>
    <nd ref="344523994"/>
    <nd ref="32571894"/>
    <tag k="highway" v="residential"/>
    <tag k="name" v="Schubertstraße"/>
    <tag k="source" v="survey"/>
    <tag k="surface" v="asphalt"/>
  </way>
  <way id="41881649" version="4" timestamp="2009-10-12T21:16:33Z" uid="36809" user="pfoten_weg_!_" changeset="2831027">
    <nd ref="32571887"/>
    <nd ref="264965668"/>
    <nd ref="518122546"/>
    <nd ref="299248885"/>
    <nd ref="299248791"/>
    <nd ref="299248883"/>
    <nd ref="416425315"/>
    <nd ref="299248790"/>
    <nd ref="416425318"/>
    <nd ref="299248876"/>
    <nd ref="299248811"/>
    <nd ref="518122555"/>
    <nd ref="299248891"/>
    <nd ref="344523994"/>
    <nd ref="32571894"/>
    <tag k="highway" v="residential"/>
    <tag k="name" v="Schubertstraße"/>
    <tag k="surface" v="asphalt"/>
  </way>
  <way id="41881649" version="5" timestamp="2009-10-12T22:35:11Z" uid="36809" user="pfoten_weg_!_" changeset="2831498">
    <nd ref="32571887"/>
    <nd ref="264965668"/>
    <nd ref="518122546"/>
    <nd ref="299248885"/>
    <nd ref="299248791"/>
    <nd ref="299248883"/>
    <nd ref="416425315"/>
    <nd ref="299248790"/>
    <nd ref="416425318"/>
    <nd ref="299248876"/>
    <nd ref="299248811"/>
    <nd ref="529741456"/>
    <nd ref="518122555"/>
    <nd ref="299248891"/>
    <nd ref="344523994"/>
    <nd ref="32571894"/>
    <tag k="highway" v="residential"/>
    <tag k="name" v="Schubertstraße"/>
    <tag k="surface" v="asphalt"/>
  </way>
  <way id="41881649" version="6" timestamp="2009-11-10T21:44:57Z" uid="36809" user="pfoten_weg_!_" changeset="3085788"/>
  <way id="41881650" version="1" timestamp="2009-10-02T21:02:08Z" uid="86259" user="hasse_osm_korinthenkacker" changeset="2717621">
    <nd ref="290562425"/>
    <nd ref="344162954"/>
    <tag k="foot" v="yes"/>
    <tag k="highway" v="footway"/>
    <tag k="layer" v="0"/>
    <tag k="motorcar" v="no"/>
    <tag k="motorcycle" v="no"/>
    <tag k="source" v="survey"/>
    <tag k="surface" v="paved"/>
    <tag k="width" v="3"/>
  </way>
  <way id="41881650" version="2" timestamp="2009-10-02T21:25:48Z" uid="86259" user="hasse_osm_korinthenkacker" changeset="2717728">
    <nd ref="290562425"/>
    <nd ref="344162954"/>
    <tag k="foot" v="yes"/>
    <tag k="highway" v="footway"/>
    <tag k="layer" v="0"/>
    <tag k="motorcar" v="no"/>
    <tag k="motorcycle" v="no"/>
    <tag k="surface" v="paved"/>
    <tag k="width" v="3"/>
  </way>
  <way id="41881650" version="3" timestamp="2009-11-07T16:26:44Z" uid="36809" user="pfoten_weg_!_" changeset="3056962">
    <nd ref="290562425"/>
    <nd ref="558985130"/>
    <tag k="foot" v="yes"/>
    <tag k="highway" v="footway"/>
    <tag k="layer" v="0"/>
    <tag k="motorcar" v="no"/>
    <tag k="motorcycle" v="no"/>
    <tag k="surface" v="paved"/>
    <tag k="width" v="3"/>
  </way>
  <way id="41881650" version="4" timestamp="2012-03-02T22:47:29Z" uid="342705" user="KLMB" changeset="10853247"/>
  <way id="41881651" version="1" timestamp="2009-10-02T21:02:08Z" uid="86259" user="hasse_osm_korinthenkacker" changeset="2717621">
    <nd ref="299248791"/>
    <nd ref="299248788"/>
    <nd ref="518122551"/>
    <nd ref="299248864"/>
    <nd ref="290562425"/>
    <tag k="highway" v="residential"/>
    <tag k="name" v="Beethovenstraße"/>
    <tag k="source" v="survey"/>
  </way>
  <way id="41881651" version="2" timestamp="2009-10-02T21:25:48Z" uid="86259" user="hasse_osm_korinthenkacker" changeset="2717728">
    <nd ref="299248791"/>
    <nd ref="299248788"/>
    <nd ref="518122551"/>
    <nd ref="299248864"/>
    <nd ref="290562425"/>
    <tag k="highway" v="residential"/>
    <tag k="name" v="Beethovenstraße"/>
  </way>
  <way id="41881651" version="3" timestamp="2009-10-02T21:34:44Z" uid="86259" user="hasse_osm_korinthenkacker" changeset="2717862">
    <nd ref="299248791"/>
    <nd ref="299248788"/>
    <nd ref="518122551"/>
    <nd ref="299248864"/>
    <nd ref="290562425"/>
    <tag k="highway" v="residential"/>
    <tag k="name" v="Beethovenstraße"/>
    <tag k="source" v="survey"/>
    <tag k="surface" v="asphalt"/>
  </way>
  <way id="41881651" version="4" timestamp="2009-10-12T21:16:32Z" uid="36809" user="pfoten_weg_!_" changeset="2831027">
    <nd ref="299248791"/>
    <nd ref="299248788"/>
    <nd ref="518122551"/>
    <nd ref="299248864"/>
    <nd ref="290562425"/>
    <tag k="highway" v="residential"/>
    <tag k="name" v="Beethovenstraße"/>
    <tag k="surface" v="asphalt"/>
  </way>
  <way id="41881651" version="5" timestamp="2009-11-10T21:44:57Z" uid="36809" user="pfoten_weg_!_" changeset="3085788"/>
  <way id="41881652" version="1" timestamp="2009-10-02T21:02:09Z" uid="86259" user="hasse_osm_korinthenkacker" changeset="2717621">
    <nd ref="299248913"/>
    <nd ref="518122558"/>
    <nd ref="344162954"/>
    <nd ref="299248902"/>
    <nd ref="518122554"/>
    <nd ref="518122553"/>
    <nd ref="518122556"/>
    <nd ref="413741156"/>
    <tag k="access" v="no"/>
    <tag k="highway" v="residential"/>
    <tag k="name" v="Saarlandstraße"/>
    <tag k="source" v="survey"/>
  </way>
  <way id="41881652" version="2" timestamp="2009-10-02T21:25:48Z" uid="86259" user="hasse_osm_korinthenkacker" changeset="2717728">
    <nd ref="299248913"/>
    <nd ref="518122558"/>
    <nd ref="344162954"/>
    <nd ref="299248902"/>
    <nd ref="518122554"/>
    <nd ref="518122553"/>
    <nd ref="518122556"/>
    <nd ref="413741156"/>
    <tag k="access" v="no"/>
    <tag k="highway" v="residential"/>
    <tag k="name" v="Saarlandstraße"/>
  </way>
  <way id="41881652" version="3" timestamp="2009-10-02T21:34:44Z" uid="86259" user="hasse_osm_korinthenkacker" changeset="2717862">
    <nd ref="299248913"/>
    <nd ref="518122558"/>
    <nd ref="344162954"/>
    <nd ref="299248902"/>
    <nd ref="518122554"/>
    <nd ref="518122553"/>
    <nd ref="518122556"/>
    <nd ref="413741156"/>
    <tag k="access" v="no"/>
    <tag k="highway" v="residential"/>
    <tag k="name" v="Saarlandstraße"/>
    <tag k="source" v="survey"/>
    <tag k="surface" v="asphalt"/>
  </way>
  <way id="41881652" version="4" timestamp="2009-10-12T20:21:14Z" uid="36809" user="pfoten_weg_!_" changeset="2830599"/>
  <way id="41881653" version="1" timestamp="2009-10-02T21:02:09Z" uid="86259" user="hasse_osm_korinthenkacker" changeset="2717621">
    <nd ref="32571114"/>
    <nd ref="310403647"/>
    <nd ref="299248913"/>
    <tag k="highway" v="residential"/>
    <tag k="name" v="Saarlandstraße"/>
    <tag k="source" v="survey"/>
  </way>
  <way id="41881653" version="2" timestamp="2009-10-02T21:25:48Z" uid="86259" user="hasse_osm_korinthenkacker" changeset="2717728">
    <nd ref="32571114"/>
    <nd ref="310403647"/>
    <nd ref="299248913"/>
    <tag k="highway" v="residential"/>
    <tag k="name" v="Saarlandstraße"/>
  </way>
  <way id="41881653" version="3" timestamp="2009-10-12T20:21:13Z" uid="36809" user="pfoten_weg_!_" changeset="2830599"/>
  <way id="41881654" version="1" timestamp="2009-10-02T21:02:09Z" uid="86259" user="hasse_osm_korinthenkacker" changeset="2717621">
    <nd ref="413741156"/>
    <nd ref="299248894"/>
    <nd ref="344523979"/>
    <nd ref="442613410"/>
    <tag k="highway" v="residential"/>
    <tag k="name" v="Saarlandstraße"/>
    <tag k="source" v="survey"/>
  </way>
  <way id="41881654" version="2" timestamp="2009-10-02T21:25:48Z" uid="86259" user="hasse_osm_korinthenkacker" changeset="2717728">
    <nd ref="413741156"/>
    <nd ref="299248894"/>
    <nd ref="344523979"/>
    <nd ref="442613410"/>
    <tag k="highway" v="residential"/>
    <tag k="name" v="Saarlandstraße"/>
  </way>
  <way id="41881654" version="3" timestamp="2009-10-12T20:21:14Z" uid="36809" user="pfoten_weg_!_" changeset="2830599"/>
  <way id="41881656" version="1" timestamp="2009-10-02T21:02:09Z" uid="86259" user="hasse_osm_korinthenkacker" changeset="2717621">
    <nd ref="518122548"/>
    <nd ref="518122552"/>
    <nd ref="518122551"/>
    <tag k="highway" v="residential"/>
    <tag k="name" v="Anton-Bruckner-Straße"/>
    <tag k="source" v="survey"/>
  </way>
  <way id="41881656" version="2" timestamp="2009-10-02T21:25:49Z" uid="86259" user="hasse_osm_korinthenkacker" changeset="2717728">
    <nd ref="518122548"/>
    <nd ref="518122552"/>
    <nd ref="518122551"/>
    <tag k="highway" v="residential"/>
    <tag k="name" v="Anton-Bruckner-Straße"/>
  </way>
  <way id="41881656" version="3" timestamp="2009-10-02T21:34:44Z" uid="86259" user="hasse_osm_korinthenkacker" changeset="2717862">
    <nd ref="518122548"/>
    <nd ref="518122552"/>
    <nd ref="518122551"/>
    <tag k="highway" v="residential"/>
    <tag k="name" v="Anton-Bruckner-Straße"/>
    <tag k="source" v="survey"/>
    <tag k="surface" v="asphalt"/>
  </way>
  <way id="41881656" version="4" timestamp="2009-10-12T21:16:34Z" uid="36809" user="pfoten_weg_!_" changeset="2831027">
    <nd ref="518122548"/>
    <nd ref="518122552"/>
    <nd ref="518122551"/>
    <tag k="highway" v="residential"/>
    <tag k="name" v="Anton-Bruckner-Straße"/>
    <tag k="surface" v="asphalt"/>
  </way>
  <way id="41881656" version="5" timestamp="2009-11-10T21:44:57Z" uid="36809" user="pfoten_weg_!_" changeset="3085788"/>
  <way id="41881657" version="1" timestamp="2009-10-02T21:02:09Z" uid="86259" user="hasse_osm_korinthenkacker" changeset="2717621">
    <nd ref="299248788"/>
    <nd ref="518122548"/>
    <nd ref="518122550"/>
    <tag k="highway" v="residential"/>
    <tag k="name" v="Anton-Bruckner-Straße"/>
    <tag k="source" v="survey"/>
  </way>
  <way id="41881657" version="2" timestamp="2009-10-02T21:25:49Z" uid="86259" user="hasse_osm_korinthenkacker" changeset="2717728">
    <nd ref="299248788"/>
    <nd ref="518122548"/>
    <nd ref="518122550"/>
    <tag k="highway" v="residential"/>
    <tag k="name" v="Anton-Bruckner-Straße"/>
  </way>
  <way id="41881657" version="3" timestamp="2009-10-02T21:34:44Z" uid="86259" user="hasse_osm_korinthenkacker" changeset="2717862">
    <nd ref="299248788"/>
    <nd ref="518122548"/>
    <nd ref="518122550"/>
    <tag k="highway" v="residential"/>
    <tag k="name" v="Anton-Bruckner-Straße"/>
    <tag k="source" v="survey"/>
    <tag k="surface" v="asphalt"/>
  </way>
  <way id="41881657" version="4" timestamp="2009-10-12T21:16:37Z" uid="36809" user="pfoten_weg_!_" changeset="2831027">
    <nd ref="299248788"/>
    <nd ref="518122548"/>
    <nd ref="518122550"/>
    <tag k="highway" v="residential"/>
    <tag k="name" v="Anton-Bruckner-Straße"/>
    <tag k="surface" v="asphalt"/>
  </way>
  <way id="41881657" version="5" timestamp="2009-11-10T21:44:58Z" uid="36809" user="pfoten_weg_!_" changeset="3085788"/>
  <way id="41881728" version="1" timestamp="2009-10-02T21:07:40Z" uid="86259" user="hasse_osm_korinthenkacker" changeset="2717651">
    <nd ref="518123411"/>
    <nd ref="518123409"/>
    <nd ref="518123414"/>
    <nd ref="518123415"/>
    <nd ref="518123449"/>
    <nd ref="518123450"/>
    <nd ref="518123447"/>
    <nd ref="518123448"/>
    <nd ref="518123445"/>
    <nd ref="518123446"/>
    <nd ref="518123443"/>
    <nd ref="518123444"/>
    <tag k="highway" v="footway"/>
    <tag k="layer" v="0"/>
    <tag k="source" v="survey"/>
  </way>
  <way id="41881728" version="2" timestamp="2009-10-02T21:25:29Z" uid="86259" user="hasse_osm_korinthenkacker" changeset="2717728">
    <nd ref="518123411"/>
    <nd ref="518123409"/>
    <nd ref="518123414"/>
    <nd ref="518123415"/>
    <nd ref="518123449"/>
    <nd ref="518123450"/>
    <nd ref="518123447"/>
    <nd ref="518123448"/>
    <nd ref="518123445"/>
    <nd ref="518123446"/>
    <nd ref="518123443"/>
    <nd ref="518123444"/>
    <tag k="highway" v="footway"/>
    <tag k="layer" v="0"/>
  </way>
  <way id="41881729" version="1" timestamp="2009-10-02T21:07:40Z" uid="86259" user="hasse_osm_korinthenkacker" changeset="2717651">
    <nd ref="518123412"/>
    <nd ref="518123420"/>
    <tag k="highway" v="footway"/>
    <tag k="layer" v="0"/>
    <tag k="source" v="survey"/>
  </way>
  <way id="41881729" version="2" timestamp="2009-10-02T21:25:29Z" uid="86259" user="hasse_osm_korinthenkacker" changeset="2717728">
    <nd ref="518123412"/>
    <nd ref="518123420"/>
    <tag k="highway" v="footway"/>
    <tag k="layer" v="0"/>
  </way>
  <way id="41881730" version="1" timestamp="2009-10-02T21:07:40Z" uid="86259" user="hasse_osm_korinthenkacker" changeset="2717651">
    <nd ref="518123672"/>
    <nd ref="518123664"/>
    <nd ref="518123678"/>
    <nd ref="518123621"/>
    <nd ref="518123613"/>
    <nd ref="518123618"/>
    <nd ref="518123614"/>
    <nd ref="518123546"/>
    <nd ref="518123421"/>
    <nd ref="518123385"/>
    <nd ref="518123672"/>
    <tag k="area" v="yes"/>
    <tag k="fenced" v="yes"/>
    <tag k="leisure" v="common"/>
    <tag k="name" v="St. Gabriel Kloster der Schwestern vom Guten Hirten"/>
    <tag k="source" v="survey"/>
  </way>
  <way id="41881730" version="2" timestamp="2009-10-02T21:25:30Z" uid="86259" user="hasse_osm_korinthenkacker" changeset="2717728">
    <nd ref="518123672"/>
    <nd ref="518123664"/>
    <nd ref="518123678"/>
    <nd ref="518123621"/>
    <nd ref="518123613"/>
    <nd ref="518123618"/>
    <nd ref="518123614"/>
    <nd ref="518123546"/>
    <nd ref="518123421"/>
    <nd ref="518123385"/>
    <nd ref="518123672"/>
    <tag k="area" v="yes"/>
    <tag k="fenced" v="yes"/>
    <tag k="leisure" v="common"/>
    <tag k="name" v="St. Gabriel Kloster der Schwestern vom Guten Hirten"/>
  </way>
  <way id="41881730" version="3" timestamp="2012-03-02T22:23:32Z" uid="13832" user="Peter14" changeset="10853069">
    <nd ref="518123672"/>
    <nd ref="518123664"/>
    <nd ref="518123678"/>
    <nd ref="518123621"/>
    <nd ref="518123613"/>
    <nd ref="518123618"/>
    <nd ref="518123614"/>
    <nd ref="518123546"/>
    <nd ref="1656765003"/>
    <nd ref="518123421"/>
    <nd ref="518123385"/>
    <nd ref="518123672"/>
    <tag k="area" v="yes"/>
    <tag k="fenced" v="yes"/>
    <tag k="leisure" v="common"/>
    <tag k="name" v="St. Gabriel Kloster der Schwestern vom Guten Hirten"/>
  </way>
  <way id="41881731" version="1" timestamp="2009-10-02T21:07:40Z" uid="86259" user="hasse_osm_korinthenkacker" changeset="2717651">
    <nd ref="518123422"/>
    <nd ref="518123424"/>
    <nd ref="518123489"/>
    <tag k="highway" v="footway"/>
    <tag k="layer" v="0"/>
    <tag k="source" v="survey"/>
  </way>
  <way id="41881731" version="2" timestamp="2009-10-02T21:25:30Z" uid="86259" user="hasse_osm_korinthenkacker" changeset="2717728">
    <nd ref="518123422"/>
    <nd ref="518123424"/>
    <nd ref="518123489"/>
    <tag k="highway" v="footway"/>
    <tag k="layer" v="0"/>
  </way>
  <way id="41881732" version="1" timestamp="2009-10-02T21:07:40Z" uid="86259" user="hasse_osm_korinthenkacker" changeset="2717651">
    <nd ref="518123459"/>
    <nd ref="518123457"/>
    <nd ref="518123458"/>
    <nd ref="518123424"/>
    <nd ref="518123423"/>
    <tag k="highway" v="footway"/>
    <tag k="layer" v="0"/>
    <tag k="source" v="survey"/>
  </way>
  <way id="41881732" version="2" timestamp="2009-10-02T21:25:27Z" uid="86259" user="hasse_osm_korinthenkacker" changeset="2717728">
    <nd ref="518123459"/>
    <nd ref="518123457"/>
    <nd ref="518123458"/>
    <nd ref="518123424"/>
    <nd ref="518123423"/>
    <tag k="highway" v="footway"/>
    <tag k="layer" v="0"/>
  </way>
  <way id="41881733" version="1" timestamp="2009-10-02T21:07:40Z" uid="86259" user="hasse_osm_korinthenkacker" changeset="2717651">
    <nd ref="518123466"/>
    <nd ref="518123463"/>
    <tag k="highway" v="footway"/>
    <tag k="layer" v="0"/>
    <tag k="source" v="survey"/>
    <tag k="surface" v="paved"/>
  </way>
  <way id="41881733" version="2" timestamp="2009-10-02T21:25:27Z" uid="86259" user="hasse_osm_korinthenkacker" changeset="2717728">
    <nd ref="518123466"/>
    <nd ref="518123463"/>
    <tag k="highway" v="footway"/>
    <tag k="layer" v="0"/>
    <tag k="surface" v="paved"/>
  </way>
  <way id="41881734" version="1" timestamp="2009-10-02T21:07:40Z" uid="86259" user="hasse_osm_korinthenkacker" changeset="2717651">
    <nd ref="518123529"/>
    <nd ref="518123518"/>
    <nd ref="518123523"/>
    <tag k="highway" v="service"/>
    <tag k="layer" v="0"/>
    <tag k="source" v="survey"/>
    <tag k="surface" v="paved"/>
    <tag k="width" v="4"/>
  </way>
  <way id="41881734" version="2" timestamp="2009-10-02T21:25:29Z" uid="86259" user="hasse_osm_korinthenkacker" changeset="2717728">
    <nd ref="518123529"/>
    <nd ref="518123518"/>
    <nd ref="518123523"/>
    <tag k="highway" v="service"/>
    <tag k="layer" v="0"/>
    <tag k="surface" v="paved"/>
    <tag k="width" v="4"/>
  </way>
  <way id="41881735" version="1" timestamp="2009-10-02T21:07:41Z" uid="86259" user="hasse_osm_korinthenkacker" changeset="2717651">
    <nd ref="518123439"/>
    <nd ref="518123438"/>
    <nd ref="518123442"/>
    <nd ref="518123440"/>
    <tag k="highway" v="footway"/>
    <tag k="layer" v="0"/>
    <tag k="source" v="survey"/>
    <tag k="surface" v="paved"/>
  </way>
  <way id="41881735" version="2" timestamp="2009-10-02T21:25:27Z" uid="86259" user="hasse_osm_korinthenkacker" changeset="2717728">
    <nd ref="518123439"/>
    <nd ref="518123438"/>
    <nd ref="518123442"/>
    <nd ref="518123440"/>
    <tag k="highway" v="footway"/>
    <tag k="layer" v="0"/>
    <tag k="surface" v="paved"/>
  </way>
  <way id="41881736" version="1" timestamp="2009-10-02T21:07:41Z" uid="86259" user="hasse_osm_korinthenkacker" changeset="2717651">
    <nd ref="518123530"/>
    <nd ref="518123617"/>
    <tag k="highway" v="service"/>
    <tag k="layer" v="0"/>
    <tag k="source" v="survey"/>
    <tag k="surface" v="paved"/>
    <tag k="width" v="4"/>
  </way>
  <way id="41881736" version="2" timestamp="2009-10-02T21:25:26Z" uid="86259" user="hasse_osm_korinthenkacker" changeset="2717728">
    <nd ref="518123530"/>
    <nd ref="518123617"/>
    <tag k="highway" v="service"/>
    <tag k="layer" v="0"/>
    <tag k="surface" v="paved"/>
    <tag k="width" v="4"/>
  </way>
  <way id="41881737" version="1" timestamp="2009-10-02T21:07:41Z" uid="86259" user="hasse_osm_korinthenkacker" changeset="2717651">
    <nd ref="518123481"/>
    <nd ref="518123464"/>
    <tag k="highway" v="footway"/>
    <tag k="layer" v="0"/>
    <tag k="source" v="survey"/>
    <tag k="surface" v="paved"/>
  </way>
  <way id="41881737" version="2" timestamp="2009-10-02T21:25:26Z" uid="86259" user="hasse_osm_korinthenkacker" changeset="2717728">
    <nd ref="518123481"/>
    <nd ref="518123464"/>
    <tag k="highway" v="footway"/>
    <tag k="layer" v="0"/>
    <tag k="surface" v="paved"/>
  </way>
  <way id="41881738" version="1" timestamp="2009-10-02T21:07:41Z" uid="86259" user="hasse_osm_korinthenkacker" changeset="2717651">
    <nd ref="518123616"/>
    <nd ref="518123632"/>
    <nd ref="518123635"/>
    <tag k="highway" v="service"/>
    <tag k="layer" v="0"/>
    <tag k="source" v="survey"/>
    <tag k="surface" v="paved"/>
    <tag k="width" v="4"/>
  </way>
  <way id="41881738" version="2" timestamp="2009-10-02T21:25:26Z" uid="86259" user="hasse_osm_korinthenkacker" changeset="2717728">
    <nd ref="518123616"/>
    <nd ref="518123632"/>
    <nd ref="518123635"/>
    <tag k="highway" v="service"/>
    <tag k="layer" v="0"/>
    <tag k="surface" v="paved"/>
    <tag k="width" v="4"/>
  </way>
  <way id="41881739" version="1" timestamp="2009-10-02T21:07:41Z" uid="86259" user="hasse_osm_korinthenkacker" changeset="2717651">
    <nd ref="518123481"/>
    <nd ref="518123522"/>
    <nd ref="518123499"/>
    <nd ref="518123466"/>
    <nd ref="518123464"/>
    <nd ref="518123439"/>
    <nd ref="518123474"/>
    <nd ref="518123478"/>
    <nd ref="518123481"/>
    <tag k="highway" v="footway"/>
    <tag k="layer" v="0"/>
    <tag k="source" v="survey"/>
    <tag k="surface" v="paved"/>
  </way>
  <way id="41881739" version="2" timestamp="2009-10-02T21:25:26Z" uid="86259" user="hasse_osm_korinthenkacker" changeset="2717728">
    <nd ref="518123481"/>
    <nd ref="518123522"/>
    <nd ref="518123499"/>
    <nd ref="518123466"/>
    <nd ref="518123464"/>
    <nd ref="518123439"/>
    <nd ref="518123474"/>
    <nd ref="518123478"/>
    <nd ref="518123481"/>
    <tag k="highway" v="footway"/>
    <tag k="layer" v="0"/>
    <tag k="surface" v="paved"/>
  </way>
  <way id="41881740" version="1" timestamp="2009-10-02T21:07:41Z" uid="86259" user="hasse_osm_korinthenkacker" changeset="2717651">
    <nd ref="518123526"/>
    <nd ref="518123480"/>
    <tag k="highway" v="service"/>
    <tag k="layer" v="0"/>
    <tag k="source" v="survey"/>
    <tag k="surface" v="paved"/>
    <tag k="width" v="4"/>
  </way>
  <way id="41881740" version="2" timestamp="2009-10-02T21:25:25Z" uid="86259" user="hasse_osm_korinthenkacker" changeset="2717728">
    <nd ref="518123526"/>
    <nd ref="518123480"/>
    <tag k="highway" v="service"/>
    <tag k="layer" v="0"/>
    <tag k="surface" v="paved"/>
    <tag k="width" v="4"/>
  </way>
  <way id="41881741" version="1" timestamp="2009-10-02T21:07:41Z" uid="86259" user="hasse_osm_korinthenkacker" changeset="2717651">
    <nd ref="518123499"/>
    <nd ref="518123494"/>
    <nd ref="518123498"/>
    <nd ref="518123495"/>
    <nd ref="518123496"/>
    <nd ref="518123500"/>
    <nd ref="518123492"/>
    <tag k="highway" v="footway"/>
    <tag k="layer" v="0"/>
    <tag k="source" v="survey"/>
    <tag k="surface" v="paved"/>
  </way>
  <way id="41881741" version="2" timestamp="2009-10-02T21:25:25Z" uid="86259" user="hasse_osm_korinthenkacker" changeset="2717728">
    <nd ref="518123499"/>
    <nd ref="518123494"/>
    <nd ref="518123498"/>
    <nd ref="518123495"/>
    <nd ref="518123496"/>
    <nd ref="518123500"/>
    <nd ref="518123492"/>
    <tag k="highway" v="footway"/>
    <tag k="layer" v="0"/>
    <tag k="surface" v="paved"/>
  </way>
  <way id="41881742" version="1" timestamp="2009-10-02T21:07:41Z" uid="86259" user="hasse_osm_korinthenkacker" changeset="2717651">
    <nd ref="518123522"/>
    <nd ref="518123524"/>
    <nd ref="518123523"/>
    <tag k="highway" v="footway"/>
    <tag k="layer" v="0"/>
    <tag k="source" v="survey"/>
    <tag k="surface" v="paved"/>
  </way>
  <way id="41881742" version="2" timestamp="2009-10-02T21:25:25Z" uid="86259" user="hasse_osm_korinthenkacker" changeset="2717728">
    <nd ref="518123522"/>
    <nd ref="518123524"/>
    <nd ref="518123523"/>
    <tag k="highway" v="footway"/>
    <tag k="layer" v="0"/>
    <tag k="surface" v="paved"/>
  </way>
  <way id="41881743" version="1" timestamp="2009-10-02T21:07:41Z" uid="86259" user="hasse_osm_korinthenkacker" changeset="2717651">
    <nd ref="518123427"/>
    <nd ref="518123429"/>
    <tag k="highway" v="footway"/>
    <tag k="layer" v="0"/>
    <tag k="source" v="survey"/>
  </way>
  <way id="41881743" version="2" timestamp="2009-10-02T21:25:25Z" uid="86259" user="hasse_osm_korinthenkacker" changeset="2717728">
    <nd ref="518123427"/>
    <nd ref="518123429"/>
    <tag k="highway" v="footway"/>
    <tag k="layer" v="0"/>
  </way>
  <way id="41881744" version="1" timestamp="2009-10-02T21:07:41Z" uid="86259" user="hasse_osm_korinthenkacker" changeset="2717651">
    <nd ref="518123456"/>
    <nd ref="518123455"/>
    <nd ref="518123425"/>
    <tag k="highway" v="footway"/>
    <tag k="layer" v="0"/>
    <tag k="source" v="survey"/>
  </way>
  <way id="41881744" version="2" timestamp="2009-10-02T21:25:33Z" uid="86259" user="hasse_osm_korinthenkacker" changeset="2717728">
    <nd ref="518123456"/>
    <nd ref="518123455"/>
    <nd ref="518123425"/>
    <tag k="highway" v="footway"/>
    <tag k="layer" v="0"/>
  </way>
  <way id="41881745" version="1" timestamp="2009-10-02T21:07:41Z" uid="86259" user="hasse_osm_korinthenkacker" changeset="2717651">
    <nd ref="518123545"/>
    <nd ref="518123622"/>
    <nd ref="518123618"/>
    <nd ref="518123615"/>
    <nd ref="518123616"/>
    <nd ref="518123617"/>
    <nd ref="518123612"/>
    <nd ref="518123604"/>
    <nd ref="518123599"/>
    <nd ref="518123600"/>
    <nd ref="518123601"/>
    <nd ref="518123602"/>
    <nd ref="518123603"/>
    <nd ref="518123558"/>
    <nd ref="518123483"/>
    <nd ref="518123482"/>
    <nd ref="518123526"/>
    <nd ref="518123528"/>
    <nd ref="518123527"/>
    <nd ref="518123530"/>
    <nd ref="518123529"/>
    <nd ref="518123534"/>
    <nd ref="518123542"/>
    <nd ref="518123533"/>
    <nd ref="518123532"/>
    <nd ref="518123531"/>
    <nd ref="518123486"/>
    <nd ref="518123485"/>
    <nd ref="518123488"/>
    <nd ref="518123491"/>
    <nd ref="518123489"/>
    <nd ref="518123492"/>
    <nd ref="518123463"/>
    <nd ref="518123456"/>
    <nd ref="518123440"/>
    <nd ref="518123401"/>
    <nd ref="518123473"/>
    <nd ref="518123479"/>
    <nd ref="518123555"/>
    <nd ref="518123556"/>
    <tag k="highway" v="service"/>
    <tag k="layer" v="0"/>
    <tag k="source" v="survey"/>
    <tag k="surface" v="paved"/>
    <tag k="width" v="4"/>
  </way>
  <way id="41881745" version="2" timestamp="2009-10-02T21:25:33Z" uid="86259" user="hasse_osm_korinthenkacker" changeset="2717728">
    <nd ref="518123545"/>
    <nd ref="518123622"/>
    <nd ref="518123618"/>
    <nd ref="518123615"/>
    <nd ref="518123616"/>
    <nd ref="518123617"/>
    <nd ref="518123612"/>
    <nd ref="518123604"/>
    <nd ref="518123599"/>
    <nd ref="518123600"/>
    <nd ref="518123601"/>
    <nd ref="518123602"/>
    <nd ref="518123603"/>
    <nd ref="518123558"/>
    <nd ref="518123483"/>
    <nd ref="518123482"/>
    <nd ref="518123526"/>
    <nd ref="518123528"/>
    <nd ref="518123527"/>
    <nd ref="518123530"/>
    <nd ref="518123529"/>
    <nd ref="518123534"/>
    <nd ref="518123542"/>
    <nd ref="518123533"/>
    <nd ref="518123532"/>
    <nd ref="518123531"/>
    <nd ref="518123486"/>
    <nd ref="518123485"/>
    <nd ref="518123488"/>
    <nd ref="518123491"/>
    <nd ref="518123489"/>
    <nd ref="518123492"/>
    <nd ref="518123463"/>
    <nd ref="518123456"/>
    <nd ref="518123440"/>
    <nd ref="518123401"/>
    <nd ref="518123473"/>
    <nd ref="518123479"/>
    <nd ref="518123555"/>
    <nd ref="518123556"/>
    <tag k="highway" v="service"/>
    <tag k="layer" v="0"/>
    <tag k="surface" v="paved"/>
    <tag k="width" v="4"/>
  </way>
  <way id="41881745" version="3" timestamp="2009-10-12T17:31:30Z" uid="36809" user="pfoten_weg_!_" changeset="2828510">
    <nd ref="518123545"/>
    <nd ref="518123622"/>
    <nd ref="518123618"/>
    <nd ref="518123615"/>
    <nd ref="518123616"/>
    <nd ref="518123617"/>
    <nd ref="518123612"/>
    <nd ref="518123604"/>
    <nd ref="518123599"/>
    <nd ref="518123600"/>
    <nd ref="518123601"/>
    <nd ref="518123602"/>
    <nd ref="518123603"/>
    <nd ref="518123558"/>
    <nd ref="518123483"/>
    <nd ref="518123482"/>
    <nd ref="518123526"/>
    <nd ref="518123528"/>
    <nd ref="518123527"/>
    <nd ref="518123530"/>
    <nd ref="518123529"/>
    <nd ref="518123534"/>
    <nd ref="518123542"/>
    <nd ref="518123533"/>
    <nd ref="518123532"/>
    <nd ref="518123531"/>
    <nd ref="518123486"/>
    <nd ref="518123485"/>
    <nd ref="518123488"/>
    <nd ref="518123491"/>
    <nd ref="518123489"/>
    <nd ref="518123492"/>
    <nd ref="518123463"/>
    <nd ref="518123456"/>
    <nd ref="518123440"/>
    <nd ref="518123401"/>
    <nd ref="518123473"/>
    <nd ref="518123479"/>
    <nd ref="518123555"/>
    <nd ref="518123556"/>
    <tag k="highway" v="service"/>
    <tag k="layer" v="0"/>
    <tag k="surface" v="paved"/>
    <tag k="width" v="4"/>
  </way>
  <way id="41881745" version="4" timestamp="2012-03-02T22:23:34Z" uid="13832" user="Peter14" changeset="10853069">
    <nd ref="1656765005"/>
    <nd ref="518123622"/>
    <nd ref="518123618"/>
    <nd ref="518123615"/>
    <nd ref="518123616"/>
    <nd ref="518123617"/>
    <nd ref="518123612"/>
    <nd ref="518123604"/>
    <nd ref="518123599"/>
    <nd ref="518123600"/>
    <nd ref="518123601"/>
    <nd ref="518123602"/>
    <nd ref="518123603"/>
    <nd ref="518123558"/>
    <nd ref="518123483"/>
    <nd ref="518123482"/>
    <nd ref="518123526"/>
    <nd ref="518123528"/>
    <nd ref="518123527"/>
    <nd ref="518123530"/>
    <nd ref="518123529"/>
    <nd ref="518123534"/>
    <nd ref="518123542"/>
    <nd ref="518123533"/>
    <nd ref="518123532"/>
    <nd ref="518123531"/>
    <nd ref="518123486"/>
    <nd ref="518123485"/>
    <nd ref="518123488"/>
    <nd ref="518123491"/>
    <nd ref="518123489"/>
    <nd ref="518123492"/>
    <nd ref="518123463"/>
    <nd ref="518123456"/>
    <nd ref="518123440"/>
    <nd ref="518123401"/>
    <nd ref="518123473"/>
    <nd ref="518123479"/>
    <nd ref="518123555"/>
    <nd ref="518123556"/>
    <tag k="highway" v="service"/>
    <tag k="layer" v="0"/>
    <tag k="surface" v="paved"/>
    <tag k="width" v="4"/>
  </way>
  <way id="41881746" version="1" timestamp="2009-10-02T21:07:42Z" uid="86259" user="hasse_osm_korinthenkacker" changeset="2717651">
    <nd ref="518123401"/>
    <nd ref="518123398"/>
    <nd ref="518123391"/>
    <nd ref="518123389"/>
    <tag k="highway" v="service"/>
    <tag k="layer" v="0"/>
    <tag k="source" v="survey"/>
    <tag k="surface" v="paved"/>
    <tag k="width" v="4"/>
  </way>
  <way id="41881746" version="2" timestamp="2009-10-02T21:25:34Z" uid="86259" user="hasse_osm_korinthenkacker" changeset="2717728">
    <nd ref="518123401"/>
    <nd ref="518123398"/>
    <nd ref="518123391"/>
    <nd ref="518123389"/>
    <tag k="highway" v="service"/>
    <tag k="layer" v="0"/>
    <tag k="surface" v="paved"/>
    <tag k="width" v="4"/>
  </way>
  <way id="41881747" version="1" timestamp="2009-10-02T21:07:42Z" uid="86259" user="hasse_osm_korinthenkacker" changeset="2717651">
    <nd ref="518123553"/>
    <nd ref="518123555"/>
    <nd ref="518123554"/>
    <nd ref="518123548"/>
    <nd ref="518123552"/>
    <nd ref="518123551"/>
    <tag k="highway" v="service"/>
    <tag k="layer" v="0"/>
    <tag k="source" v="survey"/>
    <tag k="surface" v="paved"/>
    <tag k="width" v="4"/>
  </way>
  <way id="41881747" version="2" timestamp="2009-10-02T21:25:34Z" uid="86259" user="hasse_osm_korinthenkacker" changeset="2717728">
    <nd ref="518123553"/>
    <nd ref="518123555"/>
    <nd ref="518123554"/>
    <nd ref="518123548"/>
    <nd ref="518123552"/>
    <nd ref="518123551"/>
    <tag k="highway" v="service"/>
    <tag k="layer" v="0"/>
    <tag k="surface" v="paved"/>
    <tag k="width" v="4"/>
  </way>
  <way id="41881748" version="1" timestamp="2009-10-02T21:07:42Z" uid="86259" user="hasse_osm_korinthenkacker" changeset="2717651">
    <nd ref="518123407"/>
    <nd ref="518123412"/>
    <nd ref="518123413"/>
    <nd ref="518123417"/>
    <nd ref="518123416"/>
    <nd ref="518123418"/>
    <nd ref="518123419"/>
    <nd ref="518123459"/>
    <nd ref="518123461"/>
    <nd ref="518123460"/>
    <nd ref="518123462"/>
    <nd ref="518123454"/>
    <nd ref="518123452"/>
    <nd ref="518123451"/>
    <nd ref="518123455"/>
    <nd ref="518123453"/>
    <nd ref="518123434"/>
    <nd ref="518123432"/>
    <nd ref="518123431"/>
    <nd ref="518123433"/>
    <nd ref="518123430"/>
    <nd ref="518123428"/>
    <nd ref="518123427"/>
    <nd ref="518123425"/>
    <nd ref="518123426"/>
    <nd ref="518123405"/>
    <nd ref="518123406"/>
    <nd ref="518123404"/>
    <nd ref="518123410"/>
    <nd ref="518123411"/>
    <nd ref="518123408"/>
    <nd ref="518123407"/>
    <tag k="highway" v="footway"/>
    <tag k="layer" v="0"/>
    <tag k="source" v="survey"/>
  </way>
  <way id="41881748" version="2" timestamp="2009-10-02T21:25:32Z" uid="86259" user="hasse_osm_korinthenkacker" changeset="2717728">
    <nd ref="518123407"/>
    <nd ref="518123412"/>
    <nd ref="518123413"/>
    <nd ref="518123417"/>
    <nd ref="518123416"/>
    <nd ref="518123418"/>
    <nd ref="518123419"/>
    <nd ref="518123459"/>
    <nd ref="518123461"/>
    <nd ref="518123460"/>
    <nd ref="518123462"/>
    <nd ref="518123454"/>
    <nd ref="518123452"/>
    <nd ref="518123451"/>
    <nd ref="518123455"/>
    <nd ref="518123453"/>
    <nd ref="518123434"/>
    <nd ref="518123432"/>
    <nd ref="518123431"/>
    <nd ref="518123433"/>
    <nd ref="518123430"/>
    <nd ref="518123428"/>
    <nd ref="518123427"/>
    <nd ref="518123425"/>
    <nd ref="518123426"/>
    <nd ref="518123405"/>
    <nd ref="518123406"/>
    <nd ref="518123404"/>
    <nd ref="518123410"/>
    <nd ref="518123411"/>
    <nd ref="518123408"/>
    <nd ref="518123407"/>
    <tag k="highway" v="footway"/>
    <tag k="layer" v="0"/>
  </way>
  <way id="41881749" version="1" timestamp="2009-10-02T21:07:42Z" uid="86259" user="hasse_osm_korinthenkacker" changeset="2717651">
    <nd ref="518123470"/>
    <nd ref="518123501"/>
    <nd ref="518123493"/>
    <nd ref="518123469"/>
    <nd ref="518123470"/>
    <tag k="building" v="yes"/>
    <tag k="layer" v="2"/>
    <tag k="source" v="survey"/>
  </way>
  <way id="41881749" version="2" timestamp="2009-10-02T21:25:33Z" uid="86259" user="hasse_osm_korinthenkacker" changeset="2717728">
    <nd ref="518123470"/>
    <nd ref="518123501"/>
    <nd ref="518123493"/>
    <nd ref="518123469"/>
    <nd ref="518123470"/>
    <tag k="building" v="yes"/>
    <tag k="layer" v="2"/>
  </way>
  <way id="41881750" version="1" timestamp="2009-10-02T21:07:43Z" uid="86259" user="hasse_osm_korinthenkacker" changeset="2717651">
    <nd ref="518123506"/>
    <nd ref="518123503"/>
    <nd ref="518123504"/>
    <nd ref="518123512"/>
    <nd ref="518123515"/>
    <nd ref="518123513"/>
    <nd ref="518123514"/>
    <nd ref="518123520"/>
    <nd ref="518123516"/>
    <nd ref="518123517"/>
    <nd ref="518123511"/>
    <nd ref="518123519"/>
    <nd ref="518123510"/>
    <nd ref="518123509"/>
    <nd ref="518123507"/>
    <nd ref="518123505"/>
    <nd ref="518123506"/>
    <tag k="building" v="yes"/>
    <tag k="layer" v="2"/>
    <tag k="source" v="survey"/>
  </way>
  <way id="41881750" version="2" timestamp="2009-10-02T21:25:33Z" uid="86259" user="hasse_osm_korinthenkacker" changeset="2717728">
    <nd ref="518123506"/>
    <nd ref="518123503"/>
    <nd ref="518123504"/>
    <nd ref="518123512"/>
    <nd ref="518123515"/>
    <nd ref="518123513"/>
    <nd ref="518123514"/>
    <nd ref="518123520"/>
    <nd ref="518123516"/>
    <nd ref="518123517"/>
    <nd ref="518123511"/>
    <nd ref="518123519"/>
    <nd ref="518123510"/>
    <nd ref="518123509"/>
    <nd ref="518123507"/>
    <nd ref="518123505"/>
    <nd ref="518123506"/>
    <tag k="building" v="yes"/>
    <tag k="layer" v="2"/>
  </way>
  <way id="41881751" version="1" timestamp="2009-10-02T21:07:43Z" uid="86259" user="hasse_osm_korinthenkacker" changeset="2717651">
    <nd ref="518123475"/>
    <nd ref="518123437"/>
    <nd ref="518123436"/>
    <nd ref="518123435"/>
    <nd ref="518123475"/>
    <tag k="building" v="yes"/>
    <tag k="layer" v="2"/>
    <tag k="source" v="survey"/>
  </way>
  <way id="41881751" version="2" timestamp="2009-10-02T21:25:33Z" uid="86259" user="hasse_osm_korinthenkacker" changeset="2717728">
    <nd ref="518123475"/>
    <nd ref="518123437"/>
    <nd ref="518123436"/>
    <nd ref="518123435"/>
    <nd ref="518123475"/>
    <tag k="building" v="yes"/>
    <tag k="layer" v="2"/>
  </way>
  <way id="41881752" version="1" timestamp="2009-10-02T21:07:43Z" uid="86259" user="hasse_osm_korinthenkacker" changeset="2717651">
    <nd ref="518123465"/>
    <nd ref="518123467"/>
    <nd ref="518123468"/>
    <nd ref="518123441"/>
    <nd ref="518123465"/>
    <tag k="building" v="yes"/>
    <tag k="layer" v="2"/>
    <tag k="source" v="survey"/>
  </way>
  <way id="41881752" version="2" timestamp="2009-10-02T21:25:31Z" uid="86259" user="hasse_osm_korinthenkacker" changeset="2717728">
    <nd ref="518123465"/>
    <nd ref="518123467"/>
    <nd ref="518123468"/>
    <nd ref="518123441"/>
    <nd ref="518123465"/>
    <tag k="building" v="yes"/>
    <tag k="layer" v="2"/>
  </way>
  <way id="41881753" version="1" timestamp="2009-10-02T21:07:43Z" uid="86259" user="hasse_osm_korinthenkacker" changeset="2717651">
    <nd ref="518123669"/>
    <nd ref="518123640"/>
    <nd ref="518123630"/>
    <nd ref="518123639"/>
    <nd ref="518123637"/>
    <nd ref="518123627"/>
    <nd ref="518123669"/>
    <tag k="building" v="yes"/>
    <tag k="layer" v="2"/>
    <tag k="source" v="survey"/>
  </way>
  <way id="41881753" version="2" timestamp="2009-10-02T21:25:31Z" uid="86259" user="hasse_osm_korinthenkacker" changeset="2717728">
    <nd ref="518123669"/>
    <nd ref="518123640"/>
    <nd ref="518123630"/>
    <nd ref="518123639"/>
    <nd ref="518123637"/>
    <nd ref="518123627"/>
    <nd ref="518123669"/>
    <tag k="building" v="yes"/>
    <tag k="layer" v="2"/>
  </way>
  <way id="41881754" version="1" timestamp="2009-10-02T21:07:43Z" uid="86259" user="hasse_osm_korinthenkacker" changeset="2717651">
    <nd ref="518123539"/>
    <nd ref="518123541"/>
    <nd ref="518123540"/>
    <nd ref="518123544"/>
    <nd ref="518123543"/>
    <nd ref="518123535"/>
    <nd ref="518123539"/>
    <tag k="building" v="yes"/>
    <tag k="layer" v="2"/>
    <tag k="source" v="survey"/>
  </way>
  <way id="41881754" version="2" timestamp="2009-10-02T21:25:32Z" uid="86259" user="hasse_osm_korinthenkacker" changeset="2717728">
    <nd ref="518123539"/>
    <nd ref="518123541"/>
    <nd ref="518123540"/>
    <nd ref="518123544"/>
    <nd ref="518123543"/>
    <nd ref="518123535"/>
    <nd ref="518123539"/>
    <tag k="building" v="yes"/>
    <tag k="layer" v="2"/>
  </way>
  <way id="41881755" version="1" timestamp="2009-10-02T21:07:43Z" uid="86259" user="hasse_osm_korinthenkacker" changeset="2717651">
    <nd ref="518123619"/>
    <nd ref="518123620"/>
    <nd ref="518123537"/>
    <nd ref="518123536"/>
    <nd ref="518123619"/>
    <tag k="building" v="yes"/>
    <tag k="landuse" v="construction"/>
    <tag k="layer" v="2"/>
    <tag k="source" v="survey"/>
  </way>
  <way id="41881755" version="2" timestamp="2009-10-02T21:25:32Z" uid="86259" user="hasse_osm_korinthenkacker" changeset="2717728">
    <nd ref="518123619"/>
    <nd ref="518123620"/>
    <nd ref="518123537"/>
    <nd ref="518123536"/>
    <nd ref="518123619"/>
    <tag k="building" v="yes"/>
    <tag k="landuse" v="construction"/>
    <tag k="layer" v="2"/>
  </way>
  <way id="41881756" version="1" timestamp="2009-10-02T21:07:43Z" uid="86259" user="hasse_osm_korinthenkacker" changeset="2717651">
    <nd ref="518123479"/>
    <nd ref="518123478"/>
    <tag k="highway" v="footway"/>
    <tag k="layer" v="0"/>
    <tag k="source" v="survey"/>
    <tag k="surface" v="paved"/>
  </way>
  <way id="41881756" version="2" timestamp="2009-10-02T21:25:30Z" uid="86259" user="hasse_osm_korinthenkacker" changeset="2717728">
    <nd ref="518123479"/>
    <nd ref="518123478"/>
    <tag k="highway" v="footway"/>
    <tag k="layer" v="0"/>
    <tag k="surface" v="paved"/>
  </way>
  <way id="41881757" version="1" timestamp="2009-10-02T21:07:44Z" uid="86259" user="hasse_osm_korinthenkacker" changeset="2717651">
    <nd ref="518123473"/>
    <nd ref="518123474"/>
    <tag k="highway" v="footway"/>
    <tag k="layer" v="0"/>
    <tag k="source" v="survey"/>
    <tag k="surface" v="paved"/>
  </way>
  <way id="41881757" version="2" timestamp="2009-10-02T21:25:30Z" uid="86259" user="hasse_osm_korinthenkacker" changeset="2717728">
    <nd ref="518123473"/>
    <nd ref="518123474"/>
    <tag k="highway" v="footway"/>
    <tag k="layer" v="0"/>
    <tag k="surface" v="paved"/>
  </way>
  <way id="41881758" version="1" timestamp="2009-10-02T21:07:44Z" uid="86259" user="hasse_osm_korinthenkacker" changeset="2717651">
    <nd ref="518123610"/>
    <nd ref="518123625"/>
    <tag k="highway" v="footway"/>
    <tag k="layer" v="0"/>
    <tag k="source" v="survey"/>
  </way>
  <way id="41881758" version="2" timestamp="2009-10-02T21:25:31Z" uid="86259" user="hasse_osm_korinthenkacker" changeset="2717728">
    <nd ref="518123610"/>
    <nd ref="518123625"/>
    <tag k="highway" v="footway"/>
    <tag k="layer" v="0"/>
  </way>
  <way id="41881759" version="1" timestamp="2009-10-02T21:07:44Z" uid="86259" user="hasse_osm_korinthenkacker" changeset="2717651">
    <nd ref="518123569"/>
    <nd ref="518123570"/>
    <nd ref="518123670"/>
    <nd ref="518123671"/>
    <nd ref="518123676"/>
    <nd ref="518123583"/>
    <nd ref="518123581"/>
    <nd ref="518123584"/>
    <nd ref="518123592"/>
    <nd ref="518123587"/>
    <nd ref="518123586"/>
    <nd ref="518123589"/>
    <nd ref="518123588"/>
    <nd ref="518123577"/>
    <nd ref="518123576"/>
    <nd ref="518123580"/>
    <nd ref="518123567"/>
    <nd ref="518123566"/>
    <nd ref="518123565"/>
    <nd ref="518123564"/>
    <nd ref="518123568"/>
    <nd ref="518123569"/>
    <tag k="name" v="Kloster Weiher"/>
    <tag k="natural" v="water"/>
    <tag k="source" v="survey"/>
  </way>
  <way id="41881759" version="2" timestamp="2009-10-02T21:25:31Z" uid="86259" user="hasse_osm_korinthenkacker" changeset="2717728">
    <nd ref="518123569"/>
    <nd ref="518123570"/>
    <nd ref="518123670"/>
    <nd ref="518123671"/>
    <nd ref="518123676"/>
    <nd ref="518123583"/>
    <nd ref="518123581"/>
    <nd ref="518123584"/>
    <nd ref="518123592"/>
    <nd ref="518123587"/>
    <nd ref="518123586"/>
    <nd ref="518123589"/>
    <nd ref="518123588"/>
    <nd ref="518123577"/>
    <nd ref="518123576"/>
    <nd ref="518123580"/>
    <nd ref="518123567"/>
    <nd ref="518123566"/>
    <nd ref="518123565"/>
    <nd ref="518123564"/>
    <nd ref="518123568"/>
    <nd ref="518123569"/>
    <tag k="name" v="Kloster Weiher"/>
    <tag k="natural" v="water"/>
  </way>
  <way id="41881759" version="3" timestamp="2012-03-11T01:20:07Z" uid="342705" user="KLMB" changeset="10938381"/>
  <way id="41881760" version="1" timestamp="2009-10-02T21:07:44Z" uid="86259" user="hasse_osm_korinthenkacker" changeset="2717651">
    <nd ref="518123666"/>
    <nd ref="518123665"/>
    <nd ref="518123634"/>
    <nd ref="518123638"/>
    <nd ref="518123636"/>
    <nd ref="518123633"/>
    <nd ref="518123631"/>
    <nd ref="518123632"/>
    <nd ref="518123624"/>
    <nd ref="518123625"/>
    <nd ref="518123629"/>
    <nd ref="518123628"/>
    <tag k="highway" v="footway"/>
    <tag k="layer" v="0"/>
    <tag k="source" v="survey"/>
  </way>
  <way id="41881760" version="2" timestamp="2009-10-02T21:25:36Z" uid="86259" user="hasse_osm_korinthenkacker" changeset="2717728">
    <nd ref="518123666"/>
    <nd ref="518123665"/>
    <nd ref="518123634"/>
    <nd ref="518123638"/>
    <nd ref="518123636"/>
    <nd ref="518123633"/>
    <nd ref="518123631"/>
    <nd ref="518123632"/>
    <nd ref="518123624"/>
    <nd ref="518123625"/>
    <nd ref="518123629"/>
    <nd ref="518123628"/>
    <tag k="highway" v="footway"/>
    <tag k="layer" v="0"/>
  </way>
  <way id="41881761" version="1" timestamp="2009-10-02T21:07:44Z" uid="86259" user="hasse_osm_korinthenkacker" changeset="2717651">
    <nd ref="518123650"/>
    <nd ref="518123609"/>
    <nd ref="518123628"/>
    <nd ref="518123667"/>
    <nd ref="518123668"/>
    <nd ref="518123650"/>
    <nd ref="518123649"/>
    <nd ref="518123651"/>
    <nd ref="518123645"/>
    <nd ref="518123644"/>
    <nd ref="518123646"/>
    <nd ref="518123648"/>
    <tag k="highway" v="footway"/>
    <tag k="layer" v="0"/>
    <tag k="source" v="survey"/>
  </way>
  <way id="41881761" version="2" timestamp="2009-10-02T21:25:36Z" uid="86259" user="hasse_osm_korinthenkacker" changeset="2717728">
    <nd ref="518123650"/>
    <nd ref="518123609"/>
    <nd ref="518123628"/>
    <nd ref="518123667"/>
    <nd ref="518123668"/>
    <nd ref="518123650"/>
    <nd ref="518123649"/>
    <nd ref="518123651"/>
    <nd ref="518123645"/>
    <nd ref="518123644"/>
    <nd ref="518123646"/>
    <nd ref="518123648"/>
    <tag k="highway" v="footway"/>
    <tag k="layer" v="0"/>
  </way>
  <way id="41881762" version="1" timestamp="2009-10-02T21:07:44Z" uid="86259" user="hasse_osm_korinthenkacker" changeset="2717651">
    <nd ref="518123624"/>
    <nd ref="518123626"/>
    <nd ref="518123608"/>
    <nd ref="518123607"/>
    <nd ref="518123604"/>
    <tag k="highway" v="footway"/>
    <tag k="layer" v="0"/>
    <tag k="source" v="survey"/>
  </way>
  <way id="41881762" version="2" timestamp="2009-10-02T21:25:36Z" uid="86259" user="hasse_osm_korinthenkacker" changeset="2717728">
    <nd ref="518123624"/>
    <nd ref="518123626"/>
    <nd ref="518123608"/>
    <nd ref="518123607"/>
    <nd ref="518123604"/>
    <tag k="highway" v="footway"/>
    <tag k="layer" v="0"/>
  </way>
  <way id="41881763" version="1" timestamp="2009-10-02T21:07:44Z" uid="86259" user="hasse_osm_korinthenkacker" changeset="2717651">
    <nd ref="518123606"/>
    <nd ref="518123605"/>
    <nd ref="518123601"/>
    <tag k="highway" v="footway"/>
    <tag k="layer" v="0"/>
    <tag k="source" v="survey"/>
  </way>
  <way id="41881763" version="2" timestamp="2009-10-02T21:25:36Z" uid="86259" user="hasse_osm_korinthenkacker" changeset="2717728">
    <nd ref="518123606"/>
    <nd ref="518123605"/>
    <nd ref="518123601"/>
    <tag k="highway" v="footway"/>
    <tag k="layer" v="0"/>
  </way>
  <way id="41881764" version="1" timestamp="2009-10-02T21:07:44Z" uid="86259" user="hasse_osm_korinthenkacker" changeset="2717651">
    <nd ref="518123658"/>
    <nd ref="518123656"/>
    <nd ref="518123657"/>
    <nd ref="518123662"/>
    <nd ref="518123663"/>
    <nd ref="518123661"/>
    <nd ref="518123659"/>
    <nd ref="518123660"/>
    <nd ref="518123655"/>
    <nd ref="518123653"/>
    <nd ref="518123654"/>
    <nd ref="518123652"/>
    <nd ref="518123647"/>
    <nd ref="518123648"/>
    <nd ref="518123643"/>
    <nd ref="518123641"/>
    <nd ref="518123642"/>
    <nd ref="518123574"/>
    <nd ref="518123572"/>
    <nd ref="518123575"/>
    <nd ref="518123573"/>
    <nd ref="518123571"/>
    <nd ref="518123578"/>
    <nd ref="518123559"/>
    <nd ref="518123560"/>
    <nd ref="518123561"/>
    <nd ref="518123562"/>
    <nd ref="518123563"/>
    <nd ref="518123673"/>
    <nd ref="518123675"/>
    <nd ref="518123674"/>
    <nd ref="518123677"/>
    <nd ref="518123585"/>
    <nd ref="518123593"/>
    <nd ref="518123591"/>
    <nd ref="518123590"/>
    <nd ref="518123579"/>
    <nd ref="518123595"/>
    <nd ref="518123596"/>
    <nd ref="518123594"/>
    <nd ref="518123598"/>
    <nd ref="518123597"/>
    <nd ref="518123658"/>
    <tag k="highway" v="footway"/>
    <tag k="layer" v="0"/>
    <tag k="source" v="survey"/>
  </way>
  <way id="41881764" version="2" timestamp="2009-10-02T21:25:35Z" uid="86259" user="hasse_osm_korinthenkacker" changeset="2717728">
    <nd ref="518123658"/>
    <nd ref="518123656"/>
    <nd ref="518123657"/>
    <nd ref="518123662"/>
    <nd ref="518123663"/>
    <nd ref="518123661"/>
    <nd ref="518123659"/>
    <nd ref="518123660"/>
    <nd ref="518123655"/>
    <nd ref="518123653"/>
    <nd ref="518123654"/>
    <nd ref="518123652"/>
    <nd ref="518123647"/>
    <nd ref="518123648"/>
    <nd ref="518123643"/>
    <nd ref="518123641"/>
    <nd ref="518123642"/>
    <nd ref="518123574"/>
    <nd ref="518123572"/>
    <nd ref="518123575"/>
    <nd ref="518123573"/>
    <nd ref="518123571"/>
    <nd ref="518123578"/>
    <nd ref="518123559"/>
    <nd ref="518123560"/>
    <nd ref="518123561"/>
    <nd ref="518123562"/>
    <nd ref="518123563"/>
    <nd ref="518123673"/>
    <nd ref="518123675"/>
    <nd ref="518123674"/>
    <nd ref="518123677"/>
    <nd ref="518123585"/>
    <nd ref="518123593"/>
    <nd ref="518123591"/>
    <nd ref="518123590"/>
    <nd ref="518123579"/>
    <nd ref="518123595"/>
    <nd ref="518123596"/>
    <nd ref="518123594"/>
    <nd ref="518123598"/>
    <nd ref="518123597"/>
    <nd ref="518123658"/>
    <tag k="highway" v="footway"/>
    <tag k="layer" v="0"/>
  </way>
  <way id="41881765" version="1" timestamp="2009-10-02T21:07:45Z" uid="86259" user="hasse_osm_korinthenkacker" changeset="2717651">
    <nd ref="518123476"/>
    <nd ref="518123477"/>
    <nd ref="518123472"/>
    <nd ref="518123471"/>
    <nd ref="518123476"/>
    <tag k="building" v="yes"/>
    <tag k="layer" v="2"/>
    <tag k="source" v="survey"/>
  </way>
  <way id="41881765" version="2" timestamp="2009-10-02T21:25:35Z" uid="86259" user="hasse_osm_korinthenkacker" changeset="2717728">
    <nd ref="518123476"/>
    <nd ref="518123477"/>
    <nd ref="518123472"/>
    <nd ref="518123471"/>
    <nd ref="518123476"/>
    <tag k="building" v="yes"/>
    <tag k="layer" v="2"/>
  </way>
  <way id="41881766" version="1" timestamp="2009-10-02T21:07:45Z" uid="86259" user="hasse_osm_korinthenkacker" changeset="2717651">
    <nd ref="518123397"/>
    <nd ref="518123396"/>
    <nd ref="518123395"/>
    <nd ref="518123390"/>
    <nd ref="518123386"/>
    <nd ref="518123394"/>
    <nd ref="518123397"/>
    <tag k="building" v="yes"/>
    <tag k="layer" v="2"/>
    <tag k="source" v="survey"/>
  </way>
  <way id="41881766" version="2" timestamp="2009-10-02T21:25:35Z" uid="86259" user="hasse_osm_korinthenkacker" changeset="2717728">
    <nd ref="518123397"/>
    <nd ref="518123396"/>
    <nd ref="518123395"/>
    <nd ref="518123390"/>
    <nd ref="518123386"/>
    <nd ref="518123394"/>
    <nd ref="518123397"/>
    <tag k="building" v="yes"/>
    <tag k="layer" v="2"/>
  </way>
  <way id="41881767" version="1" timestamp="2009-10-02T21:07:45Z" uid="86259" user="hasse_osm_korinthenkacker" changeset="2717651">
    <nd ref="518123658"/>
    <nd ref="518123575"/>
    <tag k="highway" v="footway"/>
    <tag k="layer" v="0"/>
    <tag k="source" v="survey"/>
  </way>
  <way id="41881767" version="2" timestamp="2009-10-02T21:25:35Z" uid="86259" user="hasse_osm_korinthenkacker" changeset="2717728">
    <nd ref="518123658"/>
    <nd ref="518123575"/>
    <tag k="highway" v="footway"/>
    <tag k="layer" v="0"/>
  </way>
  <way id="41881768" version="1" timestamp="2009-10-02T21:07:45Z" uid="86259" user="hasse_osm_korinthenkacker" changeset="2717651">
    <nd ref="518123392"/>
    <nd ref="518123403"/>
    <nd ref="518123402"/>
    <nd ref="518123393"/>
    <nd ref="518123392"/>
    <tag k="building" v="yes"/>
    <tag k="layer" v="2"/>
    <tag k="source" v="survey"/>
  </way>
  <way id="41881768" version="2" timestamp="2009-10-02T21:25:35Z" uid="86259" user="hasse_osm_korinthenkacker" changeset="2717728">
    <nd ref="518123392"/>
    <nd ref="518123403"/>
    <nd ref="518123402"/>
    <nd ref="518123393"/>
    <nd ref="518123392"/>
    <tag k="building" v="yes"/>
    <tag k="layer" v="2"/>
  </way>
  <way id="41881769" version="1" timestamp="2009-10-02T21:07:45Z" uid="86259" user="hasse_osm_korinthenkacker" changeset="2717651">
    <nd ref="518123578"/>
    <nd ref="518123557"/>
    <nd ref="518123556"/>
    <tag k="highway" v="footway"/>
    <tag k="layer" v="0"/>
    <tag k="source" v="survey"/>
  </way>
  <way id="41881769" version="2" timestamp="2009-10-02T21:25:35Z" uid="86259" user="hasse_osm_korinthenkacker" changeset="2717728">
    <nd ref="518123578"/>
    <nd ref="518123557"/>
    <nd ref="518123556"/>
    <tag k="highway" v="footway"/>
    <tag k="layer" v="0"/>
  </way>
  <way id="41881770" version="1" timestamp="2009-10-02T21:07:45Z" uid="86259" user="hasse_osm_korinthenkacker" changeset="2717651">
    <nd ref="518123399"/>
    <nd ref="518123400"/>
    <nd ref="518123387"/>
    <nd ref="518123388"/>
    <nd ref="518123399"/>
    <tag k="building" v="yes"/>
    <tag k="layer" v="2"/>
    <tag k="source" v="survey"/>
  </way>
  <way id="41881770" version="2" timestamp="2009-10-02T21:25:35Z" uid="86259" user="hasse_osm_korinthenkacker" changeset="2717728">
    <nd ref="518123399"/>
    <nd ref="518123400"/>
    <nd ref="518123387"/>
    <nd ref="518123388"/>
    <nd ref="518123399"/>
    <tag k="building" v="yes"/>
    <tag k="layer" v="2"/>
  </way>
  <way id="41881776" version="3" timestamp="2011-02-26T11:08:09Z" uid="4467" user="Rosscoe" changeset="7398605">
    <nd ref="1003613313"/>
    <nd ref="518123773"/>
    <nd ref="1174374407"/>
    <nd ref="1174374423"/>
    <nd ref="518123763"/>
    <tag k="highway" v="trunk"/>
    <tag k="source" v="survey"/>
  </way>
  <way id="41881776" version="4" timestamp="2011-02-26T11:12:51Z" uid="4467" user="Rosscoe" changeset="7398650">
    <nd ref="1174384510"/>
    <nd ref="1174384519"/>
    <nd ref="1174384537"/>
    <nd ref="1174374412"/>
    <nd ref="1174384518"/>
    <nd ref="1174384525"/>
    <nd ref="1174384507"/>
    <nd ref="1174384508"/>
    <nd ref="1174384524"/>
    <nd ref="1174384505"/>
    <tag k="highway" v="trunk"/>
    <tag k="oneway" v="yes"/>
    <tag k="source" v="survey"/>
  </way>
  <way id="41881777" version="2" timestamp="2010-08-12T10:13:02Z" uid="4467" user="Rosscoe" changeset="5471696">
    <nd ref="518123777"/>
    <nd ref="518123780"/>
    <nd ref="518123782"/>
    <nd ref="518123784"/>
    <nd ref="518123786"/>
    <nd ref="518123789"/>
    <nd ref="518123791"/>
    <tag k="highway" v="unclassified"/>
    <tag k="source" v="survey"/>
  </way>
  <way id="41881778" version="2" timestamp="2010-08-12T10:13:09Z" uid="4467" user="Rosscoe" changeset="5471696">
    <nd ref="247805961"/>
    <nd ref="518123789"/>
    <tag k="highway" v="unclassified"/>
    <tag k="source" v="survey"/>
  </way>
  <way id="41881779" version="3" timestamp="2010-08-12T10:12:57Z" uid="4467" user="Rosscoe" changeset="5471696">
    <nd ref="518123817"/>
    <nd ref="518123816"/>
    <nd ref="518123794"/>
    <tag k="attribution" v="Based on data from State of Queensland (Department of Environment and Resource Management) 2009"/>
    <tag k="name" v="Callide Valley Branch"/>
    <tag k="note" v="FIXME: DCDB indicates a right of way in this location. Needs a field survey to confirm railway type and actual alignment."/>
    <tag k="railway" v="disused"/>
    <tag k="source" v="au.qld.dcdb_lite"/>
  </way>
  <way id="41881779" version="4" timestamp="2011-02-26T23:16:20Z" uid="4467" user="Rosscoe" changeset="7405630">
    <nd ref="518123817"/>
    <nd ref="518123816"/>
    <nd ref="1175910261"/>
    <nd ref="518123794"/>
    <tag k="attribution" v="Based on data from State of Queensland (Department of Environment and Resource Management) 2009"/>
    <tag k="name" v="Callide Valley Branch"/>
    <tag k="note" v="FIXME: DCDB indicates a right of way in this location. Needs a field survey to confirm railway type and actual alignment."/>
    <tag k="railway" v="disused"/>
    <tag k="source" v="au.qld.dcdb_lite"/>
  </way>
  <way id="41881806" version="2" timestamp="2010-04-06T14:47:58Z" uid="20587" user="balrog-kun" changeset="4342997">
    <nd ref="120525669"/>
    <nd ref="120527491"/>
    <nd ref="120548887"/>
    <nd ref="120530714"/>
    <nd ref="120513069"/>
    <nd ref="120519964"/>
    <nd ref="120529072"/>
    <nd ref="120542392"/>
    <nd ref="120549453"/>
    <nd ref="120529571"/>
    <nd ref="120538192"/>
    <nd ref="120545982"/>
    <nd ref="120545513"/>
    <nd ref="120538404"/>
    <nd ref="120545598"/>
    <nd ref="120537690"/>
    <nd ref="120532118"/>
    <nd ref="120533754"/>
    <nd ref="120549457"/>
    <nd ref="120523365"/>
    <nd ref="120549459"/>
    <nd ref="120549462"/>
    <nd ref="120549465"/>
    <nd ref="120515815"/>
    <nd ref="120531990"/>
    <nd ref="120539186"/>
    <nd ref="120524146"/>
    <nd ref="120536358"/>
    <nd ref="120548680"/>
    <nd ref="120547805"/>
    <nd ref="120547702"/>
    <nd ref="120526534"/>
    <nd ref="120526897"/>
    <tag k="highway" v="secondary"/>
    <tag k="name" v="West 1st Street"/>
    <tag k="name_1" v="County Road 570"/>
    <tag k="tiger:cfcc" v="A41"/>
    <tag k="tiger:county" v="Harvey, KS"/>
    <tag k="tiger:name_base" v="1st"/>
    <tag k="tiger:name_base_1" v="County Road 570"/>
    <tag k="tiger:name_direction_prefix" v="W"/>
    <tag k="tiger:name_type" v="St"/>
    <tag k="tiger:reviewed" v="no"/>
    <tag k="tiger:separated" v="no"/>
    <tag k="tiger:source" v="tiger_import_dch_v0.6_20070812"/>
    <tag k="tiger:tlid" v="120641672:120641671:120641673:120641678:120641681:120641693:120641683:120641679:120641668:120641698:120642964:120642968:120642214:120641732:120641733:120641737:120642643:120642638:120641740:120641741:120641730:120641731:120641739:120641720:120641729:12064"/>
    <tag k="tiger:zip_left" v="67114"/>
    <tag k="tiger:zip_right" v="67114"/>
  </way>
  <way id="41881806" version="3" timestamp="2010-12-20T05:17:33Z" uid="60244" user="Tim Litwiller" changeset="6712705">
    <nd ref="120525669"/>
    <nd ref="120527491"/>
    <nd ref="120548887"/>
    <nd ref="120530714"/>
    <nd ref="120513069"/>
    <nd ref="120519964"/>
    <nd ref="120529072"/>
    <nd ref="120542392"/>
    <nd ref="120549453"/>
    <nd ref="120529571"/>
    <nd ref="120538192"/>
    <nd ref="120545982"/>
    <nd ref="120545513"/>
    <nd ref="120538404"/>
    <nd ref="120545598"/>
    <nd ref="120537690"/>
    <nd ref="120532118"/>
    <nd ref="120533754"/>
    <nd ref="120549457"/>
    <nd ref="120523365"/>
    <nd ref="120549459"/>
    <nd ref="120549462"/>
    <nd ref="120549465"/>
    <nd ref="120515815"/>
    <nd ref="120531990"/>
    <nd ref="120539186"/>
    <nd ref="120524146"/>
    <nd ref="120536358"/>
    <nd ref="120548680"/>
    <nd ref="120547805"/>
    <nd ref="120547702"/>
    <nd ref="120526534"/>
    <nd ref="120526897"/>
    <tag k="highway" v="tertiary"/>
    <tag k="name" v="West 1st Street"/>
    <tag k="name_1" v="County Road 570"/>
    <tag k="tiger:cfcc" v="A41"/>
    <tag k="tiger:county" v="Harvey, KS"/>
    <tag k="tiger:name_base" v="1st"/>
    <tag k="tiger:name_base_1" v="County Road 570"/>
    <tag k="tiger:name_direction_prefix" v="W"/>
    <tag k="tiger:name_type" v="St"/>
    <tag k="tiger:reviewed" v="no"/>
    <tag k="tiger:separated" v="no"/>
    <tag k="tiger:source" v="tiger_import_dch_v0.6_20070812"/>
    <tag k="tiger:tlid" v="120641672:120641671:120641673:120641678:120641681:120641693:120641683:120641679:120641668:120641698:120642964:120642968:120642214:120641732:120641733:120641737:120642643:120642638:120641740:120641741:120641730:120641731:120641739:120641720:120641729:12064"/>
    <tag k="tiger:zip_left" v="67114"/>
    <tag k="tiger:zip_right" v="67114"/>
  </way>
  <way id="41881809" version="2" timestamp="2010-04-06T14:47:58Z" uid="20587" user="balrog-kun" changeset="4342997">
    <nd ref="120525664"/>
    <nd ref="120513409"/>
    <tag k="highway" v="residential"/>
    <tag k="name" v="South Hoover Road"/>
    <tag k="name_1" v="County Road 813"/>
    <tag k="tiger:cfcc" v="A41"/>
    <tag k="tiger:county" v="Harvey, KS"/>
    <tag k="tiger:name_base" v="Hoover"/>
    <tag k="tiger:name_base_1" v="County Road 813"/>
    <tag k="tiger:name_direction_prefix" v="S"/>
    <tag k="tiger:name_type" v="Rd"/>
    <tag k="tiger:reviewed" v="no"/>
    <tag k="tiger:separated" v="no"/>
    <tag k="tiger:source" v="tiger_import_dch_v0.6_20070812"/>
    <tag k="tiger:tlid" v="120640576:120640656:120640657:120640273:120640274:120640243"/>
    <tag k="tiger:zip_left" v="67114"/>
    <tag k="tiger:zip_right" v="67114"/>
  </way>
  <way id="41881838" version="2" timestamp="2010-08-12T10:13:24Z" uid="4467" user="Rosscoe" changeset="5471696">
    <nd ref="518123822"/>
    <nd ref="518124704"/>
    <nd ref="518123791"/>
    <nd ref="518124705"/>
    <nd ref="518124706"/>
    <nd ref="518124707"/>
    <nd ref="518124708"/>
    <tag k="highway" v="unclassified"/>
    <tag k="source" v="survey"/>
  </way>
  <way id="41881838" version="3" timestamp="2011-02-26T23:16:25Z" uid="4467" user="Rosscoe" changeset="7405630">
    <nd ref="518123822"/>
    <nd ref="518124704"/>
    <nd ref="518123791"/>
    <nd ref="518124705"/>
    <nd ref="518124706"/>
    <nd ref="518124707"/>
    <nd ref="1175909865"/>
    <nd ref="1175909616"/>
    <nd ref="518124708"/>
    <tag k="highway" v="unclassified"/>
    <tag k="source" v="survey"/>
  </way>
  <way id="41881839" version="2" timestamp="2010-08-12T10:13:06Z" uid="4467" user="Rosscoe" changeset="5471696">
    <nd ref="518124705"/>
    <nd ref="518124709"/>
    <tag k="attribution" v="Based on data from State of Queensland (Department of Environment and Resource Management) 2009"/>
    <tag k="highway" v="road"/>
    <tag k="note" v="FIXME: DCDB indicates a right of way in this location. Needs a field survey to confirm highway type and actual alignment."/>
    <tag k="source" v="au.qld.dcdb_lite"/>
  </way>
  <way id="41881839" version="3" timestamp="2011-02-26T11:03:28Z" uid="4467" user="Rosscoe" changeset="7398557">
    <nd ref="518124705"/>
    <nd ref="518124709"/>
    <tag k="highway" v="residential"/>
  </way>
  <way id="41881840" version="2" timestamp="2010-08-12T10:13:27Z" uid="4467" user="Rosscoe" changeset="5471696">
    <nd ref="518124710"/>
    <nd ref="518124709"/>
    <nd ref="518124711"/>
    <nd ref="518124708"/>
    <nd ref="518124712"/>
    <tag k="attribution" v="Based on data from State of Queensland (Department of Environment and Resource Management) 2009"/>
    <tag k="highway" v="road"/>
    <tag k="note" v="FIXME: DCDB indicates a right of way in this location. Needs a field survey to confirm highway type and actual alignment."/>
    <tag k="source" v="au.qld.dcdb_lite"/>
  </way>
  <way id="41881840" version="3" timestamp="2011-02-26T11:03:22Z" uid="4467" user="Rosscoe" changeset="7398557">
    <nd ref="518124710"/>
    <nd ref="518124709"/>
    <nd ref="518124711"/>
    <nd ref="518124708"/>
    <nd ref="518124712"/>
    <tag k="highway" v="residential"/>
  </way>
  <way id="41881840" version="4" timestamp="2011-02-26T23:15:35Z" uid="4467" user="Rosscoe" changeset="7405630">
    <nd ref="518124710"/>
    <nd ref="518124709"/>
    <nd ref="518124711"/>
    <nd ref="518124708"/>
    <nd ref="518124712"/>
    <nd ref="1175909789"/>
    <nd ref="1175910075"/>
    <nd ref="1175909720"/>
    <nd ref="1175910017"/>
    <nd ref="1175909667"/>
    <nd ref="1175909933"/>
    <nd ref="1175909601"/>
    <nd ref="1175909861"/>
    <nd ref="1175910258"/>
    <nd ref="1175909749"/>
    <nd ref="1175910195"/>
    <nd ref="1175909695"/>
    <tag k="highway" v="residential"/>
  </way>
  <way id="41881841" version="2" timestamp="2010-08-12T10:13:14Z" uid="4467" user="Rosscoe" changeset="5471696">
    <nd ref="518124711"/>
    <nd ref="518123796"/>
    <nd ref="518124713"/>
    <tag k="attribution" v="Based on data from State of Queensland (Department of Environment and Resource Management) 2009"/>
    <tag k="highway" v="road"/>
    <tag k="note" v="FIXME: DCDB indicates a right of way in this location. Needs a field survey to confirm highway type and actual alignment."/>
    <tag k="source" v="au.qld.dcdb_lite"/>
  </way>
  <way id="41881841" version="3" timestamp="2011-02-26T11:03:30Z" uid="4467" user="Rosscoe" changeset="7398557">
    <nd ref="518124711"/>
    <nd ref="518123796"/>
    <nd ref="518124713"/>
    <tag k="highway" v="residential"/>
  </way>
  <way id="41881842" version="2" timestamp="2011-02-26T11:08:11Z" uid="4467" user="Rosscoe" changeset="7398605"/>
  <way id="41881843" version="3" timestamp="2011-02-26T11:03:25Z" uid="4467" user="Rosscoe" changeset="7398557">
    <nd ref="518124726"/>
    <nd ref="518233121"/>
    <nd ref="518233061"/>
    <nd ref="518233125"/>
    <nd ref="518233053"/>
    <nd ref="518233047"/>
    <nd ref="518124730"/>
    <nd ref="518233020"/>
    <nd ref="518233006"/>
    <nd ref="518124731"/>
    <tag k="highway" v="residential"/>
  </way>
  <way id="41881844" version="3" timestamp="2010-08-12T10:13:02Z" uid="4467" user="Rosscoe" changeset="5471696">
    <nd ref="518124723"/>
    <nd ref="518147538"/>
    <nd ref="518124735"/>
    <tag k="highway" v="residential"/>
    <tag k="source" v="survey"/>
  </way>
  <way id="41881844" version="4" timestamp="2011-02-26T23:15:44Z" uid="4467" user="Rosscoe" changeset="7405630">
    <nd ref="518124723"/>
    <nd ref="1175909799"/>
    <nd ref="518147538"/>
    <nd ref="518124735"/>
    <tag k="highway" v="residential"/>
    <tag k="source" v="survey"/>
  </way>
  <way id="41881951" version="2" timestamp="2011-02-26T11:03:24Z" uid="4467" user="Rosscoe" changeset="7398557">
    <nd ref="518123823"/>
    <nd ref="518125744"/>
    <nd ref="518125746"/>
    <nd ref="518125745"/>
    <tag k="highway" v="residential"/>
  </way>
  <way id="41881951" version="3" timestamp="2011-02-26T11:08:07Z" uid="4467" user="Rosscoe" changeset="7398605">
    <nd ref="1174374412"/>
    <nd ref="518125744"/>
    <nd ref="518125746"/>
    <nd ref="518125745"/>
    <tag k="highway" v="residential"/>
  </way>
  <way id="41881953" version="2" timestamp="2011-02-26T11:03:25Z" uid="4467" user="Rosscoe" changeset="7398557">
    <nd ref="518123819"/>
    <nd ref="518125747"/>
    <tag k="highway" v="residential"/>
  </way>
  <way id="41881954" version="3" timestamp="2011-02-26T11:03:22Z" uid="4467" user="Rosscoe" changeset="7398557">
    <nd ref="518124723"/>
    <nd ref="518233037"/>
    <nd ref="518233051"/>
    <nd ref="518233044"/>
    <nd ref="518233086"/>
    <nd ref="518233072"/>
    <nd ref="518125748"/>
    <tag k="highway" v="residential"/>
  </way>
  <way id="41881955" version="4" timestamp="2011-02-26T11:03:31Z" uid="4467" user="Rosscoe" changeset="7398557">
    <nd ref="518125749"/>
    <nd ref="518233015"/>
    <nd ref="518125748"/>
    <nd ref="518233040"/>
    <nd ref="518124730"/>
    <nd ref="518232988"/>
    <nd ref="518138045"/>
    <nd ref="518232932"/>
    <nd ref="518232816"/>
    <nd ref="518125750"/>
    <tag k="highway" v="residential"/>
  </way>
  <way id="41881955" version="5" timestamp="2011-02-26T23:16:26Z" uid="4467" user="Rosscoe" changeset="7405630">
    <nd ref="518125749"/>
    <nd ref="518233015"/>
    <nd ref="518125748"/>
    <nd ref="518233040"/>
    <nd ref="518124730"/>
    <nd ref="518232988"/>
    <nd ref="518138045"/>
    <nd ref="518232932"/>
    <nd ref="518232816"/>
    <nd ref="1175909852"/>
    <nd ref="518125750"/>
    <tag k="highway" v="residential"/>
  </way>
  <way id="41881977" version="1" timestamp="2009-10-02T21:19:01Z" uid="86259" user="hasse_osm_korinthenkacker" changeset="2717717">
    <nd ref="518125889"/>
    <nd ref="518125929"/>
    <nd ref="518125930"/>
    <nd ref="518125927"/>
    <nd ref="518125954"/>
    <nd ref="518125956"/>
    <nd ref="518125959"/>
    <nd ref="518125957"/>
    <nd ref="518125958"/>
    <nd ref="518125943"/>
    <nd ref="518125951"/>
    <nd ref="518125952"/>
    <nd ref="518125950"/>
    <nd ref="518125939"/>
    <nd ref="518125948"/>
    <nd ref="518125949"/>
    <nd ref="518125941"/>
    <nd ref="518125942"/>
    <nd ref="518125938"/>
    <nd ref="518125940"/>
    <nd ref="518125935"/>
    <nd ref="518125933"/>
    <nd ref="518125936"/>
    <nd ref="518125907"/>
    <nd ref="518125903"/>
    <nd ref="518125899"/>
    <nd ref="518125905"/>
    <nd ref="518125850"/>
    <nd ref="518125855"/>
    <nd ref="518125842"/>
    <nd ref="518125853"/>
    <nd ref="518125838"/>
    <nd ref="518125869"/>
    <nd ref="518125864"/>
    <nd ref="518125880"/>
    <nd ref="518125882"/>
    <nd ref="518125876"/>
    <nd ref="518125878"/>
    <nd ref="518125873"/>
    <nd ref="518125866"/>
    <nd ref="518125871"/>
    <nd ref="518125862"/>
    <nd ref="518125857"/>
    <nd ref="518125860"/>
    <nd ref="518125832"/>
    <nd ref="518125833"/>
    <nd ref="518125844"/>
    <nd ref="518125891"/>
    <nd ref="518125846"/>
    <nd ref="518125901"/>
    <nd ref="518125895"/>
    <nd ref="518125893"/>
    <nd ref="518125886"/>
    <nd ref="518125917"/>
    <nd ref="518125914"/>
    <nd ref="518125897"/>
    <nd ref="518125916"/>
    <nd ref="518125910"/>
    <nd ref="518125912"/>
    <nd ref="518125919"/>
    <nd ref="518125921"/>
    <nd ref="518125920"/>
    <nd ref="518125926"/>
    <nd ref="518125924"/>
    <nd ref="518125923"/>
    <nd ref="518125931"/>
    <nd ref="518125925"/>
    <nd ref="518125932"/>
    <nd ref="518125928"/>
    <nd ref="518125918"/>
    <nd ref="518125889"/>
    <tag k="building" v="yes"/>
    <tag k="layer" v="2"/>
    <tag k="source" v="survey"/>
  </way>
  <way id="41881977" version="2" timestamp="2009-10-02T21:24:44Z" uid="86259" user="hasse_osm_korinthenkacker" changeset="2717728">
    <nd ref="518125889"/>
    <nd ref="518125929"/>
    <nd ref="518125930"/>
    <nd ref="518125927"/>
    <nd ref="518125954"/>
    <nd ref="518125956"/>
    <nd ref="518125959"/>
    <nd ref="518125957"/>
    <nd ref="518125958"/>
    <nd ref="518125943"/>
    <nd ref="518125951"/>
    <nd ref="518125952"/>
    <nd ref="518125950"/>
    <nd ref="518125939"/>
    <nd ref="518125948"/>
    <nd ref="518125949"/>
    <nd ref="518125941"/>
    <nd ref="518125942"/>
    <nd ref="518125938"/>
    <nd ref="518125940"/>
    <nd ref="518125935"/>
    <nd ref="518125933"/>
    <nd ref="518125936"/>
    <nd ref="518125907"/>
    <nd ref="518125903"/>
    <nd ref="518125899"/>
    <nd ref="518125905"/>
    <nd ref="518125850"/>
    <nd ref="518125855"/>
    <nd ref="518125842"/>
    <nd ref="518125853"/>
    <nd ref="518125838"/>
    <nd ref="518125869"/>
    <nd ref="518125864"/>
    <nd ref="518125880"/>
    <nd ref="518125882"/>
    <nd ref="518125876"/>
    <nd ref="518125878"/>
    <nd ref="518125873"/>
    <nd ref="518125866"/>
    <nd ref="518125871"/>
    <nd ref="518125862"/>
    <nd ref="518125857"/>
    <nd ref="518125860"/>
    <nd ref="518125832"/>
    <nd ref="518125833"/>
    <nd ref="518125844"/>
    <nd ref="518125891"/>
    <nd ref="518125846"/>
    <nd ref="518125901"/>
    <nd ref="518125895"/>
    <nd ref="518125893"/>
    <nd ref="518125886"/>
    <nd ref="518125917"/>
    <nd ref="518125914"/>
    <nd ref="518125897"/>
    <nd ref="518125916"/>
    <nd ref="518125910"/>
    <nd ref="518125912"/>
    <nd ref="518125919"/>
    <nd ref="518125921"/>
    <nd ref="518125920"/>
    <nd ref="518125926"/>
    <nd ref="518125924"/>
    <nd ref="518125923"/>
    <nd ref="518125931"/>
    <nd ref="518125925"/>
    <nd ref="518125932"/>
    <nd ref="518125928"/>
    <nd ref="518125918"/>
    <nd ref="518125889"/>
    <tag k="building" v="yes"/>
    <tag k="layer" v="2"/>
  </way>
  <way id="41881977" version="3" timestamp="2009-10-12T17:31:34Z" uid="36809" user="pfoten_weg_!_" changeset="2828510"/>
  <way id="41881978" version="1" timestamp="2009-10-02T21:19:01Z" uid="86259" user="hasse_osm_korinthenkacker" changeset="2717717">
    <nd ref="518125834"/>
    <nd ref="518125836"/>
    <nd ref="518125840"/>
    <nd ref="518125848"/>
    <nd ref="518125834"/>
    <tag k="landuse" v="grass"/>
  </way>
  <way id="41881979" version="1" timestamp="2009-10-02T21:19:02Z" uid="86259" user="hasse_osm_korinthenkacker" changeset="2717717">
    <nd ref="518125953"/>
    <nd ref="518125922"/>
    <nd ref="518125934"/>
    <nd ref="518125937"/>
    <nd ref="518125955"/>
    <nd ref="518125953"/>
    <tag k="landuse" v="grass"/>
  </way>
  <way id="41881979" version="2" timestamp="2009-10-12T17:31:32Z" uid="36809" user="pfoten_weg_!_" changeset="2828510">
    <nd ref="518125953"/>
    <nd ref="518125922"/>
    <nd ref="518125934"/>
    <nd ref="417227628"/>
    <nd ref="518125955"/>
    <nd ref="518125953"/>
    <tag k="landuse" v="grass"/>
  </way>
  <way id="41881980" version="1" timestamp="2009-10-02T21:19:02Z" uid="86259" user="hasse_osm_korinthenkacker" changeset="2717717">
    <nd ref="518125961"/>
    <nd ref="518125960"/>
    <nd ref="518125962"/>
    <nd ref="518125947"/>
    <nd ref="518125945"/>
    <nd ref="518125944"/>
    <nd ref="518125946"/>
    <nd ref="518125884"/>
    <nd ref="518125831"/>
    <nd ref="518125830"/>
    <nd ref="518125961"/>
    <tag k="landuse" v="grass"/>
    <tag k="layer" v="-1"/>
  </way>
  <way id="41881980" version="2" timestamp="2009-10-12T17:31:34Z" uid="36809" user="pfoten_weg_!_" changeset="2828510"/>
</osm>
