<?xml version='1.0' encoding='UTF-8'?>
<osm version="0.6" generator="libosmium/2.20.0">
  <way id="4194295" version="3" timestamp="2008-08-11T10:29:01Z" uid="6269" user="Mueck" changeset="188275">
    <nd ref="16375789"/>
    <nd ref="16375791"/>
    <nd ref="34091646"/>
    <nd ref="16375792"/>
    <nd ref="16375794"/>
    <nd ref="24546165"/>
    <nd ref="24546162"/>
    <nd ref="24546188"/>
    <tag k="created_by" v="Potlatch 0.10b"/>
    <tag k="highway" v="tertiary"/>
    <tag k="name" v="Neckarstraße"/>
    <tag k="note" v="im SHP des NVK: III"/>
  </way>
  <way id="4194295" version="4" timestamp="2008-11-10T07:53:09Z" uid="27531" user="hirnfred" changeset="730117">
    <nd ref="16375789"/>
    <nd ref="16375791"/>
    <nd ref="34091646"/>
    <nd ref="16375792"/>
    <nd ref="16375794"/>
    <nd ref="24546165"/>
    <nd ref="24546162"/>
    <nd ref="24546188"/>
    <tag k="created_by" v="Potlatch 0.10f"/>
    <tag k="highway" v="tertiary"/>
    <tag k="name" v="Neckarstraße"/>
    <tag k="note" v="im SHP des NVK: III"/>
  </way>
  <way id="4194295" version="5" timestamp="2008-11-10T07:54:10Z" uid="27531" user="hirnfred" changeset="730117">
    <nd ref="16375789"/>
    <nd ref="16375791"/>
    <nd ref="34091646"/>
    <nd ref="16375792"/>
    <nd ref="16375794"/>
    <nd ref="24546165"/>
    <nd ref="24546162"/>
    <nd ref="24546188"/>
    <tag k="created_by" v="Potlatch 0.10f"/>
    <tag k="highway" v="tertiary"/>
    <tag k="name" v="Neckarstraße"/>
    <tag k="note" v="im SHP des NVK: III"/>
  </way>
  <way id="4194295" version="6" timestamp="2008-11-10T07:54:43Z" uid="27531" user="hirnfred" changeset="730117">
    <nd ref="16375789"/>
    <nd ref="16375791"/>
    <nd ref="34091646"/>
    <nd ref="16375792"/>
    <nd ref="16375794"/>
    <nd ref="24546165"/>
    <nd ref="24546162"/>
    <nd ref="24546188"/>
    <tag k="created_by" v="Potlatch 0.10f"/>
    <tag k="highway" v="tertiary"/>
    <tag k="name" v="Neckarstraße"/>
    <tag k="note" v="im SHP des NVK: III"/>
  </way>
  <way id="4194295" version="7" timestamp="2008-11-10T07:54:49Z" uid="27531" user="hirnfred" changeset="730117">
    <nd ref="16375789"/>
    <nd ref="16375791"/>
    <nd ref="34091646"/>
    <nd ref="16375792"/>
    <nd ref="16375794"/>
    <nd ref="24546165"/>
    <nd ref="24546162"/>
    <nd ref="24546188"/>
    <tag k="created_by" v="Potlatch 0.10f"/>
    <tag k="highway" v="tertiary"/>
    <tag k="name" v="Neckarstraße"/>
    <tag k="note" v="im SHP des NVK: III"/>
  </way>
  <way id="4194295" version="8" timestamp="2008-11-10T07:55:33Z" uid="27531" user="hirnfred" changeset="730117">
    <nd ref="16375789"/>
    <nd ref="16375791"/>
    <nd ref="34091646"/>
    <nd ref="16375792"/>
    <nd ref="16375794"/>
    <nd ref="24546165"/>
    <nd ref="24546162"/>
    <nd ref="24546188"/>
    <tag k="created_by" v="Potlatch 0.10f"/>
    <tag k="highway" v="tertiary"/>
    <tag k="name" v="Neckarstraße"/>
    <tag k="note" v="im SHP des NVK: III"/>
  </way>
  <way id="4194295" version="9" timestamp="2008-11-10T07:56:24Z" uid="27531" user="hirnfred" changeset="730117">
    <nd ref="310985172"/>
    <nd ref="16375789"/>
    <nd ref="16375791"/>
    <nd ref="34091646"/>
    <nd ref="310985172"/>
    <nd ref="16375792"/>
    <nd ref="16375794"/>
    <nd ref="24546165"/>
    <nd ref="24546162"/>
    <nd ref="24546188"/>
    <tag k="created_by" v="Potlatch 0.10f"/>
    <tag k="highway" v="tertiary"/>
    <tag k="name" v="Neckarstraße"/>
    <tag k="note" v="im SHP des NVK: III"/>
  </way>
  <way id="4194295" version="10" timestamp="2009-02-11T19:46:45Z" uid="59242" user="tgoti" changeset="357584"/>
  <way id="4194296" version="2" timestamp="2008-08-11T10:28:47Z" uid="6269" user="Mueck" changeset="188275">
    <nd ref="24546188"/>
    <nd ref="18176606"/>
    <nd ref="27419203"/>
    <nd ref="24563104"/>
    <tag k="created_by" v="Potlatch 0.10b"/>
    <tag k="highway" v="tertiary"/>
    <tag k="name" v="Belchenplatz"/>
  </way>
  <way id="4194296" version="3" timestamp="2009-05-07T20:36:35Z" uid="44793" user="st1974" changeset="1111905">
    <nd ref="24546188"/>
    <nd ref="18176606"/>
    <tag k="created_by" v="Potlatch 0.10b"/>
    <tag k="highway" v="tertiary"/>
    <tag k="name" v="Belchenplatz"/>
  </way>
  <way id="4194296" version="4" timestamp="2011-03-22T16:42:32Z" uid="27531" user="hirnfred" changeset="7638653">
    <nd ref="24546188"/>
    <nd ref="18176606"/>
    <nd ref="1213541717"/>
    <nd ref="1213541699"/>
    <nd ref="1045057932"/>
    <nd ref="24563104"/>
    <tag k="highway" v="tertiary"/>
    <tag k="name" v="Belchenplatz"/>
  </way>
  <way id="4194296" version="5" timestamp="2011-08-16T14:17:06Z" uid="60137" user="michael2402" changeset="9037419">
    <nd ref="24546188"/>
    <nd ref="18176606"/>
    <nd ref="1213541717"/>
    <nd ref="1213541699"/>
    <nd ref="1045057932"/>
    <nd ref="24563104"/>
    <tag k="highway" v="tertiary"/>
    <tag k="maxspeed" v="30"/>
    <tag k="name" v="Belchenplatz"/>
  </way>
  <way id="4194296" version="6" timestamp="2011-08-22T21:11:17Z" uid="60137" user="michael2402" changeset="9098464">
    <nd ref="24546188"/>
    <nd ref="18176606"/>
    <tag k="highway" v="tertiary"/>
    <tag k="maxspeed" v="30"/>
    <tag k="name" v="Belchenplatz"/>
  </way>
  <way id="4194296" version="7" timestamp="2011-08-31T18:43:30Z" uid="60137" user="michael2402" changeset="9178711">
    <nd ref="24546188"/>
    <nd ref="1419437304"/>
    <nd ref="18176606"/>
    <tag k="highway" v="tertiary"/>
    <tag k="maxspeed" v="30"/>
    <tag k="name" v="Belchenplatz"/>
  </way>
  <way id="4194296" version="8" timestamp="2011-09-02T18:42:38Z" uid="212553" user="ARWIE" changeset="9195320">
    <nd ref="24546188"/>
    <nd ref="1421228546"/>
    <nd ref="1419437304"/>
    <nd ref="18176606"/>
    <tag k="highway" v="tertiary"/>
    <tag k="maxspeed" v="30"/>
    <tag k="name" v="Belchenplatz"/>
  </way>
  <way id="4194296" version="9" timestamp="2012-02-09T14:11:56Z" uid="60137" user="michael2402" changeset="10634190">
    <nd ref="24546188"/>
    <nd ref="1421228546"/>
    <nd ref="1419437304"/>
    <nd ref="18176606"/>
    <tag k="highway" v="tertiary"/>
    <tag k="lit" v="yes"/>
    <tag k="maxspeed" v="30"/>
    <tag k="name" v="Belchenplatz"/>
  </way>
  <way id="4194317" version="4" timestamp="2010-05-21T19:38:21Z" uid="6269" user="Mueck" changeset="4768977">
    <nd ref="24553970"/>
    <nd ref="24553973"/>
    <nd ref="16476093"/>
    <nd ref="27159146"/>
    <nd ref="27159145"/>
    <nd ref="27159144"/>
    <nd ref="27159143"/>
    <nd ref="27159142"/>
    <nd ref="694854101"/>
    <nd ref="30892018"/>
    <nd ref="27159141"/>
    <tag k="highway" v="unclassified"/>
    <tag k="name" v="Brunnenstückweg"/>
    <tag k="smoothness" v="good"/>
    <tag k="surface" v="asphalt"/>
  </way>
  <way id="4194317" version="5" timestamp="2010-05-27T13:33:13Z" uid="6269" user="Mueck" changeset="4821971">
    <nd ref="24553970"/>
    <nd ref="24553973"/>
    <nd ref="16476093"/>
    <nd ref="27159146"/>
    <nd ref="27159145"/>
    <nd ref="27159144"/>
    <nd ref="27159143"/>
    <nd ref="27159142"/>
    <nd ref="694854101"/>
    <nd ref="750829921"/>
    <nd ref="30892018"/>
    <nd ref="27159141"/>
    <tag k="highway" v="unclassified"/>
    <tag k="name" v="Brunnenstückweg"/>
    <tag k="smoothness" v="good"/>
    <tag k="surface" v="asphalt"/>
  </way>
  <way id="4194317" version="6" timestamp="2011-07-23T19:15:34Z" uid="29717" user="eumiro" changeset="8809094">
    <nd ref="24553970"/>
    <nd ref="24553973"/>
    <nd ref="16476093"/>
    <nd ref="1371469834"/>
    <nd ref="27159145"/>
    <nd ref="27159144"/>
    <nd ref="27159143"/>
    <nd ref="27159142"/>
    <nd ref="694854101"/>
    <nd ref="750829921"/>
    <nd ref="30892018"/>
    <nd ref="27159141"/>
    <tag k="highway" v="unclassified"/>
    <tag k="name" v="Brunnenstückweg"/>
    <tag k="smoothness" v="good"/>
    <tag k="surface" v="asphalt"/>
  </way>
  <way id="4194317" version="7" timestamp="2011-11-11T18:40:36Z" uid="165061" user="keinname" changeset="9798629">
    <nd ref="24553970"/>
    <nd ref="24553973"/>
    <nd ref="16476093"/>
    <nd ref="1371469834"/>
    <nd ref="1499119943"/>
    <nd ref="1499119920"/>
    <nd ref="27159145"/>
    <nd ref="27159144"/>
    <nd ref="1499119946"/>
    <nd ref="27159143"/>
    <nd ref="1499119984"/>
    <nd ref="1499119994"/>
    <nd ref="1499119996"/>
    <nd ref="27159142"/>
    <nd ref="694854101"/>
    <nd ref="750829921"/>
    <nd ref="30892018"/>
    <nd ref="27159141"/>
    <tag k="highway" v="unclassified"/>
    <tag k="name" v="Brunnenstückweg"/>
    <tag k="smoothness" v="good"/>
    <tag k="surface" v="asphalt"/>
  </way>
  <way id="4194361" version="2" timestamp="2008-01-01T23:30:38Z" uid="6454" user="B10xxx" changeset="516422">
    <nd ref="24628438"/>
    <nd ref="24628462"/>
    <nd ref="24628464"/>
    <nd ref="24628467"/>
    <nd ref="24628473"/>
    <nd ref="24628476"/>
    <nd ref="24628481"/>
    <nd ref="24628483"/>
    <nd ref="24628487"/>
    <nd ref="24628489"/>
    <nd ref="24628490"/>
    <nd ref="24628492"/>
    <nd ref="24628494"/>
    <nd ref="24628515"/>
    <nd ref="24628537"/>
    <tag k="created_by" v="Potlatch 0.6"/>
    <tag k="highway" v="unclassified"/>
  </way>
  <way id="4194361" version="3" timestamp="2008-05-18T13:05:06Z" uid="38318" user="Mojo13" changeset="476516">
    <nd ref="24628438"/>
    <nd ref="24628462"/>
    <nd ref="24628464"/>
    <nd ref="24628467"/>
    <nd ref="24628473"/>
    <nd ref="24628476"/>
    <nd ref="24628481"/>
    <nd ref="24628483"/>
    <nd ref="24628487"/>
    <nd ref="24628489"/>
    <nd ref="24628490"/>
    <nd ref="24628492"/>
    <nd ref="24628494"/>
    <nd ref="24628515"/>
    <nd ref="24628537"/>
    <tag k="created_by" v="Potlatch 0.6"/>
    <tag k="highway" v="tertiary"/>
    <tag k="name" v="K658"/>
  </way>
  <way id="4194361" version="4" timestamp="2008-06-28T19:33:18Z" uid="28378" user="PHerison" changeset="325596">
    <nd ref="24628438"/>
    <nd ref="24628462"/>
    <nd ref="24628464"/>
    <nd ref="24628467"/>
    <nd ref="24628473"/>
    <nd ref="24628476"/>
    <nd ref="24628481"/>
    <nd ref="24628483"/>
    <nd ref="24628487"/>
    <nd ref="24628489"/>
    <nd ref="24628490"/>
    <nd ref="24628492"/>
    <nd ref="24628494"/>
    <nd ref="24628515"/>
    <nd ref="24628537"/>
    <tag k="created_by" v="Potlatch 0.6"/>
    <tag k="highway" v="tertiary"/>
    <tag k="ref" v="K 658"/>
  </way>
  <way id="4194361" version="5" timestamp="2010-11-15T18:27:13Z" uid="104912" user="Sir Lancelot" changeset="6379429">
    <nd ref="24628462"/>
    <nd ref="24628438"/>
    <tag k="highway" v="tertiary"/>
    <tag k="oneway" v="yes"/>
    <tag k="ref" v="K 658"/>
  </way>
  <way id="4194597" version="2" timestamp="2008-01-01T23:31:42Z" uid="6454" user="B10xxx" changeset="516422">
    <nd ref="24632411"/>
    <nd ref="24632413"/>
    <nd ref="24632415"/>
    <nd ref="24632417"/>
    <nd ref="24632419"/>
    <nd ref="24632421"/>
    <nd ref="24632433"/>
    <tag k="created_by" v="Potlatch 0.6"/>
    <tag k="highway" v="unclassified"/>
    <tag k="name" v="Am Burgacker"/>
  </way>
  <way id="4194597" version="3" timestamp="2008-06-01T13:37:04Z" uid="26869" user="Ailatix" changeset="12186">
    <nd ref="24632411"/>
    <nd ref="24632413"/>
    <nd ref="24632415"/>
    <nd ref="24632417"/>
    <nd ref="24632419"/>
    <nd ref="24632421"/>
    <nd ref="267872752"/>
    <nd ref="24632433"/>
    <tag k="created_by" v="Potlatch 0.6"/>
    <tag k="highway" v="unclassified"/>
    <tag k="name" v="Am Burgacker"/>
  </way>
  <way id="4194597" version="4" timestamp="2011-06-06T20:00:00Z" uid="104912" user="Sir Lancelot" changeset="8364046">
    <nd ref="24632411"/>
    <nd ref="1314452885"/>
    <nd ref="24632413"/>
    <nd ref="24632415"/>
    <nd ref="24632417"/>
    <nd ref="1314452706"/>
    <nd ref="24632419"/>
    <nd ref="24632421"/>
    <nd ref="267872752"/>
    <nd ref="24632433"/>
    <tag k="highway" v="unclassified"/>
    <tag k="name" v="Am Burgacker"/>
  </way>
</osm>
