<?xml version='1.0' encoding='UTF-8'?>
<osm version="0.6" generator="libosmium/2.20.0">
  <way id="41969098" version="1" timestamp="2009-10-04T14:00:09Z" uid="59758" user="rendle" changeset="2737067">
    <nd ref="484208556"/>
    <nd ref="520134411"/>
    <nd ref="520134418"/>
    <nd ref="520134426"/>
    <nd ref="520131586"/>
    <tag k="highway" v="pedestrian"/>
  </way>
  <way id="41969098" version="2" timestamp="2010-03-03T11:44:57Z" uid="6072" user="Eimai" changeset="4023806">
    <nd ref="484208556"/>
    <nd ref="520134411"/>
    <nd ref="520134418"/>
    <nd ref="520134426"/>
    <nd ref="520131586"/>
    <tag k="bicycle" v="yes"/>
    <tag k="bicycle:oneway" v="no"/>
    <tag k="highway" v="pedestrian"/>
    <tag k="oneway" v="yes"/>
  </way>
  <way id="41969098" version="3" timestamp="2012-01-17T17:16:57Z" uid="138772" user="lodde1949" changeset="10419701"/>
  <way id="41969149" version="1" timestamp="2009-10-04T14:01:38Z" uid="59758" user="rendle" changeset="2737067">
    <nd ref="520135810"/>
    <nd ref="520135820"/>
    <nd ref="520135824"/>
    <nd ref="520135831"/>
    <nd ref="520135839"/>
  </way>
  <way id="41969149" version="2" timestamp="2009-10-04T14:01:51Z" uid="59758" user="rendle" changeset="2737067">
    <nd ref="520135810"/>
    <nd ref="520135820"/>
    <nd ref="520135824"/>
    <nd ref="520135831"/>
    <nd ref="520135839"/>
    <tag k="highway" v="pedestrian"/>
  </way>
  <way id="41969149" version="3" timestamp="2010-03-03T11:53:17Z" uid="6072" user="Eimai" changeset="4023806">
    <nd ref="520135810"/>
    <nd ref="520135820"/>
    <nd ref="520135824"/>
    <nd ref="520135831"/>
    <tag k="highway" v="pedestrian"/>
  </way>
  <way id="41969149" version="4" timestamp="2012-01-17T17:16:57Z" uid="138772" user="lodde1949" changeset="10419701"/>
  <way id="41969250" version="1" timestamp="2009-10-04T14:04:35Z" uid="59758" user="rendle" changeset="2737067">
    <nd ref="520138833"/>
    <nd ref="520138838"/>
    <nd ref="520138845"/>
    <tag k="highway" v="residential"/>
  </way>
  <way id="41969250" version="2" timestamp="2010-03-03T11:55:57Z" uid="6072" user="Eimai" changeset="4023806">
    <nd ref="598222127"/>
    <nd ref="598222128"/>
    <nd ref="520138833"/>
    <nd ref="520138838"/>
    <nd ref="520138845"/>
    <tag k="highway" v="residential"/>
    <tag k="source" v="Yahoo"/>
  </way>
  <way id="41969250" version="3" timestamp="2010-03-03T11:56:18Z" uid="6072" user="Eimai" changeset="4023806">
    <nd ref="520138845"/>
    <nd ref="520138838"/>
    <nd ref="520138833"/>
    <nd ref="598222128"/>
    <nd ref="598222127"/>
    <tag k="bicycle:oneway" v="no"/>
    <tag k="highway" v="residential"/>
    <tag k="moped_A:oneway" v="no"/>
    <tag k="oneway" v="yes"/>
  </way>
  <way id="41969250" version="4" timestamp="2010-03-03T11:56:47Z" uid="6072" user="Eimai" changeset="4023806">
    <nd ref="520138845"/>
    <nd ref="520138838"/>
    <nd ref="520138833"/>
    <nd ref="598222128"/>
    <nd ref="598222127"/>
    <tag k="bicycle:oneway" v="no"/>
    <tag k="highway" v="residential"/>
    <tag k="moped_A:oneway" v="no"/>
    <tag k="name" v="Hemelaerstraat"/>
    <tag k="oneway" v="yes"/>
  </way>
  <way id="41969250" version="5" timestamp="2010-09-18T08:43:09Z" uid="59758" user="rendle" changeset="5809540">
    <nd ref="520138845"/>
    <nd ref="520138838"/>
    <nd ref="520138833"/>
    <nd ref="598222128"/>
    <nd ref="916442894"/>
    <nd ref="916442893"/>
    <tag k="bicycle:oneway" v="no"/>
    <tag k="highway" v="residential"/>
    <tag k="moped_A:oneway" v="no"/>
    <tag k="name" v="Hemelaerstraat"/>
    <tag k="oneway" v="yes"/>
  </way>
  <way id="41969250" version="6" timestamp="2011-08-31T21:09:24Z" uid="15188" user="Polyglot" changeset="9180073">
    <nd ref="1419575632"/>
    <nd ref="520138838"/>
    <nd ref="520138833"/>
    <nd ref="598222128"/>
    <nd ref="916442894"/>
    <nd ref="916442893"/>
    <tag k="bicycle:oneway" v="no"/>
    <tag k="highway" v="residential"/>
    <tag k="moped_A:oneway" v="no"/>
    <tag k="name" v="Hemelaerstraat"/>
    <tag k="oneway" v="yes"/>
  </way>
  <way id="41969250" version="7" timestamp="2012-01-17T22:43:51Z" uid="138772" user="lodde1949" changeset="10423117"/>
  <way id="41969745" version="6" timestamp="2010-01-03T08:48:56Z" uid="171838" user="argrath" changeset="3525829"/>
  <way id="41969988" version="6" timestamp="2011-02-25T11:48:28Z" uid="115477" user="wowik" changeset="7389703">
    <nd ref="520153727"/>
    <nd ref="520153747"/>
    <nd ref="1172053602"/>
    <nd ref="1172055580"/>
    <nd ref="520153756"/>
    <nd ref="520153765"/>
    <nd ref="520153727"/>
    <tag k="addr:housenumber" v="47"/>
    <tag k="addr:street" v="Митинская улица"/>
    <tag k="amenity" v="bank"/>
    <tag k="building" v="yes"/>
    <tag k="building:levels" v="1"/>
    <tag k="cladr:code" v="77000000000186400"/>
    <tag k="operator" v="Сбербанк России"/>
  </way>
  <way id="41969988" version="7" timestamp="2011-09-06T22:42:12Z" uid="126304" user="TarzanASG" changeset="9232210">
    <nd ref="520153727"/>
    <nd ref="520153747"/>
    <nd ref="1172053602"/>
    <nd ref="1172055580"/>
    <nd ref="520153756"/>
    <nd ref="520153765"/>
    <nd ref="520153727"/>
    <tag k="addr:housenumber" v="47"/>
    <tag k="addr:street" v="Митинская улица"/>
    <tag k="amenity" v="bank"/>
    <tag k="building" v="yes"/>
    <tag k="building:levels" v="1"/>
    <tag k="cladr:code" v="77000000000186400"/>
    <tag k="operator" v="Сбербанк России"/>
    <tag k="website" v="http://sberbank.ru/"/>
  </way>
  <way id="41969988" version="8" timestamp="2012-03-27T16:52:11Z" uid="481934" user="iWowik" changeset="11118068">
    <nd ref="520153727"/>
    <nd ref="520153747"/>
    <nd ref="1172053602"/>
    <nd ref="1172055580"/>
    <nd ref="520153756"/>
    <nd ref="520153765"/>
    <nd ref="520153727"/>
    <tag k="addr:city" v="Москва"/>
    <tag k="addr:country" v="RU"/>
    <tag k="addr:housenumber" v="47"/>
    <tag k="addr:street" v="Митинская улица"/>
    <tag k="amenity" v="bank"/>
    <tag k="building" v="yes"/>
    <tag k="building:levels" v="1"/>
    <tag k="cladr:code" v="77000000000186400"/>
    <tag k="operator" v="Сбербанк России"/>
    <tag k="website" v="http://sberbank.ru/"/>
  </way>
</osm>
