<?xml version='1.0' encoding='UTF-8'?>
<osm version="0.6" generator="libosmium/2.20.0">
  <way id="42085055" version="2" timestamp="2009-10-30T18:16:24Z" uid="23543" user="jkjk" changeset="2991300">
    <nd ref="546628049"/>
    <nd ref="546628358"/>
    <nd ref="546628351"/>
    <nd ref="546628343"/>
    <nd ref="546628371"/>
    <nd ref="546628364"/>
    <nd ref="546628317"/>
    <tag k="highway" v="unclassified"/>
    <tag k="source" v="uhul:ortofoto"/>
  </way>
  <way id="42085060" version="2" timestamp="2009-10-30T17:06:14Z" uid="23543" user="jkjk" changeset="2990681">
    <nd ref="522823504"/>
    <nd ref="291658906"/>
    <nd ref="291658908"/>
    <tag k="name" v="090"/>
    <tag k="railway" v="rail"/>
  </way>
  <way id="42085060" version="3" timestamp="2010-11-03T21:01:06Z" uid="362170" user="mice" changeset="6279343">
    <nd ref="522823504"/>
    <nd ref="291658906"/>
    <nd ref="291658908"/>
    <tag k="electrified" v="contact_line"/>
    <tag k="frequency" v="0"/>
    <tag k="name" v="090"/>
    <tag k="railway" v="rail"/>
    <tag k="tracks" v="2"/>
    <tag k="usage" v="main"/>
    <tag k="voltage" v="3000"/>
  </way>
  <way id="42085060" version="4" timestamp="2011-11-21T15:53:59Z" uid="129531" user="almich" changeset="9898148">
    <nd ref="522823504"/>
    <nd ref="291658906"/>
    <nd ref="291658908"/>
    <tag k="electrified" v="contact_line"/>
    <tag k="frequency" v="0"/>
    <tag k="gauge" v="1435"/>
    <tag k="name" v="090"/>
    <tag k="railway" v="rail"/>
    <tag k="tracks" v="2"/>
    <tag k="usage" v="main"/>
    <tag k="voltage" v="3000"/>
  </way>
  <way id="42085075" version="1" timestamp="2009-10-06T13:15:56Z" uid="74617" user="JohnSmith" changeset="2760569">
    <nd ref="522823707"/>
    <nd ref="522823706"/>
    <nd ref="522823705"/>
    <nd ref="522823704"/>
    <nd ref="522823707"/>
    <tag k="leisure" v="playground"/>
  </way>
  <way id="42085075" version="2" timestamp="2010-01-01T11:40:44Z" uid="74617" user="JohnSmith" changeset="3506727">
    <nd ref="522823707"/>
    <nd ref="522823706"/>
    <nd ref="522823705"/>
    <nd ref="602484245"/>
    <nd ref="602484243"/>
    <nd ref="602484242"/>
    <nd ref="522823704"/>
    <nd ref="522823707"/>
    <tag k="leisure" v="playground"/>
  </way>
  <way id="42085080" version="1" timestamp="2009-10-06T13:16:42Z" uid="115477" user="wowik" changeset="2760553">
    <nd ref="522808041"/>
    <nd ref="522808041"/>
  </way>
  <way id="42085080" version="2" timestamp="2009-10-09T08:04:07Z" uid="70742" user="Ezhick" changeset="2790983"/>
  <way id="42085158" version="10" timestamp="2010-05-20T20:21:54Z" uid="9581" user="Lobelt" changeset="4760988"/>
  <way id="42085159" version="1" timestamp="2009-10-06T13:20:39Z" uid="182372" user="Mucher" changeset="2760580">
    <nd ref="522824334"/>
    <nd ref="522824335"/>
  </way>
  <way id="42085159" version="2" timestamp="2009-12-14T18:48:10Z" uid="153031" user="ajoessen" changeset="3374023"/>
  <way id="42085169" version="2" timestamp="2010-02-04T18:53:16Z" uid="23543" user="jkjk" changeset="3792558"/>
  <way id="42085295" version="1" timestamp="2009-10-06T13:27:24Z" uid="115477" user="wowik" changeset="2760553">
    <nd ref="522827092"/>
    <nd ref="522827094"/>
    <nd ref="522827099"/>
    <nd ref="522827102"/>
    <nd ref="522827092"/>
    <tag k="addr:city" v="Зеленоград"/>
    <tag k="addr:housenumber" v="1640 А"/>
    <tag k="addr:street" v="16-й микрорайон"/>
    <tag k="building" v="yes"/>
    <tag k="is_in" v="Russia"/>
  </way>
  <way id="42085295" version="2" timestamp="2009-11-21T05:33:06Z" uid="11132" user="liosha" changeset="3173482">
    <nd ref="522827092"/>
    <nd ref="522827094"/>
    <nd ref="522827099"/>
    <nd ref="522827102"/>
    <nd ref="522827092"/>
    <tag k="addr:city" v="Зеленоград"/>
    <tag k="addr:housenumber" v="1640 А"/>
    <tag k="addr:street" v="16-й Микрорайон"/>
    <tag k="building" v="yes"/>
    <tag k="is_in" v="Russia"/>
  </way>
  <way id="42085295" version="3" timestamp="2010-01-05T11:34:08Z" uid="109327" user="OverQuantum" changeset="3544566">
    <nd ref="522827092"/>
    <nd ref="522827094"/>
    <nd ref="522827099"/>
    <nd ref="522827102"/>
    <nd ref="522827092"/>
    <tag k="addr:city" v="Зеленоград"/>
    <tag k="addr:housenumber" v="1640А"/>
    <tag k="addr:street" v="16-й Микрорайон"/>
    <tag k="building" v="yes"/>
    <tag k="is_in" v="Russia"/>
  </way>
  <way id="42085295" version="4" timestamp="2011-06-07T20:53:42Z" uid="133332" user="AMDmi3" changeset="8374030">
    <nd ref="522827092"/>
    <nd ref="522827094"/>
    <nd ref="522827099"/>
    <nd ref="522827102"/>
    <nd ref="522827092"/>
    <tag k="addr:city" v="Зеленоград"/>
    <tag k="addr:housenumber" v="1640А"/>
    <tag k="addr:street" v="16-й микрорайон"/>
    <tag k="building" v="yes"/>
    <tag k="is_in" v="Russia"/>
  </way>
  <way id="42085295" version="5" timestamp="2011-09-13T10:23:31Z" uid="29320" user="Komяpa" changeset="9288237">
    <nd ref="522827092"/>
    <nd ref="522827094"/>
    <nd ref="522827099"/>
    <nd ref="522827102"/>
    <nd ref="522827092"/>
    <tag k="addr:city" v="Зеленоград"/>
    <tag k="addr:country" v="RU"/>
    <tag k="addr:housenumber" v="1640А"/>
    <tag k="addr:street" v="16-й микрорайон"/>
    <tag k="building" v="yes"/>
  </way>
  <way id="42085295" version="6" timestamp="2012-03-27T11:37:37Z" uid="481934" user="iWowik" changeset="11115472">
    <nd ref="522827092"/>
    <nd ref="522827094"/>
    <nd ref="522827099"/>
    <nd ref="522827102"/>
    <nd ref="522827092"/>
    <tag k="addr:city" v="Зеленоград"/>
    <tag k="addr:country" v="RU"/>
    <tag k="addr:housenumber" v="1640А"/>
    <tag k="addr:region" v="Москва"/>
    <tag k="addr:street" v="16-й микрорайон"/>
    <tag k="building" v="yes"/>
  </way>
  <way id="42085296" version="1" timestamp="2009-10-06T13:27:24Z" uid="115477" user="wowik" changeset="2760553">
    <nd ref="522827121"/>
    <nd ref="522827125"/>
    <nd ref="522816867"/>
    <nd ref="522816869"/>
    <nd ref="522816870"/>
    <nd ref="522816871"/>
    <nd ref="522816872"/>
    <nd ref="522816873"/>
    <nd ref="522827121"/>
    <tag k="addr:city" v="Зеленоград"/>
    <tag k="addr:housenumber" v="1546 А"/>
    <tag k="addr:street" v="15-й микрорайон"/>
    <tag k="building" v="yes"/>
    <tag k="is_in" v="Russia"/>
  </way>
  <way id="42085296" version="2" timestamp="2009-10-09T08:09:49Z" uid="70742" user="Ezhick" changeset="2791039">
    <nd ref="522816866"/>
    <nd ref="522827125"/>
    <nd ref="522816867"/>
    <nd ref="522816869"/>
    <nd ref="522816870"/>
    <nd ref="522816871"/>
    <nd ref="522816872"/>
    <nd ref="522816873"/>
    <nd ref="522816875"/>
    <nd ref="522816866"/>
    <tag k="addr:city" v="Зеленоград"/>
    <tag k="addr:housenumber" v="1546 А"/>
    <tag k="addr:street" v="15-й микрорайон"/>
    <tag k="building" v="yes"/>
    <tag k="is_in" v="Russia"/>
  </way>
  <way id="42085296" version="3" timestamp="2009-11-21T05:33:04Z" uid="11132" user="liosha" changeset="3173482">
    <nd ref="522816866"/>
    <nd ref="522827125"/>
    <nd ref="522816867"/>
    <nd ref="522816869"/>
    <nd ref="522816870"/>
    <nd ref="522816871"/>
    <nd ref="522816872"/>
    <nd ref="522816873"/>
    <nd ref="522816875"/>
    <nd ref="522816866"/>
    <tag k="addr:city" v="Зеленоград"/>
    <tag k="addr:housenumber" v="1546 А"/>
    <tag k="addr:street" v="15-й Микрорайон"/>
    <tag k="building" v="yes"/>
    <tag k="is_in" v="Russia"/>
  </way>
  <way id="42085296" version="4" timestamp="2010-09-01T11:17:12Z" uid="241531" user="dik_man" changeset="5653056">
    <nd ref="522816866"/>
    <nd ref="522827125"/>
    <nd ref="522816867"/>
    <nd ref="522816869"/>
    <nd ref="522816870"/>
    <nd ref="522816871"/>
    <nd ref="522816872"/>
    <nd ref="522816873"/>
    <nd ref="522816875"/>
    <nd ref="522816866"/>
    <tag k="addr:city" v="Зеленоград"/>
    <tag k="addr:housenumber" v="1546 А"/>
    <tag k="addr:street" v="15-й Микрорайон"/>
    <tag k="building" v="yes"/>
    <tag k="building:level" v="17"/>
    <tag k="is_in" v="Russia"/>
  </way>
  <way id="42085296" version="5" timestamp="2010-11-06T17:32:18Z" uid="116836" user="woidrick" changeset="6304408">
    <nd ref="522816866"/>
    <nd ref="522827125"/>
    <nd ref="522816867"/>
    <nd ref="522816869"/>
    <nd ref="522816870"/>
    <nd ref="522816871"/>
    <nd ref="522816872"/>
    <nd ref="522816873"/>
    <nd ref="522816875"/>
    <nd ref="522816866"/>
    <tag k="addr:city" v="Зеленоград"/>
    <tag k="addr:housenumber" v="1546 А"/>
    <tag k="addr:street" v="15-й Микрорайон"/>
    <tag k="building" v="yes"/>
    <tag k="building:levels" v="17"/>
    <tag k="is_in" v="Russia"/>
  </way>
  <way id="42085296" version="6" timestamp="2010-11-07T19:17:59Z" uid="206282" user="Amigo" changeset="6314943">
    <nd ref="522816866"/>
    <nd ref="522827125"/>
    <nd ref="522816867"/>
    <nd ref="522816869"/>
    <nd ref="522816870"/>
    <nd ref="522816871"/>
    <nd ref="522816872"/>
    <nd ref="522816873"/>
    <nd ref="522816875"/>
    <nd ref="522816866"/>
    <tag k="addr:city" v="Зеленоград"/>
    <tag k="addr:housenumber" v="1546А"/>
    <tag k="addr:street" v="15-й Микрорайон"/>
    <tag k="building" v="yes"/>
    <tag k="building:levels" v="17"/>
    <tag k="is_in" v="Russia"/>
  </way>
  <way id="42085296" version="7" timestamp="2011-01-21T19:30:10Z" uid="115477" user="wowik" changeset="7043561">
    <nd ref="522816866"/>
    <nd ref="522827125"/>
    <nd ref="522816867"/>
    <nd ref="522816875"/>
    <nd ref="1113615852"/>
    <nd ref="1113617090"/>
    <nd ref="1113614274"/>
    <nd ref="522816866"/>
    <tag k="addr:city" v="Зеленоград"/>
    <tag k="addr:housenumber" v="1546А"/>
    <tag k="addr:street" v="15-й Микрорайон"/>
    <tag k="building" v="yes"/>
    <tag k="building:levels" v="17"/>
    <tag k="is_in" v="Russia"/>
    <tag k="shop" v="yes"/>
  </way>
  <way id="42085296" version="8" timestamp="2011-06-07T20:50:17Z" uid="133332" user="AMDmi3" changeset="8374030">
    <nd ref="522816866"/>
    <nd ref="522827125"/>
    <nd ref="522816867"/>
    <nd ref="522816875"/>
    <nd ref="1113615852"/>
    <nd ref="1113617090"/>
    <nd ref="1113614274"/>
    <nd ref="522816866"/>
    <tag k="addr:city" v="Зеленоград"/>
    <tag k="addr:housenumber" v="1546А"/>
    <tag k="addr:street" v="15-й микрорайон"/>
    <tag k="building" v="yes"/>
    <tag k="building:levels" v="17"/>
    <tag k="is_in" v="Russia"/>
    <tag k="shop" v="yes"/>
  </way>
  <way id="42085296" version="9" timestamp="2011-09-13T10:23:00Z" uid="29320" user="Komяpa" changeset="9288237">
    <nd ref="522816866"/>
    <nd ref="522827125"/>
    <nd ref="522816867"/>
    <nd ref="522816875"/>
    <nd ref="1113615852"/>
    <nd ref="1113617090"/>
    <nd ref="1113614274"/>
    <nd ref="522816866"/>
    <tag k="addr:city" v="Зеленоград"/>
    <tag k="addr:country" v="RU"/>
    <tag k="addr:housenumber" v="1546А"/>
    <tag k="addr:street" v="15-й микрорайон"/>
    <tag k="building" v="yes"/>
    <tag k="building:levels" v="17"/>
    <tag k="shop" v="yes"/>
  </way>
  <way id="42085296" version="10" timestamp="2011-12-12T17:51:15Z" uid="126304" user="TarzanASG" changeset="10100388">
    <nd ref="522816866"/>
    <nd ref="522827125"/>
    <nd ref="522816867"/>
    <nd ref="522816875"/>
    <nd ref="1113615852"/>
    <nd ref="1113617090"/>
    <nd ref="1113614274"/>
    <nd ref="522816866"/>
    <tag k="addr:city" v="Зеленоград"/>
    <tag k="addr:country" v="RU"/>
    <tag k="addr:housenumber" v="1546А"/>
    <tag k="addr:street" v="15-й микрорайон"/>
    <tag k="building" v="retail"/>
    <tag k="building:levels" v="17"/>
    <tag k="shop" v="yes"/>
  </way>
  <way id="42085296" version="11" timestamp="2011-12-14T13:10:31Z" uid="143266" user="Sergey Astakhov" changeset="10115724">
    <nd ref="522816866"/>
    <nd ref="522827125"/>
    <nd ref="522816867"/>
    <nd ref="522816875"/>
    <nd ref="1113615852"/>
    <nd ref="1113617090"/>
    <nd ref="1113614274"/>
    <nd ref="522816866"/>
    <tag k="addr:city" v="Зеленоград"/>
    <tag k="addr:country" v="RU"/>
    <tag k="addr:housenumber" v="1546А"/>
    <tag k="addr:street" v="15-й микрорайон"/>
    <tag k="building" v="yes"/>
    <tag k="building:levels" v="17"/>
    <tag k="shop" v="yes"/>
  </way>
  <way id="42085296" version="12" timestamp="2012-03-27T11:36:32Z" uid="481934" user="iWowik" changeset="11115472">
    <nd ref="522816866"/>
    <nd ref="522827125"/>
    <nd ref="522816867"/>
    <nd ref="522816875"/>
    <nd ref="1113615852"/>
    <nd ref="1113617090"/>
    <nd ref="1113614274"/>
    <nd ref="522816866"/>
    <tag k="addr:city" v="Зеленоград"/>
    <tag k="addr:country" v="RU"/>
    <tag k="addr:housenumber" v="1546А"/>
    <tag k="addr:region" v="Москва"/>
    <tag k="addr:street" v="15-й микрорайон"/>
    <tag k="building" v="yes"/>
    <tag k="building:levels" v="17"/>
    <tag k="shop" v="yes"/>
  </way>
  <way id="42085298" version="1" timestamp="2009-10-06T13:27:26Z" uid="115477" user="wowik" changeset="2760553">
    <nd ref="522827153"/>
    <nd ref="522827154"/>
    <nd ref="522827156"/>
    <nd ref="522827157"/>
    <nd ref="522827153"/>
    <tag k="addr:city" v="Зеленоград"/>
    <tag k="addr:housenumber" v="1647"/>
    <tag k="addr:street" v="16-й микрорайон"/>
    <tag k="building" v="yes"/>
    <tag k="is_in" v="Russia"/>
  </way>
  <way id="42085298" version="2" timestamp="2009-11-21T05:33:03Z" uid="11132" user="liosha" changeset="3173482">
    <nd ref="522827153"/>
    <nd ref="522827154"/>
    <nd ref="522827156"/>
    <nd ref="522827157"/>
    <nd ref="522827153"/>
    <tag k="addr:city" v="Зеленоград"/>
    <tag k="addr:housenumber" v="1647"/>
    <tag k="addr:street" v="16-й Микрорайон"/>
    <tag k="building" v="yes"/>
    <tag k="is_in" v="Russia"/>
  </way>
  <way id="42085298" version="3" timestamp="2010-01-05T11:34:08Z" uid="109327" user="OverQuantum" changeset="3544566">
    <nd ref="522827153"/>
    <nd ref="522827154"/>
    <nd ref="522827156"/>
    <nd ref="522827157"/>
    <nd ref="522827153"/>
    <tag k="addr:city" v="Зеленоград"/>
    <tag k="addr:housenumber" v="1647"/>
    <tag k="addr:street" v="16-й Микрорайон"/>
    <tag k="building" v="yes"/>
    <tag k="is_in" v="Russia"/>
    <tag k="landuse" v="service"/>
  </way>
  <way id="42085298" version="4" timestamp="2011-06-07T20:50:16Z" uid="133332" user="AMDmi3" changeset="8374030">
    <nd ref="522827153"/>
    <nd ref="522827154"/>
    <nd ref="522827156"/>
    <nd ref="522827157"/>
    <nd ref="522827153"/>
    <tag k="addr:city" v="Зеленоград"/>
    <tag k="addr:housenumber" v="1647"/>
    <tag k="addr:street" v="16-й микрорайон"/>
    <tag k="building" v="yes"/>
    <tag k="is_in" v="Russia"/>
    <tag k="landuse" v="service"/>
  </way>
  <way id="42085298" version="5" timestamp="2011-09-13T10:23:34Z" uid="29320" user="Komяpa" changeset="9288237">
    <nd ref="522827153"/>
    <nd ref="522827154"/>
    <nd ref="522827156"/>
    <nd ref="522827157"/>
    <nd ref="522827153"/>
    <tag k="addr:city" v="Зеленоград"/>
    <tag k="addr:country" v="RU"/>
    <tag k="addr:housenumber" v="1647"/>
    <tag k="addr:street" v="16-й микрорайон"/>
    <tag k="building" v="service"/>
  </way>
  <way id="42085298" version="6" timestamp="2012-03-27T11:37:42Z" uid="481934" user="iWowik" changeset="11115472">
    <nd ref="522827153"/>
    <nd ref="522827154"/>
    <nd ref="522827156"/>
    <nd ref="522827157"/>
    <nd ref="522827153"/>
    <tag k="addr:city" v="Зеленоград"/>
    <tag k="addr:country" v="RU"/>
    <tag k="addr:housenumber" v="1647"/>
    <tag k="addr:region" v="Москва"/>
    <tag k="addr:street" v="16-й микрорайон"/>
    <tag k="building" v="service"/>
  </way>
  <way id="42085568" version="1" timestamp="2009-10-06T13:31:17Z" uid="182372" user="Mucher" changeset="2760580">
    <nd ref="522832132"/>
    <nd ref="381039885"/>
    <nd ref="522832132"/>
  </way>
  <way id="42085568" version="2" timestamp="2009-10-06T13:31:36Z" uid="182372" user="Mucher" changeset="2760580">
    <nd ref="522832132"/>
    <nd ref="381039885"/>
    <nd ref="522832132"/>
    <nd ref="381039910"/>
    <nd ref="522832132"/>
  </way>
  <way id="42085568" version="3" timestamp="2009-10-06T13:31:45Z" uid="182372" user="Mucher" changeset="2760580">
    <nd ref="522832132"/>
    <nd ref="381039885"/>
    <nd ref="522832132"/>
    <nd ref="381039910"/>
  </way>
  <way id="42085568" version="4" timestamp="2009-12-15T12:15:18Z" uid="153031" user="ajoessen" changeset="3378791">
    <nd ref="522832132"/>
    <nd ref="381039885"/>
    <nd ref="522832132"/>
    <tag k="highway" v="track"/>
  </way>
  <way id="42085568" version="5" timestamp="2009-12-29T14:08:21Z" uid="92274" user="adjuva" changeset="3481370">
    <nd ref="522832132"/>
    <nd ref="381039885"/>
    <tag k="highway" v="track"/>
  </way>
  <way id="42085568" version="6" timestamp="2011-03-01T18:23:34Z" uid="361950" user="Reichensteiner" changeset="7431477"/>
  <way id="42085647" version="1" timestamp="2009-10-06T13:33:10Z" uid="182372" user="Mucher" changeset="2760580">
    <nd ref="522832132"/>
    <nd ref="522834409"/>
    <nd ref="522834412"/>
    <nd ref="522834414"/>
    <nd ref="522834417"/>
    <nd ref="522834419"/>
    <nd ref="522834420"/>
    <nd ref="522834421"/>
    <nd ref="522834423"/>
    <nd ref="522834430"/>
    <nd ref="522834434"/>
    <tag k="highway" v="service"/>
  </way>
  <way id="42085647" version="2" timestamp="2011-01-23T12:11:55Z" uid="361950" user="Reichensteiner" changeset="7060356">
    <nd ref="522832132"/>
    <nd ref="522834409"/>
    <nd ref="1116718849"/>
    <nd ref="522834412"/>
    <nd ref="522834414"/>
    <nd ref="522834417"/>
    <nd ref="522834417"/>
    <tag k="highway" v="unclassified"/>
  </way>
  <way id="42085647" version="3" timestamp="2011-01-23T20:28:08Z" uid="70696" user="xybot" changeset="7066232">
    <nd ref="522832132"/>
    <nd ref="522834409"/>
    <nd ref="1116718849"/>
    <nd ref="522834412"/>
    <nd ref="522834414"/>
    <nd ref="522834417"/>
    <tag k="highway" v="unclassified"/>
  </way>
  <way id="42085647" version="4" timestamp="2011-02-03T22:54:50Z" uid="361950" user="Reichensteiner" changeset="7178841">
    <nd ref="522832132"/>
    <nd ref="1134589228"/>
    <nd ref="522834409"/>
    <nd ref="1134589211"/>
    <nd ref="1116718849"/>
    <nd ref="522834412"/>
    <nd ref="522834414"/>
    <nd ref="522834417"/>
    <tag k="highway" v="unclassified"/>
  </way>
  <way id="42085647" version="5" timestamp="2011-03-01T18:23:35Z" uid="361950" user="Reichensteiner" changeset="7431477"/>
  <way id="42085713" version="3" timestamp="2010-06-29T20:49:59Z" uid="74617" user="JohnSmith" changeset="5109183">
    <nd ref="522836075"/>
    <nd ref="522836083"/>
    <nd ref="522836087"/>
    <nd ref="522836090"/>
    <nd ref="522836075"/>
    <tag k="fixme" v="sport=rugby is ambiguous, see http://wiki.osm.org/wiki/Tag:sport%3Drugby for more details"/>
    <tag k="leisure" v="playground"/>
    <tag k="sport" v="rugby"/>
  </way>
  <way id="42085733" version="1" timestamp="2009-10-06T13:34:43Z" uid="115477" user="wowik" changeset="2760553">
    <nd ref="522836489"/>
    <nd ref="522836494"/>
    <nd ref="522836499"/>
    <nd ref="522836506"/>
    <nd ref="522836489"/>
    <tag k="addr:city" v="Зеленоград"/>
    <tag k="addr:housenumber" v="1545"/>
    <tag k="addr:street" v="15-й микрорайон"/>
    <tag k="building" v="yes"/>
    <tag k="is_in" v="Russia"/>
  </way>
  <way id="42085733" version="2" timestamp="2009-11-21T05:33:04Z" uid="11132" user="liosha" changeset="3173482">
    <nd ref="522836489"/>
    <nd ref="522836494"/>
    <nd ref="522836499"/>
    <nd ref="522836506"/>
    <nd ref="522836489"/>
    <tag k="addr:city" v="Зеленоград"/>
    <tag k="addr:housenumber" v="1545"/>
    <tag k="addr:street" v="15-й Микрорайон"/>
    <tag k="building" v="yes"/>
    <tag k="is_in" v="Russia"/>
  </way>
  <way id="42085733" version="3" timestamp="2010-01-05T10:51:26Z" uid="109327" user="OverQuantum" changeset="3544233">
    <nd ref="522836489"/>
    <nd ref="522836494"/>
    <nd ref="522836499"/>
    <nd ref="522836506"/>
    <nd ref="522836489"/>
    <tag k="addr:city" v="Зеленоград"/>
    <tag k="addr:housenumber" v="1545"/>
    <tag k="addr:street" v="15-й Микрорайон"/>
    <tag k="building" v="yes"/>
    <tag k="is_in" v="Russia"/>
    <tag k="landuse" v="service"/>
  </way>
  <way id="42085733" version="4" timestamp="2011-06-07T20:45:07Z" uid="133332" user="AMDmi3" changeset="8374030">
    <nd ref="522836489"/>
    <nd ref="522836494"/>
    <nd ref="522836499"/>
    <nd ref="522836506"/>
    <nd ref="522836489"/>
    <tag k="addr:city" v="Зеленоград"/>
    <tag k="addr:housenumber" v="1545"/>
    <tag k="addr:street" v="15-й микрорайон"/>
    <tag k="building" v="yes"/>
    <tag k="is_in" v="Russia"/>
    <tag k="landuse" v="service"/>
  </way>
  <way id="42085733" version="5" timestamp="2011-09-13T10:22:59Z" uid="29320" user="Komяpa" changeset="9288237">
    <nd ref="522836489"/>
    <nd ref="522836494"/>
    <nd ref="522836499"/>
    <nd ref="522836506"/>
    <nd ref="522836489"/>
    <tag k="addr:city" v="Зеленоград"/>
    <tag k="addr:country" v="RU"/>
    <tag k="addr:housenumber" v="1545"/>
    <tag k="addr:street" v="15-й микрорайон"/>
    <tag k="building" v="service"/>
  </way>
  <way id="42085733" version="6" timestamp="2012-03-27T11:36:30Z" uid="481934" user="iWowik" changeset="11115472">
    <nd ref="522836489"/>
    <nd ref="522836494"/>
    <nd ref="522836499"/>
    <nd ref="522836506"/>
    <nd ref="522836489"/>
    <tag k="addr:city" v="Зеленоград"/>
    <tag k="addr:country" v="RU"/>
    <tag k="addr:housenumber" v="1545"/>
    <tag k="addr:region" v="Москва"/>
    <tag k="addr:street" v="15-й микрорайон"/>
    <tag k="building" v="service"/>
  </way>
  <way id="42085736" version="1" timestamp="2009-10-06T13:34:45Z" uid="115477" user="wowik" changeset="2760553">
    <nd ref="522836521"/>
    <nd ref="522836523"/>
    <nd ref="522836527"/>
    <nd ref="522836531"/>
    <nd ref="522836534"/>
    <nd ref="522836537"/>
    <nd ref="522836541"/>
    <nd ref="522836546"/>
    <nd ref="522836521"/>
    <tag k="addr:city" v="Зеленоград"/>
    <tag k="addr:housenumber" v="1535"/>
    <tag k="addr:street" v="15-й микрорайон"/>
    <tag k="building" v="yes"/>
    <tag k="is_in" v="Russia"/>
  </way>
  <way id="42085736" version="2" timestamp="2009-11-21T05:33:05Z" uid="11132" user="liosha" changeset="3173482">
    <nd ref="522836521"/>
    <nd ref="522836523"/>
    <nd ref="522836527"/>
    <nd ref="522836531"/>
    <nd ref="522836534"/>
    <nd ref="522836537"/>
    <nd ref="522836541"/>
    <nd ref="522836546"/>
    <nd ref="522836521"/>
    <tag k="addr:city" v="Зеленоград"/>
    <tag k="addr:housenumber" v="1535"/>
    <tag k="addr:street" v="15-й Микрорайон"/>
    <tag k="building" v="yes"/>
    <tag k="is_in" v="Russia"/>
  </way>
  <way id="42085736" version="3" timestamp="2010-10-31T11:37:45Z" uid="241531" user="dik_man" changeset="6237358">
    <nd ref="522836541"/>
    <nd ref="522836546"/>
    <nd ref="522836521"/>
    <nd ref="522836523"/>
    <nd ref="522836527"/>
    <nd ref="522836541"/>
    <tag k="building" v="yes"/>
  </way>
  <way id="42085736" version="4" timestamp="2010-11-01T04:41:28Z" uid="241531" user="dik_man" changeset="6251442">
    <nd ref="522836541"/>
    <nd ref="522836546"/>
    <nd ref="522836521"/>
    <nd ref="522836523"/>
    <nd ref="522836527"/>
    <nd ref="522836541"/>
    <tag k="building" v="yes"/>
    <tag k="name" v="1535"/>
  </way>
  <way id="42085736" version="5" timestamp="2011-01-21T19:29:44Z" uid="115477" user="wowik" changeset="7043561">
    <nd ref="522836541"/>
    <nd ref="1113614195"/>
    <nd ref="1113614900"/>
    <nd ref="1113615642"/>
    <nd ref="1113615971"/>
    <nd ref="1113616930"/>
    <nd ref="1113615266"/>
    <nd ref="1113612936"/>
    <nd ref="1113617164"/>
    <nd ref="522836546"/>
    <nd ref="1113613210"/>
    <nd ref="1113613835"/>
    <nd ref="522836521"/>
    <nd ref="1113614545"/>
    <nd ref="1113615670"/>
    <nd ref="1113614930"/>
    <nd ref="1113614237"/>
    <nd ref="522836523"/>
    <nd ref="1113616445"/>
    <nd ref="522836527"/>
    <nd ref="522836541"/>
    <tag k="addr:city" v="Зеленоград"/>
    <tag k="addr:housenumber" v="1535"/>
    <tag k="addr:street" v="15-й Микрорайон"/>
    <tag k="building" v="yes"/>
    <tag k="is_in" v="Russia"/>
    <tag k="name" v="1535"/>
  </way>
  <way id="42085736" version="6" timestamp="2011-02-10T16:23:16Z" uid="133332" user="AMDmi3" changeset="7246754">
    <nd ref="522836541"/>
    <nd ref="1113614195"/>
    <nd ref="1113614900"/>
    <nd ref="1113615642"/>
    <nd ref="1113615971"/>
    <nd ref="1113616930"/>
    <nd ref="1113615266"/>
    <nd ref="1113612936"/>
    <nd ref="1113617164"/>
    <nd ref="522836546"/>
    <nd ref="1113613210"/>
    <nd ref="1113613835"/>
    <nd ref="522836521"/>
    <nd ref="1113614545"/>
    <nd ref="1113615670"/>
    <nd ref="1113614930"/>
    <nd ref="1113614237"/>
    <nd ref="522836523"/>
    <nd ref="1113616445"/>
    <nd ref="522836527"/>
    <nd ref="522836541"/>
    <tag k="addr:city" v="Зеленоград"/>
    <tag k="addr:housenumber" v="1535"/>
    <tag k="addr:street" v="15-й Микрорайон"/>
    <tag k="building" v="yes"/>
    <tag k="is_in" v="Russia"/>
  </way>
  <way id="42085736" version="7" timestamp="2011-06-07T20:45:08Z" uid="133332" user="AMDmi3" changeset="8374030">
    <nd ref="522836541"/>
    <nd ref="1113614195"/>
    <nd ref="1113614900"/>
    <nd ref="1113615642"/>
    <nd ref="1113615971"/>
    <nd ref="1113616930"/>
    <nd ref="1113615266"/>
    <nd ref="1113612936"/>
    <nd ref="1113617164"/>
    <nd ref="522836546"/>
    <nd ref="1113613210"/>
    <nd ref="1113613835"/>
    <nd ref="522836521"/>
    <nd ref="1113614545"/>
    <nd ref="1113615670"/>
    <nd ref="1113614930"/>
    <nd ref="1113614237"/>
    <nd ref="522836523"/>
    <nd ref="1113616445"/>
    <nd ref="522836527"/>
    <nd ref="522836541"/>
    <tag k="addr:city" v="Зеленоград"/>
    <tag k="addr:housenumber" v="1535"/>
    <tag k="addr:street" v="15-й микрорайон"/>
    <tag k="building" v="yes"/>
    <tag k="is_in" v="Russia"/>
  </way>
  <way id="42085736" version="8" timestamp="2011-09-13T10:22:52Z" uid="29320" user="Komяpa" changeset="9288237">
    <nd ref="522836541"/>
    <nd ref="1113614195"/>
    <nd ref="1113614900"/>
    <nd ref="1113615642"/>
    <nd ref="1113615971"/>
    <nd ref="1113616930"/>
    <nd ref="1113615266"/>
    <nd ref="1113612936"/>
    <nd ref="1113617164"/>
    <nd ref="522836546"/>
    <nd ref="1113613210"/>
    <nd ref="1113613835"/>
    <nd ref="522836521"/>
    <nd ref="1113614545"/>
    <nd ref="1113615670"/>
    <nd ref="1113614930"/>
    <nd ref="1113614237"/>
    <nd ref="522836523"/>
    <nd ref="1113616445"/>
    <nd ref="522836527"/>
    <nd ref="522836541"/>
    <tag k="addr:city" v="Зеленоград"/>
    <tag k="addr:country" v="RU"/>
    <tag k="addr:housenumber" v="1535"/>
    <tag k="addr:street" v="15-й микрорайон"/>
    <tag k="building" v="yes"/>
  </way>
  <way id="42085736" version="9" timestamp="2012-03-27T11:36:14Z" uid="481934" user="iWowik" changeset="11115472">
    <nd ref="522836541"/>
    <nd ref="1113614195"/>
    <nd ref="1113614900"/>
    <nd ref="1113615642"/>
    <nd ref="1113615971"/>
    <nd ref="1113616930"/>
    <nd ref="1113615266"/>
    <nd ref="1113612936"/>
    <nd ref="1113617164"/>
    <nd ref="522836546"/>
    <nd ref="1113613210"/>
    <nd ref="1113613835"/>
    <nd ref="522836521"/>
    <nd ref="1113614545"/>
    <nd ref="1113615670"/>
    <nd ref="1113614930"/>
    <nd ref="1113614237"/>
    <nd ref="522836523"/>
    <nd ref="1113616445"/>
    <nd ref="522836527"/>
    <nd ref="522836541"/>
    <tag k="addr:city" v="Зеленоград"/>
    <tag k="addr:country" v="RU"/>
    <tag k="addr:housenumber" v="1535"/>
    <tag k="addr:region" v="Москва"/>
    <tag k="addr:street" v="15-й микрорайон"/>
    <tag k="building" v="yes"/>
  </way>
  <way id="42085738" version="1" timestamp="2009-10-06T13:34:45Z" uid="115477" user="wowik" changeset="2760553">
    <nd ref="522836559"/>
    <nd ref="522836562"/>
    <nd ref="522836566"/>
    <nd ref="522836571"/>
    <nd ref="522836559"/>
    <tag k="addr:city" v="Зеленоград"/>
    <tag k="addr:housenumber" v="1513"/>
    <tag k="addr:street" v="15-й микрорайон"/>
    <tag k="amenity" v="hospital"/>
    <tag k="building" v="yes"/>
    <tag k="depth" v="Детская поликлиника 54"/>
    <tag k="is_in" v="Russia"/>
    <tag k="name" v="Дет. п-ка 54"/>
  </way>
  <way id="42085738" version="2" timestamp="2009-11-21T05:33:04Z" uid="11132" user="liosha" changeset="3173482">
    <nd ref="522836559"/>
    <nd ref="522836562"/>
    <nd ref="522836566"/>
    <nd ref="522836571"/>
    <nd ref="522836559"/>
    <tag k="addr:city" v="Зеленоград"/>
    <tag k="addr:housenumber" v="1513"/>
    <tag k="addr:street" v="15-й Микрорайон"/>
    <tag k="amenity" v="hospital"/>
    <tag k="building" v="yes"/>
    <tag k="depth" v="Детская поликлиника 54"/>
    <tag k="is_in" v="Russia"/>
    <tag k="name" v="Дет. п-ка 54"/>
  </way>
  <way id="42085738" version="3" timestamp="2010-01-05T10:51:26Z" uid="109327" user="OverQuantum" changeset="3544233"/>
</osm>
