<?xml version='1.0' encoding='UTF-8'?>
<osm version="0.6" generator="libosmium/2.20.0">
  <way id="42155013" version="2" timestamp="2009-10-10T09:40:20Z" uid="20587" user="balrog-kun" changeset="2801655">
    <nd ref="524339587"/>
    <nd ref="524339992"/>
    <nd ref="524339970"/>
    <nd ref="524339941"/>
    <nd ref="524339587"/>
    <tag k="addr:city" v="Bridgeport"/>
    <tag k="addr:housenumber" v="309"/>
    <tag k="addr:street" v="Main"/>
    <tag k="attribution" v="Mono County GIS"/>
    <tag k="building" v="yes"/>
    <tag k="type" v="Public Facility"/>
  </way>
  <way id="42155024" version="2" timestamp="2009-10-10T09:40:19Z" uid="20587" user="balrog-kun" changeset="2801655">
    <nd ref="524347690"/>
    <nd ref="524347722"/>
    <nd ref="524347705"/>
    <nd ref="524347730"/>
    <nd ref="524347728"/>
    <nd ref="524347747"/>
    <nd ref="524347731"/>
    <nd ref="524347759"/>
    <nd ref="524347690"/>
    <tag k="addr:city" v="Bridgeport"/>
    <tag k="addr:housenumber" v="105"/>
    <tag k="addr:street" v="Main"/>
    <tag k="attribution" v="Mono County GIS"/>
    <tag k="building" v="yes"/>
  </way>
  <way id="42155026" version="2" timestamp="2009-10-10T09:40:19Z" uid="20587" user="balrog-kun" changeset="2801655">
    <nd ref="524349227"/>
    <nd ref="524349157"/>
    <nd ref="524349202"/>
    <nd ref="524349179"/>
    <nd ref="524349227"/>
    <tag k="addr:city" v="Bridgeport"/>
    <tag k="attribution" v="Mono County GIS"/>
    <tag k="building" v="yes"/>
  </way>
  <way id="42155031" version="2" timestamp="2009-10-10T09:40:20Z" uid="20587" user="balrog-kun" changeset="2801655">
    <nd ref="524339904"/>
    <nd ref="524339886"/>
    <nd ref="524339871"/>
    <nd ref="524339863"/>
    <nd ref="524339833"/>
    <nd ref="524339822"/>
    <nd ref="524339921"/>
    <nd ref="524339812"/>
    <nd ref="524339904"/>
    <tag k="addr:city" v="Bridgeport"/>
    <tag k="addr:housenumber" v="291"/>
    <tag k="addr:street" v="Main"/>
    <tag k="attribution" v="Mono County GIS"/>
    <tag k="building" v="yes"/>
  </way>
  <way id="42155035" version="2" timestamp="2009-10-10T09:40:20Z" uid="20587" user="balrog-kun" changeset="2801655">
    <nd ref="524342123"/>
    <nd ref="524343421"/>
    <nd ref="524343410"/>
    <nd ref="524343443"/>
    <nd ref="524343432"/>
    <nd ref="524342641"/>
    <nd ref="524342123"/>
    <tag k="addr:city" v="Bridgeport"/>
    <tag k="addr:housenumber" v="205"/>
    <tag k="addr:street" v="Main"/>
    <tag k="attribution" v="Mono County GIS"/>
    <tag k="building" v="yes"/>
  </way>
  <way id="42155052" version="2" timestamp="2009-10-10T09:40:19Z" uid="20587" user="balrog-kun" changeset="2801655">
    <nd ref="524345637"/>
    <nd ref="524345649"/>
    <nd ref="524346022"/>
    <nd ref="524346029"/>
    <nd ref="524345637"/>
    <tag k="addr:city" v="Bridgeport"/>
    <tag k="attribution" v="Mono County GIS"/>
    <tag k="building" v="yes"/>
  </way>
  <way id="42155065" version="2" timestamp="2009-10-10T09:40:19Z" uid="20587" user="balrog-kun" changeset="2801655">
    <nd ref="524334755"/>
    <nd ref="524344123"/>
    <nd ref="524344136"/>
    <nd ref="524334722"/>
    <nd ref="524334737"/>
    <nd ref="524334707"/>
    <nd ref="524334699"/>
    <nd ref="524334565"/>
    <nd ref="524334755"/>
    <tag k="addr:city" v="Bridgeport"/>
    <tag k="addr:housenumber" v="310"/>
    <tag k="addr:street" v="Main"/>
    <tag k="attribution" v="Mono County GIS"/>
    <tag k="building" v="yes"/>
  </way>
  <way id="42155079" version="2" timestamp="2009-10-10T09:40:19Z" uid="20587" user="balrog-kun" changeset="2801655">
    <nd ref="524345664"/>
    <nd ref="524345652"/>
    <nd ref="524345719"/>
    <nd ref="524345708"/>
    <nd ref="524345664"/>
    <tag k="addr:city" v="Bridgeport"/>
    <tag k="addr:housenumber" v="108"/>
    <tag k="addr:street" v="Bryant"/>
    <tag k="attribution" v="Mono County GIS"/>
    <tag k="building" v="yes"/>
  </way>
  <way id="42155092" version="2" timestamp="2009-10-10T09:40:19Z" uid="20587" user="balrog-kun" changeset="2801655">
    <nd ref="524345757"/>
    <nd ref="524345731"/>
    <nd ref="524345693"/>
    <nd ref="524345676"/>
    <nd ref="524345757"/>
    <tag k="addr:city" v="Bridgeport"/>
    <tag k="attribution" v="Mono County GIS"/>
    <tag k="building" v="yes"/>
  </way>
  <way id="42155114" version="2" timestamp="2009-10-10T09:40:18Z" uid="20587" user="balrog-kun" changeset="2801655">
    <nd ref="524334686"/>
    <nd ref="524334654"/>
    <nd ref="524334637"/>
    <nd ref="524334670"/>
    <nd ref="524334686"/>
    <tag k="addr:city" v="Bridgeport"/>
    <tag k="addr:housenumber" v="123"/>
    <tag k="addr:street" v="Emigrant"/>
    <tag k="attribution" v="Mono County GIS"/>
    <tag k="building" v="yes"/>
    <tag k="type" v="Public Facility"/>
  </way>
  <way id="42155119" version="2" timestamp="2009-10-10T09:40:18Z" uid="20587" user="balrog-kun" changeset="2801655">
    <nd ref="524344576"/>
    <nd ref="524344415"/>
    <nd ref="524344433"/>
    <nd ref="524344267"/>
    <nd ref="524344576"/>
    <tag k="addr:city" v="Bridgeport"/>
    <tag k="addr:housenumber" v="25"/>
    <tag k="addr:street" v="Bryant"/>
    <tag k="attribution" v="Mono County GIS"/>
    <tag k="building" v="yes"/>
    <tag k="type" v="Public Facility"/>
  </way>
  <way id="42155120" version="2" timestamp="2009-10-10T09:40:17Z" uid="20587" user="balrog-kun" changeset="2801655">
    <nd ref="524351863"/>
    <nd ref="524351879"/>
    <nd ref="524351900"/>
    <nd ref="524351922"/>
    <nd ref="524351863"/>
    <tag k="addr:city" v="Bridgeport"/>
    <tag k="attribution" v="Mono County GIS"/>
    <tag k="building" v="yes"/>
  </way>
  <way id="42155121" version="2" timestamp="2009-10-10T09:40:17Z" uid="20587" user="balrog-kun" changeset="2801655">
    <nd ref="524329097"/>
    <nd ref="524328939"/>
    <nd ref="524328944"/>
    <nd ref="524328908"/>
    <nd ref="524328922"/>
    <nd ref="524328991"/>
    <nd ref="524328992"/>
    <nd ref="524328960"/>
    <nd ref="524328977"/>
    <nd ref="524329080"/>
    <nd ref="524329056"/>
    <nd ref="524329024"/>
    <nd ref="524328998"/>
    <nd ref="524329014"/>
    <nd ref="524329097"/>
    <tag k="addr:city" v="Bridgeport"/>
    <tag k="addr:housenumber" v="85"/>
    <tag k="addr:street" v="Kirkwood"/>
    <tag k="attribution" v="Mono County GIS"/>
    <tag k="building" v="yes"/>
  </way>
  <way id="42155122" version="2" timestamp="2009-10-10T09:40:17Z" uid="20587" user="balrog-kun" changeset="2801655">
    <nd ref="524333457"/>
    <nd ref="524333566"/>
    <nd ref="524333549"/>
    <nd ref="524333448"/>
    <nd ref="524333457"/>
    <tag k="addr:city" v="Bridgeport"/>
    <tag k="addr:housenumber" v="123"/>
    <tag k="addr:street" v="Emigrant"/>
    <tag k="attribution" v="Mono County GIS"/>
    <tag k="building" v="yes"/>
    <tag k="type" v="Public Facility"/>
  </way>
  <way id="42155124" version="2" timestamp="2009-10-10T09:40:17Z" uid="20587" user="balrog-kun" changeset="2801655">
    <nd ref="524333048"/>
    <nd ref="524333509"/>
    <nd ref="524333490"/>
    <nd ref="524333472"/>
    <nd ref="524333623"/>
    <nd ref="524333576"/>
    <nd ref="524333042"/>
    <nd ref="524333029"/>
    <nd ref="524333048"/>
    <tag k="addr:city" v="Bridgeport"/>
    <tag k="addr:housenumber" v="123"/>
    <tag k="addr:street" v="Emigrant"/>
    <tag k="attribution" v="Mono County GIS"/>
    <tag k="building" v="yes"/>
    <tag k="type" v="Public Facility"/>
  </way>
  <way id="42155131" version="2" timestamp="2009-10-10T09:40:18Z" uid="20587" user="balrog-kun" changeset="2801655">
    <nd ref="524332782"/>
    <nd ref="524332934"/>
    <nd ref="524332929"/>
    <nd ref="524332922"/>
    <nd ref="524333407"/>
    <nd ref="524333382"/>
    <nd ref="524333361"/>
    <nd ref="524333049"/>
    <nd ref="524332782"/>
    <tag k="addr:city" v="Bridgeport"/>
    <tag k="addr:housenumber" v="84"/>
    <tag k="addr:street" v="Kirkwood"/>
    <tag k="attribution" v="Mono County GIS"/>
    <tag k="building" v="yes"/>
  </way>
  <way id="42155132" version="2" timestamp="2009-10-10T09:40:18Z" uid="20587" user="balrog-kun" changeset="2801655">
    <nd ref="524335037"/>
    <nd ref="524334816"/>
    <nd ref="524334799"/>
    <nd ref="524334858"/>
    <nd ref="524334832"/>
    <nd ref="524334785"/>
    <nd ref="524335015"/>
    <nd ref="524334995"/>
    <nd ref="524335037"/>
    <tag k="addr:city" v="Bridgeport"/>
    <tag k="addr:housenumber" v="123"/>
    <tag k="addr:street" v="Emigrant"/>
    <tag k="attribution" v="Mono County GIS"/>
    <tag k="building" v="yes"/>
    <tag k="type" v="Public Facility"/>
  </way>
  <way id="42155134" version="2" timestamp="2009-10-10T09:40:18Z" uid="20587" user="balrog-kun" changeset="2801655">
    <nd ref="524345815"/>
    <nd ref="524345837"/>
    <nd ref="524345856"/>
    <nd ref="524345885"/>
    <nd ref="524345905"/>
    <nd ref="524345783"/>
    <nd ref="524345815"/>
    <tag k="addr:city" v="Bridgeport"/>
    <tag k="addr:housenumber" v="57"/>
    <tag k="addr:street" v="Bryant"/>
    <tag k="attribution" v="Mono County GIS"/>
    <tag k="building" v="yes"/>
    <tag k="type" v="Public Facility"/>
  </way>
  <way id="42155135" version="2" timestamp="2009-10-10T09:40:18Z" uid="20587" user="balrog-kun" changeset="2801655">
    <nd ref="524332846"/>
    <nd ref="524332863"/>
    <nd ref="524332883"/>
    <nd ref="524332900"/>
    <nd ref="524332846"/>
    <tag k="addr:city" v="Bridgeport"/>
    <tag k="addr:housenumber" v="85"/>
    <tag k="addr:street" v="Kirkwood"/>
    <tag k="attribution" v="Mono County GIS"/>
    <tag k="building" v="yes"/>
  </way>
  <way id="42155136" version="2" timestamp="2009-10-10T09:40:22Z" uid="20587" user="balrog-kun" changeset="2801655">
    <nd ref="524333543"/>
    <nd ref="524333529"/>
    <nd ref="524333528"/>
    <nd ref="524333526"/>
    <nd ref="524333543"/>
    <tag k="addr:city" v="Bridgeport"/>
    <tag k="addr:housenumber" v="123"/>
    <tag k="addr:street" v="Emigrant"/>
    <tag k="attribution" v="Mono County GIS"/>
    <tag k="building" v="yes"/>
    <tag k="type" v="Public Facility"/>
  </way>
  <way id="42155137" version="2" timestamp="2009-10-10T09:40:22Z" uid="20587" user="balrog-kun" changeset="2801655">
    <nd ref="524333602"/>
    <nd ref="524333594"/>
    <nd ref="524333579"/>
    <nd ref="524333577"/>
    <nd ref="524333602"/>
    <tag k="addr:city" v="Bridgeport"/>
    <tag k="addr:housenumber" v="123"/>
    <tag k="addr:street" v="Emigrant"/>
    <tag k="attribution" v="Mono County GIS"/>
    <tag k="building" v="yes"/>
    <tag k="type" v="Public Facility"/>
  </way>
  <way id="42155141" version="2" timestamp="2009-10-10T09:40:23Z" uid="20587" user="balrog-kun" changeset="2801655">
    <nd ref="524334414"/>
    <nd ref="524334387"/>
    <nd ref="524334361"/>
    <nd ref="524334341"/>
    <nd ref="524334414"/>
    <tag k="addr:city" v="Bridgeport"/>
    <tag k="addr:housenumber" v="340"/>
    <tag k="addr:street" v="Main"/>
    <tag k="attribution" v="Mono County GIS"/>
    <tag k="building" v="yes"/>
  </way>
  <way id="42155143" version="2" timestamp="2009-10-10T09:40:23Z" uid="20587" user="balrog-kun" changeset="2801655">
    <nd ref="524345254"/>
    <nd ref="524344923"/>
    <nd ref="524345231"/>
    <nd ref="524345242"/>
    <nd ref="524345254"/>
    <tag k="addr:city" v="Bridgeport"/>
    <tag k="attribution" v="Mono County GIS"/>
    <tag k="building" v="yes"/>
  </way>
  <way id="42155147" version="2" timestamp="2009-10-10T09:40:22Z" uid="20587" user="balrog-kun" changeset="2801655">
    <nd ref="524333881"/>
    <nd ref="524334304"/>
    <nd ref="524334276"/>
    <nd ref="524333905"/>
    <nd ref="524333881"/>
    <tag k="addr:city" v="Bridgeport"/>
    <tag k="addr:housenumber" v="380"/>
    <tag k="addr:street" v="Main"/>
    <tag k="attribution" v="Mono County GIS"/>
    <tag k="building" v="yes"/>
  </way>
  <way id="42155166" version="2" timestamp="2009-10-10T09:40:22Z" uid="20587" user="balrog-kun" changeset="2801655">
    <nd ref="524344792"/>
    <nd ref="524344929"/>
    <nd ref="524344927"/>
    <nd ref="524344809"/>
    <nd ref="524344792"/>
    <tag k="addr:city" v="Bridgeport"/>
    <tag k="addr:housenumber" v="208"/>
    <tag k="addr:street" v="Main"/>
    <tag k="attribution" v="Mono County GIS"/>
    <tag k="building" v="yes"/>
  </way>
  <way id="42155174" version="2" timestamp="2009-10-10T09:40:22Z" uid="20587" user="balrog-kun" changeset="2801655">
    <nd ref="524334209"/>
    <nd ref="524334582"/>
    <nd ref="524334597"/>
    <nd ref="524334240"/>
    <nd ref="524334209"/>
    <tag k="addr:city" v="Bridgeport"/>
    <tag k="addr:housenumber" v="340"/>
    <tag k="addr:street" v="Main"/>
    <tag k="attribution" v="Mono County GIS"/>
    <tag k="building" v="yes"/>
  </way>
  <way id="42155176" version="2" timestamp="2009-10-10T09:40:21Z" uid="20587" user="balrog-kun" changeset="2801655">
    <nd ref="524343711"/>
    <nd ref="524343702"/>
    <nd ref="524343679"/>
    <nd ref="524343682"/>
    <nd ref="524343827"/>
    <nd ref="524343807"/>
    <nd ref="524343796"/>
    <nd ref="524343786"/>
    <nd ref="524343711"/>
    <tag k="addr:city" v="Bridgeport"/>
    <tag k="addr:housenumber" v="278"/>
    <tag k="addr:street" v="Main"/>
    <tag k="attribution" v="Mono County GIS"/>
    <tag k="building" v="yes"/>
    <tag k="stories" v="2.0"/>
    <tag k="type" v="Public Facility"/>
  </way>
  <way id="42155180" version="2" timestamp="2009-10-10T09:40:22Z" uid="20587" user="balrog-kun" changeset="2801655">
    <nd ref="524332276"/>
    <nd ref="524332259"/>
    <nd ref="524332658"/>
    <nd ref="524332646"/>
    <nd ref="524332635"/>
    <nd ref="524332620"/>
    <nd ref="524332276"/>
    <tag k="addr:city" v="Bridgeport"/>
    <tag k="addr:housenumber" v="34"/>
    <tag k="addr:street" v="Kirkwood"/>
    <tag k="attribution" v="Mono County GIS"/>
    <tag k="building" v="yes"/>
  </way>
  <way id="42155181" version="2" timestamp="2009-10-10T09:40:21Z" uid="20587" user="balrog-kun" changeset="2801655">
    <nd ref="524350110"/>
    <nd ref="524350105"/>
    <nd ref="524349906"/>
    <nd ref="524349887"/>
    <nd ref="524350110"/>
    <tag k="addr:city" v="Bridgeport"/>
    <tag k="attribution" v="Mono County GIS"/>
    <tag k="building" v="yes"/>
  </way>
  <way id="42155182" version="2" timestamp="2009-10-10T09:40:22Z" uid="20587" user="balrog-kun" changeset="2801655">
    <nd ref="524350104"/>
    <nd ref="524350103"/>
    <nd ref="524350057"/>
    <nd ref="524350038"/>
    <nd ref="524350087"/>
    <nd ref="524350012"/>
    <nd ref="524350104"/>
    <tag k="addr:city" v="Bridgeport"/>
    <tag k="addr:housenumber" v="152"/>
    <tag k="addr:street" v="Main"/>
    <tag k="attribution" v="Mono County GIS"/>
    <tag k="building" v="yes"/>
  </way>
  <way id="42155204" version="2" timestamp="2009-10-10T09:40:21Z" uid="20587" user="balrog-kun" changeset="2801655">
    <nd ref="524334772"/>
    <nd ref="524344218"/>
    <nd ref="524343669"/>
    <nd ref="524343672"/>
    <nd ref="524343662"/>
    <nd ref="524343661"/>
    <nd ref="524343654"/>
    <nd ref="524343622"/>
    <nd ref="524343671"/>
    <nd ref="524343664"/>
    <nd ref="524334772"/>
    <tag k="addr:city" v="Bridgeport"/>
    <tag k="addr:housenumber" v="310"/>
    <tag k="addr:street" v="Main"/>
    <tag k="attribution" v="Mono County GIS"/>
    <tag k="building" v="yes"/>
  </way>
  <way id="42155225" version="2" timestamp="2009-10-10T09:40:21Z" uid="20587" user="balrog-kun" changeset="2801655">
    <nd ref="524345358"/>
    <nd ref="524345379"/>
    <nd ref="524345368"/>
    <nd ref="524345359"/>
    <nd ref="524345358"/>
    <tag k="addr:city" v="Bridgeport"/>
    <tag k="attribution" v="Mono County GIS"/>
    <tag k="building" v="yes"/>
  </way>
  <way id="42155240" version="2" timestamp="2009-10-10T09:40:21Z" uid="20587" user="balrog-kun" changeset="2801655">
    <nd ref="524332247"/>
    <nd ref="524332232"/>
    <nd ref="524332678"/>
    <nd ref="524332668"/>
    <nd ref="524332700"/>
    <nd ref="524332689"/>
    <nd ref="524332247"/>
    <tag k="addr:city" v="Bridgeport"/>
    <tag k="addr:housenumber" v="72"/>
    <tag k="addr:street" v="Kirkwood"/>
    <tag k="attribution" v="Mono County GIS"/>
    <tag k="building" v="yes"/>
  </way>
  <way id="42155253" version="2" timestamp="2009-10-10T09:40:20Z" uid="20587" user="balrog-kun" changeset="2801655">
    <nd ref="524332770"/>
    <nd ref="524332751"/>
    <nd ref="524332759"/>
    <nd ref="524332736"/>
    <nd ref="524332744"/>
    <nd ref="524333018"/>
    <nd ref="524332968"/>
    <nd ref="524332984"/>
    <nd ref="524332987"/>
    <nd ref="524333005"/>
    <nd ref="524332941"/>
    <nd ref="524332949"/>
    <nd ref="524332955"/>
    <nd ref="524332723"/>
    <nd ref="524332725"/>
    <nd ref="524332720"/>
    <nd ref="524332722"/>
    <nd ref="524332711"/>
    <nd ref="524332770"/>
    <tag k="addr:city" v="Bridgeport"/>
    <tag k="addr:housenumber" v="72"/>
    <tag k="addr:street" v="Kirkwood"/>
    <tag k="attribution" v="Mono County GIS"/>
    <tag k="building" v="yes"/>
  </way>
  <way id="42155255" version="2" timestamp="2009-10-10T09:40:21Z" uid="20587" user="balrog-kun" changeset="2801655">
    <nd ref="524349985"/>
    <nd ref="524350768"/>
    <nd ref="524350775"/>
    <nd ref="524349961"/>
    <nd ref="524349985"/>
    <tag k="addr:city" v="Bridgeport"/>
    <tag k="attribution" v="Mono County GIS"/>
    <tag k="building" v="yes"/>
  </way>
  <way id="42155256" version="2" timestamp="2009-10-10T09:40:20Z" uid="20587" user="balrog-kun" changeset="2801655">
    <nd ref="524343666"/>
    <nd ref="524343667"/>
    <nd ref="524344193"/>
    <nd ref="524344212"/>
    <nd ref="524344147"/>
    <nd ref="524344172"/>
    <nd ref="524343816"/>
    <nd ref="524343663"/>
    <nd ref="524343666"/>
    <tag k="addr:city" v="Bridgeport"/>
    <tag k="addr:housenumber" v="58"/>
    <tag k="addr:street" v="Bryant"/>
    <tag k="attribution" v="Mono County GIS"/>
    <tag k="building" v="yes"/>
    <tag k="stories" v="1.0"/>
    <tag k="type" v="Public Facility"/>
  </way>
  <way id="42155264" version="2" timestamp="2009-10-10T09:40:09Z" uid="20587" user="balrog-kun" changeset="2801655">
    <nd ref="524344992"/>
    <nd ref="524344983"/>
    <nd ref="524345325"/>
    <nd ref="524346041"/>
    <nd ref="524346058"/>
    <nd ref="524345342"/>
    <nd ref="524345353"/>
    <nd ref="524345313"/>
    <nd ref="524344992"/>
    <tag k="addr:city" v="Bridgeport"/>
    <tag k="attribution" v="Mono County GIS"/>
    <tag k="building" v="yes"/>
  </way>
  <way id="42155265" version="2" timestamp="2009-10-10T09:40:09Z" uid="20587" user="balrog-kun" changeset="2801655">
    <nd ref="524325814"/>
    <nd ref="524325440"/>
    <nd ref="524325419"/>
    <nd ref="524325452"/>
    <nd ref="524329375"/>
    <nd ref="524329418"/>
    <nd ref="524329400"/>
    <nd ref="524329723"/>
    <nd ref="524325814"/>
    <tag k="addr:city" v="Bridgeport"/>
    <tag k="addr:housenumber" v="329"/>
    <tag k="addr:street" v="Kingsley"/>
    <tag k="attribution" v="Mono County GIS"/>
    <tag k="building" v="yes"/>
  </way>
  <way id="42155266" version="2" timestamp="2009-10-10T09:40:09Z" uid="20587" user="balrog-kun" changeset="2801655">
    <nd ref="524325498"/>
    <nd ref="524325483"/>
    <nd ref="524325473"/>
    <nd ref="524325466"/>
    <nd ref="524325507"/>
    <nd ref="524325406"/>
    <nd ref="524325498"/>
    <tag k="addr:city" v="Bridgeport"/>
    <tag k="addr:housenumber" v="339"/>
    <tag k="addr:street" v="Kingsley"/>
    <tag k="attribution" v="Mono County GIS"/>
    <tag k="building" v="yes"/>
  </way>
  <way id="42155268" version="2" timestamp="2009-10-10T09:40:09Z" uid="20587" user="balrog-kun" changeset="2801655">
    <nd ref="524327287"/>
    <nd ref="524327001"/>
    <nd ref="524331287"/>
    <nd ref="524331331"/>
    <nd ref="524327287"/>
    <tag k="addr:city" v="Bridgeport"/>
    <tag k="addr:housenumber" v="265"/>
    <tag k="addr:street" v="Kingsley"/>
    <tag k="attribution" v="Mono County GIS"/>
    <tag k="building" v="yes"/>
  </way>
  <way id="42155269" version="2" timestamp="2009-10-10T09:40:10Z" uid="20587" user="balrog-kun" changeset="2801655">
    <nd ref="524326745"/>
    <nd ref="524330971"/>
    <nd ref="524330962"/>
    <nd ref="524326760"/>
    <nd ref="524326745"/>
    <tag k="addr:city" v="Bridgeport"/>
    <tag k="addr:street" v="Kingsley"/>
    <tag k="attribution" v="Mono County GIS"/>
    <tag k="building" v="yes"/>
  </way>
  <way id="42155271" version="2" timestamp="2009-10-10T09:40:10Z" uid="20587" user="balrog-kun" changeset="2801655">
    <nd ref="524327004"/>
    <nd ref="524327002"/>
    <nd ref="524327032"/>
    <nd ref="524327017"/>
    <nd ref="524327004"/>
    <tag k="addr:city" v="Bridgeport"/>
    <tag k="addr:housenumber" v="275"/>
    <tag k="addr:street" v="Kingsley"/>
    <tag k="attribution" v="Mono County GIS"/>
    <tag k="building" v="yes"/>
  </way>
  <way id="42155273" version="2" timestamp="2009-10-10T09:40:10Z" uid="20587" user="balrog-kun" changeset="2801655">
    <nd ref="524326415"/>
    <nd ref="524326505"/>
    <nd ref="524326511"/>
    <nd ref="524326485"/>
    <nd ref="524326777"/>
    <nd ref="524326776"/>
    <nd ref="524326457"/>
    <nd ref="524326689"/>
    <nd ref="524326415"/>
    <tag k="addr:city" v="Bridgeport"/>
    <tag k="addr:housenumber" v="287"/>
    <tag k="addr:street" v="Kingsley"/>
    <tag k="attribution" v="Mono County GIS"/>
    <tag k="building" v="yes"/>
  </way>
  <way id="42155275" version="2" timestamp="2009-10-10T09:40:10Z" uid="20587" user="balrog-kun" changeset="2801655">
    <nd ref="524326792"/>
    <nd ref="524326780"/>
    <nd ref="524326779"/>
    <nd ref="524326778"/>
    <nd ref="524326792"/>
    <tag k="addr:city" v="Bridgeport"/>
    <tag k="addr:housenumber" v="287"/>
    <tag k="addr:street" v="Kingsley"/>
    <tag k="attribution" v="Mono County GIS"/>
    <tag k="building" v="yes"/>
  </way>
  <way id="42155278" version="2" timestamp="2009-10-10T09:40:10Z" uid="20587" user="balrog-kun" changeset="2801655">
    <nd ref="524325814"/>
    <nd ref="524325851"/>
    <nd ref="524325865"/>
    <nd ref="524325814"/>
    <tag k="addr:city" v="Bridgeport"/>
    <tag k="attribution" v="Mono County GIS"/>
    <tag k="building" v="yes"/>
  </way>
  <way id="42155279" version="2" timestamp="2009-10-10T09:40:11Z" uid="20587" user="balrog-kun" changeset="2801655">
    <nd ref="524329832"/>
    <nd ref="524329818"/>
    <nd ref="524330504"/>
    <nd ref="524329776"/>
    <nd ref="524329832"/>
    <tag k="addr:city" v="Bridgeport"/>
    <tag k="addr:housenumber" v="314"/>
    <tag k="addr:street" v="Kingsley"/>
    <tag k="attribution" v="Mono County GIS"/>
    <tag k="building" v="yes"/>
  </way>
  <way id="42155281" version="2" timestamp="2009-10-10T09:40:11Z" uid="20587" user="balrog-kun" changeset="2801655">
    <nd ref="524329461"/>
    <nd ref="524329159"/>
    <nd ref="524329186"/>
    <nd ref="524330256"/>
    <nd ref="524329454"/>
    <nd ref="524329447"/>
    <nd ref="524329461"/>
    <tag k="addr:city" v="Bridgeport"/>
    <tag k="addr:housenumber" v="342"/>
    <tag k="addr:street" v="Kingsley"/>
    <tag k="attribution" v="Mono County GIS"/>
    <tag k="building" v="yes"/>
  </way>
  <way id="42155282" version="2" timestamp="2009-10-10T09:40:11Z" uid="20587" user="balrog-kun" changeset="2801655">
    <nd ref="524328790"/>
    <nd ref="524328810"/>
    <nd ref="524328835"/>
    <nd ref="524328861"/>
    <nd ref="524328872"/>
    <nd ref="524328880"/>
    <nd ref="524328790"/>
    <tag k="addr:city" v="Bridgeport"/>
    <tag k="attribution" v="Mono County GIS"/>
    <tag k="building" v="yes"/>
  </way>
  <way id="42155284" version="2" timestamp="2009-10-10T09:40:11Z" uid="20587" user="balrog-kun" changeset="2801655">
    <nd ref="524329791"/>
    <nd ref="524329871"/>
    <nd ref="524330310"/>
    <nd ref="524329753"/>
    <nd ref="524329791"/>
    <tag k="addr:city" v="Bridgeport"/>
    <tag k="addr:housenumber" v="324"/>
    <tag k="addr:street" v="Kingsley"/>
    <tag k="attribution" v="Mono County GIS"/>
    <tag k="building" v="yes"/>
  </way>
  <way id="42155287" version="2" timestamp="2009-10-10T09:40:11Z" uid="20587" user="balrog-kun" changeset="2801655">
    <nd ref="524331028"/>
    <nd ref="524331014"/>
    <nd ref="524331016"/>
    <nd ref="524331015"/>
    <nd ref="524331018"/>
    <nd ref="524326802"/>
    <nd ref="524326798"/>
    <nd ref="524331005"/>
    <nd ref="524331028"/>
    <tag k="addr:city" v="Bridgeport"/>
    <tag k="addr:housenumber" v="287"/>
    <tag k="addr:street" v="Kingsley"/>
    <tag k="attribution" v="Mono County GIS"/>
    <tag k="building" v="yes"/>
  </way>
  <way id="42155289" version="2" timestamp="2009-10-10T09:40:11Z" uid="20587" user="balrog-kun" changeset="2801655">
    <nd ref="524330995"/>
    <nd ref="524330984"/>
    <nd ref="524326440"/>
    <nd ref="524326669"/>
    <nd ref="524326646"/>
    <nd ref="524326622"/>
    <nd ref="524326613"/>
    <nd ref="524326570"/>
    <nd ref="524326587"/>
    <nd ref="524326522"/>
    <nd ref="524326548"/>
    <nd ref="524326591"/>
    <nd ref="524330995"/>
    <tag k="addr:city" v="Bridgeport"/>
    <tag k="addr:housenumber" v="301"/>
    <tag k="addr:street" v="Kingsley"/>
    <tag k="attribution" v="Mono County GIS"/>
    <tag k="building" v="yes"/>
  </way>
  <way id="42155291" version="2" timestamp="2009-10-10T09:40:12Z" uid="20587" user="balrog-kun" changeset="2801655">
    <nd ref="524329636"/>
    <nd ref="524329611"/>
    <nd ref="524329583"/>
    <nd ref="524329567"/>
    <nd ref="524329551"/>
    <nd ref="524329493"/>
    <nd ref="524329523"/>
    <nd ref="524329456"/>
    <nd ref="524329636"/>
    <tag k="addr:city" v="Bridgeport"/>
    <tag k="addr:housenumber" v="332"/>
    <tag k="addr:street" v="Kingsley"/>
    <tag k="attribution" v="Mono County GIS"/>
    <tag k="building" v="yes"/>
  </way>
  <way id="42155292" version="2" timestamp="2009-10-10T09:40:12Z" uid="20587" user="balrog-kun" changeset="2801655">
    <nd ref="524327063"/>
    <nd ref="524331013"/>
    <nd ref="524331307"/>
    <nd ref="524327057"/>
    <nd ref="524327063"/>
    <tag k="addr:city" v="Bridgeport"/>
    <tag k="addr:housenumber" v="275"/>
    <tag k="addr:street" v="Kingsley"/>
    <tag k="attribution" v="Mono County GIS"/>
    <tag k="building" v="yes"/>
  </way>
  <way id="42155293" version="2" timestamp="2009-10-10T09:40:12Z" uid="20587" user="balrog-kun" changeset="2801655">
    <nd ref="524326912"/>
    <nd ref="524326916"/>
    <nd ref="524326944"/>
    <nd ref="524326925"/>
    <nd ref="524326912"/>
    <tag k="addr:city" v="Bridgeport"/>
    <tag k="addr:street" v="Kingsley"/>
    <tag k="attribution" v="Mono County GIS"/>
    <tag k="building" v="yes"/>
  </way>
  <way id="42155294" version="2" timestamp="2009-10-10T09:40:12Z" uid="20587" user="balrog-kun" changeset="2801655">
    <nd ref="524326398"/>
    <nd ref="524326379"/>
    <nd ref="524326361"/>
    <nd ref="524326338"/>
    <nd ref="524326398"/>
    <tag k="addr:city" v="Bridgeport"/>
    <tag k="addr:street" v="Kingsley"/>
    <tag k="attribution" v="Mono County GIS"/>
    <tag k="building" v="yes"/>
  </way>
  <way id="42155295" version="2" timestamp="2009-10-10T09:40:12Z" uid="20587" user="balrog-kun" changeset="2801655">
    <nd ref="524326352"/>
    <nd ref="524326917"/>
    <nd ref="524326918"/>
    <nd ref="524326321"/>
    <nd ref="524326352"/>
    <tag k="addr:city" v="Bridgeport"/>
    <tag k="addr:housenumber" v="281"/>
    <tag k="addr:street" v="Kingsley"/>
    <tag k="attribution" v="Mono County GIS"/>
    <tag k="building" v="yes"/>
  </way>
  <way id="42155297" version="2" timestamp="2009-10-10T09:40:07Z" uid="20587" user="balrog-kun" changeset="2801655">
    <nd ref="524328145"/>
    <nd ref="524328130"/>
    <nd ref="524328112"/>
    <nd ref="524328100"/>
    <nd ref="524328145"/>
    <tag k="addr:city" v="Bridgeport"/>
    <tag k="attribution" v="Mono County GIS"/>
    <tag k="building" v="yes"/>
  </way>
  <way id="42155298" version="2" timestamp="2009-10-10T09:40:07Z" uid="20587" user="balrog-kun" changeset="2801655">
    <nd ref="524323514"/>
    <nd ref="524324963"/>
    <nd ref="524324943"/>
    <nd ref="524324923"/>
    <nd ref="524323986"/>
    <nd ref="524323960"/>
    <nd ref="524323934"/>
    <nd ref="524323367"/>
    <nd ref="524323514"/>
    <tag k="addr:city" v="Bridgeport"/>
    <tag k="addr:housenumber" v="184"/>
    <tag k="addr:street" v="Twin Lakes"/>
    <tag k="attribution" v="Mono County GIS"/>
    <tag k="building" v="yes"/>
  </way>
  <way id="42155301" version="2" timestamp="2009-10-10T09:40:08Z" uid="20587" user="balrog-kun" changeset="2801655">
    <nd ref="524326136"/>
    <nd ref="524324772"/>
    <nd ref="524324753"/>
    <nd ref="524324732"/>
    <nd ref="524324741"/>
    <nd ref="524326071"/>
    <nd ref="524326093"/>
    <nd ref="524326111"/>
    <nd ref="524326136"/>
    <tag k="addr:city" v="Bridgeport"/>
    <tag k="addr:housenumber" v="221"/>
    <tag k="addr:street" v="Twin Lakes"/>
    <tag k="attribution" v="Mono County GIS"/>
    <tag k="building" v="yes"/>
    <tag k="type" v="Public Facility"/>
  </way>
  <way id="42155303" version="2" timestamp="2009-10-10T09:40:08Z" uid="20587" user="balrog-kun" changeset="2801655">
    <nd ref="524325090"/>
    <nd ref="524325068"/>
    <nd ref="524325028"/>
    <nd ref="524325016"/>
    <nd ref="524325090"/>
    <tag k="addr:city" v="Bridgeport"/>
    <tag k="addr:housenumber" v="154"/>
    <tag k="addr:street" v="Twin Lakes"/>
    <tag k="attribution" v="Mono County GIS"/>
    <tag k="building" v="yes"/>
  </way>
  <way id="42155306" version="2" timestamp="2009-10-10T09:40:08Z" uid="20587" user="balrog-kun" changeset="2801655">
    <nd ref="524325047"/>
    <nd ref="524325176"/>
    <nd ref="524325140"/>
    <nd ref="524325149"/>
    <nd ref="524325161"/>
    <nd ref="524324996"/>
    <nd ref="524325047"/>
    <tag k="addr:city" v="Bridgeport"/>
    <tag k="addr:housenumber" v="136"/>
    <tag k="addr:street" v="Twin Lakes"/>
    <tag k="attribution" v="Mono County GIS"/>
    <tag k="building" v="yes"/>
  </way>
  <way id="42155315" version="2" timestamp="2009-10-10T09:40:08Z" uid="20587" user="balrog-kun" changeset="2801655">
    <nd ref="524325317"/>
    <nd ref="524325370"/>
    <nd ref="524325371"/>
    <nd ref="524325330"/>
    <nd ref="524325317"/>
    <tag k="addr:city" v="Bridgeport"/>
    <tag k="addr:housenumber" v="339"/>
    <tag k="addr:street" v="Kingsley"/>
    <tag k="attribution" v="Mono County GIS"/>
    <tag k="building" v="yes"/>
  </way>
  <way id="42155321" version="2" timestamp="2009-10-10T09:40:08Z" uid="20587" user="balrog-kun" changeset="2801655">
    <nd ref="524326295"/>
    <nd ref="524326707"/>
    <nd ref="524326712"/>
    <nd ref="524326727"/>
    <nd ref="524326247"/>
    <nd ref="524326196"/>
    <nd ref="524326143"/>
    <nd ref="524326162"/>
    <nd ref="524326295"/>
    <tag k="addr:city" v="Bridgeport"/>
    <tag k="addr:housenumber" v="281"/>
    <tag k="addr:street" v="Kingsley"/>
    <tag k="attribution" v="Mono County GIS"/>
    <tag k="building" v="yes"/>
  </way>
  <way id="42155322" version="2" timestamp="2009-10-10T09:40:08Z" uid="20587" user="balrog-kun" changeset="2801655">
    <nd ref="524326966"/>
    <nd ref="524326978"/>
    <nd ref="524326991"/>
    <nd ref="524326999"/>
    <nd ref="524326958"/>
    <nd ref="524327047"/>
    <nd ref="524327056"/>
    <nd ref="524327132"/>
    <nd ref="524327174"/>
    <nd ref="524327153"/>
    <nd ref="524326966"/>
    <tag k="addr:city" v="Bridgeport"/>
    <tag k="addr:housenumber" v="265"/>
    <tag k="addr:street" v="Kingsley"/>
    <tag k="attribution" v="Mono County GIS"/>
    <tag k="building" v="yes"/>
  </way>
  <way id="42155324" version="2" timestamp="2009-10-10T09:40:09Z" uid="20587" user="balrog-kun" changeset="2801655">
    <nd ref="524325515"/>
    <nd ref="524325521"/>
    <nd ref="524325524"/>
    <nd ref="524325520"/>
    <nd ref="524325515"/>
    <tag k="addr:city" v="Bridgeport"/>
    <tag k="attribution" v="Mono County GIS"/>
    <tag k="building" v="yes"/>
  </way>
  <way id="42155326" version="2" timestamp="2009-10-10T09:40:09Z" uid="20587" user="balrog-kun" changeset="2801655">
    <nd ref="524323753"/>
    <nd ref="524323723"/>
    <nd ref="524323705"/>
    <nd ref="524323709"/>
    <nd ref="524323753"/>
    <tag k="addr:city" v="Bridgeport"/>
    <tag k="attribution" v="Mono County GIS"/>
    <tag k="building" v="yes"/>
  </way>
  <way id="42155327" version="2" timestamp="2009-10-10T09:40:09Z" uid="20587" user="balrog-kun" changeset="2801655">
    <nd ref="524325196"/>
    <nd ref="524325220"/>
    <nd ref="524325131"/>
    <nd ref="524325110"/>
    <nd ref="524325196"/>
    <tag k="addr:city" v="Bridgeport"/>
    <tag k="attribution" v="Mono County GIS"/>
    <tag k="building" v="yes"/>
  </way>
  <way id="42155328" version="2" timestamp="2009-10-10T09:40:06Z" uid="20587" user="balrog-kun" changeset="2801655">
    <nd ref="524325120"/>
    <nd ref="524325227"/>
    <nd ref="524325405"/>
    <nd ref="524325346"/>
    <nd ref="524325120"/>
    <tag k="addr:city" v="Bridgeport"/>
    <tag k="addr:housenumber" v="339"/>
    <tag k="addr:street" v="Kingsley"/>
    <tag k="attribution" v="Mono County GIS"/>
    <tag k="building" v="yes"/>
  </way>
  <way id="42155329" version="2" timestamp="2009-10-10T09:40:06Z" uid="20587" user="balrog-kun" changeset="2801655">
    <nd ref="524325367"/>
    <nd ref="524325401"/>
    <nd ref="524325388"/>
    <nd ref="524325375"/>
    <nd ref="524325367"/>
    <tag k="addr:city" v="Bridgeport"/>
    <tag k="addr:housenumber" v="339"/>
    <tag k="addr:street" v="Kingsley"/>
    <tag k="attribution" v="Mono County GIS"/>
    <tag k="building" v="yes"/>
  </way>
  <way id="42155332" version="2" timestamp="2009-10-10T09:40:06Z" uid="20587" user="balrog-kun" changeset="2801655">
    <nd ref="524331939"/>
    <nd ref="524331955"/>
    <nd ref="524331925"/>
    <nd ref="524331884"/>
    <nd ref="524331939"/>
    <tag k="addr:city" v="Bridgeport"/>
    <tag k="attribution" v="Mono County GIS"/>
    <tag k="building" v="yes"/>
  </way>
  <way id="42155341" version="2" timestamp="2009-10-10T09:40:06Z" uid="20587" user="balrog-kun" changeset="2801655">
    <nd ref="524339741"/>
    <nd ref="524339779"/>
    <nd ref="524338831"/>
    <nd ref="524331587"/>
    <nd ref="524332040"/>
    <nd ref="524332053"/>
    <nd ref="524331795"/>
    <nd ref="524338867"/>
    <nd ref="524338945"/>
    <nd ref="524338960"/>
    <nd ref="524338906"/>
    <nd ref="524338921"/>
    <nd ref="524338882"/>
    <nd ref="524338889"/>
    <nd ref="524339741"/>
    <tag k="addr:city" v="Bridgeport"/>
    <tag k="addr:housenumber" v="333"/>
    <tag k="addr:street" v="Main"/>
    <tag k="attribution" v="Mono County GIS"/>
    <tag k="building" v="yes"/>
    <tag k="name" v="Hotel"/>
  </way>
  <way id="42155354" version="2" timestamp="2009-10-10T09:40:07Z" uid="20587" user="balrog-kun" changeset="2801655">
    <nd ref="524331238"/>
    <nd ref="524331912"/>
    <nd ref="524332087"/>
    <nd ref="524332066"/>
    <nd ref="524331238"/>
    <tag k="addr:city" v="Bridgeport"/>
    <tag k="addr:housenumber" v="276"/>
    <tag k="addr:street" v="Kingsley"/>
    <tag k="attribution" v="Mono County GIS"/>
    <tag k="building" v="yes"/>
  </way>
  <way id="42155355" version="2" timestamp="2009-10-10T09:40:07Z" uid="20587" user="balrog-kun" changeset="2801655">
    <nd ref="524330631"/>
    <nd ref="524330629"/>
    <nd ref="524330646"/>
    <nd ref="524330638"/>
    <nd ref="524330631"/>
    <tag k="addr:city" v="Bridgeport"/>
    <tag k="attribution" v="Mono County GIS"/>
    <tag k="building" v="yes"/>
  </way>
  <way id="42155356" version="2" timestamp="2009-10-10T09:40:06Z" uid="20587" user="balrog-kun" changeset="2801655">
    <nd ref="524330602"/>
    <nd ref="524330601"/>
    <nd ref="524330622"/>
    <nd ref="524330615"/>
    <nd ref="524330602"/>
    <tag k="addr:city" v="Bridgeport"/>
    <tag k="attribution" v="Mono County GIS"/>
    <tag k="building" v="yes"/>
  </way>
  <way id="42155357" version="2" timestamp="2009-10-10T09:40:06Z" uid="20587" user="balrog-kun" changeset="2801655">
    <nd ref="524339043"/>
    <nd ref="524339175"/>
    <nd ref="524339157"/>
    <nd ref="524339192"/>
    <nd ref="524339194"/>
    <nd ref="524339197"/>
    <nd ref="524339204"/>
    <nd ref="524339097"/>
    <nd ref="524339082"/>
    <nd ref="524339067"/>
    <nd ref="524339055"/>
    <nd ref="524339142"/>
    <nd ref="524339133"/>
    <nd ref="524339117"/>
    <nd ref="524338962"/>
    <nd ref="524338965"/>
    <nd ref="524338964"/>
    <nd ref="524338975"/>
    <nd ref="524339043"/>
    <tag k="addr:city" v="Bridgeport"/>
    <tag k="attribution" v="Mono County GIS"/>
    <tag k="building" v="yes"/>
  </way>
  <way id="42155359" version="2" timestamp="2009-10-10T09:40:07Z" uid="20587" user="balrog-kun" changeset="2801655">
    <nd ref="524331156"/>
    <nd ref="524331143"/>
    <nd ref="524331132"/>
    <nd ref="524331155"/>
    <nd ref="524331156"/>
    <tag k="addr:city" v="Bridgeport"/>
    <tag k="attribution" v="Mono County GIS"/>
    <tag k="building" v="yes"/>
  </way>
  <way id="42155361" version="2" timestamp="2009-10-10T09:40:05Z" uid="20587" user="balrog-kun" changeset="2801655">
    <nd ref="524330528"/>
    <nd ref="524330543"/>
    <nd ref="524329313"/>
    <nd ref="524329292"/>
    <nd ref="524329271"/>
    <nd ref="524329251"/>
    <nd ref="524329347"/>
    <nd ref="524329360"/>
    <nd ref="524329332"/>
    <nd ref="524329338"/>
    <nd ref="524330528"/>
    <tag k="addr:city" v="Bridgeport"/>
    <tag k="addr:housenumber" v="425"/>
    <tag k="addr:street" v="Main"/>
    <tag k="attribution" v="Mono County GIS"/>
    <tag k="building" v="yes"/>
    <tag k="name" v="Hotel"/>
  </way>
  <way id="42155362" version="2" timestamp="2009-10-10T09:40:05Z" uid="20587" user="balrog-kun" changeset="2801655">
    <nd ref="524332109"/>
    <nd ref="524332121"/>
    <nd ref="524332136"/>
    <nd ref="524332096"/>
    <nd ref="524332109"/>
    <tag k="addr:city" v="Bridgeport"/>
    <tag k="addr:housenumber" v="323"/>
    <tag k="addr:street" v="Main"/>
    <tag k="attribution" v="Mono County GIS"/>
    <tag k="building" v="yes"/>
  </way>
  <way id="42155363" version="2" timestamp="2009-10-10T09:40:05Z" uid="20587" user="balrog-kun" changeset="2801655">
    <nd ref="524330908"/>
    <nd ref="524330891"/>
    <nd ref="524330875"/>
    <nd ref="524330862"/>
    <nd ref="524330666"/>
    <nd ref="524330657"/>
    <nd ref="524330908"/>
    <tag k="addr:city" v="Bridgeport"/>
    <tag k="addr:housenumber" v="425"/>
    <tag k="addr:street" v="Main"/>
    <tag k="attribution" v="Mono County GIS"/>
    <tag k="building" v="yes"/>
    <tag k="name" v="Hotel"/>
  </way>
  <way id="42155364" version="2" timestamp="2009-10-10T09:40:05Z" uid="20587" user="balrog-kun" changeset="2801655">
    <nd ref="524342852"/>
    <nd ref="524342897"/>
    <nd ref="524342878"/>
    <nd ref="524342830"/>
    <nd ref="524342815"/>
    <nd ref="524343185"/>
    <nd ref="524343172"/>
    <nd ref="524342997"/>
    <nd ref="524342958"/>
    <nd ref="524342976"/>
    <nd ref="524342937"/>
    <nd ref="524342919"/>
    <nd ref="524342852"/>
    <tag k="addr:city" v="Bridgeport"/>
    <tag k="addr:housenumber" v="47"/>
    <tag k="addr:street" v="Sinclair"/>
    <tag k="attribution" v="Mono County GIS"/>
    <tag k="building" v="yes"/>
  </way>
  <way id="42155383" version="2" timestamp="2009-10-10T09:40:05Z" uid="20587" user="balrog-kun" changeset="2801655">
    <nd ref="524342811"/>
    <nd ref="524343198"/>
    <nd ref="524343212"/>
    <nd ref="524342859"/>
    <nd ref="524342811"/>
    <tag k="addr:city" v="Bridgeport"/>
    <tag k="addr:housenumber" v="47"/>
    <tag k="addr:street" v="Sinclair"/>
    <tag k="attribution" v="Mono County GIS"/>
    <tag k="building" v="yes"/>
  </way>
  <way id="42155405" version="2" timestamp="2009-10-10T09:40:16Z" uid="20587" user="balrog-kun" changeset="2801655">
    <nd ref="524339697"/>
    <nd ref="524339717"/>
    <nd ref="524339667"/>
    <nd ref="524339683"/>
    <nd ref="524339697"/>
    <tag k="addr:city" v="Bridgeport"/>
    <tag k="addr:housenumber" v="34"/>
    <tag k="addr:street" v="School"/>
    <tag k="attribution" v="Mono County GIS"/>
    <tag k="building" v="yes"/>
  </way>
  <way id="42155420" version="2" timestamp="2009-10-10T09:40:17Z" uid="20587" user="balrog-kun" changeset="2801655">
    <nd ref="524332011"/>
    <nd ref="524332029"/>
    <nd ref="524339638"/>
    <nd ref="524339658"/>
    <nd ref="524332011"/>
    <tag k="addr:city" v="Bridgeport"/>
    <tag k="addr:housenumber" v="34"/>
    <tag k="addr:street" v="School"/>
    <tag k="attribution" v="Mono County GIS"/>
    <tag k="building" v="yes"/>
  </way>
  <way id="42155441" version="2" timestamp="2009-10-10T09:40:16Z" uid="20587" user="balrog-kun" changeset="2801655">
    <nd ref="524331891"/>
    <nd ref="524331881"/>
    <nd ref="524331882"/>
    <nd ref="524331895"/>
    <nd ref="524331891"/>
    <tag k="addr:city" v="Bridgeport"/>
    <tag k="addr:housenumber" v="377"/>
    <tag k="addr:street" v="Main"/>
    <tag k="attribution" v="Mono County GIS"/>
    <tag k="building" v="yes"/>
  </way>
  <way id="42155450" version="2" timestamp="2009-10-10T09:40:16Z" uid="20587" user="balrog-kun" changeset="2801655">
    <nd ref="524339595"/>
    <nd ref="524331812"/>
    <nd ref="524331991"/>
    <nd ref="524331994"/>
    <nd ref="524332005"/>
    <nd ref="524339616"/>
    <nd ref="524339595"/>
    <tag k="addr:city" v="Bridgeport"/>
    <tag k="addr:housenumber" v="34"/>
    <tag k="addr:street" v="School"/>
    <tag k="attribution" v="Mono County GIS"/>
    <tag k="building" v="yes"/>
  </way>
  <way id="42155451" version="2" timestamp="2009-10-10T09:40:16Z" uid="20587" user="balrog-kun" changeset="2801655">
    <nd ref="524331169"/>
    <nd ref="524331158"/>
    <nd ref="524331159"/>
    <nd ref="524331180"/>
    <nd ref="524331169"/>
    <tag k="addr:city" v="Bridgeport"/>
    <tag k="attribution" v="Mono County GIS"/>
    <tag k="building" v="yes"/>
  </way>
  <way id="42155453" version="2" timestamp="2009-10-10T09:40:16Z" uid="20587" user="balrog-kun" changeset="2801655">
    <nd ref="524330443"/>
    <nd ref="524330486"/>
    <nd ref="524330469"/>
    <nd ref="524330460"/>
    <nd ref="524330443"/>
    <tag k="addr:city" v="Bridgeport"/>
    <tag k="addr:housenumber" v="314"/>
    <tag k="addr:street" v="Kingsley"/>
    <tag k="attribution" v="Mono County GIS"/>
    <tag k="building" v="yes"/>
  </way>
  <way id="42155455" version="2" timestamp="2009-10-10T09:40:16Z" uid="20587" user="balrog-kun" changeset="2801655">
    <nd ref="524329765"/>
    <nd ref="524330419"/>
    <nd ref="524331039"/>
    <nd ref="524330919"/>
    <nd ref="524330934"/>
    <nd ref="524330949"/>
    <nd ref="524329765"/>
    <tag k="addr:city" v="Bridgeport"/>
    <tag k="addr:housenumber" v="300"/>
    <tag k="addr:street" v="Kingsley"/>
    <tag k="attribution" v="Mono County GIS"/>
    <tag k="building" v="yes"/>
  </way>
  <way id="42155457" version="2" timestamp="2009-10-10T09:40:15Z" uid="20587" user="balrog-kun" changeset="2801655">
    <nd ref="524330186"/>
    <nd ref="524330118"/>
    <nd ref="524330154"/>
    <nd ref="524330217"/>
    <nd ref="524330186"/>
    <tag k="addr:city" v="Bridgeport"/>
    <tag k="attribution" v="Mono County GIS"/>
    <tag k="building" v="yes"/>
  </way>
  <way id="42155458" version="2" timestamp="2009-10-10T09:40:15Z" uid="20587" user="balrog-kun" changeset="2801655">
    <nd ref="524330370"/>
    <nd ref="524330332"/>
    <nd ref="524330354"/>
    <nd ref="524330398"/>
    <nd ref="524330370"/>
    <tag k="addr:city" v="Bridgeport"/>
    <tag k="addr:housenumber" v="314"/>
    <tag k="addr:street" v="Kingsley"/>
    <tag k="attribution" v="Mono County GIS"/>
    <tag k="building" v="yes"/>
  </way>
  <way id="42155459" version="2" timestamp="2009-10-10T09:40:15Z" uid="20587" user="balrog-kun" changeset="2801655">
    <nd ref="524329974"/>
    <nd ref="524330010"/>
    <nd ref="524330054"/>
    <nd ref="524330089"/>
    <nd ref="524329974"/>
    <tag k="addr:city" v="Bridgeport"/>
    <tag k="attribution" v="Mono County GIS"/>
    <tag k="building" v="yes"/>
  </way>
  <way id="42155460" version="2" timestamp="2009-10-10T09:40:14Z" uid="20587" user="balrog-kun" changeset="2801655">
    <nd ref="524329426"/>
    <nd ref="524329901"/>
    <nd ref="524329937"/>
    <nd ref="524329433"/>
    <nd ref="524329426"/>
    <tag k="addr:city" v="Bridgeport"/>
    <tag k="addr:housenumber" v="332"/>
    <tag k="addr:street" v="Kingsley"/>
    <tag k="attribution" v="Mono County GIS"/>
    <tag k="building" v="yes"/>
  </way>
  <way id="42155461" version="2" timestamp="2009-10-10T09:40:14Z" uid="20587" user="balrog-kun" changeset="2801655">
    <nd ref="524328890"/>
    <nd ref="524328886"/>
    <nd ref="524329224"/>
    <nd ref="524329130"/>
    <nd ref="524328890"/>
    <tag k="addr:city" v="Bridgeport"/>
    <tag k="attribution" v="Mono County GIS"/>
    <tag k="building" v="yes"/>
  </way>
  <way id="42155463" version="2" timestamp="2009-10-10T09:40:14Z" uid="20587" user="balrog-kun" changeset="2801655">
    <nd ref="524331739"/>
    <nd ref="524331783"/>
    <nd ref="524331793"/>
    <nd ref="524331722"/>
    <nd ref="524331739"/>
    <tag k="addr:city" v="Bridgeport"/>
    <tag k="addr:housenumber" v="276"/>
    <tag k="addr:street" v="Kingsley"/>
    <tag k="attribution" v="Mono County GIS"/>
    <tag k="building" v="yes"/>
  </way>
  <way id="42155464" version="2" timestamp="2009-10-10T09:40:14Z" uid="20587" user="balrog-kun" changeset="2801655">
    <nd ref="524331060"/>
    <nd ref="524331122"/>
    <nd ref="524331112"/>
    <nd ref="524331069"/>
    <nd ref="524331060"/>
    <tag k="addr:city" v="Bridgeport"/>
    <tag k="addr:housenumber" v="296"/>
    <tag k="addr:street" v="Kingsley"/>
    <tag k="attribution" v="Mono County GIS"/>
    <tag k="building" v="yes"/>
  </way>
  <way id="42155467" version="2" timestamp="2009-10-10T09:40:14Z" uid="20587" user="balrog-kun" changeset="2801655">
    <nd ref="524331253"/>
    <nd ref="524331269"/>
    <nd ref="524331231"/>
    <nd ref="524331235"/>
    <nd ref="524331201"/>
    <nd ref="524331198"/>
    <nd ref="524331225"/>
    <nd ref="524331215"/>
    <nd ref="524331253"/>
    <tag k="addr:city" v="Bridgeport"/>
    <tag k="addr:housenumber" v="276"/>
    <tag k="addr:street" v="Kingsley"/>
    <tag k="attribution" v="Mono County GIS"/>
    <tag k="building" v="yes"/>
  </way>
  <way id="42155469" version="2" timestamp="2009-10-10T09:40:14Z" uid="20587" user="balrog-kun" changeset="2801655">
    <nd ref="524331050"/>
    <nd ref="524331089"/>
    <nd ref="524331102"/>
    <nd ref="524331080"/>
    <nd ref="524331050"/>
    <tag k="addr:city" v="Bridgeport"/>
    <tag k="addr:housenumber" v="296"/>
    <tag k="addr:street" v="Kingsley"/>
    <tag k="attribution" v="Mono County GIS"/>
    <tag k="building" v="yes"/>
  </way>
  <way id="42155471" version="2" timestamp="2009-10-10T09:40:14Z" uid="20587" user="balrog-kun" changeset="2801655">
    <nd ref="524339029"/>
    <nd ref="524339010"/>
    <nd ref="524338993"/>
    <nd ref="524339586"/>
    <nd ref="524339029"/>
    <tag k="addr:city" v="Bridgeport"/>
    <tag k="attribution" v="Mono County GIS"/>
    <tag k="building" v="yes"/>
  </way>
  <way id="42155473" version="2" timestamp="2009-10-10T09:40:15Z" uid="20587" user="balrog-kun" changeset="2801655">
    <nd ref="524331687"/>
    <nd ref="524331770"/>
    <nd ref="524331754"/>
    <nd ref="524331669"/>
    <nd ref="524331687"/>
    <tag k="addr:city" v="Bridgeport"/>
    <tag k="addr:housenumber" v="258"/>
    <tag k="addr:street" v="Kingsley"/>
    <tag k="attribution" v="Mono County GIS"/>
    <tag k="building" v="yes"/>
  </way>
  <way id="42155474" version="2" timestamp="2009-10-10T09:40:15Z" uid="20587" user="balrog-kun" changeset="2801655">
    <nd ref="524331655"/>
    <nd ref="524331654"/>
    <nd ref="524331634"/>
    <nd ref="524331615"/>
    <nd ref="524331655"/>
    <tag k="addr:city" v="Bridgeport"/>
    <tag k="addr:housenumber" v="258"/>
    <tag k="addr:street" v="Kingsley"/>
    <tag k="attribution" v="Mono County GIS"/>
    <tag k="building" v="yes"/>
  </way>
  <way id="42155477" version="2" timestamp="2009-10-10T09:40:15Z" uid="20587" user="balrog-kun" changeset="2801655">
    <nd ref="524331650"/>
    <nd ref="524331635"/>
    <nd ref="524331600"/>
    <nd ref="524331705"/>
    <nd ref="524331650"/>
    <tag k="addr:city" v="Bridgeport"/>
    <tag k="addr:housenumber" v="258"/>
    <tag k="addr:street" v="Kingsley"/>
    <tag k="attribution" v="Mono County GIS"/>
    <tag k="building" v="yes"/>
  </way>
  <way id="42155478" version="2" timestamp="2009-10-10T09:40:15Z" uid="20587" user="balrog-kun" changeset="2801655">
    <nd ref="524364284"/>
    <nd ref="524364269"/>
    <nd ref="524364268"/>
    <nd ref="524364098"/>
    <nd ref="524364284"/>
    <tag k="addr:city" v="Bridgeport"/>
    <tag k="attribution" v="Mono County GIS"/>
    <tag k="building" v="yes"/>
  </way>
  <way id="42155480" version="2" timestamp="2009-10-10T09:40:15Z" uid="20587" user="balrog-kun" changeset="2801655">
    <nd ref="524364396"/>
    <nd ref="524364370"/>
    <nd ref="524364088"/>
    <nd ref="524364071"/>
    <nd ref="524364396"/>
    <tag k="addr:city" v="Bridgeport"/>
    <tag k="attribution" v="Mono County GIS"/>
    <tag k="building" v="yes"/>
  </way>
  <way id="42155499" version="2" timestamp="2009-10-10T09:40:13Z" uid="20587" user="balrog-kun" changeset="2801655">
    <nd ref="524364643"/>
    <nd ref="524364613"/>
    <nd ref="524364729"/>
    <nd ref="524364710"/>
    <nd ref="524364643"/>
    <tag k="addr:city" v="Bridgeport"/>
    <tag k="attribution" v="Mono County GIS"/>
    <tag k="building" v="yes"/>
  </way>
  <way id="42155504" version="2" timestamp="2009-10-10T09:40:13Z" uid="20587" user="balrog-kun" changeset="2801655">
    <nd ref="524364267"/>
    <nd ref="524364259"/>
    <nd ref="524364243"/>
    <nd ref="524364226"/>
    <nd ref="524364267"/>
    <tag k="addr:city" v="Bridgeport"/>
    <tag k="attribution" v="Mono County GIS"/>
    <tag k="building" v="yes"/>
  </way>
  <way id="42155506" version="2" timestamp="2009-10-10T09:40:13Z" uid="20587" user="balrog-kun" changeset="2801655">
    <nd ref="524364691"/>
    <nd ref="524364666"/>
    <nd ref="524364563"/>
    <nd ref="524364545"/>
    <nd ref="524364691"/>
    <tag k="addr:city" v="Bridgeport"/>
    <tag k="attribution" v="Mono County GIS"/>
    <tag k="building" v="yes"/>
  </way>
  <way id="42155507" version="2" timestamp="2009-10-10T09:40:13Z" uid="20587" user="balrog-kun" changeset="2801655">
    <nd ref="524364517"/>
    <nd ref="524364772"/>
    <nd ref="524364753"/>
    <nd ref="524364589"/>
    <nd ref="524364517"/>
    <tag k="addr:city" v="Bridgeport"/>
    <tag k="attribution" v="Mono County GIS"/>
    <tag k="building" v="yes"/>
  </way>
  <way id="42155515" version="2" timestamp="2009-10-10T09:40:13Z" uid="20587" user="balrog-kun" changeset="2801655">
    <nd ref="524364287"/>
    <nd ref="524364345"/>
    <nd ref="524364311"/>
    <nd ref="524364291"/>
    <nd ref="524364287"/>
    <tag k="addr:city" v="Bridgeport"/>
    <tag k="attribution" v="Mono County GIS"/>
    <tag k="building" v="yes"/>
  </way>
  <way id="42155517" version="2" timestamp="2009-10-10T09:40:13Z" uid="20587" user="balrog-kun" changeset="2801655">
    <nd ref="524366474"/>
    <nd ref="524366452"/>
    <nd ref="524366509"/>
    <nd ref="524366497"/>
    <nd ref="524366474"/>
    <tag k="addr:city" v="Bridgeport"/>
    <tag k="attribution" v="Mono County GIS"/>
    <tag k="building" v="yes"/>
  </way>
  <way id="42155519" version="2" timestamp="2009-10-10T09:40:13Z" uid="20587" user="balrog-kun" changeset="2801655">
    <nd ref="524363132"/>
    <nd ref="524363124"/>
    <nd ref="524362959"/>
    <nd ref="524362940"/>
    <nd ref="524362989"/>
    <nd ref="524362968"/>
    <nd ref="524363132"/>
    <tag k="addr:city" v="Bridgeport"/>
    <tag k="attribution" v="Mono County GIS"/>
    <tag k="building" v="yes"/>
  </way>
  <way id="42155523" version="2" timestamp="2009-10-10T09:39:55Z" uid="20587" user="balrog-kun" changeset="2801655">
    <nd ref="524363134"/>
    <nd ref="524363133"/>
    <nd ref="524363009"/>
    <nd ref="524363116"/>
    <nd ref="524363134"/>
    <tag k="addr:city" v="Bridgeport"/>
    <tag k="attribution" v="Mono County GIS"/>
    <tag k="building" v="yes"/>
  </way>
  <way id="42155524" version="2" timestamp="2009-10-10T09:39:54Z" uid="20587" user="balrog-kun" changeset="2801655">
    <nd ref="524363680"/>
    <nd ref="524363681"/>
    <nd ref="524363691"/>
    <nd ref="524363707"/>
    <nd ref="524363680"/>
    <tag k="addr:city" v="Bridgeport"/>
    <tag k="attribution" v="Mono County GIS"/>
    <tag k="building" v="yes"/>
  </way>
  <way id="42155526" version="2" timestamp="2009-10-10T09:39:54Z" uid="20587" user="balrog-kun" changeset="2801655">
    <nd ref="524363366"/>
    <nd ref="524363347"/>
    <nd ref="524363332"/>
    <nd ref="524363317"/>
    <nd ref="524363307"/>
    <nd ref="524363296"/>
    <nd ref="524363366"/>
    <tag k="addr:city" v="Bridgeport"/>
    <tag k="attribution" v="Mono County GIS"/>
    <tag k="building" v="yes"/>
  </way>
  <way id="42155529" version="2" timestamp="2009-10-10T09:39:55Z" uid="20587" user="balrog-kun" changeset="2801655">
    <nd ref="524363612"/>
    <nd ref="524363649"/>
    <nd ref="524363674"/>
    <nd ref="524363636"/>
    <nd ref="524363612"/>
    <tag k="addr:city" v="Bridgeport"/>
    <tag k="attribution" v="Mono County GIS"/>
    <tag k="building" v="yes"/>
  </way>
  <way id="42155530" version="2" timestamp="2009-10-10T09:39:55Z" uid="20587" user="balrog-kun" changeset="2801655">
    <nd ref="524363826"/>
    <nd ref="524363794"/>
    <nd ref="524363787"/>
    <nd ref="524363810"/>
    <nd ref="524363723"/>
    <nd ref="524363740"/>
    <nd ref="524363756"/>
    <nd ref="524363773"/>
    <nd ref="524363826"/>
    <tag k="addr:city" v="Bridgeport"/>
    <tag k="attribution" v="Mono County GIS"/>
    <tag k="building" v="yes"/>
  </way>
  <way id="42155532" version="2" timestamp="2009-10-10T09:39:55Z" uid="20587" user="balrog-kun" changeset="2801655">
    <nd ref="524364155"/>
    <nd ref="524364183"/>
    <nd ref="524364193"/>
    <nd ref="524364210"/>
    <nd ref="524364155"/>
    <tag k="addr:city" v="Bridgeport"/>
    <tag k="attribution" v="Mono County GIS"/>
    <tag k="building" v="yes"/>
  </way>
  <way id="42155533" version="2" timestamp="2009-10-10T09:39:55Z" uid="20587" user="balrog-kun" changeset="2801655">
    <nd ref="524364119"/>
    <nd ref="524364133"/>
    <nd ref="524364080"/>
    <nd ref="524364111"/>
    <nd ref="524364119"/>
    <tag k="addr:city" v="Bridgeport"/>
    <tag k="attribution" v="Mono County GIS"/>
    <tag k="building" v="yes"/>
  </way>
  <way id="42155536" version="2" timestamp="2009-10-10T09:39:53Z" uid="20587" user="balrog-kun" changeset="2801655">
    <nd ref="524363027"/>
    <nd ref="524363046"/>
    <nd ref="524363050"/>
    <nd ref="524363057"/>
    <nd ref="524363027"/>
    <tag k="addr:city" v="Bridgeport"/>
    <tag k="attribution" v="Mono County GIS"/>
    <tag k="building" v="yes"/>
  </way>
  <way id="42155538" version="2" timestamp="2009-10-10T09:39:53Z" uid="20587" user="balrog-kun" changeset="2801655">
    <nd ref="524364009"/>
    <nd ref="524364025"/>
    <nd ref="524363491"/>
    <nd ref="524363518"/>
    <nd ref="524364009"/>
    <tag k="addr:city" v="Bridgeport"/>
    <tag k="attribution" v="Mono County GIS"/>
    <tag k="building" v="yes"/>
  </way>
  <way id="42155539" version="2" timestamp="2009-10-10T09:39:53Z" uid="20587" user="balrog-kun" changeset="2801655">
    <nd ref="524363172"/>
    <nd ref="524363079"/>
    <nd ref="524363097"/>
    <nd ref="524363153"/>
    <nd ref="524363172"/>
    <tag k="addr:city" v="Bridgeport"/>
    <tag k="attribution" v="Mono County GIS"/>
    <tag k="building" v="yes"/>
  </way>
  <way id="42155545" version="2" timestamp="2009-10-10T09:39:54Z" uid="20587" user="balrog-kun" changeset="2801655">
    <nd ref="524363967"/>
    <nd ref="524363991"/>
    <nd ref="524364036"/>
    <nd ref="524364055"/>
    <nd ref="524363967"/>
    <tag k="addr:city" v="Bridgeport"/>
    <tag k="attribution" v="Mono County GIS"/>
    <tag k="building" v="yes"/>
  </way>
  <way id="42155546" version="2" timestamp="2009-10-10T09:39:54Z" uid="20587" user="balrog-kun" changeset="2801655">
    <nd ref="524363275"/>
    <nd ref="524363294"/>
    <nd ref="524363210"/>
    <nd ref="524363226"/>
    <nd ref="524363275"/>
    <tag k="addr:city" v="Bridgeport"/>
    <tag k="attribution" v="Mono County GIS"/>
    <tag k="building" v="yes"/>
  </way>
  <way id="42155547" version="2" timestamp="2009-10-10T09:39:54Z" uid="20587" user="balrog-kun" changeset="2801655">
    <nd ref="524363576"/>
    <nd ref="524363544"/>
    <nd ref="524363556"/>
    <nd ref="524363590"/>
    <nd ref="524363576"/>
    <tag k="addr:city" v="Bridgeport"/>
    <tag k="attribution" v="Mono County GIS"/>
    <tag k="building" v="yes"/>
  </way>
  <way id="42155549" version="2" timestamp="2009-10-10T09:39:53Z" uid="20587" user="balrog-kun" changeset="2801655">
    <nd ref="524363402"/>
    <nd ref="524363420"/>
    <nd ref="524363954"/>
    <nd ref="524363938"/>
    <nd ref="524363484"/>
    <nd ref="524363462"/>
    <nd ref="524363477"/>
    <nd ref="524363439"/>
    <nd ref="524363927"/>
    <nd ref="524363921"/>
    <nd ref="524363926"/>
    <nd ref="524363909"/>
    <nd ref="524363887"/>
    <nd ref="524363871"/>
    <nd ref="524363402"/>
    <tag k="addr:city" v="Bridgeport"/>
    <tag k="attribution" v="Mono County GIS"/>
    <tag k="building" v="yes"/>
  </way>
  <way id="42155552" version="2" timestamp="2009-10-10T09:39:56Z" uid="20587" user="balrog-kun" changeset="2801655">
    <nd ref="524363250"/>
    <nd ref="524363259"/>
    <nd ref="524363382"/>
    <nd ref="524363392"/>
    <nd ref="524363250"/>
    <tag k="addr:city" v="Bridgeport"/>
    <tag k="attribution" v="Mono County GIS"/>
    <tag k="building" v="yes"/>
  </way>
  <way id="42155555" version="2" timestamp="2009-10-10T09:39:57Z" uid="20587" user="balrog-kun" changeset="2801655">
    <nd ref="524362427"/>
    <nd ref="524362408"/>
    <nd ref="524362396"/>
    <nd ref="524362372"/>
    <nd ref="524362427"/>
    <tag k="addr:city" v="Bridgeport"/>
    <tag k="attribution" v="Mono County GIS"/>
    <tag k="building" v="yes"/>
  </way>
  <way id="42155556" version="2" timestamp="2009-10-10T09:39:56Z" uid="20587" user="balrog-kun" changeset="2801655">
    <nd ref="524362296"/>
    <nd ref="524362303"/>
    <nd ref="524362319"/>
    <nd ref="524362097"/>
    <nd ref="524362117"/>
    <nd ref="524362347"/>
    <nd ref="524362323"/>
    <nd ref="524362296"/>
    <tag k="addr:city" v="Bridgeport"/>
    <tag k="attribution" v="Mono County GIS"/>
    <tag k="building" v="yes"/>
  </way>
  <way id="42155557" version="2" timestamp="2009-10-10T09:39:56Z" uid="20587" user="balrog-kun" changeset="2801655">
    <nd ref="524362178"/>
    <nd ref="524362179"/>
    <nd ref="524362244"/>
    <nd ref="524362230"/>
    <nd ref="524362219"/>
    <nd ref="524362167"/>
    <nd ref="524362162"/>
    <nd ref="524362161"/>
    <nd ref="524362155"/>
    <nd ref="524362202"/>
    <nd ref="524362190"/>
    <nd ref="524362282"/>
    <nd ref="524362178"/>
    <tag k="addr:city" v="Bridgeport"/>
    <tag k="attribution" v="Mono County GIS"/>
    <tag k="building" v="yes"/>
  </way>
  <way id="42155558" version="2" timestamp="2009-10-10T09:39:56Z" uid="20587" user="balrog-kun" changeset="2801655">
    <nd ref="524362695"/>
    <nd ref="524362679"/>
    <nd ref="524363849"/>
    <nd ref="524362662"/>
    <nd ref="524362695"/>
    <tag k="addr:city" v="Bridgeport"/>
    <tag k="attribution" v="Mono County GIS"/>
    <tag k="building" v="yes"/>
  </way>
  <way id="42155561" version="2" timestamp="2009-10-10T09:39:57Z" uid="20587" user="balrog-kun" changeset="2801655">
    <nd ref="524362647"/>
    <nd ref="524362628"/>
    <nd ref="524362597"/>
    <nd ref="524362567"/>
    <nd ref="524362647"/>
    <tag k="addr:city" v="Bridgeport"/>
    <tag k="attribution" v="Mono County GIS"/>
    <tag k="building" v="yes"/>
  </way>
  <way id="42155563" version="2" timestamp="2009-10-10T09:39:57Z" uid="20587" user="balrog-kun" changeset="2801655">
    <nd ref="524362872"/>
    <nd ref="524362850"/>
    <nd ref="524362825"/>
    <nd ref="524362808"/>
    <nd ref="524362763"/>
    <nd ref="524362726"/>
    <nd ref="524362872"/>
    <tag k="addr:city" v="Bridgeport"/>
    <tag k="attribution" v="Mono County GIS"/>
    <tag k="building" v="yes"/>
  </way>
  <way id="42155564" version="2" timestamp="2009-10-10T09:39:57Z" uid="20587" user="balrog-kun" changeset="2801655">
    <nd ref="524362916"/>
    <nd ref="524362933"/>
    <nd ref="524362261"/>
    <nd ref="524362267"/>
    <nd ref="524362916"/>
    <tag k="addr:city" v="Bridgeport"/>
    <tag k="attribution" v="Mono County GIS"/>
    <tag k="building" v="yes"/>
  </way>
  <way id="42155579" version="2" timestamp="2009-10-10T09:39:55Z" uid="20587" user="balrog-kun" changeset="2801655">
    <nd ref="524363180"/>
    <nd ref="524363194"/>
    <nd ref="524362537"/>
    <nd ref="524362485"/>
    <nd ref="524362457"/>
    <nd ref="524362511"/>
    <nd ref="524363180"/>
    <tag k="addr:city" v="Bridgeport"/>
    <tag k="attribution" v="Mono County GIS"/>
    <tag k="building" v="yes"/>
  </way>
  <way id="42155597" version="2" timestamp="2009-10-10T09:39:51Z" uid="20587" user="balrog-kun" changeset="2801655">
    <nd ref="524367167"/>
    <nd ref="524367227"/>
    <nd ref="524367207"/>
    <nd ref="524367279"/>
    <nd ref="524367312"/>
    <nd ref="524367338"/>
    <nd ref="524367325"/>
    <nd ref="524367300"/>
    <nd ref="524367167"/>
    <tag k="addr:city" v="Bridgeport"/>
    <tag k="attribution" v="Mono County GIS"/>
    <tag k="building" v="yes"/>
    <tag k="type" v="Public Facility"/>
  </way>
  <way id="42155618" version="2" timestamp="2009-10-10T09:39:52Z" uid="20587" user="balrog-kun" changeset="2801655">
    <nd ref="524367372"/>
    <nd ref="524367374"/>
    <nd ref="524367373"/>
    <nd ref="524367370"/>
    <nd ref="524367355"/>
    <nd ref="524367456"/>
    <nd ref="524367510"/>
    <nd ref="524367503"/>
    <nd ref="524367432"/>
    <nd ref="524367426"/>
    <nd ref="524367412"/>
    <nd ref="524367397"/>
    <nd ref="524367372"/>
    <tag k="addr:city" v="Bridgeport"/>
    <tag k="attribution" v="Mono County GIS"/>
    <tag k="building" v="yes"/>
    <tag k="type" v="Public Facility"/>
  </way>
  <way id="42155627" version="2" timestamp="2009-10-10T09:39:52Z" uid="20587" user="balrog-kun" changeset="2801655">
    <nd ref="524367075"/>
    <nd ref="524367100"/>
    <nd ref="524367132"/>
    <nd ref="524367247"/>
    <nd ref="524367075"/>
    <tag k="addr:city" v="Bridgeport"/>
    <tag k="attribution" v="Mono County GIS"/>
    <tag k="building" v="yes"/>
    <tag k="type" v="Public Facility"/>
  </way>
  <way id="42155628" version="2" timestamp="2009-10-10T09:39:53Z" uid="20587" user="balrog-kun" changeset="2801655">
    <nd ref="524367231"/>
    <nd ref="524367262"/>
    <nd ref="524367569"/>
    <nd ref="524367562"/>
    <nd ref="524367231"/>
    <tag k="addr:city" v="Bridgeport"/>
    <tag k="attribution" v="Mono County GIS"/>
    <tag k="building" v="yes"/>
    <tag k="type" v="Public Facility"/>
  </way>
  <way id="42155630" version="2" timestamp="2009-10-10T09:39:53Z" uid="20587" user="balrog-kun" changeset="2801655">
    <nd ref="524324671"/>
    <nd ref="524324704"/>
    <nd ref="524324689"/>
    <nd ref="524324724"/>
    <nd ref="524324671"/>
    <tag k="addr:city" v="Bridgeport"/>
    <tag k="addr:housenumber" v="221"/>
    <tag k="addr:street" v="Twin Lakes"/>
    <tag k="attribution" v="Mono County GIS"/>
    <tag k="building" v="yes"/>
    <tag k="type" v="Public Facility"/>
  </way>
  <way id="42155632" version="2" timestamp="2009-10-10T09:39:51Z" uid="20587" user="balrog-kun" changeset="2801655">
    <nd ref="524323314"/>
    <nd ref="524323300"/>
    <nd ref="524323336"/>
    <nd ref="524323354"/>
    <nd ref="524323314"/>
    <tag k="addr:city" v="Bridgeport"/>
    <tag k="addr:housenumber" v="184"/>
    <tag k="addr:street" v="Twin Lakes"/>
    <tag k="attribution" v="Mono County GIS"/>
    <tag k="building" v="yes"/>
  </way>
  <way id="42155633" version="2" timestamp="2009-10-10T09:39:51Z" uid="20587" user="balrog-kun" changeset="2801655">
    <nd ref="524367489"/>
    <nd ref="524367474"/>
    <nd ref="524367383"/>
    <nd ref="524367375"/>
    <nd ref="524367489"/>
    <tag k="addr:city" v="Bridgeport"/>
    <tag k="attribution" v="Mono County GIS"/>
    <tag k="building" v="yes"/>
    <tag k="type" v="Public Facility"/>
  </way>
  <way id="42155634" version="2" timestamp="2009-10-10T09:39:52Z" uid="20587" user="balrog-kun" changeset="2801655">
    <nd ref="524367525"/>
    <nd ref="524367532"/>
    <nd ref="524367444"/>
    <nd ref="524367546"/>
    <nd ref="524367525"/>
    <tag k="addr:city" v="Bridgeport"/>
    <tag k="attribution" v="Mono County GIS"/>
    <tag k="building" v="yes"/>
    <tag k="type" v="Public Facility"/>
  </way>
  <way id="42155635" version="2" timestamp="2009-10-10T09:39:51Z" uid="20587" user="balrog-kun" changeset="2801655">
    <nd ref="524366872"/>
    <nd ref="524366871"/>
    <nd ref="524366856"/>
    <nd ref="524366842"/>
    <nd ref="524366874"/>
    <nd ref="524366892"/>
    <nd ref="524366872"/>
    <tag k="addr:city" v="Bridgeport"/>
    <tag k="attribution" v="Mono County GIS"/>
    <tag k="building" v="yes"/>
    <tag k="type" v="Public Facility"/>
  </way>
  <way id="42155637" version="2" timestamp="2009-10-10T09:39:52Z" uid="20587" user="balrog-kun" changeset="2801655">
    <nd ref="524366703"/>
    <nd ref="524366715"/>
    <nd ref="524366733"/>
    <nd ref="524366669"/>
    <nd ref="524366703"/>
    <tag k="addr:city" v="Bridgeport"/>
    <tag k="attribution" v="Mono County GIS"/>
    <tag k="building" v="yes"/>
    <tag k="type" v="Public Facility"/>
  </way>
  <way id="42155639" version="2" timestamp="2009-10-10T09:39:52Z" uid="20587" user="balrog-kun" changeset="2801655">
    <nd ref="524364416"/>
    <nd ref="524364467"/>
    <nd ref="524364486"/>
    <nd ref="524364443"/>
    <nd ref="524364416"/>
    <tag k="addr:city" v="Bridgeport"/>
    <tag k="attribution" v="Mono County GIS"/>
    <tag k="building" v="yes"/>
  </way>
  <way id="42155650" version="2" timestamp="2009-10-10T09:40:03Z" uid="20587" user="balrog-kun" changeset="2801655">
    <nd ref="524366628"/>
    <nd ref="524366644"/>
    <nd ref="524366631"/>
    <nd ref="524366623"/>
    <nd ref="524366668"/>
    <nd ref="524366661"/>
    <nd ref="524366628"/>
    <tag k="addr:city" v="Bridgeport"/>
    <tag k="attribution" v="Mono County GIS"/>
    <tag k="building" v="yes"/>
    <tag k="type" v="Public Facility"/>
  </way>
  <way id="42155651" version="2" timestamp="2009-10-10T09:40:03Z" uid="20587" user="balrog-kun" changeset="2801655">
    <nd ref="524366686"/>
    <nd ref="524366941"/>
    <nd ref="524366926"/>
    <nd ref="524366908"/>
    <nd ref="524366686"/>
    <tag k="addr:city" v="Bridgeport"/>
    <tag k="attribution" v="Mono County GIS"/>
    <tag k="building" v="yes"/>
    <tag k="type" v="Public Facility"/>
  </way>
  <way id="42155653" version="2" timestamp="2009-10-10T09:40:02Z" uid="20587" user="balrog-kun" changeset="2801655">
    <nd ref="524366673"/>
    <nd ref="524367051"/>
    <nd ref="524366999"/>
    <nd ref="524366671"/>
    <nd ref="524366673"/>
    <tag k="addr:city" v="Bridgeport"/>
    <tag k="attribution" v="Mono County GIS"/>
    <tag k="building" v="yes"/>
    <tag k="type" v="Public Facility"/>
  </way>
  <way id="42155657" version="2" timestamp="2009-10-10T09:40:02Z" uid="20587" user="balrog-kun" changeset="2801655">
    <nd ref="524366754"/>
    <nd ref="524366795"/>
    <nd ref="524366778"/>
    <nd ref="524366836"/>
    <nd ref="524366754"/>
    <tag k="addr:city" v="Bridgeport"/>
    <tag k="attribution" v="Mono County GIS"/>
    <tag k="building" v="yes"/>
    <tag k="type" v="Public Facility"/>
  </way>
  <way id="42155659" version="2" timestamp="2009-10-10T09:40:02Z" uid="20587" user="balrog-kun" changeset="2801655">
    <nd ref="524366814"/>
    <nd ref="524366958"/>
    <nd ref="524366962"/>
    <nd ref="524366972"/>
    <nd ref="524366814"/>
    <tag k="addr:city" v="Bridgeport"/>
    <tag k="attribution" v="Mono County GIS"/>
    <tag k="building" v="yes"/>
    <tag k="type" v="Public Facility"/>
  </way>
  <way id="42155660" version="2" timestamp="2009-10-10T09:40:02Z" uid="20587" user="balrog-kun" changeset="2801655">
    <nd ref="524365861"/>
    <nd ref="524365955"/>
    <nd ref="524366028"/>
    <nd ref="524366049"/>
    <nd ref="524366103"/>
    <nd ref="524366089"/>
    <nd ref="524366068"/>
    <nd ref="524365888"/>
    <nd ref="524365861"/>
    <tag k="PrntAsmtNu" v="008060045000"/>
    <tag k="addr:city" v="Bridgeport"/>
    <tag k="addr:housenumber" v="75875"/>
    <tag k="addr:street" v="395"/>
    <tag k="attribution" v="Mono County GIS"/>
    <tag k="building" v="yes"/>
  </way>
  <way id="42155662" version="2" timestamp="2009-10-10T09:40:02Z" uid="20587" user="balrog-kun" changeset="2801655">
    <nd ref="524365699"/>
    <nd ref="524365768"/>
    <nd ref="524365790"/>
    <nd ref="524365735"/>
    <nd ref="524365699"/>
    <tag k="PrntAsmtNu" v="008060045000"/>
    <tag k="addr:city" v="Bridgeport"/>
    <tag k="addr:housenumber" v="75875"/>
    <tag k="addr:street" v="395"/>
    <tag k="attribution" v="Mono County GIS"/>
    <tag k="building" v="yes"/>
  </way>
  <way id="42155663" version="2" timestamp="2009-10-10T09:40:02Z" uid="20587" user="balrog-kun" changeset="2801655">
    <nd ref="524365798"/>
    <nd ref="524365800"/>
    <nd ref="524365810"/>
    <nd ref="524365840"/>
    <nd ref="524365643"/>
    <nd ref="524365163"/>
    <nd ref="524365213"/>
    <nd ref="524365119"/>
    <nd ref="524365798"/>
    <tag k="PrntAsmtNu" v="008060045000"/>
    <tag k="addr:city" v="Bridgeport"/>
    <tag k="addr:housenumber" v="75875"/>
    <tag k="addr:street" v="395"/>
    <tag k="attribution" v="Mono County GIS"/>
    <tag k="building" v="yes"/>
  </way>
  <way id="42155667" version="2" timestamp="2009-10-10T09:40:02Z" uid="20587" user="balrog-kun" changeset="2801655">
    <nd ref="524365253"/>
    <nd ref="524365277"/>
    <nd ref="524365314"/>
    <nd ref="524365353"/>
    <nd ref="524365253"/>
    <tag k="PrntAsmtNu" v="008060045000"/>
    <tag k="addr:city" v="Bridgeport"/>
    <tag k="addr:housenumber" v="75875"/>
    <tag k="addr:street" v="395"/>
    <tag k="attribution" v="Mono County GIS"/>
    <tag k="building" v="yes"/>
  </way>
  <way id="42155669" version="2" timestamp="2009-10-10T09:40:01Z" uid="20587" user="balrog-kun" changeset="2801655">
    <nd ref="524366348"/>
    <nd ref="524366321"/>
    <nd ref="524366214"/>
    <nd ref="524366208"/>
    <nd ref="524366348"/>
    <tag k="PrntAsmtNu" v="008060045000"/>
    <tag k="addr:city" v="Bridgeport"/>
    <tag k="addr:housenumber" v="75881"/>
    <tag k="addr:street" v="395"/>
    <tag k="attribution" v="Mono County GIS"/>
    <tag k="building" v="yes"/>
    <tag k="name" v="Bridgeport PUD Lift Station"/>
  </way>
  <way id="42155671" version="2" timestamp="2009-10-10T09:40:01Z" uid="20587" user="balrog-kun" changeset="2801655">
    <nd ref="524366430"/>
    <nd ref="524366402"/>
    <nd ref="524366384"/>
    <nd ref="524366373"/>
    <nd ref="524366430"/>
    <tag k="PrntAsmtNu" v="008060045000"/>
    <tag k="addr:city" v="Bridgeport"/>
    <tag k="attribution" v="Mono County GIS"/>
    <tag k="building" v="yes"/>
  </way>
  <way id="42155675" version="2" timestamp="2009-10-10T09:40:01Z" uid="20587" user="balrog-kun" changeset="2801655">
    <nd ref="524365936"/>
    <nd ref="524366218"/>
    <nd ref="524366232"/>
    <nd ref="524366273"/>
    <nd ref="524366252"/>
    <nd ref="524366299"/>
    <nd ref="524366124"/>
    <nd ref="524366174"/>
    <nd ref="524366146"/>
    <nd ref="524366198"/>
    <nd ref="524365999"/>
    <nd ref="524366004"/>
    <nd ref="524365972"/>
    <nd ref="524365871"/>
    <nd ref="524365936"/>
    <tag k="PrntAsmtNu" v="008060045000"/>
    <tag k="addr:city" v="Bridgeport"/>
    <tag k="addr:housenumber" v="75875"/>
    <tag k="addr:street" v="395"/>
    <tag k="attribution" v="Mono County GIS"/>
    <tag k="building" v="yes"/>
  </way>
  <way id="42155679" version="2" timestamp="2009-10-10T09:40:01Z" uid="20587" user="balrog-kun" changeset="2801655">
    <nd ref="524365916"/>
    <nd ref="524365899"/>
    <nd ref="524365895"/>
    <nd ref="524365891"/>
    <nd ref="524365916"/>
    <tag k="PrntAsmtNu" v="008060045000"/>
    <tag k="addr:city" v="Bridgeport"/>
    <tag k="addr:housenumber" v="75875"/>
    <tag k="addr:street" v="395"/>
    <tag k="attribution" v="Mono County GIS"/>
    <tag k="building" v="yes"/>
  </way>
  <way id="42155688" version="2" timestamp="2009-10-10T09:40:04Z" uid="20587" user="balrog-kun" changeset="2801655">
    <nd ref="524364816"/>
    <nd ref="524364820"/>
    <nd ref="524364826"/>
    <nd ref="524364839"/>
    <nd ref="524364816"/>
    <tag k="PrntAsmtNu" v="008060045000"/>
    <tag k="addr:city" v="Bridgeport"/>
    <tag k="addr:housenumber" v="75875"/>
    <tag k="addr:street" v="395"/>
    <tag k="attribution" v="Mono County GIS"/>
    <tag k="building" v="yes"/>
  </way>
  <way id="42155695" version="2" timestamp="2009-10-10T09:40:04Z" uid="20587" user="balrog-kun" changeset="2801655">
    <nd ref="524364789"/>
    <nd ref="524364812"/>
    <nd ref="524365857"/>
    <nd ref="524365859"/>
    <nd ref="524364789"/>
    <tag k="PrntAsmtNu" v="008060045000"/>
    <tag k="addr:city" v="Bridgeport"/>
    <tag k="addr:housenumber" v="75875"/>
    <tag k="addr:street" v="395"/>
    <tag k="attribution" v="Mono County GIS"/>
    <tag k="building" v="yes"/>
  </way>
  <way id="42155698" version="2" timestamp="2009-10-10T09:40:03Z" uid="20587" user="balrog-kun" changeset="2801655">
    <nd ref="524366593"/>
    <nd ref="524366569"/>
    <nd ref="524366612"/>
    <nd ref="524366622"/>
    <nd ref="524366593"/>
    <tag k="addr:city" v="Bridgeport"/>
    <tag k="attribution" v="Mono County GIS"/>
    <tag k="building" v="yes"/>
  </way>
  <way id="42155701" version="2" timestamp="2009-10-10T09:40:03Z" uid="20587" user="balrog-kun" changeset="2801655">
    <nd ref="524366525"/>
    <nd ref="524366524"/>
    <nd ref="524366549"/>
    <nd ref="524366539"/>
    <nd ref="524366525"/>
    <tag k="addr:city" v="Bridgeport"/>
    <tag k="attribution" v="Mono County GIS"/>
    <tag k="building" v="yes"/>
  </way>
  <way id="42155706" version="2" timestamp="2009-10-10T09:40:03Z" uid="20587" user="balrog-kun" changeset="2801655">
    <nd ref="524365070"/>
    <nd ref="524364994"/>
    <nd ref="524365013"/>
    <nd ref="524365034"/>
    <nd ref="524365607"/>
    <nd ref="524365392"/>
    <nd ref="524365465"/>
    <nd ref="524365509"/>
    <nd ref="524365547"/>
    <nd ref="524365585"/>
    <nd ref="524365070"/>
    <tag k="PrntAsmtNu" v="008060045000"/>
    <tag k="addr:city" v="Bridgeport"/>
    <tag k="addr:housenumber" v="75875"/>
    <tag k="addr:street" v="395"/>
    <tag k="attribution" v="Mono County GIS"/>
    <tag k="building" v="yes"/>
  </way>
  <way id="42155711" version="2" timestamp="2009-10-10T09:40:03Z" uid="20587" user="balrog-kun" changeset="2801655">
    <nd ref="524364977"/>
    <nd ref="524365074"/>
    <nd ref="524365079"/>
    <nd ref="524365053"/>
    <nd ref="524364977"/>
    <tag k="PrntAsmtNu" v="008060045000"/>
    <tag k="addr:city" v="Bridgeport"/>
    <tag k="addr:housenumber" v="75875"/>
    <tag k="addr:street" v="395"/>
    <tag k="attribution" v="Mono County GIS"/>
    <tag k="building" v="yes"/>
  </way>
  <way id="42155715" version="2" timestamp="2009-10-10T09:39:59Z" uid="20587" user="balrog-kun" changeset="2801655">
    <nd ref="524364899"/>
    <nd ref="524364951"/>
    <nd ref="524364958"/>
    <nd ref="524364931"/>
    <nd ref="524364899"/>
    <tag k="PrntAsmtNu" v="008060045000"/>
    <tag k="addr:city" v="Bridgeport"/>
    <tag k="addr:housenumber" v="75875"/>
    <tag k="addr:street" v="395"/>
    <tag k="attribution" v="Mono County GIS"/>
    <tag k="building" v="yes"/>
  </way>
  <way id="42155724" version="2" timestamp="2009-10-10T09:39:59Z" uid="20587" user="balrog-kun" changeset="2801655">
    <nd ref="524364854"/>
    <nd ref="524364885"/>
    <nd ref="524364918"/>
    <nd ref="524364919"/>
    <nd ref="524364854"/>
    <tag k="PrntAsmtNu" v="008060045000"/>
    <tag k="addr:city" v="Bridgeport"/>
    <tag k="addr:housenumber" v="75875"/>
    <tag k="addr:street" v="395"/>
    <tag k="attribution" v="Mono County GIS"/>
    <tag k="building" v="yes"/>
  </way>
  <way id="42155727" version="2" timestamp="2009-10-10T09:39:58Z" uid="20587" user="balrog-kun" changeset="2801655">
    <nd ref="524357951"/>
    <nd ref="524357974"/>
    <nd ref="524357998"/>
    <nd ref="524358050"/>
    <nd ref="524358075"/>
    <nd ref="524358021"/>
    <nd ref="524357951"/>
    <tag k="addr:city" v="Bridgeport"/>
    <tag k="attribution" v="Mono County GIS"/>
    <tag k="building" v="yes"/>
  </way>
  <way id="42155729" version="2" timestamp="2009-10-10T09:39:58Z" uid="20587" user="balrog-kun" changeset="2801655">
    <nd ref="524360928"/>
    <nd ref="524361030"/>
    <nd ref="524360986"/>
    <nd ref="524361012"/>
    <nd ref="524360869"/>
    <nd ref="524360870"/>
    <nd ref="524360838"/>
    <nd ref="524360854"/>
    <nd ref="524360928"/>
    <tag k="addr:city" v="Bridgeport"/>
    <tag k="attribution" v="Mono County GIS"/>
    <tag k="building" v="yes"/>
  </way>
  <way id="42155731" version="2" timestamp="2009-10-10T09:39:58Z" uid="20587" user="balrog-kun" changeset="2801655">
    <nd ref="524360949"/>
    <nd ref="524360966"/>
    <nd ref="524360736"/>
    <nd ref="524360585"/>
    <nd ref="524360949"/>
    <tag k="addr:city" v="Bridgeport"/>
    <tag k="attribution" v="Mono County GIS"/>
    <tag k="building" v="yes"/>
  </way>
  <way id="42155734" version="2" timestamp="2009-10-10T09:39:58Z" uid="20587" user="balrog-kun" changeset="2801655">
    <nd ref="524357860"/>
    <nd ref="524357875"/>
    <nd ref="524357007"/>
    <nd ref="524357001"/>
    <nd ref="524357860"/>
    <tag k="addr:city" v="Bridgeport"/>
    <tag k="attribution" v="Mono County GIS"/>
    <tag k="building" v="yes"/>
  </way>
  <way id="42155737" version="2" timestamp="2009-10-10T09:39:57Z" uid="20587" user="balrog-kun" changeset="2801655">
    <nd ref="524360470"/>
    <nd ref="524360505"/>
    <nd ref="524360488"/>
    <nd ref="524360508"/>
    <nd ref="524360470"/>
    <tag k="addr:city" v="Bridgeport"/>
    <tag k="attribution" v="Mono County GIS"/>
    <tag k="building" v="yes"/>
  </way>
  <way id="42155738" version="2" timestamp="2009-10-10T09:39:57Z" uid="20587" user="balrog-kun" changeset="2801655">
    <nd ref="524360749"/>
    <nd ref="524360441"/>
    <nd ref="524360417"/>
    <nd ref="524360822"/>
    <nd ref="524360807"/>
    <nd ref="524360791"/>
    <nd ref="524360773"/>
    <nd ref="524360751"/>
    <nd ref="524360749"/>
    <tag k="addr:city" v="Bridgeport"/>
    <tag k="attribution" v="Mono County GIS"/>
    <tag k="building" v="yes"/>
  </way>
  <way id="42155740" version="2" timestamp="2009-10-10T09:39:58Z" uid="20587" user="balrog-kun" changeset="2801655">
    <nd ref="524357941"/>
    <nd ref="524357936"/>
    <nd ref="524357933"/>
    <nd ref="524357796"/>
    <nd ref="524357214"/>
    <nd ref="524357811"/>
    <nd ref="524357829"/>
    <nd ref="524357890"/>
    <nd ref="524357845"/>
    <nd ref="524357916"/>
    <nd ref="524357941"/>
    <tag k="addr:city" v="Bridgeport"/>
    <tag k="attribution" v="Mono County GIS"/>
    <tag k="building" v="yes"/>
  </way>
  <way id="42155742" version="2" timestamp="2009-10-10T09:39:57Z" uid="20587" user="balrog-kun" changeset="2801655">
    <nd ref="524360455"/>
    <nd ref="524360465"/>
    <nd ref="524360567"/>
    <nd ref="524360541"/>
    <nd ref="524360556"/>
    <nd ref="524360537"/>
    <nd ref="524360455"/>
    <tag k="addr:city" v="Bridgeport"/>
    <tag k="attribution" v="Mono County GIS"/>
    <tag k="building" v="yes"/>
  </way>
  <way id="42155746" version="2" timestamp="2009-10-10T09:40:01Z" uid="20587" user="balrog-kun" changeset="2801655">
    <nd ref="524357423"/>
    <nd ref="524357311"/>
    <nd ref="524357361"/>
    <nd ref="524357262"/>
    <nd ref="524357423"/>
    <tag k="addr:city" v="Bridgeport"/>
    <tag k="attribution" v="Mono County GIS"/>
    <tag k="building" v="yes"/>
  </way>
  <way id="42155747" version="2" timestamp="2009-10-10T09:40:00Z" uid="20587" user="balrog-kun" changeset="2801655">
    <nd ref="524360051"/>
    <nd ref="524360227"/>
    <nd ref="524360193"/>
    <nd ref="524360179"/>
    <nd ref="524360051"/>
    <tag k="addr:city" v="Bridgeport"/>
    <tag k="attribution" v="Mono County GIS"/>
    <tag k="building" v="yes"/>
  </way>
  <way id="42155749" version="2" timestamp="2009-10-10T09:40:01Z" uid="20587" user="balrog-kun" changeset="2801655">
    <nd ref="524357574"/>
    <nd ref="524357528"/>
    <nd ref="524357628"/>
    <nd ref="524357607"/>
    <nd ref="524357574"/>
    <tag k="addr:city" v="Bridgeport"/>
    <tag k="attribution" v="Mono County GIS"/>
    <tag k="building" v="yes"/>
  </way>
  <way id="42155752" version="2" timestamp="2009-10-10T09:40:00Z" uid="20587" user="balrog-kun" changeset="2801655">
    <nd ref="524360526"/>
    <nd ref="524360207"/>
    <nd ref="524360214"/>
    <nd ref="524360144"/>
    <nd ref="524360160"/>
    <nd ref="524360128"/>
    <nd ref="524360118"/>
    <nd ref="524360473"/>
    <nd ref="524360526"/>
    <tag k="addr:city" v="Bridgeport"/>
    <tag k="attribution" v="Mono County GIS"/>
    <tag k="building" v="yes"/>
  </way>
  <way id="42155753" version="2" timestamp="2009-10-10T09:40:00Z" uid="20587" user="balrog-kun" changeset="2801655">
    <nd ref="524360316"/>
    <nd ref="524360328"/>
    <nd ref="524360344"/>
    <nd ref="524360361"/>
    <nd ref="524360368"/>
    <nd ref="524360242"/>
    <nd ref="524360259"/>
    <nd ref="524360288"/>
    <nd ref="524360300"/>
    <nd ref="524360276"/>
    <nd ref="524360316"/>
    <tag k="addr:city" v="Bridgeport"/>
    <tag k="attribution" v="Mono County GIS"/>
    <tag k="building" v="yes"/>
  </way>
  <way id="42155754" version="2" timestamp="2009-10-10T09:40:00Z" uid="20587" user="balrog-kun" changeset="2801655">
    <nd ref="524357725"/>
    <nd ref="524357702"/>
    <nd ref="524357715"/>
    <nd ref="524357659"/>
    <nd ref="524357678"/>
    <nd ref="524357742"/>
    <nd ref="524357760"/>
    <nd ref="524357766"/>
    <nd ref="524357725"/>
    <tag k="addr:city" v="Bridgeport"/>
    <tag k="attribution" v="Mono County GIS"/>
    <tag k="building" v="yes"/>
  </way>
  <way id="42155755" version="2" timestamp="2009-10-10T09:40:00Z" uid="20587" user="balrog-kun" changeset="2801655">
    <nd ref="524357477"/>
    <nd ref="524357156"/>
    <nd ref="524357181"/>
    <nd ref="524357497"/>
    <nd ref="524357477"/>
    <tag k="addr:city" v="Bridgeport"/>
    <tag k="attribution" v="Mono County GIS"/>
    <tag k="building" v="yes"/>
  </way>
  <way id="42155768" version="2" timestamp="2009-10-10T09:39:59Z" uid="20587" user="balrog-kun" changeset="2801655">
    <nd ref="524360111"/>
    <nd ref="524359887"/>
    <nd ref="524359890"/>
    <nd ref="524359876"/>
    <nd ref="524359883"/>
    <nd ref="524360085"/>
    <nd ref="524360106"/>
    <nd ref="524360061"/>
    <nd ref="524360111"/>
    <tag k="addr:city" v="Bridgeport"/>
    <tag k="attribution" v="Mono County GIS"/>
    <tag k="building" v="yes"/>
  </way>
  <way id="42155771" version="2" timestamp="2009-10-10T09:39:59Z" uid="20587" user="balrog-kun" changeset="2801655">
    <nd ref="524356300"/>
    <nd ref="524359947"/>
    <nd ref="524359923"/>
    <nd ref="524359898"/>
    <nd ref="524359892"/>
    <nd ref="524360033"/>
    <nd ref="524360014"/>
    <nd ref="524356276"/>
    <nd ref="524356300"/>
    <tag k="addr:city" v="Bridgeport"/>
    <tag k="attribution" v="Mono County GIS"/>
    <tag k="building" v="yes"/>
  </way>
  <way id="42155773" version="2" timestamp="2009-10-10T09:39:59Z" uid="20587" user="balrog-kun" changeset="2801655">
    <nd ref="524360404"/>
    <nd ref="524360389"/>
    <nd ref="524360378"/>
    <nd ref="524360377"/>
    <nd ref="524360404"/>
    <tag k="addr:city" v="Bridgeport"/>
    <tag k="attribution" v="Mono County GIS"/>
    <tag k="building" v="yes"/>
  </way>
  <way id="42155775" version="2" timestamp="2009-10-10T09:40:00Z" uid="20587" user="balrog-kun" changeset="2801655">
    <nd ref="524357021"/>
    <nd ref="524357059"/>
    <nd ref="524357090"/>
    <nd ref="524357123"/>
    <nd ref="524357021"/>
    <tag k="addr:city" v="Bridgeport"/>
    <tag k="attribution" v="Mono County GIS"/>
    <tag k="building" v="yes"/>
  </way>
  <way id="42155777" version="2" timestamp="2009-10-10T09:39:47Z" uid="20587" user="balrog-kun" changeset="2801655">
    <nd ref="524359992"/>
    <nd ref="524359976"/>
    <nd ref="524359966"/>
    <nd ref="524359875"/>
    <nd ref="524359992"/>
    <tag k="addr:city" v="Bridgeport"/>
    <tag k="attribution" v="Mono County GIS"/>
    <tag k="building" v="yes"/>
  </way>
  <way id="42155778" version="2" timestamp="2009-10-10T09:39:47Z" uid="20587" user="balrog-kun" changeset="2801655">
    <nd ref="524355438"/>
    <nd ref="524355400"/>
    <nd ref="524355414"/>
    <nd ref="524355370"/>
    <nd ref="524355386"/>
    <nd ref="524355861"/>
    <nd ref="524355866"/>
    <nd ref="524355880"/>
    <nd ref="524356180"/>
    <nd ref="524355920"/>
    <nd ref="524355896"/>
    <nd ref="524355848"/>
    <nd ref="524355438"/>
    <tag k="addr:city" v="Bridgeport"/>
    <tag k="attribution" v="Mono County GIS"/>
    <tag k="building" v="yes"/>
  </way>
  <way id="42155779" version="2" timestamp="2009-10-10T09:39:48Z" uid="20587" user="balrog-kun" changeset="2801655">
    <nd ref="524356561"/>
    <nd ref="524356559"/>
    <nd ref="524356525"/>
    <nd ref="524356510"/>
    <nd ref="524356540"/>
    <nd ref="524356500"/>
    <nd ref="524356499"/>
    <nd ref="524356490"/>
    <nd ref="524356561"/>
    <tag k="addr:city" v="Bridgeport"/>
    <tag k="attribution" v="Mono County GIS"/>
    <tag k="building" v="yes"/>
  </way>
  <way id="42155782" version="2" timestamp="2009-10-10T09:39:47Z" uid="20587" user="balrog-kun" changeset="2801655">
    <nd ref="524360376"/>
    <nd ref="524356562"/>
    <nd ref="524356565"/>
    <nd ref="524356563"/>
    <nd ref="524356583"/>
    <nd ref="524360379"/>
    <nd ref="524360376"/>
    <tag k="addr:city" v="Bridgeport"/>
    <tag k="attribution" v="Mono County GIS"/>
    <tag k="building" v="yes"/>
  </way>
  <way id="42155783" version="2" timestamp="2009-10-10T09:39:47Z" uid="20587" user="balrog-kun" changeset="2801655">
    <nd ref="524356218"/>
    <nd ref="524356252"/>
    <nd ref="524355934"/>
    <nd ref="524357780"/>
    <nd ref="524356218"/>
    <tag k="addr:city" v="Bridgeport"/>
    <tag k="attribution" v="Mono County GIS"/>
    <tag k="building" v="yes"/>
  </way>
  <way id="42155787" version="2" timestamp="2009-10-10T09:39:48Z" uid="20587" user="balrog-kun" changeset="2801655">
    <nd ref="524355201"/>
    <nd ref="524354932"/>
    <nd ref="524355220"/>
    <nd ref="524354939"/>
    <nd ref="524354954"/>
    <nd ref="524355234"/>
    <nd ref="524355075"/>
    <nd ref="524355059"/>
    <nd ref="524355185"/>
    <nd ref="524355163"/>
    <nd ref="524355173"/>
    <nd ref="524355162"/>
    <nd ref="524355201"/>
    <tag k="addr:city" v="Bridgeport"/>
    <tag k="attribution" v="Mono County GIS"/>
    <tag k="building" v="yes"/>
  </way>
  <way id="42155797" version="2" timestamp="2009-10-10T09:39:48Z" uid="20587" user="balrog-kun" changeset="2801655">
    <nd ref="524355833"/>
    <nd ref="524355819"/>
    <nd ref="524355486"/>
    <nd ref="524355470"/>
    <nd ref="524355833"/>
    <tag k="addr:city" v="Bridgeport"/>
    <tag k="attribution" v="Mono County GIS"/>
    <tag k="building" v="yes"/>
  </way>
  <way id="42155810" version="2" timestamp="2009-10-10T09:39:48Z" uid="20587" user="balrog-kun" changeset="2801655">
    <nd ref="524354884"/>
    <nd ref="524354868"/>
    <nd ref="524355118"/>
    <nd ref="524355092"/>
    <nd ref="524355106"/>
    <nd ref="524355044"/>
    <nd ref="524355028"/>
    <nd ref="524355013"/>
    <nd ref="524354884"/>
    <tag k="addr:city" v="Bridgeport"/>
    <tag k="attribution" v="Mono County GIS"/>
    <tag k="building" v="yes"/>
  </way>
  <way id="42155813" version="2" timestamp="2009-10-10T09:39:48Z" uid="20587" user="balrog-kun" changeset="2801655">
    <nd ref="524356156"/>
    <nd ref="524356143"/>
    <nd ref="524356138"/>
    <nd ref="524356128"/>
    <nd ref="524356156"/>
    <tag k="addr:city" v="Bridgeport"/>
    <tag k="attribution" v="Mono County GIS"/>
    <tag k="building" v="yes"/>
  </way>
  <way id="42155814" version="2" timestamp="2009-10-10T09:39:48Z" uid="20587" user="balrog-kun" changeset="2801655">
    <nd ref="524356121"/>
    <nd ref="524356115"/>
    <nd ref="524356095"/>
    <nd ref="524356104"/>
    <nd ref="524356121"/>
    <tag k="addr:city" v="Bridgeport"/>
    <tag k="attribution" v="Mono County GIS"/>
    <tag k="building" v="yes"/>
  </way>
  <way id="42155816" version="2" timestamp="2009-10-10T09:39:49Z" uid="20587" user="balrog-kun" changeset="2801655">
    <nd ref="524356854"/>
    <nd ref="524356870"/>
    <nd ref="524356885"/>
    <nd ref="524356899"/>
    <nd ref="524356854"/>
    <tag k="addr:city" v="Bridgeport"/>
    <tag k="attribution" v="Mono County GIS"/>
    <tag k="building" v="yes"/>
  </way>
  <way id="42155818" version="2" timestamp="2009-10-10T09:39:49Z" uid="20587" user="balrog-kun" changeset="2801655">
    <nd ref="524355351"/>
    <nd ref="524355352"/>
    <nd ref="524355332"/>
    <nd ref="524355354"/>
    <nd ref="524355315"/>
    <nd ref="524355297"/>
    <nd ref="524355288"/>
    <nd ref="524354998"/>
    <nd ref="524354983"/>
    <nd ref="524354965"/>
    <nd ref="524355351"/>
    <tag k="addr:city" v="Bridgeport"/>
    <tag k="attribution" v="Mono County GIS"/>
    <tag k="building" v="yes"/>
  </way>
  <way id="42155821" version="2" timestamp="2009-10-10T09:39:49Z" uid="20587" user="balrog-kun" changeset="2801655">
    <nd ref="524355147"/>
    <nd ref="524355159"/>
    <nd ref="524355131"/>
    <nd ref="524355134"/>
    <nd ref="524355147"/>
    <tag k="addr:city" v="Bridgeport"/>
    <tag k="attribution" v="Mono County GIS"/>
    <tag k="building" v="yes"/>
  </way>
  <way id="42155834" version="2" timestamp="2009-10-10T09:39:49Z" uid="20587" user="balrog-kun" changeset="2801655">
    <nd ref="524361798"/>
    <nd ref="524361790"/>
    <nd ref="524361766"/>
    <nd ref="524361670"/>
    <nd ref="524361665"/>
    <nd ref="524361732"/>
    <nd ref="524361700"/>
    <nd ref="524361691"/>
    <nd ref="524361731"/>
    <nd ref="524361715"/>
    <nd ref="524361837"/>
    <nd ref="524361819"/>
    <nd ref="524361860"/>
    <nd ref="524361847"/>
    <nd ref="524361798"/>
    <tag k="addr:city" v="Bridgeport"/>
    <tag k="attribution" v="Mono County GIS"/>
    <tag k="building" v="yes"/>
  </way>
  <way id="42155845" version="2" timestamp="2009-10-10T09:39:43Z" uid="20587" user="balrog-kun" changeset="2801655">
    <nd ref="524362136"/>
    <nd ref="524362049"/>
    <nd ref="524362066"/>
    <nd ref="524362088"/>
    <nd ref="524362136"/>
    <tag k="addr:city" v="Bridgeport"/>
    <tag k="attribution" v="Mono County GIS"/>
    <tag k="building" v="yes"/>
  </way>
  <way id="42155849" version="2" timestamp="2009-10-10T09:39:43Z" uid="20587" user="balrog-kun" changeset="2801655">
    <nd ref="524361879"/>
    <nd ref="524361866"/>
    <nd ref="524361895"/>
    <nd ref="524361970"/>
    <nd ref="524361879"/>
    <tag k="addr:city" v="Bridgeport"/>
    <tag k="attribution" v="Mono County GIS"/>
    <tag k="building" v="yes"/>
  </way>
  <way id="42155852" version="2" timestamp="2009-10-10T09:39:44Z" uid="20587" user="balrog-kun" changeset="2801655">
    <nd ref="524361952"/>
    <nd ref="524361943"/>
    <nd ref="524361925"/>
    <nd ref="524361988"/>
    <nd ref="524361952"/>
    <tag k="addr:city" v="Bridgeport"/>
    <tag k="attribution" v="Mono County GIS"/>
    <tag k="building" v="yes"/>
  </way>
  <way id="42155854" version="2" timestamp="2009-10-10T09:39:44Z" uid="20587" user="balrog-kun" changeset="2801655">
    <nd ref="524361568"/>
    <nd ref="524361341"/>
    <nd ref="524361342"/>
    <nd ref="524361592"/>
    <nd ref="524361568"/>
    <tag k="addr:city" v="Bridgeport"/>
    <tag k="attribution" v="Mono County GIS"/>
    <tag k="building" v="yes"/>
  </way>
  <way id="42155858" version="2" timestamp="2009-10-10T09:39:44Z" uid="20587" user="balrog-kun" changeset="2801655">
    <nd ref="524361543"/>
    <nd ref="524361574"/>
    <nd ref="524361590"/>
    <nd ref="524361599"/>
    <nd ref="524361627"/>
    <nd ref="524361619"/>
    <nd ref="524361646"/>
    <nd ref="524361347"/>
    <nd ref="524359873"/>
    <nd ref="524361558"/>
    <nd ref="524361543"/>
    <tag k="addr:city" v="Bridgeport"/>
    <tag k="attribution" v="Mono County GIS"/>
    <tag k="building" v="yes"/>
  </way>
  <way id="42155866" version="2" timestamp="2009-10-10T09:39:44Z" uid="20587" user="balrog-kun" changeset="2801655">
    <nd ref="524359853"/>
    <nd ref="524359867"/>
    <nd ref="524359869"/>
    <nd ref="524359870"/>
    <nd ref="524359871"/>
    <nd ref="524359872"/>
    <nd ref="524359853"/>
    <tag k="addr:city" v="Bridgeport"/>
    <tag k="attribution" v="Mono County GIS"/>
    <tag k="building" v="yes"/>
  </way>
  <way id="42155868" version="2" timestamp="2009-10-10T09:39:44Z" uid="20587" user="balrog-kun" changeset="2801655">
    <nd ref="524361329"/>
    <nd ref="524361345"/>
    <nd ref="524361346"/>
    <nd ref="524361344"/>
    <nd ref="524361329"/>
    <tag k="addr:city" v="Bridgeport"/>
    <tag k="attribution" v="Mono County GIS"/>
    <tag k="building" v="yes"/>
  </way>
  <way id="42155869" version="2" timestamp="2009-10-10T09:39:44Z" uid="20587" user="balrog-kun" changeset="2801655">
    <nd ref="524359815"/>
    <nd ref="524359774"/>
    <nd ref="524359791"/>
    <nd ref="524359830"/>
    <nd ref="524359815"/>
    <tag k="addr:city" v="Bridgeport"/>
    <tag k="attribution" v="Mono County GIS"/>
    <tag k="building" v="yes"/>
  </way>
  <way id="42155872" version="2" timestamp="2009-10-10T09:39:45Z" uid="20587" user="balrog-kun" changeset="2801655">
    <nd ref="524361264"/>
    <nd ref="524361313"/>
    <nd ref="524361289"/>
    <nd ref="524361306"/>
    <nd ref="524361264"/>
    <tag k="addr:city" v="Bridgeport"/>
    <tag k="attribution" v="Mono County GIS"/>
    <tag k="building" v="yes"/>
  </way>
  <way id="42155873" version="2" timestamp="2009-10-10T09:39:45Z" uid="20587" user="balrog-kun" changeset="2801655">
    <nd ref="524359801"/>
    <nd ref="524359303"/>
    <nd ref="524359364"/>
    <nd ref="524359420"/>
    <nd ref="524359801"/>
    <tag k="addr:city" v="Bridgeport"/>
    <tag k="attribution" v="Mono County GIS"/>
    <tag k="building" v="yes"/>
  </way>
  <way id="42155875" version="2" timestamp="2009-10-10T09:39:45Z" uid="20587" user="balrog-kun" changeset="2801655">
    <nd ref="524359468"/>
    <nd ref="524358840"/>
    <nd ref="524358878"/>
    <nd ref="524358917"/>
    <nd ref="524359468"/>
    <tag k="addr:city" v="Bridgeport"/>
    <tag k="attribution" v="Mono County GIS"/>
    <tag k="building" v="yes"/>
  </way>
  <way id="42155876" version="2" timestamp="2009-10-10T09:39:45Z" uid="20587" user="balrog-kun" changeset="2801655">
    <nd ref="524361407"/>
    <nd ref="524361438"/>
    <nd ref="524361456"/>
    <nd ref="524361472"/>
    <nd ref="524361407"/>
    <tag k="addr:city" v="Bridgeport"/>
    <tag k="attribution" v="Mono County GIS"/>
    <tag k="building" v="yes"/>
  </way>
  <way id="42155879" version="2" timestamp="2009-10-10T09:39:45Z" uid="20587" user="balrog-kun" changeset="2801655">
    <nd ref="524361494"/>
    <nd ref="524361207"/>
    <nd ref="524361227"/>
    <nd ref="524361246"/>
    <nd ref="524361494"/>
    <tag k="addr:city" v="Bridgeport"/>
    <tag k="attribution" v="Mono County GIS"/>
    <tag k="building" v="yes"/>
  </way>
  <way id="42155880" version="2" timestamp="2009-10-10T09:39:45Z" uid="20587" user="balrog-kun" changeset="2801655">
    <nd ref="524361133"/>
    <nd ref="524361169"/>
    <nd ref="524361150"/>
    <nd ref="524361186"/>
    <nd ref="524361133"/>
    <tag k="addr:city" v="Bridgeport"/>
    <tag k="attribution" v="Mono County GIS"/>
    <tag k="building" v="yes"/>
  </way>
  <way id="42155881" version="2" timestamp="2009-10-10T09:39:46Z" uid="20587" user="balrog-kun" changeset="2801655">
    <nd ref="524361348"/>
    <nd ref="524361390"/>
    <nd ref="524361375"/>
    <nd ref="524361419"/>
    <nd ref="524361348"/>
    <tag k="addr:city" v="Bridgeport"/>
    <tag k="attribution" v="Mono County GIS"/>
    <tag k="building" v="yes"/>
  </way>
  <way id="42155882" version="2" timestamp="2009-10-10T09:39:45Z" uid="20587" user="balrog-kun" changeset="2801655">
    <nd ref="524359726"/>
    <nd ref="524359509"/>
    <nd ref="524359644"/>
    <nd ref="524359606"/>
    <nd ref="524359564"/>
    <nd ref="524359745"/>
    <nd ref="524359679"/>
    <nd ref="524359708"/>
    <nd ref="524359726"/>
    <tag k="addr:city" v="Bridgeport"/>
    <tag k="attribution" v="Mono County GIS"/>
    <tag k="building" v="yes"/>
  </way>
  <way id="42155884" version="2" timestamp="2009-10-10T09:39:46Z" uid="20587" user="balrog-kun" changeset="2801655">
    <nd ref="524359092"/>
    <nd ref="524359138"/>
    <nd ref="524359250"/>
    <nd ref="524359197"/>
    <nd ref="524359092"/>
    <tag k="addr:city" v="Bridgeport"/>
    <tag k="attribution" v="Mono County GIS"/>
    <tag k="building" v="yes"/>
  </way>
  <way id="42155887" version="2" timestamp="2009-10-10T09:39:46Z" uid="20587" user="balrog-kun" changeset="2801655">
    <nd ref="524358764"/>
    <nd ref="524359015"/>
    <nd ref="524358946"/>
    <nd ref="524358745"/>
    <nd ref="524358764"/>
    <tag k="addr:city" v="Bridgeport"/>
    <tag k="attribution" v="Mono County GIS"/>
    <tag k="building" v="yes"/>
  </way>
  <way id="42155892" version="2" timestamp="2009-10-10T09:39:46Z" uid="20587" user="balrog-kun" changeset="2801655">
    <nd ref="524359038"/>
    <nd ref="524359062"/>
    <nd ref="524358800"/>
    <nd ref="524358775"/>
    <nd ref="524359038"/>
    <tag k="addr:city" v="Bridgeport"/>
    <tag k="attribution" v="Mono County GIS"/>
    <tag k="building" v="yes"/>
  </way>
  <way id="42155896" version="2" timestamp="2009-10-10T09:39:46Z" uid="20587" user="balrog-kun" changeset="2801655">
    <nd ref="524358642"/>
    <nd ref="524358682"/>
    <nd ref="524358695"/>
    <nd ref="524358658"/>
    <nd ref="524358675"/>
    <nd ref="524358742"/>
    <nd ref="524358743"/>
    <nd ref="524358711"/>
    <nd ref="524358728"/>
    <nd ref="524358626"/>
    <nd ref="524358642"/>
    <tag k="addr:city" v="Bridgeport"/>
    <tag k="attribution" v="Mono County GIS"/>
    <tag k="building" v="yes"/>
  </way>
  <way id="42155897" version="2" timestamp="2009-10-10T09:39:46Z" uid="20587" user="balrog-kun" changeset="2801655">
    <nd ref="524361084"/>
    <nd ref="524361067"/>
    <nd ref="524361102"/>
    <nd ref="524361036"/>
    <nd ref="524361084"/>
    <tag k="addr:city" v="Bridgeport"/>
    <tag k="attribution" v="Mono County GIS"/>
    <tag k="building" v="yes"/>
  </way>
  <way id="42155899" version="2" timestamp="2009-10-10T09:39:46Z" uid="20587" user="balrog-kun" changeset="2801655">
    <nd ref="524358261"/>
    <nd ref="524358237"/>
    <nd ref="524358216"/>
    <nd ref="524358196"/>
    <nd ref="524358176"/>
    <nd ref="524358168"/>
    <nd ref="524358261"/>
    <tag k="addr:city" v="Bridgeport"/>
    <tag k="attribution" v="Mono County GIS"/>
    <tag k="building" v="yes"/>
  </way>
  <way id="42155900" version="2" timestamp="2009-10-10T09:39:47Z" uid="20587" user="balrog-kun" changeset="2801655">
    <nd ref="524358125"/>
    <nd ref="524358152"/>
    <nd ref="524358148"/>
    <nd ref="524358284"/>
    <nd ref="524358125"/>
    <tag k="addr:city" v="Bridgeport"/>
    <tag k="attribution" v="Mono County GIS"/>
    <tag k="building" v="yes"/>
  </way>
  <way id="42155901" version="2" timestamp="2009-10-10T09:39:47Z" uid="20587" user="balrog-kun" changeset="2801655">
    <nd ref="524358610"/>
    <nd ref="524358581"/>
    <nd ref="524358571"/>
    <nd ref="524358582"/>
    <nd ref="524358610"/>
    <tag k="addr:city" v="Bridgeport"/>
    <tag k="attribution" v="Mono County GIS"/>
    <tag k="building" v="yes"/>
  </way>
  <way id="42155904" version="2" timestamp="2009-10-10T09:39:50Z" uid="20587" user="balrog-kun" changeset="2801655">
    <nd ref="524358550"/>
    <nd ref="524358414"/>
    <nd ref="524358400"/>
    <nd ref="524358436"/>
    <nd ref="524358550"/>
    <tag k="addr:city" v="Bridgeport"/>
    <tag k="attribution" v="Mono County GIS"/>
    <tag k="building" v="yes"/>
  </way>
  <way id="42155906" version="2" timestamp="2009-10-10T09:39:50Z" uid="20587" user="balrog-kun" changeset="2801655">
    <nd ref="524358337"/>
    <nd ref="524358312"/>
    <nd ref="524358353"/>
    <nd ref="524358347"/>
    <nd ref="524358337"/>
    <tag k="addr:city" v="Bridgeport"/>
    <tag k="attribution" v="Mono County GIS"/>
    <tag k="building" v="yes"/>
  </way>
  <way id="42155908" version="2" timestamp="2009-10-10T09:39:50Z" uid="20587" user="balrog-kun" changeset="2801655">
    <nd ref="524358505"/>
    <nd ref="524358530"/>
    <nd ref="524358512"/>
    <nd ref="524358102"/>
    <nd ref="524358384"/>
    <nd ref="524358363"/>
    <nd ref="524358505"/>
    <tag k="addr:city" v="Bridgeport"/>
    <tag k="attribution" v="Mono County GIS"/>
    <tag k="building" v="yes"/>
  </way>
  <way id="42155911" version="2" timestamp="2009-10-10T09:39:50Z" uid="20587" user="balrog-kun" changeset="2801655">
    <nd ref="524358459"/>
    <nd ref="524358494"/>
    <nd ref="524358477"/>
    <nd ref="524358506"/>
    <nd ref="524358459"/>
    <tag k="addr:city" v="Bridgeport"/>
    <tag k="attribution" v="Mono County GIS"/>
    <tag k="building" v="yes"/>
  </way>
  <way id="42155912" version="2" timestamp="2009-10-10T09:39:50Z" uid="20587" user="balrog-kun" changeset="2801655">
    <nd ref="524361502"/>
    <nd ref="524361529"/>
    <nd ref="524361518"/>
    <nd ref="524361530"/>
    <nd ref="524361502"/>
    <tag k="addr:city" v="Bridgeport"/>
    <tag k="attribution" v="Mono County GIS"/>
    <tag k="building" v="yes"/>
  </way>
  <way id="42155913" version="2" timestamp="2009-10-10T09:39:49Z" uid="20587" user="balrog-kun" changeset="2801655">
    <nd ref="524360572"/>
    <nd ref="524360718"/>
    <nd ref="524360678"/>
    <nd ref="524360701"/>
    <nd ref="524360636"/>
    <nd ref="524360655"/>
    <nd ref="524360622"/>
    <nd ref="524360623"/>
    <nd ref="524361040"/>
    <nd ref="524361052"/>
    <nd ref="524360613"/>
    <nd ref="524361125"/>
    <nd ref="524360572"/>
    <tag k="addr:city" v="Bridgeport"/>
    <tag k="attribution" v="Mono County GIS"/>
    <tag k="building" v="yes"/>
  </way>
  <way id="42155922" version="2" timestamp="2009-10-10T09:39:50Z" uid="20587" user="balrog-kun" changeset="2801655">
    <nd ref="524360887"/>
    <nd ref="524360906"/>
    <nd ref="524360908"/>
    <nd ref="524360871"/>
    <nd ref="524360887"/>
    <tag k="addr:city" v="Bridgeport"/>
    <tag k="attribution" v="Mono County GIS"/>
    <tag k="building" v="yes"/>
  </way>
</osm>
