<?xml version='1.0' encoding='UTF-8'?>
<osm version="0.6" generator="libosmium/2.20.0">
  <way id="42214056" version="6" timestamp="2011-02-11T17:52:36Z" uid="171838" user="argrath" changeset="7257487">
    <nd ref="1147632873"/>
    <nd ref="1147632872"/>
    <nd ref="1147632875"/>
    <nd ref="525888617"/>
    <nd ref="971871349"/>
    <nd ref="945178074"/>
    <nd ref="525887090"/>
    <nd ref="660740195"/>
    <nd ref="525888633"/>
    <tag k="footway" v="yes"/>
    <tag k="highway" v="primary"/>
    <tag k="name" v="兵庫県道21号 (Hyogo Prefectural Road 21)"/>
    <tag k="name:en" v="Hyogo Prefectural Road 21"/>
    <tag k="name:ja" v="兵庫県道21号"/>
    <tag k="oneway" v="no"/>
    <tag k="ref" v="21"/>
    <tag k="source" v="Bing"/>
  </way>
  <way id="42214056" version="7" timestamp="2011-04-25T09:43:20Z" uid="192905" user="ribbon" changeset="7961203">
    <nd ref="1147632873"/>
    <nd ref="1147632872"/>
    <nd ref="1147632875"/>
    <nd ref="525888617"/>
    <nd ref="971871349"/>
    <nd ref="945178074"/>
    <nd ref="525887090"/>
    <nd ref="660740195"/>
    <nd ref="525888633"/>
    <tag k="footway" v="yes"/>
    <tag k="highway" v="primary"/>
    <tag k="name" v="兵庫県道21号 (Hyogo Prefectural Road 21)"/>
    <tag k="name:en" v="Hyogo Prefectural Road 21"/>
    <tag k="name:ja" v="兵庫県道21号"/>
    <tag k="oneway" v="no"/>
    <tag k="ref" v="21"/>
    <tag k="source" v="Bing,2006-12"/>
  </way>
  <way id="42214056" version="8" timestamp="2011-09-25T14:54:48Z" uid="438757" user="kawai" changeset="9393191">
    <nd ref="1147632873"/>
    <nd ref="1147632872"/>
    <nd ref="1147632875"/>
    <nd ref="525888617"/>
    <nd ref="971871349"/>
    <nd ref="1445501460"/>
    <nd ref="1445501459"/>
    <nd ref="945178074"/>
    <nd ref="525887090"/>
    <nd ref="660740195"/>
    <nd ref="525888633"/>
    <tag k="footway" v="yes"/>
    <tag k="highway" v="primary"/>
    <tag k="name" v="兵庫県道21号 (Hyogo Prefectural Road 21)"/>
    <tag k="name:en" v="Hyogo Prefectural Road 21"/>
    <tag k="name:ja" v="兵庫県道21号"/>
    <tag k="oneway" v="no"/>
    <tag k="ref" v="21"/>
    <tag k="source" v="Bing,2006-12"/>
  </way>
</osm>
