<?xml version='1.0' encoding='UTF-8'?>
<osm version="0.6" generator="libosmium/2.20.0">
  <way id="42754335" version="2" timestamp="2010-07-08T03:38:18Z" uid="74617" user="JohnSmith" changeset="5163091">
    <nd ref="534638135"/>
    <nd ref="534638145"/>
    <tag k="highway" v="residential"/>
    <tag k="maxspeed" v="50"/>
    <tag k="maxspeed:source" v="default residential speed limit in Australia"/>
    <tag k="name" v="Deakin Avenue"/>
  </way>
  <way id="42754335" version="3" timestamp="2012-01-19T06:14:18Z" uid="147510" user="woodpeck_fixbot" changeset="10433866">
    <nd ref="534638135"/>
    <nd ref="534638145"/>
    <tag k="highway" v="residential"/>
    <tag k="name" v="Deakin Avenue"/>
  </way>
  <way id="42754463" version="2" timestamp="2010-07-08T03:38:42Z" uid="74617" user="JohnSmith" changeset="5163091">
    <nd ref="534638468"/>
    <nd ref="534638469"/>
    <tag k="highway" v="residential"/>
    <tag k="maxspeed" v="50"/>
    <tag k="maxspeed:source" v="default residential speed limit in Australia"/>
    <tag k="name" v="Chisholm Avenue"/>
  </way>
  <way id="42754463" version="3" timestamp="2012-01-19T06:14:20Z" uid="147510" user="woodpeck_fixbot" changeset="10433866">
    <nd ref="534638468"/>
    <nd ref="534638469"/>
    <tag k="highway" v="residential"/>
    <tag k="name" v="Chisholm Avenue"/>
  </way>
  <way id="42754474" version="2" timestamp="2010-07-08T03:40:54Z" uid="74617" user="JohnSmith" changeset="5163091">
    <nd ref="534638624"/>
    <nd ref="534638625"/>
    <tag k="highway" v="residential"/>
    <tag k="maxspeed" v="50"/>
    <tag k="maxspeed:source" v="default residential speed limit in Australia"/>
    <tag k="name" v="Kemira Road"/>
  </way>
  <way id="42754474" version="3" timestamp="2011-12-05T16:01:11Z" uid="338866" user="tiger" changeset="10042265">
    <nd ref="534638624"/>
    <nd ref="534638145"/>
    <nd ref="534638469"/>
    <nd ref="534638625"/>
    <tag k="highway" v="residential"/>
    <tag k="maxspeed" v="50"/>
    <tag k="maxspeed:source" v="default residential speed limit in Australia"/>
    <tag k="name" v="Kemira Road"/>
  </way>
  <way id="42754474" version="4" timestamp="2012-01-19T06:14:21Z" uid="147510" user="woodpeck_fixbot" changeset="10433866">
    <nd ref="534638624"/>
    <nd ref="534638145"/>
    <nd ref="534638469"/>
    <nd ref="534638625"/>
    <tag k="highway" v="residential"/>
    <tag k="name" v="Kemira Road"/>
  </way>
</osm>
