<?xml version='1.0' encoding='UTF-8'?>
<osm version="0.6" generator="libosmium/2.20.0">
  <way id="42834237" version="3" timestamp="2010-07-06T08:31:37Z" uid="74617" user="JohnSmith" changeset="5147679">
    <nd ref="61094003"/>
    <nd ref="535903367"/>
    <tag k="highway" v="residential"/>
    <tag k="maxspeed" v="50"/>
    <tag k="maxspeed:source" v="default residential speed limit in Australia"/>
    <tag k="name" v="Summit Place"/>
  </way>
  <way id="42834237" version="4" timestamp="2012-01-19T06:19:47Z" uid="147510" user="woodpeck_fixbot" changeset="10433866">
    <nd ref="61094003"/>
    <nd ref="535903367"/>
    <tag k="highway" v="residential"/>
    <tag k="name" v="Summit Place"/>
  </way>
  <way id="42834238" version="3" timestamp="2010-07-06T08:35:02Z" uid="74617" user="JohnSmith" changeset="5147679">
    <nd ref="535903326"/>
    <nd ref="535903328"/>
    <tag k="highway" v="residential"/>
    <tag k="maxspeed" v="50"/>
    <tag k="maxspeed:source" v="default residential speed limit in Australia"/>
    <tag k="name" v="Nyasa Close"/>
  </way>
  <way id="42834238" version="4" timestamp="2012-01-19T06:19:48Z" uid="147510" user="woodpeck_fixbot" changeset="10433866">
    <nd ref="535903326"/>
    <nd ref="535903328"/>
    <tag k="highway" v="residential"/>
    <tag k="name" v="Nyasa Close"/>
  </way>
  <way id="42834239" version="3" timestamp="2010-07-06T08:51:50Z" uid="74617" user="JohnSmith" changeset="5147679">
    <nd ref="535903321"/>
    <nd ref="535903329"/>
    <tag k="highway" v="residential"/>
    <tag k="maxspeed" v="50"/>
    <tag k="maxspeed:source" v="default residential speed limit in Australia"/>
    <tag k="name" v="Madura Close"/>
  </way>
  <way id="42834239" version="4" timestamp="2012-01-19T06:19:49Z" uid="147510" user="woodpeck_fixbot" changeset="10433866">
    <nd ref="535903321"/>
    <nd ref="535903329"/>
    <tag k="highway" v="residential"/>
    <tag k="name" v="Madura Close"/>
  </way>
  <way id="42834240" version="3" timestamp="2010-07-06T08:53:18Z" uid="74617" user="JohnSmith" changeset="5147679">
    <nd ref="535903316"/>
    <nd ref="535903320"/>
    <tag k="highway" v="residential"/>
    <tag k="maxspeed" v="50"/>
    <tag k="maxspeed:source" v="default residential speed limit in Australia"/>
    <tag k="name" v="Urima Close"/>
  </way>
  <way id="42834240" version="4" timestamp="2011-01-18T23:03:53Z" uid="397234" user="FrereOP" changeset="7016050">
    <nd ref="535903316"/>
    <nd ref="535903320"/>
    <tag k="highway" v="residential"/>
    <tag k="maxspeed" v="50"/>
    <tag k="maxspeed:source" v="default residential speed limit in Australia"/>
    <tag k="name" v="Urmia Close"/>
  </way>
  <way id="42834240" version="5" timestamp="2012-01-19T06:19:50Z" uid="147510" user="woodpeck_fixbot" changeset="10433866">
    <nd ref="535903316"/>
    <nd ref="535903320"/>
    <tag k="highway" v="residential"/>
    <tag k="name" v="Urmia Close"/>
  </way>
  <way id="42834241" version="3" timestamp="2010-07-06T08:51:42Z" uid="74617" user="JohnSmith" changeset="5147679">
    <nd ref="535903323"/>
    <nd ref="535903325"/>
    <tag k="highway" v="residential"/>
    <tag k="maxspeed" v="50"/>
    <tag k="maxspeed:source" v="default residential speed limit in Australia"/>
    <tag k="name" v="Riga Close"/>
  </way>
  <way id="42834241" version="4" timestamp="2012-01-19T06:19:51Z" uid="147510" user="woodpeck_fixbot" changeset="10433866">
    <nd ref="535903323"/>
    <nd ref="535903325"/>
    <tag k="highway" v="residential"/>
    <tag k="name" v="Riga Close"/>
  </way>
  <way id="42834459" version="2" timestamp="2010-03-28T11:04:43Z" uid="20587" user="balrog-kun" changeset="4254597">
    <nd ref="123578265"/>
    <nd ref="122954816"/>
    <nd ref="122620303"/>
    <nd ref="123412879"/>
    <nd ref="122642008"/>
    <nd ref="26792646"/>
    <nd ref="123443204"/>
    <tag k="highway" v="secondary"/>
    <tag k="name" v="Azusa Avenue"/>
    <tag k="oneway" v="yes"/>
    <tag k="ref" v="CA 39"/>
    <tag k="tiger:cfcc" v="A25"/>
    <tag k="tiger:county" v="Los Angeles, CA"/>
    <tag k="tiger:name_base" v="Azusa"/>
    <tag k="tiger:name_base_1" v="State Highway 39"/>
    <tag k="tiger:name_direction_prefix" v="N"/>
    <tag k="tiger:name_type" v="Ave"/>
    <tag k="tiger:separated" v="yes"/>
    <tag k="tiger:source" v="tiger_import_dch_v0.6_20070809"/>
    <tag k="tiger:tlid" v="141708917:141708918:141708942:141708944:141708945:141709037:141709040:141709042:141709055:141709091:141709094:141709102:141709363:141709056"/>
    <tag k="tiger:zip_left" v="91702"/>
    <tag k="tiger:zip_right" v="91702"/>
  </way>
  <way id="42834462" version="2" timestamp="2010-03-28T11:04:43Z" uid="20587" user="balrog-kun" changeset="4254597">
    <nd ref="535910614"/>
    <nd ref="535910622"/>
    <nd ref="535910615"/>
    <nd ref="535910619"/>
    <nd ref="364294631"/>
    <nd ref="364294630"/>
    <nd ref="535910613"/>
    <nd ref="535910611"/>
    <nd ref="535910608"/>
    <nd ref="122639251"/>
    <tag k="highway" v="secondary"/>
    <tag k="name" v="Azusa Avenue"/>
    <tag k="oneway" v="yes"/>
    <tag k="ref" v="CA 39"/>
    <tag k="tiger:cfcc" v="A25"/>
    <tag k="tiger:county" v="Los Angeles, CA"/>
    <tag k="tiger:name_base" v="San Gabriel"/>
    <tag k="tiger:name_base_1" v="State Highway 39"/>
    <tag k="tiger:name_direction_prefix" v="N"/>
    <tag k="tiger:name_type" v="Ave"/>
    <tag k="tiger:separated" v="yes"/>
    <tag k="tiger:source" v="tiger_import_dch_v0.6_20070809"/>
    <tag k="tiger:tlid" v="141709292"/>
  </way>
  <way id="42834462" version="3" timestamp="2011-01-19T00:21:52Z" uid="82317" user="AM909" changeset="7016463">
    <nd ref="535910614"/>
    <nd ref="535910622"/>
    <nd ref="535910615"/>
    <nd ref="535910619"/>
    <nd ref="364294631"/>
    <nd ref="364294630"/>
    <nd ref="535910613"/>
    <nd ref="535910611"/>
    <nd ref="535910608"/>
    <nd ref="1109831780"/>
    <nd ref="122639251"/>
    <tag k="highway" v="secondary"/>
    <tag k="name" v="Azusa Avenue"/>
    <tag k="oneway" v="yes"/>
    <tag k="ref" v="CA 39"/>
    <tag k="source" v="bing_imagery_0.06m_200801;survey;image"/>
    <tag k="source_ref" v="AM909_IMG_0136"/>
    <tag k="tiger:cfcc" v="A25"/>
    <tag k="tiger:county" v="Los Angeles, CA"/>
    <tag k="tiger:name_base" v="San Gabriel"/>
    <tag k="tiger:name_base_1" v="State Highway 39"/>
    <tag k="tiger:name_direction_prefix" v="N"/>
    <tag k="tiger:name_type" v="Ave"/>
    <tag k="tiger:separated" v="yes"/>
    <tag k="tiger:source" v="tiger_import_dch_v0.6_20070809"/>
    <tag k="tiger:tlid" v="141709292"/>
  </way>
  <way id="42834463" version="4" timestamp="2010-03-28T11:04:44Z" uid="20587" user="balrog-kun" changeset="4254597">
    <nd ref="535910605"/>
    <nd ref="122977431"/>
    <tag k="highway" v="residential"/>
    <tag k="name" v="San Gabriel Avenue"/>
    <tag k="tiger:cfcc" v="A25"/>
    <tag k="tiger:county" v="Los Angeles, CA"/>
    <tag k="tiger:name_base" v="San Gabriel"/>
    <tag k="tiger:name_base_1" v="State Highway 39"/>
    <tag k="tiger:name_direction_prefix" v="N"/>
    <tag k="tiger:name_type" v="Ave"/>
    <tag k="tiger:separated" v="yes"/>
    <tag k="tiger:source" v="tiger_import_dch_v0.6_20070809"/>
    <tag k="tiger:tlid" v="141708862:141708901:141708904:141708999:141708895:142249252:142249253:141709002:141709009:141709011:141709030:141709034:141709289"/>
    <tag k="tiger:zip_left" v="91702"/>
    <tag k="tiger:zip_right" v="91702"/>
  </way>
  <way id="42834464" version="3" timestamp="2010-03-28T11:04:44Z" uid="20587" user="balrog-kun" changeset="4254597">
    <nd ref="535910605"/>
    <nd ref="535910606"/>
    <nd ref="535910616"/>
    <nd ref="535910617"/>
    <nd ref="535910618"/>
    <nd ref="535910619"/>
    <tag k="highway" v="residential"/>
    <tag k="name" v="Azusa Avenue Access"/>
    <tag k="oneway" v="yes"/>
  </way>
  <way id="42834465" version="2" timestamp="2010-03-28T11:04:44Z" uid="20587" user="balrog-kun" changeset="4254597">
    <nd ref="535910607"/>
    <nd ref="123139028"/>
    <nd ref="535910610"/>
    <nd ref="535910609"/>
    <nd ref="123578265"/>
    <tag k="highway" v="secondary"/>
    <tag k="name" v="Azusa Avenue"/>
    <tag k="oneway" v="yes"/>
    <tag k="ref" v="CA 39"/>
    <tag k="tiger:cfcc" v="A25"/>
    <tag k="tiger:county" v="Los Angeles, CA"/>
    <tag k="tiger:name_base" v="Azusa"/>
    <tag k="tiger:name_base_1" v="State Highway 39"/>
    <tag k="tiger:name_direction_prefix" v="N"/>
    <tag k="tiger:name_type" v="Ave"/>
    <tag k="tiger:separated" v="yes"/>
    <tag k="tiger:source" v="tiger_import_dch_v0.6_20070809"/>
    <tag k="tiger:tlid" v="141708917:141708918:141708942:141708944:141708945:141709037:141709040:141709042:141709055:141709091:141709094:141709102:141709363:141709056"/>
    <tag k="tiger:zip_left" v="91702"/>
    <tag k="tiger:zip_right" v="91702"/>
  </way>
  <way id="42834465" version="3" timestamp="2011-01-19T00:21:43Z" uid="82317" user="AM909" changeset="7016463">
    <nd ref="122639251"/>
    <nd ref="1109831809"/>
    <nd ref="123139028"/>
    <nd ref="535910610"/>
    <nd ref="535910609"/>
    <nd ref="123578265"/>
    <tag k="highway" v="secondary"/>
    <tag k="name" v="Azusa Avenue"/>
    <tag k="oneway" v="yes"/>
    <tag k="ref" v="CA 39"/>
    <tag k="source" v="bing_imagery_0.06m_200801;survey;image"/>
    <tag k="source_ref" v="AM909_IMG_0136"/>
    <tag k="tiger:cfcc" v="A25"/>
    <tag k="tiger:county" v="Los Angeles, CA"/>
    <tag k="tiger:name_base" v="Azusa"/>
    <tag k="tiger:name_base_1" v="State Highway 39"/>
    <tag k="tiger:name_direction_prefix" v="N"/>
    <tag k="tiger:name_type" v="Ave"/>
    <tag k="tiger:separated" v="yes"/>
    <tag k="tiger:source" v="tiger_import_dch_v0.6_20070809"/>
    <tag k="tiger:tlid" v="141708917:141708918:141708942:141708944:141708945:141709037:141709040:141709042:141709055:141709091:141709094:141709102:141709363:141709056"/>
    <tag k="tiger:zip_left" v="91702"/>
    <tag k="tiger:zip_right" v="91702"/>
  </way>
  <way id="42834466" version="4" timestamp="2010-03-28T11:04:44Z" uid="20587" user="balrog-kun" changeset="4254597">
    <nd ref="122639257"/>
    <nd ref="122639261"/>
    <nd ref="122639263"/>
    <nd ref="122639265"/>
    <nd ref="122639268"/>
    <nd ref="122639271"/>
    <nd ref="122639273"/>
    <nd ref="122639278"/>
    <tag k="highway" v="primary"/>
    <tag k="name" v="Azusa Avenue"/>
    <tag k="ref" v="CA 39"/>
    <tag k="tiger:cfcc" v="A31"/>
    <tag k="tiger:county" v="Los Angeles, CA"/>
    <tag k="tiger:name_base" v="State Highway 39"/>
    <tag k="tiger:name_base_1" v="Azusa"/>
    <tag k="tiger:name_direction_prefix_1" v="S"/>
    <tag k="tiger:name_type_1" v="Ave"/>
    <tag k="tiger:separated" v="no"/>
    <tag k="tiger:source" v="tiger_import_dch_v0.6_20070809"/>
    <tag k="tiger:tlid" v="141709505:141709506:141709514:141709403:141709405:141709408:141709412:141709413:141709418:141709421:141709365:141709371:141709372:141709373:142245402"/>
    <tag k="tiger:zip_left" v="91702"/>
    <tag k="tiger:zip_right" v="91702"/>
  </way>
  <way id="42834466" version="5" timestamp="2010-11-22T04:53:58Z" uid="194231" user="Chris Bell in California" changeset="6428825">
    <nd ref="122639257"/>
    <nd ref="999042391"/>
    <tag k="highway" v="primary"/>
    <tag k="name" v="Azusa Avenue"/>
    <tag k="ref" v="CA 39"/>
    <tag k="tiger:cfcc" v="A31"/>
    <tag k="tiger:county" v="Los Angeles, CA"/>
    <tag k="tiger:name_base" v="State Highway 39"/>
    <tag k="tiger:name_base_1" v="Azusa"/>
    <tag k="tiger:name_direction_prefix_1" v="S"/>
    <tag k="tiger:name_type_1" v="Ave"/>
    <tag k="tiger:separated" v="no"/>
    <tag k="tiger:source" v="tiger_import_dch_v0.6_20070809"/>
    <tag k="tiger:tlid" v="141709505:141709506:141709514:141709403:141709405:141709408:141709412:141709413:141709418:141709421:141709365:141709371:141709372:141709373:142245402"/>
    <tag k="tiger:zip_left" v="91702"/>
    <tag k="tiger:zip_right" v="91702"/>
  </way>
  <way id="42834466" version="6" timestamp="2011-06-27T14:53:58Z" uid="473471" user="NE3" changeset="8562928">
    <nd ref="122639257"/>
    <nd ref="999042391"/>
    <tag k="FIXME" v="dual carriageway"/>
    <tag k="highway" v="primary"/>
    <tag k="lanes" v="4"/>
    <tag k="name" v="Azusa Avenue"/>
    <tag k="ref" v="CA 39"/>
    <tag k="tiger:cfcc" v="A31"/>
    <tag k="tiger:county" v="Los Angeles, CA"/>
    <tag k="tiger:name_base" v="State Highway 39"/>
    <tag k="tiger:name_base_1" v="Azusa"/>
    <tag k="tiger:name_direction_prefix_1" v="S"/>
    <tag k="tiger:name_type_1" v="Ave"/>
    <tag k="tiger:separated" v="no"/>
    <tag k="tiger:source" v="tiger_import_dch_v0.6_20070809"/>
    <tag k="tiger:tlid" v="141709505:141709506:141709514:141709403:141709405:141709408:141709412:141709413:141709418:141709421:141709365:141709371:141709372:141709373:142245402"/>
    <tag k="tiger:zip_left" v="91702"/>
    <tag k="tiger:zip_right" v="91702"/>
  </way>
  <way id="42834494" version="4" timestamp="2011-03-03T20:45:42Z" uid="20587" user="balrog-kun" changeset="7449473">
    <nd ref="535910885"/>
    <nd ref="1165127741"/>
    <nd ref="535910886"/>
    <nd ref="535910887"/>
    <nd ref="535910888"/>
    <nd ref="1004512843"/>
    <nd ref="1004512845"/>
    <nd ref="1004512792"/>
    <nd ref="535910885"/>
    <tag k="leisure" v="park"/>
    <tag k="name" v="Park imienia Michała Klepacza"/>
    <tag k="old_name" v="Park imienia Stanisława Worcella"/>
    <tag k="wikipedia" v="pl:Park Klepacza w Łodzi"/>
  </way>
  <way id="42834494" version="5" timestamp="2011-06-14T09:43:09Z" uid="66036" user="h4v" changeset="8435400">
    <nd ref="535910885"/>
    <nd ref="1165127741"/>
    <nd ref="535910886"/>
    <nd ref="535910887"/>
    <nd ref="535910888"/>
    <nd ref="1004512843"/>
    <nd ref="1004512845"/>
    <nd ref="1004512792"/>
    <nd ref="535910885"/>
    <tag k="heritage" v="2"/>
    <tag k="heritage:operator" v="nid"/>
    <tag k="historic" v="heritage"/>
    <tag k="leisure" v="park"/>
    <tag k="name" v="Park imienia Michała Klepacza"/>
    <tag k="old_name" v="Park imienia Stanisława Worcella"/>
    <tag k="ref:nid" v="A/292"/>
    <tag k="wikipedia" v="pl:Park Klepacza w Łodzi"/>
  </way>
  <way id="42834494" version="6" timestamp="2012-02-09T09:15:04Z" uid="73912" user="Jacek_lodz" changeset="10631827">
    <nd ref="535910885"/>
    <nd ref="1165127741"/>
    <nd ref="535910886"/>
    <nd ref="535910887"/>
    <nd ref="535910888"/>
    <nd ref="1004512843"/>
    <nd ref="1004512845"/>
    <nd ref="1004512792"/>
    <nd ref="535910885"/>
    <tag k="heritage" v="2"/>
    <tag k="heritage:operator" v="nid"/>
    <tag k="historic" v="heritage"/>
    <tag k="leisure" v="park"/>
    <tag k="name" v="Park imienia Michała Klepacza"/>
    <tag k="old_name" v="Park imienia Stanisława Worcella"/>
    <tag k="ref:nid" v="A/292"/>
    <tag k="tourism" v="attraction"/>
    <tag k="wikipedia" v="pl:Park Klepacza w Łodzi"/>
  </way>
</osm>
