<?xml version='1.0' encoding='UTF-8'?>
<osm version="0.6" generator="libosmium/2.20.0">
  <way id="42988025" version="2" timestamp="2010-03-28T11:05:29Z" uid="20587" user="balrog-kun" changeset="4254597">
    <nd ref="538413057"/>
    <nd ref="538413058"/>
    <tag k="highway" v="residential"/>
    <tag k="name" v="Archwood Court"/>
  </way>
  <way id="42988025" version="3" timestamp="2011-08-18T20:20:54Z" uid="82317" user="AM909" changeset="9060364">
    <nd ref="538413057"/>
    <nd ref="538413058"/>
    <tag k="highway" v="residential"/>
    <tag k="name" v="Archwood Court"/>
    <tag k="source" v="bing_imagery_0.06m_200706;survey;image"/>
    <tag k="source_ref" v="AM909_DSCX9146"/>
  </way>
  <way id="42988541" version="2" timestamp="2010-03-28T11:05:29Z" uid="20587" user="balrog-kun" changeset="4254597">
    <nd ref="538415512"/>
    <nd ref="538415513"/>
    <tag k="highway" v="residential"/>
    <tag k="name" v="Rockrun Court"/>
  </way>
  <way id="42988541" version="3" timestamp="2011-08-18T20:20:44Z" uid="82317" user="AM909" changeset="9060364">
    <nd ref="538415512"/>
    <nd ref="538415513"/>
    <tag k="highway" v="residential"/>
    <tag k="image_direction" v="E"/>
    <tag k="name" v="Rockrun Court"/>
    <tag k="source" v="bing_imagery_0.25m_201005;survey;image"/>
    <tag k="source_ref" v="AM909_DSCX9161"/>
  </way>
  <way id="42988541" version="4" timestamp="2011-08-20T00:01:02Z" uid="82317" user="AM909" changeset="9070382">
    <nd ref="538415512"/>
    <nd ref="538415513"/>
    <tag k="highway" v="residential"/>
    <tag k="name" v="Rockrun Court"/>
    <tag k="source" v="bing_imagery_0.25m_201005;survey;image"/>
    <tag k="source_ref" v="AM909_DSCX9161"/>
  </way>
</osm>
