<?xml version='1.0' encoding='UTF-8'?>
<osm version="0.6" generator="libosmium/2.20.0">
  <way id="4303020" version="3" timestamp="2008-06-03T22:05:57Z" uid="2566" user="Sven S_" changeset="45056">
    <nd ref="26019617"/>
    <nd ref="26019618"/>
    <nd ref="252537451"/>
    <nd ref="265090292"/>
    <tag k="abutters" v="residential"/>
    <tag k="created_by" v="JOSM"/>
    <tag k="highway" v="residential"/>
    <tag k="maxspeed" v="30"/>
    <tag k="name" v="Rektor-Ritter-Straße"/>
  </way>
  <way id="4303020" version="4" timestamp="2008-06-05T06:30:53Z" uid="27600" user="Islanit" changeset="53894">
    <nd ref="26019617"/>
    <nd ref="26019618"/>
    <nd ref="252537451"/>
    <nd ref="265090292"/>
    <tag k="abutters" v="residential"/>
    <tag k="created_by" v="Potlatch 0.9c"/>
    <tag k="highway" v="residential"/>
    <tag k="maxspeed" v="30"/>
    <tag k="name" v="Rektor-Ritter-Straße"/>
  </way>
  <way id="4303020" version="5" timestamp="2008-08-09T09:17:27Z" uid="1852" user="Sven Anders" changeset="153508">
    <nd ref="26019617"/>
    <nd ref="26019618"/>
    <nd ref="252537451"/>
    <nd ref="265090292"/>
    <tag k="abutters" v="residential"/>
    <tag k="created_by" v="Potlatch 0.9c"/>
    <tag k="highway" v="residential"/>
    <tag k="maxspeed" v="30"/>
    <tag k="name" v="Rektor-Ritter-Straße"/>
    <tag k="postal_code" v="21029"/>
  </way>
  <way id="4303020" version="6" timestamp="2008-09-11T13:36:02Z" uid="27600" user="Islanit" changeset="606507">
    <nd ref="26019617"/>
    <nd ref="295879924"/>
    <nd ref="26019618"/>
    <nd ref="252537451"/>
    <nd ref="265090292"/>
    <tag k="abutters" v="residential"/>
    <tag k="created_by" v="Potlatch 0.10b"/>
    <tag k="highway" v="residential"/>
    <tag k="maxspeed" v="30"/>
    <tag k="name" v="Rektor-Ritter-Straße"/>
    <tag k="postal_code" v="21029"/>
  </way>
  <way id="4303020" version="7" timestamp="2009-06-17T14:43:13Z" uid="112195" user="Jochend" changeset="1545942">
    <nd ref="26019617"/>
    <nd ref="295879924"/>
    <nd ref="26019618"/>
    <nd ref="252537451"/>
    <nd ref="265090292"/>
    <tag k="created_by" v="Potlatch 0.10b"/>
    <tag k="highway" v="residential"/>
    <tag k="maxspeed" v="30"/>
    <tag k="name" v="Rektor-Ritter-Straße"/>
    <tag k="postal_code" v="21029"/>
  </way>
  <way id="4303020" version="8" timestamp="2009-07-04T18:29:30Z" uid="48437" user="svd" changeset="1731960">
    <nd ref="26019617"/>
    <nd ref="295879924"/>
    <nd ref="26019618"/>
    <tag k="created_by" v="Potlatch 0.10b"/>
    <tag k="highway" v="residential"/>
    <tag k="maxspeed" v="30"/>
    <tag k="name" v="Rektor-Ritter-Straße"/>
    <tag k="postal_code" v="21029"/>
  </way>
  <way id="4303020" version="9" timestamp="2010-02-04T20:24:05Z" uid="63375" user="Divjo" changeset="3793178">
    <nd ref="26019617"/>
    <nd ref="295879924"/>
    <nd ref="26019618"/>
    <tag k="highway" v="residential"/>
    <tag k="maxspeed" v="30"/>
    <tag k="name" v="Rektor-Ritter-Straße"/>
    <tag k="postal_code" v="21029"/>
  </way>
  <way id="4303020" version="10" timestamp="2012-03-05T18:22:51Z" uid="63375" user="Divjo" changeset="10882411"/>
  <way id="4303021" version="3" timestamp="2008-05-17T12:39:55Z" uid="27600" user="Islanit" changeset="463975">
    <nd ref="252537738"/>
    <nd ref="265090270"/>
    <nd ref="26019618"/>
    <nd ref="26019619"/>
    <nd ref="30696481"/>
    <nd ref="30696482"/>
    <nd ref="30696483"/>
    <nd ref="30696484"/>
    <nd ref="30696485"/>
    <nd ref="30696480"/>
    <tag k="abutters" v="residential"/>
    <tag k="created_by" v="Potlatch 0.9a"/>
    <tag k="highway" v="residential"/>
    <tag k="maxspeed" v="30"/>
    <tag k="name" v="Neuer Weg"/>
  </way>
  <way id="4303021" version="4" timestamp="2008-06-05T06:30:00Z" uid="27600" user="Islanit" changeset="53894">
    <nd ref="252537738"/>
    <nd ref="265090270"/>
    <nd ref="26019618"/>
    <nd ref="26019619"/>
    <nd ref="30696481"/>
    <nd ref="30696482"/>
    <nd ref="30696483"/>
    <nd ref="30696484"/>
    <nd ref="30696485"/>
    <nd ref="30696480"/>
    <tag k="abutters" v="residential"/>
    <tag k="created_by" v="Potlatch 0.9c"/>
    <tag k="highway" v="residential"/>
    <tag k="maxspeed" v="30"/>
    <tag k="name" v="Neuer Weg"/>
  </way>
  <way id="4303021" version="5" timestamp="2008-06-05T06:30:29Z" uid="27600" user="Islanit" changeset="53894">
    <nd ref="252537738"/>
    <nd ref="265090270"/>
    <nd ref="26019618"/>
    <nd ref="26019619"/>
    <nd ref="30696481"/>
    <nd ref="30696482"/>
    <nd ref="30696483"/>
    <nd ref="30696484"/>
    <nd ref="30696485"/>
    <nd ref="30696480"/>
    <tag k="abutters" v="residential"/>
    <tag k="created_by" v="Potlatch 0.9c"/>
    <tag k="highway" v="residential"/>
    <tag k="maxspeed" v="30"/>
    <tag k="name" v="Neuer Weg"/>
  </way>
  <way id="4303021" version="6" timestamp="2008-06-05T15:38:19Z" uid="27600" user="Islanit" changeset="56098">
    <nd ref="252537738"/>
    <nd ref="265090270"/>
    <nd ref="26019618"/>
    <nd ref="26019619"/>
    <nd ref="30696481"/>
    <nd ref="30696482"/>
    <nd ref="30696483"/>
    <nd ref="30696484"/>
    <nd ref="30696480"/>
    <tag k="abutters" v="residential"/>
    <tag k="created_by" v="Potlatch 0.9c"/>
    <tag k="highway" v="residential"/>
    <tag k="maxspeed" v="30"/>
    <tag k="name" v="Neuer Weg"/>
  </way>
  <way id="4303021" version="7" timestamp="2008-06-19T10:33:15Z" uid="27600" user="Islanit" changeset="225540">
    <nd ref="252537738"/>
    <nd ref="265090270"/>
    <nd ref="26019618"/>
    <nd ref="26019619"/>
    <nd ref="30696481"/>
    <nd ref="271297304"/>
    <nd ref="30696482"/>
    <nd ref="30696483"/>
    <nd ref="30696484"/>
    <nd ref="30696480"/>
    <tag k="abutters" v="residential"/>
    <tag k="created_by" v="Potlatch 0.9c"/>
    <tag k="highway" v="residential"/>
    <tag k="maxspeed" v="30"/>
    <tag k="name" v="Neuer Weg"/>
  </way>
  <way id="4303021" version="8" timestamp="2008-07-23T20:50:32Z" uid="27600" user="Islanit" changeset="577547">
    <nd ref="252537738"/>
    <nd ref="265090270"/>
    <nd ref="26019618"/>
    <nd ref="26019619"/>
    <nd ref="280560036"/>
    <nd ref="30696481"/>
    <nd ref="271297304"/>
    <nd ref="30696482"/>
    <nd ref="30696483"/>
    <nd ref="30696484"/>
    <nd ref="30696480"/>
    <tag k="abutters" v="residential"/>
    <tag k="created_by" v="Potlatch 0.10"/>
    <tag k="highway" v="residential"/>
    <tag k="maxspeed" v="30"/>
    <tag k="name" v="Neuer Weg"/>
  </way>
  <way id="4303021" version="9" timestamp="2008-07-25T14:54:46Z" uid="27600" user="Islanit" changeset="592410">
    <nd ref="252537738"/>
    <nd ref="265090270"/>
    <nd ref="281002132"/>
    <nd ref="26019618"/>
    <nd ref="26019619"/>
    <nd ref="280560036"/>
    <nd ref="30696481"/>
    <nd ref="271297304"/>
    <nd ref="30696482"/>
    <nd ref="30696483"/>
    <nd ref="30696484"/>
    <nd ref="30696480"/>
    <tag k="abutters" v="residential"/>
    <tag k="created_by" v="Potlatch 0.10"/>
    <tag k="highway" v="residential"/>
    <tag k="maxspeed" v="30"/>
    <tag k="name" v="Neuer Weg"/>
  </way>
  <way id="4303021" version="10" timestamp="2008-08-06T15:57:03Z" uid="27600" user="Islanit" changeset="107001">
    <nd ref="252537738"/>
    <nd ref="265090270"/>
    <nd ref="281002132"/>
    <nd ref="26019618"/>
    <nd ref="26019619"/>
    <nd ref="280560036"/>
    <nd ref="271297304"/>
    <nd ref="30696482"/>
    <nd ref="30696483"/>
    <nd ref="30696484"/>
    <nd ref="30696480"/>
    <tag k="abutters" v="residential"/>
    <tag k="created_by" v="Potlatch 0.10"/>
    <tag k="highway" v="residential"/>
    <tag k="maxspeed" v="30"/>
    <tag k="name" v="Neuer Weg"/>
  </way>
  <way id="4303021" version="11" timestamp="2008-08-09T09:17:27Z" uid="1852" user="Sven Anders" changeset="153508">
    <nd ref="252537738"/>
    <nd ref="265090270"/>
    <nd ref="281002132"/>
    <nd ref="26019618"/>
    <nd ref="26019619"/>
    <nd ref="280560036"/>
    <nd ref="271297304"/>
    <nd ref="30696482"/>
    <nd ref="30696483"/>
    <nd ref="30696484"/>
    <nd ref="30696480"/>
    <tag k="abutters" v="residential"/>
    <tag k="created_by" v="Potlatch 0.10"/>
    <tag k="highway" v="residential"/>
    <tag k="maxspeed" v="30"/>
    <tag k="name" v="Neuer Weg"/>
    <tag k="postal_code" v="21029"/>
  </way>
  <way id="4303021" version="12" timestamp="2008-09-22T21:45:00Z" uid="41512" user="Kuddl Klien" changeset="683557">
    <nd ref="252537738"/>
    <nd ref="265090270"/>
    <nd ref="281002132"/>
    <nd ref="26019618"/>
    <nd ref="26019619"/>
    <nd ref="280560036"/>
    <nd ref="271297304"/>
    <nd ref="30696482"/>
    <nd ref="30696483"/>
    <nd ref="30696484"/>
    <nd ref="30696480"/>
    <tag k="abutters" v="residential"/>
    <tag k="created_by" v="Potlatch 0.10b"/>
    <tag k="highway" v="residential"/>
    <tag k="maxspeed" v="30"/>
    <tag k="name" v="Neuer Weg"/>
    <tag k="postal_code" v="21029"/>
  </way>
  <way id="4303021" version="13" timestamp="2008-09-22T21:45:17Z" uid="41512" user="Kuddl Klien" changeset="683557">
    <nd ref="252537738"/>
    <nd ref="265090270"/>
    <nd ref="281002132"/>
    <nd ref="26019618"/>
    <nd ref="26019619"/>
    <nd ref="280560036"/>
    <nd ref="271297304"/>
    <nd ref="30696482"/>
    <nd ref="30696483"/>
    <nd ref="30696484"/>
    <nd ref="299155332"/>
    <nd ref="30696480"/>
    <tag k="abutters" v="residential"/>
    <tag k="created_by" v="Potlatch 0.10b"/>
    <tag k="highway" v="residential"/>
    <tag k="maxspeed" v="30"/>
    <tag k="name" v="Neuer Weg"/>
    <tag k="postal_code" v="21029"/>
  </way>
  <way id="4303021" version="14" timestamp="2009-06-17T14:43:13Z" uid="112195" user="Jochend" changeset="1545942">
    <nd ref="252537738"/>
    <nd ref="265090270"/>
    <nd ref="281002132"/>
    <nd ref="26019618"/>
    <nd ref="26019619"/>
    <nd ref="280560036"/>
    <nd ref="271297304"/>
    <nd ref="30696482"/>
    <nd ref="30696483"/>
    <nd ref="30696484"/>
    <nd ref="299155332"/>
    <nd ref="30696480"/>
    <tag k="created_by" v="Potlatch 0.10b"/>
    <tag k="highway" v="residential"/>
    <tag k="maxspeed" v="30"/>
    <tag k="name" v="Neuer Weg"/>
    <tag k="postal_code" v="21029"/>
  </way>
  <way id="4303021" version="15" timestamp="2009-07-04T18:29:30Z" uid="48437" user="svd" changeset="1731960">
    <nd ref="252537738"/>
    <nd ref="265090270"/>
    <nd ref="281002132"/>
    <nd ref="26019618"/>
    <tag k="created_by" v="Potlatch 0.10b"/>
    <tag k="highway" v="residential"/>
    <tag k="maxspeed" v="30"/>
    <tag k="name" v="Neuer Weg"/>
    <tag k="postal_code" v="21029"/>
  </way>
  <way id="4303021" version="16" timestamp="2010-02-04T20:24:10Z" uid="63375" user="Divjo" changeset="3793178">
    <nd ref="252537738"/>
    <nd ref="265090270"/>
    <nd ref="281002132"/>
    <nd ref="26019618"/>
    <tag k="highway" v="residential"/>
    <tag k="maxspeed" v="30"/>
    <tag k="name" v="Neuer Weg"/>
    <tag k="postal_code" v="21029"/>
  </way>
  <way id="4303021" version="17" timestamp="2012-03-10T08:21:05Z" uid="63375" user="Divjo" changeset="10929090"/>
  <way id="4303022" version="4" timestamp="2008-05-17T12:40:20Z" uid="27600" user="Islanit" changeset="463975">
    <nd ref="26019619"/>
    <nd ref="26019620"/>
    <nd ref="265090277"/>
    <nd ref="26019621"/>
    <nd ref="26019622"/>
    <tag k="created_by" v="Potlatch 0.9a"/>
    <tag k="highway" v="residential"/>
    <tag k="name" v="Brookdeich"/>
  </way>
  <way id="4303022" version="5" timestamp="2008-06-03T21:59:33Z" uid="2566" user="Sven S_" changeset="45056">
    <nd ref="26019619"/>
    <nd ref="268358232"/>
    <nd ref="26019620"/>
    <nd ref="265090277"/>
    <nd ref="26019621"/>
    <nd ref="26019622"/>
    <tag k="created_by" v="Potlatch 0.9a"/>
    <tag k="highway" v="residential"/>
    <tag k="name" v="Brookdeich"/>
  </way>
  <way id="4303022" version="6" timestamp="2008-06-05T06:30:25Z" uid="27600" user="Islanit" changeset="53894">
    <nd ref="26019619"/>
    <nd ref="268358232"/>
    <nd ref="26019620"/>
    <nd ref="265090277"/>
    <nd ref="26019621"/>
    <nd ref="26019622"/>
    <tag k="created_by" v="Potlatch 0.9c"/>
    <tag k="highway" v="residential"/>
    <tag k="name" v="Brookdeich"/>
  </way>
  <way id="4303022" version="7" timestamp="2008-08-09T09:17:28Z" uid="1852" user="Sven Anders" changeset="153508">
    <nd ref="26019619"/>
    <nd ref="268358232"/>
    <nd ref="26019620"/>
    <nd ref="265090277"/>
    <nd ref="26019621"/>
    <nd ref="26019622"/>
    <tag k="created_by" v="Potlatch 0.9c"/>
    <tag k="highway" v="residential"/>
    <tag k="name" v="Brookdeich"/>
    <tag k="postal_code" v="21029"/>
  </way>
  <way id="4303022" version="8" timestamp="2008-09-08T07:18:55Z" uid="27600" user="Islanit" changeset="570063">
    <nd ref="26019619"/>
    <nd ref="268358232"/>
    <nd ref="26019620"/>
    <nd ref="265090277"/>
    <nd ref="26019621"/>
    <nd ref="26019622"/>
    <tag k="created_by" v="Potlatch 0.10b"/>
    <tag k="highway" v="residential"/>
    <tag k="maxspeed" v="30"/>
    <tag k="name" v="Brookdeich"/>
    <tag k="postal_code" v="21029"/>
  </way>
  <way id="4303022" version="9" timestamp="2008-10-31T12:50:17Z" uid="27600" user="Islanit" changeset="642217"/>
  <way id="4303023" version="3" timestamp="2008-05-17T12:40:44Z" uid="27600" user="Islanit" changeset="463975">
    <nd ref="26019622"/>
    <nd ref="265090288"/>
    <nd ref="26019626"/>
    <nd ref="251015756"/>
    <tag k="created_by" v="Potlatch 0.9a"/>
    <tag k="highway" v="residential"/>
  </way>
  <way id="4303023" version="4" timestamp="2008-05-17T12:41:09Z" uid="27600" user="Islanit" changeset="463975">
    <nd ref="26019622"/>
    <nd ref="265090288"/>
    <nd ref="265090294"/>
    <nd ref="26019626"/>
    <nd ref="251015756"/>
    <tag k="created_by" v="Potlatch 0.9a"/>
    <tag k="highway" v="residential"/>
  </way>
  <way id="4303023" version="5" timestamp="2008-06-07T07:25:54Z" uid="27600" user="Islanit" changeset="80637">
    <nd ref="26019622"/>
    <nd ref="265090288"/>
    <nd ref="265090294"/>
    <nd ref="251015756"/>
    <tag k="created_by" v="Potlatch 0.9a"/>
    <tag k="highway" v="residential"/>
  </way>
  <way id="4303023" version="6" timestamp="2008-07-28T13:50:25Z" uid="45901" user="jorkh" changeset="616822">
    <nd ref="26019622"/>
    <nd ref="265090288"/>
    <nd ref="265090294"/>
    <nd ref="251015756"/>
    <tag k="created_by" v="Potlatch 0.10"/>
    <tag k="highway" v="residential"/>
    <tag k="name" v="Bleichertwiete"/>
  </way>
  <way id="4303023" version="7" timestamp="2008-08-09T09:17:29Z" uid="1852" user="Sven Anders" changeset="153508">
    <nd ref="26019622"/>
    <nd ref="265090288"/>
    <nd ref="265090294"/>
    <nd ref="251015756"/>
    <tag k="created_by" v="Potlatch 0.10"/>
    <tag k="highway" v="residential"/>
    <tag k="name" v="Bleichertwiete"/>
    <tag k="postal_code" v="21029"/>
  </way>
  <way id="4303023" version="8" timestamp="2010-02-04T20:24:38Z" uid="63375" user="Divjo" changeset="3793178">
    <nd ref="26019622"/>
    <nd ref="265090288"/>
    <nd ref="265090294"/>
    <nd ref="251015756"/>
    <tag k="highway" v="residential"/>
    <tag k="name" v="Bleichertwiete"/>
    <tag k="postal_code" v="21029"/>
  </way>
  <way id="4303023" version="9" timestamp="2010-07-12T06:42:42Z" uid="27600" user="Islanit" changeset="5196046">
    <nd ref="26019622"/>
    <nd ref="812846745"/>
    <tag k="highway" v="residential"/>
    <tag k="name" v="Bleichertwiete"/>
    <tag k="postal_code" v="21029"/>
  </way>
  <way id="4303023" version="10" timestamp="2012-03-09T17:39:02Z" uid="63375" user="Divjo" changeset="10922920"/>
  <way id="4303325" version="2" timestamp="2008-02-13T12:15:54Z" uid="6269" user="Mueck" changeset="111800">
    <nd ref="26022750"/>
    <nd ref="26022751"/>
    <nd ref="26022752"/>
    <nd ref="26022753"/>
    <nd ref="26022754"/>
    <nd ref="26022755"/>
    <nd ref="26022756"/>
    <nd ref="26022757"/>
    <nd ref="26022760"/>
    <nd ref="26022761"/>
    <nd ref="26022762"/>
    <nd ref="26022748"/>
    <nd ref="26022749"/>
    <nd ref="26022750"/>
    <tag k="created_by" v="Potlatch 0.7a"/>
    <tag k="layer" v="1"/>
    <tag k="railway" v="light_rail"/>
  </way>
  <way id="4303325" version="3" timestamp="2008-02-13T12:16:38Z" uid="6269" user="Mueck" changeset="111800">
    <nd ref="26022750"/>
    <nd ref="26022751"/>
    <tag k="created_by" v="Potlatch 0.7a"/>
    <tag k="layer" v="1"/>
    <tag k="railway" v="light_rail"/>
  </way>
  <way id="4303325" version="4" timestamp="2008-02-13T12:16:54Z" uid="6269" user="Mueck" changeset="111800"/>
  <way id="4303326" version="2" timestamp="2008-02-13T12:13:58Z" uid="6269" user="Mueck" changeset="111800">
    <nd ref="26009104"/>
    <nd ref="26022696"/>
    <nd ref="26022697"/>
    <nd ref="26022698"/>
    <nd ref="26022699"/>
    <nd ref="60639547"/>
    <nd ref="26022700"/>
    <nd ref="26022701"/>
    <nd ref="26022702"/>
    <nd ref="26022703"/>
    <nd ref="26022704"/>
    <nd ref="60639550"/>
    <nd ref="26022705"/>
    <nd ref="26022706"/>
    <nd ref="26022707"/>
    <nd ref="26022708"/>
    <nd ref="26022709"/>
    <nd ref="17329764"/>
    <nd ref="26022710"/>
    <nd ref="26022711"/>
    <nd ref="26022713"/>
    <nd ref="26022714"/>
    <nd ref="26022715"/>
    <nd ref="17329746"/>
    <tag k="created_by" v="Potlatch 0.7a"/>
    <tag k="layer" v="1"/>
    <tag k="railway" v="light_rail"/>
  </way>
  <way id="4303326" version="3" timestamp="2009-05-02T19:55:59Z" uid="6269" user="Mueck" changeset="1053393">
    <nd ref="26009104"/>
    <nd ref="26022696"/>
    <nd ref="26022697"/>
    <nd ref="26022698"/>
    <nd ref="26022699"/>
    <nd ref="60639547"/>
    <nd ref="26022700"/>
    <nd ref="26022701"/>
    <nd ref="26022702"/>
    <nd ref="26022703"/>
    <nd ref="26022704"/>
    <nd ref="60639550"/>
    <nd ref="26022705"/>
    <nd ref="26022706"/>
    <nd ref="26022707"/>
    <nd ref="26022708"/>
    <nd ref="26022709"/>
    <nd ref="17329764"/>
    <nd ref="26022710"/>
    <nd ref="26022711"/>
    <nd ref="26022713"/>
    <nd ref="26022714"/>
    <nd ref="26022715"/>
    <nd ref="17329746"/>
    <nd ref="17329731"/>
    <tag k="created_by" v="Potlatch 0.7a"/>
    <tag k="layer" v="1"/>
    <tag k="railway" v="light_rail"/>
  </way>
  <way id="4303326" version="4" timestamp="2010-05-04T20:57:01Z" uid="12178" user="edwin-ldbg" changeset="4608243">
    <nd ref="26009104"/>
    <nd ref="26022696"/>
    <nd ref="26022697"/>
    <nd ref="26022698"/>
    <nd ref="26022699"/>
    <nd ref="60639547"/>
    <nd ref="26022700"/>
    <nd ref="26022701"/>
    <nd ref="26022702"/>
    <nd ref="26022703"/>
    <nd ref="26022704"/>
    <nd ref="60639550"/>
    <nd ref="26022705"/>
    <nd ref="26022706"/>
    <nd ref="26022707"/>
    <nd ref="26022708"/>
    <nd ref="26022709"/>
    <nd ref="721482480"/>
    <tag k="layer" v="1"/>
    <tag k="railway" v="light_rail"/>
  </way>
  <way id="4303326" version="5" timestamp="2011-07-20T12:44:19Z" uid="118006" user="vwistuttgart" changeset="8778292">
    <nd ref="26009104"/>
    <nd ref="26022696"/>
    <nd ref="26022697"/>
    <tag k="electrified" v="contact_line"/>
    <tag k="frequency" v="0"/>
    <tag k="layer" v="1"/>
    <tag k="railway" v="rail"/>
    <tag k="tracks" v="2"/>
    <tag k="voltage" v="750"/>
  </way>
  <way id="4303326" version="6" timestamp="2011-10-05T09:58:06Z" uid="118006" user="vwistuttgart" changeset="9476725">
    <nd ref="26009104"/>
    <nd ref="26022696"/>
    <nd ref="26022697"/>
    <tag k="electrified" v="contact_line"/>
    <tag k="frequency" v="0"/>
    <tag k="layer" v="1"/>
    <tag k="railway" v="light_rail"/>
    <tag k="tracks" v="2"/>
    <tag k="voltage" v="750"/>
  </way>
  <way id="4303326" version="7" timestamp="2011-11-02T00:09:14Z" uid="42429" user="FK270673" changeset="9718158">
    <nd ref="26009104"/>
    <nd ref="26022696"/>
    <nd ref="26022697"/>
    <tag k="electrified" v="contact_line"/>
    <tag k="frequency" v="0"/>
    <tag k="gauge" v="1435"/>
    <tag k="layer" v="1"/>
    <tag k="railway" v="light_rail"/>
    <tag k="tracks" v="2"/>
    <tag k="voltage" v="750"/>
  </way>
  <way id="4303326" version="8" timestamp="2012-03-03T00:16:24Z" uid="604910" user="Will Pittenger" changeset="10853769"/>
  <way id="4303477" version="5" timestamp="2009-02-01T18:11:42Z" uid="6975" user="ulfl" changeset="27333">
    <nd ref="274186"/>
    <nd ref="25689395"/>
    <nd ref="250586426"/>
    <nd ref="25431612"/>
    <nd ref="25370546"/>
    <nd ref="25308135"/>
    <tag k="highway" v="primary"/>
    <tag k="lanes" v="2"/>
    <tag k="maxspeed" v="70"/>
    <tag k="name" v="Route de la Valmasque"/>
    <tag k="oneway" v="true"/>
    <tag k="ref" v="D35"/>
  </way>
  <way id="4303477" version="6" timestamp="2009-03-24T07:43:03Z" uid="24247" user="Vlad" changeset="853770">
    <nd ref="274186"/>
    <nd ref="365228163"/>
    <nd ref="25689395"/>
    <nd ref="250586426"/>
    <nd ref="25431612"/>
    <nd ref="25370546"/>
    <nd ref="25308135"/>
    <tag k="created_by" v="Merkaartor 0.12"/>
    <tag k="highway" v="primary"/>
    <tag k="lanes" v="2"/>
    <tag k="maxspeed" v="70"/>
    <tag k="name" v="Route de la Valmasque"/>
    <tag k="oneway" v="true"/>
    <tag k="ref" v="D35"/>
  </way>
  <way id="4303477" version="7" timestamp="2009-11-09T19:44:51Z" uid="181250" user="Gnurfos" changeset="3076814">
    <nd ref="274186"/>
    <nd ref="365228163"/>
    <nd ref="25689395"/>
    <nd ref="250586426"/>
    <nd ref="25431612"/>
    <nd ref="25370546"/>
    <nd ref="25308135"/>
    <tag k="highway" v="primary"/>
    <tag k="lanes" v="2"/>
    <tag k="maxspeed" v="70"/>
    <tag k="name" v="Route de la Valmasque"/>
    <tag k="oneway" v="yes"/>
    <tag k="ref" v="D35"/>
  </way>
  <way id="4303477" version="8" timestamp="2009-12-31T16:51:05Z" uid="201149" user="PierenBot" changeset="3502496">
    <nd ref="274186"/>
    <nd ref="365228163"/>
    <nd ref="25689395"/>
    <nd ref="250586426"/>
    <nd ref="25431612"/>
    <nd ref="25370546"/>
    <nd ref="25308135"/>
    <tag k="highway" v="primary"/>
    <tag k="lanes" v="2"/>
    <tag k="maxspeed" v="70"/>
    <tag k="name" v="Route de la Valmasque"/>
    <tag k="oneway" v="yes"/>
    <tag k="ref" v="D 35"/>
  </way>
  <way id="4303477" version="9" timestamp="2010-07-26T01:43:01Z" uid="155462" user="Bert Bos" changeset="5317819">
    <nd ref="274186"/>
    <nd ref="365228163"/>
    <nd ref="25689395"/>
    <nd ref="250586426"/>
    <nd ref="25431612"/>
    <nd ref="25370546"/>
    <nd ref="25308135"/>
    <tag k="highway" v="primary"/>
    <tag k="lanes" v="2"/>
    <tag k="maxspeed" v="70"/>
    <tag k="name" v="Route de la Valmasque"/>
    <tag k="oneway" v="yes"/>
    <tag k="ref" v="D 35"/>
  </way>
  <way id="4303573" version="20" timestamp="2010-02-15T15:59:46Z" uid="23543" user="jkjk" changeset="3884276">
    <nd ref="355157872"/>
    <nd ref="639860414"/>
    <tag k="bridge" v="yes"/>
    <tag k="highway" v="trunk"/>
    <tag k="layer" v="1"/>
    <tag k="name" v="Av. de Mozambique"/>
  </way>
  <way id="4303635" version="12" timestamp="2010-04-10T21:38:51Z" uid="6269" user="Mueck" changeset="4387611">
    <nd ref="26562418"/>
    <nd ref="26562419"/>
    <nd ref="692168568"/>
    <tag k="VzG" v="1740"/>
    <tag k="gauge" v="1435"/>
    <tag k="name" v="Bremerhaven-Wunstorf"/>
    <tag k="railway" v="rail"/>
    <tag k="source" v="Landsat/Yahoo/GPS-Track"/>
  </way>
  <way id="4303635" version="13" timestamp="2010-12-09T02:37:52Z" uid="6269" user="Mueck" changeset="6591496">
    <nd ref="26562418"/>
    <nd ref="1028995249"/>
    <nd ref="1028995266"/>
    <nd ref="26562419"/>
    <nd ref="692168568"/>
    <tag k="VzG" v="1740"/>
    <tag k="electrified" v="contact_line"/>
    <tag k="embankment" v="yes"/>
    <tag k="gauge" v="1435"/>
    <tag k="name" v="Bremerhaven-Wunstorf"/>
    <tag k="railway" v="rail"/>
    <tag k="source" v="bing"/>
  </way>
  <way id="4303635" version="14" timestamp="2010-12-15T02:44:20Z" uid="6269" user="Mueck" changeset="6664352">
    <nd ref="26562418"/>
    <nd ref="1028995249"/>
    <nd ref="1028995266"/>
    <nd ref="26562419"/>
    <nd ref="692168568"/>
    <tag k="VzG" v="1740"/>
    <tag k="electrified" v="contact_line"/>
    <tag k="embankment" v="yes"/>
    <tag k="gauge" v="1435"/>
    <tag k="name" v="Bremerhaven-Wunstorf"/>
    <tag k="railway" v="rail"/>
    <tag k="source" v="bing"/>
    <tag k="usage" v="main"/>
  </way>
  <way id="4303649" version="5" timestamp="2008-06-10T16:38:46Z" uid="27600" user="Islanit" changeset="122707">
    <nd ref="21377826"/>
    <nd ref="26025530"/>
    <nd ref="26025525"/>
    <nd ref="26025527"/>
    <nd ref="26025533"/>
    <tag k="created_by" v="JOSM"/>
    <tag k="highway" v="motorway_link"/>
    <tag k="name" v="AB Kreuz 3 Hamburg-Ost"/>
    <tag k="oneway" v="true"/>
  </way>
  <way id="4303649" version="6" timestamp="2008-07-29T14:21:24Z" uid="32762" user="Volka" changeset="623011">
    <nd ref="21377826"/>
    <nd ref="26025530"/>
    <nd ref="26025525"/>
    <nd ref="26025527"/>
    <nd ref="26025533"/>
    <tag k="created_by" v="JOSM"/>
    <tag k="highway" v="motorway_link"/>
    <tag k="maxspeed" v="80"/>
    <tag k="name" v="AB Kreuz 3 Hamburg-Ost"/>
    <tag k="oneway" v="true"/>
    <tag k="ref" v="A 1"/>
  </way>
  <way id="4303649" version="7" timestamp="2008-07-30T09:40:28Z" uid="32762" user="Volka" changeset="625795">
    <nd ref="21377826"/>
    <nd ref="26025530"/>
    <nd ref="26025525"/>
    <nd ref="26025527"/>
    <nd ref="26025533"/>
    <tag k="created_by" v="Potlatch 0.10a"/>
    <tag k="highway" v="motorway_link"/>
    <tag k="maxspeed" v="80"/>
    <tag k="oneway" v="yes"/>
    <tag k="ref" v="A 1"/>
  </way>
  <way id="4303649" version="8" timestamp="2008-07-30T09:44:38Z" uid="32762" user="Volka" changeset="625795">
    <nd ref="21377826"/>
    <nd ref="26025530"/>
    <nd ref="26025525"/>
    <nd ref="26025527"/>
    <nd ref="26025533"/>
    <tag k="created_by" v="Potlatch 0.10a"/>
    <tag k="highway" v="motorway_link"/>
    <tag k="maxspeed" v="80"/>
    <tag k="oneway" v="yes"/>
    <tag k="ref" v="A 1"/>
  </way>
  <way id="4303649" version="9" timestamp="2008-07-30T12:10:00Z" uid="32762" user="Volka" changeset="627004">
    <nd ref="21377826"/>
    <nd ref="26025530"/>
    <nd ref="26025525"/>
    <nd ref="26025527"/>
    <nd ref="13330264"/>
    <tag k="created_by" v="Potlatch 0.10a"/>
    <tag k="highway" v="motorway_link"/>
    <tag k="maxspeed" v="80"/>
    <tag k="oneway" v="yes"/>
    <tag k="ref" v="A 1"/>
  </way>
  <way id="4303649" version="10" timestamp="2008-08-01T20:16:52Z" uid="4902" user="mbuege" changeset="9161">
    <nd ref="21377826"/>
    <nd ref="26025530"/>
    <nd ref="26025525"/>
    <nd ref="26025527"/>
    <nd ref="13330264"/>
    <tag k="created_by" v="Potlatch 0.10a"/>
    <tag k="highway" v="motorway_link"/>
    <tag k="maxspeed" v="80"/>
    <tag k="oneway" v="yes"/>
    <tag k="ref" v="A 1"/>
  </way>
  <way id="4303649" version="11" timestamp="2010-02-06T11:18:09Z" uid="63375" user="Divjo" changeset="3804126">
    <nd ref="21377826"/>
    <nd ref="26025530"/>
    <nd ref="26025525"/>
    <nd ref="26025527"/>
    <nd ref="13330264"/>
    <tag k="highway" v="motorway_link"/>
    <tag k="maxspeed" v="80"/>
    <tag k="oneway" v="yes"/>
    <tag k="ref" v="A 1"/>
  </way>
  <way id="4303649" version="12" timestamp="2010-12-09T19:40:19Z" uid="4424" user="Johann-Nikolaus Andreae" changeset="6598504">
    <nd ref="21377826"/>
    <nd ref="1029888585"/>
    <nd ref="26025530"/>
    <nd ref="26025525"/>
    <nd ref="26025527"/>
    <nd ref="13330264"/>
    <tag k="highway" v="motorway_link"/>
    <tag k="maxspeed" v="80"/>
    <tag k="oneway" v="yes"/>
    <tag k="ref" v="A 1"/>
  </way>
  <way id="4303649" version="13" timestamp="2011-07-18T12:14:41Z" uid="30077" user="ChristianW" changeset="8757771">
    <nd ref="21377826"/>
    <nd ref="1029888585"/>
    <nd ref="26025530"/>
    <nd ref="26025525"/>
    <nd ref="26025527"/>
    <nd ref="13330264"/>
    <tag k="highway" v="motorway_link"/>
    <tag k="lit" v="no"/>
    <tag k="maxspeed" v="80"/>
    <tag k="oneway" v="yes"/>
    <tag k="ref" v="A 1"/>
  </way>
  <way id="4303763" version="4" timestamp="2008-03-30T22:58:38Z" uid="16922" user="amai" changeset="433150">
    <nd ref="25932684"/>
    <nd ref="25932685"/>
    <nd ref="25932683"/>
    <nd ref="30969889"/>
    <nd ref="26009931"/>
    <nd ref="26026268"/>
    <tag k="created_by" v="Potlatch 0.8a"/>
    <tag k="highway" v="primary"/>
    <tag k="name" v="Rüppurrer Straße"/>
    <tag k="oneway" v="yes"/>
  </way>
  <way id="4303763" version="5" timestamp="2008-07-30T10:30:55Z" uid="6269" user="Mueck" changeset="628766">
    <nd ref="25932684"/>
    <nd ref="25932685"/>
    <nd ref="25932683"/>
    <nd ref="30969889"/>
    <nd ref="26009931"/>
    <nd ref="26026268"/>
    <tag k="abutters" v="residential"/>
    <tag k="created_by" v="Potlatch 0.10a"/>
    <tag k="highway" v="tertiary"/>
    <tag k="name" v="Rüppurrer Straße"/>
    <tag k="note" v="im SHP des NVK: III"/>
    <tag k="oneway" v="yes"/>
  </way>
  <way id="4303763" version="6" timestamp="2008-09-03T14:48:22Z" uid="6269" user="Mueck" changeset="512789">
    <nd ref="25932684"/>
    <nd ref="25932685"/>
    <nd ref="25932683"/>
    <nd ref="30969889"/>
    <nd ref="26009931"/>
    <nd ref="26026268"/>
    <tag k="abutters" v="residential"/>
    <tag k="created_by" v="Potlatch 0.10b"/>
    <tag k="highway" v="secondary"/>
    <tag k="name" v="Rüppurrer Straße"/>
    <tag k="note" v="im SHP des NVK: III, Verkehrsstärke 1996 spricht aber für II"/>
    <tag k="oneway" v="yes"/>
  </way>
  <way id="4303763" version="7" timestamp="2009-06-21T18:13:30Z" uid="85761" user="klausis" changeset="1586466">
    <nd ref="25932684"/>
    <nd ref="25932685"/>
    <nd ref="25932683"/>
    <nd ref="30969889"/>
    <nd ref="26009931"/>
    <nd ref="26026268"/>
    <tag k="abutters" v="residential"/>
    <tag k="highway" v="secondary"/>
    <tag k="name" v="Rüppurrer Straße"/>
    <tag k="note" v="im SHP des NVK: III, Verkehrsstärke 1996 spricht aber für II"/>
    <tag k="oneway" v="yes"/>
  </way>
  <way id="4303763" version="8" timestamp="2010-01-31T00:02:38Z" uid="6269" user="Mueck" changeset="3755711">
    <nd ref="25932684"/>
    <nd ref="25932685"/>
    <nd ref="25932683"/>
    <nd ref="623728084"/>
    <nd ref="623728164"/>
    <nd ref="30969889"/>
    <nd ref="26009931"/>
    <nd ref="26026268"/>
    <tag k="abutters" v="residential"/>
    <tag k="highway" v="secondary"/>
    <tag k="name" v="Rüppurrer Straße"/>
    <tag k="note" v="im SHP des NVK: III, Verkehrsstärke 1996 spricht aber für II"/>
    <tag k="oneway" v="yes"/>
  </way>
  <way id="4303763" version="9" timestamp="2010-05-30T09:44:41Z" uid="6893" user="[HEK]the_other" changeset="4849983">
    <nd ref="25932684"/>
    <nd ref="25932685"/>
    <nd ref="25932683"/>
    <nd ref="623728084"/>
    <nd ref="623728164"/>
    <nd ref="30969889"/>
    <nd ref="26009931"/>
    <nd ref="26026268"/>
    <tag k="highway" v="secondary"/>
    <tag k="name" v="Rüppurrer Straße"/>
    <tag k="note" v="im SHP des NVK: III, Verkehrsstärke 1996 spricht aber für II"/>
    <tag k="oneway" v="yes"/>
  </way>
  <way id="4303763" version="10" timestamp="2010-10-15T22:37:55Z" uid="149205" user="Anubis" changeset="6053065">
    <nd ref="25932684"/>
    <nd ref="25932685"/>
    <nd ref="25932683"/>
    <nd ref="623728084"/>
    <nd ref="623728164"/>
    <nd ref="30969889"/>
    <nd ref="950892849"/>
    <nd ref="950892967"/>
    <nd ref="26009931"/>
    <nd ref="26026268"/>
    <tag k="highway" v="secondary"/>
    <tag k="name" v="Rüppurrer Straße"/>
    <tag k="note" v="im SHP des NVK: III, Verkehrsstärke 1996 spricht aber für II"/>
    <tag k="oneway" v="yes"/>
  </way>
  <way id="4303763" version="11" timestamp="2011-01-28T23:42:29Z" uid="6269" user="Mueck" changeset="7118148">
    <nd ref="1125578769"/>
    <nd ref="1125578764"/>
    <nd ref="25932685"/>
    <nd ref="1125578719"/>
    <nd ref="1125578765"/>
    <nd ref="1125578738"/>
    <nd ref="1125578758"/>
    <nd ref="1125578717"/>
    <nd ref="25932683"/>
    <nd ref="623728084"/>
    <nd ref="623728164"/>
    <nd ref="30969889"/>
    <nd ref="950892849"/>
    <nd ref="950892967"/>
    <nd ref="26009931"/>
    <nd ref="26026268"/>
    <tag k="highway" v="secondary"/>
    <tag k="name" v="Rüppurrer Straße"/>
    <tag k="note" v="im SHP des NVK: III, Verkehrsstärke 1996 spricht aber für II"/>
    <tag k="oneway" v="yes"/>
  </way>
  <way id="4303763" version="12" timestamp="2011-01-29T00:17:19Z" uid="6269" user="Mueck" changeset="7118148">
    <nd ref="1125578769"/>
    <nd ref="1125578764"/>
    <nd ref="25932685"/>
    <nd ref="1125578719"/>
    <nd ref="1125578765"/>
    <nd ref="1125578738"/>
    <nd ref="1125578758"/>
    <nd ref="1125578717"/>
    <nd ref="25932683"/>
    <nd ref="1125621731"/>
    <nd ref="1125621756"/>
    <nd ref="30969889"/>
    <nd ref="1125621769"/>
    <nd ref="1125621727"/>
    <nd ref="26009931"/>
    <nd ref="26026268"/>
    <tag k="highway" v="secondary"/>
    <tag k="name" v="Rüppurrer Straße"/>
    <tag k="note" v="im SHP des NVK: III, Verkehrsstärke 1996 spricht aber für II"/>
    <tag k="oneway" v="yes"/>
  </way>
  <way id="4303763" version="13" timestamp="2011-02-05T13:29:59Z" uid="165061" user="keinname" changeset="7192384">
    <nd ref="1125578769"/>
    <nd ref="1125578764"/>
    <nd ref="25932685"/>
    <nd ref="1125578719"/>
    <nd ref="1125578765"/>
    <nd ref="1125578738"/>
    <nd ref="1125578758"/>
    <nd ref="1125578717"/>
    <nd ref="25932683"/>
    <nd ref="1125621731"/>
    <nd ref="1125621756"/>
    <nd ref="30969889"/>
    <nd ref="1125621769"/>
    <nd ref="1125621727"/>
    <nd ref="26009931"/>
    <nd ref="1137483099"/>
    <nd ref="26026268"/>
    <tag k="highway" v="secondary"/>
    <tag k="name" v="Rüppurrer Straße"/>
    <tag k="note" v="im SHP des NVK: III, Verkehrsstärke 1996 spricht aber für II"/>
    <tag k="oneway" v="yes"/>
  </way>
  <way id="4303763" version="14" timestamp="2011-04-16T10:28:42Z" uid="6269" user="Mueck" changeset="7877051">
    <nd ref="1125578769"/>
    <nd ref="1125578764"/>
    <nd ref="25932685"/>
    <nd ref="1125578719"/>
    <nd ref="1125578765"/>
    <nd ref="1125578738"/>
    <nd ref="1125578758"/>
    <nd ref="1125578717"/>
    <nd ref="1125621731"/>
    <nd ref="1246711952"/>
    <nd ref="1125621756"/>
    <nd ref="30969889"/>
    <nd ref="1125621769"/>
    <nd ref="1125621727"/>
    <nd ref="26009931"/>
    <nd ref="1137483099"/>
    <nd ref="26026268"/>
    <tag k="highway" v="secondary"/>
    <tag k="name" v="Rüppurrer Straße"/>
    <tag k="note" v="im SHP des NVK: III, Verkehrsstärke 1996 spricht aber für II"/>
    <tag k="oneway" v="yes"/>
  </way>
  <way id="4303763" version="15" timestamp="2012-01-21T16:57:40Z" uid="60137" user="michael2402" changeset="10457019">
    <nd ref="1125578769"/>
    <nd ref="1125578764"/>
    <nd ref="25932685"/>
    <nd ref="1125578719"/>
    <nd ref="1125578765"/>
    <nd ref="1125578738"/>
    <nd ref="1125578758"/>
    <nd ref="1125578717"/>
    <nd ref="1125621731"/>
    <nd ref="1246711952"/>
    <nd ref="1125621756"/>
    <nd ref="1600245712"/>
    <nd ref="30969889"/>
    <nd ref="1125621769"/>
    <nd ref="1125621727"/>
    <nd ref="26009931"/>
    <nd ref="1137483099"/>
    <nd ref="26026268"/>
    <tag k="highway" v="secondary"/>
    <tag k="name" v="Rüppurrer Straße"/>
    <tag k="note" v="im SHP des NVK: III, Verkehrsstärke 1996 spricht aber für II"/>
    <tag k="oneway" v="yes"/>
  </way>
  <way id="4303763" version="16" timestamp="2012-01-30T13:30:08Z" uid="165061" user="keinname" changeset="10539782">
    <nd ref="1125578769"/>
    <nd ref="1125578764"/>
    <nd ref="25932685"/>
    <nd ref="1125578719"/>
    <nd ref="1125578765"/>
    <nd ref="1125578738"/>
    <nd ref="1125578758"/>
    <nd ref="1125578717"/>
    <nd ref="1125621731"/>
    <nd ref="1246711952"/>
    <nd ref="1125621756"/>
    <nd ref="1600245712"/>
    <nd ref="30969889"/>
    <nd ref="1125621769"/>
    <nd ref="1125621727"/>
    <nd ref="26009931"/>
    <nd ref="1137483099"/>
    <nd ref="26026268"/>
    <tag k="highway" v="secondary"/>
    <tag k="maxspeed" v="50"/>
    <tag k="name" v="Rüppurrer Straße"/>
    <tag k="note" v="im SHP des NVK: III, Verkehrsstärke 1996 spricht aber für II"/>
    <tag k="oneway" v="yes"/>
  </way>
  <way id="4303764" version="2" timestamp="2008-02-12T22:10:57Z" uid="6269" user="Mueck" changeset="111430">
    <nd ref="30123961"/>
    <nd ref="30123963"/>
    <nd ref="30123964"/>
    <nd ref="30123962"/>
    <nd ref="26009934"/>
    <nd ref="26009935"/>
    <nd ref="26009936"/>
    <nd ref="26009937"/>
    <nd ref="26009939"/>
    <nd ref="30123959"/>
    <nd ref="30123956"/>
    <nd ref="21498844"/>
    <nd ref="21498837"/>
    <nd ref="21498836"/>
    <nd ref="21618308"/>
    <nd ref="14794167"/>
    <nd ref="21498829"/>
    <tag k="created_by" v="Potlatch 0.7a"/>
    <tag k="railway" v="tram"/>
  </way>
  <way id="4303764" version="3" timestamp="2008-02-12T22:11:24Z" uid="6269" user="Mueck" changeset="111430">
    <nd ref="30123961"/>
    <nd ref="30123963"/>
    <nd ref="30123964"/>
    <nd ref="30123962"/>
    <nd ref="26009934"/>
    <nd ref="26009935"/>
    <nd ref="26009936"/>
    <nd ref="26009937"/>
    <nd ref="26009939"/>
    <nd ref="30123959"/>
    <nd ref="30123956"/>
    <nd ref="21498844"/>
    <nd ref="21498837"/>
    <nd ref="21498836"/>
    <nd ref="21618308"/>
    <nd ref="14794167"/>
    <nd ref="21498829"/>
    <tag k="created_by" v="Potlatch 0.7a"/>
    <tag k="layer" v="1"/>
    <tag k="railway" v="tram"/>
  </way>
  <way id="4303764" version="4" timestamp="2008-05-31T09:59:48Z" uid="16922" user="amai" changeset="558849">
    <nd ref="30123961"/>
    <nd ref="30123963"/>
    <nd ref="30123964"/>
    <nd ref="30123962"/>
    <nd ref="26009934"/>
    <nd ref="26009935"/>
    <nd ref="26009936"/>
    <nd ref="26009937"/>
    <nd ref="26009939"/>
    <nd ref="30123959"/>
    <nd ref="30123956"/>
    <nd ref="21498844"/>
    <nd ref="21498837"/>
    <nd ref="21498836"/>
    <nd ref="21618308"/>
    <nd ref="14794167"/>
    <nd ref="21498829"/>
    <tag k="created_by" v="Potlatch 0.9c"/>
    <tag k="layer" v="1"/>
    <tag k="railway" v="tram"/>
  </way>
  <way id="4303764" version="5" timestamp="2008-07-12T23:00:07Z" uid="10897" user="Jens Müller" changeset="478927">
    <nd ref="30123961"/>
    <nd ref="30123963"/>
    <nd ref="30123964"/>
    <nd ref="30123962"/>
    <nd ref="26009934"/>
    <nd ref="26009935"/>
    <nd ref="26009936"/>
    <nd ref="26009937"/>
    <nd ref="26009939"/>
    <nd ref="30123959"/>
    <nd ref="30123956"/>
    <nd ref="21498844"/>
    <nd ref="21498837"/>
    <nd ref="21498836"/>
    <nd ref="21618308"/>
    <nd ref="14794167"/>
    <nd ref="278070632"/>
    <nd ref="21498829"/>
    <tag k="created_by" v="Potlatch 0.9c"/>
    <tag k="layer" v="1"/>
    <tag k="railway" v="tram"/>
  </way>
  <way id="4303764" version="6" timestamp="2008-07-13T01:34:12Z" uid="23785" user="Simon Kokolakis" changeset="474643">
    <nd ref="30123961"/>
    <nd ref="30123963"/>
    <nd ref="30123964"/>
    <nd ref="30123962"/>
    <nd ref="26009934"/>
    <nd ref="26009935"/>
    <nd ref="26009936"/>
    <nd ref="26009937"/>
    <nd ref="26009939"/>
    <nd ref="30123959"/>
    <nd ref="30123956"/>
    <nd ref="21498844"/>
    <nd ref="21498837"/>
    <nd ref="21498836"/>
    <nd ref="278087217"/>
    <nd ref="14794167"/>
    <nd ref="278070632"/>
    <nd ref="21498829"/>
    <tag k="created_by" v="Potlatch 0.9c"/>
    <tag k="layer" v="1"/>
    <tag k="railway" v="tram"/>
  </way>
  <way id="4303764" version="7" timestamp="2008-07-13T01:34:35Z" uid="23785" user="Simon Kokolakis" changeset="474643">
    <nd ref="30123961"/>
    <nd ref="30123963"/>
    <nd ref="30123964"/>
    <nd ref="30123962"/>
    <nd ref="26009934"/>
    <nd ref="26009935"/>
    <nd ref="26009936"/>
    <nd ref="26009937"/>
    <nd ref="26009939"/>
    <nd ref="30123959"/>
    <nd ref="30123956"/>
    <nd ref="21498844"/>
    <nd ref="21498837"/>
    <nd ref="21498836"/>
    <nd ref="14794167"/>
    <nd ref="278070632"/>
    <nd ref="21498829"/>
    <tag k="created_by" v="Potlatch 0.9c"/>
    <tag k="layer" v="1"/>
    <tag k="railway" v="tram"/>
  </way>
  <way id="4303764" version="8" timestamp="2008-07-30T10:08:18Z" uid="6269" user="Mueck" changeset="628766">
    <nd ref="30123961"/>
    <nd ref="30123963"/>
    <nd ref="30123964"/>
    <nd ref="30123962"/>
    <nd ref="26009934"/>
    <nd ref="26009935"/>
    <nd ref="26009936"/>
    <nd ref="26009937"/>
    <nd ref="26009939"/>
    <nd ref="30123959"/>
    <nd ref="30123956"/>
    <nd ref="21498844"/>
    <nd ref="21498837"/>
    <nd ref="21498836"/>
    <nd ref="14794167"/>
    <nd ref="278070632"/>
    <nd ref="282187891"/>
    <tag k="created_by" v="Potlatch 0.10a"/>
    <tag k="layer" v="1"/>
    <tag k="railway" v="tram"/>
  </way>
  <way id="4303764" version="9" timestamp="2008-07-30T10:08:40Z" uid="6269" user="Mueck" changeset="628766">
    <nd ref="30123961"/>
    <nd ref="30123963"/>
    <nd ref="30123964"/>
    <nd ref="30123962"/>
    <nd ref="26009934"/>
    <nd ref="26009935"/>
    <nd ref="26009936"/>
    <nd ref="26009937"/>
    <nd ref="26009939"/>
    <nd ref="30123959"/>
    <nd ref="30123956"/>
    <nd ref="21498844"/>
    <nd ref="21498837"/>
    <nd ref="21498836"/>
    <nd ref="282187950"/>
    <tag k="created_by" v="Potlatch 0.10a"/>
    <tag k="layer" v="1"/>
    <tag k="railway" v="tram"/>
  </way>
  <way id="4303764" version="10" timestamp="2008-07-30T10:09:02Z" uid="6269" user="Mueck" changeset="628766">
    <nd ref="30123961"/>
    <nd ref="30123963"/>
    <nd ref="30123964"/>
    <nd ref="30123962"/>
    <nd ref="26009934"/>
    <nd ref="26009935"/>
    <nd ref="26009936"/>
    <nd ref="26009937"/>
    <nd ref="26009939"/>
    <nd ref="30123959"/>
    <nd ref="30123956"/>
    <nd ref="21498844"/>
    <nd ref="21498837"/>
    <nd ref="21498836"/>
    <nd ref="14794167"/>
    <nd ref="282188026"/>
    <tag k="created_by" v="Potlatch 0.10a"/>
    <tag k="layer" v="1"/>
    <tag k="railway" v="tram"/>
  </way>
  <way id="4303764" version="11" timestamp="2008-07-30T10:09:30Z" uid="6269" user="Mueck" changeset="628766">
    <nd ref="30123961"/>
    <nd ref="30123963"/>
    <nd ref="30123964"/>
    <nd ref="30123962"/>
    <nd ref="26009934"/>
    <nd ref="26009935"/>
    <nd ref="26009936"/>
    <nd ref="26009937"/>
    <nd ref="26009939"/>
    <nd ref="30123959"/>
    <nd ref="30123956"/>
    <nd ref="21498844"/>
    <nd ref="21498837"/>
    <nd ref="21498836"/>
    <nd ref="14794167"/>
    <nd ref="278070632"/>
    <nd ref="14892149"/>
    <tag k="created_by" v="Potlatch 0.10a"/>
    <tag k="layer" v="1"/>
    <tag k="railway" v="tram"/>
  </way>
  <way id="4303764" version="12" timestamp="2008-12-17T23:17:57Z" uid="39381" user="DD1GJ" changeset="463187">
    <nd ref="30123961"/>
    <nd ref="30123963"/>
    <nd ref="30123964"/>
    <nd ref="30123962"/>
    <nd ref="26009934"/>
    <nd ref="26009935"/>
    <nd ref="26009936"/>
    <nd ref="26009937"/>
    <nd ref="26009939"/>
    <nd ref="30123959"/>
    <nd ref="30123956"/>
    <nd ref="21498844"/>
    <nd ref="21498837"/>
    <nd ref="21498836"/>
    <nd ref="319623308"/>
    <nd ref="14794167"/>
    <nd ref="319623307"/>
    <nd ref="278070632"/>
    <nd ref="14892149"/>
    <tag k="created_by" v="Potlatch 0.10a"/>
    <tag k="layer" v="1"/>
    <tag k="railway" v="tram"/>
  </way>
  <way id="4303764" version="13" timestamp="2009-04-30T21:20:25Z" uid="6269" user="Mueck" changeset="1031076">
    <nd ref="30123961"/>
    <nd ref="30123963"/>
    <nd ref="30123964"/>
    <nd ref="30123962"/>
    <nd ref="26009934"/>
    <nd ref="26009935"/>
    <nd ref="26009936"/>
    <nd ref="26009937"/>
    <nd ref="26009939"/>
    <nd ref="30123959"/>
    <nd ref="30123956"/>
    <nd ref="21498844"/>
    <nd ref="21498837"/>
    <nd ref="21498836"/>
    <nd ref="319623308"/>
    <nd ref="14794167"/>
    <nd ref="319623307"/>
    <nd ref="278070632"/>
    <nd ref="14892149"/>
    <nd ref="31319717"/>
    <nd ref="21596354"/>
    <tag k="created_by" v="Potlatch 0.10a"/>
    <tag k="layer" v="1"/>
    <tag k="railway" v="tram"/>
  </way>
  <way id="4303764" version="14" timestamp="2009-06-19T13:03:28Z" uid="85761" user="klausis" changeset="1564619">
    <nd ref="30123961"/>
    <nd ref="30123963"/>
    <nd ref="30123964"/>
    <nd ref="30123962"/>
    <nd ref="26009934"/>
    <nd ref="26009935"/>
    <nd ref="26009936"/>
    <nd ref="26009937"/>
    <nd ref="26009939"/>
    <nd ref="30123959"/>
    <nd ref="30123956"/>
    <nd ref="21498844"/>
    <nd ref="21498837"/>
    <nd ref="21498836"/>
    <nd ref="319623308"/>
    <nd ref="14794167"/>
    <nd ref="319623307"/>
    <nd ref="278070632"/>
    <nd ref="14892149"/>
    <nd ref="31319717"/>
    <nd ref="21596354"/>
    <tag k="layer" v="1"/>
    <tag k="railway" v="tram"/>
  </way>
  <way id="4303764" version="15" timestamp="2009-08-14T07:55:27Z" uid="151735" user="Sophie Werner" changeset="2139614">
    <nd ref="30123961"/>
    <nd ref="30123963"/>
    <nd ref="30123964"/>
    <nd ref="30123962"/>
    <nd ref="26009934"/>
    <nd ref="26009935"/>
    <nd ref="26009936"/>
    <nd ref="26009937"/>
    <nd ref="26009939"/>
    <nd ref="30123959"/>
    <nd ref="30123956"/>
    <nd ref="21498844"/>
    <nd ref="21498837"/>
    <nd ref="21498836"/>
    <nd ref="319623308"/>
    <nd ref="14794167"/>
    <nd ref="319623307"/>
    <nd ref="278070632"/>
    <nd ref="465210416"/>
    <nd ref="14892149"/>
    <nd ref="31319717"/>
    <nd ref="21596354"/>
    <tag k="layer" v="1"/>
    <tag k="railway" v="tram"/>
  </way>
  <way id="4303764" version="16" timestamp="2009-11-03T16:09:26Z" uid="149205" user="Anubis" changeset="3025874">
    <nd ref="30123961"/>
    <nd ref="30123963"/>
    <nd ref="30123964"/>
    <nd ref="30123962"/>
    <nd ref="26009934"/>
    <nd ref="26009935"/>
    <nd ref="26009936"/>
    <nd ref="26009937"/>
    <nd ref="26009939"/>
    <nd ref="30123959"/>
    <nd ref="30123956"/>
    <nd ref="21498844"/>
    <nd ref="21498837"/>
    <nd ref="21498836"/>
    <nd ref="319623308"/>
    <nd ref="14794167"/>
    <nd ref="319623307"/>
    <nd ref="278070632"/>
    <nd ref="465210416"/>
    <nd ref="553069681"/>
    <nd ref="553069836"/>
    <nd ref="31319717"/>
    <nd ref="21596354"/>
    <tag k="layer" v="1"/>
    <tag k="railway" v="tram"/>
  </way>
  <way id="4303764" version="17" timestamp="2011-01-29T02:00:25Z" uid="6269" user="Mueck" changeset="7118869">
    <nd ref="1125698424"/>
    <nd ref="1125698419"/>
    <nd ref="1125698442"/>
    <nd ref="1125698423"/>
    <nd ref="1125698426"/>
    <nd ref="1125698433"/>
    <nd ref="1125698436"/>
    <nd ref="1125698420"/>
    <nd ref="1125698437"/>
    <nd ref="1125698435"/>
    <nd ref="1125698431"/>
    <nd ref="26009935"/>
    <tag k="layer" v="1"/>
    <tag k="oneway" v="yes"/>
    <tag k="railway" v="tram"/>
    <tag k="tracks" v="1"/>
  </way>
  <way id="4303764" version="18" timestamp="2011-02-03T01:28:20Z" uid="6269" user="Mueck" changeset="7170427">
    <nd ref="1125698424"/>
    <nd ref="1125698419"/>
    <nd ref="1125698442"/>
    <nd ref="1125698423"/>
    <nd ref="1125698426"/>
    <nd ref="1125698433"/>
    <nd ref="1125698436"/>
    <nd ref="1125698420"/>
    <nd ref="1125698437"/>
    <nd ref="1125698435"/>
    <nd ref="1125698431"/>
    <nd ref="1133166144"/>
    <nd ref="1133166045"/>
    <nd ref="1133166162"/>
    <nd ref="1133166012"/>
    <nd ref="1133166080"/>
    <nd ref="1133166058"/>
    <nd ref="1133166096"/>
    <nd ref="1133166127"/>
    <nd ref="1133166128"/>
    <nd ref="1133166153"/>
    <nd ref="1133166161"/>
    <nd ref="1133166033"/>
    <nd ref="1133166113"/>
    <nd ref="1133165992"/>
    <nd ref="1133166123"/>
    <nd ref="1133166062"/>
    <nd ref="1133166152"/>
    <nd ref="1133166150"/>
    <nd ref="1133166165"/>
    <nd ref="1133166031"/>
    <nd ref="1133166105"/>
    <nd ref="1133166084"/>
    <nd ref="1133166068"/>
    <nd ref="1133166022"/>
    <nd ref="1133166142"/>
    <nd ref="1133166032"/>
    <nd ref="1133166064"/>
    <nd ref="1133166083"/>
    <nd ref="1133165993"/>
    <tag k="layer" v="1"/>
    <tag k="oneway" v="yes"/>
    <tag k="railway" v="tram"/>
    <tag k="tracks" v="1"/>
  </way>
  <way id="4303764" version="19" timestamp="2011-02-03T16:27:39Z" uid="6269" user="Mueck" changeset="7175330">
    <nd ref="1125698424"/>
    <nd ref="1125698419"/>
    <nd ref="1125698442"/>
    <nd ref="1125698423"/>
    <nd ref="1125698426"/>
    <nd ref="1125698433"/>
    <nd ref="1125698436"/>
    <nd ref="1125698420"/>
    <nd ref="1125698437"/>
    <nd ref="1125698435"/>
    <nd ref="1125698431"/>
    <nd ref="1133166144"/>
    <nd ref="1133166045"/>
    <nd ref="1133166162"/>
    <nd ref="1133166012"/>
    <nd ref="1133166080"/>
    <nd ref="1133166058"/>
    <nd ref="1133166096"/>
    <nd ref="1133166127"/>
    <nd ref="1133166128"/>
    <nd ref="1133166153"/>
    <nd ref="1133166161"/>
    <nd ref="1133166033"/>
    <nd ref="1133166113"/>
    <nd ref="1133165992"/>
    <nd ref="1133166123"/>
    <nd ref="1133166062"/>
    <nd ref="1133166152"/>
    <nd ref="1133166150"/>
    <nd ref="1133166165"/>
    <nd ref="1133166031"/>
    <nd ref="1133166105"/>
    <nd ref="1133166084"/>
    <nd ref="1133166068"/>
    <nd ref="1133166022"/>
    <nd ref="1133166142"/>
    <nd ref="1133166032"/>
    <nd ref="1133166064"/>
    <nd ref="1133166083"/>
    <nd ref="1133165993"/>
    <nd ref="1133962013"/>
    <nd ref="1133962088"/>
    <nd ref="1133962049"/>
    <nd ref="1133962104"/>
    <nd ref="553069836"/>
    <nd ref="1133962100"/>
    <nd ref="1133961998"/>
    <nd ref="1133962061"/>
    <nd ref="21596354"/>
    <nd ref="1133962067"/>
    <nd ref="1133962075"/>
    <tag k="layer" v="1"/>
    <tag k="oneway" v="yes"/>
    <tag k="railway" v="tram"/>
    <tag k="tracks" v="1"/>
  </way>
  <way id="4303764" version="20" timestamp="2011-03-12T00:15:07Z" uid="6269" user="Mueck" changeset="7528841">
    <nd ref="1125698424"/>
    <nd ref="1125698419"/>
    <nd ref="1125698442"/>
    <nd ref="1125698423"/>
    <nd ref="1125698426"/>
    <nd ref="1125698433"/>
    <nd ref="1125698436"/>
    <nd ref="1125698420"/>
    <nd ref="1125698437"/>
    <nd ref="1125698435"/>
    <nd ref="1125698431"/>
    <nd ref="1133166144"/>
    <nd ref="1133166045"/>
    <nd ref="1133166162"/>
    <nd ref="1133166012"/>
    <nd ref="1133166080"/>
    <nd ref="1133166058"/>
    <nd ref="1133166096"/>
    <nd ref="1133166127"/>
    <nd ref="1133166128"/>
    <nd ref="1133166153"/>
    <nd ref="1133166161"/>
    <nd ref="1133166033"/>
    <nd ref="1133166113"/>
    <nd ref="1133165992"/>
    <nd ref="1133166123"/>
    <nd ref="1133166062"/>
    <nd ref="1133166152"/>
    <nd ref="1133166150"/>
    <nd ref="1133166165"/>
    <nd ref="1133166031"/>
    <nd ref="1133166105"/>
    <nd ref="1133166084"/>
    <nd ref="1133166068"/>
    <nd ref="1133166022"/>
    <nd ref="1133166142"/>
    <nd ref="1133166032"/>
    <nd ref="1133166064"/>
    <nd ref="1133166083"/>
    <nd ref="1133165993"/>
    <nd ref="1133962013"/>
    <nd ref="1133962088"/>
    <nd ref="1133962049"/>
    <nd ref="1133962104"/>
    <nd ref="553069836"/>
    <nd ref="1133962100"/>
    <nd ref="1133961998"/>
    <nd ref="1133962061"/>
    <nd ref="21596354"/>
    <nd ref="1133962067"/>
    <nd ref="1133962075"/>
    <tag k="electrified" v="contact_line"/>
    <tag k="frequency" v="0"/>
    <tag k="gauge" v="1435"/>
    <tag k="layer" v="1"/>
    <tag k="oneway" v="yes"/>
    <tag k="operator" v="VBK"/>
    <tag k="railway" v="tram"/>
    <tag k="tracks" v="1"/>
    <tag k="voltage" v="750"/>
    <tag k="workrules" v="BOStrab"/>
  </way>
  <way id="4303764" version="21" timestamp="2011-03-20T12:13:29Z" uid="6269" user="Mueck" changeset="7615724">
    <nd ref="1125698424"/>
    <nd ref="1125698419"/>
    <nd ref="1125698442"/>
    <nd ref="1125698423"/>
    <nd ref="1125698426"/>
    <nd ref="1125698433"/>
    <nd ref="1125698436"/>
    <nd ref="1125698420"/>
    <nd ref="1125698437"/>
    <nd ref="1125698435"/>
    <nd ref="1125698431"/>
    <nd ref="1133166144"/>
    <nd ref="1133166045"/>
    <nd ref="1133166162"/>
    <nd ref="1133166012"/>
    <nd ref="1133166080"/>
    <nd ref="1133166058"/>
    <nd ref="1133166096"/>
    <nd ref="1133166127"/>
    <nd ref="1133166128"/>
    <nd ref="1133166153"/>
    <nd ref="1133166161"/>
    <nd ref="1133166033"/>
    <nd ref="1133166113"/>
    <nd ref="1133165992"/>
    <nd ref="1133166123"/>
    <nd ref="1133166062"/>
    <nd ref="1133166152"/>
    <nd ref="1133166150"/>
    <nd ref="1133166165"/>
    <nd ref="1210377910"/>
    <nd ref="1133166084"/>
    <nd ref="1133166068"/>
    <nd ref="1133166022"/>
    <nd ref="1133166142"/>
    <nd ref="1133166032"/>
    <nd ref="1133166064"/>
    <nd ref="1133166083"/>
    <nd ref="1133165993"/>
    <nd ref="1133962013"/>
    <nd ref="1133962088"/>
    <nd ref="1133962049"/>
    <nd ref="1133962104"/>
    <nd ref="553069836"/>
    <nd ref="1133962100"/>
    <nd ref="1133961998"/>
    <nd ref="1133962061"/>
    <nd ref="21596354"/>
    <nd ref="1133962067"/>
    <nd ref="1133962075"/>
    <tag k="electrified" v="contact_line"/>
    <tag k="frequency" v="0"/>
    <tag k="gauge" v="1435"/>
    <tag k="layer" v="1"/>
    <tag k="oneway" v="yes"/>
    <tag k="operator" v="VBK"/>
    <tag k="railway" v="tram"/>
    <tag k="tracks" v="1"/>
    <tag k="voltage" v="750"/>
    <tag k="workrules" v="BOStrab"/>
  </way>
  <way id="4303764" version="22" timestamp="2011-12-06T20:52:08Z" uid="165061" user="keinname" changeset="10053494">
    <nd ref="1125698424"/>
    <nd ref="1125698419"/>
    <nd ref="1125698442"/>
    <nd ref="1125698423"/>
    <nd ref="1125698426"/>
    <nd ref="1125698433"/>
    <nd ref="1125698436"/>
    <nd ref="1125698420"/>
    <nd ref="1125698437"/>
    <nd ref="1125698435"/>
    <nd ref="1125698431"/>
    <nd ref="1133166144"/>
    <nd ref="1133166045"/>
    <nd ref="1133166162"/>
    <nd ref="1133166012"/>
    <nd ref="1133166080"/>
    <nd ref="1133166058"/>
    <nd ref="1133166096"/>
    <nd ref="1133166127"/>
    <nd ref="1133166128"/>
    <nd ref="1133166153"/>
    <nd ref="1133166161"/>
    <nd ref="1133166033"/>
    <nd ref="1133166113"/>
    <nd ref="1133165992"/>
    <nd ref="1133166123"/>
    <nd ref="1133166062"/>
    <nd ref="1133166152"/>
    <nd ref="1133166150"/>
    <nd ref="1133166165"/>
    <nd ref="1210377910"/>
    <nd ref="1133166084"/>
    <nd ref="1133166068"/>
    <nd ref="1133166022"/>
    <nd ref="1133166142"/>
    <nd ref="1133166032"/>
    <nd ref="1133166064"/>
    <nd ref="1133166083"/>
    <nd ref="1133165993"/>
    <nd ref="1133962013"/>
    <nd ref="1133962088"/>
    <nd ref="1133962049"/>
    <nd ref="1133962104"/>
    <nd ref="553069836"/>
    <nd ref="1133962100"/>
    <nd ref="1133961998"/>
    <nd ref="1133962061"/>
    <nd ref="21596354"/>
    <nd ref="1133962067"/>
    <nd ref="1133962075"/>
    <tag k="disused" v="tram"/>
    <tag k="electrified" v="contact_line"/>
    <tag k="frequency" v="0"/>
    <tag k="gauge" v="1435"/>
    <tag k="layer" v="1"/>
    <tag k="note" v="kann nicht befahren werden, wegen Baustelle am Durlacher Tor"/>
    <tag k="oneway" v="yes"/>
    <tag k="operator" v="VBK"/>
    <tag k="railway" v="disused"/>
    <tag k="tracks" v="1"/>
    <tag k="voltage" v="750"/>
    <tag k="workrules" v="BOStrab"/>
  </way>
  <way id="4303764" version="23" timestamp="2012-01-26T20:51:01Z" uid="60137" user="michael2402" changeset="10507120">
    <nd ref="1125698424"/>
    <nd ref="1125698419"/>
    <nd ref="1125698442"/>
    <nd ref="1125698423"/>
    <nd ref="1125698426"/>
    <nd ref="1125698433"/>
    <nd ref="1125698436"/>
    <nd ref="1125698420"/>
    <nd ref="1125698437"/>
    <nd ref="1125698435"/>
    <nd ref="1125698431"/>
    <nd ref="1133166144"/>
    <nd ref="1133166045"/>
    <nd ref="1133166162"/>
    <nd ref="1133166012"/>
    <nd ref="1133166080"/>
    <nd ref="1133166058"/>
    <nd ref="1133166096"/>
    <nd ref="1133166127"/>
    <nd ref="1133166128"/>
    <nd ref="1133166153"/>
    <nd ref="1606908437"/>
    <nd ref="1133166161"/>
    <nd ref="1133166033"/>
    <nd ref="1133166113"/>
    <nd ref="1133165992"/>
    <nd ref="1133166123"/>
    <nd ref="1133166062"/>
    <nd ref="1133166152"/>
    <nd ref="1133166150"/>
    <nd ref="1133166165"/>
    <nd ref="1210377910"/>
    <nd ref="1133166084"/>
    <nd ref="1133166068"/>
    <nd ref="1133166022"/>
    <nd ref="1133166142"/>
    <nd ref="1133166032"/>
    <nd ref="1133166064"/>
    <nd ref="1133166083"/>
    <nd ref="1133165993"/>
    <nd ref="1133962013"/>
    <nd ref="1133962088"/>
    <nd ref="1133962049"/>
    <nd ref="1133962104"/>
    <nd ref="553069836"/>
    <nd ref="1133962100"/>
    <nd ref="1133961998"/>
    <nd ref="1133962061"/>
    <nd ref="21596354"/>
    <nd ref="1133962067"/>
    <nd ref="1133962075"/>
    <tag k="disused" v="tram"/>
    <tag k="electrified" v="contact_line"/>
    <tag k="frequency" v="0"/>
    <tag k="gauge" v="1435"/>
    <tag k="layer" v="1"/>
    <tag k="note" v="kann nicht befahren werden, wegen Baustelle am Durlacher Tor"/>
    <tag k="oneway" v="yes"/>
    <tag k="operator" v="VBK"/>
    <tag k="railway" v="disused"/>
    <tag k="tracks" v="1"/>
    <tag k="voltage" v="750"/>
    <tag k="workrules" v="BOStrab"/>
  </way>
  <way id="4303765" version="3" timestamp="2008-07-30T10:04:15Z" uid="6269" user="Mueck" changeset="628766">
    <nd ref="26026283"/>
    <nd ref="26026297"/>
    <nd ref="26026294"/>
    <nd ref="26026296"/>
    <nd ref="26026275"/>
    <tag k="created_by" v="Potlatch 0.10a"/>
    <tag k="highway" v="secondary"/>
    <tag k="oneway" v="yes"/>
  </way>
  <way id="4303765" version="4" timestamp="2009-06-21T18:13:30Z" uid="85761" user="klausis" changeset="1586466">
    <nd ref="26026283"/>
    <nd ref="26026297"/>
    <nd ref="26026294"/>
    <nd ref="26026296"/>
    <nd ref="26026275"/>
    <tag k="highway" v="secondary"/>
    <tag k="oneway" v="yes"/>
  </way>
  <way id="4303765" version="5" timestamp="2009-09-01T18:35:00Z" uid="38515" user="Sören" changeset="2341237">
    <nd ref="26026283"/>
    <nd ref="26026297"/>
    <nd ref="26026294"/>
    <nd ref="26026296"/>
    <nd ref="26026275"/>
    <tag k="highway" v="secondary"/>
    <tag k="name" v="Ludwig-Erhard-Allee"/>
    <tag k="oneway" v="yes"/>
  </way>
  <way id="4303765" version="6" timestamp="2011-02-03T01:28:20Z" uid="6269" user="Mueck" changeset="7170427">
    <nd ref="26026283"/>
    <nd ref="1133165986"/>
    <nd ref="26026297"/>
    <nd ref="26026294"/>
    <nd ref="26026296"/>
    <nd ref="1133166111"/>
    <nd ref="26026275"/>
    <tag k="highway" v="secondary"/>
    <tag k="name" v="Ludwig-Erhard-Allee"/>
    <tag k="oneway" v="yes"/>
  </way>
  <way id="4303765" version="7" timestamp="2011-04-16T19:05:05Z" uid="212553" user="ARWIE" changeset="7881149">
    <nd ref="26026283"/>
    <nd ref="1133165986"/>
    <nd ref="26026297"/>
    <nd ref="26026294"/>
    <nd ref="26026296"/>
    <nd ref="1247427774"/>
    <nd ref="1133166111"/>
    <nd ref="26026275"/>
    <tag k="highway" v="secondary"/>
    <tag k="name" v="Ludwig-Erhard-Allee"/>
    <tag k="oneway" v="yes"/>
  </way>
  <way id="4303765" version="8" timestamp="2011-04-16T19:55:19Z" uid="212553" user="ARWIE" changeset="7881555">
    <nd ref="26026283"/>
    <nd ref="1247533339"/>
    <nd ref="1133165986"/>
    <nd ref="26026297"/>
    <nd ref="26026294"/>
    <nd ref="26026296"/>
    <nd ref="1247427774"/>
    <nd ref="1133166111"/>
    <nd ref="26026275"/>
    <tag k="highway" v="secondary"/>
    <tag k="name" v="Ludwig-Erhard-Allee"/>
    <tag k="oneway" v="yes"/>
  </way>
  <way id="4303765" version="9" timestamp="2012-01-26T20:51:02Z" uid="60137" user="michael2402" changeset="10507120">
    <nd ref="26026283"/>
    <nd ref="1247533339"/>
    <nd ref="1133165986"/>
    <nd ref="1606908447"/>
    <nd ref="26026297"/>
    <nd ref="26026294"/>
    <nd ref="26026296"/>
    <nd ref="1247427774"/>
    <nd ref="1133166111"/>
    <nd ref="26026275"/>
    <tag k="highway" v="secondary"/>
    <tag k="name" v="Ludwig-Erhard-Allee"/>
    <tag k="oneway" v="yes"/>
  </way>
  <way id="4303765" version="10" timestamp="2012-02-03T08:27:49Z" uid="151736" user="Jennifer Neubauer" changeset="10574095">
    <nd ref="26026283"/>
    <nd ref="1247533339"/>
    <nd ref="1133165986"/>
    <nd ref="1606908447"/>
    <nd ref="26026297"/>
    <nd ref="26026296"/>
    <nd ref="1247427774"/>
    <nd ref="1133166111"/>
    <nd ref="26026275"/>
    <tag k="highway" v="secondary"/>
    <tag k="name" v="Ludwig-Erhard-Allee"/>
    <tag k="oneway" v="yes"/>
  </way>
  <way id="4303766" version="5" timestamp="2011-02-03T01:28:21Z" uid="6269" user="Mueck" changeset="7170427">
    <nd ref="26026283"/>
    <nd ref="1133166120"/>
    <nd ref="26026285"/>
    <nd ref="26026284"/>
    <nd ref="1133166169"/>
    <nd ref="26026286"/>
    <nd ref="1133166009"/>
    <nd ref="15843441"/>
    <tag k="highway" v="primary_link"/>
    <tag k="oneway" v="yes"/>
  </way>
  <way id="4303766" version="6" timestamp="2012-01-16T18:15:09Z" uid="165061" user="keinname" changeset="10410364">
    <nd ref="26026283"/>
    <nd ref="1133166120"/>
    <nd ref="26026285"/>
    <nd ref="26026284"/>
    <nd ref="1133166169"/>
    <nd ref="26026286"/>
    <nd ref="1133166009"/>
    <nd ref="15843441"/>
    <tag k="highway" v="primary_link"/>
    <tag k="lanes" v="1"/>
    <tag k="oneway" v="yes"/>
  </way>
  <way id="4303769" version="3" timestamp="2008-07-30T10:04:21Z" uid="6269" user="Mueck" changeset="628766">
    <nd ref="26009941"/>
    <nd ref="26026282"/>
    <nd ref="30123957"/>
    <nd ref="26026280"/>
    <tag k="created_by" v="Potlatch 0.10a"/>
    <tag k="highway" v="secondary"/>
    <tag k="oneway" v="yes"/>
  </way>
  <way id="4303769" version="4" timestamp="2008-12-28T11:07:12Z" uid="16330" user="aluka" changeset="648651">
    <nd ref="26009941"/>
    <nd ref="26026282"/>
    <nd ref="30123957"/>
    <nd ref="26026280"/>
    <tag k="created_by" v="Potlatch 0.10a"/>
    <tag k="highway" v="secondary"/>
    <tag k="name" v="Kapellenstraße"/>
    <tag k="oneway" v="yes"/>
  </way>
  <way id="4303769" version="5" timestamp="2009-06-21T18:13:29Z" uid="85761" user="klausis" changeset="1586466">
    <nd ref="26009941"/>
    <nd ref="26026282"/>
    <nd ref="30123957"/>
    <nd ref="26026280"/>
    <tag k="highway" v="secondary"/>
    <tag k="name" v="Kapellenstraße"/>
    <tag k="oneway" v="yes"/>
  </way>
  <way id="4303769" version="6" timestamp="2011-02-03T01:28:21Z" uid="6269" user="Mueck" changeset="7170427">
    <nd ref="26009941"/>
    <nd ref="1133166042"/>
    <nd ref="26026282"/>
    <nd ref="1133166023"/>
    <nd ref="30123957"/>
    <nd ref="26026280"/>
    <tag k="highway" v="secondary"/>
    <tag k="name" v="Kapellenstraße"/>
    <tag k="oneway" v="yes"/>
  </way>
  <way id="4303769" version="7" timestamp="2011-02-05T17:37:35Z" uid="165061" user="keinname" changeset="7195145">
    <nd ref="26009941"/>
    <nd ref="1133166042"/>
    <nd ref="26026282"/>
    <nd ref="1133166023"/>
    <nd ref="30123957"/>
    <nd ref="26026280"/>
    <tag k="highway" v="secondary"/>
    <tag k="lanes" v="2"/>
    <tag k="name" v="Kapellenstraße"/>
    <tag k="oneway" v="yes"/>
  </way>
  <way id="4303769" version="8" timestamp="2012-02-03T08:23:35Z" uid="151736" user="Jennifer Neubauer" changeset="10574070">
    <nd ref="26009941"/>
    <nd ref="1133166042"/>
    <nd ref="26026282"/>
    <nd ref="1133166023"/>
    <nd ref="30123957"/>
    <nd ref="1616481577"/>
    <nd ref="26026280"/>
    <tag k="highway" v="secondary"/>
    <tag k="lanes" v="2"/>
    <tag k="name" v="Kapellenstraße"/>
    <tag k="oneway" v="yes"/>
  </way>
  <way id="4303769" version="9" timestamp="2012-02-03T08:30:17Z" uid="151736" user="Jennifer Neubauer" changeset="10574110">
    <nd ref="26009941"/>
    <nd ref="1133166042"/>
    <nd ref="26026282"/>
    <nd ref="1133166023"/>
    <nd ref="30123957"/>
    <nd ref="1133166023"/>
    <nd ref="26026280"/>
    <tag k="highway" v="secondary"/>
    <tag k="lanes" v="2"/>
    <tag k="name" v="Kapellenstraße"/>
    <tag k="oneway" v="yes"/>
  </way>
  <way id="4303769" version="10" timestamp="2012-02-27T14:41:23Z" uid="165061" user="keinname" changeset="10809113">
    <nd ref="26009941"/>
    <nd ref="1133166042"/>
    <nd ref="26026282"/>
    <nd ref="1133166023"/>
    <nd ref="1650386864"/>
    <nd ref="1650386865"/>
    <nd ref="26026280"/>
    <tag k="highway" v="secondary"/>
    <tag k="lanes" v="2"/>
    <tag k="name" v="Kapellenstraße"/>
    <tag k="oneway" v="yes"/>
  </way>
  <way id="4303771" version="3" timestamp="2008-07-26T18:02:40Z" uid="16922" user="amai" changeset="599925">
    <nd ref="21498836"/>
    <nd ref="26026271"/>
    <nd ref="26026298"/>
    <nd ref="26026299"/>
    <nd ref="26026273"/>
    <nd ref="26026288"/>
    <nd ref="26026276"/>
    <tag k="created_by" v="Potlatch 0.10"/>
    <tag k="highway" v="primary"/>
    <tag k="name" v="Kapellenstraße"/>
    <tag k="oneway" v="yes"/>
  </way>
  <way id="4303771" version="4" timestamp="2008-07-30T10:04:10Z" uid="6269" user="Mueck" changeset="628766">
    <nd ref="21498836"/>
    <nd ref="26026271"/>
    <nd ref="26026298"/>
    <nd ref="26026299"/>
    <nd ref="26026273"/>
    <nd ref="26026288"/>
    <nd ref="26026276"/>
    <tag k="created_by" v="Potlatch 0.10a"/>
    <tag k="highway" v="secondary"/>
    <tag k="name" v="Kapellenstraße"/>
    <tag k="note" v="im SHP des NVK: I, mit Kriegsstr-Ost II sinnvoller"/>
    <tag k="oneway" v="yes"/>
  </way>
  <way id="4303771" version="5" timestamp="2009-02-06T11:09:10Z" uid="84848" user="elisa" changeset="209500">
    <nd ref="21498836"/>
    <nd ref="26026271"/>
    <tag k="created_by" v="Merkaartor 0.13"/>
    <tag k="highway" v="secondary"/>
    <tag k="name" v="Kapellenstraße"/>
    <tag k="note" v="im SHP des NVK: I, mit Kriegsstr-Ost II sinnvoller"/>
    <tag k="oneway" v="yes"/>
  </way>
  <way id="4303771" version="6" timestamp="2009-06-19T13:03:23Z" uid="85761" user="klausis" changeset="1564619">
    <nd ref="21498836"/>
    <nd ref="26026271"/>
    <tag k="highway" v="secondary"/>
    <tag k="name" v="Kapellenstraße"/>
    <tag k="note" v="im SHP des NVK: I, mit Kriegsstr-Ost II sinnvoller"/>
    <tag k="oneway" v="yes"/>
  </way>
  <way id="4303771" version="7" timestamp="2011-02-03T01:28:21Z" uid="6269" user="Mueck" changeset="7170427">
    <nd ref="1133166133"/>
    <nd ref="1133165987"/>
    <nd ref="1133166036"/>
    <nd ref="1133166035"/>
    <nd ref="1133166138"/>
    <nd ref="1133166021"/>
    <nd ref="26026271"/>
    <nd ref="26026298"/>
    <nd ref="1133166090"/>
    <tag k="highway" v="secondary"/>
    <tag k="name" v="Kapellenstraße"/>
    <tag k="note" v="im SHP des NVK: I, mit Kriegsstr-Ost II sinnvoller"/>
    <tag k="oneway" v="yes"/>
  </way>
  <way id="4303771" version="8" timestamp="2012-01-16T18:14:43Z" uid="165061" user="keinname" changeset="10410364">
    <nd ref="1133166133"/>
    <nd ref="1133165987"/>
    <nd ref="1133166036"/>
    <nd ref="1133166035"/>
    <nd ref="1133166138"/>
    <nd ref="1133166021"/>
    <nd ref="26026271"/>
    <nd ref="26026298"/>
    <nd ref="1133166090"/>
    <tag k="highway" v="secondary"/>
    <tag k="lanes" v="2"/>
    <tag k="name" v="Kapellenstraße"/>
    <tag k="note" v="im SHP des NVK: I, mit Kriegsstr-Ost II sinnvoller"/>
    <tag k="oneway" v="yes"/>
  </way>
  <way id="4303772" version="3" timestamp="2008-07-30T10:04:12Z" uid="6269" user="Mueck" changeset="628766">
    <nd ref="26026280"/>
    <nd ref="26026275"/>
    <nd ref="26026272"/>
    <nd ref="21498836"/>
    <tag k="created_by" v="Potlatch 0.10a"/>
    <tag k="highway" v="secondary"/>
    <tag k="name" v="Kapellenstraße"/>
    <tag k="note" v="im SHP des NVK: I, mit Kriegsstr-Ost II sinnvoller"/>
    <tag k="oneway" v="yes"/>
  </way>
  <way id="4303772" version="4" timestamp="2009-02-09T12:46:56Z" uid="12150" user="MrTweek" changeset="302902">
    <nd ref="26026280"/>
    <nd ref="26026275"/>
    <tag k="created_by" v="Potlatch 0.10a"/>
    <tag k="highway" v="secondary"/>
    <tag k="name" v="Kapellenstraße"/>
    <tag k="note" v="im SHP des NVK: I, mit Kriegsstr-Ost II sinnvoller"/>
    <tag k="oneway" v="yes"/>
  </way>
  <way id="4303772" version="5" timestamp="2009-06-21T18:13:29Z" uid="85761" user="klausis" changeset="1586466">
    <nd ref="26026280"/>
    <nd ref="26026275"/>
    <tag k="highway" v="secondary"/>
    <tag k="name" v="Kapellenstraße"/>
    <tag k="note" v="im SHP des NVK: I, mit Kriegsstr-Ost II sinnvoller"/>
    <tag k="oneway" v="yes"/>
  </way>
  <way id="4303772" version="6" timestamp="2009-08-17T07:51:53Z" uid="151735" user="Sophie Werner" changeset="2174581">
    <nd ref="26026280"/>
    <nd ref="469686719"/>
    <nd ref="26026275"/>
    <tag k="highway" v="secondary"/>
    <tag k="name" v="Kapellenstraße"/>
    <tag k="note" v="im SHP des NVK: I, mit Kriegsstr-Ost II sinnvoller"/>
    <tag k="oneway" v="yes"/>
  </way>
  <way id="4303772" version="7" timestamp="2011-02-05T17:37:34Z" uid="165061" user="keinname" changeset="7195145">
    <nd ref="26026280"/>
    <nd ref="469686719"/>
    <nd ref="26026275"/>
    <tag k="highway" v="secondary"/>
    <tag k="lanes" v="2"/>
    <tag k="name" v="Kapellenstraße"/>
    <tag k="note" v="im SHP des NVK: I, mit Kriegsstr-Ost II sinnvoller"/>
    <tag k="oneway" v="yes"/>
  </way>
  <way id="4303772" version="8" timestamp="2012-01-26T20:51:02Z" uid="60137" user="michael2402" changeset="10507120">
    <nd ref="26026280"/>
    <nd ref="1606908435"/>
    <nd ref="469686719"/>
    <nd ref="26026275"/>
    <tag k="highway" v="secondary"/>
    <tag k="lanes" v="2"/>
    <tag k="name" v="Kapellenstraße"/>
    <tag k="note" v="im SHP des NVK: I, mit Kriegsstr-Ost II sinnvoller"/>
    <tag k="oneway" v="yes"/>
  </way>
  <way id="4303773" version="5" timestamp="2008-07-30T10:08:53Z" uid="6269" user="Mueck" changeset="628766">
    <nd ref="21498836"/>
    <nd ref="14794167"/>
    <nd ref="278070632"/>
    <tag k="created_by" v="Potlatch 0.10a"/>
    <tag k="highway" v="secondary"/>
    <tag k="name" v="Kapellenstraße"/>
    <tag k="note" v="im SHP des NVK: I, mit Kriegsstr-Ost II sinnvoller"/>
  </way>
  <way id="4303773" version="6" timestamp="2008-07-30T10:09:14Z" uid="6269" user="Mueck" changeset="628766">
    <nd ref="21498836"/>
    <nd ref="14794167"/>
    <nd ref="278070632"/>
    <nd ref="21498829"/>
    <tag k="created_by" v="Potlatch 0.10a"/>
    <tag k="highway" v="secondary"/>
    <tag k="name" v="Kapellenstraße"/>
    <tag k="note" v="im SHP des NVK: I, mit Kriegsstr-Ost II sinnvoller"/>
    <tag k="oneway" v="yes"/>
  </way>
  <way id="4303773" version="7" timestamp="2008-12-17T23:17:57Z" uid="39381" user="DD1GJ" changeset="463187">
    <nd ref="21498836"/>
    <nd ref="319623308"/>
    <nd ref="14794167"/>
    <nd ref="319623307"/>
    <nd ref="278070632"/>
    <nd ref="21498829"/>
    <tag k="created_by" v="Potlatch 0.10a"/>
    <tag k="highway" v="secondary"/>
    <tag k="name" v="Kapellenstraße"/>
    <tag k="note" v="im SHP des NVK: I, mit Kriegsstr-Ost II sinnvoller"/>
    <tag k="oneway" v="yes"/>
  </way>
  <way id="4303773" version="8" timestamp="2009-02-06T11:09:09Z" uid="84848" user="elisa" changeset="209500">
    <nd ref="21498836"/>
    <nd ref="319623308"/>
    <nd ref="14794167"/>
    <nd ref="319623307"/>
    <nd ref="278070632"/>
    <nd ref="21498829"/>
    <tag k="created_by" v="Merkaartor 0.13"/>
    <tag k="highway" v="secondary"/>
    <tag k="lanes" v="4"/>
    <tag k="name" v="Kapellenstraße"/>
    <tag k="note" v="im SHP des NVK: I, mit Kriegsstr-Ost II sinnvoller"/>
    <tag k="oneway" v="yes"/>
  </way>
  <way id="4303773" version="9" timestamp="2009-02-06T12:32:43Z" uid="84848" user="elisa" changeset="209500">
    <nd ref="21498836"/>
    <nd ref="319623308"/>
    <nd ref="14794167"/>
    <nd ref="319623307"/>
    <nd ref="341945384"/>
    <nd ref="278070632"/>
    <nd ref="21498829"/>
    <tag k="created_by" v="Merkaartor 0.13"/>
    <tag k="highway" v="secondary"/>
    <tag k="lanes" v="4"/>
    <tag k="name" v="Kapellenstraße"/>
    <tag k="note" v="im SHP des NVK: I, mit Kriegsstr-Ost II sinnvoller"/>
    <tag k="oneway" v="yes"/>
  </way>
  <way id="4303773" version="10" timestamp="2009-03-29T17:33:04Z" uid="94579" user="Cali42" changeset="868651">
    <nd ref="21498836"/>
    <nd ref="319623308"/>
    <nd ref="14794167"/>
    <nd ref="319623307"/>
    <nd ref="341945384"/>
    <nd ref="278070632"/>
    <nd ref="21498829"/>
    <tag k="created_by" v="Potlatch 0.10f"/>
    <tag k="highway" v="secondary"/>
    <tag k="lanes" v="4"/>
    <tag k="name" v="Kapellenstraße"/>
    <tag k="note" v="im SHP des NVK: I, mit Kriegsstr-Ost II sinnvoller"/>
  </way>
  <way id="4303773" version="11" timestamp="2009-04-30T21:19:10Z" uid="6269" user="Mueck" changeset="1031076">
    <nd ref="21498836"/>
    <nd ref="319623308"/>
    <nd ref="14794167"/>
    <nd ref="319623307"/>
    <nd ref="341945384"/>
    <nd ref="278070632"/>
    <nd ref="387908697"/>
    <tag k="created_by" v="Potlatch 0.10f"/>
    <tag k="highway" v="secondary"/>
    <tag k="lanes" v="4"/>
    <tag k="name" v="Kapellenstraße"/>
    <tag k="note" v="im SHP des NVK: I, mit Kriegsstr-Ost II sinnvoller"/>
  </way>
  <way id="4303773" version="12" timestamp="2009-04-30T21:19:28Z" uid="6269" user="Mueck" changeset="1031076">
    <nd ref="21498836"/>
    <nd ref="319623308"/>
    <nd ref="14794167"/>
    <nd ref="319623307"/>
    <nd ref="341945384"/>
    <nd ref="278070632"/>
    <tag k="created_by" v="Potlatch 0.10f"/>
    <tag k="highway" v="secondary"/>
    <tag k="lanes" v="4"/>
    <tag k="name" v="Kapellenstraße"/>
    <tag k="note" v="im SHP des NVK: I, mit Kriegsstr-Ost II sinnvoller"/>
  </way>
  <way id="4303773" version="13" timestamp="2009-05-24T14:01:54Z" uid="6269" user="Mueck" changeset="1305941">
    <nd ref="21498836"/>
    <nd ref="319623308"/>
    <nd ref="14794167"/>
    <nd ref="319623307"/>
    <nd ref="341945384"/>
    <nd ref="278070632"/>
    <tag k="created_by" v="Potlatch 0.10f"/>
    <tag k="cycleway" v="track"/>
    <tag k="highway" v="secondary"/>
    <tag k="lanes" v="4"/>
    <tag k="name" v="Kapellenstraße"/>
    <tag k="note" v="im SHP des NVK: I, mit Kriegsstr-Ost II sinnvoller"/>
  </way>
  <way id="4303773" version="14" timestamp="2009-06-19T13:03:24Z" uid="85761" user="klausis" changeset="1564619">
    <nd ref="21498836"/>
    <nd ref="319623308"/>
    <nd ref="14794167"/>
    <nd ref="319623307"/>
    <nd ref="341945384"/>
    <nd ref="278070632"/>
    <tag k="cycleway" v="track"/>
    <tag k="highway" v="secondary"/>
    <tag k="lanes" v="4"/>
    <tag k="name" v="Kapellenstraße"/>
    <tag k="note" v="im SHP des NVK: I, mit Kriegsstr-Ost II sinnvoller"/>
  </way>
  <way id="4303773" version="15" timestamp="2011-02-03T01:28:21Z" uid="6269" user="Mueck" changeset="7170427">
    <nd ref="1133166133"/>
    <nd ref="319623307"/>
    <nd ref="341945384"/>
    <nd ref="1133166076"/>
    <nd ref="1133166020"/>
    <nd ref="278070632"/>
    <tag k="highway" v="secondary"/>
    <tag k="lanes" v="4"/>
    <tag k="name" v="Kapellenstraße"/>
    <tag k="note" v="im SHP des NVK: I, mit Kriegsstr-Ost II sinnvoller"/>
  </way>
  <way id="4303942" version="10" timestamp="2010-04-22T16:24:55Z" uid="6269" user="Mueck" changeset="4496332">
    <nd ref="526163"/>
    <nd ref="26027111"/>
    <tag k="highway" v="primary"/>
    <tag k="layer" v="-1"/>
    <tag k="minspeed" v="30"/>
    <tag k="motorroad" v="no"/>
    <tag k="name" v="Kriegsstraße"/>
    <tag k="oneway" v="yes"/>
    <tag k="ref" v="B 10"/>
    <tag k="tunnel" v="yes"/>
  </way>
  <way id="4303942" version="11" timestamp="2010-06-08T12:33:27Z" uid="4188" user="RedEagle" changeset="4936835">
    <nd ref="526163"/>
    <nd ref="26027111"/>
    <tag k="highway" v="primary"/>
    <tag k="layer" v="-1"/>
    <tag k="maxspeed" v="70"/>
    <tag k="minspeed" v="30"/>
    <tag k="motorroad" v="no"/>
    <tag k="name" v="Kriegsstraße"/>
    <tag k="oneway" v="yes"/>
    <tag k="ref" v="B 10"/>
    <tag k="tunnel" v="yes"/>
  </way>
  <way id="4303942" version="12" timestamp="2010-10-27T20:48:33Z" uid="263596" user="Oberförster" changeset="6201739">
    <nd ref="526163"/>
    <nd ref="26027111"/>
    <tag k="highway" v="primary"/>
    <tag k="layer" v="-1"/>
    <tag k="maxspeed" v="70"/>
    <tag k="minspeed" v="30"/>
    <tag k="motorroad" v="yes"/>
    <tag k="name" v="Kriegsstraße"/>
    <tag k="oneway" v="yes"/>
    <tag k="ref" v="B 10"/>
    <tag k="tunnel" v="yes"/>
  </way>
  <way id="4303942" version="13" timestamp="2010-11-04T18:37:44Z" uid="6269" user="Mueck" changeset="6290631">
    <nd ref="526163"/>
    <nd ref="26027111"/>
    <tag k="highway" v="primary"/>
    <tag k="layer" v="-1"/>
    <tag k="maxspeed" v="70"/>
    <tag k="minspeed" v="30"/>
    <tag k="motorroad" v="no"/>
    <tag k="name" v="Kriegsstraße"/>
    <tag k="oneway" v="yes"/>
    <tag k="ref" v="B 10"/>
    <tag k="tunnel" v="yes"/>
  </way>
  <way id="4303942" version="14" timestamp="2011-10-10T16:48:47Z" uid="4499" user="Jochen Topf" changeset="9523441">
    <nd ref="526163"/>
    <nd ref="26027111"/>
    <tag k="highway" v="primary"/>
    <tag k="layer" v="-1"/>
    <tag k="maxspeed" v="70"/>
    <tag k="minspeed" v="30"/>
    <tag k="motorroad" v="no"/>
    <tag k="name" v="Kriegsstraße"/>
    <tag k="oneway" v="yes"/>
    <tag k="ref" v="B 10"/>
    <tag k="tmc" v="DE:30890-30889"/>
    <tag k="tunnel" v="yes"/>
  </way>
  <way id="4303942" version="15" timestamp="2011-10-13T15:33:26Z" uid="4499" user="Jochen Topf" changeset="9548199">
    <nd ref="526163"/>
    <nd ref="26027111"/>
    <tag k="highway" v="primary"/>
    <tag k="layer" v="-1"/>
    <tag k="maxspeed" v="70"/>
    <tag k="minspeed" v="30"/>
    <tag k="motorroad" v="no"/>
    <tag k="name" v="Kriegsstraße"/>
    <tag k="oneway" v="yes"/>
    <tag k="ref" v="B 10"/>
    <tag k="tmc" v="DE:30890+30891"/>
    <tag k="tunnel" v="yes"/>
  </way>
  <way id="4303942" version="16" timestamp="2011-10-24T21:35:22Z" uid="165061" user="keinname" changeset="9647879">
    <nd ref="526163"/>
    <nd ref="26027111"/>
    <tag k="highway" v="primary"/>
    <tag k="layer" v="-1"/>
    <tag k="maxspeed" v="70"/>
    <tag k="minspeed" v="30"/>
    <tag k="motorroad" v="no"/>
    <tag k="name" v="Kriegsstraße"/>
    <tag k="oneway" v="yes"/>
    <tag k="ref" v="B 10"/>
    <tag k="tmc" v="DE:30890+30891"/>
    <tag k="tunnel" v="yes"/>
    <tag k="zone:traffic" v="DE:urban"/>
  </way>
  <way id="4303942" version="17" timestamp="2012-01-16T18:14:48Z" uid="165061" user="keinname" changeset="10410364">
    <nd ref="526163"/>
    <nd ref="26027111"/>
    <tag k="highway" v="primary"/>
    <tag k="lanes" v="2"/>
    <tag k="layer" v="-1"/>
    <tag k="maxspeed" v="70"/>
    <tag k="minspeed" v="30"/>
    <tag k="motorroad" v="no"/>
    <tag k="name" v="Kriegsstraße"/>
    <tag k="oneway" v="yes"/>
    <tag k="ref" v="B 10"/>
    <tag k="tmc" v="DE:30890+30891"/>
    <tag k="tunnel" v="yes"/>
    <tag k="zone:traffic" v="DE:urban"/>
  </way>
  <way id="4303942" version="18" timestamp="2012-02-14T18:40:44Z" uid="60137" user="michael2402" changeset="10685803">
    <nd ref="526163"/>
    <nd ref="26027111"/>
    <tag k="highway" v="primary"/>
    <tag k="lanes" v="2"/>
    <tag k="layer" v="-1"/>
    <tag k="maxspeed" v="70"/>
    <tag k="minspeed" v="30"/>
    <tag k="motorroad" v="no"/>
    <tag k="name" v="Kriegsstraße"/>
    <tag k="oneway" v="yes"/>
    <tag k="ref" v="B 10"/>
    <tag k="tmc" v="DE:30890+30891"/>
    <tag k="tunnel" v="yes"/>
    <tag k="zone:traffic" v="DE:urban"/>
  </way>
  <way id="4303943" version="10" timestamp="2010-04-22T16:25:23Z" uid="6269" user="Mueck" changeset="4496332">
    <nd ref="26027138"/>
    <nd ref="26027483"/>
    <nd ref="26027112"/>
    <nd ref="26027113"/>
    <nd ref="26027114"/>
    <tag k="highway" v="primary"/>
    <tag k="minspeed" v="30"/>
    <tag k="motorroad" v="no"/>
    <tag k="name" v="Kriegsstraße"/>
    <tag k="oneway" v="yes"/>
    <tag k="ref" v="B 10"/>
  </way>
  <way id="4303943" version="11" timestamp="2010-06-08T12:33:28Z" uid="4188" user="RedEagle" changeset="4936835">
    <nd ref="26027138"/>
    <nd ref="26027483"/>
    <nd ref="26027112"/>
    <nd ref="26027113"/>
    <nd ref="26027114"/>
    <tag k="highway" v="primary"/>
    <tag k="maxspeed" v="70"/>
    <tag k="minspeed" v="30"/>
    <tag k="motorroad" v="no"/>
    <tag k="name" v="Kriegsstraße"/>
    <tag k="oneway" v="yes"/>
    <tag k="ref" v="B 10"/>
  </way>
  <way id="4303943" version="12" timestamp="2010-10-27T20:48:32Z" uid="263596" user="Oberförster" changeset="6201739">
    <nd ref="26027138"/>
    <nd ref="26027483"/>
    <nd ref="26027112"/>
    <nd ref="26027113"/>
    <nd ref="26027114"/>
    <tag k="highway" v="primary"/>
    <tag k="maxspeed" v="70"/>
    <tag k="minspeed" v="30"/>
    <tag k="motorroad" v="yes"/>
    <tag k="name" v="Kriegsstraße"/>
    <tag k="oneway" v="yes"/>
    <tag k="ref" v="B 10"/>
  </way>
  <way id="4303943" version="13" timestamp="2010-11-04T18:37:11Z" uid="6269" user="Mueck" changeset="6290631">
    <nd ref="26027138"/>
    <nd ref="26027483"/>
    <nd ref="26027112"/>
    <nd ref="26027113"/>
    <nd ref="26027114"/>
    <tag k="highway" v="primary"/>
    <tag k="maxspeed" v="70"/>
    <tag k="minspeed" v="30"/>
    <tag k="motorroad" v="yes"/>
    <tag k="name" v="o"/>
    <tag k="oneway" v="yes"/>
    <tag k="ref" v="B 10"/>
  </way>
  <way id="4303943" version="14" timestamp="2010-11-04T18:37:23Z" uid="6269" user="Mueck" changeset="6290631">
    <nd ref="26027138"/>
    <nd ref="26027483"/>
    <nd ref="26027112"/>
    <nd ref="26027113"/>
    <nd ref="26027114"/>
    <tag k="highway" v="primary"/>
    <tag k="maxspeed" v="70"/>
    <tag k="minspeed" v="30"/>
    <tag k="motorroad" v="no"/>
    <tag k="name" v="o"/>
    <tag k="oneway" v="yes"/>
    <tag k="ref" v="B 10"/>
  </way>
  <way id="4303943" version="15" timestamp="2011-01-28T13:09:04Z" uid="6269" user="Mueck" changeset="7112784">
    <nd ref="26027138"/>
    <nd ref="26027483"/>
    <nd ref="26027112"/>
    <nd ref="26027113"/>
    <nd ref="1124828663"/>
    <nd ref="26027114"/>
    <tag k="highway" v="primary"/>
    <tag k="maxspeed" v="70"/>
    <tag k="minspeed" v="30"/>
    <tag k="motorroad" v="no"/>
    <tag k="name" v="o"/>
    <tag k="oneway" v="yes"/>
    <tag k="ref" v="B 10"/>
  </way>
  <way id="4303943" version="16" timestamp="2011-07-29T11:29:01Z" uid="493999" user="BastiaanH" changeset="8862450">
    <nd ref="26027138"/>
    <nd ref="26027483"/>
    <nd ref="26027112"/>
    <nd ref="26027113"/>
    <nd ref="1124828663"/>
    <nd ref="26027114"/>
    <tag k="highway" v="primary"/>
    <tag k="maxspeed" v="70"/>
    <tag k="minspeed" v="30"/>
    <tag k="motorroad" v="no"/>
    <tag k="name" v="Kriegsstraße"/>
    <tag k="oneway" v="yes"/>
    <tag k="ref" v="B 10"/>
  </way>
  <way id="4303943" version="17" timestamp="2011-10-10T16:48:49Z" uid="4499" user="Jochen Topf" changeset="9523441">
    <nd ref="26027138"/>
    <nd ref="26027483"/>
    <tag k="highway" v="primary"/>
    <tag k="maxspeed" v="70"/>
    <tag k="minspeed" v="30"/>
    <tag k="motorroad" v="no"/>
    <tag k="name" v="Kriegsstraße"/>
    <tag k="oneway" v="yes"/>
    <tag k="ref" v="B 10"/>
    <tag k="tmc" v="DE:30889+30890"/>
  </way>
  <way id="4303943" version="18" timestamp="2011-10-13T15:33:27Z" uid="4499" user="Jochen Topf" changeset="9548199">
    <nd ref="26027138"/>
    <nd ref="26027483"/>
    <tag k="highway" v="primary"/>
    <tag k="maxspeed" v="70"/>
    <tag k="minspeed" v="30"/>
    <tag k="motorroad" v="no"/>
    <tag k="name" v="Kriegsstraße"/>
    <tag k="oneway" v="yes"/>
    <tag k="ref" v="B 10"/>
    <tag k="tmc" v="DE:30889-30888"/>
  </way>
  <way id="4303943" version="19" timestamp="2012-01-16T18:14:47Z" uid="165061" user="keinname" changeset="10410364">
    <nd ref="26027138"/>
    <nd ref="26027483"/>
    <tag k="highway" v="primary"/>
    <tag k="lanes" v="3"/>
    <tag k="lanes:turnright" v="1"/>
    <tag k="maxspeed" v="70"/>
    <tag k="minspeed" v="30"/>
    <tag k="motorroad" v="no"/>
    <tag k="name" v="Kriegsstraße"/>
    <tag k="oneway" v="yes"/>
    <tag k="ref" v="B 10"/>
    <tag k="tmc" v="DE:30889-30888"/>
  </way>
  <way id="4303944" version="11" timestamp="2010-04-22T16:25:00Z" uid="6269" user="Mueck" changeset="4496332">
    <nd ref="26027114"/>
    <nd ref="465236072"/>
    <nd ref="21492595"/>
    <tag k="highway" v="primary"/>
    <tag k="layer" v="-1"/>
    <tag k="minspeed" v="30"/>
    <tag k="motorroad" v="no"/>
    <tag k="name" v="Kriegsstraße"/>
    <tag k="oneway" v="yes"/>
    <tag k="ref" v="B 10"/>
    <tag k="tunnel" v="yes"/>
  </way>
  <way id="4303944" version="12" timestamp="2010-06-08T12:33:26Z" uid="4188" user="RedEagle" changeset="4936835">
    <nd ref="26027114"/>
    <nd ref="465236072"/>
    <nd ref="21492595"/>
    <tag k="highway" v="primary"/>
    <tag k="layer" v="-1"/>
    <tag k="maxspeed" v="70"/>
    <tag k="minspeed" v="30"/>
    <tag k="motorroad" v="no"/>
    <tag k="name" v="Kriegsstraße"/>
    <tag k="oneway" v="yes"/>
    <tag k="ref" v="B 10"/>
    <tag k="tunnel" v="yes"/>
  </way>
  <way id="4303944" version="13" timestamp="2010-10-27T20:48:33Z" uid="263596" user="Oberförster" changeset="6201739">
    <nd ref="26027114"/>
    <nd ref="465236072"/>
    <nd ref="21492595"/>
    <tag k="highway" v="primary"/>
    <tag k="layer" v="-1"/>
    <tag k="maxspeed" v="70"/>
    <tag k="minspeed" v="30"/>
    <tag k="motorroad" v="yes"/>
    <tag k="name" v="Kriegsstraße"/>
    <tag k="oneway" v="yes"/>
    <tag k="ref" v="B 10"/>
    <tag k="tunnel" v="yes"/>
  </way>
  <way id="4303944" version="14" timestamp="2010-11-04T18:37:50Z" uid="6269" user="Mueck" changeset="6290631">
    <nd ref="26027114"/>
    <nd ref="465236072"/>
    <nd ref="21492595"/>
    <tag k="highway" v="primary"/>
    <tag k="layer" v="-1"/>
    <tag k="maxspeed" v="70"/>
    <tag k="minspeed" v="30"/>
    <tag k="motorroad" v="no"/>
    <tag k="name" v="Kriegsstraße"/>
    <tag k="oneway" v="yes"/>
    <tag k="ref" v="B 10"/>
    <tag k="tunnel" v="yes"/>
  </way>
  <way id="4303944" version="15" timestamp="2011-01-28T13:09:05Z" uid="6269" user="Mueck" changeset="7112784">
    <nd ref="26027114"/>
    <nd ref="1124828611"/>
    <nd ref="21492595"/>
    <tag k="highway" v="primary"/>
    <tag k="layer" v="-1"/>
    <tag k="maxspeed" v="70"/>
    <tag k="minspeed" v="30"/>
    <tag k="motorroad" v="no"/>
    <tag k="name" v="Kriegsstraße"/>
    <tag k="oneway" v="yes"/>
    <tag k="ref" v="B 10"/>
    <tag k="tunnel" v="yes"/>
  </way>
  <way id="4303944" version="16" timestamp="2011-03-21T19:31:44Z" uid="189170" user="Videoüberwachter" changeset="7630912">
    <nd ref="26027114"/>
    <nd ref="21492595"/>
    <tag k="highway" v="primary"/>
    <tag k="layer" v="-1"/>
    <tag k="maxspeed" v="70"/>
    <tag k="minspeed" v="30"/>
    <tag k="motorroad" v="no"/>
    <tag k="name" v="Kriegsstraße"/>
    <tag k="oneway" v="yes"/>
    <tag k="ref" v="B 10"/>
    <tag k="tunnel" v="yes"/>
  </way>
  <way id="4303944" version="17" timestamp="2011-10-10T16:48:47Z" uid="4499" user="Jochen Topf" changeset="9523441">
    <nd ref="26027114"/>
    <nd ref="21492595"/>
    <tag k="highway" v="primary"/>
    <tag k="layer" v="-1"/>
    <tag k="maxspeed" v="70"/>
    <tag k="minspeed" v="30"/>
    <tag k="motorroad" v="no"/>
    <tag k="name" v="Kriegsstraße"/>
    <tag k="oneway" v="yes"/>
    <tag k="ref" v="B 10"/>
    <tag k="tmc" v="DE:30890+30891"/>
    <tag k="tunnel" v="yes"/>
  </way>
  <way id="4303944" version="18" timestamp="2011-10-13T15:33:27Z" uid="4499" user="Jochen Topf" changeset="9548199">
    <nd ref="26027114"/>
    <nd ref="21492595"/>
    <tag k="highway" v="primary"/>
    <tag k="layer" v="-1"/>
    <tag k="maxspeed" v="70"/>
    <tag k="minspeed" v="30"/>
    <tag k="motorroad" v="no"/>
    <tag k="name" v="Kriegsstraße"/>
    <tag k="oneway" v="yes"/>
    <tag k="ref" v="B 10"/>
    <tag k="tmc" v="DE:30890-30889"/>
    <tag k="tunnel" v="yes"/>
  </way>
  <way id="4303944" version="19" timestamp="2011-10-24T21:35:29Z" uid="165061" user="keinname" changeset="9647879">
    <nd ref="26027114"/>
    <nd ref="21492595"/>
    <tag k="highway" v="primary"/>
    <tag k="layer" v="-1"/>
    <tag k="maxspeed" v="70"/>
    <tag k="minspeed" v="30"/>
    <tag k="motorroad" v="no"/>
    <tag k="name" v="Kriegsstraße"/>
    <tag k="oneway" v="yes"/>
    <tag k="ref" v="B 10"/>
    <tag k="tmc" v="DE:30890-30889"/>
    <tag k="tunnel" v="yes"/>
    <tag k="zone:traffic" v="DE:urban"/>
  </way>
  <way id="4303944" version="20" timestamp="2012-01-16T18:14:45Z" uid="165061" user="keinname" changeset="10410364">
    <nd ref="26027114"/>
    <nd ref="21492595"/>
    <tag k="highway" v="primary"/>
    <tag k="lanes" v="2"/>
    <tag k="layer" v="-1"/>
    <tag k="maxspeed" v="70"/>
    <tag k="minspeed" v="30"/>
    <tag k="motorroad" v="no"/>
    <tag k="name" v="Kriegsstraße"/>
    <tag k="oneway" v="yes"/>
    <tag k="ref" v="B 10"/>
    <tag k="tmc" v="DE:30890-30889"/>
    <tag k="tunnel" v="yes"/>
    <tag k="zone:traffic" v="DE:urban"/>
  </way>
  <way id="4303944" version="21" timestamp="2012-02-14T18:40:45Z" uid="60137" user="michael2402" changeset="10685803">
    <nd ref="26027114"/>
    <nd ref="21492595"/>
    <tag k="highway" v="primary"/>
    <tag k="lanes" v="2"/>
    <tag k="layer" v="-1"/>
    <tag k="maxspeed" v="70"/>
    <tag k="minspeed" v="30"/>
    <tag k="motorroad" v="no"/>
    <tag k="name" v="Kriegsstraße"/>
    <tag k="oneway" v="yes"/>
    <tag k="ref" v="B 10"/>
    <tag k="tmc" v="DE:30890-30889"/>
    <tag k="tunnel" v="yes"/>
    <tag k="zone:traffic" v="DE:urban"/>
  </way>
  <way id="4303945" version="9" timestamp="2010-04-22T16:24:45Z" uid="6269" user="Mueck" changeset="4496332">
    <nd ref="526160"/>
    <nd ref="26027118"/>
    <nd ref="26027119"/>
    <nd ref="526161"/>
    <nd ref="526163"/>
    <tag k="highway" v="primary"/>
    <tag k="motorroad" v="no"/>
    <tag k="name" v="Kriegsstraße"/>
    <tag k="oneway" v="yes"/>
    <tag k="ref" v="B 10"/>
  </way>
  <way id="4303945" version="10" timestamp="2010-10-27T20:48:33Z" uid="263596" user="Oberförster" changeset="6201739">
    <nd ref="526160"/>
    <nd ref="26027118"/>
    <nd ref="26027119"/>
    <nd ref="526161"/>
    <nd ref="526163"/>
    <tag k="highway" v="primary"/>
    <tag k="motorroad" v="yes"/>
    <tag k="name" v="Kriegsstraße"/>
    <tag k="oneway" v="yes"/>
    <tag k="ref" v="B 10"/>
  </way>
  <way id="4303945" version="11" timestamp="2010-11-04T18:37:55Z" uid="6269" user="Mueck" changeset="6290631">
    <nd ref="526160"/>
    <nd ref="26027118"/>
    <nd ref="26027119"/>
    <nd ref="526161"/>
    <nd ref="526163"/>
    <tag k="highway" v="primary"/>
    <tag k="motorroad" v="no"/>
    <tag k="name" v="Kriegsstraße"/>
    <tag k="oneway" v="yes"/>
    <tag k="ref" v="B 10"/>
  </way>
  <way id="4303945" version="12" timestamp="2011-01-28T13:09:05Z" uid="6269" user="Mueck" changeset="7112784">
    <nd ref="526160"/>
    <nd ref="1124828665"/>
    <nd ref="26027118"/>
    <nd ref="1124828605"/>
    <nd ref="26027119"/>
    <nd ref="1124828626"/>
    <nd ref="1124828558"/>
    <nd ref="526161"/>
    <nd ref="526163"/>
    <tag k="highway" v="primary"/>
    <tag k="motorroad" v="no"/>
    <tag k="name" v="Kriegsstraße"/>
    <tag k="oneway" v="yes"/>
    <tag k="ref" v="B 10"/>
  </way>
  <way id="4303945" version="13" timestamp="2011-04-13T20:11:17Z" uid="47784" user="siski" changeset="7855457">
    <nd ref="526160"/>
    <nd ref="1124828665"/>
    <nd ref="26027118"/>
    <nd ref="1124828605"/>
    <nd ref="26027119"/>
    <nd ref="1124828626"/>
    <nd ref="1124828558"/>
    <nd ref="526161"/>
    <nd ref="526163"/>
    <tag k="highway" v="primary"/>
    <tag k="maxspeed" v="70"/>
    <tag k="motorroad" v="no"/>
    <tag k="name" v="Kriegsstraße"/>
    <tag k="oneway" v="yes"/>
    <tag k="ref" v="B 10"/>
  </way>
  <way id="4303945" version="14" timestamp="2011-06-17T16:55:37Z" uid="165061" user="keinname" changeset="8466542">
    <nd ref="526160"/>
    <nd ref="1124828665"/>
    <nd ref="26027118"/>
    <nd ref="1124828605"/>
    <nd ref="26027119"/>
    <nd ref="1124828626"/>
    <nd ref="1124828558"/>
    <nd ref="526161"/>
    <nd ref="526163"/>
    <tag k="highway" v="primary"/>
    <tag k="maxspeed" v="70"/>
    <tag k="minspeed" v="30"/>
    <tag k="motorroad" v="no"/>
    <tag k="name" v="Kriegsstraße"/>
    <tag k="oneway" v="yes"/>
    <tag k="ref" v="B 10"/>
  </way>
  <way id="4303945" version="15" timestamp="2011-10-10T16:48:53Z" uid="4499" user="Jochen Topf" changeset="9523441">
    <nd ref="526160"/>
    <nd ref="1124828665"/>
    <nd ref="26027118"/>
    <nd ref="1124828605"/>
    <nd ref="26027119"/>
    <nd ref="1124828626"/>
    <nd ref="1124828558"/>
    <nd ref="526161"/>
    <nd ref="526163"/>
    <tag k="highway" v="primary"/>
    <tag k="maxspeed" v="70"/>
    <tag k="minspeed" v="30"/>
    <tag k="motorroad" v="no"/>
    <tag k="name" v="Kriegsstraße"/>
    <tag k="oneway" v="yes"/>
    <tag k="ref" v="B 10"/>
    <tag k="tmc" v="DE:30890-30889"/>
  </way>
  <way id="4303945" version="16" timestamp="2011-10-13T15:33:32Z" uid="4499" user="Jochen Topf" changeset="9548199">
    <nd ref="526160"/>
    <nd ref="1124828665"/>
    <nd ref="26027118"/>
    <nd ref="1124828605"/>
    <nd ref="26027119"/>
    <nd ref="1124828626"/>
    <nd ref="1124828558"/>
    <nd ref="526161"/>
    <nd ref="526163"/>
    <tag k="highway" v="primary"/>
    <tag k="maxspeed" v="70"/>
    <tag k="minspeed" v="30"/>
    <tag k="motorroad" v="no"/>
    <tag k="name" v="Kriegsstraße"/>
    <tag k="oneway" v="yes"/>
    <tag k="ref" v="B 10"/>
    <tag k="tmc" v="DE:30890+30891"/>
  </way>
  <way id="4303945" version="17" timestamp="2011-10-24T21:35:13Z" uid="165061" user="keinname" changeset="9647879">
    <nd ref="526160"/>
    <nd ref="1124828665"/>
    <nd ref="26027118"/>
    <nd ref="1124828605"/>
    <nd ref="26027119"/>
    <nd ref="1124828626"/>
    <nd ref="1124828558"/>
    <nd ref="526161"/>
    <nd ref="526163"/>
    <tag k="highway" v="primary"/>
    <tag k="maxspeed" v="70"/>
    <tag k="minspeed" v="30"/>
    <tag k="motorroad" v="no"/>
    <tag k="name" v="Kriegsstraße"/>
    <tag k="oneway" v="yes"/>
    <tag k="ref" v="B 10"/>
    <tag k="tmc" v="DE:30890+30891"/>
    <tag k="zone:traffic" v="DE:urban"/>
  </way>
  <way id="4303945" version="18" timestamp="2012-01-16T18:15:05Z" uid="165061" user="keinname" changeset="10410364">
    <nd ref="526160"/>
    <nd ref="1124828665"/>
    <nd ref="26027118"/>
    <nd ref="1124828605"/>
    <nd ref="26027119"/>
    <nd ref="1124828626"/>
    <nd ref="1124828558"/>
    <nd ref="526161"/>
    <nd ref="526163"/>
    <tag k="highway" v="primary"/>
    <tag k="lanes" v="2"/>
    <tag k="maxspeed" v="70"/>
    <tag k="minspeed" v="30"/>
    <tag k="motorroad" v="no"/>
    <tag k="name" v="Kriegsstraße"/>
    <tag k="oneway" v="yes"/>
    <tag k="ref" v="B 10"/>
    <tag k="tmc" v="DE:30890+30891"/>
    <tag k="zone:traffic" v="DE:urban"/>
  </way>
  <way id="4303946" version="3" timestamp="2011-03-20T21:18:11Z" uid="6269" user="Mueck" changeset="7621548">
    <nd ref="26027127"/>
    <nd ref="26027126"/>
    <tag k="highway" v="primary_link"/>
    <tag k="oneway" v="yes"/>
  </way>
  <way id="4303946" version="4" timestamp="2012-02-10T09:14:02Z" uid="165061" user="keinname" changeset="10641442">
    <nd ref="26027127"/>
    <nd ref="26027126"/>
    <tag k="highway" v="primary_link"/>
    <tag k="lanes" v="1"/>
    <tag k="oneway" v="yes"/>
  </way>
  <way id="4303948" version="7" timestamp="2011-01-28T13:09:06Z" uid="6269" user="Mueck" changeset="7112784">
    <nd ref="21492722"/>
    <nd ref="662968554"/>
    <nd ref="1124828676"/>
    <nd ref="1124828586"/>
    <nd ref="26027120"/>
    <nd ref="1124828617"/>
    <nd ref="26027121"/>
    <nd ref="1124828631"/>
    <nd ref="26027122"/>
    <nd ref="1124828621"/>
    <nd ref="26027117"/>
    <tag k="highway" v="primary"/>
    <tag k="name" v="Kriegsstraße"/>
    <tag k="oneway" v="yes"/>
    <tag k="ref" v="B 10"/>
  </way>
  <way id="4303948" version="8" timestamp="2011-01-28T13:21:37Z" uid="6269" user="Mueck" changeset="7112784">
    <nd ref="21492722"/>
    <nd ref="662968554"/>
    <nd ref="1124828676"/>
    <nd ref="1124828586"/>
    <nd ref="26027120"/>
    <nd ref="1124828617"/>
    <nd ref="26027121"/>
    <nd ref="1124828631"/>
    <nd ref="1124833831"/>
    <nd ref="26027122"/>
    <nd ref="1124828621"/>
    <nd ref="26027117"/>
    <tag k="highway" v="primary"/>
    <tag k="name" v="Kriegsstraße"/>
    <tag k="oneway" v="yes"/>
    <tag k="ref" v="B 10"/>
  </way>
  <way id="4303948" version="9" timestamp="2011-01-28T14:50:35Z" uid="6269" user="Mueck" changeset="7113586">
    <nd ref="21492722"/>
    <nd ref="662968554"/>
    <nd ref="1124828676"/>
    <nd ref="1124828586"/>
    <nd ref="26027120"/>
    <nd ref="1124828617"/>
    <nd ref="26027121"/>
    <nd ref="1124828631"/>
    <nd ref="1124833831"/>
    <nd ref="26027122"/>
    <nd ref="1124828621"/>
    <nd ref="1124890596"/>
    <nd ref="26027117"/>
    <tag k="highway" v="primary"/>
    <tag k="name" v="Kriegsstraße"/>
    <tag k="oneway" v="yes"/>
    <tag k="ref" v="B 10"/>
  </way>
  <way id="4303948" version="10" timestamp="2011-02-16T22:01:37Z" uid="165061" user="keinname" changeset="7307964">
    <nd ref="21492722"/>
    <nd ref="662968554"/>
    <nd ref="1124828676"/>
    <nd ref="1124828586"/>
    <nd ref="26027120"/>
    <nd ref="1124828617"/>
    <nd ref="26027121"/>
    <nd ref="1156850231"/>
    <nd ref="1124828631"/>
    <nd ref="1124833831"/>
    <nd ref="26027122"/>
    <nd ref="1124828621"/>
    <nd ref="1124890596"/>
    <nd ref="26027117"/>
    <tag k="highway" v="primary"/>
    <tag k="name" v="Kriegsstraße"/>
    <tag k="oneway" v="yes"/>
    <tag k="ref" v="B 10"/>
  </way>
  <way id="4303948" version="11" timestamp="2011-05-30T18:14:50Z" uid="189170" user="Videoüberwachter" changeset="8294601">
    <nd ref="21492722"/>
    <nd ref="662968554"/>
    <nd ref="1124828676"/>
    <nd ref="1124828586"/>
    <nd ref="26027120"/>
    <nd ref="1124828617"/>
    <nd ref="26027121"/>
    <tag k="highway" v="primary"/>
    <tag k="name" v="Kriegsstraße"/>
    <tag k="oneway" v="yes"/>
    <tag k="ref" v="B 10"/>
  </way>
  <way id="4303948" version="12" timestamp="2011-06-17T16:55:22Z" uid="165061" user="keinname" changeset="8466542">
    <nd ref="21492722"/>
    <nd ref="662968554"/>
    <nd ref="1124828676"/>
    <nd ref="1124828586"/>
    <nd ref="26027120"/>
    <nd ref="1124828617"/>
    <nd ref="26027121"/>
    <tag k="highway" v="primary"/>
    <tag k="maxspeed" v="50"/>
    <tag k="name" v="Kriegsstraße"/>
    <tag k="oneway" v="yes"/>
    <tag k="ref" v="B 10"/>
    <tag k="source:maxspeed" v="DE:urban"/>
  </way>
  <way id="4303948" version="13" timestamp="2011-10-24T21:34:53Z" uid="165061" user="keinname" changeset="9647879">
    <nd ref="21492722"/>
    <nd ref="662968554"/>
    <nd ref="1124828676"/>
    <nd ref="1124828586"/>
    <nd ref="26027120"/>
    <nd ref="1124828617"/>
    <nd ref="26027121"/>
    <tag k="highway" v="primary"/>
    <tag k="maxspeed" v="50"/>
    <tag k="name" v="Kriegsstraße"/>
    <tag k="oneway" v="yes"/>
    <tag k="ref" v="B 10"/>
    <tag k="source:maxspeed" v="DE:urban"/>
    <tag k="zone:traffic" v="DE:urban"/>
  </way>
  <way id="4303948" version="14" timestamp="2012-01-16T18:15:03Z" uid="165061" user="keinname" changeset="10410364">
    <nd ref="21492722"/>
    <nd ref="662968554"/>
    <nd ref="1124828676"/>
    <nd ref="1124828586"/>
    <nd ref="26027120"/>
    <nd ref="1124828617"/>
    <nd ref="26027121"/>
    <tag k="highway" v="primary"/>
    <tag k="lanes" v="2"/>
    <tag k="maxspeed" v="50"/>
    <tag k="name" v="Kriegsstraße"/>
    <tag k="oneway" v="yes"/>
    <tag k="ref" v="B 10"/>
    <tag k="source:maxspeed" v="DE:urban"/>
    <tag k="zone:traffic" v="DE:urban"/>
  </way>
  <way id="4303949" version="9" timestamp="2010-04-22T16:25:51Z" uid="6269" user="Mueck" changeset="4496332">
    <nd ref="26027131"/>
    <nd ref="26027132"/>
    <tag k="highway" v="primary"/>
    <tag k="layer" v="-1"/>
    <tag k="minspeed" v="30"/>
    <tag k="motorroad" v="no"/>
    <tag k="name" v="Kriegsstraße"/>
    <tag k="oneway" v="yes"/>
    <tag k="ref" v="B 10"/>
    <tag k="tunnel" v="yes"/>
  </way>
  <way id="4303949" version="10" timestamp="2010-06-08T12:33:28Z" uid="4188" user="RedEagle" changeset="4936835">
    <nd ref="26027131"/>
    <nd ref="26027132"/>
    <tag k="highway" v="primary"/>
    <tag k="layer" v="-1"/>
    <tag k="maxspeed" v="70"/>
    <tag k="minspeed" v="30"/>
    <tag k="motorroad" v="no"/>
    <tag k="name" v="Kriegsstraße"/>
    <tag k="oneway" v="yes"/>
    <tag k="ref" v="B 10"/>
    <tag k="tunnel" v="yes"/>
  </way>
  <way id="4303949" version="11" timestamp="2010-10-27T20:48:32Z" uid="263596" user="Oberförster" changeset="6201739">
    <nd ref="26027131"/>
    <nd ref="26027132"/>
    <tag k="highway" v="primary"/>
    <tag k="layer" v="-1"/>
    <tag k="maxspeed" v="70"/>
    <tag k="minspeed" v="30"/>
    <tag k="motorroad" v="yes"/>
    <tag k="name" v="Kriegsstraße"/>
    <tag k="oneway" v="yes"/>
    <tag k="ref" v="B 10"/>
    <tag k="tunnel" v="yes"/>
  </way>
  <way id="4303949" version="12" timestamp="2010-11-04T18:36:49Z" uid="6269" user="Mueck" changeset="6290631">
    <nd ref="26027131"/>
    <nd ref="26027132"/>
    <tag k="highway" v="primary"/>
    <tag k="layer" v="-1"/>
    <tag k="maxspeed" v="70"/>
    <tag k="minspeed" v="30"/>
    <tag k="motorroad" v="no"/>
    <tag k="name" v="Kriegsstraße"/>
    <tag k="oneway" v="yes"/>
    <tag k="ref" v="B 10"/>
    <tag k="tunnel" v="yes"/>
  </way>
  <way id="4303949" version="13" timestamp="2011-01-28T00:09:32Z" uid="6269" user="Mueck" changeset="7109058">
    <nd ref="26027131"/>
    <nd ref="1124130653"/>
    <nd ref="1124130757"/>
    <nd ref="26027132"/>
    <tag k="highway" v="primary"/>
    <tag k="layer" v="-1"/>
    <tag k="maxspeed" v="70"/>
    <tag k="minspeed" v="30"/>
    <tag k="motorroad" v="no"/>
    <tag k="name" v="Kriegsstraße"/>
    <tag k="oneway" v="yes"/>
    <tag k="ref" v="B 10"/>
    <tag k="tunnel" v="yes"/>
  </way>
  <way id="4303949" version="14" timestamp="2011-03-20T21:15:14Z" uid="6269" user="Mueck" changeset="7621548">
    <nd ref="26027131"/>
    <nd ref="26027132"/>
    <tag k="highway" v="primary"/>
    <tag k="layer" v="-1"/>
    <tag k="maxspeed" v="70"/>
    <tag k="minspeed" v="30"/>
    <tag k="motorroad" v="no"/>
    <tag k="name" v="Kriegsstraße"/>
    <tag k="oneway" v="yes"/>
    <tag k="ref" v="B 10"/>
    <tag k="tunnel" v="yes"/>
  </way>
  <way id="4303949" version="15" timestamp="2011-10-10T16:48:48Z" uid="4499" user="Jochen Topf" changeset="9523441">
    <nd ref="26027131"/>
    <nd ref="26027132"/>
    <tag k="highway" v="primary"/>
    <tag k="layer" v="-1"/>
    <tag k="maxspeed" v="70"/>
    <tag k="minspeed" v="30"/>
    <tag k="motorroad" v="no"/>
    <tag k="name" v="Kriegsstraße"/>
    <tag k="oneway" v="yes"/>
    <tag k="ref" v="B 10"/>
    <tag k="tmc" v="DE:30889-30888"/>
    <tag k="tunnel" v="yes"/>
  </way>
  <way id="4303949" version="16" timestamp="2011-10-13T15:33:28Z" uid="4499" user="Jochen Topf" changeset="9548199">
    <nd ref="26027131"/>
    <nd ref="26027132"/>
    <tag k="highway" v="primary"/>
    <tag k="layer" v="-1"/>
    <tag k="maxspeed" v="70"/>
    <tag k="minspeed" v="30"/>
    <tag k="motorroad" v="no"/>
    <tag k="name" v="Kriegsstraße"/>
    <tag k="oneway" v="yes"/>
    <tag k="ref" v="B 10"/>
    <tag k="tmc" v="DE:30889+30890"/>
    <tag k="tunnel" v="yes"/>
  </way>
  <way id="4303949" version="17" timestamp="2012-01-16T18:14:46Z" uid="165061" user="keinname" changeset="10410364">
    <nd ref="26027131"/>
    <nd ref="26027132"/>
    <tag k="highway" v="primary"/>
    <tag k="lanes" v="2"/>
    <tag k="layer" v="-1"/>
    <tag k="maxspeed" v="70"/>
    <tag k="minspeed" v="30"/>
    <tag k="motorroad" v="no"/>
    <tag k="name" v="Kriegsstraße"/>
    <tag k="oneway" v="yes"/>
    <tag k="ref" v="B 10"/>
    <tag k="tmc" v="DE:30889+30890"/>
    <tag k="tunnel" v="yes"/>
  </way>
  <way id="4303950" version="9" timestamp="2011-01-28T00:09:33Z" uid="6269" user="Mueck" changeset="7109058">
    <nd ref="26027117"/>
    <nd ref="26027123"/>
    <nd ref="26027155"/>
    <nd ref="26027124"/>
    <nd ref="26027125"/>
    <nd ref="21492845"/>
    <nd ref="26027126"/>
    <nd ref="282558930"/>
    <nd ref="26027152"/>
    <nd ref="26027128"/>
    <nd ref="282558755"/>
    <nd ref="26027130"/>
    <nd ref="1124130609"/>
    <nd ref="282548818"/>
    <nd ref="1124130620"/>
    <nd ref="26027134"/>
    <tag k="highway" v="primary"/>
    <tag k="name" v="Kriegsstraße"/>
    <tag k="oneway" v="yes"/>
    <tag k="ref" v="B 10"/>
  </way>
  <way id="4303950" version="10" timestamp="2011-01-28T13:09:07Z" uid="6269" user="Mueck" changeset="7112784">
    <nd ref="26027117"/>
    <nd ref="1124828577"/>
    <nd ref="1124828672"/>
    <nd ref="26027123"/>
    <nd ref="26027155"/>
    <nd ref="1124828654"/>
    <nd ref="26027124"/>
    <nd ref="1124828599"/>
    <nd ref="1124828562"/>
    <nd ref="26027125"/>
    <nd ref="21492845"/>
    <nd ref="26027126"/>
    <nd ref="282558930"/>
    <nd ref="26027152"/>
    <nd ref="26027128"/>
    <nd ref="282558755"/>
    <nd ref="26027130"/>
    <nd ref="1124130609"/>
    <nd ref="282548818"/>
    <nd ref="1124130620"/>
    <nd ref="26027134"/>
    <tag k="highway" v="primary"/>
    <tag k="name" v="Kriegsstraße"/>
    <tag k="oneway" v="yes"/>
    <tag k="ref" v="B 10"/>
  </way>
  <way id="4303950" version="11" timestamp="2011-01-28T13:21:37Z" uid="6269" user="Mueck" changeset="7112784">
    <nd ref="26027117"/>
    <nd ref="1124828577"/>
    <nd ref="1124828672"/>
    <nd ref="1124833828"/>
    <nd ref="26027123"/>
    <nd ref="26027155"/>
    <nd ref="1124828654"/>
    <nd ref="26027124"/>
    <nd ref="1124828599"/>
    <nd ref="1124828562"/>
    <nd ref="26027125"/>
    <nd ref="21492845"/>
    <nd ref="26027126"/>
    <nd ref="282558930"/>
    <nd ref="26027152"/>
    <nd ref="26027128"/>
    <nd ref="282558755"/>
    <nd ref="26027130"/>
    <nd ref="1124130609"/>
    <nd ref="282548818"/>
    <nd ref="1124130620"/>
    <nd ref="26027134"/>
    <tag k="highway" v="primary"/>
    <tag k="name" v="Kriegsstraße"/>
    <tag k="oneway" v="yes"/>
    <tag k="ref" v="B 10"/>
  </way>
  <way id="4303950" version="12" timestamp="2011-02-16T21:50:04Z" uid="165061" user="keinname" changeset="7307964">
    <nd ref="26027117"/>
    <nd ref="1124828577"/>
    <nd ref="1124828672"/>
    <nd ref="1124833828"/>
    <nd ref="26027123"/>
    <nd ref="26027155"/>
    <nd ref="1156828238"/>
    <nd ref="1124828654"/>
    <nd ref="1156828243"/>
    <nd ref="26027124"/>
    <nd ref="1124828599"/>
    <nd ref="1124828562"/>
    <nd ref="26027125"/>
    <nd ref="21492845"/>
    <nd ref="26027126"/>
    <nd ref="282558930"/>
    <nd ref="26027152"/>
    <nd ref="26027128"/>
    <nd ref="282558755"/>
    <nd ref="26027130"/>
    <nd ref="1124130609"/>
    <nd ref="282548818"/>
    <nd ref="1124130620"/>
    <nd ref="26027134"/>
    <tag k="highway" v="primary"/>
    <tag k="name" v="Kriegsstraße"/>
    <tag k="oneway" v="yes"/>
    <tag k="ref" v="B 10"/>
  </way>
  <way id="4303950" version="13" timestamp="2011-03-20T21:15:15Z" uid="6269" user="Mueck" changeset="7621548">
    <nd ref="26027117"/>
    <nd ref="1124828577"/>
    <nd ref="1124828672"/>
    <nd ref="1124833828"/>
    <nd ref="26027123"/>
    <nd ref="26027155"/>
    <nd ref="1156828238"/>
    <nd ref="1124828654"/>
    <nd ref="26027124"/>
    <nd ref="1124828599"/>
    <nd ref="1124828562"/>
    <nd ref="26027125"/>
    <nd ref="21492845"/>
    <nd ref="26027126"/>
    <nd ref="26027152"/>
    <nd ref="26027128"/>
    <nd ref="282558755"/>
    <nd ref="1211089686"/>
    <nd ref="1211089676"/>
    <nd ref="26027130"/>
    <nd ref="1124130609"/>
    <nd ref="282548818"/>
    <nd ref="1124130620"/>
    <nd ref="26027134"/>
    <tag k="highway" v="primary"/>
    <tag k="name" v="Kriegsstraße"/>
    <tag k="oneway" v="yes"/>
    <tag k="ref" v="B 10"/>
  </way>
  <way id="4303950" version="14" timestamp="2011-05-30T18:14:51Z" uid="189170" user="Videoüberwachter" changeset="8294601">
    <nd ref="26027121"/>
    <nd ref="1156850231"/>
    <nd ref="1124828631"/>
    <nd ref="1124833831"/>
    <nd ref="26027122"/>
    <nd ref="1124828621"/>
    <nd ref="1124890596"/>
    <nd ref="26027117"/>
    <nd ref="1124828577"/>
    <nd ref="1124828672"/>
    <nd ref="1124833828"/>
    <nd ref="26027123"/>
    <tag k="construction" v="primary"/>
    <tag k="highway" v="construction"/>
    <tag k="name" v="Kriegsstraße"/>
    <tag k="oneway" v="yes"/>
    <tag k="ref" v="B 10"/>
  </way>
  <way id="4303952" version="4" timestamp="2011-01-28T00:09:33Z" uid="6269" user="Mueck" changeset="7109058">
    <nd ref="26027142"/>
    <nd ref="1124130719"/>
    <nd ref="1124130732"/>
    <nd ref="26027148"/>
    <nd ref="26027149"/>
    <nd ref="26027150"/>
    <nd ref="26027151"/>
    <nd ref="1124130638"/>
    <nd ref="1124130764"/>
    <nd ref="26027141"/>
    <tag k="highway" v="primary_link"/>
    <tag k="oneway" v="yes"/>
  </way>
  <way id="4303952" version="5" timestamp="2012-01-14T01:04:55Z" uid="5164" user="woodpeck" changeset="10384383">
    <nd ref="26027142"/>
    <nd ref="1589010530"/>
    <nd ref="26027148"/>
    <nd ref="26027149"/>
    <nd ref="26027150"/>
    <nd ref="26027151"/>
    <nd ref="1589010550"/>
    <nd ref="1589010555"/>
    <nd ref="26027141"/>
    <tag k="highway" v="primary_link"/>
    <tag k="oneway" v="yes"/>
  </way>
  <way id="4303952" version="6" timestamp="2012-01-16T18:15:10Z" uid="165061" user="keinname" changeset="10410364">
    <nd ref="26027142"/>
    <nd ref="1589010530"/>
    <nd ref="26027148"/>
    <nd ref="26027149"/>
    <nd ref="26027150"/>
    <nd ref="26027151"/>
    <nd ref="1589010550"/>
    <nd ref="1589010555"/>
    <nd ref="26027141"/>
    <tag k="highway" v="primary_link"/>
    <tag k="lanes" v="1"/>
    <tag k="oneway" v="yes"/>
  </way>
  <way id="4303952" version="7" timestamp="2012-01-27T14:18:10Z" uid="165061" user="keinname" changeset="10512739">
    <nd ref="26027142"/>
    <nd ref="1589010530"/>
    <nd ref="26027148"/>
    <nd ref="26027149"/>
    <nd ref="26027150"/>
    <nd ref="26027151"/>
    <nd ref="1589010550"/>
    <nd ref="1589010555"/>
    <nd ref="26027141"/>
    <tag k="highway" v="primary_link"/>
    <tag k="lanes" v="1"/>
    <tag k="maxspeed" v="50"/>
    <tag k="oneway" v="yes"/>
  </way>
  <way id="4303953" version="4" timestamp="2011-01-28T00:09:33Z" uid="6269" user="Mueck" changeset="7109058">
    <nd ref="26027130"/>
    <nd ref="1124130692"/>
    <nd ref="26027144"/>
    <nd ref="1124130752"/>
    <nd ref="26027145"/>
    <nd ref="1124130636"/>
    <nd ref="26027146"/>
    <nd ref="1124130715"/>
    <nd ref="26027147"/>
    <nd ref="1124130767"/>
    <nd ref="26027143"/>
    <tag k="highway" v="primary_link"/>
    <tag k="oneway" v="yes"/>
  </way>
  <way id="4303953" version="5" timestamp="2012-01-14T01:04:52Z" uid="5164" user="woodpeck" changeset="10384383">
    <nd ref="1589010573"/>
    <nd ref="1589010568"/>
    <nd ref="1589010557"/>
    <nd ref="1589010552"/>
    <nd ref="1589010547"/>
    <nd ref="1589010539"/>
    <nd ref="26027146"/>
    <nd ref="1589010533"/>
    <nd ref="1589010529"/>
    <nd ref="1589010526"/>
    <nd ref="1589010521"/>
    <tag k="highway" v="primary_link"/>
    <tag k="oneway" v="yes"/>
  </way>
  <way id="4303953" version="6" timestamp="2012-01-16T18:15:06Z" uid="165061" user="keinname" changeset="10410364">
    <nd ref="1589010573"/>
    <nd ref="1589010568"/>
    <nd ref="1589010557"/>
    <nd ref="1589010552"/>
    <nd ref="1589010547"/>
    <nd ref="1589010539"/>
    <nd ref="26027146"/>
    <nd ref="1589010533"/>
    <nd ref="1589010529"/>
    <nd ref="1589010526"/>
    <nd ref="1589010521"/>
    <tag k="highway" v="primary_link"/>
    <tag k="lanes" v="1"/>
    <tag k="oneway" v="yes"/>
  </way>
  <way id="4303953" version="7" timestamp="2012-01-24T22:40:44Z" uid="165061" user="keinname" changeset="10489274">
    <nd ref="1589010573"/>
    <nd ref="1589010568"/>
    <nd ref="1589010557"/>
    <nd ref="1589010552"/>
    <nd ref="1589010547"/>
    <nd ref="1589010539"/>
    <nd ref="26027146"/>
    <nd ref="1589010533"/>
    <nd ref="1589010529"/>
    <nd ref="1589010526"/>
    <nd ref="1589010521"/>
    <tag k="highway" v="primary_link"/>
    <tag k="lanes" v="1"/>
    <tag k="maxspeed" v="50"/>
    <tag k="oneway" v="yes"/>
  </way>
  <way id="4303955" version="6" timestamp="2009-04-28T20:42:50Z" uid="6269" user="Mueck" changeset="1009349">
    <nd ref="15520030"/>
    <nd ref="26027481"/>
    <nd ref="15520060"/>
    <nd ref="14795560"/>
    <nd ref="14954774"/>
    <nd ref="26027393"/>
    <nd ref="26027399"/>
    <tag k="created_by" v="Potlatch 0.9a"/>
    <tag k="highway" v="primary"/>
    <tag k="name" v="Kriegsstraße"/>
    <tag k="oneway" v="yes"/>
    <tag k="ref" v="B 10"/>
  </way>
  <way id="4303955" version="7" timestamp="2009-06-19T13:06:04Z" uid="85761" user="klausis" changeset="1564619">
    <nd ref="15520030"/>
    <nd ref="26027481"/>
    <nd ref="15520060"/>
    <nd ref="14795560"/>
    <nd ref="14954774"/>
    <nd ref="26027393"/>
    <nd ref="26027399"/>
    <tag k="highway" v="primary"/>
    <tag k="name" v="Kriegsstraße"/>
    <tag k="oneway" v="yes"/>
    <tag k="ref" v="B 10"/>
  </way>
  <way id="4303955" version="8" timestamp="2009-08-14T08:53:22Z" uid="151735" user="Sophie Werner" changeset="2140233">
    <nd ref="15520030"/>
    <nd ref="26027481"/>
    <nd ref="15520060"/>
    <nd ref="14795560"/>
    <nd ref="465224489"/>
    <nd ref="14954774"/>
    <nd ref="26027393"/>
    <nd ref="26027399"/>
    <tag k="highway" v="primary"/>
    <tag k="name" v="Kriegsstraße"/>
    <tag k="oneway" v="yes"/>
    <tag k="ref" v="B 10"/>
  </way>
  <way id="4303955" version="9" timestamp="2010-03-18T10:26:53Z" uid="175434" user="skywalkerer" changeset="4160027">
    <nd ref="15520030"/>
    <nd ref="26027481"/>
    <nd ref="15520060"/>
    <nd ref="14795560"/>
    <nd ref="465224489"/>
    <nd ref="14954774"/>
    <nd ref="26027393"/>
    <nd ref="26027399"/>
    <tag k="highway" v="primary"/>
    <tag k="motorroad" v="yes"/>
    <tag k="name" v="Kriegsstraße"/>
    <tag k="oneway" v="yes"/>
    <tag k="ref" v="B 10"/>
  </way>
  <way id="4303955" version="10" timestamp="2010-04-22T16:26:08Z" uid="6269" user="Mueck" changeset="4496332">
    <nd ref="15520030"/>
    <nd ref="26027481"/>
    <nd ref="15520060"/>
    <nd ref="14795560"/>
    <nd ref="465224489"/>
    <nd ref="14954774"/>
    <nd ref="26027393"/>
    <nd ref="26027399"/>
    <tag k="highway" v="primary"/>
    <tag k="motorroad" v="no"/>
    <tag k="name" v="Kriegsstraße"/>
    <tag k="oneway" v="yes"/>
    <tag k="ref" v="B 10"/>
  </way>
  <way id="4303955" version="11" timestamp="2010-10-15T22:38:14Z" uid="149205" user="Anubis" changeset="6053065">
    <nd ref="15520030"/>
    <nd ref="26027481"/>
    <nd ref="950892973"/>
    <nd ref="15520060"/>
    <nd ref="14795560"/>
    <nd ref="465224489"/>
    <nd ref="14954774"/>
    <nd ref="26027393"/>
    <nd ref="26027399"/>
    <tag k="highway" v="primary"/>
    <tag k="motorroad" v="no"/>
    <tag k="name" v="Kriegsstraße"/>
    <tag k="oneway" v="yes"/>
    <tag k="ref" v="B 10"/>
  </way>
  <way id="4303955" version="12" timestamp="2011-01-29T21:14:11Z" uid="6269" user="Mueck" changeset="7127449">
    <nd ref="15520030"/>
    <nd ref="26027481"/>
    <nd ref="950892973"/>
    <nd ref="1126864962"/>
    <nd ref="15520060"/>
    <nd ref="14795560"/>
    <nd ref="1126865359"/>
    <nd ref="465224489"/>
    <nd ref="14954774"/>
    <nd ref="26027393"/>
    <nd ref="26027399"/>
    <tag k="highway" v="primary"/>
    <tag k="motorroad" v="no"/>
    <tag k="name" v="Kriegsstraße"/>
    <tag k="oneway" v="yes"/>
    <tag k="ref" v="B 10"/>
  </way>
  <way id="4303955" version="13" timestamp="2011-02-26T01:58:21Z" uid="6269" user="Mueck" changeset="7395904">
    <nd ref="15520030"/>
    <nd ref="26027481"/>
    <nd ref="1126864962"/>
    <nd ref="15520060"/>
    <nd ref="14795560"/>
    <nd ref="1126865359"/>
    <nd ref="465224489"/>
    <nd ref="14954774"/>
    <nd ref="26027393"/>
    <nd ref="26027399"/>
    <tag k="highway" v="primary"/>
    <tag k="motorroad" v="no"/>
    <tag k="name" v="Kriegsstraße"/>
    <tag k="oneway" v="yes"/>
    <tag k="ref" v="B 10"/>
  </way>
  <way id="4303955" version="14" timestamp="2011-03-20T02:16:38Z" uid="6269" user="Mueck" changeset="7612251">
    <nd ref="15520030"/>
    <nd ref="26027481"/>
    <nd ref="1210005997"/>
    <nd ref="1126864962"/>
    <nd ref="15520060"/>
    <nd ref="14795560"/>
    <nd ref="1126865359"/>
    <nd ref="465224489"/>
    <nd ref="14954774"/>
    <nd ref="26027393"/>
    <nd ref="26027399"/>
    <tag k="highway" v="primary"/>
    <tag k="motorroad" v="no"/>
    <tag k="name" v="Kriegsstraße"/>
    <tag k="oneway" v="yes"/>
    <tag k="ref" v="B 10"/>
  </way>
  <way id="4303955" version="15" timestamp="2011-03-30T22:13:58Z" uid="6269" user="Mueck" changeset="7720894">
    <nd ref="15520030"/>
    <nd ref="1226055988"/>
    <nd ref="1226055973"/>
    <nd ref="26027481"/>
    <nd ref="1210005997"/>
    <nd ref="1126864962"/>
    <nd ref="15520060"/>
    <nd ref="14795560"/>
    <nd ref="1126865359"/>
    <nd ref="465224489"/>
    <nd ref="14954774"/>
    <nd ref="1226055817"/>
    <nd ref="26027393"/>
    <nd ref="26027399"/>
    <tag k="highway" v="primary"/>
    <tag k="motorroad" v="no"/>
    <tag k="name" v="Kriegsstraße"/>
    <tag k="oneway" v="yes"/>
    <tag k="ref" v="B 10"/>
  </way>
  <way id="4303955" version="16" timestamp="2011-04-13T20:04:59Z" uid="47784" user="siski" changeset="7855391">
    <nd ref="15520030"/>
    <nd ref="1226055988"/>
    <nd ref="1226055973"/>
    <nd ref="26027481"/>
    <nd ref="1210005997"/>
    <nd ref="1126864962"/>
    <nd ref="15520060"/>
    <nd ref="14795560"/>
    <nd ref="1126865359"/>
    <nd ref="465224489"/>
    <nd ref="14954774"/>
    <nd ref="1226055817"/>
    <nd ref="26027393"/>
    <nd ref="26027399"/>
    <tag k="highway" v="primary"/>
    <tag k="maxspeed" v="50"/>
    <tag k="motorroad" v="no"/>
    <tag k="name" v="Kriegsstraße"/>
    <tag k="oneway" v="yes"/>
    <tag k="ref" v="B 10"/>
  </way>
  <way id="4303955" version="17" timestamp="2011-09-14T13:07:13Z" uid="165061" user="keinname" changeset="9299099">
    <nd ref="15520030"/>
    <nd ref="1226055988"/>
    <nd ref="1226055973"/>
    <nd ref="26027481"/>
    <nd ref="1210005997"/>
    <nd ref="1432617830"/>
    <nd ref="1126864962"/>
    <nd ref="15520060"/>
    <nd ref="14795560"/>
    <nd ref="1126865359"/>
    <nd ref="465224489"/>
    <nd ref="14954774"/>
    <nd ref="1226055817"/>
    <nd ref="26027393"/>
    <nd ref="26027399"/>
    <tag k="highway" v="primary"/>
    <tag k="maxspeed" v="50"/>
    <tag k="motorroad" v="no"/>
    <tag k="name" v="Kriegsstraße"/>
    <tag k="oneway" v="yes"/>
    <tag k="ref" v="B 10"/>
  </way>
  <way id="4303955" version="18" timestamp="2011-09-14T14:24:11Z" uid="165061" user="keinname" changeset="9299099">
    <nd ref="15520030"/>
    <nd ref="1226055988"/>
    <nd ref="1226055973"/>
    <nd ref="26027481"/>
    <nd ref="1210005997"/>
    <nd ref="1432617830"/>
    <nd ref="15520060"/>
    <nd ref="14795560"/>
    <nd ref="465224489"/>
    <nd ref="14954774"/>
    <nd ref="1226055817"/>
    <nd ref="26027393"/>
    <nd ref="26027399"/>
    <tag k="highway" v="primary"/>
    <tag k="maxspeed" v="50"/>
    <tag k="motorroad" v="no"/>
    <tag k="name" v="Kriegsstraße"/>
    <tag k="oneway" v="yes"/>
    <tag k="ref" v="B 10"/>
  </way>
  <way id="4303955" version="19" timestamp="2011-10-10T16:48:51Z" uid="4499" user="Jochen Topf" changeset="9523441">
    <nd ref="15520030"/>
    <nd ref="1226055988"/>
    <nd ref="1226055973"/>
    <nd ref="26027481"/>
    <nd ref="1210005997"/>
    <nd ref="1432617830"/>
    <tag k="highway" v="primary"/>
    <tag k="maxspeed" v="50"/>
    <tag k="motorroad" v="no"/>
    <tag k="name" v="Kriegsstraße"/>
    <tag k="oneway" v="yes"/>
    <tag k="ref" v="B 10"/>
    <tag k="tmc" v="DE:52533+30888"/>
  </way>
  <way id="4303955" version="20" timestamp="2011-10-13T15:33:31Z" uid="4499" user="Jochen Topf" changeset="9548199">
    <nd ref="15520030"/>
    <nd ref="1226055988"/>
    <nd ref="1226055973"/>
    <nd ref="26027481"/>
    <nd ref="1210005997"/>
    <nd ref="1432617830"/>
    <tag k="highway" v="primary"/>
    <tag k="maxspeed" v="50"/>
    <tag k="motorroad" v="no"/>
    <tag k="name" v="Kriegsstraße"/>
    <tag k="oneway" v="yes"/>
    <tag k="ref" v="B 10"/>
    <tag k="tmc" v="DE:30888-52533"/>
  </way>
  <way id="4303955" version="21" timestamp="2012-01-16T18:14:57Z" uid="165061" user="keinname" changeset="10410364">
    <nd ref="15520030"/>
    <nd ref="1226055988"/>
    <nd ref="1226055973"/>
    <nd ref="26027481"/>
    <nd ref="1593335774"/>
    <tag k="highway" v="primary"/>
    <tag k="lanes" v="2"/>
    <tag k="maxspeed" v="50"/>
    <tag k="motorroad" v="no"/>
    <tag k="name" v="Kriegsstraße"/>
    <tag k="oneway" v="yes"/>
    <tag k="ref" v="B 10"/>
    <tag k="tmc" v="DE:30888-52533"/>
  </way>
  <way id="4303956" version="7" timestamp="2011-01-28T13:09:06Z" uid="6269" user="Mueck" changeset="7112784">
    <nd ref="26027154"/>
    <nd ref="548952755"/>
    <nd ref="548952759"/>
    <nd ref="548952807"/>
    <nd ref="1124828573"/>
    <nd ref="550777891"/>
    <nd ref="548952810"/>
    <nd ref="548952795"/>
    <nd ref="1124828619"/>
    <nd ref="1124828589"/>
    <nd ref="548952804"/>
    <tag k="highway" v="primary_link"/>
    <tag k="oneway" v="yes"/>
  </way>
  <way id="4303956" version="8" timestamp="2011-10-24T21:35:05Z" uid="165061" user="keinname" changeset="9647879">
    <nd ref="26027154"/>
    <nd ref="548952755"/>
    <nd ref="548952759"/>
    <nd ref="548952807"/>
    <nd ref="1124828573"/>
    <nd ref="550777891"/>
    <nd ref="548952810"/>
    <nd ref="548952795"/>
    <nd ref="1124828619"/>
    <nd ref="1124828589"/>
    <nd ref="548952804"/>
    <tag k="highway" v="primary_link"/>
    <tag k="oneway" v="yes"/>
    <tag k="zone:traffic" v="DE:urban"/>
  </way>
  <way id="4303956" version="9" timestamp="2012-01-21T10:20:31Z" uid="60137" user="michael2402" changeset="10453846"/>
  <way id="4303957" version="12" timestamp="2011-03-20T02:16:38Z" uid="6269" user="Mueck" changeset="7612251">
    <nd ref="26027399"/>
    <nd ref="1046557299"/>
    <nd ref="1210006079"/>
    <nd ref="26027397"/>
    <nd ref="1210005863"/>
    <nd ref="1210005981"/>
    <nd ref="26027142"/>
    <nd ref="465211903"/>
    <nd ref="26027135"/>
    <tag k="highway" v="primary"/>
    <tag k="name" v="Kriegsstraße"/>
    <tag k="oneway" v="yes"/>
    <tag k="ref" v="B 10"/>
  </way>
  <way id="4303957" version="13" timestamp="2011-04-04T16:20:22Z" uid="6269" user="Mueck" changeset="7766537">
    <nd ref="26027399"/>
    <nd ref="1046557299"/>
    <nd ref="1210006079"/>
    <nd ref="26027397"/>
    <tag k="highway" v="primary"/>
    <tag k="name" v="Kriegsstraße"/>
    <tag k="oneway" v="yes"/>
    <tag k="ref" v="B 10"/>
  </way>
  <way id="4303957" version="14" timestamp="2012-01-14T01:04:46Z" uid="5164" user="woodpeck" changeset="10384383">
    <nd ref="26027399"/>
    <nd ref="1046557299"/>
    <nd ref="26027397"/>
    <nd ref="1589010522"/>
    <nd ref="1589010519"/>
    <nd ref="1589010524"/>
    <nd ref="1589010517"/>
    <nd ref="26027142"/>
    <nd ref="1589010520"/>
    <nd ref="26027135"/>
    <tag k="highway" v="primary"/>
    <tag k="name" v="Kriegsstraße"/>
    <tag k="oneway" v="yes"/>
    <tag k="ref" v="B 10"/>
  </way>
  <way id="4303957" version="15" timestamp="2012-01-16T18:15:04Z" uid="165061" user="keinname" changeset="10410364">
    <nd ref="26027399"/>
    <nd ref="1046557299"/>
    <nd ref="26027397"/>
    <nd ref="1589010522"/>
    <nd ref="1589010519"/>
    <nd ref="1589010524"/>
    <nd ref="1593335773"/>
    <tag k="highway" v="primary"/>
    <tag k="lanes" v="1"/>
    <tag k="name" v="Kriegsstraße"/>
    <tag k="oneway" v="yes"/>
    <tag k="ref" v="B 10"/>
  </way>
  <way id="4303958" version="5" timestamp="2011-01-28T13:09:06Z" uid="6269" user="Mueck" changeset="7112784">
    <nd ref="26027121"/>
    <nd ref="1124828650"/>
    <nd ref="1124828557"/>
    <nd ref="26027163"/>
    <nd ref="26027164"/>
    <nd ref="1124828556"/>
    <nd ref="26027165"/>
    <nd ref="1124828613"/>
    <nd ref="26027166"/>
    <nd ref="1124828584"/>
    <nd ref="1124828566"/>
    <nd ref="26027162"/>
    <tag k="highway" v="primary_link"/>
    <tag k="oneway" v="yes"/>
  </way>
  <way id="4303958" version="6" timestamp="2011-05-30T18:14:53Z" uid="189170" user="Videoüberwachter" changeset="8294601"/>
  <way id="4303959" version="2" timestamp="2008-02-13T00:44:27Z" uid="6269" user="Mueck" changeset="111430">
    <nd ref="26027172"/>
    <nd ref="26027167"/>
    <nd ref="26027168"/>
    <nd ref="26027169"/>
    <nd ref="26027170"/>
    <nd ref="26027171"/>
    <nd ref="412397"/>
    <nd ref="26027117"/>
    <nd ref="25505450"/>
    <tag k="created_by" v="Potlatch 0.7a"/>
    <tag k="layer" v="1"/>
    <tag k="railway" v="tram"/>
  </way>
  <way id="4303959" version="3" timestamp="2008-02-13T00:45:22Z" uid="6269" user="Mueck" changeset="111430">
    <nd ref="26027172"/>
    <nd ref="26027167"/>
    <nd ref="26027168"/>
    <nd ref="26027169"/>
    <nd ref="247393658"/>
    <nd ref="26027170"/>
    <nd ref="26027171"/>
    <nd ref="412397"/>
    <nd ref="26027117"/>
    <nd ref="25505450"/>
    <tag k="created_by" v="Potlatch 0.7a"/>
    <tag k="layer" v="1"/>
    <tag k="railway" v="tram"/>
  </way>
  <way id="4303959" version="4" timestamp="2008-02-13T00:47:10Z" uid="6269" user="Mueck" changeset="111430">
    <nd ref="26027172"/>
    <nd ref="26027167"/>
    <nd ref="26027168"/>
    <nd ref="247393664"/>
    <nd ref="26027169"/>
    <nd ref="247393658"/>
    <nd ref="26027170"/>
    <nd ref="26027171"/>
    <nd ref="412397"/>
    <nd ref="26027117"/>
    <nd ref="25505450"/>
    <tag k="created_by" v="Potlatch 0.7a"/>
    <tag k="layer" v="1"/>
    <tag k="railway" v="tram"/>
  </way>
  <way id="4303959" version="5" timestamp="2008-06-21T18:23:10Z" uid="42183" user="pinocchio" changeset="245116">
    <nd ref="26027172"/>
    <nd ref="26027167"/>
    <nd ref="26027168"/>
    <nd ref="247393664"/>
    <nd ref="26027169"/>
    <nd ref="247393658"/>
    <tag k="created_by" v="Potlatch 0.9c"/>
    <tag k="layer" v="1"/>
    <tag k="railway" v="tram"/>
  </way>
  <way id="4303959" version="6" timestamp="2008-06-21T18:27:51Z" uid="42183" user="pinocchio" changeset="245116">
    <nd ref="26027172"/>
    <nd ref="26027167"/>
    <nd ref="26027168"/>
    <nd ref="247393664"/>
    <nd ref="26027169"/>
    <nd ref="247393658"/>
    <tag k="created_by" v="Potlatch 0.9c"/>
    <tag k="layer" v="1"/>
    <tag k="railway" v="tram"/>
  </way>
  <way id="4303959" version="7" timestamp="2008-11-06T12:41:50Z" uid="16330" user="aluka" changeset="693070">
    <nd ref="26027172"/>
    <nd ref="26027167"/>
    <nd ref="26027168"/>
    <nd ref="247393664"/>
    <nd ref="310203518"/>
    <nd ref="26027169"/>
    <nd ref="310203520"/>
    <nd ref="247393658"/>
    <tag k="created_by" v="Potlatch 0.9c"/>
    <tag k="layer" v="1"/>
    <tag k="railway" v="tram"/>
  </way>
  <way id="4303959" version="8" timestamp="2009-05-17T12:11:35Z" uid="6269" user="Mueck" changeset="1221244">
    <nd ref="26027172"/>
    <nd ref="402586360"/>
    <nd ref="26027167"/>
    <nd ref="26027168"/>
    <nd ref="247393664"/>
    <nd ref="310203518"/>
    <nd ref="26027169"/>
    <nd ref="310203520"/>
    <nd ref="247393658"/>
    <tag k="created_by" v="Potlatch 0.9c"/>
    <tag k="layer" v="1"/>
    <tag k="railway" v="tram"/>
  </way>
  <way id="4303959" version="9" timestamp="2009-06-21T18:13:43Z" uid="85761" user="klausis" changeset="1586466">
    <nd ref="26027172"/>
    <nd ref="402586360"/>
    <nd ref="26027167"/>
    <nd ref="26027168"/>
    <nd ref="247393664"/>
    <nd ref="310203518"/>
    <nd ref="26027169"/>
    <nd ref="310203520"/>
    <nd ref="247393658"/>
    <tag k="layer" v="1"/>
    <tag k="railway" v="tram"/>
  </way>
  <way id="4303959" version="10" timestamp="2011-01-24T20:23:06Z" uid="6269" user="Mueck" changeset="7077480"/>
</osm>
