<?xml version='1.0' encoding='UTF-8'?>
<osm version="0.6" generator="libosmium/2.20.0">
  <way id="43123139" version="2" timestamp="2010-10-02T10:42:41Z" uid="9581" user="Lobelt" changeset="5934959">
    <nd ref="540292691"/>
    <nd ref="540292696"/>
    <nd ref="540292697"/>
    <nd ref="540292699"/>
    <nd ref="540292701"/>
    <nd ref="540292703"/>
    <nd ref="540292705"/>
    <nd ref="540292706"/>
    <nd ref="540292708"/>
    <nd ref="540292710"/>
    <nd ref="540292712"/>
    <nd ref="540292713"/>
    <nd ref="540292715"/>
    <nd ref="540292716"/>
    <nd ref="540292718"/>
    <nd ref="540292719"/>
    <nd ref="540292721"/>
    <nd ref="540292722"/>
    <tag k="bicycle" v="yes"/>
    <tag k="highway" v="path"/>
    <tag k="sac_scale" v="hiking"/>
    <tag k="width" v="2"/>
  </way>
  <way id="43123371" version="2" timestamp="2010-04-03T13:56:01Z" uid="20587" user="balrog-kun" changeset="4312927">
    <nd ref="540295683"/>
    <nd ref="540295692"/>
    <nd ref="540289999"/>
    <nd ref="540295698"/>
    <nd ref="540295683"/>
    <tag k="name" v="South &amp; S Shortline Railroad Park and Museum"/>
    <tag k="tourism" v="attraction"/>
  </way>
  <way id="43123816" version="2" timestamp="2010-10-03T19:01:42Z" uid="9581" user="Lobelt" changeset="5947483">
    <nd ref="417147071"/>
    <nd ref="277681053"/>
    <nd ref="277681054"/>
    <nd ref="417147155"/>
    <nd ref="417147188"/>
    <nd ref="417147181"/>
    <nd ref="417147171"/>
    <nd ref="417147168"/>
    <nd ref="247272345"/>
    <tag k="highway" v="secondary"/>
    <tag k="maxspeed" v="50"/>
    <tag k="name" v="Hainbrunner Straße"/>
    <tag k="ref" v="L 3119"/>
  </way>
  <way id="43123816" version="3" timestamp="2011-01-02T15:02:04Z" uid="68567" user="vofiwg" changeset="6839188">
    <nd ref="417147071"/>
    <nd ref="277681053"/>
    <nd ref="277681054"/>
    <nd ref="417147155"/>
    <nd ref="417147188"/>
    <nd ref="1078797997"/>
    <nd ref="417147181"/>
    <nd ref="417147171"/>
    <nd ref="417147168"/>
    <nd ref="247272345"/>
    <tag k="highway" v="secondary"/>
    <tag k="maxspeed" v="50"/>
    <tag k="name" v="Hainbrunner Straße"/>
    <tag k="ref" v="L 3119"/>
  </way>
  <way id="43123817" version="2" timestamp="2010-10-02T10:42:40Z" uid="9581" user="Lobelt" changeset="5934959">
    <nd ref="303285917"/>
    <nd ref="303285867"/>
    <nd ref="934832952"/>
    <tag k="highway" v="tertiary"/>
    <tag k="name" v="Hinterbacher Straße"/>
    <tag k="ref" v="K 37"/>
  </way>
  <way id="43123817" version="3" timestamp="2010-10-03T19:00:54Z" uid="9581" user="Lobelt" changeset="5947483">
    <nd ref="303285917"/>
    <nd ref="303285867"/>
    <nd ref="934832952"/>
    <tag k="agricultural" v="yes"/>
    <tag k="hgv" v="destination"/>
    <tag k="highway" v="tertiary"/>
    <tag k="maxspeed" v="50"/>
    <tag k="name" v="Hinterbacher Straße"/>
    <tag k="ref" v="K 37"/>
  </way>
  <way id="43123818" version="4" timestamp="2011-05-01T22:27:25Z" uid="9581" user="Lobelt" changeset="8026709">
    <nd ref="303285917"/>
    <nd ref="540301646"/>
    <nd ref="540301651"/>
    <nd ref="540301656"/>
    <nd ref="540301660"/>
    <nd ref="540301663"/>
    <nd ref="540301682"/>
    <nd ref="540301684"/>
    <nd ref="540301685"/>
    <nd ref="540301687"/>
    <nd ref="540301688"/>
    <nd ref="540301667"/>
    <nd ref="540301669"/>
    <nd ref="540301670"/>
    <tag k="bicycle" v="yes"/>
    <tag k="foot" v="designated"/>
    <tag k="highway" v="path"/>
    <tag k="horse" v="no"/>
    <tag k="mtb:scale" v="2"/>
    <tag k="mtb:scale:uphill" v="3"/>
    <tag k="sac_scale" v="hiking"/>
    <tag k="ski" v="no"/>
    <tag k="snowmobile" v="no"/>
    <tag k="surface" v="ground"/>
    <tag k="trail_visibility" v="good"/>
    <tag k="wheelchair" v="no"/>
    <tag k="width" v="2"/>
  </way>
</osm>
