<?xml version='1.0' encoding='UTF-8'?>
<osm version="0.6" generator="libosmium/2.20.0">
  <way id="43152039" version="7" timestamp="2011-01-14T11:07:17Z" uid="115477" user="wowik" changeset="6966068">
    <nd ref="906027651"/>
    <nd ref="906026824"/>
    <nd ref="906027374"/>
    <nd ref="906027517"/>
    <nd ref="906027281"/>
    <nd ref="906027021"/>
    <nd ref="906027548"/>
    <nd ref="906026725"/>
    <nd ref="906027050"/>
    <nd ref="906027577"/>
    <nd ref="906026758"/>
    <nd ref="906027002"/>
    <nd ref="726603326"/>
    <nd ref="726603218"/>
    <nd ref="726603289"/>
    <nd ref="726603174"/>
    <nd ref="726603228"/>
    <nd ref="1103089764"/>
    <nd ref="726603391"/>
    <nd ref="726603409"/>
    <nd ref="726603308"/>
    <nd ref="726603349"/>
    <nd ref="726603248"/>
    <nd ref="726603319"/>
    <nd ref="726603205"/>
    <nd ref="726603353"/>
    <nd ref="726603252"/>
    <tag k="access" v="designated"/>
    <tag k="highway" v="service"/>
    <tag k="maxspeed" v="70"/>
    <tag k="service" v="alley"/>
    <tag k="surface" v="gravel"/>
    <tag k="width" v="6"/>
  </way>
  <way id="43152421" version="2" timestamp="2010-01-31T18:59:02Z" uid="58091" user="Andreas M" changeset="3762200"/>
  <way id="43152481" version="4" timestamp="2010-04-03T04:18:54Z" uid="20587" user="balrog-kun" changeset="4309442">
    <nd ref="540570305"/>
    <nd ref="540570295"/>
    <tag k="bridge" v="yes"/>
    <tag k="highway" v="secondary"/>
    <tag k="is_in" v="Maricopa, AZ"/>
    <tag k="name" v="North 51st Avenue"/>
  </way>
  <way id="43152481" version="5" timestamp="2010-06-29T23:28:13Z" uid="239998" user="Sundance" changeset="5110015">
    <nd ref="540570305"/>
    <nd ref="540570295"/>
    <tag k="bridge" v="yes"/>
    <tag k="highway" v="secondary"/>
    <tag k="is_in" v="Maricopa, AZ"/>
    <tag k="name" v="North 51st Avenue"/>
    <tag k="oneway" v="yes"/>
  </way>
  <way id="43152481" version="6" timestamp="2011-09-28T20:08:04Z" uid="207745" user="NE2" changeset="9422675">
    <nd ref="540570305"/>
    <nd ref="540570295"/>
    <tag k="bridge" v="yes"/>
    <tag k="highway" v="primary"/>
    <tag k="is_in" v="Maricopa, AZ"/>
    <tag k="lanes" v="3"/>
    <tag k="name" v="North 51st Avenue"/>
    <tag k="oneway" v="yes"/>
  </way>
  <way id="43152481" version="7" timestamp="2012-03-20T04:44:33Z" uid="292665" user="Dr Kludge" changeset="11037371"/>
  <way id="43152651" version="2" timestamp="2010-07-09T06:07:48Z" uid="74617" user="JohnSmith" changeset="5171134">
    <nd ref="540573559"/>
    <nd ref="540573560"/>
    <nd ref="540573547"/>
    <nd ref="540573548"/>
    <nd ref="540573549"/>
    <nd ref="540573551"/>
    <nd ref="540573552"/>
    <nd ref="540573553"/>
    <nd ref="540573554"/>
    <tag k="highway" v="residential"/>
    <tag k="maxspeed" v="50"/>
    <tag k="maxspeed:source" v="default residential speed limit in Australia"/>
  </way>
  <way id="43152651" version="3" timestamp="2012-01-19T06:40:55Z" uid="147510" user="woodpeck_fixbot" changeset="10433866">
    <nd ref="540573559"/>
    <nd ref="540573560"/>
    <nd ref="540573547"/>
    <nd ref="540573548"/>
    <nd ref="540573549"/>
    <nd ref="540573551"/>
    <nd ref="540573552"/>
    <nd ref="540573553"/>
    <nd ref="540573554"/>
    <tag k="highway" v="residential"/>
  </way>
  <way id="43152651" version="4" timestamp="2012-03-06T06:52:07Z" uid="21143" user="hryciuk" changeset="10887177">
    <nd ref="540573559"/>
    <nd ref="540573560"/>
    <nd ref="540573547"/>
    <nd ref="1661925109"/>
    <nd ref="540573548"/>
    <nd ref="540573549"/>
    <nd ref="540573551"/>
    <nd ref="540573552"/>
    <nd ref="540573553"/>
    <nd ref="1661925111"/>
    <tag k="highway" v="residential"/>
  </way>
  <way id="43152651" version="5" timestamp="2012-03-06T06:54:45Z" uid="21143" user="hryciuk" changeset="10887177">
    <nd ref="540573559"/>
    <nd ref="540573560"/>
    <nd ref="540573547"/>
    <nd ref="1661925109"/>
    <nd ref="540573548"/>
    <nd ref="540573549"/>
    <nd ref="540573551"/>
    <nd ref="540573552"/>
    <nd ref="540573553"/>
    <nd ref="1661927359"/>
    <nd ref="1661925111"/>
    <tag k="highway" v="residential"/>
  </way>
  <way id="43152651" version="6" timestamp="2012-03-08T04:31:36Z" uid="21143" user="hryciuk" changeset="10906021">
    <nd ref="540573559"/>
    <nd ref="540573560"/>
    <nd ref="540573547"/>
    <nd ref="1661925109"/>
    <nd ref="540573548"/>
    <nd ref="540573549"/>
    <nd ref="540573551"/>
    <nd ref="540573552"/>
    <nd ref="540573553"/>
    <nd ref="1661927359"/>
    <nd ref="1661925111"/>
    <tag k="highway" v="residential"/>
  </way>
  <way id="43152921" version="1" timestamp="2009-10-26T07:54:39Z" uid="7617" user="Franc" changeset="2953761">
    <nd ref="540578417"/>
    <nd ref="540578419"/>
    <nd ref="540578420"/>
    <nd ref="540578422"/>
    <nd ref="540578417"/>
    <tag k="leisure" v="park"/>
    <tag k="name" v="Burnie Park"/>
    <tag k="source" v="yahoo_imagery"/>
    <tag k="source:name" v="survey"/>
  </way>
  <way id="43152921" version="2" timestamp="2009-11-14T12:04:34Z" uid="117890" user="Jonathan Trott" changeset="3112508">
    <nd ref="540578417"/>
    <nd ref="540578419"/>
    <nd ref="540578420"/>
    <nd ref="540578422"/>
    <nd ref="540578417"/>
    <tag k="leisure" v="park"/>
    <tag k="name" v="Burnie Park"/>
    <tag k="source" v="yahoo_imagery"/>
    <tag k="source:name" v="survey"/>
  </way>
  <way id="43152921" version="3" timestamp="2010-01-25T09:26:22Z" uid="7617" user="Franc" changeset="3709079">
    <nd ref="540578417"/>
    <nd ref="540578420"/>
    <nd ref="540578422"/>
    <nd ref="619731181"/>
    <nd ref="540578417"/>
    <tag k="leisure" v="park"/>
    <tag k="name" v="Burnie Park"/>
    <tag k="source" v="nearmap"/>
    <tag k="source:name" v="survey"/>
  </way>
  <way id="43152922" version="1" timestamp="2009-10-26T07:54:39Z" uid="7617" user="Franc" changeset="2953761">
    <nd ref="540578423"/>
    <nd ref="540578426"/>
    <nd ref="540578424"/>
    <tag k="highway" v="service"/>
    <tag k="name" v="Winchester Lane"/>
    <tag k="source" v="survey"/>
  </way>
  <way id="43152922" version="2" timestamp="2009-11-14T12:16:13Z" uid="117890" user="Jonathan Trott" changeset="3112508">
    <nd ref="540578423"/>
    <nd ref="540578426"/>
    <nd ref="540578424"/>
    <tag k="highway" v="service"/>
    <tag k="name" v="Winchester Lane"/>
    <tag k="source" v="survey"/>
  </way>
  <way id="43152923" version="1" timestamp="2009-10-26T07:54:39Z" uid="7617" user="Franc" changeset="2953761">
    <nd ref="540578425"/>
    <nd ref="540578426"/>
    <tag k="highway" v="service"/>
    <tag k="name" v="Burnie Lane"/>
    <tag k="source" v="survey"/>
  </way>
  <way id="43152924" version="1" timestamp="2009-10-26T07:54:39Z" uid="7617" user="Franc" changeset="2953761">
    <nd ref="540578427"/>
    <nd ref="199993076"/>
    <tag k="highway" v="service"/>
    <tag k="source" v="survey"/>
  </way>
  <way id="43152924" version="2" timestamp="2009-11-14T12:16:13Z" uid="117890" user="Jonathan Trott" changeset="3112508">
    <nd ref="540578427"/>
    <nd ref="199993076"/>
    <tag k="highway" v="service"/>
    <tag k="source" v="survey"/>
  </way>
  <way id="43152924" version="3" timestamp="2011-03-26T07:37:46Z" uid="7617" user="Franc" changeset="7672617">
    <nd ref="540578427"/>
    <nd ref="1218606912"/>
    <nd ref="1218606896"/>
    <nd ref="199993076"/>
    <tag k="fixme:sign:no" v="2011-03-13"/>
    <tag k="highway" v="service"/>
    <tag k="source" v="survey"/>
  </way>
  <way id="43152925" version="1" timestamp="2009-10-26T07:54:39Z" uid="7617" user="Franc" changeset="2953761">
    <nd ref="199993076"/>
    <nd ref="199993083"/>
    <tag k="highway" v="service"/>
    <tag k="name" v="Pacific Lane"/>
    <tag k="source" v="survey"/>
  </way>
  <way id="43152925" version="2" timestamp="2009-11-14T12:04:34Z" uid="117890" user="Jonathan Trott" changeset="3112508">
    <nd ref="199993076"/>
    <nd ref="199993083"/>
    <tag k="highway" v="service"/>
    <tag k="name" v="Pacific Lane"/>
    <tag k="source" v="survey"/>
  </way>
  <way id="43152925" version="3" timestamp="2011-03-26T07:37:12Z" uid="7617" user="Franc" changeset="7672617">
    <nd ref="199993076"/>
    <nd ref="1218606705"/>
    <nd ref="199993083"/>
    <tag k="highway" v="service"/>
    <tag k="name" v="Pacific Lane"/>
    <tag k="source" v="survey"/>
  </way>
  <way id="43152926" version="1" timestamp="2009-10-26T07:54:39Z" uid="7617" user="Franc" changeset="2953761">
    <nd ref="60716716"/>
    <nd ref="540578430"/>
    <nd ref="540578431"/>
    <nd ref="540578432"/>
    <nd ref="540578433"/>
    <nd ref="540578434"/>
    <nd ref="540578436"/>
    <nd ref="540578437"/>
    <nd ref="540578438"/>
    <nd ref="540578439"/>
    <tag k="highway" v="residential"/>
    <tag k="name" v="New Street"/>
    <tag k="source" v="survey"/>
  </way>
  <way id="43152926" version="2" timestamp="2009-11-14T12:16:14Z" uid="117890" user="Jonathan Trott" changeset="3112508">
    <nd ref="60716716"/>
    <nd ref="540578430"/>
    <nd ref="540578431"/>
    <nd ref="540578432"/>
    <nd ref="540578433"/>
    <nd ref="540578434"/>
    <nd ref="540578436"/>
    <nd ref="540578437"/>
    <nd ref="540578438"/>
    <nd ref="540578439"/>
    <tag k="highway" v="residential"/>
    <tag k="name" v="New Street"/>
    <tag k="source" v="survey"/>
  </way>
  <way id="43152926" version="3" timestamp="2010-07-07T21:48:14Z" uid="74617" user="JohnSmith" changeset="5161069">
    <nd ref="60716716"/>
    <nd ref="540578430"/>
    <nd ref="540578431"/>
    <nd ref="540578432"/>
    <nd ref="540578433"/>
    <nd ref="540578434"/>
    <nd ref="540578436"/>
    <nd ref="540578437"/>
    <nd ref="540578438"/>
    <nd ref="540578439"/>
    <tag k="highway" v="residential"/>
    <tag k="maxspeed" v="50"/>
    <tag k="maxspeed:source" v="default residential speed limit in Australia"/>
    <tag k="name" v="New Street"/>
    <tag k="source" v="survey"/>
  </way>
  <way id="43152926" version="4" timestamp="2011-01-01T12:12:18Z" uid="7617" user="Franc" changeset="6827223">
    <nd ref="60716716"/>
    <nd ref="1076824277"/>
    <nd ref="540578430"/>
    <nd ref="540578431"/>
    <nd ref="540578433"/>
    <nd ref="540578434"/>
    <nd ref="540578436"/>
    <nd ref="540578438"/>
    <nd ref="540578439"/>
    <tag k="highway" v="residential"/>
    <tag k="maxspeed" v="50"/>
    <tag k="maxspeed:source" v="default residential speed limit in Australia"/>
    <tag k="name" v="New Street"/>
    <tag k="source" v="survey"/>
  </way>
  <way id="43152926" version="5" timestamp="2012-01-19T06:40:57Z" uid="147510" user="woodpeck_fixbot" changeset="10433866">
    <nd ref="60716716"/>
    <nd ref="1076824277"/>
    <nd ref="540578430"/>
    <nd ref="540578431"/>
    <nd ref="540578433"/>
    <nd ref="540578434"/>
    <nd ref="540578436"/>
    <nd ref="540578438"/>
    <nd ref="540578439"/>
    <tag k="highway" v="residential"/>
    <tag k="name" v="New Street"/>
    <tag k="source" v="survey"/>
  </way>
  <way id="43152927" version="1" timestamp="2009-10-26T07:54:39Z" uid="7617" user="Franc" changeset="2953761">
    <nd ref="540578439"/>
    <nd ref="540578440"/>
    <nd ref="540578441"/>
    <tag k="highway" v="service"/>
    <tag k="source" v="survey"/>
  </way>
  <way id="43152927" version="2" timestamp="2009-11-14T12:16:14Z" uid="117890" user="Jonathan Trott" changeset="3112508">
    <nd ref="540578439"/>
    <nd ref="540578440"/>
    <nd ref="540578441"/>
    <tag k="highway" v="service"/>
    <tag k="source" v="survey"/>
  </way>
  <way id="43152927" version="3" timestamp="2011-01-01T12:11:46Z" uid="7617" user="Franc" changeset="6827223">
    <nd ref="540578439"/>
    <nd ref="540578440"/>
    <nd ref="540578441"/>
    <tag k="fixme:sign:no" v="2011-01-01"/>
    <tag k="highway" v="service"/>
    <tag k="source" v="survey"/>
  </way>
  <way id="43152928" version="1" timestamp="2009-10-26T07:54:40Z" uid="7617" user="Franc" changeset="2953761">
    <nd ref="540578454"/>
    <nd ref="540578455"/>
    <nd ref="540578456"/>
    <nd ref="540578457"/>
    <nd ref="540578458"/>
    <nd ref="540578459"/>
    <nd ref="540578460"/>
    <nd ref="540578461"/>
    <nd ref="540578462"/>
    <nd ref="540578463"/>
    <nd ref="540578465"/>
    <nd ref="540578466"/>
    <nd ref="540578454"/>
    <tag k="leisure" v="park"/>
    <tag k="source" v="yahoo_imagery"/>
  </way>
  <way id="43152928" version="2" timestamp="2009-11-14T12:11:04Z" uid="117890" user="Jonathan Trott" changeset="3112508">
    <nd ref="540578454"/>
    <nd ref="540578455"/>
    <nd ref="540578456"/>
    <nd ref="540578457"/>
    <nd ref="540578458"/>
    <nd ref="540578459"/>
    <nd ref="540578460"/>
    <nd ref="540578461"/>
    <nd ref="540578462"/>
    <nd ref="540578463"/>
    <nd ref="540578465"/>
    <nd ref="540578466"/>
    <nd ref="540578454"/>
    <tag k="leisure" v="park"/>
    <tag k="source" v="yahoo_imagery"/>
  </way>
  <way id="43152928" version="3" timestamp="2010-01-26T04:23:40Z" uid="7617" user="Franc" changeset="3716610">
    <nd ref="540578454"/>
    <nd ref="540578455"/>
    <nd ref="540578456"/>
    <nd ref="540578457"/>
    <nd ref="540578458"/>
    <nd ref="540578459"/>
    <nd ref="540578460"/>
    <nd ref="540578461"/>
    <nd ref="540578462"/>
    <nd ref="540578463"/>
    <nd ref="540578465"/>
    <nd ref="540578466"/>
    <nd ref="540578454"/>
    <tag k="leisure" v="park"/>
    <tag k="name" v="Fingleton Reserve"/>
    <tag k="source" v="yahoo_imagery"/>
    <tag k="source:name" v="survey"/>
  </way>
  <way id="43152929" version="1" timestamp="2009-10-26T07:54:40Z" uid="7617" user="Franc" changeset="2953761">
    <nd ref="20955139"/>
    <nd ref="540578469"/>
    <nd ref="540578467"/>
    <tag k="highway" v="service"/>
    <tag k="name" v="Pine Lane"/>
    <tag k="source" v="survey"/>
  </way>
  <way id="43152929" version="2" timestamp="2009-11-14T12:11:06Z" uid="117890" user="Jonathan Trott" changeset="3112508">
    <nd ref="20955139"/>
    <nd ref="540578469"/>
    <nd ref="540578467"/>
    <tag k="highway" v="service"/>
    <tag k="name" v="Pine Lane"/>
    <tag k="source" v="survey"/>
  </way>
  <way id="43152929" version="3" timestamp="2010-10-16T05:27:01Z" uid="7617" user="Franc" changeset="6054570">
    <nd ref="20955139"/>
    <nd ref="951198493"/>
    <nd ref="540578469"/>
    <nd ref="540578467"/>
    <tag k="highway" v="service"/>
    <tag k="name" v="Pine Lane"/>
    <tag k="source" v="survey"/>
  </way>
  <way id="43152930" version="1" timestamp="2009-10-26T07:54:40Z" uid="7617" user="Franc" changeset="2953761">
    <nd ref="540578468"/>
    <nd ref="540578469"/>
    <tag k="highway" v="service"/>
    <tag k="source" v="extrapolation"/>
  </way>
  <way id="43152930" version="2" timestamp="2009-11-14T12:11:06Z" uid="117890" user="Jonathan Trott" changeset="3112508">
    <nd ref="540578468"/>
    <nd ref="540578469"/>
    <tag k="highway" v="service"/>
    <tag k="source" v="extrapolation"/>
  </way>
  <way id="43152931" version="1" timestamp="2009-10-26T07:54:40Z" uid="7617" user="Franc" changeset="2953761">
    <nd ref="200570523"/>
    <nd ref="540578471"/>
    <nd ref="540578472"/>
    <tag k="highway" v="service"/>
    <tag k="name" v="Woodstock Lane"/>
    <tag k="source" v="survey"/>
  </way>
  <way id="43152931" version="2" timestamp="2009-11-14T12:11:09Z" uid="117890" user="Jonathan Trott" changeset="3112508">
    <nd ref="200570523"/>
    <nd ref="540578471"/>
    <nd ref="540578472"/>
    <tag k="highway" v="service"/>
    <tag k="name" v="Woodstock Lane"/>
    <tag k="source" v="survey"/>
  </way>
  <way id="43152931" version="3" timestamp="2010-10-16T05:27:07Z" uid="7617" user="Franc" changeset="6054570">
    <nd ref="200570523"/>
    <nd ref="540578472"/>
    <tag k="highway" v="service"/>
    <tag k="name" v="Woodstock Lane"/>
    <tag k="source" v="survey"/>
  </way>
  <way id="43152932" version="1" timestamp="2009-10-26T07:54:40Z" uid="7617" user="Franc" changeset="2953761">
    <nd ref="200570339"/>
    <nd ref="540578476"/>
    <nd ref="200570212"/>
    <nd ref="540578472"/>
    <nd ref="200570268"/>
    <nd ref="200570899"/>
    <nd ref="200570229"/>
    <tag k="highway" v="service"/>
    <tag k="name" v="Flood Lane"/>
    <tag k="source" v="survey"/>
  </way>
  <way id="43152932" version="2" timestamp="2009-11-14T12:09:40Z" uid="117890" user="Jonathan Trott" changeset="3112508">
    <nd ref="200570339"/>
    <nd ref="540578476"/>
    <nd ref="200570212"/>
    <nd ref="540578472"/>
    <nd ref="200570268"/>
    <nd ref="200570899"/>
    <nd ref="200570229"/>
    <tag k="highway" v="service"/>
    <tag k="name" v="Flood Lane"/>
    <tag k="source" v="survey"/>
  </way>
  <way id="43152933" version="1" timestamp="2009-10-26T07:54:40Z" uid="7617" user="Franc" changeset="2953761">
    <nd ref="540578473"/>
    <nd ref="540578474"/>
    <tag k="highway" v="service"/>
    <tag k="name" v="Barnett Lane"/>
    <tag k="source" v="survey"/>
  </way>
  <way id="43152933" version="2" timestamp="2009-11-14T12:11:10Z" uid="117890" user="Jonathan Trott" changeset="3112508">
    <nd ref="540578473"/>
    <nd ref="540578474"/>
    <tag k="highway" v="service"/>
    <tag k="name" v="Barnett Lane"/>
    <tag k="source" v="survey"/>
  </way>
  <way id="43152934" version="1" timestamp="2009-10-26T07:54:40Z" uid="7617" user="Franc" changeset="2953761">
    <nd ref="540578475"/>
    <nd ref="540578476"/>
    <tag k="highway" v="service"/>
    <tag k="source" v="survey"/>
  </way>
  <way id="43152934" version="2" timestamp="2009-11-14T12:11:09Z" uid="117890" user="Jonathan Trott" changeset="3112508">
    <nd ref="540578475"/>
    <nd ref="540578476"/>
    <tag k="highway" v="service"/>
    <tag k="source" v="survey"/>
  </way>
  <way id="43152934" version="3" timestamp="2011-01-01T12:12:45Z" uid="7617" user="Franc" changeset="6827223">
    <nd ref="540578475"/>
    <nd ref="540578476"/>
    <tag k="fixme:sign:no" v="2011-01-01"/>
    <tag k="highway" v="service"/>
    <tag k="source" v="survey"/>
  </way>
  <way id="43152935" version="1" timestamp="2009-10-26T07:54:40Z" uid="7617" user="Franc" changeset="2953761">
    <nd ref="540578479"/>
    <nd ref="540578481"/>
    <nd ref="540578480"/>
    <tag k="highway" v="service"/>
    <tag k="name" v="Bon Accord Lane"/>
    <tag k="source" v="survey"/>
  </way>
  <way id="43152935" version="2" timestamp="2009-11-14T12:11:10Z" uid="117890" user="Jonathan Trott" changeset="3112508">
    <nd ref="540578479"/>
    <nd ref="540578481"/>
    <nd ref="540578480"/>
    <tag k="highway" v="service"/>
    <tag k="name" v="Bon Accord Lane"/>
    <tag k="source" v="survey"/>
  </way>
  <way id="43152936" version="1" timestamp="2009-10-26T07:54:40Z" uid="7617" user="Franc" changeset="2953761">
    <nd ref="540578482"/>
    <nd ref="540578483"/>
    <tag k="highway" v="residential"/>
    <tag k="name" v="Watkins Street"/>
    <tag k="source" v="survey"/>
  </way>
  <way id="43152936" version="2" timestamp="2009-11-14T12:04:34Z" uid="117890" user="Jonathan Trott" changeset="3112508">
    <nd ref="540578482"/>
    <nd ref="540578483"/>
    <tag k="highway" v="residential"/>
    <tag k="name" v="Watkins Street"/>
    <tag k="source" v="survey"/>
  </way>
  <way id="43152936" version="3" timestamp="2010-02-27T05:34:26Z" uid="20949" user="Ebenezer" changeset="3985737">
    <nd ref="540578482"/>
    <nd ref="540578483"/>
    <tag k="highway" v="residential"/>
    <tag k="lcn" v="yes"/>
    <tag k="name" v="Watkins Street"/>
    <tag k="source" v="survey"/>
  </way>
  <way id="43152936" version="4" timestamp="2010-07-07T21:49:29Z" uid="74617" user="JohnSmith" changeset="5161069">
    <nd ref="540578482"/>
    <nd ref="540578483"/>
    <tag k="highway" v="residential"/>
    <tag k="lcn" v="yes"/>
    <tag k="maxspeed" v="50"/>
    <tag k="maxspeed:source" v="default residential speed limit in Australia"/>
    <tag k="name" v="Watkins Street"/>
    <tag k="source" v="survey"/>
  </way>
  <way id="43152936" version="5" timestamp="2012-01-19T06:40:58Z" uid="147510" user="woodpeck_fixbot" changeset="10433866">
    <nd ref="540578482"/>
    <nd ref="540578483"/>
    <tag k="highway" v="residential"/>
    <tag k="lcn" v="yes"/>
    <tag k="name" v="Watkins Street"/>
    <tag k="source" v="survey"/>
  </way>
  <way id="43152937" version="1" timestamp="2009-10-26T07:54:40Z" uid="7617" user="Franc" changeset="2953761">
    <nd ref="540578484"/>
    <nd ref="540578485"/>
    <tag k="highway" v="residential"/>
    <tag k="name" v="James Street"/>
    <tag k="source" v="survey"/>
  </way>
  <way id="43152937" version="2" timestamp="2009-11-14T12:10:46Z" uid="117890" user="Jonathan Trott" changeset="3112508">
    <nd ref="540578484"/>
    <nd ref="540578485"/>
    <tag k="highway" v="residential"/>
    <tag k="name" v="James Street"/>
    <tag k="source" v="survey"/>
  </way>
  <way id="43152937" version="3" timestamp="2010-07-07T21:54:50Z" uid="74617" user="JohnSmith" changeset="5161069">
    <nd ref="540578484"/>
    <nd ref="540578485"/>
    <tag k="highway" v="residential"/>
    <tag k="maxspeed" v="50"/>
    <tag k="maxspeed:source" v="default residential speed limit in Australia"/>
    <tag k="name" v="James Street"/>
    <tag k="source" v="survey"/>
  </way>
  <way id="43152937" version="4" timestamp="2012-01-19T06:40:59Z" uid="147510" user="woodpeck_fixbot" changeset="10433866">
    <nd ref="540578484"/>
    <nd ref="540578485"/>
    <tag k="highway" v="residential"/>
    <tag k="name" v="James Street"/>
    <tag k="source" v="survey"/>
  </way>
  <way id="43152938" version="1" timestamp="2009-10-26T07:54:41Z" uid="7617" user="Franc" changeset="2953761">
    <nd ref="540578485"/>
    <nd ref="540578486"/>
    <tag k="highway" v="residential"/>
    <tag k="name" v="Goldie Avenue"/>
    <tag k="source" v="survey"/>
  </way>
  <way id="43152938" version="2" timestamp="2009-11-14T12:10:46Z" uid="117890" user="Jonathan Trott" changeset="3112508">
    <nd ref="540578485"/>
    <nd ref="540578486"/>
    <tag k="highway" v="residential"/>
    <tag k="name" v="Goldie Avenue"/>
    <tag k="source" v="survey"/>
  </way>
  <way id="43152938" version="3" timestamp="2010-07-07T21:48:20Z" uid="74617" user="JohnSmith" changeset="5161069">
    <nd ref="540578485"/>
    <nd ref="540578486"/>
    <tag k="highway" v="residential"/>
    <tag k="maxspeed" v="50"/>
    <tag k="maxspeed:source" v="default residential speed limit in Australia"/>
    <tag k="name" v="Goldie Avenue"/>
    <tag k="source" v="survey"/>
  </way>
  <way id="43152938" version="4" timestamp="2012-01-19T06:41:00Z" uid="147510" user="woodpeck_fixbot" changeset="10433866">
    <nd ref="540578485"/>
    <nd ref="540578486"/>
    <tag k="highway" v="residential"/>
    <tag k="name" v="Goldie Avenue"/>
    <tag k="source" v="survey"/>
  </way>
  <way id="43152939" version="1" timestamp="2009-10-26T07:54:41Z" uid="7617" user="Franc" changeset="2953761">
    <nd ref="540578487"/>
    <nd ref="334508414"/>
    <tag k="highway" v="residential"/>
    <tag k="name" v="Coulton Street"/>
    <tag k="source" v="survey"/>
  </way>
  <way id="43152939" version="2" timestamp="2010-07-07T21:52:49Z" uid="74617" user="JohnSmith" changeset="5161069">
    <nd ref="540578487"/>
    <nd ref="334508414"/>
    <tag k="highway" v="residential"/>
    <tag k="maxspeed" v="50"/>
    <tag k="maxspeed:source" v="default residential speed limit in Australia"/>
    <tag k="name" v="Coulton Street"/>
    <tag k="source" v="survey"/>
  </way>
  <way id="43152939" version="3" timestamp="2012-01-19T06:41:01Z" uid="147510" user="woodpeck_fixbot" changeset="10433866">
    <nd ref="540578487"/>
    <nd ref="334508414"/>
    <tag k="highway" v="residential"/>
    <tag k="name" v="Coulton Street"/>
    <tag k="source" v="survey"/>
  </way>
  <way id="43152940" version="1" timestamp="2009-10-26T07:54:41Z" uid="7617" user="Franc" changeset="2953761">
    <nd ref="540578496"/>
    <nd ref="540578497"/>
    <tag k="highway" v="service"/>
    <tag k="name" v="Ewell Lane"/>
    <tag k="source" v="survey"/>
  </way>
  <way id="43152940" version="2" timestamp="2009-11-14T12:16:14Z" uid="117890" user="Jonathan Trott" changeset="3112508">
    <nd ref="540578496"/>
    <nd ref="540578497"/>
    <tag k="highway" v="service"/>
    <tag k="name" v="Ewell Lane"/>
    <tag k="source" v="survey"/>
  </way>
  <way id="43152941" version="1" timestamp="2009-10-26T07:54:41Z" uid="7617" user="Franc" changeset="2953761">
    <nd ref="540578498"/>
    <nd ref="540578499"/>
    <tag k="highway" v="residential"/>
    <tag k="name" v="King Street"/>
    <tag k="source" v="survey"/>
  </way>
  <way id="43152941" version="2" timestamp="2009-11-14T12:16:14Z" uid="117890" user="Jonathan Trott" changeset="3112508">
    <nd ref="540578498"/>
    <nd ref="540578499"/>
    <tag k="highway" v="residential"/>
    <tag k="name" v="King Street"/>
    <tag k="source" v="survey"/>
  </way>
  <way id="43152941" version="3" timestamp="2010-07-07T21:48:36Z" uid="74617" user="JohnSmith" changeset="5161069">
    <nd ref="540578498"/>
    <nd ref="540578499"/>
    <tag k="highway" v="residential"/>
    <tag k="maxspeed" v="50"/>
    <tag k="maxspeed:source" v="default residential speed limit in Australia"/>
    <tag k="name" v="King Street"/>
    <tag k="source" v="survey"/>
  </way>
  <way id="43152941" version="4" timestamp="2012-01-19T06:41:02Z" uid="147510" user="woodpeck_fixbot" changeset="10433866">
    <nd ref="540578498"/>
    <nd ref="540578499"/>
    <tag k="highway" v="residential"/>
    <tag k="name" v="King Street"/>
    <tag k="source" v="survey"/>
  </way>
  <way id="43152942" version="1" timestamp="2009-10-26T07:54:41Z" uid="7617" user="Franc" changeset="2953761">
    <nd ref="540578500"/>
    <nd ref="540578501"/>
    <tag k="highway" v="service"/>
    <tag k="source" v="survey"/>
  </way>
  <way id="43152942" version="2" timestamp="2009-11-14T12:16:14Z" uid="117890" user="Jonathan Trott" changeset="3112508">
    <nd ref="540578500"/>
    <nd ref="540578501"/>
    <tag k="highway" v="service"/>
    <tag k="source" v="survey"/>
  </way>
  <way id="43152942" version="3" timestamp="2010-10-23T02:44:21Z" uid="7617" user="Franc" changeset="6141823">
    <nd ref="540578500"/>
    <nd ref="540578501"/>
    <tag k="fixme:sign:no" v="20101010"/>
    <tag k="highway" v="service"/>
    <tag k="source" v="survey"/>
  </way>
  <way id="43152942" version="4" timestamp="2012-03-09T22:18:52Z" uid="622774" user="DaveHemy" changeset="10926411">
    <nd ref="540578500"/>
    <nd ref="540578501"/>
    <tag k="bicycle" v="yes"/>
    <tag k="cycleway" v="no"/>
    <tag k="fixme:sign:no" v="20101010"/>
    <tag k="foot" v="yes"/>
    <tag k="highway" v="service"/>
    <tag k="motor_vehicle" v="yes"/>
    <tag k="name" v="Ocean Lane"/>
    <tag k="service" v="alley"/>
    <tag k="source" v="survey"/>
    <tag k="surface" v="asphalt"/>
  </way>
  <way id="43152943" version="1" timestamp="2009-10-26T07:54:41Z" uid="7617" user="Franc" changeset="2953761">
    <nd ref="540578503"/>
    <nd ref="540578504"/>
    <tag k="highway" v="residential"/>
    <tag k="name" v="Stephen Street"/>
    <tag k="source" v="survey"/>
  </way>
  <way id="43152943" version="2" timestamp="2010-07-07T21:47:37Z" uid="74617" user="JohnSmith" changeset="5161069">
    <nd ref="540578503"/>
    <nd ref="540578504"/>
    <tag k="highway" v="residential"/>
    <tag k="maxspeed" v="50"/>
    <tag k="maxspeed:source" v="default residential speed limit in Australia"/>
    <tag k="name" v="Stephen Street"/>
    <tag k="source" v="survey"/>
  </way>
  <way id="43152943" version="3" timestamp="2012-01-19T06:41:03Z" uid="147510" user="woodpeck_fixbot" changeset="10433866">
    <nd ref="540578503"/>
    <nd ref="540578504"/>
    <tag k="highway" v="residential"/>
    <tag k="name" v="Stephen Street"/>
    <tag k="source" v="survey"/>
  </way>
  <way id="43152944" version="1" timestamp="2009-10-26T07:54:41Z" uid="7617" user="Franc" changeset="2953761">
    <nd ref="199992889"/>
    <nd ref="540578505"/>
    <nd ref="540578506"/>
    <nd ref="540578507"/>
    <tag k="highway" v="service"/>
    <tag k="name" v="Fig Tree Lane"/>
    <tag k="source" v="survey"/>
  </way>
  <way id="43152950" version="2" timestamp="2010-03-28T11:07:31Z" uid="20587" user="balrog-kun" changeset="4254597">
    <nd ref="540578656"/>
    <nd ref="540578652"/>
    <nd ref="540578650"/>
    <nd ref="540578651"/>
    <nd ref="540578642"/>
    <tag k="highway" v="residential"/>
    <tag k="name" v="Whittier Boulevard"/>
  </way>
</osm>
