<?xml version='1.0' encoding='UTF-8'?>
<osm version="0.6" generator="libosmium/2.20.0">
  <way id="43190697" version="3" timestamp="2010-07-06T18:34:11Z" uid="74617" user="JohnSmith" changeset="5152225">
    <nd ref="541209311"/>
    <nd ref="541209320"/>
    <nd ref="541209322"/>
    <tag k="highway" v="residential"/>
    <tag k="maxspeed" v="50"/>
    <tag k="maxspeed:source" v="default residential speed limit in Australia"/>
    <tag k="name" v="Donation Lane"/>
    <tag k="oneway" v="yes"/>
  </way>
  <way id="43190697" version="4" timestamp="2012-01-19T06:43:41Z" uid="147510" user="woodpeck_fixbot" changeset="10433866">
    <nd ref="541209311"/>
    <nd ref="541209320"/>
    <nd ref="541209322"/>
    <tag k="highway" v="residential"/>
    <tag k="name" v="Donation Lane"/>
    <tag k="oneway" v="yes"/>
  </way>
  <way id="43190698" version="3" timestamp="2010-07-06T18:38:34Z" uid="74617" user="JohnSmith" changeset="5152225">
    <nd ref="541209325"/>
    <nd ref="541209320"/>
    <tag k="highway" v="residential"/>
    <tag k="maxspeed" v="50"/>
    <tag k="maxspeed:source" v="default residential speed limit in Australia"/>
    <tag k="name" v="Silverwood Street"/>
  </way>
  <way id="43190698" version="4" timestamp="2012-01-19T06:43:45Z" uid="147510" user="woodpeck_fixbot" changeset="10433866">
    <nd ref="541209325"/>
    <nd ref="541209320"/>
    <tag k="highway" v="residential"/>
    <tag k="name" v="Silverwood Street"/>
  </way>
  <way id="43190699" version="3" timestamp="2010-07-06T18:39:44Z" uid="74617" user="JohnSmith" changeset="5152225">
    <nd ref="541209326"/>
    <nd ref="541209308"/>
    <tag k="highway" v="residential"/>
    <tag k="maxspeed" v="50"/>
    <tag k="maxspeed:source" v="default residential speed limit in Australia"/>
    <tag k="name" v="Hatton Terrace"/>
  </way>
  <way id="43190699" version="4" timestamp="2012-01-19T06:43:47Z" uid="147510" user="woodpeck_fixbot" changeset="10433866">
    <nd ref="541209326"/>
    <nd ref="541209308"/>
    <tag k="highway" v="residential"/>
    <tag k="name" v="Hatton Terrace"/>
  </way>
</osm>
