<?xml version='1.0' encoding='UTF-8'?>
<osm version="0.6" generator="libosmium/2.20.0">
  <way id="43368307" version="2" timestamp="2010-04-03T13:56:14Z" uid="20587" user="balrog-kun" changeset="4312927">
    <nd ref="83731884"/>
    <nd ref="83731886"/>
    <nd ref="83731888"/>
    <tag k="bridge" v="yes"/>
    <tag k="highway" v="primary"/>
    <tag k="name" v="United States Highway 163"/>
    <tag k="name_1" v="US Highway 163 (Scenic)"/>
    <tag k="ref" v="US 163"/>
    <tag k="tiger:cfcc" v="A21"/>
    <tag k="tiger:county" v="San Juan, UT"/>
    <tag k="tiger:name_base" v="United States Highway 163"/>
    <tag k="tiger:name_base_1" v="US Hwy 163 (Scenic)"/>
    <tag k="tiger:reviewed" v="no"/>
    <tag k="tiger:separated" v="no"/>
    <tag k="tiger:source" v="tiger_import_dch_v0.6_20070830"/>
    <tag k="tiger:tlid" v="177074793:177041668:177041673:177041411:177041412:177075099:177073286:177073287:177064492:177041433:177041434:177064493:177044201:177064495:177062145:177044226:177061963:177044228:177044229:177071625:177067517:177067518:177071555:177073646:177073647:17704"/>
  </way>
  <way id="43368307" version="3" timestamp="2010-06-30T21:13:44Z" uid="239998" user="Sundance" changeset="5116834">
    <nd ref="83731884"/>
    <nd ref="83731886"/>
    <nd ref="83731888"/>
    <tag k="bridge" v="yes"/>
    <tag k="highway" v="primary"/>
    <tag k="is_in" v="San Juan, UT"/>
    <tag k="name" v="United States Route 163"/>
    <tag k="ref" v="US 163"/>
  </way>
  <way id="43368307" version="4" timestamp="2011-03-22T13:57:12Z" uid="207745" user="NE2" changeset="7637207">
    <nd ref="83731884"/>
    <nd ref="83731886"/>
    <nd ref="83731888"/>
    <tag k="bridge" v="yes"/>
    <tag k="highway" v="primary"/>
    <tag k="is_in" v="San Juan, UT"/>
    <tag k="ref" v="US 163"/>
  </way>
  <way id="43368307" version="5" timestamp="2011-03-29T07:15:44Z" uid="428360" user="robytex" changeset="7703980">
    <nd ref="83731884"/>
    <nd ref="83731886"/>
    <nd ref="1223951414"/>
    <nd ref="83731888"/>
    <tag k="bridge" v="yes"/>
    <tag k="highway" v="primary"/>
    <tag k="is_in" v="San Juan, UT"/>
    <tag k="ref" v="US 163"/>
  </way>
  <way id="43368307" version="6" timestamp="2011-06-16T08:20:42Z" uid="207745" user="NE2" changeset="8453773">
    <nd ref="83731884"/>
    <nd ref="83731886"/>
    <nd ref="1223951414"/>
    <nd ref="83731888"/>
    <tag k="bridge" v="yes"/>
    <tag k="highway" v="primary"/>
    <tag k="is_in" v="San Juan, UT"/>
    <tag k="lanes" v="2"/>
    <tag k="ref" v="US 163"/>
  </way>
</osm>
