<?xml version='1.0' encoding='UTF-8'?>
<osm version="0.6" generator="libosmium/2.20.0">
  <way id="4340052" version="2" timestamp="2008-05-09T22:59:39Z" uid="36809" user="pfoten_weg_!_" changeset="380779">
    <nd ref="26124664"/>
    <nd ref="26420212"/>
    <nd ref="26420208"/>
    <nd ref="26420207"/>
    <nd ref="26420206"/>
    <nd ref="26911023"/>
    <nd ref="26420205"/>
    <nd ref="26420204"/>
    <nd ref="26420203"/>
    <nd ref="26420201"/>
    <nd ref="26008727"/>
    <nd ref="26008726"/>
    <nd ref="26420202"/>
    <nd ref="471918"/>
    <tag k="created_by" v="Potlatch 0.9"/>
    <tag k="highway" v="secondary"/>
    <tag k="name" v="Murnauer Straße"/>
    <tag k="oneway" v="true"/>
  </way>
  <way id="4340052" version="3" timestamp="2008-07-09T19:51:10Z" uid="46472" user="sendelhorst" changeset="443271">
    <nd ref="26124664"/>
    <nd ref="26420212"/>
    <nd ref="26420208"/>
    <nd ref="26420207"/>
    <nd ref="26420206"/>
    <nd ref="26911023"/>
    <nd ref="26420205"/>
    <nd ref="26420204"/>
    <nd ref="26420203"/>
    <nd ref="26420201"/>
    <nd ref="26008727"/>
    <nd ref="26008726"/>
    <nd ref="26420202"/>
    <nd ref="277439498"/>
    <nd ref="471918"/>
    <tag k="created_by" v="Potlatch 0.9c"/>
    <tag k="highway" v="secondary"/>
    <tag k="name" v="Murnauer Straße"/>
    <tag k="oneway" v="true"/>
  </way>
  <way id="4340052" version="4" timestamp="2008-07-09T22:44:24Z" uid="46472" user="sendelhorst" changeset="456251">
    <nd ref="26124664"/>
    <nd ref="26420212"/>
    <nd ref="26420208"/>
    <nd ref="26420207"/>
    <nd ref="26420206"/>
    <nd ref="26911023"/>
    <nd ref="26420205"/>
    <nd ref="26420204"/>
    <nd ref="26420203"/>
    <nd ref="26420201"/>
    <nd ref="26008727"/>
    <nd ref="26008726"/>
    <nd ref="26420202"/>
    <nd ref="277439498"/>
    <nd ref="277475820"/>
    <nd ref="471918"/>
    <tag k="created_by" v="Potlatch 0.9c"/>
    <tag k="highway" v="secondary"/>
    <tag k="name" v="Murnauer Straße"/>
    <tag k="oneway" v="true"/>
  </way>
  <way id="4340052" version="5" timestamp="2008-09-10T22:50:33Z" uid="46472" user="sendelhorst" changeset="607511">
    <nd ref="26124664"/>
    <nd ref="26420212"/>
    <nd ref="26420208"/>
    <nd ref="26420207"/>
    <nd ref="26420206"/>
    <nd ref="26911023"/>
    <nd ref="26420205"/>
    <nd ref="26420204"/>
    <nd ref="295787816"/>
    <nd ref="26420203"/>
    <nd ref="295787817"/>
    <nd ref="26420201"/>
    <nd ref="26008727"/>
    <nd ref="26008726"/>
    <nd ref="26420202"/>
    <nd ref="277439498"/>
    <nd ref="277475820"/>
    <nd ref="471918"/>
    <tag k="created_by" v="Potlatch 0.9c"/>
    <tag k="highway" v="secondary"/>
    <tag k="name" v="Murnauer Straße"/>
    <tag k="oneway" v="true"/>
  </way>
  <way id="4340052" version="6" timestamp="2008-09-22T01:29:38Z" uid="36809" user="pfoten_weg_!_" changeset="678890">
    <nd ref="26124664"/>
    <nd ref="26420212"/>
    <nd ref="26420208"/>
    <nd ref="26420207"/>
    <nd ref="26420206"/>
    <nd ref="26911023"/>
    <nd ref="26420205"/>
    <nd ref="26420204"/>
    <nd ref="295787816"/>
    <nd ref="26420203"/>
    <nd ref="295787817"/>
    <nd ref="26420201"/>
    <nd ref="26008727"/>
    <nd ref="26008726"/>
    <nd ref="26420202"/>
    <nd ref="277439498"/>
    <nd ref="277475820"/>
    <nd ref="471918"/>
    <tag k="created_by" v="Potlatch 0.9c"/>
    <tag k="highway" v="secondary"/>
    <tag k="name" v="Murnauer Straße"/>
    <tag k="oneway" v="true"/>
  </way>
  <way id="4340052" version="7" timestamp="2008-10-01T02:11:49Z" uid="36809" user="pfoten_weg_!_" changeset="5644">
    <nd ref="26124664"/>
    <nd ref="26420212"/>
    <nd ref="26420208"/>
    <nd ref="26420207"/>
    <nd ref="26420206"/>
    <nd ref="26911023"/>
    <nd ref="26420205"/>
    <nd ref="26420204"/>
    <nd ref="295787816"/>
    <nd ref="26420203"/>
    <nd ref="295787817"/>
    <nd ref="26420201"/>
    <nd ref="26008727"/>
    <nd ref="26008726"/>
    <nd ref="26420202"/>
    <nd ref="277439498"/>
    <nd ref="277475820"/>
    <nd ref="471918"/>
    <tag k="created_by" v="RambaZamba"/>
    <tag k="highway" v="secondary"/>
    <tag k="name" v="Murnauer Straße"/>
    <tag k="oneway" v="true"/>
  </way>
  <way id="4340052" version="8" timestamp="2008-10-06T00:54:38Z" uid="59819" user="Fuss-im-Ohr" changeset="90926">
    <nd ref="26124664"/>
    <nd ref="26420212"/>
    <nd ref="26420208"/>
    <nd ref="26420207"/>
    <nd ref="26420206"/>
    <nd ref="26911023"/>
    <nd ref="26420205"/>
    <nd ref="26420204"/>
    <nd ref="295787816"/>
    <nd ref="26420203"/>
    <nd ref="295787817"/>
    <nd ref="26420201"/>
    <nd ref="26008727"/>
    <nd ref="26008726"/>
    <nd ref="26420202"/>
    <nd ref="277439498"/>
    <nd ref="277475820"/>
    <nd ref="471918"/>
    <tag k="created_by" v="RambaZamba"/>
    <tag k="highway" v="secondary"/>
    <tag k="name" v="Murnauer Straße"/>
    <tag k="oneway" v="yes"/>
  </way>
  <way id="4340052" version="9" timestamp="2008-11-26T16:48:30Z" uid="37850" user="mawis" changeset="796732">
    <nd ref="26124664"/>
    <nd ref="26420212"/>
    <nd ref="26420208"/>
    <nd ref="26420207"/>
    <nd ref="26420206"/>
    <nd ref="26911023"/>
    <nd ref="26420205"/>
    <nd ref="26420204"/>
    <nd ref="295787816"/>
    <nd ref="26420203"/>
    <nd ref="295787817"/>
    <nd ref="26420201"/>
    <nd ref="26008727"/>
    <nd ref="26008726"/>
    <nd ref="26420202"/>
    <nd ref="277439498"/>
    <nd ref="277475820"/>
    <nd ref="471918"/>
    <tag k="highway" v="secondary"/>
    <tag k="maxspeed" v="50"/>
    <tag k="name" v="Murnauer Straße"/>
    <tag k="oneway" v="yes"/>
  </way>
  <way id="4340052" version="10" timestamp="2010-04-11T19:50:36Z" uid="8703" user="rolandg" changeset="4397742">
    <nd ref="26124664"/>
    <nd ref="693536888"/>
    <nd ref="26420212"/>
    <nd ref="26420208"/>
    <nd ref="26420207"/>
    <nd ref="26420206"/>
    <nd ref="26911023"/>
    <nd ref="26420205"/>
    <nd ref="26420204"/>
    <nd ref="295787816"/>
    <nd ref="26420203"/>
    <nd ref="295787817"/>
    <nd ref="26420201"/>
    <nd ref="26008727"/>
    <nd ref="26008726"/>
    <nd ref="26420202"/>
    <nd ref="277439498"/>
    <nd ref="277475820"/>
    <nd ref="471918"/>
    <tag k="highway" v="secondary"/>
    <tag k="maxspeed" v="50"/>
    <tag k="name" v="Murnauer Straße"/>
    <tag k="oneway" v="yes"/>
  </way>
  <way id="4340052" version="11" timestamp="2011-01-23T18:37:20Z" uid="382934" user="NepoMUC69" changeset="7065393">
    <nd ref="26124664"/>
    <nd ref="693536888"/>
    <nd ref="26420212"/>
    <nd ref="26420208"/>
    <nd ref="26420207"/>
    <nd ref="26420206"/>
    <nd ref="26911023"/>
    <nd ref="26420205"/>
    <nd ref="26420204"/>
    <nd ref="295787816"/>
    <nd ref="26420203"/>
    <nd ref="295787817"/>
    <nd ref="26420201"/>
    <nd ref="26008727"/>
    <nd ref="26008726"/>
    <nd ref="26420202"/>
    <nd ref="277439498"/>
    <nd ref="277475820"/>
    <tag k="highway" v="secondary"/>
    <tag k="maxspeed" v="50"/>
    <tag k="name" v="Murnauer Straße"/>
    <tag k="oneway" v="yes"/>
  </way>
  <way id="4340052" version="12" timestamp="2011-05-12T14:42:41Z" uid="379063" user="MrRoute" changeset="8122891">
    <nd ref="26124664"/>
    <nd ref="693536888"/>
    <nd ref="26420212"/>
    <nd ref="26420208"/>
    <nd ref="26420207"/>
    <nd ref="26420206"/>
    <nd ref="26911023"/>
    <nd ref="26420205"/>
    <nd ref="26420204"/>
    <nd ref="295787816"/>
    <nd ref="26420203"/>
    <nd ref="295787817"/>
    <nd ref="26420201"/>
    <nd ref="26008727"/>
    <nd ref="26008726"/>
    <nd ref="26420202"/>
    <nd ref="277439498"/>
    <nd ref="277475820"/>
    <tag k="foot" v="no"/>
    <tag k="highway" v="secondary"/>
    <tag k="maxspeed" v="50"/>
    <tag k="name" v="Murnauer Straße"/>
    <tag k="oneway" v="yes"/>
  </way>
  <way id="4340052" version="13" timestamp="2012-03-05T22:00:49Z" uid="224490" user="Geo-Tobi" changeset="10885080">
    <nd ref="26124664"/>
    <nd ref="693536888"/>
    <nd ref="26420212"/>
    <nd ref="26420208"/>
    <nd ref="26420207"/>
    <nd ref="26420206"/>
    <nd ref="26911023"/>
    <nd ref="26420205"/>
    <nd ref="26420204"/>
    <nd ref="295787816"/>
    <nd ref="26420203"/>
    <nd ref="295787817"/>
    <nd ref="26420201"/>
    <nd ref="26008727"/>
    <nd ref="26008726"/>
    <nd ref="26420202"/>
    <nd ref="277439498"/>
    <nd ref="277475820"/>
    <tag k="foot" v="no"/>
    <tag k="highway" v="secondary"/>
    <tag k="lanes" v="2"/>
    <tag k="maxspeed" v="50"/>
    <tag k="name" v="Murnauer Straße"/>
    <tag k="oneway" v="yes"/>
  </way>
  <way id="4340319" version="3" timestamp="2008-05-04T13:03:51Z" uid="36809" user="pfoten_weg_!_" changeset="336054">
    <nd ref="21133532"/>
    <nd ref="21133533"/>
    <tag k="created_by" v="Potlatch 0.8c"/>
    <tag k="highway" v="residential"/>
    <tag k="name" v="Högelwörther Straße"/>
    <tag k="oneway" v="true"/>
    <tag k="osmarender:renderName" v="no"/>
  </way>
  <way id="4340319" version="4" timestamp="2008-05-04T13:04:37Z" uid="36809" user="pfoten_weg_!_" changeset="336054">
    <nd ref="21133532"/>
    <nd ref="21133533"/>
    <tag k="created_by" v="Potlatch 0.8c"/>
    <tag k="highway" v="residential"/>
    <tag k="name" v="Drygalskiallee"/>
    <tag k="oneway" v="true"/>
    <tag k="osmarender:renderName" v="no"/>
  </way>
  <way id="4340319" version="5" timestamp="2008-05-04T13:05:08Z" uid="36809" user="pfoten_weg_!_" changeset="336054">
    <nd ref="21133532"/>
    <nd ref="21133533"/>
    <tag k="created_by" v="Potlatch 0.8c"/>
    <tag k="highway" v="secondary"/>
    <tag k="name" v="Drygalskiallee"/>
    <tag k="oneway" v="true"/>
    <tag k="osmarender:renderName" v="no"/>
  </way>
  <way id="4340319" version="6" timestamp="2008-07-25T20:24:18Z" uid="39150" user="account_deleted_1011" changeset="593315"/>
  <way id="4340338" version="4" timestamp="2008-07-05T19:07:21Z" uid="6975" user="ulfl" changeset="398437">
    <nd ref="60068878"/>
    <nd ref="26421036"/>
    <nd ref="26420549"/>
    <tag k="abutters" v="residential"/>
    <tag k="highway" v="secondary"/>
    <tag k="name" v="Chapel Road"/>
    <tag k="ref" v="B5470"/>
  </way>
  <way id="4340411" version="2" timestamp="2007-10-16T22:16:45Z" uid="4667" user="MapZ" changeset="223456">
    <nd ref="26421525"/>
    <nd ref="59983379"/>
    <nd ref="26421523"/>
    <tag k="created_by" v="Potlatch alpha"/>
    <tag k="highway" v="residential"/>
    <tag k="name" v="Mönchwörthstrasse"/>
    <tag k="oneway" v="yes"/>
  </way>
  <way id="4340411" version="3" timestamp="2007-11-02T15:49:58Z" uid="13035" user="eddivonderalm" changeset="388278">
    <nd ref="95882451"/>
    <nd ref="95882449"/>
    <nd ref="95882446"/>
    <nd ref="95882442"/>
    <nd ref="95882440"/>
    <nd ref="95882436"/>
    <nd ref="95882434"/>
    <tag k="created_by" v="Potlatch alpha"/>
    <tag k="highway" v="residential"/>
  </way>
  <way id="4340411" version="4" timestamp="2007-11-02T16:12:35Z" uid="13035" user="eddivonderalm" changeset="388278">
    <nd ref="95882449"/>
    <nd ref="95882451"/>
    <tag k="created_by" v="eddiVonDerAlm"/>
    <tag k="highway" v="residential"/>
    <tag k="oneway" v="yes"/>
  </way>
  <way id="4340411" version="5" timestamp="2008-02-28T20:50:13Z" uid="13035" user="eddivonderalm" changeset="224909">
    <nd ref="249609831"/>
    <nd ref="95882449"/>
    <nd ref="95882451"/>
    <tag k="created_by" v="eddiVonDerAlm"/>
    <tag k="highway" v="residential"/>
    <tag k="name" v="Rathausstrasse"/>
    <tag k="oneway" v="yes"/>
  </way>
  <way id="4340411" version="6" timestamp="2008-03-04T14:04:07Z" uid="7562" user="LosHawlos" changeset="266093">
    <nd ref="249609831"/>
    <nd ref="95882449"/>
    <nd ref="95882451"/>
    <tag k="created_by" v="eddiVonDerAlm"/>
    <tag k="highway" v="residential"/>
    <tag k="name" v="Rathausstraße"/>
    <tag k="oneway" v="yes"/>
  </way>
  <way id="4340411" version="7" timestamp="2008-05-18T07:22:33Z" uid="38348" user="Uwe2008" changeset="470980">
    <nd ref="249609831"/>
    <nd ref="265512799"/>
    <nd ref="95882449"/>
    <nd ref="95882451"/>
    <tag k="created_by" v="Potlatch 0.9a"/>
    <tag k="highway" v="residential"/>
    <tag k="name" v="Rathausstraße"/>
    <tag k="oneway" v="yes"/>
  </way>
  <way id="4340411" version="8" timestamp="2008-11-26T10:16:52Z" uid="7562" user="LosHawlos" changeset="797159">
    <nd ref="249609831"/>
    <nd ref="265512799"/>
    <nd ref="314857048"/>
    <nd ref="95882449"/>
    <nd ref="95882451"/>
    <tag k="created_by" v="Potlatch 0.9a"/>
    <tag k="highway" v="residential"/>
    <tag k="name" v="Rathausstraße"/>
    <tag k="oneway" v="yes"/>
  </way>
  <way id="4340411" version="9" timestamp="2009-09-21T21:34:02Z" uid="151834" user="ahone" changeset="2563099">
    <nd ref="249609831"/>
    <nd ref="265512799"/>
    <nd ref="314857048"/>
    <tag k="highway" v="residential"/>
    <tag k="name" v="Rathausstraße"/>
  </way>
  <way id="4340415" version="3" timestamp="2008-05-04T13:15:20Z" uid="36809" user="pfoten_weg_!_" changeset="336054">
    <nd ref="246420"/>
    <nd ref="26421554"/>
    <nd ref="262133631"/>
    <nd ref="26421552"/>
    <tag k="created_by" v="Potlatch 0.8c"/>
    <tag k="highway" v="motorway_link"/>
    <tag k="oneway" v="true"/>
  </way>
  <way id="4340415" version="4" timestamp="2008-05-18T20:17:27Z" uid="36809" user="pfoten_weg_!_" changeset="473173">
    <nd ref="246420"/>
    <nd ref="26421554"/>
    <nd ref="262133631"/>
    <nd ref="265644863"/>
    <nd ref="26421552"/>
    <tag k="created_by" v="Potlatch 0.9a"/>
    <tag k="highway" v="motorway_link"/>
    <tag k="oneway" v="true"/>
  </way>
  <way id="4340415" version="5" timestamp="2008-06-26T16:05:40Z" uid="37850" user="mawis" changeset="301984">
    <nd ref="246420"/>
    <nd ref="26421554"/>
    <nd ref="262133631"/>
    <nd ref="265644863"/>
    <nd ref="26421552"/>
    <tag k="created_by" v="Potlatch 0.9a"/>
    <tag k="highway" v="motorway_link"/>
    <tag k="maxspeed" v="60"/>
    <tag k="oneway" v="true"/>
  </way>
  <way id="4340415" version="6" timestamp="2008-07-31T11:30:48Z" uid="37850" user="mawis" changeset="633584">
    <nd ref="246420"/>
    <nd ref="26421554"/>
    <nd ref="262133631"/>
    <nd ref="265644863"/>
    <nd ref="26421552"/>
    <tag k="created_by" v="Potlatch 0.9a"/>
    <tag k="highway" v="motorway_link"/>
    <tag k="lanes" v="2"/>
    <tag k="maxspeed" v="60"/>
    <tag k="oneway" v="true"/>
  </way>
  <way id="4340415" version="7" timestamp="2008-12-02T20:52:46Z" uid="42478" user="Peter-Hierholzer" changeset="53276">
    <nd ref="246420"/>
    <nd ref="26421554"/>
    <nd ref="262133631"/>
    <nd ref="265644863"/>
    <nd ref="26421552"/>
    <tag k="created_by" v="Potlatch 0.9a"/>
    <tag k="highway" v="motorway_link"/>
    <tag k="lanes" v="2"/>
    <tag k="maxspeed" v="60"/>
    <tag k="oneway" v="yes"/>
  </way>
  <way id="4340415" version="8" timestamp="2009-06-20T18:15:01Z" uid="85761" user="klausis" changeset="1577174">
    <nd ref="246420"/>
    <nd ref="26421554"/>
    <nd ref="262133631"/>
    <nd ref="265644863"/>
    <nd ref="26421552"/>
    <tag k="highway" v="motorway_link"/>
    <tag k="lanes" v="2"/>
    <tag k="maxspeed" v="60"/>
    <tag k="oneway" v="yes"/>
  </way>
  <way id="4340415" version="9" timestamp="2009-09-04T21:15:22Z" uid="36809" user="pfoten_weg_!_" changeset="2374562">
    <nd ref="246420"/>
    <nd ref="26421554"/>
    <nd ref="262133631"/>
    <nd ref="265644863"/>
    <nd ref="26421552"/>
    <tag k="highway" v="motorway_link"/>
    <tag k="lanes" v="2"/>
    <tag k="maxspeed" v="60"/>
    <tag k="oneway" v="yes"/>
  </way>
  <way id="4340415" version="10" timestamp="2010-10-14T19:36:34Z" uid="8748" user="ToniE" changeset="6042465">
    <nd ref="246420"/>
    <nd ref="948574734"/>
    <nd ref="26421554"/>
    <nd ref="262133631"/>
    <nd ref="265644863"/>
    <nd ref="26421552"/>
    <tag k="highway" v="motorway_link"/>
    <tag k="lanes" v="2"/>
    <tag k="maxspeed" v="60"/>
    <tag k="oneway" v="yes"/>
  </way>
  <way id="4340415" version="11" timestamp="2011-12-18T11:17:51Z" uid="13832" user="Peter14" changeset="10145430"/>
  <way id="4340432" version="3" timestamp="2011-02-11T23:02:18Z" uid="6269" user="Mueck" changeset="7259787">
    <nd ref="26269168"/>
    <nd ref="26269169"/>
    <nd ref="1148167960"/>
    <nd ref="1148168272"/>
    <tag k="highway" v="service"/>
    <tag k="service" v="parking_aisle"/>
  </way>
  <way id="4340432" version="4" timestamp="2012-03-25T15:42:18Z" uid="35468" user="Blunauer" changeset="11096415">
    <nd ref="1690472555"/>
    <nd ref="1690472559"/>
    <nd ref="1690472561"/>
    <nd ref="1148168272"/>
    <tag k="highway" v="service"/>
    <tag k="service" v="parking_aisle"/>
  </way>
  <way id="4340542" version="1" timestamp="2007-03-08T21:02:45Z" uid="4667" user="MapZ" changeset="231707">
    <nd ref="21280168"/>
    <nd ref="21280399"/>
    <nd ref="21280307"/>
    <nd ref="21280292"/>
    <nd ref="21280349"/>
    <nd ref="21280336"/>
    <nd ref="21280362"/>
    <nd ref="21280358"/>
    <nd ref="21280303"/>
    <nd ref="21280299"/>
    <nd ref="21280229"/>
    <nd ref="21280167"/>
    <tag k="created_by" v="JOSM"/>
    <tag k="highway" v="unclassified"/>
  </way>
  <way id="4340542" version="2" timestamp="2007-10-08T21:10:06Z" uid="11027" user="ulegan" changeset="63061">
    <nd ref="21280168"/>
    <nd ref="21280399"/>
    <nd ref="21280307"/>
    <nd ref="21280292"/>
    <nd ref="21280349"/>
    <nd ref="21280336"/>
    <nd ref="21280362"/>
    <nd ref="21280358"/>
    <nd ref="21280303"/>
    <nd ref="21280299"/>
    <nd ref="21280229"/>
    <nd ref="21280167"/>
    <tag k="created_by" v="JOSM"/>
    <tag k="highway" v="trunk_link"/>
  </way>
  <way id="4340542" version="3" timestamp="2007-10-14T11:53:53Z" uid="11027" user="ulegan" changeset="162428">
    <nd ref="21280168"/>
    <nd ref="21280399"/>
    <nd ref="21280307"/>
    <nd ref="21280292"/>
    <nd ref="21280349"/>
    <nd ref="21280336"/>
    <nd ref="21280362"/>
    <nd ref="21280358"/>
    <tag k="created_by" v="JOSM"/>
    <tag k="highway" v="trunk_link"/>
    <tag k="oneway" v="true"/>
  </way>
  <way id="4340542" version="4" timestamp="2008-05-03T16:37:42Z" uid="29161" user="jms" changeset="322662">
    <nd ref="21280168"/>
    <nd ref="21280399"/>
    <nd ref="21280307"/>
    <nd ref="21280292"/>
    <nd ref="21280349"/>
    <nd ref="21280336"/>
    <nd ref="21280362"/>
    <nd ref="21280358"/>
    <tag k="created_by" v="Potlatch 0.8c"/>
    <tag k="highway" v="trunk_link"/>
    <tag k="oneway" v="true"/>
  </way>
  <way id="4340542" version="5" timestamp="2008-05-03T16:39:37Z" uid="29161" user="jms" changeset="322662">
    <nd ref="21280168"/>
    <nd ref="21280399"/>
    <nd ref="21280307"/>
    <nd ref="21280292"/>
    <nd ref="21280349"/>
    <nd ref="21280336"/>
    <nd ref="21280362"/>
    <nd ref="21280358"/>
    <tag k="created_by" v="Potlatch 0.8c"/>
    <tag k="highway" v="trunk_link"/>
    <tag k="oneway" v="true"/>
  </way>
  <way id="4340542" version="6" timestamp="2008-05-05T07:15:27Z" uid="36226" user="Henry Loenwind" changeset="337941"/>
  <way id="4340544" version="1" timestamp="2007-03-08T21:02:48Z" uid="4667" user="MapZ" changeset="231707">
    <nd ref="21280312"/>
    <nd ref="21280280"/>
    <nd ref="21280282"/>
    <nd ref="21280224"/>
    <nd ref="21280241"/>
    <nd ref="21280337"/>
    <nd ref="21280367"/>
    <tag k="created_by" v="JOSM"/>
    <tag k="highway" v="unclassified"/>
  </way>
  <way id="4340544" version="2" timestamp="2007-10-14T11:53:57Z" uid="11027" user="ulegan" changeset="162428">
    <nd ref="21280312"/>
    <nd ref="21280280"/>
    <nd ref="21280282"/>
    <nd ref="21280224"/>
    <nd ref="21280241"/>
    <nd ref="21280337"/>
    <nd ref="21280367"/>
    <tag k="created_by" v="JOSM"/>
    <tag k="highway" v="unclassified"/>
    <tag k="name" v="Berliner Straße"/>
  </way>
  <way id="4340544" version="3" timestamp="2008-04-30T14:11:10Z" uid="29161" user="jms" changeset="295107">
    <nd ref="21280312"/>
    <nd ref="21280280"/>
    <nd ref="21280282"/>
    <nd ref="21280224"/>
    <nd ref="21280241"/>
    <nd ref="21280337"/>
    <nd ref="21280367"/>
    <tag k="created_by" v="Potlatch 0.8b"/>
    <tag k="highway" v="residential"/>
    <tag k="name" v="Berliner Straße"/>
  </way>
  <way id="4340544" version="4" timestamp="2008-04-30T14:11:46Z" uid="29161" user="jms" changeset="295107">
    <nd ref="260762536"/>
    <nd ref="260762559"/>
    <nd ref="260762560"/>
    <nd ref="260762561"/>
    <nd ref="21280312"/>
    <nd ref="21280280"/>
    <nd ref="21280282"/>
    <nd ref="21280224"/>
    <nd ref="21280241"/>
    <nd ref="21280337"/>
    <nd ref="21280367"/>
    <tag k="created_by" v="Potlatch 0.8b"/>
    <tag k="highway" v="residential"/>
    <tag k="name" v="Berliner Straße"/>
  </way>
  <way id="4340544" version="5" timestamp="2008-05-28T17:56:02Z" uid="29161" user="jms" changeset="541552">
    <nd ref="260762536"/>
    <nd ref="260762559"/>
    <nd ref="260762560"/>
    <nd ref="260762561"/>
    <nd ref="21280312"/>
    <nd ref="21280280"/>
    <nd ref="21280282"/>
    <nd ref="21280224"/>
    <nd ref="21280241"/>
    <nd ref="21280337"/>
    <nd ref="21280367"/>
    <tag k="created_by" v="Potlatch 0.9b"/>
    <tag k="highway" v="residential"/>
    <tag k="name" v="Berliner Straße"/>
  </way>
  <way id="4340544" version="6" timestamp="2008-06-05T20:46:07Z" uid="41534" user="vovo" changeset="64512">
    <nd ref="260762536"/>
    <nd ref="260762559"/>
    <nd ref="268669803"/>
    <nd ref="260762560"/>
    <nd ref="260762561"/>
    <nd ref="21280312"/>
    <nd ref="21280280"/>
    <nd ref="21280282"/>
    <nd ref="21280224"/>
    <nd ref="21280241"/>
    <nd ref="21280337"/>
    <nd ref="21280367"/>
    <tag k="created_by" v="Potlatch 0.9b"/>
    <tag k="highway" v="residential"/>
    <tag k="name" v="Berliner Straße"/>
  </way>
  <way id="4340544" version="7" timestamp="2008-12-21T15:38:55Z" uid="29161" user="jms" changeset="526951">
    <nd ref="260762536"/>
    <nd ref="260762559"/>
    <nd ref="268669803"/>
    <nd ref="260762560"/>
    <nd ref="260762561"/>
    <nd ref="21280312"/>
    <nd ref="21280280"/>
    <nd ref="21280282"/>
    <nd ref="21280224"/>
    <nd ref="21280241"/>
    <nd ref="21280337"/>
    <nd ref="21280367"/>
    <tag k="created_by" v="Potlatch 0.10f"/>
    <tag k="highway" v="residential"/>
    <tag k="name" v="Berliner Straße"/>
  </way>
  <way id="4340544" version="8" timestamp="2009-06-01T19:02:27Z" uid="28748" user="frief" changeset="1396437">
    <nd ref="260762536"/>
    <nd ref="268669803"/>
    <nd ref="260762560"/>
    <nd ref="260762561"/>
    <nd ref="21280312"/>
    <nd ref="21280282"/>
    <nd ref="21280224"/>
    <nd ref="21280367"/>
    <tag k="created_by" v="Potlatch 0.10f"/>
    <tag k="highway" v="residential"/>
    <tag k="name" v="Berliner Straße"/>
  </way>
  <way id="4340544" version="9" timestamp="2009-08-04T20:15:10Z" uid="142422" user="BIGTH" changeset="2039839">
    <nd ref="260762536"/>
    <nd ref="268669803"/>
    <nd ref="260762560"/>
    <nd ref="260762561"/>
    <nd ref="21280312"/>
    <nd ref="21280282"/>
    <nd ref="21280224"/>
    <tag k="created_by" v="Potlatch 0.10f"/>
    <tag k="highway" v="residential"/>
    <tag k="name" v="Berliner Straße"/>
  </way>
  <way id="4340544" version="10" timestamp="2009-09-09T04:35:59Z" uid="142422" user="BIGTH" changeset="2421102">
    <nd ref="260762536"/>
    <nd ref="268669803"/>
    <nd ref="260762560"/>
    <nd ref="260762561"/>
    <nd ref="21280312"/>
    <nd ref="490524069"/>
    <nd ref="21280282"/>
    <nd ref="21280224"/>
    <tag k="highway" v="residential"/>
    <tag k="name" v="Berliner Straße"/>
  </way>
  <way id="4340544" version="11" timestamp="2009-09-20T21:20:29Z" uid="142422" user="BIGTH" changeset="2551933">
    <nd ref="260762536"/>
    <nd ref="503718137"/>
    <nd ref="503718138"/>
    <nd ref="268669803"/>
    <nd ref="260762560"/>
    <nd ref="260762561"/>
    <nd ref="503718139"/>
    <nd ref="503718140"/>
    <nd ref="21280312"/>
    <nd ref="503718141"/>
    <nd ref="490524069"/>
    <nd ref="21280282"/>
    <nd ref="21280224"/>
    <tag k="highway" v="residential"/>
    <tag k="name" v="Berliner Straße"/>
  </way>
  <way id="4340544" version="12" timestamp="2011-08-25T07:24:20Z" uid="6326" user="mike_hd" changeset="9118769">
    <nd ref="260762536"/>
    <nd ref="503718137"/>
    <nd ref="503718138"/>
    <nd ref="268669803"/>
    <nd ref="260762560"/>
    <nd ref="260762561"/>
    <nd ref="503718139"/>
    <nd ref="21280312"/>
    <nd ref="503718141"/>
    <nd ref="490524069"/>
    <nd ref="21280282"/>
    <nd ref="21280224"/>
    <tag k="highway" v="residential"/>
    <tag k="name" v="Berliner Straße"/>
  </way>
  <way id="4340546" version="1" timestamp="2007-03-08T21:02:49Z" uid="4667" user="MapZ" changeset="231707">
    <nd ref="21280294"/>
    <nd ref="21280325"/>
    <nd ref="21280329"/>
    <nd ref="21280270"/>
    <tag k="created_by" v="JOSM"/>
    <tag k="highway" v="unclassified"/>
  </way>
  <way id="4340546" version="2" timestamp="2008-05-05T06:57:24Z" uid="36226" user="Henry Loenwind" changeset="337941"/>
  <way id="4340554" version="1" timestamp="2007-03-08T21:02:51Z" uid="4667" user="MapZ" changeset="231707">
    <nd ref="21280367"/>
    <nd ref="21280385"/>
    <nd ref="21280172"/>
    <nd ref="21280373"/>
    <nd ref="21280266"/>
    <nd ref="21280359"/>
    <tag k="created_by" v="JOSM"/>
    <tag k="highway" v="unclassified"/>
  </way>
  <way id="4340554" version="2" timestamp="2008-04-30T13:43:43Z" uid="29161" user="jms" changeset="295107">
    <nd ref="21280367"/>
    <nd ref="21280385"/>
    <nd ref="21280172"/>
    <nd ref="21280373"/>
    <nd ref="21280266"/>
    <nd ref="21280359"/>
    <tag k="created_by" v="Potlatch 0.8b"/>
    <tag k="highway" v="unclassified"/>
  </way>
  <way id="4340554" version="3" timestamp="2008-04-30T13:45:20Z" uid="29161" user="jms" changeset="295107">
    <nd ref="21280367"/>
    <nd ref="21280385"/>
    <nd ref="21280172"/>
    <nd ref="21280373"/>
    <nd ref="21280266"/>
    <nd ref="21280359"/>
    <nd ref="260759285"/>
    <nd ref="260759284"/>
    <tag k="created_by" v="Potlatch 0.8b"/>
    <tag k="highway" v="unclassified; residential"/>
  </way>
  <way id="4340554" version="4" timestamp="2008-04-30T13:45:51Z" uid="29161" user="jms" changeset="295107">
    <nd ref="21280367"/>
    <nd ref="21280385"/>
    <nd ref="21280172"/>
    <nd ref="21280373"/>
    <nd ref="21280266"/>
    <nd ref="21280359"/>
    <nd ref="260759285"/>
    <nd ref="260759284"/>
    <tag k="created_by" v="Potlatch 0.8b"/>
    <tag k="highway" v="tertiary"/>
    <tag k="name" v="Grenzhöfer Straße"/>
  </way>
  <way id="4340554" version="5" timestamp="2008-04-30T14:33:00Z" uid="29161" user="jms" changeset="295107">
    <nd ref="21280367"/>
    <nd ref="21280385"/>
    <nd ref="21280172"/>
    <nd ref="21280373"/>
    <nd ref="21280266"/>
    <nd ref="21280359"/>
    <nd ref="260759285"/>
    <nd ref="260759284"/>
    <tag k="created_by" v="Potlatch 0.8b"/>
    <tag k="highway" v="tertiary"/>
    <tag k="name" v="Grenzhöfer Straße"/>
  </way>
  <way id="4340554" version="6" timestamp="2008-05-02T20:54:44Z" uid="29161" user="jms" changeset="313584">
    <nd ref="261661987"/>
    <nd ref="261662108"/>
    <nd ref="261662109"/>
    <nd ref="261662110"/>
    <nd ref="21280367"/>
    <nd ref="21280385"/>
    <nd ref="21280172"/>
    <nd ref="21280373"/>
    <nd ref="21280266"/>
    <nd ref="21280359"/>
    <nd ref="260759285"/>
    <nd ref="260759284"/>
    <tag k="created_by" v="Potlatch 0.8c"/>
    <tag k="highway" v="tertiary"/>
    <tag k="name" v="Grenzhöfer Straße"/>
    <tag k="ref" v="K4144"/>
  </way>
  <way id="4340554" version="7" timestamp="2008-05-02T20:55:47Z" uid="29161" user="jms" changeset="313584">
    <nd ref="261661987"/>
    <nd ref="261662108"/>
    <nd ref="261662309"/>
    <nd ref="261662109"/>
    <nd ref="261662110"/>
    <nd ref="21280367"/>
    <nd ref="21280385"/>
    <nd ref="21280172"/>
    <nd ref="21280373"/>
    <nd ref="21280266"/>
    <nd ref="21280359"/>
    <nd ref="260759285"/>
    <nd ref="260759284"/>
    <tag k="created_by" v="Potlatch 0.8c"/>
    <tag k="highway" v="tertiary"/>
    <tag k="name" v="Grenzhöfer Straße"/>
    <tag k="ref" v="K4144"/>
  </way>
  <way id="4340554" version="8" timestamp="2008-05-02T20:56:32Z" uid="29161" user="jms" changeset="313584">
    <nd ref="261661987"/>
    <nd ref="261662108"/>
    <nd ref="261662309"/>
    <nd ref="261662109"/>
    <nd ref="261662110"/>
    <nd ref="21280367"/>
    <nd ref="21280385"/>
    <nd ref="21280172"/>
    <nd ref="21280373"/>
    <nd ref="21280266"/>
    <nd ref="21280359"/>
    <nd ref="260759285"/>
    <nd ref="260759284"/>
    <tag k="created_by" v="Potlatch 0.8c"/>
    <tag k="highway" v="tertiary"/>
    <tag k="name" v="Grenzhöfer Straße"/>
    <tag k="ref" v="K4144"/>
  </way>
  <way id="4340554" version="9" timestamp="2008-05-02T20:57:34Z" uid="29161" user="jms" changeset="313584">
    <nd ref="261661987"/>
    <nd ref="261662108"/>
    <nd ref="261662309"/>
    <nd ref="261662109"/>
    <nd ref="261662110"/>
    <nd ref="21280367"/>
    <nd ref="21280385"/>
    <nd ref="21280172"/>
    <nd ref="21280373"/>
    <nd ref="21280266"/>
    <nd ref="21280359"/>
    <nd ref="260759285"/>
    <nd ref="260759284"/>
    <tag k="created_by" v="Potlatch 0.8c"/>
    <tag k="highway" v="tertiary"/>
    <tag k="name" v="Grenzhöfer Straße"/>
    <tag k="ref" v="K4144"/>
  </way>
  <way id="4340554" version="10" timestamp="2008-05-02T20:57:48Z" uid="29161" user="jms" changeset="313584">
    <nd ref="261661987"/>
    <nd ref="261662108"/>
    <nd ref="261662309"/>
    <nd ref="261662109"/>
    <nd ref="261662110"/>
    <nd ref="261662496"/>
    <nd ref="21280367"/>
    <nd ref="21280385"/>
    <nd ref="21280172"/>
    <nd ref="21280373"/>
    <nd ref="21280266"/>
    <nd ref="21280359"/>
    <nd ref="260759285"/>
    <nd ref="260759284"/>
    <tag k="created_by" v="Potlatch 0.8c"/>
    <tag k="highway" v="tertiary"/>
    <tag k="name" v="Grenzhöfer Straße"/>
    <tag k="ref" v="K4144"/>
  </way>
  <way id="4340554" version="11" timestamp="2008-05-05T06:10:22Z" uid="36226" user="Henry Loenwind" changeset="337941">
    <nd ref="261661987"/>
    <nd ref="261662108"/>
    <nd ref="261662309"/>
    <nd ref="262265280"/>
    <nd ref="262265299"/>
    <nd ref="261662109"/>
    <nd ref="262265412"/>
    <nd ref="262265301"/>
    <nd ref="262265406"/>
    <nd ref="261662110"/>
    <nd ref="262265323"/>
    <nd ref="262265300"/>
    <nd ref="262265354"/>
    <nd ref="262265355"/>
    <nd ref="261662496"/>
    <nd ref="21280367"/>
    <nd ref="21280385"/>
    <nd ref="21280172"/>
    <nd ref="21280373"/>
    <nd ref="21280266"/>
    <nd ref="21280359"/>
    <nd ref="260759285"/>
    <nd ref="260759284"/>
    <tag k="created_by" v="Potlatch 0.8c"/>
    <tag k="highway" v="tertiary"/>
    <tag k="name" v="Grenzhöfer Straße"/>
    <tag k="ref" v="K4144"/>
  </way>
  <way id="4340554" version="12" timestamp="2008-05-12T13:09:55Z" uid="33909" user="heckedotz" changeset="433211">
    <nd ref="252795065"/>
    <nd ref="264047186"/>
    <nd ref="264047185"/>
    <nd ref="264047184"/>
    <nd ref="264047170"/>
    <nd ref="264047149"/>
    <nd ref="264047129"/>
    <nd ref="264047117"/>
    <nd ref="264047107"/>
    <nd ref="264047086"/>
    <nd ref="264047072"/>
    <tag k="created_by" v="Potlatch 0.8c"/>
    <tag k="highway" v="tertiary"/>
    <tag k="name" v="Grenzhöfer Straße"/>
  </way>
  <way id="4340554" version="13" timestamp="2008-05-24T19:03:33Z" uid="39450" user="Xpert" changeset="513879">
    <nd ref="252795066"/>
    <nd ref="264047186"/>
    <nd ref="264047185"/>
    <nd ref="264047184"/>
    <nd ref="264047170"/>
    <nd ref="264047149"/>
    <nd ref="264047129"/>
    <nd ref="264047117"/>
    <nd ref="264047107"/>
    <nd ref="264047086"/>
    <nd ref="264047072"/>
    <tag k="created_by" v="Potlatch 0.8c"/>
    <tag k="highway" v="tertiary"/>
    <tag k="name" v="Grenzhöfer Straße"/>
  </way>
  <way id="4340554" version="14" timestamp="2008-06-21T14:15:32Z" uid="44329" user="aikon" changeset="244953">
    <nd ref="252795066"/>
    <nd ref="264047186"/>
    <nd ref="264047185"/>
    <nd ref="264047184"/>
    <nd ref="264047170"/>
    <nd ref="264047149"/>
    <nd ref="264047129"/>
    <nd ref="264047117"/>
    <nd ref="271715840"/>
    <nd ref="264047107"/>
    <nd ref="264047086"/>
    <nd ref="264047072"/>
    <tag k="created_by" v="Potlatch 0.8c"/>
    <tag k="highway" v="tertiary"/>
    <tag k="name" v="Grenzhöfer Straße"/>
  </way>
  <way id="4340554" version="15" timestamp="2008-06-28T15:27:00Z" uid="46598" user="ribbldibbl" changeset="327581">
    <nd ref="252795066"/>
    <nd ref="264047186"/>
    <nd ref="264047185"/>
    <nd ref="264047184"/>
    <nd ref="274277463"/>
    <nd ref="264047170"/>
    <nd ref="264047149"/>
    <nd ref="264047129"/>
    <nd ref="264047117"/>
    <nd ref="271715840"/>
    <nd ref="264047107"/>
    <nd ref="264047086"/>
    <nd ref="264047072"/>
    <tag k="created_by" v="Potlatch 0.8c"/>
    <tag k="highway" v="tertiary"/>
    <tag k="name" v="Grenzhöfer Straße"/>
  </way>
  <way id="4340554" version="16" timestamp="2008-06-29T10:48:44Z" uid="46598" user="ribbldibbl" changeset="340619">
    <nd ref="252795066"/>
    <nd ref="264047186"/>
    <nd ref="264047185"/>
    <nd ref="264047184"/>
    <nd ref="274277463"/>
    <nd ref="264047170"/>
    <nd ref="264047149"/>
    <nd ref="264047129"/>
    <nd ref="264047117"/>
    <nd ref="271715840"/>
    <nd ref="264047107"/>
    <nd ref="274564081"/>
    <nd ref="264047086"/>
    <nd ref="264047072"/>
    <tag k="created_by" v="Potlatch 0.8c"/>
    <tag k="highway" v="tertiary"/>
    <tag k="name" v="Grenzhöfer Straße"/>
  </way>
  <way id="4340554" version="17" timestamp="2008-06-29T10:56:16Z" uid="46598" user="ribbldibbl" changeset="340619"/>
  <way id="4340555" version="1" timestamp="2007-03-08T21:02:51Z" uid="4667" user="MapZ" changeset="231707">
    <nd ref="21280357"/>
    <nd ref="21280335"/>
    <nd ref="21280245"/>
    <nd ref="21280312"/>
    <tag k="created_by" v="JOSM"/>
    <tag k="highway" v="unclassified"/>
  </way>
  <way id="4340555" version="2" timestamp="2008-05-28T17:57:41Z" uid="29161" user="jms" changeset="541552">
    <nd ref="21280357"/>
    <nd ref="21280335"/>
    <nd ref="267247903"/>
    <nd ref="21280245"/>
    <nd ref="21280312"/>
    <tag k="created_by" v="Potlatch 0.9b"/>
    <tag k="highway" v="unclassified"/>
  </way>
  <way id="4340555" version="3" timestamp="2008-06-05T20:46:06Z" uid="41534" user="vovo" changeset="64512">
    <nd ref="21280357"/>
    <nd ref="21280335"/>
    <nd ref="267247903"/>
    <nd ref="21280245"/>
    <nd ref="21280312"/>
    <tag k="created_by" v="Potlatch 0.9b"/>
    <tag k="highway" v="unclassified"/>
    <tag k="name" v="Antonisstrasse"/>
  </way>
  <way id="4340555" version="4" timestamp="2008-08-06T16:20:42Z" uid="24920" user="Schusch" changeset="98974">
    <nd ref="21280357"/>
    <nd ref="21280335"/>
    <nd ref="267247903"/>
    <nd ref="21280245"/>
    <nd ref="21280312"/>
    <tag k="created_by" v="Potlatch 0.9b"/>
    <tag k="highway" v="unclassified"/>
    <tag k="name" v="Antonisstraße"/>
  </way>
  <way id="4340555" version="5" timestamp="2008-12-21T15:24:25Z" uid="29161" user="jms" changeset="526951">
    <nd ref="21280357"/>
    <nd ref="21280335"/>
    <nd ref="267247903"/>
    <nd ref="21280245"/>
    <nd ref="21280312"/>
    <tag k="created_by" v="Potlatch 0.10f"/>
    <tag k="highway" v="unclassified"/>
    <tag k="name" v="Antonisstraße"/>
  </way>
  <way id="4340555" version="6" timestamp="2008-12-21T15:24:46Z" uid="29161" user="jms" changeset="526951">
    <nd ref="21280357"/>
    <nd ref="21280335"/>
    <nd ref="267247903"/>
    <nd ref="21280245"/>
    <nd ref="21280312"/>
    <tag k="created_by" v="Potlatch 0.10f"/>
    <tag k="highway" v="unclassified"/>
    <tag k="name" v="Antonisstraße"/>
  </way>
  <way id="4340555" version="7" timestamp="2009-09-08T19:04:30Z" uid="142422" user="BIGTH" changeset="2417621">
    <nd ref="21280357"/>
    <nd ref="21280335"/>
    <nd ref="267247903"/>
    <nd ref="21280245"/>
    <nd ref="490023319"/>
    <nd ref="21280312"/>
    <tag k="highway" v="unclassified"/>
    <tag k="name" v="Antonisstraße"/>
  </way>
  <way id="4340555" version="8" timestamp="2010-04-28T15:18:04Z" uid="142422" user="BIGTH" changeset="4550348">
    <nd ref="21280357"/>
    <nd ref="21280335"/>
    <nd ref="267247903"/>
    <tag k="highway" v="residential"/>
    <tag k="name" v="Antonisstraße"/>
    <tag k="oneway" v="yes"/>
  </way>
  <way id="4340562" version="2" timestamp="2010-12-06T11:36:25Z" uid="6269" user="Mueck" changeset="6561834">
    <nd ref="16375866"/>
    <nd ref="16375867"/>
    <nd ref="16375868"/>
    <nd ref="16375870"/>
    <nd ref="16375872"/>
    <nd ref="16375873"/>
    <nd ref="16375874"/>
    <nd ref="1024810068"/>
    <nd ref="16375864"/>
    <nd ref="16375866"/>
    <tag k="highway" v="unclassified"/>
  </way>
  <way id="4340562" version="3" timestamp="2011-02-28T16:07:12Z" uid="165061" user="keinname" changeset="7421596">
    <nd ref="16375866"/>
    <nd ref="16375867"/>
    <nd ref="16375868"/>
    <nd ref="16375870"/>
    <nd ref="16375872"/>
    <nd ref="16375873"/>
    <nd ref="16375874"/>
    <nd ref="1024810068"/>
    <nd ref="16375864"/>
    <nd ref="1179192031"/>
    <nd ref="16375866"/>
    <tag k="highway" v="unclassified"/>
  </way>
  <way id="4340562" version="4" timestamp="2011-08-09T12:58:52Z" uid="165061" user="keinname" changeset="8966984">
    <nd ref="16375866"/>
    <nd ref="1392375132"/>
    <nd ref="16375867"/>
    <nd ref="1392375137"/>
    <nd ref="16375868"/>
    <nd ref="16375870"/>
    <nd ref="1392375141"/>
    <nd ref="16375873"/>
    <nd ref="16375874"/>
    <nd ref="1024810068"/>
    <nd ref="16375864"/>
    <nd ref="1392375162"/>
    <nd ref="1179192031"/>
    <nd ref="16375866"/>
    <tag k="highway" v="unclassified"/>
  </way>
  <way id="4340562" version="5" timestamp="2011-08-09T13:37:30Z" uid="165061" user="keinname" changeset="8966984"/>
  <way id="4340577" version="2" timestamp="2008-05-03T20:55:12Z" uid="7700" user="schuben" changeset="321180">
    <nd ref="16375892"/>
    <nd ref="16375894"/>
    <nd ref="261964635"/>
    <nd ref="25760083"/>
    <tag k="created_by" v="JOSM"/>
    <tag k="highway" v="residential"/>
    <tag k="name" v="Theodor-Rehbock-Straße"/>
  </way>
  <way id="4340577" version="4" timestamp="2008-05-08T21:45:58Z" uid="16922" user="amai" changeset="367468">
    <nd ref="16375892"/>
    <nd ref="16375894"/>
    <nd ref="262852661"/>
    <nd ref="262852666"/>
    <nd ref="261964635"/>
    <nd ref="25760083"/>
    <tag k="created_by" v="Potlatch 0.9"/>
    <tag k="highway" v="residential"/>
    <tag k="name" v="Theodor-Rehbock-Straße"/>
  </way>
  <way id="4340577" version="5" timestamp="2009-02-01T20:27:16Z" uid="6269" user="Mueck" changeset="23288">
    <nd ref="16375892"/>
    <nd ref="16375894"/>
    <nd ref="262852661"/>
    <nd ref="262852666"/>
    <nd ref="261964635"/>
    <nd ref="25760083"/>
    <tag k="created_by" v="Potlatch 0.10f"/>
    <tag k="highway" v="residential"/>
    <tag k="name" v="Theodor-Rehbock-Straße"/>
  </way>
  <way id="4340577" version="6" timestamp="2009-02-01T21:15:21Z" uid="6269" user="Mueck" changeset="23288">
    <nd ref="16375892"/>
    <nd ref="16375894"/>
    <nd ref="339858590"/>
    <nd ref="262852661"/>
    <nd ref="262852666"/>
    <nd ref="261964635"/>
    <nd ref="25760083"/>
    <tag k="created_by" v="Potlatch 0.10f"/>
    <tag k="highway" v="residential"/>
    <tag k="name" v="Theodor-Rehbock-Straße"/>
  </way>
  <way id="4340577" version="7" timestamp="2009-06-19T13:01:39Z" uid="85761" user="klausis" changeset="1564619">
    <nd ref="16375892"/>
    <nd ref="16375894"/>
    <nd ref="339858590"/>
    <nd ref="262852661"/>
    <nd ref="262852666"/>
    <nd ref="261964635"/>
    <nd ref="25760083"/>
    <tag k="highway" v="residential"/>
    <tag k="name" v="Theodor-Rehbock-Straße"/>
  </way>
  <way id="4340577" version="8" timestamp="2011-10-24T07:46:02Z" uid="442210" user="dwausr" changeset="9640872"/>
  <way id="4340585" version="3" timestamp="2008-02-24T21:16:31Z" uid="6269" user="Mueck" changeset="193920">
    <nd ref="16925404"/>
    <nd ref="16925403"/>
    <tag k="bridge" v="yes"/>
    <tag k="created_by" v="Potlatch 0.7b"/>
    <tag k="highway" v="secondary"/>
    <tag k="layer" v="1"/>
    <tag k="name" v="Elfmorgenbruchstraße"/>
  </way>
  <way id="4340585" version="4" timestamp="2008-02-24T21:18:39Z" uid="6269" user="Mueck" changeset="193920">
    <nd ref="16925404"/>
    <nd ref="16925403"/>
    <tag k="bridge" v="yes"/>
    <tag k="created_by" v="Potlatch 0.7b"/>
    <tag k="highway" v="secondary"/>
    <tag k="layer" v="1"/>
    <tag k="name" v="Elfmorgenbruchstraße"/>
  </way>
  <way id="4340585" version="5" timestamp="2008-02-24T21:19:10Z" uid="6269" user="Mueck" changeset="193920">
    <nd ref="16925403"/>
    <nd ref="16925404"/>
    <tag k="bridge" v="yes"/>
    <tag k="created_by" v="Potlatch 0.7b"/>
    <tag k="highway" v="secondary"/>
    <tag k="layer" v="1"/>
    <tag k="name" v="Elfmorgenbruchstraße"/>
  </way>
  <way id="4340585" version="6" timestamp="2008-02-24T21:19:48Z" uid="6269" user="Mueck" changeset="193920">
    <nd ref="16925403"/>
    <nd ref="16925404"/>
    <tag k="bridge" v="yes"/>
    <tag k="created_by" v="Potlatch 0.7b"/>
    <tag k="highway" v="secondary"/>
    <tag k="layer" v="1"/>
    <tag k="name" v="Elfmorgenbruchstraße"/>
    <tag k="oneway" v="yes"/>
  </way>
  <way id="4340585" version="7" timestamp="2011-02-12T14:21:04Z" uid="165061" user="keinname" changeset="7265048">
    <nd ref="16925403"/>
    <nd ref="16925404"/>
    <tag k="bridge" v="yes"/>
    <tag k="highway" v="secondary"/>
    <tag k="layer" v="1"/>
    <tag k="name" v="Elfmorgenbruchstraße"/>
    <tag k="oneway" v="yes"/>
  </way>
  <way id="4340585" version="8" timestamp="2011-10-22T10:20:28Z" uid="442210" user="dwausr" changeset="9622678"/>
  <way id="4340677" version="1" timestamp="2007-03-08T21:50:52Z" uid="1066" user="pavel" changeset="231899">
    <nd ref="21266480"/>
    <nd ref="25658897"/>
    <nd ref="25658886"/>
    <nd ref="25658872"/>
    <nd ref="25658911"/>
    <tag k="created_by" v="JOSM"/>
    <tag k="highway" v="residential"/>
    <tag k="name" v="Seminarska"/>
  </way>
  <way id="4340677" version="2" timestamp="2008-08-31T23:32:19Z" uid="1066" user="pavel" changeset="485373">
    <nd ref="21266480"/>
    <nd ref="25658897"/>
    <nd ref="25658886"/>
    <nd ref="25658872"/>
    <nd ref="25658911"/>
    <tag k="autoname:source" v="nameit/uir-adr"/>
    <tag k="created_by" v="JOSM"/>
    <tag k="highway" v="residential"/>
    <tag k="name" v="Seminářská"/>
  </way>
  <way id="4340677" version="3" timestamp="2008-09-28T09:32:58Z" uid="17615" user="Petr Dlouhý" changeset="709265">
    <nd ref="21266480"/>
    <nd ref="25658897"/>
    <nd ref="300520947"/>
    <nd ref="25658886"/>
    <nd ref="300520948"/>
    <nd ref="25658872"/>
    <nd ref="25658911"/>
    <tag k="autoname:source" v="nameit/uir-adr"/>
    <tag k="created_by" v="JOSM"/>
    <tag k="highway" v="residential"/>
    <tag k="name" v="Seminářská"/>
  </way>
  <way id="4340677" version="4" timestamp="2009-02-06T19:49:59Z" uid="3516" user="BiIbo" changeset="215626">
    <nd ref="21266480"/>
    <nd ref="25658897"/>
    <nd ref="300520947"/>
    <nd ref="25658886"/>
    <nd ref="300520948"/>
    <nd ref="25658872"/>
    <nd ref="25658911"/>
    <tag k="autoname:source" v="nameit/uir-adr"/>
    <tag k="created_by" v="JOSM"/>
    <tag k="highway" v="residential"/>
    <tag k="name" v="Seminářská"/>
  </way>
  <way id="4340677" version="5" timestamp="2009-03-12T16:52:03Z" uid="3516" user="BiIbo" changeset="794616">
    <nd ref="21266480"/>
    <nd ref="25658897"/>
    <nd ref="300520947"/>
    <nd ref="25658886"/>
    <nd ref="300520948"/>
    <nd ref="25658872"/>
    <nd ref="25658911"/>
    <tag k="highway" v="residential"/>
    <tag k="name" v="Seminářská"/>
    <tag k="source:name" v="nameit/uir-adr"/>
  </way>
  <way id="4340677" version="6" timestamp="2009-08-24T09:24:42Z" uid="3516" user="BiIbo" changeset="2241584">
    <nd ref="21266480"/>
    <nd ref="25658897"/>
    <nd ref="300520947"/>
    <nd ref="25658886"/>
    <nd ref="300520948"/>
    <nd ref="25658872"/>
    <nd ref="25658911"/>
    <tag k="highway" v="residential"/>
    <tag k="name" v="Seminářská"/>
    <tag k="oneway" v="yes"/>
    <tag k="source:name" v="nameit/uir-adr"/>
  </way>
  <way id="4340677" version="7" timestamp="2009-11-06T19:48:46Z" uid="22108" user="afonin" changeset="3051143">
    <nd ref="21266480"/>
    <nd ref="25658897"/>
    <nd ref="300520947"/>
    <nd ref="25658886"/>
    <nd ref="300520948"/>
    <nd ref="25658872"/>
    <nd ref="25658911"/>
    <tag k="highway" v="residential"/>
    <tag k="name" v="Seminářská"/>
    <tag k="name:ru" v="Семинарская улица"/>
    <tag k="oneway" v="yes"/>
    <tag k="source:name" v="nameit/uir-adr"/>
  </way>
  <way id="4340677" version="8" timestamp="2011-03-02T00:37:01Z" uid="42429" user="FK270673" changeset="7434507">
    <nd ref="21266480"/>
    <nd ref="25658897"/>
    <nd ref="300520947"/>
    <nd ref="25658886"/>
    <nd ref="300520948"/>
    <nd ref="25658872"/>
    <nd ref="25658911"/>
    <tag k="highway" v="residential"/>
    <tag k="name" v="Seminářská"/>
    <tag k="name:de" v="Seminargasse"/>
    <tag k="name:ru" v="Семинарская улица"/>
    <tag k="oneway" v="yes"/>
    <tag k="source:name" v="nameit/uir-adr"/>
  </way>
  <way id="4340677" version="9" timestamp="2011-03-07T18:52:59Z" uid="335224" user="ChehVlad" changeset="7487179">
    <nd ref="21266480"/>
    <nd ref="25658897"/>
    <nd ref="300520947"/>
    <nd ref="25658886"/>
    <nd ref="300520948"/>
    <nd ref="25658872"/>
    <nd ref="25658911"/>
    <tag k="highway" v="residential"/>
    <tag k="name" v="Seminářská"/>
    <tag k="name:be" v="Семінарскія вуліца"/>
    <tag k="name:de" v="Seminargasse"/>
    <tag k="name:ru" v="Семинарская улица"/>
    <tag k="oneway" v="yes"/>
    <tag k="source:name" v="nameit/uir-adr"/>
  </way>
  <way id="4340677" version="10" timestamp="2011-06-18T13:33:09Z" uid="17615" user="Petr Dlouhý" changeset="8473384">
    <nd ref="21266480"/>
    <nd ref="25658897"/>
    <nd ref="300520947"/>
    <nd ref="25658886"/>
    <nd ref="300520948"/>
    <nd ref="25658872"/>
    <nd ref="25658911"/>
    <tag k="highway" v="residential"/>
    <tag k="name" v="Seminářská"/>
    <tag k="name:be" v="Семінарскія вуліца"/>
    <tag k="name:de" v="Seminargasse"/>
    <tag k="name:ru" v="Семинарская улица"/>
    <tag k="oneway" v="yes"/>
    <tag k="source:name" v="nameit/uir-adr"/>
    <tag k="surface" v="cobblestone"/>
  </way>
  <way id="4340677" version="11" timestamp="2011-09-07T07:42:22Z" uid="100163" user="Hlav" changeset="9234145">
    <nd ref="21266480"/>
    <nd ref="25658897"/>
    <nd ref="300520947"/>
    <nd ref="25658886"/>
    <nd ref="300520948"/>
    <nd ref="25658872"/>
    <nd ref="25658911"/>
    <tag k="highway" v="residential"/>
    <tag k="lit" v="yes"/>
    <tag k="name" v="Seminářská"/>
    <tag k="name:be" v="Семінарскія вуліца"/>
    <tag k="name:de" v="Seminargasse"/>
    <tag k="name:ru" v="Семинарская улица"/>
    <tag k="oneway" v="yes"/>
    <tag k="source:name" v="nameit/uir-adr"/>
    <tag k="surface" v="cobblestone"/>
  </way>
  <way id="4340679" version="1" timestamp="2007-03-08T21:50:56Z" uid="1066" user="pavel" changeset="231899">
    <nd ref="25658615"/>
    <nd ref="25658998"/>
    <nd ref="25658994"/>
    <nd ref="25658995"/>
    <nd ref="25658996"/>
    <tag k="created_by" v="JOSM"/>
    <tag k="highway" v="residential"/>
    <tag k="name" v="Jalovcova"/>
  </way>
  <way id="4340679" version="2" timestamp="2008-08-31T23:36:00Z" uid="1066" user="pavel" changeset="485373">
    <nd ref="25658615"/>
    <nd ref="25658998"/>
    <nd ref="25658994"/>
    <nd ref="25658995"/>
    <nd ref="25658996"/>
    <tag k="autoname:source" v="nameit/uir-adr"/>
    <tag k="created_by" v="JOSM"/>
    <tag k="highway" v="residential"/>
    <tag k="name" v="Jalovcová"/>
  </way>
  <way id="4340679" version="3" timestamp="2009-03-12T16:52:02Z" uid="3516" user="BiIbo" changeset="794616">
    <nd ref="25658615"/>
    <nd ref="25658998"/>
    <nd ref="25658994"/>
    <nd ref="25658995"/>
    <nd ref="25658996"/>
    <tag k="highway" v="residential"/>
    <tag k="name" v="Jalovcová"/>
    <tag k="source:name" v="nameit/uir-adr"/>
  </way>
  <way id="4340679" version="4" timestamp="2009-08-24T09:24:43Z" uid="3516" user="BiIbo" changeset="2241584">
    <nd ref="25658615"/>
    <nd ref="25658998"/>
    <tag k="highway" v="residential"/>
    <tag k="name" v="Jalovcová"/>
    <tag k="source:name" v="nameit/uir-adr"/>
  </way>
  <way id="4340679" version="5" timestamp="2011-08-27T11:02:21Z" uid="17615" user="Petr Dlouhý" changeset="9136743">
    <nd ref="25658615"/>
    <nd ref="25658998"/>
    <tag k="highway" v="residential"/>
    <tag k="name" v="Jalovcová"/>
    <tag k="source:name" v="nameit/uir-adr"/>
    <tag k="surface" v="cobblestone"/>
  </way>
  <way id="4340680" version="2" timestamp="2008-08-31T23:34:31Z" uid="1066" user="pavel" changeset="485373">
    <nd ref="25657937"/>
    <nd ref="25657934"/>
    <nd ref="25657935"/>
    <nd ref="26424105"/>
    <nd ref="25657937"/>
    <nd ref="25657939"/>
    <nd ref="25657942"/>
    <tag k="autoname:source" v="nameit/uir-adr"/>
    <tag k="created_by" v="JOSM"/>
    <tag k="highway" v="residential"/>
    <tag k="name" v="Betlémské nám."/>
  </way>
  <way id="4340680" version="3" timestamp="2008-09-22T14:45:09Z" uid="17615" user="Petr Dlouhý" changeset="680089">
    <nd ref="25657935"/>
    <nd ref="25657934"/>
    <nd ref="299047215"/>
    <nd ref="25657937"/>
    <tag k="autoname:source" v="nameit/uir-adr"/>
    <tag k="created_by" v="JOSM"/>
    <tag k="highway" v="residential"/>
    <tag k="name" v="Betlémské náměstí"/>
    <tag k="oneway" v="yes"/>
  </way>
  <way id="4340680" version="4" timestamp="2009-01-28T13:06:30Z" uid="3516" user="BiIbo" changeset="847125">
    <nd ref="25657935"/>
    <nd ref="338633641"/>
    <nd ref="25657934"/>
    <nd ref="299047215"/>
    <nd ref="25657937"/>
    <tag k="autoname:source" v="nameit/uir-adr"/>
    <tag k="created_by" v="JOSM"/>
    <tag k="highway" v="residential"/>
    <tag k="name" v="Betlémské náměstí"/>
    <tag k="oneway" v="yes"/>
  </way>
  <way id="4340680" version="5" timestamp="2009-03-12T16:52:04Z" uid="3516" user="BiIbo" changeset="794616">
    <nd ref="25657935"/>
    <nd ref="338633641"/>
    <nd ref="25657934"/>
    <nd ref="299047215"/>
    <nd ref="25657937"/>
    <tag k="highway" v="residential"/>
    <tag k="name" v="Betlémské náměstí"/>
    <tag k="oneway" v="yes"/>
    <tag k="source:name" v="nameit/uir-adr"/>
  </way>
  <way id="4340680" version="6" timestamp="2009-06-30T19:26:13Z" uid="3516" user="BiIbo" changeset="1695117">
    <nd ref="25657935"/>
    <nd ref="338633641"/>
    <nd ref="431313107"/>
    <nd ref="299047215"/>
    <nd ref="25657937"/>
    <tag k="highway" v="residential"/>
    <tag k="name" v="Betlémské náměstí"/>
    <tag k="oneway" v="yes"/>
    <tag k="source:name" v="nameit/uir-adr"/>
  </way>
  <way id="4340680" version="7" timestamp="2009-08-24T09:24:43Z" uid="3516" user="BiIbo" changeset="2241584"/>
  <way id="4340681" version="2" timestamp="2008-08-31T23:33:17Z" uid="1066" user="pavel" changeset="485373">
    <nd ref="25658615"/>
    <nd ref="26424073"/>
    <nd ref="25658614"/>
    <nd ref="25658613"/>
    <nd ref="25657942"/>
    <nd ref="25657120"/>
    <nd ref="25657174"/>
    <nd ref="25657219"/>
    <nd ref="25657261"/>
    <nd ref="25657274"/>
    <tag k="autoname:source" v="nameit/uir-adr"/>
    <tag k="created_by" v="JOSM"/>
    <tag k="highway" v="residential"/>
    <tag k="name" v="Na Perštýně"/>
  </way>
  <way id="4340681" version="3" timestamp="2008-09-01T10:48:11Z" uid="11629" user="Stanislav Brabec" changeset="484064">
    <nd ref="25658615"/>
    <nd ref="26424073"/>
    <nd ref="25658614"/>
    <nd ref="25658613"/>
    <nd ref="25657942"/>
    <nd ref="25657120"/>
    <tag k="autoname:source" v="nameit/uir-adr"/>
    <tag k="created_by" v="Potlatch 0.10b"/>
    <tag k="highway" v="residential"/>
    <tag k="name" v="Na Perštýně"/>
  </way>
  <way id="4340681" version="4" timestamp="2008-09-01T10:48:20Z" uid="11629" user="Stanislav Brabec" changeset="484064">
    <nd ref="25657120"/>
    <nd ref="25657942"/>
    <nd ref="25658613"/>
    <nd ref="25658614"/>
    <nd ref="26424073"/>
    <nd ref="25658615"/>
    <tag k="autoname:source" v="nameit/uir-adr"/>
    <tag k="created_by" v="Potlatch 0.10b"/>
    <tag k="highway" v="residential"/>
    <tag k="name" v="Na Perštýně"/>
  </way>
  <way id="4340681" version="5" timestamp="2008-09-01T10:48:38Z" uid="11629" user="Stanislav Brabec" changeset="484064"/>
  <way id="4340682" version="2" timestamp="2008-08-31T23:33:39Z" uid="1066" user="pavel" changeset="485373">
    <nd ref="25658990"/>
    <nd ref="25658991"/>
    <nd ref="25658996"/>
    <nd ref="25658997"/>
    <nd ref="25658618"/>
    <nd ref="26518465"/>
    <nd ref="25658617"/>
    <nd ref="25658616"/>
    <nd ref="25657120"/>
    <tag k="autoname:source" v="nameit/uir-adr"/>
    <tag k="created_by" v="JOSM"/>
    <tag k="highway" v="residential"/>
    <tag k="name" v="Jilská"/>
  </way>
  <way id="4340682" version="3" timestamp="2008-09-28T09:25:58Z" uid="17615" user="Petr Dlouhý" changeset="709265">
    <nd ref="25658989"/>
    <nd ref="300519458"/>
    <nd ref="300519459"/>
    <nd ref="25658990"/>
    <nd ref="25658991"/>
    <nd ref="25658992"/>
    <nd ref="25658993"/>
    <tag k="autoname:source" v="nameit/uir-adr"/>
    <tag k="created_by" v="JOSM"/>
    <tag k="highway" v="residential"/>
    <tag k="name" v="Karlova"/>
    <tag k="name:source" v="nameit/uir-adr"/>
    <tag k="oneway" v="yes"/>
  </way>
  <way id="4340682" version="4" timestamp="2009-03-12T16:52:04Z" uid="3516" user="BiIbo" changeset="794616">
    <nd ref="25658989"/>
    <nd ref="300519458"/>
    <nd ref="300519459"/>
    <nd ref="25658990"/>
    <nd ref="25658991"/>
    <nd ref="25658992"/>
    <nd ref="25658993"/>
    <tag k="highway" v="residential"/>
    <tag k="name" v="Karlova"/>
    <tag k="oneway" v="yes"/>
    <tag k="source:name" v="nameit/uir-adr"/>
  </way>
  <way id="4340682" version="5" timestamp="2009-08-24T10:07:48Z" uid="3516" user="BiIbo" changeset="2242054">
    <nd ref="472661927"/>
    <nd ref="472661930"/>
    <nd ref="25658989"/>
    <nd ref="300519458"/>
    <nd ref="300519459"/>
    <nd ref="25658990"/>
    <nd ref="25658991"/>
    <nd ref="25658992"/>
    <nd ref="25658993"/>
    <tag k="highway" v="residential"/>
    <tag k="name" v="Karlova"/>
    <tag k="oneway" v="yes"/>
    <tag k="source:name" v="nameit/uir-adr"/>
  </way>
  <way id="4340682" version="6" timestamp="2009-11-06T19:52:03Z" uid="22108" user="afonin" changeset="3051143">
    <nd ref="472661927"/>
    <nd ref="472661930"/>
    <nd ref="25658989"/>
    <nd ref="300519458"/>
    <nd ref="300519459"/>
    <nd ref="25658990"/>
    <nd ref="25658991"/>
    <nd ref="25658992"/>
    <nd ref="25658993"/>
    <tag k="highway" v="residential"/>
    <tag k="name" v="Karlova"/>
    <tag k="name:ru" v="улица Карла"/>
    <tag k="oneway" v="yes"/>
    <tag k="source:name" v="nameit/uir-adr"/>
  </way>
  <way id="4340682" version="7" timestamp="2011-01-10T00:17:27Z" uid="177221" user="reki" changeset="6922344">
    <nd ref="472661927"/>
    <nd ref="472661930"/>
    <nd ref="25658989"/>
    <nd ref="300519458"/>
    <nd ref="300519459"/>
    <nd ref="25658990"/>
    <nd ref="25658991"/>
    <nd ref="25658992"/>
    <nd ref="25658993"/>
    <tag k="highway" v="residential"/>
    <tag k="name" v="Karlova"/>
    <tag k="name:ru" v="улица Карла"/>
    <tag k="oneway" v="yes"/>
    <tag k="source:name" v="nameit/uir-adr"/>
    <tag k="tourism" v="attraction"/>
  </way>
  <way id="4340682" version="8" timestamp="2011-02-28T20:49:02Z" uid="42429" user="FK270673" changeset="7424353">
    <nd ref="472661927"/>
    <nd ref="472661930"/>
    <nd ref="25658989"/>
    <nd ref="300519458"/>
    <nd ref="300519459"/>
    <nd ref="25658990"/>
    <nd ref="25658991"/>
    <nd ref="25658992"/>
    <nd ref="25658993"/>
    <tag k="highway" v="residential"/>
    <tag k="name" v="Karlova"/>
    <tag k="name:de" v="Karlsgasse"/>
    <tag k="name:ru" v="улица Карла"/>
    <tag k="oneway" v="yes"/>
    <tag k="source:name" v="nameit/uir-adr"/>
    <tag k="tourism" v="attraction"/>
  </way>
  <way id="4340682" version="9" timestamp="2011-04-19T17:03:37Z" uid="17615" user="Petr Dlouhý" changeset="7908391">
    <nd ref="472661927"/>
    <nd ref="472661930"/>
    <nd ref="25658989"/>
    <nd ref="300519458"/>
    <nd ref="300519459"/>
    <nd ref="25658990"/>
    <nd ref="25658991"/>
    <tag k="highway" v="residential"/>
    <tag k="name" v="Karlova"/>
    <tag k="name:de" v="Karlsgasse"/>
    <tag k="name:ru" v="улица Карла"/>
    <tag k="oneway" v="yes"/>
    <tag k="source:name" v="nameit/uir-adr"/>
    <tag k="tourism" v="attraction"/>
  </way>
  <way id="4340682" version="10" timestamp="2011-09-04T09:33:20Z" uid="17615" user="Petr Dlouhý" changeset="9206957">
    <nd ref="25658991"/>
    <nd ref="25658990"/>
    <nd ref="300519459"/>
    <nd ref="300519458"/>
    <nd ref="25658989"/>
    <nd ref="472661930"/>
    <nd ref="472661927"/>
    <tag k="highway" v="residential"/>
    <tag k="motor_vehicle" v="destination"/>
    <tag k="name" v="Karlova"/>
    <tag k="name:de" v="Karlsgasse"/>
    <tag k="name:ru" v="улица Карла"/>
    <tag k="oneway" v="yes"/>
    <tag k="source:name" v="nameit/uir-adr"/>
    <tag k="surface" v="cobblestone"/>
    <tag k="tourism" v="attraction"/>
  </way>
  <way id="4340684" version="1" timestamp="2007-05-24T21:29:26Z" uid="1066" user="pavel" changeset="65675">
    <nd ref="25657261"/>
    <nd ref="26423670"/>
    <nd ref="26423671"/>
    <nd ref="25657071"/>
    <tag k="created_by" v="JOSM"/>
    <tag k="highway" v="residential"/>
    <tag k="name" v="Martinska"/>
  </way>
  <way id="4340684" version="2" timestamp="2008-01-13T12:43:15Z" uid="3516" user="BiIbo" changeset="624561">
    <nd ref="25657261"/>
    <nd ref="26423670"/>
    <nd ref="26423671"/>
    <nd ref="25657071"/>
    <tag k="created_by" v="JOSM"/>
    <tag k="highway" v="residential"/>
    <tag k="name" v="Martinská"/>
  </way>
  <way id="4340684" version="3" timestamp="2008-01-23T23:58:29Z" uid="3516" user="BiIbo" changeset="688611">
    <nd ref="25657261"/>
    <nd ref="26423670"/>
    <nd ref="26423671"/>
    <nd ref="25657071"/>
    <tag k="highway" v="residential"/>
    <tag k="name" v="Martinská"/>
  </way>
  <way id="4340684" version="4" timestamp="2008-02-08T02:16:02Z" uid="3516" user="BiIbo" changeset="70938">
    <nd ref="25657261"/>
    <nd ref="26423670"/>
    <nd ref="26423671"/>
    <nd ref="25657071"/>
    <tag k="highway" v="residential"/>
    <tag k="name" v="Martinská"/>
  </way>
  <way id="4340684" version="5" timestamp="2008-09-22T14:45:07Z" uid="17615" user="Petr Dlouhý" changeset="680089">
    <nd ref="25657261"/>
    <nd ref="26423670"/>
    <nd ref="26423671"/>
    <nd ref="25657071"/>
    <tag k="highway" v="residential"/>
    <tag k="name" v="Martinská"/>
    <tag k="oneway" v="yes"/>
  </way>
  <way id="4340684" version="6" timestamp="2008-11-29T14:44:34Z" uid="3516" user="BiIbo" changeset="809085">
    <nd ref="25657261"/>
    <nd ref="26423670"/>
    <nd ref="315520817"/>
    <nd ref="26423671"/>
    <nd ref="25657071"/>
    <tag k="highway" v="residential"/>
    <tag k="name" v="Martinská"/>
    <tag k="oneway" v="yes"/>
  </way>
  <way id="4340684" version="7" timestamp="2008-11-29T14:46:54Z" uid="3516" user="BiIbo" changeset="809085">
    <nd ref="25657261"/>
    <nd ref="26423670"/>
    <nd ref="315520817"/>
    <nd ref="26423671"/>
    <nd ref="315521183"/>
    <nd ref="25657071"/>
    <tag k="highway" v="residential"/>
    <tag k="name" v="Martinská"/>
    <tag k="oneway" v="yes"/>
  </way>
  <way id="4340684" version="8" timestamp="2009-01-18T23:29:20Z" uid="3516" user="BiIbo" changeset="809579">
    <nd ref="25657261"/>
    <nd ref="26423670"/>
    <nd ref="315520817"/>
    <nd ref="26423671"/>
    <nd ref="333347566"/>
    <nd ref="315521183"/>
    <nd ref="25657071"/>
    <tag k="highway" v="residential"/>
    <tag k="name" v="Martinská"/>
    <tag k="oneway" v="yes"/>
  </way>
  <way id="4340684" version="9" timestamp="2011-03-02T00:37:02Z" uid="42429" user="FK270673" changeset="7434507">
    <nd ref="25657261"/>
    <nd ref="26423670"/>
    <nd ref="315520817"/>
    <nd ref="26423671"/>
    <nd ref="333347566"/>
    <nd ref="315521183"/>
    <nd ref="25657071"/>
    <tag k="highway" v="residential"/>
    <tag k="name" v="Martinská"/>
    <tag k="name:de" v="Martinsgasse"/>
    <tag k="oneway" v="yes"/>
  </way>
  <way id="4340685" version="2" timestamp="2008-08-31T23:34:10Z" uid="1066" user="pavel" changeset="485373">
    <nd ref="26424072"/>
    <nd ref="26423672"/>
    <nd ref="26423673"/>
    <tag k="autoname:source" v="nameit/uir-adr"/>
    <tag k="created_by" v="JOSM"/>
    <tag k="highway" v="residential"/>
    <tag k="name" v="Řetězová"/>
  </way>
  <way id="4340685" version="3" timestamp="2008-09-22T14:45:07Z" uid="17615" user="Petr Dlouhý" changeset="680089">
    <nd ref="26424072"/>
    <nd ref="26423672"/>
    <nd ref="26423673"/>
    <tag k="autoname:source" v="nameit/uir-adr"/>
    <tag k="created_by" v="JOSM"/>
    <tag k="highway" v="residential"/>
    <tag k="name" v="Řetězová"/>
    <tag k="source" v="cuzk:km"/>
  </way>
  <way id="4340685" version="4" timestamp="2009-03-12T16:52:03Z" uid="3516" user="BiIbo" changeset="794616">
    <nd ref="26424072"/>
    <nd ref="26423672"/>
    <nd ref="26423673"/>
    <tag k="highway" v="residential"/>
    <tag k="name" v="Řetězová"/>
    <tag k="source" v="cuzk:km"/>
    <tag k="source:name" v="nameit/uir-adr"/>
  </way>
  <way id="4340685" version="5" timestamp="2011-03-01T18:03:40Z" uid="42429" user="FK270673" changeset="7431306">
    <nd ref="26424072"/>
    <nd ref="26423672"/>
    <nd ref="26423673"/>
    <tag k="highway" v="residential"/>
    <tag k="name" v="Řetězová"/>
    <tag k="name:de" v="Kettengasse"/>
    <tag k="source" v="cuzk:km"/>
    <tag k="source:name" v="nameit/uir-adr"/>
  </way>
  <way id="4340685" version="6" timestamp="2011-08-27T11:02:23Z" uid="17615" user="Petr Dlouhý" changeset="9136743">
    <nd ref="26424072"/>
    <nd ref="26423672"/>
    <nd ref="26423673"/>
    <tag k="highway" v="residential"/>
    <tag k="name" v="Řetězová"/>
    <tag k="name:de" v="Kettengasse"/>
    <tag k="source" v="cuzk:km"/>
    <tag k="source:name" v="nameit/uir-adr"/>
    <tag k="surface" v="cobblestone"/>
  </way>
  <way id="4340712" version="6" timestamp="2009-08-26T08:46:30Z" uid="36809" user="pfoten_weg_!_" changeset="2264896">
    <nd ref="21676707"/>
    <nd ref="161605543"/>
    <tag k="electrified" v="contact_line"/>
    <tag k="name" v="S6"/>
    <tag k="railway" v="rail"/>
  </way>
  <way id="4340712" version="7" timestamp="2010-01-20T20:37:16Z" uid="83876" user="BurnyB" changeset="3670175">
    <nd ref="21676707"/>
    <nd ref="161605543"/>
    <tag k="electrified" v="contact_line"/>
    <tag k="frequency" v="16,7"/>
    <tag k="name" v="S6"/>
    <tag k="railway" v="rail"/>
    <tag k="voltage" v="15000"/>
  </way>
  <way id="4340712" version="8" timestamp="2010-04-03T18:08:19Z" uid="9176" user="Maarten Deen" changeset="4315667">
    <nd ref="21676707"/>
    <nd ref="161605543"/>
    <tag k="electrified" v="contact_line"/>
    <tag k="frequency" v="16.7"/>
    <tag k="name" v="S6"/>
    <tag k="railway" v="rail"/>
    <tag k="voltage" v="15000"/>
  </way>
  <way id="4340712" version="9" timestamp="2010-04-03T18:16:46Z" uid="9176" user="Maarten Deen" changeset="4315667">
    <nd ref="21676707"/>
    <nd ref="161605543"/>
    <tag k="electrified" v="contact_line"/>
    <tag k="frequency" v="16.7"/>
    <tag k="name" v="S6"/>
    <tag k="railway" v="rail"/>
    <tag k="voltage" v="15000"/>
  </way>
  <way id="4340712" version="10" timestamp="2010-04-03T18:26:06Z" uid="9176" user="Maarten Deen" changeset="4315667">
    <nd ref="21676707"/>
    <nd ref="161605543"/>
    <tag k="electrified" v="contact_line"/>
    <tag k="frequency" v="16.7"/>
    <tag k="name" v="S6"/>
    <tag k="railway" v="rail"/>
    <tag k="voltage" v="15000"/>
  </way>
  <way id="4340712" version="11" timestamp="2010-04-03T18:35:08Z" uid="9176" user="Maarten Deen" changeset="4315667">
    <nd ref="21676707"/>
    <nd ref="161605543"/>
    <tag k="electrified" v="contact_line"/>
    <tag k="frequency" v="16.7"/>
    <tag k="name" v="S6"/>
    <tag k="railway" v="rail"/>
    <tag k="voltage" v="15000"/>
  </way>
  <way id="4340712" version="12" timestamp="2011-11-04T08:37:58Z" uid="42429" user="FK270673" changeset="9736510">
    <nd ref="21676707"/>
    <nd ref="161605543"/>
    <tag k="electrified" v="contact_line"/>
    <tag k="frequency" v="16.7"/>
    <tag k="gauge" v="1435"/>
    <tag k="name" v="S6"/>
    <tag k="railway" v="rail"/>
    <tag k="voltage" v="15000"/>
  </way>
  <way id="4340727" version="1" timestamp="2007-05-24T21:29:14Z" uid="1066" user="pavel" changeset="65675">
    <nd ref="25657120"/>
    <nd ref="25657071"/>
    <nd ref="26424107"/>
    <nd ref="26424108"/>
    <tag k="created_by" v="JOSM"/>
    <tag k="highway" v="residential"/>
    <tag k="name" v="Skorepka"/>
  </way>
  <way id="4340727" version="2" timestamp="2008-08-22T12:17:53Z" uid="11629" user="Stanislav Brabec" changeset="366141">
    <nd ref="25657120"/>
    <nd ref="25657071"/>
    <nd ref="26424107"/>
    <nd ref="26424108"/>
    <tag k="created_by" v="Potlatch 0.10b"/>
    <tag k="highway" v="residential"/>
    <tag k="name" v="Skořepka"/>
  </way>
  <way id="4340727" version="3" timestamp="2008-09-22T14:45:03Z" uid="17615" user="Petr Dlouhý" changeset="680089">
    <nd ref="26424108"/>
    <nd ref="26424107"/>
    <nd ref="25657071"/>
    <tag k="created_by" v="Potlatch 0.10b"/>
    <tag k="highway" v="residential"/>
    <tag k="name" v="Skořepka"/>
  </way>
  <way id="4340727" version="4" timestamp="2008-11-29T14:49:51Z" uid="3516" user="BiIbo" changeset="809085"/>
  <way id="4340759" version="1" timestamp="2007-03-08T22:27:05Z" uid="1066" user="pavel" changeset="231899">
    <nd ref="26395548"/>
    <nd ref="26395559"/>
    <nd ref="26395560"/>
    <nd ref="26395561"/>
    <nd ref="26395564"/>
    <nd ref="26395565"/>
    <nd ref="26395566"/>
    <nd ref="26395579"/>
    <nd ref="26395580"/>
    <nd ref="26395581"/>
    <nd ref="26395981"/>
    <nd ref="26396000"/>
    <nd ref="26396003"/>
    <tag k="created_by" v="JOSM"/>
    <tag k="highway" v="primary"/>
    <tag k="name" v="Francouzska"/>
  </way>
  <way id="4340759" version="2" timestamp="2007-10-16T00:21:35Z" uid="3516" user="BiIbo" changeset="195234">
    <nd ref="26395548"/>
    <nd ref="26395559"/>
    <nd ref="26395560"/>
    <nd ref="26395561"/>
    <nd ref="26395564"/>
    <nd ref="26395565"/>
    <nd ref="26395566"/>
    <nd ref="26395579"/>
    <nd ref="26395580"/>
    <nd ref="26395581"/>
    <nd ref="26395981"/>
    <nd ref="26396000"/>
    <nd ref="26396003"/>
    <tag k="created_by" v="JOSM"/>
    <tag k="highway" v="primary"/>
    <tag k="name" v="Francouzská"/>
    <tag k="railway" v="tram"/>
  </way>
  <way id="4340759" version="3" timestamp="2007-10-17T00:48:49Z" uid="3516" user="BiIbo" changeset="219852">
    <nd ref="26395548"/>
    <nd ref="26395559"/>
    <nd ref="26395560"/>
    <nd ref="26395561"/>
    <nd ref="26395564"/>
    <nd ref="26395565"/>
    <nd ref="26395566"/>
    <nd ref="26395579"/>
    <nd ref="26395580"/>
    <nd ref="26395581"/>
    <nd ref="26395981"/>
    <nd ref="26396000"/>
    <nd ref="26396003"/>
    <tag k="created_by" v="JOSM"/>
    <tag k="highway" v="secondary"/>
    <tag k="name" v="Francouzská"/>
    <tag k="railway" v="tram"/>
  </way>
  <way id="4340759" version="4" timestamp="2008-01-24T00:03:16Z" uid="3516" user="BiIbo" changeset="688611">
    <nd ref="26395548"/>
    <nd ref="26395559"/>
    <nd ref="26395560"/>
    <nd ref="26395561"/>
    <nd ref="26395564"/>
    <nd ref="26395565"/>
    <nd ref="26395566"/>
    <nd ref="26395579"/>
    <nd ref="26395580"/>
    <nd ref="26395581"/>
    <nd ref="26395981"/>
    <nd ref="26396000"/>
    <nd ref="26396003"/>
    <tag k="highway" v="secondary"/>
    <tag k="name" v="Francouzská"/>
    <tag k="railway" v="tram"/>
  </way>
  <way id="4340759" version="5" timestamp="2008-01-29T20:27:38Z" uid="3516" user="BiIbo" changeset="709929">
    <nd ref="26395548"/>
    <nd ref="26395559"/>
    <nd ref="26395560"/>
    <nd ref="26395561"/>
    <nd ref="26395564"/>
    <nd ref="26395565"/>
    <nd ref="26395566"/>
    <nd ref="26395579"/>
    <nd ref="26395580"/>
    <nd ref="26395581"/>
    <nd ref="26395981"/>
    <nd ref="26396000"/>
    <nd ref="26396003"/>
    <tag k="highway" v="tertiary"/>
    <tag k="name" v="Francouzská"/>
    <tag k="railway" v="tram"/>
  </way>
  <way id="4340759" version="6" timestamp="2008-06-19T06:16:25Z" uid="8612" user="Kubajz" changeset="223492">
    <nd ref="26395548"/>
    <nd ref="26395559"/>
    <nd ref="26395560"/>
    <nd ref="26395561"/>
    <nd ref="26395564"/>
    <nd ref="26395565"/>
    <nd ref="26395566"/>
    <nd ref="26395579"/>
    <nd ref="26395580"/>
    <nd ref="26395581"/>
    <nd ref="26395981"/>
    <nd ref="26396000"/>
    <nd ref="26396003"/>
    <tag k="created_by" v="Potlatch 0.9c"/>
    <tag k="highway" v="tertiary"/>
    <tag k="name" v="Francouzská"/>
    <tag k="railway" v="tram"/>
  </way>
  <way id="4340759" version="7" timestamp="2008-08-22T15:05:45Z" uid="8007" user="vrabcak" changeset="367854">
    <nd ref="26395548"/>
    <nd ref="26395559"/>
    <nd ref="26395560"/>
    <nd ref="26395561"/>
    <nd ref="290174991"/>
    <nd ref="26395564"/>
    <nd ref="26395565"/>
    <nd ref="26395566"/>
    <nd ref="26395579"/>
    <nd ref="26395580"/>
    <nd ref="26395581"/>
    <nd ref="26395981"/>
    <nd ref="26396000"/>
    <nd ref="290174990"/>
    <nd ref="26396003"/>
    <tag k="created_by" v="Potlatch 0.9c"/>
    <tag k="highway" v="tertiary"/>
    <tag k="name" v="Francouzská"/>
    <tag k="railway" v="tram"/>
  </way>
  <way id="4340759" version="8" timestamp="2008-11-09T17:29:57Z" uid="10345" user="Mormegil" changeset="721769">
    <nd ref="26395548"/>
    <nd ref="26395559"/>
    <nd ref="26395560"/>
    <nd ref="26395561"/>
    <nd ref="290174991"/>
    <nd ref="26395564"/>
    <nd ref="26395565"/>
    <nd ref="310829101"/>
    <nd ref="26395566"/>
    <nd ref="26395579"/>
    <nd ref="26395580"/>
    <nd ref="26395581"/>
    <nd ref="26395981"/>
    <nd ref="26396000"/>
    <nd ref="290174990"/>
    <nd ref="26396003"/>
    <tag k="created_by" v="Potlatch 0.9c"/>
    <tag k="highway" v="tertiary"/>
    <tag k="name" v="Francouzská"/>
    <tag k="railway" v="tram"/>
  </way>
  <way id="4340759" version="9" timestamp="2009-03-26T21:54:02Z" uid="8007" user="vrabcak" changeset="861311">
    <nd ref="26395548"/>
    <nd ref="26395559"/>
    <tag k="highway" v="tertiary"/>
    <tag k="name" v="Francouzská"/>
    <tag k="railway" v="tram"/>
  </way>
  <way id="4340759" version="10" timestamp="2009-04-07T10:07:15Z" uid="3516" user="BiIbo" changeset="289719">
    <nd ref="26395548"/>
    <nd ref="370532345"/>
    <nd ref="26395559"/>
    <tag k="highway" v="tertiary"/>
    <tag k="name" v="Francouzská"/>
    <tag k="railway" v="tram"/>
  </way>
  <way id="4340759" version="11" timestamp="2009-11-07T06:03:31Z" uid="22108" user="afonin" changeset="3053507">
    <nd ref="26395548"/>
    <nd ref="370532345"/>
    <nd ref="26395559"/>
    <tag k="highway" v="tertiary"/>
    <tag k="name" v="Francouzská"/>
    <tag k="name:ru" v="Французская улица"/>
    <tag k="railway" v="tram"/>
  </way>
  <way id="4340759" version="12" timestamp="2011-03-05T07:29:43Z" uid="17615" user="Petr Dlouhý" changeset="7460447">
    <nd ref="26395548"/>
    <nd ref="1186903129"/>
    <nd ref="1186903088"/>
    <nd ref="370532345"/>
    <nd ref="1186903100"/>
    <nd ref="26395559"/>
    <tag k="highway" v="tertiary"/>
    <tag k="name" v="Francouzská"/>
    <tag k="name:ru" v="Французская улица"/>
    <tag k="railway" v="tram"/>
  </way>
  <way id="4340759" version="13" timestamp="2011-03-19T13:22:43Z" uid="3516" user="BiIbo" changeset="7604194">
    <nd ref="26395548"/>
    <nd ref="1186903129"/>
    <nd ref="1186903088"/>
    <nd ref="370532345"/>
    <nd ref="1208867203"/>
    <nd ref="1186903100"/>
    <nd ref="26395559"/>
    <tag k="highway" v="tertiary"/>
    <tag k="name" v="Francouzská"/>
    <tag k="name:ru" v="Французская улица"/>
    <tag k="railway" v="tram"/>
  </way>
  <way id="4340759" version="14" timestamp="2011-12-16T22:08:17Z" uid="527259" user="Vratislav Filler" changeset="10134675">
    <nd ref="26395548"/>
    <nd ref="1186903129"/>
    <nd ref="1186903088"/>
    <nd ref="370532345"/>
    <nd ref="1186903100"/>
    <nd ref="26395559"/>
    <tag k="highway" v="tertiary"/>
    <tag k="name" v="Francouzská"/>
    <tag k="name:ru" v="Французская улица"/>
    <tag k="railway" v="tram"/>
  </way>
  <way id="4340760" version="1" timestamp="2007-03-08T22:27:13Z" uid="1066" user="pavel" changeset="231899">
    <nd ref="8810003"/>
    <nd ref="8810004"/>
    <nd ref="26395582"/>
    <nd ref="26395559"/>
    <tag k="created_by" v="JOSM"/>
    <tag k="highway" v="residential"/>
  </way>
  <way id="4340760" version="2" timestamp="2008-09-04T23:25:24Z" uid="1066" user="pavel" changeset="533817">
    <nd ref="8810003"/>
    <nd ref="8810004"/>
    <nd ref="26395582"/>
    <nd ref="26395559"/>
    <tag k="created_by" v="JOSM"/>
    <tag k="highway" v="residential"/>
    <tag k="name" v="Uruguayská"/>
    <tag k="name:source" v="nameit/uir-adr"/>
  </way>
  <way id="4340760" version="3" timestamp="2009-02-26T22:55:21Z" uid="3516" user="BiIbo" changeset="681593">
    <nd ref="8810003"/>
    <nd ref="8810004"/>
    <nd ref="26395582"/>
    <nd ref="353110519"/>
    <nd ref="26395559"/>
    <tag k="created_by" v="JOSM"/>
    <tag k="highway" v="residential"/>
    <tag k="name" v="Uruguayská"/>
    <tag k="name:source" v="nameit/uir-adr"/>
  </way>
  <way id="4340760" version="4" timestamp="2009-03-02T20:22:11Z" uid="3516" user="BiIbo" changeset="724671">
    <nd ref="8810003"/>
    <nd ref="8810004"/>
    <nd ref="26395582"/>
    <nd ref="353110519"/>
    <nd ref="26395559"/>
    <tag k="created_by" v="JOSM"/>
    <tag k="highway" v="residential"/>
    <tag k="name" v="Uruguayská"/>
    <tag k="source:name" v="nameit/uir-adr"/>
  </way>
  <way id="4340760" version="5" timestamp="2009-10-17T19:24:52Z" uid="3516" user="BiIbo" changeset="2875356">
    <nd ref="26395559"/>
    <nd ref="353110519"/>
    <nd ref="26395582"/>
    <nd ref="8810004"/>
    <nd ref="8810003"/>
    <tag k="highway" v="residential"/>
    <tag k="name" v="Uruguayská"/>
    <tag k="oneway" v="yes"/>
    <tag k="source:name" v="nameit/uir-adr"/>
  </way>
  <way id="4340760" version="6" timestamp="2009-11-07T06:03:58Z" uid="22108" user="afonin" changeset="3053507">
    <nd ref="26395559"/>
    <nd ref="353110519"/>
    <nd ref="26395582"/>
    <nd ref="8810004"/>
    <nd ref="8810003"/>
    <tag k="highway" v="residential"/>
    <tag k="name" v="Uruguayská"/>
    <tag k="name:ru" v="Уругвайская улица"/>
    <tag k="oneway" v="yes"/>
    <tag k="source:name" v="nameit/uir-adr"/>
  </way>
  <way id="4340760" version="7" timestamp="2011-03-05T07:29:48Z" uid="17615" user="Petr Dlouhý" changeset="7460447">
    <nd ref="26395559"/>
    <nd ref="1186903060"/>
    <nd ref="353110519"/>
    <nd ref="26395582"/>
    <nd ref="8810004"/>
    <nd ref="8810003"/>
    <tag k="highway" v="residential"/>
    <tag k="name" v="Uruguayská"/>
    <tag k="name:ru" v="Уругвайская улица"/>
    <tag k="oneway" v="yes"/>
    <tag k="source:name" v="nameit/uir-adr"/>
  </way>
  <way id="4340760" version="8" timestamp="2011-09-01T08:15:34Z" uid="17615" user="Petr Dlouhý" changeset="9182369">
    <nd ref="26395559"/>
    <nd ref="1186903060"/>
    <nd ref="353110519"/>
    <nd ref="26395582"/>
    <nd ref="8810004"/>
    <nd ref="1419888523"/>
    <nd ref="8810003"/>
    <tag k="highway" v="residential"/>
    <tag k="name" v="Uruguayská"/>
    <tag k="name:ru" v="Уругвайская улица"/>
    <tag k="oneway" v="yes"/>
    <tag k="source:name" v="nameit/uir-adr"/>
  </way>
  <way id="4340761" version="4" timestamp="2009-09-19T21:30:58Z" uid="1066" user="pavel" changeset="2539361">
    <nd ref="26395583"/>
    <nd ref="25936161"/>
    <nd ref="25936160"/>
    <nd ref="313710852"/>
    <tag k="highway" v="residential"/>
    <tag k="name" v="Záhřebská"/>
    <tag k="oneway" v="true"/>
  </way>
  <way id="4340761" version="5" timestamp="2009-11-07T06:04:44Z" uid="22108" user="afonin" changeset="3053507">
    <nd ref="26395583"/>
    <nd ref="25936161"/>
    <nd ref="25936160"/>
    <nd ref="313710852"/>
    <tag k="highway" v="residential"/>
    <tag k="name:ru" v="Загребская улица"/>
    <tag k="oneway" v="true"/>
  </way>
  <way id="4340761" version="6" timestamp="2009-11-11T00:21:48Z" uid="3516" user="BiIbo" changeset="3086720">
    <nd ref="26395583"/>
    <nd ref="25936161"/>
    <nd ref="25936160"/>
    <nd ref="313710852"/>
    <tag k="highway" v="residential"/>
    <tag k="name:ru" v="Загребская улица"/>
    <tag k="oneway" v="yes"/>
  </way>
  <way id="4340761" version="7" timestamp="2010-01-28T20:14:04Z" uid="138613" user="kubiik" changeset="3738536">
    <nd ref="26395583"/>
    <nd ref="25936161"/>
    <nd ref="25936160"/>
    <nd ref="313710852"/>
    <tag k="highway" v="residential"/>
    <tag k="name" v="Záhřebská"/>
    <tag k="name:ru" v="Загребская улица"/>
    <tag k="oneway" v="yes"/>
  </way>
  <way id="4340761" version="8" timestamp="2011-03-01T21:07:36Z" uid="42429" user="FK270673" changeset="7433103">
    <nd ref="26395583"/>
    <nd ref="25936161"/>
    <nd ref="25936160"/>
    <nd ref="313710852"/>
    <tag k="highway" v="residential"/>
    <tag k="name" v="Záhřebská"/>
    <tag k="name:de" v="Zagreber Straße"/>
    <tag k="name:ru" v="Загребская улица"/>
    <tag k="oneway" v="yes"/>
  </way>
  <way id="4340761" version="9" timestamp="2011-03-19T13:03:46Z" uid="3516" user="BiIbo" changeset="7604194">
    <nd ref="26395583"/>
    <nd ref="1208829330"/>
    <nd ref="25936161"/>
    <nd ref="25936160"/>
    <nd ref="313710852"/>
    <tag k="highway" v="residential"/>
    <tag k="name" v="Záhřebská"/>
    <tag k="name:de" v="Zagreber Straße"/>
    <tag k="name:ru" v="Загребская улица"/>
    <tag k="oneway" v="yes"/>
  </way>
  <way id="4340761" version="10" timestamp="2011-08-15T15:28:32Z" uid="17615" user="Petr Dlouhý" changeset="9028158">
    <nd ref="26395583"/>
    <nd ref="1208829330"/>
    <nd ref="25936161"/>
    <nd ref="25936160"/>
    <nd ref="313710852"/>
    <tag k="highway" v="residential"/>
    <tag k="name" v="Záhřebská"/>
    <tag k="name:de" v="Zagreber Straße"/>
    <tag k="name:ru" v="Загребская улица"/>
    <tag k="oneway" v="yes"/>
    <tag k="surface" v="cobblestone"/>
  </way>
  <way id="4340761" version="11" timestamp="2011-09-16T12:22:25Z" uid="17615" user="Petr Dlouhý" changeset="9315694">
    <nd ref="26395583"/>
    <nd ref="1208829330"/>
    <nd ref="1434219895"/>
    <nd ref="25936161"/>
    <nd ref="1434219891"/>
    <nd ref="25936160"/>
    <nd ref="313710852"/>
    <tag k="highway" v="residential"/>
    <tag k="name" v="Záhřebská"/>
    <tag k="name:de" v="Zagreber Straße"/>
    <tag k="name:ru" v="Загребская улица"/>
    <tag k="oneway" v="yes"/>
    <tag k="surface" v="cobblestone"/>
  </way>
  <way id="4340761" version="12" timestamp="2011-09-29T20:01:30Z" uid="527259" user="Vratislav Filler" changeset="9430400">
    <nd ref="26395583"/>
    <nd ref="1208829330"/>
    <nd ref="1434219895"/>
    <nd ref="25936161"/>
    <nd ref="1434219891"/>
    <nd ref="25936160"/>
    <tag k="highway" v="residential"/>
    <tag k="name" v="Záhřebská"/>
    <tag k="name:de" v="Zagreber Straße"/>
    <tag k="name:ru" v="Загребская улица"/>
    <tag k="oneway" v="yes"/>
    <tag k="surface" v="cobblestone"/>
  </way>
  <way id="4340762" version="1" timestamp="2007-03-08T22:27:33Z" uid="1066" user="pavel" changeset="231899">
    <nd ref="25936165"/>
    <nd ref="25936164"/>
    <nd ref="25936163"/>
    <nd ref="25936162"/>
    <nd ref="26395588"/>
    <nd ref="26395589"/>
    <nd ref="26395564"/>
    <tag k="created_by" v="JOSM"/>
    <tag k="highway" v="residential"/>
    <tag k="name" v="Jana Masaryka"/>
  </way>
  <way id="4340762" version="2" timestamp="2008-10-30T21:39:19Z" uid="10345" user="Mormegil" changeset="632538">
    <nd ref="25936165"/>
    <nd ref="25936164"/>
    <nd ref="25936163"/>
    <nd ref="308835450"/>
    <nd ref="25936162"/>
    <nd ref="26395588"/>
    <nd ref="26395589"/>
    <nd ref="26395564"/>
    <tag k="created_by" v="JOSM"/>
    <tag k="highway" v="residential"/>
    <tag k="name" v="Jana Masaryka"/>
  </way>
  <way id="4340762" version="3" timestamp="2008-10-30T22:44:15Z" uid="10345" user="Mormegil" changeset="632538">
    <nd ref="25936165"/>
    <nd ref="25936164"/>
    <tag k="created_by" v="JOSM"/>
    <tag k="highway" v="residential"/>
    <tag k="name" v="Jana Masaryka"/>
  </way>
  <way id="4340762" version="4" timestamp="2009-11-07T06:06:45Z" uid="22108" user="afonin" changeset="3053507">
    <nd ref="25936165"/>
    <nd ref="25936164"/>
    <tag k="highway" v="residential"/>
    <tag k="name" v="Jana Masaryka"/>
    <tag k="name:ru" v="улица Яна Масарика"/>
  </way>
  <way id="4340762" version="5" timestamp="2011-09-16T12:22:24Z" uid="17615" user="Petr Dlouhý" changeset="9315694">
    <nd ref="25936165"/>
    <nd ref="25936164"/>
    <tag k="highway" v="residential"/>
    <tag k="name" v="Jana Masaryka"/>
    <tag k="name:ru" v="улица Яна Масарика"/>
    <tag k="oneway" v="yes"/>
    <tag k="surface" v="cobblestone"/>
  </way>
  <way id="4340793" version="1" timestamp="2007-05-24T21:29:35Z" uid="1066" user="pavel" changeset="65675">
    <nd ref="26396003"/>
    <nd ref="26395996"/>
    <nd ref="26424518"/>
    <nd ref="26424517"/>
    <nd ref="26424519"/>
    <nd ref="26424520"/>
    <nd ref="26424521"/>
    <nd ref="26424530"/>
    <nd ref="26424534"/>
    <nd ref="26424535"/>
    <nd ref="26424536"/>
    <nd ref="26424555"/>
    <nd ref="26424558"/>
    <nd ref="26424618"/>
    <nd ref="21311934"/>
    <nd ref="21311933"/>
    <nd ref="21311932"/>
    <nd ref="26424701"/>
    <nd ref="26424702"/>
    <nd ref="26424624"/>
    <nd ref="26424623"/>
    <tag k="created_by" v="YahooApplet 1.0"/>
    <tag k="highway" v="primary"/>
    <tag k="name" v="Moskevska"/>
  </way>
  <way id="4340793" version="2" timestamp="2007-10-16T00:21:35Z" uid="3516" user="BiIbo" changeset="195234">
    <nd ref="26396003"/>
    <nd ref="26395996"/>
    <nd ref="26424518"/>
    <nd ref="26424517"/>
    <nd ref="26424519"/>
    <nd ref="26424520"/>
    <nd ref="26424521"/>
    <nd ref="26424530"/>
    <nd ref="26424534"/>
    <nd ref="26424535"/>
    <nd ref="26424536"/>
    <nd ref="26424555"/>
    <nd ref="26424558"/>
    <nd ref="26424618"/>
    <nd ref="21311934"/>
    <nd ref="21311933"/>
    <nd ref="21311932"/>
    <tag k="created_by" v="YahooApplet 1.0"/>
    <tag k="highway" v="primary"/>
    <tag k="name" v="Moskevská"/>
    <tag k="railway" v="tram"/>
  </way>
  <way id="4340793" version="3" timestamp="2007-10-17T00:48:52Z" uid="3516" user="BiIbo" changeset="219852">
    <nd ref="26396003"/>
    <nd ref="26395996"/>
    <nd ref="26424518"/>
    <nd ref="26424517"/>
    <nd ref="26424519"/>
    <nd ref="26424520"/>
    <nd ref="26424521"/>
    <nd ref="26424530"/>
    <nd ref="26424534"/>
    <nd ref="26424535"/>
    <nd ref="26424536"/>
    <nd ref="26424555"/>
    <nd ref="26424558"/>
    <nd ref="26424618"/>
    <nd ref="21311934"/>
    <nd ref="21311933"/>
    <nd ref="21311932"/>
    <tag k="created_by" v="YahooApplet 1.0"/>
    <tag k="highway" v="secondary"/>
    <tag k="name" v="Moskevská"/>
    <tag k="railway" v="tram"/>
  </way>
  <way id="4340793" version="4" timestamp="2008-01-28T23:10:26Z" uid="8612" user="Kubajz" changeset="708185"/>
  <way id="4340845" version="18" timestamp="2011-05-16T17:14:52Z" uid="23543" user="jkjk" changeset="8164337">
    <nd ref="26424621"/>
    <nd ref="1239715109"/>
    <nd ref="529111205"/>
    <nd ref="1239715107"/>
    <nd ref="26424623"/>
    <nd ref="26424749"/>
    <nd ref="1239715130"/>
    <nd ref="529111210"/>
    <nd ref="1156345436"/>
    <nd ref="473745083"/>
    <nd ref="25972863"/>
    <nd ref="25972861"/>
    <nd ref="445885809"/>
    <nd ref="473705658"/>
    <nd ref="445886181"/>
    <tag k="highway" v="tertiary"/>
    <tag k="name" v="Vršovická"/>
    <tag k="name:ru" v="Вршовицкая улица"/>
    <tag k="oneway" v="yes"/>
  </way>
  <way id="4340845" version="19" timestamp="2011-08-15T13:41:03Z" uid="17615" user="Petr Dlouhý" changeset="9027194">
    <nd ref="26424621"/>
    <nd ref="1239715109"/>
    <nd ref="1399814182"/>
    <tag k="cycleway:right" v="shared_lane"/>
    <tag k="highway" v="tertiary"/>
    <tag k="name" v="Vršovická"/>
    <tag k="name:ru" v="Вршовицкая улица"/>
    <tag k="oneway" v="yes"/>
  </way>
  <way id="4340845" version="20" timestamp="2011-09-22T12:17:17Z" uid="501441" user="washeck" changeset="9368085">
    <nd ref="26424621"/>
    <nd ref="1239715109"/>
    <nd ref="1399814182"/>
    <nd ref="529111205"/>
    <nd ref="1239715107"/>
    <nd ref="26424623"/>
    <nd ref="26424749"/>
    <nd ref="1239715130"/>
    <tag k="cycleway:right" v="shared_lane"/>
    <tag k="highway" v="tertiary"/>
    <tag k="name" v="Vršovická"/>
    <tag k="name:ru" v="Вршовицкая улица"/>
    <tag k="oneway" v="yes"/>
  </way>
  <way id="4340845" version="21" timestamp="2011-09-30T12:09:25Z" uid="527259" user="Vratislav Filler" changeset="9434783">
    <nd ref="26424621"/>
    <nd ref="1239715109"/>
    <nd ref="1399814182"/>
    <nd ref="529111205"/>
    <nd ref="1239715107"/>
    <nd ref="26424623"/>
    <nd ref="26424749"/>
    <nd ref="1239715130"/>
    <tag k="cycleway:right" v="shared_lane"/>
    <tag k="highway" v="secondary"/>
    <tag k="name" v="Vršovická"/>
    <tag k="name:ru" v="Вршовицкая улица"/>
    <tag k="oneway" v="yes"/>
  </way>
  <way id="4340845" version="22" timestamp="2011-11-19T19:59:11Z" uid="17615" user="Petr Dlouhý" changeset="9876756">
    <nd ref="26424621"/>
    <nd ref="1239715109"/>
    <nd ref="1399814182"/>
    <tag k="cycleway:right" v="shared_lane"/>
    <tag k="highway" v="secondary"/>
    <tag k="name" v="Vršovická"/>
    <tag k="name:ru" v="Вршовицкая улица"/>
    <tag k="oneway" v="yes"/>
  </way>
  <way id="4340858" version="1" timestamp="2007-05-25T09:08:31Z" uid="1066" user="pavel" changeset="65703">
    <nd ref="26396779"/>
    <nd ref="26424963"/>
    <nd ref="26424964"/>
    <nd ref="26424966"/>
    <nd ref="26424950"/>
    <nd ref="26424951"/>
    <nd ref="26424952"/>
    <nd ref="26424953"/>
    <nd ref="26424954"/>
    <nd ref="26424955"/>
    <nd ref="26424956"/>
    <nd ref="26424957"/>
    <nd ref="26424958"/>
    <nd ref="26424959"/>
    <tag k="created_by" v="YahooApplet 1.0"/>
    <tag k="highway" v="residential"/>
    <tag k="name" v="Pod ?"/>
  </way>
  <way id="4340858" version="2" timestamp="2008-01-23T21:29:51Z" uid="3516" user="BiIbo" changeset="688611">
    <nd ref="26396782"/>
    <nd ref="242769035"/>
    <nd ref="26396779"/>
    <nd ref="26424963"/>
    <nd ref="26424964"/>
    <nd ref="26424966"/>
    <nd ref="26424950"/>
    <nd ref="26424951"/>
    <nd ref="26424952"/>
    <nd ref="26424953"/>
    <nd ref="26424954"/>
    <nd ref="26424955"/>
    <nd ref="26424956"/>
    <nd ref="26424957"/>
    <nd ref="26424958"/>
    <nd ref="26424959"/>
    <tag k="created_by" v="YahooApplet 1.0"/>
    <tag k="highway" v="residential"/>
    <tag k="name" v="Pod ?"/>
  </way>
  <way id="4340858" version="3" timestamp="2008-10-22T12:39:40Z" uid="10345" user="Mormegil" changeset="507189">
    <nd ref="26396782"/>
    <nd ref="242769035"/>
    <nd ref="26396779"/>
    <nd ref="26424963"/>
    <nd ref="26424964"/>
    <nd ref="26424966"/>
    <nd ref="26424950"/>
    <nd ref="26424951"/>
    <nd ref="26424952"/>
    <nd ref="26424953"/>
    <nd ref="26424954"/>
    <nd ref="26424955"/>
    <nd ref="26424956"/>
    <nd ref="26424957"/>
    <nd ref="26424958"/>
    <nd ref="26424959"/>
    <tag k="created_by" v="YahooApplet 1.0"/>
    <tag k="highway" v="residential"/>
    <tag k="name" v="Pod altánem"/>
  </way>
  <way id="4340858" version="4" timestamp="2009-03-14T01:41:05Z" uid="3516" user="BiIbo" changeset="803821">
    <nd ref="26396782"/>
    <nd ref="242769035"/>
    <nd ref="26396779"/>
    <nd ref="26424963"/>
    <nd ref="26424964"/>
    <nd ref="26424966"/>
    <nd ref="26424950"/>
    <nd ref="26424951"/>
    <nd ref="26424952"/>
    <nd ref="26424953"/>
    <nd ref="26424954"/>
    <nd ref="26424955"/>
    <nd ref="26424956"/>
    <nd ref="26424957"/>
    <nd ref="26424958"/>
    <nd ref="26424959"/>
    <tag k="highway" v="residential"/>
    <tag k="name" v="Pod Altánem"/>
  </way>
  <way id="4340858" version="5" timestamp="2010-02-08T17:06:28Z" uid="3516" user="BiIbo" changeset="3825049">
    <nd ref="26396782"/>
    <nd ref="242769035"/>
    <nd ref="26396779"/>
    <nd ref="26424963"/>
    <nd ref="26424964"/>
    <nd ref="26424966"/>
    <nd ref="633438495"/>
    <nd ref="26424950"/>
    <nd ref="26424951"/>
    <nd ref="26424952"/>
    <nd ref="26424953"/>
    <nd ref="26424954"/>
    <nd ref="26424955"/>
    <nd ref="26424956"/>
    <nd ref="26424957"/>
    <nd ref="633438382"/>
    <nd ref="26424958"/>
    <nd ref="26424959"/>
    <tag k="highway" v="residential"/>
    <tag k="name" v="Pod Altánem"/>
  </way>
  <way id="4340858" version="6" timestamp="2011-08-27T16:50:39Z" uid="17615" user="Petr Dlouhý" changeset="9139593">
    <nd ref="26396782"/>
    <nd ref="242769035"/>
    <nd ref="26396779"/>
    <nd ref="26424963"/>
    <nd ref="26424964"/>
    <nd ref="26424966"/>
    <nd ref="633438495"/>
    <nd ref="26424950"/>
    <nd ref="26424951"/>
    <nd ref="26424952"/>
    <nd ref="26424953"/>
    <nd ref="26424954"/>
    <nd ref="26424955"/>
    <nd ref="26424956"/>
    <nd ref="26424957"/>
    <nd ref="633438382"/>
    <nd ref="26424958"/>
    <nd ref="1414987403"/>
    <nd ref="1414987370"/>
    <nd ref="1414987364"/>
    <nd ref="1414987441"/>
    <nd ref="26424959"/>
    <tag k="highway" v="residential"/>
    <tag k="name" v="Pod Altánem"/>
  </way>
  <way id="4340858" version="7" timestamp="2011-11-23T13:43:51Z" uid="190711" user="Zulu" changeset="9921092">
    <nd ref="26396782"/>
    <nd ref="242769035"/>
    <nd ref="26396779"/>
    <nd ref="1514177062"/>
    <nd ref="26424963"/>
    <nd ref="26424964"/>
    <nd ref="26424966"/>
    <nd ref="633438495"/>
    <nd ref="26424950"/>
    <nd ref="26424951"/>
    <nd ref="26424952"/>
    <nd ref="26424953"/>
    <nd ref="26424954"/>
    <nd ref="26424955"/>
    <nd ref="26424956"/>
    <nd ref="26424957"/>
    <nd ref="633438382"/>
    <nd ref="26424958"/>
    <nd ref="1414987403"/>
    <nd ref="1414987370"/>
    <nd ref="1414987364"/>
    <nd ref="1414987441"/>
    <nd ref="26424959"/>
    <tag k="highway" v="residential"/>
    <tag k="name" v="Pod Altánem"/>
  </way>
  <way id="4340883" version="1" timestamp="2007-08-15T20:22:30Z" uid="8328" user="benpre" changeset="218301">
    <nd ref="21529910"/>
    <nd ref="26425199"/>
    <nd ref="26425200"/>
    <nd ref="26425201"/>
    <nd ref="26425202"/>
    <tag k="created_by" v="JOSM"/>
    <tag k="foot" v="yes"/>
    <tag k="highway" v="footway"/>
  </way>
  <way id="4340883" version="2" timestamp="2011-09-05T19:48:59Z" uid="326273" user="DoctorRad" changeset="9221192">
    <nd ref="21529910"/>
    <nd ref="26425199"/>
    <nd ref="26425200"/>
    <nd ref="26425201"/>
    <nd ref="26425202"/>
    <tag k="bicycle" v="yes"/>
    <tag k="foot" v="yes"/>
    <tag k="highway" v="footway"/>
  </way>
  <way id="4340915" version="2" timestamp="2010-04-06T11:39:01Z" uid="20587" user="balrog-kun" changeset="4342994">
    <nd ref="26425309"/>
    <nd ref="26427327"/>
    <nd ref="26425458"/>
    <nd ref="26425459"/>
    <nd ref="26425974"/>
    <tag k="created_by" v="BlueNinja"/>
    <tag k="highway" v="residential"/>
    <tag k="name" v="Southwest 14th St."/>
  </way>
  <way id="4340915" version="3" timestamp="2010-12-13T22:37:00Z" uid="213956" user="route56" changeset="6653802">
    <nd ref="26425309"/>
    <nd ref="26427327"/>
    <nd ref="26425458"/>
    <nd ref="26425459"/>
    <nd ref="25259614"/>
    <tag k="highway" v="residential"/>
    <tag k="name" v="Southwest 14th Street"/>
  </way>
  <way id="4340934" version="2" timestamp="2010-04-06T11:39:01Z" uid="20587" user="balrog-kun" changeset="4342994">
    <nd ref="26425598"/>
    <nd ref="26425596"/>
    <nd ref="26425594"/>
    <tag k="created_by" v="BlueNinja"/>
    <tag k="highway" v="residential"/>
    <tag k="name" v="Southwest Buchanan St."/>
  </way>
  <way id="4340934" version="3" timestamp="2010-12-11T00:16:08Z" uid="213956" user="route56" changeset="6614343"/>
  <way id="4340958" version="2" timestamp="2010-04-06T11:39:01Z" uid="20587" user="balrog-kun" changeset="4342994">
    <nd ref="26425972"/>
    <nd ref="26425603"/>
    <nd ref="26425602"/>
    <nd ref="26425600"/>
    <nd ref="26425598"/>
    <tag k="created_by" v="Potlatch alpha"/>
    <tag k="highway" v="residential"/>
    <tag k="name" v="Southwest 15th St."/>
    <tag k="osmarender:nameDirection" v="-1"/>
  </way>
  <way id="4340958" version="3" timestamp="2010-12-11T00:15:32Z" uid="213956" user="route56" changeset="6614343">
    <nd ref="26425972"/>
    <nd ref="26425603"/>
    <nd ref="26425602"/>
    <nd ref="1032430651"/>
    <tag k="highway" v="residential"/>
    <tag k="name" v="Southwest 15th St."/>
    <tag k="osmarender:nameDirection" v="-1"/>
  </way>
  <way id="4340959" version="2" timestamp="2010-04-06T11:39:02Z" uid="20587" user="balrog-kun" changeset="4342994">
    <nd ref="26427714"/>
    <nd ref="26427667"/>
    <nd ref="26427670"/>
    <nd ref="26427715"/>
    <nd ref="26427672"/>
    <nd ref="25508780"/>
    <nd ref="26427673"/>
    <nd ref="26427674"/>
    <nd ref="26427675"/>
    <nd ref="26426998"/>
    <nd ref="26427676"/>
    <nd ref="26427677"/>
    <nd ref="25744858"/>
    <nd ref="26427679"/>
    <nd ref="26427680"/>
    <nd ref="26427681"/>
    <nd ref="26427682"/>
    <nd ref="26427683"/>
    <nd ref="26427684"/>
    <nd ref="25903429"/>
    <nd ref="26427685"/>
    <nd ref="25903428"/>
    <tag k="created_by" v="BlueNinja"/>
    <tag k="highway" v="residential"/>
    <tag k="name" v="Southwest Lincoln St."/>
  </way>
  <way id="4340959" version="3" timestamp="2010-12-13T22:36:45Z" uid="213956" user="route56" changeset="6653802">
    <nd ref="26427714"/>
    <nd ref="26427667"/>
    <nd ref="122409366"/>
    <nd ref="122409369"/>
    <nd ref="26427670"/>
    <nd ref="26427715"/>
    <nd ref="26427672"/>
    <nd ref="25508780"/>
    <nd ref="26427673"/>
    <nd ref="26427674"/>
    <nd ref="26427675"/>
    <nd ref="26426998"/>
    <nd ref="26427676"/>
    <nd ref="26427677"/>
    <nd ref="25744858"/>
    <nd ref="26427679"/>
    <nd ref="26427680"/>
    <nd ref="26427681"/>
    <nd ref="122409389"/>
    <nd ref="26427682"/>
    <nd ref="26427683"/>
    <nd ref="26427684"/>
    <nd ref="25903429"/>
    <nd ref="26427685"/>
    <nd ref="25903428"/>
    <tag k="highway" v="residential"/>
    <tag k="name" v="Southwest Lincoln Street"/>
    <tag k="tiger:cfcc" v="A41"/>
    <tag k="tiger:county" v="Shawnee, KS"/>
    <tag k="tiger:name_base" v="Lincoln"/>
    <tag k="tiger:name_direction_prefix" v="SW"/>
    <tag k="tiger:name_type" v="St"/>
    <tag k="tiger:reviewed" v="no"/>
    <tag k="tiger:separated" v="no"/>
    <tag k="tiger:source" v="tiger_import_dch_v0.6_20070812"/>
    <tag k="tiger:tlid" v="17887343"/>
    <tag k="tiger:zip_left" v="66604"/>
    <tag k="tiger:zip_right" v="66604"/>
  </way>
  <way id="4340975" version="2" timestamp="2010-04-06T11:39:02Z" uid="20587" user="balrog-kun" changeset="4342994">
    <nd ref="25259606"/>
    <nd ref="26426147"/>
    <nd ref="26425897"/>
    <nd ref="26426146"/>
    <tag k="created_by" v="BlueNinja"/>
    <tag k="highway" v="residential"/>
    <tag k="name" v="Southwest Byron Ave."/>
  </way>
  <way id="4340975" version="3" timestamp="2011-11-09T06:01:26Z" uid="352940" user="pieleric" changeset="9778876"/>
</osm>
