<?xml version='1.0' encoding='UTF-8'?>
<osm version="0.6" generator="libosmium/2.20.0">
  <way id="43550033" version="2" timestamp="2011-05-01T16:47:10Z" uid="9581" user="Lobelt" changeset="8023121">
    <nd ref="549862832"/>
    <nd ref="549862843"/>
    <nd ref="549862848"/>
    <nd ref="549862869"/>
    <nd ref="549862924"/>
    <nd ref="549862944"/>
    <nd ref="549862769"/>
    <tag k="highway" v="track"/>
    <tag k="tracktype" v="grade5"/>
  </way>
  <way id="43550045" version="2" timestamp="2011-05-01T16:47:20Z" uid="9581" user="Lobelt" changeset="8023121">
    <nd ref="549862615"/>
    <nd ref="549863314"/>
    <nd ref="549862769"/>
    <nd ref="549863393"/>
    <nd ref="549863406"/>
    <nd ref="549863417"/>
    <nd ref="549863430"/>
    <nd ref="549863455"/>
    <nd ref="549863270"/>
    <tag k="highway" v="track"/>
    <tag k="tracktype" v="grade5"/>
  </way>
  <way id="43550070" version="1" timestamp="2009-11-01T12:57:24Z" uid="30632" user="antblant" changeset="3005940">
    <nd ref="317084980"/>
    <nd ref="317084988"/>
    <tag k="highway" v="steps"/>
  </way>
  <way id="43550071" version="1" timestamp="2009-11-01T12:57:25Z" uid="30632" user="antblant" changeset="3005940">
    <nd ref="317084982"/>
    <nd ref="317084988"/>
    <tag k="highway" v="steps"/>
  </way>
  <way id="43550205" version="2" timestamp="2011-05-01T16:47:51Z" uid="9581" user="Lobelt" changeset="8023121">
    <nd ref="549876696"/>
    <nd ref="549876742"/>
    <nd ref="549876767"/>
    <nd ref="549876783"/>
    <nd ref="549792705"/>
    <tag k="highway" v="track"/>
    <tag k="tracktype" v="grade3"/>
  </way>
  <way id="43550253" version="1" timestamp="2009-11-01T13:06:02Z" uid="30632" user="antblant" changeset="3005940">
    <nd ref="267046629"/>
    <nd ref="286060293"/>
    <nd ref="272407834"/>
    <nd ref="254067091"/>
    <nd ref="549884613"/>
    <nd ref="254067092"/>
    <tag k="highway" v="tertiary"/>
    <tag k="name" v="Aleja Wyzwolenia"/>
    <tag k="name:de" v="Pölitzer Straße"/>
    <tag k="oneway" v="yes"/>
    <tag k="source" v="UMP-PL, ./UMP-Szczecin/src/SZCZECIN.ulice.txt"/>
  </way>
  <way id="43550253" version="2" timestamp="2010-01-16T20:38:22Z" uid="103749" user="Pawlik9" changeset="3635462">
    <nd ref="267046629"/>
    <nd ref="286060293"/>
    <nd ref="272407834"/>
    <nd ref="254067091"/>
    <nd ref="549884613"/>
    <nd ref="254067092"/>
    <tag k="highway" v="tertiary"/>
    <tag k="lanes" v="3"/>
    <tag k="name" v="Aleja Wyzwolenia"/>
    <tag k="name:de" v="Pölitzer Straße"/>
    <tag k="oneway" v="yes"/>
    <tag k="source" v="UMP-PL, ./UMP-Szczecin/src/SZCZECIN.ulice.txt"/>
  </way>
  <way id="43550253" version="3" timestamp="2012-02-28T21:10:51Z" uid="603523" user="diverpl" changeset="10821910">
    <nd ref="267046629"/>
    <nd ref="286060293"/>
    <nd ref="272407834"/>
    <nd ref="254067091"/>
    <nd ref="549884613"/>
    <nd ref="1652036621"/>
    <nd ref="1652036623"/>
    <nd ref="1652036625"/>
    <nd ref="1652036628"/>
    <nd ref="254067092"/>
    <tag k="highway" v="tertiary"/>
    <tag k="lanes" v="3"/>
    <tag k="name" v="Aleja Wyzwolenia"/>
    <tag k="name:de" v="Pölitzer Straße"/>
    <tag k="oneway" v="yes"/>
    <tag k="source" v="UMP-PL, ./UMP-Szczecin/src/SZCZECIN.ulice.txt"/>
  </way>
  <way id="43550254" version="1" timestamp="2009-11-01T13:06:03Z" uid="30632" user="antblant" changeset="3005940">
    <nd ref="267046631"/>
    <nd ref="254067568"/>
    <tag k="highway" v="tertiary"/>
    <tag k="name" v="Aleja Wyzwolenia"/>
    <tag k="oneway" v="yes"/>
    <tag k="source" v="UMP-PL, ./UMP-Szczecin/src/SZCZECIN.ulice.txt"/>
  </way>
  <way id="43550254" version="2" timestamp="2010-01-16T20:38:24Z" uid="103749" user="Pawlik9" changeset="3635462">
    <nd ref="267046631"/>
    <nd ref="254067568"/>
    <tag k="highway" v="tertiary"/>
    <tag k="lanes" v="3"/>
    <tag k="name" v="Aleja Wyzwolenia"/>
    <tag k="oneway" v="yes"/>
    <tag k="source" v="UMP-PL, ./UMP-Szczecin/src/SZCZECIN.ulice.txt"/>
  </way>
  <way id="43550254" version="3" timestamp="2012-02-28T21:10:53Z" uid="603523" user="diverpl" changeset="10821910">
    <nd ref="267046631"/>
    <nd ref="1652036617"/>
    <nd ref="254067568"/>
    <tag k="highway" v="tertiary"/>
    <tag k="lanes" v="3"/>
    <tag k="name" v="Aleja Wyzwolenia"/>
    <tag k="oneway" v="yes"/>
    <tag k="source" v="UMP-PL, ./UMP-Szczecin/src/SZCZECIN.ulice.txt"/>
  </way>
</osm>
