<?xml version='1.0' encoding='UTF-8'?>
<osm version="0.6" generator="libosmium/2.20.0">
  <way id="43751358" version="3" timestamp="2010-03-28T11:10:31Z" uid="20587" user="balrog-kun" changeset="4254597">
    <nd ref="25061985"/>
    <nd ref="123141510"/>
    <nd ref="123141519"/>
    <nd ref="123232909"/>
    <nd ref="123232931"/>
    <nd ref="122916081"/>
    <nd ref="122916086"/>
    <nd ref="122879646"/>
    <nd ref="122879620"/>
    <nd ref="123274624"/>
    <nd ref="123274632"/>
    <nd ref="123477230"/>
    <nd ref="123477228"/>
    <nd ref="123304220"/>
    <nd ref="74435651"/>
    <nd ref="122785233"/>
    <nd ref="123477223"/>
    <nd ref="123197931"/>
    <nd ref="74672587"/>
    <nd ref="122800298"/>
    <nd ref="253107469"/>
    <nd ref="36220502"/>
    <tag k="highway" v="primary"/>
    <tag k="name" v="Whittier Boulevard"/>
    <tag k="ref" v="CA 72"/>
    <tag k="source" v="survey;image;usgs_imagery"/>
    <tag k="source_ref" v="AM909_DSCQ2190"/>
  </way>
  <way id="43751358" version="4" timestamp="2011-08-08T23:05:19Z" uid="207745" user="NE2" changeset="8962612">
    <nd ref="25061985"/>
    <nd ref="123141510"/>
    <nd ref="123141519"/>
    <nd ref="123232909"/>
    <nd ref="123232931"/>
    <nd ref="122916081"/>
    <nd ref="122916086"/>
    <nd ref="122879646"/>
    <nd ref="122879620"/>
    <nd ref="123274624"/>
    <nd ref="123274632"/>
    <nd ref="123477230"/>
    <nd ref="123477228"/>
    <nd ref="123304220"/>
    <nd ref="74435651"/>
    <nd ref="122785233"/>
    <nd ref="123477223"/>
    <nd ref="123197931"/>
    <nd ref="74672587"/>
    <nd ref="122800298"/>
    <nd ref="253107469"/>
    <nd ref="36220502"/>
    <tag k="highway" v="primary"/>
    <tag k="name" v="Whittier Boulevard"/>
    <tag k="source" v="survey;image;usgs_imagery"/>
    <tag k="source_ref" v="AM909_DSCQ2190"/>
  </way>
  <way id="43751362" version="2" timestamp="2010-03-28T11:10:32Z" uid="20587" user="balrog-kun" changeset="4254597">
    <nd ref="123160773"/>
    <nd ref="122692713"/>
    <tag k="highway" v="residential"/>
    <tag k="name" v="Grace Place"/>
    <tag k="tiger:cfcc" v="A41"/>
    <tag k="tiger:county" v="Los Angeles, CA"/>
    <tag k="tiger:name_base" v="Grace"/>
    <tag k="tiger:name_type" v="Pl"/>
    <tag k="tiger:separated" v="no"/>
    <tag k="tiger:source" v="tiger_import_dch_v0.6_20070809"/>
    <tag k="tiger:tlid" v="141638363:141812820:141812821"/>
    <tag k="tiger:zip_left" v="90022"/>
    <tag k="tiger:zip_right" v="90022"/>
  </way>
  <way id="43751363" version="3" timestamp="2010-03-28T11:10:32Z" uid="20587" user="balrog-kun" changeset="4254597">
    <nd ref="123385094"/>
    <nd ref="122951246"/>
    <nd ref="123477237"/>
    <nd ref="123477234"/>
    <nd ref="253126387"/>
    <nd ref="123110955"/>
    <nd ref="25061985"/>
    <tag k="highway" v="primary"/>
    <tag k="maxspeed" v="48"/>
    <tag k="name" v="Whittier Boulevard"/>
  </way>
  <way id="43751363" version="4" timestamp="2010-07-15T01:11:32Z" uid="82317" user="AM909" changeset="5223051">
    <nd ref="123385094"/>
    <nd ref="122951246"/>
    <nd ref="123477237"/>
    <nd ref="123477234"/>
    <nd ref="253126387"/>
    <nd ref="123110955"/>
    <nd ref="25061985"/>
    <tag k="highway" v="primary"/>
    <tag k="maxspeed" v="30 mph"/>
    <tag k="name" v="Whittier Boulevard"/>
  </way>
  <way id="43751365" version="3" timestamp="2010-03-28T11:10:33Z" uid="20587" user="balrog-kun" changeset="4254597">
    <nd ref="123017148"/>
    <nd ref="123385094"/>
    <tag k="highway" v="primary"/>
    <tag k="maxspeed" v="48"/>
    <tag k="name" v="Whittier Boulevard"/>
  </way>
  <way id="43751365" version="4" timestamp="2010-07-15T01:11:21Z" uid="82317" user="AM909" changeset="5223051">
    <nd ref="123017148"/>
    <nd ref="123385094"/>
    <tag k="highway" v="primary"/>
    <tag k="maxspeed" v="30 mph"/>
    <tag k="name" v="Whittier Boulevard"/>
  </way>
  <way id="43751366" version="3" timestamp="2010-03-28T11:10:33Z" uid="20587" user="balrog-kun" changeset="4254597">
    <nd ref="122849003"/>
    <nd ref="123477245"/>
    <nd ref="123017148"/>
    <tag k="highway" v="primary"/>
    <tag k="maxspeed" v="48"/>
    <tag k="name" v="Whittier Boulevard"/>
  </way>
  <way id="43751366" version="4" timestamp="2010-07-15T01:11:30Z" uid="82317" user="AM909" changeset="5223051">
    <nd ref="122849003"/>
    <nd ref="123477245"/>
    <nd ref="123017148"/>
    <tag k="highway" v="primary"/>
    <tag k="maxspeed" v="30 mph"/>
    <tag k="name" v="Whittier Boulevard"/>
  </way>
  <way id="43751367" version="3" timestamp="2010-03-28T11:10:33Z" uid="20587" user="balrog-kun" changeset="4254597">
    <nd ref="122692711"/>
    <nd ref="122758041"/>
    <nd ref="123042211"/>
    <nd ref="122849003"/>
    <tag k="highway" v="primary"/>
    <tag k="maxspeed" v="48"/>
    <tag k="name" v="Whittier Boulevard"/>
  </way>
  <way id="43751367" version="4" timestamp="2010-07-15T01:11:09Z" uid="82317" user="AM909" changeset="5223051">
    <nd ref="122692711"/>
    <nd ref="122758041"/>
    <nd ref="123042211"/>
    <nd ref="122849003"/>
    <tag k="highway" v="primary"/>
    <tag k="maxspeed" v="30 mph"/>
    <tag k="name" v="Whittier Boulevard"/>
  </way>
  <way id="43751368" version="3" timestamp="2010-03-28T11:10:33Z" uid="20587" user="balrog-kun" changeset="4254597">
    <nd ref="123302752"/>
    <nd ref="540554455"/>
    <nd ref="123376105"/>
    <nd ref="253129636"/>
    <nd ref="253129642"/>
    <nd ref="122692711"/>
    <tag k="highway" v="primary"/>
    <tag k="maxspeed" v="48"/>
    <tag k="name" v="Whittier Boulevard"/>
  </way>
  <way id="43751368" version="4" timestamp="2010-07-15T01:11:19Z" uid="82317" user="AM909" changeset="5223051">
    <nd ref="123302752"/>
    <nd ref="540554455"/>
    <nd ref="123376105"/>
    <nd ref="253129636"/>
    <nd ref="253129642"/>
    <nd ref="122692711"/>
    <tag k="highway" v="primary"/>
    <tag k="maxspeed" v="30 mph"/>
    <tag k="name" v="Whittier Boulevard"/>
  </way>
  <way id="43751369" version="3" timestamp="2010-03-28T11:10:33Z" uid="20587" user="balrog-kun" changeset="4254597">
    <nd ref="122671880"/>
    <nd ref="123302752"/>
    <tag k="highway" v="primary"/>
    <tag k="maxspeed" v="48"/>
    <tag k="name" v="Whittier Boulevard"/>
  </way>
  <way id="43751369" version="4" timestamp="2010-07-15T01:11:24Z" uid="82317" user="AM909" changeset="5223051">
    <nd ref="122671880"/>
    <nd ref="123302752"/>
    <tag k="highway" v="primary"/>
    <tag k="maxspeed" v="30 mph"/>
    <tag k="name" v="Whittier Boulevard"/>
  </way>
  <way id="43751370" version="3" timestamp="2010-03-28T11:10:34Z" uid="20587" user="balrog-kun" changeset="4254597">
    <nd ref="122720094"/>
    <nd ref="122671880"/>
    <tag k="highway" v="primary"/>
    <tag k="maxspeed" v="48"/>
    <tag k="name" v="Whittier Boulevard"/>
  </way>
  <way id="43751370" version="4" timestamp="2010-07-15T01:11:07Z" uid="82317" user="AM909" changeset="5223051">
    <nd ref="122720094"/>
    <nd ref="122671880"/>
    <tag k="highway" v="primary"/>
    <tag k="maxspeed" v="30 mph"/>
    <tag k="name" v="Whittier Boulevard"/>
  </way>
  <way id="43751372" version="3" timestamp="2010-03-28T11:10:34Z" uid="20587" user="balrog-kun" changeset="4254597">
    <nd ref="253129604"/>
    <nd ref="122720094"/>
    <tag k="highway" v="primary"/>
    <tag k="maxspeed" v="48"/>
    <tag k="name" v="Whittier Boulevard"/>
  </way>
  <way id="43751372" version="4" timestamp="2010-07-15T01:11:21Z" uid="82317" user="AM909" changeset="5223051">
    <nd ref="253129604"/>
    <nd ref="122720094"/>
    <tag k="highway" v="primary"/>
    <tag k="maxspeed" v="30 mph"/>
    <tag k="name" v="Whittier Boulevard"/>
  </way>
  <way id="43751373" version="3" timestamp="2010-03-28T11:10:34Z" uid="20587" user="balrog-kun" changeset="4254597">
    <nd ref="122847586"/>
    <nd ref="253129604"/>
    <tag k="highway" v="primary"/>
    <tag k="maxspeed" v="48"/>
    <tag k="name" v="Whittier Boulevard"/>
  </way>
  <way id="43751373" version="4" timestamp="2010-07-15T01:11:27Z" uid="82317" user="AM909" changeset="5223051">
    <nd ref="122847586"/>
    <nd ref="253129604"/>
    <tag k="highway" v="primary"/>
    <tag k="maxspeed" v="30 mph"/>
    <tag k="name" v="Whittier Boulevard"/>
  </way>
  <way id="43751374" version="3" timestamp="2010-03-28T11:10:34Z" uid="20587" user="balrog-kun" changeset="4254597">
    <nd ref="122731564"/>
    <nd ref="122847586"/>
    <tag k="highway" v="primary"/>
    <tag k="maxspeed" v="48"/>
    <tag k="name" v="Whittier Boulevard"/>
  </way>
  <way id="43751374" version="4" timestamp="2010-07-15T01:11:10Z" uid="82317" user="AM909" changeset="5223051">
    <nd ref="122731564"/>
    <nd ref="122847586"/>
    <tag k="highway" v="primary"/>
    <tag k="maxspeed" v="30 mph"/>
    <tag k="name" v="Whittier Boulevard"/>
  </way>
  <way id="43751375" version="3" timestamp="2010-03-28T11:10:34Z" uid="20587" user="balrog-kun" changeset="4254597">
    <nd ref="123477262"/>
    <nd ref="122731564"/>
    <tag k="highway" v="primary"/>
    <tag k="maxspeed" v="48"/>
    <tag k="name" v="Whittier Boulevard"/>
  </way>
  <way id="43751375" version="4" timestamp="2010-07-15T01:11:17Z" uid="82317" user="AM909" changeset="5223051">
    <nd ref="123477262"/>
    <nd ref="122731564"/>
    <tag k="highway" v="primary"/>
    <tag k="maxspeed" v="30 mph"/>
    <tag k="name" v="Whittier Boulevard"/>
  </way>
  <way id="43751376" version="3" timestamp="2010-03-28T11:10:34Z" uid="20587" user="balrog-kun" changeset="4254597">
    <nd ref="123441569"/>
    <nd ref="123477262"/>
    <tag k="highway" v="primary"/>
    <tag k="maxspeed" v="56"/>
    <tag k="name" v="Whittier Boulevard"/>
  </way>
  <way id="43751376" version="4" timestamp="2010-07-15T01:05:12Z" uid="82317" user="AM909" changeset="5223033">
    <nd ref="123441569"/>
    <nd ref="123477262"/>
    <tag k="highway" v="primary"/>
    <tag k="maxspeed" v="35 mph"/>
    <tag k="name" v="Whittier Boulevard"/>
  </way>
  <way id="43751378" version="3" timestamp="2010-03-28T11:10:34Z" uid="20587" user="balrog-kun" changeset="4254597">
    <nd ref="123378585"/>
    <nd ref="123441569"/>
    <tag k="highway" v="primary"/>
    <tag k="maxspeed" v="56"/>
    <tag k="name" v="Whittier Boulevard"/>
  </way>
  <way id="43751378" version="4" timestamp="2010-07-15T01:02:42Z" uid="82317" user="AM909" changeset="5223033">
    <nd ref="123378585"/>
    <nd ref="123441569"/>
    <tag k="highway" v="primary"/>
    <tag k="maxspeed" v="35 mph"/>
    <tag k="name" v="Whittier Boulevard"/>
  </way>
  <way id="43751379" version="3" timestamp="2010-03-28T11:10:35Z" uid="20587" user="balrog-kun" changeset="4254597">
    <nd ref="123423584"/>
    <nd ref="122591899"/>
    <nd ref="122591908"/>
    <nd ref="123378585"/>
    <tag k="highway" v="primary"/>
    <tag k="maxspeed" v="56"/>
    <tag k="name" v="Whittier Boulevard"/>
  </way>
  <way id="43751379" version="4" timestamp="2010-07-15T01:03:54Z" uid="82317" user="AM909" changeset="5223033">
    <nd ref="123423584"/>
    <nd ref="122591899"/>
    <nd ref="122591908"/>
    <nd ref="123378585"/>
    <tag k="highway" v="primary"/>
    <tag k="maxspeed" v="35 mph"/>
    <tag k="name" v="Whittier Boulevard"/>
  </way>
  <way id="43751380" version="3" timestamp="2010-03-28T11:10:35Z" uid="20587" user="balrog-kun" changeset="4254597">
    <nd ref="123477265"/>
    <nd ref="123423584"/>
    <tag k="highway" v="primary"/>
    <tag k="maxspeed" v="56"/>
    <tag k="name" v="Whittier Boulevard"/>
  </way>
  <way id="43751380" version="4" timestamp="2010-07-15T01:05:58Z" uid="82317" user="AM909" changeset="5223033">
    <nd ref="123477265"/>
    <nd ref="123423584"/>
    <tag k="highway" v="primary"/>
    <tag k="maxspeed" v="35 mph"/>
    <tag k="name" v="Whittier Boulevard"/>
  </way>
  <way id="43751381" version="3" timestamp="2010-03-28T11:10:35Z" uid="20587" user="balrog-kun" changeset="4254597">
    <nd ref="253132111"/>
    <nd ref="123477265"/>
    <tag k="highway" v="primary"/>
    <tag k="maxspeed" v="56"/>
    <tag k="name" v="Whittier Boulevard"/>
  </way>
  <way id="43751381" version="4" timestamp="2010-07-15T01:07:01Z" uid="82317" user="AM909" changeset="5223033">
    <nd ref="253132111"/>
    <nd ref="123477265"/>
    <tag k="highway" v="primary"/>
    <tag k="maxspeed" v="35 mph"/>
    <tag k="name" v="Whittier Boulevard"/>
  </way>
  <way id="43751620" version="4" timestamp="2011-01-03T12:51:17Z" uid="4467" user="Rosscoe" changeset="6849243">
    <nd ref="595860656"/>
    <nd ref="595860626"/>
    <tag k="highway" v="service"/>
  </way>
  <way id="43751718" version="1" timestamp="2009-11-04T04:01:21Z" uid="4467" user="Rosscoe" changeset="3030183">
    <nd ref="250431199"/>
    <nd ref="250431200"/>
    <nd ref="321434149"/>
    <tag k="highway" v="unclassified"/>
    <tag k="name" v="Boland Street"/>
  </way>
  <way id="43751718" version="2" timestamp="2009-11-04T04:02:06Z" uid="4467" user="Rosscoe" changeset="3030183">
    <nd ref="321434149"/>
    <nd ref="553928953"/>
    <tag k="highway" v="unclassified"/>
    <tag k="name" v="Boland Street"/>
  </way>
  <way id="43751718" version="3" timestamp="2009-11-04T04:04:02Z" uid="4467" user="Rosscoe" changeset="3030183">
    <nd ref="553930183"/>
    <nd ref="321434149"/>
    <tag k="highway" v="unclassified"/>
    <tag k="name" v="Boland Street"/>
  </way>
  <way id="43751718" version="4" timestamp="2009-11-04T04:05:19Z" uid="4467" user="Rosscoe" changeset="3030183">
    <nd ref="321434149"/>
    <nd ref="553930183"/>
    <tag k="highway" v="tertiary"/>
    <tag k="name" v="Racecourse Crescent"/>
    <tag k="oneway" v="yes"/>
  </way>
  <way id="43751718" version="5" timestamp="2011-02-01T07:58:39Z" uid="4467" user="Rosscoe" changeset="7152257">
    <nd ref="321434149"/>
    <nd ref="1130752318"/>
    <nd ref="553930183"/>
    <tag k="highway" v="tertiary"/>
    <tag k="name" v="Racecourse Crescent"/>
    <tag k="oneway" v="yes"/>
  </way>
  <way id="43751731" version="1" timestamp="2009-11-04T04:01:43Z" uid="4467" user="Rosscoe" changeset="3030183">
    <nd ref="250438079"/>
    <nd ref="250438080"/>
    <nd ref="250438081"/>
    <nd ref="250438082"/>
    <nd ref="250438111"/>
    <nd ref="250438083"/>
    <nd ref="250438084"/>
    <tag k="highway" v="tertiary"/>
    <tag k="name" v="Innes Street"/>
  </way>
  <way id="43751731" version="2" timestamp="2009-11-04T04:03:14Z" uid="4467" user="Rosscoe" changeset="3030183">
    <nd ref="553930232"/>
    <nd ref="250438079"/>
    <nd ref="250438080"/>
    <nd ref="250438081"/>
    <nd ref="250438082"/>
    <nd ref="250438111"/>
    <nd ref="250438083"/>
    <nd ref="250438084"/>
    <tag k="highway" v="tertiary"/>
    <tag k="name" v="Innes Street"/>
  </way>
  <way id="43751731" version="3" timestamp="2009-11-04T04:05:59Z" uid="4467" user="Rosscoe" changeset="3030183">
    <nd ref="553930232"/>
    <nd ref="250438079"/>
    <nd ref="250438080"/>
    <tag k="highway" v="tertiary"/>
    <tag k="name" v="Innes Street"/>
  </way>
  <way id="43751731" version="4" timestamp="2009-11-04T04:06:12Z" uid="4467" user="Rosscoe" changeset="3030183">
    <nd ref="250438080"/>
    <nd ref="250438079"/>
    <nd ref="553930232"/>
    <tag k="highway" v="tertiary"/>
    <tag k="name" v="Innes Street"/>
    <tag k="oneway" v="yes"/>
  </way>
  <way id="43751731" version="5" timestamp="2010-12-01T05:59:31Z" uid="46482" user="Leon K" changeset="6500426">
    <nd ref="250438080"/>
    <nd ref="553930232"/>
    <tag k="highway" v="tertiary"/>
    <tag k="name" v="Innes Street"/>
    <tag k="oneway" v="yes"/>
  </way>
  <way id="43751750" version="1" timestamp="2009-11-04T04:02:37Z" uid="4467" user="Rosscoe" changeset="3030183">
    <nd ref="250431199"/>
    <nd ref="553928953"/>
    <nd ref="553930183"/>
    <nd ref="553930226"/>
    <nd ref="553930232"/>
    <tag k="highway" v="unclassified"/>
    <tag k="name" v="Boland Street"/>
  </way>
  <way id="43751750" version="2" timestamp="2009-11-04T04:03:04Z" uid="4467" user="Rosscoe" changeset="3030183">
    <nd ref="250431199"/>
    <nd ref="553928953"/>
    <nd ref="553930183"/>
    <nd ref="553930226"/>
    <nd ref="553931227"/>
    <nd ref="553930232"/>
    <nd ref="250431199"/>
    <tag k="highway" v="unclassified"/>
    <tag k="name" v="Boland Street"/>
  </way>
  <way id="43751750" version="3" timestamp="2009-11-04T04:03:53Z" uid="4467" user="Rosscoe" changeset="3030183">
    <nd ref="250431199"/>
    <nd ref="553932758"/>
    <nd ref="553928953"/>
    <nd ref="553930183"/>
    <nd ref="553930226"/>
    <nd ref="553931227"/>
    <nd ref="553930232"/>
    <nd ref="553932189"/>
    <nd ref="250431199"/>
    <tag k="highway" v="unclassified"/>
    <tag k="name" v="Boland Street"/>
  </way>
  <way id="43751750" version="4" timestamp="2009-11-04T04:04:21Z" uid="4467" user="Rosscoe" changeset="3030183">
    <nd ref="250431199"/>
    <nd ref="553932758"/>
    <nd ref="553928953"/>
    <nd ref="553930183"/>
    <nd ref="553930226"/>
    <nd ref="553931227"/>
    <nd ref="553930232"/>
    <nd ref="553932189"/>
    <nd ref="250431199"/>
    <tag k="highway" v="unclassified"/>
    <tag k="junction" v="roundabout"/>
    <tag k="name" v="Boland Street"/>
  </way>
  <way id="43751750" version="5" timestamp="2009-11-04T04:05:29Z" uid="4467" user="Rosscoe" changeset="3030183">
    <nd ref="250431199"/>
    <nd ref="553932758"/>
    <nd ref="553928953"/>
    <nd ref="553930183"/>
    <nd ref="553930226"/>
    <nd ref="553931227"/>
    <nd ref="553930232"/>
    <nd ref="553932189"/>
    <nd ref="250431199"/>
    <tag k="highway" v="tertiary"/>
    <tag k="junction" v="roundabout"/>
    <tag k="name" v="Boland Street"/>
  </way>
  <way id="43751750" version="6" timestamp="2009-11-04T04:07:18Z" uid="4467" user="Rosscoe" changeset="3030183">
    <nd ref="250431199"/>
    <nd ref="553932758"/>
    <nd ref="553928953"/>
    <nd ref="553930183"/>
    <nd ref="553930226"/>
    <nd ref="553931227"/>
    <nd ref="553930232"/>
    <nd ref="553932189"/>
    <nd ref="250431199"/>
    <tag k="highway" v="tertiary"/>
    <tag k="junction" v="roundabout"/>
  </way>
  <way id="43751750" version="7" timestamp="2009-11-04T04:15:10Z" uid="4467" user="Rosscoe" changeset="3030183">
    <nd ref="250431199"/>
    <nd ref="553932758"/>
    <nd ref="553928953"/>
    <nd ref="553930183"/>
    <nd ref="553930226"/>
    <nd ref="553931227"/>
    <nd ref="553930232"/>
    <nd ref="553932189"/>
    <nd ref="250431199"/>
    <tag k="highway" v="tertiary"/>
    <tag k="junction" v="roundabout"/>
    <tag k="source" v="survey"/>
  </way>
  <way id="43751750" version="8" timestamp="2011-02-01T07:59:06Z" uid="4467" user="Rosscoe" changeset="7152257">
    <nd ref="250431199"/>
    <nd ref="553932758"/>
    <nd ref="553928953"/>
    <nd ref="1130752277"/>
    <nd ref="553930183"/>
    <nd ref="1130752240"/>
    <nd ref="553930226"/>
    <nd ref="553931227"/>
    <nd ref="553930232"/>
    <nd ref="553932189"/>
    <nd ref="250431199"/>
    <tag k="highway" v="tertiary"/>
    <tag k="junction" v="roundabout"/>
    <tag k="source" v="survey"/>
  </way>
  <way id="43751756" version="1" timestamp="2009-11-04T04:03:25Z" uid="4467" user="Rosscoe" changeset="3030183">
    <nd ref="250438080"/>
    <nd ref="553930226"/>
  </way>
  <way id="43751756" version="2" timestamp="2009-11-04T04:05:56Z" uid="4467" user="Rosscoe" changeset="3030183">
    <nd ref="553930226"/>
    <nd ref="250438080"/>
    <tag k="highway" v="tertiary"/>
    <tag k="name" v="Innes Street"/>
    <tag k="oneway" v="yes"/>
  </way>
  <way id="43751758" version="1" timestamp="2009-11-04T04:03:37Z" uid="4467" user="Rosscoe" changeset="3030183">
    <nd ref="250431198"/>
    <nd ref="553932189"/>
  </way>
  <way id="43751758" version="2" timestamp="2009-11-04T04:06:46Z" uid="4467" user="Rosscoe" changeset="3030183">
    <nd ref="553932189"/>
    <nd ref="250431198"/>
    <tag k="highway" v="unclassified"/>
    <tag k="name" v="Boland Street"/>
    <tag k="oneway" v="yes"/>
  </way>
  <way id="43751760" version="1" timestamp="2009-11-04T04:04:02Z" uid="4467" user="Rosscoe" changeset="3030183">
    <nd ref="321434149"/>
    <nd ref="553928953"/>
    <tag k="highway" v="unclassified"/>
    <tag k="name" v="Boland Street"/>
  </way>
  <way id="43751760" version="2" timestamp="2009-11-04T04:04:52Z" uid="4467" user="Rosscoe" changeset="3030183">
    <nd ref="553928953"/>
    <nd ref="321434149"/>
    <tag k="highway" v="tertiary"/>
    <tag k="name" v="Racecourse Crescent"/>
    <tag k="oneway" v="yes"/>
  </way>
  <way id="43751760" version="3" timestamp="2011-02-01T07:59:09Z" uid="4467" user="Rosscoe" changeset="7152257">
    <nd ref="553928953"/>
    <nd ref="1130752303"/>
    <nd ref="1130752243"/>
    <nd ref="321434149"/>
    <tag k="highway" v="tertiary"/>
    <tag k="name" v="Racecourse Crescent"/>
    <tag k="oneway" v="yes"/>
  </way>
  <way id="43751770" version="1" timestamp="2009-11-04T04:05:58Z" uid="4467" user="Rosscoe" changeset="3030183">
    <nd ref="250438080"/>
    <nd ref="250438081"/>
    <nd ref="250438082"/>
    <nd ref="250438111"/>
    <nd ref="250438083"/>
    <nd ref="250438084"/>
    <tag k="highway" v="tertiary"/>
    <tag k="name" v="Innes Street"/>
  </way>
  <way id="43751770" version="2" timestamp="2009-11-04T04:07:56Z" uid="4467" user="Rosscoe" changeset="3030183">
    <nd ref="250438080"/>
    <nd ref="553941683"/>
    <nd ref="250438081"/>
    <nd ref="250438082"/>
    <nd ref="250438111"/>
    <nd ref="250438083"/>
    <nd ref="250438084"/>
    <tag k="highway" v="tertiary"/>
    <tag k="name" v="Innes Street"/>
  </way>
  <way id="43751770" version="3" timestamp="2009-11-04T04:15:29Z" uid="4467" user="Rosscoe" changeset="3030183">
    <nd ref="250438080"/>
    <nd ref="553941683"/>
    <nd ref="250438081"/>
    <nd ref="250438082"/>
    <nd ref="250438111"/>
    <nd ref="250438083"/>
    <nd ref="250438084"/>
    <tag k="highway" v="tertiary"/>
    <tag k="name" v="Innes Street"/>
    <tag k="source" v="survey"/>
  </way>
  <way id="43751770" version="4" timestamp="2009-11-04T04:15:55Z" uid="4467" user="Rosscoe" changeset="3030183">
    <nd ref="250438080"/>
    <nd ref="553941683"/>
    <nd ref="250438081"/>
    <nd ref="250438082"/>
    <nd ref="250438111"/>
    <nd ref="250438083"/>
    <nd ref="250438084"/>
    <tag k="highway" v="tertiary"/>
    <tag k="name" v="Innes Street"/>
  </way>
  <way id="43751770" version="5" timestamp="2010-03-06T11:08:03Z" uid="4467" user="Rosscoe" changeset="4048837">
    <nd ref="250438080"/>
    <nd ref="553941683"/>
    <nd ref="250438081"/>
    <nd ref="661036664"/>
    <nd ref="250438082"/>
    <nd ref="250438111"/>
    <nd ref="250438083"/>
    <nd ref="250438084"/>
    <tag k="highway" v="tertiary"/>
    <tag k="name" v="Innes Street"/>
  </way>
  <way id="43751770" version="6" timestamp="2010-12-01T05:59:31Z" uid="46482" user="Leon K" changeset="6500426">
    <nd ref="250438080"/>
    <nd ref="553941683"/>
    <nd ref="250438081"/>
    <nd ref="661036664"/>
    <nd ref="250438082"/>
    <nd ref="250438111"/>
    <nd ref="250438083"/>
    <nd ref="1014203479"/>
    <nd ref="250438084"/>
    <tag k="highway" v="tertiary"/>
    <tag k="name" v="Innes Street"/>
  </way>
  <way id="43751770" version="7" timestamp="2011-02-01T07:57:49Z" uid="4467" user="Rosscoe" changeset="7152257">
    <nd ref="250438080"/>
    <nd ref="553941683"/>
    <nd ref="250438081"/>
    <nd ref="661036664"/>
    <nd ref="250438082"/>
    <nd ref="250438111"/>
    <nd ref="1014203479"/>
    <nd ref="250438084"/>
    <tag k="highway" v="tertiary"/>
    <tag k="name" v="Innes Street"/>
  </way>
  <way id="43751771" version="1" timestamp="2009-11-04T04:06:30Z" uid="4467" user="Rosscoe" changeset="3030183">
    <nd ref="250431198"/>
    <nd ref="250431199"/>
    <tag k="highway" v="unclassified"/>
    <tag k="name" v="Boland Street"/>
  </way>
  <way id="43751771" version="2" timestamp="2009-11-04T04:06:41Z" uid="4467" user="Rosscoe" changeset="3030183">
    <nd ref="250431198"/>
    <nd ref="250431199"/>
    <tag k="highway" v="unclassified"/>
    <tag k="name" v="Boland Street"/>
    <tag k="oneway" v="yes"/>
  </way>
  <way id="43751772" version="5" timestamp="2010-04-04T01:35:44Z" uid="20587" user="balrog-kun" changeset="4318136">
    <nd ref="176422253"/>
    <nd ref="553920460"/>
    <nd ref="553920467"/>
    <nd ref="553920474"/>
    <nd ref="553920482"/>
    <nd ref="553920486"/>
    <nd ref="553920492"/>
    <nd ref="553920511"/>
    <nd ref="553920516"/>
    <nd ref="553920521"/>
    <nd ref="553920528"/>
    <nd ref="553920534"/>
    <nd ref="553920543"/>
    <nd ref="553920549"/>
    <nd ref="553920555"/>
    <nd ref="553920561"/>
    <nd ref="553920568"/>
    <nd ref="553920574"/>
    <nd ref="553920579"/>
    <nd ref="553920586"/>
    <nd ref="553920609"/>
    <nd ref="553920617"/>
    <nd ref="553920622"/>
    <nd ref="553920627"/>
    <nd ref="553920635"/>
    <nd ref="553920644"/>
    <nd ref="553920649"/>
    <nd ref="553920654"/>
    <nd ref="553920659"/>
    <nd ref="553920664"/>
    <nd ref="553920671"/>
    <nd ref="553920680"/>
    <nd ref="553920692"/>
    <nd ref="553920718"/>
    <nd ref="553920727"/>
    <nd ref="553920740"/>
    <nd ref="553920746"/>
    <nd ref="553920756"/>
    <nd ref="553920767"/>
    <nd ref="553920789"/>
    <nd ref="553920804"/>
    <nd ref="553920819"/>
    <nd ref="553920847"/>
    <nd ref="553920865"/>
    <nd ref="553920874"/>
    <nd ref="553920885"/>
    <nd ref="553920947"/>
    <nd ref="553920965"/>
    <nd ref="553920981"/>
    <nd ref="553920997"/>
    <nd ref="553921007"/>
    <nd ref="553921014"/>
    <nd ref="553921023"/>
    <nd ref="553921029"/>
    <nd ref="553921040"/>
    <nd ref="553921055"/>
    <nd ref="553921068"/>
    <nd ref="553921083"/>
    <nd ref="553921089"/>
    <nd ref="553921111"/>
    <nd ref="553921124"/>
    <nd ref="553921134"/>
    <nd ref="553921141"/>
    <nd ref="553921151"/>
    <nd ref="553921161"/>
    <nd ref="553921172"/>
    <nd ref="553921184"/>
    <nd ref="553921199"/>
    <nd ref="553921214"/>
    <nd ref="553921231"/>
    <nd ref="553921242"/>
    <nd ref="553921283"/>
    <nd ref="553921296"/>
    <nd ref="553921311"/>
    <nd ref="553921320"/>
    <nd ref="553921327"/>
    <nd ref="553938029"/>
    <nd ref="553938032"/>
    <nd ref="553938037"/>
    <nd ref="553938041"/>
    <nd ref="553938053"/>
    <nd ref="553938068"/>
    <nd ref="553938098"/>
    <nd ref="553938110"/>
    <nd ref="553938131"/>
    <nd ref="553938146"/>
    <nd ref="553938158"/>
    <nd ref="553938167"/>
    <nd ref="553938175"/>
    <nd ref="553938192"/>
    <nd ref="176367514"/>
    <nd ref="553938226"/>
    <nd ref="553938235"/>
    <nd ref="553938248"/>
    <nd ref="553938252"/>
    <nd ref="553938274"/>
    <nd ref="553938286"/>
    <nd ref="553938298"/>
    <nd ref="553938305"/>
    <nd ref="553938320"/>
    <nd ref="553938329"/>
    <nd ref="553938338"/>
    <nd ref="553938346"/>
    <nd ref="553938360"/>
    <nd ref="553938370"/>
    <nd ref="553938378"/>
    <nd ref="553938383"/>
    <nd ref="553938388"/>
    <nd ref="553938403"/>
    <nd ref="553938409"/>
    <nd ref="553938414"/>
    <nd ref="553938420"/>
    <nd ref="553938428"/>
    <nd ref="553938432"/>
    <nd ref="553938439"/>
    <nd ref="553938445"/>
    <nd ref="553938449"/>
    <nd ref="553938454"/>
    <nd ref="553938465"/>
    <nd ref="553938471"/>
    <nd ref="553938475"/>
    <nd ref="553938478"/>
    <nd ref="553938505"/>
    <nd ref="553938525"/>
    <nd ref="553938551"/>
    <nd ref="553938566"/>
    <nd ref="553938576"/>
    <nd ref="553938596"/>
    <nd ref="553938613"/>
    <nd ref="553938622"/>
    <nd ref="553938634"/>
    <nd ref="553938642"/>
    <nd ref="553938653"/>
    <nd ref="553938657"/>
    <nd ref="553938662"/>
    <nd ref="553938668"/>
    <nd ref="553938681"/>
    <nd ref="553938685"/>
    <nd ref="553938690"/>
    <nd ref="553938701"/>
    <nd ref="553938713"/>
    <nd ref="553938718"/>
    <nd ref="176422311"/>
    <nd ref="553950158"/>
    <nd ref="553950167"/>
    <nd ref="553950178"/>
    <nd ref="553950188"/>
    <nd ref="553950196"/>
    <nd ref="553950202"/>
    <nd ref="553950213"/>
    <nd ref="553950224"/>
    <nd ref="553950238"/>
    <nd ref="553950246"/>
    <nd ref="553950255"/>
    <nd ref="553950262"/>
    <nd ref="553950270"/>
    <nd ref="553950284"/>
    <nd ref="553950296"/>
    <nd ref="553950328"/>
    <nd ref="176383012"/>
    <nd ref="553950335"/>
    <nd ref="553950341"/>
    <nd ref="553950349"/>
    <nd ref="553950357"/>
    <nd ref="553950363"/>
    <nd ref="553950366"/>
    <nd ref="553950371"/>
    <nd ref="553950380"/>
    <nd ref="553950388"/>
    <nd ref="553950394"/>
    <nd ref="553950396"/>
    <nd ref="553950398"/>
    <nd ref="553950401"/>
    <nd ref="553950407"/>
    <nd ref="553950412"/>
    <nd ref="553950439"/>
    <nd ref="553950445"/>
    <nd ref="553950451"/>
    <nd ref="553950456"/>
    <nd ref="553950461"/>
    <nd ref="553950467"/>
    <nd ref="553950473"/>
    <nd ref="553950478"/>
    <nd ref="553950481"/>
    <nd ref="553950486"/>
    <nd ref="553950489"/>
    <nd ref="553950495"/>
    <nd ref="553950501"/>
    <nd ref="553950509"/>
    <nd ref="553950514"/>
    <nd ref="553950536"/>
    <nd ref="553950539"/>
    <nd ref="553950542"/>
    <nd ref="553950551"/>
    <nd ref="553950555"/>
    <nd ref="553950559"/>
    <nd ref="553950565"/>
    <nd ref="176422344"/>
    <nd ref="553984368"/>
    <nd ref="553984369"/>
    <nd ref="553984372"/>
    <nd ref="553984376"/>
    <nd ref="553984380"/>
    <nd ref="553984385"/>
    <nd ref="553984390"/>
    <nd ref="553984398"/>
    <nd ref="553984407"/>
    <nd ref="553984412"/>
    <nd ref="553984420"/>
    <nd ref="553984427"/>
    <nd ref="553984432"/>
    <nd ref="553984447"/>
    <nd ref="553984453"/>
    <nd ref="553984460"/>
    <nd ref="553984464"/>
    <nd ref="553984473"/>
    <nd ref="553984476"/>
    <nd ref="176386506"/>
    <nd ref="553984488"/>
    <nd ref="553984491"/>
    <nd ref="553995422"/>
    <nd ref="553995423"/>
    <nd ref="553995425"/>
    <nd ref="553995427"/>
    <nd ref="553995428"/>
    <nd ref="553995431"/>
    <nd ref="553995432"/>
    <nd ref="553995434"/>
    <nd ref="553995436"/>
    <nd ref="553995437"/>
    <nd ref="553995438"/>
    <nd ref="553995441"/>
    <nd ref="553995444"/>
    <nd ref="553995445"/>
    <nd ref="553995447"/>
    <nd ref="553995449"/>
    <nd ref="553995451"/>
    <nd ref="553995452"/>
    <nd ref="553995454"/>
    <nd ref="553995456"/>
    <nd ref="553995457"/>
    <nd ref="553995459"/>
    <nd ref="553995460"/>
    <nd ref="553995461"/>
    <nd ref="553995464"/>
    <nd ref="553995466"/>
    <nd ref="553995467"/>
    <nd ref="553995471"/>
    <nd ref="553995472"/>
    <nd ref="553995473"/>
    <nd ref="553995474"/>
    <nd ref="553995475"/>
    <nd ref="553995477"/>
    <nd ref="553995478"/>
    <nd ref="553995479"/>
    <nd ref="553995481"/>
    <nd ref="553995485"/>
    <nd ref="553995486"/>
    <nd ref="553995488"/>
    <nd ref="553995490"/>
    <nd ref="553995491"/>
    <nd ref="553995492"/>
    <nd ref="553995494"/>
    <nd ref="553995495"/>
    <nd ref="553995496"/>
    <nd ref="553995499"/>
    <nd ref="553995501"/>
    <nd ref="553995502"/>
    <nd ref="553995503"/>
    <nd ref="553995509"/>
    <nd ref="553995510"/>
    <nd ref="553995513"/>
    <nd ref="553995514"/>
    <nd ref="553995515"/>
    <nd ref="553995518"/>
    <nd ref="553995520"/>
    <nd ref="553995522"/>
    <nd ref="553995523"/>
    <nd ref="553995525"/>
    <nd ref="553995527"/>
    <nd ref="176422379"/>
    <nd ref="553995528"/>
    <nd ref="553995530"/>
    <nd ref="553995533"/>
    <nd ref="553995534"/>
    <nd ref="553995535"/>
    <nd ref="553995537"/>
    <nd ref="553995538"/>
    <nd ref="553995540"/>
    <nd ref="553995542"/>
    <tag k="highway" v="tertiary"/>
    <tag k="name" v="James Canyon Drive"/>
    <tag k="tiger:cfcc" v="A41"/>
    <tag k="tiger:county" v="Boulder, CO"/>
    <tag k="tiger:name_base" v="James Canyon"/>
    <tag k="tiger:name_type" v="Dr"/>
    <tag k="tiger:reviewed" v="yes"/>
    <tag k="tiger:separated" v="no"/>
    <tag k="tiger:source" v="tiger_import_dch_v0.6_20070809"/>
    <tag k="tiger:tlid" v="220752493"/>
  </way>
  <way id="43751778" version="1" timestamp="2009-11-04T04:09:31Z" uid="4467" user="Rosscoe" changeset="3030183">
    <nd ref="250438082"/>
    <nd ref="553945537"/>
    <nd ref="553945542"/>
    <nd ref="553944128"/>
  </way>
  <way id="43751778" version="2" timestamp="2009-11-04T04:09:49Z" uid="4467" user="Rosscoe" changeset="3030183">
    <nd ref="250438082"/>
    <nd ref="553945537"/>
    <nd ref="553945542"/>
    <nd ref="553944128"/>
    <tag k="highway" v="residential"/>
    <tag k="name" v="Racecource Crescent"/>
    <tag k="oneway" v="yes"/>
  </way>
  <way id="43751778" version="3" timestamp="2009-11-04T04:10:15Z" uid="4467" user="Rosscoe" changeset="3030183">
    <nd ref="250438082"/>
    <nd ref="553945537"/>
    <nd ref="553945542"/>
    <nd ref="553947566"/>
    <nd ref="553944128"/>
    <tag k="highway" v="residential"/>
    <tag k="name" v="Racecource Crescent"/>
    <tag k="oneway" v="yes"/>
  </way>
  <way id="43751778" version="4" timestamp="2009-11-10T23:54:24Z" uid="4467" user="Rosscoe" changeset="3086609">
    <nd ref="250438082"/>
    <nd ref="553945537"/>
    <nd ref="553945542"/>
    <nd ref="553947566"/>
    <nd ref="553944128"/>
    <tag k="highway" v="residential"/>
    <tag k="name" v="Racecourse Crescent"/>
    <tag k="oneway" v="yes"/>
  </way>
  <way id="43751778" version="5" timestamp="2010-07-09T05:41:53Z" uid="74617" user="JohnSmith" changeset="5170986">
    <nd ref="250438082"/>
    <nd ref="553945537"/>
    <nd ref="553945542"/>
    <nd ref="553947566"/>
    <nd ref="553944128"/>
    <tag k="highway" v="residential"/>
    <tag k="maxspeed" v="50"/>
    <tag k="maxspeed:source" v="default residential speed limit in Australia"/>
    <tag k="name" v="Racecourse Crescent"/>
    <tag k="oneway" v="yes"/>
  </way>
  <way id="43751779" version="1" timestamp="2009-11-04T04:09:35Z" uid="4467" user="Rosscoe" changeset="3030183">
    <nd ref="553944128"/>
    <nd ref="250438103"/>
    <nd ref="250438104"/>
    <tag k="highway" v="residential"/>
    <tag k="name" v="Racecource Crescent"/>
  </way>
  <way id="43751779" version="2" timestamp="2009-11-10T04:17:57Z" uid="129220" user="igc35" changeset="3079796">
    <nd ref="553944128"/>
    <nd ref="250438103"/>
    <nd ref="250438104"/>
    <tag k="highway" v="residential"/>
    <tag k="name" v="Racecourse Crescent"/>
  </way>
  <way id="43751779" version="3" timestamp="2010-07-09T05:41:05Z" uid="74617" user="JohnSmith" changeset="5170986">
    <nd ref="553944128"/>
    <nd ref="250438103"/>
    <nd ref="250438104"/>
    <tag k="highway" v="residential"/>
    <tag k="maxspeed" v="50"/>
    <tag k="maxspeed:source" v="default residential speed limit in Australia"/>
    <tag k="name" v="Racecourse Crescent"/>
  </way>
</osm>
