<?xml version='1.0' encoding='UTF-8'?>
<osm version="0.6" generator="libosmium/2.20.0">
  <way id="43955215" version="1" timestamp="2009-11-07T16:32:39Z" uid="36809" user="pfoten_weg_!_" changeset="3057024">
    <nd ref="558991553"/>
    <nd ref="289063440"/>
    <nd ref="299248907"/>
    <nd ref="299248917"/>
    <nd ref="299248901"/>
    <nd ref="299248790"/>
    <nd ref="32572336"/>
    <tag k="highway" v="residential"/>
    <tag k="name" v="Richard-Wagner-Straße"/>
    <tag k="surface" v="asphalt"/>
  </way>
  <way id="43955215" version="2" timestamp="2009-11-10T21:44:58Z" uid="36809" user="pfoten_weg_!_" changeset="3085788"/>
  <way id="43955216" version="1" timestamp="2009-11-07T16:32:40Z" uid="36809" user="pfoten_weg_!_" changeset="3057024">
    <nd ref="558991558"/>
    <nd ref="437542531"/>
    <nd ref="558991565"/>
    <tag k="highway" v="bus_stop"/>
    <tag k="oneway" v="yes"/>
    <tag k="osmarender:renderName" v="no"/>
    <tag k="route" v="bus"/>
  </way>
  <way id="43955216" version="2" timestamp="2009-11-10T21:45:00Z" uid="36809" user="pfoten_weg_!_" changeset="3085788"/>
  <way id="43955217" version="1" timestamp="2009-11-07T16:32:40Z" uid="36809" user="pfoten_weg_!_" changeset="3057024">
    <nd ref="558991569"/>
    <nd ref="437542534"/>
    <nd ref="558991553"/>
    <tag k="highway" v="bus_stop"/>
    <tag k="oneway" v="yes"/>
    <tag k="osmarender:renderName" v="no"/>
    <tag k="route" v="bus"/>
  </way>
  <way id="43955217" version="2" timestamp="2009-11-10T21:44:59Z" uid="36809" user="pfoten_weg_!_" changeset="3085788"/>
  <way id="43955218" version="1" timestamp="2009-11-07T16:32:41Z" uid="36809" user="pfoten_weg_!_" changeset="3057024">
    <nd ref="558991565"/>
    <nd ref="558991569"/>
    <tag k="highway" v="residential"/>
    <tag k="mapnik:renderName" v="no"/>
    <tag k="name" v="Richard-Wagner-Straße"/>
    <tag k="osmarender:renderName" v="no"/>
    <tag k="surface" v="asphalt"/>
  </way>
  <way id="43955218" version="2" timestamp="2009-11-10T21:45:00Z" uid="36809" user="pfoten_weg_!_" changeset="3085788"/>
  <way id="43955219" version="1" timestamp="2009-11-07T16:32:41Z" uid="36809" user="pfoten_weg_!_" changeset="3057024">
    <nd ref="558991569"/>
    <nd ref="558991558"/>
    <tag k="highway" v="residential"/>
    <tag k="mapnik:renderName" v="no"/>
    <tag k="name" v="Richard-Wagner-Straße"/>
    <tag k="osmarender:renderName" v="no"/>
    <tag k="surface" v="asphalt"/>
  </way>
  <way id="43955219" version="2" timestamp="2009-11-10T21:45:01Z" uid="36809" user="pfoten_weg_!_" changeset="3085788"/>
  <way id="43955220" version="1" timestamp="2009-11-07T16:32:42Z" uid="36809" user="pfoten_weg_!_" changeset="3057024">
    <nd ref="558991558"/>
    <nd ref="558991553"/>
    <tag k="highway" v="residential"/>
    <tag k="mapnik:renderName" v="no"/>
    <tag k="name" v="Richard-Wagner-Straße"/>
    <tag k="osmarender:renderName" v="no"/>
    <tag k="surface" v="asphalt"/>
  </way>
  <way id="43955220" version="2" timestamp="2009-11-10T21:44:59Z" uid="36809" user="pfoten_weg_!_" changeset="3085788"/>
  <way id="43955221" version="2" timestamp="2010-03-28T11:13:51Z" uid="20587" user="balrog-kun" changeset="4254597">
    <nd ref="558991663"/>
    <nd ref="558991670"/>
    <nd ref="558991672"/>
    <tag k="abutters" v="residential"/>
    <tag k="highway" v="service"/>
    <tag k="name" v="Chelsea Court"/>
    <tag k="service" v="alley"/>
    <tag k="tiger:cfcc" v="A41"/>
    <tag k="tiger:county" v="Los Angeles, CA"/>
    <tag k="tiger:name_base" v="Chelsea"/>
    <tag k="tiger:name_type" v="Ct"/>
    <tag k="tiger:reviewed" v="no"/>
    <tag k="tiger:separated" v="no"/>
    <tag k="tiger:source" v="tiger_import_dch_v0.6_20070809"/>
    <tag k="tiger:tlid" v="141559264"/>
    <tag k="tiger:zip_left" v="90403"/>
    <tag k="tiger:zip_right" v="90403"/>
  </way>
  <way id="43955222" version="2" timestamp="2010-03-28T11:13:51Z" uid="20587" user="balrog-kun" changeset="4254597">
    <nd ref="558991685"/>
    <nd ref="558991692"/>
    <tag k="abutters" v="residential"/>
    <tag k="highway" v="service"/>
    <tag k="name" v="Arizona Place South"/>
    <tag k="service" v="alley"/>
  </way>
  <way id="43955326" version="3" timestamp="2010-01-29T07:58:44Z" uid="43863" user="Rundling" changeset="3741280">
    <nd ref="558994227"/>
    <nd ref="559602429"/>
    <nd ref="558994232"/>
    <nd ref="622290458"/>
    <nd ref="558994221"/>
    <nd ref="559602430"/>
    <nd ref="558994222"/>
    <nd ref="558994227"/>
    <tag k="landuse" v="grass"/>
  </way>
  <way id="43955326" version="4" timestamp="2011-11-19T19:57:36Z" uid="389572" user="Wirbel_75" changeset="9876738">
    <nd ref="558994227"/>
    <nd ref="559602429"/>
    <nd ref="558994232"/>
    <nd ref="558962724"/>
    <nd ref="558962722"/>
    <nd ref="559602430"/>
    <nd ref="558994222"/>
    <nd ref="558994227"/>
    <tag k="landuse" v="grass"/>
  </way>
  <way id="43955512" version="1" timestamp="2009-11-07T16:39:47Z" uid="74027" user="katzlbt" changeset="3057087">
    <nd ref="558999037"/>
    <nd ref="558999043"/>
    <nd ref="558999048"/>
    <nd ref="558999052"/>
    <nd ref="558999057"/>
    <nd ref="558999078"/>
    <nd ref="558999081"/>
    <nd ref="558999086"/>
    <nd ref="558999089"/>
    <nd ref="558999093"/>
    <nd ref="558999097"/>
    <nd ref="558999102"/>
    <nd ref="558999108"/>
    <nd ref="558999110"/>
    <nd ref="558999112"/>
    <nd ref="558999116"/>
    <nd ref="558999037"/>
    <tag k="landuse" v="meadow"/>
    <tag k="name" v="Nockbödele"/>
  </way>
  <way id="43955512" version="2" timestamp="2012-02-20T15:29:02Z" uid="606250" user="katzlmacher" changeset="10741596"/>
  <way id="43955678" version="1" timestamp="2009-11-07T16:46:00Z" uid="30632" user="antblant" changeset="3057139">
    <nd ref="559005169"/>
    <nd ref="559005139"/>
    <nd ref="559005172"/>
    <nd ref="559005174"/>
    <nd ref="559005169"/>
    <tag k="addr:housenumber" v="29"/>
    <tag k="addr:street" v="Wielka Odrzańska"/>
    <tag k="building" v="yes"/>
    <tag k="source" v="gis.um.szczecin.pl"/>
  </way>
  <way id="43955678" version="2" timestamp="2010-03-25T08:51:31Z" uid="20587" user="balrog-kun" changeset="4227478"/>
  <way id="43955679" version="1" timestamp="2009-11-07T16:46:00Z" uid="30632" user="antblant" changeset="3057139">
    <nd ref="559005140"/>
    <nd ref="559005142"/>
    <nd ref="559005133"/>
    <nd ref="559005135"/>
    <nd ref="559005105"/>
    <nd ref="559005140"/>
    <tag k="addr:street" v="Wielka Odrzańska"/>
    <tag k="building" v="yes"/>
    <tag k="source" v="gis.um.szczecin.pl"/>
  </way>
  <way id="43955679" version="2" timestamp="2010-03-25T08:51:30Z" uid="20587" user="balrog-kun" changeset="4227478"/>
  <way id="43955680" version="1" timestamp="2009-11-07T16:46:00Z" uid="30632" user="antblant" changeset="3057139">
    <nd ref="559005110"/>
    <nd ref="559005140"/>
    <nd ref="559005105"/>
    <nd ref="559005112"/>
    <nd ref="559005110"/>
    <tag k="addr:housenumber" v="39"/>
    <tag k="addr:street" v="Kardynała Stefana Wyszyńskiego"/>
    <tag k="building" v="yes"/>
    <tag k="source" v="gis.um.szczecin.pl"/>
  </way>
  <way id="43955680" version="2" timestamp="2010-03-25T08:51:31Z" uid="20587" user="balrog-kun" changeset="4227478"/>
  <way id="43955681" version="1" timestamp="2009-11-07T16:46:00Z" uid="30632" user="antblant" changeset="3057139">
    <nd ref="559005133"/>
    <nd ref="559005142"/>
    <nd ref="559005146"/>
    <nd ref="559005139"/>
    <nd ref="559005169"/>
    <nd ref="559005133"/>
    <tag k="addr:housenumber" v="30"/>
    <tag k="addr:street" v="Wielka Odrzańska"/>
    <tag k="building" v="yes"/>
    <tag k="source" v="gis.um.szczecin.pl"/>
  </way>
  <way id="43955681" version="2" timestamp="2010-03-25T08:51:31Z" uid="20587" user="balrog-kun" changeset="4227478"/>
  <way id="43955682" version="1" timestamp="2009-11-07T16:46:00Z" uid="30632" user="antblant" changeset="3057139">
    <nd ref="559005172"/>
    <nd ref="559005178"/>
    <nd ref="559005179"/>
    <nd ref="559005180"/>
    <nd ref="559005175"/>
    <nd ref="559005174"/>
    <nd ref="559005172"/>
    <tag k="addr:housenumber" v="28"/>
    <tag k="addr:street" v="Wielka Odrzańska"/>
    <tag k="building" v="yes"/>
    <tag k="source" v="gis.um.szczecin.pl"/>
  </way>
  <way id="43955682" version="2" timestamp="2010-03-25T08:51:31Z" uid="20587" user="balrog-kun" changeset="4227478"/>
  <way id="43955683" version="1" timestamp="2009-11-07T16:46:00Z" uid="30632" user="antblant" changeset="3057139">
    <nd ref="559005147"/>
    <nd ref="559005182"/>
    <nd ref="559005185"/>
    <nd ref="559005178"/>
    <nd ref="559005179"/>
    <nd ref="559005180"/>
    <nd ref="559005187"/>
    <nd ref="559005152"/>
    <nd ref="559005147"/>
    <tag k="addr:housenumber" v="28a"/>
    <tag k="addr:street" v="Wielka Odrzańska"/>
    <tag k="building" v="yes"/>
    <tag k="source" v="gis.um.szczecin.pl"/>
  </way>
  <way id="43955683" version="2" timestamp="2010-03-25T08:51:31Z" uid="20587" user="balrog-kun" changeset="4227478"/>
  <way id="43955684" version="1" timestamp="2009-11-07T16:46:00Z" uid="30632" user="antblant" changeset="3057139">
    <nd ref="559005187"/>
    <nd ref="559005188"/>
    <nd ref="559005149"/>
    <nd ref="559005152"/>
    <nd ref="559005187"/>
    <tag k="addr:housenumber" v="1"/>
    <tag k="addr:street" v="Osiek"/>
    <tag k="building" v="yes"/>
    <tag k="source" v="gis.um.szczecin.pl"/>
  </way>
  <way id="43955684" version="2" timestamp="2010-03-25T08:51:31Z" uid="20587" user="balrog-kun" changeset="4227478"/>
  <way id="43955685" version="1" timestamp="2009-11-07T16:46:01Z" uid="30632" user="antblant" changeset="3057139">
    <nd ref="559005149"/>
    <nd ref="559005155"/>
    <nd ref="559005191"/>
    <nd ref="559005192"/>
    <nd ref="559005196"/>
    <nd ref="559005188"/>
    <nd ref="559005149"/>
    <tag k="addr:housenumber" v="6"/>
    <tag k="addr:street" v="Sienna"/>
    <tag k="building" v="yes"/>
    <tag k="source" v="gis.um.szczecin.pl"/>
  </way>
  <way id="43955685" version="2" timestamp="2010-03-25T08:51:31Z" uid="20587" user="balrog-kun" changeset="4227478"/>
  <way id="43955686" version="1" timestamp="2009-11-07T16:46:01Z" uid="30632" user="antblant" changeset="3057139">
    <nd ref="559005155"/>
    <nd ref="559005157"/>
    <nd ref="559005159"/>
    <nd ref="559005162"/>
    <nd ref="559005126"/>
    <nd ref="559005191"/>
    <nd ref="559005155"/>
    <tag k="addr:housenumber" v="5a"/>
    <tag k="addr:street" v="Sienna"/>
    <tag k="building" v="yes"/>
    <tag k="source" v="gis.um.szczecin.pl"/>
  </way>
  <way id="43955686" version="2" timestamp="2010-03-25T08:51:31Z" uid="20587" user="balrog-kun" changeset="4227478"/>
  <way id="43955687" version="1" timestamp="2009-11-07T16:46:01Z" uid="30632" user="antblant" changeset="3057139">
    <nd ref="559005162"/>
    <nd ref="559005164"/>
    <nd ref="559005167"/>
    <nd ref="559005127"/>
    <nd ref="559005128"/>
    <nd ref="559005126"/>
    <nd ref="559005162"/>
    <tag k="addr:housenumber" v="5"/>
    <tag k="addr:street" v="Sienna"/>
    <tag k="building" v="yes"/>
    <tag k="source" v="gis.um.szczecin.pl"/>
  </way>
  <way id="43955687" version="2" timestamp="2010-03-25T08:51:31Z" uid="20587" user="balrog-kun" changeset="4227478"/>
  <way id="43955688" version="1" timestamp="2009-11-07T16:46:01Z" uid="30632" user="antblant" changeset="3057139">
    <nd ref="559005127"/>
    <nd ref="559005129"/>
    <nd ref="559005130"/>
    <nd ref="559005128"/>
    <nd ref="559005127"/>
    <tag k="addr:housenumber" v="4; 4a"/>
    <tag k="addr:street" v="Sienna"/>
    <tag k="building" v="yes"/>
    <tag k="source" v="gis.um.szczecin.pl"/>
  </way>
  <way id="43955688" version="2" timestamp="2010-03-25T08:51:31Z" uid="20587" user="balrog-kun" changeset="4227478"/>
  <way id="43955689" version="1" timestamp="2009-11-07T16:46:01Z" uid="30632" user="antblant" changeset="3057139">
    <nd ref="559005112"/>
    <nd ref="559005114"/>
    <nd ref="559005116"/>
    <nd ref="559005118"/>
    <nd ref="559005119"/>
    <nd ref="559005122"/>
    <nd ref="559005125"/>
    <nd ref="559005110"/>
    <nd ref="559005112"/>
    <tag k="addr:housenumber" v="37"/>
    <tag k="addr:street" v="Kardynała Stefana Wyszyńskiego"/>
    <tag k="building" v="yes"/>
    <tag k="source" v="gis.um.szczecin.pl"/>
  </way>
  <way id="43955689" version="2" timestamp="2010-03-25T08:51:31Z" uid="20587" user="balrog-kun" changeset="4227478"/>
  <way id="43955690" version="1" timestamp="2009-11-07T16:46:01Z" uid="30632" user="antblant" changeset="3057139">
    <nd ref="559005129"/>
    <nd ref="559005119"/>
    <nd ref="559005118"/>
    <nd ref="559005116"/>
    <nd ref="559005114"/>
    <nd ref="559005108"/>
    <nd ref="559005130"/>
    <nd ref="559005129"/>
    <tag k="addr:housenumber" v="1;2;3"/>
    <tag k="addr:street" v="Sienna"/>
    <tag k="building" v="yes"/>
    <tag k="source" v="gis.um.szczecin.pl"/>
  </way>
  <way id="43955690" version="2" timestamp="2010-03-25T08:51:31Z" uid="20587" user="balrog-kun" changeset="4227478"/>
  <way id="43955706" version="3" timestamp="2010-03-28T11:13:51Z" uid="20587" user="balrog-kun" changeset="4254597">
    <nd ref="559005874"/>
    <nd ref="559005666"/>
    <tag k="highway" v="residential"/>
    <tag k="name" v="West Victoria Street"/>
    <tag k="oneway" v="yes"/>
    <tag k="tiger:cfcc" v="A41"/>
    <tag k="tiger:county" v="San Bernardino, CA"/>
    <tag k="tiger:name_base" v="Victoria"/>
    <tag k="tiger:name_direction_prefix" v="W"/>
    <tag k="tiger:name_type" v="St"/>
    <tag k="tiger:reviewed" v="no"/>
    <tag k="tiger:separated" v="no"/>
    <tag k="tiger:source" v="tiger_import_dch_v0.6_20070809"/>
    <tag k="tiger:tlid" v="144643777"/>
  </way>
  <way id="43955744" version="4" timestamp="2010-09-22T11:26:35Z" uid="115477" user="wowik" changeset="5844611">
    <nd ref="921224823"/>
    <nd ref="921224826"/>
    <nd ref="559007629"/>
    <nd ref="559048703"/>
    <tag k="construction" v="trunk"/>
    <tag k="highway" v="construction"/>
    <tag k="ref" v="Приморское кольцо"/>
  </way>
  <way id="43955744" version="5" timestamp="2010-09-22T11:28:11Z" uid="115477" user="wowik" changeset="5844611">
    <nd ref="921224823"/>
    <nd ref="921224826"/>
    <nd ref="559007629"/>
    <tag k="construction" v="trunk"/>
    <tag k="highway" v="construction"/>
    <tag k="ref" v="Приморское кольцо"/>
  </way>
  <way id="43955744" version="6" timestamp="2011-07-25T11:39:01Z" uid="481934" user="iWowik" changeset="8825324"/>
  <way id="43955756" version="2" timestamp="2010-03-28T11:13:51Z" uid="20587" user="balrog-kun" changeset="4254597">
    <nd ref="54866244"/>
    <nd ref="54866246"/>
    <nd ref="54696010"/>
    <tag k="highway" v="residential"/>
    <tag k="name" v="West Morgan Street"/>
    <tag k="tiger:cfcc" v="A41"/>
    <tag k="tiger:county" v="San Bernardino, CA"/>
    <tag k="tiger:name_base" v="Morgan"/>
    <tag k="tiger:name_direction_prefix" v="W"/>
    <tag k="tiger:name_type" v="St"/>
    <tag k="tiger:reviewed" v="no"/>
    <tag k="tiger:separated" v="no"/>
    <tag k="tiger:source" v="tiger_import_dch_v0.6_20070809"/>
    <tag k="tiger:tlid" v="144731653"/>
    <tag k="tiger:zip_left" v="92376"/>
    <tag k="tiger:zip_right" v="92376"/>
  </way>
  <way id="43955761" version="2" timestamp="2010-03-28T11:13:52Z" uid="20587" user="balrog-kun" changeset="4254597">
    <nd ref="559009822"/>
    <nd ref="559009831"/>
    <tag k="abutters" v="residential"/>
    <tag k="highway" v="service"/>
    <tag k="name" v="22nd Court"/>
    <tag k="service" v="alley"/>
  </way>
  <way id="43955762" version="3" timestamp="2010-03-28T11:13:52Z" uid="20587" user="balrog-kun" changeset="4254597">
    <nd ref="559009861"/>
    <nd ref="438316068"/>
    <tag k="abutters" v="residential"/>
    <tag k="highway" v="service"/>
    <tag k="name" v="20th Court"/>
    <tag k="service" v="alley"/>
  </way>
</osm>
