<?xml version='1.0' encoding='UTF-8'?>
<osm version="0.6" generator="libosmium/2.20.0">
  <way id="43989934" version="6" timestamp="2010-04-04T01:36:30Z" uid="20587" user="balrog-kun" changeset="4318136">
    <nd ref="559237464"/>
    <nd ref="559366811"/>
    <nd ref="559366812"/>
    <tag k="highway" v="primary"/>
    <tag k="name" v="Sky Pond Drive"/>
    <tag k="oneway" v="yes"/>
  </way>
  <way id="43989934" version="7" timestamp="2010-04-15T21:58:02Z" uid="259072" user="nsx2000" changeset="4434985">
    <nd ref="559237464"/>
    <nd ref="559366811"/>
    <nd ref="559366812"/>
    <tag k="highway" v="secondary"/>
    <tag k="name" v="Sky Pond Drive"/>
    <tag k="oneway" v="yes"/>
  </way>
  <way id="43989939" version="4" timestamp="2010-04-04T01:36:30Z" uid="20587" user="balrog-kun" changeset="4318136">
    <nd ref="559366847"/>
    <nd ref="559366956"/>
    <nd ref="559366957"/>
    <nd ref="559366958"/>
    <tag k="highway" v="primary"/>
    <tag k="name" v="Sky Pond Drive"/>
    <tag k="oneway" v="yes"/>
  </way>
  <way id="43989939" version="5" timestamp="2010-04-15T21:57:53Z" uid="259072" user="nsx2000" changeset="4434985">
    <nd ref="559366847"/>
    <nd ref="559366956"/>
    <nd ref="559366957"/>
    <nd ref="559366958"/>
    <tag k="highway" v="secondary"/>
    <tag k="name" v="Sky Pond Drive"/>
    <tag k="oneway" v="yes"/>
  </way>
  <way id="43989986" version="2" timestamp="2010-07-09T21:05:54Z" uid="74617" user="JohnSmith" changeset="5176956">
    <nd ref="559367321"/>
    <nd ref="559367319"/>
    <nd ref="559367320"/>
    <tag k="highway" v="residential"/>
    <tag k="maxspeed" v="50"/>
    <tag k="maxspeed:source" v="default residential speed limit in Australia"/>
    <tag k="source" v="survey"/>
  </way>
  <way id="43989986" version="3" timestamp="2012-01-19T08:30:06Z" uid="147510" user="woodpeck_fixbot" changeset="10434386">
    <nd ref="559367321"/>
    <nd ref="559367319"/>
    <nd ref="559367320"/>
    <tag k="highway" v="residential"/>
    <tag k="source" v="survey"/>
  </way>
  <way id="43989987" version="4" timestamp="2010-07-09T22:47:50Z" uid="74617" user="JohnSmith" changeset="5176956">
    <nd ref="559367324"/>
    <nd ref="583260327"/>
    <nd ref="330813975"/>
    <tag k="highway" v="residential"/>
    <tag k="maxspeed" v="50"/>
    <tag k="maxspeed:source" v="default residential speed limit in Australia"/>
    <tag k="name" v="Owen Road"/>
    <tag k="source" v="survey"/>
  </way>
  <way id="43989987" version="5" timestamp="2012-01-19T08:30:08Z" uid="147510" user="woodpeck_fixbot" changeset="10434386">
    <nd ref="559367324"/>
    <nd ref="583260327"/>
    <nd ref="330813975"/>
    <tag k="highway" v="residential"/>
    <tag k="name" v="Owen Road"/>
    <tag k="source" v="survey"/>
  </way>
  <way id="43989988" version="3" timestamp="2010-07-09T22:49:56Z" uid="74617" user="JohnSmith" changeset="5176956">
    <nd ref="559367324"/>
    <nd ref="559367323"/>
    <nd ref="559367322"/>
    <tag k="highway" v="residential"/>
    <tag k="maxspeed" v="50"/>
    <tag k="maxspeed:source" v="default residential speed limit in Australia"/>
    <tag k="name" v="Brook Road"/>
    <tag k="source" v="survey"/>
    <tag k="source:name" v="survey"/>
  </way>
  <way id="43989988" version="4" timestamp="2012-01-19T08:30:10Z" uid="147510" user="woodpeck_fixbot" changeset="10434386">
    <nd ref="559367324"/>
    <nd ref="559367323"/>
    <nd ref="559367322"/>
    <tag k="highway" v="residential"/>
    <tag k="name" v="Brook Road"/>
    <tag k="source" v="survey"/>
    <tag k="source:name" v="survey"/>
  </way>
</osm>
