<?xml version='1.0' encoding='UTF-8'?>
<osm version="0.6" generator="libosmium/2.20.0">
  <way id="4400032" version="6" timestamp="2010-03-27T07:43:38Z" uid="20587" user="balrog-kun" changeset="4244079">
    <nd ref="471174145"/>
    <nd ref="25510538"/>
    <nd ref="17596237"/>
    <nd ref="24396269"/>
    <nd ref="24396267"/>
    <nd ref="25712271"/>
    <nd ref="25274512"/>
    <nd ref="118507253"/>
    <nd ref="25464326"/>
    <nd ref="25464325"/>
    <nd ref="25583738"/>
    <nd ref="25583739"/>
    <nd ref="26068290"/>
    <nd ref="25712270"/>
    <tag k="created_by" v="Potlatch 0.10f"/>
    <tag k="highway" v="secondary"/>
    <tag k="name" v="Glendale Boulevard"/>
  </way>
  <way id="4400032" version="7" timestamp="2011-04-07T15:16:22Z" uid="36489" user="jerjozwik" changeset="7795426">
    <nd ref="471174145"/>
    <nd ref="25510538"/>
    <nd ref="17596237"/>
    <nd ref="24396269"/>
    <nd ref="24396267"/>
    <nd ref="25712271"/>
    <nd ref="25274512"/>
    <nd ref="118507253"/>
    <nd ref="25464326"/>
    <nd ref="25464325"/>
    <nd ref="25583738"/>
    <tag k="highway" v="secondary"/>
    <tag k="name" v="Glendale Boulevard"/>
  </way>
  <way id="4400033" version="5" timestamp="2010-03-27T07:43:38Z" uid="20587" user="balrog-kun" changeset="4244079">
    <nd ref="17596242"/>
    <nd ref="363663444"/>
    <tag k="bridge" v="yes"/>
    <tag k="created_by" v="Potlatch 0.10f"/>
    <tag k="highway" v="secondary"/>
    <tag k="layer" v="2"/>
    <tag k="name" v="Glendale Boulevard"/>
    <tag k="oneway" v="yes"/>
  </way>
  <way id="4400033" version="6" timestamp="2011-07-03T21:18:48Z" uid="4951" user="PeterIto" changeset="8624157">
    <nd ref="17596242"/>
    <nd ref="363663444"/>
    <tag k="bridge" v="yes"/>
    <tag k="highway" v="secondary"/>
    <tag k="layer" v="1"/>
    <tag k="name" v="Glendale Boulevard"/>
    <tag k="oneway" v="yes"/>
  </way>
  <way id="4400034" version="6" timestamp="2010-03-27T07:43:39Z" uid="20587" user="balrog-kun" changeset="4244079">
    <nd ref="29546822"/>
    <nd ref="365467086"/>
    <nd ref="18153912"/>
    <nd ref="365467087"/>
    <nd ref="61083242"/>
    <nd ref="365467088"/>
    <nd ref="26901888"/>
    <tag k="bridge" v="yes"/>
    <tag k="created_by" v="Potlatch 0.10f"/>
    <tag k="highway" v="secondary"/>
    <tag k="layer" v="3"/>
    <tag k="name" v="Hyperion Avenue"/>
  </way>
  <way id="4400034" version="7" timestamp="2010-09-14T11:17:26Z" uid="82317" user="AM909" changeset="5777521">
    <nd ref="29546822"/>
    <nd ref="365467086"/>
    <nd ref="18153912"/>
    <nd ref="365467087"/>
    <nd ref="61083242"/>
    <nd ref="365467088"/>
    <nd ref="26901888"/>
    <tag k="FIXME" v="Signed bridge 53-1928 in bridge_ref pic. Reported 2010-09."/>
    <tag k="bridge" v="yes"/>
    <tag k="bridge_name" v="Hyperion Ave Viaduct"/>
    <tag k="bridge_ref" v="5/LA/53-1069"/>
    <tag k="highway" v="secondary"/>
    <tag k="is_in:state_code" v="CA"/>
    <tag k="layer" v="3"/>
    <tag k="milepost:county" v="23.72"/>
    <tag k="name" v="Hyperion Avenue"/>
    <tag k="note" v="Bridge ref pic from I-5 North."/>
    <tag k="source:bridge" v="usgs_imagery;survey;image;CDOT"/>
    <tag k="source_ref:bridge" v="AM909_DSCV3542"/>
  </way>
  <way id="4400034" version="8" timestamp="2011-07-03T21:18:48Z" uid="4951" user="PeterIto" changeset="8624157">
    <nd ref="29546822"/>
    <nd ref="365467086"/>
    <nd ref="18153912"/>
    <nd ref="365467087"/>
    <nd ref="61083242"/>
    <nd ref="365467088"/>
    <nd ref="26901888"/>
    <tag k="FIXME" v="Signed bridge 53-1928 in bridge_ref pic. Reported 2010-09."/>
    <tag k="bridge" v="yes"/>
    <tag k="bridge_name" v="Hyperion Ave Viaduct"/>
    <tag k="bridge_ref" v="5/LA/53-1069"/>
    <tag k="highway" v="secondary"/>
    <tag k="is_in:state_code" v="CA"/>
    <tag k="layer" v="1"/>
    <tag k="milepost:county" v="23.72"/>
    <tag k="name" v="Hyperion Avenue"/>
    <tag k="note" v="Bridge ref pic from I-5 North."/>
    <tag k="source:bridge" v="usgs_imagery;survey;image;CDOT"/>
    <tag k="source_ref:bridge" v="AM909_DSCV3542"/>
  </way>
  <way id="4400050" version="9" timestamp="2010-03-27T07:43:39Z" uid="20587" user="balrog-kun" changeset="4244079">
    <nd ref="26901998"/>
    <nd ref="21663052"/>
    <nd ref="20189447"/>
    <nd ref="24960504"/>
    <nd ref="25936355"/>
    <nd ref="16850961"/>
    <nd ref="431431067"/>
    <nd ref="295206294"/>
    <nd ref="295206342"/>
    <nd ref="295206343"/>
    <nd ref="191445959"/>
    <nd ref="15855220"/>
    <tag k="highway" v="secondary"/>
    <tag k="name" v="Fletcher Drive"/>
  </way>
  <way id="4400050" version="10" timestamp="2011-11-12T19:13:57Z" uid="128470" user="vkungys" changeset="9807508">
    <nd ref="26901998"/>
    <nd ref="1500422673"/>
    <nd ref="21663052"/>
    <nd ref="20189447"/>
    <nd ref="24960504"/>
    <nd ref="25936355"/>
    <nd ref="16850961"/>
    <nd ref="431431067"/>
    <nd ref="295206294"/>
    <nd ref="295206342"/>
    <nd ref="295206343"/>
    <nd ref="191445959"/>
    <nd ref="15855220"/>
    <tag k="highway" v="secondary"/>
    <tag k="name" v="Fletcher Drive"/>
  </way>
  <way id="4400050" version="11" timestamp="2012-02-05T20:48:00Z" uid="12434" user="nm7s9" changeset="10598090">
    <nd ref="26901998"/>
    <nd ref="1500422673"/>
    <nd ref="1619399788"/>
    <nd ref="20189447"/>
    <nd ref="24960504"/>
    <nd ref="25936355"/>
    <nd ref="16850961"/>
    <nd ref="431431067"/>
    <nd ref="295206294"/>
    <nd ref="295206342"/>
    <nd ref="295206343"/>
    <nd ref="191445959"/>
    <nd ref="15855220"/>
    <tag k="highway" v="secondary"/>
    <tag k="name" v="Fletcher Drive"/>
  </way>
  <way id="4400050" version="12" timestamp="2012-02-05T21:03:16Z" uid="12434" user="nm7s9" changeset="10598222">
    <nd ref="26901998"/>
    <nd ref="1500422673"/>
    <nd ref="1619399788"/>
    <nd ref="20189447"/>
    <nd ref="24960504"/>
    <nd ref="1619424528"/>
    <nd ref="16850961"/>
    <nd ref="431431067"/>
    <nd ref="295206294"/>
    <nd ref="295206342"/>
    <nd ref="295206343"/>
    <nd ref="191445959"/>
    <nd ref="15855220"/>
    <tag k="highway" v="secondary"/>
    <tag k="name" v="Fletcher Drive"/>
  </way>
  <way id="4400051" version="3" timestamp="2010-03-27T07:43:39Z" uid="20587" user="balrog-kun" changeset="4244079">
    <nd ref="26901998"/>
    <nd ref="20842317"/>
    <tag k="bridge" v="yes"/>
    <tag k="highway" v="secondary"/>
    <tag k="layer" v="1"/>
    <tag k="name" v="Fletcher Drive"/>
  </way>
  <way id="4400063" version="5" timestamp="2010-03-27T07:43:39Z" uid="20587" user="balrog-kun" changeset="4244079">
    <nd ref="21662891"/>
    <nd ref="21662890"/>
    <nd ref="21662889"/>
    <nd ref="21662888"/>
    <nd ref="21662887"/>
    <nd ref="193391775"/>
    <nd ref="21662886"/>
    <nd ref="21662885"/>
    <nd ref="68267602"/>
    <nd ref="21662884"/>
    <nd ref="21662883"/>
    <tag k="highway" v="residential"/>
    <tag k="name" v="Park Row Drive"/>
  </way>
  <way id="4400063" version="6" timestamp="2012-01-16T22:44:10Z" uid="351693" user="ctr112280" changeset="10413272">
    <nd ref="21662891"/>
    <nd ref="1593912296"/>
    <nd ref="21662890"/>
    <nd ref="1593912362"/>
    <nd ref="21662889"/>
    <nd ref="1593912288"/>
    <nd ref="1593912320"/>
    <nd ref="21662888"/>
    <nd ref="1593912353"/>
    <nd ref="1593912276"/>
    <nd ref="1593912335"/>
    <nd ref="21662887"/>
    <nd ref="1593912334"/>
    <nd ref="193391775"/>
    <nd ref="1593912337"/>
    <nd ref="1593912344"/>
    <nd ref="21662886"/>
    <nd ref="21662885"/>
    <nd ref="1593912364"/>
    <nd ref="68267602"/>
    <nd ref="1593912306"/>
    <nd ref="21662884"/>
    <nd ref="1593912297"/>
    <nd ref="1593912342"/>
    <nd ref="1593912355"/>
    <nd ref="21662883"/>
    <tag k="highway" v="service"/>
    <tag k="name" v="Park Row Drive East"/>
  </way>
  <way id="4400064" version="4" timestamp="2010-03-27T07:43:39Z" uid="20587" user="balrog-kun" changeset="4244079">
    <nd ref="21662878"/>
    <nd ref="379964387"/>
    <tag k="bridge" v="yes"/>
    <tag k="created_by" v="JOSM"/>
    <tag k="highway" v="residential"/>
    <tag k="layer" v="2"/>
    <tag k="name" v="Park Row Drive"/>
  </way>
  <way id="4400064" version="5" timestamp="2011-07-03T06:15:07Z" uid="4951" user="PeterIto" changeset="8614673">
    <nd ref="21662878"/>
    <nd ref="379964387"/>
    <tag k="bridge" v="yes"/>
    <tag k="highway" v="residential"/>
    <tag k="layer" v="1"/>
    <tag k="name" v="Park Row Drive"/>
  </way>
  <way id="4400064" version="6" timestamp="2012-01-16T23:11:50Z" uid="351693" user="ctr112280" changeset="10413471">
    <nd ref="21662878"/>
    <nd ref="379964387"/>
    <tag k="bridge" v="yes"/>
    <tag k="highway" v="service"/>
    <tag k="layer" v="1"/>
    <tag k="name" v="Park Row Drive"/>
  </way>
  <way id="4400144" version="1" timestamp="2007-03-30T11:48:13Z" uid="6454" user="B10xxx" changeset="249869">
    <nd ref="20246266"/>
    <nd ref="26874404"/>
    <nd ref="26874405"/>
    <tag k="created_by" v="JOSM"/>
    <tag k="highway" v="secondary"/>
    <tag k="name" v="Klingeloeferstrasse"/>
  </way>
  <way id="4400144" version="2" timestamp="2007-11-07T20:52:21Z" uid="18123" user="BlackMagic" changeset="433856">
    <nd ref="20246266"/>
    <nd ref="26874404"/>
    <nd ref="26874405"/>
    <tag k="created_by" v="Potlatch 0.4c"/>
    <tag k="highway" v="secondary"/>
    <tag k="name" v="Klingelhöferstraße"/>
    <tag k="oneway" v="yes"/>
  </way>
  <way id="4400144" version="3" timestamp="2007-12-03T15:35:50Z" uid="16447" user="Wilmersdorfer" changeset="54807">
    <nd ref="20246266"/>
    <nd ref="26874404"/>
    <nd ref="26874405"/>
    <tag k="created_by" v="Potlatch 0.4c"/>
    <tag k="highway" v="secondary"/>
    <tag k="name" v="Klingelhöferstraße"/>
    <tag k="oneway" v="yes"/>
    <tag k="osmarender:renderName" v="no"/>
  </way>
  <way id="4400144" version="4" timestamp="2008-06-16T12:40:15Z" uid="44786" user="makracht" changeset="190350">
    <nd ref="20246266"/>
    <nd ref="26874404"/>
    <nd ref="26874405"/>
    <tag k="created_by" v="Potlatch 0.9c"/>
    <tag k="highway" v="secondary"/>
    <tag k="name" v="Klingelhöferstraße"/>
    <tag k="oneway" v="yes"/>
    <tag k="osmarender:renderName" v="no"/>
    <tag k="ref" v="100"/>
    <tag k="route" v="bus"/>
  </way>
  <way id="4400144" version="5" timestamp="2008-06-16T15:39:33Z" uid="44786" user="makracht" changeset="190350">
    <nd ref="20246266"/>
    <nd ref="26874404"/>
    <nd ref="26874405"/>
    <tag k="bus_ref" v="100"/>
    <tag k="created_by" v="Potlatch 0.9c"/>
    <tag k="highway" v="secondary"/>
    <tag k="name" v="Klingelhöferstraße"/>
    <tag k="oneway" v="yes"/>
    <tag k="osmarender:renderName" v="no"/>
    <tag k="route" v="bus"/>
  </way>
  <way id="4400144" version="6" timestamp="2008-06-19T10:03:38Z" uid="44786" user="makracht" changeset="219268">
    <nd ref="20246266"/>
    <nd ref="26874404"/>
    <nd ref="26874405"/>
    <tag k="created_by" v="Potlatch 0.9c"/>
    <tag k="highway" v="secondary"/>
    <tag k="name" v="Klingelhöferstraße"/>
    <tag k="oneway" v="yes"/>
    <tag k="osmarender:renderName" v="no"/>
    <tag k="route" v="bus"/>
  </way>
  <way id="4400144" version="7" timestamp="2008-08-05T14:36:44Z" uid="10549" user="toaster" changeset="75682">
    <nd ref="20246266"/>
    <nd ref="26874404"/>
    <nd ref="283645096"/>
    <nd ref="26874405"/>
    <tag k="created_by" v="Potlatch 0.9c"/>
    <tag k="highway" v="secondary"/>
    <tag k="name" v="Klingelhöferstraße"/>
    <tag k="oneway" v="yes"/>
    <tag k="osmarender:renderName" v="no"/>
    <tag k="route" v="bus"/>
  </way>
  <way id="4400144" version="8" timestamp="2009-04-08T19:43:27Z" uid="6669" user="Elwood" changeset="324902">
    <nd ref="20246266"/>
    <nd ref="26874404"/>
    <nd ref="283645096"/>
    <nd ref="26874405"/>
    <tag k="created_by" v="Potlatch 0.9c"/>
    <tag k="highway" v="secondary"/>
    <tag k="name" v="Klingelhöferstraße"/>
    <tag k="oneway" v="yes"/>
    <tag k="osmarender:renderName" v="no"/>
    <tag k="postal_code" v="10785"/>
    <tag k="route" v="bus"/>
  </way>
  <way id="4400144" version="9" timestamp="2009-07-19T10:39:17Z" uid="34417" user="TobHaeg" changeset="1871871">
    <nd ref="20246266"/>
    <nd ref="26874404"/>
    <nd ref="283645096"/>
    <nd ref="26874405"/>
    <tag k="highway" v="secondary"/>
    <tag k="name" v="Klingelhöferstraße"/>
    <tag k="oneway" v="yes"/>
    <tag k="osmarender:renderName" v="no"/>
    <tag k="postal_code" v="10785"/>
    <tag k="route" v="bus"/>
  </way>
  <way id="4400144" version="10" timestamp="2009-11-30T15:40:56Z" uid="6669" user="Elwood" changeset="3256762">
    <nd ref="20246266"/>
    <nd ref="26874404"/>
    <nd ref="283645096"/>
    <nd ref="26874405"/>
    <tag k="highway" v="secondary"/>
    <tag k="name" v="Klingelhöferstraße"/>
    <tag k="oneway" v="yes"/>
    <tag k="osmarender:renderName" v="no"/>
    <tag k="postal_code" v="10785"/>
  </way>
  <way id="4400144" version="11" timestamp="2010-01-21T03:05:39Z" uid="26139" user="dieterdreist" changeset="3672045">
    <nd ref="20246266"/>
    <nd ref="26874404"/>
    <nd ref="283645096"/>
    <nd ref="617475600"/>
    <nd ref="617475603"/>
    <tag k="highway" v="secondary"/>
    <tag k="name" v="Klingelhöferstraße"/>
    <tag k="oneway" v="yes"/>
    <tag k="osmarender:renderName" v="no"/>
    <tag k="postal_code" v="10785"/>
  </way>
  <way id="4400144" version="12" timestamp="2011-09-01T02:22:48Z" uid="207745" user="NE2" changeset="9181205">
    <nd ref="20246266"/>
    <nd ref="26874404"/>
    <nd ref="283645096"/>
    <nd ref="617475600"/>
    <nd ref="617475603"/>
    <tag k="highway" v="secondary"/>
    <tag k="name" v="Klingelhöferstraße"/>
    <tag k="oneway" v="yes"/>
    <tag k="postal_code" v="10785"/>
  </way>
  <way id="4400144" version="13" timestamp="2012-03-06T19:01:23Z" uid="6669" user="Elwood" changeset="10893260"/>
  <way id="4400158" version="1" timestamp="2007-03-30T12:24:16Z" uid="6454" user="B10xxx" changeset="249869">
    <nd ref="21487151"/>
    <nd ref="26903229"/>
    <nd ref="26903228"/>
    <nd ref="26903227"/>
    <tag k="created_by" v="JOSM"/>
    <tag k="highway" v="tertiary"/>
    <tag k="name" v="Franklinstrasse"/>
  </way>
  <way id="4400158" version="2" timestamp="2007-12-03T15:21:46Z" uid="16447" user="Wilmersdorfer" changeset="54807">
    <nd ref="21487151"/>
    <nd ref="26903229"/>
    <nd ref="26903228"/>
    <nd ref="26903227"/>
    <tag k="created_by" v="Potlatch 0.5d"/>
    <tag k="highway" v="tertiary"/>
    <tag k="name" v="Franklinstraße"/>
  </way>
  <way id="4400158" version="3" timestamp="2008-06-29T09:57:00Z" uid="6669" user="Elwood" changeset="333437">
    <nd ref="21487151"/>
    <nd ref="26903229"/>
    <nd ref="26903228"/>
    <nd ref="26903227"/>
    <tag k="created_by" v="Potlatch 0.5d"/>
    <tag k="highway" v="secondary"/>
    <tag k="name" v="Franklinstraße"/>
  </way>
  <way id="4400158" version="4" timestamp="2008-08-27T08:40:05Z" uid="42938" user="Xanadu" changeset="431209">
    <nd ref="21487151"/>
    <nd ref="26903229"/>
    <nd ref="26903228"/>
    <nd ref="26903227"/>
    <tag k="created_by" v="Potlatch 0.5d"/>
    <tag k="cycleway" v="lane"/>
    <tag k="highway" v="secondary"/>
    <tag k="maxspeed" v="50"/>
    <tag k="name" v="Franklinstraße"/>
  </way>
  <way id="4400158" version="5" timestamp="2009-03-06T20:20:01Z" uid="88071" user="RobertJ" changeset="746447">
    <nd ref="21487151"/>
    <nd ref="26903229"/>
    <nd ref="356376370"/>
    <nd ref="26903228"/>
    <nd ref="26903227"/>
    <tag k="created_by" v="Merkaartor 0.13"/>
    <tag k="cycleway" v="lane"/>
    <tag k="highway" v="secondary"/>
    <tag k="maxspeed" v="50"/>
    <tag k="name" v="Franklinstraße"/>
  </way>
  <way id="4400158" version="6" timestamp="2009-04-09T15:23:40Z" uid="6669" user="Elwood" changeset="349690">
    <nd ref="21487151"/>
    <nd ref="26903229"/>
    <nd ref="356376370"/>
    <nd ref="26903228"/>
    <nd ref="26903227"/>
    <tag k="created_by" v="Merkaartor 0.13"/>
    <tag k="cycleway" v="lane"/>
    <tag k="highway" v="secondary"/>
    <tag k="maxspeed" v="50"/>
    <tag k="name" v="Franklinstraße"/>
    <tag k="postal_code" v="10587"/>
  </way>
  <way id="4400158" version="7" timestamp="2009-11-09T12:59:17Z" uid="42938" user="Xanadu" changeset="3073046">
    <nd ref="21487151"/>
    <nd ref="26903229"/>
    <nd ref="559966337"/>
    <nd ref="356376370"/>
    <nd ref="26903228"/>
    <nd ref="26903227"/>
    <tag k="cycleway" v="lane"/>
    <tag k="highway" v="secondary"/>
    <tag k="maxspeed" v="50"/>
    <tag k="name" v="Franklinstraße"/>
    <tag k="postal_code" v="10587"/>
  </way>
  <way id="4400158" version="8" timestamp="2010-01-08T23:42:20Z" uid="6669" user="Elwood" changeset="3574000">
    <nd ref="21487151"/>
    <nd ref="609968313"/>
    <nd ref="26903229"/>
    <nd ref="559966337"/>
    <nd ref="356376370"/>
    <nd ref="26903228"/>
    <nd ref="26903227"/>
    <tag k="cycleway" v="lane"/>
    <tag k="highway" v="secondary"/>
    <tag k="maxspeed" v="50"/>
    <tag k="name" v="Franklinstraße"/>
    <tag k="postal_code" v="10587"/>
  </way>
  <way id="4400158" version="9" timestamp="2010-01-21T16:31:26Z" uid="205897" user="elabor" changeset="3675974">
    <nd ref="21487151"/>
    <nd ref="609968313"/>
    <nd ref="26903229"/>
    <nd ref="559966337"/>
    <nd ref="356376370"/>
    <nd ref="26903228"/>
    <nd ref="617740805"/>
    <nd ref="26903227"/>
    <tag k="cycleway" v="lane"/>
    <tag k="highway" v="secondary"/>
    <tag k="maxspeed" v="50"/>
    <tag k="name" v="Franklinstraße"/>
    <tag k="postal_code" v="10587"/>
  </way>
  <way id="4400158" version="10" timestamp="2010-02-16T19:16:03Z" uid="6669" user="Elwood" changeset="3895132">
    <nd ref="26903229"/>
    <nd ref="642094584"/>
    <nd ref="609968313"/>
    <nd ref="21487151"/>
    <tag k="cycleway" v="lane"/>
    <tag k="highway" v="secondary"/>
    <tag k="name" v="Franklinstraße"/>
    <tag k="oneway" v="yes"/>
    <tag k="postal_code" v="10587"/>
  </way>
  <way id="4400158" version="11" timestamp="2010-03-27T09:02:11Z" uid="121042" user="Woschl" changeset="4244576">
    <nd ref="26903229"/>
    <nd ref="642094584"/>
    <nd ref="609968313"/>
    <nd ref="675602664"/>
    <nd ref="267980715"/>
    <tag k="cycleway" v="lane"/>
    <tag k="highway" v="secondary"/>
    <tag k="maxspeed" v="50"/>
    <tag k="name" v="Franklinstraße"/>
    <tag k="oneway" v="yes"/>
    <tag k="postal_code" v="10587"/>
  </way>
  <way id="4400158" version="12" timestamp="2010-04-29T20:17:25Z" uid="121042" user="Woschl" changeset="4560599">
    <nd ref="26903229"/>
    <nd ref="642094584"/>
    <nd ref="609968313"/>
    <nd ref="675602664"/>
    <nd ref="267980715"/>
    <tag k="cycleway" v="lane"/>
    <tag k="highway" v="secondary"/>
    <tag k="maxspeed" v="50"/>
    <tag k="name" v="Franklinstraße"/>
    <tag k="oneway" v="yes"/>
    <tag k="postal_code" v="10587"/>
    <tag k="surface" v="asphalt"/>
  </way>
  <way id="4400160" version="3" timestamp="2010-07-07T08:47:15Z" uid="74617" user="JohnSmith" changeset="5156250">
    <nd ref="26903224"/>
    <nd ref="22120148"/>
    <nd ref="26926123"/>
    <nd ref="26903230"/>
    <nd ref="26926136"/>
    <nd ref="26926135"/>
    <nd ref="26921669"/>
    <nd ref="26926133"/>
    <nd ref="22120147"/>
    <nd ref="26921667"/>
    <nd ref="26921668"/>
    <nd ref="26921664"/>
    <tag k="highway" v="residential"/>
    <tag k="maxspeed" v="50"/>
    <tag k="maxspeed:source" v="default residential speed limit in Australia"/>
    <tag k="name" v="Miller Street"/>
  </way>
  <way id="4400160" version="4" timestamp="2010-08-27T12:04:25Z" uid="232912" user="Jack Kirby" changeset="5607013">
    <nd ref="26903224"/>
    <nd ref="882358713"/>
    <nd ref="22120148"/>
    <nd ref="882358505"/>
    <nd ref="26926123"/>
    <nd ref="26903230"/>
    <nd ref="26926136"/>
    <nd ref="26926135"/>
    <nd ref="26921669"/>
    <nd ref="26926133"/>
    <nd ref="22120147"/>
    <nd ref="26921667"/>
    <nd ref="26921668"/>
    <nd ref="26921664"/>
    <tag k="highway" v="residential"/>
    <tag k="maxspeed" v="50"/>
    <tag k="maxspeed:source" v="default residential speed limit in Australia"/>
    <tag k="name" v="Miller Street"/>
  </way>
  <way id="4400160" version="5" timestamp="2010-08-30T11:33:24Z" uid="232912" user="Jack Kirby" changeset="5634628">
    <nd ref="26903224"/>
    <nd ref="882358713"/>
    <nd ref="22120148"/>
    <nd ref="882358505"/>
    <nd ref="26926123"/>
    <nd ref="26903230"/>
    <nd ref="26926136"/>
    <nd ref="26926135"/>
    <nd ref="26921669"/>
    <nd ref="26926133"/>
    <nd ref="22120147"/>
    <nd ref="26921667"/>
    <nd ref="26921668"/>
    <nd ref="888514278"/>
    <nd ref="26921664"/>
    <tag k="highway" v="residential"/>
    <tag k="maxspeed" v="50"/>
    <tag k="maxspeed:source" v="default residential speed limit in Australia"/>
    <tag k="name" v="Miller Street"/>
  </way>
  <way id="4400160" version="6" timestamp="2010-09-05T11:25:03Z" uid="232912" user="Jack Kirby" changeset="5686466">
    <nd ref="26903224"/>
    <nd ref="882358713"/>
    <nd ref="22120148"/>
    <nd ref="882358505"/>
    <nd ref="26926123"/>
    <nd ref="26903230"/>
    <nd ref="26926136"/>
    <nd ref="26926135"/>
    <nd ref="26921669"/>
    <nd ref="26926133"/>
    <nd ref="22120147"/>
    <nd ref="26921667"/>
    <nd ref="897143185"/>
    <nd ref="26921668"/>
    <nd ref="888514278"/>
    <nd ref="26921664"/>
    <tag k="highway" v="residential"/>
    <tag k="maxspeed" v="50"/>
    <tag k="maxspeed:source" v="default residential speed limit in Australia"/>
    <tag k="name" v="Miller Street"/>
  </way>
  <way id="4400160" version="7" timestamp="2010-09-09T10:32:15Z" uid="232912" user="Jack Kirby" changeset="5731290">
    <nd ref="26903224"/>
    <nd ref="882358713"/>
    <nd ref="22120148"/>
    <nd ref="882358505"/>
    <nd ref="903959581"/>
    <nd ref="26926123"/>
    <nd ref="26903230"/>
    <nd ref="26926136"/>
    <nd ref="26926135"/>
    <nd ref="26921669"/>
    <nd ref="26926133"/>
    <nd ref="22120147"/>
    <nd ref="26921667"/>
    <nd ref="897143185"/>
    <nd ref="26921668"/>
    <nd ref="888514278"/>
    <nd ref="26921664"/>
    <tag k="highway" v="residential"/>
    <tag k="maxspeed" v="50"/>
    <tag k="maxspeed:source" v="default residential speed limit in Australia"/>
    <tag k="name" v="Miller Street"/>
  </way>
  <way id="4400160" version="8" timestamp="2012-01-14T23:39:03Z" uid="147510" user="woodpeck_fixbot" changeset="10393736">
    <nd ref="26903224"/>
    <nd ref="882358713"/>
    <nd ref="22120148"/>
    <nd ref="882358505"/>
    <nd ref="903959581"/>
    <nd ref="26926123"/>
    <nd ref="26903230"/>
    <nd ref="26926136"/>
    <nd ref="26926135"/>
    <nd ref="26921669"/>
    <nd ref="26926133"/>
    <nd ref="22120147"/>
    <nd ref="26921667"/>
    <nd ref="897143185"/>
    <nd ref="26921668"/>
    <nd ref="888514278"/>
    <nd ref="26921664"/>
    <tag k="highway" v="residential"/>
    <tag k="name" v="Miller Street"/>
  </way>
  <way id="4400177" version="1" timestamp="2007-03-30T13:03:54Z" uid="6454" user="B10xxx" changeset="249869">
    <nd ref="21487148"/>
    <nd ref="26938179"/>
    <nd ref="26938181"/>
    <nd ref="26938184"/>
    <nd ref="26938186"/>
    <nd ref="26938188"/>
    <nd ref="21487150"/>
    <tag k="created_by" v="JOSM"/>
    <tag k="highway" v="tertiary"/>
    <tag k="name" v="Marchstrasse"/>
    <tag k="oneway" v="yes"/>
  </way>
  <way id="4400177" version="2" timestamp="2007-11-09T11:49:24Z" uid="13203" user="bahnpirat" changeset="447376">
    <nd ref="21487148"/>
    <nd ref="26938179"/>
    <nd ref="26938181"/>
    <nd ref="26938184"/>
    <nd ref="26938186"/>
    <nd ref="103896060"/>
    <nd ref="26938188"/>
    <nd ref="21487150"/>
    <tag k="created_by" v="Potlatch 0.4c"/>
    <tag k="highway" v="tertiary"/>
    <tag k="name" v="Marchstrasse"/>
    <tag k="oneway" v="yes"/>
  </way>
  <way id="4400177" version="3" timestamp="2007-11-09T11:50:09Z" uid="13203" user="bahnpirat" changeset="447376">
    <nd ref="21487148"/>
    <nd ref="26938179"/>
    <nd ref="26938181"/>
    <nd ref="26938184"/>
    <nd ref="26938186"/>
    <nd ref="26938188"/>
    <nd ref="21487150"/>
    <tag k="created_by" v="Potlatch 0.4c"/>
    <tag k="highway" v="tertiary"/>
    <tag k="name" v="Marchstrasse"/>
    <tag k="oneway" v="yes"/>
  </way>
  <way id="4400177" version="4" timestamp="2007-12-03T15:30:39Z" uid="16447" user="Wilmersdorfer" changeset="54807">
    <nd ref="21487148"/>
    <nd ref="26938179"/>
    <nd ref="26938181"/>
    <nd ref="26938184"/>
    <nd ref="26938186"/>
    <nd ref="26938188"/>
    <nd ref="21487150"/>
    <tag k="created_by" v="Potlatch 0.4c"/>
    <tag k="highway" v="tertiary"/>
    <tag k="name" v="Marchstraße"/>
    <tag k="oneway" v="yes"/>
  </way>
  <way id="4400177" version="5" timestamp="2008-03-08T15:58:26Z" uid="6669" user="Elwood" changeset="286649">
    <nd ref="21487148"/>
    <nd ref="251150121"/>
    <nd ref="26938179"/>
    <nd ref="26938181"/>
    <nd ref="26938184"/>
    <nd ref="26938186"/>
    <nd ref="26938188"/>
    <nd ref="21487150"/>
    <tag k="created_by" v="Potlatch 0.4c"/>
    <tag k="highway" v="tertiary"/>
    <tag k="name" v="Marchstraße"/>
    <tag k="oneway" v="yes"/>
  </way>
  <way id="4400177" version="6" timestamp="2008-06-24T08:37:04Z" uid="13203" user="bahnpirat" changeset="284737">
    <nd ref="21487148"/>
    <nd ref="251150121"/>
    <nd ref="26938179"/>
    <nd ref="26938181"/>
    <nd ref="26938184"/>
    <nd ref="26938186"/>
    <nd ref="26938188"/>
    <nd ref="21487150"/>
    <tag k="created_by" v="Potlatch 0.9c"/>
    <tag k="highway" v="tertiary"/>
    <tag k="name" v="Marchstraße"/>
    <tag k="oneway" v="yes"/>
    <tag k="postal_code" v="10587"/>
  </way>
  <way id="4400177" version="7" timestamp="2008-07-11T09:30:20Z" uid="6669" user="Elwood" changeset="460834">
    <nd ref="21487148"/>
    <nd ref="251150121"/>
    <nd ref="26938179"/>
    <nd ref="26938181"/>
    <nd ref="26938184"/>
    <nd ref="26938186"/>
    <nd ref="26938188"/>
    <nd ref="21487150"/>
    <tag k="created_by" v="Potlatch 0.9c"/>
    <tag k="highway" v="secondary"/>
    <tag k="name" v="Marchstraße"/>
    <tag k="oneway" v="yes"/>
    <tag k="postal_code" v="10587"/>
  </way>
  <way id="4400177" version="8" timestamp="2009-03-23T15:59:40Z" uid="6669" user="Elwood" changeset="848542">
    <nd ref="21487148"/>
    <nd ref="251150121"/>
    <nd ref="26938179"/>
    <nd ref="26938181"/>
    <nd ref="26938184"/>
    <nd ref="26938186"/>
    <nd ref="26938188"/>
    <nd ref="364309968"/>
    <tag k="created_by" v="Potlatch 0.9c"/>
    <tag k="highway" v="secondary"/>
    <tag k="name" v="Marchstraße"/>
    <tag k="oneway" v="yes"/>
    <tag k="postal_code" v="10587"/>
  </way>
  <way id="4400177" version="9" timestamp="2009-05-26T10:45:10Z" uid="42938" user="Xanadu" changeset="1324542">
    <nd ref="21487148"/>
    <nd ref="251150121"/>
    <nd ref="26938179"/>
    <nd ref="26938181"/>
    <nd ref="26938184"/>
    <nd ref="26938186"/>
    <nd ref="26938188"/>
    <nd ref="364309968"/>
    <tag k="created_by" v="Potlatch 0.9c"/>
    <tag k="cycleway" v="track"/>
    <tag k="highway" v="secondary"/>
    <tag k="name" v="Marchstraße"/>
    <tag k="oneway" v="yes"/>
    <tag k="postal_code" v="10587"/>
  </way>
  <way id="4400177" version="10" timestamp="2010-02-26T21:21:40Z" uid="6669" user="Elwood" changeset="3983707">
    <nd ref="21487148"/>
    <nd ref="251150121"/>
    <nd ref="654381393"/>
    <nd ref="26938179"/>
    <nd ref="26938181"/>
    <nd ref="26938184"/>
    <nd ref="26938186"/>
    <nd ref="26938188"/>
    <nd ref="364309968"/>
    <tag k="cycleway" v="track"/>
    <tag k="highway" v="secondary"/>
    <tag k="name" v="Marchstraße"/>
    <tag k="oneway" v="yes"/>
    <tag k="postal_code" v="10587"/>
  </way>
  <way id="4400177" version="11" timestamp="2010-07-05T21:26:56Z" uid="66590" user="iONiX" changeset="5145889">
    <nd ref="21487148"/>
    <nd ref="251150121"/>
    <nd ref="654381393"/>
    <nd ref="26938179"/>
    <nd ref="26938181"/>
    <nd ref="26938184"/>
    <nd ref="26938186"/>
    <nd ref="26938188"/>
    <nd ref="364309968"/>
    <tag k="highway" v="secondary"/>
    <tag k="name" v="Marchstraße"/>
    <tag k="oneway" v="yes"/>
    <tag k="postal_code" v="10587"/>
  </way>
  <way id="4400177" version="12" timestamp="2010-12-05T20:39:37Z" uid="59428" user="Plan_A" changeset="6556386">
    <nd ref="21487148"/>
    <nd ref="251150121"/>
    <nd ref="654381393"/>
    <nd ref="26938179"/>
    <nd ref="26938181"/>
    <nd ref="26938184"/>
    <nd ref="1023689321"/>
    <nd ref="26938186"/>
    <nd ref="26938188"/>
    <nd ref="1023689109"/>
    <nd ref="1023689572"/>
    <nd ref="364309968"/>
    <tag k="highway" v="secondary"/>
    <tag k="name" v="Marchstraße"/>
    <tag k="oneway" v="yes"/>
    <tag k="postal_code" v="10587"/>
  </way>
  <way id="4400177" version="13" timestamp="2011-01-23T20:02:27Z" uid="30077" user="ChristianW" changeset="7066522">
    <nd ref="21487148"/>
    <nd ref="251150121"/>
    <nd ref="654381393"/>
    <nd ref="26938179"/>
    <nd ref="26938181"/>
    <nd ref="26938184"/>
    <nd ref="1023689321"/>
    <nd ref="26938186"/>
    <nd ref="26938188"/>
    <nd ref="1023689109"/>
    <nd ref="1023689572"/>
    <nd ref="364309968"/>
    <tag k="highway" v="secondary"/>
    <tag k="lit" v="yes"/>
    <tag k="name" v="Marchstraße"/>
    <tag k="oneway" v="yes"/>
    <tag k="postal_code" v="10587"/>
  </way>
  <way id="4400177" version="14" timestamp="2011-01-26T21:01:56Z" uid="6669" user="Elwood" changeset="7096150">
    <nd ref="21487148"/>
    <nd ref="251150121"/>
    <nd ref="1122427271"/>
    <nd ref="1122427292"/>
    <nd ref="654381393"/>
    <nd ref="26938179"/>
    <nd ref="26938181"/>
    <nd ref="26938184"/>
    <nd ref="1023689321"/>
    <nd ref="26938186"/>
    <nd ref="26938188"/>
    <nd ref="1023689109"/>
    <nd ref="1023689572"/>
    <nd ref="364309968"/>
    <tag k="highway" v="secondary"/>
    <tag k="lit" v="yes"/>
    <tag k="name" v="Marchstraße"/>
    <tag k="oneway" v="yes"/>
    <tag k="postal_code" v="10587"/>
  </way>
  <way id="4400177" version="15" timestamp="2011-02-17T11:28:30Z" uid="23144" user="acidave" changeset="7312187">
    <nd ref="21487148"/>
    <nd ref="251150121"/>
    <nd ref="1122427271"/>
    <nd ref="1122427292"/>
    <nd ref="654381393"/>
    <nd ref="26938179"/>
    <nd ref="26938181"/>
    <nd ref="26938184"/>
    <nd ref="1023689321"/>
    <nd ref="26938186"/>
    <nd ref="26938188"/>
    <nd ref="1023689109"/>
    <nd ref="1023689572"/>
    <nd ref="364309968"/>
    <tag k="highway" v="secondary"/>
    <tag k="lanes" v="2"/>
    <tag k="lit" v="yes"/>
    <tag k="name" v="Marchstraße"/>
    <tag k="oneway" v="yes"/>
    <tag k="postal_code" v="10587"/>
  </way>
  <way id="4400177" version="16" timestamp="2012-03-02T16:05:55Z" uid="6669" user="Elwood" changeset="10849803"/>
  <way id="4400179" version="1" timestamp="2007-03-30T13:07:43Z" uid="6454" user="B10xxx" changeset="249869">
    <nd ref="26903227"/>
    <nd ref="26908924"/>
    <nd ref="27409693"/>
    <nd ref="21487150"/>
    <tag k="created_by" v="YahooApplet 1.0"/>
    <tag k="highway" v="tertiary"/>
    <tag k="name" v="Marchstrasse"/>
  </way>
  <way id="4400179" version="2" timestamp="2007-12-03T15:30:39Z" uid="16447" user="Wilmersdorfer" changeset="54807">
    <nd ref="26903227"/>
    <nd ref="26908924"/>
    <nd ref="27409693"/>
    <nd ref="21487150"/>
    <tag k="created_by" v="YahooApplet 1.0"/>
    <tag k="highway" v="tertiary"/>
    <tag k="name" v="Marchstraße"/>
  </way>
  <way id="4400179" version="3" timestamp="2008-03-08T09:31:45Z" uid="6669" user="Elwood" changeset="284304">
    <nd ref="26903227"/>
    <nd ref="251105087"/>
    <tag k="created_by" v="YahooApplet 1.0"/>
    <tag k="highway" v="tertiary"/>
    <tag k="name" v="Marchstraße"/>
  </way>
  <way id="4400179" version="4" timestamp="2008-07-11T09:30:20Z" uid="6669" user="Elwood" changeset="460834">
    <nd ref="26903227"/>
    <nd ref="251105087"/>
    <tag k="created_by" v="YahooApplet 1.0"/>
    <tag k="highway" v="secondary"/>
    <tag k="name" v="Marchstraße"/>
  </way>
  <way id="4400179" version="5" timestamp="2008-08-27T08:45:32Z" uid="42938" user="Xanadu" changeset="431209">
    <nd ref="26903227"/>
    <nd ref="251105087"/>
    <tag k="created_by" v="YahooApplet 1.0"/>
    <tag k="cycleway" v="lane"/>
    <tag k="highway" v="secondary"/>
    <tag k="name" v="Marchstraße"/>
  </way>
  <way id="4400179" version="6" timestamp="2008-11-19T17:05:25Z" uid="42938" user="Xanadu" changeset="769456">
    <nd ref="26903227"/>
    <nd ref="251105087"/>
    <tag k="created_by" v="YahooApplet 1.0"/>
    <tag k="cycleway" v="lane"/>
    <tag k="highway" v="secondary"/>
    <tag k="name" v="Marchstraße"/>
    <tag k="osmarender:renderName" v="no"/>
  </way>
  <way id="4400179" version="7" timestamp="2009-10-24T14:57:49Z" uid="6669" user="Elwood" changeset="2938589">
    <nd ref="26903227"/>
    <nd ref="251105087"/>
    <tag k="cycleway" v="lane"/>
    <tag k="highway" v="secondary"/>
    <tag k="name" v="Marchstraße"/>
    <tag k="osmarender:renderName" v="no"/>
    <tag k="postal_code" v="10587"/>
  </way>
  <way id="4400179" version="8" timestamp="2011-09-01T02:28:16Z" uid="207745" user="NE2" changeset="9181205">
    <nd ref="26903227"/>
    <nd ref="251105087"/>
    <tag k="cycleway" v="lane"/>
    <tag k="highway" v="secondary"/>
    <tag k="name" v="Marchstraße"/>
    <tag k="postal_code" v="10587"/>
  </way>
  <way id="4400182" version="10" timestamp="2009-04-05T10:14:04Z" uid="34428" user="usm78-gis" changeset="202232">
    <nd ref="253507"/>
    <nd ref="253506"/>
    <nd ref="253505"/>
    <nd ref="253504"/>
    <nd ref="253512"/>
    <nd ref="360203859"/>
    <nd ref="253513"/>
    <nd ref="253597"/>
    <nd ref="253596"/>
    <nd ref="360199964"/>
    <nd ref="369959778"/>
    <nd ref="253595"/>
    <nd ref="253594"/>
    <nd ref="253593"/>
    <nd ref="253592"/>
    <nd ref="253591"/>
    <nd ref="253590"/>
    <nd ref="253589"/>
    <nd ref="253588"/>
    <tag k="created_by" v="Potlatch 0.10f"/>
    <tag k="highway" v="primary"/>
    <tag k="name" v="Ул. Чапаева"/>
  </way>
  <way id="4400182" version="11" timestamp="2009-04-05T10:14:10Z" uid="34428" user="usm78-gis" changeset="202232">
    <nd ref="253507"/>
    <nd ref="253506"/>
    <nd ref="253505"/>
    <nd ref="253504"/>
    <nd ref="253512"/>
    <nd ref="360203859"/>
    <nd ref="253513"/>
    <nd ref="253597"/>
    <nd ref="253596"/>
    <nd ref="360199964"/>
    <nd ref="369959778"/>
    <tag k="created_by" v="Potlatch 0.10f"/>
    <tag k="highway" v="primary"/>
    <tag k="name" v="Ул. Чапаева"/>
  </way>
  <way id="4400182" version="12" timestamp="2009-05-11T20:13:12Z" uid="113427" user="Vlad_Z" changeset="1158086"/>
  <way id="4400187" version="1" timestamp="2007-03-30T13:08:09Z" uid="6454" user="B10xxx" changeset="249869">
    <nd ref="21487150"/>
    <nd ref="26938187"/>
    <nd ref="26938185"/>
    <nd ref="26938183"/>
    <nd ref="26938182"/>
    <nd ref="26938178"/>
    <nd ref="21487144"/>
    <tag k="created_by" v="YahooApplet 1.0"/>
    <tag k="highway" v="tertiary"/>
    <tag k="name" v="Marchstrasse"/>
    <tag k="oneway" v="yes"/>
  </way>
  <way id="4400187" version="2" timestamp="2007-12-03T15:29:04Z" uid="16447" user="Wilmersdorfer" changeset="54807">
    <nd ref="21487150"/>
    <nd ref="26938187"/>
    <nd ref="26938185"/>
    <nd ref="26938183"/>
    <nd ref="26938182"/>
    <nd ref="26938178"/>
    <nd ref="21487144"/>
    <tag k="created_by" v="Potlatch 0.5d"/>
    <tag k="highway" v="tertiary"/>
    <tag k="name" v="Marchstraße"/>
    <tag k="oneway" v="yes"/>
  </way>
  <way id="4400187" version="3" timestamp="2008-03-08T09:50:38Z" uid="6669" user="Elwood" changeset="284304">
    <nd ref="21487150"/>
    <nd ref="26938187"/>
    <nd ref="26938185"/>
    <nd ref="26938183"/>
    <nd ref="26938182"/>
    <nd ref="26938178"/>
    <nd ref="251106772"/>
    <nd ref="21487144"/>
    <tag k="created_by" v="Potlatch 0.5d"/>
    <tag k="highway" v="tertiary"/>
    <tag k="name" v="Marchstraße"/>
    <tag k="oneway" v="yes"/>
  </way>
  <way id="4400187" version="4" timestamp="2008-06-24T08:35:46Z" uid="13203" user="bahnpirat" changeset="284737">
    <nd ref="21487150"/>
    <nd ref="26938187"/>
    <nd ref="26938185"/>
    <nd ref="26938183"/>
    <nd ref="26938182"/>
    <nd ref="26938178"/>
    <nd ref="251106772"/>
    <nd ref="21487144"/>
    <tag k="created_by" v="Potlatch 0.9c"/>
    <tag k="highway" v="tertiary"/>
    <tag k="name" v="Marchstraße"/>
    <tag k="oneway" v="yes"/>
    <tag k="postal_code" v="10587"/>
  </way>
  <way id="4400187" version="5" timestamp="2008-07-11T09:30:21Z" uid="6669" user="Elwood" changeset="460834">
    <nd ref="21487150"/>
    <nd ref="26938187"/>
    <nd ref="26938185"/>
    <nd ref="26938183"/>
    <nd ref="26938182"/>
    <nd ref="26938178"/>
    <nd ref="251106772"/>
    <nd ref="21487144"/>
    <tag k="created_by" v="Potlatch 0.9c"/>
    <tag k="highway" v="secondary"/>
    <tag k="name" v="Marchstraße"/>
    <tag k="oneway" v="yes"/>
    <tag k="postal_code" v="10587"/>
  </way>
  <way id="4400187" version="6" timestamp="2008-08-27T08:45:31Z" uid="42938" user="Xanadu" changeset="431209">
    <nd ref="21487150"/>
    <nd ref="26938187"/>
    <nd ref="26938185"/>
    <nd ref="26938183"/>
    <nd ref="26938182"/>
    <nd ref="26938178"/>
    <nd ref="251106772"/>
    <nd ref="21487144"/>
    <tag k="created_by" v="Potlatch 0.9c"/>
    <tag k="cycleway" v="track"/>
    <tag k="highway" v="secondary"/>
    <tag k="maxspeed" v="50"/>
    <tag k="name" v="Marchstraße"/>
    <tag k="oneway" v="yes"/>
    <tag k="postal_code" v="10587"/>
  </way>
  <way id="4400187" version="7" timestamp="2009-03-21T08:59:13Z" uid="6669" user="Elwood" changeset="838432">
    <nd ref="364309968"/>
    <nd ref="26938187"/>
    <nd ref="26938185"/>
    <nd ref="26938183"/>
    <nd ref="26938182"/>
    <nd ref="26938178"/>
    <nd ref="251106772"/>
    <nd ref="21487144"/>
    <tag k="created_by" v="Potlatch 0.9c"/>
    <tag k="cycleway" v="track"/>
    <tag k="highway" v="secondary"/>
    <tag k="maxspeed" v="50"/>
    <tag k="name" v="Marchstraße"/>
    <tag k="oneway" v="yes"/>
    <tag k="postal_code" v="10587"/>
  </way>
  <way id="4400187" version="8" timestamp="2010-02-26T21:21:40Z" uid="6669" user="Elwood" changeset="3983707">
    <nd ref="364309968"/>
    <nd ref="26938187"/>
    <nd ref="26938185"/>
    <nd ref="26938183"/>
    <nd ref="26938182"/>
    <nd ref="26938178"/>
    <nd ref="654381390"/>
    <nd ref="251106772"/>
    <nd ref="21487144"/>
    <tag k="cycleway" v="track"/>
    <tag k="highway" v="secondary"/>
    <tag k="maxspeed" v="50"/>
    <tag k="name" v="Marchstraße"/>
    <tag k="oneway" v="yes"/>
    <tag k="postal_code" v="10587"/>
  </way>
  <way id="4400187" version="9" timestamp="2010-03-17T14:00:57Z" uid="42938" user="Xanadu" changeset="4153211">
    <nd ref="364309968"/>
    <nd ref="26938187"/>
    <nd ref="26938185"/>
    <nd ref="26938183"/>
    <nd ref="26938182"/>
    <nd ref="26938178"/>
    <nd ref="654381390"/>
    <tag k="cycleway" v="track"/>
    <tag k="highway" v="secondary"/>
    <tag k="maxspeed" v="50"/>
    <tag k="name" v="Marchstraße"/>
    <tag k="oneway" v="yes"/>
    <tag k="postal_code" v="10587"/>
  </way>
  <way id="4400187" version="10" timestamp="2010-05-28T12:25:50Z" uid="66590" user="iONiX" changeset="4830420">
    <nd ref="364309968"/>
    <nd ref="26938187"/>
    <nd ref="752740733"/>
    <nd ref="26938185"/>
    <nd ref="26938183"/>
    <nd ref="26938182"/>
    <nd ref="26938178"/>
    <nd ref="654381390"/>
    <tag k="cycleway" v="track"/>
    <tag k="highway" v="secondary"/>
    <tag k="maxspeed" v="50"/>
    <tag k="name" v="Marchstraße"/>
    <tag k="oneway" v="yes"/>
    <tag k="postal_code" v="10587"/>
  </way>
  <way id="4400187" version="11" timestamp="2010-07-05T21:26:55Z" uid="66590" user="iONiX" changeset="5145889">
    <nd ref="364309968"/>
    <nd ref="26938187"/>
    <nd ref="752740733"/>
    <nd ref="26938185"/>
    <nd ref="26938183"/>
    <nd ref="26938182"/>
    <nd ref="26938178"/>
    <nd ref="654381390"/>
    <tag k="highway" v="secondary"/>
    <tag k="maxspeed" v="50"/>
    <tag k="name" v="Marchstraße"/>
    <tag k="oneway" v="yes"/>
    <tag k="postal_code" v="10587"/>
  </way>
  <way id="4400187" version="12" timestamp="2010-12-05T20:40:00Z" uid="59428" user="Plan_A" changeset="6556386">
    <nd ref="364309968"/>
    <nd ref="1023689381"/>
    <nd ref="26938187"/>
    <nd ref="1023689361"/>
    <nd ref="752740733"/>
    <nd ref="26938185"/>
    <nd ref="26938183"/>
    <nd ref="1023689670"/>
    <nd ref="26938182"/>
    <nd ref="1023689169"/>
    <nd ref="26938178"/>
    <nd ref="654381390"/>
    <tag k="highway" v="secondary"/>
    <tag k="maxspeed" v="50"/>
    <tag k="name" v="Marchstraße"/>
    <tag k="oneway" v="yes"/>
    <tag k="postal_code" v="10587"/>
  </way>
  <way id="4400187" version="13" timestamp="2011-01-23T20:02:33Z" uid="30077" user="ChristianW" changeset="7066522">
    <nd ref="364309968"/>
    <nd ref="1023689381"/>
    <nd ref="26938187"/>
    <nd ref="1023689361"/>
    <nd ref="752740733"/>
    <nd ref="26938185"/>
    <nd ref="26938183"/>
    <nd ref="1023689670"/>
    <nd ref="26938182"/>
    <nd ref="1023689169"/>
    <nd ref="26938178"/>
    <nd ref="654381390"/>
    <tag k="highway" v="secondary"/>
    <tag k="lit" v="yes"/>
    <tag k="maxspeed" v="50"/>
    <tag k="name" v="Marchstraße"/>
    <tag k="oneway" v="yes"/>
    <tag k="postal_code" v="10587"/>
  </way>
  <way id="4400187" version="14" timestamp="2011-02-17T11:28:31Z" uid="23144" user="acidave" changeset="7312187">
    <nd ref="364309968"/>
    <nd ref="1023689381"/>
    <nd ref="26938187"/>
    <nd ref="1023689361"/>
    <nd ref="752740733"/>
    <nd ref="26938185"/>
    <nd ref="26938183"/>
    <nd ref="1023689670"/>
    <nd ref="26938182"/>
    <nd ref="1023689169"/>
    <nd ref="26938178"/>
    <nd ref="654381390"/>
    <tag k="highway" v="secondary"/>
    <tag k="lanes" v="2"/>
    <tag k="lit" v="yes"/>
    <tag k="maxspeed" v="50"/>
    <tag k="name" v="Marchstraße"/>
    <tag k="oneway" v="yes"/>
    <tag k="postal_code" v="10587"/>
  </way>
  <way id="4400187" version="15" timestamp="2012-03-20T19:11:42Z" uid="43566" user="anbr" changeset="11044110">
    <nd ref="364309968"/>
    <nd ref="1023689381"/>
    <nd ref="26938187"/>
    <nd ref="1023689361"/>
    <nd ref="752740733"/>
    <nd ref="26938185"/>
    <nd ref="26938183"/>
    <nd ref="1023689670"/>
    <nd ref="26938182"/>
    <nd ref="1023689169"/>
    <nd ref="26938178"/>
    <nd ref="654381390"/>
    <tag k="cycleway" v="track"/>
    <tag k="cycleway:right" v="track"/>
    <tag k="highway" v="secondary"/>
    <tag k="lanes" v="2"/>
    <tag k="lit" v="yes"/>
    <tag k="maxspeed" v="50"/>
    <tag k="name" v="Marchstraße"/>
    <tag k="oneway" v="yes"/>
    <tag k="postal_code" v="10587"/>
  </way>
  <way id="4400192" version="1" timestamp="2007-06-27T19:49:37Z" uid="8328" user="benpre" changeset="117279">
    <nd ref="443854"/>
    <nd ref="25630640"/>
    <nd ref="25630644"/>
    <nd ref="25630572"/>
    <tag k="created_by" v="JOSM"/>
    <tag k="highway" v="residential"/>
    <tag k="name" v="Richmodstraße"/>
    <tag k="oneway" v="true"/>
  </way>
  <way id="4400192" version="2" timestamp="2008-03-28T13:15:16Z" uid="16478" user="Raymond" changeset="411836">
    <nd ref="96072116"/>
    <nd ref="25630640"/>
    <nd ref="25630644"/>
    <nd ref="25630572"/>
    <tag k="created_by" v="JOSM"/>
    <tag k="highway" v="residential"/>
    <tag k="name" v="Richmodstraße"/>
    <tag k="oneway" v="true"/>
  </way>
  <way id="4400192" version="3" timestamp="2008-04-16T10:44:59Z" uid="16478" user="Raymond" changeset="161838">
    <nd ref="96072116"/>
    <nd ref="25630640"/>
    <nd ref="25630644"/>
    <nd ref="25630572"/>
    <tag k="created_by" v="JOSM"/>
    <tag k="highway" v="residential"/>
    <tag k="lanes" v="2"/>
    <tag k="name" v="Richmodstraße"/>
    <tag k="oneway" v="true"/>
  </way>
  <way id="4400192" version="4" timestamp="2008-04-16T12:53:52Z" uid="16478" user="Raymond" changeset="161838">
    <nd ref="96072116"/>
    <nd ref="25630640"/>
    <nd ref="25630644"/>
    <nd ref="25630572"/>
    <tag k="created_by" v="JOSM"/>
    <tag k="highway" v="residential"/>
    <tag k="lanes" v="2"/>
    <tag k="maxspeed" v="30"/>
    <tag k="name" v="Richmodstraße"/>
    <tag k="oneway" v="true"/>
  </way>
  <way id="4400192" version="5" timestamp="2008-08-12T18:32:38Z" uid="58848" user="sherazade" changeset="215245">
    <nd ref="96072116"/>
    <nd ref="25630640"/>
    <nd ref="25630644"/>
    <tag k="created_by" v="Potlatch 0.10b"/>
    <tag k="highway" v="residential"/>
    <tag k="lanes" v="2"/>
    <tag k="maxspeed" v="30"/>
    <tag k="name" v="Richmodstraße"/>
    <tag k="oneway" v="true"/>
  </way>
  <way id="4400192" version="6" timestamp="2008-08-12T18:32:49Z" uid="58848" user="sherazade" changeset="215245">
    <nd ref="96072116"/>
    <nd ref="25630640"/>
    <nd ref="25630644"/>
    <tag k="created_by" v="Potlatch 0.10b"/>
    <tag k="highway" v="residential"/>
    <tag k="lanes" v="2"/>
    <tag k="maxspeed" v="30"/>
    <tag k="name" v="Richmodstraße"/>
    <tag k="oneway" v="yes"/>
  </way>
  <way id="4400192" version="7" timestamp="2008-08-12T18:33:21Z" uid="58848" user="sherazade" changeset="215245">
    <nd ref="96072116"/>
    <nd ref="25630640"/>
    <nd ref="25630644"/>
    <tag k="created_by" v="Potlatch 0.10b"/>
    <tag k="highway" v="residential"/>
    <tag k="lanes" v="2"/>
    <tag k="maxspeed" v="30"/>
    <tag k="name" v="Richmodstraße"/>
    <tag k="oneway" v="no"/>
  </way>
  <way id="4400192" version="8" timestamp="2008-08-30T20:06:38Z" uid="16478" user="Raymond" changeset="463293">
    <nd ref="292371253"/>
    <nd ref="25630640"/>
    <nd ref="25630644"/>
    <tag k="created_by" v="Potlatch 0.10b"/>
    <tag k="highway" v="residential"/>
    <tag k="lanes" v="2"/>
    <tag k="maxspeed" v="30"/>
    <tag k="name" v="Richmodstraße"/>
    <tag k="oneway" v="no"/>
  </way>
  <way id="4400192" version="9" timestamp="2008-08-30T20:16:55Z" uid="16478" user="Raymond" changeset="463293">
    <nd ref="292371252"/>
    <nd ref="25630640"/>
    <nd ref="25630644"/>
    <tag k="created_by" v="Potlatch 0.10b"/>
    <tag k="highway" v="residential"/>
    <tag k="lanes" v="2"/>
    <tag k="maxspeed" v="30"/>
    <tag k="name" v="Richmodstraße"/>
    <tag k="oneway" v="no"/>
  </way>
  <way id="4400192" version="10" timestamp="2008-09-11T04:11:59Z" uid="16478" user="Raymond" changeset="604188">
    <nd ref="295804641"/>
    <nd ref="25630640"/>
    <nd ref="25630644"/>
    <tag k="created_by" v="Potlatch 0.10b"/>
    <tag k="highway" v="residential"/>
    <tag k="lanes" v="2"/>
    <tag k="maxspeed" v="30"/>
    <tag k="name" v="Richmodstraße"/>
    <tag k="oneway" v="no"/>
  </way>
  <way id="4400192" version="11" timestamp="2008-09-24T21:10:03Z" uid="56565" user="amellema" changeset="692323">
    <nd ref="295804641"/>
    <nd ref="25630640"/>
    <nd ref="25630644"/>
    <tag k="created_by" v="Potlatch 0.10b"/>
    <tag k="highway" v="residential"/>
    <tag k="lanes" v="2"/>
    <tag k="maxspeed" v="30"/>
    <tag k="name" v="Richmodstraße"/>
  </way>
  <way id="4400192" version="12" timestamp="2008-12-22T21:52:43Z" uid="16478" user="Raymond" changeset="551025">
    <nd ref="295804641"/>
    <nd ref="25630640"/>
    <nd ref="25630644"/>
    <tag k="created_by" v="Potlatch 0.10b"/>
    <tag k="highway" v="residential"/>
    <tag k="lanes" v="2"/>
    <tag k="maxspeed" v="30"/>
    <tag k="name" v="Richmodstraße"/>
  </way>
  <way id="4400192" version="13" timestamp="2008-12-23T14:50:50Z" uid="16478" user="Raymond" changeset="567924">
    <nd ref="295804641"/>
    <nd ref="25630640"/>
    <tag k="created_by" v="Potlatch 0.10b"/>
    <tag k="cycleway" v="opposite"/>
    <tag k="highway" v="residential"/>
    <tag k="lanes" v="1"/>
    <tag k="maxspeed" v="30"/>
    <tag k="name" v="Richmodstraße"/>
  </way>
  <way id="4400192" version="14" timestamp="2009-05-07T09:31:13Z" uid="62510" user="Tuttle" changeset="1105132">
    <nd ref="295804641"/>
    <nd ref="25630640"/>
    <tag k="created_by" v="Potlatch 0.10b"/>
    <tag k="cycleway" v="opposite"/>
    <tag k="highway" v="residential"/>
    <tag k="lanes" v="1"/>
    <tag k="maxspeed" v="30"/>
    <tag k="name" v="Richmodstraße"/>
    <tag k="oneway" v="yes"/>
  </way>
  <way id="4400192" version="15" timestamp="2009-05-30T18:46:07Z" uid="16478" user="Raymond" changeset="1362201">
    <nd ref="295804641"/>
    <nd ref="413028101"/>
    <nd ref="25630640"/>
    <tag k="created_by" v="Potlatch 0.10b"/>
    <tag k="cycleway" v="opposite"/>
    <tag k="highway" v="residential"/>
    <tag k="lanes" v="1"/>
    <tag k="maxspeed" v="30"/>
    <tag k="name" v="Richmodstraße"/>
    <tag k="oneway" v="yes"/>
  </way>
  <way id="4400192" version="16" timestamp="2012-01-24T14:00:00Z" uid="16478" user="Raymond" changeset="10484772">
    <nd ref="295804641"/>
    <nd ref="1603562594"/>
    <nd ref="413028101"/>
    <nd ref="25630640"/>
    <tag k="cycleway" v="opposite"/>
    <tag k="highway" v="residential"/>
    <tag k="lanes" v="1"/>
    <tag k="maxspeed" v="30"/>
    <tag k="name" v="Richmodstraße"/>
    <tag k="oneway" v="yes"/>
  </way>
  <way id="4400192" version="17" timestamp="2012-03-12T19:55:43Z" uid="116044" user="berndw" changeset="10959570"/>
  <way id="4400208" version="1" timestamp="2007-06-27T19:10:27Z" uid="8328" user="benpre" changeset="117279">
    <nd ref="25630558"/>
    <nd ref="25630562"/>
    <nd ref="1238725"/>
    <nd ref="26820079"/>
    <tag k="created_by" v="JOSM"/>
    <tag k="highway" v="residential"/>
    <tag k="name" v="Albertusstraße"/>
  </way>
  <way id="4400208" version="2" timestamp="2008-04-16T11:07:55Z" uid="16478" user="Raymond" changeset="161838">
    <nd ref="26820079"/>
    <nd ref="1238725"/>
    <nd ref="25630562"/>
    <tag k="created_by" v="JOSM"/>
    <tag k="highway" v="residential"/>
    <tag k="lanes" v="2"/>
    <tag k="name" v="Albertusstraße"/>
  </way>
  <way id="4400208" version="3" timestamp="2012-02-20T19:41:47Z" uid="16478" user="Raymond" changeset="10744124">
    <nd ref="26820079"/>
    <nd ref="1238725"/>
    <nd ref="1640882413"/>
    <nd ref="25630562"/>
    <tag k="highway" v="residential"/>
    <tag k="lanes" v="2"/>
    <tag k="name" v="Albertusstraße"/>
  </way>
  <way id="4400208" version="4" timestamp="2012-03-12T18:55:32Z" uid="116044" user="berndw" changeset="10958815">
    <nd ref="1672368114"/>
    <nd ref="1238725"/>
    <nd ref="1640882413"/>
    <nd ref="25630562"/>
    <tag k="highway" v="residential"/>
    <tag k="lanes" v="2"/>
    <tag k="name" v="Albertusstraße"/>
  </way>
  <way id="4400208" version="5" timestamp="2012-03-12T19:55:38Z" uid="116044" user="berndw" changeset="10959570"/>
  <way id="4400301" version="1" timestamp="2007-06-27T19:13:37Z" uid="8328" user="benpre" changeset="117279">
    <nd ref="25630685"/>
    <nd ref="25630645"/>
    <nd ref="25630641"/>
    <nd ref="25630640"/>
    <tag k="created_by" v="JOSM"/>
    <tag k="highway" v="residential"/>
    <tag k="name" v="Am Alten Posthof"/>
  </way>
  <way id="4400301" version="2" timestamp="2008-04-01T09:31:41Z" uid="16478" user="Raymond" changeset="3323">
    <nd ref="25630640"/>
    <nd ref="25630641"/>
    <nd ref="25630645"/>
    <tag k="created_by" v="JOSM"/>
    <tag k="highway" v="residential"/>
    <tag k="maxspeed" v="30"/>
    <tag k="name" v="Am Alten Posthof"/>
    <tag k="oneway" v="true"/>
  </way>
  <way id="4400301" version="3" timestamp="2008-04-01T11:42:26Z" uid="16478" user="Raymond" changeset="5013">
    <nd ref="25630640"/>
    <nd ref="25630641"/>
    <nd ref="25630645"/>
    <tag k="created_by" v="JOSM"/>
    <tag k="highway" v="residential"/>
    <tag k="lanes" v="1"/>
    <tag k="maxspeed" v="30"/>
    <tag k="name" v="Am Alten Posthof"/>
    <tag k="oneway" v="true"/>
  </way>
  <way id="4400301" version="4" timestamp="2008-05-05T20:13:19Z" uid="16478" user="Raymond" changeset="342614">
    <nd ref="25630640"/>
    <nd ref="25630641"/>
    <nd ref="25630645"/>
    <tag k="created_by" v="JOSM"/>
    <tag k="highway" v="living_street"/>
    <tag k="lanes" v="1"/>
    <tag k="name" v="Am Alten Posthof"/>
    <tag k="oneway" v="true"/>
  </way>
  <way id="4400301" version="5" timestamp="2008-12-22T21:52:54Z" uid="16478" user="Raymond" changeset="551025">
    <nd ref="25630640"/>
    <nd ref="57354646"/>
    <nd ref="25630645"/>
    <tag k="created_by" v="JOSM"/>
    <tag k="highway" v="living_street"/>
    <tag k="lanes" v="1"/>
    <tag k="name" v="Am Alten Posthof"/>
    <tag k="oneway" v="true"/>
  </way>
  <way id="4400301" version="6" timestamp="2008-12-23T15:03:36Z" uid="16478" user="Raymond" changeset="567924">
    <nd ref="25630640"/>
    <nd ref="321261049"/>
    <tag k="created_by" v="JOSM"/>
    <tag k="highway" v="residential"/>
    <tag k="lanes" v="2"/>
    <tag k="name" v="Am Alten Posthof"/>
    <tag k="oneway" v="true"/>
  </way>
  <way id="4400301" version="7" timestamp="2009-04-16T20:09:45Z" uid="103885" user="logicbot" changeset="603450">
    <nd ref="25630640"/>
    <nd ref="321261049"/>
    <tag k="created_by" v="JOSM"/>
    <tag k="highway" v="residential"/>
    <tag k="lanes" v="2"/>
    <tag k="name" v="Am Alten Posthof"/>
    <tag k="oneway" v="yes"/>
  </way>
  <way id="4400301" version="8" timestamp="2009-05-31T21:11:20Z" uid="62510" user="Tuttle" changeset="1373785"/>
  <way id="4400369" version="1" timestamp="2007-03-30T14:02:26Z" uid="6454" user="B10xxx" changeset="249869">
    <nd ref="26763000"/>
    <nd ref="26762962"/>
    <nd ref="26704067"/>
    <nd ref="26704580"/>
    <tag k="created_by" v="JOSM"/>
    <tag k="highway" v="secondary"/>
    <tag k="oneway" v="yes"/>
  </way>
  <way id="4400369" version="2" timestamp="2007-11-15T18:54:04Z" uid="12983" user="jorilla" changeset="522678">
    <nd ref="26763000"/>
    <nd ref="26762962"/>
    <nd ref="26704067"/>
    <nd ref="26704580"/>
    <tag k="created_by" v="JOSM"/>
    <tag k="highway" v="secondary"/>
    <tag k="name" v="Hardenbergstraße"/>
    <tag k="oneway" v="yes"/>
  </way>
  <way id="4400369" version="3" timestamp="2007-12-30T11:55:33Z" uid="10549" user="toaster" changeset="475184">
    <nd ref="26763000"/>
    <nd ref="26762962"/>
    <nd ref="26704067"/>
    <nd ref="26704580"/>
    <tag k="created_by" v="JOSM"/>
    <tag k="highway" v="secondary"/>
    <tag k="name" v="Hardenbergstraße"/>
    <tag k="oneway" v="yes"/>
  </way>
  <way id="4400369" version="4" timestamp="2008-06-16T12:03:56Z" uid="44786" user="makracht" changeset="190350">
    <nd ref="26763000"/>
    <nd ref="26762962"/>
    <nd ref="26704067"/>
    <tag k="created_by" v="Potlatch 0.9c"/>
    <tag k="highway" v="secondary"/>
    <tag k="name" v="Hardenbergstraße"/>
    <tag k="oneway" v="yes"/>
  </way>
  <way id="4400369" version="5" timestamp="2008-06-16T12:08:12Z" uid="44786" user="makracht" changeset="190350">
    <nd ref="26763000"/>
    <nd ref="26762962"/>
    <tag k="created_by" v="Potlatch 0.9c"/>
    <tag k="highway" v="secondary"/>
    <tag k="name" v="Hardenbergstraße"/>
    <tag k="oneway" v="yes"/>
  </way>
  <way id="4400369" version="6" timestamp="2008-06-16T12:08:53Z" uid="44786" user="makracht" changeset="190350">
    <nd ref="26763000"/>
    <nd ref="26762962"/>
    <tag k="created_by" v="Potlatch 0.9c"/>
    <tag k="highway" v="secondary"/>
    <tag k="name" v="Hardenbergstraße"/>
    <tag k="oneway" v="yes"/>
    <tag k="ref" v="100"/>
    <tag k="route" v="bus"/>
  </way>
  <way id="4400369" version="7" timestamp="2008-06-16T15:48:57Z" uid="44786" user="makracht" changeset="190350">
    <nd ref="26763000"/>
    <nd ref="26762962"/>
    <tag k="bus_ref" v="100"/>
    <tag k="created_by" v="Potlatch 0.9c"/>
    <tag k="highway" v="secondary"/>
    <tag k="name" v="Hardenbergstraße"/>
    <tag k="oneway" v="yes"/>
    <tag k="route" v="bus"/>
  </way>
  <way id="4400369" version="8" timestamp="2008-06-19T10:13:03Z" uid="44786" user="makracht" changeset="219268">
    <nd ref="26763000"/>
    <nd ref="26762962"/>
    <tag k="created_by" v="Potlatch 0.9c"/>
    <tag k="highway" v="secondary"/>
    <tag k="name" v="Hardenbergstraße"/>
    <tag k="oneway" v="yes"/>
    <tag k="route" v="bus"/>
  </way>
  <way id="4400369" version="9" timestamp="2009-04-07T18:10:08Z" uid="6669" user="Elwood" changeset="295637">
    <nd ref="26763000"/>
    <nd ref="26762962"/>
    <tag k="created_by" v="Potlatch 0.9c"/>
    <tag k="highway" v="secondary"/>
    <tag k="name" v="Hardenbergstraße"/>
    <tag k="oneway" v="yes"/>
    <tag k="postal_code" v="10623"/>
    <tag k="route" v="bus"/>
  </way>
  <way id="4400369" version="10" timestamp="2009-07-10T17:11:45Z" uid="6669" user="Elwood" changeset="1790899">
    <nd ref="26763000"/>
    <nd ref="439657963"/>
    <nd ref="26762962"/>
    <tag k="highway" v="secondary"/>
    <tag k="name" v="Hardenbergstraße"/>
    <tag k="oneway" v="yes"/>
    <tag k="postal_code" v="10623"/>
    <tag k="route" v="bus"/>
  </way>
  <way id="4400369" version="11" timestamp="2009-11-10T22:09:54Z" uid="6669" user="Elwood" changeset="3085912">
    <nd ref="26763000"/>
    <nd ref="439657963"/>
    <nd ref="26762962"/>
    <tag k="highway" v="secondary"/>
    <tag k="name" v="Hardenbergstraße"/>
    <tag k="oneway" v="yes"/>
    <tag k="postal_code" v="10623"/>
    <tag k="route" v="bus"/>
  </way>
  <way id="4400369" version="12" timestamp="2011-01-27T17:33:55Z" uid="88961" user="Shmias" changeset="7105658">
    <nd ref="26763000"/>
    <nd ref="197332926"/>
    <nd ref="26762962"/>
    <tag k="highway" v="secondary"/>
    <tag k="name" v="Hardenbergstraße"/>
    <tag k="oneway" v="yes"/>
    <tag k="postal_code" v="10623"/>
    <tag k="route" v="bus"/>
  </way>
  <way id="4400369" version="13" timestamp="2011-12-24T17:27:13Z" uid="39457" user="Markus59" changeset="10195441">
    <nd ref="26763000"/>
    <nd ref="1560792006"/>
    <nd ref="1560792014"/>
    <nd ref="197332926"/>
    <nd ref="1560792070"/>
    <nd ref="1560792076"/>
    <nd ref="1560792101"/>
    <nd ref="1560792112"/>
    <nd ref="26762962"/>
    <tag k="highway" v="secondary"/>
    <tag k="lanes" v="2"/>
    <tag k="name" v="Hardenbergstraße"/>
    <tag k="oneway" v="yes"/>
    <tag k="postal_code" v="10623"/>
  </way>
  <way id="4400369" version="14" timestamp="2012-02-22T20:07:04Z" uid="6669" user="Elwood" changeset="10762155"/>
  <way id="4400370" version="5" timestamp="2009-04-05T10:16:01Z" uid="34428" user="usm78-gis" changeset="202232">
    <nd ref="7792717"/>
    <nd ref="253526"/>
    <nd ref="7792741"/>
    <nd ref="7792827"/>
    <nd ref="7792830"/>
    <nd ref="369960256"/>
    <nd ref="7792834"/>
    <nd ref="7792932"/>
    <tag k="created_by" v="Potlatch 0.10f"/>
    <tag k="highway" v="secondary"/>
    <tag k="name" v="ул. Мурманская"/>
  </way>
  <way id="4400370" version="6" timestamp="2009-04-05T10:16:05Z" uid="34428" user="usm78-gis" changeset="202232">
    <nd ref="7792717"/>
    <nd ref="253526"/>
    <nd ref="7792741"/>
    <nd ref="7792827"/>
    <nd ref="7792830"/>
    <nd ref="369960256"/>
    <tag k="created_by" v="Potlatch 0.10f"/>
    <tag k="highway" v="secondary"/>
    <tag k="name" v="ул. Мурманская"/>
  </way>
  <way id="4400370" version="7" timestamp="2009-05-11T19:58:37Z" uid="113427" user="Vlad_Z" changeset="1157836"/>
  <way id="4400382" version="6" timestamp="2009-04-05T10:14:39Z" uid="34428" user="usm78-gis" changeset="202232">
    <nd ref="7792911"/>
    <nd ref="7792919"/>
    <nd ref="7792978"/>
    <nd ref="249853812"/>
    <tag k="created_by" v="Potlatch 0.10f"/>
    <tag k="highway" v="secondary"/>
  </way>
  <way id="4400382" version="7" timestamp="2009-05-19T19:30:51Z" uid="110004" user="Alex Rybakoff" changeset="1253846"/>
  <way id="4400425" version="1" timestamp="2007-03-30T14:15:39Z" uid="6454" user="B10xxx" changeset="249869">
    <nd ref="26708460"/>
    <nd ref="26736187"/>
    <nd ref="26736188"/>
    <nd ref="26736200"/>
    <nd ref="26704526"/>
    <nd ref="26704482"/>
    <nd ref="26938219"/>
    <nd ref="26938220"/>
    <nd ref="26785753"/>
    <tag k="created_by" v="YahooApplet 1.0"/>
    <tag k="highway" v="primary"/>
    <tag k="name" v="Bismarckstraße"/>
    <tag k="nat_ref" v="B2,B5"/>
    <tag k="oneway" v="yes"/>
    <tag k="ref" v="B2,B5"/>
  </way>
  <way id="4400425" version="2" timestamp="2007-12-30T15:50:18Z" uid="12983" user="jorilla" changeset="481923">
    <nd ref="26708460"/>
    <nd ref="26736187"/>
    <nd ref="197667544"/>
    <nd ref="26736188"/>
    <nd ref="26736200"/>
    <nd ref="26704526"/>
    <nd ref="26704482"/>
    <nd ref="26938219"/>
    <nd ref="26938220"/>
    <nd ref="26785753"/>
    <tag k="created_by" v="YahooApplet 1.0"/>
    <tag k="highway" v="primary"/>
    <tag k="name" v="Bismarckstraße"/>
    <tag k="nat_ref" v="B2,B5"/>
    <tag k="oneway" v="yes"/>
    <tag k="ref" v="B2,B5"/>
  </way>
  <way id="4400425" version="3" timestamp="2008-02-12T12:50:19Z" uid="17889" user="rrissiek" changeset="105484">
    <nd ref="26708460"/>
    <nd ref="26736187"/>
    <nd ref="197667544"/>
    <nd ref="26736188"/>
    <nd ref="26736200"/>
    <nd ref="26704526"/>
    <nd ref="26704482"/>
    <nd ref="26938219"/>
    <nd ref="26938220"/>
    <nd ref="26785753"/>
    <tag k="created_by" v="YahooApplet 1.0"/>
    <tag k="highway" v="primary"/>
    <tag k="name" v="Bismarckstraße"/>
    <tag k="nat_ref" v="B2,B5"/>
    <tag k="ncn_ref" v="R1"/>
    <tag k="oneway" v="yes"/>
    <tag k="ref" v="B2,B5"/>
  </way>
  <way id="4400425" version="4" timestamp="2008-05-11T11:30:16Z" uid="6669" user="Elwood" changeset="417951">
    <nd ref="26708460"/>
    <nd ref="263702166"/>
    <nd ref="26736187"/>
    <nd ref="26736188"/>
    <nd ref="26736200"/>
    <nd ref="26704526"/>
    <nd ref="26704482"/>
    <nd ref="26938219"/>
    <nd ref="26938220"/>
    <nd ref="26785753"/>
    <tag k="created_by" v="YahooApplet 1.0"/>
    <tag k="highway" v="primary"/>
    <tag k="name" v="Bismarckstraße"/>
    <tag k="nat_ref" v="B2,B5"/>
    <tag k="ncn_ref" v="R1"/>
    <tag k="oneway" v="yes"/>
    <tag k="ref" v="B2,B5"/>
  </way>
  <way id="4400425" version="5" timestamp="2008-05-11T11:40:18Z" uid="6669" user="Elwood" changeset="417951">
    <nd ref="26708460"/>
    <nd ref="263702166"/>
    <nd ref="26736187"/>
    <nd ref="263703306"/>
    <nd ref="26736188"/>
    <nd ref="26736200"/>
    <nd ref="26704526"/>
    <nd ref="26704482"/>
    <nd ref="26938219"/>
    <nd ref="26938220"/>
    <nd ref="26785753"/>
    <tag k="created_by" v="YahooApplet 1.0"/>
    <tag k="highway" v="primary"/>
    <tag k="name" v="Bismarckstraße"/>
    <tag k="nat_ref" v="B2,B5"/>
    <tag k="ncn_ref" v="R1"/>
    <tag k="oneway" v="yes"/>
    <tag k="ref" v="B2,B5"/>
  </way>
  <way id="4400425" version="6" timestamp="2008-05-15T12:27:02Z" uid="8943" user="Fopper" changeset="452827">
    <nd ref="26708460"/>
    <nd ref="263702166"/>
    <nd ref="26736187"/>
    <nd ref="263703306"/>
    <nd ref="26736188"/>
    <nd ref="26736200"/>
    <nd ref="26704526"/>
    <nd ref="26704482"/>
    <nd ref="26938219"/>
    <nd ref="26938220"/>
    <nd ref="26785753"/>
    <tag k="highway" v="primary"/>
    <tag k="name" v="Bismarckstraße"/>
    <tag k="nat_ref" v="B2,B5"/>
    <tag k="oneway" v="yes"/>
    <tag k="ref" v="B2,B5"/>
  </way>
  <way id="4400425" version="7" timestamp="2008-06-12T16:21:14Z" uid="27888" user="phisky" changeset="140085">
    <nd ref="26708460"/>
    <nd ref="263702166"/>
    <nd ref="26736187"/>
    <nd ref="263703306"/>
    <nd ref="26736188"/>
    <nd ref="269931132"/>
    <nd ref="26736200"/>
    <nd ref="26704526"/>
    <nd ref="26704482"/>
    <nd ref="26938219"/>
    <nd ref="26938220"/>
    <nd ref="26785753"/>
    <tag k="highway" v="primary"/>
    <tag k="name" v="Bismarckstraße"/>
    <tag k="nat_ref" v="B2,B5"/>
    <tag k="oneway" v="yes"/>
    <tag k="ref" v="B2,B5"/>
  </way>
  <way id="4400425" version="8" timestamp="2008-07-29T07:20:54Z" uid="6669" user="Elwood" changeset="621587">
    <nd ref="26708460"/>
    <nd ref="263702166"/>
    <nd ref="26736187"/>
    <nd ref="263703306"/>
    <nd ref="26736188"/>
    <nd ref="269931132"/>
    <nd ref="26736200"/>
    <nd ref="26704526"/>
    <nd ref="26704482"/>
    <nd ref="26938219"/>
    <nd ref="26938220"/>
    <nd ref="26785753"/>
    <tag k="highway" v="primary"/>
    <tag k="name" v="Bismarckstraße"/>
    <tag k="nat_ref" v="B2,B5"/>
    <tag k="oneway" v="yes"/>
    <tag k="ref" v="B 2; B 5"/>
  </way>
  <way id="4400425" version="9" timestamp="2008-09-22T10:18:37Z" uid="6669" user="Elwood" changeset="679652">
    <nd ref="26708460"/>
    <nd ref="263702166"/>
    <nd ref="26736187"/>
    <nd ref="263703306"/>
    <nd ref="26736188"/>
    <nd ref="269931132"/>
    <nd ref="26736200"/>
    <nd ref="26704526"/>
    <nd ref="26704482"/>
    <nd ref="26938219"/>
    <nd ref="26938220"/>
    <nd ref="26785753"/>
    <tag k="highway" v="primary"/>
    <tag k="name" v="Bismarckstraße"/>
    <tag k="oneway" v="yes"/>
    <tag k="ref" v="B 2; B 5"/>
  </way>
  <way id="4400425" version="10" timestamp="2009-02-28T14:17:15Z" uid="88444" user="DeteBerlin" changeset="704046">
    <nd ref="26708460"/>
    <nd ref="263702166"/>
    <nd ref="26736187"/>
    <tag k="highway" v="primary"/>
    <tag k="name" v="Bismarckstraße"/>
    <tag k="oneway" v="yes"/>
    <tag k="ref" v="B 2; B 5"/>
    <tag k="route" v="bus"/>
  </way>
  <way id="4400425" version="11" timestamp="2009-04-08T18:22:43Z" uid="6669" user="Elwood" changeset="324902">
    <nd ref="26708460"/>
    <nd ref="263702166"/>
    <nd ref="26736187"/>
    <tag k="highway" v="primary"/>
    <tag k="name" v="Bismarckstraße"/>
    <tag k="oneway" v="yes"/>
    <tag k="postal_code" v="10627"/>
    <tag k="ref" v="B 2; B 5"/>
    <tag k="route" v="bus"/>
  </way>
  <way id="4400425" version="12" timestamp="2009-12-27T00:01:04Z" uid="35560" user="HeikoE" changeset="3459541">
    <nd ref="26708460"/>
    <nd ref="263702166"/>
    <nd ref="26736187"/>
    <tag k="highway" v="primary"/>
    <tag k="name" v="Bismarckstraße"/>
    <tag k="oneway" v="yes"/>
    <tag k="postal_code" v="10627"/>
    <tag k="ref" v="B 2;B 5"/>
    <tag k="route" v="bus"/>
  </way>
  <way id="4400425" version="13" timestamp="2010-01-09T08:59:42Z" uid="6669" user="Elwood" changeset="3575725">
    <nd ref="26708460"/>
    <nd ref="263702166"/>
    <nd ref="26736187"/>
    <tag k="highway" v="primary"/>
    <tag k="name" v="Bismarckstraße"/>
    <tag k="oneway" v="yes"/>
    <tag k="postal_code" v="10627"/>
    <tag k="ref" v="B 2;B 5"/>
  </way>
  <way id="4400425" version="14" timestamp="2010-03-17T14:06:50Z" uid="42938" user="Xanadu" changeset="4153325">
    <nd ref="26708460"/>
    <nd ref="263702166"/>
    <nd ref="26736187"/>
    <tag k="cycleway" v="track"/>
    <tag k="highway" v="primary"/>
    <tag k="name" v="Bismarckstraße"/>
    <tag k="oneway" v="yes"/>
    <tag k="postal_code" v="10627"/>
    <tag k="ref" v="B 2;B 5"/>
  </way>
  <way id="4400425" version="15" timestamp="2011-01-23T20:02:40Z" uid="30077" user="ChristianW" changeset="7066522">
    <nd ref="26708460"/>
    <nd ref="263702166"/>
    <nd ref="26736187"/>
    <tag k="cycleway" v="track"/>
    <tag k="highway" v="primary"/>
    <tag k="lit" v="yes"/>
    <tag k="name" v="Bismarckstraße"/>
    <tag k="oneway" v="yes"/>
    <tag k="postal_code" v="10627"/>
    <tag k="ref" v="B 2;B 5"/>
  </way>
  <way id="4400425" version="16" timestamp="2011-02-07T07:36:22Z" uid="22684" user="Mr_Israel" changeset="7213103">
    <nd ref="26708460"/>
    <nd ref="263702166"/>
    <nd ref="26736187"/>
    <tag k="cycleway" v="track"/>
    <tag k="highway" v="primary"/>
    <tag k="lit" v="yes"/>
    <tag k="maxspeed" v="50"/>
    <tag k="name" v="Bismarckstraße"/>
    <tag k="oneway" v="yes"/>
    <tag k="postal_code" v="10627"/>
    <tag k="ref" v="B 2;B 5"/>
  </way>
  <way id="4400425" version="17" timestamp="2011-02-17T03:48:46Z" uid="248404" user="Nobody_2004" changeset="7309709">
    <nd ref="26708460"/>
    <nd ref="263702166"/>
    <nd ref="26736187"/>
    <tag k="cycleway" v="track"/>
    <tag k="highway" v="primary"/>
    <tag k="lanes" v="3"/>
    <tag k="lit" v="yes"/>
    <tag k="maxspeed" v="50"/>
    <tag k="name" v="Bismarckstraße"/>
    <tag k="oneway" v="yes"/>
    <tag k="postal_code" v="10627"/>
    <tag k="ref" v="B 2;B 5"/>
  </way>
  <way id="4400425" version="18" timestamp="2011-03-06T08:00:52Z" uid="22684" user="Mr_Israel" changeset="7470385">
    <nd ref="26708460"/>
    <nd ref="263702166"/>
    <nd ref="1188808253"/>
    <nd ref="26736187"/>
    <tag k="cycleway" v="track"/>
    <tag k="highway" v="primary"/>
    <tag k="lanes" v="3"/>
    <tag k="lit" v="yes"/>
    <tag k="maxspeed" v="50"/>
    <tag k="name" v="Bismarckstraße"/>
    <tag k="oneway" v="yes"/>
    <tag k="postal_code" v="10627"/>
    <tag k="ref" v="B 2;B 5"/>
  </way>
  <way id="4400425" version="19" timestamp="2012-03-01T20:21:19Z" uid="6669" user="Elwood" changeset="10841387"/>
  <way id="4400431" version="1" timestamp="2007-03-30T14:17:09Z" uid="6454" user="B10xxx" changeset="249869">
    <nd ref="26904559"/>
    <nd ref="26745965"/>
    <nd ref="26745966"/>
    <nd ref="26745969"/>
    <nd ref="26745960"/>
    <nd ref="26708459"/>
    <nd ref="26745962"/>
    <nd ref="26938861"/>
    <tag k="created_by" v="YahooApplet 1.0"/>
    <tag k="highway" v="primary"/>
    <tag k="name" v="Kaiserdamm"/>
    <tag k="nat_ref" v="B2,B5"/>
    <tag k="oneway" v="yes"/>
    <tag k="ref" v="B2,B5"/>
  </way>
  <way id="4400431" version="2" timestamp="2007-11-21T20:03:13Z" uid="6669" user="Elwood" changeset="587526">
    <nd ref="26904559"/>
    <nd ref="26745965"/>
    <nd ref="26745966"/>
    <nd ref="26745969"/>
    <nd ref="26745960"/>
    <nd ref="26708459"/>
    <nd ref="128376938"/>
    <nd ref="26745962"/>
    <nd ref="26938861"/>
    <tag k="created_by" v="YahooApplet 1.0"/>
    <tag k="highway" v="primary"/>
    <tag k="name" v="Kaiserdamm"/>
    <tag k="nat_ref" v="B2,B5"/>
    <tag k="oneway" v="yes"/>
    <tag k="ref" v="B2,B5"/>
  </way>
  <way id="4400431" version="3" timestamp="2008-02-12T12:50:19Z" uid="17889" user="rrissiek" changeset="105484">
    <nd ref="26904559"/>
    <nd ref="26745965"/>
    <nd ref="26745966"/>
    <nd ref="26745969"/>
    <nd ref="26745960"/>
    <nd ref="26708459"/>
    <nd ref="128376938"/>
    <nd ref="26745962"/>
    <nd ref="26938861"/>
    <tag k="created_by" v="YahooApplet 1.0"/>
    <tag k="highway" v="primary"/>
    <tag k="name" v="Kaiserdamm"/>
    <tag k="nat_ref" v="B2,B5"/>
    <tag k="ncn_ref" v="R1"/>
    <tag k="oneway" v="yes"/>
    <tag k="ref" v="B2,B5"/>
  </way>
  <way id="4400431" version="4" timestamp="2008-05-15T12:27:02Z" uid="8943" user="Fopper" changeset="452827">
    <nd ref="26904559"/>
    <nd ref="26745965"/>
    <nd ref="26745966"/>
    <nd ref="26745969"/>
    <nd ref="26745960"/>
    <nd ref="26708459"/>
    <nd ref="128376938"/>
    <nd ref="26745962"/>
    <nd ref="26938861"/>
    <tag k="highway" v="primary"/>
    <tag k="name" v="Kaiserdamm"/>
    <tag k="nat_ref" v="B2,B5"/>
    <tag k="oneway" v="yes"/>
    <tag k="ref" v="B2,B5"/>
  </way>
  <way id="4400431" version="5" timestamp="2008-07-02T23:30:27Z" uid="45611" user="Srittau" changeset="385109">
    <nd ref="26904559"/>
    <nd ref="275727127"/>
    <nd ref="26745965"/>
    <nd ref="26745966"/>
    <nd ref="26745969"/>
    <nd ref="26745960"/>
    <nd ref="26708459"/>
    <nd ref="128376938"/>
    <nd ref="26745962"/>
    <nd ref="26938861"/>
    <tag k="highway" v="primary"/>
    <tag k="name" v="Kaiserdamm"/>
    <tag k="nat_ref" v="B2,B5"/>
    <tag k="oneway" v="yes"/>
    <tag k="ref" v="B2,B5"/>
  </way>
  <way id="4400431" version="6" timestamp="2008-07-29T07:20:54Z" uid="6669" user="Elwood" changeset="621587">
    <nd ref="26904559"/>
    <nd ref="275727127"/>
    <nd ref="26745965"/>
    <nd ref="26745966"/>
    <nd ref="26745969"/>
    <nd ref="26745960"/>
    <nd ref="26708459"/>
    <nd ref="128376938"/>
    <nd ref="26745962"/>
    <nd ref="26938861"/>
    <tag k="highway" v="primary"/>
    <tag k="name" v="Kaiserdamm"/>
    <tag k="nat_ref" v="B2,B5"/>
    <tag k="oneway" v="yes"/>
    <tag k="ref" v="B 2; B 5"/>
  </way>
  <way id="4400431" version="7" timestamp="2008-11-20T19:51:53Z" uid="6669" user="Elwood" changeset="772414">
    <nd ref="26904559"/>
    <nd ref="275727127"/>
    <nd ref="26745965"/>
    <nd ref="26745966"/>
    <nd ref="26745969"/>
    <nd ref="313373287"/>
    <nd ref="26745960"/>
    <nd ref="26708459"/>
    <nd ref="313373284"/>
    <nd ref="128376938"/>
    <nd ref="26745962"/>
    <nd ref="26938861"/>
    <tag k="highway" v="primary"/>
    <tag k="name" v="Kaiserdamm"/>
    <tag k="nat_ref" v="B2,B5"/>
    <tag k="oneway" v="yes"/>
    <tag k="ref" v="B 2; B 5"/>
  </way>
  <way id="4400431" version="8" timestamp="2009-04-07T18:39:30Z" uid="6669" user="Elwood" changeset="295637">
    <nd ref="26904559"/>
    <nd ref="275727127"/>
    <nd ref="26745965"/>
    <nd ref="26745966"/>
    <nd ref="26745969"/>
    <nd ref="313373287"/>
    <nd ref="26745960"/>
    <nd ref="26708459"/>
    <nd ref="313373284"/>
    <nd ref="128376938"/>
    <nd ref="26745962"/>
    <nd ref="26938861"/>
    <tag k="highway" v="primary"/>
    <tag k="name" v="Kaiserdamm"/>
    <tag k="nat_ref" v="B2,B5"/>
    <tag k="oneway" v="yes"/>
    <tag k="postal_code" v="14057"/>
    <tag k="ref" v="B 2; B 5"/>
  </way>
  <way id="4400431" version="9" timestamp="2009-05-28T11:55:02Z" uid="7041" user="UncleOwen" changeset="1342121">
    <nd ref="26904559"/>
    <nd ref="275727127"/>
    <nd ref="26745965"/>
    <nd ref="26745966"/>
    <nd ref="26745969"/>
    <nd ref="313373287"/>
    <nd ref="26745960"/>
    <nd ref="26708459"/>
    <nd ref="313373284"/>
    <nd ref="128376938"/>
    <nd ref="26745962"/>
    <nd ref="26938861"/>
    <tag k="highway" v="primary"/>
    <tag k="name" v="Kaiserdamm"/>
    <tag k="oneway" v="yes"/>
    <tag k="postal_code" v="14057"/>
    <tag k="ref" v="B 2; B 5"/>
  </way>
  <way id="4400431" version="10" timestamp="2009-06-02T09:11:59Z" uid="107521" user="openmapeteer" changeset="1402167">
    <nd ref="26904559"/>
    <nd ref="275727127"/>
    <nd ref="26745965"/>
    <nd ref="26745966"/>
    <nd ref="26745969"/>
    <nd ref="313373287"/>
    <nd ref="26745960"/>
    <nd ref="26708459"/>
    <nd ref="313373284"/>
    <nd ref="128376938"/>
    <nd ref="26745962"/>
    <nd ref="26938861"/>
    <tag k="highway" v="primary"/>
    <tag k="lanes" v="4"/>
    <tag k="name" v="Kaiserdamm"/>
    <tag k="oneway" v="yes"/>
    <tag k="postal_code" v="14057"/>
    <tag k="ref" v="B 2; B 5"/>
  </way>
  <way id="4400431" version="11" timestamp="2009-09-07T13:56:33Z" uid="115651" user="Konrad Aust" changeset="2402782">
    <nd ref="26904559"/>
    <nd ref="275727127"/>
    <nd ref="26745965"/>
    <nd ref="26745966"/>
    <nd ref="26745969"/>
    <nd ref="26745960"/>
    <nd ref="26708459"/>
    <nd ref="313373284"/>
    <nd ref="128376938"/>
    <nd ref="26745962"/>
    <nd ref="26938861"/>
    <tag k="highway" v="primary"/>
    <tag k="lanes" v="4"/>
    <tag k="name" v="Kaiserdamm"/>
    <tag k="oneway" v="yes"/>
    <tag k="postal_code" v="14057"/>
    <tag k="ref" v="B 2; B 5"/>
  </way>
  <way id="4400431" version="12" timestamp="2009-09-07T13:58:46Z" uid="115651" user="Konrad Aust" changeset="2402782">
    <nd ref="26904559"/>
    <nd ref="275727127"/>
    <nd ref="26745965"/>
    <nd ref="26745966"/>
    <nd ref="26745969"/>
    <nd ref="26745960"/>
    <nd ref="26708459"/>
    <nd ref="128376938"/>
    <nd ref="26745962"/>
    <nd ref="26938861"/>
    <tag k="highway" v="primary"/>
    <tag k="lanes" v="4"/>
    <tag k="name" v="Kaiserdamm"/>
    <tag k="oneway" v="yes"/>
    <tag k="postal_code" v="14057"/>
    <tag k="ref" v="B 2; B 5"/>
  </way>
  <way id="4400431" version="13" timestamp="2009-09-07T14:11:27Z" uid="115651" user="Konrad Aust" changeset="2402782">
    <nd ref="26904559"/>
    <nd ref="275727127"/>
    <nd ref="26745965"/>
    <nd ref="26745966"/>
    <nd ref="26745969"/>
    <nd ref="26745960"/>
    <nd ref="26708459"/>
    <nd ref="487691779"/>
    <nd ref="128376938"/>
    <nd ref="26745962"/>
    <nd ref="26938861"/>
    <tag k="highway" v="primary"/>
    <tag k="lanes" v="4"/>
    <tag k="name" v="Kaiserdamm"/>
    <tag k="oneway" v="yes"/>
    <tag k="postal_code" v="14057"/>
    <tag k="ref" v="B 2; B 5"/>
  </way>
  <way id="4400431" version="14" timestamp="2009-09-07T14:11:50Z" uid="115651" user="Konrad Aust" changeset="2402782">
    <nd ref="26904559"/>
    <nd ref="275727127"/>
    <nd ref="26745965"/>
    <nd ref="26745966"/>
    <nd ref="26745969"/>
    <nd ref="26745960"/>
    <nd ref="26708459"/>
    <nd ref="487691779"/>
    <nd ref="128376938"/>
    <nd ref="26745962"/>
    <nd ref="26938861"/>
    <tag k="highway" v="primary"/>
    <tag k="lanes" v="4"/>
    <tag k="name" v="Kaiserdamm"/>
    <tag k="oneway" v="yes"/>
    <tag k="postal_code" v="14057"/>
    <tag k="ref" v="B 2;B 5"/>
  </way>
  <way id="4400431" version="15" timestamp="2009-10-16T09:59:37Z" uid="6669" user="Elwood" changeset="2862750">
    <nd ref="26904559"/>
    <nd ref="275727127"/>
    <nd ref="26745965"/>
    <nd ref="26745966"/>
    <nd ref="26745969"/>
    <nd ref="533626136"/>
    <nd ref="26745960"/>
    <nd ref="26708459"/>
    <nd ref="487691779"/>
    <nd ref="128376938"/>
    <nd ref="26745962"/>
    <nd ref="26938861"/>
    <tag k="highway" v="primary"/>
    <tag k="lanes" v="4"/>
    <tag k="name" v="Kaiserdamm"/>
    <tag k="oneway" v="yes"/>
    <tag k="postal_code" v="14057"/>
    <tag k="ref" v="B 2;B 5"/>
  </way>
  <way id="4400431" version="16" timestamp="2010-03-17T14:08:19Z" uid="42938" user="Xanadu" changeset="4153325">
    <nd ref="26904559"/>
    <nd ref="275727127"/>
    <nd ref="26745965"/>
    <nd ref="26745966"/>
    <nd ref="26745969"/>
    <nd ref="533626136"/>
    <nd ref="26745960"/>
    <nd ref="26708459"/>
    <nd ref="487691779"/>
    <tag k="highway" v="primary"/>
    <tag k="lanes" v="4"/>
    <tag k="name" v="Kaiserdamm"/>
    <tag k="oneway" v="yes"/>
    <tag k="postal_code" v="14057"/>
    <tag k="ref" v="B 2;B 5"/>
  </way>
  <way id="4400431" version="17" timestamp="2010-08-03T18:15:15Z" uid="43566" user="anbr" changeset="5392482">
    <nd ref="26904559"/>
    <nd ref="275727127"/>
    <nd ref="26745965"/>
    <nd ref="26745966"/>
    <nd ref="26745969"/>
    <nd ref="533626136"/>
    <nd ref="26745960"/>
    <nd ref="26708459"/>
    <nd ref="487691779"/>
    <tag k="cycleway" v="track"/>
    <tag k="cycleway:right" v="track"/>
    <tag k="highway" v="primary"/>
    <tag k="lanes" v="4"/>
    <tag k="name" v="Kaiserdamm"/>
    <tag k="oneway" v="yes"/>
    <tag k="postal_code" v="14057"/>
    <tag k="ref" v="B 2;B 5"/>
  </way>
  <way id="4400431" version="18" timestamp="2010-10-16T10:13:51Z" uid="81244" user="rurseekatze" changeset="6056296">
    <nd ref="26904559"/>
    <nd ref="275727127"/>
    <nd ref="26745965"/>
    <nd ref="26745966"/>
    <nd ref="26745969"/>
    <nd ref="533626136"/>
    <nd ref="26745960"/>
    <nd ref="26708459"/>
    <nd ref="487691779"/>
    <tag k="cycleway" v="track"/>
    <tag k="cycleway:right" v="track"/>
    <tag k="highway" v="primary"/>
    <tag k="lanes" v="4"/>
    <tag k="lit" v="yes"/>
    <tag k="name" v="Kaiserdamm"/>
    <tag k="oneway" v="yes"/>
    <tag k="postal_code" v="14057"/>
    <tag k="ref" v="B 2;B 5"/>
  </way>
  <way id="4400431" version="19" timestamp="2010-12-28T17:32:01Z" uid="81244" user="rurseekatze" changeset="6790442">
    <nd ref="26904559"/>
    <nd ref="275727127"/>
    <nd ref="26745965"/>
    <nd ref="26745966"/>
    <nd ref="26745969"/>
    <nd ref="533626136"/>
    <nd ref="26745960"/>
    <nd ref="26708459"/>
    <nd ref="487691779"/>
    <tag k="cycleway" v="track"/>
    <tag k="cycleway:right" v="track"/>
    <tag k="highway" v="primary"/>
    <tag k="lanes" v="4"/>
    <tag k="lit" v="yes"/>
    <tag k="maxspeed" v="50"/>
    <tag k="name" v="Kaiserdamm"/>
    <tag k="oneway" v="yes"/>
    <tag k="postal_code" v="14057"/>
    <tag k="ref" v="B 2;B 5"/>
  </way>
  <way id="4400431" version="20" timestamp="2011-02-17T03:52:03Z" uid="248404" user="Nobody_2004" changeset="7309709">
    <nd ref="26904559"/>
    <nd ref="275727127"/>
    <nd ref="26745965"/>
    <nd ref="26745966"/>
    <nd ref="26745969"/>
    <nd ref="533626136"/>
    <nd ref="26745960"/>
    <nd ref="26708459"/>
    <nd ref="487691779"/>
    <tag k="cycleway" v="track"/>
    <tag k="cycleway:right" v="track"/>
    <tag k="highway" v="primary"/>
    <tag k="lanes" v="4"/>
    <tag k="lit" v="yes"/>
    <tag k="maxspeed" v="50"/>
    <tag k="name" v="Kaiserdamm"/>
    <tag k="oneway" v="yes"/>
    <tag k="postal_code" v="14057"/>
    <tag k="ref" v="B 2;B 5"/>
  </way>
  <way id="4400431" version="21" timestamp="2012-02-25T08:52:51Z" uid="6669" user="Elwood" changeset="10785518"/>
  <way id="4400435" version="1" timestamp="2007-03-30T14:20:27Z" uid="6454" user="B10xxx" changeset="249869">
    <nd ref="26904547"/>
    <nd ref="26905407"/>
    <nd ref="26905408"/>
    <nd ref="16541474"/>
    <tag k="created_by" v="YahooApplet 1.0"/>
    <tag k="highway" v="primary"/>
    <tag k="oneway" v="yes"/>
  </way>
  <way id="4400435" version="2" timestamp="2008-02-12T12:50:20Z" uid="17889" user="rrissiek" changeset="105484">
    <nd ref="26904547"/>
    <nd ref="26905407"/>
    <nd ref="26905408"/>
    <nd ref="16541474"/>
    <tag k="created_by" v="YahooApplet 1.0"/>
    <tag k="highway" v="primary"/>
    <tag k="ncn_ref" v="R1"/>
    <tag k="oneway" v="yes"/>
  </way>
  <way id="4400435" version="3" timestamp="2008-05-12T19:44:25Z" uid="35333" user="bollin" changeset="427148">
    <nd ref="26904547"/>
    <nd ref="26905407"/>
    <tag k="created_by" v="YahooApplet 1.0"/>
    <tag k="highway" v="primary"/>
    <tag k="oneway" v="yes"/>
  </way>
  <way id="4400435" version="4" timestamp="2008-10-27T15:04:01Z" uid="42938" user="Xanadu" changeset="601943">
    <nd ref="26904547"/>
    <nd ref="26905407"/>
    <tag k="created_by" v="YahooApplet 1.0"/>
    <tag k="highway" v="primary"/>
    <tag k="maxspeed" v="50"/>
    <tag k="oneway" v="yes"/>
  </way>
  <way id="4400435" version="5" timestamp="2008-11-20T18:51:22Z" uid="6669" user="Elwood" changeset="772414">
    <nd ref="26904547"/>
    <nd ref="26905407"/>
    <tag k="created_by" v="YahooApplet 1.0"/>
    <tag k="highway" v="primary"/>
    <tag k="maxspeed" v="50"/>
    <tag k="name" v="Heerstraße"/>
    <tag k="oneway" v="yes"/>
  </way>
  <way id="4400435" version="6" timestamp="2008-12-22T16:49:24Z" uid="2956" user="Christopher" changeset="549527">
    <nd ref="26904547"/>
    <nd ref="26905407"/>
    <tag k="created_by" v="YahooApplet 1.0"/>
    <tag k="highway" v="primary"/>
    <tag k="maxspeed" v="50"/>
    <tag k="name" v="Heerstraße"/>
    <tag k="oneway" v="yes"/>
    <tag k="ref" v="B 2; B 5"/>
  </way>
  <way id="4400435" version="7" timestamp="2009-04-11T17:48:21Z" uid="6669" user="Elwood" changeset="413654">
    <nd ref="26904547"/>
    <nd ref="26905407"/>
    <tag k="created_by" v="YahooApplet 1.0"/>
    <tag k="highway" v="primary"/>
    <tag k="maxspeed" v="50"/>
    <tag k="name" v="Heerstraße"/>
    <tag k="oneway" v="yes"/>
    <tag k="postal_code" v="14052"/>
    <tag k="ref" v="B 2; B 5"/>
  </way>
  <way id="4400435" version="8" timestamp="2009-06-02T09:10:21Z" uid="107521" user="openmapeteer" changeset="1402167">
    <nd ref="26904547"/>
    <nd ref="26905407"/>
    <tag k="created_by" v="YahooApplet 1.0"/>
    <tag k="highway" v="primary"/>
    <tag k="lanes" v="4"/>
    <tag k="maxspeed" v="50"/>
    <tag k="name" v="Heerstraße"/>
    <tag k="oneway" v="yes"/>
    <tag k="postal_code" v="14052"/>
    <tag k="ref" v="B 2; B 5"/>
  </way>
  <way id="4400435" version="9" timestamp="2009-09-07T18:12:01Z" uid="28476" user="Spoony" changeset="2405660">
    <nd ref="26904547"/>
    <nd ref="26905407"/>
    <tag k="highway" v="primary"/>
    <tag k="lanes" v="4"/>
    <tag k="maxspeed" v="50"/>
    <tag k="name" v="Heerstraße"/>
    <tag k="oneway" v="yes"/>
    <tag k="postal_code" v="14052"/>
    <tag k="ref" v="B 2; B 5"/>
  </way>
  <way id="4400435" version="10" timestamp="2009-12-27T00:00:52Z" uid="35560" user="HeikoE" changeset="3459541">
    <nd ref="26904547"/>
    <nd ref="26905407"/>
    <tag k="highway" v="primary"/>
    <tag k="lanes" v="4"/>
    <tag k="maxspeed" v="50"/>
    <tag k="name" v="Heerstraße"/>
    <tag k="oneway" v="yes"/>
    <tag k="postal_code" v="14052"/>
    <tag k="ref" v="B 2;B 5"/>
  </way>
  <way id="4400435" version="11" timestamp="2010-10-16T10:13:28Z" uid="81244" user="rurseekatze" changeset="6056296">
    <nd ref="26904547"/>
    <nd ref="26905407"/>
    <tag k="highway" v="primary"/>
    <tag k="lanes" v="4"/>
    <tag k="lit" v="yes"/>
    <tag k="maxspeed" v="50"/>
    <tag k="name" v="Heerstraße"/>
    <tag k="oneway" v="yes"/>
    <tag k="postal_code" v="14052"/>
    <tag k="ref" v="B 2;B 5"/>
  </way>
  <way id="4400435" version="12" timestamp="2012-02-25T08:59:27Z" uid="6669" user="Elwood" changeset="10785518"/>
  <way id="4400436" version="1" timestamp="2007-03-30T14:20:42Z" uid="6454" user="B10xxx" changeset="249869">
    <nd ref="26904543"/>
    <nd ref="26905400"/>
    <nd ref="26905401"/>
    <nd ref="26905402"/>
    <nd ref="26904547"/>
    <tag k="created_by" v="YahooApplet 1.0"/>
    <tag k="highway" v="primary"/>
    <tag k="oneway" v="yes"/>
  </way>
  <way id="4400436" version="2" timestamp="2008-05-12T19:44:25Z" uid="35333" user="bollin" changeset="427148">
    <nd ref="26904543"/>
    <nd ref="26905400"/>
    <nd ref="26905401"/>
    <nd ref="26905402"/>
    <nd ref="26904547"/>
    <tag k="created_by" v="YahooApplet 1.0"/>
    <tag k="highway" v="primary"/>
    <tag k="oneway" v="yes"/>
  </way>
  <way id="4400436" version="3" timestamp="2008-10-27T15:04:01Z" uid="42938" user="Xanadu" changeset="601943">
    <nd ref="26904543"/>
    <nd ref="26905400"/>
    <nd ref="26905401"/>
    <nd ref="26905402"/>
    <nd ref="26904547"/>
    <tag k="created_by" v="YahooApplet 1.0"/>
    <tag k="highway" v="primary"/>
    <tag k="maxspeed" v="50"/>
    <tag k="oneway" v="yes"/>
  </way>
  <way id="4400436" version="4" timestamp="2008-11-20T19:46:23Z" uid="6669" user="Elwood" changeset="772414">
    <nd ref="26904543"/>
    <nd ref="26905400"/>
    <nd ref="26905401"/>
    <nd ref="26905402"/>
    <nd ref="26904547"/>
    <tag k="created_by" v="YahooApplet 1.0"/>
    <tag k="highway" v="primary"/>
    <tag k="maxspeed" v="50"/>
    <tag k="name" v="Heerstraße"/>
    <tag k="oneway" v="yes"/>
  </way>
  <way id="4400436" version="5" timestamp="2008-12-22T16:49:25Z" uid="2956" user="Christopher" changeset="549527">
    <nd ref="26904543"/>
    <nd ref="26905400"/>
    <nd ref="26905401"/>
    <nd ref="26905402"/>
    <nd ref="26904547"/>
    <tag k="created_by" v="YahooApplet 1.0"/>
    <tag k="highway" v="primary"/>
    <tag k="maxspeed" v="50"/>
    <tag k="name" v="Heerstraße"/>
    <tag k="oneway" v="yes"/>
    <tag k="ref" v="B 2; B 5"/>
  </way>
  <way id="4400436" version="6" timestamp="2009-04-11T17:48:19Z" uid="6669" user="Elwood" changeset="413654">
    <nd ref="26904543"/>
    <nd ref="26905400"/>
    <nd ref="26905401"/>
    <nd ref="26905402"/>
    <nd ref="26904547"/>
    <tag k="created_by" v="YahooApplet 1.0"/>
    <tag k="highway" v="primary"/>
    <tag k="maxspeed" v="50"/>
    <tag k="name" v="Heerstraße"/>
    <tag k="oneway" v="yes"/>
    <tag k="postal_code" v="14052"/>
    <tag k="ref" v="B 2; B 5"/>
  </way>
  <way id="4400436" version="7" timestamp="2009-06-02T09:10:11Z" uid="107521" user="openmapeteer" changeset="1402167">
    <nd ref="26904543"/>
    <nd ref="26905400"/>
    <nd ref="26905401"/>
    <nd ref="26905402"/>
    <nd ref="26904547"/>
    <tag k="created_by" v="YahooApplet 1.0"/>
    <tag k="highway" v="primary"/>
    <tag k="lanes" v="3"/>
    <tag k="maxspeed" v="50"/>
    <tag k="name" v="Heerstraße"/>
    <tag k="oneway" v="yes"/>
    <tag k="postal_code" v="14052"/>
    <tag k="ref" v="B 2; B 5"/>
  </way>
  <way id="4400436" version="8" timestamp="2009-09-07T18:12:01Z" uid="28476" user="Spoony" changeset="2405660">
    <nd ref="26904543"/>
    <nd ref="26905400"/>
    <nd ref="26905401"/>
    <nd ref="26905402"/>
    <nd ref="26904547"/>
    <tag k="highway" v="primary"/>
    <tag k="lanes" v="3"/>
    <tag k="maxspeed" v="50"/>
    <tag k="name" v="Heerstraße"/>
    <tag k="oneway" v="yes"/>
    <tag k="postal_code" v="14052"/>
    <tag k="ref" v="B 2; B 5"/>
  </way>
  <way id="4400436" version="9" timestamp="2009-12-27T00:00:52Z" uid="35560" user="HeikoE" changeset="3459541">
    <nd ref="26904543"/>
    <nd ref="26905400"/>
    <nd ref="26905401"/>
    <nd ref="26905402"/>
    <nd ref="26904547"/>
    <tag k="highway" v="primary"/>
    <tag k="lanes" v="3"/>
    <tag k="maxspeed" v="50"/>
    <tag k="name" v="Heerstraße"/>
    <tag k="oneway" v="yes"/>
    <tag k="postal_code" v="14052"/>
    <tag k="ref" v="B 2;B 5"/>
  </way>
  <way id="4400436" version="10" timestamp="2010-10-16T10:13:29Z" uid="81244" user="rurseekatze" changeset="6056296">
    <nd ref="26904543"/>
    <nd ref="26905400"/>
    <nd ref="26905401"/>
    <nd ref="26905402"/>
    <nd ref="26904547"/>
    <tag k="highway" v="primary"/>
    <tag k="lanes" v="3"/>
    <tag k="lit" v="yes"/>
    <tag k="maxspeed" v="50"/>
    <tag k="name" v="Heerstraße"/>
    <tag k="oneway" v="yes"/>
    <tag k="postal_code" v="14052"/>
    <tag k="ref" v="B 2;B 5"/>
  </way>
  <way id="4400436" version="11" timestamp="2012-02-25T08:59:27Z" uid="6669" user="Elwood" changeset="10785518"/>
  <way id="4400443" version="3" timestamp="2008-07-30T10:25:23Z" uid="54539" user="Spot" changeset="625990">
    <nd ref="21611137"/>
    <nd ref="26640897"/>
    <nd ref="21607316"/>
    <nd ref="282193019"/>
    <nd ref="282193020"/>
    <nd ref="21607042"/>
    <tag k="created_by" v="JOSM"/>
    <tag k="highway" v="secondary"/>
    <tag k="maxspeed" v="30"/>
    <tag k="name" v="Marloffsteiner Straße"/>
  </way>
  <way id="4400443" version="4" timestamp="2009-05-13T09:41:26Z" uid="69127" user="GeoGrafiker" changeset="1173398">
    <nd ref="21611137"/>
    <nd ref="26640897"/>
    <nd ref="21607316"/>
    <nd ref="282193019"/>
    <nd ref="282193020"/>
    <nd ref="21607042"/>
    <tag k="created_by" v="JOSM"/>
    <tag k="highway" v="tertiary"/>
    <tag k="maxspeed" v="30"/>
    <tag k="name" v="Marloffsteiner Straße"/>
    <tag k="ref" v="ERH 7"/>
  </way>
  <way id="4400443" version="5" timestamp="2009-05-13T10:06:25Z" uid="69127" user="GeoGrafiker" changeset="1173618">
    <nd ref="21611137"/>
    <nd ref="26640897"/>
    <nd ref="21607316"/>
    <nd ref="395254002"/>
    <nd ref="282193019"/>
    <nd ref="282193020"/>
    <nd ref="21607042"/>
    <tag k="created_by" v="JOSM"/>
    <tag k="highway" v="tertiary"/>
    <tag k="maxspeed" v="30"/>
    <tag k="name" v="Marloffsteiner Straße"/>
    <tag k="ref" v="ERH 7"/>
  </way>
  <way id="4400443" version="6" timestamp="2009-09-26T08:32:57Z" uid="85730" user="stax" changeset="2636269">
    <nd ref="21611137"/>
    <nd ref="26640897"/>
    <nd ref="21607316"/>
    <nd ref="395254002"/>
    <nd ref="282193019"/>
    <nd ref="282193020"/>
    <nd ref="508075061"/>
    <nd ref="21607042"/>
    <tag k="highway" v="tertiary"/>
    <tag k="maxspeed" v="30"/>
    <tag k="name" v="Marloffsteiner Straße"/>
    <tag k="ref" v="ERH 7"/>
  </way>
  <way id="4400443" version="7" timestamp="2011-08-20T11:52:08Z" uid="509186" user="hearty" changeset="9073563">
    <nd ref="21611137"/>
    <nd ref="26640897"/>
    <nd ref="21607316"/>
    <nd ref="395254002"/>
    <nd ref="282193019"/>
    <nd ref="282193020"/>
    <nd ref="508075061"/>
    <nd ref="21607042"/>
    <tag k="highway" v="tertiary"/>
    <tag k="maxspeed" v="30"/>
    <tag k="name" v="Marloffsteiner Straße"/>
    <tag k="ref" v="ERH 7"/>
  </way>
  <way id="4400443" version="8" timestamp="2012-02-11T09:34:20Z" uid="82877" user="Wankmann" changeset="10650617"/>
  <way id="4400465" version="1" timestamp="2007-03-30T14:28:10Z" uid="6454" user="B10xxx" changeset="249869">
    <nd ref="26904547"/>
    <nd ref="26904555"/>
    <nd ref="16541478"/>
    <tag k="created_by" v="YahooApplet 1.0"/>
    <tag k="highway" v="primary"/>
  </way>
  <way id="4400465" version="2" timestamp="2008-08-02T17:46:59Z" uid="6669" user="Elwood" changeset="22308">
    <nd ref="26904547"/>
    <nd ref="26904555"/>
    <nd ref="282916317"/>
    <nd ref="16541478"/>
    <tag k="created_by" v="YahooApplet 1.0"/>
    <tag k="highway" v="primary"/>
  </way>
  <way id="4400465" version="3" timestamp="2008-10-27T15:04:00Z" uid="42938" user="Xanadu" changeset="601943">
    <nd ref="26904547"/>
    <nd ref="26904555"/>
    <nd ref="282916317"/>
    <nd ref="16541478"/>
    <tag k="created_by" v="YahooApplet 1.0"/>
    <tag k="highway" v="primary"/>
    <tag k="maxspeed" v="50"/>
  </way>
  <way id="4400465" version="4" timestamp="2008-11-26T10:49:38Z" uid="63375" user="Divjo" changeset="795355">
    <nd ref="26904547"/>
    <nd ref="26904555"/>
    <nd ref="282916317"/>
    <nd ref="16541478"/>
    <tag k="created_by" v="Potlatch 0.10f"/>
    <tag k="highway" v="primary"/>
    <tag k="maxspeed" v="50"/>
    <tag k="name" v="Heerstraße"/>
  </way>
  <way id="4400465" version="5" timestamp="2008-12-22T16:49:26Z" uid="2956" user="Christopher" changeset="549527">
    <nd ref="26904547"/>
    <nd ref="26904555"/>
    <nd ref="282916317"/>
    <nd ref="16541478"/>
    <tag k="created_by" v="Potlatch 0.10f"/>
    <tag k="highway" v="primary"/>
    <tag k="maxspeed" v="50"/>
    <tag k="name" v="Heerstraße"/>
    <tag k="ref" v="B 2; B 5"/>
  </way>
  <way id="4400465" version="6" timestamp="2009-02-24T20:25:50Z" uid="17508" user="robx" changeset="654459">
    <nd ref="26904547"/>
    <nd ref="26904555"/>
    <nd ref="282916317"/>
    <nd ref="16541478"/>
    <tag k="bicycle" v="no"/>
    <tag k="created_by" v="Potlatch 0.10f"/>
    <tag k="highway" v="primary"/>
    <tag k="maxspeed" v="50"/>
    <tag k="motorroad" v="yes"/>
    <tag k="name" v="Heerstraße"/>
    <tag k="ref" v="B 2; B 5"/>
  </way>
  <way id="4400465" version="7" timestamp="2009-02-24T20:49:15Z" uid="17508" user="robx" changeset="654459">
    <nd ref="26904547"/>
    <nd ref="26904555"/>
    <nd ref="351903452"/>
    <nd ref="282916317"/>
    <nd ref="16541478"/>
    <tag k="bicycle" v="no"/>
    <tag k="created_by" v="Potlatch 0.10f"/>
    <tag k="highway" v="primary"/>
    <tag k="maxspeed" v="50"/>
    <tag k="motorroad" v="yes"/>
    <tag k="name" v="Heerstraße"/>
    <tag k="ref" v="B 2; B 5"/>
  </way>
  <way id="4400465" version="8" timestamp="2009-04-11T17:48:13Z" uid="6669" user="Elwood" changeset="413654">
    <nd ref="26904547"/>
    <nd ref="26904555"/>
    <nd ref="351903452"/>
    <nd ref="282916317"/>
    <nd ref="16541478"/>
    <tag k="bicycle" v="no"/>
    <tag k="created_by" v="Potlatch 0.10f"/>
    <tag k="highway" v="primary"/>
    <tag k="maxspeed" v="50"/>
    <tag k="motorroad" v="yes"/>
    <tag k="name" v="Heerstraße"/>
    <tag k="postal_code" v="14052"/>
    <tag k="ref" v="B 2; B 5"/>
  </way>
  <way id="4400465" version="9" timestamp="2009-06-02T09:10:03Z" uid="107521" user="openmapeteer" changeset="1402167">
    <nd ref="26904547"/>
    <nd ref="26904555"/>
    <nd ref="351903452"/>
    <nd ref="282916317"/>
    <nd ref="16541478"/>
    <tag k="bicycle" v="no"/>
    <tag k="created_by" v="Potlatch 0.10f"/>
    <tag k="highway" v="primary"/>
    <tag k="lanes" v="2"/>
    <tag k="maxspeed" v="50"/>
    <tag k="motorroad" v="yes"/>
    <tag k="name" v="Heerstraße"/>
    <tag k="postal_code" v="14052"/>
    <tag k="ref" v="B 2; B 5"/>
  </way>
  <way id="4400465" version="10" timestamp="2009-09-07T18:12:01Z" uid="28476" user="Spoony" changeset="2405660">
    <nd ref="26904547"/>
    <nd ref="26904555"/>
    <nd ref="351903452"/>
    <nd ref="282916317"/>
    <nd ref="16541478"/>
    <tag k="bicycle" v="no"/>
    <tag k="highway" v="primary"/>
    <tag k="lanes" v="2"/>
    <tag k="maxspeed" v="50"/>
    <tag k="motorroad" v="yes"/>
    <tag k="name" v="Heerstraße"/>
    <tag k="postal_code" v="14052"/>
    <tag k="ref" v="B 2; B 5"/>
  </way>
  <way id="4400465" version="11" timestamp="2009-12-27T00:00:55Z" uid="35560" user="HeikoE" changeset="3459541">
    <nd ref="26904547"/>
    <nd ref="26904555"/>
    <nd ref="351903452"/>
    <nd ref="282916317"/>
    <nd ref="16541478"/>
    <tag k="bicycle" v="no"/>
    <tag k="highway" v="primary"/>
    <tag k="lanes" v="2"/>
    <tag k="maxspeed" v="50"/>
    <tag k="motorroad" v="yes"/>
    <tag k="name" v="Heerstraße"/>
    <tag k="postal_code" v="14052"/>
    <tag k="ref" v="B 2;B 5"/>
  </way>
  <way id="4400465" version="12" timestamp="2009-12-29T18:40:59Z" uid="35560" user="HeikoE" changeset="3483934">
    <nd ref="26904547"/>
    <nd ref="26904555"/>
    <nd ref="351903452"/>
    <nd ref="282916317"/>
    <nd ref="16541478"/>
    <tag k="highway" v="primary"/>
    <tag k="lanes" v="2"/>
    <tag k="maxspeed" v="50"/>
    <tag k="motorroad" v="yes"/>
    <tag k="name" v="Heerstraße"/>
    <tag k="postal_code" v="14052"/>
    <tag k="ref" v="B 2;B 5"/>
  </way>
  <way id="4400465" version="13" timestamp="2010-11-19T17:42:31Z" uid="81244" user="rurseekatze" changeset="6408786">
    <nd ref="26904547"/>
    <nd ref="26904555"/>
    <nd ref="351903452"/>
    <nd ref="282916317"/>
    <nd ref="16541478"/>
    <tag k="highway" v="primary"/>
    <tag k="lanes" v="2"/>
    <tag k="lit" v="yes"/>
    <tag k="maxspeed" v="50"/>
    <tag k="motorroad" v="yes"/>
    <tag k="name" v="Heerstraße"/>
    <tag k="postal_code" v="14052"/>
    <tag k="ref" v="B 2;B 5"/>
  </way>
  <way id="4400465" version="14" timestamp="2011-03-06T08:26:34Z" uid="22684" user="Mr_Israel" changeset="7470524">
    <nd ref="26904547"/>
    <nd ref="26904555"/>
    <tag k="highway" v="primary"/>
    <tag k="lanes" v="2"/>
    <tag k="lit" v="yes"/>
    <tag k="maxspeed" v="50"/>
    <tag k="motorroad" v="yes"/>
    <tag k="name" v="Heerstraße"/>
    <tag k="postal_code" v="14052"/>
    <tag k="ref" v="B 2;B 5"/>
  </way>
  <way id="4400465" version="15" timestamp="2012-02-25T08:59:27Z" uid="6669" user="Elwood" changeset="10785518"/>
  <way id="4400471" version="3" timestamp="2008-05-04T12:54:25Z" uid="36809" user="pfoten_weg_!_" changeset="336054">
    <nd ref="21133542"/>
    <nd ref="262129486"/>
    <nd ref="21133528"/>
    <nd ref="21133540"/>
    <tag k="created_by" v="Potlatch 0.8c"/>
    <tag k="cycleway" v="track"/>
    <tag k="highway" v="minor"/>
    <tag k="name" v="Kistlerhofstraße"/>
    <tag k="oneway" v="true"/>
  </way>
  <way id="4400471" version="4" timestamp="2008-05-04T12:59:10Z" uid="36809" user="pfoten_weg_!_" changeset="336054">
    <nd ref="21133542"/>
    <nd ref="262129486"/>
    <nd ref="21133528"/>
    <nd ref="262130899"/>
    <nd ref="262130900"/>
    <nd ref="262130901"/>
    <nd ref="21133540"/>
    <tag k="created_by" v="Potlatch 0.8c"/>
    <tag k="cycleway" v="track"/>
    <tag k="highway" v="minor"/>
    <tag k="name" v="Kistlerhofstraße"/>
    <tag k="oneway" v="true"/>
  </way>
  <way id="4400471" version="5" timestamp="2008-05-06T22:57:50Z" uid="36809" user="pfoten_weg_!_" changeset="356487">
    <nd ref="21133542"/>
    <nd ref="262129486"/>
    <nd ref="21133528"/>
    <tag k="created_by" v="Potlatch 0.8c"/>
    <tag k="cycleway" v="track"/>
    <tag k="highway" v="minor"/>
    <tag k="name" v="Kistlerhofstraße"/>
    <tag k="oneway" v="true"/>
  </way>
  <way id="4400471" version="6" timestamp="2008-05-06T22:58:08Z" uid="36809" user="pfoten_weg_!_" changeset="356487">
    <nd ref="21133542"/>
    <nd ref="262129486"/>
    <nd ref="21133528"/>
    <tag k="created_by" v="Potlatch 0.8c"/>
    <tag k="highway" v="tertiary"/>
    <tag k="name" v="Kistlerhofstraße"/>
    <tag k="oneway" v="true"/>
  </way>
  <way id="4400471" version="7" timestamp="2008-06-30T09:14:13Z" uid="37850" user="mawis" changeset="341979">
    <nd ref="21133542"/>
    <nd ref="274866607"/>
    <nd ref="262129486"/>
    <nd ref="21133528"/>
    <tag k="created_by" v="Potlatch 0.8c"/>
    <tag k="highway" v="tertiary"/>
    <tag k="name" v="Kistlerhofstraße"/>
    <tag k="oneway" v="true"/>
  </way>
  <way id="4400471" version="8" timestamp="2008-07-09T22:44:09Z" uid="46472" user="sendelhorst" changeset="456251">
    <nd ref="21133542"/>
    <nd ref="277475909"/>
    <nd ref="274866607"/>
    <nd ref="262129486"/>
    <nd ref="21133528"/>
    <tag k="created_by" v="Potlatch 0.8c"/>
    <tag k="highway" v="tertiary"/>
    <tag k="name" v="Kistlerhofstraße"/>
    <tag k="oneway" v="true"/>
  </way>
  <way id="4400471" version="9" timestamp="2008-08-11T12:15:06Z" uid="37850" user="mawis" changeset="192545">
    <nd ref="21133542"/>
    <nd ref="277475909"/>
    <nd ref="274866607"/>
    <nd ref="262129486"/>
    <nd ref="21133528"/>
    <tag k="created_by" v="Potlatch 0.8c"/>
    <tag k="highway" v="tertiary"/>
    <tag k="maxspeed" v="50"/>
    <tag k="name" v="Kistlerhofstraße"/>
    <tag k="oneway" v="true"/>
  </way>
  <way id="4400471" version="10" timestamp="2008-08-21T23:28:28Z" uid="36809" user="pfoten_weg_!_" changeset="363581">
    <nd ref="21133542"/>
    <nd ref="277475909"/>
    <nd ref="274866607"/>
    <nd ref="262129486"/>
    <nd ref="21133528"/>
    <tag k="created_by" v="RambaZamba"/>
    <tag k="highway" v="tertiary"/>
    <tag k="maxspeed" v="50"/>
    <tag k="name" v="Kistlerhofstraße"/>
    <tag k="oneway" v="true"/>
  </way>
  <way id="4400471" version="11" timestamp="2008-09-15T12:58:56Z" uid="36809" user="pfoten_weg_!_" changeset="638986">
    <nd ref="21133542"/>
    <nd ref="277475909"/>
    <nd ref="274866607"/>
    <nd ref="262129486"/>
    <nd ref="21133528"/>
    <tag k="created_by" v="RambaZamba"/>
    <tag k="highway" v="tertiary"/>
    <tag k="maxspeed" v="50"/>
    <tag k="name" v="Kistlerhofstraße"/>
    <tag k="oneway" v="true"/>
    <tag k="source" v="survey "/>
  </way>
  <way id="4400471" version="12" timestamp="2008-09-16T06:05:25Z" uid="31231" user="Andre68" changeset="645611">
    <nd ref="21133542"/>
    <nd ref="277475909"/>
    <nd ref="274866607"/>
    <nd ref="262129486"/>
    <nd ref="21133528"/>
    <tag k="created_by" v="RambaZamba"/>
    <tag k="highway" v="tertiary"/>
    <tag k="maxspeed" v="50"/>
    <tag k="name" v="Kistlerhofstraße"/>
    <tag k="oneway" v="true"/>
    <tag k="source" v="survey"/>
  </way>
  <way id="4400471" version="13" timestamp="2008-09-21T20:05:24Z" uid="36809" user="pfoten_weg_!_" changeset="676192">
    <nd ref="21133528"/>
    <nd ref="262129486"/>
    <nd ref="274866607"/>
    <nd ref="277475909"/>
    <nd ref="21133542"/>
    <tag k="created_by" v="RambaZamba"/>
    <tag k="highway" v="tertiary"/>
    <tag k="maxspeed" v="50"/>
    <tag k="name" v="Kistlerhofstraße"/>
    <tag k="oneway" v="-1"/>
    <tag k="source" v="survey"/>
  </way>
  <way id="4400471" version="14" timestamp="2008-09-21T20:11:19Z" uid="36809" user="pfoten_weg_!_" changeset="676192">
    <nd ref="21133542"/>
    <nd ref="277475909"/>
    <nd ref="274866607"/>
    <nd ref="262129486"/>
    <nd ref="21133528"/>
    <tag k="created_by" v="RambaZamba"/>
    <tag k="highway" v="tertiary"/>
    <tag k="maxspeed" v="50"/>
    <tag k="name" v="Kistlerhofstraße"/>
    <tag k="oneway" v="yes"/>
    <tag k="source" v="survey"/>
  </way>
  <way id="4400471" version="15" timestamp="2008-10-01T02:33:10Z" uid="36809" user="pfoten_weg_!_" changeset="5644">
    <nd ref="21133542"/>
    <nd ref="277475909"/>
    <nd ref="274866607"/>
    <nd ref="262129486"/>
    <nd ref="21133528"/>
    <tag k="created_by" v="RambaZamba"/>
    <tag k="highway" v="tertiary"/>
    <tag k="maxspeed" v="50"/>
    <tag k="name" v="Kistlerhofstraße"/>
    <tag k="oneway" v="yes"/>
    <tag k="source" v="survey"/>
  </way>
  <way id="4400471" version="16" timestamp="2009-03-24T01:03:53Z" uid="36809" user="pfoten_weg_!_" changeset="853978">
    <nd ref="21133542"/>
    <nd ref="277475909"/>
    <nd ref="274866607"/>
    <nd ref="262129486"/>
    <nd ref="21133528"/>
    <tag k="created_by" v="RambaZamba"/>
    <tag k="highway" v="tertiary"/>
    <tag k="maxspeed" v="50"/>
    <tag k="name" v="Kistlerhofstraße"/>
    <tag k="oneway" v="yes"/>
    <tag k="ref" v="St"/>
    <tag k="source" v="survey"/>
  </way>
  <way id="4400471" version="17" timestamp="2009-03-26T19:40:30Z" uid="106615" user="matafumar" changeset="861171">
    <nd ref="21133542"/>
    <nd ref="277475909"/>
    <nd ref="274866607"/>
    <nd ref="262129486"/>
    <nd ref="21133528"/>
    <tag k="created_by" v="Potlatch 0.10f"/>
    <tag k="highway" v="tertiary"/>
    <tag k="maxspeed" v="50"/>
    <tag k="name" v="Kistlerhofstraße"/>
    <tag k="oneway" v="yes"/>
    <tag k="source" v="survey"/>
  </way>
  <way id="4400471" version="18" timestamp="2009-04-28T06:26:21Z" uid="106615" user="matafumar" changeset="999949">
    <nd ref="21133542"/>
    <nd ref="277475909"/>
    <nd ref="274866607"/>
    <nd ref="21133528"/>
    <tag k="created_by" v="Potlatch 0.10f"/>
    <tag k="highway" v="tertiary"/>
    <tag k="maxspeed" v="50"/>
    <tag k="name" v="Kistlerhofstraße"/>
    <tag k="oneway" v="yes"/>
    <tag k="source" v="survey"/>
  </way>
  <way id="4400471" version="19" timestamp="2009-05-23T23:28:47Z" uid="36809" user="pfoten_weg_!_" changeset="1300679"/>
  <way id="4400477" version="8" timestamp="2008-08-23T23:48:09Z" uid="36809" user="pfoten_weg_!_" changeset="384601">
    <nd ref="2040647"/>
    <nd ref="274305872"/>
    <nd ref="26483406"/>
    <nd ref="26057144"/>
    <nd ref="27149849"/>
    <nd ref="26483780"/>
    <tag k="created_by" v="RambaZamba"/>
    <tag k="cycleway" v="track"/>
    <tag k="highway" v="secondary"/>
    <tag k="maxspeed" v="60"/>
    <tag k="name" v="Boschetsrieder Straße"/>
  </way>
  <way id="4400477" version="9" timestamp="2008-09-07T11:49:53Z" uid="66225" user="AReifinger" changeset="568984">
    <nd ref="2040647"/>
    <nd ref="274305872"/>
    <nd ref="26483406"/>
    <nd ref="26057144"/>
    <nd ref="27149849"/>
    <nd ref="26483780"/>
    <tag k="created_by" v="Potlatch 0.10b"/>
    <tag k="cycleway" v="track"/>
    <tag k="highway" v="secondary"/>
    <tag k="maxspeed" v="60"/>
    <tag k="name" v="Boschetsrieder Straße"/>
  </way>
  <way id="4400477" version="10" timestamp="2008-10-01T02:34:19Z" uid="36809" user="pfoten_weg_!_" changeset="5644">
    <nd ref="2040647"/>
    <nd ref="274305872"/>
    <nd ref="26483406"/>
    <nd ref="26057144"/>
    <nd ref="27149849"/>
    <nd ref="26483780"/>
    <tag k="created_by" v="RambaZamba"/>
    <tag k="cycleway" v="track"/>
    <tag k="highway" v="secondary"/>
    <tag k="maxspeed" v="60"/>
    <tag k="name" v="Boschetsrieder Straße"/>
  </way>
  <way id="4400477" version="11" timestamp="2008-11-28T14:45:48Z" uid="37850" user="mawis" changeset="804516">
    <nd ref="2040647"/>
    <nd ref="274305872"/>
    <nd ref="26483406"/>
    <nd ref="26057144"/>
    <nd ref="27149849"/>
    <nd ref="26483780"/>
    <tag k="cycleway" v="track"/>
    <tag k="highway" v="secondary"/>
    <tag k="maxspeed" v="50"/>
    <tag k="name" v="Boschetsrieder Straße"/>
  </way>
  <way id="4400477" version="12" timestamp="2009-02-17T10:02:48Z" uid="8748" user="ToniE" changeset="502147">
    <nd ref="2040647"/>
    <nd ref="274305872"/>
    <nd ref="346599320"/>
    <nd ref="26483406"/>
    <nd ref="26057144"/>
    <nd ref="27149849"/>
    <nd ref="26483780"/>
    <tag k="cycleway" v="track"/>
    <tag k="highway" v="secondary"/>
    <tag k="maxspeed" v="50"/>
    <tag k="name" v="Boschetsrieder Straße"/>
  </way>
  <way id="4400477" version="13" timestamp="2010-06-17T21:38:51Z" uid="46472" user="sendelhorst" changeset="5012632">
    <nd ref="2040647"/>
    <nd ref="274305872"/>
    <nd ref="346599320"/>
    <nd ref="26483406"/>
    <nd ref="26057144"/>
    <nd ref="27149849"/>
    <nd ref="26483780"/>
    <tag k="highway" v="secondary"/>
    <tag k="maxspeed" v="50"/>
    <tag k="name" v="Boschetsrieder Straße"/>
  </way>
  <way id="4400477" version="14" timestamp="2010-11-01T22:22:52Z" uid="72235" user="Basstoelpel" changeset="6263821">
    <nd ref="2040647"/>
    <nd ref="274305872"/>
    <nd ref="346599320"/>
    <nd ref="26483406"/>
    <nd ref="26057144"/>
    <nd ref="974179644"/>
    <nd ref="27149849"/>
    <nd ref="26483780"/>
    <tag k="highway" v="secondary"/>
    <tag k="maxspeed" v="50"/>
    <tag k="name" v="Boschetsrieder Straße"/>
  </way>
  <way id="4400477" version="15" timestamp="2011-12-29T21:32:46Z" uid="13832" user="Peter14" changeset="10240013"/>
  <way id="4400486" version="1" timestamp="2007-03-30T14:49:48Z" uid="6454" user="B10xxx" changeset="249869">
    <nd ref="26704083"/>
    <nd ref="26704085"/>
    <nd ref="26704073"/>
    <nd ref="26704108"/>
    <nd ref="26763059"/>
    <nd ref="26787970"/>
    <nd ref="26762984"/>
    <nd ref="26763068"/>
    <nd ref="26763074"/>
    <nd ref="26763000"/>
    <tag k="created_by" v="YahooApplet 1.0"/>
    <tag k="highway" v="secondary"/>
    <tag k="oneway" v="yes"/>
  </way>
  <way id="4400486" version="2" timestamp="2007-10-14T19:15:40Z" uid="6454" user="B10xxx" changeset="165202">
    <nd ref="26704083"/>
    <nd ref="26704085"/>
    <nd ref="26704073"/>
    <nd ref="26704108"/>
    <nd ref="26763059"/>
    <nd ref="26787970"/>
    <nd ref="71429246"/>
    <nd ref="26762984"/>
    <nd ref="26763068"/>
    <nd ref="26763074"/>
    <nd ref="26763000"/>
    <tag k="created_by" v="Potlatch alpha"/>
    <tag k="highway" v="secondary"/>
    <tag k="oneway" v="yes"/>
  </way>
  <way id="4400486" version="3" timestamp="2007-10-17T11:46:10Z" uid="16447" user="Wilmersdorfer" changeset="219165">
    <nd ref="26704083"/>
    <nd ref="26704085"/>
    <nd ref="26704073"/>
    <nd ref="26704108"/>
    <nd ref="26763059"/>
    <nd ref="26787970"/>
    <nd ref="71429244"/>
    <nd ref="26762984"/>
    <nd ref="26763068"/>
    <nd ref="26763074"/>
    <nd ref="26763000"/>
    <tag k="created_by" v="Potlatch alpha"/>
    <tag k="highway" v="secondary"/>
    <tag k="oneway" v="yes"/>
  </way>
  <way id="4400486" version="4" timestamp="2007-12-24T20:15:24Z" uid="10549" user="toaster" changeset="413868">
    <nd ref="26704083"/>
    <nd ref="26704085"/>
    <nd ref="26704073"/>
    <nd ref="26704108"/>
    <nd ref="26763059"/>
    <nd ref="26787970"/>
    <nd ref="71429244"/>
    <nd ref="26762984"/>
    <nd ref="26763068"/>
    <nd ref="26763074"/>
    <nd ref="187538010"/>
    <nd ref="26763000"/>
    <tag k="created_by" v="Potlatch alpha"/>
    <tag k="highway" v="secondary"/>
    <tag k="oneway" v="yes"/>
  </way>
  <way id="4400486" version="5" timestamp="2007-12-29T11:59:26Z" uid="18123" user="BlackMagic" changeset="468011">
    <nd ref="26704083"/>
    <nd ref="26704085"/>
    <nd ref="26704073"/>
    <tag k="created_by" v="Potlatch 0.6"/>
    <tag k="highway" v="secondary"/>
    <tag k="oneway" v="yes"/>
  </way>
  <way id="4400486" version="6" timestamp="2007-12-29T12:00:11Z" uid="18123" user="BlackMagic" changeset="468011"/>
  <way id="4400513" version="1" timestamp="2007-09-15T16:11:03Z" uid="13367" user="nubok" changeset="435295">
    <nd ref="377429"/>
    <nd ref="26787130"/>
    <nd ref="26787131"/>
    <nd ref="26787125"/>
    <tag k="created_by" v="Potlatch alpha"/>
    <tag k="highway" v="motorway_link"/>
    <tag k="oneway" v="true"/>
  </way>
  <way id="4400513" version="2" timestamp="2008-10-02T00:23:18Z" uid="59819" user="Fuss-im-Ohr" changeset="23458">
    <nd ref="377429"/>
    <nd ref="26787130"/>
    <nd ref="26787131"/>
    <nd ref="26787125"/>
    <tag k="created_by" v="Potlatch alpha"/>
    <tag k="highway" v="motorway_link"/>
    <tag k="oneway" v="yes"/>
  </way>
  <way id="4400513" version="3" timestamp="2009-10-20T11:09:43Z" uid="29061" user="KPG" changeset="2902017">
    <nd ref="377429"/>
    <nd ref="26787130"/>
    <nd ref="536517918"/>
    <nd ref="26787131"/>
    <nd ref="26787125"/>
    <tag k="highway" v="motorway_link"/>
    <tag k="oneway" v="yes"/>
  </way>
  <way id="4400513" version="4" timestamp="2009-10-20T11:10:46Z" uid="29061" user="KPG" changeset="2902017">
    <nd ref="377429"/>
    <nd ref="26787130"/>
    <nd ref="536517918"/>
    <nd ref="26787131"/>
    <nd ref="536518491"/>
    <nd ref="536518504"/>
    <nd ref="536518515"/>
    <nd ref="536518518"/>
    <nd ref="536518526"/>
    <nd ref="536518528"/>
    <tag k="highway" v="motorway_link"/>
    <tag k="oneway" v="yes"/>
  </way>
  <way id="4400513" version="5" timestamp="2009-10-20T11:12:12Z" uid="29061" user="KPG" changeset="2902017">
    <nd ref="377429"/>
    <nd ref="26787130"/>
    <nd ref="536517918"/>
    <nd ref="26787131"/>
    <nd ref="536518491"/>
    <nd ref="536518504"/>
    <nd ref="536518892"/>
    <nd ref="536518515"/>
    <nd ref="536518518"/>
    <nd ref="536518526"/>
    <nd ref="536518528"/>
    <tag k="highway" v="motorway_link"/>
    <tag k="oneway" v="yes"/>
  </way>
  <way id="4400513" version="6" timestamp="2009-10-20T11:13:09Z" uid="29061" user="KPG" changeset="2902017">
    <nd ref="377429"/>
    <nd ref="26787130"/>
    <nd ref="536517918"/>
    <nd ref="26787131"/>
    <nd ref="536518491"/>
    <nd ref="536518504"/>
    <nd ref="536518892"/>
    <nd ref="536518515"/>
    <nd ref="536518518"/>
    <nd ref="536519129"/>
    <nd ref="536518526"/>
    <nd ref="536518528"/>
    <tag k="highway" v="motorway_link"/>
    <tag k="oneway" v="yes"/>
  </way>
  <way id="4400513" version="7" timestamp="2009-10-20T11:13:40Z" uid="29061" user="KPG" changeset="2902017">
    <nd ref="377429"/>
    <nd ref="26787130"/>
    <nd ref="536517918"/>
    <nd ref="26787131"/>
    <nd ref="536518491"/>
    <nd ref="536518504"/>
    <nd ref="536518892"/>
    <nd ref="536518515"/>
    <nd ref="536519325"/>
    <nd ref="536518518"/>
    <nd ref="536519129"/>
    <nd ref="536518526"/>
    <nd ref="536518528"/>
    <tag k="highway" v="motorway_link"/>
    <tag k="oneway" v="yes"/>
  </way>
  <way id="4400513" version="8" timestamp="2009-10-20T11:14:08Z" uid="29061" user="KPG" changeset="2902017">
    <nd ref="377429"/>
    <nd ref="26787130"/>
    <nd ref="536517918"/>
    <nd ref="26787131"/>
    <nd ref="536518491"/>
    <nd ref="536518504"/>
    <nd ref="536518892"/>
    <nd ref="536519469"/>
    <nd ref="536518515"/>
    <nd ref="536519325"/>
    <nd ref="536518518"/>
    <nd ref="536519129"/>
    <nd ref="536518526"/>
    <nd ref="536518528"/>
    <tag k="highway" v="motorway_link"/>
    <tag k="oneway" v="yes"/>
  </way>
  <way id="4400513" version="9" timestamp="2009-10-20T11:17:44Z" uid="29061" user="KPG" changeset="2902017">
    <nd ref="377429"/>
    <nd ref="26787130"/>
    <nd ref="536517918"/>
    <nd ref="26787131"/>
    <nd ref="536518491"/>
    <nd ref="536518504"/>
    <nd ref="536518892"/>
    <nd ref="536519469"/>
    <nd ref="536518515"/>
    <nd ref="536519325"/>
    <nd ref="536520331"/>
    <nd ref="536518518"/>
    <nd ref="536519129"/>
    <nd ref="536518526"/>
    <nd ref="536518528"/>
    <tag k="highway" v="motorway_link"/>
    <tag k="oneway" v="yes"/>
  </way>
  <way id="4400513" version="10" timestamp="2010-02-27T08:30:30Z" uid="129061" user="Singvogel" changeset="3986377">
    <nd ref="377429"/>
    <nd ref="26787130"/>
    <nd ref="536517918"/>
    <nd ref="26787131"/>
    <nd ref="536518491"/>
    <nd ref="536518504"/>
    <nd ref="536518892"/>
    <nd ref="536519469"/>
    <tag k="highway" v="motorway_link"/>
    <tag k="oneway" v="yes"/>
  </way>
  <way id="4400513" version="11" timestamp="2010-03-05T16:29:36Z" uid="6270" user="mikes" changeset="4042385">
    <nd ref="377429"/>
    <nd ref="26787130"/>
    <nd ref="536517918"/>
    <nd ref="26787131"/>
    <nd ref="536518491"/>
    <nd ref="536518504"/>
    <nd ref="536518892"/>
    <tag k="highway" v="motorway_link"/>
    <tag k="oneway" v="yes"/>
  </way>
  <way id="4400513" version="12" timestamp="2010-12-23T18:09:37Z" uid="29061" user="KPG" changeset="6747577">
    <nd ref="1059827045"/>
    <nd ref="1059827002"/>
    <nd ref="1059826973"/>
    <nd ref="1059826995"/>
    <nd ref="1059827057"/>
    <nd ref="1059827072"/>
    <nd ref="1059827055"/>
    <nd ref="26787130"/>
    <nd ref="536517918"/>
    <nd ref="26787131"/>
    <nd ref="536518491"/>
    <nd ref="536518504"/>
    <nd ref="536518892"/>
    <tag k="highway" v="motorway_link"/>
    <tag k="oneway" v="yes"/>
  </way>
  <way id="4400513" version="13" timestamp="2011-05-12T19:11:36Z" uid="129061" user="Singvogel" changeset="8125383"/>
  <way id="4400689" version="2" timestamp="2009-07-19T13:01:32Z" uid="123517" user="Qichina" changeset="1873070">
    <nd ref="443700601"/>
    <nd ref="26906027"/>
    <nd ref="26906032"/>
    <nd ref="26906028"/>
    <nd ref="26906029"/>
    <nd ref="26906030"/>
    <nd ref="26906031"/>
    <nd ref="443700600"/>
    <nd ref="443700601"/>
    <tag k="natural" v="wood"/>
  </way>
  <way id="4400689" version="3" timestamp="2012-02-09T07:28:59Z" uid="57884" user="EdLoach" changeset="10631206"/>
  <way id="4400794" version="5" timestamp="2008-07-05T21:45:37Z" uid="6975" user="ulfl" changeset="404092">
    <nd ref="26907142"/>
    <nd ref="26907141"/>
    <tag k="highway" v="residential"/>
    <tag k="maxheight" v="3.4"/>
    <tag k="motorcar" v="destination"/>
    <tag k="motorcycle" v="destination"/>
    <tag k="name" v="Eisenstuckstraße"/>
    <tag k="postal_code" v="01069"/>
  </way>
  <way id="4400794" version="6" timestamp="2010-04-01T03:45:00Z" uid="168210" user="iknopf" changeset="4290936">
    <nd ref="26907142"/>
    <nd ref="679605194"/>
    <tag k="highway" v="residential"/>
    <tag k="maxheight" v="3.4"/>
    <tag k="motorcar" v="destination"/>
    <tag k="motorcycle" v="destination"/>
    <tag k="name" v="Eisenstuckstraße"/>
    <tag k="postal_code" v="01069"/>
    <tag k="surface" v="asphalt"/>
    <tag k="width" v="9.5"/>
  </way>
  <way id="4400835" version="2" timestamp="2009-06-30T10:07:13Z" uid="123517" user="Qichina" changeset="1690324">
    <nd ref="26907300"/>
    <nd ref="26907301"/>
    <nd ref="26907302"/>
    <nd ref="26907303"/>
    <nd ref="26907304"/>
    <nd ref="26907305"/>
    <nd ref="26907634"/>
    <nd ref="26907257"/>
    <nd ref="26907256"/>
    <nd ref="26907255"/>
    <nd ref="26907254"/>
    <nd ref="26907253"/>
    <nd ref="26907258"/>
    <nd ref="26907259"/>
    <nd ref="26907260"/>
    <nd ref="26907261"/>
    <nd ref="26907262"/>
    <nd ref="26907263"/>
    <nd ref="26907264"/>
    <nd ref="26907267"/>
    <nd ref="26907269"/>
    <nd ref="26907270"/>
    <nd ref="26907271"/>
    <nd ref="26907272"/>
    <nd ref="26907274"/>
    <nd ref="26907275"/>
    <nd ref="26907276"/>
    <nd ref="26907277"/>
    <nd ref="26907278"/>
    <nd ref="26907280"/>
    <nd ref="26907281"/>
    <nd ref="26907282"/>
    <nd ref="26907283"/>
    <nd ref="26907284"/>
    <nd ref="431090130"/>
    <nd ref="26907285"/>
    <nd ref="26907286"/>
    <nd ref="26907287"/>
    <nd ref="26907297"/>
    <nd ref="26907298"/>
    <nd ref="26907299"/>
    <nd ref="26907300"/>
    <tag k="created_by" v="Potlatch alpha"/>
    <tag k="natural" v="wood"/>
  </way>
  <way id="4400835" version="3" timestamp="2009-09-06T18:08:50Z" uid="24119" user="Mauls" changeset="2394212">
    <nd ref="26907300"/>
    <nd ref="26907301"/>
    <nd ref="26907302"/>
    <nd ref="26907303"/>
    <nd ref="26907304"/>
    <nd ref="26907305"/>
    <nd ref="26907634"/>
    <nd ref="26907257"/>
    <nd ref="26907256"/>
    <nd ref="26907255"/>
    <nd ref="26907254"/>
    <nd ref="26907253"/>
    <nd ref="26907258"/>
    <nd ref="26907259"/>
    <nd ref="26907260"/>
    <nd ref="26907261"/>
    <nd ref="26907262"/>
    <nd ref="26907263"/>
    <nd ref="26907264"/>
    <nd ref="26907267"/>
    <nd ref="26907269"/>
    <nd ref="26907270"/>
    <nd ref="26907271"/>
    <nd ref="26907272"/>
    <nd ref="26907274"/>
    <nd ref="26907275"/>
    <nd ref="26907276"/>
    <nd ref="26907277"/>
    <nd ref="26907278"/>
    <nd ref="26907280"/>
    <nd ref="26907281"/>
    <nd ref="26907282"/>
    <nd ref="26907283"/>
    <nd ref="26907284"/>
    <nd ref="431090130"/>
    <nd ref="26907285"/>
    <nd ref="26907286"/>
    <nd ref="26907287"/>
    <nd ref="26907297"/>
    <nd ref="26907298"/>
    <nd ref="26907299"/>
    <nd ref="26907300"/>
    <tag k="natural" v="wood"/>
  </way>
  <way id="4400835" version="4" timestamp="2011-01-23T12:33:32Z" uid="91657" user="Pink Duck" changeset="7060586">
    <nd ref="26907300"/>
    <nd ref="26907301"/>
    <nd ref="26907302"/>
    <nd ref="26907303"/>
    <nd ref="26907304"/>
    <nd ref="26907305"/>
    <nd ref="26907634"/>
    <nd ref="26907257"/>
    <nd ref="26907256"/>
    <nd ref="26907255"/>
    <nd ref="26907254"/>
    <nd ref="26907253"/>
    <nd ref="26907258"/>
    <nd ref="26907259"/>
    <nd ref="26907260"/>
    <nd ref="26907261"/>
    <nd ref="26907262"/>
    <nd ref="26907263"/>
    <nd ref="26907264"/>
    <nd ref="26907267"/>
    <nd ref="1116752179"/>
    <nd ref="26907269"/>
    <nd ref="26907270"/>
    <nd ref="26907271"/>
    <nd ref="1116752181"/>
    <nd ref="26907272"/>
    <nd ref="26907274"/>
    <nd ref="26907275"/>
    <nd ref="26907276"/>
    <nd ref="26907277"/>
    <nd ref="26907278"/>
    <nd ref="26907280"/>
    <nd ref="26907281"/>
    <nd ref="26907282"/>
    <nd ref="26907283"/>
    <nd ref="26907284"/>
    <nd ref="431090130"/>
    <nd ref="26907285"/>
    <nd ref="26907286"/>
    <nd ref="26907287"/>
    <nd ref="26907297"/>
    <nd ref="26907298"/>
    <nd ref="26907299"/>
    <nd ref="26907300"/>
    <tag k="natural" v="wood"/>
  </way>
  <way id="4400835" version="5" timestamp="2012-02-08T17:59:23Z" uid="57884" user="EdLoach" changeset="10626848"/>
  <way id="4400846" version="1" timestamp="2007-03-30T16:50:05Z" uid="4667" user="MapZ" changeset="249992">
    <nd ref="20978257"/>
    <nd ref="26907808"/>
    <tag k="created_by" v="JOSM"/>
    <tag k="highway" v="residential"/>
  </way>
  <way id="4400846" version="2" timestamp="2008-12-11T09:28:27Z" uid="7562" user="LosHawlos" changeset="314112"/>
  <way id="4400970" version="1" timestamp="2007-03-30T17:25:47Z" uid="6454" user="B10xxx" changeset="249921">
    <nd ref="26875022"/>
    <nd ref="27409695"/>
    <nd ref="27409696"/>
    <nd ref="26908924"/>
    <nd ref="27537252"/>
    <nd ref="27537254"/>
    <nd ref="27537258"/>
    <nd ref="26908927"/>
    <nd ref="27537256"/>
    <nd ref="26908925"/>
    <nd ref="26908926"/>
    <nd ref="26704447"/>
    <tag k="created_by" v="JOSM"/>
    <tag k="highway" v="residential"/>
    <tag k="name" v="Einsteinufer"/>
  </way>
  <way id="4400970" version="2" timestamp="2007-10-30T21:19:31Z" uid="17800" user="onlinefloh" changeset="364742">
    <nd ref="26875022"/>
    <nd ref="27409695"/>
    <nd ref="27409696"/>
    <nd ref="26908924"/>
    <nd ref="27537252"/>
    <nd ref="27537254"/>
    <nd ref="27537258"/>
    <nd ref="26908927"/>
    <nd ref="27537256"/>
    <nd ref="26908925"/>
    <nd ref="26908926"/>
    <nd ref="26704447"/>
    <tag k="created_by" v="Potlatch 0.4b"/>
    <tag k="highway" v="residential"/>
    <tag k="name" v="Einsteinufer"/>
  </way>
  <way id="4400970" version="3" timestamp="2007-10-30T21:21:05Z" uid="17800" user="onlinefloh" changeset="364742">
    <nd ref="26875022"/>
    <nd ref="27409695"/>
    <nd ref="27409696"/>
    <nd ref="26908924"/>
    <nd ref="27537252"/>
    <nd ref="27537254"/>
    <nd ref="27537258"/>
    <nd ref="26908927"/>
    <nd ref="27537256"/>
    <nd ref="26908925"/>
    <nd ref="26908926"/>
    <nd ref="26704447"/>
    <tag k="created_by" v="Potlatch 0.4b"/>
    <tag k="highway" v="residential"/>
    <tag k="name" v="Einsteinufer"/>
  </way>
  <way id="4400970" version="4" timestamp="2008-06-02T11:39:21Z" uid="13656" user="psmr" changeset="20513">
    <nd ref="26875022"/>
    <nd ref="27409695"/>
    <nd ref="27409696"/>
    <nd ref="26908924"/>
    <nd ref="27537252"/>
    <nd ref="27537254"/>
    <nd ref="27537258"/>
    <nd ref="26908927"/>
    <nd ref="27537256"/>
    <nd ref="26908925"/>
    <nd ref="26908926"/>
    <nd ref="268050710"/>
    <nd ref="26704447"/>
    <tag k="created_by" v="Potlatch 0.4b"/>
    <tag k="highway" v="residential"/>
    <tag k="name" v="Einsteinufer"/>
  </way>
  <way id="4400970" version="5" timestamp="2008-06-24T08:35:31Z" uid="13203" user="bahnpirat" changeset="284737">
    <nd ref="26875022"/>
    <nd ref="27409695"/>
    <nd ref="27409696"/>
    <nd ref="272606998"/>
    <nd ref="26908924"/>
    <nd ref="27537252"/>
    <nd ref="27537254"/>
    <nd ref="27537258"/>
    <nd ref="26908927"/>
    <nd ref="27537256"/>
    <nd ref="26908925"/>
    <nd ref="26908926"/>
    <nd ref="268050710"/>
    <nd ref="26704447"/>
    <tag k="created_by" v="Potlatch 0.9c"/>
    <tag k="highway" v="residential"/>
    <tag k="name" v="Einsteinufer"/>
  </way>
  <way id="4400970" version="6" timestamp="2008-06-24T08:35:47Z" uid="13203" user="bahnpirat" changeset="284737">
    <nd ref="26875022"/>
    <nd ref="27409695"/>
    <nd ref="27409696"/>
    <nd ref="26908924"/>
    <nd ref="27537252"/>
    <nd ref="27537254"/>
    <nd ref="27537258"/>
    <nd ref="26908927"/>
    <nd ref="27537256"/>
    <nd ref="26908925"/>
    <nd ref="26908926"/>
    <nd ref="268050710"/>
    <nd ref="26704447"/>
    <tag k="created_by" v="Potlatch 0.9c"/>
    <tag k="highway" v="residential"/>
    <tag k="name" v="Einsteinufer"/>
    <tag k="postal_code" v="10587"/>
  </way>
  <way id="4400970" version="7" timestamp="2008-06-29T10:01:01Z" uid="6669" user="Elwood" changeset="333437">
    <nd ref="26875022"/>
    <nd ref="27409695"/>
    <nd ref="27409696"/>
    <nd ref="26908924"/>
    <tag k="created_by" v="Potlatch 0.9c"/>
    <tag k="highway" v="residential"/>
    <tag k="name" v="Einsteinufer"/>
    <tag k="postal_code" v="10587"/>
  </way>
  <way id="4400970" version="8" timestamp="2009-06-07T14:43:46Z" uid="115651" user="Konrad Aust" changeset="1449020">
    <nd ref="26875022"/>
    <nd ref="27409695"/>
    <nd ref="27409696"/>
    <nd ref="26908924"/>
    <tag k="created_by" v="Potlatch 0.9c"/>
    <tag k="highway" v="tertiary"/>
    <tag k="name" v="Einsteinufer"/>
    <tag k="note" v="Ergänzungsstraße mit besonderer Bedeutung"/>
    <tag k="postal_code" v="10587"/>
  </way>
  <way id="4400970" version="9" timestamp="2009-09-24T06:23:09Z" uid="42938" user="Xanadu" changeset="2602256">
    <nd ref="26875022"/>
    <nd ref="27409695"/>
    <nd ref="27409696"/>
    <nd ref="506458756"/>
    <tag k="highway" v="tertiary"/>
    <tag k="name" v="Einsteinufer"/>
    <tag k="note" v="Ergänzungsstraße mit besonderer Bedeutung"/>
    <tag k="postal_code" v="10587"/>
  </way>
  <way id="4400970" version="10" timestamp="2009-10-06T10:29:47Z" uid="42938" user="Xanadu" changeset="2759259"/>
  <way id="4400974" version="1" timestamp="2007-03-30T17:29:24Z" uid="6454" user="B10xxx" changeset="249921">
    <nd ref="26875026"/>
    <nd ref="26875081"/>
    <nd ref="26875169"/>
    <nd ref="21487151"/>
    <tag k="created_by" v="JOSM"/>
    <tag k="highway" v="residential"/>
    <tag k="name" v="Helmholtzstrasse"/>
  </way>
  <way id="4400974" version="2" timestamp="2007-11-08T21:02:41Z" uid="6669" user="Elwood" changeset="441679">
    <nd ref="26875026"/>
    <nd ref="26875081"/>
    <nd ref="26875169"/>
    <nd ref="21487151"/>
    <tag k="created_by" v="JOSM"/>
    <tag k="highway" v="tertiary"/>
    <tag k="name" v="Helmholtzstrasse"/>
  </way>
  <way id="4400974" version="3" timestamp="2007-12-03T15:22:06Z" uid="16447" user="Wilmersdorfer" changeset="54807">
    <nd ref="26875026"/>
    <nd ref="26875081"/>
    <nd ref="26875169"/>
    <nd ref="21487151"/>
    <tag k="created_by" v="Potlatch 0.5d"/>
    <tag k="highway" v="tertiary"/>
    <tag k="name" v="Helmholtzstraße"/>
  </way>
  <way id="4400974" version="4" timestamp="2008-06-01T21:49:51Z" uid="6669" user="Elwood" changeset="17272">
    <nd ref="26875026"/>
    <nd ref="26875081"/>
    <nd ref="26875169"/>
    <nd ref="267980716"/>
    <nd ref="21487151"/>
    <tag k="created_by" v="Potlatch 0.5d"/>
    <tag k="highway" v="tertiary"/>
    <tag k="name" v="Helmholtzstraße"/>
  </way>
  <way id="4400974" version="5" timestamp="2008-06-29T09:57:00Z" uid="6669" user="Elwood" changeset="333437">
    <nd ref="26875026"/>
    <nd ref="26875081"/>
    <nd ref="26875169"/>
    <nd ref="267980716"/>
    <tag k="created_by" v="Potlatch 0.5d"/>
    <tag k="highway" v="secondary"/>
    <tag k="name" v="Helmholtzstraße"/>
  </way>
  <way id="4400974" version="6" timestamp="2008-06-29T09:59:17Z" uid="6669" user="Elwood" changeset="333437">
    <nd ref="26875025"/>
    <nd ref="26875026"/>
    <nd ref="26875081"/>
    <nd ref="26875169"/>
    <nd ref="267980716"/>
    <tag k="created_by" v="Potlatch 0.5d"/>
    <tag k="highway" v="secondary"/>
    <tag k="name" v="Helmholtzstraße"/>
  </way>
  <way id="4400974" version="7" timestamp="2008-06-29T10:01:00Z" uid="6669" user="Elwood" changeset="333437">
    <nd ref="261748135"/>
    <nd ref="26875026"/>
    <nd ref="26875081"/>
    <nd ref="26875169"/>
    <nd ref="267980716"/>
    <tag k="created_by" v="Potlatch 0.5d"/>
    <tag k="highway" v="secondary"/>
    <tag k="name" v="Helmholtzstraße"/>
  </way>
  <way id="4400974" version="8" timestamp="2008-08-27T08:40:01Z" uid="42938" user="Xanadu" changeset="431209">
    <nd ref="261748135"/>
    <nd ref="26875026"/>
    <nd ref="26875081"/>
    <nd ref="26875169"/>
    <nd ref="267980716"/>
    <tag k="created_by" v="Potlatch 0.5d"/>
    <tag k="highway" v="secondary"/>
    <tag k="maxspeed" v="50"/>
    <tag k="name" v="Helmholtzstraße"/>
  </way>
  <way id="4400974" version="9" timestamp="2008-10-23T18:37:40Z" uid="53194" user="Andy S" changeset="538171">
    <nd ref="261748135"/>
    <nd ref="306647426"/>
    <nd ref="26875026"/>
    <nd ref="26875081"/>
    <nd ref="26875169"/>
    <nd ref="267980716"/>
    <tag k="created_by" v="Potlatch 0.10e"/>
    <tag k="highway" v="secondary"/>
    <tag k="maxspeed" v="50"/>
    <tag k="name" v="Helmholtzstraße"/>
  </way>
  <way id="4400974" version="10" timestamp="2009-04-09T15:23:47Z" uid="6669" user="Elwood" changeset="349690">
    <nd ref="261748135"/>
    <nd ref="306647426"/>
    <nd ref="26875026"/>
    <nd ref="26875081"/>
    <nd ref="26875169"/>
    <nd ref="267980716"/>
    <tag k="created_by" v="Potlatch 0.10e"/>
    <tag k="highway" v="secondary"/>
    <tag k="maxspeed" v="50"/>
    <tag k="name" v="Helmholtzstraße"/>
    <tag k="postal_code" v="10587"/>
  </way>
  <way id="4400974" version="11" timestamp="2009-07-19T10:39:43Z" uid="34417" user="TobHaeg" changeset="1871871">
    <nd ref="261748135"/>
    <nd ref="306647426"/>
    <nd ref="26875026"/>
    <nd ref="26875081"/>
    <nd ref="26875169"/>
    <nd ref="267980716"/>
    <tag k="highway" v="secondary"/>
    <tag k="maxspeed" v="50"/>
    <tag k="name" v="Helmholtzstraße"/>
    <tag k="postal_code" v="10587"/>
  </way>
  <way id="4400974" version="12" timestamp="2010-01-08T23:42:20Z" uid="6669" user="Elwood" changeset="3574000">
    <nd ref="261748135"/>
    <nd ref="306647426"/>
    <nd ref="26875026"/>
    <nd ref="26875081"/>
    <nd ref="26875169"/>
    <nd ref="609968309"/>
    <nd ref="267980716"/>
    <tag k="highway" v="secondary"/>
    <tag k="maxspeed" v="50"/>
    <tag k="name" v="Helmholtzstraße"/>
    <tag k="postal_code" v="10587"/>
  </way>
  <way id="4400974" version="13" timestamp="2010-01-20T09:21:19Z" uid="205897" user="elabor" changeset="3665025">
    <nd ref="261748135"/>
    <nd ref="306647426"/>
    <nd ref="617008953"/>
    <nd ref="26875026"/>
    <nd ref="26875081"/>
    <nd ref="26875169"/>
    <nd ref="609968309"/>
    <nd ref="267980716"/>
    <tag k="highway" v="secondary"/>
    <tag k="maxspeed" v="50"/>
    <tag k="name" v="Helmholtzstraße"/>
    <tag k="postal_code" v="10587"/>
  </way>
  <way id="4400974" version="14" timestamp="2010-02-16T19:16:03Z" uid="6669" user="Elwood" changeset="3895132">
    <nd ref="261748135"/>
    <nd ref="306647426"/>
    <nd ref="617008953"/>
    <nd ref="26875026"/>
    <nd ref="26875081"/>
    <nd ref="267980716"/>
    <tag k="highway" v="secondary"/>
    <tag k="maxspeed" v="50"/>
    <tag k="name" v="Helmholtzstraße"/>
    <tag k="postal_code" v="10587"/>
  </way>
  <way id="4400974" version="15" timestamp="2010-06-20T16:58:27Z" uid="108133" user="gislars" changeset="5034829">
    <nd ref="261748135"/>
    <nd ref="306647426"/>
    <nd ref="617008953"/>
    <nd ref="26875026"/>
    <nd ref="778329418"/>
    <nd ref="778329521"/>
    <nd ref="26875081"/>
    <nd ref="267980716"/>
    <tag k="highway" v="secondary"/>
    <tag k="maxspeed" v="50"/>
    <tag k="name" v="Helmholtzstraße"/>
    <tag k="postal_code" v="10587"/>
  </way>
  <way id="4400974" version="16" timestamp="2010-06-20T19:44:26Z" uid="108133" user="gislars" changeset="5036725">
    <nd ref="261748135"/>
    <nd ref="306647426"/>
    <nd ref="617008953"/>
    <nd ref="26875026"/>
    <nd ref="778329418"/>
    <nd ref="778329521"/>
    <nd ref="26875081"/>
    <nd ref="267980716"/>
    <tag k="highway" v="secondary"/>
    <tag k="maxspeed" v="50"/>
    <tag k="name" v="Helmholtzstraße"/>
    <tag k="postal_code" v="10587"/>
  </way>
  <way id="4400974" version="17" timestamp="2010-12-15T20:06:11Z" uid="379250" user="a_peter" changeset="6671018">
    <nd ref="261748135"/>
    <nd ref="306647426"/>
    <nd ref="617008953"/>
    <nd ref="1039764721"/>
    <nd ref="26875026"/>
    <nd ref="778329418"/>
    <nd ref="778329521"/>
    <nd ref="26875081"/>
    <nd ref="267980716"/>
    <tag k="highway" v="secondary"/>
    <tag k="maxspeed" v="50"/>
    <tag k="name" v="Helmholtzstraße"/>
    <tag k="postal_code" v="10587"/>
  </way>
  <way id="4400974" version="18" timestamp="2010-12-26T13:41:53Z" uid="39457" user="Markus59" changeset="6768190">
    <nd ref="261748135"/>
    <nd ref="306647426"/>
    <nd ref="617008953"/>
    <nd ref="1039764721"/>
    <nd ref="26875026"/>
    <nd ref="778329418"/>
    <nd ref="778329521"/>
    <nd ref="26875081"/>
    <nd ref="1065823923"/>
    <nd ref="267980716"/>
    <tag k="highway" v="secondary"/>
    <tag k="maxspeed" v="50"/>
    <tag k="name" v="Helmholtzstraße"/>
    <tag k="postal_code" v="10587"/>
  </way>
  <way id="4400974" version="19" timestamp="2011-01-06T10:21:54Z" uid="39457" user="Markus59" changeset="6880354">
    <nd ref="261748135"/>
    <nd ref="306647426"/>
    <nd ref="617008953"/>
    <nd ref="1039764721"/>
    <nd ref="26875026"/>
    <nd ref="778329418"/>
    <nd ref="778329521"/>
    <nd ref="26875081"/>
    <nd ref="1065823923"/>
    <nd ref="267980716"/>
    <tag k="addr:city" v="Berlin"/>
    <tag k="addr:country" v="DE"/>
    <tag k="addr:postcode" v="10587"/>
    <tag k="addr:street" v="Helmholtzstraße"/>
    <tag k="highway" v="secondary"/>
    <tag k="maxspeed" v="50"/>
    <tag k="name" v="Helmholtzstraße"/>
  </way>
  <way id="4400974" version="20" timestamp="2011-04-24T21:44:07Z" uid="425131" user="Delichon" changeset="7957495">
    <nd ref="261748135"/>
    <nd ref="306647426"/>
    <nd ref="617008953"/>
    <nd ref="1039764721"/>
    <nd ref="26875026"/>
    <nd ref="778329418"/>
    <nd ref="778329521"/>
    <nd ref="26875081"/>
    <nd ref="1065823923"/>
    <nd ref="267980716"/>
    <tag k="addr:city" v="Berlin"/>
    <tag k="addr:country" v="DE"/>
    <tag k="addr:postcode" v="10587"/>
    <tag k="addr:street" v="Helmholtzstraße"/>
    <tag k="highway" v="tertiary"/>
    <tag k="maxspeed" v="50"/>
    <tag k="name" v="Helmholtzstraße"/>
  </way>
  <way id="4400974" version="21" timestamp="2011-05-20T20:11:24Z" uid="39457" user="Markus59" changeset="8201865">
    <nd ref="261748135"/>
    <nd ref="306647426"/>
    <nd ref="617008953"/>
    <nd ref="1293767403"/>
    <nd ref="1039764721"/>
    <nd ref="26875026"/>
    <nd ref="778329418"/>
    <nd ref="778329521"/>
    <nd ref="26875081"/>
    <nd ref="1065823923"/>
    <nd ref="1293767442"/>
    <nd ref="267980716"/>
    <tag k="addr:city" v="Berlin"/>
    <tag k="addr:country" v="DE"/>
    <tag k="addr:postcode" v="10587"/>
    <tag k="addr:street" v="Helmholtzstraße"/>
    <tag k="highway" v="tertiary"/>
    <tag k="maxspeed" v="50"/>
    <tag k="name" v="Helmholtzstraße"/>
  </way>
  <way id="4400974" version="22" timestamp="2011-06-09T06:42:53Z" uid="66391" user="geozeisig" changeset="8385560">
    <nd ref="261748135"/>
    <nd ref="306647426"/>
    <nd ref="617008953"/>
    <nd ref="1293767403"/>
    <nd ref="1039764721"/>
    <nd ref="26875026"/>
    <nd ref="778329418"/>
    <nd ref="778329521"/>
    <nd ref="26875081"/>
    <nd ref="1065823923"/>
    <nd ref="1293767442"/>
    <nd ref="1316824295"/>
    <nd ref="267980716"/>
    <tag k="addr:city" v="Berlin"/>
    <tag k="addr:country" v="DE"/>
    <tag k="addr:postcode" v="10587"/>
    <tag k="addr:street" v="Helmholtzstraße"/>
    <tag k="highway" v="tertiary"/>
    <tag k="maxspeed" v="50"/>
    <tag k="name" v="Helmholtzstraße"/>
  </way>
  <way id="4400974" version="23" timestamp="2011-09-14T10:04:20Z" uid="121533" user="webpassenger" changeset="9297795">
    <nd ref="261748135"/>
    <nd ref="306647426"/>
    <nd ref="617008953"/>
    <nd ref="1293767403"/>
    <nd ref="1039764721"/>
    <nd ref="1018702679"/>
    <nd ref="26875026"/>
    <nd ref="778329418"/>
    <nd ref="778329521"/>
    <nd ref="26875081"/>
    <nd ref="1065823923"/>
    <nd ref="1293767442"/>
    <nd ref="1316824295"/>
    <nd ref="267980716"/>
    <tag k="addr:city" v="Berlin"/>
    <tag k="addr:country" v="DE"/>
    <tag k="addr:postcode" v="10587"/>
    <tag k="addr:street" v="Helmholtzstraße"/>
    <tag k="highway" v="tertiary"/>
    <tag k="maxspeed" v="50"/>
    <tag k="name" v="Helmholtzstraße"/>
  </way>
  <way id="4400974" version="24" timestamp="2012-01-28T10:07:43Z" uid="39457" user="Markus59" changeset="10519361">
    <nd ref="261748135"/>
    <nd ref="306647426"/>
    <nd ref="1608423649"/>
    <nd ref="1608423650"/>
    <nd ref="617008953"/>
    <nd ref="1608423651"/>
    <nd ref="1608423653"/>
    <nd ref="1293767403"/>
    <nd ref="1608423658"/>
    <nd ref="1039764721"/>
    <nd ref="1018702679"/>
    <nd ref="1608423664"/>
    <nd ref="26875026"/>
    <nd ref="778329418"/>
    <nd ref="778329521"/>
    <nd ref="26875081"/>
    <nd ref="1065823923"/>
    <nd ref="1293767442"/>
    <nd ref="1316824295"/>
    <nd ref="267980716"/>
    <tag k="addr:city" v="Berlin"/>
    <tag k="addr:country" v="DE"/>
    <tag k="addr:postcode" v="10587"/>
    <tag k="addr:street" v="Helmholtzstraße"/>
    <tag k="highway" v="tertiary"/>
    <tag k="maxspeed" v="50"/>
    <tag k="name" v="Helmholtzstraße"/>
  </way>
  <way id="4400975" version="1" timestamp="2007-03-30T17:29:24Z" uid="6454" user="B10xxx" changeset="249921">
    <nd ref="21590985"/>
    <nd ref="26875025"/>
    <nd ref="26875026"/>
    <tag k="created_by" v="JOSM"/>
    <tag k="highway" v="residential"/>
  </way>
  <way id="4400975" version="2" timestamp="2007-10-08T18:33:30Z" uid="13673" user="Pholker" changeset="63872"/>
</osm>
