<?xml version='1.0' encoding='UTF-8'?>
<osm version="0.6" generator="libosmium/2.20.0">
  <way id="44021679" version="1" timestamp="2009-11-08T19:53:39Z" uid="9581" user="Lobelt" changeset="3067809">
    <nd ref="161602565"/>
    <nd ref="33120937"/>
    <nd ref="312944043"/>
    <tag k="highway" v="primary"/>
    <tag k="maxspeed" v="50"/>
    <tag k="ref" v="B 88"/>
  </way>
  <way id="44021679" version="2" timestamp="2010-03-08T22:45:27Z" uid="118134" user="scai" changeset="4076972">
    <nd ref="161602565"/>
    <nd ref="33120937"/>
    <nd ref="312944043"/>
    <tag k="highway" v="primary"/>
    <tag k="maxspeed" v="50"/>
    <tag k="name" v="Frenzelstraße"/>
    <tag k="ref" v="B 88"/>
  </way>
  <way id="44021679" version="3" timestamp="2010-10-05T14:44:54Z" uid="118134" user="scai" changeset="5961798">
    <nd ref="161602565"/>
    <nd ref="938548628"/>
    <nd ref="938548615"/>
    <tag k="highway" v="primary"/>
    <tag k="maxspeed" v="50"/>
    <tag k="name" v="Frenzelstraße"/>
    <tag k="ref" v="B 88"/>
  </way>
  <way id="44021679" version="4" timestamp="2011-12-11T10:59:04Z" uid="118134" user="scai" changeset="10088284"/>
  <way id="44021981" version="1" timestamp="2009-11-08T19:58:25Z" uid="9581" user="Lobelt" changeset="3067869">
    <nd ref="559711325"/>
    <nd ref="559711330"/>
    <nd ref="559711332"/>
    <tag k="highway" v="service"/>
  </way>
  <way id="44021981" version="2" timestamp="2012-03-02T14:36:35Z" uid="192395" user="BBO" changeset="10848930"/>
</osm>
