<?xml version='1.0' encoding='UTF-8'?>
<osm version="0.6" generator="libosmium/2.20.0">
  <way id="44124061" version="3" timestamp="2010-07-06T18:39:23Z" uid="74617" user="JohnSmith" changeset="5152225">
    <nd ref="560676659"/>
    <nd ref="560676660"/>
    <nd ref="560676661"/>
    <tag k="highway" v="residential"/>
    <tag k="maxspeed" v="50"/>
    <tag k="maxspeed:source" v="default residential speed limit in Australia"/>
    <tag k="name" v="Waverley Street"/>
  </way>
  <way id="44124061" version="4" timestamp="2010-07-31T00:05:01Z" uid="62457" user="cybercrypt" changeset="5359202">
    <nd ref="560676659"/>
    <nd ref="560676660"/>
    <nd ref="839407757"/>
    <nd ref="560676661"/>
    <tag k="highway" v="residential"/>
    <tag k="maxspeed" v="50"/>
    <tag k="maxspeed:source" v="default residential speed limit in Australia"/>
    <tag k="name" v="Waverley Street"/>
  </way>
  <way id="44124061" version="5" timestamp="2012-01-19T08:50:46Z" uid="147510" user="woodpeck_fixbot" changeset="10434386">
    <nd ref="560676659"/>
    <nd ref="560676660"/>
    <nd ref="839407757"/>
    <nd ref="560676661"/>
    <tag k="highway" v="residential"/>
    <tag k="name" v="Waverley Street"/>
  </way>
  <way id="44124062" version="3" timestamp="2010-07-06T18:35:43Z" uid="74617" user="JohnSmith" changeset="5152225">
    <nd ref="560676662"/>
    <nd ref="560676660"/>
    <tag k="highway" v="residential"/>
    <tag k="maxspeed" v="50"/>
    <tag k="maxspeed:source" v="default residential speed limit in Australia"/>
    <tag k="name" v="Glasgow Street"/>
  </way>
  <way id="44124062" version="4" timestamp="2012-01-19T08:50:47Z" uid="147510" user="woodpeck_fixbot" changeset="10434386">
    <nd ref="560676662"/>
    <nd ref="560676660"/>
    <tag k="highway" v="residential"/>
    <tag k="name" v="Glasgow Street"/>
  </way>
  <way id="44124063" version="4" timestamp="2010-07-06T18:37:05Z" uid="74617" user="JohnSmith" changeset="5152225">
    <nd ref="560676663"/>
    <nd ref="560676664"/>
    <nd ref="560676665"/>
    <nd ref="560676659"/>
    <nd ref="560676666"/>
    <nd ref="562733491"/>
    <nd ref="562733604"/>
    <nd ref="21303749"/>
    <tag k="highway" v="residential"/>
    <tag k="maxspeed" v="50"/>
    <tag k="maxspeed:source" v="default residential speed limit in Australia"/>
    <tag k="name" v="Isaac Street"/>
  </way>
  <way id="44124063" version="5" timestamp="2010-07-31T00:07:47Z" uid="62457" user="cybercrypt" changeset="5359202">
    <nd ref="560676663"/>
    <nd ref="560676664"/>
    <nd ref="560676665"/>
    <nd ref="560676659"/>
    <nd ref="560676666"/>
    <nd ref="562733604"/>
    <nd ref="21303749"/>
    <tag k="highway" v="residential"/>
    <tag k="maxspeed" v="50"/>
    <tag k="maxspeed:source" v="default residential speed limit in Australia"/>
    <tag k="name" v="Isaac Street"/>
  </way>
  <way id="44124063" version="6" timestamp="2010-07-31T00:08:20Z" uid="62457" user="cybercrypt" changeset="5359202">
    <nd ref="560676663"/>
    <nd ref="560676664"/>
    <nd ref="560676665"/>
    <nd ref="560676659"/>
    <nd ref="560676666"/>
    <nd ref="562733604"/>
    <nd ref="839414777"/>
    <nd ref="21303749"/>
    <tag k="highway" v="residential"/>
    <tag k="maxspeed" v="50"/>
    <tag k="maxspeed:source" v="default residential speed limit in Australia"/>
    <tag k="name" v="Isaac Street"/>
  </way>
  <way id="44124063" version="7" timestamp="2010-07-31T13:14:26Z" uid="74617" user="JohnSmith" changeset="5362558">
    <nd ref="560676663"/>
    <nd ref="560676664"/>
    <nd ref="560676665"/>
    <nd ref="560676659"/>
    <nd ref="560676666"/>
    <nd ref="562733604"/>
    <tag k="highway" v="residential"/>
    <tag k="maxspeed" v="50"/>
    <tag k="maxspeed:source" v="default residential speed limit in Australia"/>
    <tag k="name" v="Isaac Street"/>
  </way>
  <way id="44124063" version="8" timestamp="2012-01-19T08:50:49Z" uid="147510" user="woodpeck_fixbot" changeset="10434386">
    <nd ref="560676663"/>
    <nd ref="560676664"/>
    <nd ref="560676665"/>
    <nd ref="560676659"/>
    <nd ref="560676666"/>
    <nd ref="562733604"/>
    <tag k="highway" v="residential"/>
    <tag k="name" v="Isaac Street"/>
  </way>
  <way id="44124064" version="3" timestamp="2010-07-06T18:36:02Z" uid="74617" user="JohnSmith" changeset="5152225">
    <nd ref="560676667"/>
    <nd ref="560676665"/>
    <tag k="highway" v="residential"/>
    <tag k="maxspeed" v="50"/>
    <tag k="maxspeed:source" v="default residential speed limit in Australia"/>
    <tag k="name" v="McWaters Street"/>
  </way>
  <way id="44124064" version="4" timestamp="2012-01-19T08:50:51Z" uid="147510" user="woodpeck_fixbot" changeset="10434386">
    <nd ref="560676667"/>
    <nd ref="560676665"/>
    <tag k="highway" v="residential"/>
    <tag k="name" v="McWaters Street"/>
  </way>
  <way id="44124065" version="3" timestamp="2010-07-06T18:37:24Z" uid="74617" user="JohnSmith" changeset="5152225">
    <nd ref="560676668"/>
    <nd ref="560676664"/>
    <tag k="highway" v="residential"/>
    <tag k="maxspeed" v="50"/>
    <tag k="maxspeed:source" v="default residential speed limit in Australia"/>
    <tag k="name" v="Buchanan Street"/>
  </way>
  <way id="44124065" version="4" timestamp="2010-07-31T00:09:42Z" uid="62457" user="cybercrypt" changeset="5359202">
    <nd ref="839418393"/>
    <nd ref="560676668"/>
    <nd ref="560676664"/>
    <tag k="highway" v="residential"/>
    <tag k="maxspeed" v="50"/>
    <tag k="maxspeed:source" v="default residential speed limit in Australia"/>
    <tag k="name" v="Buchanan Street"/>
  </way>
  <way id="44124065" version="5" timestamp="2012-01-19T08:50:52Z" uid="147510" user="woodpeck_fixbot" changeset="10434386">
    <nd ref="839418393"/>
    <nd ref="560676668"/>
    <nd ref="560676664"/>
    <tag k="highway" v="residential"/>
    <tag k="name" v="Buchanan Street"/>
  </way>
  <way id="44124487" version="3" timestamp="2010-07-09T21:07:51Z" uid="74617" user="JohnSmith" changeset="5176956">
    <nd ref="560680690"/>
    <nd ref="560680686"/>
    <nd ref="560680682"/>
    <tag k="attribution" v="West Perth Business Map www.mineraldata.com.au"/>
    <tag k="highway" v="residential"/>
    <tag k="maxspeed" v="50"/>
    <tag k="maxspeed:source" v="default residential speed limit in Australia"/>
    <tag k="name" v="Clive Street"/>
    <tag k="oneway" v="yes"/>
  </way>
  <way id="44124487" version="4" timestamp="2012-01-19T08:50:54Z" uid="147510" user="woodpeck_fixbot" changeset="10434386">
    <nd ref="560680690"/>
    <nd ref="560680686"/>
    <nd ref="560680682"/>
    <tag k="attribution" v="West Perth Business Map www.mineraldata.com.au"/>
    <tag k="highway" v="residential"/>
    <tag k="name" v="Clive Street"/>
    <tag k="oneway" v="yes"/>
  </way>
  <way id="44124488" version="2" timestamp="2010-07-09T20:53:16Z" uid="74617" user="JohnSmith" changeset="5176956">
    <nd ref="560680684"/>
    <nd ref="560680682"/>
    <tag k="attribution" v="West Perth Business Map www.mineraldata.com.au"/>
    <tag k="highway" v="residential"/>
    <tag k="maxspeed" v="50"/>
    <tag k="maxspeed:source" v="default residential speed limit in Australia"/>
    <tag k="name" v="Clive Street"/>
  </way>
  <way id="44124488" version="3" timestamp="2012-01-19T08:50:55Z" uid="147510" user="woodpeck_fixbot" changeset="10434386">
    <nd ref="560680684"/>
    <nd ref="560680682"/>
    <tag k="attribution" v="West Perth Business Map www.mineraldata.com.au"/>
    <tag k="highway" v="residential"/>
    <tag k="name" v="Clive Street"/>
  </way>
</osm>
