<?xml version='1.0' encoding='UTF-8'?>
<osm version="0.6" generator="libosmium/2.20.0">
  <way id="44165044" version="2" timestamp="2010-04-04T01:38:12Z" uid="20587" user="balrog-kun" changeset="4318136">
    <nd ref="176936225"/>
    <nd ref="176929424"/>
    <tag k="highway" v="residential"/>
    <tag k="name" v="Deer Street"/>
    <tag k="tiger:cfcc" v="A41"/>
    <tag k="tiger:county" v="Elbert, CO"/>
    <tag k="tiger:name_base" v="Deer"/>
    <tag k="tiger:name_type" v="St"/>
    <tag k="tiger:reviewed" v="no"/>
    <tag k="tiger:separated" v="no"/>
    <tag k="tiger:source" v="tiger_import_dch_v0.6_20070809"/>
    <tag k="tiger:tlid" v="130872610:130872612:130878827:130872613:130872603:130872607"/>
    <tag k="tiger:zip_left" v="80835"/>
    <tag k="tiger:zip_right" v="80835"/>
  </way>
  <way id="44165192" version="3" timestamp="2010-07-08T17:56:44Z" uid="74617" user="JohnSmith" changeset="5167338">
    <nd ref="561043176"/>
    <nd ref="561043177"/>
    <nd ref="580191973"/>
    <tag k="highway" v="residential"/>
    <tag k="maxspeed" v="50"/>
    <tag k="maxspeed:source" v="default residential speed limit in Australia"/>
  </way>
  <way id="44165192" version="4" timestamp="2012-01-19T08:52:53Z" uid="147510" user="woodpeck_fixbot" changeset="10434386">
    <nd ref="561043176"/>
    <nd ref="561043177"/>
    <nd ref="580191973"/>
    <tag k="highway" v="residential"/>
  </way>
  <way id="44165238" version="4" timestamp="2010-04-07T14:02:01Z" uid="20587" user="balrog-kun" changeset="4353646">
    <nd ref="561043561"/>
    <nd ref="561043562"/>
    <nd ref="561043563"/>
    <nd ref="561043564"/>
    <nd ref="561043565"/>
    <nd ref="561043566"/>
    <nd ref="561043567"/>
    <nd ref="561043568"/>
    <nd ref="561043569"/>
    <nd ref="561043570"/>
    <nd ref="561043571"/>
    <nd ref="561043572"/>
    <nd ref="561043573"/>
    <nd ref="561043574"/>
    <nd ref="561043575"/>
    <nd ref="561043576"/>
    <nd ref="561043577"/>
    <nd ref="561043578"/>
    <nd ref="563631542"/>
    <nd ref="561043579"/>
    <tag k="access" v="private"/>
    <tag k="highway" v="track"/>
    <tag k="name" v="Youngblood Trail"/>
  </way>
  <way id="44165306" version="2" timestamp="2010-04-07T14:02:02Z" uid="20587" user="balrog-kun" changeset="4353646">
    <nd ref="151869976"/>
    <nd ref="151869979"/>
    <nd ref="151869982"/>
    <nd ref="151869985"/>
    <nd ref="151869987"/>
    <nd ref="151869990"/>
    <nd ref="151869991"/>
    <nd ref="151869993"/>
    <nd ref="151869995"/>
    <nd ref="151869998"/>
    <nd ref="151870001"/>
    <nd ref="151870004"/>
    <nd ref="151870006"/>
    <nd ref="151870008"/>
    <nd ref="151870012"/>
    <nd ref="151870015"/>
    <nd ref="561043997"/>
    <nd ref="561043990"/>
    <nd ref="151812151"/>
    <tag k="highway" v="residential"/>
    <tag k="name" v="Aermotor Lane"/>
    <tag k="name_1" v="2129  West"/>
    <tag k="tiger:cfcc" v="A41"/>
    <tag k="tiger:county" v="Kerr, TX"/>
    <tag k="tiger:name_base" v="Aermotor"/>
    <tag k="tiger:name_base_1" v="2129"/>
    <tag k="tiger:name_direction_suffix_1" v="W"/>
    <tag k="tiger:name_type" v="Ln"/>
    <tag k="tiger:separated" v="no"/>
    <tag k="tiger:source" v="tiger_import_dch_v0.6_20070830"/>
    <tag k="tiger:tlid" v="176899789:176899792:176899798; 176899797"/>
    <tag k="tiger:zip_left" v="78058"/>
    <tag k="tiger:zip_right" v="78058"/>
  </way>
  <way id="44165321" version="1" timestamp="2009-11-12T05:37:47Z" uid="74617" user="JohnSmith" changeset="3095644">
    <nd ref="561044329"/>
    <nd ref="561044319"/>
    <nd ref="561044328"/>
    <nd ref="561044318"/>
    <nd ref="561044317"/>
    <nd ref="528555014"/>
    <nd ref="528555015"/>
    <nd ref="528555016"/>
    <nd ref="561044316"/>
    <nd ref="528555017"/>
    <nd ref="528555018"/>
    <nd ref="528555019"/>
    <nd ref="528555020"/>
    <nd ref="561044314"/>
    <nd ref="528555021"/>
    <nd ref="561044315"/>
    <nd ref="528555027"/>
    <nd ref="561044345"/>
    <nd ref="528555028"/>
    <nd ref="561044346"/>
    <nd ref="528555029"/>
    <nd ref="561044347"/>
    <nd ref="528555030"/>
    <nd ref="528555031"/>
    <tag k="highway" v="residential"/>
    <tag k="source" v="nearmap"/>
  </way>
  <way id="44165321" version="2" timestamp="2010-02-15T06:55:25Z" uid="74617" user="JohnSmith" changeset="3880463">
    <nd ref="561044329"/>
    <nd ref="561044319"/>
    <nd ref="561044328"/>
    <nd ref="561044318"/>
    <nd ref="561044317"/>
    <nd ref="528555014"/>
    <nd ref="528555015"/>
    <nd ref="528555016"/>
    <nd ref="561044316"/>
    <nd ref="528555017"/>
    <nd ref="528555018"/>
    <nd ref="528555019"/>
    <nd ref="528555020"/>
    <nd ref="561044314"/>
    <nd ref="528555021"/>
    <nd ref="561044315"/>
    <nd ref="528555027"/>
    <nd ref="561044345"/>
    <nd ref="528555028"/>
    <nd ref="561044346"/>
    <nd ref="528555029"/>
    <nd ref="561044347"/>
    <nd ref="528555030"/>
    <nd ref="528555031"/>
    <tag k="highway" v="residential"/>
    <tag k="maxspeed" v="50"/>
    <tag k="source" v="nearmap"/>
  </way>
  <way id="44165321" version="3" timestamp="2010-03-21T00:46:18Z" uid="71283" user="James &apos;Doc&apos; Livingston" changeset="4186554">
    <nd ref="561044329"/>
    <nd ref="561044319"/>
    <nd ref="561044328"/>
    <nd ref="561044318"/>
    <nd ref="561044317"/>
    <nd ref="528555014"/>
    <nd ref="528555015"/>
    <nd ref="528555016"/>
    <nd ref="561044316"/>
    <nd ref="528555017"/>
    <nd ref="528555018"/>
    <nd ref="528555019"/>
    <nd ref="528555020"/>
    <nd ref="561044314"/>
    <nd ref="528555021"/>
    <nd ref="561044315"/>
    <nd ref="528555027"/>
    <nd ref="561044345"/>
    <nd ref="528555028"/>
    <nd ref="561044346"/>
    <nd ref="528555029"/>
    <nd ref="561044347"/>
    <nd ref="528555030"/>
    <nd ref="528555031"/>
    <tag k="access" v="destination"/>
    <tag k="highway" v="residential"/>
    <tag k="maxspeed" v="40"/>
    <tag k="source" v="nearmap"/>
  </way>
  <way id="44165321" version="4" timestamp="2010-05-04T07:39:34Z" uid="22094" user="Chadzopkyo" changeset="4601875">
    <nd ref="561044329"/>
    <nd ref="561044319"/>
    <nd ref="561044328"/>
    <nd ref="561044318"/>
    <nd ref="561044317"/>
    <nd ref="528555014"/>
    <nd ref="528555015"/>
    <nd ref="528555016"/>
    <nd ref="561044316"/>
    <nd ref="528555017"/>
    <nd ref="528555018"/>
    <nd ref="528555019"/>
    <nd ref="528555020"/>
    <nd ref="561044314"/>
    <nd ref="528555021"/>
    <nd ref="561044315"/>
    <nd ref="528555027"/>
    <nd ref="561044345"/>
    <nd ref="528555028"/>
    <nd ref="561044346"/>
    <nd ref="528555029"/>
    <nd ref="561044347"/>
    <nd ref="528555030"/>
    <nd ref="528555031"/>
    <tag k="highway" v="residential"/>
    <tag k="maxspeed" v="40"/>
    <tag k="source" v="nearmap"/>
  </way>
  <way id="44165321" version="5" timestamp="2010-05-23T00:24:31Z" uid="244897" user="M526244" changeset="4779007">
    <nd ref="561044329"/>
    <nd ref="561044319"/>
    <nd ref="561044328"/>
    <nd ref="561044318"/>
    <nd ref="561044317"/>
    <nd ref="528555014"/>
    <nd ref="528555015"/>
    <nd ref="528555016"/>
    <nd ref="561044316"/>
    <nd ref="528555017"/>
    <nd ref="528555018"/>
    <nd ref="528555019"/>
    <nd ref="528555020"/>
    <nd ref="561044314"/>
    <nd ref="528555021"/>
    <nd ref="561044315"/>
    <nd ref="528555027"/>
    <nd ref="561044345"/>
    <nd ref="528555028"/>
    <nd ref="561044346"/>
    <nd ref="528555029"/>
    <nd ref="561044347"/>
    <nd ref="528555030"/>
    <nd ref="528555031"/>
    <tag k="highway" v="residential"/>
    <tag k="maxspeed" v="40"/>
    <tag k="name" v="Brookvale Drive"/>
    <tag k="source" v="nearmap"/>
  </way>
  <way id="44165321" version="6" timestamp="2011-06-13T09:45:13Z" uid="22094" user="Chadzopkyo" changeset="8423829">
    <nd ref="561044329"/>
    <nd ref="561044328"/>
    <nd ref="561044318"/>
    <nd ref="561044317"/>
    <nd ref="1323374353"/>
    <nd ref="528555014"/>
    <nd ref="528555015"/>
    <nd ref="561044316"/>
    <nd ref="528555017"/>
    <nd ref="528555018"/>
    <nd ref="528555019"/>
    <nd ref="528555020"/>
    <nd ref="561044314"/>
    <nd ref="528555021"/>
    <nd ref="561044315"/>
    <nd ref="528555028"/>
    <nd ref="528555029"/>
    <nd ref="561044347"/>
    <nd ref="528555030"/>
    <nd ref="528555031"/>
    <nd ref="1323374333"/>
    <nd ref="1323374332"/>
    <nd ref="1323374330"/>
    <tag k="highway" v="residential"/>
    <tag k="maxspeed" v="40"/>
    <tag k="name" v="Brookvale Drive"/>
    <tag k="source" v="nearmap"/>
  </way>
  <way id="44165322" version="1" timestamp="2009-11-12T05:37:47Z" uid="74617" user="JohnSmith" changeset="3095644">
    <nd ref="561044329"/>
    <nd ref="561044337"/>
    <nd ref="561044338"/>
    <nd ref="561044339"/>
    <nd ref="561044340"/>
    <nd ref="561044341"/>
    <nd ref="561044330"/>
    <nd ref="561044333"/>
    <nd ref="561044334"/>
    <nd ref="561044332"/>
    <nd ref="561044335"/>
    <nd ref="561044331"/>
    <nd ref="561044327"/>
    <nd ref="561044326"/>
    <nd ref="561044325"/>
    <nd ref="561044324"/>
    <nd ref="561044323"/>
    <nd ref="561044343"/>
    <nd ref="561044342"/>
    <nd ref="561044336"/>
    <nd ref="561044329"/>
    <tag k="highway" v="residential"/>
    <tag k="junction" v="roundabout"/>
    <tag k="source" v="nearmap"/>
  </way>
  <way id="44165322" version="2" timestamp="2010-02-15T06:55:25Z" uid="74617" user="JohnSmith" changeset="3880463">
    <nd ref="561044329"/>
    <nd ref="561044337"/>
    <nd ref="561044338"/>
    <nd ref="561044339"/>
    <nd ref="561044340"/>
    <nd ref="561044341"/>
    <nd ref="561044330"/>
    <nd ref="561044333"/>
    <nd ref="561044334"/>
    <nd ref="561044332"/>
    <nd ref="561044335"/>
    <nd ref="561044331"/>
    <nd ref="561044327"/>
    <nd ref="561044326"/>
    <nd ref="561044325"/>
    <nd ref="561044324"/>
    <nd ref="561044323"/>
    <nd ref="561044343"/>
    <nd ref="561044342"/>
    <nd ref="561044336"/>
    <nd ref="561044329"/>
    <tag k="highway" v="residential"/>
    <tag k="junction" v="roundabout"/>
    <tag k="maxspeed" v="50"/>
    <tag k="source" v="nearmap"/>
  </way>
  <way id="44165322" version="3" timestamp="2010-05-23T00:24:28Z" uid="244897" user="M526244" changeset="4779007">
    <nd ref="561044329"/>
    <nd ref="561044337"/>
    <nd ref="561044338"/>
    <nd ref="561044339"/>
    <nd ref="561044340"/>
    <nd ref="561044341"/>
    <nd ref="561044330"/>
    <nd ref="561044333"/>
    <nd ref="561044334"/>
    <nd ref="561044332"/>
    <nd ref="561044335"/>
    <nd ref="561044331"/>
    <nd ref="561044327"/>
    <nd ref="561044326"/>
    <nd ref="561044325"/>
    <nd ref="561044324"/>
    <nd ref="561044323"/>
    <nd ref="561044343"/>
    <nd ref="561044342"/>
    <nd ref="561044336"/>
    <nd ref="561044329"/>
    <tag k="highway" v="residential"/>
    <tag k="junction" v="roundabout"/>
    <tag k="maxspeed" v="50"/>
    <tag k="oneway" v="yes"/>
    <tag k="source" v="nearmap"/>
  </way>
  <way id="44165322" version="4" timestamp="2010-06-23T04:56:29Z" uid="4467" user="Rosscoe" changeset="5056189">
    <nd ref="561044329"/>
    <nd ref="561044337"/>
    <nd ref="561044338"/>
    <nd ref="561044339"/>
    <nd ref="561044340"/>
    <nd ref="561044341"/>
    <nd ref="561044330"/>
    <nd ref="561044333"/>
    <nd ref="561044334"/>
    <nd ref="561044332"/>
    <nd ref="561044335"/>
    <nd ref="561044331"/>
    <nd ref="561044327"/>
    <nd ref="561044326"/>
    <nd ref="561044325"/>
    <nd ref="561044324"/>
    <nd ref="561044323"/>
    <nd ref="561044343"/>
    <nd ref="561044342"/>
    <nd ref="561044336"/>
    <nd ref="561044329"/>
    <tag k="highway" v="residential"/>
    <tag k="junction" v="roundabout"/>
    <tag k="maxspeed" v="50"/>
    <tag k="source" v="nearmap"/>
  </way>
  <way id="44165322" version="5" timestamp="2011-06-13T09:45:13Z" uid="22094" user="Chadzopkyo" changeset="8423829">
    <nd ref="561044329"/>
    <nd ref="561044338"/>
    <nd ref="561044340"/>
    <nd ref="561044341"/>
    <nd ref="561044334"/>
    <nd ref="561044335"/>
    <nd ref="561044331"/>
    <nd ref="561044327"/>
    <nd ref="561044325"/>
    <nd ref="561044323"/>
    <nd ref="561044342"/>
    <nd ref="561044329"/>
    <tag k="highway" v="residential"/>
    <tag k="junction" v="roundabout"/>
    <tag k="maxspeed" v="50"/>
    <tag k="name" v="Brookvale Drive"/>
  </way>
  <way id="44165323" version="1" timestamp="2009-11-12T05:37:47Z" uid="74617" user="JohnSmith" changeset="3095644">
    <nd ref="561044352"/>
    <nd ref="561044353"/>
    <nd ref="288673709"/>
    <nd ref="288673715"/>
    <nd ref="294107454"/>
    <nd ref="288673711"/>
    <nd ref="288673712"/>
    <nd ref="288673571"/>
    <nd ref="288673587"/>
    <nd ref="288673573"/>
    <nd ref="288673646"/>
    <nd ref="288673589"/>
    <nd ref="288673576"/>
    <nd ref="288673647"/>
    <nd ref="288673578"/>
    <nd ref="288673682"/>
    <nd ref="288673580"/>
    <nd ref="288673592"/>
    <nd ref="288673582"/>
    <nd ref="288673583"/>
    <nd ref="288673593"/>
    <nd ref="393081971"/>
    <nd ref="288673585"/>
    <tag k="access" v="destination"/>
    <tag k="highway" v="residential"/>
    <tag k="maxspeed" v="40"/>
    <tag k="name" v="Brookvale Drive"/>
  </way>
  <way id="44165323" version="2" timestamp="2009-11-12T05:46:33Z" uid="74617" user="JohnSmith" changeset="3095667">
    <nd ref="561044656"/>
    <nd ref="561044352"/>
    <nd ref="561044353"/>
    <nd ref="288673709"/>
    <nd ref="561044662"/>
    <nd ref="561044661"/>
    <nd ref="288673715"/>
    <nd ref="294107454"/>
    <nd ref="288673711"/>
    <nd ref="288673712"/>
    <nd ref="561044670"/>
    <tag k="access" v="destination"/>
    <tag k="highway" v="residential"/>
    <tag k="maxspeed" v="40"/>
    <tag k="name" v="Brookvale Drive"/>
  </way>
  <way id="44165323" version="3" timestamp="2010-05-04T07:39:36Z" uid="22094" user="Chadzopkyo" changeset="4601875">
    <nd ref="561044656"/>
    <nd ref="561044352"/>
    <nd ref="561044353"/>
    <nd ref="288673709"/>
    <nd ref="561044662"/>
    <nd ref="561044661"/>
    <nd ref="288673715"/>
    <nd ref="294107454"/>
    <nd ref="288673711"/>
    <nd ref="288673712"/>
    <nd ref="561044670"/>
    <tag k="highway" v="residential"/>
    <tag k="maxspeed" v="40"/>
    <tag k="name" v="Brookvale Drive"/>
  </way>
  <way id="44165323" version="4" timestamp="2011-06-13T09:45:14Z" uid="22094" user="Chadzopkyo" changeset="8423829">
    <nd ref="561044656"/>
    <nd ref="561044353"/>
    <nd ref="288673709"/>
    <nd ref="561044662"/>
    <nd ref="288673715"/>
    <nd ref="294107454"/>
    <nd ref="288673712"/>
    <nd ref="561044670"/>
    <tag k="highway" v="residential"/>
    <tag k="maxspeed" v="40"/>
    <tag k="name" v="Brookvale Drive"/>
    <tag k="source" v="GPS"/>
    <tag k="surface" v="asphalt"/>
  </way>
  <way id="44165342" version="1" timestamp="2009-11-12T05:44:09Z" uid="103576" user="DiverCTH" changeset="3095661">
    <nd ref="561044460"/>
    <nd ref="561044479"/>
    <nd ref="561044470"/>
    <nd ref="561044453"/>
    <nd ref="561044460"/>
    <tag k="addr:city" v="Atlanta"/>
    <tag k="addr:country" v="US"/>
    <tag k="addr:housename" v="Briarcliff Summit"/>
    <tag k="addr:housenumber" v="1050"/>
    <tag k="addr:postcode" v="30306"/>
    <tag k="addr:street" v="Ponce De Leon Avenue"/>
    <tag k="building" v="yes"/>
  </way>
  <way id="44165342" version="2" timestamp="2009-11-14T03:11:06Z" uid="103576" user="DiverCTH" changeset="3110424">
    <nd ref="561044460"/>
    <nd ref="561044479"/>
    <nd ref="561044470"/>
    <nd ref="563579926"/>
    <nd ref="563579935"/>
    <nd ref="563579933"/>
    <nd ref="563579946"/>
    <nd ref="561044453"/>
    <nd ref="561044460"/>
    <tag k="addr:city" v="Atlanta"/>
    <tag k="addr:country" v="US"/>
    <tag k="addr:housename" v="Briarcliff Summit"/>
    <tag k="addr:housenumber" v="1050"/>
    <tag k="addr:postcode" v="30306"/>
    <tag k="addr:street" v="Ponce De Leon Avenue"/>
    <tag k="building" v="yes"/>
  </way>
  <way id="44165343" version="1" timestamp="2009-11-12T05:44:09Z" uid="103576" user="DiverCTH" changeset="3095661">
    <nd ref="561044466"/>
    <nd ref="561044465"/>
    <nd ref="561044463"/>
    <nd ref="561044462"/>
    <nd ref="561044461"/>
    <nd ref="561044455"/>
    <nd ref="561044456"/>
    <nd ref="561044457"/>
    <nd ref="561044458"/>
    <nd ref="561044466"/>
    <tag k="addr:city" v="Atlanta"/>
    <tag k="addr:country" v="US"/>
    <tag k="addr:housenumber" v="1026"/>
    <tag k="addr:postcode" v="30306"/>
    <tag k="addr:street" v="Ponce De Leon Avenue"/>
    <tag k="addr:url" v="http://www.dhpc.org"/>
    <tag k="amenity" v="place_of_worship"/>
    <tag k="denomination" v="presbyterian"/>
    <tag k="ele" v="307"/>
    <tag k="gnis:county_id" v="121"/>
    <tag k="gnis:created" v="12/03/1996"/>
    <tag k="gnis:feature_id" v="1705155"/>
    <tag k="gnis:state_id" v="13"/>
    <tag k="name" v="Druid Hills Presbyterian Church"/>
    <tag k="opening_hours" v="Su 9:00-12:00"/>
    <tag k="religion" v="christian"/>
  </way>
  <way id="44165343" version="2" timestamp="2009-11-14T03:11:07Z" uid="103576" user="DiverCTH" changeset="3110424">
    <nd ref="561044466"/>
    <nd ref="561044465"/>
    <nd ref="561044463"/>
    <nd ref="561044462"/>
    <nd ref="561044461"/>
    <nd ref="561044456"/>
    <nd ref="561044457"/>
    <nd ref="561044458"/>
    <nd ref="561044466"/>
    <tag k="addr:city" v="Atlanta"/>
    <tag k="addr:country" v="US"/>
    <tag k="addr:housenumber" v="1026"/>
    <tag k="addr:postcode" v="30306"/>
    <tag k="addr:street" v="Ponce De Leon Avenue"/>
    <tag k="addr:url" v="http://www.dhpc.org"/>
    <tag k="amenity" v="place_of_worship"/>
    <tag k="denomination" v="presbyterian"/>
    <tag k="ele" v="307"/>
    <tag k="gnis:county_id" v="121"/>
    <tag k="gnis:created" v="12/03/1996"/>
    <tag k="gnis:feature_id" v="1705155"/>
    <tag k="gnis:state_id" v="13"/>
    <tag k="name" v="Druid Hills Presbyterian Church"/>
    <tag k="opening_hours" v="Su 9:00-12:00"/>
    <tag k="religion" v="christian"/>
  </way>
  <way id="44165343" version="3" timestamp="2009-12-01T14:37:10Z" uid="70696" user="xybot" changeset="3261847">
    <nd ref="561044466"/>
    <nd ref="561044465"/>
    <nd ref="561044463"/>
    <nd ref="561044462"/>
    <nd ref="561044461"/>
    <nd ref="561044456"/>
    <nd ref="561044457"/>
    <nd ref="561044458"/>
    <nd ref="561044466"/>
    <tag k="addr:city" v="Atlanta"/>
    <tag k="addr:country" v="US"/>
    <tag k="addr:housenumber" v="1026"/>
    <tag k="addr:postcode" v="30306"/>
    <tag k="addr:street" v="Ponce De Leon Avenue"/>
    <tag k="addr:website" v="http://www.dhpc.org"/>
    <tag k="amenity" v="place_of_worship"/>
    <tag k="denomination" v="presbyterian"/>
    <tag k="ele" v="307"/>
    <tag k="gnis:county_id" v="121"/>
    <tag k="gnis:created" v="12/03/1996"/>
    <tag k="gnis:feature_id" v="1705155"/>
    <tag k="gnis:state_id" v="13"/>
    <tag k="name" v="Druid Hills Presbyterian Church"/>
    <tag k="opening_hours" v="Su 9:00-12:00"/>
    <tag k="religion" v="christian"/>
  </way>
  <way id="44165343" version="4" timestamp="2010-05-01T05:36:51Z" uid="110639" user="aighes" changeset="4571679">
    <nd ref="561044466"/>
    <nd ref="561044465"/>
    <nd ref="561044463"/>
    <nd ref="561044462"/>
    <nd ref="561044461"/>
    <nd ref="561044456"/>
    <nd ref="561044457"/>
    <nd ref="561044458"/>
    <nd ref="561044466"/>
    <tag k="addr:city" v="Atlanta"/>
    <tag k="addr:country" v="US"/>
    <tag k="addr:housenumber" v="1026"/>
    <tag k="addr:postcode" v="30306"/>
    <tag k="addr:street" v="Ponce De Leon Avenue"/>
    <tag k="amenity" v="place_of_worship"/>
    <tag k="denomination" v="presbyterian"/>
    <tag k="ele" v="307"/>
    <tag k="gnis:county_id" v="121"/>
    <tag k="gnis:created" v="12/03/1996"/>
    <tag k="gnis:feature_id" v="1705155"/>
    <tag k="gnis:state_id" v="13"/>
    <tag k="name" v="Druid Hills Presbyterian Church"/>
    <tag k="opening_hours" v="Su 9:00-12:00"/>
    <tag k="religion" v="christian"/>
    <tag k="website" v="http://www.dhpc.org"/>
  </way>
  <way id="44165344" version="1" timestamp="2009-11-12T05:44:09Z" uid="103576" user="DiverCTH" changeset="3095661">
    <nd ref="561044452"/>
    <nd ref="561044450"/>
    <nd ref="561044449"/>
    <nd ref="561044451"/>
    <nd ref="561044452"/>
    <tag k="addr:city" v="Atlanta"/>
    <tag k="addr:country" v="US"/>
    <tag k="addr:housenumber" v="1024"/>
    <tag k="addr:postcode" v="30306"/>
    <tag k="addr:state" v="GA"/>
    <tag k="addr:street" v="Ponce De Leon Avenue"/>
    <tag k="amenity" v="place_of_worship"/>
    <tag k="denomination" v="presbyterian"/>
    <tag k="name" v="Miriam H. and John A. Conant Presbyterian Center"/>
    <tag k="religion" v="christian"/>
  </way>
  <way id="44165345" version="1" timestamp="2009-11-12T05:44:09Z" uid="103576" user="DiverCTH" changeset="3095661">
    <nd ref="561044509"/>
    <nd ref="561044504"/>
    <nd ref="561044505"/>
    <nd ref="561044506"/>
    <nd ref="561044507"/>
    <nd ref="561044502"/>
    <nd ref="561044501"/>
    <nd ref="561044508"/>
    <nd ref="561044512"/>
    <nd ref="561044510"/>
    <nd ref="561044509"/>
  </way>
  <way id="44165345" version="2" timestamp="2009-11-14T03:11:07Z" uid="103576" user="DiverCTH" changeset="3110424">
    <nd ref="561044509"/>
    <nd ref="561044504"/>
    <nd ref="561044505"/>
    <nd ref="561044506"/>
    <nd ref="561044507"/>
    <nd ref="561044502"/>
    <nd ref="561044501"/>
    <nd ref="561044508"/>
    <nd ref="561044512"/>
    <nd ref="561044510"/>
    <nd ref="561044509"/>
    <tag k="addr:housenumber" v="1200"/>
    <tag k="addr:street" v="East Ponce De Leon Avenue"/>
    <tag k="addr:url" v="http://druidhillsumc.org"/>
    <tag k="amenity" v="place_of_worship"/>
    <tag k="denomination" v="methodist"/>
    <tag k="ele" v="307"/>
    <tag k="gnis:county_id" v="089"/>
    <tag k="gnis:created" v="04/30/1996"/>
    <tag k="gnis:feature_id" v="1687548"/>
    <tag k="gnis:state_id" v="13"/>
    <tag k="name" v="Druid Hills United Methodist Church"/>
    <tag k="religion" v="christian"/>
  </way>
  <way id="44165345" version="3" timestamp="2009-12-01T14:37:11Z" uid="70696" user="xybot" changeset="3261847">
    <nd ref="561044509"/>
    <nd ref="561044504"/>
    <nd ref="561044505"/>
    <nd ref="561044506"/>
    <nd ref="561044507"/>
    <nd ref="561044502"/>
    <nd ref="561044501"/>
    <nd ref="561044508"/>
    <nd ref="561044512"/>
    <nd ref="561044510"/>
    <nd ref="561044509"/>
    <tag k="addr:housenumber" v="1200"/>
    <tag k="addr:street" v="East Ponce De Leon Avenue"/>
    <tag k="addr:website" v="http://druidhillsumc.org"/>
    <tag k="amenity" v="place_of_worship"/>
    <tag k="denomination" v="methodist"/>
    <tag k="ele" v="307"/>
    <tag k="gnis:county_id" v="089"/>
    <tag k="gnis:created" v="04/30/1996"/>
    <tag k="gnis:feature_id" v="1687548"/>
    <tag k="gnis:state_id" v="13"/>
    <tag k="name" v="Druid Hills United Methodist Church"/>
    <tag k="religion" v="christian"/>
  </way>
  <way id="44165345" version="4" timestamp="2010-05-01T05:36:51Z" uid="110639" user="aighes" changeset="4571679">
    <nd ref="561044509"/>
    <nd ref="561044504"/>
    <nd ref="561044505"/>
    <nd ref="561044506"/>
    <nd ref="561044507"/>
    <nd ref="561044502"/>
    <nd ref="561044501"/>
    <nd ref="561044508"/>
    <nd ref="561044512"/>
    <nd ref="561044510"/>
    <nd ref="561044509"/>
    <tag k="addr:housenumber" v="1200"/>
    <tag k="addr:street" v="East Ponce De Leon Avenue"/>
    <tag k="amenity" v="place_of_worship"/>
    <tag k="denomination" v="methodist"/>
    <tag k="ele" v="307"/>
    <tag k="gnis:county_id" v="089"/>
    <tag k="gnis:created" v="04/30/1996"/>
    <tag k="gnis:feature_id" v="1687548"/>
    <tag k="gnis:state_id" v="13"/>
    <tag k="name" v="Druid Hills United Methodist Church"/>
    <tag k="religion" v="christian"/>
    <tag k="website" v="http://druidhillsumc.org"/>
  </way>
  <way id="44165345" version="5" timestamp="2011-01-07T18:32:36Z" uid="28852" user="Mark Gray" changeset="6895868"/>
  <way id="44165346" version="1" timestamp="2009-11-12T05:44:10Z" uid="103576" user="DiverCTH" changeset="3095661">
    <nd ref="561044491"/>
    <nd ref="561044486"/>
    <nd ref="561044488"/>
    <nd ref="561044484"/>
    <nd ref="561044491"/>
    <tag k="addr:city" v="Atlanta"/>
    <tag k="addr:country" v="US"/>
    <tag k="addr:housename" v="Lion&apos;s Gate Manor"/>
    <tag k="addr:housenumber" v="1126"/>
    <tag k="addr:phone" v="+1-404-872-7086"/>
    <tag k="addr:postcode" v="30306"/>
    <tag k="addr:street" v="Ponce De Leon Avenue"/>
    <tag k="amenity" v="lawyer"/>
    <tag k="name" v="Law Offices of Smith, White, Sharma &amp; Halpern"/>
  </way>
  <way id="44165346" version="2" timestamp="2010-05-01T05:35:02Z" uid="110639" user="aighes" changeset="4571675">
    <nd ref="561044491"/>
    <nd ref="561044486"/>
    <nd ref="561044488"/>
    <nd ref="561044484"/>
    <nd ref="561044491"/>
    <tag k="addr:city" v="Atlanta"/>
    <tag k="addr:country" v="US"/>
    <tag k="addr:housename" v="Lion&apos;s Gate Manor"/>
    <tag k="addr:housenumber" v="1126"/>
    <tag k="addr:postcode" v="30306"/>
    <tag k="addr:street" v="Ponce De Leon Avenue"/>
    <tag k="amenity" v="lawyer"/>
    <tag k="name" v="Law Offices of Smith, White, Sharma &amp; Halpern"/>
    <tag k="phone" v="+1-404-872-7086"/>
  </way>
  <way id="44165347" version="1" timestamp="2009-11-12T05:44:10Z" uid="103576" user="DiverCTH" changeset="3095661">
    <nd ref="561044498"/>
    <nd ref="561044493"/>
    <nd ref="561044496"/>
    <nd ref="561044497"/>
    <nd ref="561044498"/>
  </way>
  <way id="44165347" version="2" timestamp="2010-03-05T00:47:08Z" uid="28852" user="Mark Gray" changeset="4037748">
    <nd ref="561044498"/>
    <nd ref="561044493"/>
    <nd ref="561044496"/>
    <nd ref="561044497"/>
    <nd ref="561044498"/>
    <tag k="building" v="yes"/>
  </way>
  <way id="44165348" version="1" timestamp="2009-11-12T05:44:10Z" uid="103576" user="DiverCTH" changeset="3095661">
    <nd ref="561044485"/>
    <nd ref="561044483"/>
    <nd ref="561044492"/>
    <nd ref="561044499"/>
    <nd ref="561044485"/>
    <tag k="addr:city" v="Atlanta"/>
    <tag k="addr:country" v="US"/>
    <tag k="addr:housename" v="Plexus on Ponce"/>
    <tag k="addr:housenumber" v="1136"/>
    <tag k="addr:postcode" v="30306"/>
    <tag k="addr:street" v="Ponce De Leon Avenue"/>
    <tag k="addr:url" v="http://plexusonponce.com"/>
  </way>
  <way id="44165348" version="2" timestamp="2009-12-01T14:37:12Z" uid="70696" user="xybot" changeset="3261847">
    <nd ref="561044485"/>
    <nd ref="561044483"/>
    <nd ref="561044492"/>
    <nd ref="561044499"/>
    <nd ref="561044485"/>
    <tag k="addr:city" v="Atlanta"/>
    <tag k="addr:country" v="US"/>
    <tag k="addr:housename" v="Plexus on Ponce"/>
    <tag k="addr:housenumber" v="1136"/>
    <tag k="addr:postcode" v="30306"/>
    <tag k="addr:street" v="Ponce De Leon Avenue"/>
    <tag k="addr:website" v="http://plexusonponce.com"/>
  </way>
  <way id="44165348" version="3" timestamp="2010-03-05T00:47:08Z" uid="28852" user="Mark Gray" changeset="4037748">
    <nd ref="561044485"/>
    <nd ref="561044483"/>
    <nd ref="561044492"/>
    <nd ref="561044499"/>
    <nd ref="561044485"/>
    <tag k="addr:city" v="Atlanta"/>
    <tag k="addr:country" v="US"/>
    <tag k="addr:housename" v="Plexus on Ponce"/>
    <tag k="addr:housenumber" v="1136"/>
    <tag k="addr:postcode" v="30306"/>
    <tag k="addr:street" v="Ponce De Leon Avenue"/>
    <tag k="addr:website" v="http://plexusonponce.com"/>
    <tag k="building" v="yes"/>
  </way>
  <way id="44165348" version="4" timestamp="2010-05-01T05:36:50Z" uid="110639" user="aighes" changeset="4571679">
    <nd ref="561044485"/>
    <nd ref="561044483"/>
    <nd ref="561044492"/>
    <nd ref="561044499"/>
    <nd ref="561044485"/>
    <tag k="addr:city" v="Atlanta"/>
    <tag k="addr:country" v="US"/>
    <tag k="addr:housename" v="Plexus on Ponce"/>
    <tag k="addr:housenumber" v="1136"/>
    <tag k="addr:postcode" v="30306"/>
    <tag k="addr:street" v="Ponce De Leon Avenue"/>
    <tag k="building" v="yes"/>
    <tag k="website" v="http://plexusonponce.com"/>
  </way>
  <way id="44165359" version="1" timestamp="2009-11-12T05:46:30Z" uid="74617" user="JohnSmith" changeset="3095667">
    <nd ref="561044676"/>
    <nd ref="288673587"/>
    <nd ref="288673573"/>
    <nd ref="288673646"/>
    <nd ref="288673589"/>
    <nd ref="288673576"/>
    <nd ref="288673647"/>
    <nd ref="288673578"/>
    <nd ref="288673682"/>
    <nd ref="288673580"/>
    <nd ref="288673592"/>
    <nd ref="288673582"/>
    <nd ref="288673583"/>
    <nd ref="288673593"/>
    <nd ref="393081971"/>
    <nd ref="288673585"/>
    <tag k="access" v="destination"/>
    <tag k="highway" v="residential"/>
    <tag k="maxspeed" v="40"/>
    <tag k="name" v="Brookvale Drive"/>
  </way>
  <way id="44165359" version="2" timestamp="2009-11-12T05:57:27Z" uid="74617" user="JohnSmith" changeset="3095694">
    <nd ref="561044676"/>
    <nd ref="288673587"/>
    <nd ref="561045485"/>
    <nd ref="561045494"/>
    <tag k="access" v="destination"/>
    <tag k="highway" v="residential"/>
    <tag k="maxspeed" v="40"/>
    <tag k="name" v="Brookvale Drive"/>
  </way>
  <way id="44165359" version="3" timestamp="2010-05-04T07:39:36Z" uid="22094" user="Chadzopkyo" changeset="4601875">
    <nd ref="561044676"/>
    <nd ref="288673587"/>
    <nd ref="561045485"/>
    <nd ref="561045494"/>
    <tag k="highway" v="residential"/>
    <tag k="maxspeed" v="40"/>
    <tag k="name" v="Brookvale Drive"/>
  </way>
  <way id="44165359" version="4" timestamp="2011-06-13T09:45:13Z" uid="22094" user="Chadzopkyo" changeset="8423829">
    <nd ref="561044676"/>
    <nd ref="288673587"/>
    <nd ref="561045494"/>
    <tag k="highway" v="residential"/>
    <tag k="maxspeed" v="40"/>
    <tag k="name" v="Brookvale Drive"/>
    <tag k="source" v="GPS"/>
    <tag k="surface" v="asphalt"/>
  </way>
  <way id="44165360" version="1" timestamp="2009-11-12T05:46:30Z" uid="74617" user="JohnSmith" changeset="3095667">
    <nd ref="561044654"/>
    <nd ref="561044658"/>
    <nd ref="561044655"/>
    <nd ref="561044659"/>
    <nd ref="561044656"/>
    <nd ref="561044660"/>
    <nd ref="561044653"/>
    <nd ref="561044657"/>
    <nd ref="561044654"/>
    <tag k="highway" v="residential"/>
    <tag k="junction" v="roundabout"/>
    <tag k="source" v="nearmap"/>
  </way>
  <way id="44165360" version="2" timestamp="2010-02-15T06:56:35Z" uid="74617" user="JohnSmith" changeset="3880463">
    <nd ref="561044654"/>
    <nd ref="561044658"/>
    <nd ref="561044655"/>
    <nd ref="561044659"/>
    <nd ref="561044656"/>
    <nd ref="561044660"/>
    <nd ref="561044653"/>
    <nd ref="561044657"/>
    <nd ref="561044654"/>
    <tag k="highway" v="residential"/>
    <tag k="junction" v="roundabout"/>
    <tag k="maxspeed" v="50"/>
    <tag k="source" v="nearmap"/>
  </way>
  <way id="44165360" version="3" timestamp="2010-05-23T00:24:29Z" uid="244897" user="M526244" changeset="4779007">
    <nd ref="561044654"/>
    <nd ref="561044658"/>
    <nd ref="561044655"/>
    <nd ref="561044659"/>
    <nd ref="561044656"/>
    <nd ref="561044660"/>
    <nd ref="561044653"/>
    <nd ref="561044657"/>
    <nd ref="561044654"/>
    <tag k="highway" v="residential"/>
    <tag k="junction" v="roundabout"/>
    <tag k="maxspeed" v="50"/>
    <tag k="oneway" v="yes"/>
    <tag k="source" v="nearmap"/>
  </way>
  <way id="44165360" version="4" timestamp="2010-06-23T04:56:35Z" uid="4467" user="Rosscoe" changeset="5056189">
    <nd ref="561044654"/>
    <nd ref="561044658"/>
    <nd ref="561044655"/>
    <nd ref="561044659"/>
    <nd ref="561044656"/>
    <nd ref="561044660"/>
    <nd ref="561044653"/>
    <nd ref="561044657"/>
    <nd ref="561044654"/>
    <tag k="highway" v="residential"/>
    <tag k="junction" v="roundabout"/>
    <tag k="maxspeed" v="50"/>
    <tag k="source" v="nearmap"/>
  </way>
  <way id="44165360" version="5" timestamp="2011-06-13T09:45:14Z" uid="22094" user="Chadzopkyo" changeset="8423829">
    <nd ref="561044654"/>
    <nd ref="561044658"/>
    <nd ref="561044655"/>
    <nd ref="561044659"/>
    <nd ref="561044656"/>
    <nd ref="561044660"/>
    <nd ref="561044653"/>
    <nd ref="561044657"/>
    <nd ref="561044654"/>
    <tag k="highway" v="residential"/>
    <tag k="junction" v="roundabout"/>
    <tag k="maxspeed" v="50"/>
    <tag k="name" v="Brookvale Drive"/>
  </way>
  <way id="44165361" version="1" timestamp="2009-11-12T05:46:30Z" uid="74617" user="JohnSmith" changeset="3095667">
    <nd ref="561044669"/>
    <nd ref="561044673"/>
    <nd ref="561044674"/>
    <nd ref="561044670"/>
    <nd ref="561044675"/>
    <nd ref="561044677"/>
    <nd ref="561044676"/>
    <nd ref="561044672"/>
    <nd ref="561044671"/>
    <nd ref="561044669"/>
    <tag k="highway" v="residential"/>
    <tag k="junction" v="roundabout"/>
    <tag k="source" v="nearmap"/>
  </way>
  <way id="44165361" version="2" timestamp="2010-02-15T06:56:35Z" uid="74617" user="JohnSmith" changeset="3880463">
    <nd ref="561044669"/>
    <nd ref="561044673"/>
    <nd ref="561044674"/>
    <nd ref="561044670"/>
    <nd ref="561044675"/>
    <nd ref="561044677"/>
    <nd ref="561044676"/>
    <nd ref="561044672"/>
    <nd ref="561044671"/>
    <nd ref="561044669"/>
    <tag k="highway" v="residential"/>
    <tag k="junction" v="roundabout"/>
    <tag k="maxspeed" v="50"/>
    <tag k="source" v="nearmap"/>
  </way>
  <way id="44165361" version="3" timestamp="2010-05-23T00:24:35Z" uid="244897" user="M526244" changeset="4779007">
    <nd ref="561044669"/>
    <nd ref="561044673"/>
    <nd ref="561044674"/>
    <nd ref="561044670"/>
    <nd ref="561044675"/>
    <nd ref="561044677"/>
    <nd ref="561044676"/>
    <nd ref="561044672"/>
    <nd ref="561044671"/>
    <nd ref="561044669"/>
    <tag k="highway" v="residential"/>
    <tag k="junction" v="roundabout"/>
    <tag k="maxspeed" v="50"/>
    <tag k="oneway" v="yes"/>
    <tag k="source" v="nearmap"/>
  </way>
  <way id="44165361" version="4" timestamp="2010-06-23T04:56:41Z" uid="4467" user="Rosscoe" changeset="5056189">
    <nd ref="561044669"/>
    <nd ref="561044673"/>
    <nd ref="561044674"/>
    <nd ref="561044670"/>
    <nd ref="561044675"/>
    <nd ref="561044677"/>
    <nd ref="561044676"/>
    <nd ref="561044672"/>
    <nd ref="561044671"/>
    <nd ref="561044669"/>
    <tag k="highway" v="residential"/>
    <tag k="junction" v="roundabout"/>
    <tag k="maxspeed" v="50"/>
    <tag k="source" v="nearmap"/>
  </way>
  <way id="44165361" version="5" timestamp="2011-06-13T09:45:14Z" uid="22094" user="Chadzopkyo" changeset="8423829">
    <nd ref="561044669"/>
    <nd ref="561044673"/>
    <nd ref="561044674"/>
    <nd ref="561044670"/>
    <nd ref="561044675"/>
    <nd ref="561044677"/>
    <nd ref="561044676"/>
    <nd ref="561044672"/>
    <nd ref="561044671"/>
    <nd ref="561044669"/>
    <tag k="highway" v="residential"/>
    <tag k="junction" v="roundabout"/>
    <tag k="maxspeed" v="50"/>
    <tag k="name" v="Brookvale Drive"/>
  </way>
  <way id="44165371" version="3" timestamp="2010-04-07T14:02:03Z" uid="20587" user="balrog-kun" changeset="4353646">
    <nd ref="561044700"/>
    <nd ref="561044701"/>
    <nd ref="561044702"/>
    <nd ref="561044703"/>
    <nd ref="561044704"/>
    <tag k="access" v="private"/>
    <tag k="highway" v="residential"/>
    <tag k="name" v="Carlton Road"/>
    <tag k="tiger:cfcc" v="A41"/>
    <tag k="tiger:county" v="Kimble, TX"/>
    <tag k="tiger:name_base" v="Carlton"/>
    <tag k="tiger:name_type" v="Rd"/>
    <tag k="tiger:separated" v="no"/>
    <tag k="tiger:source" v="tiger_import_dch_v0.6_20070830"/>
    <tag k="tiger:tlid" v="173456360:173456359"/>
  </way>
  <way id="44165373" version="6" timestamp="2010-04-07T14:02:03Z" uid="20587" user="balrog-kun" changeset="4353646">
    <nd ref="561044781"/>
    <nd ref="561044782"/>
    <nd ref="561044783"/>
    <nd ref="561044784"/>
    <nd ref="561044785"/>
    <nd ref="561044786"/>
    <nd ref="561044787"/>
    <nd ref="561044788"/>
    <nd ref="561044789"/>
    <nd ref="561044791"/>
    <nd ref="561044792"/>
    <nd ref="561044793"/>
    <nd ref="561044794"/>
    <nd ref="561044795"/>
    <nd ref="561044796"/>
    <nd ref="561044797"/>
    <nd ref="561044798"/>
    <nd ref="561044799"/>
    <nd ref="561044800"/>
    <nd ref="561044801"/>
    <nd ref="561044802"/>
    <nd ref="561044803"/>
    <nd ref="561044804"/>
    <nd ref="561044805"/>
    <nd ref="561044806"/>
    <nd ref="561044807"/>
    <nd ref="561044808"/>
    <nd ref="561044809"/>
    <nd ref="561044810"/>
    <nd ref="561044811"/>
    <nd ref="561044812"/>
    <nd ref="561044813"/>
    <nd ref="561044814"/>
    <nd ref="561044815"/>
    <nd ref="561044816"/>
    <nd ref="561044817"/>
    <nd ref="561044818"/>
    <nd ref="561044706"/>
    <nd ref="561044707"/>
    <nd ref="561044704"/>
    <tag k="access" v="private"/>
    <tag k="county" v="Kimble, Tx"/>
    <tag k="highway" v="residential"/>
    <tag k="name" v="Stapp Road"/>
    <tag k="tiger:cfcc" v="A41"/>
    <tag k="tiger:county" v="Kimble, TX"/>
    <tag k="tiger:name_base" v="Stapp"/>
    <tag k="tiger:name_type" v="Rd"/>
    <tag k="tiger:separated" v="no"/>
    <tag k="tiger:source" v="tiger_import_dch_v0.6_20070830"/>
    <tag k="tiger:tlid" v="173456361"/>
  </way>
  <way id="44165448" version="3" timestamp="2010-07-09T22:20:31Z" uid="74617" user="JohnSmith" changeset="5176956">
    <nd ref="439041692"/>
    <nd ref="561045306"/>
    <tag k="highway" v="unclassified"/>
    <tag k="maxspeed" v="50"/>
    <tag k="maxspeed:source" v="default residential speed limit in Australia"/>
    <tag k="name" v="Moore Road"/>
    <tag k="source" v="nearmap"/>
    <tag k="source:name" v="survey"/>
  </way>
  <way id="44165448" version="4" timestamp="2012-01-19T08:52:55Z" uid="147510" user="woodpeck_fixbot" changeset="10434386">
    <nd ref="439041692"/>
    <nd ref="561045306"/>
    <tag k="highway" v="unclassified"/>
    <tag k="name" v="Moore Road"/>
    <tag k="source" v="nearmap"/>
    <tag k="source:name" v="survey"/>
  </way>
  <way id="44165449" version="2" timestamp="2010-07-09T22:20:02Z" uid="74617" user="JohnSmith" changeset="5176956">
    <nd ref="561045307"/>
    <nd ref="561045305"/>
    <tag k="highway" v="unclassified"/>
    <tag k="maxspeed" v="50"/>
    <tag k="maxspeed:source" v="default residential speed limit in Australia"/>
    <tag k="source" v="nearmap"/>
  </way>
  <way id="44165449" version="3" timestamp="2012-01-19T08:52:56Z" uid="147510" user="woodpeck_fixbot" changeset="10434386">
    <nd ref="561045307"/>
    <nd ref="561045305"/>
    <tag k="highway" v="unclassified"/>
    <tag k="source" v="nearmap"/>
  </way>
  <way id="44165450" version="2" timestamp="2010-07-09T22:19:53Z" uid="74617" user="JohnSmith" changeset="5176956">
    <nd ref="561045308"/>
    <nd ref="561045310"/>
    <nd ref="561045311"/>
    <tag k="highway" v="unclassified"/>
    <tag k="maxspeed" v="50"/>
    <tag k="maxspeed:source" v="default residential speed limit in Australia"/>
    <tag k="name" v="Kings Row"/>
    <tag k="source" v="nearmap"/>
    <tag k="source:name" v="survey"/>
  </way>
  <way id="44165450" version="3" timestamp="2011-10-08T16:11:20Z" uid="142807" user="SDavies" changeset="9504053">
    <nd ref="561045308"/>
    <nd ref="561045310"/>
    <nd ref="1459002018"/>
    <nd ref="561045311"/>
    <tag k="highway" v="unclassified"/>
    <tag k="maxspeed" v="50"/>
    <tag k="maxspeed:source" v="default residential speed limit in Australia"/>
    <tag k="name" v="Kings Row"/>
    <tag k="source" v="nearmap"/>
    <tag k="source:name" v="survey"/>
  </way>
  <way id="44165450" version="4" timestamp="2012-01-19T08:53:03Z" uid="147510" user="woodpeck_fixbot" changeset="10434386">
    <nd ref="561045308"/>
    <nd ref="561045310"/>
    <nd ref="1459002018"/>
    <nd ref="561045311"/>
    <tag k="highway" v="unclassified"/>
    <tag k="name" v="Kings Row"/>
    <tag k="source" v="nearmap"/>
    <tag k="source:name" v="survey"/>
  </way>
  <way id="44165451" version="3" timestamp="2010-07-09T22:20:58Z" uid="74617" user="JohnSmith" changeset="5176956">
    <nd ref="561045309"/>
    <nd ref="561045312"/>
    <nd ref="561045313"/>
    <tag k="highway" v="unclassified"/>
    <tag k="maxspeed" v="50"/>
    <tag k="maxspeed:source" v="default residential speed limit in Australia"/>
    <tag k="name" v="Hardwick Road"/>
    <tag k="source" v="nearmap"/>
    <tag k="source:name" v="survey"/>
  </way>
  <way id="44165451" version="4" timestamp="2011-10-06T14:22:32Z" uid="142807" user="SDavies" changeset="9485943">
    <nd ref="561045309"/>
    <nd ref="561045312"/>
    <nd ref="1456836852"/>
    <tag k="highway" v="unclassified"/>
    <tag k="maxspeed" v="50"/>
    <tag k="maxspeed:source" v="default residential speed limit in Australia"/>
    <tag k="name" v="Hardwick Road"/>
    <tag k="source" v="nearmap"/>
    <tag k="source:name" v="survey"/>
  </way>
  <way id="44165451" version="5" timestamp="2012-01-19T08:53:05Z" uid="147510" user="woodpeck_fixbot" changeset="10434386">
    <nd ref="561045309"/>
    <nd ref="561045312"/>
    <nd ref="1456836852"/>
    <tag k="highway" v="unclassified"/>
    <tag k="name" v="Hardwick Road"/>
    <tag k="source" v="nearmap"/>
    <tag k="source:name" v="survey"/>
  </way>
  <way id="44165452" version="2" timestamp="2010-07-09T22:20:50Z" uid="74617" user="JohnSmith" changeset="5176956">
    <nd ref="439041776"/>
    <nd ref="439041756"/>
    <tag k="highway" v="unclassified"/>
    <tag k="maxspeed" v="50"/>
    <tag k="maxspeed:source" v="default residential speed limit in Australia"/>
    <tag k="name" v="Logue Court"/>
    <tag k="source" v="nearmap"/>
    <tag k="source:name" v="survey"/>
  </way>
  <way id="44165452" version="3" timestamp="2012-01-19T08:53:06Z" uid="147510" user="woodpeck_fixbot" changeset="10434386">
    <nd ref="439041776"/>
    <nd ref="439041756"/>
    <tag k="highway" v="unclassified"/>
    <tag k="name" v="Logue Court"/>
    <tag k="source" v="nearmap"/>
    <tag k="source:name" v="survey"/>
  </way>
  <way id="44165460" version="1" timestamp="2009-11-12T05:57:22Z" uid="74617" user="JohnSmith" changeset="3095694">
    <nd ref="561045484"/>
    <nd ref="561045483"/>
    <tag k="highway" v="residential"/>
    <tag k="source" v="nearmap"/>
  </way>
  <way id="44165460" version="2" timestamp="2010-02-15T06:55:25Z" uid="74617" user="JohnSmith" changeset="3880463">
    <nd ref="561045484"/>
    <nd ref="561045483"/>
    <tag k="highway" v="residential"/>
    <tag k="maxspeed" v="50"/>
    <tag k="source" v="nearmap"/>
  </way>
  <way id="44165460" version="3" timestamp="2010-05-23T00:24:28Z" uid="244897" user="M526244" changeset="4779007">
    <nd ref="561045484"/>
    <nd ref="561045483"/>
    <tag k="highway" v="residential"/>
    <tag k="maxspeed" v="50"/>
    <tag k="name" v="Farzana Place"/>
    <tag k="source" v="nearmap"/>
  </way>
  <way id="44165460" version="4" timestamp="2011-06-13T09:18:19Z" uid="22094" user="Chadzopkyo" changeset="8423507"/>
  <way id="44165461" version="1" timestamp="2009-11-12T05:57:23Z" uid="74617" user="JohnSmith" changeset="3095694">
    <nd ref="561045493"/>
    <nd ref="561045491"/>
    <nd ref="288673646"/>
    <nd ref="561045503"/>
    <nd ref="561045507"/>
    <nd ref="288673589"/>
    <nd ref="561045508"/>
    <nd ref="288673576"/>
    <nd ref="288673647"/>
    <nd ref="561045521"/>
    <nd ref="561045511"/>
    <nd ref="561045510"/>
    <nd ref="561045512"/>
    <tag k="access" v="destination"/>
    <tag k="highway" v="residential"/>
    <tag k="maxspeed" v="40"/>
    <tag k="name" v="Brookvale Drive"/>
  </way>
  <way id="44165461" version="2" timestamp="2010-05-04T07:39:34Z" uid="22094" user="Chadzopkyo" changeset="4601875">
    <nd ref="561045493"/>
    <nd ref="561045491"/>
    <nd ref="288673646"/>
    <nd ref="561045503"/>
    <nd ref="561045507"/>
    <nd ref="288673589"/>
    <nd ref="561045508"/>
    <nd ref="288673576"/>
    <nd ref="288673647"/>
    <nd ref="561045521"/>
    <nd ref="561045511"/>
    <nd ref="561045510"/>
    <nd ref="561045512"/>
    <tag k="highway" v="residential"/>
    <tag k="maxspeed" v="40"/>
    <tag k="name" v="Brookvale Drive"/>
  </way>
  <way id="44165461" version="3" timestamp="2011-06-13T09:17:58Z" uid="22094" user="Chadzopkyo" changeset="8423507">
    <nd ref="561045493"/>
    <nd ref="288673646"/>
    <nd ref="561045507"/>
    <nd ref="288673589"/>
    <nd ref="561045508"/>
    <nd ref="288673647"/>
    <nd ref="561045521"/>
    <nd ref="561045512"/>
    <tag k="highway" v="residential"/>
    <tag k="maxspeed" v="40"/>
    <tag k="name" v="Brookvale Drive"/>
  </way>
  <way id="44165463" version="1" timestamp="2009-11-12T05:57:23Z" uid="74617" user="JohnSmith" changeset="3095694">
    <nd ref="561045495"/>
    <nd ref="561045496"/>
    <nd ref="561045494"/>
    <nd ref="561045497"/>
    <nd ref="561045498"/>
    <nd ref="561045492"/>
    <nd ref="561045499"/>
    <nd ref="561045500"/>
    <nd ref="561045493"/>
    <nd ref="561045501"/>
    <nd ref="561045502"/>
    <nd ref="561045495"/>
    <tag k="highway" v="residential"/>
    <tag k="junction" v="roundabout"/>
    <tag k="source" v="nearmap"/>
  </way>
  <way id="44165463" version="2" timestamp="2010-02-15T06:56:35Z" uid="74617" user="JohnSmith" changeset="3880463">
    <nd ref="561045495"/>
    <nd ref="561045496"/>
    <nd ref="561045494"/>
    <nd ref="561045497"/>
    <nd ref="561045498"/>
    <nd ref="561045492"/>
    <nd ref="561045499"/>
    <nd ref="561045500"/>
    <nd ref="561045493"/>
    <nd ref="561045501"/>
    <nd ref="561045502"/>
    <nd ref="561045495"/>
    <tag k="highway" v="residential"/>
    <tag k="junction" v="roundabout"/>
    <tag k="maxspeed" v="50"/>
    <tag k="source" v="nearmap"/>
  </way>
  <way id="44165463" version="3" timestamp="2010-05-23T00:24:35Z" uid="244897" user="M526244" changeset="4779007">
    <nd ref="561045495"/>
    <nd ref="561045496"/>
    <nd ref="561045494"/>
    <nd ref="561045497"/>
    <nd ref="561045498"/>
    <nd ref="561045492"/>
    <nd ref="561045499"/>
    <nd ref="561045500"/>
    <nd ref="561045493"/>
    <nd ref="561045501"/>
    <nd ref="561045502"/>
    <nd ref="561045495"/>
    <tag k="highway" v="residential"/>
    <tag k="junction" v="roundabout"/>
    <tag k="maxspeed" v="50"/>
    <tag k="name" v="Brookvale Drive"/>
    <tag k="oneway" v="yes"/>
    <tag k="source" v="nearmap"/>
  </way>
  <way id="44165463" version="4" timestamp="2010-06-23T04:56:49Z" uid="4467" user="Rosscoe" changeset="5056189">
    <nd ref="561045495"/>
    <nd ref="561045496"/>
    <nd ref="561045494"/>
    <nd ref="561045497"/>
    <nd ref="561045498"/>
    <nd ref="561045492"/>
    <nd ref="561045499"/>
    <nd ref="561045500"/>
    <nd ref="561045493"/>
    <nd ref="561045501"/>
    <nd ref="561045502"/>
    <nd ref="561045495"/>
    <tag k="highway" v="residential"/>
    <tag k="junction" v="roundabout"/>
    <tag k="maxspeed" v="50"/>
    <tag k="name" v="Brookvale Drive"/>
    <tag k="source" v="nearmap"/>
  </way>
  <way id="44165463" version="5" timestamp="2011-04-11T08:13:39Z" uid="4467" user="Rosscoe" changeset="7830456">
    <nd ref="561045495"/>
    <nd ref="561045496"/>
    <nd ref="561045494"/>
    <nd ref="561045497"/>
    <nd ref="561045498"/>
    <nd ref="561045492"/>
    <nd ref="561045499"/>
    <nd ref="561045500"/>
    <nd ref="561045493"/>
    <nd ref="561045501"/>
    <nd ref="561045502"/>
    <nd ref="561045495"/>
    <tag k="highway" v="residential"/>
    <tag k="junction" v="roundabout"/>
    <tag k="maxspeed" v="50"/>
    <tag k="source" v="nearmap"/>
  </way>
  <way id="44165463" version="6" timestamp="2011-06-13T09:18:00Z" uid="22094" user="Chadzopkyo" changeset="8423507">
    <nd ref="561045495"/>
    <nd ref="561045494"/>
    <nd ref="561045497"/>
    <nd ref="561045492"/>
    <nd ref="561045499"/>
    <nd ref="561045493"/>
    <nd ref="561045501"/>
    <nd ref="561045502"/>
    <nd ref="561045495"/>
    <tag k="highway" v="residential"/>
    <tag k="junction" v="roundabout"/>
    <tag k="maxspeed" v="50"/>
    <tag k="name" v="Brookvale Drive"/>
  </way>
  <way id="44165464" version="1" timestamp="2009-11-12T05:57:23Z" uid="74617" user="JohnSmith" changeset="3095694">
    <nd ref="561045524"/>
    <nd ref="561045522"/>
    <nd ref="561045523"/>
    <nd ref="288673682"/>
    <nd ref="561045526"/>
    <nd ref="288673580"/>
    <nd ref="561045527"/>
    <nd ref="561045528"/>
    <nd ref="288673592"/>
    <nd ref="561045531"/>
    <tag k="access" v="destination"/>
    <tag k="highway" v="residential"/>
    <tag k="maxspeed" v="40"/>
    <tag k="name" v="Brookvale Drive"/>
  </way>
  <way id="44165464" version="2" timestamp="2010-05-04T07:39:36Z" uid="22094" user="Chadzopkyo" changeset="4601875">
    <nd ref="561045524"/>
    <nd ref="561045522"/>
    <nd ref="561045523"/>
    <nd ref="288673682"/>
    <nd ref="561045526"/>
    <nd ref="288673580"/>
    <nd ref="561045527"/>
    <nd ref="561045528"/>
    <nd ref="288673592"/>
    <nd ref="561045531"/>
    <tag k="highway" v="residential"/>
    <tag k="maxspeed" v="40"/>
    <tag k="name" v="Brookvale Drive"/>
  </way>
  <way id="44165464" version="3" timestamp="2011-06-13T09:17:59Z" uid="22094" user="Chadzopkyo" changeset="8423507">
    <nd ref="561045524"/>
    <nd ref="561045523"/>
    <nd ref="288673682"/>
    <nd ref="561045526"/>
    <nd ref="288673580"/>
    <nd ref="561045527"/>
    <nd ref="561045528"/>
    <nd ref="288673592"/>
    <tag k="highway" v="residential"/>
    <tag k="maxspeed" v="40"/>
    <tag k="name" v="Brookvale Drive"/>
  </way>
  <way id="44165465" version="1" timestamp="2009-11-12T05:57:23Z" uid="74617" user="JohnSmith" changeset="3095694">
    <nd ref="561045533"/>
    <nd ref="561045530"/>
    <nd ref="288673583"/>
    <nd ref="561045547"/>
    <nd ref="561045548"/>
    <tag k="access" v="destination"/>
    <tag k="highway" v="residential"/>
    <tag k="maxspeed" v="40"/>
    <tag k="name" v="Brookvale Drive"/>
  </way>
  <way id="44165465" version="2" timestamp="2010-05-04T07:39:33Z" uid="22094" user="Chadzopkyo" changeset="4601875">
    <nd ref="561045533"/>
    <nd ref="561045530"/>
    <nd ref="288673583"/>
    <nd ref="561045547"/>
    <nd ref="561045548"/>
    <tag k="highway" v="residential"/>
    <tag k="maxspeed" v="40"/>
    <tag k="name" v="Brookvale Drive"/>
  </way>
  <way id="44165465" version="3" timestamp="2011-06-13T09:17:57Z" uid="22094" user="Chadzopkyo" changeset="8423507">
    <nd ref="745994141"/>
    <nd ref="561045530"/>
    <tag k="highway" v="residential"/>
    <tag k="maxspeed" v="40"/>
    <tag k="name" v="Brookvale Drive"/>
    <tag k="oneway" v="yes"/>
  </way>
  <way id="44165466" version="1" timestamp="2009-11-12T05:57:23Z" uid="74617" user="JohnSmith" changeset="3095694">
    <nd ref="561045514"/>
    <nd ref="561045515"/>
    <nd ref="561045512"/>
    <nd ref="561045516"/>
    <nd ref="561045517"/>
    <nd ref="561045513"/>
    <nd ref="561045518"/>
    <nd ref="561045525"/>
    <nd ref="561045524"/>
    <nd ref="561045519"/>
    <nd ref="561045520"/>
    <nd ref="561045514"/>
    <tag k="highway" v="residential"/>
    <tag k="junction" v="roundabout"/>
    <tag k="source" v="nearmap"/>
  </way>
  <way id="44165466" version="2" timestamp="2010-02-15T06:56:37Z" uid="74617" user="JohnSmith" changeset="3880463">
    <nd ref="561045514"/>
    <nd ref="561045515"/>
    <nd ref="561045512"/>
    <nd ref="561045516"/>
    <nd ref="561045517"/>
    <nd ref="561045513"/>
    <nd ref="561045518"/>
    <nd ref="561045525"/>
    <nd ref="561045524"/>
    <nd ref="561045519"/>
    <nd ref="561045520"/>
    <nd ref="561045514"/>
    <tag k="highway" v="residential"/>
    <tag k="junction" v="roundabout"/>
    <tag k="maxspeed" v="50"/>
    <tag k="source" v="nearmap"/>
  </way>
  <way id="44165466" version="3" timestamp="2010-05-23T00:24:36Z" uid="244897" user="M526244" changeset="4779007">
    <nd ref="561045514"/>
    <nd ref="561045515"/>
    <nd ref="561045512"/>
    <nd ref="561045516"/>
    <nd ref="561045517"/>
    <nd ref="561045513"/>
    <nd ref="561045518"/>
    <nd ref="561045525"/>
    <nd ref="561045524"/>
    <nd ref="561045519"/>
    <nd ref="561045520"/>
    <nd ref="561045514"/>
    <tag k="highway" v="residential"/>
    <tag k="junction" v="roundabout"/>
    <tag k="maxspeed" v="40"/>
    <tag k="name" v="Brookvale Drive"/>
    <tag k="oneway" v="yes"/>
    <tag k="source" v="nearmap"/>
  </way>
  <way id="44165466" version="4" timestamp="2010-05-23T00:29:57Z" uid="244897" user="M526244" changeset="4779007">
    <nd ref="561045514"/>
    <nd ref="745994112"/>
    <nd ref="561045515"/>
    <nd ref="561045512"/>
    <nd ref="745994113"/>
    <nd ref="561045516"/>
    <nd ref="745994114"/>
    <nd ref="561045517"/>
    <nd ref="561045513"/>
    <nd ref="745994115"/>
    <nd ref="561045518"/>
    <nd ref="745994116"/>
    <nd ref="561045525"/>
    <nd ref="561045524"/>
    <nd ref="561045519"/>
    <nd ref="745994117"/>
    <nd ref="561045520"/>
    <nd ref="745994125"/>
    <nd ref="561045514"/>
    <tag k="highway" v="residential"/>
    <tag k="junction" v="roundabout"/>
    <tag k="maxspeed" v="40"/>
    <tag k="name" v="Brookvale Drive"/>
    <tag k="oneway" v="yes"/>
    <tag k="source" v="nearmap"/>
  </way>
  <way id="44165466" version="5" timestamp="2010-06-23T04:56:55Z" uid="4467" user="Rosscoe" changeset="5056189">
    <nd ref="561045514"/>
    <nd ref="745994112"/>
    <nd ref="561045515"/>
    <nd ref="561045512"/>
    <nd ref="745994113"/>
    <nd ref="561045516"/>
    <nd ref="745994114"/>
    <nd ref="561045517"/>
    <nd ref="561045513"/>
    <nd ref="745994115"/>
    <nd ref="561045518"/>
    <nd ref="745994116"/>
    <nd ref="561045525"/>
    <nd ref="561045524"/>
    <nd ref="561045519"/>
    <nd ref="745994117"/>
    <nd ref="561045520"/>
    <nd ref="745994125"/>
    <nd ref="561045514"/>
    <tag k="highway" v="residential"/>
    <tag k="junction" v="roundabout"/>
    <tag k="maxspeed" v="40"/>
    <tag k="name" v="Brookvale Drive"/>
    <tag k="source" v="nearmap"/>
  </way>
  <way id="44165466" version="6" timestamp="2011-04-11T08:13:39Z" uid="4467" user="Rosscoe" changeset="7830456">
    <nd ref="561045514"/>
    <nd ref="745994112"/>
    <nd ref="561045515"/>
    <nd ref="561045512"/>
    <nd ref="745994113"/>
    <nd ref="561045516"/>
    <nd ref="745994114"/>
    <nd ref="561045517"/>
    <nd ref="561045513"/>
    <nd ref="745994115"/>
    <nd ref="561045518"/>
    <nd ref="745994116"/>
    <nd ref="561045525"/>
    <nd ref="561045524"/>
    <nd ref="561045519"/>
    <nd ref="745994117"/>
    <nd ref="561045520"/>
    <nd ref="745994125"/>
    <nd ref="561045514"/>
    <tag k="highway" v="residential"/>
    <tag k="junction" v="roundabout"/>
    <tag k="maxspeed" v="40"/>
    <tag k="source" v="nearmap"/>
  </way>
  <way id="44165466" version="7" timestamp="2011-06-13T09:18:00Z" uid="22094" user="Chadzopkyo" changeset="8423507">
    <nd ref="745994112"/>
    <nd ref="561045512"/>
    <nd ref="745994114"/>
    <nd ref="561045513"/>
    <nd ref="745994116"/>
    <nd ref="561045524"/>
    <nd ref="745994117"/>
    <nd ref="745994125"/>
    <nd ref="745994112"/>
    <tag k="highway" v="residential"/>
    <tag k="junction" v="roundabout"/>
    <tag k="maxspeed" v="40"/>
    <tag k="name" v="Brookvale Drive"/>
  </way>
  <way id="44165467" version="1" timestamp="2009-11-12T05:57:23Z" uid="74617" user="JohnSmith" changeset="3095694">
    <nd ref="561045535"/>
    <nd ref="561045529"/>
    <nd ref="561045536"/>
    <nd ref="561045531"/>
    <nd ref="561045537"/>
    <nd ref="561045538"/>
    <nd ref="561045532"/>
    <nd ref="561045540"/>
    <nd ref="561045541"/>
    <nd ref="561045533"/>
    <nd ref="561045542"/>
    <nd ref="561045535"/>
    <tag k="highway" v="residential"/>
    <tag k="junction" v="roundabout"/>
    <tag k="source" v="nearmap"/>
  </way>
  <way id="44165467" version="2" timestamp="2010-02-15T06:56:37Z" uid="74617" user="JohnSmith" changeset="3880463">
    <nd ref="561045535"/>
    <nd ref="561045529"/>
    <nd ref="561045536"/>
    <nd ref="561045531"/>
    <nd ref="561045537"/>
    <nd ref="561045538"/>
    <nd ref="561045532"/>
    <nd ref="561045540"/>
    <nd ref="561045541"/>
    <nd ref="561045533"/>
    <nd ref="561045542"/>
    <nd ref="561045535"/>
    <tag k="highway" v="residential"/>
    <tag k="junction" v="roundabout"/>
    <tag k="maxspeed" v="50"/>
    <tag k="source" v="nearmap"/>
  </way>
  <way id="44165467" version="3" timestamp="2010-05-23T00:24:32Z" uid="244897" user="M526244" changeset="4779007">
    <nd ref="561045535"/>
    <nd ref="561045529"/>
    <nd ref="561045536"/>
    <nd ref="561045531"/>
    <nd ref="561045537"/>
    <nd ref="561045538"/>
    <nd ref="561045532"/>
    <nd ref="561045540"/>
    <nd ref="561045541"/>
    <nd ref="561045533"/>
    <nd ref="561045542"/>
    <nd ref="561045535"/>
    <tag k="highway" v="residential"/>
    <tag k="junction" v="roundabout"/>
    <tag k="maxspeed" v="40"/>
    <tag k="oneway" v="yes"/>
    <tag k="source" v="nearmap"/>
  </way>
  <way id="44165467" version="4" timestamp="2010-05-23T00:30:03Z" uid="244897" user="M526244" changeset="4779007">
    <nd ref="561045535"/>
    <nd ref="745994138"/>
    <nd ref="561045529"/>
    <nd ref="745994139"/>
    <nd ref="561045536"/>
    <nd ref="561045531"/>
    <nd ref="561045537"/>
    <nd ref="745994140"/>
    <nd ref="561045538"/>
    <nd ref="561045532"/>
    <nd ref="561045540"/>
    <nd ref="745994141"/>
    <nd ref="561045541"/>
    <nd ref="561045533"/>
    <nd ref="561045542"/>
    <nd ref="745994142"/>
    <nd ref="561045535"/>
    <tag k="highway" v="residential"/>
    <tag k="junction" v="roundabout"/>
    <tag k="maxspeed" v="40"/>
    <tag k="oneway" v="yes"/>
    <tag k="source" v="nearmap"/>
  </way>
  <way id="44165467" version="5" timestamp="2010-06-23T04:57:02Z" uid="4467" user="Rosscoe" changeset="5056189">
    <nd ref="561045535"/>
    <nd ref="745994138"/>
    <nd ref="561045529"/>
    <nd ref="745994139"/>
    <nd ref="561045536"/>
    <nd ref="561045531"/>
    <nd ref="561045537"/>
    <nd ref="745994140"/>
    <nd ref="561045538"/>
    <nd ref="561045532"/>
    <nd ref="561045540"/>
    <nd ref="745994141"/>
    <nd ref="561045541"/>
    <nd ref="561045533"/>
    <nd ref="561045542"/>
    <nd ref="745994142"/>
    <nd ref="561045535"/>
    <tag k="highway" v="residential"/>
    <tag k="junction" v="roundabout"/>
    <tag k="maxspeed" v="40"/>
    <tag k="source" v="nearmap"/>
  </way>
  <way id="44165467" version="6" timestamp="2011-06-13T09:18:00Z" uid="22094" user="Chadzopkyo" changeset="8423507">
    <nd ref="561045529"/>
    <nd ref="561045536"/>
    <nd ref="561045537"/>
    <nd ref="561045538"/>
    <nd ref="561045532"/>
    <nd ref="745994141"/>
    <nd ref="561045541"/>
    <nd ref="561045533"/>
    <nd ref="745994142"/>
    <nd ref="561045529"/>
    <tag k="highway" v="residential"/>
    <tag k="junction" v="roundabout"/>
    <tag k="maxspeed" v="40"/>
    <tag k="name" v="Brookvale Drive"/>
  </way>
  <way id="44165468" version="1" timestamp="2009-11-12T05:57:23Z" uid="74617" user="JohnSmith" changeset="3095694">
    <nd ref="561045567"/>
    <nd ref="561045560"/>
    <nd ref="561045571"/>
    <nd ref="561045574"/>
    <nd ref="393081971"/>
    <nd ref="288673585"/>
    <tag k="access" v="destination"/>
    <tag k="highway" v="residential"/>
    <tag k="maxspeed" v="40"/>
    <tag k="name" v="Brookvale Drive"/>
    <tag k="oneway" v="yes"/>
  </way>
  <way id="44165468" version="2" timestamp="2010-05-04T07:39:36Z" uid="22094" user="Chadzopkyo" changeset="4601875">
    <nd ref="561045567"/>
    <nd ref="561045560"/>
    <nd ref="561045571"/>
    <nd ref="561045574"/>
    <nd ref="393081971"/>
    <nd ref="288673585"/>
    <tag k="highway" v="residential"/>
    <tag k="maxspeed" v="40"/>
    <tag k="name" v="Brookvale Drive"/>
    <tag k="oneway" v="yes"/>
  </way>
  <way id="44165468" version="3" timestamp="2011-06-13T09:17:58Z" uid="22094" user="Chadzopkyo" changeset="8423507">
    <nd ref="561045567"/>
    <nd ref="561045560"/>
    <nd ref="393081971"/>
    <nd ref="288673585"/>
    <nd ref="288673252"/>
    <tag k="highway" v="residential"/>
    <tag k="maxspeed" v="40"/>
    <tag k="name" v="Brookvale Drive"/>
    <tag k="oneway" v="yes"/>
  </way>
  <way id="44165469" version="1" timestamp="2009-11-12T05:57:23Z" uid="74617" user="JohnSmith" changeset="3095694">
    <nd ref="561045555"/>
    <nd ref="561045556"/>
    <nd ref="561045549"/>
    <nd ref="561045548"/>
    <nd ref="561045551"/>
    <nd ref="561045552"/>
    <nd ref="561045562"/>
    <nd ref="561045564"/>
    <nd ref="561045567"/>
    <nd ref="561045561"/>
    <nd ref="561045565"/>
    <nd ref="561045559"/>
    <nd ref="561045555"/>
    <tag k="highway" v="residential"/>
    <tag k="junction" v="roundabout"/>
    <tag k="source" v="nearmap"/>
  </way>
  <way id="44165469" version="2" timestamp="2010-02-15T06:56:38Z" uid="74617" user="JohnSmith" changeset="3880463">
    <nd ref="561045555"/>
    <nd ref="561045556"/>
    <nd ref="561045549"/>
    <nd ref="561045548"/>
    <nd ref="561045551"/>
    <nd ref="561045552"/>
    <nd ref="561045562"/>
    <nd ref="561045564"/>
    <nd ref="561045567"/>
    <nd ref="561045561"/>
    <nd ref="561045565"/>
    <nd ref="561045559"/>
    <nd ref="561045555"/>
    <tag k="highway" v="residential"/>
    <tag k="junction" v="roundabout"/>
    <tag k="maxspeed" v="50"/>
    <tag k="source" v="nearmap"/>
  </way>
  <way id="44165469" version="3" timestamp="2010-05-23T00:24:32Z" uid="244897" user="M526244" changeset="4779007">
    <nd ref="561045555"/>
    <nd ref="561045556"/>
    <nd ref="561045549"/>
    <nd ref="561045548"/>
    <nd ref="561045551"/>
    <nd ref="561045552"/>
    <nd ref="561045562"/>
    <nd ref="561045564"/>
    <nd ref="561045567"/>
    <nd ref="561045561"/>
    <nd ref="561045565"/>
    <nd ref="561045559"/>
    <nd ref="561045555"/>
    <tag k="highway" v="residential"/>
    <tag k="junction" v="roundabout"/>
    <tag k="maxspeed" v="40"/>
    <tag k="oneway" v="yes"/>
    <tag k="source" v="nearmap"/>
  </way>
  <way id="44165469" version="4" timestamp="2010-05-23T00:29:54Z" uid="244897" user="M526244" changeset="4779007">
    <nd ref="561045555"/>
    <nd ref="745994089"/>
    <nd ref="561045556"/>
    <nd ref="745994092"/>
    <nd ref="561045549"/>
    <nd ref="745994095"/>
    <nd ref="561045548"/>
    <nd ref="561045551"/>
    <nd ref="745994100"/>
    <nd ref="561045552"/>
    <nd ref="745994102"/>
    <nd ref="561045562"/>
    <nd ref="745994105"/>
    <nd ref="561045564"/>
    <nd ref="561045567"/>
    <nd ref="561045561"/>
    <nd ref="561045565"/>
    <nd ref="745994109"/>
    <nd ref="561045559"/>
    <nd ref="561045555"/>
    <tag k="highway" v="residential"/>
    <tag k="junction" v="roundabout"/>
    <tag k="maxspeed" v="40"/>
    <tag k="oneway" v="yes"/>
    <tag k="source" v="nearmap"/>
  </way>
  <way id="44165469" version="5" timestamp="2010-06-23T04:57:08Z" uid="4467" user="Rosscoe" changeset="5056189">
    <nd ref="561045555"/>
    <nd ref="745994089"/>
    <nd ref="561045556"/>
    <nd ref="745994092"/>
    <nd ref="561045549"/>
    <nd ref="745994095"/>
    <nd ref="561045548"/>
    <nd ref="561045551"/>
    <nd ref="745994100"/>
    <nd ref="561045552"/>
    <nd ref="745994102"/>
    <nd ref="561045562"/>
    <nd ref="745994105"/>
    <nd ref="561045564"/>
    <nd ref="561045567"/>
    <nd ref="561045561"/>
    <nd ref="561045565"/>
    <nd ref="745994109"/>
    <nd ref="561045559"/>
    <nd ref="561045555"/>
    <tag k="highway" v="residential"/>
    <tag k="junction" v="roundabout"/>
    <tag k="maxspeed" v="40"/>
    <tag k="source" v="nearmap"/>
  </way>
  <way id="44165469" version="6" timestamp="2011-06-13T09:17:57Z" uid="22094" user="Chadzopkyo" changeset="8423507">
    <nd ref="745994089"/>
    <nd ref="561045556"/>
    <nd ref="561045549"/>
    <nd ref="561045548"/>
    <nd ref="745994100"/>
    <nd ref="745994102"/>
    <nd ref="745994105"/>
    <nd ref="561045567"/>
    <nd ref="561045565"/>
    <nd ref="561045559"/>
    <nd ref="745994089"/>
    <tag k="highway" v="residential"/>
    <tag k="junction" v="roundabout"/>
    <tag k="maxspeed" v="40"/>
    <tag k="name" v="Brookvale Drive"/>
  </way>
  <way id="44165469" version="7" timestamp="2011-06-13T10:27:46Z" uid="22094" user="Chadzopkyo" changeset="8424244">
    <nd ref="745994089"/>
    <nd ref="1323419488"/>
    <nd ref="561045556"/>
    <nd ref="561045549"/>
    <nd ref="561045548"/>
    <nd ref="745994100"/>
    <nd ref="745994102"/>
    <nd ref="745994105"/>
    <nd ref="561045567"/>
    <nd ref="561045565"/>
    <nd ref="561045559"/>
    <nd ref="745994089"/>
    <tag k="highway" v="residential"/>
    <tag k="junction" v="roundabout"/>
    <tag k="maxspeed" v="40"/>
    <tag k="name" v="Brookvale Drive"/>
  </way>
  <way id="44165470" version="1" timestamp="2009-11-12T05:57:24Z" uid="74617" user="JohnSmith" changeset="3095694">
    <nd ref="288673252"/>
    <nd ref="561045590"/>
    <nd ref="561045573"/>
    <nd ref="561045568"/>
    <nd ref="561045570"/>
    <nd ref="561045557"/>
    <nd ref="561045559"/>
    <tag k="access" v="destination"/>
    <tag k="highway" v="residential"/>
    <tag k="maxspeed" v="40"/>
    <tag k="name" v="Brookvale Drive"/>
    <tag k="oneway" v="yes"/>
  </way>
  <way id="44165470" version="2" timestamp="2010-05-04T07:39:35Z" uid="22094" user="Chadzopkyo" changeset="4601875">
    <nd ref="288673252"/>
    <nd ref="561045590"/>
    <nd ref="561045573"/>
    <nd ref="561045568"/>
    <nd ref="561045570"/>
    <nd ref="561045557"/>
    <nd ref="561045559"/>
    <tag k="highway" v="residential"/>
    <tag k="maxspeed" v="40"/>
    <tag k="name" v="Brookvale Drive"/>
    <tag k="oneway" v="yes"/>
  </way>
  <way id="44165470" version="3" timestamp="2011-06-13T09:17:58Z" uid="22094" user="Chadzopkyo" changeset="8423507">
    <nd ref="288673252"/>
    <nd ref="561045590"/>
    <nd ref="561045573"/>
    <nd ref="561045570"/>
    <nd ref="561045559"/>
    <tag k="highway" v="residential"/>
    <tag k="maxspeed" v="40"/>
    <tag k="name" v="Brookvale Drive"/>
    <tag k="oneway" v="yes"/>
  </way>
  <way id="44165471" version="1" timestamp="2009-11-12T05:57:24Z" uid="74617" user="JohnSmith" changeset="3095694">
    <nd ref="88920393"/>
    <nd ref="561045580"/>
    <nd ref="561045581"/>
    <nd ref="561045583"/>
    <nd ref="561045584"/>
    <nd ref="561045586"/>
    <nd ref="561045587"/>
    <nd ref="561045589"/>
    <nd ref="561045573"/>
    <tag k="access" v="destination"/>
    <tag k="highway" v="residential"/>
    <tag k="maxspeed" v="40"/>
    <tag k="name" v="Brookvale Drive"/>
    <tag k="oneway" v="yes"/>
  </way>
  <way id="44165471" version="2" timestamp="2010-05-04T07:39:35Z" uid="22094" user="Chadzopkyo" changeset="4601875">
    <nd ref="88920393"/>
    <nd ref="561045580"/>
    <nd ref="561045581"/>
    <nd ref="561045583"/>
    <nd ref="561045584"/>
    <nd ref="561045586"/>
    <nd ref="561045587"/>
    <nd ref="561045589"/>
    <nd ref="561045573"/>
    <tag k="highway" v="residential"/>
    <tag k="maxspeed" v="40"/>
    <tag k="name" v="Brookvale Drive"/>
    <tag k="oneway" v="yes"/>
  </way>
  <way id="44165471" version="3" timestamp="2011-04-07T10:41:35Z" uid="4467" user="Rosscoe" changeset="7793262">
    <nd ref="88920393"/>
    <nd ref="561045580"/>
    <nd ref="561045581"/>
    <nd ref="561045583"/>
    <nd ref="561045584"/>
    <nd ref="561045573"/>
    <tag k="highway" v="primary_link"/>
    <tag k="maxspeed" v="40"/>
    <tag k="oneway" v="yes"/>
  </way>
  <way id="44165471" version="4" timestamp="2011-06-13T09:18:07Z" uid="22094" user="Chadzopkyo" changeset="8423507">
    <nd ref="88920393"/>
    <nd ref="561045580"/>
    <nd ref="561045581"/>
    <nd ref="561045583"/>
    <nd ref="561045584"/>
    <nd ref="561045573"/>
    <tag k="highway" v="residential"/>
    <tag k="maxspeed" v="40"/>
    <tag k="oneway" v="yes"/>
  </way>
  <way id="44165471" version="5" timestamp="2011-06-13T10:27:47Z" uid="22094" user="Chadzopkyo" changeset="8424244">
    <nd ref="88920393"/>
    <nd ref="561045580"/>
    <nd ref="561045583"/>
    <nd ref="561045584"/>
    <nd ref="561045573"/>
    <tag k="highway" v="residential"/>
    <tag k="maxspeed" v="40"/>
    <tag k="name" v="Brookvale Drive"/>
    <tag k="oneway" v="yes"/>
  </way>
  <way id="44165473" version="3" timestamp="2010-04-07T14:02:04Z" uid="20587" user="balrog-kun" changeset="4353646">
    <nd ref="151579727"/>
    <nd ref="561045620"/>
    <nd ref="561045613"/>
    <nd ref="561045614"/>
    <nd ref="561045615"/>
    <nd ref="151666490"/>
    <tag k="highway" v="primary"/>
    <tag k="name" v="Junction Highway"/>
    <tag k="name_1" v="State Highway 27"/>
    <tag k="ref" v="TX 27"/>
    <tag k="tiger:cfcc" v="A31"/>
    <tag k="tiger:county" v="Kerr, TX"/>
    <tag k="tiger:name_base" v="Junction"/>
    <tag k="tiger:name_base_1" v="State Highway 27"/>
    <tag k="tiger:name_type" v="Hwy"/>
    <tag k="tiger:reviewed" v="no"/>
    <tag k="tiger:separated" v="no"/>
    <tag k="tiger:source" v="tiger_import_dch_v0.6_20070830"/>
    <tag k="tiger:tlid" v="176903285:176901756:176901757:176897077:176886946:176909206:176909207:176886950:176886981:176886986:176898410:176912928:176912929:176903405:176886990:176888736:176888741:176897087:176912120:176912121:176887210:176888872:176897043:176887228:176887195:17690"/>
    <tag k="tiger:zip_left" v="78028"/>
    <tag k="tiger:zip_right" v="78028"/>
  </way>
  <way id="44165473" version="4" timestamp="2011-01-04T00:14:27Z" uid="239998" user="Sundance" changeset="6856467">
    <nd ref="151579727"/>
    <nd ref="561045620"/>
    <nd ref="561045613"/>
    <nd ref="561045615"/>
    <nd ref="151666490"/>
    <tag k="addr:postcode" v="78028"/>
    <tag k="highway" v="primary"/>
    <tag k="is_in" v="Kerr, TX"/>
    <tag k="name" v="Junction Highway"/>
    <tag k="ref" v="TX 27"/>
    <tag k="reg_name" v="State Highway 27"/>
    <tag k="tiger:source" v="tiger_import_dch_v0.6_20070830"/>
    <tag k="tiger:tlid" v="176903285:176901756:176901757:176897077:176886946:176909206:176909207:176886950:176886981:176886986:176898410:176912928:176912929:176903405:176886990:176888736:176888741:176897087:176912120:176912121:176887210:176888872:176897043:176887228:176887195:17690"/>
  </way>
  <way id="44165473" version="5" timestamp="2012-01-09T16:09:34Z" uid="207745" user="NE2" changeset="10343099">
    <nd ref="151579727"/>
    <nd ref="561045620"/>
    <nd ref="561045613"/>
    <nd ref="561045615"/>
    <nd ref="151666490"/>
    <tag k="addr:postcode" v="78028"/>
    <tag k="highway" v="primary"/>
    <tag k="is_in" v="Kerr, TX"/>
    <tag k="name" v="Junction Highway"/>
    <tag k="ref" v="TX 27"/>
    <tag k="tiger:source" v="tiger_import_dch_v0.6_20070830"/>
    <tag k="tiger:tlid" v="176903285:176901756:176901757:176897077:176886946:176909206:176909207:176886950:176886981:176886986:176898410:176912928:176912929:176903405:176886990:176888736:176888741:176897087:176912120:176912121:176887210:176888872:176897043:176887228:176887195:17690"/>
  </way>
  <way id="44165478" version="2" timestamp="2010-04-04T01:38:13Z" uid="20587" user="balrog-kun" changeset="4318136">
    <nd ref="177276473"/>
    <nd ref="561045641"/>
    <tag k="bridge" v="yes"/>
    <tag k="highway" v="residential"/>
    <tag k="layer" v="1"/>
    <tag k="name" v="Soda Lakes Road"/>
    <tag k="tiger:cfcc" v="A41"/>
    <tag k="tiger:county" v="Jefferson, CO"/>
    <tag k="tiger:name_base" v="Soda Lakes"/>
    <tag k="tiger:name_type" v="Rd"/>
    <tag k="tiger:reviewed" v="aerial"/>
    <tag k="tiger:separated" v="no"/>
    <tag k="tiger:source" v="tiger_import_dch_v0.6_20070809"/>
    <tag k="tiger:tlid" v="177753400:177761955:177753397:177757852:177757853"/>
    <tag k="tiger:zip_left" v="80465"/>
    <tag k="tiger:zip_right" v="80465"/>
  </way>
  <way id="44165480" version="2" timestamp="2010-04-04T01:38:13Z" uid="20587" user="balrog-kun" changeset="4318136">
    <nd ref="561045641"/>
    <nd ref="177276475"/>
    <nd ref="177276477"/>
    <nd ref="561045647"/>
    <nd ref="561045648"/>
    <nd ref="177276478"/>
    <nd ref="177276480"/>
    <nd ref="561045649"/>
    <nd ref="177276482"/>
    <nd ref="177276484"/>
    <nd ref="177276487"/>
    <nd ref="177276488"/>
    <nd ref="177276490"/>
    <nd ref="177276493"/>
    <nd ref="177276495"/>
    <nd ref="177276497"/>
    <nd ref="177276499"/>
    <nd ref="177276502"/>
    <nd ref="177276504"/>
    <nd ref="177276506"/>
    <tag k="highway" v="residential"/>
    <tag k="name" v="Soda Lakes Road"/>
    <tag k="tiger:cfcc" v="A41"/>
    <tag k="tiger:county" v="Jefferson, CO"/>
    <tag k="tiger:name_base" v="Soda Lakes"/>
    <tag k="tiger:name_type" v="Rd"/>
    <tag k="tiger:reviewed" v="aerial"/>
    <tag k="tiger:separated" v="no"/>
    <tag k="tiger:source" v="tiger_import_dch_v0.6_20070809"/>
    <tag k="tiger:tlid" v="177753400:177761955:177753397:177757852:177757853"/>
    <tag k="tiger:zip_left" v="80465"/>
    <tag k="tiger:zip_right" v="80465"/>
  </way>
  <way id="44165519" version="2" timestamp="2010-03-28T11:18:23Z" uid="20587" user="balrog-kun" changeset="4254597">
    <nd ref="561046164"/>
    <nd ref="54497950"/>
    <tag k="bridge" v="yes"/>
    <tag k="highway" v="secondary"/>
    <tag k="layer" v="1"/>
    <tag k="maxspeed" v="72"/>
    <tag k="name" v="6th Street"/>
    <tag k="source" v="survey;image;usgs_imagery;local_government"/>
    <tag k="source_ref" v="AM909_DSCN6542"/>
    <tag k="tiger:cfcc" v="A41"/>
    <tag k="tiger:county" v="San Bernardino, CA"/>
    <tag k="tiger:name_base" v="6th"/>
    <tag k="tiger:name_direction_prefix" v="E"/>
    <tag k="tiger:name_type" v="St"/>
    <tag k="tiger:separated" v="no"/>
    <tag k="tiger:source" v="tiger_import_dch_v0.6_20070809"/>
    <tag k="tiger:tlid" v="145225860:144969382:144969383:144637211:144996060"/>
    <tag k="tiger:zip_left" v="91764"/>
    <tag k="tiger:zip_left_1" v="91764"/>
    <tag k="tiger:zip_right" v="91730"/>
  </way>
  <way id="44165519" version="3" timestamp="2010-07-15T01:03:39Z" uid="82317" user="AM909" changeset="5223033">
    <nd ref="561046164"/>
    <nd ref="54497950"/>
    <tag k="bridge" v="yes"/>
    <tag k="highway" v="secondary"/>
    <tag k="layer" v="1"/>
    <tag k="maxspeed" v="45 mph"/>
    <tag k="name" v="6th Street"/>
    <tag k="source" v="survey;image;usgs_imagery;local_government"/>
    <tag k="source_ref" v="AM909_DSCN6542"/>
    <tag k="tiger:cfcc" v="A41"/>
    <tag k="tiger:county" v="San Bernardino, CA"/>
    <tag k="tiger:name_base" v="6th"/>
    <tag k="tiger:name_direction_prefix" v="E"/>
    <tag k="tiger:name_type" v="St"/>
    <tag k="tiger:separated" v="no"/>
    <tag k="tiger:source" v="tiger_import_dch_v0.6_20070809"/>
    <tag k="tiger:tlid" v="145225860:144969382:144969383:144637211:144996060"/>
    <tag k="tiger:zip_left" v="91764"/>
    <tag k="tiger:zip_left_1" v="91764"/>
    <tag k="tiger:zip_right" v="91730"/>
  </way>
  <way id="44165520" version="2" timestamp="2010-03-28T11:18:23Z" uid="20587" user="balrog-kun" changeset="4254597">
    <nd ref="54497950"/>
    <nd ref="54497952"/>
    <nd ref="54497953"/>
    <nd ref="59712209"/>
    <nd ref="54497956"/>
    <nd ref="54497957"/>
    <nd ref="442096693"/>
    <nd ref="54497959"/>
    <nd ref="54497960"/>
    <nd ref="54497963"/>
    <nd ref="54497964"/>
    <nd ref="54497965"/>
    <nd ref="54497966"/>
    <nd ref="54497968"/>
    <nd ref="54497970"/>
    <nd ref="54497980"/>
    <nd ref="437644309"/>
    <nd ref="54497981"/>
    <nd ref="54483745"/>
    <nd ref="54497989"/>
    <nd ref="54497991"/>
    <nd ref="54497999"/>
    <nd ref="54498003"/>
    <nd ref="54498008"/>
    <nd ref="54498010"/>
    <tag k="highway" v="secondary"/>
    <tag k="maxspeed" v="72"/>
    <tag k="name" v="6th Street"/>
    <tag k="source" v="survey;image;usgs_imagery;local_government"/>
    <tag k="source_ref" v="AM909_DSCN6542"/>
    <tag k="tiger:cfcc" v="A41"/>
    <tag k="tiger:county" v="San Bernardino, CA"/>
    <tag k="tiger:name_base" v="6th"/>
    <tag k="tiger:name_direction_prefix" v="E"/>
    <tag k="tiger:name_type" v="St"/>
    <tag k="tiger:separated" v="no"/>
    <tag k="tiger:source" v="tiger_import_dch_v0.6_20070809"/>
    <tag k="tiger:tlid" v="145225860:144969382:144969383:144637211:144996060"/>
    <tag k="tiger:zip_left" v="91764"/>
    <tag k="tiger:zip_left_1" v="91764"/>
    <tag k="tiger:zip_right" v="91730"/>
  </way>
  <way id="44165520" version="3" timestamp="2010-07-15T01:04:23Z" uid="82317" user="AM909" changeset="5223033">
    <nd ref="54497950"/>
    <nd ref="54497952"/>
    <nd ref="54497953"/>
    <nd ref="59712209"/>
    <nd ref="54497956"/>
    <nd ref="54497957"/>
    <nd ref="442096693"/>
    <nd ref="54497959"/>
    <nd ref="54497960"/>
    <nd ref="54497963"/>
    <nd ref="54497964"/>
    <nd ref="54497965"/>
    <nd ref="54497966"/>
    <nd ref="54497968"/>
    <nd ref="54497970"/>
    <nd ref="54497980"/>
    <nd ref="437644309"/>
    <nd ref="54497981"/>
    <nd ref="54483745"/>
    <nd ref="54497989"/>
    <nd ref="54497991"/>
    <nd ref="54497999"/>
    <nd ref="54498003"/>
    <nd ref="54498008"/>
    <nd ref="54498010"/>
    <tag k="highway" v="secondary"/>
    <tag k="maxspeed" v="45 mph"/>
    <tag k="name" v="6th Street"/>
    <tag k="source" v="survey;image;usgs_imagery;local_government"/>
    <tag k="source_ref" v="AM909_DSCN6542"/>
    <tag k="tiger:cfcc" v="A41"/>
    <tag k="tiger:county" v="San Bernardino, CA"/>
    <tag k="tiger:name_base" v="6th"/>
    <tag k="tiger:name_direction_prefix" v="E"/>
    <tag k="tiger:name_type" v="St"/>
    <tag k="tiger:separated" v="no"/>
    <tag k="tiger:source" v="tiger_import_dch_v0.6_20070809"/>
    <tag k="tiger:tlid" v="145225860:144969382:144969383:144637211:144996060"/>
    <tag k="tiger:zip_left" v="91764"/>
    <tag k="tiger:zip_left_1" v="91764"/>
    <tag k="tiger:zip_right" v="91730"/>
  </way>
  <way id="44165520" version="4" timestamp="2010-11-24T03:42:49Z" uid="194231" user="Chris Bell in California" changeset="6444169">
    <nd ref="54497950"/>
    <nd ref="54497952"/>
    <nd ref="1001697222"/>
    <tag k="highway" v="secondary"/>
    <tag k="maxspeed" v="45 mph"/>
    <tag k="name" v="6th Street"/>
    <tag k="source" v="survey;image;usgs_imagery;local_government"/>
    <tag k="source_ref" v="AM909_DSCN6542"/>
    <tag k="tiger:cfcc" v="A41"/>
    <tag k="tiger:county" v="San Bernardino, CA"/>
    <tag k="tiger:name_base" v="6th"/>
    <tag k="tiger:name_direction_prefix" v="E"/>
    <tag k="tiger:name_type" v="St"/>
    <tag k="tiger:separated" v="no"/>
    <tag k="tiger:source" v="tiger_import_dch_v0.6_20070809"/>
    <tag k="tiger:tlid" v="145225860:144969382:144969383:144637211:144996060"/>
    <tag k="tiger:zip_left" v="91764"/>
    <tag k="tiger:zip_left_1" v="91764"/>
    <tag k="tiger:zip_right" v="91730"/>
  </way>
  <way id="44165587" version="2" timestamp="2010-04-03T13:56:27Z" uid="20587" user="balrog-kun" changeset="4312927">
    <nd ref="561046639"/>
    <nd ref="561046640"/>
    <tag k="bridge" v="yes"/>
    <tag k="highway" v="residential"/>
    <tag k="layer" v="1"/>
    <tag k="name" v="West 4525 South"/>
    <tag k="name_1" v="4525 South"/>
    <tag k="surface" v="paved"/>
  </way>
  <way id="44165587" version="3" timestamp="2011-05-06T05:42:43Z" uid="65769" user="Val" changeset="8062514"/>
  <way id="44165588" version="2" timestamp="2010-04-03T13:56:28Z" uid="20587" user="balrog-kun" changeset="4312927">
    <nd ref="561046640"/>
    <nd ref="307601954"/>
    <nd ref="307601958"/>
    <nd ref="307601961"/>
    <nd ref="307601998"/>
    <nd ref="307601991"/>
    <nd ref="307601965"/>
    <nd ref="307601969"/>
    <nd ref="307601973"/>
    <nd ref="307601976"/>
    <nd ref="307601980"/>
    <nd ref="307601983"/>
    <nd ref="307601987"/>
    <tag k="highway" v="residential"/>
    <tag k="name" v="West 4525 South"/>
    <tag k="name_1" v="4525 South"/>
    <tag k="surface" v="paved"/>
  </way>
  <way id="44165588" version="3" timestamp="2011-05-06T05:42:43Z" uid="65769" user="Val" changeset="8062514"/>
  <way id="44165597" version="3" timestamp="2010-05-07T16:19:51Z" uid="4467" user="Rosscoe" changeset="4631472">
    <nd ref="561046757"/>
    <nd ref="31134175"/>
    <tag k="bridge" v="yes"/>
    <tag k="highway" v="trunk"/>
    <tag k="layer" v="1"/>
    <tag k="name" v="Great Eastern Highway"/>
    <tag k="ref" v="NH94"/>
  </way>
  <way id="44165597" version="4" timestamp="2010-05-08T05:53:18Z" uid="4467" user="Rosscoe" changeset="4635833"/>
  <way id="44165598" version="7" timestamp="2010-05-07T16:19:49Z" uid="4467" user="Rosscoe" changeset="4631472">
    <nd ref="31134175"/>
    <nd ref="566238577"/>
    <nd ref="566238578"/>
    <nd ref="566242145"/>
    <tag k="highway" v="trunk"/>
    <tag k="name" v="Great Eastern Highway"/>
    <tag k="ref" v="NH94"/>
  </way>
  <way id="44165598" version="8" timestamp="2010-05-08T05:53:18Z" uid="4467" user="Rosscoe" changeset="4635833"/>
  <way id="44165616" version="7" timestamp="2011-04-05T05:38:25Z" uid="4467" user="Rosscoe" changeset="7771584">
    <nd ref="561046946"/>
    <nd ref="672446267"/>
    <nd ref="672447783"/>
    <nd ref="672454119"/>
    <nd ref="672457601"/>
    <nd ref="561046939"/>
    <nd ref="561046940"/>
    <nd ref="561046941"/>
    <nd ref="672462334"/>
    <nd ref="561046942"/>
    <nd ref="561046943"/>
    <nd ref="561046938"/>
    <nd ref="672462330"/>
    <nd ref="561046944"/>
    <tag k="highway" v="residential"/>
    <tag k="name" v="Waratah Street"/>
    <tag k="surface" v="asphalt"/>
  </way>
  <way id="44165617" version="4" timestamp="2011-04-05T05:38:27Z" uid="4467" user="Rosscoe" changeset="7771584">
    <nd ref="561046947"/>
    <nd ref="1233290865"/>
    <nd ref="672457864"/>
    <nd ref="561046948"/>
    <nd ref="672447279"/>
    <nd ref="672447294"/>
    <nd ref="672447309"/>
    <nd ref="672447340"/>
    <nd ref="561046949"/>
    <nd ref="561046950"/>
    <nd ref="561046951"/>
    <nd ref="561046946"/>
    <tag k="highway" v="residential"/>
    <tag k="name" v="Ocean Street"/>
    <tag k="surface" v="asphalt"/>
  </way>
  <way id="44165807" version="3" timestamp="2010-03-28T11:18:24Z" uid="20587" user="balrog-kun" changeset="4254597">
    <nd ref="122842254"/>
    <nd ref="122842257"/>
    <nd ref="122842260"/>
    <nd ref="557893184"/>
    <nd ref="122756580"/>
    <nd ref="343715087"/>
    <nd ref="557893193"/>
    <nd ref="343715088"/>
    <nd ref="557893196"/>
    <nd ref="343715089"/>
    <nd ref="343715090"/>
    <nd ref="343714636"/>
    <nd ref="122842263"/>
    <nd ref="122842268"/>
    <nd ref="557893204"/>
    <nd ref="557893207"/>
    <nd ref="557893210"/>
    <nd ref="557893212"/>
    <nd ref="122842271"/>
    <nd ref="557893230"/>
    <nd ref="122842274"/>
    <nd ref="122842277"/>
    <nd ref="343713658"/>
    <nd ref="557893232"/>
    <nd ref="343713659"/>
    <nd ref="557893236"/>
    <nd ref="557893239"/>
    <nd ref="343713660"/>
    <nd ref="122842280"/>
    <nd ref="343713293"/>
    <nd ref="557893252"/>
    <nd ref="343713342"/>
    <nd ref="343713295"/>
    <nd ref="557919843"/>
    <nd ref="343713296"/>
    <nd ref="557919856"/>
    <nd ref="122842281"/>
    <nd ref="343713297"/>
    <nd ref="343713298"/>
    <nd ref="343713300"/>
    <nd ref="343713302"/>
    <nd ref="122842282"/>
    <nd ref="122842283"/>
    <nd ref="569913225"/>
    <nd ref="569913226"/>
    <nd ref="569913227"/>
    <nd ref="122842284"/>
    <nd ref="343711372"/>
    <nd ref="343711373"/>
    <nd ref="122842285"/>
    <nd ref="343711374"/>
    <nd ref="343711375"/>
    <nd ref="343711376"/>
    <nd ref="122827421"/>
    <nd ref="122678579"/>
    <tag k="highway" v="residential"/>
    <tag k="name" v="Temple Hills Drive"/>
    <tag k="tiger:cfcc" v="A41"/>
    <tag k="tiger:county" v="Orange, CA"/>
    <tag k="tiger:name_base" v="Temple Hills"/>
    <tag k="tiger:name_type" v="Dr"/>
    <tag k="tiger:reviewed" v="no"/>
    <tag k="tiger:separated" v="no"/>
    <tag k="tiger:source" v="tiger_import_dch_v0.6_20070809"/>
    <tag k="tiger:tlid" v="144069184:144069186:144069189:144069190:144069196:144068669:144068670:144068671:144068673:144068674:144068676:144068677:144068643:144068689:144068693:144068632:144087916:144069217"/>
    <tag k="tiger:zip_left" v="92651"/>
    <tag k="tiger:zip_right" v="92651"/>
  </way>
  <way id="44165809" version="2" timestamp="2010-03-28T11:18:25Z" uid="20587" user="balrog-kun" changeset="4254597">
    <nd ref="122842254"/>
    <nd ref="557919810"/>
    <nd ref="122842252"/>
    <nd ref="557919797"/>
    <nd ref="557919786"/>
    <nd ref="122842250"/>
    <tag k="highway" v="residential"/>
    <tag k="name" v="Temple Hills Drive"/>
    <tag k="oneway" v="yes"/>
    <tag k="tiger:cfcc" v="A41"/>
    <tag k="tiger:county" v="Orange, CA"/>
    <tag k="tiger:name_base" v="Temple Hills"/>
    <tag k="tiger:name_type" v="Dr"/>
    <tag k="tiger:reviewed" v="no"/>
    <tag k="tiger:separated" v="no"/>
    <tag k="tiger:source" v="tiger_import_dch_v0.6_20070809"/>
    <tag k="tiger:tlid" v="144069184:144069186:144069189:144069190:144069196:144068669:144068670:144068671:144068673:144068674:144068676:144068677:144068643:144068689:144068693:144068632:144087916:144069217"/>
    <tag k="tiger:zip_left" v="92651"/>
    <tag k="tiger:zip_right" v="92651"/>
  </way>
  <way id="44165812" version="2" timestamp="2010-03-28T11:18:25Z" uid="20587" user="balrog-kun" changeset="4254597">
    <nd ref="561049152"/>
    <nd ref="122842254"/>
    <tag k="highway" v="residential"/>
    <tag k="name" v="Dunning Drive"/>
  </way>
  <way id="44165813" version="2" timestamp="2010-03-28T11:18:25Z" uid="20587" user="balrog-kun" changeset="4254597">
    <nd ref="561049152"/>
    <nd ref="557918991"/>
    <nd ref="557918993"/>
    <nd ref="122906776"/>
    <nd ref="122906778"/>
    <nd ref="122906780"/>
    <nd ref="122906783"/>
    <nd ref="122906788"/>
    <nd ref="122906791"/>
    <nd ref="122906794"/>
    <nd ref="122906796"/>
    <nd ref="122906798"/>
    <nd ref="122906800"/>
    <nd ref="122906802"/>
    <nd ref="122906805"/>
    <nd ref="122906808"/>
    <nd ref="122906811"/>
    <nd ref="122906813"/>
    <nd ref="122906815"/>
    <nd ref="122906817"/>
    <nd ref="122906819"/>
    <nd ref="122906823"/>
    <nd ref="122906828"/>
    <nd ref="122906830"/>
    <nd ref="122906832"/>
    <nd ref="122906834"/>
    <nd ref="122906837"/>
    <tag k="highway" v="residential"/>
    <tag k="name" v="Dunning Drive"/>
    <tag k="tiger:cfcc" v="A41"/>
    <tag k="tiger:county" v="Orange, CA"/>
    <tag k="tiger:name_base" v="Dunning"/>
    <tag k="tiger:name_type" v="Dr"/>
    <tag k="tiger:reviewed" v="no"/>
    <tag k="tiger:separated" v="no"/>
    <tag k="tiger:source" v="tiger_import_dch_v0.6_20070809"/>
    <tag k="tiger:tlid" v="144068697"/>
    <tag k="tiger:zip_left" v="92651"/>
    <tag k="tiger:zip_right" v="92651"/>
  </way>
  <way id="44165817" version="2" timestamp="2010-03-28T11:18:25Z" uid="20587" user="balrog-kun" changeset="4254597">
    <nd ref="122972800"/>
    <nd ref="123013357"/>
    <nd ref="559337471"/>
    <nd ref="559337473"/>
    <nd ref="123013360"/>
    <nd ref="123013362"/>
    <nd ref="123013365"/>
    <nd ref="123013367"/>
    <nd ref="122901653"/>
    <nd ref="559337475"/>
    <nd ref="559337476"/>
    <nd ref="559337478"/>
    <nd ref="122710065"/>
    <nd ref="122658685"/>
    <nd ref="559220607"/>
    <nd ref="559220608"/>
    <tag k="highway" v="residential"/>
    <tag k="name" v="Victoria Drive"/>
    <tag k="tiger:cfcc" v="A41"/>
    <tag k="tiger:county" v="Orange, CA"/>
    <tag k="tiger:name_base" v="Victoria"/>
    <tag k="tiger:name_type" v="Dr"/>
    <tag k="tiger:reviewed" v="no"/>
    <tag k="tiger:separated" v="no"/>
    <tag k="tiger:source" v="tiger_import_dch_v0.6_20070809"/>
    <tag k="tiger:tlid" v="144069086:144069098:144069099:144069108"/>
    <tag k="tiger:zip_left" v="92651"/>
    <tag k="tiger:zip_right" v="92651"/>
  </way>
  <way id="44165817" version="3" timestamp="2010-05-04T11:22:35Z" uid="82317" user="AM909" changeset="4603389">
    <nd ref="122972800"/>
    <nd ref="123013357"/>
    <nd ref="559337471"/>
    <nd ref="559337473"/>
    <nd ref="123013360"/>
    <nd ref="123013362"/>
    <nd ref="123013365"/>
    <nd ref="123013367"/>
    <nd ref="122901653"/>
    <nd ref="559337475"/>
    <nd ref="559337476"/>
    <nd ref="559337478"/>
    <nd ref="122710065"/>
    <nd ref="720728257"/>
    <nd ref="720728297"/>
    <nd ref="720728253"/>
    <nd ref="122658685"/>
    <tag k="highway" v="residential"/>
    <tag k="name" v="Victoria Drive"/>
    <tag k="source" v="yahoo_imagery;survey;image"/>
    <tag k="source_ref" v="AM909_DSCU2313"/>
    <tag k="tiger:cfcc" v="A41"/>
    <tag k="tiger:county" v="Orange, CA"/>
    <tag k="tiger:name_base" v="Victoria"/>
    <tag k="tiger:name_type" v="Dr"/>
    <tag k="tiger:separated" v="no"/>
    <tag k="tiger:source" v="tiger_import_dch_v0.6_20070809"/>
    <tag k="tiger:tlid" v="144069086:144069098:144069099:144069108"/>
    <tag k="tiger:zip_left" v="92651"/>
    <tag k="tiger:zip_right" v="92651"/>
  </way>
  <way id="44165820" version="2" timestamp="2010-03-28T11:18:26Z" uid="20587" user="balrog-kun" changeset="4254597">
    <nd ref="122735555"/>
    <nd ref="122850355"/>
    <nd ref="122999191"/>
    <nd ref="122999194"/>
    <nd ref="122977766"/>
    <nd ref="122999196"/>
    <nd ref="122999198"/>
    <tag k="highway" v="residential"/>
    <tag k="name" v="Glenneyre Street"/>
    <tag k="tiger:cfcc" v="A41"/>
    <tag k="tiger:county" v="Orange, CA"/>
    <tag k="tiger:name_base" v="Glenneyre"/>
    <tag k="tiger:name_type" v="St"/>
    <tag k="tiger:reviewed" v="no"/>
    <tag k="tiger:separated" v="no"/>
    <tag k="tiger:source" v="tiger_import_dch_v0.6_20070809"/>
    <tag k="tiger:tlid" v="144069035:144087948:144068953:144109648:144068930:144068934:144109649:144068860:144068862:144068875:144068876:144068880:144069008:144068539:144068543:144068556:144068558:144068782:144068796:144068417:144068419:144068446:144068467:144417733:144068802:14406"/>
    <tag k="tiger:zip_left" v="92651"/>
    <tag k="tiger:zip_right" v="92651"/>
  </way>
  <way id="44165825" version="2" timestamp="2010-03-28T11:18:26Z" uid="20587" user="balrog-kun" changeset="4254597">
    <nd ref="122788213"/>
    <nd ref="122788217"/>
    <nd ref="122788219"/>
    <tag k="highway" v="residential"/>
    <tag k="name" v="Private Road"/>
    <tag k="tiger:cfcc" v="A41"/>
    <tag k="tiger:county" v="Orange, CA"/>
    <tag k="tiger:name_base" v="Private"/>
    <tag k="tiger:name_type" v="Rd"/>
    <tag k="tiger:reviewed" v="no"/>
    <tag k="tiger:separated" v="no"/>
    <tag k="tiger:source" v="tiger_import_dch_v0.6_20070809"/>
    <tag k="tiger:tlid" v="144068067:144068069"/>
  </way>
</osm>
