<?xml version='1.0' encoding='UTF-8'?>
<osm version="0.6" generator="libosmium/2.20.0">
  <way id="44237259" version="2" timestamp="2010-02-09T02:06:19Z" uid="74617" user="JohnSmith" changeset="3828705">
    <nd ref="562343807"/>
    <nd ref="267211419"/>
    <tag k="highway" v="residential"/>
    <tag k="maxspeed" v="50"/>
  </way>
  <way id="44237259" version="3" timestamp="2010-04-05T06:55:20Z" uid="84644" user="Ash Kyd" changeset="4329682">
    <nd ref="562343807"/>
    <nd ref="267211419"/>
    <tag k="highway" v="residential"/>
    <tag k="maxspeed" v="50"/>
    <tag k="name" v="Savoy Street"/>
  </way>
  <way id="44237259" version="4" timestamp="2012-01-19T09:02:54Z" uid="147510" user="woodpeck_fixbot" changeset="10434386">
    <nd ref="562343807"/>
    <nd ref="267211419"/>
    <tag k="highway" v="residential"/>
    <tag k="name" v="Savoy Street"/>
  </way>
  <way id="44237267" version="2" timestamp="2010-02-09T02:06:17Z" uid="74617" user="JohnSmith" changeset="3828705">
    <nd ref="267211435"/>
    <nd ref="562343846"/>
    <tag k="highway" v="residential"/>
    <tag k="maxspeed" v="50"/>
  </way>
  <way id="44237267" version="3" timestamp="2010-04-05T06:55:18Z" uid="84644" user="Ash Kyd" changeset="4329682">
    <nd ref="267211435"/>
    <nd ref="562343846"/>
    <tag k="highway" v="residential"/>
    <tag k="name" v="Pickard Street"/>
  </way>
  <way id="44237431" version="2" timestamp="2010-02-09T02:06:19Z" uid="74617" user="JohnSmith" changeset="3828705">
    <nd ref="267211437"/>
    <nd ref="562344998"/>
    <tag k="highway" v="residential"/>
    <tag k="maxspeed" v="50"/>
  </way>
  <way id="44237431" version="3" timestamp="2010-04-05T06:55:19Z" uid="84644" user="Ash Kyd" changeset="4329682">
    <nd ref="267211437"/>
    <nd ref="562344998"/>
    <tag k="highway" v="residential"/>
    <tag k="maxspeed" v="50"/>
    <tag k="name" v="Sprimont Street"/>
  </way>
  <way id="44237431" version="4" timestamp="2012-01-19T09:02:56Z" uid="147510" user="woodpeck_fixbot" changeset="10434386">
    <nd ref="267211437"/>
    <nd ref="562344998"/>
    <tag k="highway" v="residential"/>
    <tag k="name" v="Sprimont Street"/>
  </way>
</osm>
