<?xml version='1.0' encoding='UTF-8'?>
<osm version="0.6" generator="libosmium/2.20.0">
  <way id="44417055" version="5" timestamp="2010-07-09T07:26:31Z" uid="74617" user="JohnSmith" changeset="5171412">
    <nd ref="564605804"/>
    <nd ref="564606191"/>
    <nd ref="644530952"/>
    <nd ref="60981587"/>
    <tag k="highway" v="residential"/>
    <tag k="maxspeed" v="50"/>
    <tag k="maxspeed:source" v="default residential speed limit in Australia"/>
  </way>
  <way id="44417055" version="6" timestamp="2011-02-25T03:52:39Z" uid="4467" user="Rosscoe" changeset="7387299">
    <nd ref="564605804"/>
    <nd ref="564606191"/>
    <nd ref="644530952"/>
    <nd ref="1171556178"/>
    <nd ref="1171556172"/>
    <tag k="highway" v="residential"/>
    <tag k="maxspeed" v="50"/>
    <tag k="maxspeed:source" v="default residential speed limit in Australia"/>
  </way>
  <way id="44417055" version="7" timestamp="2011-03-21T09:33:49Z" uid="4467" user="Rosscoe" changeset="7625311">
    <nd ref="564605804"/>
    <nd ref="564606191"/>
    <nd ref="644530952"/>
    <nd ref="1171556178"/>
    <nd ref="1171556172"/>
    <tag k="highway" v="residential"/>
    <tag k="maxspeed" v="50"/>
    <tag k="source:maxspeed" v="default residential speed limit in Australia"/>
  </way>
  <way id="44417055" version="8" timestamp="2011-08-30T12:42:57Z" uid="215053" user="Richard Stallard" changeset="9166928">
    <nd ref="564605804"/>
    <nd ref="564606191"/>
    <nd ref="1418004009"/>
    <nd ref="644530952"/>
    <nd ref="1171556178"/>
    <nd ref="1171556172"/>
    <tag k="highway" v="residential"/>
    <tag k="maxspeed" v="50"/>
    <tag k="source:maxspeed" v="default residential speed limit in Australia"/>
  </way>
  <way id="44417055" version="9" timestamp="2011-08-30T14:10:12Z" uid="215053" user="Richard Stallard" changeset="9166928">
    <nd ref="564605804"/>
    <nd ref="564606191"/>
    <nd ref="1418004009"/>
    <tag k="highway" v="residential"/>
    <tag k="maxspeed" v="50"/>
    <tag k="source:maxspeed" v="default residential speed limit in Australia"/>
  </way>
  <way id="44417055" version="10" timestamp="2012-01-19T09:16:40Z" uid="147510" user="woodpeck_fixbot" changeset="10434386">
    <nd ref="564605804"/>
    <nd ref="564606191"/>
    <nd ref="1418004009"/>
    <tag k="highway" v="residential"/>
    <tag k="source:maxspeed" v="default residential speed limit in Australia"/>
  </way>
  <way id="44417340" version="1" timestamp="2009-11-15T08:37:37Z" uid="7617" user="Franc" changeset="3119713">
    <nd ref="564613654"/>
    <nd ref="564613656"/>
    <nd ref="564613684"/>
    <nd ref="564613655"/>
    <tag k="highway" v="unclassified"/>
    <tag k="source" v="nearmap"/>
  </way>
  <way id="44417340" version="2" timestamp="2010-04-28T00:13:29Z" uid="9060" user="TRS-80" changeset="4546015">
    <nd ref="564613654"/>
    <nd ref="564613656"/>
    <nd ref="564613684"/>
    <nd ref="564613655"/>
    <tag k="highway" v="service"/>
    <tag k="source" v="nearmap"/>
  </way>
  <way id="44417341" version="1" timestamp="2009-11-15T08:37:37Z" uid="7617" user="Franc" changeset="3119713">
    <nd ref="559417142"/>
    <nd ref="564613653"/>
    <tag k="highway" v="residential"/>
    <tag k="source" v="nearmap"/>
  </way>
  <way id="44417342" version="1" timestamp="2009-11-15T08:37:38Z" uid="7617" user="Franc" changeset="3119713">
    <nd ref="564613669"/>
    <nd ref="564613670"/>
    <nd ref="564613734"/>
    <nd ref="564613712"/>
    <nd ref="564613713"/>
    <nd ref="564613711"/>
    <nd ref="564613714"/>
    <nd ref="564613715"/>
    <nd ref="564613705"/>
    <nd ref="564613706"/>
    <nd ref="564613707"/>
    <nd ref="564613708"/>
    <nd ref="564613709"/>
    <nd ref="564613710"/>
    <nd ref="564613685"/>
    <nd ref="564613686"/>
    <nd ref="564613687"/>
    <nd ref="564613688"/>
    <nd ref="564613689"/>
    <nd ref="564613690"/>
    <nd ref="564613657"/>
    <nd ref="564613658"/>
    <nd ref="564613671"/>
    <nd ref="564613672"/>
    <nd ref="564613673"/>
    <nd ref="564613674"/>
    <nd ref="564613669"/>
    <tag k="leisure" v="pitch"/>
    <tag k="source" v="nearmap"/>
  </way>
  <way id="44417343" version="1" timestamp="2009-11-15T08:37:38Z" uid="7617" user="Franc" changeset="3119713">
    <nd ref="564613675"/>
    <nd ref="564613676"/>
    <nd ref="564613723"/>
    <nd ref="564613724"/>
    <nd ref="564613725"/>
    <nd ref="564613726"/>
    <nd ref="564613727"/>
    <nd ref="564613728"/>
    <nd ref="564613729"/>
    <nd ref="564613730"/>
    <nd ref="564613731"/>
    <nd ref="564613732"/>
    <nd ref="564613733"/>
    <nd ref="564613717"/>
    <nd ref="564613718"/>
    <nd ref="564613719"/>
    <nd ref="564613691"/>
    <nd ref="564613692"/>
    <nd ref="564613693"/>
    <nd ref="564613694"/>
    <nd ref="564613695"/>
    <nd ref="564613696"/>
    <nd ref="564613697"/>
    <nd ref="564613698"/>
    <nd ref="564613659"/>
    <nd ref="564613660"/>
    <nd ref="564613661"/>
    <nd ref="564613662"/>
    <nd ref="564613663"/>
    <nd ref="564613664"/>
    <nd ref="564613677"/>
    <nd ref="564613678"/>
    <nd ref="564613679"/>
    <nd ref="564613675"/>
    <tag k="leisure" v="track"/>
    <tag k="source" v="nearmap"/>
  </way>
  <way id="44417344" version="1" timestamp="2009-11-15T08:37:38Z" uid="7617" user="Franc" changeset="3119713">
    <nd ref="564613680"/>
    <nd ref="564613681"/>
    <nd ref="564613665"/>
    <nd ref="564613666"/>
    <nd ref="564613680"/>
    <tag k="leisure" v="pitch"/>
    <tag k="source" v="nearmap"/>
  </way>
  <way id="44417345" version="1" timestamp="2009-11-15T08:37:38Z" uid="7617" user="Franc" changeset="3119713">
    <nd ref="564613667"/>
    <nd ref="564613682"/>
    <nd ref="564613683"/>
    <nd ref="564613738"/>
    <nd ref="564613745"/>
    <nd ref="564613739"/>
    <nd ref="564613741"/>
    <nd ref="564613742"/>
    <nd ref="564613740"/>
    <nd ref="564613668"/>
    <nd ref="564613667"/>
    <tag k="landuse" v="recreation_ground"/>
  </way>
  <way id="44417346" version="1" timestamp="2009-11-15T08:37:38Z" uid="7617" user="Franc" changeset="3119713">
    <nd ref="564613720"/>
    <nd ref="564613721"/>
    <nd ref="564613716"/>
    <nd ref="564613722"/>
    <nd ref="564613720"/>
    <tag k="leisure" v="pitch"/>
    <tag k="source" v="nearmap"/>
  </way>
  <way id="44417347" version="1" timestamp="2009-11-15T08:37:38Z" uid="7617" user="Franc" changeset="3119713">
    <nd ref="564613735"/>
    <nd ref="564613736"/>
    <nd ref="564613699"/>
    <nd ref="564613700"/>
    <nd ref="564613735"/>
    <tag k="leisure" v="pitch"/>
    <tag k="sport" v="swimming"/>
  </way>
  <way id="44417348" version="1" timestamp="2009-11-15T08:37:38Z" uid="7617" user="Franc" changeset="3119713">
    <nd ref="564613701"/>
    <nd ref="564613702"/>
    <nd ref="564613703"/>
    <nd ref="564613704"/>
    <nd ref="564613701"/>
    <tag k="leisure" v="pitch"/>
    <tag k="sport" v="tennis"/>
  </way>
  <way id="44417349" version="1" timestamp="2009-11-15T08:37:38Z" uid="7617" user="Franc" changeset="3119713">
    <nd ref="564613737"/>
    <nd ref="564613746"/>
    <nd ref="564613743"/>
    <nd ref="564613744"/>
    <nd ref="564613737"/>
    <tag k="leisure" v="pitch"/>
    <tag k="source" v="nearmap"/>
  </way>
  <way id="44417437" version="1" timestamp="2009-11-15T08:47:42Z" uid="7617" user="Franc" changeset="3119762">
    <nd ref="564614352"/>
    <nd ref="564614353"/>
    <nd ref="564614354"/>
    <nd ref="564614355"/>
    <nd ref="564614356"/>
    <tag k="highway" v="unclassified"/>
    <tag k="source" v="nearmap"/>
  </way>
  <way id="44417438" version="1" timestamp="2009-11-15T08:47:42Z" uid="7617" user="Franc" changeset="3119762">
    <nd ref="564614356"/>
    <nd ref="564614357"/>
    <tag k="complete" v="no"/>
    <tag k="highway" v="unclassified"/>
    <tag k="source" v="nearmap"/>
    <tag k="surface" v="unpaved"/>
  </way>
  <way id="44417438" version="2" timestamp="2009-11-15T10:51:20Z" uid="7617" user="Franc" changeset="3120495">
    <nd ref="564614356"/>
    <nd ref="564614357"/>
    <nd ref="564645961"/>
    <nd ref="564645962"/>
    <nd ref="564645963"/>
    <nd ref="564645964"/>
    <nd ref="564645967"/>
    <tag k="highway" v="unclassified"/>
    <tag k="source" v="nearmap"/>
    <tag k="surface" v="unpaved"/>
  </way>
  <way id="44417440" version="1" timestamp="2009-11-15T08:47:42Z" uid="7617" user="Franc" changeset="3119762">
    <nd ref="564614346"/>
    <nd ref="564614347"/>
    <nd ref="564614348"/>
    <tag k="complete" v="no"/>
    <tag k="highway" v="unclassified"/>
    <tag k="source" v="nearmap"/>
    <tag k="surface" v="unpaved"/>
  </way>
  <way id="44417440" version="2" timestamp="2009-11-15T09:07:58Z" uid="7617" user="Franc" changeset="3119873">
    <nd ref="564614346"/>
    <nd ref="564614347"/>
    <nd ref="564614348"/>
    <nd ref="564616704"/>
    <nd ref="564616705"/>
    <nd ref="564616706"/>
    <nd ref="564616707"/>
    <nd ref="564616708"/>
    <nd ref="564616709"/>
    <nd ref="564616710"/>
    <nd ref="564616711"/>
    <tag k="highway" v="service"/>
    <tag k="source" v="nearmap"/>
    <tag k="surface" v="unpaved"/>
  </way>
  <way id="44417446" version="4" timestamp="2010-03-28T11:22:07Z" uid="20587" user="balrog-kun" changeset="4254597">
    <nd ref="65389571"/>
    <nd ref="65472770"/>
    <nd ref="65472774"/>
    <nd ref="65413903"/>
    <nd ref="65472776"/>
    <nd ref="65472781"/>
    <nd ref="98258424"/>
    <nd ref="262256291"/>
    <nd ref="483412696"/>
    <nd ref="65377509"/>
    <nd ref="65472783"/>
    <nd ref="427846551"/>
    <nd ref="65403698"/>
    <nd ref="65460095"/>
    <nd ref="65472787"/>
    <nd ref="564663929"/>
    <nd ref="65472789"/>
    <nd ref="65464576"/>
    <nd ref="65472791"/>
    <nd ref="564663931"/>
    <nd ref="564663537"/>
    <tag k="bicycle" v="designated"/>
    <tag k="highway" v="secondary"/>
    <tag k="name" v="South Delaware Street"/>
    <tag k="tiger:cfcc" v="A41"/>
    <tag k="tiger:county" v="San Mateo, CA"/>
    <tag k="tiger:name_base" v="Delaware"/>
    <tag k="tiger:name_direction_prefix" v="S"/>
    <tag k="tiger:name_type" v="St"/>
    <tag k="tiger:separated" v="no"/>
    <tag k="tiger:source" v="tiger_import_dch_v0.6_20070809"/>
    <tag k="tiger:tlid" v="192379949:192392918"/>
    <tag k="tiger:zip_left" v="94403"/>
    <tag k="tiger:zip_right" v="94402"/>
  </way>
  <way id="44417446" version="5" timestamp="2010-05-25T09:20:44Z" uid="14293" user="dahveed76" changeset="4801733">
    <nd ref="65389571"/>
    <nd ref="65472770"/>
    <nd ref="65472774"/>
    <nd ref="65413903"/>
    <nd ref="65472776"/>
    <nd ref="65472781"/>
    <nd ref="98258424"/>
    <nd ref="262256291"/>
    <nd ref="483412696"/>
    <nd ref="65377509"/>
    <nd ref="65472783"/>
    <nd ref="427846551"/>
    <nd ref="65403698"/>
    <nd ref="65460095"/>
    <nd ref="65472787"/>
    <nd ref="564663929"/>
    <nd ref="65472789"/>
    <nd ref="65464576"/>
    <nd ref="564663931"/>
    <nd ref="747728171"/>
    <nd ref="747728172"/>
    <nd ref="564663537"/>
    <tag k="bicycle" v="designated"/>
    <tag k="highway" v="secondary"/>
    <tag k="name" v="South Delaware Street"/>
    <tag k="tiger:cfcc" v="A41"/>
    <tag k="tiger:county" v="San Mateo, CA"/>
    <tag k="tiger:name_base" v="Delaware"/>
    <tag k="tiger:name_direction_prefix" v="S"/>
    <tag k="tiger:name_type" v="St"/>
    <tag k="tiger:separated" v="no"/>
    <tag k="tiger:source" v="tiger_import_dch_v0.6_20070809"/>
    <tag k="tiger:tlid" v="192379949:192392918"/>
    <tag k="tiger:zip_left" v="94403"/>
    <tag k="tiger:zip_right" v="94402"/>
  </way>
  <way id="44417446" version="6" timestamp="2010-05-25T09:21:28Z" uid="14293" user="dahveed76" changeset="4801733">
    <nd ref="65389571"/>
    <nd ref="65472770"/>
    <nd ref="65472774"/>
    <nd ref="65413903"/>
    <nd ref="65472776"/>
    <nd ref="65472781"/>
    <nd ref="98258424"/>
    <nd ref="262256291"/>
    <nd ref="483412696"/>
    <nd ref="65377509"/>
    <nd ref="65472783"/>
    <nd ref="427846551"/>
    <nd ref="65403698"/>
    <nd ref="65460095"/>
    <nd ref="65472787"/>
    <nd ref="564663929"/>
    <nd ref="65472789"/>
    <nd ref="747728283"/>
    <nd ref="747728284"/>
    <nd ref="747728285"/>
    <nd ref="65464576"/>
    <nd ref="564663931"/>
    <nd ref="747728171"/>
    <nd ref="747728172"/>
    <nd ref="564663537"/>
    <tag k="bicycle" v="designated"/>
    <tag k="highway" v="secondary"/>
    <tag k="name" v="South Delaware Street"/>
    <tag k="tiger:cfcc" v="A41"/>
    <tag k="tiger:county" v="San Mateo, CA"/>
    <tag k="tiger:name_base" v="Delaware"/>
    <tag k="tiger:name_direction_prefix" v="S"/>
    <tag k="tiger:name_type" v="St"/>
    <tag k="tiger:separated" v="no"/>
    <tag k="tiger:source" v="tiger_import_dch_v0.6_20070809"/>
    <tag k="tiger:tlid" v="192379949:192392918"/>
    <tag k="tiger:zip_left" v="94403"/>
    <tag k="tiger:zip_right" v="94402"/>
  </way>
  <way id="44417446" version="7" timestamp="2010-05-25T09:32:25Z" uid="14293" user="dahveed76" changeset="4801733">
    <nd ref="65389571"/>
    <nd ref="65472770"/>
    <nd ref="65472774"/>
    <nd ref="65413903"/>
    <nd ref="65472776"/>
    <nd ref="65472781"/>
    <nd ref="98258424"/>
    <nd ref="262256291"/>
    <nd ref="483412696"/>
    <nd ref="65377509"/>
    <nd ref="65472783"/>
    <nd ref="427846551"/>
    <nd ref="65403698"/>
    <nd ref="65460095"/>
    <nd ref="65472787"/>
    <nd ref="747731025"/>
    <nd ref="747731026"/>
    <nd ref="564663929"/>
    <nd ref="747731027"/>
    <nd ref="65472789"/>
    <nd ref="747731028"/>
    <nd ref="747728283"/>
    <nd ref="747728284"/>
    <nd ref="747728285"/>
    <nd ref="65464576"/>
    <nd ref="564663931"/>
    <nd ref="747728171"/>
    <nd ref="747728172"/>
    <nd ref="564663537"/>
    <tag k="bicycle" v="designated"/>
    <tag k="highway" v="secondary"/>
    <tag k="name" v="South Delaware Street"/>
    <tag k="tiger:cfcc" v="A41"/>
    <tag k="tiger:county" v="San Mateo, CA"/>
    <tag k="tiger:name_base" v="Delaware"/>
    <tag k="tiger:name_direction_prefix" v="S"/>
    <tag k="tiger:name_type" v="St"/>
    <tag k="tiger:separated" v="no"/>
    <tag k="tiger:source" v="tiger_import_dch_v0.6_20070809"/>
    <tag k="tiger:tlid" v="192379949:192392918"/>
    <tag k="tiger:zip_left" v="94403"/>
    <tag k="tiger:zip_right" v="94402"/>
  </way>
  <way id="44417446" version="8" timestamp="2010-05-27T09:24:19Z" uid="14293" user="dahveed76" changeset="4820375">
    <nd ref="65389571"/>
    <nd ref="65472770"/>
    <nd ref="65472774"/>
    <nd ref="65413903"/>
    <nd ref="65472776"/>
    <nd ref="65472781"/>
    <nd ref="98258424"/>
    <nd ref="262256291"/>
    <nd ref="483412696"/>
    <nd ref="65472783"/>
    <nd ref="427846551"/>
    <nd ref="65403698"/>
    <nd ref="65460095"/>
    <nd ref="65472787"/>
    <nd ref="747731025"/>
    <nd ref="747731026"/>
    <nd ref="564663929"/>
    <nd ref="747731027"/>
    <nd ref="65472789"/>
    <nd ref="747731028"/>
    <nd ref="747728283"/>
    <nd ref="747728284"/>
    <nd ref="747728285"/>
    <nd ref="65464576"/>
    <nd ref="564663931"/>
    <nd ref="747728171"/>
    <nd ref="747728172"/>
    <nd ref="564663537"/>
    <tag k="bicycle" v="designated"/>
    <tag k="highway" v="secondary"/>
    <tag k="name" v="South Delaware Street"/>
    <tag k="tiger:cfcc" v="A41"/>
    <tag k="tiger:county" v="San Mateo, CA"/>
    <tag k="tiger:name_base" v="Delaware"/>
    <tag k="tiger:name_direction_prefix" v="S"/>
    <tag k="tiger:name_type" v="St"/>
    <tag k="tiger:separated" v="no"/>
    <tag k="tiger:source" v="tiger_import_dch_v0.6_20070809"/>
    <tag k="tiger:tlid" v="192379949:192392918"/>
    <tag k="tiger:zip_left" v="94403"/>
    <tag k="tiger:zip_right" v="94402"/>
  </way>
  <way id="44417446" version="9" timestamp="2010-05-27T09:25:04Z" uid="14293" user="dahveed76" changeset="4820375">
    <nd ref="65389571"/>
    <nd ref="65472770"/>
    <nd ref="65472774"/>
    <nd ref="65413903"/>
    <nd ref="65472776"/>
    <nd ref="65472781"/>
    <nd ref="98258424"/>
    <nd ref="262256291"/>
    <nd ref="483412696"/>
    <nd ref="65472783"/>
    <nd ref="750522864"/>
    <nd ref="427846551"/>
    <nd ref="65403698"/>
    <nd ref="65460095"/>
    <nd ref="65472787"/>
    <nd ref="747731025"/>
    <nd ref="747731026"/>
    <nd ref="564663929"/>
    <nd ref="747731027"/>
    <nd ref="65472789"/>
    <nd ref="747731028"/>
    <nd ref="747728283"/>
    <nd ref="747728284"/>
    <nd ref="747728285"/>
    <nd ref="65464576"/>
    <nd ref="564663931"/>
    <nd ref="747728171"/>
    <nd ref="747728172"/>
    <nd ref="564663537"/>
    <tag k="bicycle" v="designated"/>
    <tag k="highway" v="secondary"/>
    <tag k="name" v="South Delaware Street"/>
    <tag k="tiger:cfcc" v="A41"/>
    <tag k="tiger:county" v="San Mateo, CA"/>
    <tag k="tiger:name_base" v="Delaware"/>
    <tag k="tiger:name_direction_prefix" v="S"/>
    <tag k="tiger:name_type" v="St"/>
    <tag k="tiger:separated" v="no"/>
    <tag k="tiger:source" v="tiger_import_dch_v0.6_20070809"/>
    <tag k="tiger:tlid" v="192379949:192392918"/>
    <tag k="tiger:zip_left" v="94403"/>
    <tag k="tiger:zip_right" v="94402"/>
  </way>
  <way id="44417446" version="10" timestamp="2010-05-27T09:29:10Z" uid="14293" user="dahveed76" changeset="4820375">
    <nd ref="65389571"/>
    <nd ref="65472770"/>
    <nd ref="65472774"/>
    <nd ref="65413903"/>
    <nd ref="65472776"/>
    <nd ref="65472781"/>
    <nd ref="98258424"/>
    <nd ref="262256291"/>
    <nd ref="483412696"/>
    <nd ref="65472783"/>
    <nd ref="427846551"/>
    <nd ref="65403698"/>
    <nd ref="750523286"/>
    <nd ref="65460095"/>
    <nd ref="65472787"/>
    <nd ref="747731025"/>
    <nd ref="747731026"/>
    <nd ref="564663929"/>
    <nd ref="747731027"/>
    <nd ref="65472789"/>
    <nd ref="747731028"/>
    <nd ref="747728283"/>
    <nd ref="747728284"/>
    <nd ref="747728285"/>
    <nd ref="65464576"/>
    <nd ref="564663931"/>
    <nd ref="747728171"/>
    <nd ref="747728172"/>
    <nd ref="564663537"/>
    <tag k="bicycle" v="designated"/>
    <tag k="highway" v="secondary"/>
    <tag k="name" v="South Delaware Street"/>
    <tag k="tiger:cfcc" v="A41"/>
    <tag k="tiger:county" v="San Mateo, CA"/>
    <tag k="tiger:name_base" v="Delaware"/>
    <tag k="tiger:name_direction_prefix" v="S"/>
    <tag k="tiger:name_type" v="St"/>
    <tag k="tiger:separated" v="no"/>
    <tag k="tiger:source" v="tiger_import_dch_v0.6_20070809"/>
    <tag k="tiger:tlid" v="192379949:192392918"/>
    <tag k="tiger:zip_left" v="94403"/>
    <tag k="tiger:zip_right" v="94402"/>
  </way>
  <way id="44417446" version="11" timestamp="2011-11-23T10:06:38Z" uid="202256" user="Telecas" changeset="9919036">
    <nd ref="65389571"/>
    <nd ref="65472770"/>
    <nd ref="65472774"/>
    <nd ref="65413903"/>
    <nd ref="65472776"/>
    <nd ref="65472781"/>
    <nd ref="98258424"/>
    <nd ref="262256291"/>
    <nd ref="483412696"/>
    <nd ref="65472783"/>
    <nd ref="427846551"/>
    <nd ref="65403698"/>
    <nd ref="750523286"/>
    <nd ref="65460095"/>
    <tag k="bicycle" v="designated"/>
    <tag k="highway" v="secondary"/>
    <tag k="name" v="South Delaware Street"/>
    <tag k="tiger:cfcc" v="A41"/>
    <tag k="tiger:county" v="San Mateo, CA"/>
    <tag k="tiger:name_base" v="Delaware"/>
    <tag k="tiger:name_direction_prefix" v="S"/>
    <tag k="tiger:name_type" v="St"/>
    <tag k="tiger:separated" v="no"/>
    <tag k="tiger:source" v="tiger_import_dch_v0.6_20070809"/>
    <tag k="tiger:tlid" v="192379949:192392918"/>
    <tag k="tiger:zip_left" v="94403"/>
    <tag k="tiger:zip_right" v="94402"/>
  </way>
  <way id="44417453" version="2" timestamp="2010-03-28T11:22:08Z" uid="20587" user="balrog-kun" changeset="4254597">
    <nd ref="65510320"/>
    <nd ref="65510323"/>
    <tag k="highway" v="residential"/>
    <tag k="name" v="Leslie Street"/>
    <tag k="tiger:cfcc" v="A41"/>
    <tag k="tiger:county" v="San Mateo, CA"/>
    <tag k="tiger:name_base" v="Leslie"/>
    <tag k="tiger:name_type" v="St"/>
    <tag k="tiger:separated" v="no"/>
    <tag k="tiger:source" v="tiger_import_dch_v0.6_20070809"/>
    <tag k="tiger:tlid" v="192379656:192404105:192404106"/>
    <tag k="tiger:zip_left" v="94403"/>
    <tag k="tiger:zip_right" v="94403"/>
  </way>
  <way id="44417453" version="3" timestamp="2011-01-31T06:36:05Z" uid="201724" user="mk408" changeset="7142369">
    <nd ref="65510320"/>
    <nd ref="65510323"/>
    <tag k="highway" v="unclassified"/>
    <tag k="name" v="Leslie Street"/>
    <tag k="tiger:county" v="San Mateo, CA"/>
    <tag k="tiger:name_base" v="Leslie"/>
    <tag k="tiger:name_type" v="St"/>
    <tag k="tiger:zip_left" v="94403"/>
    <tag k="tiger:zip_right" v="94403"/>
  </way>
  <way id="44417453" version="4" timestamp="2012-02-16T20:52:03Z" uid="14293" user="JuxTPosition" changeset="10705748">
    <nd ref="65510320"/>
    <nd ref="1635697096"/>
    <nd ref="1635697017"/>
    <nd ref="1635696827"/>
    <nd ref="1635697091"/>
    <nd ref="65510323"/>
    <tag k="highway" v="unclassified"/>
    <tag k="name" v="Leslie Street"/>
    <tag k="tiger:county" v="San Mateo, CA"/>
    <tag k="tiger:name_base" v="Leslie"/>
    <tag k="tiger:name_type" v="St"/>
    <tag k="tiger:zip_left" v="94403"/>
    <tag k="tiger:zip_right" v="94403"/>
  </way>
  <way id="44417504" version="1" timestamp="2009-11-15T08:55:39Z" uid="34428" user="usm78-gis" changeset="3119776">
    <nd ref="441267027"/>
    <nd ref="270548996"/>
    <nd ref="270548997"/>
    <nd ref="270548999"/>
    <nd ref="441267028"/>
    <nd ref="441267029"/>
    <nd ref="441267030"/>
    <nd ref="441267031"/>
    <nd ref="441267032"/>
    <nd ref="441267033"/>
    <tag k="highway" v="track"/>
  </way>
  <way id="44417504" version="2" timestamp="2010-08-25T16:46:10Z" uid="34428" user="usm78-gis" changeset="5591279">
    <nd ref="441267027"/>
    <nd ref="270548996"/>
    <nd ref="270548997"/>
    <nd ref="270548999"/>
    <nd ref="441267028"/>
    <nd ref="441267029"/>
    <nd ref="441267030"/>
    <nd ref="441267031"/>
    <nd ref="441267032"/>
    <nd ref="441267033"/>
    <nd ref="879030723"/>
    <nd ref="879031256"/>
    <tag k="highway" v="track"/>
  </way>
  <way id="44417505" version="1" timestamp="2009-11-15T08:55:41Z" uid="34428" user="usm78-gis" changeset="3119776">
    <nd ref="270548990"/>
    <nd ref="270548991"/>
    <nd ref="270548992"/>
    <nd ref="270548993"/>
    <nd ref="270548994"/>
    <nd ref="270548995"/>
    <nd ref="441267027"/>
    <tag k="highway" v="track"/>
  </way>
  <way id="44417507" version="1" timestamp="2009-11-15T08:56:10Z" uid="34428" user="usm78-gis" changeset="3119776">
    <nd ref="441266997"/>
    <nd ref="441266998"/>
    <nd ref="441267000"/>
    <nd ref="441267004"/>
    <nd ref="441267006"/>
    <nd ref="441267008"/>
    <nd ref="441267009"/>
    <nd ref="441267011"/>
    <nd ref="441267013"/>
    <nd ref="441267016"/>
    <nd ref="441267018"/>
    <nd ref="441267020"/>
    <nd ref="441267022"/>
    <nd ref="441267023"/>
    <nd ref="441267024"/>
    <nd ref="441267025"/>
    <nd ref="441267026"/>
    <nd ref="441267027"/>
    <tag k="highway" v="track"/>
  </way>
  <way id="44417508" version="1" timestamp="2009-11-15T08:56:24Z" uid="34428" user="usm78-gis" changeset="3119776">
    <nd ref="441266997"/>
    <nd ref="564614709"/>
    <nd ref="564614710"/>
    <nd ref="564614711"/>
    <nd ref="564614712"/>
    <tag k="highway" v="track"/>
  </way>
  <way id="44417566" version="2" timestamp="2010-07-08T16:28:53Z" uid="74617" user="JohnSmith" changeset="5167338">
    <nd ref="361763101"/>
    <nd ref="564615158"/>
    <nd ref="564615159"/>
    <nd ref="564615160"/>
    <nd ref="564615161"/>
    <nd ref="564615162"/>
    <nd ref="564615163"/>
    <nd ref="564615171"/>
    <nd ref="564615172"/>
    <nd ref="564615164"/>
    <nd ref="564615165"/>
    <nd ref="564615173"/>
    <nd ref="564615174"/>
    <nd ref="564615166"/>
    <nd ref="564615167"/>
    <nd ref="564615168"/>
    <nd ref="564615169"/>
    <nd ref="564615170"/>
    <nd ref="361763100"/>
    <tag k="highway" v="residential"/>
    <tag k="maxspeed" v="50"/>
    <tag k="maxspeed:source" v="default residential speed limit in Australia"/>
    <tag k="surface" v="asphalt"/>
  </way>
  <way id="44417566" version="3" timestamp="2010-12-08T12:10:40Z" uid="67896" user="mrpulley" changeset="6584410">
    <nd ref="1027959697"/>
    <nd ref="564615158"/>
    <nd ref="564615159"/>
    <nd ref="564615160"/>
    <nd ref="564615161"/>
    <nd ref="564615162"/>
    <nd ref="564615163"/>
    <nd ref="564615171"/>
    <nd ref="564615172"/>
    <nd ref="564615164"/>
    <nd ref="564615165"/>
    <nd ref="564615173"/>
    <nd ref="564615174"/>
    <nd ref="564615166"/>
    <nd ref="564615167"/>
    <nd ref="564615168"/>
    <nd ref="564615169"/>
    <nd ref="564615170"/>
    <nd ref="1027959699"/>
    <tag k="highway" v="unclassified"/>
    <tag k="maxspeed" v="100"/>
    <tag k="surface" v="asphalt"/>
  </way>
  <way id="44417566" version="4" timestamp="2012-01-19T09:16:42Z" uid="147510" user="woodpeck_fixbot" changeset="10434386">
    <nd ref="1027959697"/>
    <nd ref="564615158"/>
    <nd ref="564615159"/>
    <nd ref="564615160"/>
    <nd ref="564615161"/>
    <nd ref="564615162"/>
    <nd ref="564615163"/>
    <nd ref="564615171"/>
    <nd ref="564615172"/>
    <nd ref="564615164"/>
    <nd ref="564615165"/>
    <nd ref="564615173"/>
    <nd ref="564615174"/>
    <nd ref="564615166"/>
    <nd ref="564615167"/>
    <nd ref="564615168"/>
    <nd ref="564615169"/>
    <nd ref="564615170"/>
    <nd ref="1027959699"/>
    <tag k="highway" v="unclassified"/>
    <tag k="surface" v="asphalt"/>
  </way>
  <way id="44417570" version="1" timestamp="2009-11-15T09:03:21Z" uid="34428" user="usm78-gis" changeset="3119776">
    <nd ref="276541179"/>
    <nd ref="568500"/>
    <nd ref="289452287"/>
    <nd ref="289452254"/>
    <nd ref="310667"/>
    <tag k="highway" v="secondary"/>
    <tag k="name" v="Крепостная ул."/>
  </way>
  <way id="44417570" version="2" timestamp="2009-11-15T09:03:28Z" uid="34428" user="usm78-gis" changeset="3119776">
    <nd ref="276541179"/>
    <nd ref="568500"/>
    <nd ref="289452287"/>
    <tag k="highway" v="secondary"/>
    <tag k="name" v="Крепостная ул."/>
  </way>
  <way id="44417570" version="3" timestamp="2011-02-08T22:16:26Z" uid="288925" user="BoomEngine" changeset="7231549">
    <nd ref="276541179"/>
    <nd ref="289452287"/>
    <tag k="highway" v="secondary"/>
    <tag k="name" v="Крепостная ул."/>
  </way>
  <way id="44417570" version="4" timestamp="2011-02-10T21:19:16Z" uid="288925" user="BoomEngine" changeset="7249754">
    <nd ref="276541179"/>
    <nd ref="289452287"/>
    <tag k="addr:city" v="Выборг"/>
    <tag k="addr:country" v="RU"/>
    <tag k="highway" v="secondary"/>
    <tag k="name" v="Крепостная ул."/>
  </way>
  <way id="44417570" version="5" timestamp="2011-02-12T11:40:58Z" uid="288925" user="BoomEngine" changeset="7263726">
    <nd ref="276541179"/>
    <nd ref="289452287"/>
    <tag k="addr:city" v="Выборг"/>
    <tag k="addr:country" v="RU"/>
    <tag k="cladr:code" v="47006001000007000"/>
    <tag k="cladr:name" v="Крепостная"/>
    <tag k="cladr:suffix" v="Улица"/>
    <tag k="highway" v="secondary"/>
    <tag k="name" v="Крепостная улица"/>
  </way>
  <way id="44417570" version="6" timestamp="2011-02-12T20:53:12Z" uid="288925" user="BoomEngine" changeset="7269345">
    <nd ref="276541179"/>
    <nd ref="289452287"/>
    <nd ref="289452254"/>
    <nd ref="310667"/>
    <tag k="addr:city" v="Выборг"/>
    <tag k="addr:country" v="RU"/>
    <tag k="cladr:code" v="47006001000007000"/>
    <tag k="cladr:name" v="Крепостная"/>
    <tag k="cladr:suffix" v="Улица"/>
    <tag k="highway" v="secondary"/>
    <tag k="name" v="Крепостная улица"/>
  </way>
  <way id="44417570" version="7" timestamp="2011-12-27T05:14:23Z" uid="392109" user="GaM" changeset="10212858">
    <nd ref="276541179"/>
    <nd ref="289452287"/>
    <nd ref="289452254"/>
    <nd ref="310667"/>
    <tag k="addr:city" v="Выборг"/>
    <tag k="addr:country" v="RU"/>
    <tag k="highway" v="primary"/>
    <tag k="name" v="Крепостная улица"/>
  </way>
  <way id="44417570" version="8" timestamp="2012-02-11T22:57:08Z" uid="472653" user="Pavel47" changeset="10658474">
    <nd ref="276541179"/>
    <nd ref="1628956391"/>
    <nd ref="289452287"/>
    <nd ref="289452254"/>
    <nd ref="310667"/>
    <tag k="addr:city" v="Выборг"/>
    <tag k="addr:country" v="RU"/>
    <tag k="highway" v="primary"/>
    <tag k="name" v="Крепостная улица"/>
  </way>
  <way id="44417570" version="9" timestamp="2012-02-11T23:10:47Z" uid="472653" user="Pavel47" changeset="10658572">
    <nd ref="276541179"/>
    <nd ref="1628973521"/>
    <nd ref="1628956391"/>
    <nd ref="289452287"/>
    <nd ref="289452254"/>
    <nd ref="310667"/>
    <tag k="addr:city" v="Выборг"/>
    <tag k="addr:country" v="RU"/>
    <tag k="highway" v="primary"/>
    <tag k="name" v="Крепостная улица"/>
  </way>
  <way id="44417570" version="10" timestamp="2012-02-13T20:38:14Z" uid="472653" user="Pavel47" changeset="10677280">
    <nd ref="276541179"/>
    <nd ref="1628973521"/>
    <nd ref="1628956391"/>
    <nd ref="289452287"/>
    <nd ref="289452254"/>
    <nd ref="1631813709"/>
    <nd ref="310667"/>
    <tag k="addr:city" v="Выборг"/>
    <tag k="addr:country" v="RU"/>
    <tag k="highway" v="primary"/>
    <tag k="name" v="Крепостная улица"/>
  </way>
  <way id="44417571" version="1" timestamp="2009-11-15T09:03:22Z" uid="34428" user="usm78-gis" changeset="3119776">
    <nd ref="288310612"/>
    <nd ref="276541179"/>
    <tag k="highway" v="secondary"/>
    <tag k="name" v="Крепостная ул."/>
  </way>
  <way id="44417571" version="2" timestamp="2011-02-10T21:20:11Z" uid="288925" user="BoomEngine" changeset="7249754">
    <nd ref="288310612"/>
    <nd ref="276541179"/>
    <tag k="addr:city" v="Выборг"/>
    <tag k="addr:country" v="RU"/>
    <tag k="highway" v="secondary"/>
    <tag k="name" v="Крепостная ул."/>
  </way>
  <way id="44417571" version="3" timestamp="2011-02-12T11:41:05Z" uid="288925" user="BoomEngine" changeset="7263726">
    <nd ref="288310612"/>
    <nd ref="276541179"/>
    <tag k="addr:city" v="Выборг"/>
    <tag k="addr:country" v="RU"/>
    <tag k="cladr:code" v="47006001000007000"/>
    <tag k="cladr:name" v="Крепостная"/>
    <tag k="cladr:suffix" v="Улица"/>
    <tag k="highway" v="secondary"/>
    <tag k="name" v="Крепостная улица"/>
  </way>
  <way id="44417571" version="4" timestamp="2011-02-12T12:46:45Z" uid="288925" user="BoomEngine" changeset="7264301">
    <nd ref="310671"/>
    <nd ref="310670"/>
    <nd ref="289449410"/>
    <nd ref="288310612"/>
    <nd ref="276541179"/>
    <tag k="addr:city" v="Выборг"/>
    <tag k="addr:country" v="RU"/>
    <tag k="cladr:code" v="47006001000007000"/>
    <tag k="cladr:name" v="Крепостная"/>
    <tag k="cladr:suffix" v="Улица"/>
    <tag k="highway" v="secondary"/>
    <tag k="name" v="Крепостная улица"/>
  </way>
  <way id="44417571" version="5" timestamp="2011-12-27T05:14:23Z" uid="392109" user="GaM" changeset="10212858">
    <nd ref="310671"/>
    <nd ref="310670"/>
    <nd ref="289449410"/>
    <nd ref="288310612"/>
    <nd ref="276541179"/>
    <tag k="addr:city" v="Выборг"/>
    <tag k="addr:country" v="RU"/>
    <tag k="highway" v="primary"/>
    <tag k="name" v="Крепостная улица"/>
  </way>
  <way id="44417571" version="6" timestamp="2012-02-11T21:46:14Z" uid="472653" user="Pavel47" changeset="10657888">
    <nd ref="310671"/>
    <nd ref="310670"/>
    <nd ref="289449410"/>
    <nd ref="288310612"/>
    <nd ref="1628887166"/>
    <nd ref="276541179"/>
    <tag k="addr:city" v="Выборг"/>
    <tag k="addr:country" v="RU"/>
    <tag k="highway" v="primary"/>
    <tag k="name" v="Крепостная улица"/>
  </way>
  <way id="44417571" version="7" timestamp="2012-03-25T07:38:45Z" uid="472653" user="Pavel47" changeset="11091996">
    <nd ref="310671"/>
    <nd ref="310670"/>
    <nd ref="1690045821"/>
    <nd ref="1690045785"/>
    <nd ref="289449410"/>
    <nd ref="288310612"/>
    <nd ref="1628887166"/>
    <nd ref="276541179"/>
    <tag k="addr:city" v="Выборг"/>
    <tag k="addr:country" v="RU"/>
    <tag k="highway" v="primary"/>
    <tag k="name" v="Крепостная улица"/>
  </way>
  <way id="44417571" version="8" timestamp="2012-03-27T12:42:39Z" uid="472653" user="Pavel47" changeset="11116057">
    <nd ref="310671"/>
    <nd ref="1693183098"/>
    <nd ref="1693183093"/>
    <nd ref="310670"/>
    <nd ref="1690045821"/>
    <nd ref="1690045785"/>
    <nd ref="289449410"/>
    <nd ref="288310612"/>
    <nd ref="1628887166"/>
    <nd ref="276541179"/>
    <tag k="addr:city" v="Выборг"/>
    <tag k="addr:country" v="RU"/>
    <tag k="highway" v="primary"/>
    <tag k="name" v="Крепостная улица"/>
  </way>
  <way id="44417571" version="9" timestamp="2012-03-28T13:36:26Z" uid="472653" user="Pavel47" changeset="11127169">
    <nd ref="310671"/>
    <nd ref="1694738916"/>
    <nd ref="1693183098"/>
    <nd ref="1693183093"/>
    <nd ref="1694738876"/>
    <nd ref="310670"/>
    <nd ref="1690045821"/>
    <nd ref="1690045785"/>
    <nd ref="289449410"/>
    <nd ref="288310612"/>
    <nd ref="1628887166"/>
    <nd ref="276541179"/>
    <tag k="addr:city" v="Выборг"/>
    <tag k="addr:country" v="RU"/>
    <tag k="highway" v="primary"/>
    <tag k="name" v="Крепостная улица"/>
  </way>
  <way id="44417571" version="10" timestamp="2012-03-29T21:16:27Z" uid="472653" user="Pavel47" changeset="11144803">
    <nd ref="310671"/>
    <nd ref="1694738916"/>
    <nd ref="1693183098"/>
    <nd ref="1693183093"/>
    <nd ref="1694738876"/>
    <nd ref="310670"/>
    <nd ref="1696804664"/>
    <nd ref="1690045821"/>
    <nd ref="1690045785"/>
    <nd ref="289449410"/>
    <nd ref="1696804615"/>
    <nd ref="288310612"/>
    <nd ref="1628887166"/>
    <nd ref="276541179"/>
    <tag k="addr:city" v="Выборг"/>
    <tag k="addr:country" v="RU"/>
    <tag k="highway" v="primary"/>
    <tag k="name" v="Крепостная улица"/>
  </way>
  <way id="44417572" version="1" timestamp="2009-11-15T09:03:25Z" uid="34428" user="usm78-gis" changeset="3119776">
    <nd ref="289449410"/>
    <nd ref="288310612"/>
    <tag k="highway" v="secondary"/>
    <tag k="name" v="Крепостная ул."/>
  </way>
  <way id="44417572" version="2" timestamp="2011-02-10T21:20:00Z" uid="288925" user="BoomEngine" changeset="7249754">
    <nd ref="289449410"/>
    <nd ref="288310612"/>
    <tag k="addr:city" v="Выборг"/>
    <tag k="addr:country" v="RU"/>
    <tag k="highway" v="secondary"/>
    <tag k="name" v="Крепостная ул."/>
  </way>
  <way id="44417572" version="3" timestamp="2011-02-12T11:41:13Z" uid="288925" user="BoomEngine" changeset="7263726">
    <nd ref="289449410"/>
    <nd ref="288310612"/>
    <tag k="addr:city" v="Выборг"/>
    <tag k="addr:country" v="RU"/>
    <tag k="cladr:code" v="47006001000007000"/>
    <tag k="cladr:name" v="Крепостная"/>
    <tag k="cladr:suffix" v="Улица"/>
    <tag k="highway" v="secondary"/>
    <tag k="name" v="Крепостная улица"/>
  </way>
  <way id="44417572" version="4" timestamp="2011-02-12T12:46:54Z" uid="288925" user="BoomEngine" changeset="7264301"/>
  <way id="44417573" version="1" timestamp="2009-11-15T09:03:28Z" uid="34428" user="usm78-gis" changeset="3119776">
    <nd ref="289452287"/>
    <nd ref="289452254"/>
    <nd ref="310667"/>
    <tag k="highway" v="secondary"/>
    <tag k="name" v="Крепостная ул."/>
  </way>
  <way id="44417573" version="2" timestamp="2009-11-15T09:03:31Z" uid="34428" user="usm78-gis" changeset="3119776">
    <nd ref="289452287"/>
    <nd ref="289452254"/>
    <tag k="highway" v="secondary"/>
    <tag k="name" v="Крепостная ул."/>
  </way>
  <way id="44417573" version="3" timestamp="2011-02-10T21:19:21Z" uid="288925" user="BoomEngine" changeset="7249754">
    <nd ref="289452287"/>
    <nd ref="289452254"/>
    <tag k="addr:city" v="Выборг"/>
    <tag k="addr:country" v="RU"/>
    <tag k="highway" v="secondary"/>
    <tag k="name" v="Крепостная ул."/>
  </way>
  <way id="44417573" version="4" timestamp="2011-02-12T11:41:03Z" uid="288925" user="BoomEngine" changeset="7263726">
    <nd ref="289452287"/>
    <nd ref="289452254"/>
    <tag k="addr:city" v="Выборг"/>
    <tag k="addr:country" v="RU"/>
    <tag k="cladr:code" v="47006001000007000"/>
    <tag k="cladr:name" v="Крепостная"/>
    <tag k="cladr:suffix" v="Улица"/>
    <tag k="highway" v="secondary"/>
    <tag k="name" v="Крепостная улица"/>
  </way>
  <way id="44417573" version="5" timestamp="2011-02-12T20:53:46Z" uid="288925" user="BoomEngine" changeset="7269345"/>
  <way id="44417575" version="1" timestamp="2009-11-15T09:03:30Z" uid="34428" user="usm78-gis" changeset="3119776">
    <nd ref="289452254"/>
    <nd ref="310667"/>
    <tag k="highway" v="secondary"/>
    <tag k="name" v="Крепостная ул."/>
  </way>
  <way id="44417575" version="2" timestamp="2011-02-10T21:19:01Z" uid="288925" user="BoomEngine" changeset="7249754">
    <nd ref="289452254"/>
    <nd ref="310667"/>
    <tag k="addr:city" v="Выборг"/>
    <tag k="addr:country" v="RU"/>
    <tag k="highway" v="secondary"/>
    <tag k="name" v="Крепостная ул."/>
  </way>
  <way id="44417575" version="3" timestamp="2011-02-12T11:41:00Z" uid="288925" user="BoomEngine" changeset="7263726">
    <nd ref="289452254"/>
    <nd ref="310667"/>
    <tag k="addr:city" v="Выборг"/>
    <tag k="addr:country" v="RU"/>
    <tag k="cladr:code" v="47006001000007000"/>
    <tag k="cladr:name" v="Крепостная"/>
    <tag k="cladr:suffix" v="Улица"/>
    <tag k="highway" v="secondary"/>
    <tag k="name" v="Крепостная улица"/>
  </way>
  <way id="44417575" version="4" timestamp="2011-02-12T20:53:47Z" uid="288925" user="BoomEngine" changeset="7269345"/>
  <way id="44417576" version="1" timestamp="2009-11-15T09:03:36Z" uid="34428" user="usm78-gis" changeset="3119776">
    <nd ref="310667"/>
    <nd ref="506871923"/>
    <tag k="highway" v="residential"/>
    <tag k="name" v="ул. Васильева"/>
  </way>
  <way id="44417576" version="2" timestamp="2011-02-10T21:20:23Z" uid="288925" user="BoomEngine" changeset="7249754">
    <nd ref="310667"/>
    <nd ref="506871923"/>
    <tag k="addr:city" v="Выборг"/>
    <tag k="addr:country" v="RU"/>
    <tag k="highway" v="residential"/>
    <tag k="name" v="ул. Васильева"/>
  </way>
  <way id="44417576" version="3" timestamp="2011-02-12T21:10:16Z" uid="288925" user="BoomEngine" changeset="7269514">
    <nd ref="310667"/>
    <nd ref="506871923"/>
    <tag k="addr:city" v="Выборг"/>
    <tag k="addr:country" v="RU"/>
    <tag k="cladr:code" v="47006001000002300"/>
    <tag k="cladr:name" v="Михаила Васильева"/>
    <tag k="cladr:suffix" v="Улица"/>
    <tag k="highway" v="residential"/>
    <tag k="name" v="улица Михаила Васильева"/>
  </way>
  <way id="44417576" version="4" timestamp="2011-07-24T18:15:58Z" uid="93165" user="hkm" changeset="8819444"/>
  <way id="44417577" version="1" timestamp="2009-11-15T09:03:40Z" uid="34428" user="usm78-gis" changeset="3119776">
    <nd ref="506871922"/>
    <nd ref="312822873"/>
    <nd ref="289452296"/>
    <nd ref="289456934"/>
    <nd ref="289456926"/>
    <nd ref="289456927"/>
    <nd ref="289456933"/>
    <tag k="highway" v="residential"/>
    <tag k="name" v="бул. Кутузова"/>
    <tag k="oneway" v="yes"/>
  </way>
  <way id="44417577" version="2" timestamp="2009-11-15T09:03:43Z" uid="34428" user="usm78-gis" changeset="3119776">
    <nd ref="506871922"/>
    <nd ref="312822873"/>
    <tag k="highway" v="residential"/>
    <tag k="name" v="бул. Кутузова"/>
    <tag k="oneway" v="yes"/>
  </way>
  <way id="44417577" version="3" timestamp="2011-02-08T21:19:29Z" uid="288925" user="BoomEngine" changeset="7230972">
    <nd ref="506871922"/>
    <nd ref="312822873"/>
    <tag k="cladr:code" v="47006001000007500"/>
    <tag k="cladr:name" v="Кутузова"/>
    <tag k="cladr:suffix" v="Бульвар"/>
    <tag k="highway" v="residential"/>
    <tag k="name" v="бульвар Кутузова"/>
    <tag k="oneway" v="yes"/>
  </way>
  <way id="44417577" version="4" timestamp="2011-02-12T20:53:47Z" uid="288925" user="BoomEngine" changeset="7269345"/>
  <way id="44417578" version="1" timestamp="2009-11-15T09:03:41Z" uid="34428" user="usm78-gis" changeset="3119776">
    <nd ref="289452254"/>
    <nd ref="506871922"/>
    <tag k="highway" v="residential"/>
    <tag k="name" v="бул. Кутузова"/>
    <tag k="oneway" v="yes"/>
  </way>
  <way id="44417578" version="2" timestamp="2011-02-08T21:19:25Z" uid="288925" user="BoomEngine" changeset="7230972">
    <nd ref="289452254"/>
    <nd ref="506871922"/>
    <tag k="cladr:code" v="47006001000007500"/>
    <tag k="cladr:name" v="Кутузова"/>
    <tag k="cladr:suffix" v="Бульвар"/>
    <tag k="highway" v="residential"/>
    <tag k="name" v="бульвар Кутузова"/>
    <tag k="oneway" v="yes"/>
  </way>
  <way id="44417578" version="3" timestamp="2011-02-12T20:53:47Z" uid="288925" user="BoomEngine" changeset="7269345"/>
  <way id="44417581" version="1" timestamp="2009-11-15T09:03:43Z" uid="34428" user="usm78-gis" changeset="3119776">
    <nd ref="312822873"/>
    <nd ref="289452296"/>
    <nd ref="289456934"/>
    <nd ref="289456926"/>
    <nd ref="289456927"/>
    <nd ref="289456933"/>
    <tag k="highway" v="residential"/>
    <tag k="name" v="бул. Кутузова"/>
    <tag k="oneway" v="yes"/>
  </way>
  <way id="44417581" version="2" timestamp="2009-11-15T09:03:45Z" uid="34428" user="usm78-gis" changeset="3119776">
    <nd ref="312822873"/>
    <nd ref="289452296"/>
    <tag k="highway" v="residential"/>
    <tag k="name" v="бул. Кутузова"/>
    <tag k="oneway" v="yes"/>
  </way>
  <way id="44417581" version="3" timestamp="2011-02-08T21:19:32Z" uid="288925" user="BoomEngine" changeset="7230972">
    <nd ref="312822873"/>
    <nd ref="289452296"/>
    <tag k="cladr:code" v="47006001000007500"/>
    <tag k="cladr:name" v="Кутузова"/>
    <tag k="cladr:suffix" v="Бульвар"/>
    <tag k="highway" v="residential"/>
    <tag k="name" v="бульвар Кутузова"/>
    <tag k="oneway" v="yes"/>
  </way>
  <way id="44417581" version="4" timestamp="2011-02-12T20:53:47Z" uid="288925" user="BoomEngine" changeset="7269345"/>
  <way id="44417582" version="1" timestamp="2009-11-15T09:03:45Z" uid="34428" user="usm78-gis" changeset="3119776">
    <nd ref="289452296"/>
    <nd ref="289456934"/>
    <nd ref="289456926"/>
    <nd ref="289456927"/>
    <nd ref="289456933"/>
    <tag k="highway" v="residential"/>
    <tag k="name" v="бул. Кутузова"/>
    <tag k="oneway" v="yes"/>
  </way>
  <way id="44417582" version="2" timestamp="2009-11-15T09:03:48Z" uid="34428" user="usm78-gis" changeset="3119776">
    <nd ref="289452296"/>
    <nd ref="289456934"/>
    <tag k="highway" v="residential"/>
    <tag k="name" v="бул. Кутузова"/>
    <tag k="oneway" v="yes"/>
  </way>
  <way id="44417582" version="3" timestamp="2011-02-08T21:19:28Z" uid="288925" user="BoomEngine" changeset="7230972">
    <nd ref="289452296"/>
    <nd ref="289456934"/>
    <tag k="cladr:code" v="47006001000007500"/>
    <tag k="cladr:name" v="Кутузова"/>
    <tag k="cladr:suffix" v="Бульвар"/>
    <tag k="highway" v="residential"/>
    <tag k="name" v="бульвар Кутузова"/>
    <tag k="oneway" v="yes"/>
  </way>
  <way id="44417582" version="4" timestamp="2011-02-12T20:53:46Z" uid="288925" user="BoomEngine" changeset="7269345"/>
  <way id="44417584" version="1" timestamp="2009-11-15T09:03:48Z" uid="34428" user="usm78-gis" changeset="3119776">
    <nd ref="289456934"/>
    <nd ref="289456926"/>
    <nd ref="289456927"/>
    <nd ref="289456933"/>
    <tag k="highway" v="residential"/>
    <tag k="name" v="бул. Кутузова"/>
    <tag k="oneway" v="yes"/>
  </way>
  <way id="44417584" version="2" timestamp="2009-11-15T09:03:51Z" uid="34428" user="usm78-gis" changeset="3119776">
    <nd ref="289456934"/>
    <nd ref="289456926"/>
    <tag k="highway" v="residential"/>
    <tag k="name" v="бул. Кутузова"/>
    <tag k="oneway" v="yes"/>
  </way>
  <way id="44417584" version="3" timestamp="2011-02-08T21:19:28Z" uid="288925" user="BoomEngine" changeset="7230972">
    <nd ref="289456934"/>
    <nd ref="289456926"/>
    <tag k="cladr:code" v="47006001000007500"/>
    <tag k="cladr:name" v="Кутузова"/>
    <tag k="cladr:suffix" v="Бульвар"/>
    <tag k="highway" v="residential"/>
    <tag k="name" v="бульвар Кутузова"/>
    <tag k="oneway" v="yes"/>
  </way>
  <way id="44417584" version="4" timestamp="2011-02-12T20:53:47Z" uid="288925" user="BoomEngine" changeset="7269345"/>
  <way id="44417585" version="1" timestamp="2009-11-15T09:03:50Z" uid="34428" user="usm78-gis" changeset="3119776">
    <nd ref="289456926"/>
    <nd ref="289456927"/>
    <nd ref="289456933"/>
    <tag k="highway" v="residential"/>
    <tag k="name" v="бул. Кутузова"/>
    <tag k="oneway" v="yes"/>
  </way>
  <way id="44417585" version="2" timestamp="2009-11-15T09:03:54Z" uid="34428" user="usm78-gis" changeset="3119776">
    <nd ref="289456926"/>
    <nd ref="289456927"/>
    <tag k="highway" v="residential"/>
    <tag k="name" v="бул. Кутузова"/>
    <tag k="oneway" v="yes"/>
  </way>
  <way id="44417585" version="3" timestamp="2010-12-03T18:58:48Z" uid="136198" user="tmprec" changeset="6529811">
    <nd ref="289456926"/>
    <nd ref="1018783502"/>
    <nd ref="289456927"/>
    <tag k="highway" v="residential"/>
    <tag k="name" v="бул. Кутузова"/>
    <tag k="oneway" v="yes"/>
  </way>
  <way id="44417585" version="4" timestamp="2011-02-08T21:19:27Z" uid="288925" user="BoomEngine" changeset="7230972">
    <nd ref="289456926"/>
    <nd ref="1018783502"/>
    <nd ref="289456927"/>
    <tag k="cladr:code" v="47006001000007500"/>
    <tag k="cladr:name" v="Кутузова"/>
    <tag k="cladr:suffix" v="Бульвар"/>
    <tag k="highway" v="residential"/>
    <tag k="name" v="бульвар Кутузова"/>
    <tag k="oneway" v="yes"/>
  </way>
  <way id="44417585" version="5" timestamp="2011-02-12T20:53:46Z" uid="288925" user="BoomEngine" changeset="7269345"/>
  <way id="44417586" version="1" timestamp="2009-11-15T09:03:54Z" uid="34428" user="usm78-gis" changeset="3119776">
    <nd ref="289456927"/>
    <nd ref="289456933"/>
    <tag k="highway" v="residential"/>
    <tag k="name" v="бул. Кутузова"/>
    <tag k="oneway" v="yes"/>
  </way>
  <way id="44417586" version="2" timestamp="2011-02-08T21:19:30Z" uid="288925" user="BoomEngine" changeset="7230972">
    <nd ref="289456927"/>
    <nd ref="289456933"/>
    <tag k="cladr:code" v="47006001000007500"/>
    <tag k="cladr:name" v="Кутузова"/>
    <tag k="cladr:suffix" v="Бульвар"/>
    <tag k="highway" v="residential"/>
    <tag k="name" v="бульвар Кутузова"/>
    <tag k="oneway" v="yes"/>
  </way>
  <way id="44417586" version="3" timestamp="2011-02-12T20:53:47Z" uid="288925" user="BoomEngine" changeset="7269345"/>
  <way id="44417587" version="1" timestamp="2009-11-15T09:04:02Z" uid="34428" user="usm78-gis" changeset="3119776">
    <nd ref="289452215"/>
    <nd ref="289452296"/>
    <nd ref="213590016"/>
    <nd ref="213590017"/>
    <tag k="highway" v="residential"/>
    <tag k="name" v="пр. Ленина"/>
  </way>
  <way id="44417587" version="2" timestamp="2010-09-08T01:16:20Z" uid="339232" user="Micogen" changeset="5713465">
    <nd ref="289452215"/>
    <nd ref="289452296"/>
    <nd ref="213590016"/>
    <nd ref="213590017"/>
    <tag k="highway" v="residential"/>
    <tag k="name" v="проспект Ленина"/>
  </way>
  <way id="44417587" version="3" timestamp="2011-02-08T22:31:27Z" uid="288925" user="BoomEngine" changeset="7231689">
    <nd ref="289452215"/>
    <nd ref="289452296"/>
    <nd ref="213590016"/>
    <nd ref="213590017"/>
    <tag k="cladr:code" v="47006001000007600"/>
    <tag k="cladr:name" v="Ленина"/>
    <tag k="cladr:suffix" v="Проспект"/>
    <tag k="highway" v="residential"/>
    <tag k="name" v="проспект Ленина"/>
    <tag k="oneway" v="yes"/>
  </way>
  <way id="44417587" version="4" timestamp="2011-02-09T20:13:53Z" uid="288925" user="BoomEngine" changeset="7239801">
    <nd ref="213590014"/>
    <nd ref="289452215"/>
    <nd ref="289452296"/>
    <nd ref="1144409091"/>
    <nd ref="213590016"/>
    <nd ref="1144409088"/>
    <nd ref="213590017"/>
    <tag k="cladr:code" v="47006001000007600"/>
    <tag k="cladr:name" v="Ленина"/>
    <tag k="cladr:suffix" v="Проспект"/>
    <tag k="highway" v="residential"/>
    <tag k="name" v="проспект Ленина"/>
    <tag k="oneway" v="yes"/>
  </way>
  <way id="44417587" version="5" timestamp="2011-02-12T21:40:40Z" uid="288925" user="BoomEngine" changeset="7269800"/>
  <way id="44417588" version="1" timestamp="2009-11-15T09:04:05Z" uid="34428" user="usm78-gis" changeset="3119776">
    <nd ref="213590014"/>
    <nd ref="213590015"/>
    <nd ref="289452215"/>
    <tag k="highway" v="residential"/>
    <tag k="name" v="пр. Ленина"/>
  </way>
  <way id="44417588" version="2" timestamp="2010-09-08T01:16:17Z" uid="339232" user="Micogen" changeset="5713465">
    <nd ref="213590014"/>
    <nd ref="213590015"/>
    <nd ref="289452215"/>
    <tag k="highway" v="residential"/>
    <tag k="name" v="проспект Ленина"/>
  </way>
  <way id="44417588" version="3" timestamp="2011-02-08T22:16:32Z" uid="288925" user="BoomEngine" changeset="7231549">
    <nd ref="213590014"/>
    <nd ref="289452215"/>
    <tag k="highway" v="residential"/>
    <tag k="name" v="проспект Ленина"/>
  </way>
  <way id="44417588" version="4" timestamp="2011-02-08T22:31:29Z" uid="288925" user="BoomEngine" changeset="7231689">
    <nd ref="213590014"/>
    <nd ref="289452215"/>
    <tag k="cladr:code" v="47006001000007600"/>
    <tag k="cladr:name" v="Ленина"/>
    <tag k="cladr:suffix" v="Проспект"/>
    <tag k="highway" v="residential"/>
    <tag k="name" v="проспект Ленина"/>
    <tag k="oneway" v="yes"/>
  </way>
  <way id="44417588" version="5" timestamp="2011-02-09T20:13:59Z" uid="288925" user="BoomEngine" changeset="7239801"/>
  <way id="44417592" version="1" timestamp="2009-11-15T09:04:51Z" uid="34428" user="usm78-gis" changeset="3119776">
    <nd ref="357203888"/>
    <nd ref="289452287"/>
    <nd ref="289452220"/>
    <tag k="highway" v="residential"/>
    <tag k="name" v="бул. Кутузова"/>
    <tag k="oneway" v="yes"/>
  </way>
  <way id="44417592" version="2" timestamp="2009-11-15T09:04:56Z" uid="34428" user="usm78-gis" changeset="3119776">
    <nd ref="357203888"/>
    <nd ref="289452287"/>
    <tag k="highway" v="residential"/>
    <tag k="name" v="бул. Кутузова"/>
    <tag k="oneway" v="yes"/>
  </way>
  <way id="44417592" version="3" timestamp="2011-02-08T21:19:26Z" uid="288925" user="BoomEngine" changeset="7230972">
    <nd ref="357203888"/>
    <nd ref="289452287"/>
    <tag k="cladr:code" v="47006001000007500"/>
    <tag k="cladr:name" v="Кутузова"/>
    <tag k="cladr:suffix" v="Бульвар"/>
    <tag k="highway" v="residential"/>
    <tag k="name" v="бульвар Кутузова"/>
    <tag k="oneway" v="yes"/>
  </way>
  <way id="44417592" version="4" timestamp="2011-02-12T20:53:13Z" uid="288925" user="BoomEngine" changeset="7269345">
    <nd ref="357203888"/>
    <nd ref="289452287"/>
    <tag k="addr:city" v="Выборг"/>
    <tag k="addr:country" v="RU"/>
    <tag k="cladr:code" v="47006001000007500"/>
    <tag k="cladr:name" v="Кутузова"/>
    <tag k="cladr:suffix" v="Бульвар"/>
    <tag k="highway" v="residential"/>
    <tag k="name" v="бульвар Кутузова"/>
    <tag k="oneway" v="yes"/>
  </way>
  <way id="44417592" version="5" timestamp="2011-02-15T22:10:52Z" uid="288925" user="BoomEngine" changeset="7299667"/>
  <way id="44417593" version="1" timestamp="2009-11-15T09:04:56Z" uid="34428" user="usm78-gis" changeset="3119776">
    <nd ref="289452287"/>
    <nd ref="289452220"/>
    <tag k="highway" v="residential"/>
    <tag k="name" v="бул. Кутузова"/>
    <tag k="oneway" v="yes"/>
  </way>
  <way id="44417593" version="2" timestamp="2011-02-08T21:19:25Z" uid="288925" user="BoomEngine" changeset="7230972">
    <nd ref="289452287"/>
    <nd ref="289452220"/>
    <tag k="cladr:code" v="47006001000007500"/>
    <tag k="cladr:name" v="Кутузова"/>
    <tag k="cladr:suffix" v="Бульвар"/>
    <tag k="highway" v="residential"/>
    <tag k="name" v="бульвар Кутузова"/>
    <tag k="oneway" v="yes"/>
  </way>
  <way id="44417593" version="3" timestamp="2011-02-12T20:53:36Z" uid="288925" user="BoomEngine" changeset="7269345">
    <nd ref="289452287"/>
    <nd ref="289452220"/>
    <tag k="addr:city" v="Выборг"/>
    <tag k="addr:country" v="RU"/>
    <tag k="cladr:code" v="47006001000007500"/>
    <tag k="cladr:name" v="Кутузова"/>
    <tag k="cladr:suffix" v="Бульвар"/>
    <tag k="highway" v="residential"/>
    <tag k="name" v="бульвар Кутузова"/>
    <tag k="oneway" v="yes"/>
  </way>
  <way id="44417593" version="4" timestamp="2011-02-15T22:10:49Z" uid="288925" user="BoomEngine" changeset="7299667">
    <nd ref="506871912"/>
    <nd ref="1011966074"/>
    <nd ref="1011966317"/>
    <nd ref="1018783494"/>
    <nd ref="213587428"/>
    <nd ref="506871930"/>
    <nd ref="213587429"/>
    <nd ref="289452215"/>
    <nd ref="357203888"/>
    <nd ref="289452287"/>
    <nd ref="289452220"/>
    <tag k="addr:city" v="Выборг"/>
    <tag k="addr:country" v="RU"/>
    <tag k="cladr:code" v="47006001000007500"/>
    <tag k="cladr:name" v="Кутузова"/>
    <tag k="cladr:suffix" v="Бульвар"/>
    <tag k="highway" v="residential"/>
    <tag k="name" v="бульвар Кутузова"/>
    <tag k="oneway" v="yes"/>
  </way>
  <way id="44417593" version="5" timestamp="2011-02-18T21:14:43Z" uid="288925" user="BoomEngine" changeset="7326570">
    <nd ref="506871912"/>
    <nd ref="1011966317"/>
    <nd ref="1018783494"/>
    <nd ref="213587428"/>
    <nd ref="506871930"/>
    <nd ref="213587429"/>
    <nd ref="289452215"/>
    <nd ref="357203888"/>
    <nd ref="289452287"/>
    <nd ref="289452220"/>
    <tag k="addr:city" v="Выборг"/>
    <tag k="addr:country" v="RU"/>
    <tag k="cladr:code" v="47006001000007500"/>
    <tag k="cladr:name" v="Кутузова"/>
    <tag k="cladr:suffix" v="Бульвар"/>
    <tag k="highway" v="residential"/>
    <tag k="name" v="бульвар Кутузова"/>
    <tag k="oneway" v="yes"/>
  </way>
  <way id="44417593" version="6" timestamp="2011-10-31T17:39:53Z" uid="472653" user="Pavel47" changeset="9705725">
    <nd ref="506871912"/>
    <nd ref="1011966317"/>
    <nd ref="1018783494"/>
    <nd ref="213587428"/>
    <nd ref="506871930"/>
    <nd ref="213587429"/>
    <nd ref="289452215"/>
    <nd ref="357203888"/>
    <nd ref="289452287"/>
    <tag k="addr:city" v="Выборг"/>
    <tag k="addr:country" v="RU"/>
    <tag k="cladr:code" v="47006001000007500"/>
    <tag k="cladr:name" v="Кутузова"/>
    <tag k="cladr:suffix" v="Бульвар"/>
    <tag k="highway" v="residential"/>
    <tag k="name" v="бульвар Кутузова"/>
    <tag k="oneway" v="yes"/>
  </way>
  <way id="44417593" version="7" timestamp="2011-12-11T16:10:00Z" uid="472653" user="Pavel47" changeset="10091167">
    <nd ref="506871912"/>
    <nd ref="1011966317"/>
    <nd ref="1541003382"/>
    <nd ref="1018783494"/>
    <nd ref="1541003378"/>
    <nd ref="213587428"/>
    <nd ref="506871930"/>
    <nd ref="213587429"/>
    <nd ref="289452215"/>
    <nd ref="357203888"/>
    <nd ref="289452287"/>
    <tag k="addr:city" v="Выборг"/>
    <tag k="addr:country" v="RU"/>
    <tag k="cladr:code" v="47006001000007500"/>
    <tag k="cladr:name" v="Кутузова"/>
    <tag k="cladr:suffix" v="Бульвар"/>
    <tag k="highway" v="residential"/>
    <tag k="name" v="бульвар Кутузова"/>
    <tag k="oneway" v="yes"/>
  </way>
  <way id="44417593" version="8" timestamp="2011-12-12T10:56:22Z" uid="395588" user="Danidin9" changeset="10097803">
    <nd ref="506871912"/>
    <nd ref="1011966317"/>
    <nd ref="1018783494"/>
    <nd ref="213587428"/>
    <nd ref="506871930"/>
    <nd ref="213587429"/>
    <nd ref="289452215"/>
    <nd ref="357203888"/>
    <nd ref="289452287"/>
    <tag k="addr:city" v="Выборг"/>
    <tag k="addr:country" v="RU"/>
    <tag k="cladr:code" v="47006001000007500"/>
    <tag k="cladr:name" v="Кутузова"/>
    <tag k="cladr:suffix" v="Бульвар"/>
    <tag k="highway" v="residential"/>
    <tag k="name" v="бульвар Кутузова"/>
    <tag k="oneway" v="yes"/>
  </way>
  <way id="44417593" version="9" timestamp="2012-01-02T21:08:32Z" uid="472653" user="Pavel47" changeset="10276101">
    <nd ref="506871912"/>
    <nd ref="1011966317"/>
    <nd ref="1018783494"/>
    <nd ref="213587428"/>
    <nd ref="506871930"/>
    <nd ref="213587429"/>
    <nd ref="289452215"/>
    <nd ref="357203888"/>
    <nd ref="289452287"/>
    <tag k="addr:city" v="Выборг"/>
    <tag k="addr:country" v="RU"/>
    <tag k="cladr:code" v="47006001000007500"/>
    <tag k="cladr:name" v="Кутузова"/>
    <tag k="cladr:suffix" v="Бульвар"/>
    <tag k="highway" v="tertiary"/>
    <tag k="name" v="бульвар Кутузова"/>
    <tag k="oneway" v="yes"/>
  </way>
  <way id="44417593" version="10" timestamp="2012-01-05T00:03:23Z" uid="472653" user="Pavel47" changeset="10296775">
    <nd ref="506871912"/>
    <nd ref="1011966317"/>
    <nd ref="1577474158"/>
    <nd ref="1577474157"/>
    <nd ref="1018783494"/>
    <nd ref="213587428"/>
    <nd ref="506871930"/>
    <nd ref="213587429"/>
    <nd ref="289452215"/>
    <nd ref="357203888"/>
    <nd ref="289452287"/>
    <tag k="addr:city" v="Выборг"/>
    <tag k="addr:country" v="RU"/>
    <tag k="cladr:code" v="47006001000007500"/>
    <tag k="cladr:name" v="Кутузова"/>
    <tag k="cladr:suffix" v="Бульвар"/>
    <tag k="highway" v="tertiary"/>
    <tag k="name" v="бульвар Кутузова"/>
    <tag k="oneway" v="yes"/>
  </way>
  <way id="44417597" version="1" timestamp="2009-11-15T09:05:14Z" uid="34428" user="usm78-gis" changeset="3119776">
    <nd ref="289452215"/>
    <nd ref="357203888"/>
    <tag k="highway" v="residential"/>
    <tag k="name" v="бул. Кутузова"/>
    <tag k="oneway" v="yes"/>
  </way>
  <way id="44417597" version="2" timestamp="2011-02-08T21:19:28Z" uid="288925" user="BoomEngine" changeset="7230972">
    <nd ref="289452215"/>
    <nd ref="357203888"/>
    <tag k="cladr:code" v="47006001000007500"/>
    <tag k="cladr:name" v="Кутузова"/>
    <tag k="cladr:suffix" v="Бульвар"/>
    <tag k="highway" v="residential"/>
    <tag k="name" v="бульвар Кутузова"/>
    <tag k="oneway" v="yes"/>
  </way>
  <way id="44417597" version="3" timestamp="2011-02-12T20:53:25Z" uid="288925" user="BoomEngine" changeset="7269345">
    <nd ref="289452215"/>
    <nd ref="357203888"/>
    <tag k="addr:city" v="Выборг"/>
    <tag k="addr:country" v="RU"/>
    <tag k="cladr:code" v="47006001000007500"/>
    <tag k="cladr:name" v="Кутузова"/>
    <tag k="cladr:suffix" v="Бульвар"/>
    <tag k="highway" v="residential"/>
    <tag k="name" v="бульвар Кутузова"/>
    <tag k="oneway" v="yes"/>
  </way>
  <way id="44417597" version="4" timestamp="2011-02-15T22:10:53Z" uid="288925" user="BoomEngine" changeset="7299667"/>
  <way id="44417598" version="1" timestamp="2009-11-15T09:05:16Z" uid="34428" user="usm78-gis" changeset="3119776">
    <nd ref="213587429"/>
    <nd ref="289452215"/>
    <tag k="highway" v="residential"/>
    <tag k="name" v="бул. Кутузова"/>
    <tag k="oneway" v="yes"/>
  </way>
  <way id="44417598" version="2" timestamp="2011-02-08T21:19:32Z" uid="288925" user="BoomEngine" changeset="7230972">
    <nd ref="213587429"/>
    <nd ref="289452215"/>
    <tag k="cladr:code" v="47006001000007500"/>
    <tag k="cladr:name" v="Кутузова"/>
    <tag k="cladr:suffix" v="Бульвар"/>
    <tag k="highway" v="residential"/>
    <tag k="name" v="бульвар Кутузова"/>
    <tag k="oneway" v="yes"/>
  </way>
  <way id="44417598" version="3" timestamp="2011-02-12T20:53:04Z" uid="288925" user="BoomEngine" changeset="7269345">
    <nd ref="213587429"/>
    <nd ref="289452215"/>
    <tag k="addr:city" v="Выборг"/>
    <tag k="addr:country" v="RU"/>
    <tag k="cladr:code" v="47006001000007500"/>
    <tag k="cladr:name" v="Кутузова"/>
    <tag k="cladr:suffix" v="Бульвар"/>
    <tag k="highway" v="residential"/>
    <tag k="name" v="бульвар Кутузова"/>
    <tag k="oneway" v="yes"/>
  </way>
  <way id="44417598" version="4" timestamp="2011-02-15T22:10:53Z" uid="288925" user="BoomEngine" changeset="7299667"/>
  <way id="44417599" version="1" timestamp="2009-11-15T09:05:17Z" uid="34428" user="usm78-gis" changeset="3119776">
    <nd ref="506871930"/>
    <nd ref="213587429"/>
    <tag k="highway" v="residential"/>
    <tag k="name" v="бул. Кутузова"/>
    <tag k="oneway" v="yes"/>
  </way>
  <way id="44417599" version="2" timestamp="2011-02-08T21:19:30Z" uid="288925" user="BoomEngine" changeset="7230972">
    <nd ref="506871930"/>
    <nd ref="213587429"/>
    <tag k="cladr:code" v="47006001000007500"/>
    <tag k="cladr:name" v="Кутузова"/>
    <tag k="cladr:suffix" v="Бульвар"/>
    <tag k="highway" v="residential"/>
    <tag k="name" v="бульвар Кутузова"/>
    <tag k="oneway" v="yes"/>
  </way>
  <way id="44417599" version="3" timestamp="2011-02-12T20:53:31Z" uid="288925" user="BoomEngine" changeset="7269345">
    <nd ref="506871930"/>
    <nd ref="213587429"/>
    <tag k="addr:city" v="Выборг"/>
    <tag k="addr:country" v="RU"/>
    <tag k="cladr:code" v="47006001000007500"/>
    <tag k="cladr:name" v="Кутузова"/>
    <tag k="cladr:suffix" v="Бульвар"/>
    <tag k="highway" v="residential"/>
    <tag k="name" v="бульвар Кутузова"/>
    <tag k="oneway" v="yes"/>
  </way>
  <way id="44417599" version="4" timestamp="2011-02-15T22:10:52Z" uid="288925" user="BoomEngine" changeset="7299667"/>
  <way id="44417600" version="1" timestamp="2009-11-15T09:05:19Z" uid="34428" user="usm78-gis" changeset="3119776">
    <nd ref="213587428"/>
    <nd ref="506871930"/>
    <tag k="highway" v="residential"/>
    <tag k="name" v="бул. Кутузова"/>
    <tag k="oneway" v="yes"/>
  </way>
  <way id="44417600" version="2" timestamp="2011-02-08T21:19:30Z" uid="288925" user="BoomEngine" changeset="7230972">
    <nd ref="213587428"/>
    <nd ref="506871930"/>
    <tag k="cladr:code" v="47006001000007500"/>
    <tag k="cladr:name" v="Кутузова"/>
    <tag k="cladr:suffix" v="Бульвар"/>
    <tag k="highway" v="residential"/>
    <tag k="name" v="бульвар Кутузова"/>
    <tag k="oneway" v="yes"/>
  </way>
  <way id="44417600" version="3" timestamp="2011-02-12T20:53:21Z" uid="288925" user="BoomEngine" changeset="7269345">
    <nd ref="213587428"/>
    <nd ref="506871930"/>
    <tag k="addr:city" v="Выборг"/>
    <tag k="addr:country" v="RU"/>
    <tag k="cladr:code" v="47006001000007500"/>
    <tag k="cladr:name" v="Кутузова"/>
    <tag k="cladr:suffix" v="Бульвар"/>
    <tag k="highway" v="residential"/>
    <tag k="name" v="бульвар Кутузова"/>
    <tag k="oneway" v="yes"/>
  </way>
  <way id="44417600" version="4" timestamp="2011-02-15T22:10:52Z" uid="288925" user="BoomEngine" changeset="7299667"/>
  <way id="44417607" version="1" timestamp="2009-11-15T09:05:47Z" uid="34428" user="usm78-gis" changeset="3119776">
    <nd ref="564615332"/>
    <nd ref="564615333"/>
    <nd ref="564615334"/>
    <nd ref="564615335"/>
    <nd ref="564615336"/>
    <nd ref="564615337"/>
    <nd ref="564615338"/>
    <nd ref="354051012"/>
    <tag k="highway" v="service"/>
  </way>
  <way id="44417607" version="2" timestamp="2009-11-15T09:05:51Z" uid="34428" user="usm78-gis" changeset="3119776">
    <nd ref="564615332"/>
    <nd ref="564615333"/>
    <nd ref="564615334"/>
    <nd ref="564615335"/>
    <nd ref="564615336"/>
    <nd ref="564615337"/>
    <tag k="highway" v="service"/>
  </way>
  <way id="44417607" version="3" timestamp="2011-08-25T12:22:34Z" uid="65083" user="deep125" changeset="9120907">
    <nd ref="564615332"/>
    <nd ref="564615333"/>
    <nd ref="564615334"/>
    <nd ref="564615335"/>
    <nd ref="564615336"/>
    <nd ref="564615337"/>
    <tag k="highway" v="service"/>
  </way>
  <way id="44417609" version="1" timestamp="2009-11-15T09:05:50Z" uid="34428" user="usm78-gis" changeset="3119776">
    <nd ref="564615337"/>
    <nd ref="564615338"/>
    <nd ref="354051012"/>
    <tag k="highway" v="service"/>
  </way>
  <way id="44417609" version="2" timestamp="2011-02-12T21:40:34Z" uid="288925" user="BoomEngine" changeset="7269800">
    <nd ref="564615337"/>
    <nd ref="564615338"/>
    <nd ref="1149651819"/>
    <tag k="highway" v="service"/>
  </way>
  <way id="44417609" version="3" timestamp="2011-02-15T21:06:42Z" uid="288925" user="BoomEngine" changeset="7299040">
    <nd ref="564615337"/>
    <nd ref="1155174120"/>
    <nd ref="564615338"/>
    <nd ref="1010922420"/>
    <tag k="highway" v="service"/>
  </way>
  <way id="44417610" version="1" timestamp="2009-11-15T09:05:59Z" uid="34428" user="usm78-gis" changeset="3119776">
    <nd ref="564615337"/>
    <nd ref="564615339"/>
    <nd ref="564615340"/>
    <nd ref="564615341"/>
    <tag k="highway" v="service"/>
  </way>
  <way id="44417610" version="2" timestamp="2011-08-25T12:22:34Z" uid="65083" user="deep125" changeset="9120907">
    <nd ref="564615337"/>
    <nd ref="1010923279"/>
    <nd ref="564615339"/>
    <nd ref="564615340"/>
    <nd ref="564615341"/>
    <tag k="highway" v="service"/>
  </way>
  <way id="44417612" version="1" timestamp="2009-11-15T09:06:19Z" uid="34428" user="usm78-gis" changeset="3119776">
    <nd ref="213590026"/>
    <nd ref="564615507"/>
    <nd ref="564615511"/>
    <nd ref="564615516"/>
    <nd ref="564615520"/>
    <nd ref="564615526"/>
    <nd ref="289456935"/>
    <tag k="highway" v="service"/>
  </way>
  <way id="44417612" version="2" timestamp="2011-03-16T20:15:46Z" uid="288925" user="BoomEngine" changeset="7579198"/>
  <way id="44417617" version="1" timestamp="2009-11-15T09:06:38Z" uid="34428" user="usm78-gis" changeset="3119776">
    <nd ref="564615507"/>
    <nd ref="564615909"/>
    <nd ref="564615911"/>
    <nd ref="564615914"/>
    <nd ref="213590027"/>
    <tag k="highway" v="service"/>
  </way>
  <way id="44417617" version="2" timestamp="2011-03-12T19:13:25Z" uid="288925" user="BoomEngine" changeset="7537056">
    <nd ref="564615507"/>
    <nd ref="564615909"/>
    <nd ref="564615914"/>
    <nd ref="213590027"/>
    <tag k="highway" v="service"/>
  </way>
  <way id="44417617" version="3" timestamp="2011-03-16T20:15:47Z" uid="288925" user="BoomEngine" changeset="7579198"/>
  <way id="44417626" version="1" timestamp="2009-11-15T09:07:05Z" uid="34428" user="usm78-gis" changeset="3119776">
    <nd ref="213591669"/>
    <nd ref="213592863"/>
    <nd ref="506871920"/>
    <nd ref="226364"/>
    <nd ref="213594954"/>
    <nd ref="213594747"/>
    <nd ref="213594749"/>
    <nd ref="226365"/>
    <nd ref="213594751"/>
    <nd ref="213594752"/>
    <nd ref="213594754"/>
    <nd ref="226366"/>
    <nd ref="213594756"/>
    <nd ref="226367"/>
    <nd ref="288310608"/>
    <tag k="highway" v="residential"/>
    <tag k="name" v="ул. Куйбышева"/>
  </way>
  <way id="44417626" version="2" timestamp="2009-11-15T09:07:11Z" uid="34428" user="usm78-gis" changeset="3119776">
    <nd ref="213591669"/>
    <nd ref="213592863"/>
    <tag k="highway" v="residential"/>
    <tag k="name" v="ул. Куйбышева"/>
  </way>
  <way id="44417626" version="3" timestamp="2011-02-10T21:20:03Z" uid="288925" user="BoomEngine" changeset="7249754">
    <nd ref="213591669"/>
    <nd ref="213592863"/>
    <tag k="addr:city" v="Выборг"/>
    <tag k="addr:country" v="RU"/>
    <tag k="highway" v="residential"/>
    <tag k="name" v="ул. Куйбышева"/>
  </way>
  <way id="44417626" version="4" timestamp="2011-02-16T14:13:36Z" uid="43262" user="KonTur" changeset="7304218">
    <nd ref="213591669"/>
    <nd ref="213592863"/>
    <tag k="addr:city" v="Выборг"/>
    <tag k="addr:country" v="RU"/>
    <tag k="highway" v="residential"/>
    <tag k="name" v="улица Куйбышева"/>
  </way>
  <way id="44417626" version="5" timestamp="2011-10-27T16:23:11Z" uid="540973" user="Olmoro" changeset="9669644">
    <nd ref="213591669"/>
    <nd ref="213592863"/>
    <tag k="addr:city" v="Выборг"/>
    <tag k="addr:country" v="RU"/>
    <tag k="highway" v="primary"/>
    <tag k="name" v="улица Куйбышева"/>
  </way>
  <way id="44417627" version="1" timestamp="2009-11-15T09:07:06Z" uid="34428" user="usm78-gis" changeset="3119776">
    <nd ref="226363"/>
    <nd ref="213591669"/>
    <tag k="highway" v="residential"/>
    <tag k="name" v="ул. Куйбышева"/>
  </way>
  <way id="44417627" version="2" timestamp="2011-02-10T21:19:25Z" uid="288925" user="BoomEngine" changeset="7249754">
    <nd ref="226363"/>
    <nd ref="213591669"/>
    <tag k="addr:city" v="Выборг"/>
    <tag k="addr:country" v="RU"/>
    <tag k="highway" v="residential"/>
    <tag k="name" v="ул. Куйбышева"/>
  </way>
  <way id="44417627" version="3" timestamp="2011-02-16T14:13:02Z" uid="43262" user="KonTur" changeset="7304218">
    <nd ref="226363"/>
    <nd ref="213591669"/>
    <tag k="addr:city" v="Выборг"/>
    <tag k="addr:country" v="RU"/>
    <tag k="highway" v="residential"/>
    <tag k="name" v="улица Куйбышева"/>
  </way>
  <way id="44417627" version="4" timestamp="2011-02-17T21:26:56Z" uid="288925" user="BoomEngine" changeset="7317668">
    <nd ref="226363"/>
    <nd ref="1158058470"/>
    <nd ref="213591669"/>
    <tag k="addr:city" v="Выборг"/>
    <tag k="addr:country" v="RU"/>
    <tag k="highway" v="residential"/>
    <tag k="name" v="улица Куйбышева"/>
  </way>
  <way id="44417627" version="5" timestamp="2011-10-27T16:23:11Z" uid="540973" user="Olmoro" changeset="9669644">
    <nd ref="226363"/>
    <nd ref="1158058470"/>
    <nd ref="213591669"/>
    <tag k="addr:city" v="Выборг"/>
    <tag k="addr:country" v="RU"/>
    <tag k="highway" v="primary"/>
    <tag k="name" v="улица Куйбышева"/>
  </way>
  <way id="44417628" version="1" timestamp="2009-11-15T09:07:08Z" uid="34428" user="usm78-gis" changeset="3119776">
    <nd ref="226362"/>
    <nd ref="226363"/>
    <tag k="highway" v="residential"/>
    <tag k="name" v="ул. Куйбышева"/>
  </way>
  <way id="44417628" version="2" timestamp="2010-09-08T01:16:28Z" uid="339232" user="Micogen" changeset="5713465">
    <nd ref="226362"/>
    <nd ref="226363"/>
    <tag k="highway" v="residential"/>
    <tag k="name" v="улица Куйбышева"/>
  </way>
  <way id="44417628" version="3" timestamp="2011-02-16T14:12:59Z" uid="43262" user="KonTur" changeset="7304218">
    <nd ref="226362"/>
    <nd ref="226363"/>
    <tag k="addr:city" v="Выборг"/>
    <tag k="addr:country" v="RU"/>
    <tag k="highway" v="residential"/>
    <tag k="name" v="улица Куйбышева"/>
  </way>
  <way id="44417628" version="4" timestamp="2011-02-17T21:26:22Z" uid="288925" user="BoomEngine" changeset="7317668">
    <nd ref="226362"/>
    <nd ref="1158058328"/>
    <nd ref="226363"/>
    <tag k="addr:city" v="Выборг"/>
    <tag k="addr:country" v="RU"/>
    <tag k="highway" v="residential"/>
    <tag k="name" v="улица Куйбышева"/>
  </way>
  <way id="44417628" version="5" timestamp="2011-10-27T16:23:12Z" uid="540973" user="Olmoro" changeset="9669644">
    <nd ref="226362"/>
    <nd ref="1158058328"/>
    <nd ref="226363"/>
    <tag k="addr:city" v="Выборг"/>
    <tag k="addr:country" v="RU"/>
    <tag k="highway" v="primary"/>
    <tag k="name" v="улица Куйбышева"/>
  </way>
  <way id="44417629" version="1" timestamp="2009-11-15T09:07:11Z" uid="34428" user="usm78-gis" changeset="3119776">
    <nd ref="213592863"/>
    <nd ref="506871920"/>
    <nd ref="226364"/>
    <nd ref="213594954"/>
    <nd ref="213594747"/>
    <nd ref="213594749"/>
    <nd ref="226365"/>
    <nd ref="213594751"/>
    <nd ref="213594752"/>
    <nd ref="213594754"/>
    <nd ref="226366"/>
    <nd ref="213594756"/>
    <nd ref="226367"/>
    <nd ref="288310608"/>
    <tag k="highway" v="residential"/>
    <tag k="name" v="ул. Куйбышева"/>
  </way>
  <way id="44417629" version="2" timestamp="2009-11-15T09:07:19Z" uid="34428" user="usm78-gis" changeset="3119776">
    <nd ref="213592863"/>
    <nd ref="506871920"/>
    <tag k="highway" v="residential"/>
    <tag k="name" v="ул. Куйбышева"/>
  </way>
  <way id="44417629" version="3" timestamp="2011-02-10T21:20:06Z" uid="288925" user="BoomEngine" changeset="7249754">
    <nd ref="213592863"/>
    <nd ref="506871920"/>
    <tag k="addr:city" v="Выборг"/>
    <tag k="addr:country" v="RU"/>
    <tag k="highway" v="residential"/>
    <tag k="name" v="ул. Куйбышева"/>
  </way>
  <way id="44417629" version="4" timestamp="2011-02-16T14:13:48Z" uid="43262" user="KonTur" changeset="7304218">
    <nd ref="213592863"/>
    <nd ref="506871920"/>
    <tag k="addr:city" v="Выборг"/>
    <tag k="addr:country" v="RU"/>
    <tag k="highway" v="residential"/>
    <tag k="name" v="улица Куйбышева"/>
  </way>
  <way id="44417629" version="5" timestamp="2011-03-19T21:16:00Z" uid="288925" user="BoomEngine" changeset="7610238">
    <nd ref="213592863"/>
    <nd ref="1209543591"/>
    <nd ref="506871920"/>
    <tag k="addr:city" v="Выборг"/>
    <tag k="addr:country" v="RU"/>
    <tag k="highway" v="residential"/>
    <tag k="name" v="улица Куйбышева"/>
  </way>
  <way id="44417629" version="6" timestamp="2011-10-27T16:23:12Z" uid="540973" user="Olmoro" changeset="9669644">
    <nd ref="213592863"/>
    <nd ref="1209543591"/>
    <nd ref="506871920"/>
    <tag k="addr:city" v="Выборг"/>
    <tag k="addr:country" v="RU"/>
    <tag k="highway" v="primary"/>
    <tag k="name" v="улица Куйбышева"/>
  </way>
  <way id="44417630" version="1" timestamp="2009-11-15T09:07:18Z" uid="34428" user="usm78-gis" changeset="3119776">
    <nd ref="506871920"/>
    <nd ref="226364"/>
    <nd ref="213594954"/>
    <nd ref="213594747"/>
    <nd ref="213594749"/>
    <nd ref="226365"/>
    <nd ref="213594751"/>
    <nd ref="213594752"/>
    <nd ref="213594754"/>
    <nd ref="226366"/>
    <nd ref="213594756"/>
    <nd ref="226367"/>
    <nd ref="288310608"/>
    <tag k="highway" v="residential"/>
    <tag k="name" v="ул. Куйбышева"/>
  </way>
  <way id="44417630" version="2" timestamp="2011-02-10T21:20:24Z" uid="288925" user="BoomEngine" changeset="7249754">
    <nd ref="506871920"/>
    <nd ref="226364"/>
    <nd ref="213594954"/>
    <nd ref="213594747"/>
    <nd ref="213594749"/>
    <nd ref="226365"/>
    <nd ref="213594751"/>
    <nd ref="213594752"/>
    <nd ref="213594754"/>
    <nd ref="226366"/>
    <nd ref="213594756"/>
    <nd ref="226367"/>
    <nd ref="288310608"/>
    <tag k="addr:city" v="Выборг"/>
    <tag k="addr:country" v="RU"/>
    <tag k="highway" v="residential"/>
    <tag k="name" v="ул. Куйбышева"/>
  </way>
  <way id="44417630" version="3" timestamp="2011-02-16T14:13:11Z" uid="43262" user="KonTur" changeset="7304218">
    <nd ref="506871920"/>
    <nd ref="226364"/>
    <nd ref="213594954"/>
    <nd ref="213594747"/>
    <nd ref="213594749"/>
    <nd ref="226365"/>
    <nd ref="213594751"/>
    <nd ref="213594752"/>
    <nd ref="213594754"/>
    <nd ref="226366"/>
    <nd ref="213594756"/>
    <nd ref="226367"/>
    <nd ref="288310608"/>
    <tag k="addr:city" v="Выборг"/>
    <tag k="addr:country" v="RU"/>
    <tag k="highway" v="residential"/>
    <tag k="name" v="улица Куйбышева"/>
  </way>
  <way id="44417630" version="4" timestamp="2011-03-19T20:50:57Z" uid="288925" user="BoomEngine" changeset="7609845">
    <nd ref="506871920"/>
    <nd ref="226364"/>
    <nd ref="1209490442"/>
    <nd ref="213594954"/>
    <nd ref="213594747"/>
    <nd ref="213594749"/>
    <nd ref="226365"/>
    <nd ref="213594751"/>
    <nd ref="213594752"/>
    <nd ref="213594754"/>
    <nd ref="226366"/>
    <nd ref="213594756"/>
    <nd ref="226367"/>
    <nd ref="288310608"/>
    <tag k="addr:city" v="Выборг"/>
    <tag k="addr:country" v="RU"/>
    <tag k="highway" v="residential"/>
    <tag k="name" v="улица Куйбышева"/>
  </way>
  <way id="44417630" version="5" timestamp="2011-10-27T16:23:12Z" uid="540973" user="Olmoro" changeset="9669644">
    <nd ref="506871920"/>
    <nd ref="226364"/>
    <nd ref="1209490442"/>
    <nd ref="213594954"/>
    <nd ref="213594747"/>
    <nd ref="213594749"/>
    <nd ref="226365"/>
    <nd ref="213594751"/>
    <nd ref="213594752"/>
    <nd ref="213594754"/>
    <nd ref="226366"/>
    <nd ref="213594756"/>
    <nd ref="226367"/>
    <nd ref="288310608"/>
    <tag k="addr:city" v="Выборг"/>
    <tag k="addr:country" v="RU"/>
    <tag k="highway" v="primary"/>
    <tag k="name" v="улица Куйбышева"/>
  </way>
  <way id="44417826" version="1" timestamp="2009-11-15T09:07:38Z" uid="34428" user="usm78-gis" changeset="3119776">
    <nd ref="289468634"/>
    <nd ref="289468631"/>
    <nd ref="289468632"/>
    <nd ref="289468626"/>
    <nd ref="289468624"/>
    <nd ref="289468583"/>
    <tag k="highway" v="residential"/>
    <tag k="name" v="пр. Победы"/>
  </way>
  <way id="44417826" version="2" timestamp="2010-12-24T21:32:14Z" uid="95117" user="one_half_3544" changeset="6757452">
    <nd ref="289468634"/>
    <nd ref="289468631"/>
    <nd ref="289468632"/>
    <nd ref="289468626"/>
    <nd ref="1010924664"/>
    <nd ref="289468624"/>
    <nd ref="289468583"/>
    <tag k="highway" v="residential"/>
    <tag k="name" v="пр. Победы"/>
  </way>
  <way id="44417826" version="3" timestamp="2011-02-12T23:53:00Z" uid="288925" user="BoomEngine" changeset="7270894"/>
  <way id="44417862" version="1" timestamp="2009-11-15T09:07:41Z" uid="34428" user="usm78-gis" changeset="3119776">
    <nd ref="357202331"/>
    <nd ref="289468628"/>
    <nd ref="289468589"/>
    <nd ref="289468634"/>
    <tag k="highway" v="residential"/>
    <tag k="name" v="пр. Победы"/>
  </way>
  <way id="44417862" version="2" timestamp="2011-02-12T23:53:00Z" uid="288925" user="BoomEngine" changeset="7270894"/>
  <way id="44417881" version="1" timestamp="2009-11-15T09:07:43Z" uid="34428" user="usm78-gis" changeset="3119776">
    <nd ref="354051043"/>
    <nd ref="289468609"/>
    <nd ref="289468602"/>
    <nd ref="289468611"/>
    <nd ref="357202331"/>
    <tag k="highway" v="residential"/>
    <tag k="name" v="пр. Победы"/>
  </way>
  <way id="44417881" version="2" timestamp="2010-12-24T21:05:05Z" uid="100812" user="Zkir" changeset="6757328">
    <nd ref="354051043"/>
    <nd ref="289468609"/>
    <nd ref="1010920130"/>
    <nd ref="289468602"/>
    <nd ref="289468611"/>
    <nd ref="357202331"/>
    <tag k="highway" v="residential"/>
    <tag k="name" v="пр. Победы"/>
  </way>
  <way id="44417881" version="3" timestamp="2011-02-12T23:53:00Z" uid="288925" user="BoomEngine" changeset="7270894"/>
  <way id="44417925" version="1" timestamp="2009-11-15T09:07:55Z" uid="7617" user="Franc" changeset="3119873">
    <nd ref="564616712"/>
    <nd ref="564616713"/>
    <nd ref="564616714"/>
    <nd ref="564616715"/>
    <nd ref="564616716"/>
    <nd ref="564616717"/>
    <nd ref="564616720"/>
    <nd ref="564616721"/>
    <nd ref="564616722"/>
    <tag k="highway" v="unclassified"/>
    <tag k="source" v="nearmap"/>
  </way>
  <way id="44417926" version="1" timestamp="2009-11-15T09:07:56Z" uid="7617" user="Franc" changeset="3119873">
    <nd ref="564616722"/>
    <nd ref="564616725"/>
    <nd ref="564616728"/>
    <nd ref="564616731"/>
    <nd ref="564616737"/>
    <nd ref="564616738"/>
    <nd ref="564616739"/>
    <nd ref="564616740"/>
    <nd ref="564616744"/>
    <nd ref="564616745"/>
    <nd ref="564616748"/>
    <nd ref="564616750"/>
    <nd ref="564616751"/>
    <nd ref="564616755"/>
    <nd ref="564616756"/>
    <nd ref="564616757"/>
    <nd ref="564616758"/>
    <nd ref="564616760"/>
    <tag k="complete" v="no"/>
    <tag k="highway" v="unclassified"/>
    <tag k="source" v="nearmap"/>
    <tag k="surface" v="unpaved"/>
  </way>
  <way id="44417926" version="2" timestamp="2009-11-15T10:51:19Z" uid="7617" user="Franc" changeset="3120495">
    <nd ref="564616722"/>
    <nd ref="564616725"/>
    <nd ref="564616728"/>
    <nd ref="564616731"/>
    <nd ref="564616737"/>
    <nd ref="564616738"/>
    <nd ref="564616739"/>
    <nd ref="564616740"/>
    <nd ref="564616744"/>
    <nd ref="564616745"/>
    <nd ref="564616748"/>
    <nd ref="564616750"/>
    <nd ref="564616751"/>
    <nd ref="564616755"/>
    <nd ref="564616756"/>
    <nd ref="564616757"/>
    <nd ref="564616758"/>
    <nd ref="564646036"/>
    <tag k="complete" v="no"/>
    <tag k="highway" v="unclassified"/>
    <tag k="source" v="nearmap"/>
    <tag k="surface" v="unpaved"/>
  </way>
  <way id="44417926" version="3" timestamp="2009-11-15T10:54:02Z" uid="74617" user="JohnSmith" changeset="3120499">
    <nd ref="564616722"/>
    <nd ref="564616725"/>
    <nd ref="564616728"/>
    <nd ref="564616731"/>
    <nd ref="564616737"/>
    <nd ref="564616738"/>
    <nd ref="564616739"/>
    <nd ref="564616740"/>
    <nd ref="564616744"/>
    <nd ref="564616745"/>
    <nd ref="564616748"/>
    <nd ref="564616750"/>
    <nd ref="564616751"/>
    <nd ref="564616755"/>
    <nd ref="564616756"/>
    <nd ref="564616757"/>
    <nd ref="564616758"/>
    <nd ref="564616760"/>
    <nd ref="564646677"/>
    <nd ref="564646678"/>
    <nd ref="564646680"/>
    <nd ref="564646681"/>
    <nd ref="564646683"/>
    <nd ref="564646687"/>
    <tag k="highway" v="unclassified"/>
    <tag k="source" v="nearmap"/>
    <tag k="surface" v="unpaved"/>
  </way>
  <way id="44417926" version="4" timestamp="2009-11-17T00:57:08Z" uid="1679" user="andrewpmk" changeset="3137601">
    <nd ref="564616722"/>
    <nd ref="564616725"/>
    <nd ref="564616728"/>
    <nd ref="564616731"/>
    <nd ref="564616737"/>
    <nd ref="564616738"/>
    <nd ref="564616739"/>
    <nd ref="564616740"/>
    <nd ref="564616744"/>
    <nd ref="564616745"/>
    <nd ref="564616748"/>
    <nd ref="564616750"/>
    <nd ref="564616751"/>
    <nd ref="564616755"/>
    <nd ref="564616756"/>
    <nd ref="564616757"/>
    <nd ref="564616758"/>
    <nd ref="565778991"/>
    <nd ref="564616760"/>
    <nd ref="564646700"/>
    <tag k="highway" v="unclassified"/>
    <tag k="source" v="nearmap"/>
    <tag k="surface" v="unpaved"/>
  </way>
  <way id="44417927" version="1" timestamp="2009-11-15T09:07:56Z" uid="7617" user="Franc" changeset="3119873">
    <nd ref="564616723"/>
    <nd ref="564616724"/>
    <nd ref="564616726"/>
    <nd ref="564616727"/>
    <nd ref="564616729"/>
    <nd ref="564616730"/>
    <nd ref="564616732"/>
    <nd ref="564616733"/>
    <nd ref="564616734"/>
    <nd ref="564616735"/>
    <nd ref="564616736"/>
    <nd ref="564616741"/>
    <nd ref="564616742"/>
    <nd ref="564616743"/>
    <nd ref="564616749"/>
    <nd ref="564616752"/>
    <nd ref="564616753"/>
    <nd ref="564616754"/>
    <nd ref="564616759"/>
    <tag k="complete" v="no"/>
    <tag k="man_made" v="pipeline"/>
    <tag k="type" v="water"/>
  </way>
  <way id="44417927" version="2" timestamp="2009-11-15T10:51:20Z" uid="7617" user="Franc" changeset="3120495">
    <nd ref="564616723"/>
    <nd ref="564616724"/>
    <nd ref="564616726"/>
    <nd ref="564616727"/>
    <nd ref="564616729"/>
    <nd ref="564616730"/>
    <nd ref="564616732"/>
    <nd ref="564616733"/>
    <nd ref="564616734"/>
    <nd ref="564616735"/>
    <nd ref="564616736"/>
    <nd ref="564616741"/>
    <nd ref="564616742"/>
    <nd ref="564616743"/>
    <nd ref="564616749"/>
    <nd ref="564616752"/>
    <nd ref="564616753"/>
    <nd ref="564616754"/>
    <nd ref="564616759"/>
    <tag k="man_made" v="pipeline"/>
    <tag k="type" v="water"/>
  </way>
  <way id="44417927" version="3" timestamp="2009-11-15T10:54:02Z" uid="74617" user="JohnSmith" changeset="3120499">
    <nd ref="564616723"/>
    <nd ref="564616724"/>
    <nd ref="564616726"/>
    <nd ref="564616727"/>
    <nd ref="564616729"/>
    <nd ref="564616730"/>
    <nd ref="564616732"/>
    <nd ref="564616733"/>
    <nd ref="564616734"/>
    <nd ref="564616735"/>
    <nd ref="564616736"/>
    <nd ref="564616741"/>
    <nd ref="564616742"/>
    <nd ref="564616743"/>
    <nd ref="564616749"/>
    <nd ref="564616752"/>
    <nd ref="564616753"/>
    <nd ref="564616754"/>
    <nd ref="564616759"/>
    <nd ref="564646679"/>
    <nd ref="564646682"/>
    <nd ref="564646684"/>
    <nd ref="564646688"/>
    <nd ref="564646690"/>
    <nd ref="564646691"/>
    <nd ref="564646692"/>
    <nd ref="564646693"/>
    <tag k="man_made" v="pipeline"/>
    <tag k="type" v="water"/>
  </way>
  <way id="44417927" version="4" timestamp="2009-11-17T00:57:07Z" uid="1679" user="andrewpmk" changeset="3137601">
    <nd ref="564616723"/>
    <nd ref="564616724"/>
    <nd ref="564616726"/>
    <nd ref="564616727"/>
    <nd ref="564616729"/>
    <nd ref="564616730"/>
    <nd ref="564616732"/>
    <nd ref="564616733"/>
    <nd ref="564616734"/>
    <nd ref="564616735"/>
    <nd ref="564616736"/>
    <nd ref="564616741"/>
    <nd ref="564616742"/>
    <nd ref="564616743"/>
    <nd ref="564616749"/>
    <nd ref="564616752"/>
    <nd ref="564616753"/>
    <nd ref="564616754"/>
    <nd ref="564616759"/>
    <nd ref="564646679"/>
    <nd ref="564646682"/>
    <nd ref="564646684"/>
    <nd ref="564646688"/>
    <nd ref="564646690"/>
    <nd ref="564646691"/>
    <nd ref="564646692"/>
    <nd ref="564646693"/>
    <tag k="man_made" v="pipeline"/>
    <tag k="source" v="nearmap"/>
    <tag k="type" v="water"/>
  </way>
  <way id="44417928" version="1" timestamp="2009-11-15T09:07:56Z" uid="7617" user="Franc" changeset="3119873">
    <nd ref="564616761"/>
    <nd ref="564616762"/>
    <tag k="complete" v="no"/>
    <tag k="highway" v="unclassified"/>
    <tag k="source" v="nearmap"/>
    <tag k="surface" v="unpaved"/>
  </way>
  <way id="44417928" version="2" timestamp="2009-11-15T09:26:50Z" uid="7617" user="Franc" changeset="3119960">
    <nd ref="564619135"/>
    <nd ref="564619134"/>
    <tag k="complete" v="no"/>
    <tag k="highway" v="unclassified"/>
    <tag k="source" v="nearmap"/>
    <tag k="surface" v="unpaved"/>
  </way>
  <way id="44417929" version="1" timestamp="2009-11-15T09:08:08Z" uid="34428" user="usm78-gis" changeset="3119776">
    <nd ref="289468634"/>
    <nd ref="564616770"/>
    <nd ref="564616771"/>
    <nd ref="564616772"/>
    <nd ref="564616773"/>
    <nd ref="564616775"/>
    <nd ref="564616778"/>
    <nd ref="564616779"/>
    <tag k="highway" v="service"/>
  </way>
  <way id="44417929" version="2" timestamp="2010-09-10T18:37:20Z" uid="345043" user="smeleyka" changeset="5743510">
    <nd ref="289468634"/>
    <nd ref="564616770"/>
    <nd ref="564616771"/>
    <nd ref="564616772"/>
    <nd ref="564616773"/>
    <nd ref="564616775"/>
    <nd ref="564616778"/>
    <nd ref="564616779"/>
    <tag k="highway" v="residential"/>
  </way>
  <way id="44417929" version="3" timestamp="2010-12-24T21:32:15Z" uid="95117" user="one_half_3544" changeset="6757452">
    <nd ref="289468634"/>
    <nd ref="564616770"/>
    <nd ref="564616771"/>
    <nd ref="564616772"/>
    <nd ref="564616773"/>
    <nd ref="564616775"/>
    <nd ref="564616778"/>
    <nd ref="1010920950"/>
    <nd ref="564616779"/>
    <tag k="highway" v="residential"/>
  </way>
  <way id="44417929" version="4" timestamp="2010-12-25T13:51:35Z" uid="95117" user="one_half_3544" changeset="6761007">
    <nd ref="289468634"/>
    <nd ref="564616770"/>
    <nd ref="564616771"/>
    <nd ref="564616772"/>
    <nd ref="564616773"/>
    <nd ref="1010921625"/>
    <nd ref="564616775"/>
    <nd ref="564616778"/>
    <nd ref="1010920950"/>
    <nd ref="564616779"/>
    <tag k="highway" v="residential"/>
  </way>
  <way id="44417929" version="5" timestamp="2011-02-13T19:57:52Z" uid="288925" user="BoomEngine" changeset="7279785">
    <nd ref="289468634"/>
    <nd ref="564616770"/>
    <nd ref="1010921565"/>
    <nd ref="1010921625"/>
    <nd ref="564616775"/>
    <nd ref="564616778"/>
    <nd ref="1010920950"/>
    <nd ref="564616779"/>
    <tag k="highway" v="residential"/>
  </way>
  <way id="44417929" version="6" timestamp="2011-03-12T16:57:32Z" uid="288925" user="BoomEngine" changeset="7535457">
    <nd ref="289468634"/>
    <nd ref="564616770"/>
    <nd ref="1010921565"/>
    <nd ref="1010921625"/>
    <nd ref="564616778"/>
    <nd ref="1010920950"/>
    <nd ref="564616779"/>
    <tag k="highway" v="residential"/>
  </way>
  <way id="44417929" version="7" timestamp="2011-03-12T17:53:24Z" uid="288925" user="BoomEngine" changeset="7536171">
    <nd ref="289468634"/>
    <nd ref="564616770"/>
    <nd ref="1010921565"/>
    <nd ref="1010921625"/>
    <nd ref="564616778"/>
    <nd ref="1010920950"/>
    <nd ref="564616779"/>
    <tag k="highway" v="residential"/>
    <tag k="name" v="Прорубная улица"/>
  </way>
  <way id="44417929" version="8" timestamp="2011-07-04T20:41:50Z" uid="288925" user="BoomEngine" changeset="8633732">
    <nd ref="289468634"/>
    <nd ref="564616770"/>
    <nd ref="1010921565"/>
    <nd ref="1010921625"/>
    <nd ref="564616778"/>
    <nd ref="1010920950"/>
    <nd ref="564616779"/>
    <tag k="cladr:code" v="47006001000023500"/>
    <tag k="cladr:name" v="Прорубная"/>
    <tag k="highway" v="residential"/>
    <tag k="name" v="Прорубная улица"/>
  </way>
  <way id="44417929" version="9" timestamp="2011-10-31T17:39:50Z" uid="472653" user="Pavel47" changeset="9705725">
    <nd ref="289468634"/>
    <nd ref="564616770"/>
    <nd ref="1010921565"/>
    <nd ref="1487553005"/>
    <nd ref="1010921625"/>
    <nd ref="564616778"/>
    <nd ref="1010920950"/>
    <nd ref="564616779"/>
    <tag k="cladr:code" v="47006001000023500"/>
    <tag k="cladr:name" v="Прорубная"/>
    <tag k="highway" v="residential"/>
    <tag k="name" v="Прорубная улица"/>
  </way>
  <way id="44417929" version="10" timestamp="2012-01-03T01:25:45Z" uid="472653" user="Pavel47" changeset="10277941">
    <nd ref="289468634"/>
    <nd ref="564616770"/>
    <nd ref="1010921565"/>
    <nd ref="1487553005"/>
    <nd ref="1010921625"/>
    <nd ref="564616778"/>
    <nd ref="1010920950"/>
    <nd ref="564616779"/>
    <tag k="cladr:code" v="47006001000023500"/>
    <tag k="cladr:name" v="Большая Прорубная"/>
    <tag k="highway" v="residential"/>
    <tag k="name" v="Большая Прорубная улица"/>
  </way>
  <way id="44417931" version="1" timestamp="2009-11-15T09:08:15Z" uid="34428" user="usm78-gis" changeset="3119776">
    <nd ref="564616779"/>
    <nd ref="226381"/>
    <nd ref="236530"/>
    <nd ref="310659"/>
    <nd ref="236531"/>
    <nd ref="226379"/>
    <nd ref="339511628"/>
    <nd ref="226378"/>
    <nd ref="226377"/>
    <nd ref="226376"/>
    <nd ref="226375"/>
    <nd ref="226374"/>
    <nd ref="288301985"/>
    <nd ref="226373"/>
    <nd ref="213546115"/>
    <nd ref="225091"/>
    <nd ref="225092"/>
    <nd ref="27466441"/>
    <nd ref="225093"/>
    <nd ref="225094"/>
    <nd ref="27466440"/>
    <nd ref="27466439"/>
    <nd ref="225095"/>
    <nd ref="27466438"/>
    <nd ref="288301981"/>
    <nd ref="27466437"/>
    <nd ref="225096"/>
    <nd ref="225097"/>
    <tag k="highway" v="primary"/>
    <tag k="name" v="Ленинградское ш."/>
  </way>
  <way id="44417931" version="2" timestamp="2009-11-15T09:08:18Z" uid="34428" user="usm78-gis" changeset="3119776">
    <nd ref="564616779"/>
    <nd ref="226381"/>
    <nd ref="236530"/>
    <nd ref="310659"/>
    <tag k="highway" v="primary"/>
    <tag k="name" v="Ленинградское ш."/>
  </way>
  <way id="44417931" version="3" timestamp="2010-09-24T16:37:56Z" uid="290271" user="Zverik" changeset="5864365">
    <nd ref="564616779"/>
    <nd ref="226381"/>
    <nd ref="236530"/>
    <nd ref="310659"/>
    <tag k="highway" v="primary"/>
    <tag k="name" v="Ленинградское шоссе"/>
    <tag k="surface" v="asphalt"/>
  </way>
  <way id="44417931" version="4" timestamp="2011-03-13T19:26:28Z" uid="288925" user="BoomEngine" changeset="7549270">
    <nd ref="564616779"/>
    <nd ref="226381"/>
    <nd ref="1200609909"/>
    <nd ref="1200610028"/>
    <nd ref="236530"/>
    <nd ref="1200609973"/>
    <nd ref="310659"/>
    <tag k="highway" v="primary"/>
    <tag k="name" v="Ленинградское шоссе"/>
    <tag k="surface" v="asphalt"/>
  </way>
  <way id="44417931" version="5" timestamp="2011-12-08T09:16:58Z" uid="446083" user="yuryleb" changeset="10063510">
    <nd ref="564616779"/>
    <nd ref="226381"/>
    <nd ref="1200609909"/>
    <nd ref="1200610028"/>
    <nd ref="236530"/>
    <nd ref="1200609973"/>
    <nd ref="310659"/>
    <tag k="highway" v="primary"/>
    <tag k="maxspeed" v="60"/>
    <tag k="name" v="Ленинградское шоссе"/>
    <tag k="surface" v="asphalt"/>
  </way>
  <way id="44417931" version="6" timestamp="2011-12-29T09:29:53Z" uid="472653" user="Pavel47" changeset="10233270"/>
  <way id="44417932" version="1" timestamp="2009-11-15T09:08:18Z" uid="34428" user="usm78-gis" changeset="3119776">
    <nd ref="310659"/>
    <nd ref="236531"/>
    <nd ref="226379"/>
    <nd ref="339511628"/>
    <nd ref="226378"/>
    <nd ref="226377"/>
    <nd ref="226376"/>
    <nd ref="226375"/>
    <nd ref="226374"/>
    <nd ref="288301985"/>
    <nd ref="226373"/>
    <nd ref="213546115"/>
    <nd ref="225091"/>
    <nd ref="225092"/>
    <nd ref="27466441"/>
    <nd ref="225093"/>
    <nd ref="225094"/>
    <nd ref="27466440"/>
    <nd ref="27466439"/>
    <nd ref="225095"/>
    <nd ref="27466438"/>
    <nd ref="288301981"/>
    <nd ref="27466437"/>
    <nd ref="225096"/>
    <nd ref="225097"/>
    <tag k="highway" v="primary"/>
    <tag k="name" v="Ленинградское ш."/>
  </way>
  <way id="44417932" version="2" timestamp="2010-09-21T21:47:43Z" uid="34428" user="usm78-gis" changeset="5841259">
    <nd ref="310659"/>
    <nd ref="236531"/>
    <nd ref="226379"/>
    <nd ref="339511628"/>
    <nd ref="226378"/>
    <nd ref="226377"/>
    <nd ref="226376"/>
    <nd ref="226375"/>
    <nd ref="226374"/>
    <tag k="highway" v="primary"/>
    <tag k="name" v="Ленинградское ш."/>
  </way>
  <way id="44417932" version="3" timestamp="2010-09-24T15:19:24Z" uid="290271" user="Zverik" changeset="5863701">
    <nd ref="310659"/>
    <nd ref="236531"/>
    <nd ref="226379"/>
    <nd ref="339511628"/>
    <nd ref="226378"/>
    <nd ref="226377"/>
    <nd ref="226376"/>
    <nd ref="226375"/>
    <nd ref="226374"/>
    <tag k="highway" v="primary"/>
    <tag k="name" v="Ленинградское ш."/>
    <tag k="surface" v="asphalt"/>
  </way>
  <way id="44417932" version="4" timestamp="2010-09-24T16:37:59Z" uid="290271" user="Zverik" changeset="5864365">
    <nd ref="310659"/>
    <nd ref="236531"/>
    <nd ref="226379"/>
    <nd ref="339511628"/>
    <nd ref="226378"/>
    <nd ref="226377"/>
    <nd ref="226376"/>
    <nd ref="226375"/>
    <nd ref="226374"/>
    <tag k="highway" v="primary"/>
    <tag k="name" v="Ленинградское шоссе"/>
    <tag k="surface" v="asphalt"/>
  </way>
  <way id="44417932" version="5" timestamp="2011-03-19T21:50:29Z" uid="288925" user="BoomEngine" changeset="7610696">
    <nd ref="310659"/>
    <nd ref="236531"/>
    <nd ref="1209615971"/>
    <nd ref="226379"/>
    <nd ref="339511628"/>
    <nd ref="226378"/>
    <nd ref="226377"/>
    <nd ref="226376"/>
    <nd ref="226375"/>
    <nd ref="226374"/>
    <tag k="highway" v="primary"/>
    <tag k="name" v="Ленинградское шоссе"/>
    <tag k="surface" v="asphalt"/>
  </way>
  <way id="44417932" version="6" timestamp="2011-07-24T20:44:19Z" uid="288925" user="BoomEngine" changeset="8821148">
    <nd ref="310659"/>
    <nd ref="236531"/>
    <nd ref="1209615971"/>
    <nd ref="226379"/>
    <nd ref="339511628"/>
    <nd ref="226378"/>
    <nd ref="226377"/>
    <nd ref="226376"/>
    <nd ref="1373036307"/>
    <nd ref="1373036283"/>
    <nd ref="226375"/>
    <nd ref="226374"/>
    <tag k="highway" v="primary"/>
    <tag k="name" v="Ленинградское шоссе"/>
    <tag k="surface" v="asphalt"/>
  </way>
  <way id="44417932" version="7" timestamp="2011-07-26T20:14:31Z" uid="288925" user="BoomEngine" changeset="8839598">
    <nd ref="310659"/>
    <nd ref="236531"/>
    <nd ref="1209615971"/>
    <nd ref="339511628"/>
    <nd ref="1375217505"/>
    <nd ref="226378"/>
    <nd ref="1375217501"/>
    <nd ref="226377"/>
    <nd ref="226376"/>
    <nd ref="1373036307"/>
    <nd ref="1373036283"/>
    <nd ref="226375"/>
    <nd ref="226374"/>
    <tag k="highway" v="primary"/>
    <tag k="name" v="Ленинградское шоссе"/>
    <tag k="surface" v="asphalt"/>
  </way>
  <way id="44417932" version="8" timestamp="2011-12-08T09:16:58Z" uid="446083" user="yuryleb" changeset="10063510">
    <nd ref="310659"/>
    <nd ref="236531"/>
    <nd ref="1209615971"/>
    <nd ref="339511628"/>
    <nd ref="1375217505"/>
    <nd ref="226378"/>
    <nd ref="1375217501"/>
    <nd ref="226377"/>
    <nd ref="226376"/>
    <nd ref="1373036307"/>
    <nd ref="1373036283"/>
    <nd ref="226375"/>
    <nd ref="226374"/>
    <tag k="highway" v="primary"/>
    <tag k="maxspeed" v="60"/>
    <tag k="name" v="Ленинградское шоссе"/>
    <tag k="surface" v="asphalt"/>
  </way>
  <way id="44417932" version="9" timestamp="2012-01-03T19:05:05Z" uid="472653" user="Pavel47" changeset="10284549">
    <nd ref="310659"/>
    <nd ref="236531"/>
    <tag k="highway" v="primary"/>
    <tag k="maxspeed" v="60"/>
    <tag k="name" v="Ленинградское шоссе"/>
    <tag k="surface" v="asphalt"/>
  </way>
  <way id="44417942" version="1" timestamp="2009-11-15T09:08:51Z" uid="34428" user="usm78-gis" changeset="3119776">
    <nd ref="310659"/>
    <nd ref="564616794"/>
    <nd ref="564616795"/>
    <nd ref="564616796"/>
    <nd ref="564616797"/>
    <nd ref="564616798"/>
    <nd ref="564616799"/>
    <nd ref="564616779"/>
    <tag k="highway" v="service"/>
  </way>
  <way id="44417942" version="2" timestamp="2010-09-10T18:37:20Z" uid="345043" user="smeleyka" changeset="5743510">
    <nd ref="310659"/>
    <nd ref="564616794"/>
    <nd ref="564616795"/>
    <nd ref="564616796"/>
    <nd ref="564616797"/>
    <nd ref="564616798"/>
    <nd ref="564616799"/>
    <nd ref="564616779"/>
    <tag k="highway" v="residential"/>
  </way>
  <way id="44417942" version="3" timestamp="2010-12-25T13:51:35Z" uid="95117" user="one_half_3544" changeset="6761007">
    <nd ref="310659"/>
    <nd ref="564616794"/>
    <nd ref="564616795"/>
    <nd ref="564616796"/>
    <nd ref="564616797"/>
    <tag k="highway" v="residential"/>
  </way>
  <way id="44417942" version="4" timestamp="2011-03-13T19:26:32Z" uid="288925" user="BoomEngine" changeset="7549270">
    <nd ref="310659"/>
    <nd ref="564616794"/>
    <nd ref="1200609956"/>
    <nd ref="564616795"/>
    <nd ref="564616797"/>
    <tag k="highway" v="service"/>
  </way>
  <way id="44417942" version="5" timestamp="2011-03-13T19:57:59Z" uid="288925" user="BoomEngine" changeset="7549613">
    <nd ref="310659"/>
    <nd ref="564616794"/>
    <nd ref="1200609956"/>
    <nd ref="564616795"/>
    <nd ref="564616797"/>
    <tag k="highway" v="track"/>
  </way>
  <way id="44417942" version="6" timestamp="2011-03-13T20:25:05Z" uid="288925" user="BoomEngine" changeset="7549888">
    <nd ref="310659"/>
    <nd ref="564616794"/>
    <nd ref="1200609956"/>
    <nd ref="564616795"/>
    <nd ref="1200690923"/>
    <tag k="highway" v="track"/>
  </way>
  <way id="44417942" version="7" timestamp="2011-07-04T20:41:50Z" uid="288925" user="BoomEngine" changeset="8633732">
    <nd ref="310659"/>
    <nd ref="1200690923"/>
    <nd ref="1349618254"/>
    <tag k="highway" v="service"/>
    <tag k="surface" v="asphalt"/>
  </way>
  <way id="44417946" version="1" timestamp="2009-11-15T09:09:30Z" uid="34428" user="usm78-gis" changeset="3119776">
    <nd ref="564616817"/>
    <nd ref="564616819"/>
    <nd ref="564616820"/>
    <tag k="highway" v="secondary"/>
  </way>
  <way id="44417946" version="2" timestamp="2010-09-07T23:00:57Z" uid="339232" user="Micogen" changeset="5712931">
    <nd ref="564616817"/>
    <nd ref="564616819"/>
    <nd ref="564616820"/>
    <tag k="highway" v="secondary"/>
    <tag k="name" v="ул. Железнодорожная"/>
  </way>
  <way id="44417946" version="3" timestamp="2010-09-08T01:16:23Z" uid="339232" user="Micogen" changeset="5713465">
    <nd ref="564616817"/>
    <nd ref="564616819"/>
    <nd ref="564616820"/>
    <tag k="highway" v="secondary"/>
    <tag k="name" v="Железнодорожная улица"/>
  </way>
  <way id="44417946" version="4" timestamp="2010-09-08T01:35:40Z" uid="339232" user="Micogen" changeset="5713494"/>
  <way id="44417948" version="1" timestamp="2009-11-15T09:09:43Z" uid="34428" user="usm78-gis" changeset="3119776">
    <nd ref="564616820"/>
    <nd ref="15491201"/>
    <nd ref="226360"/>
    <nd ref="226359"/>
    <nd ref="226358"/>
    <nd ref="226357"/>
    <nd ref="15491314"/>
    <tag k="highway" v="secondary"/>
    <tag k="name" v="Железнодорожная ул."/>
  </way>
  <way id="44417948" version="2" timestamp="2010-09-07T23:41:56Z" uid="339232" user="Micogen" changeset="5713107">
    <nd ref="564616820"/>
    <nd ref="901888111"/>
    <nd ref="15491201"/>
    <nd ref="226360"/>
    <nd ref="226359"/>
    <nd ref="226358"/>
    <nd ref="226357"/>
    <nd ref="15491314"/>
    <tag k="highway" v="secondary"/>
    <tag k="name" v="Железнодорожная ул."/>
  </way>
  <way id="44417948" version="3" timestamp="2010-09-08T01:16:21Z" uid="339232" user="Micogen" changeset="5713465">
    <nd ref="564616820"/>
    <nd ref="901888111"/>
    <nd ref="15491201"/>
    <nd ref="226360"/>
    <nd ref="226359"/>
    <nd ref="226358"/>
    <nd ref="226357"/>
    <nd ref="15491314"/>
    <tag k="highway" v="secondary"/>
    <tag k="name" v="Железнодорожная улица"/>
  </way>
  <way id="44417948" version="4" timestamp="2010-09-24T16:38:05Z" uid="290271" user="Zverik" changeset="5864365">
    <nd ref="564616820"/>
    <nd ref="901888111"/>
    <nd ref="15491201"/>
    <nd ref="226360"/>
    <nd ref="226359"/>
    <nd ref="226358"/>
    <nd ref="226357"/>
    <nd ref="15491314"/>
    <tag k="highway" v="secondary"/>
    <tag k="name" v="Железнодорожная улица"/>
    <tag k="surface" v="asphalt"/>
  </way>
  <way id="44417948" version="5" timestamp="2010-09-25T18:16:52Z" uid="339232" user="Micogen" changeset="5873224">
    <nd ref="564616820"/>
    <nd ref="901888111"/>
    <nd ref="15491201"/>
    <nd ref="226360"/>
    <nd ref="226359"/>
    <nd ref="226358"/>
    <nd ref="925664895"/>
    <nd ref="925664892"/>
    <nd ref="15491314"/>
    <tag k="highway" v="secondary"/>
    <tag k="name" v="Железнодорожная улица"/>
    <tag k="surface" v="asphalt"/>
  </way>
  <way id="44417948" version="6" timestamp="2010-11-29T02:10:46Z" uid="339232" user="Micogen" changeset="6483546">
    <nd ref="564616820"/>
    <nd ref="15491201"/>
    <nd ref="1011944205"/>
    <nd ref="1011944167"/>
    <nd ref="226360"/>
    <nd ref="226359"/>
    <nd ref="226358"/>
    <nd ref="925664895"/>
    <nd ref="1011944192"/>
    <nd ref="925664892"/>
    <nd ref="15491314"/>
    <tag k="highway" v="secondary"/>
    <tag k="name" v="Железнодорожная улица"/>
    <tag k="surface" v="asphalt"/>
  </way>
  <way id="44417948" version="7" timestamp="2011-02-02T22:14:18Z" uid="288925" user="BoomEngine" changeset="7169501">
    <nd ref="564616820"/>
    <nd ref="15491201"/>
    <nd ref="1011944205"/>
    <nd ref="1011944167"/>
    <nd ref="226360"/>
    <nd ref="226359"/>
    <nd ref="226358"/>
    <nd ref="1132958873"/>
    <nd ref="925664895"/>
    <nd ref="925664894"/>
    <nd ref="925664890"/>
    <nd ref="1132959310"/>
    <nd ref="1132959507"/>
    <tag k="cladr:code" v="47006001000005000"/>
    <tag k="cladr:name" v="Железнодорожная"/>
    <tag k="cladr:suffix" v="Улица"/>
    <tag k="highway" v="secondary"/>
    <tag k="name" v="Железнодорожная улица"/>
    <tag k="surface" v="asphalt"/>
  </way>
  <way id="44417948" version="8" timestamp="2011-02-16T14:12:51Z" uid="43262" user="KonTur" changeset="7304218">
    <nd ref="564616820"/>
    <nd ref="15491201"/>
    <nd ref="1011944205"/>
    <nd ref="1011944167"/>
    <nd ref="226360"/>
    <nd ref="226359"/>
    <nd ref="226358"/>
    <nd ref="1132958873"/>
    <nd ref="925664895"/>
    <nd ref="925664894"/>
    <nd ref="925664890"/>
    <nd ref="1132959310"/>
    <nd ref="1132959507"/>
    <tag k="addr:city" v="Выборг"/>
    <tag k="addr:country" v="RU"/>
    <tag k="cladr:code" v="47006001000005000"/>
    <tag k="cladr:name" v="Железнодорожная"/>
    <tag k="cladr:suffix" v="Улица"/>
    <tag k="highway" v="secondary"/>
    <tag k="name" v="Железнодорожная улица"/>
    <tag k="surface" v="asphalt"/>
  </way>
  <way id="44417948" version="9" timestamp="2011-02-17T21:26:34Z" uid="288925" user="BoomEngine" changeset="7317668">
    <nd ref="564616820"/>
    <nd ref="15491201"/>
    <nd ref="1158058314"/>
    <nd ref="1011944167"/>
    <nd ref="1158058336"/>
    <nd ref="226360"/>
    <nd ref="1132959295"/>
    <nd ref="226358"/>
    <nd ref="1132958873"/>
    <nd ref="925664895"/>
    <nd ref="925664894"/>
    <tag k="addr:city" v="Выборг"/>
    <tag k="addr:country" v="RU"/>
    <tag k="cladr:code" v="47006001000005000"/>
    <tag k="cladr:name" v="Железнодорожная"/>
    <tag k="cladr:suffix" v="Улица"/>
    <tag k="highway" v="secondary"/>
    <tag k="name" v="Железнодорожная улица"/>
    <tag k="surface" v="asphalt"/>
  </way>
  <way id="44417948" version="10" timestamp="2011-10-27T16:23:12Z" uid="540973" user="Olmoro" changeset="9669644">
    <nd ref="564616820"/>
    <nd ref="15491201"/>
    <nd ref="1158058314"/>
    <nd ref="1011944167"/>
    <nd ref="1158058336"/>
    <nd ref="226360"/>
    <nd ref="1132959295"/>
    <nd ref="226358"/>
    <nd ref="1132958873"/>
    <nd ref="925664895"/>
    <nd ref="925664894"/>
    <tag k="addr:city" v="Выборг"/>
    <tag k="addr:country" v="RU"/>
    <tag k="cladr:code" v="47006001000005000"/>
    <tag k="cladr:name" v="Железнодорожная"/>
    <tag k="cladr:suffix" v="Улица"/>
    <tag k="highway" v="primary"/>
    <tag k="name" v="Железнодорожная улица"/>
    <tag k="surface" v="asphalt"/>
  </way>
  <way id="44417948" version="11" timestamp="2012-01-03T19:05:03Z" uid="472653" user="Pavel47" changeset="10284549">
    <nd ref="564616820"/>
    <nd ref="15491201"/>
    <nd ref="1158058314"/>
    <nd ref="1011944167"/>
    <nd ref="1158058336"/>
    <nd ref="226360"/>
    <nd ref="1132959295"/>
    <nd ref="226358"/>
    <tag k="addr:city" v="Выборг"/>
    <tag k="addr:country" v="RU"/>
    <tag k="cladr:code" v="47006001000005000"/>
    <tag k="cladr:name" v="Железнодорожная"/>
    <tag k="cladr:suffix" v="Улица"/>
    <tag k="highway" v="primary"/>
    <tag k="name" v="Железнодорожная улица"/>
    <tag k="surface" v="asphalt"/>
  </way>
  <way id="44417950" version="1" timestamp="2009-11-15T09:09:55Z" uid="34428" user="usm78-gis" changeset="3119776">
    <nd ref="564616817"/>
    <nd ref="26513003"/>
    <tag k="highway" v="secondary"/>
  </way>
  <way id="44417950" version="2" timestamp="2010-09-07T23:00:56Z" uid="339232" user="Micogen" changeset="5712931">
    <nd ref="564616817"/>
    <nd ref="26513003"/>
    <tag k="highway" v="secondary"/>
    <tag k="name" v="ул. Железнодорожная"/>
  </way>
  <way id="44417950" version="3" timestamp="2010-09-07T23:41:56Z" uid="339232" user="Micogen" changeset="5713107">
    <nd ref="564616817"/>
    <nd ref="901888144"/>
    <nd ref="26513003"/>
    <tag k="highway" v="secondary"/>
    <tag k="name" v="ул. Железнодорожная"/>
  </way>
  <way id="44417950" version="4" timestamp="2010-09-08T01:16:24Z" uid="339232" user="Micogen" changeset="5713465">
    <nd ref="564616817"/>
    <nd ref="901888144"/>
    <nd ref="26513003"/>
    <tag k="highway" v="secondary"/>
    <tag k="name" v="Железнодорожная улица"/>
  </way>
  <way id="44417950" version="5" timestamp="2010-09-09T13:23:55Z" uid="140521" user="Fortress" changeset="5732652"/>
  <way id="44417975" version="1" timestamp="2009-11-15T09:12:25Z" uid="34428" user="usm78-gis" changeset="3119891">
    <nd ref="297815841"/>
    <nd ref="297815842"/>
    <nd ref="297815843"/>
    <nd ref="297815844"/>
    <tag k="highway" v="footway"/>
  </way>
  <way id="44417975" version="2" timestamp="2010-08-18T10:40:09Z" uid="34428" user="usm78-gis" changeset="5525428">
    <nd ref="297815841"/>
    <nd ref="866510137"/>
    <nd ref="866510599"/>
    <nd ref="297815842"/>
    <tag k="highway" v="footway"/>
  </way>
  <way id="44417982" version="1" timestamp="2009-11-15T09:12:47Z" uid="34428" user="usm78-gis" changeset="3119891">
    <nd ref="297815841"/>
    <nd ref="564617626"/>
    <nd ref="564617629"/>
  </way>
  <way id="44417982" version="2" timestamp="2009-11-15T09:12:59Z" uid="34428" user="usm78-gis" changeset="3119891">
    <nd ref="297815841"/>
    <nd ref="564617626"/>
    <nd ref="564617629"/>
    <tag k="highway" v="footway"/>
  </way>
  <way id="44417982" version="3" timestamp="2010-08-18T10:40:22Z" uid="34428" user="usm78-gis" changeset="5525428">
    <nd ref="297815841"/>
    <nd ref="564617626"/>
    <nd ref="866511651"/>
    <tag k="highway" v="footway"/>
  </way>
  <way id="44417982" version="4" timestamp="2012-01-02T22:23:56Z" uid="472653" user="Pavel47" changeset="10277016">
    <nd ref="297815841"/>
    <nd ref="564617626"/>
    <nd ref="1574753117"/>
    <tag k="highway" v="footway"/>
  </way>
</osm>
