<?xml version='1.0' encoding='UTF-8'?>
<osm version="0.6" generator="libosmium/2.20.0">
  <way id="44430086" version="1" timestamp="2009-11-15T15:31:02Z" uid="33382" user="de_muur" changeset="3122269">
    <nd ref="564769758"/>
    <nd ref="248035572"/>
    <nd ref="267690963"/>
    <nd ref="267690989"/>
    <nd ref="267690964"/>
    <tag k="highway" v="unclassified"/>
    <tag k="name" v="Zum Lindhoop"/>
    <tag k="surface" v="cobblestone"/>
  </way>
  <way id="44430086" version="2" timestamp="2010-03-01T17:23:29Z" uid="161619" user="FvGordon" changeset="4010222">
    <nd ref="564769758"/>
    <nd ref="248035572"/>
    <nd ref="267690989"/>
    <nd ref="267690964"/>
    <tag k="highway" v="unclassified"/>
    <tag k="name" v="Zum Lindhoop"/>
    <tag k="surface" v="cobblestone"/>
  </way>
  <way id="44430086" version="3" timestamp="2010-04-20T17:42:22Z" uid="57645" user="KartoGrapHiti" changeset="4479576">
    <nd ref="564769758"/>
    <nd ref="248035572"/>
    <nd ref="267690989"/>
    <nd ref="702719129"/>
    <nd ref="267690964"/>
    <tag k="highway" v="unclassified"/>
    <tag k="name" v="Zum Lindhoop"/>
    <tag k="surface" v="cobblestone"/>
  </way>
  <way id="44430086" version="4" timestamp="2012-02-08T15:22:24Z" uid="45882" user="smarties" changeset="10625539">
    <nd ref="564769758"/>
    <nd ref="248035572"/>
    <nd ref="267690989"/>
    <nd ref="702719129"/>
    <nd ref="1623963453"/>
    <tag k="highway" v="unclassified"/>
    <tag k="name" v="Zum Lindhoop"/>
    <tag k="surface" v="cobblestone"/>
  </way>
  <way id="44430087" version="1" timestamp="2009-11-15T15:31:03Z" uid="33382" user="de_muur" changeset="3122269">
    <nd ref="564769757"/>
    <nd ref="33649580"/>
    <tag k="cycleway" v="track"/>
    <tag k="highway" v="secondary"/>
    <tag k="maxspeed" v="50"/>
    <tag k="ref" v="L 171"/>
    <tag k="surface" v="paved"/>
  </way>
  <way id="44430087" version="2" timestamp="2010-03-28T19:48:09Z" uid="33382" user="de_muur" changeset="4261316"/>
  <way id="44430088" version="1" timestamp="2009-11-15T15:31:03Z" uid="33382" user="de_muur" changeset="3122269">
    <nd ref="564769759"/>
    <nd ref="564769760"/>
    <nd ref="34968899"/>
    <nd ref="34968904"/>
    <nd ref="34968902"/>
    <nd ref="34968908"/>
    <tag k="highway" v="tertiary"/>
    <tag k="name" v="Deelsener Straße"/>
    <tag k="ref" v="K 21"/>
    <tag k="surface" v="paved"/>
  </way>
  <way id="44430088" version="2" timestamp="2011-01-16T17:28:34Z" uid="33382" user="de_muur" changeset="6990709">
    <nd ref="564769759"/>
    <nd ref="564769760"/>
    <nd ref="34968899"/>
    <nd ref="34968904"/>
    <nd ref="34968902"/>
    <nd ref="34968908"/>
    <tag k="cycleway" v="track"/>
    <tag k="highway" v="tertiary"/>
    <tag k="name" v="Deelsener Straße"/>
    <tag k="ref" v="K 21"/>
    <tag k="surface" v="paved"/>
  </way>
  <way id="44430088" version="3" timestamp="2011-01-17T15:16:35Z" uid="33382" user="de_muur" changeset="7000453">
    <nd ref="564769759"/>
    <nd ref="564769760"/>
    <nd ref="34968899"/>
    <nd ref="34968904"/>
    <nd ref="34968902"/>
    <nd ref="1107651436"/>
    <nd ref="34968908"/>
    <tag k="cycleway" v="track"/>
    <tag k="highway" v="tertiary"/>
    <tag k="name" v="Deelsener Straße"/>
    <tag k="ref" v="K 21"/>
    <tag k="surface" v="paved"/>
  </way>
  <way id="44430088" version="4" timestamp="2012-03-18T17:12:53Z" uid="45882" user="smarties" changeset="11021411">
    <nd ref="564769759"/>
    <nd ref="564769760"/>
    <nd ref="34968899"/>
    <nd ref="34968904"/>
    <nd ref="34968902"/>
    <nd ref="1107651436"/>
    <nd ref="1680249575"/>
    <tag k="cycleway" v="track"/>
    <tag k="highway" v="tertiary"/>
    <tag k="name" v="Deelsener Straße"/>
    <tag k="ref" v="K 21"/>
    <tag k="surface" v="paved"/>
  </way>
  <way id="44430090" version="1" timestamp="2009-11-15T15:31:03Z" uid="33382" user="de_muur" changeset="3122269">
    <nd ref="564769760"/>
    <nd ref="564769761"/>
    <nd ref="564769762"/>
    <nd ref="564769763"/>
    <nd ref="564769764"/>
    <nd ref="564769765"/>
    <nd ref="564769762"/>
    <tag k="highway" v="unclassified"/>
    <tag k="surface" v="paved"/>
  </way>
  <way id="44430090" version="2" timestamp="2011-03-06T22:37:52Z" uid="57645" user="KartoGrapHiti" changeset="7479459">
    <nd ref="564769760"/>
    <nd ref="564769761"/>
    <nd ref="564769763"/>
    <nd ref="564769764"/>
    <tag k="highway" v="unclassified"/>
    <tag k="surface" v="paved"/>
  </way>
</osm>
