<?xml version='1.0' encoding='UTF-8'?>
<osm version="0.6" generator="libosmium/2.20.0">
  <way id="44499736" version="2" timestamp="2010-03-28T11:23:12Z" uid="20587" user="balrog-kun" changeset="4254597">
    <nd ref="565420873"/>
    <nd ref="565420874"/>
    <tag k="bridge" v="yes"/>
    <tag k="bridge_ref" v="53-0666/UC"/>
    <tag k="highway" v="motorway"/>
    <tag k="is_in:state_code" v="CA"/>
    <tag k="milepost:county" v="33.37"/>
    <tag k="name" v="San Bernardino Freeway"/>
    <tag k="oneway" v="yes"/>
    <tag k="ref" v="I 10"/>
    <tag k="source" v="survey;image;CDOT;usgs_imagery"/>
    <tag k="source_ref" v="AM909_DSCP8874"/>
  </way>
  <way id="44499736" version="3" timestamp="2010-11-22T01:47:56Z" uid="194231" user="Chris Bell in California" changeset="6428521">
    <nd ref="565420873"/>
    <nd ref="565420874"/>
    <tag k="bridge" v="yes"/>
    <tag k="bridge_ref" v="53-0666/UC"/>
    <tag k="highway" v="motorway"/>
    <tag k="is_in:state_code" v="CA"/>
    <tag k="layer" v="1"/>
    <tag k="milepost:county" v="33.37"/>
    <tag k="name" v="San Bernardino Freeway"/>
    <tag k="oneway" v="yes"/>
    <tag k="ref" v="I 10"/>
    <tag k="source" v="survey;image;CDOT;usgs_imagery"/>
    <tag k="source_ref" v="AM909_DSCP8874"/>
  </way>
  <way id="44499736" version="4" timestamp="2011-08-02T08:06:13Z" uid="207745" user="NE2" changeset="8898279">
    <nd ref="565420873"/>
    <nd ref="565420874"/>
    <tag k="bridge" v="yes"/>
    <tag k="bridge_ref" v="53-0666/UC"/>
    <tag k="highway" v="motorway"/>
    <tag k="is_in:state_code" v="CA"/>
    <tag k="lanes" v="4"/>
    <tag k="layer" v="1"/>
    <tag k="milepost:county" v="33.37"/>
    <tag k="name" v="San Bernardino Freeway"/>
    <tag k="oneway" v="yes"/>
    <tag k="ref" v="I 10"/>
    <tag k="source" v="survey;image;CDOT;usgs_imagery"/>
    <tag k="source_ref" v="AM909_DSCP8874"/>
    <tag k="x" v="x"/>
  </way>
  <way id="44499736" version="5" timestamp="2011-11-25T15:00:26Z" uid="207745" user="NE2" changeset="9943893">
    <nd ref="565420873"/>
    <nd ref="565420874"/>
    <tag k="bridge" v="yes"/>
    <tag k="bridge_ref" v="53-0666/UC"/>
    <tag k="hgv" v="designated"/>
    <tag k="highway" v="motorway"/>
    <tag k="is_in:state_code" v="CA"/>
    <tag k="lanes" v="4"/>
    <tag k="layer" v="1"/>
    <tag k="milepost:county" v="33.37"/>
    <tag k="name" v="San Bernardino Freeway"/>
    <tag k="oneway" v="yes"/>
    <tag k="ref" v="I 10"/>
    <tag k="source" v="survey;image;CDOT;usgs_imagery"/>
    <tag k="source_ref" v="AM909_DSCP8874"/>
    <tag k="x" v="x"/>
  </way>
  <way id="44499736" version="6" timestamp="2012-02-07T09:29:55Z" uid="207745" user="NE2" changeset="10610324">
    <nd ref="565420873"/>
    <nd ref="565420874"/>
    <tag k="bridge" v="yes"/>
    <tag k="bridge_ref" v="53-0666/UC"/>
    <tag k="hgv" v="designated"/>
    <tag k="highway" v="motorway"/>
    <tag k="is_in:state_code" v="CA"/>
    <tag k="lanes" v="4"/>
    <tag k="layer" v="1"/>
    <tag k="milepost:county" v="33.37"/>
    <tag k="name" v="San Bernardino Freeway"/>
    <tag k="oneway" v="yes"/>
    <tag k="ref" v="I 10"/>
    <tag k="source" v="survey;image;CDOT;usgs_imagery"/>
    <tag k="source_ref" v="AM909_DSCP8874"/>
  </way>
  <way id="44499737" version="2" timestamp="2010-03-28T11:23:12Z" uid="20587" user="balrog-kun" changeset="4254597">
    <nd ref="565420874"/>
    <nd ref="565420885"/>
    <nd ref="417976526"/>
    <nd ref="417981575"/>
    <nd ref="563340639"/>
    <tag k="highway" v="motorway"/>
    <tag k="name" v="San Bernardino Freeway"/>
    <tag k="oneway" v="yes"/>
    <tag k="ref" v="I 10"/>
  </way>
  <way id="44499737" version="3" timestamp="2011-08-02T08:06:51Z" uid="207745" user="NE2" changeset="8898279">
    <nd ref="565420874"/>
    <nd ref="565420885"/>
    <nd ref="417976526"/>
    <nd ref="417981575"/>
    <nd ref="563340639"/>
    <tag k="highway" v="motorway"/>
    <tag k="lanes" v="4"/>
    <tag k="name" v="San Bernardino Freeway"/>
    <tag k="oneway" v="yes"/>
    <tag k="ref" v="I 10"/>
    <tag k="x" v="x"/>
  </way>
  <way id="44499737" version="4" timestamp="2011-11-25T15:03:24Z" uid="207745" user="NE2" changeset="9943893">
    <nd ref="565420874"/>
    <nd ref="565420885"/>
    <nd ref="417976526"/>
    <nd ref="417981575"/>
    <nd ref="563340639"/>
    <tag k="hgv" v="designated"/>
    <tag k="highway" v="motorway"/>
    <tag k="lanes" v="4"/>
    <tag k="name" v="San Bernardino Freeway"/>
    <tag k="oneway" v="yes"/>
    <tag k="ref" v="I 10"/>
    <tag k="x" v="x"/>
  </way>
  <way id="44499742" version="2" timestamp="2010-03-28T11:23:12Z" uid="20587" user="balrog-kun" changeset="4254597">
    <nd ref="123780199"/>
    <nd ref="565420875"/>
    <tag k="highway" v="tertiary"/>
    <tag k="layer" v="-1"/>
    <tag k="name" v="Puente Avenue"/>
  </way>
  <way id="44499742" version="3" timestamp="2010-04-30T05:28:23Z" uid="207745" user="NE2" changeset="4563211">
    <nd ref="123780199"/>
    <nd ref="565420875"/>
    <tag k="highway" v="tertiary"/>
    <tag k="name" v="Puente Avenue"/>
  </way>
  <way id="44499743" version="3" timestamp="2010-03-28T11:23:12Z" uid="20587" user="balrog-kun" changeset="4254597">
    <nd ref="565420875"/>
    <nd ref="123608510"/>
    <nd ref="123780209"/>
    <nd ref="373504996"/>
    <nd ref="373504991"/>
    <nd ref="373504984"/>
    <nd ref="122636990"/>
    <nd ref="123027364"/>
    <nd ref="123312142"/>
    <nd ref="122931014"/>
    <nd ref="123139196"/>
    <nd ref="635489989"/>
    <nd ref="123439265"/>
    <nd ref="123723491"/>
    <nd ref="123636872"/>
    <nd ref="530971375"/>
    <nd ref="122905767"/>
    <nd ref="123042428"/>
    <nd ref="530971420"/>
    <nd ref="123080405"/>
    <nd ref="445011112"/>
    <nd ref="445011114"/>
    <tag k="highway" v="tertiary"/>
    <tag k="name" v="Puente Avenue"/>
  </way>
  <way id="44499745" version="2" timestamp="2010-03-28T11:23:13Z" uid="20587" user="balrog-kun" changeset="4254597">
    <nd ref="123509751"/>
    <nd ref="473097164"/>
    <nd ref="473097166"/>
    <nd ref="473097167"/>
    <nd ref="417976092"/>
    <nd ref="473097168"/>
    <nd ref="473097169"/>
    <nd ref="123608481"/>
    <tag k="highway" v="residential"/>
    <tag k="name" v="Garvey Avenue"/>
    <tag k="tiger:cfcc" v="A41"/>
    <tag k="tiger:county" v="Los Angeles, CA"/>
    <tag k="tiger:name_base" v="Garvey"/>
    <tag k="tiger:name_type" v="Ave"/>
    <tag k="tiger:reviewed" v="no"/>
    <tag k="tiger:separated" v="no"/>
    <tag k="tiger:source" v="tiger_import_dch_v0.6_20070809"/>
    <tag k="tiger:tlid" v="141819490:141652035:141652057:141818346:141651972:141651975:141651976:141651981"/>
    <tag k="tiger:zip_left" v="91706"/>
    <tag k="tiger:zip_right" v="91706"/>
  </way>
  <way id="44499746" version="3" timestamp="2010-03-28T11:23:13Z" uid="20587" user="balrog-kun" changeset="4254597">
    <nd ref="565420807"/>
    <nd ref="473101174"/>
    <nd ref="123160615"/>
    <tag k="highway" v="tertiary"/>
    <tag k="layer" v="-1"/>
    <tag k="name" v="Francisquito Avenue"/>
    <tag k="tiger:cfcc" v="A41"/>
    <tag k="tiger:county" v="Los Angeles, CA"/>
    <tag k="tiger:name_base" v="Francisquito"/>
    <tag k="tiger:name_type" v="Ave"/>
    <tag k="tiger:separated" v="no"/>
    <tag k="tiger:source" v="tiger_import_dch_v0.6_20070809"/>
    <tag k="tiger:tlid" v="141769947"/>
  </way>
  <way id="44499746" version="4" timestamp="2010-04-30T05:30:31Z" uid="207745" user="NE2" changeset="4563211">
    <nd ref="565420807"/>
    <nd ref="473101174"/>
    <nd ref="123160615"/>
    <tag k="highway" v="tertiary"/>
    <tag k="name" v="Francisquito Avenue"/>
    <tag k="tiger:cfcc" v="A41"/>
    <tag k="tiger:county" v="Los Angeles, CA"/>
    <tag k="tiger:name_base" v="Francisquito"/>
    <tag k="tiger:name_type" v="Ave"/>
    <tag k="tiger:separated" v="no"/>
    <tag k="tiger:source" v="tiger_import_dch_v0.6_20070809"/>
    <tag k="tiger:tlid" v="141769947"/>
  </way>
  <way id="44499747" version="4" timestamp="2010-03-28T11:23:13Z" uid="20587" user="balrog-kun" changeset="4254597">
    <nd ref="123160615"/>
    <nd ref="123160617"/>
    <nd ref="123160620"/>
    <tag k="highway" v="tertiary"/>
    <tag k="name" v="Francisquito Avenue"/>
    <tag k="tiger:cfcc" v="A41"/>
    <tag k="tiger:county" v="Los Angeles, CA"/>
    <tag k="tiger:name_base" v="Francisquito"/>
    <tag k="tiger:name_type" v="Ave"/>
    <tag k="tiger:reviewed" v="no"/>
    <tag k="tiger:separated" v="no"/>
    <tag k="tiger:source" v="tiger_import_dch_v0.6_20070809"/>
    <tag k="tiger:tlid" v="141769947"/>
  </way>
  <way id="44499748" version="2" timestamp="2010-03-28T11:23:13Z" uid="20587" user="balrog-kun" changeset="4254597">
    <nd ref="565420808"/>
    <nd ref="565420811"/>
    <tag k="bridge" v="yes"/>
    <tag k="highway" v="motorway"/>
    <tag k="name" v="San Bernardino Freeway"/>
    <tag k="oneway" v="yes"/>
    <tag k="ref" v="I 10"/>
  </way>
  <way id="44499748" version="3" timestamp="2010-11-22T01:47:16Z" uid="194231" user="Chris Bell in California" changeset="6428521">
    <nd ref="565420808"/>
    <nd ref="565420811"/>
    <tag k="bridge" v="yes"/>
    <tag k="highway" v="motorway"/>
    <tag k="layer" v="1"/>
    <tag k="name" v="San Bernardino Freeway"/>
    <tag k="oneway" v="yes"/>
    <tag k="ref" v="I 10"/>
  </way>
  <way id="44499748" version="4" timestamp="2011-08-02T08:06:19Z" uid="207745" user="NE2" changeset="8898279">
    <nd ref="565420808"/>
    <nd ref="565420811"/>
    <tag k="bridge" v="yes"/>
    <tag k="highway" v="motorway"/>
    <tag k="lanes" v="4"/>
    <tag k="layer" v="1"/>
    <tag k="name" v="San Bernardino Freeway"/>
    <tag k="oneway" v="yes"/>
    <tag k="ref" v="I 10"/>
    <tag k="x" v="x"/>
  </way>
  <way id="44499748" version="5" timestamp="2011-11-25T15:02:15Z" uid="207745" user="NE2" changeset="9943893">
    <nd ref="565420808"/>
    <nd ref="565420811"/>
    <tag k="bridge" v="yes"/>
    <tag k="hgv" v="designated"/>
    <tag k="highway" v="motorway"/>
    <tag k="lanes" v="4"/>
    <tag k="layer" v="1"/>
    <tag k="name" v="San Bernardino Freeway"/>
    <tag k="oneway" v="yes"/>
    <tag k="ref" v="I 10"/>
    <tag k="x" v="x"/>
  </way>
  <way id="44499748" version="6" timestamp="2012-02-07T09:29:53Z" uid="207745" user="NE2" changeset="10610324">
    <nd ref="565420808"/>
    <nd ref="565420811"/>
    <tag k="bridge" v="yes"/>
    <tag k="hgv" v="designated"/>
    <tag k="highway" v="motorway"/>
    <tag k="lanes" v="4"/>
    <tag k="layer" v="1"/>
    <tag k="name" v="San Bernardino Freeway"/>
    <tag k="oneway" v="yes"/>
    <tag k="ref" v="I 10"/>
  </way>
  <way id="44499749" version="2" timestamp="2010-03-28T11:23:13Z" uid="20587" user="balrog-kun" changeset="4254597">
    <nd ref="565420811"/>
    <nd ref="417973769"/>
    <nd ref="417976525"/>
    <nd ref="565420873"/>
    <tag k="highway" v="motorway"/>
    <tag k="name" v="San Bernardino Freeway"/>
    <tag k="oneway" v="yes"/>
    <tag k="ref" v="I 10"/>
  </way>
  <way id="44499749" version="3" timestamp="2010-11-22T01:47:49Z" uid="194231" user="Chris Bell in California" changeset="6428521">
    <nd ref="565420811"/>
    <nd ref="998955023"/>
    <tag k="highway" v="motorway"/>
    <tag k="name" v="San Bernardino Freeway"/>
    <tag k="oneway" v="yes"/>
    <tag k="ref" v="I 10"/>
  </way>
  <way id="44499749" version="4" timestamp="2011-08-02T08:05:28Z" uid="207745" user="NE2" changeset="8898279">
    <nd ref="565420811"/>
    <nd ref="998955023"/>
    <tag k="highway" v="motorway"/>
    <tag k="lanes" v="4"/>
    <tag k="name" v="San Bernardino Freeway"/>
    <tag k="oneway" v="yes"/>
    <tag k="ref" v="I 10"/>
    <tag k="x" v="x"/>
  </way>
  <way id="44499749" version="5" timestamp="2011-11-25T15:00:41Z" uid="207745" user="NE2" changeset="9943893">
    <nd ref="565420811"/>
    <nd ref="998955023"/>
    <tag k="hgv" v="designated"/>
    <tag k="highway" v="motorway"/>
    <tag k="lanes" v="4"/>
    <tag k="name" v="San Bernardino Freeway"/>
    <tag k="oneway" v="yes"/>
    <tag k="ref" v="I 10"/>
    <tag k="x" v="x"/>
  </way>
  <way id="44499749" version="6" timestamp="2012-02-07T09:29:59Z" uid="207745" user="NE2" changeset="10610324">
    <nd ref="565420811"/>
    <nd ref="998955023"/>
    <tag k="hgv" v="designated"/>
    <tag k="highway" v="motorway"/>
    <tag k="lanes" v="4"/>
    <tag k="name" v="San Bernardino Freeway"/>
    <tag k="oneway" v="yes"/>
    <tag k="ref" v="I 10"/>
  </way>
  <way id="44499752" version="2" timestamp="2010-03-28T11:23:13Z" uid="20587" user="balrog-kun" changeset="4254597">
    <nd ref="565420796"/>
    <nd ref="565420840"/>
    <tag k="highway" v="secondary"/>
    <tag k="name" v="Baldwin Park Boulevard"/>
    <tag k="tiger:cfcc" v="A41"/>
    <tag k="tiger:county" v="Los Angeles, CA"/>
    <tag k="tiger:name_base" v="Baldwin Park"/>
    <tag k="tiger:name_type" v="Blvd"/>
    <tag k="tiger:separated" v="no"/>
    <tag k="tiger:source" v="tiger_import_dch_v0.6_20070809"/>
    <tag k="tiger:tlid" v="141651685:141651686:141651687:141651689:141651652:141651654:141651655:141651690:141651691:141651693:141710966:141651799:141651791:141651794:141651796:141651800:141651760:141651948:141651950"/>
    <tag k="tiger:zip_left" v="91706"/>
    <tag k="tiger:zip_right" v="91706"/>
  </way>
  <way id="44499753" version="2" timestamp="2010-03-28T11:23:13Z" uid="20587" user="balrog-kun" changeset="4254597">
    <nd ref="565420840"/>
    <nd ref="565420843"/>
    <nd ref="122656806"/>
    <nd ref="123057819"/>
    <nd ref="123057824"/>
    <nd ref="123057828"/>
    <nd ref="123057830"/>
    <nd ref="123057832"/>
    <nd ref="122703328"/>
    <nd ref="123057836"/>
    <nd ref="123057839"/>
    <nd ref="123057841"/>
    <nd ref="123057843"/>
    <nd ref="122688983"/>
    <nd ref="445011550"/>
    <nd ref="445011551"/>
    <nd ref="445011552"/>
    <nd ref="445011553"/>
    <nd ref="445011554"/>
    <nd ref="445011555"/>
    <nd ref="445011556"/>
    <nd ref="123057724"/>
    <tag k="highway" v="secondary"/>
    <tag k="name" v="Baldwin Park Boulevard"/>
    <tag k="tiger:cfcc" v="A41"/>
    <tag k="tiger:county" v="Los Angeles, CA"/>
    <tag k="tiger:name_base" v="Baldwin Park"/>
    <tag k="tiger:name_type" v="Blvd"/>
    <tag k="tiger:reviewed" v="no"/>
    <tag k="tiger:separated" v="no"/>
    <tag k="tiger:source" v="tiger_import_dch_v0.6_20070809"/>
    <tag k="tiger:tlid" v="141651685:141651686:141651687:141651689:141651652:141651654:141651655:141651690:141651691:141651693:141710966:141651799:141651791:141651794:141651796:141651800:141651760:141651948:141651950"/>
    <tag k="tiger:zip_left" v="91706"/>
    <tag k="tiger:zip_right" v="91706"/>
  </way>
  <way id="44499754" version="2" timestamp="2010-03-28T11:23:14Z" uid="20587" user="balrog-kun" changeset="4254597">
    <nd ref="565420764"/>
    <nd ref="473106143"/>
    <tag k="highway" v="motorway"/>
    <tag k="layer" v="-1"/>
    <tag k="name" v="San Bernardino Freeway"/>
    <tag k="oneway" v="yes"/>
    <tag k="ref" v="I 10"/>
  </way>
  <way id="44499754" version="3" timestamp="2010-04-30T05:24:45Z" uid="207745" user="NE2" changeset="4563211">
    <nd ref="565420764"/>
    <nd ref="473106143"/>
    <tag k="highway" v="motorway"/>
    <tag k="name" v="San Bernardino Freeway"/>
    <tag k="oneway" v="yes"/>
    <tag k="ref" v="I 10"/>
  </way>
  <way id="44499754" version="4" timestamp="2011-08-02T08:05:26Z" uid="207745" user="NE2" changeset="8898279">
    <nd ref="565420764"/>
    <nd ref="473106143"/>
    <tag k="highway" v="motorway"/>
    <tag k="lanes" v="4"/>
    <tag k="name" v="San Bernardino Freeway"/>
    <tag k="oneway" v="yes"/>
    <tag k="ref" v="I 10"/>
    <tag k="x" v="x"/>
  </way>
  <way id="44499754" version="5" timestamp="2011-11-25T15:02:21Z" uid="207745" user="NE2" changeset="9943893">
    <nd ref="565420764"/>
    <nd ref="473106143"/>
    <tag k="hgv" v="designated"/>
    <tag k="highway" v="motorway"/>
    <tag k="lanes" v="4"/>
    <tag k="name" v="San Bernardino Freeway"/>
    <tag k="oneway" v="yes"/>
    <tag k="ref" v="I 10"/>
    <tag k="x" v="x"/>
  </way>
  <way id="44499754" version="6" timestamp="2012-02-07T09:29:49Z" uid="207745" user="NE2" changeset="10610324">
    <nd ref="565420764"/>
    <nd ref="473106143"/>
    <tag k="hgv" v="designated"/>
    <tag k="highway" v="motorway"/>
    <tag k="lanes" v="4"/>
    <tag k="name" v="San Bernardino Freeway"/>
    <tag k="oneway" v="yes"/>
    <tag k="ref" v="I 10"/>
  </way>
  <way id="44499755" version="2" timestamp="2010-03-28T11:23:14Z" uid="20587" user="balrog-kun" changeset="4254597">
    <nd ref="565420795"/>
    <nd ref="565420801"/>
    <nd ref="417973767"/>
    <nd ref="565420806"/>
    <tag k="highway" v="motorway"/>
    <tag k="name" v="San Bernardino Freeway"/>
    <tag k="oneway" v="yes"/>
    <tag k="ref" v="I 10"/>
  </way>
  <way id="44499755" version="3" timestamp="2011-08-02T08:06:39Z" uid="207745" user="NE2" changeset="8898279">
    <nd ref="565420795"/>
    <nd ref="565420801"/>
    <nd ref="417973767"/>
    <nd ref="565420806"/>
    <tag k="highway" v="motorway"/>
    <tag k="lanes" v="4"/>
    <tag k="name" v="San Bernardino Freeway"/>
    <tag k="oneway" v="yes"/>
    <tag k="ref" v="I 10"/>
    <tag k="x" v="x"/>
  </way>
  <way id="44499755" version="4" timestamp="2011-11-25T15:03:03Z" uid="207745" user="NE2" changeset="9943893">
    <nd ref="565420795"/>
    <nd ref="565420801"/>
    <nd ref="417973767"/>
    <nd ref="565420806"/>
    <tag k="hgv" v="designated"/>
    <tag k="highway" v="motorway"/>
    <tag k="lanes" v="4"/>
    <tag k="name" v="San Bernardino Freeway"/>
    <tag k="oneway" v="yes"/>
    <tag k="ref" v="I 10"/>
    <tag k="x" v="x"/>
  </way>
  <way id="44499755" version="5" timestamp="2012-02-07T09:30:21Z" uid="207745" user="NE2" changeset="10610324">
    <nd ref="565420795"/>
    <nd ref="565420801"/>
    <nd ref="565420806"/>
    <tag k="hgv" v="designated"/>
    <tag k="highway" v="motorway"/>
    <tag k="lanes" v="4"/>
    <tag k="name" v="San Bernardino Freeway"/>
    <tag k="oneway" v="yes"/>
    <tag k="ref" v="I 10"/>
  </way>
  <way id="44499756" version="2" timestamp="2010-03-28T11:23:14Z" uid="20587" user="balrog-kun" changeset="4254597">
    <nd ref="565420743"/>
    <nd ref="565420795"/>
    <tag k="highway" v="motorway"/>
    <tag k="layer" v="-1"/>
    <tag k="name" v="San Bernardino Freeway"/>
    <tag k="oneway" v="yes"/>
    <tag k="ref" v="I 10"/>
  </way>
  <way id="44499756" version="3" timestamp="2010-04-30T05:32:22Z" uid="207745" user="NE2" changeset="4563211">
    <nd ref="565420743"/>
    <nd ref="565420795"/>
    <tag k="highway" v="motorway"/>
    <tag k="name" v="San Bernardino Freeway"/>
    <tag k="oneway" v="yes"/>
    <tag k="ref" v="I 10"/>
  </way>
  <way id="44499756" version="4" timestamp="2011-08-02T08:06:09Z" uid="207745" user="NE2" changeset="8898279">
    <nd ref="565420743"/>
    <nd ref="565420795"/>
    <tag k="highway" v="motorway"/>
    <tag k="lanes" v="4"/>
    <tag k="name" v="San Bernardino Freeway"/>
    <tag k="oneway" v="yes"/>
    <tag k="ref" v="I 10"/>
    <tag k="x" v="x"/>
  </way>
  <way id="44499756" version="5" timestamp="2011-11-25T15:01:08Z" uid="207745" user="NE2" changeset="9943893">
    <nd ref="565420743"/>
    <nd ref="565420795"/>
    <tag k="hgv" v="designated"/>
    <tag k="highway" v="motorway"/>
    <tag k="lanes" v="4"/>
    <tag k="name" v="San Bernardino Freeway"/>
    <tag k="oneway" v="yes"/>
    <tag k="ref" v="I 10"/>
    <tag k="x" v="x"/>
  </way>
  <way id="44499756" version="6" timestamp="2012-02-07T09:30:01Z" uid="207745" user="NE2" changeset="10610324">
    <nd ref="565420743"/>
    <nd ref="565420795"/>
    <tag k="hgv" v="designated"/>
    <tag k="highway" v="motorway"/>
    <tag k="lanes" v="4"/>
    <tag k="name" v="San Bernardino Freeway"/>
    <tag k="oneway" v="yes"/>
    <tag k="ref" v="I 10"/>
  </way>
  <way id="44499757" version="2" timestamp="2010-03-28T11:23:14Z" uid="20587" user="balrog-kun" changeset="4254597">
    <nd ref="473106143"/>
    <nd ref="417975677"/>
    <nd ref="417972842"/>
    <nd ref="565420666"/>
    <nd ref="417972854"/>
    <nd ref="32599495"/>
    <nd ref="310927132"/>
    <nd ref="529401634"/>
    <nd ref="529401633"/>
    <nd ref="32599497"/>
    <nd ref="25266710"/>
    <tag k="highway" v="motorway"/>
    <tag k="name" v="San Bernardino Freeway"/>
    <tag k="oneway" v="yes"/>
    <tag k="ref" v="I 10"/>
  </way>
  <way id="44499757" version="3" timestamp="2011-08-02T08:05:15Z" uid="207745" user="NE2" changeset="8898279">
    <nd ref="473106143"/>
    <nd ref="417975677"/>
    <nd ref="417972842"/>
    <nd ref="565420666"/>
    <nd ref="417972854"/>
    <nd ref="32599495"/>
    <nd ref="310927132"/>
    <nd ref="529401634"/>
    <nd ref="529401633"/>
    <nd ref="32599497"/>
    <nd ref="25266710"/>
    <tag k="highway" v="motorway"/>
    <tag k="lanes" v="4"/>
    <tag k="name" v="San Bernardino Freeway"/>
    <tag k="oneway" v="yes"/>
    <tag k="ref" v="I 10"/>
    <tag k="x" v="x"/>
  </way>
  <way id="44499757" version="4" timestamp="2011-11-25T15:00:10Z" uid="207745" user="NE2" changeset="9943893">
    <nd ref="473106143"/>
    <nd ref="417975677"/>
    <nd ref="417972842"/>
    <nd ref="565420666"/>
    <nd ref="417972854"/>
    <nd ref="32599495"/>
    <nd ref="310927132"/>
    <nd ref="529401634"/>
    <nd ref="529401633"/>
    <nd ref="32599497"/>
    <nd ref="25266710"/>
    <tag k="hgv" v="designated"/>
    <tag k="highway" v="motorway"/>
    <tag k="lanes" v="4"/>
    <tag k="name" v="San Bernardino Freeway"/>
    <tag k="oneway" v="yes"/>
    <tag k="ref" v="I 10"/>
    <tag k="x" v="x"/>
  </way>
  <way id="44499757" version="5" timestamp="2012-02-07T09:30:36Z" uid="207745" user="NE2" changeset="10610324">
    <nd ref="473106143"/>
    <nd ref="417975677"/>
    <nd ref="417972842"/>
    <nd ref="565420666"/>
    <nd ref="529401634"/>
    <nd ref="529401633"/>
    <nd ref="32599497"/>
    <nd ref="25266710"/>
    <tag k="hgv" v="designated"/>
    <tag k="highway" v="motorway"/>
    <tag k="lanes" v="4"/>
    <tag k="name" v="San Bernardino Freeway"/>
    <tag k="oneway" v="yes"/>
    <tag k="ref" v="I 10"/>
  </way>
  <way id="44499759" version="2" timestamp="2010-03-28T11:23:14Z" uid="20587" user="balrog-kun" changeset="4254597">
    <nd ref="565420781"/>
    <nd ref="123509731"/>
    <tag k="bridge" v="yes"/>
    <tag k="highway" v="residential"/>
    <tag k="name" v="Vineland Avenue"/>
    <tag k="source" v="image;survey;usgs_imagery"/>
    <tag k="source_ref" v="AM909_DSCN8544"/>
    <tag k="tiger:cfcc" v="A41"/>
    <tag k="tiger:county" v="Los Angeles, CA"/>
    <tag k="tiger:name_base" v="Vineland"/>
    <tag k="tiger:name_type" v="Ave"/>
    <tag k="tiger:separated" v="no"/>
    <tag k="tiger:source" v="tiger_import_dch_v0.6_20070809"/>
    <tag k="tiger:tlid" v="141652008:141651986:141651987"/>
    <tag k="tiger:zip_left" v="91706"/>
    <tag k="tiger:zip_right" v="91706"/>
  </way>
  <way id="44499759" version="3" timestamp="2010-11-22T01:47:36Z" uid="194231" user="Chris Bell in California" changeset="6428521">
    <nd ref="565420781"/>
    <nd ref="123509731"/>
    <tag k="bridge" v="yes"/>
    <tag k="highway" v="residential"/>
    <tag k="layer" v="1"/>
    <tag k="name" v="Vineland Avenue"/>
    <tag k="source" v="image;survey;usgs_imagery"/>
    <tag k="source_ref" v="AM909_DSCN8544"/>
    <tag k="tiger:cfcc" v="A41"/>
    <tag k="tiger:county" v="Los Angeles, CA"/>
    <tag k="tiger:name_base" v="Vineland"/>
    <tag k="tiger:name_type" v="Ave"/>
    <tag k="tiger:separated" v="no"/>
    <tag k="tiger:source" v="tiger_import_dch_v0.6_20070809"/>
    <tag k="tiger:tlid" v="141652008:141651986:141651987"/>
    <tag k="tiger:zip_left" v="91706"/>
    <tag k="tiger:zip_right" v="91706"/>
  </way>
  <way id="44499760" version="2" timestamp="2010-03-28T11:23:15Z" uid="20587" user="balrog-kun" changeset="4254597">
    <nd ref="123509731"/>
    <nd ref="123098485"/>
    <nd ref="123160615"/>
    <nd ref="123509739"/>
    <tag k="highway" v="residential"/>
    <tag k="name" v="Vineland Avenue"/>
    <tag k="source" v="image;survey;usgs_imagery"/>
    <tag k="source_ref" v="AM909_DSCN8544"/>
    <tag k="tiger:cfcc" v="A41"/>
    <tag k="tiger:county" v="Los Angeles, CA"/>
    <tag k="tiger:name_base" v="Vineland"/>
    <tag k="tiger:name_type" v="Ave"/>
    <tag k="tiger:separated" v="no"/>
    <tag k="tiger:source" v="tiger_import_dch_v0.6_20070809"/>
    <tag k="tiger:tlid" v="141652008:141651986:141651987"/>
    <tag k="tiger:zip_left" v="91706"/>
    <tag k="tiger:zip_right" v="91706"/>
  </way>
  <way id="44499775" version="2" timestamp="2010-03-28T11:23:15Z" uid="20587" user="balrog-kun" changeset="4254597">
    <nd ref="565420806"/>
    <nd ref="565420810"/>
    <tag k="bridge" v="yes"/>
    <tag k="highway" v="motorway"/>
    <tag k="layer" v="1"/>
    <tag k="name" v="San Bernardino Freeway"/>
    <tag k="oneway" v="yes"/>
    <tag k="ref" v="I 10"/>
  </way>
  <way id="44499775" version="3" timestamp="2011-08-02T08:05:29Z" uid="207745" user="NE2" changeset="8898279">
    <nd ref="565420806"/>
    <nd ref="565420810"/>
    <tag k="bridge" v="yes"/>
    <tag k="highway" v="motorway"/>
    <tag k="lanes" v="4"/>
    <tag k="layer" v="1"/>
    <tag k="name" v="San Bernardino Freeway"/>
    <tag k="oneway" v="yes"/>
    <tag k="ref" v="I 10"/>
    <tag k="x" v="x"/>
  </way>
  <way id="44499775" version="4" timestamp="2011-11-25T15:00:37Z" uid="207745" user="NE2" changeset="9943893">
    <nd ref="565420806"/>
    <nd ref="565420810"/>
    <tag k="bridge" v="yes"/>
    <tag k="hgv" v="designated"/>
    <tag k="highway" v="motorway"/>
    <tag k="lanes" v="4"/>
    <tag k="layer" v="1"/>
    <tag k="name" v="San Bernardino Freeway"/>
    <tag k="oneway" v="yes"/>
    <tag k="ref" v="I 10"/>
    <tag k="x" v="x"/>
  </way>
  <way id="44499775" version="5" timestamp="2012-02-07T09:30:02Z" uid="207745" user="NE2" changeset="10610324">
    <nd ref="565420806"/>
    <nd ref="565420810"/>
    <tag k="bridge" v="yes"/>
    <tag k="hgv" v="designated"/>
    <tag k="highway" v="motorway"/>
    <tag k="lanes" v="4"/>
    <tag k="layer" v="1"/>
    <tag k="name" v="San Bernardino Freeway"/>
    <tag k="oneway" v="yes"/>
    <tag k="ref" v="I 10"/>
  </way>
  <way id="44499776" version="2" timestamp="2010-03-28T11:23:15Z" uid="20587" user="balrog-kun" changeset="4254597">
    <nd ref="565420810"/>
    <nd ref="417976081"/>
    <nd ref="565420808"/>
    <tag k="highway" v="motorway"/>
    <tag k="name" v="San Bernardino Freeway"/>
    <tag k="oneway" v="yes"/>
    <tag k="ref" v="I 10"/>
  </way>
  <way id="44499776" version="3" timestamp="2011-08-02T08:06:27Z" uid="207745" user="NE2" changeset="8898279">
    <nd ref="565420810"/>
    <nd ref="417976081"/>
    <nd ref="565420808"/>
    <tag k="highway" v="motorway"/>
    <tag k="lanes" v="4"/>
    <tag k="name" v="San Bernardino Freeway"/>
    <tag k="oneway" v="yes"/>
    <tag k="ref" v="I 10"/>
    <tag k="x" v="x"/>
  </way>
  <way id="44499776" version="4" timestamp="2011-11-25T15:02:51Z" uid="207745" user="NE2" changeset="9943893">
    <nd ref="565420810"/>
    <nd ref="417976081"/>
    <nd ref="565420808"/>
    <tag k="hgv" v="designated"/>
    <tag k="highway" v="motorway"/>
    <tag k="lanes" v="4"/>
    <tag k="name" v="San Bernardino Freeway"/>
    <tag k="oneway" v="yes"/>
    <tag k="ref" v="I 10"/>
    <tag k="x" v="x"/>
  </way>
  <way id="44499776" version="5" timestamp="2012-02-07T09:30:21Z" uid="207745" user="NE2" changeset="10610324">
    <nd ref="565420810"/>
    <nd ref="417976081"/>
    <nd ref="565420808"/>
    <tag k="hgv" v="designated"/>
    <tag k="highway" v="motorway"/>
    <tag k="lanes" v="4"/>
    <tag k="name" v="San Bernardino Freeway"/>
    <tag k="oneway" v="yes"/>
    <tag k="ref" v="I 10"/>
  </way>
  <way id="44499777" version="2" timestamp="2010-03-28T11:23:15Z" uid="20587" user="balrog-kun" changeset="4254597">
    <nd ref="32599491"/>
    <nd ref="417975678"/>
    <tag k="bridge" v="yes"/>
    <tag k="highway" v="motorway"/>
    <tag k="layer" v="1"/>
    <tag k="name" v="San Bernardino Freeway"/>
    <tag k="oneway" v="yes"/>
    <tag k="ref" v="I 10"/>
  </way>
  <way id="44499777" version="3" timestamp="2011-08-02T08:05:49Z" uid="207745" user="NE2" changeset="8898279">
    <nd ref="32599491"/>
    <nd ref="417975678"/>
    <tag k="bridge" v="yes"/>
    <tag k="highway" v="motorway"/>
    <tag k="lanes" v="4"/>
    <tag k="layer" v="1"/>
    <tag k="name" v="San Bernardino Freeway"/>
    <tag k="oneway" v="yes"/>
    <tag k="ref" v="I 10"/>
    <tag k="x" v="x"/>
  </way>
  <way id="44499777" version="4" timestamp="2011-11-25T15:00:32Z" uid="207745" user="NE2" changeset="9943893">
    <nd ref="32599491"/>
    <nd ref="417975678"/>
    <tag k="bridge" v="yes"/>
    <tag k="hgv" v="designated"/>
    <tag k="highway" v="motorway"/>
    <tag k="lanes" v="4"/>
    <tag k="layer" v="1"/>
    <tag k="name" v="San Bernardino Freeway"/>
    <tag k="oneway" v="yes"/>
    <tag k="ref" v="I 10"/>
    <tag k="x" v="x"/>
  </way>
  <way id="44499777" version="5" timestamp="2012-02-07T09:30:02Z" uid="207745" user="NE2" changeset="10610324">
    <nd ref="32599491"/>
    <nd ref="417975678"/>
    <tag k="bridge" v="yes"/>
    <tag k="hgv" v="designated"/>
    <tag k="highway" v="motorway"/>
    <tag k="lanes" v="4"/>
    <tag k="layer" v="1"/>
    <tag k="name" v="San Bernardino Freeway"/>
    <tag k="oneway" v="yes"/>
    <tag k="ref" v="I 10"/>
  </way>
  <way id="44499778" version="2" timestamp="2010-03-28T11:23:15Z" uid="20587" user="balrog-kun" changeset="4254597">
    <nd ref="417975678"/>
    <nd ref="565420804"/>
    <nd ref="565420764"/>
    <tag k="highway" v="motorway"/>
    <tag k="name" v="San Bernardino Freeway"/>
    <tag k="oneway" v="yes"/>
    <tag k="ref" v="I 10"/>
  </way>
  <way id="44499778" version="3" timestamp="2011-08-02T08:06:35Z" uid="207745" user="NE2" changeset="8898279">
    <nd ref="417975678"/>
    <nd ref="565420804"/>
    <nd ref="565420764"/>
    <tag k="highway" v="motorway"/>
    <tag k="lanes" v="4"/>
    <tag k="name" v="San Bernardino Freeway"/>
    <tag k="oneway" v="yes"/>
    <tag k="ref" v="I 10"/>
    <tag k="x" v="x"/>
  </way>
  <way id="44499778" version="4" timestamp="2011-11-25T15:02:36Z" uid="207745" user="NE2" changeset="9943893">
    <nd ref="417975678"/>
    <nd ref="565420804"/>
    <nd ref="565420764"/>
    <tag k="hgv" v="designated"/>
    <tag k="highway" v="motorway"/>
    <tag k="lanes" v="4"/>
    <tag k="name" v="San Bernardino Freeway"/>
    <tag k="oneway" v="yes"/>
    <tag k="ref" v="I 10"/>
    <tag k="x" v="x"/>
  </way>
  <way id="44499778" version="5" timestamp="2012-02-07T09:30:23Z" uid="207745" user="NE2" changeset="10610324">
    <nd ref="417975678"/>
    <nd ref="565420804"/>
    <nd ref="565420764"/>
    <tag k="hgv" v="designated"/>
    <tag k="highway" v="motorway"/>
    <tag k="lanes" v="4"/>
    <tag k="name" v="San Bernardino Freeway"/>
    <tag k="oneway" v="yes"/>
    <tag k="ref" v="I 10"/>
  </way>
  <way id="44499842" version="3" timestamp="2010-09-29T07:32:56Z" uid="49111" user="Markus B" changeset="5909208">
    <nd ref="323113365"/>
    <nd ref="339722937"/>
    <nd ref="929875264"/>
    <nd ref="390043808"/>
    <tag k="highway" v="track"/>
    <tag k="source" v="Yahoo"/>
    <tag k="tracktype" v="grade3"/>
  </way>
  <way id="44499842" version="4" timestamp="2011-02-08T10:15:18Z" uid="51230" user="gerzap" changeset="7224984">
    <nd ref="323113365"/>
    <nd ref="929875264"/>
    <nd ref="390043808"/>
    <tag k="highway" v="track"/>
    <tag k="source" v="Yahoo"/>
    <tag k="tracktype" v="grade3"/>
  </way>
  <way id="44499845" version="2" timestamp="2010-09-29T07:33:00Z" uid="49111" user="Markus B" changeset="5909208">
    <nd ref="390043808"/>
    <nd ref="339722940"/>
    <nd ref="929875318"/>
    <nd ref="339722941"/>
    <nd ref="929875226"/>
    <nd ref="929875268"/>
    <nd ref="339722942"/>
    <tag k="highway" v="track"/>
    <tag k="source" v="Yahoo"/>
    <tag k="tracktype" v="grade2"/>
  </way>
  <way id="44499845" version="3" timestamp="2011-02-08T10:14:30Z" uid="51230" user="gerzap" changeset="7224984">
    <nd ref="390043808"/>
    <nd ref="929875318"/>
    <nd ref="339722941"/>
    <nd ref="929875268"/>
    <nd ref="339722942"/>
    <tag k="highway" v="track"/>
    <tag k="source" v="Yahoo"/>
    <tag k="tracktype" v="grade2"/>
  </way>
  <way id="44499847" version="2" timestamp="2010-09-29T07:32:57Z" uid="49111" user="Markus B" changeset="5909208">
    <nd ref="390043691"/>
    <nd ref="390043692"/>
    <nd ref="929875356"/>
    <nd ref="561316407"/>
    <nd ref="929875307"/>
    <nd ref="390043693"/>
    <tag k="highway" v="track"/>
    <tag k="tracktype" v="grade3"/>
  </way>
  <way id="44499847" version="3" timestamp="2011-02-08T08:12:53Z" uid="51230" user="gerzap" changeset="7224183">
    <nd ref="390043691"/>
    <nd ref="390043692"/>
    <nd ref="561316407"/>
    <nd ref="390043693"/>
    <tag k="highway" v="track"/>
    <tag k="tracktype" v="grade3"/>
  </way>
  <way id="44499849" version="2" timestamp="2010-09-29T07:32:55Z" uid="49111" user="Markus B" changeset="5909208">
    <nd ref="468341597"/>
    <nd ref="929875303"/>
    <nd ref="929875337"/>
    <nd ref="468341599"/>
    <nd ref="929875227"/>
    <nd ref="468341601"/>
    <nd ref="468341606"/>
    <nd ref="468341608"/>
    <nd ref="390043775"/>
    <tag k="highway" v="track"/>
    <tag k="tracktype" v="grade3"/>
  </way>
  <way id="44499853" version="2" timestamp="2010-02-15T20:38:37Z" uid="49111" user="Markus B" changeset="3886679">
    <nd ref="323113982"/>
    <nd ref="343668241"/>
    <nd ref="640409074"/>
    <nd ref="336531239"/>
    <nd ref="390165923"/>
    <nd ref="323113984"/>
    <tag k="highway" v="track"/>
    <tag k="tracktype" v="grade2"/>
  </way>
  <way id="44499853" version="3" timestamp="2010-10-31T19:18:17Z" uid="87723" user="Shiega" changeset="6244941">
    <nd ref="323113982"/>
    <nd ref="343668241"/>
    <nd ref="390165923"/>
    <nd ref="323113984"/>
    <tag k="highway" v="track"/>
    <tag k="tracktype" v="grade2"/>
  </way>
  <way id="44499853" version="4" timestamp="2011-05-22T13:08:51Z" uid="76791" user="luh" changeset="8216046">
    <nd ref="323113982"/>
    <nd ref="343668241"/>
    <nd ref="390165923"/>
    <nd ref="323113984"/>
    <tag k="highway" v="track"/>
    <tag k="source" v="gps-track"/>
    <tag k="tracktype" v="grade2"/>
  </way>
  <way id="44499854" version="3" timestamp="2010-02-15T20:38:37Z" uid="49111" user="Markus B" changeset="3886679">
    <nd ref="323113978"/>
    <nd ref="323113979"/>
    <nd ref="640409070"/>
    <nd ref="343668240"/>
    <nd ref="323113980"/>
    <nd ref="323113981"/>
    <tag k="highway" v="track"/>
    <tag k="tracktype" v="grade2"/>
  </way>
  <way id="44499854" version="4" timestamp="2011-05-22T13:09:23Z" uid="76791" user="luh" changeset="8216046">
    <nd ref="323113978"/>
    <nd ref="323113979"/>
    <nd ref="640409070"/>
    <nd ref="343668240"/>
    <nd ref="323113980"/>
    <nd ref="323113981"/>
    <tag k="highway" v="track"/>
    <tag k="source" v="gps-track"/>
    <tag k="tracktype" v="grade2"/>
  </way>
  <way id="44499857" version="2" timestamp="2010-02-15T20:38:38Z" uid="49111" user="Markus B" changeset="3886679">
    <nd ref="323113974"/>
    <nd ref="640409081"/>
    <nd ref="323113975"/>
    <nd ref="336531262"/>
    <tag k="highway" v="track"/>
    <tag k="tracktype" v="grade2"/>
  </way>
  <way id="44499857" version="3" timestamp="2011-05-22T13:08:48Z" uid="76791" user="luh" changeset="8216046">
    <nd ref="323113974"/>
    <nd ref="640409081"/>
    <nd ref="323113975"/>
    <nd ref="336531262"/>
    <tag k="highway" v="track"/>
    <tag k="source" v="gps-track"/>
    <tag k="tracktype" v="grade2"/>
  </way>
  <way id="44499901" version="2" timestamp="2010-01-24T02:27:11Z" uid="23543" user="jkjk" changeset="3697617"/>
  <way id="44499963" version="1" timestamp="2009-11-16T10:51:01Z" uid="7617" user="Franc" changeset="3130785">
    <nd ref="362011108"/>
    <nd ref="565423270"/>
    <tag k="admin_level" v="10"/>
    <tag k="attribution" v="Based on Australian Bureau of Statistics data"/>
    <tag k="boundary" v="administrative"/>
    <tag k="highway" v="unclassified"/>
    <tag k="source" v="ABS_2006"/>
  </way>
  <way id="44499964" version="1" timestamp="2009-11-16T10:51:01Z" uid="7617" user="Franc" changeset="3130785">
    <nd ref="565423269"/>
    <nd ref="565423267"/>
    <tag k="complete" v="no"/>
    <tag k="highway" v="unclassified"/>
    <tag k="source" v="nearmap"/>
    <tag k="surface" v="unpaved"/>
  </way>
  <way id="44499965" version="1" timestamp="2009-11-16T10:51:01Z" uid="7617" user="Franc" changeset="3130785">
    <nd ref="565423270"/>
    <nd ref="565423245"/>
    <nd ref="565423244"/>
    <nd ref="565423241"/>
    <nd ref="565423223"/>
    <nd ref="565423206"/>
    <nd ref="362011109"/>
    <tag k="admin_level" v="10"/>
    <tag k="attribution" v="Based on Australian Bureau of Statistics data"/>
    <tag k="boundary" v="administrative"/>
    <tag k="highway" v="secondary"/>
    <tag k="source" v="ABS_2006"/>
  </way>
  <way id="44499965" version="2" timestamp="2011-11-14T17:19:31Z" uid="338866" user="tiger" changeset="9826624">
    <nd ref="565423270"/>
    <nd ref="565423245"/>
    <nd ref="565423244"/>
    <nd ref="565423241"/>
    <nd ref="565423223"/>
    <nd ref="565423206"/>
    <nd ref="1503051884"/>
    <tag k="admin_level" v="10"/>
    <tag k="attribution" v="Based on Australian Bureau of Statistics data"/>
    <tag k="boundary" v="administrative"/>
    <tag k="highway" v="secondary"/>
    <tag k="source" v="ABS_2006"/>
  </way>
  <way id="44499966" version="1" timestamp="2009-11-16T10:51:01Z" uid="7617" user="Franc" changeset="3130785">
    <nd ref="565423259"/>
    <nd ref="565423245"/>
    <tag k="highway" v="unclassified"/>
    <tag k="source" v="nearmap"/>
  </way>
  <way id="44499967" version="1" timestamp="2009-11-16T10:51:01Z" uid="7617" user="Franc" changeset="3130785">
    <nd ref="565423226"/>
    <nd ref="565423227"/>
    <nd ref="565423228"/>
    <nd ref="565423211"/>
    <nd ref="565423213"/>
    <tag k="highway" v="residential"/>
    <tag k="source" v="nearmap"/>
  </way>
  <way id="44499968" version="1" timestamp="2009-11-16T10:51:01Z" uid="7617" user="Franc" changeset="3130785">
    <nd ref="565423196"/>
    <nd ref="565423229"/>
    <nd ref="565423230"/>
    <nd ref="565423231"/>
    <nd ref="565423233"/>
    <nd ref="565423234"/>
    <nd ref="565423235"/>
    <nd ref="565423236"/>
    <nd ref="565423237"/>
    <nd ref="565423214"/>
    <nd ref="565423215"/>
    <nd ref="565423216"/>
    <nd ref="565423217"/>
    <nd ref="565423218"/>
    <nd ref="565423220"/>
    <nd ref="565423221"/>
    <nd ref="565423197"/>
    <nd ref="565423199"/>
    <nd ref="565423200"/>
    <nd ref="565423202"/>
    <nd ref="565423203"/>
    <nd ref="565423205"/>
    <nd ref="565423196"/>
    <tag k="leisure" v="park"/>
    <tag k="source" v="nearmap"/>
  </way>
  <way id="44499969" version="1" timestamp="2009-11-16T10:51:01Z" uid="7617" user="Franc" changeset="3130785">
    <nd ref="565423222"/>
    <nd ref="565423206"/>
    <tag k="highway" v="service"/>
    <tag k="source" v="nearmap"/>
  </way>
  <way id="44499970" version="1" timestamp="2009-11-16T10:51:01Z" uid="7617" user="Franc" changeset="3130785">
    <nd ref="565423224"/>
    <nd ref="565423223"/>
    <tag k="highway" v="service"/>
    <tag k="source" v="nearmap"/>
  </way>
  <way id="44499971" version="1" timestamp="2009-11-16T10:51:02Z" uid="7617" user="Franc" changeset="3130785">
    <nd ref="565423240"/>
    <nd ref="565423224"/>
    <tag k="highway" v="service"/>
    <tag k="source" v="nearmap"/>
  </way>
  <way id="44499972" version="1" timestamp="2009-11-16T10:51:02Z" uid="7617" user="Franc" changeset="3130785">
    <nd ref="565423255"/>
    <nd ref="565423259"/>
    <nd ref="565423260"/>
    <nd ref="565423262"/>
    <tag k="highway" v="residential"/>
    <tag k="source" v="nearmap"/>
  </way>
  <way id="44499973" version="1" timestamp="2009-11-16T10:51:02Z" uid="7617" user="Franc" changeset="3130785">
    <nd ref="565423263"/>
    <nd ref="565423262"/>
    <tag k="highway" v="unclassified"/>
    <tag k="source" v="nearmap"/>
  </way>
  <way id="44499974" version="1" timestamp="2009-11-16T10:51:02Z" uid="7617" user="Franc" changeset="3130785">
    <nd ref="565423264"/>
    <nd ref="565423263"/>
    <tag k="complete" v="no"/>
    <tag k="highway" v="unclassified"/>
    <tag k="source" v="nearmap"/>
    <tag k="surface" v="unpaved"/>
  </way>
  <way id="44499975" version="1" timestamp="2009-11-16T10:51:02Z" uid="7617" user="Franc" changeset="3130785">
    <nd ref="565423256"/>
    <nd ref="565423257"/>
    <nd ref="565423258"/>
    <nd ref="565423249"/>
    <nd ref="565423256"/>
    <tag k="leisure" v="pitch"/>
    <tag k="source" v="nearmap"/>
  </way>
  <way id="44499976" version="1" timestamp="2009-11-16T10:51:02Z" uid="7617" user="Franc" changeset="3130785">
    <nd ref="565423261"/>
    <nd ref="565423260"/>
    <tag k="highway" v="residential"/>
    <tag k="source" v="nearmap"/>
  </way>
  <way id="44499977" version="1" timestamp="2009-11-16T10:51:02Z" uid="7617" user="Franc" changeset="3130785">
    <nd ref="565423270"/>
    <nd ref="565423271"/>
    <nd ref="565423272"/>
    <nd ref="565423274"/>
    <nd ref="565423275"/>
    <nd ref="565423276"/>
    <nd ref="565423277"/>
    <nd ref="565423278"/>
    <nd ref="565423279"/>
    <nd ref="565423283"/>
    <nd ref="565423280"/>
    <tag k="highway" v="secondary"/>
    <tag k="source" v="nearmap"/>
  </way>
  <way id="44499978" version="1" timestamp="2009-11-16T10:51:02Z" uid="7617" user="Franc" changeset="3130785">
    <nd ref="565423282"/>
    <nd ref="565423283"/>
    <tag k="complete" v="no"/>
    <tag k="highway" v="unclassified"/>
    <tag k="source" v="nearmap"/>
    <tag k="surface" v="unpaved"/>
  </way>
  <way id="44499979" version="1" timestamp="2009-11-16T10:51:02Z" uid="7617" user="Franc" changeset="3130785">
    <nd ref="565423284"/>
    <nd ref="565423280"/>
    <tag k="complete" v="no"/>
    <tag k="highway" v="secondary"/>
    <tag k="source" v="nearmap"/>
    <tag k="surface" v="unpaved"/>
  </way>
</osm>
