<?xml version='1.0' encoding='UTF-8'?>
<osm version="0.6" generator="libosmium/2.20.0">
  <way id="44534258" version="2" timestamp="2010-04-07T14:03:17Z" uid="20587" user="balrog-kun" changeset="4353646">
    <nd ref="226714535"/>
    <nd ref="226714540"/>
    <tag k="highway" v="primary"/>
    <tag k="name" v="Industrial Drive"/>
    <tag k="name_1" v="United States Highway 84 (Bus)"/>
    <tag k="note" v="frontage"/>
    <tag k="oneway" v="yes"/>
    <tag k="tiger:cfcc" v="A64; A64; A21"/>
    <tag k="tiger:county" v="Lubbock, TX"/>
    <tag k="tiger:name_base" v="Industrial"/>
    <tag k="tiger:name_base_1" v="United States Highway 84 (Bus)"/>
    <tag k="tiger:name_type" v="Dr"/>
    <tag k="tiger:reviewed" v="no"/>
    <tag k="tiger:separated" v="no"/>
    <tag k="tiger:source" v="tiger_import_dch_v0.6_20070830"/>
    <tag k="tiger:tlid" v="185243146; 185244023:185244024; 185244022"/>
    <tag k="tiger:zip_left" v="79364"/>
    <tag k="tiger:zip_right" v="79364"/>
  </way>
  <way id="44534258" version="3" timestamp="2010-05-26T18:19:51Z" uid="37392" user="25or6to4" changeset="4815424">
    <nd ref="226714535"/>
    <nd ref="749713891"/>
    <nd ref="226714540"/>
    <tag k="highway" v="primary"/>
    <tag k="name" v="Industrial Drive"/>
    <tag k="oneway" v="yes"/>
    <tag k="ref" v="BUS US 84"/>
    <tag k="tiger:cfcc" v="A64; A64; A21"/>
    <tag k="tiger:county" v="Lubbock, TX"/>
    <tag k="tiger:name_base" v="Industrial"/>
    <tag k="tiger:name_base_1" v="United States Highway 84 (Bus)"/>
    <tag k="tiger:name_type" v="Dr"/>
    <tag k="tiger:separated" v="no"/>
    <tag k="tiger:source" v="tiger_import_dch_v0.6_20070830"/>
    <tag k="tiger:tlid" v="185243146; 185244023:185244024; 185244022"/>
    <tag k="tiger:zip_left" v="79364"/>
    <tag k="tiger:zip_right" v="79364"/>
  </way>
  <way id="44534258" version="4" timestamp="2012-01-01T10:27:27Z" uid="207745" user="NE2" changeset="10260062">
    <nd ref="226714535"/>
    <nd ref="749713891"/>
    <nd ref="226714540"/>
    <tag k="highway" v="primary"/>
    <tag k="name" v="Industrial Drive"/>
    <tag k="old_ref" v="Loop 251"/>
    <tag k="oneway" v="yes"/>
    <tag k="ref" v="US 84 Business"/>
    <tag k="tiger:cfcc" v="A64; A64; A21"/>
    <tag k="tiger:county" v="Lubbock, TX"/>
    <tag k="tiger:name_base" v="Industrial"/>
    <tag k="tiger:name_base_1" v="United States Highway 84 (Bus)"/>
    <tag k="tiger:name_type" v="Dr"/>
    <tag k="tiger:separated" v="no"/>
    <tag k="tiger:source" v="tiger_import_dch_v0.6_20070830"/>
    <tag k="tiger:tlid" v="185243146; 185244023:185244024; 185244022"/>
    <tag k="tiger:zip_left" v="79364"/>
    <tag k="tiger:zip_right" v="79364"/>
  </way>
  <way id="44534258" version="5" timestamp="2012-01-04T03:19:07Z" uid="207745" user="NE2" changeset="10287837">
    <nd ref="226714535"/>
    <nd ref="749713891"/>
    <nd ref="226714540"/>
    <tag k="highway" v="primary"/>
    <tag k="name" v="Industrial Drive"/>
    <tag k="old_ref" v="Loop 251 (old US 84)"/>
    <tag k="oneway" v="yes"/>
    <tag k="ref" v="US 84 Business"/>
    <tag k="tiger:cfcc" v="A64; A64; A21"/>
    <tag k="tiger:county" v="Lubbock, TX"/>
    <tag k="tiger:name_base" v="Industrial"/>
    <tag k="tiger:name_base_1" v="United States Highway 84 (Bus)"/>
    <tag k="tiger:name_type" v="Dr"/>
    <tag k="tiger:separated" v="no"/>
    <tag k="tiger:source" v="tiger_import_dch_v0.6_20070830"/>
    <tag k="tiger:tlid" v="185243146; 185244023:185244024; 185244022"/>
    <tag k="tiger:zip_left" v="79364"/>
    <tag k="tiger:zip_right" v="79364"/>
  </way>
  <way id="44534258" version="6" timestamp="2012-02-02T19:24:53Z" uid="119881" user="Clorox" changeset="10570479">
    <nd ref="226714535"/>
    <nd ref="749713891"/>
    <tag k="highway" v="primary"/>
    <tag k="name" v="Industrial Drive"/>
    <tag k="old_ref" v="Loop 251 (old US 84)"/>
    <tag k="oneway" v="yes"/>
    <tag k="ref" v="US 84 Business"/>
    <tag k="tiger:cfcc" v="A64; A64; A21"/>
    <tag k="tiger:county" v="Lubbock, TX"/>
    <tag k="tiger:name_base" v="Industrial"/>
    <tag k="tiger:name_base_1" v="United States Highway 84 (Bus)"/>
    <tag k="tiger:name_type" v="Dr"/>
    <tag k="tiger:separated" v="no"/>
    <tag k="tiger:source" v="tiger_import_dch_v0.6_20070830"/>
    <tag k="tiger:tlid" v="185243146; 185244023:185244024; 185244022"/>
    <tag k="tiger:zip_left" v="79364"/>
    <tag k="tiger:zip_right" v="79364"/>
  </way>
</osm>
