<?xml version='1.0' encoding='UTF-8'?>
<osm version="0.6" generator="libosmium/2.20.0">
  <way id="44663218" version="3" timestamp="2010-07-08T05:02:29Z" uid="74617" user="JohnSmith" changeset="5163091">
    <nd ref="534305007"/>
    <nd ref="566854118"/>
    <nd ref="566854121"/>
    <nd ref="534310611"/>
    <nd ref="534310594"/>
    <nd ref="534310569"/>
    <tag k="attribution" v="Based on data from State of Queensland (Department of Environment and Resource Management) 2009"/>
    <tag k="highway" v="residential"/>
    <tag k="maxspeed" v="50"/>
    <tag k="maxspeed:source" v="default residential speed limit in Australia"/>
    <tag k="name" v="Hanbury Street"/>
    <tag k="source" v="au.qld.dcdb_lite"/>
  </way>
  <way id="44663218" version="4" timestamp="2010-07-30T07:03:25Z" uid="74617" user="JohnSmith" changeset="5351900"/>
  <way id="44663236" version="2" timestamp="2010-03-28T11:25:08Z" uid="20587" user="balrog-kun" changeset="4254597">
    <nd ref="89878995"/>
    <nd ref="429119855"/>
    <tag k="highway" v="primary"/>
    <tag k="name" v="West Empire Street"/>
    <tag k="name_1" v="State Highway 20"/>
    <tag k="ref" v="20"/>
    <tag k="tiger:cfcc" v="A11"/>
    <tag k="tiger:county" v="Nevada, CA"/>
    <tag k="tiger:name_base" v="Empire"/>
    <tag k="tiger:name_base_1" v="State Highway 20"/>
    <tag k="tiger:name_direction_prefix" v="W"/>
    <tag k="tiger:name_type" v="St"/>
    <tag k="tiger:reviewed" v="no"/>
    <tag k="tiger:separated" v="no"/>
    <tag k="tiger:source" v="tiger_import_dch_v0.6_20070809"/>
    <tag k="tiger:tlid" v="106534166:106534171:106534180:106535662"/>
  </way>
  <way id="44663236" version="3" timestamp="2011-05-06T23:44:10Z" uid="3392" user="SimMoonXP" changeset="8069909">
    <nd ref="89878995"/>
    <nd ref="429119855"/>
    <tag k="highway" v="trunk"/>
    <tag k="name" v="West Empire Street"/>
    <tag k="name_1" v="State Highway 20"/>
    <tag k="ref" v="20"/>
    <tag k="tiger:cfcc" v="A11"/>
    <tag k="tiger:county" v="Nevada, CA"/>
    <tag k="tiger:name_base" v="Empire"/>
    <tag k="tiger:name_base_1" v="State Highway 20"/>
    <tag k="tiger:name_direction_prefix" v="W"/>
    <tag k="tiger:name_type" v="St"/>
    <tag k="tiger:reviewed" v="no"/>
    <tag k="tiger:separated" v="no"/>
    <tag k="tiger:source" v="tiger_import_dch_v0.6_20070809"/>
    <tag k="tiger:tlid" v="106534166:106534171:106534180:106535662"/>
  </way>
  <way id="44663236" version="4" timestamp="2011-06-09T20:42:29Z" uid="239998" user="Sundance" changeset="8392169">
    <nd ref="89878995"/>
    <nd ref="429119855"/>
    <tag k="highway" v="trunk"/>
    <tag k="name" v="West Empire Street"/>
    <tag k="os+om" v="Nevada, CA"/>
    <tag k="ref" v="CA 20"/>
    <tag k="reg_name" v="State Route 20"/>
    <tag k="tiger:source" v="tiger_import_dch_v0.6_20070809"/>
    <tag k="tiger:tlid" v="106534166:106534171:106534180:106535662"/>
  </way>
  <way id="44663236" version="5" timestamp="2011-06-27T01:23:47Z" uid="473471" user="NE3" changeset="8557781">
    <nd ref="89878995"/>
    <nd ref="429119855"/>
    <tag k="highway" v="trunk"/>
    <tag k="lanes" v="4"/>
    <tag k="name" v="West Empire Street"/>
    <tag k="os+om" v="Nevada, CA"/>
    <tag k="ref" v="CA 20"/>
    <tag k="reg_name" v="State Route 20"/>
    <tag k="tiger:source" v="tiger_import_dch_v0.6_20070809"/>
    <tag k="tiger:tlid" v="106534166:106534171:106534180:106535662"/>
  </way>
  <way id="44663236" version="6" timestamp="2011-07-19T01:11:08Z" uid="473471" user="NE3" changeset="8764274">
    <nd ref="89878995"/>
    <nd ref="429119855"/>
    <tag k="NHS" v="yes"/>
    <tag k="highway" v="trunk"/>
    <tag k="lanes" v="4"/>
    <tag k="name" v="West Empire Street"/>
    <tag k="os+om" v="Nevada, CA"/>
    <tag k="ref" v="CA 20"/>
    <tag k="reg_name" v="State Route 20"/>
    <tag k="tiger:source" v="tiger_import_dch_v0.6_20070809"/>
    <tag k="tiger:tlid" v="106534166:106534171:106534180:106535662"/>
  </way>
  <way id="44663236" version="7" timestamp="2011-08-07T11:53:27Z" uid="207745" user="NE2" changeset="8945765">
    <nd ref="89878995"/>
    <nd ref="429119855"/>
    <tag k="NHS" v="yes"/>
    <tag k="highway" v="trunk"/>
    <tag k="lanes" v="4"/>
    <tag k="name" v="West Empire Street"/>
    <tag k="os+om" v="Nevada, CA"/>
    <tag k="ref" v="CA 20"/>
    <tag k="tiger:source" v="tiger_import_dch_v0.6_20070809"/>
    <tag k="tiger:tlid" v="106534166:106534171:106534180:106535662"/>
  </way>
  <way id="44663242" version="2" timestamp="2010-03-28T11:25:09Z" uid="20587" user="balrog-kun" changeset="4254597">
    <nd ref="373465584"/>
    <nd ref="373465586"/>
    <nd ref="373468961"/>
    <nd ref="373465587"/>
    <nd ref="373465588"/>
    <tag k="highway" v="motorway"/>
    <tag k="name" v="Golden Center Freeway"/>
    <tag k="name_1" v="State Highway 49"/>
    <tag k="oneway" v="yes"/>
    <tag k="ref" v="CA 20; CA 49"/>
    <tag k="tiger:cfcc" v="A11"/>
    <tag k="tiger:county" v="Nevada, CA"/>
    <tag k="tiger:name_base" v="Golden Center"/>
    <tag k="tiger:name_base_1" v="State Highway 49"/>
    <tag k="tiger:name_type" v="Fwy"/>
    <tag k="tiger:separated" v="no"/>
    <tag k="tiger:source" v="tiger_import_dch_v0.6_20070809"/>
    <tag k="tiger:tlid" v="106534256:106534317:106534327:106535668"/>
  </way>
  <way id="44663242" version="3" timestamp="2011-01-25T17:34:31Z" uid="239998" user="Sundance" changeset="7085506">
    <nd ref="373465584"/>
    <nd ref="1120082237"/>
    <nd ref="373465586"/>
    <nd ref="373468961"/>
    <nd ref="373465587"/>
    <nd ref="373465588"/>
    <tag k="highway" v="motorway"/>
    <tag k="name" v="Golden Center Freeway"/>
    <tag k="name_1" v="State Highway 49"/>
    <tag k="oneway" v="yes"/>
    <tag k="ref" v="CA 20; CA 49"/>
    <tag k="tiger:cfcc" v="A11"/>
    <tag k="tiger:county" v="Nevada, CA"/>
    <tag k="tiger:name_base" v="Golden Center"/>
    <tag k="tiger:name_base_1" v="State Highway 49"/>
    <tag k="tiger:name_type" v="Fwy"/>
    <tag k="tiger:separated" v="no"/>
    <tag k="tiger:source" v="tiger_import_dch_v0.6_20070809"/>
    <tag k="tiger:tlid" v="106534256:106534317:106534327:106535668"/>
  </way>
  <way id="44663242" version="4" timestamp="2011-06-27T01:23:16Z" uid="473471" user="NE3" changeset="8557781">
    <nd ref="373465584"/>
    <nd ref="1120082237"/>
    <nd ref="373465586"/>
    <nd ref="373468961"/>
    <nd ref="373465587"/>
    <nd ref="373465588"/>
    <tag k="highway" v="motorway"/>
    <tag k="lanes" v="2"/>
    <tag k="name" v="Golden Center Freeway"/>
    <tag k="oneway" v="yes"/>
    <tag k="ref" v="CA 20; CA 49"/>
    <tag k="tiger:cfcc" v="A11"/>
    <tag k="tiger:county" v="Nevada, CA"/>
    <tag k="tiger:name_base" v="Golden Center"/>
    <tag k="tiger:name_base_1" v="State Highway 49"/>
    <tag k="tiger:name_type" v="Fwy"/>
    <tag k="tiger:separated" v="no"/>
    <tag k="tiger:source" v="tiger_import_dch_v0.6_20070809"/>
    <tag k="tiger:tlid" v="106534256:106534317:106534327:106535668"/>
  </way>
  <way id="44663242" version="5" timestamp="2011-07-19T00:59:46Z" uid="473471" user="NE3" changeset="8764274">
    <nd ref="373465584"/>
    <nd ref="1120082237"/>
    <nd ref="373465586"/>
    <nd ref="373468961"/>
    <nd ref="373465587"/>
    <nd ref="373465588"/>
    <tag k="NHS" v="yes"/>
    <tag k="highway" v="motorway"/>
    <tag k="lanes" v="2"/>
    <tag k="name" v="Golden Center Freeway"/>
    <tag k="oneway" v="yes"/>
    <tag k="ref" v="CA 20; CA 49"/>
    <tag k="tiger:cfcc" v="A11"/>
    <tag k="tiger:county" v="Nevada, CA"/>
    <tag k="tiger:name_base" v="Golden Center"/>
    <tag k="tiger:name_base_1" v="State Highway 49"/>
    <tag k="tiger:name_type" v="Fwy"/>
    <tag k="tiger:separated" v="no"/>
    <tag k="tiger:source" v="tiger_import_dch_v0.6_20070809"/>
    <tag k="tiger:tlid" v="106534256:106534317:106534327:106535668"/>
  </way>
  <way id="44663846" version="2" timestamp="2010-04-02T17:53:24Z" uid="20587" user="balrog-kun" changeset="4304500">
    <nd ref="51013925"/>
    <nd ref="50871125"/>
    <tag k="highway" v="residential"/>
    <tag k="name" v="Thorpe Road"/>
    <tag k="tiger:cfcc" v="A41"/>
    <tag k="tiger:county" v="Spokane, WA"/>
    <tag k="tiger:name_base" v="Thorpe"/>
    <tag k="tiger:name_type" v="Rd"/>
    <tag k="tiger:reviewed" v="no"/>
    <tag k="tiger:separated" v="no"/>
    <tag k="tiger:source" v="tiger_import_dch_v0.6_20070830"/>
    <tag k="tiger:tlid" v="189901407:189901334:189912727:189912728"/>
  </way>
</osm>
