<?xml version='1.0' encoding='UTF-8'?>
<osm version="0.6" generator="libosmium/2.20.0">
  <way id="44666404" version="2" timestamp="2010-03-22T07:34:55Z" uid="20587" user="balrog-kun" changeset="4199043">
    <nd ref="36294040"/>
    <nd ref="36294201"/>
    <tag k="bridge" v="yes"/>
    <tag k="highway" v="residential"/>
    <tag k="layer" v="1"/>
    <tag k="name" v="Quinton Canyon Road"/>
    <tag k="tiger:cfcc" v="A41"/>
    <tag k="tiger:county" v="Gilliam, OR"/>
    <tag k="tiger:name_base" v="Quinton Canyon"/>
    <tag k="tiger:name_type" v="Rd"/>
    <tag k="tiger:separated" v="no"/>
    <tag k="tiger:source" v="tiger_import_dch_v0.6_20070808"/>
    <tag k="tiger:tlid" v="175390820:175390822"/>
  </way>
  <way id="44666456" version="3" timestamp="2010-05-07T23:18:42Z" uid="4467" user="Rosscoe" changeset="4634949">
    <nd ref="370475883"/>
    <nd ref="370480861"/>
    <nd ref="370475845"/>
    <nd ref="370480863"/>
    <nd ref="370480864"/>
    <nd ref="370480867"/>
    <nd ref="370480868"/>
    <nd ref="370480870"/>
    <nd ref="370479801"/>
    <tag k="highway" v="residential"/>
    <tag k="name" v="Heathfield Drive"/>
    <tag k="oneway" v="yes"/>
  </way>
  <way id="44666456" version="4" timestamp="2010-07-09T18:00:37Z" uid="74617" user="JohnSmith" changeset="5175636">
    <nd ref="370475883"/>
    <nd ref="370480861"/>
    <nd ref="370475845"/>
    <nd ref="370480863"/>
    <nd ref="370480864"/>
    <nd ref="370480867"/>
    <nd ref="370480868"/>
    <nd ref="370480870"/>
    <nd ref="370479801"/>
    <tag k="highway" v="residential"/>
    <tag k="maxspeed" v="50"/>
    <tag k="maxspeed:source" v="default residential speed limit in Australia"/>
    <tag k="name" v="Heathfield Drive"/>
    <tag k="oneway" v="yes"/>
  </way>
  <way id="44666456" version="5" timestamp="2010-11-11T05:27:21Z" uid="294850" user="Q4004" changeset="6341224"/>
  <way id="44666568" version="2" timestamp="2010-03-22T07:34:55Z" uid="20587" user="balrog-kun" changeset="4199043">
    <nd ref="36294201"/>
    <nd ref="36284060"/>
    <nd ref="36276401"/>
    <nd ref="36271295"/>
    <tag k="highway" v="residential"/>
    <tag k="name" v="Quinton Canyon Road"/>
    <tag k="tiger:cfcc" v="A41"/>
    <tag k="tiger:county" v="Gilliam, OR"/>
    <tag k="tiger:name_base" v="Quinton Canyon"/>
    <tag k="tiger:name_type" v="Rd"/>
    <tag k="tiger:reviewed" v="no"/>
    <tag k="tiger:separated" v="no"/>
    <tag k="tiger:source" v="tiger_import_dch_v0.6_20070808"/>
    <tag k="tiger:tlid" v="175390820:175390822"/>
  </way>
  <way id="44666584" version="1" timestamp="2009-11-19T02:58:57Z" uid="18775" user="drlizau" changeset="3156637">
    <nd ref="566875865"/>
    <nd ref="566875867"/>
    <nd ref="249786018"/>
    <tag k="highway" v="unclassified"/>
    <tag k="name" v="Tewkesbury Road"/>
  </way>
  <way id="44666584" version="2" timestamp="2009-11-29T05:24:37Z" uid="18775" user="drlizau" changeset="3242375">
    <nd ref="566875865"/>
    <nd ref="566875867"/>
    <nd ref="249786018"/>
    <nd ref="574171894"/>
    <tag k="highway" v="unclassified"/>
    <tag k="name" v="Tewkesbury Road"/>
    <tag k="source" v="survey"/>
  </way>
  <way id="44666585" version="1" timestamp="2009-11-19T02:58:57Z" uid="18775" user="drlizau" changeset="3156637">
    <nd ref="566875866"/>
    <nd ref="566875867"/>
    <tag k="highway" v="unclassified"/>
    <tag k="name" v="Industrial Avenue"/>
  </way>
  <way id="44666835" version="2" timestamp="2010-04-02T17:53:25Z" uid="20587" user="balrog-kun" changeset="4304500">
    <nd ref="566877885"/>
    <nd ref="566877886"/>
    <nd ref="566877887"/>
    <nd ref="566877888"/>
    <nd ref="51025434"/>
    <tag k="highway" v="residential"/>
    <tag k="name" v="East Sumac Court"/>
  </way>
  <way id="44666836" version="2" timestamp="2010-04-02T17:53:25Z" uid="20587" user="balrog-kun" changeset="4304500">
    <nd ref="566877899"/>
    <nd ref="566877900"/>
    <nd ref="566877901"/>
    <nd ref="566877902"/>
    <nd ref="566877903"/>
    <nd ref="566877904"/>
    <nd ref="566877905"/>
    <nd ref="566877906"/>
    <nd ref="51013459"/>
    <nd ref="566877907"/>
    <nd ref="566877908"/>
    <nd ref="566877909"/>
    <nd ref="566877910"/>
    <nd ref="566877911"/>
    <nd ref="566877912"/>
    <nd ref="566877913"/>
    <tag k="highway" v="residential"/>
    <tag k="name" v="South Myrtle Lane"/>
  </way>
  <way id="44666837" version="2" timestamp="2010-04-02T17:53:25Z" uid="20587" user="balrog-kun" changeset="4304500">
    <nd ref="566877914"/>
    <nd ref="566877915"/>
    <tag k="highway" v="residential"/>
    <tag k="name" v="South Windsong Court"/>
  </way>
  <way id="44666838" version="2" timestamp="2010-04-02T17:53:25Z" uid="20587" user="balrog-kun" changeset="4304500">
    <nd ref="566877920"/>
    <nd ref="566877921"/>
    <nd ref="566877922"/>
    <nd ref="566877923"/>
    <nd ref="566877924"/>
    <nd ref="566877925"/>
    <tag k="highway" v="residential"/>
    <tag k="name" v="East 52nd Court"/>
  </way>
</osm>
