<?xml version='1.0' encoding='UTF-8'?>
<osm version="0.6" generator="libosmium/2.20.0">
  <way id="4468402" version="3" timestamp="2009-12-05T20:02:10Z" uid="143719" user="DarkoS" changeset="3297876">
    <nd ref="582086110"/>
    <nd ref="582086111"/>
    <nd ref="21284605"/>
    <tag k="complete" v="no"/>
    <tag k="highway" v="residential"/>
    <tag k="name" v="Zeleni Trg"/>
  </way>
  <way id="4468402" version="4" timestamp="2011-12-13T21:26:47Z" uid="244754" user="Janjko" changeset="10111260"/>
  <way id="4468543" version="1" timestamp="2007-07-08T20:46:48Z" uid="8328" user="benpre" changeset="134059">
    <nd ref="164901"/>
    <nd ref="164900"/>
    <nd ref="164899"/>
    <nd ref="164898"/>
    <nd ref="27391684"/>
    <nd ref="164897"/>
    <nd ref="164896"/>
    <nd ref="164895"/>
    <nd ref="164894"/>
    <nd ref="27391935"/>
    <nd ref="164893"/>
    <nd ref="164892"/>
    <tag k="created_by" v="JOSM"/>
    <tag k="highway" v="motorway"/>
    <tag k="name" v="A57"/>
    <tag k="oneway" v="yes"/>
    <tag k="ref" v="A57"/>
  </way>
  <way id="4468543" version="2" timestamp="2007-10-18T20:56:36Z" uid="8103" user="SaschaR" changeset="242252">
    <nd ref="164901"/>
    <nd ref="164900"/>
    <nd ref="164899"/>
    <nd ref="164898"/>
    <nd ref="27391684"/>
    <nd ref="164897"/>
    <nd ref="164896"/>
    <nd ref="78543886"/>
    <nd ref="78543860"/>
    <nd ref="78543766"/>
    <nd ref="164895"/>
    <nd ref="164894"/>
    <nd ref="27391935"/>
    <nd ref="164893"/>
    <nd ref="164892"/>
    <tag k="created_by" v="JOSM"/>
    <tag k="highway" v="motorway"/>
    <tag k="name" v="A57"/>
    <tag k="oneway" v="yes"/>
    <tag k="ref" v="A57"/>
  </way>
  <way id="4468543" version="3" timestamp="2007-10-18T21:00:32Z" uid="8103" user="SaschaR" changeset="242252">
    <nd ref="164901"/>
    <nd ref="164900"/>
    <nd ref="164899"/>
    <nd ref="164898"/>
    <nd ref="27391684"/>
    <nd ref="164897"/>
    <nd ref="164896"/>
    <nd ref="78543886"/>
    <tag k="created_by" v="JOSM"/>
    <tag k="highway" v="motorway"/>
    <tag k="name" v="A57"/>
    <tag k="oneway" v="yes"/>
    <tag k="ref" v="A57"/>
  </way>
  <way id="4468543" version="4" timestamp="2007-10-18T21:01:37Z" uid="8103" user="SaschaR" changeset="242252">
    <nd ref="164901"/>
    <nd ref="164900"/>
    <nd ref="164899"/>
    <nd ref="164898"/>
    <nd ref="78549728"/>
    <nd ref="27391684"/>
    <nd ref="164897"/>
    <nd ref="164896"/>
    <nd ref="78543886"/>
    <tag k="created_by" v="JOSM"/>
    <tag k="highway" v="motorway"/>
    <tag k="name" v="A57"/>
    <tag k="oneway" v="yes"/>
    <tag k="ref" v="A57"/>
  </way>
  <way id="4468543" version="5" timestamp="2008-02-05T04:33:45Z" uid="5164" user="woodpeck" changeset="46622">
    <nd ref="164901"/>
    <nd ref="164900"/>
    <nd ref="164899"/>
    <nd ref="164898"/>
    <nd ref="78549728"/>
    <nd ref="27391684"/>
    <nd ref="164897"/>
    <nd ref="164896"/>
    <nd ref="78543886"/>
    <tag k="created_by" v="fixbot"/>
    <tag k="highway" v="motorway"/>
    <tag k="oneway" v="yes"/>
    <tag k="ref" v="A57"/>
  </way>
  <way id="4468543" version="6" timestamp="2008-02-17T21:36:19Z" uid="26064" user="cb13" changeset="145045">
    <nd ref="164901"/>
    <nd ref="248095206"/>
    <tag k="created_by" v="fixbot"/>
    <tag k="highway" v="motorway"/>
    <tag k="oneway" v="yes"/>
    <tag k="ref" v="A57"/>
  </way>
  <way id="4468543" version="7" timestamp="2008-07-22T06:39:24Z" uid="42123" user="Ropino" changeset="566979">
    <nd ref="164901"/>
    <nd ref="248095206"/>
    <tag k="created_by" v="fixbot"/>
    <tag k="highway" v="motorway"/>
    <tag k="oneway" v="yes"/>
    <tag k="ref" v="A 57"/>
  </way>
  <way id="4468543" version="8" timestamp="2008-07-22T08:25:07Z" uid="42123" user="Ropino" changeset="566979">
    <nd ref="164901"/>
    <nd ref="248095206"/>
    <tag k="created_by" v="fixbot"/>
    <tag k="highway" v="motorway"/>
    <tag k="lanes" v="2"/>
    <tag k="oneway" v="yes"/>
    <tag k="ref" v="A 57"/>
  </way>
  <way id="4468543" version="9" timestamp="2008-11-22T01:28:39Z" uid="29765" user="Glg11" changeset="779198">
    <nd ref="251337161"/>
    <nd ref="164904"/>
    <nd ref="164903"/>
    <nd ref="164902"/>
    <nd ref="27393338"/>
    <nd ref="164901"/>
    <nd ref="248095206"/>
    <tag k="created_by" v="fixbot"/>
    <tag k="embankment" v="yes"/>
    <tag k="highway" v="motorway"/>
    <tag k="lanes" v="2"/>
    <tag k="oneway" v="yes"/>
    <tag k="ref" v="A 57"/>
  </way>
  <way id="4468543" version="10" timestamp="2009-02-17T17:57:43Z" uid="9176" user="Maarten Deen" changeset="511878">
    <nd ref="251337161"/>
    <nd ref="164904"/>
    <nd ref="164903"/>
    <nd ref="164902"/>
    <nd ref="27393338"/>
    <nd ref="164901"/>
    <nd ref="248095206"/>
    <tag k="embankment" v="yes"/>
    <tag k="highway" v="motorway"/>
    <tag k="int_ref" v="E 31"/>
    <tag k="lanes" v="2"/>
    <tag k="oneway" v="yes"/>
    <tag k="ref" v="A 57"/>
  </way>
  <way id="4468543" version="11" timestamp="2009-12-26T21:26:22Z" uid="109925" user="WanMil" changeset="3458414">
    <nd ref="251337161"/>
    <nd ref="164904"/>
    <nd ref="164903"/>
    <nd ref="164902"/>
    <nd ref="27393338"/>
    <nd ref="164901"/>
    <nd ref="248095206"/>
    <tag k="embankment" v="yes"/>
    <tag k="highway" v="motorway"/>
    <tag k="int_ref" v="E 31"/>
    <tag k="lanes" v="2"/>
    <tag k="maxspeed" v="signals"/>
    <tag k="oneway" v="yes"/>
    <tag k="ref" v="A 57"/>
  </way>
  <way id="4468543" version="12" timestamp="2010-12-04T16:53:55Z" uid="30077" user="ChristianW" changeset="6540217">
    <nd ref="251337161"/>
    <nd ref="164904"/>
    <nd ref="164903"/>
    <nd ref="164902"/>
    <nd ref="27393338"/>
    <nd ref="164901"/>
    <nd ref="248095206"/>
    <tag k="embankment" v="yes"/>
    <tag k="highway" v="motorway"/>
    <tag k="int_ref" v="E 31"/>
    <tag k="lanes" v="2"/>
    <tag k="maxspeed" v="signals"/>
    <tag k="none:name" v="Der reg_name, sowie ggf. der loc_name sind dem zugehörigen Wikipediaartikel entnommen."/>
    <tag k="oneway" v="yes"/>
    <tag k="ref" v="A 57"/>
    <tag k="reg_name" v="Trans-Niederrhein-Magistrale"/>
  </way>
  <way id="4468543" version="13" timestamp="2010-12-13T15:23:22Z" uid="81244" user="rurseekatze" changeset="6648770">
    <nd ref="251337161"/>
    <nd ref="1037270477"/>
    <nd ref="1037270785"/>
    <nd ref="164904"/>
    <nd ref="164903"/>
    <nd ref="1037270588"/>
    <nd ref="1037270426"/>
    <nd ref="1037270740"/>
    <nd ref="164902"/>
    <nd ref="1037270793"/>
    <nd ref="1037270615"/>
    <nd ref="1037270409"/>
    <nd ref="27393338"/>
    <nd ref="164901"/>
    <nd ref="248095206"/>
    <tag k="embankment" v="yes"/>
    <tag k="highway" v="motorway"/>
    <tag k="int_ref" v="E 31"/>
    <tag k="lanes" v="2"/>
    <tag k="maxspeed" v="signals"/>
    <tag k="none:name" v="Der reg_name, sowie ggf. der loc_name sind dem zugehörigen Wikipediaartikel entnommen."/>
    <tag k="oneway" v="yes"/>
    <tag k="ref" v="A 57"/>
    <tag k="reg_name" v="Trans-Niederrhein-Magistrale"/>
  </way>
  <way id="4468543" version="14" timestamp="2011-03-06T14:54:09Z" uid="81244" user="rurseekatze" changeset="7473965">
    <nd ref="251337161"/>
    <nd ref="1037270477"/>
    <nd ref="1037270785"/>
    <nd ref="164904"/>
    <nd ref="164903"/>
    <nd ref="1037270588"/>
    <nd ref="1037270426"/>
    <nd ref="1037270740"/>
    <nd ref="164902"/>
    <nd ref="1037270793"/>
    <nd ref="1037270615"/>
    <nd ref="1037270409"/>
    <nd ref="27393338"/>
    <nd ref="1189339495"/>
    <nd ref="164901"/>
    <nd ref="1189339497"/>
    <nd ref="248095206"/>
    <tag k="embankment" v="yes"/>
    <tag k="highway" v="motorway"/>
    <tag k="int_ref" v="E 31"/>
    <tag k="lanes" v="2"/>
    <tag k="lit" v="no"/>
    <tag k="maxspeed" v="signals"/>
    <tag k="none:name" v="Der reg_name, sowie ggf. der loc_name sind dem zugehörigen Wikipediaartikel entnommen."/>
    <tag k="oneway" v="yes"/>
    <tag k="ref" v="A 57"/>
    <tag k="reg_name" v="Trans-Niederrhein-Magistrale"/>
  </way>
  <way id="4468543" version="15" timestamp="2011-10-23T18:45:11Z" uid="81244" user="rurseekatze" changeset="9636907">
    <nd ref="251337161"/>
    <nd ref="1037270477"/>
    <nd ref="1037270785"/>
    <nd ref="164904"/>
    <nd ref="1478109089"/>
    <nd ref="164903"/>
    <nd ref="1037270588"/>
    <nd ref="1037270426"/>
    <nd ref="1037270740"/>
    <nd ref="164902"/>
    <nd ref="1037270793"/>
    <nd ref="1037270615"/>
    <nd ref="1037270409"/>
    <nd ref="27393338"/>
    <nd ref="1189339495"/>
    <nd ref="164901"/>
    <nd ref="1189339497"/>
    <nd ref="1478109090"/>
    <nd ref="248095206"/>
    <tag k="embankment" v="yes"/>
    <tag k="highway" v="motorway"/>
    <tag k="int_ref" v="E 31"/>
    <tag k="lanes" v="2"/>
    <tag k="lit" v="no"/>
    <tag k="maxspeed" v="signals"/>
    <tag k="none:name" v="Der reg_name, sowie ggf. der loc_name sind dem zugehörigen Wikipediaartikel entnommen."/>
    <tag k="oneway" v="yes"/>
    <tag k="ref" v="A 57"/>
    <tag k="reg_name" v="Trans-Niederrhein-Magistrale"/>
  </way>
  <way id="4468543" version="16" timestamp="2011-10-23T19:20:48Z" uid="81244" user="rurseekatze" changeset="9637332">
    <nd ref="251337161"/>
    <nd ref="1037270477"/>
    <nd ref="1037270785"/>
    <nd ref="164904"/>
    <nd ref="1478109089"/>
    <nd ref="1478160016"/>
    <nd ref="164903"/>
    <nd ref="1037270588"/>
    <nd ref="1037270426"/>
    <nd ref="1037270740"/>
    <nd ref="164902"/>
    <nd ref="1037270793"/>
    <nd ref="1037270615"/>
    <nd ref="1037270409"/>
    <nd ref="27393338"/>
    <nd ref="1189339495"/>
    <nd ref="164901"/>
    <nd ref="1189339497"/>
    <nd ref="1478109090"/>
    <nd ref="248095206"/>
    <tag k="embankment" v="yes"/>
    <tag k="highway" v="motorway"/>
    <tag k="int_ref" v="E 31"/>
    <tag k="lanes" v="2"/>
    <tag k="lit" v="no"/>
    <tag k="maxspeed" v="signals"/>
    <tag k="none:name" v="Der reg_name, sowie ggf. der loc_name sind dem zugehörigen Wikipediaartikel entnommen."/>
    <tag k="oneway" v="yes"/>
    <tag k="ref" v="A 57"/>
    <tag k="reg_name" v="Trans-Niederrhein-Magistrale"/>
  </way>
  <way id="4468543" version="17" timestamp="2012-02-16T15:40:26Z" uid="81244" user="rurseekatze" changeset="10702825">
    <nd ref="251337161"/>
    <nd ref="1037270477"/>
    <nd ref="1037270785"/>
    <nd ref="164904"/>
    <nd ref="1478109089"/>
    <nd ref="1478160016"/>
    <nd ref="164903"/>
    <nd ref="1037270588"/>
    <nd ref="1037270426"/>
    <nd ref="1037270740"/>
    <nd ref="164902"/>
    <nd ref="1037270793"/>
    <nd ref="1037270615"/>
    <nd ref="1037270409"/>
    <nd ref="27393338"/>
    <nd ref="1635335860"/>
    <nd ref="1189339495"/>
    <nd ref="164901"/>
    <nd ref="1189339497"/>
    <nd ref="1478109090"/>
    <nd ref="248095206"/>
    <tag k="embankment" v="yes"/>
    <tag k="highway" v="motorway"/>
    <tag k="int_ref" v="E 31"/>
    <tag k="lanes" v="2"/>
    <tag k="lit" v="no"/>
    <tag k="maxspeed" v="signals"/>
    <tag k="none:name" v="Der reg_name, sowie ggf. der loc_name sind dem zugehörigen Wikipediaartikel entnommen."/>
    <tag k="oneway" v="yes"/>
    <tag k="ref" v="A 57"/>
    <tag k="reg_name" v="Trans-Niederrhein-Magistrale"/>
  </way>
  <way id="4468543" version="18" timestamp="2012-02-18T17:39:48Z" uid="418724" user="wintersportler" changeset="10722528"/>
  <way id="4468745" version="5" timestamp="2009-10-03T00:02:00Z" uid="137033" user="lubomir" changeset="2718665">
    <nd ref="27390416"/>
    <nd ref="518254354"/>
    <nd ref="427971549"/>
    <nd ref="27390415"/>
    <nd ref="27390417"/>
    <tag k="highway" v="residential"/>
    <tag k="is_in" v="Šaľa"/>
    <tag k="name" v="Váhová"/>
  </way>
  <way id="4468745" version="6" timestamp="2011-03-29T17:17:15Z" uid="425549" user="Darkriser" changeset="7708666">
    <nd ref="27390416"/>
    <nd ref="518254354"/>
    <nd ref="573386972"/>
    <nd ref="427971549"/>
    <nd ref="27390415"/>
    <nd ref="27390417"/>
    <tag k="highway" v="residential"/>
    <tag k="is_in" v="Šaľa"/>
    <tag k="name" v="Váhová"/>
  </way>
  <way id="4468746" version="5" timestamp="2009-09-27T23:02:57Z" uid="137033" user="lubomir" changeset="2659501">
    <nd ref="27390417"/>
    <nd ref="248914091"/>
    <nd ref="248914092"/>
    <nd ref="511454398"/>
    <nd ref="427971521"/>
    <nd ref="427971520"/>
    <nd ref="353286891"/>
    <nd ref="27346806"/>
    <nd ref="8787868"/>
    <tag k="highway" v="residential"/>
    <tag k="name" v="Hlboká"/>
  </way>
  <way id="4468746" version="6" timestamp="2009-09-29T07:15:42Z" uid="137033" user="lubomir" changeset="2673708">
    <nd ref="27390417"/>
    <nd ref="248914091"/>
    <nd ref="248914092"/>
    <nd ref="511454398"/>
    <nd ref="427971521"/>
    <nd ref="427971520"/>
    <nd ref="353286891"/>
    <nd ref="27346806"/>
    <nd ref="8787868"/>
    <tag k="highway" v="residential"/>
    <tag k="is_in" v="Šaľa"/>
    <tag k="name" v="Hlboká"/>
  </way>
  <way id="4468747" version="4" timestamp="2010-03-18T23:19:48Z" uid="137033" user="lubomir" changeset="4166473">
    <nd ref="27390423"/>
    <nd ref="20828335"/>
    <nd ref="20828334"/>
    <nd ref="20828333"/>
    <nd ref="20828332"/>
    <nd ref="20828331"/>
    <nd ref="20828330"/>
    <nd ref="20828328"/>
    <nd ref="20828327"/>
    <nd ref="20828325"/>
    <nd ref="20828326"/>
    <nd ref="20828324"/>
    <nd ref="20828323"/>
    <nd ref="20828321"/>
    <nd ref="669197255"/>
    <nd ref="20828319"/>
    <tag k="highway" v="secondary"/>
    <tag k="ref" v="573"/>
  </way>
  <way id="4468747" version="5" timestamp="2010-03-28T11:14:35Z" uid="137033" user="lubomir" changeset="4255303">
    <nd ref="27390423"/>
    <nd ref="20828335"/>
    <nd ref="20828334"/>
    <nd ref="20828333"/>
    <nd ref="676621882"/>
    <nd ref="20828332"/>
    <nd ref="20828331"/>
    <nd ref="20828330"/>
    <nd ref="676621859"/>
    <nd ref="20828328"/>
    <nd ref="20828327"/>
    <nd ref="20828325"/>
    <nd ref="20828326"/>
    <nd ref="20828324"/>
    <nd ref="20828323"/>
    <nd ref="20828321"/>
    <nd ref="669197255"/>
    <nd ref="20828319"/>
    <tag k="highway" v="secondary"/>
    <tag k="ref" v="573"/>
  </way>
  <way id="4468747" version="6" timestamp="2010-04-01T22:53:27Z" uid="137033" user="lubomir" changeset="4298929">
    <nd ref="27390423"/>
    <nd ref="20828335"/>
    <nd ref="680566408"/>
    <nd ref="20828334"/>
    <nd ref="20828333"/>
    <nd ref="676621882"/>
    <nd ref="20828332"/>
    <nd ref="20828331"/>
    <nd ref="20828330"/>
    <nd ref="676621859"/>
    <nd ref="20828328"/>
    <nd ref="20828327"/>
    <nd ref="20828325"/>
    <nd ref="20828326"/>
    <nd ref="20828324"/>
    <nd ref="20828323"/>
    <nd ref="20828321"/>
    <nd ref="669197255"/>
    <nd ref="20828319"/>
    <tag k="highway" v="secondary"/>
    <tag k="ref" v="573"/>
  </way>
  <way id="4468747" version="7" timestamp="2010-04-19T00:17:50Z" uid="137033" user="lubomir" changeset="4464161">
    <nd ref="27390423"/>
    <nd ref="20828335"/>
    <nd ref="701630583"/>
    <tag k="highway" v="secondary"/>
    <tag k="ref" v="573"/>
  </way>
  <way id="4468750" version="4" timestamp="2010-03-18T23:19:49Z" uid="137033" user="lubomir" changeset="4166473">
    <nd ref="20828319"/>
    <nd ref="322700138"/>
    <nd ref="20828318"/>
    <nd ref="20828317"/>
    <nd ref="20828316"/>
    <nd ref="20828315"/>
    <nd ref="322700152"/>
    <nd ref="20828314"/>
    <nd ref="20828313"/>
    <nd ref="20828312"/>
    <nd ref="669197265"/>
    <nd ref="354975706"/>
    <nd ref="354975686"/>
    <nd ref="354975730"/>
    <nd ref="354975821"/>
    <nd ref="20828311"/>
    <tag k="abutters" v="residential"/>
    <tag k="highway" v="secondary"/>
    <tag k="ref" v="573"/>
  </way>
  <way id="4468796" version="1" timestamp="2007-05-11T18:44:57Z" uid="5871" user="Banny" changeset="45275">
    <nd ref="21864875"/>
    <nd ref="27391964"/>
    <nd ref="21864874"/>
    <nd ref="27392634"/>
    <nd ref="27392626"/>
    <nd ref="27392617"/>
    <nd ref="27392609"/>
    <nd ref="27392601"/>
    <nd ref="21864876"/>
    <nd ref="21864875"/>
    <tag k="area" v="yes"/>
    <tag k="created_by" v="JOSM"/>
    <tag k="highway" v="pedestrian"/>
  </way>
  <way id="4468796" version="2" timestamp="2009-10-23T04:48:22Z" uid="173844" user="Antikalk" changeset="2926655">
    <nd ref="21864875"/>
    <nd ref="27391964"/>
    <nd ref="21864874"/>
    <nd ref="27392634"/>
    <nd ref="27392626"/>
    <nd ref="27392617"/>
    <nd ref="27392609"/>
    <nd ref="538728767"/>
    <nd ref="27392601"/>
    <nd ref="21864876"/>
    <nd ref="21864875"/>
    <tag k="area" v="yes"/>
    <tag k="highway" v="pedestrian"/>
  </way>
  <way id="4468796" version="3" timestamp="2010-08-16T17:49:25Z" uid="45445" user="UScha" changeset="5511335">
    <nd ref="21864875"/>
    <nd ref="27391964"/>
    <nd ref="21864874"/>
    <nd ref="27392634"/>
    <nd ref="27392626"/>
    <nd ref="27392617"/>
    <nd ref="27392609"/>
    <nd ref="538728767"/>
    <nd ref="27392601"/>
    <nd ref="21864876"/>
    <nd ref="21864875"/>
    <tag k="area" v="yes"/>
    <tag k="bicycle" v="yes"/>
    <tag k="highway" v="pedestrian"/>
  </way>
  <way id="4468982" version="4" timestamp="2009-11-04T22:57:45Z" uid="137033" user="lubomir" changeset="3037061">
    <nd ref="27346850"/>
    <nd ref="555138555"/>
    <nd ref="555138593"/>
    <nd ref="555138594"/>
    <nd ref="27390410"/>
    <tag k="highway" v="pedestrian"/>
    <tag k="is_in" v="Šaľa"/>
    <tag k="name" v="Hlavná"/>
    <tag k="surface" v="paving_stones"/>
  </way>
  <way id="4468982" version="5" timestamp="2009-12-04T01:37:16Z" uid="137033" user="lubomir" changeset="3285447"/>
  <way id="4468983" version="1" timestamp="2007-07-08T20:46:47Z" uid="8328" user="benpre" changeset="134059">
    <nd ref="27391661"/>
    <nd ref="27391663"/>
    <nd ref="27391934"/>
    <nd ref="27391667"/>
    <nd ref="27391669"/>
    <nd ref="27391673"/>
    <nd ref="27391675"/>
    <nd ref="27391679"/>
    <nd ref="27391682"/>
    <nd ref="27391686"/>
    <nd ref="27391688"/>
    <nd ref="27391691"/>
    <tag k="created_by" v="JOSM"/>
    <tag k="highway" v="motorway"/>
    <tag k="name" v="A57"/>
    <tag k="oneway" v="yes"/>
    <tag k="ref" v="A57"/>
  </way>
  <way id="4468983" version="2" timestamp="2007-10-18T20:56:37Z" uid="8103" user="SaschaR" changeset="242252">
    <nd ref="27391661"/>
    <nd ref="27391663"/>
    <nd ref="27391934"/>
    <nd ref="27391667"/>
    <nd ref="27391669"/>
    <nd ref="78543903"/>
    <nd ref="78543868"/>
    <nd ref="78543879"/>
    <nd ref="27391673"/>
    <nd ref="27391675"/>
    <nd ref="27391679"/>
    <nd ref="27391682"/>
    <nd ref="27391686"/>
    <nd ref="27391688"/>
    <nd ref="27391691"/>
    <tag k="created_by" v="JOSM"/>
    <tag k="highway" v="motorway"/>
    <tag k="name" v="A57"/>
    <tag k="oneway" v="yes"/>
    <tag k="ref" v="A57"/>
  </way>
  <way id="4468983" version="3" timestamp="2007-10-18T21:00:32Z" uid="8103" user="SaschaR" changeset="242252">
    <nd ref="27391661"/>
    <nd ref="27391663"/>
    <nd ref="27391934"/>
    <nd ref="27391667"/>
    <nd ref="27391669"/>
    <nd ref="78543903"/>
    <nd ref="78543868"/>
    <tag k="created_by" v="JOSM"/>
    <tag k="highway" v="motorway"/>
    <tag k="name" v="A57"/>
    <tag k="oneway" v="yes"/>
    <tag k="ref" v="A57"/>
  </way>
  <way id="4468983" version="4" timestamp="2007-12-27T21:06:34Z" uid="8103" user="SaschaR" changeset="443132">
    <nd ref="27391661"/>
    <nd ref="27391663"/>
    <nd ref="27391934"/>
    <nd ref="192635057"/>
    <nd ref="27391667"/>
    <nd ref="192635048"/>
    <nd ref="192635031"/>
    <nd ref="27391669"/>
    <nd ref="78543903"/>
    <nd ref="78543868"/>
    <tag k="created_by" v="JOSM"/>
    <tag k="highway" v="motorway"/>
    <tag k="name" v="A57"/>
    <tag k="oneway" v="yes"/>
    <tag k="ref" v="A57"/>
  </way>
  <way id="4468983" version="5" timestamp="2008-02-05T04:33:46Z" uid="5164" user="woodpeck" changeset="46622">
    <nd ref="27391661"/>
    <nd ref="27391663"/>
    <nd ref="27391934"/>
    <nd ref="192635057"/>
    <nd ref="27391667"/>
    <nd ref="192635048"/>
    <nd ref="192635031"/>
    <nd ref="27391669"/>
    <nd ref="78543903"/>
    <nd ref="78543868"/>
    <tag k="created_by" v="fixbot"/>
    <tag k="highway" v="motorway"/>
    <tag k="oneway" v="yes"/>
    <tag k="ref" v="A57"/>
  </way>
  <way id="4468983" version="6" timestamp="2008-03-23T21:14:45Z" uid="29765" user="Glg11" changeset="381686">
    <nd ref="27391661"/>
    <nd ref="27391663"/>
    <nd ref="27391934"/>
    <nd ref="192635057"/>
    <nd ref="27391667"/>
    <nd ref="192635048"/>
    <nd ref="192635031"/>
    <nd ref="78543903"/>
    <nd ref="78543868"/>
    <tag k="created_by" v="fixbot"/>
    <tag k="highway" v="motorway"/>
    <tag k="oneway" v="yes"/>
    <tag k="ref" v="A57"/>
  </way>
  <way id="4468983" version="7" timestamp="2008-04-28T01:25:51Z" uid="24920" user="Schusch" changeset="272581">
    <nd ref="27391661"/>
    <nd ref="27391663"/>
    <nd ref="27391934"/>
    <nd ref="192635057"/>
    <nd ref="27391667"/>
    <nd ref="192635048"/>
    <nd ref="192635031"/>
    <nd ref="78543903"/>
    <nd ref="78543868"/>
    <tag k="created_by" v="fixbot"/>
    <tag k="highway" v="motorway"/>
    <tag k="oneway" v="yes"/>
    <tag k="ref" v="A 57"/>
  </way>
  <way id="4468983" version="8" timestamp="2008-07-14T11:01:55Z" uid="42123" user="Ropino" changeset="486639">
    <nd ref="27391661"/>
    <nd ref="27391663"/>
    <nd ref="27391934"/>
    <nd ref="192635057"/>
    <nd ref="27391667"/>
    <nd ref="192635048"/>
    <nd ref="192635031"/>
    <nd ref="78543903"/>
    <nd ref="78543868"/>
    <tag k="created_by" v="fixbot"/>
    <tag k="highway" v="motorway"/>
    <tag k="lanes" v="3"/>
    <tag k="oneway" v="yes"/>
    <tag k="ref" v="A 57"/>
  </way>
  <way id="4468983" version="9" timestamp="2008-07-14T11:24:03Z" uid="42123" user="Ropino" changeset="486639">
    <nd ref="27391661"/>
    <nd ref="27391663"/>
    <nd ref="27391934"/>
    <nd ref="192635057"/>
    <nd ref="27391667"/>
    <nd ref="192635048"/>
    <nd ref="192635031"/>
    <nd ref="278454394"/>
    <tag k="created_by" v="fixbot"/>
    <tag k="highway" v="motorway"/>
    <tag k="lanes" v="3"/>
    <tag k="oneway" v="yes"/>
    <tag k="ref" v="A 57"/>
  </way>
  <way id="4468983" version="10" timestamp="2008-08-09T01:40:29Z" uid="29765" user="Glg11" changeset="156906">
    <nd ref="27391661"/>
    <nd ref="27391663"/>
    <nd ref="27391934"/>
    <nd ref="27391667"/>
    <nd ref="192635048"/>
    <nd ref="192635031"/>
    <nd ref="286378075"/>
    <tag k="created_by" v="fixbot"/>
    <tag k="highway" v="motorway"/>
    <tag k="oneway" v="yes"/>
    <tag k="ref" v="A57"/>
  </way>
  <way id="4468983" version="11" timestamp="2008-08-22T17:45:31Z" uid="55868" user="fralfral" changeset="371951">
    <nd ref="27391661"/>
    <nd ref="27391663"/>
    <nd ref="27391934"/>
    <nd ref="27391667"/>
    <nd ref="192635048"/>
    <nd ref="192635031"/>
    <nd ref="286378075"/>
    <tag k="created_by" v="Potlatch 0.10b"/>
    <tag k="highway" v="motorway"/>
    <tag k="oneway" v="yes"/>
    <tag k="ref" v="A 57"/>
  </way>
  <way id="4468983" version="12" timestamp="2008-08-30T10:22:01Z" uid="54643" user="sylver81" changeset="466660">
    <nd ref="27391661"/>
    <nd ref="27391663"/>
    <nd ref="27391934"/>
    <nd ref="27391667"/>
    <nd ref="192635048"/>
    <nd ref="192635031"/>
    <nd ref="286378075"/>
    <nd ref="278454394"/>
    <tag k="created_by" v="Potlatch 0.10b"/>
    <tag k="highway" v="motorway"/>
    <tag k="oneway" v="yes"/>
    <tag k="ref" v="A 57"/>
  </way>
  <way id="4468983" version="13" timestamp="2008-08-30T10:26:31Z" uid="54643" user="sylver81" changeset="466660">
    <nd ref="27391661"/>
    <nd ref="27391663"/>
    <nd ref="27391934"/>
    <nd ref="27391667"/>
    <nd ref="192635048"/>
    <nd ref="192635031"/>
    <nd ref="286378075"/>
    <nd ref="278454394"/>
    <tag k="created_by" v="Potlatch 0.10b"/>
    <tag k="highway" v="motorway"/>
    <tag k="landuse" v="3"/>
    <tag k="oneway" v="yes"/>
    <tag k="ref" v="A 57"/>
  </way>
  <way id="4468983" version="14" timestamp="2008-09-17T22:34:12Z" uid="65282" user="Roland Olbricht" changeset="661798"/>
</osm>
