<?xml version='1.0' encoding='UTF-8'?>
<osm version="0.6" generator="libosmium/2.20.0">
  <way id="44696471" version="2" timestamp="2010-10-16T12:37:48Z" uid="9581" user="Lobelt" changeset="6057190">
    <nd ref="567153655"/>
    <nd ref="79465063"/>
    <tag k="highway" v="secondary"/>
    <tag k="name" v="Bahnhofstraße"/>
    <tag k="ref" v="L 582"/>
  </way>
  <way id="44696471" version="3" timestamp="2012-01-13T14:39:01Z" uid="131968" user="changchun_1" changeset="10379040"/>
  <way id="44696474" version="2" timestamp="2010-10-16T12:38:17Z" uid="9581" user="Lobelt" changeset="6057190">
    <nd ref="79465062"/>
    <nd ref="567153655"/>
    <tag k="highway" v="secondary"/>
    <tag k="name" v="Bahnhofstraße"/>
    <tag k="ref" v="L 582"/>
  </way>
  <way id="44696474" version="3" timestamp="2011-06-11T13:28:33Z" uid="155680" user="Henri97" changeset="8405956">
    <nd ref="79465062"/>
    <nd ref="567153655"/>
    <tag k="highway" v="secondary"/>
    <tag k="layer" v="0"/>
    <tag k="name" v="Bahnhofstraße"/>
    <tag k="ref" v="L 582"/>
  </way>
  <way id="44696717" version="1" timestamp="2009-11-19T19:55:28Z" uid="64977" user="CLoeser" changeset="3163368">
    <nd ref="567155353"/>
    <nd ref="567155355"/>
    <nd ref="567155356"/>
    <nd ref="567155358"/>
    <nd ref="567155360"/>
    <nd ref="567155353"/>
    <tag k="natural" v="wood"/>
    <tag k="source" v="Yahoo"/>
  </way>
  <way id="44696718" version="1" timestamp="2009-11-19T19:55:30Z" uid="64977" user="CLoeser" changeset="3163368">
    <nd ref="567155362"/>
    <nd ref="567155363"/>
    <nd ref="567155365"/>
    <nd ref="567155362"/>
    <tag k="natural" v="wood"/>
    <tag k="source" v="Yahoo"/>
  </way>
  <way id="44696718" version="2" timestamp="2010-06-03T07:28:51Z" uid="64977" user="CLoeser" changeset="4889896">
    <nd ref="567155362"/>
    <nd ref="567155363"/>
    <nd ref="567155365"/>
    <nd ref="567155362"/>
    <tag k="alt_name" v="Schlange"/>
    <tag k="description" v="bildete früher mit dem westlichen Waldstück einen zusammenhängenden Wald"/>
    <tag k="name" v="Schlang"/>
    <tag k="natural" v="wood"/>
    <tag k="source" v="Yahoo"/>
  </way>
  <way id="44696720" version="1" timestamp="2009-11-19T19:55:33Z" uid="64977" user="CLoeser" changeset="3163368">
    <nd ref="567155375"/>
    <nd ref="567155378"/>
    <nd ref="567155381"/>
    <nd ref="567155383"/>
    <nd ref="567155385"/>
    <nd ref="567155386"/>
    <nd ref="567155387"/>
    <nd ref="567155389"/>
    <nd ref="567155390"/>
    <nd ref="567155392"/>
    <nd ref="567155393"/>
    <nd ref="567155395"/>
    <nd ref="567155396"/>
    <nd ref="567155397"/>
    <nd ref="567155399"/>
    <nd ref="567155400"/>
    <nd ref="567155375"/>
    <tag k="landuse" v="farm"/>
  </way>
</osm>
