<?xml version='1.0' encoding='UTF-8'?>
<osm version="0.6" generator="libosmium/2.20.0">
  <way id="44732114" version="2" timestamp="2010-03-28T11:25:43Z" uid="20587" user="balrog-kun" changeset="4254597">
    <nd ref="49342468"/>
    <nd ref="414017865"/>
    <nd ref="48982776"/>
    <nd ref="49044284"/>
    <nd ref="49044263"/>
    <nd ref="49342480"/>
    <nd ref="48875908"/>
    <nd ref="48962054"/>
    <nd ref="49342485"/>
    <nd ref="49342487"/>
    <nd ref="49072296"/>
    <tag k="highway" v="secondary"/>
    <tag k="name" v="Ribbonwood Road"/>
    <tag k="ref" v="CA 94"/>
    <tag k="tiger:cfcc" v="A41"/>
    <tag k="tiger:county" v="San Diego, CA"/>
    <tag k="tiger:name_base" v="Ribbonwood"/>
    <tag k="tiger:name_type" v="Rd"/>
    <tag k="tiger:reviewed" v="no"/>
    <tag k="tiger:separated" v="no"/>
    <tag k="tiger:source" v="tiger_import_dch_v0.6_20070809"/>
    <tag k="tiger:tlid" v="195735757:195735758:195270831:195465120:195735759:195735767:195735768:195465105:195465106:195465126:195695663:195422846:195422847:195695664:195270482:195411642:195270490:195411606:195271211:195270512:195462405:195271086:195270886:195271110"/>
  </way>
  <way id="44732114" version="3" timestamp="2011-06-28T18:55:59Z" uid="473471" user="NE3" changeset="8574121">
    <nd ref="49342468"/>
    <nd ref="414017865"/>
    <nd ref="48982776"/>
    <nd ref="49044284"/>
    <nd ref="49044263"/>
    <nd ref="49342480"/>
    <nd ref="48875908"/>
    <nd ref="48962054"/>
    <nd ref="49342485"/>
    <nd ref="49342487"/>
    <nd ref="49072296"/>
    <tag k="highway" v="primary"/>
    <tag k="lanes" v="2"/>
    <tag k="name" v="Ribbonwood Road"/>
    <tag k="ref" v="CA 94"/>
    <tag k="tiger:cfcc" v="A41"/>
    <tag k="tiger:county" v="San Diego, CA"/>
    <tag k="tiger:name_base" v="Ribbonwood"/>
    <tag k="tiger:name_type" v="Rd"/>
    <tag k="tiger:reviewed" v="no"/>
    <tag k="tiger:separated" v="no"/>
    <tag k="tiger:source" v="tiger_import_dch_v0.6_20070809"/>
    <tag k="tiger:tlid" v="195735757:195735758:195270831:195465120:195735759:195735767:195735768:195465105:195465106:195465126:195695663:195422846:195422847:195695664:195270482:195411642:195270490:195411606:195271211:195270512:195462405:195271086:195270886:195271110"/>
  </way>
  <way id="44732766" version="2" timestamp="2010-03-28T11:25:44Z" uid="20587" user="balrog-kun" changeset="4254597">
    <nd ref="49093285"/>
    <nd ref="49337244"/>
    <nd ref="49639722"/>
    <nd ref="49278786"/>
    <nd ref="49639723"/>
    <nd ref="49327150"/>
    <nd ref="49639726"/>
    <nd ref="49639728"/>
    <tag k="highway" v="secondary"/>
    <tag k="name" v="Main Street"/>
    <tag k="name_1" v="Highway 79"/>
    <tag k="name_2" v="Highway 78"/>
    <tag k="name_3" v="State Highway 78"/>
    <tag k="ref" v="CA 78; CA 79"/>
    <tag k="tiger:cfcc" v="A31"/>
    <tag k="tiger:county" v="San Diego, CA"/>
    <tag k="tiger:name_base" v="Main"/>
    <tag k="tiger:name_base_1" v="Highway 79"/>
    <tag k="tiger:name_base_2" v="Highway 78"/>
    <tag k="tiger:name_base_3" v="State Highway 78"/>
    <tag k="tiger:name_type" v="St"/>
    <tag k="tiger:reviewed" v="no"/>
    <tag k="tiger:separated" v="no"/>
    <tag k="tiger:source" v="tiger_import_dch_v0.6_20070809"/>
    <tag k="tiger:tlid" v="195336802:195336817:195336823:195336827:195336830"/>
    <tag k="tiger:zip_left" v="92036"/>
    <tag k="tiger:zip_right" v="92036"/>
  </way>
  <way id="44732766" version="3" timestamp="2011-02-28T06:41:54Z" uid="48060" user="Sat" changeset="7417793">
    <nd ref="49093285"/>
    <nd ref="49337244"/>
    <nd ref="1178761645"/>
    <nd ref="49639722"/>
    <nd ref="49278786"/>
    <nd ref="49639723"/>
    <nd ref="49327150"/>
    <nd ref="49639726"/>
    <nd ref="49639728"/>
    <tag k="highway" v="secondary"/>
    <tag k="name" v="Main Street"/>
    <tag k="name_1" v="Highway 79"/>
    <tag k="name_2" v="Highway 78"/>
    <tag k="name_3" v="State Highway 78"/>
    <tag k="ref" v="CA 78; CA 79"/>
    <tag k="tiger:cfcc" v="A31"/>
    <tag k="tiger:county" v="San Diego, CA"/>
    <tag k="tiger:name_base" v="Main"/>
    <tag k="tiger:name_base_1" v="Highway 79"/>
    <tag k="tiger:name_base_2" v="Highway 78"/>
    <tag k="tiger:name_base_3" v="State Highway 78"/>
    <tag k="tiger:name_type" v="St"/>
    <tag k="tiger:reviewed" v="no"/>
    <tag k="tiger:separated" v="no"/>
    <tag k="tiger:source" v="tiger_import_dch_v0.6_20070809"/>
    <tag k="tiger:tlid" v="195336802:195336817:195336823:195336827:195336830"/>
    <tag k="tiger:zip_left" v="92036"/>
    <tag k="tiger:zip_right" v="92036"/>
  </way>
  <way id="44732766" version="4" timestamp="2011-05-26T05:50:58Z" uid="104962" user="techlady" changeset="8250394">
    <nd ref="49093285"/>
    <nd ref="49337244"/>
    <nd ref="1178761645"/>
    <nd ref="49639722"/>
    <nd ref="49278786"/>
    <nd ref="49639723"/>
    <nd ref="49327150"/>
    <nd ref="49639726"/>
    <nd ref="49639728"/>
    <tag k="alt_name" v="California State Highway 78; California State Highway 79"/>
    <tag k="highway" v="secondary"/>
    <tag k="name" v="Main Street"/>
    <tag k="name_1" v="Highway 79"/>
    <tag k="name_2" v="Highway 78"/>
    <tag k="name_3" v="State Highway 78"/>
    <tag k="ref" v="CA78; CA79"/>
    <tag k="tiger:cfcc" v="A31"/>
    <tag k="tiger:county" v="San Diego, CA"/>
    <tag k="tiger:name_base" v="Main"/>
    <tag k="tiger:name_base_1" v="Highway 79"/>
    <tag k="tiger:name_base_2" v="Highway 78"/>
    <tag k="tiger:name_base_3" v="State Highway 78"/>
    <tag k="tiger:name_type" v="St"/>
    <tag k="tiger:reviewed" v="no"/>
    <tag k="tiger:separated" v="no"/>
    <tag k="tiger:source" v="tiger_import_dch_v0.6_20070809"/>
    <tag k="tiger:tlid" v="195336802:195336817:195336823:195336827:195336830"/>
    <tag k="tiger:zip_left" v="92036"/>
    <tag k="tiger:zip_right" v="92036"/>
  </way>
  <way id="44732766" version="5" timestamp="2011-06-28T15:14:51Z" uid="473471" user="NE3" changeset="8572555">
    <nd ref="49093285"/>
    <nd ref="49337244"/>
    <nd ref="1178761645"/>
    <nd ref="49639722"/>
    <nd ref="49278786"/>
    <nd ref="49639723"/>
    <nd ref="49327150"/>
    <nd ref="49639726"/>
    <nd ref="49639728"/>
    <tag k="highway" v="primary"/>
    <tag k="lanes" v="2"/>
    <tag k="name" v="Main Street"/>
    <tag k="name_1" v="Highway 79"/>
    <tag k="name_2" v="Highway 78"/>
    <tag k="name_3" v="State Highway 78"/>
    <tag k="ref" v="SR 78;SR 79"/>
    <tag k="tiger:cfcc" v="A31"/>
    <tag k="tiger:county" v="San Diego, CA"/>
    <tag k="tiger:name_base" v="Main"/>
    <tag k="tiger:name_base_1" v="Highway 79"/>
    <tag k="tiger:name_base_2" v="Highway 78"/>
    <tag k="tiger:name_base_3" v="State Highway 78"/>
    <tag k="tiger:name_type" v="St"/>
    <tag k="tiger:reviewed" v="no"/>
    <tag k="tiger:separated" v="no"/>
    <tag k="tiger:source" v="tiger_import_dch_v0.6_20070809"/>
    <tag k="tiger:tlid" v="195336802:195336817:195336823:195336827:195336830"/>
    <tag k="tiger:zip_left" v="92036"/>
    <tag k="tiger:zip_right" v="92036"/>
  </way>
  <way id="44732766" version="6" timestamp="2011-08-07T11:39:11Z" uid="207745" user="NE2" changeset="8945765">
    <nd ref="49093285"/>
    <nd ref="49337244"/>
    <nd ref="1178761645"/>
    <nd ref="49639722"/>
    <nd ref="49278786"/>
    <nd ref="49639723"/>
    <nd ref="49327150"/>
    <nd ref="49639726"/>
    <nd ref="49639728"/>
    <tag k="highway" v="primary"/>
    <tag k="lanes" v="2"/>
    <tag k="name" v="Main Street"/>
    <tag k="ref" v="SR 78;SR 79"/>
    <tag k="tiger:cfcc" v="A31"/>
    <tag k="tiger:county" v="San Diego, CA"/>
    <tag k="tiger:name_base" v="Main"/>
    <tag k="tiger:name_base_1" v="Highway 79"/>
    <tag k="tiger:name_base_2" v="Highway 78"/>
    <tag k="tiger:name_base_3" v="State Highway 78"/>
    <tag k="tiger:name_type" v="St"/>
    <tag k="tiger:reviewed" v="no"/>
    <tag k="tiger:separated" v="no"/>
    <tag k="tiger:source" v="tiger_import_dch_v0.6_20070809"/>
    <tag k="tiger:tlid" v="195336802:195336817:195336823:195336827:195336830"/>
    <tag k="tiger:zip_left" v="92036"/>
    <tag k="tiger:zip_right" v="92036"/>
  </way>
  <way id="44732766" version="7" timestamp="2011-11-15T03:18:55Z" uid="104962" user="techlady" changeset="9831226">
    <nd ref="49093285"/>
    <nd ref="49337244"/>
    <nd ref="1178761645"/>
    <nd ref="49639722"/>
    <nd ref="49278786"/>
    <nd ref="49639723"/>
    <nd ref="49327150"/>
    <nd ref="49639726"/>
    <nd ref="49639728"/>
    <tag k="alt_name" v="California State Highways 78 and 79"/>
    <tag k="highway" v="primary"/>
    <tag k="lanes" v="2"/>
    <tag k="name" v="Main Street"/>
    <tag k="ref" v="SR 78, SR 79"/>
    <tag k="surface" v="paved"/>
    <tag k="tiger:cfcc" v="A31"/>
    <tag k="tiger:county" v="San Diego, CA"/>
    <tag k="tiger:name_base" v="Main"/>
    <tag k="tiger:name_base_1" v="Highway 79"/>
    <tag k="tiger:name_base_2" v="Highway 78"/>
    <tag k="tiger:name_base_3" v="State Highway 78"/>
    <tag k="tiger:name_type" v="St"/>
    <tag k="tiger:reviewed" v="no"/>
    <tag k="tiger:separated" v="no"/>
    <tag k="tiger:source" v="tiger_import_dch_v0.6_20070809"/>
    <tag k="tiger:tlid" v="195336802:195336817:195336823:195336827:195336830"/>
    <tag k="tiger:zip_left" v="92036"/>
    <tag k="tiger:zip_right" v="92036"/>
  </way>
  <way id="44732767" version="2" timestamp="2010-03-28T11:25:44Z" uid="20587" user="balrog-kun" changeset="4254597">
    <nd ref="49093285"/>
    <nd ref="49093286"/>
    <nd ref="49093287"/>
    <nd ref="49093288"/>
    <nd ref="49093289"/>
    <nd ref="49093290"/>
    <nd ref="49093291"/>
    <tag k="highway" v="secondary"/>
    <tag k="name" v="Washington Street"/>
    <tag k="name_1" v="State Highway 78"/>
    <tag k="name_2" v="Highway 78"/>
    <tag k="ref" v="CA 78; CA 79"/>
    <tag k="tiger:cfcc" v="A31"/>
    <tag k="tiger:county" v="San Diego, CA"/>
    <tag k="tiger:name_base" v="Washington"/>
    <tag k="tiger:name_base_1" v="State Highway 78"/>
    <tag k="tiger:name_base_2" v="Highway 78"/>
    <tag k="tiger:name_type" v="St"/>
    <tag k="tiger:reviewed" v="no"/>
    <tag k="tiger:separated" v="no"/>
    <tag k="tiger:source" v="tiger_import_dch_v0.6_20070809"/>
    <tag k="tiger:tlid" v="195447221:195447222:195336801"/>
    <tag k="tiger:zip_left" v="92036"/>
    <tag k="tiger:zip_right" v="92038"/>
  </way>
  <way id="44732767" version="3" timestamp="2011-02-28T06:41:54Z" uid="48060" user="Sat" changeset="7417793">
    <nd ref="49093285"/>
    <nd ref="49093286"/>
    <nd ref="49093287"/>
    <nd ref="49093288"/>
    <nd ref="1178761700"/>
    <nd ref="49093289"/>
    <nd ref="49093290"/>
    <nd ref="49093291"/>
    <tag k="highway" v="secondary"/>
    <tag k="name" v="Washington Street"/>
    <tag k="name_1" v="State Highway 78"/>
    <tag k="name_2" v="Highway 78"/>
    <tag k="ref" v="CA 78; CA 79"/>
    <tag k="tiger:cfcc" v="A31"/>
    <tag k="tiger:county" v="San Diego, CA"/>
    <tag k="tiger:name_base" v="Washington"/>
    <tag k="tiger:name_base_1" v="State Highway 78"/>
    <tag k="tiger:name_base_2" v="Highway 78"/>
    <tag k="tiger:name_type" v="St"/>
    <tag k="tiger:reviewed" v="no"/>
    <tag k="tiger:separated" v="no"/>
    <tag k="tiger:source" v="tiger_import_dch_v0.6_20070809"/>
    <tag k="tiger:tlid" v="195447221:195447222:195336801"/>
    <tag k="tiger:zip_left" v="92036"/>
    <tag k="tiger:zip_right" v="92038"/>
  </way>
  <way id="44732767" version="4" timestamp="2011-05-26T05:50:58Z" uid="104962" user="techlady" changeset="8250394">
    <nd ref="49093285"/>
    <nd ref="49093286"/>
    <nd ref="49093287"/>
    <nd ref="49093288"/>
    <nd ref="1178761700"/>
    <nd ref="49093289"/>
    <nd ref="49093290"/>
    <nd ref="49093291"/>
    <tag k="alt_name" v="California State Highway 78; California State Highway 79"/>
    <tag k="highway" v="secondary"/>
    <tag k="name" v="Washington Street"/>
    <tag k="name_1" v="State Highway 78"/>
    <tag k="name_2" v="Highway 78"/>
    <tag k="ref" v="CA78; CA79"/>
    <tag k="tiger:cfcc" v="A31"/>
    <tag k="tiger:county" v="San Diego, CA"/>
    <tag k="tiger:name_base" v="Washington"/>
    <tag k="tiger:name_base_1" v="State Highway 78"/>
    <tag k="tiger:name_base_2" v="Highway 78"/>
    <tag k="tiger:name_type" v="St"/>
    <tag k="tiger:reviewed" v="no"/>
    <tag k="tiger:separated" v="no"/>
    <tag k="tiger:source" v="tiger_import_dch_v0.6_20070809"/>
    <tag k="tiger:tlid" v="195447221:195447222:195336801"/>
    <tag k="tiger:zip_left" v="92036"/>
    <tag k="tiger:zip_right" v="92038"/>
  </way>
  <way id="44732767" version="5" timestamp="2011-06-28T15:19:11Z" uid="473471" user="NE3" changeset="8572555">
    <nd ref="49093285"/>
    <nd ref="49093286"/>
    <nd ref="49093287"/>
    <nd ref="49093288"/>
    <nd ref="1178761700"/>
    <nd ref="49093289"/>
    <nd ref="49093290"/>
    <nd ref="49093291"/>
    <tag k="highway" v="primary"/>
    <tag k="lanes" v="2"/>
    <tag k="name" v="Washington Street"/>
    <tag k="name_1" v="State Highway 78"/>
    <tag k="name_2" v="Highway 78"/>
    <tag k="ref" v="SR 78;SR 79"/>
    <tag k="tiger:cfcc" v="A31"/>
    <tag k="tiger:county" v="San Diego, CA"/>
    <tag k="tiger:name_base" v="Washington"/>
    <tag k="tiger:name_base_1" v="State Highway 78"/>
    <tag k="tiger:name_base_2" v="Highway 78"/>
    <tag k="tiger:name_type" v="St"/>
    <tag k="tiger:reviewed" v="no"/>
    <tag k="tiger:separated" v="no"/>
    <tag k="tiger:source" v="tiger_import_dch_v0.6_20070809"/>
    <tag k="tiger:tlid" v="195447221:195447222:195336801"/>
    <tag k="tiger:zip_left" v="92036"/>
    <tag k="tiger:zip_right" v="92038"/>
  </way>
  <way id="44732767" version="6" timestamp="2011-08-07T11:53:03Z" uid="207745" user="NE2" changeset="8945765">
    <nd ref="49093285"/>
    <nd ref="49093286"/>
    <nd ref="49093287"/>
    <nd ref="49093288"/>
    <nd ref="1178761700"/>
    <nd ref="49093289"/>
    <nd ref="49093290"/>
    <nd ref="49093291"/>
    <tag k="highway" v="primary"/>
    <tag k="lanes" v="2"/>
    <tag k="name" v="Washington Street"/>
    <tag k="ref" v="SR 78;SR 79"/>
    <tag k="tiger:cfcc" v="A31"/>
    <tag k="tiger:county" v="San Diego, CA"/>
    <tag k="tiger:name_base" v="Washington"/>
    <tag k="tiger:name_base_1" v="State Highway 78"/>
    <tag k="tiger:name_base_2" v="Highway 78"/>
    <tag k="tiger:name_type" v="St"/>
    <tag k="tiger:reviewed" v="no"/>
    <tag k="tiger:separated" v="no"/>
    <tag k="tiger:source" v="tiger_import_dch_v0.6_20070809"/>
    <tag k="tiger:tlid" v="195447221:195447222:195336801"/>
    <tag k="tiger:zip_left" v="92036"/>
    <tag k="tiger:zip_right" v="92038"/>
  </way>
  <way id="44732767" version="7" timestamp="2011-11-15T03:18:55Z" uid="104962" user="techlady" changeset="9831226">
    <nd ref="49093285"/>
    <nd ref="49093286"/>
    <nd ref="49093287"/>
    <nd ref="49093288"/>
    <nd ref="1178761700"/>
    <nd ref="49093289"/>
    <nd ref="49093290"/>
    <nd ref="49093291"/>
    <tag k="alt_name" v="California State Highways 78 and 79"/>
    <tag k="highway" v="primary"/>
    <tag k="lanes" v="2"/>
    <tag k="name" v="Washington Street"/>
    <tag k="ref" v="SR 78;SR 79"/>
    <tag k="surface" v="paved"/>
    <tag k="tiger:cfcc" v="A31"/>
    <tag k="tiger:county" v="San Diego, CA"/>
    <tag k="tiger:name_base" v="Washington"/>
    <tag k="tiger:name_base_1" v="State Highway 78"/>
    <tag k="tiger:name_base_2" v="Highway 78"/>
    <tag k="tiger:name_type" v="St"/>
    <tag k="tiger:reviewed" v="no"/>
    <tag k="tiger:separated" v="no"/>
    <tag k="tiger:source" v="tiger_import_dch_v0.6_20070809"/>
    <tag k="tiger:tlid" v="195447221:195447222:195336801"/>
    <tag k="tiger:zip_left" v="92036"/>
    <tag k="tiger:zip_right" v="92038"/>
  </way>
</osm>
