<?xml version='1.0' encoding='UTF-8'?>
<osm version="0.6" generator="libosmium/2.20.0">
  <way id="44735055" version="1" timestamp="2009-11-20T18:58:32Z" uid="43967" user="railsnail" changeset="3170546">
    <nd ref="567498717"/>
    <nd ref="567498718"/>
    <tag k="boat" v="no"/>
    <tag k="waterway" v="stream"/>
  </way>
  <way id="44735774" version="4" timestamp="2010-06-29T19:10:13Z" uid="74617" user="JohnSmith" changeset="5108182">
    <nd ref="685510651"/>
    <nd ref="567502436"/>
    <nd ref="567502421"/>
    <nd ref="567502435"/>
    <nd ref="685505438"/>
    <nd ref="567502429"/>
    <nd ref="685526673"/>
    <nd ref="567502431"/>
    <nd ref="685510651"/>
    <tag k="3dshapes:ggmodelk" v="1"/>
    <tag k="addr:housenumber" v="14"/>
    <tag k="addr:postcode" v="9243 SK"/>
    <tag k="addr:street" v="MjÃ»msterwei"/>
    <tag k="building" v="yes"/>
    <tag k="fixme" v="sport=football is ambiguous, see http://wiki.osm.org/wiki/Football for more details"/>
    <tag k="name" v="VV Bakkeveen"/>
    <tag k="source" v="3dShapes"/>
    <tag k="sport" v="football"/>
  </way>
</osm>
