<?xml version='1.0' encoding='UTF-8'?>
<osm version="0.6" generator="libosmium/2.20.0">
  <way id="44736041" version="2" timestamp="2010-03-28T11:25:45Z" uid="20587" user="balrog-kun" changeset="4254597">
    <nd ref="87723963"/>
    <nd ref="87699066"/>
    <nd ref="87709837"/>
    <nd ref="87724063"/>
    <nd ref="87709833"/>
    <nd ref="87705139"/>
    <nd ref="87703095"/>
    <nd ref="87715643"/>
    <tag k="highway" v="primary"/>
    <tag k="name" v="Main Street"/>
    <tag k="name_1" v="State Highway 78"/>
    <tag k="ref" v="CA 78"/>
    <tag k="tiger:cfcc" v="A41"/>
    <tag k="tiger:county" v="Imperial, CA"/>
    <tag k="tiger:name_base" v="Main"/>
    <tag k="tiger:name_base_1" v="State Highway 78"/>
    <tag k="tiger:name_type" v="St"/>
    <tag k="tiger:reviewed" v="no"/>
    <tag k="tiger:separated" v="no"/>
    <tag k="tiger:source" v="tiger_import_dch_v0.6_20070809"/>
    <tag k="tiger:tlid" v="194525825:194536108"/>
    <tag k="tiger:zip_left" v="92227"/>
    <tag k="tiger:zip_right" v="92227"/>
  </way>
  <way id="44736041" version="3" timestamp="2011-06-28T15:18:22Z" uid="473471" user="NE3" changeset="8572555">
    <nd ref="87723963"/>
    <nd ref="87699066"/>
    <nd ref="87709837"/>
    <nd ref="87724063"/>
    <nd ref="87709833"/>
    <nd ref="87705139"/>
    <nd ref="87703095"/>
    <nd ref="87715643"/>
    <tag k="highway" v="primary"/>
    <tag k="lanes" v="4"/>
    <tag k="name" v="Main Street"/>
    <tag k="name_1" v="State Highway 78"/>
    <tag k="ref" v="CA 78"/>
    <tag k="tiger:cfcc" v="A41"/>
    <tag k="tiger:county" v="Imperial, CA"/>
    <tag k="tiger:name_base" v="Main"/>
    <tag k="tiger:name_base_1" v="State Highway 78"/>
    <tag k="tiger:name_type" v="St"/>
    <tag k="tiger:reviewed" v="no"/>
    <tag k="tiger:separated" v="no"/>
    <tag k="tiger:source" v="tiger_import_dch_v0.6_20070809"/>
    <tag k="tiger:tlid" v="194525825:194536108"/>
    <tag k="tiger:zip_left" v="92227"/>
    <tag k="tiger:zip_right" v="92227"/>
  </way>
  <way id="44736041" version="4" timestamp="2011-07-19T01:00:30Z" uid="473471" user="NE3" changeset="8764274">
    <nd ref="87723963"/>
    <nd ref="87699066"/>
    <nd ref="87709837"/>
    <nd ref="87724063"/>
    <nd ref="87709833"/>
    <nd ref="87705139"/>
    <nd ref="87703095"/>
    <nd ref="87715643"/>
    <tag k="NHS" v="yes"/>
    <tag k="highway" v="primary"/>
    <tag k="lanes" v="4"/>
    <tag k="name" v="Main Street"/>
    <tag k="name_1" v="State Highway 78"/>
    <tag k="ref" v="CA 78"/>
    <tag k="tiger:cfcc" v="A41"/>
    <tag k="tiger:county" v="Imperial, CA"/>
    <tag k="tiger:name_base" v="Main"/>
    <tag k="tiger:name_base_1" v="State Highway 78"/>
    <tag k="tiger:name_type" v="St"/>
    <tag k="tiger:reviewed" v="no"/>
    <tag k="tiger:separated" v="no"/>
    <tag k="tiger:source" v="tiger_import_dch_v0.6_20070809"/>
    <tag k="tiger:tlid" v="194525825:194536108"/>
    <tag k="tiger:zip_left" v="92227"/>
    <tag k="tiger:zip_right" v="92227"/>
  </way>
  <way id="44736041" version="5" timestamp="2011-08-07T11:39:03Z" uid="207745" user="NE2" changeset="8945765">
    <nd ref="87723963"/>
    <nd ref="87699066"/>
    <nd ref="87709837"/>
    <nd ref="87724063"/>
    <nd ref="87709833"/>
    <nd ref="87705139"/>
    <nd ref="87703095"/>
    <nd ref="87715643"/>
    <tag k="NHS" v="yes"/>
    <tag k="highway" v="primary"/>
    <tag k="lanes" v="4"/>
    <tag k="name" v="Main Street"/>
    <tag k="ref" v="CA 78"/>
    <tag k="tiger:cfcc" v="A41"/>
    <tag k="tiger:county" v="Imperial, CA"/>
    <tag k="tiger:name_base" v="Main"/>
    <tag k="tiger:name_base_1" v="State Highway 78"/>
    <tag k="tiger:name_type" v="St"/>
    <tag k="tiger:reviewed" v="no"/>
    <tag k="tiger:separated" v="no"/>
    <tag k="tiger:source" v="tiger_import_dch_v0.6_20070809"/>
    <tag k="tiger:tlid" v="194525825:194536108"/>
    <tag k="tiger:zip_left" v="92227"/>
    <tag k="tiger:zip_right" v="92227"/>
  </way>
  <way id="44736041" version="6" timestamp="2012-03-20T10:38:10Z" uid="199837" user="happy5214" changeset="11039737">
    <nd ref="87723963"/>
    <nd ref="87699066"/>
    <nd ref="87709837"/>
    <tag k="NHS" v="yes"/>
    <tag k="highway" v="primary"/>
    <tag k="lanes" v="4"/>
    <tag k="name" v="Main Street"/>
    <tag k="ref" v="CA 78"/>
    <tag k="tiger:cfcc" v="A41"/>
    <tag k="tiger:county" v="Imperial, CA"/>
    <tag k="tiger:name_base" v="Main"/>
    <tag k="tiger:name_base_1" v="State Highway 78"/>
    <tag k="tiger:name_type" v="St"/>
    <tag k="tiger:reviewed" v="no"/>
    <tag k="tiger:separated" v="no"/>
    <tag k="tiger:source" v="tiger_import_dch_v0.6_20070809"/>
    <tag k="tiger:tlid" v="194525825:194536108"/>
    <tag k="tiger:zip_left" v="92227"/>
    <tag k="tiger:zip_right" v="92227"/>
  </way>
  <way id="44736755" version="2" timestamp="2010-03-28T11:25:45Z" uid="20587" user="balrog-kun" changeset="4254597">
    <nd ref="87712838"/>
    <nd ref="87714675"/>
    <nd ref="87698953"/>
    <nd ref="87725449"/>
    <nd ref="87725450"/>
    <nd ref="87725451"/>
    <nd ref="87715643"/>
    <tag k="highway" v="primary"/>
    <tag k="name" v="South 1st Street"/>
    <tag k="name_1" v="State Highway 86"/>
    <tag k="ref" v="CA 86"/>
    <tag k="tiger:cfcc" v="A21"/>
    <tag k="tiger:county" v="Imperial, CA"/>
    <tag k="tiger:name_base" v="1st"/>
    <tag k="tiger:name_base_1" v="State Highway 86"/>
    <tag k="tiger:name_direction_prefix" v="S"/>
    <tag k="tiger:name_type" v="St"/>
    <tag k="tiger:reviewed" v="no"/>
    <tag k="tiger:separated" v="no"/>
    <tag k="tiger:source" v="tiger_import_dch_v0.6_20070809"/>
    <tag k="tiger:tlid" v="194536444:194488219:194536445"/>
  </way>
  <way id="44736755" version="3" timestamp="2010-04-14T21:20:05Z" uid="239998" user="Sundance" changeset="4426326">
    <nd ref="87712838"/>
    <nd ref="697084868"/>
    <nd ref="87714675"/>
    <nd ref="87698953"/>
    <nd ref="87725449"/>
    <nd ref="87725450"/>
    <nd ref="87725451"/>
    <nd ref="87715643"/>
    <tag k="highway" v="primary"/>
    <tag k="name" v="South 1st Street"/>
    <tag k="name_1" v="State Highway 86"/>
    <tag k="ref" v="CA 86"/>
    <tag k="tiger:cfcc" v="A21"/>
    <tag k="tiger:county" v="Imperial, CA"/>
    <tag k="tiger:name_base" v="1st"/>
    <tag k="tiger:name_base_1" v="State Highway 86"/>
    <tag k="tiger:name_direction_prefix" v="S"/>
    <tag k="tiger:name_type" v="St"/>
    <tag k="tiger:reviewed" v="no"/>
    <tag k="tiger:separated" v="no"/>
    <tag k="tiger:source" v="tiger_import_dch_v0.6_20070809"/>
    <tag k="tiger:tlid" v="194536444:194488219:194536445"/>
  </way>
  <way id="44736755" version="4" timestamp="2010-04-14T21:20:29Z" uid="239998" user="Sundance" changeset="4426326">
    <nd ref="87712838"/>
    <nd ref="697084868"/>
    <nd ref="87714675"/>
    <nd ref="87698953"/>
    <nd ref="87725449"/>
    <nd ref="87725451"/>
    <nd ref="87715643"/>
    <tag k="highway" v="primary"/>
    <tag k="name" v="South 1st Street"/>
    <tag k="name_1" v="State Highway 86"/>
    <tag k="ref" v="CA 86"/>
    <tag k="tiger:cfcc" v="A21"/>
    <tag k="tiger:county" v="Imperial, CA"/>
    <tag k="tiger:name_base" v="1st"/>
    <tag k="tiger:name_base_1" v="State Highway 86"/>
    <tag k="tiger:name_direction_prefix" v="S"/>
    <tag k="tiger:name_type" v="St"/>
    <tag k="tiger:reviewed" v="no"/>
    <tag k="tiger:separated" v="no"/>
    <tag k="tiger:source" v="tiger_import_dch_v0.6_20070809"/>
    <tag k="tiger:tlid" v="194536444:194488219:194536445"/>
  </way>
  <way id="44736755" version="5" timestamp="2011-06-28T15:12:29Z" uid="473471" user="NE3" changeset="8572555">
    <nd ref="87712838"/>
    <nd ref="697084868"/>
    <nd ref="87714675"/>
    <nd ref="87698953"/>
    <nd ref="87725449"/>
    <nd ref="87725451"/>
    <nd ref="87715643"/>
    <tag k="highway" v="primary"/>
    <tag k="lanes" v="4"/>
    <tag k="name" v="South 1st Street"/>
    <tag k="ref" v="CA 86"/>
    <tag k="tiger:cfcc" v="A21"/>
    <tag k="tiger:county" v="Imperial, CA"/>
    <tag k="tiger:name_base" v="1st"/>
    <tag k="tiger:name_base_1" v="State Highway 86"/>
    <tag k="tiger:name_direction_prefix" v="S"/>
    <tag k="tiger:name_type" v="St"/>
    <tag k="tiger:reviewed" v="no"/>
    <tag k="tiger:separated" v="no"/>
    <tag k="tiger:source" v="tiger_import_dch_v0.6_20070809"/>
    <tag k="tiger:tlid" v="194536444:194488219:194536445"/>
  </way>
  <way id="44736755" version="6" timestamp="2011-08-28T22:35:51Z" uid="207745" user="NE2" changeset="9152642">
    <nd ref="87712838"/>
    <nd ref="697084868"/>
    <nd ref="87714675"/>
    <nd ref="87698953"/>
    <nd ref="87725449"/>
    <nd ref="87725451"/>
    <nd ref="87715643"/>
    <tag k="highway" v="primary"/>
    <tag k="lanes" v="4"/>
    <tag k="name" v="South 1st Street"/>
    <tag k="old_ref" v="US 99"/>
    <tag k="ref" v="CA 86"/>
    <tag k="tiger:cfcc" v="A21"/>
    <tag k="tiger:county" v="Imperial, CA"/>
    <tag k="tiger:name_base" v="1st"/>
    <tag k="tiger:name_base_1" v="State Highway 86"/>
    <tag k="tiger:name_direction_prefix" v="S"/>
    <tag k="tiger:name_type" v="St"/>
    <tag k="tiger:reviewed" v="no"/>
    <tag k="tiger:separated" v="no"/>
    <tag k="tiger:source" v="tiger_import_dch_v0.6_20070809"/>
    <tag k="tiger:tlid" v="194536444:194488219:194536445"/>
  </way>
  <way id="44736783" version="2" timestamp="2009-11-20T22:26:10Z" uid="4467" user="Rosscoe" changeset="3172317">
    <nd ref="567513812"/>
    <nd ref="567513814"/>
    <nd ref="567513817"/>
    <nd ref="567513819"/>
    <tag k="highway" v="track"/>
    <tag k="surface" v="dirt"/>
  </way>
</osm>
