<?xml version='1.0' encoding='UTF-8'?>
<osm version="0.6" generator="libosmium/2.20.0">
  <way id="44746895" version="1" timestamp="2009-11-20T22:07:52Z" uid="110593" user="esetzer" changeset="3172210">
    <nd ref="482840201"/>
    <nd ref="567604438"/>
    <tag k="created_by" v="Merkaartor 0.11"/>
    <tag k="highway" v="pedestrian"/>
  </way>
  <way id="44746895" version="2" timestamp="2010-03-29T04:11:57Z" uid="110593" user="esetzer" changeset="4263703">
    <nd ref="482840201"/>
    <nd ref="567604438"/>
    <tag k="covered" v="yes"/>
    <tag k="created_by" v="Merkaartor 0.11"/>
    <tag k="highway" v="pedestrian"/>
  </way>
  <way id="44746896" version="1" timestamp="2009-11-20T22:07:53Z" uid="110593" user="esetzer" changeset="3172210">
    <nd ref="567604434"/>
    <nd ref="567604433"/>
    <nd ref="567604432"/>
    <nd ref="567604438"/>
    <nd ref="567604437"/>
    <nd ref="567604435"/>
    <nd ref="567604436"/>
    <nd ref="567604434"/>
    <tag k="created_by" v="Merkaartor 0.11"/>
    <tag k="name" v="Nordstrom"/>
    <tag k="operator" v="Nordstrom"/>
    <tag k="shop" v="department_store"/>
  </way>
  <way id="44746896" version="2" timestamp="2009-11-20T23:04:59Z" uid="110593" user="esetzer" changeset="3172533">
    <nd ref="567656584"/>
    <nd ref="567656558"/>
    <nd ref="567656574"/>
    <nd ref="567604438"/>
    <nd ref="567656616"/>
    <nd ref="567656630"/>
    <nd ref="567656602"/>
    <nd ref="567656584"/>
    <tag k="created_by" v="Merkaartor 0.11"/>
    <tag k="name" v="Nordstrom"/>
    <tag k="operator" v="Nordstrom"/>
    <tag k="shop" v="department_store"/>
  </way>
  <way id="44746898" version="1" timestamp="2009-11-20T22:08:12Z" uid="110593" user="esetzer" changeset="3172215">
    <nd ref="486678180"/>
    <nd ref="567604439"/>
    <nd ref="567604440"/>
    <nd ref="567604441"/>
    <nd ref="567604442"/>
    <tag k="created_by" v="Merkaartor 0.11"/>
    <tag k="highway" v="service"/>
  </way>
  <way id="44746898" version="2" timestamp="2012-02-04T06:12:54Z" uid="8909" user="mvexel" changeset="10581441">
    <nd ref="567604439"/>
    <nd ref="567604440"/>
    <nd ref="567604441"/>
    <nd ref="567604442"/>
    <tag k="highway" v="service"/>
  </way>
  <way id="44746899" version="2" timestamp="2010-03-28T11:25:47Z" uid="20587" user="balrog-kun" changeset="4254597">
    <nd ref="122556342"/>
    <nd ref="567604467"/>
    <nd ref="567604468"/>
    <nd ref="122950309"/>
    <tag k="highway" v="residential"/>
    <tag k="name" v="Pine Street"/>
    <tag k="oneway" v="yes"/>
    <tag k="tiger:cfcc" v="A41"/>
    <tag k="tiger:county" v="Los Angeles, CA"/>
    <tag k="tiger:name_base" v="Pine"/>
    <tag k="tiger:name_type" v="St"/>
    <tag k="tiger:separated" v="no"/>
    <tag k="tiger:source" v="tiger_import_dch_v0.6_20070809"/>
    <tag k="tiger:tlid" v="141766692:141630449:141630462:141630465"/>
    <tag k="tiger:zip_left" v="91030"/>
    <tag k="tiger:zip_right" v="91030"/>
  </way>
  <way id="44746900" version="1" timestamp="2009-11-20T22:08:16Z" uid="110593" user="esetzer" changeset="3172215">
    <nd ref="567604439"/>
    <nd ref="567604463"/>
    <nd ref="567604464"/>
    <nd ref="567604466"/>
    <nd ref="567604469"/>
    <nd ref="567604441"/>
    <tag k="created_by" v="Merkaartor 0.11"/>
    <tag k="highway" v="service"/>
  </way>
  <way id="44746901" version="1" timestamp="2009-11-20T22:08:19Z" uid="110593" user="esetzer" changeset="3172215">
    <nd ref="567604470"/>
    <nd ref="567604471"/>
    <tag k="created_by" v="Merkaartor 0.11"/>
    <tag k="escalator" v="yes"/>
    <tag k="escalator_dir" v="down"/>
    <tag k="highway" v="steps"/>
  </way>
  <way id="44746901" version="2" timestamp="2010-03-29T04:12:04Z" uid="110593" user="esetzer" changeset="4263703">
    <nd ref="567604470"/>
    <nd ref="567604471"/>
    <tag k="covered" v="yes"/>
    <tag k="created_by" v="Merkaartor 0.11"/>
    <tag k="escalator" v="yes"/>
    <tag k="escalator_dir" v="down"/>
    <tag k="highway" v="steps"/>
  </way>
  <way id="44746902" version="1" timestamp="2009-11-20T22:08:22Z" uid="110593" user="esetzer" changeset="3172215">
    <nd ref="477558881"/>
    <nd ref="477558876"/>
    <nd ref="482840202"/>
    <nd ref="567604473"/>
    <nd ref="477558885"/>
    <nd ref="477558881"/>
    <tag k="created_by" v="Merkaartor 0.11"/>
    <tag k="name" v="Dillard&apos;s"/>
    <tag k="shop" v="department_store"/>
  </way>
  <way id="44746902" version="2" timestamp="2009-12-04T18:59:50Z" uid="110593" user="esetzer" changeset="3290446">
    <nd ref="477558881"/>
    <nd ref="477558876"/>
    <nd ref="482840202"/>
    <nd ref="581090296"/>
    <nd ref="477558885"/>
    <nd ref="477558881"/>
    <tag k="created_by" v="Merkaartor 0.11"/>
    <tag k="name" v="Dillard&apos;s"/>
    <tag k="shop" v="department_store"/>
  </way>
  <way id="44746903" version="1" timestamp="2009-11-20T22:08:56Z" uid="6269" user="Mueck" changeset="3172199">
    <nd ref="567604480"/>
    <nd ref="32519021"/>
    <nd ref="32519019"/>
    <tag k="highway" v="service"/>
    <tag k="maxspeed" v="30"/>
    <tag k="name" v="Sparkassenhof"/>
    <tag k="note" v="Umbenannt im Juli 2007"/>
    <tag k="old_name" v="Douglashof"/>
    <tag k="oneway" v="yes"/>
  </way>
  <way id="44746903" version="2" timestamp="2011-03-05T00:37:06Z" uid="345980" user="blackdeagle" changeset="7459486">
    <nd ref="32519019"/>
    <nd ref="32519021"/>
    <nd ref="567604480"/>
    <tag k="highway" v="service"/>
    <tag k="maxspeed" v="30"/>
    <tag k="name" v="Sparkassenhof"/>
    <tag k="note" v="Umbenannt im Juli 2007"/>
    <tag k="old_name" v="Douglashof"/>
  </way>
  <way id="44746903" version="3" timestamp="2011-03-20T02:16:37Z" uid="6269" user="Mueck" changeset="7612251">
    <nd ref="32519019"/>
    <nd ref="32519021"/>
    <nd ref="1210006071"/>
    <nd ref="567604480"/>
    <tag k="highway" v="service"/>
    <tag k="maxspeed" v="30"/>
    <tag k="name" v="Sparkassenhof"/>
    <tag k="note" v="Umbenannt im Juli 2007"/>
    <tag k="old_name" v="Douglashof"/>
  </way>
  <way id="44746903" version="4" timestamp="2011-08-10T21:42:51Z" uid="165061" user="keinname" changeset="8980996">
    <nd ref="32519019"/>
    <nd ref="32519021"/>
    <nd ref="1394171075"/>
    <nd ref="1210006071"/>
    <tag k="highway" v="service"/>
    <tag k="maxspeed" v="30"/>
    <tag k="name" v="Sparkassenhof"/>
    <tag k="note" v="Umbenannt im Juli 2007"/>
    <tag k="old_name" v="Douglashof"/>
  </way>
</osm>
