<?xml version='1.0' encoding='UTF-8'?>
<osm version="0.6" generator="libosmium/2.20.0">
  <way id="44791031" version="1" timestamp="2009-11-21T17:23:31Z" uid="74027" user="katzlbt" changeset="3177772">
    <nd ref="567961337"/>
    <nd ref="567984951"/>
    <nd ref="567984952"/>
    <nd ref="567984953"/>
    <nd ref="567984954"/>
    <nd ref="567984955"/>
    <nd ref="567984956"/>
    <nd ref="567984958"/>
    <nd ref="567984959"/>
    <nd ref="567984964"/>
    <nd ref="567984969"/>
    <nd ref="567984974"/>
    <nd ref="567984978"/>
    <nd ref="567984980"/>
    <nd ref="567984981"/>
    <nd ref="567984982"/>
    <nd ref="567984983"/>
    <nd ref="567984984"/>
    <nd ref="567984985"/>
    <nd ref="567984986"/>
    <nd ref="567984987"/>
    <nd ref="567984988"/>
    <nd ref="567984990"/>
    <tag k="highway" v="track"/>
    <tag k="tracktype" v="grade2"/>
  </way>
  <way id="44791031" version="2" timestamp="2009-11-22T08:56:03Z" uid="74027" user="katzlbt" changeset="3183268">
    <nd ref="567961337"/>
    <nd ref="567984951"/>
    <nd ref="567984952"/>
    <nd ref="567984953"/>
    <nd ref="567984954"/>
    <nd ref="567984955"/>
    <nd ref="567984956"/>
    <nd ref="567984958"/>
    <nd ref="567984959"/>
    <nd ref="567984964"/>
    <nd ref="567984969"/>
    <nd ref="567984974"/>
    <nd ref="567984978"/>
    <nd ref="567984980"/>
    <nd ref="567984981"/>
    <nd ref="567984982"/>
    <nd ref="567984983"/>
    <tag k="highway" v="track"/>
    <tag k="mtb:scale" v="0"/>
    <tag k="sac_scale" v="hiking"/>
    <tag k="tracktype" v="grade3"/>
  </way>
  <way id="44791031" version="3" timestamp="2009-11-23T20:03:40Z" uid="74027" user="katzlbt" changeset="3198979">
    <nd ref="567961337"/>
    <nd ref="567984951"/>
    <nd ref="567984952"/>
    <nd ref="567984953"/>
    <nd ref="567984954"/>
    <nd ref="567984955"/>
    <nd ref="567984956"/>
    <nd ref="567984958"/>
    <nd ref="567984959"/>
    <nd ref="567984964"/>
    <nd ref="567984969"/>
    <nd ref="567984974"/>
    <nd ref="567984978"/>
    <nd ref="567984980"/>
    <nd ref="567984981"/>
    <nd ref="567984982"/>
    <nd ref="567984983"/>
    <tag k="highway" v="track"/>
    <tag k="mtb:scale" v="0"/>
    <tag k="name" v="Forstweg Pflutschwiesn"/>
    <tag k="sac_scale" v="hiking"/>
    <tag k="tracktype" v="grade3"/>
  </way>
  <way id="44791031" version="4" timestamp="2010-05-02T20:34:31Z" uid="74027" user="katzlbt" changeset="4589484">
    <nd ref="567961337"/>
    <nd ref="567984951"/>
    <nd ref="717718772"/>
    <nd ref="567984952"/>
    <nd ref="567984953"/>
    <nd ref="567984954"/>
    <nd ref="567984955"/>
    <nd ref="567984956"/>
    <nd ref="717718808"/>
    <nd ref="567984958"/>
    <nd ref="567984959"/>
    <nd ref="567984964"/>
    <nd ref="567984969"/>
    <nd ref="567984974"/>
    <nd ref="567984978"/>
    <nd ref="567984980"/>
    <nd ref="567984981"/>
    <nd ref="567984982"/>
    <nd ref="567984983"/>
    <tag k="highway" v="track"/>
    <tag k="mtb:scale" v="0"/>
    <tag k="name" v="Salfain - Pflutschwiesn"/>
    <tag k="sac_scale" v="hiking"/>
    <tag k="tracktype" v="grade3"/>
  </way>
  <way id="44791031" version="5" timestamp="2011-11-03T22:59:44Z" uid="439111" user="Hafelekar" changeset="9734903">
    <nd ref="567961337"/>
    <nd ref="1490915688"/>
    <nd ref="1490915718"/>
    <nd ref="567984951"/>
    <nd ref="1490915721"/>
    <nd ref="717718772"/>
    <nd ref="567984952"/>
    <nd ref="567984953"/>
    <nd ref="567984954"/>
    <nd ref="567984955"/>
    <nd ref="567984956"/>
    <nd ref="717718808"/>
    <nd ref="567984958"/>
    <nd ref="567984959"/>
    <nd ref="567984964"/>
    <nd ref="567984969"/>
    <nd ref="567984974"/>
    <nd ref="567984978"/>
    <nd ref="567984980"/>
    <nd ref="567984981"/>
    <nd ref="567984982"/>
    <nd ref="567984983"/>
    <tag k="highway" v="track"/>
    <tag k="mtb:scale" v="0"/>
    <tag k="name" v="Salfain - Pflutschwiesn"/>
    <tag k="sac_scale" v="hiking"/>
    <tag k="tracktype" v="grade3"/>
  </way>
  <way id="44791031" version="6" timestamp="2012-02-27T14:58:49Z" uid="606250" user="katzlmacher" changeset="10809290">
    <nd ref="567961337"/>
    <nd ref="1490915688"/>
    <nd ref="1490915718"/>
    <nd ref="567984951"/>
    <nd ref="1490915721"/>
    <nd ref="717718772"/>
    <nd ref="567984952"/>
    <nd ref="567984953"/>
    <nd ref="567984954"/>
    <nd ref="567984955"/>
    <nd ref="567984956"/>
    <nd ref="717718808"/>
    <nd ref="567984958"/>
    <nd ref="567984959"/>
    <nd ref="567984964"/>
    <nd ref="567984969"/>
    <nd ref="567984974"/>
    <nd ref="567984978"/>
    <nd ref="567984980"/>
    <nd ref="567984981"/>
    <nd ref="567984982"/>
    <nd ref="567984983"/>
    <tag k="description" v="Salfain - Pflutschwiesn"/>
    <tag k="highway" v="track"/>
    <tag k="mtb:scale" v="0"/>
    <tag k="sac_scale" v="hiking"/>
    <tag k="tracktype" v="grade3"/>
  </way>
  <way id="44791031" version="7" timestamp="2012-02-27T15:51:07Z" uid="606250" user="katzlmacher" changeset="10809840"/>
  <way id="44791152" version="1" timestamp="2009-11-21T17:27:47Z" uid="74027" user="katzlbt" changeset="3177772">
    <nd ref="567984952"/>
    <nd ref="567986362"/>
    <nd ref="567986367"/>
    <nd ref="567986375"/>
    <nd ref="567986381"/>
    <nd ref="567986383"/>
    <nd ref="567986384"/>
    <nd ref="567986385"/>
    <nd ref="567986387"/>
    <nd ref="567986388"/>
    <nd ref="567986389"/>
    <nd ref="567986390"/>
    <nd ref="567986391"/>
    <tag k="highway" v="track"/>
    <tag k="tracktype" v="grade3"/>
  </way>
  <way id="44791152" version="2" timestamp="2010-05-02T20:34:33Z" uid="74027" user="katzlbt" changeset="4589484">
    <nd ref="567984952"/>
    <nd ref="717718877"/>
    <nd ref="567986362"/>
    <nd ref="567986367"/>
    <nd ref="567986375"/>
    <nd ref="567986381"/>
    <nd ref="567986383"/>
    <nd ref="567986384"/>
    <nd ref="567986385"/>
    <nd ref="567986387"/>
    <nd ref="567986388"/>
    <nd ref="567986389"/>
    <nd ref="567986390"/>
    <nd ref="567986391"/>
    <tag k="highway" v="track"/>
    <tag k="tracktype" v="grade3"/>
  </way>
  <way id="44791152" version="3" timestamp="2012-02-27T15:51:07Z" uid="606250" user="katzlmacher" changeset="10809840"/>
  <way id="44791375" version="2" timestamp="2010-03-22T07:34:58Z" uid="20587" user="balrog-kun" changeset="4199043">
    <nd ref="40675280"/>
    <nd ref="40675282"/>
    <nd ref="40675285"/>
    <nd ref="355771858"/>
    <tag k="cycleway" v="lane"/>
    <tag k="highway" v="tertiary"/>
    <tag k="name" v="North Vancouver Avenue"/>
    <tag k="tiger:cfcc" v="A41"/>
    <tag k="tiger:county" v="Multnomah, OR"/>
    <tag k="tiger:name_base" v="Vancouver"/>
    <tag k="tiger:name_direction_prefix" v="N"/>
    <tag k="tiger:separated" v="no"/>
    <tag k="tiger:source" v="tiger_import_dch_v0.6_20070808"/>
    <tag k="tiger:tlid" v="157563639:157502015:157501997:157582118:157582120:157582121:157609068:157502157:157502154:157502162:157502166:157502168:157502172:157502174:157502210:157502214:157502216:157502218:157502177:157502228:157502230:157503381:157503384:157503392:157503394:15750"/>
    <tag k="tiger:zip_left" v="97217"/>
    <tag k="tiger:zip_right" v="97217"/>
  </way>
  <way id="44791375" version="3" timestamp="2011-08-03T20:59:44Z" uid="362111" user="Mele Sax-Barnett" changeset="8914432">
    <nd ref="40675280"/>
    <nd ref="40675282"/>
    <nd ref="1385244073"/>
    <nd ref="40675285"/>
    <nd ref="355771858"/>
    <tag k="cycleway" v="lane"/>
    <tag k="highway" v="tertiary"/>
    <tag k="name" v="North Vancouver Avenue"/>
    <tag k="tiger:cfcc" v="A41"/>
    <tag k="tiger:county" v="Multnomah, OR"/>
    <tag k="tiger:name_base" v="Vancouver"/>
    <tag k="tiger:name_direction_prefix" v="N"/>
    <tag k="tiger:separated" v="no"/>
    <tag k="tiger:source" v="tiger_import_dch_v0.6_20070808"/>
    <tag k="tiger:tlid" v="157563639:157502015:157501997:157582118:157582120:157582121:157609068:157502157:157502154:157502162:157502166:157502168:157502172:157502174:157502210:157502214:157502216:157502218:157502177:157502228:157502230:157503381:157503384:157503392:157503394:15750"/>
    <tag k="tiger:zip_left" v="97217"/>
    <tag k="tiger:zip_right" v="97217"/>
  </way>
  <way id="44791375" version="4" timestamp="2011-08-04T00:02:42Z" uid="362111" user="Mele Sax-Barnett" changeset="8915622">
    <nd ref="40675280"/>
    <nd ref="1385403853"/>
    <nd ref="40675282"/>
    <nd ref="1385244073"/>
    <nd ref="40675285"/>
    <nd ref="355771858"/>
    <tag k="cycleway" v="lane"/>
    <tag k="highway" v="tertiary"/>
    <tag k="name" v="North Vancouver Avenue"/>
    <tag k="tiger:cfcc" v="A41"/>
    <tag k="tiger:county" v="Multnomah, OR"/>
    <tag k="tiger:name_base" v="Vancouver"/>
    <tag k="tiger:name_direction_prefix" v="N"/>
    <tag k="tiger:separated" v="no"/>
    <tag k="tiger:source" v="tiger_import_dch_v0.6_20070808"/>
    <tag k="tiger:tlid" v="157563639:157502015:157501997:157582118:157582120:157582121:157609068:157502157:157502154:157502162:157502166:157502168:157502172:157502174:157502210:157502214:157502216:157502218:157502177:157502228:157502230:157503381:157503384:157503392:157503394:15750"/>
    <tag k="tiger:zip_left" v="97217"/>
    <tag k="tiger:zip_right" v="97217"/>
  </way>
  <way id="44791375" version="5" timestamp="2011-09-03T04:30:02Z" uid="372357" user="PJ Houser" changeset="9197912">
    <nd ref="40675280"/>
    <nd ref="1385403853"/>
    <nd ref="1421630399"/>
    <nd ref="40675282"/>
    <nd ref="1421630406"/>
    <nd ref="1385244073"/>
    <nd ref="40675285"/>
    <nd ref="355771858"/>
    <tag k="RLIS:bicycle" v="designated"/>
    <tag k="RLIS:localid" v="192337"/>
    <tag k="RLIS:reviewed" v="no"/>
    <tag k="cycleway" v="lane"/>
    <tag k="highway" v="tertiary"/>
    <tag k="name" v="North Vancouver Avenue"/>
    <tag k="zip_left" v="97217"/>
    <tag k="zip_right" v="97217"/>
  </way>
  <way id="44791375" version="6" timestamp="2011-10-26T22:06:06Z" uid="362111" user="Mele Sax-Barnett" changeset="9664635">
    <nd ref="40675280"/>
    <nd ref="1385403853"/>
    <nd ref="1421630399"/>
    <nd ref="40675282"/>
    <tag k="RLIS:bicycle" v="designated"/>
    <tag k="RLIS:localid" v="192337"/>
    <tag k="RLIS:reviewed" v="no"/>
    <tag k="cycleway" v="lane"/>
    <tag k="highway" v="tertiary"/>
    <tag k="maxspeed" v="30 mph"/>
    <tag k="name" v="North Vancouver Avenue"/>
    <tag k="zip_left" v="97217"/>
    <tag k="zip_right" v="97217"/>
  </way>
  <way id="44791375" version="7" timestamp="2011-12-14T00:19:01Z" uid="372357" user="PJ Houser" changeset="10112406">
    <nd ref="40675280"/>
    <nd ref="1385403853"/>
    <nd ref="1421630399"/>
    <nd ref="40675282"/>
    <tag k="RLIS:bicycle" v="designated"/>
    <tag k="RLIS:localid" v="192337"/>
    <tag k="RLIS:reviewed" v="no"/>
    <tag k="bicycle" v="designated"/>
    <tag k="cycleway" v="lane"/>
    <tag k="highway" v="tertiary"/>
    <tag k="maxspeed" v="30 mph"/>
    <tag k="name" v="North Vancouver Avenue"/>
    <tag k="zip_left" v="97217"/>
    <tag k="zip_right" v="97217"/>
  </way>
  <way id="44791381" version="2" timestamp="2010-03-22T07:34:58Z" uid="20587" user="balrog-kun" changeset="4199043">
    <nd ref="40675271"/>
    <nd ref="40675280"/>
    <tag k="bridge" v="yes"/>
    <tag k="cycleway" v="lane"/>
    <tag k="highway" v="tertiary"/>
    <tag k="layer" v="1"/>
    <tag k="name" v="North Vancouver Avenue"/>
    <tag k="tiger:cfcc" v="A41"/>
    <tag k="tiger:county" v="Multnomah, OR"/>
    <tag k="tiger:name_base" v="Vancouver"/>
    <tag k="tiger:name_direction_prefix" v="N"/>
    <tag k="tiger:separated" v="no"/>
    <tag k="tiger:source" v="tiger_import_dch_v0.6_20070808"/>
    <tag k="tiger:tlid" v="157563639:157502015:157501997:157582118:157582120:157582121:157609068:157502157:157502154:157502162:157502166:157502168:157502172:157502174:157502210:157502214:157502216:157502218:157502177:157502228:157502230:157503381:157503384:157503392:157503394:15750"/>
    <tag k="tiger:zip_left" v="97217"/>
    <tag k="tiger:zip_right" v="97217"/>
  </way>
  <way id="44791381" version="3" timestamp="2011-09-03T04:30:01Z" uid="372357" user="PJ Houser" changeset="9197912">
    <nd ref="40675271"/>
    <nd ref="40675280"/>
    <tag k="RLIS:bicycle" v="designated"/>
    <tag k="RLIS:localid" v="192339"/>
    <tag k="RLIS:reviewed" v="no"/>
    <tag k="bridge" v="yes"/>
    <tag k="cycleway" v="lane"/>
    <tag k="highway" v="tertiary"/>
    <tag k="layer" v="1"/>
    <tag k="name" v="North Vancouver Avenue"/>
    <tag k="zip_left" v="97217"/>
    <tag k="zip_right" v="97217"/>
  </way>
  <way id="44791381" version="4" timestamp="2011-10-26T22:06:02Z" uid="362111" user="Mele Sax-Barnett" changeset="9664635">
    <nd ref="40675271"/>
    <nd ref="40675280"/>
    <tag k="RLIS:bicycle" v="designated"/>
    <tag k="RLIS:localid" v="192339"/>
    <tag k="RLIS:reviewed" v="no"/>
    <tag k="bridge" v="yes"/>
    <tag k="cycleway" v="lane"/>
    <tag k="highway" v="tertiary"/>
    <tag k="layer" v="1"/>
    <tag k="maxspeed" v="30 mph"/>
    <tag k="name" v="North Vancouver Avenue"/>
    <tag k="zip_left" v="97217"/>
    <tag k="zip_right" v="97217"/>
  </way>
  <way id="44791381" version="5" timestamp="2011-12-14T01:06:09Z" uid="372357" user="PJ Houser" changeset="10112539">
    <nd ref="40675271"/>
    <nd ref="40675280"/>
    <tag k="RLIS:bicycle" v="designated"/>
    <tag k="RLIS:localid" v="192339"/>
    <tag k="RLIS:reviewed" v="no"/>
    <tag k="bicycle" v="designated"/>
    <tag k="bridge" v="yes"/>
    <tag k="cycleway" v="lane"/>
    <tag k="highway" v="tertiary"/>
    <tag k="layer" v="1"/>
    <tag k="maxspeed" v="30 mph"/>
    <tag k="name" v="North Vancouver Avenue"/>
    <tag k="zip_left" v="97217"/>
    <tag k="zip_right" v="97217"/>
  </way>
  <way id="44791476" version="3" timestamp="2010-03-22T07:34:58Z" uid="20587" user="balrog-kun" changeset="4199043">
    <nd ref="567989534"/>
    <nd ref="567989535"/>
    <tag k="bridge" v="yes"/>
    <tag k="highway" v="trunk"/>
    <tag k="layer" v="1"/>
    <tag k="name" v="Northeast Martin Luther King, Junior Boulevard"/>
    <tag k="name_1" v="State Highway 99E"/>
    <tag k="oneway" v="yes"/>
    <tag k="ref" v="OR99E"/>
    <tag k="tiger:cfcc" v="A35"/>
    <tag k="tiger:county" v="Multnomah, OR"/>
    <tag k="tiger:name_base" v="M L King"/>
    <tag k="tiger:name_base_1" v="State Highway 99E"/>
    <tag k="tiger:name_direction_prefix" v="NE"/>
    <tag k="tiger:reviewed" v="no"/>
    <tag k="tiger:separated" v="yes"/>
    <tag k="tiger:source" v="tiger_import_dch_v0.6_20070808"/>
    <tag k="tiger:tlid" v="157495132:157559309:157563996:157502007:157495120"/>
    <tag k="tiger:zip_left" v="97217"/>
  </way>
  <way id="44791476" version="4" timestamp="2011-01-23T03:50:00Z" uid="92286" user="Paul Johnson" changeset="7057582">
    <nd ref="567989534"/>
    <nd ref="567989535"/>
    <tag k="bridge" v="yes"/>
    <tag k="highway" v="trunk"/>
    <tag k="layer" v="1"/>
    <tag k="name" v="Northeast Martin Luther King, Junior Boulevard"/>
    <tag k="name_1" v="State Highway 99E"/>
    <tag k="oneway" v="yes"/>
    <tag k="ref" v="OR99E"/>
    <tag k="tiger:cfcc" v="A35"/>
    <tag k="tiger:county" v="Multnomah, OR"/>
    <tag k="tiger:name_base" v="M L King"/>
    <tag k="tiger:name_base_1" v="State Highway 99E"/>
    <tag k="tiger:name_direction_prefix" v="Northeast"/>
    <tag k="tiger:reviewed" v="no"/>
    <tag k="tiger:separated" v="yes"/>
    <tag k="tiger:source" v="tiger_import_dch_v0.6_20070808"/>
    <tag k="tiger:tlid" v="157495132:157559309:157563996:157502007:157495120"/>
    <tag k="tiger:zip_left" v="97217"/>
  </way>
  <way id="44791476" version="5" timestamp="2011-02-11T03:13:53Z" uid="373763" user="ylekot" changeset="7251700">
    <nd ref="567989534"/>
    <nd ref="567989535"/>
    <tag k="alt_name" v="Pacific Highway East #1E (81)"/>
    <tag k="bridge" v="yes"/>
    <tag k="highway" v="trunk"/>
    <tag k="layer" v="1"/>
    <tag k="name" v="Northeast Martin Luther King, Junior Boulevard"/>
    <tag k="name_1" v="State Highway 99E"/>
    <tag k="oneway" v="yes"/>
    <tag k="ref" v="OR99E"/>
    <tag k="tiger:cfcc" v="A35"/>
    <tag k="tiger:county" v="Multnomah, OR"/>
    <tag k="tiger:name_base" v="M L King"/>
    <tag k="tiger:name_base_1" v="State Highway 99E"/>
    <tag k="tiger:name_direction_prefix" v="Northeast"/>
    <tag k="tiger:reviewed" v="no"/>
    <tag k="tiger:separated" v="yes"/>
    <tag k="tiger:source" v="tiger_import_dch_v0.6_20070808"/>
    <tag k="tiger:tlid" v="157495132:157559309:157563996:157502007:157495120"/>
    <tag k="tiger:zip_left" v="97217"/>
  </way>
  <way id="44791476" version="6" timestamp="2011-02-11T03:20:19Z" uid="373763" user="ylekot" changeset="7251777">
    <nd ref="567989534"/>
    <nd ref="567989535"/>
    <tag k="alt_name" v="Pacific Highway East #1E (81)"/>
    <tag k="bridge" v="yes"/>
    <tag k="highway" v="trunk"/>
    <tag k="layer" v="1"/>
    <tag k="name" v="Northeast Martin Luther King Junior Boulevard"/>
    <tag k="name_1" v="State Highway 99E"/>
    <tag k="old_ref" v="US 99E"/>
    <tag k="oneway" v="yes"/>
    <tag k="ref" v="OR99E"/>
    <tag k="tiger:cfcc" v="A35"/>
    <tag k="tiger:county" v="Multnomah, OR"/>
    <tag k="tiger:name_base" v="M L King"/>
    <tag k="tiger:name_base_1" v="State Highway 99E"/>
    <tag k="tiger:name_direction_prefix" v="Northeast"/>
    <tag k="tiger:reviewed" v="no"/>
    <tag k="tiger:separated" v="yes"/>
    <tag k="tiger:source" v="tiger_import_dch_v0.6_20070808"/>
    <tag k="tiger:tlid" v="157495132:157559309:157563996:157502007:157495120"/>
    <tag k="tiger:zip_left" v="97217"/>
  </way>
  <way id="44791476" version="7" timestamp="2011-06-23T02:13:23Z" uid="473471" user="NE3" changeset="8520254">
    <nd ref="567989534"/>
    <nd ref="567989535"/>
    <tag k="alt_name" v="Pacific Highway East #1E (81)"/>
    <tag k="bridge" v="yes"/>
    <tag k="highway" v="trunk"/>
    <tag k="lanes" v="2"/>
    <tag k="layer" v="1"/>
    <tag k="name" v="Northeast Martin Luther King Junior Boulevard"/>
    <tag k="name_1" v="State Highway 99E"/>
    <tag k="old_ref" v="US 99E"/>
    <tag k="oneway" v="yes"/>
    <tag k="ref" v="OR99E"/>
    <tag k="tiger:cfcc" v="A35"/>
    <tag k="tiger:county" v="Multnomah, OR"/>
    <tag k="tiger:name_base" v="M L King"/>
    <tag k="tiger:name_base_1" v="State Highway 99E"/>
    <tag k="tiger:name_direction_prefix" v="Northeast"/>
    <tag k="tiger:reviewed" v="no"/>
    <tag k="tiger:separated" v="yes"/>
    <tag k="tiger:source" v="tiger_import_dch_v0.6_20070808"/>
    <tag k="tiger:tlid" v="157495132:157559309:157563996:157502007:157495120"/>
    <tag k="tiger:zip_left" v="97217"/>
  </way>
  <way id="44791476" version="8" timestamp="2011-08-03T20:59:48Z" uid="362111" user="Mele Sax-Barnett" changeset="8914432">
    <nd ref="567989534"/>
    <nd ref="567989535"/>
    <nd ref="567989537"/>
    <nd ref="40515488"/>
    <tag k="alt_name" v="Pacific Highway East #1E (81)"/>
    <tag k="bridge" v="yes"/>
    <tag k="highway" v="trunk"/>
    <tag k="lanes" v="2"/>
    <tag k="layer" v="1"/>
    <tag k="name" v="Northeast Martin Luther King Junior Boulevard"/>
    <tag k="name_1" v="State Highway 99E"/>
    <tag k="old_ref" v="US 99E"/>
    <tag k="oneway" v="yes"/>
    <tag k="ref" v="OR 99E"/>
    <tag k="tiger:cfcc" v="A35"/>
    <tag k="tiger:county" v="Multnomah, OR"/>
    <tag k="tiger:name_base" v="M L King"/>
    <tag k="tiger:name_base_1" v="State Highway 99E"/>
    <tag k="tiger:name_direction_prefix" v="Northeast"/>
    <tag k="tiger:separated" v="yes"/>
    <tag k="tiger:source" v="tiger_import_dch_v0.6_20070808"/>
    <tag k="tiger:tlid" v="157495120:157495132:157502007:157559309:157563996"/>
    <tag k="tiger:zip_left" v="97217"/>
  </way>
  <way id="44791476" version="9" timestamp="2011-10-07T23:52:42Z" uid="372357" user="PJ Houser" changeset="9498625">
    <nd ref="567989534"/>
    <nd ref="567989535"/>
    <nd ref="567989537"/>
    <nd ref="40515488"/>
    <tag k="RLIS:bicycle" v="designated"/>
    <tag k="alt_name" v="Pacific Highway East #1E (81)"/>
    <tag k="bicycle" v="yes"/>
    <tag k="bridge" v="yes"/>
    <tag k="highway" v="trunk"/>
    <tag k="lanes" v="2"/>
    <tag k="layer" v="1"/>
    <tag k="name" v="Northeast Martin Luther King Junior Boulevard"/>
    <tag k="name_1" v="State Highway 99E"/>
    <tag k="old_ref" v="US 99E"/>
    <tag k="oneway" v="yes"/>
    <tag k="ref" v="OR 99E"/>
  </way>
  <way id="44791476" version="10" timestamp="2011-10-26T21:28:45Z" uid="362111" user="Mele Sax-Barnett" changeset="9664367">
    <nd ref="567989534"/>
    <nd ref="567989535"/>
    <nd ref="567989537"/>
    <nd ref="40515488"/>
    <tag k="RLIS:bicycle" v="designated"/>
    <tag k="alt_name" v="Pacific Highway East #1E (81)"/>
    <tag k="bicycle" v="yes"/>
    <tag k="bridge" v="yes"/>
    <tag k="highway" v="trunk"/>
    <tag k="lanes" v="2"/>
    <tag k="layer" v="1"/>
    <tag k="maxspeed" v="55 mph"/>
    <tag k="name" v="Northeast Martin Luther King Junior Boulevard"/>
    <tag k="name_1" v="State Highway 99E"/>
    <tag k="old_ref" v="US 99E"/>
    <tag k="oneway" v="yes"/>
    <tag k="ref" v="OR 99E"/>
  </way>
  <way id="44791476" version="11" timestamp="2011-11-25T17:00:43Z" uid="207745" user="NE2" changeset="9945867">
    <nd ref="567989534"/>
    <nd ref="567989535"/>
    <nd ref="567989537"/>
    <nd ref="40515488"/>
    <tag k="RLIS:bicycle" v="designated"/>
    <tag k="alt_name" v="Pacific Highway East #1E (81)"/>
    <tag k="bicycle" v="yes"/>
    <tag k="bridge" v="yes"/>
    <tag k="hgv" v="designated"/>
    <tag k="hgv:national_network" v="yes"/>
    <tag k="highway" v="trunk"/>
    <tag k="lanes" v="2"/>
    <tag k="layer" v="1"/>
    <tag k="maxspeed" v="55 mph"/>
    <tag k="name" v="Northeast Martin Luther King Junior Boulevard"/>
    <tag k="name_1" v="State Highway 99E"/>
    <tag k="old_ref" v="US 99E"/>
    <tag k="oneway" v="yes"/>
    <tag k="ref" v="OR 99E"/>
    <tag k="source:hgv:national_network" v="Title 23: Highways Part 658 http://ecfr.gpoaccess.gov/cgi/t/text/text-idx?c=ecfr&amp;rgn=div5&amp;view=text&amp;node=23:1.0.1.7.33&amp;idno=23"/>
  </way>
  <way id="44791476" version="12" timestamp="2011-12-09T00:19:15Z" uid="372357" user="PJ Houser" changeset="10069888">
    <nd ref="567989534"/>
    <nd ref="567989535"/>
    <nd ref="567989537"/>
    <nd ref="40515488"/>
    <tag k="RLIS:bicycle" v="designated"/>
    <tag k="alt_name" v="Pacific Highway East #1E (81)"/>
    <tag k="bicycle" v="designated"/>
    <tag k="bridge" v="yes"/>
    <tag k="hgv" v="designated"/>
    <tag k="hgv:national_network" v="yes"/>
    <tag k="highway" v="trunk"/>
    <tag k="lanes" v="2"/>
    <tag k="layer" v="1"/>
    <tag k="maxspeed" v="55 mph"/>
    <tag k="name" v="Northeast Martin Luther King Junior Boulevard"/>
    <tag k="name_1" v="State Highway 99E"/>
    <tag k="old_ref" v="US 99E"/>
    <tag k="oneway" v="yes"/>
    <tag k="ref" v="OR 99E"/>
    <tag k="source:hgv:national_network" v="Title 23: Highways Part 658 http://ecfr.gpoaccess.gov/cgi/t/text/text-idx?c=ecfr&amp;rgn=div5&amp;view=text&amp;node=23:1.0.1.7.33&amp;idno=23"/>
  </way>
  <way id="44791476" version="13" timestamp="2012-03-15T04:56:34Z" uid="393906" user="Grant Humphries" changeset="10984887">
    <nd ref="567989534"/>
    <nd ref="567989535"/>
    <nd ref="567989537"/>
    <nd ref="40515488"/>
    <tag k="RLIS:bicycle" v="designated"/>
    <tag k="alt_name" v="Pacific Highway East #1E (81)"/>
    <tag k="bicycle" v="designated"/>
    <tag k="bridge" v="yes"/>
    <tag k="foot" v="no"/>
    <tag k="hgv" v="designated"/>
    <tag k="hgv:national_network" v="yes"/>
    <tag k="highway" v="trunk"/>
    <tag k="lanes" v="2"/>
    <tag k="layer" v="1"/>
    <tag k="maxspeed" v="55 mph"/>
    <tag k="name" v="Northeast Martin Luther King Junior Boulevard"/>
    <tag k="name_1" v="State Highway 99E"/>
    <tag k="old_ref" v="US 99E"/>
    <tag k="oneway" v="yes"/>
    <tag k="ref" v="OR 99E"/>
    <tag k="source:hgv:national_network" v="Title 23: Highways Part 658 http://ecfr.gpoaccess.gov/cgi/t/text/text-idx?c=ecfr&amp;rgn=div5&amp;view=text&amp;node=23:1.0.1.7.33&amp;idno=23"/>
  </way>
  <way id="44791476" version="14" timestamp="2012-03-16T19:16:55Z" uid="92286" user="Paul Johnson" changeset="11001433">
    <nd ref="567989534"/>
    <nd ref="567989535"/>
    <nd ref="567989537"/>
    <nd ref="40515488"/>
    <tag k="RLIS:bicycle" v="designated"/>
    <tag k="alt_name" v="Pacific Highway East #1E (81)"/>
    <tag k="bicycle" v="designated"/>
    <tag k="bridge" v="yes"/>
    <tag k="foot" v="no"/>
    <tag k="hgv" v="designated"/>
    <tag k="hgv:national_network" v="yes"/>
    <tag k="highway" v="trunk"/>
    <tag k="lanes" v="2"/>
    <tag k="layer" v="1"/>
    <tag k="maxspeed" v="55 mph"/>
    <tag k="name" v="Northeast Martin Luther King, Junior Boulevard"/>
    <tag k="name_1" v="State Highway 99E"/>
    <tag k="old_ref" v="US 99E"/>
    <tag k="oneway" v="yes"/>
    <tag k="ref" v="OR 99E"/>
    <tag k="source:hgv:national_network" v="Title 23: Highways Part 658 http://ecfr.gpoaccess.gov/cgi/t/text/text-idx?c=ecfr&amp;rgn=div5&amp;view=text&amp;node=23:1.0.1.7.33&amp;idno=23"/>
  </way>
  <way id="44791482" version="3" timestamp="2010-03-22T07:34:58Z" uid="20587" user="balrog-kun" changeset="4199043">
    <nd ref="567989535"/>
    <nd ref="567989537"/>
    <tag k="highway" v="trunk"/>
    <tag k="name" v="Northeast Martin Luther King, Junior Boulevard"/>
    <tag k="name_1" v="State Highway 99E"/>
    <tag k="oneway" v="yes"/>
    <tag k="ref" v="OR99E"/>
    <tag k="tiger:cfcc" v="A35"/>
    <tag k="tiger:county" v="Multnomah, OR"/>
    <tag k="tiger:name_base" v="M L King"/>
    <tag k="tiger:name_base_1" v="State Highway 99E"/>
    <tag k="tiger:name_direction_prefix" v="NE"/>
    <tag k="tiger:reviewed" v="no"/>
    <tag k="tiger:separated" v="yes"/>
    <tag k="tiger:source" v="tiger_import_dch_v0.6_20070808"/>
    <tag k="tiger:tlid" v="157495132:157559309:157563996:157502007:157495120"/>
    <tag k="tiger:zip_left" v="97217"/>
  </way>
  <way id="44791482" version="4" timestamp="2010-12-18T19:12:56Z" uid="373763" user="ylekot" changeset="6699301">
    <nd ref="567989535"/>
    <nd ref="567989537"/>
    <tag k="highway" v="trunk"/>
    <tag k="name" v="Northeast Martin Luther King, Junior Boulevard"/>
    <tag k="name_1" v="State Highway 99E"/>
    <tag k="oneway" v="yes"/>
    <tag k="ref" v="OR 99E"/>
    <tag k="tiger:cfcc" v="A35"/>
    <tag k="tiger:county" v="Multnomah, OR"/>
    <tag k="tiger:name_base" v="M L King"/>
    <tag k="tiger:name_base_1" v="State Highway 99E"/>
    <tag k="tiger:name_direction_prefix" v="NE"/>
    <tag k="tiger:reviewed" v="no"/>
    <tag k="tiger:separated" v="yes"/>
    <tag k="tiger:source" v="tiger_import_dch_v0.6_20070808"/>
    <tag k="tiger:tlid" v="157495132:157559309:157563996:157502007:157495120"/>
    <tag k="tiger:zip_left" v="97217"/>
  </way>
  <way id="44791482" version="5" timestamp="2011-01-23T03:56:07Z" uid="92286" user="Paul Johnson" changeset="7057582">
    <nd ref="567989535"/>
    <nd ref="567989537"/>
    <tag k="highway" v="trunk"/>
    <tag k="name" v="Northeast Martin Luther King, Junior Boulevard"/>
    <tag k="name_1" v="State Highway 99E"/>
    <tag k="oneway" v="yes"/>
    <tag k="ref" v="OR 99E"/>
    <tag k="tiger:cfcc" v="A35"/>
    <tag k="tiger:county" v="Multnomah, OR"/>
    <tag k="tiger:name_base" v="M L King"/>
    <tag k="tiger:name_base_1" v="State Highway 99E"/>
    <tag k="tiger:name_direction_prefix" v="Northeast"/>
    <tag k="tiger:reviewed" v="no"/>
    <tag k="tiger:separated" v="yes"/>
    <tag k="tiger:source" v="tiger_import_dch_v0.6_20070808"/>
    <tag k="tiger:tlid" v="157495132:157559309:157563996:157502007:157495120"/>
    <tag k="tiger:zip_left" v="97217"/>
  </way>
  <way id="44791482" version="6" timestamp="2011-02-11T03:20:19Z" uid="373763" user="ylekot" changeset="7251777">
    <nd ref="567989535"/>
    <nd ref="567989537"/>
    <tag k="alt_name" v="Pacific Highway East #1E (81)"/>
    <tag k="highway" v="trunk"/>
    <tag k="name" v="Northeast Martin Luther King Junior Boulevard"/>
    <tag k="name_1" v="State Highway 99E"/>
    <tag k="old_ref" v="US 99E"/>
    <tag k="oneway" v="yes"/>
    <tag k="ref" v="OR 99E"/>
    <tag k="tiger:cfcc" v="A35"/>
    <tag k="tiger:county" v="Multnomah, OR"/>
    <tag k="tiger:name_base" v="M L King"/>
    <tag k="tiger:name_base_1" v="State Highway 99E"/>
    <tag k="tiger:name_direction_prefix" v="Northeast"/>
    <tag k="tiger:reviewed" v="no"/>
    <tag k="tiger:separated" v="yes"/>
    <tag k="tiger:source" v="tiger_import_dch_v0.6_20070808"/>
    <tag k="tiger:tlid" v="157495132:157559309:157563996:157502007:157495120"/>
    <tag k="tiger:zip_left" v="97217"/>
  </way>
  <way id="44791482" version="7" timestamp="2011-06-23T02:02:57Z" uid="473471" user="NE3" changeset="8520254">
    <nd ref="567989535"/>
    <nd ref="567989537"/>
    <tag k="alt_name" v="Pacific Highway East #1E (81)"/>
    <tag k="highway" v="trunk"/>
    <tag k="lanes" v="2"/>
    <tag k="name" v="Northeast Martin Luther King Junior Boulevard"/>
    <tag k="name_1" v="State Highway 99E"/>
    <tag k="old_ref" v="US 99E"/>
    <tag k="oneway" v="yes"/>
    <tag k="ref" v="OR 99E"/>
    <tag k="tiger:cfcc" v="A35"/>
    <tag k="tiger:county" v="Multnomah, OR"/>
    <tag k="tiger:name_base" v="M L King"/>
    <tag k="tiger:name_base_1" v="State Highway 99E"/>
    <tag k="tiger:name_direction_prefix" v="Northeast"/>
    <tag k="tiger:reviewed" v="no"/>
    <tag k="tiger:separated" v="yes"/>
    <tag k="tiger:source" v="tiger_import_dch_v0.6_20070808"/>
    <tag k="tiger:tlid" v="157495132:157559309:157563996:157502007:157495120"/>
    <tag k="tiger:zip_left" v="97217"/>
  </way>
  <way id="44791482" version="8" timestamp="2011-08-03T21:00:03Z" uid="362111" user="Mele Sax-Barnett" changeset="8914432"/>
  <way id="44791492" version="3" timestamp="2010-03-22T07:34:59Z" uid="20587" user="balrog-kun" changeset="4199043">
    <nd ref="567989538"/>
    <nd ref="567989539"/>
    <tag k="bridge" v="yes"/>
    <tag k="highway" v="trunk"/>
    <tag k="layer" v="1"/>
    <tag k="name" v="Northeast Martin Luther King, Junior Boulevard"/>
    <tag k="name_1" v="State Highway 99E"/>
    <tag k="oneway" v="yes"/>
    <tag k="ref" v="OR99E"/>
    <tag k="tiger:cfcc" v="A35"/>
    <tag k="tiger:county" v="Multnomah, OR"/>
    <tag k="tiger:name_base" v="M L King"/>
    <tag k="tiger:name_base_1" v="State Highway 99E"/>
    <tag k="tiger:name_direction_prefix" v="NE"/>
    <tag k="tiger:reviewed" v="no"/>
    <tag k="tiger:separated" v="yes"/>
    <tag k="tiger:source" v="tiger_import_dch_v0.6_20070808"/>
    <tag k="tiger:tlid" v="157608079:157608080:157608088:157597843:157597758:157596710:157596685:157596686:157596690:157596692:157607981:157596713:157596716"/>
  </way>
  <way id="44791492" version="4" timestamp="2011-01-23T04:03:33Z" uid="92286" user="Paul Johnson" changeset="7057582">
    <nd ref="567989538"/>
    <nd ref="567989539"/>
    <tag k="bridge" v="yes"/>
    <tag k="highway" v="trunk"/>
    <tag k="layer" v="1"/>
    <tag k="name" v="Northeast Martin Luther King, Junior Boulevard"/>
    <tag k="name_1" v="State Highway 99E"/>
    <tag k="oneway" v="yes"/>
    <tag k="ref" v="OR99E"/>
    <tag k="tiger:cfcc" v="A35"/>
    <tag k="tiger:county" v="Multnomah, OR"/>
    <tag k="tiger:name_base" v="M L King"/>
    <tag k="tiger:name_base_1" v="State Highway 99E"/>
    <tag k="tiger:name_direction_prefix" v="Northeast"/>
    <tag k="tiger:reviewed" v="no"/>
    <tag k="tiger:separated" v="yes"/>
    <tag k="tiger:source" v="tiger_import_dch_v0.6_20070808"/>
    <tag k="tiger:tlid" v="157608079:157608080:157608088:157597843:157597758:157596710:157596685:157596686:157596690:157596692:157607981:157596713:157596716"/>
  </way>
  <way id="44791492" version="5" timestamp="2011-02-11T03:20:20Z" uid="373763" user="ylekot" changeset="7251777">
    <nd ref="567989538"/>
    <nd ref="567989539"/>
    <tag k="alt_name" v="Pacific Highway East #1E (81)"/>
    <tag k="bridge" v="yes"/>
    <tag k="highway" v="trunk"/>
    <tag k="layer" v="1"/>
    <tag k="name" v="Northeast Martin Luther King Junior Boulevard"/>
    <tag k="name_1" v="State Highway 99E"/>
    <tag k="old_ref" v="US 99E"/>
    <tag k="oneway" v="yes"/>
    <tag k="ref" v="OR99E"/>
    <tag k="tiger:cfcc" v="A35"/>
    <tag k="tiger:county" v="Multnomah, OR"/>
    <tag k="tiger:name_base" v="M L King"/>
    <tag k="tiger:name_base_1" v="State Highway 99E"/>
    <tag k="tiger:name_direction_prefix" v="Northeast"/>
    <tag k="tiger:reviewed" v="no"/>
    <tag k="tiger:separated" v="yes"/>
    <tag k="tiger:source" v="tiger_import_dch_v0.6_20070808"/>
    <tag k="tiger:tlid" v="157608079:157608080:157608088:157597843:157597758:157596710:157596685:157596686:157596690:157596692:157607981:157596713:157596716"/>
  </way>
  <way id="44791492" version="6" timestamp="2011-06-23T02:06:00Z" uid="473471" user="NE3" changeset="8520254">
    <nd ref="567989538"/>
    <nd ref="567989539"/>
    <tag k="alt_name" v="Pacific Highway East #1E (81)"/>
    <tag k="bridge" v="yes"/>
    <tag k="highway" v="trunk"/>
    <tag k="lanes" v="2"/>
    <tag k="layer" v="1"/>
    <tag k="name" v="Northeast Martin Luther King Junior Boulevard"/>
    <tag k="name_1" v="State Highway 99E"/>
    <tag k="old_ref" v="US 99E"/>
    <tag k="oneway" v="yes"/>
    <tag k="ref" v="OR99E"/>
    <tag k="tiger:cfcc" v="A35"/>
    <tag k="tiger:county" v="Multnomah, OR"/>
    <tag k="tiger:name_base" v="M L King"/>
    <tag k="tiger:name_base_1" v="State Highway 99E"/>
    <tag k="tiger:name_direction_prefix" v="Northeast"/>
    <tag k="tiger:reviewed" v="no"/>
    <tag k="tiger:separated" v="yes"/>
    <tag k="tiger:source" v="tiger_import_dch_v0.6_20070808"/>
    <tag k="tiger:tlid" v="157608079:157608080:157608088:157597843:157597758:157596710:157596685:157596686:157596690:157596692:157607981:157596713:157596716"/>
  </way>
  <way id="44791492" version="7" timestamp="2011-08-03T20:59:47Z" uid="362111" user="Mele Sax-Barnett" changeset="8914432">
    <nd ref="40515842"/>
    <nd ref="567989573"/>
    <nd ref="567989538"/>
    <tag k="alt_name" v="Pacific Highway East #1E (81)"/>
    <tag k="bridge" v="yes"/>
    <tag k="highway" v="trunk"/>
    <tag k="lanes" v="2"/>
    <tag k="layer" v="1"/>
    <tag k="name" v="Northeast Martin Luther King Junior Boulevard"/>
    <tag k="name_1" v="State Highway 99E"/>
    <tag k="old_ref" v="US 99E"/>
    <tag k="oneway" v="yes"/>
    <tag k="ref" v="OR 99E"/>
    <tag k="tiger:cfcc" v="A35"/>
    <tag k="tiger:county" v="Multnomah, OR"/>
    <tag k="tiger:name_base" v="M L King"/>
    <tag k="tiger:name_base_1" v="State Highway 99E"/>
    <tag k="tiger:name_direction_prefix" v="Northeast"/>
    <tag k="tiger:reviewed" v="no"/>
    <tag k="tiger:separated" v="yes"/>
    <tag k="tiger:source" v="tiger_import_dch_v0.6_20070808"/>
    <tag k="tiger:tlid" v="157596685:157596686:157596690:157596692:157596710:157596713:157596716:157597758:157597843:157607981:157608079:157608080:157608088"/>
  </way>
  <way id="44791492" version="8" timestamp="2011-10-07T23:52:41Z" uid="372357" user="PJ Houser" changeset="9498625">
    <nd ref="40515842"/>
    <nd ref="567989573"/>
    <nd ref="567989538"/>
    <tag k="RLIS:bicycle" v="designated"/>
    <tag k="alt_name" v="Pacific Highway East #1E (81)"/>
    <tag k="bicycle" v="yes"/>
    <tag k="bridge" v="yes"/>
    <tag k="highway" v="trunk"/>
    <tag k="lanes" v="2"/>
    <tag k="layer" v="1"/>
    <tag k="name" v="Northeast Martin Luther King Junior Boulevard"/>
    <tag k="name_1" v="State Highway 99E"/>
    <tag k="old_ref" v="US 99E"/>
    <tag k="oneway" v="yes"/>
    <tag k="ref" v="OR 99E"/>
  </way>
  <way id="44791492" version="9" timestamp="2011-10-26T21:28:44Z" uid="362111" user="Mele Sax-Barnett" changeset="9664367">
    <nd ref="40515842"/>
    <nd ref="567989573"/>
    <nd ref="567989538"/>
    <tag k="RLIS:bicycle" v="designated"/>
    <tag k="alt_name" v="Pacific Highway East #1E (81)"/>
    <tag k="bicycle" v="yes"/>
    <tag k="bridge" v="yes"/>
    <tag k="highway" v="trunk"/>
    <tag k="lanes" v="2"/>
    <tag k="layer" v="1"/>
    <tag k="maxspeed" v="55 mph"/>
    <tag k="name" v="Northeast Martin Luther King Junior Boulevard"/>
    <tag k="name_1" v="State Highway 99E"/>
    <tag k="old_ref" v="US 99E"/>
    <tag k="oneway" v="yes"/>
    <tag k="ref" v="OR 99E"/>
  </way>
  <way id="44791492" version="10" timestamp="2011-11-25T17:00:39Z" uid="207745" user="NE2" changeset="9945867">
    <nd ref="40515842"/>
    <nd ref="567989573"/>
    <nd ref="567989538"/>
    <tag k="RLIS:bicycle" v="designated"/>
    <tag k="alt_name" v="Pacific Highway East #1E (81)"/>
    <tag k="bicycle" v="yes"/>
    <tag k="bridge" v="yes"/>
    <tag k="hgv" v="designated"/>
    <tag k="hgv:national_network" v="yes"/>
    <tag k="highway" v="trunk"/>
    <tag k="lanes" v="2"/>
    <tag k="layer" v="1"/>
    <tag k="maxspeed" v="55 mph"/>
    <tag k="name" v="Northeast Martin Luther King Junior Boulevard"/>
    <tag k="name_1" v="State Highway 99E"/>
    <tag k="old_ref" v="US 99E"/>
    <tag k="oneway" v="yes"/>
    <tag k="ref" v="OR 99E"/>
    <tag k="source:hgv:national_network" v="Title 23: Highways Part 658 http://ecfr.gpoaccess.gov/cgi/t/text/text-idx?c=ecfr&amp;rgn=div5&amp;view=text&amp;node=23:1.0.1.7.33&amp;idno=23"/>
  </way>
  <way id="44791492" version="11" timestamp="2011-12-09T00:19:14Z" uid="372357" user="PJ Houser" changeset="10069888">
    <nd ref="40515842"/>
    <nd ref="567989573"/>
    <nd ref="567989538"/>
    <tag k="RLIS:bicycle" v="designated"/>
    <tag k="alt_name" v="Pacific Highway East #1E (81)"/>
    <tag k="bicycle" v="designated"/>
    <tag k="bridge" v="yes"/>
    <tag k="hgv" v="designated"/>
    <tag k="hgv:national_network" v="yes"/>
    <tag k="highway" v="trunk"/>
    <tag k="lanes" v="2"/>
    <tag k="layer" v="1"/>
    <tag k="maxspeed" v="55 mph"/>
    <tag k="name" v="Northeast Martin Luther King Junior Boulevard"/>
    <tag k="name_1" v="State Highway 99E"/>
    <tag k="old_ref" v="US 99E"/>
    <tag k="oneway" v="yes"/>
    <tag k="ref" v="OR 99E"/>
    <tag k="source:hgv:national_network" v="Title 23: Highways Part 658 http://ecfr.gpoaccess.gov/cgi/t/text/text-idx?c=ecfr&amp;rgn=div5&amp;view=text&amp;node=23:1.0.1.7.33&amp;idno=23"/>
  </way>
  <way id="44791492" version="12" timestamp="2012-03-15T04:56:33Z" uid="393906" user="Grant Humphries" changeset="10984887">
    <nd ref="40515842"/>
    <nd ref="567989573"/>
    <nd ref="567989538"/>
    <tag k="alt_name" v="Pacific Highway East #1E (81)"/>
    <tag k="bridge" v="yes"/>
    <tag k="foot" v="no"/>
    <tag k="hgv" v="designated"/>
    <tag k="hgv:national_network" v="yes"/>
    <tag k="highway" v="trunk"/>
    <tag k="lanes" v="2"/>
    <tag k="layer" v="1"/>
    <tag k="maxspeed" v="55 mph"/>
    <tag k="name" v="Northeast Martin Luther King Junior Boulevard"/>
    <tag k="name_1" v="State Highway 99E"/>
    <tag k="old_ref" v="US 99E"/>
    <tag k="oneway" v="yes"/>
    <tag k="ref" v="OR 99E"/>
    <tag k="source:hgv:national_network" v="Title 23: Highways Part 658 http://ecfr.gpoaccess.gov/cgi/t/text/text-idx?c=ecfr&amp;rgn=div5&amp;view=text&amp;node=23:1.0.1.7.33&amp;idno=23"/>
  </way>
  <way id="44791492" version="13" timestamp="2012-03-16T19:16:41Z" uid="92286" user="Paul Johnson" changeset="11001433">
    <nd ref="40515842"/>
    <nd ref="567989573"/>
    <nd ref="567989538"/>
    <tag k="alt_name" v="Pacific Highway East #1E (81)"/>
    <tag k="bridge" v="yes"/>
    <tag k="foot" v="no"/>
    <tag k="hgv" v="designated"/>
    <tag k="hgv:national_network" v="yes"/>
    <tag k="highway" v="trunk"/>
    <tag k="lanes" v="2"/>
    <tag k="layer" v="1"/>
    <tag k="maxspeed" v="55 mph"/>
    <tag k="name" v="Northeast Martin Luther King, Junior Boulevard"/>
    <tag k="name_1" v="State Highway 99E"/>
    <tag k="old_ref" v="US 99E"/>
    <tag k="oneway" v="yes"/>
    <tag k="ref" v="OR 99E"/>
    <tag k="source:hgv:national_network" v="Title 23: Highways Part 658 http://ecfr.gpoaccess.gov/cgi/t/text/text-idx?c=ecfr&amp;rgn=div5&amp;view=text&amp;node=23:1.0.1.7.33&amp;idno=23"/>
  </way>
  <way id="44791498" version="4" timestamp="2010-03-22T07:34:59Z" uid="20587" user="balrog-kun" changeset="4199043">
    <nd ref="567989539"/>
    <nd ref="40382068"/>
    <nd ref="40515859"/>
    <nd ref="40515863"/>
    <nd ref="40406959"/>
    <nd ref="40515866"/>
    <nd ref="40515870"/>
    <nd ref="40515873"/>
    <nd ref="40515877"/>
    <nd ref="40515880"/>
    <nd ref="40384249"/>
    <nd ref="40515883"/>
    <nd ref="40515887"/>
    <tag k="highway" v="trunk"/>
    <tag k="name" v="Northeast Martin Luther King, Junior Boulevard"/>
    <tag k="name_1" v="State Highway 99E"/>
    <tag k="oneway" v="yes"/>
    <tag k="ref" v="OR99E"/>
    <tag k="tiger:cfcc" v="A35"/>
    <tag k="tiger:county" v="Multnomah, OR"/>
    <tag k="tiger:name_base" v="M L King"/>
    <tag k="tiger:name_base_1" v="State Highway 99E"/>
    <tag k="tiger:name_direction_prefix" v="NE"/>
    <tag k="tiger:reviewed" v="no"/>
    <tag k="tiger:separated" v="yes"/>
    <tag k="tiger:source" v="tiger_import_dch_v0.6_20070808"/>
    <tag k="tiger:tlid" v="157608079:157608080:157608088:157597843:157597758:157596710:157596685:157596686:157596690:157596692:157607981:157596713:157596716"/>
  </way>
  <way id="44791498" version="5" timestamp="2010-05-10T23:52:17Z" uid="239998" user="Sundance" changeset="4664662">
    <nd ref="567989539"/>
    <nd ref="40382068"/>
    <nd ref="40515859"/>
    <nd ref="40515863"/>
    <nd ref="40406959"/>
    <nd ref="40515866"/>
    <nd ref="40515870"/>
    <nd ref="40515873"/>
    <nd ref="40515877"/>
    <nd ref="40515880"/>
    <nd ref="40384249"/>
    <nd ref="40515883"/>
    <nd ref="40515887"/>
    <tag k="highway" v="trunk"/>
    <tag k="is_in" v="Multnomah, OR"/>
    <tag k="name" v="Northeast Martin Luther King, Junior Boulevard"/>
    <tag k="name_1" v="State Highway 99E"/>
    <tag k="oneway" v="yes"/>
    <tag k="ref" v="OR 99E"/>
    <tag k="source" v="Yahoo,TIGER"/>
  </way>
  <way id="44791498" version="6" timestamp="2010-12-18T20:00:21Z" uid="373763" user="ylekot" changeset="6699623">
    <nd ref="567989539"/>
    <nd ref="40382068"/>
    <nd ref="40515859"/>
    <nd ref="40515863"/>
    <tag k="highway" v="trunk"/>
    <tag k="is_in" v="Multnomah, OR"/>
    <tag k="name" v="Northeast Martin Luther King, Junior Boulevard"/>
    <tag k="name_1" v="State Highway 99E"/>
    <tag k="oneway" v="yes"/>
    <tag k="ref" v="OR 99E"/>
    <tag k="source" v="Yahoo,TIGER"/>
  </way>
  <way id="44791498" version="7" timestamp="2011-02-11T03:13:53Z" uid="373763" user="ylekot" changeset="7251700">
    <nd ref="567989539"/>
    <nd ref="40382068"/>
    <nd ref="40515859"/>
    <nd ref="40515863"/>
    <tag k="alt_name" v="Pacific Highway East #1E (81)"/>
    <tag k="highway" v="trunk"/>
    <tag k="is_in" v="Multnomah, OR"/>
    <tag k="name" v="Northeast Martin Luther King Junior Boulevard"/>
    <tag k="name_1" v="State Highway 99E"/>
    <tag k="old_ref" v="US 99E"/>
    <tag k="oneway" v="yes"/>
    <tag k="ref" v="OR 99E"/>
    <tag k="source" v="Yahoo,TIGER"/>
  </way>
  <way id="44791498" version="8" timestamp="2011-06-04T09:18:06Z" uid="92286" user="Paul Johnson" changeset="8337323">
    <nd ref="567989539"/>
    <nd ref="40382068"/>
    <nd ref="40515859"/>
    <nd ref="40515863"/>
    <tag k="alt_name" v="Pacific Highway East #1E (81)"/>
    <tag k="cycleway" v="lane"/>
    <tag k="highway" v="trunk"/>
    <tag k="is_in" v="Multnomah, OR"/>
    <tag k="name" v="Northeast Martin Luther King Junior Boulevard"/>
    <tag k="name_1" v="State Highway 99E"/>
    <tag k="old_ref" v="US 99E"/>
    <tag k="oneway" v="yes"/>
    <tag k="ref" v="OR 99E"/>
    <tag k="source" v="Yahoo,TIGER"/>
  </way>
  <way id="44791498" version="9" timestamp="2011-06-23T02:08:45Z" uid="473471" user="NE3" changeset="8520254">
    <nd ref="567989539"/>
    <nd ref="40382068"/>
    <nd ref="40515859"/>
    <nd ref="40515863"/>
    <tag k="alt_name" v="Pacific Highway East #1E (81)"/>
    <tag k="cycleway" v="lane"/>
    <tag k="highway" v="trunk"/>
    <tag k="is_in" v="Multnomah, OR"/>
    <tag k="lanes" v="2"/>
    <tag k="name" v="Northeast Martin Luther King Junior Boulevard"/>
    <tag k="name_1" v="State Highway 99E"/>
    <tag k="old_ref" v="US 99E"/>
    <tag k="oneway" v="yes"/>
    <tag k="ref" v="OR 99E"/>
    <tag k="source" v="Yahoo,TIGER"/>
  </way>
  <way id="44791498" version="10" timestamp="2011-06-29T20:38:30Z" uid="362111" user="Mele Sax-Barnett" changeset="8584835">
    <nd ref="567989539"/>
    <nd ref="40382068"/>
    <nd ref="40515859"/>
    <tag k="alt_name" v="Pacific Highway East #1E (81)"/>
    <tag k="cycleway" v="lane"/>
    <tag k="highway" v="trunk"/>
    <tag k="is_in" v="Multnomah, OR"/>
    <tag k="lanes" v="2"/>
    <tag k="name" v="Northeast Martin Luther King Junior Boulevard"/>
    <tag k="name_1" v="State Highway 99E"/>
    <tag k="old_ref" v="US 99E"/>
    <tag k="oneway" v="yes"/>
    <tag k="ref" v="OR 99E"/>
    <tag k="source" v="Yahoo,TIGER"/>
  </way>
  <way id="44791498" version="11" timestamp="2011-08-03T20:59:47Z" uid="362111" user="Mele Sax-Barnett" changeset="8914432">
    <nd ref="567989538"/>
    <nd ref="40382068"/>
    <nd ref="40515859"/>
    <tag k="alt_name" v="Pacific Highway East #1E (81)"/>
    <tag k="cycleway" v="lane"/>
    <tag k="highway" v="trunk"/>
    <tag k="is_in" v="Multnomah, OR"/>
    <tag k="lanes" v="2"/>
    <tag k="name" v="Northeast Martin Luther King Junior Boulevard"/>
    <tag k="name_1" v="State Highway 99E"/>
    <tag k="old_ref" v="US 99E"/>
    <tag k="oneway" v="yes"/>
    <tag k="ref" v="OR 99E"/>
    <tag k="source" v="Yahoo,TIGER"/>
  </way>
  <way id="44791498" version="12" timestamp="2011-10-07T23:52:41Z" uid="372357" user="PJ Houser" changeset="9498625">
    <nd ref="567989538"/>
    <nd ref="40382068"/>
    <nd ref="40515859"/>
    <tag k="RLIS:bicycle" v="designated"/>
    <tag k="alt_name" v="Pacific Highway East #1E (81)"/>
    <tag k="bicycle" v="yes"/>
    <tag k="cycleway" v="lane"/>
    <tag k="highway" v="trunk"/>
    <tag k="is_in" v="Multnomah, OR"/>
    <tag k="lanes" v="2"/>
    <tag k="name" v="Northeast Martin Luther King Junior Boulevard"/>
    <tag k="name_1" v="State Highway 99E"/>
    <tag k="old_ref" v="US 99E"/>
    <tag k="oneway" v="yes"/>
    <tag k="ref" v="OR 99E"/>
    <tag k="source" v="Yahoo,TIGER"/>
  </way>
  <way id="44791498" version="13" timestamp="2011-10-26T21:28:44Z" uid="362111" user="Mele Sax-Barnett" changeset="9664367">
    <nd ref="567989538"/>
    <nd ref="40382068"/>
    <nd ref="40515859"/>
    <tag k="RLIS:bicycle" v="designated"/>
    <tag k="alt_name" v="Pacific Highway East #1E (81)"/>
    <tag k="bicycle" v="yes"/>
    <tag k="cycleway" v="lane"/>
    <tag k="highway" v="trunk"/>
    <tag k="is_in" v="Multnomah, OR"/>
    <tag k="lanes" v="2"/>
    <tag k="maxspeed" v="55 mph"/>
    <tag k="name" v="Northeast Martin Luther King Junior Boulevard"/>
    <tag k="name_1" v="State Highway 99E"/>
    <tag k="old_ref" v="US 99E"/>
    <tag k="oneway" v="yes"/>
    <tag k="ref" v="OR 99E"/>
    <tag k="source" v="Yahoo,TIGER"/>
  </way>
  <way id="44791498" version="14" timestamp="2011-11-25T17:00:40Z" uid="207745" user="NE2" changeset="9945867">
    <nd ref="567989538"/>
    <nd ref="40382068"/>
    <nd ref="40515859"/>
    <tag k="RLIS:bicycle" v="designated"/>
    <tag k="alt_name" v="Pacific Highway East #1E (81)"/>
    <tag k="bicycle" v="yes"/>
    <tag k="cycleway" v="lane"/>
    <tag k="hgv" v="designated"/>
    <tag k="hgv:national_network" v="yes"/>
    <tag k="highway" v="trunk"/>
    <tag k="is_in" v="Multnomah, OR"/>
    <tag k="lanes" v="2"/>
    <tag k="maxspeed" v="55 mph"/>
    <tag k="name" v="Northeast Martin Luther King Junior Boulevard"/>
    <tag k="name_1" v="State Highway 99E"/>
    <tag k="old_ref" v="US 99E"/>
    <tag k="oneway" v="yes"/>
    <tag k="ref" v="OR 99E"/>
    <tag k="source" v="Yahoo,TIGER"/>
    <tag k="source:hgv:national_network" v="Title 23: Highways Part 658 http://ecfr.gpoaccess.gov/cgi/t/text/text-idx?c=ecfr&amp;rgn=div5&amp;view=text&amp;node=23:1.0.1.7.33&amp;idno=23"/>
  </way>
  <way id="44791498" version="15" timestamp="2011-12-09T00:19:13Z" uid="372357" user="PJ Houser" changeset="10069888">
    <nd ref="567989538"/>
    <nd ref="40382068"/>
    <nd ref="40515859"/>
    <tag k="RLIS:bicycle" v="designated"/>
    <tag k="alt_name" v="Pacific Highway East #1E (81)"/>
    <tag k="bicycle" v="designated"/>
    <tag k="cycleway" v="lane"/>
    <tag k="hgv" v="designated"/>
    <tag k="hgv:national_network" v="yes"/>
    <tag k="highway" v="trunk"/>
    <tag k="is_in" v="Multnomah, OR"/>
    <tag k="lanes" v="2"/>
    <tag k="maxspeed" v="55 mph"/>
    <tag k="name" v="Northeast Martin Luther King Junior Boulevard"/>
    <tag k="name_1" v="State Highway 99E"/>
    <tag k="old_ref" v="US 99E"/>
    <tag k="oneway" v="yes"/>
    <tag k="ref" v="OR 99E"/>
    <tag k="source" v="Yahoo,TIGER"/>
    <tag k="source:hgv:national_network" v="Title 23: Highways Part 658 http://ecfr.gpoaccess.gov/cgi/t/text/text-idx?c=ecfr&amp;rgn=div5&amp;view=text&amp;node=23:1.0.1.7.33&amp;idno=23"/>
  </way>
  <way id="44791498" version="16" timestamp="2012-03-15T04:56:32Z" uid="393906" user="Grant Humphries" changeset="10984887">
    <nd ref="567989538"/>
    <nd ref="40382068"/>
    <nd ref="40515859"/>
    <tag k="RLIS:bicycle" v="designated"/>
    <tag k="alt_name" v="Pacific Highway East #1E (81)"/>
    <tag k="bicycle" v="designated"/>
    <tag k="cycleway" v="lane"/>
    <tag k="foot" v="yes"/>
    <tag k="hgv" v="designated"/>
    <tag k="hgv:national_network" v="yes"/>
    <tag k="highway" v="trunk"/>
    <tag k="is_in" v="Multnomah, OR"/>
    <tag k="lanes" v="2"/>
    <tag k="maxspeed" v="55 mph"/>
    <tag k="name" v="Northeast Martin Luther King Junior Boulevard"/>
    <tag k="name_1" v="State Highway 99E"/>
    <tag k="old_ref" v="US 99E"/>
    <tag k="oneway" v="yes"/>
    <tag k="ref" v="OR 99E"/>
    <tag k="source" v="Yahoo,TIGER"/>
    <tag k="source:hgv:national_network" v="Title 23: Highways Part 658 http://ecfr.gpoaccess.gov/cgi/t/text/text-idx?c=ecfr&amp;rgn=div5&amp;view=text&amp;node=23:1.0.1.7.33&amp;idno=23"/>
  </way>
  <way id="44791498" version="17" timestamp="2012-03-16T19:16:38Z" uid="92286" user="Paul Johnson" changeset="11001433">
    <nd ref="567989538"/>
    <nd ref="40382068"/>
    <nd ref="40515859"/>
    <tag k="RLIS:bicycle" v="designated"/>
    <tag k="alt_name" v="Pacific Highway East #1E (81)"/>
    <tag k="bicycle" v="designated"/>
    <tag k="cycleway" v="lane"/>
    <tag k="foot" v="yes"/>
    <tag k="hgv" v="designated"/>
    <tag k="hgv:national_network" v="yes"/>
    <tag k="highway" v="trunk"/>
    <tag k="is_in" v="Multnomah, OR"/>
    <tag k="lanes" v="2"/>
    <tag k="maxspeed" v="55 mph"/>
    <tag k="name" v="Northeast Martin Luther King, Junior Boulevard"/>
    <tag k="name_1" v="State Highway 99E"/>
    <tag k="old_ref" v="US 99E"/>
    <tag k="oneway" v="yes"/>
    <tag k="ref" v="OR 99E"/>
    <tag k="source" v="Yahoo,TIGER"/>
    <tag k="source:hgv:national_network" v="Title 23: Highways Part 658 http://ecfr.gpoaccess.gov/cgi/t/text/text-idx?c=ecfr&amp;rgn=div5&amp;view=text&amp;node=23:1.0.1.7.33&amp;idno=23"/>
  </way>
  <way id="44791571" version="4" timestamp="2010-03-22T07:34:59Z" uid="20587" user="balrog-kun" changeset="4199043">
    <nd ref="40515488"/>
    <nd ref="40515491"/>
    <nd ref="40515496"/>
    <nd ref="40515499"/>
    <nd ref="40515503"/>
    <nd ref="40515506"/>
    <nd ref="40515509"/>
    <nd ref="40515512"/>
    <nd ref="40515515"/>
    <nd ref="40515519"/>
    <nd ref="40515523"/>
    <nd ref="40492184"/>
    <tag k="highway" v="trunk"/>
    <tag k="name" v="Northeast Martin Luther King Junior Boulevard"/>
    <tag k="name_1" v="State Highway 99E"/>
    <tag k="oneway" v="yes"/>
    <tag k="ref" v="OR99E"/>
    <tag k="tiger:cfcc" v="A35"/>
    <tag k="tiger:county" v="Multnomah, OR"/>
    <tag k="tiger:name_base" v="M L King"/>
    <tag k="tiger:name_base_1" v="State Highway 99E"/>
    <tag k="tiger:name_direction_prefix" v="NE"/>
    <tag k="tiger:reviewed" v="no"/>
    <tag k="tiger:separated" v="yes"/>
    <tag k="tiger:source" v="tiger_import_dch_v0.6_20070808"/>
    <tag k="tiger:tlid" v="157495132:157559309:157563996:157502007:157495120"/>
    <tag k="tiger:zip_left" v="97217"/>
  </way>
  <way id="44791571" version="5" timestamp="2010-05-10T23:52:41Z" uid="239998" user="Sundance" changeset="4664662">
    <nd ref="40515488"/>
    <nd ref="40515491"/>
    <nd ref="40515496"/>
    <nd ref="40515499"/>
    <nd ref="40515503"/>
    <nd ref="40515506"/>
    <nd ref="40515509"/>
    <nd ref="40515512"/>
    <nd ref="40515515"/>
    <nd ref="40515519"/>
    <nd ref="40515523"/>
    <nd ref="40492184"/>
    <tag k="addr:postcode" v="97217"/>
    <tag k="highway" v="trunk"/>
    <tag k="is_in" v="Multnomah, OR"/>
    <tag k="name" v="Northeast Martin Luther King Junior Boulevard"/>
    <tag k="name_1" v="State Highway 99E"/>
    <tag k="oneway" v="yes"/>
    <tag k="ref" v="OR 99E"/>
    <tag k="source" v="Yahoo,TIGER"/>
  </way>
  <way id="44791571" version="6" timestamp="2011-01-26T19:29:04Z" uid="121241" user="zephyr" changeset="7096858">
    <nd ref="40515488"/>
    <nd ref="40515491"/>
    <nd ref="40515496"/>
    <nd ref="40515499"/>
    <nd ref="40515503"/>
    <nd ref="40515506"/>
    <nd ref="40515509"/>
    <nd ref="40515512"/>
    <nd ref="40515515"/>
    <nd ref="40515519"/>
    <nd ref="40515523"/>
    <tag k="addr:postcode" v="97217"/>
    <tag k="highway" v="trunk"/>
    <tag k="is_in" v="Multnomah, OR"/>
    <tag k="name" v="Northeast Martin Luther King Junior Boulevard"/>
    <tag k="name_1" v="State Highway 99E"/>
    <tag k="oneway" v="yes"/>
    <tag k="ref" v="OR 99E"/>
    <tag k="source" v="Yahoo,TIGER"/>
  </way>
  <way id="44791571" version="7" timestamp="2011-02-11T03:20:20Z" uid="373763" user="ylekot" changeset="7251777">
    <nd ref="40515488"/>
    <nd ref="40515496"/>
    <nd ref="40515499"/>
    <nd ref="40515503"/>
    <nd ref="40515506"/>
    <nd ref="40515509"/>
    <nd ref="40515512"/>
    <nd ref="40515515"/>
    <nd ref="40515519"/>
    <nd ref="40515523"/>
    <tag k="addr:postcode" v="97217"/>
    <tag k="alt_name" v="Pacific Highway East #1E (81)"/>
    <tag k="highway" v="trunk"/>
    <tag k="is_in" v="Multnomah, OR"/>
    <tag k="name" v="Northeast Martin Luther King Junior Boulevard"/>
    <tag k="name_1" v="State Highway 99E"/>
    <tag k="old_ref" v="US 99E"/>
    <tag k="oneway" v="yes"/>
    <tag k="ref" v="OR 99E"/>
    <tag k="source" v="Yahoo,TIGER"/>
  </way>
  <way id="44791571" version="8" timestamp="2011-06-23T02:02:23Z" uid="473471" user="NE3" changeset="8520254">
    <nd ref="40515488"/>
    <nd ref="40515496"/>
    <nd ref="40515499"/>
    <nd ref="40515503"/>
    <nd ref="40515506"/>
    <nd ref="40515509"/>
    <nd ref="40515512"/>
    <nd ref="40515515"/>
    <nd ref="40515519"/>
    <nd ref="40515523"/>
    <tag k="addr:postcode" v="97217"/>
    <tag k="alt_name" v="Pacific Highway East #1E (81)"/>
    <tag k="highway" v="trunk"/>
    <tag k="is_in" v="Multnomah, OR"/>
    <tag k="lanes" v="2"/>
    <tag k="name" v="Northeast Martin Luther King Junior Boulevard"/>
    <tag k="name_1" v="State Highway 99E"/>
    <tag k="old_ref" v="US 99E"/>
    <tag k="oneway" v="yes"/>
    <tag k="ref" v="OR 99E"/>
    <tag k="source" v="Yahoo,TIGER"/>
  </way>
  <way id="44791571" version="9" timestamp="2011-08-03T20:59:45Z" uid="362111" user="Mele Sax-Barnett" changeset="8914432">
    <nd ref="40515488"/>
    <nd ref="40515496"/>
    <nd ref="40515499"/>
    <nd ref="40515503"/>
    <nd ref="1385244070"/>
    <nd ref="40515506"/>
    <nd ref="40515509"/>
    <nd ref="40515512"/>
    <nd ref="40515515"/>
    <nd ref="40515519"/>
    <nd ref="40515523"/>
    <tag k="addr:postcode" v="97217"/>
    <tag k="alt_name" v="Pacific Highway East #1E (81)"/>
    <tag k="highway" v="trunk"/>
    <tag k="is_in" v="Multnomah, OR"/>
    <tag k="lanes" v="2"/>
    <tag k="name" v="Northeast Martin Luther King Junior Boulevard"/>
    <tag k="name_1" v="State Highway 99E"/>
    <tag k="old_ref" v="US 99E"/>
    <tag k="oneway" v="yes"/>
    <tag k="ref" v="OR 99E"/>
    <tag k="source" v="Yahoo,TIGER"/>
  </way>
  <way id="44791571" version="10" timestamp="2011-10-07T23:52:39Z" uid="372357" user="PJ Houser" changeset="9498625">
    <nd ref="40515488"/>
    <nd ref="40515496"/>
    <nd ref="40515499"/>
    <nd ref="40515503"/>
    <nd ref="1385244070"/>
    <nd ref="40515506"/>
    <nd ref="40515509"/>
    <nd ref="40515512"/>
    <nd ref="40515515"/>
    <nd ref="40515519"/>
    <nd ref="40515523"/>
    <tag k="RLIS:bicycle" v="designated"/>
    <tag k="addr:postcode" v="97217"/>
    <tag k="alt_name" v="Pacific Highway East #1E (81)"/>
    <tag k="bicycle" v="yes"/>
    <tag k="highway" v="trunk"/>
    <tag k="is_in" v="Multnomah, OR"/>
    <tag k="lanes" v="2"/>
    <tag k="name" v="Northeast Martin Luther King Junior Boulevard"/>
    <tag k="name_1" v="State Highway 99E"/>
    <tag k="old_ref" v="US 99E"/>
    <tag k="oneway" v="yes"/>
    <tag k="ref" v="OR 99E"/>
    <tag k="source" v="Yahoo,TIGER"/>
  </way>
  <way id="44791571" version="11" timestamp="2011-10-26T03:03:32Z" uid="362111" user="Mele Sax-Barnett" changeset="9657154">
    <nd ref="40515488"/>
    <nd ref="40515496"/>
    <nd ref="1480714831"/>
    <nd ref="40515499"/>
    <nd ref="40515503"/>
    <nd ref="1385244070"/>
    <nd ref="40515506"/>
    <nd ref="40515509"/>
    <nd ref="40515512"/>
    <nd ref="40515515"/>
    <nd ref="40515519"/>
    <nd ref="40515523"/>
    <tag k="RLIS:bicycle" v="designated"/>
    <tag k="addr:postcode" v="97217"/>
    <tag k="alt_name" v="Pacific Highway East #1E (81)"/>
    <tag k="bicycle" v="yes"/>
    <tag k="highway" v="trunk"/>
    <tag k="is_in" v="Multnomah, OR"/>
    <tag k="lanes" v="2"/>
    <tag k="name" v="Northeast Martin Luther King Junior Boulevard"/>
    <tag k="name_1" v="State Highway 99E"/>
    <tag k="old_ref" v="US 99E"/>
    <tag k="oneway" v="yes"/>
    <tag k="ref" v="OR 99E"/>
    <tag k="source" v="Yahoo,TIGER"/>
  </way>
  <way id="44791571" version="12" timestamp="2011-10-26T21:28:41Z" uid="362111" user="Mele Sax-Barnett" changeset="9664367">
    <nd ref="40515488"/>
    <nd ref="40515496"/>
    <nd ref="1480714831"/>
    <nd ref="40515499"/>
    <nd ref="40515503"/>
    <nd ref="1385244070"/>
    <nd ref="40515506"/>
    <nd ref="40515509"/>
    <nd ref="40515512"/>
    <nd ref="40515515"/>
    <tag k="RLIS:bicycle" v="designated"/>
    <tag k="addr:postcode" v="97217"/>
    <tag k="alt_name" v="Pacific Highway East #1E (81)"/>
    <tag k="bicycle" v="yes"/>
    <tag k="highway" v="trunk"/>
    <tag k="is_in" v="Multnomah, OR"/>
    <tag k="lanes" v="2"/>
    <tag k="maxspeed" v="55 mph"/>
    <tag k="name" v="Northeast Martin Luther King Junior Boulevard"/>
    <tag k="name_1" v="State Highway 99E"/>
    <tag k="old_ref" v="US 99E"/>
    <tag k="oneway" v="yes"/>
    <tag k="ref" v="OR 99E"/>
    <tag k="source" v="Yahoo,TIGER"/>
  </way>
  <way id="44791571" version="13" timestamp="2011-11-25T17:00:35Z" uid="207745" user="NE2" changeset="9945867">
    <nd ref="40515488"/>
    <nd ref="40515496"/>
    <nd ref="1480714831"/>
    <nd ref="40515499"/>
    <nd ref="40515503"/>
    <nd ref="1385244070"/>
    <nd ref="40515506"/>
    <nd ref="40515509"/>
    <nd ref="40515512"/>
    <nd ref="40515515"/>
    <tag k="RLIS:bicycle" v="designated"/>
    <tag k="addr:postcode" v="97217"/>
    <tag k="alt_name" v="Pacific Highway East #1E (81)"/>
    <tag k="bicycle" v="yes"/>
    <tag k="hgv" v="designated"/>
    <tag k="hgv:national_network" v="yes"/>
    <tag k="highway" v="trunk"/>
    <tag k="is_in" v="Multnomah, OR"/>
    <tag k="lanes" v="2"/>
    <tag k="maxspeed" v="55 mph"/>
    <tag k="name" v="Northeast Martin Luther King Junior Boulevard"/>
    <tag k="name_1" v="State Highway 99E"/>
    <tag k="old_ref" v="US 99E"/>
    <tag k="oneway" v="yes"/>
    <tag k="ref" v="OR 99E"/>
    <tag k="source" v="Yahoo,TIGER"/>
    <tag k="source:hgv:national_network" v="Title 23: Highways Part 658 http://ecfr.gpoaccess.gov/cgi/t/text/text-idx?c=ecfr&amp;rgn=div5&amp;view=text&amp;node=23:1.0.1.7.33&amp;idno=23"/>
  </way>
  <way id="44791571" version="14" timestamp="2011-12-09T00:19:09Z" uid="372357" user="PJ Houser" changeset="10069888">
    <nd ref="40515488"/>
    <nd ref="40515496"/>
    <nd ref="1480714831"/>
    <nd ref="40515499"/>
    <nd ref="40515503"/>
    <nd ref="1385244070"/>
    <nd ref="40515506"/>
    <nd ref="40515509"/>
    <nd ref="40515512"/>
    <nd ref="40515515"/>
    <tag k="RLIS:bicycle" v="designated"/>
    <tag k="addr:postcode" v="97217"/>
    <tag k="alt_name" v="Pacific Highway East #1E (81)"/>
    <tag k="bicycle" v="designated"/>
    <tag k="hgv" v="designated"/>
    <tag k="hgv:national_network" v="yes"/>
    <tag k="highway" v="trunk"/>
    <tag k="is_in" v="Multnomah, OR"/>
    <tag k="lanes" v="2"/>
    <tag k="maxspeed" v="55 mph"/>
    <tag k="name" v="Northeast Martin Luther King Junior Boulevard"/>
    <tag k="name_1" v="State Highway 99E"/>
    <tag k="old_ref" v="US 99E"/>
    <tag k="oneway" v="yes"/>
    <tag k="ref" v="OR 99E"/>
    <tag k="source" v="Yahoo,TIGER"/>
    <tag k="source:hgv:national_network" v="Title 23: Highways Part 658 http://ecfr.gpoaccess.gov/cgi/t/text/text-idx?c=ecfr&amp;rgn=div5&amp;view=text&amp;node=23:1.0.1.7.33&amp;idno=23"/>
  </way>
  <way id="44791571" version="15" timestamp="2012-03-15T04:56:30Z" uid="393906" user="Grant Humphries" changeset="10984887">
    <nd ref="40515488"/>
    <nd ref="40515496"/>
    <nd ref="1480714831"/>
    <nd ref="40515499"/>
    <nd ref="40515503"/>
    <nd ref="1385244070"/>
    <nd ref="40515506"/>
    <nd ref="40515509"/>
    <nd ref="40515512"/>
    <nd ref="40515515"/>
    <tag k="RLIS:bicycle" v="designated"/>
    <tag k="addr:postcode" v="97217"/>
    <tag k="alt_name" v="Pacific Highway East #1E (81)"/>
    <tag k="bicycle" v="designated"/>
    <tag k="foot" v="yes"/>
    <tag k="hgv" v="designated"/>
    <tag k="hgv:national_network" v="yes"/>
    <tag k="highway" v="trunk"/>
    <tag k="is_in" v="Multnomah, OR"/>
    <tag k="lanes" v="2"/>
    <tag k="maxspeed" v="55 mph"/>
    <tag k="name" v="Northeast Martin Luther King Junior Boulevard"/>
    <tag k="name_1" v="State Highway 99E"/>
    <tag k="old_ref" v="US 99E"/>
    <tag k="oneway" v="yes"/>
    <tag k="ref" v="OR 99E"/>
    <tag k="source" v="Yahoo,TIGER"/>
    <tag k="source:hgv:national_network" v="Title 23: Highways Part 658 http://ecfr.gpoaccess.gov/cgi/t/text/text-idx?c=ecfr&amp;rgn=div5&amp;view=text&amp;node=23:1.0.1.7.33&amp;idno=23"/>
  </way>
  <way id="44791571" version="16" timestamp="2012-03-16T19:16:09Z" uid="92286" user="Paul Johnson" changeset="11001433">
    <nd ref="40515488"/>
    <nd ref="40515496"/>
    <nd ref="1480714831"/>
    <nd ref="40515499"/>
    <nd ref="40515503"/>
    <nd ref="1385244070"/>
    <nd ref="40515506"/>
    <nd ref="40515509"/>
    <nd ref="40515512"/>
    <nd ref="40515515"/>
    <tag k="RLIS:bicycle" v="designated"/>
    <tag k="addr:postcode" v="97217"/>
    <tag k="alt_name" v="Pacific Highway East #1E (81)"/>
    <tag k="bicycle" v="designated"/>
    <tag k="foot" v="yes"/>
    <tag k="hgv" v="designated"/>
    <tag k="hgv:national_network" v="yes"/>
    <tag k="highway" v="trunk"/>
    <tag k="is_in" v="Multnomah, OR"/>
    <tag k="lanes" v="2"/>
    <tag k="maxspeed" v="55 mph"/>
    <tag k="name" v="Northeast Martin Luther King, Junior Boulevard"/>
    <tag k="name_1" v="State Highway 99E"/>
    <tag k="old_ref" v="US 99E"/>
    <tag k="oneway" v="yes"/>
    <tag k="ref" v="OR 99E"/>
    <tag k="source" v="Yahoo,TIGER"/>
    <tag k="source:hgv:national_network" v="Title 23: Highways Part 658 http://ecfr.gpoaccess.gov/cgi/t/text/text-idx?c=ecfr&amp;rgn=div5&amp;view=text&amp;node=23:1.0.1.7.33&amp;idno=23"/>
  </way>
  <way id="44791582" version="3" timestamp="2010-03-22T07:34:59Z" uid="20587" user="balrog-kun" changeset="4199043">
    <nd ref="40515842"/>
    <nd ref="567989573"/>
    <tag k="bridge" v="yes"/>
    <tag k="highway" v="trunk"/>
    <tag k="layer" v="1"/>
    <tag k="name" v="Northeast Martin Luther King, Junior Boulevard"/>
    <tag k="name_1" v="State Highway 99E"/>
    <tag k="oneway" v="yes"/>
    <tag k="ref" v="OR99E"/>
    <tag k="tiger:cfcc" v="A35"/>
    <tag k="tiger:county" v="Multnomah, OR"/>
    <tag k="tiger:name_base" v="M L King"/>
    <tag k="tiger:name_base_1" v="State Highway 99E"/>
    <tag k="tiger:name_direction_prefix" v="NE"/>
    <tag k="tiger:reviewed" v="no"/>
    <tag k="tiger:separated" v="yes"/>
    <tag k="tiger:source" v="tiger_import_dch_v0.6_20070808"/>
    <tag k="tiger:tlid" v="157608079:157608080:157608088:157597843:157597758:157596710:157596685:157596686:157596690:157596692:157607981:157596713:157596716"/>
  </way>
  <way id="44791582" version="4" timestamp="2011-01-23T04:01:18Z" uid="92286" user="Paul Johnson" changeset="7057582">
    <nd ref="40515842"/>
    <nd ref="567989573"/>
    <tag k="bridge" v="yes"/>
    <tag k="highway" v="trunk"/>
    <tag k="layer" v="1"/>
    <tag k="name" v="Northeast Martin Luther King, Junior Boulevard"/>
    <tag k="name_1" v="State Highway 99E"/>
    <tag k="oneway" v="yes"/>
    <tag k="ref" v="OR99E"/>
    <tag k="tiger:cfcc" v="A35"/>
    <tag k="tiger:county" v="Multnomah, OR"/>
    <tag k="tiger:name_base" v="M L King"/>
    <tag k="tiger:name_base_1" v="State Highway 99E"/>
    <tag k="tiger:name_direction_prefix" v="Northeast"/>
    <tag k="tiger:reviewed" v="no"/>
    <tag k="tiger:separated" v="yes"/>
    <tag k="tiger:source" v="tiger_import_dch_v0.6_20070808"/>
    <tag k="tiger:tlid" v="157608079:157608080:157608088:157597843:157597758:157596710:157596685:157596686:157596690:157596692:157607981:157596713:157596716"/>
  </way>
  <way id="44791582" version="5" timestamp="2011-02-11T03:20:20Z" uid="373763" user="ylekot" changeset="7251777">
    <nd ref="40515842"/>
    <nd ref="567989573"/>
    <tag k="alt_name" v="Pacific Highway East #1E (81)"/>
    <tag k="bridge" v="yes"/>
    <tag k="highway" v="trunk"/>
    <tag k="layer" v="1"/>
    <tag k="name" v="Northeast Martin Luther King Junior Boulevard"/>
    <tag k="name_1" v="State Highway 99E"/>
    <tag k="old_ref" v="US 99E"/>
    <tag k="oneway" v="yes"/>
    <tag k="ref" v="OR99E"/>
    <tag k="tiger:cfcc" v="A35"/>
    <tag k="tiger:county" v="Multnomah, OR"/>
    <tag k="tiger:name_base" v="M L King"/>
    <tag k="tiger:name_base_1" v="State Highway 99E"/>
    <tag k="tiger:name_direction_prefix" v="Northeast"/>
    <tag k="tiger:reviewed" v="no"/>
    <tag k="tiger:separated" v="yes"/>
    <tag k="tiger:source" v="tiger_import_dch_v0.6_20070808"/>
    <tag k="tiger:tlid" v="157608079:157608080:157608088:157597843:157597758:157596710:157596685:157596686:157596690:157596692:157607981:157596713:157596716"/>
  </way>
  <way id="44791582" version="6" timestamp="2011-06-23T02:04:19Z" uid="473471" user="NE3" changeset="8520254">
    <nd ref="40515842"/>
    <nd ref="567989573"/>
    <tag k="alt_name" v="Pacific Highway East #1E (81)"/>
    <tag k="bridge" v="yes"/>
    <tag k="highway" v="trunk"/>
    <tag k="lanes" v="2"/>
    <tag k="layer" v="1"/>
    <tag k="name" v="Northeast Martin Luther King Junior Boulevard"/>
    <tag k="name_1" v="State Highway 99E"/>
    <tag k="old_ref" v="US 99E"/>
    <tag k="oneway" v="yes"/>
    <tag k="ref" v="OR99E"/>
    <tag k="tiger:cfcc" v="A35"/>
    <tag k="tiger:county" v="Multnomah, OR"/>
    <tag k="tiger:name_base" v="M L King"/>
    <tag k="tiger:name_base_1" v="State Highway 99E"/>
    <tag k="tiger:name_direction_prefix" v="Northeast"/>
    <tag k="tiger:reviewed" v="no"/>
    <tag k="tiger:separated" v="yes"/>
    <tag k="tiger:source" v="tiger_import_dch_v0.6_20070808"/>
    <tag k="tiger:tlid" v="157608079:157608080:157608088:157597843:157597758:157596710:157596685:157596686:157596690:157596692:157607981:157596713:157596716"/>
  </way>
  <way id="44791582" version="7" timestamp="2011-08-03T21:00:03Z" uid="362111" user="Mele Sax-Barnett" changeset="8914432"/>
  <way id="44791593" version="3" timestamp="2010-03-22T07:34:59Z" uid="20587" user="balrog-kun" changeset="4199043">
    <nd ref="567989573"/>
    <nd ref="567989538"/>
    <tag k="highway" v="trunk"/>
    <tag k="name" v="Northeast Martin Luther King, Junior Boulevard"/>
    <tag k="name_1" v="State Highway 99E"/>
    <tag k="oneway" v="yes"/>
    <tag k="ref" v="OR99E"/>
    <tag k="tiger:cfcc" v="A35"/>
    <tag k="tiger:county" v="Multnomah, OR"/>
    <tag k="tiger:name_base" v="M L King"/>
    <tag k="tiger:name_base_1" v="State Highway 99E"/>
    <tag k="tiger:name_direction_prefix" v="NE"/>
    <tag k="tiger:reviewed" v="no"/>
    <tag k="tiger:separated" v="yes"/>
    <tag k="tiger:source" v="tiger_import_dch_v0.6_20070808"/>
    <tag k="tiger:tlid" v="157608079:157608080:157608088:157597843:157597758:157596710:157596685:157596686:157596690:157596692:157607981:157596713:157596716"/>
  </way>
  <way id="44791593" version="4" timestamp="2010-12-18T19:12:57Z" uid="373763" user="ylekot" changeset="6699301">
    <nd ref="567989573"/>
    <nd ref="567989538"/>
    <tag k="highway" v="trunk"/>
    <tag k="name" v="Northeast Martin Luther King, Junior Boulevard"/>
    <tag k="name_1" v="State Highway 99E"/>
    <tag k="oneway" v="yes"/>
    <tag k="ref" v="OR 99E"/>
    <tag k="tiger:cfcc" v="A35"/>
    <tag k="tiger:county" v="Multnomah, OR"/>
    <tag k="tiger:name_base" v="M L King"/>
    <tag k="tiger:name_base_1" v="State Highway 99E"/>
    <tag k="tiger:name_direction_prefix" v="NE"/>
    <tag k="tiger:reviewed" v="no"/>
    <tag k="tiger:separated" v="yes"/>
    <tag k="tiger:source" v="tiger_import_dch_v0.6_20070808"/>
    <tag k="tiger:tlid" v="157608079:157608080:157608088:157597843:157597758:157596710:157596685:157596686:157596690:157596692:157607981:157596713:157596716"/>
  </way>
  <way id="44791593" version="5" timestamp="2011-01-23T04:06:31Z" uid="92286" user="Paul Johnson" changeset="7057582">
    <nd ref="567989573"/>
    <nd ref="567989538"/>
    <tag k="highway" v="trunk"/>
    <tag k="name" v="Northeast Martin Luther King, Junior Boulevard"/>
    <tag k="name_1" v="State Highway 99E"/>
    <tag k="oneway" v="yes"/>
    <tag k="ref" v="OR 99E"/>
    <tag k="tiger:cfcc" v="A35"/>
    <tag k="tiger:county" v="Multnomah, OR"/>
    <tag k="tiger:name_base" v="M L King"/>
    <tag k="tiger:name_base_1" v="State Highway 99E"/>
    <tag k="tiger:name_direction_prefix" v="Northeast"/>
    <tag k="tiger:reviewed" v="no"/>
    <tag k="tiger:separated" v="yes"/>
    <tag k="tiger:source" v="tiger_import_dch_v0.6_20070808"/>
    <tag k="tiger:tlid" v="157608079:157608080:157608088:157597843:157597758:157596710:157596685:157596686:157596690:157596692:157607981:157596713:157596716"/>
  </way>
  <way id="44791593" version="6" timestamp="2011-02-11T03:20:21Z" uid="373763" user="ylekot" changeset="7251777">
    <nd ref="567989573"/>
    <nd ref="567989538"/>
    <tag k="alt_name" v="Pacific Highway East #1E (81)"/>
    <tag k="highway" v="trunk"/>
    <tag k="name" v="Northeast Martin Luther King Junior Boulevard"/>
    <tag k="name_1" v="State Highway 99E"/>
    <tag k="old_ref" v="US 99E"/>
    <tag k="oneway" v="yes"/>
    <tag k="ref" v="OR 99E"/>
    <tag k="tiger:cfcc" v="A35"/>
    <tag k="tiger:county" v="Multnomah, OR"/>
    <tag k="tiger:name_base" v="M L King"/>
    <tag k="tiger:name_base_1" v="State Highway 99E"/>
    <tag k="tiger:name_direction_prefix" v="Northeast"/>
    <tag k="tiger:reviewed" v="no"/>
    <tag k="tiger:separated" v="yes"/>
    <tag k="tiger:source" v="tiger_import_dch_v0.6_20070808"/>
    <tag k="tiger:tlid" v="157608079:157608080:157608088:157597843:157597758:157596710:157596685:157596686:157596690:157596692:157607981:157596713:157596716"/>
  </way>
  <way id="44791593" version="7" timestamp="2011-06-23T02:08:30Z" uid="473471" user="NE3" changeset="8520254">
    <nd ref="567989573"/>
    <nd ref="567989538"/>
    <tag k="alt_name" v="Pacific Highway East #1E (81)"/>
    <tag k="highway" v="trunk"/>
    <tag k="lanes" v="2"/>
    <tag k="name" v="Northeast Martin Luther King Junior Boulevard"/>
    <tag k="name_1" v="State Highway 99E"/>
    <tag k="old_ref" v="US 99E"/>
    <tag k="oneway" v="yes"/>
    <tag k="ref" v="OR 99E"/>
    <tag k="tiger:cfcc" v="A35"/>
    <tag k="tiger:county" v="Multnomah, OR"/>
    <tag k="tiger:name_base" v="M L King"/>
    <tag k="tiger:name_base_1" v="State Highway 99E"/>
    <tag k="tiger:name_direction_prefix" v="Northeast"/>
    <tag k="tiger:reviewed" v="no"/>
    <tag k="tiger:separated" v="yes"/>
    <tag k="tiger:source" v="tiger_import_dch_v0.6_20070808"/>
    <tag k="tiger:tlid" v="157608079:157608080:157608088:157597843:157597758:157596710:157596685:157596686:157596690:157596692:157607981:157596713:157596716"/>
  </way>
  <way id="44791593" version="8" timestamp="2011-08-03T21:00:03Z" uid="362111" user="Mele Sax-Barnett" changeset="8914432"/>
  <way id="44791594" version="3" timestamp="2010-03-22T07:35:00Z" uid="20587" user="balrog-kun" changeset="4199043">
    <nd ref="567989537"/>
    <nd ref="40515488"/>
    <tag k="bridge" v="yes"/>
    <tag k="highway" v="trunk"/>
    <tag k="layer" v="1"/>
    <tag k="name" v="Northeast Martin Luther King, Junior Boulevard"/>
    <tag k="name_1" v="State Highway 99E"/>
    <tag k="oneway" v="yes"/>
    <tag k="ref" v="OR99E"/>
    <tag k="tiger:cfcc" v="A35"/>
    <tag k="tiger:county" v="Multnomah, OR"/>
    <tag k="tiger:name_base" v="M L King"/>
    <tag k="tiger:name_base_1" v="State Highway 99E"/>
    <tag k="tiger:name_direction_prefix" v="NE"/>
    <tag k="tiger:separated" v="yes"/>
    <tag k="tiger:source" v="tiger_import_dch_v0.6_20070808"/>
    <tag k="tiger:tlid" v="157495132:157559309:157563996:157502007:157495120"/>
    <tag k="tiger:zip_left" v="97217"/>
  </way>
  <way id="44791594" version="4" timestamp="2011-01-23T04:02:24Z" uid="92286" user="Paul Johnson" changeset="7057582">
    <nd ref="567989537"/>
    <nd ref="40515488"/>
    <tag k="bridge" v="yes"/>
    <tag k="highway" v="trunk"/>
    <tag k="layer" v="1"/>
    <tag k="name" v="Northeast Martin Luther King, Junior Boulevard"/>
    <tag k="name_1" v="State Highway 99E"/>
    <tag k="oneway" v="yes"/>
    <tag k="ref" v="OR99E"/>
    <tag k="tiger:cfcc" v="A35"/>
    <tag k="tiger:county" v="Multnomah, OR"/>
    <tag k="tiger:name_base" v="M L King"/>
    <tag k="tiger:name_base_1" v="State Highway 99E"/>
    <tag k="tiger:name_direction_prefix" v="Northeast"/>
    <tag k="tiger:separated" v="yes"/>
    <tag k="tiger:source" v="tiger_import_dch_v0.6_20070808"/>
    <tag k="tiger:tlid" v="157495132:157559309:157563996:157502007:157495120"/>
    <tag k="tiger:zip_left" v="97217"/>
  </way>
  <way id="44791594" version="5" timestamp="2011-02-11T03:20:21Z" uid="373763" user="ylekot" changeset="7251777">
    <nd ref="567989537"/>
    <nd ref="40515488"/>
    <tag k="alt_name" v="Pacific Highway East #1E (81)"/>
    <tag k="bridge" v="yes"/>
    <tag k="highway" v="trunk"/>
    <tag k="layer" v="1"/>
    <tag k="name" v="Northeast Martin Luther King Junior Boulevard"/>
    <tag k="name_1" v="State Highway 99E"/>
    <tag k="old_ref" v="US 99E"/>
    <tag k="oneway" v="yes"/>
    <tag k="ref" v="OR99E"/>
    <tag k="tiger:cfcc" v="A35"/>
    <tag k="tiger:county" v="Multnomah, OR"/>
    <tag k="tiger:name_base" v="M L King"/>
    <tag k="tiger:name_base_1" v="State Highway 99E"/>
    <tag k="tiger:name_direction_prefix" v="Northeast"/>
    <tag k="tiger:separated" v="yes"/>
    <tag k="tiger:source" v="tiger_import_dch_v0.6_20070808"/>
    <tag k="tiger:tlid" v="157495132:157559309:157563996:157502007:157495120"/>
    <tag k="tiger:zip_left" v="97217"/>
  </way>
  <way id="44791594" version="6" timestamp="2011-06-23T02:02:44Z" uid="473471" user="NE3" changeset="8520254">
    <nd ref="567989537"/>
    <nd ref="40515488"/>
    <tag k="alt_name" v="Pacific Highway East #1E (81)"/>
    <tag k="bridge" v="yes"/>
    <tag k="highway" v="trunk"/>
    <tag k="lanes" v="2"/>
    <tag k="layer" v="1"/>
    <tag k="name" v="Northeast Martin Luther King Junior Boulevard"/>
    <tag k="name_1" v="State Highway 99E"/>
    <tag k="old_ref" v="US 99E"/>
    <tag k="oneway" v="yes"/>
    <tag k="ref" v="OR99E"/>
    <tag k="tiger:cfcc" v="A35"/>
    <tag k="tiger:county" v="Multnomah, OR"/>
    <tag k="tiger:name_base" v="M L King"/>
    <tag k="tiger:name_base_1" v="State Highway 99E"/>
    <tag k="tiger:name_direction_prefix" v="Northeast"/>
    <tag k="tiger:separated" v="yes"/>
    <tag k="tiger:source" v="tiger_import_dch_v0.6_20070808"/>
    <tag k="tiger:tlid" v="157495132:157559309:157563996:157502007:157495120"/>
    <tag k="tiger:zip_left" v="97217"/>
  </way>
  <way id="44791594" version="7" timestamp="2011-08-03T21:00:03Z" uid="362111" user="Mele Sax-Barnett" changeset="8914432"/>
</osm>
