<?xml version='1.0' encoding='UTF-8'?>
<osm version="0.6" generator="libosmium/2.20.0">
  <way id="44845068" version="1" timestamp="2009-11-22T17:27:49Z" uid="6975" user="ulfl" changeset="3188529">
    <nd ref="568515999"/>
    <nd ref="568516003"/>
    <tag k="access" v="no"/>
    <tag k="highway" v="service"/>
  </way>
  <way id="44845068" version="2" timestamp="2012-01-03T22:21:40Z" uid="82877" user="Wankmann" changeset="10286592"/>
  <way id="44845069" version="1" timestamp="2009-11-22T17:27:49Z" uid="6975" user="ulfl" changeset="3188529">
    <nd ref="568516003"/>
    <nd ref="568516004"/>
    <nd ref="568516001"/>
    <nd ref="568516002"/>
    <tag k="highway" v="track"/>
    <tag k="tracktype" v="grade3"/>
  </way>
  <way id="44845069" version="2" timestamp="2012-01-03T22:21:41Z" uid="82877" user="Wankmann" changeset="10286592"/>
  <way id="44845070" version="1" timestamp="2009-11-22T17:27:49Z" uid="6975" user="ulfl" changeset="3188529">
    <nd ref="275118837"/>
    <nd ref="568515999"/>
    <tag k="highway" v="service"/>
  </way>
  <way id="44845070" version="2" timestamp="2012-01-03T22:21:42Z" uid="82877" user="Wankmann" changeset="10286592"/>
  <way id="44845329" version="1" timestamp="2009-11-22T17:32:08Z" uid="6975" user="ulfl" changeset="3188589">
    <nd ref="568517961"/>
    <nd ref="568517960"/>
    <nd ref="568517958"/>
    <nd ref="568517961"/>
    <tag k="leisure" v="playground"/>
    <tag k="name" v="Skateanlage"/>
  </way>
  <way id="44845329" version="2" timestamp="2012-02-15T12:49:33Z" uid="82877" user="Wankmann" changeset="10691787"/>
  <way id="44845577" version="3" timestamp="2010-03-05T22:04:03Z" uid="27600" user="Islanit" changeset="4045264">
    <nd ref="568520393"/>
    <nd ref="660845228"/>
    <tag k="highway" v="residential"/>
    <tag k="name" v="Gerhart-Hauptmann-Weg"/>
  </way>
  <way id="44845577" version="4" timestamp="2010-12-14T21:21:24Z" uid="72631" user="MacOSM" changeset="6662754">
    <nd ref="568520393"/>
    <nd ref="1038638890"/>
    <nd ref="660845228"/>
    <tag k="highway" v="residential"/>
    <tag k="name" v="Gerhart-Hauptmann-Weg"/>
  </way>
  <way id="44845577" version="5" timestamp="2012-02-28T09:34:27Z" uid="46145" user="Jacques_N" changeset="10816748"/>
  <way id="44845581" version="4" timestamp="2010-09-28T19:18:21Z" uid="115477" user="wowik" changeset="5906481">
    <nd ref="568520453"/>
    <nd ref="861711242"/>
    <tag k="highway" v="secondary"/>
    <tag k="lanes" v="4"/>
    <tag k="ref" v="P156"/>
  </way>
  <way id="44845581" version="5" timestamp="2011-02-16T09:17:10Z" uid="263596" user="Oberförster" changeset="7302091">
    <nd ref="568520453"/>
    <nd ref="861711242"/>
    <tag k="highway" v="primary"/>
    <tag k="lanes" v="4"/>
    <tag k="motorroad" v="yes"/>
    <tag k="name" v="Berlinka"/>
    <tag k="ref" v="P156"/>
  </way>
  <way id="44845581" version="6" timestamp="2011-02-16T09:19:05Z" uid="263596" user="Oberförster" changeset="7302105">
    <nd ref="568520453"/>
    <nd ref="861711242"/>
    <tag k="highway" v="primary"/>
    <tag k="lanes" v="4"/>
    <tag k="motorroad" v="no"/>
    <tag k="name" v="Berlinka"/>
    <tag k="ref" v="P156"/>
  </way>
  <way id="44845581" version="7" timestamp="2011-02-16T19:39:53Z" uid="145231" user="woodpeck_repair" changeset="7306560">
    <nd ref="568520453"/>
    <nd ref="861711242"/>
    <tag k="highway" v="secondary"/>
    <tag k="lanes" v="4"/>
    <tag k="ref" v="P156"/>
  </way>
  <way id="44845581" version="8" timestamp="2011-05-16T09:51:16Z" uid="176819" user="akashihi" changeset="8160774">
    <nd ref="1287578988"/>
    <nd ref="568520453"/>
    <tag k="highway" v="secondary"/>
    <tag k="lanes" v="2"/>
    <tag k="oneway" v="yes"/>
    <tag k="ref" v="P156"/>
  </way>
  <way id="44845581" version="9" timestamp="2011-10-03T08:36:16Z" uid="383137" user="ErshKUS" changeset="9457861">
    <nd ref="1287578988"/>
    <nd ref="568520453"/>
    <tag k="highway" v="primary"/>
    <tag k="lanes" v="2"/>
    <tag k="oneway" v="yes"/>
    <tag k="ref" v="P156"/>
  </way>
  <way id="44845581" version="10" timestamp="2012-01-27T22:30:33Z" uid="501824" user="i29" changeset="10517072">
    <nd ref="1287578988"/>
    <nd ref="568520453"/>
    <tag k="highway" v="trunk"/>
    <tag k="lanes" v="2"/>
    <tag k="oneway" v="yes"/>
    <tag k="ref" v="P156"/>
  </way>
  <way id="44845847" version="1" timestamp="2009-11-22T17:44:32Z" uid="6975" user="ulfl" changeset="3188743">
    <nd ref="279200526"/>
    <nd ref="279200527"/>
    <nd ref="259093967"/>
    <nd ref="279200528"/>
    <nd ref="259093968"/>
    <nd ref="259093970"/>
    <nd ref="279200531"/>
    <nd ref="259093971"/>
    <nd ref="279200529"/>
    <nd ref="259093972"/>
    <nd ref="279200530"/>
    <nd ref="321181106"/>
    <nd ref="259093974"/>
    <nd ref="259093975"/>
    <nd ref="259093977"/>
    <nd ref="259093978"/>
    <nd ref="321181107"/>
    <nd ref="259093979"/>
    <nd ref="259093981"/>
    <nd ref="321181082"/>
    <tag k="highway" v="unclassified"/>
    <tag k="maxweight" v="16"/>
    <tag k="source" v="motorcycle"/>
  </way>
  <way id="44845847" version="2" timestamp="2012-01-03T22:21:41Z" uid="82877" user="Wankmann" changeset="10286592"/>
</osm>
