<?xml version='1.0' encoding='UTF-8'?>
<osm version="0.6" generator="libosmium/2.20.0">
  <way id="44879029" version="2" timestamp="2010-04-03T04:19:10Z" uid="20587" user="balrog-kun" changeset="4309442">
    <nd ref="175539753"/>
    <nd ref="175539755"/>
    <nd ref="175396049"/>
    <nd ref="175539758"/>
    <tag k="highway" v="tertiary"/>
    <tag k="name" v="Main Road"/>
    <tag k="tiger:cfcc" v="A41"/>
    <tag k="tiger:county" v="Navajo, AZ"/>
    <tag k="tiger:name_base" v="Main"/>
    <tag k="tiger:name_type" v="Rd"/>
    <tag k="tiger:reviewed" v="no"/>
    <tag k="tiger:separated" v="no"/>
    <tag k="tiger:source" v="tiger_import_dch_v0.6_20070809"/>
    <tag k="tiger:tlid" v="172533578:172521309:172521312:172521329:172521300:172521303:172521330:172521297:172533582:172521348:172521408:172521411:172521414:172521415"/>
  </way>
  <way id="44879029" version="3" timestamp="2011-04-25T17:34:43Z" uid="104962" user="techlady" changeset="7965557"/>
  <way id="44879128" version="3" timestamp="2010-04-06T14:48:24Z" uid="20587" user="balrog-kun" changeset="4342997">
    <nd ref="122257977"/>
    <nd ref="122322939"/>
    <nd ref="122322942"/>
    <nd ref="122322945"/>
    <nd ref="122322948"/>
    <nd ref="122322950"/>
    <nd ref="122322953"/>
    <nd ref="122322959"/>
    <nd ref="122322966"/>
    <nd ref="122322974"/>
    <nd ref="122322979"/>
    <nd ref="122322982"/>
    <nd ref="122322988"/>
    <nd ref="122322990"/>
    <nd ref="122322996"/>
    <nd ref="122323003"/>
    <nd ref="122314545"/>
    <tag k="highway" v="unclassified"/>
    <tag k="name" v="East 37th Street North"/>
    <tag k="surface" v="gravel"/>
    <tag k="tiger:cfcc" v="A41"/>
    <tag k="tiger:county" v="Sedgwick, KS"/>
    <tag k="tiger:name_base" v="37th"/>
    <tag k="tiger:name_direction_prefix" v="E"/>
    <tag k="tiger:name_direction_suffix" v="N"/>
    <tag k="tiger:name_type" v="St"/>
    <tag k="tiger:reviewed" v="no"/>
    <tag k="tiger:separated" v="no"/>
    <tag k="tiger:source" v="tiger_import_dch_v0.6_20070812"/>
    <tag k="tiger:tlid" v="115711163:115689553:115689557:115689558:115711130:115711131:115711166:115711168:115711169"/>
    <tag k="tiger:zip_left" v="67228"/>
    <tag k="tiger:zip_right" v="67228"/>
  </way>
  <way id="44879297" version="2" timestamp="2010-04-02T20:40:00Z" uid="20587" user="balrog-kun" changeset="4306764">
    <nd ref="562531999"/>
    <nd ref="562532026"/>
    <nd ref="562532203"/>
    <nd ref="562531934"/>
    <nd ref="562531879"/>
    <nd ref="562532206"/>
    <nd ref="562532209"/>
    <nd ref="562531808"/>
    <nd ref="562532221"/>
    <nd ref="562532224"/>
    <nd ref="562532228"/>
    <nd ref="562532231"/>
    <nd ref="562532232"/>
    <nd ref="562531725"/>
    <nd ref="562532235"/>
    <nd ref="562532238"/>
    <nd ref="140439481"/>
    <tag k="highway" v="residential"/>
    <tag k="name" v="Charismatic Drive"/>
  </way>
  <way id="44879300" version="2" timestamp="2010-04-07T14:04:37Z" uid="20587" user="balrog-kun" changeset="4353646">
    <nd ref="150858438"/>
    <nd ref="150858441"/>
    <nd ref="150858444"/>
    <nd ref="150828426"/>
    <nd ref="150858446"/>
    <nd ref="150823141"/>
    <nd ref="150843563"/>
    <nd ref="150858448"/>
    <nd ref="150858450"/>
    <nd ref="150856399"/>
    <nd ref="150851637"/>
    <nd ref="150858453"/>
    <nd ref="150858455"/>
    <nd ref="150858207"/>
    <nd ref="150858458"/>
    <nd ref="150858461"/>
    <nd ref="150858464"/>
    <nd ref="150858467"/>
    <nd ref="150849402"/>
    <nd ref="150858469"/>
    <nd ref="150820481"/>
    <nd ref="150846866"/>
    <tag k="highway" v="tertiary"/>
    <tag k="name" v="East Main Street"/>
    <tag k="name_1" v="Ranch Road 488"/>
    <tag k="tiger:cfcc" v="A41"/>
    <tag k="tiger:county" v="Freestone, TX"/>
    <tag k="tiger:name_base" v="Main"/>
    <tag k="tiger:name_base_1" v="Ranch Road 488"/>
    <tag k="tiger:name_direction_prefix" v="E"/>
    <tag k="tiger:name_type" v="St"/>
    <tag k="tiger:reviewed" v="no"/>
    <tag k="tiger:separated" v="no"/>
    <tag k="tiger:source" v="tiger_import_dch_v0.6_20070829"/>
    <tag k="tiger:tlid" v="88986050:88986049"/>
  </way>
  <way id="44879300" version="3" timestamp="2012-01-16T12:50:00Z" uid="207745" user="NE2" changeset="10408023">
    <nd ref="150858438"/>
    <nd ref="150858441"/>
    <nd ref="150858444"/>
    <nd ref="150828426"/>
    <nd ref="150858446"/>
    <nd ref="150823141"/>
    <nd ref="150843563"/>
    <nd ref="150858448"/>
    <nd ref="150858450"/>
    <nd ref="150856399"/>
    <nd ref="150851637"/>
    <nd ref="150858453"/>
    <nd ref="150858455"/>
    <nd ref="150858207"/>
    <nd ref="150858458"/>
    <nd ref="150858461"/>
    <nd ref="150858464"/>
    <nd ref="150858467"/>
    <nd ref="150849402"/>
    <nd ref="150858469"/>
    <nd ref="150820481"/>
    <nd ref="150846866"/>
    <tag k="highway" v="secondary"/>
    <tag k="name" v="East Main Street"/>
    <tag k="ref" v="FM 488"/>
    <tag k="tiger:cfcc" v="A41"/>
    <tag k="tiger:county" v="Freestone, TX"/>
    <tag k="tiger:name_base" v="Main"/>
    <tag k="tiger:name_base_1" v="Ranch Road 488"/>
    <tag k="tiger:name_direction_prefix" v="E"/>
    <tag k="tiger:name_type" v="St"/>
    <tag k="tiger:reviewed" v="no"/>
    <tag k="tiger:separated" v="no"/>
    <tag k="tiger:source" v="tiger_import_dch_v0.6_20070829"/>
    <tag k="tiger:tlid" v="88986050:88986049"/>
  </way>
  <way id="44879301" version="2" timestamp="2010-04-07T14:04:39Z" uid="20587" user="balrog-kun" changeset="4353646">
    <nd ref="150851635"/>
    <nd ref="150801623"/>
    <nd ref="150801636"/>
    <nd ref="150834210"/>
    <nd ref="150851636"/>
    <nd ref="150851637"/>
    <tag k="highway" v="residential"/>
    <tag k="name" v="Oak Street"/>
    <tag k="tiger:cfcc" v="A41"/>
    <tag k="tiger:county" v="Freestone, TX"/>
    <tag k="tiger:name_base" v="Oak"/>
    <tag k="tiger:name_type" v="St"/>
    <tag k="tiger:reviewed" v="no"/>
    <tag k="tiger:separated" v="no"/>
    <tag k="tiger:source" v="tiger_import_dch_v0.6_20070829"/>
    <tag k="tiger:tlid" v="88982255:88976004:88982066:88976852:88976076:88976960:88976963"/>
  </way>
  <way id="44879326" version="2" timestamp="2010-04-02T20:40:00Z" uid="20587" user="balrog-kun" changeset="4306764">
    <nd ref="568968096"/>
    <nd ref="568968097"/>
    <nd ref="568968098"/>
    <nd ref="568968100"/>
    <nd ref="568968101"/>
    <nd ref="568968102"/>
    <nd ref="568968103"/>
    <nd ref="568968104"/>
    <nd ref="568968105"/>
    <tag k="highway" v="residential"/>
    <tag k="name" v="Equestrian Road"/>
    <tag k="oneway" v="yes"/>
    <tag k="tiger:cfcc" v="A41"/>
    <tag k="tiger:county" v="Washoe, NV"/>
    <tag k="tiger:name_base" v="Equestrian"/>
    <tag k="tiger:name_type" v="Rd"/>
    <tag k="tiger:reviewed" v="yes"/>
    <tag k="tiger:separated" v="no"/>
    <tag k="tiger:source" v="tiger_import_dch_v0.6_20070828"/>
    <tag k="tiger:tlid" v="107119159:107120072:107114246"/>
  </way>
  <way id="44879327" version="2" timestamp="2010-04-02T20:40:00Z" uid="20587" user="balrog-kun" changeset="4306764">
    <nd ref="568968105"/>
    <nd ref="568968106"/>
    <nd ref="568968108"/>
    <nd ref="568968109"/>
    <nd ref="568968110"/>
    <tag k="highway" v="residential"/>
    <tag k="name" v="Equestrian Road"/>
    <tag k="oneway" v="yes"/>
    <tag k="tiger:cfcc" v="A41"/>
    <tag k="tiger:county" v="Washoe, NV"/>
    <tag k="tiger:name_base" v="Equestrian"/>
    <tag k="tiger:name_type" v="Rd"/>
    <tag k="tiger:reviewed" v="yes"/>
    <tag k="tiger:separated" v="no"/>
    <tag k="tiger:source" v="tiger_import_dch_v0.6_20070828"/>
    <tag k="tiger:tlid" v="107119159:107120072:107114246"/>
  </way>
  <way id="44879328" version="2" timestamp="2010-04-02T20:40:00Z" uid="20587" user="balrog-kun" changeset="4306764">
    <nd ref="568968111"/>
    <nd ref="568968112"/>
    <nd ref="568968113"/>
    <nd ref="568968114"/>
    <nd ref="568968116"/>
    <nd ref="568968117"/>
    <nd ref="568968118"/>
    <nd ref="568968119"/>
    <nd ref="568968120"/>
    <nd ref="568968121"/>
    <nd ref="568968122"/>
    <nd ref="568968123"/>
    <nd ref="140597385"/>
    <tag k="highway" v="residential"/>
    <tag k="name" v="Curti Ranch Road"/>
    <tag k="oneway" v="yes"/>
    <tag k="tiger:cfcc" v="A41"/>
    <tag k="tiger:county" v="Washoe, NV"/>
    <tag k="tiger:name_base" v="Curti Ranch"/>
    <tag k="tiger:name_type" v="Rd"/>
    <tag k="tiger:reviewed" v="yes"/>
    <tag k="tiger:separated" v="no"/>
    <tag k="tiger:source" v="tiger_import_dch_v0.6_20070828"/>
    <tag k="tiger:tlid" v="107120507:107120073:107120906:107120744"/>
  </way>
  <way id="44879329" version="2" timestamp="2010-04-02T20:40:00Z" uid="20587" user="balrog-kun" changeset="4306764">
    <nd ref="568968111"/>
    <nd ref="140583542"/>
    <tag k="highway" v="residential"/>
    <tag k="name" v="Curti Ranch Road"/>
    <tag k="tiger:cfcc" v="A41"/>
    <tag k="tiger:county" v="Washoe, NV"/>
    <tag k="tiger:name_base" v="Curti Ranch"/>
    <tag k="tiger:name_type" v="Rd"/>
    <tag k="tiger:reviewed" v="yes"/>
    <tag k="tiger:separated" v="no"/>
    <tag k="tiger:source" v="tiger_import_dch_v0.6_20070828"/>
    <tag k="tiger:tlid" v="107120507:107120073:107120906:107120744"/>
  </way>
  <way id="44879330" version="2" timestamp="2010-04-02T20:40:01Z" uid="20587" user="balrog-kun" changeset="4306764">
    <nd ref="140597385"/>
    <nd ref="140597388"/>
    <nd ref="140597391"/>
    <nd ref="140597394"/>
    <nd ref="140597397"/>
    <nd ref="140597400"/>
    <nd ref="140597403"/>
    <nd ref="568968111"/>
    <tag k="highway" v="residential"/>
    <tag k="name" v="Curti Ranch Road"/>
    <tag k="oneway" v="yes"/>
    <tag k="tiger:cfcc" v="A41"/>
    <tag k="tiger:county" v="Washoe, NV"/>
    <tag k="tiger:name_base" v="Curti Ranch"/>
    <tag k="tiger:name_type" v="Rd"/>
    <tag k="tiger:reviewed" v="yes"/>
    <tag k="tiger:separated" v="no"/>
    <tag k="tiger:source" v="tiger_import_dch_v0.6_20070828"/>
    <tag k="tiger:tlid" v="107120507:107120073:107120906:107120744"/>
  </way>
  <way id="44879368" version="2" timestamp="2010-04-02T20:40:01Z" uid="20587" user="balrog-kun" changeset="4306764">
    <nd ref="568968662"/>
    <nd ref="568968663"/>
    <nd ref="568968665"/>
    <nd ref="140597329"/>
    <nd ref="140363894"/>
    <nd ref="140597330"/>
    <nd ref="140597333"/>
    <nd ref="140597336"/>
    <nd ref="140597340"/>
    <nd ref="140597342"/>
    <nd ref="140439496"/>
    <nd ref="140597345"/>
    <nd ref="140597348"/>
    <nd ref="140597351"/>
    <nd ref="140597354"/>
    <nd ref="140413067"/>
    <nd ref="140597360"/>
    <nd ref="140597363"/>
    <nd ref="140597366"/>
    <nd ref="140597369"/>
    <nd ref="140597372"/>
    <nd ref="562532171"/>
    <nd ref="140597375"/>
    <nd ref="140597379"/>
    <nd ref="140597382"/>
    <nd ref="140597385"/>
    <tag k="highway" v="residential"/>
    <tag k="name" v="Curti Ranch Road"/>
    <tag k="tiger:cfcc" v="A41"/>
    <tag k="tiger:county" v="Washoe, NV"/>
    <tag k="tiger:name_base" v="Curti Ranch"/>
    <tag k="tiger:name_type" v="Rd"/>
    <tag k="tiger:reviewed" v="no"/>
    <tag k="tiger:separated" v="no"/>
    <tag k="tiger:source" v="tiger_import_dch_v0.6_20070828"/>
    <tag k="tiger:tlid" v="107120507:107120073:107120906:107120744"/>
  </way>
  <way id="44879369" version="3" timestamp="2010-04-02T20:40:01Z" uid="20587" user="balrog-kun" changeset="4306764">
    <nd ref="568968666"/>
    <nd ref="568968667"/>
    <nd ref="568968668"/>
    <nd ref="568968669"/>
    <nd ref="568968670"/>
    <nd ref="568968671"/>
    <nd ref="568968672"/>
    <nd ref="568968658"/>
    <tag k="highway" v="residential"/>
    <tag k="name" v="Curti Ranch Road"/>
    <tag k="oneway" v="yes"/>
    <tag k="tiger:cfcc" v="A41"/>
    <tag k="tiger:county" v="Washoe, NV"/>
    <tag k="tiger:name_base" v="Curti Ranch"/>
    <tag k="tiger:name_type" v="Rd"/>
    <tag k="tiger:reviewed" v="yes"/>
    <tag k="tiger:separated" v="no"/>
    <tag k="tiger:source" v="tiger_import_dch_v0.6_20070828"/>
    <tag k="tiger:tlid" v="107120507:107120073:107120906:107120744"/>
  </way>
  <way id="44879370" version="2" timestamp="2010-04-02T20:40:01Z" uid="20587" user="balrog-kun" changeset="4306764">
    <nd ref="568968658"/>
    <nd ref="568968674"/>
    <tag k="highway" v="residential"/>
    <tag k="name" v="Curti Ranch Road"/>
    <tag k="tiger:cfcc" v="A41"/>
    <tag k="tiger:county" v="Washoe, NV"/>
    <tag k="tiger:name_base" v="Curti Ranch"/>
    <tag k="tiger:name_type" v="Rd"/>
    <tag k="tiger:reviewed" v="no"/>
    <tag k="tiger:separated" v="no"/>
    <tag k="tiger:source" v="tiger_import_dch_v0.6_20070828"/>
    <tag k="tiger:tlid" v="107120507:107120073:107120906:107120744"/>
  </way>
  <way id="44879370" version="3" timestamp="2011-12-09T23:57:45Z" uid="101433" user="abschiff" changeset="10077438">
    <nd ref="568968658"/>
    <nd ref="1538867231"/>
    <tag k="highway" v="residential"/>
    <tag k="name" v="Curti Ranch Road"/>
    <tag k="tiger:cfcc" v="A41"/>
    <tag k="tiger:county" v="Washoe, NV"/>
    <tag k="tiger:name_base" v="Curti Ranch"/>
    <tag k="tiger:name_type" v="Rd"/>
    <tag k="tiger:reviewed" v="no"/>
    <tag k="tiger:separated" v="no"/>
    <tag k="tiger:source" v="tiger_import_dch_v0.6_20070828"/>
    <tag k="tiger:tlid" v="107120507:107120073:107120906:107120744"/>
  </way>
  <way id="44879371" version="3" timestamp="2010-04-02T20:40:02Z" uid="20587" user="balrog-kun" changeset="4306764">
    <nd ref="568968675"/>
    <nd ref="568968676"/>
    <nd ref="568968677"/>
    <nd ref="568968678"/>
    <nd ref="568968679"/>
    <nd ref="568968680"/>
    <nd ref="568968681"/>
    <nd ref="568968661"/>
    <nd ref="568968682"/>
    <nd ref="568968683"/>
    <nd ref="568968684"/>
    <nd ref="568968685"/>
    <nd ref="568968686"/>
    <nd ref="568968687"/>
    <nd ref="568968688"/>
    <nd ref="568968689"/>
    <nd ref="568968662"/>
    <tag k="highway" v="residential"/>
    <tag k="name" v="Curti Ranch Road"/>
    <tag k="oneway" v="yes"/>
    <tag k="tiger:cfcc" v="A41"/>
    <tag k="tiger:county" v="Washoe, NV"/>
    <tag k="tiger:name_base" v="Curti Ranch"/>
    <tag k="tiger:name_type" v="Rd"/>
    <tag k="tiger:reviewed" v="yes"/>
    <tag k="tiger:separated" v="no"/>
    <tag k="tiger:source" v="tiger_import_dch_v0.6_20070828"/>
    <tag k="tiger:tlid" v="107120507:107120073:107120906:107120744"/>
  </way>
  <way id="44879372" version="4" timestamp="2010-04-04T01:41:20Z" uid="20587" user="balrog-kun" changeset="4318136">
    <nd ref="55733241"/>
    <nd ref="263639632"/>
    <nd ref="263639633"/>
    <nd ref="55813104"/>
    <nd ref="263639634"/>
    <nd ref="638898373"/>
    <nd ref="55824586"/>
    <nd ref="263639635"/>
    <nd ref="263639636"/>
    <nd ref="638898374"/>
    <nd ref="474935361"/>
    <nd ref="55824588"/>
    <nd ref="55824590"/>
    <nd ref="55824591"/>
    <nd ref="263639638"/>
    <nd ref="263639639"/>
    <nd ref="55733243"/>
    <tag k="highway" v="residential"/>
    <tag k="name" v="Scotch Pine Drive"/>
    <tag k="tiger:cfcc" v="A41"/>
    <tag k="tiger:county" v="El Paso, CO"/>
    <tag k="tiger:separated" v="no"/>
    <tag k="tiger:source" v="tiger_import_dch_v0.6_20070809"/>
    <tag k="tiger:tlid" v="105562284:105547226:105530700"/>
  </way>
  <way id="44879373" version="6" timestamp="2010-06-12T13:51:52Z" uid="171838" user="argrath" changeset="4970581">
    <nd ref="568968786"/>
    <nd ref="568968792"/>
    <nd ref="568968793"/>
    <nd ref="568968795"/>
    <nd ref="568968796"/>
    <nd ref="568968797"/>
    <nd ref="568968798"/>
    <nd ref="568968800"/>
    <nd ref="568968802"/>
    <nd ref="568968804"/>
    <nd ref="568968806"/>
    <nd ref="568968807"/>
    <nd ref="713299359"/>
    <nd ref="713299355"/>
    <nd ref="713299350"/>
    <nd ref="713299322"/>
    <tag k="highway" v="trunk"/>
    <tag k="lanes" v="2"/>
    <tag k="name" v="国道116号線"/>
    <tag k="oneway" v="yes"/>
    <tag k="ref" v="116"/>
  </way>
  <way id="44879373" version="7" timestamp="2011-05-27T13:48:14Z" uid="212111" user="okilimu" changeset="8263023">
    <nd ref="568968786"/>
    <nd ref="568968792"/>
    <nd ref="568968793"/>
    <nd ref="568968795"/>
    <nd ref="568968796"/>
    <nd ref="568968797"/>
    <nd ref="568968798"/>
    <nd ref="568968800"/>
    <nd ref="568968802"/>
    <nd ref="568968804"/>
    <nd ref="568968806"/>
    <nd ref="568968807"/>
    <nd ref="713299359"/>
    <nd ref="713299355"/>
    <nd ref="1301955337"/>
    <nd ref="713299350"/>
    <nd ref="713299322"/>
    <tag k="highway" v="trunk"/>
    <tag k="lanes" v="2"/>
    <tag k="name" v="国道116号線"/>
    <tag k="oneway" v="yes"/>
    <tag k="ref" v="116"/>
  </way>
  <way id="44879374" version="2" timestamp="2010-04-07T14:04:39Z" uid="20587" user="balrog-kun" changeset="4353646">
    <nd ref="151080076"/>
    <nd ref="151082863"/>
    <nd ref="151082864"/>
    <nd ref="151082865"/>
    <nd ref="151051555"/>
    <nd ref="151082869"/>
    <nd ref="151082874"/>
    <nd ref="151074018"/>
    <nd ref="151082876"/>
    <nd ref="151082878"/>
    <nd ref="151082880"/>
    <nd ref="151082882"/>
    <nd ref="151082885"/>
    <nd ref="151082887"/>
    <nd ref="151082889"/>
    <nd ref="151082891"/>
    <nd ref="151082894"/>
    <nd ref="151082896"/>
    <tag k="highway" v="trunk"/>
    <tag k="name" v="United States Highway 290"/>
    <tag k="name_1" v="East United States Highway 290"/>
    <tag k="ref" v="US 290"/>
    <tag k="source" v="GPS Survey"/>
    <tag k="tiger:cfcc" v="A21"/>
    <tag k="tiger:county" v="Gillespie, TX"/>
    <tag k="tiger:name_base" v="United States Highway 290"/>
    <tag k="tiger:name_base_1" v="United States Highway 290"/>
    <tag k="tiger:name_direction_prefix_1" v="E"/>
    <tag k="tiger:reviewed" v="Yes"/>
    <tag k="tiger:separated" v="no"/>
    <tag k="tiger:source" v="tiger_import_dch_v0.6_20070829"/>
    <tag k="tiger:tlid" v="176839069:176845999:176846021:176838806:176838954:176838956:176838672:176848222:176848223:176847629:176838677:176838983:176838985:176838680:176843302:176843303:176838686:176839402:176846926:176846927:176839154:176846937:176846938:176839155:176844003:17684"/>
  </way>
  <way id="44879374" version="3" timestamp="2010-12-10T23:16:30Z" uid="207745" user="NE2" changeset="6612266">
    <nd ref="151080076"/>
    <nd ref="151082863"/>
    <nd ref="151082864"/>
    <nd ref="151082865"/>
    <nd ref="151051555"/>
    <nd ref="151082869"/>
    <nd ref="151082874"/>
    <nd ref="151074018"/>
    <nd ref="151082876"/>
    <nd ref="151082878"/>
    <nd ref="151082880"/>
    <nd ref="151082882"/>
    <nd ref="151082885"/>
    <nd ref="151082887"/>
    <nd ref="151082889"/>
    <nd ref="151082891"/>
    <nd ref="151082894"/>
    <nd ref="151082896"/>
    <tag k="Texas_Trunk_System" v="yes"/>
    <tag k="highway" v="trunk"/>
    <tag k="name" v="United States Highway 290"/>
    <tag k="name_1" v="East United States Highway 290"/>
    <tag k="ref" v="US 290"/>
    <tag k="source" v="GPS Survey"/>
    <tag k="source:Texas_Trunk_System" v="Statewide Long-Range Transportation Plan 2035 http://www.txdot.gov/txdot_library/publications/transportation_plan.htm"/>
    <tag k="tiger:cfcc" v="A21"/>
    <tag k="tiger:county" v="Gillespie, TX"/>
    <tag k="tiger:name_base" v="United States Highway 290"/>
    <tag k="tiger:name_base_1" v="United States Highway 290"/>
    <tag k="tiger:name_direction_prefix_1" v="E"/>
    <tag k="tiger:reviewed" v="Yes"/>
    <tag k="tiger:separated" v="no"/>
    <tag k="tiger:source" v="tiger_import_dch_v0.6_20070829"/>
    <tag k="tiger:tlid" v="176839069:176845999:176846021:176838806:176838954:176838956:176838672:176848222:176848223:176847629:176838677:176838983:176838985:176838680:176843302:176843303:176838686:176839402:176846926:176846927:176839154:176846937:176846938:176839155:176844003:17684"/>
  </way>
  <way id="44879374" version="4" timestamp="2011-06-16T16:22:17Z" uid="207745" user="NE2" changeset="8457565">
    <nd ref="151080076"/>
    <nd ref="151082863"/>
    <nd ref="151082864"/>
    <nd ref="151082865"/>
    <nd ref="151051555"/>
    <nd ref="151082869"/>
    <nd ref="151082874"/>
    <nd ref="151074018"/>
    <nd ref="151082876"/>
    <nd ref="151082878"/>
    <nd ref="151082880"/>
    <nd ref="151082882"/>
    <nd ref="151082885"/>
    <nd ref="151082887"/>
    <nd ref="151082889"/>
    <nd ref="151082891"/>
    <nd ref="151082894"/>
    <nd ref="151082896"/>
    <tag k="Texas_Trunk_System" v="yes"/>
    <tag k="highway" v="trunk"/>
    <tag k="lanes" v="4"/>
    <tag k="ref" v="US 290"/>
    <tag k="source" v="GPS Survey"/>
    <tag k="source:Texas_Trunk_System" v="Statewide Long-Range Transportation Plan 2035 http://www.txdot.gov/txdot_library/publications/transportation_plan.htm"/>
    <tag k="tiger:cfcc" v="A21"/>
    <tag k="tiger:county" v="Gillespie, TX"/>
    <tag k="tiger:name_base" v="United States Highway 290"/>
    <tag k="tiger:name_base_1" v="United States Highway 290"/>
    <tag k="tiger:name_direction_prefix_1" v="E"/>
    <tag k="tiger:reviewed" v="Yes"/>
    <tag k="tiger:separated" v="no"/>
    <tag k="tiger:source" v="tiger_import_dch_v0.6_20070829"/>
    <tag k="tiger:tlid" v="176839069:176845999:176846021:176838806:176838954:176838956:176838672:176848222:176848223:176847629:176838677:176838983:176838985:176838680:176843302:176843303:176838686:176839402:176846926:176846927:176839154:176846937:176846938:176839155:176844003:17684"/>
  </way>
  <way id="44879374" version="5" timestamp="2011-07-08T09:54:04Z" uid="473471" user="NE3" changeset="8664540">
    <nd ref="151080076"/>
    <nd ref="151082863"/>
    <nd ref="151082864"/>
    <nd ref="151082865"/>
    <nd ref="151051555"/>
    <nd ref="151082869"/>
    <nd ref="151082874"/>
    <nd ref="151074018"/>
    <nd ref="151082876"/>
    <nd ref="151082878"/>
    <nd ref="151082880"/>
    <nd ref="151082882"/>
    <nd ref="151082885"/>
    <nd ref="151082887"/>
    <nd ref="151082889"/>
    <nd ref="151082891"/>
    <nd ref="151082894"/>
    <nd ref="151082896"/>
    <tag k="NHS" v="yes"/>
    <tag k="Texas_Trunk_System" v="yes"/>
    <tag k="highway" v="trunk"/>
    <tag k="lanes" v="4"/>
    <tag k="ref" v="US 290"/>
    <tag k="source" v="GPS Survey"/>
    <tag k="source:Texas_Trunk_System" v="Statewide Long-Range Transportation Plan 2035 http://www.txdot.gov/txdot_library/publications/transportation_plan.htm"/>
    <tag k="tiger:cfcc" v="A21"/>
    <tag k="tiger:county" v="Gillespie, TX"/>
    <tag k="tiger:name_base" v="United States Highway 290"/>
    <tag k="tiger:name_base_1" v="United States Highway 290"/>
    <tag k="tiger:name_direction_prefix_1" v="E"/>
    <tag k="tiger:reviewed" v="Yes"/>
    <tag k="tiger:separated" v="no"/>
    <tag k="tiger:source" v="tiger_import_dch_v0.6_20070829"/>
    <tag k="tiger:tlid" v="176839069:176845999:176846021:176838806:176838954:176838956:176838672:176848222:176848223:176847629:176838677:176838983:176838985:176838680:176843302:176843303:176838686:176839402:176846926:176846927:176839154:176846937:176846938:176839155:176844003:17684"/>
  </way>
  <way id="44879444" version="6" timestamp="2010-04-07T14:04:40Z" uid="20587" user="balrog-kun" changeset="4353646">
    <nd ref="221734086"/>
    <nd ref="221908280"/>
    <nd ref="221908284"/>
    <nd ref="221908287"/>
    <nd ref="221908290"/>
    <nd ref="221868537"/>
    <nd ref="221908294"/>
    <nd ref="221908297"/>
    <nd ref="221800571"/>
    <nd ref="221894617"/>
    <nd ref="221908301"/>
    <nd ref="221908305"/>
    <nd ref="221908306"/>
    <nd ref="221908310"/>
    <nd ref="221908313"/>
    <nd ref="221908317"/>
    <nd ref="221908321"/>
    <nd ref="221908325"/>
    <nd ref="221908329"/>
    <nd ref="221908333"/>
    <nd ref="221908335"/>
    <nd ref="221908338"/>
    <nd ref="221908343"/>
    <nd ref="221908347"/>
    <nd ref="221791295"/>
    <nd ref="221908351"/>
    <nd ref="221866319"/>
    <nd ref="221908355"/>
    <nd ref="221819755"/>
    <nd ref="221819663"/>
    <nd ref="221908359"/>
    <nd ref="221855478"/>
    <nd ref="221908362"/>
    <nd ref="221908365"/>
    <nd ref="221908368"/>
    <nd ref="221908371"/>
    <nd ref="221908374"/>
    <nd ref="221908378"/>
    <nd ref="221908386"/>
    <nd ref="221908390"/>
    <nd ref="221908395"/>
    <nd ref="221908399"/>
    <nd ref="221908406"/>
    <nd ref="221908409"/>
    <nd ref="221908412"/>
    <nd ref="221908415"/>
    <nd ref="221908419"/>
    <nd ref="221908423"/>
    <nd ref="221908426"/>
    <nd ref="221908429"/>
    <nd ref="221908432"/>
    <nd ref="221908434"/>
    <nd ref="221908436"/>
    <nd ref="221908437"/>
    <nd ref="221908440"/>
    <nd ref="221908442"/>
    <nd ref="221908453"/>
    <nd ref="221878570"/>
    <nd ref="221908457"/>
    <nd ref="221908458"/>
    <nd ref="221908459"/>
    <nd ref="221908465"/>
    <nd ref="221908467"/>
    <nd ref="221908471"/>
    <nd ref="221831426"/>
    <nd ref="221908474"/>
    <nd ref="221908476"/>
    <nd ref="221908479"/>
    <nd ref="221908482"/>
    <nd ref="221809936"/>
    <tag k="highway" v="primary"/>
    <tag k="name" v="West Spring St; United States Highway 287; State Highway 19"/>
    <tag k="ref" v="US 287"/>
    <tag k="tiger:cfcc" v="A21"/>
    <tag k="tiger:county" v="Anderson, TX"/>
    <tag k="tiger:name_base" v="Spring"/>
    <tag k="tiger:name_base_1" v="United States Highway 287"/>
    <tag k="tiger:name_base_2" v="State Highway 19"/>
    <tag k="tiger:name_direction_prefix" v="W"/>
    <tag k="tiger:name_type" v="St"/>
    <tag k="tiger:separated" v="no"/>
    <tag k="tiger:source" v="tiger_import_dch_v0.6_20070829"/>
    <tag k="tiger:tlid" v="74653068:74652446:74651394:74651467:74651436:74675714:74675716:74651514:74652661:74682804:74652687:74651730:74672124:74672126:74672125:74652698:74681534:74681537"/>
  </way>
  <way id="44879444" version="7" timestamp="2011-03-28T13:28:45Z" uid="156135" user="Kenneth Pardue" changeset="7696613">
    <nd ref="221734086"/>
    <nd ref="221868537"/>
    <nd ref="221908294"/>
    <nd ref="221908297"/>
    <nd ref="221800571"/>
    <nd ref="221894617"/>
    <nd ref="221908301"/>
    <nd ref="221908305"/>
    <nd ref="221908306"/>
    <nd ref="221908310"/>
    <nd ref="221908313"/>
    <nd ref="221908317"/>
    <nd ref="221908321"/>
    <nd ref="221908325"/>
    <nd ref="221908329"/>
    <nd ref="221908333"/>
    <nd ref="221908335"/>
    <nd ref="221908338"/>
    <nd ref="221908343"/>
    <nd ref="221908347"/>
    <nd ref="221791295"/>
    <nd ref="221908351"/>
    <nd ref="221866319"/>
    <nd ref="221908355"/>
    <nd ref="221819755"/>
    <nd ref="221819663"/>
    <nd ref="221908359"/>
    <nd ref="221855478"/>
    <nd ref="221908362"/>
    <nd ref="221908365"/>
    <nd ref="221908368"/>
    <nd ref="221908371"/>
    <nd ref="221908374"/>
    <nd ref="221908378"/>
    <nd ref="221908386"/>
    <nd ref="221908390"/>
    <nd ref="221908395"/>
    <nd ref="221908399"/>
    <nd ref="221908406"/>
    <nd ref="221908409"/>
    <nd ref="221908412"/>
    <nd ref="221908415"/>
    <nd ref="221908419"/>
    <nd ref="221908423"/>
    <nd ref="221908426"/>
    <nd ref="221908429"/>
    <nd ref="221908432"/>
    <nd ref="221908434"/>
    <nd ref="221908436"/>
    <nd ref="221908437"/>
    <nd ref="221908440"/>
    <nd ref="221908442"/>
    <nd ref="221908453"/>
    <nd ref="221878570"/>
    <nd ref="221908457"/>
    <nd ref="221908458"/>
    <nd ref="221908459"/>
    <nd ref="221908465"/>
    <nd ref="221908467"/>
    <nd ref="221908471"/>
    <nd ref="221831426"/>
    <nd ref="221908474"/>
    <nd ref="221908476"/>
    <nd ref="221908479"/>
    <nd ref="221908482"/>
    <nd ref="221809936"/>
    <tag k="highway" v="primary"/>
    <tag k="name" v="West Spring St; United States Highway 287; State Highway 19"/>
    <tag k="ref" v="US 287"/>
    <tag k="tiger:cfcc" v="A21"/>
    <tag k="tiger:county" v="Anderson, TX"/>
    <tag k="tiger:name_base" v="Spring"/>
    <tag k="tiger:name_base_1" v="United States Highway 287"/>
    <tag k="tiger:name_base_2" v="State Highway 19"/>
    <tag k="tiger:name_direction_prefix" v="W"/>
    <tag k="tiger:name_type" v="St"/>
    <tag k="tiger:separated" v="no"/>
    <tag k="tiger:source" v="tiger_import_dch_v0.6_20070829"/>
    <tag k="tiger:tlid" v="74653068:74652446:74651394:74651467:74651436:74675714:74675716:74651514:74652661:74682804:74652687:74651730:74672124:74672126:74672125:74652698:74681534:74681537"/>
  </way>
  <way id="44879444" version="8" timestamp="2011-05-08T14:59:34Z" uid="37392" user="25or6to4" changeset="8082087">
    <nd ref="221734086"/>
    <nd ref="221868537"/>
    <nd ref="221908294"/>
    <nd ref="221908297"/>
    <nd ref="221800571"/>
    <nd ref="221894617"/>
    <nd ref="221908301"/>
    <nd ref="221908305"/>
    <nd ref="221908306"/>
    <nd ref="221908310"/>
    <nd ref="221908313"/>
    <nd ref="221908317"/>
    <nd ref="221908321"/>
    <nd ref="221908325"/>
    <nd ref="221908329"/>
    <tag k="highway" v="primary"/>
    <tag k="name" v="West Spring St; United States Highway 287; State Highway 19"/>
    <tag k="ref" v="US 287"/>
    <tag k="tiger:cfcc" v="A21"/>
    <tag k="tiger:county" v="Anderson, TX"/>
    <tag k="tiger:name_base" v="Spring"/>
    <tag k="tiger:name_base_1" v="United States Highway 287"/>
    <tag k="tiger:name_base_2" v="State Highway 19"/>
    <tag k="tiger:name_direction_prefix" v="W"/>
    <tag k="tiger:name_type" v="St"/>
    <tag k="tiger:separated" v="no"/>
    <tag k="tiger:source" v="tiger_import_dch_v0.6_20070829"/>
    <tag k="tiger:tlid" v="74653068:74652446:74651394:74651467:74651436:74675714:74675716:74651514:74652661:74682804:74652687:74651730:74672124:74672126:74672125:74652698:74681534:74681537"/>
  </way>
  <way id="44879444" version="9" timestamp="2011-06-16T16:51:16Z" uid="207745" user="NE2" changeset="8457565">
    <nd ref="221734086"/>
    <nd ref="221868537"/>
    <nd ref="221908294"/>
    <nd ref="221908297"/>
    <nd ref="221800571"/>
    <nd ref="221894617"/>
    <nd ref="221908301"/>
    <nd ref="221908305"/>
    <nd ref="221908306"/>
    <nd ref="221908310"/>
    <nd ref="221908313"/>
    <nd ref="221908317"/>
    <nd ref="221908321"/>
    <nd ref="221908325"/>
    <nd ref="221908329"/>
    <tag k="highway" v="primary"/>
    <tag k="name" v="West Spring St"/>
    <tag k="ref" v="US 287"/>
    <tag k="tiger:cfcc" v="A21"/>
    <tag k="tiger:county" v="Anderson, TX"/>
    <tag k="tiger:name_base" v="Spring"/>
    <tag k="tiger:name_base_1" v="United States Highway 287"/>
    <tag k="tiger:name_base_2" v="State Highway 19"/>
    <tag k="tiger:name_direction_prefix" v="W"/>
    <tag k="tiger:name_type" v="St"/>
    <tag k="tiger:separated" v="no"/>
    <tag k="tiger:source" v="tiger_import_dch_v0.6_20070829"/>
    <tag k="tiger:tlid" v="74653068:74652446:74651394:74651467:74651436:74675714:74675716:74651514:74652661:74682804:74652687:74651730:74672124:74672126:74672125:74652698:74681534:74681537"/>
  </way>
  <way id="44879444" version="10" timestamp="2011-06-18T09:34:19Z" uid="207745" user="NE2" changeset="8471411">
    <nd ref="221734086"/>
    <nd ref="221868537"/>
    <nd ref="221908294"/>
    <nd ref="221908297"/>
    <nd ref="221800571"/>
    <nd ref="221894617"/>
    <nd ref="221908301"/>
    <nd ref="221908305"/>
    <nd ref="221908306"/>
    <nd ref="221908310"/>
    <nd ref="221908313"/>
    <nd ref="221908317"/>
    <nd ref="221908321"/>
    <nd ref="221908325"/>
    <nd ref="221908329"/>
    <tag k="highway" v="primary"/>
    <tag k="lanes" v="4"/>
    <tag k="name" v="West Spring St"/>
    <tag k="ref" v="US 287"/>
    <tag k="tiger:cfcc" v="A21"/>
    <tag k="tiger:county" v="Anderson, TX"/>
    <tag k="tiger:name_base" v="Spring"/>
    <tag k="tiger:name_base_1" v="United States Highway 287"/>
    <tag k="tiger:name_base_2" v="State Highway 19"/>
    <tag k="tiger:name_direction_prefix" v="W"/>
    <tag k="tiger:name_type" v="St"/>
    <tag k="tiger:separated" v="no"/>
    <tag k="tiger:source" v="tiger_import_dch_v0.6_20070829"/>
    <tag k="tiger:tlid" v="74653068:74652446:74651394:74651467:74651436:74675714:74675716:74651514:74652661:74682804:74652687:74651730:74672124:74672126:74672125:74652698:74681534:74681537"/>
  </way>
  <way id="44879445" version="3" timestamp="2010-04-07T14:04:42Z" uid="20587" user="balrog-kun" changeset="4353646">
    <nd ref="221852007"/>
    <nd ref="221935285"/>
    <nd ref="221935289"/>
    <nd ref="221935292"/>
    <nd ref="221935297"/>
    <tag k="highway" v="primary"/>
    <tag k="name" v="East Spring St; United States Highway 84; United States Highway 287"/>
    <tag k="ref" v="US 84; US 287"/>
    <tag k="tiger:cfcc" v="A41"/>
    <tag k="tiger:county" v="Anderson, TX"/>
    <tag k="tiger:name_base" v="Spring"/>
    <tag k="tiger:name_direction_prefix" v="E"/>
    <tag k="tiger:name_type" v="St"/>
    <tag k="tiger:separated" v="no"/>
    <tag k="tiger:source" v="tiger_import_dch_v0.6_20070829"/>
    <tag k="tiger:tlid" v="74652240:74675738:74675739"/>
    <tag k="tiger:zip_left" v="75801"/>
    <tag k="tiger:zip_right" v="75801"/>
  </way>
  <way id="44879445" version="4" timestamp="2010-05-04T16:05:02Z" uid="33377" user="Victor LP" changeset="4605391">
    <nd ref="221852007"/>
    <nd ref="221935285"/>
    <nd ref="221935289"/>
    <nd ref="221935292"/>
    <nd ref="221935297"/>
    <tag k="highway" v="primary"/>
    <tag k="name" v="East Spring Street"/>
    <tag k="ref" v="US 84; US 287"/>
    <tag k="tiger:cfcc" v="A41"/>
    <tag k="tiger:county" v="Anderson, TX"/>
    <tag k="tiger:name_base" v="Spring"/>
    <tag k="tiger:name_direction_prefix" v="E"/>
    <tag k="tiger:name_type" v="St"/>
    <tag k="tiger:separated" v="no"/>
    <tag k="tiger:source" v="tiger_import_dch_v0.6_20070829"/>
    <tag k="tiger:tlid" v="74652240:74675738:74675739"/>
    <tag k="tiger:zip_left" v="75801"/>
    <tag k="tiger:zip_right" v="75801"/>
  </way>
  <way id="44879445" version="5" timestamp="2011-06-18T09:35:26Z" uid="207745" user="NE2" changeset="8471411">
    <nd ref="221852007"/>
    <nd ref="221935285"/>
    <nd ref="221935289"/>
    <nd ref="221935292"/>
    <nd ref="221935297"/>
    <tag k="highway" v="primary"/>
    <tag k="lanes" v="4"/>
    <tag k="name" v="East Spring Street"/>
    <tag k="ref" v="US 84; US 287"/>
    <tag k="tiger:cfcc" v="A41"/>
    <tag k="tiger:county" v="Anderson, TX"/>
    <tag k="tiger:name_base" v="Spring"/>
    <tag k="tiger:name_direction_prefix" v="E"/>
    <tag k="tiger:name_type" v="St"/>
    <tag k="tiger:separated" v="no"/>
    <tag k="tiger:source" v="tiger_import_dch_v0.6_20070829"/>
    <tag k="tiger:tlid" v="74652240:74675738:74675739"/>
    <tag k="tiger:zip_left" v="75801"/>
    <tag k="tiger:zip_right" v="75801"/>
  </way>
  <way id="44879446" version="3" timestamp="2010-04-07T14:04:42Z" uid="20587" user="balrog-kun" changeset="4353646">
    <nd ref="221852007"/>
    <nd ref="221852010"/>
    <nd ref="221852012"/>
    <nd ref="221852015"/>
    <nd ref="221852019"/>
    <nd ref="221852022"/>
    <nd ref="221852026"/>
    <nd ref="221851970"/>
    <tag k="highway" v="residential"/>
    <tag k="name" v="North Church Street"/>
    <tag k="name_1" v="State Highway 19"/>
    <tag k="tiger:cfcc" v="A41"/>
    <tag k="tiger:county" v="Anderson, TX"/>
    <tag k="tiger:name_base" v="Church"/>
    <tag k="tiger:name_base_1" v="State Highway 19"/>
    <tag k="tiger:name_direction_prefix" v="N"/>
    <tag k="tiger:name_type" v="St"/>
    <tag k="tiger:reviewed" v="no"/>
    <tag k="tiger:separated" v="no"/>
    <tag k="tiger:source" v="tiger_import_dch_v0.6_20070829"/>
    <tag k="tiger:tlid" v="74651854:74651823:74652241:74661383:74675740"/>
  </way>
  <way id="44879446" version="4" timestamp="2011-05-08T14:59:31Z" uid="37392" user="25or6to4" changeset="8082087">
    <nd ref="221852007"/>
    <nd ref="221852010"/>
    <nd ref="221852012"/>
    <nd ref="221852015"/>
    <nd ref="1277148999"/>
    <nd ref="221852019"/>
    <nd ref="221852022"/>
    <nd ref="221852026"/>
    <nd ref="221851970"/>
    <tag k="highway" v="primary"/>
    <tag k="name" v="North Church Street"/>
    <tag k="oneway" v="yes"/>
    <tag k="ref" v="TX 19"/>
    <tag k="tiger:cfcc" v="A41"/>
    <tag k="tiger:county" v="Anderson, TX"/>
    <tag k="tiger:name_base" v="Church"/>
    <tag k="tiger:name_base_1" v="State Highway 19"/>
    <tag k="tiger:name_direction_prefix" v="N"/>
    <tag k="tiger:name_type" v="St"/>
    <tag k="tiger:separated" v="no"/>
    <tag k="tiger:source" v="tiger_import_dch_v0.6_20070829"/>
    <tag k="tiger:tlid" v="74651854:74651823:74652241:74661383:74675740"/>
  </way>
  <way id="44879448" version="2" timestamp="2010-04-07T14:04:42Z" uid="20587" user="balrog-kun" changeset="4353646">
    <nd ref="221911936"/>
    <nd ref="221911940"/>
    <nd ref="221911943"/>
    <nd ref="221862219"/>
    <nd ref="221911946"/>
    <nd ref="221873872"/>
    <nd ref="221900673"/>
    <nd ref="221910372"/>
    <nd ref="221911949"/>
    <nd ref="221911952"/>
    <nd ref="221911956"/>
    <nd ref="221911960"/>
    <nd ref="221885455"/>
    <nd ref="221911964"/>
    <nd ref="221911968"/>
    <nd ref="221911972"/>
    <nd ref="221911975"/>
    <nd ref="221911979"/>
    <nd ref="221911986"/>
    <nd ref="221911989"/>
    <nd ref="221911993"/>
    <nd ref="221883626"/>
    <nd ref="221911998"/>
    <nd ref="221912002"/>
    <nd ref="221912005"/>
    <nd ref="221912007"/>
    <nd ref="221912012"/>
    <nd ref="221912017"/>
    <nd ref="221912019"/>
    <nd ref="221912024"/>
    <nd ref="221905331"/>
    <nd ref="221912030"/>
    <nd ref="221912036"/>
    <nd ref="221912040"/>
    <nd ref="221912045"/>
    <nd ref="221912047"/>
    <nd ref="221872406"/>
    <tag k="highway" v="primary"/>
    <tag k="name" v="East Park Ave; United States Highway 84"/>
    <tag k="ref" v="US 84"/>
    <tag k="tiger:cfcc" v="A21"/>
    <tag k="tiger:county" v="Anderson, TX"/>
    <tag k="tiger:name_base" v="Park"/>
    <tag k="tiger:name_base_1" v="United States Highway 84"/>
    <tag k="tiger:name_direction_prefix" v="E"/>
    <tag k="tiger:name_type" v="Ave"/>
    <tag k="tiger:separated" v="no"/>
    <tag k="tiger:source" v="tiger_import_dch_v0.6_20070829"/>
    <tag k="tiger:tlid" v="74654433:74676328:74676329:74654373:74654128"/>
    <tag k="tiger:zip_left" v="75801"/>
  </way>
  <way id="44879448" version="3" timestamp="2010-05-04T16:05:03Z" uid="33377" user="Victor LP" changeset="4605391">
    <nd ref="221911936"/>
    <nd ref="221911940"/>
    <nd ref="221911943"/>
    <nd ref="221862219"/>
    <nd ref="221911946"/>
    <nd ref="221873872"/>
    <nd ref="221900673"/>
    <nd ref="221910372"/>
    <nd ref="221911949"/>
    <nd ref="221911952"/>
    <nd ref="221911956"/>
    <nd ref="221911960"/>
    <nd ref="221885455"/>
    <nd ref="221911964"/>
    <nd ref="221911968"/>
    <nd ref="221911972"/>
    <nd ref="221911975"/>
    <nd ref="221911979"/>
    <nd ref="221911986"/>
    <nd ref="221911989"/>
    <nd ref="221911993"/>
    <nd ref="221883626"/>
    <nd ref="221911998"/>
    <nd ref="221912002"/>
    <nd ref="221912005"/>
    <nd ref="221912007"/>
    <nd ref="221912012"/>
    <nd ref="221912017"/>
    <nd ref="221912019"/>
    <nd ref="221912024"/>
    <nd ref="221905331"/>
    <nd ref="221912030"/>
    <nd ref="221912036"/>
    <nd ref="221912040"/>
    <nd ref="221912045"/>
    <nd ref="221912047"/>
    <nd ref="221872406"/>
    <tag k="highway" v="primary"/>
    <tag k="name" v="East Park Avenue"/>
    <tag k="ref" v="US 84"/>
    <tag k="tiger:cfcc" v="A21"/>
    <tag k="tiger:county" v="Anderson, TX"/>
    <tag k="tiger:name_base" v="Park"/>
    <tag k="tiger:name_base_1" v="United States Highway 84"/>
    <tag k="tiger:name_direction_prefix" v="E"/>
    <tag k="tiger:name_type" v="Ave"/>
    <tag k="tiger:separated" v="no"/>
    <tag k="tiger:source" v="tiger_import_dch_v0.6_20070829"/>
    <tag k="tiger:tlid" v="74654433:74676328:74676329:74654373:74654128"/>
    <tag k="tiger:zip_left" v="75801"/>
  </way>
  <way id="44879448" version="4" timestamp="2011-06-18T17:35:06Z" uid="207745" user="NE2" changeset="8475792">
    <nd ref="221911936"/>
    <nd ref="221911940"/>
    <nd ref="221911943"/>
    <nd ref="221862219"/>
    <nd ref="221911946"/>
    <nd ref="221873872"/>
    <nd ref="221900673"/>
    <nd ref="221910372"/>
    <nd ref="221911949"/>
    <nd ref="221911952"/>
    <nd ref="221911956"/>
    <nd ref="221911960"/>
    <nd ref="221885455"/>
    <nd ref="221911964"/>
    <nd ref="221911968"/>
    <nd ref="221911972"/>
    <nd ref="221911975"/>
    <nd ref="221911979"/>
    <nd ref="221911986"/>
    <nd ref="221911989"/>
    <nd ref="221911993"/>
    <nd ref="221883626"/>
    <nd ref="221911998"/>
    <nd ref="221912002"/>
    <nd ref="221912005"/>
    <nd ref="221912007"/>
    <nd ref="221912012"/>
    <nd ref="221912017"/>
    <nd ref="221912019"/>
    <nd ref="221912024"/>
    <nd ref="221905331"/>
    <nd ref="221912030"/>
    <nd ref="221912036"/>
    <nd ref="221912040"/>
    <nd ref="221912045"/>
    <nd ref="221912047"/>
    <nd ref="221872406"/>
    <tag k="highway" v="primary"/>
    <tag k="lanes" v="2"/>
    <tag k="name" v="East Park Avenue"/>
    <tag k="ref" v="US 84"/>
    <tag k="tiger:cfcc" v="A21"/>
    <tag k="tiger:county" v="Anderson, TX"/>
    <tag k="tiger:name_base" v="Park"/>
    <tag k="tiger:name_base_1" v="United States Highway 84"/>
    <tag k="tiger:name_direction_prefix" v="E"/>
    <tag k="tiger:name_type" v="Ave"/>
    <tag k="tiger:separated" v="no"/>
    <tag k="tiger:source" v="tiger_import_dch_v0.6_20070829"/>
    <tag k="tiger:tlid" v="74654433:74676328:74676329:74654373:74654128"/>
    <tag k="tiger:zip_left" v="75801"/>
  </way>
  <way id="44879476" version="3" timestamp="2010-04-04T01:41:21Z" uid="20587" user="balrog-kun" changeset="4318136">
    <nd ref="55751676"/>
    <nd ref="638908015"/>
    <nd ref="55751677"/>
    <nd ref="55743331"/>
    <nd ref="550877938"/>
    <nd ref="55751682"/>
    <nd ref="55751683"/>
    <nd ref="55751684"/>
    <nd ref="55751689"/>
    <nd ref="638908017"/>
    <nd ref="55751701"/>
    <nd ref="638908019"/>
    <nd ref="55751707"/>
    <nd ref="55751711"/>
    <nd ref="55751669"/>
    <nd ref="55751716"/>
    <tag k="highway" v="residential"/>
    <tag k="name" v="Camfield Circle"/>
    <tag k="tiger:cfcc" v="A41"/>
    <tag k="tiger:county" v="El Paso, CO"/>
    <tag k="tiger:separated" v="no"/>
    <tag k="tiger:source" v="tiger_import_dch_v0.6_20070809"/>
    <tag k="tiger:tlid" v="105530859:105547086:105547087:105547089:105547094:105547095"/>
    <tag k="tiger:zip_left" v="80920"/>
    <tag k="tiger:zip_right" v="80920"/>
  </way>
  <way id="44879511" version="2" timestamp="2011-01-03T15:05:05Z" uid="4467" user="Rosscoe" changeset="6850694">
    <nd ref="30028944"/>
    <nd ref="568970694"/>
    <nd ref="568970695"/>
    <nd ref="1080564413"/>
    <tag k="highway" v="residential"/>
    <tag k="maxspeed" v="50"/>
    <tag k="name" v="Alluvium Way"/>
    <tag k="oneway" v="yes"/>
  </way>
  <way id="44879519" version="1" timestamp="2009-11-23T05:33:37Z" uid="7617" user="Franc" changeset="3192950">
    <nd ref="568971086"/>
    <nd ref="568971087"/>
    <nd ref="568971088"/>
    <nd ref="568971089"/>
    <nd ref="568971090"/>
    <nd ref="568971091"/>
    <nd ref="568971092"/>
    <nd ref="568971093"/>
    <nd ref="568971094"/>
    <nd ref="568971095"/>
    <nd ref="568971096"/>
    <nd ref="568971098"/>
    <nd ref="568971099"/>
    <nd ref="568971100"/>
    <nd ref="568971101"/>
    <nd ref="568971102"/>
    <nd ref="568971103"/>
    <nd ref="568971104"/>
    <nd ref="568971105"/>
    <nd ref="568971106"/>
    <nd ref="568971107"/>
    <nd ref="568971108"/>
    <nd ref="568971109"/>
    <nd ref="568971123"/>
    <tag k="complete" v="no"/>
    <tag k="highway" v="unclassified"/>
    <tag k="source" v="nearmap"/>
  </way>
  <way id="44879519" version="2" timestamp="2010-03-02T05:59:39Z" uid="84853" user="mdp553" changeset="4014416">
    <nd ref="574270268"/>
    <nd ref="568971086"/>
    <nd ref="568971087"/>
    <nd ref="568971088"/>
    <nd ref="568971089"/>
    <nd ref="568971090"/>
    <nd ref="568971091"/>
    <nd ref="568971092"/>
    <nd ref="568971093"/>
    <nd ref="568971094"/>
    <nd ref="568971095"/>
    <nd ref="568971096"/>
    <nd ref="568971098"/>
    <nd ref="568971099"/>
    <nd ref="568971100"/>
    <nd ref="568971101"/>
    <nd ref="568971102"/>
    <nd ref="568971103"/>
    <nd ref="568971104"/>
    <nd ref="568971105"/>
    <nd ref="568971106"/>
    <nd ref="568971107"/>
    <nd ref="568971108"/>
    <nd ref="568971109"/>
    <nd ref="568971123"/>
    <tag k="complete" v="no"/>
    <tag k="highway" v="unclassified"/>
    <tag k="source" v="nearmap"/>
  </way>
  <way id="44879519" version="3" timestamp="2011-09-28T11:41:04Z" uid="338866" user="tiger" changeset="9418864">
    <nd ref="574270268"/>
    <nd ref="568971086"/>
    <nd ref="568971087"/>
    <nd ref="568971088"/>
    <nd ref="568971089"/>
    <nd ref="568971090"/>
    <nd ref="568971091"/>
    <nd ref="568971092"/>
    <nd ref="568971093"/>
    <nd ref="568971094"/>
    <nd ref="568971095"/>
    <nd ref="568971096"/>
    <nd ref="568971098"/>
    <nd ref="568971099"/>
    <nd ref="568971100"/>
    <nd ref="568971101"/>
    <nd ref="568971102"/>
    <nd ref="568971103"/>
    <nd ref="568971104"/>
    <nd ref="568971105"/>
    <nd ref="568971106"/>
    <nd ref="568971107"/>
    <nd ref="568971108"/>
    <nd ref="568971109"/>
    <nd ref="568971123"/>
    <tag k="complete" v="no"/>
    <tag k="highway" v="unclassified"/>
    <tag k="name" v="Kaus Road"/>
    <tag k="source" v="nearmap"/>
  </way>
  <way id="44879519" version="4" timestamp="2011-12-28T16:17:06Z" uid="338866" user="tiger" changeset="10225477">
    <nd ref="574270268"/>
    <nd ref="568971086"/>
    <nd ref="568971087"/>
    <nd ref="568971088"/>
    <nd ref="568971089"/>
    <nd ref="568971090"/>
    <nd ref="568971091"/>
    <nd ref="568971092"/>
    <nd ref="1565450520"/>
    <nd ref="568971093"/>
    <nd ref="568971094"/>
    <nd ref="568971095"/>
    <nd ref="568971096"/>
    <nd ref="568971098"/>
    <nd ref="568971099"/>
    <nd ref="568971100"/>
    <nd ref="568971101"/>
    <nd ref="568971102"/>
    <nd ref="568971103"/>
    <nd ref="568971104"/>
    <nd ref="568971105"/>
    <nd ref="568971106"/>
    <nd ref="568971107"/>
    <nd ref="568971108"/>
    <nd ref="568971109"/>
    <nd ref="568971123"/>
    <tag k="complete" v="no"/>
    <tag k="highway" v="unclassified"/>
    <tag k="name" v="Kaus Road"/>
    <tag k="source" v="nearmap"/>
  </way>
  <way id="44879520" version="1" timestamp="2009-11-23T05:33:37Z" uid="7617" user="Franc" changeset="3192950">
    <nd ref="568971079"/>
    <nd ref="568971080"/>
    <nd ref="568971081"/>
    <nd ref="568971082"/>
    <nd ref="568971083"/>
    <nd ref="568971085"/>
    <nd ref="568971118"/>
    <tag k="complete" v="no"/>
    <tag k="highway" v="unclassified"/>
    <tag k="source" v="nearmap"/>
  </way>
  <way id="44879520" version="2" timestamp="2010-03-02T05:59:39Z" uid="84853" user="mdp553" changeset="4014416">
    <nd ref="658983571"/>
    <nd ref="568971080"/>
    <nd ref="568971081"/>
    <nd ref="568971082"/>
    <nd ref="568971083"/>
    <nd ref="568971085"/>
    <nd ref="568971118"/>
    <tag k="complete" v="no"/>
    <tag k="highway" v="unclassified"/>
    <tag k="source" v="nearmap"/>
  </way>
  <way id="44879520" version="3" timestamp="2011-12-28T16:08:06Z" uid="338866" user="tiger" changeset="10227366">
    <nd ref="658983571"/>
    <nd ref="568971080"/>
    <nd ref="568971081"/>
    <nd ref="568971082"/>
    <nd ref="568971083"/>
    <nd ref="568971085"/>
    <nd ref="1565432615"/>
    <tag k="complete" v="no"/>
    <tag k="highway" v="unclassified"/>
    <tag k="source" v="nearmap"/>
  </way>
  <way id="44879521" version="1" timestamp="2009-11-23T05:33:37Z" uid="7617" user="Franc" changeset="3192950">
    <nd ref="568971110"/>
    <nd ref="568971119"/>
    <nd ref="568971120"/>
    <nd ref="568971121"/>
    <nd ref="568971122"/>
    <nd ref="568971111"/>
    <nd ref="568971112"/>
    <nd ref="568971113"/>
    <nd ref="568971114"/>
    <nd ref="568971115"/>
    <nd ref="568971117"/>
    <tag k="highway" v="residential"/>
    <tag k="source" v="nearmap"/>
  </way>
  <way id="44879521" version="2" timestamp="2010-03-02T05:59:40Z" uid="84853" user="mdp553" changeset="4014416">
    <nd ref="568971110"/>
    <nd ref="568971119"/>
    <nd ref="568971122"/>
    <nd ref="568971113"/>
    <nd ref="568971114"/>
    <nd ref="568971115"/>
    <nd ref="568971117"/>
    <tag k="highway" v="residential"/>
    <tag k="source" v="nearmap"/>
  </way>
  <way id="44879521" version="3" timestamp="2010-07-09T06:42:08Z" uid="74617" user="JohnSmith" changeset="5171128">
    <nd ref="568971110"/>
    <nd ref="568971119"/>
    <nd ref="568971122"/>
    <nd ref="568971113"/>
    <nd ref="568971114"/>
    <nd ref="568971115"/>
    <nd ref="568971117"/>
    <tag k="highway" v="residential"/>
    <tag k="maxspeed" v="50"/>
    <tag k="maxspeed:source" v="default residential speed limit in Australia"/>
    <tag k="source" v="nearmap"/>
  </way>
  <way id="44879521" version="4" timestamp="2011-09-28T11:41:04Z" uid="338866" user="tiger" changeset="9418864">
    <nd ref="568971110"/>
    <nd ref="568971119"/>
    <nd ref="568971122"/>
    <nd ref="568971113"/>
    <nd ref="568971114"/>
    <nd ref="568971115"/>
    <nd ref="568971117"/>
    <tag k="fixme" v="Circuit? Crescent?"/>
    <tag k="highway" v="residential"/>
    <tag k="maxspeed" v="50"/>
    <tag k="maxspeed:source" v="default residential speed limit in Australia"/>
    <tag k="name" v="Karri Ct"/>
    <tag k="source" v="nearmap"/>
  </way>
  <way id="44879521" version="5" timestamp="2011-12-28T16:01:10Z" uid="338866" user="tiger" changeset="10225477"/>
  <way id="44879522" version="1" timestamp="2009-11-23T05:33:38Z" uid="7617" user="Franc" changeset="3192950">
    <nd ref="568971124"/>
    <nd ref="568971125"/>
    <nd ref="568971126"/>
    <nd ref="568971127"/>
    <nd ref="568971128"/>
    <nd ref="568971129"/>
    <nd ref="568971130"/>
    <nd ref="568971131"/>
    <nd ref="568971132"/>
    <nd ref="568971133"/>
    <nd ref="568971134"/>
    <nd ref="568971135"/>
    <nd ref="568971136"/>
    <nd ref="568971137"/>
    <nd ref="568971138"/>
    <nd ref="568971139"/>
    <tag k="complete" v="no"/>
    <tag k="highway" v="unclassified"/>
    <tag k="source" v="nearmap"/>
  </way>
  <way id="44879522" version="2" timestamp="2010-09-28T08:22:32Z" uid="149741" user="Ian Banks" changeset="5901614">
    <nd ref="928956661"/>
    <nd ref="928956730"/>
    <nd ref="928956630"/>
    <nd ref="928956667"/>
    <nd ref="928956789"/>
    <nd ref="928956647"/>
    <nd ref="928956757"/>
    <nd ref="928956622"/>
    <nd ref="928956734"/>
    <nd ref="928956601"/>
    <nd ref="928956714"/>
    <nd ref="928956741"/>
    <nd ref="928956653"/>
    <nd ref="928956727"/>
    <nd ref="928956628"/>
    <nd ref="928956712"/>
    <nd ref="928956608"/>
    <nd ref="928956689"/>
    <nd ref="928956594"/>
    <nd ref="928956621"/>
    <nd ref="928956733"/>
    <nd ref="928956599"/>
    <nd ref="568971124"/>
    <nd ref="568971125"/>
    <nd ref="568971126"/>
    <nd ref="568971127"/>
    <nd ref="568971128"/>
    <nd ref="568971129"/>
    <nd ref="568971130"/>
    <nd ref="568971131"/>
    <nd ref="568971132"/>
    <nd ref="568971133"/>
    <nd ref="568971134"/>
    <nd ref="568971135"/>
    <nd ref="568971136"/>
    <nd ref="568971137"/>
    <nd ref="568971138"/>
    <nd ref="568971139"/>
    <tag k="complete" v="no"/>
    <tag k="highway" v="unclassified"/>
    <tag k="source" v="nearmap"/>
  </way>
  <way id="44879612" version="5" timestamp="2010-04-02T20:40:02Z" uid="20587" user="balrog-kun" changeset="4306764">
    <nd ref="568971958"/>
    <nd ref="568971959"/>
    <nd ref="568971960"/>
    <nd ref="568971961"/>
    <nd ref="568971962"/>
    <nd ref="568971963"/>
    <nd ref="568971964"/>
    <nd ref="568971965"/>
    <nd ref="568969187"/>
    <nd ref="568969188"/>
    <nd ref="568969189"/>
    <nd ref="568969190"/>
    <nd ref="568969191"/>
    <nd ref="568969192"/>
    <nd ref="568969193"/>
    <nd ref="568968675"/>
    <nd ref="568968658"/>
    <nd ref="568968705"/>
    <nd ref="568969194"/>
    <nd ref="568969195"/>
    <nd ref="568969196"/>
    <nd ref="568969197"/>
    <nd ref="568969198"/>
    <nd ref="568969199"/>
    <nd ref="568969200"/>
    <nd ref="568969202"/>
    <nd ref="568969203"/>
    <nd ref="568969204"/>
    <nd ref="568969205"/>
    <nd ref="568969206"/>
    <nd ref="568969207"/>
    <nd ref="568969208"/>
    <nd ref="568969209"/>
    <nd ref="568969210"/>
    <nd ref="568969211"/>
    <nd ref="568969212"/>
    <nd ref="568969213"/>
    <nd ref="568969214"/>
    <nd ref="568969215"/>
    <nd ref="568969217"/>
    <nd ref="568969218"/>
    <nd ref="568969219"/>
    <nd ref="568969220"/>
    <nd ref="568969221"/>
    <nd ref="568969222"/>
    <nd ref="568969223"/>
    <nd ref="568969224"/>
    <nd ref="588017520"/>
    <nd ref="568969225"/>
    <nd ref="568969226"/>
    <nd ref="588160565"/>
    <nd ref="568969228"/>
    <nd ref="568969229"/>
    <nd ref="568969230"/>
    <nd ref="568969232"/>
    <nd ref="568969233"/>
    <nd ref="568969234"/>
    <nd ref="568969235"/>
    <nd ref="568969236"/>
    <nd ref="568969237"/>
    <nd ref="568969238"/>
    <nd ref="568969239"/>
    <nd ref="568969240"/>
    <nd ref="568969241"/>
    <nd ref="568969242"/>
    <nd ref="568969243"/>
    <nd ref="568969244"/>
    <nd ref="568969245"/>
    <nd ref="568969247"/>
    <nd ref="568969248"/>
    <nd ref="568969249"/>
    <nd ref="568969250"/>
    <nd ref="568969251"/>
    <nd ref="568969252"/>
    <nd ref="568969253"/>
    <nd ref="568969254"/>
    <nd ref="568969255"/>
    <nd ref="568969256"/>
    <nd ref="568969257"/>
    <nd ref="568969259"/>
    <nd ref="568969260"/>
    <nd ref="568969261"/>
    <nd ref="568969262"/>
    <nd ref="568969263"/>
    <nd ref="568969264"/>
    <nd ref="568969265"/>
    <nd ref="568969266"/>
    <nd ref="568969267"/>
    <nd ref="568969268"/>
    <nd ref="568969269"/>
    <nd ref="585271779"/>
    <nd ref="568969270"/>
    <nd ref="585271865"/>
    <nd ref="568969271"/>
    <nd ref="568969272"/>
    <nd ref="568969273"/>
    <nd ref="568969274"/>
    <nd ref="568969275"/>
    <nd ref="568969277"/>
    <nd ref="568969278"/>
    <nd ref="568969279"/>
    <nd ref="568969280"/>
    <nd ref="568969281"/>
    <nd ref="568969282"/>
    <nd ref="568969283"/>
    <nd ref="568969284"/>
    <nd ref="568970383"/>
    <nd ref="568970384"/>
    <nd ref="568970385"/>
    <nd ref="568970386"/>
    <nd ref="568970387"/>
    <nd ref="568970388"/>
    <nd ref="568970389"/>
    <nd ref="568970391"/>
    <nd ref="568970393"/>
    <nd ref="568970394"/>
    <nd ref="568970396"/>
    <nd ref="568970399"/>
    <nd ref="568970400"/>
    <nd ref="568970401"/>
    <nd ref="568970402"/>
    <nd ref="568970403"/>
    <nd ref="568970404"/>
    <nd ref="568970405"/>
    <nd ref="568970406"/>
    <nd ref="568970407"/>
    <nd ref="568970408"/>
    <nd ref="568970409"/>
    <nd ref="568971966"/>
    <nd ref="568970410"/>
    <tag k="highway" v="residential"/>
    <tag k="name" v="Veterans Parkway"/>
    <tag k="oneway" v="yes"/>
  </way>
  <way id="44879612" version="6" timestamp="2011-12-10T00:15:54Z" uid="101433" user="abschiff" changeset="10077438">
    <nd ref="1538880041"/>
    <nd ref="1538880042"/>
    <nd ref="1538880043"/>
    <nd ref="1538880044"/>
    <nd ref="1538880045"/>
    <nd ref="1538880046"/>
    <nd ref="1538880047"/>
    <nd ref="1538880050"/>
    <nd ref="568969187"/>
    <nd ref="568969188"/>
    <nd ref="568969189"/>
    <nd ref="568969190"/>
    <nd ref="568969191"/>
    <nd ref="568969192"/>
    <nd ref="568969193"/>
    <nd ref="568968675"/>
    <nd ref="568968658"/>
    <nd ref="568968705"/>
    <nd ref="568969194"/>
    <nd ref="568969195"/>
    <nd ref="568969196"/>
    <nd ref="568969197"/>
    <nd ref="568969198"/>
    <nd ref="568969199"/>
    <nd ref="568969200"/>
    <nd ref="568969202"/>
    <nd ref="568969203"/>
    <nd ref="568969204"/>
    <nd ref="568969205"/>
    <nd ref="568969206"/>
    <nd ref="568969207"/>
    <nd ref="568969208"/>
    <nd ref="568969209"/>
    <nd ref="568969210"/>
    <nd ref="568969211"/>
    <nd ref="568969212"/>
    <nd ref="568969213"/>
    <nd ref="568969214"/>
    <nd ref="568969215"/>
    <nd ref="568969217"/>
    <nd ref="568969218"/>
    <nd ref="568969219"/>
    <nd ref="568969220"/>
    <nd ref="568969221"/>
    <nd ref="568969222"/>
    <nd ref="568969223"/>
    <nd ref="568969224"/>
    <nd ref="588017520"/>
    <nd ref="568969225"/>
    <nd ref="568969226"/>
    <nd ref="588160565"/>
    <nd ref="568969228"/>
    <nd ref="568969229"/>
    <nd ref="568969230"/>
    <nd ref="568969232"/>
    <nd ref="568969233"/>
    <nd ref="568969234"/>
    <nd ref="568969235"/>
    <nd ref="568969236"/>
    <nd ref="568969237"/>
    <nd ref="568969238"/>
    <nd ref="568969239"/>
    <nd ref="568969240"/>
    <nd ref="568969241"/>
    <nd ref="568969242"/>
    <nd ref="568969243"/>
    <nd ref="568969244"/>
    <nd ref="568969245"/>
    <nd ref="568969247"/>
    <nd ref="568969248"/>
    <nd ref="568969249"/>
    <nd ref="568969250"/>
    <nd ref="568969251"/>
    <nd ref="568969252"/>
    <nd ref="568969253"/>
    <nd ref="568969254"/>
    <nd ref="568969255"/>
    <nd ref="568969256"/>
    <nd ref="568969257"/>
    <nd ref="568969259"/>
    <nd ref="568969260"/>
    <nd ref="568969261"/>
    <nd ref="568969262"/>
    <nd ref="568969263"/>
    <nd ref="568969264"/>
    <nd ref="568969265"/>
    <nd ref="568969266"/>
    <nd ref="568969267"/>
    <nd ref="568969268"/>
    <nd ref="568969269"/>
    <nd ref="585271779"/>
    <nd ref="568969270"/>
    <nd ref="585271865"/>
    <nd ref="568969271"/>
    <nd ref="568969272"/>
    <nd ref="568969273"/>
    <nd ref="568969274"/>
    <nd ref="568969275"/>
    <nd ref="568969277"/>
    <nd ref="568969278"/>
    <nd ref="568969279"/>
    <nd ref="568969280"/>
    <nd ref="568969281"/>
    <nd ref="568969282"/>
    <nd ref="568969283"/>
    <nd ref="568969284"/>
    <nd ref="568970383"/>
    <nd ref="568970384"/>
    <nd ref="568970385"/>
    <nd ref="568970386"/>
    <nd ref="568970387"/>
    <nd ref="568970388"/>
    <nd ref="568970389"/>
    <nd ref="568970391"/>
    <nd ref="568970393"/>
    <nd ref="568970394"/>
    <nd ref="568970396"/>
    <nd ref="568970399"/>
    <nd ref="568970400"/>
    <nd ref="568970401"/>
    <nd ref="568970402"/>
    <nd ref="568970403"/>
    <nd ref="568970404"/>
    <nd ref="568970405"/>
    <nd ref="568970406"/>
    <nd ref="568970407"/>
    <nd ref="568970408"/>
    <nd ref="568970409"/>
    <nd ref="568971966"/>
    <nd ref="568970410"/>
    <tag k="highway" v="residential"/>
    <tag k="name" v="Veterans Parkway"/>
    <tag k="oneway" v="yes"/>
  </way>
  <way id="44879614" version="3" timestamp="2010-04-07T14:04:44Z" uid="20587" user="balrog-kun" changeset="4353646">
    <nd ref="568972019"/>
    <nd ref="568972027"/>
    <nd ref="568972028"/>
    <tag k="highway" v="residential"/>
    <tag k="name" v="Englemann Oak Drive"/>
  </way>
  <way id="44879615" version="3" timestamp="2010-04-07T14:04:44Z" uid="20587" user="balrog-kun" changeset="4353646">
    <nd ref="568972020"/>
    <nd ref="568972019"/>
    <nd ref="568972022"/>
    <nd ref="568972023"/>
    <nd ref="568972024"/>
    <nd ref="568972025"/>
    <nd ref="568972030"/>
    <nd ref="568972031"/>
    <tag k="highway" v="residential"/>
    <tag k="name" v="Darlington Drive"/>
  </way>
  <way id="44879616" version="2" timestamp="2010-04-07T14:04:44Z" uid="20587" user="balrog-kun" changeset="4353646">
    <nd ref="151077509"/>
    <nd ref="555846670"/>
    <nd ref="555846675"/>
    <nd ref="555846684"/>
    <nd ref="555846690"/>
    <nd ref="555846697"/>
    <nd ref="555846709"/>
    <nd ref="555846718"/>
    <nd ref="151085952"/>
    <nd ref="555846730"/>
    <nd ref="555846741"/>
    <nd ref="555846749"/>
    <nd ref="151075651"/>
    <nd ref="151075653"/>
    <nd ref="151072299"/>
    <nd ref="151075655"/>
    <nd ref="151075657"/>
    <nd ref="151075659"/>
    <nd ref="151075635"/>
    <tag k="highway" v="residential"/>
    <tag k="name" v="South Milam Street"/>
    <tag k="tiger:cfcc" v="A41"/>
    <tag k="tiger:county" v="Gillespie, TX"/>
    <tag k="tiger:name_base" v="Milam"/>
    <tag k="tiger:name_direction_prefix" v="S"/>
    <tag k="tiger:name_type" v="St"/>
    <tag k="tiger:reviewed" v="no"/>
    <tag k="tiger:separated" v="no"/>
    <tag k="tiger:source" v="tiger_import_dch_v0.6_20070829"/>
    <tag k="tiger:tlid" v="176835862:176835238:176835227:176840980:176835276; 176841242:176840994"/>
    <tag k="tiger:zip_left" v="78624"/>
    <tag k="tiger:zip_right" v="78624"/>
  </way>
  <way id="44879616" version="3" timestamp="2011-10-24T04:50:27Z" uid="365944" user="homeslice60148" changeset="9640086">
    <nd ref="151077509"/>
    <nd ref="555846670"/>
    <nd ref="555846675"/>
    <nd ref="555846684"/>
    <nd ref="555846690"/>
    <nd ref="1478664093"/>
    <nd ref="1478663950"/>
    <nd ref="1478663945"/>
    <nd ref="1478663941"/>
    <nd ref="1478663920"/>
    <nd ref="1478663969"/>
    <nd ref="555846697"/>
    <nd ref="555846709"/>
    <nd ref="555846718"/>
    <nd ref="151085952"/>
    <nd ref="555846730"/>
    <nd ref="555846741"/>
    <nd ref="555846749"/>
    <nd ref="151075651"/>
    <nd ref="151075653"/>
    <nd ref="151072299"/>
    <nd ref="151075655"/>
    <nd ref="151075657"/>
    <nd ref="151075659"/>
    <nd ref="1478663870"/>
    <nd ref="1478663896"/>
    <nd ref="151075635"/>
    <tag k="highway" v="residential"/>
    <tag k="name" v="South Milam Street"/>
    <tag k="tiger:cfcc" v="A41"/>
    <tag k="tiger:county" v="Gillespie, TX"/>
    <tag k="tiger:name_base" v="Milam"/>
    <tag k="tiger:name_direction_prefix" v="S"/>
    <tag k="tiger:name_type" v="St"/>
    <tag k="tiger:reviewed" v="no"/>
    <tag k="tiger:separated" v="no"/>
    <tag k="tiger:source" v="tiger_import_dch_v0.6_20070829"/>
    <tag k="tiger:zip_left" v="78624"/>
    <tag k="tiger:zip_right" v="78624"/>
  </way>
  <way id="44879618" version="2" timestamp="2010-04-07T14:04:45Z" uid="20587" user="balrog-kun" changeset="4353646">
    <nd ref="568972009"/>
    <nd ref="151074889"/>
    <nd ref="568972011"/>
    <nd ref="558262864"/>
    <nd ref="151096695"/>
    <nd ref="151096697"/>
    <nd ref="151096699"/>
    <nd ref="151075136"/>
    <nd ref="551015644"/>
    <nd ref="151096701"/>
    <tag k="highway" v="residential"/>
    <tag k="name" v="Hollmig Lane"/>
    <tag k="tiger:cfcc" v="A41"/>
    <tag k="tiger:county" v="Gillespie, TX"/>
    <tag k="tiger:name_base" v="Hollmig"/>
    <tag k="tiger:name_type" v="Ln"/>
    <tag k="tiger:separated" v="no"/>
    <tag k="tiger:source" v="tiger_import_dch_v0.6_20070829"/>
    <tag k="tiger:tlid" v="176849435:176849436:176848184:176848185:176846553"/>
    <tag k="tiger:zip_left" v="78624"/>
  </way>
  <way id="44879619" version="2" timestamp="2010-04-07T14:04:45Z" uid="20587" user="balrog-kun" changeset="4353646">
    <nd ref="151089434"/>
    <nd ref="151034264"/>
    <nd ref="151089436"/>
    <tag k="highway" v="residential"/>
    <tag k="name" v="East Ufer Street"/>
    <tag k="tiger:cfcc" v="A41"/>
    <tag k="tiger:county" v="Gillespie, TX"/>
    <tag k="tiger:name_base" v="Ufer"/>
    <tag k="tiger:name_direction_prefix" v="E"/>
    <tag k="tiger:name_type" v="St"/>
    <tag k="tiger:separated" v="no"/>
    <tag k="tiger:source" v="tiger_import_dch_v0.6_20070829"/>
    <tag k="tiger:tlid" v="176836588:176836600"/>
  </way>
  <way id="44879621" version="7" timestamp="2010-04-02T20:40:03Z" uid="20587" user="balrog-kun" changeset="4306764">
    <nd ref="568971954"/>
    <nd ref="568971968"/>
    <nd ref="568971969"/>
    <nd ref="568971970"/>
    <nd ref="568971971"/>
    <nd ref="568971972"/>
    <nd ref="568971973"/>
    <nd ref="568971974"/>
    <nd ref="568971975"/>
    <nd ref="568971976"/>
    <nd ref="568971977"/>
    <nd ref="568971979"/>
    <nd ref="568971980"/>
    <nd ref="568971981"/>
    <nd ref="568971982"/>
    <nd ref="568971983"/>
    <nd ref="568971984"/>
    <nd ref="568971985"/>
    <nd ref="568971986"/>
    <nd ref="568971987"/>
    <nd ref="568971988"/>
    <nd ref="568971989"/>
    <nd ref="568971990"/>
    <nd ref="568971992"/>
    <nd ref="568971993"/>
    <nd ref="568971994"/>
    <nd ref="585266144"/>
    <nd ref="568971995"/>
    <nd ref="568971996"/>
    <nd ref="568971997"/>
    <nd ref="568971999"/>
    <nd ref="568972000"/>
    <nd ref="568972001"/>
    <nd ref="568972002"/>
    <nd ref="568972003"/>
    <nd ref="568972004"/>
    <nd ref="568972005"/>
    <nd ref="568972006"/>
    <nd ref="568972007"/>
    <nd ref="568972008"/>
    <nd ref="568972010"/>
    <nd ref="568972014"/>
    <nd ref="568972018"/>
    <nd ref="585271867"/>
    <nd ref="568972021"/>
    <nd ref="585271778"/>
    <nd ref="568972026"/>
    <nd ref="568972029"/>
    <nd ref="568972032"/>
    <nd ref="568972034"/>
    <nd ref="568972037"/>
    <nd ref="568972040"/>
    <nd ref="568972042"/>
    <nd ref="568972045"/>
    <nd ref="568972047"/>
    <nd ref="568972049"/>
    <nd ref="568972050"/>
    <nd ref="568972051"/>
    <nd ref="568972052"/>
    <nd ref="568972053"/>
    <nd ref="568972054"/>
    <nd ref="568972055"/>
    <nd ref="568972056"/>
    <nd ref="568972057"/>
    <nd ref="568972058"/>
    <nd ref="568972060"/>
    <nd ref="568972061"/>
    <nd ref="568972062"/>
    <nd ref="561175474"/>
    <nd ref="568972063"/>
    <nd ref="568972064"/>
    <nd ref="568972065"/>
    <nd ref="568972066"/>
    <nd ref="568972067"/>
    <nd ref="568972068"/>
    <nd ref="568972069"/>
    <nd ref="568972070"/>
    <nd ref="568972071"/>
    <nd ref="568972072"/>
    <nd ref="568972073"/>
    <nd ref="568972074"/>
    <nd ref="568972076"/>
    <nd ref="568972077"/>
    <nd ref="568972078"/>
    <nd ref="568972079"/>
    <nd ref="568972080"/>
    <nd ref="588013163"/>
    <nd ref="568972081"/>
    <nd ref="568972082"/>
    <nd ref="568972083"/>
    <nd ref="568972084"/>
    <nd ref="568972085"/>
    <nd ref="568972086"/>
    <nd ref="590387804"/>
    <nd ref="568972087"/>
    <nd ref="568972088"/>
    <nd ref="589058337"/>
    <nd ref="568972089"/>
    <nd ref="568972090"/>
    <nd ref="568972091"/>
    <nd ref="568972092"/>
    <nd ref="568972093"/>
    <nd ref="568972094"/>
    <nd ref="568972096"/>
    <nd ref="568972097"/>
    <nd ref="568972098"/>
    <nd ref="568972099"/>
    <nd ref="568972100"/>
    <nd ref="568972101"/>
    <nd ref="568972102"/>
    <nd ref="568972103"/>
    <nd ref="568972104"/>
    <nd ref="568972105"/>
    <nd ref="568968674"/>
    <nd ref="568972106"/>
    <nd ref="568972107"/>
    <nd ref="568972108"/>
    <nd ref="568972109"/>
    <nd ref="568972110"/>
    <nd ref="568972111"/>
    <nd ref="568972112"/>
    <nd ref="568972114"/>
    <nd ref="568972115"/>
    <nd ref="568972116"/>
    <nd ref="568971958"/>
    <tag k="highway" v="residential"/>
    <tag k="name" v="Veterans Parkway"/>
    <tag k="oneway" v="yes"/>
  </way>
  <way id="44879621" version="8" timestamp="2011-12-09T23:16:33Z" uid="101433" user="abschiff" changeset="10077438">
    <nd ref="568971954"/>
    <nd ref="568971968"/>
    <nd ref="568971969"/>
    <nd ref="568971970"/>
    <nd ref="568971971"/>
    <nd ref="568971972"/>
    <nd ref="568971973"/>
    <nd ref="568971974"/>
    <nd ref="568971975"/>
    <nd ref="568971976"/>
    <nd ref="568971977"/>
    <nd ref="568971979"/>
    <nd ref="568971980"/>
    <nd ref="568971981"/>
    <nd ref="568971982"/>
    <nd ref="568971983"/>
    <nd ref="568971984"/>
    <nd ref="568971985"/>
    <nd ref="568971986"/>
    <nd ref="568971987"/>
    <nd ref="568971988"/>
    <nd ref="568971989"/>
    <nd ref="568971990"/>
    <nd ref="568971992"/>
    <nd ref="568971993"/>
    <nd ref="568971994"/>
    <nd ref="585266144"/>
    <nd ref="568971995"/>
    <nd ref="568971996"/>
    <nd ref="568971997"/>
    <nd ref="568971999"/>
    <nd ref="568972000"/>
    <nd ref="568972001"/>
    <nd ref="568972002"/>
    <nd ref="568972003"/>
    <nd ref="568972004"/>
    <nd ref="568972005"/>
    <nd ref="568972006"/>
    <nd ref="568972007"/>
    <nd ref="568972008"/>
    <nd ref="568972010"/>
    <nd ref="568972014"/>
    <nd ref="568972018"/>
    <nd ref="585271867"/>
    <nd ref="568972021"/>
    <nd ref="585271778"/>
    <nd ref="568972026"/>
    <nd ref="568972029"/>
    <nd ref="568972032"/>
    <nd ref="568972034"/>
    <nd ref="568972037"/>
    <nd ref="568972040"/>
    <nd ref="568972042"/>
    <nd ref="568972045"/>
    <nd ref="568972047"/>
    <nd ref="568972049"/>
    <nd ref="568972050"/>
    <nd ref="568972051"/>
    <nd ref="568972052"/>
    <nd ref="568972053"/>
    <nd ref="568972054"/>
    <nd ref="568972055"/>
    <nd ref="568972056"/>
    <nd ref="568972057"/>
    <nd ref="568972058"/>
    <nd ref="568972060"/>
    <nd ref="568972061"/>
    <nd ref="568972062"/>
    <nd ref="561175474"/>
    <nd ref="568972063"/>
    <nd ref="568972064"/>
    <nd ref="568972065"/>
    <nd ref="568972066"/>
    <nd ref="568972067"/>
    <nd ref="568972068"/>
    <nd ref="568972069"/>
    <nd ref="568972070"/>
    <nd ref="568972071"/>
    <nd ref="568972072"/>
    <nd ref="568972073"/>
    <nd ref="568972074"/>
    <nd ref="568972076"/>
    <nd ref="568972077"/>
    <nd ref="568972078"/>
    <nd ref="568972079"/>
    <nd ref="568972080"/>
    <nd ref="588013163"/>
    <nd ref="568972081"/>
    <nd ref="568972082"/>
    <nd ref="568972083"/>
    <nd ref="568972084"/>
    <nd ref="568972085"/>
    <nd ref="568972086"/>
    <nd ref="590387804"/>
    <nd ref="568972087"/>
    <nd ref="568972088"/>
    <nd ref="589058337"/>
    <nd ref="568972089"/>
    <nd ref="568972090"/>
    <nd ref="1538821254"/>
    <nd ref="568972091"/>
    <nd ref="568972092"/>
    <nd ref="568972093"/>
    <nd ref="568972094"/>
    <nd ref="568972096"/>
    <nd ref="568972097"/>
    <nd ref="568972098"/>
    <nd ref="568972099"/>
    <nd ref="568972100"/>
    <nd ref="568972101"/>
    <nd ref="568972102"/>
    <nd ref="568972103"/>
    <nd ref="568972104"/>
    <nd ref="568972105"/>
    <nd ref="568968674"/>
    <nd ref="568972106"/>
    <nd ref="568972107"/>
    <nd ref="568972108"/>
    <nd ref="568972109"/>
    <nd ref="568972110"/>
    <nd ref="568972111"/>
    <nd ref="568972112"/>
    <nd ref="568972114"/>
    <nd ref="568972115"/>
    <nd ref="568972116"/>
    <nd ref="568971958"/>
    <tag k="highway" v="residential"/>
    <tag k="name" v="Veterans Parkway"/>
    <tag k="oneway" v="yes"/>
  </way>
  <way id="44879621" version="9" timestamp="2011-12-10T00:15:58Z" uid="101433" user="abschiff" changeset="10077438">
    <nd ref="568971954"/>
    <nd ref="568971968"/>
    <nd ref="568971969"/>
    <nd ref="568971970"/>
    <nd ref="568971971"/>
    <nd ref="568971972"/>
    <nd ref="568971973"/>
    <nd ref="568971974"/>
    <nd ref="568971975"/>
    <nd ref="568971976"/>
    <nd ref="568971977"/>
    <nd ref="568971979"/>
    <nd ref="568971980"/>
    <nd ref="568971981"/>
    <nd ref="568971982"/>
    <nd ref="568971983"/>
    <nd ref="568971984"/>
    <nd ref="568971985"/>
    <nd ref="568971986"/>
    <nd ref="568971987"/>
    <nd ref="568971988"/>
    <nd ref="568971989"/>
    <nd ref="568971990"/>
    <nd ref="568971992"/>
    <nd ref="568971993"/>
    <nd ref="568971994"/>
    <nd ref="585266144"/>
    <nd ref="568971995"/>
    <nd ref="568971996"/>
    <nd ref="568971997"/>
    <nd ref="568971999"/>
    <nd ref="568972000"/>
    <nd ref="568972001"/>
    <nd ref="568972002"/>
    <nd ref="568972003"/>
    <nd ref="568972004"/>
    <nd ref="568972005"/>
    <nd ref="568972006"/>
    <nd ref="568972007"/>
    <nd ref="568972008"/>
    <nd ref="568972010"/>
    <nd ref="568972014"/>
    <nd ref="568972018"/>
    <nd ref="585271867"/>
    <nd ref="568972021"/>
    <nd ref="585271778"/>
    <nd ref="568972026"/>
    <nd ref="568972029"/>
    <nd ref="568972032"/>
    <nd ref="568972034"/>
    <nd ref="568972037"/>
    <nd ref="568972040"/>
    <nd ref="568972042"/>
    <nd ref="568972045"/>
    <nd ref="568972047"/>
    <nd ref="568972049"/>
    <nd ref="568972050"/>
    <nd ref="568972051"/>
    <nd ref="568972052"/>
    <nd ref="568972053"/>
    <nd ref="568972054"/>
    <nd ref="568972055"/>
    <nd ref="568972056"/>
    <nd ref="568972057"/>
    <nd ref="568972058"/>
    <nd ref="568972060"/>
    <nd ref="568972061"/>
    <nd ref="568972062"/>
    <nd ref="561175474"/>
    <nd ref="568972063"/>
    <nd ref="568972064"/>
    <nd ref="568972065"/>
    <nd ref="568972066"/>
    <nd ref="568972067"/>
    <nd ref="568972068"/>
    <nd ref="568972069"/>
    <nd ref="568972070"/>
    <nd ref="568972071"/>
    <nd ref="568972072"/>
    <nd ref="568972073"/>
    <nd ref="568972074"/>
    <nd ref="568972076"/>
    <nd ref="568972077"/>
    <nd ref="568972078"/>
    <nd ref="568972079"/>
    <nd ref="568972080"/>
    <nd ref="588013163"/>
    <nd ref="568972081"/>
    <nd ref="568972082"/>
    <nd ref="568972083"/>
    <nd ref="568972084"/>
    <nd ref="568972085"/>
    <nd ref="568972086"/>
    <nd ref="590387804"/>
    <nd ref="568972087"/>
    <nd ref="568972088"/>
    <nd ref="589058337"/>
    <nd ref="568972089"/>
    <nd ref="568972090"/>
    <nd ref="1538821254"/>
    <nd ref="568972091"/>
    <nd ref="568972092"/>
    <nd ref="568972093"/>
    <nd ref="568972094"/>
    <nd ref="568972096"/>
    <nd ref="568972097"/>
    <nd ref="568972098"/>
    <nd ref="568972099"/>
    <nd ref="568972100"/>
    <nd ref="568972101"/>
    <nd ref="568972102"/>
    <nd ref="568972103"/>
    <nd ref="568972104"/>
    <nd ref="568972105"/>
    <nd ref="568968674"/>
    <nd ref="568972106"/>
    <nd ref="568972107"/>
    <nd ref="568972108"/>
    <nd ref="568972109"/>
    <nd ref="568972110"/>
    <nd ref="1538880108"/>
    <nd ref="1538880111"/>
    <nd ref="1538880114"/>
    <nd ref="1538880116"/>
    <nd ref="1538880117"/>
    <nd ref="1538880118"/>
    <nd ref="1538880128"/>
    <nd ref="1538880129"/>
    <nd ref="1538880130"/>
    <tag k="highway" v="residential"/>
    <tag k="name" v="Veterans Parkway"/>
    <tag k="oneway" v="yes"/>
  </way>
  <way id="44879626" version="1" timestamp="2009-11-23T05:39:40Z" uid="103576" user="DiverCTH" changeset="3192966">
    <nd ref="568972315"/>
    <nd ref="568972316"/>
    <nd ref="568972321"/>
    <nd ref="568972322"/>
    <nd ref="568972323"/>
    <nd ref="568972324"/>
    <nd ref="568972325"/>
    <nd ref="568972314"/>
    <nd ref="568972313"/>
    <nd ref="568972300"/>
    <nd ref="568972301"/>
    <nd ref="568972302"/>
    <nd ref="568972303"/>
    <nd ref="568972304"/>
    <nd ref="568972305"/>
    <nd ref="568972290"/>
    <nd ref="568972285"/>
    <nd ref="568972284"/>
    <nd ref="568972287"/>
    <nd ref="568972286"/>
    <nd ref="568972293"/>
    <nd ref="568972292"/>
    <tag k="addr:country" v="US"/>
    <tag k="addr:county" v="Hamilton, TN"/>
    <tag k="addr:interpolation" v="even"/>
    <tag k="addr:postcode" v="37421"/>
    <tag k="addr:state" v="Tennessee"/>
    <tag k="addr:street" v="Grinder Creek Pl"/>
    <tag k="attribution" v="tiger"/>
    <tag k="source" v="tiger_import_v0.3_20091116000621"/>
  </way>
  <way id="44879626" version="2" timestamp="2009-11-23T05:40:47Z" uid="103576" user="DiverCTH" changeset="3192966">
    <nd ref="568972315"/>
    <nd ref="568972316"/>
    <nd ref="568972321"/>
    <nd ref="568972322"/>
    <nd ref="568972323"/>
    <nd ref="568972324"/>
    <nd ref="568972325"/>
    <nd ref="568972314"/>
    <nd ref="568972313"/>
    <nd ref="568972300"/>
    <nd ref="568972301"/>
    <nd ref="568972302"/>
    <nd ref="568972303"/>
    <nd ref="568972304"/>
    <nd ref="568972305"/>
    <nd ref="568972290"/>
    <nd ref="568972285"/>
    <nd ref="568972284"/>
    <nd ref="568972287"/>
    <nd ref="568972286"/>
    <nd ref="568972293"/>
    <nd ref="568972292"/>
    <tag k="addr:country" v="US"/>
    <tag k="addr:county" v="Hamilton, TN"/>
    <tag k="addr:interpolation" v="even"/>
    <tag k="addr:postcode" v="37421"/>
    <tag k="addr:state" v="Tennessee"/>
    <tag k="addr:street" v="Grinder Creek Place"/>
    <tag k="attribution" v="tiger"/>
    <tag k="source" v="tiger_import_v0.3_20091116000621"/>
  </way>
  <way id="44879627" version="1" timestamp="2009-11-23T05:39:41Z" uid="103576" user="DiverCTH" changeset="3192966">
    <nd ref="568972317"/>
    <nd ref="568972320"/>
    <nd ref="568972319"/>
    <nd ref="568972318"/>
    <nd ref="568972327"/>
    <nd ref="568972326"/>
    <nd ref="568972328"/>
    <nd ref="568972312"/>
    <nd ref="568972311"/>
    <nd ref="568972306"/>
    <nd ref="568972308"/>
    <nd ref="568972310"/>
    <nd ref="568972307"/>
    <nd ref="568972309"/>
    <nd ref="568972299"/>
    <nd ref="568972291"/>
    <nd ref="568972289"/>
    <nd ref="568972288"/>
    <nd ref="568972296"/>
    <nd ref="568972294"/>
    <nd ref="568972297"/>
    <nd ref="568972295"/>
    <tag k="addr:country" v="US"/>
    <tag k="addr:county" v="Hamilton, TN"/>
    <tag k="addr:interpolation" v="odd"/>
    <tag k="addr:postcode" v="37421"/>
    <tag k="addr:state" v="Tennessee"/>
    <tag k="addr:street" v="Grinder Creek Pl"/>
    <tag k="attribution" v="tiger"/>
    <tag k="source" v="tiger_import_v0.3_20091116000621"/>
  </way>
  <way id="44879627" version="2" timestamp="2009-11-23T05:40:48Z" uid="103576" user="DiverCTH" changeset="3192966">
    <nd ref="568972317"/>
    <nd ref="568972320"/>
    <nd ref="568972319"/>
    <nd ref="568972318"/>
    <nd ref="568972327"/>
    <nd ref="568972326"/>
    <nd ref="568972328"/>
    <nd ref="568972312"/>
    <nd ref="568972311"/>
    <nd ref="568972306"/>
    <nd ref="568972308"/>
    <nd ref="568972310"/>
    <nd ref="568972307"/>
    <nd ref="568972309"/>
    <nd ref="568972299"/>
    <nd ref="568972291"/>
    <nd ref="568972289"/>
    <nd ref="568972288"/>
    <nd ref="568972296"/>
    <nd ref="568972294"/>
    <nd ref="568972297"/>
    <nd ref="568972295"/>
    <tag k="addr:country" v="US"/>
    <tag k="addr:county" v="Hamilton, TN"/>
    <tag k="addr:interpolation" v="odd"/>
    <tag k="addr:postcode" v="37421"/>
    <tag k="addr:state" v="Tennessee"/>
    <tag k="addr:street" v="Grinder Creek Place"/>
    <tag k="attribution" v="tiger"/>
    <tag k="source" v="tiger_import_v0.3_20091116000621"/>
  </way>
  <way id="44879633" version="1" timestamp="2009-11-23T05:42:36Z" uid="7617" user="Franc" changeset="3192973">
    <nd ref="568972492"/>
    <nd ref="568972493"/>
    <nd ref="568972487"/>
    <nd ref="322841506"/>
    <tag k="highway" v="footway"/>
    <tag k="source" v="nearmap"/>
  </way>
  <way id="44879634" version="1" timestamp="2009-11-23T05:42:36Z" uid="7617" user="Franc" changeset="3192973">
    <nd ref="568972488"/>
    <nd ref="568972489"/>
    <nd ref="568972490"/>
    <nd ref="568972494"/>
    <nd ref="568972491"/>
    <tag k="highway" v="footway"/>
    <tag k="source" v="nearmap"/>
  </way>
  <way id="44879635" version="1" timestamp="2009-11-23T05:42:36Z" uid="7617" user="Franc" changeset="3192973">
    <nd ref="568972491"/>
    <nd ref="568972492"/>
    <tag k="bridge" v="yes"/>
    <tag k="highway" v="footway"/>
    <tag k="layer" v="1"/>
    <tag k="source" v="nearmap"/>
  </way>
  <way id="44879636" version="1" timestamp="2009-11-23T05:42:36Z" uid="7617" user="Franc" changeset="3192973">
    <nd ref="568972494"/>
    <nd ref="568972495"/>
    <nd ref="568972496"/>
    <nd ref="568972497"/>
    <nd ref="568972500"/>
    <nd ref="568972498"/>
    <nd ref="568972499"/>
    <nd ref="322836184"/>
    <tag k="highway" v="footway"/>
    <tag k="source" v="nearmap"/>
  </way>
  <way id="44879637" version="1" timestamp="2009-11-23T05:42:36Z" uid="7617" user="Franc" changeset="3192973">
    <nd ref="568972500"/>
    <nd ref="568972501"/>
    <nd ref="568972502"/>
    <nd ref="568972503"/>
    <nd ref="568972505"/>
    <nd ref="568972506"/>
    <nd ref="568972507"/>
    <nd ref="568972508"/>
    <nd ref="568972509"/>
    <nd ref="568972510"/>
    <nd ref="568972511"/>
    <nd ref="568972512"/>
    <nd ref="568972513"/>
    <nd ref="568972514"/>
    <nd ref="568972515"/>
    <nd ref="568972516"/>
    <nd ref="568972517"/>
    <nd ref="568972518"/>
    <nd ref="568972519"/>
    <nd ref="568972520"/>
    <nd ref="568972521"/>
    <nd ref="568972522"/>
    <nd ref="568972523"/>
    <nd ref="568972524"/>
    <nd ref="568972525"/>
    <nd ref="568972526"/>
    <nd ref="568972527"/>
    <nd ref="568972528"/>
    <nd ref="568972529"/>
    <nd ref="568972530"/>
    <nd ref="568972531"/>
    <nd ref="568972532"/>
    <nd ref="568972533"/>
    <nd ref="568972534"/>
    <nd ref="568972535"/>
    <nd ref="568972536"/>
    <nd ref="568972537"/>
    <nd ref="568972538"/>
    <nd ref="568972540"/>
    <nd ref="568972541"/>
    <nd ref="568972542"/>
    <nd ref="568972543"/>
    <nd ref="568972544"/>
    <nd ref="568972545"/>
    <nd ref="568972546"/>
    <nd ref="568972547"/>
    <nd ref="568972548"/>
    <nd ref="568972549"/>
    <nd ref="568972550"/>
    <nd ref="568972551"/>
    <nd ref="568972552"/>
    <nd ref="568972553"/>
    <nd ref="568972554"/>
    <nd ref="568972555"/>
    <nd ref="568972556"/>
    <nd ref="568972557"/>
    <nd ref="568972558"/>
    <nd ref="568972559"/>
    <nd ref="568972560"/>
    <nd ref="568972561"/>
    <nd ref="568972562"/>
    <nd ref="568972563"/>
    <nd ref="568972564"/>
    <nd ref="568972565"/>
    <nd ref="568972566"/>
    <nd ref="568972567"/>
    <nd ref="568972568"/>
    <nd ref="568972569"/>
    <nd ref="568972570"/>
    <nd ref="568972571"/>
    <nd ref="568972572"/>
    <nd ref="568972578"/>
    <nd ref="568972579"/>
    <tag k="highway" v="footway"/>
    <tag k="source" v="nearmap"/>
  </way>
  <way id="44879638" version="1" timestamp="2009-11-23T05:42:37Z" uid="7617" user="Franc" changeset="3192973">
    <nd ref="568972574"/>
    <nd ref="568972575"/>
    <nd ref="568972580"/>
    <nd ref="568972581"/>
    <nd ref="568972582"/>
    <nd ref="568972583"/>
    <nd ref="568972579"/>
    <nd ref="568972584"/>
    <nd ref="568972576"/>
    <nd ref="568972577"/>
    <tag k="highway" v="footway"/>
    <tag k="source" v="nearmap"/>
  </way>
  <way id="44879639" version="1" timestamp="2009-11-23T05:42:37Z" uid="7617" user="Franc" changeset="3192973">
    <nd ref="568972585"/>
    <nd ref="568972586"/>
    <nd ref="568972587"/>
    <nd ref="568972579"/>
    <tag k="highway" v="footway"/>
    <tag k="source" v="nearmap"/>
  </way>
  <way id="44879640" version="1" timestamp="2009-11-23T05:42:37Z" uid="7617" user="Franc" changeset="3192973">
    <nd ref="568972579"/>
    <nd ref="568972588"/>
    <nd ref="568972589"/>
    <nd ref="568972590"/>
    <nd ref="568972591"/>
    <nd ref="568972592"/>
    <nd ref="568972593"/>
    <nd ref="568972594"/>
    <nd ref="568972595"/>
    <tag k="complete" v="no"/>
    <tag k="highway" v="footway"/>
    <tag k="source" v="nearmap"/>
  </way>
  <way id="44879641" version="1" timestamp="2009-11-23T05:42:45Z" uid="103576" user="DiverCTH" changeset="3192966">
    <nd ref="568972609"/>
    <nd ref="568972615"/>
    <nd ref="568972605"/>
    <nd ref="568972606"/>
    <nd ref="568972607"/>
    <nd ref="568972608"/>
    <nd ref="568972603"/>
    <tag k="addr:country" v="US"/>
    <tag k="addr:county" v="Hamilton, TN"/>
    <tag k="addr:interpolation" v="odd"/>
    <tag k="addr:postcode" v="37421"/>
    <tag k="addr:state" v="Tennessee"/>
    <tag k="addr:street" v="Brandermill Lane"/>
    <tag k="attribution" v="tiger"/>
    <tag k="source" v="tiger_import_v0.3_20091116000623"/>
  </way>
  <way id="44879642" version="1" timestamp="2009-11-23T05:42:45Z" uid="103576" user="DiverCTH" changeset="3192966">
    <nd ref="568972611"/>
    <nd ref="568972610"/>
    <nd ref="568972614"/>
    <nd ref="568972613"/>
    <nd ref="568972612"/>
    <tag k="addr:country" v="US"/>
    <tag k="addr:county" v="Hamilton, TN"/>
    <tag k="addr:interpolation" v="odd"/>
    <tag k="addr:postcode" v="37421"/>
    <tag k="addr:state" v="Tennessee"/>
    <tag k="addr:street" v="Brandermill Lane"/>
    <tag k="attribution" v="tiger"/>
    <tag k="source" v="tiger_import_v0.3_20091116000620"/>
  </way>
  <way id="44879646" version="1" timestamp="2009-11-23T05:43:57Z" uid="103576" user="DiverCTH" changeset="3192966">
    <nd ref="568972678"/>
    <nd ref="568972677"/>
    <nd ref="568972675"/>
    <nd ref="568972673"/>
    <nd ref="568972668"/>
    <nd ref="568972670"/>
    <tag k="addr:country" v="US"/>
    <tag k="addr:county" v="Hamilton, TN"/>
    <tag k="addr:interpolation" v="even"/>
    <tag k="addr:postcode" v="37421"/>
    <tag k="addr:state" v="Tennessee"/>
    <tag k="addr:street" v="Brandermill Lane"/>
    <tag k="attribution" v="tiger"/>
    <tag k="source" v="tiger_import_v0.3_20091116000619"/>
  </way>
  <way id="44879647" version="1" timestamp="2009-11-23T05:43:57Z" uid="103576" user="DiverCTH" changeset="3192966">
    <nd ref="568972679"/>
    <nd ref="568972680"/>
    <nd ref="568972674"/>
    <nd ref="568972676"/>
    <nd ref="568972669"/>
    <nd ref="568972672"/>
    <tag k="addr:country" v="US"/>
    <tag k="addr:county" v="Hamilton, TN"/>
    <tag k="addr:interpolation" v="odd"/>
    <tag k="addr:postcode" v="37421"/>
    <tag k="addr:state" v="Tennessee"/>
    <tag k="addr:street" v="Brandermill Lane"/>
    <tag k="attribution" v="tiger"/>
    <tag k="source" v="tiger_import_v0.3_20091116000619"/>
  </way>
  <way id="44879653" version="1" timestamp="2009-11-23T05:45:03Z" uid="103576" user="DiverCTH" changeset="3192966">
    <nd ref="568972757"/>
    <nd ref="568972759"/>
    <nd ref="568972755"/>
    <nd ref="568972753"/>
    <nd ref="568972754"/>
    <nd ref="568972752"/>
    <nd ref="568972751"/>
    <tag k="addr:country" v="US"/>
    <tag k="addr:county" v="Hamilton, TN"/>
    <tag k="addr:interpolation" v="even"/>
    <tag k="addr:postcode" v="37421"/>
    <tag k="addr:state" v="Tennessee"/>
    <tag k="addr:street" v="Brandermill Lane"/>
    <tag k="attribution" v="tiger"/>
    <tag k="source" v="tiger_import_v0.3_20091116000623"/>
  </way>
  <way id="44879654" version="1" timestamp="2009-11-23T05:45:03Z" uid="103576" user="DiverCTH" changeset="3192966">
    <nd ref="568972763"/>
    <nd ref="568972762"/>
    <nd ref="568972760"/>
    <nd ref="568972758"/>
    <nd ref="568972756"/>
    <tag k="addr:country" v="US"/>
    <tag k="addr:county" v="Hamilton, TN"/>
    <tag k="addr:interpolation" v="even"/>
    <tag k="addr:postcode" v="37421"/>
    <tag k="addr:state" v="Tennessee"/>
    <tag k="addr:street" v="Brandermill Lane"/>
    <tag k="attribution" v="tiger"/>
    <tag k="source" v="tiger_import_v0.3_20091116000620"/>
  </way>
  <way id="44879677" version="2" timestamp="2010-04-07T14:04:46Z" uid="20587" user="balrog-kun" changeset="4353646">
    <nd ref="151092135"/>
    <nd ref="151092137"/>
    <nd ref="151092139"/>
    <nd ref="568973058"/>
    <nd ref="151074216"/>
    <tag k="highway" v="residential"/>
    <tag k="name" v="Longhorn Street"/>
    <tag k="tiger:cfcc" v="A41"/>
    <tag k="tiger:county" v="Gillespie, TX"/>
    <tag k="tiger:name_base" v="Longhorn"/>
    <tag k="tiger:name_type" v="St"/>
    <tag k="tiger:separated" v="no"/>
    <tag k="tiger:source" v="tiger_import_dch_v0.6_20070829"/>
    <tag k="tiger:tlid" v="176842065:176842014:176842015:176842018:176848081:176848085"/>
    <tag k="tiger:zip_left" v="78624"/>
    <tag k="tiger:zip_right" v="78624"/>
  </way>
  <way id="44879678" version="2" timestamp="2010-04-07T14:04:46Z" uid="20587" user="balrog-kun" changeset="4353646">
    <nd ref="151091116"/>
    <nd ref="151074258"/>
    <nd ref="151096353"/>
    <nd ref="151104974"/>
    <tag k="highway" v="residential"/>
    <tag k="name" v="Bluebonnet Street"/>
    <tag k="tiger:cfcc" v="A41"/>
    <tag k="tiger:county" v="Gillespie, TX"/>
    <tag k="tiger:name_base" v="Bluebonnet"/>
    <tag k="tiger:name_type" v="St"/>
    <tag k="tiger:reviewed" v="no"/>
    <tag k="tiger:separated" v="no"/>
    <tag k="tiger:source" v="tiger_import_dch_v0.6_20070829"/>
    <tag k="tiger:tlid" v="176847674:176836719:176836698"/>
    <tag k="tiger:zip_left" v="78624"/>
  </way>
  <way id="44879678" version="3" timestamp="2011-10-24T04:50:30Z" uid="365944" user="homeslice60148" changeset="9640086"/>
  <way id="44879679" version="2" timestamp="2010-04-07T14:04:47Z" uid="20587" user="balrog-kun" changeset="4353646">
    <nd ref="151074251"/>
    <nd ref="151074253"/>
    <nd ref="151074255"/>
    <tag k="highway" v="residential"/>
    <tag k="name" v="Bell Street"/>
    <tag k="tiger:cfcc" v="A41"/>
    <tag k="tiger:county" v="Gillespie, TX"/>
    <tag k="tiger:name_base" v="Bell"/>
    <tag k="tiger:name_type" v="St"/>
    <tag k="tiger:separated" v="no"/>
    <tag k="tiger:source" v="tiger_import_dch_v0.6_20070829"/>
    <tag k="tiger:tlid" v="176836701:176836705:176836706:176842414:176842397:176836699"/>
    <tag k="tiger:zip_left" v="78624"/>
    <tag k="tiger:zip_right" v="78624"/>
  </way>
  <way id="44879679" version="3" timestamp="2010-09-28T23:14:57Z" uid="191124" user="sphyg" changeset="5908095"/>
  <way id="44879680" version="2" timestamp="2010-04-07T14:04:47Z" uid="20587" user="balrog-kun" changeset="4353646">
    <nd ref="151074255"/>
    <nd ref="151074258"/>
    <nd ref="151073455"/>
    <tag k="highway" v="residential"/>
    <tag k="name" v="Bell Street"/>
    <tag k="tiger:cfcc" v="A41"/>
    <tag k="tiger:county" v="Gillespie, TX"/>
    <tag k="tiger:name_base" v="Bell"/>
    <tag k="tiger:name_type" v="St"/>
    <tag k="tiger:reviewed" v="no"/>
    <tag k="tiger:separated" v="no"/>
    <tag k="tiger:source" v="tiger_import_dch_v0.6_20070829"/>
    <tag k="tiger:tlid" v="176836701:176836705:176836706:176842414:176842397:176836699"/>
    <tag k="tiger:zip_left" v="78624"/>
    <tag k="tiger:zip_right" v="78624"/>
  </way>
  <way id="44879680" version="3" timestamp="2010-09-28T23:14:32Z" uid="191124" user="sphyg" changeset="5908095">
    <nd ref="151074251"/>
    <nd ref="151074253"/>
    <nd ref="151074255"/>
    <nd ref="151074258"/>
    <nd ref="151073455"/>
    <tag k="highway" v="residential"/>
    <tag k="name" v="Bell Street"/>
    <tag k="tiger:cfcc" v="A41"/>
    <tag k="tiger:county" v="Gillespie, TX"/>
    <tag k="tiger:name_base" v="Bell"/>
    <tag k="tiger:name_type" v="St"/>
    <tag k="tiger:separated" v="no"/>
    <tag k="tiger:source" v="tiger_import_dch_v0.6_20070829"/>
    <tag k="tiger:tlid" v="176836699:176836701:176836705:176836706:176842397:176842414"/>
    <tag k="tiger:zip_left" v="78624"/>
    <tag k="tiger:zip_right" v="78624"/>
  </way>
  <way id="44879680" version="4" timestamp="2011-10-24T04:50:30Z" uid="365944" user="homeslice60148" changeset="9640086"/>
  <way id="44879681" version="2" timestamp="2010-04-07T14:04:47Z" uid="20587" user="balrog-kun" changeset="4353646">
    <nd ref="151096350"/>
    <nd ref="151096353"/>
    <nd ref="151073457"/>
    <tag k="highway" v="residential"/>
    <tag k="name" v="Franklin Street"/>
    <tag k="tiger:cfcc" v="A41"/>
    <tag k="tiger:county" v="Gillespie, TX"/>
    <tag k="tiger:name_base" v="Franklin"/>
    <tag k="tiger:name_type" v="St"/>
    <tag k="tiger:separated" v="no"/>
    <tag k="tiger:source" v="tiger_import_dch_v0.6_20070829"/>
    <tag k="tiger:tlid" v="176836674:176836676:176836677:176836679:176842411:176842412:176842392"/>
    <tag k="tiger:zip_left" v="78624"/>
    <tag k="tiger:zip_right" v="78624"/>
  </way>
  <way id="44879681" version="3" timestamp="2011-10-24T04:50:30Z" uid="365944" user="homeslice60148" changeset="9640086"/>
  <way id="44879687" version="4" timestamp="2010-04-22T00:17:48Z" uid="9719" user="dvaey" changeset="4491906">
    <nd ref="276587345"/>
    <nd ref="271111310"/>
    <nd ref="271111298"/>
    <nd ref="271111291"/>
    <nd ref="271111289"/>
    <nd ref="271111283"/>
    <nd ref="271111253"/>
    <nd ref="271111242"/>
    <nd ref="271109843"/>
    <nd ref="271110381"/>
    <nd ref="271110382"/>
    <nd ref="270933857"/>
    <nd ref="271110383"/>
    <nd ref="271110384"/>
    <nd ref="271110385"/>
    <nd ref="271110386"/>
    <nd ref="271110387"/>
    <nd ref="271110388"/>
    <nd ref="271110389"/>
    <nd ref="271110390"/>
    <nd ref="271110391"/>
    <nd ref="271110392"/>
    <nd ref="271110536"/>
    <nd ref="271110393"/>
    <nd ref="271110394"/>
    <nd ref="271123971"/>
    <nd ref="271110395"/>
    <nd ref="271110396"/>
    <nd ref="271110397"/>
    <nd ref="271110398"/>
    <nd ref="271110399"/>
    <nd ref="642823443"/>
    <nd ref="271110439"/>
    <nd ref="271110400"/>
    <nd ref="271110401"/>
    <nd ref="271110402"/>
    <nd ref="271110403"/>
    <nd ref="271110404"/>
    <nd ref="642823452"/>
    <nd ref="642823454"/>
    <nd ref="642823456"/>
    <nd ref="642823458"/>
    <nd ref="642823460"/>
    <nd ref="703527387"/>
    <nd ref="703527388"/>
    <nd ref="642823462"/>
    <nd ref="703527389"/>
    <nd ref="703527383"/>
    <nd ref="703527373"/>
    <tag k="highway" v="secondary"/>
    <tag k="name" v="Dundas Road"/>
  </way>
  <way id="44879687" version="5" timestamp="2011-04-11T08:31:20Z" uid="294850" user="Q4004" changeset="7830587">
    <nd ref="276587345"/>
    <nd ref="271111310"/>
    <nd ref="271111298"/>
    <nd ref="271111291"/>
    <nd ref="271111289"/>
    <nd ref="271111283"/>
    <nd ref="271111253"/>
    <nd ref="271111242"/>
    <nd ref="271109843"/>
    <nd ref="271110381"/>
    <nd ref="271110382"/>
    <nd ref="270933857"/>
    <nd ref="271110383"/>
    <nd ref="271110384"/>
    <nd ref="271110385"/>
    <nd ref="271110386"/>
    <nd ref="271110387"/>
    <nd ref="271110388"/>
    <nd ref="271110389"/>
    <nd ref="271110390"/>
    <nd ref="271110391"/>
    <nd ref="271110392"/>
    <nd ref="271110536"/>
    <nd ref="271110393"/>
    <nd ref="271110394"/>
    <nd ref="271123971"/>
    <nd ref="271110395"/>
    <nd ref="271110396"/>
    <nd ref="271110397"/>
    <nd ref="271110398"/>
    <nd ref="271110399"/>
    <nd ref="642823443"/>
    <nd ref="271110439"/>
    <nd ref="271110400"/>
    <nd ref="271110401"/>
    <nd ref="271110402"/>
    <nd ref="271110403"/>
    <nd ref="271110404"/>
    <nd ref="642823452"/>
    <nd ref="642823454"/>
    <nd ref="642823456"/>
    <nd ref="642823458"/>
    <nd ref="642823460"/>
    <nd ref="703527387"/>
    <nd ref="703527388"/>
    <nd ref="642823462"/>
    <nd ref="703527389"/>
    <nd ref="703527383"/>
    <nd ref="703527373"/>
    <tag k="highway" v="secondary"/>
    <tag k="maxspeed" v="70"/>
    <tag k="name" v="Dundas Road"/>
  </way>
  <way id="44879687" version="6" timestamp="2011-04-23T02:37:07Z" uid="284466" user="revert_au" changeset="7940037">
    <nd ref="276587345"/>
    <nd ref="271111310"/>
    <nd ref="271111298"/>
    <nd ref="271111291"/>
    <nd ref="271111289"/>
    <nd ref="271111283"/>
    <nd ref="271111253"/>
    <nd ref="271111242"/>
    <nd ref="271109843"/>
    <nd ref="271110381"/>
    <nd ref="271110382"/>
    <nd ref="270933857"/>
    <nd ref="271110383"/>
    <nd ref="271110384"/>
    <nd ref="271110385"/>
    <nd ref="271110386"/>
    <nd ref="271110387"/>
    <nd ref="271110388"/>
    <nd ref="271110389"/>
    <nd ref="271110390"/>
    <nd ref="271110391"/>
    <nd ref="271110392"/>
    <nd ref="271110536"/>
    <nd ref="271110393"/>
    <nd ref="271110394"/>
    <nd ref="271123971"/>
    <nd ref="271110395"/>
    <nd ref="271110396"/>
    <nd ref="271110397"/>
    <nd ref="271110398"/>
    <nd ref="271110399"/>
    <nd ref="642823443"/>
    <nd ref="271110439"/>
    <nd ref="271110400"/>
    <nd ref="271110401"/>
    <nd ref="271110402"/>
    <nd ref="271110403"/>
    <nd ref="271110404"/>
    <nd ref="642823452"/>
    <nd ref="642823454"/>
    <nd ref="642823456"/>
    <nd ref="642823458"/>
    <nd ref="642823460"/>
    <nd ref="703527387"/>
    <nd ref="703527388"/>
    <nd ref="642823462"/>
    <nd ref="703527389"/>
    <nd ref="703527383"/>
    <nd ref="703527373"/>
    <tag k="highway" v="secondary"/>
    <tag k="name" v="Dundas Road"/>
  </way>
  <way id="44879689" version="2" timestamp="2010-04-22T00:17:35Z" uid="9719" user="dvaey" changeset="4491906">
    <nd ref="568973155"/>
    <nd ref="60407027"/>
    <tag k="highway" v="residential"/>
    <tag k="source" v="nearmap"/>
  </way>
  <way id="44879689" version="3" timestamp="2010-07-09T18:18:30Z" uid="74617" user="JohnSmith" changeset="5175333">
    <nd ref="568973155"/>
    <nd ref="60407027"/>
    <tag k="highway" v="residential"/>
    <tag k="maxspeed" v="50"/>
    <tag k="maxspeed:source" v="default residential speed limit in Australia"/>
    <tag k="source" v="nearmap"/>
  </way>
  <way id="44879689" version="4" timestamp="2012-01-19T10:21:01Z" uid="147510" user="woodpeck_fixbot" changeset="10434386">
    <nd ref="568973155"/>
    <nd ref="60407027"/>
    <tag k="highway" v="residential"/>
    <tag k="source" v="nearmap"/>
  </way>
  <way id="44879690" version="2" timestamp="2010-05-08T08:34:07Z" uid="4467" user="Rosscoe" changeset="4636634">
    <nd ref="568973183"/>
    <nd ref="568973189"/>
    <nd ref="568973185"/>
    <nd ref="60407027"/>
    <tag k="highway" v="residential"/>
    <tag k="source" v="nearmap"/>
  </way>
  <way id="44879690" version="3" timestamp="2010-07-09T18:19:51Z" uid="74617" user="JohnSmith" changeset="5175333">
    <nd ref="568973183"/>
    <nd ref="568973189"/>
    <nd ref="568973185"/>
    <nd ref="60407027"/>
    <tag k="highway" v="residential"/>
    <tag k="maxspeed" v="50"/>
    <tag k="maxspeed:source" v="default residential speed limit in Australia"/>
    <tag k="source" v="nearmap"/>
  </way>
  <way id="44879690" version="4" timestamp="2012-01-19T10:21:02Z" uid="147510" user="woodpeck_fixbot" changeset="10434386">
    <nd ref="568973183"/>
    <nd ref="568973189"/>
    <nd ref="568973185"/>
    <nd ref="60407027"/>
    <tag k="highway" v="residential"/>
    <tag k="source" v="nearmap"/>
  </way>
  <way id="44879691" version="5" timestamp="2010-05-07T15:52:22Z" uid="4467" user="Rosscoe" changeset="4631303">
    <nd ref="568973216"/>
    <nd ref="568973217"/>
    <nd ref="271111907"/>
    <nd ref="271111906"/>
    <nd ref="568973218"/>
    <nd ref="276586981"/>
    <nd ref="276586982"/>
    <nd ref="276586983"/>
    <nd ref="276586985"/>
    <nd ref="276587336"/>
    <nd ref="568973227"/>
    <nd ref="276586986"/>
    <nd ref="276586987"/>
    <nd ref="276586988"/>
    <nd ref="616580110"/>
    <nd ref="276586989"/>
    <nd ref="276586990"/>
    <tag k="highway" v="secondary"/>
    <tag k="name" v="Abernethy Road"/>
  </way>
  <way id="44879691" version="6" timestamp="2010-07-18T14:38:44Z" uid="18174" user="browny_au" changeset="5251754">
    <nd ref="568973216"/>
    <nd ref="568973217"/>
    <nd ref="271111907"/>
    <nd ref="271111906"/>
    <nd ref="568973218"/>
    <nd ref="276586981"/>
    <nd ref="276586982"/>
    <tag k="highway" v="secondary"/>
    <tag k="name" v="Abernethy Road"/>
  </way>
  <way id="44879750" version="1" timestamp="2009-11-23T05:57:33Z" uid="103576" user="DiverCTH" changeset="3192966">
    <nd ref="568974249"/>
    <nd ref="568974243"/>
    <nd ref="568974240"/>
    <nd ref="568974242"/>
    <nd ref="568974239"/>
    <nd ref="568974232"/>
    <nd ref="568974227"/>
    <nd ref="568974226"/>
    <nd ref="568974228"/>
    <nd ref="568974178"/>
    <nd ref="568974174"/>
    <nd ref="568974173"/>
    <nd ref="568974176"/>
    <nd ref="568974175"/>
    <nd ref="568974179"/>
    <nd ref="568974202"/>
    <tag k="addr:country" v="US"/>
    <tag k="addr:county" v="Hamilton, TN"/>
    <tag k="addr:interpolation" v="even"/>
    <tag k="addr:postcode" v="37421"/>
    <tag k="addr:state" v="Tennessee"/>
    <tag k="addr:street" v="Charbar Circle"/>
    <tag k="attribution" v="tiger"/>
    <tag k="source" v="tiger_import_v0.3_20091116000618"/>
  </way>
  <way id="44879751" version="1" timestamp="2009-11-23T05:57:33Z" uid="103576" user="DiverCTH" changeset="3192966">
    <nd ref="568974244"/>
    <nd ref="568974238"/>
    <nd ref="568974237"/>
    <nd ref="568974236"/>
    <nd ref="568974235"/>
    <nd ref="568974234"/>
    <nd ref="568974230"/>
    <nd ref="568974231"/>
    <nd ref="568974229"/>
    <nd ref="568974222"/>
    <nd ref="568974221"/>
    <nd ref="568974182"/>
    <nd ref="568974180"/>
    <nd ref="568974181"/>
    <nd ref="568974224"/>
    <nd ref="568974225"/>
    <tag k="addr:country" v="US"/>
    <tag k="addr:county" v="Hamilton, TN"/>
    <tag k="addr:interpolation" v="odd"/>
    <tag k="addr:postcode" v="37421"/>
    <tag k="addr:state" v="Tennessee"/>
    <tag k="addr:street" v="Charbar Circle"/>
    <tag k="attribution" v="tiger"/>
    <tag k="source" v="tiger_import_v0.3_20091116000618"/>
  </way>
  <way id="44879752" version="1" timestamp="2009-11-23T05:57:34Z" uid="103576" user="DiverCTH" changeset="3192966">
    <nd ref="568974204"/>
    <nd ref="202754163"/>
    <nd ref="202754181"/>
    <nd ref="202754191"/>
    <nd ref="202754195"/>
    <nd ref="202700508"/>
    <nd ref="202625904"/>
    <nd ref="202754207"/>
    <nd ref="202754209"/>
    <nd ref="202754210"/>
    <nd ref="202754218"/>
    <nd ref="202754234"/>
    <nd ref="568974233"/>
    <nd ref="202754238"/>
    <nd ref="202754241"/>
    <nd ref="568974183"/>
    <nd ref="202754249"/>
    <nd ref="568974184"/>
    <nd ref="202625896"/>
    <nd ref="202700512"/>
    <tag k="addr:street" v="Charbar Circle"/>
    <tag k="highway" v="residential"/>
    <tag k="name" v="Charbar Cir"/>
    <tag k="tiger:cfcc" v="A41"/>
    <tag k="tiger:county" v="Hamilton, TN"/>
    <tag k="tiger:name_base" v="Charbar"/>
    <tag k="tiger:name_type" v="Cir"/>
    <tag k="tiger:reviewed" v="aerial"/>
    <tag k="tiger:separated" v="no"/>
    <tag k="tiger:source" v="tiger_import_dch_v0.6_20070829"/>
    <tag k="tiger:tlid" v="59319882:59333294:59319878:59319879"/>
    <tag k="tiger:upload_uuid" v="bulk_upload.pl-91a61642-9d87-4f7b-a49d-af7d8b0d7ecf"/>
    <tag k="tiger:zip_left" v="37421"/>
    <tag k="tiger:zip_right" v="37421"/>
  </way>
  <way id="44879752" version="2" timestamp="2009-11-23T05:59:31Z" uid="103576" user="DiverCTH" changeset="3192966">
    <nd ref="568974204"/>
    <nd ref="202754163"/>
    <nd ref="568975201"/>
    <nd ref="568975203"/>
    <nd ref="202754181"/>
    <nd ref="202754191"/>
    <nd ref="202754195"/>
    <nd ref="202700508"/>
    <nd ref="202625904"/>
    <nd ref="202754209"/>
    <nd ref="202754210"/>
    <nd ref="202754218"/>
    <nd ref="202754234"/>
    <nd ref="568974233"/>
    <nd ref="202754238"/>
    <nd ref="202754241"/>
    <nd ref="568974183"/>
    <nd ref="202754249"/>
    <nd ref="568974184"/>
    <nd ref="202625896"/>
    <nd ref="202700512"/>
    <tag k="addr:street" v="Charbar Circle"/>
    <tag k="highway" v="residential"/>
    <tag k="name" v="Charbar Cir"/>
    <tag k="tiger:cfcc" v="A41"/>
    <tag k="tiger:county" v="Hamilton, TN"/>
    <tag k="tiger:name_base" v="Charbar"/>
    <tag k="tiger:name_type" v="Cir"/>
    <tag k="tiger:reviewed" v="aerial"/>
    <tag k="tiger:separated" v="no"/>
    <tag k="tiger:source" v="tiger_import_dch_v0.6_20070829"/>
    <tag k="tiger:tlid" v="59319882:59333294:59319878:59319879"/>
    <tag k="tiger:upload_uuid" v="bulk_upload.pl-91a61642-9d87-4f7b-a49d-af7d8b0d7ecf"/>
    <tag k="tiger:zip_left" v="37421"/>
    <tag k="tiger:zip_right" v="37421"/>
  </way>
  <way id="44879753" version="1" timestamp="2009-11-23T05:57:34Z" uid="103576" user="DiverCTH" changeset="3192966">
    <nd ref="568974258"/>
    <nd ref="568974262"/>
    <nd ref="568974259"/>
    <nd ref="568974252"/>
    <nd ref="568974256"/>
    <nd ref="568974255"/>
    <tag k="addr:country" v="US"/>
    <tag k="addr:county" v="Hamilton, TN"/>
    <tag k="addr:interpolation" v="even"/>
    <tag k="addr:postcode" v="37421"/>
    <tag k="addr:state" v="Tennessee"/>
    <tag k="addr:street" v="Stone Mist Ln"/>
    <tag k="attribution" v="tiger"/>
    <tag k="source" v="tiger_import_v0.3_20091116000619"/>
  </way>
  <way id="44879754" version="1" timestamp="2009-11-23T05:57:34Z" uid="103576" user="DiverCTH" changeset="3192966">
    <nd ref="568974263"/>
    <nd ref="568974260"/>
    <nd ref="568974261"/>
    <nd ref="568974264"/>
    <nd ref="568974253"/>
    <nd ref="568974254"/>
    <tag k="addr:country" v="US"/>
    <tag k="addr:county" v="Hamilton, TN"/>
    <tag k="addr:interpolation" v="odd"/>
    <tag k="addr:postcode" v="37421"/>
    <tag k="addr:state" v="Tennessee"/>
    <tag k="addr:street" v="Stone Mist Ln"/>
    <tag k="attribution" v="tiger"/>
    <tag k="source" v="tiger_import_v0.3_20091116000619"/>
  </way>
  <way id="44879755" version="1" timestamp="2009-11-23T05:57:34Z" uid="103576" user="DiverCTH" changeset="3192966">
    <nd ref="568974200"/>
    <nd ref="568974201"/>
    <tag k="addr:country" v="US"/>
    <tag k="addr:county" v="Hamilton, TN"/>
    <tag k="addr:interpolation" v="odd"/>
    <tag k="addr:postcode" v="37421"/>
    <tag k="addr:state" v="Tennessee"/>
    <tag k="addr:street" v="Charbar Circle"/>
    <tag k="attribution" v="tiger"/>
    <tag k="source" v="tiger_import_v0.3_20091116000617"/>
  </way>
  <way id="44879756" version="1" timestamp="2009-11-23T05:57:34Z" uid="103576" user="DiverCTH" changeset="3192966">
    <nd ref="568974198"/>
    <nd ref="568974199"/>
    <tag k="addr:country" v="US"/>
    <tag k="addr:county" v="Hamilton, TN"/>
    <tag k="addr:interpolation" v="even"/>
    <tag k="addr:postcode" v="37421"/>
    <tag k="addr:state" v="Tennessee"/>
    <tag k="addr:street" v="Charbar Circle"/>
    <tag k="attribution" v="tiger"/>
    <tag k="source" v="tiger_import_v0.3_20091116000617"/>
  </way>
  <way id="44879757" version="1" timestamp="2009-11-23T05:57:34Z" uid="103576" user="DiverCTH" changeset="3192966">
    <nd ref="568974203"/>
    <nd ref="568974190"/>
    <nd ref="568974188"/>
    <nd ref="568974189"/>
    <nd ref="568974186"/>
    <nd ref="568974187"/>
    <nd ref="568974185"/>
    <nd ref="568974210"/>
    <nd ref="568974213"/>
    <nd ref="568974214"/>
    <nd ref="568974211"/>
    <nd ref="568974212"/>
    <nd ref="568974220"/>
    <tag k="addr:country" v="US"/>
    <tag k="addr:county" v="Hamilton, TN"/>
    <tag k="addr:interpolation" v="even"/>
    <tag k="addr:postcode" v="37421"/>
    <tag k="addr:state" v="Tennessee"/>
    <tag k="addr:street" v="Charbar Circle"/>
    <tag k="attribution" v="tiger"/>
    <tag k="source" v="tiger_import_v0.3_20091116000620"/>
  </way>
  <way id="44879758" version="1" timestamp="2009-11-23T05:57:35Z" uid="103576" user="DiverCTH" changeset="3192966">
    <nd ref="568974205"/>
    <nd ref="568974194"/>
    <nd ref="568974193"/>
    <nd ref="568974197"/>
    <nd ref="568974196"/>
    <nd ref="568974192"/>
    <nd ref="568974191"/>
    <nd ref="568974219"/>
    <nd ref="568974218"/>
    <nd ref="568974216"/>
    <nd ref="568974217"/>
    <nd ref="568974215"/>
    <nd ref="568974206"/>
    <tag k="addr:country" v="US"/>
    <tag k="addr:county" v="Hamilton, TN"/>
    <tag k="addr:interpolation" v="odd"/>
    <tag k="addr:postcode" v="37421"/>
    <tag k="addr:state" v="Tennessee"/>
    <tag k="addr:street" v="Charbar Circle"/>
    <tag k="attribution" v="tiger"/>
    <tag k="source" v="tiger_import_v0.3_20091116000620"/>
  </way>
  <way id="44879759" version="1" timestamp="2009-11-23T05:57:35Z" uid="103576" user="DiverCTH" changeset="3192966">
    <nd ref="568974208"/>
    <nd ref="568974209"/>
    <nd ref="568974245"/>
    <nd ref="568974246"/>
    <tag k="addr:country" v="US"/>
    <tag k="addr:county" v="Hamilton, TN"/>
    <tag k="addr:interpolation" v="odd"/>
    <tag k="addr:postcode" v="37421"/>
    <tag k="addr:state" v="Tennessee"/>
    <tag k="addr:street" v="Charbar Circle"/>
    <tag k="attribution" v="tiger"/>
    <tag k="source" v="tiger_import_v0.3_20091116000618"/>
  </way>
  <way id="44879760" version="1" timestamp="2009-11-23T05:57:35Z" uid="103576" user="DiverCTH" changeset="3192966">
    <nd ref="568974250"/>
    <nd ref="568974251"/>
    <nd ref="568974247"/>
    <nd ref="568974248"/>
    <tag k="addr:country" v="US"/>
    <tag k="addr:county" v="Hamilton, TN"/>
    <tag k="addr:interpolation" v="even"/>
    <tag k="addr:postcode" v="37421"/>
    <tag k="addr:state" v="Tennessee"/>
    <tag k="addr:street" v="Charbar Circle"/>
    <tag k="attribution" v="tiger"/>
    <tag k="source" v="tiger_import_v0.3_20091116000618"/>
  </way>
  <way id="44879797" version="2" timestamp="2010-04-07T14:04:47Z" uid="20587" user="balrog-kun" changeset="4353646">
    <nd ref="223140959"/>
    <nd ref="223136419"/>
    <tag k="highway" v="primary"/>
    <tag k="name" v="East 6th St; United States Highway 84"/>
    <tag k="ref" v="US 84"/>
    <tag k="tiger:cfcc" v="A41"/>
    <tag k="tiger:county" v="Cherokee, TX"/>
    <tag k="tiger:name_base" v="6th"/>
    <tag k="tiger:name_direction_prefix" v="E"/>
    <tag k="tiger:name_type" v="St"/>
    <tag k="tiger:separated" v="no"/>
    <tag k="tiger:source" v="tiger_import_dch_v0.6_20070829"/>
    <tag k="tiger:tlid" v="72308875"/>
  </way>
  <way id="44879797" version="3" timestamp="2011-06-15T05:30:57Z" uid="207745" user="NE2" changeset="8443930">
    <nd ref="223140959"/>
    <nd ref="223136419"/>
    <tag k="highway" v="primary"/>
    <tag k="name" v="East 6th St"/>
    <tag k="ref" v="US 84"/>
    <tag k="tiger:cfcc" v="A41"/>
    <tag k="tiger:county" v="Cherokee, TX"/>
    <tag k="tiger:name_base" v="6th"/>
    <tag k="tiger:name_direction_prefix" v="E"/>
    <tag k="tiger:name_type" v="St"/>
    <tag k="tiger:separated" v="no"/>
    <tag k="tiger:source" v="tiger_import_dch_v0.6_20070829"/>
    <tag k="tiger:tlid" v="72308875"/>
  </way>
  <way id="44879797" version="4" timestamp="2011-06-18T17:36:18Z" uid="207745" user="NE2" changeset="8475792">
    <nd ref="223140959"/>
    <nd ref="223136419"/>
    <tag k="FIXME" v="check lanes"/>
    <tag k="highway" v="primary"/>
    <tag k="lanes" v="2"/>
    <tag k="name" v="East 6th St"/>
    <tag k="ref" v="US 84"/>
    <tag k="tiger:cfcc" v="A41"/>
    <tag k="tiger:county" v="Cherokee, TX"/>
    <tag k="tiger:name_base" v="6th"/>
    <tag k="tiger:name_direction_prefix" v="E"/>
    <tag k="tiger:name_type" v="St"/>
    <tag k="tiger:separated" v="no"/>
    <tag k="tiger:source" v="tiger_import_dch_v0.6_20070829"/>
    <tag k="tiger:tlid" v="72308875"/>
  </way>
  <way id="44879800" version="1" timestamp="2009-11-23T06:04:22Z" uid="103576" user="DiverCTH" changeset="3192966">
    <nd ref="568975841"/>
    <nd ref="568975840"/>
    <nd ref="568975836"/>
    <nd ref="568975835"/>
    <nd ref="568975833"/>
    <nd ref="568975831"/>
    <tag k="addr:country" v="US"/>
    <tag k="addr:county" v="Hamilton, TN"/>
    <tag k="addr:interpolation" v="even"/>
    <tag k="addr:postcode" v="37421"/>
    <tag k="addr:state" v="Tennessee"/>
    <tag k="addr:street" v="Raintree Lane"/>
    <tag k="attribution" v="tiger"/>
    <tag k="source" v="tiger_import_v0.3_20091116000623"/>
  </way>
  <way id="44879801" version="1" timestamp="2009-11-23T06:04:22Z" uid="103576" user="DiverCTH" changeset="3192966">
    <nd ref="568975837"/>
    <nd ref="568975839"/>
    <nd ref="568975834"/>
    <nd ref="568975832"/>
    <nd ref="568975830"/>
    <nd ref="568975829"/>
    <tag k="addr:country" v="US"/>
    <tag k="addr:county" v="Hamilton, TN"/>
    <tag k="addr:interpolation" v="odd"/>
    <tag k="addr:postcode" v="37421"/>
    <tag k="addr:state" v="Tennessee"/>
    <tag k="addr:street" v="Raintree Lane"/>
    <tag k="attribution" v="tiger"/>
    <tag k="source" v="tiger_import_v0.3_20091116000623"/>
  </way>
  <way id="44879802" version="1" timestamp="2009-11-23T06:04:23Z" uid="103576" user="DiverCTH" changeset="3192966">
    <nd ref="568975828"/>
    <nd ref="568975844"/>
    <nd ref="568975848"/>
    <nd ref="568975846"/>
    <tag k="addr:country" v="US"/>
    <tag k="addr:county" v="Hamilton, TN"/>
    <tag k="addr:interpolation" v="odd"/>
    <tag k="addr:postcode" v="37421"/>
    <tag k="addr:state" v="Tennessee"/>
    <tag k="addr:street" v="Sandpiper Lane"/>
    <tag k="attribution" v="tiger"/>
    <tag k="source" v="tiger_import_v0.3_20091116000623"/>
  </way>
  <way id="44879803" version="1" timestamp="2009-11-23T06:04:23Z" uid="103576" user="DiverCTH" changeset="3192966">
    <nd ref="568975842"/>
    <nd ref="568975843"/>
    <nd ref="568975845"/>
    <nd ref="568975847"/>
    <tag k="addr:country" v="US"/>
    <tag k="addr:county" v="Hamilton, TN"/>
    <tag k="addr:interpolation" v="even"/>
    <tag k="addr:postcode" v="37421"/>
    <tag k="addr:state" v="Tennessee"/>
    <tag k="addr:street" v="Sandpiper Lane"/>
    <tag k="attribution" v="tiger"/>
    <tag k="source" v="tiger_import_v0.3_20091116000623"/>
  </way>
  <way id="44879805" version="1" timestamp="2009-11-23T06:05:40Z" uid="103576" user="DiverCTH" changeset="3192966">
    <nd ref="568976000"/>
    <nd ref="568976003"/>
    <nd ref="568975998"/>
    <nd ref="568975990"/>
    <nd ref="568975988"/>
    <nd ref="568975996"/>
    <nd ref="568975992"/>
    <nd ref="568975993"/>
    <tag k="addr:country" v="US"/>
    <tag k="addr:county" v="Hamilton, TN"/>
    <tag k="addr:interpolation" v="even"/>
    <tag k="addr:postcode" v="37421"/>
    <tag k="addr:state" v="Tennessee"/>
    <tag k="addr:street" v="Raintree Ln"/>
    <tag k="attribution" v="tiger"/>
    <tag k="source" v="tiger_import_v0.3_20091116000617"/>
  </way>
  <way id="44879806" version="1" timestamp="2009-11-23T06:05:40Z" uid="103576" user="DiverCTH" changeset="3192966">
    <nd ref="568975999"/>
    <nd ref="568976002"/>
    <nd ref="568976001"/>
    <nd ref="568975989"/>
    <nd ref="568975987"/>
    <nd ref="568975995"/>
    <nd ref="568975991"/>
    <nd ref="568975997"/>
    <tag k="addr:country" v="US"/>
    <tag k="addr:county" v="Hamilton, TN"/>
    <tag k="addr:interpolation" v="odd"/>
    <tag k="addr:postcode" v="37421"/>
    <tag k="addr:state" v="Tennessee"/>
    <tag k="addr:street" v="Raintree Ln"/>
    <tag k="attribution" v="tiger"/>
    <tag k="source" v="tiger_import_v0.3_20091116000617"/>
  </way>
  <way id="44879807" version="8" timestamp="2010-06-17T13:00:41Z" uid="4467" user="Rosscoe" changeset="5008609">
    <nd ref="568976043"/>
    <nd ref="161901792"/>
    <nd ref="568976127"/>
    <nd ref="161901815"/>
    <nd ref="568976128"/>
    <nd ref="161901838"/>
    <nd ref="161901863"/>
    <nd ref="161901882"/>
    <nd ref="161901905"/>
    <nd ref="161901922"/>
    <nd ref="568976142"/>
    <nd ref="568976143"/>
    <nd ref="161901938"/>
    <nd ref="161901961"/>
    <nd ref="161901985"/>
    <nd ref="568976179"/>
    <nd ref="161902002"/>
    <nd ref="161902024"/>
    <nd ref="568976180"/>
    <nd ref="161902043"/>
    <nd ref="161902070"/>
    <nd ref="161902093"/>
    <nd ref="161902111"/>
    <nd ref="568976185"/>
    <nd ref="339318575"/>
    <nd ref="161902124"/>
    <nd ref="161902141"/>
    <nd ref="161902158"/>
    <nd ref="161902181"/>
    <nd ref="161902204"/>
    <nd ref="161902220"/>
    <nd ref="193134223"/>
    <nd ref="568976229"/>
    <nd ref="161902255"/>
    <nd ref="252353741"/>
    <tag k="highway" v="secondary"/>
    <tag k="name" v="Brisbane Terrace"/>
  </way>
  <way id="44879807" version="9" timestamp="2010-06-17T13:13:27Z" uid="4467" user="Rosscoe" changeset="5008731">
    <nd ref="568976043"/>
    <nd ref="161901792"/>
    <nd ref="568976127"/>
    <nd ref="161901815"/>
    <nd ref="568976128"/>
    <nd ref="161901838"/>
    <nd ref="161901863"/>
    <nd ref="161901882"/>
    <nd ref="161901905"/>
    <nd ref="161901922"/>
    <nd ref="568976142"/>
    <nd ref="568976143"/>
    <nd ref="161901938"/>
    <nd ref="161901961"/>
    <nd ref="161901985"/>
    <nd ref="568976179"/>
    <nd ref="161902002"/>
    <nd ref="161902024"/>
    <nd ref="568976180"/>
    <nd ref="161902043"/>
    <nd ref="161902070"/>
    <nd ref="161902093"/>
    <nd ref="161902111"/>
    <nd ref="568976185"/>
    <nd ref="339318575"/>
    <nd ref="161902124"/>
    <nd ref="161902141"/>
    <nd ref="161902158"/>
    <nd ref="161902181"/>
    <nd ref="161902204"/>
    <nd ref="161902220"/>
    <nd ref="193134223"/>
    <nd ref="568976229"/>
    <nd ref="161902255"/>
    <nd ref="252353741"/>
    <tag k="highway" v="secondary"/>
    <tag k="name" v="Brisbane Terrace"/>
  </way>
  <way id="44879809" version="3" timestamp="2009-12-07T17:18:19Z" uid="23543" user="jkjk" changeset="3317526">
    <nd ref="568976109"/>
    <nd ref="568976110"/>
    <nd ref="568976108"/>
    <nd ref="568976107"/>
    <nd ref="568976106"/>
    <nd ref="568976105"/>
    <nd ref="568976104"/>
    <nd ref="568976103"/>
    <nd ref="568976102"/>
    <nd ref="568976101"/>
    <nd ref="568976100"/>
    <nd ref="568976099"/>
    <nd ref="568976098"/>
    <nd ref="568976097"/>
    <nd ref="568976096"/>
    <nd ref="568976095"/>
    <nd ref="568976094"/>
    <nd ref="568976092"/>
    <nd ref="568976091"/>
    <nd ref="568976083"/>
    <nd ref="568976082"/>
    <nd ref="582938996"/>
    <tag k="highway" v="proposed"/>
    <tag k="layer" v="1"/>
    <tag k="proposed" v="motorway"/>
    <tag k="ref" v="R48"/>
  </way>
  <way id="44879809" version="4" timestamp="2010-12-26T14:14:52Z" uid="171133" user="xLocutus" changeset="6768481">
    <nd ref="568976109"/>
    <nd ref="568976110"/>
    <nd ref="568976108"/>
    <nd ref="568976107"/>
    <nd ref="1065870821"/>
    <nd ref="568976106"/>
    <nd ref="1065870819"/>
    <nd ref="568976105"/>
    <nd ref="1065870825"/>
    <nd ref="568976104"/>
    <nd ref="568976103"/>
    <nd ref="568976102"/>
    <nd ref="568976101"/>
    <nd ref="1065870823"/>
    <nd ref="568976100"/>
    <nd ref="1065870820"/>
    <nd ref="568976099"/>
    <nd ref="568976098"/>
    <nd ref="568976097"/>
    <nd ref="568976096"/>
    <nd ref="568976095"/>
    <nd ref="568976094"/>
    <nd ref="568976092"/>
    <nd ref="568976091"/>
    <nd ref="568976083"/>
    <nd ref="568976082"/>
    <nd ref="582938996"/>
    <tag k="highway" v="proposed"/>
    <tag k="layer" v="1"/>
    <tag k="proposed" v="motorway"/>
    <tag k="ref" v="R48"/>
  </way>
  <way id="44879810" version="2" timestamp="2009-12-07T17:18:19Z" uid="23543" user="jkjk" changeset="3317526">
    <nd ref="568976092"/>
    <nd ref="568976093"/>
    <nd ref="568976084"/>
    <nd ref="568976085"/>
    <nd ref="568976086"/>
    <nd ref="568976087"/>
    <nd ref="568976088"/>
    <nd ref="568976090"/>
    <tag k="highway" v="proposed"/>
    <tag k="layer" v="1"/>
    <tag k="proposed" v="motorway"/>
  </way>
  <way id="44879832" version="1" timestamp="2009-11-23T06:11:06Z" uid="103576" user="DiverCTH" changeset="3192966">
    <nd ref="568976466"/>
    <nd ref="568976465"/>
    <nd ref="568976483"/>
    <nd ref="568976482"/>
    <nd ref="568976481"/>
    <tag k="addr:country" v="US"/>
    <tag k="addr:county" v="Hamilton, TN"/>
    <tag k="addr:interpolation" v="odd"/>
    <tag k="addr:postcode" v="37363"/>
    <tag k="addr:state" v="Tennessee"/>
    <tag k="addr:street" v="Ooltewah Ringgold Rd"/>
    <tag k="attribution" v="tiger"/>
    <tag k="source" v="tiger_import_v0.3_20091116000620"/>
  </way>
  <way id="44879833" version="1" timestamp="2009-11-23T06:11:06Z" uid="103576" user="DiverCTH" changeset="3192966">
    <nd ref="568976468"/>
    <nd ref="568976467"/>
    <nd ref="568976484"/>
    <nd ref="568976496"/>
    <nd ref="568976495"/>
    <tag k="addr:country" v="US"/>
    <tag k="addr:county" v="Hamilton, TN"/>
    <tag k="addr:interpolation" v="even"/>
    <tag k="addr:postcode" v="37363"/>
    <tag k="addr:state" v="Tennessee"/>
    <tag k="addr:street" v="Ooltewah Ringgold Rd"/>
    <tag k="attribution" v="tiger"/>
    <tag k="source" v="tiger_import_v0.3_20091116000620"/>
  </way>
  <way id="44879834" version="1" timestamp="2009-11-23T06:11:06Z" uid="103576" user="DiverCTH" changeset="3192966">
    <nd ref="568976485"/>
    <nd ref="568976492"/>
    <nd ref="568976480"/>
    <nd ref="568976479"/>
    <nd ref="568976478"/>
    <nd ref="568976477"/>
    <nd ref="568976473"/>
    <nd ref="568976472"/>
    <nd ref="568976463"/>
    <nd ref="568976462"/>
    <nd ref="568976470"/>
    <nd ref="568976469"/>
    <tag k="addr:country" v="US"/>
    <tag k="addr:county" v="Hamilton, TN"/>
    <tag k="addr:interpolation" v="even"/>
    <tag k="addr:postcode" v="37363"/>
    <tag k="addr:state" v="Tennessee"/>
    <tag k="addr:street" v="Waycross Circle"/>
    <tag k="attribution" v="tiger"/>
    <tag k="source" v="tiger_import_v0.3_20091116000621"/>
  </way>
  <way id="44879836" version="1" timestamp="2009-11-23T06:11:07Z" uid="103576" user="DiverCTH" changeset="3192966">
    <nd ref="568976491"/>
    <nd ref="568976487"/>
    <nd ref="568976486"/>
    <nd ref="568976489"/>
    <nd ref="568976493"/>
    <nd ref="568976494"/>
    <nd ref="568976475"/>
    <nd ref="568976476"/>
    <nd ref="568976474"/>
    <nd ref="568976471"/>
    <nd ref="568976460"/>
    <nd ref="568976461"/>
    <nd ref="568976457"/>
    <nd ref="568976458"/>
    <nd ref="568976459"/>
    <nd ref="568976464"/>
    <tag k="addr:country" v="US"/>
    <tag k="addr:county" v="Hamilton, TN"/>
    <tag k="addr:interpolation" v="odd"/>
    <tag k="addr:postcode" v="37363"/>
    <tag k="addr:state" v="Tennessee"/>
    <tag k="addr:street" v="Waycross Circle"/>
    <tag k="attribution" v="tiger"/>
    <tag k="source" v="tiger_import_v0.3_20091116000621"/>
  </way>
  <way id="44879837" version="1" timestamp="2009-11-23T06:11:07Z" uid="103576" user="DiverCTH" changeset="3192966">
    <nd ref="568976488"/>
    <nd ref="568976499"/>
    <nd ref="568976501"/>
    <tag k="addr:country" v="US"/>
    <tag k="addr:county" v="Hamilton, TN"/>
    <tag k="addr:interpolation" v="odd"/>
    <tag k="addr:postcode" v="37363"/>
    <tag k="addr:state" v="Tennessee"/>
    <tag k="addr:street" v="Ooltewah Ringgold Rd"/>
    <tag k="attribution" v="tiger"/>
    <tag k="source" v="tiger_import_v0.3_20091116000622"/>
  </way>
  <way id="44879838" version="1" timestamp="2009-11-23T06:11:07Z" uid="103576" user="DiverCTH" changeset="3192966">
    <nd ref="568976498"/>
    <nd ref="568976497"/>
    <nd ref="568976500"/>
    <tag k="addr:country" v="US"/>
    <tag k="addr:county" v="Hamilton, TN"/>
    <tag k="addr:interpolation" v="even"/>
    <tag k="addr:postcode" v="37363"/>
    <tag k="addr:state" v="Tennessee"/>
    <tag k="addr:street" v="Ooltewah Ringgold Rd"/>
    <tag k="attribution" v="tiger"/>
    <tag k="source" v="tiger_import_v0.3_20091116000622"/>
  </way>
  <way id="44879889" version="1" timestamp="2009-11-23T06:13:33Z" uid="7617" user="Franc" changeset="3193027">
    <nd ref="568976584"/>
    <nd ref="568976585"/>
    <nd ref="568976586"/>
    <nd ref="568976587"/>
    <nd ref="568976589"/>
    <nd ref="568976590"/>
    <nd ref="568976591"/>
    <nd ref="568976592"/>
    <nd ref="568976593"/>
    <nd ref="568976594"/>
    <nd ref="568976595"/>
    <nd ref="568976596"/>
    <nd ref="568976597"/>
    <nd ref="568976598"/>
    <nd ref="568976599"/>
    <nd ref="568976600"/>
    <nd ref="568976602"/>
    <nd ref="568976603"/>
    <nd ref="568976604"/>
    <nd ref="568976605"/>
    <nd ref="568976606"/>
    <nd ref="568976607"/>
    <nd ref="568976612"/>
    <nd ref="568976613"/>
    <nd ref="568976617"/>
    <nd ref="568976618"/>
    <nd ref="568976619"/>
    <nd ref="568976620"/>
    <nd ref="568976621"/>
    <nd ref="568976626"/>
    <nd ref="568976630"/>
    <nd ref="568976631"/>
    <nd ref="568976632"/>
    <nd ref="568976633"/>
    <nd ref="568976635"/>
    <nd ref="568976637"/>
    <nd ref="568976640"/>
    <nd ref="568976641"/>
    <nd ref="568976642"/>
    <nd ref="568976643"/>
    <nd ref="568976644"/>
    <nd ref="568976649"/>
    <nd ref="568976650"/>
    <nd ref="568976651"/>
    <nd ref="568976653"/>
    <nd ref="568976654"/>
    <nd ref="568976656"/>
    <nd ref="568976657"/>
    <nd ref="568976658"/>
    <nd ref="568976659"/>
    <nd ref="568976660"/>
    <nd ref="568976661"/>
    <nd ref="568976655"/>
    <nd ref="568976652"/>
    <nd ref="568976648"/>
    <nd ref="568976645"/>
    <nd ref="568976646"/>
    <nd ref="568976647"/>
    <nd ref="568976639"/>
    <nd ref="568976636"/>
    <nd ref="568976634"/>
    <nd ref="568976628"/>
    <nd ref="568976629"/>
    <nd ref="568976627"/>
    <nd ref="568976624"/>
    <nd ref="568976625"/>
    <nd ref="568976622"/>
    <nd ref="568976623"/>
    <nd ref="568976614"/>
    <nd ref="568976615"/>
    <nd ref="568976616"/>
    <nd ref="568976608"/>
    <nd ref="568976609"/>
    <nd ref="568976610"/>
    <nd ref="568976611"/>
    <nd ref="568976601"/>
    <nd ref="568976583"/>
    <nd ref="568976584"/>
    <tag k="leisure" v="park"/>
    <tag k="source" v="nearmap"/>
  </way>
  <way id="44879889" version="2" timestamp="2011-04-02T05:58:29Z" uid="47167" user="MCH" changeset="7741182">
    <nd ref="568976584"/>
    <nd ref="568976585"/>
    <nd ref="568976586"/>
    <nd ref="568976587"/>
    <nd ref="568976589"/>
    <nd ref="568976590"/>
    <nd ref="568976591"/>
    <nd ref="568976592"/>
    <nd ref="568976593"/>
    <nd ref="568976594"/>
    <nd ref="568976595"/>
    <nd ref="568976596"/>
    <nd ref="568976597"/>
    <nd ref="568976598"/>
    <nd ref="568976599"/>
    <nd ref="568976600"/>
    <nd ref="568976602"/>
    <nd ref="568976603"/>
    <nd ref="568976604"/>
    <nd ref="568976605"/>
    <nd ref="568976606"/>
    <nd ref="568976607"/>
    <nd ref="568976612"/>
    <nd ref="568976613"/>
    <nd ref="568976617"/>
    <nd ref="568976618"/>
    <nd ref="568976619"/>
    <nd ref="568976620"/>
    <nd ref="568976621"/>
    <nd ref="568976626"/>
    <nd ref="568976630"/>
    <nd ref="568976631"/>
    <nd ref="568976632"/>
    <nd ref="568976633"/>
    <nd ref="568976635"/>
    <nd ref="568976637"/>
    <nd ref="568976640"/>
    <nd ref="568976641"/>
    <nd ref="568976642"/>
    <nd ref="568976643"/>
    <nd ref="568976644"/>
    <nd ref="568976649"/>
    <nd ref="568976650"/>
    <nd ref="568976651"/>
    <nd ref="568976653"/>
    <nd ref="568976654"/>
    <nd ref="568976656"/>
    <nd ref="568976657"/>
    <nd ref="568976658"/>
    <nd ref="568976659"/>
    <nd ref="568976660"/>
    <nd ref="568976661"/>
    <nd ref="568976655"/>
    <nd ref="568976652"/>
    <nd ref="568976648"/>
    <nd ref="568976645"/>
    <nd ref="568976646"/>
    <nd ref="568976647"/>
    <nd ref="568976639"/>
    <nd ref="568976636"/>
    <nd ref="568976634"/>
    <nd ref="568976628"/>
    <nd ref="568976629"/>
    <nd ref="568976627"/>
    <nd ref="568976624"/>
    <nd ref="568976625"/>
    <nd ref="568976622"/>
    <nd ref="568976623"/>
    <nd ref="568976614"/>
    <nd ref="568976615"/>
    <nd ref="568976616"/>
    <nd ref="568976608"/>
    <nd ref="568976609"/>
    <nd ref="568976610"/>
    <nd ref="568976611"/>
    <nd ref="568976601"/>
    <nd ref="568976583"/>
    <nd ref="568976584"/>
    <tag k="leisure" v="park"/>
    <tag k="source" v="nearmap"/>
  </way>
  <way id="44879889" version="3" timestamp="2011-04-02T06:27:13Z" uid="47167" user="MCH" changeset="7741182">
    <nd ref="568976584"/>
    <nd ref="568976585"/>
    <nd ref="568976586"/>
    <nd ref="568976587"/>
    <nd ref="568976589"/>
    <nd ref="568976590"/>
    <nd ref="568976591"/>
    <nd ref="568976592"/>
    <nd ref="568976593"/>
    <nd ref="568976594"/>
    <nd ref="568976595"/>
    <nd ref="568976596"/>
    <nd ref="568976597"/>
    <nd ref="568976598"/>
    <nd ref="568976599"/>
    <nd ref="568976600"/>
    <nd ref="568976602"/>
    <nd ref="568976603"/>
    <nd ref="568976604"/>
    <nd ref="568976605"/>
    <nd ref="568976606"/>
    <nd ref="568976607"/>
    <nd ref="568976612"/>
    <nd ref="568976613"/>
    <nd ref="568976617"/>
    <nd ref="568976618"/>
    <nd ref="568976619"/>
    <nd ref="568976620"/>
    <nd ref="568976621"/>
    <nd ref="568976626"/>
    <nd ref="568976630"/>
    <nd ref="568976631"/>
    <nd ref="568976632"/>
    <nd ref="568976633"/>
    <nd ref="568976635"/>
    <nd ref="568976637"/>
    <nd ref="568976640"/>
    <nd ref="568976641"/>
    <nd ref="568976642"/>
    <nd ref="568976643"/>
    <nd ref="568976644"/>
    <nd ref="568976649"/>
    <nd ref="568976650"/>
    <nd ref="568976651"/>
    <nd ref="568976653"/>
    <nd ref="568976654"/>
    <nd ref="568976656"/>
    <nd ref="568976657"/>
    <nd ref="568976658"/>
    <nd ref="568976659"/>
    <nd ref="568976660"/>
    <nd ref="568976661"/>
    <nd ref="568976655"/>
    <nd ref="568976652"/>
    <nd ref="568976648"/>
    <nd ref="1228877378"/>
    <nd ref="568976645"/>
    <nd ref="1228877251"/>
    <nd ref="1228877487"/>
    <nd ref="1228877459"/>
    <nd ref="568976646"/>
    <nd ref="568976647"/>
    <nd ref="568976639"/>
    <nd ref="568976636"/>
    <nd ref="568976634"/>
    <nd ref="568976628"/>
    <nd ref="568976629"/>
    <nd ref="568976627"/>
    <nd ref="568976624"/>
    <nd ref="568976625"/>
    <nd ref="568976622"/>
    <nd ref="568976623"/>
    <nd ref="568976614"/>
    <nd ref="568976615"/>
    <nd ref="568976616"/>
    <nd ref="568976608"/>
    <nd ref="568976609"/>
    <nd ref="568976610"/>
    <nd ref="568976611"/>
    <nd ref="568976601"/>
    <nd ref="568976583"/>
    <nd ref="568976584"/>
    <tag k="leisure" v="park"/>
    <tag k="source" v="nearmap"/>
  </way>
  <way id="44879889" version="4" timestamp="2011-04-06T12:13:53Z" uid="47167" user="MCH" changeset="7784318">
    <nd ref="568976584"/>
    <nd ref="568976585"/>
    <nd ref="568976586"/>
    <nd ref="568976587"/>
    <nd ref="568976589"/>
    <nd ref="568976590"/>
    <nd ref="568976591"/>
    <nd ref="568976592"/>
    <nd ref="568976593"/>
    <nd ref="568976594"/>
    <nd ref="568976595"/>
    <nd ref="568976596"/>
    <nd ref="568976597"/>
    <nd ref="568976598"/>
    <nd ref="568976599"/>
    <nd ref="568976600"/>
    <nd ref="568976602"/>
    <nd ref="568976603"/>
    <nd ref="568976604"/>
    <nd ref="568976605"/>
    <nd ref="568976606"/>
    <nd ref="568976607"/>
    <nd ref="568976612"/>
    <nd ref="568976613"/>
    <nd ref="568976617"/>
    <nd ref="568976618"/>
    <nd ref="568976619"/>
    <nd ref="568976620"/>
    <nd ref="568976621"/>
    <nd ref="568976626"/>
    <nd ref="568976630"/>
    <nd ref="568976631"/>
    <nd ref="568976632"/>
    <nd ref="568976633"/>
    <nd ref="568976635"/>
    <nd ref="568976637"/>
    <nd ref="568976640"/>
    <nd ref="568976641"/>
    <nd ref="568976642"/>
    <nd ref="568976643"/>
    <nd ref="568976644"/>
    <nd ref="568976649"/>
    <nd ref="568976650"/>
    <nd ref="568976651"/>
    <nd ref="568976653"/>
    <nd ref="568976654"/>
    <nd ref="568976656"/>
    <nd ref="568976657"/>
    <nd ref="568976658"/>
    <nd ref="568976659"/>
    <nd ref="568976660"/>
    <nd ref="568976661"/>
    <nd ref="568976655"/>
    <nd ref="568976652"/>
    <nd ref="568976648"/>
    <nd ref="1228877378"/>
    <nd ref="568976645"/>
    <nd ref="1228877251"/>
    <nd ref="1228877487"/>
    <nd ref="1228877459"/>
    <nd ref="568976646"/>
    <nd ref="568976647"/>
    <nd ref="568976639"/>
    <nd ref="568976636"/>
    <nd ref="568976634"/>
    <nd ref="568976628"/>
    <nd ref="568976629"/>
    <nd ref="568976627"/>
    <nd ref="568976624"/>
    <nd ref="568976625"/>
    <nd ref="568976622"/>
    <nd ref="568976623"/>
    <nd ref="568976614"/>
    <nd ref="568976615"/>
    <nd ref="568976616"/>
    <nd ref="568976608"/>
    <nd ref="568976609"/>
    <nd ref="568976610"/>
    <nd ref="568976611"/>
    <nd ref="568976601"/>
    <nd ref="568976583"/>
    <nd ref="568976584"/>
    <tag k="leisure" v="park"/>
    <tag k="name" v="Tench Reserve"/>
    <tag k="source" v="survey"/>
  </way>
  <way id="44879892" version="2" timestamp="2010-02-15T06:07:16Z" uid="74617" user="JohnSmith" changeset="3880328">
    <nd ref="568976668"/>
    <nd ref="161901938"/>
    <tag k="highway" v="residential"/>
    <tag k="maxspeed" v="50"/>
  </way>
  <way id="44879892" version="3" timestamp="2012-01-19T10:21:02Z" uid="147510" user="woodpeck_fixbot" changeset="10434386">
    <nd ref="568976668"/>
    <nd ref="161901938"/>
    <tag k="highway" v="residential"/>
  </way>
  <way id="44879900" version="2" timestamp="2010-02-15T06:07:16Z" uid="74617" user="JohnSmith" changeset="3880328">
    <nd ref="568976697"/>
    <nd ref="568976668"/>
    <nd ref="568976698"/>
    <nd ref="568976699"/>
    <nd ref="568976700"/>
    <nd ref="568976701"/>
    <nd ref="568976702"/>
    <nd ref="568976703"/>
    <tag k="highway" v="residential"/>
    <tag k="maxspeed" v="50"/>
  </way>
  <way id="44879900" version="3" timestamp="2011-11-30T16:25:30Z" uid="338866" user="tiger" changeset="9998922">
    <nd ref="568976697"/>
    <nd ref="568976668"/>
    <nd ref="568976698"/>
    <nd ref="568976699"/>
    <nd ref="568976700"/>
    <nd ref="568976701"/>
    <nd ref="568976702"/>
    <nd ref="568976726"/>
    <nd ref="568976703"/>
    <tag k="highway" v="residential"/>
    <tag k="maxspeed" v="50"/>
  </way>
  <way id="44879900" version="4" timestamp="2012-01-19T10:21:04Z" uid="147510" user="woodpeck_fixbot" changeset="10434386">
    <nd ref="568976697"/>
    <nd ref="568976668"/>
    <nd ref="568976698"/>
    <nd ref="568976699"/>
    <nd ref="568976700"/>
    <nd ref="568976701"/>
    <nd ref="568976702"/>
    <nd ref="568976726"/>
    <nd ref="568976703"/>
    <tag k="highway" v="residential"/>
  </way>
  <way id="44879902" version="2" timestamp="2010-07-08T17:18:22Z" uid="74617" user="JohnSmith" changeset="5167338">
    <nd ref="568976713"/>
    <nd ref="568976714"/>
    <nd ref="568976715"/>
    <nd ref="568976716"/>
    <nd ref="568976707"/>
    <nd ref="568976708"/>
    <nd ref="568976709"/>
    <tag k="highway" v="residential"/>
    <tag k="maxspeed" v="50"/>
    <tag k="maxspeed:source" v="default residential speed limit in Australia"/>
    <tag k="name" v="Idwall Court"/>
  </way>
  <way id="44879902" version="3" timestamp="2012-01-19T10:21:06Z" uid="147510" user="woodpeck_fixbot" changeset="10434386">
    <nd ref="568976713"/>
    <nd ref="568976714"/>
    <nd ref="568976715"/>
    <nd ref="568976716"/>
    <nd ref="568976707"/>
    <nd ref="568976708"/>
    <nd ref="568976709"/>
    <tag k="highway" v="residential"/>
    <tag k="name" v="Idwall Court"/>
  </way>
  <way id="44879903" version="2" timestamp="2010-07-08T17:16:27Z" uid="74617" user="JohnSmith" changeset="5167338">
    <nd ref="568976723"/>
    <nd ref="568976717"/>
    <nd ref="568976710"/>
    <nd ref="568976711"/>
    <nd ref="568976712"/>
    <nd ref="568976718"/>
    <nd ref="568976719"/>
    <nd ref="568976720"/>
    <nd ref="568976721"/>
    <nd ref="568976722"/>
    <nd ref="329939714"/>
    <tag k="highway" v="residential"/>
    <tag k="maxspeed" v="50"/>
    <tag k="maxspeed:source" v="default residential speed limit in Australia"/>
    <tag k="name" v="Frayne Court"/>
  </way>
  <way id="44879903" version="3" timestamp="2012-01-19T10:21:07Z" uid="147510" user="woodpeck_fixbot" changeset="10434386">
    <nd ref="568976723"/>
    <nd ref="568976717"/>
    <nd ref="568976710"/>
    <nd ref="568976711"/>
    <nd ref="568976712"/>
    <nd ref="568976718"/>
    <nd ref="568976719"/>
    <nd ref="568976720"/>
    <nd ref="568976721"/>
    <nd ref="568976722"/>
    <nd ref="329939714"/>
    <tag k="highway" v="residential"/>
    <tag k="name" v="Frayne Court"/>
  </way>
  <way id="44879904" version="2" timestamp="2010-02-15T06:07:16Z" uid="74617" user="JohnSmith" changeset="3880328">
    <nd ref="568976725"/>
    <nd ref="568976726"/>
    <tag k="highway" v="service"/>
    <tag k="maxspeed" v="50"/>
  </way>
  <way id="44879904" version="3" timestamp="2012-01-19T10:21:08Z" uid="147510" user="woodpeck_fixbot" changeset="10434386">
    <nd ref="568976725"/>
    <nd ref="568976726"/>
    <tag k="highway" v="service"/>
  </way>
  <way id="44879906" version="3" timestamp="2010-02-15T06:07:16Z" uid="74617" user="JohnSmith" changeset="3880328">
    <nd ref="568976700"/>
    <nd ref="568976731"/>
    <nd ref="568976732"/>
    <nd ref="568976804"/>
    <nd ref="568976733"/>
    <tag k="highway" v="residential"/>
    <tag k="maxspeed" v="50"/>
  </way>
  <way id="44879906" version="4" timestamp="2012-01-19T10:21:09Z" uid="147510" user="woodpeck_fixbot" changeset="10434386">
    <nd ref="568976700"/>
    <nd ref="568976731"/>
    <nd ref="568976732"/>
    <nd ref="568976804"/>
    <nd ref="568976733"/>
    <tag k="highway" v="residential"/>
  </way>
  <way id="44879907" version="2" timestamp="2010-02-15T06:07:16Z" uid="74617" user="JohnSmith" changeset="3880328">
    <nd ref="568976733"/>
    <nd ref="568976745"/>
    <tag k="highway" v="service"/>
    <tag k="maxspeed" v="50"/>
  </way>
  <way id="44879907" version="3" timestamp="2012-01-19T10:21:10Z" uid="147510" user="woodpeck_fixbot" changeset="10434386">
    <nd ref="568976733"/>
    <nd ref="568976745"/>
    <tag k="highway" v="service"/>
  </way>
  <way id="44879908" version="2" timestamp="2010-02-15T06:07:16Z" uid="74617" user="JohnSmith" changeset="3880328">
    <nd ref="568976733"/>
    <nd ref="568976756"/>
    <tag k="highway" v="service"/>
    <tag k="maxspeed" v="50"/>
  </way>
  <way id="44879908" version="3" timestamp="2012-01-19T10:21:11Z" uid="147510" user="woodpeck_fixbot" changeset="10434386">
    <nd ref="568976733"/>
    <nd ref="568976756"/>
    <tag k="highway" v="service"/>
  </way>
  <way id="44879910" version="2" timestamp="2010-02-15T06:07:15Z" uid="74617" user="JohnSmith" changeset="3880328">
    <nd ref="568976800"/>
    <nd ref="568976801"/>
    <nd ref="568976802"/>
    <nd ref="568976803"/>
    <nd ref="568976804"/>
    <tag k="highway" v="residential"/>
    <tag k="maxspeed" v="50"/>
  </way>
  <way id="44879910" version="3" timestamp="2012-01-19T10:21:12Z" uid="147510" user="woodpeck_fixbot" changeset="10434386">
    <nd ref="568976800"/>
    <nd ref="568976801"/>
    <nd ref="568976802"/>
    <nd ref="568976803"/>
    <nd ref="568976804"/>
    <tag k="highway" v="residential"/>
  </way>
  <way id="44879913" version="2" timestamp="2010-02-15T06:07:15Z" uid="74617" user="JohnSmith" changeset="3880328">
    <nd ref="568976802"/>
    <nd ref="568976812"/>
    <nd ref="568976813"/>
    <nd ref="568976814"/>
    <nd ref="568976815"/>
    <nd ref="568976816"/>
    <nd ref="568976817"/>
    <tag k="highway" v="residential"/>
    <tag k="maxspeed" v="50"/>
  </way>
  <way id="44879913" version="3" timestamp="2012-01-19T10:21:13Z" uid="147510" user="woodpeck_fixbot" changeset="10434386">
    <nd ref="568976802"/>
    <nd ref="568976812"/>
    <nd ref="568976813"/>
    <nd ref="568976814"/>
    <nd ref="568976815"/>
    <nd ref="568976816"/>
    <nd ref="568976817"/>
    <tag k="highway" v="residential"/>
  </way>
  <way id="44879958" version="2" timestamp="2010-04-04T01:41:21Z" uid="20587" user="balrog-kun" changeset="4318136">
    <nd ref="568977215"/>
    <nd ref="568977216"/>
    <tag k="bridge" v="yes"/>
    <tag k="highway" v="secondary"/>
    <tag k="name" v="North Jordan Road"/>
    <tag k="tiger:cfcc" v="A41"/>
    <tag k="tiger:county" v="Douglas, CO"/>
    <tag k="tiger:name_base" v="Jordan"/>
    <tag k="tiger:name_direction_prefix" v="N"/>
    <tag k="tiger:name_type" v="Rd"/>
    <tag k="tiger:reviewed" v="no"/>
    <tag k="tiger:separated" v="no"/>
    <tag k="tiger:source" v="tiger_import_dch_v0.6_20070809"/>
    <tag k="tiger:tlid" v="130811565:130802900:130805255:130852802:130852803:130810449:130823949:130840649:130839336:130840650:130830605:130830606:130834800:130834248:130834237:130834940:130834941:130834942:130852796:130852797:130811567:130823722:130808558"/>
    <tag k="tiger:zip_left" v="80134"/>
    <tag k="tiger:zip_right" v="80134"/>
  </way>
  <way id="44879959" version="2" timestamp="2010-04-04T01:41:22Z" uid="20587" user="balrog-kun" changeset="4318136">
    <nd ref="568977216"/>
    <nd ref="88514626"/>
    <nd ref="88498117"/>
    <nd ref="88514628"/>
    <tag k="highway" v="secondary"/>
    <tag k="name" v="North Jordan Road"/>
    <tag k="tiger:cfcc" v="A41"/>
    <tag k="tiger:county" v="Douglas, CO"/>
    <tag k="tiger:name_base" v="Jordan"/>
    <tag k="tiger:name_direction_prefix" v="N"/>
    <tag k="tiger:name_type" v="Rd"/>
    <tag k="tiger:reviewed" v="no"/>
    <tag k="tiger:separated" v="no"/>
    <tag k="tiger:source" v="tiger_import_dch_v0.6_20070809"/>
    <tag k="tiger:tlid" v="130811565:130802900:130805255:130852802:130852803:130810449:130823949:130840649:130839336:130840650:130830605:130830606:130834800:130834248:130834237:130834940:130834941:130834942:130852796:130852797:130811567:130823722:130808558"/>
    <tag k="tiger:zip_left" v="80134"/>
    <tag k="tiger:zip_right" v="80134"/>
  </way>
  <way id="44879959" version="3" timestamp="2010-05-28T02:47:51Z" uid="139555" user="DavidJDBA" changeset="4827378">
    <nd ref="568977216"/>
    <nd ref="88514626"/>
    <nd ref="88498117"/>
    <nd ref="752184894"/>
    <nd ref="88514628"/>
    <tag k="highway" v="secondary"/>
    <tag k="name" v="North Jordan Road"/>
    <tag k="tiger:cfcc" v="A41"/>
    <tag k="tiger:county" v="Douglas, CO"/>
    <tag k="tiger:name_base" v="Jordan"/>
    <tag k="tiger:name_direction_prefix" v="N"/>
    <tag k="tiger:name_type" v="Rd"/>
    <tag k="tiger:reviewed" v="no"/>
    <tag k="tiger:separated" v="no"/>
    <tag k="tiger:source" v="tiger_import_dch_v0.6_20070809"/>
    <tag k="tiger:tlid" v="130811565:130802900:130805255:130852802:130852803:130810449:130823949:130840649:130839336:130840650:130830605:130830606:130834800:130834248:130834237:130834940:130834941:130834942:130852796:130852797:130811567:130823722:130808558"/>
    <tag k="tiger:zip_left" v="80134"/>
    <tag k="tiger:zip_right" v="80134"/>
  </way>
  <way id="44879959" version="4" timestamp="2011-01-08T13:39:15Z" uid="121241" user="zephyr" changeset="6903719">
    <nd ref="568977216"/>
    <nd ref="88514626"/>
    <nd ref="88498117"/>
    <nd ref="88514628"/>
    <tag k="highway" v="secondary"/>
    <tag k="name" v="North Jordan Road"/>
    <tag k="tiger:cfcc" v="A41"/>
    <tag k="tiger:county" v="Douglas, CO"/>
    <tag k="tiger:name_base" v="Jordan"/>
    <tag k="tiger:name_direction_prefix" v="N"/>
    <tag k="tiger:name_type" v="Rd"/>
    <tag k="tiger:separated" v="no"/>
    <tag k="tiger:source" v="tiger_import_dch_v0.6_20070809"/>
    <tag k="tiger:tlid" v="130811565:130802900:130805255:130852802:130852803:130810449:130823949:130840649:130839336:130840650:130830605:130830606:130834800:130834248:130834237:130834940:130834941:130834942:130852796:130852797:130811567:130823722:130808558"/>
    <tag k="tiger:zip_left" v="80134"/>
    <tag k="tiger:zip_right" v="80134"/>
  </way>
</osm>
