<?xml version='1.0' encoding='UTF-8'?>
<osm version="0.6" generator="libosmium/2.20.0">
  <way id="44880014" version="1" timestamp="2009-11-23T06:24:13Z" uid="30201" user="rrankin" changeset="3193053">
    <nd ref="363510344"/>
    <nd ref="568978139"/>
    <nd ref="282599946"/>
    <nd ref="282599944"/>
    <nd ref="267669745"/>
    <nd ref="282599890"/>
    <nd ref="311403068"/>
    <nd ref="267669742"/>
    <nd ref="282599759"/>
    <nd ref="267669741"/>
    <nd ref="267669740"/>
    <nd ref="267669739"/>
    <nd ref="267669737"/>
    <nd ref="267669736"/>
    <nd ref="267669735"/>
    <nd ref="267669734"/>
    <nd ref="267462888"/>
    <nd ref="311411270"/>
    <nd ref="267462889"/>
    <nd ref="267462890"/>
    <nd ref="267669768"/>
    <nd ref="267669733"/>
    <tag k="highway" v="secondary"/>
  </way>
  <way id="44880014" version="2" timestamp="2009-12-28T14:58:59Z" uid="4467" user="Rosscoe" changeset="3472336">
    <nd ref="363510344"/>
    <nd ref="568978139"/>
    <nd ref="600402742"/>
    <nd ref="282599946"/>
    <nd ref="282599944"/>
    <nd ref="267669745"/>
    <nd ref="282599890"/>
    <nd ref="311403068"/>
    <nd ref="267669742"/>
    <nd ref="282599759"/>
    <nd ref="267669741"/>
    <nd ref="267669740"/>
    <nd ref="267669739"/>
    <nd ref="267669737"/>
    <nd ref="267669736"/>
    <nd ref="267669735"/>
    <tag k="highway" v="secondary"/>
  </way>
  <way id="44880014" version="3" timestamp="2009-12-28T15:40:07Z" uid="4467" user="Rosscoe" changeset="3472767">
    <nd ref="363510344"/>
    <nd ref="568978139"/>
    <nd ref="600402742"/>
    <nd ref="282599946"/>
    <nd ref="282599944"/>
    <nd ref="600414486"/>
    <nd ref="267669745"/>
    <nd ref="282599890"/>
    <nd ref="600414488"/>
    <nd ref="600414489"/>
    <nd ref="600414490"/>
    <nd ref="311403068"/>
    <nd ref="600414493"/>
    <nd ref="600414491"/>
    <nd ref="600414492"/>
    <nd ref="267669742"/>
    <nd ref="282599759"/>
    <nd ref="267669741"/>
    <nd ref="600414494"/>
    <nd ref="267669740"/>
    <nd ref="600414504"/>
    <nd ref="267669739"/>
    <nd ref="267669737"/>
    <nd ref="267669736"/>
    <nd ref="267669735"/>
    <tag k="highway" v="secondary"/>
    <tag k="source" v="nearmap"/>
  </way>
  <way id="44880014" version="4" timestamp="2010-06-14T07:04:34Z" uid="61114" user="Trav" changeset="4985406">
    <nd ref="363510344"/>
    <nd ref="568978139"/>
    <nd ref="600402742"/>
    <nd ref="282599946"/>
    <nd ref="282599944"/>
    <nd ref="600414486"/>
    <nd ref="267669745"/>
    <nd ref="282599890"/>
    <nd ref="600414488"/>
    <nd ref="600414489"/>
    <nd ref="600414490"/>
    <nd ref="311403068"/>
    <nd ref="600414493"/>
    <nd ref="600414491"/>
    <nd ref="600414492"/>
    <nd ref="267669742"/>
    <nd ref="282599759"/>
    <nd ref="267669741"/>
    <nd ref="600414494"/>
    <nd ref="267669740"/>
    <nd ref="600414504"/>
    <nd ref="267669739"/>
    <nd ref="267669737"/>
    <nd ref="267669736"/>
    <nd ref="267669735"/>
    <tag k="highway" v="secondary"/>
    <tag k="name" v="Cranebrook Road"/>
    <tag k="source" v="nearmap"/>
    <tag k="source:name" v="survey"/>
  </way>
  <way id="44880014" version="5" timestamp="2010-06-21T12:22:24Z" uid="61114" user="Trav" changeset="5042270">
    <nd ref="363510344"/>
    <nd ref="568978139"/>
    <nd ref="779105926"/>
    <nd ref="600402742"/>
    <nd ref="282599946"/>
    <nd ref="282599944"/>
    <nd ref="600414486"/>
    <nd ref="267669745"/>
    <nd ref="282599890"/>
    <nd ref="600414488"/>
    <nd ref="779105876"/>
    <nd ref="600414489"/>
    <nd ref="600414490"/>
    <nd ref="311403068"/>
    <nd ref="600414493"/>
    <nd ref="600414491"/>
    <nd ref="600414492"/>
    <nd ref="267669742"/>
    <nd ref="282599759"/>
    <nd ref="267669741"/>
    <nd ref="600414494"/>
    <nd ref="267669740"/>
    <nd ref="600414504"/>
    <nd ref="267669739"/>
    <nd ref="267669737"/>
    <nd ref="267669736"/>
    <nd ref="267669735"/>
    <tag k="highway" v="secondary"/>
    <tag k="name" v="Cranebrook Road"/>
    <tag k="source" v="nearmap"/>
    <tag k="source:name" v="survey"/>
  </way>
  <way id="44880059" version="1" timestamp="2009-11-23T06:31:32Z" uid="103576" user="DiverCTH" changeset="3192966">
    <nd ref="568979311"/>
    <nd ref="568979333"/>
    <nd ref="568979317"/>
    <nd ref="568979315"/>
    <nd ref="568979319"/>
    <nd ref="568979320"/>
    <nd ref="568979323"/>
    <nd ref="568979329"/>
    <nd ref="568979330"/>
    <nd ref="568979331"/>
    <nd ref="568979336"/>
    <nd ref="568979338"/>
    <nd ref="568979340"/>
    <nd ref="568979341"/>
    <nd ref="568979344"/>
    <nd ref="568979306"/>
    <tag k="addr:country" v="US"/>
    <tag k="addr:county" v="Hamilton, TN"/>
    <tag k="addr:interpolation" v="odd"/>
    <tag k="addr:postcode" v="37363"/>
    <tag k="addr:state" v="Tennessee"/>
    <tag k="addr:street" v="Frost Creek Drive"/>
    <tag k="attribution" v="tiger"/>
    <tag k="source" v="tiger_import_v0.3_20091116000620"/>
  </way>
  <way id="44880060" version="1" timestamp="2009-11-23T06:31:32Z" uid="103576" user="DiverCTH" changeset="3192966">
    <nd ref="568979312"/>
    <nd ref="568979316"/>
    <nd ref="568979318"/>
    <nd ref="568979313"/>
    <nd ref="568979314"/>
    <nd ref="568979321"/>
    <nd ref="568979322"/>
    <nd ref="568979328"/>
    <nd ref="568979324"/>
    <nd ref="568979326"/>
    <nd ref="568979327"/>
    <nd ref="568979335"/>
    <nd ref="568979339"/>
    <nd ref="568979337"/>
    <nd ref="568979342"/>
    <nd ref="568979308"/>
    <tag k="addr:country" v="US"/>
    <tag k="addr:county" v="Hamilton, TN"/>
    <tag k="addr:interpolation" v="even"/>
    <tag k="addr:postcode" v="37363"/>
    <tag k="addr:state" v="Tennessee"/>
    <tag k="addr:street" v="Frost Creek Drive"/>
    <tag k="attribution" v="tiger"/>
    <tag k="source" v="tiger_import_v0.3_20091116000620"/>
  </way>
  <way id="44880061" version="1" timestamp="2009-11-23T06:31:32Z" uid="103576" user="DiverCTH" changeset="3192966">
    <nd ref="568979231"/>
    <nd ref="568979228"/>
    <tag k="addr:country" v="US"/>
    <tag k="addr:county" v="Hamilton, TN"/>
    <tag k="addr:interpolation" v="all"/>
    <tag k="addr:postcode" v="37363"/>
    <tag k="addr:state" v="Tennessee"/>
    <tag k="addr:street" v="Ethridge Ln"/>
    <tag k="attribution" v="tiger"/>
    <tag k="source" v="tiger_import_v0.3_20091116000618"/>
  </way>
  <way id="44880062" version="1" timestamp="2009-11-23T06:31:33Z" uid="103576" user="DiverCTH" changeset="3192966">
    <nd ref="568979230"/>
    <nd ref="568979229"/>
    <nd ref="568979227"/>
    <nd ref="568979236"/>
    <nd ref="568979235"/>
    <nd ref="568979234"/>
    <nd ref="568979232"/>
    <tag k="addr:country" v="US"/>
    <tag k="addr:county" v="Hamilton, TN"/>
    <tag k="addr:interpolation" v="odd"/>
    <tag k="addr:postcode" v="37363"/>
    <tag k="addr:state" v="Tennessee"/>
    <tag k="addr:street" v="Ooltewah Ringgold Rd"/>
    <tag k="attribution" v="tiger"/>
    <tag k="source" v="tiger_import_v0.3_20091116000618"/>
  </way>
  <way id="44880063" version="1" timestamp="2009-11-23T06:31:33Z" uid="103576" user="DiverCTH" changeset="3192966">
    <nd ref="568979219"/>
    <nd ref="568979211"/>
    <nd ref="568979213"/>
    <nd ref="568979220"/>
    <nd ref="568979222"/>
    <nd ref="568979221"/>
    <tag k="addr:country" v="US"/>
    <tag k="addr:county" v="Hamilton, TN"/>
    <tag k="addr:interpolation" v="odd"/>
    <tag k="addr:postcode" v="37421"/>
    <tag k="addr:state" v="Tennessee"/>
    <tag k="addr:street" v="E Brainerd Rd"/>
    <tag k="attribution" v="tiger"/>
    <tag k="source" v="tiger_import_v0.3_20091116000618"/>
  </way>
  <way id="44880064" version="1" timestamp="2009-11-23T06:31:33Z" uid="103576" user="DiverCTH" changeset="3192966">
    <nd ref="568979215"/>
    <nd ref="568979216"/>
    <nd ref="568979217"/>
    <tag k="addr:country" v="US"/>
    <tag k="addr:county" v="Hamilton, TN"/>
    <tag k="addr:interpolation" v="even"/>
    <tag k="addr:postcode" v="37421"/>
    <tag k="addr:state" v="Tennessee"/>
    <tag k="addr:street" v="E Brainerd Rd"/>
    <tag k="attribution" v="tiger"/>
    <tag k="source" v="tiger_import_v0.3_20091116000620"/>
  </way>
  <way id="44880065" version="1" timestamp="2009-11-23T06:31:33Z" uid="103576" user="DiverCTH" changeset="3192966">
    <nd ref="568979207"/>
    <nd ref="568979208"/>
    <nd ref="568979209"/>
    <nd ref="568979223"/>
    <nd ref="568979224"/>
    <nd ref="568979225"/>
    <tag k="addr:country" v="US"/>
    <tag k="addr:county" v="Hamilton, TN"/>
    <tag k="addr:interpolation" v="even"/>
    <tag k="addr:postcode" v="37421"/>
    <tag k="addr:state" v="Tennessee"/>
    <tag k="addr:street" v="E Brainerd Rd"/>
    <tag k="attribution" v="tiger"/>
    <tag k="source" v="tiger_import_v0.3_20091116000618"/>
  </way>
  <way id="44880066" version="1" timestamp="2009-11-23T06:31:33Z" uid="103576" user="DiverCTH" changeset="3192966">
    <nd ref="568979210"/>
    <nd ref="568979212"/>
    <nd ref="568979214"/>
    <tag k="addr:country" v="US"/>
    <tag k="addr:county" v="Hamilton, TN"/>
    <tag k="addr:interpolation" v="odd"/>
    <tag k="addr:postcode" v="37421"/>
    <tag k="addr:state" v="Tennessee"/>
    <tag k="addr:street" v="E Brainerd Rd"/>
    <tag k="attribution" v="tiger"/>
    <tag k="source" v="tiger_import_v0.3_20091116000620"/>
  </way>
  <way id="44880067" version="1" timestamp="2009-11-23T06:31:33Z" uid="103576" user="DiverCTH" changeset="3192966">
    <nd ref="568979310"/>
    <nd ref="568979241"/>
    <nd ref="568979239"/>
    <nd ref="568979242"/>
    <nd ref="568979240"/>
    <nd ref="568979272"/>
    <nd ref="568979273"/>
    <nd ref="568979274"/>
    <nd ref="568979296"/>
    <nd ref="568979297"/>
    <nd ref="568979295"/>
    <nd ref="568979283"/>
    <nd ref="568979285"/>
    <nd ref="568979284"/>
    <nd ref="568979286"/>
    <nd ref="568979267"/>
    <nd ref="568979266"/>
    <nd ref="568979259"/>
    <nd ref="568979257"/>
    <nd ref="568979258"/>
    <nd ref="568979255"/>
    <nd ref="568979256"/>
    <nd ref="568979244"/>
    <nd ref="568979238"/>
    <tag k="addr:country" v="US"/>
    <tag k="addr:county" v="Hamilton, TN"/>
    <tag k="addr:interpolation" v="even"/>
    <tag k="addr:postcode" v="37363"/>
    <tag k="addr:state" v="Tennessee"/>
    <tag k="addr:street" v="Frost Creek Drive"/>
    <tag k="attribution" v="tiger"/>
    <tag k="source" v="tiger_import_v0.3_20091116000618"/>
  </way>
  <way id="44880068" version="1" timestamp="2009-11-23T06:31:34Z" uid="103576" user="DiverCTH" changeset="3192966">
    <nd ref="568979309"/>
    <nd ref="568979303"/>
    <nd ref="568979302"/>
    <nd ref="568979301"/>
    <nd ref="568979300"/>
    <nd ref="568979299"/>
    <nd ref="568979298"/>
    <nd ref="568979269"/>
    <nd ref="568979290"/>
    <nd ref="568979289"/>
    <nd ref="568979288"/>
    <nd ref="568979287"/>
    <nd ref="568979278"/>
    <nd ref="568979277"/>
    <nd ref="568979275"/>
    <nd ref="568979262"/>
    <nd ref="568979260"/>
    <nd ref="568979261"/>
    <nd ref="568979246"/>
    <nd ref="568979247"/>
    <nd ref="568979249"/>
    <nd ref="568979250"/>
    <nd ref="568979243"/>
    <nd ref="568979237"/>
    <tag k="addr:country" v="US"/>
    <tag k="addr:county" v="Hamilton, TN"/>
    <tag k="addr:interpolation" v="odd"/>
    <tag k="addr:postcode" v="37363"/>
    <tag k="addr:state" v="Tennessee"/>
    <tag k="addr:street" v="Frost Creek Drive"/>
    <tag k="attribution" v="tiger"/>
    <tag k="source" v="tiger_import_v0.3_20091116000618"/>
  </way>
  <way id="44880185" version="1" timestamp="2009-11-23T06:46:51Z" uid="103576" user="DiverCTH" changeset="3192966">
    <nd ref="568982363"/>
    <nd ref="568982366"/>
    <nd ref="568982351"/>
    <nd ref="568982355"/>
    <nd ref="568982353"/>
    <nd ref="568982357"/>
    <nd ref="568982333"/>
    <nd ref="568982335"/>
    <nd ref="568982299"/>
    <nd ref="568982295"/>
    <nd ref="568982297"/>
    <nd ref="568982293"/>
    <nd ref="568982194"/>
    <nd ref="568982199"/>
    <nd ref="568982196"/>
    <tag k="addr:country" v="US"/>
    <tag k="addr:county" v="Hamilton, TN"/>
    <tag k="addr:interpolation" v="even"/>
    <tag k="addr:postcode" v="37363"/>
    <tag k="addr:state" v="Tennessee"/>
    <tag k="addr:street" v="Frost Ridge Rd"/>
    <tag k="attribution" v="tiger"/>
    <tag k="source" v="tiger_import_v0.3_20091116000617"/>
  </way>
  <way id="44880186" version="1" timestamp="2009-11-23T06:46:51Z" uid="103576" user="DiverCTH" changeset="3192966">
    <nd ref="568982385"/>
    <nd ref="568982359"/>
    <nd ref="568982361"/>
    <nd ref="568982347"/>
    <nd ref="568982349"/>
    <nd ref="568982329"/>
    <nd ref="568982331"/>
    <nd ref="568982327"/>
    <nd ref="568982301"/>
    <nd ref="568982309"/>
    <nd ref="568982307"/>
    <nd ref="568982305"/>
    <nd ref="568982303"/>
    <nd ref="568982211"/>
    <nd ref="568982208"/>
    <tag k="addr:country" v="US"/>
    <tag k="addr:county" v="Hamilton, TN"/>
    <tag k="addr:interpolation" v="odd"/>
    <tag k="addr:postcode" v="37363"/>
    <tag k="addr:state" v="Tennessee"/>
    <tag k="addr:street" v="Frost Ridge Rd"/>
    <tag k="attribution" v="tiger"/>
    <tag k="source" v="tiger_import_v0.3_20091116000617"/>
  </way>
  <way id="44880187" version="1" timestamp="2009-11-23T06:46:51Z" uid="103576" user="DiverCTH" changeset="3192966">
    <nd ref="568982201"/>
    <nd ref="568982205"/>
    <tag k="addr:country" v="US"/>
    <tag k="addr:county" v="Hamilton, TN"/>
    <tag k="addr:interpolation" v="all"/>
    <tag k="addr:postcode" v="37363"/>
    <tag k="addr:state" v="Tennessee"/>
    <tag k="addr:street" v="Frost Ridge Rd"/>
    <tag k="attribution" v="tiger"/>
    <tag k="source" v="tiger_import_v0.3_20091116000618"/>
  </way>
  <way id="44880188" version="1" timestamp="2009-11-23T06:46:51Z" uid="103576" user="DiverCTH" changeset="3192966">
    <nd ref="568982224"/>
    <nd ref="568982222"/>
    <nd ref="568982234"/>
    <nd ref="568982232"/>
    <nd ref="568982248"/>
    <tag k="addr:country" v="US"/>
    <tag k="addr:county" v="Hamilton, TN"/>
    <tag k="addr:interpolation" v="even"/>
    <tag k="addr:postcode" v="37363"/>
    <tag k="addr:state" v="Tennessee"/>
    <tag k="addr:street" v="Frost Ridge Rd"/>
    <tag k="attribution" v="tiger"/>
    <tag k="source" v="tiger_import_v0.3_20091116000622"/>
  </way>
  <way id="44880189" version="1" timestamp="2009-11-23T06:46:51Z" uid="103576" user="DiverCTH" changeset="3192966">
    <nd ref="568982217"/>
    <nd ref="568982220"/>
    <nd ref="568982229"/>
    <nd ref="568982231"/>
    <nd ref="568982247"/>
    <tag k="addr:country" v="US"/>
    <tag k="addr:county" v="Hamilton, TN"/>
    <tag k="addr:interpolation" v="odd"/>
    <tag k="addr:postcode" v="37363"/>
    <tag k="addr:state" v="Tennessee"/>
    <tag k="addr:street" v="Frost Ridge Rd"/>
    <tag k="attribution" v="tiger"/>
    <tag k="source" v="tiger_import_v0.3_20091116000622"/>
  </way>
  <way id="44880190" version="1" timestamp="2009-11-23T06:46:52Z" uid="103576" user="DiverCTH" changeset="3192966">
    <nd ref="568982254"/>
    <nd ref="568982259"/>
    <nd ref="568982266"/>
    <nd ref="568982271"/>
    <tag k="addr:country" v="US"/>
    <tag k="addr:county" v="Hamilton, TN"/>
    <tag k="addr:interpolation" v="even"/>
    <tag k="addr:postcode" v="37363"/>
    <tag k="addr:state" v="Tennessee"/>
    <tag k="addr:street" v="Sutters Lane"/>
    <tag k="attribution" v="tiger"/>
    <tag k="source" v="tiger_import_v0.3_20091116000621"/>
  </way>
  <way id="44880191" version="1" timestamp="2009-11-23T06:46:52Z" uid="103576" user="DiverCTH" changeset="3192966">
    <nd ref="568982251"/>
    <nd ref="568982257"/>
    <nd ref="568982263"/>
    <nd ref="568982268"/>
    <tag k="addr:country" v="US"/>
    <tag k="addr:county" v="Hamilton, TN"/>
    <tag k="addr:interpolation" v="odd"/>
    <tag k="addr:postcode" v="37363"/>
    <tag k="addr:state" v="Tennessee"/>
    <tag k="addr:street" v="Sutters Lane"/>
    <tag k="attribution" v="tiger"/>
    <tag k="source" v="tiger_import_v0.3_20091116000621"/>
  </way>
  <way id="44880192" version="1" timestamp="2009-11-23T06:46:52Z" uid="103576" user="DiverCTH" changeset="3192966">
    <nd ref="568982245"/>
    <nd ref="568982246"/>
    <nd ref="568982274"/>
    <nd ref="568982278"/>
    <nd ref="568982276"/>
    <nd ref="568982280"/>
    <nd ref="568982421"/>
    <nd ref="568982425"/>
    <nd ref="568982423"/>
    <nd ref="568982383"/>
    <nd ref="568982409"/>
    <nd ref="568982393"/>
    <tag k="addr:country" v="US"/>
    <tag k="addr:county" v="Hamilton, TN"/>
    <tag k="addr:interpolation" v="odd"/>
    <tag k="addr:postcode" v="37363"/>
    <tag k="addr:state" v="Tennessee"/>
    <tag k="addr:street" v="Frost Ridge Rd"/>
    <tag k="attribution" v="tiger"/>
    <tag k="source" v="tiger_import_v0.3_20091116000617"/>
  </way>
  <way id="44880193" version="1" timestamp="2009-11-23T06:46:52Z" uid="103576" user="DiverCTH" changeset="3192966">
    <nd ref="568982249"/>
    <nd ref="568982250"/>
    <nd ref="568982241"/>
    <nd ref="568982244"/>
    <nd ref="568982282"/>
    <nd ref="568982285"/>
    <nd ref="568982419"/>
    <nd ref="568982417"/>
    <nd ref="568982378"/>
    <nd ref="568982381"/>
    <nd ref="568982368"/>
    <nd ref="568982370"/>
    <tag k="addr:country" v="US"/>
    <tag k="addr:county" v="Hamilton, TN"/>
    <tag k="addr:interpolation" v="even"/>
    <tag k="addr:postcode" v="37363"/>
    <tag k="addr:state" v="Tennessee"/>
    <tag k="addr:street" v="Frost Ridge Rd"/>
    <tag k="attribution" v="tiger"/>
    <tag k="source" v="tiger_import_v0.3_20091116000617"/>
  </way>
  <way id="44880194" version="1" timestamp="2009-11-23T06:46:52Z" uid="103576" user="DiverCTH" changeset="3192966">
    <nd ref="568982392"/>
    <nd ref="568982342"/>
    <nd ref="568982339"/>
    <tag k="addr:country" v="US"/>
    <tag k="addr:county" v="Hamilton, TN"/>
    <tag k="addr:interpolation" v="even"/>
    <tag k="addr:postcode" v="37363"/>
    <tag k="addr:state" v="Tennessee"/>
    <tag k="addr:street" v="Becky Court"/>
    <tag k="attribution" v="tiger"/>
    <tag k="source" v="tiger_import_v0.3_20091116000617"/>
  </way>
  <way id="44880195" version="1" timestamp="2009-11-23T06:46:52Z" uid="103576" user="DiverCTH" changeset="3192966">
    <nd ref="568982375"/>
    <nd ref="568982373"/>
    <nd ref="568982344"/>
    <tag k="addr:country" v="US"/>
    <tag k="addr:county" v="Hamilton, TN"/>
    <tag k="addr:interpolation" v="odd"/>
    <tag k="addr:postcode" v="37363"/>
    <tag k="addr:state" v="Tennessee"/>
    <tag k="addr:street" v="Becky Court"/>
    <tag k="attribution" v="tiger"/>
    <tag k="source" v="tiger_import_v0.3_20091116000617"/>
  </way>
  <way id="44880196" version="1" timestamp="2009-11-23T06:46:52Z" uid="103576" user="DiverCTH" changeset="3192966">
    <nd ref="568982395"/>
    <nd ref="568982396"/>
    <nd ref="568982399"/>
    <nd ref="568982401"/>
    <nd ref="568982412"/>
    <nd ref="568982414"/>
    <tag k="addr:country" v="US"/>
    <tag k="addr:county" v="Hamilton, TN"/>
    <tag k="addr:interpolation" v="odd"/>
    <tag k="addr:postcode" v="37363"/>
    <tag k="addr:state" v="Tennessee"/>
    <tag k="addr:street" v="Silo"/>
    <tag k="attribution" v="tiger"/>
    <tag k="source" v="tiger_import_v0.3_20091116000619"/>
  </way>
  <way id="44880197" version="1" timestamp="2009-11-23T06:46:52Z" uid="103576" user="DiverCTH" changeset="3192966">
    <nd ref="568982389"/>
    <nd ref="568982391"/>
    <nd ref="568982397"/>
    <nd ref="568982403"/>
    <nd ref="568982431"/>
    <nd ref="568982434"/>
    <tag k="addr:country" v="US"/>
    <tag k="addr:county" v="Hamilton, TN"/>
    <tag k="addr:interpolation" v="even"/>
    <tag k="addr:postcode" v="37363"/>
    <tag k="addr:state" v="Tennessee"/>
    <tag k="addr:street" v="Silo"/>
    <tag k="attribution" v="tiger"/>
    <tag k="source" v="tiger_import_v0.3_20091116000619"/>
  </way>
  <way id="44880198" version="1" timestamp="2009-11-23T06:46:52Z" uid="103576" user="DiverCTH" changeset="3192966">
    <nd ref="568982447"/>
    <nd ref="568982441"/>
    <nd ref="568982452"/>
    <nd ref="568982454"/>
    <tag k="addr:country" v="US"/>
    <tag k="addr:county" v="Hamilton, TN"/>
    <tag k="addr:interpolation" v="odd"/>
    <tag k="addr:postcode" v="37363"/>
    <tag k="addr:state" v="Tennessee"/>
    <tag k="addr:street" v="Ooltewah Ringgold Rd"/>
    <tag k="attribution" v="tiger"/>
    <tag k="source" v="tiger_import_v0.3_20091116000623"/>
  </way>
  <way id="44880199" version="1" timestamp="2009-11-23T06:46:53Z" uid="103576" user="DiverCTH" changeset="3192966">
    <nd ref="568982444"/>
    <nd ref="568982439"/>
    <nd ref="568982450"/>
    <nd ref="568982457"/>
    <tag k="addr:country" v="US"/>
    <tag k="addr:county" v="Hamilton, TN"/>
    <tag k="addr:interpolation" v="even"/>
    <tag k="addr:postcode" v="37363"/>
    <tag k="addr:state" v="Tennessee"/>
    <tag k="addr:street" v="Ooltewah Ringgold Rd"/>
    <tag k="attribution" v="tiger"/>
    <tag k="source" v="tiger_import_v0.3_20091116000623"/>
  </way>
  <way id="44880416" version="2" timestamp="2010-03-28T11:26:31Z" uid="20587" user="balrog-kun" changeset="4254597">
    <nd ref="53027002"/>
    <nd ref="53026759"/>
    <nd ref="53129822"/>
    <nd ref="53103635"/>
    <tag k="highway" v="residential"/>
    <tag k="name" v="Gateway Boulevard"/>
    <tag k="tiger:cfcc" v="A41"/>
    <tag k="tiger:county" v="Alameda, CA"/>
    <tag k="tiger:name_base" v="Gateway"/>
    <tag k="tiger:name_type" v="Blvd"/>
    <tag k="tiger:reviewed" v="no"/>
    <tag k="tiger:separated" v="no"/>
    <tag k="tiger:source" v="tiger_import_dch_v0.6_20070809"/>
    <tag k="tiger:tlid" v="124989768:125057610:125057611:124989790"/>
    <tag k="tiger:zip_left" v="94538"/>
    <tag k="tiger:zip_right" v="94538"/>
  </way>
  <way id="44880416" version="3" timestamp="2010-05-07T18:40:36Z" uid="14293" user="dahveed76" changeset="4632480">
    <nd ref="53027002"/>
    <nd ref="53026759"/>
    <nd ref="53129822"/>
    <nd ref="725430938"/>
    <nd ref="53103635"/>
    <tag k="highway" v="residential"/>
    <tag k="name" v="Gateway Boulevard"/>
    <tag k="tiger:cfcc" v="A41"/>
    <tag k="tiger:county" v="Alameda, CA"/>
    <tag k="tiger:name_base" v="Gateway"/>
    <tag k="tiger:name_type" v="Blvd"/>
    <tag k="tiger:reviewed" v="no"/>
    <tag k="tiger:separated" v="no"/>
    <tag k="tiger:source" v="tiger_import_dch_v0.6_20070809"/>
    <tag k="tiger:tlid" v="124989768:125057610:125057611:124989790"/>
    <tag k="tiger:zip_left" v="94538"/>
    <tag k="tiger:zip_right" v="94538"/>
  </way>
  <way id="44880416" version="4" timestamp="2010-05-07T18:40:42Z" uid="14293" user="dahveed76" changeset="4632480">
    <nd ref="53027002"/>
    <nd ref="53026759"/>
    <nd ref="53129822"/>
    <nd ref="725431052"/>
    <nd ref="725430938"/>
    <nd ref="53103635"/>
    <tag k="highway" v="residential"/>
    <tag k="name" v="Gateway Boulevard"/>
    <tag k="tiger:cfcc" v="A41"/>
    <tag k="tiger:county" v="Alameda, CA"/>
    <tag k="tiger:name_base" v="Gateway"/>
    <tag k="tiger:name_type" v="Blvd"/>
    <tag k="tiger:reviewed" v="no"/>
    <tag k="tiger:separated" v="no"/>
    <tag k="tiger:source" v="tiger_import_dch_v0.6_20070809"/>
    <tag k="tiger:tlid" v="124989768:125057610:125057611:124989790"/>
    <tag k="tiger:zip_left" v="94538"/>
    <tag k="tiger:zip_right" v="94538"/>
  </way>
  <way id="44880416" version="5" timestamp="2010-05-07T18:40:53Z" uid="14293" user="dahveed76" changeset="4632480">
    <nd ref="53027002"/>
    <nd ref="53026759"/>
    <nd ref="53129822"/>
    <nd ref="725431052"/>
    <tag k="highway" v="residential"/>
    <tag k="name" v="Gateway Boulevard"/>
    <tag k="tiger:cfcc" v="A41"/>
    <tag k="tiger:county" v="Alameda, CA"/>
    <tag k="tiger:name_base" v="Gateway"/>
    <tag k="tiger:name_type" v="Blvd"/>
    <tag k="tiger:reviewed" v="no"/>
    <tag k="tiger:separated" v="no"/>
    <tag k="tiger:source" v="tiger_import_dch_v0.6_20070809"/>
    <tag k="tiger:tlid" v="124989768:125057610:125057611:124989790"/>
    <tag k="tiger:zip_left" v="94538"/>
    <tag k="tiger:zip_right" v="94538"/>
  </way>
  <way id="44880416" version="6" timestamp="2010-12-27T22:06:02Z" uid="201724" user="mk408" changeset="6782801">
    <nd ref="53027002"/>
    <nd ref="53026759"/>
    <nd ref="53129822"/>
    <nd ref="725431052"/>
    <tag k="highway" v="tertiary"/>
    <tag k="name" v="Gateway Boulevard"/>
    <tag k="tiger:county" v="Alameda, CA"/>
    <tag k="tiger:name_base" v="Gateway"/>
    <tag k="tiger:name_type" v="Blvd"/>
    <tag k="tiger:zip_left" v="94538"/>
    <tag k="tiger:zip_right" v="94538"/>
  </way>
  <way id="44880416" version="7" timestamp="2012-03-24T17:07:47Z" uid="153669" user="dchiles" changeset="11086556"/>
  <way id="44880418" version="1" timestamp="2009-11-23T06:49:25Z" uid="103576" user="DiverCTH" changeset="3192966">
    <nd ref="568983616"/>
    <nd ref="568983618"/>
    <nd ref="568983612"/>
    <nd ref="568983611"/>
    <nd ref="568983608"/>
    <nd ref="568983613"/>
    <nd ref="568983609"/>
    <tag k="addr:country" v="US"/>
    <tag k="addr:county" v="Hamilton, TN"/>
    <tag k="addr:interpolation" v="all"/>
    <tag k="addr:postcode" v="37363"/>
    <tag k="addr:state" v="Tennessee"/>
    <tag k="addr:street" v="Apple Orchard Trl"/>
    <tag k="attribution" v="tiger"/>
    <tag k="source" v="tiger_import_v0.3_20091116000619"/>
  </way>
  <way id="44880439" version="3" timestamp="2010-03-28T11:26:31Z" uid="20587" user="balrog-kun" changeset="4254597">
    <nd ref="53103639"/>
    <nd ref="53103640"/>
    <nd ref="53103641"/>
    <nd ref="53103643"/>
    <nd ref="53103645"/>
    <nd ref="53103647"/>
    <nd ref="53103650"/>
    <nd ref="53103652"/>
    <nd ref="53103653"/>
    <tag k="highway" v="residential"/>
    <tag k="name" v="Lakeview Boulevard"/>
    <tag k="tiger:cfcc" v="A41"/>
    <tag k="tiger:county" v="Alameda, CA"/>
    <tag k="tiger:name_base" v="Lakeview"/>
    <tag k="tiger:name_type" v="Blvd"/>
    <tag k="tiger:reviewed" v="no"/>
    <tag k="tiger:separated" v="no"/>
    <tag k="tiger:source" v="tiger_import_dch_v0.6_20070809"/>
    <tag k="tiger:tlid" v="125037598:124989767:124989769:125057613:125057614"/>
    <tag k="tiger:zip_left" v="94538"/>
    <tag k="tiger:zip_right" v="94538"/>
  </way>
  <way id="44880439" version="4" timestamp="2010-05-07T18:38:03Z" uid="14293" user="dahveed76" changeset="4632480">
    <nd ref="53027039"/>
    <nd ref="53103600"/>
    <nd ref="53103601"/>
    <nd ref="53103603"/>
    <nd ref="725413122"/>
    <nd ref="53103609"/>
    <nd ref="725413123"/>
    <nd ref="725413124"/>
    <nd ref="725413125"/>
    <nd ref="725413126"/>
    <nd ref="725413128"/>
    <nd ref="53103613"/>
    <nd ref="53103620"/>
    <nd ref="53103622"/>
    <nd ref="725412805"/>
    <nd ref="53103623"/>
    <nd ref="53103625"/>
    <nd ref="53103626"/>
    <nd ref="53103628"/>
    <nd ref="53103635"/>
    <nd ref="53103637"/>
    <nd ref="725428940"/>
    <nd ref="725428943"/>
    <nd ref="725428947"/>
    <nd ref="725428953"/>
    <nd ref="53103639"/>
    <nd ref="53103640"/>
    <nd ref="53103641"/>
    <nd ref="53103643"/>
    <nd ref="53103645"/>
    <nd ref="53103647"/>
    <nd ref="53103650"/>
    <nd ref="53103652"/>
    <nd ref="53103653"/>
    <tag k="highway" v="residential"/>
    <tag k="name" v="Lakeview Boulevard"/>
    <tag k="tiger:cfcc" v="A41"/>
    <tag k="tiger:county" v="Alameda, CA"/>
    <tag k="tiger:name_base" v="Lakeview"/>
    <tag k="tiger:name_type" v="Blvd"/>
    <tag k="tiger:reviewed" v="no"/>
    <tag k="tiger:separated" v="no"/>
    <tag k="tiger:source" v="tiger_import_dch_v0.6_20070809"/>
    <tag k="tiger:tlid" v="125037598:124989767:124989769:125057613:125057614"/>
    <tag k="tiger:zip_left" v="94538"/>
    <tag k="tiger:zip_right" v="94538"/>
  </way>
  <way id="44880439" version="5" timestamp="2010-05-07T18:39:45Z" uid="14293" user="dahveed76" changeset="4632480">
    <nd ref="53027039"/>
    <nd ref="53103600"/>
    <nd ref="53103601"/>
    <nd ref="53103603"/>
    <nd ref="725413122"/>
    <nd ref="53103609"/>
    <nd ref="725413123"/>
    <nd ref="725413124"/>
    <nd ref="725413125"/>
    <nd ref="725413126"/>
    <nd ref="725413128"/>
    <nd ref="53103613"/>
    <nd ref="53103620"/>
    <nd ref="53103622"/>
    <nd ref="725412805"/>
    <nd ref="53103623"/>
    <nd ref="53103625"/>
    <nd ref="53103626"/>
    <nd ref="53103628"/>
    <nd ref="53103635"/>
    <nd ref="53103637"/>
    <nd ref="725428940"/>
    <nd ref="725428943"/>
    <nd ref="725428947"/>
    <nd ref="725428953"/>
    <nd ref="53103639"/>
    <nd ref="725429807"/>
    <nd ref="725429808"/>
    <nd ref="725429809"/>
    <nd ref="725429810"/>
    <nd ref="53103640"/>
    <nd ref="53103641"/>
    <nd ref="53103643"/>
    <nd ref="53103645"/>
    <nd ref="53103647"/>
    <nd ref="53103653"/>
    <tag k="highway" v="residential"/>
    <tag k="name" v="Lakeview Boulevard"/>
    <tag k="tiger:cfcc" v="A41"/>
    <tag k="tiger:county" v="Alameda, CA"/>
    <tag k="tiger:name_base" v="Lakeview"/>
    <tag k="tiger:name_type" v="Blvd"/>
    <tag k="tiger:reviewed" v="no"/>
    <tag k="tiger:separated" v="no"/>
    <tag k="tiger:source" v="tiger_import_dch_v0.6_20070809"/>
    <tag k="tiger:tlid" v="125037598:124989767:124989769:125057613:125057614"/>
    <tag k="tiger:zip_left" v="94538"/>
    <tag k="tiger:zip_right" v="94538"/>
  </way>
  <way id="44880439" version="6" timestamp="2010-05-07T18:40:40Z" uid="14293" user="dahveed76" changeset="4632480">
    <nd ref="53027039"/>
    <nd ref="53103600"/>
    <nd ref="53103601"/>
    <nd ref="53103603"/>
    <nd ref="725413122"/>
    <nd ref="53103609"/>
    <nd ref="725413123"/>
    <nd ref="725413124"/>
    <nd ref="725413125"/>
    <nd ref="725413126"/>
    <nd ref="725413128"/>
    <nd ref="53103613"/>
    <nd ref="53103620"/>
    <nd ref="53103622"/>
    <nd ref="725412805"/>
    <nd ref="53103623"/>
    <nd ref="53103625"/>
    <nd ref="53103626"/>
    <nd ref="53103628"/>
    <nd ref="725431042"/>
    <nd ref="53103635"/>
    <nd ref="53103637"/>
    <nd ref="725428940"/>
    <nd ref="725428943"/>
    <nd ref="725428947"/>
    <nd ref="725428953"/>
    <nd ref="53103639"/>
    <nd ref="725429807"/>
    <nd ref="725429808"/>
    <nd ref="725429809"/>
    <nd ref="725429810"/>
    <nd ref="53103640"/>
    <nd ref="53103641"/>
    <nd ref="53103643"/>
    <nd ref="53103645"/>
    <nd ref="53103647"/>
    <nd ref="53103653"/>
    <tag k="highway" v="residential"/>
    <tag k="name" v="Lakeview Boulevard"/>
    <tag k="tiger:cfcc" v="A41"/>
    <tag k="tiger:county" v="Alameda, CA"/>
    <tag k="tiger:name_base" v="Lakeview"/>
    <tag k="tiger:name_type" v="Blvd"/>
    <tag k="tiger:reviewed" v="no"/>
    <tag k="tiger:separated" v="no"/>
    <tag k="tiger:source" v="tiger_import_dch_v0.6_20070809"/>
    <tag k="tiger:tlid" v="125037598:124989767:124989769:125057613:125057614"/>
    <tag k="tiger:zip_left" v="94538"/>
    <tag k="tiger:zip_right" v="94538"/>
  </way>
  <way id="44880439" version="7" timestamp="2010-05-07T18:41:27Z" uid="14293" user="dahveed76" changeset="4632480">
    <nd ref="53027039"/>
    <nd ref="53103600"/>
    <nd ref="53103601"/>
    <nd ref="53103603"/>
    <nd ref="725413122"/>
    <nd ref="53103609"/>
    <nd ref="725413123"/>
    <nd ref="725413124"/>
    <nd ref="725413125"/>
    <nd ref="725413126"/>
    <nd ref="725413128"/>
    <nd ref="53103613"/>
    <nd ref="53103620"/>
    <nd ref="53103622"/>
    <nd ref="725412805"/>
    <nd ref="53103623"/>
    <nd ref="725431306"/>
    <nd ref="725431307"/>
    <nd ref="53103625"/>
    <nd ref="53103626"/>
    <nd ref="53103628"/>
    <tag k="highway" v="residential"/>
    <tag k="name" v="Lakeview Boulevard"/>
    <tag k="tiger:cfcc" v="A41"/>
    <tag k="tiger:county" v="Alameda, CA"/>
    <tag k="tiger:name_base" v="Lakeview"/>
    <tag k="tiger:name_type" v="Blvd"/>
    <tag k="tiger:reviewed" v="no"/>
    <tag k="tiger:separated" v="no"/>
    <tag k="tiger:source" v="tiger_import_dch_v0.6_20070809"/>
    <tag k="tiger:tlid" v="125037598:124989767:124989769:125057613:125057614"/>
    <tag k="tiger:zip_left" v="94538"/>
    <tag k="tiger:zip_right" v="94538"/>
  </way>
  <way id="44880439" version="8" timestamp="2010-05-07T18:41:54Z" uid="14293" user="dahveed76" changeset="4632480">
    <nd ref="53027039"/>
    <nd ref="53103600"/>
    <nd ref="53103601"/>
    <nd ref="53103603"/>
    <nd ref="725413122"/>
    <nd ref="53103609"/>
    <nd ref="725413123"/>
    <nd ref="725413124"/>
    <nd ref="725413125"/>
    <nd ref="725413126"/>
    <nd ref="725413128"/>
    <nd ref="53103613"/>
    <nd ref="53103620"/>
    <nd ref="53103622"/>
    <nd ref="725412805"/>
    <nd ref="53103623"/>
    <nd ref="725431306"/>
    <tag k="highway" v="residential"/>
    <tag k="name" v="Lakeview Boulevard"/>
    <tag k="tiger:cfcc" v="A41"/>
    <tag k="tiger:county" v="Alameda, CA"/>
    <tag k="tiger:name_base" v="Lakeview"/>
    <tag k="tiger:name_type" v="Blvd"/>
    <tag k="tiger:reviewed" v="no"/>
    <tag k="tiger:separated" v="no"/>
    <tag k="tiger:source" v="tiger_import_dch_v0.6_20070809"/>
    <tag k="tiger:tlid" v="125037598:124989767:124989769:125057613:125057614"/>
    <tag k="tiger:zip_left" v="94538"/>
    <tag k="tiger:zip_right" v="94538"/>
  </way>
  <way id="44880439" version="9" timestamp="2010-05-07T18:42:37Z" uid="14293" user="dahveed76" changeset="4632480">
    <nd ref="53027039"/>
    <nd ref="53103600"/>
    <nd ref="53103601"/>
    <nd ref="53103603"/>
    <nd ref="725413122"/>
    <nd ref="53103609"/>
    <nd ref="725413123"/>
    <nd ref="725413124"/>
    <nd ref="725413125"/>
    <nd ref="725413126"/>
    <nd ref="725413128"/>
    <nd ref="53103613"/>
    <nd ref="53103620"/>
    <nd ref="53103622"/>
    <nd ref="725412805"/>
    <nd ref="725431539"/>
    <nd ref="725431540"/>
    <nd ref="53103623"/>
    <nd ref="725431306"/>
    <tag k="highway" v="residential"/>
    <tag k="name" v="Lakeview Boulevard"/>
    <tag k="tiger:cfcc" v="A41"/>
    <tag k="tiger:county" v="Alameda, CA"/>
    <tag k="tiger:name_base" v="Lakeview"/>
    <tag k="tiger:name_type" v="Blvd"/>
    <tag k="tiger:reviewed" v="no"/>
    <tag k="tiger:separated" v="no"/>
    <tag k="tiger:source" v="tiger_import_dch_v0.6_20070809"/>
    <tag k="tiger:tlid" v="125037598:124989767:124989769:125057613:125057614"/>
    <tag k="tiger:zip_left" v="94538"/>
    <tag k="tiger:zip_right" v="94538"/>
  </way>
  <way id="44880439" version="10" timestamp="2010-12-27T22:05:16Z" uid="201724" user="mk408" changeset="6782801">
    <nd ref="53027039"/>
    <nd ref="53103600"/>
    <nd ref="53103601"/>
    <nd ref="53103603"/>
    <nd ref="725413122"/>
    <nd ref="53103609"/>
    <nd ref="725413123"/>
    <nd ref="725413124"/>
    <nd ref="725413125"/>
    <nd ref="725413126"/>
    <nd ref="725413128"/>
    <nd ref="53103613"/>
    <nd ref="53103620"/>
    <nd ref="53103622"/>
    <nd ref="725412805"/>
    <nd ref="725431539"/>
    <nd ref="725431540"/>
    <nd ref="53103623"/>
    <nd ref="725431306"/>
    <tag k="highway" v="tertiary"/>
    <tag k="name" v="Lakeview Boulevard"/>
    <tag k="tiger:county" v="Alameda, CA"/>
    <tag k="tiger:name_base" v="Lakeview"/>
    <tag k="tiger:name_type" v="Blvd"/>
    <tag k="tiger:zip_left" v="94538"/>
    <tag k="tiger:zip_right" v="94538"/>
  </way>
  <way id="44880439" version="11" timestamp="2011-06-09T07:59:50Z" uid="14293" user="JuxTPosition" changeset="8386021"/>
  <way id="44880440" version="4" timestamp="2010-03-28T11:26:31Z" uid="20587" user="balrog-kun" changeset="4254597">
    <nd ref="53103653"/>
    <nd ref="568983966"/>
    <nd ref="569057048"/>
    <nd ref="568983696"/>
    <tag k="highway" v="residential"/>
    <tag k="name" v="Lakeview Boulevard"/>
    <tag k="oneway" v="yes"/>
    <tag k="tiger:cfcc" v="A41"/>
    <tag k="tiger:county" v="Alameda, CA"/>
    <tag k="tiger:name_base" v="Lakeview"/>
    <tag k="tiger:name_type" v="Blvd"/>
    <tag k="tiger:reviewed" v="no"/>
    <tag k="tiger:separated" v="no"/>
    <tag k="tiger:source" v="tiger_import_dch_v0.6_20070809"/>
    <tag k="tiger:tlid" v="125037598:124989767:124989769:125057613:125057614"/>
    <tag k="tiger:zip_left" v="94538"/>
    <tag k="tiger:zip_right" v="94538"/>
  </way>
  <way id="44880440" version="5" timestamp="2010-12-27T22:05:31Z" uid="201724" user="mk408" changeset="6782801">
    <nd ref="53103653"/>
    <nd ref="568983966"/>
    <nd ref="569057048"/>
    <nd ref="568983696"/>
    <tag k="highway" v="tertiary"/>
    <tag k="name" v="Lakeview Boulevard"/>
    <tag k="oneway" v="yes"/>
    <tag k="tiger:county" v="Alameda, CA"/>
    <tag k="tiger:name_base" v="Lakeview"/>
    <tag k="tiger:name_type" v="Blvd"/>
    <tag k="tiger:zip_left" v="94538"/>
    <tag k="tiger:zip_right" v="94538"/>
  </way>
  <way id="44880440" version="6" timestamp="2011-06-09T07:59:50Z" uid="14293" user="JuxTPosition" changeset="8386021"/>
  <way id="44880449" version="2" timestamp="2009-12-07T16:47:39Z" uid="23543" user="jkjk" changeset="3317294">
    <nd ref="568985453"/>
    <nd ref="568985454"/>
    <nd ref="568985433"/>
    <nd ref="568985434"/>
    <nd ref="568985435"/>
    <nd ref="568985425"/>
    <tag k="highway" v="proposed"/>
    <tag k="proposed" v="primary_link"/>
  </way>
  <way id="44880450" version="2" timestamp="2009-12-07T16:47:40Z" uid="23543" user="jkjk" changeset="3317294">
    <nd ref="539569236"/>
    <nd ref="568985437"/>
    <nd ref="568985455"/>
    <nd ref="568985456"/>
    <tag k="highway" v="proposed"/>
    <tag k="proposed" v="primary_link"/>
  </way>
  <way id="44880450" version="3" timestamp="2011-08-03T05:17:41Z" uid="171133" user="xLocutus" changeset="8906830">
    <nd ref="539569236"/>
    <nd ref="568985437"/>
    <nd ref="568985455"/>
    <nd ref="568985456"/>
    <nd ref="1383969525"/>
    <tag k="highway" v="proposed"/>
    <tag k="proposed" v="primary_link"/>
  </way>
  <way id="44880451" version="2" timestamp="2009-12-07T16:47:41Z" uid="23543" user="jkjk" changeset="3317294">
    <nd ref="539569235"/>
    <nd ref="568985438"/>
    <nd ref="568985439"/>
    <nd ref="568985440"/>
    <nd ref="568985426"/>
    <nd ref="568985429"/>
    <nd ref="568985430"/>
    <tag k="highway" v="proposed"/>
    <tag k="proposed" v="primary_link"/>
  </way>
  <way id="44880452" version="2" timestamp="2009-12-07T16:47:39Z" uid="23543" user="jkjk" changeset="3317294">
    <nd ref="568985440"/>
    <nd ref="568985441"/>
    <nd ref="568985451"/>
    <nd ref="568985452"/>
    <nd ref="568985457"/>
    <tag k="highway" v="proposed"/>
    <tag k="proposed" v="primary_link"/>
  </way>
  <way id="44880453" version="2" timestamp="2009-12-07T16:47:37Z" uid="23543" user="jkjk" changeset="3317294">
    <nd ref="568985417"/>
    <nd ref="568985415"/>
    <nd ref="568985402"/>
    <nd ref="568985405"/>
    <nd ref="568985406"/>
    <nd ref="568985408"/>
    <nd ref="568985390"/>
    <nd ref="568985392"/>
    <nd ref="539569224"/>
    <tag k="highway" v="proposed"/>
    <tag k="proposed" v="primary_link"/>
  </way>
  <way id="44880454" version="2" timestamp="2009-12-07T16:47:38Z" uid="23543" user="jkjk" changeset="3317294">
    <nd ref="568985390"/>
    <nd ref="568985393"/>
    <nd ref="568985395"/>
    <tag k="highway" v="proposed"/>
    <tag k="proposed" v="primary_link"/>
  </way>
  <way id="44880455" version="2" timestamp="2009-12-07T16:47:38Z" uid="23543" user="jkjk" changeset="3317294">
    <nd ref="568985388"/>
    <nd ref="568985410"/>
    <nd ref="568985411"/>
    <nd ref="568985412"/>
    <tag k="highway" v="proposed"/>
    <tag k="proposed" v="primary_link"/>
  </way>
  <way id="44880767" version="1" timestamp="2009-11-23T06:58:23Z" uid="103576" user="DiverCTH" changeset="3192966">
    <nd ref="568990303"/>
    <nd ref="568990301"/>
    <nd ref="568990299"/>
    <nd ref="568990370"/>
    <nd ref="568990366"/>
    <tag k="addr:country" v="US"/>
    <tag k="addr:county" v="Hamilton, TN"/>
    <tag k="addr:interpolation" v="even"/>
    <tag k="addr:postcode" v="37363"/>
    <tag k="addr:state" v="Tennessee"/>
    <tag k="addr:street" v="Ben Matthews Road"/>
    <tag k="attribution" v="tiger"/>
    <tag k="source" v="tiger_import_v0.3_20091116000622"/>
  </way>
  <way id="44880768" version="1" timestamp="2009-11-23T06:58:23Z" uid="103576" user="DiverCTH" changeset="3192966">
    <nd ref="568990314"/>
    <nd ref="568990313"/>
    <nd ref="568990311"/>
    <nd ref="568990382"/>
    <nd ref="568990377"/>
    <tag k="addr:country" v="US"/>
    <tag k="addr:county" v="Hamilton, TN"/>
    <tag k="addr:interpolation" v="odd"/>
    <tag k="addr:postcode" v="37363"/>
    <tag k="addr:state" v="Tennessee"/>
    <tag k="addr:street" v="Ben Matthews Road"/>
    <tag k="attribution" v="tiger"/>
    <tag k="source" v="tiger_import_v0.3_20091116000622"/>
  </way>
  <way id="44880769" version="1" timestamp="2009-11-23T06:58:24Z" uid="103576" user="DiverCTH" changeset="3192966">
    <nd ref="568990295"/>
    <nd ref="568990325"/>
    <nd ref="568990328"/>
    <nd ref="568990327"/>
    <nd ref="568990332"/>
    <nd ref="568990330"/>
    <nd ref="568990337"/>
    <nd ref="568990394"/>
    <nd ref="568990372"/>
    <nd ref="568990374"/>
    <tag k="addr:country" v="US"/>
    <tag k="addr:county" v="Hamilton, TN"/>
    <tag k="addr:interpolation" v="odd"/>
    <tag k="addr:postcode" v="37363"/>
    <tag k="addr:state" v="Tennessee"/>
    <tag k="addr:street" v="Leslie Sandige Drive"/>
    <tag k="attribution" v="tiger"/>
    <tag k="source" v="tiger_import_v0.3_20091116000621"/>
  </way>
  <way id="44880770" version="1" timestamp="2009-11-23T06:58:24Z" uid="103576" user="DiverCTH" changeset="3192966">
    <nd ref="568990305"/>
    <nd ref="568990343"/>
    <nd ref="568990339"/>
    <nd ref="568990346"/>
    <nd ref="568990341"/>
    <nd ref="568990353"/>
    <nd ref="568990348"/>
    <nd ref="568990397"/>
    <nd ref="568990387"/>
    <nd ref="568990384"/>
    <tag k="addr:country" v="US"/>
    <tag k="addr:county" v="Hamilton, TN"/>
    <tag k="addr:interpolation" v="even"/>
    <tag k="addr:postcode" v="37363"/>
    <tag k="addr:state" v="Tennessee"/>
    <tag k="addr:street" v="Leslie Sandige Drive"/>
    <tag k="attribution" v="tiger"/>
    <tag k="source" v="tiger_import_v0.3_20091116000621"/>
  </way>
  <way id="44880772" version="2" timestamp="2010-07-09T06:57:33Z" uid="74617" user="JohnSmith" changeset="5171447">
    <nd ref="568990557"/>
    <nd ref="568990559"/>
    <nd ref="568990561"/>
    <nd ref="568990563"/>
    <nd ref="568990568"/>
    <tag k="highway" v="residential"/>
    <tag k="maxspeed" v="50"/>
    <tag k="maxspeed:source" v="default residential speed limit in Australia"/>
    <tag k="name" v="Anne Marie Court"/>
    <tag k="surface" v="asphalt"/>
  </way>
  <way id="44880772" version="3" timestamp="2010-10-10T05:28:48Z" uid="328538" user="o&apos;cholio" changeset="5998836">
    <nd ref="568990557"/>
    <nd ref="568990559"/>
    <nd ref="568990561"/>
    <nd ref="568990563"/>
    <nd ref="568990568"/>
    <nd ref="943230740"/>
    <nd ref="943230741"/>
    <nd ref="943230742"/>
    <nd ref="943230743"/>
    <nd ref="943230744"/>
    <nd ref="263228960"/>
    <tag k="highway" v="residential"/>
    <tag k="maxspeed" v="50"/>
    <tag k="maxspeed:source" v="default residential speed limit in Australia"/>
    <tag k="name" v="Anne Marie Court"/>
    <tag k="surface" v="asphalt"/>
  </way>
  <way id="44880772" version="4" timestamp="2010-10-11T22:58:51Z" uid="328538" user="o&apos;cholio" changeset="6016844">
    <nd ref="568990557"/>
    <nd ref="568990559"/>
    <nd ref="568990561"/>
    <nd ref="568990563"/>
    <nd ref="568990568"/>
    <nd ref="943230740"/>
    <nd ref="943230741"/>
    <nd ref="943230742"/>
    <nd ref="943230743"/>
    <nd ref="945478883"/>
    <nd ref="943230744"/>
    <nd ref="263228960"/>
    <tag k="highway" v="residential"/>
    <tag k="maxspeed" v="50"/>
    <tag k="maxspeed:source" v="default residential speed limit in Australia"/>
    <tag k="name" v="Anne Marie Court"/>
    <tag k="surface" v="asphalt"/>
  </way>
  <way id="44880772" version="5" timestamp="2011-04-02T12:22:19Z" uid="238041" user="marquisite" changeset="7743626">
    <nd ref="568990557"/>
    <nd ref="568990559"/>
    <nd ref="568990561"/>
    <nd ref="568990563"/>
    <nd ref="568990568"/>
    <nd ref="1229155437"/>
    <nd ref="943230740"/>
    <nd ref="1229155144"/>
    <nd ref="943230741"/>
    <nd ref="1229155392"/>
    <nd ref="943230742"/>
    <nd ref="1229155580"/>
    <nd ref="943230743"/>
    <nd ref="945478883"/>
    <nd ref="943230744"/>
    <nd ref="263228960"/>
    <tag k="highway" v="residential"/>
    <tag k="maxspeed" v="50"/>
    <tag k="maxspeed:source" v="default residential speed limit in Australia"/>
    <tag k="name" v="Anne Marie Court"/>
    <tag k="surface" v="asphalt"/>
  </way>
  <way id="44880772" version="6" timestamp="2012-01-19T10:21:15Z" uid="147510" user="woodpeck_fixbot" changeset="10434386">
    <nd ref="568990557"/>
    <nd ref="568990559"/>
    <nd ref="568990561"/>
    <nd ref="568990563"/>
    <nd ref="568990568"/>
    <nd ref="1229155437"/>
    <nd ref="943230740"/>
    <nd ref="1229155144"/>
    <nd ref="943230741"/>
    <nd ref="1229155392"/>
    <nd ref="943230742"/>
    <nd ref="1229155580"/>
    <nd ref="943230743"/>
    <nd ref="945478883"/>
    <nd ref="943230744"/>
    <nd ref="263228960"/>
    <tag k="highway" v="residential"/>
    <tag k="name" v="Anne Marie Court"/>
    <tag k="surface" v="asphalt"/>
  </way>
  <way id="44880773" version="2" timestamp="2010-07-09T06:58:12Z" uid="74617" user="JohnSmith" changeset="5171447">
    <nd ref="253472380"/>
    <nd ref="568990571"/>
    <nd ref="568990573"/>
    <nd ref="568990528"/>
    <nd ref="568990530"/>
    <nd ref="568990541"/>
    <nd ref="568990537"/>
    <nd ref="568990539"/>
    <nd ref="568990526"/>
    <tag k="highway" v="residential"/>
    <tag k="maxspeed" v="50"/>
    <tag k="maxspeed:source" v="default residential speed limit in Australia"/>
    <tag k="name" v="Wentworth Court"/>
    <tag k="surface" v="asphalt"/>
  </way>
  <way id="44880773" version="3" timestamp="2012-01-19T10:21:16Z" uid="147510" user="woodpeck_fixbot" changeset="10434386">
    <nd ref="253472380"/>
    <nd ref="568990571"/>
    <nd ref="568990573"/>
    <nd ref="568990528"/>
    <nd ref="568990530"/>
    <nd ref="568990541"/>
    <nd ref="568990537"/>
    <nd ref="568990539"/>
    <nd ref="568990526"/>
    <tag k="highway" v="residential"/>
    <tag k="name" v="Wentworth Court"/>
    <tag k="surface" v="asphalt"/>
  </way>
  <way id="44880850" version="2" timestamp="2009-12-07T16:47:43Z" uid="23543" user="jkjk" changeset="3317294">
    <nd ref="568993175"/>
    <nd ref="568993157"/>
    <nd ref="568993159"/>
    <nd ref="568993161"/>
    <nd ref="568993163"/>
    <nd ref="568993180"/>
    <nd ref="568993182"/>
    <nd ref="560484537"/>
    <tag k="highway" v="proposed"/>
    <tag k="proposed" v="primary_link"/>
  </way>
  <way id="44880851" version="2" timestamp="2009-12-07T16:47:44Z" uid="23543" user="jkjk" changeset="3317294">
    <nd ref="568993161"/>
    <nd ref="568993165"/>
    <nd ref="568993167"/>
    <nd ref="568993168"/>
    <nd ref="568993184"/>
    <tag k="highway" v="proposed"/>
    <tag k="proposed" v="primary_link"/>
  </way>
  <way id="44880852" version="2" timestamp="2009-12-07T16:47:42Z" uid="23543" user="jkjk" changeset="3317294">
    <nd ref="568993186"/>
    <nd ref="568993187"/>
    <nd ref="568993189"/>
    <nd ref="568993191"/>
    <nd ref="568993193"/>
    <nd ref="568993194"/>
    <nd ref="568993195"/>
    <nd ref="568993177"/>
    <nd ref="568993178"/>
    <tag k="highway" v="proposed"/>
    <tag k="proposed" v="primary_link"/>
  </way>
  <way id="44880855" version="1" timestamp="2009-11-23T07:02:05Z" uid="30201" user="rrankin" changeset="3193160">
    <nd ref="363510344"/>
    <nd ref="568993381"/>
    <nd ref="282599946"/>
    <nd ref="282599944"/>
    <nd ref="267669745"/>
    <nd ref="282599890"/>
    <nd ref="311403068"/>
    <nd ref="267669742"/>
    <nd ref="282599759"/>
    <nd ref="267669741"/>
    <nd ref="267669740"/>
    <nd ref="267669739"/>
    <nd ref="267669737"/>
    <nd ref="267669736"/>
    <nd ref="267669735"/>
    <nd ref="267669734"/>
    <nd ref="267462888"/>
    <nd ref="311411270"/>
    <nd ref="267462889"/>
    <nd ref="267462890"/>
    <nd ref="267669768"/>
    <nd ref="267669733"/>
    <tag k="highway" v="secondary"/>
  </way>
  <way id="44880855" version="2" timestamp="2009-11-23T07:20:02Z" uid="30201" user="rrankin" changeset="3193208"/>
  <way id="44880856" version="1" timestamp="2009-11-23T07:02:07Z" uid="30201" user="rrankin" changeset="3193160">
    <nd ref="568993400"/>
    <nd ref="311411327"/>
    <nd ref="311411328"/>
    <nd ref="311411329"/>
    <nd ref="311411330"/>
    <nd ref="311411331"/>
    <nd ref="311430963"/>
    <nd ref="311411333"/>
    <nd ref="311411334"/>
    <nd ref="311411335"/>
    <nd ref="311430944"/>
    <nd ref="311411336"/>
    <nd ref="311411337"/>
    <nd ref="311411338"/>
    <nd ref="311411339"/>
    <nd ref="311411340"/>
    <nd ref="311424839"/>
    <nd ref="311411341"/>
    <nd ref="311411343"/>
    <nd ref="311411344"/>
    <nd ref="311411345"/>
    <nd ref="311411346"/>
    <nd ref="311411288"/>
    <nd ref="311411347"/>
    <nd ref="311411348"/>
    <nd ref="311411349"/>
    <tag k="highway" v="residential"/>
    <tag k="source" v="yahoo"/>
  </way>
  <way id="44880856" version="2" timestamp="2009-12-21T04:27:10Z" uid="30201" user="rrankin" changeset="3418309"/>
  <way id="44880857" version="1" timestamp="2009-11-23T07:02:08Z" uid="30201" user="rrankin" changeset="3193160">
    <nd ref="311432634"/>
    <nd ref="568993400"/>
    <nd ref="568993418"/>
    <nd ref="568993433"/>
    <nd ref="311403071"/>
    <nd ref="29790668"/>
    <nd ref="311432634"/>
    <tag k="highway" v="unclassified"/>
    <tag k="source" v="yahoo"/>
  </way>
  <way id="44880857" version="2" timestamp="2009-11-23T07:19:56Z" uid="30201" user="rrankin" changeset="3193208">
    <nd ref="311432634"/>
    <nd ref="568993400"/>
    <nd ref="568993418"/>
    <nd ref="568993433"/>
    <nd ref="311403071"/>
    <nd ref="29790668"/>
    <nd ref="311432634"/>
    <tag k="highway" v="unclassified"/>
    <tag k="source" v="yahoo"/>
  </way>
  <way id="44880857" version="3" timestamp="2009-12-21T04:27:09Z" uid="30201" user="rrankin" changeset="3418309">
    <nd ref="311432634"/>
    <nd ref="597550720"/>
    <nd ref="568993418"/>
    <nd ref="568993433"/>
    <nd ref="311403071"/>
    <nd ref="29790668"/>
    <nd ref="311432634"/>
    <tag k="highway" v="unclassified"/>
    <tag k="source" v="yahoo"/>
  </way>
  <way id="44880857" version="4" timestamp="2010-06-14T11:03:52Z" uid="61114" user="Trav" changeset="4987038">
    <nd ref="311432634"/>
    <nd ref="597550720"/>
    <nd ref="568993418"/>
    <nd ref="568993433"/>
    <nd ref="311403071"/>
    <nd ref="29790668"/>
    <nd ref="311432634"/>
    <tag k="highway" v="unclassified"/>
    <tag k="junction" v="roundabout"/>
    <tag k="source" v="yahoo"/>
  </way>
  <way id="44880857" version="5" timestamp="2010-09-04T00:56:04Z" uid="7617" user="Franc" changeset="5675205">
    <nd ref="311432634"/>
    <nd ref="895002188"/>
    <nd ref="597550720"/>
    <nd ref="895002185"/>
    <nd ref="568993418"/>
    <nd ref="568993433"/>
    <nd ref="311403071"/>
    <nd ref="29790668"/>
    <nd ref="895002184"/>
    <nd ref="311432634"/>
    <tag k="highway" v="unclassified"/>
    <tag k="junction" v="roundabout"/>
    <tag k="source" v="yahoo"/>
  </way>
  <way id="44880858" version="1" timestamp="2009-11-23T07:02:09Z" uid="30201" user="rrankin" changeset="3193160">
    <nd ref="568993461"/>
    <nd ref="311432547"/>
    <nd ref="311411269"/>
    <nd ref="311411270"/>
    <tag k="highway" v="unclassified"/>
    <tag k="source" v="yahoo"/>
  </way>
  <way id="44880858" version="2" timestamp="2010-06-14T07:04:37Z" uid="61114" user="Trav" changeset="4985406">
    <nd ref="568993461"/>
    <nd ref="311432547"/>
    <nd ref="311411269"/>
    <nd ref="311411270"/>
    <tag k="highway" v="unclassified"/>
    <tag k="maxspeed" v="50"/>
    <tag k="name" v="Vincent Road"/>
    <tag k="source" v="yahoo"/>
    <tag k="source:name" v="survey"/>
  </way>
  <way id="44880858" version="3" timestamp="2010-09-04T00:56:11Z" uid="7617" user="Franc" changeset="5675205">
    <nd ref="568993461"/>
    <nd ref="895002400"/>
    <tag k="highway" v="unclassified"/>
    <tag k="maxspeed" v="50"/>
    <tag k="name" v="Vincent Road"/>
    <tag k="restriction" v="school_zone"/>
    <tag k="source" v="nearmap"/>
    <tag k="source:name" v="survey"/>
  </way>
  <way id="44880859" version="1" timestamp="2009-11-23T07:02:10Z" uid="30201" user="rrankin" changeset="3193160">
    <nd ref="311411326"/>
    <nd ref="568993465"/>
    <nd ref="568993461"/>
    <nd ref="568993479"/>
    <nd ref="311411326"/>
    <tag k="highway" v="unclassified"/>
    <tag k="junction" v="roundabout"/>
    <tag k="source" v="nearmap"/>
  </way>
  <way id="44880859" version="2" timestamp="2009-11-23T07:19:55Z" uid="30201" user="rrankin" changeset="3193208">
    <nd ref="311411326"/>
    <nd ref="568993465"/>
    <nd ref="568993461"/>
    <nd ref="568993479"/>
    <nd ref="311411326"/>
    <tag k="highway" v="unclassified"/>
    <tag k="junction" v="roundabout"/>
    <tag k="source" v="nearmap"/>
  </way>
  <way id="44880859" version="3" timestamp="2010-09-04T00:56:11Z" uid="7617" user="Franc" changeset="5675205">
    <nd ref="311411326"/>
    <nd ref="895002428"/>
    <nd ref="568993465"/>
    <nd ref="895002430"/>
    <nd ref="568993461"/>
    <nd ref="895002431"/>
    <nd ref="568993479"/>
    <nd ref="895002433"/>
    <nd ref="311411326"/>
    <tag k="highway" v="unclassified"/>
    <tag k="junction" v="roundabout"/>
    <tag k="restriction" v="school_zone"/>
    <tag k="source" v="nearmap"/>
  </way>
  <way id="44880860" version="1" timestamp="2009-11-23T07:02:11Z" uid="30201" user="rrankin" changeset="3193160">
    <nd ref="568993493"/>
    <nd ref="568993523"/>
    <nd ref="568993544"/>
    <nd ref="568993572"/>
    <nd ref="568993558"/>
    <nd ref="568993493"/>
    <tag k="amenity" v="parking"/>
  </way>
  <way id="44880860" version="2" timestamp="2009-11-23T07:19:53Z" uid="30201" user="rrankin" changeset="3193208">
    <nd ref="568993493"/>
    <nd ref="568993523"/>
    <nd ref="568993544"/>
    <nd ref="568993572"/>
    <nd ref="568993558"/>
    <nd ref="568993493"/>
    <tag k="amenity" v="parking"/>
  </way>
  <way id="44880861" version="1" timestamp="2009-11-23T07:02:12Z" uid="30201" user="rrankin" changeset="3193160">
    <nd ref="568993465"/>
    <nd ref="568993572"/>
    <tag k="highway" v="service"/>
    <tag k="service" v="driveway"/>
    <tag k="source" v="nearmap"/>
  </way>
  <way id="44880861" version="2" timestamp="2009-11-23T07:19:54Z" uid="30201" user="rrankin" changeset="3193208">
    <nd ref="568993465"/>
    <nd ref="568993572"/>
    <tag k="highway" v="service"/>
    <tag k="service" v="driveway"/>
    <tag k="source" v="nearmap"/>
  </way>
  <way id="44880862" version="1" timestamp="2009-11-23T07:02:13Z" uid="30201" user="rrankin" changeset="3193160">
    <nd ref="568993599"/>
    <nd ref="311411267"/>
    <nd ref="311411326"/>
    <tag k="highway" v="unclassified"/>
    <tag k="source" v="nearmap"/>
  </way>
  <way id="44880862" version="2" timestamp="2010-06-14T07:04:37Z" uid="61114" user="Trav" changeset="4985406">
    <nd ref="568993599"/>
    <nd ref="311411267"/>
    <nd ref="311411326"/>
    <tag k="highway" v="unclassified"/>
    <tag k="name" v="Vincent Road"/>
    <tag k="source" v="nearmap"/>
    <tag k="source:name" v="survey"/>
  </way>
  <way id="44880862" version="3" timestamp="2010-09-04T00:56:09Z" uid="7617" user="Franc" changeset="5675205">
    <nd ref="568993599"/>
    <nd ref="311411267"/>
    <nd ref="311411326"/>
    <tag k="highway" v="unclassified"/>
    <tag k="name" v="Vincent Road"/>
    <tag k="restriction" v="school_zone"/>
    <tag k="source" v="nearmap"/>
    <tag k="source:name" v="survey"/>
  </way>
  <way id="44880863" version="1" timestamp="2009-11-23T07:02:14Z" uid="30201" user="rrankin" changeset="3193160">
    <nd ref="568993585"/>
    <nd ref="311411266"/>
    <nd ref="568993599"/>
    <nd ref="568993610"/>
    <nd ref="568993585"/>
    <tag k="highway" v="unclassified"/>
    <tag k="junction" v="roundabout"/>
    <tag k="source" v="nearmap"/>
  </way>
  <way id="44880863" version="2" timestamp="2009-11-23T07:19:52Z" uid="30201" user="rrankin" changeset="3193208">
    <nd ref="568993585"/>
    <nd ref="311411266"/>
    <nd ref="568993599"/>
    <nd ref="568993610"/>
    <nd ref="568993585"/>
    <tag k="highway" v="unclassified"/>
    <tag k="junction" v="roundabout"/>
    <tag k="source" v="nearmap"/>
  </way>
  <way id="44880863" version="3" timestamp="2010-09-04T00:56:12Z" uid="7617" user="Franc" changeset="5675205">
    <nd ref="568993585"/>
    <nd ref="895002454"/>
    <nd ref="311411266"/>
    <nd ref="895002456"/>
    <nd ref="568993599"/>
    <nd ref="895002457"/>
    <nd ref="568993610"/>
    <nd ref="895002458"/>
    <nd ref="568993585"/>
    <tag k="highway" v="unclassified"/>
    <tag k="junction" v="roundabout"/>
    <tag k="restriction" v="school_zone"/>
    <tag k="source" v="nearmap"/>
  </way>
  <way id="44880871" version="1" timestamp="2009-11-23T07:03:00Z" uid="1066" user="pavel" changeset="3193166">
    <nd ref="26820672"/>
    <nd ref="245454691"/>
    <nd ref="245454704"/>
    <tag k="created_by" v="JOSM"/>
    <tag k="highway" v="bridleway"/>
    <tag k="note" v="cesta na hrad Sembera"/>
  </way>
  <way id="44880871" version="2" timestamp="2010-06-22T11:17:41Z" uid="84326" user="Mike Crash" changeset="5050291">
    <nd ref="26820672"/>
    <nd ref="245454691"/>
    <nd ref="245454704"/>
    <tag k="highway" v="path"/>
  </way>
  <way id="44880872" version="1" timestamp="2009-11-23T07:03:00Z" uid="1066" user="pavel" changeset="3193166">
    <nd ref="245454704"/>
    <nd ref="245454705"/>
    <nd ref="245454706"/>
    <nd ref="245454707"/>
    <nd ref="60902662"/>
    <tag k="created_by" v="JOSM"/>
    <tag k="highway" v="footway"/>
    <tag k="note" v="cesta na hrad Sembera"/>
  </way>
  <way id="44880872" version="2" timestamp="2010-06-22T11:17:43Z" uid="84326" user="Mike Crash" changeset="5050291">
    <nd ref="245454704"/>
    <nd ref="245454705"/>
    <nd ref="245454706"/>
    <nd ref="245454707"/>
    <nd ref="60902662"/>
    <tag k="highway" v="footway"/>
  </way>
  <way id="44880872" version="3" timestamp="2010-11-05T07:25:56Z" uid="84326" user="Mike Crash" changeset="6293434">
    <nd ref="245454704"/>
    <nd ref="245454705"/>
    <nd ref="245454706"/>
    <nd ref="245454707"/>
    <nd ref="60902662"/>
    <tag k="highway" v="path"/>
    <tag k="wheelchair" v="no"/>
  </way>
</osm>
