<?xml version='1.0' encoding='UTF-8'?>
<osm version="0.6" generator="libosmium/2.20.0">
  <way id="44881031" version="2" timestamp="2010-04-02T17:53:33Z" uid="20587" user="balrog-kun" changeset="4304500">
    <nd ref="436811626"/>
    <nd ref="436811630"/>
    <tag k="attribution" v="GeoBaseÂ®"/>
    <tag k="geobase:acquisitionTechnique" v="GPS"/>
    <tag k="geobase:datasetName" v="NRN:British Columbia"/>
    <tag k="geobase:uuid" v="01a69794968311d99c9f000ea65e52d8"/>
    <tag k="highway" v="unclassified"/>
    <tag k="is_in" v="Metchosin,British Columbia"/>
    <tag k="lanes" v="2"/>
    <tag k="name" v="Wittys Lagoon Regional Park"/>
    <tag k="source" v="Geobase_Import_2009"/>
  </way>
  <way id="44881032" version="2" timestamp="2010-04-07T16:49:35Z" uid="20587" user="balrog-kun" changeset="4355544">
    <nd ref="65210732"/>
    <nd ref="568996380"/>
    <nd ref="65189792"/>
    <nd ref="65189795"/>
    <nd ref="65189798"/>
    <nd ref="65185538"/>
    <nd ref="65189800"/>
    <nd ref="65189802"/>
    <nd ref="65189804"/>
    <nd ref="65189808"/>
    <nd ref="65189811"/>
    <nd ref="65183932"/>
    <nd ref="65189812"/>
    <nd ref="65189814"/>
    <nd ref="65189817"/>
    <nd ref="65181737"/>
    <tag k="highway" v="residential"/>
    <tag k="name" v="Mc Rae Road"/>
    <tag k="name_1" v="McRae Road"/>
    <tag k="tiger:cfcc" v="A41"/>
    <tag k="tiger:county" v="Anchorage, AK"/>
    <tag k="tiger:name_base" v="Mc Rae"/>
    <tag k="tiger:name_base_1" v="McRae"/>
    <tag k="tiger:name_type" v="Rd"/>
    <tag k="tiger:name_type_1" v="Rd"/>
    <tag k="tiger:reviewed" v="no"/>
    <tag k="tiger:separated" v="no"/>
    <tag k="tiger:source" v="tiger_import_dch_v0.6_20070809"/>
    <tag k="tiger:tlid" v="190794826:190811715:190811716:190794827:190794875:190794876:190794867:190794884:190794886:190794978:190794995:190794887"/>
    <tag k="tiger:zip_left" v="99517"/>
    <tag k="tiger:zip_right" v="99517"/>
  </way>
  <way id="44881101" version="2" timestamp="2010-04-07T16:49:35Z" uid="20587" user="balrog-kun" changeset="4355544">
    <nd ref="65261543"/>
    <nd ref="568997536"/>
    <nd ref="65265445"/>
    <tag k="highway" v="residential"/>
    <tag k="name" v="Foxridge Circle"/>
    <tag k="tiger:cfcc" v="A41"/>
    <tag k="tiger:county" v="Anchorage, AK"/>
    <tag k="tiger:name_base" v="Foxridge"/>
    <tag k="tiger:name_type" v="Cir"/>
    <tag k="tiger:reviewed" v="no"/>
    <tag k="tiger:separated" v="no"/>
    <tag k="tiger:source" v="tiger_import_dch_v0.6_20070809"/>
    <tag k="tiger:tlid" v="190808768:190798577"/>
    <tag k="tiger:zip_left" v="99518"/>
    <tag k="tiger:zip_right" v="99518"/>
  </way>
  <way id="44881103" version="2" timestamp="2010-04-07T16:49:36Z" uid="20587" user="balrog-kun" changeset="4355544">
    <nd ref="568997580"/>
    <nd ref="65265445"/>
    <nd ref="65158478"/>
    <nd ref="65265464"/>
    <nd ref="65265415"/>
    <tag k="highway" v="residential"/>
    <tag k="name" v="Foxridge Circle"/>
    <tag k="tiger:cfcc" v="A41"/>
    <tag k="tiger:county" v="Anchorage, AK"/>
    <tag k="tiger:name_base" v="Foxridge"/>
    <tag k="tiger:name_type" v="Cir"/>
    <tag k="tiger:reviewed" v="no"/>
    <tag k="tiger:separated" v="no"/>
    <tag k="tiger:source" v="tiger_import_dch_v0.6_20070809"/>
    <tag k="tiger:tlid" v="190808768:190798577"/>
    <tag k="tiger:zip_left" v="99518"/>
    <tag k="tiger:zip_right" v="99518"/>
  </way>
  <way id="44881104" version="2" timestamp="2010-04-07T16:49:37Z" uid="20587" user="balrog-kun" changeset="4355544">
    <nd ref="65265415"/>
    <nd ref="65265417"/>
    <nd ref="65158484"/>
    <nd ref="65186338"/>
    <tag k="highway" v="residential"/>
    <tag k="name" v="Foxridge Circle"/>
    <tag k="tiger:cfcc" v="A41"/>
    <tag k="tiger:county" v="Anchorage, AK"/>
    <tag k="tiger:name_base" v="Foxridge"/>
    <tag k="tiger:name_type" v="Cir"/>
    <tag k="tiger:reviewed" v="no"/>
    <tag k="tiger:separated" v="no"/>
    <tag k="tiger:source" v="tiger_import_dch_v0.6_20070809"/>
    <tag k="tiger:tlid" v="190808771:190808766:190808767:190808769"/>
    <tag k="tiger:zip_left" v="99518"/>
    <tag k="tiger:zip_right" v="99518"/>
  </way>
  <way id="44881261" version="2" timestamp="2010-03-28T11:26:31Z" uid="20587" user="balrog-kun" changeset="4254597">
    <nd ref="94557254"/>
    <nd ref="568999288"/>
    <tag k="bridge" v="yes"/>
    <tag k="highway" v="residential"/>
    <tag k="layer" v="1"/>
    <tag k="name" v="West Westfield Avenue"/>
    <tag k="tiger:cfcc" v="A41"/>
    <tag k="tiger:county" v="Tulare, CA"/>
    <tag k="tiger:name_base" v="Westfield"/>
    <tag k="tiger:name_direction_prefix" v="W"/>
    <tag k="tiger:name_type" v="Ave"/>
    <tag k="tiger:reviewed" v="no"/>
    <tag k="tiger:separated" v="no"/>
    <tag k="tiger:source" v="tiger_import_dch_v0.6_20070809"/>
    <tag k="tiger:tlid" v="202821080:202823023:202807699:202814774:202814775:202785387:202822660:202785514:202785703:202785705:202785715:202821428:202785723:202785725:202785755:202785759:202796325:202785777:202785778:202809494:202786305:202786394:202786560:202786561:202786563:20280"/>
    <tag k="tiger:zip_left" v="93257"/>
    <tag k="tiger:zip_right" v="93257"/>
  </way>
  <way id="44881275" version="1" timestamp="2009-11-23T07:13:08Z" uid="103576" user="DiverCTH" changeset="3192966">
    <nd ref="568999409"/>
    <nd ref="568999447"/>
    <nd ref="568999471"/>
    <nd ref="568999468"/>
    <nd ref="568999502"/>
    <nd ref="568999503"/>
    <nd ref="568999504"/>
    <tag k="addr:country" v="US"/>
    <tag k="addr:county" v="Hamilton, TN"/>
    <tag k="addr:interpolation" v="odd"/>
    <tag k="addr:postcode" v="37421"/>
    <tag k="addr:state" v="Tennessee"/>
    <tag k="addr:street" v="Galahad Road"/>
    <tag k="attribution" v="tiger"/>
    <tag k="source" v="tiger_import_v0.3_20091116000621"/>
  </way>
  <way id="44881276" version="1" timestamp="2009-11-23T07:13:08Z" uid="103576" user="DiverCTH" changeset="3192966">
    <nd ref="568999410"/>
    <nd ref="568999423"/>
    <nd ref="568999416"/>
    <nd ref="568999418"/>
    <tag k="addr:country" v="US"/>
    <tag k="addr:county" v="Hamilton, TN"/>
    <tag k="addr:interpolation" v="odd"/>
    <tag k="addr:postcode" v="37421"/>
    <tag k="addr:state" v="Tennessee"/>
    <tag k="addr:street" v="Camelot Lane"/>
    <tag k="attribution" v="tiger"/>
    <tag k="source" v="tiger_import_v0.3_20091116000623"/>
  </way>
  <way id="44881277" version="1" timestamp="2009-11-23T07:13:08Z" uid="103576" user="DiverCTH" changeset="3192966">
    <nd ref="568999421"/>
    <nd ref="568999446"/>
    <nd ref="568999469"/>
    <nd ref="568999467"/>
    <nd ref="568999466"/>
    <nd ref="568999472"/>
    <nd ref="568999505"/>
    <tag k="addr:country" v="US"/>
    <tag k="addr:county" v="Hamilton, TN"/>
    <tag k="addr:interpolation" v="even"/>
    <tag k="addr:postcode" v="37421"/>
    <tag k="addr:state" v="Tennessee"/>
    <tag k="addr:street" v="Galahad Road"/>
    <tag k="attribution" v="tiger"/>
    <tag k="source" v="tiger_import_v0.3_20091116000621"/>
  </way>
  <way id="44881278" version="1" timestamp="2009-11-23T07:13:09Z" uid="103576" user="DiverCTH" changeset="3192966">
    <nd ref="568999424"/>
    <nd ref="568999425"/>
    <nd ref="568999414"/>
    <nd ref="568999412"/>
    <tag k="addr:country" v="US"/>
    <tag k="addr:county" v="Hamilton, TN"/>
    <tag k="addr:interpolation" v="even"/>
    <tag k="addr:postcode" v="37421"/>
    <tag k="addr:state" v="Tennessee"/>
    <tag k="addr:street" v="Camelot Lane"/>
    <tag k="attribution" v="tiger"/>
    <tag k="source" v="tiger_import_v0.3_20091116000623"/>
  </way>
  <way id="44881279" version="1" timestamp="2009-11-23T07:13:09Z" uid="103576" user="DiverCTH" changeset="3192966">
    <nd ref="568999413"/>
    <nd ref="568999429"/>
    <nd ref="568999428"/>
    <nd ref="568999431"/>
    <nd ref="568999430"/>
    <tag k="addr:country" v="US"/>
    <tag k="addr:county" v="Hamilton, TN"/>
    <tag k="addr:interpolation" v="odd"/>
    <tag k="addr:postcode" v="37421"/>
    <tag k="addr:state" v="Tennessee"/>
    <tag k="addr:street" v="Camelot Lane"/>
    <tag k="attribution" v="tiger"/>
    <tag k="source" v="tiger_import_v0.3_20091116000621"/>
  </way>
  <way id="44881280" version="1" timestamp="2009-11-23T07:13:09Z" uid="103576" user="DiverCTH" changeset="3192966">
    <nd ref="568999417"/>
    <nd ref="568999415"/>
    <nd ref="568999433"/>
    <nd ref="568999432"/>
    <nd ref="568999427"/>
    <tag k="addr:country" v="US"/>
    <tag k="addr:county" v="Hamilton, TN"/>
    <tag k="addr:interpolation" v="even"/>
    <tag k="addr:postcode" v="37421"/>
    <tag k="addr:state" v="Tennessee"/>
    <tag k="addr:street" v="Camelot Lane"/>
    <tag k="attribution" v="tiger"/>
    <tag k="source" v="tiger_import_v0.3_20091116000621"/>
  </way>
  <way id="44881281" version="1" timestamp="2009-11-23T07:13:09Z" uid="103576" user="DiverCTH" changeset="3192966">
    <nd ref="568999435"/>
    <nd ref="568999434"/>
    <nd ref="568999476"/>
    <nd ref="568999477"/>
    <nd ref="568999481"/>
    <nd ref="568999482"/>
    <nd ref="568999483"/>
    <nd ref="568999484"/>
    <tag k="addr:country" v="US"/>
    <tag k="addr:county" v="Hamilton, TN"/>
    <tag k="addr:interpolation" v="even"/>
    <tag k="addr:postcode" v="37421"/>
    <tag k="addr:state" v="Tennessee"/>
    <tag k="addr:street" v="Peterson Dr"/>
    <tag k="attribution" v="tiger"/>
    <tag k="source" v="tiger_import_v0.3_20091116000621"/>
  </way>
  <way id="44881282" version="1" timestamp="2009-11-23T07:13:09Z" uid="103576" user="DiverCTH" changeset="3192966">
    <nd ref="568999436"/>
    <nd ref="568999437"/>
    <nd ref="568999479"/>
    <nd ref="568999478"/>
    <nd ref="568999489"/>
    <nd ref="568999487"/>
    <nd ref="568999486"/>
    <nd ref="568999485"/>
    <tag k="addr:country" v="US"/>
    <tag k="addr:county" v="Hamilton, TN"/>
    <tag k="addr:interpolation" v="odd"/>
    <tag k="addr:postcode" v="37421"/>
    <tag k="addr:state" v="Tennessee"/>
    <tag k="addr:street" v="Peterson Dr"/>
    <tag k="attribution" v="tiger"/>
    <tag k="source" v="tiger_import_v0.3_20091116000621"/>
  </way>
  <way id="44881283" version="1" timestamp="2009-11-23T07:13:09Z" uid="103576" user="DiverCTH" changeset="3192966">
    <nd ref="568999419"/>
    <nd ref="568999440"/>
    <nd ref="568999441"/>
    <nd ref="568999448"/>
    <nd ref="568999449"/>
    <nd ref="568999456"/>
    <nd ref="568999458"/>
    <nd ref="568999460"/>
    <nd ref="568999461"/>
    <nd ref="568999462"/>
    <nd ref="568999488"/>
    <tag k="addr:country" v="US"/>
    <tag k="addr:county" v="Hamilton, TN"/>
    <tag k="addr:interpolation" v="even"/>
    <tag k="addr:postcode" v="37421"/>
    <tag k="addr:state" v="Tennessee"/>
    <tag k="addr:street" v="Merlin Rd"/>
    <tag k="attribution" v="tiger"/>
    <tag k="source" v="tiger_import_v0.3_20091116000618"/>
  </way>
  <way id="44881284" version="1" timestamp="2009-11-23T07:13:09Z" uid="103576" user="DiverCTH" changeset="3192966">
    <nd ref="568999420"/>
    <nd ref="568999442"/>
    <nd ref="568999443"/>
    <nd ref="568999452"/>
    <nd ref="568999450"/>
    <nd ref="568999455"/>
    <nd ref="568999459"/>
    <nd ref="568999457"/>
    <nd ref="568999475"/>
    <nd ref="568999492"/>
    <tag k="addr:country" v="US"/>
    <tag k="addr:county" v="Hamilton, TN"/>
    <tag k="addr:interpolation" v="odd"/>
    <tag k="addr:postcode" v="37421"/>
    <tag k="addr:state" v="Tennessee"/>
    <tag k="addr:street" v="Merlin Rd"/>
    <tag k="attribution" v="tiger"/>
    <tag k="source" v="tiger_import_v0.3_20091116000618"/>
  </way>
  <way id="44881287" version="1" timestamp="2009-11-23T07:13:48Z" uid="103576" user="DiverCTH" changeset="3192966">
    <nd ref="568999582"/>
    <nd ref="568999583"/>
    <nd ref="568999579"/>
    <nd ref="568999580"/>
    <nd ref="568999576"/>
    <nd ref="568999578"/>
    <nd ref="568999573"/>
    <nd ref="568999585"/>
    <nd ref="568999588"/>
    <nd ref="568999590"/>
    <nd ref="568999586"/>
    <nd ref="568999593"/>
    <nd ref="568999599"/>
    <nd ref="568999596"/>
    <tag k="addr:country" v="US"/>
    <tag k="addr:county" v="Hamilton, TN"/>
    <tag k="addr:interpolation" v="odd"/>
    <tag k="addr:postcode" v="37421"/>
    <tag k="addr:state" v="Tennessee"/>
    <tag k="addr:street" v="Merlin Rd"/>
    <tag k="attribution" v="tiger"/>
    <tag k="source" v="tiger_import_v0.3_20091116000618"/>
  </way>
  <way id="44881288" version="1" timestamp="2009-11-23T07:13:48Z" uid="103576" user="DiverCTH" changeset="3192966">
    <nd ref="568999571"/>
    <nd ref="568999570"/>
    <nd ref="568999574"/>
    <nd ref="568999572"/>
    <nd ref="568999577"/>
    <nd ref="568999575"/>
    <nd ref="568999584"/>
    <nd ref="568999587"/>
    <nd ref="568999591"/>
    <nd ref="568999589"/>
    <nd ref="568999592"/>
    <nd ref="568999598"/>
    <nd ref="568999594"/>
    <nd ref="568999595"/>
    <tag k="addr:country" v="US"/>
    <tag k="addr:county" v="Hamilton, TN"/>
    <tag k="addr:interpolation" v="even"/>
    <tag k="addr:postcode" v="37421"/>
    <tag k="addr:state" v="Tennessee"/>
    <tag k="addr:street" v="Merlin Rd"/>
    <tag k="attribution" v="tiger"/>
    <tag k="source" v="tiger_import_v0.3_20091116000618"/>
  </way>
  <way id="44881305" version="2" timestamp="2010-07-09T18:16:06Z" uid="74617" user="JohnSmith" changeset="5175636">
    <nd ref="569001459"/>
    <nd ref="275242941"/>
    <nd ref="277839399"/>
    <nd ref="264121495"/>
    <nd ref="277839449"/>
    <nd ref="275242942"/>
    <nd ref="277839432"/>
    <nd ref="275242943"/>
    <tag k="highway" v="residential"/>
    <tag k="maxspeed" v="50"/>
    <tag k="maxspeed:source" v="default residential speed limit in Australia"/>
    <tag k="name" v="Etchingham Road"/>
  </way>
  <way id="44881305" version="3" timestamp="2012-01-19T10:21:18Z" uid="147510" user="woodpeck_fixbot" changeset="10434386">
    <nd ref="569001459"/>
    <nd ref="275242941"/>
    <nd ref="277839399"/>
    <nd ref="264121495"/>
    <nd ref="277839449"/>
    <nd ref="275242942"/>
    <nd ref="277839432"/>
    <nd ref="275242943"/>
    <tag k="highway" v="residential"/>
    <tag k="name" v="Etchingham Road"/>
  </way>
  <way id="44881310" version="2" timestamp="2010-04-07T16:49:37Z" uid="20587" user="balrog-kun" changeset="4355544">
    <nd ref="65197592"/>
    <nd ref="569002632"/>
    <nd ref="65261850"/>
    <nd ref="65261853"/>
    <tag k="highway" v="residential"/>
    <tag k="name" v="Bentzen Circle"/>
    <tag k="tiger:cfcc" v="A41"/>
    <tag k="tiger:county" v="Anchorage, AK"/>
    <tag k="tiger:name_base" v="Bentzen"/>
    <tag k="tiger:name_type" v="Cir"/>
    <tag k="tiger:reviewed" v="no"/>
    <tag k="tiger:separated" v="no"/>
    <tag k="tiger:source" v="tiger_import_dch_v0.6_20070809"/>
    <tag k="tiger:tlid" v="190811711"/>
    <tag k="tiger:zip_left" v="99517"/>
    <tag k="tiger:zip_right" v="99517"/>
  </way>
  <way id="44881311" version="2" timestamp="2010-04-07T16:49:37Z" uid="20587" user="balrog-kun" changeset="4355544">
    <nd ref="313981666"/>
    <nd ref="313982435"/>
    <nd ref="313981747"/>
    <nd ref="65197592"/>
    <tag k="highway" v="residential"/>
    <tag k="name" v="Northwood Drive"/>
    <tag k="tiger:cfcc" v="A41"/>
    <tag k="tiger:county" v="Anchorage, AK"/>
    <tag k="tiger:name_base" v="Northwood"/>
    <tag k="tiger:name_type" v="Dr"/>
    <tag k="tiger:reviewed" v="no"/>
    <tag k="tiger:separated" v="no"/>
    <tag k="tiger:source" v="tiger_import_dch_v0.6_20070809"/>
    <tag k="tiger:tlid" v="190823153:190823154:190826162:190795580:190795567:190795570:190795571:190795573:190795574:190795576:190795578:190795579:190795597:190811709"/>
    <tag k="tiger:zip_left" v="99517"/>
    <tag k="tiger:zip_right" v="99517"/>
  </way>
  <way id="44881313" version="2" timestamp="2010-07-09T06:57:31Z" uid="74617" user="JohnSmith" changeset="5171447">
    <nd ref="569003164"/>
    <nd ref="569003163"/>
    <nd ref="569003166"/>
    <nd ref="569003186"/>
    <nd ref="569003167"/>
    <nd ref="569003170"/>
    <nd ref="569003179"/>
    <nd ref="569003171"/>
    <nd ref="569003173"/>
    <nd ref="569003185"/>
    <nd ref="569003175"/>
    <nd ref="569003177"/>
    <nd ref="569003164"/>
    <tag k="highway" v="residential"/>
    <tag k="junction" v="roundabout"/>
    <tag k="maxspeed" v="50"/>
    <tag k="maxspeed:source" v="default residential speed limit in Australia"/>
  </way>
  <way id="44881313" version="3" timestamp="2011-04-14T15:46:05Z" uid="4467" user="Rosscoe" changeset="7861959">
    <nd ref="569003164"/>
    <nd ref="569003163"/>
    <nd ref="569003166"/>
    <nd ref="569003186"/>
    <nd ref="569003167"/>
    <nd ref="569003170"/>
    <nd ref="569003179"/>
    <nd ref="569003171"/>
    <nd ref="569003173"/>
    <nd ref="569003185"/>
    <nd ref="569003175"/>
    <nd ref="569003177"/>
    <nd ref="569003164"/>
    <tag k="highway" v="residential"/>
    <tag k="junction" v="roundabout"/>
    <tag k="maxspeed" v="50"/>
    <tag k="source:maxspeed" v="default residential speed limit in Australia"/>
  </way>
  <way id="44881313" version="4" timestamp="2012-01-19T10:21:20Z" uid="147510" user="woodpeck_fixbot" changeset="10434386">
    <nd ref="569003164"/>
    <nd ref="569003163"/>
    <nd ref="569003166"/>
    <nd ref="569003186"/>
    <nd ref="569003167"/>
    <nd ref="569003170"/>
    <nd ref="569003179"/>
    <nd ref="569003171"/>
    <nd ref="569003173"/>
    <nd ref="569003185"/>
    <nd ref="569003175"/>
    <nd ref="569003177"/>
    <nd ref="569003164"/>
    <tag k="highway" v="residential"/>
    <tag k="junction" v="roundabout"/>
    <tag k="source:maxspeed" v="default residential speed limit in Australia"/>
  </way>
  <way id="44881314" version="2" timestamp="2010-07-09T06:58:35Z" uid="74617" user="JohnSmith" changeset="5171447">
    <nd ref="569003179"/>
    <nd ref="569003144"/>
    <nd ref="569003145"/>
    <nd ref="569003146"/>
    <nd ref="569003149"/>
    <nd ref="569003150"/>
    <tag k="highway" v="residential"/>
    <tag k="maxspeed" v="50"/>
    <tag k="maxspeed:source" v="default residential speed limit in Australia"/>
    <tag k="name" v="Farm Drive"/>
    <tag k="surface" v="asphalt"/>
  </way>
  <way id="44881314" version="3" timestamp="2010-10-17T01:30:29Z" uid="328538" user="o&apos;cholio" changeset="6063206">
    <nd ref="569003179"/>
    <nd ref="569003144"/>
    <nd ref="569003145"/>
    <nd ref="569003146"/>
    <nd ref="569003149"/>
    <nd ref="569003150"/>
    <nd ref="953205908"/>
    <nd ref="953205913"/>
    <tag k="highway" v="residential"/>
    <tag k="maxspeed" v="50"/>
    <tag k="name" v="Farm Drive"/>
  </way>
  <way id="44881314" version="4" timestamp="2010-10-17T04:11:31Z" uid="328538" user="o&apos;cholio" changeset="6063479">
    <nd ref="569003179"/>
    <nd ref="569003144"/>
    <nd ref="569003145"/>
    <nd ref="569003146"/>
    <nd ref="569003149"/>
    <nd ref="569003150"/>
    <nd ref="953503850"/>
    <nd ref="953205908"/>
    <nd ref="953205913"/>
    <tag k="highway" v="residential"/>
    <tag k="maxspeed" v="50"/>
    <tag k="name" v="Farm Drive"/>
  </way>
  <way id="44881314" version="5" timestamp="2012-01-19T10:21:22Z" uid="147510" user="woodpeck_fixbot" changeset="10434386">
    <nd ref="569003179"/>
    <nd ref="569003144"/>
    <nd ref="569003145"/>
    <nd ref="569003146"/>
    <nd ref="569003149"/>
    <nd ref="569003150"/>
    <nd ref="953503850"/>
    <nd ref="953205908"/>
    <nd ref="953205913"/>
    <tag k="highway" v="residential"/>
    <tag k="name" v="Farm Drive"/>
  </way>
  <way id="44881315" version="2" timestamp="2010-07-09T06:59:10Z" uid="74617" user="JohnSmith" changeset="5171447">
    <nd ref="569003188"/>
    <nd ref="569003189"/>
    <nd ref="569003190"/>
    <nd ref="569003152"/>
    <nd ref="569003156"/>
    <nd ref="569003158"/>
    <nd ref="569003159"/>
    <nd ref="569003162"/>
    <nd ref="569003153"/>
    <tag k="highway" v="residential"/>
    <tag k="maxspeed" v="50"/>
    <tag k="maxspeed:source" v="default residential speed limit in Australia"/>
    <tag k="name" v="Red Gum Avenue"/>
    <tag k="surface" v="asphalt"/>
  </way>
  <way id="44881315" version="3" timestamp="2010-10-17T01:30:30Z" uid="328538" user="o&apos;cholio" changeset="6063206">
    <nd ref="569003188"/>
    <nd ref="569003189"/>
    <nd ref="569003190"/>
    <nd ref="569003152"/>
    <nd ref="569003156"/>
    <nd ref="569003158"/>
    <nd ref="569003159"/>
    <nd ref="569003162"/>
    <nd ref="569003153"/>
    <nd ref="569003150"/>
    <tag k="highway" v="residential"/>
    <tag k="maxspeed" v="50"/>
    <tag k="name" v="Red Gum Avenue"/>
  </way>
  <way id="44881315" version="4" timestamp="2012-01-19T10:21:25Z" uid="147510" user="woodpeck_fixbot" changeset="10434386">
    <nd ref="569003188"/>
    <nd ref="569003189"/>
    <nd ref="569003190"/>
    <nd ref="569003152"/>
    <nd ref="569003156"/>
    <nd ref="569003158"/>
    <nd ref="569003159"/>
    <nd ref="569003162"/>
    <nd ref="569003153"/>
    <nd ref="569003150"/>
    <tag k="highway" v="residential"/>
    <tag k="name" v="Red Gum Avenue"/>
  </way>
  <way id="44881316" version="3" timestamp="2010-07-09T06:59:18Z" uid="74617" user="JohnSmith" changeset="5171447">
    <nd ref="569003186"/>
    <nd ref="569003128"/>
    <nd ref="569003131"/>
    <nd ref="569003132"/>
    <nd ref="597116018"/>
    <nd ref="569003134"/>
    <nd ref="569003135"/>
    <nd ref="569003137"/>
    <nd ref="569003139"/>
    <nd ref="569003141"/>
    <nd ref="569003142"/>
    <nd ref="569003113"/>
    <nd ref="569003114"/>
    <nd ref="569003116"/>
    <nd ref="569003117"/>
    <nd ref="569003125"/>
    <nd ref="569003127"/>
    <nd ref="569003104"/>
    <nd ref="569003106"/>
    <nd ref="569003107"/>
    <nd ref="569003109"/>
    <nd ref="569003111"/>
    <nd ref="569003112"/>
    <tag k="highway" v="residential"/>
    <tag k="maxspeed" v="50"/>
    <tag k="maxspeed:source" v="default residential speed limit in Australia"/>
    <tag k="name" v="Riverside Drive"/>
    <tag k="surface" v="asphalt"/>
  </way>
  <way id="44881316" version="4" timestamp="2011-04-14T15:46:27Z" uid="4467" user="Rosscoe" changeset="7861959">
    <nd ref="569003186"/>
    <nd ref="569003128"/>
    <nd ref="569003131"/>
    <nd ref="569003132"/>
    <nd ref="597116018"/>
    <nd ref="569003134"/>
    <nd ref="569003135"/>
    <nd ref="569003137"/>
    <nd ref="569003139"/>
    <nd ref="569003141"/>
    <nd ref="569003142"/>
    <nd ref="569003113"/>
    <nd ref="569003114"/>
    <nd ref="569003116"/>
    <nd ref="569003117"/>
    <nd ref="569003125"/>
    <nd ref="569003127"/>
    <nd ref="569003104"/>
    <nd ref="569003106"/>
    <nd ref="569003107"/>
    <nd ref="569003109"/>
    <nd ref="569003111"/>
    <nd ref="1244436747"/>
    <tag k="highway" v="residential"/>
    <tag k="maxspeed" v="50"/>
    <tag k="name" v="Riverside Drive"/>
    <tag k="source:maxspeed" v="default residential speed limit in Australia"/>
    <tag k="surface" v="asphalt"/>
  </way>
  <way id="44881316" version="5" timestamp="2012-01-19T10:21:28Z" uid="147510" user="woodpeck_fixbot" changeset="10434386">
    <nd ref="569003186"/>
    <nd ref="569003128"/>
    <nd ref="569003131"/>
    <nd ref="569003132"/>
    <nd ref="597116018"/>
    <nd ref="569003134"/>
    <nd ref="569003135"/>
    <nd ref="569003137"/>
    <nd ref="569003139"/>
    <nd ref="569003141"/>
    <nd ref="569003142"/>
    <nd ref="569003113"/>
    <nd ref="569003114"/>
    <nd ref="569003116"/>
    <nd ref="569003117"/>
    <nd ref="569003125"/>
    <nd ref="569003127"/>
    <nd ref="569003104"/>
    <nd ref="569003106"/>
    <nd ref="569003107"/>
    <nd ref="569003109"/>
    <nd ref="569003111"/>
    <nd ref="1244436747"/>
    <tag k="highway" v="residential"/>
    <tag k="name" v="Riverside Drive"/>
    <tag k="source:maxspeed" v="default residential speed limit in Australia"/>
    <tag k="surface" v="asphalt"/>
  </way>
  <way id="44881348" version="2" timestamp="2010-06-21T08:29:31Z" uid="4467" user="Rosscoe" changeset="5040409">
    <nd ref="569006072"/>
    <nd ref="778960561"/>
    <nd ref="569006074"/>
    <nd ref="569006077"/>
    <nd ref="569006079"/>
    <tag k="highway" v="path"/>
    <tag k="source" v="nearmap"/>
  </way>
  <way id="44881642" version="1" timestamp="2009-11-23T07:24:24Z" uid="103576" user="DiverCTH" changeset="3192966">
    <nd ref="569007156"/>
    <nd ref="569007154"/>
    <nd ref="569007166"/>
    <nd ref="569007173"/>
    <nd ref="569007172"/>
    <nd ref="569007171"/>
    <nd ref="569007176"/>
    <nd ref="569007177"/>
    <nd ref="569007251"/>
    <nd ref="569007249"/>
    <tag k="addr:country" v="US"/>
    <tag k="addr:county" v="Hamilton, TN"/>
    <tag k="addr:interpolation" v="even"/>
    <tag k="addr:postcode" v="37421"/>
    <tag k="addr:state" v="Tennessee"/>
    <tag k="addr:street" v="Guinevere Pkwy"/>
    <tag k="attribution" v="tiger"/>
    <tag k="source" v="tiger_import_v0.3_20091116000619"/>
  </way>
  <way id="44881644" version="1" timestamp="2009-11-23T07:24:24Z" uid="103576" user="DiverCTH" changeset="3192966">
    <nd ref="569007182"/>
    <nd ref="569007169"/>
    <nd ref="569007170"/>
    <nd ref="569007167"/>
    <nd ref="569007168"/>
    <nd ref="569007165"/>
    <nd ref="569007175"/>
    <nd ref="569007174"/>
    <nd ref="569007246"/>
    <nd ref="569007247"/>
    <tag k="addr:country" v="US"/>
    <tag k="addr:county" v="Hamilton, TN"/>
    <tag k="addr:interpolation" v="odd"/>
    <tag k="addr:postcode" v="37421"/>
    <tag k="addr:state" v="Tennessee"/>
    <tag k="addr:street" v="Guinevere Pkwy"/>
    <tag k="attribution" v="tiger"/>
    <tag k="source" v="tiger_import_v0.3_20091116000619"/>
  </way>
  <way id="44881645" version="1" timestamp="2009-11-23T07:24:24Z" uid="103576" user="DiverCTH" changeset="3192966">
    <nd ref="569006997"/>
    <nd ref="569006999"/>
    <nd ref="569006995"/>
    <nd ref="569006990"/>
    <nd ref="569007011"/>
    <tag k="addr:country" v="US"/>
    <tag k="addr:county" v="Hamilton, TN"/>
    <tag k="addr:interpolation" v="odd"/>
    <tag k="addr:postcode" v="37421"/>
    <tag k="addr:state" v="Tennessee"/>
    <tag k="addr:street" v="Peterson Dr"/>
    <tag k="attribution" v="tiger"/>
    <tag k="source" v="tiger_import_v0.3_20091116000619"/>
  </way>
  <way id="44881647" version="1" timestamp="2009-11-23T07:24:24Z" uid="103576" user="DiverCTH" changeset="3192966">
    <nd ref="569006992"/>
    <nd ref="569006994"/>
    <nd ref="569007000"/>
    <nd ref="569006991"/>
    <nd ref="569007013"/>
    <tag k="addr:country" v="US"/>
    <tag k="addr:county" v="Hamilton, TN"/>
    <tag k="addr:interpolation" v="even"/>
    <tag k="addr:postcode" v="37421"/>
    <tag k="addr:state" v="Tennessee"/>
    <tag k="addr:street" v="Peterson Dr"/>
    <tag k="attribution" v="tiger"/>
    <tag k="source" v="tiger_import_v0.3_20091116000619"/>
  </way>
  <way id="44881649" version="1" timestamp="2009-11-23T07:24:24Z" uid="103576" user="DiverCTH" changeset="3192966">
    <nd ref="569007071"/>
    <nd ref="569007069"/>
    <nd ref="569007068"/>
    <nd ref="569007067"/>
    <nd ref="569007065"/>
    <nd ref="569007100"/>
    <nd ref="569007191"/>
    <nd ref="569007190"/>
    <nd ref="569007206"/>
    <nd ref="569007201"/>
    <nd ref="569007197"/>
    <nd ref="569007195"/>
    <nd ref="569007193"/>
    <nd ref="569007213"/>
    <tag k="addr:country" v="US"/>
    <tag k="addr:county" v="Hamilton, TN"/>
    <tag k="addr:interpolation" v="even"/>
    <tag k="addr:postcode" v="37421"/>
    <tag k="addr:state" v="Tennessee"/>
    <tag k="addr:street" v="Tristram Rd"/>
    <tag k="attribution" v="tiger"/>
    <tag k="source" v="tiger_import_v0.3_20091116000621"/>
  </way>
  <way id="44881651" version="1" timestamp="2009-11-23T07:24:24Z" uid="103576" user="DiverCTH" changeset="3192966">
    <nd ref="569007073"/>
    <nd ref="569007075"/>
    <nd ref="569007070"/>
    <nd ref="569007072"/>
    <nd ref="569007102"/>
    <nd ref="569007103"/>
    <nd ref="569007101"/>
    <nd ref="569007188"/>
    <nd ref="569007209"/>
    <nd ref="569007211"/>
    <nd ref="569007199"/>
    <nd ref="569007203"/>
    <nd ref="569007194"/>
    <nd ref="569007214"/>
    <tag k="addr:country" v="US"/>
    <tag k="addr:county" v="Hamilton, TN"/>
    <tag k="addr:interpolation" v="odd"/>
    <tag k="addr:postcode" v="37421"/>
    <tag k="addr:state" v="Tennessee"/>
    <tag k="addr:street" v="Tristram Rd"/>
    <tag k="attribution" v="tiger"/>
    <tag k="source" v="tiger_import_v0.3_20091116000621"/>
  </way>
  <way id="44881653" version="1" timestamp="2009-11-23T07:24:24Z" uid="103576" user="DiverCTH" changeset="3192966">
    <nd ref="569007096"/>
    <nd ref="569007098"/>
    <nd ref="569007111"/>
    <nd ref="569007119"/>
    <nd ref="569007118"/>
    <nd ref="569007121"/>
    <nd ref="569007120"/>
    <nd ref="569007134"/>
    <nd ref="569007133"/>
    <nd ref="569007136"/>
    <nd ref="569007135"/>
    <tag k="addr:country" v="US"/>
    <tag k="addr:county" v="Hamilton, TN"/>
    <tag k="addr:interpolation" v="even"/>
    <tag k="addr:postcode" v="37421"/>
    <tag k="addr:state" v="Tennessee"/>
    <tag k="addr:street" v="Peterson Dr"/>
    <tag k="attribution" v="tiger"/>
    <tag k="source" v="tiger_import_v0.3_20091116000622"/>
  </way>
  <way id="44881655" version="1" timestamp="2009-11-23T07:24:24Z" uid="103576" user="DiverCTH" changeset="3192966">
    <nd ref="569007050"/>
    <nd ref="569007112"/>
    <nd ref="569007113"/>
    <nd ref="569007122"/>
    <nd ref="569007115"/>
    <nd ref="569007116"/>
    <nd ref="569007114"/>
    <nd ref="569007150"/>
    <nd ref="569007132"/>
    <nd ref="569007151"/>
    <nd ref="569007131"/>
    <tag k="addr:country" v="US"/>
    <tag k="addr:county" v="Hamilton, TN"/>
    <tag k="addr:interpolation" v="odd"/>
    <tag k="addr:postcode" v="37421"/>
    <tag k="addr:state" v="Tennessee"/>
    <tag k="addr:street" v="Peterson Dr"/>
    <tag k="attribution" v="tiger"/>
    <tag k="source" v="tiger_import_v0.3_20091116000622"/>
  </way>
  <way id="44881657" version="1" timestamp="2009-11-23T07:24:25Z" uid="103576" user="DiverCTH" changeset="3192966">
    <nd ref="569007081"/>
    <nd ref="569007080"/>
    <nd ref="569007079"/>
    <nd ref="569007078"/>
    <nd ref="569007088"/>
    <nd ref="569007090"/>
    <nd ref="569007091"/>
    <nd ref="569007092"/>
    <nd ref="569007104"/>
    <nd ref="569007108"/>
    <nd ref="569007109"/>
    <nd ref="569007110"/>
    <nd ref="569007126"/>
    <nd ref="569007127"/>
    <nd ref="569007128"/>
    <nd ref="569007129"/>
    <nd ref="569007140"/>
    <nd ref="569007142"/>
    <tag k="addr:country" v="US"/>
    <tag k="addr:county" v="Hamilton, TN"/>
    <tag k="addr:interpolation" v="even"/>
    <tag k="addr:postcode" v="37421"/>
    <tag k="addr:state" v="Tennessee"/>
    <tag k="addr:street" v="Lancelot Rd"/>
    <tag k="attribution" v="tiger"/>
    <tag k="source" v="tiger_import_v0.3_20091116000622"/>
  </way>
  <way id="44881659" version="1" timestamp="2009-11-23T07:24:25Z" uid="103576" user="DiverCTH" changeset="3192966">
    <nd ref="569007097"/>
    <nd ref="569007099"/>
    <nd ref="569007085"/>
    <nd ref="569007084"/>
    <nd ref="569007087"/>
    <nd ref="569007086"/>
    <nd ref="569007094"/>
    <nd ref="569007093"/>
    <nd ref="569007095"/>
    <nd ref="569007107"/>
    <nd ref="569007106"/>
    <nd ref="569007105"/>
    <nd ref="569007125"/>
    <nd ref="569007124"/>
    <nd ref="569007123"/>
    <nd ref="569007130"/>
    <nd ref="569007139"/>
    <nd ref="569007141"/>
    <tag k="addr:country" v="US"/>
    <tag k="addr:county" v="Hamilton, TN"/>
    <tag k="addr:interpolation" v="odd"/>
    <tag k="addr:postcode" v="37421"/>
    <tag k="addr:state" v="Tennessee"/>
    <tag k="addr:street" v="Lancelot Rd"/>
    <tag k="attribution" v="tiger"/>
    <tag k="source" v="tiger_import_v0.3_20091116000622"/>
  </way>
  <way id="44881660" version="1" timestamp="2009-11-23T07:24:25Z" uid="103576" user="DiverCTH" changeset="3192966">
    <nd ref="569007235"/>
    <nd ref="569007234"/>
    <nd ref="569007161"/>
    <nd ref="569007160"/>
    <tag k="addr:country" v="US"/>
    <tag k="addr:county" v="Hamilton, TN"/>
    <tag k="addr:interpolation" v="even"/>
    <tag k="addr:postcode" v="37421"/>
    <tag k="addr:state" v="Tennessee"/>
    <tag k="addr:street" v="Guinevere Pkwy"/>
    <tag k="attribution" v="tiger"/>
    <tag k="source" v="tiger_import_v0.3_20091116000623"/>
  </way>
  <way id="44881664" version="1" timestamp="2009-11-23T07:24:25Z" uid="103576" user="DiverCTH" changeset="3192966">
    <nd ref="569007148"/>
    <nd ref="569007149"/>
    <nd ref="569007146"/>
    <nd ref="569007147"/>
    <nd ref="569007223"/>
    <nd ref="569007226"/>
    <nd ref="569007219"/>
    <nd ref="569007220"/>
    <tag k="addr:country" v="US"/>
    <tag k="addr:county" v="Hamilton, TN"/>
    <tag k="addr:interpolation" v="all"/>
    <tag k="addr:postcode" v="37421"/>
    <tag k="addr:state" v="Tennessee"/>
    <tag k="addr:street" v="Peterson Dr"/>
    <tag k="attribution" v="tiger"/>
    <tag k="source" v="tiger_import_v0.3_20091116000618"/>
  </way>
  <way id="44881665" version="1" timestamp="2009-11-23T07:24:25Z" uid="103576" user="DiverCTH" changeset="3192966">
    <nd ref="569007006"/>
    <nd ref="569007009"/>
    <nd ref="569007007"/>
    <nd ref="569007017"/>
    <nd ref="569007015"/>
    <nd ref="569007026"/>
    <nd ref="569007025"/>
    <tag k="addr:country" v="US"/>
    <tag k="addr:county" v="Hamilton, TN"/>
    <tag k="addr:interpolation" v="odd"/>
    <tag k="addr:postcode" v="37421"/>
    <tag k="addr:state" v="Tennessee"/>
    <tag k="addr:street" v="Peterson Dr"/>
    <tag k="attribution" v="tiger"/>
    <tag k="source" v="tiger_import_v0.3_20091116000622"/>
  </way>
  <way id="44881667" version="1" timestamp="2009-11-23T07:24:25Z" uid="103576" user="DiverCTH" changeset="3192966">
    <nd ref="569007004"/>
    <nd ref="569007002"/>
    <nd ref="569007001"/>
    <nd ref="569007019"/>
    <nd ref="569007023"/>
    <nd ref="569007022"/>
    <nd ref="569007020"/>
    <tag k="addr:country" v="US"/>
    <tag k="addr:county" v="Hamilton, TN"/>
    <tag k="addr:interpolation" v="even"/>
    <tag k="addr:postcode" v="37421"/>
    <tag k="addr:state" v="Tennessee"/>
    <tag k="addr:street" v="Peterson Dr"/>
    <tag k="attribution" v="tiger"/>
    <tag k="source" v="tiger_import_v0.3_20091116000622"/>
  </way>
  <way id="44881669" version="1" timestamp="2009-11-23T07:24:26Z" uid="103576" user="DiverCTH" changeset="3192966">
    <nd ref="569007039"/>
    <nd ref="569007041"/>
    <nd ref="569007044"/>
    <nd ref="569007046"/>
    <nd ref="569007048"/>
    <tag k="addr:country" v="US"/>
    <tag k="addr:county" v="Hamilton, TN"/>
    <tag k="addr:interpolation" v="odd"/>
    <tag k="addr:postcode" v="37421"/>
    <tag k="addr:state" v="Tennessee"/>
    <tag k="addr:street" v="Peterson Dr"/>
    <tag k="attribution" v="tiger"/>
    <tag k="source" v="tiger_import_v0.3_20091116000617"/>
  </way>
  <way id="44881670" version="1" timestamp="2009-11-23T07:24:26Z" uid="103576" user="DiverCTH" changeset="3192966">
    <nd ref="569007037"/>
    <nd ref="569007038"/>
    <nd ref="569007057"/>
    <nd ref="569007059"/>
    <nd ref="569007058"/>
    <nd ref="569007062"/>
    <nd ref="569007061"/>
    <tag k="addr:country" v="US"/>
    <tag k="addr:county" v="Hamilton, TN"/>
    <tag k="addr:interpolation" v="odd"/>
    <tag k="addr:postcode" v="37421"/>
    <tag k="addr:state" v="Tennessee"/>
    <tag k="addr:street" v="Tristram Rd"/>
    <tag k="attribution" v="tiger"/>
    <tag k="source" v="tiger_import_v0.3_20091116000622"/>
  </way>
  <way id="44881672" version="1" timestamp="2009-11-23T07:24:26Z" uid="103576" user="DiverCTH" changeset="3192966">
    <nd ref="569007035"/>
    <nd ref="569007032"/>
    <nd ref="569007033"/>
    <nd ref="569007042"/>
    <nd ref="569007076"/>
    <tag k="addr:country" v="US"/>
    <tag k="addr:county" v="Hamilton, TN"/>
    <tag k="addr:interpolation" v="even"/>
    <tag k="addr:postcode" v="37421"/>
    <tag k="addr:state" v="Tennessee"/>
    <tag k="addr:street" v="Peterson Dr"/>
    <tag k="attribution" v="tiger"/>
    <tag k="source" v="tiger_import_v0.3_20091116000617"/>
  </way>
  <way id="44881674" version="1" timestamp="2009-11-23T07:24:26Z" uid="103576" user="DiverCTH" changeset="3192966">
    <nd ref="569007029"/>
    <nd ref="569007028"/>
    <nd ref="569007053"/>
    <nd ref="569007052"/>
    <nd ref="569007056"/>
    <nd ref="569007054"/>
    <nd ref="569007063"/>
    <tag k="addr:country" v="US"/>
    <tag k="addr:county" v="Hamilton, TN"/>
    <tag k="addr:interpolation" v="even"/>
    <tag k="addr:postcode" v="37421"/>
    <tag k="addr:state" v="Tennessee"/>
    <tag k="addr:street" v="Tristram Rd"/>
    <tag k="attribution" v="tiger"/>
    <tag k="source" v="tiger_import_v0.3_20091116000622"/>
  </way>
  <way id="44881676" version="1" timestamp="2009-11-23T07:24:26Z" uid="103576" user="DiverCTH" changeset="3192966">
    <nd ref="569007180"/>
    <nd ref="569007179"/>
    <nd ref="569007187"/>
    <nd ref="569007184"/>
    <tag k="addr:country" v="US"/>
    <tag k="addr:county" v="Hamilton, TN"/>
    <tag k="addr:interpolation" v="odd"/>
    <tag k="addr:postcode" v="37421"/>
    <tag k="addr:state" v="Tennessee"/>
    <tag k="addr:street" v="Guinevere Pkwy"/>
    <tag k="attribution" v="tiger"/>
    <tag k="source" v="tiger_import_v0.3_20091116000623"/>
  </way>
  <way id="44881677" version="1" timestamp="2009-11-23T07:24:26Z" uid="103576" user="DiverCTH" changeset="3192966">
    <nd ref="569007143"/>
    <nd ref="569007144"/>
    <nd ref="569007158"/>
    <nd ref="569007157"/>
    <nd ref="569007159"/>
    <nd ref="569007164"/>
    <tag k="addr:country" v="US"/>
    <tag k="addr:county" v="Hamilton, TN"/>
    <tag k="addr:interpolation" v="even"/>
    <tag k="addr:postcode" v="37421"/>
    <tag k="addr:state" v="Tennessee"/>
    <tag k="addr:street" v="Lancelot Rd"/>
    <tag k="attribution" v="tiger"/>
    <tag k="source" v="tiger_import_v0.3_20091116000623"/>
  </way>
  <way id="44881679" version="1" timestamp="2009-11-23T07:24:26Z" uid="103576" user="DiverCTH" changeset="3192966">
    <nd ref="569007137"/>
    <nd ref="569007138"/>
    <nd ref="569007153"/>
    <nd ref="569007152"/>
    <nd ref="569007162"/>
    <nd ref="569007163"/>
    <tag k="addr:country" v="US"/>
    <tag k="addr:county" v="Hamilton, TN"/>
    <tag k="addr:interpolation" v="odd"/>
    <tag k="addr:postcode" v="37421"/>
    <tag k="addr:state" v="Tennessee"/>
    <tag k="addr:street" v="Lancelot Rd"/>
    <tag k="attribution" v="tiger"/>
    <tag k="source" v="tiger_import_v0.3_20091116000623"/>
  </way>
  <way id="44881681" version="1" timestamp="2009-11-23T07:24:26Z" uid="103576" user="DiverCTH" changeset="3192966">
    <nd ref="569007228"/>
    <nd ref="569007225"/>
    <nd ref="569007227"/>
    <nd ref="569007243"/>
    <nd ref="569007245"/>
    <nd ref="569007241"/>
    <nd ref="569007242"/>
    <nd ref="569007237"/>
    <tag k="addr:country" v="US"/>
    <tag k="addr:county" v="Hamilton, TN"/>
    <tag k="addr:interpolation" v="odd"/>
    <tag k="addr:postcode" v="37421"/>
    <tag k="addr:state" v="Tennessee"/>
    <tag k="addr:street" v="Peterson Dr"/>
    <tag k="attribution" v="tiger"/>
    <tag k="source" v="tiger_import_v0.3_20091116000622"/>
  </way>
  <way id="44881682" version="1" timestamp="2009-11-23T07:24:27Z" uid="103576" user="DiverCTH" changeset="3192966">
    <nd ref="569007217"/>
    <nd ref="569007216"/>
    <nd ref="569007215"/>
    <nd ref="569007218"/>
    <nd ref="569007233"/>
    <nd ref="569007231"/>
    <nd ref="569007230"/>
    <nd ref="569007239"/>
    <tag k="addr:country" v="US"/>
    <tag k="addr:county" v="Hamilton, TN"/>
    <tag k="addr:interpolation" v="even"/>
    <tag k="addr:postcode" v="37421"/>
    <tag k="addr:state" v="Tennessee"/>
    <tag k="addr:street" v="Peterson Dr"/>
    <tag k="attribution" v="tiger"/>
    <tag k="source" v="tiger_import_v0.3_20091116000622"/>
  </way>
</osm>
