<?xml version='1.0' encoding='UTF-8'?>
<osm version="0.6" generator="libosmium/2.20.0">
  <way id="44891221" version="2" timestamp="2009-11-24T12:26:05Z" uid="20587" user="balrog-kun" changeset="3203869">
    <nd ref="569174400"/>
    <nd ref="569174415"/>
    <tag k="highway" v="residential"/>
    <tag k="name" v="Stefana Żeromskiego"/>
    <tag k="surface" v="paved"/>
  </way>
  <way id="44891224" version="2" timestamp="2009-11-24T12:26:06Z" uid="20587" user="balrog-kun" changeset="3203869">
    <nd ref="569174565"/>
    <nd ref="569174618"/>
    <tag k="highway" v="residential"/>
    <tag k="name" v="Juliusza Słowackiego"/>
    <tag k="surface" v="paved"/>
  </way>
  <way id="44891225" version="2" timestamp="2009-11-24T12:26:06Z" uid="20587" user="balrog-kun" changeset="3203869">
    <nd ref="569174550"/>
    <nd ref="569174663"/>
    <tag k="highway" v="residential"/>
    <tag k="name" v="Adama Mickiewicza"/>
    <tag k="surface" v="paved"/>
  </way>
  <way id="44891227" version="2" timestamp="2009-11-24T12:26:06Z" uid="20587" user="balrog-kun" changeset="3203869">
    <nd ref="569174529"/>
    <nd ref="569174709"/>
    <tag k="highway" v="residential"/>
    <tag k="name" v="Henryka Sienkiewicza"/>
    <tag k="surface" v="paved"/>
  </way>
  <way id="44891232" version="2" timestamp="2009-11-24T12:26:05Z" uid="20587" user="balrog-kun" changeset="3203869">
    <nd ref="569174914"/>
    <nd ref="569174930"/>
    <nd ref="569174946"/>
    <tag k="highway" v="residential"/>
    <tag k="name" v="Juliana Tuwima"/>
    <tag k="surface" v="paved"/>
  </way>
  <way id="44891235" version="2" timestamp="2009-11-24T12:26:05Z" uid="20587" user="balrog-kun" changeset="3203869">
    <nd ref="569175044"/>
    <nd ref="569965214"/>
    <nd ref="569174709"/>
    <nd ref="569174663"/>
    <nd ref="569174618"/>
    <nd ref="569174415"/>
    <nd ref="569175054"/>
    <tag k="highway" v="residential"/>
    <tag k="name" v="Bohaterów Puszczy Kampinoskiej"/>
    <tag k="surface" v="paved"/>
  </way>
  <way id="44891236" version="2" timestamp="2009-11-24T12:26:05Z" uid="20587" user="balrog-kun" changeset="3203869">
    <nd ref="569174512"/>
    <nd ref="569965214"/>
    <nd ref="569174930"/>
    <tag k="highway" v="residential"/>
    <tag k="name" v="Władysława Broniewskiego"/>
    <tag k="surface" v="paved"/>
  </way>
</osm>
