<?xml version='1.0' encoding='UTF-8'?>
<osm version="0.6" generator="libosmium/2.20.0">
  <way id="44994476" version="1" timestamp="2009-11-25T01:27:14Z" uid="99207" user="Lar Kiesel" changeset="3209142">
    <nd ref="570441598"/>
    <nd ref="111768268"/>
    <tag k="bridge" v="yes"/>
    <tag k="highway" v="secondary"/>
    <tag k="name" v="Lodge Hwy"/>
    <tag k="name_1" v="State Highway 217"/>
    <tag k="ref" v="SC 217"/>
    <tag k="tiger:cfcc" v="A31"/>
    <tag k="tiger:county" v="Colleton, SC"/>
    <tag k="tiger:name_base" v="Lodge"/>
    <tag k="tiger:name_base_1" v="State Highway 217"/>
    <tag k="tiger:name_type" v="Hwy"/>
    <tag k="tiger:reviewed" v="no"/>
    <tag k="tiger:separated" v="no"/>
    <tag k="tiger:source" v="tiger_import_dch_v0.6_20070829"/>
    <tag k="tiger:tlid" v="19152065:19152067"/>
    <tag k="tiger:upload_uuid" v="bulk_upload.pl-4aeb8913-6b3a-444e-987f-f71c577bf2ea"/>
  </way>
  <way id="44994478" version="1" timestamp="2009-11-25T01:27:15Z" uid="99207" user="Lar Kiesel" changeset="3209142">
    <nd ref="109703644"/>
    <nd ref="109703645"/>
    <nd ref="109703646"/>
    <nd ref="109689668"/>
    <nd ref="109695042"/>
    <nd ref="109690291"/>
    <nd ref="109703648"/>
    <nd ref="111768132"/>
    <tag k="highway" v="secondary"/>
    <tag k="name" v="War Eagle Rd"/>
    <tag k="name_1" v="State Highway 217"/>
    <tag k="ref" v="SC 217"/>
    <tag k="tiger:cfcc" v="A31"/>
    <tag k="tiger:county" v="Bamberg, SC"/>
    <tag k="tiger:name_base" v="War Eagle"/>
    <tag k="tiger:name_base_1" v="State Highway 217"/>
    <tag k="tiger:name_type" v="Rd"/>
    <tag k="tiger:reviewed" v="no"/>
    <tag k="tiger:separated" v="no"/>
    <tag k="tiger:source" v="tiger_import_dch_v0.6_20070829"/>
    <tag k="tiger:tlid" v="18961742:18961743:18960098:18959998"/>
    <tag k="tiger:upload_uuid" v="bulk_upload.pl-3dbc4470-5d59-4aa8-88c1-b52a47f820c5"/>
  </way>
  <way id="44994480" version="1" timestamp="2009-11-25T01:27:16Z" uid="99207" user="Lar Kiesel" changeset="3209142">
    <nd ref="570441558"/>
    <nd ref="109699965"/>
    <tag k="bridge" v="yes"/>
    <tag k="highway" v="secondary"/>
    <tag k="name" v="State Highway 217"/>
    <tag k="ref" v="SC 217"/>
    <tag k="tiger:cfcc" v="A31"/>
    <tag k="tiger:county" v="Bamberg, SC"/>
    <tag k="tiger:name_base" v="State Highway 217"/>
    <tag k="tiger:reviewed" v="no"/>
    <tag k="tiger:separated" v="no"/>
    <tag k="tiger:source" v="tiger_import_dch_v0.6_20070829"/>
    <tag k="tiger:tlid" v="18959993"/>
    <tag k="tiger:upload_uuid" v="bulk_upload.pl-3dbc4470-5d59-4aa8-88c1-b52a47f820c5"/>
  </way>
</osm>
