<?xml version='1.0' encoding='UTF-8'?>
<osm version="0.6" generator="libosmium/2.20.0">
  <way id="45000032" version="2" timestamp="2010-07-09T18:17:05Z" uid="74617" user="JohnSmith" changeset="5175333">
    <nd ref="69038557"/>
    <nd ref="69038588"/>
    <nd ref="69038601"/>
    <nd ref="69038608"/>
    <tag k="highway" v="residential"/>
    <tag k="maxspeed" v="50"/>
    <tag k="maxspeed:source" v="default residential speed limit in Australia"/>
    <tag k="name" v="Swansea Street East"/>
  </way>
  <way id="45000032" version="3" timestamp="2011-01-27T14:24:59Z" uid="4467" user="Rosscoe" changeset="7104092">
    <nd ref="69038557"/>
    <nd ref="69038588"/>
    <nd ref="69038601"/>
    <nd ref="69038608"/>
    <tag k="highway" v="residential"/>
    <tag k="maxspeed" v="50"/>
    <tag k="maxspeed:source" v="default residential speed limit in Australia"/>
    <tag k="name" v="Swansea Street East"/>
  </way>
  <way id="45000032" version="4" timestamp="2012-01-19T10:41:42Z" uid="147510" user="woodpeck_fixbot" changeset="10434386">
    <nd ref="69038557"/>
    <nd ref="69038588"/>
    <nd ref="69038601"/>
    <nd ref="69038608"/>
    <tag k="highway" v="residential"/>
    <tag k="name" v="Swansea Street East"/>
  </way>
  <way id="45000033" version="2" timestamp="2010-07-09T18:18:29Z" uid="74617" user="JohnSmith" changeset="5175333">
    <nd ref="570509878"/>
    <nd ref="422509887"/>
    <nd ref="422509888"/>
    <tag k="highway" v="residential"/>
    <tag k="maxspeed" v="50"/>
    <tag k="maxspeed:source" v="default residential speed limit in Australia"/>
    <tag k="name" v="Swansea Street East"/>
  </way>
  <way id="45000033" version="3" timestamp="2012-01-19T10:41:44Z" uid="147510" user="woodpeck_fixbot" changeset="10434386">
    <nd ref="570509878"/>
    <nd ref="422509887"/>
    <nd ref="422509888"/>
    <tag k="highway" v="residential"/>
    <tag k="name" v="Swansea Street East"/>
  </way>
  <way id="45000036" version="2" timestamp="2010-07-09T18:15:48Z" uid="74617" user="JohnSmith" changeset="5175333">
    <nd ref="69038608"/>
    <nd ref="570509878"/>
    <tag k="highway" v="residential"/>
    <tag k="maxspeed" v="50"/>
    <tag k="maxspeed:source" v="default residential speed limit in Australia"/>
    <tag k="name" v="Swansea Street East"/>
    <tag k="oneway" v="no"/>
  </way>
  <way id="45000036" version="3" timestamp="2011-01-27T14:25:00Z" uid="4467" user="Rosscoe" changeset="7104092">
    <nd ref="1123423035"/>
    <nd ref="1123423031"/>
    <nd ref="570509878"/>
    <tag k="highway" v="residential"/>
    <tag k="maxspeed" v="50"/>
    <tag k="maxspeed:source" v="default residential speed limit in Australia"/>
    <tag k="name" v="Swansea Street East"/>
    <tag k="oneway" v="yes"/>
  </way>
  <way id="45000036" version="4" timestamp="2012-01-19T10:41:45Z" uid="147510" user="woodpeck_fixbot" changeset="10434386">
    <nd ref="1123423035"/>
    <nd ref="1123423031"/>
    <nd ref="570509878"/>
    <tag k="highway" v="residential"/>
    <tag k="name" v="Swansea Street East"/>
    <tag k="oneway" v="yes"/>
  </way>
</osm>
