<?xml version='1.0' encoding='UTF-8'?>
<osm version="0.6" generator="libosmium/2.20.0">
  <way id="45011000" version="1" timestamp="2009-11-25T08:16:49Z" uid="4467" user="Rosscoe" changeset="3210116">
    <nd ref="570613403"/>
    <nd ref="304708591"/>
    <nd ref="304708592"/>
    <nd ref="570613410"/>
    <nd ref="304708593"/>
    <nd ref="304708594"/>
    <tag k="highway" v="residential"/>
    <tag k="name" v="Little Norman Street"/>
    <tag k="source" v="nearmap"/>
  </way>
  <way id="45011000" version="2" timestamp="2010-07-06T17:29:23Z" uid="74617" user="JohnSmith" changeset="5152225">
    <nd ref="570613403"/>
    <nd ref="304708591"/>
    <nd ref="304708592"/>
    <nd ref="570613410"/>
    <nd ref="304708593"/>
    <nd ref="304708594"/>
    <tag k="highway" v="residential"/>
    <tag k="maxspeed" v="50"/>
    <tag k="maxspeed:source" v="default residential speed limit in Australia"/>
    <tag k="name" v="Little Norman Street"/>
    <tag k="source" v="nearmap"/>
  </way>
  <way id="45011000" version="3" timestamp="2011-07-21T09:41:04Z" uid="349913" user="Peter W34" changeset="8786672">
    <nd ref="570613403"/>
    <nd ref="304708591"/>
    <nd ref="304708592"/>
    <nd ref="570613410"/>
    <nd ref="304708593"/>
    <nd ref="304708594"/>
    <nd ref="1368810110"/>
    <tag k="highway" v="residential"/>
    <tag k="maxspeed" v="50"/>
    <tag k="maxspeed:source" v="default residential speed limit in Australia"/>
    <tag k="name" v="Little Norman Street"/>
    <tag k="source" v="nearmap"/>
  </way>
  <way id="45011001" version="1" timestamp="2009-11-25T08:16:49Z" uid="4467" user="Rosscoe" changeset="3210116">
    <nd ref="570613403"/>
    <nd ref="304708590"/>
    <tag k="highway" v="residential"/>
    <tag k="name" v="Little Norman Street"/>
    <tag k="oneway" v="yes"/>
    <tag k="source" v="nearmap"/>
  </way>
  <way id="45011001" version="2" timestamp="2010-07-06T17:27:16Z" uid="74617" user="JohnSmith" changeset="5152225">
    <nd ref="570613403"/>
    <nd ref="304708590"/>
    <tag k="highway" v="residential"/>
    <tag k="maxspeed" v="50"/>
    <tag k="maxspeed:source" v="default residential speed limit in Australia"/>
    <tag k="name" v="Little Norman Street"/>
    <tag k="oneway" v="yes"/>
    <tag k="source" v="nearmap"/>
  </way>
  <way id="45011002" version="1" timestamp="2009-11-25T08:16:49Z" uid="4467" user="Rosscoe" changeset="3210116">
    <nd ref="12344299"/>
    <nd ref="12342121"/>
    <tag k="bridge" v="yes"/>
    <tag k="highway" v="primary"/>
    <tag k="name" v="Gold Coast Hwy"/>
    <tag k="oneway" v="yes"/>
    <tag k="ref" v="2"/>
  </way>
  <way id="45011002" version="2" timestamp="2009-11-25T08:20:40Z" uid="4467" user="Rosscoe" changeset="3210116">
    <nd ref="12344299"/>
    <nd ref="12342121"/>
    <tag k="bridge" v="yes"/>
    <tag k="highway" v="primary"/>
    <tag k="name" v="Gold Coast Highway"/>
    <tag k="oneway" v="yes"/>
    <tag k="ref" v="2"/>
  </way>
  <way id="45011002" version="3" timestamp="2009-11-25T08:22:16Z" uid="4467" user="Rosscoe" changeset="3210116">
    <nd ref="12344299"/>
    <nd ref="12342121"/>
    <tag k="bridge" v="yes"/>
    <tag k="highway" v="primary"/>
    <tag k="layer" v="1"/>
    <tag k="name" v="Gold Coast Highway"/>
    <tag k="oneway" v="yes"/>
    <tag k="ref" v="2"/>
  </way>
  <way id="45011002" version="4" timestamp="2009-11-25T08:26:53Z" uid="4467" user="Rosscoe" changeset="3210116">
    <nd ref="12344299"/>
    <nd ref="12342121"/>
    <tag k="bridge" v="yes"/>
    <tag k="highway" v="primary"/>
    <tag k="layer" v="1"/>
    <tag k="name" v="Gold Coast Highway"/>
    <tag k="oneway" v="yes"/>
    <tag k="ref" v="2"/>
    <tag k="source" v="survey"/>
  </way>
  <way id="45011002" version="5" timestamp="2010-04-03T09:07:32Z" uid="74617" user="JohnSmith" changeset="4310277">
    <nd ref="12344299"/>
    <nd ref="12342121"/>
    <tag k="bridge" v="yes"/>
    <tag k="highway" v="primary"/>
    <tag k="layer" v="1"/>
    <tag k="name" v="Gold Coast Highway"/>
    <tag k="oneway" v="yes"/>
    <tag k="source" v="survey"/>
  </way>
  <way id="45011002" version="6" timestamp="2010-04-03T09:39:40Z" uid="74617" user="JohnSmith" changeset="4310277">
    <nd ref="12344299"/>
    <nd ref="12342121"/>
    <tag k="bridge" v="yes"/>
    <tag k="highway" v="primary"/>
    <tag k="layer" v="1"/>
    <tag k="oneway" v="yes"/>
    <tag k="source" v="survey"/>
  </way>
  <way id="45011017" version="1" timestamp="2009-11-25T08:18:02Z" uid="4467" user="Rosscoe" changeset="3210116">
    <nd ref="570615370"/>
    <nd ref="304708201"/>
    <nd ref="12342203"/>
    <nd ref="138973746"/>
    <nd ref="12342138"/>
    <nd ref="12341217"/>
    <nd ref="140544492"/>
    <nd ref="304512272"/>
    <nd ref="12341328"/>
    <nd ref="304512367"/>
    <nd ref="138973750"/>
    <nd ref="138973752"/>
    <nd ref="304512305"/>
    <nd ref="12341317"/>
    <tag k="highway" v="primary"/>
    <tag k="name" v="Gold Coast Highway"/>
  </way>
  <way id="45011017" version="2" timestamp="2010-04-03T09:17:35Z" uid="74617" user="JohnSmith" changeset="4310277">
    <nd ref="12340575"/>
    <nd ref="569103930"/>
    <nd ref="569103936"/>
    <nd ref="569103941"/>
    <nd ref="569103943"/>
    <nd ref="569103945"/>
    <nd ref="569103949"/>
    <nd ref="569103950"/>
    <nd ref="569103954"/>
    <nd ref="569103125"/>
    <nd ref="569103138"/>
    <nd ref="569103647"/>
    <nd ref="569103144"/>
    <nd ref="569103153"/>
    <nd ref="569103161"/>
    <nd ref="304512305"/>
    <nd ref="138973752"/>
    <nd ref="138973750"/>
    <nd ref="304512367"/>
    <nd ref="12341328"/>
    <nd ref="304512272"/>
    <nd ref="683086390"/>
    <nd ref="140544492"/>
    <nd ref="12341217"/>
    <nd ref="683086387"/>
    <nd ref="12342138"/>
    <nd ref="138973746"/>
    <nd ref="683086379"/>
    <nd ref="12342203"/>
    <nd ref="304708201"/>
    <nd ref="570615370"/>
    <nd ref="570617784"/>
    <nd ref="570617786"/>
    <nd ref="570617788"/>
    <nd ref="570617779"/>
    <nd ref="570617780"/>
    <nd ref="570617782"/>
    <nd ref="570617775"/>
    <nd ref="570619435"/>
    <nd ref="570617777"/>
    <tag k="highway" v="primary"/>
    <tag k="name" v="Gold Coast Highway"/>
    <tag k="oneway" v="yes"/>
    <tag k="source" v="nearmap"/>
  </way>
  <way id="45011017" version="3" timestamp="2010-04-03T09:39:45Z" uid="74617" user="JohnSmith" changeset="4310277"/>
  <way id="45011055" version="1" timestamp="2009-11-25T08:20:39Z" uid="4467" user="Rosscoe" changeset="3210116">
    <nd ref="570615370"/>
    <nd ref="570617784"/>
    <nd ref="570617786"/>
    <nd ref="570617788"/>
    <nd ref="570617779"/>
    <nd ref="570617780"/>
    <nd ref="570617782"/>
    <nd ref="570617775"/>
    <nd ref="570617777"/>
    <tag k="highway" v="primary"/>
    <tag k="name" v="Gold Coast Highway"/>
    <tag k="oneway" v="yes"/>
    <tag k="ref" v="2"/>
  </way>
  <way id="45011055" version="2" timestamp="2009-11-25T08:22:16Z" uid="4467" user="Rosscoe" changeset="3210116">
    <nd ref="570615370"/>
    <nd ref="570617784"/>
    <nd ref="570617786"/>
    <nd ref="570617788"/>
    <nd ref="570617779"/>
    <nd ref="570617780"/>
    <nd ref="570617782"/>
    <nd ref="570617775"/>
    <nd ref="570619435"/>
    <nd ref="570617777"/>
    <tag k="highway" v="primary"/>
    <tag k="name" v="Gold Coast Highway"/>
    <tag k="oneway" v="yes"/>
    <tag k="ref" v="2"/>
  </way>
  <way id="45011055" version="3" timestamp="2009-11-25T08:26:53Z" uid="4467" user="Rosscoe" changeset="3210116">
    <nd ref="570615370"/>
    <nd ref="570617784"/>
    <nd ref="570617786"/>
    <nd ref="570617788"/>
    <nd ref="570617779"/>
    <nd ref="570617780"/>
    <nd ref="570617782"/>
    <nd ref="570617775"/>
    <nd ref="570619435"/>
    <nd ref="570617777"/>
    <tag k="highway" v="primary"/>
    <tag k="name" v="Gold Coast Highway"/>
    <tag k="oneway" v="yes"/>
    <tag k="ref" v="2"/>
    <tag k="source" v="survey"/>
  </way>
  <way id="45011055" version="4" timestamp="2010-04-03T09:07:33Z" uid="74617" user="JohnSmith" changeset="4310277">
    <nd ref="570615370"/>
    <nd ref="570617784"/>
    <nd ref="570617786"/>
    <nd ref="570617788"/>
    <nd ref="570617779"/>
    <nd ref="570617780"/>
    <nd ref="570617782"/>
    <nd ref="570617775"/>
    <nd ref="570619435"/>
    <nd ref="570617777"/>
    <tag k="highway" v="primary"/>
    <tag k="name" v="Gold Coast Highway"/>
    <tag k="oneway" v="yes"/>
    <tag k="source" v="survey"/>
  </way>
  <way id="45011055" version="5" timestamp="2010-04-03T09:17:39Z" uid="74617" user="JohnSmith" changeset="4310277"/>
  <way id="45011056" version="1" timestamp="2009-11-25T08:20:40Z" uid="4467" user="Rosscoe" changeset="3210116">
    <nd ref="570617777"/>
    <nd ref="570617773"/>
    <tag k="bridge" v="yes"/>
    <tag k="highway" v="primary"/>
    <tag k="name" v="Gold Coast Highway"/>
    <tag k="oneway" v="yes"/>
    <tag k="ref" v="2"/>
  </way>
  <way id="45011056" version="2" timestamp="2009-11-25T08:22:16Z" uid="4467" user="Rosscoe" changeset="3210116">
    <nd ref="570617777"/>
    <nd ref="570617773"/>
    <tag k="bridge" v="yes"/>
    <tag k="highway" v="primary"/>
    <tag k="layer" v="1"/>
    <tag k="name" v="Gold Coast Highway"/>
    <tag k="oneway" v="yes"/>
    <tag k="ref" v="2"/>
  </way>
  <way id="45011056" version="3" timestamp="2009-11-25T08:26:53Z" uid="4467" user="Rosscoe" changeset="3210116">
    <nd ref="570617777"/>
    <nd ref="570617773"/>
    <tag k="bridge" v="yes"/>
    <tag k="highway" v="primary"/>
    <tag k="layer" v="1"/>
    <tag k="name" v="Gold Coast Highway"/>
    <tag k="oneway" v="yes"/>
    <tag k="ref" v="2"/>
    <tag k="source" v="survey"/>
  </way>
  <way id="45011056" version="4" timestamp="2010-04-03T09:07:32Z" uid="74617" user="JohnSmith" changeset="4310277">
    <nd ref="570617777"/>
    <nd ref="570617773"/>
    <tag k="bridge" v="yes"/>
    <tag k="highway" v="primary"/>
    <tag k="layer" v="1"/>
    <tag k="name" v="Gold Coast Highway"/>
    <tag k="oneway" v="yes"/>
    <tag k="source" v="survey"/>
  </way>
  <way id="45011056" version="5" timestamp="2010-04-03T09:39:40Z" uid="74617" user="JohnSmith" changeset="4310277">
    <nd ref="570617777"/>
    <nd ref="570617773"/>
    <tag k="bridge" v="yes"/>
    <tag k="highway" v="primary"/>
    <tag k="layer" v="1"/>
    <tag k="oneway" v="yes"/>
    <tag k="source" v="survey"/>
  </way>
  <way id="45011070" version="1" timestamp="2009-11-25T08:22:16Z" uid="4467" user="Rosscoe" changeset="3210116">
    <nd ref="304512528"/>
    <nd ref="570619434"/>
    <nd ref="570619435"/>
    <tag k="highway" v="residential"/>
    <tag k="name" v="Marine Parade"/>
    <tag k="oneway" v="yes"/>
  </way>
  <way id="45011070" version="2" timestamp="2010-07-06T17:27:32Z" uid="74617" user="JohnSmith" changeset="5152225">
    <nd ref="304512528"/>
    <nd ref="570619434"/>
    <nd ref="570619435"/>
    <tag k="highway" v="residential"/>
    <tag k="maxspeed" v="50"/>
    <tag k="maxspeed:source" v="default residential speed limit in Australia"/>
    <tag k="name" v="Marine Parade"/>
    <tag k="oneway" v="yes"/>
  </way>
  <way id="45011070" version="3" timestamp="2011-07-21T10:14:01Z" uid="349913" user="Peter W34" changeset="8786672">
    <nd ref="304512528"/>
    <nd ref="570619434"/>
    <nd ref="570619435"/>
    <tag k="cycleway" v="lane"/>
    <tag k="highway" v="tertiary"/>
    <tag k="maxspeed" v="50"/>
    <tag k="maxspeed:source" v="default residential speed limit in Australia"/>
    <tag k="name" v="Marine Parade"/>
    <tag k="oneway" v="yes"/>
    <tag k="source" v="nearmap"/>
  </way>
  <way id="45011071" version="1" timestamp="2009-11-25T08:22:16Z" uid="4467" user="Rosscoe" changeset="3210116">
    <nd ref="570617773"/>
    <nd ref="570619433"/>
    <tag k="highway" v="primary"/>
    <tag k="name" v="Gold Coast Highway"/>
    <tag k="oneway" v="yes"/>
    <tag k="ref" v="2"/>
  </way>
  <way id="45011071" version="2" timestamp="2009-11-25T08:26:53Z" uid="4467" user="Rosscoe" changeset="3210116"/>
  <way id="45011101" version="1" timestamp="2009-11-25T08:26:52Z" uid="4467" user="Rosscoe" changeset="3210116">
    <nd ref="198504972"/>
    <nd ref="12344262"/>
    <nd ref="12344160"/>
    <nd ref="86244182"/>
    <nd ref="179965526"/>
    <nd ref="86244184"/>
    <nd ref="12344154"/>
    <nd ref="12344411"/>
    <nd ref="12344396"/>
    <nd ref="39557556"/>
    <nd ref="39557560"/>
    <nd ref="39557562"/>
    <tag k="highway" v="primary"/>
    <tag k="name" v="Gold Coast Highway"/>
    <tag k="oneway" v="yes"/>
    <tag k="ref" v="2"/>
  </way>
  <way id="45011101" version="2" timestamp="2009-11-25T08:40:57Z" uid="4467" user="Rosscoe" changeset="3210116">
    <nd ref="198504972"/>
    <nd ref="12344262"/>
    <nd ref="12344160"/>
    <nd ref="570649947"/>
    <nd ref="570649952"/>
    <nd ref="179965526"/>
    <nd ref="86244184"/>
    <nd ref="12344154"/>
    <nd ref="12344411"/>
    <nd ref="12344396"/>
    <nd ref="39557556"/>
    <nd ref="39557560"/>
    <nd ref="39557562"/>
    <tag k="highway" v="primary"/>
    <tag k="name" v="Gold Coast Highway"/>
    <tag k="oneway" v="yes"/>
    <tag k="ref" v="2"/>
  </way>
  <way id="45011101" version="3" timestamp="2009-11-26T03:19:36Z" uid="4467" user="Rosscoe" changeset="3217637">
    <nd ref="198504972"/>
    <nd ref="12344262"/>
    <nd ref="571324327"/>
    <nd ref="12344160"/>
    <nd ref="570649947"/>
    <nd ref="570649952"/>
    <nd ref="179965526"/>
    <nd ref="86244184"/>
    <nd ref="12344154"/>
    <nd ref="12344411"/>
    <nd ref="12344396"/>
    <nd ref="39557556"/>
    <nd ref="39557560"/>
    <nd ref="39557562"/>
    <tag k="highway" v="primary"/>
    <tag k="name" v="Gold Coast Highway"/>
    <tag k="oneway" v="yes"/>
    <tag k="ref" v="2"/>
  </way>
  <way id="45011101" version="4" timestamp="2009-11-26T06:41:33Z" uid="4467" user="Rosscoe" changeset="3218003">
    <nd ref="198504972"/>
    <nd ref="12344262"/>
    <nd ref="571324327"/>
    <nd ref="12344160"/>
    <nd ref="570649947"/>
    <nd ref="570649952"/>
    <nd ref="179965526"/>
    <nd ref="86244184"/>
    <nd ref="12344154"/>
    <nd ref="12344411"/>
    <nd ref="571352572"/>
    <nd ref="12344396"/>
    <nd ref="39557556"/>
    <nd ref="39557560"/>
    <nd ref="39557562"/>
    <tag k="highway" v="primary"/>
    <tag k="name" v="Gold Coast Highway"/>
    <tag k="oneway" v="yes"/>
    <tag k="ref" v="2"/>
    <tag k="source" v="nearmap"/>
  </way>
  <way id="45011101" version="5" timestamp="2009-11-26T06:54:32Z" uid="4467" user="Rosscoe" changeset="3218047">
    <nd ref="198504972"/>
    <nd ref="12344262"/>
    <nd ref="571324327"/>
    <nd ref="12344160"/>
    <nd ref="570649947"/>
    <nd ref="570649952"/>
    <nd ref="179965526"/>
    <nd ref="86244184"/>
    <nd ref="12344154"/>
    <nd ref="12344411"/>
    <nd ref="571352572"/>
    <nd ref="571355754"/>
    <nd ref="12344396"/>
    <nd ref="39557556"/>
    <nd ref="39557560"/>
    <nd ref="39557562"/>
    <tag k="highway" v="primary"/>
    <tag k="name" v="Gold Coast Highway"/>
    <tag k="oneway" v="yes"/>
    <tag k="ref" v="2"/>
    <tag k="source" v="nearmap"/>
  </way>
  <way id="45011101" version="6" timestamp="2010-04-03T09:07:32Z" uid="74617" user="JohnSmith" changeset="4310277">
    <nd ref="198504972"/>
    <nd ref="12344262"/>
    <nd ref="571324327"/>
    <nd ref="12344160"/>
    <nd ref="570649947"/>
    <nd ref="570649952"/>
    <nd ref="179965526"/>
    <nd ref="86244184"/>
    <nd ref="12344154"/>
    <nd ref="12344411"/>
    <nd ref="571352572"/>
    <nd ref="571355754"/>
    <nd ref="12344396"/>
    <nd ref="39557556"/>
    <nd ref="39557560"/>
    <nd ref="39557562"/>
    <tag k="highway" v="primary"/>
    <tag k="name" v="Gold Coast Highway"/>
    <tag k="oneway" v="yes"/>
    <tag k="source" v="nearmap"/>
  </way>
  <way id="45011101" version="7" timestamp="2010-04-03T09:39:40Z" uid="74617" user="JohnSmith" changeset="4310277">
    <nd ref="198504972"/>
    <nd ref="12344262"/>
    <nd ref="571324327"/>
    <nd ref="12344160"/>
    <nd ref="570649947"/>
    <nd ref="570649952"/>
    <nd ref="179965526"/>
    <nd ref="86244184"/>
    <nd ref="12344154"/>
    <nd ref="12344411"/>
    <nd ref="571352572"/>
    <nd ref="571355754"/>
    <nd ref="12344396"/>
    <nd ref="39557556"/>
    <nd ref="39557560"/>
    <nd ref="39557562"/>
    <tag k="highway" v="primary"/>
    <tag k="oneway" v="yes"/>
    <tag k="source" v="nearmap"/>
  </way>
  <way id="45011102" version="1" timestamp="2009-11-25T08:26:52Z" uid="4467" user="Rosscoe" changeset="3210116">
    <nd ref="570623565"/>
    <nd ref="570623566"/>
    <nd ref="570623573"/>
    <nd ref="570623575"/>
    <tag k="highway" v="service"/>
    <tag k="oneway" v="yes"/>
    <tag k="source" v="nearmap"/>
  </way>
  <way id="45011102" version="2" timestamp="2010-03-03T00:28:53Z" uid="211951" user="Dr Paul Martin" changeset="4021125">
    <nd ref="570623565"/>
    <nd ref="659620673"/>
    <nd ref="570623566"/>
    <nd ref="570623573"/>
    <nd ref="570623575"/>
    <tag k="highway" v="service"/>
    <tag k="oneway" v="yes"/>
    <tag k="source" v="nearmap"/>
  </way>
  <way id="45011103" version="1" timestamp="2009-11-25T08:26:52Z" uid="4467" user="Rosscoe" changeset="3210116">
    <nd ref="570623575"/>
    <nd ref="570623576"/>
    <nd ref="570623578"/>
    <nd ref="570623580"/>
    <nd ref="570623581"/>
    <nd ref="570623563"/>
    <tag k="highway" v="service"/>
    <tag k="oneway" v="yes"/>
    <tag k="source" v="nearmap"/>
  </way>
  <way id="45011103" version="2" timestamp="2010-03-03T00:28:54Z" uid="211951" user="Dr Paul Martin" changeset="4021125">
    <nd ref="570623575"/>
    <nd ref="570623576"/>
    <nd ref="570623578"/>
    <nd ref="570623580"/>
    <nd ref="570623581"/>
    <nd ref="659620677"/>
    <nd ref="570623563"/>
    <tag k="highway" v="service"/>
    <tag k="oneway" v="yes"/>
    <tag k="source" v="nearmap"/>
  </way>
  <way id="45011104" version="1" timestamp="2009-11-25T08:26:52Z" uid="4467" user="Rosscoe" changeset="3210116">
    <nd ref="570623575"/>
    <nd ref="570623583"/>
    <nd ref="570623584"/>
    <nd ref="570623586"/>
    <nd ref="570623588"/>
    <nd ref="570623589"/>
    <nd ref="570623591"/>
    <nd ref="570623595"/>
    <tag k="highway" v="service"/>
    <tag k="source" v="nearmap"/>
  </way>
  <way id="45011116" version="1" timestamp="2009-11-25T08:27:33Z" uid="4467" user="Rosscoe" changeset="3210116">
    <nd ref="570613425"/>
    <nd ref="570624355"/>
    <nd ref="570624358"/>
    <nd ref="570624361"/>
    <nd ref="570624364"/>
    <nd ref="570624366"/>
    <nd ref="570624368"/>
    <nd ref="570624370"/>
    <tag k="highway" v="service"/>
    <tag k="oneway" v="yes"/>
    <tag k="source" v="nearmap"/>
  </way>
  <way id="45011195" version="1" timestamp="2009-11-25T08:31:23Z" uid="4467" user="Rosscoe" changeset="3210116">
    <nd ref="570632634"/>
    <nd ref="12344262"/>
    <tag k="highway" v="residential"/>
    <tag k="oneway" v="yes"/>
    <tag k="source" v="nearmap"/>
  </way>
  <way id="45011195" version="2" timestamp="2010-07-06T17:27:58Z" uid="74617" user="JohnSmith" changeset="5152225">
    <nd ref="570632634"/>
    <nd ref="12344262"/>
    <tag k="highway" v="residential"/>
    <tag k="maxspeed" v="50"/>
    <tag k="maxspeed:source" v="default residential speed limit in Australia"/>
    <tag k="oneway" v="yes"/>
    <tag k="source" v="nearmap"/>
  </way>
  <way id="45011196" version="1" timestamp="2009-11-25T08:31:23Z" uid="4467" user="Rosscoe" changeset="3210116">
    <nd ref="198504972"/>
    <nd ref="570632634"/>
    <tag k="highway" v="residential"/>
    <tag k="oneway" v="yes"/>
    <tag k="source" v="nearmap"/>
  </way>
  <way id="45011196" version="2" timestamp="2010-07-06T17:24:30Z" uid="74617" user="JohnSmith" changeset="5152225">
    <nd ref="198504972"/>
    <nd ref="570632634"/>
    <tag k="highway" v="residential"/>
    <tag k="maxspeed" v="50"/>
    <tag k="maxspeed:source" v="default residential speed limit in Australia"/>
    <tag k="oneway" v="yes"/>
    <tag k="source" v="nearmap"/>
  </way>
  <way id="45011197" version="1" timestamp="2009-11-25T08:31:23Z" uid="4467" user="Rosscoe" changeset="3210116">
    <nd ref="570632637"/>
    <nd ref="570632632"/>
    <nd ref="570632640"/>
    <nd ref="570632648"/>
    <nd ref="570632637"/>
    <tag k="amenity" v="parking"/>
    <tag k="parking" v="surface"/>
  </way>
  <way id="45011355" version="1" timestamp="2009-11-25T08:40:54Z" uid="4467" user="Rosscoe" changeset="3210116">
    <nd ref="570649947"/>
    <nd ref="570649949"/>
    <nd ref="570649941"/>
    <nd ref="570649944"/>
    <nd ref="570649937"/>
    <nd ref="570649930"/>
    <nd ref="570649923"/>
    <nd ref="570649925"/>
    <tag k="highway" v="residential"/>
    <tag k="name" v="Nind Street"/>
    <tag k="oneway" v="yes"/>
    <tag k="source" v="survey"/>
  </way>
  <way id="45011355" version="2" timestamp="2009-11-25T09:03:23Z" uid="4467" user="Rosscoe" changeset="3210116">
    <nd ref="570649947"/>
    <nd ref="570649949"/>
    <nd ref="570649941"/>
    <nd ref="570649944"/>
    <nd ref="570649937"/>
    <nd ref="570649930"/>
    <nd ref="570649923"/>
    <nd ref="570649925"/>
    <tag k="highway" v="residential"/>
    <tag k="name" v="Nind Street"/>
    <tag k="oneway" v="yes"/>
    <tag k="source" v="survey"/>
  </way>
  <way id="45011355" version="3" timestamp="2010-07-06T17:31:57Z" uid="74617" user="JohnSmith" changeset="5152225">
    <nd ref="570649947"/>
    <nd ref="570649949"/>
    <nd ref="570649941"/>
    <nd ref="570649944"/>
    <nd ref="570649937"/>
    <nd ref="570649930"/>
    <nd ref="570649923"/>
    <nd ref="570649925"/>
    <tag k="highway" v="residential"/>
    <tag k="maxspeed" v="50"/>
    <tag k="maxspeed:source" v="default residential speed limit in Australia"/>
    <tag k="name" v="Nind Street"/>
    <tag k="oneway" v="yes"/>
    <tag k="source" v="survey"/>
  </way>
  <way id="45011355" version="4" timestamp="2011-07-21T11:05:51Z" uid="349913" user="Peter W34" changeset="8786672">
    <nd ref="570649947"/>
    <nd ref="570649949"/>
    <nd ref="1368881686"/>
    <nd ref="1368881687"/>
    <nd ref="1368881680"/>
    <nd ref="570649941"/>
    <nd ref="570649944"/>
    <nd ref="1368881679"/>
    <nd ref="1368881677"/>
    <nd ref="570649937"/>
    <nd ref="570649930"/>
    <nd ref="570649923"/>
    <nd ref="570649925"/>
    <tag k="highway" v="tertiary"/>
    <tag k="maxspeed" v="50"/>
    <tag k="maxspeed:source" v="default residential speed limit in Australia"/>
    <tag k="name" v="Nind Street"/>
    <tag k="oneway" v="yes"/>
    <tag k="source" v="survey"/>
  </way>
  <way id="45011806" version="3" timestamp="2011-03-09T02:03:58Z" uid="4467" user="Rosscoe" changeset="7500403">
    <nd ref="1193718688"/>
    <nd ref="570658781"/>
    <nd ref="570658782"/>
    <nd ref="1193718680"/>
    <nd ref="1193718682"/>
    <nd ref="1193718686"/>
    <nd ref="1193718681"/>
    <nd ref="1193718683"/>
    <nd ref="1193718694"/>
    <nd ref="1193718698"/>
    <nd ref="1193718684"/>
    <nd ref="1193718695"/>
    <nd ref="1193718700"/>
    <nd ref="1193718677"/>
    <nd ref="1193718696"/>
    <nd ref="1193718669"/>
    <tag k="highway" v="unclassified"/>
    <tag k="source" v="nearmap"/>
    <tag k="surface" v="gravel"/>
  </way>
</osm>
