<?xml version='1.0' encoding='UTF-8'?>
<osm version="0.6" generator="libosmium/2.20.0">
  <way id="45373637" version="5" timestamp="2010-07-25T22:24:17Z" uid="4467" user="Rosscoe" changeset="5317245">
    <nd ref="576980945"/>
    <nd ref="576980913"/>
    <nd ref="576981146"/>
    <nd ref="576981147"/>
    <nd ref="576981131"/>
    <tag k="bridge" v="yes"/>
    <tag k="foot" v="yes"/>
    <tag k="highway" v="footway"/>
    <tag k="layer" v="1"/>
    <tag k="source" v="nearmap"/>
  </way>
  <way id="45373638" version="4" timestamp="2010-07-25T22:24:19Z" uid="4467" user="Rosscoe" changeset="5317245">
    <nd ref="576980912"/>
    <nd ref="576980946"/>
    <nd ref="576980947"/>
    <nd ref="576980945"/>
    <tag k="bridge" v="yes"/>
    <tag k="foot" v="yes"/>
    <tag k="highway" v="footway"/>
    <tag k="layer" v="1"/>
    <tag k="source" v="nearmap"/>
  </way>
  <way id="45373662" version="3" timestamp="2010-07-25T22:24:21Z" uid="4467" user="Rosscoe" changeset="5317245">
    <nd ref="576980913"/>
    <nd ref="576981145"/>
    <nd ref="576981142"/>
    <tag k="bridge" v="yes"/>
    <tag k="foot" v="yes"/>
    <tag k="highway" v="footway"/>
    <tag k="layer" v="1"/>
    <tag k="source" v="nearmap"/>
  </way>
  <way id="45373674" version="3" timestamp="2010-03-28T11:28:22Z" uid="20587" user="balrog-kun" changeset="4254597">
    <nd ref="32581262"/>
    <nd ref="502213528"/>
    <nd ref="18882211"/>
    <nd ref="122743496"/>
    <nd ref="502351248"/>
    <nd ref="122743494"/>
    <tag k="highway" v="primary"/>
    <tag k="lanes" v="7"/>
    <tag k="maxspeed" v="64"/>
    <tag k="name" v="Atlantic Boulevard"/>
    <tag k="source" v="survey;image;usgs_imagery"/>
    <tag k="source_ref" v="AM909_DSCQ0978"/>
  </way>
  <way id="45373674" version="4" timestamp="2010-07-15T01:03:30Z" uid="82317" user="AM909" changeset="5223033">
    <nd ref="32581262"/>
    <nd ref="502213528"/>
    <nd ref="18882211"/>
    <nd ref="122743496"/>
    <nd ref="502351248"/>
    <nd ref="122743494"/>
    <tag k="highway" v="primary"/>
    <tag k="lanes" v="7"/>
    <tag k="maxspeed" v="40 mph"/>
    <tag k="name" v="Atlantic Boulevard"/>
    <tag k="source" v="survey;image;usgs_imagery"/>
    <tag k="source_ref" v="AM909_DSCQ0978"/>
  </way>
  <way id="45373674" version="5" timestamp="2011-09-05T23:38:56Z" uid="92286" user="Paul Johnson" changeset="9223350">
    <nd ref="122743494"/>
    <nd ref="502351248"/>
    <nd ref="122743496"/>
    <nd ref="18882211"/>
    <nd ref="502213528"/>
    <nd ref="1223355503"/>
    <nd ref="1424677585"/>
    <tag k="highway" v="primary"/>
    <tag k="lanes" v="7"/>
    <tag k="maxspeed" v="40 mph"/>
    <tag k="name" v="Atlantic Boulevard"/>
    <tag k="source" v="survey;image;usgs_imagery"/>
    <tag k="source_ref" v="AM909_DSCQ0978"/>
  </way>
  <way id="45373675" version="2" timestamp="2010-03-28T11:28:22Z" uid="20587" user="balrog-kun" changeset="4254597">
    <nd ref="32581262"/>
    <nd ref="122676508"/>
    <nd ref="123475702"/>
    <nd ref="27056636"/>
    <tag k="highway" v="primary"/>
    <tag k="name" v="Valley Boulevard"/>
    <tag k="source" v="survey;image;usgs_imagery"/>
    <tag k="source_ref" v="AM909_DSCQ0976"/>
  </way>
  <way id="45373675" version="3" timestamp="2011-03-28T17:45:50Z" uid="82317" user="AM909" changeset="7699256">
    <nd ref="27056636"/>
    <nd ref="1223355421"/>
    <nd ref="1223355511"/>
    <nd ref="123475702"/>
    <nd ref="1223355451"/>
    <nd ref="1223355397"/>
    <nd ref="122676508"/>
    <nd ref="1223355428"/>
    <nd ref="1223355524"/>
    <nd ref="32581262"/>
    <tag k="highway" v="primary"/>
    <tag k="maxspeed" v="30 mph"/>
    <tag k="name" v="Valley Boulevard"/>
    <tag k="oneway" v="yes"/>
    <tag k="source" v="survey;image;usgs_imagery"/>
    <tag k="source:maxspeed" v="survey;image"/>
    <tag k="source_ref" v="AM909_DSCQ0976"/>
    <tag k="source_ref:maxspeed" v="AM909_DSCW8802"/>
  </way>
  <way id="45373675" version="4" timestamp="2011-03-28T23:01:23Z" uid="82317" user="AM909" changeset="7702473">
    <nd ref="27056636"/>
    <nd ref="1223355421"/>
    <nd ref="1223355511"/>
    <nd ref="123475702"/>
    <nd ref="1223355451"/>
    <nd ref="1223355397"/>
    <nd ref="122676508"/>
    <nd ref="1223355428"/>
    <nd ref="1223355524"/>
    <nd ref="32581262"/>
    <tag k="highway" v="primary"/>
    <tag k="lanes" v="2"/>
    <tag k="maxspeed" v="30 mph"/>
    <tag k="name" v="Valley Boulevard"/>
    <tag k="oneway" v="yes"/>
    <tag k="source" v="survey;image;usgs_imagery"/>
    <tag k="source:maxspeed" v="survey;image"/>
    <tag k="source_ref" v="AM909_DSCQ0976"/>
    <tag k="source_ref:maxspeed" v="AM909_DSCW8802"/>
  </way>
  <way id="45373675" version="5" timestamp="2011-09-05T23:39:06Z" uid="92286" user="Paul Johnson" changeset="9223350">
    <nd ref="1223355407"/>
    <nd ref="1424677580"/>
    <nd ref="1223355524"/>
    <tag k="highway" v="primary"/>
    <tag k="lanes" v="2"/>
    <tag k="maxspeed" v="30 mph"/>
    <tag k="name" v="Valley Boulevard"/>
    <tag k="oneway" v="yes"/>
    <tag k="source" v="survey;image;usgs_imagery"/>
    <tag k="source:maxspeed" v="survey;image"/>
    <tag k="source_ref" v="AM909_DSCQ0976"/>
    <tag k="source_ref:maxspeed" v="AM909_DSCW8802"/>
  </way>
  <way id="45373676" version="2" timestamp="2010-03-28T11:28:23Z" uid="20587" user="balrog-kun" changeset="4254597">
    <nd ref="123137219"/>
    <nd ref="32581262"/>
    <tag k="highway" v="primary"/>
    <tag k="maxspeed" v="48"/>
    <tag k="name" v="Valley Boulevard"/>
    <tag k="source" v="survey;image;usgs_imagery"/>
    <tag k="source_ref" v="AM909_DSCQ0976"/>
  </way>
  <way id="45373676" version="3" timestamp="2010-07-15T01:11:27Z" uid="82317" user="AM909" changeset="5223051">
    <nd ref="123137219"/>
    <nd ref="32581262"/>
    <tag k="highway" v="primary"/>
    <tag k="maxspeed" v="30 mph"/>
    <tag k="name" v="Valley Boulevard"/>
    <tag k="source" v="survey;image;usgs_imagery"/>
    <tag k="source_ref" v="AM909_DSCQ0976"/>
  </way>
  <way id="45373676" version="4" timestamp="2011-03-28T17:45:53Z" uid="82317" user="AM909" changeset="7699256">
    <nd ref="123137219"/>
    <nd ref="32581262"/>
    <tag k="highway" v="primary"/>
    <tag k="maxspeed" v="30 mph"/>
    <tag k="name" v="Valley Boulevard"/>
    <tag k="source" v="survey;image;usgs_imagery"/>
    <tag k="source:maxspeed" v="survey;image"/>
    <tag k="source_ref" v="AM909_DSCQ0976"/>
    <tag k="source_ref:maxspeed" v="AM909_DSCW8802"/>
  </way>
  <way id="45373676" version="5" timestamp="2011-03-28T23:01:38Z" uid="82317" user="AM909" changeset="7702473">
    <nd ref="123137219"/>
    <nd ref="1223809281"/>
    <nd ref="1223809265"/>
    <nd ref="32581262"/>
    <tag k="highway" v="primary"/>
    <tag k="lanes" v="2"/>
    <tag k="maxspeed" v="30 mph"/>
    <tag k="name" v="Valley Boulevard"/>
    <tag k="oneway" v="yes"/>
    <tag k="source" v="bing_imagery_0.06m_200801;survey;image"/>
    <tag k="source:maxspeed" v="survey;image"/>
    <tag k="source_ref" v="AM909_DSCQ0976"/>
    <tag k="source_ref:maxspeed" v="AM909_DSCW8802"/>
  </way>
  <way id="45373676" version="6" timestamp="2011-09-05T23:39:07Z" uid="92286" user="Paul Johnson" changeset="9223350">
    <nd ref="123137219"/>
    <nd ref="1223809281"/>
    <nd ref="1223355503"/>
    <tag k="highway" v="primary"/>
    <tag k="lanes" v="2"/>
    <tag k="maxspeed" v="30 mph"/>
    <tag k="name" v="Valley Boulevard"/>
    <tag k="oneway" v="yes"/>
    <tag k="source" v="bing_imagery_0.06m_200801;survey;image"/>
    <tag k="source:maxspeed" v="survey;image"/>
    <tag k="source_ref" v="AM909_DSCQ0976"/>
    <tag k="source_ref:maxspeed" v="AM909_DSCW8802"/>
  </way>
  <way id="45373813" version="1" timestamp="2009-12-01T09:05:59Z" uid="4467" user="Rosscoe" changeset="3262583">
    <nd ref="303202178"/>
    <nd ref="154160345"/>
  </way>
  <way id="45373813" version="2" timestamp="2009-12-01T09:11:29Z" uid="4467" user="Rosscoe" changeset="3262583">
    <nd ref="303202178"/>
    <nd ref="154160345"/>
    <tag k="cycleway" v="lane"/>
    <tag k="highway" v="tertiary"/>
    <tag k="name" v="Beacon Road"/>
    <tag k="oneway" v="yes"/>
    <tag k="source" v="nearmap"/>
  </way>
  <way id="45373813" version="3" timestamp="2009-12-07T09:59:23Z" uid="201443" user="stevage" changeset="3314354">
    <nd ref="303202178"/>
    <nd ref="582826477"/>
    <nd ref="154160345"/>
    <tag k="cycleway" v="lane"/>
    <tag k="highway" v="tertiary"/>
    <tag k="name" v="Beacon Road"/>
    <tag k="oneway" v="yes"/>
    <tag k="source" v="nearmap"/>
  </way>
  <way id="45373813" version="4" timestamp="2009-12-07T10:08:05Z" uid="201443" user="stevage" changeset="3314354">
    <nd ref="303202178"/>
    <nd ref="582826477"/>
    <nd ref="582827449"/>
    <nd ref="154160345"/>
    <tag k="cycleway" v="lane"/>
    <tag k="highway" v="tertiary"/>
    <tag k="name" v="Beacon Road"/>
    <tag k="oneway" v="yes"/>
    <tag k="source" v="nearmap"/>
  </way>
  <way id="45373825" version="4" timestamp="2010-07-09T07:43:35Z" uid="74617" user="JohnSmith" changeset="5171569">
    <nd ref="576982408"/>
    <nd ref="423929531"/>
    <tag k="highway" v="residential"/>
    <tag k="maxspeed" v="50"/>
    <tag k="maxspeed:source" v="default residential speed limit in Australia"/>
    <tag k="name" v="Chesapeake Way"/>
    <tag k="source" v="survey"/>
  </way>
  <way id="45373825" version="5" timestamp="2012-01-19T11:57:04Z" uid="147510" user="woodpeck_fixbot" changeset="10436041">
    <nd ref="576982408"/>
    <nd ref="423929531"/>
    <tag k="highway" v="residential"/>
    <tag k="name" v="Chesapeake Way"/>
    <tag k="source" v="survey"/>
  </way>
  <way id="45373844" version="1" timestamp="2009-12-01T09:08:58Z" uid="4467" user="Rosscoe" changeset="3262583">
    <nd ref="576982730"/>
    <nd ref="154160345"/>
    <nd ref="303202124"/>
    <tag k="cycleway" v="lane"/>
    <tag k="highway" v="tertiary"/>
    <tag k="name" v="Beacon Road"/>
  </way>
  <way id="45373844" version="2" timestamp="2009-12-01T09:09:27Z" uid="4467" user="Rosscoe" changeset="3262583">
    <nd ref="444371699"/>
    <nd ref="576982730"/>
    <tag k="cycleway" v="lane"/>
    <tag k="highway" v="tertiary"/>
    <tag k="name" v="Beacon Road"/>
  </way>
  <way id="45373844" version="3" timestamp="2009-12-01T09:10:01Z" uid="4467" user="Rosscoe" changeset="3262583">
    <nd ref="444371699"/>
    <nd ref="576982730"/>
    <tag k="cycleway" v="lane"/>
    <tag k="highway" v="tertiary"/>
    <tag k="name" v="Beacon Road"/>
    <tag k="oneway" v="yes"/>
  </way>
  <way id="45373844" version="4" timestamp="2009-12-01T09:10:54Z" uid="4467" user="Rosscoe" changeset="3262583">
    <nd ref="444371699"/>
    <nd ref="576982730"/>
    <tag k="cycleway" v="lane"/>
    <tag k="highway" v="tertiary"/>
    <tag k="name" v="Beacon Road"/>
    <tag k="oneway" v="yes"/>
    <tag k="source" v="nearmap"/>
  </way>
  <way id="45373850" version="1" timestamp="2009-12-01T09:09:01Z" uid="4467" user="Rosscoe" changeset="3262583">
    <nd ref="576982724"/>
    <nd ref="444371632"/>
    <tag k="cycleway" v="lane"/>
    <tag k="highway" v="tertiary"/>
    <tag k="name" v="Beacon Road"/>
  </way>
  <way id="45373850" version="2" timestamp="2009-12-01T09:09:57Z" uid="4467" user="Rosscoe" changeset="3262583">
    <nd ref="444371632"/>
    <nd ref="576982724"/>
    <tag k="cycleway" v="lane"/>
    <tag k="highway" v="tertiary"/>
    <tag k="name" v="Beacon Road"/>
    <tag k="oneway" v="yes"/>
  </way>
  <way id="45373850" version="3" timestamp="2009-12-01T09:10:56Z" uid="4467" user="Rosscoe" changeset="3262583">
    <nd ref="444371632"/>
    <nd ref="576982724"/>
    <tag k="cycleway" v="lane"/>
    <tag k="highway" v="tertiary"/>
    <tag k="name" v="Beacon Road"/>
    <tag k="oneway" v="yes"/>
    <tag k="source" v="nearmap"/>
  </way>
  <way id="45373856" version="1" timestamp="2009-12-01T09:09:27Z" uid="4467" user="Rosscoe" changeset="3262583">
    <nd ref="576982730"/>
    <nd ref="154160345"/>
    <nd ref="303202124"/>
    <tag k="cycleway" v="lane"/>
    <tag k="highway" v="tertiary"/>
    <tag k="name" v="Beacon Road"/>
  </way>
  <way id="45373856" version="2" timestamp="2009-12-01T09:11:10Z" uid="4467" user="Rosscoe" changeset="3262583">
    <nd ref="576982730"/>
    <nd ref="154160345"/>
    <tag k="cycleway" v="lane"/>
    <tag k="highway" v="tertiary"/>
    <tag k="name" v="Beacon Road"/>
    <tag k="source" v="nearmap"/>
  </way>
  <way id="45373856" version="3" timestamp="2009-12-07T10:07:15Z" uid="201443" user="stevage" changeset="3314354">
    <nd ref="576982730"/>
    <nd ref="582827429"/>
    <nd ref="154160345"/>
    <tag k="cycleway" v="lane"/>
    <tag k="highway" v="tertiary"/>
    <tag k="name" v="Beacon Road"/>
    <tag k="source" v="nearmap"/>
  </way>
  <way id="45373864" version="1" timestamp="2009-12-01T09:09:36Z" uid="4467" user="Rosscoe" changeset="3262583">
    <nd ref="576982724"/>
    <nd ref="444371693"/>
    <tag k="cycleway" v="lane"/>
    <tag k="highway" v="tertiary"/>
    <tag k="name" v="Beacon Road"/>
  </way>
  <way id="45373864" version="2" timestamp="2009-12-01T09:09:49Z" uid="4467" user="Rosscoe" changeset="3262583">
    <nd ref="576982724"/>
    <nd ref="444371693"/>
    <tag k="cycleway" v="lane"/>
    <tag k="highway" v="tertiary"/>
    <tag k="name" v="Beacon Road"/>
    <tag k="oneway" v="yes"/>
  </way>
  <way id="45373864" version="3" timestamp="2009-12-01T09:10:59Z" uid="4467" user="Rosscoe" changeset="3262583">
    <nd ref="576982724"/>
    <nd ref="444371693"/>
    <tag k="cycleway" v="lane"/>
    <tag k="highway" v="tertiary"/>
    <tag k="name" v="Beacon Road"/>
    <tag k="oneway" v="yes"/>
    <tag k="source" v="nearmap"/>
  </way>
  <way id="45373889" version="2" timestamp="2010-07-09T05:39:24Z" uid="74617" user="JohnSmith" changeset="5170986">
    <nd ref="385137198"/>
    <nd ref="385137300"/>
    <nd ref="385137200"/>
    <tag k="highway" v="residential"/>
    <tag k="maxspeed" v="50"/>
    <tag k="maxspeed:source" v="default residential speed limit in Australia"/>
    <tag k="name" v="Parklands Parade"/>
  </way>
  <way id="45373889" version="3" timestamp="2012-01-19T11:57:09Z" uid="147510" user="woodpeck_fixbot" changeset="10436041">
    <nd ref="385137198"/>
    <nd ref="385137300"/>
    <nd ref="385137200"/>
    <tag k="highway" v="residential"/>
    <tag k="name" v="Parklands Parade"/>
  </way>
  <way id="45373893" version="1" timestamp="2009-12-01T09:11:10Z" uid="4467" user="Rosscoe" changeset="3262583">
    <nd ref="154160345"/>
    <nd ref="303202124"/>
    <tag k="cycleway" v="lane"/>
    <tag k="highway" v="tertiary"/>
    <tag k="name" v="Beacon Road"/>
    <tag k="source" v="nearmap"/>
  </way>
  <way id="45373893" version="2" timestamp="2009-12-01T09:11:23Z" uid="4467" user="Rosscoe" changeset="3262583">
    <nd ref="154160345"/>
    <nd ref="303202124"/>
    <tag k="cycleway" v="lane"/>
    <tag k="highway" v="tertiary"/>
    <tag k="name" v="Beacon Road"/>
    <tag k="oneway" v="yes"/>
    <tag k="source" v="nearmap"/>
  </way>
  <way id="45373922" version="5" timestamp="2010-05-24T00:02:50Z" uid="4467" user="Rosscoe" changeset="4789129">
    <nd ref="562827129"/>
    <nd ref="576983258"/>
    <nd ref="576983901"/>
    <nd ref="576983257"/>
    <nd ref="576983250"/>
    <tag k="highway" v="service"/>
    <tag k="oneway" v="yes"/>
    <tag k="source" v="nearmap"/>
  </way>
</osm>
