<?xml version='1.0' encoding='UTF-8'?>
<osm version="0.6" generator="libosmium/2.20.0">
  <way id="45610326" version="2" timestamp="2010-03-28T11:29:42Z" uid="20587" user="balrog-kun" changeset="4254597">
    <nd ref="54524089"/>
    <nd ref="54524090"/>
    <tag k="highway" v="residential"/>
    <tag k="name" v="North College Way"/>
    <tag k="tiger:cfcc" v="A41"/>
    <tag k="tiger:county" v="San Bernardino, CA"/>
    <tag k="tiger:name_base" v="College"/>
    <tag k="tiger:name_direction_prefix" v="N"/>
    <tag k="tiger:name_type" v="Way"/>
    <tag k="tiger:separated" v="no"/>
    <tag k="tiger:source" v="tiger_import_dch_v0.6_20070809"/>
    <tag k="tiger:tlid" v="144675318:144675320"/>
    <tag k="tiger:zip_left" v="91764"/>
    <tag k="tiger:zip_right" v="91764"/>
  </way>
  <way id="45610328" version="2" timestamp="2010-03-28T11:29:42Z" uid="20587" user="balrog-kun" changeset="4254597">
    <nd ref="54540322"/>
    <nd ref="54570095"/>
    <nd ref="54851868"/>
    <nd ref="54699583"/>
    <nd ref="54808307"/>
    <tag k="highway" v="residential"/>
    <tag k="name" v="North Cherry Avenue"/>
    <tag k="tiger:cfcc" v="A41"/>
    <tag k="tiger:county" v="San Bernardino, CA"/>
    <tag k="tiger:name_base" v="Cherry"/>
    <tag k="tiger:name_direction_prefix" v="N"/>
    <tag k="tiger:name_type" v="Ave"/>
    <tag k="tiger:separated" v="no"/>
    <tag k="tiger:source" v="tiger_import_dch_v0.6_20070809"/>
    <tag k="tiger:tlid" v="144675733:144675735:144675749:144675753:144675785:144675787:144675791"/>
    <tag k="tiger:zip_left" v="91764"/>
    <tag k="tiger:zip_right" v="91764"/>
  </way>
  <way id="45610329" version="2" timestamp="2010-03-28T11:29:42Z" uid="20587" user="balrog-kun" changeset="4254597">
    <nd ref="581479777"/>
    <nd ref="54540320"/>
    <nd ref="54570093"/>
    <nd ref="54812401"/>
    <nd ref="54699582"/>
    <tag k="highway" v="residential"/>
    <tag k="name" v="North Plum Avenue"/>
    <tag k="tiger:cfcc" v="A41"/>
    <tag k="tiger:county" v="San Bernardino, CA"/>
    <tag k="tiger:name_base" v="Plum"/>
    <tag k="tiger:name_direction_prefix" v="N"/>
    <tag k="tiger:name_type" v="Ave"/>
    <tag k="tiger:separated" v="no"/>
    <tag k="tiger:source" v="tiger_import_dch_v0.6_20070809"/>
    <tag k="tiger:tlid" v="144675745:144675747:144675751:144675781:144675783:144675789"/>
    <tag k="tiger:zip_left" v="91764"/>
    <tag k="tiger:zip_right" v="91764"/>
  </way>
  <way id="45610330" version="2" timestamp="2010-03-28T11:29:42Z" uid="20587" user="balrog-kun" changeset="4254597">
    <nd ref="54754074"/>
    <nd ref="54143608"/>
    <tag k="highway" v="residential"/>
    <tag k="name" v="East C Street"/>
    <tag k="tiger:cfcc" v="A41"/>
    <tag k="tiger:county" v="San Bernardino, CA"/>
    <tag k="tiger:name_base" v="C"/>
    <tag k="tiger:name_direction_prefix" v="E"/>
    <tag k="tiger:name_type" v="St"/>
    <tag k="tiger:separated" v="no"/>
    <tag k="tiger:source" v="tiger_import_dch_v0.6_20070809"/>
    <tag k="tiger:tlid" v="144675763:144675782:144675786:144675795"/>
    <tag k="tiger:zip_left" v="91764"/>
    <tag k="tiger:zip_right" v="91764"/>
  </way>
  <way id="45610787" version="2" timestamp="2010-03-28T11:29:43Z" uid="20587" user="balrog-kun" changeset="4254597">
    <nd ref="581497488"/>
    <nd ref="581497490"/>
    <nd ref="581497492"/>
    <nd ref="581497440"/>
    <tag k="highway" v="primary_link"/>
    <tag k="name" v="Huntington Drive"/>
    <tag k="oneway" v="yes"/>
  </way>
  <way id="45610787" version="3" timestamp="2010-11-19T15:52:01Z" uid="36489" user="jerjozwik" changeset="6408023">
    <nd ref="581497488"/>
    <nd ref="994836628"/>
    <nd ref="581497490"/>
    <nd ref="994836632"/>
    <nd ref="994836636"/>
    <nd ref="581497492"/>
    <nd ref="994836639"/>
    <nd ref="994836641"/>
    <nd ref="581497440"/>
    <tag k="highway" v="primary_link"/>
    <tag k="name" v="Huntington Drive"/>
    <tag k="oneway" v="yes"/>
  </way>
  <way id="45610814" version="2" timestamp="2010-07-09T17:58:20Z" uid="74617" user="JohnSmith" changeset="5175636">
    <nd ref="278868111"/>
    <nd ref="581509253"/>
    <nd ref="581509255"/>
    <nd ref="581509267"/>
    <nd ref="581509271"/>
    <nd ref="581509273"/>
    <nd ref="278868110"/>
    <tag k="highway" v="residential"/>
    <tag k="maxspeed" v="50"/>
    <tag k="maxspeed:source" v="default residential speed limit in Australia"/>
    <tag k="name" v="Peckham Crescent"/>
  </way>
  <way id="45610814" version="3" timestamp="2012-01-19T12:24:59Z" uid="147510" user="woodpeck_fixbot" changeset="10436041">
    <nd ref="278868111"/>
    <nd ref="581509253"/>
    <nd ref="581509255"/>
    <nd ref="581509267"/>
    <nd ref="581509271"/>
    <nd ref="581509273"/>
    <nd ref="278868110"/>
    <tag k="highway" v="residential"/>
    <tag k="name" v="Peckham Crescent"/>
  </way>
  <way id="45610844" version="3" timestamp="2010-07-09T22:13:38Z" uid="74617" user="JohnSmith" changeset="5176956">
    <nd ref="581516497"/>
    <nd ref="581516499"/>
    <nd ref="581516500"/>
    <nd ref="581516501"/>
    <nd ref="581516503"/>
    <nd ref="581516504"/>
    <nd ref="581516506"/>
    <nd ref="581516508"/>
    <nd ref="581516510"/>
    <nd ref="581516512"/>
    <nd ref="581516514"/>
    <tag k="highway" v="residential"/>
    <tag k="maxspeed" v="50"/>
    <tag k="maxspeed:source" v="default residential speed limit in Australia"/>
    <tag k="name" v="New Cross Road"/>
  </way>
  <way id="45610844" version="4" timestamp="2012-01-19T12:25:03Z" uid="147510" user="woodpeck_fixbot" changeset="10436041">
    <nd ref="581516497"/>
    <nd ref="581516499"/>
    <nd ref="581516500"/>
    <nd ref="581516501"/>
    <nd ref="581516503"/>
    <nd ref="581516504"/>
    <nd ref="581516506"/>
    <nd ref="581516508"/>
    <nd ref="581516510"/>
    <nd ref="581516512"/>
    <nd ref="581516514"/>
    <tag k="highway" v="residential"/>
    <tag k="name" v="New Cross Road"/>
  </way>
  <way id="45610846" version="2" timestamp="2010-07-09T18:03:35Z" uid="74617" user="JohnSmith" changeset="5175636">
    <nd ref="278869492"/>
    <nd ref="278869493"/>
    <nd ref="278869494"/>
    <tag k="highway" v="residential"/>
    <tag k="maxspeed" v="50"/>
    <tag k="maxspeed:source" v="default residential speed limit in Australia"/>
    <tag k="name" v="Pollock Court"/>
  </way>
  <way id="45610846" version="3" timestamp="2012-01-19T12:25:05Z" uid="147510" user="woodpeck_fixbot" changeset="10436041">
    <nd ref="278869492"/>
    <nd ref="278869493"/>
    <nd ref="278869494"/>
    <tag k="highway" v="residential"/>
    <tag k="name" v="Pollock Court"/>
  </way>
  <way id="45610930" version="2" timestamp="2009-12-24T04:40:02Z" uid="30201" user="rrankin" changeset="3439962">
    <nd ref="29892511"/>
    <nd ref="29892512"/>
    <nd ref="29893575"/>
    <tag k="bridge" v="yes"/>
    <tag k="highway" v="trunk"/>
    <tag k="layer" v="1"/>
    <tag k="maxspeed" v="80"/>
    <tag k="name" v="Alfords Point Bridge"/>
    <tag k="oneway" v="yes"/>
    <tag k="ref" v="MR6"/>
    <tag k="source" v="survey"/>
  </way>
  <way id="45610930" version="3" timestamp="2010-04-01T06:55:55Z" uid="74617" user="JohnSmith" changeset="4291360">
    <nd ref="29892511"/>
    <nd ref="29892512"/>
    <nd ref="29893575"/>
    <tag k="bridge" v="yes"/>
    <tag k="highway" v="trunk"/>
    <tag k="layer" v="1"/>
    <tag k="maxspeed" v="80"/>
    <tag k="name" v="Alfords Point Bridge"/>
    <tag k="oneway" v="yes"/>
    <tag k="source" v="survey"/>
  </way>
  <way id="45610930" version="4" timestamp="2010-06-30T09:08:35Z" uid="299678" user="peteramjet" changeset="5111867">
    <nd ref="29892511"/>
    <nd ref="29892512"/>
    <nd ref="29893575"/>
    <tag k="alt_name" v="Alfords Point Bridge"/>
    <tag k="bridge" v="yes"/>
    <tag k="highway" v="trunk"/>
    <tag k="layer" v="1"/>
    <tag k="maxspeed" v="80"/>
    <tag k="oneway" v="yes"/>
    <tag k="ref" v="MR6"/>
    <tag k="source" v="survey"/>
  </way>
  <way id="45610930" version="5" timestamp="2010-06-30T09:09:20Z" uid="299678" user="peteramjet" changeset="5111867">
    <nd ref="29892511"/>
    <nd ref="29892512"/>
    <nd ref="29893575"/>
    <tag k="alt_name" v="Alfords Point Bridge"/>
    <tag k="bridge" v="yes"/>
    <tag k="highway" v="trunk"/>
    <tag k="layer" v="1"/>
    <tag k="maxspeed" v="80"/>
    <tag k="name" v="Alfords Point Road"/>
    <tag k="oneway" v="yes"/>
    <tag k="ref" v="MR6"/>
    <tag k="source" v="survey"/>
  </way>
  <way id="45610930" version="6" timestamp="2010-07-08T12:33:46Z" uid="299678" user="peteramjet" changeset="5165746">
    <nd ref="29892511"/>
    <nd ref="29892512"/>
    <nd ref="29893575"/>
    <tag k="alt_name" v="Alfords Point Bridge"/>
    <tag k="bridge" v="yes"/>
    <tag k="highway" v="trunk"/>
    <tag k="layer" v="1"/>
    <tag k="maxspeed" v="80"/>
    <tag k="name" v="Alfords Point Road"/>
    <tag k="oneway" v="yes"/>
    <tag k="source" v="survey"/>
  </way>
  <way id="45610930" version="7" timestamp="2012-02-02T01:08:40Z" uid="54784" user="Tom Hollander" changeset="10564041">
    <nd ref="29892511"/>
    <nd ref="29892512"/>
    <nd ref="29893575"/>
    <tag k="alt_name" v="Alfords Point Bridge"/>
    <tag k="bridge" v="yes"/>
    <tag k="highway" v="trunk"/>
    <tag k="layer" v="1"/>
    <tag k="maxspeed" v="80"/>
    <tag k="name" v="Alfords Point Road"/>
    <tag k="oneway" v="yes"/>
    <tag k="ref" v="MR6"/>
    <tag k="source" v="survey"/>
  </way>
  <way id="45610930" version="8" timestamp="2012-03-12T22:52:38Z" uid="7523" user="inas" changeset="10961678">
    <nd ref="29892511"/>
    <nd ref="29892512"/>
    <nd ref="29893575"/>
    <tag k="alt_name" v="Alfords Point Bridge"/>
    <tag k="bridge" v="yes"/>
    <tag k="highway" v="trunk"/>
    <tag k="layer" v="1"/>
    <tag k="maxspeed" v="80"/>
    <tag k="name" v="Alfords Point Road"/>
    <tag k="network" v="MR"/>
    <tag k="oneway" v="yes"/>
    <tag k="ref" v="6"/>
    <tag k="source" v="survey"/>
  </way>
  <way id="45610930" version="9" timestamp="2012-03-17T06:48:02Z" uid="299678" user="peteramjet" changeset="11004839">
    <nd ref="29892511"/>
    <nd ref="29892512"/>
    <nd ref="29893575"/>
    <tag k="alt_name" v="Alfords Point Bridge"/>
    <tag k="bridge" v="yes"/>
    <tag k="highway" v="trunk"/>
    <tag k="layer" v="1"/>
    <tag k="maxspeed" v="80"/>
    <tag k="name" v="Alfords Point Road"/>
    <tag k="network" v="MR"/>
    <tag k="oneway" v="yes"/>
    <tag k="ref" v="MR6"/>
    <tag k="source" v="survey"/>
  </way>
  <way id="45610966" version="2" timestamp="2010-04-07T14:07:32Z" uid="20587" user="balrog-kun" changeset="4353646">
    <nd ref="149270159"/>
    <nd ref="149256219"/>
    <nd ref="149325111"/>
    <nd ref="149362557"/>
    <tag k="highway" v="residential"/>
    <tag k="name" v="5th Street"/>
    <tag k="tiger:cfcc" v="A41"/>
    <tag k="tiger:county" v="Bandera, TX"/>
    <tag k="tiger:name_base" v="5th"/>
    <tag k="tiger:name_type" v="St"/>
    <tag k="tiger:reviewed" v="no"/>
    <tag k="tiger:separated" v="no"/>
    <tag k="tiger:source" v="tiger_import_dch_v0.6_20070829"/>
    <tag k="tiger:tlid" v="102707006:102707885:102707038"/>
  </way>
  <way id="45610966" version="3" timestamp="2011-04-06T05:12:57Z" uid="365944" user="homeslice60148" changeset="7781176">
    <nd ref="149270159"/>
    <nd ref="149256219"/>
    <nd ref="149325111"/>
    <tag k="highway" v="residential"/>
    <tag k="name" v="5th Street"/>
    <tag k="tiger:cfcc" v="A41"/>
    <tag k="tiger:county" v="Bandera, TX"/>
    <tag k="tiger:name_base" v="5th"/>
    <tag k="tiger:name_type" v="St"/>
    <tag k="tiger:reviewed" v="no"/>
    <tag k="tiger:separated" v="no"/>
    <tag k="tiger:source" v="tiger_import_dch_v0.6_20070829"/>
    <tag k="tiger:tlid" v="102707006:102707885:102707038"/>
  </way>
  <way id="45610967" version="2" timestamp="2010-04-07T14:07:32Z" uid="20587" user="balrog-kun" changeset="4353646">
    <nd ref="149270159"/>
    <nd ref="149270164"/>
    <nd ref="149270166"/>
    <nd ref="149270169"/>
    <nd ref="149270171"/>
    <nd ref="149270173"/>
    <nd ref="149270176"/>
    <nd ref="149270178"/>
    <tag k="highway" v="residential"/>
    <tag k="name" v="Cedar Street"/>
    <tag k="tiger:cfcc" v="A41"/>
    <tag k="tiger:county" v="Bandera, TX"/>
    <tag k="tiger:name_base" v="Cedar"/>
    <tag k="tiger:name_type" v="St"/>
    <tag k="tiger:separated" v="no"/>
    <tag k="tiger:source" v="tiger_import_dch_v0.6_20070829"/>
    <tag k="tiger:tlid" v="102706877:102706890:102722237:102706920:102706904"/>
  </way>
  <way id="45610968" version="2" timestamp="2010-04-07T14:07:33Z" uid="20587" user="balrog-kun" changeset="4353646">
    <nd ref="149270178"/>
    <nd ref="149270182"/>
    <nd ref="149270185"/>
    <nd ref="149270188"/>
    <nd ref="149270191"/>
    <tag k="highway" v="residential"/>
    <tag k="name" v="Cedar Street"/>
    <tag k="tiger:cfcc" v="A41"/>
    <tag k="tiger:county" v="Bandera, TX"/>
    <tag k="tiger:name_base" v="Cedar"/>
    <tag k="tiger:name_type" v="St"/>
    <tag k="tiger:reviewed" v="no"/>
    <tag k="tiger:separated" v="no"/>
    <tag k="tiger:source" v="tiger_import_dch_v0.6_20070829"/>
    <tag k="tiger:tlid" v="102706877:102706890:102722237:102706920:102706904"/>
  </way>
  <way id="45610972" version="3" timestamp="2010-02-12T11:38:44Z" uid="115477" user="wowik" changeset="3855517">
    <nd ref="467736518"/>
    <nd ref="636969150"/>
    <tag k="highway" v="residential"/>
  </way>
  <way id="45610972" version="4" timestamp="2010-03-21T07:17:18Z" uid="140245" user="Vladimir Nikitin" changeset="4187643">
    <nd ref="636969150"/>
    <nd ref="467736518"/>
    <tag k="highway" v="residential"/>
    <tag k="oneway" v="yes"/>
  </way>
  <way id="45610972" version="5" timestamp="2010-04-27T04:34:59Z" uid="30590" user="KekcuHa" changeset="4537932">
    <nd ref="636969150"/>
    <nd ref="467736518"/>
    <tag k="highway" v="unclassified"/>
    <tag k="oneway" v="yes"/>
  </way>
  <way id="45610972" version="6" timestamp="2010-06-10T09:17:28Z" uid="232349" user="vovkav" changeset="4952359">
    <nd ref="636969150"/>
    <nd ref="768438123"/>
    <nd ref="467736518"/>
    <tag k="highway" v="unclassified"/>
    <tag k="oneway" v="yes"/>
  </way>
  <way id="45610972" version="7" timestamp="2010-09-08T15:35:21Z" uid="323819" user="Tones Wemas" changeset="5718109">
    <nd ref="636969150"/>
    <nd ref="768438123"/>
    <tag k="highway" v="unclassified"/>
    <tag k="oneway" v="yes"/>
  </way>
  <way id="45610972" version="8" timestamp="2011-03-21T11:51:47Z" uid="149719" user="Bloodmage" changeset="7626434">
    <nd ref="1211797370"/>
    <nd ref="636969150"/>
    <nd ref="768438123"/>
    <tag k="highway" v="unclassified"/>
    <tag k="oneway" v="yes"/>
  </way>
  <way id="45610972" version="9" timestamp="2012-03-28T20:50:33Z" uid="336354" user="esaulenka" changeset="11131198"/>
</osm>
