<?xml version='1.0' encoding='UTF-8'?>
<osm version="0.6" generator="libosmium/2.20.0">
  <way id="45637515" version="4" timestamp="2010-03-28T11:29:50Z" uid="20587" user="balrog-kun" changeset="4254597">
    <nd ref="250607782"/>
    <nd ref="338509552"/>
    <tag k="highway" v="primary_link"/>
    <tag k="name" v="Beverly Boulevard Access Road"/>
    <tag k="oneway" v="yes"/>
    <tag k="ref" v="from Lucas Ave North / 1st St West / 2nd St West"/>
  </way>
  <way id="45637518" version="1" timestamp="2009-12-05T08:34:40Z" uid="7617" user="Franc" changeset="3293621">
    <nd ref="581705068"/>
    <nd ref="581705056"/>
    <nd ref="581705057"/>
    <nd ref="299151315"/>
    <tag k="highway" v="service"/>
    <tag k="name" v="Derby Street"/>
    <tag k="source" v="survey"/>
  </way>
  <way id="45637520" version="1" timestamp="2009-12-05T08:34:40Z" uid="7617" user="Franc" changeset="3293621">
    <nd ref="581705058"/>
    <nd ref="581705059"/>
    <nd ref="581705060"/>
    <nd ref="299151385"/>
    <tag k="highway" v="service"/>
    <tag k="name" v="Derby Street"/>
    <tag k="source" v="survey"/>
  </way>
  <way id="45637521" version="1" timestamp="2009-12-05T08:34:41Z" uid="7617" user="Franc" changeset="3293621">
    <nd ref="581705055"/>
    <nd ref="581705054"/>
    <nd ref="581705049"/>
    <nd ref="299151390"/>
    <tag k="highway" v="service"/>
    <tag k="name" v="Derby Street"/>
    <tag k="source" v="survey"/>
  </way>
  <way id="45637523" version="1" timestamp="2009-12-05T08:34:41Z" uid="7617" user="Franc" changeset="3293621">
    <nd ref="581705051"/>
    <nd ref="581705050"/>
    <nd ref="581705052"/>
    <nd ref="299151392"/>
    <tag k="highway" v="service"/>
    <tag k="name" v="Derby Street"/>
    <tag k="source" v="survey"/>
  </way>
  <way id="45637525" version="1" timestamp="2009-12-05T08:34:41Z" uid="7617" user="Franc" changeset="3293621">
    <nd ref="581705039"/>
    <nd ref="581705040"/>
    <nd ref="581705043"/>
    <nd ref="581705044"/>
    <nd ref="581705029"/>
    <nd ref="581705030"/>
    <nd ref="581705031"/>
    <nd ref="581705032"/>
    <nd ref="581705033"/>
    <nd ref="581705034"/>
    <nd ref="581705025"/>
    <nd ref="581705026"/>
    <nd ref="581705027"/>
    <nd ref="581705035"/>
    <nd ref="581705036"/>
    <nd ref="581705037"/>
    <nd ref="581705038"/>
    <nd ref="581705041"/>
    <nd ref="581705042"/>
    <nd ref="581705039"/>
    <tag k="landuse" v="grass"/>
  </way>
  <way id="45637527" version="1" timestamp="2009-12-05T08:34:41Z" uid="7617" user="Franc" changeset="3293621">
    <nd ref="581705047"/>
    <nd ref="581705046"/>
    <nd ref="581705045"/>
    <nd ref="288586712"/>
    <tag k="highway" v="service"/>
    <tag k="name" v="Derby Street"/>
    <tag k="source" v="survey"/>
  </way>
  <way id="45637528" version="1" timestamp="2009-12-05T08:34:41Z" uid="7617" user="Franc" changeset="3293621">
    <nd ref="581705062"/>
    <nd ref="581705063"/>
    <nd ref="581705064"/>
    <nd ref="581705053"/>
    <nd ref="581705062"/>
    <tag k="amenity" v="parking"/>
    <tag k="capacity" v="26"/>
    <tag k="capacity:disabled" v="1"/>
    <tag k="source" v="nearmap"/>
  </way>
  <way id="45637530" version="1" timestamp="2009-12-05T08:34:41Z" uid="7617" user="Franc" changeset="3293621">
    <nd ref="581705066"/>
    <nd ref="581705067"/>
    <tag k="highway" v="service"/>
    <tag k="source" v="nearmap"/>
  </way>
  <way id="45637531" version="1" timestamp="2009-12-05T08:34:41Z" uid="7617" user="Franc" changeset="3293621">
    <nd ref="581705087"/>
    <nd ref="581705086"/>
    <nd ref="581705088"/>
    <nd ref="299151412"/>
    <tag k="highway" v="service"/>
    <tag k="name" v="Adolphus Street"/>
    <tag k="source" v="survey"/>
  </way>
  <way id="45637534" version="1" timestamp="2009-12-05T08:34:41Z" uid="7617" user="Franc" changeset="3293621">
    <nd ref="581705089"/>
    <nd ref="581705080"/>
    <nd ref="581705083"/>
    <nd ref="299151417"/>
    <tag k="highway" v="service"/>
    <tag k="name" v="Adolphus Street"/>
    <tag k="source" v="survey"/>
  </way>
  <way id="45637536" version="1" timestamp="2009-12-05T08:34:41Z" uid="7617" user="Franc" changeset="3293621">
    <nd ref="581705084"/>
    <nd ref="581705085"/>
    <nd ref="581705081"/>
    <nd ref="299151418"/>
    <tag k="highway" v="service"/>
    <tag k="name" v="Adolphus Street"/>
    <tag k="source" v="survey"/>
  </way>
  <way id="45637537" version="1" timestamp="2009-12-05T08:34:41Z" uid="7617" user="Franc" changeset="3293621">
    <nd ref="581705082"/>
    <nd ref="581705073"/>
    <nd ref="581705077"/>
    <nd ref="299151420"/>
    <tag k="highway" v="service"/>
    <tag k="name" v="Adolphus Street"/>
    <tag k="source" v="survey"/>
  </way>
  <way id="45637538" version="1" timestamp="2009-12-05T08:34:42Z" uid="7617" user="Franc" changeset="3293621">
    <nd ref="581705078"/>
    <nd ref="581705074"/>
    <nd ref="581705075"/>
    <nd ref="299151425"/>
    <tag k="highway" v="service"/>
    <tag k="name" v="Adolphus Street"/>
    <tag k="source" v="survey"/>
  </way>
  <way id="45637540" version="1" timestamp="2009-12-05T08:34:42Z" uid="7617" user="Franc" changeset="3293621">
    <nd ref="581705076"/>
    <nd ref="581705070"/>
    <nd ref="581705071"/>
    <nd ref="288587350"/>
    <tag k="highway" v="service"/>
    <tag k="name" v="Adolphus Street"/>
    <tag k="source" v="survey"/>
  </way>
</osm>
