<?xml version='1.0' encoding='UTF-8'?>
<osm version="0.6" generator="libosmium/2.20.0">
  <way id="45703332" version="1" timestamp="2009-12-06T00:23:02Z" uid="74027" user="katzlbt" changeset="3299851">
    <nd ref="333363442"/>
    <nd ref="333363437"/>
    <nd ref="556433800"/>
    <tag k="highway" v="residential"/>
    <tag k="mtb:scale" v="0"/>
    <tag k="name" v="Sattelbergalm 81"/>
    <tag k="sac_scale" v="hiking"/>
    <tag k="tracktype" v="grade2"/>
  </way>
  <way id="45703332" version="2" timestamp="2010-03-19T18:41:11Z" uid="45481" user="borisC" changeset="4172804">
    <nd ref="333363442"/>
    <nd ref="333363437"/>
    <nd ref="556433800"/>
    <tag k="highway" v="residential"/>
    <tag k="mtb:scale" v="0"/>
    <tag k="name" v="Vinanders"/>
    <tag k="sac_scale" v="hiking"/>
    <tag k="tracktype" v="grade2"/>
  </way>
  <way id="45703332" version="3" timestamp="2010-03-19T18:41:57Z" uid="45481" user="borisC" changeset="4172804">
    <nd ref="333363442"/>
    <nd ref="333363437"/>
    <nd ref="556433800"/>
    <tag k="highway" v="residential"/>
    <tag k="name" v="Vinanders"/>
  </way>
  <way id="45703332" version="4" timestamp="2011-04-25T19:23:15Z" uid="439111" user="Hafelekar" changeset="7967737">
    <nd ref="333363442"/>
    <nd ref="333363437"/>
    <nd ref="556433800"/>
    <tag k="highway" v="residential"/>
    <tag k="name" v="Vinaders"/>
  </way>
  <way id="45703332" version="5" timestamp="2011-07-05T11:36:09Z" uid="109705" user="gscholz" changeset="8638183">
    <nd ref="333363442"/>
    <nd ref="333363437"/>
    <nd ref="556433800"/>
    <tag k="highway" v="residential"/>
    <tag k="incline" v="down"/>
    <tag k="name" v="Vinaders"/>
  </way>
  <way id="45703332" version="6" timestamp="2011-08-02T09:56:39Z" uid="45481" user="borisC" changeset="8899132">
    <nd ref="333363442"/>
    <nd ref="1382850306"/>
    <nd ref="333363437"/>
    <nd ref="556433800"/>
    <tag k="highway" v="residential"/>
    <tag k="incline" v="down"/>
    <tag k="name" v="Vinaders"/>
  </way>
  <way id="45703332" version="7" timestamp="2012-02-17T13:43:17Z" uid="606250" user="katzlmacher" changeset="10711262"/>
  <way id="45703651" version="2" timestamp="2010-03-28T11:29:57Z" uid="20587" user="balrog-kun" changeset="4254597">
    <nd ref="582280176"/>
    <nd ref="54915194"/>
    <tag k="highway" v="residential"/>
    <tag k="name" v="North Fuchsia Avenue"/>
    <tag k="tiger:cfcc" v="A41"/>
    <tag k="tiger:county" v="San Bernardino, CA"/>
    <tag k="tiger:name_base" v="Fuchsia"/>
    <tag k="tiger:name_direction_prefix" v="N"/>
    <tag k="tiger:name_type" v="Ave"/>
    <tag k="tiger:separated" v="no"/>
    <tag k="tiger:source" v="tiger_import_dch_v0.6_20070809"/>
    <tag k="tiger:tlid" v="144671969:144671971:144672268"/>
    <tag k="tiger:zip_left" v="91762"/>
    <tag k="tiger:zip_right" v="91762"/>
  </way>
  <way id="45703654" version="2" timestamp="2010-03-28T11:29:57Z" uid="20587" user="balrog-kun" changeset="4254597">
    <nd ref="54569960"/>
    <nd ref="54569961"/>
    <nd ref="54569962"/>
    <nd ref="582280193"/>
    <nd ref="54562646"/>
    <nd ref="54541505"/>
    <nd ref="54569964"/>
    <nd ref="582280181"/>
    <nd ref="582280174"/>
    <nd ref="54506557"/>
    <tag k="highway" v="secondary"/>
    <tag k="name" v="West 4th Street"/>
    <tag k="tiger:cfcc" v="A41"/>
    <tag k="tiger:county" v="San Bernardino, CA"/>
    <tag k="tiger:name_base" v="4th"/>
    <tag k="tiger:name_direction_prefix" v="W"/>
    <tag k="tiger:name_type" v="St"/>
    <tag k="tiger:separated" v="no"/>
    <tag k="tiger:source" v="tiger_import_dch_v0.6_20070809"/>
    <tag k="tiger:tlid" v="144671964:144671965:144986362:144986363:144671979:144672141:144672142:144672146:144672201:144672203:144672216:144672163:144675289:144675299"/>
    <tag k="tiger:zip_left" v="91762"/>
    <tag k="tiger:zip_right" v="91762"/>
  </way>
  <way id="45703932" version="2" timestamp="2010-04-06T15:36:27Z" uid="20587" user="balrog-kun" changeset="4342727">
    <nd ref="582281928"/>
    <nd ref="582281920"/>
    <tag k="highway" v="residential"/>
    <tag k="name" v="36th Street"/>
  </way>
  <way id="45703932" version="3" timestamp="2012-01-25T15:25:37Z" uid="542403" user="SD Mapman" changeset="10494514">
    <nd ref="1605057787"/>
    <nd ref="1605057775"/>
    <nd ref="1605057789"/>
    <nd ref="1605057798"/>
    <nd ref="582281920"/>
    <tag k="highway" v="residential"/>
    <tag k="name" v="36th Street"/>
  </way>
</osm>
