<?xml version='1.0' encoding='UTF-8'?>
<osm version="0.6" generator="libosmium/2.20.0">
  <way id="4573329" version="9" timestamp="2010-05-02T11:39:51Z" uid="151899" user="Bikeman2000" changeset="4583917">
    <nd ref="28867579"/>
    <nd ref="28867581"/>
    <nd ref="716939362"/>
    <nd ref="716939363"/>
    <nd ref="716939364"/>
    <nd ref="498426375"/>
    <nd ref="716939366"/>
    <nd ref="30860457"/>
    <nd ref="716939369"/>
    <nd ref="498426377"/>
    <nd ref="716939374"/>
    <nd ref="716939375"/>
    <nd ref="28867582"/>
    <nd ref="266899272"/>
    <nd ref="716939378"/>
    <nd ref="36754917"/>
    <nd ref="716939381"/>
    <nd ref="36754907"/>
    <nd ref="28867583"/>
    <tag k="admin_level" v="9"/>
    <tag k="boundary" v="administrative"/>
    <tag k="highway" v="residential"/>
    <tag k="name" v="Deikerstraße"/>
  </way>
  <way id="4573329" version="10" timestamp="2010-05-02T12:43:34Z" uid="151899" user="Bikeman2000" changeset="4584572">
    <nd ref="28867579"/>
    <nd ref="717106002"/>
    <nd ref="28867581"/>
    <nd ref="717106013"/>
    <nd ref="716939362"/>
    <nd ref="717106018"/>
    <nd ref="716939363"/>
    <nd ref="717106039"/>
    <nd ref="716939364"/>
    <nd ref="717106042"/>
    <nd ref="498426375"/>
    <nd ref="716939366"/>
    <nd ref="30860457"/>
    <nd ref="716939369"/>
    <nd ref="498426377"/>
    <nd ref="716939374"/>
    <nd ref="716939375"/>
    <nd ref="28867582"/>
    <nd ref="266899272"/>
    <nd ref="716939378"/>
    <nd ref="36754917"/>
    <nd ref="716939381"/>
    <nd ref="36754907"/>
    <nd ref="28867583"/>
    <tag k="admin_level" v="9"/>
    <tag k="boundary" v="administrative"/>
    <tag k="highway" v="residential"/>
    <tag k="name" v="Deikerstraße"/>
  </way>
  <way id="4573329" version="11" timestamp="2011-11-18T07:32:50Z" uid="18130" user="black_bike" changeset="9861190">
    <nd ref="28867579"/>
    <nd ref="717106002"/>
    <nd ref="28867581"/>
    <nd ref="717106013"/>
    <nd ref="716939362"/>
    <nd ref="717106018"/>
    <nd ref="716939363"/>
    <nd ref="717106039"/>
    <nd ref="716939364"/>
    <nd ref="717106042"/>
    <nd ref="498426375"/>
    <nd ref="716939366"/>
    <nd ref="30860457"/>
    <nd ref="716939369"/>
    <nd ref="498426377"/>
    <nd ref="716939374"/>
    <nd ref="716939375"/>
    <nd ref="28867582"/>
    <nd ref="266899272"/>
    <nd ref="716939378"/>
    <nd ref="36754917"/>
    <nd ref="716939381"/>
    <nd ref="36754907"/>
    <nd ref="28867583"/>
    <tag k="admin_level" v="9"/>
    <tag k="boundary" v="administrative"/>
    <tag k="highway" v="residential"/>
    <tag k="lit" v="yes"/>
    <tag k="lit_by_gaslight" v="no"/>
    <tag k="name" v="Deikerstraße"/>
    <tag k="surface" v="asphalt"/>
  </way>
  <way id="4573329" version="12" timestamp="2011-11-26T14:04:43Z" uid="173844" user="Antikalk" changeset="9955930">
    <nd ref="28867579"/>
    <nd ref="1517780731"/>
    <nd ref="1517780733"/>
    <nd ref="1517780734"/>
    <nd ref="717106002"/>
    <nd ref="28867581"/>
    <nd ref="717106013"/>
    <nd ref="716939362"/>
    <nd ref="717106018"/>
    <nd ref="716939363"/>
    <nd ref="717106039"/>
    <nd ref="716939364"/>
    <nd ref="717106042"/>
    <nd ref="498426375"/>
    <nd ref="716939366"/>
    <nd ref="30860457"/>
    <nd ref="716939369"/>
    <nd ref="498426377"/>
    <nd ref="716939374"/>
    <nd ref="716939375"/>
    <nd ref="28867582"/>
    <nd ref="266899272"/>
    <nd ref="716939378"/>
    <nd ref="36754917"/>
    <nd ref="716939381"/>
    <nd ref="36754907"/>
    <nd ref="28867583"/>
    <tag k="admin_level" v="9"/>
    <tag k="boundary" v="administrative"/>
    <tag k="highway" v="residential"/>
    <tag k="lit" v="yes"/>
    <tag k="lit_by_gaslight" v="no"/>
    <tag k="name" v="Deikerstraße"/>
    <tag k="surface" v="asphalt"/>
  </way>
  <way id="4573329" version="13" timestamp="2012-02-11T20:38:24Z" uid="173844" user="Antikalk" changeset="10657152"/>
  <way id="4573343" version="3" timestamp="2010-04-17T02:59:11Z" uid="4467" user="Rosscoe" changeset="4444069">
    <nd ref="25954879"/>
    <nd ref="28867653"/>
    <nd ref="28867652"/>
    <nd ref="29323568"/>
    <nd ref="28867651"/>
    <nd ref="634813457"/>
    <nd ref="28867650"/>
    <nd ref="28867649"/>
    <nd ref="28867648"/>
    <nd ref="29323575"/>
    <nd ref="28867647"/>
    <nd ref="28867646"/>
    <nd ref="28867645"/>
    <nd ref="699460548"/>
    <tag k="abutters" v="residential"/>
    <tag k="highway" v="secondary"/>
    <tag k="name" v="Port Stephens Drive"/>
  </way>
  <way id="4573363" version="1" timestamp="2007-05-16T12:25:09Z" uid="6975" user="ulfl" changeset="53513">
    <nd ref="28850731"/>
    <nd ref="28852494"/>
    <nd ref="28850732"/>
    <tag k="created_by" v="JOSM"/>
    <tag k="highway" v="residential"/>
    <tag k="name" v="Ingolstädter Straße"/>
  </way>
  <way id="4573363" version="2" timestamp="2010-09-02T04:47:57Z" uid="238266" user="bangla" changeset="5658976">
    <nd ref="28850731"/>
    <nd ref="28852494"/>
    <nd ref="28850732"/>
    <tag k="highway" v="residential"/>
    <tag k="name" v="Ingolstädter Straße"/>
  </way>
  <way id="4573363" version="3" timestamp="2011-09-20T21:02:02Z" uid="497849" user="pyram" changeset="9355764">
    <nd ref="28850731"/>
    <nd ref="28852494"/>
    <nd ref="28850732"/>
    <tag k="highway" v="residential"/>
    <tag k="maxspeed" v="30"/>
    <tag k="name" v="Ingolstädter Straße"/>
  </way>
  <way id="4573363" version="4" timestamp="2011-12-22T15:44:19Z" uid="82877" user="Wankmann" changeset="10180656"/>
  <way id="4573364" version="1" timestamp="2007-05-16T12:25:07Z" uid="6975" user="ulfl" changeset="53513">
    <nd ref="28850729"/>
    <nd ref="28850730"/>
    <nd ref="28852495"/>
    <tag k="created_by" v="JOSM"/>
    <tag k="highway" v="residential"/>
    <tag k="name" v="Ingolstädter Straße"/>
  </way>
  <way id="4573364" version="2" timestamp="2010-09-02T04:47:55Z" uid="238266" user="bangla" changeset="5658976">
    <nd ref="28850729"/>
    <nd ref="28850730"/>
    <nd ref="28852495"/>
    <tag k="highway" v="residential"/>
    <tag k="name" v="Ingolstädter Straße"/>
  </way>
  <way id="4573364" version="3" timestamp="2010-10-01T16:27:04Z" uid="83876" user="BurnyB" changeset="5929360">
    <nd ref="28850729"/>
    <nd ref="28850730"/>
    <tag k="highway" v="residential"/>
    <tag k="name" v="Ingolstädter Straße"/>
  </way>
  <way id="4573364" version="4" timestamp="2011-09-20T21:02:02Z" uid="497849" user="pyram" changeset="9355764">
    <nd ref="28850729"/>
    <nd ref="28850730"/>
    <nd ref="1438759976"/>
    <tag k="highway" v="residential"/>
    <tag k="maxspeed" v="30"/>
    <tag k="name" v="Ingolstädter Straße"/>
    <tag k="source" v="Yahoo"/>
  </way>
  <way id="4573364" version="5" timestamp="2011-12-22T15:44:18Z" uid="82877" user="Wankmann" changeset="10180656"/>
  <way id="4573368" version="6" timestamp="2011-05-08T09:12:38Z" uid="9581" user="Lobelt" changeset="8080437">
    <nd ref="28867927"/>
    <nd ref="28868003"/>
    <nd ref="28868004"/>
    <nd ref="28868006"/>
    <nd ref="28868008"/>
    <nd ref="28868009"/>
    <nd ref="28868011"/>
    <nd ref="28868012"/>
    <nd ref="28867925"/>
    <tag k="highway" v="residential"/>
    <tag k="name" v="Wilhelmy-Weg"/>
  </way>
  <way id="4573376" version="2" timestamp="2011-05-08T09:13:02Z" uid="9581" user="Lobelt" changeset="8080437">
    <nd ref="28868037"/>
    <nd ref="28868035"/>
    <nd ref="28868034"/>
    <nd ref="28868038"/>
    <tag k="highway" v="residential"/>
  </way>
  <way id="4573376" version="3" timestamp="2012-01-08T17:27:26Z" uid="44217" user="kjon" changeset="10333791">
    <nd ref="28868037"/>
    <nd ref="1582917184"/>
    <nd ref="28868035"/>
    <nd ref="28868034"/>
    <nd ref="28868038"/>
    <tag k="highway" v="residential"/>
  </way>
  <way id="4573376" version="4" timestamp="2012-03-13T23:07:47Z" uid="588668" user="MartinSojka" changeset="10973252">
    <nd ref="1674023466"/>
    <nd ref="28868037"/>
    <nd ref="1674023475"/>
    <nd ref="1674023477"/>
    <nd ref="1582917184"/>
    <nd ref="28868035"/>
    <nd ref="28868034"/>
    <nd ref="28868038"/>
    <tag k="highway" v="residential"/>
    <tag k="name" v="Korellengarten"/>
  </way>
  <way id="4573379" version="4" timestamp="2011-05-08T09:13:09Z" uid="9581" user="Lobelt" changeset="8080437">
    <nd ref="28831930"/>
    <nd ref="28831931"/>
    <tag k="highway" v="residential"/>
    <tag k="name" v="An der Kuhtränke"/>
    <tag k="oneway" v="yes"/>
  </way>
  <way id="4573380" version="3" timestamp="2011-05-08T09:12:18Z" uid="9581" user="Lobelt" changeset="8080437">
    <nd ref="28867874"/>
    <nd ref="28867872"/>
    <nd ref="28867871"/>
    <nd ref="28867869"/>
    <nd ref="28867867"/>
    <tag k="access" v="yes"/>
    <tag k="bicycle" v="yes"/>
    <tag k="highway" v="service"/>
  </way>
  <way id="4573385" version="7" timestamp="2010-07-08T04:36:43Z" uid="74617" user="JohnSmith" changeset="5163091">
    <nd ref="27552937"/>
    <nd ref="28868443"/>
    <nd ref="29414251"/>
    <nd ref="28868479"/>
    <nd ref="29414250"/>
    <nd ref="318485877"/>
    <nd ref="28868483"/>
    <nd ref="318485897"/>
    <nd ref="28868486"/>
    <nd ref="28868489"/>
    <nd ref="28868491"/>
    <nd ref="25954976"/>
    <tag k="highway" v="residential"/>
    <tag k="maxspeed" v="50"/>
    <tag k="maxspeed:source" v="default residential speed limit in Australia"/>
    <tag k="name" v="Town Centre Circuit"/>
    <tag k="source" v="survey"/>
  </way>
  <way id="4573385" version="8" timestamp="2012-01-14T23:59:53Z" uid="147510" user="woodpeck_fixbot" changeset="10393736">
    <nd ref="27552937"/>
    <nd ref="28868443"/>
    <nd ref="29414251"/>
    <nd ref="28868479"/>
    <nd ref="29414250"/>
    <nd ref="318485877"/>
    <nd ref="28868483"/>
    <nd ref="318485897"/>
    <nd ref="28868486"/>
    <nd ref="28868489"/>
    <nd ref="28868491"/>
    <nd ref="25954976"/>
    <tag k="highway" v="residential"/>
    <tag k="name" v="Town Centre Circuit"/>
    <tag k="source" v="survey"/>
  </way>
  <way id="4573399" version="3" timestamp="2011-05-08T09:13:05Z" uid="9581" user="Lobelt" changeset="8080437">
    <nd ref="28869344"/>
    <nd ref="28867991"/>
    <nd ref="28867993"/>
    <tag k="highway" v="residential"/>
    <tag k="name" v="Emil-Jacob-Weg"/>
  </way>
  <way id="4573403" version="3" timestamp="2010-07-08T04:38:04Z" uid="74617" user="JohnSmith" changeset="5163091">
    <nd ref="28001062"/>
    <nd ref="28001112"/>
    <nd ref="28001119"/>
    <nd ref="28869448"/>
    <tag k="highway" v="residential"/>
    <tag k="maxspeed" v="50"/>
    <tag k="maxspeed:source" v="default residential speed limit in Australia"/>
    <tag k="name" v="Charthouse Avenue"/>
  </way>
  <way id="4573403" version="4" timestamp="2012-01-14T23:59:55Z" uid="147510" user="woodpeck_fixbot" changeset="10393736">
    <nd ref="28001062"/>
    <nd ref="28001112"/>
    <nd ref="28001119"/>
    <nd ref="28869448"/>
    <tag k="highway" v="residential"/>
    <tag k="name" v="Charthouse Avenue"/>
  </way>
  <way id="4573425" version="2" timestamp="2011-05-08T09:12:31Z" uid="9581" user="Lobelt" changeset="8080437">
    <nd ref="28867950"/>
    <nd ref="28867951"/>
    <tag k="bicycle" v="yes"/>
    <tag k="bridge" v="yes"/>
    <tag k="highway" v="footway"/>
    <tag k="layer" v="1"/>
  </way>
  <way id="4573428" version="1" timestamp="2007-10-02T13:54:52Z" uid="6454" user="B10xxx" changeset="18892">
    <nd ref="28867948"/>
    <nd ref="28867950"/>
    <tag k="created_by" v="JOSM"/>
    <tag k="highway" v="footway"/>
  </way>
  <way id="4573428" version="2" timestamp="2011-05-08T09:13:03Z" uid="9581" user="Lobelt" changeset="8080437">
    <nd ref="28867948"/>
    <nd ref="28867950"/>
    <tag k="highway" v="footway"/>
  </way>
  <way id="4573428" version="3" timestamp="2012-02-07T22:53:15Z" uid="328555" user="peb12345" changeset="10618031"/>
  <way id="4573433" version="3" timestamp="2011-05-08T09:12:03Z" uid="9581" user="Lobelt" changeset="8080437">
    <nd ref="28867879"/>
    <nd ref="28867877"/>
    <nd ref="28867876"/>
    <nd ref="28867874"/>
    <tag k="highway" v="residential"/>
    <tag k="name" v="Gartenbrunnenweg"/>
  </way>
  <way id="4573433" version="4" timestamp="2012-01-08T17:27:27Z" uid="44217" user="kjon" changeset="10333791">
    <nd ref="28867879"/>
    <nd ref="28867876"/>
    <nd ref="28867874"/>
    <tag k="highway" v="residential"/>
    <tag k="name" v="Gartenbrunnenweg"/>
  </way>
  <way id="4573537" version="4" timestamp="2008-12-27T22:02:17Z" uid="8619" user="cetest" changeset="630833">
    <nd ref="23332175"/>
    <nd ref="144652"/>
    <nd ref="322143582"/>
    <nd ref="144653"/>
    <nd ref="144654"/>
    <nd ref="10353053"/>
    <nd ref="144655"/>
    <nd ref="10353055"/>
    <nd ref="10353054"/>
    <nd ref="144656"/>
    <nd ref="10353056"/>
    <nd ref="144657"/>
    <nd ref="10353058"/>
    <nd ref="10353057"/>
    <tag k="highway" v="motorway"/>
    <tag k="int_ref" v="E21"/>
    <tag k="name" v="Autoroute de Lorraine-Bourgogne"/>
    <tag k="oneway" v="true"/>
    <tag k="operator" v="APRR"/>
    <tag k="ref" v="A31"/>
    <tag k="toll" v="yes"/>
  </way>
  <way id="4573537" version="5" timestamp="2009-02-07T11:00:14Z" uid="9176" user="Maarten Deen" changeset="228538">
    <nd ref="23332175"/>
    <nd ref="144652"/>
    <nd ref="322143582"/>
    <nd ref="144653"/>
    <nd ref="144654"/>
    <nd ref="10353053"/>
    <nd ref="144655"/>
    <nd ref="10353055"/>
    <nd ref="10353054"/>
    <nd ref="144656"/>
    <nd ref="10353056"/>
    <nd ref="144657"/>
    <nd ref="10353058"/>
    <nd ref="10353057"/>
    <tag k="created_by" v="Potlatch 0.10f"/>
    <tag k="highway" v="motorway"/>
    <tag k="int_ref" v="E 17;E 21"/>
    <tag k="name" v="Autoroute de Lorraine-Bourgogne"/>
    <tag k="oneway" v="true"/>
    <tag k="operator" v="APRR"/>
    <tag k="ref" v="A31"/>
    <tag k="toll" v="yes"/>
  </way>
  <way id="4573537" version="6" timestamp="2009-02-07T11:00:23Z" uid="9176" user="Maarten Deen" changeset="228538">
    <nd ref="23332175"/>
    <nd ref="144652"/>
    <nd ref="322143582"/>
    <nd ref="144653"/>
    <nd ref="144654"/>
    <nd ref="10353053"/>
    <nd ref="144655"/>
    <nd ref="10353055"/>
    <nd ref="10353054"/>
    <nd ref="144656"/>
    <tag k="created_by" v="Potlatch 0.10f"/>
    <tag k="highway" v="motorway"/>
    <tag k="int_ref" v="E 17;E 21"/>
    <tag k="name" v="Autoroute de Lorraine-Bourgogne"/>
    <tag k="oneway" v="true"/>
    <tag k="operator" v="APRR"/>
    <tag k="ref" v="A31"/>
    <tag k="toll" v="yes"/>
  </way>
  <way id="4573537" version="7" timestamp="2009-02-12T19:14:05Z" uid="9176" user="Maarten Deen" changeset="375698">
    <nd ref="23332175"/>
    <nd ref="144652"/>
    <tag k="created_by" v="Potlatch 0.10f"/>
    <tag k="highway" v="motorway"/>
    <tag k="int_ref" v="E 17;E 21"/>
    <tag k="name" v="Autoroute de Lorraine-Bourgogne"/>
    <tag k="oneway" v="true"/>
    <tag k="operator" v="APRR"/>
    <tag k="ref" v="A31"/>
    <tag k="toll" v="yes"/>
  </way>
  <way id="4573537" version="8" timestamp="2009-03-11T20:30:37Z" uid="85516" user="MS BOT" changeset="790284">
    <nd ref="23332175"/>
    <nd ref="144652"/>
    <tag k="created_by" v="Potlatch 0.10f"/>
    <tag k="highway" v="motorway"/>
    <tag k="int_ref" v="E 17;E 21"/>
    <tag k="name" v="Autoroute de Lorraine-Bourgogne"/>
    <tag k="oneway" v="true"/>
    <tag k="operator" v="APRR"/>
    <tag k="ref" v="A 31"/>
    <tag k="toll" v="yes"/>
  </way>
  <way id="4573537" version="9" timestamp="2009-03-12T22:13:59Z" uid="19237" user="Aurelien Jacobs" changeset="798226">
    <nd ref="23332175"/>
    <nd ref="144652"/>
    <tag k="created_by" v="Potlatch 0.10f"/>
    <tag k="highway" v="motorway"/>
    <tag k="int_ref" v="E 17;E 21"/>
    <tag k="name" v="Autoroute de Lorraine-Bourgogne"/>
    <tag k="oneway" v="true"/>
    <tag k="operator" v="APRR"/>
    <tag k="ref" v="A31"/>
    <tag k="toll" v="yes"/>
  </way>
  <way id="4573537" version="10" timestamp="2009-04-05T19:45:06Z" uid="44671" user="Thomas1950" changeset="229204">
    <nd ref="23332175"/>
    <nd ref="144652"/>
    <tag k="created_by" v="Potlatch 0.10f"/>
    <tag k="highway" v="motorway"/>
    <tag k="int_ref" v="E 17;E 21"/>
    <tag k="name" v="Autoroute de Lorraine-Bourgogne"/>
    <tag k="oneway" v="true"/>
    <tag k="operator" v="APRR"/>
    <tag k="ref" v="A 31"/>
    <tag k="toll" v="yes"/>
  </way>
  <way id="4573537" version="11" timestamp="2010-01-10T11:58:41Z" uid="98682" user="Stéphane Péchard" changeset="3586224">
    <nd ref="23332175"/>
    <nd ref="144652"/>
    <tag k="highway" v="motorway"/>
    <tag k="int_ref" v="E 17;E 21"/>
    <tag k="name" v="Autoroute de Lorraine-Bourgogne"/>
    <tag k="oneway" v="yes"/>
    <tag k="operator" v="APRR"/>
    <tag k="ref" v="A 31"/>
    <tag k="toll" v="yes"/>
  </way>
  <way id="4573537" version="12" timestamp="2010-05-05T22:16:08Z" uid="74847" user="Marc Mongenet" changeset="4617671">
    <nd ref="23332175"/>
    <nd ref="723186975"/>
    <nd ref="144652"/>
    <tag k="highway" v="motorway"/>
    <tag k="int_ref" v="E 17;E 21"/>
    <tag k="name" v="Autoroute de Lorraine-Bourgogne"/>
    <tag k="oneway" v="yes"/>
    <tag k="operator" v="APRR"/>
    <tag k="ref" v="A 31"/>
    <tag k="toll" v="yes"/>
  </way>
  <way id="4573537" version="13" timestamp="2010-09-24T19:58:20Z" uid="79552" user="J&amp;rΩ  " changeset="5866006">
    <nd ref="23332175"/>
    <nd ref="723186975"/>
    <nd ref="144652"/>
    <tag k="highway" v="motorway"/>
    <tag k="int_ref" v="E 17;E 21"/>
    <tag k="lanes" v="3"/>
    <tag k="name" v="Autoroute de Lorraine-Bourgogne"/>
    <tag k="oneway" v="yes"/>
    <tag k="operator" v="APRR"/>
    <tag k="ref" v="A 31"/>
    <tag k="toll" v="yes"/>
  </way>
  <way id="4573546" version="2" timestamp="2010-07-08T04:38:04Z" uid="74617" user="JohnSmith" changeset="5163091">
    <nd ref="28869444"/>
    <nd ref="28869440"/>
    <nd ref="28001119"/>
    <tag k="highway" v="residential"/>
    <tag k="maxspeed" v="50"/>
    <tag k="maxspeed:source" v="default residential speed limit in Australia"/>
    <tag k="name" v="The Watchtower"/>
  </way>
  <way id="4573546" version="3" timestamp="2012-01-14T23:59:55Z" uid="147510" user="woodpeck_fixbot" changeset="10393736">
    <nd ref="28869444"/>
    <nd ref="28869440"/>
    <nd ref="28001119"/>
    <tag k="highway" v="residential"/>
    <tag k="name" v="The Watchtower"/>
  </way>
  <way id="4573549" version="2" timestamp="2010-07-08T04:37:58Z" uid="74617" user="JohnSmith" changeset="5163091">
    <nd ref="28869435"/>
    <nd ref="28869440"/>
    <tag k="highway" v="residential"/>
    <tag k="maxspeed" v="50"/>
    <tag k="maxspeed:source" v="default residential speed limit in Australia"/>
    <tag k="name" v="The Bollard"/>
  </way>
  <way id="4573549" version="3" timestamp="2012-01-14T23:59:56Z" uid="147510" user="woodpeck_fixbot" changeset="10393736">
    <nd ref="28869435"/>
    <nd ref="28869440"/>
    <tag k="highway" v="residential"/>
    <tag k="name" v="The Bollard"/>
  </way>
  <way id="4573697" version="2" timestamp="2007-10-17T23:44:27Z" uid="6454" user="B10xxx" changeset="233502">
    <nd ref="28871497"/>
    <nd ref="28871496"/>
    <nd ref="28871495"/>
    <nd ref="28871494"/>
    <nd ref="28871493"/>
    <nd ref="28871492"/>
    <nd ref="28871491"/>
    <nd ref="28871490"/>
    <nd ref="28871489"/>
    <nd ref="28871488"/>
    <nd ref="28871487"/>
    <nd ref="28871477"/>
    <nd ref="28871475"/>
    <nd ref="28871476"/>
    <tag k="created_by" v="JOSM"/>
    <tag k="name" v="Gard"/>
    <tag k="waterway" v="river"/>
  </way>
  <way id="4573697" version="3" timestamp="2007-10-18T02:36:27Z" uid="6454" user="B10xxx" changeset="233502">
    <nd ref="28871497"/>
    <nd ref="28871496"/>
    <nd ref="28871495"/>
    <nd ref="28871494"/>
    <nd ref="28871493"/>
    <nd ref="28871492"/>
    <nd ref="28871491"/>
    <nd ref="28871490"/>
    <nd ref="28871489"/>
    <nd ref="28871488"/>
    <nd ref="28871487"/>
    <nd ref="28871477"/>
    <nd ref="28871475"/>
    <nd ref="28871476"/>
    <nd ref="77253314"/>
    <nd ref="77253315"/>
    <nd ref="77253316"/>
    <nd ref="77253317"/>
    <nd ref="77253318"/>
    <nd ref="77253319"/>
    <nd ref="77253320"/>
    <nd ref="77253321"/>
    <nd ref="77253322"/>
    <nd ref="77253323"/>
    <nd ref="77253324"/>
    <nd ref="77253325"/>
    <nd ref="77253327"/>
    <nd ref="77253328"/>
    <nd ref="77253329"/>
    <nd ref="77253330"/>
    <nd ref="77253331"/>
    <nd ref="77253332"/>
    <nd ref="77253333"/>
    <nd ref="77253334"/>
    <nd ref="77253336"/>
    <nd ref="77253337"/>
    <nd ref="77253339"/>
    <nd ref="77253340"/>
    <nd ref="77253341"/>
    <nd ref="77253343"/>
    <nd ref="77253344"/>
    <nd ref="77253346"/>
    <nd ref="77253347"/>
    <nd ref="77253349"/>
    <nd ref="77253350"/>
    <nd ref="77253351"/>
    <nd ref="77253352"/>
    <nd ref="77253354"/>
    <nd ref="77253355"/>
    <nd ref="77253356"/>
    <nd ref="77253357"/>
    <nd ref="77253358"/>
    <nd ref="77253359"/>
    <nd ref="77253361"/>
    <nd ref="77253362"/>
    <nd ref="77253363"/>
    <nd ref="77253364"/>
    <nd ref="77253365"/>
    <nd ref="77253367"/>
    <nd ref="77253369"/>
    <nd ref="77253370"/>
    <nd ref="77253372"/>
    <nd ref="77253374"/>
    <nd ref="77253376"/>
    <nd ref="77253378"/>
    <nd ref="77253379"/>
    <nd ref="77253380"/>
    <nd ref="77253381"/>
    <nd ref="77253383"/>
    <nd ref="77253384"/>
    <nd ref="77253386"/>
    <nd ref="77253387"/>
    <nd ref="77253389"/>
    <nd ref="77253390"/>
    <nd ref="77253392"/>
    <nd ref="77253393"/>
    <nd ref="77253395"/>
    <nd ref="77253396"/>
    <nd ref="77253397"/>
    <nd ref="77253398"/>
    <nd ref="77253399"/>
    <nd ref="77253400"/>
    <nd ref="77253401"/>
    <nd ref="77253403"/>
    <nd ref="77253404"/>
    <nd ref="77253405"/>
    <nd ref="77253406"/>
    <nd ref="77253407"/>
    <nd ref="77253408"/>
    <nd ref="77253410"/>
    <nd ref="77253412"/>
    <tag k="created_by" v="Potlatch alpha"/>
    <tag k="name" v="Gard"/>
    <tag k="waterway" v="river"/>
  </way>
  <way id="4573697" version="4" timestamp="2007-10-18T02:37:57Z" uid="6454" user="B10xxx" changeset="233502">
    <nd ref="77255647"/>
    <nd ref="77255648"/>
    <nd ref="77255649"/>
    <nd ref="77255650"/>
    <nd ref="77255651"/>
    <nd ref="77255652"/>
    <nd ref="77255653"/>
    <nd ref="77255654"/>
    <nd ref="77255655"/>
    <nd ref="77255656"/>
    <nd ref="77255657"/>
    <nd ref="77255658"/>
    <nd ref="77255659"/>
    <nd ref="77255660"/>
    <nd ref="77255662"/>
    <nd ref="77255663"/>
    <nd ref="77255664"/>
    <nd ref="77255665"/>
    <nd ref="77255666"/>
    <nd ref="77255667"/>
    <nd ref="77255668"/>
    <nd ref="77255669"/>
    <nd ref="77255670"/>
    <nd ref="77255672"/>
    <nd ref="77255674"/>
    <nd ref="77255675"/>
    <nd ref="77255677"/>
    <nd ref="77255678"/>
    <nd ref="77255680"/>
    <nd ref="28871497"/>
    <nd ref="28871496"/>
    <nd ref="28871495"/>
    <nd ref="28871494"/>
    <nd ref="28871493"/>
    <nd ref="28871492"/>
    <nd ref="28871491"/>
    <nd ref="28871490"/>
    <nd ref="28871489"/>
    <nd ref="28871488"/>
    <nd ref="28871487"/>
    <nd ref="28871477"/>
    <nd ref="28871475"/>
    <nd ref="28871476"/>
    <nd ref="77253314"/>
    <nd ref="77253315"/>
    <nd ref="77253316"/>
    <nd ref="77253317"/>
    <nd ref="77253318"/>
    <nd ref="77253319"/>
    <nd ref="77253320"/>
    <nd ref="77253321"/>
    <nd ref="77253322"/>
    <nd ref="77253323"/>
    <nd ref="77253324"/>
    <nd ref="77253325"/>
    <nd ref="77253327"/>
    <nd ref="77253328"/>
    <nd ref="77253329"/>
    <nd ref="77253330"/>
    <nd ref="77253331"/>
    <nd ref="77253332"/>
    <nd ref="77253333"/>
    <nd ref="77253334"/>
    <nd ref="77253336"/>
    <nd ref="77253337"/>
    <nd ref="77253339"/>
    <nd ref="77253340"/>
    <nd ref="77253341"/>
    <nd ref="77253343"/>
    <nd ref="77253344"/>
    <nd ref="77253346"/>
    <nd ref="77253347"/>
    <nd ref="77253349"/>
    <nd ref="77253350"/>
    <nd ref="77253351"/>
    <nd ref="77253352"/>
    <nd ref="77253354"/>
    <nd ref="77253355"/>
    <nd ref="77253356"/>
    <nd ref="77253357"/>
    <nd ref="77253358"/>
    <nd ref="77253359"/>
    <nd ref="77253361"/>
    <nd ref="77253362"/>
    <nd ref="77253363"/>
    <nd ref="77253364"/>
    <nd ref="77253365"/>
    <nd ref="77253367"/>
    <nd ref="77253369"/>
    <nd ref="77253370"/>
    <nd ref="77253372"/>
    <nd ref="77253374"/>
    <nd ref="77253376"/>
    <nd ref="77253378"/>
    <nd ref="77253379"/>
    <nd ref="77253380"/>
    <nd ref="77253381"/>
    <nd ref="77253383"/>
    <nd ref="77253384"/>
    <nd ref="77253386"/>
    <nd ref="77253387"/>
    <nd ref="77253389"/>
    <nd ref="77253390"/>
    <nd ref="77253392"/>
    <nd ref="77253393"/>
    <nd ref="77253395"/>
    <nd ref="77253396"/>
    <nd ref="77253397"/>
    <nd ref="77253398"/>
    <nd ref="77253399"/>
    <nd ref="77253400"/>
    <nd ref="77253401"/>
    <nd ref="77253403"/>
    <nd ref="77253404"/>
    <nd ref="77253405"/>
    <nd ref="77253406"/>
    <nd ref="77253407"/>
    <nd ref="77253408"/>
    <nd ref="77253410"/>
    <nd ref="77253412"/>
    <tag k="created_by" v="Potlatch alpha"/>
    <tag k="name" v="Gard"/>
    <tag k="waterway" v="river"/>
  </way>
  <way id="4573697" version="5" timestamp="2009-01-24T14:44:31Z" uid="4214" user="helm" changeset="830963">
    <nd ref="77255647"/>
    <nd ref="335924267"/>
    <nd ref="77255648"/>
    <nd ref="335924266"/>
    <nd ref="77255649"/>
    <nd ref="77255650"/>
    <nd ref="335924264"/>
    <nd ref="77255651"/>
    <nd ref="335924263"/>
    <nd ref="77255652"/>
    <nd ref="77255653"/>
    <nd ref="335924261"/>
    <nd ref="77255654"/>
    <nd ref="77255655"/>
    <nd ref="77255656"/>
    <nd ref="335924260"/>
    <nd ref="335924259"/>
    <nd ref="77255657"/>
    <nd ref="335924257"/>
    <nd ref="77255658"/>
    <nd ref="335924256"/>
    <nd ref="77255659"/>
    <nd ref="77255660"/>
    <nd ref="77255662"/>
    <nd ref="335924254"/>
    <nd ref="335924253"/>
    <nd ref="77255663"/>
    <nd ref="77255664"/>
    <nd ref="335924251"/>
    <nd ref="77255665"/>
    <nd ref="335924249"/>
    <nd ref="335924247"/>
    <tag k="created_by" v="Potlatch alpha"/>
    <tag k="name" v="Gard"/>
    <tag k="source" v="Yahoo"/>
    <tag k="waterway" v="river"/>
  </way>
  <way id="4573697" version="6" timestamp="2010-08-01T12:19:51Z" uid="8834" user="Jocelyn" changeset="5370440">
    <nd ref="335924247"/>
    <nd ref="335924249"/>
    <nd ref="77255665"/>
    <nd ref="335924251"/>
    <nd ref="77255664"/>
    <nd ref="77255663"/>
    <nd ref="335924253"/>
    <nd ref="335924254"/>
    <nd ref="77255662"/>
    <nd ref="77255660"/>
    <nd ref="77255659"/>
    <nd ref="335924256"/>
    <nd ref="77255658"/>
    <nd ref="335924257"/>
    <nd ref="77255657"/>
    <nd ref="335924259"/>
    <nd ref="335924260"/>
    <nd ref="77255656"/>
    <nd ref="77255655"/>
    <nd ref="77255654"/>
    <nd ref="335924261"/>
    <nd ref="77255653"/>
    <nd ref="77255652"/>
    <nd ref="335924263"/>
    <nd ref="77255651"/>
    <nd ref="335924264"/>
    <nd ref="77255650"/>
    <nd ref="77255649"/>
    <nd ref="335924266"/>
    <nd ref="77255648"/>
    <nd ref="335924267"/>
    <nd ref="77255647"/>
    <nd ref="822308011"/>
    <tag k="name" v="Gard"/>
    <tag k="source" v="Yahoo"/>
    <tag k="waterway" v="river"/>
  </way>
  <way id="4573697" version="7" timestamp="2010-10-13T00:03:17Z" uid="16038" user="krysst" changeset="6026035">
    <nd ref="335924247"/>
    <nd ref="335924249"/>
    <nd ref="77255665"/>
    <nd ref="946379714"/>
    <nd ref="335924251"/>
    <nd ref="946379175"/>
    <nd ref="946379994"/>
    <nd ref="946379455"/>
    <nd ref="77255664"/>
    <nd ref="77255663"/>
    <nd ref="335924253"/>
    <nd ref="946377765"/>
    <nd ref="335924254"/>
    <nd ref="946378047"/>
    <nd ref="77255662"/>
    <nd ref="946379158"/>
    <nd ref="77255660"/>
    <nd ref="946379699"/>
    <nd ref="77255659"/>
    <nd ref="946378894"/>
    <nd ref="335924256"/>
    <nd ref="77255658"/>
    <nd ref="335924257"/>
    <nd ref="77255657"/>
    <nd ref="335924259"/>
    <nd ref="335924260"/>
    <nd ref="77255656"/>
    <nd ref="946378060"/>
    <nd ref="946378340"/>
    <nd ref="77255655"/>
    <nd ref="946379725"/>
    <nd ref="77255654"/>
    <nd ref="946378551"/>
    <nd ref="946379069"/>
    <nd ref="335924261"/>
    <nd ref="946378845"/>
    <nd ref="77255653"/>
    <nd ref="77255652"/>
    <nd ref="946378706"/>
    <nd ref="335924263"/>
    <nd ref="77255651"/>
    <nd ref="946377712"/>
    <nd ref="335924264"/>
    <nd ref="946379602"/>
    <nd ref="77255650"/>
    <nd ref="946377869"/>
    <nd ref="77255649"/>
    <nd ref="335924266"/>
    <nd ref="77255648"/>
    <nd ref="946378582"/>
    <nd ref="335924267"/>
    <nd ref="77255647"/>
    <nd ref="822308011"/>
    <tag k="name" v="Gard"/>
    <tag k="source" v="Yahoo"/>
    <tag k="waterway" v="river"/>
  </way>
  <way id="4573697" version="8" timestamp="2011-11-28T19:06:09Z" uid="51308" user="Gall" changeset="9980936">
    <nd ref="335924247"/>
    <nd ref="335924249"/>
    <nd ref="77255665"/>
    <nd ref="946379714"/>
    <nd ref="335924251"/>
    <nd ref="946379175"/>
    <nd ref="946379994"/>
    <nd ref="946379455"/>
    <nd ref="77255664"/>
    <nd ref="77255663"/>
    <nd ref="335924253"/>
    <nd ref="946377765"/>
    <nd ref="335924254"/>
    <nd ref="946378047"/>
    <nd ref="77255662"/>
    <nd ref="946379158"/>
    <nd ref="77255660"/>
    <nd ref="946379699"/>
    <nd ref="77255659"/>
    <nd ref="946378894"/>
    <nd ref="335924256"/>
    <nd ref="77255658"/>
    <nd ref="335924257"/>
    <nd ref="77255657"/>
    <nd ref="335924259"/>
    <nd ref="335924260"/>
    <nd ref="77255656"/>
    <nd ref="946378060"/>
    <nd ref="946378340"/>
    <nd ref="77255655"/>
    <nd ref="946379725"/>
    <nd ref="77255654"/>
    <nd ref="946378551"/>
    <nd ref="946379069"/>
    <nd ref="335924261"/>
    <nd ref="946378845"/>
    <nd ref="77255653"/>
    <nd ref="77255652"/>
    <nd ref="946378706"/>
    <nd ref="335924263"/>
    <nd ref="77255651"/>
    <nd ref="946377712"/>
    <nd ref="335924264"/>
    <nd ref="946379602"/>
    <nd ref="77255650"/>
    <nd ref="946377869"/>
    <nd ref="77255649"/>
    <nd ref="335924266"/>
    <nd ref="77255648"/>
    <nd ref="946378582"/>
    <nd ref="335924267"/>
    <nd ref="822308011"/>
    <tag k="name" v="Gard"/>
    <tag k="source" v="Yahoo"/>
    <tag k="waterway" v="river"/>
  </way>
  <way id="4573697" version="9" timestamp="2012-03-12T19:45:16Z" uid="99151" user="quicky" changeset="10959470"/>
  <way id="4573703" version="2" timestamp="2008-07-04T07:46:21Z" uid="6975" user="ulfl" changeset="389415">
    <nd ref="28871508"/>
    <nd ref="28871502"/>
    <nd ref="28841719"/>
    <tag k="highway" v="unclassified"/>
  </way>
  <way id="4573703" version="3" timestamp="2012-03-10T12:44:39Z" uid="584582" user="niknok" changeset="10931193"/>
  <way id="4573878" version="1" timestamp="2007-05-15T06:42:32Z" uid="7617" user="Franc" changeset="52775">
    <nd ref="28299670"/>
    <nd ref="28299668"/>
    <nd ref="28299664"/>
    <nd ref="28299667"/>
    <nd ref="29100893"/>
    <nd ref="17925745"/>
    <tag k="abutters" v="residential"/>
    <tag k="created_by" v="JOSM"/>
    <tag k="highway" v="residential"/>
    <tag k="name" v="Carrington Road"/>
  </way>
  <way id="4573878" version="2" timestamp="2007-11-12T07:30:22Z" uid="7617" user="Franc" changeset="486336">
    <nd ref="28299670"/>
    <nd ref="28299668"/>
    <nd ref="28299664"/>
    <nd ref="109233017"/>
    <nd ref="28299667"/>
    <nd ref="29100893"/>
    <nd ref="17925745"/>
    <tag k="abutters" v="residential"/>
    <tag k="created_by" v="JOSM"/>
    <tag k="highway" v="residential"/>
    <tag k="name" v="Carrington Road"/>
  </way>
  <way id="4573878" version="3" timestamp="2007-12-27T09:10:02Z" uid="7617" user="Franc" changeset="436259">
    <nd ref="28299670"/>
    <nd ref="28299668"/>
    <nd ref="109233017"/>
    <nd ref="28299667"/>
    <nd ref="29100893"/>
    <nd ref="17925745"/>
    <tag k="abutters" v="residential"/>
    <tag k="created_by" v="JOSM"/>
    <tag k="highway" v="residential"/>
    <tag k="name" v="Carrington Road"/>
  </way>
  <way id="4573878" version="4" timestamp="2008-10-07T02:10:09Z" uid="20949" user="Ebenezer" changeset="139987">
    <nd ref="28299670"/>
    <nd ref="28299668"/>
    <nd ref="109233017"/>
    <nd ref="28299667"/>
    <nd ref="29100893"/>
    <nd ref="17925745"/>
    <tag k="abutters" v="residential"/>
    <tag k="created_by" v="Potlatch 0.10d"/>
    <tag k="highway" v="residential"/>
    <tag k="lcn_ref" v="L5"/>
    <tag k="name" v="Carrington Road"/>
  </way>
  <way id="4573878" version="5" timestamp="2009-12-02T23:37:43Z" uid="30201" user="rrankin" changeset="3276630">
    <nd ref="28299670"/>
    <nd ref="28299668"/>
    <nd ref="109233017"/>
    <nd ref="28299667"/>
    <nd ref="29100893"/>
    <nd ref="17925745"/>
    <tag k="highway" v="residential"/>
    <tag k="lcn_ref" v="L5"/>
    <tag k="name" v="Carrington Road"/>
  </way>
  <way id="4573878" version="6" timestamp="2010-01-30T14:10:46Z" uid="7617" user="Franc" changeset="3751239">
    <nd ref="28299670"/>
    <nd ref="623134729"/>
    <nd ref="28299668"/>
    <nd ref="109233017"/>
    <nd ref="28299667"/>
    <nd ref="29100893"/>
    <nd ref="17925745"/>
    <tag k="highway" v="residential"/>
    <tag k="lcn_ref" v="L5"/>
    <tag k="name" v="Carrington Road"/>
  </way>
  <way id="4573878" version="7" timestamp="2010-05-30T02:55:54Z" uid="7617" user="Franc" changeset="4848059">
    <nd ref="28299670"/>
    <nd ref="623134729"/>
    <nd ref="28299668"/>
    <nd ref="109233017"/>
    <nd ref="28299667"/>
    <nd ref="29100893"/>
    <nd ref="17925745"/>
    <tag k="highway" v="residential"/>
    <tag k="lcn_ref" v="L5"/>
    <tag k="name" v="Carrington Road"/>
    <tag k="source" v="survey"/>
  </way>
  <way id="4573878" version="8" timestamp="2010-07-08T02:53:26Z" uid="74617" user="JohnSmith" changeset="5163091">
    <nd ref="28299670"/>
    <nd ref="623134729"/>
    <nd ref="28299668"/>
    <nd ref="109233017"/>
    <nd ref="28299667"/>
    <nd ref="29100893"/>
    <nd ref="17925745"/>
    <tag k="highway" v="residential"/>
    <tag k="lcn_ref" v="L5"/>
    <tag k="maxspeed" v="50"/>
    <tag k="maxspeed:source" v="default residential speed limit in Australia"/>
    <tag k="name" v="Carrington Road"/>
    <tag k="source" v="survey"/>
  </way>
  <way id="4573878" version="9" timestamp="2012-01-14T23:59:57Z" uid="147510" user="woodpeck_fixbot" changeset="10393736">
    <nd ref="28299670"/>
    <nd ref="623134729"/>
    <nd ref="28299668"/>
    <nd ref="109233017"/>
    <nd ref="28299667"/>
    <nd ref="29100893"/>
    <nd ref="17925745"/>
    <tag k="highway" v="residential"/>
    <tag k="lcn_ref" v="L5"/>
    <tag k="name" v="Carrington Road"/>
    <tag k="source" v="survey"/>
  </way>
  <way id="4573900" version="2" timestamp="2007-12-12T18:19:32Z" uid="6454" user="B10xxx" changeset="273542"/>
  <way id="4573919" version="9" timestamp="2009-10-07T16:27:19Z" uid="86259" user="hasse_osm_korinthenkacker" changeset="2773374">
    <nd ref="28449646"/>
    <nd ref="28449650"/>
    <nd ref="28449651"/>
    <nd ref="28449652"/>
    <nd ref="28449653"/>
    <nd ref="257922431"/>
    <nd ref="257888666"/>
    <nd ref="28449654"/>
    <nd ref="28449655"/>
    <tag k="highway" v="secondary"/>
    <tag k="name" v="Jülicher Straße"/>
    <tag k="ref" v="L 117"/>
  </way>
  <way id="4573919" version="10" timestamp="2010-12-26T16:56:08Z" uid="367219" user="seymour38" changeset="6769929">
    <nd ref="28449646"/>
    <nd ref="28449650"/>
    <nd ref="28449651"/>
    <nd ref="28449652"/>
    <nd ref="28449653"/>
    <tag k="highway" v="secondary"/>
    <tag k="name" v="Jülicher Straße"/>
    <tag k="ref" v="L 117"/>
  </way>
  <way id="4573920" version="5" timestamp="2009-10-07T16:27:18Z" uid="86259" user="hasse_osm_korinthenkacker" changeset="2773374">
    <nd ref="28449661"/>
    <nd ref="28872580"/>
    <nd ref="353172656"/>
    <nd ref="28872584"/>
    <nd ref="28872579"/>
    <nd ref="353172653"/>
    <nd ref="28449662"/>
    <nd ref="28872582"/>
    <nd ref="353172654"/>
    <nd ref="28872583"/>
    <nd ref="353172655"/>
    <nd ref="28449661"/>
    <tag k="highway" v="secondary"/>
    <tag k="junction" v="roundabout"/>
    <tag k="name" v="Roermonder Straße"/>
  </way>
  <way id="4573939" version="1" timestamp="2007-09-05T06:40:21Z" uid="7617" user="Franc" changeset="341117">
    <nd ref="28802300"/>
    <nd ref="28828817"/>
    <nd ref="28872960"/>
    <tag k="abutters" v="residential"/>
    <tag k="created_by" v="YahooApplet 1.0"/>
    <tag k="highway" v="residential"/>
    <tag k="name" v="Montieth Street"/>
    <tag k="source:name" v="local knowledge"/>
  </way>
  <way id="4573939" version="2" timestamp="2007-12-27T12:40:50Z" uid="7617" user="Franc" changeset="440849">
    <nd ref="28802300"/>
    <nd ref="28828817"/>
    <nd ref="192073944"/>
    <nd ref="28872960"/>
    <tag k="abutters" v="residential"/>
    <tag k="created_by" v="YahooApplet 1.0"/>
    <tag k="highway" v="residential"/>
    <tag k="name" v="Montieth Street"/>
    <tag k="source:name" v="local knowledge"/>
  </way>
  <way id="4573939" version="3" timestamp="2008-04-10T13:25:28Z" uid="27043" user="The New Andy" changeset="105982">
    <nd ref="28802300"/>
    <nd ref="28828817"/>
    <nd ref="192073944"/>
    <nd ref="28872960"/>
    <tag k="abutters" v="residential"/>
    <tag k="created_by" v="Potlatch 0.8a"/>
    <tag k="highway" v="residential"/>
    <tag k="maxspeed" v="50"/>
    <tag k="name" v="Montieth Street"/>
    <tag k="source:name" v="local knowledge"/>
  </way>
  <way id="4573939" version="4" timestamp="2008-04-22T13:25:02Z" uid="27043" user="The New Andy" changeset="227333">
    <nd ref="28802300"/>
    <nd ref="28828817"/>
    <nd ref="192073944"/>
    <nd ref="28872960"/>
    <tag k="abutters" v="residential"/>
    <tag k="created_by" v="Potlatch 0.8a"/>
    <tag k="highway" v="residential"/>
    <tag k="maxspeed" v="50"/>
    <tag k="name" v="Montieth Street"/>
    <tag k="source:name" v="local knowledge"/>
  </way>
  <way id="4573939" version="5" timestamp="2008-09-23T13:14:48Z" uid="27043" user="The New Andy" changeset="685963">
    <nd ref="28802300"/>
    <nd ref="299273660"/>
    <nd ref="28828817"/>
    <nd ref="192073944"/>
    <nd ref="28872960"/>
    <tag k="abutters" v="residential"/>
    <tag k="created_by" v="Potlatch 0.10b"/>
    <tag k="highway" v="residential"/>
    <tag k="maxspeed" v="50"/>
    <tag k="name" v="Montieth Street"/>
    <tag k="source:name" v="local knowledge"/>
  </way>
  <way id="4573939" version="6" timestamp="2010-01-19T04:43:31Z" uid="30201" user="rrankin" changeset="3656070">
    <nd ref="28802300"/>
    <nd ref="299273660"/>
    <nd ref="28828817"/>
    <nd ref="192073944"/>
    <nd ref="28872960"/>
    <tag k="highway" v="residential"/>
    <tag k="maxspeed" v="50"/>
    <tag k="name" v="Montieth Street"/>
    <tag k="source:name" v="local knowledge"/>
  </way>
  <way id="4573939" version="7" timestamp="2011-02-28T01:52:04Z" uid="32394" user="Ant Burnett" changeset="7417005">
    <nd ref="28802300"/>
    <nd ref="1178431587"/>
    <nd ref="299273660"/>
    <nd ref="28828817"/>
    <nd ref="192073944"/>
    <nd ref="28872960"/>
    <tag k="highway" v="residential"/>
    <tag k="maxspeed" v="50"/>
    <tag k="name" v="Montieth Street"/>
    <tag k="source:name" v="local knowledge"/>
  </way>
  <way id="4573940" version="1" timestamp="2007-08-30T00:07:33Z" uid="7617" user="Franc" changeset="262632">
    <nd ref="28828817"/>
    <nd ref="28872966"/>
    <nd ref="28872971"/>
    <nd ref="36764591"/>
    <nd ref="28872976"/>
    <nd ref="36764586"/>
    <nd ref="36764584"/>
    <tag k="abutters" v="residential"/>
    <tag k="created_by" v="Potlatch alpha"/>
    <tag k="name" v="Cornwall Avenue"/>
    <tag k="source:name" v="survey"/>
  </way>
  <way id="4573940" version="2" timestamp="2007-11-21T09:26:34Z" uid="7617" user="Franc" changeset="587642">
    <nd ref="28828817"/>
    <nd ref="28872966"/>
    <nd ref="28872971"/>
    <nd ref="36764591"/>
    <nd ref="28872976"/>
    <nd ref="36764586"/>
    <nd ref="36764584"/>
    <tag k="abutters" v="residential"/>
    <tag k="created_by" v="Potlatch alpha"/>
    <tag k="highway" v="residential"/>
    <tag k="name" v="Cornwall Avenue"/>
    <tag k="source:name" v="survey"/>
  </way>
  <way id="4573940" version="3" timestamp="2009-11-08T03:52:43Z" uid="7617" user="Franc" changeset="3060769">
    <nd ref="28828817"/>
    <nd ref="559360333"/>
    <nd ref="28872966"/>
    <nd ref="559360334"/>
    <nd ref="559360335"/>
    <nd ref="28872971"/>
    <nd ref="36764591"/>
    <nd ref="28872976"/>
    <nd ref="36764586"/>
    <nd ref="36764584"/>
    <tag k="abutters" v="residential"/>
    <tag k="highway" v="residential"/>
    <tag k="name" v="Cornwall Avenue"/>
    <tag k="source:name" v="survey"/>
  </way>
  <way id="4573940" version="4" timestamp="2010-01-19T04:43:32Z" uid="30201" user="rrankin" changeset="3656070">
    <nd ref="28828817"/>
    <nd ref="559360333"/>
    <nd ref="28872966"/>
    <nd ref="559360334"/>
    <nd ref="559360335"/>
    <nd ref="28872971"/>
    <nd ref="36764591"/>
    <nd ref="28872976"/>
    <nd ref="36764586"/>
    <nd ref="36764584"/>
    <tag k="highway" v="residential"/>
    <tag k="name" v="Cornwall Avenue"/>
    <tag k="source:name" v="survey"/>
  </way>
  <way id="4573940" version="5" timestamp="2010-07-08T00:03:07Z" uid="74617" user="JohnSmith" changeset="5162525">
    <nd ref="28828817"/>
    <nd ref="559360333"/>
    <nd ref="28872966"/>
    <nd ref="559360334"/>
    <nd ref="559360335"/>
    <nd ref="28872971"/>
    <nd ref="36764591"/>
    <nd ref="28872976"/>
    <nd ref="36764586"/>
    <nd ref="36764584"/>
    <tag k="highway" v="residential"/>
    <tag k="maxspeed" v="50"/>
    <tag k="maxspeed:source" v="default residential speed limit in Australia"/>
    <tag k="name" v="Cornwall Avenue"/>
    <tag k="source:name" v="survey"/>
  </way>
  <way id="4573940" version="6" timestamp="2010-07-08T00:13:21Z" uid="74617" user="JohnSmith" changeset="5162525">
    <nd ref="28828817"/>
    <nd ref="559360333"/>
    <nd ref="28872966"/>
    <nd ref="559360334"/>
    <nd ref="559360335"/>
    <nd ref="28872971"/>
    <nd ref="36764591"/>
    <nd ref="28872976"/>
    <nd ref="36764586"/>
    <nd ref="36764584"/>
    <tag k="highway" v="residential"/>
    <tag k="maxspeed" v="50"/>
    <tag k="maxspeed:source" v="default residential speed limit in Australia"/>
    <tag k="name" v="Cornwall Avenue"/>
    <tag k="source:name" v="survey"/>
  </way>
  <way id="4573940" version="7" timestamp="2012-01-14T23:59:59Z" uid="147510" user="woodpeck_fixbot" changeset="10393736">
    <nd ref="28828817"/>
    <nd ref="559360333"/>
    <nd ref="28872966"/>
    <nd ref="559360334"/>
    <nd ref="559360335"/>
    <nd ref="28872971"/>
    <nd ref="36764591"/>
    <nd ref="28872976"/>
    <nd ref="36764586"/>
    <nd ref="36764584"/>
    <tag k="highway" v="residential"/>
    <tag k="name" v="Cornwall Avenue"/>
    <tag k="source:name" v="survey"/>
  </way>
  <way id="4573941" version="1" timestamp="2007-08-23T04:59:24Z" uid="7617" user="Franc" changeset="243753">
    <nd ref="28872976"/>
    <nd ref="28872982"/>
    <nd ref="28872988"/>
    <nd ref="28872993"/>
    <nd ref="28872998"/>
    <nd ref="28873004"/>
    <nd ref="28873009"/>
    <nd ref="28873015"/>
    <nd ref="28873020"/>
    <nd ref="17392951"/>
    <tag k="abutters" v="residential"/>
    <tag k="created_by" v="Potlatch alpha"/>
    <tag k="highway" v="residential"/>
    <tag k="name" v="Duff Street"/>
    <tag k="source:name" v="local knowledge"/>
  </way>
  <way id="4573941" version="2" timestamp="2010-01-19T04:43:32Z" uid="30201" user="rrankin" changeset="3656070">
    <nd ref="28872976"/>
    <nd ref="28872982"/>
    <nd ref="28872988"/>
    <nd ref="28872993"/>
    <nd ref="28872998"/>
    <nd ref="28873004"/>
    <nd ref="28873009"/>
    <nd ref="28873015"/>
    <nd ref="28873020"/>
    <nd ref="17392951"/>
    <tag k="highway" v="residential"/>
    <tag k="name" v="Duff Street"/>
    <tag k="source:name" v="local knowledge"/>
  </way>
  <way id="4573941" version="3" timestamp="2010-03-18T08:38:16Z" uid="9477" user="NilbogAus" changeset="4159432">
    <nd ref="28872976"/>
    <nd ref="28872982"/>
    <nd ref="28872988"/>
    <nd ref="28872993"/>
    <nd ref="28872998"/>
    <nd ref="28873004"/>
    <nd ref="28873009"/>
    <nd ref="28873015"/>
    <nd ref="28873020"/>
    <nd ref="668549717"/>
    <nd ref="17392951"/>
    <tag k="highway" v="residential"/>
    <tag k="name" v="Duff Street"/>
    <tag k="source:name" v="local knowledge"/>
  </way>
  <way id="4573941" version="4" timestamp="2010-07-04T13:13:30Z" uid="7617" user="Franc" changeset="5132767">
    <nd ref="28872976"/>
    <nd ref="28872982"/>
    <nd ref="28872988"/>
    <nd ref="28872993"/>
    <nd ref="28872998"/>
    <nd ref="28873004"/>
    <nd ref="28873009"/>
    <nd ref="28873015"/>
    <nd ref="28873020"/>
    <nd ref="668549717"/>
    <tag k="highway" v="residential"/>
    <tag k="name" v="Duff Street"/>
    <tag k="source:name" v="local knowledge"/>
  </way>
  <way id="4573941" version="5" timestamp="2010-07-08T00:04:08Z" uid="74617" user="JohnSmith" changeset="5162525">
    <nd ref="28872976"/>
    <nd ref="28872982"/>
    <nd ref="28872988"/>
    <nd ref="28872993"/>
    <nd ref="28872998"/>
    <nd ref="28873004"/>
    <nd ref="28873009"/>
    <nd ref="28873015"/>
    <nd ref="28873020"/>
    <nd ref="668549717"/>
    <tag k="highway" v="residential"/>
    <tag k="maxspeed" v="50"/>
    <tag k="maxspeed:source" v="default residential speed limit in Australia"/>
    <tag k="name" v="Duff Street"/>
    <tag k="source:name" v="local knowledge"/>
  </way>
  <way id="4573941" version="6" timestamp="2010-07-08T00:14:36Z" uid="74617" user="JohnSmith" changeset="5162525">
    <nd ref="28872976"/>
    <nd ref="28872982"/>
    <nd ref="28872988"/>
    <nd ref="28872993"/>
    <nd ref="28872998"/>
    <nd ref="28873004"/>
    <nd ref="28873009"/>
    <nd ref="28873015"/>
    <nd ref="28873020"/>
    <nd ref="668549717"/>
    <tag k="highway" v="residential"/>
    <tag k="maxspeed" v="50"/>
    <tag k="maxspeed:source" v="default residential speed limit in Australia"/>
    <tag k="name" v="Duff Street"/>
    <tag k="source:name" v="local knowledge"/>
  </way>
  <way id="4573941" version="7" timestamp="2010-10-10T07:15:29Z" uid="61114" user="Trav" changeset="5999165">
    <nd ref="28872976"/>
    <nd ref="28872982"/>
    <nd ref="28872988"/>
    <nd ref="28872993"/>
    <nd ref="28872998"/>
    <nd ref="28873004"/>
    <nd ref="28873009"/>
    <nd ref="28873015"/>
    <nd ref="28873020"/>
    <nd ref="943246219"/>
    <nd ref="668549717"/>
    <tag k="highway" v="residential"/>
    <tag k="maxspeed" v="50"/>
    <tag k="maxspeed:source" v="default residential speed limit in Australia"/>
    <tag k="name" v="Duff Street"/>
    <tag k="source:name" v="local knowledge"/>
  </way>
  <way id="4573941" version="8" timestamp="2011-03-03T03:21:13Z" uid="32394" user="Ant Burnett" changeset="7442794">
    <nd ref="28872976"/>
    <nd ref="28872982"/>
    <nd ref="28872988"/>
    <nd ref="28872993"/>
    <nd ref="28872998"/>
    <nd ref="28873004"/>
    <nd ref="28873009"/>
    <nd ref="28873015"/>
    <nd ref="28873020"/>
    <nd ref="943246219"/>
    <nd ref="1183971865"/>
    <nd ref="668549717"/>
    <tag k="highway" v="residential"/>
    <tag k="maxspeed" v="50"/>
    <tag k="maxspeed:source" v="default residential speed limit in Australia"/>
    <tag k="name" v="Duff Street"/>
    <tag k="source:name" v="local knowledge"/>
  </way>
  <way id="4573941" version="9" timestamp="2012-01-15T00:00:00Z" uid="147510" user="woodpeck_fixbot" changeset="10393736">
    <nd ref="28872976"/>
    <nd ref="28872982"/>
    <nd ref="28872988"/>
    <nd ref="28872993"/>
    <nd ref="28872998"/>
    <nd ref="28873004"/>
    <nd ref="28873009"/>
    <nd ref="28873015"/>
    <nd ref="28873020"/>
    <nd ref="943246219"/>
    <nd ref="1183971865"/>
    <nd ref="668549717"/>
    <tag k="highway" v="residential"/>
    <tag k="name" v="Duff Street"/>
    <tag k="source:name" v="local knowledge"/>
  </way>
  <way id="4573942" version="1" timestamp="2007-08-23T04:59:23Z" uid="7617" user="Franc" changeset="243753">
    <nd ref="28873026"/>
    <nd ref="28873032"/>
    <nd ref="28873037"/>
    <nd ref="28873042"/>
    <nd ref="28873048"/>
    <nd ref="28873054"/>
    <nd ref="28873060"/>
    <nd ref="28873066"/>
    <nd ref="28873072"/>
    <nd ref="28873077"/>
    <nd ref="28873083"/>
    <nd ref="28873088"/>
    <tag k="abutters" v="residential"/>
    <tag k="created_by" v="JOSM"/>
    <tag k="highway" v="residential"/>
    <tag k="name" v="Holmes Street"/>
    <tag k="source:name" v="local knowledge"/>
  </way>
  <way id="4573942" version="2" timestamp="2009-11-08T03:52:43Z" uid="7617" user="Franc" changeset="3060769">
    <nd ref="28873026"/>
    <nd ref="559360339"/>
    <nd ref="28873032"/>
    <nd ref="28873037"/>
    <nd ref="28873042"/>
    <nd ref="28873048"/>
    <nd ref="28873054"/>
    <nd ref="28873060"/>
    <nd ref="28873066"/>
    <nd ref="28873072"/>
    <nd ref="28873077"/>
    <nd ref="28873083"/>
    <nd ref="28873088"/>
    <tag k="abutters" v="residential"/>
    <tag k="highway" v="residential"/>
    <tag k="name" v="Holmes Street"/>
    <tag k="source:name" v="local knowledge"/>
  </way>
  <way id="4573942" version="3" timestamp="2010-01-19T04:43:32Z" uid="30201" user="rrankin" changeset="3656070">
    <nd ref="28873026"/>
    <nd ref="559360339"/>
    <nd ref="28873032"/>
    <nd ref="28873037"/>
    <nd ref="28873042"/>
    <nd ref="28873048"/>
    <nd ref="28873054"/>
    <nd ref="28873060"/>
    <nd ref="28873066"/>
    <nd ref="28873072"/>
    <nd ref="28873077"/>
    <nd ref="28873083"/>
    <nd ref="28873088"/>
    <tag k="highway" v="residential"/>
    <tag k="name" v="Holmes Street"/>
    <tag k="source:name" v="local knowledge"/>
  </way>
  <way id="4573942" version="4" timestamp="2010-07-04T12:39:54Z" uid="7617" user="Franc" changeset="5132531">
    <nd ref="28873026"/>
    <nd ref="559360339"/>
    <nd ref="28873032"/>
    <nd ref="28873037"/>
    <nd ref="28873042"/>
    <nd ref="800401813"/>
    <nd ref="28873048"/>
    <nd ref="28873054"/>
    <nd ref="28873060"/>
    <nd ref="28873066"/>
    <nd ref="800401811"/>
    <nd ref="28873072"/>
    <nd ref="28873077"/>
    <nd ref="28873083"/>
    <nd ref="28873088"/>
    <tag k="highway" v="residential"/>
    <tag k="name" v="Holmes Street"/>
    <tag k="source:name" v="local knowledge"/>
  </way>
  <way id="4573942" version="5" timestamp="2010-07-08T00:00:46Z" uid="74617" user="JohnSmith" changeset="5162525">
    <nd ref="28873026"/>
    <nd ref="559360339"/>
    <nd ref="28873032"/>
    <nd ref="28873037"/>
    <nd ref="28873042"/>
    <nd ref="800401813"/>
    <nd ref="28873048"/>
    <nd ref="28873054"/>
    <nd ref="28873060"/>
    <nd ref="28873066"/>
    <nd ref="800401811"/>
    <nd ref="28873072"/>
    <nd ref="28873077"/>
    <nd ref="28873083"/>
    <nd ref="28873088"/>
    <tag k="highway" v="residential"/>
    <tag k="maxspeed" v="50"/>
    <tag k="maxspeed:source" v="default residential speed limit in Australia"/>
    <tag k="name" v="Holmes Street"/>
    <tag k="source:name" v="local knowledge"/>
  </way>
  <way id="4573942" version="6" timestamp="2010-07-08T00:10:48Z" uid="74617" user="JohnSmith" changeset="5162525">
    <nd ref="28873026"/>
    <nd ref="559360339"/>
    <nd ref="28873032"/>
    <nd ref="28873037"/>
    <nd ref="28873042"/>
    <nd ref="800401813"/>
    <nd ref="28873048"/>
    <nd ref="28873054"/>
    <nd ref="28873060"/>
    <nd ref="28873066"/>
    <nd ref="800401811"/>
    <nd ref="28873072"/>
    <nd ref="28873077"/>
    <nd ref="28873083"/>
    <nd ref="28873088"/>
    <tag k="highway" v="residential"/>
    <tag k="maxspeed" v="50"/>
    <tag k="maxspeed:source" v="default residential speed limit in Australia"/>
    <tag k="name" v="Holmes Street"/>
    <tag k="source:name" v="local knowledge"/>
  </way>
  <way id="4573942" version="7" timestamp="2012-01-15T00:00:01Z" uid="147510" user="woodpeck_fixbot" changeset="10393736">
    <nd ref="28873026"/>
    <nd ref="559360339"/>
    <nd ref="28873032"/>
    <nd ref="28873037"/>
    <nd ref="28873042"/>
    <nd ref="800401813"/>
    <nd ref="28873048"/>
    <nd ref="28873054"/>
    <nd ref="28873060"/>
    <nd ref="28873066"/>
    <nd ref="800401811"/>
    <nd ref="28873072"/>
    <nd ref="28873077"/>
    <nd ref="28873083"/>
    <nd ref="28873088"/>
    <tag k="highway" v="residential"/>
    <tag k="name" v="Holmes Street"/>
    <tag k="source:name" v="local knowledge"/>
  </way>
  <way id="4573943" version="1" timestamp="2007-08-30T00:07:36Z" uid="7617" user="Franc" changeset="262632">
    <nd ref="28873020"/>
    <nd ref="28873032"/>
    <tag k="abutters" v="residential"/>
    <tag k="created_by" v="JOSM"/>
    <tag k="highway" v="residential"/>
    <tag k="name" v="Allan Avenue"/>
    <tag k="source:name" v="survey"/>
  </way>
  <way id="4573943" version="2" timestamp="2010-01-19T04:43:32Z" uid="30201" user="rrankin" changeset="3656070">
    <nd ref="28873020"/>
    <nd ref="28873032"/>
    <tag k="highway" v="residential"/>
    <tag k="name" v="Allan Avenue"/>
    <tag k="source:name" v="survey"/>
  </way>
  <way id="4573943" version="3" timestamp="2010-07-08T00:01:56Z" uid="74617" user="JohnSmith" changeset="5162525">
    <nd ref="28873020"/>
    <nd ref="28873032"/>
    <tag k="highway" v="residential"/>
    <tag k="maxspeed" v="50"/>
    <tag k="maxspeed:source" v="default residential speed limit in Australia"/>
    <tag k="name" v="Allan Avenue"/>
    <tag k="source:name" v="survey"/>
  </way>
  <way id="4573943" version="4" timestamp="2010-07-08T00:12:08Z" uid="74617" user="JohnSmith" changeset="5162525">
    <nd ref="28873020"/>
    <nd ref="28873032"/>
    <tag k="highway" v="residential"/>
    <tag k="maxspeed" v="50"/>
    <tag k="maxspeed:source" v="default residential speed limit in Australia"/>
    <tag k="name" v="Allan Avenue"/>
    <tag k="source:name" v="survey"/>
  </way>
  <way id="4573943" version="5" timestamp="2012-01-15T00:00:03Z" uid="147510" user="woodpeck_fixbot" changeset="10393736">
    <nd ref="28873020"/>
    <nd ref="28873032"/>
    <tag k="highway" v="residential"/>
    <tag k="name" v="Allan Avenue"/>
    <tag k="source:name" v="survey"/>
  </way>
  <way id="4573944" version="1" timestamp="2007-08-23T04:59:27Z" uid="7617" user="Franc" changeset="243753">
    <nd ref="28873094"/>
    <nd ref="28873026"/>
    <tag k="abutters" v="residential"/>
    <tag k="created_by" v="JOSM"/>
    <tag k="highway" v="residential"/>
    <tag k="name" v="Denman Street"/>
    <tag k="source:name" v="local knowledge"/>
  </way>
  <way id="4573944" version="2" timestamp="2009-11-08T03:52:43Z" uid="7617" user="Franc" changeset="3060769">
    <nd ref="28873094"/>
    <nd ref="559360341"/>
    <nd ref="28873026"/>
    <tag k="abutters" v="residential"/>
    <tag k="highway" v="residential"/>
    <tag k="name" v="Denman Street"/>
    <tag k="source:name" v="local knowledge"/>
  </way>
  <way id="4573944" version="3" timestamp="2010-01-19T04:43:31Z" uid="30201" user="rrankin" changeset="3656070">
    <nd ref="28873094"/>
    <nd ref="559360341"/>
    <nd ref="28873026"/>
    <tag k="highway" v="residential"/>
    <tag k="name" v="Denman Street"/>
    <tag k="source:name" v="local knowledge"/>
  </way>
  <way id="4573944" version="4" timestamp="2010-07-08T00:02:17Z" uid="74617" user="JohnSmith" changeset="5162525">
    <nd ref="28873094"/>
    <nd ref="559360341"/>
    <nd ref="28873026"/>
    <tag k="highway" v="residential"/>
    <tag k="maxspeed" v="50"/>
    <tag k="maxspeed:source" v="default residential speed limit in Australia"/>
    <tag k="name" v="Denman Street"/>
    <tag k="source:name" v="local knowledge"/>
  </way>
  <way id="4573944" version="5" timestamp="2010-07-08T00:12:30Z" uid="74617" user="JohnSmith" changeset="5162525">
    <nd ref="28873094"/>
    <nd ref="559360341"/>
    <nd ref="28873026"/>
    <tag k="highway" v="residential"/>
    <tag k="maxspeed" v="50"/>
    <tag k="maxspeed:source" v="default residential speed limit in Australia"/>
    <tag k="name" v="Denman Street"/>
    <tag k="source:name" v="local knowledge"/>
  </way>
  <way id="4573944" version="6" timestamp="2012-01-15T00:00:05Z" uid="147510" user="woodpeck_fixbot" changeset="10393736">
    <nd ref="28873094"/>
    <nd ref="559360341"/>
    <nd ref="28873026"/>
    <tag k="highway" v="residential"/>
    <tag k="name" v="Denman Street"/>
    <tag k="source:name" v="local knowledge"/>
  </way>
  <way id="4573945" version="1" timestamp="2007-08-29T23:38:00Z" uid="7617" user="Franc" changeset="262632">
    <nd ref="29893533"/>
    <nd ref="29893535"/>
    <nd ref="29893536"/>
    <nd ref="29893537"/>
    <nd ref="29893538"/>
    <nd ref="28873094"/>
    <nd ref="28873100"/>
    <nd ref="28873106"/>
    <nd ref="28873113"/>
    <nd ref="28873119"/>
    <nd ref="28873126"/>
    <nd ref="28873131"/>
    <nd ref="28873133"/>
    <nd ref="28873134"/>
    <nd ref="28873135"/>
    <nd ref="28873138"/>
    <nd ref="28828816"/>
    <nd ref="36762529"/>
    <tag k="abutters" v="residential"/>
    <tag k="created_by" v="Potlatch alpha"/>
    <tag k="highway" v="residential"/>
    <tag k="name" v="Finlay Road"/>
    <tag k="source:name" v="survey"/>
  </way>
  <way id="4573945" version="2" timestamp="2008-04-10T13:28:22Z" uid="27043" user="The New Andy" changeset="105982">
    <nd ref="29893533"/>
    <nd ref="29893535"/>
    <nd ref="29893536"/>
    <nd ref="29893537"/>
    <nd ref="29893538"/>
    <nd ref="28873094"/>
    <nd ref="28873100"/>
    <nd ref="28873106"/>
    <nd ref="28873113"/>
    <nd ref="28873119"/>
    <nd ref="28873126"/>
    <nd ref="28873131"/>
    <nd ref="28873133"/>
    <nd ref="28873134"/>
    <nd ref="28873135"/>
    <nd ref="28873138"/>
    <nd ref="28828816"/>
    <nd ref="36762529"/>
    <tag k="abutters" v="residential"/>
    <tag k="created_by" v="Potlatch 0.8a"/>
    <tag k="highway" v="residential"/>
    <tag k="maxspeed" v="50"/>
    <tag k="name" v="Finlay Road"/>
    <tag k="source:name" v="survey"/>
  </way>
  <way id="4573945" version="3" timestamp="2008-04-18T13:31:54Z" uid="27043" user="The New Andy" changeset="182624">
    <nd ref="29893533"/>
    <nd ref="29893535"/>
    <nd ref="29893536"/>
    <nd ref="29893537"/>
    <nd ref="29893538"/>
    <nd ref="28873094"/>
    <nd ref="28873100"/>
    <nd ref="28873106"/>
    <nd ref="28873113"/>
    <nd ref="28873119"/>
    <nd ref="28873126"/>
    <nd ref="28873131"/>
    <nd ref="28873133"/>
    <nd ref="28873134"/>
    <nd ref="28873135"/>
    <nd ref="28873138"/>
    <nd ref="28828816"/>
    <nd ref="258346027"/>
    <nd ref="36762529"/>
    <tag k="abutters" v="residential"/>
    <tag k="created_by" v="Potlatch 0.8a"/>
    <tag k="highway" v="residential"/>
    <tag k="maxspeed" v="50"/>
    <tag k="name" v="Finlay Road"/>
    <tag k="source:name" v="survey"/>
  </way>
  <way id="4573945" version="4" timestamp="2010-01-19T04:43:31Z" uid="30201" user="rrankin" changeset="3656070">
    <nd ref="29893533"/>
    <nd ref="29893535"/>
    <nd ref="29893536"/>
    <nd ref="29893537"/>
    <nd ref="29893538"/>
    <nd ref="28873094"/>
    <nd ref="28873100"/>
    <nd ref="28873106"/>
    <nd ref="28873113"/>
    <nd ref="28873119"/>
    <nd ref="28873126"/>
    <nd ref="28873131"/>
    <nd ref="28873133"/>
    <nd ref="28873134"/>
    <nd ref="28873135"/>
    <nd ref="28873138"/>
    <nd ref="28828816"/>
    <nd ref="258346027"/>
    <nd ref="36762529"/>
    <tag k="highway" v="residential"/>
    <tag k="maxspeed" v="50"/>
    <tag k="name" v="Finlay Road"/>
    <tag k="source:name" v="survey"/>
  </way>
  <way id="4573945" version="5" timestamp="2010-02-16T12:51:36Z" uid="7617" user="Franc" changeset="3891878">
    <nd ref="29893533"/>
    <nd ref="29893535"/>
    <nd ref="29893536"/>
    <nd ref="641406912"/>
    <nd ref="29893537"/>
    <nd ref="29893538"/>
    <nd ref="641406902"/>
    <tag k="highway" v="residential"/>
    <tag k="maxspeed" v="50"/>
    <tag k="name" v="Finlay Road"/>
    <tag k="restriction" v="school_zone"/>
    <tag k="source:name" v="survey"/>
  </way>
  <way id="4573945" version="6" timestamp="2010-03-14T04:06:03Z" uid="7617" user="Franc" changeset="4120985">
    <nd ref="29893533"/>
    <nd ref="665691910"/>
    <nd ref="29893535"/>
    <nd ref="29893536"/>
    <nd ref="641406912"/>
    <nd ref="29893537"/>
    <nd ref="29893538"/>
    <nd ref="641406902"/>
    <tag k="highway" v="residential"/>
    <tag k="maxspeed" v="50"/>
    <tag k="name" v="Finlay Road"/>
    <tag k="restriction" v="school_zone"/>
    <tag k="source:name" v="survey"/>
  </way>
  <way id="4573945" version="7" timestamp="2011-06-18T12:35:09Z" uid="7617" user="Franc" changeset="8472865">
    <nd ref="29893533"/>
    <nd ref="665691910"/>
    <tag k="highway" v="residential"/>
    <tag k="maxspeed" v="50"/>
    <tag k="name" v="Finlay Road"/>
    <tag k="restriction" v="school_zone"/>
    <tag k="source:name" v="survey"/>
  </way>
</osm>
