<?xml version='1.0' encoding='UTF-8'?>
<osm version="0.6" generator="libosmium/2.20.0">
  <way id="45743206" version="1" timestamp="2009-12-06T17:28:18Z" uid="33382" user="de_muur" changeset="3307434">
    <nd ref="582624267"/>
    <nd ref="294482044"/>
    <nd ref="253324277"/>
    <tag k="highway" v="residential"/>
    <tag k="name" v="Zum Behlingsee"/>
    <tag k="surface" v="paved"/>
  </way>
  <way id="45743206" version="2" timestamp="2010-01-26T20:33:11Z" uid="115883" user="Senior_Spielbergo" changeset="3723042">
    <nd ref="582624267"/>
    <nd ref="294482044"/>
    <nd ref="253324277"/>
    <tag k="highway" v="residential"/>
    <tag k="name" v="Zum Behlingsee"/>
    <tag k="postal_code" v="28876"/>
    <tag k="surface" v="paved"/>
  </way>
  <way id="45743623" version="1" timestamp="2009-12-06T17:38:07Z" uid="33382" user="de_muur" changeset="3307535">
    <nd ref="360041615"/>
    <nd ref="253324327"/>
    <tag k="highway" v="residential"/>
    <tag k="name" v="Seeweg"/>
    <tag k="surface" v="paved"/>
  </way>
  <way id="45743623" version="2" timestamp="2010-01-26T20:33:11Z" uid="115883" user="Senior_Spielbergo" changeset="3723042">
    <nd ref="360041615"/>
    <nd ref="253324327"/>
    <tag k="highway" v="residential"/>
    <tag k="name" v="Seeweg"/>
    <tag k="postal_code" v="28876"/>
    <tag k="surface" v="paved"/>
  </way>
  <way id="45743859" version="2" timestamp="2009-12-24T02:22:38Z" uid="6975" user="ulfl" changeset="3439581">
    <nd ref="7040705"/>
    <nd ref="582629767"/>
    <nd ref="582629769"/>
    <nd ref="582629770"/>
    <tag k="FIXME" v="needs survey"/>
    <tag k="foot" v="yes"/>
    <tag k="highway" v="footway"/>
  </way>
  <way id="45743859" version="3" timestamp="2010-08-19T16:04:49Z" uid="1164" user="dmgroom" changeset="5536694">
    <nd ref="7040705"/>
    <nd ref="582629767"/>
    <nd ref="582629769"/>
    <nd ref="582629770"/>
    <tag k="fixme" v="needs survey"/>
    <tag k="foot" v="yes"/>
    <tag k="highway" v="footway"/>
  </way>
  <way id="45743859" version="4" timestamp="2011-05-17T20:19:43Z" uid="437598" user="dmgroom_ct" changeset="8175717">
    <nd ref="7040705"/>
    <nd ref="582629767"/>
    <nd ref="582629769"/>
    <nd ref="582629770"/>
    <tag k="designation" v="public_footpath"/>
    <tag k="highway" v="footway"/>
    <tag k="ref" v="SS35"/>
    <tag k="surface" v="asphalt"/>
  </way>
</osm>
