<?xml version='1.0' encoding='UTF-8'?>
<osm version="0.6" generator="libosmium/2.20.0">
  <way id="45748795" version="9" timestamp="2010-08-22T09:26:40Z" uid="8619" user="cetest" changeset="5559073">
    <nd ref="582675324"/>
    <nd ref="582675329"/>
    <nd ref="873642156"/>
    <nd ref="582675331"/>
    <nd ref="582675335"/>
    <nd ref="582675349"/>
    <nd ref="582675352"/>
    <nd ref="582675355"/>
    <nd ref="582675362"/>
    <nd ref="582675367"/>
    <nd ref="582675371"/>
    <nd ref="582675377"/>
    <tag k="bicycle" v="no"/>
    <tag k="bridge" v="yes"/>
    <tag k="highway" v="secondary"/>
    <tag k="lanes" v="2"/>
    <tag k="layer" v="1"/>
    <tag k="maxspeed" v="80"/>
    <tag k="name" v="Brug over de Noord"/>
    <tag k="oneway" v="1"/>
    <tag k="ref" v="N915"/>
  </way>
  <way id="45748795" version="10" timestamp="2010-10-07T12:33:31Z" uid="5211" user="emvee" changeset="5977737">
    <nd ref="582675324"/>
    <nd ref="582675329"/>
    <nd ref="873642156"/>
    <nd ref="582675331"/>
    <nd ref="582675335"/>
    <nd ref="582675349"/>
    <nd ref="582675352"/>
    <nd ref="582675355"/>
    <nd ref="582675362"/>
    <nd ref="582675367"/>
    <nd ref="582675371"/>
    <nd ref="582675377"/>
    <tag k="bicycle" v="no"/>
    <tag k="bridge" v="yes"/>
    <tag k="foot" v="no"/>
    <tag k="highway" v="secondary"/>
    <tag k="lanes" v="2"/>
    <tag k="layer" v="1"/>
    <tag k="maxspeed" v="80"/>
    <tag k="name" v="Brug over de Noord"/>
    <tag k="oneway" v="yes"/>
    <tag k="ref" v="N915"/>
  </way>
  <way id="45748795" version="11" timestamp="2011-09-16T21:49:59Z" uid="191979" user="It&apos;s so funny" changeset="9320106"/>
  <way id="45748796" version="6" timestamp="2010-09-04T19:24:28Z" uid="8619" user="cetest" changeset="5681811">
    <nd ref="44105932"/>
    <nd ref="44104760"/>
    <nd ref="44104088"/>
    <nd ref="282444289"/>
    <nd ref="282444290"/>
    <nd ref="282444291"/>
    <nd ref="301273800"/>
    <nd ref="282444288"/>
    <tag k="bicycle" v="no"/>
    <tag k="highway" v="secondary"/>
    <tag k="lanes" v="2"/>
    <tag k="layer" v="1"/>
    <tag k="name" v="Brug over de Noord"/>
    <tag k="oneway" v="1"/>
    <tag k="ref" v="N915"/>
  </way>
  <way id="45748796" version="7" timestamp="2010-10-07T12:33:27Z" uid="5211" user="emvee" changeset="5977737">
    <nd ref="44105932"/>
    <nd ref="44104760"/>
    <nd ref="44104088"/>
    <nd ref="282444289"/>
    <nd ref="282444290"/>
    <nd ref="282444291"/>
    <nd ref="301273800"/>
    <nd ref="282444288"/>
    <tag k="bicycle" v="no"/>
    <tag k="foot" v="no"/>
    <tag k="highway" v="secondary"/>
    <tag k="lanes" v="2"/>
    <tag k="layer" v="1"/>
    <tag k="name" v="Brug over de Noord"/>
    <tag k="oneway" v="yes"/>
    <tag k="ref" v="N915"/>
  </way>
  <way id="45748796" version="8" timestamp="2011-09-16T21:49:58Z" uid="191979" user="It&apos;s so funny" changeset="9320106"/>
</osm>
