<?xml version='1.0' encoding='UTF-8'?>
<osm version="0.6" generator="libosmium/2.20.0">
  <way id="45772804" version="3" timestamp="2009-12-16T07:11:17Z" uid="4467" user="Rosscoe" changeset="3384798">
    <nd ref="582902694"/>
    <nd ref="582902697"/>
    <nd ref="582902698"/>
    <nd ref="582902699"/>
    <tag k="bridge" v="yes"/>
    <tag k="foot" v="yes"/>
    <tag k="highway" v="footway"/>
    <tag k="layer" v="0"/>
    <tag k="source" v="nearmap"/>
  </way>
  <way id="45772804" version="4" timestamp="2010-06-30T03:32:54Z" uid="11111" user="lakeyboy" changeset="5110469"/>
  <way id="45772930" version="6" timestamp="2010-08-04T17:36:50Z" uid="9581" user="Lobelt" changeset="5401263">
    <nd ref="602048702"/>
    <nd ref="603363341"/>
    <nd ref="582904830"/>
    <tag k="cables" v="6"/>
    <tag k="frequency" v="50"/>
    <tag k="operator" v="RWE"/>
    <tag k="power" v="line"/>
    <tag k="ref" v="0073"/>
    <tag k="wires" v="single"/>
  </way>
  <way id="45772930" version="7" timestamp="2010-12-06T00:29:11Z" uid="92274" user="adjuva" changeset="6558660">
    <nd ref="602048702"/>
    <nd ref="603363341"/>
    <nd ref="1024134487"/>
    <nd ref="582904830"/>
    <nd ref="1024134627"/>
    <nd ref="1024134514"/>
    <nd ref="1024134709"/>
    <nd ref="1024134610"/>
    <nd ref="1024134492"/>
    <nd ref="1024134680"/>
    <nd ref="1024134603"/>
    <nd ref="1024134580"/>
    <nd ref="1024134676"/>
    <nd ref="1024134517"/>
    <nd ref="1024134692"/>
    <nd ref="1024134599"/>
    <nd ref="1024134493"/>
    <nd ref="1024134681"/>
    <nd ref="1024134570"/>
    <nd ref="1024134717"/>
    <nd ref="1024134652"/>
    <nd ref="1024134582"/>
    <tag k="cables" v="6"/>
    <tag k="frequency" v="50"/>
    <tag k="operator" v="RWE"/>
    <tag k="power" v="line"/>
    <tag k="ref" v="0073"/>
    <tag k="wires" v="single"/>
  </way>
  <way id="45772930" version="8" timestamp="2010-12-08T00:14:35Z" uid="92274" user="adjuva" changeset="6581349">
    <nd ref="602048702"/>
    <nd ref="603363341"/>
    <nd ref="1024134487"/>
    <nd ref="582904830"/>
    <nd ref="1024134627"/>
    <nd ref="1024134514"/>
    <nd ref="1024134709"/>
    <nd ref="1024134610"/>
    <nd ref="1024134492"/>
    <nd ref="1024134680"/>
    <nd ref="1024134603"/>
    <nd ref="1024134580"/>
    <nd ref="1024134676"/>
    <nd ref="1024134517"/>
    <nd ref="1024134692"/>
    <nd ref="1024134599"/>
    <nd ref="1024134493"/>
    <nd ref="1024134681"/>
    <nd ref="1024134570"/>
    <nd ref="1024134717"/>
    <nd ref="1024134652"/>
    <nd ref="1024134582"/>
    <nd ref="1027340057"/>
    <nd ref="1027340539"/>
    <nd ref="1027339923"/>
    <nd ref="1027340288"/>
    <nd ref="1027339800"/>
    <nd ref="1027340404"/>
    <nd ref="1027339463"/>
    <nd ref="1027340895"/>
    <nd ref="1027340694"/>
    <nd ref="1027340815"/>
    <tag k="cables" v="6"/>
    <tag k="frequency" v="50"/>
    <tag k="operator" v="RWE"/>
    <tag k="power" v="line"/>
    <tag k="ref" v="0073"/>
    <tag k="wires" v="single"/>
  </way>
  <way id="45772930" version="9" timestamp="2010-12-29T02:36:16Z" uid="92274" user="adjuva" changeset="6794557">
    <nd ref="602048702"/>
    <nd ref="1070128470"/>
    <nd ref="1070128643"/>
    <nd ref="1070128438"/>
    <nd ref="1070128735"/>
    <nd ref="1070128586"/>
    <nd ref="1070128512"/>
    <nd ref="1070128444"/>
    <nd ref="1070128699"/>
    <nd ref="1070128422"/>
    <nd ref="1070128599"/>
    <nd ref="1070128738"/>
    <nd ref="603363341"/>
    <nd ref="1024134487"/>
    <nd ref="582904830"/>
    <nd ref="1024134627"/>
    <nd ref="1024134514"/>
    <nd ref="1024134709"/>
    <nd ref="1024134610"/>
    <nd ref="1024134492"/>
    <nd ref="1024134680"/>
    <nd ref="1024134603"/>
    <nd ref="1024134580"/>
    <nd ref="1024134676"/>
    <nd ref="1024134517"/>
    <nd ref="1024134692"/>
    <nd ref="1024134599"/>
    <nd ref="1024134493"/>
    <nd ref="1024134681"/>
    <nd ref="1024134570"/>
    <nd ref="1024134717"/>
    <nd ref="1024134652"/>
    <nd ref="1024134582"/>
    <nd ref="1027340057"/>
    <nd ref="1027340539"/>
    <nd ref="1027339923"/>
    <nd ref="1027340288"/>
    <nd ref="1027339800"/>
    <nd ref="1027340404"/>
    <nd ref="1027339463"/>
    <nd ref="1027340895"/>
    <nd ref="1027340694"/>
    <nd ref="1027340815"/>
    <tag k="cables" v="6"/>
    <tag k="frequency" v="50"/>
    <tag k="operator" v="RWE"/>
    <tag k="power" v="line"/>
    <tag k="ref" v="0073"/>
    <tag k="wires" v="single"/>
  </way>
  <way id="45772930" version="10" timestamp="2012-03-13T22:48:19Z" uid="544675" user="Obelixx" changeset="10973073">
    <nd ref="602048702"/>
    <nd ref="1070128470"/>
    <nd ref="1070128643"/>
    <nd ref="1070128438"/>
    <nd ref="1070128735"/>
    <nd ref="1070128586"/>
    <nd ref="1070128512"/>
    <nd ref="1070128444"/>
    <nd ref="1070128699"/>
    <nd ref="1070128422"/>
    <nd ref="1070128599"/>
    <nd ref="1070128738"/>
    <nd ref="603363341"/>
    <nd ref="1024134487"/>
    <nd ref="582904830"/>
    <nd ref="1024134627"/>
    <nd ref="1024134514"/>
    <nd ref="1024134709"/>
    <nd ref="1024134610"/>
    <nd ref="1024134492"/>
    <nd ref="1024134680"/>
    <nd ref="1024134603"/>
    <nd ref="1024134580"/>
    <nd ref="1024134676"/>
    <nd ref="1024134517"/>
    <nd ref="1024134692"/>
    <nd ref="1024134599"/>
    <nd ref="1024134493"/>
    <nd ref="1024134681"/>
    <nd ref="1024134570"/>
    <nd ref="1024134717"/>
    <nd ref="1024134652"/>
    <nd ref="1024134582"/>
    <nd ref="1027340057"/>
    <nd ref="1027340539"/>
    <nd ref="1027339923"/>
    <nd ref="1027340288"/>
    <nd ref="1027339800"/>
    <nd ref="1027340404"/>
    <nd ref="1027339463"/>
    <nd ref="1027340895"/>
    <nd ref="1027340694"/>
    <nd ref="1027340815"/>
    <tag k="cables" v="6"/>
    <tag k="frequency" v="50"/>
    <tag k="operator" v="RWE"/>
    <tag k="power" v="line"/>
    <tag k="ref" v="0073"/>
    <tag k="voltage" v="110000"/>
    <tag k="wires" v="single"/>
  </way>
  <way id="45772930" version="11" timestamp="2012-03-13T22:49:40Z" uid="544675" user="Obelixx" changeset="10973073">
    <nd ref="602048702"/>
    <nd ref="1070128470"/>
    <nd ref="1070128643"/>
    <nd ref="1070128438"/>
    <nd ref="1070128735"/>
    <nd ref="1070128586"/>
    <nd ref="1070128512"/>
    <nd ref="1070128444"/>
    <nd ref="1070128699"/>
    <nd ref="1070128422"/>
    <nd ref="1070128599"/>
    <nd ref="1070128738"/>
    <nd ref="603363341"/>
    <nd ref="1024134487"/>
    <nd ref="582904830"/>
    <nd ref="1024134627"/>
    <nd ref="1024134514"/>
    <nd ref="1024134709"/>
    <nd ref="1024134610"/>
    <nd ref="1024134492"/>
    <nd ref="1024134680"/>
    <nd ref="1024134603"/>
    <nd ref="1024134580"/>
    <nd ref="1024134676"/>
    <nd ref="1024134517"/>
    <nd ref="1024134692"/>
    <nd ref="1024134599"/>
    <nd ref="1024134493"/>
    <nd ref="1024134681"/>
    <nd ref="1024134570"/>
    <nd ref="1024134717"/>
    <nd ref="1024134652"/>
    <nd ref="1024134582"/>
    <nd ref="1027340057"/>
    <nd ref="1027340539"/>
    <nd ref="1027339923"/>
    <nd ref="1027340288"/>
    <nd ref="1027339800"/>
    <nd ref="1027340404"/>
    <nd ref="1027339463"/>
    <nd ref="1027340895"/>
    <nd ref="1027340694"/>
    <nd ref="1027340815"/>
    <tag k="cables" v="6"/>
    <tag k="frequency" v="50"/>
    <tag k="operator" v="RWE"/>
    <tag k="power" v="line"/>
    <tag k="ref" v="0073"/>
    <tag k="voltage" v="11000"/>
    <tag k="wires" v="single"/>
  </way>
  <way id="45772933" version="4" timestamp="2010-08-04T17:39:29Z" uid="9581" user="Lobelt" changeset="5401263">
    <nd ref="582904814"/>
    <nd ref="602048695"/>
    <nd ref="582904815"/>
    <tag k="cables" v="6"/>
    <tag k="frequency" v="50"/>
    <tag k="name" v="110 kV Ittenbach Nord|Süd"/>
    <tag k="operator" v="RWE"/>
    <tag k="power" v="line"/>
    <tag k="ref" v="0803"/>
    <tag k="source" v="survey"/>
    <tag k="voltage" v="110000"/>
    <tag k="wires" v="single"/>
  </way>
  <way id="45772933" version="5" timestamp="2010-12-02T01:00:34Z" uid="92274" user="adjuva" changeset="6510522">
    <nd ref="1015287616"/>
    <nd ref="1015287570"/>
    <nd ref="582904814"/>
    <nd ref="1015287662"/>
    <nd ref="1015287514"/>
    <nd ref="602048695"/>
    <nd ref="582904815"/>
    <tag k="cables" v="6"/>
    <tag k="frequency" v="50"/>
    <tag k="name" v="110 kV Ittenbach Nord|Süd"/>
    <tag k="operator" v="RWE"/>
    <tag k="power" v="line"/>
    <tag k="ref" v="0803"/>
    <tag k="source" v="survey;bing"/>
    <tag k="voltage" v="110000"/>
    <tag k="wires" v="single"/>
  </way>
</osm>
