<?xml version='1.0' encoding='UTF-8'?>
<osm version="0.6" generator="libosmium/2.20.0">
  <way id="4577076" version="6" timestamp="2010-06-14T14:15:32Z" uid="4467" user="Rosscoe" changeset="4988330">
    <nd ref="772645461"/>
    <nd ref="32076292"/>
    <nd ref="605208508"/>
    <nd ref="277046493"/>
    <nd ref="585123631"/>
    <nd ref="585123632"/>
    <nd ref="902661"/>
    <tag k="highway" v="unclassified"/>
    <tag k="oneway" v="yes"/>
  </way>
  <way id="4577077" version="8" timestamp="2010-07-18T04:00:26Z" uid="4467" user="Rosscoe" changeset="5247721">
    <nd ref="579270"/>
    <nd ref="616063782"/>
    <nd ref="563629432"/>
    <nd ref="579268"/>
    <nd ref="563629411"/>
    <nd ref="563629412"/>
    <nd ref="153974978"/>
    <nd ref="563629410"/>
    <tag k="highway" v="unclassified"/>
    <tag k="lanes" v="2"/>
    <tag k="oneway" v="yes"/>
  </way>
  <way id="4577077" version="9" timestamp="2011-12-02T03:39:46Z" uid="11111" user="melb_guy" changeset="10013948">
    <nd ref="579270"/>
    <nd ref="616063782"/>
    <nd ref="563629432"/>
    <nd ref="579268"/>
    <tag k="highway" v="unclassified"/>
    <tag k="lanes" v="2"/>
    <tag k="oneway" v="yes"/>
  </way>
  <way id="4577079" version="11" timestamp="2010-07-09T02:51:15Z" uid="74617" user="JohnSmith" changeset="5170713">
    <nd ref="902657"/>
    <nd ref="32075339"/>
    <nd ref="243077922"/>
    <nd ref="32075419"/>
    <nd ref="243077683"/>
    <nd ref="243077635"/>
    <nd ref="426817120"/>
    <nd ref="902658"/>
    <nd ref="27415661"/>
    <tag k="highway" v="residential"/>
    <tag k="maxspeed" v="50"/>
    <tag k="maxspeed:source" v="default residential speed limit in Australia"/>
    <tag k="name" v="Duerdin Street"/>
  </way>
  <way id="4577079" version="12" timestamp="2011-05-17T12:54:54Z" uid="6513" user="Glen" changeset="8171441">
    <nd ref="902657"/>
    <nd ref="32075339"/>
    <nd ref="1289001947"/>
    <nd ref="243077922"/>
    <nd ref="1289001949"/>
    <nd ref="32075419"/>
    <nd ref="243077683"/>
    <nd ref="243077635"/>
    <nd ref="426817120"/>
    <nd ref="902658"/>
    <nd ref="27415661"/>
    <tag k="highway" v="residential"/>
    <tag k="maxspeed" v="50"/>
    <tag k="maxspeed:source" v="default residential speed limit in Australia"/>
    <tag k="name" v="Duerdin Street"/>
  </way>
  <way id="4577079" version="13" timestamp="2011-06-15T10:15:26Z" uid="6513" user="Glen" changeset="8445753">
    <nd ref="902657"/>
    <nd ref="32075339"/>
    <nd ref="1289001947"/>
    <nd ref="243077922"/>
    <nd ref="1289001949"/>
    <nd ref="32075419"/>
    <nd ref="243077683"/>
    <nd ref="243077635"/>
    <nd ref="1326237645"/>
    <nd ref="1326237802"/>
    <nd ref="426817120"/>
    <nd ref="902658"/>
    <nd ref="1326237714"/>
    <nd ref="27415661"/>
    <tag k="highway" v="residential"/>
    <tag k="maxspeed" v="50"/>
    <tag k="maxspeed:source" v="default residential speed limit in Australia"/>
    <tag k="name" v="Duerdin Street"/>
  </way>
  <way id="4577079" version="14" timestamp="2011-07-29T09:34:45Z" uid="472067" user="pringle" changeset="8861612">
    <nd ref="902657"/>
    <nd ref="32075339"/>
    <nd ref="1289001947"/>
    <nd ref="243077922"/>
    <nd ref="1289001949"/>
    <nd ref="32075419"/>
    <nd ref="243077683"/>
    <nd ref="243077635"/>
    <nd ref="1377404770"/>
    <nd ref="1326237645"/>
    <nd ref="1326237802"/>
    <nd ref="426817120"/>
    <nd ref="902658"/>
    <nd ref="1326237714"/>
    <nd ref="27415661"/>
    <tag k="highway" v="residential"/>
    <tag k="maxspeed" v="50"/>
    <tag k="maxspeed:source" v="default residential speed limit in Australia"/>
    <tag k="name" v="Duerdin Street"/>
  </way>
  <way id="4577079" version="15" timestamp="2012-01-15T00:01:54Z" uid="147510" user="woodpeck_fixbot" changeset="10393736">
    <nd ref="902657"/>
    <nd ref="32075339"/>
    <nd ref="1289001947"/>
    <nd ref="243077922"/>
    <nd ref="1289001949"/>
    <nd ref="32075419"/>
    <nd ref="243077683"/>
    <nd ref="243077635"/>
    <nd ref="1377404770"/>
    <nd ref="1326237645"/>
    <nd ref="1326237802"/>
    <nd ref="426817120"/>
    <nd ref="902658"/>
    <nd ref="1326237714"/>
    <nd ref="27415661"/>
    <tag k="highway" v="residential"/>
    <tag k="name" v="Duerdin Street"/>
  </way>
  <way id="4577080" version="4" timestamp="2010-07-09T02:46:56Z" uid="74617" user="JohnSmith" changeset="5170713">
    <nd ref="902658"/>
    <nd ref="902660"/>
    <tag k="highway" v="residential"/>
    <tag k="maxspeed" v="50"/>
    <tag k="maxspeed:source" v="default residential speed limit in Australia"/>
    <tag k="name" v="University Place"/>
  </way>
  <way id="4577080" version="5" timestamp="2011-06-15T03:35:57Z" uid="6513" user="Glen" changeset="8443708">
    <nd ref="902658"/>
    <nd ref="1325958909"/>
    <nd ref="902660"/>
    <tag k="highway" v="residential"/>
    <tag k="maxspeed" v="50"/>
    <tag k="maxspeed:source" v="default residential speed limit in Australia"/>
    <tag k="name" v="University Place"/>
  </way>
  <way id="4577080" version="6" timestamp="2012-01-15T00:01:55Z" uid="147510" user="woodpeck_fixbot" changeset="10393736">
    <nd ref="902658"/>
    <nd ref="1325958909"/>
    <nd ref="902660"/>
    <tag k="highway" v="residential"/>
    <tag k="name" v="University Place"/>
  </way>
  <way id="4577084" version="1" timestamp="2007-07-30T19:56:04Z" uid="6975" user="ulfl" changeset="178362">
    <nd ref="28901502"/>
    <nd ref="28901505"/>
    <nd ref="28901497"/>
    <tag k="created_by" v="JOSM"/>
    <tag k="highway" v="residential"/>
    <tag k="name" v="Löwenberger Straße"/>
    <tag k="oneway" v="true"/>
  </way>
  <way id="4577084" version="2" timestamp="2009-04-16T21:09:38Z" uid="103885" user="logicbot" changeset="603450">
    <nd ref="28901502"/>
    <nd ref="28901505"/>
    <nd ref="28901497"/>
    <tag k="created_by" v="JOSM"/>
    <tag k="highway" v="residential"/>
    <tag k="name" v="Löwenberger Straße"/>
    <tag k="oneway" v="yes"/>
  </way>
  <way id="4577084" version="3" timestamp="2009-06-01T06:11:05Z" uid="41113" user="cycling_zno" changeset="1375847">
    <nd ref="277619289"/>
    <nd ref="413874356"/>
    <nd ref="413874355"/>
    <nd ref="28901502"/>
    <tag k="access" v="official"/>
    <tag k="bicycle" v="official"/>
    <tag k="created_by" v="JOSM"/>
    <tag k="foot" v="official"/>
    <tag k="highway" v="footway"/>
    <tag k="name" v="Löwenberger Straße"/>
    <tag k="oneway" v="yes"/>
  </way>
  <way id="4577084" version="4" timestamp="2009-08-20T10:14:46Z" uid="158886" user="MadKoala" changeset="2210416">
    <nd ref="277619289"/>
    <nd ref="413874356"/>
    <nd ref="471388254"/>
    <nd ref="413874355"/>
    <nd ref="471388283"/>
    <nd ref="28901502"/>
    <tag k="access" v="official"/>
    <tag k="bicycle" v="official"/>
    <tag k="foot" v="official"/>
    <tag k="highway" v="footway"/>
    <tag k="name" v="Löwenberger Straße"/>
    <tag k="oneway" v="yes"/>
  </way>
  <way id="4577084" version="5" timestamp="2009-09-01T18:45:05Z" uid="158886" user="MadKoala" changeset="2341380">
    <nd ref="277619289"/>
    <nd ref="413874356"/>
    <nd ref="471388254"/>
    <nd ref="413874355"/>
    <nd ref="471388283"/>
    <nd ref="28901502"/>
    <tag k="access" v="official"/>
    <tag k="bicycle" v="official"/>
    <tag k="foot" v="official"/>
    <tag k="highway" v="footway"/>
    <tag k="name" v="Löwenberger Straße"/>
    <tag k="oneway" v="no"/>
  </way>
  <way id="4577084" version="6" timestamp="2009-09-04T07:29:18Z" uid="158886" user="MadKoala" changeset="2366886">
    <nd ref="277619289"/>
    <nd ref="413874356"/>
    <nd ref="471388254"/>
    <nd ref="413874355"/>
    <nd ref="471388283"/>
    <nd ref="28901502"/>
    <tag k="access" v="official"/>
    <tag k="bicycle" v="official"/>
    <tag k="foot" v="official"/>
    <tag k="highway" v="footway"/>
    <tag k="oneway" v="no"/>
    <tag k="ref" v="Löwenberger Straße"/>
  </way>
  <way id="4577084" version="7" timestamp="2009-11-09T08:15:35Z" uid="118856" user="staehler" changeset="3071260">
    <nd ref="277619289"/>
    <nd ref="413874356"/>
    <nd ref="471388254"/>
    <nd ref="559896014"/>
    <nd ref="559896015"/>
    <nd ref="413874355"/>
    <nd ref="471388283"/>
    <nd ref="28901502"/>
    <tag k="access" v="official"/>
    <tag k="bicycle" v="official"/>
    <tag k="foot" v="official"/>
    <tag k="highway" v="footway"/>
    <tag k="oneway" v="no"/>
    <tag k="ref" v="Löwenberger Straße"/>
  </way>
  <way id="4577084" version="8" timestamp="2010-01-03T21:25:00Z" uid="20415" user="nordbeck" changeset="3532781">
    <nd ref="277619289"/>
    <nd ref="413874356"/>
    <nd ref="471388254"/>
    <nd ref="559896014"/>
    <nd ref="559896015"/>
    <nd ref="413874355"/>
    <nd ref="471388283"/>
    <nd ref="28901502"/>
    <tag k="access" v="official"/>
    <tag k="bicycle" v="designated"/>
    <tag k="foot" v="designated"/>
    <tag k="highway" v="footway"/>
    <tag k="oneway" v="no"/>
    <tag k="ref" v="Löwenberger Straße"/>
  </way>
  <way id="4577084" version="9" timestamp="2011-12-16T21:02:48Z" uid="479256" user="geodreieck4711" changeset="10134194"/>
  <way id="4577104" version="1" timestamp="2007-09-06T20:08:44Z" uid="6454" user="B10xxx" changeset="364362">
    <nd ref="28900933"/>
    <nd ref="28900934"/>
    <nd ref="28900937"/>
    <nd ref="28900938"/>
    <nd ref="43643240"/>
    <nd ref="28900942"/>
    <nd ref="28900943"/>
    <nd ref="28900915"/>
    <tag k="created_by" v="Potlatch alpha"/>
    <tag k="highway" v="secondary"/>
    <tag k="name" v="Soonstraße"/>
  </way>
  <way id="4577104" version="2" timestamp="2008-04-13T11:25:09Z" uid="28378" user="PHerison" changeset="130507">
    <nd ref="28900933"/>
    <nd ref="28900934"/>
    <nd ref="28900937"/>
    <nd ref="28900938"/>
    <nd ref="43643240"/>
    <nd ref="28900942"/>
    <nd ref="28900943"/>
    <nd ref="28900915"/>
    <nd ref="28900921"/>
    <nd ref="28900914"/>
    <tag k="created_by" v="Potlatch 0.8a"/>
    <tag k="highway" v="secondary"/>
    <tag k="name" v="Soonstraße"/>
  </way>
  <way id="4577104" version="3" timestamp="2008-04-13T11:25:38Z" uid="28378" user="PHerison" changeset="130507">
    <nd ref="28900933"/>
    <nd ref="28900934"/>
    <nd ref="28900937"/>
    <nd ref="28900938"/>
    <nd ref="43643240"/>
    <nd ref="28900942"/>
    <nd ref="28900943"/>
    <nd ref="28900915"/>
    <nd ref="28900921"/>
    <nd ref="28900914"/>
    <tag k="created_by" v="Potlatch 0.8a"/>
    <tag k="highway" v="secondary"/>
    <tag k="name" v="Soonstraße"/>
    <tag k="ref" v="K786"/>
  </way>
  <way id="4577104" version="4" timestamp="2008-05-26T23:25:03Z" uid="23785" user="Simon Kokolakis" changeset="529808">
    <nd ref="28900933"/>
    <nd ref="267053398"/>
    <nd ref="28900934"/>
    <nd ref="28900937"/>
    <nd ref="28900938"/>
    <nd ref="43643240"/>
    <nd ref="28900942"/>
    <nd ref="28900943"/>
    <nd ref="28900915"/>
    <nd ref="28900921"/>
    <nd ref="28900914"/>
    <tag k="created_by" v="Potlatch 0.9b"/>
    <tag k="highway" v="secondary"/>
    <tag k="name" v="Soonstraße"/>
    <tag k="ref" v="K786"/>
  </way>
  <way id="4577104" version="5" timestamp="2008-07-22T19:23:17Z" uid="49317" user="Gary68" changeset="572011">
    <nd ref="28900933"/>
    <nd ref="267053398"/>
    <nd ref="28900934"/>
    <nd ref="28900937"/>
    <nd ref="28900938"/>
    <nd ref="43643240"/>
    <nd ref="28900942"/>
    <nd ref="28900943"/>
    <nd ref="28900915"/>
    <nd ref="28900921"/>
    <nd ref="28900914"/>
    <tag k="created_by" v="Potlatch 0.9b"/>
    <tag k="highway" v="secondary"/>
    <tag k="ref" v="K786"/>
  </way>
  <way id="4577104" version="6" timestamp="2008-07-23T10:07:38Z" uid="49317" user="Gary68" changeset="578987">
    <nd ref="28900933"/>
    <nd ref="267053398"/>
    <nd ref="28900934"/>
    <nd ref="28900937"/>
    <nd ref="28900938"/>
    <nd ref="43643240"/>
    <nd ref="28900942"/>
    <nd ref="28900943"/>
    <nd ref="28900915"/>
    <nd ref="28900921"/>
    <nd ref="28900914"/>
    <tag k="created_by" v="Potlatch 0.10"/>
    <tag k="highway" v="secondary"/>
    <tag k="name" v="Soonwaldstraße"/>
    <tag k="ref" v="K786"/>
  </way>
  <way id="4577104" version="7" timestamp="2008-08-08T15:46:42Z" uid="24920" user="Schusch" changeset="141606">
    <nd ref="28900933"/>
    <nd ref="267053398"/>
    <nd ref="28900934"/>
    <nd ref="28900937"/>
    <nd ref="28900938"/>
    <nd ref="43643240"/>
    <nd ref="28900942"/>
    <nd ref="28900943"/>
    <nd ref="28900915"/>
    <nd ref="28900921"/>
    <nd ref="28900914"/>
    <tag k="created_by" v="Potlatch 0.10"/>
    <tag k="highway" v="secondary"/>
    <tag k="name" v="Soonwaldstraße"/>
    <tag k="ref" v="K 786"/>
  </way>
  <way id="4577104" version="8" timestamp="2009-09-06T13:42:13Z" uid="109925" user="WanMil" changeset="2391198">
    <nd ref="28900933"/>
    <nd ref="267053398"/>
    <nd ref="28900934"/>
    <nd ref="28900937"/>
    <nd ref="28900938"/>
    <nd ref="43643240"/>
    <nd ref="28900942"/>
    <nd ref="28900943"/>
    <nd ref="28900915"/>
    <nd ref="28900921"/>
    <nd ref="28900914"/>
    <tag k="highway" v="secondary"/>
    <tag k="name" v="Soonwaldstraße"/>
    <tag k="ref" v="K 786"/>
  </way>
  <way id="4577104" version="9" timestamp="2010-01-07T20:53:20Z" uid="139202" user="mihof" changeset="3565503">
    <nd ref="28900933"/>
    <nd ref="267053398"/>
    <nd ref="28900934"/>
    <nd ref="471508030"/>
    <nd ref="28900937"/>
    <nd ref="28900938"/>
    <nd ref="43643240"/>
    <nd ref="471506629"/>
    <nd ref="28900942"/>
    <nd ref="28900943"/>
    <nd ref="28900915"/>
    <nd ref="28900921"/>
    <nd ref="28900914"/>
    <tag k="highway" v="secondary"/>
    <tag k="name" v="Soonwaldstraße"/>
    <tag k="ref" v="K 786"/>
  </way>
  <way id="4577104" version="10" timestamp="2010-02-25T01:04:12Z" uid="94353" user="Fips" changeset="3968337">
    <nd ref="28900933"/>
    <nd ref="267053398"/>
    <nd ref="28900934"/>
    <nd ref="471508030"/>
    <nd ref="28900937"/>
    <nd ref="28900938"/>
    <nd ref="43643240"/>
    <nd ref="471506629"/>
    <nd ref="28900942"/>
    <nd ref="28900943"/>
    <tag k="highway" v="secondary"/>
    <tag k="name" v="Soonwaldstraße"/>
    <tag k="ref" v="K 786"/>
  </way>
  <way id="4577208" version="3" timestamp="2008-07-05T17:13:16Z" uid="6975" user="ulfl" changeset="398437">
    <nd ref="28901908"/>
    <nd ref="28901909"/>
    <nd ref="28901910"/>
    <tag k="highway" v="track"/>
    <tag k="route" v="walking"/>
    <tag k="route:name" v="Schenkenshul"/>
  </way>
  <way id="4577346" version="1" timestamp="2007-06-04T13:22:10Z" uid="7617" user="Franc" changeset="80895">
    <nd ref="26410195"/>
    <nd ref="29782206"/>
    <nd ref="29943828"/>
    <nd ref="26410186"/>
    <tag k="abutters" v="residential"/>
    <tag k="created_by" v="Potlatch alpha"/>
    <tag k="highway" v="unclassified"/>
    <tag k="name" v="Alice Street"/>
  </way>
  <way id="4577346" version="2" timestamp="2009-11-14T12:04:46Z" uid="117890" user="Jonathan Trott" changeset="3112508">
    <nd ref="26410195"/>
    <nd ref="29782206"/>
    <nd ref="29943828"/>
    <nd ref="26410186"/>
    <tag k="abutters" v="residential"/>
    <tag k="highway" v="unclassified"/>
    <tag k="name" v="Alice Street"/>
  </way>
  <way id="4577346" version="3" timestamp="2009-12-02T22:58:13Z" uid="30201" user="rrankin" changeset="3276441">
    <nd ref="26410195"/>
    <nd ref="29782206"/>
    <nd ref="29943828"/>
    <nd ref="26410186"/>
    <tag k="highway" v="unclassified"/>
    <tag k="name" v="Alice Street"/>
  </way>
  <way id="4577347" version="1" timestamp="2007-09-20T02:37:58Z" uid="7617" user="Franc" changeset="473553">
    <nd ref="26361943"/>
    <nd ref="54928474"/>
    <nd ref="54656572"/>
    <nd ref="54656529"/>
    <nd ref="26361954"/>
    <nd ref="33681897"/>
    <nd ref="28802134"/>
    <nd ref="33681464"/>
    <nd ref="12603355"/>
    <tag k="created_by" v="Potlatch alpha"/>
    <tag k="highway" v="secondary"/>
    <tag k="name" v="Llewellyn Street"/>
    <tag k="source:name" v="DOL 1917"/>
    <tag k="source_ref:name" v="http://www.sl.nsw.gov.au/online/maps.cfm"/>
  </way>
  <way id="4577347" version="2" timestamp="2008-04-28T19:54:45Z" uid="20949" user="Ebenezer" changeset="279118">
    <nd ref="26361943"/>
    <nd ref="54928474"/>
    <nd ref="54656572"/>
    <nd ref="54656529"/>
    <nd ref="26361954"/>
    <nd ref="33681897"/>
    <nd ref="28802134"/>
    <nd ref="33681464"/>
    <nd ref="12603355"/>
    <tag k="created_by" v="Potlatch 0.8b"/>
    <tag k="highway" v="secondary"/>
    <tag k="lcn" v="yes"/>
    <tag k="lcn_ref" v="L10"/>
    <tag k="name" v="Llewellyn Street"/>
    <tag k="source:name" v="DOL 1917"/>
    <tag k="source_ref:name" v="http://www.sl.nsw.gov.au/online/maps.cfm"/>
  </way>
  <way id="4577347" version="3" timestamp="2009-03-21T19:37:12Z" uid="20949" user="Ebenezer" changeset="839481">
    <nd ref="26361943"/>
    <nd ref="54928474"/>
    <nd ref="54656572"/>
    <nd ref="54656529"/>
    <nd ref="26361954"/>
    <nd ref="33681897"/>
    <nd ref="28802134"/>
    <tag k="created_by" v="Potlatch 0.10f"/>
    <tag k="highway" v="secondary"/>
    <tag k="lcn" v="yes"/>
    <tag k="lcn_ref" v="L10"/>
    <tag k="name" v="Llewellyn Street"/>
    <tag k="source:name" v="DOL 1917"/>
    <tag k="source_ref:name" v="http://www.sl.nsw.gov.au/online/maps.cfm"/>
  </way>
  <way id="4577347" version="4" timestamp="2009-11-14T12:03:28Z" uid="117890" user="Jonathan Trott" changeset="3112508">
    <nd ref="26361943"/>
    <nd ref="54928474"/>
    <nd ref="54656572"/>
    <nd ref="54656529"/>
    <nd ref="26361954"/>
    <nd ref="33681897"/>
    <nd ref="28802134"/>
    <tag k="highway" v="secondary"/>
    <tag k="lcn" v="yes"/>
    <tag k="lcn_ref" v="L10"/>
    <tag k="name" v="Llewellyn Street"/>
    <tag k="source:name" v="DOL 1917"/>
    <tag k="source_ref:name" v="http://www.sl.nsw.gov.au/online/maps.cfm"/>
  </way>
  <way id="4577347" version="5" timestamp="2009-11-28T01:13:00Z" uid="5753" user="yewenyi" changeset="3233082"/>
  <way id="4577348" version="1" timestamp="2007-07-20T19:44:45Z" uid="6975" user="ulfl" changeset="156458">
    <nd ref="26911169"/>
    <nd ref="26911170"/>
    <nd ref="32454199"/>
    <nd ref="26911148"/>
    <tag k="created_by" v="JOSM"/>
    <tag k="highway" v="primary_link"/>
  </way>
  <way id="4577348" version="2" timestamp="2008-06-21T10:00:14Z" uid="33053" user="Smurf" changeset="240656">
    <nd ref="26911169"/>
    <nd ref="48116221"/>
    <nd ref="26911170"/>
    <nd ref="32454199"/>
    <nd ref="26911148"/>
    <tag k="created_by" v="JOSM"/>
    <tag k="highway" v="primary_link"/>
  </way>
  <way id="4577348" version="3" timestamp="2008-09-26T19:16:11Z" uid="62236" user="Paulchen Panther" changeset="702327">
    <nd ref="26911169"/>
    <nd ref="48116221"/>
    <nd ref="26911170"/>
    <nd ref="32454199"/>
    <nd ref="26911148"/>
    <tag k="created_by" v="Potlatch 0.10c"/>
    <tag k="highway" v="primary_link"/>
  </way>
  <way id="4577348" version="4" timestamp="2008-09-26T19:16:22Z" uid="62236" user="Paulchen Panther" changeset="702327">
    <nd ref="26911169"/>
    <nd ref="48116221"/>
    <nd ref="26911170"/>
    <nd ref="32454199"/>
    <nd ref="26911148"/>
    <tag k="created_by" v="Potlatch 0.10c"/>
    <tag k="highway" v="primary_link"/>
  </way>
  <way id="4577348" version="5" timestamp="2008-09-26T19:17:29Z" uid="62236" user="Paulchen Panther" changeset="702327">
    <nd ref="26911169"/>
    <nd ref="48116221"/>
    <nd ref="26911170"/>
    <nd ref="32454199"/>
    <nd ref="26911148"/>
    <tag k="created_by" v="Potlatch 0.10c"/>
    <tag k="highway" v="primary_link"/>
  </way>
  <way id="4577348" version="6" timestamp="2009-02-08T15:41:13Z" uid="80526" user="frawe" changeset="267611">
    <nd ref="26911169"/>
    <nd ref="48116221"/>
    <nd ref="26911170"/>
    <nd ref="32454199"/>
    <tag k="created_by" v="Potlatch 0.10c"/>
    <tag k="highway" v="primary_link"/>
  </way>
  <way id="4577348" version="7" timestamp="2009-10-25T01:01:07Z" uid="55521" user="Ebbe73" changeset="2942696">
    <nd ref="26911169"/>
    <nd ref="48116221"/>
    <nd ref="26911170"/>
    <nd ref="32454199"/>
    <tag k="highway" v="primary_link"/>
    <tag k="oneway" v="yes"/>
  </way>
  <way id="4577348" version="8" timestamp="2009-11-06T06:21:05Z" uid="62236" user="Paulchen Panther" changeset="3045871">
    <nd ref="26911169"/>
    <nd ref="557738736"/>
    <nd ref="557738711"/>
    <nd ref="48116221"/>
    <nd ref="26911170"/>
    <nd ref="32454199"/>
    <tag k="highway" v="primary_link"/>
    <tag k="oneway" v="yes"/>
  </way>
  <way id="4577348" version="9" timestamp="2009-11-07T07:35:16Z" uid="62236" user="Paulchen Panther" changeset="3053702">
    <nd ref="26911169"/>
    <nd ref="557738736"/>
    <nd ref="557738711"/>
    <nd ref="48116221"/>
    <nd ref="558699215"/>
    <nd ref="26911170"/>
    <nd ref="32454199"/>
    <tag k="highway" v="primary_link"/>
    <tag k="oneway" v="yes"/>
  </way>
  <way id="4577348" version="10" timestamp="2011-03-25T20:20:19Z" uid="346758" user="kukuk" changeset="7669220">
    <nd ref="26911169"/>
    <nd ref="557738736"/>
    <nd ref="557738711"/>
    <nd ref="48116221"/>
    <nd ref="558699215"/>
    <nd ref="26911170"/>
    <nd ref="32454199"/>
    <tag k="bicycle" v="no"/>
    <tag k="highway" v="primary_link"/>
    <tag k="oneway" v="yes"/>
  </way>
  <way id="4577348" version="11" timestamp="2011-11-14T14:43:45Z" uid="346758" user="kukuk" changeset="9825328"/>
  <way id="4577356" version="2" timestamp="2008-07-08T19:32:22Z" uid="6975" user="ulfl" changeset="431192">
    <nd ref="28848225"/>
    <nd ref="28848224"/>
    <nd ref="28848223"/>
    <nd ref="28848222"/>
    <nd ref="28848221"/>
    <nd ref="28848220"/>
    <nd ref="28848219"/>
    <nd ref="28848218"/>
    <nd ref="28848217"/>
    <nd ref="28848216"/>
    <nd ref="28848215"/>
    <nd ref="28848213"/>
    <nd ref="28848214"/>
    <nd ref="28848211"/>
    <nd ref="28848212"/>
    <nd ref="28848209"/>
    <nd ref="28848210"/>
    <nd ref="28846491"/>
    <nd ref="28848208"/>
    <nd ref="28846394"/>
    <nd ref="28846377"/>
    <nd ref="28846378"/>
    <nd ref="28846380"/>
    <nd ref="28846381"/>
    <nd ref="28846382"/>
    <nd ref="28846383"/>
    <nd ref="28846384"/>
    <nd ref="28846385"/>
    <nd ref="28848230"/>
    <nd ref="28848229"/>
    <nd ref="28848228"/>
    <nd ref="28848227"/>
    <nd ref="28848226"/>
    <nd ref="28848225"/>
    <tag k="natural" v="water"/>
    <tag k="note" v="This may be off by 100 meters, please fix if you have more precise data"/>
    <tag k="source" v="landsat"/>
  </way>
  <way id="4577356" version="3" timestamp="2009-08-14T15:39:47Z" uid="63966" user="MysticFire" changeset="2144402">
    <nd ref="28848225"/>
    <nd ref="28848224"/>
    <nd ref="28848223"/>
    <nd ref="28848222"/>
    <nd ref="28848220"/>
    <nd ref="28848219"/>
    <nd ref="28848218"/>
    <nd ref="28848217"/>
    <nd ref="28848216"/>
    <nd ref="28848215"/>
    <nd ref="28848213"/>
    <nd ref="28848214"/>
    <nd ref="28848211"/>
    <nd ref="28848212"/>
    <nd ref="28848209"/>
    <nd ref="28848210"/>
    <nd ref="28846491"/>
    <nd ref="28848208"/>
    <nd ref="28846394"/>
    <nd ref="28846377"/>
    <nd ref="28846378"/>
    <nd ref="28846380"/>
    <nd ref="28846381"/>
    <nd ref="28846382"/>
    <nd ref="28846383"/>
    <nd ref="28846384"/>
    <nd ref="28846385"/>
    <nd ref="28848230"/>
    <nd ref="28848229"/>
    <nd ref="28848228"/>
    <nd ref="28848227"/>
    <nd ref="28848226"/>
    <nd ref="28848225"/>
    <tag k="natural" v="water"/>
    <tag k="note" v="This may be off by 100 meters, please fix if you have more precise data"/>
    <tag k="source" v="landsat"/>
  </way>
  <way id="4577356" version="4" timestamp="2011-06-05T20:44:56Z" uid="11566" user="hwb" changeset="8353622">
    <nd ref="28848225"/>
    <nd ref="28848224"/>
    <nd ref="28848223"/>
    <nd ref="28848222"/>
    <nd ref="28848220"/>
    <nd ref="28848219"/>
    <nd ref="28848218"/>
    <nd ref="28848217"/>
    <nd ref="28848216"/>
    <nd ref="28848215"/>
    <nd ref="28848213"/>
    <nd ref="28848214"/>
    <nd ref="28848211"/>
    <nd ref="28848212"/>
    <nd ref="28848209"/>
    <nd ref="28848210"/>
    <nd ref="28846491"/>
    <nd ref="28848208"/>
    <nd ref="1313488080"/>
    <nd ref="28846394"/>
    <nd ref="28846377"/>
    <nd ref="28846378"/>
    <nd ref="28846380"/>
    <nd ref="28846381"/>
    <nd ref="28846382"/>
    <nd ref="28846383"/>
    <nd ref="28846384"/>
    <nd ref="28846385"/>
    <nd ref="28848230"/>
    <nd ref="28848229"/>
    <nd ref="28848228"/>
    <nd ref="28848227"/>
    <nd ref="28848226"/>
    <nd ref="28848225"/>
    <tag k="natural" v="water"/>
    <tag k="note" v="This may be off by 100 meters, please fix if you have more precise data"/>
    <tag k="source" v="landsat"/>
  </way>
  <way id="4577356" version="5" timestamp="2011-11-24T19:18:25Z" uid="11566" user="hwb" changeset="9936382"/>
  <way id="4577365" version="1" timestamp="2007-05-09T22:01:51Z" uid="6975" user="ulfl" changeset="44354">
    <nd ref="28902133"/>
    <nd ref="28902134"/>
    <nd ref="28902135"/>
    <nd ref="28902136"/>
    <nd ref="28902137"/>
    <nd ref="28902138"/>
    <nd ref="28902139"/>
    <nd ref="28902140"/>
    <nd ref="28902141"/>
    <nd ref="28902142"/>
    <tag k="created_by" v="JOSM"/>
    <tag k="highway" v="residential"/>
    <tag k="name" v="Hermann-Kolb-Straße"/>
  </way>
  <way id="4577365" version="2" timestamp="2008-12-30T00:58:25Z" uid="60957" user="mini-titan" changeset="668167">
    <nd ref="28902133"/>
    <nd ref="28902134"/>
    <nd ref="28902135"/>
    <nd ref="28902136"/>
    <nd ref="28902137"/>
    <nd ref="28902138"/>
    <nd ref="28902139"/>
    <nd ref="28902140"/>
    <nd ref="28902141"/>
    <nd ref="322989107"/>
    <nd ref="28902142"/>
    <tag k="created_by" v="JOSM"/>
    <tag k="highway" v="residential"/>
    <tag k="name" v="Hermann-Kolb-Straße"/>
  </way>
  <way id="4577365" version="3" timestamp="2009-02-08T15:41:14Z" uid="80526" user="frawe" changeset="267611">
    <nd ref="28902133"/>
    <nd ref="28902134"/>
    <nd ref="28902135"/>
    <tag k="created_by" v="JOSM"/>
    <tag k="highway" v="residential"/>
    <tag k="name" v="Hermann-Kolb-Straße"/>
  </way>
  <way id="4577365" version="4" timestamp="2009-08-26T09:46:04Z" uid="158886" user="MadKoala" changeset="2265402">
    <nd ref="28902133"/>
    <nd ref="474399452"/>
    <nd ref="28902134"/>
    <nd ref="474393812"/>
    <nd ref="474394267"/>
    <nd ref="28902135"/>
    <tag k="highway" v="residential"/>
    <tag k="name" v="Hermann-Kolb-Straße"/>
  </way>
  <way id="4577365" version="5" timestamp="2009-09-06T10:59:43Z" uid="158886" user="MadKoala" changeset="2389607">
    <nd ref="28902133"/>
    <nd ref="474399452"/>
    <nd ref="28902134"/>
    <nd ref="474393812"/>
    <nd ref="474394267"/>
    <nd ref="28902135"/>
    <nd ref="28902136"/>
    <nd ref="28902138"/>
    <nd ref="28902139"/>
    <nd ref="28902140"/>
    <nd ref="28902141"/>
    <nd ref="387371841"/>
    <nd ref="474391873"/>
    <nd ref="28902142"/>
    <tag k="footway" v="both"/>
    <tag k="highway" v="residential"/>
    <tag k="name" v="Hermann-Kolb-Straße"/>
  </way>
  <way id="4577365" version="6" timestamp="2009-09-11T15:34:26Z" uid="158886" user="MadKoala" changeset="2447946">
    <nd ref="28902133"/>
    <nd ref="474399452"/>
    <nd ref="28902134"/>
    <nd ref="474393812"/>
    <nd ref="474394267"/>
    <nd ref="28902135"/>
    <nd ref="28902136"/>
    <nd ref="28902138"/>
    <nd ref="28902139"/>
    <nd ref="28902140"/>
    <nd ref="493568123"/>
    <nd ref="28902141"/>
    <nd ref="387371841"/>
    <nd ref="474391873"/>
    <nd ref="28902142"/>
    <tag k="footway" v="both"/>
    <tag k="highway" v="residential"/>
    <tag k="name" v="Hermann-Kolb-Straße"/>
  </way>
  <way id="4577365" version="7" timestamp="2010-03-28T19:32:10Z" uid="134355" user="Mapper John" changeset="4261106">
    <nd ref="28902133"/>
    <nd ref="474399452"/>
    <nd ref="28902134"/>
    <nd ref="474393812"/>
    <nd ref="474394267"/>
    <nd ref="28902135"/>
    <tag k="footway" v="both"/>
    <tag k="highway" v="residential"/>
    <tag k="name" v="Hermann-Kolb-Straße"/>
  </way>
  <way id="4577365" version="8" timestamp="2011-06-01T12:07:46Z" uid="81175" user="robome" changeset="8309727">
    <nd ref="28902133"/>
    <nd ref="1307646508"/>
    <nd ref="474399452"/>
    <nd ref="28902134"/>
    <nd ref="474393812"/>
    <nd ref="474394267"/>
    <nd ref="28902135"/>
    <tag k="footway" v="both"/>
    <tag k="highway" v="residential"/>
    <tag k="name" v="Hermann-Kolb-Straße"/>
  </way>
  <way id="4577365" version="9" timestamp="2011-12-16T12:45:28Z" uid="479256" user="geodreieck4711" changeset="10130782">
    <nd ref="28902133"/>
    <nd ref="1307646508"/>
    <nd ref="474399452"/>
    <nd ref="1548640769"/>
    <tag k="footway" v="both"/>
    <tag k="highway" v="residential"/>
    <tag k="name" v="Hermann-Kolb-Straße"/>
  </way>
  <way id="4577365" version="10" timestamp="2011-12-16T15:13:23Z" uid="479256" user="geodreieck4711" changeset="10131644"/>
  <way id="4577378" version="1" timestamp="2007-05-09T22:03:48Z" uid="6975" user="ulfl" changeset="44354">
    <nd ref="28902136"/>
    <nd ref="28902147"/>
    <tag k="created_by" v="JOSM"/>
    <tag k="highway" v="residential"/>
    <tag k="name" v="Hermann-Kolb-Straße"/>
  </way>
  <way id="4577378" version="2" timestamp="2009-09-06T10:59:46Z" uid="158886" user="MadKoala" changeset="2389607">
    <nd ref="28902136"/>
    <nd ref="28902147"/>
    <tag k="highway" v="living_street"/>
    <tag k="name" v="Hermann-Kolb-Straße"/>
  </way>
  <way id="4577378" version="3" timestamp="2011-12-16T15:13:23Z" uid="479256" user="geodreieck4711" changeset="10131644"/>
  <way id="4577379" version="1" timestamp="2007-05-09T22:03:49Z" uid="6975" user="ulfl" changeset="44354">
    <nd ref="28902137"/>
    <nd ref="28902148"/>
    <tag k="created_by" v="JOSM"/>
    <tag k="highway" v="residential"/>
    <tag k="name" v="Hermann-Kolb-Straße"/>
  </way>
  <way id="4577379" version="2" timestamp="2009-05-11T16:11:31Z" uid="60957" user="mini-titan" changeset="1154254">
    <nd ref="28902138"/>
    <nd ref="28902148"/>
    <tag k="created_by" v="JOSM"/>
    <tag k="highway" v="residential"/>
    <tag k="name" v="Hermann-Kolb-Straße"/>
  </way>
  <way id="4577379" version="3" timestamp="2009-09-06T10:59:46Z" uid="158886" user="MadKoala" changeset="2389607">
    <nd ref="28902138"/>
    <nd ref="28902148"/>
    <tag k="highway" v="living_street"/>
    <tag k="name" v="Hermann-Kolb-Straße"/>
  </way>
  <way id="4577379" version="4" timestamp="2011-12-16T21:50:57Z" uid="479256" user="geodreieck4711" changeset="10134577"/>
  <way id="4577380" version="1" timestamp="2007-05-09T22:03:50Z" uid="6975" user="ulfl" changeset="44354">
    <nd ref="28902139"/>
    <nd ref="28902149"/>
    <tag k="created_by" v="JOSM"/>
    <tag k="highway" v="residential"/>
    <tag k="name" v="Hermann-Kolb-Straße"/>
  </way>
  <way id="4577380" version="2" timestamp="2009-02-08T15:41:09Z" uid="80526" user="frawe" changeset="267611">
    <nd ref="28902139"/>
    <nd ref="343429833"/>
    <nd ref="28902149"/>
    <tag k="created_by" v="JOSM"/>
    <tag k="highway" v="residential"/>
    <tag k="name" v="Hermann-Kolb-Straße"/>
  </way>
  <way id="4577380" version="3" timestamp="2009-09-06T10:59:47Z" uid="158886" user="MadKoala" changeset="2389607">
    <nd ref="28902139"/>
    <nd ref="343429833"/>
    <nd ref="28902149"/>
    <tag k="highway" v="living_street"/>
    <tag k="name" v="Hermann-Kolb-Straße"/>
  </way>
  <way id="4577380" version="4" timestamp="2011-12-16T21:50:57Z" uid="479256" user="geodreieck4711" changeset="10134577"/>
  <way id="4577381" version="1" timestamp="2007-05-09T22:03:50Z" uid="6975" user="ulfl" changeset="44354">
    <nd ref="28902144"/>
    <nd ref="28902147"/>
    <nd ref="28902148"/>
    <nd ref="28902149"/>
    <tag k="created_by" v="JOSM"/>
    <tag k="highway" v="residential"/>
    <tag k="name" v="Hermann-Kolb-Straße"/>
  </way>
  <way id="4577381" version="2" timestamp="2009-09-06T10:59:45Z" uid="158886" user="MadKoala" changeset="2389607">
    <nd ref="28902144"/>
    <nd ref="28902147"/>
    <nd ref="28902148"/>
    <nd ref="28902149"/>
    <tag k="highway" v="living_street"/>
    <tag k="name" v="Hermann-Kolb-Straße"/>
  </way>
  <way id="4577381" version="3" timestamp="2009-09-06T11:04:53Z" uid="158886" user="MadKoala" changeset="2389664">
    <nd ref="28902144"/>
    <nd ref="28902147"/>
    <nd ref="28902148"/>
    <nd ref="28902149"/>
    <tag k="highway" v="living_street"/>
    <tag k="name" v="Hermann-Kolb-Straße"/>
  </way>
  <way id="4577381" version="4" timestamp="2011-12-16T15:13:18Z" uid="479256" user="geodreieck4711" changeset="10131644">
    <nd ref="1548799995"/>
    <nd ref="1548799994"/>
    <nd ref="28902148"/>
    <nd ref="28902149"/>
    <tag k="highway" v="living_street"/>
    <tag k="name" v="Hermann-Kolb-Straße"/>
  </way>
  <way id="4577381" version="5" timestamp="2011-12-16T21:50:57Z" uid="479256" user="geodreieck4711" changeset="10134577"/>
  <way id="4577396" version="1" timestamp="2007-05-09T22:11:17Z" uid="6975" user="ulfl" changeset="44354">
    <nd ref="28902119"/>
    <nd ref="28902120"/>
    <nd ref="28902122"/>
    <nd ref="28902123"/>
    <nd ref="28902124"/>
    <nd ref="28902125"/>
    <nd ref="28902126"/>
    <nd ref="28902127"/>
    <nd ref="28902128"/>
    <nd ref="28902129"/>
    <nd ref="28902130"/>
    <nd ref="28902131"/>
    <nd ref="28902132"/>
    <nd ref="28902133"/>
    <tag k="created_by" v="JOSM"/>
    <tag k="highway" v="residential"/>
    <tag k="name" v="Karl-Hertel-Straße"/>
  </way>
  <way id="4577396" version="2" timestamp="2008-06-05T09:34:24Z" uid="41113" user="cycling_zno" changeset="54403">
    <nd ref="28902119"/>
    <nd ref="28902120"/>
    <nd ref="28902122"/>
    <nd ref="28902123"/>
    <nd ref="28902124"/>
    <nd ref="28902125"/>
    <nd ref="28902126"/>
    <nd ref="28902127"/>
    <nd ref="28902128"/>
    <nd ref="28902129"/>
    <nd ref="28902130"/>
    <nd ref="28902131"/>
    <nd ref="28902132"/>
    <nd ref="268568409"/>
    <nd ref="28902133"/>
    <tag k="created_by" v="Potlatch 0.9c"/>
    <tag k="highway" v="residential"/>
    <tag k="name" v="Karl-Hertel-Straße"/>
  </way>
  <way id="4577396" version="3" timestamp="2009-04-21T21:04:41Z" uid="60957" user="mini-titan" changeset="888855">
    <nd ref="28902119"/>
    <nd ref="379781389"/>
    <nd ref="28902120"/>
    <nd ref="28902122"/>
    <nd ref="28902123"/>
    <nd ref="28902124"/>
    <nd ref="28902125"/>
    <nd ref="28902126"/>
    <nd ref="28902127"/>
    <nd ref="28902128"/>
    <nd ref="28902129"/>
    <nd ref="28902130"/>
    <nd ref="28902131"/>
    <nd ref="28902132"/>
    <nd ref="268568409"/>
    <nd ref="28902133"/>
    <tag k="created_by" v="Potlatch 0.9c"/>
    <tag k="highway" v="residential"/>
    <tag k="name" v="Karl-Hertel-Straße"/>
  </way>
  <way id="4577396" version="4" timestamp="2009-08-24T14:17:30Z" uid="158886" user="MadKoala" changeset="2244878">
    <nd ref="28902119"/>
    <nd ref="379781389"/>
    <nd ref="28902120"/>
    <nd ref="28902122"/>
    <nd ref="28902123"/>
    <nd ref="28902124"/>
    <nd ref="28902125"/>
    <nd ref="28902126"/>
    <nd ref="28902127"/>
    <nd ref="28902128"/>
    <nd ref="28902129"/>
    <nd ref="28902130"/>
    <nd ref="28902131"/>
    <nd ref="28902132"/>
    <nd ref="268568409"/>
    <nd ref="28902133"/>
    <tag k="highway" v="residential"/>
    <tag k="name" v="Karl-Hertel-Straße"/>
    <tag k="old_name" v="Am Bahndamm"/>
  </way>
  <way id="4577396" version="5" timestamp="2009-08-26T09:46:27Z" uid="158886" user="MadKoala" changeset="2265402">
    <nd ref="28902119"/>
    <nd ref="379781389"/>
    <nd ref="28902120"/>
    <nd ref="28902122"/>
    <nd ref="28902123"/>
    <nd ref="28902124"/>
    <nd ref="28902125"/>
    <nd ref="28902126"/>
    <nd ref="28902127"/>
    <nd ref="28902128"/>
    <nd ref="28902129"/>
    <nd ref="474399809"/>
    <nd ref="28902130"/>
    <nd ref="474399954"/>
    <nd ref="28902131"/>
    <nd ref="474399747"/>
    <nd ref="28902132"/>
    <nd ref="268568409"/>
    <nd ref="28902133"/>
    <tag k="highway" v="residential"/>
    <tag k="name" v="Karl-Hertel-Straße"/>
    <tag k="old_name" v="Am Bahndamm"/>
  </way>
  <way id="4577396" version="6" timestamp="2009-08-28T18:08:56Z" uid="158886" user="MadKoala" changeset="2293288">
    <nd ref="28902119"/>
    <nd ref="379781389"/>
    <nd ref="28902120"/>
    <nd ref="475949488"/>
    <nd ref="28902122"/>
    <nd ref="28902123"/>
    <nd ref="28902124"/>
    <nd ref="28902125"/>
    <nd ref="28902126"/>
    <nd ref="475949266"/>
    <nd ref="475949289"/>
    <nd ref="28902127"/>
    <nd ref="475949117"/>
    <nd ref="28902128"/>
    <nd ref="28902129"/>
    <nd ref="474399809"/>
    <nd ref="28902130"/>
    <nd ref="474399954"/>
    <nd ref="28902131"/>
    <nd ref="474399747"/>
    <nd ref="28902132"/>
    <nd ref="268568409"/>
    <nd ref="28902133"/>
    <tag k="highway" v="residential"/>
    <tag k="name" v="Karl-Hertel-Straße"/>
    <tag k="old_name" v="Am Bahndamm"/>
  </way>
  <way id="4577396" version="7" timestamp="2009-09-06T09:38:08Z" uid="158886" user="MadKoala" changeset="2388944">
    <nd ref="28902119"/>
    <nd ref="379781389"/>
    <nd ref="28902120"/>
    <nd ref="475949488"/>
    <nd ref="28902122"/>
    <nd ref="28902123"/>
    <nd ref="28902124"/>
    <nd ref="28902125"/>
    <nd ref="28902126"/>
    <nd ref="475949266"/>
    <nd ref="475949289"/>
    <nd ref="28902127"/>
    <nd ref="475949117"/>
    <nd ref="28902128"/>
    <nd ref="28902129"/>
    <nd ref="474399809"/>
    <nd ref="28902130"/>
    <nd ref="474399954"/>
    <nd ref="28902131"/>
    <nd ref="474399747"/>
    <nd ref="28902132"/>
    <nd ref="268568409"/>
    <nd ref="28902133"/>
    <tag k="footway" v="both"/>
    <tag k="highway" v="residential"/>
    <tag k="name" v="Karl-Hertel-Straße"/>
    <tag k="old_name" v="Am Bahndamm"/>
  </way>
  <way id="4577396" version="8" timestamp="2009-12-22T15:20:25Z" uid="158886" user="MadKoala" changeset="3428021">
    <nd ref="28902119"/>
    <nd ref="379781389"/>
    <nd ref="28902120"/>
    <nd ref="475949488"/>
    <nd ref="28902122"/>
    <nd ref="28902123"/>
    <nd ref="28902124"/>
    <nd ref="28902125"/>
    <nd ref="28902126"/>
    <nd ref="475949266"/>
    <nd ref="475949289"/>
    <nd ref="28902127"/>
    <nd ref="475949117"/>
    <nd ref="28902128"/>
    <nd ref="28902129"/>
    <nd ref="474399809"/>
    <nd ref="28902130"/>
    <nd ref="474399954"/>
    <nd ref="28902131"/>
    <nd ref="474399747"/>
    <nd ref="28902132"/>
    <nd ref="268568409"/>
    <nd ref="28902133"/>
    <tag k="footway" v="both"/>
    <tag k="highway" v="residential"/>
    <tag k="maxspeed" v="30"/>
    <tag k="name" v="Karl-Hertel-Straße"/>
    <tag k="old_name" v="Am Bahndamm"/>
  </way>
  <way id="4577396" version="9" timestamp="2011-12-16T12:30:27Z" uid="479256" user="geodreieck4711" changeset="10130690">
    <nd ref="28902119"/>
    <nd ref="379781389"/>
    <nd ref="28902120"/>
    <nd ref="475949488"/>
    <nd ref="28902122"/>
    <nd ref="28902123"/>
    <nd ref="1548622817"/>
    <nd ref="28902124"/>
    <nd ref="28902125"/>
    <nd ref="28902126"/>
    <nd ref="475949266"/>
    <nd ref="475949289"/>
    <nd ref="28902127"/>
    <nd ref="475949117"/>
    <nd ref="28902128"/>
    <nd ref="28902129"/>
    <nd ref="474399809"/>
    <nd ref="28902130"/>
    <nd ref="474399954"/>
    <nd ref="28902131"/>
    <nd ref="474399747"/>
    <nd ref="28902132"/>
    <nd ref="268568409"/>
    <nd ref="28902133"/>
    <tag k="footway" v="both"/>
    <tag k="highway" v="residential"/>
    <tag k="maxspeed" v="30"/>
    <tag k="name" v="Karl-Hertel-Straße"/>
    <tag k="old_name" v="Am Bahndamm"/>
  </way>
  <way id="4577396" version="10" timestamp="2011-12-16T14:50:25Z" uid="479256" user="geodreieck4711" changeset="10131491"/>
  <way id="4577406" version="1" timestamp="2007-05-09T22:14:19Z" uid="6975" user="ulfl" changeset="44354">
    <nd ref="28902489"/>
    <nd ref="28902501"/>
    <nd ref="28902472"/>
    <nd ref="28902530"/>
    <nd ref="28902455"/>
    <nd ref="28902439"/>
    <nd ref="28902129"/>
    <tag k="created_by" v="JOSM"/>
    <tag k="highway" v="residential"/>
    <tag k="name" v="Welfenstraße"/>
  </way>
  <way id="4577406" version="2" timestamp="2009-02-08T15:41:12Z" uid="80526" user="frawe" changeset="267611">
    <nd ref="28902489"/>
    <nd ref="28902501"/>
    <nd ref="28902472"/>
    <nd ref="343430032"/>
    <nd ref="28902530"/>
    <nd ref="28902455"/>
    <nd ref="28902439"/>
    <nd ref="28902129"/>
    <tag k="created_by" v="JOSM"/>
    <tag k="highway" v="residential"/>
    <tag k="name" v="Welfenstraße"/>
  </way>
  <way id="4577406" version="3" timestamp="2009-08-24T14:17:22Z" uid="158886" user="MadKoala" changeset="2244878">
    <nd ref="28902489"/>
    <nd ref="28902501"/>
    <nd ref="28902472"/>
    <nd ref="343430032"/>
    <nd ref="28902530"/>
    <nd ref="28902455"/>
    <nd ref="28902439"/>
    <nd ref="28902129"/>
    <tag k="highway" v="residential"/>
    <tag k="name" v="Welfenstraße"/>
    <tag k="old_name" v="Mittelweg"/>
  </way>
  <way id="4577406" version="4" timestamp="2009-08-25T13:32:10Z" uid="158886" user="MadKoala" changeset="2256415">
    <nd ref="28902489"/>
    <nd ref="28902501"/>
    <nd ref="28902472"/>
    <nd ref="343430032"/>
    <nd ref="473553544"/>
    <nd ref="473553540"/>
    <nd ref="28902530"/>
    <nd ref="28902455"/>
    <nd ref="473552198"/>
    <nd ref="473552202"/>
    <nd ref="28902439"/>
    <nd ref="28902129"/>
    <tag k="highway" v="residential"/>
    <tag k="name" v="Welfenstraße"/>
    <tag k="old_name" v="Mittelweg"/>
  </way>
  <way id="4577406" version="5" timestamp="2009-12-22T15:20:27Z" uid="158886" user="MadKoala" changeset="3428021">
    <nd ref="28902489"/>
    <nd ref="28902501"/>
    <nd ref="28902472"/>
    <nd ref="343430032"/>
    <nd ref="473553544"/>
    <nd ref="473553540"/>
    <nd ref="28902530"/>
    <nd ref="28902455"/>
    <nd ref="473552198"/>
    <nd ref="473552202"/>
    <nd ref="28902439"/>
    <nd ref="28902129"/>
    <tag k="highway" v="residential"/>
    <tag k="maxspeed" v="30"/>
    <tag k="name" v="Welfenstraße"/>
    <tag k="old_name" v="Mittelweg"/>
  </way>
  <way id="4577406" version="6" timestamp="2011-12-16T14:57:21Z" uid="479256" user="geodreieck4711" changeset="10131550"/>
  <way id="4577407" version="1" timestamp="2007-05-09T22:14:20Z" uid="6975" user="ulfl" changeset="44354">
    <nd ref="28902128"/>
    <nd ref="28902443"/>
    <nd ref="28902458"/>
    <nd ref="28902531"/>
    <nd ref="28902477"/>
    <nd ref="28902547"/>
    <nd ref="28902493"/>
    <nd ref="28902555"/>
    <tag k="created_by" v="JOSM"/>
    <tag k="highway" v="residential"/>
    <tag k="name" v="Von-Soden-Straße"/>
  </way>
  <way id="4577407" version="2" timestamp="2009-02-08T15:41:11Z" uid="80526" user="frawe" changeset="267611">
    <nd ref="28902128"/>
    <nd ref="28902443"/>
    <nd ref="343430037"/>
    <tag k="created_by" v="JOSM"/>
    <tag k="highway" v="residential"/>
    <tag k="name" v="Von-Soden-Straße"/>
  </way>
  <way id="4577407" version="3" timestamp="2009-08-24T14:17:28Z" uid="158886" user="MadKoala" changeset="2244878">
    <nd ref="28902128"/>
    <nd ref="28902443"/>
    <nd ref="343430037"/>
    <tag k="highway" v="residential"/>
    <tag k="name" v="Von-Soden-Straße"/>
    <tag k="old_name" v="Feuerwehrstraße"/>
  </way>
  <way id="4577407" version="4" timestamp="2009-08-25T13:31:45Z" uid="158886" user="MadKoala" changeset="2256415">
    <nd ref="28902128"/>
    <nd ref="28902443"/>
    <nd ref="473552866"/>
    <nd ref="473552894"/>
    <nd ref="473552868"/>
    <nd ref="473552878"/>
    <nd ref="343430037"/>
    <tag k="highway" v="residential"/>
    <tag k="name" v="Von-Soden-Straße"/>
    <tag k="old_name" v="Feuerwehrstraße"/>
  </way>
  <way id="4577407" version="5" timestamp="2009-09-06T09:37:59Z" uid="158886" user="MadKoala" changeset="2388944">
    <nd ref="28902128"/>
    <nd ref="28902443"/>
    <nd ref="473552866"/>
    <nd ref="473552894"/>
    <nd ref="473552868"/>
    <nd ref="473552878"/>
    <nd ref="343430037"/>
    <tag k="footway" v="both"/>
    <tag k="highway" v="residential"/>
    <tag k="name" v="Von-Soden-Straße"/>
    <tag k="old_name" v="Feuerwehrstraße"/>
  </way>
  <way id="4577407" version="6" timestamp="2009-12-22T15:20:27Z" uid="158886" user="MadKoala" changeset="3428021">
    <nd ref="28902128"/>
    <nd ref="28902443"/>
    <nd ref="473552866"/>
    <nd ref="473552894"/>
    <nd ref="473552868"/>
    <nd ref="473552878"/>
    <nd ref="343430037"/>
    <tag k="footway" v="both"/>
    <tag k="highway" v="residential"/>
    <tag k="maxspeed" v="30"/>
    <tag k="name" v="Von-Soden-Straße"/>
    <tag k="old_name" v="Feuerwehrstraße"/>
  </way>
  <way id="4577407" version="7" timestamp="2011-12-16T21:50:58Z" uid="479256" user="geodreieck4711" changeset="10134577"/>
  <way id="4577408" version="1" timestamp="2007-05-09T22:14:20Z" uid="6975" user="ulfl" changeset="44354">
    <nd ref="28902122"/>
    <nd ref="28902545"/>
    <nd ref="28902546"/>
    <tag k="created_by" v="JOSM"/>
    <tag k="highway" v="residential"/>
    <tag k="name" v="Preysingstraße"/>
  </way>
  <way id="4577408" version="2" timestamp="2009-08-28T18:01:45Z" uid="158886" user="MadKoala" changeset="2293288">
    <nd ref="28902122"/>
    <nd ref="475944126"/>
    <nd ref="28902545"/>
    <nd ref="28902546"/>
    <tag k="highway" v="residential"/>
    <tag k="name" v="Preysingstraße"/>
  </way>
  <way id="4577408" version="3" timestamp="2011-12-16T22:31:04Z" uid="479256" user="geodreieck4711" changeset="10134815"/>
  <way id="4577412" version="1" timestamp="2007-05-09T22:17:09Z" uid="6975" user="ulfl" changeset="44354">
    <nd ref="28902146"/>
    <nd ref="28902145"/>
    <nd ref="28902144"/>
    <nd ref="28902143"/>
    <nd ref="28902135"/>
    <nd ref="28902455"/>
    <nd ref="28902458"/>
    <nd ref="28902463"/>
    <nd ref="28902465"/>
    <nd ref="28902468"/>
    <nd ref="28902470"/>
    <nd ref="28898801"/>
    <tag k="created_by" v="JOSM"/>
    <tag k="highway" v="residential"/>
    <tag k="name" v="Altenfurter Straße"/>
  </way>
  <way id="4577412" version="2" timestamp="2009-02-08T15:41:18Z" uid="80526" user="frawe" changeset="267611">
    <nd ref="28898801"/>
    <nd ref="28902470"/>
    <nd ref="28902468"/>
    <nd ref="28902465"/>
    <nd ref="28902463"/>
    <nd ref="28902458"/>
    <tag k="created_by" v="JOSM"/>
    <tag k="highway" v="residential"/>
    <tag k="name" v="Altenfurter Straße"/>
  </way>
  <way id="4577412" version="3" timestamp="2009-04-25T09:31:54Z" uid="60957" user="mini-titan" changeset="943409">
    <nd ref="28898801"/>
    <nd ref="384501829"/>
    <nd ref="28902470"/>
    <nd ref="28902468"/>
    <nd ref="28902465"/>
    <nd ref="28902463"/>
    <nd ref="28902458"/>
    <tag k="created_by" v="JOSM"/>
    <tag k="highway" v="residential"/>
    <tag k="name" v="Altenfurter Straße"/>
  </way>
  <way id="4577412" version="4" timestamp="2009-08-24T14:08:46Z" uid="158886" user="MadKoala" changeset="2244799">
    <nd ref="28898801"/>
    <nd ref="384501829"/>
    <nd ref="28902470"/>
    <nd ref="28902468"/>
    <nd ref="28902465"/>
    <nd ref="28902463"/>
    <nd ref="28902458"/>
    <tag k="highway" v="residential"/>
    <tag k="name" v="Altenfurter Straße"/>
    <tag k="old_name" v="Siedlerstrasse"/>
  </way>
  <way id="4577412" version="5" timestamp="2009-08-25T15:03:31Z" uid="161965" user="gringo" changeset="2257406">
    <nd ref="28898801"/>
    <nd ref="384501829"/>
    <nd ref="28902470"/>
    <nd ref="28902468"/>
    <nd ref="28902465"/>
    <nd ref="473627028"/>
    <nd ref="28902463"/>
    <nd ref="28902458"/>
    <tag k="highway" v="residential"/>
    <tag k="name" v="Altenfurter Straße"/>
    <tag k="old_name" v="Siedlerstrasse"/>
  </way>
  <way id="4577412" version="6" timestamp="2009-08-28T18:08:36Z" uid="158886" user="MadKoala" changeset="2293288">
    <nd ref="28898801"/>
    <nd ref="384501829"/>
    <nd ref="475949044"/>
    <nd ref="475949030"/>
    <nd ref="475949048"/>
    <nd ref="475949035"/>
    <nd ref="28902470"/>
    <nd ref="28902468"/>
    <nd ref="475948722"/>
    <nd ref="28902465"/>
    <nd ref="473627028"/>
    <nd ref="475949069"/>
    <nd ref="475949067"/>
    <nd ref="475949065"/>
    <nd ref="28902463"/>
    <nd ref="475949084"/>
    <nd ref="475948064"/>
    <nd ref="475949087"/>
    <nd ref="28902458"/>
    <tag k="highway" v="residential"/>
    <tag k="name" v="Altenfurter Straße"/>
    <tag k="old_name" v="Siedlerstrasse"/>
  </way>
  <way id="4577412" version="7" timestamp="2009-08-29T20:54:18Z" uid="158886" user="MadKoala" changeset="2306667">
    <nd ref="28898801"/>
    <nd ref="384501829"/>
    <nd ref="475949044"/>
    <nd ref="475949030"/>
    <nd ref="475949048"/>
    <nd ref="475949035"/>
    <nd ref="476919890"/>
    <nd ref="28902470"/>
    <nd ref="28902468"/>
    <nd ref="475948722"/>
    <nd ref="28902465"/>
    <nd ref="473627028"/>
    <nd ref="475949069"/>
    <nd ref="475949067"/>
    <nd ref="475949065"/>
    <nd ref="28902463"/>
    <nd ref="475949084"/>
    <nd ref="475948064"/>
    <nd ref="475949087"/>
    <nd ref="28902458"/>
    <tag k="highway" v="residential"/>
    <tag k="name" v="Altenfurter Straße"/>
    <tag k="old_name" v="Siedlerstrasse"/>
  </way>
  <way id="4577412" version="8" timestamp="2009-09-06T09:38:09Z" uid="158886" user="MadKoala" changeset="2388944">
    <nd ref="28898801"/>
    <nd ref="384501829"/>
    <nd ref="475949044"/>
    <nd ref="475949030"/>
    <nd ref="475949048"/>
    <nd ref="475949035"/>
    <nd ref="476919890"/>
    <nd ref="28902470"/>
    <nd ref="28902468"/>
    <nd ref="475948722"/>
    <nd ref="28902465"/>
    <nd ref="473627028"/>
    <nd ref="475949069"/>
    <nd ref="475949067"/>
    <nd ref="475949065"/>
    <nd ref="28902463"/>
    <nd ref="475949084"/>
    <nd ref="475948064"/>
    <nd ref="475949087"/>
    <nd ref="28902458"/>
    <nd ref="343430037"/>
    <nd ref="473387473"/>
    <nd ref="473387630"/>
    <nd ref="471551873"/>
    <nd ref="473387461"/>
    <nd ref="473387453"/>
    <nd ref="28902455"/>
    <nd ref="472694146"/>
    <nd ref="472349944"/>
    <nd ref="472694156"/>
    <nd ref="472694248"/>
    <nd ref="472694251"/>
    <nd ref="472694269"/>
    <nd ref="472694343"/>
    <nd ref="472694420"/>
    <nd ref="472694481"/>
    <nd ref="28902135"/>
    <tag k="footway" v="both"/>
    <tag k="highway" v="residential"/>
    <tag k="name" v="Altenfurter Straße"/>
    <tag k="old_name" v="Siedlerstrasse"/>
  </way>
  <way id="4577412" version="9" timestamp="2009-11-09T08:15:37Z" uid="118856" user="staehler" changeset="3071260">
    <nd ref="28898801"/>
    <nd ref="384501829"/>
    <nd ref="475949044"/>
    <nd ref="475949030"/>
    <nd ref="475949048"/>
    <nd ref="475949035"/>
    <nd ref="476919890"/>
    <nd ref="28902470"/>
    <nd ref="28902468"/>
    <nd ref="475948722"/>
    <nd ref="28902465"/>
    <nd ref="473627028"/>
    <nd ref="475949069"/>
    <nd ref="475949067"/>
    <nd ref="475949065"/>
    <nd ref="28902463"/>
    <nd ref="475949084"/>
    <nd ref="559896018"/>
    <nd ref="475948064"/>
    <nd ref="475949087"/>
    <nd ref="28902458"/>
    <nd ref="343430037"/>
    <nd ref="473387473"/>
    <nd ref="473387630"/>
    <nd ref="471551873"/>
    <nd ref="473387461"/>
    <nd ref="473387453"/>
    <nd ref="559896012"/>
    <nd ref="28902455"/>
    <nd ref="472694146"/>
    <nd ref="472349944"/>
    <nd ref="472694156"/>
    <nd ref="472694248"/>
    <nd ref="472694251"/>
    <nd ref="472694269"/>
    <nd ref="472694343"/>
    <nd ref="472694420"/>
    <nd ref="559896011"/>
    <nd ref="472694481"/>
    <nd ref="28902135"/>
    <tag k="footway" v="both"/>
    <tag k="highway" v="residential"/>
    <tag k="name" v="Altenfurter Straße"/>
    <tag k="old_name" v="Siedlerstrasse"/>
  </way>
  <way id="4577412" version="10" timestamp="2009-12-22T15:20:26Z" uid="158886" user="MadKoala" changeset="3428021">
    <nd ref="28898801"/>
    <nd ref="384501829"/>
    <nd ref="475949044"/>
    <nd ref="475949030"/>
    <nd ref="475949048"/>
    <nd ref="475949035"/>
    <nd ref="476919890"/>
    <nd ref="28902470"/>
    <nd ref="28902468"/>
    <nd ref="475948722"/>
    <nd ref="28902465"/>
    <nd ref="473627028"/>
    <nd ref="475949069"/>
    <nd ref="475949067"/>
    <nd ref="475949065"/>
    <nd ref="28902463"/>
    <nd ref="475949084"/>
    <nd ref="559896018"/>
    <nd ref="475948064"/>
    <nd ref="475949087"/>
    <nd ref="28902458"/>
    <nd ref="343430037"/>
    <nd ref="473387473"/>
    <nd ref="473387630"/>
    <nd ref="471551873"/>
    <nd ref="473387461"/>
    <nd ref="473387453"/>
    <nd ref="559896012"/>
    <nd ref="28902455"/>
    <nd ref="472694146"/>
    <nd ref="472349944"/>
    <nd ref="472694156"/>
    <nd ref="472694248"/>
    <nd ref="472694251"/>
    <nd ref="472694269"/>
    <nd ref="472694343"/>
    <nd ref="472694420"/>
    <nd ref="559896011"/>
    <nd ref="472694481"/>
    <nd ref="28902135"/>
    <tag k="footway" v="both"/>
    <tag k="highway" v="residential"/>
    <tag k="maxspeed" v="30"/>
    <tag k="name" v="Altenfurter Straße"/>
    <tag k="old_name" v="Siedlerstrasse"/>
  </way>
  <way id="4577412" version="11" timestamp="2010-03-28T19:32:11Z" uid="134355" user="Mapper John" changeset="4261106">
    <nd ref="28898801"/>
    <nd ref="384501829"/>
    <nd ref="475949044"/>
    <nd ref="475949030"/>
    <nd ref="475949048"/>
    <nd ref="475949035"/>
    <nd ref="476919890"/>
    <nd ref="28902470"/>
    <nd ref="28902468"/>
    <nd ref="475948722"/>
    <nd ref="28902465"/>
    <nd ref="473627028"/>
    <nd ref="475949069"/>
    <nd ref="475949067"/>
    <nd ref="475949065"/>
    <nd ref="28902463"/>
    <nd ref="475949084"/>
    <nd ref="559896018"/>
    <nd ref="475948064"/>
    <nd ref="475949087"/>
    <nd ref="28902458"/>
    <tag k="footway" v="both"/>
    <tag k="highway" v="residential"/>
    <tag k="maxspeed" v="30"/>
    <tag k="name" v="Altenfurter Straße"/>
    <tag k="old_name" v="Siedlerstrasse"/>
  </way>
  <way id="4577412" version="12" timestamp="2011-12-16T14:50:24Z" uid="479256" user="geodreieck4711" changeset="10131491"/>
  <way id="4577413" version="1" timestamp="2007-05-09T22:17:10Z" uid="6975" user="ulfl" changeset="44354">
    <nd ref="28902468"/>
    <nd ref="28902449"/>
    <nd ref="28902124"/>
    <tag k="created_by" v="JOSM"/>
    <tag k="highway" v="residential"/>
    <tag k="name" v="Am Graben"/>
  </way>
  <way id="4577413" version="2" timestamp="2009-08-28T18:09:03Z" uid="158886" user="MadKoala" changeset="2293288">
    <nd ref="28902468"/>
    <nd ref="475949590"/>
    <nd ref="28902449"/>
    <nd ref="475942889"/>
    <nd ref="475949505"/>
    <nd ref="28902124"/>
    <tag k="highway" v="residential"/>
    <tag k="name" v="Am Graben"/>
  </way>
  <way id="4577413" version="3" timestamp="2011-12-16T14:50:13Z" uid="479256" user="geodreieck4711" changeset="10131491">
    <nd ref="1548774254"/>
    <nd ref="475949590"/>
    <nd ref="28902449"/>
    <nd ref="475942889"/>
    <nd ref="475949505"/>
    <nd ref="28902124"/>
    <tag k="highway" v="residential"/>
    <tag k="name" v="Am Graben"/>
  </way>
  <way id="4577413" version="4" timestamp="2011-12-16T21:50:57Z" uid="479256" user="geodreieck4711" changeset="10134577"/>
  <way id="4577414" version="1" timestamp="2007-05-09T22:17:11Z" uid="6975" user="ulfl" changeset="44354">
    <nd ref="28902470"/>
    <nd ref="28902540"/>
    <nd ref="28902541"/>
    <tag k="created_by" v="JOSM"/>
    <tag k="highway" v="residential"/>
    <tag k="name" v="Am Graben"/>
  </way>
  <way id="4577414" version="2" timestamp="2010-11-04T17:43:23Z" uid="202858" user="kellerma" changeset="6290182">
    <nd ref="28902470"/>
    <nd ref="28902540"/>
    <nd ref="28902541"/>
    <tag k="highway" v="residential"/>
    <tag k="name" v="Am Graben"/>
  </way>
  <way id="4577414" version="3" timestamp="2011-12-16T14:50:24Z" uid="479256" user="geodreieck4711" changeset="10131491"/>
  <way id="4577416" version="1" timestamp="2007-05-09T22:22:28Z" uid="6975" user="ulfl" changeset="44354">
    <nd ref="28902479"/>
    <nd ref="28902533"/>
    <nd ref="28902465"/>
    <tag k="created_by" v="JOSM"/>
    <tag k="highway" v="residential"/>
    <tag k="name" v="Hennebergerstraße"/>
  </way>
  <way id="4577416" version="2" timestamp="2009-08-29T20:56:20Z" uid="158886" user="MadKoala" changeset="2306667">
    <nd ref="28902479"/>
    <nd ref="28902533"/>
    <nd ref="476920998"/>
    <nd ref="28902465"/>
    <tag k="highway" v="residential"/>
    <tag k="name" v="Hennebergerstraße"/>
  </way>
  <way id="4577416" version="3" timestamp="2011-12-16T14:50:25Z" uid="479256" user="geodreieck4711" changeset="10131491"/>
  <way id="4577417" version="1" timestamp="2007-05-09T22:22:29Z" uid="6975" user="ulfl" changeset="44354">
    <nd ref="28902534"/>
    <nd ref="28902463"/>
    <tag k="created_by" v="JOSM"/>
    <tag k="highway" v="residential"/>
    <tag k="name" v="Altenfurter Straße"/>
  </way>
  <way id="4577417" version="2" timestamp="2010-11-04T17:42:13Z" uid="202858" user="kellerma" changeset="6290182">
    <nd ref="28902534"/>
    <nd ref="28902463"/>
    <tag k="highway" v="residential"/>
    <tag k="name" v="Altenfurter Straße"/>
  </way>
  <way id="4577417" version="3" timestamp="2011-12-16T22:31:03Z" uid="479256" user="geodreieck4711" changeset="10134815"/>
  <way id="4577418" version="1" timestamp="2007-05-09T22:22:30Z" uid="6975" user="ulfl" changeset="44354">
    <nd ref="28902141"/>
    <nd ref="28902487"/>
    <nd ref="28902495"/>
    <nd ref="28902489"/>
    <nd ref="28902491"/>
    <nd ref="28902493"/>
    <tag k="created_by" v="JOSM"/>
    <tag k="highway" v="residential"/>
    <tag k="name" v="Hohenzollernstraße"/>
  </way>
  <way id="4577418" version="2" timestamp="2009-08-24T14:17:24Z" uid="158886" user="MadKoala" changeset="2244878">
    <nd ref="28902141"/>
    <nd ref="28902487"/>
    <nd ref="28902495"/>
    <nd ref="28902489"/>
    <nd ref="28902491"/>
    <nd ref="28902493"/>
    <tag k="highway" v="residential"/>
    <tag k="name" v="Hohenzollernstraße"/>
    <tag k="old_name" v="Wiesenweg"/>
  </way>
  <way id="4577418" version="3" timestamp="2009-08-26T19:07:16Z" uid="158886" user="MadKoala" changeset="2271005">
    <nd ref="28902141"/>
    <nd ref="28902487"/>
    <nd ref="28902495"/>
    <nd ref="28902489"/>
    <nd ref="28902491"/>
    <nd ref="474742405"/>
    <nd ref="474742278"/>
    <nd ref="474742276"/>
    <nd ref="474742274"/>
    <nd ref="474742399"/>
    <nd ref="28902493"/>
    <tag k="highway" v="residential"/>
    <tag k="name" v="Hohenzollernstraße"/>
    <tag k="old_name" v="Wiesenweg"/>
  </way>
  <way id="4577418" version="4" timestamp="2009-08-27T13:12:15Z" uid="158886" user="MadKoala" changeset="2277791">
    <nd ref="28902141"/>
    <nd ref="475063780"/>
    <nd ref="475063640"/>
    <nd ref="475063460"/>
    <nd ref="475063448"/>
    <nd ref="475062841"/>
    <nd ref="475062981"/>
    <nd ref="475061144"/>
    <nd ref="28902487"/>
    <nd ref="475061091"/>
    <nd ref="475060699"/>
    <nd ref="475060615"/>
    <nd ref="28902495"/>
    <nd ref="475060745"/>
    <nd ref="475060612"/>
    <nd ref="475059192"/>
    <nd ref="28902489"/>
    <nd ref="475059188"/>
    <nd ref="475059200"/>
    <nd ref="475059186"/>
    <nd ref="28902491"/>
    <nd ref="475059203"/>
    <nd ref="474742405"/>
    <nd ref="474742278"/>
    <nd ref="474742276"/>
    <nd ref="474742274"/>
    <nd ref="474742399"/>
    <nd ref="28902493"/>
    <tag k="highway" v="residential"/>
    <tag k="name" v="Hohenzollernstraße"/>
    <tag k="old_name" v="Wiesenweg"/>
  </way>
  <way id="4577418" version="5" timestamp="2009-08-27T13:38:22Z" uid="158886" user="MadKoala" changeset="2278225">
    <nd ref="28902141"/>
    <nd ref="475063780"/>
    <nd ref="475079732"/>
    <nd ref="475063640"/>
    <nd ref="475079752"/>
    <nd ref="475063460"/>
    <nd ref="475063448"/>
    <nd ref="475062841"/>
    <nd ref="475062981"/>
    <nd ref="475061144"/>
    <nd ref="28902487"/>
    <nd ref="475061091"/>
    <nd ref="475060699"/>
    <nd ref="475060615"/>
    <nd ref="28902495"/>
    <nd ref="475060745"/>
    <nd ref="475060612"/>
    <nd ref="475059192"/>
    <nd ref="28902489"/>
    <nd ref="475059188"/>
    <nd ref="475059200"/>
    <nd ref="475059186"/>
    <nd ref="28902491"/>
    <nd ref="475059203"/>
    <nd ref="474742405"/>
    <nd ref="474742278"/>
    <nd ref="474742276"/>
    <nd ref="474742274"/>
    <nd ref="474742399"/>
    <nd ref="28902493"/>
    <tag k="highway" v="residential"/>
    <tag k="name" v="Hohenzollernstraße"/>
    <tag k="old_name" v="Wiesenweg"/>
  </way>
  <way id="4577418" version="6" timestamp="2009-09-06T09:38:08Z" uid="158886" user="MadKoala" changeset="2388944">
    <nd ref="28902141"/>
    <nd ref="475063780"/>
    <nd ref="475079732"/>
    <nd ref="475063640"/>
    <nd ref="475079752"/>
    <nd ref="475063460"/>
    <nd ref="475063448"/>
    <nd ref="475062841"/>
    <nd ref="475062981"/>
    <nd ref="475061144"/>
    <nd ref="28902487"/>
    <nd ref="475061091"/>
    <nd ref="475060699"/>
    <nd ref="475060615"/>
    <nd ref="28902495"/>
    <nd ref="475060745"/>
    <nd ref="475060612"/>
    <nd ref="475059192"/>
    <nd ref="28902489"/>
    <nd ref="475059188"/>
    <nd ref="475059200"/>
    <nd ref="475059186"/>
    <nd ref="28902491"/>
    <nd ref="475059203"/>
    <nd ref="474742405"/>
    <nd ref="474742278"/>
    <nd ref="474742276"/>
    <nd ref="474742274"/>
    <nd ref="474742399"/>
    <nd ref="28902493"/>
    <tag k="footway" v="both"/>
    <tag k="highway" v="residential"/>
    <tag k="name" v="Hohenzollernstraße"/>
    <tag k="old_name" v="Wiesenweg"/>
  </way>
  <way id="4577418" version="7" timestamp="2009-09-20T12:50:11Z" uid="173846" user="burgermeister" changeset="2545076">
    <nd ref="28902141"/>
    <nd ref="475063780"/>
    <nd ref="475079732"/>
    <nd ref="475063640"/>
    <nd ref="475079752"/>
    <nd ref="475063460"/>
    <nd ref="475063448"/>
    <nd ref="475062841"/>
    <nd ref="475062981"/>
    <nd ref="475061144"/>
    <nd ref="28902487"/>
    <nd ref="475061091"/>
    <nd ref="475060699"/>
    <nd ref="503084954"/>
    <nd ref="475060615"/>
    <nd ref="475060745"/>
    <nd ref="475060612"/>
    <nd ref="475059192"/>
    <nd ref="28902489"/>
    <nd ref="475059188"/>
    <nd ref="475059200"/>
    <nd ref="475059186"/>
    <nd ref="28902491"/>
    <nd ref="475059203"/>
    <nd ref="474742405"/>
    <nd ref="474742278"/>
    <nd ref="474742276"/>
    <nd ref="474742274"/>
    <nd ref="474742399"/>
    <nd ref="28902493"/>
    <tag k="footway" v="both"/>
    <tag k="highway" v="residential"/>
    <tag k="name" v="Hohenzollernstraße"/>
    <tag k="old_name" v="Wiesenweg"/>
  </way>
  <way id="4577418" version="8" timestamp="2011-07-20T13:39:02Z" uid="492711" user="KingMike" changeset="8778728">
    <nd ref="28902141"/>
    <nd ref="475063780"/>
    <nd ref="475079732"/>
    <nd ref="475063640"/>
    <nd ref="475079752"/>
    <nd ref="475063460"/>
    <nd ref="475063448"/>
    <nd ref="475062841"/>
    <nd ref="475062981"/>
    <nd ref="475061144"/>
    <nd ref="28902487"/>
    <nd ref="475061091"/>
    <nd ref="475060699"/>
    <nd ref="503084954"/>
    <nd ref="475060615"/>
    <nd ref="475060745"/>
    <nd ref="475060612"/>
    <nd ref="475059192"/>
    <nd ref="28902489"/>
    <nd ref="475059188"/>
    <nd ref="475059200"/>
    <nd ref="475059186"/>
    <nd ref="28902491"/>
    <nd ref="475059203"/>
    <nd ref="474742405"/>
    <nd ref="474742278"/>
    <nd ref="474742276"/>
    <nd ref="474742274"/>
    <nd ref="474742399"/>
    <nd ref="28902493"/>
    <tag k="footway" v="both"/>
    <tag k="highway" v="residential"/>
    <tag k="maxspeed" v="30"/>
    <tag k="name" v="Hohenzollernstraße"/>
    <tag k="old_name" v="Wiesenweg"/>
  </way>
  <way id="4577418" version="9" timestamp="2011-12-16T13:56:59Z" uid="479256" user="geodreieck4711" changeset="10131182">
    <nd ref="28902141"/>
    <nd ref="475063780"/>
    <nd ref="475079732"/>
    <nd ref="475063640"/>
    <nd ref="475079752"/>
    <nd ref="475063460"/>
    <nd ref="475063448"/>
    <nd ref="475062841"/>
    <nd ref="475062981"/>
    <tag k="footway" v="both"/>
    <tag k="highway" v="residential"/>
    <tag k="maxspeed" v="30"/>
    <tag k="name" v="Hohenzollernstraße"/>
    <tag k="old_name" v="Wiesenweg"/>
  </way>
  <way id="4577418" version="10" timestamp="2011-12-16T15:13:23Z" uid="479256" user="geodreieck4711" changeset="10131644"/>
  <way id="4577419" version="1" timestamp="2007-07-24T05:39:48Z" uid="10712" user="Kraeml" changeset="164225">
    <nd ref="28902547"/>
    <nd ref="28902548"/>
    <nd ref="28902549"/>
    <nd ref="28902550"/>
    <nd ref="28902551"/>
    <nd ref="28902552"/>
    <nd ref="28901502"/>
    <nd ref="28901499"/>
    <tag k="created_by" v="JOSM"/>
    <tag k="highway" v="residential"/>
    <tag k="name" v="Schornbaumstraße"/>
  </way>
  <way id="4577419" version="2" timestamp="2009-08-20T10:14:38Z" uid="158886" user="MadKoala" changeset="2210416">
    <nd ref="28902547"/>
    <nd ref="471388152"/>
    <nd ref="471388142"/>
    <nd ref="28902548"/>
    <nd ref="28902549"/>
    <nd ref="471388127"/>
    <nd ref="471388031"/>
    <nd ref="28902550"/>
    <nd ref="28902551"/>
    <nd ref="28902552"/>
    <nd ref="28901502"/>
    <nd ref="28901499"/>
    <tag k="highway" v="residential"/>
    <tag k="name" v="Schornbaumstraße"/>
  </way>
  <way id="4577419" version="3" timestamp="2009-08-24T14:51:12Z" uid="158886" user="MadKoala" changeset="2245270">
    <nd ref="28902547"/>
    <nd ref="471388152"/>
    <nd ref="471388142"/>
    <nd ref="28902548"/>
    <nd ref="28902549"/>
    <nd ref="471388127"/>
    <nd ref="471388031"/>
    <nd ref="28902550"/>
    <nd ref="28902551"/>
    <nd ref="28902552"/>
    <nd ref="472941949"/>
    <nd ref="28901502"/>
    <nd ref="28901499"/>
    <tag k="highway" v="residential"/>
    <tag k="name" v="Schornbaumstraße"/>
  </way>
  <way id="4577419" version="4" timestamp="2009-09-06T09:38:01Z" uid="158886" user="MadKoala" changeset="2388944">
    <nd ref="28902547"/>
    <nd ref="471388152"/>
    <nd ref="471388142"/>
    <nd ref="28902548"/>
    <nd ref="28902549"/>
    <nd ref="471388127"/>
    <nd ref="471388031"/>
    <nd ref="28902550"/>
    <nd ref="28902551"/>
    <nd ref="28902552"/>
    <nd ref="472941949"/>
    <nd ref="28901502"/>
    <nd ref="28901499"/>
    <tag k="footway" v="both"/>
    <tag k="highway" v="residential"/>
    <tag k="name" v="Schornbaumstraße"/>
  </way>
  <way id="4577419" version="5" timestamp="2011-12-16T13:57:07Z" uid="479256" user="geodreieck4711" changeset="10131182"/>
  <way id="4577420" version="1" timestamp="2007-05-09T22:22:31Z" uid="6975" user="ulfl" changeset="44354">
    <nd ref="28902548"/>
    <nd ref="28902558"/>
    <nd ref="28902556"/>
    <nd ref="28902557"/>
    <tag k="created_by" v="JOSM"/>
    <tag k="highway" v="residential"/>
    <tag k="name" v="Lauenburgerstraße"/>
  </way>
  <way id="4577420" version="2" timestamp="2009-08-20T10:14:30Z" uid="158886" user="MadKoala" changeset="2210416">
    <nd ref="28902548"/>
    <nd ref="471387958"/>
    <nd ref="28902558"/>
    <nd ref="28902556"/>
    <nd ref="471387973"/>
    <nd ref="28902557"/>
    <tag k="highway" v="residential"/>
    <tag k="name" v="Lauenburgerstraße"/>
  </way>
  <way id="4577420" version="3" timestamp="2009-09-06T09:38:01Z" uid="158886" user="MadKoala" changeset="2388944">
    <nd ref="28902548"/>
    <nd ref="471387958"/>
    <nd ref="28902558"/>
    <nd ref="28902556"/>
    <tag k="footway" v="both"/>
    <tag k="highway" v="residential"/>
    <tag k="name" v="Lauenburgerstraße"/>
  </way>
  <way id="4577420" version="4" timestamp="2011-12-16T21:02:48Z" uid="479256" user="geodreieck4711" changeset="10134194"/>
  <way id="4577421" version="1" timestamp="2007-05-09T22:22:31Z" uid="6975" user="ulfl" changeset="44354">
    <nd ref="28902558"/>
    <nd ref="28902559"/>
    <tag k="created_by" v="JOSM"/>
    <tag k="highway" v="residential"/>
    <tag k="name" v="An der Rundkapelle"/>
  </way>
  <way id="4577421" version="2" timestamp="2009-08-20T10:14:28Z" uid="158886" user="MadKoala" changeset="2210416">
    <nd ref="28902558"/>
    <nd ref="471387949"/>
    <nd ref="28902559"/>
    <tag k="highway" v="residential"/>
    <tag k="name" v="An der Rundkapelle"/>
  </way>
  <way id="4577421" version="3" timestamp="2009-09-06T09:38:02Z" uid="158886" user="MadKoala" changeset="2388944">
    <nd ref="28902558"/>
    <nd ref="471387949"/>
    <nd ref="28902559"/>
    <tag k="footway" v="right"/>
    <tag k="highway" v="residential"/>
    <tag k="name" v="An der Rundkapelle"/>
  </way>
  <way id="4577421" version="4" timestamp="2011-12-16T13:56:57Z" uid="479256" user="geodreieck4711" changeset="10131182">
    <nd ref="28902558"/>
    <nd ref="1548719877"/>
    <tag k="footway" v="right"/>
    <tag k="highway" v="residential"/>
    <tag k="name" v="An der Rundkapelle"/>
  </way>
  <way id="4577421" version="5" timestamp="2011-12-17T00:16:24Z" uid="479256" user="geodreieck4711" changeset="10135294"/>
  <way id="4577422" version="1" timestamp="2007-05-09T22:28:03Z" uid="6975" user="ulfl" changeset="44354">
    <nd ref="28902542"/>
    <nd ref="28902540"/>
    <nd ref="28902533"/>
    <nd ref="28902538"/>
    <nd ref="28902537"/>
    <nd ref="28902531"/>
    <nd ref="28902532"/>
    <nd ref="28902530"/>
    <tag k="created_by" v="JOSM"/>
    <tag k="highway" v="residential"/>
    <tag k="name" v="Zähringerstraße"/>
  </way>
  <way id="4577422" version="2" timestamp="2009-08-24T14:17:25Z" uid="158886" user="MadKoala" changeset="2244878">
    <nd ref="28902542"/>
    <nd ref="28902540"/>
    <nd ref="28902533"/>
    <nd ref="28902538"/>
    <nd ref="28902537"/>
    <nd ref="28902531"/>
    <nd ref="28902532"/>
    <nd ref="28902530"/>
    <tag k="highway" v="residential"/>
    <tag k="name" v="Zähringerstraße"/>
    <tag k="old_name" v="Bienenweg"/>
  </way>
  <way id="4577422" version="3" timestamp="2009-08-25T13:32:12Z" uid="158886" user="MadKoala" changeset="2256415">
    <nd ref="28902542"/>
    <nd ref="28902540"/>
    <nd ref="28902533"/>
    <nd ref="28902538"/>
    <nd ref="28902537"/>
    <nd ref="28902531"/>
    <nd ref="28902532"/>
    <nd ref="473553567"/>
    <nd ref="473553583"/>
    <nd ref="28902530"/>
    <tag k="highway" v="residential"/>
    <tag k="name" v="Zähringerstraße"/>
    <tag k="old_name" v="Bienenweg"/>
  </way>
  <way id="4577422" version="4" timestamp="2009-08-29T20:56:26Z" uid="158886" user="MadKoala" changeset="2306667">
    <nd ref="28902542"/>
    <nd ref="476919310"/>
    <nd ref="476919317"/>
    <nd ref="476919306"/>
    <nd ref="28902540"/>
    <nd ref="28902533"/>
    <nd ref="476921015"/>
    <nd ref="28902538"/>
    <nd ref="476920874"/>
    <nd ref="476921032"/>
    <nd ref="28902537"/>
    <nd ref="476921044"/>
    <nd ref="28902531"/>
    <nd ref="28902532"/>
    <nd ref="473553567"/>
    <nd ref="473553583"/>
    <nd ref="28902530"/>
    <tag k="highway" v="residential"/>
    <tag k="name" v="Zähringerstraße"/>
    <tag k="old_name" v="Bienenweg"/>
  </way>
  <way id="4577422" version="5" timestamp="2009-08-30T14:55:42Z" uid="158886" user="MadKoala" changeset="2314494">
    <nd ref="28902542"/>
    <nd ref="476919310"/>
    <nd ref="477459373"/>
    <nd ref="476919317"/>
    <nd ref="476919306"/>
    <nd ref="28902540"/>
    <nd ref="28902533"/>
    <nd ref="476921015"/>
    <nd ref="28902538"/>
    <nd ref="476920874"/>
    <nd ref="476921032"/>
    <nd ref="28902537"/>
    <nd ref="476921044"/>
    <nd ref="28902531"/>
    <nd ref="28902532"/>
    <nd ref="473553567"/>
    <nd ref="473553583"/>
    <nd ref="28902530"/>
    <tag k="highway" v="residential"/>
    <tag k="name" v="Zähringerstraße"/>
    <tag k="old_name" v="Bienenweg"/>
  </way>
  <way id="4577422" version="6" timestamp="2009-09-06T09:38:02Z" uid="158886" user="MadKoala" changeset="2388944">
    <nd ref="28902542"/>
    <nd ref="476919310"/>
    <nd ref="477459373"/>
    <nd ref="476919317"/>
    <nd ref="476919306"/>
    <nd ref="28902540"/>
    <nd ref="28902533"/>
    <nd ref="476921015"/>
    <nd ref="28902538"/>
    <nd ref="476920874"/>
    <nd ref="476921032"/>
    <nd ref="28902537"/>
    <nd ref="476921044"/>
    <nd ref="28902531"/>
    <nd ref="28902532"/>
    <nd ref="473553567"/>
    <nd ref="473553583"/>
    <nd ref="28902530"/>
    <tag k="footway" v="both"/>
    <tag k="highway" v="residential"/>
    <tag k="name" v="Zähringerstraße"/>
    <tag k="old_name" v="Bienenweg"/>
  </way>
  <way id="4577422" version="7" timestamp="2011-12-16T14:50:27Z" uid="479256" user="geodreieck4711" changeset="10131491"/>
  <way id="4577423" version="1" timestamp="2007-05-09T22:29:02Z" uid="6975" user="ulfl" changeset="44354">
    <nd ref="28902487"/>
    <nd ref="28902497"/>
    <nd ref="28902499"/>
    <nd ref="28902501"/>
    <tag k="created_by" v="JOSM"/>
    <tag k="highway" v="residential"/>
    <tag k="name" v="Ludolfingerstraße"/>
  </way>
  <way id="4577423" version="2" timestamp="2009-08-24T14:17:28Z" uid="158886" user="MadKoala" changeset="2244878">
    <nd ref="28902487"/>
    <nd ref="28902497"/>
    <nd ref="28902499"/>
    <nd ref="28902501"/>
    <tag k="highway" v="residential"/>
    <tag k="name" v="Ludolfingerstraße"/>
    <tag k="old_name" v="Erlenweg, Badstraße"/>
  </way>
  <way id="4577423" version="3" timestamp="2011-12-16T14:57:19Z" uid="479256" user="geodreieck4711" changeset="10131550">
    <nd ref="28902487"/>
    <nd ref="28902497"/>
    <nd ref="28902499"/>
    <nd ref="1548788940"/>
    <tag k="highway" v="residential"/>
    <tag k="name" v="Ludolfingerstraße"/>
    <tag k="old_name" v="Erlenweg, Badstraße"/>
  </way>
  <way id="4577423" version="4" timestamp="2011-12-16T22:40:17Z" uid="479256" user="geodreieck4711" changeset="10134865"/>
  <way id="4577428" version="1" timestamp="2007-05-09T22:30:47Z" uid="6975" user="ulfl" changeset="44354">
    <nd ref="28902138"/>
    <nd ref="28902486"/>
    <nd ref="28902472"/>
    <nd ref="28902474"/>
    <nd ref="28902477"/>
    <nd ref="28902479"/>
    <nd ref="28902481"/>
    <nd ref="28902483"/>
    <nd ref="28902116"/>
    <tag k="created_by" v="JOSM"/>
    <tag k="highway" v="residential"/>
    <tag k="name" v="Habsburgerstraße"/>
  </way>
  <way id="4577428" version="2" timestamp="2009-02-08T15:41:19Z" uid="80526" user="frawe" changeset="267611">
    <nd ref="28902138"/>
    <nd ref="28902486"/>
    <nd ref="28902472"/>
    <nd ref="28902474"/>
    <nd ref="28902477"/>
    <tag k="created_by" v="JOSM"/>
    <tag k="highway" v="residential"/>
    <tag k="name" v="Habsburgerstraße"/>
  </way>
  <way id="4577428" version="3" timestamp="2009-02-11T10:23:35Z" uid="80526" user="frawe" changeset="360099">
    <nd ref="28902477"/>
    <nd ref="28902474"/>
    <nd ref="28902472"/>
    <nd ref="28902486"/>
    <nd ref="28902138"/>
    <tag k="created_by" v="JOSM"/>
    <tag k="highway" v="residential"/>
    <tag k="name" v="Habsburgerstraße"/>
  </way>
  <way id="4577428" version="4" timestamp="2009-08-24T14:08:49Z" uid="158886" user="MadKoala" changeset="2244799">
    <nd ref="28902477"/>
    <nd ref="28902474"/>
    <nd ref="28902472"/>
    <nd ref="28902486"/>
    <nd ref="28902138"/>
    <tag k="highway" v="residential"/>
    <tag k="name" v="Habsburgerstraße"/>
    <tag k="old_name" v="Kirchenweg"/>
  </way>
  <way id="4577428" version="5" timestamp="2009-08-24T14:17:32Z" uid="158886" user="MadKoala" changeset="2244878">
    <nd ref="28902477"/>
    <nd ref="28902474"/>
    <nd ref="28902472"/>
    <nd ref="28902486"/>
    <nd ref="28902138"/>
    <tag k="highway" v="residential"/>
    <tag k="name" v="Habsburgerstraße"/>
    <tag k="old_name" v="Kirchweg"/>
  </way>
  <way id="4577428" version="6" timestamp="2009-08-25T13:29:11Z" uid="158886" user="MadKoala" changeset="2256415">
    <nd ref="28902477"/>
    <nd ref="473551697"/>
    <nd ref="28902474"/>
    <nd ref="473551699"/>
    <nd ref="473551701"/>
    <nd ref="473551885"/>
    <nd ref="28902472"/>
    <nd ref="28902486"/>
    <nd ref="28902138"/>
    <tag k="highway" v="residential"/>
    <tag k="name" v="Habsburgerstraße"/>
    <tag k="old_name" v="Kirchweg"/>
  </way>
  <way id="4577428" version="7" timestamp="2009-08-27T13:18:04Z" uid="158886" user="MadKoala" changeset="2277791">
    <nd ref="28902477"/>
    <nd ref="473551697"/>
    <nd ref="28902474"/>
    <nd ref="473551699"/>
    <nd ref="473551701"/>
    <nd ref="473551885"/>
    <nd ref="28902472"/>
    <nd ref="28902486"/>
    <nd ref="475067305"/>
    <nd ref="475067315"/>
    <nd ref="28902138"/>
    <tag k="highway" v="residential"/>
    <tag k="name" v="Habsburgerstraße"/>
    <tag k="old_name" v="Kirchweg"/>
  </way>
  <way id="4577428" version="8" timestamp="2009-08-27T13:38:44Z" uid="158886" user="MadKoala" changeset="2278225">
    <nd ref="28902477"/>
    <nd ref="473551697"/>
    <nd ref="28902474"/>
    <nd ref="473551699"/>
    <nd ref="473551701"/>
    <nd ref="473551885"/>
    <nd ref="28902472"/>
    <nd ref="475079939"/>
    <nd ref="475079919"/>
    <nd ref="475079899"/>
    <nd ref="28902486"/>
    <nd ref="475079878"/>
    <nd ref="475079863"/>
    <nd ref="475079841"/>
    <nd ref="475067305"/>
    <nd ref="475067315"/>
    <nd ref="28902138"/>
    <tag k="highway" v="residential"/>
    <tag k="name" v="Habsburgerstraße"/>
    <tag k="old_name" v="Kirchweg"/>
  </way>
  <way id="4577428" version="9" timestamp="2009-11-09T08:15:38Z" uid="118856" user="staehler" changeset="3071260">
    <nd ref="28902477"/>
    <nd ref="473553487"/>
    <nd ref="28902474"/>
    <nd ref="473553496"/>
    <nd ref="559896006"/>
    <nd ref="473551701"/>
    <nd ref="559896005"/>
    <nd ref="473551885"/>
    <nd ref="28902472"/>
    <nd ref="475079939"/>
    <nd ref="475079919"/>
    <nd ref="475079899"/>
    <nd ref="28902486"/>
    <nd ref="475079878"/>
    <nd ref="475079863"/>
    <nd ref="475079841"/>
    <nd ref="475067305"/>
    <nd ref="475067315"/>
    <nd ref="28902138"/>
    <tag k="highway" v="residential"/>
    <tag k="name" v="Habsburgerstraße"/>
    <tag k="old_name" v="Kirchweg"/>
  </way>
  <way id="4577428" version="10" timestamp="2010-03-28T19:32:17Z" uid="134355" user="Mapper John" changeset="4261106"/>
  <way id="4577429" version="1" timestamp="2007-05-09T22:30:47Z" uid="6975" user="ulfl" changeset="44354">
    <nd ref="28902134"/>
    <nd ref="28902439"/>
    <nd ref="28902443"/>
    <nd ref="28902446"/>
    <nd ref="28902449"/>
    <nd ref="28902452"/>
    <tag k="created_by" v="JOSM"/>
    <tag k="highway" v="residential"/>
    <tag k="name" v="Wittelsbacherstraße"/>
  </way>
  <way id="4577429" version="2" timestamp="2008-06-24T11:16:48Z" uid="41113" user="cycling_zno" changeset="287246">
    <nd ref="28902134"/>
    <nd ref="28902439"/>
    <nd ref="28902443"/>
    <nd ref="28902446"/>
    <nd ref="28902449"/>
    <nd ref="272645778"/>
    <tag k="created_by" v="Potlatch 0.9c"/>
    <tag k="highway" v="residential"/>
    <tag k="name" v="Wittelsbacherstraße"/>
  </way>
  <way id="4577429" version="3" timestamp="2009-04-25T09:31:54Z" uid="60957" user="mini-titan" changeset="943409">
    <nd ref="28902134"/>
    <nd ref="28902439"/>
    <nd ref="28902443"/>
    <nd ref="28902446"/>
    <nd ref="28902449"/>
    <nd ref="384501826"/>
    <nd ref="272645778"/>
    <tag k="created_by" v="Potlatch 0.9c"/>
    <tag k="highway" v="residential"/>
    <tag k="name" v="Wittelsbacherstraße"/>
  </way>
  <way id="4577429" version="4" timestamp="2009-08-24T14:17:31Z" uid="158886" user="MadKoala" changeset="2244878">
    <nd ref="28902134"/>
    <nd ref="28902439"/>
    <nd ref="28902443"/>
    <nd ref="28902446"/>
    <nd ref="28902449"/>
    <nd ref="384501826"/>
    <nd ref="272645778"/>
    <tag k="highway" v="residential"/>
    <tag k="name" v="Wittelsbacherstraße"/>
    <tag k="old_name" v="Bachstraße"/>
  </way>
  <way id="4577429" version="5" timestamp="2009-08-25T13:32:13Z" uid="158886" user="MadKoala" changeset="2256415">
    <nd ref="28902134"/>
    <nd ref="473552117"/>
    <nd ref="28902439"/>
    <nd ref="473552266"/>
    <nd ref="473553611"/>
    <nd ref="28902443"/>
    <nd ref="28902446"/>
    <nd ref="28902449"/>
    <nd ref="384501826"/>
    <nd ref="272645778"/>
    <tag k="highway" v="residential"/>
    <tag k="name" v="Wittelsbacherstraße"/>
    <tag k="old_name" v="Bachstraße"/>
  </way>
  <way id="4577429" version="6" timestamp="2009-08-26T09:44:07Z" uid="158886" user="MadKoala" changeset="2265402">
    <nd ref="28902134"/>
    <nd ref="474395193"/>
    <nd ref="474396779"/>
    <nd ref="474396707"/>
    <nd ref="473552117"/>
    <nd ref="474396678"/>
    <nd ref="28902439"/>
    <nd ref="473552266"/>
    <nd ref="473553611"/>
    <nd ref="28902443"/>
    <nd ref="28902446"/>
    <nd ref="28902449"/>
    <nd ref="384501826"/>
    <nd ref="272645778"/>
    <tag k="highway" v="residential"/>
    <tag k="name" v="Wittelsbacherstraße"/>
    <tag k="old_name" v="Bachstraße"/>
  </way>
  <way id="4577429" version="7" timestamp="2009-08-28T18:09:15Z" uid="158886" user="MadKoala" changeset="2293288">
    <nd ref="28902134"/>
    <nd ref="474395193"/>
    <nd ref="474396779"/>
    <nd ref="474396707"/>
    <nd ref="473552117"/>
    <nd ref="474396678"/>
    <nd ref="28902439"/>
    <nd ref="473552266"/>
    <nd ref="473553611"/>
    <nd ref="28902443"/>
    <nd ref="475949102"/>
    <nd ref="475949130"/>
    <nd ref="475949203"/>
    <nd ref="473083863"/>
    <nd ref="28902446"/>
    <nd ref="475949664"/>
    <nd ref="475949376"/>
    <nd ref="475949649"/>
    <nd ref="475949621"/>
    <nd ref="28902449"/>
    <nd ref="475949413"/>
    <nd ref="475949406"/>
    <nd ref="384501826"/>
    <nd ref="272645778"/>
    <tag k="highway" v="residential"/>
    <tag k="name" v="Wittelsbacherstraße"/>
    <tag k="old_name" v="Bachstraße"/>
  </way>
  <way id="4577429" version="8" timestamp="2009-09-06T09:38:07Z" uid="158886" user="MadKoala" changeset="2388944">
    <nd ref="28902134"/>
    <nd ref="474395193"/>
    <nd ref="474396779"/>
    <nd ref="474396707"/>
    <nd ref="473552117"/>
    <nd ref="474396678"/>
    <nd ref="28902439"/>
    <nd ref="473552266"/>
    <nd ref="473553611"/>
    <nd ref="28902443"/>
    <nd ref="475949102"/>
    <nd ref="475949130"/>
    <nd ref="475949203"/>
    <nd ref="473083863"/>
    <nd ref="28902446"/>
    <nd ref="475949664"/>
    <nd ref="475949376"/>
    <nd ref="475949649"/>
    <nd ref="475949621"/>
    <nd ref="28902449"/>
    <nd ref="475949413"/>
    <nd ref="475949406"/>
    <nd ref="384501826"/>
    <nd ref="272645778"/>
    <tag k="footway" v="both"/>
    <tag k="highway" v="residential"/>
    <tag k="name" v="Wittelsbacherstraße"/>
    <tag k="old_name" v="Bachstraße"/>
  </way>
  <way id="4577429" version="9" timestamp="2009-12-22T15:20:26Z" uid="158886" user="MadKoala" changeset="3428021">
    <nd ref="28902134"/>
    <nd ref="474395193"/>
    <nd ref="474396779"/>
    <nd ref="474396707"/>
    <nd ref="473552117"/>
    <nd ref="474396678"/>
    <nd ref="28902439"/>
    <nd ref="473552266"/>
    <nd ref="473553611"/>
    <nd ref="28902443"/>
    <nd ref="475949102"/>
    <nd ref="475949130"/>
    <nd ref="475949203"/>
    <nd ref="473083863"/>
    <nd ref="28902446"/>
    <nd ref="475949664"/>
    <nd ref="475949376"/>
    <nd ref="475949649"/>
    <nd ref="475949621"/>
    <nd ref="28902449"/>
    <nd ref="475949413"/>
    <nd ref="475949406"/>
    <nd ref="384501826"/>
    <nd ref="272645778"/>
    <tag k="footway" v="both"/>
    <tag k="highway" v="residential"/>
    <tag k="maxspeed" v="30"/>
    <tag k="name" v="Wittelsbacherstraße"/>
    <tag k="old_name" v="Bachstraße"/>
  </way>
  <way id="4577429" version="10" timestamp="2011-12-16T12:38:03Z" uid="479256" user="geodreieck4711" changeset="10130738">
    <nd ref="28902134"/>
    <nd ref="474395193"/>
    <nd ref="474396779"/>
    <nd ref="474396707"/>
    <nd ref="473552117"/>
    <nd ref="474396678"/>
    <nd ref="28902439"/>
    <nd ref="473552266"/>
    <nd ref="473553611"/>
    <nd ref="28902443"/>
    <nd ref="475949102"/>
    <nd ref="475949130"/>
    <nd ref="475949203"/>
    <nd ref="473083863"/>
    <nd ref="28902446"/>
    <nd ref="475949664"/>
    <nd ref="475949376"/>
    <nd ref="475949649"/>
    <nd ref="475949621"/>
    <nd ref="28902449"/>
    <nd ref="475949413"/>
    <nd ref="1548632058"/>
    <tag k="footway" v="both"/>
    <tag k="highway" v="residential"/>
    <tag k="maxspeed" v="30"/>
    <tag k="name" v="Wittelsbacherstraße"/>
    <tag k="old_name" v="Bachstraße"/>
  </way>
  <way id="4577429" version="11" timestamp="2011-12-16T12:45:29Z" uid="479256" user="geodreieck4711" changeset="10130782">
    <nd ref="28902134"/>
    <nd ref="1548640770"/>
    <tag k="footway" v="both"/>
    <tag k="highway" v="residential"/>
    <tag k="maxspeed" v="30"/>
    <tag k="name" v="Wittelsbacherstraße"/>
    <tag k="old_name" v="Bachstraße"/>
  </way>
  <way id="4577429" version="12" timestamp="2011-12-16T15:13:24Z" uid="479256" user="geodreieck4711" changeset="10131644"/>
  <way id="4577430" version="1" timestamp="2007-05-09T22:31:48Z" uid="6975" user="ulfl" changeset="44354">
    <nd ref="28902446"/>
    <nd ref="28902127"/>
    <tag k="created_by" v="JOSM"/>
    <tag k="highway" v="residential"/>
    <tag k="name" v="Wettinerstraße"/>
  </way>
  <way id="4577430" version="2" timestamp="2010-11-04T17:41:06Z" uid="202858" user="kellerma" changeset="6290182">
    <nd ref="28902446"/>
    <nd ref="28902127"/>
    <tag k="highway" v="residential"/>
    <tag k="name" v="Wettinerstraße"/>
  </way>
  <way id="4577430" version="3" timestamp="2011-12-16T21:50:58Z" uid="479256" user="geodreieck4711" changeset="10134577"/>
  <way id="4577431" version="1" timestamp="2007-05-09T22:34:44Z" uid="6975" user="ulfl" changeset="44354">
    <nd ref="28902491"/>
    <nd ref="28902553"/>
    <nd ref="28902554"/>
    <tag k="created_by" v="JOSM"/>
    <tag k="highway" v="residential"/>
    <tag k="name" v="Reußstraße"/>
  </way>
  <way id="4577431" version="2" timestamp="2010-03-31T11:34:21Z" uid="134355" user="Mapper John" changeset="4284524">
    <nd ref="28902491"/>
    <nd ref="28902553"/>
    <nd ref="28902554"/>
    <tag k="highway" v="residential"/>
    <tag k="name" v="Reußstraße"/>
  </way>
  <way id="4577431" version="3" timestamp="2011-12-17T00:16:24Z" uid="479256" user="geodreieck4711" changeset="10135294"/>
  <way id="4577443" version="1" timestamp="2007-05-09T22:36:18Z" uid="6975" user="ulfl" changeset="44354">
    <nd ref="28902543"/>
    <nd ref="28902117"/>
    <tag k="created_by" v="JOSM"/>
    <tag k="highway" v="residential"/>
    <tag k="name" v="Löwenberger Straße"/>
  </way>
  <way id="4577443" version="2" timestamp="2009-04-25T09:31:54Z" uid="60957" user="mini-titan" changeset="943409">
    <nd ref="28902543"/>
    <nd ref="384501835"/>
    <nd ref="28902117"/>
    <tag k="created_by" v="JOSM"/>
    <tag k="highway" v="residential"/>
    <tag k="name" v="Löwenberger Straße"/>
  </way>
  <way id="4577443" version="3" timestamp="2009-09-01T17:28:50Z" uid="158886" user="MadKoala" changeset="2340299">
    <nd ref="28902543"/>
    <nd ref="384501835"/>
    <nd ref="28902117"/>
    <tag k="highway" v="residential"/>
    <tag k="name" v="Löwenberger Straße"/>
    <tag k="oneway" v="no"/>
  </way>
  <way id="4577443" version="4" timestamp="2011-12-16T22:31:04Z" uid="479256" user="geodreieck4711" changeset="10134815"/>
  <way id="4577444" version="1" timestamp="2007-05-09T22:36:19Z" uid="6975" user="ulfl" changeset="44354">
    <nd ref="28902483"/>
    <nd ref="28902542"/>
    <nd ref="28902543"/>
    <nd ref="28902544"/>
    <nd ref="28902118"/>
    <tag k="created_by" v="JOSM"/>
    <tag k="highway" v="residential"/>
    <tag k="name" v="Löwenberger Straße"/>
  </way>
  <way id="4577444" version="2" timestamp="2009-04-25T09:31:54Z" uid="60957" user="mini-titan" changeset="943409">
    <nd ref="28902483"/>
    <nd ref="28902542"/>
    <nd ref="28902543"/>
    <nd ref="28902544"/>
    <nd ref="384501832"/>
    <nd ref="28902118"/>
    <tag k="created_by" v="JOSM"/>
    <tag k="highway" v="residential"/>
    <tag k="name" v="Löwenberger Straße"/>
  </way>
  <way id="4577444" version="3" timestamp="2009-08-29T20:56:28Z" uid="158886" user="MadKoala" changeset="2306667">
    <nd ref="28902483"/>
    <nd ref="28902542"/>
    <nd ref="476921052"/>
    <nd ref="28902543"/>
    <nd ref="28902544"/>
    <nd ref="384501832"/>
    <nd ref="28902118"/>
    <tag k="highway" v="residential"/>
    <tag k="name" v="Löwenberger Straße"/>
  </way>
  <way id="4577444" version="4" timestamp="2009-09-01T17:28:49Z" uid="158886" user="MadKoala" changeset="2340299">
    <nd ref="28902483"/>
    <nd ref="28902542"/>
    <nd ref="476921052"/>
    <nd ref="28902543"/>
    <nd ref="28902544"/>
    <nd ref="384501832"/>
    <nd ref="28902118"/>
    <tag k="highway" v="residential"/>
    <tag k="name" v="Löwenberger Straße"/>
    <tag k="oneway" v="yes"/>
  </way>
  <way id="4577444" version="5" timestamp="2009-09-06T09:38:10Z" uid="158886" user="MadKoala" changeset="2388944">
    <nd ref="28902483"/>
    <nd ref="28902542"/>
    <nd ref="476921052"/>
    <nd ref="28902543"/>
    <nd ref="28902544"/>
    <nd ref="384501832"/>
    <nd ref="28902118"/>
    <tag k="cycleway" v="opposite_lane"/>
    <tag k="footway" v="right"/>
    <tag k="highway" v="residential"/>
    <tag k="name" v="Löwenberger Straße"/>
    <tag k="oneway" v="yes"/>
  </way>
  <way id="4577444" version="6" timestamp="2009-12-22T15:20:26Z" uid="158886" user="MadKoala" changeset="3428021">
    <nd ref="28902483"/>
    <nd ref="28902542"/>
    <nd ref="476921052"/>
    <nd ref="28902543"/>
    <nd ref="28902544"/>
    <nd ref="384501832"/>
    <nd ref="28902118"/>
    <tag k="cycleway" v="opposite_lane"/>
    <tag k="footway" v="right"/>
    <tag k="highway" v="residential"/>
    <tag k="maxspeed" v="30"/>
    <tag k="name" v="Löwenberger Straße"/>
    <tag k="oneway" v="yes"/>
  </way>
  <way id="4577444" version="7" timestamp="2011-12-16T14:50:25Z" uid="479256" user="geodreieck4711" changeset="10131491"/>
  <way id="4577456" version="1" timestamp="2007-05-09T22:39:19Z" uid="6975" user="ulfl" changeset="44354">
    <nd ref="28902140"/>
    <nd ref="28902160"/>
    <nd ref="28902161"/>
    <nd ref="28903075"/>
    <tag k="created_by" v="JOSM"/>
    <tag k="highway" v="residential"/>
    <tag k="name" v="Hohenstaufenweg"/>
  </way>
  <way id="4577456" version="2" timestamp="2009-08-26T09:39:52Z" uid="158886" user="MadKoala" changeset="2265402">
    <nd ref="28902140"/>
    <nd ref="28902160"/>
    <nd ref="474391763"/>
    <nd ref="28902161"/>
    <nd ref="28903075"/>
    <tag k="highway" v="residential"/>
    <tag k="name" v="Hohenstaufenweg"/>
  </way>
  <way id="4577456" version="3" timestamp="2009-09-06T10:59:45Z" uid="158886" user="MadKoala" changeset="2389607">
    <nd ref="28902140"/>
    <nd ref="28902160"/>
    <nd ref="474391763"/>
    <nd ref="28902161"/>
    <nd ref="28903075"/>
    <tag k="highway" v="living_street"/>
    <tag k="name" v="Hohenstaufenweg"/>
  </way>
  <way id="4577456" version="4" timestamp="2009-09-06T11:09:56Z" uid="158886" user="MadKoala" changeset="2389715">
    <nd ref="28902140"/>
    <nd ref="28902160"/>
    <nd ref="474391763"/>
    <nd ref="28902161"/>
    <nd ref="485756323"/>
    <nd ref="28903075"/>
    <tag k="highway" v="living_street"/>
    <tag k="name" v="Hohenstaufenweg"/>
  </way>
  <way id="4577456" version="5" timestamp="2011-12-16T21:50:57Z" uid="479256" user="geodreieck4711" changeset="10134577"/>
  <way id="4577457" version="1" timestamp="2007-05-09T22:39:20Z" uid="6975" user="ulfl" changeset="44354">
    <nd ref="28902155"/>
    <nd ref="28902156"/>
    <nd ref="28902157"/>
    <nd ref="28902158"/>
    <nd ref="28902159"/>
    <nd ref="28902152"/>
    <nd ref="28902153"/>
    <nd ref="28902154"/>
    <nd ref="28902155"/>
    <tag k="created_by" v="JOSM"/>
    <tag k="highway" v="residential"/>
    <tag k="name" v="Hermann-Kolb-Straße"/>
  </way>
  <way id="4577457" version="2" timestamp="2009-02-08T15:41:36Z" uid="80526" user="frawe" changeset="267611"/>
  <way id="4577458" version="1" timestamp="2007-05-09T22:39:21Z" uid="6975" user="ulfl" changeset="44354">
    <nd ref="28902145"/>
    <nd ref="28902150"/>
    <nd ref="28902151"/>
    <nd ref="28902152"/>
    <tag k="created_by" v="JOSM"/>
    <tag k="highway" v="residential"/>
    <tag k="name" v="Hermann-Kolb-Straße"/>
  </way>
  <way id="4577458" version="2" timestamp="2008-11-22T01:00:48Z" uid="60957" user="mini-titan" changeset="781995">
    <nd ref="28902145"/>
    <nd ref="28902150"/>
    <nd ref="28903075"/>
    <nd ref="28902152"/>
    <tag k="created_by" v="JOSM"/>
    <tag k="highway" v="residential"/>
    <tag k="name" v="Hermann-Kolb-Straße"/>
  </way>
  <way id="4577458" version="3" timestamp="2009-02-08T15:41:16Z" uid="80526" user="frawe" changeset="267611">
    <nd ref="28902145"/>
    <nd ref="28902150"/>
    <nd ref="343429840"/>
    <nd ref="28903075"/>
    <nd ref="28902152"/>
    <tag k="created_by" v="JOSM"/>
    <tag k="highway" v="residential"/>
    <tag k="name" v="Altenfurter Straße"/>
  </way>
  <way id="4577458" version="4" timestamp="2009-09-06T10:59:47Z" uid="158886" user="MadKoala" changeset="2389607">
    <nd ref="28902145"/>
    <nd ref="28902150"/>
    <nd ref="343429840"/>
    <nd ref="28903075"/>
    <nd ref="28902152"/>
    <tag k="highway" v="service"/>
    <tag k="name" v="Altenfurter Straße"/>
  </way>
  <way id="4577458" version="5" timestamp="2011-12-16T15:13:16Z" uid="479256" user="geodreieck4711" changeset="10131644">
    <nd ref="1548799993"/>
    <nd ref="28902150"/>
    <nd ref="343429840"/>
    <nd ref="28903075"/>
    <nd ref="28902152"/>
    <tag k="highway" v="service"/>
    <tag k="name" v="Altenfurter Straße"/>
  </way>
  <way id="4577458" version="6" timestamp="2011-12-16T21:50:57Z" uid="479256" user="geodreieck4711" changeset="10134577"/>
  <way id="4577576" version="9" timestamp="2010-04-02T03:30:43Z" uid="74617" user="JohnSmith" changeset="4299895">
    <nd ref="14988945"/>
    <nd ref="14988946"/>
    <nd ref="677213354"/>
    <nd ref="14988947"/>
    <nd ref="14988954"/>
    <nd ref="14988959"/>
    <nd ref="14988940"/>
    <nd ref="677213356"/>
    <nd ref="14988942"/>
    <nd ref="14988944"/>
    <nd ref="14988945"/>
    <tag k="highway" v="trunk"/>
    <tag k="junction" v="roundabout"/>
  </way>
  <way id="4577924" version="2" timestamp="2008-06-07T07:48:28Z" uid="27600" user="Islanit" changeset="80637">
    <nd ref="28839937"/>
    <nd ref="28839936"/>
    <nd ref="55060717"/>
    <nd ref="55061521"/>
    <nd ref="55071561"/>
    <nd ref="55060542"/>
    <nd ref="28839929"/>
    <nd ref="28839927"/>
    <nd ref="54809155"/>
    <nd ref="28839925"/>
    <tag k="created_by" v="Potlatch alpha"/>
    <tag k="highway" v="tertiary"/>
    <tag k="name" v="Rungwisch"/>
  </way>
  <way id="4577924" version="3" timestamp="2008-07-12T15:45:47Z" uid="51665" user="tierra" changeset="471678">
    <nd ref="28839937"/>
    <nd ref="28839936"/>
    <nd ref="55060717"/>
    <nd ref="55061521"/>
    <nd ref="55071561"/>
    <nd ref="28839929"/>
    <nd ref="28839927"/>
    <nd ref="54809155"/>
    <nd ref="28839925"/>
    <tag k="created_by" v="Potlatch 0.9c"/>
    <tag k="highway" v="tertiary"/>
    <tag k="name" v="Rungwisch"/>
  </way>
  <way id="4577924" version="4" timestamp="2008-07-12T15:46:22Z" uid="51665" user="tierra" changeset="471678">
    <nd ref="28839937"/>
    <nd ref="28839936"/>
    <nd ref="55060717"/>
    <nd ref="55061521"/>
    <nd ref="55071561"/>
    <nd ref="277947348"/>
    <nd ref="28839929"/>
    <nd ref="28839927"/>
    <nd ref="54809155"/>
    <nd ref="28839925"/>
    <tag k="created_by" v="Potlatch 0.9c"/>
    <tag k="highway" v="tertiary"/>
    <tag k="name" v="Rungwisch"/>
  </way>
  <way id="4577924" version="5" timestamp="2008-08-18T15:03:23Z" uid="1852" user="Sven Anders" changeset="310389">
    <nd ref="28839937"/>
    <nd ref="28839936"/>
    <nd ref="55060717"/>
    <nd ref="55061521"/>
    <nd ref="55071561"/>
    <nd ref="277947348"/>
    <nd ref="28839929"/>
    <nd ref="28839927"/>
    <nd ref="54809155"/>
    <nd ref="28839925"/>
    <tag k="created_by" v="Potlatch 0.9c"/>
    <tag k="highway" v="tertiary"/>
    <tag k="name" v="Rungwisch"/>
    <tag k="postal_code" v="22523"/>
  </way>
  <way id="4577924" version="6" timestamp="2008-09-11T22:02:47Z" uid="41512" user="Kuddl Klien" changeset="610197">
    <nd ref="28839937"/>
    <nd ref="28839936"/>
    <nd ref="55060717"/>
    <nd ref="55061521"/>
    <nd ref="55071561"/>
    <nd ref="277947348"/>
    <nd ref="28839929"/>
    <nd ref="28839927"/>
    <nd ref="54809155"/>
    <nd ref="28839925"/>
    <nd ref="296005611"/>
    <nd ref="28839923"/>
    <nd ref="28839921"/>
    <nd ref="28839920"/>
    <nd ref="55068793"/>
    <nd ref="28839854"/>
    <nd ref="28839853"/>
    <tag k="created_by" v="Potlatch 0.10b"/>
    <tag k="highway" v="tertiary"/>
    <tag k="name" v="Rungwisch; Niendorfer Gehege"/>
    <tag k="postal_code" v="22523"/>
  </way>
  <way id="4577924" version="7" timestamp="2008-09-11T22:03:08Z" uid="41512" user="Kuddl Klien" changeset="610197">
    <nd ref="28839937"/>
    <nd ref="28839936"/>
    <nd ref="55060717"/>
    <nd ref="55061521"/>
    <nd ref="296005622"/>
    <nd ref="55071561"/>
    <nd ref="277947348"/>
    <nd ref="28839929"/>
    <nd ref="28839927"/>
    <nd ref="54809155"/>
    <nd ref="28839925"/>
    <nd ref="296005611"/>
    <nd ref="28839923"/>
    <nd ref="28839921"/>
    <nd ref="28839920"/>
    <nd ref="55068793"/>
    <nd ref="28839854"/>
    <nd ref="28839853"/>
    <tag k="created_by" v="Potlatch 0.10b"/>
    <tag k="highway" v="tertiary"/>
    <tag k="name" v="Rungwisch; Niendorfer Gehege"/>
    <tag k="postal_code" v="22523"/>
  </way>
  <way id="4577924" version="8" timestamp="2008-09-14T13:22:15Z" uid="2566" user="Sven S_" changeset="631216">
    <nd ref="28839937"/>
    <nd ref="277947348"/>
    <nd ref="28839929"/>
    <nd ref="28839927"/>
    <nd ref="28839925"/>
    <nd ref="296005611"/>
    <nd ref="28839921"/>
    <nd ref="28839920"/>
    <nd ref="55068793"/>
    <nd ref="28839854"/>
    <nd ref="28839853"/>
    <tag k="created_by" v="Potlatch 0.10b"/>
    <tag k="highway" v="tertiary"/>
    <tag k="name" v="Rungwisch; Niendorfer Gehege"/>
    <tag k="postal_code" v="22523"/>
  </way>
  <way id="4577924" version="9" timestamp="2008-10-14T12:44:49Z" uid="27600" user="Islanit" changeset="332518">
    <nd ref="28839937"/>
    <nd ref="304560508"/>
    <nd ref="277947348"/>
    <nd ref="28839929"/>
    <nd ref="28839927"/>
    <nd ref="28839925"/>
    <nd ref="296005611"/>
    <nd ref="28839921"/>
    <nd ref="28839920"/>
    <nd ref="55068793"/>
    <nd ref="28839854"/>
    <nd ref="28839853"/>
    <tag k="created_by" v="Potlatch 0.10e"/>
    <tag k="highway" v="tertiary"/>
    <tag k="name" v="Rungwisch; Niendorfer Gehege"/>
    <tag k="postal_code" v="22523"/>
  </way>
  <way id="4577924" version="10" timestamp="2008-10-14T12:44:53Z" uid="27600" user="Islanit" changeset="332518">
    <nd ref="28839937"/>
    <nd ref="304560508"/>
    <nd ref="304560585"/>
    <nd ref="277947348"/>
    <nd ref="28839929"/>
    <nd ref="28839927"/>
    <nd ref="28839925"/>
    <nd ref="296005611"/>
    <nd ref="28839921"/>
    <nd ref="28839920"/>
    <nd ref="55068793"/>
    <nd ref="28839854"/>
    <nd ref="28839853"/>
    <tag k="created_by" v="Potlatch 0.10e"/>
    <tag k="highway" v="tertiary"/>
    <tag k="name" v="Rungwisch; Niendorfer Gehege"/>
    <tag k="postal_code" v="22523"/>
  </way>
  <way id="4577924" version="11" timestamp="2008-10-14T12:44:55Z" uid="27600" user="Islanit" changeset="332518">
    <nd ref="28839937"/>
    <nd ref="304560508"/>
    <nd ref="304560585"/>
    <nd ref="304560591"/>
    <nd ref="277947348"/>
    <nd ref="28839929"/>
    <nd ref="28839927"/>
    <nd ref="28839925"/>
    <nd ref="296005611"/>
    <nd ref="28839921"/>
    <nd ref="28839920"/>
    <nd ref="55068793"/>
    <nd ref="28839854"/>
    <nd ref="28839853"/>
    <tag k="created_by" v="Potlatch 0.10e"/>
    <tag k="highway" v="tertiary"/>
    <tag k="name" v="Rungwisch; Niendorfer Gehege"/>
    <tag k="postal_code" v="22523"/>
  </way>
  <way id="4577924" version="12" timestamp="2009-01-21T08:51:21Z" uid="63375" user="Divjo" changeset="819401">
    <nd ref="28839937"/>
    <nd ref="304560508"/>
    <nd ref="304560585"/>
    <nd ref="304560591"/>
    <nd ref="277947348"/>
    <nd ref="28839929"/>
    <nd ref="28839927"/>
    <nd ref="28839925"/>
    <tag k="created_by" v="Potlatch 0.10f"/>
    <tag k="highway" v="tertiary"/>
    <tag k="name" v="Rungwisch; Niendorfer Gehege"/>
    <tag k="postal_code" v="22523"/>
  </way>
  <way id="4577924" version="13" timestamp="2009-01-21T08:51:26Z" uid="63375" user="Divjo" changeset="819401">
    <nd ref="28839937"/>
    <nd ref="304560508"/>
    <nd ref="304560585"/>
    <nd ref="304560591"/>
    <nd ref="277947348"/>
    <nd ref="28839929"/>
    <nd ref="28839927"/>
    <nd ref="28839925"/>
    <tag k="created_by" v="Potlatch 0.10f"/>
    <tag k="highway" v="tertiary"/>
    <tag k="name" v="Rungwisch"/>
    <tag k="postal_code" v="22523"/>
  </way>
  <way id="4577924" version="14" timestamp="2009-01-21T08:52:37Z" uid="63375" user="Divjo" changeset="819401">
    <nd ref="28839937"/>
    <nd ref="304560508"/>
    <nd ref="304560585"/>
    <nd ref="304560591"/>
    <nd ref="277947348"/>
    <nd ref="28839929"/>
    <nd ref="28839927"/>
    <nd ref="334489516"/>
    <nd ref="28839925"/>
    <tag k="created_by" v="Potlatch 0.10f"/>
    <tag k="highway" v="tertiary"/>
    <tag k="name" v="Rungwisch"/>
    <tag k="postal_code" v="22523"/>
  </way>
  <way id="4577924" version="15" timestamp="2009-03-24T18:35:14Z" uid="62854" user="TweetyHH" changeset="853044">
    <nd ref="28839937"/>
    <nd ref="304560508"/>
    <nd ref="304560585"/>
    <nd ref="304560591"/>
    <nd ref="55071561"/>
    <nd ref="277947348"/>
    <nd ref="28839929"/>
    <nd ref="28839927"/>
    <nd ref="334489516"/>
    <nd ref="28839925"/>
    <tag k="created_by" v="Potlatch 0.10f"/>
    <tag k="highway" v="tertiary"/>
    <tag k="name" v="Rungwisch"/>
    <tag k="postal_code" v="22523"/>
  </way>
  <way id="4577924" version="16" timestamp="2009-06-20T15:40:03Z" uid="26492" user="phobie" changeset="1575737">
    <nd ref="28839937"/>
    <nd ref="304560508"/>
    <nd ref="304560585"/>
    <nd ref="304560591"/>
    <nd ref="55071561"/>
    <nd ref="277947348"/>
    <nd ref="28839929"/>
    <nd ref="28839927"/>
    <nd ref="334489516"/>
    <nd ref="28839925"/>
    <tag k="highway" v="tertiary"/>
    <tag k="name" v="Rungwisch"/>
    <tag k="postal_code" v="22523"/>
  </way>
  <way id="4577924" version="17" timestamp="2010-01-08T15:29:15Z" uid="206285" user="LawRedd" changeset="3570908">
    <nd ref="28839937"/>
    <nd ref="304560508"/>
    <nd ref="304560585"/>
    <nd ref="304560591"/>
    <nd ref="55071561"/>
    <nd ref="277947348"/>
    <nd ref="28839929"/>
    <nd ref="28839927"/>
    <nd ref="334489516"/>
    <nd ref="609236416"/>
    <nd ref="28839925"/>
    <tag k="highway" v="tertiary"/>
    <tag k="name" v="Rungwisch"/>
    <tag k="postal_code" v="22523"/>
  </way>
  <way id="4577924" version="18" timestamp="2010-02-24T19:41:54Z" uid="63375" user="Divjo" changeset="3965917">
    <nd ref="28839937"/>
    <nd ref="304560508"/>
    <nd ref="304560585"/>
    <nd ref="304560591"/>
    <nd ref="55071561"/>
    <nd ref="277947348"/>
    <nd ref="28839929"/>
    <nd ref="28839927"/>
    <tag k="highway" v="tertiary"/>
    <tag k="maxspeed" v="50"/>
    <tag k="maxspeed:source" v="DE.urban"/>
    <tag k="name" v="Rungwisch"/>
    <tag k="postal_code" v="22523"/>
  </way>
  <way id="4577924" version="19" timestamp="2010-04-28T14:35:36Z" uid="232312" user="ike88" changeset="4550076">
    <nd ref="28839937"/>
    <nd ref="304560508"/>
    <nd ref="304560585"/>
    <nd ref="304560591"/>
    <nd ref="55071561"/>
    <nd ref="277947348"/>
    <nd ref="28839929"/>
    <nd ref="28839927"/>
    <tag k="highway" v="tertiary"/>
    <tag k="maxspeed" v="50"/>
    <tag k="maxspeed:source" v="DE:urban"/>
    <tag k="name" v="Rungwisch"/>
    <tag k="postal_code" v="22523"/>
  </way>
  <way id="4577924" version="20" timestamp="2011-03-20T23:40:27Z" uid="369758" user="cyangreen" changeset="7623169">
    <nd ref="28839937"/>
    <nd ref="304560508"/>
    <nd ref="304560585"/>
    <nd ref="304560591"/>
    <nd ref="55071561"/>
    <nd ref="277947348"/>
    <nd ref="1211257364"/>
    <nd ref="28839929"/>
    <nd ref="28839927"/>
    <tag k="highway" v="tertiary"/>
    <tag k="maxspeed" v="50"/>
    <tag k="maxspeed:source" v="DE:urban"/>
    <tag k="name" v="Rungwisch"/>
    <tag k="postal_code" v="22523"/>
  </way>
  <way id="4577924" version="21" timestamp="2011-06-24T16:11:57Z" uid="11238" user="fahrrad" changeset="8534118">
    <nd ref="28839937"/>
    <nd ref="1337106642"/>
    <nd ref="304560508"/>
    <nd ref="304560585"/>
    <nd ref="304560591"/>
    <nd ref="55071561"/>
    <nd ref="277947348"/>
    <nd ref="1211257364"/>
    <nd ref="28839929"/>
    <nd ref="28839927"/>
    <tag k="highway" v="tertiary"/>
    <tag k="maxspeed" v="50"/>
    <tag k="maxspeed:source" v="DE:urban"/>
    <tag k="name" v="Rungwisch"/>
    <tag k="postal_code" v="22523"/>
  </way>
  <way id="4577924" version="22" timestamp="2012-02-03T15:28:13Z" uid="63375" user="Divjo" changeset="10576341"/>
  <way id="4577924" version="23" timestamp="2012-02-03T23:24:45Z" uid="570741" user="Graubereich" changeset="10580289">
    <nd ref="28839937"/>
    <nd ref="1337106642"/>
    <nd ref="304560508"/>
    <nd ref="304560585"/>
    <nd ref="304560591"/>
    <nd ref="55071561"/>
    <nd ref="277947348"/>
    <nd ref="1211257364"/>
    <nd ref="28839929"/>
    <nd ref="28839927"/>
    <tag k="highway" v="tertiary"/>
    <tag k="maxspeed" v="50"/>
    <tag k="maxspeed:source" v="DE:urban"/>
    <tag k="name" v="Rungwisch"/>
    <tag k="postal_code" v="22523"/>
  </way>
  <way id="4577924" version="24" timestamp="2012-02-04T00:06:29Z" uid="570741" user="Graubereich" changeset="10580493"/>
  <way id="4577924" version="25" timestamp="2012-02-04T08:37:17Z" uid="63375" user="Divjo" changeset="10581960">
    <nd ref="28839937"/>
    <nd ref="1337106642"/>
    <nd ref="304560508"/>
    <nd ref="304560585"/>
    <nd ref="304560591"/>
    <nd ref="55071561"/>
    <nd ref="277947348"/>
    <nd ref="1211257364"/>
    <nd ref="28839929"/>
    <nd ref="28839927"/>
    <tag k="highway" v="tertiary"/>
    <tag k="maxspeed" v="50"/>
    <tag k="maxspeed:source" v="DE:urban"/>
    <tag k="name" v="Rungwisch"/>
    <tag k="postal_code" v="22523"/>
  </way>
  <way id="4577924" version="26" timestamp="2012-02-05T09:18:41Z" uid="63375" user="Divjo" changeset="10591531"/>
  <way id="4577980" version="3" timestamp="2008-07-10T00:19:18Z" uid="6975" user="ulfl" changeset="448234">
    <nd ref="254262823"/>
    <nd ref="254262826"/>
    <nd ref="254262827"/>
    <nd ref="29823818"/>
    <tag k="amenity" v="taxi"/>
    <tag k="highway" v="service"/>
  </way>
  <way id="4577980" version="4" timestamp="2010-01-28T23:48:51Z" uid="210115" user="v-na-more" changeset="3739848">
    <nd ref="254262823"/>
    <nd ref="254262826"/>
    <nd ref="254262827"/>
    <nd ref="29823818"/>
    <tag k="highway" v="service"/>
    <tag k="oneway" v="yes"/>
  </way>
  <way id="4577980" version="5" timestamp="2012-02-08T12:18:44Z" uid="57884" user="EdLoach" changeset="10623893"/>
  <way id="4577982" version="1" timestamp="2007-08-30T09:14:49Z" uid="7617" user="Franc" changeset="262906">
    <nd ref="28914463"/>
    <nd ref="34385370"/>
    <nd ref="29549291"/>
    <nd ref="29549413"/>
    <nd ref="29549414"/>
    <nd ref="29549412"/>
    <tag k="created_by" v="Potlatch alpha"/>
    <tag k="highway" v="secondary"/>
    <tag k="name" v="Westbourne Street"/>
    <tag k="source:name" v="survey"/>
  </way>
  <way id="4577982" version="2" timestamp="2008-04-10T23:27:34Z" uid="30201" user="rrankin" changeset="107567">
    <nd ref="28914463"/>
    <nd ref="34385370"/>
    <nd ref="29549291"/>
    <nd ref="29549413"/>
    <nd ref="256816327"/>
    <nd ref="29549414"/>
    <nd ref="29549412"/>
    <tag k="created_by" v="Potlatch 0.8a"/>
    <tag k="highway" v="secondary"/>
    <tag k="name" v="Westbourne Street"/>
    <tag k="source:name" v="survey"/>
  </way>
  <way id="4577982" version="3" timestamp="2009-11-14T00:56:56Z" uid="117890" user="Jonathan Trott" changeset="3110099">
    <nd ref="28914463"/>
    <nd ref="34385370"/>
    <tag k="highway" v="secondary"/>
    <tag k="name" v="Westbourne Street"/>
    <tag k="oneway" v="yes"/>
    <tag k="source:name" v="survey"/>
  </way>
  <way id="4577988" version="1" timestamp="2007-08-21T12:25:07Z" uid="7617" user="Franc" changeset="240666">
    <nd ref="15194903"/>
    <nd ref="28914477"/>
    <nd ref="28914478"/>
    <nd ref="35461352"/>
    <tag k="abutters" v="residential"/>
    <tag k="created_by" v="JOSM"/>
    <tag k="highway" v="residential"/>
    <tag k="name" v="Arthur Street"/>
    <tag k="oneway" v="yes"/>
  </way>
  <way id="4577988" version="2" timestamp="2009-11-24T19:26:25Z" uid="7617" user="Franc" changeset="3206945">
    <nd ref="15194903"/>
    <nd ref="28914477"/>
    <nd ref="28914478"/>
    <nd ref="570109208"/>
    <nd ref="35461352"/>
    <tag k="abutters" v="residential"/>
    <tag k="highway" v="residential"/>
    <tag k="name" v="Arthur Street"/>
    <tag k="oneway" v="yes"/>
  </way>
  <way id="4577988" version="3" timestamp="2009-12-02T05:37:31Z" uid="30201" user="rrankin" changeset="3269534">
    <nd ref="15194903"/>
    <nd ref="28914477"/>
    <nd ref="28914478"/>
    <nd ref="570109208"/>
    <nd ref="35461352"/>
    <tag k="highway" v="residential"/>
    <tag k="name" v="Arthur Street"/>
    <tag k="oneway" v="yes"/>
  </way>
  <way id="4577988" version="4" timestamp="2009-12-28T13:31:28Z" uid="7617" user="Franc" changeset="3471447">
    <nd ref="15194903"/>
    <nd ref="28914477"/>
    <nd ref="28914478"/>
    <nd ref="570109208"/>
    <nd ref="600382319"/>
    <nd ref="600382321"/>
    <nd ref="35461352"/>
    <tag k="highway" v="residential"/>
    <tag k="name" v="Arthur Street"/>
    <tag k="oneway" v="yes"/>
  </way>
  <way id="4577988" version="5" timestamp="2010-07-08T02:54:12Z" uid="74617" user="JohnSmith" changeset="5163091">
    <nd ref="15194903"/>
    <nd ref="28914477"/>
    <nd ref="28914478"/>
    <nd ref="570109208"/>
    <nd ref="600382319"/>
    <nd ref="600382321"/>
    <nd ref="35461352"/>
    <tag k="highway" v="residential"/>
    <tag k="maxspeed" v="50"/>
    <tag k="maxspeed:source" v="default residential speed limit in Australia"/>
    <tag k="name" v="Arthur Street"/>
    <tag k="oneway" v="yes"/>
  </way>
  <way id="4577988" version="6" timestamp="2010-08-17T11:06:22Z" uid="7617" user="Franc" changeset="5516696">
    <nd ref="15194903"/>
    <nd ref="28914477"/>
    <nd ref="28914478"/>
    <nd ref="570109208"/>
    <nd ref="600382319"/>
    <nd ref="600382321"/>
    <nd ref="864641463"/>
    <tag k="highway" v="residential"/>
    <tag k="maxspeed" v="50"/>
    <tag k="maxspeed:source" v="default residential speed limit in Australia"/>
    <tag k="name" v="Arthur Street"/>
    <tag k="oneway" v="yes"/>
  </way>
  <way id="4577988" version="7" timestamp="2011-03-13T03:06:52Z" uid="7617" user="Franc" changeset="7540475">
    <nd ref="15194903"/>
    <nd ref="1199570922"/>
    <nd ref="28914477"/>
    <nd ref="28914478"/>
    <nd ref="570109208"/>
    <nd ref="600382319"/>
    <nd ref="600382321"/>
    <nd ref="864641463"/>
    <tag k="highway" v="residential"/>
    <tag k="maxspeed" v="50"/>
    <tag k="maxspeed:source" v="default residential speed limit in Australia"/>
    <tag k="name" v="Arthur Street"/>
    <tag k="oneway" v="yes"/>
  </way>
  <way id="4577988" version="8" timestamp="2011-04-24T01:34:45Z" uid="7617" user="Franc" changeset="7948779">
    <nd ref="15194903"/>
    <nd ref="1199570922"/>
    <nd ref="28914477"/>
    <nd ref="1257470109"/>
    <nd ref="28914478"/>
    <nd ref="570109208"/>
    <nd ref="600382319"/>
    <nd ref="600382321"/>
    <nd ref="864641463"/>
    <tag k="highway" v="residential"/>
    <tag k="maxspeed" v="50"/>
    <tag k="maxspeed:source" v="default residential speed limit in Australia"/>
    <tag k="name" v="Arthur Street"/>
    <tag k="oneway" v="yes"/>
  </way>
  <way id="4577988" version="9" timestamp="2012-01-15T00:01:56Z" uid="147510" user="woodpeck_fixbot" changeset="10393736">
    <nd ref="15194903"/>
    <nd ref="1199570922"/>
    <nd ref="28914477"/>
    <nd ref="1257470109"/>
    <nd ref="28914478"/>
    <nd ref="570109208"/>
    <nd ref="600382319"/>
    <nd ref="600382321"/>
    <nd ref="864641463"/>
    <tag k="highway" v="residential"/>
    <tag k="name" v="Arthur Street"/>
    <tag k="oneway" v="yes"/>
  </way>
  <way id="4577989" version="1" timestamp="2007-06-17T08:01:33Z" uid="7617" user="Franc" changeset="100271">
    <nd ref="28914479"/>
    <nd ref="28914480"/>
    <nd ref="28914481"/>
    <nd ref="29376109"/>
    <tag k="abutters" v="residential"/>
    <tag k="created_by" v="JOSM"/>
    <tag k="highway" v="residential"/>
    <tag k="name" v="Francis Street"/>
  </way>
  <way id="4577989" version="2" timestamp="2009-12-02T05:37:33Z" uid="30201" user="rrankin" changeset="3269534">
    <nd ref="28914479"/>
    <nd ref="28914480"/>
    <nd ref="28914481"/>
    <nd ref="29376109"/>
    <tag k="highway" v="residential"/>
    <tag k="name" v="Francis Street"/>
  </way>
  <way id="4577989" version="3" timestamp="2010-07-08T02:54:48Z" uid="74617" user="JohnSmith" changeset="5163091">
    <nd ref="28914479"/>
    <nd ref="28914480"/>
    <nd ref="28914481"/>
    <nd ref="29376109"/>
    <tag k="highway" v="residential"/>
    <tag k="maxspeed" v="50"/>
    <tag k="maxspeed:source" v="default residential speed limit in Australia"/>
    <tag k="name" v="Francis Street"/>
  </way>
  <way id="4577989" version="4" timestamp="2010-08-17T11:06:23Z" uid="7617" user="Franc" changeset="5516696">
    <nd ref="28914479"/>
    <nd ref="864641459"/>
    <nd ref="28914480"/>
    <nd ref="864641457"/>
    <tag k="highway" v="residential"/>
    <tag k="maxspeed" v="50"/>
    <tag k="maxspeed:source" v="default residential speed limit in Australia"/>
    <tag k="name" v="Francis Street"/>
    <tag k="restriction" v="school_zone"/>
  </way>
  <way id="4577989" version="5" timestamp="2012-01-15T00:01:58Z" uid="147510" user="woodpeck_fixbot" changeset="10393736">
    <nd ref="28914479"/>
    <nd ref="864641459"/>
    <nd ref="28914480"/>
    <nd ref="864641457"/>
    <tag k="highway" v="residential"/>
    <tag k="name" v="Francis Street"/>
    <tag k="restriction" v="school_zone"/>
  </way>
  <way id="4577989" version="6" timestamp="2012-02-28T02:51:00Z" uid="7523" user="inas" changeset="10815385">
    <nd ref="28914479"/>
    <nd ref="28914480"/>
    <nd ref="864641457"/>
    <tag k="highway" v="residential"/>
    <tag k="name" v="Francis Street"/>
    <tag k="restriction" v="school_zone"/>
  </way>
  <way id="4577990" version="1" timestamp="2007-06-17T08:01:36Z" uid="7617" user="Franc" changeset="100271">
    <nd ref="28914481"/>
    <nd ref="28914477"/>
    <tag k="abutters" v="residential"/>
    <tag k="created_by" v="JOSM"/>
    <tag k="highway" v="residential"/>
    <tag k="name" v="Anne Street"/>
  </way>
  <way id="4577990" version="2" timestamp="2009-12-02T05:37:33Z" uid="30201" user="rrankin" changeset="3269534">
    <nd ref="28914481"/>
    <nd ref="28914477"/>
    <tag k="highway" v="residential"/>
    <tag k="name" v="Anne Street"/>
  </way>
  <way id="4577990" version="3" timestamp="2010-07-08T02:55:43Z" uid="74617" user="JohnSmith" changeset="5163091">
    <nd ref="28914481"/>
    <nd ref="28914477"/>
    <tag k="highway" v="residential"/>
    <tag k="maxspeed" v="50"/>
    <tag k="maxspeed:source" v="default residential speed limit in Australia"/>
    <tag k="name" v="Anne Street"/>
  </way>
  <way id="4577990" version="4" timestamp="2012-01-15T00:01:59Z" uid="147510" user="woodpeck_fixbot" changeset="10393736">
    <nd ref="28914481"/>
    <nd ref="28914477"/>
    <tag k="highway" v="residential"/>
    <tag k="name" v="Anne Street"/>
  </way>
  <way id="4577991" version="1" timestamp="2007-06-17T08:01:36Z" uid="7617" user="Franc" changeset="100271">
    <nd ref="28914482"/>
    <nd ref="28914484"/>
    <tag k="abutters" v="residential"/>
    <tag k="created_by" v="JOSM"/>
    <tag k="highway" v="residential"/>
    <tag k="name" v="Albion Street"/>
  </way>
  <way id="4577991" version="2" timestamp="2009-11-24T19:26:27Z" uid="7617" user="Franc" changeset="3206945">
    <nd ref="28914482"/>
    <nd ref="570109218"/>
    <nd ref="28914484"/>
    <tag k="abutters" v="residential"/>
    <tag k="highway" v="residential"/>
    <tag k="name" v="Albion Street"/>
  </way>
  <way id="4577991" version="3" timestamp="2009-12-02T05:37:35Z" uid="30201" user="rrankin" changeset="3269534">
    <nd ref="28914482"/>
    <nd ref="570109218"/>
    <nd ref="28914484"/>
    <tag k="highway" v="residential"/>
    <tag k="name" v="Albion Street"/>
  </way>
  <way id="4577991" version="4" timestamp="2010-07-08T02:53:38Z" uid="74617" user="JohnSmith" changeset="5163091">
    <nd ref="28914482"/>
    <nd ref="570109218"/>
    <nd ref="28914484"/>
    <tag k="highway" v="residential"/>
    <tag k="maxspeed" v="50"/>
    <tag k="maxspeed:source" v="default residential speed limit in Australia"/>
    <tag k="name" v="Albion Street"/>
  </way>
  <way id="4577991" version="5" timestamp="2012-01-15T00:02:00Z" uid="147510" user="woodpeck_fixbot" changeset="10393736">
    <nd ref="28914482"/>
    <nd ref="570109218"/>
    <nd ref="28914484"/>
    <tag k="highway" v="residential"/>
    <tag k="name" v="Albion Street"/>
  </way>
  <way id="4577993" version="1" timestamp="2007-06-19T12:33:01Z" uid="7617" user="Franc" changeset="103752">
    <nd ref="29387505"/>
    <nd ref="28914484"/>
    <nd ref="28914485"/>
    <nd ref="28914483"/>
    <tag k="abutters" v="residential"/>
    <tag k="created_by" v="JOSM"/>
    <tag k="highway" v="residential"/>
    <tag k="name" v="Fletcher Street"/>
  </way>
  <way id="4577993" version="2" timestamp="2008-02-19T09:45:07Z" uid="7617" user="Franc" changeset="158686">
    <nd ref="29387505"/>
    <nd ref="28914484"/>
    <nd ref="28914485"/>
    <tag k="abutters" v="residential"/>
    <tag k="created_by" v="JOSM"/>
    <tag k="highway" v="residential"/>
    <tag k="name" v="Fletcher Street"/>
  </way>
  <way id="4577993" version="3" timestamp="2009-12-02T05:37:35Z" uid="30201" user="rrankin" changeset="3269534">
    <nd ref="29387505"/>
    <nd ref="28914484"/>
    <nd ref="28914485"/>
    <tag k="highway" v="residential"/>
    <tag k="name" v="Fletcher Street"/>
  </way>
  <way id="4577993" version="4" timestamp="2010-07-08T02:54:21Z" uid="74617" user="JohnSmith" changeset="5163091">
    <nd ref="29387505"/>
    <nd ref="28914484"/>
    <nd ref="28914485"/>
    <tag k="highway" v="residential"/>
    <tag k="maxspeed" v="50"/>
    <tag k="maxspeed:source" v="default residential speed limit in Australia"/>
    <tag k="name" v="Fletcher Street"/>
  </way>
  <way id="4577993" version="5" timestamp="2011-04-09T13:53:09Z" uid="7617" user="Franc" changeset="7813520">
    <nd ref="29387505"/>
    <nd ref="28914484"/>
    <nd ref="1238575959"/>
    <tag k="highway" v="residential"/>
    <tag k="maxspeed" v="50"/>
    <tag k="maxspeed:source" v="default residential speed limit in Australia"/>
    <tag k="name" v="Fletcher Street"/>
    <tag k="restriction" v="school_zone"/>
  </way>
  <way id="4577993" version="6" timestamp="2012-01-15T00:02:02Z" uid="147510" user="woodpeck_fixbot" changeset="10393736">
    <nd ref="29387505"/>
    <nd ref="28914484"/>
    <nd ref="1238575959"/>
    <tag k="highway" v="residential"/>
    <tag k="name" v="Fletcher Street"/>
    <tag k="restriction" v="school_zone"/>
  </way>
  <way id="4577995" version="1" timestamp="2007-05-31T02:03:53Z" uid="7617" user="Franc" changeset="73934">
    <nd ref="28448544"/>
    <nd ref="28914486"/>
    <tag k="abutters" v="residential"/>
    <tag k="created_by" v="JOSM"/>
    <tag k="highway" v="residential"/>
    <tag k="name" v="Moncur Street"/>
  </way>
  <way id="4577995" version="2" timestamp="2008-10-07T02:30:27Z" uid="20949" user="Ebenezer" changeset="139987">
    <nd ref="28448544"/>
    <nd ref="28914486"/>
    <tag k="abutters" v="residential"/>
    <tag k="created_by" v="Potlatch 0.10d"/>
    <tag k="highway" v="residential"/>
    <tag k="lcn_ref" v="L9"/>
    <tag k="name" v="Moncur Street"/>
  </way>
  <way id="4577995" version="3" timestamp="2009-12-02T22:58:10Z" uid="30201" user="rrankin" changeset="3276441">
    <nd ref="28448544"/>
    <nd ref="28914486"/>
    <tag k="highway" v="residential"/>
    <tag k="lcn_ref" v="L9"/>
    <tag k="name" v="Moncur Street"/>
  </way>
  <way id="4577995" version="4" timestamp="2010-07-08T02:53:14Z" uid="74617" user="JohnSmith" changeset="5163091">
    <nd ref="28448544"/>
    <nd ref="28914486"/>
    <tag k="highway" v="residential"/>
    <tag k="lcn_ref" v="L9"/>
    <tag k="maxspeed" v="50"/>
    <tag k="maxspeed:source" v="default residential speed limit in Australia"/>
    <tag k="name" v="Moncur Street"/>
  </way>
  <way id="4577995" version="5" timestamp="2012-01-15T00:02:03Z" uid="147510" user="woodpeck_fixbot" changeset="10393736">
    <nd ref="28448544"/>
    <nd ref="28914486"/>
    <tag k="highway" v="residential"/>
    <tag k="lcn_ref" v="L9"/>
    <tag k="name" v="Moncur Street"/>
  </way>
  <way id="4577996" version="1" timestamp="2007-05-30T02:29:23Z" uid="7617" user="Franc" changeset="72513">
    <nd ref="28448550"/>
    <nd ref="28914487"/>
    <tag k="abutters" v="residential"/>
    <tag k="created_by" v="JOSM"/>
    <tag k="highway" v="residential"/>
    <tag k="name" v="Jersey Street"/>
  </way>
  <way id="4577996" version="2" timestamp="2009-12-02T22:58:09Z" uid="30201" user="rrankin" changeset="3276441">
    <nd ref="28448550"/>
    <nd ref="28914487"/>
    <tag k="highway" v="residential"/>
    <tag k="name" v="Jersey Street"/>
  </way>
  <way id="4577996" version="3" timestamp="2010-07-08T02:53:23Z" uid="74617" user="JohnSmith" changeset="5163091">
    <nd ref="28448550"/>
    <nd ref="28914487"/>
    <tag k="highway" v="residential"/>
    <tag k="maxspeed" v="50"/>
    <tag k="maxspeed:source" v="default residential speed limit in Australia"/>
    <tag k="name" v="Jersey Street"/>
  </way>
  <way id="4577996" version="4" timestamp="2012-01-15T00:02:04Z" uid="147510" user="woodpeck_fixbot" changeset="10393736">
    <nd ref="28448550"/>
    <nd ref="28914487"/>
    <tag k="highway" v="residential"/>
    <tag k="name" v="Jersey Street"/>
  </way>
</osm>
