<?xml version='1.0' encoding='UTF-8'?>
<osm version="0.6" generator="libosmium/2.20.0">
  <way id="45960564" version="2" timestamp="2010-04-02T20:40:17Z" uid="20587" user="balrog-kun" changeset="4306764">
    <nd ref="140383666"/>
    <nd ref="585271751"/>
    <nd ref="585271752"/>
    <tag k="highway" v="residential"/>
    <tag k="name" v="Kentfield Place"/>
    <tag k="oneway" v="yes"/>
    <tag k="tiger:cfcc" v="A41"/>
    <tag k="tiger:county" v="Washoe, NV"/>
    <tag k="tiger:name_base" v="Kentfield"/>
    <tag k="tiger:name_type" v="Pl"/>
    <tag k="tiger:reviewed" v="yes"/>
    <tag k="tiger:separated" v="no"/>
    <tag k="tiger:source" v="tiger_import_dch_v0.6_20070828"/>
    <tag k="tiger:tlid" v="107120574"/>
  </way>
  <way id="45960566" version="2" timestamp="2010-04-02T20:40:18Z" uid="20587" user="balrog-kun" changeset="4306764">
    <nd ref="585271752"/>
    <nd ref="585271753"/>
    <nd ref="585271754"/>
    <nd ref="585271755"/>
    <nd ref="585271756"/>
    <nd ref="585271757"/>
    <nd ref="140336324"/>
    <tag k="highway" v="residential"/>
    <tag k="name" v="Kentfield Place"/>
    <tag k="oneway" v="yes"/>
    <tag k="tiger:cfcc" v="A41"/>
    <tag k="tiger:county" v="Washoe, NV"/>
    <tag k="tiger:name_base" v="Kentfield"/>
    <tag k="tiger:name_type" v="Pl"/>
    <tag k="tiger:reviewed" v="yes"/>
    <tag k="tiger:separated" v="no"/>
    <tag k="tiger:source" v="tiger_import_dch_v0.6_20070828"/>
    <tag k="tiger:tlid" v="107120574"/>
  </way>
  <way id="45960568" version="2" timestamp="2010-04-02T20:40:18Z" uid="20587" user="balrog-kun" changeset="4306764">
    <nd ref="140336324"/>
    <nd ref="585271758"/>
    <nd ref="585271759"/>
    <nd ref="585271760"/>
    <nd ref="140383666"/>
    <tag k="highway" v="residential"/>
    <tag k="name" v="Kentfield Place"/>
    <tag k="oneway" v="yes"/>
    <tag k="tiger:cfcc" v="A41"/>
    <tag k="tiger:county" v="Washoe, NV"/>
    <tag k="tiger:name_base" v="Kentfield"/>
    <tag k="tiger:name_type" v="Pl"/>
    <tag k="tiger:reviewed" v="yes"/>
    <tag k="tiger:separated" v="no"/>
    <tag k="tiger:source" v="tiger_import_dch_v0.6_20070828"/>
    <tag k="tiger:tlid" v="107120574"/>
  </way>
  <way id="45960573" version="2" timestamp="2010-04-02T20:40:18Z" uid="20587" user="balrog-kun" changeset="4306764">
    <nd ref="585271761"/>
    <nd ref="585271762"/>
    <nd ref="585271763"/>
    <nd ref="585271764"/>
    <nd ref="585271765"/>
    <nd ref="585271766"/>
    <nd ref="585271767"/>
    <nd ref="585271768"/>
    <nd ref="585271769"/>
    <tag k="highway" v="residential"/>
    <tag k="name" v="Stonechase Court"/>
  </way>
  <way id="45960582" version="2" timestamp="2010-04-02T20:40:18Z" uid="20587" user="balrog-kun" changeset="4306764">
    <nd ref="585271770"/>
    <nd ref="585271771"/>
    <nd ref="585271772"/>
    <nd ref="585271773"/>
    <nd ref="585271774"/>
    <nd ref="585271775"/>
    <nd ref="140342589"/>
    <nd ref="140342592"/>
    <nd ref="140342596"/>
    <nd ref="140342598"/>
    <nd ref="140342601"/>
    <nd ref="140342604"/>
    <nd ref="140342607"/>
    <nd ref="140342610"/>
    <nd ref="140342613"/>
    <nd ref="560976697"/>
    <nd ref="560976910"/>
    <nd ref="560976900"/>
    <nd ref="140342616"/>
    <nd ref="140342620"/>
    <nd ref="559486358"/>
    <nd ref="140342623"/>
    <tag k="highway" v="residential"/>
    <tag k="name" v="Carat Avenue"/>
    <tag k="tiger:cfcc" v="A41"/>
    <tag k="tiger:county" v="Washoe, NV"/>
    <tag k="tiger:name_base" v="Carat"/>
    <tag k="tiger:name_type" v="Ave"/>
    <tag k="tiger:reviewed" v="no"/>
    <tag k="tiger:separated" v="no"/>
    <tag k="tiger:source" v="tiger_import_dch_v0.6_20070828"/>
    <tag k="tiger:tlid" v="107114501:107114502:107107931:107107932"/>
  </way>
  <way id="45960590" version="2" timestamp="2010-04-02T20:40:19Z" uid="20587" user="balrog-kun" changeset="4306764">
    <nd ref="585271770"/>
    <nd ref="585271776"/>
    <nd ref="585271777"/>
    <nd ref="585271778"/>
    <nd ref="585271779"/>
    <nd ref="585271780"/>
    <nd ref="585271781"/>
    <nd ref="585271782"/>
    <nd ref="585271783"/>
    <nd ref="585271784"/>
    <nd ref="585271785"/>
    <nd ref="585271786"/>
    <tag k="highway" v="residential"/>
    <tag k="name" v="Carat Avenue"/>
    <tag k="oneway" v="yes"/>
    <tag k="tiger:cfcc" v="A41"/>
    <tag k="tiger:county" v="Washoe, NV"/>
    <tag k="tiger:name_base" v="Carat"/>
    <tag k="tiger:name_type" v="Ave"/>
    <tag k="tiger:reviewed" v="yes"/>
    <tag k="tiger:separated" v="no"/>
    <tag k="tiger:source" v="tiger_import_dch_v0.6_20070828"/>
    <tag k="tiger:tlid" v="107114501:107114502:107107931:107107932"/>
  </way>
  <way id="45960596" version="1" timestamp="2009-12-10T20:04:53Z" uid="205264" user="Sterol Andro" changeset="3344590">
    <nd ref="585271790"/>
    <nd ref="585271791"/>
    <nd ref="585271793"/>
    <tag k="highway" v="tertiary"/>
    <tag k="name" v="Via Antonio Gramsci"/>
  </way>
  <way id="45960596" version="2" timestamp="2010-01-06T13:08:53Z" uid="205264" user="Sterol Andro" changeset="3553351">
    <nd ref="585271790"/>
    <nd ref="585271791"/>
    <nd ref="606507567"/>
    <tag k="highway" v="tertiary"/>
    <tag k="name" v="Via Antonio Gramsci"/>
  </way>
  <way id="45960596" version="3" timestamp="2010-01-29T11:25:37Z" uid="68842" user="noperante" changeset="3742332">
    <nd ref="585271790"/>
    <nd ref="622322279"/>
    <nd ref="585271791"/>
    <nd ref="606507567"/>
    <tag k="highway" v="tertiary"/>
    <tag k="name" v="Via Antonio Gramsci"/>
  </way>
  <way id="45960596" version="4" timestamp="2010-05-27T15:39:15Z" uid="90379" user="Andrea Musuruane" changeset="4823322">
    <nd ref="585271790"/>
    <nd ref="622322279"/>
    <nd ref="585271791"/>
    <nd ref="606507567"/>
    <tag k="highway" v="unclassified"/>
    <tag k="name" v="Via Antonio Gramsci"/>
  </way>
  <way id="45960601" version="1" timestamp="2009-12-10T20:04:54Z" uid="205264" user="Sterol Andro" changeset="3344590">
    <nd ref="585271797"/>
    <nd ref="585271799"/>
    <nd ref="585271801"/>
    <nd ref="585271803"/>
    <nd ref="585271791"/>
    <tag k="highway" v="tertiary"/>
    <tag k="name" v="Via dei Seminari"/>
  </way>
  <way id="45960601" version="2" timestamp="2010-05-01T12:15:07Z" uid="205264" user="Sterol Andro" changeset="4574199">
    <nd ref="585271797"/>
    <nd ref="585271799"/>
    <nd ref="585271801"/>
    <nd ref="585271803"/>
    <nd ref="715263872"/>
    <nd ref="585271791"/>
    <tag k="highway" v="tertiary"/>
    <tag k="name" v="Via dei Seminari"/>
  </way>
  <way id="45960601" version="3" timestamp="2010-05-27T15:39:25Z" uid="90379" user="Andrea Musuruane" changeset="4823322">
    <nd ref="585271797"/>
    <nd ref="585271801"/>
    <tag k="highway" v="unclassified"/>
    <tag k="name" v="Via dei Seminari"/>
  </way>
  <way id="45960601" version="4" timestamp="2010-06-21T23:20:14Z" uid="205264" user="Sterol Andro" changeset="5047562">
    <nd ref="585271801"/>
    <nd ref="585271797"/>
    <tag k="highway" v="unclassified"/>
    <tag k="name" v="Via Bernardino Galliari"/>
    <tag k="oneway" v="yes"/>
  </way>
  <way id="45960601" version="5" timestamp="2012-03-14T00:26:52Z" uid="211665" user="Silviopen" changeset="10973670"/>
  <way id="45960603" version="1" timestamp="2009-12-10T20:04:55Z" uid="205264" user="Sterol Andro" changeset="3344590">
    <nd ref="585271807"/>
    <nd ref="585271812"/>
    <nd ref="585271797"/>
    <tag k="highway" v="tertiary"/>
  </way>
  <way id="45960603" version="2" timestamp="2010-05-27T15:39:18Z" uid="90379" user="Andrea Musuruane" changeset="4823322">
    <nd ref="585271807"/>
    <nd ref="585271797"/>
    <tag k="highway" v="unclassified"/>
  </way>
  <way id="45960606" version="1" timestamp="2009-12-10T20:04:55Z" uid="205264" user="Sterol Andro" changeset="3344590">
    <nd ref="585271791"/>
    <nd ref="585271815"/>
    <nd ref="585271818"/>
    <nd ref="583031535"/>
    <tag k="highway" v="tertiary"/>
    <tag k="name" v="Via Giuseppe Garibaldi"/>
  </way>
  <way id="45960606" version="2" timestamp="2010-01-29T11:25:37Z" uid="68842" user="noperante" changeset="3742332">
    <nd ref="585271791"/>
    <nd ref="622322280"/>
    <nd ref="585271815"/>
    <nd ref="585271818"/>
    <nd ref="583031535"/>
    <tag k="highway" v="tertiary"/>
    <tag k="name" v="Via Giuseppe Garibaldi"/>
  </way>
  <way id="45960606" version="3" timestamp="2010-02-08T15:20:21Z" uid="113023" user="glaucos" changeset="3824108">
    <nd ref="585271791"/>
    <nd ref="622322280"/>
    <nd ref="585271815"/>
    <nd ref="585271818"/>
    <nd ref="633363140"/>
    <tag k="highway" v="tertiary"/>
    <tag k="name" v="Via Giuseppe Garibaldi"/>
  </way>
  <way id="45960606" version="4" timestamp="2010-05-27T15:39:23Z" uid="90379" user="Andrea Musuruane" changeset="4823322">
    <nd ref="585271791"/>
    <nd ref="622322280"/>
    <nd ref="585271815"/>
    <nd ref="585271818"/>
    <nd ref="633363140"/>
    <tag k="highway" v="unclassified"/>
    <tag k="name" v="Via Giuseppe Garibaldi"/>
  </way>
  <way id="45960606" version="5" timestamp="2010-06-16T22:56:21Z" uid="205264" user="Sterol Andro" changeset="5005193">
    <nd ref="622322280"/>
    <nd ref="585271791"/>
    <tag k="highway" v="unclassified"/>
    <tag k="name" v="Via Giuseppe Garibaldi"/>
    <tag k="oneway" v="yes"/>
  </way>
  <way id="45960612" version="2" timestamp="2010-04-02T20:40:20Z" uid="20587" user="balrog-kun" changeset="4306764">
    <nd ref="585271786"/>
    <nd ref="585271787"/>
    <nd ref="585271788"/>
    <nd ref="585271789"/>
    <nd ref="585271792"/>
    <nd ref="585271794"/>
    <nd ref="585271795"/>
    <nd ref="585271796"/>
    <nd ref="585271798"/>
    <nd ref="585271800"/>
    <nd ref="585271802"/>
    <nd ref="585271804"/>
    <nd ref="585271805"/>
    <nd ref="585271806"/>
    <nd ref="585271808"/>
    <nd ref="585271809"/>
    <nd ref="585271810"/>
    <nd ref="585271811"/>
    <nd ref="585271813"/>
    <nd ref="585271814"/>
    <nd ref="585271816"/>
    <nd ref="585271817"/>
    <nd ref="585271819"/>
    <nd ref="585271820"/>
    <nd ref="585271821"/>
    <nd ref="585271822"/>
    <nd ref="585271824"/>
    <nd ref="585271825"/>
    <nd ref="585271827"/>
    <nd ref="585271829"/>
    <nd ref="585271831"/>
    <nd ref="585271834"/>
    <nd ref="585271836"/>
    <nd ref="585271838"/>
    <nd ref="585271840"/>
    <nd ref="585271750"/>
    <nd ref="585271752"/>
    <tag k="highway" v="residential"/>
    <tag k="name" v="Carat Avenue"/>
    <tag k="tiger:cfcc" v="A41"/>
    <tag k="tiger:county" v="Washoe, NV"/>
    <tag k="tiger:name_base" v="Carat"/>
    <tag k="tiger:name_type" v="Ave"/>
    <tag k="tiger:reviewed" v="yes"/>
    <tag k="tiger:separated" v="no"/>
    <tag k="tiger:source" v="tiger_import_dch_v0.6_20070828"/>
    <tag k="tiger:tlid" v="107114501:107114502:107107931:107107932"/>
  </way>
  <way id="45960615" version="1" timestamp="2009-12-10T20:04:57Z" uid="205264" user="Sterol Andro" changeset="3344590">
    <nd ref="301465018"/>
    <nd ref="585271823"/>
    <nd ref="585271826"/>
    <nd ref="585271828"/>
    <nd ref="585271830"/>
    <nd ref="585271832"/>
    <nd ref="585271833"/>
    <nd ref="585271835"/>
    <nd ref="585271837"/>
    <nd ref="585271839"/>
    <nd ref="585271841"/>
    <nd ref="585271842"/>
    <nd ref="401349596"/>
    <tag k="highway" v="tertiary"/>
    <tag k="name" v="Viale Giosue&apos; Carducci"/>
  </way>
  <way id="45960615" version="2" timestamp="2009-12-10T23:39:36Z" uid="205264" user="Sterol Andro" changeset="3345871">
    <nd ref="301465018"/>
    <nd ref="585271823"/>
    <nd ref="585271826"/>
    <nd ref="585271828"/>
    <nd ref="585271830"/>
    <nd ref="585271832"/>
    <nd ref="585271833"/>
    <nd ref="585271835"/>
    <tag k="highway" v="tertiary"/>
    <tag k="name" v="Viale Giacomo Matteotti"/>
  </way>
  <way id="45960615" version="3" timestamp="2011-03-28T10:15:42Z" uid="90379" user="Andrea Musuruane" changeset="7695158">
    <nd ref="301465018"/>
    <nd ref="1222996003"/>
    <nd ref="585271823"/>
    <nd ref="585271826"/>
    <nd ref="585271828"/>
    <nd ref="585271830"/>
    <nd ref="585271832"/>
    <nd ref="585271833"/>
    <nd ref="585271835"/>
    <tag k="highway" v="tertiary"/>
    <tag k="name" v="Viale Giacomo Matteotti"/>
  </way>
  <way id="45960632" version="1" timestamp="2009-12-10T20:04:59Z" uid="205264" user="Sterol Andro" changeset="3344590">
    <nd ref="566831344"/>
    <nd ref="301465018"/>
    <tag k="highway" v="tertiary"/>
    <tag k="name" v="Viale Giacomo Matteotti"/>
  </way>
  <way id="45960632" version="2" timestamp="2010-05-27T15:39:18Z" uid="90379" user="Andrea Musuruane" changeset="4823322">
    <nd ref="566831344"/>
    <nd ref="301465018"/>
    <tag k="highway" v="unclassified"/>
    <tag k="name" v="Viale Giacomo Matteotti"/>
  </way>
  <way id="45960632" version="3" timestamp="2011-03-28T10:15:51Z" uid="90379" user="Andrea Musuruane" changeset="7695158">
    <nd ref="1222996004"/>
    <nd ref="1222996000"/>
    <nd ref="301465018"/>
    <tag k="highway" v="unclassified"/>
    <tag k="name" v="Viale Giacomo Matteotti"/>
    <tag k="oneway" v="yes"/>
  </way>
  <way id="45960635" version="1" timestamp="2009-12-10T20:05:00Z" uid="205264" user="Sterol Andro" changeset="3344590">
    <nd ref="585271864"/>
    <nd ref="585271835"/>
    <tag k="highway" v="tertiary"/>
    <tag k="name" v="Via Rodolfo Caraccio"/>
    <tag k="oneway" v="yes"/>
  </way>
  <way id="45960635" version="2" timestamp="2010-05-27T15:39:16Z" uid="90379" user="Andrea Musuruane" changeset="4823322">
    <nd ref="585271864"/>
    <nd ref="585271835"/>
    <tag k="highway" v="unclassified"/>
    <tag k="name" v="Via Rodolfo Caraccio"/>
    <tag k="oneway" v="yes"/>
  </way>
  <way id="45960636" version="1" timestamp="2009-12-10T20:05:00Z" uid="205264" user="Sterol Andro" changeset="3344590">
    <nd ref="585271864"/>
    <nd ref="585271790"/>
    <tag k="highway" v="tertiary"/>
    <tag k="name" v="Via XX Settembre"/>
  </way>
  <way id="45960636" version="2" timestamp="2010-04-07T22:00:28Z" uid="205264" user="Sterol Andro" changeset="4359753">
    <nd ref="585271864"/>
    <nd ref="687962392"/>
    <nd ref="585271790"/>
    <tag k="highway" v="tertiary"/>
    <tag k="name" v="Via XX Settembre"/>
  </way>
  <way id="45960636" version="3" timestamp="2010-05-27T15:39:28Z" uid="90379" user="Andrea Musuruane" changeset="4823322">
    <nd ref="585271864"/>
    <nd ref="687962392"/>
    <nd ref="585271790"/>
    <tag k="highway" v="unclassified"/>
    <tag k="name" v="Via XX Settembre"/>
  </way>
  <way id="45960644" version="1" timestamp="2009-12-10T20:05:01Z" uid="205264" user="Sterol Andro" changeset="3344590">
    <nd ref="401297681"/>
    <nd ref="583755703"/>
    <tag k="highway" v="residential"/>
  </way>
  <way id="45960644" version="2" timestamp="2012-03-29T13:39:25Z" uid="211665" user="Silviopen" changeset="11139009"/>
</osm>
