<?xml version='1.0' encoding='UTF-8'?>
<osm version="0.6" generator="libosmium/2.20.0">
  <way id="46103625" version="1" timestamp="2009-12-12T14:01:49Z" uid="171838" user="argrath" changeset="3355906">
    <nd ref="323442784"/>
    <nd ref="323442630"/>
    <tag k="highway" v="service"/>
    <tag k="oneway" v="yes"/>
    <tag k="service" v="parking_aisle"/>
  </way>
  <way id="46103626" version="1" timestamp="2009-12-12T14:01:49Z" uid="171838" user="argrath" changeset="3355906">
    <nd ref="323442732"/>
    <nd ref="323442733"/>
    <nd ref="323442734"/>
    <nd ref="323442744"/>
    <nd ref="323442753"/>
    <nd ref="323442767"/>
    <nd ref="323442784"/>
    <tag k="highway" v="service"/>
    <tag k="oneway" v="yes"/>
    <tag k="service" v="parking_aisle"/>
  </way>
  <way id="46103705" version="1" timestamp="2009-12-12T14:05:02Z" uid="64977" user="CLoeser" changeset="3355929">
    <nd ref="587699252"/>
    <nd ref="587699253"/>
    <nd ref="587699254"/>
    <nd ref="587699255"/>
    <nd ref="587699256"/>
    <nd ref="587699257"/>
    <nd ref="587699258"/>
    <nd ref="587699259"/>
    <nd ref="587699260"/>
    <nd ref="587699252"/>
    <tag k="landuse" v="residential"/>
  </way>
  <way id="46103705" version="2" timestamp="2010-01-01T18:12:41Z" uid="63388" user="Dennis[B]" changeset="3512467">
    <nd ref="587699252"/>
    <nd ref="587699253"/>
    <nd ref="602656107"/>
    <nd ref="587699254"/>
    <nd ref="587699255"/>
    <nd ref="587699256"/>
    <nd ref="587699257"/>
    <nd ref="587699258"/>
    <nd ref="587699259"/>
    <nd ref="587699260"/>
    <nd ref="587699252"/>
    <tag k="landuse" v="residential"/>
  </way>
  <way id="46103705" version="3" timestamp="2012-01-08T18:23:47Z" uid="66904" user="OSchlüter" changeset="10334833"/>
  <way id="46103706" version="1" timestamp="2009-12-12T14:05:03Z" uid="64977" user="CLoeser" changeset="3355929">
    <nd ref="587699261"/>
    <nd ref="587699262"/>
    <nd ref="587699263"/>
    <nd ref="587699264"/>
    <nd ref="587699265"/>
    <nd ref="587699266"/>
    <nd ref="587699267"/>
    <nd ref="587699268"/>
    <nd ref="587699261"/>
    <tag k="landuse" v="industrial"/>
  </way>
  <way id="46103706" version="2" timestamp="2012-01-08T18:23:47Z" uid="66904" user="OSchlüter" changeset="10334833"/>
  <way id="46103707" version="1" timestamp="2009-12-12T14:05:04Z" uid="64977" user="CLoeser" changeset="3355929">
    <nd ref="587699269"/>
    <nd ref="587699270"/>
    <nd ref="587699271"/>
    <nd ref="587699272"/>
    <nd ref="587699269"/>
    <tag k="description" v="Bootshaus"/>
    <tag k="leisure" v="sports_centre"/>
    <tag k="name" v="Itzehoer Wasserwanderer"/>
    <tag k="note" v="inaccurate"/>
    <tag k="sport" v="canoe"/>
  </way>
  <way id="46103707" version="2" timestamp="2010-12-26T16:51:33Z" uid="388140" user="moelscher" changeset="6769895">
    <nd ref="587699269"/>
    <nd ref="587699270"/>
    <nd ref="587699271"/>
    <nd ref="587699272"/>
    <nd ref="587699269"/>
    <tag k="addr:housename" v="Bootshaus Itzehoer Wasser-Wanderer e.V."/>
    <tag k="addr:housenumber" v="56"/>
    <tag k="addr:postcode" v="D-25524"/>
    <tag k="addr:street" v="Dorfstraße"/>
    <tag k="description" v="Bootshaus"/>
    <tag k="leisure" v="sports_centre"/>
    <tag k="name" v="Itzehoer Wasser-Wanderer e.V."/>
    <tag k="sport" v="canoe"/>
  </way>
  <way id="46103707" version="3" timestamp="2011-03-12T15:04:04Z" uid="5359" user="user_5359" changeset="7534138">
    <nd ref="587699269"/>
    <nd ref="587699270"/>
    <nd ref="587699271"/>
    <nd ref="587699272"/>
    <nd ref="587699269"/>
    <tag k="addr:city" v="Itzehoe"/>
    <tag k="addr:country" v="DE"/>
    <tag k="addr:housenumber" v="56"/>
    <tag k="addr:postcode" v="25524"/>
    <tag k="addr:street" v="Dorfstraße"/>
    <tag k="description" v="Bootshaus"/>
    <tag k="leisure" v="sports_centre"/>
    <tag k="name" v="Itzehoer Wasser-Wanderer e.V."/>
    <tag k="sport" v="canoe"/>
  </way>
  <way id="46103707" version="4" timestamp="2012-01-08T18:23:44Z" uid="66904" user="OSchlüter" changeset="10334833">
    <nd ref="587699269"/>
    <nd ref="1583014177"/>
    <nd ref="1583014181"/>
    <nd ref="587699270"/>
    <nd ref="587699271"/>
    <nd ref="1583014165"/>
    <nd ref="1583014168"/>
    <nd ref="587699272"/>
    <nd ref="587699269"/>
    <tag k="addr:city" v="Itzehoe"/>
    <tag k="addr:country" v="DE"/>
    <tag k="addr:housenumber" v="56"/>
    <tag k="addr:postcode" v="25524"/>
    <tag k="addr:street" v="Dorfstraße"/>
    <tag k="building" v="yes"/>
    <tag k="description" v="Bootshaus"/>
    <tag k="leisure" v="sports_centre"/>
    <tag k="name" v="Itzehoer Wasser-Wanderer e.V."/>
    <tag k="sport" v="canoe"/>
  </way>
  <way id="46103708" version="1" timestamp="2009-12-12T14:05:07Z" uid="64977" user="CLoeser" changeset="3355929">
    <nd ref="587699273"/>
    <nd ref="587699274"/>
    <nd ref="587699275"/>
    <nd ref="587699276"/>
    <nd ref="587699277"/>
    <nd ref="587699278"/>
    <nd ref="587699279"/>
    <nd ref="587699273"/>
    <tag k="natural" v="wood"/>
  </way>
  <way id="46103708" version="2" timestamp="2012-01-08T18:23:47Z" uid="66904" user="OSchlüter" changeset="10334833"/>
</osm>
