<?xml version='1.0' encoding='UTF-8'?>
<osm version="0.6" generator="libosmium/2.20.0">
  <way id="46244781" version="2" timestamp="2010-02-14T17:17:31Z" uid="74617" user="JohnSmith" changeset="3875836">
    <nd ref="61419589"/>
    <nd ref="125123241"/>
    <nd ref="61419673"/>
    <tag k="highway" v="residential"/>
    <tag k="lcn" v="yes"/>
    <tag k="maxspeed" v="50"/>
    <tag k="name" v="Granville Street"/>
  </way>
  <way id="46244781" version="3" timestamp="2010-07-04T04:24:43Z" uid="211951" user="Dr Paul Martin" changeset="5129547">
    <nd ref="61419589"/>
    <nd ref="799946927"/>
    <nd ref="799946928"/>
    <nd ref="125123241"/>
    <nd ref="61419673"/>
    <tag k="highway" v="residential"/>
    <tag k="lcn" v="yes"/>
    <tag k="maxspeed" v="50"/>
    <tag k="name" v="Granville Street"/>
  </way>
  <way id="46244781" version="4" timestamp="2012-01-19T15:19:27Z" uid="147510" user="woodpeck_fixbot" changeset="10436041">
    <nd ref="61419589"/>
    <nd ref="799946927"/>
    <nd ref="799946928"/>
    <nd ref="125123241"/>
    <nd ref="61419673"/>
    <tag k="highway" v="residential"/>
    <tag k="lcn" v="yes"/>
    <tag k="name" v="Granville Street"/>
  </way>
</osm>
