<?xml version='1.0' encoding='UTF-8'?>
<osm version="0.6" generator="libosmium/2.20.0">
  <way id="46270132" version="2" timestamp="2010-07-09T02:42:16Z" uid="74617" user="JohnSmith" changeset="5170713">
    <nd ref="243079973"/>
    <nd ref="26964986"/>
    <tag k="highway" v="residential"/>
    <tag k="maxspeed" v="50"/>
    <tag k="maxspeed:source" v="default residential speed limit in Australia"/>
    <tag k="name" v="Herriotts Boulevard"/>
  </way>
  <way id="46270132" version="3" timestamp="2012-01-19T15:19:43Z" uid="147510" user="woodpeck_fixbot" changeset="10436041">
    <nd ref="243079973"/>
    <nd ref="26964986"/>
    <tag k="highway" v="residential"/>
    <tag k="name" v="Herriotts Boulevard"/>
  </way>
  <way id="46270134" version="2" timestamp="2010-07-09T02:48:43Z" uid="74617" user="JohnSmith" changeset="5170713">
    <nd ref="590790694"/>
    <nd ref="243079974"/>
    <nd ref="590790706"/>
    <tag k="highway" v="residential"/>
    <tag k="maxspeed" v="50"/>
    <tag k="maxspeed:source" v="default residential speed limit in Australia"/>
    <tag k="name" v="Herriotts Boulevard"/>
  </way>
  <way id="46270134" version="3" timestamp="2012-01-19T15:19:44Z" uid="147510" user="woodpeck_fixbot" changeset="10436041">
    <nd ref="590790694"/>
    <nd ref="243079974"/>
    <nd ref="590790706"/>
    <tag k="highway" v="residential"/>
    <tag k="name" v="Herriotts Boulevard"/>
  </way>
  <way id="46270331" version="3" timestamp="2011-06-05T15:50:35Z" uid="9581" user="Lobelt" changeset="8350656">
    <nd ref="266872289"/>
    <nd ref="353656687"/>
    <nd ref="353656688"/>
    <nd ref="353656690"/>
    <nd ref="353656691"/>
    <nd ref="353656692"/>
    <nd ref="353656694"/>
    <nd ref="353656695"/>
    <nd ref="1313198648"/>
    <tag k="admin_level" v="8"/>
    <tag k="boundary" v="administrative"/>
    <tag k="left:city" v="Hochstett"/>
    <tag k="right:city" v="Batzendorf"/>
    <tag k="source" v="Direction Générale des Impôts - Cadastre ; mise à jour : 2008"/>
  </way>
  <way id="46270745" version="2" timestamp="2010-04-05T08:41:04Z" uid="74617" user="JohnSmith" changeset="4330247">
    <nd ref="590829265"/>
    <nd ref="275182963"/>
    <nd ref="275182964"/>
    <nd ref="268554908"/>
    <tag k="highway" v="motorway"/>
    <tag k="maxspeed" v="100"/>
    <tag k="name" v="EastLink"/>
    <tag k="oneway" v="yes"/>
    <tag k="toll" v="yes"/>
  </way>
  <way id="46270745" version="3" timestamp="2010-08-21T03:31:10Z" uid="11111" user="lakeyboy" changeset="5548797">
    <nd ref="590829265"/>
    <nd ref="275182963"/>
    <nd ref="275182964"/>
    <nd ref="268554908"/>
    <nd ref="871397601"/>
    <nd ref="268554909"/>
    <nd ref="268554910"/>
    <nd ref="268554911"/>
    <nd ref="268554947"/>
    <nd ref="268554948"/>
    <nd ref="268554949"/>
    <nd ref="268554950"/>
    <nd ref="268554951"/>
    <nd ref="268554952"/>
    <nd ref="268554953"/>
    <nd ref="268554954"/>
    <nd ref="268554977"/>
    <tag k="highway" v="motorway"/>
    <tag k="maxspeed" v="100"/>
    <tag k="name" v="EastLink"/>
    <tag k="oneway" v="yes"/>
    <tag k="toll" v="yes"/>
  </way>
  <way id="46270745" version="4" timestamp="2010-08-21T03:31:28Z" uid="11111" user="lakeyboy" changeset="5548797">
    <nd ref="590829265"/>
    <nd ref="275182963"/>
    <nd ref="275182964"/>
    <nd ref="268554908"/>
    <nd ref="871397601"/>
    <nd ref="268554909"/>
    <nd ref="268554910"/>
    <nd ref="268554911"/>
    <nd ref="268554947"/>
    <nd ref="268554948"/>
    <nd ref="268554949"/>
    <nd ref="268554950"/>
    <nd ref="268554951"/>
    <nd ref="268554952"/>
    <nd ref="268554953"/>
    <nd ref="268554954"/>
    <nd ref="268554977"/>
    <tag k="highway" v="motorway"/>
    <tag k="lanes" v="3"/>
    <tag k="maxspeed" v="100"/>
    <tag k="name" v="EastLink"/>
    <tag k="oneway" v="yes"/>
    <tag k="toll" v="yes"/>
  </way>
  <way id="46270745" version="5" timestamp="2010-08-21T03:31:54Z" uid="11111" user="lakeyboy" changeset="5548797">
    <nd ref="590829265"/>
    <nd ref="275182963"/>
    <nd ref="275182964"/>
    <nd ref="268554908"/>
    <nd ref="871397601"/>
    <nd ref="871398267"/>
    <nd ref="268554909"/>
    <nd ref="871398268"/>
    <nd ref="268554910"/>
    <nd ref="871398269"/>
    <nd ref="268554911"/>
    <nd ref="268554947"/>
    <nd ref="268554948"/>
    <nd ref="268554949"/>
    <nd ref="268554950"/>
    <nd ref="268554951"/>
    <nd ref="268554952"/>
    <nd ref="268554953"/>
    <nd ref="268554954"/>
    <nd ref="268554977"/>
    <tag k="highway" v="motorway"/>
    <tag k="lanes" v="3"/>
    <tag k="maxspeed" v="100"/>
    <tag k="name" v="EastLink"/>
    <tag k="oneway" v="yes"/>
    <tag k="toll" v="yes"/>
  </way>
  <way id="46270745" version="6" timestamp="2010-08-21T03:53:18Z" uid="11111" user="lakeyboy" changeset="5548797">
    <nd ref="590829265"/>
    <nd ref="871413186"/>
    <nd ref="275182963"/>
    <nd ref="275182964"/>
    <nd ref="268554908"/>
    <nd ref="871397601"/>
    <nd ref="871398267"/>
    <nd ref="268554909"/>
    <nd ref="871398268"/>
    <nd ref="268554910"/>
    <nd ref="871398269"/>
    <nd ref="268554911"/>
    <nd ref="268554947"/>
    <nd ref="268554948"/>
    <nd ref="268554949"/>
    <nd ref="268554950"/>
    <nd ref="268554951"/>
    <nd ref="268554952"/>
    <nd ref="268554953"/>
    <nd ref="268554954"/>
    <nd ref="268554977"/>
    <tag k="highway" v="motorway"/>
    <tag k="lanes" v="3"/>
    <tag k="maxspeed" v="100"/>
    <tag k="name" v="EastLink"/>
    <tag k="oneway" v="yes"/>
    <tag k="toll" v="yes"/>
  </way>
  <way id="46270745" version="7" timestamp="2010-08-21T03:53:35Z" uid="11111" user="lakeyboy" changeset="5548797">
    <nd ref="590829265"/>
    <nd ref="871413186"/>
    <nd ref="275182964"/>
    <nd ref="268554908"/>
    <nd ref="871397601"/>
    <nd ref="871398267"/>
    <nd ref="268554909"/>
    <nd ref="871398268"/>
    <nd ref="268554910"/>
    <nd ref="871398269"/>
    <nd ref="268554911"/>
    <nd ref="268554947"/>
    <nd ref="268554948"/>
    <nd ref="268554949"/>
    <nd ref="268554950"/>
    <nd ref="268554951"/>
    <nd ref="268554952"/>
    <nd ref="268554953"/>
    <nd ref="268554954"/>
    <nd ref="268554977"/>
    <tag k="highway" v="motorway"/>
    <tag k="lanes" v="3"/>
    <tag k="maxspeed" v="100"/>
    <tag k="name" v="EastLink"/>
    <tag k="oneway" v="yes"/>
    <tag k="toll" v="yes"/>
  </way>
  <way id="46270745" version="8" timestamp="2011-11-02T09:37:16Z" uid="46482" user="Leon K" changeset="9720070">
    <nd ref="590829265"/>
    <nd ref="871413186"/>
    <nd ref="275182964"/>
    <nd ref="268554908"/>
    <nd ref="871397601"/>
    <nd ref="871398267"/>
    <nd ref="268554909"/>
    <nd ref="871398268"/>
    <nd ref="268554910"/>
    <nd ref="871398269"/>
    <nd ref="268554911"/>
    <nd ref="268554947"/>
    <nd ref="268554948"/>
    <nd ref="268554949"/>
    <nd ref="268554950"/>
    <nd ref="268554951"/>
    <nd ref="268554952"/>
    <nd ref="268554953"/>
    <nd ref="268554954"/>
    <nd ref="268554977"/>
    <tag k="highway" v="motorway"/>
    <tag k="lanes" v="3"/>
    <tag k="maxspeed" v="100"/>
    <tag k="name" v="EastLink"/>
    <tag k="oneway" v="yes"/>
    <tag k="toll" v="yes"/>
    <tag k="website" v="www.eastlink.com.au"/>
  </way>
  <way id="46270745" version="9" timestamp="2011-12-31T11:17:24Z" uid="46482" user="Leon K" changeset="10253590">
    <nd ref="590829265"/>
    <nd ref="871413186"/>
    <nd ref="275182964"/>
    <nd ref="268554908"/>
    <nd ref="871397601"/>
    <nd ref="871398267"/>
    <nd ref="268554909"/>
    <nd ref="871398268"/>
    <nd ref="268554910"/>
    <nd ref="871398269"/>
    <nd ref="268554911"/>
    <nd ref="268554947"/>
    <nd ref="268554948"/>
    <nd ref="268554949"/>
    <nd ref="268554950"/>
    <nd ref="268554951"/>
    <nd ref="268554952"/>
    <nd ref="268554953"/>
    <nd ref="268554954"/>
    <nd ref="268554977"/>
    <tag k="highway" v="motorway"/>
    <tag k="lanes" v="3"/>
    <tag k="maxspeed" v="100"/>
    <tag k="name" v="EastLink"/>
    <tag k="oneway" v="yes"/>
    <tag k="ref" v="M3"/>
    <tag k="toll" v="yes"/>
    <tag k="website" v="www.eastlink.com.au"/>
  </way>
  <way id="46270746" version="2" timestamp="2010-04-05T08:41:04Z" uid="74617" user="JohnSmith" changeset="4330247">
    <nd ref="590829240"/>
    <nd ref="590829265"/>
    <tag k="bridge" v="yes"/>
    <tag k="highway" v="motorway"/>
    <tag k="maxspeed" v="100"/>
    <tag k="name" v="EastLink"/>
    <tag k="oneway" v="yes"/>
    <tag k="toll" v="yes"/>
  </way>
  <way id="46270746" version="3" timestamp="2010-07-25T22:27:58Z" uid="4467" user="Rosscoe" changeset="5317245">
    <nd ref="590829240"/>
    <nd ref="590829265"/>
    <tag k="bridge" v="yes"/>
    <tag k="highway" v="motorway"/>
    <tag k="layer" v="1"/>
    <tag k="maxspeed" v="100"/>
    <tag k="name" v="EastLink"/>
    <tag k="oneway" v="yes"/>
    <tag k="toll" v="yes"/>
  </way>
  <way id="46270746" version="4" timestamp="2010-08-21T03:54:23Z" uid="11111" user="lakeyboy" changeset="5548797">
    <nd ref="590829240"/>
    <nd ref="590829265"/>
    <tag k="bridge" v="yes"/>
    <tag k="highway" v="motorway"/>
    <tag k="lanes" v="3"/>
    <tag k="layer" v="1"/>
    <tag k="maxspeed" v="100"/>
    <tag k="name" v="EastLink"/>
    <tag k="oneway" v="yes"/>
    <tag k="toll" v="yes"/>
  </way>
  <way id="46270746" version="5" timestamp="2011-11-02T09:37:16Z" uid="46482" user="Leon K" changeset="9720070">
    <nd ref="590829240"/>
    <nd ref="590829265"/>
    <tag k="bridge" v="yes"/>
    <tag k="highway" v="motorway"/>
    <tag k="lanes" v="3"/>
    <tag k="layer" v="1"/>
    <tag k="maxspeed" v="100"/>
    <tag k="name" v="EastLink"/>
    <tag k="oneway" v="yes"/>
    <tag k="toll" v="yes"/>
    <tag k="website" v="www.eastlink.com.au"/>
  </way>
  <way id="46270746" version="6" timestamp="2011-12-31T11:17:23Z" uid="46482" user="Leon K" changeset="10253590">
    <nd ref="590829240"/>
    <nd ref="590829265"/>
    <tag k="bridge" v="yes"/>
    <tag k="highway" v="motorway"/>
    <tag k="lanes" v="3"/>
    <tag k="layer" v="1"/>
    <tag k="maxspeed" v="100"/>
    <tag k="name" v="EastLink"/>
    <tag k="oneway" v="yes"/>
    <tag k="ref" v="M3"/>
    <tag k="toll" v="yes"/>
    <tag k="website" v="www.eastlink.com.au"/>
  </way>
  <way id="46270747" version="2" timestamp="2010-04-05T08:41:01Z" uid="74617" user="JohnSmith" changeset="4330247">
    <nd ref="275183036"/>
    <nd ref="275183037"/>
    <nd ref="275183147"/>
    <nd ref="445180540"/>
    <nd ref="275183252"/>
    <nd ref="314748015"/>
    <nd ref="275183541"/>
    <nd ref="313080980"/>
    <nd ref="268552985"/>
    <tag k="highway" v="motorway"/>
    <tag k="maxspeed" v="100"/>
    <tag k="name" v="EastLink"/>
    <tag k="oneway" v="yes"/>
    <tag k="toll" v="yes"/>
  </way>
  <way id="46270747" version="3" timestamp="2010-06-17T02:29:46Z" uid="11111" user="lakeyboy" changeset="5005711">
    <nd ref="275183036"/>
    <nd ref="275183037"/>
    <nd ref="275183147"/>
    <nd ref="445180540"/>
    <nd ref="275183252"/>
    <nd ref="314748015"/>
    <nd ref="774356300"/>
    <nd ref="275183541"/>
    <nd ref="774356303"/>
    <nd ref="313080980"/>
    <nd ref="268552985"/>
    <tag k="highway" v="motorway"/>
    <tag k="maxspeed" v="100"/>
    <tag k="name" v="EastLink"/>
    <tag k="oneway" v="yes"/>
    <tag k="toll" v="yes"/>
  </way>
  <way id="46270747" version="4" timestamp="2010-06-17T02:39:36Z" uid="11111" user="lakeyboy" changeset="5005711">
    <nd ref="275183036"/>
    <nd ref="275183037"/>
    <nd ref="275183147"/>
    <nd ref="445180540"/>
    <nd ref="275183252"/>
    <nd ref="314748015"/>
    <nd ref="774356300"/>
    <nd ref="275183541"/>
    <nd ref="774356303"/>
    <nd ref="774371765"/>
    <nd ref="313080980"/>
    <nd ref="268552985"/>
    <tag k="highway" v="motorway"/>
    <tag k="maxspeed" v="100"/>
    <tag k="name" v="EastLink"/>
    <tag k="oneway" v="yes"/>
    <tag k="toll" v="yes"/>
  </way>
  <way id="46270747" version="5" timestamp="2010-06-17T02:39:39Z" uid="11111" user="lakeyboy" changeset="5005711">
    <nd ref="275183036"/>
    <nd ref="275183037"/>
    <nd ref="275183147"/>
    <nd ref="445180540"/>
    <nd ref="275183252"/>
    <nd ref="314748015"/>
    <nd ref="774356300"/>
    <nd ref="275183541"/>
    <nd ref="774356303"/>
    <nd ref="774371766"/>
    <nd ref="774371765"/>
    <nd ref="313080980"/>
    <nd ref="268552985"/>
    <tag k="highway" v="motorway"/>
    <tag k="maxspeed" v="100"/>
    <tag k="name" v="EastLink"/>
    <tag k="oneway" v="yes"/>
    <tag k="toll" v="yes"/>
  </way>
  <way id="46270747" version="6" timestamp="2010-06-17T02:39:58Z" uid="11111" user="lakeyboy" changeset="5005711">
    <nd ref="275183036"/>
    <nd ref="275183037"/>
    <nd ref="275183147"/>
    <nd ref="445180540"/>
    <nd ref="275183252"/>
    <nd ref="314748015"/>
    <nd ref="774356300"/>
    <nd ref="275183541"/>
    <nd ref="774356303"/>
    <nd ref="774371766"/>
    <nd ref="774371765"/>
    <nd ref="313080980"/>
    <nd ref="774372276"/>
    <nd ref="774372279"/>
    <nd ref="268552985"/>
    <tag k="highway" v="motorway"/>
    <tag k="maxspeed" v="100"/>
    <tag k="name" v="EastLink"/>
    <tag k="oneway" v="yes"/>
    <tag k="toll" v="yes"/>
  </way>
  <way id="46270747" version="7" timestamp="2010-06-17T02:40:48Z" uid="11111" user="lakeyboy" changeset="5005711">
    <nd ref="275183036"/>
    <nd ref="275183037"/>
    <nd ref="275183147"/>
    <nd ref="445180540"/>
    <nd ref="275183252"/>
    <nd ref="314748015"/>
    <nd ref="774356300"/>
    <nd ref="275183541"/>
    <tag k="highway" v="motorway"/>
    <tag k="maxspeed" v="100"/>
    <tag k="name" v="EastLink"/>
    <tag k="oneway" v="yes"/>
    <tag k="toll" v="yes"/>
  </way>
  <way id="46270747" version="8" timestamp="2010-06-17T02:40:58Z" uid="11111" user="lakeyboy" changeset="5005711">
    <nd ref="275183036"/>
    <nd ref="275183037"/>
    <nd ref="275183147"/>
    <nd ref="445180540"/>
    <nd ref="275183252"/>
    <nd ref="314748015"/>
    <nd ref="774356300"/>
    <nd ref="275183541"/>
    <tag k="highway" v="motorway"/>
    <tag k="lanes" v="3"/>
    <tag k="maxspeed" v="100"/>
    <tag k="name" v="EastLink"/>
    <tag k="oneway" v="yes"/>
    <tag k="toll" v="yes"/>
  </way>
  <way id="46270747" version="9" timestamp="2011-11-02T09:37:16Z" uid="46482" user="Leon K" changeset="9720070">
    <nd ref="275183036"/>
    <nd ref="275183037"/>
    <nd ref="275183147"/>
    <nd ref="445180540"/>
    <nd ref="275183252"/>
    <nd ref="314748015"/>
    <nd ref="774356300"/>
    <nd ref="275183541"/>
    <tag k="highway" v="motorway"/>
    <tag k="lanes" v="3"/>
    <tag k="maxspeed" v="100"/>
    <tag k="name" v="EastLink"/>
    <tag k="oneway" v="yes"/>
    <tag k="toll" v="yes"/>
    <tag k="website" v="www.eastlink.com.au"/>
  </way>
  <way id="46270747" version="10" timestamp="2011-12-30T22:01:23Z" uid="46482" user="Leon K" changeset="10250196">
    <nd ref="275183036"/>
    <nd ref="275183037"/>
    <nd ref="275183147"/>
    <nd ref="445180540"/>
    <nd ref="275183252"/>
    <nd ref="314748015"/>
    <nd ref="774356300"/>
    <nd ref="275183541"/>
    <tag k="highway" v="motorway"/>
    <tag k="lanes" v="3"/>
    <tag k="maxspeed" v="100"/>
    <tag k="name" v="EastLink"/>
    <tag k="oneway" v="yes"/>
    <tag k="ref" v="M3"/>
    <tag k="toll" v="yes"/>
    <tag k="website" v="www.eastlink.com.au"/>
  </way>
  <way id="46270748" version="2" timestamp="2010-04-05T08:41:04Z" uid="74617" user="JohnSmith" changeset="4330247">
    <nd ref="590829281"/>
    <nd ref="275183036"/>
    <tag k="bridge" v="yes"/>
    <tag k="highway" v="motorway"/>
    <tag k="maxspeed" v="100"/>
    <tag k="name" v="EastLink"/>
    <tag k="oneway" v="yes"/>
    <tag k="toll" v="yes"/>
  </way>
  <way id="46270748" version="3" timestamp="2010-07-25T22:28:00Z" uid="4467" user="Rosscoe" changeset="5317245">
    <nd ref="590829281"/>
    <nd ref="275183036"/>
    <tag k="bridge" v="yes"/>
    <tag k="highway" v="motorway"/>
    <tag k="layer" v="1"/>
    <tag k="maxspeed" v="100"/>
    <tag k="name" v="EastLink"/>
    <tag k="oneway" v="yes"/>
    <tag k="toll" v="yes"/>
  </way>
  <way id="46270748" version="4" timestamp="2010-08-21T03:54:25Z" uid="11111" user="lakeyboy" changeset="5548797">
    <nd ref="590829281"/>
    <nd ref="275183036"/>
    <tag k="bridge" v="yes"/>
    <tag k="highway" v="motorway"/>
    <tag k="lanes" v="3"/>
    <tag k="layer" v="1"/>
    <tag k="maxspeed" v="100"/>
    <tag k="name" v="EastLink"/>
    <tag k="oneway" v="yes"/>
    <tag k="toll" v="yes"/>
  </way>
  <way id="46270748" version="5" timestamp="2011-11-02T09:37:17Z" uid="46482" user="Leon K" changeset="9720070">
    <nd ref="590829281"/>
    <nd ref="275183036"/>
    <tag k="bridge" v="yes"/>
    <tag k="highway" v="motorway"/>
    <tag k="lanes" v="3"/>
    <tag k="layer" v="1"/>
    <tag k="maxspeed" v="100"/>
    <tag k="name" v="EastLink"/>
    <tag k="oneway" v="yes"/>
    <tag k="toll" v="yes"/>
    <tag k="website" v="www.eastlink.com.au"/>
  </way>
  <way id="46270748" version="6" timestamp="2011-12-31T11:17:24Z" uid="46482" user="Leon K" changeset="10253590">
    <nd ref="590829281"/>
    <nd ref="275183036"/>
    <tag k="bridge" v="yes"/>
    <tag k="highway" v="motorway"/>
    <tag k="lanes" v="3"/>
    <tag k="layer" v="1"/>
    <tag k="maxspeed" v="100"/>
    <tag k="name" v="EastLink"/>
    <tag k="oneway" v="yes"/>
    <tag k="ref" v="M3"/>
    <tag k="toll" v="yes"/>
    <tag k="website" v="www.eastlink.com.au"/>
  </way>
</osm>
