<?xml version='1.0' encoding='UTF-8'?>
<osm version="0.6" generator="libosmium/2.20.0">
  <way id="4642315" version="2" timestamp="2008-07-05T14:30:45Z" uid="6975" user="ulfl" changeset="398437">
    <nd ref="29533755"/>
    <nd ref="29531893"/>
    <nd ref="29533756"/>
    <nd ref="29533754"/>
    <nd ref="29533755"/>
    <tag k="amenity" v="parking"/>
    <tag k="name" v="Ferry queueing area"/>
  </way>
  <way id="4642331" version="1" timestamp="2007-06-07T16:07:44Z" uid="6454" user="B10xxx" changeset="85035">
    <nd ref="26568695"/>
    <nd ref="30051645"/>
    <nd ref="26569509"/>
    <tag k="created_by" v="YahooApplet 1.0"/>
    <tag k="highway" v="primary"/>
    <tag k="name" v="Friedenfelser Strasse"/>
  </way>
  <way id="4642331" version="2" timestamp="2008-06-15T18:57:26Z" uid="44786" user="makracht" changeset="178445">
    <nd ref="26568695"/>
    <nd ref="30051645"/>
    <tag k="created_by" v="Potlatch 0.9c"/>
    <tag k="highway" v="primary"/>
    <tag k="name" v="Friedenfelser Strasse"/>
  </way>
  <way id="4642331" version="3" timestamp="2008-06-15T18:58:06Z" uid="44786" user="makracht" changeset="178445">
    <nd ref="26568695"/>
    <nd ref="30051645"/>
    <tag k="created_by" v="Potlatch 0.9c"/>
    <tag k="highway" v="primary"/>
    <tag k="name" v="Friedenfelser Strasse"/>
  </way>
  <way id="4642331" version="4" timestamp="2008-06-15T18:59:42Z" uid="44786" user="makracht" changeset="178445">
    <nd ref="26568695"/>
    <nd ref="270537482"/>
    <nd ref="270537484"/>
    <tag k="created_by" v="Potlatch 0.9c"/>
    <tag k="highway" v="primary"/>
    <tag k="name" v="Friedenfelser Strasse"/>
  </way>
  <way id="4642331" version="5" timestamp="2008-06-15T19:00:11Z" uid="44786" user="makracht" changeset="178445">
    <nd ref="26568695"/>
    <nd ref="270537482"/>
    <nd ref="270537484"/>
    <tag k="created_by" v="Potlatch 0.9c"/>
    <tag k="highway" v="primary"/>
    <tag k="name" v="Friedenfelser Strasse"/>
  </way>
  <way id="4642331" version="6" timestamp="2008-06-15T19:38:35Z" uid="44786" user="makracht" changeset="178445">
    <nd ref="26568695"/>
    <nd ref="270537482"/>
    <nd ref="270537484"/>
    <tag k="created_by" v="Potlatch 0.9c"/>
    <tag k="highway" v="primary"/>
    <tag k="name" v="Friedenfelser Strasse"/>
    <tag k="ref" v="B101"/>
  </way>
  <way id="4642331" version="7" timestamp="2008-06-15T19:39:32Z" uid="44786" user="makracht" changeset="178445">
    <nd ref="26568695"/>
    <nd ref="270537482"/>
    <nd ref="270537484"/>
    <tag k="created_by" v="Potlatch 0.9c"/>
    <tag k="highway" v="primary"/>
    <tag k="name" v="Friedenfelser Strasse"/>
    <tag k="nat-ref" v="B101"/>
  </way>
  <way id="4642331" version="8" timestamp="2008-06-15T19:39:42Z" uid="44786" user="makracht" changeset="178445">
    <nd ref="26568695"/>
    <nd ref="270537482"/>
    <nd ref="270537484"/>
    <tag k="created_by" v="Potlatch 0.9c"/>
    <tag k="highway" v="primary"/>
    <tag k="name" v="Friedenfelser Strasse"/>
    <tag k="nat_ref" v="B101"/>
  </way>
  <way id="4642331" version="9" timestamp="2008-06-15T19:41:08Z" uid="44786" user="makracht" changeset="178445">
    <nd ref="26568695"/>
    <nd ref="270537482"/>
    <nd ref="270537484"/>
    <tag k="created_by" v="Potlatch 0.9c"/>
    <tag k="highway" v="primary"/>
    <tag k="name" v="Friedenfelser Strasse"/>
    <tag k="nat_ref" v="B101"/>
    <tag k="oneway" v="yes"/>
  </way>
  <way id="4642331" version="10" timestamp="2008-06-21T18:55:52Z" uid="24920" user="Schusch" changeset="252703">
    <nd ref="26568695"/>
    <nd ref="270537482"/>
    <nd ref="270537484"/>
    <tag k="created_by" v="Potlatch 0.9c"/>
    <tag k="highway" v="primary"/>
    <tag k="name" v="Friedenfelser Strasse"/>
    <tag k="nat_ref" v="B 101"/>
    <tag k="oneway" v="yes"/>
  </way>
  <way id="4642331" version="11" timestamp="2008-06-21T23:01:54Z" uid="44786" user="makracht" changeset="253573">
    <nd ref="270537484"/>
    <nd ref="270537482"/>
    <nd ref="26568695"/>
    <tag k="created_by" v="Potlatch 0.9c"/>
    <tag k="highway" v="primary"/>
    <tag k="name" v="Friedenfelser Strasse"/>
    <tag k="nat_ref" v="B 101"/>
    <tag k="oneway" v="yes"/>
  </way>
  <way id="4642331" version="12" timestamp="2008-06-21T23:04:22Z" uid="44786" user="makracht" changeset="253573">
    <nd ref="30051645"/>
    <nd ref="270537484"/>
    <nd ref="270537482"/>
    <nd ref="26568695"/>
    <tag k="created_by" v="Potlatch 0.9c"/>
    <tag k="highway" v="primary"/>
    <tag k="name" v="Friedenfelser Strasse"/>
    <tag k="nat_ref" v="B 101"/>
    <tag k="oneway" v="yes"/>
  </way>
  <way id="4642331" version="13" timestamp="2008-06-21T23:04:28Z" uid="44786" user="makracht" changeset="253573">
    <nd ref="30051645"/>
    <nd ref="270537482"/>
    <nd ref="26568695"/>
    <tag k="created_by" v="Potlatch 0.9c"/>
    <tag k="highway" v="primary"/>
    <tag k="name" v="Friedenfelser Strasse"/>
    <tag k="nat_ref" v="B 101"/>
    <tag k="oneway" v="yes"/>
  </way>
  <way id="4642331" version="14" timestamp="2008-06-21T23:04:48Z" uid="44786" user="makracht" changeset="253573">
    <nd ref="30051645"/>
    <nd ref="271809606"/>
    <nd ref="270537482"/>
    <nd ref="26568695"/>
    <tag k="created_by" v="Potlatch 0.9c"/>
    <tag k="highway" v="primary"/>
    <tag k="name" v="Friedenfelser Strasse"/>
    <tag k="nat_ref" v="B 101"/>
    <tag k="oneway" v="yes"/>
  </way>
  <way id="4642331" version="15" timestamp="2008-06-21T23:05:01Z" uid="44786" user="makracht" changeset="253573">
    <nd ref="30051645"/>
    <nd ref="270537482"/>
    <nd ref="26568695"/>
    <tag k="created_by" v="Potlatch 0.9c"/>
    <tag k="highway" v="primary"/>
    <tag k="name" v="Friedenfelser Strasse"/>
    <tag k="nat_ref" v="B 101"/>
    <tag k="oneway" v="yes"/>
  </way>
  <way id="4642331" version="16" timestamp="2008-06-21T23:06:04Z" uid="44786" user="makracht" changeset="253573">
    <nd ref="30051645"/>
    <nd ref="270537482"/>
    <nd ref="26568695"/>
    <tag k="created_by" v="Potlatch 0.9c"/>
    <tag k="highway" v="primary"/>
    <tag k="name" v="Friedenfelser Strasse"/>
    <tag k="nat_ref" v="B 101"/>
    <tag k="oneway" v="yes"/>
  </way>
  <way id="4642331" version="17" timestamp="2008-06-21T23:06:21Z" uid="44786" user="makracht" changeset="253573">
    <nd ref="30051645"/>
    <nd ref="271809860"/>
    <nd ref="270537482"/>
    <nd ref="26568695"/>
    <tag k="created_by" v="Potlatch 0.9c"/>
    <tag k="highway" v="primary"/>
    <tag k="name" v="Friedenfelser Strasse"/>
    <tag k="nat_ref" v="B 101"/>
    <tag k="oneway" v="yes"/>
  </way>
  <way id="4642331" version="18" timestamp="2008-06-21T23:06:26Z" uid="44786" user="makracht" changeset="253573">
    <nd ref="271809860"/>
    <nd ref="270537482"/>
    <nd ref="26568695"/>
    <tag k="created_by" v="Potlatch 0.9c"/>
    <tag k="highway" v="primary"/>
    <tag k="name" v="Friedenfelser Strasse"/>
    <tag k="nat_ref" v="B 101"/>
    <tag k="oneway" v="yes"/>
  </way>
  <way id="4642331" version="19" timestamp="2008-06-21T23:08:01Z" uid="44786" user="makracht" changeset="253573">
    <nd ref="30051645"/>
    <nd ref="270537482"/>
    <nd ref="26568695"/>
    <tag k="created_by" v="Potlatch 0.9c"/>
    <tag k="highway" v="primary"/>
    <tag k="name" v="Friedenfelser Strasse"/>
    <tag k="nat_ref" v="B 101"/>
    <tag k="oneway" v="yes"/>
  </way>
  <way id="4642331" version="20" timestamp="2008-07-29T07:46:44Z" uid="6669" user="Elwood" changeset="621587">
    <nd ref="30051645"/>
    <nd ref="270537482"/>
    <nd ref="26568695"/>
    <tag k="created_by" v="Potlatch 0.9c"/>
    <tag k="highway" v="primary"/>
    <tag k="name" v="Friedenfelser Straße"/>
    <tag k="nat_ref" v="B 101"/>
    <tag k="oneway" v="yes"/>
  </way>
  <way id="4642331" version="21" timestamp="2008-08-29T16:28:37Z" uid="2956" user="Christopher" changeset="448565">
    <nd ref="30051645"/>
    <nd ref="270537482"/>
    <nd ref="26568695"/>
    <tag k="created_by" v="Potlatch 0.9c"/>
    <tag k="highway" v="primary"/>
    <tag k="name" v="Friedenfelser Straße"/>
    <tag k="oneway" v="yes"/>
    <tag k="ref" v="B 101"/>
  </way>
  <way id="4642331" version="22" timestamp="2008-10-02T13:17:29Z" uid="35830" user="DarkAngel" changeset="32055">
    <nd ref="30051645"/>
    <nd ref="270537482"/>
    <nd ref="301571464"/>
    <nd ref="26568695"/>
    <tag k="created_by" v="Potlatch 0.9c"/>
    <tag k="highway" v="primary"/>
    <tag k="name" v="Friedenfelser Straße"/>
    <tag k="oneway" v="yes"/>
    <tag k="ref" v="B 101"/>
  </way>
  <way id="4642331" version="23" timestamp="2008-11-06T07:27:19Z" uid="66391" user="geozeisig" changeset="691993">
    <nd ref="30051645"/>
    <nd ref="270537482"/>
    <nd ref="301571464"/>
    <nd ref="26568695"/>
    <tag k="created_by" v="Potlatch 0.9c"/>
    <tag k="cycleway" v="lane"/>
    <tag k="highway" v="primary"/>
    <tag k="name" v="Friedenfelser Straße"/>
    <tag k="oneway" v="yes"/>
    <tag k="ref" v="B 101"/>
  </way>
  <way id="4642331" version="24" timestamp="2009-01-01T22:10:50Z" uid="88444" user="DeteBerlin" changeset="710091">
    <nd ref="30051645"/>
    <nd ref="270537482"/>
    <nd ref="301571464"/>
    <tag k="created_by" v="Potlatch 0.9c"/>
    <tag k="cycleway" v="lane"/>
    <tag k="highway" v="primary"/>
    <tag k="name" v="Friedenfelser Straße"/>
    <tag k="oneway" v="yes"/>
    <tag k="ref" v="B 101"/>
    <tag k="route" v="bus"/>
  </way>
  <way id="4642331" version="25" timestamp="2009-01-05T23:29:26Z" uid="88444" user="DeteBerlin" changeset="744670">
    <nd ref="30051645"/>
    <nd ref="327731104"/>
    <nd ref="327731114"/>
    <nd ref="270537482"/>
    <nd ref="301571464"/>
    <tag k="created_by" v="Potlatch 0.9c"/>
    <tag k="cycleway" v="lane"/>
    <tag k="highway" v="primary"/>
    <tag k="name" v="Friedenfelser Straße"/>
    <tag k="oneway" v="yes"/>
    <tag k="ref" v="B 101"/>
    <tag k="route" v="bus"/>
  </way>
  <way id="4642331" version="26" timestamp="2009-07-21T15:07:04Z" uid="6669" user="Elwood" changeset="1896007">
    <nd ref="30051645"/>
    <nd ref="327731104"/>
    <nd ref="327731114"/>
    <nd ref="270537482"/>
    <nd ref="301571464"/>
    <tag k="cycleway" v="lane"/>
    <tag k="highway" v="primary"/>
    <tag k="name" v="Friedenfelser Straße"/>
    <tag k="oneway" v="yes"/>
    <tag k="postal_code" v="12279"/>
    <tag k="ref" v="B 101"/>
    <tag k="route" v="bus"/>
  </way>
  <way id="4642331" version="27" timestamp="2009-10-18T10:24:38Z" uid="6669" user="Elwood" changeset="2881468">
    <nd ref="30051645"/>
    <nd ref="327731104"/>
    <nd ref="327731114"/>
    <nd ref="270537482"/>
    <nd ref="301571464"/>
    <tag k="cycleway" v="lane"/>
    <tag k="highway" v="primary"/>
    <tag k="name" v="Friedenfelser Straße"/>
    <tag k="oneway" v="yes"/>
    <tag k="postal_code" v="12279"/>
    <tag k="ref" v="B 101"/>
  </way>
  <way id="4642331" version="28" timestamp="2009-10-18T10:30:03Z" uid="6669" user="Elwood" changeset="2881468">
    <nd ref="30051645"/>
    <nd ref="327731104"/>
    <nd ref="327731114"/>
    <nd ref="270537482"/>
    <nd ref="301571464"/>
    <tag k="cycleway" v="lane"/>
    <tag k="highway" v="primary"/>
    <tag k="name" v="Friedenfelser Straße"/>
    <tag k="oneway" v="yes"/>
    <tag k="postal_code" v="12279"/>
    <tag k="ref" v="B 101"/>
  </way>
  <way id="4642331" version="29" timestamp="2009-10-18T10:34:39Z" uid="6669" user="Elwood" changeset="2881468">
    <nd ref="30051645"/>
    <nd ref="327731104"/>
    <nd ref="327731114"/>
    <nd ref="270537482"/>
    <nd ref="301571464"/>
    <tag k="cycleway" v="lane"/>
    <tag k="highway" v="primary"/>
    <tag k="name" v="Friedenfelser Straße"/>
    <tag k="oneway" v="yes"/>
    <tag k="postal_code" v="12279"/>
    <tag k="ref" v="B 101"/>
  </way>
  <way id="4642331" version="30" timestamp="2009-10-18T10:50:55Z" uid="6669" user="Elwood" changeset="2881923">
    <nd ref="30051645"/>
    <nd ref="327731104"/>
    <nd ref="327731114"/>
    <nd ref="270537482"/>
    <nd ref="301571464"/>
    <tag k="cycleway" v="lane"/>
    <tag k="highway" v="primary"/>
    <tag k="name" v="Friedenfelser Straße"/>
    <tag k="oneway" v="yes"/>
    <tag k="postal_code" v="12279"/>
    <tag k="ref" v="B 101"/>
  </way>
  <way id="4642331" version="31" timestamp="2010-01-21T15:54:57Z" uid="12143" user="slotty" changeset="3675747">
    <nd ref="30051645"/>
    <nd ref="327731104"/>
    <nd ref="327731114"/>
    <nd ref="270537482"/>
    <nd ref="301571464"/>
    <tag k="cycleway" v="lane"/>
    <tag k="highway" v="primary"/>
    <tag k="lanes" v="3"/>
    <tag k="name" v="Friedenfelser Straße"/>
    <tag k="oneway" v="yes"/>
    <tag k="postal_code" v="12279"/>
    <tag k="ref" v="B 101"/>
  </way>
  <way id="4642331" version="32" timestamp="2010-02-26T06:09:58Z" uid="52749" user="RayBerlin" changeset="3977810">
    <nd ref="30051645"/>
    <nd ref="327731104"/>
    <nd ref="327731114"/>
    <nd ref="270537482"/>
    <nd ref="301571464"/>
    <tag k="cycleway" v="lane"/>
    <tag k="highway" v="primary"/>
    <tag k="lanes" v="3"/>
    <tag k="name" v="Friedenfelser Straße"/>
    <tag k="note" v="benannt aus Straße 481 am 20.4.1990"/>
    <tag k="oneway" v="yes"/>
    <tag k="postal_code" v="12279"/>
    <tag k="ref" v="B 101"/>
  </way>
  <way id="4642331" version="33" timestamp="2010-12-08T15:49:10Z" uid="66391" user="geozeisig" changeset="6586478">
    <nd ref="30051645"/>
    <nd ref="327731114"/>
    <nd ref="270537482"/>
    <nd ref="301571464"/>
    <tag k="cycleway" v="lane"/>
    <tag k="highway" v="primary"/>
    <tag k="lanes" v="3"/>
    <tag k="name" v="Friedenfelser Straße"/>
    <tag k="note" v="benannt aus Straße 481 am 20.4.1990"/>
    <tag k="oneway" v="yes"/>
    <tag k="postal_code" v="12279"/>
    <tag k="ref" v="B 101"/>
  </way>
  <way id="4642331" version="34" timestamp="2012-02-14T08:05:26Z" uid="66391" user="geozeisig" changeset="10680108"/>
  <way id="4642334" version="1" timestamp="2007-06-29T14:24:51Z" uid="6454" user="B10xxx" changeset="117849">
    <nd ref="27556461"/>
    <nd ref="26704787"/>
    <nd ref="31036221"/>
    <nd ref="29533795"/>
    <nd ref="29533796"/>
    <tag k="created_by" v="Potlatch alpha"/>
    <tag k="highway" v="primary"/>
    <tag k="nat_ref" v="B101"/>
  </way>
  <way id="4642334" version="2" timestamp="2008-02-05T04:45:51Z" uid="5164" user="woodpeck" changeset="46622">
    <nd ref="27556461"/>
    <nd ref="26704787"/>
    <nd ref="31036221"/>
    <nd ref="29533795"/>
    <nd ref="29533796"/>
    <tag k="created_by" v="fixbot"/>
    <tag k="highway" v="primary"/>
    <tag k="ref" v="B101"/>
  </way>
  <way id="4642334" version="3" timestamp="2008-04-11T19:39:39Z" changeset="116686">
    <nd ref="27556461"/>
    <nd ref="26704787"/>
    <nd ref="31036221"/>
    <nd ref="29533795"/>
    <nd ref="29533796"/>
    <tag k="created_by" v="fixbot"/>
    <tag k="highway" v="primary"/>
    <tag k="name" v="Alt-Mariendorf"/>
    <tag k="ref" v="B101"/>
  </way>
  <way id="4642334" version="4" timestamp="2008-06-21T18:57:54Z" uid="24920" user="Schusch" changeset="252703">
    <nd ref="27556461"/>
    <nd ref="26704787"/>
    <nd ref="31036221"/>
    <nd ref="29533795"/>
    <nd ref="29533796"/>
    <tag k="created_by" v="Potlatch 0.9c"/>
    <tag k="highway" v="primary"/>
    <tag k="name" v="Alt-Mariendorf"/>
    <tag k="ref" v="B 101"/>
  </way>
  <way id="4642334" version="5" timestamp="2008-08-10T12:26:11Z" uid="44568" user="8-zig" changeset="176582">
    <nd ref="27556461"/>
    <nd ref="26704787"/>
    <nd ref="31036221"/>
    <nd ref="29533795"/>
    <tag k="created_by" v="Potlatch 0.9c"/>
    <tag k="highway" v="primary"/>
    <tag k="name" v="Alt-Mariendorf"/>
    <tag k="oneway" v="yes"/>
    <tag k="ref" v="B 101"/>
  </way>
  <way id="4642334" version="6" timestamp="2008-08-29T16:47:55Z" uid="2956" user="Christopher" changeset="448565">
    <nd ref="27556461"/>
    <nd ref="26704787"/>
    <nd ref="31036221"/>
    <nd ref="292076194"/>
    <nd ref="29533795"/>
    <tag k="created_by" v="Potlatch 0.9c"/>
    <tag k="highway" v="primary"/>
    <tag k="name" v="Alt-Mariendorf"/>
    <tag k="oneway" v="yes"/>
    <tag k="ref" v="B 101"/>
  </way>
  <way id="4642334" version="7" timestamp="2009-01-06T17:55:29Z" uid="88444" user="DeteBerlin" changeset="746335">
    <nd ref="27556461"/>
    <nd ref="26704787"/>
    <nd ref="31036221"/>
    <nd ref="292076194"/>
    <nd ref="29533795"/>
    <tag k="created_by" v="Potlatch 0.9c"/>
    <tag k="highway" v="primary"/>
    <tag k="name" v="Alt-Mariendorf"/>
    <tag k="oneway" v="yes"/>
    <tag k="ref" v="B 101"/>
    <tag k="route" v="bus"/>
  </way>
  <way id="4642334" version="8" timestamp="2009-02-10T20:36:56Z" uid="88444" user="DeteBerlin" changeset="337679">
    <nd ref="27556461"/>
    <nd ref="26704787"/>
    <tag k="created_by" v="Potlatch 0.9c"/>
    <tag k="highway" v="primary"/>
    <tag k="name" v="Alt-Mariendorf"/>
    <tag k="oneway" v="yes"/>
    <tag k="route" v="bus"/>
  </way>
  <way id="4642334" version="9" timestamp="2009-06-02T13:52:43Z" uid="107521" user="openmapeteer" changeset="1404108">
    <nd ref="27556461"/>
    <nd ref="26704787"/>
    <tag k="created_by" v="Potlatch 0.9c"/>
    <tag k="highway" v="primary"/>
    <tag k="lanes" v="2"/>
    <tag k="name" v="Alt-Mariendorf"/>
    <tag k="oneway" v="yes"/>
    <tag k="route" v="bus"/>
  </way>
  <way id="4642334" version="10" timestamp="2009-07-17T22:51:09Z" uid="34417" user="TobHaeg" changeset="1859075">
    <nd ref="27556461"/>
    <nd ref="26704787"/>
    <tag k="highway" v="primary"/>
    <tag k="lanes" v="2"/>
    <tag k="name" v="Alt-Mariendorf"/>
    <tag k="oneway" v="yes"/>
    <tag k="route" v="bus"/>
  </way>
  <way id="4642334" version="11" timestamp="2009-10-18T09:56:48Z" uid="6669" user="Elwood" changeset="2881468">
    <nd ref="27556461"/>
    <nd ref="26704787"/>
    <tag k="highway" v="primary"/>
    <tag k="lanes" v="2"/>
    <tag k="name" v="Alt-Mariendorf"/>
    <tag k="oneway" v="yes"/>
    <tag k="postal_code" v="12107"/>
  </way>
  <way id="4642334" version="12" timestamp="2010-06-02T17:19:35Z" uid="43566" user="anbr" changeset="4885808">
    <nd ref="27556461"/>
    <nd ref="26704787"/>
    <tag k="cycleway" v="track"/>
    <tag k="highway" v="primary"/>
    <tag k="lanes" v="2"/>
    <tag k="name" v="Alt-Mariendorf"/>
    <tag k="oneway" v="yes"/>
    <tag k="postal_code" v="12107"/>
  </way>
  <way id="4642334" version="13" timestamp="2011-07-19T19:13:09Z" uid="330055" user="Mecki" changeset="8771708">
    <nd ref="27556461"/>
    <nd ref="26704787"/>
    <tag k="cycleway" v="track"/>
    <tag k="highway" v="primary"/>
    <tag k="lanes" v="2"/>
    <tag k="name" v="Alt-Mariendorf"/>
    <tag k="oneway" v="yes"/>
    <tag k="postal_code" v="12107"/>
    <tag k="surface" v="asphalt"/>
  </way>
  <way id="4642334" version="14" timestamp="2012-03-24T10:12:53Z" uid="43566" user="anbr" changeset="11082655"/>
  <way id="4642424" version="8" timestamp="2008-10-01T02:10:54Z" uid="36809" user="pfoten_weg_!_" changeset="5644">
    <nd ref="29534248"/>
    <nd ref="137951519"/>
    <nd ref="137968133"/>
    <nd ref="137951525"/>
    <nd ref="29534219"/>
    <nd ref="29534220"/>
    <nd ref="29534221"/>
    <nd ref="29534222"/>
    <nd ref="29534250"/>
    <nd ref="29534225"/>
    <nd ref="29534226"/>
    <nd ref="29534228"/>
    <nd ref="29534230"/>
    <nd ref="29534232"/>
    <nd ref="29534234"/>
    <nd ref="29534236"/>
    <nd ref="29534238"/>
    <nd ref="29534240"/>
    <nd ref="29534242"/>
    <nd ref="29534244"/>
    <nd ref="29534245"/>
    <nd ref="29534246"/>
    <nd ref="29534248"/>
    <tag k="created_by" v="RambaZamba"/>
    <tag k="fenced" v="yes"/>
    <tag k="leisure" v="park"/>
    <tag k="name" v="Tierpark Hellabrunn"/>
    <tag k="source" v="landsat"/>
    <tag k="tourism" v="zoo"/>
  </way>
  <way id="4642424" version="9" timestamp="2009-01-07T19:23:57Z" uid="8748" user="ToniE" changeset="752311">
    <nd ref="29534248"/>
    <nd ref="137951519"/>
    <nd ref="137951525"/>
    <nd ref="29534219"/>
    <nd ref="29534220"/>
    <nd ref="29534221"/>
    <nd ref="29534222"/>
    <nd ref="29534250"/>
    <nd ref="29534225"/>
    <nd ref="29534226"/>
    <nd ref="29534228"/>
    <nd ref="29534230"/>
    <nd ref="29534232"/>
    <nd ref="29534234"/>
    <nd ref="29534236"/>
    <nd ref="29534238"/>
    <nd ref="29534240"/>
    <nd ref="29534242"/>
    <nd ref="29534244"/>
    <nd ref="29534245"/>
    <nd ref="29534246"/>
    <nd ref="29534248"/>
    <tag k="created_by" v="RambaZamba"/>
    <tag k="fenced" v="yes"/>
    <tag k="leisure" v="park"/>
    <tag k="name" v="Tierpark Hellabrunn"/>
    <tag k="source" v="landsat"/>
    <tag k="tourism" v="zoo"/>
  </way>
  <way id="4642424" version="10" timestamp="2009-01-07T19:24:20Z" uid="8748" user="ToniE" changeset="752311">
    <nd ref="29534248"/>
    <nd ref="137951519"/>
    <nd ref="137951525"/>
    <nd ref="29534219"/>
    <nd ref="29534220"/>
    <nd ref="29534221"/>
    <nd ref="29534222"/>
    <nd ref="29534250"/>
    <nd ref="29534225"/>
    <nd ref="29534226"/>
    <nd ref="29534228"/>
    <nd ref="29534230"/>
    <nd ref="29534232"/>
    <nd ref="29534234"/>
    <nd ref="29534236"/>
    <nd ref="29534240"/>
    <nd ref="29534242"/>
    <nd ref="29534244"/>
    <nd ref="29534245"/>
    <nd ref="29534246"/>
    <nd ref="29534248"/>
    <tag k="created_by" v="RambaZamba"/>
    <tag k="fenced" v="yes"/>
    <tag k="leisure" v="park"/>
    <tag k="name" v="Tierpark Hellabrunn"/>
    <tag k="source" v="landsat"/>
    <tag k="tourism" v="zoo"/>
  </way>
  <way id="4642424" version="11" timestamp="2009-01-07T19:31:24Z" uid="8748" user="ToniE" changeset="752311">
    <nd ref="29534248"/>
    <nd ref="137951519"/>
    <nd ref="137951525"/>
    <nd ref="29534219"/>
    <nd ref="29534220"/>
    <nd ref="29534221"/>
    <nd ref="29534222"/>
    <nd ref="29534250"/>
    <nd ref="29534225"/>
    <nd ref="29534226"/>
    <nd ref="29534228"/>
    <nd ref="29534230"/>
    <nd ref="29534232"/>
    <nd ref="29534234"/>
    <nd ref="29534236"/>
    <nd ref="29534240"/>
    <nd ref="330067695"/>
    <nd ref="29534242"/>
    <nd ref="330067683"/>
    <nd ref="29534244"/>
    <nd ref="330067691"/>
    <nd ref="29534245"/>
    <nd ref="29534246"/>
    <nd ref="29534248"/>
    <tag k="created_by" v="RambaZamba"/>
    <tag k="fenced" v="yes"/>
    <tag k="leisure" v="park"/>
    <tag k="name" v="Tierpark Hellabrunn"/>
    <tag k="source" v="landsat"/>
    <tag k="tourism" v="zoo"/>
  </way>
  <way id="4642424" version="12" timestamp="2009-01-16T11:13:10Z" uid="90746" user="sport_rob" changeset="795131">
    <nd ref="29534248"/>
    <nd ref="137951519"/>
    <nd ref="137951525"/>
    <nd ref="29534219"/>
    <nd ref="29534220"/>
    <nd ref="29534221"/>
    <nd ref="29534222"/>
    <nd ref="29534250"/>
    <nd ref="29534225"/>
    <nd ref="29534226"/>
    <nd ref="332381355"/>
    <nd ref="29534228"/>
    <nd ref="29534230"/>
    <nd ref="29534232"/>
    <nd ref="29534234"/>
    <nd ref="29534236"/>
    <nd ref="29534240"/>
    <nd ref="330067695"/>
    <nd ref="29534242"/>
    <nd ref="330067683"/>
    <nd ref="29534244"/>
    <nd ref="330067691"/>
    <nd ref="29534245"/>
    <nd ref="29534246"/>
    <nd ref="29534248"/>
    <tag k="created_by" v="Potlatch 0.10f"/>
    <tag k="fenced" v="yes"/>
    <tag k="leisure" v="park"/>
    <tag k="name" v="Tierpark Hellabrunn"/>
    <tag k="source" v="landsat"/>
    <tag k="tourism" v="zoo"/>
  </way>
  <way id="4642424" version="13" timestamp="2009-06-08T12:02:40Z" uid="132988" user="ich-liebe-euch" changeset="1457959">
    <nd ref="29534248"/>
    <nd ref="137951519"/>
    <nd ref="137951525"/>
    <nd ref="29534219"/>
    <nd ref="29534220"/>
    <nd ref="29534221"/>
    <nd ref="29534222"/>
    <nd ref="29534250"/>
    <nd ref="29534225"/>
    <nd ref="29534226"/>
    <nd ref="332381355"/>
    <nd ref="29534228"/>
    <nd ref="29534230"/>
    <nd ref="29534232"/>
    <nd ref="29534234"/>
    <nd ref="29534236"/>
    <nd ref="29534240"/>
    <nd ref="330067695"/>
    <nd ref="29534242"/>
    <nd ref="330067683"/>
    <nd ref="29534244"/>
    <nd ref="330067691"/>
    <nd ref="29534245"/>
    <nd ref="29534246"/>
    <nd ref="29534248"/>
    <tag k="fenced" v="yes"/>
    <tag k="leisure" v="park"/>
    <tag k="name" v="Tierpark Hellabrunn"/>
    <tag k="source" v="landsat"/>
    <tag k="tourism" v="zoo"/>
  </way>
  <way id="4642424" version="14" timestamp="2009-06-08T13:39:53Z" uid="36809" user="pfoten_weg_!_" changeset="1458869">
    <nd ref="29534248"/>
    <nd ref="137951519"/>
    <nd ref="137951525"/>
    <nd ref="29534219"/>
    <nd ref="29534220"/>
    <nd ref="29534221"/>
    <nd ref="29534222"/>
    <nd ref="29534250"/>
    <nd ref="29534225"/>
    <nd ref="29534226"/>
    <nd ref="332381355"/>
    <nd ref="29534228"/>
    <nd ref="29534230"/>
    <nd ref="29534232"/>
    <nd ref="29534234"/>
    <nd ref="29534236"/>
    <nd ref="29534240"/>
    <nd ref="330067695"/>
    <nd ref="29534242"/>
    <nd ref="330067683"/>
    <nd ref="29534244"/>
    <nd ref="330067691"/>
    <nd ref="29534245"/>
    <nd ref="29534246"/>
    <nd ref="29534248"/>
    <tag k="created_by" v="RambaZamba"/>
    <tag k="fenced" v="yes"/>
    <tag k="leisure" v="park"/>
    <tag k="name" v="Tierpark Hellabrunn"/>
    <tag k="source" v="survey"/>
    <tag k="tourism" v="zoo"/>
  </way>
  <way id="4642424" version="15" timestamp="2009-08-12T17:39:38Z" uid="31704" user="frosch" changeset="2121444">
    <nd ref="29534248"/>
    <nd ref="137951519"/>
    <nd ref="137951525"/>
    <nd ref="29534219"/>
    <nd ref="29534220"/>
    <nd ref="29534221"/>
    <nd ref="29534222"/>
    <nd ref="29534250"/>
    <nd ref="29534225"/>
    <nd ref="29534226"/>
    <nd ref="332381355"/>
    <nd ref="29534228"/>
    <nd ref="29534230"/>
    <nd ref="29534232"/>
    <nd ref="29534234"/>
    <nd ref="29534236"/>
    <nd ref="29534240"/>
    <nd ref="330067695"/>
    <nd ref="29534242"/>
    <nd ref="330067683"/>
    <nd ref="29534244"/>
    <nd ref="330067691"/>
    <nd ref="29534245"/>
    <nd ref="29534246"/>
    <nd ref="29534248"/>
    <tag k="addr:city" v="München"/>
    <tag k="addr:country" v="DE"/>
    <tag k="addr:housenumber" v="30"/>
    <tag k="addr:postcode" v="81543"/>
    <tag k="addr:street" v="Tierparkstraße"/>
    <tag k="fenced" v="yes"/>
    <tag k="leisure" v="park"/>
    <tag k="name" v="Tierpark Hellabrunn"/>
    <tag k="phone" v="+49 89 62508 0"/>
    <tag k="source" v="survey"/>
    <tag k="tourism" v="zoo"/>
    <tag k="website" v="http://www.tierpark-hellabrunn.de/"/>
  </way>
  <way id="4642424" version="16" timestamp="2009-10-13T23:43:06Z" uid="36809" user="pfoten_weg_!_" changeset="2841273">
    <nd ref="29534248"/>
    <nd ref="137951519"/>
    <nd ref="137951525"/>
    <nd ref="29534219"/>
    <nd ref="29534220"/>
    <nd ref="29534221"/>
    <nd ref="29534222"/>
    <nd ref="29534250"/>
    <nd ref="29534225"/>
    <nd ref="29534226"/>
    <nd ref="332381355"/>
    <nd ref="29534228"/>
    <nd ref="29534230"/>
    <nd ref="29534232"/>
    <nd ref="29534234"/>
    <nd ref="29534236"/>
    <nd ref="29534240"/>
    <nd ref="330067695"/>
    <nd ref="29534242"/>
    <nd ref="330067683"/>
    <nd ref="29534244"/>
    <nd ref="330067691"/>
    <nd ref="29534245"/>
    <nd ref="29534246"/>
    <nd ref="29534248"/>
    <tag k="addr:city" v="München"/>
    <tag k="addr:country" v="DE"/>
    <tag k="addr:housenumber" v="30"/>
    <tag k="addr:postcode" v="81543"/>
    <tag k="addr:street" v="Tierparkstraße"/>
    <tag k="fenced" v="yes"/>
    <tag k="leisure" v="park"/>
    <tag k="name" v="Tierpark Hellabrunn"/>
    <tag k="phone" v="+49 89 62508 0"/>
    <tag k="tourism" v="zoo"/>
    <tag k="website" v="http://www.tierpark-hellabrunn.de/"/>
  </way>
  <way id="4642424" version="17" timestamp="2009-12-16T17:46:58Z" uid="118197" user="JosmJo" changeset="3388341">
    <nd ref="29534248"/>
    <nd ref="137951519"/>
    <nd ref="247923541"/>
    <nd ref="137951525"/>
    <nd ref="29534219"/>
    <nd ref="29534220"/>
    <nd ref="29534221"/>
    <nd ref="29534222"/>
    <nd ref="29534250"/>
    <nd ref="29534225"/>
    <nd ref="29534226"/>
    <nd ref="332381355"/>
    <nd ref="29534228"/>
    <nd ref="29534230"/>
    <nd ref="29534232"/>
    <nd ref="29534234"/>
    <nd ref="29534236"/>
    <nd ref="247923361"/>
    <nd ref="29534240"/>
    <nd ref="330067695"/>
    <nd ref="29534242"/>
    <nd ref="330067683"/>
    <nd ref="29534244"/>
    <nd ref="330067691"/>
    <nd ref="29534245"/>
    <nd ref="29534246"/>
    <nd ref="29534248"/>
    <tag k="addr:city" v="München"/>
    <tag k="addr:country" v="DE"/>
    <tag k="addr:housenumber" v="30"/>
    <tag k="addr:postcode" v="81543"/>
    <tag k="addr:street" v="Tierparkstraße"/>
    <tag k="barrier" v="fence"/>
    <tag k="leisure" v="park"/>
    <tag k="name" v="Tierpark Hellabrunn"/>
    <tag k="phone" v="+49 89 62508 0"/>
    <tag k="tourism" v="zoo"/>
    <tag k="website" v="http://www.tierpark-hellabrunn.de/"/>
  </way>
  <way id="4642424" version="18" timestamp="2010-03-04T16:11:56Z" uid="6270" user="mikes" changeset="4033879">
    <nd ref="29534248"/>
    <nd ref="137951519"/>
    <nd ref="247923541"/>
    <nd ref="137951525"/>
    <nd ref="29534219"/>
    <nd ref="29534220"/>
    <nd ref="29534221"/>
    <nd ref="29534222"/>
    <nd ref="29534250"/>
    <nd ref="29534225"/>
    <nd ref="29534226"/>
    <nd ref="332381355"/>
    <nd ref="29534228"/>
    <nd ref="29534230"/>
    <nd ref="29534232"/>
    <nd ref="29534234"/>
    <nd ref="29534236"/>
    <nd ref="247923361"/>
    <nd ref="29534240"/>
    <nd ref="330067695"/>
    <nd ref="29534242"/>
    <nd ref="330067683"/>
    <nd ref="29534244"/>
    <nd ref="330067691"/>
    <nd ref="29534245"/>
    <nd ref="29534246"/>
    <nd ref="29534248"/>
    <tag k="TMC:cid_58:tabcd_1:Class" v="Area"/>
    <tag k="TMC:cid_58:tabcd_1:LCLversion" v="9.00"/>
    <tag k="TMC:cid_58:tabcd_1:LocationCode" v="26385"/>
    <tag k="addr:city" v="München"/>
    <tag k="addr:country" v="DE"/>
    <tag k="addr:housenumber" v="30"/>
    <tag k="addr:postcode" v="81543"/>
    <tag k="addr:street" v="Tierparkstraße"/>
    <tag k="barrier" v="fence"/>
    <tag k="leisure" v="park"/>
    <tag k="name" v="Tierpark Hellabrunn"/>
    <tag k="phone" v="+49 89 62508 0"/>
    <tag k="tourism" v="zoo"/>
    <tag k="website" v="http://www.tierpark-hellabrunn.de/"/>
  </way>
  <way id="4642424" version="19" timestamp="2010-04-06T21:34:34Z" uid="30579" user="Tiramisu" changeset="4349474">
    <nd ref="29534248"/>
    <nd ref="137951519"/>
    <nd ref="247923541"/>
    <nd ref="137951525"/>
    <nd ref="29534219"/>
    <nd ref="29534220"/>
    <nd ref="29534221"/>
    <nd ref="29534222"/>
    <nd ref="29534250"/>
    <nd ref="29534225"/>
    <nd ref="29534226"/>
    <nd ref="332381355"/>
    <nd ref="29534228"/>
    <nd ref="29534230"/>
    <nd ref="29534232"/>
    <nd ref="29534234"/>
    <nd ref="29534236"/>
    <nd ref="247923361"/>
    <nd ref="29534240"/>
    <nd ref="330067695"/>
    <nd ref="29534242"/>
    <nd ref="330067683"/>
    <nd ref="29534244"/>
    <nd ref="330067691"/>
    <nd ref="29534245"/>
    <nd ref="29534246"/>
    <nd ref="29534248"/>
    <tag k="TMC:cid_58:tabcd_1:Class" v="Area"/>
    <tag k="TMC:cid_58:tabcd_1:LCLversion" v="9.00"/>
    <tag k="TMC:cid_58:tabcd_1:LocationCode" v="26385"/>
    <tag k="addr:city" v="München"/>
    <tag k="addr:country" v="DE"/>
    <tag k="addr:housenumber" v="30"/>
    <tag k="addr:postcode" v="81543"/>
    <tag k="addr:street" v="Tierparkstraße"/>
    <tag k="barrier" v="fence"/>
    <tag k="name" v="Tierpark Hellabrunn"/>
    <tag k="phone" v="+49 89 62508 0"/>
    <tag k="tourism" v="zoo"/>
    <tag k="website" v="http://www.tierpark-hellabrunn.de/"/>
  </way>
  <way id="4642424" version="20" timestamp="2010-04-08T17:02:58Z" uid="30579" user="Tiramisu" changeset="4365673">
    <nd ref="29534248"/>
    <nd ref="137951519"/>
    <nd ref="247923541"/>
    <nd ref="137951525"/>
    <nd ref="29534219"/>
    <nd ref="29534220"/>
    <nd ref="29534221"/>
    <nd ref="29534222"/>
    <nd ref="29534250"/>
    <nd ref="29534225"/>
    <nd ref="29534226"/>
    <nd ref="332381355"/>
    <nd ref="29534228"/>
    <nd ref="29534230"/>
    <nd ref="29534232"/>
    <nd ref="29534234"/>
    <nd ref="29534236"/>
    <nd ref="247923361"/>
    <nd ref="29534240"/>
    <nd ref="330067695"/>
    <nd ref="29534242"/>
    <nd ref="330067683"/>
    <nd ref="29534244"/>
    <nd ref="330067691"/>
    <nd ref="29534245"/>
    <nd ref="29534246"/>
    <nd ref="29534248"/>
    <tag k="TMC:cid_58:tabcd_1:Class" v="Area"/>
    <tag k="TMC:cid_58:tabcd_1:LCLversion" v="9.00"/>
    <tag k="TMC:cid_58:tabcd_1:LocationCode" v="26385"/>
    <tag k="addr:city" v="München"/>
    <tag k="addr:country" v="DE"/>
    <tag k="addr:housenumber" v="30"/>
    <tag k="addr:postcode" v="81543"/>
    <tag k="addr:street" v="Tierparkstraße"/>
    <tag k="area" v="yes"/>
    <tag k="barrier" v="fence"/>
    <tag k="name" v="Tierpark Hellabrunn"/>
    <tag k="phone" v="+49 89 62508 0"/>
    <tag k="tourism" v="zoo"/>
    <tag k="website" v="http://www.tierpark-hellabrunn.de/"/>
  </way>
  <way id="4642424" version="21" timestamp="2011-06-06T15:43:03Z" uid="459072" user="WolfFisch" changeset="8361413">
    <nd ref="29534248"/>
    <nd ref="1314209730"/>
    <nd ref="137951519"/>
    <nd ref="247923541"/>
    <nd ref="137951525"/>
    <nd ref="29534219"/>
    <nd ref="1314209737"/>
    <nd ref="29534220"/>
    <nd ref="1314209736"/>
    <nd ref="29534221"/>
    <nd ref="1314209731"/>
    <nd ref="29534222"/>
    <nd ref="1314209729"/>
    <nd ref="29534250"/>
    <nd ref="29534225"/>
    <nd ref="29534226"/>
    <nd ref="332381355"/>
    <nd ref="29534228"/>
    <nd ref="29534230"/>
    <nd ref="29534232"/>
    <nd ref="29534234"/>
    <nd ref="29534236"/>
    <nd ref="247923361"/>
    <nd ref="29534240"/>
    <nd ref="330067695"/>
    <nd ref="29534242"/>
    <nd ref="330067683"/>
    <nd ref="29534244"/>
    <nd ref="330067691"/>
    <nd ref="29534245"/>
    <nd ref="29534246"/>
    <nd ref="1314209735"/>
    <nd ref="1314209733"/>
    <nd ref="29534248"/>
    <tag k="TMC:cid_58:tabcd_1:Class" v="Area"/>
    <tag k="TMC:cid_58:tabcd_1:LCLversion" v="9.00"/>
    <tag k="TMC:cid_58:tabcd_1:LocationCode" v="26385"/>
    <tag k="addr:city" v="München"/>
    <tag k="addr:country" v="DE"/>
    <tag k="addr:housenumber" v="30"/>
    <tag k="addr:postcode" v="81543"/>
    <tag k="addr:street" v="Tierparkstraße"/>
    <tag k="area" v="yes"/>
    <tag k="barrier" v="fence"/>
    <tag k="name" v="Tierpark Hellabrunn"/>
    <tag k="phone" v="+49 89 62508 0"/>
    <tag k="tourism" v="zoo"/>
    <tag k="website" v="http://www.tierpark-hellabrunn.de/"/>
  </way>
  <way id="4642424" version="22" timestamp="2012-02-14T19:09:42Z" uid="9402" user="ludwich" changeset="10686110">
    <nd ref="29534248"/>
    <nd ref="1314209730"/>
    <nd ref="137951519"/>
    <nd ref="247923541"/>
    <nd ref="137951525"/>
    <nd ref="29534219"/>
    <nd ref="1314209737"/>
    <nd ref="29534220"/>
    <nd ref="1314209736"/>
    <nd ref="29534221"/>
    <nd ref="1314209731"/>
    <nd ref="29534222"/>
    <nd ref="1314209729"/>
    <nd ref="1633066950"/>
    <nd ref="29534250"/>
    <nd ref="1633066878"/>
    <nd ref="29534225"/>
    <nd ref="29534226"/>
    <nd ref="332381355"/>
    <nd ref="29534228"/>
    <nd ref="29534230"/>
    <nd ref="29534232"/>
    <nd ref="29534234"/>
    <nd ref="29534236"/>
    <nd ref="247923361"/>
    <nd ref="29534240"/>
    <nd ref="330067695"/>
    <nd ref="29534242"/>
    <nd ref="330067683"/>
    <nd ref="29534244"/>
    <nd ref="330067691"/>
    <nd ref="29534245"/>
    <nd ref="29534246"/>
    <nd ref="1314209735"/>
    <nd ref="1314209733"/>
    <nd ref="29534248"/>
    <tag k="TMC:cid_58:tabcd_1:Class" v="Area"/>
    <tag k="TMC:cid_58:tabcd_1:LCLversion" v="9.00"/>
    <tag k="TMC:cid_58:tabcd_1:LocationCode" v="26385"/>
    <tag k="addr:city" v="München"/>
    <tag k="addr:country" v="DE"/>
    <tag k="addr:housenumber" v="30"/>
    <tag k="addr:postcode" v="81543"/>
    <tag k="addr:street" v="Tierparkstraße"/>
    <tag k="area" v="yes"/>
    <tag k="barrier" v="fence"/>
    <tag k="name" v="Tierpark Hellabrunn"/>
    <tag k="phone" v="+49 89 62508 0"/>
    <tag k="tourism" v="zoo"/>
    <tag k="website" v="http://www.tierpark-hellabrunn.de/"/>
  </way>
  <way id="4642424" version="23" timestamp="2012-02-14T20:49:41Z" uid="9402" user="ludwich" changeset="10687113">
    <nd ref="29534248"/>
    <nd ref="1314209730"/>
    <nd ref="1633175569"/>
    <nd ref="1633175572"/>
    <nd ref="137951519"/>
    <nd ref="1633175571"/>
    <nd ref="247923541"/>
    <nd ref="137951525"/>
    <nd ref="1633175570"/>
    <nd ref="29534219"/>
    <nd ref="1314209737"/>
    <nd ref="29534220"/>
    <nd ref="1314209736"/>
    <nd ref="29534221"/>
    <nd ref="1314209731"/>
    <nd ref="29534222"/>
    <nd ref="1314209729"/>
    <nd ref="1633066950"/>
    <nd ref="29534250"/>
    <nd ref="1633066878"/>
    <nd ref="29534225"/>
    <nd ref="29534226"/>
    <nd ref="332381355"/>
    <nd ref="29534228"/>
    <nd ref="29534230"/>
    <nd ref="29534232"/>
    <nd ref="29534234"/>
    <nd ref="29534236"/>
    <nd ref="247923361"/>
    <nd ref="29534240"/>
    <nd ref="330067695"/>
    <nd ref="29534242"/>
    <nd ref="330067683"/>
    <nd ref="29534244"/>
    <nd ref="330067691"/>
    <nd ref="29534245"/>
    <nd ref="29534246"/>
    <nd ref="1314209735"/>
    <nd ref="1314209733"/>
    <nd ref="29534248"/>
    <tag k="TMC:cid_58:tabcd_1:Class" v="Area"/>
    <tag k="TMC:cid_58:tabcd_1:LCLversion" v="9.00"/>
    <tag k="TMC:cid_58:tabcd_1:LocationCode" v="26385"/>
    <tag k="addr:city" v="München"/>
    <tag k="addr:country" v="DE"/>
    <tag k="addr:housenumber" v="30"/>
    <tag k="addr:postcode" v="81543"/>
    <tag k="addr:street" v="Tierparkstraße"/>
    <tag k="area" v="yes"/>
    <tag k="barrier" v="fence"/>
    <tag k="name" v="Tierpark Hellabrunn"/>
    <tag k="phone" v="+49 89 62508 0"/>
    <tag k="tourism" v="zoo"/>
    <tag k="website" v="http://www.tierpark-hellabrunn.de/"/>
  </way>
  <way id="4642424" version="24" timestamp="2012-02-17T19:37:42Z" uid="9402" user="ludwich" changeset="10714388">
    <nd ref="29534248"/>
    <nd ref="1314209730"/>
    <nd ref="1633175569"/>
    <nd ref="1633175572"/>
    <nd ref="137951519"/>
    <nd ref="1633175571"/>
    <nd ref="247923541"/>
    <nd ref="137951525"/>
    <nd ref="1633175570"/>
    <nd ref="29534219"/>
    <nd ref="1314209737"/>
    <nd ref="29534220"/>
    <nd ref="1314209736"/>
    <nd ref="29534221"/>
    <nd ref="1314209731"/>
    <nd ref="29534222"/>
    <nd ref="1314209729"/>
    <nd ref="1633066950"/>
    <nd ref="29534250"/>
    <nd ref="1633066878"/>
    <nd ref="29534225"/>
    <nd ref="29534226"/>
    <nd ref="332381355"/>
    <nd ref="29534228"/>
    <nd ref="29534232"/>
    <nd ref="29534234"/>
    <nd ref="29534236"/>
    <nd ref="247923361"/>
    <nd ref="29534240"/>
    <nd ref="330067695"/>
    <nd ref="29534242"/>
    <nd ref="330067683"/>
    <nd ref="29534244"/>
    <nd ref="330067691"/>
    <nd ref="29534245"/>
    <nd ref="29534246"/>
    <nd ref="1314209735"/>
    <nd ref="1314209733"/>
    <nd ref="29534248"/>
    <tag k="TMC:cid_58:tabcd_1:Class" v="Area"/>
    <tag k="TMC:cid_58:tabcd_1:LCLversion" v="9.00"/>
    <tag k="TMC:cid_58:tabcd_1:LocationCode" v="26385"/>
    <tag k="addr:city" v="München"/>
    <tag k="addr:country" v="DE"/>
    <tag k="addr:housenumber" v="30"/>
    <tag k="addr:postcode" v="81543"/>
    <tag k="addr:street" v="Tierparkstraße"/>
    <tag k="area" v="yes"/>
    <tag k="barrier" v="fence"/>
    <tag k="name" v="Tierpark Hellabrunn"/>
    <tag k="phone" v="+49 89 62508 0"/>
    <tag k="tourism" v="zoo"/>
    <tag k="website" v="http://www.tierpark-hellabrunn.de/"/>
  </way>
  <way id="4642424" version="25" timestamp="2012-02-18T23:25:57Z" uid="9402" user="ludwich" changeset="10725520">
    <nd ref="29534248"/>
    <nd ref="1314209730"/>
    <nd ref="1633175569"/>
    <nd ref="1633175572"/>
    <nd ref="137951519"/>
    <nd ref="1633175571"/>
    <nd ref="247923541"/>
    <nd ref="137951525"/>
    <nd ref="1633175570"/>
    <nd ref="29534219"/>
    <nd ref="1314209737"/>
    <nd ref="29534220"/>
    <nd ref="1314209736"/>
    <nd ref="29534221"/>
    <nd ref="1314209731"/>
    <nd ref="29534222"/>
    <nd ref="1314209729"/>
    <nd ref="1633066950"/>
    <nd ref="29534250"/>
    <nd ref="1633066878"/>
    <nd ref="29534225"/>
    <nd ref="29534226"/>
    <nd ref="332381355"/>
    <nd ref="29534228"/>
    <nd ref="29534232"/>
    <nd ref="29534234"/>
    <nd ref="29534236"/>
    <nd ref="247923361"/>
    <nd ref="29534240"/>
    <nd ref="330067695"/>
    <nd ref="29534242"/>
    <nd ref="330067683"/>
    <nd ref="29534244"/>
    <nd ref="330067691"/>
    <nd ref="29534246"/>
    <nd ref="1638426451"/>
    <nd ref="1314209735"/>
    <nd ref="1314209733"/>
    <nd ref="29534248"/>
    <tag k="TMC:cid_58:tabcd_1:Class" v="Area"/>
    <tag k="TMC:cid_58:tabcd_1:LCLversion" v="9.00"/>
    <tag k="TMC:cid_58:tabcd_1:LocationCode" v="26385"/>
    <tag k="addr:city" v="München"/>
    <tag k="addr:country" v="DE"/>
    <tag k="addr:housenumber" v="30"/>
    <tag k="addr:postcode" v="81543"/>
    <tag k="addr:street" v="Tierparkstraße"/>
    <tag k="area" v="yes"/>
    <tag k="barrier" v="fence"/>
    <tag k="name" v="Tierpark Hellabrunn"/>
    <tag k="phone" v="+49 89 62508 0"/>
    <tag k="tourism" v="zoo"/>
    <tag k="website" v="http://www.tierpark-hellabrunn.de/"/>
  </way>
  <way id="4642424" version="26" timestamp="2012-02-19T17:58:59Z" uid="9402" user="ludwich" changeset="10732860">
    <nd ref="29534248"/>
    <nd ref="1314209730"/>
    <nd ref="1633175569"/>
    <nd ref="1633175572"/>
    <nd ref="137951519"/>
    <nd ref="1633175571"/>
    <nd ref="247923541"/>
    <nd ref="137951525"/>
    <nd ref="1633175570"/>
    <nd ref="29534219"/>
    <nd ref="1314209737"/>
    <nd ref="29534220"/>
    <nd ref="1314209736"/>
    <nd ref="29534221"/>
    <nd ref="1314209731"/>
    <nd ref="29534222"/>
    <nd ref="1314209729"/>
    <nd ref="1633066950"/>
    <nd ref="29534250"/>
    <nd ref="1633066878"/>
    <nd ref="29534225"/>
    <nd ref="29534226"/>
    <nd ref="332381355"/>
    <nd ref="29534228"/>
    <nd ref="29534232"/>
    <nd ref="1639439641"/>
    <nd ref="1639439665"/>
    <nd ref="1639439668"/>
    <nd ref="29534234"/>
    <nd ref="29534236"/>
    <nd ref="247923361"/>
    <nd ref="29534240"/>
    <nd ref="330067695"/>
    <nd ref="29534242"/>
    <nd ref="330067683"/>
    <nd ref="29534244"/>
    <nd ref="330067691"/>
    <nd ref="29534246"/>
    <nd ref="1638426451"/>
    <nd ref="1314209735"/>
    <nd ref="1314209733"/>
    <nd ref="29534248"/>
    <tag k="TMC:cid_58:tabcd_1:Class" v="Area"/>
    <tag k="TMC:cid_58:tabcd_1:LCLversion" v="9.00"/>
    <tag k="TMC:cid_58:tabcd_1:LocationCode" v="26385"/>
    <tag k="addr:city" v="München"/>
    <tag k="addr:country" v="DE"/>
    <tag k="addr:housenumber" v="30"/>
    <tag k="addr:postcode" v="81543"/>
    <tag k="addr:street" v="Tierparkstraße"/>
    <tag k="area" v="yes"/>
    <tag k="barrier" v="fence"/>
    <tag k="name" v="Tierpark Hellabrunn"/>
    <tag k="phone" v="+49 89 62508 0"/>
    <tag k="tourism" v="zoo"/>
    <tag k="website" v="http://www.tierpark-hellabrunn.de/"/>
  </way>
  <way id="4642424" version="27" timestamp="2012-02-25T11:02:28Z" uid="9402" user="ludwich" changeset="10786436">
    <nd ref="29534248"/>
    <nd ref="1314209730"/>
    <nd ref="1633175569"/>
    <nd ref="1633175572"/>
    <nd ref="137951519"/>
    <nd ref="1633175571"/>
    <nd ref="247923541"/>
    <nd ref="137951525"/>
    <nd ref="1633175570"/>
    <nd ref="29534219"/>
    <nd ref="1314209737"/>
    <nd ref="29534220"/>
    <nd ref="1314209736"/>
    <nd ref="29534221"/>
    <nd ref="1314209731"/>
    <nd ref="29534222"/>
    <nd ref="1314209729"/>
    <nd ref="1633066950"/>
    <nd ref="29534250"/>
    <nd ref="1633066878"/>
    <nd ref="29534225"/>
    <nd ref="29534226"/>
    <nd ref="332381355"/>
    <nd ref="29534228"/>
    <nd ref="29534232"/>
    <nd ref="1639439665"/>
    <nd ref="29534234"/>
    <nd ref="29534236"/>
    <nd ref="247923361"/>
    <nd ref="29534240"/>
    <nd ref="330067695"/>
    <nd ref="29534242"/>
    <nd ref="330067683"/>
    <nd ref="29534244"/>
    <nd ref="330067691"/>
    <nd ref="29534246"/>
    <nd ref="1638426451"/>
    <nd ref="1314209735"/>
    <nd ref="1314209733"/>
    <nd ref="29534248"/>
    <tag k="TMC:cid_58:tabcd_1:Class" v="Area"/>
    <tag k="TMC:cid_58:tabcd_1:LCLversion" v="9.00"/>
    <tag k="TMC:cid_58:tabcd_1:LocationCode" v="26385"/>
    <tag k="addr:city" v="München"/>
    <tag k="addr:country" v="DE"/>
    <tag k="addr:housenumber" v="30"/>
    <tag k="addr:postcode" v="81543"/>
    <tag k="addr:street" v="Tierparkstraße"/>
    <tag k="area" v="yes"/>
    <tag k="barrier" v="fence"/>
    <tag k="name" v="Tierpark Hellabrunn"/>
    <tag k="phone" v="+49 89 62508 0"/>
    <tag k="tourism" v="zoo"/>
    <tag k="website" v="http://www.tierpark-hellabrunn.de/"/>
  </way>
  <way id="4642424" version="28" timestamp="2012-03-23T09:22:29Z" uid="8748" user="ToniE" changeset="11071743"/>
  <way id="4642458" version="1" timestamp="2007-07-11T18:54:47Z" uid="8328" user="benpre" changeset="139030">
    <nd ref="27491145"/>
    <nd ref="29534556"/>
    <nd ref="29534557"/>
    <nd ref="29534559"/>
    <nd ref="29534561"/>
    <nd ref="29534563"/>
    <nd ref="29534564"/>
    <nd ref="29534565"/>
    <nd ref="29534566"/>
    <nd ref="29534567"/>
    <nd ref="29534568"/>
    <nd ref="29534179"/>
    <nd ref="29534178"/>
    <nd ref="27491124"/>
    <tag k="created_by" v="JOSM"/>
    <tag k="highway" v="residential"/>
  </way>
  <way id="4642458" version="2" timestamp="2008-02-24T14:42:52Z" uid="6669" user="Elwood" changeset="192075">
    <nd ref="27491145"/>
    <nd ref="29534556"/>
    <nd ref="29534557"/>
    <nd ref="29534559"/>
    <nd ref="29534561"/>
    <nd ref="29534563"/>
    <nd ref="29534564"/>
    <nd ref="29534565"/>
    <nd ref="29534566"/>
    <nd ref="29534567"/>
    <nd ref="29534568"/>
    <nd ref="249098209"/>
    <tag k="created_by" v="JOSM"/>
    <tag k="highway" v="residential"/>
  </way>
  <way id="4642458" version="3" timestamp="2008-07-12T09:17:10Z" uid="6669" user="Elwood" changeset="465079">
    <nd ref="27491145"/>
    <nd ref="29534556"/>
    <nd ref="29534557"/>
    <nd ref="29534559"/>
    <nd ref="29534561"/>
    <nd ref="29534563"/>
    <nd ref="29534564"/>
    <nd ref="29534565"/>
    <nd ref="29534566"/>
    <nd ref="29534567"/>
    <nd ref="29534568"/>
    <nd ref="277880962"/>
    <nd ref="249098209"/>
    <tag k="created_by" v="JOSM"/>
    <tag k="highway" v="residential"/>
  </way>
  <way id="4642458" version="4" timestamp="2008-07-12T16:50:14Z" uid="6669" user="Elwood" changeset="468197">
    <nd ref="27491145"/>
    <nd ref="29534556"/>
    <nd ref="29534557"/>
    <nd ref="29534559"/>
    <nd ref="29534561"/>
    <nd ref="29534563"/>
    <nd ref="29534564"/>
    <nd ref="29534565"/>
    <nd ref="29534566"/>
    <nd ref="29534567"/>
    <nd ref="29534568"/>
    <nd ref="277880962"/>
    <nd ref="249098209"/>
    <tag k="created_by" v="JOSM"/>
    <tag k="highway" v="unclassified"/>
  </way>
  <way id="4642458" version="5" timestamp="2008-08-06T14:12:29Z" uid="17889" user="rrissiek" changeset="96671">
    <nd ref="27491145"/>
    <nd ref="29534556"/>
    <nd ref="29534557"/>
    <nd ref="29534559"/>
    <nd ref="29534561"/>
    <nd ref="29534563"/>
    <nd ref="29534564"/>
    <nd ref="29534565"/>
    <nd ref="29534566"/>
    <nd ref="29534567"/>
    <nd ref="29534568"/>
    <nd ref="277880962"/>
    <nd ref="249098209"/>
    <tag k="created_by" v="JOSM"/>
    <tag k="highway" v="tertiary"/>
  </way>
  <way id="4642458" version="6" timestamp="2008-09-30T17:44:14Z" uid="35787" user="Randbewohner" changeset="721457">
    <nd ref="27491145"/>
    <nd ref="29534556"/>
    <nd ref="29534557"/>
    <nd ref="29534559"/>
    <nd ref="29534561"/>
    <nd ref="29534563"/>
    <nd ref="29534564"/>
    <nd ref="29534565"/>
    <nd ref="29534566"/>
    <nd ref="29534567"/>
    <nd ref="29534568"/>
    <nd ref="277880962"/>
    <nd ref="249098209"/>
    <tag k="created_by" v="Potlatch 0.10c"/>
    <tag k="highway" v="unclassified"/>
  </way>
  <way id="4642458" version="7" timestamp="2008-11-10T07:45:08Z" uid="43602" user="kilrathi" changeset="730733">
    <nd ref="27491145"/>
    <nd ref="310983166"/>
    <nd ref="29534556"/>
    <nd ref="29534557"/>
    <nd ref="29534559"/>
    <nd ref="29534561"/>
    <nd ref="29534563"/>
    <nd ref="29534564"/>
    <nd ref="29534565"/>
    <nd ref="29534566"/>
    <nd ref="29534567"/>
    <nd ref="29534568"/>
    <nd ref="277880962"/>
    <nd ref="249098209"/>
    <tag k="created_by" v="Potlatch 0.10c"/>
    <tag k="highway" v="unclassified"/>
  </way>
  <way id="4642458" version="8" timestamp="2009-02-01T09:52:22Z" uid="50252" user="Lewis Carroll" changeset="35432">
    <nd ref="27491145"/>
    <nd ref="310983166"/>
    <nd ref="29534556"/>
    <nd ref="29534557"/>
    <nd ref="29534559"/>
    <nd ref="29534561"/>
    <nd ref="29534563"/>
    <nd ref="29534564"/>
    <nd ref="29534565"/>
    <nd ref="29534566"/>
    <nd ref="29534567"/>
    <nd ref="29534568"/>
    <nd ref="277880962"/>
    <nd ref="339594085"/>
    <nd ref="249098209"/>
    <tag k="created_by" v="Potlatch 0.10c"/>
    <tag k="highway" v="unclassified"/>
  </way>
  <way id="4642458" version="9" timestamp="2009-02-06T13:00:18Z" uid="52749" user="RayBerlin" changeset="204440">
    <nd ref="27491145"/>
    <nd ref="310983166"/>
    <nd ref="29534556"/>
    <nd ref="29534557"/>
    <nd ref="29534559"/>
    <nd ref="29534561"/>
    <nd ref="29534563"/>
    <nd ref="29534564"/>
    <nd ref="29534565"/>
    <nd ref="29534566"/>
    <nd ref="29534567"/>
    <nd ref="29534568"/>
    <nd ref="277880962"/>
    <nd ref="339594085"/>
    <nd ref="249098209"/>
    <tag k="created_by" v="Potlatch 0.10f"/>
    <tag k="highway" v="unclassified"/>
    <tag k="name" v="Birkholzer Straße"/>
  </way>
  <way id="4642458" version="10" timestamp="2009-04-04T05:29:46Z" uid="66391" user="geozeisig" changeset="164398">
    <nd ref="27491145"/>
    <nd ref="310983166"/>
    <nd ref="369644503"/>
    <nd ref="369644504"/>
    <nd ref="369644505"/>
    <nd ref="29534556"/>
    <tag k="construction" v="tertiary"/>
    <tag k="created_by" v="Potlatch 0.10f"/>
    <tag k="highway" v="construction"/>
    <tag k="layer" v="-2"/>
    <tag k="name" v="Birkholzer Straße"/>
  </way>
  <way id="4642458" version="11" timestamp="2009-04-05T07:09:46Z" uid="66391" user="geozeisig" changeset="206871">
    <nd ref="27491145"/>
    <nd ref="310983166"/>
    <nd ref="369644503"/>
    <nd ref="369644504"/>
    <nd ref="369644505"/>
    <nd ref="29534556"/>
    <tag k="construction" v="tertiary"/>
    <tag k="created_by" v="Potlatch 0.10f"/>
    <tag k="highway" v="construction"/>
    <tag k="layer" v="-2"/>
  </way>
  <way id="4642458" version="12" timestamp="2009-04-16T08:21:48Z" uid="66391" user="geozeisig" changeset="590355">
    <nd ref="27491145"/>
    <nd ref="310983166"/>
    <nd ref="369644503"/>
    <nd ref="369644504"/>
    <nd ref="369644505"/>
    <nd ref="377694483"/>
    <nd ref="29534556"/>
    <tag k="construction" v="tertiary"/>
    <tag k="created_by" v="Potlatch 0.10f"/>
    <tag k="highway" v="construction"/>
    <tag k="layer" v="-2"/>
  </way>
  <way id="4642458" version="13" timestamp="2009-05-02T04:46:14Z" uid="66391" user="geozeisig" changeset="1043902">
    <nd ref="27491145"/>
    <nd ref="310983166"/>
    <nd ref="369644503"/>
    <nd ref="369644504"/>
    <nd ref="369644505"/>
    <nd ref="377694483"/>
    <nd ref="29534556"/>
    <tag k="construction" v="tertiary"/>
    <tag k="created_by" v="Potlatch 0.10f"/>
    <tag k="highway" v="construction"/>
  </way>
  <way id="4642458" version="14" timestamp="2009-08-08T06:54:07Z" uid="43566" user="anbr" changeset="2072277">
    <nd ref="27491145"/>
    <nd ref="310983166"/>
    <nd ref="369644504"/>
    <nd ref="369644505"/>
    <nd ref="377694483"/>
    <nd ref="29534556"/>
    <tag k="construction" v="tertiary"/>
    <tag k="created_by" v="Potlatch 0.10f"/>
    <tag k="highway" v="construction"/>
  </way>
  <way id="4642458" version="15" timestamp="2009-12-19T13:58:18Z" uid="52749" user="RayBerlin" changeset="3406903">
    <nd ref="27491145"/>
    <nd ref="310983166"/>
    <nd ref="369644504"/>
    <nd ref="369644505"/>
    <nd ref="377694483"/>
    <nd ref="29534556"/>
    <tag k="highway" v="secondary"/>
    <tag k="ref" v="L 76 neu"/>
  </way>
  <way id="4642458" version="16" timestamp="2009-12-19T17:21:41Z" uid="52749" user="RayBerlin" changeset="3408389">
    <nd ref="27491145"/>
    <nd ref="310983166"/>
    <nd ref="369644504"/>
    <nd ref="369644505"/>
    <nd ref="377694483"/>
    <nd ref="29534556"/>
    <tag k="highway" v="secondary"/>
    <tag k="ref" v="L 76"/>
  </way>
  <way id="4642458" version="17" timestamp="2009-12-19T19:39:50Z" uid="52749" user="RayBerlin" changeset="3409292">
    <nd ref="27491145"/>
    <nd ref="310983166"/>
    <nd ref="369644504"/>
    <nd ref="369644505"/>
    <tag k="highway" v="secondary"/>
    <tag k="ref" v="L 76"/>
  </way>
  <way id="4642458" version="18" timestamp="2010-09-17T18:43:03Z" uid="43566" user="anbr" changeset="5806102">
    <nd ref="27491145"/>
    <nd ref="310983166"/>
    <nd ref="369644504"/>
    <nd ref="369644505"/>
    <tag k="highway" v="tertiary"/>
  </way>
  <way id="4642458" version="19" timestamp="2010-11-11T17:51:08Z" uid="43566" user="anbr" changeset="6345367">
    <nd ref="27491145"/>
    <nd ref="369644504"/>
    <nd ref="369644505"/>
    <tag k="highway" v="tertiary"/>
    <tag k="ref" v="L 76"/>
  </way>
  <way id="4642458" version="20" timestamp="2011-07-23T12:31:41Z" uid="425131" user="Delichon" changeset="8805870">
    <nd ref="27491145"/>
    <nd ref="369644504"/>
    <tag k="highway" v="tertiary"/>
    <tag k="ref" v="L 76"/>
  </way>
  <way id="4642458" version="21" timestamp="2012-02-02T07:52:03Z" uid="66391" user="geozeisig" changeset="10564937"/>
  <way id="4642478" version="3" timestamp="2008-06-30T15:47:42Z" uid="33382" user="de_muur" changeset="348434">
    <nd ref="29534645"/>
    <nd ref="29534643"/>
    <nd ref="29534641"/>
    <nd ref="29534639"/>
    <nd ref="29534638"/>
    <nd ref="29534637"/>
    <nd ref="29534636"/>
    <nd ref="29534635"/>
    <nd ref="29534634"/>
    <nd ref="29534633"/>
    <nd ref="29534632"/>
    <nd ref="29534631"/>
    <nd ref="29534630"/>
    <nd ref="29534629"/>
    <nd ref="29534628"/>
    <nd ref="29534627"/>
    <nd ref="29534626"/>
    <nd ref="29534501"/>
    <nd ref="29534504"/>
    <nd ref="29534507"/>
    <nd ref="29534509"/>
    <nd ref="29534511"/>
    <nd ref="29534570"/>
    <nd ref="29534571"/>
    <nd ref="29534572"/>
    <nd ref="29534573"/>
    <nd ref="29534574"/>
    <nd ref="29534575"/>
    <nd ref="29534576"/>
    <nd ref="29534592"/>
    <nd ref="29534593"/>
    <nd ref="29534594"/>
    <nd ref="29534595"/>
    <nd ref="29534596"/>
    <nd ref="29534597"/>
    <nd ref="29534598"/>
    <nd ref="29534599"/>
    <nd ref="29534600"/>
    <nd ref="29534601"/>
    <nd ref="29588439"/>
    <nd ref="29534602"/>
    <nd ref="29534603"/>
    <nd ref="29534604"/>
    <nd ref="29534605"/>
    <nd ref="29534606"/>
    <nd ref="29534607"/>
    <nd ref="29534608"/>
    <nd ref="29534609"/>
    <nd ref="29534610"/>
    <nd ref="29534611"/>
    <nd ref="29534612"/>
    <nd ref="29534613"/>
    <nd ref="29534614"/>
    <nd ref="29534615"/>
    <nd ref="29534616"/>
    <nd ref="29534617"/>
    <nd ref="29534618"/>
    <nd ref="29534619"/>
    <nd ref="274954597"/>
    <nd ref="29534620"/>
    <nd ref="29534621"/>
    <nd ref="29534622"/>
    <nd ref="29534623"/>
    <nd ref="29534624"/>
    <nd ref="29534625"/>
    <nd ref="29534098"/>
    <tag k="created_by" v="JOSM"/>
    <tag k="highway" v="tertiary"/>
    <tag k="ref" v="K124"/>
    <tag k="surface" v="paved"/>
  </way>
  <way id="4642478" version="4" timestamp="2008-08-06T21:36:46Z" uid="51705" user="Michael_Stellichte" changeset="111489">
    <nd ref="29534645"/>
    <nd ref="29534643"/>
    <nd ref="29534641"/>
    <nd ref="29534639"/>
    <nd ref="29534638"/>
    <nd ref="29534637"/>
    <nd ref="29534636"/>
    <nd ref="29534635"/>
    <nd ref="29534634"/>
    <nd ref="29534633"/>
    <nd ref="29534632"/>
    <nd ref="29534631"/>
    <nd ref="29534630"/>
    <nd ref="29534629"/>
    <nd ref="29534628"/>
    <nd ref="29534627"/>
    <nd ref="29534626"/>
    <nd ref="29534501"/>
    <nd ref="29534504"/>
    <nd ref="29534507"/>
    <nd ref="29534509"/>
    <nd ref="29534511"/>
    <nd ref="29534570"/>
    <nd ref="29534571"/>
    <nd ref="29534572"/>
    <nd ref="29534573"/>
    <nd ref="29534574"/>
    <nd ref="29534575"/>
    <nd ref="29534576"/>
    <nd ref="29534592"/>
    <nd ref="29534593"/>
    <nd ref="29534594"/>
    <nd ref="29534595"/>
    <nd ref="29534596"/>
    <nd ref="29534597"/>
    <nd ref="29534598"/>
    <nd ref="29534599"/>
    <nd ref="29534600"/>
    <nd ref="29534601"/>
    <nd ref="29588439"/>
    <nd ref="29534602"/>
    <nd ref="29534603"/>
    <nd ref="29534604"/>
    <nd ref="29534605"/>
    <nd ref="29534606"/>
    <nd ref="29534607"/>
    <nd ref="29534608"/>
    <nd ref="29534609"/>
    <nd ref="29534610"/>
    <nd ref="29534611"/>
    <nd ref="29534612"/>
    <nd ref="29534613"/>
    <nd ref="29534614"/>
    <nd ref="29534615"/>
    <nd ref="29534616"/>
    <nd ref="29534617"/>
    <nd ref="29534618"/>
    <nd ref="29534619"/>
    <nd ref="274954597"/>
    <nd ref="29534620"/>
    <nd ref="29534621"/>
    <nd ref="29534622"/>
    <nd ref="29534623"/>
    <nd ref="29534624"/>
    <nd ref="29534625"/>
    <nd ref="29534098"/>
    <tag k="created_by" v="Potlatch 0.10b"/>
    <tag k="highway" v="tertiary"/>
    <tag k="ref" v="K124"/>
    <tag k="surface" v="paved"/>
  </way>
  <way id="4642478" version="5" timestamp="2008-08-06T21:37:20Z" uid="51705" user="Michael_Stellichte" changeset="111489">
    <nd ref="29534645"/>
    <nd ref="29534643"/>
    <nd ref="29534641"/>
    <nd ref="29534639"/>
    <nd ref="29534638"/>
    <nd ref="29534637"/>
    <nd ref="29534636"/>
    <nd ref="29534635"/>
    <nd ref="29534634"/>
    <nd ref="29534633"/>
    <nd ref="29534632"/>
    <nd ref="29534631"/>
    <nd ref="29534630"/>
    <nd ref="29534629"/>
    <nd ref="29534628"/>
    <nd ref="29534627"/>
    <nd ref="29534626"/>
    <nd ref="29534501"/>
    <nd ref="29534504"/>
    <nd ref="29534507"/>
    <nd ref="29534509"/>
    <nd ref="29534511"/>
    <nd ref="29534570"/>
    <nd ref="29534571"/>
    <nd ref="29534572"/>
    <nd ref="29534573"/>
    <nd ref="29534574"/>
    <nd ref="29534575"/>
    <nd ref="29534576"/>
    <nd ref="29534592"/>
    <nd ref="29534593"/>
    <nd ref="29534594"/>
    <nd ref="29534595"/>
    <nd ref="29534596"/>
    <nd ref="29534597"/>
    <nd ref="29534598"/>
    <nd ref="29534599"/>
    <nd ref="29534600"/>
    <nd ref="29534601"/>
    <nd ref="29588439"/>
    <nd ref="29534602"/>
    <nd ref="285637448"/>
    <nd ref="29534603"/>
    <nd ref="29534604"/>
    <nd ref="29534605"/>
    <nd ref="29534606"/>
    <nd ref="29534607"/>
    <nd ref="29534608"/>
    <nd ref="29534609"/>
    <nd ref="29534610"/>
    <nd ref="29534611"/>
    <nd ref="29534612"/>
    <nd ref="29534613"/>
    <nd ref="29534614"/>
    <nd ref="29534615"/>
    <nd ref="29534616"/>
    <nd ref="29534617"/>
    <nd ref="29534618"/>
    <nd ref="29534619"/>
    <nd ref="274954597"/>
    <nd ref="29534620"/>
    <nd ref="29534621"/>
    <nd ref="29534622"/>
    <nd ref="29534623"/>
    <nd ref="29534624"/>
    <nd ref="29534625"/>
    <nd ref="29534098"/>
    <tag k="created_by" v="Potlatch 0.10b"/>
    <tag k="highway" v="tertiary"/>
    <tag k="ref" v="K124"/>
    <tag k="surface" v="paved"/>
  </way>
  <way id="4642478" version="6" timestamp="2008-08-24T17:57:19Z" uid="51705" user="Michael_Stellichte" changeset="394224">
    <nd ref="29534645"/>
    <nd ref="29534643"/>
    <nd ref="29534641"/>
    <nd ref="29534639"/>
    <nd ref="29534638"/>
    <nd ref="29534637"/>
    <nd ref="29534636"/>
    <nd ref="29534635"/>
    <nd ref="29534634"/>
    <nd ref="29534633"/>
    <nd ref="29534632"/>
    <nd ref="29534631"/>
    <nd ref="29534630"/>
    <nd ref="29534629"/>
    <nd ref="29534628"/>
    <nd ref="29534627"/>
    <nd ref="29534626"/>
    <nd ref="29534501"/>
    <nd ref="29534504"/>
    <nd ref="29534507"/>
    <nd ref="29534509"/>
    <nd ref="29534511"/>
    <nd ref="29534570"/>
    <nd ref="29534571"/>
    <nd ref="29534572"/>
    <nd ref="29534573"/>
    <nd ref="29534574"/>
    <nd ref="29534575"/>
    <nd ref="29534576"/>
    <nd ref="29534592"/>
    <nd ref="29534593"/>
    <nd ref="29534594"/>
    <nd ref="29534595"/>
    <nd ref="29534596"/>
    <nd ref="29534597"/>
    <nd ref="29534598"/>
    <nd ref="29534599"/>
    <nd ref="29534600"/>
    <nd ref="29534601"/>
    <nd ref="29588439"/>
    <nd ref="29534602"/>
    <nd ref="285637448"/>
    <nd ref="29534603"/>
    <nd ref="29534604"/>
    <nd ref="29534605"/>
    <nd ref="29534606"/>
    <nd ref="29534607"/>
    <nd ref="29534608"/>
    <nd ref="29534609"/>
    <nd ref="29534610"/>
    <nd ref="29534611"/>
    <nd ref="29534612"/>
    <nd ref="29534613"/>
    <nd ref="29534614"/>
    <nd ref="29534615"/>
    <nd ref="29534616"/>
    <nd ref="29534617"/>
    <nd ref="29534618"/>
    <tag k="created_by" v="Potlatch 0.10b"/>
    <tag k="highway" v="tertiary"/>
    <tag k="ref" v="K124"/>
    <tag k="surface" v="paved"/>
  </way>
  <way id="4642478" version="7" timestamp="2008-09-16T20:41:43Z" uid="31059" user="DaBear" changeset="653506">
    <nd ref="29534645"/>
    <nd ref="29534643"/>
    <nd ref="29534641"/>
    <nd ref="29534639"/>
    <nd ref="29534638"/>
    <nd ref="29534637"/>
    <nd ref="29534636"/>
    <nd ref="29534635"/>
    <nd ref="29534634"/>
    <nd ref="29534633"/>
    <nd ref="29534632"/>
    <nd ref="29534631"/>
    <nd ref="29534630"/>
    <nd ref="29534629"/>
    <nd ref="29534628"/>
    <nd ref="29534627"/>
    <nd ref="29534626"/>
    <nd ref="29534501"/>
    <nd ref="29534504"/>
    <nd ref="29534507"/>
    <nd ref="29534509"/>
    <nd ref="29534511"/>
    <nd ref="29534570"/>
    <nd ref="29534571"/>
    <nd ref="29534572"/>
    <nd ref="29534573"/>
    <nd ref="29534574"/>
    <nd ref="29534575"/>
    <nd ref="29534576"/>
    <nd ref="29534592"/>
    <nd ref="29534593"/>
    <nd ref="29534594"/>
    <nd ref="29534595"/>
    <nd ref="29534596"/>
    <nd ref="29534597"/>
    <nd ref="29534598"/>
    <nd ref="29534599"/>
    <nd ref="29534600"/>
    <nd ref="29534601"/>
    <nd ref="29588439"/>
    <nd ref="29534602"/>
    <nd ref="285637448"/>
    <nd ref="29534603"/>
    <nd ref="29534604"/>
    <nd ref="29534605"/>
    <nd ref="29534606"/>
    <nd ref="29534607"/>
    <nd ref="29534608"/>
    <nd ref="29534609"/>
    <nd ref="29534610"/>
    <nd ref="29534611"/>
    <nd ref="29534612"/>
    <nd ref="29534613"/>
    <nd ref="29534614"/>
    <nd ref="29534615"/>
    <nd ref="29534616"/>
    <nd ref="29534617"/>
    <nd ref="29534618"/>
    <tag k="created_by" v="Potlatch 0.10b"/>
    <tag k="highway" v="tertiary"/>
    <tag k="ref" v="K 124"/>
    <tag k="surface" v="paved"/>
  </way>
  <way id="4642478" version="8" timestamp="2008-12-22T19:05:52Z" uid="11486" user="akemnade" changeset="550383">
    <nd ref="29534645"/>
    <nd ref="29534643"/>
    <nd ref="29534641"/>
    <nd ref="29534639"/>
    <nd ref="29534638"/>
    <nd ref="29534637"/>
    <nd ref="29534636"/>
    <nd ref="29534635"/>
    <nd ref="29534634"/>
    <nd ref="29534633"/>
    <nd ref="29534632"/>
    <nd ref="29534631"/>
    <nd ref="29534630"/>
    <nd ref="29534629"/>
    <nd ref="29534628"/>
    <nd ref="29534627"/>
    <nd ref="29534626"/>
    <nd ref="29534501"/>
    <nd ref="29534504"/>
    <nd ref="29534507"/>
    <nd ref="29534509"/>
    <nd ref="29534511"/>
    <nd ref="29534570"/>
    <nd ref="29534571"/>
    <nd ref="29534572"/>
    <nd ref="29534573"/>
    <nd ref="29534574"/>
    <nd ref="29534575"/>
    <nd ref="29534576"/>
    <nd ref="29534592"/>
    <nd ref="29534593"/>
    <nd ref="29534594"/>
    <nd ref="29534595"/>
    <nd ref="29534596"/>
    <nd ref="29534597"/>
    <nd ref="29534598"/>
    <nd ref="29534599"/>
    <nd ref="29534600"/>
    <nd ref="29534601"/>
    <nd ref="29588439"/>
    <nd ref="29534602"/>
    <nd ref="285634405"/>
    <nd ref="29534603"/>
    <nd ref="29534604"/>
    <nd ref="29534605"/>
    <nd ref="29534606"/>
    <nd ref="29534607"/>
    <nd ref="29534608"/>
    <nd ref="29534609"/>
    <nd ref="29534610"/>
    <nd ref="29534611"/>
    <nd ref="29534612"/>
    <nd ref="29534613"/>
    <nd ref="29534614"/>
    <nd ref="29534615"/>
    <nd ref="29534616"/>
    <nd ref="29534617"/>
    <nd ref="29534618"/>
    <tag k="created_by" v="Potlatch 0.10b"/>
    <tag k="highway" v="tertiary"/>
    <tag k="ref" v="K 124"/>
    <tag k="surface" v="paved"/>
  </way>
  <way id="4642478" version="9" timestamp="2008-12-24T16:11:12Z" uid="4473" user="EtricCeline" changeset="586202">
    <nd ref="29534645"/>
    <nd ref="29534643"/>
    <nd ref="29534641"/>
    <nd ref="29534639"/>
    <nd ref="29534638"/>
    <nd ref="29534637"/>
    <nd ref="29534636"/>
    <nd ref="29534635"/>
    <nd ref="29534634"/>
    <nd ref="29534633"/>
    <nd ref="29534632"/>
    <nd ref="29534631"/>
    <nd ref="29534630"/>
    <nd ref="29534629"/>
    <nd ref="29534628"/>
    <nd ref="29534627"/>
    <nd ref="29534626"/>
    <nd ref="29534501"/>
    <nd ref="29534504"/>
    <nd ref="29534507"/>
    <nd ref="29534509"/>
    <nd ref="29534511"/>
    <nd ref="29534570"/>
    <nd ref="29534571"/>
    <nd ref="29534572"/>
    <nd ref="29534573"/>
    <nd ref="29534574"/>
    <nd ref="29534575"/>
    <nd ref="29534576"/>
    <nd ref="29534592"/>
    <nd ref="29534593"/>
    <nd ref="29534594"/>
    <nd ref="29534595"/>
    <nd ref="29534596"/>
    <nd ref="29534597"/>
    <nd ref="29534598"/>
    <nd ref="29534599"/>
    <nd ref="29534600"/>
    <nd ref="29534601"/>
    <nd ref="29588439"/>
    <nd ref="29534602"/>
    <nd ref="285634405"/>
    <nd ref="29534603"/>
    <nd ref="29534604"/>
    <nd ref="29534605"/>
    <nd ref="29534606"/>
    <nd ref="29534607"/>
    <nd ref="29534608"/>
    <nd ref="29534609"/>
    <nd ref="290755033"/>
    <nd ref="29534610"/>
    <nd ref="29534611"/>
    <nd ref="29534612"/>
    <nd ref="29534613"/>
    <nd ref="29534614"/>
    <nd ref="29534615"/>
    <nd ref="29534616"/>
    <nd ref="29534617"/>
    <nd ref="29534618"/>
    <tag k="created_by" v="Potlatch 0.10b"/>
    <tag k="highway" v="tertiary"/>
    <tag k="ref" v="K 124"/>
    <tag k="surface" v="paved"/>
  </way>
  <way id="4642478" version="10" timestamp="2009-03-21T20:40:31Z" uid="11486" user="akemnade" changeset="839971">
    <nd ref="29534645"/>
    <nd ref="29534643"/>
    <nd ref="29534641"/>
    <nd ref="29534639"/>
    <nd ref="29534638"/>
    <nd ref="364496348"/>
    <nd ref="29534637"/>
    <nd ref="29534636"/>
    <nd ref="29534635"/>
    <nd ref="29534634"/>
    <nd ref="29534633"/>
    <nd ref="29534632"/>
    <nd ref="29534631"/>
    <nd ref="29534630"/>
    <nd ref="29534629"/>
    <nd ref="29534628"/>
    <nd ref="29534627"/>
    <nd ref="29534626"/>
    <nd ref="29534501"/>
    <nd ref="29534504"/>
    <nd ref="29534507"/>
    <nd ref="29534509"/>
    <nd ref="29534511"/>
    <nd ref="29534570"/>
    <nd ref="29534571"/>
    <nd ref="29534572"/>
    <nd ref="29534573"/>
    <nd ref="29534574"/>
    <nd ref="29534575"/>
    <nd ref="29534576"/>
    <nd ref="29534592"/>
    <nd ref="29534593"/>
    <nd ref="29534594"/>
    <nd ref="29534595"/>
    <nd ref="29534596"/>
    <nd ref="29534597"/>
    <nd ref="29534598"/>
    <nd ref="29534599"/>
    <nd ref="29534600"/>
    <nd ref="29534601"/>
    <nd ref="29588439"/>
    <nd ref="29534602"/>
    <nd ref="285634405"/>
    <nd ref="29534603"/>
    <nd ref="29534604"/>
    <nd ref="29534605"/>
    <nd ref="29534606"/>
    <nd ref="29534607"/>
    <nd ref="29534608"/>
    <nd ref="29534609"/>
    <nd ref="290755033"/>
    <nd ref="29534610"/>
    <nd ref="29534611"/>
    <nd ref="29534612"/>
    <nd ref="29534613"/>
    <nd ref="29534614"/>
    <nd ref="29534615"/>
    <nd ref="29534616"/>
    <nd ref="29534617"/>
    <nd ref="29534618"/>
    <tag k="created_by" v="Potlatch 0.10b"/>
    <tag k="highway" v="tertiary"/>
    <tag k="ref" v="K 124"/>
    <tag k="surface" v="paved"/>
  </way>
  <way id="4642478" version="11" timestamp="2009-03-28T13:00:43Z" uid="51705" user="Michael_Stellichte" changeset="865795">
    <nd ref="29534645"/>
    <nd ref="29534643"/>
    <nd ref="29534641"/>
    <nd ref="29534639"/>
    <nd ref="366546017"/>
    <nd ref="29534638"/>
    <nd ref="364496348"/>
    <nd ref="29534637"/>
    <nd ref="29534636"/>
    <nd ref="29534635"/>
    <nd ref="29534634"/>
    <nd ref="29534633"/>
    <nd ref="29534632"/>
    <nd ref="29534631"/>
    <nd ref="29534630"/>
    <nd ref="29534629"/>
    <nd ref="29534628"/>
    <nd ref="29534627"/>
    <nd ref="29534626"/>
    <nd ref="29534501"/>
    <nd ref="29534504"/>
    <nd ref="29534507"/>
    <nd ref="29534509"/>
    <nd ref="29534511"/>
    <nd ref="29534570"/>
    <nd ref="29534571"/>
    <nd ref="29534572"/>
    <nd ref="29534573"/>
    <nd ref="29534574"/>
    <nd ref="29534575"/>
    <nd ref="29534576"/>
    <nd ref="29534592"/>
    <nd ref="29534593"/>
    <nd ref="29534594"/>
    <nd ref="29534595"/>
    <nd ref="29534596"/>
    <nd ref="29534597"/>
    <nd ref="29534598"/>
    <nd ref="29534599"/>
    <nd ref="29534600"/>
    <nd ref="29534601"/>
    <nd ref="29588439"/>
    <nd ref="29534602"/>
    <nd ref="285634405"/>
    <nd ref="29534603"/>
    <nd ref="29534604"/>
    <nd ref="29534605"/>
    <nd ref="29534606"/>
    <nd ref="29534607"/>
    <nd ref="29534608"/>
    <nd ref="29534609"/>
    <nd ref="290755033"/>
    <nd ref="29534610"/>
    <nd ref="29534611"/>
    <nd ref="29534612"/>
    <nd ref="29534613"/>
    <nd ref="29534614"/>
    <nd ref="29534615"/>
    <nd ref="29534616"/>
    <nd ref="29534617"/>
    <nd ref="29534618"/>
    <tag k="created_by" v="Potlatch 0.10f"/>
    <tag k="highway" v="tertiary"/>
    <tag k="ref" v="K 124"/>
    <tag k="surface" v="paved"/>
  </way>
  <way id="4642478" version="12" timestamp="2009-06-04T18:10:55Z" uid="42429" user="FK270673" changeset="1423132">
    <nd ref="29534645"/>
    <nd ref="29534643"/>
    <nd ref="29534641"/>
    <nd ref="29534639"/>
    <nd ref="366546017"/>
    <nd ref="29534638"/>
    <nd ref="364496348"/>
    <nd ref="29534637"/>
    <nd ref="29534636"/>
    <nd ref="29534635"/>
    <nd ref="29534634"/>
    <nd ref="29534633"/>
    <nd ref="29534632"/>
    <nd ref="29534631"/>
    <nd ref="29534630"/>
    <nd ref="29534629"/>
    <nd ref="29534628"/>
    <nd ref="29534627"/>
    <nd ref="29534626"/>
    <nd ref="29534501"/>
    <nd ref="29534504"/>
    <nd ref="29534507"/>
    <nd ref="29534509"/>
    <nd ref="29534511"/>
    <tag k="created_by" v="Potlatch 0.10f"/>
    <tag k="highway" v="tertiary"/>
    <tag k="ref" v="K 124"/>
    <tag k="surface" v="paved"/>
  </way>
  <way id="4642478" version="13" timestamp="2009-06-04T18:11:04Z" uid="42429" user="FK270673" changeset="1423132">
    <nd ref="29534645"/>
    <nd ref="29534643"/>
    <nd ref="29534641"/>
    <nd ref="29534639"/>
    <nd ref="366546017"/>
    <nd ref="29534638"/>
    <nd ref="364496348"/>
    <nd ref="29534637"/>
    <nd ref="29534636"/>
    <nd ref="29534635"/>
    <nd ref="29534634"/>
    <nd ref="29534633"/>
    <nd ref="29534632"/>
    <nd ref="29534631"/>
    <nd ref="29534630"/>
    <nd ref="29534629"/>
    <nd ref="29534628"/>
    <nd ref="29534627"/>
    <nd ref="29534626"/>
    <nd ref="29534501"/>
    <nd ref="29534504"/>
    <nd ref="29534507"/>
    <nd ref="29534509"/>
    <nd ref="29534511"/>
    <tag k="created_by" v="Potlatch 0.10f"/>
    <tag k="highway" v="tertiary"/>
    <tag k="name" v="Nordkampen"/>
    <tag k="ref" v="K 124"/>
    <tag k="surface" v="paved"/>
  </way>
  <way id="4642478" version="14" timestamp="2010-01-02T21:24:18Z" uid="57645" user="KartoGrapHiti" changeset="3522870">
    <nd ref="29534645"/>
    <nd ref="29534643"/>
    <nd ref="29534641"/>
    <nd ref="29534639"/>
    <nd ref="366546017"/>
    <nd ref="29534638"/>
    <nd ref="364496348"/>
    <nd ref="29534637"/>
    <nd ref="29534636"/>
    <nd ref="29534635"/>
    <nd ref="29534634"/>
    <nd ref="29534633"/>
    <nd ref="29534632"/>
    <nd ref="29534631"/>
    <nd ref="603276582"/>
    <nd ref="29534630"/>
    <nd ref="29534629"/>
    <nd ref="29534628"/>
    <nd ref="29534627"/>
    <nd ref="29534626"/>
    <nd ref="29534501"/>
    <nd ref="29534504"/>
    <nd ref="29534507"/>
    <nd ref="29534509"/>
    <nd ref="29534511"/>
    <tag k="highway" v="tertiary"/>
    <tag k="name" v="Nordkampen"/>
    <tag k="ref" v="K 124"/>
    <tag k="surface" v="paved"/>
  </way>
  <way id="4642478" version="15" timestamp="2011-01-30T14:27:42Z" uid="45882" user="smarties" changeset="7134737">
    <nd ref="29534645"/>
    <nd ref="29534643"/>
    <nd ref="29534641"/>
    <nd ref="29534639"/>
    <nd ref="366546017"/>
    <nd ref="29534638"/>
    <nd ref="364496348"/>
    <nd ref="29534637"/>
    <nd ref="29534636"/>
    <nd ref="29534635"/>
    <nd ref="1127977831"/>
    <nd ref="29534634"/>
    <nd ref="1127977832"/>
    <nd ref="29534633"/>
    <nd ref="29534632"/>
    <nd ref="29534631"/>
    <nd ref="603276582"/>
    <nd ref="29534630"/>
    <nd ref="29534629"/>
    <nd ref="1127977833"/>
    <tag k="highway" v="tertiary"/>
    <tag k="name" v="Nordkampen"/>
    <tag k="ref" v="K 124"/>
    <tag k="surface" v="paved"/>
  </way>
  <way id="4642478" version="16" timestamp="2011-05-26T18:30:09Z" uid="347762" user="Heideammer" changeset="8255914">
    <nd ref="29534645"/>
    <nd ref="29534641"/>
    <nd ref="29534639"/>
    <nd ref="366546017"/>
    <nd ref="29534638"/>
    <nd ref="364496348"/>
    <nd ref="29534637"/>
    <nd ref="29534636"/>
    <nd ref="29534635"/>
    <nd ref="1127977831"/>
    <nd ref="29534634"/>
    <nd ref="1127977832"/>
    <nd ref="29534633"/>
    <nd ref="29534632"/>
    <nd ref="29534631"/>
    <nd ref="603276582"/>
    <nd ref="29534630"/>
    <nd ref="29534629"/>
    <nd ref="1127977833"/>
    <tag k="highway" v="tertiary"/>
    <tag k="name" v="Nordkampen"/>
    <tag k="ref" v="K 124"/>
    <tag k="surface" v="paved"/>
  </way>
  <way id="4642478" version="17" timestamp="2011-05-26T19:30:48Z" uid="347762" user="Heideammer" changeset="8256483">
    <nd ref="29534645"/>
    <nd ref="1301113029"/>
    <nd ref="29534641"/>
    <nd ref="29534639"/>
    <nd ref="366546017"/>
    <nd ref="29534638"/>
    <nd ref="364496348"/>
    <nd ref="29534637"/>
    <nd ref="29534636"/>
    <nd ref="29534635"/>
    <nd ref="1127977832"/>
    <nd ref="29534633"/>
    <nd ref="29534632"/>
    <nd ref="1301113275"/>
    <nd ref="29534631"/>
    <nd ref="603276582"/>
    <nd ref="29534630"/>
    <nd ref="29534629"/>
    <nd ref="1127977833"/>
    <tag k="highway" v="tertiary"/>
    <tag k="name" v="Nordkampen"/>
    <tag k="ref" v="K 124"/>
    <tag k="surface" v="paved"/>
  </way>
  <way id="4642478" version="18" timestamp="2012-03-07T19:59:47Z" uid="45882" user="smarties" changeset="10903302"/>
  <way id="4642502" version="6" timestamp="2009-02-14T01:19:19Z" uid="36809" user="pfoten_weg_!_" changeset="423851">
    <nd ref="147048"/>
    <nd ref="147047"/>
    <nd ref="147046"/>
    <nd ref="147045"/>
    <tag k="created_by" v="RambaZamba"/>
    <tag k="highway" v="trunk"/>
    <tag k="lanes" v="2"/>
    <tag k="name" v="Tegernseer Landstraße"/>
    <tag k="oneway" v="yes"/>
    <tag k="osmarender:renderName" v="no"/>
    <tag k="ref" v="B 2 R;B 11"/>
    <tag k="source" v="survey"/>
    <tag k="svg:font-size" v="0"/>
  </way>
  <way id="4642502" version="7" timestamp="2009-03-04T11:52:20Z" uid="26299" user="uboot" changeset="733653">
    <nd ref="147048"/>
    <nd ref="147047"/>
    <nd ref="147046"/>
    <nd ref="147045"/>
    <tag k="highway" v="trunk"/>
    <tag k="lanes" v="2"/>
    <tag k="name" v="Tegernseer Landstraße"/>
    <tag k="oneway" v="yes"/>
    <tag k="osmarender:renderName" v="no"/>
    <tag k="ref" v="B 2 R;B 11"/>
    <tag k="source" v="survey"/>
  </way>
  <way id="4642502" version="8" timestamp="2009-06-02T20:51:12Z" uid="118197" user="JosmJo" changeset="1408592">
    <nd ref="147048"/>
    <nd ref="147047"/>
    <nd ref="147046"/>
    <nd ref="147045"/>
    <tag k="highway" v="trunk"/>
    <tag k="lanes" v="2"/>
    <tag k="name" v="Tegernseer Landstraße"/>
    <tag k="oneway" v="yes"/>
    <tag k="osmarender:renderName" v="no"/>
    <tag k="ref" v="B 2R;B 11"/>
    <tag k="source" v="survey"/>
  </way>
  <way id="4642502" version="9" timestamp="2009-06-26T18:01:16Z" uid="129061" user="Singvogel" changeset="1643338">
    <nd ref="147048"/>
    <nd ref="147047"/>
    <nd ref="147046"/>
    <nd ref="147045"/>
    <tag k="highway" v="primary"/>
    <tag k="lanes" v="2"/>
    <tag k="motorroad" v="yes"/>
    <tag k="name" v="Tegernseer Landstraße"/>
    <tag k="oneway" v="yes"/>
    <tag k="osmarender:renderName" v="no"/>
    <tag k="ref" v="B 2R;B 11"/>
    <tag k="source" v="survey"/>
  </way>
  <way id="4642502" version="10" timestamp="2009-07-18T17:31:39Z" uid="8748" user="ToniE" changeset="1865865">
    <nd ref="147048"/>
    <nd ref="443418402"/>
    <nd ref="147047"/>
    <nd ref="443418404"/>
    <nd ref="147046"/>
    <nd ref="147045"/>
    <tag k="highway" v="primary"/>
    <tag k="lanes" v="2"/>
    <tag k="motorroad" v="yes"/>
    <tag k="name" v="Tegernseer Landstraße"/>
    <tag k="oneway" v="yes"/>
    <tag k="osmarender:renderName" v="no"/>
    <tag k="ref" v="B 2R;B 11"/>
    <tag k="source" v="survey"/>
  </way>
  <way id="4642502" version="11" timestamp="2009-09-03T18:48:32Z" uid="8748" user="ToniE" changeset="2363111">
    <nd ref="147048"/>
    <nd ref="443418402"/>
    <nd ref="147047"/>
    <nd ref="443418404"/>
    <nd ref="147046"/>
    <nd ref="147045"/>
    <tag k="highway" v="primary"/>
    <tag k="lanes" v="2"/>
    <tag k="maxspeed" v="60"/>
    <tag k="motorroad" v="yes"/>
    <tag k="name" v="Tegernseer Landstraße"/>
    <tag k="oneway" v="yes"/>
    <tag k="osmarender:renderName" v="no"/>
    <tag k="ref" v="B 2R;B 11"/>
    <tag k="source" v="survey"/>
  </way>
  <way id="4642502" version="12" timestamp="2009-09-04T14:53:24Z" uid="8748" user="ToniE" changeset="2370694">
    <nd ref="147048"/>
    <nd ref="443418402"/>
    <nd ref="147047"/>
    <nd ref="443418404"/>
    <nd ref="147046"/>
    <tag k="highway" v="primary"/>
    <tag k="lanes" v="2"/>
    <tag k="maxspeed" v="60"/>
    <tag k="motorroad" v="yes"/>
    <tag k="name" v="Tegernseer Landstraße"/>
    <tag k="oneway" v="yes"/>
    <tag k="osmarender:renderName" v="no"/>
    <tag k="ref" v="B 2R;B 11"/>
    <tag k="source" v="survey"/>
  </way>
  <way id="4642502" version="13" timestamp="2009-09-23T20:05:16Z" uid="118197" user="JosmJo" changeset="2599790">
    <nd ref="147048"/>
    <nd ref="443418402"/>
    <nd ref="147047"/>
    <nd ref="443418404"/>
    <nd ref="147046"/>
    <tag k="highway" v="primary"/>
    <tag k="lanes" v="2"/>
    <tag k="maxspeed" v="60"/>
    <tag k="motorroad" v="yes"/>
    <tag k="name" v="Tegernseer Landstraße"/>
    <tag k="oneway" v="yes"/>
    <tag k="osmarender:renderName" v="no"/>
    <tag k="ref" v="B 2R"/>
    <tag k="source" v="survey"/>
  </way>
  <way id="4642502" version="14" timestamp="2010-04-25T17:27:40Z" uid="224490" user="Geo-Tobi" changeset="4524075">
    <nd ref="147048"/>
    <nd ref="443418402"/>
    <nd ref="147047"/>
    <tag k="highway" v="primary"/>
    <tag k="lanes" v="2"/>
    <tag k="maxspeed" v="60"/>
    <tag k="motorroad" v="yes"/>
    <tag k="name" v="Tegernseer Landstraße"/>
    <tag k="oneway" v="yes"/>
    <tag k="osmarender:renderName" v="no"/>
    <tag k="ref" v="B 2R"/>
    <tag k="source" v="survey"/>
  </way>
  <way id="4642502" version="15" timestamp="2011-02-18T18:37:14Z" uid="81244" user="rurseekatze" changeset="7325048">
    <nd ref="147048"/>
    <nd ref="1159497173"/>
    <nd ref="443418402"/>
    <nd ref="1159497199"/>
    <nd ref="147047"/>
    <tag k="highway" v="primary"/>
    <tag k="lanes" v="2"/>
    <tag k="maxspeed" v="60"/>
    <tag k="motorroad" v="yes"/>
    <tag k="name" v="Tegernseer Landstraße"/>
    <tag k="oneway" v="yes"/>
    <tag k="osmarender:renderName" v="no"/>
    <tag k="ref" v="B 2R"/>
    <tag k="source" v="survey"/>
  </way>
  <way id="4642502" version="16" timestamp="2011-09-01T02:42:26Z" uid="207745" user="NE2" changeset="9181205">
    <nd ref="147048"/>
    <nd ref="1159497173"/>
    <nd ref="443418402"/>
    <nd ref="1159497199"/>
    <nd ref="147047"/>
    <tag k="highway" v="primary"/>
    <tag k="lanes" v="2"/>
    <tag k="maxspeed" v="60"/>
    <tag k="motorroad" v="yes"/>
    <tag k="name" v="Tegernseer Landstraße"/>
    <tag k="oneway" v="yes"/>
    <tag k="ref" v="B 2R"/>
    <tag k="source" v="survey"/>
  </way>
  <way id="4642502" version="17" timestamp="2011-12-26T10:39:34Z" uid="13832" user="Peter14" changeset="10206060">
    <nd ref="1562299614"/>
    <nd ref="1159497173"/>
    <nd ref="443418402"/>
    <nd ref="1159497199"/>
    <nd ref="147047"/>
    <tag k="highway" v="primary"/>
    <tag k="lanes" v="2"/>
    <tag k="maxspeed" v="60"/>
    <tag k="motorroad" v="yes"/>
    <tag k="name" v="Tegernseer Landstraße"/>
    <tag k="oneway" v="yes"/>
    <tag k="ref" v="B 2R"/>
    <tag k="source" v="survey"/>
  </way>
  <way id="4642502" version="18" timestamp="2011-12-28T18:48:36Z" uid="13832" user="Peter14" changeset="10229072"/>
  <way id="4642508" version="5" timestamp="2009-02-14T01:19:20Z" uid="36809" user="pfoten_weg_!_" changeset="423851">
    <nd ref="471955"/>
    <nd ref="471954"/>
    <nd ref="471953"/>
    <nd ref="471952"/>
    <tag k="created_by" v="RambaZamba"/>
    <tag k="highway" v="trunk"/>
    <tag k="lanes" v="2"/>
    <tag k="name" v="Tegernseer Landstraße"/>
    <tag k="oneway" v="yes"/>
    <tag k="ref" v="B 2 R;B 11"/>
    <tag k="source" v="survey"/>
  </way>
  <way id="4642508" version="6" timestamp="2009-06-02T20:51:12Z" uid="118197" user="JosmJo" changeset="1408592">
    <nd ref="471955"/>
    <nd ref="471954"/>
    <nd ref="471953"/>
    <nd ref="471952"/>
    <tag k="created_by" v="RambaZamba"/>
    <tag k="highway" v="trunk"/>
    <tag k="lanes" v="2"/>
    <tag k="name" v="Tegernseer Landstraße"/>
    <tag k="oneway" v="yes"/>
    <tag k="ref" v="B 2R;B 11"/>
    <tag k="source" v="survey"/>
  </way>
  <way id="4642508" version="7" timestamp="2009-06-26T18:01:17Z" uid="129061" user="Singvogel" changeset="1643338">
    <nd ref="471955"/>
    <nd ref="471954"/>
    <nd ref="471953"/>
    <nd ref="471952"/>
    <tag k="created_by" v="RambaZamba"/>
    <tag k="highway" v="primary"/>
    <tag k="lanes" v="2"/>
    <tag k="motorroad" v="yes"/>
    <tag k="name" v="Tegernseer Landstraße"/>
    <tag k="oneway" v="yes"/>
    <tag k="ref" v="B 2R;B 11"/>
    <tag k="source" v="survey"/>
  </way>
  <way id="4642508" version="8" timestamp="2009-07-18T17:31:39Z" uid="8748" user="ToniE" changeset="1865865">
    <nd ref="471955"/>
    <nd ref="471954"/>
    <nd ref="471953"/>
    <nd ref="443418401"/>
    <nd ref="471952"/>
    <tag k="highway" v="primary"/>
    <tag k="lanes" v="2"/>
    <tag k="motorroad" v="yes"/>
    <tag k="name" v="Tegernseer Landstraße"/>
    <tag k="oneway" v="yes"/>
    <tag k="ref" v="B 2R;B 11"/>
    <tag k="source" v="survey"/>
  </way>
  <way id="4642508" version="9" timestamp="2009-09-03T18:48:30Z" uid="8748" user="ToniE" changeset="2363111">
    <nd ref="471955"/>
    <nd ref="471954"/>
    <nd ref="471953"/>
    <nd ref="443418401"/>
    <nd ref="471952"/>
    <tag k="highway" v="primary"/>
    <tag k="lanes" v="2"/>
    <tag k="maxspeed" v="60"/>
    <tag k="motorroad" v="yes"/>
    <tag k="name" v="Tegernseer Landstraße"/>
    <tag k="oneway" v="yes"/>
    <tag k="ref" v="B 2R;B 11"/>
    <tag k="source" v="survey"/>
  </way>
  <way id="4642508" version="10" timestamp="2009-09-23T20:05:12Z" uid="118197" user="JosmJo" changeset="2599790">
    <nd ref="471955"/>
    <nd ref="471954"/>
    <nd ref="471953"/>
    <nd ref="443418401"/>
    <nd ref="471952"/>
    <tag k="highway" v="primary"/>
    <tag k="lanes" v="2"/>
    <tag k="maxspeed" v="60"/>
    <tag k="motorroad" v="yes"/>
    <tag k="name" v="Tegernseer Landstraße"/>
    <tag k="oneway" v="yes"/>
    <tag k="ref" v="B 2R"/>
    <tag k="source" v="survey"/>
  </way>
  <way id="4642508" version="11" timestamp="2009-10-15T05:27:35Z" uid="65019" user="Kaefer84" changeset="2851225">
    <nd ref="471955"/>
    <nd ref="471954"/>
    <nd ref="471953"/>
    <nd ref="443418401"/>
    <nd ref="471952"/>
    <tag k="highway" v="primary"/>
    <tag k="lanes" v="2"/>
    <tag k="lit" v="yes"/>
    <tag k="maxspeed" v="60"/>
    <tag k="motorroad" v="yes"/>
    <tag k="name" v="Tegernseer Landstraße"/>
    <tag k="oneway" v="yes"/>
    <tag k="ref" v="B 2R"/>
    <tag k="source" v="survey"/>
  </way>
  <way id="4642508" version="12" timestamp="2010-04-25T18:55:36Z" uid="224490" user="Geo-Tobi" changeset="4525123">
    <nd ref="471955"/>
    <nd ref="471954"/>
    <nd ref="471953"/>
    <nd ref="443418401"/>
    <nd ref="471952"/>
    <tag k="highway" v="primary"/>
    <tag k="lanes" v="2"/>
    <tag k="lit" v="yes"/>
    <tag k="maxspeed" v="50"/>
    <tag k="motorroad" v="yes"/>
    <tag k="name" v="Tegernseer Landstraße"/>
    <tag k="oneway" v="yes"/>
    <tag k="ref" v="B 2R"/>
    <tag k="source" v="survey"/>
  </way>
  <way id="4642508" version="13" timestamp="2011-02-18T18:37:11Z" uid="81244" user="rurseekatze" changeset="7325048">
    <nd ref="471955"/>
    <nd ref="471954"/>
    <nd ref="471953"/>
    <nd ref="1159497227"/>
    <nd ref="443418401"/>
    <nd ref="1159497225"/>
    <nd ref="471952"/>
    <tag k="highway" v="primary"/>
    <tag k="lanes" v="2"/>
    <tag k="lit" v="yes"/>
    <tag k="maxspeed" v="50"/>
    <tag k="motorroad" v="yes"/>
    <tag k="name" v="Tegernseer Landstraße"/>
    <tag k="oneway" v="yes"/>
    <tag k="ref" v="B 2R"/>
    <tag k="source" v="survey"/>
  </way>
  <way id="4642508" version="14" timestamp="2011-02-18T18:57:12Z" uid="81244" user="rurseekatze" changeset="7325239">
    <nd ref="471955"/>
    <nd ref="471954"/>
    <nd ref="1159566725"/>
    <tag k="highway" v="primary"/>
    <tag k="lanes" v="2"/>
    <tag k="lit" v="yes"/>
    <tag k="maxspeed" v="50"/>
    <tag k="motorroad" v="yes"/>
    <tag k="name" v="Tegernseer Landstraße"/>
    <tag k="oneway" v="yes"/>
    <tag k="ref" v="B 2R"/>
    <tag k="source" v="survey"/>
  </way>
  <way id="4642508" version="15" timestamp="2011-12-18T18:55:50Z" uid="13832" user="Peter14" changeset="10149568">
    <nd ref="1552547691"/>
    <nd ref="471954"/>
    <nd ref="1159566725"/>
    <tag k="highway" v="primary"/>
    <tag k="lanes" v="2"/>
    <tag k="lit" v="yes"/>
    <tag k="maxspeed" v="50"/>
    <tag k="motorroad" v="yes"/>
    <tag k="name" v="Tegernseer Landstraße"/>
    <tag k="oneway" v="yes"/>
    <tag k="ref" v="B 2R"/>
    <tag k="source" v="survey"/>
  </way>
  <way id="4642508" version="16" timestamp="2011-12-28T18:54:54Z" uid="13832" user="Peter14" changeset="10229132"/>
  <way id="4642590" version="2" timestamp="2008-06-17T12:17:46Z" uid="6269" user="Mueck" changeset="197543">
    <nd ref="29535092"/>
    <nd ref="30983282"/>
    <nd ref="29503117"/>
    <nd ref="270920042"/>
    <nd ref="30982939"/>
    <nd ref="29535264"/>
    <tag k="created_by" v="Potlatch 0.9c"/>
    <tag k="highway" v="residential"/>
    <tag k="name" v="Elsasser Straße"/>
    <tag k="oneway" v="true"/>
  </way>
  <way id="4642590" version="3" timestamp="2008-09-05T09:01:33Z" uid="4652" user="Deelkar" changeset="539909">
    <nd ref="29535092"/>
    <nd ref="30983282"/>
    <nd ref="29503117"/>
    <nd ref="270920042"/>
    <nd ref="30982939"/>
    <nd ref="29535264"/>
    <tag k="created_by" v="Potlatch 0.10b"/>
    <tag k="highway" v="residential"/>
    <tag k="name" v="Elsasser Straße"/>
    <tag k="oneway" v="true"/>
  </way>
  <way id="4642590" version="4" timestamp="2008-12-03T20:26:05Z" uid="42429" user="FK270673" changeset="74672">
    <nd ref="29535092"/>
    <nd ref="30983282"/>
    <nd ref="29503117"/>
    <nd ref="270920042"/>
    <nd ref="30982939"/>
    <nd ref="29535264"/>
    <tag k="created_by" v="Potlatch 0.10f"/>
    <tag k="highway" v="residential"/>
    <tag k="maxspeed" v="30"/>
    <tag k="name" v="Elsasser Straße"/>
    <tag k="oneway" v="true"/>
  </way>
  <way id="4642590" version="5" timestamp="2009-01-22T14:09:51Z" uid="4652" user="Deelkar" changeset="823907">
    <nd ref="29535092"/>
    <nd ref="30983282"/>
    <nd ref="29503117"/>
    <nd ref="270920042"/>
    <tag k="created_by" v="Potlatch 0.10f"/>
    <tag k="highway" v="residential"/>
    <tag k="maxspeed" v="30"/>
    <tag k="name" v="Elsasser Straße"/>
    <tag k="oneway" v="true"/>
  </way>
  <way id="4642590" version="6" timestamp="2009-04-16T21:42:05Z" uid="103885" user="logicbot" changeset="603450">
    <nd ref="29535092"/>
    <nd ref="30983282"/>
    <nd ref="29503117"/>
    <nd ref="270920042"/>
    <tag k="created_by" v="Potlatch 0.10f"/>
    <tag k="highway" v="residential"/>
    <tag k="maxspeed" v="30"/>
    <tag k="name" v="Elsasser Straße"/>
    <tag k="oneway" v="yes"/>
  </way>
  <way id="4642590" version="7" timestamp="2009-06-30T10:45:17Z" uid="69628" user="vsandre" changeset="1690569">
    <nd ref="29535092"/>
    <nd ref="30983282"/>
    <nd ref="29503117"/>
    <nd ref="270920042"/>
    <tag k="highway" v="residential"/>
    <tag k="maxspeed" v="30"/>
    <tag k="name" v="Elsasser Straße"/>
    <tag k="oneway" v="yes"/>
  </way>
  <way id="4642590" version="8" timestamp="2010-12-28T10:52:50Z" uid="42429" user="FK270673" changeset="6786750">
    <nd ref="29535092"/>
    <nd ref="30983282"/>
    <nd ref="29503117"/>
    <nd ref="270920042"/>
    <tag k="highway" v="residential"/>
    <tag k="lcn" v="yes"/>
    <tag k="maxspeed" v="30"/>
    <tag k="name" v="Elsasser Straße"/>
    <tag k="oneway" v="yes"/>
  </way>
  <way id="4642590" version="9" timestamp="2011-05-17T12:34:52Z" uid="282726" user="kaiD" changeset="8171256">
    <nd ref="29535091"/>
    <nd ref="30983282"/>
    <nd ref="29503117"/>
    <nd ref="270920042"/>
    <tag k="highway" v="residential"/>
    <tag k="lcn" v="yes"/>
    <tag k="maxspeed" v="30"/>
    <tag k="name" v="Elsasser Straße"/>
    <tag k="oneway" v="yes"/>
  </way>
  <way id="4642590" version="10" timestamp="2011-12-29T19:22:11Z" uid="550891" user="Mäldä" changeset="10238772">
    <nd ref="29535091"/>
    <nd ref="30983282"/>
    <nd ref="29503117"/>
    <nd ref="270920042"/>
    <tag k="highway" v="residential"/>
    <tag k="lcn" v="yes"/>
    <tag k="maxspeed" v="10"/>
    <tag k="name" v="Elsasser Straße"/>
    <tag k="oneway" v="yes"/>
  </way>
  <way id="4642590" version="11" timestamp="2012-02-18T14:13:44Z" uid="42429" user="FK270673" changeset="10720594">
    <nd ref="29535091"/>
    <nd ref="30983282"/>
    <nd ref="29503117"/>
    <nd ref="270920042"/>
    <tag k="highway" v="residential"/>
    <tag k="lcn" v="yes"/>
    <tag k="lit" v="yes"/>
    <tag k="maxspeed" v="10"/>
    <tag k="name" v="Elsasser Straße"/>
    <tag k="odbl" v="clean"/>
    <tag k="oneway" v="yes"/>
    <tag k="source" v="survey"/>
    <tag k="surface" v="cobblestone"/>
  </way>
  <way id="4642695" version="6" timestamp="2010-02-16T17:35:29Z" uid="33382" user="de_muur" changeset="3894220">
    <nd ref="29196312"/>
    <nd ref="309290069"/>
    <nd ref="29535814"/>
    <nd ref="29535815"/>
    <nd ref="29535816"/>
    <tag k="cycleway" v="opposite"/>
    <tag k="highway" v="unclassified"/>
    <tag k="maxspeed" v="30"/>
    <tag k="oneway" v="yes"/>
  </way>
  <way id="4642695" version="7" timestamp="2011-05-13T22:20:55Z" uid="45445" user="UScha" changeset="8136241">
    <nd ref="29196312"/>
    <nd ref="309290069"/>
    <nd ref="1283417128"/>
    <nd ref="29535814"/>
    <nd ref="29535815"/>
    <nd ref="29535816"/>
    <tag k="cycleway" v="opposite"/>
    <tag k="highway" v="unclassified"/>
    <tag k="maxspeed" v="30"/>
    <tag k="oneway" v="yes"/>
  </way>
  <way id="4642695" version="8" timestamp="2012-03-20T21:55:41Z" uid="42429" user="Nuked Piece of Shit" changeset="11046258">
    <nd ref="1683957076"/>
    <nd ref="309290069"/>
    <nd ref="1283417128"/>
    <nd ref="29535814"/>
    <nd ref="29535815"/>
    <nd ref="29535816"/>
    <tag k="cycleway" v="opposite"/>
    <tag k="highway" v="unclassified"/>
    <tag k="maxspeed" v="30"/>
    <tag k="oneway" v="yes"/>
  </way>
  <way id="4642695" version="9" timestamp="2012-03-20T22:35:46Z" uid="42429" user="Nuked Piece of Shit" changeset="11046651">
    <nd ref="1683957076"/>
    <nd ref="309290069"/>
    <nd ref="1283417128"/>
    <nd ref="29535814"/>
    <nd ref="29535815"/>
    <nd ref="29535816"/>
    <tag k="cycleway" v="opposite"/>
    <tag k="highway" v="unclassified"/>
    <tag k="maxspeed" v="30"/>
    <tag k="odbl" v="clean"/>
    <tag k="oneway" v="yes"/>
    <tag k="source" v="survey"/>
    <tag k="surface" v="asphalt"/>
  </way>
  <way id="4642696" version="4" timestamp="2010-02-16T17:35:30Z" uid="33382" user="de_muur" changeset="3894220">
    <nd ref="29196309"/>
    <nd ref="29535821"/>
    <nd ref="29535822"/>
    <nd ref="29535823"/>
    <nd ref="29535824"/>
    <nd ref="29535825"/>
    <nd ref="29535819"/>
    <tag k="highway" v="unclassified"/>
    <tag k="name" v="Winkelstraße"/>
    <tag k="source" v="survey"/>
  </way>
  <way id="4642696" version="5" timestamp="2012-03-20T21:55:46Z" uid="42429" user="Nuked Piece of Shit" changeset="11046258">
    <nd ref="1683957070"/>
    <nd ref="29535821"/>
    <nd ref="1683957109"/>
    <nd ref="29535825"/>
    <nd ref="1683957072"/>
    <tag k="highway" v="unclassified"/>
    <tag k="name" v="Winkelstraße"/>
    <tag k="odbl" v="clean"/>
    <tag k="source" v="survey"/>
  </way>
  <way id="4642698" version="5" timestamp="2010-02-16T17:35:30Z" uid="33382" user="de_muur" changeset="3894220">
    <nd ref="207397575"/>
    <nd ref="29535827"/>
    <tag k="access" v="destination"/>
    <tag k="highway" v="unclassified"/>
    <tag k="name" v="Neuenweg"/>
    <tag k="osmarender:renderName" v="no"/>
    <tag k="source" v="survey"/>
  </way>
  <way id="4642698" version="6" timestamp="2011-01-06T21:38:49Z" uid="207745" user="NE2" changeset="6886621">
    <nd ref="207397575"/>
    <nd ref="29535827"/>
    <tag k="access" v="destination"/>
    <tag k="highway" v="unclassified"/>
    <tag k="name" v="Neuenweg"/>
    <tag k="source" v="survey"/>
  </way>
  <way id="4642698" version="7" timestamp="2012-03-20T21:55:35Z" uid="42429" user="Nuked Piece of Shit" changeset="11046258">
    <nd ref="1683957079"/>
    <nd ref="29535827"/>
    <tag k="access" v="destination"/>
    <tag k="highway" v="unclassified"/>
    <tag k="name" v="Neuenweg"/>
    <tag k="source" v="survey"/>
  </way>
  <way id="4642699" version="6" timestamp="2010-02-16T17:35:45Z" uid="33382" user="de_muur" changeset="3894220"/>
  <way id="4642700" version="5" timestamp="2010-01-09T19:40:49Z" uid="33382" user="de_muur" changeset="3581085">
    <nd ref="29224950"/>
    <nd ref="29193505"/>
    <nd ref="29224983"/>
    <nd ref="29036451"/>
    <nd ref="417108642"/>
    <nd ref="29169788"/>
    <nd ref="29535842"/>
    <tag k="cycleway" v="track"/>
    <tag k="highway" v="secondary"/>
    <tag k="maxspeed" v="50"/>
    <tag k="name" v="Semmelweisstraße"/>
    <tag k="surface" v="paved"/>
  </way>
  <way id="4642700" version="6" timestamp="2010-02-16T17:35:30Z" uid="33382" user="de_muur" changeset="3894220">
    <nd ref="29224950"/>
    <nd ref="29036451"/>
    <nd ref="417108642"/>
    <nd ref="29169788"/>
    <nd ref="29535842"/>
    <tag k="cycleway" v="track"/>
    <tag k="highway" v="secondary"/>
    <tag k="maxspeed" v="50"/>
    <tag k="name" v="Semmelweisstraße"/>
    <tag k="surface" v="paved"/>
  </way>
  <way id="4642700" version="7" timestamp="2012-03-20T21:55:40Z" uid="42429" user="Nuked Piece of Shit" changeset="11046258">
    <nd ref="29224950"/>
    <nd ref="29036451"/>
    <nd ref="417108642"/>
    <nd ref="29169788"/>
    <nd ref="29535842"/>
    <tag k="cycleway" v="track"/>
    <tag k="highway" v="secondary"/>
    <tag k="lit" v="yes"/>
    <tag k="maxspeed" v="50"/>
    <tag k="name" v="Semmelweisstraße"/>
    <tag k="odbl" v="clean"/>
    <tag k="source" v="survey"/>
    <tag k="surface" v="asphalt"/>
  </way>
  <way id="4642701" version="3" timestamp="2010-02-21T19:27:32Z" uid="33382" user="de_muur" changeset="3937641">
    <nd ref="29535847"/>
    <nd ref="111468120"/>
    <nd ref="29535877"/>
    <nd ref="29535875"/>
    <tag k="foot" v="yes"/>
    <tag k="highway" v="cycleway"/>
    <tag k="surface" v="paved"/>
  </way>
  <way id="4642703" version="5" timestamp="2010-02-21T19:27:33Z" uid="33382" user="de_muur" changeset="3937641">
    <nd ref="29535875"/>
    <nd ref="30441492"/>
    <nd ref="29535872"/>
    <nd ref="29535869"/>
    <nd ref="29535866"/>
    <nd ref="29535864"/>
    <nd ref="30441487"/>
    <nd ref="29535861"/>
    <nd ref="29535858"/>
    <nd ref="417109351"/>
    <nd ref="29535852"/>
    <nd ref="29535850"/>
    <nd ref="29535842"/>
    <tag k="highway" v="residential"/>
    <tag k="maxspeed" v="30"/>
    <tag k="name" v="Vahrer Straße"/>
    <tag k="surface" v="paved"/>
  </way>
  <way id="4642703" version="6" timestamp="2012-03-18T11:49:59Z" uid="42429" user="FK270673" changeset="11017712">
    <nd ref="29535875"/>
    <nd ref="30441492"/>
    <nd ref="30441487"/>
    <nd ref="1679655390"/>
    <nd ref="417109351"/>
    <nd ref="29535852"/>
    <nd ref="29535850"/>
    <nd ref="29535842"/>
    <tag k="highway" v="residential"/>
    <tag k="maxspeed" v="30"/>
    <tag k="name" v="Vahrer Straße"/>
    <tag k="surface" v="paved"/>
  </way>
  <way id="4642703" version="7" timestamp="2012-03-20T21:55:45Z" uid="42429" user="Nuked Piece of Shit" changeset="11046258">
    <nd ref="29535875"/>
    <nd ref="30441492"/>
    <nd ref="30441487"/>
    <nd ref="1679655390"/>
    <nd ref="417109351"/>
    <nd ref="29535852"/>
    <nd ref="29535850"/>
    <nd ref="29535842"/>
    <tag k="highway" v="residential"/>
    <tag k="lit" v="yes"/>
    <tag k="maxspeed" v="30"/>
    <tag k="name" v="Vahrer Straße"/>
    <tag k="source" v="survey"/>
    <tag k="surface" v="asphalt"/>
  </way>
  <way id="4642703" version="8" timestamp="2012-03-22T09:05:18Z" uid="42429" user="Nuked Piece of Shit" changeset="11060569">
    <nd ref="29535875"/>
    <nd ref="30441492"/>
    <nd ref="30441487"/>
    <nd ref="1679655390"/>
    <nd ref="417109351"/>
    <nd ref="29535852"/>
    <nd ref="29535850"/>
    <nd ref="29535842"/>
    <tag k="highway" v="residential"/>
    <tag k="lit" v="yes"/>
    <tag k="maxspeed" v="30"/>
    <tag k="name" v="Vahrer Straße"/>
    <tag k="odbl" v="clean"/>
    <tag k="source" v="survey"/>
    <tag k="surface" v="asphalt"/>
  </way>
  <way id="4642705" version="2" timestamp="2010-02-16T17:35:31Z" uid="33382" user="de_muur" changeset="3894220">
    <nd ref="29535894"/>
    <nd ref="29535896"/>
    <nd ref="29535899"/>
    <nd ref="29193490"/>
    <tag k="highway" v="residential"/>
    <tag k="name" v="Trinidadstraße"/>
  </way>
  <way id="4642705" version="3" timestamp="2012-03-22T09:05:17Z" uid="42429" user="Nuked Piece of Shit" changeset="11060569">
    <nd ref="29535894"/>
    <nd ref="29535899"/>
    <nd ref="29193490"/>
    <tag k="highway" v="residential"/>
    <tag k="name" v="Trinidadstraße"/>
  </way>
  <way id="4642796" version="5" timestamp="2010-10-17T17:04:10Z" uid="9581" user="Lobelt" changeset="6069209">
    <nd ref="29536345"/>
    <nd ref="954783734"/>
    <tag k="highway" v="track"/>
    <tag k="motorcar" v="no"/>
    <tag k="motorcycle" v="no"/>
  </way>
  <way id="4642796" version="6" timestamp="2012-02-25T16:21:59Z" uid="55687" user="dschuwa" changeset="10789271"/>
  <way id="4642797" version="2" timestamp="2010-10-17T17:04:41Z" uid="9581" user="Lobelt" changeset="6069209">
    <nd ref="29536361"/>
    <nd ref="29536360"/>
    <tag k="name" v="Weschnitz"/>
    <tag k="waterway" v="river"/>
  </way>
  <way id="4642797" version="3" timestamp="2011-02-18T17:43:47Z" uid="45882" user="smarties" changeset="7324529">
    <nd ref="29536361"/>
    <nd ref="29536360"/>
    <tag k="name" v="Alte Weschnitz"/>
    <tag k="waterway" v="river"/>
  </way>
  <way id="4642797" version="4" timestamp="2012-02-26T09:16:51Z" uid="55687" user="dschuwa" changeset="10795658">
    <nd ref="29536361"/>
    <nd ref="1648223187"/>
    <tag k="name" v="Alte Weschnitz"/>
    <tag k="waterway" v="river"/>
  </way>
  <way id="4642799" version="7" timestamp="2010-10-17T17:04:07Z" uid="9581" user="Lobelt" changeset="6069209">
    <nd ref="29536352"/>
    <nd ref="954783682"/>
    <nd ref="29536369"/>
    <nd ref="292916099"/>
    <nd ref="50739442"/>
    <nd ref="292916098"/>
    <nd ref="50739443"/>
    <nd ref="50739446"/>
    <nd ref="50739449"/>
    <nd ref="50739454"/>
    <tag k="highway" v="track"/>
    <tag k="motorcar" v="no"/>
    <tag k="motorcycle" v="no"/>
    <tag k="tracktype" v="grade1"/>
  </way>
  <way id="4642799" version="8" timestamp="2012-02-25T16:21:55Z" uid="55687" user="dschuwa" changeset="10789271"/>
  <way id="4642805" version="4" timestamp="2009-03-25T21:21:06Z" uid="9581" user="Lobelt" changeset="857591">
    <nd ref="29396058"/>
    <nd ref="29536387"/>
    <nd ref="15612894"/>
    <nd ref="29540765"/>
    <nd ref="29540766"/>
    <nd ref="29540767"/>
    <nd ref="29540768"/>
    <nd ref="29540769"/>
    <nd ref="29540770"/>
    <nd ref="29540771"/>
    <tag k="created_by" v="JOSM"/>
    <tag k="highway" v="track"/>
    <tag k="lcn" v="yes"/>
  </way>
  <way id="4642805" version="5" timestamp="2009-06-05T17:19:18Z" uid="32331" user="Vulpy" changeset="1430987">
    <nd ref="29396058"/>
    <nd ref="29536387"/>
    <nd ref="15612894"/>
    <nd ref="29540765"/>
    <nd ref="29540766"/>
    <nd ref="29540767"/>
    <nd ref="29540768"/>
    <nd ref="416011474"/>
    <nd ref="29540769"/>
    <nd ref="29540770"/>
    <nd ref="29540771"/>
    <tag k="created_by" v="JOSM"/>
    <tag k="highway" v="track"/>
    <tag k="lcn" v="yes"/>
  </way>
  <way id="4642805" version="6" timestamp="2009-06-05T17:22:24Z" uid="32331" user="Vulpy" changeset="1431016">
    <nd ref="29396058"/>
    <nd ref="416012986"/>
    <nd ref="29536387"/>
    <nd ref="15612894"/>
    <nd ref="29540765"/>
    <nd ref="29540766"/>
    <nd ref="29540767"/>
    <nd ref="29540768"/>
    <nd ref="416011474"/>
    <nd ref="29540769"/>
    <nd ref="29540770"/>
    <nd ref="29540771"/>
    <tag k="created_by" v="JOSM"/>
    <tag k="highway" v="track"/>
    <tag k="lcn" v="yes"/>
  </way>
  <way id="4642805" version="7" timestamp="2012-02-25T19:56:46Z" uid="55687" user="dschuwa" changeset="10791459"/>
  <way id="4642964" version="2" timestamp="2008-02-04T21:22:57Z" uid="4667" user="MapZ" changeset="36996">
    <nd ref="29537760"/>
    <nd ref="29537764"/>
    <nd ref="29537761"/>
    <nd ref="29537765"/>
    <nd ref="29537766"/>
    <nd ref="29537767"/>
    <nd ref="29537768"/>
    <nd ref="29537769"/>
    <nd ref="29537770"/>
    <nd ref="29537771"/>
    <nd ref="29537772"/>
    <nd ref="29537773"/>
    <nd ref="29537774"/>
    <nd ref="29537775"/>
    <nd ref="29537776"/>
    <nd ref="29537777"/>
    <nd ref="29537778"/>
    <nd ref="29537779"/>
    <nd ref="29537780"/>
    <nd ref="29537781"/>
    <nd ref="29537782"/>
    <nd ref="29537783"/>
    <tag k="created_by" v="JOSM"/>
    <tag k="highway" v="footway"/>
  </way>
  <way id="4642964" version="3" timestamp="2010-09-20T07:31:10Z" uid="46" user="FrankM" changeset="5826569">
    <nd ref="29537760"/>
    <nd ref="29537764"/>
    <nd ref="29537761"/>
    <nd ref="919412564"/>
    <nd ref="29537765"/>
    <nd ref="29537766"/>
    <nd ref="29537767"/>
    <nd ref="29537768"/>
    <nd ref="29537769"/>
    <nd ref="29537770"/>
    <nd ref="29537771"/>
    <nd ref="919412562"/>
    <nd ref="29537772"/>
    <nd ref="919412561"/>
    <nd ref="29537773"/>
    <nd ref="29537774"/>
    <nd ref="29537775"/>
    <nd ref="29537776"/>
    <nd ref="29537777"/>
    <nd ref="29537778"/>
    <nd ref="29537779"/>
    <nd ref="29537780"/>
    <nd ref="29537781"/>
    <nd ref="29537782"/>
    <nd ref="29537783"/>
    <nd ref="245793367"/>
    <tag k="highway" v="footway"/>
  </way>
  <way id="4642964" version="4" timestamp="2011-11-15T21:03:36Z" uid="6326" user="mike_hd" changeset="9839008">
    <nd ref="29537760"/>
    <nd ref="29537764"/>
    <nd ref="1504422040"/>
    <nd ref="29537761"/>
    <nd ref="1504422014"/>
    <nd ref="919412564"/>
    <nd ref="29537765"/>
    <nd ref="29537766"/>
    <nd ref="29537767"/>
    <nd ref="29537768"/>
    <nd ref="29537769"/>
    <nd ref="29537770"/>
    <nd ref="29537771"/>
    <nd ref="919412562"/>
    <nd ref="29537772"/>
    <nd ref="919412561"/>
    <nd ref="29537773"/>
    <nd ref="29537774"/>
    <nd ref="29537775"/>
    <nd ref="29537776"/>
    <nd ref="29537777"/>
    <nd ref="29537778"/>
    <nd ref="29537779"/>
    <nd ref="29537781"/>
    <nd ref="29537782"/>
    <nd ref="29537783"/>
    <nd ref="245793367"/>
    <tag k="highway" v="footway"/>
  </way>
  <way id="4642964" version="5" timestamp="2011-11-15T21:06:10Z" uid="6326" user="mike_hd" changeset="9839008">
    <nd ref="29537760"/>
    <nd ref="29537764"/>
    <nd ref="1504422040"/>
    <nd ref="29537761"/>
    <nd ref="1504422014"/>
    <nd ref="919412564"/>
    <nd ref="29537765"/>
    <nd ref="29537766"/>
    <nd ref="29537767"/>
    <nd ref="29537768"/>
    <nd ref="29537769"/>
    <nd ref="29537770"/>
    <nd ref="29537771"/>
    <nd ref="919412562"/>
    <nd ref="29537772"/>
    <nd ref="919412561"/>
    <nd ref="29537773"/>
    <nd ref="29537774"/>
    <nd ref="29537775"/>
    <nd ref="29537776"/>
    <nd ref="29537777"/>
    <nd ref="29537779"/>
    <nd ref="29537781"/>
    <nd ref="29537782"/>
    <nd ref="29537783"/>
    <nd ref="245793367"/>
    <tag k="highway" v="footway"/>
  </way>
</osm>
