<?xml version='1.0' encoding='UTF-8'?>
<osm version="0.6" generator="libosmium/2.20.0">
  <way id="46513001" version="4" timestamp="2011-04-20T12:57:45Z" uid="115477" user="wowik" changeset="7916018">
    <nd ref="594987393"/>
    <nd ref="594987470"/>
    <nd ref="594987453"/>
    <nd ref="594987395"/>
    <nd ref="594987393"/>
    <tag k="addr:city" v="Москва"/>
    <tag k="addr:country" v="RU"/>
    <tag k="addr:housenumber" v="5/6"/>
    <tag k="addr:housenumber2" v="6/5"/>
    <tag k="addr:street" v="улица Большая Дмитровка"/>
    <tag k="addr:street2" v="Камергерский переулок"/>
    <tag k="building" v="yes"/>
    <tag k="cladr:code" v="77000000000716700"/>
  </way>
  <way id="46513002" version="3" timestamp="2011-04-20T12:59:39Z" uid="115477" user="wowik" changeset="7916018">
    <nd ref="594987472"/>
    <nd ref="594987473"/>
    <nd ref="594987398"/>
    <nd ref="594987476"/>
    <nd ref="594987472"/>
    <tag k="addr:city" v="Москва"/>
    <tag k="addr:country" v="RU"/>
    <tag k="building" v="yes"/>
    <tag k="cladr:code" v="77000000000107000"/>
  </way>
  <way id="46513006" version="6" timestamp="2011-04-20T12:57:41Z" uid="115477" user="wowik" changeset="7916018">
    <nd ref="594987215"/>
    <nd ref="594987232"/>
    <nd ref="594987234"/>
    <nd ref="594987237"/>
    <nd ref="594987240"/>
    <nd ref="594987246"/>
    <nd ref="594987270"/>
    <nd ref="594987273"/>
    <nd ref="594987276"/>
    <nd ref="594987491"/>
    <nd ref="594987497"/>
    <nd ref="594987248"/>
    <nd ref="594987215"/>
    <tag k="addr:city" v="Москва"/>
    <tag k="addr:country" v="RU"/>
    <tag k="addr:housenumber" v="7/5"/>
    <tag k="addr:housenumber2" v="5/7"/>
    <tag k="addr:street" v="улица Большая Дмитровка"/>
    <tag k="addr:street2" v="Камергерский переулок"/>
    <tag k="building" v="yes"/>
    <tag k="cladr:code" v="77000000000716700"/>
  </way>
  <way id="46513008" version="6" timestamp="2011-04-20T12:57:12Z" uid="115477" user="wowik" changeset="7916018">
    <nd ref="594987303"/>
    <nd ref="594987292"/>
    <nd ref="594987306"/>
    <nd ref="594987521"/>
    <nd ref="594987512"/>
    <nd ref="594987499"/>
    <nd ref="594987505"/>
    <nd ref="594987502"/>
    <nd ref="594987281"/>
    <nd ref="594987278"/>
    <nd ref="594987284"/>
    <nd ref="594987286"/>
    <nd ref="594987301"/>
    <nd ref="594987303"/>
    <tag k="addr:city" v="Москва"/>
    <tag k="addr:country" v="RU"/>
    <tag k="addr:housenumber" v="7/5 с4"/>
    <tag k="addr:housenumber2" v="5/7 с4"/>
    <tag k="addr:street" v="улица Большая Дмитровка"/>
    <tag k="addr:street2" v="Камергерский переулок"/>
    <tag k="building" v="yes"/>
    <tag k="cladr:code" v="77000000000716700"/>
  </way>
  <way id="46513010" version="7" timestamp="2011-04-20T12:58:03Z" uid="115477" user="wowik" changeset="7916018">
    <nd ref="594987065"/>
    <nd ref="594987109"/>
    <nd ref="594987078"/>
    <nd ref="594987081"/>
    <nd ref="594987065"/>
    <tag k="addr:city" v="Москва"/>
    <tag k="addr:country" v="RU"/>
    <tag k="addr:housenumber" v="1 с2"/>
    <tag k="addr:street" v="Георгиевский переулок"/>
    <tag k="building" v="yes"/>
    <tag k="cladr:code" v="77000000000107000"/>
  </way>
  <way id="46513012" version="6" timestamp="2011-04-20T12:57:40Z" uid="115477" user="wowik" changeset="7916018">
    <nd ref="594987084"/>
    <nd ref="594987085"/>
    <nd ref="594987088"/>
    <nd ref="594987081"/>
    <nd ref="594987078"/>
    <nd ref="594987075"/>
    <nd ref="594987145"/>
    <nd ref="594987091"/>
    <nd ref="594987098"/>
    <nd ref="594987084"/>
    <tag k="addr:city" v="Москва"/>
    <tag k="addr:country" v="RU"/>
    <tag k="addr:housenumber" v="1 с3"/>
    <tag k="addr:street" v="Георгиевский переулок"/>
    <tag k="building" v="yes"/>
    <tag k="cladr:code" v="77000000000107000"/>
  </way>
  <way id="46513013" version="6" timestamp="2011-04-20T12:57:49Z" uid="115477" user="wowik" changeset="7916018">
    <nd ref="594987148"/>
    <nd ref="594987151"/>
    <nd ref="666830148"/>
    <nd ref="666830149"/>
    <nd ref="594987154"/>
    <nd ref="353047225"/>
    <nd ref="353047228"/>
    <nd ref="594987148"/>
    <tag k="addr:city" v="Москва"/>
    <tag k="addr:country" v="RU"/>
    <tag k="addr:housenumber" v="4 с3"/>
    <tag k="addr:street" v="Камергерский переулок"/>
    <tag k="building" v="yes"/>
    <tag k="cladr:code" v="77000000000142900"/>
  </way>
  <way id="46513014" version="7" timestamp="2011-04-20T12:57:19Z" uid="115477" user="wowik" changeset="7916018">
    <nd ref="594987185"/>
    <nd ref="594987204"/>
    <nd ref="594987208"/>
    <nd ref="594987211"/>
    <nd ref="594987213"/>
    <nd ref="670800269"/>
    <nd ref="594987186"/>
    <nd ref="353047200"/>
    <nd ref="594987188"/>
    <nd ref="594987185"/>
    <tag k="addr:city" v="Москва"/>
    <tag k="addr:country" v="RU"/>
    <tag k="addr:housenumber" v="3"/>
    <tag k="addr:street" v="Камергерский переулок"/>
    <tag k="amenity" v="theatre"/>
    <tag k="building" v="yes"/>
    <tag k="cladr:code" v="77000000000142900"/>
    <tag k="name" v="МХТ им. А. П. Чехова"/>
  </way>
  <way id="46513015" version="5" timestamp="2011-04-20T12:59:46Z" uid="115477" user="wowik" changeset="7916018">
    <nd ref="594987205"/>
    <nd ref="594987211"/>
    <nd ref="594987213"/>
    <nd ref="594987249"/>
    <nd ref="670800304"/>
    <nd ref="670800306"/>
    <nd ref="594987260"/>
    <nd ref="594987219"/>
    <nd ref="594987215"/>
    <nd ref="594987248"/>
    <nd ref="594987229"/>
    <nd ref="594987205"/>
    <tag k="addr:city" v="Москва"/>
    <tag k="addr:country" v="RU"/>
    <tag k="building" v="yes"/>
    <tag k="cladr:code" v="77000000000142900"/>
  </way>
  <way id="46513017" version="6" timestamp="2011-04-20T12:57:07Z" uid="115477" user="wowik" changeset="7916018">
    <nd ref="594987385"/>
    <nd ref="594987375"/>
    <nd ref="594987390"/>
    <nd ref="594987388"/>
    <nd ref="594987373"/>
    <nd ref="594987385"/>
    <tag k="addr:city" v="Москва"/>
    <tag k="addr:country" v="RU"/>
    <tag k="addr:housenumber" v="3 с7"/>
    <tag k="addr:street" v="Георгиевский переулок"/>
    <tag k="building" v="yes"/>
    <tag k="cladr:code" v="77000000000107000"/>
  </way>
  <way id="46513018" version="5" timestamp="2011-04-20T12:57:44Z" uid="115477" user="wowik" changeset="7916018">
    <nd ref="594987340"/>
    <nd ref="594987451"/>
    <nd ref="594987453"/>
    <nd ref="594987395"/>
    <nd ref="594987390"/>
    <nd ref="594987388"/>
    <nd ref="594987373"/>
    <nd ref="594987361"/>
    <nd ref="594987362"/>
    <nd ref="594987364"/>
    <nd ref="594987367"/>
    <nd ref="594987370"/>
    <nd ref="594987371"/>
    <nd ref="594987342"/>
    <nd ref="594987340"/>
    <tag k="addr:city" v="Москва"/>
    <tag k="addr:country" v="RU"/>
    <tag k="addr:housenumber" v="3 с3"/>
    <tag k="addr:street" v="Георгиевский переулок"/>
    <tag k="building" v="yes"/>
    <tag k="cladr:code" v="77000000000107000"/>
  </way>
  <way id="46513019" version="4" timestamp="2011-04-20T12:57:57Z" uid="115477" user="wowik" changeset="7916018">
    <nd ref="594987485"/>
    <nd ref="594987523"/>
    <nd ref="594987524"/>
    <nd ref="594987525"/>
    <nd ref="594987543"/>
    <nd ref="594987540"/>
    <nd ref="594987485"/>
    <tag k="addr:city" v="Москва"/>
    <tag k="addr:country" v="RU"/>
    <tag k="addr:housenumber" v="6"/>
    <tag k="addr:street" v="улица Большая Дмитровка"/>
    <tag k="building" v="yes"/>
    <tag k="cladr:code" v="77000000000716700"/>
  </way>
  <way id="46513019" version="5" timestamp="2011-12-29T13:01:50Z" uid="260756" user="Felis Pimeja" changeset="10235073">
    <nd ref="594987543"/>
    <nd ref="1567147223"/>
    <nd ref="594987540"/>
    <nd ref="594987485"/>
    <nd ref="594987523"/>
    <nd ref="594987524"/>
    <nd ref="594987525"/>
  </way>
  <way id="46513020" version="6" timestamp="2011-04-20T12:57:25Z" uid="115477" user="wowik" changeset="7916018">
    <nd ref="594987525"/>
    <nd ref="594987555"/>
    <nd ref="594987558"/>
    <nd ref="594987543"/>
    <nd ref="594987525"/>
    <tag k="addr:city" v="Москва"/>
    <tag k="addr:country" v="RU"/>
    <tag k="addr:housenumber" v="2 с2"/>
    <tag k="addr:street" v="улица Кузнецкий Мост"/>
    <tag k="building" v="yes"/>
    <tag k="cladr:code" v="77000000000055700"/>
  </way>
  <way id="46513020" version="7" timestamp="2011-12-29T13:01:50Z" uid="260756" user="Felis Pimeja" changeset="10235073">
    <nd ref="1567147300"/>
    <nd ref="594987558"/>
    <nd ref="594987543"/>
  </way>
  <way id="46513021" version="4" timestamp="2011-04-20T12:57:35Z" uid="115477" user="wowik" changeset="7916018">
    <nd ref="594987579"/>
    <nd ref="594987566"/>
    <nd ref="594987555"/>
    <nd ref="594987568"/>
    <nd ref="594987579"/>
    <tag k="addr:city" v="Москва"/>
    <tag k="addr:country" v="RU"/>
    <tag k="addr:housenumber" v="2"/>
    <tag k="addr:street" v="улица Кузнецкий Мост"/>
    <tag k="building" v="yes"/>
    <tag k="cladr:code" v="77000000000055700"/>
  </way>
  <way id="46513021" version="5" timestamp="2011-12-29T13:01:50Z" uid="260756" user="Felis Pimeja" changeset="10235073">
    <nd ref="594987579"/>
    <nd ref="594987566"/>
    <nd ref="594987555"/>
  </way>
  <way id="46513023" version="5" timestamp="2011-04-20T12:57:13Z" uid="115477" user="wowik" changeset="7916018">
    <nd ref="594987526"/>
    <nd ref="594987527"/>
    <nd ref="594987546"/>
    <nd ref="613820856"/>
    <nd ref="594987528"/>
    <nd ref="594987529"/>
    <nd ref="594987537"/>
    <nd ref="594987540"/>
    <nd ref="594987485"/>
    <nd ref="594987526"/>
    <tag k="addr:city" v="Москва"/>
    <tag k="addr:country" v="RU"/>
    <tag k="addr:housenumber" v="6"/>
    <tag k="addr:street" v="улица Большая Дмитровка"/>
    <tag k="amenity" v="theatre"/>
    <tag k="building" v="yes"/>
    <tag k="cladr:code" v="77000000000716700"/>
  </way>
  <way id="46513023" version="6" timestamp="2011-12-29T13:01:46Z" uid="260756" user="Felis Pimeja" changeset="10235073">
    <nd ref="594987526"/>
    <nd ref="594987527"/>
    <nd ref="594987546"/>
    <nd ref="613820856"/>
    <nd ref="1567147226"/>
    <nd ref="594987528"/>
    <nd ref="594987537"/>
    <nd ref="1567147220"/>
    <nd ref="1567147217"/>
    <nd ref="594987540"/>
    <nd ref="594987485"/>
    <nd ref="1567147215"/>
    <nd ref="1567147214"/>
    <nd ref="1567147212"/>
    <nd ref="1567147213"/>
    <nd ref="1567147211"/>
    <nd ref="1567147210"/>
    <nd ref="594987526"/>
    <tag k="addr:city" v="Москва"/>
    <tag k="addr:country" v="RU"/>
    <tag k="addr:housenumber" v="6"/>
    <tag k="addr:street" v="улица Большая Дмитровка"/>
    <tag k="amenity" v="theatre"/>
    <tag k="building" v="yes"/>
    <tag k="cladr:code" v="77000000000716700"/>
  </way>
  <way id="46513024" version="6" timestamp="2011-04-20T12:58:00Z" uid="115477" user="wowik" changeset="7916018">
    <nd ref="594987569"/>
    <nd ref="594987571"/>
    <nd ref="594987574"/>
    <nd ref="613820856"/>
    <nd ref="594987528"/>
    <nd ref="594987569"/>
    <tag k="addr:city" v="Москва"/>
    <tag k="addr:country" v="RU"/>
    <tag k="addr:housenumber" v="6 с5"/>
    <tag k="addr:street" v="улица Большая Дмитровка"/>
    <tag k="building" v="yes"/>
    <tag k="cladr:code" v="77000000000716700"/>
  </way>
  <way id="46513024" version="7" timestamp="2011-12-29T13:01:47Z" uid="260756" user="Felis Pimeja" changeset="10235073">
    <nd ref="594987569"/>
    <nd ref="594987571"/>
    <nd ref="594987574"/>
    <nd ref="613820856"/>
    <nd ref="1567147226"/>
    <nd ref="594987528"/>
    <nd ref="1567147248"/>
    <nd ref="1567147259"/>
    <nd ref="594987569"/>
    <tag k="addr:city" v="Москва"/>
    <tag k="addr:country" v="RU"/>
    <tag k="addr:housenumber" v="6 с5"/>
    <tag k="addr:street" v="улица Большая Дмитровка"/>
    <tag k="building" v="yes"/>
    <tag k="cladr:code" v="77000000000716700"/>
  </way>
  <way id="46513025" version="6" timestamp="2011-04-20T12:56:59Z" uid="115477" user="wowik" changeset="7916018">
    <nd ref="594987574"/>
    <nd ref="594987601"/>
    <nd ref="594987588"/>
    <nd ref="594987553"/>
    <nd ref="594987546"/>
    <nd ref="613820856"/>
    <nd ref="594987574"/>
    <tag k="addr:city" v="Москва"/>
    <tag k="addr:country" v="RU"/>
    <tag k="addr:housenumber" v="3 с3"/>
    <tag k="addr:street" v="Копьевский переулок"/>
    <tag k="building" v="yes"/>
    <tag k="cladr:code" v="77000000000055600"/>
  </way>
  <way id="46513025" version="7" timestamp="2011-09-30T23:12:29Z" uid="133332" user="AMDmi3" changeset="9439527">
    <nd ref="594987574"/>
    <nd ref="594987601"/>
    <nd ref="594987588"/>
    <nd ref="594987553"/>
    <nd ref="594987546"/>
    <nd ref="613820856"/>
    <nd ref="594987574"/>
    <tag k="addr:city" v="Москва"/>
    <tag k="addr:country" v="RU"/>
    <tag k="addr:housenumber" v="3 с3"/>
    <tag k="addr:street" v="Копьёвский переулок"/>
    <tag k="building" v="yes"/>
    <tag k="cladr:code" v="77000000000055600"/>
  </way>
  <way id="46513025" version="8" timestamp="2011-12-29T13:01:45Z" uid="260756" user="Felis Pimeja" changeset="10235073">
    <nd ref="594987574"/>
    <nd ref="594987588"/>
    <nd ref="594987553"/>
    <nd ref="594987546"/>
    <nd ref="613820856"/>
    <nd ref="594987574"/>
    <tag k="addr:city" v="Москва"/>
    <tag k="addr:country" v="RU"/>
    <tag k="addr:housenumber" v="3 с3"/>
    <tag k="addr:street" v="Копьёвский переулок"/>
    <tag k="building" v="yes"/>
    <tag k="cladr:code" v="77000000000055600"/>
  </way>
  <way id="46513026" version="6" timestamp="2011-04-20T12:57:36Z" uid="115477" user="wowik" changeset="7916018">
    <nd ref="594987506"/>
    <nd ref="594987491"/>
    <nd ref="594987494"/>
    <nd ref="594987509"/>
    <nd ref="594987506"/>
    <tag k="addr:city" v="Москва"/>
    <tag k="addr:country" v="RU"/>
    <tag k="addr:housenumber" v="7/5 с2"/>
    <tag k="addr:housenumber2" v="5/7 с2"/>
    <tag k="addr:street" v="улица Большая Дмитровка"/>
    <tag k="addr:street2" v="Камергерский переулок"/>
    <tag k="building" v="yes"/>
    <tag k="cladr:code" v="77000000000716700"/>
  </way>
</osm>
