<?xml version='1.0' encoding='UTF-8'?>
<osm version="0.6" generator="libosmium/2.20.0">
  <way id="46578036" version="2" timestamp="2010-12-24T04:04:16Z" uid="23543" user="jkjk" changeset="6751502"/>
  <way id="46578351" version="8" timestamp="2011-01-25T12:04:35Z" uid="115477" user="wowik" changeset="7082915">
    <nd ref="595356530"/>
    <nd ref="595400620"/>
    <nd ref="1119823514"/>
    <nd ref="595356531"/>
    <nd ref="595356532"/>
    <nd ref="595404865"/>
    <nd ref="595356533"/>
    <nd ref="611576317"/>
    <nd ref="595356530"/>
    <tag k="addr:housenumber" v="81 к1"/>
    <tag k="addr:street" v="улица Свободы"/>
    <tag k="amenity" v="school"/>
    <tag k="barrier" v="fence"/>
    <tag k="name" v="Школа №132"/>
  </way>
  <way id="46578351" version="9" timestamp="2012-03-28T06:21:50Z" uid="481934" user="iWowik" changeset="11123401">
    <nd ref="595356530"/>
    <nd ref="595400620"/>
    <nd ref="1119823514"/>
    <nd ref="595356531"/>
    <nd ref="595356532"/>
    <nd ref="595404865"/>
    <nd ref="595356533"/>
    <nd ref="611576317"/>
    <nd ref="595356530"/>
    <tag k="addr:city" v="Москва"/>
    <tag k="addr:country" v="RU"/>
    <tag k="addr:housenumber" v="81 к1"/>
    <tag k="addr:street" v="улица Свободы"/>
    <tag k="amenity" v="school"/>
    <tag k="barrier" v="fence"/>
    <tag k="name" v="Школа №132"/>
  </way>
</osm>
