<?xml version='1.0' encoding='UTF-8'?>
<osm version="0.6" generator="libosmium/2.20.0">
  <way id="46624310" version="3" timestamp="2010-03-28T11:32:42Z" uid="20587" user="balrog-kun" changeset="4254597">
    <nd ref="595787341"/>
    <nd ref="595787340"/>
    <nd ref="596692034"/>
    <nd ref="595787350"/>
    <nd ref="595787348"/>
    <nd ref="595787253"/>
    <tag k="access" v="private"/>
    <tag k="highway" v="residential"/>
    <tag k="name" v="Couples Road"/>
    <tag k="source" v="survey;image;yahoo_imagery"/>
    <tag k="source_ref" v="AM909_DSCM7221"/>
  </way>
  <way id="46624312" version="3" timestamp="2010-03-28T11:32:42Z" uid="20587" user="balrog-kun" changeset="4254597">
    <nd ref="595787237"/>
    <nd ref="595787245"/>
    <nd ref="596692016"/>
    <nd ref="595787247"/>
    <nd ref="596692015"/>
    <nd ref="596692028"/>
    <nd ref="595787350"/>
    <tag k="access" v="private"/>
    <tag k="highway" v="residential"/>
    <tag k="name" v="Player Road"/>
    <tag k="source" v="survey;image;yahoo_imagery"/>
    <tag k="source_ref" v="AM909_DSCM7230"/>
  </way>
  <way id="46624313" version="3" timestamp="2010-03-28T11:32:42Z" uid="20587" user="balrog-kun" changeset="4254597">
    <nd ref="54451617"/>
    <nd ref="54451618"/>
    <nd ref="54451620"/>
    <nd ref="54451622"/>
    <nd ref="596692061"/>
    <nd ref="54451623"/>
    <nd ref="54451624"/>
    <nd ref="54451626"/>
    <nd ref="54429351"/>
    <nd ref="54451629"/>
    <nd ref="596692063"/>
    <nd ref="54451631"/>
    <nd ref="54451634"/>
    <tag k="highway" v="residential"/>
    <tag k="name" v="Castlepeak Drive"/>
    <tag k="source" v="survey;image;yahoo_imagery"/>
    <tag k="source_ref" v="AM909_DSCM7167"/>
    <tag k="tiger:cfcc" v="A41"/>
    <tag k="tiger:county" v="Riverside, CA"/>
    <tag k="tiger:name_base" v="Castlepeak"/>
    <tag k="tiger:name_type" v="Dr"/>
    <tag k="tiger:separated" v="no"/>
    <tag k="tiger:source" v="tiger_import_dch_v0.6_20070809"/>
    <tag k="tiger:tlid" v="194874682:194874690"/>
  </way>
  <way id="46624314" version="3" timestamp="2010-03-28T11:32:43Z" uid="20587" user="balrog-kun" changeset="4254597">
    <nd ref="595787675"/>
    <nd ref="596769177"/>
    <nd ref="595787658"/>
    <nd ref="595787677"/>
    <tag k="highway" v="residential"/>
    <tag k="name" v="Riverstone Circle"/>
    <tag k="source" v="survey;image;yahoo_imagery"/>
    <tag k="source_ref" v="AM909_DSCM7583"/>
  </way>
  <way id="46624315" version="3" timestamp="2010-03-28T11:32:43Z" uid="20587" user="balrog-kun" changeset="4254597">
    <nd ref="595787635"/>
    <nd ref="595787647"/>
    <tag k="highway" v="residential"/>
    <tag k="name" v="Stanwich Place"/>
    <tag k="source" v="survey;image;yahoo_imagery"/>
    <tag k="source_ref" v="AM909_DSCM7603"/>
  </way>
  <way id="46624316" version="3" timestamp="2010-03-28T11:32:43Z" uid="20587" user="balrog-kun" changeset="4254597">
    <nd ref="595787283"/>
    <nd ref="595787279"/>
    <nd ref="595787290"/>
    <nd ref="595787291"/>
    <nd ref="595787286"/>
    <tag k="highway" v="residential"/>
    <tag k="name" v="Edenwild Lane"/>
    <tag k="source" v="survey;image;yahoo_imagery"/>
    <tag k="source_ref" v="AM909_DSCM7365"/>
  </way>
  <way id="46624318" version="3" timestamp="2010-03-28T11:32:43Z" uid="20587" user="balrog-kun" changeset="4254597">
    <nd ref="595787299"/>
    <nd ref="595787289"/>
    <tag k="highway" v="residential"/>
    <tag k="name" v="Roseridge Court"/>
    <tag k="source" v="yahoo_imagery;RCLIS"/>
  </way>
  <way id="46624319" version="4" timestamp="2010-03-28T11:32:43Z" uid="20587" user="balrog-kun" changeset="4254597">
    <nd ref="595787440"/>
    <nd ref="595787587"/>
    <tag k="highway" v="residential"/>
    <tag k="name" v="Honors Circle"/>
    <tag k="source" v="survey;image;yahoo_imagery"/>
    <tag k="source_ref" v="AM909_DSCM7523"/>
  </way>
  <way id="46624320" version="3" timestamp="2010-03-28T11:32:43Z" uid="20587" user="balrog-kun" changeset="4254597">
    <nd ref="595787266"/>
    <nd ref="595787264"/>
    <nd ref="596692019"/>
    <nd ref="595787255"/>
    <nd ref="595787239"/>
    <nd ref="595787232"/>
    <nd ref="595787233"/>
    <tag k="access" v="private"/>
    <tag k="highway" v="residential"/>
    <tag k="name" v="Littler Lane"/>
    <tag k="source" v="survey;image;yahoo_imagery"/>
    <tag k="source_ref" v="AM909_DSCM7206"/>
  </way>
  <way id="46624321" version="3" timestamp="2010-03-28T11:32:44Z" uid="20587" user="balrog-kun" changeset="4254597">
    <nd ref="595787287"/>
    <nd ref="595787288"/>
    <nd ref="595787280"/>
    <tag k="highway" v="residential"/>
    <tag k="name" v="Flint Street"/>
    <tag k="source" v="survey;image;yahoo_imagery"/>
    <tag k="source_ref" v="AM909_DSCM7364"/>
  </way>
  <way id="46624322" version="3" timestamp="2010-03-28T11:32:44Z" uid="20587" user="balrog-kun" changeset="4254597">
    <nd ref="595787230"/>
    <nd ref="595787225"/>
    <nd ref="595787227"/>
    <tag k="access" v="private"/>
    <tag k="highway" v="residential"/>
    <tag k="name" v="Ryder Cup Drive"/>
    <tag k="source" v="survey;image;yahoo_imagery"/>
    <tag k="source_ref" v="AM909_DSCM7180"/>
    <tag k="tiger:cfcc" v="A41"/>
    <tag k="tiger:county" v="Riverside, CA"/>
    <tag k="tiger:name_base" v="Ryder Cup"/>
    <tag k="tiger:name_type" v="Dr"/>
    <tag k="tiger:separated" v="no"/>
    <tag k="tiger:source" v="tiger_import_dch_v0.6_20070809"/>
    <tag k="tiger:tlid" v="194874625:194874626"/>
  </way>
  <way id="46624323" version="3" timestamp="2010-03-28T11:32:44Z" uid="20587" user="balrog-kun" changeset="4254597">
    <nd ref="595787233"/>
    <nd ref="595787230"/>
    <nd ref="595787213"/>
    <tag k="access" v="private"/>
    <tag k="highway" v="residential"/>
    <tag k="name" v="Garden City Lane"/>
    <tag k="source" v="survey;image;yahoo_imagery"/>
    <tag k="source_ref" v="AM909_DSCM7186"/>
  </way>
  <way id="46624325" version="3" timestamp="2010-03-28T11:32:44Z" uid="20587" user="balrog-kun" changeset="4254597">
    <nd ref="595787223"/>
    <nd ref="595787251"/>
    <nd ref="595787266"/>
    <nd ref="596692021"/>
    <nd ref="595787253"/>
    <tag k="access" v="private"/>
    <tag k="highway" v="residential"/>
    <tag k="name" v="Driving Range Road"/>
    <tag k="source" v="survey;image;yahoo_imagery"/>
    <tag k="source_ref" v="AM909_DSCM7194"/>
  </way>
  <way id="46624326" version="2" timestamp="2010-03-28T11:32:44Z" uid="20587" user="balrog-kun" changeset="4254597">
    <nd ref="54498159"/>
    <nd ref="54498161"/>
    <tag k="highway" v="residential"/>
    <tag k="name" v="Putting Green Drive"/>
    <tag k="tiger:cfcc" v="A41"/>
    <tag k="tiger:county" v="Riverside, CA"/>
    <tag k="tiger:name_base" v="Putting Green"/>
    <tag k="tiger:name_type" v="Dr"/>
    <tag k="tiger:separated" v="no"/>
    <tag k="tiger:source" v="tiger_import_dch_v0.6_20070809"/>
    <tag k="tiger:tlid" v="194881589"/>
    <tag k="tiger:zip_left" v="92881"/>
    <tag k="tiger:zip_right" v="92881"/>
  </way>
  <way id="46624327" version="3" timestamp="2010-03-28T11:32:45Z" uid="20587" user="balrog-kun" changeset="4254597">
    <nd ref="595787285"/>
    <nd ref="596692022"/>
    <nd ref="595787284"/>
    <nd ref="54430240"/>
    <nd ref="595787227"/>
    <nd ref="595787236"/>
    <tag k="highway" v="residential"/>
    <tag k="name" v="Signature Drive"/>
    <tag k="tiger:cfcc" v="A41"/>
    <tag k="tiger:county" v="Riverside, CA"/>
    <tag k="tiger:name_base" v="Signature"/>
    <tag k="tiger:name_type" v="Dr"/>
    <tag k="tiger:separated" v="no"/>
    <tag k="tiger:source" v="tiger_import_dch_v0.6_20070809"/>
    <tag k="tiger:tlid" v="194882282:194874741"/>
    <tag k="tiger:zip_left" v="92881"/>
    <tag k="tiger:zip_right" v="92881"/>
  </way>
  <way id="46624328" version="3" timestamp="2010-03-28T11:32:45Z" uid="20587" user="balrog-kun" changeset="4254597">
    <nd ref="595787343"/>
    <nd ref="54429342"/>
    <nd ref="595787364"/>
    <nd ref="596692053"/>
    <nd ref="595787354"/>
    <nd ref="595787362"/>
    <nd ref="595787319"/>
    <nd ref="595787317"/>
    <nd ref="595787324"/>
    <nd ref="596692026"/>
    <nd ref="595787322"/>
    <nd ref="596692025"/>
    <nd ref="595787593"/>
    <nd ref="595787594"/>
    <nd ref="595787591"/>
    <nd ref="595787590"/>
    <tag k="highway" v="tertiary"/>
    <tag k="name" v="Riviera Drive"/>
    <tag k="note" v="Signed Private only at Floyd"/>
    <tag k="source" v="survey;image;yahoo_imagery"/>
    <tag k="source_ref" v="AM909_DSCM7172"/>
  </way>
  <way id="46624329" version="3" timestamp="2010-03-28T11:32:45Z" uid="20587" user="balrog-kun" changeset="4254597">
    <nd ref="595787213"/>
    <nd ref="595787223"/>
    <tag k="access" v="private"/>
    <tag k="highway" v="residential"/>
    <tag k="name" v="Jupiter Hills Road"/>
    <tag k="source" v="survey;image;yahoo_imagery"/>
    <tag k="source_ref" v="AM909_DSCM7194"/>
  </way>
  <way id="46624331" version="3" timestamp="2010-03-28T11:32:45Z" uid="20587" user="balrog-kun" changeset="4254597">
    <nd ref="54406226"/>
    <nd ref="54166923"/>
    <nd ref="54166929"/>
    <nd ref="54406232"/>
    <nd ref="54406233"/>
    <nd ref="599167646"/>
    <nd ref="54406235"/>
    <nd ref="54374743"/>
    <nd ref="599167679"/>
    <nd ref="54307722"/>
    <tag k="highway" v="primary"/>
    <tag k="name" v="El Cerrito Road"/>
    <tag k="tiger:cfcc" v="A41"/>
    <tag k="tiger:county" v="Riverside, CA"/>
    <tag k="tiger:name_base" v="El Cerrito"/>
    <tag k="tiger:name_type" v="Rd"/>
    <tag k="tiger:separated" v="no"/>
    <tag k="tiger:source" v="tiger_import_dch_v0.6_20070809"/>
    <tag k="tiger:tlid" v="194778775:194778737:194778744:194778603:194778606:194778612:194778613"/>
    <tag k="tiger:zip_left" v="92881"/>
    <tag k="tiger:zip_right" v="92881"/>
  </way>
  <way id="46624331" version="4" timestamp="2010-07-04T09:35:18Z" uid="82317" user="AM909" changeset="5131096">
    <nd ref="54406226"/>
    <nd ref="54166923"/>
    <tag k="highway" v="primary"/>
    <tag k="name" v="El Cerrito Road"/>
    <tag k="tiger:cfcc" v="A41"/>
    <tag k="tiger:county" v="Riverside, CA"/>
    <tag k="tiger:name_base" v="El Cerrito"/>
    <tag k="tiger:name_type" v="Rd"/>
    <tag k="tiger:separated" v="no"/>
    <tag k="tiger:source" v="tiger_import_dch_v0.6_20070809"/>
    <tag k="tiger:tlid" v="194778775:194778737:194778744:194778603:194778606:194778612:194778613"/>
    <tag k="tiger:zip_left" v="92881"/>
    <tag k="tiger:zip_right" v="92881"/>
  </way>
  <way id="46624331" version="5" timestamp="2010-07-16T07:47:29Z" uid="82317" user="AM909" changeset="5232749">
    <nd ref="54406226"/>
    <nd ref="54166923"/>
    <tag k="highway" v="tertiary"/>
    <tag k="name" v="El Cerrito Road"/>
    <tag k="tiger:cfcc" v="A41"/>
    <tag k="tiger:county" v="Riverside, CA"/>
    <tag k="tiger:name_base" v="El Cerrito"/>
    <tag k="tiger:name_type" v="Rd"/>
    <tag k="tiger:separated" v="no"/>
    <tag k="tiger:source" v="tiger_import_dch_v0.6_20070809"/>
    <tag k="tiger:tlid" v="194778775:194778737:194778744:194778603:194778606:194778612:194778613"/>
    <tag k="tiger:zip_left" v="92881"/>
    <tag k="tiger:zip_right" v="92881"/>
  </way>
  <way id="46624332" version="2" timestamp="2010-03-28T11:32:46Z" uid="20587" user="balrog-kun" changeset="4254597">
    <nd ref="595787834"/>
    <nd ref="54406209"/>
    <tag k="highway" v="residential"/>
    <tag k="name" v="Crossroads Street"/>
  </way>
  <way id="46624333" version="3" timestamp="2010-03-28T11:32:46Z" uid="20587" user="balrog-kun" changeset="4254597">
    <nd ref="595787436"/>
    <nd ref="596827999"/>
    <nd ref="595787443"/>
    <nd ref="596828006"/>
    <nd ref="595787469"/>
    <nd ref="595787467"/>
    <nd ref="595787473"/>
    <tag k="highway" v="residential"/>
    <tag k="name" v="Via Pasqual Street"/>
    <tag k="source" v="survey;image;yahoo_imagery"/>
    <tag k="source_ref" v="AM909_DSCM7727"/>
  </way>
  <way id="46624338" version="3" timestamp="2010-03-28T11:32:46Z" uid="20587" user="balrog-kun" changeset="4254597">
    <nd ref="595787604"/>
    <nd ref="595787606"/>
    <nd ref="595787596"/>
    <tag k="highway" v="residential"/>
    <tag k="name" v="Paseo La Cresta Street"/>
    <tag k="note" v="Signed w/out St"/>
    <tag k="source" v="survey;image;yahoo_imagery;RCLIS"/>
    <tag k="source_ref" v="AM909_DSCM7710"/>
  </way>
  <way id="46624339" version="3" timestamp="2010-03-28T11:32:50Z" uid="20587" user="balrog-kun" changeset="4254597">
    <nd ref="595787183"/>
    <nd ref="595787175"/>
    <tag k="highway" v="residential"/>
    <tag k="name" v="Maidstone Circle"/>
    <tag k="source" v="survey;image;yahoo_imagery"/>
    <tag k="source_ref" v="AM909_DSCM7436"/>
  </way>
  <way id="46624340" version="3" timestamp="2010-03-28T11:32:52Z" uid="20587" user="balrog-kun" changeset="4254597">
    <nd ref="595787488"/>
    <nd ref="595787486"/>
    <nd ref="595787519"/>
    <tag k="highway" v="residential"/>
    <tag k="name" v="Via Rafael Circle"/>
    <tag k="source" v="survey;image;yahoo_imagery"/>
    <tag k="source_ref" v="AM909_DSCM7733"/>
  </way>
  <way id="46624342" version="3" timestamp="2010-03-28T11:32:52Z" uid="20587" user="balrog-kun" changeset="4254597">
    <nd ref="595787451"/>
    <nd ref="595787444"/>
    <nd ref="595787447"/>
    <nd ref="595787443"/>
    <tag k="highway" v="residential"/>
    <tag k="name" v="Via Galicia Street"/>
    <tag k="source" v="survey;image;yahoo_imagery"/>
    <tag k="source_ref" v="AM909_DSCM7741"/>
  </way>
  <way id="46624343" version="3" timestamp="2010-03-28T11:32:52Z" uid="20587" user="balrog-kun" changeset="4254597">
    <nd ref="595787452"/>
    <nd ref="596828001"/>
    <nd ref="595787454"/>
    <nd ref="595787476"/>
    <nd ref="595787473"/>
    <nd ref="595787462"/>
    <nd ref="596828005"/>
    <nd ref="595787465"/>
    <nd ref="595787600"/>
    <nd ref="595787596"/>
    <tag k="highway" v="residential"/>
    <tag k="name" v="Via Sevilla Street"/>
    <tag k="source" v="survey;image;yahoo_imagery"/>
    <tag k="source_ref" v="AM909_DSCM7721"/>
  </way>
  <way id="46624344" version="3" timestamp="2010-03-28T11:32:52Z" uid="20587" user="balrog-kun" changeset="4254597">
    <nd ref="595787469"/>
    <nd ref="595787471"/>
    <nd ref="595787463"/>
    <tag k="highway" v="residential"/>
    <tag k="name" v="Anacapa Circle"/>
    <tag k="source" v="survey;image;yahoo_imagery"/>
    <tag k="source_ref" v="AM909_DSCM7776"/>
  </way>
  <way id="46624345" version="3" timestamp="2010-03-28T11:32:52Z" uid="20587" user="balrog-kun" changeset="4254597">
    <nd ref="595787606"/>
    <nd ref="595787478"/>
    <nd ref="595787484"/>
    <nd ref="595787480"/>
    <tag k="highway" v="residential"/>
    <tag k="name" v="Via Valmonte Circle"/>
    <tag k="source" v="survey;image;yahoo_imagery"/>
    <tag k="source_ref" v="AM909_DSCM7712"/>
  </way>
  <way id="46624364" version="3" timestamp="2010-03-28T11:32:52Z" uid="20587" user="balrog-kun" changeset="4254597">
    <nd ref="595787554"/>
    <nd ref="595787570"/>
    <nd ref="596828022"/>
    <nd ref="595787574"/>
    <nd ref="595787572"/>
    <nd ref="596828023"/>
    <nd ref="595787578"/>
    <nd ref="596828044"/>
    <nd ref="596828045"/>
    <nd ref="596828047"/>
    <nd ref="596828048"/>
    <nd ref="596828049"/>
    <nd ref="595787714"/>
    <tag k="highway" v="residential"/>
    <tag k="name" v="Christopher Lane"/>
    <tag k="source" v="survey;image;yahoo_imagery"/>
    <tag k="source_ref" v="AM909_DSCM7785"/>
  </way>
  <way id="46624365" version="3" timestamp="2010-03-28T11:32:53Z" uid="20587" user="balrog-kun" changeset="4254597">
    <nd ref="595787255"/>
    <nd ref="595787268"/>
    <nd ref="596692020"/>
    <nd ref="595787262"/>
    <nd ref="595787348"/>
    <tag k="access" v="private"/>
    <tag k="highway" v="residential"/>
    <tag k="name" v="Butler National Road"/>
    <tag k="source" v="survey;image;yahoo_imagery"/>
    <tag k="source_ref" v="AM909_DSCM7208"/>
  </way>
  <way id="46624367" version="4" timestamp="2010-03-28T11:32:53Z" uid="20587" user="balrog-kun" changeset="4254597">
    <nd ref="595787275"/>
    <nd ref="595787285"/>
    <nd ref="596692023"/>
    <nd ref="595787273"/>
    <nd ref="595787271"/>
    <nd ref="595787283"/>
    <nd ref="595787269"/>
    <nd ref="596769105"/>
    <nd ref="595787277"/>
    <nd ref="596769074"/>
    <nd ref="596769075"/>
    <nd ref="595787159"/>
    <nd ref="596769076"/>
    <nd ref="596769077"/>
    <nd ref="596769065"/>
    <nd ref="595787157"/>
    <nd ref="595787155"/>
    <nd ref="595787138"/>
    <tag k="highway" v="tertiary"/>
    <tag k="name" v="Fairway Drive"/>
    <tag k="source" v="survey;image;yahoo_imagery"/>
    <tag k="source_ref" v="AM909_DSCM7173"/>
  </way>
  <way id="46624368" version="3" timestamp="2010-03-28T11:32:54Z" uid="20587" user="balrog-kun" changeset="4254597">
    <nd ref="595787235"/>
    <nd ref="595787251"/>
    <tag k="access" v="private"/>
    <tag k="highway" v="residential"/>
    <tag k="name" v="Crenshaw Circle"/>
    <tag k="source" v="survey;image;yahoo_imagery"/>
    <tag k="source_ref" v="AM909_DSCM7198"/>
  </way>
  <way id="46624372" version="4" timestamp="2010-03-28T11:32:54Z" uid="20587" user="balrog-kun" changeset="4254597">
    <nd ref="595787185"/>
    <nd ref="596769097"/>
    <nd ref="595787186"/>
    <tag k="highway" v="residential"/>
    <tag k="name" v="Tamarron Circle"/>
    <tag k="source" v="survey;image;yahoo_imagery;RCLIS"/>
    <tag k="source_ref" v="AM909_DSCM7514"/>
  </way>
  <way id="46624375" version="3" timestamp="2010-03-28T11:32:54Z" uid="20587" user="balrog-kun" changeset="4254597">
    <nd ref="595787356"/>
    <nd ref="595787372"/>
    <nd ref="596769151"/>
    <nd ref="595787370"/>
    <nd ref="595787637"/>
    <nd ref="54614910"/>
    <nd ref="595787656"/>
    <nd ref="595787652"/>
    <nd ref="595787677"/>
    <tag k="highway" v="residential"/>
    <tag k="name" v="Inverness Drive"/>
    <tag k="source" v="survey;image;yahoo_imagery"/>
    <tag k="source_ref" v="AM909_DSCM7553"/>
  </way>
  <way id="46624377" version="3" timestamp="2010-03-28T11:32:54Z" uid="20587" user="balrog-kun" changeset="4254597">
    <nd ref="595787631"/>
    <nd ref="595787620"/>
    <nd ref="595787654"/>
    <nd ref="596769174"/>
    <nd ref="595787650"/>
    <tag k="highway" v="residential"/>
    <tag k="name" v="Wild Dunes Circle"/>
    <tag k="source" v="survey;image;yahoo_imagery"/>
    <tag k="source_ref" v="AM909_DSCM7586"/>
  </way>
  <way id="46624378" version="3" timestamp="2010-03-28T11:32:54Z" uid="20587" user="balrog-kun" changeset="4254597">
    <nd ref="595787647"/>
    <nd ref="595787614"/>
    <tag k="highway" v="residential"/>
    <tag k="name" v="Harbortown Lane"/>
    <tag k="source" v="survey;image;yahoo_imagery"/>
    <tag k="source_ref" v="AM909_DSCM7605"/>
  </way>
  <way id="46624379" version="3" timestamp="2010-03-28T11:32:54Z" uid="20587" user="balrog-kun" changeset="4254597">
    <nd ref="595787365"/>
    <nd ref="595787383"/>
    <tag k="highway" v="residential"/>
    <tag k="name" v="Comarago Court"/>
    <tag k="source" v="survey;image;yahoo_imagery"/>
    <tag k="source_ref" v="AM909_DSCM7612"/>
  </way>
  <way id="46624382" version="3" timestamp="2010-03-28T11:32:54Z" uid="20587" user="balrog-kun" changeset="4254597">
    <nd ref="595787683"/>
    <nd ref="595787644"/>
    <nd ref="595787646"/>
    <nd ref="595787639"/>
    <nd ref="596769171"/>
    <nd ref="595787640"/>
    <nd ref="596769157"/>
    <nd ref="595787383"/>
    <nd ref="596769158"/>
    <nd ref="595787385"/>
    <nd ref="596769149"/>
    <nd ref="595787369"/>
    <nd ref="595787356"/>
    <tag k="highway" v="residential"/>
    <tag k="name" v="Shoalcreek Drive"/>
    <tag k="source" v="survey;image;yahoo_imagery;RCLIS"/>
    <tag k="source_ref" v="AM909_DSCM7560"/>
  </way>
  <way id="46624385" version="3" timestamp="2010-03-28T11:32:55Z" uid="20587" user="balrog-kun" changeset="4254597">
    <nd ref="595787392"/>
    <nd ref="595787398"/>
    <nd ref="595787432"/>
    <nd ref="595787430"/>
    <tag k="highway" v="residential"/>
    <tag k="name" v="Alamitos Circle"/>
    <tag k="source" v="survey;image;yahoo_imagery"/>
    <tag k="source_ref" v="AM909_DSCM7756"/>
  </way>
  <way id="46624386" version="3" timestamp="2010-03-28T11:32:55Z" uid="20587" user="balrog-kun" changeset="4254597">
    <nd ref="595787449"/>
    <nd ref="595787441"/>
    <nd ref="595787445"/>
    <nd ref="595787434"/>
    <nd ref="595787436"/>
    <tag k="highway" v="residential"/>
    <tag k="name" v="Monte Mar Street"/>
    <tag k="source" v="survey;image;yahoo_imagery"/>
    <tag k="source_ref" v="AM909_DSCM7748"/>
  </way>
  <way id="46624387" version="3" timestamp="2010-03-28T11:32:55Z" uid="20587" user="balrog-kun" changeset="4254597">
    <nd ref="595787525"/>
    <nd ref="595787519"/>
    <nd ref="596828002"/>
    <nd ref="595787452"/>
    <nd ref="596828004"/>
    <nd ref="595787451"/>
    <nd ref="595787449"/>
    <nd ref="596828000"/>
    <nd ref="595787442"/>
    <nd ref="596827992"/>
    <nd ref="595787426"/>
    <nd ref="596827991"/>
    <nd ref="595787392"/>
    <nd ref="596827985"/>
    <nd ref="596827987"/>
    <nd ref="595787393"/>
    <nd ref="596827988"/>
    <nd ref="595787390"/>
    <tag k="highway" v="residential"/>
    <tag k="name" v="Via Miguel Street"/>
    <tag k="source" v="survey;image;yahoo_imagery;RCLIS"/>
    <tag k="source_ref" v="AM909_DSCM7731"/>
  </way>
  <way id="46624388" version="3" timestamp="2010-03-28T11:32:55Z" uid="20587" user="balrog-kun" changeset="4254597">
    <nd ref="595787390"/>
    <nd ref="595787391"/>
    <nd ref="595787396"/>
    <tag k="highway" v="residential"/>
    <tag k="name" v="Zurita Circle"/>
    <tag k="source" v="survey;image;yahoo_imagery"/>
    <tag k="source_ref" v="AM909_DSCM7765"/>
  </way>
  <way id="46624391" version="3" timestamp="2010-03-28T11:32:55Z" uid="20587" user="balrog-kun" changeset="4254597">
    <nd ref="595787518"/>
    <nd ref="595787475"/>
    <tag k="highway" v="residential"/>
    <tag k="name" v="Via Castilla Street"/>
    <tag k="source" v="survey;image;yahoo_imagery"/>
    <tag k="source_ref" v="AM909_DSCM7781"/>
  </way>
  <way id="46624393" version="3" timestamp="2010-03-28T11:32:55Z" uid="20587" user="balrog-kun" changeset="4254597">
    <nd ref="595787587"/>
    <nd ref="595787592"/>
    <nd ref="596769165"/>
    <nd ref="595787301"/>
    <tag k="highway" v="residential"/>
    <tag k="name" v="Quaker Ridge Drive"/>
    <tag k="source" v="survey;image;yahoo_imagery"/>
    <tag k="source_ref" v="AM909_DSCM7486"/>
  </way>
  <way id="46624394" version="3" timestamp="2010-03-28T11:32:56Z" uid="20587" user="balrog-kun" changeset="4254597">
    <nd ref="595787439"/>
    <nd ref="596769160"/>
    <nd ref="595787201"/>
    <nd ref="596769103"/>
    <nd ref="595787197"/>
    <tag k="highway" v="residential"/>
    <tag k="name" v="Chandon Circle"/>
    <tag k="source" v="survey;image;yahoo_imagery;RCLIS"/>
    <tag k="source_ref" v="AM909_DSCM7493"/>
  </way>
  <way id="46624395" version="3" timestamp="2010-03-28T11:32:56Z" uid="20587" user="balrog-kun" changeset="4254597">
    <nd ref="595787438"/>
    <nd ref="595787199"/>
    <nd ref="595787195"/>
    <tag k="highway" v="residential"/>
    <tag k="name" v="Anise Circle"/>
    <tag k="source" v="survey;image;yahoo_imagery;RCLIS"/>
    <tag k="source_ref" v="AM909_DSCM7500"/>
  </way>
  <way id="46624396" version="3" timestamp="2010-03-28T11:32:56Z" uid="20587" user="balrog-kun" changeset="4254597">
    <nd ref="595787189"/>
    <nd ref="595787184"/>
    <nd ref="595787187"/>
    <tag k="highway" v="residential"/>
    <tag k="name" v="Cardamon Circle"/>
    <tag k="source" v="survey;image;yahoo_imagery;RCLIS"/>
    <tag k="source_ref" v="AM909_DSCM7503"/>
  </way>
  <way id="46624398" version="3" timestamp="2010-03-28T11:32:56Z" uid="20587" user="balrog-kun" changeset="4254597">
    <nd ref="595787186"/>
    <nd ref="596769094"/>
    <nd ref="596769095"/>
    <nd ref="595787181"/>
    <nd ref="596769087"/>
    <nd ref="595787171"/>
    <nd ref="596769088"/>
    <nd ref="595787173"/>
    <tag k="highway" v="residential"/>
    <tag k="name" v="Fair Isle Court"/>
    <tag k="source" v="survey;image;yahoo_imagery"/>
    <tag k="source_ref" v="AM909_DSCM7346"/>
  </way>
  <way id="46624399" version="4" timestamp="2010-03-28T11:32:56Z" uid="20587" user="balrog-kun" changeset="4254597">
    <nd ref="595787150"/>
    <nd ref="596769079"/>
    <nd ref="595787173"/>
    <nd ref="596769100"/>
    <nd ref="595787191"/>
    <nd ref="596769099"/>
    <nd ref="595787193"/>
    <nd ref="596769098"/>
    <nd ref="595787299"/>
    <nd ref="596769121"/>
    <nd ref="595787298"/>
    <nd ref="596769120"/>
    <nd ref="595787287"/>
    <nd ref="596769118"/>
    <nd ref="596769117"/>
    <nd ref="596769122"/>
    <nd ref="595787286"/>
    <nd ref="596769131"/>
    <nd ref="595787315"/>
    <tag k="highway" v="residential"/>
    <tag k="name" v="Spyglass Drive"/>
    <tag k="source" v="survey;image;yahoo_imagery"/>
    <tag k="source_ref" v="AM909_DSCM7327"/>
  </way>
  <way id="46624400" version="3" timestamp="2010-03-28T11:32:57Z" uid="20587" user="balrog-kun" changeset="4254597">
    <nd ref="595787321"/>
    <nd ref="595787324"/>
    <tag k="highway" v="residential"/>
    <tag k="name" v="Sotogrande Circle"/>
    <tag k="source" v="survey;image;yahoo_imagery"/>
    <tag k="source_ref" v="AM909_DSCM7469"/>
  </way>
  <way id="46624403" version="3" timestamp="2010-03-28T11:32:57Z" uid="20587" user="balrog-kun" changeset="4254597">
    <nd ref="595786786"/>
    <nd ref="595786787"/>
    <tag k="highway" v="residential"/>
    <tag k="name" v="Sandra Circle"/>
    <tag k="source" v="survey;image;yahoo_imagery"/>
    <tag k="source_ref" v="AM909_DSCM7861"/>
  </way>
  <way id="46624404" version="3" timestamp="2010-03-28T11:32:57Z" uid="20587" user="balrog-kun" changeset="4254597">
    <nd ref="595786732"/>
    <nd ref="595786736"/>
    <nd ref="595786734"/>
    <tag k="highway" v="residential"/>
    <tag k="name" v="Nick Circle"/>
    <tag k="source" v="survey;image;yahoo_imagery"/>
    <tag k="source_ref" v="AM909_DSCM7836"/>
  </way>
  <way id="46624405" version="3" timestamp="2010-03-28T11:32:57Z" uid="20587" user="balrog-kun" changeset="4254597">
    <nd ref="595786742"/>
    <nd ref="595786744"/>
    <tag k="construction" v="residential"/>
    <tag k="highway" v="construction"/>
    <tag k="name" v="Casper Circle"/>
    <tag k="source" v="survey;image;yahoo_imagery"/>
    <tag k="source_ref" v="AM909_DSCM7855"/>
  </way>
  <way id="46624406" version="3" timestamp="2010-03-28T11:32:57Z" uid="20587" user="balrog-kun" changeset="4254597">
    <nd ref="595786789"/>
    <nd ref="595786791"/>
    <tag k="highway" v="residential"/>
    <tag k="name" v="Maravilla Circle"/>
    <tag k="source" v="survey;image;yahoo_imagery"/>
    <tag k="source_ref" v="AM909_DSCM7870"/>
  </way>
  <way id="46624407" version="3" timestamp="2010-03-28T11:32:57Z" uid="20587" user="balrog-kun" changeset="4254597">
    <nd ref="595786713"/>
    <nd ref="595786721"/>
    <nd ref="595786719"/>
    <nd ref="595786725"/>
    <tag k="access" v="private"/>
    <tag k="highway" v="residential"/>
    <tag k="name" v="Flager Ranch Road"/>
    <tag k="source" v="yahoo_imagery;RCLIS"/>
  </way>
  <way id="46624408" version="3" timestamp="2010-03-28T11:32:57Z" uid="20587" user="balrog-kun" changeset="4254597">
    <nd ref="595786747"/>
    <nd ref="595786751"/>
    <nd ref="595786746"/>
    <nd ref="595786722"/>
    <nd ref="595786730"/>
    <nd ref="595786725"/>
    <tag k="access" v="private"/>
    <tag k="highway" v="residential"/>
    <tag k="name" v="Webster Ranch Road"/>
    <tag k="source" v="yahoo_imagery;RCLIS"/>
  </way>
  <way id="46624409" version="3" timestamp="2010-03-28T11:32:57Z" uid="20587" user="balrog-kun" changeset="4254597">
    <nd ref="595786711"/>
    <nd ref="595786739"/>
    <tag k="highway" v="residential"/>
    <tag k="name" v="Young Circle"/>
    <tag k="source" v="survey;image;yahoo_imagery;RCLIS"/>
    <tag k="source_ref" v="AM909_DSCM7811"/>
  </way>
  <way id="46624415" version="3" timestamp="2010-03-28T11:32:57Z" uid="20587" user="balrog-kun" changeset="4254597">
    <nd ref="595786727"/>
    <nd ref="595786722"/>
    <tag k="access" v="private"/>
    <tag k="highway" v="residential"/>
    <tag k="name" v="Stowell Ranch Circle"/>
    <tag k="source" v="yahoo_imagery;RCLIS"/>
  </way>
  <way id="46624421" version="3" timestamp="2010-03-28T11:32:57Z" uid="20587" user="balrog-kun" changeset="4254597">
    <nd ref="54499669"/>
    <nd ref="54499672"/>
    <nd ref="595786601"/>
    <nd ref="596947741"/>
    <nd ref="54499676"/>
    <nd ref="54499678"/>
    <nd ref="595786597"/>
    <nd ref="595786595"/>
    <nd ref="54499681"/>
    <tag k="access" v="private"/>
    <tag k="highway" v="track"/>
    <tag k="name" v="Joseph Canyon Trail"/>
    <tag k="source" v="survey;image;yahoo_imagery"/>
    <tag k="source_ref" v="AM909_DSCM7815"/>
    <tag k="tiger:cfcc" v="A41"/>
    <tag k="tiger:county" v="Riverside, CA"/>
    <tag k="tiger:name_base" v="Joseph Canyon"/>
    <tag k="tiger:name_type" v="Trl"/>
    <tag k="tiger:separated" v="no"/>
    <tag k="tiger:source" v="tiger_import_dch_v0.6_20070809"/>
    <tag k="tiger:tlid" v="195078077"/>
  </way>
  <way id="46624424" version="3" timestamp="2010-03-28T11:32:58Z" uid="20587" user="balrog-kun" changeset="4254597">
    <nd ref="595786829"/>
    <nd ref="595786707"/>
    <tag k="highway" v="residential"/>
    <tag k="name" v="Royal Vista Circle"/>
    <tag k="source" v="survey;image;yahoo_imagery"/>
    <tag k="source_ref" v="AM909_DSCM7905"/>
  </way>
  <way id="46624425" version="3" timestamp="2010-03-28T11:32:58Z" uid="20587" user="balrog-kun" changeset="4254597">
    <nd ref="595786804"/>
    <nd ref="595786805"/>
    <nd ref="595786672"/>
    <nd ref="595786674"/>
    <nd ref="595786676"/>
    <nd ref="595786657"/>
    <tag k="highway" v="tertiary"/>
    <tag k="name" v="Lopez Street"/>
    <tag k="source" v="survey;image;yahoo_imagery"/>
    <tag k="source_ref" v="AM909_DSCM7914"/>
  </way>
  <way id="46624426" version="3" timestamp="2010-03-28T11:32:59Z" uid="20587" user="balrog-kun" changeset="4254597">
    <nd ref="595786655"/>
    <nd ref="595786657"/>
    <nd ref="595786666"/>
    <nd ref="595786649"/>
    <nd ref="595786691"/>
    <tag k="highway" v="residential"/>
    <tag k="name" v="Suzie Circle"/>
    <tag k="source" v="survey;image;yahoo_imagery"/>
    <tag k="source_ref" v="AM909_DSCM7917"/>
  </way>
  <way id="46624427" version="3" timestamp="2010-03-28T11:32:59Z" uid="20587" user="balrog-kun" changeset="4254597">
    <nd ref="595786676"/>
    <nd ref="595786664"/>
    <nd ref="595786705"/>
    <nd ref="595786709"/>
    <tag k="highway" v="residential"/>
    <tag k="name" v="Nancy Circle"/>
    <tag k="source" v="survey;image;yahoo_imagery"/>
    <tag k="source_ref" v="AM909_DSCM7926"/>
  </way>
  <way id="46624432" version="3" timestamp="2010-03-28T11:32:59Z" uid="20587" user="balrog-kun" changeset="4254597">
    <nd ref="595786762"/>
    <nd ref="595786776"/>
    <nd ref="595786774"/>
    <nd ref="595786782"/>
    <nd ref="595786780"/>
    <tag k="access" v="private"/>
    <tag k="highway" v="residential"/>
    <tag k="name" v="Grinnell Ranch Road"/>
    <tag k="source" v="yahoo_imagery;RCLIS"/>
  </way>
  <way id="46624433" version="3" timestamp="2010-03-28T11:32:59Z" uid="20587" user="balrog-kun" changeset="4254597">
    <nd ref="595786764"/>
    <nd ref="596947853"/>
    <tag k="highway" v="residential"/>
    <tag k="name" v="Randall Ranch Road"/>
    <tag k="source" v="survey;image;yahoo_imagery"/>
    <tag k="source_ref" v="AM909_DSCM7892"/>
  </way>
  <way id="46624434" version="3" timestamp="2010-03-28T11:32:59Z" uid="20587" user="balrog-kun" changeset="4254597">
    <nd ref="595786717"/>
    <nd ref="595786715"/>
    <nd ref="596947822"/>
    <nd ref="595786713"/>
    <tag k="access" v="private"/>
    <tag k="highway" v="residential"/>
    <tag k="name" v="Jameson Circle"/>
    <tag k="source" v="yahoo_imagery;RCLIS"/>
  </way>
  <way id="46624435" version="3" timestamp="2010-03-28T11:32:59Z" uid="20587" user="balrog-kun" changeset="4254597">
    <nd ref="595786757"/>
    <nd ref="595786759"/>
    <nd ref="595786753"/>
    <nd ref="595786756"/>
    <nd ref="595786747"/>
    <nd ref="596947859"/>
    <tag k="access" v="private"/>
    <tag k="highway" v="residential"/>
    <tag k="name" v="Lowry Ranch Road"/>
    <tag k="source" v="survey;image;yahoo_imagery"/>
    <tag k="source_ref" v="AM909_DSCM7868"/>
  </way>
  <way id="46624436" version="3" timestamp="2010-03-28T11:32:59Z" uid="20587" user="balrog-kun" changeset="4254597">
    <nd ref="595786670"/>
    <nd ref="595786674"/>
    <tag k="highway" v="residential"/>
    <tag k="name" v="Strandberg Circle"/>
    <tag k="source" v="yahoo_imagery;RCLIS"/>
  </way>
  <way id="46624437" version="3" timestamp="2010-03-28T11:32:59Z" uid="20587" user="balrog-kun" changeset="4254597">
    <nd ref="595786686"/>
    <nd ref="595786684"/>
    <nd ref="595786643"/>
    <nd ref="595786644"/>
    <tag k="highway" v="residential"/>
    <tag k="name" v="Robby Circle"/>
    <tag k="source" v="survey;image;yahoo_imagery"/>
    <tag k="source_ref" v="AM909_DSCM7940"/>
  </way>
  <way id="46624439" version="3" timestamp="2010-03-28T11:32:59Z" uid="20587" user="balrog-kun" changeset="4254597">
    <nd ref="595786643"/>
    <nd ref="595786642"/>
    <tag k="highway" v="residential"/>
    <tag k="maxspeed" v="10 mph"/>
    <tag k="name" v="Shena Street"/>
    <tag k="source" v="survey;image;yahoo_imagery"/>
    <tag k="source_ref" v="AM909_DSCM7934"/>
  </way>
  <way id="46624440" version="3" timestamp="2010-03-28T11:32:59Z" uid="20587" user="balrog-kun" changeset="4254597">
    <nd ref="595786784"/>
    <nd ref="595786780"/>
    <tag k="access" v="private"/>
    <tag k="highway" v="residential"/>
    <tag k="name" v="White Ranch Circle"/>
    <tag k="source" v="yahoo_imagery;RCLIS"/>
  </way>
  <way id="46624441" version="3" timestamp="2010-03-28T11:32:59Z" uid="20587" user="balrog-kun" changeset="4254597">
    <nd ref="595786944"/>
    <nd ref="596947965"/>
    <nd ref="595786939"/>
    <tag k="access" v="private"/>
    <tag k="highway" v="tertiary"/>
    <tag k="name" v="Shasta Circle"/>
    <tag k="source" v="survey;image;yahoo_imagery"/>
    <tag k="source_ref" v="AM909_DSCM7990"/>
  </way>
  <way id="46624443" version="3" timestamp="2010-03-28T11:33:00Z" uid="20587" user="balrog-kun" changeset="4254597">
    <nd ref="595786824"/>
    <nd ref="595786825"/>
    <nd ref="596947904"/>
    <nd ref="595786827"/>
    <tag k="highway" v="residential"/>
    <tag k="name" v="White Mountain Circle"/>
    <tag k="source" v="survey;image;yahoo_imagery"/>
    <tag k="source_ref" v="AM909_DSCM7980"/>
  </way>
  <way id="46624444" version="3" timestamp="2010-03-28T11:33:00Z" uid="20587" user="balrog-kun" changeset="4254597">
    <nd ref="595787050"/>
    <nd ref="596948063"/>
    <nd ref="596948062"/>
    <nd ref="595787047"/>
    <nd ref="596947976"/>
    <nd ref="596947977"/>
    <nd ref="595787027"/>
    <nd ref="595786833"/>
    <nd ref="595786818"/>
    <nd ref="595786820"/>
    <tag k="highway" v="residential"/>
    <tag k="name" v="Payette Drive"/>
    <tag k="source" v="yahoo_imagery;RCLIS"/>
  </way>
  <way id="46624445" version="3" timestamp="2010-03-28T11:33:00Z" uid="20587" user="balrog-kun" changeset="4254597">
    <nd ref="596947976"/>
    <nd ref="595787008"/>
    <nd ref="595787005"/>
    <nd ref="595787002"/>
    <tag k="highway" v="residential"/>
    <tag k="name" v="Plumas Lane"/>
    <tag k="source" v="survey;image;yahoo_imagery"/>
    <tag k="source_ref" v="AM909_DSCM7968;AM909_DSCM7997"/>
  </way>
  <way id="46624448" version="3" timestamp="2010-03-28T11:33:00Z" uid="20587" user="balrog-kun" changeset="4254597">
    <nd ref="595787016"/>
    <nd ref="596947980"/>
    <nd ref="595787013"/>
    <nd ref="596947983"/>
    <nd ref="595787002"/>
    <nd ref="595787011"/>
    <nd ref="596947992"/>
    <nd ref="595787074"/>
    <nd ref="595787070"/>
    <nd ref="595787073"/>
    <tag k="highway" v="residential"/>
    <tag k="name" v="Wasatch Drive"/>
    <tag k="source" v="survey;image;yahoo_imagery"/>
    <tag k="source_ref" v="AM909_DSCM7998"/>
  </way>
  <way id="46624449" version="3" timestamp="2010-03-28T11:33:00Z" uid="20587" user="balrog-kun" changeset="4254597">
    <nd ref="595787072"/>
    <nd ref="595787019"/>
    <tag k="highway" v="residential"/>
    <tag k="name" v="Huron Circle"/>
    <tag k="source" v="survey;image;yahoo_imagery"/>
    <tag k="source_ref" v="AM909_DSCM8000"/>
  </way>
  <way id="46624450" version="3" timestamp="2010-03-28T11:33:00Z" uid="20587" user="balrog-kun" changeset="4254597">
    <nd ref="595787091"/>
    <nd ref="595787021"/>
    <tag k="highway" v="residential"/>
    <tag k="name" v="Ocala Circle"/>
    <tag k="source" v="survey;image;yahoo_imagery"/>
    <tag k="source_ref" v="AM909_DSCM8002"/>
  </way>
  <way id="46624451" version="3" timestamp="2010-03-28T11:33:00Z" uid="20587" user="balrog-kun" changeset="4254597">
    <nd ref="595787029"/>
    <nd ref="596948061"/>
    <nd ref="595787056"/>
    <nd ref="595787053"/>
    <nd ref="595787065"/>
    <tag k="access" v="private"/>
    <tag k="highway" v="residential"/>
    <tag k="name" v="Sawtooth Circle"/>
    <tag k="source" v="survey;image;yahoo_imagery"/>
    <tag k="source_ref" v="AM909_DSCM7972"/>
  </way>
  <way id="46624452" version="3" timestamp="2010-03-28T11:33:00Z" uid="20587" user="balrog-kun" changeset="4254597">
    <nd ref="595786848"/>
    <nd ref="595787044"/>
    <nd ref="595787032"/>
    <nd ref="595787060"/>
    <nd ref="595787058"/>
    <tag k="access" v="private"/>
    <tag k="highway" v="residential"/>
    <tag k="name" v="Gunnison Circle"/>
    <tag k="source" v="survey;image;yahoo_imagery"/>
    <tag k="source_ref" v="AM909_DSCM7973"/>
  </way>
  <way id="46624453" version="3" timestamp="2010-03-28T11:33:01Z" uid="20587" user="balrog-kun" changeset="4254597">
    <nd ref="595786852"/>
    <nd ref="595786850"/>
    <nd ref="595786861"/>
    <nd ref="595787063"/>
    <tag k="access" v="private"/>
    <tag k="highway" v="residential"/>
    <tag k="name" v="Wallowa Circle"/>
    <tag k="source" v="survey;image;yahoo_imagery"/>
    <tag k="source_ref" v="AM909_DSCM7974"/>
  </way>
  <way id="46624454" version="3" timestamp="2010-03-28T11:33:01Z" uid="20587" user="balrog-kun" changeset="4254597">
    <nd ref="595786840"/>
    <nd ref="595786939"/>
    <tag k="access" v="private"/>
    <tag k="highway" v="residential"/>
    <tag k="name" v="Trinity Circle"/>
    <tag k="source" v="survey;image;yahoo_imagery"/>
    <tag k="source_ref" v="AM909_DSCM7991"/>
  </way>
  <way id="46624455" version="3" timestamp="2010-03-28T11:33:01Z" uid="20587" user="balrog-kun" changeset="4254597">
    <nd ref="595786846"/>
    <nd ref="595786844"/>
    <nd ref="596947964"/>
    <nd ref="595786942"/>
    <tag k="access" v="private"/>
    <tag k="highway" v="residential"/>
    <tag k="name" v="Chippewa Circle"/>
    <tag k="source" v="survey;image;yahoo_imagery"/>
    <tag k="source_ref" v="AM909_DSCM7989"/>
  </way>
  <way id="46624456" version="3" timestamp="2010-03-28T11:33:01Z" uid="20587" user="balrog-kun" changeset="4254597">
    <nd ref="595786864"/>
    <nd ref="595786963"/>
    <tag k="access" v="private"/>
    <tag k="highway" v="residential"/>
    <tag k="name" v="Delta Circle"/>
    <tag k="source" v="survey;image;yahoo_imagery"/>
    <tag k="source_ref" v="AM909_DSCM7988"/>
  </way>
  <way id="46624458" version="3" timestamp="2010-03-28T11:33:01Z" uid="20587" user="balrog-kun" changeset="4254597">
    <nd ref="595786863"/>
    <nd ref="595786862"/>
    <nd ref="595786866"/>
    <tag k="access" v="private"/>
    <tag k="highway" v="residential"/>
    <tag k="name" v="Deerlodge Circle"/>
    <tag k="source" v="survey;image;yahoo_imagery;RCLIS"/>
    <tag k="source_ref" v="AM909_DSCM7987"/>
  </way>
  <way id="46624460" version="3" timestamp="2010-03-28T11:33:01Z" uid="20587" user="balrog-kun" changeset="4254597">
    <nd ref="595786854"/>
    <nd ref="595786858"/>
    <nd ref="595786859"/>
    <nd ref="595786860"/>
    <tag k="access" v="private"/>
    <tag k="highway" v="residential"/>
    <tag k="name" v="Coleville Circle"/>
    <tag k="source" v="survey;image;yahoo_imagery"/>
    <tag k="source_ref" v="AM909_DSCM7985"/>
  </way>
  <way id="46624469" version="3" timestamp="2010-03-28T11:33:01Z" uid="20587" user="balrog-kun" changeset="4254597">
    <nd ref="595787073"/>
    <nd ref="595787072"/>
    <nd ref="595787067"/>
    <nd ref="595787091"/>
    <nd ref="595787093"/>
    <tag k="highway" v="residential"/>
    <tag k="name" v="Stanislaus Drive"/>
    <tag k="source" v="survey;image;yahoo_imagery"/>
    <tag k="source_ref" v="AM909_DSCM7999"/>
  </way>
  <way id="46624470" version="3" timestamp="2010-03-28T11:33:01Z" uid="20587" user="balrog-kun" changeset="4254597">
    <nd ref="595787068"/>
    <nd ref="595787067"/>
    <tag k="highway" v="residential"/>
    <tag k="name" v="Humboldt Lane"/>
    <tag k="source" v="survey;image;yahoo_imagery"/>
    <tag k="source_ref" v="AM909_DSCM8008"/>
  </way>
  <way id="46624471" version="3" timestamp="2010-03-28T11:33:01Z" uid="20587" user="balrog-kun" changeset="4254597">
    <nd ref="595786995"/>
    <nd ref="596947991"/>
    <nd ref="595787016"/>
    <tag k="highway" v="residential"/>
    <tag k="name" v="McCall Circle"/>
    <tag k="source" v="survey;image;yahoo_imagery"/>
    <tag k="source_ref" v="AM909_DSCM8005"/>
  </way>
  <way id="46624473" version="3" timestamp="2010-03-28T11:33:01Z" uid="20587" user="balrog-kun" changeset="4254597">
    <nd ref="595787093"/>
    <nd ref="596948076"/>
    <nd ref="595787080"/>
    <tag k="highway" v="residential"/>
    <tag k="name" v="Fremont Drive"/>
    <tag k="source" v="survey;image;yahoo_imagery"/>
    <tag k="source_ref" v="AM909_DSCM8003"/>
  </way>
  <way id="46624474" version="3" timestamp="2010-03-28T11:33:01Z" uid="20587" user="balrog-kun" changeset="4254597">
    <nd ref="595787641"/>
    <nd ref="595787871"/>
    <tag k="highway" v="residential"/>
    <tag k="name" v="Old Warson Circle"/>
    <tag k="source" v="survey;image;yahoo_imagery;RCLIS"/>
    <tag k="source_ref" v="AM909_DSCM7623"/>
  </way>
  <way id="46624475" version="3" timestamp="2010-03-28T11:33:02Z" uid="20587" user="balrog-kun" changeset="4254597">
    <nd ref="595787096"/>
    <nd ref="595787082"/>
    <tag k="highway" v="residential"/>
    <tag k="name" v="Juliette Circle"/>
    <tag k="source" v="survey;image;yahoo_imagery"/>
    <tag k="source_ref" v="AM909_DSCM8009"/>
  </way>
  <way id="46624476" version="3" timestamp="2010-03-28T11:33:02Z" uid="20587" user="balrog-kun" changeset="4254597">
    <nd ref="595787869"/>
    <nd ref="595787877"/>
    <nd ref="595787875"/>
    <nd ref="595787643"/>
    <nd ref="595787642"/>
    <nd ref="595787646"/>
    <tag k="highway" v="residential"/>
    <tag k="name" v="Olympia Fields Drive"/>
    <tag k="source" v="survey;image;yahoo_imagery"/>
    <tag k="source_ref" v="AM909_DSCM7619"/>
  </way>
  <way id="46624477" version="3" timestamp="2010-03-28T11:33:02Z" uid="20587" user="balrog-kun" changeset="4254597">
    <nd ref="595787643"/>
    <nd ref="595787641"/>
    <nd ref="596769183"/>
    <nd ref="595787681"/>
    <nd ref="595787693"/>
    <tag k="highway" v="residential"/>
    <tag k="name" v="Prairie Dunes Drive"/>
    <tag k="source" v="survey;image;yahoo_imagery"/>
    <tag k="source_ref" v="AM909_DSCM7620"/>
  </way>
  <way id="46624478" version="3" timestamp="2010-03-28T11:33:02Z" uid="20587" user="balrog-kun" changeset="4254597">
    <nd ref="595786672"/>
    <nd ref="595786653"/>
    <nd ref="595786694"/>
    <tag k="highway" v="residential"/>
    <tag k="name" v="Judy Circle"/>
    <tag k="source" v="survey;image;yahoo_imagery"/>
    <tag k="source_ref" v="AM909_DSCM7956"/>
  </way>
  <way id="46624480" version="3" timestamp="2010-03-28T11:33:02Z" uid="20587" user="balrog-kun" changeset="4254597">
    <nd ref="595787000"/>
    <nd ref="595786778"/>
    <tag k="highway" v="residential"/>
    <tag k="name" v="Cerveza Circle"/>
    <tag k="source" v="survey;image;yahoo_imagery"/>
    <tag k="source_ref" v="AM909_DSCM7889"/>
  </way>
  <way id="46624481" version="3" timestamp="2010-03-28T11:33:02Z" uid="20587" user="balrog-kun" changeset="4254597">
    <nd ref="595786831"/>
    <nd ref="595786693"/>
    <tag k="highway" v="residential"/>
    <tag k="name" v="Royal Summit Circle"/>
    <tag k="source" v="survey;image;yahoo_imagery"/>
    <tag k="source_ref" v="AM909_DSCM7901"/>
  </way>
  <way id="46624486" version="2" timestamp="2010-03-28T11:33:02Z" uid="20587" user="balrog-kun" changeset="4254597">
    <nd ref="54313877"/>
    <nd ref="595786801"/>
    <nd ref="54313879"/>
    <nd ref="595786616"/>
    <nd ref="595786610"/>
    <nd ref="595786608"/>
    <nd ref="54313882"/>
    <nd ref="54313883"/>
    <nd ref="54313885"/>
    <nd ref="54313886"/>
    <tag k="access" v="private"/>
    <tag k="highway" v="track"/>
    <tag k="name" v="South Main Street"/>
    <tag k="tiger:cfcc" v="A41"/>
    <tag k="tiger:county" v="Riverside, CA"/>
    <tag k="tiger:name_base" v="Main"/>
    <tag k="tiger:name_direction_prefix" v="S"/>
    <tag k="tiger:name_type" v="St"/>
    <tag k="tiger:separated" v="no"/>
    <tag k="tiger:source" v="tiger_import_dch_v0.6_20070809"/>
    <tag k="tiger:tlid" v="194868126:194868127:194851148:194835844:194835850:194872253:194872255:194835874:194876427"/>
    <tag k="tiger:zip_left" v="92882"/>
    <tag k="tiger:zip_right" v="92882"/>
  </way>
</osm>
