<?xml version='1.0' encoding='UTF-8'?>
<osm version="0.6" generator="libosmium/2.20.0">
  <way id="46904482" version="2" timestamp="2010-07-07T07:39:59Z" uid="74617" user="JohnSmith" changeset="5156250">
    <nd ref="598778549"/>
    <nd ref="598778550"/>
    <tag k="highway" v="residential"/>
    <tag k="maxspeed" v="50"/>
    <tag k="maxspeed:source" v="default residential speed limit in Australia"/>
    <tag k="name" v="Condowie Road"/>
    <tag k="source" v="survey"/>
  </way>
  <way id="46904482" version="3" timestamp="2012-01-19T18:04:10Z" uid="147510" user="woodpeck_fixbot" changeset="10438353">
    <nd ref="598778549"/>
    <nd ref="598778550"/>
    <tag k="highway" v="residential"/>
    <tag k="name" v="Condowie Road"/>
    <tag k="source" v="survey"/>
  </way>
  <way id="46904487" version="2" timestamp="2010-07-07T07:38:40Z" uid="74617" user="JohnSmith" changeset="5156250">
    <nd ref="598778551"/>
    <nd ref="598778552"/>
    <nd ref="598778553"/>
    <tag k="highway" v="residential"/>
    <tag k="maxspeed" v="50"/>
    <tag k="maxspeed:source" v="default residential speed limit in Australia"/>
    <tag k="name" v="Dunginweri Road"/>
    <tag k="source" v="survey"/>
  </way>
  <way id="46904487" version="3" timestamp="2012-01-19T18:04:12Z" uid="147510" user="woodpeck_fixbot" changeset="10438353">
    <nd ref="598778551"/>
    <nd ref="598778552"/>
    <nd ref="598778553"/>
    <tag k="highway" v="residential"/>
    <tag k="name" v="Dunginweri Road"/>
    <tag k="source" v="survey"/>
  </way>
  <way id="46904490" version="2" timestamp="2010-07-07T07:39:28Z" uid="74617" user="JohnSmith" changeset="5156250">
    <nd ref="598778552"/>
    <nd ref="598778554"/>
    <tag k="highway" v="residential"/>
    <tag k="maxspeed" v="50"/>
    <tag k="maxspeed:source" v="default residential speed limit in Australia"/>
    <tag k="name" v="Yurunga Close"/>
    <tag k="source" v="survey"/>
  </way>
  <way id="46904490" version="3" timestamp="2012-01-19T18:04:13Z" uid="147510" user="woodpeck_fixbot" changeset="10438353">
    <nd ref="598778552"/>
    <nd ref="598778554"/>
    <tag k="highway" v="residential"/>
    <tag k="name" v="Yurunga Close"/>
    <tag k="source" v="survey"/>
  </way>
  <way id="46904497" version="2" timestamp="2010-07-07T07:41:01Z" uid="74617" user="JohnSmith" changeset="5156250">
    <nd ref="598778555"/>
    <nd ref="598778556"/>
    <nd ref="598778557"/>
    <nd ref="598778558"/>
    <nd ref="598778559"/>
    <nd ref="598778560"/>
    <tag k="highway" v="residential"/>
    <tag k="maxspeed" v="50"/>
    <tag k="maxspeed:source" v="default residential speed limit in Australia"/>
    <tag k="name" v="Wyndham Close"/>
    <tag k="source" v="survey"/>
  </way>
  <way id="46904497" version="3" timestamp="2011-01-07T09:30:39Z" uid="4467" user="Rosscoe" changeset="6890598">
    <nd ref="598778555"/>
    <nd ref="598778556"/>
    <nd ref="1088025764"/>
    <nd ref="598778557"/>
    <nd ref="598778558"/>
    <nd ref="1088025945"/>
    <nd ref="598778559"/>
    <nd ref="598778560"/>
    <tag k="highway" v="residential"/>
    <tag k="maxspeed" v="50"/>
    <tag k="maxspeed:source" v="default residential speed limit in Australia"/>
    <tag k="name" v="Wyndham Close"/>
    <tag k="source" v="survey"/>
  </way>
  <way id="46904497" version="4" timestamp="2012-01-19T18:04:15Z" uid="147510" user="woodpeck_fixbot" changeset="10438353">
    <nd ref="598778555"/>
    <nd ref="598778556"/>
    <nd ref="1088025764"/>
    <nd ref="598778557"/>
    <nd ref="598778558"/>
    <nd ref="1088025945"/>
    <nd ref="598778559"/>
    <nd ref="598778560"/>
    <tag k="highway" v="residential"/>
    <tag k="name" v="Wyndham Close"/>
    <tag k="source" v="survey"/>
  </way>
  <way id="46904502" version="2" timestamp="2010-07-07T07:39:35Z" uid="74617" user="JohnSmith" changeset="5156250">
    <nd ref="598778558"/>
    <nd ref="598778561"/>
    <nd ref="598778562"/>
    <nd ref="598778563"/>
    <tag k="highway" v="residential"/>
    <tag k="maxspeed" v="50"/>
    <tag k="maxspeed:source" v="default residential speed limit in Australia"/>
    <tag k="name" v="Leehy Court"/>
    <tag k="source" v="survey"/>
  </way>
  <way id="46904502" version="3" timestamp="2012-01-19T18:04:16Z" uid="147510" user="woodpeck_fixbot" changeset="10438353">
    <nd ref="598778558"/>
    <nd ref="598778561"/>
    <nd ref="598778562"/>
    <nd ref="598778563"/>
    <tag k="highway" v="residential"/>
    <tag k="name" v="Leehy Court"/>
    <tag k="source" v="survey"/>
  </way>
  <way id="46904525" version="2" timestamp="2010-07-07T07:39:15Z" uid="74617" user="JohnSmith" changeset="5156250">
    <nd ref="598778565"/>
    <nd ref="598778566"/>
    <nd ref="598778567"/>
    <nd ref="598778568"/>
    <nd ref="598778569"/>
    <nd ref="598778570"/>
    <nd ref="598778571"/>
    <tag k="highway" v="residential"/>
    <tag k="maxspeed" v="50"/>
    <tag k="maxspeed:source" v="default residential speed limit in Australia"/>
    <tag k="name" v="Elizabeth Drive"/>
    <tag k="source" v="survey"/>
  </way>
  <way id="46904525" version="3" timestamp="2012-01-19T18:04:19Z" uid="147510" user="woodpeck_fixbot" changeset="10438353">
    <nd ref="598778565"/>
    <nd ref="598778566"/>
    <nd ref="598778567"/>
    <nd ref="598778568"/>
    <nd ref="598778569"/>
    <nd ref="598778570"/>
    <nd ref="598778571"/>
    <tag k="highway" v="residential"/>
    <tag k="name" v="Elizabeth Drive"/>
    <tag k="source" v="survey"/>
  </way>
  <way id="46904540" version="2" timestamp="2010-07-07T07:40:03Z" uid="74617" user="JohnSmith" changeset="5156250">
    <nd ref="598778569"/>
    <nd ref="598778572"/>
    <nd ref="598778573"/>
    <nd ref="598778574"/>
    <nd ref="598778575"/>
    <nd ref="598778576"/>
    <nd ref="598778577"/>
    <nd ref="598778578"/>
    <nd ref="598778579"/>
    <nd ref="598778580"/>
    <nd ref="598778581"/>
    <nd ref="598778582"/>
    <nd ref="598778583"/>
    <nd ref="598778584"/>
    <nd ref="598778585"/>
    <nd ref="598778586"/>
    <nd ref="598778587"/>
    <nd ref="598778568"/>
    <tag k="highway" v="residential"/>
    <tag k="maxspeed" v="50"/>
    <tag k="maxspeed:source" v="default residential speed limit in Australia"/>
    <tag k="name" v="Catherine Way"/>
    <tag k="source" v="survey"/>
  </way>
  <way id="46904540" version="3" timestamp="2011-01-07T09:30:41Z" uid="4467" user="Rosscoe" changeset="6890598">
    <nd ref="598778569"/>
    <nd ref="598778572"/>
    <nd ref="1088025793"/>
    <nd ref="1088025606"/>
    <nd ref="598778573"/>
    <nd ref="598778574"/>
    <nd ref="598778575"/>
    <nd ref="598778576"/>
    <nd ref="598778577"/>
    <nd ref="598778578"/>
    <nd ref="598778579"/>
    <nd ref="598778580"/>
    <nd ref="598778581"/>
    <nd ref="598778582"/>
    <nd ref="598778583"/>
    <nd ref="598778584"/>
    <nd ref="598778585"/>
    <nd ref="598778586"/>
    <nd ref="1088025730"/>
    <nd ref="598778587"/>
    <nd ref="598778568"/>
    <tag k="highway" v="residential"/>
    <tag k="maxspeed" v="50"/>
    <tag k="maxspeed:source" v="default residential speed limit in Australia"/>
    <tag k="name" v="Catherine Way"/>
    <tag k="source" v="survey"/>
  </way>
  <way id="46904540" version="4" timestamp="2012-01-19T18:04:21Z" uid="147510" user="woodpeck_fixbot" changeset="10438353">
    <nd ref="598778569"/>
    <nd ref="598778572"/>
    <nd ref="1088025793"/>
    <nd ref="1088025606"/>
    <nd ref="598778573"/>
    <nd ref="598778574"/>
    <nd ref="598778575"/>
    <nd ref="598778576"/>
    <nd ref="598778577"/>
    <nd ref="598778578"/>
    <nd ref="598778579"/>
    <nd ref="598778580"/>
    <nd ref="598778581"/>
    <nd ref="598778582"/>
    <nd ref="598778583"/>
    <nd ref="598778584"/>
    <nd ref="598778585"/>
    <nd ref="598778586"/>
    <nd ref="1088025730"/>
    <nd ref="598778587"/>
    <nd ref="598778568"/>
    <tag k="highway" v="residential"/>
    <tag k="name" v="Catherine Way"/>
    <tag k="source" v="survey"/>
  </way>
  <way id="46904560" version="2" timestamp="2011-01-07T09:30:32Z" uid="4467" user="Rosscoe" changeset="6890598">
    <nd ref="186346670"/>
    <nd ref="598778588"/>
    <nd ref="598778589"/>
    <nd ref="598778590"/>
    <nd ref="598778591"/>
    <nd ref="598778592"/>
    <nd ref="598778593"/>
    <nd ref="598778594"/>
    <nd ref="598778595"/>
    <nd ref="598778596"/>
    <nd ref="1088025912"/>
    <nd ref="1088025630"/>
    <nd ref="598778597"/>
    <nd ref="598778598"/>
    <nd ref="598778599"/>
    <nd ref="598778600"/>
    <nd ref="598778601"/>
    <nd ref="598778602"/>
    <nd ref="598778603"/>
    <nd ref="1088025550"/>
    <nd ref="598778604"/>
    <nd ref="598778605"/>
    <nd ref="598778606"/>
    <tag k="highway" v="unclassified"/>
    <tag k="source" v="survey"/>
    <tag k="surface" v="asphalt"/>
  </way>
  <way id="46904566" version="2" timestamp="2010-07-07T07:39:01Z" uid="74617" user="JohnSmith" changeset="5156250">
    <nd ref="598778589"/>
    <nd ref="598778607"/>
    <nd ref="598778608"/>
    <nd ref="598778609"/>
    <nd ref="598778549"/>
    <nd ref="598778610"/>
    <nd ref="598778551"/>
    <nd ref="598778611"/>
    <nd ref="598778612"/>
    <nd ref="598778613"/>
    <tag k="highway" v="residential"/>
    <tag k="maxspeed" v="50"/>
    <tag k="maxspeed:source" v="default residential speed limit in Australia"/>
    <tag k="name" v="Woondooka Road"/>
    <tag k="source" v="survey"/>
  </way>
  <way id="46904566" version="3" timestamp="2012-01-19T18:04:24Z" uid="147510" user="woodpeck_fixbot" changeset="10438353">
    <nd ref="598778589"/>
    <nd ref="598778607"/>
    <nd ref="598778608"/>
    <nd ref="598778609"/>
    <nd ref="598778549"/>
    <nd ref="598778610"/>
    <nd ref="598778551"/>
    <nd ref="598778611"/>
    <nd ref="598778612"/>
    <nd ref="598778613"/>
    <tag k="highway" v="residential"/>
    <tag k="name" v="Woondooka Road"/>
    <tag k="source" v="survey"/>
  </way>
  <way id="46904575" version="2" timestamp="2010-07-07T07:38:47Z" uid="74617" user="JohnSmith" changeset="5156250">
    <nd ref="598778608"/>
    <nd ref="598778614"/>
    <nd ref="598778615"/>
    <nd ref="598778616"/>
    <tag k="highway" v="residential"/>
    <tag k="maxspeed" v="50"/>
    <tag k="maxspeed:source" v="default residential speed limit in Australia"/>
    <tag k="name" v="Yallamba Road"/>
    <tag k="source" v="survey"/>
  </way>
  <way id="46904575" version="3" timestamp="2011-01-07T09:30:43Z" uid="4467" user="Rosscoe" changeset="6890598">
    <nd ref="598778608"/>
    <nd ref="598778614"/>
    <nd ref="598778615"/>
    <nd ref="1088025836"/>
    <nd ref="598778616"/>
    <tag k="highway" v="residential"/>
    <tag k="maxspeed" v="50"/>
    <tag k="maxspeed:source" v="default residential speed limit in Australia"/>
    <tag k="name" v="Yallamba Road"/>
    <tag k="source" v="survey"/>
  </way>
  <way id="46904575" version="4" timestamp="2012-01-19T18:04:27Z" uid="147510" user="woodpeck_fixbot" changeset="10438353">
    <nd ref="598778608"/>
    <nd ref="598778614"/>
    <nd ref="598778615"/>
    <nd ref="1088025836"/>
    <nd ref="598778616"/>
    <tag k="highway" v="residential"/>
    <tag k="name" v="Yallamba Road"/>
    <tag k="source" v="survey"/>
  </way>
  <way id="46904638" version="2" timestamp="2010-07-07T07:40:43Z" uid="74617" user="JohnSmith" changeset="5156250">
    <nd ref="598778617"/>
    <nd ref="598778618"/>
    <nd ref="598778619"/>
    <nd ref="598778620"/>
    <tag k="highway" v="residential"/>
    <tag k="maxspeed" v="50"/>
    <tag k="maxspeed:source" v="default residential speed limit in Australia"/>
    <tag k="name" v="Nicole Place"/>
    <tag k="source" v="survey"/>
  </way>
  <way id="46904638" version="3" timestamp="2012-01-19T18:04:30Z" uid="147510" user="woodpeck_fixbot" changeset="10438353">
    <nd ref="598778617"/>
    <nd ref="598778618"/>
    <nd ref="598778619"/>
    <nd ref="598778620"/>
    <tag k="highway" v="residential"/>
    <tag k="name" v="Nicole Place"/>
    <tag k="source" v="survey"/>
  </way>
  <way id="46904643" version="2" timestamp="2010-07-07T07:38:23Z" uid="74617" user="JohnSmith" changeset="5156250">
    <nd ref="598778621"/>
    <nd ref="598778622"/>
    <tag k="highway" v="residential"/>
    <tag k="maxspeed" v="50"/>
    <tag k="maxspeed:source" v="default residential speed limit in Australia"/>
    <tag k="name" v="Nathan Close"/>
    <tag k="source" v="survey"/>
  </way>
  <way id="46904643" version="3" timestamp="2012-01-19T18:04:34Z" uid="147510" user="woodpeck_fixbot" changeset="10438353">
    <nd ref="598778621"/>
    <nd ref="598778622"/>
    <tag k="highway" v="residential"/>
    <tag k="name" v="Nathan Close"/>
    <tag k="source" v="survey"/>
  </way>
  <way id="46904646" version="2" timestamp="2010-07-07T07:39:12Z" uid="74617" user="JohnSmith" changeset="5156250">
    <nd ref="598778623"/>
    <nd ref="598778624"/>
    <tag k="highway" v="residential"/>
    <tag k="maxspeed" v="50"/>
    <tag k="maxspeed:source" v="default residential speed limit in Australia"/>
    <tag k="name" v="Jodie Court"/>
    <tag k="source" v="survey"/>
  </way>
  <way id="46904646" version="3" timestamp="2012-01-19T18:04:36Z" uid="147510" user="woodpeck_fixbot" changeset="10438353">
    <nd ref="598778623"/>
    <nd ref="598778624"/>
    <tag k="highway" v="residential"/>
    <tag k="name" v="Jodie Court"/>
    <tag k="source" v="survey"/>
  </way>
  <way id="46904652" version="2" timestamp="2010-07-07T07:40:31Z" uid="74617" user="JohnSmith" changeset="5156250">
    <nd ref="598778625"/>
    <nd ref="598778626"/>
    <tag k="highway" v="residential"/>
    <tag k="maxspeed" v="50"/>
    <tag k="maxspeed:source" v="default residential speed limit in Australia"/>
    <tag k="name" v="Joshua Place"/>
    <tag k="source" v="survey"/>
  </way>
  <way id="46904652" version="3" timestamp="2012-01-19T18:04:38Z" uid="147510" user="woodpeck_fixbot" changeset="10438353">
    <nd ref="598778625"/>
    <nd ref="598778626"/>
    <tag k="highway" v="residential"/>
    <tag k="name" v="Joshua Place"/>
    <tag k="source" v="survey"/>
  </way>
  <way id="46904680" version="2" timestamp="2010-07-07T07:39:40Z" uid="74617" user="JohnSmith" changeset="5156250">
    <nd ref="440561351"/>
    <nd ref="598778631"/>
    <tag k="highway" v="residential"/>
    <tag k="maxspeed" v="50"/>
    <tag k="maxspeed:source" v="default residential speed limit in Australia"/>
    <tag k="name" v="Heritage Close"/>
    <tag k="source" v="survey"/>
  </way>
  <way id="46904680" version="3" timestamp="2012-01-19T18:04:46Z" uid="147510" user="woodpeck_fixbot" changeset="10438353">
    <nd ref="440561351"/>
    <nd ref="598778631"/>
    <tag k="highway" v="residential"/>
    <tag k="name" v="Heritage Close"/>
    <tag k="source" v="survey"/>
  </way>
  <way id="46904701" version="2" timestamp="2010-07-07T07:39:39Z" uid="74617" user="JohnSmith" changeset="5156250">
    <nd ref="598778643"/>
    <nd ref="598778645"/>
    <nd ref="598778646"/>
    <nd ref="598778647"/>
    <tag k="highway" v="residential"/>
    <tag k="maxspeed" v="50"/>
    <tag k="maxspeed:source" v="default residential speed limit in Australia"/>
    <tag k="name" v="Katrina Court"/>
    <tag k="source" v="survey"/>
  </way>
  <way id="46904701" version="3" timestamp="2012-01-19T18:04:51Z" uid="147510" user="woodpeck_fixbot" changeset="10438353">
    <nd ref="598778643"/>
    <nd ref="598778645"/>
    <nd ref="598778646"/>
    <nd ref="598778647"/>
    <tag k="highway" v="residential"/>
    <tag k="name" v="Katrina Court"/>
    <tag k="source" v="survey"/>
  </way>
  <way id="46904724" version="2" timestamp="2010-07-07T07:39:03Z" uid="74617" user="JohnSmith" changeset="5156250">
    <nd ref="598778648"/>
    <nd ref="598778649"/>
    <tag k="highway" v="residential"/>
    <tag k="maxspeed" v="50"/>
    <tag k="maxspeed:source" v="default residential speed limit in Australia"/>
    <tag k="name" v="Rosewood Road"/>
    <tag k="source" v="survey"/>
  </way>
  <way id="46904724" version="3" timestamp="2012-01-19T18:05:02Z" uid="147510" user="woodpeck_fixbot" changeset="10438353">
    <nd ref="598778648"/>
    <nd ref="598778649"/>
    <tag k="highway" v="residential"/>
    <tag k="name" v="Rosewood Road"/>
    <tag k="source" v="survey"/>
  </way>
  <way id="46904731" version="2" timestamp="2010-07-07T07:38:30Z" uid="74617" user="JohnSmith" changeset="5156250">
    <nd ref="598778650"/>
    <nd ref="598778651"/>
    <nd ref="598778652"/>
    <nd ref="598778653"/>
    <nd ref="598778654"/>
    <nd ref="598778655"/>
    <nd ref="598778656"/>
    <tag k="highway" v="residential"/>
    <tag k="maxspeed" v="50"/>
    <tag k="maxspeed:source" v="default residential speed limit in Australia"/>
    <tag k="name" v="Kingfisher Drive"/>
    <tag k="source" v="survey"/>
  </way>
  <way id="46904731" version="3" timestamp="2011-12-26T04:50:07Z" uid="20949" user="Ebenezer" changeset="10204491"/>
  <way id="46904736" version="2" timestamp="2010-07-07T07:39:45Z" uid="74617" user="JohnSmith" changeset="5156250">
    <nd ref="598778651"/>
    <nd ref="598778657"/>
    <tag k="highway" v="residential"/>
    <tag k="maxspeed" v="50"/>
    <tag k="maxspeed:source" v="default residential speed limit in Australia"/>
    <tag k="name" v="Songlark Place"/>
    <tag k="source" v="survey"/>
  </way>
  <way id="46904736" version="3" timestamp="2012-01-19T18:05:06Z" uid="147510" user="woodpeck_fixbot" changeset="10438353">
    <nd ref="598778651"/>
    <nd ref="598778657"/>
    <tag k="highway" v="residential"/>
    <tag k="name" v="Songlark Place"/>
    <tag k="source" v="survey"/>
  </way>
  <way id="46904738" version="2" timestamp="2010-07-07T07:40:40Z" uid="74617" user="JohnSmith" changeset="5156250">
    <nd ref="598778655"/>
    <nd ref="598778658"/>
    <tag k="highway" v="residential"/>
    <tag k="maxspeed" v="50"/>
    <tag k="maxspeed:source" v="default residential speed limit in Australia"/>
    <tag k="name" v="Woodswallow Close"/>
    <tag k="source" v="survey"/>
  </way>
  <way id="46904738" version="3" timestamp="2011-12-26T04:50:07Z" uid="20949" user="Ebenezer" changeset="10204491"/>
</osm>
