<?xml version='1.0' encoding='UTF-8'?>
<osm version="0.6" generator="libosmium/2.20.0">
  <way id="46931158" version="1" timestamp="2009-12-24T18:25:24Z" uid="59758" user="rendle" changeset="3444524">
    <nd ref="599026483"/>
    <nd ref="599027439"/>
    <nd ref="599027344"/>
    <nd ref="599027206"/>
    <nd ref="599026812"/>
    <nd ref="599026744"/>
    <nd ref="599026675"/>
    <nd ref="599026633"/>
    <nd ref="599026485"/>
    <tag k="highway" v="service"/>
  </way>
  <way id="46931158" version="2" timestamp="2009-12-25T22:37:54Z" uid="59758" user="rendle" changeset="3451270">
    <nd ref="599026483"/>
    <nd ref="599027439"/>
    <nd ref="599027344"/>
    <nd ref="599027206"/>
    <nd ref="599026812"/>
    <nd ref="599026744"/>
    <nd ref="599026675"/>
    <nd ref="599026633"/>
    <tag k="highway" v="service"/>
  </way>
  <way id="46931158" version="3" timestamp="2009-12-25T22:38:24Z" uid="59758" user="rendle" changeset="3451270">
    <nd ref="599026483"/>
    <nd ref="599027439"/>
    <nd ref="599027344"/>
    <nd ref="599027206"/>
    <nd ref="599026812"/>
    <nd ref="599026744"/>
    <nd ref="599026675"/>
    <tag k="highway" v="service"/>
  </way>
  <way id="46931158" version="4" timestamp="2009-12-25T22:38:48Z" uid="59758" user="rendle" changeset="3451270"/>
  <way id="46931208" version="2" timestamp="2010-03-28T11:34:01Z" uid="20587" user="balrog-kun" changeset="4254597">
    <nd ref="599032918"/>
    <nd ref="599032916"/>
    <nd ref="123423955"/>
    <nd ref="122943391"/>
    <nd ref="123337721"/>
    <nd ref="123423959"/>
    <tag k="highway" v="residential"/>
    <tag k="name" v="3 Ranch Road"/>
    <tag k="name_1" v="Three Ranch Road"/>
    <tag k="tiger:cfcc" v="A41"/>
    <tag k="tiger:county" v="Los Angeles, CA"/>
    <tag k="tiger:name_base" v="3 Ranch"/>
    <tag k="tiger:name_base_1" v="Three Ranch"/>
    <tag k="tiger:name_type" v="Rd"/>
    <tag k="tiger:name_type_1" v="Rd"/>
    <tag k="tiger:separated" v="no"/>
    <tag k="tiger:source" v="tiger_import_dch_v0.6_20070809"/>
    <tag k="tiger:tlid" v="141647663:141647666:141647615:141647621:141647622:141647636:141647637:141647461:141647466:141647467:142243217"/>
    <tag k="tiger:zip_left" v="91010"/>
    <tag k="tiger:zip_right" v="91010"/>
  </way>
  <way id="46931210" version="2" timestamp="2010-03-28T11:34:01Z" uid="20587" user="balrog-kun" changeset="4254597">
    <nd ref="123097945"/>
    <nd ref="123097949"/>
    <tag k="highway" v="residential"/>
    <tag k="name" v="Santo Domingo Avenue"/>
    <tag k="tiger:cfcc" v="A41"/>
    <tag k="tiger:county" v="Los Angeles, CA"/>
    <tag k="tiger:name_base" v="Santo Domingo"/>
    <tag k="tiger:name_type" v="Ave"/>
    <tag k="tiger:separated" v="no"/>
    <tag k="tiger:source" v="tiger_import_dch_v0.6_20070809"/>
    <tag k="tiger:tlid" v="141707816:141707823"/>
    <tag k="tiger:zip_left" v="91010"/>
    <tag k="tiger:zip_right" v="91010"/>
  </way>
  <way id="46931212" version="2" timestamp="2010-03-28T11:34:01Z" uid="20587" user="balrog-kun" changeset="4254597">
    <nd ref="599032926"/>
    <nd ref="123549038"/>
    <tag k="highway" v="residential"/>
    <tag k="name" v="Business Center Drive"/>
    <tag k="tiger:cfcc" v="A41"/>
    <tag k="tiger:county" v="Los Angeles, CA"/>
    <tag k="tiger:name_base" v="Business Center"/>
    <tag k="tiger:name_type" v="Dr"/>
    <tag k="tiger:separated" v="no"/>
    <tag k="tiger:source" v="tiger_import_dch_v0.6_20070809"/>
    <tag k="tiger:tlid" v="141707822:141707828:141707830"/>
    <tag k="tiger:zip_left" v="91010"/>
    <tag k="tiger:zip_right" v="91010"/>
  </way>
  <way id="46931484" version="1" timestamp="2009-12-24T18:40:40Z" uid="74027" user="katzlbt" changeset="3444608">
    <nd ref="599035409"/>
    <nd ref="599035410"/>
    <nd ref="599035411"/>
    <nd ref="599035412"/>
    <nd ref="599035413"/>
    <nd ref="599035414"/>
    <nd ref="599035415"/>
    <tag k="name" v="Vennspitze"/>
    <tag k="note" v="only start of tour, signs indicate tour on sled piste"/>
    <tag k="piste:type" v="skitour"/>
  </way>
  <way id="46931484" version="2" timestamp="2010-02-26T23:57:45Z" uid="45481" user="borisC" changeset="3984795">
    <nd ref="599035409"/>
    <nd ref="599035410"/>
    <nd ref="599035411"/>
    <nd ref="599035412"/>
    <nd ref="599035413"/>
    <nd ref="599035414"/>
    <nd ref="599035415"/>
    <tag k="note" v="only start of tour, signs indicate tour on sled piste"/>
    <tag k="piste:name" v="Vennspitze"/>
    <tag k="piste:type" v="skitour"/>
  </way>
  <way id="46931484" version="3" timestamp="2012-02-21T12:42:24Z" uid="606250" user="katzlmacher" changeset="10749795"/>
  <way id="46931539" version="1" timestamp="2009-12-24T18:45:35Z" uid="59758" user="rendle" changeset="3444606">
    <nd ref="307368344"/>
    <nd ref="307368345"/>
    <nd ref="307368346"/>
    <nd ref="599028599"/>
    <nd ref="460382725"/>
    <nd ref="599028610"/>
    <nd ref="599028217"/>
    <nd ref="460382726"/>
    <tag k="highway" v="residential"/>
  </way>
  <way id="46931539" version="2" timestamp="2009-12-24T19:53:51Z" uid="59758" user="rendle" changeset="3444750">
    <nd ref="307368344"/>
    <nd ref="307368345"/>
    <nd ref="307368346"/>
    <nd ref="599028599"/>
    <nd ref="460382725"/>
    <nd ref="599028610"/>
    <tag k="highway" v="residential"/>
  </way>
  <way id="46931677" version="1" timestamp="2009-12-24T18:51:39Z" uid="59758" user="rendle" changeset="3444606">
    <nd ref="599037021"/>
    <nd ref="599028600"/>
    <nd ref="599029910"/>
    <nd ref="599029906"/>
    <nd ref="599029771"/>
    <nd ref="599029658"/>
    <nd ref="599029620"/>
    <nd ref="599029612"/>
    <nd ref="599029507"/>
    <nd ref="599029505"/>
    <nd ref="599028601"/>
    <nd ref="599028602"/>
    <nd ref="599028603"/>
    <nd ref="599028604"/>
    <nd ref="599028605"/>
    <nd ref="599028606"/>
    <nd ref="599028608"/>
    <nd ref="599028610"/>
    <tag k="highway" v="service"/>
  </way>
  <way id="46931677" version="2" timestamp="2009-12-24T18:51:52Z" uid="59758" user="rendle" changeset="3444606">
    <nd ref="599037021"/>
    <nd ref="599028600"/>
    <tag k="highway" v="service"/>
  </way>
  <way id="46931677" version="3" timestamp="2009-12-24T18:52:01Z" uid="59758" user="rendle" changeset="3444606">
    <nd ref="599037021"/>
    <nd ref="599028600"/>
    <tag k="highway" v="service"/>
    <tag k="name" v="Platform 1"/>
  </way>
  <way id="46931677" version="4" timestamp="2009-12-24T18:52:52Z" uid="59758" user="rendle" changeset="3444606">
    <nd ref="599037021"/>
    <nd ref="599037178"/>
    <nd ref="599028600"/>
    <tag k="highway" v="service"/>
    <tag k="name" v="Platform 1"/>
  </way>
  <way id="46931677" version="5" timestamp="2009-12-30T12:07:26Z" uid="59758" user="rendle" changeset="3489207">
    <nd ref="599037021"/>
    <nd ref="599037178"/>
    <nd ref="599028600"/>
    <tag k="highway" v="platform"/>
    <tag k="name" v="Platform 1"/>
  </way>
  <way id="46931677" version="6" timestamp="2011-08-03T08:36:20Z" uid="15188" user="Polyglot" changeset="8907901">
    <nd ref="599037021"/>
    <nd ref="1384108050"/>
    <nd ref="599028600"/>
    <tag k="highway" v="platform"/>
    <tag k="name" v="Platform 1"/>
  </way>
  <way id="46931677" version="7" timestamp="2012-01-12T15:35:30Z" uid="138772" user="lodde1949" changeset="10370380"/>
  <way id="46931679" version="1" timestamp="2009-12-24T18:51:52Z" uid="59758" user="rendle" changeset="3444606">
    <nd ref="599028600"/>
    <nd ref="599029910"/>
    <nd ref="599029906"/>
    <nd ref="599029771"/>
    <nd ref="599029658"/>
    <nd ref="599029620"/>
    <nd ref="599029612"/>
    <nd ref="599029507"/>
    <nd ref="599029505"/>
    <nd ref="599028601"/>
    <nd ref="599028602"/>
    <nd ref="599028603"/>
    <nd ref="599028604"/>
    <nd ref="599028605"/>
    <nd ref="599028606"/>
    <nd ref="599028608"/>
    <nd ref="599028610"/>
    <tag k="highway" v="service"/>
  </way>
  <way id="46931679" version="2" timestamp="2009-12-24T19:58:56Z" uid="59758" user="rendle" changeset="3444750">
    <nd ref="599028600"/>
    <nd ref="599029910"/>
    <tag k="highway" v="service"/>
  </way>
  <way id="46931679" version="3" timestamp="2009-12-24T19:59:20Z" uid="59758" user="rendle" changeset="3444750"/>
  <way id="46931767" version="8" timestamp="2011-04-20T07:30:41Z" uid="115477" user="wowik" changeset="7913535">
    <nd ref="599038523"/>
    <nd ref="599038524"/>
    <nd ref="599038525"/>
    <nd ref="599038526"/>
    <nd ref="599038523"/>
    <tag k="addr:city" v="Москва"/>
    <tag k="addr:country" v="RU"/>
    <tag k="addr:housenumber" v="2/1 с2"/>
    <tag k="addr:housenumber2" v="1/2 с2"/>
    <tag k="addr:street" v="Баррикадная улица"/>
    <tag k="addr:street2" v="Садовая-Кудринская улица"/>
    <tag k="building" v="yes"/>
    <tag k="cladr:code" v="77000000000081100"/>
    <tag k="name" v="РМАПО (мед. академия последипл. образования)"/>
    <tag k="official_name" v="Российская Медицинская Академия Последипломного Образования"/>
    <tag k="url" v="http://www.rmapo.ru/"/>
  </way>
  <way id="46931767" version="9" timestamp="2011-09-13T10:31:03Z" uid="29320" user="Komяpa" changeset="9288237">
    <nd ref="599038523"/>
    <nd ref="599038524"/>
    <nd ref="599038525"/>
    <nd ref="599038526"/>
    <nd ref="599038523"/>
    <tag k="addr:city" v="Москва"/>
    <tag k="addr:country" v="RU"/>
    <tag k="addr:housenumber" v="2/1 с2"/>
    <tag k="addr:housenumber2" v="1/2 с2"/>
    <tag k="addr:street" v="Баррикадная улица"/>
    <tag k="addr:street2" v="Садовая-Кудринская улица"/>
    <tag k="building" v="yes"/>
    <tag k="cladr:code" v="77000000000081100"/>
    <tag k="name" v="РМАПО (мед. академия последипл. образования)"/>
    <tag k="official_name" v="Российская Медицинская Академия Последипломного Образования"/>
    <tag k="website" v="http://www.rmapo.ru/"/>
  </way>
  <way id="46931798" version="4" timestamp="2011-04-20T11:19:30Z" uid="115477" user="wowik" changeset="7915253">
    <nd ref="599038793"/>
    <nd ref="599038794"/>
    <nd ref="599038795"/>
    <nd ref="599038796"/>
    <nd ref="599038793"/>
    <tag k="addr:city" v="Москва"/>
    <tag k="addr:country" v="RU"/>
    <tag k="addr:housenumber" v="18"/>
    <tag k="addr:street" v="Малая Никитская улица"/>
    <tag k="building" v="yes"/>
    <tag k="cladr:code" v="77000000000712100"/>
  </way>
  <way id="46931798" version="5" timestamp="2011-09-27T14:34:21Z" uid="528467" user="Alexey Podkova" changeset="9411120">
    <nd ref="599038793"/>
    <nd ref="599038794"/>
    <nd ref="1447032676"/>
    <nd ref="1447032684"/>
    <nd ref="1447032678"/>
    <nd ref="1447032674"/>
    <nd ref="1447032667"/>
    <nd ref="1447032672"/>
    <nd ref="599038795"/>
    <nd ref="599038796"/>
    <nd ref="599038793"/>
    <tag k="addr:city" v="Москва"/>
    <tag k="addr:country" v="RU"/>
    <tag k="addr:housenumber" v="18"/>
    <tag k="addr:street" v="Малая Никитская улица"/>
    <tag k="building" v="yes"/>
    <tag k="cladr:code" v="77000000000712100"/>
  </way>
  <way id="46931799" version="6" timestamp="2011-04-20T07:31:07Z" uid="115477" user="wowik" changeset="7913535">
    <nd ref="599038842"/>
    <nd ref="599038845"/>
    <nd ref="599038846"/>
    <nd ref="599038848"/>
    <nd ref="820794120"/>
    <nd ref="820793920"/>
    <nd ref="599038842"/>
    <tag k="addr:city" v="Москва"/>
    <tag k="addr:country" v="RU"/>
    <tag k="addr:housenumber" v="21"/>
    <tag k="addr:street" v="Малая Никитская улица"/>
    <tag k="building" v="yes"/>
    <tag k="cladr:code" v="77000000000712100"/>
  </way>
  <way id="46931799" version="7" timestamp="2011-08-31T05:58:36Z" uid="433361" user="Dima M" changeset="9173308">
    <nd ref="599038842"/>
    <nd ref="599038845"/>
    <nd ref="599038846"/>
    <nd ref="599038848"/>
    <nd ref="820794120"/>
    <nd ref="820793920"/>
    <nd ref="599038842"/>
    <tag k="addr:city" v="Москва"/>
    <tag k="addr:country" v="RU"/>
    <tag k="addr:housenumber" v="50/8 с2"/>
    <tag k="addr:street" v="Малая Никитская улица"/>
    <tag k="building" v="yes"/>
    <tag k="cladr:code" v="77000000000712100"/>
  </way>
  <way id="46931853" version="2" timestamp="2009-12-31T09:12:36Z" uid="58091" user="Andreas M" changeset="3498457">
    <nd ref="599039625"/>
    <nd ref="599039618"/>
    <tag k="highway" v="footway"/>
  </way>
  <way id="46931853" version="3" timestamp="2010-04-07T19:08:51Z" uid="23292" user="Marko Knöbl" changeset="4357837"/>
</osm>
