<?xml version='1.0' encoding='UTF-8'?>
<osm version="0.6" generator="libosmium/2.20.0">
  <way id="46932068" version="4" timestamp="2011-04-20T11:18:07Z" uid="115477" user="wowik" changeset="7915124">
    <nd ref="599042755"/>
    <nd ref="599042759"/>
    <nd ref="599042762"/>
    <nd ref="599042768"/>
    <nd ref="599042772"/>
    <nd ref="599042777"/>
    <nd ref="599042755"/>
    <tag k="addr:city" v="Москва"/>
    <tag k="addr:country" v="RU"/>
    <tag k="addr:housenumber" v="19"/>
    <tag k="addr:street" v="Малая Никитская улица"/>
    <tag k="building" v="yes"/>
    <tag k="cladr:code" v="77000000000712100"/>
  </way>
  <way id="46932068" version="5" timestamp="2011-08-31T05:58:36Z" uid="433361" user="Dima M" changeset="9173308">
    <nd ref="599042755"/>
    <nd ref="599042759"/>
    <nd ref="599042762"/>
    <nd ref="599042768"/>
    <nd ref="599042772"/>
    <nd ref="599042777"/>
    <nd ref="599042755"/>
    <tag k="addr:city" v="Москва"/>
    <tag k="addr:country" v="RU"/>
    <tag k="addr:housenumber" v="19 с1"/>
    <tag k="addr:street" v="Малая Никитская улица"/>
    <tag k="building" v="yes"/>
    <tag k="cladr:code" v="77000000000712100"/>
  </way>
  <way id="46932084" version="5" timestamp="2011-04-20T11:17:52Z" uid="115477" user="wowik" changeset="7915124">
    <nd ref="599042950"/>
    <nd ref="599042951"/>
    <nd ref="599042952"/>
    <nd ref="599042953"/>
    <nd ref="599042954"/>
    <nd ref="599042955"/>
    <nd ref="599042956"/>
    <nd ref="599042957"/>
    <nd ref="599042950"/>
    <tag k="addr:city" v="Москва"/>
    <tag k="addr:country" v="RU"/>
    <tag k="addr:housenumber" v="20 с1"/>
    <tag k="addr:street" v="Малая Никитская улица"/>
    <tag k="building" v="yes"/>
    <tag k="cladr:code" v="77000000000712100"/>
  </way>
  <way id="46932101" version="4" timestamp="2011-04-20T11:19:29Z" uid="115477" user="wowik" changeset="7915253">
    <nd ref="599043116"/>
    <nd ref="599043117"/>
    <nd ref="599043118"/>
    <nd ref="599043119"/>
    <nd ref="599043116"/>
    <tag k="addr:city" v="Москва"/>
    <tag k="addr:country" v="RU"/>
    <tag k="addr:housenumber" v="23"/>
    <tag k="addr:street" v="Малая Никитская улица"/>
    <tag k="building" v="yes"/>
    <tag k="cladr:code" v="77000000000712100"/>
  </way>
  <way id="46932109" version="4" timestamp="2011-04-20T11:18:14Z" uid="115477" user="wowik" changeset="7915124">
    <nd ref="599043390"/>
    <nd ref="599043391"/>
    <nd ref="599043392"/>
    <nd ref="599043393"/>
    <nd ref="599043390"/>
    <tag k="addr:city" v="Москва"/>
    <tag k="addr:country" v="RU"/>
    <tag k="addr:housenumber" v="25"/>
    <tag k="addr:street" v="Малая Никитская улица"/>
    <tag k="building" v="yes"/>
    <tag k="cladr:code" v="77000000000712100"/>
  </way>
  <way id="46932114" version="4" timestamp="2011-04-20T07:30:54Z" uid="115477" user="wowik" changeset="7913535">
    <nd ref="599043445"/>
    <nd ref="599043446"/>
    <nd ref="599043448"/>
    <nd ref="599043451"/>
    <nd ref="599043445"/>
    <tag k="addr:city" v="Москва"/>
    <tag k="addr:country" v="RU"/>
    <tag k="addr:housenumber" v="7"/>
    <tag k="addr:street" v="Скарятинский переулок"/>
    <tag k="building" v="yes"/>
    <tag k="cladr:code" v="77000000000715400"/>
  </way>
  <way id="46932114" version="5" timestamp="2011-09-27T14:34:26Z" uid="528467" user="Alexey Podkova" changeset="9411120">
    <nd ref="599043446"/>
    <nd ref="599043448"/>
    <nd ref="599043119"/>
    <nd ref="599043116"/>
    <nd ref="599043446"/>
    <tag k="addr:city" v="Москва"/>
    <tag k="addr:country" v="RU"/>
    <tag k="addr:housenumber" v="7"/>
    <tag k="addr:street" v="Скарятинский переулок"/>
    <tag k="building" v="yes"/>
    <tag k="cladr:code" v="77000000000715400"/>
  </way>
  <way id="46932126" version="6" timestamp="2011-04-20T11:18:12Z" uid="115477" user="wowik" changeset="7915124">
    <nd ref="599043632"/>
    <nd ref="599043633"/>
    <nd ref="599043634"/>
    <nd ref="599043635"/>
    <nd ref="715786866"/>
    <nd ref="715786774"/>
    <nd ref="599043632"/>
    <tag k="addr:city" v="Москва"/>
    <tag k="addr:country" v="RU"/>
    <tag k="addr:housenumber" v="20 с2"/>
    <tag k="addr:street" v="Малая Никитская улица"/>
    <tag k="building" v="yes"/>
    <tag k="cladr:code" v="77000000000712100"/>
  </way>
  <way id="46932133" version="6" timestamp="2011-04-05T08:23:22Z" uid="115477" user="wowik" changeset="7772261">
    <nd ref="599043698"/>
    <nd ref="599043699"/>
    <nd ref="599043700"/>
    <nd ref="599043701"/>
    <nd ref="599043698"/>
    <tag k="addr:housenumber" v="14 с1"/>
    <tag k="addr:street" v="Малая Никитская улица"/>
    <tag k="building" v="yes"/>
  </way>
  <way id="46932133" version="7" timestamp="2011-04-20T07:30:52Z" uid="115477" user="wowik" changeset="7913535">
    <nd ref="599043698"/>
    <nd ref="599043699"/>
    <nd ref="599043700"/>
    <nd ref="599043701"/>
    <nd ref="599043698"/>
    <tag k="addr:city" v="Москва"/>
    <tag k="addr:country" v="RU"/>
    <tag k="addr:housenumber" v="14 с1"/>
    <tag k="addr:street" v="Малая Никитская улица"/>
    <tag k="building" v="yes"/>
  </way>
  <way id="46932141" version="4" timestamp="2011-04-05T08:23:20Z" uid="115477" user="wowik" changeset="7772261">
    <nd ref="599043725"/>
    <nd ref="599043726"/>
    <nd ref="599043727"/>
    <nd ref="1233383401"/>
    <nd ref="599043728"/>
    <nd ref="599043725"/>
    <tag k="addr:housenumber" v="12 с2"/>
    <tag k="addr:street" v="Малая Никитская улица"/>
    <tag k="building" v="yes"/>
  </way>
  <way id="46932141" version="5" timestamp="2011-04-20T11:18:37Z" uid="115477" user="wowik" changeset="7915124">
    <nd ref="599043725"/>
    <nd ref="599043726"/>
    <nd ref="599043727"/>
    <nd ref="1233383401"/>
    <nd ref="599043728"/>
    <nd ref="599043725"/>
    <tag k="addr:city" v="Москва"/>
    <tag k="addr:country" v="RU"/>
    <tag k="addr:housenumber" v="12 с2"/>
    <tag k="addr:street" v="Малая Никитская улица"/>
    <tag k="building" v="yes"/>
  </way>
  <way id="46932142" version="5" timestamp="2011-04-20T11:18:46Z" uid="115477" user="wowik" changeset="7915124">
    <nd ref="599043729"/>
    <nd ref="599043730"/>
    <nd ref="599043731"/>
    <nd ref="599043732"/>
    <nd ref="599043729"/>
    <tag k="addr:city" v="Москва"/>
    <tag k="addr:country" v="RU"/>
    <tag k="addr:housenumber" v="13 с4"/>
    <tag k="addr:street" v="Малая Никитская улица"/>
    <tag k="building" v="yes"/>
    <tag k="cladr:code" v="77000000000712100"/>
  </way>
  <way id="46932144" version="5" timestamp="2011-04-05T08:23:24Z" uid="115477" user="wowik" changeset="7772261">
    <nd ref="599043734"/>
    <nd ref="599043735"/>
    <nd ref="820793551"/>
    <nd ref="820793555"/>
    <nd ref="599043736"/>
    <nd ref="599043737"/>
    <nd ref="599043734"/>
    <tag k="addr:housenumber" v="13"/>
    <tag k="addr:street" v="Малая Никитская улица"/>
    <tag k="amenity" v="embassy"/>
    <tag k="building" v="yes"/>
    <tag k="country" v="NG"/>
    <tag k="name" v="посольство Нигерии"/>
    <tag k="name:en" v="Embassy of Nigeria"/>
  </way>
  <way id="46932144" version="6" timestamp="2011-04-20T11:19:31Z" uid="115477" user="wowik" changeset="7915253">
    <nd ref="599043734"/>
    <nd ref="599043735"/>
    <nd ref="820793551"/>
    <nd ref="820793555"/>
    <nd ref="599043736"/>
    <nd ref="599043737"/>
    <nd ref="599043734"/>
    <tag k="addr:city" v="Москва"/>
    <tag k="addr:country" v="RU"/>
    <tag k="addr:housenumber" v="13"/>
    <tag k="addr:street" v="Малая Никитская улица"/>
    <tag k="amenity" v="embassy"/>
    <tag k="building" v="yes"/>
    <tag k="country" v="NG"/>
    <tag k="name" v="посольство Нигерии"/>
    <tag k="name:en" v="Embassy of Nigeria"/>
  </way>
  <way id="46932145" version="6" timestamp="2011-04-20T07:31:07Z" uid="115477" user="wowik" changeset="7913535">
    <nd ref="599043838"/>
    <nd ref="820794045"/>
    <nd ref="820793929"/>
    <nd ref="820794123"/>
    <nd ref="820793423"/>
    <nd ref="599043842"/>
    <nd ref="599043843"/>
    <nd ref="599043844"/>
    <nd ref="599043845"/>
    <nd ref="599043847"/>
    <nd ref="599043838"/>
    <tag k="addr:city" v="Москва"/>
    <tag k="addr:country" v="RU"/>
    <tag k="addr:housenumber" v="13 с1"/>
    <tag k="addr:street" v="Малая Никитская улица"/>
    <tag k="building" v="yes"/>
    <tag k="cladr:code" v="77000000000712100"/>
  </way>
  <way id="46932280" version="6" timestamp="2011-04-20T07:31:09Z" uid="115477" user="wowik" changeset="7913535">
    <nd ref="599044890"/>
    <nd ref="599044891"/>
    <nd ref="599044892"/>
    <nd ref="599044893"/>
    <nd ref="599044894"/>
    <nd ref="599044895"/>
    <nd ref="820793875"/>
    <nd ref="820793957"/>
    <nd ref="820793534"/>
    <nd ref="820794106"/>
    <nd ref="820793303"/>
    <nd ref="820793394"/>
    <nd ref="599044896"/>
    <nd ref="820793945"/>
    <nd ref="820794029"/>
    <nd ref="820793600"/>
    <nd ref="820794132"/>
    <nd ref="599044897"/>
    <nd ref="599044890"/>
    <tag k="addr:city" v="Москва"/>
    <tag k="addr:country" v="RU"/>
    <tag k="addr:housenumber" v="37"/>
    <tag k="addr:street" v="Большая Никитская улица"/>
    <tag k="amenity" v="bank"/>
    <tag k="building" v="yes"/>
    <tag k="cladr:code" v="77000000000711100"/>
    <tag k="name" v="ВТБ 24 Банк"/>
  </way>
  <way id="46932317" version="6" timestamp="2011-04-05T08:28:41Z" uid="115477" user="wowik" changeset="7772261">
    <nd ref="599045184"/>
    <nd ref="599045185"/>
    <nd ref="599045186"/>
    <nd ref="599045187"/>
    <nd ref="715786745"/>
    <nd ref="359704910"/>
    <nd ref="359704911"/>
    <nd ref="599045188"/>
    <nd ref="715786903"/>
    <nd ref="599045190"/>
    <nd ref="599045184"/>
    <tag k="addr:housenumber" v="2/1 с1"/>
    <tag k="addr:street" v="Малая Никитская улица"/>
    <tag k="building" v="yes"/>
  </way>
  <way id="46932317" version="7" timestamp="2011-04-20T11:18:25Z" uid="115477" user="wowik" changeset="7915124">
    <nd ref="599045184"/>
    <nd ref="599045185"/>
    <nd ref="599045186"/>
    <nd ref="599045187"/>
    <nd ref="715786745"/>
    <nd ref="359704910"/>
    <nd ref="359704911"/>
    <nd ref="599045188"/>
    <nd ref="715786903"/>
    <nd ref="599045190"/>
    <nd ref="599045184"/>
    <tag k="addr:city" v="Москва"/>
    <tag k="addr:country" v="RU"/>
    <tag k="addr:housenumber" v="2/1 с1"/>
    <tag k="addr:street" v="Малая Никитская улица"/>
    <tag k="building" v="yes"/>
  </way>
  <way id="46932326" version="6" timestamp="2011-04-05T08:28:41Z" uid="115477" user="wowik" changeset="7772261">
    <nd ref="599045258"/>
    <nd ref="599045259"/>
    <nd ref="599045184"/>
    <nd ref="599045185"/>
    <nd ref="599045258"/>
    <tag k="addr:housenumber" v="4 с1"/>
    <tag k="addr:street" v="Малая Никитская улица"/>
    <tag k="building" v="yes"/>
  </way>
  <way id="46932326" version="7" timestamp="2011-04-20T11:18:01Z" uid="115477" user="wowik" changeset="7915124">
    <nd ref="599045258"/>
    <nd ref="599045259"/>
    <nd ref="599045184"/>
    <nd ref="599045185"/>
    <nd ref="599045258"/>
    <tag k="addr:city" v="Москва"/>
    <tag k="addr:country" v="RU"/>
    <tag k="addr:housenumber" v="4 с1"/>
    <tag k="addr:street" v="Малая Никитская улица"/>
    <tag k="building" v="yes"/>
  </way>
  <way id="46932330" version="7" timestamp="2011-04-20T07:30:58Z" uid="115477" user="wowik" changeset="7913535">
    <nd ref="599045270"/>
    <nd ref="715786787"/>
    <nd ref="715786832"/>
    <nd ref="599045271"/>
    <nd ref="715786731"/>
    <nd ref="715786768"/>
    <nd ref="715786951"/>
    <nd ref="599045272"/>
    <nd ref="715786851"/>
    <nd ref="715786814"/>
    <nd ref="715786918"/>
    <nd ref="715786716"/>
    <nd ref="715786862"/>
    <nd ref="599045273"/>
    <nd ref="599045270"/>
    <tag k="addr:city" v="Москва"/>
    <tag k="addr:country" v="RU"/>
    <tag k="addr:housenumber" v="6/2 с5"/>
    <tag k="addr:street" v="Малая Никитская улица"/>
    <tag k="building" v="yes"/>
    <tag k="cladr:code" v="77000000000712100"/>
    <tag k="name:en" v="Gorky Museum"/>
    <tag k="tourism" v="museum"/>
  </way>
  <way id="46932394" version="1" timestamp="2009-12-24T19:53:51Z" uid="59758" user="rendle" changeset="3444750">
    <nd ref="599028610"/>
    <nd ref="599028217"/>
    <nd ref="460382726"/>
    <tag k="highway" v="residential"/>
  </way>
  <way id="46932394" version="2" timestamp="2009-12-24T19:59:39Z" uid="59758" user="rendle" changeset="3444750">
    <nd ref="307368344"/>
    <nd ref="307368345"/>
    <nd ref="307368346"/>
    <nd ref="599028599"/>
    <nd ref="460382725"/>
    <nd ref="599028610"/>
    <nd ref="599028217"/>
    <nd ref="460382726"/>
    <tag k="highway" v="residential"/>
  </way>
  <way id="46932394" version="3" timestamp="2009-12-24T23:30:02Z" uid="59758" user="rendle" changeset="3445495">
    <nd ref="307368344"/>
    <nd ref="307368345"/>
    <nd ref="307368346"/>
    <nd ref="599028599"/>
    <nd ref="460382725"/>
    <nd ref="599028610"/>
    <tag k="highway" v="residential"/>
  </way>
  <way id="46932394" version="4" timestamp="2010-08-21T10:24:41Z" uid="99375" user="0709" changeset="5550660"/>
  <way id="46932456" version="1" timestamp="2009-12-24T19:58:55Z" uid="59758" user="rendle" changeset="3444750">
    <nd ref="599029910"/>
    <nd ref="599029906"/>
    <nd ref="599029771"/>
    <nd ref="599029658"/>
    <nd ref="599029620"/>
    <nd ref="599029612"/>
    <nd ref="599029507"/>
    <nd ref="599029505"/>
    <nd ref="599028601"/>
    <nd ref="599028602"/>
    <nd ref="599028603"/>
    <nd ref="599028604"/>
    <nd ref="599028605"/>
    <nd ref="599028606"/>
    <nd ref="599028608"/>
    <nd ref="599028610"/>
    <tag k="highway" v="service"/>
  </way>
  <way id="46932456" version="2" timestamp="2009-12-24T19:59:20Z" uid="59758" user="rendle" changeset="3444750">
    <nd ref="599028600"/>
    <nd ref="599029910"/>
    <nd ref="599029906"/>
    <nd ref="599029771"/>
    <nd ref="599029658"/>
    <nd ref="599029620"/>
    <nd ref="599029612"/>
    <nd ref="599029507"/>
    <nd ref="599029505"/>
    <nd ref="599028601"/>
    <nd ref="599028602"/>
    <nd ref="599028603"/>
    <nd ref="599028604"/>
    <nd ref="599028605"/>
    <nd ref="599028606"/>
    <nd ref="599028608"/>
    <nd ref="599028610"/>
    <tag k="highway" v="service"/>
  </way>
  <way id="46932456" version="3" timestamp="2009-12-24T23:34:59Z" uid="59758" user="rendle" changeset="3445561">
    <nd ref="599028600"/>
    <nd ref="599029910"/>
    <tag k="highway" v="service"/>
  </way>
  <way id="46932456" version="4" timestamp="2012-01-12T15:35:35Z" uid="138772" user="lodde1949" changeset="10370380"/>
  <way id="46932508" version="1" timestamp="2009-12-24T19:59:50Z" uid="59758" user="rendle" changeset="3444750">
    <nd ref="599029505"/>
    <nd ref="599028601"/>
    <nd ref="599028602"/>
    <nd ref="599028603"/>
    <nd ref="599028604"/>
    <nd ref="599028605"/>
    <nd ref="599028606"/>
    <nd ref="599028608"/>
    <nd ref="599028610"/>
    <tag k="highway" v="service"/>
  </way>
  <way id="46932548" version="1" timestamp="2009-12-24T20:00:45Z" uid="59758" user="rendle" changeset="3444750">
    <nd ref="599029507"/>
    <nd ref="599029505"/>
    <tag k="highway" v="service"/>
  </way>
  <way id="46932548" version="2" timestamp="2012-01-12T15:35:34Z" uid="138772" user="lodde1949" changeset="10370380"/>
  <way id="46932558" version="1" timestamp="2009-12-24T20:01:19Z" uid="59758" user="rendle" changeset="3444750">
    <nd ref="599029612"/>
    <nd ref="599029507"/>
    <tag k="highway" v="service"/>
  </way>
  <way id="46932560" version="1" timestamp="2009-12-24T20:01:48Z" uid="59758" user="rendle" changeset="3444750">
    <nd ref="599029620"/>
    <nd ref="599029612"/>
    <tag k="highway" v="service"/>
  </way>
  <way id="46932560" version="2" timestamp="2012-01-12T15:35:35Z" uid="138772" user="lodde1949" changeset="10370380"/>
  <way id="46932561" version="1" timestamp="2009-12-24T20:01:55Z" uid="59758" user="rendle" changeset="3444750">
    <nd ref="599029658"/>
    <nd ref="599029620"/>
    <tag k="highway" v="service"/>
  </way>
  <way id="46932561" version="2" timestamp="2012-01-12T15:35:34Z" uid="138772" user="lodde1949" changeset="10370380"/>
  <way id="46932562" version="1" timestamp="2009-12-24T20:02:17Z" uid="59758" user="rendle" changeset="3444750">
    <nd ref="599029771"/>
    <nd ref="599029658"/>
    <tag k="highway" v="service"/>
  </way>
  <way id="46932562" version="2" timestamp="2012-01-12T15:35:34Z" uid="138772" user="lodde1949" changeset="10370380"/>
  <way id="46932564" version="1" timestamp="2009-12-24T20:02:26Z" uid="59758" user="rendle" changeset="3444750">
    <nd ref="599029910"/>
    <nd ref="599029906"/>
    <nd ref="599029771"/>
    <tag k="highway" v="service"/>
  </way>
</osm>
