<?xml version='1.0' encoding='UTF-8'?>
<osm version="0.6" generator="libosmium/2.20.0">
  <way id="47115383" version="2" timestamp="2010-11-02T18:37:26Z" uid="30632" user="antblant" changeset="6270177">
    <nd ref="600699790"/>
    <nd ref="600700590"/>
    <nd ref="600700592"/>
    <nd ref="600700622"/>
    <nd ref="600700624"/>
    <nd ref="600700690"/>
    <nd ref="600700691"/>
    <nd ref="600700686"/>
    <tag k="highway" v="primary"/>
    <tag k="name" v="Olsztyńska"/>
    <tag k="ref" v="58;63"/>
    <tag k="source" v="http://ump.waw.pl/ retrieved 10:45:09 12/08/09 (UMP-Suwalki/src/PISZ.ulice.txt)"/>
  </way>
  <way id="47115383" version="3" timestamp="2011-07-17T23:54:26Z" uid="100448" user="kietlak" changeset="8753655">
    <nd ref="600699790"/>
    <nd ref="600700590"/>
    <nd ref="600700592"/>
    <nd ref="600700622"/>
    <nd ref="600700690"/>
    <nd ref="600700691"/>
    <nd ref="600700686"/>
    <tag k="highway" v="primary"/>
    <tag k="name" v="Olsztyńska"/>
    <tag k="ref" v="58;63"/>
    <tag k="source" v="http://ump.waw.pl/ retrieved 10:45:09 12/08/09 (UMP-Suwalki/src/PISZ.ulice.txt)"/>
  </way>
  <way id="47115383" version="4" timestamp="2012-03-10T16:07:45Z" uid="39504" user="malenki" changeset="10933500">
    <nd ref="35224362"/>
    <nd ref="600700590"/>
    <nd ref="600700592"/>
    <nd ref="600700622"/>
    <nd ref="600700690"/>
    <nd ref="600700691"/>
    <nd ref="600700686"/>
    <tag k="highway" v="primary"/>
    <tag k="name" v="Olsztyńska"/>
    <tag k="ref" v="58;63"/>
    <tag k="source" v="http://ump.waw.pl/ retrieved 10:45:09 12/08/09 (UMP-Suwalki/src/PISZ.ulice.txt)"/>
  </way>
  <way id="47115387" version="2" timestamp="2010-01-16T14:05:31Z" uid="58091" user="Andreas M" changeset="3631788"/>
  <way id="47115506" version="2" timestamp="2010-11-02T18:37:25Z" uid="30632" user="antblant" changeset="6270177">
    <nd ref="600700531"/>
    <nd ref="600700605"/>
    <nd ref="600700607"/>
    <nd ref="600700609"/>
    <nd ref="600700612"/>
    <nd ref="600700594"/>
    <tag k="highway" v="primary"/>
    <tag k="name" v="Grunwaldzka"/>
    <tag k="oneway" v="1"/>
    <tag k="ref" v="58;63"/>
    <tag k="source" v="http://ump.waw.pl/ retrieved 10:45:09 12/08/09 (UMP-Suwalki/src/PISZ.ulice.txt)"/>
  </way>
  <way id="47115507" version="4" timestamp="2010-11-02T18:37:26Z" uid="30632" user="antblant" changeset="6270177">
    <nd ref="600713258"/>
    <nd ref="600700481"/>
    <nd ref="600700533"/>
    <tag k="highway" v="primary"/>
    <tag k="name" v="Tadeusza Kościuszki"/>
    <tag k="oneway" v="1"/>
    <tag k="ref" v="58;63"/>
    <tag k="source" v="http://ump.waw.pl/ retrieved 10:45:09 12/08/09 (UMP-Suwalki/src/PISZ.ulice.txt)"/>
  </way>
  <way id="47115538" version="2" timestamp="2010-11-02T18:37:26Z" uid="30632" user="antblant" changeset="6270177">
    <nd ref="600700686"/>
    <nd ref="600700688"/>
    <nd ref="600700651"/>
    <nd ref="600700655"/>
    <nd ref="600700657"/>
    <nd ref="600700594"/>
    <tag k="highway" v="primary"/>
    <tag k="name" v="Grunwaldzka"/>
    <tag k="ref" v="58;63"/>
    <tag k="source" v="http://ump.waw.pl/ retrieved 10:45:09 12/08/09 (UMP-Suwalki/src/PISZ.ulice.txt)"/>
  </way>
  <way id="47115539" version="3" timestamp="2010-11-02T18:37:27Z" uid="30632" user="antblant" changeset="6270177">
    <nd ref="600700594"/>
    <nd ref="600700596"/>
    <nd ref="600700598"/>
    <nd ref="600700600"/>
    <nd ref="600713258"/>
    <tag k="highway" v="primary"/>
    <tag k="name" v="Grunwaldzka"/>
    <tag k="oneway" v="1"/>
    <tag k="ref" v="58;63"/>
    <tag k="source" v="http://ump.waw.pl/ retrieved 10:45:09 12/08/09 (UMP-Suwalki/src/PISZ.ulice.txt)"/>
  </way>
  <way id="47115692" version="2" timestamp="2010-03-18T20:27:52Z" uid="30632" user="antblant" changeset="4164847">
    <nd ref="600722063"/>
    <nd ref="600722057"/>
    <tag k="bridge" v="yes"/>
    <tag k="highway" v="residential"/>
    <tag k="layer" v="1"/>
    <tag k="source" v="UMP-PL, ./UMP-Suwalki/src/inne.ulice.txt"/>
  </way>
  <way id="47115693" version="2" timestamp="2010-03-18T20:27:52Z" uid="30632" user="antblant" changeset="4164847">
    <nd ref="600722057"/>
    <nd ref="252876674"/>
    <nd ref="252876675"/>
    <nd ref="252876620"/>
    <nd ref="252876619"/>
    <nd ref="252876622"/>
    <nd ref="252876621"/>
    <nd ref="252876616"/>
    <nd ref="252876608"/>
    <nd ref="252876618"/>
    <tag k="highway" v="residential"/>
    <tag k="source" v="UMP-PL, ./UMP-Suwalki/src/inne.ulice.txt"/>
  </way>
</osm>
