<?xml version='1.0' encoding='UTF-8'?>
<osm version="0.6" generator="libosmium/2.20.0">
  <way id="47127856" version="2" timestamp="2010-06-05T17:25:52Z" uid="171838" user="argrath" changeset="4910657">
    <nd ref="600889968"/>
    <nd ref="600889960"/>
    <nd ref="600889969"/>
    <nd ref="600889970"/>
    <nd ref="600889968"/>
    <tag k="building" v="yes"/>
    <tag k="name" v="ラジオ会館"/>
    <tag k="shop" v="mall"/>
  </way>
  <way id="47127856" version="3" timestamp="2010-12-19T14:18:58Z" uid="162590" user="higa4" changeset="6705197">
    <nd ref="600889968"/>
    <nd ref="600889960"/>
    <nd ref="600889969"/>
    <nd ref="600889970"/>
    <nd ref="600889968"/>
    <tag k="building" v="yes"/>
    <tag k="name" v="ラジオ会館 (Radio Kaikan)"/>
    <tag k="shop" v="mall"/>
  </way>
  <way id="47127856" version="4" timestamp="2010-12-21T12:16:46Z" uid="162590" user="higa4" changeset="6724634">
    <nd ref="600889968"/>
    <nd ref="600889960"/>
    <nd ref="600889969"/>
    <nd ref="600889970"/>
    <nd ref="600889968"/>
    <tag k="building" v="commercial"/>
    <tag k="name" v="ラジオ会館 (Radio Kaikan)"/>
    <tag k="shop" v="mall"/>
  </way>
  <way id="47127856" version="5" timestamp="2011-12-28T11:10:58Z" uid="378532" user="nyampire" changeset="10224477">
    <nd ref="600889968"/>
    <nd ref="600889960"/>
    <nd ref="600889969"/>
    <nd ref="600889970"/>
    <nd ref="600889968"/>
    <tag k="building" v="commercial"/>
    <tag k="landuse" v="construction"/>
    <tag k="name" v="ラジオ会館 (Radio Kaikan)"/>
    <tag k="shop" v="mall"/>
  </way>
</osm>
