<?xml version='1.0' encoding='UTF-8'?>
<osm version="0.6" generator="libosmium/2.20.0">
  <way id="47294324" version="4" timestamp="2011-04-20T11:18:55Z" uid="115477" user="wowik" changeset="7915124">
    <nd ref="602506798"/>
    <nd ref="602506799"/>
    <nd ref="602506800"/>
    <nd ref="602506801"/>
    <nd ref="602506802"/>
    <nd ref="602506803"/>
    <nd ref="602506804"/>
    <nd ref="602506805"/>
    <nd ref="602506798"/>
    <tag k="addr:city" v="Москва"/>
    <tag k="addr:country" v="RU"/>
    <tag k="addr:street" v="Поварская улица"/>
    <tag k="building" v="yes"/>
    <tag k="cladr:code" v="77000000000701300"/>
  </way>
  <way id="47294368" version="9" timestamp="2011-04-20T11:18:25Z" uid="115477" user="wowik" changeset="7915124">
    <nd ref="602507087"/>
    <nd ref="602507088"/>
    <nd ref="602507089"/>
    <nd ref="602507090"/>
    <nd ref="602507091"/>
    <nd ref="602507092"/>
    <nd ref="602507087"/>
    <tag k="addr:city" v="Москва"/>
    <tag k="addr:country" v="RU"/>
    <tag k="addr:housenumber" v="7"/>
    <tag k="addr:street" v="Поварская улица"/>
    <tag k="amenity" v="embassy"/>
    <tag k="building" v="yes"/>
    <tag k="cladr:code" v="77000000000701300"/>
    <tag k="country" v="NO"/>
    <tag k="name" v="Посольство Норвегии"/>
    <tag k="name:en" v="embassy of Norway"/>
    <tag k="name:ru" v="Посольство Норвегии"/>
    <tag k="official_name" v="Посольство Королевства Норвегии"/>
  </way>
  <way id="47294387" version="6" timestamp="2011-04-20T07:30:57Z" uid="115477" user="wowik" changeset="7913535">
    <nd ref="602507147"/>
    <nd ref="602507148"/>
    <nd ref="602507149"/>
    <nd ref="602507150"/>
    <nd ref="602507151"/>
    <nd ref="602507152"/>
    <nd ref="602507153"/>
    <nd ref="602507154"/>
    <nd ref="602507147"/>
    <tag k="addr:city" v="Москва"/>
    <tag k="addr:country" v="RU"/>
    <tag k="addr:housenumber" v="5 с1"/>
    <tag k="addr:street" v="Поварская улица"/>
    <tag k="building" v="yes"/>
    <tag k="cladr:code" v="77000000000701300"/>
  </way>
  <way id="47294387" version="7" timestamp="2011-09-15T06:11:11Z" uid="481934" user="iWowik" changeset="9305022">
    <nd ref="602507147"/>
    <nd ref="1433204633"/>
    <nd ref="1433204634"/>
    <nd ref="1433204636"/>
    <nd ref="1433204635"/>
    <nd ref="602507148"/>
    <nd ref="602507149"/>
    <nd ref="602507150"/>
    <nd ref="602507151"/>
    <nd ref="602507152"/>
    <nd ref="1433204630"/>
    <nd ref="602507153"/>
    <nd ref="1433204632"/>
    <nd ref="1433204631"/>
    <nd ref="602507154"/>
    <nd ref="602507147"/>
    <tag k="addr:city" v="Москва"/>
    <tag k="addr:country" v="RU"/>
    <tag k="addr:housenumber" v="5 с1"/>
    <tag k="addr:street" v="Поварская улица"/>
    <tag k="amenity" v="place_of_worship"/>
    <tag k="building" v="yes"/>
    <tag k="cladr:code" v="77000000000701300"/>
    <tag k="denomination" v="orthodox"/>
    <tag k="name" v="Церковь преподобного Иоана Стопника"/>
    <tag k="religion" v="christian"/>
  </way>
  <way id="47294387" version="8" timestamp="2011-09-27T15:04:01Z" uid="526867" user="Rince" changeset="9411380">
    <nd ref="602507147"/>
    <nd ref="1433204633"/>
    <nd ref="1433204634"/>
    <nd ref="1433204636"/>
    <nd ref="1433204635"/>
    <nd ref="602507148"/>
    <nd ref="602507149"/>
    <nd ref="602507150"/>
    <nd ref="602507151"/>
    <nd ref="602507152"/>
    <nd ref="1433204630"/>
    <nd ref="602507153"/>
    <nd ref="1433204632"/>
    <nd ref="1433204631"/>
    <nd ref="602507154"/>
    <nd ref="602507147"/>
    <tag k="addr:city" v="Москва"/>
    <tag k="addr:country" v="RU"/>
    <tag k="addr:housenumber" v="5 с1"/>
    <tag k="addr:street" v="Поварская улица"/>
    <tag k="amenity" v="place_of_worship"/>
    <tag k="building" v="yes"/>
    <tag k="cladr:code" v="77000000000701300"/>
    <tag k="denomination" v="orthodox"/>
    <tag k="name" v="Церковь преподобного Симеона Столпника"/>
    <tag k="religion" v="christian"/>
  </way>
  <way id="47294387" version="9" timestamp="2011-12-12T08:50:24Z" uid="126304" user="TarzanASG" changeset="10096498">
    <nd ref="602507147"/>
    <nd ref="1433204633"/>
    <nd ref="1433204634"/>
    <nd ref="1433204636"/>
    <nd ref="1433204635"/>
    <nd ref="602507148"/>
    <nd ref="602507149"/>
    <nd ref="602507150"/>
    <nd ref="602507151"/>
    <nd ref="602507152"/>
    <nd ref="1433204630"/>
    <nd ref="602507153"/>
    <nd ref="1433204632"/>
    <nd ref="1433204631"/>
    <nd ref="602507154"/>
    <nd ref="602507147"/>
    <tag k="addr:city" v="Москва"/>
    <tag k="addr:country" v="RU"/>
    <tag k="addr:housenumber" v="5 с1"/>
    <tag k="addr:street" v="Поварская улица"/>
    <tag k="amenity" v="place_of_worship"/>
    <tag k="building" v="church"/>
    <tag k="cladr:code" v="77000000000701300"/>
    <tag k="denomination" v="orthodox"/>
    <tag k="name" v="Церковь преподобного Симеона Столпника"/>
    <tag k="religion" v="christian"/>
  </way>
  <way id="47294387" version="10" timestamp="2011-12-14T15:26:21Z" uid="143266" user="Sergey Astakhov" changeset="10116697">
    <nd ref="602507147"/>
    <nd ref="1433204633"/>
    <nd ref="1433204634"/>
    <nd ref="1433204636"/>
    <nd ref="1433204635"/>
    <nd ref="602507148"/>
    <nd ref="602507149"/>
    <nd ref="602507150"/>
    <nd ref="602507151"/>
    <nd ref="602507152"/>
    <nd ref="1433204630"/>
    <nd ref="602507153"/>
    <nd ref="1433204632"/>
    <nd ref="1433204631"/>
    <nd ref="602507154"/>
    <nd ref="602507147"/>
    <tag k="addr:city" v="Москва"/>
    <tag k="addr:country" v="RU"/>
    <tag k="addr:housenumber" v="5 с1"/>
    <tag k="addr:street" v="Поварская улица"/>
    <tag k="amenity" v="place_of_worship"/>
    <tag k="building" v="yes"/>
    <tag k="cladr:code" v="77000000000701300"/>
    <tag k="denomination" v="orthodox"/>
    <tag k="name" v="Церковь преподобного Симеона Столпника"/>
    <tag k="religion" v="christian"/>
  </way>
  <way id="47294427" version="6" timestamp="2011-04-20T11:19:24Z" uid="115477" user="wowik" changeset="7915253">
    <nd ref="602507493"/>
    <nd ref="602507494"/>
    <nd ref="715786712"/>
    <nd ref="602507495"/>
    <nd ref="602507496"/>
    <nd ref="602507497"/>
    <nd ref="602507498"/>
    <nd ref="602507493"/>
    <tag k="addr:city" v="Москва"/>
    <tag k="addr:country" v="RU"/>
    <tag k="addr:housenumber" v="18"/>
    <tag k="addr:postcode" v="121069"/>
    <tag k="addr:street" v="улица Большая Молчановка"/>
    <tag k="building" v="yes"/>
    <tag k="cladr:code" v="77000000000189500"/>
  </way>
  <way id="47294602" version="2" timestamp="2010-05-27T12:17:44Z" uid="20587" user="balrog-kun" changeset="4821472">
    <nd ref="301404896"/>
    <nd ref="602509009"/>
    <nd ref="602509010"/>
    <nd ref="750715580"/>
    <nd ref="602509012"/>
    <nd ref="750715631"/>
    <nd ref="602509014"/>
    <nd ref="602509015"/>
    <nd ref="602509016"/>
    <nd ref="602509017"/>
    <nd ref="602509018"/>
    <tag k="highway" v="footway"/>
  </way>
  <way id="47294602" version="3" timestamp="2010-06-05T02:01:27Z" uid="20587" user="balrog-kun" changeset="4905633">
    <nd ref="301404896"/>
    <nd ref="602509009"/>
    <nd ref="602509010"/>
    <nd ref="750715580"/>
    <nd ref="602509012"/>
    <nd ref="750715631"/>
    <nd ref="764747444"/>
    <nd ref="602509014"/>
    <nd ref="602509015"/>
    <nd ref="602509016"/>
    <nd ref="602509017"/>
    <nd ref="602509018"/>
    <tag k="highway" v="footway"/>
  </way>
  <way id="47294606" version="3" timestamp="2010-05-27T12:18:07Z" uid="20587" user="balrog-kun" changeset="4821472">
    <nd ref="602509021"/>
    <nd ref="602509020"/>
    <nd ref="750715839"/>
    <nd ref="602509085"/>
    <nd ref="750716009"/>
    <nd ref="602509084"/>
    <nd ref="602509083"/>
    <nd ref="602509019"/>
    <tag k="highway" v="service"/>
  </way>
  <way id="47294691" version="5" timestamp="2011-04-20T07:31:04Z" uid="115477" user="wowik" changeset="7913535">
    <nd ref="602509071"/>
    <nd ref="602509072"/>
    <nd ref="602509073"/>
    <nd ref="602509074"/>
    <nd ref="602509071"/>
    <tag k="addr:city" v="Москва"/>
    <tag k="addr:country" v="RU"/>
    <tag k="addr:housenumber" v="2/3 с4"/>
    <tag k="addr:postcode" v="121069"/>
    <tag k="addr:street" v="Хлебный переулок"/>
    <tag k="building" v="yes"/>
    <tag k="cladr:code" v="77000000000303100"/>
  </way>
  <way id="47294701" version="5" timestamp="2011-04-20T07:30:58Z" uid="115477" user="wowik" changeset="7913535">
    <nd ref="602509109"/>
    <nd ref="602509110"/>
    <nd ref="602509111"/>
    <nd ref="602509112"/>
    <nd ref="602509109"/>
    <tag k="addr:city" v="Москва"/>
    <tag k="addr:country" v="RU"/>
    <tag k="addr:housenumber" v="2/3 с3"/>
    <tag k="addr:postcode" v="121069"/>
    <tag k="addr:street" v="Хлебный переулок"/>
    <tag k="building" v="yes"/>
    <tag k="cladr:code" v="77000000000303100"/>
  </way>
  <way id="47294726" version="5" timestamp="2011-04-20T11:19:21Z" uid="115477" user="wowik" changeset="7915253">
    <nd ref="602509268"/>
    <nd ref="602509270"/>
    <nd ref="602509272"/>
    <nd ref="602509275"/>
    <nd ref="602509268"/>
    <tag k="addr:city" v="Москва"/>
    <tag k="addr:country" v="RU"/>
    <tag k="addr:housenumber" v="2/3 с2"/>
    <tag k="addr:postcode" v="121069"/>
    <tag k="addr:street" v="Хлебный переулок"/>
    <tag k="building" v="yes"/>
    <tag k="cladr:code" v="77000000000303100"/>
  </way>
  <way id="47294805" version="5" timestamp="2011-04-20T07:30:48Z" uid="115477" user="wowik" changeset="7913535">
    <nd ref="602509590"/>
    <nd ref="602509591"/>
    <nd ref="602509592"/>
    <nd ref="820793563"/>
    <nd ref="602509593"/>
    <nd ref="820794095"/>
    <nd ref="820793986"/>
    <nd ref="820793511"/>
    <nd ref="820794015"/>
    <nd ref="602509590"/>
    <tag k="addr:city" v="Москва"/>
    <tag k="addr:country" v="RU"/>
    <tag k="addr:housenumber" v="3"/>
    <tag k="addr:postcode" v="121069"/>
    <tag k="addr:street" v="Мерзляковский переулок"/>
    <tag k="building" v="yes"/>
    <tag k="cladr:code" v="77000000000184400"/>
  </way>
  <way id="47294812" version="4" timestamp="2011-04-20T11:17:55Z" uid="115477" user="wowik" changeset="7915124">
    <nd ref="602509642"/>
    <nd ref="602509643"/>
    <nd ref="602509644"/>
    <nd ref="820793511"/>
    <nd ref="820793986"/>
    <nd ref="820794095"/>
    <nd ref="602509593"/>
    <nd ref="602509642"/>
    <tag k="addr:city" v="Москва"/>
    <tag k="addr:country" v="RU"/>
    <tag k="addr:housenumber" v="2/3 с1"/>
    <tag k="addr:postcode" v="121069"/>
    <tag k="addr:street" v="Хлебный переулок"/>
    <tag k="building" v="yes"/>
    <tag k="cladr:code" v="77000000000303100"/>
  </way>
  <way id="47294821" version="4" timestamp="2011-04-20T11:18:03Z" uid="115477" user="wowik" changeset="7915124">
    <nd ref="602509830"/>
    <nd ref="602509831"/>
    <nd ref="602509832"/>
    <nd ref="602509833"/>
    <nd ref="602509834"/>
    <nd ref="602509835"/>
    <nd ref="602509830"/>
    <tag k="addr:city" v="Москва"/>
    <tag k="addr:country" v="RU"/>
    <tag k="addr:housenumber" v="10"/>
    <tag k="addr:postcode" v="121069"/>
    <tag k="addr:street" v="Мерзляковский переулок"/>
    <tag k="building" v="yes"/>
    <tag k="cladr:code" v="77000000000184400"/>
  </way>
</osm>
