<?xml version='1.0' encoding='UTF-8'?>
<osm version="0.6" generator="libosmium/2.20.0">
  <way id="47357008" version="3" timestamp="2010-07-08T19:40:41Z" uid="74617" user="JohnSmith" changeset="5168688">
    <nd ref="603025495"/>
    <nd ref="603025528"/>
    <nd ref="603025529"/>
    <tag k="highway" v="residential"/>
    <tag k="maxspeed" v="50"/>
    <tag k="maxspeed:source" v="default residential speed limit in Australia"/>
    <tag k="name" v="Lyric Court"/>
    <tag k="source" v="nearmap"/>
  </way>
  <way id="47357008" version="4" timestamp="2012-01-19T20:01:28Z" uid="147510" user="woodpeck_fixbot" changeset="10440306">
    <nd ref="603025495"/>
    <nd ref="603025528"/>
    <nd ref="603025529"/>
    <tag k="highway" v="residential"/>
    <tag k="name" v="Lyric Court"/>
    <tag k="source" v="nearmap"/>
  </way>
  <way id="47357009" version="3" timestamp="2010-07-08T19:42:25Z" uid="74617" user="JohnSmith" changeset="5168688">
    <nd ref="603025528"/>
    <nd ref="603025530"/>
    <nd ref="603025531"/>
    <tag k="highway" v="residential"/>
    <tag k="maxspeed" v="50"/>
    <tag k="maxspeed:source" v="default residential speed limit in Australia"/>
    <tag k="name" v="Brookfield Place"/>
    <tag k="source" v="nearmap"/>
  </way>
  <way id="47357009" version="4" timestamp="2012-01-19T20:01:30Z" uid="147510" user="woodpeck_fixbot" changeset="10440306">
    <nd ref="603025528"/>
    <nd ref="603025530"/>
    <nd ref="603025531"/>
    <tag k="highway" v="residential"/>
    <tag k="name" v="Brookfield Place"/>
    <tag k="source" v="nearmap"/>
  </way>
  <way id="47357866" version="3" timestamp="2011-03-27T04:00:29Z" uid="4467" user="Rosscoe" changeset="7681982">
    <nd ref="603025773"/>
    <nd ref="1220646630"/>
    <nd ref="1220646637"/>
    <tag k="highway" v="service"/>
    <tag k="name" v="Melbourne Rudolf Steiner School"/>
    <tag k="service" v="driveway"/>
    <tag k="source" v="nearmap"/>
  </way>
  <way id="47357866" version="4" timestamp="2011-08-13T12:47:28Z" uid="28961" user="kimo" changeset="9005246">
    <nd ref="603025773"/>
    <nd ref="1220646630"/>
    <nd ref="1220646637"/>
    <tag k="highway" v="service"/>
    <tag k="name" v="Melbourne Rudolf Steiner School"/>
    <tag k="service" v="parking_aisle"/>
    <tag k="source" v="nearmap"/>
  </way>
  <way id="47357866" version="5" timestamp="2011-08-13T12:48:50Z" uid="28961" user="kimo" changeset="9005246">
    <nd ref="603025773"/>
    <nd ref="1220646630"/>
    <nd ref="1220646637"/>
    <tag k="highway" v="service"/>
    <tag k="name" v="Melbourne Rudolf Steiner School"/>
    <tag k="service" v="driveway"/>
    <tag k="source" v="nearmap"/>
  </way>
</osm>
