<?xml version='1.0' encoding='UTF-8'?>
<osm version="0.6" generator="libosmium/2.20.0">
  <way id="47435365" version="2" timestamp="2010-07-09T17:26:56Z" uid="74617" user="JohnSmith" changeset="5175333">
    <nd ref="278130536"/>
    <nd ref="278130537"/>
    <nd ref="278130538"/>
    <nd ref="278130539"/>
    <nd ref="278130540"/>
    <nd ref="278130725"/>
    <nd ref="278130541"/>
    <tag k="highway" v="residential"/>
    <tag k="maxspeed" v="50"/>
    <tag k="maxspeed:source" v="default residential speed limit in Australia"/>
    <tag k="name" v="Matheson Road"/>
  </way>
  <way id="47435365" version="3" timestamp="2012-01-19T20:10:36Z" uid="147510" user="woodpeck_fixbot" changeset="10440306">
    <nd ref="278130536"/>
    <nd ref="278130537"/>
    <nd ref="278130538"/>
    <nd ref="278130539"/>
    <nd ref="278130540"/>
    <nd ref="278130725"/>
    <nd ref="278130541"/>
    <tag k="highway" v="residential"/>
    <tag k="name" v="Matheson Road"/>
  </way>
  <way id="47435368" version="2" timestamp="2010-07-09T17:20:02Z" uid="74617" user="JohnSmith" changeset="5175333">
    <nd ref="431063398"/>
    <nd ref="555971375"/>
    <tag k="highway" v="unclassified"/>
    <tag k="maxspeed" v="50"/>
    <tag k="maxspeed:source" v="default residential speed limit in Australia"/>
    <tag k="name" v="Jerrat Drive"/>
  </way>
  <way id="47435368" version="3" timestamp="2012-01-19T20:10:38Z" uid="147510" user="woodpeck_fixbot" changeset="10440306">
    <nd ref="431063398"/>
    <nd ref="555971375"/>
    <tag k="highway" v="unclassified"/>
    <tag k="name" v="Jerrat Drive"/>
  </way>
  <way id="47435369" version="2" timestamp="2010-07-09T17:22:31Z" uid="74617" user="JohnSmith" changeset="5175333">
    <nd ref="603465823"/>
    <nd ref="431063405"/>
    <nd ref="431063406"/>
    <nd ref="431063407"/>
    <tag k="highway" v="unclassified"/>
    <tag k="maxspeed" v="50"/>
    <tag k="maxspeed:source" v="default residential speed limit in Australia"/>
    <tag k="name" v="Jerrat Drive"/>
  </way>
  <way id="47435369" version="3" timestamp="2012-01-19T20:10:39Z" uid="147510" user="woodpeck_fixbot" changeset="10440306">
    <nd ref="603465823"/>
    <nd ref="431063405"/>
    <nd ref="431063406"/>
    <nd ref="431063407"/>
    <tag k="highway" v="unclassified"/>
    <tag k="name" v="Jerrat Drive"/>
  </way>
  <way id="47435370" version="2" timestamp="2010-07-09T17:24:24Z" uid="74617" user="JohnSmith" changeset="5175333">
    <nd ref="310731493"/>
    <nd ref="310492480"/>
    <nd ref="310731716"/>
    <tag k="highway" v="residential"/>
    <tag k="maxspeed" v="50"/>
    <tag k="maxspeed:source" v="default residential speed limit in Australia"/>
    <tag k="name" v="Waddell Road"/>
  </way>
  <way id="47435370" version="3" timestamp="2012-01-19T20:10:40Z" uid="147510" user="woodpeck_fixbot" changeset="10440306">
    <nd ref="310731493"/>
    <nd ref="310492480"/>
    <nd ref="310731716"/>
    <tag k="highway" v="residential"/>
    <tag k="name" v="Waddell Road"/>
  </way>
  <way id="47435371" version="2" timestamp="2010-07-09T17:26:04Z" uid="74617" user="JohnSmith" changeset="5175333">
    <nd ref="310731805"/>
    <nd ref="603688573"/>
    <nd ref="310731894"/>
    <nd ref="310731517"/>
    <nd ref="310731518"/>
    <nd ref="310731519"/>
    <tag k="highway" v="residential"/>
    <tag k="maxspeed" v="50"/>
    <tag k="maxspeed:source" v="default residential speed limit in Australia"/>
    <tag k="name" v="Braunton Street"/>
  </way>
  <way id="47435371" version="3" timestamp="2012-01-19T20:10:41Z" uid="147510" user="woodpeck_fixbot" changeset="10440306">
    <nd ref="310731805"/>
    <nd ref="603688573"/>
    <nd ref="310731894"/>
    <nd ref="310731517"/>
    <nd ref="310731518"/>
    <nd ref="310731519"/>
    <tag k="highway" v="residential"/>
    <tag k="name" v="Braunton Street"/>
  </way>
  <way id="47435372" version="2" timestamp="2010-07-09T17:27:37Z" uid="74617" user="JohnSmith" changeset="5175333">
    <nd ref="310731805"/>
    <nd ref="310731907"/>
    <tag k="highway" v="residential"/>
    <tag k="maxspeed" v="50"/>
    <tag k="maxspeed:source" v="default residential speed limit in Australia"/>
    <tag k="name" v="Malsbury Street"/>
  </way>
  <way id="47435372" version="3" timestamp="2012-01-19T20:10:43Z" uid="147510" user="woodpeck_fixbot" changeset="10440306">
    <nd ref="310731805"/>
    <nd ref="310731907"/>
    <tag k="highway" v="residential"/>
    <tag k="name" v="Malsbury Street"/>
  </way>
  <way id="47435374" version="3" timestamp="2010-07-09T17:23:03Z" uid="74617" user="JohnSmith" changeset="5175333">
    <nd ref="617186699"/>
    <nd ref="603733544"/>
    <nd ref="603733542"/>
    <nd ref="603733551"/>
    <nd ref="603733554"/>
    <tag k="foot" v="yes"/>
    <tag k="highway" v="residential"/>
    <tag k="maxspeed" v="50"/>
    <tag k="maxspeed:source" v="default residential speed limit in Australia"/>
  </way>
  <way id="47435374" version="4" timestamp="2012-01-19T20:10:46Z" uid="147510" user="woodpeck_fixbot" changeset="10440306">
    <nd ref="617186699"/>
    <nd ref="603733544"/>
    <nd ref="603733542"/>
    <nd ref="603733551"/>
    <nd ref="603733554"/>
    <tag k="foot" v="yes"/>
    <tag k="highway" v="residential"/>
  </way>
  <way id="47435375" version="2" timestamp="2010-07-09T17:24:54Z" uid="74617" user="JohnSmith" changeset="5175333">
    <nd ref="603733551"/>
    <nd ref="603733549"/>
    <nd ref="603733538"/>
    <tag k="foot" v="yes"/>
    <tag k="highway" v="residential"/>
    <tag k="maxspeed" v="50"/>
    <tag k="maxspeed:source" v="default residential speed limit in Australia"/>
  </way>
  <way id="47435375" version="3" timestamp="2012-01-19T20:10:47Z" uid="147510" user="woodpeck_fixbot" changeset="10440306">
    <nd ref="603733551"/>
    <nd ref="603733549"/>
    <nd ref="603733538"/>
    <tag k="foot" v="yes"/>
    <tag k="highway" v="residential"/>
  </way>
  <way id="47435377" version="2" timestamp="2010-07-09T17:23:17Z" uid="74617" user="JohnSmith" changeset="5175333">
    <nd ref="603733538"/>
    <nd ref="555971375"/>
    <tag k="highway" v="residential"/>
    <tag k="maxspeed" v="50"/>
    <tag k="maxspeed:source" v="default residential speed limit in Australia"/>
    <tag k="name" v="Petra Street"/>
  </way>
  <way id="47435377" version="3" timestamp="2012-01-19T20:10:49Z" uid="147510" user="woodpeck_fixbot" changeset="10440306">
    <nd ref="603733538"/>
    <nd ref="555971375"/>
    <tag k="highway" v="residential"/>
    <tag k="name" v="Petra Street"/>
  </way>
  <way id="47435378" version="2" timestamp="2010-07-09T17:25:07Z" uid="74617" user="JohnSmith" changeset="5175333">
    <nd ref="555971375"/>
    <nd ref="555971388"/>
    <tag k="highway" v="residential"/>
    <tag k="maxspeed" v="50"/>
    <tag k="maxspeed:source" v="default residential speed limit in Australia"/>
    <tag k="name" v="Petra Street"/>
  </way>
  <way id="47435378" version="3" timestamp="2012-01-19T20:10:50Z" uid="147510" user="woodpeck_fixbot" changeset="10440306">
    <nd ref="555971375"/>
    <nd ref="555971388"/>
    <tag k="highway" v="residential"/>
    <tag k="name" v="Petra Street"/>
  </way>
  <way id="47435379" version="2" timestamp="2010-07-09T17:26:42Z" uid="74617" user="JohnSmith" changeset="5175333">
    <nd ref="603733558"/>
    <nd ref="431063321"/>
    <tag k="highway" v="residential"/>
    <tag k="maxspeed" v="50"/>
    <tag k="maxspeed:source" v="default residential speed limit in Australia"/>
    <tag k="name" v="Phipps Street"/>
  </way>
  <way id="47435379" version="3" timestamp="2012-01-19T20:10:51Z" uid="147510" user="woodpeck_fixbot" changeset="10440306">
    <nd ref="603733558"/>
    <nd ref="431063321"/>
    <tag k="highway" v="residential"/>
    <tag k="name" v="Phipps Street"/>
  </way>
  <way id="47435380" version="4" timestamp="2010-07-09T17:28:15Z" uid="74617" user="JohnSmith" changeset="5175333">
    <nd ref="310731907"/>
    <nd ref="310731806"/>
    <tag k="highway" v="residential"/>
    <tag k="maxspeed" v="50"/>
    <tag k="maxspeed:source" v="default residential speed limit in Australia"/>
    <tag k="name" v="Malsbury Street"/>
  </way>
  <way id="47435380" version="5" timestamp="2012-01-19T20:10:52Z" uid="147510" user="woodpeck_fixbot" changeset="10440306">
    <nd ref="310731907"/>
    <nd ref="310731806"/>
    <tag k="highway" v="residential"/>
    <tag k="name" v="Malsbury Street"/>
  </way>
  <way id="47435381" version="2" timestamp="2010-07-09T17:21:42Z" uid="74617" user="JohnSmith" changeset="5175333">
    <nd ref="603688566"/>
    <nd ref="603688570"/>
    <tag k="highway" v="residential"/>
    <tag k="maxspeed" v="50"/>
    <tag k="maxspeed:source" v="default residential speed limit in Australia"/>
  </way>
  <way id="47435381" version="3" timestamp="2012-01-19T20:10:54Z" uid="147510" user="woodpeck_fixbot" changeset="10440306">
    <nd ref="603688566"/>
    <nd ref="603688570"/>
    <tag k="highway" v="residential"/>
  </way>
  <way id="47435382" version="2" timestamp="2010-07-09T17:23:50Z" uid="74617" user="JohnSmith" changeset="5175333">
    <nd ref="310492546"/>
    <nd ref="310731493"/>
    <tag k="highway" v="residential"/>
    <tag k="maxspeed" v="50"/>
    <tag k="maxspeed:source" v="default residential speed limit in Australia"/>
    <tag k="name" v="Waddell Road"/>
  </way>
  <way id="47435382" version="3" timestamp="2012-01-19T20:10:56Z" uid="147510" user="woodpeck_fixbot" changeset="10440306">
    <nd ref="310492546"/>
    <nd ref="310731493"/>
    <tag k="highway" v="residential"/>
    <tag k="name" v="Waddell Road"/>
  </way>
  <way id="47435385" version="2" timestamp="2010-07-09T17:25:49Z" uid="74617" user="JohnSmith" changeset="5175333">
    <nd ref="310347915"/>
    <nd ref="310299977"/>
    <nd ref="310348661"/>
    <nd ref="310347916"/>
    <tag k="highway" v="residential"/>
    <tag k="maxspeed" v="50"/>
    <tag k="maxspeed:source" v="default residential speed limit in Australia"/>
    <tag k="name" v="Kingsall Crescent"/>
  </way>
  <way id="47435385" version="3" timestamp="2012-01-19T20:10:58Z" uid="147510" user="woodpeck_fixbot" changeset="10440306">
    <nd ref="310347915"/>
    <nd ref="310299977"/>
    <nd ref="310348661"/>
    <nd ref="310347916"/>
    <tag k="highway" v="residential"/>
    <tag k="name" v="Kingsall Crescent"/>
  </way>
  <way id="47435388" version="2" timestamp="2010-07-09T17:22:45Z" uid="74617" user="JohnSmith" changeset="5175333">
    <nd ref="310303079"/>
    <nd ref="310347915"/>
    <tag k="highway" v="residential"/>
    <tag k="maxspeed" v="50"/>
    <tag k="maxspeed:source" v="default residential speed limit in Australia"/>
    <tag k="name" v="Bricknell Road"/>
  </way>
  <way id="47435388" version="3" timestamp="2012-01-19T20:10:59Z" uid="147510" user="woodpeck_fixbot" changeset="10440306">
    <nd ref="310303079"/>
    <nd ref="310347915"/>
    <tag k="highway" v="residential"/>
    <tag k="name" v="Bricknell Road"/>
  </way>
  <way id="47435389" version="2" timestamp="2010-07-09T17:24:37Z" uid="74617" user="JohnSmith" changeset="5175333">
    <nd ref="310347915"/>
    <nd ref="310347965"/>
    <nd ref="310347966"/>
    <nd ref="310347967"/>
    <nd ref="310347968"/>
    <nd ref="310347969"/>
    <tag k="highway" v="residential"/>
    <tag k="maxspeed" v="50"/>
    <tag k="maxspeed:source" v="default residential speed limit in Australia"/>
    <tag k="name" v="Bricknell Road"/>
  </way>
  <way id="47435389" version="3" timestamp="2012-01-19T20:11:04Z" uid="147510" user="woodpeck_fixbot" changeset="10440306">
    <nd ref="310347915"/>
    <nd ref="310347965"/>
    <nd ref="310347966"/>
    <nd ref="310347967"/>
    <nd ref="310347968"/>
    <nd ref="310347969"/>
    <tag k="highway" v="residential"/>
    <tag k="name" v="Bricknell Road"/>
  </way>
  <way id="47435390" version="2" timestamp="2010-07-09T17:26:16Z" uid="74617" user="JohnSmith" changeset="5175333">
    <nd ref="278130534"/>
    <nd ref="278132078"/>
    <nd ref="278129947"/>
    <nd ref="278129961"/>
    <nd ref="278129962"/>
    <tag k="highway" v="residential"/>
    <tag k="maxspeed" v="50"/>
    <tag k="maxspeed:source" v="default residential speed limit in Australia"/>
    <tag k="name" v="Cunningham Street"/>
  </way>
  <way id="47435390" version="3" timestamp="2012-01-19T20:11:06Z" uid="147510" user="woodpeck_fixbot" changeset="10440306">
    <nd ref="278130534"/>
    <nd ref="278132078"/>
    <nd ref="278129947"/>
    <nd ref="278129961"/>
    <nd ref="278129962"/>
    <tag k="highway" v="residential"/>
    <tag k="name" v="Cunningham Street"/>
  </way>
  <way id="47435391" version="4" timestamp="2010-07-09T17:27:47Z" uid="74617" user="JohnSmith" changeset="5175333">
    <nd ref="278130536"/>
    <nd ref="710318556"/>
    <tag k="highway" v="residential"/>
    <tag k="maxspeed" v="50"/>
    <tag k="maxspeed:source" v="default residential speed limit in Australia"/>
    <tag k="name" v="Ness Road"/>
  </way>
  <way id="47435391" version="5" timestamp="2012-01-19T20:11:08Z" uid="147510" user="woodpeck_fixbot" changeset="10440306">
    <nd ref="278130536"/>
    <nd ref="710318556"/>
    <tag k="highway" v="residential"/>
    <tag k="name" v="Ness Road"/>
  </way>
  <way id="47435395" version="2" timestamp="2010-07-09T17:24:42Z" uid="74617" user="JohnSmith" changeset="5175333">
    <nd ref="278127335"/>
    <nd ref="278131692"/>
    <nd ref="278131791"/>
    <tag k="highway" v="residential"/>
    <tag k="maxspeed" v="50"/>
    <tag k="maxspeed:source" v="default residential speed limit in Australia"/>
    <tag k="name" v="Kishorn Road"/>
  </way>
  <way id="47435395" version="3" timestamp="2012-01-19T20:11:09Z" uid="147510" user="woodpeck_fixbot" changeset="10440306">
    <nd ref="278127335"/>
    <nd ref="278131692"/>
    <nd ref="278131791"/>
    <tag k="highway" v="residential"/>
    <tag k="name" v="Kishorn Road"/>
  </way>
  <way id="47435396" version="2" timestamp="2010-07-09T17:26:20Z" uid="74617" user="JohnSmith" changeset="5175333">
    <nd ref="278131791"/>
    <nd ref="278126750"/>
    <tag k="highway" v="residential"/>
    <tag k="maxspeed" v="50"/>
    <tag k="maxspeed:source" v="default residential speed limit in Australia"/>
    <tag k="name" v="Kishorn Road"/>
  </way>
  <way id="47435396" version="3" timestamp="2012-01-19T20:11:11Z" uid="147510" user="woodpeck_fixbot" changeset="10440306">
    <nd ref="278131791"/>
    <nd ref="278126750"/>
    <tag k="highway" v="residential"/>
    <tag k="name" v="Kishorn Road"/>
  </way>
</osm>
