<?xml version='1.0' encoding='UTF-8'?>
<osm version="0.6" generator="libosmium/2.20.0">
  <way id="47669027" version="2" timestamp="2010-07-09T05:42:09Z" uid="74617" user="JohnSmith" changeset="5170986">
    <nd ref="250438823"/>
    <nd ref="606497593"/>
    <tag k="highway" v="residential"/>
    <tag k="maxspeed" v="50"/>
    <tag k="maxspeed:source" v="default residential speed limit in Australia"/>
    <tag k="name" v="Clementina Street"/>
  </way>
  <way id="47669027" version="3" timestamp="2011-11-15T10:18:01Z" uid="338866" user="tiger" changeset="9833285">
    <nd ref="250438823"/>
    <nd ref="361648338"/>
    <tag k="highway" v="residential"/>
    <tag k="maxspeed" v="50"/>
    <tag k="maxspeed:source" v="default residential speed limit in Australia"/>
    <tag k="name" v="Clementina Street"/>
  </way>
  <way id="47669027" version="4" timestamp="2012-01-19T20:35:16Z" uid="147510" user="woodpeck_fixbot" changeset="10440306">
    <nd ref="250438823"/>
    <nd ref="361648338"/>
    <tag k="highway" v="residential"/>
    <tag k="name" v="Clementina Street"/>
  </way>
  <way id="47669076" version="1" timestamp="2010-01-06T13:08:49Z" uid="205264" user="Sterol Andro" changeset="3553351">
    <nd ref="606507358"/>
    <nd ref="295956955"/>
    <nd ref="419373883"/>
    <nd ref="583755704"/>
    <nd ref="295957150"/>
    <nd ref="401297690"/>
    <tag k="highway" v="primary"/>
    <tag k="name" v="Via Camillo Benso Conte di Cavour"/>
    <tag k="old_ref" v="SS144"/>
    <tag k="ref" v="SP144"/>
  </way>
  <way id="47669076" version="2" timestamp="2010-05-27T15:39:27Z" uid="90379" user="Andrea Musuruane" changeset="4823322">
    <nd ref="606507358"/>
    <nd ref="295956955"/>
    <nd ref="419373883"/>
    <nd ref="583755704"/>
    <nd ref="295957150"/>
    <nd ref="401297690"/>
    <tag k="highway" v="tertiary"/>
    <tag k="name" v="Via Camillo Benso Conte di Cavour"/>
    <tag k="old_ref" v="SS144"/>
    <tag k="ref" v="SP144"/>
  </way>
  <way id="47669076" version="3" timestamp="2012-03-28T13:17:40Z" uid="211665" user="Silviopen" changeset="11126995">
    <nd ref="606507358"/>
    <nd ref="295956955"/>
    <nd ref="419373883"/>
    <nd ref="583755704"/>
    <nd ref="295957150"/>
    <nd ref="401297690"/>
    <tag k="highway" v="tertiary"/>
    <tag k="name" v="Via Cavour"/>
    <tag k="old_ref" v="SS144"/>
    <tag k="ref" v="SP144"/>
  </way>
  <way id="47669077" version="1" timestamp="2010-01-06T13:08:49Z" uid="205264" user="Sterol Andro" changeset="3553351">
    <nd ref="606507204"/>
    <nd ref="606507334"/>
    <nd ref="606507400"/>
    <nd ref="606507403"/>
    <nd ref="606507358"/>
    <nd ref="606507406"/>
    <nd ref="606507409"/>
    <nd ref="606507414"/>
    <nd ref="606507204"/>
    <tag k="highway" v="primary"/>
    <tag k="junction" v="roundabout"/>
    <tag k="name" v="Via Santuario d&apos;Oropa"/>
    <tag k="old_ref" v="SS144"/>
    <tag k="ref" v="SP144"/>
  </way>
  <way id="47669077" version="2" timestamp="2010-02-14T12:56:37Z" uid="113023" user="glaucos" changeset="3873428">
    <nd ref="606507204"/>
    <nd ref="606507414"/>
    <nd ref="606507409"/>
    <nd ref="606507406"/>
    <nd ref="606507358"/>
    <nd ref="606507403"/>
    <nd ref="606507400"/>
    <nd ref="606507334"/>
    <nd ref="606507204"/>
    <tag k="highway" v="primary"/>
    <tag k="junction" v="roundabout"/>
    <tag k="name" v="Via Santuario d&apos;Oropa"/>
    <tag k="old_ref" v="SS144"/>
    <tag k="oneway" v="yes"/>
    <tag k="ref" v="SP144"/>
  </way>
  <way id="47669077" version="3" timestamp="2010-07-04T12:19:30Z" uid="90379" user="Andrea Musuruane" changeset="5132360">
    <nd ref="606507204"/>
    <nd ref="606507414"/>
    <nd ref="606507409"/>
    <nd ref="606507406"/>
    <nd ref="606507358"/>
    <nd ref="606507403"/>
    <nd ref="606507400"/>
    <nd ref="606507334"/>
    <nd ref="606507204"/>
    <tag k="highway" v="secondary"/>
    <tag k="junction" v="roundabout"/>
    <tag k="name" v="Via Santuario d&apos;Oropa"/>
    <tag k="old_ref" v="SS144"/>
    <tag k="oneway" v="yes"/>
    <tag k="ref" v="SP144"/>
  </way>
  <way id="47669079" version="1" timestamp="2010-01-06T13:08:54Z" uid="205264" user="Sterol Andro" changeset="3553351">
    <nd ref="606507582"/>
    <nd ref="606507538"/>
    <nd ref="606507588"/>
    <nd ref="606507603"/>
    <nd ref="606507514"/>
    <nd ref="606507606"/>
    <nd ref="606507611"/>
    <nd ref="606507615"/>
    <nd ref="606507567"/>
    <nd ref="606507619"/>
    <nd ref="606507623"/>
    <nd ref="606507486"/>
    <nd ref="606507626"/>
    <nd ref="606507630"/>
    <nd ref="606507582"/>
    <tag k="highway" v="tertiary"/>
    <tag k="junction" v="roundabout"/>
    <tag k="name" v="Via Pietro Micca"/>
  </way>
  <way id="47669079" version="2" timestamp="2010-05-27T15:39:23Z" uid="90379" user="Andrea Musuruane" changeset="4823322">
    <nd ref="606507582"/>
    <nd ref="606507538"/>
    <nd ref="606507588"/>
    <nd ref="606507603"/>
    <nd ref="606507514"/>
    <nd ref="606507606"/>
    <nd ref="606507611"/>
    <nd ref="606507615"/>
    <nd ref="606507567"/>
    <nd ref="751333042"/>
    <nd ref="606507619"/>
    <nd ref="606507623"/>
    <nd ref="606507486"/>
    <nd ref="606507626"/>
    <nd ref="606507630"/>
    <nd ref="606507582"/>
    <tag k="highway" v="tertiary"/>
    <tag k="junction" v="roundabout"/>
    <tag k="name" v="Via Pietro Micca"/>
  </way>
  <way id="47669079" version="3" timestamp="2010-05-30T20:42:44Z" uid="90379" user="Andrea Musuruane" changeset="4857204">
    <nd ref="606507582"/>
    <nd ref="759953952"/>
    <nd ref="606507538"/>
    <nd ref="606507588"/>
    <nd ref="606507603"/>
    <nd ref="606507514"/>
    <nd ref="606507606"/>
    <nd ref="606507611"/>
    <nd ref="606507615"/>
    <nd ref="606507567"/>
    <nd ref="751333042"/>
    <nd ref="606507619"/>
    <nd ref="606507623"/>
    <nd ref="606507486"/>
    <nd ref="606507626"/>
    <nd ref="606507630"/>
    <nd ref="606507582"/>
    <tag k="highway" v="tertiary"/>
    <tag k="junction" v="roundabout"/>
    <tag k="name" v="Via Pietro Micca"/>
  </way>
  <way id="47669079" version="4" timestamp="2010-06-21T23:20:10Z" uid="205264" user="Sterol Andro" changeset="5047562">
    <nd ref="606507582"/>
    <nd ref="780619631"/>
    <nd ref="759953952"/>
    <nd ref="606507538"/>
    <nd ref="606507588"/>
    <nd ref="606507603"/>
    <nd ref="606507514"/>
    <nd ref="606507606"/>
    <nd ref="606507611"/>
    <nd ref="606507615"/>
    <nd ref="606507567"/>
    <nd ref="751333042"/>
    <nd ref="606507619"/>
    <nd ref="606507623"/>
    <nd ref="606507486"/>
    <nd ref="606507626"/>
    <nd ref="606507630"/>
    <nd ref="606507582"/>
    <tag k="highway" v="tertiary"/>
    <tag k="junction" v="roundabout"/>
    <tag k="name" v="Via Pietro Micca"/>
  </way>
  <way id="47669079" version="5" timestamp="2012-03-29T13:24:11Z" uid="211665" user="Silviopen" changeset="11138820">
    <nd ref="780619631"/>
    <nd ref="759953952"/>
    <nd ref="606507538"/>
    <nd ref="606507588"/>
    <nd ref="606507603"/>
    <nd ref="606507514"/>
    <nd ref="606507606"/>
    <nd ref="606507611"/>
    <nd ref="606507615"/>
    <nd ref="606507567"/>
    <nd ref="751333042"/>
    <nd ref="606507619"/>
    <nd ref="606507486"/>
    <nd ref="606507630"/>
    <nd ref="780619631"/>
    <tag k="highway" v="tertiary"/>
    <tag k="junction" v="roundabout"/>
    <tag k="name" v="Via Pietro Micca"/>
  </way>
</osm>
