<?xml version='1.0' encoding='UTF-8'?>
<osm version="0.6" generator="libosmium/2.20.0">
  <way id="47682018" version="2" timestamp="2010-06-05T09:52:16Z" uid="171838" user="argrath" changeset="4907467">
    <nd ref="585132634"/>
    <nd ref="764926509"/>
    <nd ref="764926412"/>
    <nd ref="606704946"/>
    <tag k="highway" v="unclassified"/>
  </way>
  <way id="47682018" version="3" timestamp="2010-07-16T01:09:15Z" uid="27464" user="antonpa" changeset="5231514">
    <nd ref="585132634"/>
    <nd ref="764926509"/>
    <nd ref="764926412"/>
    <nd ref="819930494"/>
    <nd ref="606704946"/>
    <tag k="highway" v="unclassified"/>
  </way>
  <way id="47682022" version="6" timestamp="2011-04-20T11:25:54Z" uid="115477" user="wowik" changeset="7915253">
    <nd ref="606705479"/>
    <nd ref="606705484"/>
    <nd ref="606705494"/>
    <nd ref="606705502"/>
    <nd ref="606705479"/>
    <tag k="addr:city" v="Москва"/>
    <tag k="addr:country" v="RU"/>
    <tag k="addr:housenumber" v="23 с3"/>
    <tag k="addr:street" v="Большая Бронная улица"/>
    <tag k="building" v="yes"/>
    <tag k="cladr:code" v="77000000000090600"/>
  </way>
  <way id="47682047" version="8" timestamp="2011-04-20T11:26:35Z" uid="115477" user="wowik" changeset="7915253">
    <nd ref="606708365"/>
    <nd ref="676037676"/>
    <nd ref="676037679"/>
    <nd ref="676037677"/>
    <nd ref="676037678"/>
    <nd ref="606708371"/>
    <nd ref="606708376"/>
    <nd ref="606708383"/>
    <nd ref="606708365"/>
    <tag k="addr:city" v="Москва"/>
    <tag k="addr:country" v="RU"/>
    <tag k="addr:housenumber" v="5/10 с5"/>
    <tag k="addr:housenumber2" v="10/5 с5"/>
    <tag k="addr:postcode" v="123104"/>
    <tag k="addr:street" v="Сытинский переулок"/>
    <tag k="addr:street2" v="Сытинский тупик"/>
    <tag k="building" v="yes"/>
    <tag k="cladr:code" v="77000000000285100"/>
  </way>
  <way id="47682047" version="9" timestamp="2011-07-19T18:12:58Z" uid="397326" user="trolleway" changeset="8770997">
    <nd ref="606708365"/>
    <nd ref="676037676"/>
    <nd ref="676037679"/>
    <nd ref="676037677"/>
    <nd ref="676037678"/>
    <nd ref="606708371"/>
    <nd ref="606708376"/>
    <nd ref="606708383"/>
    <nd ref="606708365"/>
    <tag k="addr:city" v="Москва"/>
    <tag k="addr:country" v="RU"/>
    <tag k="addr:housenumber" v="5/10 с5"/>
    <tag k="addr:housenumber2" v="10/5 с5"/>
    <tag k="addr:postcode" v="123104"/>
    <tag k="addr:street" v="Сытинский переулок"/>
    <tag k="addr:street2" v="Сытинский тупик"/>
    <tag k="building" v="yes"/>
    <tag k="building:levels" v="1"/>
    <tag k="cladr:code" v="77000000000285100"/>
  </way>
  <way id="47682155" version="8" timestamp="2011-04-20T11:25:46Z" uid="115477" user="wowik" changeset="7915253">
    <nd ref="606698002"/>
    <nd ref="606697998"/>
    <nd ref="606708365"/>
    <nd ref="606708383"/>
    <nd ref="606716157"/>
    <nd ref="606698002"/>
    <tag k="addr:city" v="Москва"/>
    <tag k="addr:country" v="RU"/>
    <tag k="addr:housenumber" v="5/10 с4"/>
    <tag k="addr:housenumber2" v="10/5 с4"/>
    <tag k="addr:postcode" v="123104"/>
    <tag k="addr:street" v="Сытинский переулок"/>
    <tag k="addr:street2" v="Сытинский тупик"/>
    <tag k="building" v="yes"/>
    <tag k="cladr:code" v="77000000000285100"/>
  </way>
  <way id="47682155" version="9" timestamp="2011-07-19T18:12:57Z" uid="397326" user="trolleway" changeset="8770997">
    <nd ref="606698002"/>
    <nd ref="606697998"/>
    <nd ref="606708365"/>
    <nd ref="606708383"/>
    <nd ref="606716157"/>
    <nd ref="606698002"/>
    <tag k="addr:city" v="Москва"/>
    <tag k="addr:country" v="RU"/>
    <tag k="addr:housenumber" v="5/10 с4"/>
    <tag k="addr:housenumber2" v="10/5 с4"/>
    <tag k="addr:postcode" v="123104"/>
    <tag k="addr:street" v="Сытинский переулок"/>
    <tag k="addr:street2" v="Сытинский тупик"/>
    <tag k="building" v="yes"/>
    <tag k="building:levels" v="4"/>
    <tag k="cladr:code" v="77000000000285100"/>
  </way>
  <way id="47682168" version="6" timestamp="2011-04-20T11:26:49Z" uid="115477" user="wowik" changeset="7915253">
    <nd ref="606718256"/>
    <nd ref="606718263"/>
    <nd ref="606718267"/>
    <nd ref="606718274"/>
    <nd ref="606718256"/>
    <tag k="addr:city" v="Москва"/>
    <tag k="addr:country" v="RU"/>
    <tag k="addr:housenumber" v="1 с4"/>
    <tag k="addr:postcode" v="123104"/>
    <tag k="addr:street" v="Сытинский тупик"/>
    <tag k="building" v="yes"/>
    <tag k="cladr:code" v="77000000000285200"/>
  </way>
  <way id="47682168" version="7" timestamp="2011-09-15T18:18:17Z" uid="338289" user="PShA" changeset="9310189">
    <nd ref="606718256"/>
    <nd ref="606718263"/>
    <nd ref="1433696684"/>
    <nd ref="606718267"/>
    <nd ref="606721492"/>
    <nd ref="606718274"/>
    <nd ref="1433696686"/>
    <nd ref="606718256"/>
    <tag k="addr:city" v="Москва"/>
    <tag k="addr:country" v="RU"/>
    <tag k="addr:housenumber" v="1 с4"/>
    <tag k="addr:postcode" v="123104"/>
    <tag k="addr:street" v="Сытинский тупик"/>
    <tag k="building" v="yes"/>
    <tag k="cladr:code" v="77000000000285200"/>
  </way>
  <way id="47682191" version="5" timestamp="2011-04-20T11:26:38Z" uid="115477" user="wowik" changeset="7915253">
    <nd ref="606721483"/>
    <nd ref="606721489"/>
    <nd ref="606721492"/>
    <nd ref="676037648"/>
    <nd ref="676037651"/>
    <nd ref="606721512"/>
    <nd ref="606721519"/>
    <nd ref="606721525"/>
    <nd ref="676037650"/>
    <nd ref="676037649"/>
    <nd ref="606721483"/>
    <tag k="addr:city" v="Москва"/>
    <tag k="addr:country" v="RU"/>
    <tag k="addr:housenumber" v="3"/>
    <tag k="addr:postcode" v="123104"/>
    <tag k="addr:street" v="Сытинский тупик"/>
    <tag k="building" v="yes"/>
    <tag k="cladr:code" v="77000000000285200"/>
  </way>
  <way id="47682191" version="6" timestamp="2011-09-15T18:18:19Z" uid="338289" user="PShA" changeset="9310189">
    <nd ref="606721483"/>
    <nd ref="606721489"/>
    <nd ref="606721492"/>
    <nd ref="606718267"/>
    <nd ref="676037648"/>
    <nd ref="676037651"/>
    <nd ref="606721512"/>
    <nd ref="606721519"/>
    <nd ref="606721525"/>
    <nd ref="676037650"/>
    <nd ref="676037649"/>
    <nd ref="606721483"/>
    <tag k="addr:city" v="Москва"/>
    <tag k="addr:country" v="RU"/>
    <tag k="addr:housenumber" v="3"/>
    <tag k="addr:postcode" v="123104"/>
    <tag k="addr:street" v="Сытинский тупик"/>
    <tag k="building" v="yes"/>
    <tag k="cladr:code" v="77000000000285200"/>
  </way>
  <way id="47682217" version="8" timestamp="2011-04-20T11:26:39Z" uid="115477" user="wowik" changeset="7915253">
    <nd ref="606728604"/>
    <nd ref="606728598"/>
    <nd ref="606725441"/>
    <nd ref="606725447"/>
    <nd ref="676037663"/>
    <nd ref="606725455"/>
    <nd ref="606725467"/>
    <nd ref="606725478"/>
    <nd ref="606725488"/>
    <nd ref="676037675"/>
    <nd ref="606725499"/>
    <nd ref="676037662"/>
    <nd ref="606728604"/>
    <tag k="addr:city" v="Москва"/>
    <tag k="addr:country" v="RU"/>
    <tag k="addr:housenumber" v="14/7"/>
    <tag k="addr:housenumber2" v="7/14"/>
    <tag k="addr:postcode" v="123104"/>
    <tag k="addr:street" v="Большой Палашёвский переулок"/>
    <tag k="addr:street2" v="Сытинский переулок"/>
    <tag k="building" v="yes"/>
    <tag k="cladr:code" v="77000000000706800"/>
  </way>
  <way id="47682217" version="9" timestamp="2011-07-19T18:12:53Z" uid="397326" user="trolleway" changeset="8770997">
    <nd ref="606728604"/>
    <nd ref="606728598"/>
    <nd ref="606725441"/>
    <nd ref="606725447"/>
    <nd ref="676037663"/>
    <nd ref="606725455"/>
    <nd ref="606725467"/>
    <nd ref="606725478"/>
    <nd ref="606725488"/>
    <nd ref="676037675"/>
    <nd ref="606725499"/>
    <nd ref="676037662"/>
    <nd ref="606728604"/>
    <tag k="addr:city" v="Москва"/>
    <tag k="addr:country" v="RU"/>
    <tag k="addr:housenumber" v="14/7"/>
    <tag k="addr:housenumber2" v="7/14"/>
    <tag k="addr:postcode" v="123104"/>
    <tag k="addr:street" v="Большой Палашёвский переулок"/>
    <tag k="addr:street2" v="Сытинский переулок"/>
    <tag k="building" v="yes"/>
    <tag k="building:levels" v="5"/>
    <tag k="cladr:code" v="77000000000706800"/>
  </way>
  <way id="47682552" version="6" timestamp="2011-04-20T11:27:06Z" uid="115477" user="wowik" changeset="7915253">
    <nd ref="606728526"/>
    <nd ref="606728555"/>
    <nd ref="606728559"/>
    <nd ref="606728593"/>
    <nd ref="606728564"/>
    <nd ref="606728526"/>
    <tag k="addr:city" v="Москва"/>
    <tag k="addr:country" v="RU"/>
    <tag k="addr:housenumber" v="12"/>
    <tag k="addr:postcode" v="123104"/>
    <tag k="addr:street" v="Большой Палашёвский переулок"/>
    <tag k="building" v="yes"/>
    <tag k="cladr:code" v="77000000000706800"/>
  </way>
  <way id="47682552" version="7" timestamp="2011-07-19T18:12:52Z" uid="397326" user="trolleway" changeset="8770997">
    <nd ref="606728526"/>
    <nd ref="606728555"/>
    <nd ref="606728559"/>
    <nd ref="606728593"/>
    <nd ref="606728564"/>
    <nd ref="606728526"/>
    <tag k="addr:city" v="Москва"/>
    <tag k="addr:country" v="RU"/>
    <tag k="addr:housenumber" v="12"/>
    <tag k="addr:postcode" v="123104"/>
    <tag k="addr:street" v="Большой Палашёвский переулок"/>
    <tag k="building" v="yes"/>
    <tag k="building:levels" v="7"/>
    <tag k="cladr:code" v="77000000000706800"/>
  </way>
  <way id="47682556" version="7" timestamp="2011-04-20T11:26:04Z" uid="115477" user="wowik" changeset="7915253">
    <nd ref="606728564"/>
    <nd ref="606728593"/>
    <nd ref="606728598"/>
    <nd ref="606728604"/>
    <nd ref="606728564"/>
    <tag k="addr:city" v="Москва"/>
    <tag k="addr:country" v="RU"/>
    <tag k="addr:housenumber" v="14А"/>
    <tag k="addr:postcode" v="123104"/>
    <tag k="addr:street" v="Большой Палашёвский переулок"/>
    <tag k="building" v="yes"/>
    <tag k="cladr:code" v="77000000000706800"/>
  </way>
  <way id="47682556" version="8" timestamp="2011-07-19T18:12:53Z" uid="397326" user="trolleway" changeset="8770997">
    <nd ref="606728564"/>
    <nd ref="606728593"/>
    <nd ref="606728598"/>
    <nd ref="606728604"/>
    <nd ref="606728564"/>
    <tag k="addr:city" v="Москва"/>
    <tag k="addr:country" v="RU"/>
    <tag k="addr:housenumber" v="14А"/>
    <tag k="addr:postcode" v="123104"/>
    <tag k="addr:street" v="Большой Палашёвский переулок"/>
    <tag k="building" v="yes"/>
    <tag k="building:levels" v="6"/>
    <tag k="cladr:code" v="77000000000706800"/>
  </way>
  <way id="47682847" version="4" timestamp="2011-04-20T11:25:35Z" uid="115477" user="wowik" changeset="7915253">
    <nd ref="606731284"/>
    <nd ref="606731288"/>
    <nd ref="606731292"/>
    <nd ref="606731296"/>
    <nd ref="606731284"/>
    <tag k="addr:city" v="Москва"/>
    <tag k="addr:country" v="RU"/>
    <tag k="addr:housenumber" v="10"/>
    <tag k="addr:postcode" v="123104"/>
    <tag k="addr:street" v="Большой Палашёвский переулок"/>
    <tag k="building" v="yes"/>
    <tag k="cladr:code" v="77000000000706800"/>
  </way>
  <way id="47682847" version="5" timestamp="2011-07-19T18:12:52Z" uid="397326" user="trolleway" changeset="8770997">
    <nd ref="606731284"/>
    <nd ref="606731288"/>
    <nd ref="606731292"/>
    <nd ref="606731296"/>
    <nd ref="606731284"/>
    <tag k="addr:city" v="Москва"/>
    <tag k="addr:country" v="RU"/>
    <tag k="addr:housenumber" v="10"/>
    <tag k="addr:postcode" v="123104"/>
    <tag k="addr:street" v="Большой Палашёвский переулок"/>
    <tag k="building" v="yes"/>
    <tag k="building:levels" v="4"/>
    <tag k="cladr:code" v="77000000000706800"/>
  </way>
  <way id="47682979" version="5" timestamp="2011-04-20T11:27:06Z" uid="115477" user="wowik" changeset="7915253">
    <nd ref="606732408"/>
    <nd ref="606732414"/>
    <nd ref="606732419"/>
    <nd ref="606732423"/>
    <nd ref="606732408"/>
    <tag k="addr:city" v="Москва"/>
    <tag k="addr:country" v="RU"/>
    <tag k="addr:housenumber" v="7"/>
    <tag k="addr:postcode" v="123104"/>
    <tag k="addr:street" v="Большой Палашёвский переулок"/>
    <tag k="building" v="yes"/>
    <tag k="cladr:code" v="77000000000706800"/>
  </way>
  <way id="47682979" version="6" timestamp="2011-07-19T18:12:58Z" uid="397326" user="trolleway" changeset="8770997">
    <nd ref="606732408"/>
    <nd ref="606732414"/>
    <nd ref="606732419"/>
    <nd ref="606732423"/>
    <nd ref="606732408"/>
    <tag k="addr:city" v="Москва"/>
    <tag k="addr:country" v="RU"/>
    <tag k="addr:housenumber" v="7"/>
    <tag k="addr:postcode" v="123104"/>
    <tag k="addr:street" v="Большой Палашёвский переулок"/>
    <tag k="building" v="yes"/>
    <tag k="building:levels" v="3"/>
    <tag k="cladr:code" v="77000000000706800"/>
  </way>
</osm>
