<?xml version='1.0' encoding='UTF-8'?>
<osm version="0.6" generator="libosmium/2.20.0">
  <way id="47795353" version="1" timestamp="2010-01-07T07:04:02Z" uid="7617" user="Franc" changeset="3559407">
    <nd ref="607852450"/>
    <nd ref="607852452"/>
    <nd ref="607852443"/>
    <nd ref="607852445"/>
    <nd ref="607852446"/>
    <nd ref="607852453"/>
    <nd ref="607852455"/>
    <nd ref="607852457"/>
    <nd ref="607852459"/>
    <nd ref="607852461"/>
    <nd ref="607852463"/>
    <nd ref="607852450"/>
    <tag k="leisure" v="playground"/>
  </way>
  <way id="47795422" version="2" timestamp="2010-07-08T18:22:47Z" uid="74617" user="JohnSmith" changeset="5167338">
    <nd ref="607857301"/>
    <nd ref="607858580"/>
    <nd ref="607858582"/>
    <nd ref="607858584"/>
    <nd ref="607858586"/>
    <nd ref="607858589"/>
    <nd ref="607858591"/>
    <nd ref="607858593"/>
    <nd ref="607858595"/>
    <nd ref="607858597"/>
    <nd ref="607858598"/>
    <nd ref="607858599"/>
    <nd ref="607858600"/>
    <nd ref="607858601"/>
    <nd ref="607858602"/>
    <nd ref="607858603"/>
    <nd ref="607858604"/>
    <nd ref="607858605"/>
    <nd ref="607857291"/>
    <tag k="highway" v="residential"/>
    <tag k="maxspeed" v="50"/>
    <tag k="maxspeed:source" v="default residential speed limit in Australia"/>
    <tag k="source" v="nearmap"/>
  </way>
  <way id="47795422" version="3" timestamp="2011-05-05T04:18:00Z" uid="11111" user="melb_guy" changeset="8054219">
    <nd ref="1272714422"/>
    <nd ref="1272714712"/>
    <nd ref="1272714617"/>
    <nd ref="1272714416"/>
    <nd ref="1272714750"/>
    <tag k="highway" v="residential"/>
    <tag k="maxspeed" v="50"/>
    <tag k="maxspeed:source" v="default residential speed limit in Australia"/>
    <tag k="oneway" v="yes"/>
    <tag k="source" v="nearmap"/>
  </way>
  <way id="47795422" version="4" timestamp="2012-01-19T20:42:21Z" uid="147510" user="woodpeck_fixbot" changeset="10440306">
    <nd ref="1272714422"/>
    <nd ref="1272714712"/>
    <nd ref="1272714617"/>
    <nd ref="1272714416"/>
    <nd ref="1272714750"/>
    <tag k="highway" v="residential"/>
    <tag k="oneway" v="yes"/>
    <tag k="source" v="nearmap"/>
  </way>
  <way id="47795446" version="2" timestamp="2010-07-09T05:53:50Z" uid="74617" user="JohnSmith" changeset="5171134">
    <nd ref="598114923"/>
    <nd ref="598114924"/>
    <nd ref="598114927"/>
    <nd ref="598114930"/>
    <nd ref="598114931"/>
    <nd ref="598114934"/>
    <nd ref="598114936"/>
    <nd ref="598114938"/>
    <nd ref="598114939"/>
    <nd ref="598114941"/>
    <nd ref="598114943"/>
    <nd ref="598114945"/>
    <nd ref="598114947"/>
    <nd ref="598114948"/>
    <nd ref="598114952"/>
    <nd ref="598114953"/>
    <nd ref="598114954"/>
    <nd ref="598114955"/>
    <nd ref="598114956"/>
    <nd ref="598114957"/>
    <nd ref="598114958"/>
    <nd ref="598114959"/>
    <tag k="highway" v="residential"/>
    <tag k="maxspeed" v="50"/>
    <tag k="maxspeed:source" v="default residential speed limit in Australia"/>
    <tag k="name" v="Wattle Drive"/>
    <tag k="source" v="nearmap"/>
  </way>
  <way id="47795446" version="3" timestamp="2012-01-19T20:42:23Z" uid="147510" user="woodpeck_fixbot" changeset="10440306">
    <nd ref="598114923"/>
    <nd ref="598114924"/>
    <nd ref="598114927"/>
    <nd ref="598114930"/>
    <nd ref="598114931"/>
    <nd ref="598114934"/>
    <nd ref="598114936"/>
    <nd ref="598114938"/>
    <nd ref="598114939"/>
    <nd ref="598114941"/>
    <nd ref="598114943"/>
    <nd ref="598114945"/>
    <nd ref="598114947"/>
    <nd ref="598114948"/>
    <nd ref="598114952"/>
    <nd ref="598114953"/>
    <nd ref="598114954"/>
    <nd ref="598114955"/>
    <nd ref="598114956"/>
    <nd ref="598114957"/>
    <nd ref="598114958"/>
    <nd ref="598114959"/>
    <tag k="highway" v="residential"/>
    <tag k="name" v="Wattle Drive"/>
    <tag k="source" v="nearmap"/>
  </way>
  <way id="47795527" version="2" timestamp="2010-07-09T05:52:13Z" uid="74617" user="JohnSmith" changeset="5171134">
    <nd ref="598159819"/>
    <nd ref="598159885"/>
    <nd ref="598159846"/>
    <nd ref="598159856"/>
    <tag k="highway" v="residential"/>
    <tag k="maxspeed" v="50"/>
    <tag k="maxspeed:source" v="default residential speed limit in Australia"/>
    <tag k="name" v="Dromana Parade"/>
    <tag k="source" v="nearmap"/>
  </way>
  <way id="47795527" version="3" timestamp="2012-01-19T20:42:25Z" uid="147510" user="woodpeck_fixbot" changeset="10440306">
    <nd ref="598159819"/>
    <nd ref="598159885"/>
    <nd ref="598159846"/>
    <nd ref="598159856"/>
    <tag k="highway" v="residential"/>
    <tag k="name" v="Dromana Parade"/>
    <tag k="source" v="nearmap"/>
  </way>
  <way id="47795642" version="3" timestamp="2010-03-28T11:39:08Z" uid="20587" user="balrog-kun" changeset="4254597">
    <nd ref="92248550"/>
    <nd ref="92183231"/>
    <nd ref="92248547"/>
    <nd ref="91806718"/>
    <nd ref="92248545"/>
    <nd ref="92248542"/>
    <nd ref="92248540"/>
    <nd ref="92248533"/>
    <nd ref="339074409"/>
    <nd ref="91395238"/>
    <nd ref="92172990"/>
    <nd ref="91644757"/>
    <nd ref="92248525"/>
    <nd ref="339073905"/>
    <nd ref="339073906"/>
    <tag k="highway" v="secondary"/>
    <tag k="name" v="East Cypress Avenue"/>
    <tag k="tiger:cfcc" v="A45"/>
    <tag k="tiger:county" v="Shasta, CA"/>
    <tag k="tiger:name_base" v="Cypress"/>
    <tag k="tiger:name_direction_prefix" v="E"/>
    <tag k="tiger:name_type" v="Ave"/>
    <tag k="tiger:reviewed" v="no"/>
    <tag k="tiger:separated" v="yes"/>
    <tag k="tiger:source" v="tiger_import_dch_v0.6_20070809"/>
    <tag k="tiger:tlid" v="126706439:126705543"/>
  </way>
  <way id="47795644" version="3" timestamp="2010-03-28T11:39:09Z" uid="20587" user="balrog-kun" changeset="4254597">
    <nd ref="91901597"/>
    <nd ref="91850527"/>
    <nd ref="92170153"/>
    <nd ref="92248404"/>
    <nd ref="92248406"/>
    <nd ref="92123158"/>
    <nd ref="92197294"/>
    <nd ref="92160688"/>
    <nd ref="92011701"/>
    <nd ref="92107202"/>
    <nd ref="92248409"/>
    <nd ref="91913064"/>
    <nd ref="92248411"/>
    <nd ref="91526163"/>
    <nd ref="92248417"/>
    <tag k="highway" v="secondary"/>
    <tag k="name" v="East Cypress Avenue"/>
    <tag k="tiger:cfcc" v="A41"/>
    <tag k="tiger:county" v="Shasta, CA"/>
    <tag k="tiger:name_base" v="Cypress"/>
    <tag k="tiger:name_direction_prefix" v="E"/>
    <tag k="tiger:name_type" v="Ave"/>
    <tag k="tiger:reviewed" v="no"/>
    <tag k="tiger:separated" v="no"/>
    <tag k="tiger:source" v="tiger_import_dch_v0.6_20070809"/>
    <tag k="tiger:tlid" v="126674102:126644046:126644436:126629713"/>
    <tag k="tiger:zip_left" v="96002"/>
    <tag k="tiger:zip_right" v="96002"/>
  </way>
  <way id="47795652" version="3" timestamp="2010-03-28T11:39:09Z" uid="20587" user="balrog-kun" changeset="4254597">
    <nd ref="91885216"/>
    <nd ref="91885427"/>
    <nd ref="91885430"/>
    <nd ref="91885433"/>
    <nd ref="91885435"/>
    <nd ref="91885437"/>
    <nd ref="91885440"/>
    <nd ref="91885442"/>
    <nd ref="91885443"/>
    <nd ref="91885445"/>
    <nd ref="91885449"/>
    <nd ref="91885452"/>
    <nd ref="91885454"/>
    <nd ref="91885456"/>
    <nd ref="91885460"/>
    <nd ref="91885462"/>
    <nd ref="91885464"/>
    <nd ref="91885465"/>
    <nd ref="91885469"/>
    <tag k="highway" v="secondary"/>
    <tag k="name" v="North Street"/>
    <tag k="tiger:cfcc" v="A41"/>
    <tag k="tiger:county" v="Shasta, CA"/>
    <tag k="tiger:name_base" v="North"/>
    <tag k="tiger:name_type" v="St"/>
    <tag k="tiger:reviewed" v="no"/>
    <tag k="tiger:separated" v="no"/>
    <tag k="tiger:source" v="tiger_import_dch_v0.6_20070809"/>
    <tag k="tiger:tlid" v="126656229:126679243:126679245:126679246:126643931:126644374:126671147"/>
    <tag k="tiger:zip_left" v="96007"/>
  </way>
  <way id="47795686" version="3" timestamp="2010-08-17T07:43:33Z" uid="4467" user="Rosscoe" changeset="5515216">
    <nd ref="607881002"/>
    <nd ref="607881004"/>
    <nd ref="607881005"/>
    <nd ref="607881007"/>
    <nd ref="607881002"/>
    <tag k="addr:city" v="Northbridge"/>
    <tag k="addr:housenumber" v="6-8"/>
    <tag k="addr:postcode" v="6003"/>
    <tag k="addr:street" v="Errichetti Place"/>
    <tag k="amenity" v="parking"/>
    <tag k="fee" v="yes"/>
    <tag k="name" v="Northbridge Central"/>
    <tag k="opening_hours" v="24/7"/>
    <tag k="operator" v="Wilson Parking"/>
    <tag k="parking" v="multi-storey"/>
    <tag k="url" v="http://www.wilsonparking.com.au/go/wilson-car-parks/wa/northbridge-central"/>
  </way>
  <way id="47795686" version="4" timestamp="2012-02-05T19:07:48Z" uid="142807" user="SDavies" changeset="10597135">
    <nd ref="607881002"/>
    <nd ref="1619295046"/>
    <nd ref="1619295038"/>
    <nd ref="607881004"/>
    <nd ref="607881005"/>
    <nd ref="607881007"/>
    <nd ref="1619295048"/>
    <nd ref="1619295052"/>
    <nd ref="1619295050"/>
    <nd ref="1619295044"/>
    <nd ref="607881002"/>
    <tag k="addr:city" v="Northbridge"/>
    <tag k="addr:housenumber" v="6-8"/>
    <tag k="addr:postcode" v="6003"/>
    <tag k="addr:street" v="Errichetti Place"/>
    <tag k="amenity" v="parking"/>
    <tag k="building" v="yes"/>
    <tag k="fee" v="yes"/>
    <tag k="name" v="Northbridge Central"/>
    <tag k="opening_hours" v="24/7"/>
    <tag k="operator" v="Wilson Parking"/>
    <tag k="parking" v="multi-storey"/>
    <tag k="url" v="http://www.wilsonparking.com.au/go/wilson-car-parks/wa/northbridge-central"/>
  </way>
  <way id="47795687" version="2" timestamp="2010-05-07T09:30:17Z" uid="242497" user="cvl" changeset="4628390">
    <nd ref="607881015"/>
    <nd ref="607881017"/>
    <nd ref="607881018"/>
    <nd ref="607881020"/>
    <nd ref="607881022"/>
    <nd ref="607881023"/>
    <nd ref="607881025"/>
    <nd ref="607881015"/>
    <tag k="addr:city" v="Northbridge"/>
    <tag k="addr:housenumber" v="248"/>
    <tag k="addr:postcode" v="6003"/>
    <tag k="addr:street" v="Newcastle Street"/>
    <tag k="building" v="yes"/>
    <tag k="name" v="Zone 3"/>
  </way>
  <way id="47795687" version="3" timestamp="2012-02-07T20:26:33Z" uid="142807" user="SDavies" changeset="10616196">
    <nd ref="607881015"/>
    <nd ref="607881017"/>
    <nd ref="607881018"/>
    <nd ref="607881020"/>
    <nd ref="607881022"/>
    <nd ref="607881023"/>
    <nd ref="607881025"/>
    <nd ref="1622256142"/>
    <nd ref="607881015"/>
    <tag k="addr:city" v="Northbridge"/>
    <tag k="addr:housenumber" v="248"/>
    <tag k="addr:postcode" v="6003"/>
    <tag k="addr:street" v="Newcastle Street"/>
    <tag k="building" v="yes"/>
    <tag k="name" v="Zone 3"/>
  </way>
  <way id="47795756" version="1" timestamp="2010-01-07T07:47:27Z" uid="7617" user="Franc" changeset="3559575">
    <nd ref="247303132"/>
    <nd ref="607886518"/>
    <nd ref="607886520"/>
    <nd ref="607886522"/>
    <nd ref="607886521"/>
    <nd ref="607886524"/>
    <nd ref="607886525"/>
    <nd ref="607886526"/>
    <nd ref="607886528"/>
    <nd ref="607886517"/>
    <nd ref="607886541"/>
    <nd ref="607886542"/>
    <tag k="highway" v="residential"/>
    <tag k="source" v="neamap"/>
  </way>
  <way id="47795756" version="2" timestamp="2010-01-11T08:26:43Z" uid="7617" user="Franc" changeset="3594095">
    <nd ref="247303132"/>
    <nd ref="607886518"/>
    <nd ref="607886520"/>
    <nd ref="607886522"/>
    <nd ref="607886521"/>
    <nd ref="607886524"/>
    <nd ref="607886525"/>
    <nd ref="607886526"/>
    <nd ref="607886528"/>
    <nd ref="607886517"/>
    <nd ref="607886541"/>
    <nd ref="607886542"/>
    <tag k="highway" v="residential"/>
    <tag k="source" v="nearmap"/>
  </way>
  <way id="47795756" version="3" timestamp="2010-06-12T04:07:13Z" uid="7617" user="Franc" changeset="4967554">
    <nd ref="247303132"/>
    <nd ref="607886518"/>
    <nd ref="607886520"/>
    <nd ref="607886522"/>
    <nd ref="607886521"/>
    <nd ref="607886524"/>
    <nd ref="607886525"/>
    <nd ref="607886526"/>
    <nd ref="607886528"/>
    <nd ref="607886517"/>
    <nd ref="607886541"/>
    <nd ref="607886542"/>
    <tag k="highway" v="residential"/>
    <tag k="name" v="Hanover Street"/>
    <tag k="source" v="survey"/>
  </way>
  <way id="47795756" version="4" timestamp="2010-07-07T22:34:52Z" uid="74617" user="JohnSmith" changeset="5162525">
    <nd ref="247303132"/>
    <nd ref="607886518"/>
    <nd ref="607886520"/>
    <nd ref="607886522"/>
    <nd ref="607886521"/>
    <nd ref="607886524"/>
    <nd ref="607886525"/>
    <nd ref="607886526"/>
    <nd ref="607886528"/>
    <nd ref="607886517"/>
    <nd ref="607886541"/>
    <nd ref="607886542"/>
    <tag k="highway" v="residential"/>
    <tag k="maxspeed" v="50"/>
    <tag k="maxspeed:source" v="default residential speed limit in Australia"/>
    <tag k="name" v="Hanover Street"/>
    <tag k="source" v="survey"/>
  </way>
  <way id="47795756" version="5" timestamp="2012-01-19T20:42:28Z" uid="147510" user="woodpeck_fixbot" changeset="10440306">
    <nd ref="247303132"/>
    <nd ref="607886518"/>
    <nd ref="607886520"/>
    <nd ref="607886522"/>
    <nd ref="607886521"/>
    <nd ref="607886524"/>
    <nd ref="607886525"/>
    <nd ref="607886526"/>
    <nd ref="607886528"/>
    <nd ref="607886517"/>
    <nd ref="607886541"/>
    <nd ref="607886542"/>
    <tag k="highway" v="residential"/>
    <tag k="name" v="Hanover Street"/>
    <tag k="source" v="survey"/>
  </way>
  <way id="47795757" version="1" timestamp="2010-01-07T07:47:27Z" uid="7617" user="Franc" changeset="3559575">
    <nd ref="607761838"/>
    <nd ref="607886543"/>
    <nd ref="607886542"/>
    <nd ref="607886529"/>
    <nd ref="607886536"/>
    <nd ref="607886531"/>
    <nd ref="607886539"/>
    <nd ref="607886538"/>
    <nd ref="607886518"/>
    <tag k="highway" v="residential"/>
    <tag k="source" v="neamap"/>
  </way>
  <way id="47795757" version="2" timestamp="2010-01-11T08:26:43Z" uid="7617" user="Franc" changeset="3594095">
    <nd ref="607761838"/>
    <nd ref="607886543"/>
    <nd ref="607886542"/>
    <nd ref="607886529"/>
    <nd ref="607886536"/>
    <nd ref="607886531"/>
    <nd ref="607886539"/>
    <nd ref="607886538"/>
    <nd ref="607886518"/>
    <tag k="highway" v="residential"/>
    <tag k="source" v="nearmap"/>
  </way>
  <way id="47795757" version="3" timestamp="2010-06-12T04:07:13Z" uid="7617" user="Franc" changeset="4967554">
    <nd ref="607761838"/>
    <nd ref="607886543"/>
    <nd ref="607886542"/>
    <nd ref="607886529"/>
    <nd ref="607886536"/>
    <nd ref="607886531"/>
    <nd ref="607886539"/>
    <nd ref="607886538"/>
    <nd ref="607886518"/>
    <tag k="highway" v="residential"/>
    <tag k="name" v="Ulster Street"/>
    <tag k="source" v="survey"/>
  </way>
  <way id="47795757" version="4" timestamp="2010-07-07T22:25:22Z" uid="74617" user="JohnSmith" changeset="5162525">
    <nd ref="607761838"/>
    <nd ref="607886543"/>
    <nd ref="607886542"/>
    <nd ref="607886529"/>
    <nd ref="607886536"/>
    <nd ref="607886531"/>
    <nd ref="607886539"/>
    <nd ref="607886538"/>
    <nd ref="607886518"/>
    <tag k="highway" v="residential"/>
    <tag k="maxspeed" v="50"/>
    <tag k="maxspeed:source" v="default residential speed limit in Australia"/>
    <tag k="name" v="Ulster Street"/>
    <tag k="source" v="survey"/>
  </way>
  <way id="47795757" version="5" timestamp="2012-01-19T20:42:31Z" uid="147510" user="woodpeck_fixbot" changeset="10440306">
    <nd ref="607761838"/>
    <nd ref="607886543"/>
    <nd ref="607886542"/>
    <nd ref="607886529"/>
    <nd ref="607886536"/>
    <nd ref="607886531"/>
    <nd ref="607886539"/>
    <nd ref="607886538"/>
    <nd ref="607886518"/>
    <tag k="highway" v="residential"/>
    <tag k="name" v="Ulster Street"/>
    <tag k="source" v="survey"/>
  </way>
  <way id="47795758" version="1" timestamp="2010-01-07T07:47:27Z" uid="7617" user="Franc" changeset="3559575">
    <nd ref="607765183"/>
    <nd ref="607886570"/>
    <nd ref="607886566"/>
    <nd ref="607886559"/>
    <nd ref="607886554"/>
    <nd ref="607886558"/>
    <nd ref="607886556"/>
    <nd ref="607886555"/>
    <nd ref="607886552"/>
    <nd ref="607886545"/>
    <nd ref="607886546"/>
    <nd ref="607886551"/>
    <nd ref="607886550"/>
    <nd ref="607886547"/>
    <nd ref="607886561"/>
    <nd ref="607886563"/>
    <nd ref="607886565"/>
    <nd ref="607886562"/>
    <nd ref="607886568"/>
    <nd ref="607886569"/>
    <tag k="highway" v="residential"/>
    <tag k="source" v="neamap"/>
  </way>
  <way id="47795758" version="2" timestamp="2010-01-11T08:26:43Z" uid="7617" user="Franc" changeset="3594095">
    <nd ref="607765183"/>
    <nd ref="607886570"/>
    <nd ref="607886566"/>
    <nd ref="607886559"/>
    <nd ref="607886554"/>
    <nd ref="607886558"/>
    <nd ref="607886556"/>
    <nd ref="607886555"/>
    <nd ref="607886552"/>
    <nd ref="607886545"/>
    <nd ref="607886546"/>
    <nd ref="607886551"/>
    <nd ref="607886550"/>
    <nd ref="607886547"/>
    <nd ref="607886561"/>
    <nd ref="607886563"/>
    <nd ref="607886565"/>
    <nd ref="607886562"/>
    <nd ref="607886568"/>
    <nd ref="607886569"/>
    <tag k="highway" v="residential"/>
    <tag k="source" v="nearmap"/>
  </way>
  <way id="47795758" version="3" timestamp="2010-06-12T04:07:14Z" uid="7617" user="Franc" changeset="4967554">
    <nd ref="607765183"/>
    <nd ref="607886570"/>
    <nd ref="607886566"/>
    <nd ref="607886559"/>
    <nd ref="607886554"/>
    <nd ref="607886558"/>
    <nd ref="607886556"/>
    <nd ref="607886555"/>
    <nd ref="607886552"/>
    <nd ref="607886545"/>
    <nd ref="607886546"/>
    <nd ref="607886551"/>
    <nd ref="607886550"/>
    <nd ref="607886547"/>
    <nd ref="607886561"/>
    <nd ref="607886563"/>
    <nd ref="607886565"/>
    <nd ref="607886562"/>
    <nd ref="607886568"/>
    <nd ref="607886569"/>
    <tag k="highway" v="residential"/>
    <tag k="name" v="Leopold Place"/>
    <tag k="source" v="survey"/>
  </way>
  <way id="47795758" version="4" timestamp="2010-07-07T22:30:54Z" uid="74617" user="JohnSmith" changeset="5162525">
    <nd ref="607765183"/>
    <nd ref="607886570"/>
    <nd ref="607886566"/>
    <nd ref="607886559"/>
    <nd ref="607886554"/>
    <nd ref="607886558"/>
    <nd ref="607886556"/>
    <nd ref="607886555"/>
    <nd ref="607886552"/>
    <nd ref="607886545"/>
    <nd ref="607886546"/>
    <nd ref="607886551"/>
    <nd ref="607886550"/>
    <nd ref="607886547"/>
    <nd ref="607886561"/>
    <nd ref="607886563"/>
    <nd ref="607886565"/>
    <nd ref="607886562"/>
    <nd ref="607886568"/>
    <nd ref="607886569"/>
    <tag k="highway" v="residential"/>
    <tag k="maxspeed" v="50"/>
    <tag k="maxspeed:source" v="default residential speed limit in Australia"/>
    <tag k="name" v="Leopold Place"/>
    <tag k="source" v="survey"/>
  </way>
  <way id="47795758" version="5" timestamp="2012-01-19T20:42:33Z" uid="147510" user="woodpeck_fixbot" changeset="10440306">
    <nd ref="607765183"/>
    <nd ref="607886570"/>
    <nd ref="607886566"/>
    <nd ref="607886559"/>
    <nd ref="607886554"/>
    <nd ref="607886558"/>
    <nd ref="607886556"/>
    <nd ref="607886555"/>
    <nd ref="607886552"/>
    <nd ref="607886545"/>
    <nd ref="607886546"/>
    <nd ref="607886551"/>
    <nd ref="607886550"/>
    <nd ref="607886547"/>
    <nd ref="607886561"/>
    <nd ref="607886563"/>
    <nd ref="607886565"/>
    <nd ref="607886562"/>
    <nd ref="607886568"/>
    <nd ref="607886569"/>
    <tag k="highway" v="residential"/>
    <tag k="name" v="Leopold Place"/>
    <tag k="source" v="survey"/>
  </way>
  <way id="47795759" version="1" timestamp="2010-01-07T07:47:27Z" uid="7617" user="Franc" changeset="3559575">
    <nd ref="607765215"/>
    <nd ref="607886574"/>
    <nd ref="607886572"/>
    <tag k="highway" v="residential"/>
    <tag k="source" v="neamap"/>
  </way>
  <way id="47795759" version="2" timestamp="2010-01-11T08:26:43Z" uid="7617" user="Franc" changeset="3594095">
    <nd ref="607765215"/>
    <nd ref="607886574"/>
    <nd ref="607886572"/>
    <tag k="highway" v="residential"/>
    <tag k="source" v="nearmap"/>
  </way>
  <way id="47795759" version="3" timestamp="2010-06-12T04:07:14Z" uid="7617" user="Franc" changeset="4967554">
    <nd ref="607765215"/>
    <nd ref="769464435"/>
    <tag k="highway" v="residential"/>
    <tag k="name" v="Marion Street"/>
    <tag k="restriction" v="school_zone"/>
    <tag k="source" v="survey"/>
  </way>
  <way id="47795759" version="4" timestamp="2010-07-07T22:33:05Z" uid="74617" user="JohnSmith" changeset="5162525">
    <nd ref="607765215"/>
    <nd ref="769464435"/>
    <tag k="highway" v="residential"/>
    <tag k="maxspeed" v="50"/>
    <tag k="maxspeed:source" v="default residential speed limit in Australia"/>
    <tag k="name" v="Marion Street"/>
    <tag k="restriction" v="school_zone"/>
    <tag k="source" v="survey"/>
  </way>
  <way id="47795759" version="5" timestamp="2012-01-19T20:42:35Z" uid="147510" user="woodpeck_fixbot" changeset="10440306">
    <nd ref="607765215"/>
    <nd ref="769464435"/>
    <tag k="highway" v="residential"/>
    <tag k="name" v="Marion Street"/>
    <tag k="restriction" v="school_zone"/>
    <tag k="source" v="survey"/>
  </way>
  <way id="47795771" version="1" timestamp="2010-01-07T07:48:20Z" uid="8807" user="brendanpuck" changeset="3559580">
    <nd ref="607887221"/>
    <nd ref="607887214"/>
    <nd ref="607887200"/>
    <nd ref="414568992"/>
    <nd ref="607887196"/>
    <nd ref="607887178"/>
    <nd ref="607887179"/>
    <nd ref="607887181"/>
    <nd ref="607887172"/>
    <tag k="highway" v="residential"/>
    <tag k="name" v="Bulwer Street"/>
  </way>
  <way id="47795771" version="2" timestamp="2010-07-09T23:55:21Z" uid="74617" user="JohnSmith" changeset="5178137">
    <nd ref="607887221"/>
    <nd ref="607887214"/>
    <nd ref="607887200"/>
    <nd ref="414568992"/>
    <nd ref="607887196"/>
    <nd ref="607887178"/>
    <nd ref="607887179"/>
    <nd ref="607887181"/>
    <nd ref="607887172"/>
    <tag k="highway" v="residential"/>
    <tag k="maxspeed" v="50"/>
    <tag k="maxspeed:source" v="default residential speed limit in Australia"/>
    <tag k="name" v="Bulwer Street"/>
  </way>
  <way id="47795771" version="3" timestamp="2011-01-16T15:09:26Z" uid="69076" user="axk" changeset="6988622">
    <nd ref="607887221"/>
    <nd ref="1106228076"/>
    <nd ref="607887214"/>
    <nd ref="607887200"/>
    <nd ref="414568992"/>
    <nd ref="607887196"/>
    <nd ref="607887178"/>
    <nd ref="607887179"/>
    <nd ref="607887181"/>
    <nd ref="607887172"/>
    <tag k="highway" v="residential"/>
    <tag k="maxspeed" v="50"/>
    <tag k="maxspeed:source" v="default residential speed limit in Australia"/>
    <tag k="name" v="Bulwer Street"/>
  </way>
  <way id="47795771" version="4" timestamp="2011-12-04T10:21:23Z" uid="338866" user="tiger" changeset="10030986">
    <nd ref="607887221"/>
    <nd ref="1106228076"/>
    <nd ref="607887214"/>
    <nd ref="607887200"/>
    <nd ref="414568992"/>
    <nd ref="607887196"/>
    <nd ref="1530896077"/>
    <nd ref="607887178"/>
    <nd ref="607887179"/>
    <nd ref="607887181"/>
    <nd ref="607887172"/>
    <tag k="highway" v="residential"/>
    <tag k="maxspeed" v="50"/>
    <tag k="maxspeed:source" v="default residential speed limit in Australia"/>
    <tag k="name" v="Bulwer Street"/>
  </way>
  <way id="47795771" version="5" timestamp="2012-01-19T20:42:37Z" uid="147510" user="woodpeck_fixbot" changeset="10440306">
    <nd ref="607887221"/>
    <nd ref="1106228076"/>
    <nd ref="607887214"/>
    <nd ref="607887200"/>
    <nd ref="414568992"/>
    <nd ref="607887196"/>
    <nd ref="1530896077"/>
    <nd ref="607887178"/>
    <nd ref="607887179"/>
    <nd ref="607887181"/>
    <nd ref="607887172"/>
    <tag k="highway" v="residential"/>
    <tag k="name" v="Bulwer Street"/>
  </way>
  <way id="47795772" version="1" timestamp="2010-01-07T07:48:21Z" uid="8807" user="brendanpuck" changeset="3559580">
    <nd ref="414557132"/>
    <nd ref="414557133"/>
    <nd ref="607887175"/>
    <nd ref="607887198"/>
    <nd ref="414557134"/>
    <nd ref="607887205"/>
    <nd ref="607887213"/>
    <nd ref="607887220"/>
    <nd ref="607887216"/>
    <tag k="highway" v="residential"/>
    <tag k="layer" v="1"/>
    <tag k="name" v="Wood Street"/>
    <tag k="source" v="survey"/>
    <tag k="surface" v="asphalt"/>
  </way>
  <way id="47795772" version="2" timestamp="2010-01-07T08:23:37Z" uid="8807" user="brendanpuck" changeset="3559580">
    <nd ref="414557132"/>
    <nd ref="414557133"/>
    <nd ref="607912942"/>
    <nd ref="607887175"/>
    <nd ref="607912949"/>
    <nd ref="607887198"/>
    <nd ref="414557134"/>
    <nd ref="607887205"/>
    <nd ref="607887213"/>
    <nd ref="607887220"/>
    <nd ref="607887216"/>
    <tag k="highway" v="residential"/>
    <tag k="layer" v="1"/>
    <tag k="name" v="Wood Street"/>
    <tag k="source" v="survey"/>
    <tag k="surface" v="asphalt"/>
  </way>
  <way id="47795772" version="3" timestamp="2010-07-09T23:55:19Z" uid="74617" user="JohnSmith" changeset="5178137">
    <nd ref="414557132"/>
    <nd ref="414557133"/>
    <nd ref="607912942"/>
    <nd ref="607887175"/>
    <nd ref="607912949"/>
    <nd ref="607887198"/>
    <nd ref="414557134"/>
    <nd ref="607887205"/>
    <nd ref="607887213"/>
    <nd ref="607887220"/>
    <nd ref="607887216"/>
    <tag k="highway" v="residential"/>
    <tag k="layer" v="1"/>
    <tag k="maxspeed" v="50"/>
    <tag k="maxspeed:source" v="default residential speed limit in Australia"/>
    <tag k="name" v="Wood Street"/>
    <tag k="source" v="survey"/>
    <tag k="surface" v="asphalt"/>
  </way>
  <way id="47795772" version="4" timestamp="2011-01-16T15:08:12Z" uid="69076" user="axk" changeset="6988622">
    <nd ref="414557132"/>
    <nd ref="414557133"/>
    <nd ref="607912942"/>
    <nd ref="607887175"/>
    <nd ref="607912949"/>
    <nd ref="607887198"/>
    <nd ref="414557134"/>
    <nd ref="607887205"/>
    <nd ref="607887213"/>
    <nd ref="1106228110"/>
    <nd ref="607887220"/>
    <nd ref="607887216"/>
    <tag k="highway" v="residential"/>
    <tag k="layer" v="1"/>
    <tag k="maxspeed" v="50"/>
    <tag k="maxspeed:source" v="default residential speed limit in Australia"/>
    <tag k="name" v="Wood Street"/>
    <tag k="source" v="survey"/>
    <tag k="surface" v="asphalt"/>
  </way>
  <way id="47795772" version="5" timestamp="2011-09-09T07:32:26Z" uid="518789" user="dacca650" changeset="9251803">
    <nd ref="414557132"/>
    <nd ref="414557133"/>
    <nd ref="607912942"/>
    <nd ref="607887175"/>
    <nd ref="1427719666"/>
    <nd ref="607912949"/>
    <nd ref="607887198"/>
    <nd ref="414557134"/>
    <nd ref="607887205"/>
    <nd ref="607887213"/>
    <nd ref="1106228110"/>
    <nd ref="607887220"/>
    <nd ref="607887216"/>
    <tag k="highway" v="residential"/>
    <tag k="layer" v="1"/>
    <tag k="maxspeed" v="50"/>
    <tag k="maxspeed:source" v="default residential speed limit in Australia"/>
    <tag k="name" v="Wood Street"/>
    <tag k="source" v="survey"/>
    <tag k="surface" v="asphalt"/>
  </way>
  <way id="47795772" version="6" timestamp="2011-12-04T10:21:43Z" uid="338866" user="tiger" changeset="10030986">
    <nd ref="414557131"/>
    <nd ref="607912942"/>
    <nd ref="607887175"/>
    <nd ref="1427719666"/>
    <nd ref="607912949"/>
    <nd ref="607887198"/>
    <nd ref="414557134"/>
    <nd ref="607887205"/>
    <nd ref="607887213"/>
    <nd ref="1106228110"/>
    <nd ref="607887220"/>
    <nd ref="607887216"/>
    <tag k="highway" v="residential"/>
    <tag k="layer" v="1"/>
    <tag k="maxspeed" v="50"/>
    <tag k="maxspeed:source" v="default residential speed limit in Australia"/>
    <tag k="name" v="Wood Street"/>
    <tag k="source" v="survey"/>
    <tag k="surface" v="asphalt"/>
  </way>
  <way id="47795772" version="7" timestamp="2012-01-19T20:42:39Z" uid="147510" user="woodpeck_fixbot" changeset="10440306">
    <nd ref="414557131"/>
    <nd ref="607912942"/>
    <nd ref="607887175"/>
    <nd ref="1427719666"/>
    <nd ref="607912949"/>
    <nd ref="607887198"/>
    <nd ref="414557134"/>
    <nd ref="607887205"/>
    <nd ref="607887213"/>
    <nd ref="1106228110"/>
    <nd ref="607887220"/>
    <nd ref="607887216"/>
    <tag k="highway" v="residential"/>
    <tag k="layer" v="1"/>
    <tag k="name" v="Wood Street"/>
    <tag k="source" v="survey"/>
    <tag k="surface" v="asphalt"/>
  </way>
  <way id="47795773" version="1" timestamp="2010-01-07T07:48:21Z" uid="8807" user="brendanpuck" changeset="3559580">
    <nd ref="607887211"/>
    <nd ref="607887222"/>
    <tag k="highway" v="residential"/>
    <tag k="name" v="East Street"/>
  </way>
  <way id="47795773" version="2" timestamp="2010-07-09T23:55:15Z" uid="74617" user="JohnSmith" changeset="5178137">
    <nd ref="607887211"/>
    <nd ref="607887222"/>
    <tag k="highway" v="residential"/>
    <tag k="maxspeed" v="50"/>
    <tag k="maxspeed:source" v="default residential speed limit in Australia"/>
    <tag k="name" v="East Street"/>
  </way>
  <way id="47795773" version="3" timestamp="2011-01-16T15:09:03Z" uid="69076" user="axk" changeset="6988622">
    <nd ref="607887211"/>
    <nd ref="1106228093"/>
    <nd ref="607887222"/>
    <tag k="highway" v="residential"/>
    <tag k="maxspeed" v="50"/>
    <tag k="maxspeed:source" v="default residential speed limit in Australia"/>
    <tag k="name" v="East Street"/>
  </way>
  <way id="47795773" version="4" timestamp="2012-01-19T20:42:43Z" uid="147510" user="woodpeck_fixbot" changeset="10440306">
    <nd ref="607887211"/>
    <nd ref="1106228093"/>
    <nd ref="607887222"/>
    <tag k="highway" v="residential"/>
    <tag k="name" v="East Street"/>
  </way>
  <way id="47795774" version="1" timestamp="2010-01-07T07:48:21Z" uid="8807" user="brendanpuck" changeset="3559580">
    <nd ref="91295453"/>
    <nd ref="607887190"/>
    <nd ref="607887192"/>
    <nd ref="443213497"/>
    <nd ref="607887162"/>
    <tag k="highway" v="unclassified"/>
    <tag k="name" v="High Street"/>
  </way>
  <way id="47795774" version="2" timestamp="2010-07-09T23:55:22Z" uid="74617" user="JohnSmith" changeset="5178137">
    <nd ref="91295453"/>
    <nd ref="607887190"/>
    <nd ref="607887192"/>
    <nd ref="443213497"/>
    <nd ref="607887162"/>
    <tag k="highway" v="unclassified"/>
    <tag k="maxspeed" v="50"/>
    <tag k="maxspeed:source" v="default residential speed limit in Australia"/>
    <tag k="name" v="High Street"/>
  </way>
  <way id="47795774" version="3" timestamp="2012-01-19T20:42:45Z" uid="147510" user="woodpeck_fixbot" changeset="10440306">
    <nd ref="91295453"/>
    <nd ref="607887190"/>
    <nd ref="607887192"/>
    <nd ref="443213497"/>
    <nd ref="607887162"/>
    <tag k="highway" v="unclassified"/>
    <tag k="name" v="High Street"/>
  </way>
  <way id="47795775" version="1" timestamp="2010-01-07T07:48:21Z" uid="8807" user="brendanpuck" changeset="3559580">
    <nd ref="607887207"/>
    <nd ref="607887208"/>
    <nd ref="607887210"/>
    <tag k="highway" v="residential"/>
    <tag k="name" v="East Street"/>
  </way>
  <way id="47795775" version="2" timestamp="2010-07-09T23:55:19Z" uid="74617" user="JohnSmith" changeset="5178137">
    <nd ref="607887207"/>
    <nd ref="607887208"/>
    <nd ref="607887210"/>
    <tag k="highway" v="residential"/>
    <tag k="maxspeed" v="50"/>
    <tag k="maxspeed:source" v="default residential speed limit in Australia"/>
    <tag k="name" v="East Street"/>
  </way>
  <way id="47795775" version="3" timestamp="2012-01-19T20:42:47Z" uid="147510" user="woodpeck_fixbot" changeset="10440306">
    <nd ref="607887207"/>
    <nd ref="607887208"/>
    <nd ref="607887210"/>
    <tag k="highway" v="residential"/>
    <tag k="name" v="East Street"/>
  </way>
  <way id="47795776" version="1" timestamp="2010-01-07T07:48:21Z" uid="8807" user="brendanpuck" changeset="3559580">
    <nd ref="607887208"/>
    <nd ref="607887205"/>
    <nd ref="607887200"/>
    <nd ref="607887202"/>
    <nd ref="607887203"/>
    <nd ref="607887188"/>
    <nd ref="443213494"/>
    <tag k="highway" v="tertiary"/>
    <tag k="maxspeed" v="50"/>
  </way>
  <way id="47795776" version="2" timestamp="2011-12-04T10:31:15Z" uid="338866" user="tiger" changeset="10030986">
    <nd ref="607887208"/>
    <nd ref="607887205"/>
    <nd ref="607887200"/>
    <nd ref="607887202"/>
    <nd ref="607887203"/>
    <nd ref="607887188"/>
    <nd ref="1357642229"/>
    <nd ref="443213494"/>
    <tag k="highway" v="tertiary"/>
    <tag k="maxspeed" v="50"/>
  </way>
  <way id="47795777" version="1" timestamp="2010-01-07T07:48:21Z" uid="8807" user="brendanpuck" changeset="3559580">
    <nd ref="607887176"/>
    <nd ref="607887174"/>
    <nd ref="607887195"/>
    <tag k="highway" v="residential"/>
    <tag k="name" v="East Street"/>
  </way>
  <way id="47795777" version="2" timestamp="2010-07-09T23:55:18Z" uid="74617" user="JohnSmith" changeset="5178137">
    <nd ref="607887176"/>
    <nd ref="607887174"/>
    <nd ref="607887195"/>
    <tag k="highway" v="residential"/>
    <tag k="maxspeed" v="50"/>
    <tag k="maxspeed:source" v="default residential speed limit in Australia"/>
    <tag k="name" v="East Street"/>
  </way>
  <way id="47795777" version="3" timestamp="2012-01-19T20:42:50Z" uid="147510" user="woodpeck_fixbot" changeset="10440306">
    <nd ref="607887176"/>
    <nd ref="607887174"/>
    <nd ref="607887195"/>
    <tag k="highway" v="residential"/>
    <tag k="name" v="East Street"/>
  </way>
  <way id="47795778" version="1" timestamp="2010-01-07T07:48:21Z" uid="8807" user="brendanpuck" changeset="3559580">
    <nd ref="607887195"/>
    <nd ref="607887198"/>
    <nd ref="414568992"/>
    <tag k="highway" v="unclassified"/>
    <tag k="name" v="High Street"/>
  </way>
  <way id="47795778" version="2" timestamp="2010-07-09T23:55:14Z" uid="74617" user="JohnSmith" changeset="5178137">
    <nd ref="607887195"/>
    <nd ref="607887198"/>
    <nd ref="414568992"/>
    <tag k="highway" v="unclassified"/>
    <tag k="maxspeed" v="50"/>
    <tag k="maxspeed:source" v="default residential speed limit in Australia"/>
    <tag k="name" v="High Street"/>
  </way>
  <way id="47795778" version="3" timestamp="2012-01-19T20:42:53Z" uid="147510" user="woodpeck_fixbot" changeset="10440306">
    <nd ref="607887195"/>
    <nd ref="607887198"/>
    <nd ref="414568992"/>
    <tag k="highway" v="unclassified"/>
    <tag k="name" v="High Street"/>
  </way>
  <way id="47795779" version="1" timestamp="2010-01-07T07:48:21Z" uid="8807" user="brendanpuck" changeset="3559580">
    <nd ref="607887182"/>
    <nd ref="607887190"/>
    <nd ref="607887188"/>
    <nd ref="607887193"/>
    <nd ref="607887204"/>
    <nd ref="607887214"/>
    <nd ref="607887213"/>
    <nd ref="607887211"/>
    <tag k="highway" v="unclassified"/>
    <tag k="name" v="Scott Street"/>
  </way>
  <way id="47795779" version="2" timestamp="2010-01-07T08:23:39Z" uid="8807" user="brendanpuck" changeset="3559580">
    <nd ref="607887182"/>
    <nd ref="607887190"/>
    <nd ref="607887188"/>
    <nd ref="607887193"/>
    <tag k="highway" v="unclassified"/>
    <tag k="name" v="Scott Street"/>
  </way>
  <way id="47795779" version="3" timestamp="2010-07-09T23:55:22Z" uid="74617" user="JohnSmith" changeset="5178137">
    <nd ref="607887182"/>
    <nd ref="607887190"/>
    <nd ref="607887188"/>
    <nd ref="607887193"/>
    <tag k="highway" v="unclassified"/>
    <tag k="maxspeed" v="50"/>
    <tag k="maxspeed:source" v="default residential speed limit in Australia"/>
    <tag k="name" v="Scott Street"/>
  </way>
  <way id="47795779" version="4" timestamp="2012-01-19T20:42:54Z" uid="147510" user="woodpeck_fixbot" changeset="10440306">
    <nd ref="607887182"/>
    <nd ref="607887190"/>
    <nd ref="607887188"/>
    <nd ref="607887193"/>
    <tag k="highway" v="unclassified"/>
    <tag k="name" v="Scott Street"/>
  </way>
  <way id="47795780" version="1" timestamp="2010-01-07T07:48:21Z" uid="8807" user="brendanpuck" changeset="3559580">
    <nd ref="607887183"/>
    <nd ref="607887185"/>
    <tag k="highway" v="unclassified"/>
    <tag k="name" v="Crown Street"/>
  </way>
  <way id="47795780" version="2" timestamp="2010-07-09T23:55:19Z" uid="74617" user="JohnSmith" changeset="5178137">
    <nd ref="607887183"/>
    <nd ref="607887185"/>
    <tag k="highway" v="unclassified"/>
    <tag k="maxspeed" v="50"/>
    <tag k="maxspeed:source" v="default residential speed limit in Australia"/>
    <tag k="name" v="Crown Street"/>
  </way>
  <way id="47795780" version="3" timestamp="2012-01-19T20:42:57Z" uid="147510" user="woodpeck_fixbot" changeset="10440306">
    <nd ref="607887183"/>
    <nd ref="607887185"/>
    <tag k="highway" v="unclassified"/>
    <tag k="name" v="Crown Street"/>
  </way>
  <way id="47795781" version="1" timestamp="2010-01-07T07:48:21Z" uid="8807" user="brendanpuck" changeset="3559580">
    <nd ref="607887199"/>
    <nd ref="607887185"/>
  </way>
  <way id="47795781" version="2" timestamp="2010-01-08T04:54:58Z" uid="8807" user="brendanpuck" changeset="3567642">
    <nd ref="608957045"/>
    <nd ref="607887199"/>
    <nd ref="607887185"/>
    <nd ref="608957044"/>
    <tag k="highway" v="unclassified"/>
    <tag k="name" v="Miles Street"/>
  </way>
  <way id="47795781" version="3" timestamp="2010-01-08T05:16:49Z" uid="8807" user="brendanpuck" changeset="3567676">
    <nd ref="608957045"/>
    <nd ref="607887199"/>
    <nd ref="607887185"/>
    <nd ref="608957889"/>
    <nd ref="608957044"/>
    <tag k="highway" v="unclassified"/>
    <tag k="name" v="Miles Street"/>
  </way>
  <way id="47795781" version="4" timestamp="2010-07-09T23:55:17Z" uid="74617" user="JohnSmith" changeset="5178137">
    <nd ref="608957045"/>
    <nd ref="607887199"/>
    <nd ref="607887185"/>
    <nd ref="608957889"/>
    <nd ref="608957044"/>
    <tag k="highway" v="unclassified"/>
    <tag k="maxspeed" v="50"/>
    <tag k="maxspeed:source" v="default residential speed limit in Australia"/>
    <tag k="name" v="Miles Street"/>
  </way>
  <way id="47795781" version="5" timestamp="2011-09-09T07:32:26Z" uid="518789" user="dacca650" changeset="9251803">
    <nd ref="1427719666"/>
    <nd ref="608957045"/>
    <nd ref="607887199"/>
    <nd ref="607887185"/>
    <nd ref="608957889"/>
    <nd ref="608957044"/>
    <tag k="highway" v="unclassified"/>
    <tag k="maxspeed" v="50"/>
    <tag k="maxspeed:source" v="default residential speed limit in Australia"/>
    <tag k="name" v="Miles Street"/>
  </way>
  <way id="47795781" version="6" timestamp="2011-12-04T10:21:33Z" uid="338866" user="tiger" changeset="10030986">
    <nd ref="1427719666"/>
    <nd ref="1530896077"/>
    <nd ref="608957045"/>
    <nd ref="607887199"/>
    <nd ref="607887185"/>
    <nd ref="608957889"/>
    <nd ref="608957044"/>
    <tag k="highway" v="unclassified"/>
    <tag k="maxspeed" v="50"/>
    <tag k="maxspeed:source" v="default residential speed limit in Australia"/>
    <tag k="name" v="Miles Street"/>
  </way>
  <way id="47795781" version="7" timestamp="2012-01-19T20:43:00Z" uid="147510" user="woodpeck_fixbot" changeset="10440306">
    <nd ref="1427719666"/>
    <nd ref="1530896077"/>
    <nd ref="608957045"/>
    <nd ref="607887199"/>
    <nd ref="607887185"/>
    <nd ref="608957889"/>
    <nd ref="608957044"/>
    <tag k="highway" v="unclassified"/>
    <tag k="name" v="Miles Street"/>
  </way>
  <way id="47795782" version="1" timestamp="2010-01-07T07:48:22Z" uid="8807" user="brendanpuck" changeset="3559580">
    <nd ref="607887186"/>
    <nd ref="607887166"/>
    <nd ref="607887167"/>
    <nd ref="607887169"/>
    <tag k="highway" v="residential"/>
    <tag k="name" v="Scott Street"/>
  </way>
  <way id="47795782" version="2" timestamp="2010-01-08T05:16:49Z" uid="8807" user="brendanpuck" changeset="3567676">
    <nd ref="608957889"/>
    <nd ref="607887186"/>
    <nd ref="607887166"/>
    <nd ref="607887167"/>
    <nd ref="607887169"/>
    <tag k="highway" v="residential"/>
    <tag k="name" v="Scott Street"/>
  </way>
  <way id="47795782" version="3" timestamp="2010-07-09T23:55:22Z" uid="74617" user="JohnSmith" changeset="5178137">
    <nd ref="608957889"/>
    <nd ref="607887186"/>
    <nd ref="607887166"/>
    <nd ref="607887167"/>
    <nd ref="607887169"/>
    <tag k="highway" v="residential"/>
    <tag k="maxspeed" v="50"/>
    <tag k="maxspeed:source" v="default residential speed limit in Australia"/>
    <tag k="name" v="Scott Street"/>
  </way>
  <way id="47795782" version="4" timestamp="2012-01-19T20:43:02Z" uid="147510" user="woodpeck_fixbot" changeset="10440306">
    <nd ref="608957889"/>
    <nd ref="607887186"/>
    <nd ref="607887166"/>
    <nd ref="607887167"/>
    <nd ref="607887169"/>
    <tag k="highway" v="residential"/>
    <tag k="name" v="Scott Street"/>
  </way>
  <way id="47795783" version="1" timestamp="2010-01-07T07:48:22Z" uid="8807" user="brendanpuck" changeset="3559580">
    <nd ref="607887169"/>
    <nd ref="607887170"/>
    <nd ref="607887164"/>
    <tag k="highway" v="service"/>
    <tag k="service" v="alley"/>
  </way>
  <way id="47795784" version="1" timestamp="2010-01-07T07:48:22Z" uid="8807" user="brendanpuck" changeset="3559580">
    <nd ref="607887222"/>
    <nd ref="607887220"/>
    <nd ref="607887221"/>
    <nd ref="607887218"/>
    <tag k="highway" v="residential"/>
    <tag k="name" v="Cowper Street"/>
  </way>
  <way id="47795784" version="2" timestamp="2010-07-09T23:55:16Z" uid="74617" user="JohnSmith" changeset="5178137">
    <nd ref="607887222"/>
    <nd ref="607887220"/>
    <nd ref="607887221"/>
    <nd ref="607887218"/>
    <tag k="highway" v="residential"/>
    <tag k="maxspeed" v="50"/>
    <tag k="maxspeed:source" v="default residential speed limit in Australia"/>
    <tag k="name" v="Cowper Street"/>
  </way>
  <way id="47795784" version="3" timestamp="2012-01-19T20:43:06Z" uid="147510" user="woodpeck_fixbot" changeset="10440306">
    <nd ref="607887222"/>
    <nd ref="607887220"/>
    <nd ref="607887221"/>
    <nd ref="607887218"/>
    <tag k="highway" v="residential"/>
    <tag k="name" v="Cowper Street"/>
  </way>
  <way id="47795792" version="3" timestamp="2010-10-29T06:36:50Z" uid="33382" user="de_muur" changeset="6214804">
    <nd ref="255840265"/>
    <nd ref="60643844"/>
    <tag k="foot" v="yes"/>
    <tag k="highway" v="cycleway"/>
  </way>
  <way id="47795792" version="4" timestamp="2010-12-12T19:04:58Z" uid="57645" user="KartoGrapHiti" changeset="6640324">
    <nd ref="255840265"/>
    <nd ref="60643844"/>
    <tag k="bicycle" v="yes"/>
    <tag k="foot" v="yes"/>
    <tag k="highway" v="path"/>
  </way>
  <way id="47795792" version="5" timestamp="2012-03-18T17:13:14Z" uid="45882" user="smarties" changeset="11021411"/>
</osm>
