<?xml version='1.0' encoding='UTF-8'?>
<osm version="0.6" generator="libosmium/2.20.0">
  <way id="48173018" version="1" timestamp="2010-01-12T14:26:47Z" uid="115477" user="wowik" changeset="3603408">
    <nd ref="612225066"/>
    <nd ref="612225213"/>
    <nd ref="612226296"/>
    <nd ref="612224031"/>
    <nd ref="612224035"/>
    <nd ref="612226300"/>
    <nd ref="612225216"/>
    <nd ref="612225118"/>
    <nd ref="612225127"/>
    <nd ref="612224041"/>
    <nd ref="612224043"/>
    <nd ref="612224048"/>
    <nd ref="612224053"/>
    <nd ref="612224061"/>
    <nd ref="612224067"/>
    <nd ref="612224073"/>
    <nd ref="612224078"/>
    <nd ref="612224083"/>
    <nd ref="612224098"/>
    <tag k="addr:city" v="Зеленоград"/>
    <tag k="addr:housenumber" v="8С1"/>
    <tag k="addr:street" v="Каштановая аллея"/>
    <tag k="building" v="yes"/>
    <tag k="is_in" v="Russia"/>
    <tag k="name" v="Бюро судебно-медицинской экспертизы"/>
  </way>
  <way id="48173018" version="2" timestamp="2010-01-12T14:26:59Z" uid="115477" user="wowik" changeset="3603408">
    <nd ref="612225066"/>
    <nd ref="612225213"/>
    <nd ref="612226296"/>
    <nd ref="612224031"/>
    <nd ref="612224035"/>
    <nd ref="612226300"/>
    <nd ref="612225216"/>
    <nd ref="612225118"/>
    <tag k="addr:city" v="Зеленоград"/>
    <tag k="addr:housenumber" v="8С1"/>
    <tag k="addr:street" v="Каштановая аллея"/>
    <tag k="building" v="yes"/>
    <tag k="is_in" v="Russia"/>
  </way>
  <way id="48173018" version="3" timestamp="2010-01-12T14:27:12Z" uid="115477" user="wowik" changeset="3603408">
    <nd ref="612225118"/>
    <nd ref="612225066"/>
    <nd ref="612225213"/>
    <nd ref="612226296"/>
    <nd ref="612224031"/>
    <nd ref="612224035"/>
    <nd ref="612226300"/>
    <nd ref="612225216"/>
    <nd ref="612231085"/>
    <tag k="addr:city" v="Зеленоград"/>
    <tag k="addr:housenumber" v="8С1"/>
    <tag k="addr:street" v="Каштановая аллея"/>
    <tag k="building" v="yes"/>
    <tag k="is_in" v="Russia"/>
  </way>
  <way id="48173018" version="4" timestamp="2010-01-12T14:27:18Z" uid="115477" user="wowik" changeset="3603408"/>
  <way id="48173021" version="1" timestamp="2010-01-12T14:26:58Z" uid="115477" user="wowik" changeset="3603408">
    <nd ref="612225118"/>
    <nd ref="612225127"/>
    <nd ref="612224041"/>
    <nd ref="612224043"/>
    <nd ref="612224048"/>
    <nd ref="612224053"/>
    <nd ref="612224061"/>
    <nd ref="612224067"/>
    <nd ref="612224073"/>
    <nd ref="612224078"/>
    <nd ref="612224083"/>
    <nd ref="612224098"/>
    <tag k="addr:city" v="Зеленоград"/>
    <tag k="addr:housenumber" v="8С1"/>
    <tag k="addr:street" v="Каштановая аллея"/>
    <tag k="building" v="yes"/>
    <tag k="is_in" v="Russia"/>
  </way>
  <way id="48173021" version="2" timestamp="2010-01-12T14:28:14Z" uid="115477" user="wowik" changeset="3603408">
    <nd ref="612224098"/>
    <nd ref="612225055"/>
    <nd ref="612225066"/>
    <nd ref="612225118"/>
    <nd ref="612225127"/>
    <nd ref="612224041"/>
    <nd ref="612224043"/>
    <nd ref="612224048"/>
    <nd ref="612224053"/>
    <nd ref="612224061"/>
    <nd ref="612224067"/>
    <nd ref="612224073"/>
    <nd ref="612224078"/>
    <nd ref="612224083"/>
    <nd ref="612224098"/>
    <tag k="addr:city" v="Зеленоград"/>
    <tag k="addr:housenumber" v="8С1"/>
    <tag k="addr:street" v="Каштановая аллея"/>
    <tag k="building" v="yes"/>
    <tag k="is_in" v="Russia"/>
    <tag k="name" v="Бюро судебно-медицинской экспертизы"/>
  </way>
  <way id="48173021" version="3" timestamp="2010-01-12T14:28:19Z" uid="115477" user="wowik" changeset="3603408">
    <nd ref="612224098"/>
    <nd ref="612225055"/>
    <nd ref="612225066"/>
    <nd ref="612225118"/>
    <nd ref="612225127"/>
    <nd ref="612224041"/>
    <nd ref="612224043"/>
    <nd ref="612224048"/>
    <nd ref="612224053"/>
    <nd ref="612224061"/>
    <nd ref="612224067"/>
    <nd ref="612224073"/>
    <nd ref="612224078"/>
    <nd ref="612224083"/>
    <nd ref="612224098"/>
    <tag k="addr:city" v="Зеленоград"/>
    <tag k="addr:housenumber" v="8С1"/>
    <tag k="addr:street" v="Каштановая аллея"/>
    <tag k="building" v="yes"/>
    <tag k="is_in" v="Russia"/>
  </way>
  <way id="48173021" version="4" timestamp="2010-01-12T14:31:15Z" uid="115477" user="wowik" changeset="3603408">
    <nd ref="612224098"/>
    <nd ref="612225055"/>
    <nd ref="612225066"/>
    <nd ref="612225118"/>
    <nd ref="612225127"/>
    <nd ref="612224041"/>
    <nd ref="612224043"/>
    <nd ref="612224048"/>
    <nd ref="612224053"/>
    <nd ref="612224061"/>
    <nd ref="612224067"/>
    <nd ref="612224073"/>
    <nd ref="612224078"/>
    <nd ref="612224083"/>
    <nd ref="612224098"/>
    <tag k="addr:city" v="Зеленоград"/>
    <tag k="addr:housenumber" v="2С13"/>
    <tag k="addr:street" v="Каштановая аллея"/>
    <tag k="amenity" v="hospital"/>
    <tag k="building" v="yes"/>
    <tag k="is_in" v="Russia"/>
    <tag k="name" v="Наркологический диспансер № 10"/>
  </way>
  <way id="48173021" version="5" timestamp="2010-01-12T14:31:24Z" uid="115477" user="wowik" changeset="3603408">
    <nd ref="612224098"/>
    <nd ref="612225055"/>
    <nd ref="612225066"/>
    <nd ref="612225118"/>
    <nd ref="612225127"/>
    <nd ref="612224041"/>
    <nd ref="612224043"/>
    <nd ref="612224048"/>
    <nd ref="612224053"/>
    <nd ref="612224061"/>
    <nd ref="612224067"/>
    <nd ref="612224073"/>
    <nd ref="612224078"/>
    <nd ref="612224083"/>
    <nd ref="612224098"/>
    <tag k="addr:city" v="Зеленоград"/>
    <tag k="addr:housenumber" v="8С1"/>
    <tag k="addr:street" v="Каштановая аллея"/>
    <tag k="amenity" v="hospital"/>
    <tag k="building" v="yes"/>
    <tag k="is_in" v="Russia"/>
    <tag k="name" v="Наркологический диспансер № 10"/>
  </way>
  <way id="48173021" version="6" timestamp="2010-01-20T07:55:38Z" uid="70202" user="physiocrat" changeset="3664615">
    <nd ref="612224098"/>
    <nd ref="612225055"/>
    <nd ref="612225066"/>
    <nd ref="612225118"/>
    <nd ref="612225127"/>
    <nd ref="612224041"/>
    <nd ref="612224043"/>
    <nd ref="612224048"/>
    <nd ref="612224053"/>
    <nd ref="612224061"/>
    <nd ref="612224067"/>
    <nd ref="612224073"/>
    <nd ref="612224078"/>
    <nd ref="612224083"/>
    <nd ref="612224098"/>
    <tag k="addr:city" v="Зеленоград"/>
    <tag k="addr:housenumber" v="8С1"/>
    <tag k="addr:street" v="Каштановая аллея"/>
    <tag k="amenity" v="hospital"/>
    <tag k="building" v="yes"/>
    <tag k="cladr:code" v="77000002000454500"/>
    <tag k="is_in" v="Russia"/>
    <tag k="name" v="Наркологический диспансер № 10"/>
  </way>
  <way id="48173021" version="7" timestamp="2011-01-17T10:48:28Z" uid="115477" user="wowik" changeset="6997945">
    <nd ref="612224098"/>
    <nd ref="612225055"/>
    <nd ref="612225066"/>
    <nd ref="612225118"/>
    <nd ref="612225127"/>
    <nd ref="612224041"/>
    <nd ref="612224043"/>
    <nd ref="612224048"/>
    <nd ref="612224053"/>
    <nd ref="612224061"/>
    <nd ref="612224067"/>
    <nd ref="612224073"/>
    <nd ref="612224078"/>
    <nd ref="612224083"/>
    <nd ref="612224098"/>
    <tag k="addr:city" v="Зеленоград"/>
    <tag k="addr:housenumber" v="8с1"/>
    <tag k="addr:street" v="Каштановая аллея"/>
    <tag k="amenity" v="hospital"/>
    <tag k="building" v="yes"/>
    <tag k="cladr:code" v="77000002000454500"/>
    <tag k="is_in" v="Russia"/>
    <tag k="name" v="Наркологический диспансер № 10"/>
  </way>
  <way id="48173021" version="8" timestamp="2011-01-19T16:26:39Z" uid="70696" user="xybot" changeset="7021015">
    <nd ref="612224098"/>
    <nd ref="612225055"/>
    <nd ref="612225066"/>
    <nd ref="612225118"/>
    <nd ref="612225127"/>
    <nd ref="612224041"/>
    <nd ref="612224043"/>
    <nd ref="612224048"/>
    <nd ref="612224053"/>
    <nd ref="612224061"/>
    <nd ref="612224067"/>
    <nd ref="612224073"/>
    <nd ref="612224078"/>
    <nd ref="612224083"/>
    <nd ref="612224098"/>
    <tag k="addr:city" v="Зеленоград"/>
    <tag k="addr:housenumber" v="8 с1"/>
    <tag k="addr:street" v="Каштановая аллея"/>
    <tag k="amenity" v="hospital"/>
    <tag k="building" v="yes"/>
    <tag k="cladr:code" v="77000002000454500"/>
    <tag k="is_in" v="Russia"/>
    <tag k="name" v="Наркологический диспансер № 10"/>
  </way>
  <way id="48173021" version="9" timestamp="2011-03-29T09:58:34Z" uid="206282" user="Amigo" changeset="7705192">
    <nd ref="612224098"/>
    <nd ref="612225055"/>
    <nd ref="612225066"/>
    <nd ref="612225118"/>
    <nd ref="612225127"/>
    <nd ref="612224041"/>
    <nd ref="612224043"/>
    <nd ref="612224048"/>
    <nd ref="612224053"/>
    <nd ref="612224061"/>
    <nd ref="612224067"/>
    <nd ref="612224073"/>
    <nd ref="612224078"/>
    <nd ref="612224083"/>
    <nd ref="612224098"/>
    <tag k="addr:city" v="Зеленоград"/>
    <tag k="addr:housenumber" v="8 с1"/>
    <tag k="addr:street" v="Каштановая аллея"/>
    <tag k="amenity" v="doctors"/>
    <tag k="building" v="yes"/>
    <tag k="cladr:code" v="77000002000454500"/>
    <tag k="is_in" v="Russia"/>
    <tag k="name" v="Наркологический диспансер №10"/>
  </way>
  <way id="48173021" version="10" timestamp="2011-09-13T10:30:47Z" uid="29320" user="Komяpa" changeset="9288237">
    <nd ref="612224098"/>
    <nd ref="612225055"/>
    <nd ref="612225066"/>
    <nd ref="612225118"/>
    <nd ref="612225127"/>
    <nd ref="612224041"/>
    <nd ref="612224043"/>
    <nd ref="612224048"/>
    <nd ref="612224053"/>
    <nd ref="612224061"/>
    <nd ref="612224067"/>
    <nd ref="612224073"/>
    <nd ref="612224078"/>
    <nd ref="612224083"/>
    <nd ref="612224098"/>
    <tag k="addr:city" v="Зеленоград"/>
    <tag k="addr:country" v="RU"/>
    <tag k="addr:housenumber" v="8 с1"/>
    <tag k="addr:street" v="Каштановая аллея"/>
    <tag k="amenity" v="doctors"/>
    <tag k="building" v="yes"/>
    <tag k="cladr:code" v="77000002000454500"/>
    <tag k="name" v="Наркологический диспансер №10"/>
  </way>
  <way id="48173021" version="11" timestamp="2012-03-27T11:47:37Z" uid="481934" user="iWowik" changeset="11115472">
    <nd ref="612224098"/>
    <nd ref="612225055"/>
    <nd ref="612225066"/>
    <nd ref="612225118"/>
    <nd ref="612225127"/>
    <nd ref="612224041"/>
    <nd ref="612224043"/>
    <nd ref="612224048"/>
    <nd ref="612224053"/>
    <nd ref="612224061"/>
    <nd ref="612224067"/>
    <nd ref="612224073"/>
    <nd ref="612224078"/>
    <nd ref="612224083"/>
    <nd ref="612224098"/>
    <tag k="addr:city" v="Зеленоград"/>
    <tag k="addr:country" v="RU"/>
    <tag k="addr:housenumber" v="8 с1"/>
    <tag k="addr:region" v="Москва"/>
    <tag k="addr:street" v="Каштановая аллея"/>
    <tag k="amenity" v="doctors"/>
    <tag k="building" v="yes"/>
    <tag k="cladr:code" v="77000002000454500"/>
    <tag k="name" v="Наркологический диспансер №10"/>
  </way>
  <way id="48173023" version="1" timestamp="2010-01-12T14:27:15Z" uid="115477" user="wowik" changeset="3603408">
    <nd ref="612231085"/>
    <nd ref="612231163"/>
  </way>
  <way id="48173023" version="2" timestamp="2010-01-12T14:27:18Z" uid="115477" user="wowik" changeset="3603408">
    <nd ref="612231163"/>
    <nd ref="612225118"/>
    <nd ref="612225066"/>
    <nd ref="612225213"/>
    <nd ref="612226296"/>
    <nd ref="612224031"/>
    <nd ref="612224035"/>
    <nd ref="612226300"/>
    <nd ref="612225216"/>
    <nd ref="612231085"/>
    <nd ref="612231163"/>
    <tag k="addr:city" v="Зеленоград"/>
    <tag k="addr:housenumber" v="8С1"/>
    <tag k="addr:street" v="Каштановая аллея"/>
    <tag k="building" v="yes"/>
    <tag k="is_in" v="Russia"/>
  </way>
  <way id="48173023" version="3" timestamp="2010-01-12T14:27:22Z" uid="115477" user="wowik" changeset="3603408">
    <nd ref="612231163"/>
    <nd ref="612225118"/>
    <nd ref="612225066"/>
    <nd ref="612225213"/>
    <nd ref="612226296"/>
    <nd ref="612224031"/>
    <nd ref="612224035"/>
    <nd ref="612226300"/>
    <nd ref="612225216"/>
    <nd ref="612231085"/>
    <tag k="addr:city" v="Зеленоград"/>
    <tag k="addr:housenumber" v="8С1"/>
    <tag k="addr:street" v="Каштановая аллея"/>
    <tag k="building" v="yes"/>
    <tag k="is_in" v="Russia"/>
  </way>
  <way id="48173023" version="4" timestamp="2010-01-12T14:27:24Z" uid="115477" user="wowik" changeset="3603408">
    <nd ref="612231085"/>
    <nd ref="612231163"/>
    <nd ref="612225118"/>
    <nd ref="612225066"/>
    <nd ref="612225213"/>
    <nd ref="612226296"/>
    <nd ref="612224031"/>
    <nd ref="612224035"/>
    <nd ref="612226300"/>
    <nd ref="612225216"/>
    <nd ref="612231085"/>
    <tag k="addr:city" v="Зеленоград"/>
    <tag k="addr:housenumber" v="8С1"/>
    <tag k="addr:street" v="Каштановая аллея"/>
    <tag k="building" v="yes"/>
    <tag k="is_in" v="Russia"/>
  </way>
  <way id="48173023" version="5" timestamp="2010-01-12T14:27:37Z" uid="115477" user="wowik" changeset="3603408">
    <nd ref="612231085"/>
    <nd ref="612231163"/>
    <nd ref="612225118"/>
    <nd ref="612225066"/>
    <nd ref="612225213"/>
    <nd ref="612226296"/>
    <nd ref="612224031"/>
    <nd ref="612224035"/>
    <nd ref="612226300"/>
    <nd ref="612225216"/>
    <tag k="addr:city" v="Зеленоград"/>
    <tag k="addr:housenumber" v="8С1"/>
    <tag k="addr:street" v="Каштановая аллея"/>
    <tag k="building" v="yes"/>
    <tag k="is_in" v="Russia"/>
  </way>
  <way id="48173023" version="6" timestamp="2010-01-12T14:27:38Z" uid="115477" user="wowik" changeset="3603408">
    <nd ref="612225216"/>
    <nd ref="612231085"/>
    <nd ref="612231163"/>
    <nd ref="612225118"/>
    <nd ref="612225066"/>
    <nd ref="612225213"/>
    <nd ref="612226296"/>
    <nd ref="612224031"/>
    <nd ref="612224035"/>
    <nd ref="612226300"/>
    <nd ref="612225216"/>
    <tag k="addr:city" v="Зеленоград"/>
    <tag k="addr:housenumber" v="8С1"/>
    <tag k="addr:street" v="Каштановая аллея"/>
    <tag k="building" v="yes"/>
    <tag k="is_in" v="Russia"/>
  </way>
  <way id="48173023" version="7" timestamp="2010-01-12T14:27:54Z" uid="115477" user="wowik" changeset="3603408">
    <nd ref="612225216"/>
    <nd ref="612231085"/>
    <nd ref="612231163"/>
    <nd ref="612225118"/>
    <nd ref="612225066"/>
    <nd ref="612225213"/>
    <nd ref="612226296"/>
    <nd ref="612224031"/>
    <nd ref="612226300"/>
    <nd ref="612225216"/>
    <tag k="addr:city" v="Зеленоград"/>
    <tag k="addr:housenumber" v="8С1"/>
    <tag k="addr:street" v="Каштановая аллея"/>
    <tag k="building" v="yes"/>
    <tag k="is_in" v="Russia"/>
  </way>
  <way id="48173023" version="8" timestamp="2010-01-12T14:28:22Z" uid="115477" user="wowik" changeset="3603408">
    <nd ref="612225216"/>
    <nd ref="612231085"/>
    <nd ref="612231163"/>
    <nd ref="612225118"/>
    <nd ref="612225066"/>
    <nd ref="612225213"/>
    <nd ref="612226296"/>
    <nd ref="612224031"/>
    <nd ref="612226300"/>
    <nd ref="612225216"/>
    <tag k="addr:city" v="Зеленоград"/>
    <tag k="addr:housenumber" v="8С2"/>
    <tag k="addr:street" v="Каштановая аллея"/>
    <tag k="building" v="yes"/>
    <tag k="is_in" v="Russia"/>
  </way>
  <way id="48173023" version="9" timestamp="2010-01-20T07:55:38Z" uid="70202" user="physiocrat" changeset="3664615">
    <nd ref="612225216"/>
    <nd ref="612231085"/>
    <nd ref="612231163"/>
    <nd ref="612225118"/>
    <nd ref="612225066"/>
    <nd ref="612225213"/>
    <nd ref="612226296"/>
    <nd ref="612224031"/>
    <nd ref="612226300"/>
    <nd ref="612225216"/>
    <tag k="addr:city" v="Зеленоград"/>
    <tag k="addr:housenumber" v="8С2"/>
    <tag k="addr:street" v="Каштановая аллея"/>
    <tag k="building" v="yes"/>
    <tag k="cladr:code" v="77000002000454500"/>
    <tag k="is_in" v="Russia"/>
  </way>
  <way id="48173023" version="10" timestamp="2011-01-17T10:48:35Z" uid="115477" user="wowik" changeset="6997945">
    <nd ref="612225216"/>
    <nd ref="612231085"/>
    <nd ref="1107443467"/>
    <nd ref="612231163"/>
    <nd ref="612225118"/>
    <nd ref="612225066"/>
    <nd ref="612225213"/>
    <nd ref="612226296"/>
    <nd ref="612224031"/>
    <nd ref="612226300"/>
    <nd ref="612225216"/>
    <tag k="addr:city" v="Зеленоград"/>
    <tag k="addr:housenumber" v="8с2"/>
    <tag k="addr:street" v="Каштановая аллея"/>
    <tag k="building" v="yes"/>
    <tag k="cladr:code" v="77000002000454500"/>
    <tag k="is_in" v="Russia"/>
  </way>
  <way id="48173023" version="11" timestamp="2011-01-19T16:26:39Z" uid="70696" user="xybot" changeset="7021015">
    <nd ref="612225216"/>
    <nd ref="612231085"/>
    <nd ref="1107443467"/>
    <nd ref="612231163"/>
    <nd ref="612225118"/>
    <nd ref="612225066"/>
    <nd ref="612225213"/>
    <nd ref="612226296"/>
    <nd ref="612224031"/>
    <nd ref="612226300"/>
    <nd ref="612225216"/>
    <tag k="addr:city" v="Зеленоград"/>
    <tag k="addr:housenumber" v="8 с2"/>
    <tag k="addr:street" v="Каштановая аллея"/>
    <tag k="building" v="yes"/>
    <tag k="cladr:code" v="77000002000454500"/>
    <tag k="is_in" v="Russia"/>
  </way>
  <way id="48173023" version="12" timestamp="2011-09-13T10:28:32Z" uid="29320" user="Komяpa" changeset="9288237">
    <nd ref="612225216"/>
    <nd ref="612231085"/>
    <nd ref="1107443467"/>
    <nd ref="612231163"/>
    <nd ref="612225118"/>
    <nd ref="612225066"/>
    <nd ref="612225213"/>
    <nd ref="612226296"/>
    <nd ref="612224031"/>
    <nd ref="612226300"/>
    <nd ref="612225216"/>
    <tag k="addr:city" v="Зеленоград"/>
    <tag k="addr:country" v="RU"/>
    <tag k="addr:housenumber" v="8 с2"/>
    <tag k="addr:street" v="Каштановая аллея"/>
    <tag k="building" v="yes"/>
    <tag k="cladr:code" v="77000002000454500"/>
  </way>
  <way id="48173023" version="13" timestamp="2012-03-27T11:46:11Z" uid="481934" user="iWowik" changeset="11115472">
    <nd ref="612225216"/>
    <nd ref="612231085"/>
    <nd ref="1107443467"/>
    <nd ref="612231163"/>
    <nd ref="612225118"/>
    <nd ref="612225066"/>
    <nd ref="612225213"/>
    <nd ref="612226296"/>
    <nd ref="612224031"/>
    <nd ref="612226300"/>
    <nd ref="612225216"/>
    <tag k="addr:city" v="Зеленоград"/>
    <tag k="addr:country" v="RU"/>
    <tag k="addr:housenumber" v="8 с2"/>
    <tag k="addr:region" v="Москва"/>
    <tag k="addr:street" v="Каштановая аллея"/>
    <tag k="building" v="yes"/>
    <tag k="cladr:code" v="77000002000454500"/>
  </way>
  <way id="48173065" version="1" timestamp="2010-01-12T14:28:32Z" uid="115477" user="wowik" changeset="3603408">
    <nd ref="612232743"/>
    <nd ref="612232746"/>
    <nd ref="612232749"/>
  </way>
  <way id="48173065" version="2" timestamp="2010-01-12T14:28:53Z" uid="115477" user="wowik" changeset="3603408">
    <nd ref="612232743"/>
    <nd ref="612232746"/>
    <nd ref="612232749"/>
    <tag k="highway" v="service"/>
    <tag k="service" v="parking_aisle"/>
  </way>
  <way id="48173109" version="2" timestamp="2010-09-08T10:49:21Z" uid="115477" user="wowik" changeset="5715736">
    <nd ref="612235969"/>
    <nd ref="612235971"/>
    <nd ref="612235965"/>
    <nd ref="902572290"/>
    <nd ref="612235973"/>
    <nd ref="612235969"/>
    <tag k="leisure" v="stadium"/>
    <tag k="name" v="Салют"/>
    <tag k="sport" v="soccer"/>
  </way>
  <way id="48173109" version="3" timestamp="2011-01-15T21:45:12Z" uid="206282" user="Amigo" changeset="6982311">
    <nd ref="612235969"/>
    <nd ref="612235971"/>
    <nd ref="612235965"/>
    <nd ref="1105396933"/>
    <nd ref="1105396937"/>
    <nd ref="902572290"/>
    <nd ref="1105396945"/>
    <nd ref="612235973"/>
    <nd ref="612235969"/>
    <tag k="leisure" v="stadium"/>
    <tag k="name" v="Салют"/>
    <tag k="sport" v="soccer"/>
  </way>
  <way id="48173109" version="4" timestamp="2011-03-11T11:14:47Z" uid="232349" user="vovkav" changeset="7522287">
    <nd ref="612235969"/>
    <nd ref="612235971"/>
    <nd ref="612235965"/>
    <nd ref="1105396933"/>
    <nd ref="1105396937"/>
    <nd ref="902572290"/>
    <nd ref="1105396945"/>
    <nd ref="612235973"/>
    <nd ref="612235969"/>
    <tag k="leisure" v="stadium"/>
    <tag k="name" v="Салют"/>
    <tag k="sport" v="multi"/>
  </way>
  <way id="48173160" version="1" timestamp="2010-01-12T14:31:50Z" uid="115477" user="wowik" changeset="3603408">
    <nd ref="612237327"/>
    <nd ref="612237335"/>
    <nd ref="612237338"/>
    <nd ref="612153055"/>
  </way>
  <way id="48173160" version="2" timestamp="2010-01-12T14:31:52Z" uid="115477" user="wowik" changeset="3603408">
    <nd ref="612237327"/>
    <nd ref="612237335"/>
    <nd ref="612237338"/>
    <nd ref="612153055"/>
    <tag k="highway" v="service"/>
  </way>
  <way id="48173170" version="1" timestamp="2010-01-12T14:32:28Z" uid="115477" user="wowik" changeset="3603408">
    <nd ref="612238235"/>
    <nd ref="612238236"/>
    <nd ref="612238239"/>
    <nd ref="612238244"/>
    <nd ref="612238235"/>
  </way>
  <way id="48173170" version="2" timestamp="2010-01-12T14:32:33Z" uid="115477" user="wowik" changeset="3603408">
    <nd ref="612238235"/>
    <nd ref="612238236"/>
    <nd ref="612238239"/>
    <nd ref="612238244"/>
    <nd ref="612238235"/>
    <tag k="addr:city" v="Зеленоград"/>
    <tag k="addr:housenumber" v="8С3"/>
    <tag k="addr:street" v="Каштановая аллея"/>
    <tag k="building" v="yes"/>
    <tag k="is_in" v="Russia"/>
  </way>
  <way id="48173170" version="3" timestamp="2010-01-20T07:55:38Z" uid="70202" user="physiocrat" changeset="3664615">
    <nd ref="612238235"/>
    <nd ref="612238236"/>
    <nd ref="612238239"/>
    <nd ref="612238244"/>
    <nd ref="612238235"/>
    <tag k="addr:city" v="Зеленоград"/>
    <tag k="addr:housenumber" v="8С3"/>
    <tag k="addr:street" v="Каштановая аллея"/>
    <tag k="building" v="yes"/>
    <tag k="cladr:code" v="77000002000454500"/>
    <tag k="is_in" v="Russia"/>
  </way>
  <way id="48173170" version="4" timestamp="2011-01-17T10:48:31Z" uid="115477" user="wowik" changeset="6997945">
    <nd ref="612238235"/>
    <nd ref="612238236"/>
    <nd ref="612238239"/>
    <nd ref="612238244"/>
    <nd ref="612238235"/>
    <tag k="addr:city" v="Зеленоград"/>
    <tag k="addr:housenumber" v="8с3"/>
    <tag k="addr:street" v="Каштановая аллея"/>
    <tag k="building" v="yes"/>
    <tag k="cladr:code" v="77000002000454500"/>
    <tag k="is_in" v="Russia"/>
  </way>
  <way id="48173170" version="5" timestamp="2011-01-19T16:26:40Z" uid="70696" user="xybot" changeset="7021015">
    <nd ref="612238235"/>
    <nd ref="612238236"/>
    <nd ref="612238239"/>
    <nd ref="612238244"/>
    <nd ref="612238235"/>
    <tag k="addr:city" v="Зеленоград"/>
    <tag k="addr:housenumber" v="8 с3"/>
    <tag k="addr:street" v="Каштановая аллея"/>
    <tag k="building" v="yes"/>
    <tag k="cladr:code" v="77000002000454500"/>
    <tag k="is_in" v="Russia"/>
  </way>
  <way id="48173170" version="6" timestamp="2011-09-13T10:28:34Z" uid="29320" user="Komяpa" changeset="9288237">
    <nd ref="612238235"/>
    <nd ref="612238236"/>
    <nd ref="612238239"/>
    <nd ref="612238244"/>
    <nd ref="612238235"/>
    <tag k="addr:city" v="Зеленоград"/>
    <tag k="addr:country" v="RU"/>
    <tag k="addr:housenumber" v="8 с3"/>
    <tag k="addr:street" v="Каштановая аллея"/>
    <tag k="building" v="yes"/>
    <tag k="cladr:code" v="77000002000454500"/>
  </way>
  <way id="48173170" version="7" timestamp="2012-03-27T11:46:12Z" uid="481934" user="iWowik" changeset="11115472">
    <nd ref="612238235"/>
    <nd ref="612238236"/>
    <nd ref="612238239"/>
    <nd ref="612238244"/>
    <nd ref="612238235"/>
    <tag k="addr:city" v="Зеленоград"/>
    <tag k="addr:country" v="RU"/>
    <tag k="addr:housenumber" v="8 с3"/>
    <tag k="addr:region" v="Москва"/>
    <tag k="addr:street" v="Каштановая аллея"/>
    <tag k="building" v="yes"/>
    <tag k="cladr:code" v="77000002000454500"/>
  </way>
  <way id="48173175" version="1" timestamp="2010-01-12T14:32:40Z" uid="115477" user="wowik" changeset="3603408">
    <nd ref="612238632"/>
    <nd ref="612238638"/>
    <nd ref="612238647"/>
    <nd ref="612238655"/>
    <nd ref="612238632"/>
  </way>
  <way id="48173175" version="2" timestamp="2010-01-12T14:32:46Z" uid="115477" user="wowik" changeset="3603408">
    <nd ref="612238632"/>
    <nd ref="612238638"/>
    <nd ref="612238647"/>
    <nd ref="612238655"/>
    <nd ref="612238632"/>
    <tag k="addr:city" v="Зеленоград"/>
    <tag k="addr:housenumber" v="6С2"/>
    <tag k="addr:street" v="Каштановая аллея"/>
    <tag k="building" v="yes"/>
    <tag k="is_in" v="Russia"/>
  </way>
  <way id="48173175" version="3" timestamp="2010-01-12T14:36:50Z" uid="115477" user="wowik" changeset="3603408">
    <nd ref="612238632"/>
    <nd ref="612238638"/>
    <nd ref="612238647"/>
    <nd ref="612238655"/>
    <nd ref="612238632"/>
    <tag k="addr:city" v="Зеленоград"/>
    <tag k="addr:housenumber" v="6С2"/>
    <tag k="addr:street" v="Каштановая аллея"/>
    <tag k="building" v="yes"/>
    <tag k="is_in" v="Russia"/>
    <tag k="name" v="Московский Городской центр Дезинфекции № 1"/>
  </way>
  <way id="48173175" version="4" timestamp="2010-01-12T14:36:58Z" uid="115477" user="wowik" changeset="3603408">
    <nd ref="612238632"/>
    <nd ref="612238638"/>
    <nd ref="612242644"/>
    <nd ref="612242645"/>
    <nd ref="612238647"/>
    <nd ref="612238655"/>
    <nd ref="612238632"/>
    <tag k="addr:city" v="Зеленоград"/>
    <tag k="addr:housenumber" v="6С2"/>
    <tag k="addr:street" v="Каштановая аллея"/>
    <tag k="building" v="yes"/>
    <tag k="is_in" v="Russia"/>
    <tag k="name" v="Московский Городской центр Дезинфекции № 1"/>
  </way>
  <way id="48173175" version="5" timestamp="2010-01-12T14:37:08Z" uid="115477" user="wowik" changeset="3603408">
    <nd ref="612238632"/>
    <nd ref="612238638"/>
    <nd ref="612242644"/>
    <nd ref="612242897"/>
    <nd ref="612242899"/>
    <nd ref="612242645"/>
    <nd ref="612238647"/>
    <nd ref="612238655"/>
    <nd ref="612238632"/>
    <tag k="addr:city" v="Зеленоград"/>
    <tag k="addr:housenumber" v="6С2"/>
    <tag k="addr:street" v="Каштановая аллея"/>
    <tag k="building" v="yes"/>
    <tag k="is_in" v="Russia"/>
    <tag k="name" v="Московский Городской центр Дезинфекции № 1"/>
  </way>
  <way id="48173175" version="6" timestamp="2010-01-20T07:55:38Z" uid="70202" user="physiocrat" changeset="3664615">
    <nd ref="612238632"/>
    <nd ref="612238638"/>
    <nd ref="612242644"/>
    <nd ref="612242897"/>
    <nd ref="612242899"/>
    <nd ref="612242645"/>
    <nd ref="612238647"/>
    <nd ref="612238655"/>
    <nd ref="612238632"/>
    <tag k="addr:city" v="Зеленоград"/>
    <tag k="addr:housenumber" v="6С2"/>
    <tag k="addr:street" v="Каштановая аллея"/>
    <tag k="building" v="yes"/>
    <tag k="cladr:code" v="77000002000454500"/>
    <tag k="is_in" v="Russia"/>
    <tag k="name" v="Московский Городской центр Дезинфекции № 1"/>
  </way>
  <way id="48173175" version="7" timestamp="2011-01-17T10:48:39Z" uid="115477" user="wowik" changeset="6997945">
    <nd ref="612238632"/>
    <nd ref="612238638"/>
    <nd ref="1107443559"/>
    <nd ref="1107443478"/>
    <nd ref="1107443550"/>
    <nd ref="1107443456"/>
    <nd ref="612242644"/>
    <nd ref="612242897"/>
    <nd ref="612242899"/>
    <nd ref="612242645"/>
    <nd ref="612238647"/>
    <nd ref="612238655"/>
    <nd ref="612238632"/>
    <tag k="addr:city" v="Зеленоград"/>
    <tag k="addr:housenumber" v="6С2"/>
    <tag k="addr:street" v="Каштановая аллея"/>
    <tag k="building" v="yes"/>
    <tag k="cladr:code" v="77000002000454500"/>
    <tag k="is_in" v="Russia"/>
    <tag k="name" v="Московский Городской центр Дезинфекции № 1"/>
  </way>
  <way id="48173175" version="8" timestamp="2011-01-19T16:26:41Z" uid="70696" user="xybot" changeset="7021015">
    <nd ref="612238632"/>
    <nd ref="612238638"/>
    <nd ref="1107443559"/>
    <nd ref="1107443478"/>
    <nd ref="1107443550"/>
    <nd ref="1107443456"/>
    <nd ref="612242644"/>
    <nd ref="612242897"/>
    <nd ref="612242899"/>
    <nd ref="612242645"/>
    <nd ref="612238647"/>
    <nd ref="612238655"/>
    <nd ref="612238632"/>
    <tag k="addr:city" v="Зеленоград"/>
    <tag k="addr:housenumber" v="6 с2"/>
    <tag k="addr:street" v="Каштановая аллея"/>
    <tag k="building" v="yes"/>
    <tag k="cladr:code" v="77000002000454500"/>
    <tag k="is_in" v="Russia"/>
    <tag k="name" v="Московский Городской центр Дезинфекции № 1"/>
  </way>
  <way id="48173175" version="9" timestamp="2011-03-29T10:32:56Z" uid="206282" user="Amigo" changeset="7705192">
    <nd ref="612238632"/>
    <nd ref="612238638"/>
    <nd ref="1107443559"/>
    <nd ref="1107443478"/>
    <nd ref="1107443550"/>
    <nd ref="1107443456"/>
    <nd ref="612242644"/>
    <nd ref="612242897"/>
    <nd ref="612242899"/>
    <nd ref="612242645"/>
    <nd ref="612238647"/>
    <nd ref="612238655"/>
    <nd ref="612238632"/>
    <tag k="addr:city" v="Зеленоград"/>
    <tag k="addr:housenumber" v="6 с2"/>
    <tag k="addr:street" v="Каштановая аллея"/>
    <tag k="building" v="yes"/>
    <tag k="cladr:code" v="77000002000454500"/>
    <tag k="is_in" v="Russia"/>
    <tag k="name" v="Московский Городской центр Дезинфекции №1"/>
  </way>
  <way id="48173175" version="10" timestamp="2011-09-13T10:30:45Z" uid="29320" user="Komяpa" changeset="9288237">
    <nd ref="612238632"/>
    <nd ref="612238638"/>
    <nd ref="1107443559"/>
    <nd ref="1107443478"/>
    <nd ref="1107443550"/>
    <nd ref="1107443456"/>
    <nd ref="612242644"/>
    <nd ref="612242897"/>
    <nd ref="612242899"/>
    <nd ref="612242645"/>
    <nd ref="612238647"/>
    <nd ref="612238655"/>
    <nd ref="612238632"/>
    <tag k="addr:city" v="Зеленоград"/>
    <tag k="addr:country" v="RU"/>
    <tag k="addr:housenumber" v="6 с2"/>
    <tag k="addr:street" v="Каштановая аллея"/>
    <tag k="building" v="yes"/>
    <tag k="cladr:code" v="77000002000454500"/>
    <tag k="name" v="Московский Городской центр Дезинфекции №1"/>
  </way>
  <way id="48173175" version="11" timestamp="2012-03-27T11:47:36Z" uid="481934" user="iWowik" changeset="11115472">
    <nd ref="612238632"/>
    <nd ref="612238638"/>
    <nd ref="1107443559"/>
    <nd ref="1107443478"/>
    <nd ref="1107443550"/>
    <nd ref="1107443456"/>
    <nd ref="612242644"/>
    <nd ref="612242897"/>
    <nd ref="612242899"/>
    <nd ref="612242645"/>
    <nd ref="612238647"/>
    <nd ref="612238655"/>
    <nd ref="612238632"/>
    <tag k="addr:city" v="Зеленоград"/>
    <tag k="addr:country" v="RU"/>
    <tag k="addr:housenumber" v="6 с2"/>
    <tag k="addr:region" v="Москва"/>
    <tag k="addr:street" v="Каштановая аллея"/>
    <tag k="building" v="yes"/>
    <tag k="cladr:code" v="77000002000454500"/>
    <tag k="name" v="Московский Городской центр Дезинфекции №1"/>
  </way>
  <way id="48173477" version="1" timestamp="2010-01-12T14:41:05Z" uid="115477" user="wowik" changeset="3603408">
    <nd ref="612248800"/>
    <nd ref="612248806"/>
    <nd ref="612248809"/>
  </way>
  <way id="48173477" version="2" timestamp="2010-01-12T14:41:08Z" uid="115477" user="wowik" changeset="3603408">
    <nd ref="612248800"/>
    <nd ref="612248806"/>
    <nd ref="612248809"/>
    <nd ref="612248823"/>
  </way>
  <way id="48173477" version="3" timestamp="2010-01-12T14:41:12Z" uid="115477" user="wowik" changeset="3603408">
    <nd ref="612248819"/>
    <nd ref="612248800"/>
    <nd ref="612248806"/>
    <nd ref="612248809"/>
    <nd ref="612248823"/>
  </way>
  <way id="48173477" version="4" timestamp="2010-01-12T14:41:27Z" uid="115477" user="wowik" changeset="3603408">
    <nd ref="612248819"/>
    <nd ref="612248800"/>
    <nd ref="612248806"/>
    <nd ref="612248809"/>
    <nd ref="612248823"/>
    <tag k="highway" v="service"/>
    <tag k="service" v="parking_aisle"/>
  </way>
  <way id="48173477" version="5" timestamp="2010-01-12T15:03:54Z" uid="115477" user="wowik" changeset="3603408">
    <nd ref="612248819"/>
    <nd ref="612248800"/>
    <nd ref="612248809"/>
    <nd ref="612248823"/>
    <tag k="highway" v="service"/>
    <tag k="service" v="parking_aisle"/>
  </way>
  <way id="48173477" version="6" timestamp="2010-05-06T10:12:36Z" uid="115477" user="wowik" changeset="4620132">
    <nd ref="612248819"/>
    <nd ref="724101164"/>
    <nd ref="612248800"/>
    <nd ref="612248809"/>
    <nd ref="612248823"/>
    <tag k="highway" v="service"/>
    <tag k="service" v="parking_aisle"/>
  </way>
  <way id="48173486" version="1" timestamp="2010-01-12T14:42:05Z" uid="115477" user="wowik" changeset="3603408">
    <nd ref="612250731"/>
    <nd ref="612250735"/>
    <nd ref="612250740"/>
    <nd ref="612250747"/>
    <nd ref="612250731"/>
  </way>
  <way id="48173486" version="2" timestamp="2010-01-12T14:42:12Z" uid="115477" user="wowik" changeset="3603408">
    <nd ref="612250731"/>
    <nd ref="612250735"/>
    <nd ref="612250740"/>
    <nd ref="612250747"/>
    <nd ref="612250731"/>
    <tag k="addr:city" v="Зеленоград"/>
    <tag k="addr:housenumber" v="2С16"/>
    <tag k="addr:street" v="Каштановая аллея"/>
    <tag k="building" v="yes"/>
    <tag k="is_in" v="Russia"/>
  </way>
  <way id="48173486" version="3" timestamp="2010-01-20T07:55:39Z" uid="70202" user="physiocrat" changeset="3664615">
    <nd ref="612250731"/>
    <nd ref="612250735"/>
    <nd ref="612250740"/>
    <nd ref="612250747"/>
    <nd ref="612250731"/>
    <tag k="addr:city" v="Зеленоград"/>
    <tag k="addr:housenumber" v="2С16"/>
    <tag k="addr:street" v="Каштановая аллея"/>
    <tag k="building" v="yes"/>
    <tag k="cladr:code" v="77000002000454500"/>
    <tag k="is_in" v="Russia"/>
  </way>
  <way id="48173486" version="4" timestamp="2011-01-17T10:48:29Z" uid="115477" user="wowik" changeset="6997945">
    <nd ref="612250731"/>
    <nd ref="612250735"/>
    <nd ref="612250740"/>
    <nd ref="612250747"/>
    <nd ref="612250731"/>
    <tag k="addr:city" v="Зеленоград"/>
    <tag k="addr:housenumber" v="2с16"/>
    <tag k="addr:street" v="Каштановая аллея"/>
    <tag k="building" v="yes"/>
    <tag k="cladr:code" v="77000002000454500"/>
    <tag k="is_in" v="Russia"/>
  </way>
  <way id="48173486" version="5" timestamp="2011-01-19T16:26:43Z" uid="70696" user="xybot" changeset="7021015">
    <nd ref="612250731"/>
    <nd ref="612250735"/>
    <nd ref="612250740"/>
    <nd ref="612250747"/>
    <nd ref="612250731"/>
    <tag k="addr:city" v="Зеленоград"/>
    <tag k="addr:housenumber" v="2 с16"/>
    <tag k="addr:street" v="Каштановая аллея"/>
    <tag k="building" v="yes"/>
    <tag k="cladr:code" v="77000002000454500"/>
    <tag k="is_in" v="Russia"/>
  </way>
  <way id="48173486" version="6" timestamp="2011-09-13T10:24:12Z" uid="29320" user="Komяpa" changeset="9288237">
    <nd ref="612250731"/>
    <nd ref="612250735"/>
    <nd ref="612250740"/>
    <nd ref="612250747"/>
    <nd ref="612250731"/>
    <tag k="addr:city" v="Зеленоград"/>
    <tag k="addr:country" v="RU"/>
    <tag k="addr:housenumber" v="2 с16"/>
    <tag k="addr:street" v="Каштановая аллея"/>
    <tag k="building" v="yes"/>
    <tag k="cladr:code" v="77000002000454500"/>
  </way>
  <way id="48173486" version="7" timestamp="2012-03-27T11:38:47Z" uid="481934" user="iWowik" changeset="11115472">
    <nd ref="612250731"/>
    <nd ref="612250735"/>
    <nd ref="612250740"/>
    <nd ref="612250747"/>
    <nd ref="612250731"/>
    <tag k="addr:city" v="Зеленоград"/>
    <tag k="addr:country" v="RU"/>
    <tag k="addr:housenumber" v="2 с16"/>
    <tag k="addr:region" v="Москва"/>
    <tag k="addr:street" v="Каштановая аллея"/>
    <tag k="building" v="yes"/>
    <tag k="cladr:code" v="77000002000454500"/>
  </way>
  <way id="48173490" version="1" timestamp="2010-01-12T14:42:42Z" uid="115477" user="wowik" changeset="3603408">
    <nd ref="612251946"/>
    <nd ref="612251948"/>
    <nd ref="612251950"/>
    <nd ref="612251953"/>
    <nd ref="612251946"/>
    <tag k="highway" v="service"/>
  </way>
  <way id="48173490" version="2" timestamp="2010-01-12T14:42:53Z" uid="115477" user="wowik" changeset="3603408">
    <nd ref="612251946"/>
    <nd ref="612251948"/>
    <nd ref="612251950"/>
    <nd ref="612251953"/>
    <nd ref="612251946"/>
    <tag k="addr:city" v="Зеленоград"/>
    <tag k="addr:housenumber" v="2С17"/>
    <tag k="addr:street" v="Каштановая аллея"/>
    <tag k="building" v="yes"/>
    <tag k="is_in" v="Russia"/>
  </way>
  <way id="48173490" version="3" timestamp="2010-01-20T07:55:39Z" uid="70202" user="physiocrat" changeset="3664615">
    <nd ref="612251946"/>
    <nd ref="612251948"/>
    <nd ref="612251950"/>
    <nd ref="612251953"/>
    <nd ref="612251946"/>
    <tag k="addr:city" v="Зеленоград"/>
    <tag k="addr:housenumber" v="2С17"/>
    <tag k="addr:street" v="Каштановая аллея"/>
    <tag k="building" v="yes"/>
    <tag k="cladr:code" v="77000002000454500"/>
    <tag k="is_in" v="Russia"/>
  </way>
  <way id="48173490" version="4" timestamp="2011-01-17T10:10:45Z" uid="115477" user="wowik" changeset="6997647">
    <nd ref="612251946"/>
    <nd ref="612251948"/>
    <nd ref="612251950"/>
    <nd ref="612251953"/>
    <nd ref="612251946"/>
    <tag k="addr:city" v="Зеленоград"/>
    <tag k="addr:housenumber" v="2с17"/>
    <tag k="addr:street" v="Каштановая аллея"/>
    <tag k="building" v="yes"/>
    <tag k="cladr:code" v="77000002000454500"/>
    <tag k="is_in" v="Russia"/>
  </way>
  <way id="48173490" version="5" timestamp="2011-01-19T16:26:43Z" uid="70696" user="xybot" changeset="7021015">
    <nd ref="612251946"/>
    <nd ref="612251948"/>
    <nd ref="612251950"/>
    <nd ref="612251953"/>
    <nd ref="612251946"/>
    <tag k="addr:city" v="Зеленоград"/>
    <tag k="addr:housenumber" v="2 с17"/>
    <tag k="addr:street" v="Каштановая аллея"/>
    <tag k="building" v="yes"/>
    <tag k="cladr:code" v="77000002000454500"/>
    <tag k="is_in" v="Russia"/>
  </way>
  <way id="48173490" version="6" timestamp="2011-09-13T10:24:12Z" uid="29320" user="Komяpa" changeset="9288237">
    <nd ref="612251946"/>
    <nd ref="612251948"/>
    <nd ref="612251950"/>
    <nd ref="612251953"/>
    <nd ref="612251946"/>
    <tag k="addr:city" v="Зеленоград"/>
    <tag k="addr:country" v="RU"/>
    <tag k="addr:housenumber" v="2 с17"/>
    <tag k="addr:street" v="Каштановая аллея"/>
    <tag k="building" v="yes"/>
    <tag k="cladr:code" v="77000002000454500"/>
  </way>
  <way id="48173490" version="7" timestamp="2012-03-27T11:38:49Z" uid="481934" user="iWowik" changeset="11115472">
    <nd ref="612251946"/>
    <nd ref="612251948"/>
    <nd ref="612251950"/>
    <nd ref="612251953"/>
    <nd ref="612251946"/>
    <tag k="addr:city" v="Зеленоград"/>
    <tag k="addr:country" v="RU"/>
    <tag k="addr:housenumber" v="2 с17"/>
    <tag k="addr:region" v="Москва"/>
    <tag k="addr:street" v="Каштановая аллея"/>
    <tag k="building" v="yes"/>
    <tag k="cladr:code" v="77000002000454500"/>
  </way>
  <way id="48173537" version="2" timestamp="2010-04-04T19:38:20Z" uid="33382" user="de_muur" changeset="4326381">
    <nd ref="605261326"/>
    <nd ref="612254601"/>
    <nd ref="612254605"/>
    <nd ref="612254596"/>
    <nd ref="612254599"/>
    <nd ref="612254651"/>
    <nd ref="612254648"/>
    <nd ref="612254656"/>
    <nd ref="612254658"/>
    <nd ref="612254653"/>
    <nd ref="605261326"/>
    <tag k="landuse" v="forest"/>
    <tag k="wood" v="mixed"/>
  </way>
  <way id="48173537" version="3" timestamp="2011-07-13T16:46:13Z" uid="55462" user="Lübeck" changeset="8714313">
    <nd ref="605261326"/>
    <nd ref="1360525705"/>
    <nd ref="1360525704"/>
    <nd ref="1360525708"/>
    <nd ref="1360525709"/>
    <nd ref="1360525707"/>
    <nd ref="612254601"/>
    <nd ref="612254605"/>
    <nd ref="612254596"/>
    <nd ref="612254599"/>
    <nd ref="612254651"/>
    <nd ref="612254648"/>
    <nd ref="612254656"/>
    <nd ref="612254658"/>
    <nd ref="612254653"/>
    <nd ref="605261326"/>
    <tag k="landuse" v="forest"/>
    <tag k="wood" v="mixed"/>
  </way>
  <way id="48173838" version="5" timestamp="2010-05-03T06:58:45Z" uid="27600" user="Islanit" changeset="4592116">
    <nd ref="612276333"/>
    <nd ref="612276336"/>
    <nd ref="612276337"/>
    <nd ref="612276339"/>
    <nd ref="612276341"/>
    <nd ref="612276343"/>
    <nd ref="612276345"/>
    <nd ref="612276348"/>
    <nd ref="612276320"/>
    <nd ref="612276323"/>
    <nd ref="612276325"/>
    <nd ref="612276328"/>
    <nd ref="612276331"/>
    <nd ref="612276319"/>
    <nd ref="612276297"/>
    <nd ref="612276299"/>
    <nd ref="612276301"/>
    <nd ref="612276304"/>
    <nd ref="612276306"/>
    <nd ref="612276309"/>
    <nd ref="612276312"/>
    <nd ref="612276315"/>
    <nd ref="612276317"/>
    <nd ref="612276264"/>
    <nd ref="612276267"/>
    <nd ref="612276270"/>
    <nd ref="612276272"/>
    <nd ref="612276274"/>
    <nd ref="612276277"/>
    <nd ref="612276278"/>
    <nd ref="612276281"/>
    <nd ref="612276283"/>
    <nd ref="612276286"/>
    <nd ref="612276288"/>
    <nd ref="612276291"/>
    <nd ref="612276294"/>
    <nd ref="612276295"/>
    <nd ref="612276262"/>
    <nd ref="612276231"/>
    <nd ref="612276232"/>
    <nd ref="612276234"/>
    <nd ref="612276236"/>
    <nd ref="612276238"/>
    <nd ref="612276241"/>
    <nd ref="612276244"/>
    <nd ref="612276246"/>
    <nd ref="612276249"/>
    <nd ref="612276252"/>
    <nd ref="612276253"/>
    <nd ref="612276255"/>
    <nd ref="612276256"/>
    <nd ref="612276259"/>
    <nd ref="612276219"/>
    <nd ref="612276221"/>
    <nd ref="612276223"/>
    <nd ref="612276225"/>
    <nd ref="612276227"/>
    <nd ref="612276229"/>
    <nd ref="612276212"/>
    <nd ref="612276214"/>
    <nd ref="612276216"/>
    <nd ref="612276217"/>
    <nd ref="612276218"/>
    <nd ref="612276175"/>
    <nd ref="612276179"/>
    <nd ref="612276205"/>
    <nd ref="612276208"/>
    <nd ref="612387995"/>
    <nd ref="612387996"/>
    <nd ref="612387991"/>
    <nd ref="612387992"/>
    <nd ref="612387993"/>
    <nd ref="612387994"/>
    <nd ref="612387984"/>
    <nd ref="612387985"/>
    <nd ref="612387986"/>
    <nd ref="612387987"/>
    <nd ref="612387988"/>
    <nd ref="612387990"/>
    <nd ref="612387969"/>
    <nd ref="612387970"/>
    <nd ref="612387972"/>
    <nd ref="612387973"/>
    <nd ref="612387974"/>
    <nd ref="612387975"/>
    <nd ref="612387976"/>
    <nd ref="612387977"/>
    <nd ref="612387978"/>
    <nd ref="612387979"/>
    <nd ref="612387980"/>
    <nd ref="612387981"/>
    <nd ref="612387982"/>
    <nd ref="612387983"/>
    <nd ref="612387971"/>
    <nd ref="612387958"/>
    <nd ref="612387959"/>
    <nd ref="612387960"/>
    <nd ref="612387961"/>
    <nd ref="612387962"/>
    <nd ref="612387963"/>
    <nd ref="612387964"/>
    <nd ref="612387965"/>
    <nd ref="612387966"/>
    <nd ref="612387967"/>
    <nd ref="612387956"/>
    <nd ref="612387957"/>
    <nd ref="612387946"/>
    <nd ref="612387947"/>
    <nd ref="612387948"/>
    <nd ref="612387949"/>
    <nd ref="612387950"/>
    <nd ref="612387952"/>
    <nd ref="612387953"/>
    <nd ref="612387954"/>
    <nd ref="612387955"/>
    <nd ref="612387941"/>
    <nd ref="612387942"/>
    <nd ref="612387943"/>
    <nd ref="612387944"/>
    <nd ref="612387945"/>
    <nd ref="612387929"/>
    <nd ref="612387930"/>
    <nd ref="612387931"/>
    <nd ref="612387932"/>
    <nd ref="612387933"/>
    <nd ref="612387934"/>
    <nd ref="612387935"/>
    <nd ref="612387937"/>
    <nd ref="612387938"/>
    <nd ref="612387939"/>
    <nd ref="612387940"/>
    <nd ref="612387926"/>
    <nd ref="612387927"/>
    <nd ref="612387928"/>
    <nd ref="612387924"/>
    <nd ref="612387925"/>
    <nd ref="612389517"/>
    <nd ref="612389519"/>
    <nd ref="612389520"/>
    <nd ref="612389521"/>
    <nd ref="612389522"/>
    <nd ref="612389507"/>
    <nd ref="612389508"/>
    <nd ref="612389509"/>
    <nd ref="612389510"/>
    <nd ref="612389511"/>
    <nd ref="612389512"/>
    <nd ref="612389513"/>
    <nd ref="612389514"/>
    <nd ref="612389515"/>
    <nd ref="612389516"/>
    <nd ref="612389506"/>
    <nd ref="612389492"/>
    <nd ref="612389493"/>
    <nd ref="612389494"/>
    <nd ref="612389495"/>
    <nd ref="612389496"/>
    <nd ref="612389497"/>
    <nd ref="612389498"/>
    <nd ref="612389499"/>
    <nd ref="612389500"/>
    <nd ref="612389501"/>
    <nd ref="612389503"/>
    <nd ref="612389504"/>
    <nd ref="612389505"/>
    <nd ref="612389488"/>
    <nd ref="612389489"/>
    <nd ref="612389490"/>
    <nd ref="612389491"/>
    <nd ref="612389473"/>
    <nd ref="612389474"/>
    <nd ref="612389475"/>
    <nd ref="612389476"/>
    <nd ref="612389477"/>
    <nd ref="612389478"/>
    <nd ref="612389479"/>
    <nd ref="612389480"/>
    <nd ref="612389481"/>
    <nd ref="612389482"/>
    <nd ref="612389483"/>
    <nd ref="612389484"/>
    <nd ref="612389486"/>
    <nd ref="612389487"/>
    <nd ref="612389466"/>
    <nd ref="612389467"/>
    <nd ref="612389468"/>
    <nd ref="612389469"/>
    <nd ref="612389471"/>
    <nd ref="612389472"/>
    <nd ref="612389454"/>
    <nd ref="612389455"/>
    <nd ref="612389456"/>
    <nd ref="612389457"/>
    <nd ref="612389458"/>
    <nd ref="612389460"/>
    <nd ref="612389461"/>
    <nd ref="612389462"/>
    <nd ref="612389463"/>
    <nd ref="612389464"/>
    <nd ref="612389465"/>
    <nd ref="612389449"/>
    <nd ref="612389451"/>
    <nd ref="612389452"/>
    <nd ref="612389453"/>
    <nd ref="612389430"/>
    <nd ref="612389431"/>
    <nd ref="612389432"/>
    <nd ref="612389433"/>
    <nd ref="612389434"/>
    <nd ref="612389436"/>
    <nd ref="612389439"/>
    <nd ref="612389440"/>
    <nd ref="612389441"/>
    <nd ref="612389442"/>
    <nd ref="612389443"/>
    <nd ref="612389444"/>
    <nd ref="612389445"/>
    <nd ref="612389446"/>
    <nd ref="612389447"/>
    <nd ref="612389448"/>
    <nd ref="612389438"/>
    <nd ref="612389413"/>
    <nd ref="612389414"/>
    <nd ref="612389415"/>
    <nd ref="612389416"/>
    <nd ref="612389417"/>
    <nd ref="612389418"/>
    <nd ref="612389419"/>
    <nd ref="612389420"/>
    <nd ref="612389422"/>
    <nd ref="612389423"/>
    <nd ref="612389424"/>
    <nd ref="612389425"/>
    <nd ref="612389426"/>
    <nd ref="612389427"/>
    <nd ref="612389428"/>
    <nd ref="612389429"/>
    <tag k="name" v="Stellmoorer Quellfluss"/>
    <tag k="waterway" v="stream"/>
  </way>
  <way id="48173838" version="6" timestamp="2010-05-24T06:43:39Z" uid="149203" user="uebi64" changeset="4790131">
    <nd ref="612276333"/>
    <nd ref="612276336"/>
    <nd ref="612276337"/>
    <nd ref="612276339"/>
    <nd ref="612276341"/>
    <nd ref="612276343"/>
    <nd ref="612276345"/>
    <nd ref="612276348"/>
    <nd ref="612276320"/>
    <nd ref="612276323"/>
    <nd ref="612276325"/>
    <nd ref="612276328"/>
    <nd ref="612276331"/>
    <nd ref="612276319"/>
    <nd ref="612276297"/>
    <nd ref="612276299"/>
    <nd ref="612276301"/>
    <nd ref="612276304"/>
    <nd ref="612276306"/>
    <nd ref="612276309"/>
    <nd ref="612276312"/>
    <nd ref="612276315"/>
    <nd ref="612276317"/>
    <nd ref="612276264"/>
    <nd ref="612276267"/>
    <nd ref="612276270"/>
    <nd ref="612276272"/>
    <nd ref="612276274"/>
    <nd ref="612276277"/>
    <nd ref="612276278"/>
    <nd ref="612276281"/>
    <nd ref="612276283"/>
    <nd ref="612276286"/>
    <nd ref="612276288"/>
    <nd ref="612276291"/>
    <nd ref="612276294"/>
    <nd ref="612276295"/>
    <nd ref="612276262"/>
    <nd ref="612276231"/>
    <nd ref="612276232"/>
    <nd ref="612276234"/>
    <nd ref="612276236"/>
    <nd ref="612276238"/>
    <nd ref="612276241"/>
    <nd ref="612276244"/>
    <nd ref="612276246"/>
    <nd ref="612276249"/>
    <nd ref="612276252"/>
    <nd ref="612276253"/>
    <nd ref="612276255"/>
    <nd ref="612276256"/>
    <nd ref="612276259"/>
    <nd ref="612276219"/>
    <nd ref="612276221"/>
    <nd ref="612276223"/>
    <nd ref="612276225"/>
    <nd ref="612276227"/>
    <nd ref="612276229"/>
    <nd ref="612276212"/>
    <nd ref="612276214"/>
    <nd ref="612276216"/>
    <nd ref="612276217"/>
    <nd ref="612276218"/>
    <nd ref="612276175"/>
    <nd ref="612276179"/>
    <nd ref="612276205"/>
    <nd ref="612276208"/>
    <nd ref="612387995"/>
    <nd ref="612387996"/>
    <nd ref="612387991"/>
    <nd ref="612387992"/>
    <nd ref="612387993"/>
    <nd ref="612387994"/>
    <nd ref="612387984"/>
    <nd ref="612387985"/>
    <nd ref="612387986"/>
    <nd ref="612387987"/>
    <nd ref="612387988"/>
    <nd ref="612387990"/>
    <nd ref="612387969"/>
    <nd ref="612387970"/>
    <nd ref="612387972"/>
    <nd ref="612387973"/>
    <nd ref="612387974"/>
    <nd ref="612387975"/>
    <nd ref="612387976"/>
    <nd ref="612387977"/>
    <nd ref="612387978"/>
    <nd ref="612387979"/>
    <nd ref="612387980"/>
    <nd ref="612387981"/>
    <nd ref="612387982"/>
    <nd ref="612387983"/>
    <nd ref="612387971"/>
    <nd ref="612387958"/>
    <nd ref="612387959"/>
    <nd ref="612387960"/>
    <nd ref="612387961"/>
    <nd ref="612387962"/>
    <nd ref="612387963"/>
    <nd ref="612387964"/>
    <nd ref="612387965"/>
    <nd ref="612387966"/>
    <nd ref="612387967"/>
    <nd ref="612387956"/>
    <nd ref="612387957"/>
    <nd ref="612387946"/>
    <nd ref="612387947"/>
    <nd ref="612387948"/>
    <nd ref="612387949"/>
    <nd ref="612387950"/>
    <nd ref="612387952"/>
    <nd ref="612387953"/>
    <nd ref="612387954"/>
    <nd ref="612387955"/>
    <nd ref="612387941"/>
    <nd ref="612387942"/>
    <nd ref="612387943"/>
    <nd ref="612387944"/>
    <nd ref="612387945"/>
    <nd ref="612387929"/>
    <nd ref="612387930"/>
    <nd ref="612387931"/>
    <nd ref="612387932"/>
    <nd ref="612387933"/>
    <nd ref="612387934"/>
    <nd ref="612387935"/>
    <nd ref="612387937"/>
    <nd ref="612387938"/>
    <nd ref="612387939"/>
    <nd ref="612387940"/>
    <nd ref="612387926"/>
    <nd ref="612387927"/>
    <nd ref="612387928"/>
    <nd ref="612387924"/>
    <nd ref="612387925"/>
    <nd ref="612389517"/>
    <nd ref="612389519"/>
    <nd ref="612389520"/>
    <nd ref="612389521"/>
    <nd ref="612389522"/>
    <nd ref="612389507"/>
    <nd ref="612389508"/>
    <nd ref="612389509"/>
    <nd ref="612389510"/>
    <nd ref="612389511"/>
    <nd ref="612389512"/>
    <nd ref="612389513"/>
    <nd ref="612389514"/>
    <nd ref="612389515"/>
    <nd ref="612389516"/>
    <nd ref="612389506"/>
    <nd ref="612389492"/>
    <nd ref="612389493"/>
    <nd ref="612389494"/>
    <nd ref="612389495"/>
    <nd ref="612389496"/>
    <nd ref="612389497"/>
    <nd ref="612389498"/>
    <nd ref="612389499"/>
    <nd ref="612389500"/>
    <nd ref="612389501"/>
    <nd ref="612389503"/>
    <nd ref="612389504"/>
    <nd ref="612389505"/>
    <nd ref="612389488"/>
    <nd ref="612389489"/>
    <nd ref="612389490"/>
    <nd ref="612389491"/>
    <nd ref="612389473"/>
    <nd ref="612389474"/>
    <nd ref="612389475"/>
    <nd ref="612389476"/>
    <nd ref="612389477"/>
    <nd ref="612389478"/>
    <nd ref="612389479"/>
    <nd ref="612389480"/>
    <nd ref="612389481"/>
    <nd ref="612389482"/>
    <nd ref="612389483"/>
    <nd ref="612389484"/>
    <nd ref="612389486"/>
    <nd ref="612389487"/>
    <nd ref="612389466"/>
    <nd ref="612389467"/>
    <nd ref="612389468"/>
    <nd ref="612389469"/>
    <nd ref="612389471"/>
    <nd ref="612389472"/>
    <nd ref="612389454"/>
    <nd ref="612389455"/>
    <nd ref="612389456"/>
    <nd ref="612389457"/>
    <nd ref="612389458"/>
    <nd ref="612389460"/>
    <nd ref="612389461"/>
    <nd ref="612389462"/>
    <nd ref="612389463"/>
    <nd ref="612389464"/>
    <nd ref="612389465"/>
    <nd ref="612389449"/>
    <nd ref="612389451"/>
    <nd ref="612389452"/>
    <nd ref="612389453"/>
    <nd ref="612389430"/>
    <nd ref="612389431"/>
    <nd ref="612389432"/>
    <nd ref="612389433"/>
    <nd ref="612389434"/>
    <nd ref="612389436"/>
    <nd ref="612389439"/>
    <nd ref="612389440"/>
    <nd ref="612389441"/>
    <nd ref="612389442"/>
    <nd ref="612389443"/>
    <nd ref="612389444"/>
    <nd ref="612389445"/>
    <nd ref="612389446"/>
    <nd ref="612389447"/>
    <nd ref="612389448"/>
    <nd ref="612389438"/>
    <nd ref="612389413"/>
    <nd ref="612389414"/>
    <nd ref="612389415"/>
    <nd ref="612389416"/>
    <nd ref="612389417"/>
    <nd ref="612389427"/>
    <nd ref="612389428"/>
    <nd ref="612389429"/>
    <nd ref="746929954"/>
    <nd ref="746929953"/>
    <nd ref="746929955"/>
    <nd ref="746929956"/>
    <nd ref="746929957"/>
    <nd ref="746929958"/>
    <nd ref="746929959"/>
    <nd ref="746929960"/>
    <nd ref="746929961"/>
    <nd ref="746929962"/>
    <nd ref="746929963"/>
    <nd ref="746929964"/>
    <nd ref="746929950"/>
    <nd ref="746929951"/>
    <nd ref="746929952"/>
    <nd ref="746929941"/>
    <nd ref="746929942"/>
    <nd ref="746929943"/>
    <nd ref="746929944"/>
    <nd ref="746929945"/>
    <nd ref="746929946"/>
    <nd ref="746929947"/>
    <nd ref="746929948"/>
    <nd ref="746929949"/>
    <nd ref="746929931"/>
    <nd ref="746929932"/>
    <nd ref="746929933"/>
    <nd ref="746929934"/>
    <nd ref="746929935"/>
    <nd ref="746929936"/>
    <nd ref="746929937"/>
    <nd ref="746929938"/>
    <nd ref="746929939"/>
    <nd ref="746929940"/>
    <nd ref="746929930"/>
    <nd ref="746929921"/>
    <nd ref="746929922"/>
    <nd ref="746929923"/>
    <nd ref="746929924"/>
    <nd ref="746929925"/>
    <nd ref="746929926"/>
    <nd ref="746929927"/>
    <nd ref="746929928"/>
    <nd ref="746929929"/>
    <nd ref="746929913"/>
    <nd ref="746929914"/>
    <nd ref="746929915"/>
    <nd ref="746929916"/>
    <nd ref="746929917"/>
    <nd ref="746929918"/>
    <nd ref="746929910"/>
    <nd ref="746929919"/>
    <nd ref="746929920"/>
    <nd ref="746929911"/>
    <nd ref="746929912"/>
    <nd ref="746929902"/>
    <nd ref="746929900"/>
    <nd ref="746929901"/>
    <nd ref="746929899"/>
    <nd ref="746929898"/>
    <nd ref="746929894"/>
    <nd ref="746929895"/>
    <nd ref="746929896"/>
    <nd ref="746929897"/>
    <nd ref="746929888"/>
    <nd ref="746929889"/>
    <nd ref="746929890"/>
    <nd ref="746929891"/>
    <nd ref="746929892"/>
    <nd ref="746929893"/>
    <nd ref="746929883"/>
    <nd ref="746929884"/>
    <nd ref="746929885"/>
    <nd ref="746929886"/>
    <nd ref="746929880"/>
    <nd ref="746929881"/>
    <nd ref="746929882"/>
    <nd ref="746929887"/>
    <nd ref="746929876"/>
    <nd ref="746929877"/>
    <nd ref="746929878"/>
    <nd ref="746929879"/>
    <nd ref="746929867"/>
    <nd ref="746929868"/>
    <nd ref="746929869"/>
    <nd ref="746929870"/>
    <nd ref="746929871"/>
    <nd ref="746929872"/>
    <nd ref="746929873"/>
    <nd ref="746929874"/>
    <nd ref="746929875"/>
    <nd ref="746929866"/>
    <nd ref="746929864"/>
    <nd ref="746929865"/>
    <nd ref="746929859"/>
    <nd ref="746929862"/>
    <tag k="name" v="Stellmoorer Quellfluss"/>
    <tag k="waterway" v="stream"/>
  </way>
  <way id="48173838" version="7" timestamp="2010-05-31T18:13:53Z" uid="4902" user="mbuege" changeset="4866613">
    <nd ref="612276333"/>
    <nd ref="612276336"/>
    <nd ref="612276337"/>
    <nd ref="612276339"/>
    <nd ref="612276341"/>
    <nd ref="612276343"/>
    <nd ref="612276345"/>
    <nd ref="612276348"/>
    <nd ref="612276320"/>
    <nd ref="612276323"/>
    <nd ref="612276325"/>
    <nd ref="612276328"/>
    <nd ref="612276331"/>
    <nd ref="612276319"/>
    <nd ref="612276297"/>
    <nd ref="612276299"/>
    <nd ref="612276301"/>
    <nd ref="612276304"/>
    <nd ref="612276306"/>
    <nd ref="612276309"/>
    <nd ref="612276312"/>
    <nd ref="612276315"/>
    <nd ref="612276317"/>
    <nd ref="612276264"/>
    <nd ref="612276267"/>
    <nd ref="612276270"/>
    <nd ref="612276272"/>
    <nd ref="612276274"/>
    <nd ref="612276277"/>
    <nd ref="612276278"/>
    <nd ref="612276281"/>
    <nd ref="612276283"/>
    <nd ref="612276286"/>
    <nd ref="612276288"/>
    <nd ref="612276291"/>
    <nd ref="612276294"/>
    <nd ref="612276295"/>
    <nd ref="612276262"/>
    <nd ref="612276231"/>
    <nd ref="612276232"/>
    <nd ref="612276234"/>
    <nd ref="612276236"/>
    <nd ref="612276238"/>
    <nd ref="612276241"/>
    <nd ref="612276244"/>
    <nd ref="612276246"/>
    <nd ref="612276249"/>
    <nd ref="612276252"/>
    <nd ref="612276253"/>
    <nd ref="612276255"/>
    <nd ref="612276256"/>
    <nd ref="612276259"/>
    <nd ref="612276219"/>
    <nd ref="612276221"/>
    <nd ref="612276223"/>
    <nd ref="612276225"/>
    <nd ref="612276227"/>
    <nd ref="612276229"/>
    <nd ref="612276212"/>
    <nd ref="612276214"/>
    <nd ref="612276216"/>
    <nd ref="612276217"/>
    <nd ref="612276218"/>
    <nd ref="612276175"/>
    <nd ref="612276179"/>
    <nd ref="612276205"/>
    <nd ref="612276208"/>
    <nd ref="612387995"/>
    <nd ref="612387996"/>
    <nd ref="612387991"/>
    <nd ref="612387992"/>
    <nd ref="612387993"/>
    <nd ref="612387994"/>
    <nd ref="612387984"/>
    <nd ref="612387985"/>
    <nd ref="612387986"/>
    <nd ref="612387987"/>
    <nd ref="612387988"/>
    <nd ref="612387990"/>
    <nd ref="612387969"/>
    <nd ref="612387970"/>
    <nd ref="612387972"/>
    <nd ref="612387973"/>
    <nd ref="612387974"/>
    <nd ref="612387975"/>
    <nd ref="612387976"/>
    <nd ref="612387977"/>
    <nd ref="612387978"/>
    <nd ref="612387979"/>
    <nd ref="612387980"/>
    <nd ref="612387981"/>
    <nd ref="612387982"/>
    <nd ref="612387983"/>
    <nd ref="612387971"/>
    <nd ref="612387958"/>
    <nd ref="612387959"/>
    <nd ref="612387960"/>
    <nd ref="612387961"/>
    <nd ref="612387962"/>
    <nd ref="612387963"/>
    <nd ref="612387964"/>
    <nd ref="612387965"/>
    <nd ref="612387966"/>
    <nd ref="612387967"/>
    <nd ref="612387956"/>
    <nd ref="612387957"/>
    <nd ref="612387946"/>
    <nd ref="612387947"/>
    <nd ref="612387948"/>
    <nd ref="612387949"/>
    <nd ref="612387950"/>
    <nd ref="612387952"/>
    <nd ref="612387953"/>
    <nd ref="612387954"/>
    <nd ref="612387955"/>
    <nd ref="612387941"/>
    <nd ref="612387942"/>
    <nd ref="612387943"/>
    <nd ref="612387944"/>
    <nd ref="612387945"/>
    <nd ref="612387929"/>
    <nd ref="612387930"/>
    <nd ref="612387931"/>
    <nd ref="612387932"/>
    <nd ref="612387933"/>
    <nd ref="612387934"/>
    <nd ref="612387935"/>
    <nd ref="612387937"/>
    <nd ref="612387938"/>
    <nd ref="612387939"/>
    <nd ref="612387940"/>
    <nd ref="612387926"/>
    <nd ref="612387927"/>
    <nd ref="612387928"/>
    <nd ref="612387924"/>
    <nd ref="612387925"/>
    <nd ref="612389517"/>
    <nd ref="612389519"/>
    <nd ref="612389520"/>
    <nd ref="612389521"/>
    <nd ref="612389522"/>
    <nd ref="612389507"/>
    <nd ref="612389508"/>
    <nd ref="612389509"/>
    <nd ref="612389510"/>
    <nd ref="612389511"/>
    <nd ref="612389512"/>
    <nd ref="612389513"/>
    <nd ref="612389514"/>
    <nd ref="612389515"/>
    <nd ref="612389516"/>
    <nd ref="612389506"/>
    <nd ref="612389492"/>
    <nd ref="612389493"/>
    <nd ref="612389494"/>
    <nd ref="612389495"/>
    <nd ref="612389496"/>
    <nd ref="612389497"/>
    <nd ref="612389498"/>
    <nd ref="612389499"/>
    <nd ref="612389500"/>
    <nd ref="612389501"/>
    <nd ref="612389503"/>
    <nd ref="612389504"/>
    <nd ref="612389505"/>
    <nd ref="612389488"/>
    <nd ref="612389489"/>
    <nd ref="612389490"/>
    <nd ref="612389491"/>
    <nd ref="612389473"/>
    <nd ref="612389474"/>
    <nd ref="612389475"/>
    <nd ref="612389476"/>
    <nd ref="612389477"/>
    <nd ref="612389478"/>
    <nd ref="612389479"/>
    <nd ref="612389480"/>
    <nd ref="612389481"/>
    <nd ref="612389482"/>
    <nd ref="612389483"/>
    <nd ref="612389484"/>
    <nd ref="612389486"/>
    <nd ref="612389487"/>
    <nd ref="612389466"/>
    <nd ref="612389467"/>
    <nd ref="612389468"/>
    <nd ref="612389469"/>
    <nd ref="612389471"/>
    <nd ref="612389472"/>
    <nd ref="612389454"/>
    <nd ref="612389455"/>
    <nd ref="612389456"/>
    <nd ref="612389457"/>
    <nd ref="612389458"/>
    <nd ref="612389460"/>
    <nd ref="612389461"/>
    <nd ref="612389462"/>
    <nd ref="612389463"/>
    <nd ref="612389464"/>
    <nd ref="612389465"/>
    <nd ref="612389449"/>
    <nd ref="612389451"/>
    <nd ref="612389452"/>
    <nd ref="612389453"/>
    <nd ref="612389430"/>
    <nd ref="612389431"/>
    <nd ref="612389432"/>
    <nd ref="612389433"/>
    <nd ref="612389434"/>
    <nd ref="612389436"/>
    <nd ref="612389439"/>
    <nd ref="612389440"/>
    <nd ref="612389441"/>
    <nd ref="612389442"/>
    <nd ref="612389443"/>
    <nd ref="612389444"/>
    <nd ref="612389445"/>
    <nd ref="612389446"/>
    <nd ref="612389447"/>
    <nd ref="612389448"/>
    <nd ref="612389438"/>
    <nd ref="612389413"/>
    <nd ref="612389414"/>
    <nd ref="612389415"/>
    <nd ref="612389416"/>
    <nd ref="612389417"/>
    <nd ref="612389427"/>
    <nd ref="612389428"/>
    <nd ref="612389429"/>
    <nd ref="746929954"/>
    <nd ref="746929953"/>
    <nd ref="746929955"/>
    <nd ref="746929956"/>
    <nd ref="746929957"/>
    <nd ref="746929958"/>
    <nd ref="746929959"/>
    <nd ref="746929960"/>
    <nd ref="746929961"/>
    <nd ref="746929962"/>
    <nd ref="746929963"/>
    <nd ref="746929964"/>
    <nd ref="746929950"/>
    <nd ref="746929951"/>
    <nd ref="746929952"/>
    <nd ref="746929941"/>
    <nd ref="746929942"/>
    <nd ref="746929943"/>
    <nd ref="746929944"/>
    <nd ref="746929945"/>
    <nd ref="746929946"/>
    <nd ref="746929947"/>
    <nd ref="746929948"/>
    <nd ref="746929949"/>
    <nd ref="746929931"/>
    <nd ref="746929932"/>
    <nd ref="746929933"/>
    <nd ref="746929934"/>
    <nd ref="746929935"/>
    <nd ref="746929936"/>
    <nd ref="746929937"/>
    <nd ref="746929938"/>
    <nd ref="746929939"/>
    <nd ref="746929940"/>
    <nd ref="746929930"/>
    <nd ref="746929921"/>
    <nd ref="746929922"/>
    <nd ref="746929923"/>
    <nd ref="746929924"/>
    <nd ref="746929925"/>
    <nd ref="746929926"/>
    <nd ref="746929927"/>
    <nd ref="746929928"/>
    <nd ref="746929929"/>
    <nd ref="746929913"/>
    <nd ref="746929914"/>
    <nd ref="746929915"/>
    <nd ref="746929916"/>
    <nd ref="746929917"/>
    <nd ref="746929918"/>
    <nd ref="746929910"/>
    <nd ref="746929919"/>
    <nd ref="746929920"/>
    <nd ref="746929911"/>
    <nd ref="746929912"/>
    <nd ref="746929902"/>
    <nd ref="746929900"/>
    <nd ref="746929901"/>
    <nd ref="746929899"/>
    <nd ref="746929898"/>
    <nd ref="746929894"/>
    <nd ref="746929895"/>
    <nd ref="746929896"/>
    <nd ref="746929897"/>
    <nd ref="746929888"/>
    <nd ref="746929889"/>
    <nd ref="746929890"/>
    <nd ref="746929891"/>
    <nd ref="746929892"/>
    <nd ref="746929893"/>
    <nd ref="746929883"/>
    <nd ref="746929884"/>
    <nd ref="746929885"/>
    <nd ref="746929886"/>
    <nd ref="746929880"/>
    <nd ref="746929881"/>
    <nd ref="746929882"/>
    <nd ref="746929887"/>
    <nd ref="746929876"/>
    <nd ref="746929877"/>
    <nd ref="746929878"/>
    <nd ref="746929879"/>
    <nd ref="746929867"/>
    <nd ref="746929868"/>
    <nd ref="746929869"/>
    <nd ref="746929870"/>
    <nd ref="746929871"/>
    <nd ref="746929872"/>
    <nd ref="746929873"/>
    <nd ref="746929874"/>
    <nd ref="746929875"/>
    <nd ref="746929866"/>
    <nd ref="746929864"/>
    <nd ref="746929865"/>
    <nd ref="746929859"/>
    <nd ref="746929862"/>
    <tag k="layer" v="-1"/>
    <tag k="name" v="Stellmoorer Quellfluss"/>
    <tag k="waterway" v="stream"/>
  </way>
  <way id="48173838" version="8" timestamp="2010-12-03T21:36:34Z" uid="4902" user="mbuege" changeset="6531826">
    <nd ref="612276333"/>
    <nd ref="612276336"/>
    <nd ref="612276337"/>
    <nd ref="612276339"/>
    <nd ref="612276341"/>
    <nd ref="612276343"/>
    <nd ref="612276345"/>
    <nd ref="612276348"/>
    <nd ref="612276320"/>
    <nd ref="612276323"/>
    <nd ref="612276325"/>
    <nd ref="612276328"/>
    <nd ref="612276331"/>
    <nd ref="612276319"/>
    <nd ref="612276297"/>
    <nd ref="612276299"/>
    <nd ref="612276301"/>
    <nd ref="612276304"/>
    <nd ref="612276306"/>
    <nd ref="612276309"/>
    <nd ref="612276312"/>
    <nd ref="612276315"/>
    <nd ref="612276317"/>
    <nd ref="612276264"/>
    <nd ref="612276267"/>
    <nd ref="612276270"/>
    <nd ref="612276272"/>
    <nd ref="612276274"/>
    <nd ref="612276277"/>
    <nd ref="612276278"/>
    <nd ref="612276281"/>
    <nd ref="612276283"/>
    <nd ref="612276286"/>
    <nd ref="612276288"/>
    <nd ref="612276291"/>
    <nd ref="612276294"/>
    <nd ref="612276295"/>
    <nd ref="612276262"/>
    <nd ref="612276231"/>
    <nd ref="612276232"/>
    <nd ref="612276234"/>
    <nd ref="612276236"/>
    <nd ref="612276238"/>
    <nd ref="612276241"/>
    <nd ref="612276244"/>
    <nd ref="612276246"/>
    <nd ref="612276249"/>
    <nd ref="612276252"/>
    <nd ref="612276253"/>
    <nd ref="612276255"/>
    <nd ref="612276256"/>
    <nd ref="612276259"/>
    <nd ref="612276219"/>
    <nd ref="612276221"/>
    <nd ref="612276223"/>
    <nd ref="612276225"/>
    <nd ref="612276227"/>
    <nd ref="612276229"/>
    <nd ref="612276212"/>
    <nd ref="612276214"/>
    <nd ref="612276216"/>
    <nd ref="612276217"/>
    <nd ref="612276218"/>
    <nd ref="612276175"/>
    <nd ref="612276179"/>
    <nd ref="612276205"/>
    <nd ref="612276208"/>
    <nd ref="612387995"/>
    <nd ref="612387996"/>
    <nd ref="612387991"/>
    <nd ref="612387992"/>
    <nd ref="612387993"/>
    <nd ref="612387994"/>
    <nd ref="612387984"/>
    <nd ref="612387985"/>
    <nd ref="612387986"/>
    <nd ref="612387987"/>
    <nd ref="612387988"/>
    <nd ref="612387990"/>
    <nd ref="612387969"/>
    <nd ref="612387970"/>
    <nd ref="612387972"/>
    <nd ref="612387973"/>
    <nd ref="612387974"/>
    <nd ref="612387975"/>
    <nd ref="612387976"/>
    <nd ref="612387977"/>
    <nd ref="612387978"/>
    <nd ref="612387979"/>
    <nd ref="612387980"/>
    <nd ref="612387981"/>
    <nd ref="612387982"/>
    <nd ref="612387983"/>
    <nd ref="612387971"/>
    <nd ref="612387958"/>
    <nd ref="612387959"/>
    <nd ref="612387960"/>
    <nd ref="612387961"/>
    <nd ref="612387962"/>
    <nd ref="612387963"/>
    <nd ref="612387964"/>
    <nd ref="612387965"/>
    <nd ref="612387966"/>
    <nd ref="612387967"/>
    <nd ref="612387956"/>
    <nd ref="612387957"/>
    <nd ref="612387946"/>
    <nd ref="612387947"/>
    <nd ref="612387948"/>
    <nd ref="612387949"/>
    <nd ref="612387950"/>
    <nd ref="612387952"/>
    <nd ref="612387953"/>
    <nd ref="612387954"/>
    <nd ref="612387955"/>
    <nd ref="612387941"/>
    <nd ref="612387942"/>
    <nd ref="612387943"/>
    <nd ref="612387944"/>
    <nd ref="612387945"/>
    <nd ref="612387929"/>
    <nd ref="612387930"/>
    <nd ref="612387931"/>
    <nd ref="612387932"/>
    <nd ref="612387933"/>
    <nd ref="612387934"/>
    <nd ref="612387935"/>
    <nd ref="612387937"/>
    <nd ref="612387938"/>
    <nd ref="612387939"/>
    <nd ref="612387940"/>
    <nd ref="612387926"/>
    <nd ref="1019081807"/>
    <nd ref="612387927"/>
    <nd ref="1019080886"/>
    <nd ref="612387928"/>
    <nd ref="1019080998"/>
    <nd ref="1019081604"/>
    <nd ref="612387924"/>
    <nd ref="612387925"/>
    <nd ref="612389517"/>
    <nd ref="612389519"/>
    <nd ref="612389520"/>
    <nd ref="612389521"/>
    <nd ref="612389522"/>
    <nd ref="612389507"/>
    <nd ref="612389508"/>
    <nd ref="612389509"/>
    <nd ref="612389510"/>
    <nd ref="612389511"/>
    <nd ref="612389512"/>
    <nd ref="612389513"/>
    <nd ref="612389514"/>
    <nd ref="612389515"/>
    <nd ref="612389516"/>
    <nd ref="612389506"/>
    <nd ref="612389492"/>
    <nd ref="612389493"/>
    <nd ref="612389494"/>
    <nd ref="612389495"/>
    <nd ref="612389496"/>
    <nd ref="612389497"/>
    <nd ref="612389498"/>
    <nd ref="612389499"/>
    <nd ref="612389500"/>
    <nd ref="612389501"/>
    <nd ref="612389503"/>
    <nd ref="612389504"/>
    <nd ref="612389505"/>
    <nd ref="612389488"/>
    <nd ref="612389489"/>
    <nd ref="612389490"/>
    <nd ref="612389491"/>
    <nd ref="612389473"/>
    <nd ref="612389474"/>
    <nd ref="612389475"/>
    <nd ref="612389476"/>
    <nd ref="612389477"/>
    <nd ref="612389478"/>
    <nd ref="612389479"/>
    <nd ref="612389480"/>
    <nd ref="612389481"/>
    <nd ref="612389482"/>
    <nd ref="612389483"/>
    <nd ref="612389484"/>
    <nd ref="612389486"/>
    <nd ref="612389487"/>
    <nd ref="612389466"/>
    <nd ref="612389467"/>
    <nd ref="612389468"/>
    <nd ref="612389469"/>
    <nd ref="612389471"/>
    <nd ref="612389472"/>
    <nd ref="612389454"/>
    <nd ref="612389455"/>
    <nd ref="612389456"/>
    <nd ref="612389457"/>
    <nd ref="612389458"/>
    <nd ref="612389460"/>
    <nd ref="612389461"/>
    <nd ref="612389462"/>
    <nd ref="612389463"/>
    <nd ref="612389464"/>
    <nd ref="612389465"/>
    <nd ref="612389449"/>
    <nd ref="612389451"/>
    <nd ref="612389452"/>
    <nd ref="612389453"/>
    <nd ref="612389430"/>
    <nd ref="612389431"/>
    <nd ref="612389432"/>
    <nd ref="612389433"/>
    <nd ref="612389434"/>
    <nd ref="612389436"/>
    <nd ref="612389439"/>
    <nd ref="612389440"/>
    <nd ref="612389441"/>
    <nd ref="612389442"/>
    <nd ref="612389443"/>
    <nd ref="612389444"/>
    <nd ref="612389445"/>
    <nd ref="612389446"/>
    <nd ref="612389447"/>
    <nd ref="612389448"/>
    <nd ref="612389438"/>
    <nd ref="612389413"/>
    <nd ref="612389414"/>
    <nd ref="612389415"/>
    <nd ref="612389416"/>
    <nd ref="612389417"/>
    <nd ref="612389427"/>
    <nd ref="612389428"/>
    <nd ref="612389429"/>
    <nd ref="746929954"/>
    <nd ref="746929953"/>
    <nd ref="746929955"/>
    <nd ref="746929956"/>
    <nd ref="746929957"/>
    <nd ref="746929958"/>
    <nd ref="746929959"/>
    <nd ref="746929960"/>
    <nd ref="746929961"/>
    <nd ref="746929962"/>
    <nd ref="746929963"/>
    <nd ref="746929964"/>
    <nd ref="746929950"/>
    <nd ref="746929951"/>
    <nd ref="746929952"/>
    <nd ref="746929941"/>
    <nd ref="746929942"/>
    <nd ref="746929943"/>
    <nd ref="746929944"/>
    <nd ref="746929945"/>
    <nd ref="746929946"/>
    <nd ref="746929947"/>
    <nd ref="746929948"/>
    <nd ref="746929949"/>
    <nd ref="746929931"/>
    <nd ref="746929932"/>
    <nd ref="746929933"/>
    <nd ref="746929934"/>
    <nd ref="746929935"/>
    <nd ref="746929936"/>
    <nd ref="746929937"/>
    <nd ref="746929938"/>
    <nd ref="746929939"/>
    <nd ref="746929940"/>
    <nd ref="746929930"/>
    <nd ref="746929921"/>
    <nd ref="746929922"/>
    <nd ref="746929923"/>
    <nd ref="746929924"/>
    <nd ref="746929925"/>
    <nd ref="746929926"/>
    <nd ref="746929927"/>
    <nd ref="746929928"/>
    <nd ref="746929929"/>
    <nd ref="746929913"/>
    <nd ref="746929914"/>
    <nd ref="746929915"/>
    <nd ref="746929916"/>
    <nd ref="746929917"/>
    <nd ref="746929918"/>
    <nd ref="746929910"/>
    <nd ref="746929919"/>
    <nd ref="746929920"/>
    <nd ref="746929911"/>
    <nd ref="746929912"/>
    <nd ref="746929902"/>
    <nd ref="746929900"/>
    <nd ref="746929901"/>
    <nd ref="746929899"/>
    <nd ref="746929898"/>
    <nd ref="746929894"/>
    <nd ref="746929895"/>
    <nd ref="746929896"/>
    <nd ref="746929897"/>
    <nd ref="746929888"/>
    <nd ref="746929889"/>
    <nd ref="746929890"/>
    <nd ref="746929891"/>
    <nd ref="746929892"/>
    <nd ref="746929893"/>
    <nd ref="746929883"/>
    <nd ref="746929884"/>
    <nd ref="746929885"/>
    <nd ref="746929886"/>
    <nd ref="746929880"/>
    <nd ref="746929881"/>
    <nd ref="746929882"/>
    <nd ref="746929887"/>
    <nd ref="746929876"/>
    <nd ref="746929877"/>
    <nd ref="746929878"/>
    <nd ref="746929879"/>
    <nd ref="746929867"/>
    <nd ref="746929868"/>
    <nd ref="746929869"/>
    <nd ref="746929870"/>
    <nd ref="746929871"/>
    <nd ref="746929872"/>
    <nd ref="746929873"/>
    <nd ref="746929874"/>
    <nd ref="746929875"/>
    <nd ref="746929866"/>
    <nd ref="746929864"/>
    <nd ref="746929865"/>
    <nd ref="746929859"/>
    <nd ref="746929862"/>
    <tag k="layer" v="-1"/>
    <tag k="name" v="Stellmoorer Quellfluss"/>
    <tag k="waterway" v="stream"/>
  </way>
  <way id="48173838" version="9" timestamp="2011-01-22T16:20:23Z" uid="4902" user="mbuege" changeset="7052121">
    <nd ref="612276333"/>
    <nd ref="612276336"/>
    <nd ref="612276337"/>
    <nd ref="612276339"/>
    <nd ref="612276341"/>
    <nd ref="612276343"/>
    <nd ref="612276345"/>
    <nd ref="612276348"/>
    <nd ref="612276320"/>
    <nd ref="612276323"/>
    <nd ref="612276325"/>
    <nd ref="612276328"/>
    <nd ref="612276331"/>
    <nd ref="612276319"/>
    <nd ref="612276297"/>
    <nd ref="612276299"/>
    <nd ref="612276301"/>
    <nd ref="612276304"/>
    <nd ref="612276306"/>
    <nd ref="612276309"/>
    <nd ref="612276312"/>
    <nd ref="612276315"/>
    <nd ref="612276317"/>
    <nd ref="612276264"/>
    <nd ref="612276267"/>
    <nd ref="612276270"/>
    <nd ref="612276272"/>
    <nd ref="612276274"/>
    <nd ref="612276277"/>
    <nd ref="612276278"/>
    <nd ref="612276281"/>
    <nd ref="612276283"/>
    <nd ref="612276286"/>
    <nd ref="612276288"/>
    <nd ref="612276291"/>
    <nd ref="612276294"/>
    <nd ref="612276295"/>
    <nd ref="612276262"/>
    <nd ref="612276231"/>
    <nd ref="612276232"/>
    <nd ref="612276234"/>
    <nd ref="612276236"/>
    <nd ref="612276238"/>
    <nd ref="612276241"/>
    <nd ref="612276244"/>
    <nd ref="612276246"/>
    <nd ref="612276249"/>
    <nd ref="612276252"/>
    <nd ref="612276253"/>
    <nd ref="612276255"/>
    <nd ref="612276256"/>
    <nd ref="612276259"/>
    <nd ref="612276219"/>
    <nd ref="612276221"/>
    <nd ref="612276223"/>
    <nd ref="612276225"/>
    <nd ref="612276227"/>
    <nd ref="612276229"/>
    <nd ref="612276212"/>
    <nd ref="612276214"/>
    <nd ref="612276216"/>
    <nd ref="612276217"/>
    <nd ref="612276218"/>
    <nd ref="612276175"/>
    <nd ref="612276179"/>
    <nd ref="612276205"/>
    <nd ref="612276208"/>
    <nd ref="612387995"/>
    <nd ref="612387996"/>
    <nd ref="612387991"/>
    <nd ref="612387992"/>
    <nd ref="612387993"/>
    <nd ref="612387994"/>
    <nd ref="612387984"/>
    <nd ref="612387985"/>
    <nd ref="612387986"/>
    <nd ref="612387987"/>
    <nd ref="612387988"/>
    <nd ref="612387990"/>
    <nd ref="612387969"/>
    <nd ref="612387970"/>
    <nd ref="612387972"/>
    <nd ref="612387973"/>
    <nd ref="612387974"/>
    <nd ref="612387975"/>
    <nd ref="612387976"/>
    <nd ref="612387977"/>
    <nd ref="612387978"/>
    <nd ref="612387979"/>
    <nd ref="612387980"/>
    <nd ref="612387981"/>
    <nd ref="612387982"/>
    <nd ref="612387983"/>
    <nd ref="612387971"/>
    <nd ref="612387958"/>
    <nd ref="612387959"/>
    <nd ref="612387960"/>
    <nd ref="612387961"/>
    <nd ref="612387962"/>
    <nd ref="612387963"/>
    <nd ref="612387964"/>
    <nd ref="612387965"/>
    <nd ref="612387966"/>
    <nd ref="612387967"/>
    <nd ref="612387956"/>
    <nd ref="612387957"/>
    <nd ref="612387946"/>
    <nd ref="612387947"/>
    <nd ref="612387948"/>
    <nd ref="612387949"/>
    <nd ref="612387950"/>
    <nd ref="612387952"/>
    <nd ref="612387953"/>
    <nd ref="612387954"/>
    <nd ref="612387955"/>
    <nd ref="612387941"/>
    <nd ref="612387942"/>
    <nd ref="612387943"/>
    <nd ref="612387944"/>
    <nd ref="612387945"/>
    <nd ref="612387929"/>
    <nd ref="612387930"/>
    <nd ref="612387931"/>
    <nd ref="612387932"/>
    <nd ref="612387933"/>
    <nd ref="612387934"/>
    <nd ref="612387935"/>
    <nd ref="612387937"/>
    <nd ref="612387938"/>
    <nd ref="612387939"/>
    <nd ref="612387940"/>
    <nd ref="612387926"/>
    <nd ref="1019081807"/>
    <nd ref="612387927"/>
    <nd ref="1019080886"/>
    <nd ref="612387928"/>
    <nd ref="1019080998"/>
    <nd ref="1019081604"/>
    <nd ref="612387924"/>
    <nd ref="612387925"/>
    <nd ref="612389517"/>
    <nd ref="612389519"/>
    <nd ref="612389520"/>
    <nd ref="612389521"/>
    <nd ref="612389522"/>
    <nd ref="612389507"/>
    <nd ref="612389508"/>
    <nd ref="612389509"/>
    <nd ref="612389510"/>
    <nd ref="612389511"/>
    <nd ref="612389512"/>
    <nd ref="612389513"/>
    <nd ref="612389514"/>
    <nd ref="612389515"/>
    <nd ref="612389516"/>
    <nd ref="612389506"/>
    <nd ref="612389492"/>
    <nd ref="612389493"/>
    <nd ref="612389494"/>
    <nd ref="612389495"/>
    <nd ref="612389496"/>
    <nd ref="612389497"/>
    <nd ref="612389498"/>
    <nd ref="612389499"/>
    <nd ref="612389500"/>
    <nd ref="612389501"/>
    <nd ref="612389503"/>
    <nd ref="612389504"/>
    <nd ref="612389505"/>
    <nd ref="612389488"/>
    <nd ref="612389489"/>
    <nd ref="612389490"/>
    <nd ref="612389491"/>
    <nd ref="612389473"/>
    <nd ref="612389474"/>
    <nd ref="612389475"/>
    <nd ref="612389476"/>
    <nd ref="612389477"/>
    <nd ref="612389478"/>
    <nd ref="612389479"/>
    <nd ref="612389480"/>
    <nd ref="612389481"/>
    <nd ref="612389482"/>
    <nd ref="612389483"/>
    <nd ref="612389484"/>
    <nd ref="612389486"/>
    <nd ref="612389487"/>
    <nd ref="612389466"/>
    <nd ref="612389467"/>
    <nd ref="612389468"/>
    <nd ref="612389469"/>
    <nd ref="612389471"/>
    <nd ref="612389472"/>
    <nd ref="612389454"/>
    <nd ref="612389455"/>
    <nd ref="612389456"/>
    <nd ref="612389457"/>
    <nd ref="612389458"/>
    <nd ref="612389460"/>
    <nd ref="612389461"/>
    <nd ref="612389462"/>
    <nd ref="612389463"/>
    <nd ref="612389464"/>
    <nd ref="612389465"/>
    <nd ref="612389449"/>
    <nd ref="612389451"/>
    <nd ref="612389452"/>
    <nd ref="612389453"/>
    <nd ref="612389430"/>
    <nd ref="612389431"/>
    <nd ref="612389432"/>
    <nd ref="612389433"/>
    <nd ref="612389434"/>
    <nd ref="612389436"/>
    <nd ref="612389439"/>
    <nd ref="612389440"/>
    <nd ref="612389441"/>
    <nd ref="612389442"/>
    <nd ref="612389443"/>
    <nd ref="612389444"/>
    <nd ref="612389445"/>
    <nd ref="612389446"/>
    <nd ref="612389447"/>
    <nd ref="612389448"/>
    <nd ref="612389438"/>
    <nd ref="612389413"/>
    <nd ref="612389414"/>
    <nd ref="612389415"/>
    <nd ref="612389416"/>
    <nd ref="612389417"/>
    <nd ref="612389427"/>
    <nd ref="612389428"/>
    <nd ref="612389429"/>
    <nd ref="746929954"/>
    <nd ref="746929953"/>
    <nd ref="746929955"/>
    <nd ref="746929956"/>
    <nd ref="746929957"/>
    <nd ref="746929958"/>
    <nd ref="746929959"/>
    <nd ref="746929960"/>
    <nd ref="746929961"/>
    <nd ref="746929962"/>
    <nd ref="746929963"/>
    <nd ref="746929964"/>
    <nd ref="746929950"/>
    <nd ref="746929951"/>
    <nd ref="746929952"/>
    <nd ref="746929941"/>
    <nd ref="746929942"/>
    <nd ref="746929943"/>
    <nd ref="746929944"/>
    <nd ref="746929945"/>
    <nd ref="746929946"/>
    <nd ref="746929947"/>
    <nd ref="746929948"/>
    <nd ref="746929949"/>
    <nd ref="746929931"/>
    <nd ref="746929932"/>
    <nd ref="746929933"/>
    <nd ref="746929934"/>
    <nd ref="746929935"/>
    <nd ref="746929936"/>
    <nd ref="746929937"/>
    <nd ref="746929938"/>
    <nd ref="746929939"/>
    <nd ref="746929940"/>
    <nd ref="746929930"/>
    <nd ref="746929921"/>
    <nd ref="746929922"/>
    <nd ref="746929923"/>
    <nd ref="746929924"/>
    <nd ref="746929925"/>
    <nd ref="746929926"/>
    <nd ref="746929927"/>
    <nd ref="746929928"/>
    <nd ref="746929929"/>
    <nd ref="746929913"/>
    <nd ref="746929914"/>
    <nd ref="746929915"/>
    <nd ref="746929916"/>
    <nd ref="746929917"/>
    <nd ref="746929918"/>
    <nd ref="746929910"/>
    <nd ref="746929919"/>
    <nd ref="746929920"/>
    <nd ref="746929911"/>
    <nd ref="746929912"/>
    <nd ref="746929902"/>
    <nd ref="746929900"/>
    <nd ref="746929901"/>
    <nd ref="746929899"/>
    <nd ref="746929898"/>
    <nd ref="746929894"/>
    <nd ref="746929895"/>
    <nd ref="746929896"/>
    <nd ref="746929897"/>
    <nd ref="746929888"/>
    <nd ref="746929889"/>
    <nd ref="746929890"/>
    <nd ref="746929891"/>
    <nd ref="746929892"/>
    <nd ref="746929893"/>
    <nd ref="746929883"/>
    <nd ref="746929884"/>
    <nd ref="746929885"/>
    <nd ref="746929886"/>
    <nd ref="746929880"/>
    <nd ref="746929881"/>
    <nd ref="746929882"/>
    <nd ref="746929887"/>
    <nd ref="746929876"/>
    <nd ref="746929877"/>
    <nd ref="746929878"/>
    <nd ref="746929879"/>
    <nd ref="746929867"/>
    <nd ref="746929868"/>
    <nd ref="746929869"/>
    <nd ref="746929870"/>
    <nd ref="746929871"/>
    <nd ref="746929872"/>
    <nd ref="746929873"/>
    <nd ref="746929874"/>
    <nd ref="746929875"/>
    <nd ref="746929866"/>
    <nd ref="746929864"/>
    <nd ref="1115619730"/>
    <nd ref="746929865"/>
    <nd ref="746929859"/>
    <nd ref="746929862"/>
    <tag k="layer" v="-1"/>
    <tag k="name" v="Stellmoorer Quellfluss"/>
    <tag k="waterway" v="stream"/>
  </way>
  <way id="48173852" version="2" timestamp="2010-02-15T05:20:23Z" uid="74617" user="JohnSmith" changeset="3880269">
    <nd ref="612278325"/>
    <nd ref="612278328"/>
    <nd ref="612278331"/>
    <nd ref="612278334"/>
    <nd ref="612278337"/>
    <nd ref="612278341"/>
    <nd ref="612278344"/>
    <nd ref="612278347"/>
    <nd ref="612278350"/>
    <nd ref="612278353"/>
    <nd ref="612278356"/>
    <nd ref="612278359"/>
    <nd ref="612278362"/>
    <nd ref="612278366"/>
    <nd ref="612278369"/>
    <nd ref="612278372"/>
    <nd ref="612278373"/>
    <nd ref="612278376"/>
    <nd ref="612278379"/>
    <nd ref="612278382"/>
    <nd ref="612278385"/>
    <nd ref="612278387"/>
    <nd ref="612278389"/>
    <nd ref="612278390"/>
    <nd ref="612278391"/>
    <nd ref="612278392"/>
    <nd ref="612278393"/>
    <nd ref="612278394"/>
    <nd ref="612278395"/>
    <nd ref="612278397"/>
    <nd ref="612278398"/>
    <nd ref="612278399"/>
    <tag k="highway" v="service"/>
    <tag k="maxspeed" v="50"/>
    <tag k="service" v="residential"/>
    <tag k="source" v="nearmap"/>
  </way>
  <way id="48173852" version="3" timestamp="2012-01-19T21:34:28Z" uid="147510" user="woodpeck_fixbot" changeset="10440306">
    <nd ref="612278325"/>
    <nd ref="612278328"/>
    <nd ref="612278331"/>
    <nd ref="612278334"/>
    <nd ref="612278337"/>
    <nd ref="612278341"/>
    <nd ref="612278344"/>
    <nd ref="612278347"/>
    <nd ref="612278350"/>
    <nd ref="612278353"/>
    <nd ref="612278356"/>
    <nd ref="612278359"/>
    <nd ref="612278362"/>
    <nd ref="612278366"/>
    <nd ref="612278369"/>
    <nd ref="612278372"/>
    <nd ref="612278373"/>
    <nd ref="612278376"/>
    <nd ref="612278379"/>
    <nd ref="612278382"/>
    <nd ref="612278385"/>
    <nd ref="612278387"/>
    <nd ref="612278389"/>
    <nd ref="612278390"/>
    <nd ref="612278391"/>
    <nd ref="612278392"/>
    <nd ref="612278393"/>
    <nd ref="612278394"/>
    <nd ref="612278395"/>
    <nd ref="612278397"/>
    <nd ref="612278398"/>
    <nd ref="612278399"/>
    <tag k="highway" v="service"/>
    <tag k="service" v="residential"/>
    <tag k="source" v="nearmap"/>
  </way>
  <way id="48173875" version="4" timestamp="2010-02-15T05:23:45Z" uid="74617" user="JohnSmith" changeset="3880269">
    <nd ref="612280323"/>
    <nd ref="612282208"/>
    <nd ref="612285230"/>
    <nd ref="612284765"/>
    <nd ref="612282211"/>
    <nd ref="612282214"/>
    <nd ref="612282215"/>
    <nd ref="612282216"/>
    <nd ref="612282217"/>
    <nd ref="612282219"/>
    <nd ref="612282221"/>
    <nd ref="612282222"/>
    <nd ref="612282224"/>
    <nd ref="612282225"/>
    <nd ref="612282228"/>
    <nd ref="612282230"/>
    <nd ref="612282239"/>
    <nd ref="612282242"/>
    <nd ref="612282246"/>
    <tag k="highway" v="residential"/>
    <tag k="maxspeed" v="50"/>
    <tag k="source" v="nearmap"/>
  </way>
  <way id="48173875" version="5" timestamp="2010-04-02T11:35:06Z" uid="255720" user="lokipagan" changeset="4302483">
    <nd ref="612280323"/>
    <nd ref="612282208"/>
    <nd ref="612285230"/>
    <nd ref="612284765"/>
    <nd ref="612282211"/>
    <nd ref="612282214"/>
    <nd ref="612282215"/>
    <nd ref="612282216"/>
    <nd ref="612282217"/>
    <nd ref="612282219"/>
    <nd ref="612282221"/>
    <nd ref="612282222"/>
    <nd ref="612282224"/>
    <nd ref="612282225"/>
    <nd ref="612282228"/>
    <nd ref="612282230"/>
    <nd ref="612282239"/>
    <nd ref="612282242"/>
    <nd ref="612282246"/>
    <tag k="highway" v="residential"/>
    <tag k="maxspeed" v="50"/>
    <tag k="name" v="Harrier Place"/>
    <tag k="source" v="nearmap"/>
  </way>
  <way id="48173875" version="6" timestamp="2012-01-19T21:34:30Z" uid="147510" user="woodpeck_fixbot" changeset="10440306">
    <nd ref="612280323"/>
    <nd ref="612282208"/>
    <nd ref="612285230"/>
    <nd ref="612284765"/>
    <nd ref="612282211"/>
    <nd ref="612282214"/>
    <nd ref="612282215"/>
    <nd ref="612282216"/>
    <nd ref="612282217"/>
    <nd ref="612282219"/>
    <nd ref="612282221"/>
    <nd ref="612282222"/>
    <nd ref="612282224"/>
    <nd ref="612282225"/>
    <nd ref="612282228"/>
    <nd ref="612282230"/>
    <nd ref="612282239"/>
    <nd ref="612282242"/>
    <nd ref="612282246"/>
    <tag k="highway" v="residential"/>
    <tag k="name" v="Harrier Place"/>
    <tag k="source" v="nearmap"/>
  </way>
  <way id="48173948" version="1" timestamp="2010-01-12T14:58:52Z" uid="74617" user="JohnSmith" changeset="3603733">
    <nd ref="612283141"/>
    <nd ref="612283146"/>
    <nd ref="612283175"/>
    <nd ref="612283177"/>
    <nd ref="612283180"/>
    <nd ref="612283181"/>
    <nd ref="612283154"/>
    <nd ref="612283155"/>
    <nd ref="612282982"/>
    <nd ref="612283123"/>
    <nd ref="612283132"/>
    <nd ref="612283136"/>
    <nd ref="612283141"/>
    <tag k="amenity" v="parking"/>
    <tag k="source" v="nearmap"/>
  </way>
  <way id="48173949" version="1" timestamp="2010-01-12T14:58:52Z" uid="74617" user="JohnSmith" changeset="3603733">
    <nd ref="612283010"/>
    <nd ref="612282978"/>
    <nd ref="612282981"/>
    <tag k="highway" v="service"/>
    <tag k="source" v="nearmap"/>
  </way>
  <way id="48173949" version="2" timestamp="2010-03-01T05:31:57Z" uid="74617" user="JohnSmith" changeset="4005900">
    <nd ref="612283010"/>
    <nd ref="612282978"/>
    <nd ref="612282981"/>
    <tag k="highway" v="residential"/>
    <tag k="maxspeed" v="50"/>
    <tag k="name" v="Flegg Street"/>
    <tag k="source" v="nearmap"/>
  </way>
  <way id="48173949" version="3" timestamp="2010-06-11T02:50:08Z" uid="74617" user="JohnSmith" changeset="4959520">
    <nd ref="612283010"/>
    <nd ref="768967321"/>
    <nd ref="612282978"/>
    <nd ref="612282981"/>
    <tag k="highway" v="residential"/>
    <tag k="maxspeed" v="50"/>
    <tag k="name" v="Flegg Street"/>
    <tag k="source" v="nearmap"/>
  </way>
  <way id="48173949" version="4" timestamp="2010-06-12T22:54:09Z" uid="74617" user="JohnSmith" changeset="4974408">
    <nd ref="612283010"/>
    <nd ref="768967321"/>
    <nd ref="770726368"/>
    <nd ref="612282978"/>
    <nd ref="612282981"/>
    <tag k="highway" v="residential"/>
    <tag k="maxspeed" v="50"/>
    <tag k="name" v="Flegg Street"/>
    <tag k="source" v="nearmap"/>
  </way>
  <way id="48173949" version="5" timestamp="2010-06-12T23:06:31Z" uid="74617" user="JohnSmith" changeset="4974408">
    <nd ref="612283010"/>
    <nd ref="768967321"/>
    <nd ref="770726368"/>
    <nd ref="612282978"/>
    <nd ref="770740180"/>
    <nd ref="612282981"/>
    <tag k="highway" v="residential"/>
    <tag k="maxspeed" v="50"/>
    <tag k="name" v="Flegg Street"/>
    <tag k="source" v="nearmap"/>
  </way>
  <way id="48173949" version="6" timestamp="2012-01-09T01:58:30Z" uid="2585" user="rw_" changeset="10338587">
    <nd ref="612283010"/>
    <nd ref="768967321"/>
    <nd ref="770726368"/>
    <nd ref="612282978"/>
    <nd ref="770740180"/>
    <nd ref="612282981"/>
    <tag k="highway" v="residential"/>
    <tag k="name" v="Flegg Street"/>
    <tag k="source" v="nearmap"/>
  </way>
  <way id="48173949" version="7" timestamp="2012-01-09T04:35:10Z" uid="2585" user="rw_" changeset="10338896">
    <nd ref="612283010"/>
    <nd ref="768967321"/>
    <nd ref="770726368"/>
    <nd ref="612282978"/>
    <nd ref="770740180"/>
    <nd ref="612282981"/>
    <tag k="highway" v="residential"/>
    <tag k="maxspeed" v="50"/>
    <tag k="name" v="Flegg Street"/>
    <tag k="source" v="nearmap"/>
  </way>
  <way id="48173950" version="1" timestamp="2010-01-12T14:58:52Z" uid="74617" user="JohnSmith" changeset="3603733">
    <nd ref="612282985"/>
    <nd ref="612282987"/>
    <nd ref="612282957"/>
    <nd ref="612282962"/>
    <nd ref="612282970"/>
    <nd ref="612282965"/>
    <nd ref="612282968"/>
    <nd ref="612282999"/>
    <nd ref="612282997"/>
    <nd ref="612283002"/>
    <nd ref="612282985"/>
    <tag k="amenity" v="parking"/>
    <tag k="source" v="nearmap"/>
  </way>
  <way id="48173951" version="1" timestamp="2010-01-12T14:58:52Z" uid="74617" user="JohnSmith" changeset="3603733">
    <nd ref="612282984"/>
    <nd ref="612283002"/>
    <nd ref="612282970"/>
    <nd ref="612282946"/>
    <tag k="highway" v="service"/>
    <tag k="source" v="nearmap"/>
  </way>
  <way id="48173951" version="2" timestamp="2010-02-07T11:06:59Z" uid="74617" user="JohnSmith" changeset="3812859">
    <nd ref="612282984"/>
    <nd ref="632303745"/>
    <nd ref="612283002"/>
    <nd ref="632303725"/>
    <nd ref="632303734"/>
    <nd ref="612282970"/>
    <nd ref="612282946"/>
    <tag k="highway" v="service"/>
    <tag k="source" v="nearmap"/>
  </way>
  <way id="48173952" version="1" timestamp="2010-01-12T14:58:53Z" uid="74617" user="JohnSmith" changeset="3603733">
    <nd ref="612283016"/>
    <nd ref="612283018"/>
    <nd ref="612283019"/>
    <nd ref="612283022"/>
    <nd ref="612283016"/>
    <tag k="amenity" v="parking"/>
    <tag k="source" v="nearmap"/>
  </way>
  <way id="48173953" version="1" timestamp="2010-01-12T14:58:53Z" uid="74617" user="JohnSmith" changeset="3603733">
    <nd ref="612283025"/>
    <nd ref="612283027"/>
    <nd ref="612283035"/>
    <nd ref="612283038"/>
    <nd ref="612283025"/>
    <tag k="amenity" v="parking"/>
    <tag k="source" v="nearmap"/>
  </way>
  <way id="48173954" version="1" timestamp="2010-01-12T14:58:53Z" uid="74617" user="JohnSmith" changeset="3603733">
    <nd ref="612283041"/>
    <nd ref="612283043"/>
    <nd ref="612283005"/>
    <nd ref="612283007"/>
    <nd ref="612283041"/>
    <tag k="amenity" v="parking"/>
    <tag k="source" v="nearmap"/>
  </way>
  <way id="48173955" version="1" timestamp="2010-01-12T14:58:53Z" uid="74617" user="JohnSmith" changeset="3603733">
    <nd ref="612283059"/>
    <nd ref="612283065"/>
    <nd ref="612283062"/>
    <nd ref="612283056"/>
    <nd ref="612283053"/>
    <tag k="highway" v="residential"/>
    <tag k="name" v="Seaview Parade"/>
    <tag k="source" v="nearmap"/>
  </way>
  <way id="48173955" version="2" timestamp="2010-01-19T13:32:11Z" uid="74617" user="JohnSmith" changeset="3658798">
    <nd ref="612283059"/>
    <nd ref="612283065"/>
    <nd ref="612283062"/>
    <nd ref="612283056"/>
    <nd ref="612283053"/>
    <tag k="highway" v="residential"/>
    <tag k="source" v="nearmap"/>
  </way>
  <way id="48173955" version="3" timestamp="2010-02-07T10:41:25Z" uid="74617" user="JohnSmith" changeset="3812649">
    <nd ref="612283059"/>
    <nd ref="612283065"/>
    <nd ref="612283062"/>
    <nd ref="612283056"/>
    <nd ref="612283053"/>
    <tag k="highway" v="residential"/>
    <tag k="maxspeed" v="50"/>
    <tag k="source" v="nearmap"/>
  </way>
  <way id="48173955" version="4" timestamp="2012-01-09T02:03:20Z" uid="2585" user="rw_" changeset="10338587">
    <nd ref="612283059"/>
    <nd ref="612283065"/>
    <nd ref="612283062"/>
    <nd ref="612283056"/>
    <nd ref="612283053"/>
    <tag k="highway" v="residential"/>
    <tag k="source" v="nearmap"/>
  </way>
  <way id="48173955" version="5" timestamp="2012-01-09T04:40:51Z" uid="2585" user="rw_" changeset="10338896">
    <nd ref="612283059"/>
    <nd ref="612283065"/>
    <nd ref="612283062"/>
    <nd ref="612283056"/>
    <nd ref="612283053"/>
    <tag k="highway" v="residential"/>
    <tag k="maxspeed" v="50"/>
    <tag k="source" v="nearmap"/>
  </way>
  <way id="48173956" version="1" timestamp="2010-01-12T14:58:53Z" uid="74617" user="JohnSmith" changeset="3603733">
    <nd ref="612283053"/>
    <nd ref="35578645"/>
    <tag k="highway" v="residential"/>
    <tag k="name" v="Seaview Parade"/>
    <tag k="source" v="nearmap"/>
  </way>
  <way id="48173956" version="2" timestamp="2010-01-19T13:32:11Z" uid="74617" user="JohnSmith" changeset="3658798">
    <nd ref="35578541"/>
    <nd ref="35578643"/>
    <nd ref="612283053"/>
    <nd ref="35578645"/>
    <tag k="highway" v="residential"/>
    <tag k="name" v="Seaview Parade"/>
    <tag k="source" v="nearmap"/>
  </way>
  <way id="48173956" version="3" timestamp="2010-02-07T10:41:22Z" uid="74617" user="JohnSmith" changeset="3812649">
    <nd ref="35578541"/>
    <nd ref="35578643"/>
    <nd ref="612283053"/>
    <nd ref="35578645"/>
    <tag k="highway" v="residential"/>
    <tag k="maxspeed" v="50"/>
    <tag k="name" v="Seaview Parade"/>
    <tag k="source" v="nearmap"/>
  </way>
  <way id="48173956" version="4" timestamp="2010-06-11T03:08:35Z" uid="74617" user="JohnSmith" changeset="4959571">
    <nd ref="35578541"/>
    <nd ref="768968601"/>
    <nd ref="35578643"/>
    <nd ref="612283053"/>
    <nd ref="35578645"/>
    <tag k="highway" v="residential"/>
    <tag k="maxspeed" v="50"/>
    <tag k="name" v="Seaview Parade"/>
    <tag k="source" v="nearmap"/>
  </way>
  <way id="48173956" version="5" timestamp="2010-11-18T04:28:25Z" uid="22094" user="Chadzopkyo" changeset="6397561">
    <nd ref="35578541"/>
    <nd ref="768968601"/>
    <nd ref="35578643"/>
    <nd ref="612283053"/>
    <nd ref="35578645"/>
    <tag k="highway" v="residential"/>
    <tag k="maxspeed" v="50"/>
    <tag k="name" v="Seaview Parade"/>
    <tag k="source" v="nearmap"/>
    <tag k="surface" v="asphalt"/>
  </way>
  <way id="48173956" version="6" timestamp="2012-01-09T02:00:32Z" uid="2585" user="rw_" changeset="10338587">
    <nd ref="35578541"/>
    <nd ref="768968601"/>
    <nd ref="35578643"/>
    <nd ref="612283053"/>
    <nd ref="35578645"/>
    <tag k="highway" v="residential"/>
    <tag k="name" v="Seaview Parade"/>
    <tag k="source" v="nearmap"/>
    <tag k="surface" v="asphalt"/>
  </way>
  <way id="48173956" version="7" timestamp="2012-01-09T04:37:21Z" uid="2585" user="rw_" changeset="10338896">
    <nd ref="35578541"/>
    <nd ref="768968601"/>
    <nd ref="35578643"/>
    <nd ref="612283053"/>
    <nd ref="35578645"/>
    <tag k="highway" v="residential"/>
    <tag k="maxspeed" v="50"/>
    <tag k="name" v="Seaview Parade"/>
    <tag k="source" v="nearmap"/>
    <tag k="surface" v="asphalt"/>
  </way>
  <way id="48173957" version="1" timestamp="2010-01-12T14:58:53Z" uid="74617" user="JohnSmith" changeset="3603733">
    <nd ref="612283072"/>
    <nd ref="612283076"/>
    <tag k="highway" v="service"/>
    <tag k="source" v="nearmap"/>
  </way>
  <way id="48173957" version="2" timestamp="2010-02-07T11:06:59Z" uid="74617" user="JohnSmith" changeset="3812859">
    <nd ref="612283072"/>
    <nd ref="632303915"/>
    <nd ref="612283076"/>
    <tag k="highway" v="service"/>
    <tag k="source" v="nearmap"/>
  </way>
  <way id="48173958" version="1" timestamp="2010-01-12T14:58:53Z" uid="74617" user="JohnSmith" changeset="3603733">
    <nd ref="612283188"/>
    <nd ref="612283118"/>
    <nd ref="612283119"/>
    <nd ref="612283122"/>
    <nd ref="612283138"/>
    <nd ref="612283143"/>
    <nd ref="612283157"/>
    <nd ref="612283159"/>
    <nd ref="612283160"/>
    <nd ref="612283171"/>
    <nd ref="612283162"/>
    <nd ref="612283188"/>
    <tag k="building" v="yes"/>
    <tag k="source" v="nearmap"/>
  </way>
  <way id="48173960" version="2" timestamp="2010-02-15T05:23:46Z" uid="74617" user="JohnSmith" changeset="3880269">
    <nd ref="612282214"/>
    <nd ref="612284127"/>
    <nd ref="612284141"/>
    <nd ref="612284148"/>
    <nd ref="612284150"/>
    <nd ref="612284152"/>
    <nd ref="612284158"/>
    <nd ref="612284162"/>
    <tag k="highway" v="residential"/>
    <tag k="maxspeed" v="50"/>
    <tag k="source" v="nearmap"/>
  </way>
  <way id="48173960" version="3" timestamp="2010-04-02T11:35:01Z" uid="255720" user="lokipagan" changeset="4302483">
    <nd ref="612282214"/>
    <nd ref="612284127"/>
    <nd ref="612284141"/>
    <nd ref="612284148"/>
    <nd ref="612284150"/>
    <nd ref="612284152"/>
    <nd ref="612284158"/>
    <nd ref="612284162"/>
    <tag k="highway" v="residential"/>
    <tag k="maxspeed" v="50"/>
    <tag k="name" v="Bellbird Court"/>
    <tag k="source" v="nearmap"/>
  </way>
  <way id="48173960" version="4" timestamp="2012-01-19T21:34:32Z" uid="147510" user="woodpeck_fixbot" changeset="10440306">
    <nd ref="612282214"/>
    <nd ref="612284127"/>
    <nd ref="612284141"/>
    <nd ref="612284148"/>
    <nd ref="612284150"/>
    <nd ref="612284152"/>
    <nd ref="612284158"/>
    <nd ref="612284162"/>
    <tag k="highway" v="residential"/>
    <tag k="name" v="Bellbird Court"/>
    <tag k="source" v="nearmap"/>
  </way>
</osm>
