<?xml version='1.0' encoding='UTF-8'?>
<osm version="0.6" generator="libosmium/2.20.0">
  <way id="48171095" version="3" timestamp="2011-03-22T10:28:53Z" uid="4467" user="Rosscoe" changeset="7635681"/>
  <way id="48171096" version="3" timestamp="2010-10-04T00:17:44Z" uid="7617" user="Franc" changeset="5949773">
    <nd ref="70151809"/>
    <nd ref="937358015"/>
    <nd ref="937357977"/>
    <nd ref="251387724"/>
    <tag k="foot" v="yes"/>
    <tag k="highway" v="footway"/>
  </way>
  <way id="48171096" version="4" timestamp="2011-02-18T09:28:50Z" uid="264575" user="Jenni_SharkBike" changeset="7320653">
    <nd ref="70151809"/>
    <nd ref="937358015"/>
    <nd ref="937357977"/>
    <nd ref="251387724"/>
    <tag k="foot" v="yes"/>
    <tag k="highway" v="path"/>
  </way>
  <way id="48171096" version="5" timestamp="2011-02-18T09:31:18Z" uid="264575" user="Jenni_SharkBike" changeset="7320653">
    <nd ref="70151809"/>
    <nd ref="937358015"/>
    <nd ref="937357977"/>
    <nd ref="251387724"/>
    <tag k="foot" v="yes"/>
    <tag k="highway" v="cycleway"/>
  </way>
  <way id="48171096" version="6" timestamp="2012-01-29T02:24:39Z" uid="7523" user="inas" changeset="10526610">
    <nd ref="70151809"/>
    <nd ref="937358015"/>
    <nd ref="937357977"/>
    <nd ref="251387724"/>
    <tag k="bicycle" v="yes"/>
    <tag k="foot" v="yes"/>
    <tag k="highway" v="footway"/>
    <tag k="surface" v="concrete"/>
    <tag k="width" v="1"/>
  </way>
  <way id="48171115" version="1" timestamp="2010-01-12T13:16:46Z" uid="115477" user="wowik" changeset="3602714">
    <nd ref="612136060"/>
    <nd ref="612136063"/>
    <nd ref="612136065"/>
    <nd ref="612136068"/>
    <nd ref="612136070"/>
    <nd ref="612136073"/>
    <nd ref="612136075"/>
    <nd ref="612136077"/>
    <nd ref="612136060"/>
    <tag k="leisure" v="pitch"/>
  </way>
  <way id="48171115" version="2" timestamp="2011-07-18T13:55:48Z" uid="465700" user="Tomasina" changeset="8758725">
    <nd ref="612136060"/>
    <nd ref="612136063"/>
    <nd ref="1365422584"/>
    <nd ref="612136065"/>
    <nd ref="612136068"/>
    <nd ref="1365422581"/>
    <nd ref="612136070"/>
    <nd ref="612136073"/>
    <nd ref="1365422580"/>
    <nd ref="612136075"/>
    <nd ref="612136077"/>
    <nd ref="1365422583"/>
    <nd ref="612136060"/>
    <tag k="leisure" v="pitch"/>
  </way>
  <way id="48171142" version="1" timestamp="2010-01-12T13:18:31Z" uid="115477" user="wowik" changeset="3602714">
    <nd ref="612133002"/>
    <nd ref="612133003"/>
    <tag k="highway" v="service"/>
    <tag k="living_street" v="yes"/>
    <tag k="service" v="parking_aisle"/>
  </way>
  <way id="48171177" version="1" timestamp="2010-01-12T13:20:01Z" uid="115477" user="wowik" changeset="3602714">
    <nd ref="612136964"/>
    <nd ref="612136965"/>
    <nd ref="612133015"/>
    <tag k="highway" v="service"/>
    <tag k="living_street" v="yes"/>
    <tag k="service" v="living_street"/>
  </way>
  <way id="48171177" version="2" timestamp="2011-08-03T14:26:01Z" uid="465700" user="Tomasina" changeset="8910620">
    <nd ref="612136964"/>
    <nd ref="612136965"/>
    <nd ref="1384565853"/>
    <tag k="highway" v="service"/>
    <tag k="living_street" v="yes"/>
    <tag k="service" v="living_street"/>
  </way>
  <way id="48171178" version="1" timestamp="2010-01-12T13:20:01Z" uid="115477" user="wowik" changeset="3602714">
    <nd ref="612136966"/>
    <nd ref="612136968"/>
    <nd ref="612136969"/>
    <nd ref="612136970"/>
    <nd ref="612136971"/>
    <nd ref="612136966"/>
    <tag k="leisure" v="playground"/>
  </way>
  <way id="48171178" version="2" timestamp="2011-07-20T19:27:30Z" uid="465700" user="Tomasina" changeset="8782070"/>
  <way id="48171240" version="1" timestamp="2010-01-12T13:25:11Z" uid="115477" user="wowik" changeset="3602714">
    <nd ref="612137829"/>
    <nd ref="612137831"/>
    <nd ref="612137833"/>
    <nd ref="612137839"/>
    <nd ref="612137829"/>
    <tag k="leisure" v="pitch"/>
  </way>
  <way id="48171241" version="1" timestamp="2010-01-12T13:25:12Z" uid="115477" user="wowik" changeset="3602714">
    <nd ref="612137844"/>
    <nd ref="612137847"/>
    <nd ref="612137849"/>
    <nd ref="612137850"/>
    <nd ref="612137844"/>
    <tag k="addr:city" v="Зеленоград"/>
    <tag k="addr:housenumber" v="711"/>
    <tag k="addr:street" v="7-й Микрорайон"/>
    <tag k="building" v="yes"/>
    <tag k="is_in" v="Russia"/>
  </way>
  <way id="48171241" version="2" timestamp="2010-01-12T14:04:17Z" uid="115477" user="wowik" changeset="3602714">
    <nd ref="612137844"/>
    <nd ref="612137847"/>
    <nd ref="612137849"/>
    <nd ref="612137850"/>
    <nd ref="612137844"/>
    <tag k="addr:city" v="Зеленоград"/>
    <tag k="addr:housenumber" v="711"/>
    <tag k="addr:street" v="7-й Микрорайон"/>
    <tag k="amenity" v="kindergarten"/>
    <tag k="building" v="yes"/>
    <tag k="is_in" v="Russia"/>
    <tag k="name" v="Начальная школа - д/с № 1630"/>
  </way>
  <way id="48171241" version="3" timestamp="2010-05-06T07:54:51Z" uid="115477" user="wowik" changeset="4619331">
    <nd ref="612137844"/>
    <nd ref="612137847"/>
    <nd ref="612137849"/>
    <nd ref="612137850"/>
    <nd ref="612137844"/>
    <tag k="addr:city" v="Зеленоград"/>
    <tag k="addr:housenumber" v="711"/>
    <tag k="addr:street" v="7-й Микрорайон"/>
    <tag k="amenity" v="kindergarten"/>
    <tag k="building" v="yes"/>
    <tag k="is_in" v="Russia"/>
    <tag k="name" v="Начальная школа - д/с №1630"/>
  </way>
  <way id="48171241" version="4" timestamp="2011-01-17T10:11:10Z" uid="115477" user="wowik" changeset="6997647">
    <nd ref="612137844"/>
    <nd ref="612137847"/>
    <nd ref="612137849"/>
    <nd ref="612137850"/>
    <nd ref="1107407672"/>
    <nd ref="1107407683"/>
    <nd ref="612137844"/>
    <tag k="addr:city" v="Зеленоград"/>
    <tag k="addr:housenumber" v="711"/>
    <tag k="addr:street" v="7-й Микрорайон"/>
    <tag k="amenity" v="kindergarten"/>
    <tag k="building" v="yes"/>
    <tag k="building:levels" v="3"/>
    <tag k="is_in" v="Russia"/>
    <tag k="name" v="Начальная школа - д/с №1630"/>
  </way>
  <way id="48171241" version="5" timestamp="2011-03-29T10:08:15Z" uid="206282" user="Amigo" changeset="7705192">
    <nd ref="612137844"/>
    <nd ref="612137847"/>
    <nd ref="612137849"/>
    <nd ref="612137850"/>
    <nd ref="1107407672"/>
    <nd ref="1107407683"/>
    <nd ref="612137844"/>
    <tag k="addr:city" v="Зеленоград"/>
    <tag k="addr:housenumber" v="711"/>
    <tag k="addr:street" v="7-й Микрорайон"/>
    <tag k="building" v="yes"/>
    <tag k="building:levels" v="3"/>
    <tag k="is_in" v="Russia"/>
  </way>
  <way id="48171241" version="6" timestamp="2011-06-07T20:45:06Z" uid="133332" user="AMDmi3" changeset="8374030">
    <nd ref="612137844"/>
    <nd ref="612137847"/>
    <nd ref="612137849"/>
    <nd ref="612137850"/>
    <nd ref="1107407672"/>
    <nd ref="1107407683"/>
    <nd ref="612137844"/>
    <tag k="addr:city" v="Зеленоград"/>
    <tag k="addr:housenumber" v="711"/>
    <tag k="addr:street" v="7-й микрорайон"/>
    <tag k="building" v="yes"/>
    <tag k="building:levels" v="3"/>
    <tag k="is_in" v="Russia"/>
  </way>
  <way id="48171241" version="7" timestamp="2011-09-13T10:28:24Z" uid="29320" user="Komяpa" changeset="9288237">
    <nd ref="612137844"/>
    <nd ref="612137847"/>
    <nd ref="612137849"/>
    <nd ref="612137850"/>
    <nd ref="1107407672"/>
    <nd ref="1107407683"/>
    <nd ref="612137844"/>
    <tag k="addr:city" v="Зеленоград"/>
    <tag k="addr:country" v="RU"/>
    <tag k="addr:housenumber" v="711"/>
    <tag k="addr:street" v="7-й микрорайон"/>
    <tag k="building" v="yes"/>
    <tag k="building:levels" v="3"/>
  </way>
  <way id="48171241" version="8" timestamp="2011-10-28T10:30:19Z" uid="481934" user="iWowik" changeset="9675133">
    <nd ref="612137844"/>
    <nd ref="612137847"/>
    <nd ref="612137849"/>
    <nd ref="612137850"/>
    <nd ref="1107407672"/>
    <nd ref="1107407683"/>
    <nd ref="612137844"/>
    <tag k="addr:city" v="Зеленоград"/>
    <tag k="addr:country" v="RU"/>
    <tag k="addr:housenumber" v="711"/>
    <tag k="addr:street" v="7-й Микрорайон"/>
    <tag k="building" v="yes"/>
    <tag k="building:levels" v="3"/>
  </way>
  <way id="48171241" version="9" timestamp="2011-11-14T20:33:58Z" uid="133332" user="AMDmi3" changeset="9828527">
    <nd ref="612137844"/>
    <nd ref="612137847"/>
    <nd ref="612137849"/>
    <nd ref="612137850"/>
    <nd ref="1107407672"/>
    <nd ref="1107407683"/>
    <nd ref="612137844"/>
    <tag k="addr:city" v="Зеленоград"/>
    <tag k="addr:country" v="RU"/>
    <tag k="addr:housenumber" v="711"/>
    <tag k="addr:street" v="7-й микрорайон"/>
    <tag k="building" v="yes"/>
    <tag k="building:levels" v="3"/>
  </way>
  <way id="48171241" version="10" timestamp="2012-03-27T11:46:06Z" uid="481934" user="iWowik" changeset="11115472">
    <nd ref="612137844"/>
    <nd ref="612137847"/>
    <nd ref="612137849"/>
    <nd ref="612137850"/>
    <nd ref="1107407672"/>
    <nd ref="1107407683"/>
    <nd ref="612137844"/>
    <tag k="addr:city" v="Зеленоград"/>
    <tag k="addr:country" v="RU"/>
    <tag k="addr:housenumber" v="711"/>
    <tag k="addr:region" v="Москва"/>
    <tag k="addr:street" v="7-й микрорайон"/>
    <tag k="building" v="yes"/>
    <tag k="building:levels" v="3"/>
  </way>
  <way id="48171584" version="1" timestamp="2010-01-12T13:34:43Z" uid="115477" user="wowik" changeset="3602714">
    <nd ref="612152491"/>
    <nd ref="612152504"/>
    <tag k="highway" v="service"/>
  </way>
  <way id="48171584" version="2" timestamp="2010-01-12T14:24:11Z" uid="115477" user="wowik" changeset="3603408">
    <nd ref="612227355"/>
    <nd ref="612227386"/>
    <nd ref="612152491"/>
    <nd ref="612152504"/>
    <tag k="highway" v="service"/>
  </way>
  <way id="48171585" version="1" timestamp="2010-01-12T13:34:45Z" uid="115477" user="wowik" changeset="3602714">
    <nd ref="612152533"/>
    <nd ref="612152539"/>
    <nd ref="612152565"/>
    <nd ref="612152572"/>
    <tag k="highway" v="service"/>
    <tag k="service" v="parking_aisle"/>
  </way>
  <way id="48171586" version="1" timestamp="2010-01-12T13:34:46Z" uid="115477" user="wowik" changeset="3602714">
    <nd ref="612152615"/>
    <nd ref="612152628"/>
    <nd ref="612152639"/>
    <tag k="highway" v="service"/>
  </way>
  <way id="48171586" version="2" timestamp="2010-01-12T14:23:57Z" uid="115477" user="wowik" changeset="3603408">
    <nd ref="612152615"/>
    <nd ref="612152628"/>
    <nd ref="612152639"/>
    <nd ref="612227025"/>
    <nd ref="612227028"/>
    <tag k="highway" v="service"/>
  </way>
  <way id="48171587" version="1" timestamp="2010-01-12T13:34:47Z" uid="115477" user="wowik" changeset="3602714">
    <nd ref="612152670"/>
    <nd ref="612152679"/>
    <nd ref="612152688"/>
    <nd ref="612152697"/>
    <nd ref="612152670"/>
    <tag k="addr:city" v="Зеленоград"/>
    <tag k="addr:street" v="Каштановая аллея"/>
    <tag k="amenity" v="hospital"/>
    <tag k="building" v="yes"/>
    <tag k="is_in" v="Russia"/>
    <tag k="name" v="Морг"/>
  </way>
  <way id="48171587" version="2" timestamp="2010-01-12T13:52:50Z" uid="115477" user="wowik" changeset="3602714">
    <nd ref="612152670"/>
    <nd ref="612152679"/>
    <nd ref="612152688"/>
    <nd ref="612152697"/>
    <nd ref="612152670"/>
    <tag k="addr:city" v="Зеленоград"/>
    <tag k="addr:housenumber" v="2С11"/>
    <tag k="addr:street" v="Каштановая аллея"/>
    <tag k="amenity" v="hospital"/>
    <tag k="building" v="yes"/>
    <tag k="is_in" v="Russia"/>
    <tag k="name" v="Старый морг"/>
  </way>
  <way id="48171587" version="3" timestamp="2010-01-12T14:31:33Z" uid="115477" user="wowik" changeset="3603408">
    <nd ref="612152670"/>
    <nd ref="612152679"/>
    <nd ref="612152688"/>
    <nd ref="612152697"/>
    <nd ref="612152670"/>
    <tag k="addr:city" v="Зеленоград"/>
    <tag k="addr:housenumber" v="2С11"/>
    <tag k="addr:street" v="Каштановая аллея"/>
    <tag k="building" v="yes"/>
    <tag k="is_in" v="Russia"/>
    <tag k="name" v="Старый морг"/>
  </way>
  <way id="48171587" version="4" timestamp="2010-01-12T14:58:46Z" uid="115477" user="wowik" changeset="3603408">
    <nd ref="612152670"/>
    <nd ref="612152679"/>
    <nd ref="612152688"/>
    <nd ref="612152697"/>
    <nd ref="612152670"/>
    <tag k="addr:city" v="Зеленоград"/>
    <tag k="addr:housenumber" v="2С9"/>
    <tag k="addr:street" v="Каштановая аллея"/>
    <tag k="building" v="yes"/>
    <tag k="is_in" v="Russia"/>
    <tag k="name" v="Старый морг"/>
  </way>
  <way id="48171587" version="5" timestamp="2010-01-20T07:55:38Z" uid="70202" user="physiocrat" changeset="3664615">
    <nd ref="612152670"/>
    <nd ref="612152679"/>
    <nd ref="612152688"/>
    <nd ref="612152697"/>
    <nd ref="612152670"/>
    <tag k="addr:city" v="Зеленоград"/>
    <tag k="addr:housenumber" v="2С9"/>
    <tag k="addr:street" v="Каштановая аллея"/>
    <tag k="building" v="yes"/>
    <tag k="cladr:code" v="77000002000454500"/>
    <tag k="is_in" v="Russia"/>
    <tag k="name" v="Старый морг"/>
  </way>
  <way id="48171587" version="6" timestamp="2011-01-17T10:48:42Z" uid="115477" user="wowik" changeset="6997945">
    <nd ref="612152670"/>
    <nd ref="612152679"/>
    <nd ref="612152688"/>
    <nd ref="612152697"/>
    <nd ref="612152670"/>
    <tag k="addr:city" v="Зеленоград"/>
    <tag k="addr:housenumber" v="2с?"/>
    <tag k="addr:street" v="Каштановая аллея"/>
    <tag k="building" v="yes"/>
    <tag k="cladr:code" v="77000002000454500"/>
    <tag k="is_in" v="Russia"/>
    <tag k="name" v="Старый морг"/>
  </way>
  <way id="48171587" version="7" timestamp="2011-01-27T19:32:53Z" uid="115477" user="wowik" changeset="7106777">
    <nd ref="612152670"/>
    <nd ref="612152679"/>
    <nd ref="612152688"/>
    <nd ref="612152697"/>
    <nd ref="612152670"/>
    <tag k="addr:city" v="Зеленоград"/>
    <tag k="addr:housenumber" v="2с10"/>
    <tag k="addr:street" v="Каштановая аллея"/>
    <tag k="building" v="yes"/>
    <tag k="cladr:code" v="77000002000454500"/>
    <tag k="is_in" v="Russia"/>
    <tag k="name" v="Старый морг"/>
    <tag k="note" v="addr:housemunber неточен"/>
  </way>
  <way id="48171587" version="8" timestamp="2011-02-10T09:47:14Z" uid="115477" user="wowik" changeset="7243711">
    <nd ref="612152670"/>
    <nd ref="612152679"/>
    <nd ref="612152688"/>
    <nd ref="612152697"/>
    <nd ref="612152670"/>
    <tag k="addr:city" v="Зеленоград"/>
    <tag k="addr:housenumber" v="2 с10"/>
    <tag k="addr:street" v="Каштановая аллея"/>
    <tag k="building" v="yes"/>
    <tag k="cladr:code" v="77000002000454500"/>
    <tag k="is_in" v="Russia"/>
    <tag k="name" v="Старый морг"/>
    <tag k="note" v="addr:housemunber неточен"/>
  </way>
  <way id="48171587" version="9" timestamp="2011-09-13T10:31:14Z" uid="29320" user="Komяpa" changeset="9288237">
    <nd ref="612152670"/>
    <nd ref="612152679"/>
    <nd ref="612152688"/>
    <nd ref="612152697"/>
    <nd ref="612152670"/>
    <tag k="addr:city" v="Зеленоград"/>
    <tag k="addr:country" v="RU"/>
    <tag k="addr:housenumber" v="2 с10"/>
    <tag k="addr:street" v="Каштановая аллея"/>
    <tag k="building" v="yes"/>
    <tag k="cladr:code" v="77000002000454500"/>
    <tag k="name" v="Старый морг"/>
    <tag k="note" v="addr:housemunber неточен"/>
  </way>
  <way id="48171587" version="10" timestamp="2012-03-27T11:47:57Z" uid="481934" user="iWowik" changeset="11115472">
    <nd ref="612152670"/>
    <nd ref="612152679"/>
    <nd ref="612152688"/>
    <nd ref="612152697"/>
    <nd ref="612152670"/>
    <tag k="addr:city" v="Зеленоград"/>
    <tag k="addr:country" v="RU"/>
    <tag k="addr:housenumber" v="2 с10"/>
    <tag k="addr:region" v="Москва"/>
    <tag k="addr:street" v="Каштановая аллея"/>
    <tag k="building" v="yes"/>
    <tag k="cladr:code" v="77000002000454500"/>
    <tag k="name" v="Старый морг"/>
    <tag k="note" v="addr:housemunber неточен"/>
  </way>
  <way id="48171588" version="1" timestamp="2010-01-12T13:34:49Z" uid="115477" user="wowik" changeset="3602714">
    <nd ref="612152765"/>
    <nd ref="612152776"/>
    <nd ref="612152785"/>
    <nd ref="612152800"/>
    <nd ref="612152765"/>
    <tag k="addr:city" v="Зеленоград"/>
    <tag k="addr:street" v="Каштановая аллея"/>
    <tag k="amenity" v="hospital"/>
    <tag k="building" v="yes"/>
    <tag k="is_in" v="Russia"/>
  </way>
  <way id="48171588" version="2" timestamp="2010-01-12T13:52:50Z" uid="115477" user="wowik" changeset="3602714">
    <nd ref="612152765"/>
    <nd ref="612152776"/>
    <nd ref="612152785"/>
    <nd ref="612152800"/>
    <nd ref="612152765"/>
    <tag k="addr:city" v="Зеленоград"/>
    <tag k="addr:housenumber" v="2С12"/>
    <tag k="addr:street" v="Каштановая аллея"/>
    <tag k="amenity" v="hospital"/>
    <tag k="building" v="yes"/>
    <tag k="is_in" v="Russia"/>
    <tag k="name" v="Старый морг"/>
  </way>
  <way id="48171588" version="3" timestamp="2010-01-12T14:20:56Z" uid="115477" user="wowik" changeset="3603408">
    <nd ref="612152765"/>
    <nd ref="612152776"/>
    <nd ref="612152785"/>
    <nd ref="612152800"/>
    <nd ref="612152765"/>
    <tag k="addr:city" v="Зеленоград"/>
    <tag k="addr:housenumber" v="2С12"/>
    <tag k="addr:street" v="Каштановая аллея"/>
    <tag k="building" v="yes"/>
    <tag k="is_in" v="Russia"/>
    <tag k="name" v="Бюро судебно-медицинской экспертизы"/>
  </way>
  <way id="48171588" version="4" timestamp="2010-01-20T07:55:38Z" uid="70202" user="physiocrat" changeset="3664615">
    <nd ref="612152765"/>
    <nd ref="612152776"/>
    <nd ref="612152785"/>
    <nd ref="612152800"/>
    <nd ref="612152765"/>
    <tag k="addr:city" v="Зеленоград"/>
    <tag k="addr:housenumber" v="2С12"/>
    <tag k="addr:street" v="Каштановая аллея"/>
    <tag k="building" v="yes"/>
    <tag k="cladr:code" v="77000002000454500"/>
    <tag k="is_in" v="Russia"/>
    <tag k="name" v="Бюро судебно-медицинской экспертизы"/>
  </way>
  <way id="48171588" version="5" timestamp="2011-01-17T10:48:32Z" uid="115477" user="wowik" changeset="6997945">
    <nd ref="612152765"/>
    <nd ref="612152776"/>
    <nd ref="612152785"/>
    <nd ref="1107443529"/>
    <nd ref="1107443453"/>
    <nd ref="612152800"/>
    <nd ref="1107443473"/>
    <nd ref="1107443502"/>
    <nd ref="612152765"/>
    <tag k="addr:city" v="Зеленоград"/>
    <tag k="addr:housenumber" v="2с12"/>
    <tag k="addr:street" v="Каштановая аллея"/>
    <tag k="building" v="yes"/>
    <tag k="cladr:code" v="77000002000454500"/>
    <tag k="is_in" v="Russia"/>
    <tag k="name" v="Бюро судебно-медицинской экспертизы"/>
  </way>
  <way id="48171588" version="6" timestamp="2011-01-19T16:26:38Z" uid="70696" user="xybot" changeset="7021015">
    <nd ref="612152765"/>
    <nd ref="612152776"/>
    <nd ref="612152785"/>
    <nd ref="1107443529"/>
    <nd ref="1107443453"/>
    <nd ref="612152800"/>
    <nd ref="1107443473"/>
    <nd ref="1107443502"/>
    <nd ref="612152765"/>
    <tag k="addr:city" v="Зеленоград"/>
    <tag k="addr:housenumber" v="2 с12"/>
    <tag k="addr:street" v="Каштановая аллея"/>
    <tag k="building" v="yes"/>
    <tag k="cladr:code" v="77000002000454500"/>
    <tag k="is_in" v="Russia"/>
    <tag k="name" v="Бюро судебно-медицинской экспертизы"/>
  </way>
  <way id="48171588" version="7" timestamp="2011-09-13T10:29:43Z" uid="29320" user="Komяpa" changeset="9288237">
    <nd ref="612152765"/>
    <nd ref="612152776"/>
    <nd ref="612152785"/>
    <nd ref="1107443529"/>
    <nd ref="1107443453"/>
    <nd ref="612152800"/>
    <nd ref="1107443473"/>
    <nd ref="1107443502"/>
    <nd ref="612152765"/>
    <tag k="addr:city" v="Зеленоград"/>
    <tag k="addr:country" v="RU"/>
    <tag k="addr:housenumber" v="2 с12"/>
    <tag k="addr:street" v="Каштановая аллея"/>
    <tag k="building" v="yes"/>
    <tag k="cladr:code" v="77000002000454500"/>
    <tag k="name" v="Бюро судебно-медицинской экспертизы"/>
  </way>
  <way id="48171588" version="8" timestamp="2012-03-27T11:31:42Z" uid="481934" user="iWowik" changeset="11115472">
    <nd ref="612152765"/>
    <nd ref="612152776"/>
    <nd ref="612152785"/>
    <nd ref="1107443529"/>
    <nd ref="1107443453"/>
    <nd ref="612152800"/>
    <nd ref="1107443473"/>
    <nd ref="1107443502"/>
    <nd ref="612152765"/>
    <tag k="addr:city" v="Зеленоград"/>
    <tag k="addr:country" v="RU"/>
    <tag k="addr:housenumber" v="2 с12"/>
    <tag k="addr:region" v="Москва"/>
    <tag k="addr:street" v="Каштановая аллея"/>
    <tag k="building" v="yes"/>
    <tag k="cladr:code" v="77000002000454500"/>
    <tag k="name" v="Бюро судебно-медицинской экспертизы"/>
  </way>
  <way id="48171590" version="1" timestamp="2010-01-12T13:34:54Z" uid="115477" user="wowik" changeset="3602714">
    <nd ref="612152968"/>
    <nd ref="612152976"/>
    <nd ref="612152990"/>
    <nd ref="612153000"/>
    <nd ref="612153009"/>
    <nd ref="612153014"/>
    <nd ref="612152572"/>
    <nd ref="612153021"/>
    <nd ref="612153055"/>
    <nd ref="612153063"/>
    <nd ref="612152628"/>
    <nd ref="612152504"/>
    <nd ref="612153070"/>
    <tag k="highway" v="service"/>
  </way>
  <way id="48171590" version="2" timestamp="2011-01-06T06:36:52Z" uid="65083" user="deep125" changeset="6878886">
    <nd ref="612152968"/>
    <nd ref="1059559680"/>
    <nd ref="612152976"/>
    <nd ref="612152990"/>
    <nd ref="612153000"/>
    <nd ref="612153009"/>
    <nd ref="612153014"/>
    <nd ref="612152572"/>
    <nd ref="612153021"/>
    <nd ref="612153055"/>
    <nd ref="612153063"/>
    <nd ref="612152628"/>
    <nd ref="612152504"/>
    <nd ref="612153070"/>
    <tag k="highway" v="service"/>
  </way>
  <way id="48171733" version="2" timestamp="2010-03-28T11:41:16Z" uid="20587" user="balrog-kun" changeset="4254597">
    <nd ref="612159468"/>
    <nd ref="122886076"/>
    <nd ref="122984001"/>
    <nd ref="122986604"/>
    <nd ref="612113643"/>
    <nd ref="612113641"/>
    <nd ref="123532258"/>
    <nd ref="123165510"/>
    <tag k="highway" v="residential"/>
    <tag k="name" v="South Orange Grove Avenue"/>
    <tag k="tiger:cfcc" v="A41"/>
    <tag k="tiger:county" v="Los Angeles, CA"/>
    <tag k="tiger:name_base" v="Orange Grove"/>
    <tag k="tiger:name_direction_prefix" v="S"/>
    <tag k="tiger:name_type" v="Ave"/>
    <tag k="tiger:separated" v="no"/>
    <tag k="tiger:source" v="tiger_import_dch_v0.6_20070809"/>
    <tag k="tiger:tlid" v="141598987:141598963:141598957:141598964:141598988:141598990:141600669:141600672:141600675"/>
    <tag k="tiger:zip_left" v="90019"/>
    <tag k="tiger:zip_right" v="90019"/>
  </way>
  <way id="48171733" version="3" timestamp="2010-04-21T07:11:51Z" uid="202256" user="Telecas" changeset="4483608">
    <nd ref="612159468"/>
    <nd ref="703072994"/>
    <nd ref="122886076"/>
    <nd ref="122984001"/>
    <nd ref="122986604"/>
    <nd ref="612113643"/>
    <nd ref="612113641"/>
    <nd ref="123532258"/>
    <nd ref="123165510"/>
    <tag k="highway" v="residential"/>
    <tag k="name" v="South Orange Grove Avenue"/>
    <tag k="tiger:cfcc" v="A41"/>
    <tag k="tiger:county" v="Los Angeles, CA"/>
    <tag k="tiger:name_base" v="Orange Grove"/>
    <tag k="tiger:name_direction_prefix" v="S"/>
    <tag k="tiger:name_type" v="Ave"/>
    <tag k="tiger:separated" v="no"/>
    <tag k="tiger:source" v="tiger_import_dch_v0.6_20070809"/>
    <tag k="tiger:tlid" v="141598987:141598963:141598957:141598964:141598988:141598990:141600669:141600672:141600675"/>
    <tag k="tiger:zip_left" v="90019"/>
    <tag k="tiger:zip_right" v="90019"/>
  </way>
  <way id="48171733" version="4" timestamp="2011-10-08T19:24:34Z" uid="416346" user="Brian@Brea" changeset="9505945">
    <nd ref="612159468"/>
    <nd ref="703072994"/>
    <nd ref="1459245717"/>
    <nd ref="122886076"/>
    <nd ref="122984001"/>
    <nd ref="122986604"/>
    <nd ref="612113643"/>
    <nd ref="612113641"/>
    <nd ref="123532258"/>
    <nd ref="123165510"/>
    <tag k="highway" v="residential"/>
    <tag k="name" v="South Orange Grove Avenue"/>
    <tag k="tiger:cfcc" v="A41"/>
    <tag k="tiger:county" v="Los Angeles, CA"/>
    <tag k="tiger:name_base" v="Orange Grove"/>
    <tag k="tiger:name_direction_prefix" v="S"/>
    <tag k="tiger:name_type" v="Ave"/>
    <tag k="tiger:separated" v="no"/>
    <tag k="tiger:source" v="tiger_import_dch_v0.6_20070809"/>
    <tag k="tiger:tlid" v="141598987:141598963:141598957:141598964:141598988:141598990:141600669:141600672:141600675"/>
    <tag k="tiger:zip_left" v="90019"/>
    <tag k="tiger:zip_right" v="90019"/>
  </way>
  <way id="48171734" version="2" timestamp="2010-03-28T11:41:16Z" uid="20587" user="balrog-kun" changeset="4254597">
    <nd ref="199984417"/>
    <nd ref="122886085"/>
    <nd ref="122887078"/>
    <nd ref="122887081"/>
    <tag k="highway" v="residential"/>
    <tag k="name" v="South Point View Street"/>
    <tag k="tiger:cfcc" v="A41"/>
    <tag k="tiger:county" v="Los Angeles, CA"/>
    <tag k="tiger:name_base" v="Point View"/>
    <tag k="tiger:name_direction_prefix" v="S"/>
    <tag k="tiger:name_type" v="St"/>
    <tag k="tiger:separated" v="no"/>
    <tag k="tiger:source" v="tiger_import_dch_v0.6_20070809"/>
    <tag k="tiger:tlid" v="141598912:141598905:141598908:141598914:141598931:141598935"/>
    <tag k="tiger:zip_left" v="90035"/>
    <tag k="tiger:zip_right" v="90035"/>
  </way>
  <way id="48171734" version="3" timestamp="2010-04-21T07:03:13Z" uid="202256" user="Telecas" changeset="4483608">
    <nd ref="199984417"/>
    <nd ref="703069539"/>
    <nd ref="703069519"/>
    <nd ref="122886085"/>
    <nd ref="122887078"/>
    <nd ref="122887081"/>
    <tag k="highway" v="residential"/>
    <tag k="name" v="South Point View Street"/>
    <tag k="tiger:cfcc" v="A41"/>
    <tag k="tiger:county" v="Los Angeles, CA"/>
    <tag k="tiger:name_base" v="Point View"/>
    <tag k="tiger:name_direction_prefix" v="S"/>
    <tag k="tiger:name_type" v="St"/>
    <tag k="tiger:separated" v="no"/>
    <tag k="tiger:source" v="tiger_import_dch_v0.6_20070809"/>
    <tag k="tiger:tlid" v="141598912:141598905:141598908:141598914:141598931:141598935"/>
    <tag k="tiger:zip_left" v="90035"/>
    <tag k="tiger:zip_right" v="90035"/>
  </way>
  <way id="48171734" version="4" timestamp="2010-04-21T07:11:54Z" uid="202256" user="Telecas" changeset="4483608">
    <nd ref="199984417"/>
    <nd ref="703069539"/>
    <nd ref="122886085"/>
    <nd ref="122887078"/>
    <nd ref="122887081"/>
    <tag k="highway" v="residential"/>
    <tag k="name" v="South Point View Street"/>
    <tag k="tiger:cfcc" v="A41"/>
    <tag k="tiger:county" v="Los Angeles, CA"/>
    <tag k="tiger:name_base" v="Point View"/>
    <tag k="tiger:name_direction_prefix" v="S"/>
    <tag k="tiger:name_type" v="St"/>
    <tag k="tiger:separated" v="no"/>
    <tag k="tiger:source" v="tiger_import_dch_v0.6_20070809"/>
    <tag k="tiger:tlid" v="141598912:141598905:141598908:141598914:141598931:141598935"/>
    <tag k="tiger:zip_left" v="90035"/>
    <tag k="tiger:zip_right" v="90035"/>
  </way>
  <way id="48171743" version="2" timestamp="2010-03-28T11:41:16Z" uid="20587" user="balrog-kun" changeset="4254597">
    <nd ref="612159372"/>
    <nd ref="612159373"/>
    <nd ref="612159382"/>
    <nd ref="612159371"/>
    <nd ref="612159367"/>
    <tag k="highway" v="residential"/>
    <tag k="name" v="South Canon Drive"/>
    <tag k="oneway" v="yes"/>
    <tag k="tiger:cfcc" v="A41"/>
    <tag k="tiger:county" v="Los Angeles, CA"/>
    <tag k="tiger:name_base" v="Canon"/>
    <tag k="tiger:name_direction_prefix" v="S"/>
    <tag k="tiger:name_type" v="Dr"/>
    <tag k="tiger:separated" v="no"/>
    <tag k="tiger:source" v="tiger_import_dch_v0.6_20070809"/>
    <tag k="tiger:tlid" v="141572633:141572501:141572512:141572498"/>
    <tag k="tiger:zip_left" v="90212"/>
    <tag k="tiger:zip_right" v="90212"/>
  </way>
  <way id="48171744" version="2" timestamp="2010-03-28T11:41:16Z" uid="20587" user="balrog-kun" changeset="4254597">
    <nd ref="122645613"/>
    <nd ref="123050690"/>
    <tag k="highway" v="residential"/>
    <tag k="name" v="Whitworth Drive"/>
    <tag k="tiger:cfcc" v="A41"/>
    <tag k="tiger:county" v="Los Angeles, CA"/>
    <tag k="tiger:name_base" v="Whitworth"/>
    <tag k="tiger:name_type" v="Dr"/>
    <tag k="tiger:separated" v="no"/>
    <tag k="tiger:source" v="tiger_import_dch_v0.6_20070809"/>
    <tag k="tiger:tlid" v="141572636"/>
    <tag k="tiger:zip_left" v="90212"/>
    <tag k="tiger:zip_right" v="90212"/>
  </way>
  <way id="48171744" version="3" timestamp="2010-04-21T07:17:21Z" uid="202256" user="Telecas" changeset="4483608">
    <nd ref="122645613"/>
    <nd ref="703074461"/>
    <nd ref="123050690"/>
    <tag k="highway" v="residential"/>
    <tag k="name" v="Whitworth Drive"/>
    <tag k="tiger:cfcc" v="A41"/>
    <tag k="tiger:county" v="Los Angeles, CA"/>
    <tag k="tiger:name_base" v="Whitworth"/>
    <tag k="tiger:name_type" v="Dr"/>
    <tag k="tiger:separated" v="no"/>
    <tag k="tiger:source" v="tiger_import_dch_v0.6_20070809"/>
    <tag k="tiger:tlid" v="141572636"/>
    <tag k="tiger:zip_left" v="90212"/>
    <tag k="tiger:zip_right" v="90212"/>
  </way>
</osm>
