<?xml version='1.0' encoding='UTF-8'?>
<osm version="0.6" generator="libosmium/2.20.0">
  <way id="48181000" version="2" timestamp="2010-04-03T04:29:14Z" uid="20587" user="balrog-kun" changeset="4309442">
    <nd ref="612421240"/>
    <nd ref="612421168"/>
    <nd ref="612421279"/>
    <nd ref="612421266"/>
    <nd ref="612421304"/>
    <tag k="highway" v="residential"/>
    <tag k="name" v="East Sunset Drive"/>
  </way>
  <way id="48181000" version="3" timestamp="2012-03-30T21:45:59Z" uid="4111" user="adenium" changeset="11160423">
    <nd ref="1698600270"/>
    <nd ref="1698600437"/>
    <nd ref="1698600824"/>
    <tag k="highway" v="residential"/>
    <tag k="name" v="East Sunset Drive"/>
    <tag k="oneway" v="yes"/>
  </way>
  <way id="48181001" version="2" timestamp="2010-04-03T04:29:14Z" uid="20587" user="balrog-kun" changeset="4309442">
    <nd ref="612421160"/>
    <nd ref="612421251"/>
    <nd ref="612421240"/>
    <tag k="highway" v="residential"/>
    <tag k="name" v="South Cloud Road"/>
  </way>
  <way id="48181001" version="3" timestamp="2012-03-30T21:45:58Z" uid="4111" user="adenium" changeset="11160423">
    <nd ref="612421160"/>
    <nd ref="1698600391"/>
    <nd ref="1698600826"/>
    <nd ref="1698600145"/>
    <nd ref="1698600196"/>
    <nd ref="1698600205"/>
    <nd ref="1698600707"/>
    <nd ref="1698600571"/>
    <tag k="highway" v="residential"/>
    <tag k="name" v="South Cloud Road"/>
    <tag k="oneway" v="-1"/>
  </way>
  <way id="48181002" version="2" timestamp="2010-04-03T04:29:14Z" uid="20587" user="balrog-kun" changeset="4309442">
    <nd ref="612421337"/>
    <nd ref="612421350"/>
    <nd ref="612421346"/>
    <tag k="highway" v="residential"/>
    <tag k="name" v="East Evia De Palmas"/>
  </way>
  <way id="48181002" version="3" timestamp="2012-03-30T21:35:55Z" uid="4111" user="adenium" changeset="11160423"/>
  <way id="48181003" version="2" timestamp="2010-04-03T04:29:14Z" uid="20587" user="balrog-kun" changeset="4309442">
    <nd ref="612421373"/>
    <nd ref="612421376"/>
    <tag k="highway" v="residential"/>
    <tag k="name" v="East Cherrywood Court"/>
  </way>
  <way id="48181003" version="3" timestamp="2012-03-30T18:19:12Z" uid="4111" user="adenium" changeset="11158462">
    <nd ref="1698218397"/>
    <nd ref="1698218143"/>
    <nd ref="1698218005"/>
    <nd ref="1698218038"/>
    <nd ref="1698217991"/>
    <nd ref="1698218147"/>
    <nd ref="1698218092"/>
    <nd ref="1698218297"/>
    <nd ref="1698218290"/>
    <nd ref="1698217969"/>
    <nd ref="1698218063"/>
    <nd ref="1698218021"/>
    <nd ref="1698218088"/>
    <nd ref="1698218372"/>
    <tag k="highway" v="residential"/>
    <tag k="name" v="East Cherrywood Court"/>
    <tag k="oneway" v="yes"/>
  </way>
  <way id="48181004" version="2" timestamp="2010-04-03T04:29:14Z" uid="20587" user="balrog-kun" changeset="4309442">
    <nd ref="612421363"/>
    <nd ref="612421375"/>
    <tag k="highway" v="residential"/>
    <tag k="name" v="East Pecan Lane"/>
  </way>
  <way id="48181004" version="3" timestamp="2012-03-30T18:19:13Z" uid="4111" user="adenium" changeset="11158462">
    <nd ref="612421363"/>
    <nd ref="1698218118"/>
    <nd ref="612421375"/>
    <tag k="highway" v="residential"/>
    <tag k="name" v="East Pecan Lane"/>
  </way>
  <way id="48181004" version="4" timestamp="2012-03-30T18:28:49Z" uid="4111" user="adenium" changeset="11158462"/>
  <way id="48181005" version="3" timestamp="2010-04-03T04:29:14Z" uid="20587" user="balrog-kun" changeset="4309442">
    <nd ref="612422128"/>
    <nd ref="612421311"/>
    <nd ref="612421314"/>
    <tag k="highway" v="residential"/>
    <tag k="name" v="East Via De Arboles"/>
  </way>
  <way id="48181005" version="4" timestamp="2012-03-30T21:46:09Z" uid="4111" user="adenium" changeset="11160423"/>
  <way id="48181006" version="2" timestamp="2010-04-03T04:29:14Z" uid="20587" user="balrog-kun" changeset="4309442">
    <nd ref="612421314"/>
    <nd ref="612421351"/>
    <nd ref="612421353"/>
    <tag k="highway" v="residential"/>
    <tag k="name" v="South 205th Court"/>
  </way>
  <way id="48181006" version="3" timestamp="2012-03-30T21:46:00Z" uid="4111" user="adenium" changeset="11160423">
    <nd ref="1698600861"/>
    <nd ref="1698600658"/>
    <nd ref="1698600869"/>
    <nd ref="1698600080"/>
    <nd ref="1698600822"/>
    <nd ref="1698600085"/>
    <nd ref="1698600527"/>
    <nd ref="1698600767"/>
    <nd ref="1698600524"/>
    <nd ref="1698600393"/>
    <nd ref="1698600891"/>
    <nd ref="1698600479"/>
    <nd ref="1698600134"/>
    <nd ref="1698600726"/>
    <nd ref="1698600579"/>
    <nd ref="1698600093"/>
    <nd ref="1698600594"/>
    <nd ref="1698600696"/>
    <nd ref="1698600774"/>
    <tag k="highway" v="residential"/>
    <tag k="name" v="South 205th Court"/>
    <tag k="oneway" v="yes"/>
  </way>
  <way id="48181007" version="2" timestamp="2010-04-03T04:29:14Z" uid="20587" user="balrog-kun" changeset="4309442">
    <nd ref="612421359"/>
    <nd ref="612421358"/>
    <nd ref="612421363"/>
    <tag k="highway" v="residential"/>
    <tag k="name" v="East Pecan Lane"/>
  </way>
  <way id="48181007" version="3" timestamp="2012-03-30T18:19:13Z" uid="4111" user="adenium" changeset="11158462">
    <nd ref="612421359"/>
    <nd ref="612421358"/>
    <nd ref="1698218003"/>
    <nd ref="612421363"/>
    <tag k="highway" v="residential"/>
    <tag k="name" v="East Pecan Lane"/>
  </way>
  <way id="48181007" version="4" timestamp="2012-03-30T18:28:48Z" uid="4111" user="adenium" changeset="11158462">
    <nd ref="1698237022"/>
    <nd ref="1698237016"/>
    <nd ref="1698237053"/>
    <nd ref="1698237031"/>
    <nd ref="1698237026"/>
    <nd ref="1698237074"/>
    <nd ref="1698237055"/>
    <nd ref="1698237087"/>
    <nd ref="1698237076"/>
    <nd ref="1698237005"/>
    <nd ref="1698237045"/>
    <nd ref="1698237040"/>
    <nd ref="1698237106"/>
    <nd ref="1698237110"/>
    <nd ref="1698237023"/>
    <nd ref="1698237071"/>
    <nd ref="1698237003"/>
    <nd ref="1698237009"/>
    <nd ref="1698237038"/>
    <nd ref="1698237072"/>
    <nd ref="1698237021"/>
    <nd ref="1698237042"/>
    <nd ref="1698237092"/>
    <nd ref="1698237056"/>
    <nd ref="1698237007"/>
    <nd ref="1698237048"/>
    <nd ref="1698236999"/>
    <nd ref="1698237001"/>
    <nd ref="1698237022"/>
    <tag k="highway" v="residential"/>
    <tag k="name" v="East Pecan Lane"/>
    <tag k="oneway" v="yes"/>
  </way>
  <way id="48181008" version="2" timestamp="2010-04-03T04:29:14Z" uid="20587" user="balrog-kun" changeset="4309442">
    <nd ref="612421346"/>
    <nd ref="612421363"/>
    <tag k="highway" v="residential"/>
    <tag k="name" v="South 205th Street"/>
  </way>
  <way id="48181008" version="3" timestamp="2012-03-30T18:28:49Z" uid="4111" user="adenium" changeset="11158462"/>
  <way id="48181010" version="2" timestamp="2010-04-03T04:29:15Z" uid="20587" user="balrog-kun" changeset="4309442">
    <nd ref="612421346"/>
    <nd ref="612421356"/>
    <tag k="highway" v="residential"/>
    <tag k="name" v="East Evia De Palmas"/>
  </way>
  <way id="48181010" version="3" timestamp="2012-03-30T21:35:55Z" uid="4111" user="adenium" changeset="11160423"/>
  <way id="48181013" version="2" timestamp="2010-04-03T04:29:15Z" uid="20587" user="balrog-kun" changeset="4309442">
    <nd ref="612421363"/>
    <nd ref="612421362"/>
    <nd ref="612421360"/>
    <nd ref="612421369"/>
    <nd ref="612421371"/>
    <nd ref="612421365"/>
    <nd ref="612421367"/>
    <nd ref="612421373"/>
    <tag k="highway" v="residential"/>
    <tag k="name" v="South 205th Street"/>
  </way>
  <way id="48181013" version="3" timestamp="2012-03-30T18:19:19Z" uid="4111" user="adenium" changeset="11158462"/>
  <way id="48181045" version="1" timestamp="2010-01-12T18:02:35Z" uid="115477" user="wowik" changeset="3604898">
    <nd ref="503113679"/>
    <nd ref="424234861"/>
    <nd ref="305071009"/>
    <tag k="highway" v="primary"/>
    <tag k="lanes" v="2"/>
    <tag k="name" v="Проезд 4806"/>
    <tag k="oneway" v="yes"/>
  </way>
  <way id="48181045" version="2" timestamp="2010-02-16T16:09:55Z" uid="115477" user="wowik" changeset="3893434">
    <nd ref="503113679"/>
    <nd ref="424234861"/>
    <nd ref="305071009"/>
    <tag k="addr:postcode" v="124460"/>
    <tag k="cladr:code" v="77000002000453700"/>
    <tag k="cladr:name" v="4806-й"/>
    <tag k="cladr:suffix" v="Проезд"/>
    <tag k="highway" v="primary"/>
    <tag k="lanes" v="2"/>
    <tag k="name" v="Проезд 4806"/>
    <tag k="oneway" v="yes"/>
    <tag k="sorting_name" v="Проезд 4806"/>
  </way>
  <way id="48181045" version="3" timestamp="2010-11-18T08:57:08Z" uid="115477" user="wowik" changeset="6398408">
    <nd ref="503113679"/>
    <nd ref="424234861"/>
    <nd ref="305071009"/>
    <tag k="addr:postcode" v="124460"/>
    <tag k="cladr:code" v="77000002000453700"/>
    <tag k="cladr:name" v="4806-й"/>
    <tag k="cladr:suffix" v="Проезд"/>
    <tag k="highway" v="primary"/>
    <tag k="lanes" v="2"/>
    <tag k="name" v="Проезд N 4806"/>
    <tag k="oneway" v="yes"/>
    <tag k="sorting_name" v="Проезд 4806"/>
  </way>
  <way id="48181045" version="4" timestamp="2011-01-12T14:22:08Z" uid="115477" user="wowik" changeset="6947623">
    <nd ref="503113679"/>
    <nd ref="424234861"/>
    <nd ref="1099952801"/>
    <nd ref="305071009"/>
    <tag k="addr:postcode" v="124460"/>
    <tag k="cladr:code" v="77000002000453700"/>
    <tag k="cladr:name" v="4806-й"/>
    <tag k="cladr:suffix" v="Проезд"/>
    <tag k="highway" v="primary"/>
    <tag k="lanes" v="2"/>
    <tag k="name" v="Проезд N 4806"/>
    <tag k="oneway" v="yes"/>
    <tag k="sorting_name" v="Проезд 4806"/>
  </way>
  <way id="48181045" version="5" timestamp="2011-04-21T17:23:17Z" uid="241531" user="dik_man" changeset="7927363">
    <nd ref="503113679"/>
    <nd ref="424234861"/>
    <nd ref="1099952801"/>
    <nd ref="305071009"/>
    <tag k="addr:postcode" v="124460"/>
    <tag k="cladr:code" v="77000002000453700"/>
    <tag k="cladr:name" v="4806-й"/>
    <tag k="cladr:suffix" v="Проезд"/>
    <tag k="highway" v="primary"/>
    <tag k="lanes" v="2"/>
    <tag k="maxspeed" v="60"/>
    <tag k="name" v="Проезд N 4806"/>
    <tag k="oneway" v="yes"/>
    <tag k="sorting_name" v="Проезд 4806"/>
  </way>
  <way id="48181045" version="6" timestamp="2011-10-09T22:39:45Z" uid="518169" user="kosatov" changeset="9517911">
    <nd ref="503113679"/>
    <nd ref="1099952801"/>
    <nd ref="305071009"/>
    <nd ref="305071019"/>
    <tag k="addr:postcode" v="124460"/>
    <tag k="cladr:code" v="77000002000453700"/>
    <tag k="cladr:name" v="4806-й"/>
    <tag k="cladr:suffix" v="Проезд"/>
    <tag k="highway" v="primary"/>
    <tag k="lanes" v="2"/>
    <tag k="maxspeed" v="60"/>
    <tag k="name" v="Проезд N 4806"/>
    <tag k="oneway" v="yes"/>
    <tag k="sorting_name" v="Проезд 4806"/>
  </way>
  <way id="48181045" version="7" timestamp="2011-10-27T19:40:51Z" uid="518169" user="kosatov" changeset="9671386"/>
  <way id="48181046" version="1" timestamp="2010-01-12T18:02:35Z" uid="115477" user="wowik" changeset="3604898">
    <nd ref="593337688"/>
    <nd ref="593337694"/>
    <nd ref="593337638"/>
    <nd ref="593337697"/>
    <tag k="addr:postcode" v="124482"/>
    <tag k="cladr:code" v="77000002000306700"/>
    <tag k="cladr:name" v="Центральный"/>
    <tag k="cladr:suffix" v="Проспект"/>
    <tag k="highway" v="primary"/>
    <tag k="lanes" v="2"/>
    <tag k="name" v="Центральный проспект"/>
    <tag k="omkum:code" v="30485"/>
    <tag k="oneway" v="yes"/>
    <tag k="sorting_name" v="Центральный  проспект"/>
  </way>
  <way id="48181046" version="2" timestamp="2010-04-02T07:28:08Z" uid="115477" user="wowik" changeset="4300781">
    <nd ref="593337688"/>
    <nd ref="593337694"/>
    <nd ref="593337638"/>
    <nd ref="593337697"/>
    <tag k="addr:postcode" v="124460"/>
    <tag k="cladr:code" v="77000002000453700"/>
    <tag k="cladr:name" v="4806-й"/>
    <tag k="cladr:suffix" v="Проезд"/>
    <tag k="highway" v="primary"/>
    <tag k="lanes" v="2"/>
    <tag k="name" v="Проезд 4806"/>
    <tag k="omkum:code" v="30485"/>
    <tag k="oneway" v="yes"/>
    <tag k="sorting_name" v="Проезд 4806"/>
  </way>
  <way id="48181046" version="3" timestamp="2010-06-17T03:39:46Z" uid="11132" user="liosha" changeset="5005833">
    <nd ref="593337688"/>
    <nd ref="593337694"/>
    <nd ref="593337638"/>
    <nd ref="593337697"/>
    <tag k="addr:postcode" v="124460"/>
    <tag k="cladr:code" v="77000002000453700"/>
    <tag k="cladr:name" v="4806-й"/>
    <tag k="cladr:suffix" v="Проезд"/>
    <tag k="highway" v="primary"/>
    <tag k="lanes" v="2"/>
    <tag k="name" v="Проезд 4806"/>
    <tag k="oneway" v="yes"/>
    <tag k="sorting_name" v="Проезд 4806"/>
  </way>
  <way id="48181046" version="4" timestamp="2010-11-18T08:57:07Z" uid="115477" user="wowik" changeset="6398408">
    <nd ref="593337688"/>
    <nd ref="593337694"/>
    <nd ref="593337638"/>
    <nd ref="593337697"/>
    <tag k="addr:postcode" v="124460"/>
    <tag k="cladr:code" v="77000002000453700"/>
    <tag k="cladr:name" v="4806-й"/>
    <tag k="cladr:suffix" v="Проезд"/>
    <tag k="highway" v="primary"/>
    <tag k="lanes" v="2"/>
    <tag k="name" v="Проезд N 4806"/>
    <tag k="oneway" v="yes"/>
    <tag k="sorting_name" v="Проезд 4806"/>
  </way>
  <way id="48181046" version="5" timestamp="2011-01-12T14:20:17Z" uid="115477" user="wowik" changeset="6947600">
    <nd ref="593337688"/>
    <nd ref="593337694"/>
    <nd ref="593337638"/>
    <tag k="addr:postcode" v="124460"/>
    <tag k="cladr:code" v="77000002000453700"/>
    <tag k="cladr:name" v="4806-й"/>
    <tag k="cladr:suffix" v="Проезд"/>
    <tag k="highway" v="primary"/>
    <tag k="lanes" v="2"/>
    <tag k="name" v="Проезд N 4806"/>
    <tag k="oneway" v="yes"/>
    <tag k="sorting_name" v="Проезд 4806"/>
  </way>
  <way id="48181046" version="6" timestamp="2011-04-21T17:23:18Z" uid="241531" user="dik_man" changeset="7927363">
    <nd ref="593337688"/>
    <nd ref="593337694"/>
    <nd ref="593337638"/>
    <tag k="addr:postcode" v="124460"/>
    <tag k="cladr:code" v="77000002000453700"/>
    <tag k="cladr:name" v="4806-й"/>
    <tag k="cladr:suffix" v="Проезд"/>
    <tag k="highway" v="primary"/>
    <tag k="lanes" v="2"/>
    <tag k="maxspeed" v="60"/>
    <tag k="name" v="Проезд N 4806"/>
    <tag k="oneway" v="yes"/>
    <tag k="sorting_name" v="Проезд 4806"/>
  </way>
  <way id="48181046" version="7" timestamp="2011-10-09T22:39:45Z" uid="518169" user="kosatov" changeset="9517911">
    <nd ref="593337688"/>
    <nd ref="593337638"/>
    <tag k="addr:postcode" v="124460"/>
    <tag k="cladr:code" v="77000002000453700"/>
    <tag k="cladr:name" v="4806-й"/>
    <tag k="cladr:suffix" v="Проезд"/>
    <tag k="highway" v="primary"/>
    <tag k="lanes" v="2"/>
    <tag k="maxspeed" v="60"/>
    <tag k="name" v="Проезд N 4806"/>
    <tag k="oneway" v="yes"/>
    <tag k="sorting_name" v="Проезд 4806"/>
  </way>
  <way id="48181046" version="8" timestamp="2011-10-27T19:40:50Z" uid="518169" user="kosatov" changeset="9671386">
    <nd ref="593337685"/>
    <nd ref="593337638"/>
    <nd ref="593337697"/>
    <tag k="addr:postcode" v="124460"/>
    <tag k="cladr:code" v="77000002000453700"/>
    <tag k="cladr:name" v="4806-й"/>
    <tag k="cladr:suffix" v="Проезд"/>
    <tag k="highway" v="primary"/>
    <tag k="lanes" v="2"/>
    <tag k="maxspeed" v="60"/>
    <tag k="name" v="Проезд N 4806"/>
    <tag k="oneway" v="yes"/>
    <tag k="sorting_name" v="Проезд 4806"/>
  </way>
  <way id="48181046" version="9" timestamp="2011-10-31T17:00:47Z" uid="518169" user="kosatov" changeset="9705284">
    <nd ref="1099952796"/>
    <nd ref="593337685"/>
    <nd ref="593337638"/>
    <nd ref="593337697"/>
    <tag k="addr:postcode" v="124460"/>
    <tag k="cladr:code" v="77000002000453700"/>
    <tag k="cladr:name" v="4806-й"/>
    <tag k="cladr:suffix" v="Проезд"/>
    <tag k="highway" v="primary"/>
    <tag k="lanes" v="2"/>
    <tag k="maxspeed" v="60"/>
    <tag k="name" v="Проезд N 4806"/>
    <tag k="oneway" v="yes"/>
    <tag k="sorting_name" v="Проезд 4806"/>
  </way>
  <way id="48181046" version="10" timestamp="2011-11-16T06:40:58Z" uid="481934" user="iWowik" changeset="9841495">
    <nd ref="1099952796"/>
    <nd ref="593337685"/>
    <nd ref="1504767883"/>
    <nd ref="1504767884"/>
    <nd ref="593337638"/>
    <tag k="addr:postcode" v="124460"/>
    <tag k="cladr:code" v="77000002000453700"/>
    <tag k="cladr:name" v="4806-й"/>
    <tag k="cladr:suffix" v="Проезд"/>
    <tag k="highway" v="primary"/>
    <tag k="lanes" v="2"/>
    <tag k="maxspeed" v="60"/>
    <tag k="name" v="Проезд N 4806"/>
    <tag k="oneway" v="yes"/>
    <tag k="sorting_name" v="Проезд 4806"/>
  </way>
  <way id="48181048" version="2" timestamp="2010-04-03T04:29:15Z" uid="20587" user="balrog-kun" changeset="4309442">
    <nd ref="612421308"/>
    <nd ref="612422128"/>
    <tag k="highway" v="residential"/>
    <tag k="name" v="East Via De Arboles"/>
  </way>
  <way id="48181048" version="3" timestamp="2012-03-30T21:35:51Z" uid="4111" user="adenium" changeset="11160423">
    <nd ref="1698581669"/>
    <nd ref="1698581936"/>
    <nd ref="1698582055"/>
    <nd ref="1698582165"/>
    <nd ref="1698581855"/>
    <nd ref="1698582163"/>
    <nd ref="1698581676"/>
    <nd ref="1698581907"/>
    <nd ref="1698581951"/>
    <nd ref="1698581771"/>
    <nd ref="1698582097"/>
    <nd ref="1698581741"/>
    <nd ref="1698582052"/>
    <nd ref="1698582087"/>
    <nd ref="1698581700"/>
    <nd ref="1698581772"/>
    <nd ref="1698581819"/>
    <nd ref="1698581817"/>
    <nd ref="1698581974"/>
    <nd ref="1698581999"/>
    <nd ref="1698581964"/>
    <nd ref="1698582045"/>
    <nd ref="1698581899"/>
    <nd ref="1698582156"/>
    <nd ref="1698581755"/>
    <nd ref="1698582162"/>
    <nd ref="1698582026"/>
    <nd ref="1698582091"/>
    <nd ref="1698581895"/>
    <nd ref="1698581972"/>
    <nd ref="1698581880"/>
    <nd ref="1698581762"/>
    <nd ref="1698581787"/>
    <nd ref="1698581877"/>
    <nd ref="1698581997"/>
    <nd ref="1698581830"/>
    <nd ref="1698581916"/>
    <nd ref="1698581930"/>
    <nd ref="1698582112"/>
    <nd ref="1698582024"/>
    <nd ref="1698582110"/>
    <nd ref="1698581778"/>
    <tag k="highway" v="residential"/>
    <tag k="name" v="East Via De Arboles"/>
    <tag k="oneway" v="-1"/>
  </way>
  <way id="48181048" version="4" timestamp="2012-03-30T21:46:00Z" uid="4111" user="adenium" changeset="11160423">
    <nd ref="1698581669"/>
    <nd ref="1698581936"/>
    <nd ref="1698582055"/>
    <nd ref="1698582165"/>
    <nd ref="1698581855"/>
    <nd ref="1698582163"/>
    <nd ref="1698581676"/>
    <nd ref="1698581907"/>
    <nd ref="1698581951"/>
    <nd ref="1698581771"/>
    <nd ref="1698582097"/>
    <nd ref="1698581741"/>
    <nd ref="1698582052"/>
    <nd ref="1698582087"/>
    <nd ref="1698581700"/>
    <nd ref="1698581772"/>
    <nd ref="1698581819"/>
    <nd ref="1698581817"/>
    <nd ref="1698581974"/>
    <nd ref="1698581999"/>
    <nd ref="1698581964"/>
    <nd ref="1698582045"/>
    <nd ref="1698581899"/>
    <nd ref="1698582156"/>
    <nd ref="1698581755"/>
    <nd ref="1698582162"/>
    <nd ref="1698582026"/>
    <nd ref="1698582091"/>
    <nd ref="1698581895"/>
    <nd ref="1698581972"/>
    <nd ref="1698581880"/>
    <nd ref="1698581762"/>
    <nd ref="1698581787"/>
    <nd ref="1698581877"/>
    <nd ref="1698581997"/>
    <nd ref="1698581830"/>
    <nd ref="1698581916"/>
    <nd ref="1698581930"/>
    <nd ref="1698582112"/>
    <nd ref="1698582024"/>
    <nd ref="1698582110"/>
    <nd ref="1698581778"/>
    <nd ref="1698600121"/>
    <nd ref="1698600236"/>
    <nd ref="1698600928"/>
    <nd ref="1698600179"/>
    <nd ref="1698600401"/>
    <nd ref="1698600819"/>
    <nd ref="1698600696"/>
    <nd ref="1698600534"/>
    <nd ref="1698600658"/>
    <nd ref="1698600750"/>
    <nd ref="1698599962"/>
    <nd ref="1698600355"/>
    <nd ref="1698600352"/>
    <nd ref="1698600295"/>
    <nd ref="1698600555"/>
    <nd ref="1698600256"/>
    <nd ref="1698600622"/>
    <nd ref="1698600137"/>
    <nd ref="1698600045"/>
    <nd ref="1698599984"/>
    <nd ref="1698600199"/>
    <nd ref="1698600004"/>
    <nd ref="1698600885"/>
    <tag k="highway" v="residential"/>
    <tag k="name" v="East Via De Arboles"/>
    <tag k="oneway" v="-1"/>
  </way>
  <way id="48181111" version="1" timestamp="2010-01-12T18:06:57Z" uid="115477" user="wowik" changeset="3604898">
    <nd ref="612423631"/>
    <nd ref="612423634"/>
    <nd ref="612423636"/>
    <nd ref="612423638"/>
    <nd ref="612423631"/>
    <tag k="name" v="Площадь Шокина"/>
    <tag k="website" v="http://mosopen.ru/document/1354_pp_2009-12-08"/>
  </way>
  <way id="48181111" version="2" timestamp="2010-01-13T11:19:44Z" uid="115477" user="wowik" changeset="3609126">
    <nd ref="612423631"/>
    <nd ref="612423634"/>
    <nd ref="612423638"/>
    <nd ref="612423631"/>
    <tag k="name" v="Площадь Шокина"/>
    <tag k="website" v="http://mosopen.ru/document/1354_pp_2009-12-08"/>
  </way>
  <way id="48181111" version="3" timestamp="2010-01-14T15:39:40Z" uid="115477" user="wowik" changeset="3617803">
    <nd ref="612423631"/>
    <nd ref="612423634"/>
    <nd ref="612423638"/>
    <nd ref="612423631"/>
    <tag k="area" v="yes"/>
    <tag k="name" v="Площадь Шокина"/>
    <tag k="website" v="http://mosopen.ru/document/1354_pp_2009-12-08"/>
  </way>
  <way id="48181130" version="6" timestamp="2010-07-03T22:07:55Z" uid="4467" user="Rosscoe" changeset="5128505">
    <nd ref="105960479"/>
    <nd ref="106019169"/>
    <nd ref="106019171"/>
    <nd ref="106019173"/>
    <nd ref="106019174"/>
    <tag k="highway" v="primary"/>
    <tag k="maxspeed" v="40 mph"/>
    <tag k="name" v="Boal Avenue"/>
    <tag k="old_ref_legislative" v="307"/>
    <tag k="oneway" v="yes"/>
    <tag k="ref" v="US 322 Business"/>
    <tag k="tiger:cfcc" v="A21"/>
    <tag k="tiger:county" v="Centre, PA"/>
    <tag k="tiger:name_base" v="Boal"/>
    <tag k="tiger:name_base_1" v="US Hwy 322 (Bus)"/>
    <tag k="tiger:name_type" v="Ave"/>
    <tag k="tiger:separated" v="no"/>
    <tag k="tiger:source" v="tiger_import_dch_v0.6_20070829"/>
    <tag k="tiger:tlid" v="50398750:50398751:50398748:50398749"/>
    <tag k="tiger:upload_uuid" v="bulk_upload.pl-581644c1-bab1-48ed-84ed-ad8c17badfb4"/>
    <tag k="tiger:zip_left" v="16827"/>
  </way>
  <way id="48181130" version="7" timestamp="2012-03-04T10:28:35Z" uid="252811" user="rickmastfan67" changeset="10866632">
    <nd ref="105960479"/>
    <nd ref="106019169"/>
    <nd ref="106019171"/>
    <nd ref="106019173"/>
    <nd ref="106019174"/>
    <tag k="highway" v="primary"/>
    <tag k="lanes" v="1"/>
    <tag k="maxspeed" v="40 mph"/>
    <tag k="name" v="Boal Avenue"/>
    <tag k="odbl" v="clean"/>
    <tag k="odbl:note" v="The &quot;Declining&quot; user only expanded the road name (Ave &gt; Avenue). It can be considered as a trivial edit, thus the way is clean."/>
    <tag k="old_ref_legislative" v="307"/>
    <tag k="oneway" v="yes"/>
    <tag k="ref" v="US 322 Business"/>
    <tag k="tiger:cfcc" v="A21"/>
    <tag k="tiger:county" v="Centre, PA"/>
    <tag k="tiger:name_base" v="Boal"/>
    <tag k="tiger:name_base_1" v="US Hwy 322 (Bus)"/>
    <tag k="tiger:name_type" v="Ave"/>
    <tag k="tiger:separated" v="no"/>
    <tag k="tiger:source" v="tiger_import_dch_v0.6_20070829"/>
    <tag k="tiger:tlid" v="50398750:50398751:50398748:50398749"/>
    <tag k="tiger:upload_uuid" v="bulk_upload.pl-581644c1-bab1-48ed-84ed-ad8c17badfb4"/>
    <tag k="tiger:zip_left" v="16827"/>
  </way>
  <way id="48181291" version="3" timestamp="2011-01-02T08:46:13Z" uid="20587" user="balrog-kun" changeset="6835962">
    <nd ref="612426251"/>
    <nd ref="612771863"/>
    <nd ref="1078394363"/>
    <tag k="aeroway" v="runway"/>
    <tag k="ele" v="178"/>
    <tag k="name" v="06/24"/>
    <tag k="ref" v="06/24"/>
    <tag k="surface" v="grass"/>
    <tag k="width" v="100"/>
  </way>
  <way id="48181502" version="2" timestamp="2010-04-03T04:29:15Z" uid="20587" user="balrog-kun" changeset="4309442">
    <nd ref="41988677"/>
    <nd ref="41680925"/>
    <nd ref="42445555"/>
    <nd ref="42327645"/>
    <nd ref="42445556"/>
    <nd ref="42445557"/>
    <tag k="highway" v="residential"/>
    <tag k="name" v="South Crismon Road"/>
    <tag k="name_1" v="Crismon Road"/>
    <tag k="tiger:cfcc" v="A41"/>
    <tag k="tiger:county" v="Maricopa, AZ"/>
    <tag k="tiger:name_base" v="Crismon"/>
    <tag k="tiger:name_base_1" v="Crismon"/>
    <tag k="tiger:name_direction_prefix" v="S"/>
    <tag k="tiger:name_type" v="Rd"/>
    <tag k="tiger:name_type_1" v="Rd"/>
    <tag k="tiger:reviewed" v="no"/>
    <tag k="tiger:separated" v="no"/>
    <tag k="tiger:source" v="tiger_import_dch_v0.6_20070809"/>
    <tag k="tiger:tlid" v="128801912:128382015:128382018:128857852:128857854:128857855:128382021:128839611:128838165:128838167:128297819:128297723:128326074"/>
    <tag k="tiger:zip_left" v="85242"/>
    <tag k="tiger:zip_right" v="85242"/>
  </way>
  <way id="48181660" version="3" timestamp="2010-04-03T04:29:15Z" uid="20587" user="balrog-kun" changeset="4309442">
    <nd ref="612435863"/>
    <nd ref="41670578"/>
    <nd ref="41756182"/>
    <tag k="highway" v="residential"/>
    <tag k="name" v="South 202nd Street"/>
    <tag k="tiger:cfcc" v="A41"/>
    <tag k="tiger:county" v="Maricopa, AZ"/>
    <tag k="tiger:name_base" v="202nd"/>
    <tag k="tiger:name_direction_prefix" v="S"/>
    <tag k="tiger:name_type" v="St"/>
    <tag k="tiger:reviewed" v="no"/>
    <tag k="tiger:separated" v="no"/>
    <tag k="tiger:source" v="tiger_import_dch_v0.6_20070809"/>
    <tag k="tiger:tlid" v="128150767:128838149:128297967:128297968:128150812:128150952:128297735"/>
    <tag k="tiger:zip_left" v="85242"/>
    <tag k="tiger:zip_right" v="85242"/>
  </way>
  <way id="48181742" version="2" timestamp="2010-04-02T17:54:24Z" uid="20587" user="balrog-kun" changeset="4304500">
    <nd ref="46970481"/>
    <nd ref="612439241"/>
    <nd ref="46927660"/>
    <tag k="highway" v="residential"/>
    <tag k="name" v="South Underwood Street"/>
    <tag k="tiger:cfcc" v="A41"/>
    <tag k="tiger:county" v="Benton, WA"/>
    <tag k="tiger:name_base" v="Underwood"/>
    <tag k="tiger:name_direction_prefix" v="S"/>
    <tag k="tiger:name_type" v="St"/>
    <tag k="tiger:reviewed" v="no"/>
    <tag k="tiger:separated" v="no"/>
    <tag k="tiger:source" v="tiger_import_dch_v0.6_20070830"/>
    <tag k="tiger:tlid" v="174991810:174991867"/>
    <tag k="tiger:zip_left" v="99337"/>
    <tag k="tiger:zip_right" v="99337"/>
  </way>
  <way id="48181743" version="2" timestamp="2010-04-02T17:54:25Z" uid="20587" user="balrog-kun" changeset="4304500">
    <nd ref="46930345"/>
    <nd ref="612439358"/>
    <nd ref="612439362"/>
    <nd ref="612439365"/>
    <tag k="highway" v="residential"/>
    <tag k="name" v="South Underwood Street"/>
    <tag k="tiger:cfcc" v="A41"/>
    <tag k="tiger:county" v="Benton, WA"/>
    <tag k="tiger:name_base" v="Underwood"/>
    <tag k="tiger:name_direction_prefix" v="S"/>
    <tag k="tiger:name_type" v="St"/>
    <tag k="tiger:reviewed" v="no"/>
    <tag k="tiger:separated" v="no"/>
    <tag k="tiger:source" v="tiger_import_dch_v0.6_20070830"/>
    <tag k="tiger:tlid" v="174991810:174991867"/>
    <tag k="tiger:zip_left" v="99337"/>
    <tag k="tiger:zip_right" v="99337"/>
  </way>
  <way id="48181759" version="2" timestamp="2010-04-02T17:54:25Z" uid="20587" user="balrog-kun" changeset="4304500">
    <nd ref="46903175"/>
    <nd ref="46973021"/>
    <tag k="highway" v="residential"/>
    <tag k="name" v="West 17th Avenue"/>
    <tag k="tiger:cfcc" v="A41"/>
    <tag k="tiger:county" v="Benton, WA"/>
    <tag k="tiger:name_base" v="17th"/>
    <tag k="tiger:name_direction_prefix" v="W"/>
    <tag k="tiger:name_type" v="Ave"/>
    <tag k="tiger:reviewed" v="no"/>
    <tag k="tiger:separated" v="no"/>
    <tag k="tiger:source" v="tiger_import_dch_v0.6_20070830"/>
    <tag k="tiger:tlid" v="174990981:175003335:175003336:174991888"/>
    <tag k="tiger:zip_left" v="99337"/>
    <tag k="tiger:zip_right" v="99337"/>
  </way>
</osm>
