<?xml version='1.0' encoding='UTF-8'?>
<osm version="0.6" generator="libosmium/2.20.0">
  <way id="48201523" version="2" timestamp="2010-02-02T00:58:51Z" uid="20587" user="balrog-kun" changeset="3772933">
    <nd ref="612571206"/>
    <nd ref="612571207"/>
    <nd ref="612571208"/>
    <nd ref="612571209"/>
    <nd ref="612571210"/>
    <nd ref="612571211"/>
    <nd ref="612571212"/>
    <nd ref="612571213"/>
    <nd ref="612571214"/>
    <nd ref="612571215"/>
    <nd ref="612571216"/>
    <nd ref="612571217"/>
    <nd ref="612571218"/>
    <nd ref="612571219"/>
    <nd ref="612571220"/>
    <nd ref="612571221"/>
    <nd ref="612571222"/>
    <nd ref="612571223"/>
    <nd ref="612571224"/>
    <nd ref="612571225"/>
    <nd ref="612571226"/>
    <nd ref="612571227"/>
    <nd ref="612571228"/>
    <nd ref="612571229"/>
    <nd ref="612571230"/>
    <nd ref="612571231"/>
    <nd ref="626216187"/>
    <nd ref="612571234"/>
    <nd ref="612571206"/>
    <tag k="name" v="Camping La Marina"/>
    <tag k="tourism" v="camp_site"/>
  </way>
  <way id="48201853" version="2" timestamp="2010-04-03T04:29:15Z" uid="20587" user="balrog-kun" changeset="4309442">
    <nd ref="175583705"/>
    <nd ref="175645955"/>
    <nd ref="175593157"/>
    <nd ref="175645954"/>
    <nd ref="175645952"/>
    <nd ref="175645950"/>
    <nd ref="175602082"/>
    <nd ref="175645948"/>
    <nd ref="175538560"/>
    <nd ref="175450010"/>
    <nd ref="175595899"/>
    <nd ref="175553405"/>
    <nd ref="175595805"/>
    <nd ref="175606159"/>
    <nd ref="175292086"/>
    <nd ref="175621113"/>
    <nd ref="175609197"/>
    <nd ref="175473823"/>
    <nd ref="175571096"/>
    <nd ref="175171850"/>
    <tag k="highway" v="secondary"/>
    <tag k="name" v="West 2nd Street"/>
    <tag k="name_1" v="Interstate Highway  40 Business Route"/>
    <tag k="name_2" v="State Highway 99"/>
    <tag k="name_3" v="US Highway 66 Eastbound"/>
    <tag k="name_4" v="Old Highway 66"/>
    <tag k="oneway" v="yes"/>
    <tag k="tiger:cfcc" v="A31"/>
    <tag k="tiger:county" v="Navajo, AZ"/>
    <tag k="tiger:name_base" v="2nd"/>
    <tag k="tiger:name_base_1" v="I- 40 Business Route"/>
    <tag k="tiger:name_base_2" v="State Highway 99"/>
    <tag k="tiger:name_base_3" v="US Hwy 66 Eastbound"/>
    <tag k="tiger:name_base_4" v="Old Highway 66"/>
    <tag k="tiger:name_direction_prefix" v="W"/>
    <tag k="tiger:name_type" v="St"/>
    <tag k="tiger:reviewed" v="no"/>
    <tag k="tiger:separated" v="no"/>
    <tag k="tiger:source" v="tiger_import_dch_v0.6_20070809"/>
    <tag k="tiger:tlid" v="172492437"/>
    <tag k="tiger:zip_left" v="86047"/>
    <tag k="tiger:zip_right" v="86047"/>
  </way>
  <way id="48201853" version="3" timestamp="2010-05-06T20:48:00Z" uid="239998" user="Sundance" changeset="4625392">
    <nd ref="175583705"/>
    <nd ref="175645955"/>
    <nd ref="175593157"/>
    <nd ref="175645954"/>
    <nd ref="175645952"/>
    <nd ref="175645950"/>
    <nd ref="175602082"/>
    <nd ref="175645948"/>
    <nd ref="175538560"/>
    <nd ref="175450010"/>
    <nd ref="175595899"/>
    <nd ref="175553405"/>
    <nd ref="175595805"/>
    <nd ref="175606159"/>
    <nd ref="175292086"/>
    <nd ref="175621113"/>
    <nd ref="175609197"/>
    <nd ref="175473823"/>
    <nd ref="175571096"/>
    <nd ref="175171850"/>
    <tag k="addr:postcode" v="86047"/>
    <tag k="highway" v="secondary"/>
    <tag k="is_in" v="Navajo, AZ"/>
    <tag k="name" v="West 2nd Street"/>
    <tag k="name_1" v="Business Route 40"/>
    <tag k="name_2" v="State Highway 99"/>
    <tag k="name_3" v="Old Highway 66"/>
    <tag k="oneway" v="yes"/>
    <tag k="ref" v="BR 40"/>
    <tag k="source" v="Yahoo,TIGER"/>
  </way>
  <way id="48201853" version="4" timestamp="2011-03-16T21:14:07Z" uid="207745" user="NE2" changeset="7579694">
    <nd ref="175583705"/>
    <nd ref="175645955"/>
    <nd ref="175593157"/>
    <nd ref="175645954"/>
    <nd ref="175645952"/>
    <nd ref="175645950"/>
    <nd ref="175602082"/>
    <nd ref="175645948"/>
    <nd ref="175538560"/>
    <tag k="addr:postcode" v="86047"/>
    <tag k="cycleway" v="lane"/>
    <tag k="highway" v="secondary"/>
    <tag k="is_in" v="Navajo, AZ"/>
    <tag k="name" v="West 2nd Street"/>
    <tag k="name_1" v="Business Route 40"/>
    <tag k="name_2" v="State Highway 99"/>
    <tag k="name_3" v="Old Highway 66"/>
    <tag k="old_ref" v="US 66"/>
    <tag k="oneway" v="yes"/>
    <tag k="ref" v="I 40 Business"/>
    <tag k="source" v="Yahoo,TIGER"/>
  </way>
  <way id="48201853" version="5" timestamp="2011-03-23T09:09:29Z" uid="207745" user="NE2" changeset="7643503">
    <nd ref="175583705"/>
    <nd ref="175645955"/>
    <nd ref="175593157"/>
    <nd ref="175645954"/>
    <nd ref="175645952"/>
    <nd ref="175645950"/>
    <nd ref="175602082"/>
    <nd ref="175645948"/>
    <nd ref="175538560"/>
    <tag k="addr:postcode" v="86047"/>
    <tag k="cycleway" v="lane"/>
    <tag k="highway" v="secondary"/>
    <tag k="is_in" v="Navajo, AZ"/>
    <tag k="name" v="West 2nd Street"/>
    <tag k="old_ref" v="US 66"/>
    <tag k="oneway" v="yes"/>
    <tag k="ref" v="I 40 Business"/>
    <tag k="source" v="Yahoo,TIGER"/>
  </way>
  <way id="48201853" version="6" timestamp="2011-03-23T11:52:11Z" uid="207745" user="NE2" changeset="7643503">
    <nd ref="175583705"/>
    <nd ref="175645955"/>
    <nd ref="175593157"/>
    <nd ref="175645954"/>
    <nd ref="175645952"/>
    <nd ref="175645950"/>
    <nd ref="175602082"/>
    <nd ref="175645948"/>
    <nd ref="175538560"/>
    <tag k="addr:postcode" v="86047"/>
    <tag k="cycleway" v="lane"/>
    <tag k="highway" v="secondary"/>
    <tag k="is_in" v="Navajo, AZ"/>
    <tag k="name" v="West 2nd Street"/>
    <tag k="old_ref" v="US 66"/>
    <tag k="oneway" v="yes"/>
    <tag k="ref" v="I 40 Business;SR 99"/>
    <tag k="source" v="Yahoo,TIGER"/>
  </way>
  <way id="48201853" version="7" timestamp="2011-12-03T22:02:36Z" uid="104962" user="techlady" changeset="10028648">
    <nd ref="175583705"/>
    <nd ref="175645955"/>
    <nd ref="175593157"/>
    <nd ref="175645954"/>
    <nd ref="1530204504"/>
    <nd ref="175645952"/>
    <nd ref="175645950"/>
    <nd ref="175602082"/>
    <nd ref="175645948"/>
    <nd ref="175538560"/>
    <tag k="addr:postcode" v="86047"/>
    <tag k="cycleway" v="lane"/>
    <tag k="highway" v="secondary"/>
    <tag k="is_in" v="Navajo, AZ"/>
    <tag k="name" v="West 2nd Street"/>
    <tag k="old_ref" v="US 66"/>
    <tag k="oneway" v="yes"/>
    <tag k="ref" v="I 40 Business;SR 99"/>
    <tag k="source" v="Yahoo,TIGER"/>
  </way>
  <way id="48201856" version="2" timestamp="2010-04-03T04:29:15Z" uid="20587" user="balrog-kun" changeset="4309442">
    <nd ref="175580610"/>
    <nd ref="175414540"/>
    <nd ref="175596542"/>
    <nd ref="175047457"/>
    <nd ref="175606182"/>
    <nd ref="175461899"/>
    <nd ref="175647137"/>
    <nd ref="175166660"/>
    <nd ref="175650969"/>
    <nd ref="175375174"/>
    <nd ref="175570989"/>
    <nd ref="175613435"/>
    <tag k="highway" v="residential"/>
    <tag k="name" v="North Douglas Avenue"/>
    <tag k="tiger:cfcc" v="A41"/>
    <tag k="tiger:county" v="Navajo, AZ"/>
    <tag k="tiger:name_base" v="Douglas"/>
    <tag k="tiger:name_direction_prefix" v="N"/>
    <tag k="tiger:name_type" v="Ave"/>
    <tag k="tiger:separated" v="no"/>
    <tag k="tiger:source" v="tiger_import_dch_v0.6_20070809"/>
    <tag k="tiger:tlid" v="172541839:172541840"/>
    <tag k="tiger:zip_left" v="86047"/>
    <tag k="tiger:zip_right" v="86047"/>
  </way>
  <way id="48201856" version="3" timestamp="2011-12-04T05:02:17Z" uid="104962" user="techlady" changeset="10030104">
    <nd ref="175580610"/>
    <nd ref="175414540"/>
    <nd ref="175596542"/>
    <nd ref="175047457"/>
    <nd ref="175606182"/>
    <nd ref="175461899"/>
    <nd ref="175647137"/>
    <nd ref="175166660"/>
    <nd ref="175650969"/>
    <nd ref="175570989"/>
    <nd ref="175613435"/>
    <tag k="highway" v="residential"/>
    <tag k="name" v="North Douglas Avenue"/>
    <tag k="tiger:cfcc" v="A41"/>
    <tag k="tiger:county" v="Navajo, AZ"/>
    <tag k="tiger:name_base" v="Douglas"/>
    <tag k="tiger:name_direction_prefix" v="N"/>
    <tag k="tiger:name_type" v="Ave"/>
    <tag k="tiger:separated" v="no"/>
    <tag k="tiger:source" v="tiger_import_dch_v0.6_20070809"/>
    <tag k="tiger:tlid" v="172541839:172541840"/>
    <tag k="tiger:zip_left" v="86047"/>
    <tag k="tiger:zip_right" v="86047"/>
  </way>
</osm>
