<?xml version='1.0' encoding='UTF-8'?>
<osm version="0.6" generator="libosmium/2.20.0">
  <way id="48207246" version="1" timestamp="2010-01-13T01:55:57Z" uid="30201" user="rrankin" changeset="3607488">
    <nd ref="612679298"/>
    <nd ref="358368822"/>
    <nd ref="358368832"/>
    <nd ref="358368842"/>
    <nd ref="358368847"/>
    <nd ref="567259277"/>
    <nd ref="358368854"/>
    <nd ref="358368862"/>
    <nd ref="358368867"/>
    <nd ref="358368875"/>
    <nd ref="358379516"/>
    <nd ref="358368886"/>
    <nd ref="358368891"/>
    <nd ref="358368905"/>
    <tag k="highway" v="tertiary"/>
    <tag k="name" v="Solander Road"/>
  </way>
  <way id="48207246" version="2" timestamp="2010-04-13T11:12:27Z" uid="7617" user="Franc" changeset="4412661">
    <nd ref="612679298"/>
    <nd ref="358368822"/>
    <nd ref="358368832"/>
    <nd ref="358368842"/>
    <nd ref="358368847"/>
    <nd ref="567259277"/>
    <nd ref="358368854"/>
    <nd ref="358368862"/>
    <nd ref="695156611"/>
    <nd ref="358368867"/>
    <nd ref="358368875"/>
    <nd ref="695156599"/>
    <nd ref="695156591"/>
    <nd ref="358379516"/>
    <nd ref="358368886"/>
    <nd ref="695156580"/>
    <nd ref="358368891"/>
    <nd ref="358368905"/>
    <tag k="highway" v="tertiary"/>
    <tag k="name" v="Solander Road"/>
  </way>
  <way id="48207247" version="1" timestamp="2010-01-13T01:55:58Z" uid="30201" user="rrankin" changeset="3607488">
    <nd ref="612679317"/>
    <nd ref="612679298"/>
    <nd ref="612679334"/>
    <nd ref="612679353"/>
    <nd ref="358368818"/>
    <nd ref="612679371"/>
    <nd ref="612679389"/>
    <nd ref="612679274"/>
    <nd ref="612679408"/>
    <nd ref="612679426"/>
    <nd ref="612679501"/>
    <nd ref="612679317"/>
    <tag k="highway" v="tertiary"/>
    <tag k="junction" v="roundabout"/>
    <tag k="source" v="nearmap"/>
  </way>
  <way id="48207248" version="1" timestamp="2010-01-13T01:55:59Z" uid="30201" user="rrankin" changeset="3607488">
    <nd ref="612679441"/>
    <nd ref="612679463"/>
    <nd ref="612679481"/>
    <tag k="highway" v="road"/>
    <tag k="source" v="nearmap"/>
  </way>
  <way id="48207248" version="2" timestamp="2010-04-13T12:23:28Z" uid="7617" user="Franc" changeset="4413267">
    <nd ref="612679441"/>
    <nd ref="612679463"/>
    <nd ref="612679481"/>
    <tag k="highway" v="residential"/>
    <tag k="source" v="nearmap"/>
  </way>
  <way id="48207248" version="3" timestamp="2010-07-08T01:33:43Z" uid="74617" user="JohnSmith" changeset="5162525">
    <nd ref="612679441"/>
    <nd ref="612679463"/>
    <nd ref="612679481"/>
    <tag k="highway" v="residential"/>
    <tag k="maxspeed" v="50"/>
    <tag k="maxspeed:source" v="default residential speed limit in Australia"/>
    <tag k="source" v="nearmap"/>
  </way>
  <way id="48207248" version="4" timestamp="2010-08-08T04:26:43Z" uid="61114" user="Trav" changeset="5429513">
    <nd ref="612679441"/>
    <nd ref="612679463"/>
    <nd ref="612679481"/>
    <tag k="highway" v="residential"/>
    <tag k="maxspeed" v="50"/>
    <tag k="maxspeed:source" v="default residential speed limit in Australia"/>
    <tag k="name" v="Gray Place"/>
    <tag k="source" v="nearmap"/>
    <tag k="source:name" v="survey"/>
  </way>
  <way id="48207248" version="5" timestamp="2012-01-19T21:34:38Z" uid="147510" user="woodpeck_fixbot" changeset="10440306">
    <nd ref="612679441"/>
    <nd ref="612679463"/>
    <nd ref="612679481"/>
    <tag k="highway" v="residential"/>
    <tag k="name" v="Gray Place"/>
    <tag k="source" v="nearmap"/>
    <tag k="source:name" v="survey"/>
  </way>
  <way id="48207249" version="1" timestamp="2010-01-13T01:56:00Z" uid="30201" user="rrankin" changeset="3607488">
    <nd ref="612679545"/>
    <nd ref="612679526"/>
    <tag k="highway" v="road"/>
    <tag k="source" v="nearmap"/>
  </way>
  <way id="48207249" version="2" timestamp="2010-04-13T12:23:28Z" uid="7617" user="Franc" changeset="4413267">
    <nd ref="612679545"/>
    <nd ref="612679526"/>
    <tag k="highway" v="residential"/>
    <tag k="source" v="nearmap"/>
  </way>
  <way id="48207249" version="3" timestamp="2010-07-08T01:35:36Z" uid="74617" user="JohnSmith" changeset="5162525">
    <nd ref="612679545"/>
    <nd ref="612679526"/>
    <tag k="highway" v="residential"/>
    <tag k="maxspeed" v="50"/>
    <tag k="maxspeed:source" v="default residential speed limit in Australia"/>
    <tag k="source" v="nearmap"/>
  </way>
  <way id="48207249" version="4" timestamp="2010-08-08T04:26:41Z" uid="61114" user="Trav" changeset="5429513">
    <nd ref="612679545"/>
    <nd ref="612679526"/>
    <tag k="highway" v="residential"/>
    <tag k="maxspeed" v="50"/>
    <tag k="maxspeed:source" v="default residential speed limit in Australia"/>
    <tag k="name" v="Wade Place"/>
    <tag k="source" v="nearmap"/>
    <tag k="source:name" v="survey"/>
  </way>
  <way id="48207249" version="5" timestamp="2012-01-19T21:34:40Z" uid="147510" user="woodpeck_fixbot" changeset="10440306">
    <nd ref="612679545"/>
    <nd ref="612679526"/>
    <tag k="highway" v="residential"/>
    <tag k="name" v="Wade Place"/>
    <tag k="source" v="nearmap"/>
    <tag k="source:name" v="survey"/>
  </way>
  <way id="48207250" version="1" timestamp="2010-01-13T01:56:01Z" uid="30201" user="rrankin" changeset="3607488">
    <nd ref="612679562"/>
    <nd ref="612679577"/>
    <tag k="highway" v="road"/>
    <tag k="source" v="nearmap"/>
  </way>
  <way id="48207250" version="2" timestamp="2010-04-13T12:23:28Z" uid="7617" user="Franc" changeset="4413267">
    <nd ref="612679562"/>
    <nd ref="612679577"/>
    <tag k="highway" v="residential"/>
    <tag k="source" v="nearmap"/>
  </way>
  <way id="48207250" version="3" timestamp="2010-07-08T01:38:31Z" uid="74617" user="JohnSmith" changeset="5162525">
    <nd ref="612679562"/>
    <nd ref="612679577"/>
    <tag k="highway" v="residential"/>
    <tag k="maxspeed" v="50"/>
    <tag k="maxspeed:source" v="default residential speed limit in Australia"/>
    <tag k="source" v="nearmap"/>
  </way>
  <way id="48207250" version="4" timestamp="2010-08-08T04:26:41Z" uid="61114" user="Trav" changeset="5429513">
    <nd ref="612679562"/>
    <nd ref="612679577"/>
    <tag k="highway" v="residential"/>
    <tag k="maxspeed" v="50"/>
    <tag k="maxspeed:source" v="default residential speed limit in Australia"/>
    <tag k="name" v="Leigh Place"/>
    <tag k="source" v="nearmap"/>
    <tag k="source:name" v="survey"/>
  </way>
  <way id="48207250" version="5" timestamp="2010-08-17T23:22:35Z" uid="4467" user="Rosscoe" changeset="5522589">
    <nd ref="612679562"/>
    <nd ref="612679577"/>
    <tag k="highway" v="residential"/>
    <tag k="maxspeed" v="50"/>
    <tag k="name" v="Leigh Place"/>
    <tag k="source" v="nearmap"/>
    <tag k="source:maxspeed" v="default residential speed limit in Australia"/>
    <tag k="source:name" v="survey"/>
  </way>
  <way id="48207250" version="6" timestamp="2012-01-19T21:34:40Z" uid="147510" user="woodpeck_fixbot" changeset="10440306">
    <nd ref="612679562"/>
    <nd ref="612679577"/>
    <tag k="highway" v="residential"/>
    <tag k="name" v="Leigh Place"/>
    <tag k="source" v="nearmap"/>
    <tag k="source:maxspeed" v="default residential speed limit in Australia"/>
    <tag k="source:name" v="survey"/>
  </way>
  <way id="48207251" version="1" timestamp="2010-01-13T01:56:02Z" uid="30201" user="rrankin" changeset="3607488">
    <nd ref="600243566"/>
    <nd ref="600243561"/>
    <nd ref="600243521"/>
    <nd ref="297833200"/>
    <nd ref="76468414"/>
    <tag k="highway" v="primary"/>
    <tag k="maxspeed" v="70"/>
    <tag k="name" v="Sunnyholt Road"/>
    <tag k="oneway" v="yes"/>
    <tag k="source" v="interpolation"/>
  </way>
  <way id="48207251" version="2" timestamp="2010-07-27T05:32:22Z" uid="4467" user="Rosscoe" changeset="5326268">
    <nd ref="77850212"/>
    <nd ref="76467752"/>
    <nd ref="76467753"/>
    <nd ref="835052749"/>
    <nd ref="359773340"/>
    <nd ref="359529726"/>
    <nd ref="581728112"/>
    <nd ref="359773378"/>
    <nd ref="76468491"/>
    <nd ref="600243587"/>
    <nd ref="600243578"/>
    <nd ref="600243569"/>
    <nd ref="600243566"/>
    <nd ref="600243561"/>
    <nd ref="600243521"/>
    <nd ref="297833200"/>
    <nd ref="76468414"/>
    <tag k="highway" v="primary"/>
    <tag k="maxspeed" v="70"/>
    <tag k="name" v="Sunnyholt Road"/>
    <tag k="oneway" v="yes"/>
    <tag k="source" v="nearmap"/>
  </way>
  <way id="48207252" version="1" timestamp="2010-01-13T01:56:03Z" uid="30201" user="rrankin" changeset="3607488">
    <nd ref="451673715"/>
    <nd ref="600243546"/>
    <tag k="highway" v="motorway_link"/>
    <tag k="maxspeed" v="70"/>
    <tag k="oneway" v="yes"/>
  </way>
  <way id="48207252" version="2" timestamp="2010-06-19T01:34:44Z" uid="299678" user="peteramjet" changeset="5020602">
    <nd ref="451673715"/>
    <nd ref="600243546"/>
    <tag k="highway" v="motorway_link"/>
    <tag k="maxspeed" v="70"/>
    <tag k="name" v="Westlink M7"/>
    <tag k="oneway" v="yes"/>
  </way>
  <way id="48207252" version="3" timestamp="2010-07-27T05:32:03Z" uid="4467" user="Rosscoe" changeset="5326268">
    <nd ref="581728073"/>
    <nd ref="451673715"/>
    <nd ref="600243546"/>
    <tag k="highway" v="motorway_link"/>
    <tag k="maxspeed" v="70"/>
    <tag k="name" v="Westlink M7"/>
    <tag k="oneway" v="yes"/>
  </way>
  <way id="48207252" version="4" timestamp="2011-06-28T03:41:05Z" uid="11111" user="melb_guy" changeset="8567958">
    <nd ref="581728073"/>
    <nd ref="451673715"/>
    <nd ref="600243546"/>
    <tag k="highway" v="motorway_link"/>
    <tag k="maxspeed" v="70"/>
    <tag k="name" v="Westlink M7"/>
    <tag k="oneway" v="yes"/>
    <tag k="toll" v="yes"/>
  </way>
  <way id="48207252" version="5" timestamp="2012-03-29T05:36:18Z" uid="7523" user="inas" changeset="11133782"/>
  <way id="48207253" version="1" timestamp="2010-01-13T01:56:04Z" uid="30201" user="rrankin" changeset="3607488">
    <nd ref="600243595"/>
    <nd ref="600243596"/>
    <nd ref="600243606"/>
    <nd ref="581728098"/>
    <tag k="highway" v="motorway_link"/>
    <tag k="maxspeed" v="70"/>
    <tag k="oneway" v="yes"/>
  </way>
  <way id="48207253" version="2" timestamp="2010-06-19T01:34:44Z" uid="299678" user="peteramjet" changeset="5020602">
    <nd ref="600243595"/>
    <nd ref="600243596"/>
    <nd ref="600243606"/>
    <nd ref="581728098"/>
    <tag k="highway" v="motorway_link"/>
    <tag k="maxspeed" v="70"/>
    <tag k="name" v="Westlink M7"/>
    <tag k="oneway" v="yes"/>
  </way>
  <way id="48207253" version="3" timestamp="2010-07-27T05:32:59Z" uid="4467" user="Rosscoe" changeset="5326268">
    <nd ref="600243578"/>
    <nd ref="600243577"/>
    <nd ref="600243595"/>
    <nd ref="600243606"/>
    <nd ref="581728098"/>
    <tag k="highway" v="motorway_link"/>
    <tag k="maxspeed" v="70"/>
    <tag k="name" v="Westlink M7"/>
    <tag k="oneway" v="yes"/>
  </way>
  <way id="48207253" version="4" timestamp="2011-06-28T03:41:05Z" uid="11111" user="melb_guy" changeset="8567958">
    <nd ref="600243578"/>
    <nd ref="600243577"/>
    <nd ref="600243595"/>
    <nd ref="600243606"/>
    <nd ref="581728098"/>
    <tag k="highway" v="motorway_link"/>
    <tag k="maxspeed" v="70"/>
    <tag k="name" v="Westlink M7"/>
    <tag k="oneway" v="yes"/>
    <tag k="toll" v="yes"/>
  </way>
  <way id="48207253" version="5" timestamp="2012-03-29T05:36:18Z" uid="7523" user="inas" changeset="11133782"/>
  <way id="48207749" version="3" timestamp="2010-04-02T17:54:25Z" uid="20587" user="balrog-kun" changeset="4304500">
    <nd ref="612755124"/>
    <nd ref="612755126"/>
    <nd ref="612755129"/>
    <nd ref="612755132"/>
    <nd ref="612755134"/>
    <nd ref="612755137"/>
    <nd ref="612755139"/>
    <nd ref="612755141"/>
    <nd ref="612755144"/>
    <nd ref="612692794"/>
    <nd ref="46913990"/>
    <nd ref="46913994"/>
    <nd ref="46913998"/>
    <nd ref="46914002"/>
    <nd ref="46914007"/>
    <nd ref="46914010"/>
    <nd ref="612755146"/>
    <nd ref="46913975"/>
    <tag k="highway" v="residential"/>
    <tag k="name" v="Meadow Hills Drive"/>
    <tag k="tiger:cfcc" v="A41"/>
    <tag k="tiger:county" v="Benton, WA"/>
    <tag k="tiger:name_base" v="Meadow Hills"/>
    <tag k="tiger:name_type" v="Dr"/>
    <tag k="tiger:reviewed" v="no"/>
    <tag k="tiger:separated" v="no"/>
    <tag k="tiger:source" v="tiger_import_dch_v0.6_20070830"/>
    <tag k="tiger:tlid" v="175011913:175011914"/>
  </way>
  <way id="48207762" version="1" timestamp="2010-01-13T02:18:55Z" uid="74617" user="JohnSmith" changeset="3607521">
    <nd ref="612698620"/>
    <nd ref="612698627"/>
    <nd ref="612698614"/>
    <nd ref="612698615"/>
    <nd ref="612698618"/>
    <nd ref="612698607"/>
    <nd ref="612698601"/>
    <nd ref="612698603"/>
    <nd ref="612698604"/>
    <nd ref="612698596"/>
    <tag k="construction" v="trunk"/>
    <tag k="highway" v="construction"/>
    <tag k="source" v="nearmap"/>
  </way>
  <way id="48207762" version="2" timestamp="2010-03-12T07:31:42Z" uid="189263" user="wildmyron" changeset="4103989">
    <nd ref="612698620"/>
    <nd ref="612698627"/>
    <nd ref="612698614"/>
    <nd ref="612698615"/>
    <nd ref="612698618"/>
    <nd ref="612698607"/>
    <nd ref="612698601"/>
    <nd ref="612698603"/>
    <nd ref="612698604"/>
    <nd ref="612698596"/>
    <nd ref="664390659"/>
    <nd ref="664390660"/>
    <nd ref="31128424"/>
    <tag k="highway" v="trunk"/>
    <tag k="name" v="Reid Highway"/>
    <tag k="oneway" v="yes"/>
    <tag k="ref" v="S3"/>
    <tag k="source" v="nearmap"/>
  </way>
  <way id="48207762" version="3" timestamp="2010-03-17T05:33:55Z" uid="186367" user="MCC" changeset="4149312">
    <nd ref="612698620"/>
    <nd ref="612698627"/>
    <nd ref="612698614"/>
    <nd ref="612698615"/>
    <nd ref="612698618"/>
    <nd ref="612698607"/>
    <nd ref="612698601"/>
    <nd ref="612698603"/>
    <nd ref="612698604"/>
    <nd ref="612698596"/>
    <nd ref="664390659"/>
    <tag k="highway" v="trunk"/>
    <tag k="name" v="Reid Highway"/>
    <tag k="oneway" v="yes"/>
    <tag k="ref" v="S3"/>
    <tag k="source" v="nearmap"/>
  </way>
  <way id="48207762" version="4" timestamp="2010-03-17T05:40:43Z" uid="186367" user="MCC" changeset="4149312">
    <nd ref="612698620"/>
    <nd ref="612698627"/>
    <nd ref="612698614"/>
    <nd ref="612698615"/>
    <nd ref="612698618"/>
    <nd ref="612698607"/>
    <nd ref="667729944"/>
    <nd ref="612698601"/>
    <nd ref="612698603"/>
    <nd ref="612698604"/>
    <nd ref="612698596"/>
    <nd ref="664390659"/>
    <tag k="highway" v="trunk"/>
    <tag k="name" v="Reid Highway"/>
    <tag k="oneway" v="yes"/>
    <tag k="ref" v="S3"/>
    <tag k="source" v="nearmap"/>
  </way>
  <way id="48207762" version="5" timestamp="2010-03-17T05:42:48Z" uid="186367" user="MCC" changeset="4149312">
    <nd ref="612698620"/>
    <nd ref="612698627"/>
    <nd ref="612698614"/>
    <nd ref="612698615"/>
    <nd ref="612698618"/>
    <nd ref="612698607"/>
    <nd ref="667729944"/>
    <nd ref="612698601"/>
    <nd ref="612698603"/>
    <nd ref="612698604"/>
    <nd ref="612698596"/>
    <nd ref="664390659"/>
    <tag k="highway" v="trunk"/>
    <tag k="name" v="Middle Swan Road"/>
    <tag k="oneway" v="yes"/>
    <tag k="ref" v="S3"/>
    <tag k="source" v="nearmap"/>
  </way>
  <way id="48207762" version="6" timestamp="2010-04-07T05:55:14Z" uid="110283" user="drgis" changeset="4351402">
    <nd ref="612698620"/>
    <nd ref="612698627"/>
    <nd ref="612698614"/>
    <nd ref="612698615"/>
    <nd ref="612698618"/>
    <nd ref="687174653"/>
    <tag k="highway" v="trunk"/>
    <tag k="name" v="Middle Swan Road"/>
    <tag k="oneway" v="yes"/>
    <tag k="ref" v="S3"/>
    <tag k="source" v="nearmap"/>
  </way>
  <way id="48207762" version="7" timestamp="2010-04-14T02:46:36Z" uid="258497" user="Brendan_Cherry" changeset="4419313">
    <nd ref="612698620"/>
    <nd ref="612698627"/>
    <nd ref="612698614"/>
    <nd ref="612698615"/>
    <nd ref="612698618"/>
    <nd ref="687174653"/>
    <tag k="highway" v="trunk"/>
    <tag k="name" v="Reid Highway"/>
    <tag k="oneway" v="yes"/>
    <tag k="ref" v="S3"/>
    <tag k="source" v="nearmap"/>
  </way>
  <way id="48207762" version="8" timestamp="2010-05-07T16:39:37Z" uid="4467" user="Rosscoe" changeset="4631572">
    <nd ref="612698620"/>
    <nd ref="612698627"/>
    <nd ref="612698614"/>
    <nd ref="612698615"/>
    <nd ref="612698618"/>
    <nd ref="687174653"/>
    <tag k="highway" v="trunk"/>
    <tag k="name" v="Middle Swan Road"/>
    <tag k="oneway" v="yes"/>
    <tag k="ref" v="S3"/>
    <tag k="source" v="nearmap"/>
  </way>
  <way id="48207762" version="9" timestamp="2010-07-24T08:16:31Z" uid="294850" user="Q4004" changeset="5301709">
    <nd ref="612698620"/>
    <nd ref="612698627"/>
    <nd ref="612698614"/>
    <nd ref="612698615"/>
    <nd ref="612698618"/>
    <nd ref="687174653"/>
    <tag k="highway" v="trunk"/>
    <tag k="name" v="Reid Highway"/>
    <tag k="oneway" v="yes"/>
    <tag k="ref" v="S3"/>
    <tag k="source" v="nearmap"/>
  </way>
  <way id="48207762" version="10" timestamp="2010-09-04T14:53:51Z" uid="18174" user="browny_au" changeset="5678831">
    <nd ref="612698620"/>
    <nd ref="612698627"/>
    <nd ref="612698614"/>
    <nd ref="612698615"/>
    <nd ref="895742244"/>
    <nd ref="612698618"/>
    <nd ref="687174653"/>
    <tag k="highway" v="trunk"/>
    <tag k="name" v="Reid Highway"/>
    <tag k="oneway" v="yes"/>
    <tag k="ref" v="S3"/>
    <tag k="source" v="nearmap"/>
  </way>
  <way id="48207762" version="11" timestamp="2010-12-24T11:37:30Z" uid="387474" user="vlemaic" changeset="6753721">
    <nd ref="612698620"/>
    <nd ref="612698627"/>
    <nd ref="612698614"/>
    <nd ref="612698615"/>
    <nd ref="895742244"/>
    <nd ref="612698618"/>
    <nd ref="687174653"/>
    <tag k="highway" v="motorway"/>
    <tag k="name" v="Reid Highway"/>
    <tag k="oneway" v="yes"/>
    <tag k="ref" v="S3"/>
    <tag k="source" v="nearmap"/>
  </way>
  <way id="48207762" version="12" timestamp="2011-01-14T11:06:01Z" uid="4467" user="Rosscoe" changeset="6966058">
    <nd ref="612698620"/>
    <nd ref="612698627"/>
    <nd ref="612698614"/>
    <nd ref="612698615"/>
    <nd ref="895742244"/>
    <nd ref="612698618"/>
    <nd ref="687174653"/>
    <tag k="highway" v="trunk"/>
    <tag k="name" v="Reid Highway"/>
    <tag k="oneway" v="yes"/>
    <tag k="ref" v="S3"/>
    <tag k="source" v="nearmap"/>
  </way>
  <way id="48207763" version="1" timestamp="2010-01-13T02:18:55Z" uid="74617" user="JohnSmith" changeset="3607521">
    <nd ref="564630849"/>
    <nd ref="612698606"/>
    <nd ref="612698609"/>
    <nd ref="612698610"/>
    <nd ref="612698611"/>
    <nd ref="612698613"/>
    <nd ref="612698623"/>
    <nd ref="612698624"/>
    <tag k="construction" v="trunk"/>
    <tag k="highway" v="construction"/>
    <tag k="source" v="nearmap"/>
  </way>
  <way id="48207763" version="2" timestamp="2010-03-12T07:31:43Z" uid="189263" user="wildmyron" changeset="4103989">
    <nd ref="564630849"/>
    <nd ref="664390661"/>
    <nd ref="612698606"/>
    <nd ref="612698609"/>
    <nd ref="612698610"/>
    <nd ref="612698611"/>
    <nd ref="612698613"/>
    <nd ref="612698623"/>
    <nd ref="612698624"/>
    <tag k="highway" v="trunk"/>
    <tag k="name" v="Reid Highway"/>
    <tag k="oneway" v="yes"/>
    <tag k="ref" v="S3"/>
    <tag k="source" v="nearmap"/>
  </way>
  <way id="48207763" version="3" timestamp="2010-03-17T05:40:49Z" uid="186367" user="MCC" changeset="4149312"/>
  <way id="48207764" version="1" timestamp="2010-01-13T02:18:56Z" uid="74617" user="JohnSmith" changeset="3607521">
    <nd ref="612698638"/>
    <nd ref="612698633"/>
    <nd ref="612698634"/>
    <nd ref="612698629"/>
    <tag k="construction" v="trunk"/>
    <tag k="highway" v="construction"/>
    <tag k="source" v="nearmap"/>
  </way>
  <way id="48207764" version="2" timestamp="2010-03-12T07:31:44Z" uid="189263" user="wildmyron" changeset="4103989">
    <nd ref="559352817"/>
    <nd ref="664390662"/>
    <nd ref="612698638"/>
    <nd ref="612698633"/>
    <nd ref="612698634"/>
    <nd ref="612698629"/>
    <tag k="highway" v="trunk"/>
    <tag k="name" v="Reid Highway"/>
    <tag k="oneway" v="yes"/>
    <tag k="ref" v="S3"/>
    <tag k="source" v="nearmap"/>
  </way>
  <way id="48207764" version="3" timestamp="2010-03-17T05:42:23Z" uid="186367" user="MCC" changeset="4149312">
    <nd ref="559352817"/>
    <nd ref="664390662"/>
    <nd ref="612698638"/>
    <nd ref="612698633"/>
    <nd ref="612698634"/>
    <nd ref="612698629"/>
    <tag k="highway" v="trunk"/>
    <tag k="name" v="Middle Swan Road"/>
    <tag k="oneway" v="yes"/>
    <tag k="ref" v="S3"/>
    <tag k="source" v="nearmap"/>
  </way>
  <way id="48207764" version="4" timestamp="2010-04-14T02:46:41Z" uid="258497" user="Brendan_Cherry" changeset="4419313">
    <nd ref="559352817"/>
    <nd ref="664390662"/>
    <nd ref="612698638"/>
    <nd ref="612698633"/>
    <nd ref="612698634"/>
    <nd ref="612698629"/>
    <tag k="highway" v="trunk"/>
    <tag k="name" v="Reid Highway"/>
    <tag k="oneway" v="yes"/>
    <tag k="ref" v="S3"/>
    <tag k="source" v="nearmap"/>
  </way>
  <way id="48207764" version="5" timestamp="2010-04-27T22:24:37Z" uid="4467" user="Rosscoe" changeset="4545619">
    <nd ref="559352817"/>
    <nd ref="664390662"/>
    <nd ref="612698638"/>
    <nd ref="612698633"/>
    <nd ref="612698634"/>
    <nd ref="709237991"/>
    <nd ref="612698629"/>
    <tag k="highway" v="trunk"/>
    <tag k="name" v="Reid Highway"/>
    <tag k="oneway" v="yes"/>
    <tag k="ref" v="S3"/>
    <tag k="source" v="nearmap"/>
  </way>
  <way id="48207764" version="6" timestamp="2010-06-13T02:15:13Z" uid="4467" user="Rosscoe" changeset="4975255">
    <nd ref="559352817"/>
    <nd ref="612698638"/>
    <nd ref="612698633"/>
    <nd ref="612698634"/>
    <nd ref="709237991"/>
    <nd ref="612698629"/>
    <tag k="highway" v="trunk"/>
    <tag k="name" v="Reid Highway"/>
    <tag k="oneway" v="yes"/>
    <tag k="ref" v="S3"/>
    <tag k="source" v="nearmap"/>
  </way>
  <way id="48207764" version="7" timestamp="2010-09-04T14:53:57Z" uid="18174" user="browny_au" changeset="5678831">
    <nd ref="559352817"/>
    <nd ref="612698638"/>
    <nd ref="895742252"/>
    <nd ref="895742253"/>
    <nd ref="612698633"/>
    <nd ref="895742254"/>
    <nd ref="612698634"/>
    <nd ref="895742255"/>
    <nd ref="709237991"/>
    <nd ref="612698629"/>
    <tag k="highway" v="trunk"/>
    <tag k="name" v="Reid Highway"/>
    <tag k="oneway" v="yes"/>
    <tag k="ref" v="S3"/>
    <tag k="source" v="nearmap"/>
  </way>
  <way id="48207764" version="8" timestamp="2010-12-24T11:37:29Z" uid="387474" user="vlemaic" changeset="6753721">
    <nd ref="559352817"/>
    <nd ref="612698638"/>
    <nd ref="895742252"/>
    <nd ref="895742253"/>
    <nd ref="612698633"/>
    <nd ref="895742254"/>
    <nd ref="612698634"/>
    <nd ref="895742255"/>
    <nd ref="709237991"/>
    <nd ref="612698629"/>
    <tag k="highway" v="motorway"/>
    <tag k="name" v="Reid Highway"/>
    <tag k="oneway" v="yes"/>
    <tag k="ref" v="S3"/>
    <tag k="source" v="nearmap"/>
  </way>
  <way id="48207764" version="9" timestamp="2011-01-14T11:06:03Z" uid="4467" user="Rosscoe" changeset="6966058">
    <nd ref="559352817"/>
    <nd ref="612698638"/>
    <nd ref="895742252"/>
    <nd ref="895742253"/>
    <nd ref="612698633"/>
    <nd ref="895742254"/>
    <nd ref="612698634"/>
    <nd ref="895742255"/>
    <nd ref="709237991"/>
    <nd ref="612698629"/>
    <tag k="highway" v="trunk"/>
    <tag k="name" v="Reid Highway"/>
    <tag k="oneway" v="yes"/>
    <tag k="ref" v="S3"/>
    <tag k="source" v="nearmap"/>
  </way>
  <way id="48207765" version="1" timestamp="2010-01-13T02:18:56Z" uid="74617" user="JohnSmith" changeset="3607521">
    <nd ref="612698629"/>
    <nd ref="612698620"/>
    <tag k="bridge" v="yes"/>
    <tag k="construction" v="trunk"/>
    <tag k="highway" v="construction"/>
    <tag k="layer" v="1"/>
    <tag k="source" v="nearmap"/>
  </way>
  <way id="48207765" version="2" timestamp="2010-03-12T07:31:42Z" uid="189263" user="wildmyron" changeset="4103989">
    <nd ref="612698629"/>
    <nd ref="612698620"/>
    <tag k="bridge" v="yes"/>
    <tag k="highway" v="trunk"/>
    <tag k="layer" v="1"/>
    <tag k="name" v="Reid Highway"/>
    <tag k="oneway" v="yes"/>
    <tag k="ref" v="S3"/>
    <tag k="source" v="nearmap"/>
  </way>
  <way id="48207765" version="3" timestamp="2010-03-17T05:42:49Z" uid="186367" user="MCC" changeset="4149312">
    <nd ref="612698629"/>
    <nd ref="612698620"/>
    <tag k="bridge" v="yes"/>
    <tag k="highway" v="trunk"/>
    <tag k="layer" v="1"/>
    <tag k="name" v="Middle Swan Road"/>
    <tag k="oneway" v="yes"/>
    <tag k="ref" v="S3"/>
    <tag k="source" v="nearmap"/>
  </way>
  <way id="48207765" version="4" timestamp="2010-04-14T02:46:36Z" uid="258497" user="Brendan_Cherry" changeset="4419313">
    <nd ref="612698629"/>
    <nd ref="612698620"/>
    <tag k="bridge" v="yes"/>
    <tag k="highway" v="trunk"/>
    <tag k="layer" v="1"/>
    <tag k="name" v="Reid Highway"/>
    <tag k="oneway" v="yes"/>
    <tag k="ref" v="S3"/>
    <tag k="source" v="nearmap"/>
  </way>
  <way id="48207765" version="5" timestamp="2010-05-07T16:39:39Z" uid="4467" user="Rosscoe" changeset="4631572">
    <nd ref="612698629"/>
    <nd ref="612698620"/>
    <tag k="bridge" v="yes"/>
    <tag k="highway" v="trunk"/>
    <tag k="layer" v="1"/>
    <tag k="name" v="Middle Swan Road"/>
    <tag k="oneway" v="yes"/>
    <tag k="ref" v="S3"/>
    <tag k="source" v="nearmap"/>
  </way>
  <way id="48207765" version="6" timestamp="2010-06-26T07:45:55Z" uid="294850" user="Q4004" changeset="5078941">
    <nd ref="612698629"/>
    <nd ref="612698620"/>
    <tag k="bridge" v="yes"/>
    <tag k="highway" v="trunk"/>
    <tag k="layer" v="1"/>
    <tag k="name" v="Reid Highway"/>
    <tag k="oneway" v="yes"/>
    <tag k="ref" v="S3"/>
    <tag k="source" v="nearmap"/>
  </way>
  <way id="48207765" version="7" timestamp="2010-12-24T11:37:29Z" uid="387474" user="vlemaic" changeset="6753721">
    <nd ref="612698629"/>
    <nd ref="612698620"/>
    <tag k="bridge" v="yes"/>
    <tag k="highway" v="motorway"/>
    <tag k="layer" v="1"/>
    <tag k="name" v="Reid Highway"/>
    <tag k="oneway" v="yes"/>
    <tag k="ref" v="S3"/>
    <tag k="source" v="nearmap"/>
  </way>
  <way id="48207765" version="8" timestamp="2011-01-14T11:06:02Z" uid="4467" user="Rosscoe" changeset="6966058">
    <nd ref="612698629"/>
    <nd ref="612698620"/>
    <tag k="bridge" v="yes"/>
    <tag k="highway" v="trunk"/>
    <tag k="layer" v="1"/>
    <tag k="name" v="Reid Highway"/>
    <tag k="oneway" v="yes"/>
    <tag k="ref" v="S3"/>
    <tag k="source" v="nearmap"/>
  </way>
  <way id="48207766" version="1" timestamp="2010-01-13T02:18:56Z" uid="74617" user="JohnSmith" changeset="3607521">
    <nd ref="612698624"/>
    <nd ref="612698631"/>
    <tag k="bridge" v="yes"/>
    <tag k="construction" v="trunk"/>
    <tag k="highway" v="construction"/>
    <tag k="layer" v="1"/>
    <tag k="source" v="nearmap"/>
  </way>
  <way id="48207766" version="2" timestamp="2010-03-12T07:31:44Z" uid="189263" user="wildmyron" changeset="4103989">
    <nd ref="612698624"/>
    <nd ref="612698631"/>
    <tag k="bridge" v="yes"/>
    <tag k="highway" v="trunk"/>
    <tag k="layer" v="1"/>
    <tag k="name" v="Reid Highway"/>
    <tag k="oneway" v="yes"/>
    <tag k="ref" v="S3"/>
    <tag k="source" v="nearmap"/>
  </way>
  <way id="48207766" version="3" timestamp="2010-03-17T05:40:43Z" uid="186367" user="MCC" changeset="4149312">
    <nd ref="612698624"/>
    <nd ref="612698631"/>
    <tag k="bridge" v="yes"/>
    <tag k="highway" v="trunk"/>
    <tag k="layer" v="1"/>
    <tag k="name" v="Middle Swan Road"/>
    <tag k="oneway" v="yes"/>
    <tag k="ref" v="S3"/>
    <tag k="source" v="GPS"/>
  </way>
  <way id="48207766" version="4" timestamp="2010-04-14T02:46:31Z" uid="258497" user="Brendan_Cherry" changeset="4419313">
    <nd ref="612698624"/>
    <nd ref="612698631"/>
    <tag k="bridge" v="yes"/>
    <tag k="highway" v="trunk"/>
    <tag k="layer" v="1"/>
    <tag k="name" v="Reid Highway"/>
    <tag k="oneway" v="yes"/>
    <tag k="ref" v="S3"/>
    <tag k="source" v="GPS"/>
  </way>
  <way id="48207766" version="5" timestamp="2010-04-27T22:24:37Z" uid="4467" user="Rosscoe" changeset="4545619">
    <nd ref="612698624"/>
    <nd ref="612698631"/>
    <tag k="bridge" v="yes"/>
    <tag k="highway" v="trunk"/>
    <tag k="layer" v="1"/>
    <tag k="name" v="Reid Highway"/>
    <tag k="oneway" v="yes"/>
    <tag k="ref" v="S3"/>
    <tag k="source" v="survey"/>
  </way>
  <way id="48207766" version="6" timestamp="2010-12-24T11:37:28Z" uid="387474" user="vlemaic" changeset="6753721">
    <nd ref="612698624"/>
    <nd ref="612698631"/>
    <tag k="bridge" v="yes"/>
    <tag k="highway" v="motorway"/>
    <tag k="layer" v="1"/>
    <tag k="name" v="Reid Highway"/>
    <tag k="oneway" v="yes"/>
    <tag k="ref" v="S3"/>
    <tag k="source" v="survey"/>
  </way>
  <way id="48207766" version="7" timestamp="2011-01-14T11:06:02Z" uid="4467" user="Rosscoe" changeset="6966058">
    <nd ref="612698624"/>
    <nd ref="612698631"/>
    <tag k="bridge" v="yes"/>
    <tag k="highway" v="trunk"/>
    <tag k="layer" v="1"/>
    <tag k="name" v="Reid Highway"/>
    <tag k="oneway" v="yes"/>
    <tag k="ref" v="S3"/>
    <tag k="source" v="survey"/>
  </way>
  <way id="48207767" version="1" timestamp="2010-01-13T02:18:56Z" uid="74617" user="JohnSmith" changeset="3607521">
    <nd ref="612698631"/>
    <nd ref="612698635"/>
    <nd ref="612698637"/>
    <tag k="construction" v="trunk"/>
    <tag k="highway" v="construction"/>
    <tag k="source" v="nearmap"/>
  </way>
  <way id="48207767" version="2" timestamp="2010-03-12T07:31:38Z" uid="189263" user="wildmyron" changeset="4103989">
    <nd ref="612698631"/>
    <nd ref="612698635"/>
    <nd ref="612698637"/>
    <nd ref="664390656"/>
    <nd ref="664390657"/>
    <tag k="highway" v="trunk"/>
    <tag k="name" v="Reid Highway"/>
    <tag k="oneway" v="yes"/>
    <tag k="ref" v="S3"/>
    <tag k="source" v="nearmap"/>
  </way>
  <way id="48207767" version="3" timestamp="2010-09-04T14:53:58Z" uid="18174" user="browny_au" changeset="5678831">
    <nd ref="612698631"/>
    <nd ref="895742265"/>
    <nd ref="895742268"/>
    <nd ref="612698635"/>
    <nd ref="612698637"/>
    <nd ref="895742271"/>
    <nd ref="664390656"/>
    <nd ref="664390657"/>
    <tag k="highway" v="trunk"/>
    <tag k="name" v="Reid Highway"/>
    <tag k="oneway" v="yes"/>
    <tag k="ref" v="S3"/>
    <tag k="source" v="nearmap"/>
  </way>
  <way id="48207767" version="4" timestamp="2010-12-24T11:37:28Z" uid="387474" user="vlemaic" changeset="6753721">
    <nd ref="612698631"/>
    <nd ref="895742265"/>
    <nd ref="895742268"/>
    <nd ref="612698635"/>
    <nd ref="612698637"/>
    <nd ref="895742271"/>
    <nd ref="664390656"/>
    <nd ref="664390657"/>
    <tag k="highway" v="motorway"/>
    <tag k="name" v="Reid Highway"/>
    <tag k="oneway" v="yes"/>
    <tag k="ref" v="S3"/>
    <tag k="source" v="nearmap"/>
  </way>
  <way id="48207767" version="5" timestamp="2011-01-14T11:06:01Z" uid="4467" user="Rosscoe" changeset="6966058">
    <nd ref="612698631"/>
    <nd ref="895742265"/>
    <nd ref="895742268"/>
    <nd ref="612698635"/>
    <nd ref="612698637"/>
    <nd ref="895742271"/>
    <nd ref="664390656"/>
    <nd ref="664390657"/>
    <tag k="highway" v="trunk"/>
    <tag k="name" v="Reid Highway"/>
    <tag k="oneway" v="yes"/>
    <tag k="ref" v="S3"/>
    <tag k="source" v="nearmap"/>
  </way>
  <way id="48207785" version="3" timestamp="2010-07-06T18:54:38Z" uid="74617" user="JohnSmith" changeset="5152225">
    <nd ref="277854906"/>
    <nd ref="277855170"/>
    <nd ref="277855171"/>
    <nd ref="277855146"/>
    <nd ref="277855147"/>
    <nd ref="104849240"/>
    <tag k="highway" v="residential"/>
    <tag k="maxspeed" v="50"/>
    <tag k="maxspeed:source" v="default residential speed limit in Australia"/>
    <tag k="name" v="Esplanade"/>
    <tag k="oneway" v="yes"/>
    <tag k="source" v="survey"/>
  </way>
  <way id="48207785" version="4" timestamp="2012-01-19T21:34:41Z" uid="147510" user="woodpeck_fixbot" changeset="10440306">
    <nd ref="277854906"/>
    <nd ref="277855170"/>
    <nd ref="277855171"/>
    <nd ref="277855146"/>
    <nd ref="277855147"/>
    <nd ref="104849240"/>
    <tag k="highway" v="residential"/>
    <tag k="name" v="Esplanade"/>
    <tag k="oneway" v="yes"/>
    <tag k="source" v="survey"/>
  </way>
  <way id="48207786" version="3" timestamp="2010-07-06T18:58:06Z" uid="74617" user="JohnSmith" changeset="5152225">
    <nd ref="612703918"/>
    <nd ref="609058679"/>
    <nd ref="609058680"/>
    <nd ref="609058682"/>
    <nd ref="609058687"/>
    <tag k="attribution" v="Based on data from State of Queensland (Department of Environment and Resource Management) 2009"/>
    <tag k="highway" v="residential"/>
    <tag k="maxspeed" v="50"/>
    <tag k="maxspeed:source" v="default residential speed limit in Australia"/>
    <tag k="name" v="Sea Glint Place"/>
    <tag k="source" v="survey"/>
  </way>
  <way id="48207786" version="4" timestamp="2012-01-19T21:34:42Z" uid="147510" user="woodpeck_fixbot" changeset="10440306">
    <nd ref="612703918"/>
    <nd ref="609058679"/>
    <nd ref="609058680"/>
    <nd ref="609058682"/>
    <nd ref="609058687"/>
    <tag k="attribution" v="Based on data from State of Queensland (Department of Environment and Resource Management) 2009"/>
    <tag k="highway" v="residential"/>
    <tag k="name" v="Sea Glint Place"/>
    <tag k="source" v="survey"/>
  </way>
  <way id="48207787" version="3" timestamp="2010-07-06T18:52:08Z" uid="74617" user="JohnSmith" changeset="5152225">
    <nd ref="612703921"/>
    <nd ref="612703923"/>
    <nd ref="612703925"/>
    <nd ref="612703928"/>
    <nd ref="612703929"/>
    <nd ref="612703932"/>
    <nd ref="609058738"/>
    <nd ref="612802777"/>
    <tag k="highway" v="residential"/>
    <tag k="maxspeed" v="50"/>
    <tag k="maxspeed:source" v="default residential speed limit in Australia"/>
    <tag k="name" v="Columbia Place"/>
    <tag k="source" v="survey"/>
  </way>
  <way id="48207787" version="4" timestamp="2012-01-19T21:34:44Z" uid="147510" user="woodpeck_fixbot" changeset="10440306">
    <nd ref="612703921"/>
    <nd ref="612703923"/>
    <nd ref="612703925"/>
    <nd ref="612703928"/>
    <nd ref="612703929"/>
    <nd ref="612703932"/>
    <nd ref="609058738"/>
    <nd ref="612802777"/>
    <tag k="highway" v="residential"/>
    <tag k="name" v="Columbia Place"/>
    <tag k="source" v="survey"/>
  </way>
  <way id="48207788" version="3" timestamp="2010-07-06T18:56:04Z" uid="74617" user="JohnSmith" changeset="5152225">
    <nd ref="612703934"/>
    <nd ref="612703937"/>
    <tag k="highway" v="residential"/>
    <tag k="maxspeed" v="50"/>
    <tag k="maxspeed:source" v="default residential speed limit in Australia"/>
    <tag k="name" v="North Point Crescent"/>
    <tag k="source" v="survey"/>
  </way>
  <way id="48207788" version="4" timestamp="2012-01-19T21:34:45Z" uid="147510" user="woodpeck_fixbot" changeset="10440306">
    <nd ref="612703934"/>
    <nd ref="612703937"/>
    <tag k="highway" v="residential"/>
    <tag k="name" v="North Point Crescent"/>
    <tag k="source" v="survey"/>
  </way>
  <way id="48207789" version="3" timestamp="2010-07-06T18:50:19Z" uid="74617" user="JohnSmith" changeset="5152225">
    <nd ref="612703937"/>
    <nd ref="612703938"/>
    <nd ref="612703940"/>
    <nd ref="609058866"/>
    <tag k="highway" v="residential"/>
    <tag k="maxspeed" v="50"/>
    <tag k="maxspeed:source" v="default residential speed limit in Australia"/>
    <tag k="name" v="North Point Crescent"/>
    <tag k="source" v="survey"/>
  </way>
  <way id="48207789" version="4" timestamp="2012-01-19T21:34:46Z" uid="147510" user="woodpeck_fixbot" changeset="10440306">
    <nd ref="612703937"/>
    <nd ref="612703938"/>
    <nd ref="612703940"/>
    <nd ref="609058866"/>
    <tag k="highway" v="residential"/>
    <tag k="name" v="North Point Crescent"/>
    <tag k="source" v="survey"/>
  </way>
  <way id="48207805" version="2" timestamp="2010-04-02T17:54:26Z" uid="20587" user="balrog-kun" changeset="4304500">
    <nd ref="612708160"/>
    <nd ref="612708167"/>
    <nd ref="612708168"/>
    <nd ref="612708170"/>
    <nd ref="612708171"/>
    <nd ref="46974800"/>
    <nd ref="612708177"/>
    <nd ref="46974804"/>
    <nd ref="46974808"/>
    <nd ref="612708184"/>
    <nd ref="46974813"/>
    <tag k="highway" v="residential"/>
    <tag k="name" v="Rand Road"/>
    <tag k="tiger:cfcc" v="A41"/>
    <tag k="tiger:county" v="Benton, WA"/>
    <tag k="tiger:name_base" v="Rand"/>
    <tag k="tiger:name_type" v="Rd"/>
    <tag k="tiger:reviewed" v="no"/>
    <tag k="tiger:separated" v="no"/>
    <tag k="tiger:source" v="tiger_import_dch_v0.6_20070830"/>
    <tag k="tiger:tlid" v="175011925"/>
  </way>
</osm>
