<?xml version='1.0' encoding='UTF-8'?>
<osm version="0.6" generator="libosmium/2.20.0">
  <way id="48278091" version="1" timestamp="2010-01-14T13:25:29Z" uid="8619" user="cetest" changeset="3616940">
    <nd ref="613460430"/>
    <nd ref="613460406"/>
    <nd ref="613460408"/>
    <nd ref="613460400"/>
    <nd ref="613460430"/>
    <tag k="building" v="yes"/>
    <tag k="name" v="Plais de Justice"/>
  </way>
  <way id="48278091" version="2" timestamp="2010-01-14T16:39:09Z" uid="1626" user="FredB" changeset="3618083">
    <nd ref="613460430"/>
    <nd ref="613460406"/>
    <nd ref="613460408"/>
    <nd ref="613460400"/>
    <nd ref="613460430"/>
    <tag k="amenity" v="courthouse"/>
    <tag k="building" v="yes"/>
    <tag k="name" v="Palais de Justice"/>
  </way>
  <way id="48278091" version="3" timestamp="2010-01-14T21:51:50Z" uid="1626" user="FredB" changeset="3620472">
    <nd ref="613460430"/>
    <nd ref="613460406"/>
    <nd ref="613460408"/>
    <nd ref="613460400"/>
    <nd ref="613460430"/>
    <tag k="amenity" v="courthouse"/>
    <tag k="building" v="collapsed"/>
    <tag k="name" v="Palais de Justice"/>
    <tag k="source" v="GeoEye + http://haiti.ushahidi.com/"/>
  </way>
  <way id="48278091" version="4" timestamp="2010-01-18T13:47:22Z" uid="57054" user="26eb5473101d742b174d730717409668" changeset="3650266">
    <nd ref="613460430"/>
    <nd ref="613460406"/>
    <nd ref="613460408"/>
    <nd ref="613460400"/>
    <nd ref="613460430"/>
    <tag k="amenity" v="courthouse"/>
    <tag k="building" v="collapsed"/>
    <tag k="earthquake:damage" v="collapsed_building"/>
    <tag k="name" v="Palais de Justice"/>
    <tag k="source" v="Ithaca,2010-01-15"/>
    <tag k="source:imagery" v="GeoEye,2010-01-13"/>
  </way>
  <way id="48278091" version="5" timestamp="2010-01-20T21:03:18Z" uid="10549" user="toaster" changeset="3670423">
    <nd ref="613460430"/>
    <nd ref="613460406"/>
    <nd ref="613460408"/>
    <nd ref="617332245"/>
    <nd ref="617332246"/>
    <nd ref="613460400"/>
    <nd ref="613460430"/>
    <tag k="amenity" v="courthouse"/>
    <tag k="building" v="collapsed"/>
    <tag k="earthquake:damage" v="collapsed_building"/>
    <tag k="name" v="Palais de Justice"/>
    <tag k="source" v="Ithaca,2010-01-15"/>
    <tag k="source:imagery" v="GeoEye,2010-01-13"/>
  </way>
  <way id="48278091" version="6" timestamp="2010-01-21T22:58:38Z" uid="59758" user="rendle" changeset="3679183">
    <nd ref="613460430"/>
    <nd ref="613460406"/>
    <nd ref="613460408"/>
    <nd ref="617332245"/>
    <nd ref="617332246"/>
    <nd ref="613460400"/>
    <nd ref="613460430"/>
    <tag k="amenity" v="courthouse"/>
    <tag k="building" v="collapsed"/>
    <tag k="earthquake:damage" v="collapsed_building"/>
    <tag k="name:en" v="Courthouse"/>
    <tag k="source" v="Ithaca,2010-01-15"/>
    <tag k="source:imagery" v="GeoEye,2010-01-13"/>
  </way>
  <way id="48278091" version="7" timestamp="2010-02-18T01:18:26Z" uid="79857" user="RDSantiago" changeset="3905927">
    <nd ref="613460430"/>
    <nd ref="613460406"/>
    <nd ref="613460408"/>
    <nd ref="617332245"/>
    <nd ref="617332246"/>
    <nd ref="613460400"/>
    <nd ref="613460430"/>
    <tag k="addr:country" v="HT"/>
    <tag k="amenity" v="courthouse"/>
    <tag k="building" v="collapsed"/>
    <tag k="earthquake:damage" v="collapsed_building"/>
    <tag k="name:en" v="Courthouse"/>
    <tag k="source" v="Ithaca,2010-01-15"/>
    <tag k="source:imagery" v="GeoEye,2010-01-13"/>
  </way>
  <way id="48278091" version="8" timestamp="2012-02-28T22:04:13Z" uid="24440" user="jaakkoh" changeset="10823230">
    <nd ref="613460430"/>
    <nd ref="613460406"/>
    <nd ref="613460408"/>
    <nd ref="617332245"/>
    <nd ref="617332246"/>
    <nd ref="613460400"/>
    <nd ref="613460430"/>
    <tag k="addr:country" v="HT"/>
    <tag k="amenity" v="courthouse"/>
    <tag k="building" v="collapsed"/>
    <tag k="earthquake:damage" v="collapsed_building"/>
    <tag k="name:en" v="Old Courthouse"/>
    <tag k="odbl" v="clean"/>
    <tag k="old_name" v="Palais de Justice"/>
    <tag k="source" v="Ithaca,2010-01-15"/>
    <tag k="source:imagery" v="GeoEye,2010-01-13"/>
  </way>
  <way id="48278092" version="1" timestamp="2010-01-14T13:25:29Z" uid="8619" user="cetest" changeset="3616940">
    <nd ref="613460414"/>
    <nd ref="613460390"/>
    <nd ref="613460396"/>
    <nd ref="613460394"/>
    <nd ref="613460414"/>
    <tag k="amenity" v="school"/>
    <tag k="building" v="yes"/>
    <tag k="name" v="Lycée Toussaint Louverture"/>
  </way>
  <way id="48278092" version="2" timestamp="2010-01-14T15:47:07Z" uid="84681" user="SK53" changeset="3617831">
    <nd ref="613460414"/>
    <nd ref="613460390"/>
    <nd ref="613460396"/>
    <nd ref="613460394"/>
    <nd ref="613460414"/>
    <tag k="amenity" v="school"/>
    <tag k="name" v="Lycée Toussaint Louverture"/>
    <tag k="source" v="Yahoo;1994 CIA Map"/>
  </way>
  <way id="48278092" version="3" timestamp="2010-01-15T11:33:41Z" uid="8619" user="cetest" changeset="3623525">
    <nd ref="613460414"/>
    <nd ref="613460390"/>
    <nd ref="613460396"/>
    <nd ref="613460394"/>
    <nd ref="613460414"/>
    <tag k="ID" v="57"/>
    <tag k="amenity" v="school"/>
    <tag k="leisure" v="park"/>
    <tag k="name" v="Lycée Toussaint Louverture"/>
    <tag k="refugee" v="yes"/>
    <tag k="source" v="Yahoo;1994 CIA Map"/>
    <tag k="tourism" v="camp_site"/>
  </way>
  <way id="48278092" version="4" timestamp="2010-02-18T01:18:26Z" uid="79857" user="RDSantiago" changeset="3905927">
    <nd ref="613460414"/>
    <nd ref="613460390"/>
    <nd ref="613460396"/>
    <nd ref="613460394"/>
    <nd ref="613460414"/>
    <tag k="ID" v="57"/>
    <tag k="addr:country" v="HT"/>
    <tag k="amenity" v="school"/>
    <tag k="leisure" v="park"/>
    <tag k="name" v="Lycée Toussaint Louverture"/>
    <tag k="refugee" v="yes"/>
    <tag k="source" v="Yahoo;1994 CIA Map"/>
    <tag k="tourism" v="camp_site"/>
  </way>
  <way id="48278092" version="5" timestamp="2010-10-17T09:33:13Z" uid="231539" user="Xapitoun" changeset="6064813">
    <nd ref="613460414"/>
    <nd ref="613460390"/>
    <nd ref="613460396"/>
    <nd ref="613460394"/>
    <nd ref="613460414"/>
    <tag k="ID" v="57"/>
    <tag k="addr:country" v="HT"/>
    <tag k="leisure" v="park"/>
    <tag k="refugee" v="yes"/>
    <tag k="source" v="Yahoo;1994 CIA Map"/>
    <tag k="tourism" v="camp_site"/>
  </way>
  <way id="48278092" version="6" timestamp="2011-05-02T06:54:28Z" uid="26348" user="Rodolphe Quiédeville" changeset="8028081">
    <nd ref="613460414"/>
    <nd ref="613460390"/>
    <nd ref="613460396"/>
    <nd ref="613460394"/>
    <nd ref="613460414"/>
    <tag k="addr:country" v="HT"/>
    <tag k="id" v="57"/>
    <tag k="leisure" v="park"/>
    <tag k="refugee" v="yes"/>
    <tag k="source" v="Yahoo;1994 CIA Map"/>
    <tag k="tourism" v="camp_site"/>
  </way>
  <way id="48278092" version="7" timestamp="2012-02-28T22:04:50Z" uid="24440" user="jaakkoh" changeset="10823230">
    <nd ref="613460414"/>
    <nd ref="613460390"/>
    <nd ref="613460396"/>
    <nd ref="613460394"/>
    <nd ref="613460414"/>
    <tag k="addr:country" v="HT"/>
    <tag k="id" v="57"/>
    <tag k="leisure" v="park"/>
    <tag k="odbl" v="clean"/>
    <tag k="refugee" v="yes"/>
    <tag k="source" v="Yahoo;1994 CIA Map"/>
    <tag k="tourism" v="camp_site"/>
  </way>
  <way id="48278093" version="1" timestamp="2010-01-14T13:25:29Z" uid="8619" user="cetest" changeset="3616940">
    <nd ref="613460420"/>
    <nd ref="613460418"/>
    <nd ref="613460399"/>
    <nd ref="613460416"/>
    <nd ref="613460420"/>
    <tag k="amenity" v="place_of_worship"/>
    <tag k="denomination" v="catholic"/>
    <tag k="name" v="Église St. Paul"/>
    <tag k="religion" v="christian"/>
  </way>
  <way id="48278093" version="2" timestamp="2010-02-18T01:18:26Z" uid="79857" user="RDSantiago" changeset="3905927">
    <nd ref="613460420"/>
    <nd ref="613460418"/>
    <nd ref="613460399"/>
    <nd ref="613460416"/>
    <nd ref="613460420"/>
    <tag k="addr:country" v="HT"/>
    <tag k="amenity" v="place_of_worship"/>
    <tag k="denomination" v="catholic"/>
    <tag k="name" v="Église St. Paul"/>
    <tag k="religion" v="christian"/>
  </way>
  <way id="48278094" version="1" timestamp="2010-01-14T13:25:29Z" uid="8619" user="cetest" changeset="3616940">
    <nd ref="613460404"/>
    <nd ref="613460411"/>
    <nd ref="613460413"/>
    <nd ref="613460402"/>
    <nd ref="613460404"/>
    <tag k="building" v="yes"/>
    <tag k="name" v="Quartier Générale des Volontaires de la Sécurité Nationale"/>
  </way>
  <way id="48278094" version="2" timestamp="2010-01-18T13:47:22Z" uid="57054" user="26eb5473101d742b174d730717409668" changeset="3650266">
    <nd ref="613460404"/>
    <nd ref="613460411"/>
    <nd ref="613460413"/>
    <nd ref="613460402"/>
    <nd ref="613460404"/>
    <tag k="building" v="collapsed"/>
    <tag k="earthquake:damage" v="collapsed_building"/>
    <tag k="name" v="Quartier Générale des Volontaires de la Sécurité Nationale"/>
    <tag k="source" v="Ithaca,2010-01-15"/>
    <tag k="source:imagery" v="GeoEye,2010-01-13"/>
  </way>
  <way id="48278094" version="3" timestamp="2010-01-21T22:57:47Z" uid="59758" user="rendle" changeset="3679183">
    <nd ref="613460404"/>
    <nd ref="613460411"/>
    <nd ref="613460413"/>
    <nd ref="613460402"/>
    <nd ref="613460404"/>
    <tag k="building" v="collapsed"/>
    <tag k="earthquake:damage" v="collapsed_building"/>
    <tag k="name:en" v="National voluntary security forces headquarters"/>
    <tag k="source" v="Ithaca,2010-01-15"/>
    <tag k="source:imagery" v="GeoEye,2010-01-13"/>
  </way>
  <way id="48278094" version="4" timestamp="2012-02-28T22:04:12Z" uid="24440" user="jaakkoh" changeset="10823230">
    <nd ref="613460404"/>
    <nd ref="613460411"/>
    <nd ref="613460413"/>
    <nd ref="613460402"/>
    <nd ref="613460404"/>
    <tag k="building" v="collapsed"/>
    <tag k="earthquake:damage" v="collapsed_building"/>
    <tag k="name:en" v="National voluntary security forces headquarters"/>
    <tag k="odbl" v="clean"/>
    <tag k="source" v="Ithaca,2010-01-15"/>
    <tag k="source:imagery" v="GeoEye,2010-01-13"/>
  </way>
  <way id="48278095" version="1" timestamp="2010-01-14T13:25:29Z" uid="8619" user="cetest" changeset="3616940">
    <nd ref="613460423"/>
    <nd ref="613460426"/>
    <nd ref="613460428"/>
    <nd ref="613460425"/>
    <nd ref="613460423"/>
    <tag k="amenity" v="place_of_worship"/>
    <tag k="denomination" v="baptist"/>
    <tag k="name" v="Église Baptiste"/>
    <tag k="religion" v="christian"/>
  </way>
  <way id="48278095" version="2" timestamp="2010-01-16T13:10:41Z" uid="47355" user="s_Frantz" changeset="3631287">
    <nd ref="613460423"/>
    <nd ref="613460426"/>
    <nd ref="613460428"/>
    <nd ref="613460425"/>
    <nd ref="613460423"/>
    <tag k="amenity" v="place_of_worship"/>
    <tag k="building" v="collapsed"/>
    <tag k="denomination" v="baptist"/>
    <tag k="name" v="Église Baptiste"/>
    <tag k="religion" v="christian"/>
  </way>
  <way id="48278095" version="3" timestamp="2010-02-18T01:18:30Z" uid="79857" user="RDSantiago" changeset="3905927">
    <nd ref="613460423"/>
    <nd ref="613460426"/>
    <nd ref="613460428"/>
    <nd ref="613460425"/>
    <nd ref="613460423"/>
    <tag k="addr:country" v="HT"/>
    <tag k="amenity" v="place_of_worship"/>
    <tag k="building" v="collapsed"/>
    <tag k="denomination" v="baptist"/>
    <tag k="name" v="Église Baptiste"/>
    <tag k="religion" v="christian"/>
  </way>
  <way id="48278095" version="4" timestamp="2012-02-28T22:04:48Z" uid="24440" user="jaakkoh" changeset="10823230">
    <nd ref="613460423"/>
    <nd ref="613460426"/>
    <nd ref="613460428"/>
    <nd ref="613460425"/>
    <nd ref="613460423"/>
    <tag k="addr:country" v="HT"/>
    <tag k="amenity" v="place_of_worship"/>
    <tag k="building" v="collapsed"/>
    <tag k="denomination" v="baptist"/>
    <tag k="name" v="Église Baptiste"/>
    <tag k="odbl" v="clean"/>
    <tag k="religion" v="christian"/>
  </way>
  <way id="48278096" version="1" timestamp="2010-01-14T13:25:29Z" uid="8619" user="cetest" changeset="3616940">
    <nd ref="613460442"/>
    <nd ref="613460443"/>
    <nd ref="613460439"/>
    <nd ref="613460440"/>
    <nd ref="613460442"/>
    <tag k="building" v="yes"/>
    <tag k="name" v="Institution Saint Louis de Gonzaque (office)"/>
  </way>
  <way id="48278096" version="2" timestamp="2011-10-07T09:49:57Z" uid="24440" user="jaakkoh" changeset="9492347">
    <nd ref="613460442"/>
    <nd ref="613460443"/>
    <nd ref="613460439"/>
    <nd ref="613460440"/>
    <nd ref="613460442"/>
    <tag k="landuse" v="commercial"/>
    <tag k="name" v="Institution Saint Louis de Gonzaque"/>
    <tag k="office" v="yes"/>
  </way>
  <way id="48278097" version="1" timestamp="2010-01-14T13:25:29Z" uid="8619" user="cetest" changeset="3616940">
    <nd ref="613460445"/>
    <nd ref="613460453"/>
    <nd ref="613460451"/>
    <nd ref="613460446"/>
    <nd ref="613460445"/>
    <tag k="building" v="yes"/>
    <tag k="name" v="Radio Metropole"/>
  </way>
  <way id="48278098" version="1" timestamp="2010-01-14T13:25:29Z" uid="8619" user="cetest" changeset="3616940">
    <nd ref="613460447"/>
    <nd ref="613460448"/>
    <nd ref="613460450"/>
    <nd ref="613460449"/>
    <nd ref="613460447"/>
    <tag k="building" v="yes"/>
    <tag k="name" v="Telecommunications d&apos;Haiti S.A."/>
  </way>
  <way id="48278098" version="2" timestamp="2010-01-14T16:39:09Z" uid="1626" user="FredB" changeset="3618083">
    <nd ref="613460447"/>
    <nd ref="613460448"/>
    <nd ref="613460450"/>
    <nd ref="613460449"/>
    <nd ref="613460447"/>
    <tag k="building" v="yes"/>
    <tag k="name" v="Télécommunications d&apos;Haiti S.A."/>
  </way>
  <way id="48278098" version="3" timestamp="2012-03-24T08:20:01Z" uid="24440" user="jaakkoh" changeset="11081605"/>
  <way id="48278099" version="1" timestamp="2010-01-14T13:25:29Z" uid="8619" user="cetest" changeset="3616940">
    <nd ref="613460432"/>
    <nd ref="613460436"/>
    <nd ref="613460437"/>
    <nd ref="613460435"/>
    <nd ref="613460432"/>
    <tag k="building" v="yes"/>
    <tag k="name" v="Radio Nationale"/>
  </way>
  <way id="48278392" version="6" timestamp="2010-01-15T06:59:25Z" uid="8619" user="cetest" changeset="3622202">
    <nd ref="613473002"/>
    <nd ref="613473008"/>
    <nd ref="613473010"/>
    <nd ref="613473012"/>
    <nd ref="614036988"/>
    <nd ref="613473014"/>
    <nd ref="613473016"/>
    <nd ref="613473018"/>
    <nd ref="613473020"/>
    <nd ref="614036989"/>
    <nd ref="613473022"/>
    <nd ref="613473029"/>
    <nd ref="613473031"/>
    <nd ref="613473002"/>
    <tag k="name" v="Champs de Mars"/>
    <tag k="refugee" v="yes"/>
    <tag k="tourism" v="camp_site"/>
  </way>
  <way id="48278392" version="7" timestamp="2010-01-15T11:33:41Z" uid="8619" user="cetest" changeset="3623525">
    <nd ref="613473002"/>
    <nd ref="613473008"/>
    <nd ref="613473010"/>
    <nd ref="613473012"/>
    <nd ref="614036988"/>
    <nd ref="613473014"/>
    <nd ref="613473016"/>
    <nd ref="613473018"/>
    <nd ref="613473020"/>
    <nd ref="614036989"/>
    <nd ref="613473022"/>
    <nd ref="613473029"/>
    <nd ref="613473031"/>
    <nd ref="613473002"/>
    <tag k="ID" v="65"/>
    <tag k="name" v="Champs de Mars"/>
    <tag k="refugee" v="yes"/>
    <tag k="tourism" v="camp_site"/>
  </way>
  <way id="48278392" version="8" timestamp="2010-01-27T19:13:17Z" uid="61898" user="Hans van Wijk" changeset="3730663">
    <nd ref="613473002"/>
    <nd ref="613473008"/>
    <nd ref="621422611"/>
    <nd ref="613473010"/>
    <nd ref="621422577"/>
    <nd ref="613473012"/>
    <nd ref="621422578"/>
    <nd ref="614036988"/>
    <nd ref="613473014"/>
    <nd ref="613473016"/>
    <nd ref="613473018"/>
    <nd ref="613473020"/>
    <nd ref="621422618"/>
    <nd ref="614036989"/>
    <nd ref="621422617"/>
    <nd ref="613473022"/>
    <nd ref="613473029"/>
    <nd ref="613473031"/>
    <nd ref="613473002"/>
    <tag k="ID" v="65"/>
    <tag k="earthquake:damage" v="spontaneous_camp"/>
    <tag k="name" v="Champs de Mars"/>
    <tag k="refugee" v="yes"/>
    <tag k="tourism" v="camp_site"/>
  </way>
  <way id="48278392" version="9" timestamp="2010-02-18T01:18:25Z" uid="79857" user="RDSantiago" changeset="3905927">
    <nd ref="613473002"/>
    <nd ref="613473008"/>
    <nd ref="621422611"/>
    <nd ref="613473010"/>
    <nd ref="621422577"/>
    <nd ref="613473012"/>
    <nd ref="621422578"/>
    <nd ref="614036988"/>
    <nd ref="613473014"/>
    <nd ref="613473016"/>
    <nd ref="613473018"/>
    <nd ref="613473020"/>
    <nd ref="621422618"/>
    <nd ref="614036989"/>
    <nd ref="621422617"/>
    <nd ref="613473022"/>
    <nd ref="613473029"/>
    <nd ref="613473031"/>
    <nd ref="613473002"/>
    <tag k="ID" v="65"/>
    <tag k="addr:country" v="HT"/>
    <tag k="earthquake:damage" v="spontaneous_camp"/>
    <tag k="name" v="Champs de Mars"/>
    <tag k="refugee" v="yes"/>
    <tag k="tourism" v="camp_site"/>
  </way>
  <way id="48278392" version="10" timestamp="2011-05-02T06:54:28Z" uid="26348" user="Rodolphe Quiédeville" changeset="8028081">
    <nd ref="613473002"/>
    <nd ref="613473008"/>
    <nd ref="621422611"/>
    <nd ref="613473010"/>
    <nd ref="621422577"/>
    <nd ref="613473012"/>
    <nd ref="621422578"/>
    <nd ref="614036988"/>
    <nd ref="613473014"/>
    <nd ref="613473016"/>
    <nd ref="613473018"/>
    <nd ref="613473020"/>
    <nd ref="621422618"/>
    <nd ref="614036989"/>
    <nd ref="621422617"/>
    <nd ref="613473022"/>
    <nd ref="613473029"/>
    <nd ref="613473031"/>
    <nd ref="613473002"/>
    <tag k="addr:country" v="HT"/>
    <tag k="earthquake:damage" v="spontaneous_camp"/>
    <tag k="id" v="65"/>
    <tag k="name" v="Champs de Mars"/>
    <tag k="refugee" v="yes"/>
    <tag k="tourism" v="camp_site"/>
  </way>
  <way id="48278392" version="11" timestamp="2012-02-28T17:42:51Z" uid="24440" user="jaakkoh" changeset="10820928">
    <nd ref="613473002"/>
    <nd ref="613473008"/>
    <nd ref="621422611"/>
    <nd ref="613473010"/>
    <nd ref="621422577"/>
    <nd ref="613473012"/>
    <nd ref="621422578"/>
    <nd ref="614036988"/>
    <nd ref="613473014"/>
    <nd ref="613473016"/>
    <nd ref="613473018"/>
    <nd ref="613473020"/>
    <nd ref="621422618"/>
    <nd ref="614036989"/>
    <nd ref="621422617"/>
    <nd ref="613473022"/>
    <nd ref="613473029"/>
    <nd ref="613473031"/>
    <nd ref="613473002"/>
    <tag k="addr:country" v="HT"/>
    <tag k="earthquake:damage" v="spontaneous_camp"/>
    <tag k="id" v="65"/>
    <tag k="name" v="Champs de Mars"/>
    <tag k="odbl" v="clean"/>
    <tag k="refugee" v="yes"/>
    <tag k="tourism" v="camp_site"/>
  </way>
  <way id="48278486" version="2" timestamp="2010-01-15T20:03:54Z" uid="23543" user="jkjk" changeset="3626926"/>
  <way id="48278516" version="2" timestamp="2010-01-15T20:03:51Z" uid="23543" user="jkjk" changeset="3626926">
    <nd ref="612989665"/>
    <nd ref="613480639"/>
    <nd ref="613480641"/>
    <nd ref="613480642"/>
    <nd ref="613480644"/>
    <nd ref="613480646"/>
    <nd ref="613480648"/>
    <nd ref="613480649"/>
    <nd ref="613480623"/>
    <nd ref="613480624"/>
    <nd ref="613480626"/>
    <tag k="highway" v="residential"/>
    <tag k="source" v="yahoo"/>
  </way>
  <way id="48278516" version="3" timestamp="2010-01-19T14:44:24Z" uid="8619" user="cetest" changeset="3659326">
    <nd ref="612989665"/>
    <nd ref="613480639"/>
    <nd ref="613480641"/>
    <nd ref="613480642"/>
    <nd ref="613480644"/>
    <nd ref="613480646"/>
    <nd ref="613480648"/>
    <nd ref="613480649"/>
    <nd ref="613480623"/>
    <nd ref="613480624"/>
    <nd ref="616701542"/>
    <nd ref="613480626"/>
    <tag k="highway" v="residential"/>
    <tag k="source" v="yahoo"/>
  </way>
  <way id="48278516" version="4" timestamp="2010-01-23T11:07:49Z" uid="55777" user="marcschneider" changeset="3690035">
    <nd ref="612989665"/>
    <nd ref="613480639"/>
    <nd ref="613480641"/>
    <nd ref="613480642"/>
    <nd ref="613480644"/>
    <nd ref="618601681"/>
    <nd ref="613480646"/>
    <nd ref="613480648"/>
    <nd ref="618601679"/>
    <nd ref="613480649"/>
    <nd ref="613480623"/>
    <nd ref="613480624"/>
    <nd ref="616701542"/>
    <nd ref="613480626"/>
    <tag k="highway" v="residential"/>
    <tag k="source" v="yahoo"/>
  </way>
  <way id="48278516" version="5" timestamp="2010-06-15T21:28:38Z" uid="288072" user="Guensmork" changeset="4995958">
    <nd ref="612989665"/>
    <nd ref="613480639"/>
    <nd ref="613480641"/>
    <nd ref="613480642"/>
    <nd ref="613480644"/>
    <nd ref="618601681"/>
    <nd ref="613480646"/>
    <nd ref="613480648"/>
    <nd ref="618601679"/>
    <nd ref="613480649"/>
    <nd ref="613480623"/>
    <nd ref="613480624"/>
    <nd ref="616701542"/>
    <nd ref="773312104"/>
    <nd ref="613480626"/>
    <tag k="highway" v="residential"/>
    <tag k="source" v="yahoo"/>
  </way>
  <way id="48278598" version="2" timestamp="2010-03-28T11:41:36Z" uid="20587" user="balrog-kun" changeset="4254597">
    <nd ref="72091953"/>
    <nd ref="272531643"/>
    <nd ref="272531644"/>
    <nd ref="272531645"/>
    <nd ref="272531646"/>
    <nd ref="272531647"/>
    <nd ref="272531648"/>
    <nd ref="272531649"/>
    <nd ref="272531650"/>
    <nd ref="613484040"/>
    <nd ref="272531651"/>
    <nd ref="250347452"/>
    <tag k="highway" v="secondary"/>
    <tag k="maxspeed" v="40 mph"/>
    <tag k="name" v="Washington Boulevard"/>
    <tag k="source" v="survey;image;usgs_imagery"/>
    <tag k="source_ref" v="AM909_DSCR9474"/>
  </way>
  <way id="48278601" version="2" timestamp="2010-03-28T11:41:37Z" uid="20587" user="balrog-kun" changeset="4254597">
    <nd ref="273124547"/>
    <nd ref="613483974"/>
    <nd ref="273124589"/>
    <nd ref="613372818"/>
    <nd ref="122770847"/>
    <tag k="highway" v="secondary"/>
    <tag k="name" v="Washington Boulevard"/>
    <tag k="oneway" v="yes"/>
    <tag k="source" v="survey;image;usgs_imagery"/>
    <tag k="source_ref" v="AM909_DSCR9486"/>
  </way>
  <way id="48278602" version="2" timestamp="2010-03-28T11:41:37Z" uid="20587" user="balrog-kun" changeset="4254597">
    <nd ref="273124547"/>
    <nd ref="273124648"/>
    <nd ref="273124299"/>
    <nd ref="123711866"/>
    <nd ref="123696210"/>
    <nd ref="123371465"/>
    <nd ref="123725536"/>
    <nd ref="123780526"/>
    <nd ref="123639601"/>
    <nd ref="122996132"/>
    <nd ref="122993585"/>
    <nd ref="123780529"/>
    <nd ref="123777315"/>
    <nd ref="122931640"/>
    <nd ref="123614155"/>
    <nd ref="122742355"/>
    <nd ref="123533748"/>
    <nd ref="123090474"/>
    <nd ref="123463251"/>
    <nd ref="273177291"/>
    <nd ref="123756391"/>
    <nd ref="123744470"/>
    <nd ref="123071498"/>
    <nd ref="123469780"/>
    <nd ref="122888088"/>
    <nd ref="123016505"/>
    <nd ref="123629856"/>
    <nd ref="604230869"/>
    <nd ref="123661539"/>
    <nd ref="123564059"/>
    <nd ref="273127097"/>
    <nd ref="273178362"/>
    <nd ref="273178363"/>
    <nd ref="273178364"/>
    <nd ref="273178361"/>
    <nd ref="273178365"/>
    <nd ref="273178366"/>
    <nd ref="122786459"/>
    <tag k="alt_name" v="Long Beach Ave West"/>
    <tag k="highway" v="secondary"/>
    <tag k="name" v="Long Beach West Avenue"/>
    <tag k="oneway" v="yes"/>
    <tag k="source" v="survey;image;usgs_imagery;LACDPW;LACA"/>
    <tag k="source_ref" v="AM909_DSCR9494;RS116-045;ABK5129-014"/>
    <tag k="tiger:cfcc" v="A41"/>
    <tag k="tiger:county" v="Los Angeles, CA"/>
  </way>
  <way id="48278605" version="2" timestamp="2010-03-28T11:41:39Z" uid="20587" user="balrog-kun" changeset="4254597">
    <nd ref="250347452"/>
    <nd ref="272531652"/>
    <nd ref="273126272"/>
    <nd ref="273126273"/>
    <nd ref="273126252"/>
    <tag k="highway" v="secondary"/>
    <tag k="maxspeed" v="40 mph"/>
    <tag k="name" v="Washington Boulevard"/>
    <tag k="source" v="survey;image;usgs_imagery"/>
    <tag k="source_ref" v="AM909_DSCR9474"/>
  </way>
  <way id="48278606" version="2" timestamp="2010-03-28T11:41:39Z" uid="20587" user="balrog-kun" changeset="4254597">
    <nd ref="613484080"/>
    <nd ref="613484086"/>
    <nd ref="613484089"/>
    <nd ref="613484091"/>
    <nd ref="613484093"/>
    <nd ref="613484094"/>
    <nd ref="613484096"/>
    <nd ref="613484098"/>
    <nd ref="613484099"/>
    <nd ref="613484087"/>
    <tag k="highway" v="secondary_link"/>
    <tag k="name" v="15th Street South Access Road"/>
    <tag k="oneway" v="yes"/>
  </way>
  <way id="48278607" version="2" timestamp="2010-03-28T11:41:39Z" uid="20587" user="balrog-kun" changeset="4254597">
    <nd ref="613484080"/>
    <nd ref="613372940"/>
    <nd ref="250347449"/>
    <nd ref="16391230"/>
    <tag k="highway" v="secondary"/>
    <tag k="name" v="Santa Fe Avenue"/>
    <tag k="source" v="survey;image;usgs_imagery"/>
    <tag k="source_ref" v="AM909_DSCR9510"/>
  </way>
  <way id="48278608" version="2" timestamp="2010-03-28T11:41:39Z" uid="20587" user="balrog-kun" changeset="4254597">
    <nd ref="613484087"/>
    <nd ref="272531494"/>
    <nd ref="272531495"/>
    <nd ref="16391230"/>
    <tag k="highway" v="secondary"/>
    <tag k="name" v="15th Street"/>
    <tag k="source" v="survey;image;usgs_imagery"/>
    <tag k="source_ref" v="AM909_DSCR9473"/>
  </way>
  <way id="48278609" version="3" timestamp="2010-03-28T11:41:39Z" uid="20587" user="balrog-kun" changeset="4254597">
    <nd ref="16391230"/>
    <nd ref="613372944"/>
    <nd ref="122561133"/>
    <nd ref="122561131"/>
    <nd ref="122561127"/>
    <nd ref="72260006"/>
    <nd ref="16391232"/>
    <nd ref="71986691"/>
    <tag k="highway" v="secondary"/>
    <tag k="maxspeed" v="30 mph"/>
    <tag k="name" v="Santa Fe Avenue"/>
    <tag k="source" v="survey;image;usgs_imagery"/>
    <tag k="source_ref" v="AM909_DSCR9510"/>
  </way>
  <way id="48278709" version="1" timestamp="2010-01-14T13:52:48Z" uid="115477" user="wowik" changeset="3617092">
    <nd ref="613489591"/>
    <nd ref="613489594"/>
    <nd ref="613489597"/>
    <nd ref="613489601"/>
    <nd ref="613489591"/>
  </way>
  <way id="48278709" version="2" timestamp="2010-01-14T13:52:56Z" uid="115477" user="wowik" changeset="3617092">
    <nd ref="613489591"/>
    <nd ref="613489594"/>
    <nd ref="613489597"/>
    <nd ref="613489601"/>
    <nd ref="613489591"/>
    <tag k="leisure" v="playground"/>
  </way>
  <way id="48278714" version="1" timestamp="2010-01-14T13:53:51Z" uid="115477" user="wowik" changeset="3617092">
    <nd ref="613490478"/>
    <nd ref="613490481"/>
    <nd ref="613490483"/>
    <nd ref="613490486"/>
    <nd ref="613490478"/>
  </way>
  <way id="48278714" version="2" timestamp="2010-01-14T13:54:04Z" uid="115477" user="wowik" changeset="3617092">
    <nd ref="613490478"/>
    <nd ref="613490481"/>
    <nd ref="613490483"/>
    <nd ref="613490486"/>
    <nd ref="613490478"/>
    <tag k="leisure" v="pitch"/>
  </way>
  <way id="48278718" version="1" timestamp="2010-01-14T13:54:14Z" uid="115477" user="wowik" changeset="3617092">
    <nd ref="613490761"/>
    <nd ref="613490762"/>
    <nd ref="451688638"/>
  </way>
  <way id="48278718" version="2" timestamp="2010-01-14T13:54:23Z" uid="115477" user="wowik" changeset="3617092">
    <nd ref="613490761"/>
    <nd ref="613490762"/>
    <nd ref="451688638"/>
    <tag k="bicycle" v="yes"/>
    <tag k="foot" v="yes"/>
    <tag k="highway" v="footway"/>
    <tag k="living_street" v="yes"/>
    <tag k="motorcar" v="no"/>
    <tag k="surface" v="paved"/>
  </way>
  <way id="48278718" version="3" timestamp="2010-01-14T13:54:26Z" uid="115477" user="wowik" changeset="3617092">
    <nd ref="451695985"/>
    <nd ref="613490761"/>
    <nd ref="613490762"/>
    <nd ref="451688638"/>
    <tag k="bicycle" v="yes"/>
    <tag k="foot" v="yes"/>
    <tag k="highway" v="footway"/>
    <tag k="living_street" v="yes"/>
    <tag k="motorcar" v="no"/>
    <tag k="surface" v="paved"/>
  </way>
  <way id="48278718" version="4" timestamp="2011-01-28T15:00:39Z" uid="115477" user="wowik" changeset="7113705">
    <nd ref="451695985"/>
    <nd ref="613490761"/>
    <nd ref="613490762"/>
    <nd ref="1124897687"/>
    <tag k="bicycle" v="yes"/>
    <tag k="foot" v="yes"/>
    <tag k="highway" v="footway"/>
    <tag k="living_street" v="yes"/>
    <tag k="motorcar" v="no"/>
    <tag k="surface" v="paved"/>
  </way>
  <way id="48278718" version="5" timestamp="2011-09-11T19:18:27Z" uid="518169" user="kosatov" changeset="9274152">
    <nd ref="451695985"/>
    <nd ref="613490761"/>
    <nd ref="613490762"/>
    <nd ref="1124897687"/>
    <tag k="foot" v="yes"/>
    <tag k="highway" v="footway"/>
    <tag k="living_street" v="yes"/>
    <tag k="motorcar" v="no"/>
    <tag k="surface" v="paved"/>
  </way>
  <way id="48278791" version="1" timestamp="2010-01-14T13:55:43Z" uid="115477" user="wowik" changeset="3617092">
    <nd ref="613492086"/>
    <nd ref="613492088"/>
    <nd ref="613492089"/>
    <nd ref="613492090"/>
    <nd ref="613492086"/>
  </way>
  <way id="48278791" version="2" timestamp="2010-01-14T13:55:51Z" uid="115477" user="wowik" changeset="3617092">
    <nd ref="613492086"/>
    <nd ref="613492088"/>
    <nd ref="613492089"/>
    <nd ref="613492090"/>
    <nd ref="613492086"/>
    <tag k="addr:city" v="Зеленоград"/>
    <tag k="addr:housenumber" v="469с1"/>
    <tag k="addr:street" v="4-й Микрорайон"/>
    <tag k="building" v="yes"/>
    <tag k="is_in" v="Russia"/>
    <tag k="landuse" v="service"/>
  </way>
  <way id="48278791" version="3" timestamp="2010-01-14T13:56:06Z" uid="115477" user="wowik" changeset="3617092">
    <nd ref="613492086"/>
    <nd ref="613492088"/>
    <nd ref="613492089"/>
    <nd ref="613492090"/>
    <nd ref="613492086"/>
    <tag k="addr:city" v="Зеленоград"/>
    <tag k="addr:street" v="4-й Микрорайон"/>
    <tag k="building" v="yes"/>
    <tag k="is_in" v="Russia"/>
    <tag k="landuse" v="service"/>
  </way>
  <way id="48278791" version="4" timestamp="2010-11-08T17:16:34Z" uid="115477" user="wowik" changeset="6322246">
    <nd ref="613492086"/>
    <nd ref="613492088"/>
    <nd ref="613492089"/>
    <nd ref="613492090"/>
    <nd ref="613492086"/>
    <tag k="addr:city" v="Зеленоград"/>
    <tag k="addr:street" v="4-й Микрорайон"/>
    <tag k="building" v="yes"/>
    <tag k="is_in" v="Russia"/>
    <tag k="landuse" v="service"/>
  </way>
  <way id="48278791" version="5" timestamp="2010-11-09T16:05:03Z" uid="115477" user="wowik" changeset="6327211">
    <nd ref="613492086"/>
    <nd ref="613492088"/>
    <nd ref="613492089"/>
    <nd ref="613492090"/>
    <nd ref="613492086"/>
    <tag k="addr:city" v="Зеленоград"/>
    <tag k="addr:housenumber" v="453с2"/>
    <tag k="addr:street" v="4-й Микрорайон"/>
    <tag k="building" v="yes"/>
    <tag k="is_in" v="Russia"/>
    <tag k="landuse" v="service"/>
  </way>
  <way id="48278791" version="6" timestamp="2010-12-20T14:45:33Z" uid="115477" user="wowik" changeset="6716627">
    <nd ref="613492086"/>
    <nd ref="613492088"/>
    <nd ref="613492089"/>
    <nd ref="613492090"/>
    <nd ref="613492086"/>
    <tag k="addr:city" v="Зеленоград"/>
    <tag k="addr:housenumber" v="453с2"/>
    <tag k="addr:street" v="4-й Микрорайон"/>
    <tag k="building" v="yes"/>
    <tag k="building:levels" v="1"/>
    <tag k="is_in" v="Russia"/>
    <tag k="landuse" v="service"/>
  </way>
  <way id="48278791" version="7" timestamp="2011-01-19T16:28:09Z" uid="70696" user="xybot" changeset="7021015">
    <nd ref="613492086"/>
    <nd ref="613492088"/>
    <nd ref="613492089"/>
    <nd ref="613492090"/>
    <nd ref="613492086"/>
    <tag k="addr:city" v="Зеленоград"/>
    <tag k="addr:housenumber" v="453 с2"/>
    <tag k="addr:street" v="4-й Микрорайон"/>
    <tag k="building" v="yes"/>
    <tag k="building:levels" v="1"/>
    <tag k="is_in" v="Russia"/>
    <tag k="landuse" v="service"/>
  </way>
  <way id="48278791" version="8" timestamp="2011-06-07T20:45:52Z" uid="133332" user="AMDmi3" changeset="8374030">
    <nd ref="613492086"/>
    <nd ref="613492088"/>
    <nd ref="613492089"/>
    <nd ref="613492090"/>
    <nd ref="613492086"/>
    <tag k="addr:city" v="Зеленоград"/>
    <tag k="addr:housenumber" v="453 с2"/>
    <tag k="addr:street" v="4-й микрорайон"/>
    <tag k="building" v="yes"/>
    <tag k="building:levels" v="1"/>
    <tag k="is_in" v="Russia"/>
    <tag k="landuse" v="service"/>
  </way>
  <way id="48278791" version="9" timestamp="2011-09-13T10:27:10Z" uid="29320" user="Komяpa" changeset="9288237">
    <nd ref="613492086"/>
    <nd ref="613492088"/>
    <nd ref="613492089"/>
    <nd ref="613492090"/>
    <nd ref="613492086"/>
    <tag k="addr:city" v="Зеленоград"/>
    <tag k="addr:country" v="RU"/>
    <tag k="addr:housenumber" v="453 с2"/>
    <tag k="addr:street" v="4-й микрорайон"/>
    <tag k="building" v="service"/>
    <tag k="building:levels" v="1"/>
  </way>
  <way id="48278791" version="10" timestamp="2011-10-28T10:32:13Z" uid="481934" user="iWowik" changeset="9675276">
    <nd ref="613492086"/>
    <nd ref="613492088"/>
    <nd ref="613492089"/>
    <nd ref="613492090"/>
    <nd ref="613492086"/>
    <tag k="addr:city" v="Зеленоград"/>
    <tag k="addr:country" v="RU"/>
    <tag k="addr:housenumber" v="453 с2"/>
    <tag k="addr:street" v="4-й Микрорайон"/>
    <tag k="building" v="service"/>
    <tag k="building:levels" v="1"/>
  </way>
  <way id="48278791" version="11" timestamp="2011-11-14T20:33:27Z" uid="133332" user="AMDmi3" changeset="9828527">
    <nd ref="613492086"/>
    <nd ref="613492088"/>
    <nd ref="613492089"/>
    <nd ref="613492090"/>
    <nd ref="613492086"/>
    <tag k="addr:city" v="Зеленоград"/>
    <tag k="addr:country" v="RU"/>
    <tag k="addr:housenumber" v="453 с2"/>
    <tag k="addr:street" v="4-й микрорайон"/>
    <tag k="building" v="service"/>
    <tag k="building:levels" v="1"/>
  </way>
  <way id="48278791" version="12" timestamp="2012-03-27T11:43:56Z" uid="481934" user="iWowik" changeset="11115472">
    <nd ref="613492086"/>
    <nd ref="613492088"/>
    <nd ref="613492089"/>
    <nd ref="613492090"/>
    <nd ref="613492086"/>
    <tag k="addr:city" v="Зеленоград"/>
    <tag k="addr:country" v="RU"/>
    <tag k="addr:housenumber" v="453 с2"/>
    <tag k="addr:region" v="Москва"/>
    <tag k="addr:street" v="4-й микрорайон"/>
    <tag k="building" v="service"/>
    <tag k="building:levels" v="1"/>
  </way>
  <way id="48278810" version="1" timestamp="2010-01-14T13:56:28Z" uid="115477" user="wowik" changeset="3617092">
    <nd ref="613492735"/>
    <nd ref="613492739"/>
    <nd ref="613492741"/>
    <nd ref="613492745"/>
    <nd ref="613492735"/>
  </way>
  <way id="48278810" version="2" timestamp="2010-01-14T13:56:39Z" uid="115477" user="wowik" changeset="3617092">
    <nd ref="613492735"/>
    <nd ref="613492739"/>
    <nd ref="613492741"/>
    <nd ref="613492745"/>
    <nd ref="613492735"/>
    <tag k="leisure" v="playground"/>
  </way>
  <way id="48278938" version="3" timestamp="2010-01-30T18:00:49Z" uid="171838" user="argrath" changeset="3753295">
    <nd ref="414555471"/>
    <nd ref="613497529"/>
    <nd ref="613497532"/>
    <nd ref="613497535"/>
    <nd ref="613497522"/>
    <nd ref="613497527"/>
    <nd ref="623439967"/>
    <nd ref="613497537"/>
    <nd ref="623439990"/>
    <nd ref="613497539"/>
    <nd ref="623440054"/>
    <nd ref="623440079"/>
    <nd ref="623440098"/>
    <nd ref="613497541"/>
    <nd ref="623439900"/>
    <nd ref="623439869"/>
    <nd ref="623439883"/>
    <nd ref="613497543"/>
    <nd ref="623439861"/>
    <nd ref="613498280"/>
    <nd ref="623439847"/>
    <nd ref="623439840"/>
    <nd ref="623440193"/>
    <nd ref="623439830"/>
    <nd ref="623440216"/>
    <nd ref="623440235"/>
    <nd ref="623439817"/>
    <nd ref="623439808"/>
    <nd ref="623439800"/>
    <nd ref="623439787"/>
    <nd ref="623439776"/>
    <nd ref="623439769"/>
    <nd ref="623439753"/>
    <nd ref="623439744"/>
    <nd ref="613497546"/>
    <nd ref="414556663"/>
    <tag k="admin_level" v="4"/>
    <tag k="boundary" v="administrative"/>
  </way>
  <way id="48278938" version="4" timestamp="2010-02-04T15:31:30Z" uid="171838" user="argrath" changeset="3791094">
    <nd ref="414555471"/>
    <nd ref="613497529"/>
    <nd ref="613497532"/>
    <nd ref="613497535"/>
    <nd ref="613497522"/>
    <nd ref="613497527"/>
    <nd ref="623439967"/>
    <nd ref="613497537"/>
    <nd ref="623439990"/>
    <nd ref="613497539"/>
    <nd ref="623440054"/>
    <nd ref="623440079"/>
    <nd ref="623440098"/>
    <nd ref="613497541"/>
    <nd ref="623439900"/>
    <nd ref="623439869"/>
    <nd ref="623439883"/>
    <nd ref="613497543"/>
    <nd ref="623439861"/>
    <nd ref="613498280"/>
    <nd ref="623439847"/>
    <nd ref="623439840"/>
    <nd ref="623440193"/>
    <nd ref="623439830"/>
    <nd ref="623440216"/>
    <nd ref="623440235"/>
    <nd ref="623439817"/>
    <nd ref="623439808"/>
    <nd ref="623439800"/>
    <nd ref="623439787"/>
    <nd ref="623439776"/>
    <nd ref="623439769"/>
    <nd ref="623439753"/>
    <nd ref="623439744"/>
    <nd ref="613497546"/>
    <nd ref="414556663"/>
    <tag k="admin_level" v="2"/>
    <tag k="border_type" v="territorial"/>
    <tag k="boundary" v="administrative"/>
    <tag k="maritime" v="yes"/>
  </way>
  <way id="48278938" version="5" timestamp="2010-05-31T17:11:36Z" uid="12494" user="Aleksandr Dezhin" changeset="4865633">
    <nd ref="414555471"/>
    <nd ref="613497529"/>
    <nd ref="613497532"/>
    <nd ref="613497535"/>
    <nd ref="613497522"/>
    <nd ref="613497527"/>
    <nd ref="623439967"/>
    <nd ref="613497537"/>
    <nd ref="623439990"/>
    <nd ref="613497539"/>
    <nd ref="623440054"/>
    <nd ref="623440079"/>
    <nd ref="623440098"/>
    <nd ref="613497541"/>
    <nd ref="623439900"/>
    <nd ref="623439869"/>
    <nd ref="623439883"/>
    <nd ref="613497543"/>
    <nd ref="623439861"/>
    <nd ref="613498280"/>
    <nd ref="623439847"/>
    <nd ref="623439840"/>
    <nd ref="623440193"/>
    <nd ref="623439830"/>
    <nd ref="623440216"/>
    <nd ref="623440235"/>
    <nd ref="623439817"/>
    <nd ref="623439808"/>
    <nd ref="760505367"/>
    <tag k="admin_level" v="2"/>
    <tag k="border_type" v="territorial"/>
    <tag k="boundary" v="administrative"/>
    <tag k="maritime" v="yes"/>
  </way>
  <way id="48278938" version="6" timestamp="2011-01-21T22:30:22Z" uid="12494" user="Aleksandr Dezhin" changeset="7045270"/>
  <way id="48278939" version="2" timestamp="2010-01-30T18:00:06Z" uid="171838" user="argrath" changeset="3753295">
    <nd ref="414555471"/>
    <nd ref="623439298"/>
    <nd ref="414555470"/>
    <nd ref="414555469"/>
    <nd ref="414555468"/>
    <nd ref="414555467"/>
    <nd ref="414555466"/>
    <nd ref="414555465"/>
    <nd ref="414551252"/>
    <nd ref="414551253"/>
    <nd ref="414551254"/>
    <nd ref="414127091"/>
    <nd ref="414127090"/>
    <nd ref="414127089"/>
    <nd ref="414127088"/>
    <nd ref="414127087"/>
    <nd ref="414127086"/>
    <nd ref="414127085"/>
    <nd ref="414127084"/>
    <nd ref="414127083"/>
    <nd ref="414127082"/>
    <nd ref="414127081"/>
    <nd ref="414127080"/>
    <nd ref="414127079"/>
    <nd ref="414127078"/>
    <nd ref="414127076"/>
    <nd ref="414127075"/>
    <nd ref="414127074"/>
    <nd ref="414127073"/>
    <nd ref="414127072"/>
    <nd ref="414127071"/>
    <nd ref="414127070"/>
    <nd ref="414127069"/>
    <nd ref="414127068"/>
    <nd ref="414127067"/>
    <nd ref="414127066"/>
    <nd ref="414127065"/>
    <nd ref="414127064"/>
    <nd ref="414127063"/>
    <nd ref="414127062"/>
    <nd ref="414127061"/>
    <nd ref="414127060"/>
    <nd ref="414127059"/>
    <nd ref="414127057"/>
    <nd ref="414127056"/>
    <nd ref="414127055"/>
    <nd ref="414127054"/>
    <nd ref="414127053"/>
    <nd ref="414127052"/>
    <nd ref="414127051"/>
    <nd ref="414127050"/>
    <nd ref="414127049"/>
    <nd ref="414127048"/>
    <nd ref="414127047"/>
    <nd ref="414127046"/>
    <nd ref="414127045"/>
    <nd ref="414127044"/>
    <nd ref="414127043"/>
    <nd ref="414127042"/>
    <nd ref="414127041"/>
    <nd ref="414127040"/>
    <nd ref="414127039"/>
    <nd ref="414127038"/>
    <nd ref="414127037"/>
    <nd ref="414127035"/>
    <nd ref="414127034"/>
    <nd ref="414127033"/>
    <nd ref="414127032"/>
    <nd ref="414127031"/>
    <nd ref="414127030"/>
    <nd ref="414127029"/>
    <nd ref="414127028"/>
    <nd ref="414127027"/>
    <nd ref="414127026"/>
    <nd ref="414127025"/>
    <nd ref="414127024"/>
    <nd ref="414127023"/>
    <nd ref="414127022"/>
    <nd ref="414127021"/>
    <nd ref="414127020"/>
    <nd ref="414127019"/>
    <nd ref="414127018"/>
    <nd ref="414127016"/>
    <nd ref="414127015"/>
    <nd ref="414127014"/>
    <nd ref="414127013"/>
    <nd ref="414127012"/>
    <nd ref="414127011"/>
    <nd ref="414127010"/>
    <nd ref="414127009"/>
    <nd ref="414127008"/>
    <nd ref="414127007"/>
    <nd ref="414127006"/>
    <nd ref="414127005"/>
    <nd ref="414127004"/>
    <nd ref="414127003"/>
    <nd ref="414127002"/>
    <nd ref="414127001"/>
    <nd ref="414127000"/>
    <nd ref="414126999"/>
    <nd ref="414126998"/>
    <nd ref="414126997"/>
    <nd ref="414126996"/>
    <nd ref="414126995"/>
    <nd ref="414126994"/>
    <nd ref="414126993"/>
    <nd ref="414126992"/>
    <nd ref="414126991"/>
    <nd ref="414126990"/>
    <nd ref="414126989"/>
    <nd ref="414126987"/>
    <nd ref="414126986"/>
    <nd ref="414126985"/>
    <nd ref="414126984"/>
    <nd ref="414126983"/>
    <nd ref="414126982"/>
    <nd ref="414126981"/>
    <nd ref="414126980"/>
    <nd ref="414126979"/>
    <nd ref="414126978"/>
    <nd ref="414126977"/>
    <nd ref="414126976"/>
    <nd ref="414126975"/>
    <nd ref="414126974"/>
    <nd ref="414126973"/>
    <nd ref="414126972"/>
    <nd ref="414126971"/>
    <nd ref="414126970"/>
    <nd ref="414126969"/>
    <nd ref="414126968"/>
    <nd ref="414126967"/>
    <nd ref="414126965"/>
    <nd ref="414126964"/>
    <nd ref="414126963"/>
    <nd ref="414126962"/>
    <nd ref="414126961"/>
    <nd ref="414126960"/>
    <nd ref="414126959"/>
    <nd ref="414126958"/>
    <nd ref="414126957"/>
    <nd ref="414126956"/>
    <nd ref="414126955"/>
    <nd ref="414126953"/>
    <nd ref="414126952"/>
    <nd ref="414126951"/>
    <nd ref="414126950"/>
    <nd ref="414126949"/>
    <nd ref="414126948"/>
    <nd ref="414126947"/>
    <nd ref="414126946"/>
    <nd ref="414126945"/>
    <nd ref="414126944"/>
    <nd ref="414126943"/>
    <nd ref="414126942"/>
    <nd ref="414126941"/>
    <nd ref="414126940"/>
    <nd ref="414126939"/>
    <nd ref="414126938"/>
    <nd ref="414126937"/>
    <nd ref="414126936"/>
    <nd ref="414126935"/>
    <nd ref="414126934"/>
    <nd ref="414126933"/>
    <nd ref="414126932"/>
    <nd ref="414126930"/>
    <nd ref="414126929"/>
    <nd ref="414126928"/>
    <nd ref="414126927"/>
    <nd ref="414126926"/>
    <nd ref="414126925"/>
    <nd ref="414126924"/>
    <nd ref="414126923"/>
    <nd ref="414126922"/>
    <nd ref="414126921"/>
    <nd ref="414126920"/>
    <nd ref="414126919"/>
    <nd ref="414126918"/>
    <nd ref="414126917"/>
    <nd ref="414126916"/>
    <nd ref="414126915"/>
    <nd ref="414126914"/>
    <tag k="admin_level" v="4"/>
    <tag k="boundary" v="administrative"/>
    <tag k="left:krai" v="Khabarovsk Krai"/>
    <tag k="right:oblast" v="Magadan Oblast"/>
    <tag k="source" v="maplibrary.org"/>
  </way>
  <way id="48278939" version="3" timestamp="2010-05-31T17:12:05Z" uid="12494" user="Aleksandr Dezhin" changeset="4865633"/>
</osm>
