<?xml version='1.0' encoding='UTF-8'?>
<osm version="0.6" generator="libosmium/2.20.0">
  <way id="48417179" version="4" timestamp="2010-07-06T17:24:34Z" uid="74617" user="JohnSmith" changeset="5152225">
    <nd ref="614943557"/>
    <nd ref="614944437"/>
    <nd ref="442546714"/>
    <nd ref="614944439"/>
    <nd ref="614944472"/>
    <nd ref="614944473"/>
    <nd ref="614944474"/>
    <nd ref="39701748"/>
    <tag k="highway" v="residential"/>
    <tag k="maxspeed" v="50"/>
    <tag k="maxspeed:source" v="default residential speed limit in Australia"/>
    <tag k="name" v="Hobgen Street"/>
    <tag k="oneway" v="yes"/>
    <tag k="source" v="survey"/>
  </way>
  <way id="48417179" version="5" timestamp="2012-01-19T21:57:47Z" uid="147510" user="woodpeck_fixbot" changeset="10440306">
    <nd ref="614943557"/>
    <nd ref="614944437"/>
    <nd ref="442546714"/>
    <nd ref="614944439"/>
    <nd ref="614944472"/>
    <nd ref="614944473"/>
    <nd ref="614944474"/>
    <nd ref="39701748"/>
    <tag k="highway" v="residential"/>
    <tag k="name" v="Hobgen Street"/>
    <tag k="oneway" v="yes"/>
    <tag k="source" v="survey"/>
  </way>
  <way id="48417606" version="6" timestamp="2011-01-25T13:39:55Z" uid="115477" user="wowik" changeset="7083719">
    <nd ref="614946608"/>
    <nd ref="614946611"/>
    <nd ref="614946613"/>
    <nd ref="1119881334"/>
    <nd ref="1119881158"/>
    <nd ref="1119881245"/>
    <nd ref="1119881162"/>
    <nd ref="614946615"/>
    <nd ref="614946618"/>
    <nd ref="614946621"/>
    <nd ref="614946624"/>
    <nd ref="614946627"/>
    <nd ref="614946630"/>
    <nd ref="614946632"/>
    <nd ref="614946634"/>
    <nd ref="614946637"/>
    <nd ref="614946639"/>
    <nd ref="614946642"/>
    <nd ref="614946643"/>
    <nd ref="614946644"/>
    <nd ref="614946608"/>
    <tag k="addr:city" v="Москва"/>
    <tag k="addr:country" v="RU"/>
    <tag k="addr:housenumber" v="8 к2"/>
    <tag k="addr:street" v="улица Героев Панфиловцев"/>
    <tag k="amenity" v="kindergarten"/>
    <tag k="building" v="yes"/>
    <tag k="cladr:code" v="77000000000107300"/>
    <tag k="name" v="Детский сад №855"/>
  </way>
</osm>
