<?xml version='1.0' encoding='UTF-8'?>
<osm version="0.6" generator="libosmium/2.20.0">
  <way id="48507135" version="9" timestamp="2010-03-28T11:42:38Z" uid="20587" user="balrog-kun" changeset="4254597">
    <nd ref="616299906"/>
    <nd ref="616299743"/>
    <nd ref="616299745"/>
    <nd ref="616299746"/>
    <nd ref="616299747"/>
    <nd ref="616299748"/>
    <nd ref="616299750"/>
    <nd ref="616299751"/>
    <nd ref="616300210"/>
    <nd ref="616300211"/>
    <nd ref="616300213"/>
    <nd ref="616300214"/>
    <nd ref="616300215"/>
    <nd ref="616300216"/>
    <nd ref="616300217"/>
    <nd ref="616300218"/>
    <nd ref="616300219"/>
    <nd ref="616300220"/>
    <nd ref="616300222"/>
    <nd ref="616300223"/>
    <nd ref="616300224"/>
    <nd ref="616300225"/>
    <nd ref="616300226"/>
    <nd ref="616300227"/>
    <nd ref="616300377"/>
    <nd ref="616300379"/>
    <nd ref="616300643"/>
    <nd ref="616300644"/>
    <nd ref="616300646"/>
    <nd ref="616300647"/>
    <nd ref="616300648"/>
    <nd ref="616300649"/>
    <nd ref="616300650"/>
    <nd ref="616300654"/>
    <nd ref="616300659"/>
    <nd ref="616301268"/>
    <nd ref="616301271"/>
    <nd ref="616301274"/>
    <nd ref="616301278"/>
    <nd ref="616301281"/>
    <nd ref="616296632"/>
    <nd ref="616301284"/>
    <nd ref="616301286"/>
    <nd ref="616301288"/>
    <nd ref="616302022"/>
    <nd ref="616302023"/>
    <nd ref="616302024"/>
    <nd ref="616302025"/>
    <nd ref="616302026"/>
    <nd ref="616302027"/>
    <nd ref="616302028"/>
    <nd ref="616302029"/>
    <nd ref="616302031"/>
    <nd ref="616302049"/>
    <nd ref="123303264"/>
    <tag k="highway" v="primary_link"/>
    <tag k="name" v="South Brand Boulevard"/>
    <tag k="oneway" v="yes"/>
    <tag k="source" v="Yahoo"/>
  </way>
  <way id="48507135" version="10" timestamp="2010-09-15T14:26:12Z" uid="82317" user="AM909" changeset="5787691">
    <nd ref="616299906"/>
    <nd ref="616299743"/>
    <nd ref="616299745"/>
    <nd ref="616299746"/>
    <nd ref="616299747"/>
    <nd ref="616299748"/>
    <nd ref="616299750"/>
    <nd ref="616299751"/>
    <nd ref="616300210"/>
    <nd ref="616300211"/>
    <nd ref="616300213"/>
    <nd ref="616300214"/>
    <nd ref="616300215"/>
    <nd ref="616300216"/>
    <nd ref="616300217"/>
    <nd ref="616300218"/>
    <nd ref="616300219"/>
    <nd ref="616300220"/>
    <nd ref="616300222"/>
    <nd ref="616300223"/>
    <nd ref="616300224"/>
    <nd ref="616300225"/>
    <nd ref="616300226"/>
    <nd ref="616300227"/>
    <nd ref="616300377"/>
    <nd ref="616300379"/>
    <nd ref="616300643"/>
    <nd ref="616300644"/>
    <nd ref="616300646"/>
    <nd ref="616300647"/>
    <nd ref="616300648"/>
    <nd ref="616300649"/>
    <nd ref="616300650"/>
    <nd ref="616300654"/>
    <nd ref="616300659"/>
    <nd ref="616301268"/>
    <nd ref="616301271"/>
    <nd ref="616301274"/>
    <nd ref="616301278"/>
    <nd ref="616301281"/>
    <nd ref="616296632"/>
    <nd ref="616301284"/>
    <nd ref="616301286"/>
    <nd ref="616301288"/>
    <nd ref="616302022"/>
    <nd ref="616302023"/>
    <nd ref="616302024"/>
    <nd ref="616302025"/>
    <nd ref="616302026"/>
    <nd ref="616302027"/>
    <nd ref="616302028"/>
    <nd ref="616302029"/>
    <nd ref="616302031"/>
    <nd ref="616302049"/>
    <nd ref="123303264"/>
    <tag k="highway" v="primary"/>
    <tag k="name" v="South Brand Boulevard"/>
    <tag k="oneway" v="yes"/>
    <tag k="source" v="Yahoo"/>
  </way>
  <way id="48507514" version="4" timestamp="2010-03-28T11:42:38Z" uid="20587" user="balrog-kun" changeset="4254597">
    <nd ref="616303638"/>
    <nd ref="616305301"/>
    <nd ref="616305310"/>
    <nd ref="616305318"/>
    <nd ref="616305322"/>
    <nd ref="616305326"/>
    <nd ref="616305331"/>
    <tag k="highway" v="secondary_link"/>
    <tag k="name" v="San Fernando Mission Boulevard"/>
    <tag k="oneway" v="yes"/>
    <tag k="source" v="Yahoo"/>
  </way>
  <way id="48507519" version="3" timestamp="2010-04-03T16:13:18Z" uid="20587" user="balrog-kun" changeset="4313011">
    <nd ref="616297670"/>
    <nd ref="616305365"/>
    <tag k="construction" v="trunk"/>
    <tag k="highway" v="construction"/>
    <tag k="lanes" v="2"/>
    <tag k="name" v="AZ Highway 303"/>
    <tag k="oneway" v="yes"/>
    <tag k="ref" v="303"/>
  </way>
  <way id="48507519" version="4" timestamp="2011-03-04T06:10:25Z" uid="292665" user="Dr Kludge" changeset="7451884">
    <nd ref="616297670"/>
    <nd ref="1185558075"/>
    <nd ref="1185557997"/>
    <tag k="construction" v="trunk"/>
    <tag k="highway" v="construction"/>
    <tag k="lanes" v="2"/>
    <tag k="name" v="AZ Highway 303"/>
    <tag k="oneway" v="yes"/>
    <tag k="ref" v="303"/>
  </way>
  <way id="48507519" version="5" timestamp="2011-03-05T03:20:19Z" uid="292665" user="Dr Kludge" changeset="7459861">
    <nd ref="616297670"/>
    <nd ref="1185558075"/>
    <nd ref="1185557997"/>
    <tag k="highway" v="motorway"/>
    <tag k="lanes" v="2"/>
    <tag k="name" v="AZ Loop 303"/>
    <tag k="oneway" v="yes"/>
    <tag k="ref" v="AZ 303"/>
  </way>
  <way id="48507519" version="6" timestamp="2011-03-05T03:36:38Z" uid="292665" user="Dr Kludge" changeset="7459885">
    <nd ref="616297670"/>
    <nd ref="1185558075"/>
    <nd ref="1185557997"/>
    <tag k="highway" v="motorway"/>
    <tag k="lanes" v="2"/>
    <tag k="name" v="Estrella Freeway"/>
    <tag k="oneway" v="yes"/>
    <tag k="ref" v="AZ 303"/>
  </way>
  <way id="48507519" version="7" timestamp="2011-03-05T04:03:36Z" uid="292665" user="Dr Kludge" changeset="7459932">
    <nd ref="616297670"/>
    <nd ref="1186804984"/>
    <nd ref="1185558075"/>
    <nd ref="1185557997"/>
    <tag k="highway" v="motorway"/>
    <tag k="lanes" v="2"/>
    <tag k="name" v="Estrella Freeway"/>
    <tag k="oneway" v="yes"/>
    <tag k="ref" v="AZ 303"/>
  </way>
  <way id="48507519" version="8" timestamp="2011-03-14T07:49:30Z" uid="207745" user="NE2" changeset="7553490">
    <nd ref="616297670"/>
    <nd ref="1186804984"/>
    <nd ref="1185558075"/>
    <nd ref="1185557997"/>
    <tag k="construction" v="motorway"/>
    <tag k="highway" v="construction"/>
    <tag k="lanes" v="2"/>
    <tag k="name" v="Estrella Freeway"/>
    <tag k="oneway" v="yes"/>
    <tag k="ref" v="AZ 303"/>
  </way>
  <way id="48507519" version="9" timestamp="2011-05-07T12:31:55Z" uid="292665" user="Dr Kludge" changeset="8072977">
    <nd ref="616297670"/>
    <nd ref="1186804984"/>
    <nd ref="1185558075"/>
    <nd ref="1185557997"/>
    <tag k="highway" v="motorway"/>
    <tag k="lanes" v="2"/>
    <tag k="name" v="Estrella Freeway"/>
    <tag k="oneway" v="yes"/>
    <tag k="ref" v="AZ 303"/>
  </way>
  <way id="48507519" version="10" timestamp="2011-05-07T18:51:46Z" uid="292665" user="Dr Kludge" changeset="8075940">
    <nd ref="616297670"/>
    <nd ref="1186804984"/>
    <nd ref="1185558075"/>
    <nd ref="1185557997"/>
    <tag k="highway" v="motorway"/>
    <tag k="lanes" v="2"/>
    <tag k="name" v="Bob Stump Memorial Parkway"/>
    <tag k="oneway" v="yes"/>
    <tag k="ref" v="AZ 303"/>
  </way>
  <way id="48507519" version="11" timestamp="2011-10-14T13:20:05Z" uid="207745" user="NE2" changeset="9555438">
    <nd ref="616297670"/>
    <nd ref="1186804984"/>
    <nd ref="1185558075"/>
    <nd ref="1185557997"/>
    <tag k="FIXME" v="verify bicycle=yes"/>
    <tag k="bicycle" v="yes"/>
    <tag k="highway" v="motorway"/>
    <tag k="lanes" v="2"/>
    <tag k="name" v="Bob Stump Memorial Parkway"/>
    <tag k="oneway" v="yes"/>
    <tag k="ref" v="AZ 303"/>
  </way>
  <way id="48507519" version="12" timestamp="2012-02-08T17:00:22Z" uid="92286" user="Paul Johnson" changeset="10626345">
    <nd ref="616297670"/>
    <nd ref="1186804984"/>
    <nd ref="1185558075"/>
    <nd ref="1185557997"/>
    <tag k="FIXME" v="verify bicycle=yes"/>
    <tag k="bicycle" v="yes"/>
    <tag k="highway" v="trunk"/>
    <tag k="lanes" v="2"/>
    <tag k="name" v="Bob Stump Memorial Parkway"/>
    <tag k="oneway" v="yes"/>
    <tag k="ref" v="AZ 303"/>
  </way>
  <way id="48507520" version="3" timestamp="2010-04-03T16:13:19Z" uid="20587" user="balrog-kun" changeset="4313011">
    <nd ref="447887235"/>
    <nd ref="616297670"/>
    <tag k="bridge" v="yes"/>
    <tag k="construction" v="trunk"/>
    <tag k="highway" v="construction"/>
    <tag k="lanes" v="2"/>
    <tag k="name" v="AZ Highway 303"/>
    <tag k="oneway" v="yes"/>
    <tag k="ref" v="303"/>
  </way>
  <way id="48507520" version="4" timestamp="2011-03-05T03:20:22Z" uid="292665" user="Dr Kludge" changeset="7459861">
    <nd ref="447887235"/>
    <nd ref="616297670"/>
    <tag k="bridge" v="yes"/>
    <tag k="highway" v="motorway"/>
    <tag k="lanes" v="2"/>
    <tag k="name" v="AZ Loop 303"/>
    <tag k="oneway" v="yes"/>
    <tag k="ref" v="AZ 303"/>
  </way>
  <way id="48507520" version="5" timestamp="2011-03-05T03:36:34Z" uid="292665" user="Dr Kludge" changeset="7459885">
    <nd ref="447887235"/>
    <nd ref="616297670"/>
    <tag k="bridge" v="yes"/>
    <tag k="highway" v="motorway"/>
    <tag k="lanes" v="2"/>
    <tag k="name" v="Estrella Freeway"/>
    <tag k="oneway" v="yes"/>
    <tag k="ref" v="AZ 303"/>
  </way>
  <way id="48507520" version="6" timestamp="2011-03-14T07:49:37Z" uid="207745" user="NE2" changeset="7553490">
    <nd ref="447887235"/>
    <nd ref="616297670"/>
    <tag k="bridge" v="yes"/>
    <tag k="construction" v="motorway"/>
    <tag k="highway" v="construction"/>
    <tag k="lanes" v="2"/>
    <tag k="name" v="Estrella Freeway"/>
    <tag k="oneway" v="yes"/>
    <tag k="ref" v="AZ 303"/>
  </way>
  <way id="48507520" version="7" timestamp="2011-05-07T12:31:55Z" uid="292665" user="Dr Kludge" changeset="8072977">
    <nd ref="447887235"/>
    <nd ref="616297670"/>
    <tag k="bridge" v="yes"/>
    <tag k="highway" v="motorway"/>
    <tag k="lanes" v="2"/>
    <tag k="layer" v="1"/>
    <tag k="name" v="Estrella Freeway"/>
    <tag k="oneway" v="yes"/>
    <tag k="ref" v="AZ 303"/>
  </way>
  <way id="48507520" version="8" timestamp="2011-05-07T18:51:47Z" uid="292665" user="Dr Kludge" changeset="8075940">
    <nd ref="447887235"/>
    <nd ref="616297670"/>
    <tag k="bridge" v="yes"/>
    <tag k="highway" v="motorway"/>
    <tag k="lanes" v="2"/>
    <tag k="layer" v="1"/>
    <tag k="name" v="Bob Stump Memorial Parkway"/>
    <tag k="oneway" v="yes"/>
    <tag k="ref" v="AZ 303"/>
  </way>
  <way id="48507520" version="9" timestamp="2011-10-14T13:19:53Z" uid="207745" user="NE2" changeset="9555438">
    <nd ref="447887235"/>
    <nd ref="616297670"/>
    <tag k="FIXME" v="verify bicycle=yes"/>
    <tag k="bicycle" v="yes"/>
    <tag k="bridge" v="yes"/>
    <tag k="highway" v="motorway"/>
    <tag k="lanes" v="2"/>
    <tag k="layer" v="1"/>
    <tag k="name" v="Bob Stump Memorial Parkway"/>
    <tag k="oneway" v="yes"/>
    <tag k="ref" v="AZ 303"/>
  </way>
  <way id="48507520" version="10" timestamp="2012-02-08T17:00:11Z" uid="92286" user="Paul Johnson" changeset="10626345">
    <nd ref="447887235"/>
    <nd ref="616297670"/>
    <tag k="FIXME" v="verify bicycle=yes"/>
    <tag k="bicycle" v="yes"/>
    <tag k="bridge" v="yes"/>
    <tag k="highway" v="trunk"/>
    <tag k="lanes" v="2"/>
    <tag k="layer" v="1"/>
    <tag k="name" v="Bob Stump Memorial Parkway"/>
    <tag k="oneway" v="yes"/>
    <tag k="ref" v="AZ 303"/>
  </way>
  <way id="48507521" version="3" timestamp="2010-04-03T16:13:19Z" uid="20587" user="balrog-kun" changeset="4313011">
    <nd ref="616305470"/>
    <nd ref="616305475"/>
    <tag k="bridge" v="yes"/>
    <tag k="construction" v="trunk"/>
    <tag k="highway" v="construction"/>
    <tag k="lanes" v="2"/>
    <tag k="name" v="AZ Highway 303"/>
    <tag k="oneway" v="yes"/>
    <tag k="ref" v="303"/>
  </way>
  <way id="48507521" version="4" timestamp="2011-03-05T03:20:22Z" uid="292665" user="Dr Kludge" changeset="7459861">
    <nd ref="616305470"/>
    <nd ref="616305475"/>
    <tag k="bridge" v="yes"/>
    <tag k="highway" v="motorway"/>
    <tag k="lanes" v="2"/>
    <tag k="name" v="AZ Loop 303"/>
    <tag k="oneway" v="yes"/>
    <tag k="ref" v="AZ 303"/>
  </way>
  <way id="48507521" version="5" timestamp="2011-03-05T03:36:34Z" uid="292665" user="Dr Kludge" changeset="7459885">
    <nd ref="616305470"/>
    <nd ref="616305475"/>
    <tag k="bridge" v="yes"/>
    <tag k="highway" v="motorway"/>
    <tag k="lanes" v="2"/>
    <tag k="name" v="Estrella Freeway"/>
    <tag k="oneway" v="yes"/>
    <tag k="ref" v="AZ 303"/>
  </way>
  <way id="48507521" version="6" timestamp="2011-03-14T07:49:24Z" uid="207745" user="NE2" changeset="7553490">
    <nd ref="616305470"/>
    <nd ref="616305475"/>
    <tag k="bridge" v="yes"/>
    <tag k="construction" v="motorway"/>
    <tag k="highway" v="construction"/>
    <tag k="lanes" v="2"/>
    <tag k="name" v="Estrella Freeway"/>
    <tag k="oneway" v="yes"/>
    <tag k="ref" v="AZ 303"/>
  </way>
  <way id="48507521" version="7" timestamp="2011-05-07T12:31:55Z" uid="292665" user="Dr Kludge" changeset="8072977">
    <nd ref="616305470"/>
    <nd ref="616305475"/>
    <tag k="bridge" v="yes"/>
    <tag k="highway" v="motorway"/>
    <tag k="lanes" v="2"/>
    <tag k="layer" v="1"/>
    <tag k="name" v="Estrella Freeway"/>
    <tag k="oneway" v="yes"/>
    <tag k="ref" v="AZ 303"/>
  </way>
  <way id="48507521" version="8" timestamp="2011-05-07T18:51:47Z" uid="292665" user="Dr Kludge" changeset="8075940">
    <nd ref="616305470"/>
    <nd ref="616305475"/>
    <tag k="bridge" v="yes"/>
    <tag k="highway" v="motorway"/>
    <tag k="lanes" v="2"/>
    <tag k="layer" v="1"/>
    <tag k="name" v="Bob Stump Memorial Parkway"/>
    <tag k="oneway" v="yes"/>
    <tag k="ref" v="AZ 303"/>
  </way>
  <way id="48507521" version="9" timestamp="2011-10-14T13:19:55Z" uid="207745" user="NE2" changeset="9555438">
    <nd ref="616305470"/>
    <nd ref="616305475"/>
    <tag k="FIXME" v="verify bicycle=yes"/>
    <tag k="bicycle" v="yes"/>
    <tag k="bridge" v="yes"/>
    <tag k="highway" v="motorway"/>
    <tag k="lanes" v="2"/>
    <tag k="layer" v="1"/>
    <tag k="name" v="Bob Stump Memorial Parkway"/>
    <tag k="oneway" v="yes"/>
    <tag k="ref" v="AZ 303"/>
  </way>
  <way id="48507521" version="10" timestamp="2012-02-08T17:00:13Z" uid="92286" user="Paul Johnson" changeset="10626345">
    <nd ref="616305470"/>
    <nd ref="616305475"/>
    <tag k="FIXME" v="verify bicycle=yes"/>
    <tag k="bicycle" v="yes"/>
    <tag k="bridge" v="yes"/>
    <tag k="highway" v="trunk"/>
    <tag k="lanes" v="2"/>
    <tag k="layer" v="1"/>
    <tag k="name" v="Bob Stump Memorial Parkway"/>
    <tag k="oneway" v="yes"/>
    <tag k="ref" v="AZ 303"/>
  </way>
  <way id="48507534" version="3" timestamp="2010-04-03T16:13:19Z" uid="20587" user="balrog-kun" changeset="4313011">
    <nd ref="616305365"/>
    <nd ref="616305470"/>
    <tag k="construction" v="trunk"/>
    <tag k="highway" v="construction"/>
    <tag k="lanes" v="2"/>
    <tag k="name" v="AZ Highway 303"/>
    <tag k="oneway" v="yes"/>
    <tag k="ref" v="303"/>
  </way>
  <way id="48507534" version="4" timestamp="2011-03-04T06:10:25Z" uid="292665" user="Dr Kludge" changeset="7451884">
    <nd ref="616305365"/>
    <nd ref="1185558096"/>
    <tag k="construction" v="trunk"/>
    <tag k="highway" v="construction"/>
    <tag k="lanes" v="2"/>
    <tag k="name" v="AZ Highway 303"/>
    <tag k="oneway" v="yes"/>
    <tag k="ref" v="303"/>
  </way>
  <way id="48507534" version="5" timestamp="2011-03-04T15:20:05Z" uid="292665" user="Dr Kludge" changeset="7455194">
    <nd ref="616305365"/>
    <nd ref="1185920984"/>
    <nd ref="1185558096"/>
    <tag k="construction" v="trunk"/>
    <tag k="highway" v="construction"/>
    <tag k="lanes" v="2"/>
    <tag k="name" v="AZ Highway 303"/>
    <tag k="oneway" v="yes"/>
    <tag k="ref" v="303"/>
  </way>
  <way id="48507534" version="6" timestamp="2011-03-05T03:36:34Z" uid="292665" user="Dr Kludge" changeset="7459885">
    <nd ref="616305365"/>
    <nd ref="1185920984"/>
    <nd ref="1185558096"/>
    <tag k="construction" v="trunk"/>
    <tag k="highway" v="construction"/>
    <tag k="lanes" v="2"/>
    <tag k="name" v="Estrella Freeway"/>
    <tag k="oneway" v="yes"/>
    <tag k="ref" v="AZ 303"/>
  </way>
  <way id="48507534" version="7" timestamp="2011-03-05T04:03:36Z" uid="292665" user="Dr Kludge" changeset="7459932">
    <nd ref="616305365"/>
    <nd ref="1186804907"/>
    <nd ref="1186804942"/>
    <nd ref="1186804993"/>
    <nd ref="1185920984"/>
    <tag k="construction" v="trunk"/>
    <tag k="highway" v="construction"/>
    <tag k="lanes" v="2"/>
    <tag k="name" v="Estrella Freeway"/>
    <tag k="oneway" v="yes"/>
    <tag k="ref" v="AZ 303"/>
  </way>
  <way id="48507534" version="8" timestamp="2011-03-05T04:19:37Z" uid="292665" user="Dr Kludge" changeset="7459954">
    <nd ref="616305365"/>
    <nd ref="1186809142"/>
    <tag k="construction" v="trunk"/>
    <tag k="highway" v="construction"/>
    <tag k="lanes" v="2"/>
    <tag k="name" v="Estrella Freeway"/>
    <tag k="oneway" v="yes"/>
    <tag k="ref" v="AZ 303"/>
  </way>
  <way id="48507534" version="9" timestamp="2011-03-05T06:02:50Z" uid="292665" user="Dr Kludge" changeset="7460198">
    <nd ref="616305365"/>
    <nd ref="1186839855"/>
    <nd ref="1186839819"/>
    <nd ref="1186839841"/>
    <nd ref="1186839844"/>
    <nd ref="1186839802"/>
    <nd ref="1186839806"/>
    <nd ref="1186839840"/>
    <nd ref="1186839845"/>
    <nd ref="1186839825"/>
    <tag k="construction" v="trunk"/>
    <tag k="highway" v="construction"/>
    <tag k="lanes" v="2"/>
    <tag k="name" v="Estrella Freeway"/>
    <tag k="oneway" v="yes"/>
    <tag k="ref" v="AZ 303"/>
  </way>
  <way id="48507534" version="10" timestamp="2011-03-05T06:07:29Z" uid="292665" user="Dr Kludge" changeset="7460212">
    <nd ref="611593869"/>
    <nd ref="611593786"/>
    <nd ref="1186842953"/>
    <nd ref="1186839855"/>
    <nd ref="1186839819"/>
    <nd ref="1186839841"/>
    <nd ref="1186839844"/>
    <nd ref="1186839802"/>
    <nd ref="1186839806"/>
    <nd ref="1186839840"/>
    <nd ref="1186839845"/>
    <nd ref="1186839825"/>
    <tag k="construction" v="trunk"/>
    <tag k="highway" v="construction"/>
    <tag k="lanes" v="2"/>
    <tag k="name" v="Estrella Freeway"/>
    <tag k="oneway" v="yes"/>
    <tag k="ref" v="AZ 303"/>
  </way>
  <way id="48507534" version="11" timestamp="2011-03-14T07:50:02Z" uid="207745" user="NE2" changeset="7553490"/>
  <way id="48507545" version="4" timestamp="2010-03-28T11:42:39Z" uid="20587" user="balrog-kun" changeset="4254597">
    <nd ref="616307551"/>
    <nd ref="616307550"/>
    <nd ref="616307549"/>
    <nd ref="616307548"/>
    <nd ref="616307547"/>
    <nd ref="616307544"/>
    <tag k="highway" v="residential_link"/>
    <tag k="name" v="Columbus Avenue"/>
    <tag k="oneway" v="yes"/>
    <tag k="source" v="Yahoo"/>
  </way>
  <way id="48507545" version="5" timestamp="2010-10-13T20:08:43Z" uid="4499" user="Jochen Topf" changeset="6033129">
    <nd ref="616307551"/>
    <nd ref="616307550"/>
    <nd ref="616307549"/>
    <nd ref="616307548"/>
    <nd ref="616307547"/>
    <nd ref="616307544"/>
    <tag k="highway" v="primary_link"/>
    <tag k="name" v="Columbus Avenue"/>
    <tag k="oneway" v="yes"/>
    <tag k="source" v="Yahoo"/>
  </way>
  <way id="48507865" version="2" timestamp="2010-01-25T20:15:29Z" uid="74027" user="katzlbt" changeset="3714192">
    <nd ref="616309499"/>
    <nd ref="616309500"/>
    <nd ref="616309502"/>
    <nd ref="616309501"/>
    <nd ref="616309471"/>
    <nd ref="616309470"/>
    <nd ref="616309469"/>
    <nd ref="616309468"/>
    <nd ref="616309467"/>
    <nd ref="616309466"/>
    <nd ref="616309465"/>
    <nd ref="616309498"/>
    <nd ref="616309497"/>
    <nd ref="616309495"/>
    <nd ref="616309494"/>
    <nd ref="616309493"/>
    <nd ref="616309492"/>
    <nd ref="616309464"/>
    <nd ref="616309463"/>
    <nd ref="616309489"/>
    <nd ref="616309491"/>
    <nd ref="616309490"/>
    <nd ref="616309488"/>
    <nd ref="616309487"/>
    <nd ref="616309486"/>
    <nd ref="616309485"/>
    <nd ref="616309461"/>
    <nd ref="616309460"/>
    <nd ref="616309459"/>
    <nd ref="616309457"/>
    <nd ref="616309484"/>
    <nd ref="616309482"/>
    <nd ref="616309481"/>
    <nd ref="616309480"/>
    <nd ref="616309479"/>
    <nd ref="616309478"/>
    <nd ref="616309477"/>
    <nd ref="616309476"/>
    <nd ref="616309475"/>
    <nd ref="616309473"/>
    <nd ref="616309472"/>
    <nd ref="616309375"/>
    <nd ref="616309374"/>
    <nd ref="616309373"/>
    <nd ref="616309372"/>
    <nd ref="616309371"/>
    <nd ref="616309368"/>
    <nd ref="616309366"/>
    <nd ref="616309365"/>
    <nd ref="616309333"/>
    <nd ref="616309332"/>
    <nd ref="616309331"/>
    <nd ref="616309330"/>
    <nd ref="616309329"/>
    <nd ref="616309328"/>
    <nd ref="616309327"/>
    <nd ref="616309326"/>
    <nd ref="616309325"/>
    <nd ref="616309324"/>
    <nd ref="616309323"/>
    <nd ref="616309322"/>
    <nd ref="616309321"/>
    <nd ref="616309369"/>
    <nd ref="616309381"/>
    <nd ref="616309380"/>
    <nd ref="616309379"/>
    <nd ref="616309378"/>
    <nd ref="616309377"/>
    <nd ref="616309363"/>
    <nd ref="616309362"/>
    <nd ref="616309361"/>
    <nd ref="616309353"/>
    <nd ref="616309352"/>
    <nd ref="616309351"/>
    <nd ref="616309350"/>
    <nd ref="616309349"/>
    <nd ref="616309348"/>
    <nd ref="616309346"/>
    <nd ref="616309360"/>
    <nd ref="616309359"/>
    <nd ref="616309358"/>
    <nd ref="616309357"/>
    <nd ref="616309355"/>
    <nd ref="616309354"/>
    <nd ref="616309339"/>
    <nd ref="616309338"/>
    <nd ref="616309337"/>
    <nd ref="616309336"/>
    <nd ref="616309335"/>
    <nd ref="616309317"/>
    <nd ref="616309316"/>
    <nd ref="616309315"/>
    <nd ref="616309313"/>
    <nd ref="616309312"/>
    <nd ref="616309311"/>
    <nd ref="616309319"/>
    <nd ref="616309345"/>
    <nd ref="616309344"/>
    <nd ref="616309343"/>
    <nd ref="616309342"/>
    <nd ref="616309341"/>
    <nd ref="616309340"/>
    <nd ref="616309318"/>
    <nd ref="616309402"/>
    <nd ref="616309401"/>
    <nd ref="616309394"/>
    <nd ref="616309392"/>
    <nd ref="616309391"/>
    <nd ref="616309399"/>
    <nd ref="616309410"/>
    <nd ref="616309409"/>
    <nd ref="616309408"/>
    <nd ref="616309406"/>
    <nd ref="616309404"/>
    <nd ref="616309390"/>
    <nd ref="616309389"/>
    <nd ref="616309398"/>
    <nd ref="616309397"/>
    <nd ref="616309396"/>
    <nd ref="616309395"/>
    <nd ref="616309403"/>
    <nd ref="616309407"/>
    <nd ref="616309412"/>
    <nd ref="616309411"/>
    <nd ref="616309415"/>
    <nd ref="616309414"/>
    <nd ref="616309413"/>
    <nd ref="616309419"/>
    <nd ref="616309417"/>
    <nd ref="616309416"/>
    <nd ref="616309426"/>
    <nd ref="616309425"/>
    <tag k="lit" v="yes"/>
    <tag k="piste:lit" v="yes"/>
    <tag k="piste:name" v="Reiterkogel"/>
    <tag k="piste:type" v="sled"/>
  </way>
  <way id="48507865" version="3" timestamp="2010-08-13T11:27:30Z" uid="226719" user="Putzi" changeset="5480994">
    <nd ref="616309499"/>
    <nd ref="616309500"/>
    <nd ref="616309502"/>
    <nd ref="616309501"/>
    <nd ref="616309471"/>
    <nd ref="616309470"/>
    <nd ref="616309469"/>
    <nd ref="616309468"/>
    <nd ref="616309467"/>
    <nd ref="616309466"/>
    <nd ref="616309465"/>
    <nd ref="616309498"/>
    <nd ref="616309497"/>
    <nd ref="616309495"/>
    <nd ref="616309494"/>
    <nd ref="616309493"/>
    <nd ref="616309492"/>
    <nd ref="616309464"/>
    <nd ref="616309463"/>
    <nd ref="616309489"/>
    <nd ref="616309491"/>
    <nd ref="616309490"/>
    <nd ref="616309488"/>
    <nd ref="616309487"/>
    <nd ref="616309486"/>
    <nd ref="616309485"/>
    <nd ref="616309461"/>
    <nd ref="616309460"/>
    <nd ref="616309459"/>
    <nd ref="616309457"/>
    <nd ref="616309484"/>
    <nd ref="616309482"/>
    <nd ref="616309481"/>
    <nd ref="616309480"/>
    <nd ref="616309479"/>
    <nd ref="616309478"/>
    <nd ref="616309477"/>
    <nd ref="616309476"/>
    <nd ref="616309475"/>
    <nd ref="616309473"/>
    <nd ref="616309472"/>
    <nd ref="616309375"/>
    <nd ref="616309374"/>
    <nd ref="616309373"/>
    <nd ref="616309372"/>
    <nd ref="616309371"/>
    <nd ref="616309368"/>
    <nd ref="616309366"/>
    <nd ref="616309365"/>
    <nd ref="616309333"/>
    <nd ref="616309332"/>
    <nd ref="616309331"/>
    <nd ref="616309330"/>
    <nd ref="616309329"/>
    <nd ref="616309328"/>
    <nd ref="616309327"/>
    <nd ref="616309326"/>
    <nd ref="616309325"/>
    <nd ref="616309324"/>
    <nd ref="616309323"/>
    <nd ref="616309322"/>
    <nd ref="616309321"/>
    <nd ref="616309369"/>
    <nd ref="616309381"/>
    <nd ref="616309380"/>
    <nd ref="616309379"/>
    <nd ref="616309378"/>
    <nd ref="616309377"/>
    <nd ref="616309363"/>
    <nd ref="616309362"/>
    <nd ref="616309361"/>
    <nd ref="616309353"/>
    <nd ref="616309352"/>
    <nd ref="616309351"/>
    <nd ref="616309350"/>
    <nd ref="616309349"/>
    <nd ref="616309348"/>
    <nd ref="616309346"/>
    <nd ref="616309360"/>
    <nd ref="616309359"/>
    <nd ref="616309358"/>
    <nd ref="616309357"/>
    <nd ref="616309355"/>
    <nd ref="616309354"/>
    <nd ref="616309339"/>
    <nd ref="616309338"/>
    <nd ref="616309337"/>
    <nd ref="616309336"/>
    <nd ref="616309335"/>
    <nd ref="616309317"/>
    <nd ref="616309316"/>
    <nd ref="616309315"/>
    <nd ref="616309313"/>
    <nd ref="616309312"/>
    <nd ref="616309311"/>
    <nd ref="616309319"/>
    <nd ref="616309345"/>
    <nd ref="616309344"/>
    <nd ref="616309343"/>
    <nd ref="616309342"/>
    <nd ref="616309341"/>
    <nd ref="616309340"/>
    <nd ref="616309318"/>
    <nd ref="616309402"/>
    <nd ref="616309401"/>
    <nd ref="616309394"/>
    <nd ref="616309392"/>
    <nd ref="616309391"/>
    <nd ref="616309399"/>
    <nd ref="616309410"/>
    <nd ref="616309409"/>
    <nd ref="616309408"/>
    <nd ref="616309406"/>
    <nd ref="616309404"/>
    <nd ref="616309390"/>
    <nd ref="616309389"/>
    <nd ref="616309398"/>
    <nd ref="616309397"/>
    <nd ref="616309396"/>
    <nd ref="616309395"/>
    <nd ref="616309403"/>
    <nd ref="616309407"/>
    <nd ref="616309412"/>
    <nd ref="616309411"/>
    <nd ref="616309415"/>
    <nd ref="616309414"/>
    <nd ref="616309413"/>
    <nd ref="616309419"/>
    <nd ref="616309417"/>
    <nd ref="858364832"/>
    <nd ref="616309416"/>
    <nd ref="616309426"/>
    <nd ref="616309425"/>
    <tag k="lit" v="yes"/>
    <tag k="piste:lit" v="yes"/>
    <tag k="piste:name" v="Reiterkogel"/>
    <tag k="piste:type" v="sled"/>
  </way>
  <way id="48507865" version="4" timestamp="2011-02-12T14:46:45Z" uid="406950" user="fabianschulte" changeset="7265540">
    <nd ref="616309425"/>
    <nd ref="616309426"/>
    <nd ref="616309416"/>
    <nd ref="858364832"/>
    <nd ref="616309417"/>
    <nd ref="616309419"/>
    <nd ref="616309413"/>
    <nd ref="616309414"/>
    <nd ref="616309415"/>
    <nd ref="616309411"/>
    <nd ref="616309412"/>
    <nd ref="616309407"/>
    <nd ref="616309403"/>
    <nd ref="616309395"/>
    <nd ref="616309396"/>
    <nd ref="616309397"/>
    <nd ref="616309398"/>
    <nd ref="616309389"/>
    <nd ref="616309390"/>
    <nd ref="616309404"/>
    <nd ref="616309406"/>
    <nd ref="616309408"/>
    <nd ref="616309409"/>
    <nd ref="616309410"/>
    <nd ref="616309399"/>
    <nd ref="616309391"/>
    <nd ref="616309392"/>
    <nd ref="616309394"/>
    <nd ref="616309401"/>
    <nd ref="616309402"/>
    <nd ref="616309318"/>
    <nd ref="616309340"/>
    <nd ref="616309341"/>
    <nd ref="616309342"/>
    <nd ref="616309343"/>
    <nd ref="616309344"/>
    <nd ref="616309345"/>
    <nd ref="616309319"/>
    <nd ref="616309311"/>
    <nd ref="616309312"/>
    <nd ref="616309313"/>
    <nd ref="616309315"/>
    <nd ref="616309316"/>
    <nd ref="616309317"/>
    <nd ref="616309335"/>
    <nd ref="616309336"/>
    <nd ref="616309337"/>
    <nd ref="616309338"/>
    <nd ref="616309339"/>
    <nd ref="616309354"/>
    <nd ref="616309355"/>
    <nd ref="616309357"/>
    <nd ref="616309358"/>
    <nd ref="616309359"/>
    <nd ref="616309360"/>
    <nd ref="616309346"/>
    <nd ref="616309348"/>
    <nd ref="616309349"/>
    <nd ref="616309350"/>
    <nd ref="616309351"/>
    <nd ref="616309352"/>
    <nd ref="616309353"/>
    <nd ref="616309361"/>
    <nd ref="616309362"/>
    <nd ref="616309363"/>
    <nd ref="616309377"/>
    <nd ref="616309378"/>
    <nd ref="616309379"/>
    <nd ref="616309380"/>
    <nd ref="616309381"/>
    <nd ref="616309369"/>
    <nd ref="616309321"/>
    <nd ref="616309322"/>
    <nd ref="616309323"/>
    <nd ref="616309324"/>
    <nd ref="616309325"/>
    <nd ref="616309326"/>
    <nd ref="616309327"/>
    <nd ref="616309328"/>
    <nd ref="616309329"/>
    <nd ref="616309330"/>
    <nd ref="616309331"/>
    <nd ref="616309332"/>
    <nd ref="616309333"/>
    <nd ref="616309365"/>
    <nd ref="616309366"/>
    <nd ref="616309368"/>
    <nd ref="616309371"/>
    <nd ref="616309372"/>
    <nd ref="616309373"/>
    <nd ref="616309374"/>
    <nd ref="616309375"/>
    <nd ref="616309472"/>
    <nd ref="616309473"/>
    <nd ref="616309475"/>
    <nd ref="616309476"/>
    <nd ref="616309477"/>
    <nd ref="616309478"/>
    <nd ref="616309479"/>
    <nd ref="616309480"/>
    <nd ref="616309481"/>
    <nd ref="616309482"/>
    <nd ref="616309484"/>
    <nd ref="616309457"/>
    <nd ref="616309459"/>
    <nd ref="616309460"/>
    <nd ref="616309461"/>
    <nd ref="616309485"/>
    <nd ref="616309486"/>
    <nd ref="616309487"/>
    <nd ref="616309488"/>
    <nd ref="616309490"/>
    <nd ref="616309491"/>
    <nd ref="616309489"/>
    <nd ref="616309463"/>
    <nd ref="616309464"/>
    <nd ref="616309492"/>
    <nd ref="616309493"/>
    <nd ref="616309494"/>
    <nd ref="616309495"/>
    <nd ref="616309497"/>
    <nd ref="616309498"/>
    <nd ref="616309465"/>
    <nd ref="616309466"/>
    <nd ref="616309467"/>
    <nd ref="616309468"/>
    <nd ref="616309469"/>
    <nd ref="616309470"/>
    <nd ref="616309471"/>
    <nd ref="616309501"/>
    <nd ref="616309502"/>
    <nd ref="616309500"/>
    <nd ref="616309499"/>
    <tag k="lit" v="yes"/>
    <tag k="piste:lit" v="yes"/>
    <tag k="piste:name" v="Reiterkogel"/>
    <tag k="piste:type" v="sled"/>
  </way>
  <way id="48507865" version="5" timestamp="2011-06-20T14:02:49Z" uid="103764" user="poelchen1337" changeset="8494652"/>
  <way id="48507878" version="2" timestamp="2010-01-22T18:52:56Z" uid="8619" user="cetest" changeset="3685914">
    <nd ref="616310087"/>
    <nd ref="616310067"/>
    <nd ref="616310069"/>
    <nd ref="616310071"/>
    <nd ref="616310085"/>
    <nd ref="616310086"/>
    <nd ref="616310088"/>
    <tag k="highway" v="track"/>
    <tag k="source" v="ikonos/geoeye"/>
  </way>
  <way id="48507878" version="3" timestamp="2011-01-06T00:05:42Z" uid="118352" user="kamarc" changeset="6877889">
    <nd ref="616310087"/>
    <nd ref="616310067"/>
    <nd ref="616310069"/>
    <nd ref="616310071"/>
    <nd ref="616310085"/>
    <nd ref="616310086"/>
    <nd ref="616310088"/>
    <tag k="highway" v="residential"/>
    <tag k="source" v="ikonos/geoeye"/>
  </way>
  <way id="48507879" version="2" timestamp="2010-01-22T18:52:56Z" uid="8619" user="cetest" changeset="3685914">
    <nd ref="616310071"/>
    <nd ref="616310072"/>
    <tag k="highway" v="track"/>
    <tag k="source" v="ikonos/geoeye"/>
  </way>
  <way id="48507879" version="3" timestamp="2011-01-06T00:05:46Z" uid="118352" user="kamarc" changeset="6877889"/>
  <way id="48507880" version="2" timestamp="2010-01-22T18:52:56Z" uid="8619" user="cetest" changeset="3685914">
    <nd ref="331008206"/>
    <nd ref="616310084"/>
    <nd ref="616310073"/>
    <nd ref="616310074"/>
    <nd ref="616310075"/>
    <tag k="highway" v="track"/>
    <tag k="source" v="ikonos/geoeye"/>
  </way>
  <way id="48507880" version="3" timestamp="2010-12-23T22:56:54Z" uid="118352" user="kamarc" changeset="6750500"/>
  <way id="48507881" version="2" timestamp="2010-01-22T18:52:56Z" uid="8619" user="cetest" changeset="3685914">
    <nd ref="331008220"/>
    <nd ref="616310089"/>
    <nd ref="616310090"/>
    <nd ref="616310091"/>
    <nd ref="616310092"/>
    <nd ref="616310093"/>
    <tag k="highway" v="track"/>
    <tag k="source" v="ikonos/geoeye"/>
  </way>
  <way id="48507882" version="2" timestamp="2010-01-22T18:52:56Z" uid="8619" user="cetest" changeset="3685914">
    <nd ref="616310091"/>
    <nd ref="616310094"/>
    <nd ref="616310095"/>
    <tag k="highway" v="track"/>
    <tag k="source" v="ikonos/geoeye"/>
  </way>
</osm>
