<?xml version='1.0' encoding='UTF-8'?>
<osm version="0.6" generator="libosmium/2.20.0">
  <way id="48510308" version="2" timestamp="2010-01-18T18:49:10Z" uid="23543" user="jkjk" changeset="3652561">
    <nd ref="616355571"/>
    <nd ref="616355572"/>
    <nd ref="616355573"/>
    <nd ref="616355574"/>
    <nd ref="616355575"/>
    <nd ref="616355576"/>
    <nd ref="616355577"/>
    <nd ref="616355578"/>
    <nd ref="616338548"/>
    <nd ref="616338547"/>
    <nd ref="616338544"/>
    <nd ref="616338540"/>
    <nd ref="616338538"/>
    <nd ref="616338537"/>
    <nd ref="616338536"/>
    <nd ref="616338534"/>
    <tag k="highway" v="unclassified"/>
    <tag k="source" v="digitalglobe"/>
  </way>
  <way id="48510308" version="3" timestamp="2010-02-16T08:56:16Z" uid="28748" user="frief" changeset="3890218"/>
  <way id="48510400" version="2" timestamp="2011-01-25T12:38:58Z" uid="115477" user="wowik" changeset="7083203">
    <nd ref="616339345"/>
    <nd ref="616339349"/>
    <nd ref="616339351"/>
    <nd ref="616339355"/>
    <nd ref="616339345"/>
    <tag k="building" v="yes"/>
    <tag k="building:levels" v="1"/>
  </way>
  <way id="48510400" version="3" timestamp="2011-01-25T12:54:29Z" uid="115477" user="wowik" changeset="7083347">
    <nd ref="616339345"/>
    <nd ref="616339349"/>
    <nd ref="616339351"/>
    <nd ref="616339355"/>
    <nd ref="616339345"/>
    <tag k="addr:housenumber" v="16 к2 с2"/>
    <tag k="addr:street" v="улица Фомичёвой"/>
    <tag k="building" v="yes"/>
    <tag k="building:levels" v="1"/>
    <tag k="note" v="addr:housenumber не точен"/>
  </way>
  <way id="48510400" version="4" timestamp="2012-03-28T06:13:38Z" uid="481934" user="iWowik" changeset="11123401">
    <nd ref="616339345"/>
    <nd ref="616339349"/>
    <nd ref="616339351"/>
    <nd ref="616339355"/>
    <nd ref="616339345"/>
    <tag k="addr:city" v="Москва"/>
    <tag k="addr:country" v="RU"/>
    <tag k="addr:housenumber" v="16 к2 с2"/>
    <tag k="addr:street" v="улица Фомичёвой"/>
    <tag k="building" v="yes"/>
    <tag k="building:levels" v="1"/>
    <tag k="note" v="addr:housenumber не точен"/>
  </way>
</osm>
