<?xml version='1.0' encoding='UTF-8'?>
<osm version="0.6" generator="libosmium/2.20.0">
  <way id="48561113" version="1" timestamp="2010-01-19T20:55:25Z" uid="115477" user="wowik" changeset="3662154">
    <nd ref="616827553"/>
    <nd ref="616827554"/>
    <nd ref="616827555"/>
    <nd ref="616827556"/>
    <nd ref="616827553"/>
    <tag k="addr:city" v="Зеленоград"/>
    <tag k="building" v="yes"/>
    <tag k="is_in" v="Russia"/>
    <tag k="name" v="лодочная станция"/>
  </way>
  <way id="48561113" version="2" timestamp="2011-09-13T10:32:08Z" uid="29320" user="Komяpa" changeset="9288237">
    <nd ref="616827553"/>
    <nd ref="616827554"/>
    <nd ref="616827555"/>
    <nd ref="616827556"/>
    <nd ref="616827553"/>
    <tag k="addr:city" v="Зеленоград"/>
    <tag k="addr:country" v="RU"/>
    <tag k="building" v="yes"/>
    <tag k="name" v="лодочная станция"/>
  </way>
  <way id="48561113" version="3" timestamp="2011-11-16T06:41:04Z" uid="481934" user="iWowik" changeset="9841495">
    <nd ref="616827553"/>
    <nd ref="616827554"/>
    <nd ref="616827555"/>
    <nd ref="616827556"/>
    <nd ref="616827553"/>
    <tag k="addr:city" v="Зеленоград"/>
    <tag k="addr:country" v="RU"/>
    <tag k="building" v="yes"/>
    <tag k="leisure" v="marina"/>
    <tag k="name" v="лодочная станция"/>
  </way>
  <way id="48561113" version="4" timestamp="2012-03-27T11:56:20Z" uid="481934" user="iWowik" changeset="11115472">
    <nd ref="616827553"/>
    <nd ref="616827554"/>
    <nd ref="616827555"/>
    <nd ref="616827556"/>
    <nd ref="616827553"/>
    <tag k="addr:city" v="Зеленоград"/>
    <tag k="addr:country" v="RU"/>
    <tag k="addr:region" v="Москва"/>
    <tag k="building" v="yes"/>
    <tag k="leisure" v="marina"/>
    <tag k="name" v="лодочная станция"/>
  </way>
  <way id="48561114" version="1" timestamp="2010-01-19T20:55:25Z" uid="115477" user="wowik" changeset="3662154">
    <nd ref="616827549"/>
    <nd ref="616827551"/>
    <nd ref="616827557"/>
    <tag k="highway" v="service"/>
  </way>
  <way id="48561114" version="2" timestamp="2010-03-27T05:35:59Z" uid="26062" user="beetle182" changeset="4243691"/>
  <way id="48561195" version="2" timestamp="2010-01-22T13:45:44Z" uid="8619" user="cetest" changeset="3683249">
    <nd ref="616828155"/>
    <nd ref="616828156"/>
    <nd ref="616828157"/>
    <nd ref="616828158"/>
    <nd ref="616828155"/>
    <tag k="amenity" v="place_of_worship"/>
    <tag k="denomination" v="catholic"/>
    <tag k="name" v="Eglise Saint Marc"/>
    <tag k="religion" v="christian"/>
    <tag k="source" v="DMA 1994"/>
  </way>
  <way id="48561195" version="3" timestamp="2010-02-18T01:45:05Z" uid="79857" user="RDSantiago" changeset="3905927">
    <nd ref="616828155"/>
    <nd ref="616828156"/>
    <nd ref="616828157"/>
    <nd ref="616828158"/>
    <nd ref="616828155"/>
    <tag k="addr:country" v="HT"/>
    <tag k="amenity" v="place_of_worship"/>
    <tag k="denomination" v="catholic"/>
    <tag k="name" v="Eglise Saint Marc"/>
    <tag k="religion" v="christian"/>
    <tag k="source" v="DMA 1994"/>
  </way>
  <way id="48561195" version="4" timestamp="2011-12-13T04:14:02Z" uid="231539" user="Xapitoun" changeset="10104836">
    <nd ref="616828155"/>
    <nd ref="616828156"/>
    <nd ref="616828157"/>
    <nd ref="616828158"/>
    <nd ref="616828155"/>
    <tag k="addr:country" v="HT"/>
    <tag k="amenity" v="place_of_worship"/>
    <tag k="denomination" v="catholic"/>
    <tag k="name" v="Église Saint Marc"/>
    <tag k="religion" v="christian"/>
    <tag k="source" v="DMA 1994"/>
  </way>
  <way id="48561195" version="5" timestamp="2012-01-25T03:03:47Z" uid="499855" user="CERISIER Judith" changeset="10490248">
    <nd ref="616828155"/>
    <nd ref="616828156"/>
    <nd ref="616828157"/>
    <nd ref="616828158"/>
    <nd ref="616828155"/>
    <tag k="addr:country" v="HT"/>
    <tag k="amenity" v="place_of_worship"/>
    <tag k="cosmha" v="yes"/>
    <tag k="denomination" v="catholic"/>
    <tag k="name" v="Église Saint Marc"/>
    <tag k="project" v="OTI_HRI_COSMHA_STM020"/>
    <tag k="religion" v="christian"/>
    <tag k="source" v="bing"/>
  </way>
  <way id="48561195" version="6" timestamp="2012-01-25T15:41:00Z" uid="499855" user="CERISIER Judith" changeset="10494758">
    <nd ref="616828155"/>
    <nd ref="616828156"/>
    <nd ref="616828157"/>
    <nd ref="616828158"/>
    <nd ref="616828155"/>
    <tag k="addr:country" v="HT"/>
    <tag k="amenity" v="place_of_worship"/>
    <tag k="building" v="yes"/>
    <tag k="cosmha" v="yes"/>
    <tag k="denomination" v="catholic"/>
    <tag k="name" v="Église Saint Marc"/>
    <tag k="project" v="OTI_HRI_COSMHA_STM020"/>
    <tag k="religion" v="christian"/>
    <tag k="source" v="bing"/>
  </way>
  <way id="48561195" version="7" timestamp="2012-01-29T02:36:51Z" uid="395416" user="worldwidewolford" changeset="10526637">
    <nd ref="616828155"/>
    <nd ref="616828156"/>
    <nd ref="616828157"/>
    <nd ref="616828158"/>
    <nd ref="616828155"/>
    <tag k="addr:country" v="HT"/>
    <tag k="building" v="yes"/>
    <tag k="cosmha" v="yes"/>
    <tag k="project" v="OTI_HRI_COSMHA_STM020"/>
    <tag k="source" v="bing"/>
  </way>
  <way id="48561195" version="8" timestamp="2012-03-16T20:50:15Z" uid="593849" user="brutus kenelson" changeset="11002285">
    <nd ref="616828155"/>
    <nd ref="616828156"/>
    <nd ref="1677393748"/>
    <nd ref="1677393747"/>
    <nd ref="1677393744"/>
    <nd ref="1677393742"/>
    <nd ref="1677393740"/>
    <nd ref="1677393738"/>
    <nd ref="616828157"/>
    <nd ref="616828158"/>
    <nd ref="616828155"/>
    <tag k="addr:country" v="HT"/>
    <tag k="addr:street" v="Rue savannah"/>
    <tag k="building" v="church"/>
    <tag k="building:levels" v="3"/>
    <tag k="building_base_material:concrete" v="yes"/>
    <tag k="building_roof_material:sheet_metal" v="yes"/>
    <tag k="building_status" v="good"/>
    <tag k="cosmha" v="yes"/>
    <tag k="project" v="OTI_HRI_COSMHA_STM020"/>
    <tag k="source" v="bing  with offset"/>
    <tag k="source_date" v="16/03/12"/>
    <tag k="source_type_GPS" v="yes"/>
    <tag k="source_type_imagery" v="yes"/>
    <tag k="source_type_survey" v="yes"/>
    <tag k="source_type_walking_paper" v="yes"/>
  </way>
  <way id="48561372" version="2" timestamp="2010-01-22T13:45:44Z" uid="8619" user="cetest" changeset="3683249">
    <nd ref="616831822"/>
    <nd ref="616831824"/>
    <nd ref="616831827"/>
    <nd ref="616831830"/>
    <nd ref="616831822"/>
    <tag k="amenity" v="school"/>
    <tag k="name" v="Ecole des Frères"/>
    <tag k="source" v="DMA 1994"/>
  </way>
  <way id="48561372" version="3" timestamp="2010-02-18T01:45:05Z" uid="79857" user="RDSantiago" changeset="3905927">
    <nd ref="616831822"/>
    <nd ref="616831824"/>
    <nd ref="616831827"/>
    <nd ref="616831830"/>
    <nd ref="616831822"/>
    <tag k="addr:country" v="HT"/>
    <tag k="amenity" v="school"/>
    <tag k="name" v="Ecole des Frères"/>
    <tag k="source" v="DMA 1994"/>
  </way>
  <way id="48561372" version="4" timestamp="2011-03-21T14:49:02Z" uid="372618" user="jean presler" changeset="7627975">
    <nd ref="616831822"/>
    <nd ref="616831824"/>
    <nd ref="616831827"/>
    <nd ref="616831830"/>
    <nd ref="616831822"/>
    <tag k="addr:country" v="HT"/>
    <tag k="amenity" v="shelter_emergency"/>
    <tag k="name" v="Ecole des Frères"/>
    <tag k="source" v="DMA 1994"/>
  </way>
  <way id="48561372" version="5" timestamp="2011-04-14T12:55:39Z" uid="422091" user="Perest Jonas" changeset="7860681">
    <nd ref="616831822"/>
    <nd ref="616831824"/>
    <nd ref="616831827"/>
    <nd ref="616831830"/>
    <nd ref="616831822"/>
    <tag k="2008_use" v="no"/>
    <tag k="2009_use" v="no"/>
    <tag k="2010_use" v="no"/>
    <tag k="addr:city" v="saint marc"/>
    <tag k="addr:country" v="HT"/>
    <tag k="addr:full" v="Artibonite_St Marc_blvd la liberte# 58"/>
    <tag k="addr:housenumber" v="58"/>
    <tag k="addr:street" v="Artibonite_St Marc_blvd la liberte"/>
    <tag k="attribute_source_date" v="12042011"/>
    <tag k="attribute_source_type" v="field_mission"/>
    <tag k="building" v="building_concrete"/>
    <tag k="building_status" v="good"/>
    <tag k="conc_bldg" v="2"/>
    <tag k="contact_person" v="sr. jennifer calixte"/>
    <tag k="court" v="yes"/>
    <tag k="court_srf" v="dirt/sand"/>
    <tag k="damage_status" v="intact"/>
    <tag k="floodable" v="no"/>
    <tag k="flooded" v="no"/>
    <tag k="futur_use" v="yes"/>
    <tag k="geometry_source_date" v="12042011"/>
    <tag k="geometry_source_type" v="gps"/>
    <tag k="good_bldg" v="2"/>
    <tag k="hum_use" v="disaster_shelter"/>
    <tag k="id:db_shelter" v="A0489-AR-067"/>
    <tag k="kitchen" v="no"/>
    <tag k="name" v="ecole frere herve"/>
    <tag k="num_building" v="2"/>
    <tag k="op_status" v="open"/>
    <tag k="phone" v="3637-9508"/>
    <tag k="power_source" v="electricity_network"/>
    <tag k="prac" v="heavy_truck_less_than_20mt"/>
    <tag k="roof_base_mtrl" v="concrete"/>
    <tag k="source" v="hot_iom_cosmha"/>
    <tag k="tank_num" v="1"/>
    <tag k="tap" v="yes"/>
    <tag k="tap_status" v="open"/>
    <tag k="toilet_med" v="11"/>
    <tag k="toilet_num" v="11"/>
    <tag k="use" v="school"/>
    <tag k="well_num" v="1"/>
    <tag k="whs_unit" v="no"/>
  </way>
  <way id="48561372" version="6" timestamp="2011-04-20T11:00:50Z" uid="437141" user="hotbot" changeset="7915057">
    <nd ref="616831822"/>
    <nd ref="616831824"/>
    <nd ref="616831827"/>
    <nd ref="616831830"/>
    <nd ref="616831822"/>
    <tag k="2008_use" v="no"/>
    <tag k="2009_use" v="no"/>
    <tag k="2010_use" v="no"/>
    <tag k="addr:city" v="saint marc"/>
    <tag k="addr:country" v="HT"/>
    <tag k="addr:full" v="Artibonite_St Marc_blvd la liberte# 58"/>
    <tag k="addr:housenumber" v="58"/>
    <tag k="addr:street" v="Artibonite_St Marc_blvd la liberte"/>
    <tag k="attribute_source_date" v="12042011"/>
    <tag k="attribute_source_type" v="field_mission"/>
    <tag k="building" v="building_concrete"/>
    <tag k="building_roof_base_material" v="concrete"/>
    <tag k="building_status" v="good"/>
    <tag k="conc_bldg" v="2"/>
    <tag k="contact_person" v="sr. jennifer calixte"/>
    <tag k="court" v="yes"/>
    <tag k="court_srf" v="dirt/sand"/>
    <tag k="damage_status" v="intact"/>
    <tag k="floodable" v="no"/>
    <tag k="flooded" v="no"/>
    <tag k="futur_use" v="yes"/>
    <tag k="geometry_source_date" v="12042011"/>
    <tag k="geometry_source_type" v="gps"/>
    <tag k="good_bldg" v="2"/>
    <tag k="hum_use" v="disaster_shelter"/>
    <tag k="id:db_shelter" v="A0489-AR-067"/>
    <tag k="kitchen" v="no"/>
    <tag k="name" v="ecole frere herve"/>
    <tag k="num_building" v="2"/>
    <tag k="op_status" v="open"/>
    <tag k="phone" v="3637-9508"/>
    <tag k="power_source" v="electricity_network"/>
    <tag k="prac" v="heavy_truck_less_than_20mt"/>
    <tag k="source" v="hot_iom_cosmha"/>
    <tag k="tank_num" v="1"/>
    <tag k="tap" v="yes"/>
    <tag k="tap_status" v="open"/>
    <tag k="toilet_med" v="11"/>
    <tag k="toilet_num" v="11"/>
    <tag k="use" v="school"/>
    <tag k="well_num" v="1"/>
    <tag k="whs_unit" v="no"/>
  </way>
  <way id="48561372" version="7" timestamp="2011-04-20T14:46:53Z" uid="437141" user="hotbot" changeset="7916883">
    <nd ref="616831822"/>
    <nd ref="616831824"/>
    <nd ref="616831827"/>
    <nd ref="616831830"/>
    <nd ref="616831822"/>
    <tag k="2008_use" v="no"/>
    <tag k="2009_use" v="no"/>
    <tag k="2010_use" v="no"/>
    <tag k="addr:city" v="saint marc"/>
    <tag k="addr:country" v="HT"/>
    <tag k="addr:full" v="Artibonite_St Marc_blvd la liberte# 58"/>
    <tag k="addr:housenumber" v="58"/>
    <tag k="addr:street" v="Artibonite_St Marc_blvd la liberte"/>
    <tag k="attribute_source_date" v="12042011"/>
    <tag k="attribute_source_type" v="field_mission"/>
    <tag k="building" v="building_concrete"/>
    <tag k="building_roof_base_material" v="concrete"/>
    <tag k="building_status" v="good"/>
    <tag k="building_use" v="school"/>
    <tag k="conc_bldg" v="2"/>
    <tag k="contact_person" v="sr. jennifer calixte"/>
    <tag k="court" v="yes"/>
    <tag k="court_srf" v="dirt/sand"/>
    <tag k="damage_status" v="intact"/>
    <tag k="floodable" v="no"/>
    <tag k="flooded" v="no"/>
    <tag k="futur_use" v="yes"/>
    <tag k="geometry_source_date" v="12042011"/>
    <tag k="geometry_source_type" v="gps"/>
    <tag k="good_bldg" v="2"/>
    <tag k="hum_use" v="disaster_shelter"/>
    <tag k="id:db_shelter" v="A0489-AR-067"/>
    <tag k="kitchen" v="no"/>
    <tag k="name" v="ecole frere herve"/>
    <tag k="num_building" v="2"/>
    <tag k="op_status" v="open"/>
    <tag k="phone" v="3637-9508"/>
    <tag k="power_source" v="electricity_network"/>
    <tag k="prac" v="heavy_truck_less_than_20mt"/>
    <tag k="source" v="hot_iom_cosmha"/>
    <tag k="tank_num" v="1"/>
    <tag k="tap" v="yes"/>
    <tag k="tap_status" v="open"/>
    <tag k="toilet_med" v="11"/>
    <tag k="toilet_num" v="11"/>
    <tag k="well_num" v="1"/>
    <tag k="whs_unit" v="no"/>
  </way>
  <way id="48561372" version="8" timestamp="2011-04-21T19:02:34Z" uid="422091" user="Perest Jonas" changeset="7928055">
    <nd ref="616831822"/>
    <nd ref="616831824"/>
    <nd ref="616831827"/>
    <nd ref="616831830"/>
    <nd ref="616831822"/>
    <tag k="2008_use" v="no"/>
    <tag k="2009_use" v="no"/>
    <tag k="2010_use" v="no"/>
    <tag k="addr:city" v="saint marc"/>
    <tag k="addr:country" v="HT"/>
    <tag k="addr:full" v="Artibonite_St Marc_blvd la liberte# 58"/>
    <tag k="addr:housenumber" v="58"/>
    <tag k="addr:street" v="Artibonite_St Marc_blvd la liberte"/>
    <tag k="attribute_source_date" v="12042011"/>
    <tag k="attribute_source_type" v="field_mission"/>
    <tag k="building" v="building_concrete"/>
    <tag k="building_status" v="good"/>
    <tag k="cap_ind" v="800"/>
    <tag k="cap_ind_g1" v="150"/>
    <tag k="cap_ind_g2" v="150"/>
    <tag k="cap_sm" v="500"/>
    <tag k="cap_sm_g1" v="300"/>
    <tag k="conc_bldg" v="2"/>
    <tag k="contact_person" v="sr. jennifer calixte"/>
    <tag k="court" v="yes"/>
    <tag k="court_srf" v="dirt/sand"/>
    <tag k="damage_status" v="intact"/>
    <tag k="floodable" v="no"/>
    <tag k="flooded" v="no"/>
    <tag k="futur_use" v="yes"/>
    <tag k="geometry_source_date" v="12042011"/>
    <tag k="geometry_source_type" v="gps"/>
    <tag k="good_bldg" v="2"/>
    <tag k="hum_use" v="disaster_shelter"/>
    <tag k="id:db_shelter" v="A0489-AR-067"/>
    <tag k="kitchen" v="no"/>
    <tag k="name" v="ecole frere herve"/>
    <tag k="num_building" v="2"/>
    <tag k="op_status" v="open"/>
    <tag k="phone" v="3637-9508"/>
    <tag k="power_source" v="electricity_network"/>
    <tag k="prac" v="heavy_truck_less_than_20mt"/>
    <tag k="roof_base_mtrl" v="concrete"/>
    <tag k="source" v="hot_iom_cosmha"/>
    <tag k="tank_num" v="1"/>
    <tag k="tap" v="yes"/>
    <tag k="tap_status" v="open"/>
    <tag k="toilet_med" v="11"/>
    <tag k="toilet_num" v="11"/>
    <tag k="use" v="school"/>
    <tag k="well_num" v="1"/>
    <tag k="whs_unit" v="no"/>
  </way>
  <way id="48561372" version="9" timestamp="2011-04-24T22:08:13Z" uid="437141" user="hotbot" changeset="7957658">
    <nd ref="616831822"/>
    <nd ref="616831824"/>
    <nd ref="616831827"/>
    <nd ref="616831830"/>
    <nd ref="616831822"/>
    <tag k="2008_use" v="no"/>
    <tag k="2009_use" v="no"/>
    <tag k="2010_use" v="no"/>
    <tag k="addr:city" v="saint marc"/>
    <tag k="addr:country" v="HT"/>
    <tag k="addr:full" v="Artibonite_St Marc_blvd la liberte# 58"/>
    <tag k="addr:housenumber" v="58"/>
    <tag k="addr:street" v="Artibonite_St Marc_blvd la liberte"/>
    <tag k="attribute_source_date" v="12042011"/>
    <tag k="attribute_source_type" v="field_mission"/>
    <tag k="building" v="building_concrete"/>
    <tag k="building_status" v="good"/>
    <tag k="cap_ind_g1" v="150"/>
    <tag k="cap_ind_g2" v="150"/>
    <tag k="cap_sm" v="500"/>
    <tag k="cap_sm_g1" v="300"/>
    <tag k="capacity_individuals" v="800"/>
    <tag k="conc_bldg" v="2"/>
    <tag k="contact_person" v="sr. jennifer calixte"/>
    <tag k="court" v="yes"/>
    <tag k="court_srf" v="dirt/sand"/>
    <tag k="damage_status" v="intact"/>
    <tag k="floodable" v="no"/>
    <tag k="flooded" v="no"/>
    <tag k="futur_use" v="yes"/>
    <tag k="geometry_source_date" v="12042011"/>
    <tag k="geometry_source_type" v="gps"/>
    <tag k="good_bldg" v="2"/>
    <tag k="hum_use" v="disaster_shelter"/>
    <tag k="id:db_shelter" v="A0489-AR-067"/>
    <tag k="kitchen" v="no"/>
    <tag k="name" v="ecole frere herve"/>
    <tag k="num_building" v="2"/>
    <tag k="op_status" v="open"/>
    <tag k="phone" v="3637-9508"/>
    <tag k="power_source" v="electricity_network"/>
    <tag k="prac" v="heavy_truck_less_than_20mt"/>
    <tag k="roof_base_mtrl" v="concrete"/>
    <tag k="source" v="hot_iom_cosmha"/>
    <tag k="tank_num" v="1"/>
    <tag k="tap" v="yes"/>
    <tag k="tap_status" v="open"/>
    <tag k="toilet_med" v="11"/>
    <tag k="toilet_num" v="11"/>
    <tag k="use" v="school"/>
    <tag k="well_num" v="1"/>
    <tag k="whs_unit" v="no"/>
  </way>
  <way id="48561372" version="10" timestamp="2011-04-24T22:10:04Z" uid="437141" user="hotbot" changeset="7957658">
    <nd ref="616831822"/>
    <nd ref="616831824"/>
    <nd ref="616831827"/>
    <nd ref="616831830"/>
    <nd ref="616831822"/>
    <tag k="2008_use" v="no"/>
    <tag k="2009_use" v="no"/>
    <tag k="2010_use" v="no"/>
    <tag k="addr:city" v="saint marc"/>
    <tag k="addr:country" v="HT"/>
    <tag k="addr:full" v="Artibonite_St Marc_blvd la liberte# 58"/>
    <tag k="addr:housenumber" v="58"/>
    <tag k="addr:street" v="Artibonite_St Marc_blvd la liberte"/>
    <tag k="attribute_source_date" v="12042011"/>
    <tag k="attribute_source_type" v="field_mission"/>
    <tag k="building" v="building_concrete"/>
    <tag k="building_roof_base_material" v="concrete"/>
    <tag k="building_status" v="good"/>
    <tag k="cap_ind_g1" v="150"/>
    <tag k="cap_ind_g2" v="150"/>
    <tag k="cap_sm" v="500"/>
    <tag k="cap_sm_g1" v="300"/>
    <tag k="capacity_individuals" v="800"/>
    <tag k="conc_bldg" v="2"/>
    <tag k="contact_person" v="sr. jennifer calixte"/>
    <tag k="court" v="yes"/>
    <tag k="court_srf" v="dirt/sand"/>
    <tag k="damage_status" v="intact"/>
    <tag k="floodable" v="no"/>
    <tag k="flooded" v="no"/>
    <tag k="futur_use" v="yes"/>
    <tag k="geometry_source_date" v="12042011"/>
    <tag k="geometry_source_type" v="gps"/>
    <tag k="good_bldg" v="2"/>
    <tag k="hum_use" v="disaster_shelter"/>
    <tag k="id:db_shelter" v="A0489-AR-067"/>
    <tag k="kitchen" v="no"/>
    <tag k="name" v="ecole frere herve"/>
    <tag k="num_building" v="2"/>
    <tag k="op_status" v="open"/>
    <tag k="phone" v="3637-9508"/>
    <tag k="power_source" v="electricity_network"/>
    <tag k="prac" v="heavy_truck_less_than_20mt"/>
    <tag k="source" v="hot_iom_cosmha"/>
    <tag k="tank_num" v="1"/>
    <tag k="tap" v="yes"/>
    <tag k="tap_status" v="open"/>
    <tag k="toilet_med" v="11"/>
    <tag k="toilet_num" v="11"/>
    <tag k="use" v="school"/>
    <tag k="well_num" v="1"/>
    <tag k="whs_unit" v="no"/>
  </way>
  <way id="48561372" version="11" timestamp="2011-04-24T22:13:13Z" uid="437141" user="hotbot" changeset="7957658">
    <nd ref="616831822"/>
    <nd ref="616831824"/>
    <nd ref="616831827"/>
    <nd ref="616831830"/>
    <nd ref="616831822"/>
    <tag k="2008_use" v="no"/>
    <tag k="2009_use" v="no"/>
    <tag k="2010_use" v="no"/>
    <tag k="addr:city" v="saint marc"/>
    <tag k="addr:country" v="HT"/>
    <tag k="addr:full" v="Artibonite_St Marc_blvd la liberte# 58"/>
    <tag k="addr:housenumber" v="58"/>
    <tag k="addr:street" v="Artibonite_St Marc_blvd la liberte"/>
    <tag k="attribute_source_date" v="12042011"/>
    <tag k="attribute_source_type" v="field_mission"/>
    <tag k="building" v="building_concrete"/>
    <tag k="building_roof_base_material" v="concrete"/>
    <tag k="building_status" v="good"/>
    <tag k="building_use" v="school"/>
    <tag k="cap_ind_g1" v="150"/>
    <tag k="cap_ind_g2" v="150"/>
    <tag k="cap_sm" v="500"/>
    <tag k="cap_sm_g1" v="300"/>
    <tag k="capacity_individuals" v="800"/>
    <tag k="conc_bldg" v="2"/>
    <tag k="contact_person" v="sr. jennifer calixte"/>
    <tag k="court" v="yes"/>
    <tag k="court_srf" v="dirt/sand"/>
    <tag k="damage_status" v="intact"/>
    <tag k="floodable" v="no"/>
    <tag k="flooded" v="no"/>
    <tag k="futur_use" v="yes"/>
    <tag k="geometry_source_date" v="12042011"/>
    <tag k="geometry_source_type" v="gps"/>
    <tag k="good_bldg" v="2"/>
    <tag k="hum_use" v="disaster_shelter"/>
    <tag k="id:db_shelter" v="A0489-AR-067"/>
    <tag k="kitchen" v="no"/>
    <tag k="name" v="ecole frere herve"/>
    <tag k="num_building" v="2"/>
    <tag k="op_status" v="open"/>
    <tag k="phone" v="3637-9508"/>
    <tag k="power_source" v="electricity_network"/>
    <tag k="prac" v="heavy_truck_less_than_20mt"/>
    <tag k="source" v="hot_iom_cosmha"/>
    <tag k="tank_num" v="1"/>
    <tag k="tap" v="yes"/>
    <tag k="tap_status" v="open"/>
    <tag k="toilet_med" v="11"/>
    <tag k="toilet_num" v="11"/>
    <tag k="well_num" v="1"/>
    <tag k="whs_unit" v="no"/>
  </way>
  <way id="48561372" version="12" timestamp="2011-04-24T22:45:38Z" uid="437141" user="hotbot" changeset="7957894">
    <nd ref="616831822"/>
    <nd ref="616831824"/>
    <nd ref="616831827"/>
    <nd ref="616831830"/>
    <nd ref="616831822"/>
    <tag k="2008_use" v="no"/>
    <tag k="2009_use" v="no"/>
    <tag k="2010_use" v="no"/>
    <tag k="addr:city" v="saint marc"/>
    <tag k="addr:country" v="HT"/>
    <tag k="addr:full" v="Artibonite_St Marc_blvd la liberte# 58"/>
    <tag k="addr:housenumber" v="58"/>
    <tag k="addr:street" v="Artibonite_St Marc_blvd la liberte"/>
    <tag k="attribute_source_date" v="12042011"/>
    <tag k="attribute_source_type" v="field_mission"/>
    <tag k="building" v="building_concrete"/>
    <tag k="building_roof_base_material" v="concrete"/>
    <tag k="building_status" v="good"/>
    <tag k="building_use" v="school"/>
    <tag k="cap_ind_g1" v="150"/>
    <tag k="cap_ind_g2" v="150"/>
    <tag k="cap_sm_g1" v="300"/>
    <tag k="capacity_area" v="500"/>
    <tag k="capacity_individuals" v="800"/>
    <tag k="conc_bldg" v="2"/>
    <tag k="contact_person" v="sr. jennifer calixte"/>
    <tag k="court" v="yes"/>
    <tag k="court_srf" v="dirt/sand"/>
    <tag k="damage_status" v="intact"/>
    <tag k="floodable" v="no"/>
    <tag k="flooded" v="no"/>
    <tag k="futur_use" v="yes"/>
    <tag k="geometry_source_date" v="12042011"/>
    <tag k="geometry_source_type" v="gps"/>
    <tag k="good_bldg" v="2"/>
    <tag k="hum_use" v="disaster_shelter"/>
    <tag k="id:db_shelter" v="A0489-AR-067"/>
    <tag k="kitchen" v="no"/>
    <tag k="name" v="ecole frere herve"/>
    <tag k="num_building" v="2"/>
    <tag k="op_status" v="open"/>
    <tag k="phone" v="3637-9508"/>
    <tag k="power_source" v="electricity_network"/>
    <tag k="prac" v="heavy_truck_less_than_20mt"/>
    <tag k="source" v="hot_iom_cosmha"/>
    <tag k="tank_num" v="1"/>
    <tag k="tap" v="yes"/>
    <tag k="tap_status" v="open"/>
    <tag k="toilet_med" v="11"/>
    <tag k="toilet_num" v="11"/>
    <tag k="well_num" v="1"/>
    <tag k="whs_unit" v="no"/>
  </way>
  <way id="48561372" version="13" timestamp="2011-04-24T22:47:43Z" uid="437141" user="hotbot" changeset="7957894">
    <nd ref="616831822"/>
    <nd ref="616831824"/>
    <nd ref="616831827"/>
    <nd ref="616831830"/>
    <nd ref="616831822"/>
    <tag k="2008_use" v="no"/>
    <tag k="2009_use" v="no"/>
    <tag k="2010_use" v="no"/>
    <tag k="addr:city" v="saint marc"/>
    <tag k="addr:country" v="HT"/>
    <tag k="addr:full" v="Artibonite_St Marc_blvd la liberte# 58"/>
    <tag k="addr:housenumber" v="58"/>
    <tag k="addr:street" v="Artibonite_St Marc_blvd la liberte"/>
    <tag k="attribute_source_date" v="12042011"/>
    <tag k="attribute_source_type" v="field_mission"/>
    <tag k="building" v="building_concrete"/>
    <tag k="building_roof_base_material" v="concrete"/>
    <tag k="building_status" v="good"/>
    <tag k="building_use" v="school"/>
    <tag k="cap_ind_g1" v="150"/>
    <tag k="cap_ind_g2" v="150"/>
    <tag k="cap_sm_g1" v="300"/>
    <tag k="capacity_area" v="500"/>
    <tag k="capacity_individuals" v="800"/>
    <tag k="conc_bldg" v="2"/>
    <tag k="contact_person" v="sr. jennifer calixte"/>
    <tag k="court" v="yes"/>
    <tag k="court_srf" v="dirt/sand"/>
    <tag k="damage_status" v="intact"/>
    <tag k="floodable" v="no"/>
    <tag k="flooded" v="no"/>
    <tag k="futur_use" v="yes"/>
    <tag k="geometry_source_date" v="12042011"/>
    <tag k="geometry_source_type" v="gps"/>
    <tag k="good_bldg" v="2"/>
    <tag k="hum_use" v="disaster_shelter"/>
    <tag k="id:db_shelter" v="A0489-AR-067"/>
    <tag k="kitchen" v="no"/>
    <tag k="name" v="ecole frere herve"/>
    <tag k="number_building" v="2"/>
    <tag k="op_status" v="open"/>
    <tag k="phone" v="3637-9508"/>
    <tag k="power_source" v="electricity_network"/>
    <tag k="prac" v="heavy_truck_less_than_20mt"/>
    <tag k="source" v="hot_iom_cosmha"/>
    <tag k="tank_num" v="1"/>
    <tag k="tap" v="yes"/>
    <tag k="tap_status" v="open"/>
    <tag k="toilet_med" v="11"/>
    <tag k="toilet_num" v="11"/>
    <tag k="well_num" v="1"/>
    <tag k="whs_unit" v="no"/>
  </way>
  <way id="48561372" version="14" timestamp="2011-04-25T12:16:58Z" uid="437141" user="hotbot" changeset="7962675">
    <nd ref="616831822"/>
    <nd ref="616831824"/>
    <nd ref="616831827"/>
    <nd ref="616831830"/>
    <nd ref="616831822"/>
    <tag k="2008_use" v="no"/>
    <tag k="2009_use" v="no"/>
    <tag k="2010_use" v="no"/>
    <tag k="addr:city" v="saint marc"/>
    <tag k="addr:country" v="HT"/>
    <tag k="addr:full" v="Artibonite_St Marc_blvd la liberte# 58"/>
    <tag k="addr:housenumber" v="58"/>
    <tag k="addr:street" v="Artibonite_St Marc_blvd la liberte"/>
    <tag k="attribute_source_date" v="12042011"/>
    <tag k="attribute_source_type" v="field_mission"/>
    <tag k="building" v="building_concrete"/>
    <tag k="building_roof_base_material" v="concrete"/>
    <tag k="building_status" v="good"/>
    <tag k="building_use" v="school"/>
    <tag k="cap_ind_g1" v="150"/>
    <tag k="cap_ind_g2" v="150"/>
    <tag k="cap_sm_g1" v="300"/>
    <tag k="capacity_area" v="500"/>
    <tag k="capacity_individuals" v="800"/>
    <tag k="conc_bldg" v="2"/>
    <tag k="contact_person" v="sr. jennifer calixte"/>
    <tag k="court" v="yes"/>
    <tag k="court_srf" v="dirt/sand"/>
    <tag k="damage_status" v="intact"/>
    <tag k="floodable" v="no"/>
    <tag k="flooded" v="no"/>
    <tag k="futur_use" v="yes"/>
    <tag k="geometry_source_date" v="12042011"/>
    <tag k="geometry_source_type" v="gps"/>
    <tag k="good_bldg" v="2"/>
    <tag k="hum_use" v="disaster_shelter"/>
    <tag k="id:db_shelter" v="A0489-AR-067"/>
    <tag k="kitchen" v="no"/>
    <tag k="name" v="ecole frere herve"/>
    <tag k="number_building" v="2"/>
    <tag k="op_status" v="open"/>
    <tag k="phone" v="3637-9508"/>
    <tag k="power_source" v="electricity_network"/>
    <tag k="prac" v="heavy_truck_less_than_20mt"/>
    <tag k="source" v="hot_iom_cosmha"/>
    <tag k="tank" v="1"/>
    <tag k="tap" v="yes"/>
    <tag k="tap_status" v="open"/>
    <tag k="toilet_med" v="11"/>
    <tag k="toilet_num" v="11"/>
    <tag k="well_num" v="1"/>
    <tag k="whs_unit" v="no"/>
  </way>
  <way id="48561372" version="15" timestamp="2011-04-25T12:57:29Z" uid="437141" user="hotbot" changeset="7963005">
    <nd ref="616831822"/>
    <nd ref="616831824"/>
    <nd ref="616831827"/>
    <nd ref="616831830"/>
    <nd ref="616831822"/>
    <tag k="2008_use" v="no"/>
    <tag k="2009_use" v="no"/>
    <tag k="2010_use" v="no"/>
    <tag k="addr:city" v="saint marc"/>
    <tag k="addr:country" v="HT"/>
    <tag k="addr:full" v="Artibonite_St Marc_blvd la liberte# 58"/>
    <tag k="addr:housenumber" v="58"/>
    <tag k="addr:street" v="Artibonite_St Marc_blvd la liberte"/>
    <tag k="attribute_source_date" v="12042011"/>
    <tag k="attribute_source_type" v="field_mission"/>
    <tag k="building" v="building_concrete"/>
    <tag k="building_concrete" v="2"/>
    <tag k="building_roof_base_material" v="concrete"/>
    <tag k="building_status" v="good"/>
    <tag k="building_use" v="school"/>
    <tag k="cap_ind_g1" v="150"/>
    <tag k="cap_ind_g2" v="150"/>
    <tag k="cap_sm_g1" v="300"/>
    <tag k="capacity_area" v="500"/>
    <tag k="capacity_individuals" v="800"/>
    <tag k="contact_person" v="sr. jennifer calixte"/>
    <tag k="court" v="yes"/>
    <tag k="court_srf" v="dirt/sand"/>
    <tag k="damage_status" v="intact"/>
    <tag k="floodable" v="no"/>
    <tag k="flooded" v="no"/>
    <tag k="futur_use" v="yes"/>
    <tag k="geometry_source_date" v="12042011"/>
    <tag k="geometry_source_type" v="gps"/>
    <tag k="good_bldg" v="2"/>
    <tag k="hum_use" v="disaster_shelter"/>
    <tag k="id:db_shelter" v="A0489-AR-067"/>
    <tag k="kitchen" v="no"/>
    <tag k="name" v="ecole frere herve"/>
    <tag k="number_building" v="2"/>
    <tag k="op_status" v="open"/>
    <tag k="phone" v="3637-9508"/>
    <tag k="power_source" v="electricity_network"/>
    <tag k="prac" v="heavy_truck_less_than_20mt"/>
    <tag k="source" v="hot_iom_cosmha"/>
    <tag k="tank" v="1"/>
    <tag k="tap" v="yes"/>
    <tag k="tap_status" v="open"/>
    <tag k="toilet_med" v="11"/>
    <tag k="toilet_num" v="11"/>
    <tag k="well_num" v="1"/>
    <tag k="whs_unit" v="no"/>
  </way>
  <way id="48561372" version="16" timestamp="2011-04-25T13:00:28Z" uid="437141" user="hotbot" changeset="7963005">
    <nd ref="616831822"/>
    <nd ref="616831824"/>
    <nd ref="616831827"/>
    <nd ref="616831830"/>
    <nd ref="616831822"/>
    <tag k="2008_use" v="no"/>
    <tag k="2009_use" v="no"/>
    <tag k="2010_use" v="no"/>
    <tag k="addr:city" v="saint marc"/>
    <tag k="addr:country" v="HT"/>
    <tag k="addr:full" v="Artibonite_St Marc_blvd la liberte# 58"/>
    <tag k="addr:housenumber" v="58"/>
    <tag k="addr:street" v="Artibonite_St Marc_blvd la liberte"/>
    <tag k="attribute_source_date" v="12042011"/>
    <tag k="attribute_source_type" v="field_mission"/>
    <tag k="building" v="building_concrete"/>
    <tag k="building_concrete" v="2"/>
    <tag k="building_roof_base_material" v="concrete"/>
    <tag k="building_status" v="good"/>
    <tag k="building_use" v="school"/>
    <tag k="cap_ind_g1" v="150"/>
    <tag k="cap_ind_g2" v="150"/>
    <tag k="cap_sm_g1" v="300"/>
    <tag k="capacity_area" v="500"/>
    <tag k="capacity_individuals" v="800"/>
    <tag k="contact_person" v="sr. jennifer calixte"/>
    <tag k="court" v="yes"/>
    <tag k="court_area" v="dirt/sand"/>
    <tag k="damage_status" v="intact"/>
    <tag k="floodable" v="no"/>
    <tag k="flooded" v="no"/>
    <tag k="futur_use" v="yes"/>
    <tag k="geometry_source_date" v="12042011"/>
    <tag k="geometry_source_type" v="gps"/>
    <tag k="good_bldg" v="2"/>
    <tag k="hum_use" v="disaster_shelter"/>
    <tag k="id:db_shelter" v="A0489-AR-067"/>
    <tag k="kitchen" v="no"/>
    <tag k="name" v="ecole frere herve"/>
    <tag k="number_building" v="2"/>
    <tag k="op_status" v="open"/>
    <tag k="phone" v="3637-9508"/>
    <tag k="power_source" v="electricity_network"/>
    <tag k="prac" v="heavy_truck_less_than_20mt"/>
    <tag k="source" v="hot_iom_cosmha"/>
    <tag k="tank" v="1"/>
    <tag k="tap" v="yes"/>
    <tag k="tap_status" v="open"/>
    <tag k="toilet_med" v="11"/>
    <tag k="toilet_num" v="11"/>
    <tag k="well_num" v="1"/>
    <tag k="whs_unit" v="no"/>
  </way>
  <way id="48561372" version="17" timestamp="2011-04-25T13:02:24Z" uid="437141" user="hotbot" changeset="7963005">
    <nd ref="616831822"/>
    <nd ref="616831824"/>
    <nd ref="616831827"/>
    <nd ref="616831830"/>
    <nd ref="616831822"/>
    <tag k="2008_use" v="no"/>
    <tag k="2009_use" v="no"/>
    <tag k="2010_use" v="no"/>
    <tag k="addr:city" v="saint marc"/>
    <tag k="addr:country" v="HT"/>
    <tag k="addr:full" v="Artibonite_St Marc_blvd la liberte# 58"/>
    <tag k="addr:housenumber" v="58"/>
    <tag k="addr:street" v="Artibonite_St Marc_blvd la liberte"/>
    <tag k="attribute_source_date" v="12042011"/>
    <tag k="attribute_source_type" v="field_mission"/>
    <tag k="building" v="building_concrete"/>
    <tag k="building_concrete" v="2"/>
    <tag k="building_good" v="2"/>
    <tag k="building_roof_base_material" v="concrete"/>
    <tag k="building_status" v="good"/>
    <tag k="building_use" v="school"/>
    <tag k="cap_ind_g1" v="150"/>
    <tag k="cap_ind_g2" v="150"/>
    <tag k="cap_sm_g1" v="300"/>
    <tag k="capacity_area" v="500"/>
    <tag k="capacity_individuals" v="800"/>
    <tag k="contact_person" v="sr. jennifer calixte"/>
    <tag k="court" v="yes"/>
    <tag k="court_area" v="dirt/sand"/>
    <tag k="damage_status" v="intact"/>
    <tag k="floodable" v="no"/>
    <tag k="flooded" v="no"/>
    <tag k="futur_use" v="yes"/>
    <tag k="geometry_source_date" v="12042011"/>
    <tag k="geometry_source_type" v="gps"/>
    <tag k="hum_use" v="disaster_shelter"/>
    <tag k="id:db_shelter" v="A0489-AR-067"/>
    <tag k="kitchen" v="no"/>
    <tag k="name" v="ecole frere herve"/>
    <tag k="number_building" v="2"/>
    <tag k="op_status" v="open"/>
    <tag k="phone" v="3637-9508"/>
    <tag k="power_source" v="electricity_network"/>
    <tag k="prac" v="heavy_truck_less_than_20mt"/>
    <tag k="source" v="hot_iom_cosmha"/>
    <tag k="tank" v="1"/>
    <tag k="tap" v="yes"/>
    <tag k="tap_status" v="open"/>
    <tag k="toilet_med" v="11"/>
    <tag k="toilet_num" v="11"/>
    <tag k="well_num" v="1"/>
    <tag k="whs_unit" v="no"/>
  </way>
  <way id="48561372" version="18" timestamp="2011-04-25T13:04:32Z" uid="437141" user="hotbot" changeset="7963005">
    <nd ref="616831822"/>
    <nd ref="616831824"/>
    <nd ref="616831827"/>
    <nd ref="616831830"/>
    <nd ref="616831822"/>
    <tag k="2008_use" v="no"/>
    <tag k="2009_use" v="no"/>
    <tag k="2010_use" v="no"/>
    <tag k="addr:city" v="saint marc"/>
    <tag k="addr:country" v="HT"/>
    <tag k="addr:full" v="Artibonite_St Marc_blvd la liberte# 58"/>
    <tag k="addr:housenumber" v="58"/>
    <tag k="addr:street" v="Artibonite_St Marc_blvd la liberte"/>
    <tag k="attribute_source_date" v="12042011"/>
    <tag k="attribute_source_type" v="field_mission"/>
    <tag k="building" v="building_concrete"/>
    <tag k="building_concrete" v="2"/>
    <tag k="building_good" v="2"/>
    <tag k="building_roof_base_material" v="concrete"/>
    <tag k="building_status" v="good"/>
    <tag k="building_use" v="school"/>
    <tag k="cap_ind_g1" v="150"/>
    <tag k="cap_ind_g2" v="150"/>
    <tag k="cap_sm_g1" v="300"/>
    <tag k="capacity_area" v="500"/>
    <tag k="capacity_individuals" v="800"/>
    <tag k="contact_person" v="sr. jennifer calixte"/>
    <tag k="court" v="yes"/>
    <tag k="court_area" v="dirt/sand"/>
    <tag k="damage_status" v="intact"/>
    <tag k="floodable" v="no"/>
    <tag k="flooded" v="no"/>
    <tag k="futur_use" v="yes"/>
    <tag k="geometry_source_date" v="12042011"/>
    <tag k="geometry_source_type" v="gps"/>
    <tag k="hum_use" v="disaster_shelter"/>
    <tag k="id:db_shelter" v="A0489-AR-067"/>
    <tag k="kitchen" v="no"/>
    <tag k="name" v="ecole frere herve"/>
    <tag k="number_building" v="2"/>
    <tag k="op_status" v="open"/>
    <tag k="phone" v="3637-9508"/>
    <tag k="power_source" v="electricity_network"/>
    <tag k="prac" v="heavy_truck_less_than_20mt"/>
    <tag k="source" v="hot_iom_cosmha"/>
    <tag k="tank" v="1"/>
    <tag k="tap" v="yes"/>
    <tag k="tap_status" v="open"/>
    <tag k="toilet_med" v="11"/>
    <tag k="toilet_num" v="11"/>
    <tag k="well" v="1"/>
    <tag k="whs_unit" v="no"/>
  </way>
  <way id="48561372" version="19" timestamp="2011-04-25T13:18:38Z" uid="437141" user="hotbot" changeset="7963332">
    <nd ref="616831822"/>
    <nd ref="616831824"/>
    <nd ref="616831827"/>
    <nd ref="616831830"/>
    <nd ref="616831822"/>
    <tag k="2008_use" v="no"/>
    <tag k="2009_use" v="no"/>
    <tag k="2010_use" v="no"/>
    <tag k="addr:city" v="saint marc"/>
    <tag k="addr:country" v="HT"/>
    <tag k="addr:full" v="Artibonite_St Marc_blvd la liberte# 58"/>
    <tag k="addr:housenumber" v="58"/>
    <tag k="addr:street" v="Artibonite_St Marc_blvd la liberte"/>
    <tag k="attribute_source_date" v="12042011"/>
    <tag k="attribute_source_type" v="field_mission"/>
    <tag k="building" v="building_concrete"/>
    <tag k="building_concrete" v="2"/>
    <tag k="building_good" v="2"/>
    <tag k="building_roof_base_material" v="concrete"/>
    <tag k="building_status" v="good"/>
    <tag k="building_use" v="school"/>
    <tag k="cap_ind_g1" v="150"/>
    <tag k="cap_ind_g2" v="150"/>
    <tag k="cap_sm_g1" v="300"/>
    <tag k="capacity_area" v="500"/>
    <tag k="capacity_individuals" v="800"/>
    <tag k="contact_person" v="sr. jennifer calixte"/>
    <tag k="court" v="yes"/>
    <tag k="court_area" v="dirt/sand"/>
    <tag k="damage_status" v="intact"/>
    <tag k="floodable" v="no"/>
    <tag k="flooded" v="no"/>
    <tag k="futur_use" v="yes"/>
    <tag k="geometry_source_date" v="12042011"/>
    <tag k="geometry_source_type" v="gps"/>
    <tag k="hum_use" v="disaster_shelter"/>
    <tag k="id:db_shelter" v="A0489-AR-067"/>
    <tag k="kitchen" v="no"/>
    <tag k="name" v="ecole frere herve"/>
    <tag k="number_building" v="2"/>
    <tag k="operational_status" v="open"/>
    <tag k="phone" v="3637-9508"/>
    <tag k="power_source" v="electricity_network"/>
    <tag k="prac" v="heavy_truck_less_than_20mt"/>
    <tag k="source" v="hot_iom_cosmha"/>
    <tag k="tank" v="1"/>
    <tag k="tap" v="yes"/>
    <tag k="tap_status" v="open"/>
    <tag k="toilet_med" v="11"/>
    <tag k="toilet_num" v="11"/>
    <tag k="well" v="1"/>
    <tag k="whs_unit" v="no"/>
  </way>
  <way id="48561372" version="20" timestamp="2011-04-25T15:36:16Z" uid="437141" user="hotbot" changeset="7964772">
    <nd ref="616831822"/>
    <nd ref="616831824"/>
    <nd ref="616831827"/>
    <nd ref="616831830"/>
    <nd ref="616831822"/>
    <tag k="2008_use" v="no"/>
    <tag k="2009_use" v="no"/>
    <tag k="2010_use" v="no"/>
    <tag k="addr:city" v="saint marc"/>
    <tag k="addr:country" v="HT"/>
    <tag k="addr:full" v="Artibonite_St Marc_blvd la liberte# 58"/>
    <tag k="addr:housenumber" v="58"/>
    <tag k="addr:street" v="Artibonite_St Marc_blvd la liberte"/>
    <tag k="attribute_source_date" v="12042011"/>
    <tag k="attribute_source_type" v="field_mission"/>
    <tag k="building" v="building_concrete"/>
    <tag k="building_concrete" v="2"/>
    <tag k="building_good" v="2"/>
    <tag k="building_roof_base_material" v="concrete"/>
    <tag k="building_status" v="good"/>
    <tag k="building_use" v="school"/>
    <tag k="cap_ind_g1" v="150"/>
    <tag k="cap_ind_g2" v="150"/>
    <tag k="cap_sm_g1" v="300"/>
    <tag k="capacity_area" v="500"/>
    <tag k="capacity_individuals" v="800"/>
    <tag k="contact_person" v="sr. jennifer calixte"/>
    <tag k="court" v="yes"/>
    <tag k="court_area" v="dirt/sand"/>
    <tag k="damage_status" v="intact"/>
    <tag k="floodable" v="no"/>
    <tag k="flooded" v="no"/>
    <tag k="futur_use" v="yes"/>
    <tag k="geometry_source_date" v="12042011"/>
    <tag k="geometry_source_type" v="gps"/>
    <tag k="humanitarian_use" v="disaster_shelter"/>
    <tag k="id:db_shelter" v="A0489-AR-067"/>
    <tag k="kitchen" v="no"/>
    <tag k="name" v="ecole frere herve"/>
    <tag k="number_building" v="2"/>
    <tag k="operational_status" v="open"/>
    <tag k="phone" v="3637-9508"/>
    <tag k="power_source" v="electricity_network"/>
    <tag k="prac" v="heavy_truck_less_than_20mt"/>
    <tag k="source" v="hot_iom_cosmha"/>
    <tag k="tank" v="1"/>
    <tag k="tap" v="yes"/>
    <tag k="tap_status" v="open"/>
    <tag k="toilet_med" v="11"/>
    <tag k="toilet_num" v="11"/>
    <tag k="well" v="1"/>
    <tag k="whs_unit" v="no"/>
  </way>
  <way id="48561372" version="21" timestamp="2011-04-27T07:19:09Z" uid="437141" user="hotbot" changeset="7982039">
    <nd ref="616831822"/>
    <nd ref="616831824"/>
    <nd ref="616831827"/>
    <nd ref="616831830"/>
    <nd ref="616831822"/>
    <tag k="2008_use" v="no"/>
    <tag k="2009_use" v="no"/>
    <tag k="2010_use" v="no"/>
    <tag k="addr:city" v="saint marc"/>
    <tag k="addr:country" v="HT"/>
    <tag k="addr:full" v="Artibonite_St Marc_blvd la liberte# 58"/>
    <tag k="addr:housenumber" v="58"/>
    <tag k="addr:street" v="Artibonite_St Marc_blvd la liberte"/>
    <tag k="attribute_source_date" v="12042011"/>
    <tag k="attribute_source_type" v="field_mission"/>
    <tag k="building" v="building_concrete"/>
    <tag k="building_concrete" v="2"/>
    <tag k="building_good" v="2"/>
    <tag k="building_roof_base_material" v="concrete"/>
    <tag k="building_status" v="good"/>
    <tag k="building_use" v="school"/>
    <tag k="cap_ind_g1" v="150"/>
    <tag k="cap_ind_g2" v="150"/>
    <tag k="cap_sm_g1" v="300"/>
    <tag k="capacity_area" v="500"/>
    <tag k="capacity_individuals" v="800"/>
    <tag k="contact_person" v="sr. jennifer calixte"/>
    <tag k="court" v="yes"/>
    <tag k="court_area" v="dirt/sand"/>
    <tag k="damage_status" v="intact"/>
    <tag k="floodable" v="no"/>
    <tag k="flooded" v="no"/>
    <tag k="futur_use" v="yes"/>
    <tag k="geometry_source_date" v="12042011"/>
    <tag k="geometry_source_type" v="gps"/>
    <tag k="humanitarian_use" v="disaster_shelter"/>
    <tag k="id:db_shelter" v="A0489-AR-067"/>
    <tag k="kitchen" v="no"/>
    <tag k="name" v="ecole frere herve"/>
    <tag k="number_building" v="2"/>
    <tag k="operational_status" v="open"/>
    <tag k="phone" v="3637-9508"/>
    <tag k="power_source" v="electricity_network"/>
    <tag k="prac" v="heavy_truck_less_than_20mt"/>
    <tag k="source" v="hot_iom_cosmha"/>
    <tag k="tank" v="1"/>
    <tag k="tap" v="yes"/>
    <tag k="tap_status" v="open"/>
    <tag k="toilet_medium" v="11"/>
    <tag k="toilet_num" v="11"/>
    <tag k="well" v="1"/>
    <tag k="whs_unit" v="no"/>
  </way>
  <way id="48561372" version="22" timestamp="2011-04-27T07:21:07Z" uid="437141" user="hotbot" changeset="7982039">
    <nd ref="616831822"/>
    <nd ref="616831824"/>
    <nd ref="616831827"/>
    <nd ref="616831830"/>
    <nd ref="616831822"/>
    <tag k="2008_use" v="no"/>
    <tag k="2009_use" v="no"/>
    <tag k="2010_use" v="no"/>
    <tag k="addr:city" v="saint marc"/>
    <tag k="addr:country" v="HT"/>
    <tag k="addr:full" v="Artibonite_St Marc_blvd la liberte# 58"/>
    <tag k="addr:housenumber" v="58"/>
    <tag k="addr:street" v="Artibonite_St Marc_blvd la liberte"/>
    <tag k="attribute_source_date" v="12042011"/>
    <tag k="attribute_source_type" v="field_mission"/>
    <tag k="building" v="building_concrete"/>
    <tag k="building_concrete" v="2"/>
    <tag k="building_good" v="2"/>
    <tag k="building_roof_base_material" v="concrete"/>
    <tag k="building_status" v="good"/>
    <tag k="building_use" v="school"/>
    <tag k="cap_ind_g1" v="150"/>
    <tag k="cap_ind_g2" v="150"/>
    <tag k="cap_sm_g1" v="300"/>
    <tag k="capacity_area" v="500"/>
    <tag k="capacity_individuals" v="800"/>
    <tag k="contact_person" v="sr. jennifer calixte"/>
    <tag k="court" v="yes"/>
    <tag k="court_area" v="dirt/sand"/>
    <tag k="damage_status" v="intact"/>
    <tag k="floodable" v="no"/>
    <tag k="flooded" v="no"/>
    <tag k="futur_use" v="yes"/>
    <tag k="geometry_source_date" v="12042011"/>
    <tag k="geometry_source_type" v="gps"/>
    <tag k="humanitarian_use" v="disaster_shelter"/>
    <tag k="id:db_shelter" v="A0489-AR-067"/>
    <tag k="kitchen" v="no"/>
    <tag k="name" v="ecole frere herve"/>
    <tag k="number_building" v="2"/>
    <tag k="operational_status" v="open"/>
    <tag k="phone" v="3637-9508"/>
    <tag k="power_source" v="electricity_network"/>
    <tag k="prac" v="heavy_truck_less_than_20mt"/>
    <tag k="source" v="hot_iom_cosmha"/>
    <tag k="tank" v="1"/>
    <tag k="tap" v="yes"/>
    <tag k="tap_status" v="open"/>
    <tag k="toilet_medium" v="11"/>
    <tag k="toilet_num" v="11"/>
    <tag k="warehouse_unit" v="no"/>
    <tag k="well" v="1"/>
  </way>
  <way id="48561372" version="23" timestamp="2011-04-27T20:03:48Z" uid="437141" user="hotbot" changeset="7988796">
    <nd ref="616831822"/>
    <nd ref="616831824"/>
    <nd ref="616831827"/>
    <nd ref="616831830"/>
    <nd ref="616831822"/>
    <tag k="2008_use" v="no"/>
    <tag k="2009_use" v="no"/>
    <tag k="2010_use" v="no"/>
    <tag k="addr:city" v="saint marc"/>
    <tag k="addr:country" v="HT"/>
    <tag k="addr:full" v="Artibonite_St Marc_blvd la liberte# 58"/>
    <tag k="addr:housenumber" v="58"/>
    <tag k="addr:street" v="Artibonite_St Marc_blvd la liberte"/>
    <tag k="attribute_source_date" v="12042011"/>
    <tag k="attribute_source_type" v="field_mission"/>
    <tag k="building" v="building_concrete"/>
    <tag k="building_concrete" v="2"/>
    <tag k="building_good" v="2"/>
    <tag k="building_roof_base_material" v="concrete"/>
    <tag k="building_status" v="good"/>
    <tag k="building_use" v="school"/>
    <tag k="cap_ind_g2" v="150"/>
    <tag k="cap_sm_g1" v="300"/>
    <tag k="capacity_area" v="500"/>
    <tag k="capacity_individuals" v="800"/>
    <tag k="capacity_individuals_building_level_1" v="150"/>
    <tag k="contact_person" v="sr. jennifer calixte"/>
    <tag k="court" v="yes"/>
    <tag k="court_area" v="dirt/sand"/>
    <tag k="damage_status" v="intact"/>
    <tag k="floodable" v="no"/>
    <tag k="flooded" v="no"/>
    <tag k="futur_use" v="yes"/>
    <tag k="geometry_source_date" v="12042011"/>
    <tag k="geometry_source_type" v="gps"/>
    <tag k="humanitarian_use" v="disaster_shelter"/>
    <tag k="id:db_shelter" v="A0489-AR-067"/>
    <tag k="kitchen" v="no"/>
    <tag k="name" v="ecole frere herve"/>
    <tag k="number_building" v="2"/>
    <tag k="operational_status" v="open"/>
    <tag k="phone" v="3637-9508"/>
    <tag k="power_source" v="electricity_network"/>
    <tag k="prac" v="heavy_truck_less_than_20mt"/>
    <tag k="source" v="hot_iom_cosmha"/>
    <tag k="tank" v="1"/>
    <tag k="tap" v="yes"/>
    <tag k="tap_status" v="open"/>
    <tag k="toilet_medium" v="11"/>
    <tag k="toilet_num" v="11"/>
    <tag k="warehouse_unit" v="no"/>
    <tag k="well" v="1"/>
  </way>
  <way id="48561372" version="24" timestamp="2011-04-27T20:04:50Z" uid="437141" user="hotbot" changeset="7988796">
    <nd ref="616831822"/>
    <nd ref="616831824"/>
    <nd ref="616831827"/>
    <nd ref="616831830"/>
    <nd ref="616831822"/>
    <tag k="2008_use" v="no"/>
    <tag k="2009_use" v="no"/>
    <tag k="2010_use" v="no"/>
    <tag k="addr:city" v="saint marc"/>
    <tag k="addr:country" v="HT"/>
    <tag k="addr:full" v="Artibonite_St Marc_blvd la liberte# 58"/>
    <tag k="addr:housenumber" v="58"/>
    <tag k="addr:street" v="Artibonite_St Marc_blvd la liberte"/>
    <tag k="attribute_source_date" v="12042011"/>
    <tag k="attribute_source_type" v="field_mission"/>
    <tag k="building" v="building_concrete"/>
    <tag k="building_concrete" v="2"/>
    <tag k="building_good" v="2"/>
    <tag k="building_roof_base_material" v="concrete"/>
    <tag k="building_status" v="good"/>
    <tag k="building_use" v="school"/>
    <tag k="cap_sm_g1" v="300"/>
    <tag k="capacity_area" v="500"/>
    <tag k="capacity_individuals" v="800"/>
    <tag k="capacity_individuals_building_level_1" v="150"/>
    <tag k="capacity_individuals_building_level_2" v="150"/>
    <tag k="contact_person" v="sr. jennifer calixte"/>
    <tag k="court" v="yes"/>
    <tag k="court_area" v="dirt/sand"/>
    <tag k="damage_status" v="intact"/>
    <tag k="floodable" v="no"/>
    <tag k="flooded" v="no"/>
    <tag k="futur_use" v="yes"/>
    <tag k="geometry_source_date" v="12042011"/>
    <tag k="geometry_source_type" v="gps"/>
    <tag k="humanitarian_use" v="disaster_shelter"/>
    <tag k="id:db_shelter" v="A0489-AR-067"/>
    <tag k="kitchen" v="no"/>
    <tag k="name" v="ecole frere herve"/>
    <tag k="number_building" v="2"/>
    <tag k="operational_status" v="open"/>
    <tag k="phone" v="3637-9508"/>
    <tag k="power_source" v="electricity_network"/>
    <tag k="prac" v="heavy_truck_less_than_20mt"/>
    <tag k="source" v="hot_iom_cosmha"/>
    <tag k="tank" v="1"/>
    <tag k="tap" v="yes"/>
    <tag k="tap_status" v="open"/>
    <tag k="toilet_medium" v="11"/>
    <tag k="toilet_num" v="11"/>
    <tag k="warehouse_unit" v="no"/>
    <tag k="well" v="1"/>
  </way>
  <way id="48561372" version="25" timestamp="2011-04-27T20:05:28Z" uid="437141" user="hotbot" changeset="7988796">
    <nd ref="616831822"/>
    <nd ref="616831824"/>
    <nd ref="616831827"/>
    <nd ref="616831830"/>
    <nd ref="616831822"/>
    <tag k="2008_use" v="no"/>
    <tag k="2009_use" v="no"/>
    <tag k="2010_use" v="no"/>
    <tag k="addr:city" v="saint marc"/>
    <tag k="addr:country" v="HT"/>
    <tag k="addr:full" v="Artibonite_St Marc_blvd la liberte# 58"/>
    <tag k="addr:housenumber" v="58"/>
    <tag k="addr:street" v="Artibonite_St Marc_blvd la liberte"/>
    <tag k="attribute_source_date" v="12042011"/>
    <tag k="attribute_source_type" v="field_mission"/>
    <tag k="building" v="building_concrete"/>
    <tag k="building_concrete" v="2"/>
    <tag k="building_good" v="2"/>
    <tag k="building_roof_base_material" v="concrete"/>
    <tag k="building_status" v="good"/>
    <tag k="building_use" v="school"/>
    <tag k="capacity_area" v="500"/>
    <tag k="capacity_area_building_level_1" v="300"/>
    <tag k="capacity_individuals" v="800"/>
    <tag k="capacity_individuals_building_level_1" v="150"/>
    <tag k="capacity_individuals_building_level_2" v="150"/>
    <tag k="contact_person" v="sr. jennifer calixte"/>
    <tag k="court" v="yes"/>
    <tag k="court_area" v="dirt/sand"/>
    <tag k="damage_status" v="intact"/>
    <tag k="floodable" v="no"/>
    <tag k="flooded" v="no"/>
    <tag k="futur_use" v="yes"/>
    <tag k="geometry_source_date" v="12042011"/>
    <tag k="geometry_source_type" v="gps"/>
    <tag k="humanitarian_use" v="disaster_shelter"/>
    <tag k="id:db_shelter" v="A0489-AR-067"/>
    <tag k="kitchen" v="no"/>
    <tag k="name" v="ecole frere herve"/>
    <tag k="number_building" v="2"/>
    <tag k="operational_status" v="open"/>
    <tag k="phone" v="3637-9508"/>
    <tag k="power_source" v="electricity_network"/>
    <tag k="prac" v="heavy_truck_less_than_20mt"/>
    <tag k="source" v="hot_iom_cosmha"/>
    <tag k="tank" v="1"/>
    <tag k="tap" v="yes"/>
    <tag k="tap_status" v="open"/>
    <tag k="toilet_medium" v="11"/>
    <tag k="toilet_num" v="11"/>
    <tag k="warehouse_unit" v="no"/>
    <tag k="well" v="1"/>
  </way>
  <way id="48561372" version="26" timestamp="2011-04-27T20:06:00Z" uid="437141" user="hotbot" changeset="7988796">
    <nd ref="616831822"/>
    <nd ref="616831824"/>
    <nd ref="616831827"/>
    <nd ref="616831830"/>
    <nd ref="616831822"/>
    <tag k="2008_use" v="no"/>
    <tag k="2009_use" v="no"/>
    <tag k="2010_use" v="no"/>
    <tag k="addr:city" v="saint marc"/>
    <tag k="addr:country" v="HT"/>
    <tag k="addr:full" v="Artibonite_St Marc_blvd la liberte# 58"/>
    <tag k="addr:housenumber" v="58"/>
    <tag k="addr:street" v="Artibonite_St Marc_blvd la liberte"/>
    <tag k="attribute_source_date" v="12042011"/>
    <tag k="attribute_source_type" v="field_mission"/>
    <tag k="building" v="building_concrete"/>
    <tag k="building_concrete" v="2"/>
    <tag k="building_good" v="2"/>
    <tag k="building_roof_base_material" v="concrete"/>
    <tag k="building_status" v="good"/>
    <tag k="building_use" v="school"/>
    <tag k="capacity_area" v="500"/>
    <tag k="capacity_area_building_level_1" v="300"/>
    <tag k="capacity_individuals" v="800"/>
    <tag k="capacity_individuals_building_level_1" v="150"/>
    <tag k="capacity_individuals_building_level_2" v="150"/>
    <tag k="contact_person" v="sr. jennifer calixte"/>
    <tag k="court" v="yes"/>
    <tag k="court_area" v="dirt/sand"/>
    <tag k="damage_status" v="intact"/>
    <tag k="floodable" v="no"/>
    <tag k="flooded" v="no"/>
    <tag k="futur_use" v="yes"/>
    <tag k="geometry_source_date" v="12042011"/>
    <tag k="geometry_source_type" v="gps"/>
    <tag k="humanitarian_use" v="disaster_shelter"/>
    <tag k="id:db_shelter" v="A0489-AR-067"/>
    <tag k="kitchen" v="no"/>
    <tag k="name" v="ecole frere herve"/>
    <tag k="number_building" v="2"/>
    <tag k="operational_status" v="open"/>
    <tag k="phone" v="3637-9508"/>
    <tag k="power_source" v="electricity_network"/>
    <tag k="prac" v="heavy_truck_less_than_20mt"/>
    <tag k="source" v="hot_iom_cosmha"/>
    <tag k="tank" v="1"/>
    <tag k="tap" v="yes"/>
    <tag k="tap_status" v="open"/>
    <tag k="toilet" v="11"/>
    <tag k="toilet_medium" v="11"/>
    <tag k="warehouse_unit" v="no"/>
    <tag k="well" v="1"/>
  </way>
  <way id="48561372" version="27" timestamp="2012-01-21T17:56:10Z" uid="428590" user="eustache70" changeset="10458019">
    <nd ref="616831822"/>
    <nd ref="616831824"/>
    <nd ref="616831827"/>
    <nd ref="616831830"/>
    <nd ref="616831822"/>
    <tag k="2008_use" v="no"/>
    <tag k="2009_use" v="no"/>
    <tag k="2010_use" v="no"/>
    <tag k="OTI_HRI_COSMHA_project" v="STM020"/>
    <tag k="OTI_HRI_COSMHA_project:surveyor_name" v="Hugo Eustache"/>
    <tag k="addr:city" v="saint marc"/>
    <tag k="addr:country" v="HT"/>
    <tag k="addr:full" v="Artibonite_St Marc_blvd la liberte# 58"/>
    <tag k="addr:housenumber" v="58"/>
    <tag k="addr:street" v="Artibonite_St Marc_blvd la liberte"/>
    <tag k="attribute_source_date" v="12042011"/>
    <tag k="attribute_source_type" v="field_mission"/>
    <tag k="building" v="school"/>
    <tag k="building_base_material:concrete" v="yes"/>
    <tag k="building_concrete" v="2"/>
    <tag k="building_good" v="2"/>
    <tag k="building_roof_base_material" v="concrete"/>
    <tag k="building_roof_material:concrete" v="yes"/>
    <tag k="building_status" v="good"/>
    <tag k="building_use" v="school"/>
    <tag k="capacity_area" v="500"/>
    <tag k="capacity_area_building_level_1" v="300"/>
    <tag k="capacity_individuals" v="800"/>
    <tag k="capacity_individuals_building_level_1" v="150"/>
    <tag k="capacity_individuals_building_level_2" v="150"/>
    <tag k="contact_person" v="sr. jennifer calixte"/>
    <tag k="court" v="yes"/>
    <tag k="court_area" v="dirt/sand"/>
    <tag k="damage_status" v="intact"/>
    <tag k="floodable" v="no"/>
    <tag k="flooded" v="no"/>
    <tag k="futur_use" v="yes"/>
    <tag k="geometry_source_date" v="12042011"/>
    <tag k="geometry_source_type" v="gps"/>
    <tag k="humanitarian_use" v="disaster_shelter"/>
    <tag k="id:db_shelter" v="A0489-AR-067"/>
    <tag k="kitchen" v="no"/>
    <tag k="name" v="ecole frere herve"/>
    <tag k="number_building" v="2"/>
    <tag k="operational_status" v="open"/>
    <tag k="phone" v="3637-9508"/>
    <tag k="power_source" v="electricity_network"/>
    <tag k="prac" v="heavy_truck_less_than_20mt"/>
    <tag k="source" v="hot_iom_cosmha"/>
    <tag k="source_date" v="19/01/2012"/>
    <tag k="source_type_GPS" v="yes"/>
    <tag k="source_type_field_mission" v="yes"/>
    <tag k="source_type_imagery" v="yes"/>
    <tag k="tank" v="1"/>
    <tag k="tap" v="yes"/>
    <tag k="tap_status" v="open"/>
    <tag k="toilet" v="11"/>
    <tag k="toilet_medium" v="11"/>
    <tag k="warehouse_unit" v="no"/>
    <tag k="well" v="1"/>
  </way>
  <way id="48561372" version="28" timestamp="2012-01-31T03:40:33Z" uid="587569" user="sylvioynouis" changeset="10546036">
    <nd ref="616831822"/>
    <nd ref="616831824"/>
    <nd ref="616831827"/>
    <nd ref="616831830"/>
    <nd ref="1612653527"/>
    <nd ref="616831822"/>
    <tag k="2008_use" v="no"/>
    <tag k="2009_use" v="no"/>
    <tag k="2010_use" v="no"/>
    <tag k="OTI_HRI_COSMHA_project" v="STM020"/>
    <tag k="OTI_HRI_COSMHA_project:surveyor_name" v="Hugo Eustache"/>
    <tag k="addr:city" v="saint marc"/>
    <tag k="addr:country" v="HT"/>
    <tag k="addr:full" v="Artibonite_St Marc_blvd la liberte# 58"/>
    <tag k="addr:housenumber" v="58"/>
    <tag k="addr:street" v="Artibonite_St Marc_blvd la liberte"/>
    <tag k="attribute_source_date" v="12042011"/>
    <tag k="attribute_source_type" v="field_mission"/>
    <tag k="building" v="school"/>
    <tag k="building_base_material:concrete" v="yes"/>
    <tag k="building_concrete" v="2"/>
    <tag k="building_good" v="2"/>
    <tag k="building_roof_base_material" v="concrete"/>
    <tag k="building_roof_material:concrete" v="yes"/>
    <tag k="building_status" v="good"/>
    <tag k="building_use" v="school"/>
    <tag k="capacity_area" v="500"/>
    <tag k="capacity_area_building_level_1" v="300"/>
    <tag k="capacity_individuals" v="800"/>
    <tag k="capacity_individuals_building_level_1" v="150"/>
    <tag k="capacity_individuals_building_level_2" v="150"/>
    <tag k="contact_person" v="sr. jennifer calixte"/>
    <tag k="court" v="yes"/>
    <tag k="court_area" v="dirt/sand"/>
    <tag k="damage_status" v="intact"/>
    <tag k="floodable" v="no"/>
    <tag k="flooded" v="no"/>
    <tag k="futur_use" v="yes"/>
    <tag k="geometry_source_date" v="12042011"/>
    <tag k="geometry_source_type" v="gps"/>
    <tag k="humanitarian_use" v="disaster_shelter"/>
    <tag k="id:db_shelter" v="A0489-AR-067"/>
    <tag k="kitchen" v="no"/>
    <tag k="name" v="ecole frere herve"/>
    <tag k="number_building" v="2"/>
    <tag k="operational_status" v="open"/>
    <tag k="phone" v="3637-9508"/>
    <tag k="power_source" v="electricity_network"/>
    <tag k="prac" v="heavy_truck_less_than_20mt"/>
    <tag k="source" v="hot_iom_cosmha"/>
    <tag k="source_date" v="19/01/2012"/>
    <tag k="source_type_GPS" v="yes"/>
    <tag k="source_type_field_mission" v="yes"/>
    <tag k="source_type_imagery" v="yes"/>
    <tag k="tank" v="1"/>
    <tag k="tap" v="yes"/>
    <tag k="tap_status" v="open"/>
    <tag k="toilet" v="11"/>
    <tag k="toilet_medium" v="11"/>
    <tag k="warehouse_unit" v="no"/>
    <tag k="well" v="1"/>
  </way>
  <way id="48561372" version="29" timestamp="2012-02-14T03:02:36Z" uid="219668" user="severinmenard" changeset="10679568">
    <nd ref="616831822"/>
    <nd ref="616831824"/>
    <nd ref="616831827"/>
    <nd ref="616831830"/>
    <nd ref="1612653527"/>
    <nd ref="616831822"/>
    <tag k="2008_use" v="no"/>
    <tag k="2009_use" v="no"/>
    <tag k="2010_use" v="no"/>
    <tag k="addr:city" v="saint marc"/>
    <tag k="addr:country" v="HT"/>
    <tag k="addr:full" v="Artibonite_St Marc_blvd la liberte# 58"/>
    <tag k="addr:housenumber" v="58"/>
    <tag k="addr:street" v="Artibonite_St Marc_blvd la liberte"/>
    <tag k="attribute_source_date" v="12042011"/>
    <tag k="attribute_source_type" v="field_mission"/>
    <tag k="building" v="school"/>
    <tag k="building_base_material:concrete" v="yes"/>
    <tag k="building_concrete" v="2"/>
    <tag k="building_good" v="2"/>
    <tag k="building_roof_base_material" v="concrete"/>
    <tag k="building_roof_material:concrete" v="yes"/>
    <tag k="building_status" v="good"/>
    <tag k="building_use" v="school"/>
    <tag k="capacity_area" v="500"/>
    <tag k="capacity_area_building_level_1" v="300"/>
    <tag k="capacity_individuals" v="800"/>
    <tag k="capacity_individuals_building_level_1" v="150"/>
    <tag k="capacity_individuals_building_level_2" v="150"/>
    <tag k="contact_person" v="sr. jennifer calixte"/>
    <tag k="cosmha" v="yes"/>
    <tag k="court" v="yes"/>
    <tag k="court_area" v="dirt/sand"/>
    <tag k="damage_status" v="intact"/>
    <tag k="floodable" v="no"/>
    <tag k="flooded" v="no"/>
    <tag k="futur_use" v="yes"/>
    <tag k="geometry_source_date" v="12042011"/>
    <tag k="geometry_source_type" v="gps"/>
    <tag k="humanitarian_use" v="disaster_shelter"/>
    <tag k="id:db_shelter" v="A0489-AR-067"/>
    <tag k="kitchen" v="no"/>
    <tag k="name" v="ecole frere herve"/>
    <tag k="number_building" v="2"/>
    <tag k="operational_status" v="open"/>
    <tag k="phone" v="3637-9508"/>
    <tag k="power_source" v="electricity_network"/>
    <tag k="prac" v="heavy_truck_less_than_20mt"/>
    <tag k="project" v="OTI_HRI_COSMHA_STM020"/>
    <tag k="source" v="hot_iom_cosmha"/>
    <tag k="source_date" v="19/01/2012"/>
    <tag k="source_type_GPS" v="yes"/>
    <tag k="source_type_field_mission" v="yes"/>
    <tag k="source_type_imagery" v="yes"/>
    <tag k="tank" v="1"/>
    <tag k="tap" v="yes"/>
    <tag k="tap_status" v="open"/>
    <tag k="toilet" v="11"/>
    <tag k="toilet_medium" v="11"/>
    <tag k="warehouse_unit" v="no"/>
    <tag k="well" v="1"/>
  </way>
  <way id="48561372" version="30" timestamp="2012-02-29T23:43:04Z" uid="587569" user="sylvioynouis" changeset="10833597">
    <nd ref="616831822"/>
    <nd ref="616831824"/>
    <nd ref="1653684740"/>
    <nd ref="616831827"/>
    <nd ref="616831830"/>
    <nd ref="1612653527"/>
    <nd ref="1653684741"/>
    <nd ref="616831822"/>
    <tag k="2008_use" v="no"/>
    <tag k="2009_use" v="no"/>
    <tag k="2010_use" v="no"/>
    <tag k="addr:city" v="saint marc"/>
    <tag k="addr:country" v="HT"/>
    <tag k="addr:full" v="Artibonite_St Marc_blvd la liberte# 58"/>
    <tag k="addr:housenumber" v="58"/>
    <tag k="addr:street" v="Artibonite_St Marc_blvd la liberte"/>
    <tag k="attribute_source_date" v="12042011"/>
    <tag k="attribute_source_type" v="field_mission"/>
    <tag k="building" v="school"/>
    <tag k="building_base_material:concrete" v="yes"/>
    <tag k="building_concrete" v="2"/>
    <tag k="building_good" v="2"/>
    <tag k="building_roof_base_material" v="concrete"/>
    <tag k="building_roof_material:concrete" v="yes"/>
    <tag k="building_status" v="good"/>
    <tag k="building_use" v="school"/>
    <tag k="capacity_area" v="500"/>
    <tag k="capacity_area_building_level_1" v="300"/>
    <tag k="capacity_individuals" v="800"/>
    <tag k="capacity_individuals_building_level_1" v="150"/>
    <tag k="capacity_individuals_building_level_2" v="150"/>
    <tag k="contact_person" v="sr. jennifer calixte"/>
    <tag k="cosmha" v="yes"/>
    <tag k="court" v="yes"/>
    <tag k="court_area" v="dirt/sand"/>
    <tag k="damage_status" v="intact"/>
    <tag k="floodable" v="no"/>
    <tag k="flooded" v="no"/>
    <tag k="futur_use" v="yes"/>
    <tag k="geometry_source_date" v="12042011"/>
    <tag k="geometry_source_type" v="gps"/>
    <tag k="humanitarian_use" v="disaster_shelter"/>
    <tag k="id:db_shelter" v="A0489-AR-067"/>
    <tag k="kitchen" v="no"/>
    <tag k="name" v="ecole frere herve"/>
    <tag k="number_building" v="2"/>
    <tag k="operational_status" v="open"/>
    <tag k="phone" v="3637-9508"/>
    <tag k="power_source" v="electricity_network"/>
    <tag k="prac" v="heavy_truck_less_than_20mt"/>
    <tag k="project" v="OTI_HRI_COSMHA_STM020"/>
    <tag k="source" v="hot_iom_cosmha"/>
    <tag k="source_date" v="19/01/2012"/>
    <tag k="source_type_GPS" v="yes"/>
    <tag k="source_type_field_mission" v="yes"/>
    <tag k="source_type_imagery" v="yes"/>
    <tag k="tank" v="1"/>
    <tag k="tap" v="yes"/>
    <tag k="tap_status" v="open"/>
    <tag k="toilet" v="11"/>
    <tag k="toilet_medium" v="11"/>
    <tag k="warehouse_unit" v="no"/>
    <tag k="well" v="1"/>
  </way>
  <way id="48561372" version="31" timestamp="2012-03-01T18:00:03Z" uid="508946" user="Adler Salvador" changeset="10840498">
    <nd ref="616831822"/>
    <nd ref="616831824"/>
    <nd ref="616831827"/>
    <nd ref="616831830"/>
    <nd ref="1653684741"/>
    <nd ref="616831822"/>
    <tag k="2008_use" v="no"/>
    <tag k="2009_use" v="no"/>
    <tag k="2010_use" v="no"/>
    <tag k="addr:city" v="saint marc"/>
    <tag k="addr:country" v="HT"/>
    <tag k="addr:full" v="Artibonite_St Marc_blvd la liberte# 58"/>
    <tag k="addr:housenumber" v="58"/>
    <tag k="addr:street" v="Artibonite_St Marc_blvd la liberte"/>
    <tag k="attribute_source_date" v="12042011"/>
    <tag k="attribute_source_type" v="field_mission"/>
    <tag k="building" v="school"/>
    <tag k="building_base_material:concrete" v="yes"/>
    <tag k="building_concrete" v="2"/>
    <tag k="building_good" v="2"/>
    <tag k="building_roof_base_material" v="concrete"/>
    <tag k="building_roof_material:concrete" v="yes"/>
    <tag k="building_status" v="good"/>
    <tag k="building_use" v="school"/>
    <tag k="capacity_area" v="500"/>
    <tag k="capacity_area_building_level_1" v="300"/>
    <tag k="capacity_individuals" v="800"/>
    <tag k="capacity_individuals_building_level_1" v="150"/>
    <tag k="capacity_individuals_building_level_2" v="150"/>
    <tag k="contact_person" v="Sr. Jennifer Calixte"/>
    <tag k="cosmha" v="yes"/>
    <tag k="court" v="yes"/>
    <tag k="court_area" v="dirt/sand"/>
    <tag k="damage_status" v="intact"/>
    <tag k="floodable" v="no"/>
    <tag k="flooded" v="no"/>
    <tag k="futur_use" v="yes"/>
    <tag k="geometry_source_date" v="12042011"/>
    <tag k="geometry_source_type" v="gps"/>
    <tag k="humanitarian_use" v="disaster_shelter"/>
    <tag k="id:db_shelter" v="A0489-AR-067"/>
    <tag k="kitchen" v="no"/>
    <tag k="number_building" v="2"/>
    <tag k="operational_status" v="open"/>
    <tag k="phone" v="3637-9508"/>
    <tag k="power_source" v="electricity_network"/>
    <tag k="prac" v="heavy_truck_less_than_20mt"/>
    <tag k="project" v="OTI_HRI_COSMHA_STM020"/>
    <tag k="source" v="hot_iom_cosmha"/>
    <tag k="source_date" v="19/01/2012"/>
    <tag k="source_type_GPS" v="yes"/>
    <tag k="source_type_field_mission" v="yes"/>
    <tag k="source_type_imagery" v="yes"/>
    <tag k="tank" v="1"/>
    <tag k="tap" v="yes"/>
    <tag k="tap_status" v="open"/>
    <tag k="toilet" v="11"/>
    <tag k="toilet_medium" v="11"/>
    <tag k="warehouse_unit" v="no"/>
    <tag k="well" v="1"/>
  </way>
  <way id="48561372" version="32" timestamp="2012-03-09T16:05:40Z" uid="595141" user="Cynthia SaintHubert" changeset="10921369"/>
  <way id="48561405" version="1" timestamp="2010-01-19T21:01:14Z" uid="8619" user="cetest" changeset="3661654">
    <nd ref="616832846"/>
    <nd ref="616832874"/>
    <nd ref="616832997"/>
  </way>
  <way id="48561405" version="2" timestamp="2010-01-19T21:25:08Z" uid="102411" user="Jeff Ollie" changeset="3662524">
    <nd ref="616832846"/>
    <nd ref="616832874"/>
    <nd ref="616832997"/>
    <tag k="highway" v="track"/>
    <tag k="source" v="digitalglobe"/>
  </way>
  <way id="48561406" version="1" timestamp="2010-01-19T21:01:14Z" uid="8619" user="cetest" changeset="3661654">
    <nd ref="616832718"/>
    <nd ref="616832722"/>
    <nd ref="616832724"/>
    <nd ref="616832716"/>
    <nd ref="616832708"/>
    <nd ref="616832711"/>
    <nd ref="616832713"/>
    <nd ref="616750406"/>
    <nd ref="616832705"/>
    <nd ref="616832680"/>
    <nd ref="616832673"/>
    <tag k="highway" v="unclassified"/>
  </way>
  <way id="48561406" version="2" timestamp="2010-01-19T21:34:28Z" uid="102411" user="Jeff Ollie" changeset="3662595"/>
  <way id="48561407" version="1" timestamp="2010-01-19T21:01:14Z" uid="8619" user="cetest" changeset="3661654">
    <nd ref="616750403"/>
    <nd ref="616832677"/>
    <nd ref="616832680"/>
    <nd ref="616832891"/>
    <nd ref="616832893"/>
    <tag k="highway" v="unclassified"/>
  </way>
  <way id="48561407" version="2" timestamp="2010-01-19T21:34:29Z" uid="102411" user="Jeff Ollie" changeset="3662595"/>
  <way id="48561408" version="1" timestamp="2010-01-19T21:01:14Z" uid="8619" user="cetest" changeset="3661654">
    <nd ref="616832726"/>
    <nd ref="616832735"/>
    <nd ref="616748406"/>
    <nd ref="616748432"/>
    <nd ref="616832718"/>
    <nd ref="616832720"/>
    <nd ref="616832908"/>
    <nd ref="616832910"/>
    <nd ref="616832918"/>
    <nd ref="616832930"/>
    <tag k="highway" v="unclassified"/>
    <tag k="source" v="digitalglobe"/>
  </way>
  <way id="48561408" version="2" timestamp="2011-05-28T03:53:46Z" uid="385790" user="manic12" changeset="8268236">
    <nd ref="616832726"/>
    <nd ref="616832735"/>
    <nd ref="616748406"/>
    <nd ref="616832718"/>
    <nd ref="616832908"/>
    <nd ref="616832910"/>
    <nd ref="616832930"/>
    <tag k="highway" v="unclassified"/>
    <tag k="source" v="digitalglobe"/>
  </way>
  <way id="48561409" version="1" timestamp="2010-01-19T21:01:14Z" uid="8619" user="cetest" changeset="3661654">
    <nd ref="616832698"/>
    <nd ref="616832695"/>
    <nd ref="616750401"/>
    <nd ref="616832706"/>
    <nd ref="616832708"/>
    <nd ref="616832900"/>
    <nd ref="616832902"/>
    <nd ref="616832904"/>
    <nd ref="616832906"/>
    <nd ref="616832918"/>
    <tag k="highway" v="unclassified"/>
  </way>
  <way id="48561409" version="2" timestamp="2010-01-19T21:34:28Z" uid="102411" user="Jeff Ollie" changeset="3662595"/>
  <way id="48561410" version="1" timestamp="2010-01-19T21:01:14Z" uid="8619" user="cetest" changeset="3661654">
    <nd ref="330525937"/>
    <nd ref="616832822"/>
    <nd ref="616832823"/>
    <nd ref="616832832"/>
    <nd ref="616832833"/>
    <nd ref="616832834"/>
    <nd ref="616832950"/>
    <tag k="highway" v="unclassified"/>
  </way>
  <way id="48561410" version="2" timestamp="2010-01-19T21:38:35Z" uid="102411" user="Jeff Ollie" changeset="3662622">
    <nd ref="330525937"/>
    <nd ref="616832822"/>
    <nd ref="616832823"/>
    <nd ref="616832832"/>
    <nd ref="616854369"/>
    <nd ref="616832833"/>
    <nd ref="616832834"/>
    <nd ref="616832950"/>
    <tag k="highway" v="unclassified"/>
  </way>
  <way id="48561410" version="3" timestamp="2010-01-20T19:40:15Z" uid="4671" user="MattD" changeset="3669668">
    <nd ref="330525937"/>
    <nd ref="616832822"/>
    <nd ref="616832823"/>
    <nd ref="616832832"/>
    <nd ref="616854369"/>
    <nd ref="616832833"/>
    <nd ref="616832834"/>
    <nd ref="616832950"/>
    <nd ref="617286294"/>
    <nd ref="617286296"/>
    <nd ref="617286298"/>
    <nd ref="617286303"/>
    <tag k="highway" v="unclassified"/>
    <tag k="source" v="WorldView-2, DigitalGlobe, 2010/01/18"/>
  </way>
  <way id="48561410" version="4" timestamp="2010-01-23T10:01:15Z" uid="44659" user="Phil Shipley" changeset="3690007">
    <nd ref="330525937"/>
    <nd ref="616832822"/>
    <nd ref="616832823"/>
    <nd ref="616832832"/>
    <nd ref="616854369"/>
    <nd ref="616832833"/>
    <nd ref="618582235"/>
    <nd ref="616832834"/>
    <nd ref="616832950"/>
    <nd ref="617286294"/>
    <nd ref="617286296"/>
    <nd ref="617286298"/>
    <nd ref="617286303"/>
    <tag k="highway" v="unclassified"/>
    <tag k="source" v="WorldView-2, DigitalGlobe, 2010/01/18"/>
  </way>
  <way id="48561411" version="1" timestamp="2010-01-19T21:01:14Z" uid="8619" user="cetest" changeset="3661654">
    <nd ref="616832666"/>
    <nd ref="616832665"/>
    <nd ref="616832670"/>
    <nd ref="616832669"/>
    <nd ref="616832667"/>
    <nd ref="616832668"/>
    <nd ref="616832666"/>
    <tag k="building" v="yes"/>
  </way>
  <way id="48561411" version="2" timestamp="2010-01-20T05:18:46Z" uid="102411" user="Jeff Ollie" changeset="3664190">
    <nd ref="616832666"/>
    <nd ref="616832665"/>
    <nd ref="616832670"/>
    <nd ref="616832669"/>
    <nd ref="616832667"/>
    <nd ref="616832668"/>
    <nd ref="616832666"/>
    <tag k="building" v="yes"/>
    <tag k="name" v="Don Bosco"/>
    <tag k="source:name" v="MINUSTAH GIS and UN Cartographic Section"/>
  </way>
  <way id="48561411" version="3" timestamp="2010-01-20T05:19:05Z" uid="102411" user="Jeff Ollie" changeset="3664192">
    <nd ref="616832666"/>
    <nd ref="616832665"/>
    <nd ref="616832670"/>
    <nd ref="616832669"/>
    <nd ref="616832667"/>
    <nd ref="616832668"/>
    <nd ref="616832666"/>
    <tag k="amenity" v="school"/>
    <tag k="building" v="yes"/>
    <tag k="name" v="Don Bosco"/>
    <tag k="source:name" v="MINUSTAH GIS and UN Cartographic Section"/>
  </way>
  <way id="48561411" version="4" timestamp="2010-02-18T01:53:24Z" uid="79857" user="RDSantiago" changeset="3905927">
    <nd ref="616832666"/>
    <nd ref="616832665"/>
    <nd ref="616832670"/>
    <nd ref="616832669"/>
    <nd ref="616832667"/>
    <nd ref="616832668"/>
    <nd ref="616832666"/>
    <tag k="addr:country" v="HT"/>
    <tag k="amenity" v="school"/>
    <tag k="building" v="yes"/>
    <tag k="name" v="Don Bosco"/>
    <tag k="source:name" v="MINUSTAH GIS and UN Cartographic Section"/>
  </way>
  <way id="48561412" version="1" timestamp="2010-01-19T21:01:14Z" uid="8619" user="cetest" changeset="3661654">
    <nd ref="616832833"/>
    <nd ref="616832829"/>
    <nd ref="616748462"/>
    <nd ref="616832782"/>
    <tag k="highway" v="unclassified"/>
  </way>
  <way id="48561412" version="2" timestamp="2010-01-19T21:30:02Z" uid="102411" user="Jeff Ollie" changeset="3662562"/>
  <way id="48561413" version="1" timestamp="2010-01-19T21:01:14Z" uid="8619" user="cetest" changeset="3661654">
    <nd ref="616832789"/>
    <nd ref="616832809"/>
    <nd ref="616832811"/>
    <nd ref="616832729"/>
    <nd ref="616832789"/>
    <tag k="sport" v="soccer"/>
  </way>
  <way id="48561413" version="2" timestamp="2010-02-18T01:53:24Z" uid="79857" user="RDSantiago" changeset="3905927">
    <nd ref="616832789"/>
    <nd ref="616832809"/>
    <nd ref="616832811"/>
    <nd ref="616832729"/>
    <nd ref="616832789"/>
    <tag k="addr:country" v="HT"/>
    <tag k="sport" v="soccer"/>
  </way>
  <way id="48561414" version="1" timestamp="2010-01-19T21:01:15Z" uid="8619" user="cetest" changeset="3661654">
    <nd ref="616832726"/>
    <nd ref="330599199"/>
    <nd ref="330525585"/>
    <nd ref="330532531"/>
    <nd ref="330565528"/>
    <nd ref="330603687"/>
    <nd ref="330583426"/>
    <nd ref="330583431"/>
    <nd ref="330583642"/>
    <nd ref="616832792"/>
    <nd ref="330593941"/>
    <nd ref="330525937"/>
    <nd ref="330595302"/>
    <nd ref="616832813"/>
    <nd ref="330533230"/>
    <nd ref="330544668"/>
    <nd ref="616748354"/>
    <nd ref="330599158"/>
    <nd ref="330598824"/>
    <nd ref="330578639"/>
    <tag k="haiti:code" v="AX"/>
    <tag k="haiti:import_file" v="3.osm"/>
    <tag k="haiti:nom" v="None"/>
    <tag k="haiti:nom2" v="None"/>
    <tag k="haiti:objectid" v="129"/>
    <tag k="haiti:source" v="CNIGS and CartONG"/>
    <tag k="haiti:source_file" v="intersect8_polyid__3.shp"/>
    <tag k="haiti:type" v="Autre Route"/>
    <tag k="highway" v="unclassified"/>
  </way>
  <way id="48561414" version="2" timestamp="2010-01-20T04:38:40Z" uid="12982" user="Michael Schulze" changeset="3664129">
    <nd ref="616832726"/>
    <nd ref="330599199"/>
    <nd ref="330525585"/>
    <nd ref="330532531"/>
    <nd ref="330565528"/>
    <nd ref="330603687"/>
    <nd ref="330583426"/>
    <nd ref="330583431"/>
    <nd ref="330583642"/>
    <nd ref="616832792"/>
    <nd ref="330593941"/>
    <nd ref="330525937"/>
    <nd ref="330595302"/>
    <nd ref="616832813"/>
    <nd ref="330533230"/>
    <nd ref="330544668"/>
    <nd ref="616748354"/>
    <nd ref="330599158"/>
    <nd ref="330598824"/>
    <nd ref="330578639"/>
    <tag k="haiti:code" v="AX"/>
    <tag k="haiti:import_file" v="3.osm"/>
    <tag k="haiti:nom" v="None"/>
    <tag k="haiti:nom2" v="None"/>
    <tag k="haiti:objectid" v="129"/>
    <tag k="haiti:source" v="CNIGS and CartONG"/>
    <tag k="haiti:source_file" v="intersect8_polyid__3.shp"/>
    <tag k="haiti:type" v="Autre Route"/>
    <tag k="highway" v="unclassified"/>
    <tag k="name" v="Rue Vallieres"/>
    <tag k="source:name" v="MINUSTAH GIS and UN Cartographic Section"/>
  </way>
  <way id="48561414" version="3" timestamp="2010-01-23T09:59:45Z" uid="44659" user="Phil Shipley" changeset="3690007">
    <nd ref="616832726"/>
    <nd ref="330599199"/>
    <nd ref="618581742"/>
    <nd ref="330525585"/>
    <nd ref="330532531"/>
    <nd ref="330565528"/>
    <nd ref="330603687"/>
    <nd ref="330583426"/>
    <nd ref="330583431"/>
    <nd ref="330583642"/>
    <nd ref="616832792"/>
    <nd ref="330593941"/>
    <nd ref="330525937"/>
    <nd ref="330595302"/>
    <nd ref="616832813"/>
    <nd ref="330533230"/>
    <nd ref="330544668"/>
    <nd ref="616748354"/>
    <nd ref="618581750"/>
    <nd ref="330599158"/>
    <nd ref="330598824"/>
    <nd ref="330578639"/>
    <tag k="haiti:code" v="AX"/>
    <tag k="haiti:import_file" v="3.osm"/>
    <tag k="haiti:nom" v="None"/>
    <tag k="haiti:nom2" v="None"/>
    <tag k="haiti:objectid" v="129"/>
    <tag k="haiti:source" v="CNIGS and CartONG"/>
    <tag k="haiti:source_file" v="intersect8_polyid__3.shp"/>
    <tag k="haiti:type" v="Autre Route"/>
    <tag k="highway" v="unclassified"/>
    <tag k="name" v="Rue Vallieres"/>
    <tag k="source:name" v="MINUSTAH GIS and UN Cartographic Section"/>
  </way>
  <way id="48561416" version="1" timestamp="2010-01-19T21:01:15Z" uid="8619" user="cetest" changeset="3661654">
    <nd ref="616832726"/>
    <nd ref="616832700"/>
    <tag k="highway" v="unclassified"/>
  </way>
  <way id="48561416" version="2" timestamp="2010-01-19T21:32:19Z" uid="102411" user="Jeff Ollie" changeset="3662576"/>
  <way id="48561417" version="1" timestamp="2010-01-19T21:01:15Z" uid="8619" user="cetest" changeset="3661654">
    <nd ref="616832692"/>
    <nd ref="616832689"/>
    <nd ref="616832703"/>
    <nd ref="616832701"/>
    <nd ref="616832713"/>
    <nd ref="616832714"/>
    <tag k="highway" v="unclassified"/>
  </way>
  <way id="48561417" version="2" timestamp="2010-01-19T21:34:28Z" uid="102411" user="Jeff Ollie" changeset="3662595"/>
  <way id="48561418" version="1" timestamp="2010-01-19T21:01:15Z" uid="8619" user="cetest" changeset="3661654">
    <nd ref="616832781"/>
    <nd ref="616832779"/>
    <tag k="highway" v="unclassified"/>
  </way>
  <way id="48561418" version="2" timestamp="2010-01-19T21:32:19Z" uid="102411" user="Jeff Ollie" changeset="3662576"/>
  <way id="48561420" version="1" timestamp="2010-01-19T21:01:15Z" uid="8619" user="cetest" changeset="3661654">
    <nd ref="616748399"/>
    <nd ref="616832739"/>
    <nd ref="616832754"/>
    <tag k="highway" v="unclassified"/>
  </way>
  <way id="48561420" version="2" timestamp="2010-01-19T21:34:28Z" uid="102411" user="Jeff Ollie" changeset="3662595">
    <nd ref="616748399"/>
    <nd ref="616832739"/>
    <nd ref="616832754"/>
    <tag k="highway" v="track"/>
    <tag k="source" v="digitalglobe"/>
  </way>
  <way id="48561421" version="1" timestamp="2010-01-19T21:01:15Z" uid="8619" user="cetest" changeset="3661654">
    <nd ref="616832741"/>
    <nd ref="616832746"/>
    <nd ref="616832748"/>
    <nd ref="616832752"/>
    <nd ref="616832757"/>
    <nd ref="616832761"/>
    <nd ref="616832763"/>
    <nd ref="616832765"/>
    <nd ref="616832756"/>
    <nd ref="616832759"/>
    <nd ref="616832750"/>
    <nd ref="616832743"/>
    <nd ref="616832741"/>
    <tag k="building" v="yes"/>
  </way>
  <way id="48561421" version="2" timestamp="2010-01-19T21:34:28Z" uid="102411" user="Jeff Ollie" changeset="3662595"/>
  <way id="48561422" version="1" timestamp="2010-01-19T21:01:16Z" uid="8619" user="cetest" changeset="3661654">
    <nd ref="616832735"/>
    <nd ref="616832737"/>
    <tag k="highway" v="unclassified"/>
  </way>
  <way id="48561423" version="1" timestamp="2010-01-19T21:01:16Z" uid="8619" user="cetest" changeset="3661654">
    <nd ref="330525585"/>
    <nd ref="616832733"/>
    <nd ref="616832775"/>
    <nd ref="616832781"/>
    <nd ref="616832782"/>
    <nd ref="616832784"/>
    <tag k="highway" v="unclassified"/>
  </way>
  <way id="48561423" version="2" timestamp="2010-01-19T21:32:19Z" uid="102411" user="Jeff Ollie" changeset="3662576"/>
  <way id="48561424" version="1" timestamp="2010-01-19T21:01:16Z" uid="8619" user="cetest" changeset="3661654">
    <nd ref="330565528"/>
    <nd ref="616832727"/>
    <tag k="highway" v="unclassified"/>
  </way>
  <way id="48561426" version="1" timestamp="2010-01-19T21:01:16Z" uid="8619" user="cetest" changeset="3661654">
    <nd ref="616832842"/>
    <nd ref="616832844"/>
    <nd ref="616832826"/>
    <nd ref="616832827"/>
    <nd ref="616832824"/>
    <tag k="highway" v="unclassified"/>
  </way>
  <way id="48561427" version="1" timestamp="2010-01-19T21:01:16Z" uid="8619" user="cetest" changeset="3661654">
    <nd ref="616832792"/>
    <nd ref="616832794"/>
    <nd ref="616832795"/>
    <nd ref="616832798"/>
    <nd ref="616832800"/>
    <nd ref="616832802"/>
    <nd ref="616832828"/>
    <nd ref="616832829"/>
    <tag k="highway" v="unclassified"/>
  </way>
  <way id="48561427" version="2" timestamp="2010-01-19T21:30:02Z" uid="102411" user="Jeff Ollie" changeset="3662562">
    <nd ref="616832792"/>
    <nd ref="616832794"/>
    <nd ref="616832795"/>
    <nd ref="616832798"/>
    <nd ref="616832800"/>
    <nd ref="616832802"/>
    <nd ref="616832828"/>
    <nd ref="616852027"/>
    <nd ref="616832829"/>
    <tag k="highway" v="track"/>
  </way>
  <way id="48561427" version="3" timestamp="2010-01-19T21:38:36Z" uid="102411" user="Jeff Ollie" changeset="3662622">
    <nd ref="616832792"/>
    <nd ref="616832794"/>
    <nd ref="616832795"/>
    <nd ref="616832798"/>
    <nd ref="616854344"/>
    <nd ref="616832800"/>
    <nd ref="616832802"/>
    <nd ref="616854351"/>
    <nd ref="616854352"/>
    <nd ref="616832828"/>
    <nd ref="616852027"/>
    <nd ref="616832829"/>
    <tag k="highway" v="track"/>
  </way>
  <way id="48561428" version="1" timestamp="2010-01-19T21:01:16Z" uid="8619" user="cetest" changeset="3661654">
    <nd ref="616832825"/>
    <nd ref="616832822"/>
    <nd ref="616832806"/>
    <nd ref="616832808"/>
    <tag k="highway" v="unclassified"/>
  </way>
  <way id="48561428" version="2" timestamp="2010-01-19T21:32:19Z" uid="102411" user="Jeff Ollie" changeset="3662576">
    <nd ref="616832825"/>
    <nd ref="616832822"/>
    <nd ref="616832806"/>
    <nd ref="616852873"/>
    <nd ref="616832808"/>
    <tag k="highway" v="unclassified"/>
  </way>
  <way id="48561429" version="1" timestamp="2010-01-19T21:01:16Z" uid="8619" user="cetest" changeset="3661654">
    <nd ref="616832813"/>
    <nd ref="616832825"/>
    <nd ref="616832827"/>
    <tag k="highway" v="unclassified"/>
  </way>
  <way id="48561430" version="1" timestamp="2010-01-19T21:01:16Z" uid="8619" user="cetest" changeset="3661654">
    <nd ref="616832820"/>
    <nd ref="616832819"/>
    <nd ref="616832815"/>
    <nd ref="616832817"/>
    <nd ref="616832820"/>
    <tag k="building" v="yes"/>
  </way>
  <way id="48561430" version="2" timestamp="2010-01-20T05:07:24Z" uid="102411" user="Jeff Ollie" changeset="3664171">
    <nd ref="616832820"/>
    <nd ref="616832819"/>
    <nd ref="616832815"/>
    <nd ref="616832817"/>
    <nd ref="616832820"/>
    <tag k="amenity" v="school"/>
    <tag k="building" v="yes"/>
    <tag k="name" v="National Primary School (Girl)"/>
    <tag k="source" v="digitalglobe"/>
    <tag k="source:name" v="MINUSTAH GIS and UN Cartographic Section"/>
  </way>
  <way id="48561430" version="3" timestamp="2010-01-20T19:49:15Z" uid="102411" user="Jeff Ollie" changeset="3669749">
    <nd ref="616832820"/>
    <nd ref="616832819"/>
    <nd ref="616832815"/>
    <nd ref="616832817"/>
    <nd ref="617290742"/>
    <nd ref="617290743"/>
    <nd ref="616832820"/>
    <tag k="amenity" v="school"/>
    <tag k="building" v="yes"/>
    <tag k="name" v="National Primary School (Girl)"/>
    <tag k="source" v="digitalglobe"/>
    <tag k="source:name" v="MINUSTAH GIS and UN Cartographic Section"/>
  </way>
  <way id="48561430" version="4" timestamp="2010-02-18T01:53:26Z" uid="79857" user="RDSantiago" changeset="3905927">
    <nd ref="616832820"/>
    <nd ref="616832819"/>
    <nd ref="616832815"/>
    <nd ref="616832817"/>
    <nd ref="617290742"/>
    <nd ref="617290743"/>
    <nd ref="616832820"/>
    <tag k="addr:country" v="HT"/>
    <tag k="amenity" v="school"/>
    <tag k="building" v="yes"/>
    <tag k="name" v="National Primary School (Girl)"/>
    <tag k="source" v="digitalglobe"/>
    <tag k="source:name" v="MINUSTAH GIS and UN Cartographic Section"/>
  </way>
  <way id="48561431" version="1" timestamp="2010-01-19T21:01:16Z" uid="8619" user="cetest" changeset="3661654">
    <nd ref="330580263"/>
    <nd ref="616832870"/>
    <nd ref="616832872"/>
    <nd ref="616832874"/>
  </way>
  <way id="48561431" version="2" timestamp="2010-01-19T21:24:48Z" uid="102411" user="Jeff Ollie" changeset="3662519">
    <nd ref="330580263"/>
    <nd ref="616832870"/>
    <nd ref="616832872"/>
    <nd ref="616832874"/>
    <tag k="highway" v="track"/>
    <tag k="source" v="digitalglobe"/>
  </way>
  <way id="48561432" version="1" timestamp="2010-01-19T21:01:16Z" uid="8619" user="cetest" changeset="3661654">
    <nd ref="616832859"/>
    <nd ref="616832855"/>
    <nd ref="616832862"/>
    <nd ref="616832865"/>
    <nd ref="616832852"/>
    <nd ref="616832853"/>
    <nd ref="616832850"/>
    <nd ref="616832869"/>
    <nd ref="616832857"/>
    <nd ref="616832848"/>
    <nd ref="616832867"/>
    <nd ref="616832863"/>
    <nd ref="616832859"/>
    <tag k="building" v="yes"/>
  </way>
  <way id="48561432" version="2" timestamp="2010-01-20T05:09:05Z" uid="102411" user="Jeff Ollie" changeset="3664175">
    <nd ref="616832859"/>
    <nd ref="616832855"/>
    <nd ref="616832862"/>
    <nd ref="616832865"/>
    <nd ref="616832852"/>
    <nd ref="616832853"/>
    <nd ref="616832850"/>
    <nd ref="616832869"/>
    <nd ref="616832857"/>
    <nd ref="616832848"/>
    <nd ref="616832867"/>
    <nd ref="616832863"/>
    <nd ref="616832859"/>
    <tag k="amenity" v="school"/>
    <tag k="building" v="yes"/>
    <tag k="name" v="Lycee Paul Eugene Maclorie"/>
    <tag k="source" v="digitalglobe"/>
    <tag k="source:name" v="MINUSTAH GIS and UN Cartographic Section"/>
  </way>
  <way id="48561432" version="3" timestamp="2010-02-18T01:53:26Z" uid="79857" user="RDSantiago" changeset="3905927">
    <nd ref="616832859"/>
    <nd ref="616832855"/>
    <nd ref="616832862"/>
    <nd ref="616832865"/>
    <nd ref="616832852"/>
    <nd ref="616832853"/>
    <nd ref="616832850"/>
    <nd ref="616832869"/>
    <nd ref="616832857"/>
    <nd ref="616832848"/>
    <nd ref="616832867"/>
    <nd ref="616832863"/>
    <nd ref="616832859"/>
    <tag k="addr:country" v="HT"/>
    <tag k="amenity" v="school"/>
    <tag k="building" v="yes"/>
    <tag k="name" v="Lycee Paul Eugene Maclorie"/>
    <tag k="source" v="digitalglobe"/>
    <tag k="source:name" v="MINUSTAH GIS and UN Cartographic Section"/>
  </way>
  <way id="48561433" version="1" timestamp="2010-01-19T21:01:16Z" uid="8619" user="cetest" changeset="3661654">
    <nd ref="616832954"/>
    <nd ref="616832952"/>
    <nd ref="616832956"/>
    <nd ref="616832957"/>
    <nd ref="616832954"/>
    <tag k="building" v="yes"/>
  </way>
  <way id="48561434" version="1" timestamp="2010-01-19T21:01:16Z" uid="8619" user="cetest" changeset="3661654">
    <nd ref="616832961"/>
    <nd ref="616832959"/>
    <nd ref="616832943"/>
    <nd ref="616832947"/>
    <nd ref="616832945"/>
    <nd ref="616832941"/>
    <nd ref="616832961"/>
    <tag k="building" v="yes"/>
  </way>
  <way id="48561435" version="1" timestamp="2010-01-19T21:01:16Z" uid="8619" user="cetest" changeset="3661654">
    <nd ref="616832898"/>
    <nd ref="616832926"/>
    <nd ref="616832924"/>
    <nd ref="616832921"/>
    <nd ref="616832929"/>
    <nd ref="616832896"/>
    <nd ref="616832898"/>
    <tag k="building" v="yes"/>
  </way>
  <way id="48561436" version="1" timestamp="2010-01-19T21:01:16Z" uid="8619" user="cetest" changeset="3661654">
    <nd ref="616832980"/>
    <nd ref="616832983"/>
    <nd ref="616832979"/>
    <nd ref="616832986"/>
    <nd ref="616832985"/>
    <nd ref="616832982"/>
    <nd ref="616832978"/>
    <nd ref="616832988"/>
    <nd ref="616832984"/>
    <nd ref="616832981"/>
    <nd ref="616832976"/>
    <nd ref="616832987"/>
    <nd ref="616832980"/>
    <tag k="amenity" v="place_of_worship"/>
    <tag k="denomination" v="catholic"/>
    <tag k="religion" v="christian"/>
  </way>
  <way id="48561436" version="2" timestamp="2010-01-20T04:32:25Z" uid="102411" user="Jeff Ollie" changeset="3664118">
    <nd ref="616832980"/>
    <nd ref="616832983"/>
    <nd ref="616832979"/>
    <nd ref="616832986"/>
    <nd ref="616832985"/>
    <nd ref="616832982"/>
    <nd ref="616832978"/>
    <nd ref="616832988"/>
    <nd ref="616832984"/>
    <nd ref="616832981"/>
    <nd ref="616832976"/>
    <nd ref="616832987"/>
    <nd ref="616832980"/>
    <tag k="amenity" v="place_of_worship"/>
    <tag k="denomination" v="catholic"/>
    <tag k="name" v="Eglise Norte Dame de l&apos;Assomption"/>
    <tag k="religion" v="christian"/>
  </way>
  <way id="48561436" version="3" timestamp="2010-01-20T06:16:02Z" uid="102411" user="Jeff Ollie" changeset="3664303">
    <nd ref="616832980"/>
    <nd ref="616832983"/>
    <nd ref="616832979"/>
    <nd ref="616832986"/>
    <nd ref="616832985"/>
    <nd ref="616832982"/>
    <nd ref="616832978"/>
    <nd ref="616832988"/>
    <nd ref="616832984"/>
    <nd ref="616832981"/>
    <nd ref="616832976"/>
    <nd ref="616832987"/>
    <nd ref="616832980"/>
    <tag k="amenity" v="place_of_worship"/>
    <tag k="denomination" v="catholic"/>
    <tag k="name" v="Église Norte Dame de l&apos;Assomption"/>
    <tag k="religion" v="christian"/>
  </way>
  <way id="48561436" version="4" timestamp="2010-02-18T01:53:28Z" uid="79857" user="RDSantiago" changeset="3905927">
    <nd ref="616832980"/>
    <nd ref="616832983"/>
    <nd ref="616832979"/>
    <nd ref="616832986"/>
    <nd ref="616832985"/>
    <nd ref="616832982"/>
    <nd ref="616832978"/>
    <nd ref="616832988"/>
    <nd ref="616832984"/>
    <nd ref="616832981"/>
    <nd ref="616832976"/>
    <nd ref="616832987"/>
    <nd ref="616832980"/>
    <tag k="addr:country" v="HT"/>
    <tag k="amenity" v="place_of_worship"/>
    <tag k="denomination" v="catholic"/>
    <tag k="name" v="Église Norte Dame de l&apos;Assomption"/>
    <tag k="religion" v="christian"/>
  </way>
  <way id="48561437" version="1" timestamp="2010-01-19T21:01:17Z" uid="8619" user="cetest" changeset="3661654">
    <nd ref="616832994"/>
    <nd ref="616832991"/>
    <nd ref="616832990"/>
    <nd ref="616832993"/>
    <nd ref="616832994"/>
    <tag k="landuse" v="village_green"/>
  </way>
  <way id="48561437" version="2" timestamp="2010-01-20T20:17:19Z" uid="102411" user="Jeff Ollie" changeset="3670000">
    <nd ref="616832994"/>
    <nd ref="617303283"/>
    <nd ref="616832991"/>
    <nd ref="617303278"/>
    <nd ref="616832990"/>
    <nd ref="617303284"/>
    <nd ref="616832993"/>
    <nd ref="617303285"/>
    <nd ref="616832994"/>
    <tag k="landuse" v="village_green"/>
  </way>
  <way id="48561437" version="3" timestamp="2010-02-18T01:53:28Z" uid="79857" user="RDSantiago" changeset="3905927">
    <nd ref="616832994"/>
    <nd ref="617303283"/>
    <nd ref="616832991"/>
    <nd ref="617303278"/>
    <nd ref="616832990"/>
    <nd ref="617303284"/>
    <nd ref="616832993"/>
    <nd ref="617303285"/>
    <nd ref="616832994"/>
    <tag k="addr:country" v="HT"/>
    <tag k="landuse" v="village_green"/>
  </way>
  <way id="48561437" version="4" timestamp="2010-04-06T17:51:47Z" uid="149876" user="dbusse" changeset="4346664">
    <nd ref="616832994"/>
    <nd ref="616832991"/>
    <nd ref="616832990"/>
    <nd ref="616832993"/>
    <nd ref="616832994"/>
    <tag k="addr:country" v="HT"/>
    <tag k="landuse" v="village_green"/>
  </way>
  <way id="48561438" version="1" timestamp="2010-01-19T21:01:17Z" uid="8619" user="cetest" changeset="3661654">
    <nd ref="616833109"/>
    <nd ref="616833113"/>
    <tag k="highway" v="unclassified"/>
  </way>
  <way id="48561439" version="1" timestamp="2010-01-19T21:01:17Z" uid="8619" user="cetest" changeset="3661654">
    <nd ref="616768837"/>
    <nd ref="616833111"/>
    <nd ref="616833113"/>
    <nd ref="616833107"/>
    <nd ref="616833077"/>
    <nd ref="616833104"/>
    <tag k="highway" v="unclassified"/>
  </way>
  <way id="48561440" version="1" timestamp="2010-01-19T21:01:17Z" uid="8619" user="cetest" changeset="3661654">
    <nd ref="616833092"/>
    <nd ref="616833029"/>
    <tag k="highway" v="unclassified"/>
  </way>
  <way id="48561441" version="1" timestamp="2010-01-19T21:01:17Z" uid="8619" user="cetest" changeset="3661654">
    <nd ref="312768684"/>
    <nd ref="616833075"/>
    <nd ref="616833073"/>
    <nd ref="616833046"/>
    <nd ref="616833049"/>
    <nd ref="616833050"/>
    <nd ref="616833052"/>
    <nd ref="616833066"/>
    <nd ref="616833067"/>
    <nd ref="616833070"/>
    <nd ref="616833020"/>
    <nd ref="616833021"/>
    <nd ref="616833023"/>
    <nd ref="616833025"/>
    <nd ref="616833027"/>
    <nd ref="616833090"/>
    <tag k="highway" v="unclassified"/>
  </way>
  <way id="48561442" version="1" timestamp="2010-01-19T21:01:17Z" uid="8619" user="cetest" changeset="3661654">
    <nd ref="616769127"/>
    <nd ref="616833009"/>
    <nd ref="616833010"/>
    <nd ref="616833012"/>
    <nd ref="616833014"/>
    <tag k="highway" v="unclassified"/>
  </way>
  <way id="48561442" version="2" timestamp="2010-01-20T09:37:41Z" uid="42938" user="Xanadu" changeset="3664985">
    <nd ref="617014010"/>
    <nd ref="616769127"/>
    <nd ref="616833009"/>
    <nd ref="616833010"/>
    <nd ref="616833012"/>
    <nd ref="616833014"/>
    <tag k="highway" v="unclassified"/>
  </way>
  <way id="48561443" version="1" timestamp="2010-01-19T21:01:17Z" uid="8619" user="cetest" changeset="3661654">
    <nd ref="616833018"/>
    <nd ref="616833014"/>
    <nd ref="616833037"/>
    <nd ref="616833039"/>
    <nd ref="616833041"/>
    <nd ref="616833016"/>
    <nd ref="616832999"/>
    <tag k="highway" v="unclassified"/>
  </way>
  <way id="48561444" version="1" timestamp="2010-01-19T21:01:17Z" uid="8619" user="cetest" changeset="3661654">
    <nd ref="616769175"/>
    <nd ref="616833045"/>
    <nd ref="616833032"/>
    <nd ref="616833034"/>
    <nd ref="616833036"/>
    <nd ref="616833021"/>
    <nd ref="616833001"/>
    <nd ref="616833003"/>
    <nd ref="616833005"/>
    <tag k="highway" v="unclassified"/>
  </way>
  <way id="48561445" version="1" timestamp="2010-01-19T21:01:17Z" uid="8619" user="cetest" changeset="3661654">
    <nd ref="616833037"/>
    <nd ref="616833043"/>
    <nd ref="616833007"/>
    <tag k="highway" v="unclassified"/>
  </way>
  <way id="48561446" version="1" timestamp="2010-01-19T21:01:17Z" uid="8619" user="cetest" changeset="3661654">
    <nd ref="616833083"/>
    <nd ref="616768993"/>
    <nd ref="616833084"/>
  </way>
  <way id="48561446" version="2" timestamp="2010-01-20T09:37:41Z" uid="42938" user="Xanadu" changeset="3664985">
    <nd ref="616833083"/>
    <nd ref="616768993"/>
    <nd ref="616833084"/>
    <tag k="highway" v="unclassified"/>
  </way>
  <way id="48561447" version="1" timestamp="2010-01-19T21:01:17Z" uid="8619" user="cetest" changeset="3661654">
    <nd ref="616833106"/>
    <nd ref="616833107"/>
    <tag k="highway" v="unclassified"/>
  </way>
</osm>
