<?xml version='1.0' encoding='UTF-8'?>
<osm version="0.6" generator="libosmium/2.20.0">
  <way id="48577123" version="3" timestamp="2011-01-25T10:57:00Z" uid="115477" user="wowik" changeset="7082367">
    <nd ref="617004332"/>
    <nd ref="1119786112"/>
    <nd ref="1119786210"/>
    <nd ref="617004333"/>
    <nd ref="617004334"/>
    <nd ref="617004337"/>
    <nd ref="617004332"/>
    <tag k="addr:housenumber" v="12 к1 с2"/>
    <tag k="addr:street" v="Планерная улица"/>
    <tag k="building" v="yes"/>
  </way>
  <way id="48577123" version="4" timestamp="2012-03-28T06:12:50Z" uid="481934" user="iWowik" changeset="11123401">
    <nd ref="617004332"/>
    <nd ref="1119786112"/>
    <nd ref="1119786210"/>
    <nd ref="617004333"/>
    <nd ref="617004334"/>
    <nd ref="617004337"/>
    <nd ref="617004332"/>
    <tag k="addr:city" v="Москва"/>
    <tag k="addr:country" v="RU"/>
    <tag k="addr:housenumber" v="12 к1 с2"/>
    <tag k="addr:street" v="Планерная улица"/>
    <tag k="building" v="yes"/>
  </way>
  <way id="48577153" version="2" timestamp="2010-07-06T18:54:22Z" uid="74617" user="JohnSmith" changeset="5152225">
    <nd ref="252911405"/>
    <nd ref="252911407"/>
    <nd ref="252911410"/>
    <nd ref="252911411"/>
    <nd ref="252912259"/>
    <nd ref="252912260"/>
    <tag k="highway" v="residential"/>
    <tag k="maxspeed" v="50"/>
    <tag k="maxspeed:source" v="default residential speed limit in Australia"/>
    <tag k="name" v="Farlow Street"/>
  </way>
  <way id="48577153" version="3" timestamp="2012-01-19T22:24:27Z" uid="147510" user="woodpeck_fixbot" changeset="10440306">
    <nd ref="252911405"/>
    <nd ref="252911407"/>
    <nd ref="252911410"/>
    <nd ref="252911411"/>
    <nd ref="252912259"/>
    <nd ref="252912260"/>
    <tag k="highway" v="residential"/>
    <tag k="name" v="Farlow Street"/>
  </way>
  <way id="48577155" version="2" timestamp="2010-07-06T18:51:56Z" uid="74617" user="JohnSmith" changeset="5152225">
    <nd ref="252911349"/>
    <nd ref="252911353"/>
    <nd ref="252911355"/>
    <nd ref="252911358"/>
    <nd ref="252911359"/>
    <nd ref="252911361"/>
    <nd ref="252911364"/>
    <nd ref="252911366"/>
    <tag k="highway" v="residential"/>
    <tag k="maxspeed" v="50"/>
    <tag k="maxspeed:source" v="default residential speed limit in Australia"/>
    <tag k="name" v="Elonera Street"/>
  </way>
  <way id="48577155" version="3" timestamp="2012-01-19T22:24:43Z" uid="147510" user="woodpeck_fixbot" changeset="10440306">
    <nd ref="252911349"/>
    <nd ref="252911353"/>
    <nd ref="252911355"/>
    <nd ref="252911358"/>
    <nd ref="252911359"/>
    <nd ref="252911361"/>
    <nd ref="252911364"/>
    <nd ref="252911366"/>
    <tag k="highway" v="residential"/>
    <tag k="name" v="Elonera Street"/>
  </way>
  <way id="48577156" version="2" timestamp="2010-07-06T18:55:54Z" uid="74617" user="JohnSmith" changeset="5152225">
    <nd ref="617005053"/>
    <nd ref="252911393"/>
    <tag k="highway" v="residential"/>
    <tag k="maxspeed" v="50"/>
    <tag k="maxspeed:source" v="default residential speed limit in Australia"/>
    <tag k="name" v="Kuparra Court"/>
  </way>
  <way id="48577156" version="3" timestamp="2012-01-19T22:24:44Z" uid="147510" user="woodpeck_fixbot" changeset="10440306">
    <nd ref="617005053"/>
    <nd ref="252911393"/>
    <tag k="highway" v="residential"/>
    <tag k="name" v="Kuparra Court"/>
  </way>
  <way id="48577157" version="2" timestamp="2010-07-06T18:50:11Z" uid="74617" user="JohnSmith" changeset="5152225">
    <nd ref="252911337"/>
    <nd ref="252911338"/>
    <nd ref="252911340"/>
    <nd ref="252911343"/>
    <nd ref="252911344"/>
    <nd ref="252911347"/>
    <nd ref="252911349"/>
    <tag k="highway" v="residential"/>
    <tag k="maxspeed" v="50"/>
    <tag k="maxspeed:source" v="default residential speed limit in Australia"/>
    <tag k="name" v="Coora Crescent"/>
  </way>
  <way id="48577157" version="3" timestamp="2012-01-19T22:24:45Z" uid="147510" user="woodpeck_fixbot" changeset="10440306">
    <nd ref="252911337"/>
    <nd ref="252911338"/>
    <nd ref="252911340"/>
    <nd ref="252911343"/>
    <nd ref="252911344"/>
    <nd ref="252911347"/>
    <nd ref="252911349"/>
    <tag k="highway" v="residential"/>
    <tag k="name" v="Coora Crescent"/>
  </way>
  <way id="48577158" version="2" timestamp="2010-07-06T18:53:44Z" uid="74617" user="JohnSmith" changeset="5152225">
    <nd ref="617005056"/>
    <nd ref="617005060"/>
    <tag k="highway" v="residential"/>
    <tag k="maxspeed" v="50"/>
    <tag k="maxspeed:source" v="default residential speed limit in Australia"/>
    <tag k="name" v="Minto Place"/>
  </way>
  <way id="48577158" version="3" timestamp="2012-01-19T22:24:47Z" uid="147510" user="woodpeck_fixbot" changeset="10440306">
    <nd ref="617005056"/>
    <nd ref="617005060"/>
    <tag k="highway" v="residential"/>
    <tag k="name" v="Minto Place"/>
  </way>
  <way id="48577911" version="3" timestamp="2010-06-19T11:28:42Z" uid="7617" user="Franc" changeset="5022879">
    <nd ref="617039240"/>
    <nd ref="617010037"/>
    <nd ref="617010038"/>
    <nd ref="617010039"/>
    <nd ref="617010040"/>
    <nd ref="617010041"/>
    <nd ref="617010042"/>
    <nd ref="617010043"/>
    <nd ref="617010044"/>
    <nd ref="617010045"/>
    <nd ref="617010046"/>
    <nd ref="617010047"/>
    <nd ref="617010048"/>
    <nd ref="617010049"/>
    <nd ref="617010050"/>
    <nd ref="617010051"/>
    <nd ref="617010052"/>
    <nd ref="617010053"/>
    <nd ref="617010054"/>
    <tag k="fixme:sign:no" v="2010-06-19"/>
    <tag k="highway" v="unclassified"/>
  </way>
</osm>
