<?xml version='1.0' encoding='UTF-8'?>
<osm version="0.6" generator="libosmium/2.20.0">
  <way id="48780258" version="1" timestamp="2010-01-24T00:04:55Z" uid="110593" user="esetzer" changeset="3697138">
    <nd ref="84896720"/>
    <nd ref="618993716"/>
    <tag k="alt_name" v="Mountain View Corridor"/>
    <tag k="construction" v="trunk"/>
    <tag k="created_by" v="Merkaartor 0.11"/>
    <tag k="highway" v="construction"/>
    <tag k="name" v="West 2100 North"/>
    <tag k="oneway" v="yes"/>
    <tag k="ref" v="UT-85"/>
    <tag k="source" v="http://www.udot.utah.gov/mountainviewutcounty/content/schedule"/>
    <tag k="source:ref" v="http://en.wikipedia.org/wiki/Mountain_View_Corridor"/>
  </way>
  <way id="48780258" version="2" timestamp="2011-03-25T17:10:54Z" uid="207745" user="NE2" changeset="7665283">
    <nd ref="84896720"/>
    <nd ref="618993716"/>
    <tag k="alt_name" v="Mountain View Corridor"/>
    <tag k="construction" v="trunk"/>
    <tag k="highway" v="construction"/>
    <tag k="name" v="West 2100 North"/>
    <tag k="ref" v="UT-85"/>
    <tag k="source" v="http://www.udot.utah.gov/mountainviewutcounty/content/schedule"/>
    <tag k="source:ref" v="http://en.wikipedia.org/wiki/Mountain_View_Corridor"/>
  </way>
  <way id="48780258" version="3" timestamp="2011-12-27T05:43:31Z" uid="207745" user="NE2" changeset="10212907">
    <nd ref="84896720"/>
    <nd ref="618993716"/>
    <tag k="alt_name" v="Mountain View Corridor"/>
    <tag k="construction" v="trunk"/>
    <tag k="fut_ref" v="UT-85"/>
    <tag k="highway" v="construction"/>
    <tag k="name" v="West 2100 North"/>
    <tag k="source" v="http://www.udot.utah.gov/mountainviewutcounty/content/schedule"/>
    <tag k="source:ref" v="http://en.wikipedia.org/wiki/Mountain_View_Corridor"/>
  </way>
  <way id="48780258" version="4" timestamp="2012-03-23T19:36:12Z" uid="8909" user="mvexel" changeset="11077586"/>
  <way id="48780259" version="1" timestamp="2010-01-24T00:04:59Z" uid="110593" user="esetzer" changeset="3697138">
    <nd ref="618993716"/>
    <nd ref="618993718"/>
    <tag k="alt_name" v="Mountain View Corridor"/>
    <tag k="bridge" v="yes"/>
    <tag k="construction" v="trunk"/>
    <tag k="created_by" v="Merkaartor 0.11"/>
    <tag k="highway" v="construction"/>
    <tag k="layer" v="1"/>
    <tag k="name" v="West 2100 North"/>
    <tag k="oneway" v="yes"/>
    <tag k="ref" v="UT-85"/>
    <tag k="source" v="http://www.udot.utah.gov/mountainviewutcounty/content/schedule"/>
    <tag k="source:ref" v="http://en.wikipedia.org/wiki/Mountain_View_Corridor"/>
  </way>
  <way id="48780259" version="2" timestamp="2011-03-25T17:10:58Z" uid="207745" user="NE2" changeset="7665283">
    <nd ref="618993716"/>
    <nd ref="618993718"/>
    <tag k="alt_name" v="Mountain View Corridor"/>
    <tag k="bridge" v="yes"/>
    <tag k="construction" v="trunk"/>
    <tag k="highway" v="construction"/>
    <tag k="layer" v="1"/>
    <tag k="name" v="West 2100 North"/>
    <tag k="ref" v="UT-85"/>
    <tag k="source" v="http://www.udot.utah.gov/mountainviewutcounty/content/schedule"/>
    <tag k="source:ref" v="http://en.wikipedia.org/wiki/Mountain_View_Corridor"/>
  </way>
  <way id="48780259" version="3" timestamp="2011-12-27T05:43:32Z" uid="207745" user="NE2" changeset="10212907">
    <nd ref="618993716"/>
    <nd ref="618993718"/>
    <tag k="alt_name" v="Mountain View Corridor"/>
    <tag k="bridge" v="yes"/>
    <tag k="construction" v="trunk"/>
    <tag k="fut_ref" v="UT-85"/>
    <tag k="highway" v="construction"/>
    <tag k="layer" v="1"/>
    <tag k="name" v="West 2100 North"/>
    <tag k="source" v="http://www.udot.utah.gov/mountainviewutcounty/content/schedule"/>
    <tag k="source:ref" v="http://en.wikipedia.org/wiki/Mountain_View_Corridor"/>
  </way>
  <way id="48780259" version="4" timestamp="2012-03-23T19:36:12Z" uid="8909" user="mvexel" changeset="11077586"/>
  <way id="48780261" version="1" timestamp="2010-01-24T00:05:00Z" uid="110593" user="esetzer" changeset="3697138">
    <nd ref="618993718"/>
    <nd ref="618993724"/>
    <tag k="alt_name" v="Mountain View Corridor"/>
    <tag k="construction" v="trunk"/>
    <tag k="created_by" v="Merkaartor 0.11"/>
    <tag k="highway" v="construction"/>
    <tag k="name" v="West 2100 North"/>
    <tag k="oneway" v="yes"/>
    <tag k="ref" v="UT-85"/>
    <tag k="source" v="http://www.udot.utah.gov/mountainviewutcounty/content/schedule"/>
    <tag k="source:ref" v="http://en.wikipedia.org/wiki/Mountain_View_Corridor"/>
  </way>
  <way id="48780261" version="2" timestamp="2011-03-25T17:11:03Z" uid="207745" user="NE2" changeset="7665283">
    <nd ref="618993718"/>
    <nd ref="618993724"/>
    <tag k="alt_name" v="Mountain View Corridor"/>
    <tag k="construction" v="trunk"/>
    <tag k="highway" v="construction"/>
    <tag k="name" v="West 2100 North"/>
    <tag k="ref" v="UT-85"/>
    <tag k="source" v="http://www.udot.utah.gov/mountainviewutcounty/content/schedule"/>
    <tag k="source:ref" v="http://en.wikipedia.org/wiki/Mountain_View_Corridor"/>
  </way>
  <way id="48780261" version="3" timestamp="2011-12-27T05:43:32Z" uid="207745" user="NE2" changeset="10212907">
    <nd ref="618993718"/>
    <nd ref="618993724"/>
    <tag k="alt_name" v="Mountain View Corridor"/>
    <tag k="construction" v="trunk"/>
    <tag k="fut_ref" v="UT-85"/>
    <tag k="highway" v="construction"/>
    <tag k="name" v="West 2100 North"/>
    <tag k="source" v="http://www.udot.utah.gov/mountainviewutcounty/content/schedule"/>
    <tag k="source:ref" v="http://en.wikipedia.org/wiki/Mountain_View_Corridor"/>
  </way>
  <way id="48780261" version="4" timestamp="2012-03-23T19:36:12Z" uid="8909" user="mvexel" changeset="11077586"/>
  <way id="48780263" version="1" timestamp="2010-01-24T00:05:02Z" uid="110593" user="esetzer" changeset="3697138">
    <nd ref="618993724"/>
    <nd ref="618993736"/>
    <tag k="alt_name" v="Mountain View Corridor"/>
    <tag k="bridge" v="yes"/>
    <tag k="construction" v="trunk"/>
    <tag k="created_by" v="Merkaartor 0.11"/>
    <tag k="highway" v="construction"/>
    <tag k="layer" v="1"/>
    <tag k="name" v="West 2100 North"/>
    <tag k="oneway" v="yes"/>
    <tag k="ref" v="UT-85"/>
    <tag k="source" v="http://www.udot.utah.gov/mountainviewutcounty/content/schedule"/>
    <tag k="source:ref" v="http://en.wikipedia.org/wiki/Mountain_View_Corridor"/>
  </way>
  <way id="48780263" version="2" timestamp="2011-03-25T17:10:55Z" uid="207745" user="NE2" changeset="7665283">
    <nd ref="618993724"/>
    <nd ref="618993736"/>
    <tag k="alt_name" v="Mountain View Corridor"/>
    <tag k="bridge" v="yes"/>
    <tag k="construction" v="trunk"/>
    <tag k="highway" v="construction"/>
    <tag k="layer" v="1"/>
    <tag k="name" v="West 2100 North"/>
    <tag k="ref" v="UT-85"/>
    <tag k="source" v="http://www.udot.utah.gov/mountainviewutcounty/content/schedule"/>
    <tag k="source:ref" v="http://en.wikipedia.org/wiki/Mountain_View_Corridor"/>
  </way>
  <way id="48780263" version="3" timestamp="2011-12-27T05:43:31Z" uid="207745" user="NE2" changeset="10212907">
    <nd ref="618993724"/>
    <nd ref="618993736"/>
    <tag k="alt_name" v="Mountain View Corridor"/>
    <tag k="bridge" v="yes"/>
    <tag k="construction" v="trunk"/>
    <tag k="fut_ref" v="UT-85"/>
    <tag k="highway" v="construction"/>
    <tag k="layer" v="1"/>
    <tag k="name" v="West 2100 North"/>
    <tag k="source" v="http://www.udot.utah.gov/mountainviewutcounty/content/schedule"/>
    <tag k="source:ref" v="http://en.wikipedia.org/wiki/Mountain_View_Corridor"/>
  </way>
  <way id="48780263" version="4" timestamp="2012-03-23T19:36:12Z" uid="8909" user="mvexel" changeset="11077586"/>
  <way id="48780264" version="1" timestamp="2010-01-24T00:05:03Z" uid="110593" user="esetzer" changeset="3697138">
    <nd ref="618993736"/>
    <nd ref="84816580"/>
    <tag k="alt_name" v="Mountain View Corridor"/>
    <tag k="construction" v="trunk"/>
    <tag k="created_by" v="Merkaartor 0.11"/>
    <tag k="highway" v="construction"/>
    <tag k="name" v="West 2100 North"/>
    <tag k="oneway" v="yes"/>
    <tag k="ref" v="UT-85"/>
    <tag k="source" v="http://www.udot.utah.gov/mountainviewutcounty/content/schedule"/>
    <tag k="source:ref" v="http://en.wikipedia.org/wiki/Mountain_View_Corridor"/>
  </way>
  <way id="48780264" version="2" timestamp="2011-03-25T17:10:56Z" uid="207745" user="NE2" changeset="7665283">
    <nd ref="618993736"/>
    <nd ref="84816580"/>
    <tag k="alt_name" v="Mountain View Corridor"/>
    <tag k="construction" v="trunk"/>
    <tag k="highway" v="construction"/>
    <tag k="name" v="West 2100 North"/>
    <tag k="ref" v="UT-85"/>
    <tag k="source" v="http://www.udot.utah.gov/mountainviewutcounty/content/schedule"/>
    <tag k="source:ref" v="http://en.wikipedia.org/wiki/Mountain_View_Corridor"/>
  </way>
  <way id="48780264" version="3" timestamp="2011-12-27T05:43:30Z" uid="207745" user="NE2" changeset="10212907">
    <nd ref="618993736"/>
    <nd ref="84816580"/>
    <tag k="alt_name" v="Mountain View Corridor"/>
    <tag k="construction" v="trunk"/>
    <tag k="fut_ref" v="UT-85"/>
    <tag k="highway" v="construction"/>
    <tag k="name" v="West 2100 North"/>
    <tag k="source" v="http://www.udot.utah.gov/mountainviewutcounty/content/schedule"/>
    <tag k="source:ref" v="http://en.wikipedia.org/wiki/Mountain_View_Corridor"/>
  </way>
  <way id="48780264" version="4" timestamp="2012-03-23T19:36:12Z" uid="8909" user="mvexel" changeset="11077586"/>
  <way id="48780759" version="2" timestamp="2010-04-07T14:15:27Z" uid="20587" user="balrog-kun" changeset="4353646">
    <nd ref="82520303"/>
    <nd ref="82520300"/>
    <nd ref="82520298"/>
    <nd ref="82520294"/>
    <nd ref="82520292"/>
    <nd ref="82520291"/>
    <nd ref="82353454"/>
    <nd ref="82520289"/>
    <nd ref="82520288"/>
    <nd ref="82520284"/>
    <nd ref="82520282"/>
    <tag k="highway" v="motorway"/>
    <tag k="name" v="I-820"/>
    <tag k="name_1" v="East Loop 820  South"/>
    <tag k="oneway" v="yes"/>
    <tag k="tiger:cfcc" v="A15"/>
    <tag k="tiger:county" v="Tarrant, TX"/>
    <tag k="tiger:name_base" v="I-820"/>
    <tag k="tiger:name_base_1" v="Loop 820"/>
    <tag k="tiger:name_direction_prefix_1" v="E"/>
    <tag k="tiger:name_direction_suffix_1" v="S"/>
    <tag k="tiger:reviewed" v="no"/>
    <tag k="tiger:separated" v="yes"/>
    <tag k="tiger:source" v="tiger_import_dch_v0.6_20070830"/>
    <tag k="tiger:tlid" v="101899962:101936063:101946111:101899638:101899640:102178270:102178272:102178274:102153716:102178949:102178950:102178952:102155815:102155816:102135407:102135408:102135427:102135428:102179058:102175822:102175824:102178275:101899644:102126904:102158461:10217"/>
    <tag k="tiger:zip_left" v="76119"/>
  </way>
  <way id="48780759" version="3" timestamp="2010-12-19T03:12:13Z" uid="207745" user="NE2" changeset="6702408">
    <nd ref="82520303"/>
    <nd ref="82520300"/>
    <nd ref="82520298"/>
    <nd ref="82520294"/>
    <nd ref="82520292"/>
    <nd ref="82520291"/>
    <nd ref="82353454"/>
    <nd ref="82520289"/>
    <nd ref="82520288"/>
    <nd ref="82520284"/>
    <nd ref="82520282"/>
    <tag k="highway" v="motorway"/>
    <tag k="oneway" v="yes"/>
    <tag k="ref" v="I 820"/>
    <tag k="tiger:cfcc" v="A15"/>
    <tag k="tiger:county" v="Tarrant, TX"/>
    <tag k="tiger:name_base" v="I-820"/>
    <tag k="tiger:name_base_1" v="Loop 820"/>
    <tag k="tiger:name_direction_prefix_1" v="E"/>
    <tag k="tiger:name_direction_suffix_1" v="S"/>
    <tag k="tiger:reviewed" v="no"/>
    <tag k="tiger:separated" v="yes"/>
    <tag k="tiger:source" v="tiger_import_dch_v0.6_20070830"/>
    <tag k="tiger:tlid" v="101899962:101936063:101946111:101899638:101899640:102178270:102178272:102178274:102153716:102178949:102178950:102178952:102155815:102155816:102135407:102135408:102135427:102135428:102179058:102175822:102175824:102178275:101899644:102126904:102158461:10217"/>
    <tag k="tiger:zip_left" v="76119"/>
  </way>
  <way id="48780759" version="4" timestamp="2011-07-23T14:36:44Z" uid="207745" user="NE2" changeset="8806856">
    <nd ref="82520303"/>
    <nd ref="82520300"/>
    <nd ref="82520298"/>
    <nd ref="82520294"/>
    <nd ref="82520292"/>
    <nd ref="82520291"/>
    <nd ref="82353454"/>
    <nd ref="82520289"/>
    <nd ref="82520288"/>
    <nd ref="82520284"/>
    <nd ref="82520282"/>
    <tag k="highway" v="motorway"/>
    <tag k="lanes" v="2"/>
    <tag k="oneway" v="yes"/>
    <tag k="ref" v="I 820"/>
    <tag k="tiger:cfcc" v="A15"/>
    <tag k="tiger:county" v="Tarrant, TX"/>
    <tag k="tiger:name_base" v="I-820"/>
    <tag k="tiger:name_base_1" v="Loop 820"/>
    <tag k="tiger:name_direction_prefix_1" v="E"/>
    <tag k="tiger:name_direction_suffix_1" v="S"/>
    <tag k="tiger:reviewed" v="no"/>
    <tag k="tiger:separated" v="yes"/>
    <tag k="tiger:source" v="tiger_import_dch_v0.6_20070830"/>
    <tag k="tiger:tlid" v="101899962:101936063:101946111:101899638:101899640:102178270:102178272:102178274:102153716:102178949:102178950:102178952:102155815:102155816:102135407:102135408:102135427:102135428:102179058:102175822:102175824:102178275:101899644:102126904:102158461:10217"/>
    <tag k="tiger:zip_left" v="76119"/>
  </way>
  <way id="48780759" version="5" timestamp="2011-11-28T13:05:24Z" uid="207745" user="NE2" changeset="9977040">
    <nd ref="82520303"/>
    <nd ref="82520300"/>
    <nd ref="82520298"/>
    <nd ref="82520294"/>
    <nd ref="82520292"/>
    <nd ref="82520291"/>
    <nd ref="82353454"/>
    <nd ref="82520289"/>
    <nd ref="82520288"/>
    <nd ref="82520284"/>
    <nd ref="82520282"/>
    <tag k="hazmat" v="designated"/>
    <tag k="hgv" v="designated"/>
    <tag k="highway" v="motorway"/>
    <tag k="lanes" v="2"/>
    <tag k="oneway" v="yes"/>
    <tag k="ref" v="I 820"/>
    <tag k="tiger:cfcc" v="A15"/>
    <tag k="tiger:county" v="Tarrant, TX"/>
    <tag k="tiger:name_base" v="I-820"/>
    <tag k="tiger:name_base_1" v="Loop 820"/>
    <tag k="tiger:name_direction_prefix_1" v="E"/>
    <tag k="tiger:name_direction_suffix_1" v="S"/>
    <tag k="tiger:reviewed" v="no"/>
    <tag k="tiger:separated" v="yes"/>
    <tag k="tiger:source" v="tiger_import_dch_v0.6_20070830"/>
    <tag k="tiger:tlid" v="101899962:101936063:101946111:101899638:101899640:102178270:102178272:102178274:102153716:102178949:102178950:102178952:102155815:102155816:102135407:102135408:102135427:102135428:102179058:102175822:102175824:102178275:101899644:102126904:102158461:10217"/>
    <tag k="tiger:zip_left" v="76119"/>
  </way>
  <way id="48780759" version="6" timestamp="2012-01-04T12:53:03Z" uid="207745" user="NE2" changeset="10290469">
    <nd ref="82520303"/>
    <nd ref="82520300"/>
    <nd ref="82520298"/>
    <nd ref="82520294"/>
    <nd ref="82520292"/>
    <nd ref="82520291"/>
    <nd ref="82353454"/>
    <nd ref="82520289"/>
    <nd ref="82520288"/>
    <nd ref="82520284"/>
    <nd ref="82520282"/>
    <tag k="hazmat" v="designated"/>
    <tag k="hgv" v="designated"/>
    <tag k="highway" v="motorway"/>
    <tag k="lanes" v="2"/>
    <tag k="old_ref" v="Loop 217"/>
    <tag k="oneway" v="yes"/>
    <tag k="ref" v="I 820"/>
    <tag k="tiger:cfcc" v="A15"/>
    <tag k="tiger:county" v="Tarrant, TX"/>
    <tag k="tiger:name_base" v="I-820"/>
    <tag k="tiger:name_base_1" v="Loop 820"/>
    <tag k="tiger:name_direction_prefix_1" v="E"/>
    <tag k="tiger:name_direction_suffix_1" v="S"/>
    <tag k="tiger:reviewed" v="no"/>
    <tag k="tiger:separated" v="yes"/>
    <tag k="tiger:source" v="tiger_import_dch_v0.6_20070830"/>
    <tag k="tiger:tlid" v="101899962:101936063:101946111:101899638:101899640:102178270:102178272:102178274:102153716:102178949:102178950:102178952:102155815:102155816:102135407:102135408:102135427:102135428:102179058:102175822:102175824:102178275:101899644:102126904:102158461:10217"/>
    <tag k="tiger:zip_left" v="76119"/>
  </way>
  <way id="48780763" version="3" timestamp="2010-04-07T14:15:27Z" uid="20587" user="balrog-kun" changeset="4353646">
    <nd ref="82405979"/>
    <nd ref="82409944"/>
    <nd ref="82663038"/>
    <nd ref="82469182"/>
    <tag k="highway" v="motorway"/>
    <tag k="name" v="Poly North Freeway"/>
    <tag k="name_1" v="United States Highway 287"/>
    <tag k="oneway" v="yes"/>
    <tag k="ref" v="US 287"/>
    <tag k="tiger:cfcc" v="A25"/>
    <tag k="tiger:county" v="Tarrant, TX"/>
    <tag k="tiger:name_base" v="Poly North"/>
    <tag k="tiger:name_base_1" v="United States Highway 287"/>
    <tag k="tiger:name_type" v="Fwy"/>
    <tag k="tiger:separated" v="yes"/>
    <tag k="tiger:source" v="tiger_import_dch_v0.6_20070830"/>
    <tag k="tiger:tlid" v="102136900:102126807:102126752:102136817:102136819:102136820:102136823:102136825:102136826:102175736:101889657:101889661:101889663:102136899"/>
  </way>
  <way id="48780763" version="4" timestamp="2010-12-15T20:27:51Z" uid="207745" user="NE2" changeset="6670777">
    <nd ref="82405979"/>
    <nd ref="82409944"/>
    <nd ref="82663038"/>
    <nd ref="82469182"/>
    <tag k="highway" v="motorway"/>
    <tag k="name" v="Poly Freeway"/>
    <tag k="oneway" v="yes"/>
    <tag k="ref" v="US 287"/>
    <tag k="tiger:cfcc" v="A25"/>
    <tag k="tiger:county" v="Tarrant, TX"/>
    <tag k="tiger:name_base" v="Poly North"/>
    <tag k="tiger:name_base_1" v="United States Highway 287"/>
    <tag k="tiger:name_type" v="Fwy"/>
    <tag k="tiger:separated" v="yes"/>
    <tag k="tiger:source" v="tiger_import_dch_v0.6_20070830"/>
    <tag k="tiger:tlid" v="102136900:102126807:102126752:102136817:102136819:102136820:102136823:102136825:102136826:102175736:101889657:101889661:101889663:102136899"/>
  </way>
  <way id="48780763" version="5" timestamp="2011-07-06T22:19:01Z" uid="473471" user="NE3" changeset="8652884">
    <nd ref="82405979"/>
    <nd ref="82409944"/>
    <nd ref="82663038"/>
    <nd ref="82469182"/>
    <tag k="NHS" v="yes"/>
    <tag k="highway" v="motorway"/>
    <tag k="name" v="Poly Freeway"/>
    <tag k="oneway" v="yes"/>
    <tag k="ref" v="US 287"/>
    <tag k="tiger:cfcc" v="A25"/>
    <tag k="tiger:county" v="Tarrant, TX"/>
    <tag k="tiger:name_base" v="Poly North"/>
    <tag k="tiger:name_base_1" v="United States Highway 287"/>
    <tag k="tiger:name_type" v="Fwy"/>
    <tag k="tiger:separated" v="yes"/>
    <tag k="tiger:source" v="tiger_import_dch_v0.6_20070830"/>
    <tag k="tiger:tlid" v="102136900:102126807:102126752:102136817:102136819:102136820:102136823:102136825:102136826:102175736:101889657:101889661:101889663:102136899"/>
  </way>
  <way id="48780763" version="6" timestamp="2011-07-23T14:38:23Z" uid="207745" user="NE2" changeset="8806856">
    <nd ref="82405979"/>
    <nd ref="82409944"/>
    <nd ref="82663038"/>
    <nd ref="82469182"/>
    <tag k="NHS" v="yes"/>
    <tag k="highway" v="motorway"/>
    <tag k="lanes" v="3"/>
    <tag k="name" v="Poly Freeway"/>
    <tag k="oneway" v="yes"/>
    <tag k="ref" v="US 287"/>
    <tag k="tiger:cfcc" v="A25"/>
    <tag k="tiger:county" v="Tarrant, TX"/>
    <tag k="tiger:name_base" v="Poly North"/>
    <tag k="tiger:name_base_1" v="United States Highway 287"/>
    <tag k="tiger:name_type" v="Fwy"/>
    <tag k="tiger:separated" v="yes"/>
    <tag k="tiger:source" v="tiger_import_dch_v0.6_20070830"/>
    <tag k="tiger:tlid" v="102136900:102126807:102126752:102136817:102136819:102136820:102136823:102136825:102136826:102175736:101889657:101889661:101889663:102136899"/>
  </way>
  <way id="48780766" version="3" timestamp="2010-04-07T14:15:27Z" uid="20587" user="balrog-kun" changeset="4353646">
    <nd ref="82415298"/>
    <nd ref="82398881"/>
    <nd ref="279925707"/>
    <nd ref="279925706"/>
    <nd ref="279925705"/>
    <nd ref="279925704"/>
    <nd ref="82398857"/>
    <nd ref="82398855"/>
    <nd ref="82398854"/>
    <nd ref="82398850"/>
    <nd ref="82398848"/>
    <nd ref="82398846"/>
    <nd ref="82398844"/>
    <nd ref="82398842"/>
    <nd ref="82398840"/>
    <nd ref="82398838"/>
    <nd ref="82398836"/>
    <nd ref="312936031"/>
    <tag k="bridge" v="yes"/>
    <tag k="highway" v="motorway_link"/>
    <tag k="layer" v="3"/>
    <tag k="name" v="North South Freeway"/>
    <tag k="oneway" v="yes"/>
    <tag k="ref" v="US 377"/>
    <tag k="tiger:cfcc" v="A41:A63"/>
    <tag k="tiger:county" v="Tarrant, TX"/>
    <tag k="tiger:name_base" v="North South"/>
    <tag k="tiger:name_type" v="Fwy"/>
    <tag k="tiger:separated" v="no"/>
    <tag k="tiger:source" v="tiger_import_dch_v0.6_20070830"/>
    <tag k="tiger:tlid" v="101889047:101889063:101889069:102126705:102127098:102136747:102136748:102157955:102157956:102157989:102157990:102158003:102158032:102158033:102175943:102179653"/>
  </way>
  <way id="48780766" version="4" timestamp="2010-12-15T19:38:01Z" uid="207745" user="NE2" changeset="6670777">
    <nd ref="82415298"/>
    <nd ref="82398881"/>
    <nd ref="279925707"/>
    <nd ref="279925706"/>
    <nd ref="279925705"/>
    <nd ref="279925704"/>
    <nd ref="82398857"/>
    <nd ref="82398855"/>
    <nd ref="82398854"/>
    <nd ref="82398850"/>
    <nd ref="82398848"/>
    <nd ref="82398846"/>
    <nd ref="82398844"/>
    <nd ref="82398842"/>
    <nd ref="82398840"/>
    <nd ref="82398838"/>
    <nd ref="82398836"/>
    <nd ref="312936031"/>
    <nd ref="1039710919"/>
    <tag k="bridge" v="yes"/>
    <tag k="highway" v="motorway_link"/>
    <tag k="layer" v="3"/>
    <tag k="name" v="North South Freeway"/>
    <tag k="oneway" v="yes"/>
    <tag k="ref" v="US 377"/>
    <tag k="tiger:cfcc" v="A41:A63"/>
    <tag k="tiger:county" v="Tarrant, TX"/>
    <tag k="tiger:name_base" v="North South"/>
    <tag k="tiger:name_type" v="Fwy"/>
    <tag k="tiger:separated" v="no"/>
    <tag k="tiger:source" v="tiger_import_dch_v0.6_20070830"/>
    <tag k="tiger:tlid" v="101889047:101889063:101889069:102126705:102127098:102136747:102136748:102157955:102157956:102157989:102157990:102158003:102158032:102158033:102175943:102179653"/>
  </way>
  <way id="48780766" version="5" timestamp="2010-12-15T19:51:53Z" uid="207745" user="NE2" changeset="6670777">
    <nd ref="1039736041"/>
    <nd ref="1039735901"/>
    <tag k="highway" v="motorway_link"/>
    <tag k="oneway" v="yes"/>
    <tag k="ref" v="US 377"/>
  </way>
  <way id="48780766" version="6" timestamp="2011-07-23T01:00:33Z" uid="207745" user="NE2" changeset="8802712">
    <nd ref="1039736041"/>
    <nd ref="1039735901"/>
    <tag k="highway" v="motorway_link"/>
    <tag k="lanes" v="1"/>
    <tag k="oneway" v="yes"/>
    <tag k="ref" v="US 377"/>
  </way>
  <way id="48780804" version="3" timestamp="2010-07-09T02:47:40Z" uid="74617" user="JohnSmith" changeset="5170713">
    <nd ref="618999315"/>
    <nd ref="787135063"/>
    <nd ref="618999317"/>
    <nd ref="198491008"/>
    <nd ref="618999324"/>
    <nd ref="618999325"/>
    <nd ref="618999326"/>
    <tag k="highway" v="residential"/>
    <tag k="maxspeed" v="50"/>
    <tag k="maxspeed:source" v="default residential speed limit in Australia"/>
    <tag k="name" v="Westall Road"/>
    <tag k="oneway" v="yes"/>
  </way>
  <way id="48780804" version="4" timestamp="2011-11-17T07:47:02Z" uid="320632" user="Zulu99" changeset="9851729">
    <nd ref="618999315"/>
    <nd ref="787135063"/>
    <tag k="cycleway" v="lane"/>
    <tag k="highway" v="residential"/>
    <tag k="maxspeed" v="50"/>
    <tag k="maxspeed:source" v="default residential speed limit in Australia"/>
    <tag k="name" v="Westall Road"/>
    <tag k="oneway" v="yes"/>
    <tag k="source" v="Bing"/>
  </way>
  <way id="48780804" version="5" timestamp="2012-01-19T22:59:49Z" uid="147510" user="woodpeck_fixbot" changeset="10442006">
    <nd ref="618999315"/>
    <nd ref="787135063"/>
    <tag k="cycleway" v="lane"/>
    <tag k="highway" v="residential"/>
    <tag k="name" v="Westall Road"/>
    <tag k="oneway" v="yes"/>
    <tag k="source" v="Bing"/>
  </way>
  <way id="48780806" version="2" timestamp="2010-07-09T02:42:52Z" uid="74617" user="JohnSmith" changeset="5170713">
    <nd ref="618999327"/>
    <nd ref="32999044"/>
    <tag k="highway" v="residential"/>
    <tag k="maxspeed" v="50"/>
    <tag k="maxspeed:source" v="default residential speed limit in Australia"/>
  </way>
  <way id="48780806" version="3" timestamp="2012-01-19T22:59:51Z" uid="147510" user="woodpeck_fixbot" changeset="10442006">
    <nd ref="618999327"/>
    <nd ref="32999044"/>
    <tag k="highway" v="residential"/>
  </way>
</osm>
