<?xml version='1.0' encoding='UTF-8'?>
<osm version="0.6" generator="libosmium/2.20.0">
  <way id="48949037" version="3" timestamp="2010-10-18T06:19:20Z" uid="23543" user="jkjk" changeset="6076405">
    <nd ref="621092584"/>
    <nd ref="629041692"/>
    <nd ref="629041691"/>
    <nd ref="621092578"/>
    <nd ref="621092579"/>
    <nd ref="621092580"/>
    <nd ref="621092581"/>
    <nd ref="629041683"/>
    <nd ref="621092582"/>
    <nd ref="621092586"/>
    <nd ref="629041696"/>
    <nd ref="629041697"/>
    <nd ref="621092588"/>
    <nd ref="621092591"/>
    <nd ref="621092585"/>
    <nd ref="621092584"/>
    <tag k="highway" v="tertiary"/>
    <tag k="junction" v="roundabout"/>
    <tag k="oneway" v="yes"/>
  </way>
  <way id="48949037" version="4" timestamp="2010-10-19T14:26:18Z" uid="79836" user="Hind" changeset="6099759">
    <nd ref="621092584"/>
    <nd ref="629041692"/>
    <nd ref="629041691"/>
    <nd ref="621092578"/>
    <nd ref="621092579"/>
    <nd ref="621092580"/>
    <nd ref="621092581"/>
    <nd ref="629041683"/>
    <nd ref="621092582"/>
    <nd ref="621092586"/>
    <nd ref="629041696"/>
    <nd ref="629041697"/>
    <nd ref="621092588"/>
    <nd ref="621092591"/>
    <nd ref="621092585"/>
    <nd ref="621092584"/>
    <tag k="highway" v="residential"/>
    <tag k="junction" v="roundabout"/>
    <tag k="oneway" v="yes"/>
  </way>
  <way id="48949037" version="5" timestamp="2010-12-02T16:39:54Z" uid="79836" user="Hind" changeset="6516530">
    <nd ref="621092584"/>
    <nd ref="629041692"/>
    <nd ref="629041691"/>
    <nd ref="621092578"/>
    <nd ref="621092579"/>
    <nd ref="621092580"/>
    <nd ref="621092581"/>
    <nd ref="629041683"/>
    <nd ref="621092582"/>
    <nd ref="621092586"/>
    <nd ref="629041696"/>
    <nd ref="629041697"/>
    <nd ref="621092588"/>
    <nd ref="621092591"/>
    <nd ref="621092585"/>
    <nd ref="621092584"/>
    <tag k="highway" v="secondary"/>
    <tag k="junction" v="roundabout"/>
    <tag k="oneway" v="yes"/>
  </way>
  <way id="48949041" version="4" timestamp="2010-10-18T06:19:10Z" uid="23543" user="jkjk" changeset="6076405">
    <nd ref="282601993"/>
    <nd ref="621092593"/>
    <nd ref="629041703"/>
    <nd ref="621092584"/>
    <tag k="highway" v="tertiary"/>
    <tag k="oneway" v="yes"/>
  </way>
  <way id="48949041" version="5" timestamp="2010-10-19T14:26:22Z" uid="79836" user="Hind" changeset="6099759">
    <nd ref="282601993"/>
    <nd ref="621092593"/>
    <nd ref="629041703"/>
    <nd ref="621092584"/>
    <tag k="highway" v="primary_link"/>
    <tag k="oneway" v="yes"/>
  </way>
  <way id="48949041" version="6" timestamp="2010-12-02T16:40:14Z" uid="79836" user="Hind" changeset="6516530">
    <nd ref="282601993"/>
    <nd ref="621092593"/>
    <nd ref="629041703"/>
    <nd ref="621092584"/>
    <tag k="highway" v="secondary_link"/>
    <tag k="oneway" v="yes"/>
  </way>
  <way id="48949042" version="3" timestamp="2010-10-18T06:19:32Z" uid="23543" user="jkjk" changeset="6076405">
    <nd ref="621092588"/>
    <nd ref="621092590"/>
    <nd ref="621092594"/>
    <nd ref="282601993"/>
    <tag k="highway" v="tertiary"/>
    <tag k="oneway" v="yes"/>
  </way>
  <way id="48949042" version="4" timestamp="2010-10-19T14:25:59Z" uid="79836" user="Hind" changeset="6099759">
    <nd ref="621092588"/>
    <nd ref="621092590"/>
    <nd ref="621092594"/>
    <nd ref="282601993"/>
    <tag k="highway" v="primary_link"/>
    <tag k="oneway" v="yes"/>
  </way>
  <way id="48949042" version="5" timestamp="2010-12-02T16:40:37Z" uid="79836" user="Hind" changeset="6516530">
    <nd ref="621092588"/>
    <nd ref="621092590"/>
    <nd ref="621092594"/>
    <nd ref="282601993"/>
    <tag k="highway" v="secondary_link"/>
    <tag k="oneway" v="yes"/>
  </way>
  <way id="48949044" version="3" timestamp="2010-10-18T06:19:12Z" uid="23543" user="jkjk" changeset="6076405">
    <nd ref="621092582"/>
    <nd ref="621086796"/>
    <tag k="highway" v="tertiary"/>
    <tag k="oneway" v="yes"/>
  </way>
  <way id="48949044" version="4" timestamp="2010-10-19T14:26:20Z" uid="79836" user="Hind" changeset="6099759">
    <nd ref="621092582"/>
    <nd ref="621086796"/>
    <tag k="highway" v="secondary"/>
    <tag k="oneway" v="yes"/>
  </way>
  <way id="48949044" version="5" timestamp="2010-12-02T16:40:09Z" uid="79836" user="Hind" changeset="6516530">
    <nd ref="621092582"/>
    <nd ref="621086796"/>
    <tag k="highway" v="secondary_link"/>
    <tag k="oneway" v="yes"/>
  </way>
  <way id="48949045" version="4" timestamp="2010-10-18T06:19:32Z" uid="23543" user="jkjk" changeset="6076405">
    <nd ref="621086793"/>
    <nd ref="629041696"/>
    <tag k="highway" v="tertiary"/>
    <tag k="oneway" v="yes"/>
  </way>
  <way id="48949045" version="5" timestamp="2010-10-19T14:25:58Z" uid="79836" user="Hind" changeset="6099759">
    <nd ref="621086793"/>
    <nd ref="629041696"/>
    <tag k="highway" v="secondary"/>
    <tag k="oneway" v="yes"/>
  </way>
  <way id="48949045" version="6" timestamp="2010-12-02T16:40:32Z" uid="79836" user="Hind" changeset="6516530">
    <nd ref="621086793"/>
    <nd ref="629041696"/>
    <tag k="highway" v="secondary_link"/>
    <tag k="oneway" v="yes"/>
  </way>
  <way id="48949293" version="6" timestamp="2010-11-23T21:46:39Z" uid="20587" user="balrog-kun" changeset="6442870">
    <nd ref="621094234"/>
    <nd ref="621094227"/>
    <nd ref="622024948"/>
    <nd ref="627283557"/>
    <nd ref="621094232"/>
    <nd ref="621094219"/>
    <nd ref="621094220"/>
    <tag k="addr:postcode" v="677010"/>
    <tag k="cladr:code" v="14000001000026700"/>
    <tag k="cladr:name" v="Якова Потапова"/>
    <tag k="cladr:suffix" v="Улица"/>
    <tag k="highway" v="residential"/>
    <tag k="name" v="ул. Якова Потапова"/>
  </way>
  <way id="48949293" version="7" timestamp="2011-05-20T13:22:09Z" uid="133332" user="AMDmi3" changeset="8198722">
    <nd ref="621094234"/>
    <nd ref="621094227"/>
    <nd ref="622024948"/>
    <nd ref="627283557"/>
    <nd ref="621094232"/>
    <nd ref="621094219"/>
    <nd ref="621094220"/>
    <tag k="addr:postcode" v="677010"/>
    <tag k="cladr:code" v="14000001000026700"/>
    <tag k="cladr:name" v="Якова Потапова"/>
    <tag k="cladr:suffix" v="Улица"/>
    <tag k="highway" v="residential"/>
    <tag k="name" v="улица Якова Потапова"/>
  </way>
  <way id="48949408" version="2" timestamp="2010-02-15T12:14:26Z" uid="74617" user="JohnSmith" changeset="3882541">
    <nd ref="530242971"/>
    <nd ref="621095296"/>
    <nd ref="621095299"/>
    <tag k="highway" v="residential"/>
    <tag k="maxspeed" v="50"/>
    <tag k="name" v="Cassim Way"/>
    <tag k="oneway" v="yes"/>
  </way>
  <way id="48949408" version="3" timestamp="2012-01-19T23:30:45Z" uid="147510" user="woodpeck_fixbot" changeset="10442006">
    <nd ref="530242971"/>
    <nd ref="621095296"/>
    <nd ref="621095299"/>
    <tag k="highway" v="residential"/>
    <tag k="name" v="Cassim Way"/>
    <tag k="oneway" v="yes"/>
  </way>
  <way id="48949409" version="2" timestamp="2010-02-15T12:14:26Z" uid="74617" user="JohnSmith" changeset="3882541">
    <nd ref="621095301"/>
    <nd ref="621095298"/>
    <nd ref="530242983"/>
    <tag k="highway" v="residential"/>
    <tag k="maxspeed" v="50"/>
    <tag k="name" v="Cassim Way"/>
    <tag k="oneway" v="yes"/>
  </way>
  <way id="48949409" version="3" timestamp="2012-01-19T23:30:47Z" uid="147510" user="woodpeck_fixbot" changeset="10442006">
    <nd ref="621095301"/>
    <nd ref="621095298"/>
    <nd ref="530242983"/>
    <tag k="highway" v="residential"/>
    <tag k="name" v="Cassim Way"/>
    <tag k="oneway" v="yes"/>
  </way>
  <way id="48949410" version="2" timestamp="2010-02-15T12:14:26Z" uid="74617" user="JohnSmith" changeset="3882541">
    <nd ref="621095259"/>
    <nd ref="530242946"/>
    <nd ref="263648493"/>
    <tag k="highway" v="footway"/>
    <tag k="width" v="1"/>
  </way>
  <way id="48949411" version="2" timestamp="2010-02-15T12:14:26Z" uid="74617" user="JohnSmith" changeset="3882541">
    <nd ref="621095287"/>
    <nd ref="621095289"/>
    <nd ref="621095290"/>
    <tag k="highway" v="service"/>
    <tag k="maxspeed" v="50"/>
    <tag k="service" v="driveway"/>
  </way>
  <way id="48949411" version="3" timestamp="2012-01-19T23:30:49Z" uid="147510" user="woodpeck_fixbot" changeset="10442006">
    <nd ref="621095287"/>
    <nd ref="621095289"/>
    <nd ref="621095290"/>
    <tag k="highway" v="service"/>
    <tag k="service" v="driveway"/>
  </way>
  <way id="48949413" version="2" timestamp="2010-02-15T12:14:26Z" uid="74617" user="JohnSmith" changeset="3882541">
    <nd ref="263648648"/>
    <nd ref="621095270"/>
    <tag k="highway" v="service"/>
    <tag k="maxspeed" v="50"/>
    <tag k="service" v="driveway"/>
    <tag k="surface" v="paved"/>
  </way>
  <way id="48949413" version="3" timestamp="2012-01-19T23:30:50Z" uid="147510" user="woodpeck_fixbot" changeset="10442006">
    <nd ref="263648648"/>
    <nd ref="621095270"/>
    <tag k="highway" v="service"/>
    <tag k="service" v="driveway"/>
    <tag k="surface" v="paved"/>
  </way>
  <way id="48949726" version="2" timestamp="2010-02-15T12:15:24Z" uid="74617" user="JohnSmith" changeset="3882541">
    <nd ref="508268132"/>
    <nd ref="261693884"/>
    <nd ref="295611571"/>
    <tag k="highway" v="residential"/>
    <tag k="maxspeed" v="50"/>
    <tag k="name" v="Flinders Way"/>
  </way>
  <way id="48949726" version="3" timestamp="2010-04-23T07:51:54Z" uid="4467" user="Rosscoe" changeset="4501319">
    <nd ref="508268132"/>
    <nd ref="261693884"/>
    <tag k="highway" v="residential"/>
    <tag k="maxspeed" v="50"/>
    <tag k="name" v="Flinders Way"/>
  </way>
  <way id="48949726" version="4" timestamp="2011-11-05T06:14:55Z" uid="22094" user="Chadzopkyo" changeset="9743876"/>
  <way id="48949727" version="3" timestamp="2010-02-15T12:15:23Z" uid="74617" user="JohnSmith" changeset="3882541">
    <nd ref="261693980"/>
    <nd ref="621545542"/>
    <nd ref="261693981"/>
    <nd ref="508268132"/>
    <nd ref="261693982"/>
    <tag k="highway" v="residential"/>
    <tag k="maxspeed" v="50"/>
    <tag k="name" v="Gross Avenue"/>
  </way>
  <way id="48949727" version="4" timestamp="2011-11-05T06:14:50Z" uid="22094" user="Chadzopkyo" changeset="9743876">
    <nd ref="261693980"/>
    <nd ref="621545542"/>
    <nd ref="261693981"/>
    <nd ref="1492163427"/>
    <nd ref="1492163426"/>
    <nd ref="508268132"/>
    <nd ref="1492163425"/>
    <nd ref="261693982"/>
    <tag k="highway" v="residential"/>
    <tag k="maxspeed" v="50"/>
    <tag k="name" v="Gross Avenue"/>
  </way>
  <way id="48949727" version="5" timestamp="2012-01-19T23:30:52Z" uid="147510" user="woodpeck_fixbot" changeset="10442006">
    <nd ref="261693980"/>
    <nd ref="621545542"/>
    <nd ref="261693981"/>
    <nd ref="1492163427"/>
    <nd ref="1492163426"/>
    <nd ref="508268132"/>
    <nd ref="1492163425"/>
    <nd ref="261693982"/>
    <tag k="highway" v="residential"/>
    <tag k="name" v="Gross Avenue"/>
  </way>
  <way id="48949727" version="6" timestamp="2012-03-01T06:45:19Z" uid="22094" user="Chadzopkyo" changeset="10834734">
    <nd ref="261693980"/>
    <nd ref="621545542"/>
    <nd ref="261693981"/>
    <nd ref="1492163426"/>
    <nd ref="1492163425"/>
    <nd ref="261693982"/>
    <tag k="highway" v="residential"/>
    <tag k="name" v="Gross Avenue"/>
  </way>
  <way id="48949728" version="2" timestamp="2010-02-15T12:15:26Z" uid="74617" user="JohnSmith" changeset="3882541">
    <nd ref="261694053"/>
    <nd ref="582336659"/>
    <nd ref="261693881"/>
    <nd ref="261693882"/>
    <nd ref="508268132"/>
    <tag k="highway" v="residential"/>
    <tag k="maxspeed" v="50"/>
    <tag k="name" v="Oswald Street"/>
  </way>
  <way id="48949728" version="3" timestamp="2011-11-05T06:14:51Z" uid="22094" user="Chadzopkyo" changeset="9743876">
    <nd ref="261694053"/>
    <nd ref="582336659"/>
    <nd ref="1492163424"/>
    <tag k="highway" v="residential"/>
    <tag k="maxspeed" v="50"/>
    <tag k="name" v="Oswald Street"/>
  </way>
  <way id="48949728" version="4" timestamp="2012-01-19T23:30:54Z" uid="147510" user="woodpeck_fixbot" changeset="10442006">
    <nd ref="261694053"/>
    <nd ref="582336659"/>
    <nd ref="1492163424"/>
    <tag k="highway" v="residential"/>
    <tag k="name" v="Oswald Street"/>
  </way>
  <way id="48949729" version="2" timestamp="2010-02-15T12:15:26Z" uid="74617" user="JohnSmith" changeset="3882541">
    <nd ref="261751139"/>
    <nd ref="261751036"/>
    <tag k="highway" v="residential"/>
    <tag k="maxspeed" v="50"/>
    <tag k="name" v="Fleming Road"/>
  </way>
  <way id="48949729" version="3" timestamp="2012-01-19T23:30:56Z" uid="147510" user="woodpeck_fixbot" changeset="10442006">
    <nd ref="261751139"/>
    <nd ref="261751036"/>
    <tag k="highway" v="residential"/>
    <tag k="name" v="Fleming Road"/>
  </way>
  <way id="48949730" version="2" timestamp="2010-02-15T12:15:26Z" uid="74617" user="JohnSmith" changeset="3882541">
    <nd ref="261694067"/>
    <nd ref="261751139"/>
    <tag k="highway" v="tertiary"/>
    <tag k="name" v="Fleming Road"/>
  </way>
  <way id="48949732" version="3" timestamp="2011-04-05T08:23:25Z" uid="115477" user="wowik" changeset="7772261">
    <nd ref="621098805"/>
    <nd ref="621098806"/>
    <nd ref="621098807"/>
    <nd ref="621098808"/>
    <nd ref="621098805"/>
    <tag k="addr:housenumber" v="10 с2"/>
    <tag k="addr:street" v="Малая Никитская улица"/>
    <tag k="building" v="yes"/>
  </way>
  <way id="48949732" version="4" timestamp="2011-04-20T07:30:52Z" uid="115477" user="wowik" changeset="7913535">
    <nd ref="621098805"/>
    <nd ref="621098806"/>
    <nd ref="621098807"/>
    <nd ref="621098808"/>
    <nd ref="621098805"/>
    <tag k="addr:city" v="Москва"/>
    <tag k="addr:country" v="RU"/>
    <tag k="addr:housenumber" v="10 с2"/>
    <tag k="addr:street" v="Малая Никитская улица"/>
    <tag k="building" v="yes"/>
  </way>
  <way id="48949733" version="3" timestamp="2011-04-05T08:23:22Z" uid="115477" user="wowik" changeset="7772261">
    <nd ref="621098809"/>
    <nd ref="621098810"/>
    <nd ref="621098807"/>
    <nd ref="621098806"/>
    <nd ref="621098809"/>
    <tag k="addr:housenumber" v="10"/>
    <tag k="addr:street" v="Малая Никитская улица"/>
    <tag k="building" v="yes"/>
  </way>
  <way id="48949733" version="4" timestamp="2011-04-20T11:18:09Z" uid="115477" user="wowik" changeset="7915124">
    <nd ref="621098809"/>
    <nd ref="621098810"/>
    <nd ref="621098807"/>
    <nd ref="621098806"/>
    <nd ref="621098809"/>
    <tag k="addr:city" v="Москва"/>
    <tag k="addr:country" v="RU"/>
    <tag k="addr:housenumber" v="10"/>
    <tag k="addr:street" v="Малая Никитская улица"/>
    <tag k="building" v="yes"/>
  </way>
  <way id="48949734" version="5" timestamp="2011-04-05T08:23:19Z" uid="115477" user="wowik" changeset="7772261">
    <nd ref="621098811"/>
    <nd ref="621098810"/>
    <nd ref="621098809"/>
    <nd ref="715786773"/>
    <nd ref="715786818"/>
    <nd ref="621098812"/>
    <nd ref="621098813"/>
    <nd ref="715786718"/>
    <nd ref="621098811"/>
    <tag k="addr:housenumber" v="8/1"/>
    <tag k="addr:street" v="Малая Никитская улица"/>
    <tag k="building" v="yes"/>
  </way>
  <way id="48949734" version="6" timestamp="2011-04-20T11:18:19Z" uid="115477" user="wowik" changeset="7915124">
    <nd ref="621098811"/>
    <nd ref="621098810"/>
    <nd ref="621098809"/>
    <nd ref="715786773"/>
    <nd ref="715786818"/>
    <nd ref="621098812"/>
    <nd ref="621098813"/>
    <nd ref="715786718"/>
    <nd ref="621098811"/>
    <tag k="addr:city" v="Москва"/>
    <tag k="addr:country" v="RU"/>
    <tag k="addr:housenumber" v="8/1"/>
    <tag k="addr:street" v="Малая Никитская улица"/>
    <tag k="building" v="yes"/>
  </way>
  <way id="48949736" version="3" timestamp="2011-04-05T08:23:24Z" uid="115477" user="wowik" changeset="7772261">
    <nd ref="621098815"/>
    <nd ref="1233383346"/>
    <nd ref="621098817"/>
    <nd ref="621098821"/>
    <nd ref="621098823"/>
    <nd ref="621098815"/>
    <tag k="addr:street" v="Малая Никитская улица"/>
    <tag k="building" v="yes"/>
  </way>
  <way id="48949736" version="4" timestamp="2011-04-20T11:19:24Z" uid="115477" user="wowik" changeset="7915253">
    <nd ref="621098815"/>
    <nd ref="1233383346"/>
    <nd ref="621098817"/>
    <nd ref="621098821"/>
    <nd ref="621098823"/>
    <nd ref="621098815"/>
    <tag k="addr:city" v="Москва"/>
    <tag k="addr:country" v="RU"/>
    <tag k="addr:street" v="Малая Никитская улица"/>
    <tag k="building" v="yes"/>
  </way>
</osm>
