<?xml version='1.0' encoding='UTF-8'?>
<osm version="0.6" generator="libosmium/2.20.0">
  <way id="48954036" version="1" timestamp="2010-01-27T10:32:12Z" uid="224933" user="Hooge" changeset="3726654">
    <nd ref="621135710"/>
    <nd ref="621135712"/>
    <nd ref="621135713"/>
    <tag k="highway" v="residential"/>
    <tag k="name" v="Käutchesweg"/>
  </way>
  <way id="48954036" version="2" timestamp="2010-03-26T11:12:07Z" uid="46169" user="wolter" changeset="4236670">
    <nd ref="621135710"/>
    <nd ref="674728666"/>
    <nd ref="621135712"/>
    <nd ref="621135713"/>
    <tag k="highway" v="residential"/>
    <tag k="name" v="Käutchesweg"/>
  </way>
  <way id="48954036" version="3" timestamp="2010-05-06T19:12:19Z" uid="36894" user="rab" changeset="4624550">
    <nd ref="203628965"/>
    <nd ref="674728666"/>
    <nd ref="621135712"/>
    <nd ref="621135713"/>
    <tag k="highway" v="residential"/>
    <tag k="name" v="Käutchesweg"/>
  </way>
  <way id="48954036" version="4" timestamp="2010-09-13T21:52:27Z" uid="338040" user="TSchertler" changeset="5774155">
    <nd ref="203628965"/>
    <nd ref="674728666"/>
    <nd ref="621135712"/>
    <nd ref="911278441"/>
    <nd ref="621135713"/>
    <tag k="highway" v="residential"/>
    <tag k="name" v="Käutchesweg"/>
  </way>
  <way id="48954037" version="1" timestamp="2010-01-27T10:32:12Z" uid="224933" user="Hooge" changeset="3726654">
    <nd ref="621135715"/>
    <nd ref="621135717"/>
    <tag k="highway" v="residential"/>
    <tag k="name" v="Gerichtsstraße"/>
  </way>
  <way id="48954037" version="2" timestamp="2010-03-26T11:12:07Z" uid="46169" user="wolter" changeset="4236670">
    <nd ref="621135715"/>
    <nd ref="674728666"/>
    <tag k="highway" v="residential"/>
    <tag k="name" v="Gerichtsstraße"/>
  </way>
  <way id="48954037" version="3" timestamp="2010-09-13T21:51:59Z" uid="338040" user="TSchertler" changeset="5774155">
    <nd ref="621135715"/>
    <nd ref="911278824"/>
    <nd ref="674728666"/>
    <nd ref="911278474"/>
    <nd ref="621135720"/>
    <tag k="highway" v="residential"/>
    <tag k="name" v="Gerichtsstraße"/>
  </way>
  <way id="48954037" version="4" timestamp="2011-03-12T12:07:13Z" uid="18141" user="Hobby Navigator" changeset="7532419">
    <nd ref="621135715"/>
    <nd ref="911278824"/>
    <nd ref="674728666"/>
    <nd ref="911278474"/>
    <nd ref="1198245167"/>
    <nd ref="621135720"/>
    <tag k="highway" v="residential"/>
    <tag k="name" v="Gerichtsstraße"/>
  </way>
  <way id="48954038" version="1" timestamp="2010-01-27T10:32:12Z" uid="224933" user="Hooge" changeset="3726654">
    <nd ref="621135718"/>
    <nd ref="621135720"/>
    <tag k="highway" v="residential"/>
    <tag k="name" v="Gerichtsstraße"/>
  </way>
  <way id="48954038" version="2" timestamp="2010-03-26T11:12:07Z" uid="46169" user="wolter" changeset="4236670">
    <nd ref="674728666"/>
    <nd ref="621135720"/>
    <tag k="highway" v="residential"/>
    <tag k="name" v="Gerichtsstraße"/>
  </way>
  <way id="48954038" version="3" timestamp="2010-09-13T21:53:38Z" uid="338040" user="TSchertler" changeset="5774155"/>
  <way id="48954193" version="2" timestamp="2010-07-09T06:18:27Z" uid="74617" user="JohnSmith" changeset="5171134">
    <nd ref="621138205"/>
    <nd ref="621138208"/>
    <nd ref="621138199"/>
    <tag k="highway" v="residential"/>
    <tag k="maxspeed" v="50"/>
    <tag k="maxspeed:source" v="default residential speed limit in Australia"/>
  </way>
  <way id="48954193" version="3" timestamp="2010-11-03T09:33:46Z" uid="171576" user="Conquest" changeset="6274446">
    <nd ref="621138205"/>
    <nd ref="975687973"/>
    <tag k="highway" v="residential"/>
    <tag k="maxspeed" v="50"/>
    <tag k="maxspeed:source" v="default residential speed limit in Australia"/>
    <tag k="name" v="Coralie Street"/>
  </way>
  <way id="48954193" version="4" timestamp="2012-01-19T23:32:29Z" uid="147510" user="woodpeck_fixbot" changeset="10442006">
    <nd ref="621138205"/>
    <nd ref="975687973"/>
    <tag k="highway" v="residential"/>
    <tag k="name" v="Coralie Street"/>
  </way>
  <way id="48954702" version="2" timestamp="2010-07-04T07:36:49Z" uid="7617" user="Franc" changeset="5130271">
    <nd ref="621141928"/>
    <nd ref="621141929"/>
    <nd ref="621141930"/>
    <nd ref="621141927"/>
    <nd ref="621142008"/>
    <nd ref="621142009"/>
    <nd ref="621142010"/>
    <tag k="highway" v="residential"/>
    <tag k="name" v="Werombi Road"/>
    <tag k="source" v="survey"/>
  </way>
  <way id="48954702" version="3" timestamp="2010-07-07T20:13:58Z" uid="74617" user="JohnSmith" changeset="5161069">
    <nd ref="621141928"/>
    <nd ref="621141929"/>
    <nd ref="621141930"/>
    <nd ref="621141927"/>
    <nd ref="621142008"/>
    <nd ref="621142009"/>
    <nd ref="621142010"/>
    <tag k="highway" v="residential"/>
    <tag k="maxspeed" v="50"/>
    <tag k="maxspeed:source" v="default residential speed limit in Australia"/>
    <tag k="name" v="Werombi Road"/>
    <tag k="source" v="survey"/>
  </way>
  <way id="48954702" version="4" timestamp="2012-01-19T23:32:31Z" uid="147510" user="woodpeck_fixbot" changeset="10442006">
    <nd ref="621141928"/>
    <nd ref="621141929"/>
    <nd ref="621141930"/>
    <nd ref="621141927"/>
    <nd ref="621142008"/>
    <nd ref="621142009"/>
    <nd ref="621142010"/>
    <tag k="highway" v="residential"/>
    <tag k="name" v="Werombi Road"/>
    <tag k="source" v="survey"/>
  </way>
</osm>
