<?xml version='1.0' encoding='UTF-8'?>
<osm version="0.6" generator="libosmium/2.20.0">
  <way id="49093112" version="2" timestamp="2010-04-03T13:58:18Z" uid="20587" user="balrog-kun" changeset="4312927">
    <nd ref="622779733"/>
    <nd ref="82894278"/>
    <tag k="highway" v="residential"/>
    <tag k="layer" v="-1"/>
    <tag k="name" v="18800 West Road"/>
    <tag k="tiger:cfcc" v="A41"/>
    <tag k="tiger:county" v="Box Elder, UT"/>
    <tag k="tiger:name_base" v="18800 W"/>
    <tag k="tiger:name_type" v="Rd"/>
    <tag k="tiger:reviewed" v="no"/>
    <tag k="tiger:separated" v="no"/>
    <tag k="tiger:source" v="tiger_import_dch_v0.6_20070830"/>
    <tag k="tiger:tlid" v="153895342:153895270:153914220:153895334:153915011:153895269"/>
    <tag k="tu" v="y"/>
    <tag k="tunnel" v="yes"/>
  </way>
  <way id="49093112" version="3" timestamp="2011-07-10T13:29:40Z" uid="119785" user="trekki" changeset="8683511"/>
  <way id="49093271" version="2" timestamp="2010-04-03T13:58:18Z" uid="20587" user="balrog-kun" changeset="4312927">
    <nd ref="622780693"/>
    <nd ref="82884129"/>
    <nd ref="82848165"/>
    <nd ref="82884131"/>
    <tag k="highway" v="service"/>
    <tag k="name" v="North 10000 West"/>
    <tag k="tiger:cfcc" v="A41"/>
    <tag k="tiger:county" v="Box Elder, UT"/>
    <tag k="tiger:name_base" v="10000"/>
    <tag k="tiger:name_direction_prefix" v="N"/>
    <tag k="tiger:name_direction_suffix" v="W"/>
    <tag k="tiger:reviewed" v="no"/>
    <tag k="tiger:separated" v="no"/>
    <tag k="tiger:source" v="tiger_import_dch_v0.6_20070830"/>
    <tag k="tiger:tlid" v="153911277:153899722:153899723:153899724:153899725:153899721:153899919:153915390:153915044"/>
    <tag k="tiger:zip_left" v="84337"/>
    <tag k="tiger:zip_right" v="84337"/>
  </way>
  <way id="49093294" version="2" timestamp="2010-04-03T13:58:19Z" uid="20587" user="balrog-kun" changeset="4312927">
    <nd ref="622780701"/>
    <nd ref="622780702"/>
    <tag k="bridge" v="yes"/>
    <tag k="highway" v="residential"/>
    <tag k="name" v="West 1000  North"/>
    <tag k="name_1" v="West 10th  North"/>
    <tag k="tiger:cfcc" v="A41"/>
    <tag k="tiger:county" v="Box Elder, UT"/>
    <tag k="tiger:name_base" v="1000"/>
    <tag k="tiger:name_base_1" v="10th"/>
    <tag k="tiger:name_direction_prefix" v="W"/>
    <tag k="tiger:name_direction_prefix_1" v="W"/>
    <tag k="tiger:name_direction_suffix" v="N"/>
    <tag k="tiger:name_direction_suffix_1" v="N"/>
    <tag k="tiger:reviewed" v="no"/>
    <tag k="tiger:separated" v="no"/>
    <tag k="tiger:source" v="tiger_import_dch_v0.6_20070830"/>
    <tag k="tiger:tlid" v="153900941:153900482:153911504:153911505:153911129:153900480:153914192:153900925:153900479:153915953:153916087:153915608:153916104:153912529:153912542:153912553:153912554:153911900:153915584:153915585:153910920:153912548"/>
    <tag k="tiger:zip_left" v="84337"/>
    <tag k="tiger:zip_right" v="84337"/>
  </way>
  <way id="49093331" version="2" timestamp="2010-04-03T13:58:19Z" uid="20587" user="balrog-kun" changeset="4312927">
    <nd ref="622780786"/>
    <nd ref="622780746"/>
    <tag k="bridge" v="yes"/>
    <tag k="highway" v="residential"/>
    <tag k="name" v="West 11200  North"/>
  </way>
  <way id="49093331" version="3" timestamp="2011-03-25T10:28:16Z" uid="207745" user="NE2" changeset="7662129">
    <nd ref="622780786"/>
    <nd ref="622780746"/>
    <tag k="bridge" v="yes"/>
    <tag k="highway" v="secondary"/>
    <tag k="name" v="West 11200  North"/>
    <tag k="ref" v="SR 102"/>
  </way>
  <way id="49093331" version="4" timestamp="2011-12-27T05:43:30Z" uid="207745" user="NE2" changeset="10212907">
    <nd ref="622780746"/>
    <nd ref="622780786"/>
    <tag k="bridge" v="yes"/>
    <tag k="highway" v="secondary"/>
    <tag k="name" v="West 11200  North"/>
    <tag k="ref" v="I 84 Business;SR 102"/>
  </way>
</osm>
