<?xml version='1.0' encoding='UTF-8'?>
<osm version="0.6" generator="libosmium/2.20.0">
  <way id="49091754" version="2" timestamp="2010-03-22T07:36:07Z" uid="20587" user="balrog-kun" changeset="4199043">
    <nd ref="38285157"/>
    <nd ref="38509847"/>
    <tag k="highway" v="primary"/>
    <tag k="name" v="Northeast 3rd Street"/>
    <tag k="oneway" v="yes"/>
    <tag k="ref" v="US 20; US 97 Business"/>
    <tag k="source" v="Yahoo image"/>
  </way>
  <way id="49091754" version="3" timestamp="2010-08-03T01:21:48Z" uid="63936" user="MojaveNC" changeset="5386172">
    <nd ref="38285157"/>
    <nd ref="38509847"/>
    <tag k="highway" v="motorway_link"/>
    <tag k="lanes" v="1"/>
    <tag k="name" v="McKenzie-Bend Highway"/>
    <tag k="oneway" v="yes"/>
    <tag k="ref" v="US 20"/>
    <tag k="source" v="Yahoo image"/>
  </way>
  <way id="49091754" version="4" timestamp="2011-07-07T16:26:35Z" uid="473471" user="NE3" changeset="8658775">
    <nd ref="38285157"/>
    <nd ref="38509847"/>
    <tag k="NHS" v="yes"/>
    <tag k="highway" v="motorway_link"/>
    <tag k="lanes" v="1"/>
    <tag k="name" v="McKenzie-Bend Highway"/>
    <tag k="oneway" v="yes"/>
    <tag k="ref" v="US 20"/>
    <tag k="source" v="Yahoo image"/>
  </way>
  <way id="49091754" version="5" timestamp="2011-11-25T16:52:35Z" uid="207745" user="NE2" changeset="9945867">
    <nd ref="38285157"/>
    <nd ref="38509847"/>
    <tag k="NHS" v="yes"/>
    <tag k="hgv" v="designated"/>
    <tag k="hgv:national_network" v="yes"/>
    <tag k="highway" v="motorway_link"/>
    <tag k="lanes" v="1"/>
    <tag k="name" v="McKenzie-Bend Highway"/>
    <tag k="oneway" v="yes"/>
    <tag k="ref" v="US 20"/>
    <tag k="source" v="Yahoo image"/>
    <tag k="source:hgv:national_network" v="Title 23: Highways Part 658 http://ecfr.gpoaccess.gov/cgi/t/text/text-idx?c=ecfr&amp;rgn=div5&amp;view=text&amp;node=23:1.0.1.7.33&amp;idno=23"/>
  </way>
  <way id="49091754" version="6" timestamp="2011-12-30T11:34:47Z" uid="207745" user="NE2" changeset="10244195">
    <nd ref="38285157"/>
    <nd ref="38509847"/>
    <tag k="NHS" v="yes"/>
    <tag k="hgv" v="designated"/>
    <tag k="hgv:national_network" v="yes"/>
    <tag k="highway" v="primary"/>
    <tag k="lanes" v="1"/>
    <tag k="name" v="McKenzie-Bend Highway"/>
    <tag k="oneway" v="yes"/>
    <tag k="ref" v="US 20;US 97 Business"/>
    <tag k="source" v="Yahoo image"/>
    <tag k="source:hgv:national_network" v="Title 23: Highways Part 658 http://ecfr.gpoaccess.gov/cgi/t/text/text-idx?c=ecfr&amp;rgn=div5&amp;view=text&amp;node=23:1.0.1.7.33&amp;idno=23"/>
  </way>
  <way id="49091754" version="7" timestamp="2011-12-30T22:49:45Z" uid="92286" user="Paul Johnson" changeset="10250590">
    <nd ref="38285157"/>
    <nd ref="38509847"/>
    <tag k="NHS" v="yes"/>
    <tag k="cycleway" v="lane"/>
    <tag k="hgv" v="designated"/>
    <tag k="hgv:national_network" v="yes"/>
    <tag k="highway" v="primary"/>
    <tag k="lanes" v="1"/>
    <tag k="name" v="McKenzie-Bend Highway"/>
    <tag k="oneway" v="yes"/>
    <tag k="ref" v="US 20;US 97B"/>
    <tag k="source" v="Yahoo image"/>
    <tag k="source:hgv:national_network" v="Title 23: Highways Part 658 http://ecfr.gpoaccess.gov/cgi/t/text/text-idx?c=ecfr&amp;rgn=div5&amp;view=text&amp;node=23:1.0.1.7.33&amp;idno=23"/>
  </way>
  <way id="49091754" version="8" timestamp="2011-12-31T22:41:18Z" uid="207745" user="NE2" changeset="10258418">
    <nd ref="38285157"/>
    <nd ref="38509847"/>
    <tag k="NHS" v="yes"/>
    <tag k="cycleway" v="lane"/>
    <tag k="hgv" v="designated"/>
    <tag k="hgv:national_network" v="yes"/>
    <tag k="highway" v="primary"/>
    <tag k="lanes" v="1"/>
    <tag k="name" v="McKenzie-Bend Highway"/>
    <tag k="oneway" v="yes"/>
    <tag k="ref" v="US 20;US 97 Business"/>
    <tag k="source" v="Yahoo image"/>
    <tag k="source:hgv:national_network" v="Title 23: Highways Part 658 http://ecfr.gpoaccess.gov/cgi/t/text/text-idx?c=ecfr&amp;rgn=div5&amp;view=text&amp;node=23:1.0.1.7.33&amp;idno=23"/>
  </way>
  <way id="49091755" version="2" timestamp="2010-03-22T07:36:07Z" uid="20587" user="balrog-kun" changeset="4199043">
    <nd ref="38285186"/>
    <nd ref="38509926"/>
    <nd ref="442962291"/>
    <nd ref="38509928"/>
    <nd ref="265674408"/>
    <nd ref="265674409"/>
    <tag k="highway" v="primary"/>
    <tag k="name" v="McKenzie-Bend Highway"/>
    <tag k="oneway" v="yes"/>
    <tag k="ref" v="US 20"/>
    <tag k="source" v="Yahoo image"/>
  </way>
  <way id="49091755" version="3" timestamp="2010-08-03T01:21:39Z" uid="63936" user="MojaveNC" changeset="5386172">
    <nd ref="38285186"/>
    <nd ref="38509926"/>
    <nd ref="442962291"/>
    <nd ref="38509928"/>
    <nd ref="265674408"/>
    <nd ref="265674409"/>
    <tag k="highway" v="motorway_link"/>
    <tag k="lanes" v="1"/>
    <tag k="name" v="McKenzie-Bend Highway"/>
    <tag k="oneway" v="yes"/>
    <tag k="ref" v="US 20"/>
    <tag k="source" v="Yahoo image"/>
  </way>
  <way id="49091755" version="4" timestamp="2011-07-07T16:26:37Z" uid="473471" user="NE3" changeset="8658775">
    <nd ref="38285186"/>
    <nd ref="38509926"/>
    <nd ref="442962291"/>
    <nd ref="38509928"/>
    <nd ref="265674408"/>
    <nd ref="265674409"/>
    <tag k="NHS" v="yes"/>
    <tag k="highway" v="motorway_link"/>
    <tag k="lanes" v="1"/>
    <tag k="name" v="McKenzie-Bend Highway"/>
    <tag k="oneway" v="yes"/>
    <tag k="ref" v="US 20"/>
    <tag k="source" v="Yahoo image"/>
  </way>
  <way id="49091755" version="5" timestamp="2011-11-25T16:52:39Z" uid="207745" user="NE2" changeset="9945867">
    <nd ref="38285186"/>
    <nd ref="38509926"/>
    <nd ref="442962291"/>
    <nd ref="38509928"/>
    <nd ref="265674408"/>
    <nd ref="265674409"/>
    <tag k="NHS" v="yes"/>
    <tag k="hgv" v="designated"/>
    <tag k="hgv:national_network" v="yes"/>
    <tag k="highway" v="motorway_link"/>
    <tag k="lanes" v="1"/>
    <tag k="name" v="McKenzie-Bend Highway"/>
    <tag k="oneway" v="yes"/>
    <tag k="ref" v="US 20"/>
    <tag k="source" v="Yahoo image"/>
    <tag k="source:hgv:national_network" v="Title 23: Highways Part 658 http://ecfr.gpoaccess.gov/cgi/t/text/text-idx?c=ecfr&amp;rgn=div5&amp;view=text&amp;node=23:1.0.1.7.33&amp;idno=23"/>
  </way>
  <way id="49091755" version="6" timestamp="2011-12-30T11:34:48Z" uid="207745" user="NE2" changeset="10244195">
    <nd ref="38285186"/>
    <nd ref="38509926"/>
    <nd ref="442962291"/>
    <nd ref="38509928"/>
    <nd ref="265674408"/>
    <nd ref="265674409"/>
    <tag k="NHS" v="yes"/>
    <tag k="hgv" v="designated"/>
    <tag k="hgv:national_network" v="yes"/>
    <tag k="highway" v="primary"/>
    <tag k="lanes" v="1"/>
    <tag k="name" v="McKenzie-Bend Highway"/>
    <tag k="oneway" v="yes"/>
    <tag k="ref" v="US 20"/>
    <tag k="source" v="Yahoo image"/>
    <tag k="source:hgv:national_network" v="Title 23: Highways Part 658 http://ecfr.gpoaccess.gov/cgi/t/text/text-idx?c=ecfr&amp;rgn=div5&amp;view=text&amp;node=23:1.0.1.7.33&amp;idno=23"/>
  </way>
  <way id="49091755" version="7" timestamp="2011-12-30T22:49:49Z" uid="92286" user="Paul Johnson" changeset="10250590">
    <nd ref="38285186"/>
    <nd ref="38509926"/>
    <nd ref="442962291"/>
    <nd ref="38509928"/>
    <nd ref="265674408"/>
    <nd ref="265674409"/>
    <tag k="NHS" v="yes"/>
    <tag k="cycleway" v="lane"/>
    <tag k="hgv" v="designated"/>
    <tag k="hgv:national_network" v="yes"/>
    <tag k="highway" v="primary"/>
    <tag k="lanes" v="1"/>
    <tag k="name" v="McKenzie-Bend Highway"/>
    <tag k="oneway" v="yes"/>
    <tag k="ref" v="US 20"/>
    <tag k="source" v="Yahoo image"/>
    <tag k="source:hgv:national_network" v="Title 23: Highways Part 658 http://ecfr.gpoaccess.gov/cgi/t/text/text-idx?c=ecfr&amp;rgn=div5&amp;view=text&amp;node=23:1.0.1.7.33&amp;idno=23"/>
  </way>
</osm>
