<?xml version='1.0' encoding='UTF-8'?>
<osm version="0.6" generator="libosmium/2.20.0">
  <way id="49098184" version="3" timestamp="2010-07-09T05:22:20Z" uid="74617" user="JohnSmith" changeset="5170972">
    <nd ref="622812014"/>
    <nd ref="622812015"/>
    <nd ref="622811994"/>
    <nd ref="631426227"/>
    <nd ref="622811977"/>
    <nd ref="622811979"/>
    <nd ref="622811981"/>
    <nd ref="622811988"/>
    <nd ref="631426226"/>
    <nd ref="622811925"/>
    <nd ref="622811926"/>
    <nd ref="622811935"/>
    <nd ref="622811996"/>
    <nd ref="622811997"/>
    <nd ref="622811999"/>
    <nd ref="622812001"/>
    <nd ref="631426232"/>
    <nd ref="622812025"/>
    <nd ref="393107429"/>
    <tag k="highway" v="residential"/>
    <tag k="maxspeed" v="50"/>
    <tag k="maxspeed:source" v="default residential speed limit in Australia"/>
    <tag k="name" v="Fossickers Way"/>
  </way>
  <way id="49098184" version="4" timestamp="2012-01-19T23:54:48Z" uid="147510" user="woodpeck_fixbot" changeset="10442006">
    <nd ref="622812014"/>
    <nd ref="622812015"/>
    <nd ref="622811994"/>
    <nd ref="631426227"/>
    <nd ref="622811977"/>
    <nd ref="622811979"/>
    <nd ref="622811981"/>
    <nd ref="622811988"/>
    <nd ref="631426226"/>
    <nd ref="622811925"/>
    <nd ref="622811926"/>
    <nd ref="622811935"/>
    <nd ref="622811996"/>
    <nd ref="622811997"/>
    <nd ref="622811999"/>
    <nd ref="622812001"/>
    <nd ref="631426232"/>
    <nd ref="622812025"/>
    <nd ref="393107429"/>
    <tag k="highway" v="residential"/>
    <tag k="name" v="Fossickers Way"/>
  </way>
  <way id="49098185" version="2" timestamp="2010-07-09T05:21:42Z" uid="74617" user="JohnSmith" changeset="5170972">
    <nd ref="622811955"/>
    <nd ref="622811922"/>
    <tag k="highway" v="residential"/>
    <tag k="maxspeed" v="50"/>
    <tag k="maxspeed:source" v="default residential speed limit in Australia"/>
    <tag k="name" v="Milton Close"/>
  </way>
  <way id="49098185" version="3" timestamp="2012-01-19T23:54:50Z" uid="147510" user="woodpeck_fixbot" changeset="10442006">
    <nd ref="622811955"/>
    <nd ref="622811922"/>
    <tag k="highway" v="residential"/>
    <tag k="name" v="Milton Close"/>
  </way>
  <way id="49098186" version="2" timestamp="2010-07-09T05:22:12Z" uid="74617" user="JohnSmith" changeset="5170972">
    <nd ref="622811943"/>
    <nd ref="622811919"/>
    <tag k="highway" v="residential"/>
    <tag k="maxspeed" v="50"/>
    <tag k="maxspeed:source" v="default residential speed limit in Australia"/>
    <tag k="name" v="Opossum Rise"/>
  </way>
  <way id="49098186" version="3" timestamp="2012-01-19T23:54:51Z" uid="147510" user="woodpeck_fixbot" changeset="10442006">
    <nd ref="622811943"/>
    <nd ref="622811919"/>
    <tag k="highway" v="residential"/>
    <tag k="name" v="Opossum Rise"/>
  </way>
  <way id="49098187" version="3" timestamp="2010-07-09T05:22:37Z" uid="74617" user="JohnSmith" changeset="5170972">
    <nd ref="622811925"/>
    <nd ref="622811928"/>
    <nd ref="622811930"/>
    <nd ref="622811931"/>
    <nd ref="622811933"/>
    <tag k="highway" v="residential"/>
    <tag k="maxspeed" v="50"/>
    <tag k="maxspeed:source" v="default residential speed limit in Australia"/>
    <tag k="name" v="Pick &apos;n Pan Way"/>
  </way>
  <way id="49098187" version="4" timestamp="2012-01-19T23:54:52Z" uid="147510" user="woodpeck_fixbot" changeset="10442006">
    <nd ref="622811925"/>
    <nd ref="622811928"/>
    <nd ref="622811930"/>
    <nd ref="622811931"/>
    <nd ref="622811933"/>
    <tag k="highway" v="residential"/>
    <tag k="name" v="Pick &apos;n Pan Way"/>
  </way>
  <way id="49098188" version="2" timestamp="2010-07-09T05:22:38Z" uid="74617" user="JohnSmith" changeset="5170972">
    <nd ref="622812016"/>
    <nd ref="622812020"/>
    <nd ref="622812003"/>
    <nd ref="622812005"/>
    <nd ref="622812007"/>
    <nd ref="622812009"/>
    <nd ref="622812011"/>
    <nd ref="622812012"/>
    <nd ref="622811970"/>
    <nd ref="622812022"/>
    <nd ref="622812023"/>
    <tag k="highway" v="residential"/>
    <tag k="maxspeed" v="50"/>
    <tag k="maxspeed:source" v="default residential speed limit in Australia"/>
    <tag k="name" v="Hodson Road"/>
  </way>
  <way id="49098188" version="3" timestamp="2012-01-19T23:54:53Z" uid="147510" user="woodpeck_fixbot" changeset="10442006">
    <nd ref="622812016"/>
    <nd ref="622812020"/>
    <nd ref="622812003"/>
    <nd ref="622812005"/>
    <nd ref="622812007"/>
    <nd ref="622812009"/>
    <nd ref="622812011"/>
    <nd ref="622812012"/>
    <nd ref="622811970"/>
    <nd ref="622812022"/>
    <nd ref="622812023"/>
    <tag k="highway" v="residential"/>
    <tag k="name" v="Hodson Road"/>
  </way>
  <way id="49098189" version="2" timestamp="2010-07-09T05:22:03Z" uid="74617" user="JohnSmith" changeset="5170972">
    <nd ref="622811976"/>
    <nd ref="622811967"/>
    <tag k="highway" v="residential"/>
    <tag k="maxspeed" v="50"/>
    <tag k="maxspeed:source" v="default residential speed limit in Australia"/>
    <tag k="name" v="Manna Gum Rise"/>
  </way>
  <way id="49098189" version="3" timestamp="2012-01-19T23:54:54Z" uid="147510" user="woodpeck_fixbot" changeset="10442006">
    <nd ref="622811976"/>
    <nd ref="622811967"/>
    <tag k="highway" v="residential"/>
    <tag k="name" v="Manna Gum Rise"/>
  </way>
  <way id="49098190" version="2" timestamp="2010-07-09T05:22:28Z" uid="74617" user="JohnSmith" changeset="5170972">
    <nd ref="622811949"/>
    <nd ref="622811952"/>
    <nd ref="622811972"/>
    <nd ref="622811974"/>
    <nd ref="622811976"/>
    <nd ref="622811957"/>
    <tag k="highway" v="residential"/>
    <tag k="maxspeed" v="50"/>
    <tag k="maxspeed:source" v="default residential speed limit in Australia"/>
    <tag k="name" v="Valley Way"/>
  </way>
  <way id="49098190" version="3" timestamp="2012-01-19T23:54:56Z" uid="147510" user="woodpeck_fixbot" changeset="10442006">
    <nd ref="622811949"/>
    <nd ref="622811952"/>
    <nd ref="622811972"/>
    <nd ref="622811974"/>
    <nd ref="622811976"/>
    <nd ref="622811957"/>
    <tag k="highway" v="residential"/>
    <tag k="name" v="Valley Way"/>
  </way>
  <way id="49098191" version="2" timestamp="2010-07-09T05:21:53Z" uid="74617" user="JohnSmith" changeset="5170972">
    <nd ref="622811952"/>
    <nd ref="622811953"/>
    <nd ref="622811954"/>
    <nd ref="622811946"/>
    <nd ref="105056911"/>
    <tag k="highway" v="residential"/>
    <tag k="maxspeed" v="50"/>
    <tag k="maxspeed:source" v="default residential speed limit in Australia"/>
    <tag k="name" v="Harris Gully Road Service Road"/>
  </way>
  <way id="49098191" version="3" timestamp="2012-01-19T23:54:57Z" uid="147510" user="woodpeck_fixbot" changeset="10442006">
    <nd ref="622811952"/>
    <nd ref="622811953"/>
    <nd ref="622811954"/>
    <nd ref="622811946"/>
    <nd ref="105056911"/>
    <tag k="highway" v="residential"/>
    <tag k="name" v="Harris Gully Road Service Road"/>
  </way>
  <way id="49098192" version="2" timestamp="2010-07-09T05:22:11Z" uid="74617" user="JohnSmith" changeset="5170972">
    <nd ref="622811988"/>
    <nd ref="622811990"/>
    <nd ref="622811991"/>
    <nd ref="622811992"/>
    <tag k="highway" v="residential"/>
    <tag k="maxspeed" v="50"/>
    <tag k="maxspeed:source" v="default residential speed limit in Australia"/>
    <tag k="name" v="Gold Nugget Rise"/>
  </way>
  <way id="49098192" version="3" timestamp="2012-01-19T23:55:01Z" uid="147510" user="woodpeck_fixbot" changeset="10442006">
    <nd ref="622811988"/>
    <nd ref="622811990"/>
    <nd ref="622811991"/>
    <nd ref="622811992"/>
    <tag k="highway" v="residential"/>
    <tag k="name" v="Gold Nugget Rise"/>
  </way>
  <way id="49098193" version="2" timestamp="2010-07-09T05:22:36Z" uid="74617" user="JohnSmith" changeset="5170972">
    <nd ref="622811994"/>
    <nd ref="622811955"/>
    <nd ref="622811956"/>
    <tag k="highway" v="residential"/>
    <tag k="maxspeed" v="50"/>
    <tag k="maxspeed:source" v="default residential speed limit in Australia"/>
    <tag k="name" v="Mopoke Hill Road"/>
  </way>
  <way id="49098193" version="3" timestamp="2012-01-19T23:55:01Z" uid="147510" user="woodpeck_fixbot" changeset="10442006">
    <nd ref="622811994"/>
    <nd ref="622811955"/>
    <nd ref="622811956"/>
    <tag k="highway" v="residential"/>
    <tag k="name" v="Mopoke Hill Road"/>
  </way>
</osm>
