<?xml version='1.0' encoding='UTF-8'?>
<osm version="0.6" generator="libosmium/2.20.0">
  <way id="49111072" version="2" timestamp="2010-04-06T14:49:06Z" uid="20587" user="balrog-kun" changeset="4342997">
    <nd ref="550404450"/>
    <nd ref="121924610"/>
    <nd ref="121924607"/>
    <nd ref="121924604"/>
    <nd ref="121924601"/>
    <nd ref="550404620"/>
    <nd ref="121924599"/>
    <nd ref="121924597"/>
    <nd ref="121924589"/>
    <nd ref="121924586"/>
    <nd ref="121924581"/>
    <nd ref="121912990"/>
    <nd ref="121924579"/>
    <nd ref="554010926"/>
    <nd ref="121902880"/>
    <tag k="highway" v="trunk"/>
    <tag k="name" v="West Illinois Avenue"/>
    <tag k="oneway" v="yes"/>
    <tag k="ref" v="US 50; 61"/>
    <tag k="tiger:cfcc" v="A25"/>
    <tag k="tiger:county" v="Reno, KS"/>
    <tag k="tiger:name_base" v="Illinois"/>
    <tag k="tiger:name_base_1" v="United States Highway 50"/>
    <tag k="tiger:name_base_2" v="Kansas State Highway 61"/>
    <tag k="tiger:name_direction_prefix" v="W"/>
    <tag k="tiger:name_type" v="Ave"/>
    <tag k="tiger:reviewed" v="no"/>
    <tag k="tiger:separated" v="yes"/>
    <tag k="tiger:source" v="tiger_import_dch_v0.6_20070812"/>
    <tag k="tiger:tlid" v="142936004:142951532:142935997:142935625:142952090:142935635:142953866:142956318:142935641:142935639:142936557"/>
    <tag k="tiger:zip_left" v="67501"/>
    <tag k="tiger:zip_right" v="67501"/>
  </way>
  <way id="49111072" version="3" timestamp="2010-10-11T01:14:15Z" uid="239998" user="Sundance" changeset="6008076">
    <nd ref="550404450"/>
    <nd ref="121924610"/>
    <nd ref="121924607"/>
    <nd ref="944735585"/>
    <nd ref="121924604"/>
    <nd ref="944735586"/>
    <nd ref="121924601"/>
    <nd ref="550404620"/>
    <nd ref="121924599"/>
    <nd ref="121924597"/>
    <nd ref="121924589"/>
    <nd ref="121924586"/>
    <nd ref="121924581"/>
    <nd ref="121912990"/>
    <nd ref="121924579"/>
    <nd ref="554010926"/>
    <nd ref="121902880"/>
    <tag k="addr:postcode" v="67501"/>
    <tag k="highway" v="trunk"/>
    <tag k="is_in" v="Reno, KS"/>
    <tag k="loc_name" v="West Illinois Avenue"/>
    <tag k="name" v="United States Route 50"/>
    <tag k="oneway" v="yes"/>
    <tag k="ref" v="US 50; KS 61"/>
    <tag k="reg" v="State Highway 61"/>
    <tag k="tiger:source" v="tiger_import_dch_v0.6_20070812"/>
    <tag k="tiger:tlid" v="142936004:142951532:142935997:142935625:142952090:142935635:142953866:142956318:142935641:142935639:142936557"/>
  </way>
  <way id="49111072" version="4" timestamp="2011-06-13T02:48:52Z" uid="207745" user="NE2" changeset="8421584">
    <nd ref="550404450"/>
    <nd ref="121924610"/>
    <nd ref="121924607"/>
    <nd ref="944735585"/>
    <nd ref="121924604"/>
    <nd ref="944735586"/>
    <nd ref="121924601"/>
    <nd ref="550404620"/>
    <nd ref="121924599"/>
    <nd ref="121924597"/>
    <nd ref="121924589"/>
    <nd ref="121924586"/>
    <nd ref="121924581"/>
    <nd ref="121912990"/>
    <nd ref="121924579"/>
    <nd ref="554010926"/>
    <nd ref="121902880"/>
    <tag k="addr:postcode" v="67501"/>
    <tag k="highway" v="trunk"/>
    <tag k="is_in" v="Reno, KS"/>
    <tag k="lanes" v="2"/>
    <tag k="name" v="West Illinois Avenue"/>
    <tag k="oneway" v="yes"/>
    <tag k="ref" v="US 50; KS 61"/>
    <tag k="reg" v="State Highway 61"/>
    <tag k="tiger:source" v="tiger_import_dch_v0.6_20070812"/>
    <tag k="tiger:tlid" v="142936004:142951532:142935997:142935625:142952090:142935635:142953866:142956318:142935641:142935639:142936557"/>
  </way>
  <way id="49111072" version="5" timestamp="2011-06-13T17:41:20Z" uid="70696" user="xybot" changeset="8429114">
    <nd ref="550404450"/>
    <nd ref="121924610"/>
    <nd ref="121924607"/>
    <nd ref="944735585"/>
    <nd ref="121924604"/>
    <nd ref="944735586"/>
    <nd ref="121924601"/>
    <nd ref="550404620"/>
    <nd ref="121924599"/>
    <nd ref="121924597"/>
    <nd ref="121924589"/>
    <nd ref="121924586"/>
    <nd ref="121924581"/>
    <nd ref="121912990"/>
    <nd ref="121924579"/>
    <nd ref="554010926"/>
    <nd ref="121902880"/>
    <tag k="addr:postcode" v="67501"/>
    <tag k="highway" v="trunk"/>
    <tag k="is_in" v="Reno, KS"/>
    <tag k="lanes" v="2"/>
    <tag k="name" v="West Illinois Avenue"/>
    <tag k="oneway" v="yes"/>
    <tag k="ref" v="State Highway 61"/>
    <tag k="tiger:source" v="tiger_import_dch_v0.6_20070812"/>
    <tag k="tiger:tlid" v="142936004:142951532:142935997:142935625:142952090:142935635:142953866:142956318:142935641:142935639:142936557"/>
  </way>
  <way id="49111072" version="6" timestamp="2011-07-08T06:08:07Z" uid="473471" user="NE3" changeset="8662998">
    <nd ref="550404450"/>
    <nd ref="121924610"/>
    <nd ref="121924607"/>
    <nd ref="944735585"/>
    <nd ref="121924604"/>
    <nd ref="944735586"/>
    <nd ref="121924601"/>
    <nd ref="550404620"/>
    <nd ref="121924599"/>
    <nd ref="121924597"/>
    <nd ref="121924589"/>
    <nd ref="121924586"/>
    <nd ref="121924581"/>
    <nd ref="121912990"/>
    <nd ref="121924579"/>
    <nd ref="554010926"/>
    <nd ref="121902880"/>
    <tag k="NHS" v="yes"/>
    <tag k="addr:postcode" v="67501"/>
    <tag k="highway" v="trunk"/>
    <tag k="is_in" v="Reno, KS"/>
    <tag k="lanes" v="2"/>
    <tag k="name" v="West Illinois Avenue"/>
    <tag k="oneway" v="yes"/>
    <tag k="ref" v="State Highway 61"/>
    <tag k="tiger:source" v="tiger_import_dch_v0.6_20070812"/>
    <tag k="tiger:tlid" v="142936004:142951532:142935997:142935625:142952090:142935635:142953866:142956318:142935641:142935639:142936557"/>
  </way>
  <way id="49111072" version="7" timestamp="2011-08-02T18:14:05Z" uid="207745" user="NE2" changeset="8903316">
    <nd ref="550404450"/>
    <nd ref="121924610"/>
    <nd ref="121924607"/>
    <nd ref="944735585"/>
    <nd ref="121924604"/>
    <nd ref="944735586"/>
    <nd ref="121924601"/>
    <nd ref="550404620"/>
    <nd ref="121924599"/>
    <nd ref="121924597"/>
    <nd ref="121924589"/>
    <nd ref="121924586"/>
    <nd ref="121924581"/>
    <nd ref="121912990"/>
    <nd ref="121924579"/>
    <nd ref="554010926"/>
    <nd ref="121902880"/>
    <tag k="NHS" v="yes"/>
    <tag k="addr:postcode" v="67501"/>
    <tag k="highway" v="trunk"/>
    <tag k="is_in" v="Reno, KS"/>
    <tag k="lanes" v="2"/>
    <tag k="name" v="West Illinois Avenue"/>
    <tag k="oneway" v="yes"/>
    <tag k="ref" v="US 50;K 61"/>
    <tag k="tiger:source" v="tiger_import_dch_v0.6_20070812"/>
    <tag k="tiger:tlid" v="142936004:142951532:142935997:142935625:142952090:142935635:142953866:142956318:142935641:142935639:142936557"/>
  </way>
  <way id="49111072" version="8" timestamp="2011-11-30T22:15:15Z" uid="207745" user="NE2" changeset="10003432">
    <nd ref="550404450"/>
    <nd ref="121924610"/>
    <nd ref="121924607"/>
    <nd ref="944735585"/>
    <nd ref="121924604"/>
    <nd ref="944735586"/>
    <nd ref="121924601"/>
    <nd ref="550404620"/>
    <nd ref="121924599"/>
    <nd ref="121924597"/>
    <nd ref="121924589"/>
    <nd ref="121924586"/>
    <nd ref="121924581"/>
    <nd ref="121912990"/>
    <nd ref="121924579"/>
    <nd ref="554010926"/>
    <nd ref="121902880"/>
    <tag k="NHS" v="yes"/>
    <tag k="addr:postcode" v="67501"/>
    <tag k="hgv" v="designated"/>
    <tag k="hgv:national_network" v="yes"/>
    <tag k="highway" v="trunk"/>
    <tag k="is_in" v="Reno, KS"/>
    <tag k="lanes" v="2"/>
    <tag k="name" v="West Illinois Avenue"/>
    <tag k="oneway" v="yes"/>
    <tag k="ref" v="US 50;K 61"/>
    <tag k="tiger:source" v="tiger_import_dch_v0.6_20070812"/>
    <tag k="tiger:tlid" v="142936004:142951532:142935997:142935625:142952090:142935635:142953866:142956318:142935641:142935639:142936557"/>
  </way>
  <way id="49111076" version="3" timestamp="2010-04-06T14:49:06Z" uid="20587" user="balrog-kun" changeset="4342997">
    <nd ref="121897484"/>
    <nd ref="121897488"/>
    <nd ref="121897490"/>
    <nd ref="121897493"/>
    <nd ref="550675494"/>
    <nd ref="121897495"/>
    <nd ref="121897498"/>
    <nd ref="121897501"/>
    <tag k="highway" v="trunk"/>
    <tag k="name" v="East Illinois Avenue"/>
    <tag k="ref" v="US 50; 61"/>
    <tag k="tiger:cfcc" v="A21"/>
    <tag k="tiger:county" v="Reno, KS"/>
    <tag k="tiger:name_base" v="Illinois"/>
    <tag k="tiger:name_base_1" v="United States Highway 50"/>
    <tag k="tiger:name_base_2" v="Kansas State Highway 61"/>
    <tag k="tiger:name_direction_prefix" v="E"/>
    <tag k="tiger:name_type" v="Ave"/>
    <tag k="tiger:reviewed" v="no"/>
    <tag k="tiger:separated" v="no"/>
    <tag k="tiger:source" v="tiger_import_dch_v0.6_20070812"/>
    <tag k="tiger:tlid" v="142950070"/>
    <tag k="tiger:zip_left" v="67501"/>
    <tag k="tiger:zip_right" v="67505"/>
  </way>
  <way id="49111076" version="4" timestamp="2010-07-18T00:24:08Z" uid="92286" user="Paul Johnson" changeset="5247209">
    <nd ref="121897484"/>
    <nd ref="121897488"/>
    <nd ref="121897490"/>
    <nd ref="391646539"/>
    <nd ref="550675494"/>
    <nd ref="121897495"/>
    <nd ref="121897498"/>
    <nd ref="121897501"/>
    <tag k="highway" v="trunk"/>
    <tag k="name" v="East Illinois Avenue"/>
    <tag k="ref" v="US 50; 61"/>
    <tag k="tiger:cfcc" v="A21"/>
    <tag k="tiger:county" v="Reno, KS"/>
    <tag k="tiger:name_base" v="Illinois"/>
    <tag k="tiger:name_base_1" v="United States Highway 50"/>
    <tag k="tiger:name_base_2" v="Kansas State Highway 61"/>
    <tag k="tiger:name_direction_prefix" v="E"/>
    <tag k="tiger:name_type" v="Ave"/>
    <tag k="tiger:separated" v="no"/>
    <tag k="tiger:source" v="tiger_import_dch_v0.6_20070812"/>
    <tag k="tiger:tlid" v="142950070"/>
    <tag k="tiger:zip_left" v="67501"/>
    <tag k="tiger:zip_right" v="67505"/>
  </way>
  <way id="49111076" version="5" timestamp="2010-10-11T05:01:39Z" uid="239998" user="Sundance" changeset="6008476">
    <nd ref="121897484"/>
    <nd ref="944815673"/>
    <tag k="alt_name" v="United States Route 50"/>
    <tag k="highway" v="trunk"/>
    <tag k="is_in" v="Reno, KS"/>
    <tag k="name" v="East Illinois Avenue"/>
    <tag k="ref" v="US 50; KS 61"/>
    <tag k="reg_name" v="State Highway 61"/>
    <tag k="tiger:source" v="tiger_import_dch_v0.6_20070812"/>
    <tag k="tiger:tlid" v="142950070"/>
    <tag k="tiger:zip_left" v="67501"/>
    <tag k="tiger:zip_right" v="67505"/>
  </way>
  <way id="49111076" version="6" timestamp="2011-06-13T02:50:06Z" uid="207745" user="NE2" changeset="8421584">
    <nd ref="121897484"/>
    <nd ref="944815673"/>
    <tag k="FIXME" v="dual carriageway"/>
    <tag k="alt_name" v="United States Route 50"/>
    <tag k="highway" v="trunk"/>
    <tag k="is_in" v="Reno, KS"/>
    <tag k="lanes" v="4"/>
    <tag k="name" v="East Illinois Avenue"/>
    <tag k="ref" v="US 50; KS 61"/>
    <tag k="tiger:source" v="tiger_import_dch_v0.6_20070812"/>
    <tag k="tiger:tlid" v="142950070"/>
    <tag k="tiger:zip_left" v="67501"/>
    <tag k="tiger:zip_right" v="67505"/>
  </way>
  <way id="49111076" version="7" timestamp="2011-07-08T05:35:45Z" uid="473471" user="NE3" changeset="8662998">
    <nd ref="121897484"/>
    <nd ref="944815673"/>
    <tag k="FIXME" v="dual carriageway"/>
    <tag k="NHS" v="yes"/>
    <tag k="alt_name" v="United States Route 50"/>
    <tag k="highway" v="trunk"/>
    <tag k="is_in" v="Reno, KS"/>
    <tag k="lanes" v="4"/>
    <tag k="name" v="East Illinois Avenue"/>
    <tag k="ref" v="US 50; KS 61"/>
    <tag k="tiger:source" v="tiger_import_dch_v0.6_20070812"/>
    <tag k="tiger:tlid" v="142950070"/>
    <tag k="tiger:zip_left" v="67501"/>
    <tag k="tiger:zip_right" v="67505"/>
  </way>
  <way id="49111076" version="8" timestamp="2011-11-30T21:43:38Z" uid="207745" user="NE2" changeset="10003432">
    <nd ref="121897484"/>
    <nd ref="944815673"/>
    <tag k="FIXME" v="dual carriageway"/>
    <tag k="NHS" v="yes"/>
    <tag k="alt_name" v="United States Route 50"/>
    <tag k="hgv" v="designated"/>
    <tag k="hgv:national_network" v="yes"/>
    <tag k="highway" v="trunk"/>
    <tag k="is_in" v="Reno, KS"/>
    <tag k="lanes" v="4"/>
    <tag k="name" v="East Illinois Avenue"/>
    <tag k="ref" v="US 50; KS 61"/>
    <tag k="tiger:source" v="tiger_import_dch_v0.6_20070812"/>
    <tag k="tiger:tlid" v="142950070"/>
    <tag k="tiger:zip_left" v="67501"/>
    <tag k="tiger:zip_right" v="67505"/>
  </way>
  <way id="49111080" version="2" timestamp="2010-04-06T14:49:07Z" uid="20587" user="balrog-kun" changeset="4342997">
    <nd ref="121877111"/>
    <nd ref="121915154"/>
    <nd ref="121903966"/>
    <nd ref="121915961"/>
    <nd ref="121915964"/>
    <nd ref="121915968"/>
    <nd ref="121901819"/>
    <nd ref="121893136"/>
    <nd ref="121901257"/>
    <nd ref="121900883"/>
    <nd ref="121900680"/>
    <nd ref="121900464"/>
    <nd ref="121915971"/>
    <tag k="highway" v="secondary"/>
    <tag k="name" v="South Main Street"/>
    <tag k="tiger:cfcc" v="A31"/>
    <tag k="tiger:county" v="Reno, KS"/>
    <tag k="tiger:name_base" v="Main"/>
    <tag k="tiger:name_base_1" v="State Highway 96"/>
    <tag k="tiger:name_direction_prefix" v="S"/>
    <tag k="tiger:name_type" v="St"/>
    <tag k="tiger:reviewed" v="no"/>
    <tag k="tiger:separated" v="no"/>
    <tag k="tiger:source" v="tiger_import_dch_v0.6_20070812"/>
    <tag k="tiger:tlid" v="142935478:142935517:142935530:142935547:142935569:142936008:142935594:142935612:142935626:142935679:142935582:142935496"/>
    <tag k="tiger:zip_left" v="67505"/>
    <tag k="tiger:zip_right" v="67505"/>
  </way>
  <way id="49111080" version="3" timestamp="2010-10-11T04:50:08Z" uid="239998" user="Sundance" changeset="6008476">
    <nd ref="121877118"/>
    <nd ref="121877111"/>
    <nd ref="121915154"/>
    <nd ref="121903966"/>
    <nd ref="121915961"/>
    <nd ref="121915964"/>
    <nd ref="121915968"/>
    <nd ref="121901819"/>
    <nd ref="121893136"/>
    <nd ref="121901257"/>
    <nd ref="121900883"/>
    <nd ref="121900680"/>
    <nd ref="121900464"/>
    <nd ref="121915971"/>
    <tag k="addr:postcode" v="67505"/>
    <tag k="highway" v="secondary"/>
    <tag k="is_in" v="Reno, KS"/>
    <tag k="name" v="South Main Street"/>
    <tag k="ref" v="KS 96"/>
    <tag k="tiger:name_base_1" v="State Highway 96"/>
    <tag k="tiger:source" v="tiger_import_dch_v0.6_20070812"/>
    <tag k="tiger:tlid" v="142935478:142935517:142935530:142935547:142935569:142936008:142935594:142935612:142935626:142935679:142935582:142935496"/>
  </way>
  <way id="49111080" version="4" timestamp="2010-10-11T05:35:15Z" uid="239998" user="Sundance" changeset="6008590">
    <nd ref="121877118"/>
    <nd ref="121877111"/>
    <tag k="addr:postcode" v="67505"/>
    <tag k="highway" v="primary"/>
    <tag k="is_in" v="Reno, KS"/>
    <tag k="name" v="South Main Street"/>
    <tag k="ref" v="KS 96"/>
    <tag k="tiger:name_base_1" v="State Highway 96"/>
    <tag k="tiger:source" v="tiger_import_dch_v0.6_20070812"/>
    <tag k="tiger:tlid" v="142935478:142935517:142935530:142935547:142935569:142936008:142935594:142935612:142935626:142935679:142935582:142935496"/>
  </way>
  <way id="49111080" version="5" timestamp="2011-02-28T14:35:35Z" uid="207745" user="NE2" changeset="7421125">
    <nd ref="121877118"/>
    <nd ref="121877111"/>
    <tag k="addr:postcode" v="67505"/>
    <tag k="highway" v="trunk"/>
    <tag k="is_in" v="Reno, KS"/>
    <tag k="name" v="South Main Street"/>
    <tag k="ref" v="KS 96"/>
    <tag k="tiger:name_base_1" v="State Highway 96"/>
    <tag k="tiger:source" v="tiger_import_dch_v0.6_20070812"/>
    <tag k="tiger:tlid" v="142935478:142935517:142935530:142935547:142935569:142936008:142935594:142935612:142935626:142935679:142935582:142935496"/>
  </way>
  <way id="49111080" version="6" timestamp="2011-06-23T02:02:52Z" uid="473471" user="NE3" changeset="8520254">
    <nd ref="121877118"/>
    <nd ref="121877111"/>
    <tag k="addr:postcode" v="67505"/>
    <tag k="highway" v="trunk"/>
    <tag k="is_in" v="Reno, KS"/>
    <tag k="lanes" v="4"/>
    <tag k="name" v="South Main Street"/>
    <tag k="ref" v="KS 96"/>
    <tag k="tiger:name_base_1" v="State Highway 96"/>
    <tag k="tiger:source" v="tiger_import_dch_v0.6_20070812"/>
    <tag k="tiger:tlid" v="142935478:142935517:142935530:142935547:142935569:142936008:142935594:142935612:142935626:142935679:142935582:142935496"/>
  </way>
  <way id="49111080" version="7" timestamp="2011-07-19T01:31:15Z" uid="473471" user="NE3" changeset="8764372">
    <nd ref="121877118"/>
    <nd ref="121877111"/>
    <tag k="NHS" v="yes"/>
    <tag k="addr:postcode" v="67505"/>
    <tag k="highway" v="trunk"/>
    <tag k="is_in" v="Reno, KS"/>
    <tag k="lanes" v="4"/>
    <tag k="name" v="South Main Street"/>
    <tag k="ref" v="KS 96"/>
    <tag k="tiger:name_base_1" v="State Highway 96"/>
    <tag k="tiger:source" v="tiger_import_dch_v0.6_20070812"/>
    <tag k="tiger:tlid" v="142935478:142935517:142935530:142935547:142935569:142936008:142935594:142935612:142935626:142935679:142935582:142935496"/>
  </way>
  <way id="49111086" version="2" timestamp="2010-04-06T14:49:07Z" uid="20587" user="balrog-kun" changeset="4342997">
    <nd ref="554011096"/>
    <nd ref="121924630"/>
    <nd ref="121924626"/>
    <nd ref="121924622"/>
    <nd ref="121924618"/>
    <nd ref="121924615"/>
    <nd ref="550404450"/>
    <tag k="highway" v="trunk"/>
    <tag k="name" v="West Illinois Avenue"/>
    <tag k="oneway" v="yes"/>
    <tag k="ref" v="US 50; 61; 96"/>
    <tag k="tiger:cfcc" v="A25"/>
    <tag k="tiger:county" v="Reno, KS"/>
    <tag k="tiger:name_base" v="Illinois"/>
    <tag k="tiger:name_base_1" v="United States Highway 50"/>
    <tag k="tiger:name_base_2" v="Kansas State Highway 61"/>
    <tag k="tiger:name_direction_prefix" v="W"/>
    <tag k="tiger:name_type" v="Ave"/>
    <tag k="tiger:reviewed" v="no"/>
    <tag k="tiger:separated" v="yes"/>
    <tag k="tiger:source" v="tiger_import_dch_v0.6_20070812"/>
    <tag k="tiger:tlid" v="142936004:142951532:142935997:142935625:142952090:142935635:142953866:142956318:142935641:142935639:142936557"/>
    <tag k="tiger:zip_left" v="67501"/>
    <tag k="tiger:zip_right" v="67501"/>
  </way>
  <way id="49111086" version="3" timestamp="2010-10-11T01:17:37Z" uid="239998" user="Sundance" changeset="6008076">
    <nd ref="554011096"/>
    <nd ref="121924630"/>
    <nd ref="121924626"/>
    <nd ref="121924622"/>
    <nd ref="121924618"/>
    <nd ref="121924615"/>
    <nd ref="944736132"/>
    <nd ref="550404450"/>
    <tag k="addr:postcode" v="67501"/>
    <tag k="highway" v="trunk"/>
    <tag k="is_in" v="Reno, KS"/>
    <tag k="loc_name" v="West Illinois Avenue"/>
    <tag k="name" v="United States Route 50"/>
    <tag k="oneway" v="yes"/>
    <tag k="ref" v="US 50; KS 61; KS 96"/>
    <tag k="reg_name" v="Kansas State Highway 61"/>
    <tag k="tiger:source" v="tiger_import_dch_v0.6_20070812"/>
    <tag k="tiger:tlid" v="142936004:142951532:142935997:142935625:142952090:142935635:142953866:142956318:142935641:142935639:142936557"/>
  </way>
  <way id="49111086" version="4" timestamp="2011-06-13T02:50:56Z" uid="207745" user="NE2" changeset="8421584">
    <nd ref="554011096"/>
    <nd ref="121924630"/>
    <nd ref="121924626"/>
    <nd ref="121924622"/>
    <nd ref="121924618"/>
    <nd ref="121924615"/>
    <nd ref="944736132"/>
    <nd ref="550404450"/>
    <tag k="addr:postcode" v="67501"/>
    <tag k="highway" v="trunk"/>
    <tag k="is_in" v="Reno, KS"/>
    <tag k="lanes" v="2"/>
    <tag k="name" v="West Illinois Avenue"/>
    <tag k="oneway" v="yes"/>
    <tag k="ref" v="US 50; KS 61; KS 96"/>
    <tag k="tiger:source" v="tiger_import_dch_v0.6_20070812"/>
    <tag k="tiger:tlid" v="142936004:142951532:142935997:142935625:142952090:142935635:142953866:142956318:142935641:142935639:142936557"/>
  </way>
  <way id="49111086" version="5" timestamp="2011-07-08T06:08:09Z" uid="473471" user="NE3" changeset="8662998">
    <nd ref="554011096"/>
    <nd ref="121924630"/>
    <nd ref="121924626"/>
    <nd ref="121924622"/>
    <nd ref="121924618"/>
    <nd ref="121924615"/>
    <nd ref="944736132"/>
    <nd ref="550404450"/>
    <tag k="NHS" v="yes"/>
    <tag k="addr:postcode" v="67501"/>
    <tag k="highway" v="trunk"/>
    <tag k="is_in" v="Reno, KS"/>
    <tag k="lanes" v="2"/>
    <tag k="name" v="West Illinois Avenue"/>
    <tag k="oneway" v="yes"/>
    <tag k="ref" v="US 50; KS 61; KS 96"/>
    <tag k="tiger:source" v="tiger_import_dch_v0.6_20070812"/>
    <tag k="tiger:tlid" v="142936004:142951532:142935997:142935625:142952090:142935635:142953866:142956318:142935641:142935639:142936557"/>
  </way>
  <way id="49111086" version="6" timestamp="2011-11-30T22:15:17Z" uid="207745" user="NE2" changeset="10003432">
    <nd ref="554011096"/>
    <nd ref="121924630"/>
    <nd ref="121924626"/>
    <nd ref="121924622"/>
    <nd ref="121924618"/>
    <nd ref="121924615"/>
    <nd ref="944736132"/>
    <nd ref="550404450"/>
    <tag k="NHS" v="yes"/>
    <tag k="addr:postcode" v="67501"/>
    <tag k="hgv" v="designated"/>
    <tag k="hgv:national_network" v="yes"/>
    <tag k="highway" v="trunk"/>
    <tag k="is_in" v="Reno, KS"/>
    <tag k="lanes" v="2"/>
    <tag k="name" v="West Illinois Avenue"/>
    <tag k="oneway" v="yes"/>
    <tag k="ref" v="US 50; KS 61; KS 96"/>
    <tag k="tiger:source" v="tiger_import_dch_v0.6_20070812"/>
    <tag k="tiger:tlid" v="142936004:142951532:142935997:142935625:142952090:142935635:142953866:142956318:142935641:142935639:142936557"/>
  </way>
</osm>
