<?xml version='1.0' encoding='UTF-8'?>
<osm version="0.6" generator="libosmium/2.20.0">
  <way id="49209030" version="1" timestamp="2010-01-31T18:32:22Z" uid="33382" user="de_muur" changeset="3761962">
    <nd ref="21573321"/>
    <nd ref="21573320"/>
    <nd ref="21573319"/>
    <tag k="highway" v="secondary"/>
    <tag k="maxspeed" v="30"/>
    <tag k="name" v="Avenue Saint Sebastien"/>
    <tag k="ref" v="K 26"/>
    <tag k="surface" v="paved"/>
  </way>
  <way id="49209030" version="2" timestamp="2012-03-23T19:06:18Z" uid="349191" user="Glühwürmchen" changeset="11077252"/>
  <way id="49209031" version="1" timestamp="2010-01-31T18:32:22Z" uid="33382" user="de_muur" changeset="3761962">
    <nd ref="21573318"/>
    <nd ref="21573314"/>
    <nd ref="25388431"/>
    <nd ref="21770068"/>
    <tag k="highway" v="secondary"/>
    <tag k="maxspeed" v="60"/>
    <tag k="name" v="Reinbeker Weg"/>
    <tag k="ref" v="K 26"/>
  </way>
  <way id="49209031" version="2" timestamp="2012-02-28T08:56:51Z" uid="46145" user="Jacques_N" changeset="10816748"/>
  <way id="49209345" version="2" timestamp="2010-04-04T01:51:58Z" uid="20587" user="balrog-kun" changeset="4318136">
    <nd ref="55813004"/>
    <nd ref="55813006"/>
    <nd ref="55813008"/>
    <nd ref="157346332"/>
    <tag k="highway" v="unclassified"/>
    <tag k="name" v="Interstate Highway  25 Access Road"/>
    <tag k="note" v="frontage"/>
    <tag k="tiger:cfcc" v="A64"/>
    <tag k="tiger:county" v="Weld, CO"/>
    <tag k="tiger:name_base" v="I- 25 Access"/>
    <tag k="tiger:name_type" v="Rd"/>
    <tag k="tiger:reviewed" v="no"/>
    <tag k="tiger:source" v="tiger_import_dch_v0.6_20070809"/>
    <tag k="tiger:tlid" v="188701157:188672617:188672656:188672614:188672635:188672636:188672613:188672649:188672739:188672570"/>
  </way>
  <way id="49209390" version="3" timestamp="2010-04-04T01:51:59Z" uid="20587" user="balrog-kun" changeset="4318136">
    <nd ref="624441897"/>
    <nd ref="55813004"/>
    <tag k="bridge" v="yes"/>
    <tag k="highway" v="unclassified"/>
    <tag k="layer" v="1"/>
    <tag k="name" v="Interstate Highway  25 Access Road"/>
    <tag k="note" v="frontage"/>
    <tag k="tiger:cfcc" v="A64"/>
    <tag k="tiger:county" v="Weld, CO"/>
    <tag k="tiger:name_base" v="I- 25 Access"/>
    <tag k="tiger:name_type" v="Rd"/>
    <tag k="tiger:reviewed" v="aerial"/>
    <tag k="tiger:source" v="tiger_import_dch_v0.6_20070809"/>
    <tag k="tiger:tlid" v="188701157:188672617:188672656:188672614:188672635:188672636:188672613:188672649:188672739:188672570"/>
  </way>
  <way id="49209548" version="1" timestamp="2010-01-31T18:44:27Z" uid="33382" user="de_muur" changeset="3762064">
    <nd ref="21447709"/>
    <nd ref="624450453"/>
    <nd ref="21447707"/>
    <nd ref="21447706"/>
    <nd ref="283182445"/>
    <nd ref="21447705"/>
    <nd ref="309834384"/>
    <nd ref="21447704"/>
    <tag k="highway" v="secondary"/>
    <tag k="maxspeed" v="60"/>
    <tag k="name" v="Möllner Landstraße"/>
    <tag k="ref" v="L 94"/>
    <tag k="surface" v="paved"/>
  </way>
  <way id="49209548" version="2" timestamp="2010-09-13T12:22:40Z" uid="73358" user="Bindeking" changeset="5769160">
    <nd ref="21447709"/>
    <nd ref="624450453"/>
    <tag k="highway" v="secondary"/>
    <tag k="maxspeed" v="60"/>
    <tag k="name" v="Möllner Landstraße"/>
    <tag k="ref" v="L 94"/>
    <tag k="surface" v="paved"/>
  </way>
  <way id="49209548" version="3" timestamp="2012-03-08T13:02:30Z" uid="63375" user="Divjo" changeset="10909008">
    <nd ref="21447709"/>
    <nd ref="1665808288"/>
    <tag k="highway" v="secondary"/>
    <tag k="maxspeed" v="60"/>
    <tag k="name" v="Möllner Landstraße"/>
    <tag k="ref" v="L 94"/>
    <tag k="surface" v="paved"/>
  </way>
  <way id="49209549" version="1" timestamp="2010-01-31T18:44:27Z" uid="33382" user="de_muur" changeset="3762064">
    <nd ref="624450453"/>
    <nd ref="624450456"/>
    <nd ref="624450458"/>
    <nd ref="624450446"/>
    <nd ref="624450448"/>
    <nd ref="624450450"/>
    <nd ref="624450451"/>
    <nd ref="309834384"/>
    <tag k="access" v="no"/>
    <tag k="highway" v="service"/>
    <tag k="oneway" v="yes"/>
    <tag k="psv" v="yes"/>
    <tag k="surface" v="paved"/>
  </way>
  <way id="49209549" version="2" timestamp="2012-03-08T13:02:45Z" uid="63375" user="Divjo" changeset="10909008"/>
  <way id="49209734" version="2" timestamp="2010-04-07T20:56:01Z" uid="20587" user="balrog-kun" changeset="4355840">
    <nd ref="75059941"/>
    <nd ref="75047084"/>
    <nd ref="75051105"/>
    <nd ref="624458792"/>
    <nd ref="75059963"/>
    <nd ref="74914478"/>
    <nd ref="624458797"/>
    <nd ref="75059962"/>
    <nd ref="75059958"/>
    <nd ref="624458803"/>
    <nd ref="75059957"/>
    <nd ref="74901331"/>
    <nd ref="75059955"/>
    <nd ref="75059954"/>
    <nd ref="75059953"/>
    <nd ref="74912428"/>
    <nd ref="436543400"/>
    <tag k="highway" v="residential"/>
    <tag k="name" v="Tyler Parkway"/>
    <tag k="oneway" v="yes"/>
    <tag k="tiger:cfcc" v="A41"/>
    <tag k="tiger:county" v="Burleigh, ND"/>
    <tag k="tiger:name_base" v="Tyler"/>
    <tag k="tiger:name_type" v="Pky"/>
    <tag k="tiger:reviewed" v="no"/>
    <tag k="tiger:separated" v="no"/>
    <tag k="tiger:source" v="tiger_import_dch_v0.6_20070829"/>
    <tag k="tiger:tlid" v="198860374"/>
  </way>
  <way id="49209737" version="2" timestamp="2010-04-07T20:56:01Z" uid="20587" user="balrog-kun" changeset="4355840">
    <nd ref="624458792"/>
    <nd ref="624459262"/>
    <nd ref="75033218"/>
    <nd ref="624459266"/>
    <nd ref="624459271"/>
    <nd ref="75033201"/>
    <tag k="highway" v="residential"/>
    <tag k="name" v="Tyler Parkway"/>
    <tag k="oneway" v="yes"/>
  </way>
  <way id="49209944" version="2" timestamp="2010-04-07T20:56:01Z" uid="20587" user="balrog-kun" changeset="4355840">
    <nd ref="74935882"/>
    <nd ref="75035143"/>
    <nd ref="75035139"/>
    <nd ref="74885597"/>
    <nd ref="75035134"/>
    <nd ref="74912561"/>
    <nd ref="75035129"/>
    <tag k="highway" v="residential"/>
    <tag k="name" v="Schafer Street"/>
    <tag k="oneway" v="yes"/>
    <tag k="tiger:cfcc" v="A45"/>
    <tag k="tiger:county" v="Burleigh, ND"/>
    <tag k="tiger:name_base" v="Schafer"/>
    <tag k="tiger:name_type" v="St"/>
    <tag k="tiger:reviewed" v="no"/>
    <tag k="tiger:separated" v="yes"/>
    <tag k="tiger:source" v="tiger_import_dch_v0.6_20070829"/>
    <tag k="tiger:tlid" v="198879062:198879063:198875265:198875269"/>
    <tag k="tiger:zip_left" v="58501"/>
  </way>
  <way id="49209951" version="1" timestamp="2010-01-31T18:58:43Z" uid="58091" user="Andreas M" changeset="3762200">
    <nd ref="280395621"/>
    <nd ref="624470219"/>
    <nd ref="624470217"/>
    <tag k="highway" v="residential"/>
    <tag k="name" v="Boltzmanngasse"/>
    <tag k="oneway" v="yes"/>
  </way>
  <way id="49209952" version="1" timestamp="2010-01-31T18:58:43Z" uid="58091" user="Andreas M" changeset="3762200">
    <nd ref="303352153"/>
    <nd ref="414965130"/>
    <nd ref="68203669"/>
    <tag k="highway" v="residential"/>
    <tag k="name" v="Julius-Tandler-Platz"/>
    <tag k="note" v="dort steht ein Straßenschild /al"/>
    <tag k="source" v="yahoo"/>
  </way>
  <way id="49209952" version="2" timestamp="2010-11-06T13:40:29Z" uid="298560" user="evod" changeset="6302498">
    <nd ref="303352153"/>
    <nd ref="414965130"/>
    <nd ref="68203669"/>
    <tag k="highway" v="residential"/>
    <tag k="maxspeed" v="50"/>
    <tag k="name" v="Julius-Tandler-Platz"/>
    <tag k="note" v="dort steht ein Straßenschild /al"/>
    <tag k="source" v="yahoo"/>
  </way>
  <way id="49209952" version="3" timestamp="2011-07-15T22:16:14Z" uid="298560" user="evod" changeset="8735224">
    <nd ref="303352153"/>
    <nd ref="414965130"/>
    <nd ref="68203669"/>
    <tag k="cycleway" v="lane"/>
    <tag k="highway" v="residential"/>
    <tag k="maxspeed" v="50"/>
    <tag k="name" v="Julius-Tandler-Platz"/>
    <tag k="note" v="dort steht ein Straßenschild /al"/>
    <tag k="source" v="yahoo"/>
  </way>
  <way id="49209952" version="4" timestamp="2011-08-02T05:38:45Z" uid="494207" user="ckschwoedi" changeset="8897466">
    <nd ref="1382606700"/>
    <nd ref="414965130"/>
    <nd ref="68203669"/>
    <tag k="cycleway" v="lane"/>
    <tag k="highway" v="residential"/>
    <tag k="maxspeed" v="50"/>
    <tag k="name" v="Julius-Tandler-Platz"/>
    <tag k="note" v="dort steht ein Straßenschild /al"/>
    <tag k="source" v="yahoo"/>
  </way>
  <way id="49209952" version="5" timestamp="2011-08-02T05:43:17Z" uid="494207" user="ckschwoedi" changeset="8897484">
    <nd ref="1382606700"/>
    <nd ref="1382612932"/>
    <nd ref="414965130"/>
    <nd ref="68203669"/>
    <tag k="cycleway" v="lane"/>
    <tag k="highway" v="residential"/>
    <tag k="maxspeed" v="50"/>
    <tag k="name" v="Julius-Tandler-Platz"/>
    <tag k="note" v="dort steht ein Straßenschild /al"/>
    <tag k="source" v="yahoo"/>
  </way>
  <way id="49209952" version="6" timestamp="2011-10-14T15:54:49Z" uid="534044" user="Trüffel" changeset="9556546">
    <nd ref="1382606700"/>
    <nd ref="1382612932"/>
    <nd ref="414965130"/>
    <nd ref="68203669"/>
    <tag k="cycleway" v="lane"/>
    <tag k="highway" v="residential"/>
    <tag k="maxspeed" v="50"/>
    <tag k="name" v="Julius-Tandler-Platz"/>
    <tag k="note" v="dort steht ein Straßenschild /al"/>
    <tag k="oneway" v="yes"/>
    <tag k="source" v="yahoo"/>
  </way>
  <way id="49209952" version="7" timestamp="2011-10-14T15:56:12Z" uid="534044" user="Trüffel" changeset="9556546">
    <nd ref="1382606700"/>
    <nd ref="1382612932"/>
    <nd ref="414965130"/>
    <nd ref="68203668"/>
    <nd ref="33301786"/>
    <nd ref="33301745"/>
    <tag k="cycleway" v="lane"/>
    <tag k="highway" v="residential"/>
    <tag k="maxspeed" v="50"/>
    <tag k="name" v="Julius-Tandler-Platz"/>
    <tag k="note" v="dort steht ein Straßenschild /al"/>
    <tag k="oneway" v="yes"/>
    <tag k="source" v="yahoo"/>
  </way>
  <way id="49209952" version="8" timestamp="2011-11-03T17:28:30Z" uid="474183" user="ratrun" changeset="9732179">
    <nd ref="1382606700"/>
    <nd ref="1382612932"/>
    <nd ref="414965130"/>
    <nd ref="68203668"/>
    <tag k="cycleway" v="lane"/>
    <tag k="highway" v="residential"/>
    <tag k="maxspeed" v="50"/>
    <tag k="name" v="Julius-Tandler-Platz"/>
    <tag k="note" v="dort steht ein Straßenschild /al"/>
    <tag k="oneway" v="yes"/>
    <tag k="source" v="yahoo"/>
  </way>
  <way id="49209952" version="9" timestamp="2012-02-04T18:00:57Z" uid="129531" user="almich" changeset="10586956"/>
  <way id="49209953" version="1" timestamp="2010-01-31T18:58:44Z" uid="58091" user="Andreas M" changeset="3762200">
    <nd ref="303475419"/>
    <nd ref="305415073"/>
    <tag k="cycleway" v="lane"/>
    <tag k="highway" v="secondary"/>
    <tag k="is_in" v="Austria, Europe,Vienna,Wien"/>
    <tag k="maxspeed" v="50"/>
    <tag k="name" v="Wallensteinstraße"/>
    <tag k="railway" v="tram"/>
    <tag k="source" v="yahoo"/>
  </way>
  <way id="49209953" version="2" timestamp="2010-04-18T20:00:40Z" uid="129531" user="almich" changeset="4462273">
    <nd ref="303475419"/>
    <nd ref="305415073"/>
    <tag k="cycleway" v="lane"/>
    <tag k="gauge" v="1435"/>
    <tag k="highway" v="secondary"/>
    <tag k="is_in" v="Austria, Europe,Vienna,Wien"/>
    <tag k="maxspeed" v="50"/>
    <tag k="name" v="Wallensteinstraße"/>
    <tag k="railway" v="tram"/>
    <tag k="source" v="yahoo"/>
  </way>
  <way id="49209953" version="3" timestamp="2010-04-18T20:25:30Z" uid="129531" user="almich" changeset="4462598">
    <nd ref="303475419"/>
    <nd ref="305415073"/>
    <tag k="cycleway" v="lane"/>
    <tag k="electrified" v="contact_line"/>
    <tag k="frequency" v="0"/>
    <tag k="gauge" v="1435"/>
    <tag k="highway" v="secondary"/>
    <tag k="is_in" v="Austria, Europe,Vienna,Wien"/>
    <tag k="maxspeed" v="50"/>
    <tag k="name" v="Wallensteinstraße"/>
    <tag k="railway" v="tram"/>
    <tag k="source" v="yahoo"/>
  </way>
  <way id="49209953" version="4" timestamp="2011-02-21T20:05:11Z" uid="298560" user="evod" changeset="7357559">
    <nd ref="303475419"/>
    <nd ref="305415073"/>
    <tag k="cycleway" v="no"/>
    <tag k="electrified" v="contact_line"/>
    <tag k="frequency" v="0"/>
    <tag k="gauge" v="1435"/>
    <tag k="highway" v="secondary"/>
    <tag k="is_in" v="Austria, Europe,Vienna,Wien"/>
    <tag k="maxspeed" v="50"/>
    <tag k="name" v="Wallensteinstraße"/>
    <tag k="railway" v="tram"/>
    <tag k="source" v="yahoo"/>
  </way>
  <way id="49209953" version="5" timestamp="2011-03-20T18:01:50Z" uid="298560" user="evod" changeset="7619532">
    <nd ref="303475419"/>
    <nd ref="305415073"/>
    <tag k="electrified" v="contact_line"/>
    <tag k="frequency" v="0"/>
    <tag k="gauge" v="1435"/>
    <tag k="highway" v="secondary"/>
    <tag k="is_in" v="Austria, Europe,Vienna,Wien"/>
    <tag k="maxspeed" v="50"/>
    <tag k="name" v="Wallensteinstraße"/>
    <tag k="railway" v="tram"/>
    <tag k="source" v="yahoo"/>
  </way>
  <way id="49209953" version="6" timestamp="2011-11-08T00:47:09Z" uid="129531" user="almich" changeset="9770160">
    <nd ref="303475419"/>
    <nd ref="305415073"/>
    <tag k="electrified" v="contact_line"/>
    <tag k="frequency" v="0"/>
    <tag k="gauge" v="1435"/>
    <tag k="highway" v="secondary"/>
    <tag k="is_in" v="Austria, Europe,Vienna,Wien"/>
    <tag k="maxspeed" v="50"/>
    <tag k="name" v="Wallensteinstraße"/>
    <tag k="railway" v="tram"/>
    <tag k="source" v="yahoo"/>
    <tag k="voltage" v="600"/>
  </way>
  <way id="49209953" version="7" timestamp="2012-02-04T18:00:58Z" uid="129531" user="almich" changeset="10586956"/>
  <way id="49209988" version="2" timestamp="2010-12-01T08:44:47Z" uid="23543" user="jkjk" changeset="6501269">
    <nd ref="624472901"/>
    <nd ref="624472946"/>
    <nd ref="624472329"/>
    <nd ref="624472346"/>
    <nd ref="624472391"/>
    <nd ref="624472425"/>
    <nd ref="624472439"/>
    <nd ref="624472489"/>
    <nd ref="624472546"/>
    <nd ref="624472587"/>
    <nd ref="624472601"/>
    <nd ref="624472658"/>
    <nd ref="624472709"/>
    <nd ref="624472756"/>
    <nd ref="624472774"/>
    <nd ref="624472839"/>
    <nd ref="624471957"/>
    <nd ref="624471999"/>
    <nd ref="624472046"/>
    <nd ref="624472081"/>
    <nd ref="624472132"/>
    <nd ref="624472151"/>
    <nd ref="624472199"/>
    <nd ref="624472234"/>
    <nd ref="624472283"/>
    <nd ref="624471940"/>
    <nd ref="1014275651"/>
    <nd ref="1014275728"/>
    <nd ref="1014275622"/>
    <nd ref="1014275708"/>
    <tag k="waterway" v="river"/>
  </way>
</osm>
