<?xml version='1.0' encoding='UTF-8'?>
<osm version="0.6" generator="libosmium/2.20.0">
  <way id="49401122" version="4" timestamp="2010-06-29T19:16:20Z" uid="74617" user="JohnSmith" changeset="5108182">
    <nd ref="627328884"/>
    <nd ref="627328893"/>
    <nd ref="627328888"/>
    <nd ref="627328883"/>
    <nd ref="627328884"/>
    <tag k="fixme" v="sport=football is ambiguous, see http://wiki.osm.org/wiki/Football for more details"/>
    <tag k="leisure" v="pitch"/>
    <tag k="name" v="Football"/>
    <tag k="source" v="kapor2"/>
    <tag k="sport" v="football"/>
  </way>
  <way id="49401124" version="4" timestamp="2010-06-29T19:08:15Z" uid="74617" user="JohnSmith" changeset="5108182">
    <nd ref="627328980"/>
    <nd ref="627328969"/>
    <nd ref="627328971"/>
    <nd ref="627328887"/>
    <nd ref="627328910"/>
    <nd ref="627328912"/>
    <nd ref="627328982"/>
    <nd ref="627328984"/>
    <nd ref="627328986"/>
    <nd ref="627328980"/>
    <tag k="fixme" v="sport=football is ambiguous, see http://wiki.osm.org/wiki/Football for more details"/>
    <tag k="leisure" v="pitch"/>
    <tag k="name" v="Football"/>
    <tag k="source" v="kapor2"/>
    <tag k="sport" v="football"/>
  </way>
  <way id="49401383" version="2" timestamp="2010-04-07T14:16:38Z" uid="20587" user="balrog-kun" changeset="4353646">
    <nd ref="224955696"/>
    <nd ref="224955702"/>
    <nd ref="224955708"/>
    <nd ref="224955713"/>
    <nd ref="224955719"/>
    <nd ref="224955724"/>
    <nd ref="224955730"/>
    <nd ref="224955737"/>
    <nd ref="224955744"/>
    <nd ref="224955746"/>
    <nd ref="224955751"/>
    <nd ref="224955756"/>
    <nd ref="224955763"/>
    <nd ref="224955770"/>
    <tag k="highway" v="residential"/>
    <tag k="name" v="North High Street"/>
    <tag k="tiger:cfcc" v="A41"/>
    <tag k="tiger:county" v="Gregg, TX"/>
    <tag k="tiger:name_base" v="High"/>
    <tag k="tiger:name_direction_prefix" v="N"/>
    <tag k="tiger:name_type" v="St"/>
    <tag k="tiger:reviewed" v="no"/>
    <tag k="tiger:separated" v="no"/>
    <tag k="tiger:source" v="tiger_import_dch_v0.6_20070829"/>
    <tag k="tiger:tlid" v="141109864:141109865:141109867:141109868:141124977:141117232:141117297:141110026:141110028:141109925"/>
    <tag k="tiger:zip_left" v="75601"/>
    <tag k="tiger:zip_right" v="75601"/>
  </way>
  <way id="49401384" version="2" timestamp="2010-04-07T14:16:38Z" uid="20587" user="balrog-kun" changeset="4353646">
    <nd ref="224955659"/>
    <nd ref="224955662"/>
    <nd ref="224955666"/>
    <nd ref="224955669"/>
    <nd ref="224955672"/>
    <nd ref="224955681"/>
    <nd ref="224955687"/>
    <nd ref="224955692"/>
    <nd ref="224955696"/>
    <tag k="highway" v="secondary"/>
    <tag k="name" v="North High St; State Spur 502"/>
    <tag k="ref" v="Spur 502"/>
    <tag k="tiger:cfcc" v="A41"/>
    <tag k="tiger:county" v="Gregg, TX"/>
    <tag k="tiger:name_base" v="High"/>
    <tag k="tiger:name_direction_prefix" v="N"/>
    <tag k="tiger:name_type" v="St"/>
    <tag k="tiger:separated" v="no"/>
    <tag k="tiger:source" v="tiger_import_dch_v0.6_20070829"/>
    <tag k="tiger:tlid" v="141109864:141109865:141109867:141109868:141124977:141117232:141117297:141110026:141110028:141109925"/>
    <tag k="tiger:zip_left" v="75601"/>
    <tag k="tiger:zip_right" v="75601"/>
  </way>
  <way id="49401384" version="3" timestamp="2012-01-02T09:06:04Z" uid="207745" user="NE2" changeset="10268551">
    <nd ref="224955659"/>
    <nd ref="224955662"/>
    <nd ref="224955666"/>
    <nd ref="224955669"/>
    <nd ref="224955672"/>
    <nd ref="224955681"/>
    <nd ref="224955687"/>
    <nd ref="224955692"/>
    <nd ref="224955696"/>
    <tag k="highway" v="secondary"/>
    <tag k="name" v="North High St"/>
    <tag k="old_ref" v="US 259"/>
    <tag k="ref" v="Spur 502"/>
    <tag k="tiger:cfcc" v="A41"/>
    <tag k="tiger:county" v="Gregg, TX"/>
    <tag k="tiger:name_base" v="High"/>
    <tag k="tiger:name_direction_prefix" v="N"/>
    <tag k="tiger:name_type" v="St"/>
    <tag k="tiger:separated" v="no"/>
    <tag k="tiger:source" v="tiger_import_dch_v0.6_20070829"/>
    <tag k="tiger:tlid" v="141109864:141109865:141109867:141109868:141124977:141117232:141117297:141110026:141110028:141109925"/>
    <tag k="tiger:zip_left" v="75601"/>
    <tag k="tiger:zip_right" v="75601"/>
  </way>
  <way id="49401384" version="4" timestamp="2012-01-09T16:10:50Z" uid="207745" user="NE2" changeset="10343099">
    <nd ref="224955659"/>
    <nd ref="224955662"/>
    <nd ref="224955666"/>
    <nd ref="224955669"/>
    <nd ref="224955672"/>
    <nd ref="224955681"/>
    <nd ref="224955687"/>
    <nd ref="224955692"/>
    <nd ref="224955696"/>
    <tag k="highway" v="secondary"/>
    <tag k="name" v="North High St"/>
    <tag k="old_ref" v="US 259 (old SH 26)"/>
    <tag k="ref" v="Spur 502"/>
    <tag k="tiger:cfcc" v="A41"/>
    <tag k="tiger:county" v="Gregg, TX"/>
    <tag k="tiger:name_base" v="High"/>
    <tag k="tiger:name_direction_prefix" v="N"/>
    <tag k="tiger:name_type" v="St"/>
    <tag k="tiger:separated" v="no"/>
    <tag k="tiger:source" v="tiger_import_dch_v0.6_20070829"/>
    <tag k="tiger:tlid" v="141109864:141109865:141109867:141109868:141124977:141117232:141117297:141110026:141110028:141109925"/>
    <tag k="tiger:zip_left" v="75601"/>
    <tag k="tiger:zip_right" v="75601"/>
  </way>
  <way id="49401385" version="2" timestamp="2010-04-07T14:16:39Z" uid="20587" user="balrog-kun" changeset="4353646">
    <nd ref="225107638"/>
    <nd ref="225107640"/>
    <nd ref="225107643"/>
    <nd ref="225107647"/>
    <nd ref="225107654"/>
    <tag k="highway" v="secondary"/>
    <tag k="name" v="North Fredonia St; State Spur 502"/>
    <tag k="oneway" v="yes"/>
    <tag k="ref" v="Spur 502"/>
    <tag k="tiger:cfcc" v="A45"/>
    <tag k="tiger:county" v="Gregg, TX"/>
    <tag k="tiger:name_base" v="Fredonia"/>
    <tag k="tiger:name_direction_prefix" v="N"/>
    <tag k="tiger:name_type" v="St"/>
    <tag k="tiger:separated" v="yes"/>
    <tag k="tiger:source" v="tiger_import_dch_v0.6_20070829"/>
    <tag k="tiger:tlid" v="141127966"/>
  </way>
  <way id="49401385" version="3" timestamp="2011-12-29T05:59:41Z" uid="473517" user="kbulgrien" changeset="10232305">
    <nd ref="225107638"/>
    <nd ref="225107654"/>
    <tag k="highway" v="secondary"/>
    <tag k="name" v="North Fredonia St; State Spur 502"/>
    <tag k="oneway" v="yes"/>
    <tag k="ref" v="Spur 502"/>
    <tag k="tiger:cfcc" v="A45"/>
    <tag k="tiger:county" v="Gregg, TX"/>
    <tag k="tiger:name_base" v="Fredonia"/>
    <tag k="tiger:name_direction_prefix" v="N"/>
    <tag k="tiger:name_type" v="St"/>
    <tag k="tiger:separated" v="yes"/>
    <tag k="tiger:source" v="tiger_import_dch_v0.6_20070829"/>
    <tag k="tiger:tlid" v="141127966"/>
  </way>
  <way id="49401385" version="4" timestamp="2012-01-02T09:11:28Z" uid="207745" user="NE2" changeset="10268551"/>
  <way id="49401628" version="6" timestamp="2010-04-03T17:19:52Z" uid="20587" user="balrog-kun" changeset="4313610">
    <nd ref="627334497"/>
    <nd ref="641354501"/>
    <nd ref="651266320"/>
    <nd ref="630406374"/>
    <tag k="highway" v="residential"/>
    <tag k="name" v="Memorial Court"/>
  </way>
  <way id="49401628" version="7" timestamp="2010-11-30T03:34:00Z" uid="227924" user="SamatJain" changeset="6491476">
    <nd ref="627334497"/>
    <nd ref="1013029814"/>
    <nd ref="641354501"/>
    <nd ref="651266320"/>
    <nd ref="630406374"/>
    <tag k="highway" v="residential"/>
    <tag k="name" v="Memorial Court"/>
  </way>
  <way id="49401628" version="8" timestamp="2011-04-22T19:50:00Z" uid="381740" user="antoarre" changeset="7938120">
    <nd ref="627334497"/>
    <nd ref="1013029814"/>
    <nd ref="641354501"/>
    <nd ref="1255807864"/>
    <nd ref="1255807725"/>
    <nd ref="630406374"/>
    <tag k="highway" v="residential"/>
    <tag k="name" v="Memorial Court"/>
  </way>
</osm>
