<?xml version='1.0' encoding='UTF-8'?>
<osm version="0.6" generator="libosmium/2.20.0">
  <way id="4945092" version="8" timestamp="2008-07-07T00:28:19Z" uid="6975" user="ulfl" changeset="415781">
    <nd ref="260639233"/>
    <nd ref="21179431"/>
    <nd ref="21179433"/>
    <nd ref="21179435"/>
    <nd ref="21179437"/>
    <nd ref="260777566"/>
    <nd ref="260777582"/>
    <nd ref="21179439"/>
    <nd ref="21179440"/>
    <nd ref="21179441"/>
    <nd ref="21179444"/>
    <tag k="highway" v="primary"/>
    <tag k="lanes" v="2"/>
    <tag k="layer" v="1"/>
    <tag k="oneway" v="true"/>
    <tag k="ref" v="A4061"/>
  </way>
  <way id="4945092" version="9" timestamp="2008-10-31T21:24:43Z" uid="23668" user="grizzly baer" changeset="642033">
    <nd ref="260639233"/>
    <nd ref="21179431"/>
    <nd ref="21179433"/>
    <nd ref="21179435"/>
    <nd ref="21179437"/>
    <nd ref="260777566"/>
    <nd ref="260777582"/>
    <nd ref="21179439"/>
    <nd ref="21179440"/>
    <nd ref="21179441"/>
    <nd ref="21179444"/>
    <tag k="highway" v="primary"/>
    <tag k="lanes" v="2"/>
    <tag k="oneway" v="true"/>
    <tag k="ref" v="A4061"/>
  </way>
  <way id="4945092" version="10" timestamp="2010-05-29T21:16:34Z" uid="118262" user="Wynndale" changeset="4846633">
    <nd ref="260639233"/>
    <nd ref="21179431"/>
    <nd ref="21179433"/>
    <nd ref="21179435"/>
    <nd ref="21179437"/>
    <nd ref="260777566"/>
    <nd ref="260777582"/>
    <nd ref="21179439"/>
    <nd ref="21179440"/>
    <nd ref="21179441"/>
    <nd ref="21179444"/>
    <tag k="highway" v="primary"/>
    <tag k="lanes" v="2"/>
    <tag k="oneway" v="yes"/>
    <tag k="ref" v="A4061"/>
  </way>
  <way id="4945092" version="11" timestamp="2011-08-02T19:36:38Z" uid="412560" user="Meersbrook" changeset="8903927">
    <nd ref="260639233"/>
    <nd ref="21179431"/>
    <nd ref="21179433"/>
    <nd ref="21179435"/>
    <nd ref="21179437"/>
    <nd ref="260777566"/>
    <nd ref="260777582"/>
    <nd ref="21179439"/>
    <nd ref="21179440"/>
    <nd ref="21179441"/>
    <tag k="highway" v="primary"/>
    <tag k="lanes" v="2"/>
    <tag k="oneway" v="yes"/>
    <tag k="ref" v="A4061"/>
  </way>
  <way id="4945092" version="12" timestamp="2011-08-20T10:47:43Z" uid="412560" user="Meersbrook" changeset="9073059">
    <nd ref="260639233"/>
    <nd ref="21179431"/>
    <nd ref="21179433"/>
    <nd ref="21179435"/>
    <nd ref="21179437"/>
    <nd ref="260777566"/>
    <nd ref="260777582"/>
    <nd ref="21179439"/>
    <nd ref="21179440"/>
    <nd ref="21179441"/>
    <nd ref="1405607702"/>
    <nd ref="1405607715"/>
    <nd ref="1405607732"/>
    <nd ref="1405607625"/>
    <nd ref="1405607635"/>
    <nd ref="1405607675"/>
    <nd ref="1405607544"/>
    <nd ref="1405607565"/>
    <nd ref="21179445"/>
    <tag k="highway" v="primary"/>
    <tag k="lanes" v="2"/>
    <tag k="oneway" v="yes"/>
    <tag k="ref" v="A4061"/>
  </way>
  <way id="4945092" version="13" timestamp="2012-03-30T20:12:06Z" uid="427658" user="Fluclo" changeset="11159654">
    <nd ref="260639233"/>
    <nd ref="21179431"/>
    <tag k="highway" v="primary"/>
    <tag k="lanes" v="2"/>
    <tag k="oneway" v="yes"/>
    <tag k="ref" v="A4061"/>
  </way>
  <way id="4945125" version="2" timestamp="2009-07-26T16:22:08Z" uid="20587" user="balrog-kun" changeset="1946492">
    <nd ref="32589804"/>
    <nd ref="448435817"/>
    <nd ref="448435816"/>
    <nd ref="448435815"/>
    <nd ref="448435814"/>
    <nd ref="448435813"/>
    <nd ref="448435812"/>
    <nd ref="448435811"/>
    <nd ref="32610171"/>
    <nd ref="448435809"/>
    <nd ref="32610169"/>
    <nd ref="32589805"/>
    <nd ref="448435808"/>
    <nd ref="32589806"/>
    <nd ref="32589807"/>
    <nd ref="32589808"/>
    <nd ref="32589809"/>
    <nd ref="32589810"/>
    <nd ref="32589811"/>
    <nd ref="32589812"/>
    <nd ref="32589813"/>
    <nd ref="448435818"/>
    <nd ref="32589804"/>
    <tag k="landuse" v="reservoir"/>
    <tag k="name" v="Port Praski"/>
  </way>
  <way id="4945125" version="3" timestamp="2009-10-28T14:30:23Z" uid="20587" user="balrog-kun" changeset="2973663">
    <nd ref="32589804"/>
    <nd ref="448435817"/>
    <nd ref="448435816"/>
    <nd ref="448435815"/>
    <nd ref="448435814"/>
    <nd ref="448435813"/>
    <nd ref="448435812"/>
    <nd ref="448435811"/>
    <nd ref="32610171"/>
    <nd ref="448435809"/>
    <nd ref="32610169"/>
    <nd ref="32589805"/>
    <nd ref="448435808"/>
    <nd ref="32589806"/>
    <nd ref="32589807"/>
    <nd ref="32589808"/>
    <nd ref="32589809"/>
    <nd ref="32589810"/>
    <nd ref="32589811"/>
    <nd ref="32589812"/>
    <nd ref="32589813"/>
    <nd ref="448435818"/>
    <nd ref="32589804"/>
    <tag k="landuse" v="reservoir"/>
    <tag k="name" v="Port Praski"/>
    <tag k="wikipedia" v="pl:Port Praski"/>
  </way>
  <way id="4945125" version="4" timestamp="2010-10-16T19:09:48Z" uid="20587" user="balrog-kun" changeset="6060510">
    <nd ref="32589804"/>
    <nd ref="448435817"/>
    <nd ref="448435816"/>
    <nd ref="448435815"/>
    <nd ref="448435814"/>
    <nd ref="448435813"/>
    <nd ref="448435812"/>
    <nd ref="448435811"/>
    <nd ref="32610171"/>
    <nd ref="448435809"/>
    <nd ref="32610169"/>
    <nd ref="32589805"/>
    <nd ref="448435808"/>
    <nd ref="32589806"/>
    <nd ref="32589807"/>
    <nd ref="952193496"/>
    <nd ref="32589808"/>
    <nd ref="952193649"/>
    <nd ref="952192758"/>
    <nd ref="32589809"/>
    <nd ref="952192975"/>
    <nd ref="952192404"/>
    <nd ref="32589810"/>
    <nd ref="32589811"/>
    <nd ref="32589812"/>
    <nd ref="32589813"/>
    <nd ref="448435818"/>
    <nd ref="32589804"/>
    <tag k="landuse" v="reservoir"/>
    <tag k="name" v="Port Praski"/>
    <tag k="wikipedia" v="pl:Port Praski"/>
  </way>
  <way id="4945125" version="5" timestamp="2011-06-18T21:12:45Z" uid="165509" user="koszatek" changeset="8478114">
    <nd ref="32589804"/>
    <nd ref="448435817"/>
    <nd ref="448435816"/>
    <nd ref="448435815"/>
    <nd ref="448435814"/>
    <nd ref="448435813"/>
    <nd ref="448435812"/>
    <nd ref="448435811"/>
    <nd ref="32610171"/>
    <nd ref="448435809"/>
    <nd ref="32610169"/>
    <nd ref="32589805"/>
    <nd ref="448435808"/>
    <nd ref="32589806"/>
    <nd ref="32589807"/>
    <nd ref="952193496"/>
    <nd ref="32589808"/>
    <nd ref="952193649"/>
    <nd ref="952192758"/>
    <nd ref="32589809"/>
    <nd ref="952192975"/>
    <nd ref="952192404"/>
    <nd ref="32589810"/>
    <nd ref="32589811"/>
    <nd ref="36657425"/>
    <nd ref="32589812"/>
    <nd ref="32589813"/>
    <nd ref="448435818"/>
    <nd ref="32589804"/>
    <tag k="landuse" v="reservoir"/>
    <tag k="name" v="Port Praski"/>
    <tag k="wikipedia" v="pl:Port Praski"/>
  </way>
  <way id="4945125" version="6" timestamp="2011-10-07T19:41:27Z" uid="403964" user="bartekent" changeset="9496764">
    <nd ref="32589804"/>
    <nd ref="448435817"/>
    <nd ref="448435816"/>
    <nd ref="448435815"/>
    <nd ref="448435814"/>
    <nd ref="448435813"/>
    <nd ref="448435812"/>
    <nd ref="448435811"/>
    <nd ref="32610171"/>
    <nd ref="448435809"/>
    <nd ref="32610169"/>
    <nd ref="32589805"/>
    <nd ref="448435808"/>
    <nd ref="32589806"/>
    <nd ref="32589807"/>
    <nd ref="952193496"/>
    <nd ref="32589808"/>
    <nd ref="952193649"/>
    <nd ref="952192758"/>
    <nd ref="32589809"/>
    <nd ref="952192975"/>
    <nd ref="952192404"/>
    <nd ref="32589810"/>
    <nd ref="32589811"/>
    <nd ref="36657425"/>
    <nd ref="32589812"/>
    <nd ref="32589813"/>
    <nd ref="448435818"/>
    <nd ref="32589804"/>
    <tag k="landuse" v="reservoir"/>
    <tag k="name" v="Port Praski"/>
    <tag k="wikipedia" v="pl:Port Praski"/>
  </way>
  <way id="4945233" version="1" timestamp="2007-07-26T17:34:18Z" uid="8328" user="benpre" changeset="169349">
    <nd ref="32590991"/>
    <nd ref="32590992"/>
    <nd ref="32590993"/>
    <nd ref="32590994"/>
    <nd ref="32590982"/>
    <tag k="created_by" v="JOSM"/>
    <tag k="highway" v="primary"/>
    <tag k="oneway" v="true"/>
  </way>
  <way id="4945233" version="2" timestamp="2009-03-04T13:38:11Z" uid="82186" user="pferrand" changeset="736910">
    <nd ref="32590991"/>
    <nd ref="32590992"/>
    <nd ref="32590993"/>
    <nd ref="355594095"/>
    <nd ref="32590994"/>
    <nd ref="32590982"/>
    <tag k="created_by" v="JOSM"/>
    <tag k="highway" v="primary"/>
    <tag k="oneway" v="true"/>
  </way>
  <way id="4945233" version="3" timestamp="2009-09-16T13:10:41Z" uid="133254" user="tabltrai" changeset="2502263">
    <nd ref="32590991"/>
    <nd ref="32590992"/>
    <nd ref="32590993"/>
    <nd ref="355594095"/>
    <nd ref="32590994"/>
    <nd ref="32590982"/>
    <tag k="highway" v="primary"/>
    <tag k="oneway" v="yes"/>
  </way>
  <way id="4945233" version="4" timestamp="2011-06-14T21:27:50Z" uid="335149" user="Serge Rondard" changeset="8442324">
    <nd ref="32590991"/>
    <nd ref="1325757782"/>
    <tag k="highway" v="primary"/>
    <tag k="oneway" v="yes"/>
  </way>
  <way id="4945233" version="5" timestamp="2011-06-17T12:12:23Z" uid="364916" user="Vincent de Phily" changeset="8464200">
    <nd ref="32590991"/>
    <nd ref="1328473699"/>
    <nd ref="1325757782"/>
    <tag k="highway" v="primary"/>
    <tag k="oneway" v="yes"/>
  </way>
  <way id="4945233" version="6" timestamp="2011-07-26T06:36:52Z" uid="10209" user="ryra6453" changeset="8832571">
    <nd ref="32590991"/>
    <nd ref="1374426839"/>
    <nd ref="1328473699"/>
    <nd ref="1325757782"/>
    <tag k="highway" v="primary"/>
    <tag k="oneway" v="yes"/>
  </way>
  <way id="4945233" version="7" timestamp="2012-03-28T16:13:08Z" uid="392139" user="Canuts" changeset="11128535"/>
  <way id="4945291" version="2" timestamp="2011-06-18T06:05:14Z" uid="20587" user="balrog-kun" changeset="8470341">
    <nd ref="32591830"/>
    <nd ref="1329315933"/>
    <nd ref="32591829"/>
    <tag k="highway" v="residential"/>
    <tag k="oneway" v="yes"/>
  </way>
  <way id="4945291" version="3" timestamp="2011-06-19T01:46:02Z" uid="20587" user="balrog-kun" changeset="8479249">
    <nd ref="32591830"/>
    <nd ref="1329315933"/>
    <nd ref="1330283385"/>
    <nd ref="32591829"/>
    <tag k="highway" v="residential"/>
    <tag k="oneway" v="yes"/>
  </way>
  <way id="4945352" version="3" timestamp="2008-07-30T03:17:01Z" uid="20587" user="balrog-kun" changeset="629518">
    <nd ref="32049246"/>
    <nd ref="32591829"/>
    <nd ref="32591825"/>
    <nd ref="180760680"/>
    <nd ref="32591826"/>
    <nd ref="32591827"/>
    <nd ref="32592451"/>
    <nd ref="32592492"/>
    <tag k="created_by" v="JOSM"/>
    <tag k="highway" v="residential"/>
    <tag k="name" v="Stanisława Noakowskiego"/>
    <tag k="old_name" v="Polna"/>
    <tag k="oneway" v="yes"/>
  </way>
  <way id="4945352" version="4" timestamp="2008-11-14T20:56:40Z" uid="20587" user="balrog-kun" changeset="747594">
    <nd ref="32049246"/>
    <nd ref="312054247"/>
    <nd ref="32591829"/>
    <nd ref="32591825"/>
    <nd ref="180760680"/>
    <nd ref="32591826"/>
    <nd ref="32591827"/>
    <nd ref="32592451"/>
    <nd ref="32592492"/>
    <tag k="created_by" v="JOSM"/>
    <tag k="highway" v="residential"/>
    <tag k="name" v="Stanisława Noakowskiego"/>
    <tag k="old_name" v="Polna"/>
    <tag k="oneway" v="yes"/>
  </way>
  <way id="4945352" version="5" timestamp="2008-12-06T00:19:47Z" uid="20587" user="balrog-kun" changeset="204571">
    <nd ref="32049246"/>
    <nd ref="312054247"/>
    <nd ref="32591829"/>
    <nd ref="32591825"/>
    <nd ref="180760680"/>
    <nd ref="32591826"/>
    <nd ref="32591827"/>
    <nd ref="32592451"/>
    <nd ref="316886460"/>
    <nd ref="316886458"/>
    <tag k="created_by" v="JOSM"/>
    <tag k="highway" v="residential"/>
    <tag k="name" v="Stanisława Noakowskiego"/>
    <tag k="old_name" v="Polna"/>
    <tag k="oneway" v="yes"/>
  </way>
  <way id="4945352" version="6" timestamp="2009-02-15T08:08:46Z" uid="20587" user="balrog-kun" changeset="446565">
    <nd ref="32049246"/>
    <nd ref="312054247"/>
    <nd ref="32591829"/>
    <nd ref="32591825"/>
    <nd ref="180760680"/>
    <nd ref="32591826"/>
    <nd ref="32591827"/>
    <nd ref="32592451"/>
    <nd ref="316886460"/>
    <nd ref="316886458"/>
    <tag k="created_by" v="JOSM"/>
    <tag k="highway" v="residential"/>
    <tag k="name" v="Stanisława Noakowskiego"/>
    <tag k="old_name" v="Polna"/>
    <tag k="oneway" v="yes"/>
    <tag k="wikipedia" v="pl:Ulica Stanisława Noakowskiego w Warszawie "/>
  </way>
  <way id="4945352" version="7" timestamp="2009-03-25T23:40:49Z" uid="70696" user="xybot" changeset="861862">
    <nd ref="32049246"/>
    <nd ref="312054247"/>
    <nd ref="32591829"/>
    <nd ref="32591825"/>
    <nd ref="180760680"/>
    <nd ref="32591826"/>
    <nd ref="32591827"/>
    <nd ref="32592451"/>
    <nd ref="316886460"/>
    <nd ref="316886458"/>
    <tag k="created_by" v="JOSM"/>
    <tag k="highway" v="residential"/>
    <tag k="name" v="Stanisława Noakowskiego"/>
    <tag k="old_name" v="Polna"/>
    <tag k="oneway" v="yes"/>
    <tag k="wikipedia" v="pl:Ulica Stanisława Noakowskiego w Warszawie"/>
  </way>
  <way id="4945352" version="8" timestamp="2011-06-18T06:05:16Z" uid="20587" user="balrog-kun" changeset="8470341">
    <nd ref="32049246"/>
    <nd ref="1329316085"/>
    <nd ref="312054247"/>
    <nd ref="32591829"/>
    <nd ref="32591825"/>
    <nd ref="180760680"/>
    <nd ref="32591826"/>
    <nd ref="32591827"/>
    <nd ref="32592451"/>
    <nd ref="316886460"/>
    <nd ref="316886458"/>
    <tag k="highway" v="residential"/>
    <tag k="name" v="Stanisława Noakowskiego"/>
    <tag k="old_name" v="Polna"/>
    <tag k="oneway" v="yes"/>
    <tag k="wikipedia" v="pl:Ulica Stanisława Noakowskiego w Warszawie"/>
  </way>
  <way id="4945352" version="9" timestamp="2011-06-19T01:46:03Z" uid="20587" user="balrog-kun" changeset="8479249">
    <nd ref="32049246"/>
    <nd ref="1330283566"/>
    <nd ref="1329316085"/>
    <nd ref="312054247"/>
    <nd ref="32591829"/>
    <nd ref="32591825"/>
    <nd ref="180760680"/>
    <nd ref="32591826"/>
    <nd ref="32591827"/>
    <nd ref="32592451"/>
    <nd ref="316886460"/>
    <nd ref="316886458"/>
    <tag k="highway" v="residential"/>
    <tag k="name" v="Stanisława Noakowskiego"/>
    <tag k="old_name" v="Polna"/>
    <tag k="oneway" v="yes"/>
    <tag k="wikipedia" v="pl:Ulica Stanisława Noakowskiego w Warszawie"/>
  </way>
  <way id="4945352" version="10" timestamp="2011-06-30T07:22:01Z" uid="98542" user="wajak" changeset="8587629">
    <nd ref="32049246"/>
    <nd ref="1330283566"/>
    <nd ref="1329316085"/>
    <nd ref="312054247"/>
    <nd ref="32591829"/>
    <nd ref="32591825"/>
    <nd ref="180760680"/>
    <nd ref="32591826"/>
    <nd ref="32591827"/>
    <nd ref="32592451"/>
    <nd ref="316886458"/>
    <tag k="highway" v="residential"/>
    <tag k="name" v="Stanisława Noakowskiego"/>
    <tag k="old_name" v="Polna"/>
    <tag k="oneway" v="yes"/>
    <tag k="wikipedia" v="pl:Ulica Stanisława Noakowskiego w Warszawie"/>
  </way>
  <way id="4945352" version="11" timestamp="2011-08-31T13:13:23Z" uid="373244" user="Tomaszg" changeset="9176223">
    <nd ref="32049246"/>
    <nd ref="1330283566"/>
    <nd ref="1329316085"/>
    <nd ref="312054247"/>
    <nd ref="32591829"/>
    <nd ref="32591825"/>
    <nd ref="180760680"/>
    <nd ref="32591826"/>
    <nd ref="32591827"/>
    <nd ref="1419174059"/>
    <nd ref="32592451"/>
    <nd ref="316886458"/>
    <tag k="highway" v="residential"/>
    <tag k="name" v="Stanisława Noakowskiego"/>
    <tag k="old_name" v="Polna"/>
    <tag k="oneway" v="yes"/>
    <tag k="wikipedia" v="pl:Ulica Stanisława Noakowskiego w Warszawie"/>
  </way>
  <way id="4945353" version="4" timestamp="2008-05-25T19:59:17Z" uid="20587" user="balrog-kun" changeset="520110">
    <nd ref="32049255"/>
    <nd ref="266864089"/>
    <nd ref="32629266"/>
    <nd ref="32592494"/>
    <nd ref="32592489"/>
    <tag k="created_by" v="Potlatch 0.5b"/>
    <tag k="highway" v="residential"/>
    <tag k="name" v="Braci Śniadeckich"/>
    <tag k="oneway" v="yes"/>
  </way>
  <way id="4945353" version="5" timestamp="2008-10-21T20:22:44Z" uid="53100" user="Jakub Klawiter" changeset="494221">
    <nd ref="32049255"/>
    <nd ref="266864089"/>
    <nd ref="32629266"/>
    <nd ref="32592494"/>
    <nd ref="32592489"/>
    <tag k="created_by" v="Potlatch 0.5b"/>
    <tag k="highway" v="residential"/>
    <tag k="name" v="Jana i Jędrzeja Śniadeckich"/>
    <tag k="oneway" v="yes"/>
  </way>
  <way id="4945353" version="6" timestamp="2008-12-06T00:19:48Z" uid="20587" user="balrog-kun" changeset="204571">
    <nd ref="32049255"/>
    <nd ref="266864089"/>
    <nd ref="32629266"/>
    <nd ref="32592494"/>
    <nd ref="316886451"/>
    <tag k="created_by" v="Potlatch 0.5b"/>
    <tag k="highway" v="residential"/>
    <tag k="name" v="Jana i Jędrzeja Śniadeckich"/>
    <tag k="oneway" v="yes"/>
  </way>
  <way id="4945353" version="7" timestamp="2009-01-18T17:34:47Z" uid="20587" user="balrog-kun" changeset="805695">
    <nd ref="32049255"/>
    <nd ref="333136430"/>
    <nd ref="266864089"/>
    <nd ref="32629266"/>
    <nd ref="32592494"/>
    <nd ref="316886451"/>
    <tag k="created_by" v="Potlatch 0.5b"/>
    <tag k="highway" v="residential"/>
    <tag k="name" v="Jana i Jędrzeja Śniadeckich"/>
    <tag k="oneway" v="yes"/>
  </way>
  <way id="4945353" version="8" timestamp="2009-02-15T08:08:47Z" uid="20587" user="balrog-kun" changeset="446565">
    <nd ref="32049255"/>
    <nd ref="333136430"/>
    <nd ref="266864089"/>
    <nd ref="32629266"/>
    <nd ref="32592494"/>
    <nd ref="316886451"/>
    <tag k="created_by" v="Potlatch 0.5b"/>
    <tag k="highway" v="residential"/>
    <tag k="name" v="Jana i Jędrzeja Śniadeckich"/>
    <tag k="oneway" v="yes"/>
    <tag k="wikipedia" v="pl:Ulica Śniadeckich w Warszawie"/>
  </way>
  <way id="4945353" version="9" timestamp="2009-11-01T01:51:03Z" uid="20587" user="balrog-kun" changeset="3003212">
    <nd ref="32049255"/>
    <nd ref="549623717"/>
    <nd ref="333136430"/>
    <nd ref="266864089"/>
    <nd ref="32629266"/>
    <nd ref="32592494"/>
    <nd ref="316886451"/>
    <tag k="highway" v="residential"/>
    <tag k="name" v="Jana i Jędrzeja Śniadeckich"/>
    <tag k="oneway" v="yes"/>
    <tag k="wikipedia" v="pl:Ulica Śniadeckich w Warszawie"/>
  </way>
  <way id="4945353" version="10" timestamp="2010-04-26T01:01:49Z" uid="20587" user="balrog-kun" changeset="4527875">
    <nd ref="32049255"/>
    <nd ref="549623717"/>
    <nd ref="333136430"/>
    <nd ref="266864089"/>
    <nd ref="32629266"/>
    <nd ref="32592494"/>
    <nd ref="316886451"/>
    <tag k="highway" v="residential"/>
    <tag k="maxweight" v="2.5"/>
    <tag k="name" v="Jana i Jędrzeja Śniadeckich"/>
    <tag k="oneway" v="yes"/>
    <tag k="wikipedia" v="pl:Ulica Śniadeckich w Warszawie"/>
  </way>
  <way id="4945353" version="11" timestamp="2011-05-05T00:14:07Z" uid="20587" user="balrog-kun" changeset="8053712">
    <nd ref="32049255"/>
    <nd ref="549623717"/>
    <nd ref="333136430"/>
    <nd ref="266864089"/>
    <nd ref="32629266"/>
    <nd ref="32592494"/>
    <nd ref="316886451"/>
    <tag k="highway" v="residential"/>
    <tag k="maxweight" v="2.5"/>
    <tag k="name" v="Jana i Jędrzeja Śniadeckich"/>
    <tag k="note" v="Temporarily oneway=false during construction works"/>
    <tag k="oneway" v="no"/>
    <tag k="wikipedia" v="pl:Ulica Śniadeckich w Warszawie"/>
  </way>
  <way id="4945353" version="12" timestamp="2011-05-28T19:02:41Z" uid="20587" user="balrog-kun" changeset="8274691">
    <nd ref="32049255"/>
    <nd ref="549623717"/>
    <nd ref="333136430"/>
    <nd ref="266864089"/>
    <nd ref="32629266"/>
    <nd ref="32592494"/>
    <nd ref="316886451"/>
    <tag k="highway" v="residential"/>
    <tag k="maxweight" v="2.5"/>
    <tag k="name" v="Jana i Jędrzeja Śniadeckich"/>
    <tag k="note" v="Temporarily oneway=false during construction works"/>
    <tag k="oneway" v="no"/>
    <tag k="railway" v="dismantled"/>
    <tag k="wikipedia" v="pl:Ulica Śniadeckich w Warszawie"/>
  </way>
  <way id="4945353" version="13" timestamp="2011-06-18T06:05:10Z" uid="20587" user="balrog-kun" changeset="8470341">
    <nd ref="32049255"/>
    <nd ref="549623717"/>
    <nd ref="333136430"/>
    <nd ref="266864089"/>
    <nd ref="32629266"/>
    <nd ref="32592494"/>
    <nd ref="1329315966"/>
    <nd ref="316886451"/>
    <tag k="highway" v="residential"/>
    <tag k="maxweight" v="2.5"/>
    <tag k="name" v="Jana i Jędrzeja Śniadeckich"/>
    <tag k="note" v="Temporarily oneway=false during construction works"/>
    <tag k="oneway" v="no"/>
    <tag k="railway" v="dismantled"/>
    <tag k="wikipedia" v="pl:Ulica Śniadeckich w Warszawie"/>
  </way>
  <way id="4945353" version="14" timestamp="2011-08-26T10:12:55Z" uid="508862" user="KeiDii" changeset="9128116">
    <nd ref="32049255"/>
    <nd ref="333136430"/>
    <nd ref="266864089"/>
    <tag k="highway" v="residential"/>
    <tag k="maxweight" v="2.5"/>
    <tag k="name" v="Jana i Jędrzeja Śniadeckich"/>
    <tag k="note" v="Temporarily oneway=false during construction works"/>
    <tag k="oneway" v="yes"/>
    <tag k="railway" v="dismantled"/>
    <tag k="wikipedia" v="pl:Ulica Śniadeckich w Warszawie"/>
  </way>
  <way id="4945354" version="2" timestamp="2008-12-06T00:19:44Z" uid="20587" user="balrog-kun" changeset="204571">
    <nd ref="316886454"/>
    <nd ref="32592493"/>
    <nd ref="32049248"/>
    <tag k="created_by" v="JOSM"/>
    <tag k="highway" v="residential"/>
    <tag k="name" v="Lwowska"/>
    <tag k="oneway" v="yes"/>
  </way>
  <way id="4945354" version="3" timestamp="2009-02-15T08:08:46Z" uid="20587" user="balrog-kun" changeset="446565">
    <nd ref="316886454"/>
    <nd ref="32592493"/>
    <nd ref="32049248"/>
    <tag k="created_by" v="JOSM"/>
    <tag k="highway" v="residential"/>
    <tag k="name" v="Lwowska"/>
    <tag k="oneway" v="yes"/>
    <tag k="wikipedia" v="pl:Ulica Lwowska w Warszawie"/>
  </way>
  <way id="4945354" version="4" timestamp="2011-05-05T00:14:05Z" uid="20587" user="balrog-kun" changeset="8053712">
    <nd ref="316886454"/>
    <nd ref="1272610606"/>
    <nd ref="32592493"/>
    <nd ref="32049248"/>
    <tag k="highway" v="residential"/>
    <tag k="name" v="Lwowska"/>
    <tag k="oneway" v="yes"/>
    <tag k="wikipedia" v="pl:Ulica Lwowska w Warszawie"/>
  </way>
  <way id="4945354" version="5" timestamp="2011-06-18T06:05:08Z" uid="20587" user="balrog-kun" changeset="8470341">
    <nd ref="316886454"/>
    <nd ref="1272610606"/>
    <nd ref="32592493"/>
    <nd ref="1329316123"/>
    <nd ref="32049248"/>
    <tag k="highway" v="residential"/>
    <tag k="name" v="Lwowska"/>
    <tag k="oneway" v="yes"/>
    <tag k="wikipedia" v="pl:Ulica Lwowska w Warszawie"/>
  </way>
  <way id="4945355" version="3" timestamp="2008-10-06T00:01:55Z" uid="20587" user="balrog-kun" changeset="100720">
    <nd ref="32592495"/>
    <nd ref="302447110"/>
    <nd ref="26485670"/>
    <nd ref="26485673"/>
    <tag k="created_by" v="Potlatch 0.10"/>
    <tag k="highway" v="tertiary"/>
    <tag k="name" v="Polna"/>
    <tag k="oneway" v="yes"/>
  </way>
  <way id="4945355" version="4" timestamp="2009-02-15T08:08:46Z" uid="20587" user="balrog-kun" changeset="446565">
    <nd ref="32592495"/>
    <nd ref="302447110"/>
    <nd ref="26485670"/>
    <nd ref="26485673"/>
    <tag k="created_by" v="Potlatch 0.10"/>
    <tag k="highway" v="tertiary"/>
    <tag k="name" v="Polna"/>
    <tag k="oneway" v="yes"/>
    <tag k="wikipedia" v="pl:Ulica Polna w Warszawie"/>
  </way>
  <way id="4945355" version="5" timestamp="2009-11-28T08:27:30Z" uid="20587" user="balrog-kun" changeset="3234082">
    <nd ref="32592495"/>
    <nd ref="302447110"/>
    <nd ref="26485670"/>
    <nd ref="573211534"/>
    <nd ref="573211533"/>
    <nd ref="26485673"/>
    <tag k="highway" v="tertiary"/>
    <tag k="name" v="Polna"/>
    <tag k="oneway" v="yes"/>
    <tag k="wikipedia" v="pl:Ulica Polna w Warszawie"/>
  </way>
  <way id="4945355" version="6" timestamp="2011-06-18T06:05:23Z" uid="20587" user="balrog-kun" changeset="8470341">
    <nd ref="32592495"/>
    <nd ref="302447110"/>
    <nd ref="1329316013"/>
    <nd ref="26485670"/>
    <nd ref="573211534"/>
    <nd ref="573211533"/>
    <nd ref="26485673"/>
    <tag k="highway" v="tertiary"/>
    <tag k="name" v="Polna"/>
    <tag k="oneway" v="yes"/>
    <tag k="wikipedia" v="pl:Ulica Polna w Warszawie"/>
  </way>
  <way id="4945356" version="2" timestamp="2009-02-15T08:08:45Z" uid="20587" user="balrog-kun" changeset="446565">
    <nd ref="32592490"/>
    <nd ref="32592495"/>
    <tag k="created_by" v="JOSM"/>
    <tag k="highway" v="tertiary"/>
    <tag k="name" v="Polna"/>
    <tag k="wikipedia" v="pl:Ulica Polna w Warszawie"/>
  </way>
  <way id="4945356" version="3" timestamp="2009-11-28T08:27:30Z" uid="20587" user="balrog-kun" changeset="3234082">
    <nd ref="32592490"/>
    <nd ref="573211491"/>
    <nd ref="32592495"/>
    <tag k="highway" v="tertiary"/>
    <tag k="name" v="Polna"/>
    <tag k="wikipedia" v="pl:Ulica Polna w Warszawie"/>
  </way>
  <way id="4945356" version="4" timestamp="2010-01-10T10:26:14Z" uid="20587" user="balrog-kun" changeset="3585409">
    <nd ref="32592490"/>
    <nd ref="573211491"/>
    <nd ref="32592495"/>
    <tag k="highway" v="tertiary"/>
    <tag k="maxweight" v="2.5"/>
    <tag k="name" v="Polna"/>
    <tag k="wikipedia" v="pl:Ulica Polna w Warszawie"/>
  </way>
  <way id="4945356" version="5" timestamp="2011-06-30T07:22:00Z" uid="98542" user="wajak" changeset="8587629">
    <nd ref="32592490"/>
    <nd ref="32592495"/>
    <tag k="highway" v="tertiary"/>
    <tag k="maxweight" v="2.5"/>
    <tag k="name" v="Polna"/>
    <tag k="wikipedia" v="pl:Ulica Polna w Warszawie"/>
  </way>
  <way id="4945356" version="6" timestamp="2011-07-04T16:52:41Z" uid="471796" user="Alberto Rubio Muñoz" changeset="8630771">
    <nd ref="32592490"/>
    <nd ref="32592495"/>
    <tag k="highway" v="tertiary"/>
    <tag k="maxweight" v="2.5"/>
    <tag k="name" v="Polna"/>
    <tag k="oneway" v="yes"/>
    <tag k="wikipedia" v="pl:Ulica Polna w Warszawie"/>
  </way>
  <way id="4945356" version="7" timestamp="2011-08-31T13:13:22Z" uid="373244" user="Tomaszg" changeset="9176223">
    <nd ref="32592490"/>
    <nd ref="32592495"/>
    <tag k="highway" v="tertiary"/>
    <tag k="maxweight" v="2.5"/>
    <tag k="name" v="Polna"/>
    <tag k="wikipedia" v="pl:Ulica Polna w Warszawie"/>
  </way>
  <way id="4945357" version="2" timestamp="2008-04-01T20:21:00Z" uid="20587" user="balrog-kun" changeset="8794">
    <nd ref="26195448"/>
    <nd ref="32592490"/>
    <nd ref="32592450"/>
    <nd ref="255309043"/>
    <nd ref="32592489"/>
    <nd ref="32592488"/>
    <nd ref="32592492"/>
    <nd ref="255309048"/>
    <nd ref="26195448"/>
    <tag k="created_by" v="JOSM"/>
    <tag k="highway" v="tertiary"/>
    <tag k="junction" v="roundabout"/>
    <tag k="name" v="Plac Politechniki"/>
  </way>
  <way id="4945357" version="3" timestamp="2008-12-06T00:20:10Z" uid="20587" user="balrog-kun" changeset="204571"/>
  <way id="4945607" version="3" timestamp="2008-02-19T18:46:17Z" uid="20587" user="balrog-kun" changeset="160261">
    <nd ref="31897846"/>
    <nd ref="32049245"/>
    <nd ref="248460721"/>
    <nd ref="180760716"/>
    <nd ref="32049246"/>
    <nd ref="32591830"/>
    <nd ref="32049247"/>
    <nd ref="32049248"/>
    <nd ref="32049249"/>
    <nd ref="32049251"/>
    <nd ref="32049252"/>
    <nd ref="32049253"/>
    <tag k="created_by" v="JOSM"/>
    <tag k="highway" v="tertiary"/>
    <tag k="name" v="Koszykowa"/>
  </way>
  <way id="4945607" version="4" timestamp="2008-02-20T20:09:02Z" uid="20587" user="balrog-kun" changeset="164283">
    <nd ref="31897846"/>
    <nd ref="32049245"/>
    <nd ref="248460721"/>
    <nd ref="180760716"/>
    <nd ref="32049246"/>
    <nd ref="32591830"/>
    <nd ref="32049247"/>
    <nd ref="32049248"/>
    <nd ref="32049249"/>
    <nd ref="32049251"/>
    <nd ref="32049252"/>
    <nd ref="248564699"/>
    <nd ref="32049253"/>
    <tag k="created_by" v="JOSM"/>
    <tag k="highway" v="tertiary"/>
    <tag k="name" v="Koszykowa"/>
  </way>
  <way id="4945607" version="5" timestamp="2009-02-04T20:26:41Z" uid="59223" user="Briquollo" changeset="137601">
    <nd ref="31897846"/>
    <nd ref="32049245"/>
    <nd ref="248460721"/>
    <nd ref="180760716"/>
    <nd ref="32049246"/>
    <nd ref="32591830"/>
    <nd ref="32049247"/>
    <nd ref="32049248"/>
    <nd ref="32049251"/>
    <nd ref="32049252"/>
    <nd ref="248564699"/>
    <nd ref="32049253"/>
    <tag k="created_by" v="JOSM"/>
    <tag k="highway" v="tertiary"/>
    <tag k="name" v="Koszykowa"/>
  </way>
  <way id="4945607" version="6" timestamp="2009-02-06T14:53:31Z" uid="59223" user="Briquollo" changeset="205414">
    <nd ref="31897846"/>
    <nd ref="32049245"/>
    <nd ref="248460721"/>
    <nd ref="180760716"/>
    <nd ref="32049246"/>
    <nd ref="32591830"/>
    <nd ref="32049247"/>
    <nd ref="32049248"/>
    <nd ref="32049251"/>
    <nd ref="342043956"/>
    <nd ref="32049252"/>
    <nd ref="248564699"/>
    <nd ref="32049253"/>
    <tag k="created_by" v="JOSM"/>
    <tag k="highway" v="tertiary"/>
    <tag k="name" v="Koszykowa"/>
  </way>
  <way id="4945607" version="7" timestamp="2009-02-06T15:03:50Z" uid="20587" user="balrog-kun" changeset="198712">
    <nd ref="31897846"/>
    <nd ref="342051397"/>
    <nd ref="32049245"/>
    <nd ref="248460721"/>
    <nd ref="180760716"/>
    <nd ref="32049246"/>
    <nd ref="32591830"/>
    <nd ref="32049247"/>
    <nd ref="32049248"/>
    <nd ref="32049251"/>
    <nd ref="32049252"/>
    <nd ref="248564699"/>
    <nd ref="32049253"/>
    <tag k="created_by" v="JOSM"/>
    <tag k="highway" v="tertiary"/>
    <tag k="name" v="Koszykowa"/>
  </way>
  <way id="4945607" version="8" timestamp="2009-02-07T21:52:36Z" uid="59223" user="Briquollo" changeset="248184">
    <nd ref="31897846"/>
    <nd ref="342051397"/>
    <nd ref="32049245"/>
    <nd ref="248460721"/>
    <nd ref="180760716"/>
    <nd ref="32049246"/>
    <nd ref="32591830"/>
    <nd ref="32049247"/>
    <nd ref="32049248"/>
    <nd ref="32049251"/>
    <nd ref="343217319"/>
    <nd ref="32049252"/>
    <nd ref="248564699"/>
    <nd ref="32049253"/>
    <tag k="created_by" v="JOSM"/>
    <tag k="highway" v="tertiary"/>
    <tag k="name" v="Koszykowa"/>
  </way>
  <way id="4945607" version="9" timestamp="2011-06-18T06:05:13Z" uid="20587" user="balrog-kun" changeset="8470341">
    <nd ref="31897846"/>
    <nd ref="342051397"/>
    <nd ref="32049245"/>
    <nd ref="248460721"/>
    <nd ref="180760716"/>
    <nd ref="32049246"/>
    <nd ref="32591830"/>
    <nd ref="1329316105"/>
    <nd ref="32049247"/>
    <nd ref="1329316038"/>
    <nd ref="32049248"/>
    <nd ref="1329316059"/>
    <nd ref="1329315957"/>
    <nd ref="32049251"/>
    <nd ref="343217319"/>
    <nd ref="32049252"/>
    <nd ref="248564699"/>
    <nd ref="32049253"/>
    <tag k="highway" v="tertiary"/>
    <tag k="name" v="Koszykowa"/>
  </way>
  <way id="4945607" version="10" timestamp="2011-06-19T00:48:39Z" uid="20587" user="balrog-kun" changeset="8479249">
    <nd ref="31897846"/>
    <nd ref="1330266140"/>
    <nd ref="342051397"/>
    <nd ref="32049245"/>
    <nd ref="248460721"/>
    <nd ref="180760716"/>
    <nd ref="32049246"/>
    <nd ref="32591830"/>
    <nd ref="1329316105"/>
    <nd ref="32049247"/>
    <nd ref="1329316038"/>
    <nd ref="32049248"/>
    <nd ref="1329316059"/>
    <nd ref="1329315957"/>
    <nd ref="32049251"/>
    <nd ref="343217319"/>
    <nd ref="32049252"/>
    <nd ref="248564699"/>
    <nd ref="32049253"/>
    <tag k="highway" v="tertiary"/>
    <tag k="name" v="Koszykowa"/>
  </way>
  <way id="4945607" version="11" timestamp="2011-06-19T01:46:02Z" uid="20587" user="balrog-kun" changeset="8479249">
    <nd ref="31897846"/>
    <nd ref="1330266140"/>
    <nd ref="342051397"/>
    <nd ref="32049245"/>
    <nd ref="248460721"/>
    <nd ref="1330283528"/>
    <nd ref="180760716"/>
    <nd ref="32049246"/>
    <nd ref="32591830"/>
    <nd ref="1329316105"/>
    <nd ref="32049247"/>
    <nd ref="1329316038"/>
    <nd ref="32049248"/>
    <nd ref="1329316059"/>
    <nd ref="1329315957"/>
    <nd ref="32049251"/>
    <nd ref="343217319"/>
    <nd ref="32049252"/>
    <nd ref="248564699"/>
    <nd ref="32049253"/>
    <tag k="highway" v="tertiary"/>
    <tag k="name" v="Koszykowa"/>
  </way>
  <way id="4945607" version="12" timestamp="2011-08-26T10:12:55Z" uid="508862" user="KeiDii" changeset="9128116">
    <nd ref="31897846"/>
    <nd ref="1330266140"/>
    <nd ref="342051397"/>
    <nd ref="32049245"/>
    <nd ref="248460721"/>
    <nd ref="1330283528"/>
    <nd ref="180760716"/>
    <nd ref="32049246"/>
    <nd ref="32591830"/>
    <nd ref="1329316105"/>
    <nd ref="32049247"/>
    <nd ref="1329316038"/>
    <nd ref="32049248"/>
    <nd ref="1329316059"/>
    <nd ref="1329315957"/>
    <nd ref="32049251"/>
    <nd ref="32049252"/>
    <tag k="highway" v="tertiary"/>
    <tag k="name" v="Koszykowa"/>
  </way>
  <way id="4945608" version="2" timestamp="2010-05-01T17:19:04Z" uid="20587" user="balrog-kun" changeset="4577369">
    <nd ref="30902337"/>
    <nd ref="32594485"/>
    <tag k="highway" v="secondary"/>
    <tag k="lanes" v="2"/>
    <tag k="oneway" v="yes"/>
  </way>
  <way id="4945610" version="9" timestamp="2008-10-09T01:48:25Z" uid="20587" user="balrog-kun" changeset="194107">
    <nd ref="32594631"/>
    <nd ref="32553381"/>
    <nd ref="303205701"/>
    <nd ref="54094219"/>
    <nd ref="251281806"/>
    <nd ref="253169449"/>
    <nd ref="201830779"/>
    <nd ref="32553132"/>
    <nd ref="32553133"/>
    <nd ref="31156743"/>
    <tag k="created_by" v="Potlatch 0.7b"/>
    <tag k="highway" v="secondary"/>
    <tag k="name" v="Aleje Jerozolimskie"/>
    <tag k="oneway" v="yes"/>
  </way>
  <way id="4945610" version="10" timestamp="2009-02-09T01:34:17Z" uid="20587" user="balrog-kun" changeset="288825">
    <nd ref="32594631"/>
    <nd ref="32553381"/>
    <nd ref="303205701"/>
    <nd ref="54094219"/>
    <nd ref="251281806"/>
    <nd ref="253169449"/>
    <nd ref="201830779"/>
    <nd ref="32553132"/>
    <nd ref="32553133"/>
    <nd ref="31156743"/>
    <tag k="created_by" v="Potlatch 0.7b"/>
    <tag k="highway" v="secondary"/>
    <tag k="name" v="Aleje Jerozolimskie"/>
    <tag k="oneway" v="yes"/>
    <tag k="wikipedia" v="pl:Aleje Jerozolimskie w Warszawie"/>
  </way>
  <way id="4945610" version="11" timestamp="2009-02-12T18:09:10Z" uid="20587" user="balrog-kun" changeset="371425">
    <nd ref="32594631"/>
    <nd ref="32553381"/>
    <nd ref="303205701"/>
    <nd ref="344714852"/>
    <nd ref="54094219"/>
    <nd ref="251281806"/>
    <nd ref="253169449"/>
    <nd ref="201830779"/>
    <nd ref="32553132"/>
    <nd ref="344714883"/>
    <nd ref="32553133"/>
    <nd ref="31156743"/>
    <tag k="created_by" v="Potlatch 0.7b"/>
    <tag k="highway" v="secondary"/>
    <tag k="name" v="Aleje Jerozolimskie"/>
    <tag k="oneway" v="yes"/>
    <tag k="wikipedia" v="pl:Aleje Jerozolimskie w Warszawie"/>
  </way>
  <way id="4945610" version="12" timestamp="2009-05-30T09:48:52Z" uid="127389" user="mariouche" changeset="1357239">
    <nd ref="32594631"/>
    <nd ref="32553381"/>
    <nd ref="303205701"/>
    <nd ref="344714852"/>
    <nd ref="54094219"/>
    <nd ref="251281806"/>
    <nd ref="253169449"/>
    <nd ref="201830779"/>
    <nd ref="412742450"/>
    <nd ref="412742461"/>
    <nd ref="32553132"/>
    <nd ref="344714883"/>
    <nd ref="32553133"/>
    <nd ref="31156743"/>
    <tag k="created_by" v="Potlatch 0.7b"/>
    <tag k="highway" v="secondary"/>
    <tag k="name" v="Aleje Jerozolimskie"/>
    <tag k="oneway" v="yes"/>
    <tag k="wikipedia" v="pl:Aleje Jerozolimskie w Warszawie"/>
  </way>
  <way id="4945610" version="13" timestamp="2009-08-24T18:47:03Z" uid="20587" user="balrog-kun" changeset="2248563">
    <nd ref="32594631"/>
    <nd ref="32553381"/>
    <nd ref="303205701"/>
    <nd ref="344714852"/>
    <nd ref="54094219"/>
    <nd ref="473130470"/>
    <nd ref="251281806"/>
    <nd ref="253169449"/>
    <nd ref="473130478"/>
    <nd ref="201830779"/>
    <nd ref="412742450"/>
    <nd ref="412742461"/>
    <nd ref="32553132"/>
    <nd ref="344714883"/>
    <nd ref="32553133"/>
    <nd ref="31156743"/>
    <tag k="highway" v="secondary"/>
    <tag k="name" v="Aleje Jerozolimskie"/>
    <tag k="oneway" v="yes"/>
    <tag k="wikipedia" v="pl:Aleje Jerozolimskie w Warszawie"/>
  </way>
  <way id="4945610" version="14" timestamp="2009-12-06T23:55:57Z" uid="20587" user="balrog-kun" changeset="3311730">
    <nd ref="32594631"/>
    <nd ref="32553381"/>
    <nd ref="303205701"/>
    <nd ref="344714852"/>
    <nd ref="54094219"/>
    <nd ref="473130470"/>
    <nd ref="251281806"/>
    <nd ref="253169449"/>
    <nd ref="473130478"/>
    <nd ref="201830779"/>
    <nd ref="412742450"/>
    <nd ref="412742461"/>
    <nd ref="32553132"/>
    <nd ref="582762475"/>
    <nd ref="344714883"/>
    <nd ref="32553133"/>
    <nd ref="31156743"/>
    <tag k="highway" v="secondary"/>
    <tag k="name" v="Aleje Jerozolimskie"/>
    <tag k="oneway" v="yes"/>
    <tag k="wikipedia" v="pl:Aleje Jerozolimskie w Warszawie"/>
  </way>
  <way id="4945610" version="15" timestamp="2010-05-01T17:19:49Z" uid="20587" user="balrog-kun" changeset="4577369">
    <nd ref="32594631"/>
    <nd ref="32553381"/>
    <nd ref="303205701"/>
    <nd ref="344714852"/>
    <nd ref="54094219"/>
    <nd ref="473130470"/>
    <nd ref="251281806"/>
    <nd ref="253169449"/>
    <nd ref="473130478"/>
    <nd ref="201830779"/>
    <nd ref="412742450"/>
    <nd ref="412742461"/>
    <nd ref="32553132"/>
    <nd ref="582762475"/>
    <nd ref="344714883"/>
    <nd ref="32553133"/>
    <nd ref="31156743"/>
    <tag k="highway" v="secondary"/>
    <tag k="lanes" v="2"/>
    <tag k="name" v="Aleje Jerozolimskie"/>
    <tag k="oneway" v="yes"/>
    <tag k="wikipedia" v="pl:Aleje Jerozolimskie w Warszawie"/>
  </way>
  <way id="4945610" version="16" timestamp="2011-05-06T12:18:04Z" uid="100448" user="kietlak" changeset="8064854">
    <nd ref="32594631"/>
    <nd ref="32553381"/>
    <nd ref="303205701"/>
    <nd ref="344714852"/>
    <nd ref="54094219"/>
    <nd ref="473130470"/>
    <nd ref="251281806"/>
    <nd ref="253169449"/>
    <nd ref="473130478"/>
    <nd ref="201830779"/>
    <nd ref="412742450"/>
    <nd ref="412742461"/>
    <nd ref="1274249815"/>
    <nd ref="1274249812"/>
    <nd ref="32553132"/>
    <nd ref="582762475"/>
    <nd ref="344714883"/>
    <nd ref="32553133"/>
    <nd ref="31156743"/>
    <tag k="highway" v="secondary"/>
    <tag k="lanes" v="2"/>
    <tag k="name" v="Aleje Jerozolimskie"/>
    <tag k="oneway" v="yes"/>
    <tag k="wikipedia" v="pl:Aleje Jerozolimskie w Warszawie"/>
  </way>
  <way id="4945610" version="17" timestamp="2011-05-11T12:08:45Z" uid="20587" user="balrog-kun" changeset="8111563">
    <nd ref="32594631"/>
    <nd ref="32553381"/>
    <nd ref="303205701"/>
    <nd ref="344714852"/>
    <nd ref="54094219"/>
    <nd ref="473130470"/>
    <nd ref="251281806"/>
    <nd ref="253169449"/>
    <nd ref="473130478"/>
    <nd ref="1280206621"/>
    <nd ref="201830779"/>
    <nd ref="412742450"/>
    <nd ref="412742461"/>
    <nd ref="1274249815"/>
    <nd ref="1274249812"/>
    <nd ref="32553132"/>
    <nd ref="582762475"/>
    <nd ref="344714883"/>
    <nd ref="32553133"/>
    <nd ref="31156743"/>
    <tag k="highway" v="secondary"/>
    <tag k="lanes" v="2"/>
    <tag k="name" v="Aleje Jerozolimskie"/>
    <tag k="oneway" v="yes"/>
    <tag k="wikipedia" v="pl:Aleje Jerozolimskie w Warszawie"/>
  </way>
  <way id="4945610" version="18" timestamp="2011-07-05T14:09:27Z" uid="218335" user="PKP" changeset="8639462">
    <nd ref="32594631"/>
    <nd ref="32553381"/>
    <nd ref="303205701"/>
    <nd ref="344714852"/>
    <nd ref="54094219"/>
    <nd ref="251281806"/>
    <nd ref="1350341743"/>
    <nd ref="253169449"/>
    <nd ref="473130478"/>
    <nd ref="1280206621"/>
    <nd ref="201830779"/>
    <nd ref="412742450"/>
    <nd ref="412742461"/>
    <nd ref="1274249815"/>
    <nd ref="1274249812"/>
    <nd ref="32553132"/>
    <nd ref="582762475"/>
    <nd ref="344714883"/>
    <nd ref="32553133"/>
    <nd ref="31156743"/>
    <tag k="highway" v="secondary"/>
    <tag k="lanes" v="2"/>
    <tag k="name" v="Aleje Jerozolimskie"/>
    <tag k="oneway" v="yes"/>
    <tag k="wikipedia" v="pl:Aleje Jerozolimskie w Warszawie"/>
  </way>
  <way id="4945610" version="19" timestamp="2011-11-23T18:42:01Z" uid="477744" user="hormel" changeset="9924583">
    <nd ref="32594631"/>
    <nd ref="32553381"/>
    <nd ref="303205701"/>
    <nd ref="344714852"/>
    <nd ref="54094219"/>
    <nd ref="251281806"/>
    <nd ref="1350341743"/>
    <nd ref="253169449"/>
    <nd ref="473130478"/>
    <nd ref="1280206621"/>
    <nd ref="201830779"/>
    <nd ref="412742450"/>
    <nd ref="412742461"/>
    <nd ref="1274249815"/>
    <nd ref="1274249812"/>
    <nd ref="32553132"/>
    <nd ref="1514443709"/>
    <nd ref="582762475"/>
    <nd ref="344714883"/>
    <nd ref="32553133"/>
    <nd ref="31156743"/>
    <tag k="highway" v="secondary"/>
    <tag k="lanes" v="2"/>
    <tag k="name" v="Aleje Jerozolimskie"/>
    <tag k="oneway" v="yes"/>
    <tag k="wikipedia" v="pl:Aleje Jerozolimskie w Warszawie"/>
  </way>
  <way id="4945611" version="2" timestamp="2008-10-28T08:39:38Z" uid="20587" user="balrog-kun" changeset="609926">
    <nd ref="32594640"/>
    <nd ref="32572884"/>
    <nd ref="54094244"/>
    <nd ref="54094212"/>
    <nd ref="32572885"/>
    <tag k="created_by" v="JOSM"/>
    <tag k="highway" v="primary"/>
    <tag k="name" v="Grójecka"/>
    <tag k="oneway" v="yes"/>
    <tag k="ref" v="631"/>
  </way>
  <way id="4945611" version="3" timestamp="2009-01-08T15:15:46Z" uid="20587" user="balrog-kun" changeset="756602">
    <nd ref="32594640"/>
    <nd ref="32572884"/>
    <nd ref="54094244"/>
    <nd ref="54094212"/>
    <nd ref="32572885"/>
    <tag k="created_by" v="JOSM"/>
    <tag k="highway" v="primary"/>
    <tag k="name" v="Grójecka"/>
    <tag k="oneway" v="yes"/>
    <tag k="ref" v="631"/>
    <tag k="wikipedia" v="pl:Ulica Grójecka w Warszawie"/>
  </way>
  <way id="4945611" version="4" timestamp="2009-01-15T18:29:38Z" uid="20587" user="balrog-kun" changeset="791946">
    <nd ref="32594640"/>
    <nd ref="32572884"/>
    <nd ref="332263641"/>
    <nd ref="54094244"/>
    <nd ref="54094212"/>
    <nd ref="32572885"/>
    <tag k="created_by" v="JOSM"/>
    <tag k="highway" v="primary"/>
    <tag k="name" v="Grójecka"/>
    <tag k="oneway" v="yes"/>
    <tag k="ref" v="631"/>
    <tag k="wikipedia" v="pl:Ulica Grójecka w Warszawie"/>
  </way>
  <way id="4945611" version="5" timestamp="2009-02-22T15:24:29Z" uid="91921" user="kwiecinski" changeset="621682">
    <nd ref="32594640"/>
    <nd ref="32572884"/>
    <nd ref="332263641"/>
    <nd ref="54094244"/>
    <nd ref="54094212"/>
    <nd ref="32572885"/>
    <tag k="created_by" v="Merkaartor 0.12"/>
    <tag k="highway" v="secondary"/>
    <tag k="name" v="Grójecka"/>
    <tag k="oneway" v="yes"/>
    <tag k="ref" v="631"/>
    <tag k="wikipedia" v="pl:Ulica Grójecka w Warszawie"/>
  </way>
  <way id="4945611" version="6" timestamp="2009-11-12T18:11:25Z" uid="20587" user="balrog-kun" changeset="3100206">
    <nd ref="32594640"/>
    <nd ref="32572884"/>
    <nd ref="332263641"/>
    <nd ref="54094244"/>
    <nd ref="561287245"/>
    <nd ref="561287183"/>
    <nd ref="54094212"/>
    <nd ref="32572885"/>
    <tag k="highway" v="secondary"/>
    <tag k="name" v="Grójecka"/>
    <tag k="oneway" v="yes"/>
    <tag k="ref" v="631"/>
    <tag k="wikipedia" v="pl:Ulica Grójecka w Warszawie"/>
  </way>
  <way id="4945611" version="7" timestamp="2010-05-01T17:18:46Z" uid="20587" user="balrog-kun" changeset="4577369">
    <nd ref="32594640"/>
    <nd ref="32572884"/>
    <nd ref="332263641"/>
    <nd ref="54094244"/>
    <nd ref="561287245"/>
    <nd ref="561287183"/>
    <nd ref="54094212"/>
    <nd ref="32572885"/>
    <tag k="highway" v="secondary"/>
    <tag k="lanes" v="3"/>
    <tag k="name" v="Grójecka"/>
    <tag k="oneway" v="yes"/>
    <tag k="ref" v="631"/>
    <tag k="wikipedia" v="pl:Ulica Grójecka w Warszawie"/>
  </way>
  <way id="4945612" version="3" timestamp="2008-02-19T18:23:46Z" uid="20587" user="balrog-kun" changeset="160261">
    <nd ref="32594639"/>
    <nd ref="30902337"/>
    <nd ref="30902336"/>
    <nd ref="30902334"/>
    <nd ref="54094223"/>
    <nd ref="32572890"/>
    <nd ref="30901480"/>
    <nd ref="248457778"/>
    <nd ref="32606514"/>
    <nd ref="104994357"/>
    <nd ref="32048673"/>
    <nd ref="30901479"/>
    <tag k="created_by" v="PiotrC"/>
    <tag k="highway" v="secondary"/>
    <tag k="name" v="Raszyńska"/>
    <tag k="oneway" v="yes"/>
  </way>
  <way id="4945612" version="4" timestamp="2008-02-21T15:53:23Z" uid="20587" user="balrog-kun" changeset="174814">
    <nd ref="32594639"/>
    <nd ref="248664604"/>
    <nd ref="30902337"/>
    <nd ref="30902336"/>
    <nd ref="30902334"/>
    <nd ref="54094223"/>
    <nd ref="32572890"/>
    <nd ref="30901480"/>
    <nd ref="248457778"/>
    <nd ref="32606514"/>
    <nd ref="104994357"/>
    <nd ref="32048673"/>
    <nd ref="30901479"/>
    <tag k="created_by" v="PiotrC"/>
    <tag k="highway" v="secondary"/>
    <tag k="name" v="Raszyńska"/>
    <tag k="oneway" v="yes"/>
  </way>
  <way id="4945612" version="5" timestamp="2008-04-01T20:21:16Z" uid="20587" user="balrog-kun" changeset="8794">
    <nd ref="32594639"/>
    <nd ref="248664604"/>
    <nd ref="30902337"/>
    <nd ref="30902336"/>
    <nd ref="30902334"/>
    <nd ref="54094223"/>
    <nd ref="32572890"/>
    <nd ref="255309065"/>
    <nd ref="30901480"/>
    <nd ref="248457778"/>
    <nd ref="32606514"/>
    <nd ref="104994357"/>
    <nd ref="32048673"/>
    <nd ref="30901479"/>
    <tag k="created_by" v="PiotrC"/>
    <tag k="highway" v="secondary"/>
    <tag k="name" v="Raszyńska"/>
    <tag k="oneway" v="yes"/>
  </way>
  <way id="4945612" version="6" timestamp="2008-10-09T01:48:25Z" uid="20587" user="balrog-kun" changeset="194107">
    <nd ref="32594637"/>
    <nd ref="248664604"/>
    <nd ref="30902337"/>
    <nd ref="303205616"/>
    <nd ref="30902336"/>
    <nd ref="303205615"/>
    <nd ref="30902334"/>
    <nd ref="54094223"/>
    <nd ref="32572890"/>
    <nd ref="255309065"/>
    <nd ref="30901480"/>
    <nd ref="248457778"/>
    <nd ref="32606514"/>
    <nd ref="104994357"/>
    <nd ref="32048673"/>
    <nd ref="30901479"/>
    <tag k="created_by" v="PiotrC"/>
    <tag k="highway" v="secondary"/>
    <tag k="name" v="Raszyńska"/>
    <tag k="oneway" v="yes"/>
  </way>
  <way id="4945612" version="7" timestamp="2008-10-27T22:37:06Z" uid="20587" user="balrog-kun" changeset="600039">
    <nd ref="32594637"/>
    <nd ref="248664604"/>
    <nd ref="30902337"/>
    <nd ref="303205616"/>
    <nd ref="30902336"/>
    <nd ref="303205615"/>
    <nd ref="30902334"/>
    <nd ref="54094223"/>
    <nd ref="32572890"/>
    <nd ref="255309065"/>
    <nd ref="30901480"/>
    <nd ref="308117295"/>
    <nd ref="248457778"/>
    <nd ref="32606514"/>
    <nd ref="104994357"/>
    <nd ref="32048673"/>
    <nd ref="30901479"/>
    <tag k="created_by" v="PiotrC"/>
    <tag k="highway" v="secondary"/>
    <tag k="name" v="Raszyńska"/>
    <tag k="oneway" v="yes"/>
  </way>
  <way id="4945612" version="8" timestamp="2008-10-28T08:39:39Z" uid="20587" user="balrog-kun" changeset="609926">
    <nd ref="32594637"/>
    <nd ref="248664604"/>
    <nd ref="30902337"/>
    <nd ref="303205616"/>
    <nd ref="30902336"/>
    <nd ref="303205615"/>
    <nd ref="30902334"/>
    <nd ref="54094223"/>
    <nd ref="32572890"/>
    <nd ref="255309065"/>
    <nd ref="30901480"/>
    <nd ref="308117295"/>
    <nd ref="248457778"/>
    <nd ref="32606514"/>
    <nd ref="104994357"/>
    <nd ref="32048673"/>
    <nd ref="30901479"/>
    <tag k="created_by" v="PiotrC"/>
    <tag k="highway" v="secondary"/>
    <tag k="name" v="Raszyńska"/>
    <tag k="oneway" v="yes"/>
    <tag k="ref" v="634"/>
  </way>
  <way id="4945612" version="9" timestamp="2008-11-14T20:57:03Z" uid="20587" user="balrog-kun" changeset="747594">
    <nd ref="32594637"/>
    <nd ref="248664604"/>
    <nd ref="30902337"/>
    <nd ref="303205616"/>
    <nd ref="30902336"/>
    <nd ref="303205615"/>
    <nd ref="30902334"/>
    <nd ref="54094223"/>
    <nd ref="32572890"/>
    <nd ref="255309065"/>
    <nd ref="30901480"/>
    <nd ref="308117295"/>
    <nd ref="248457778"/>
    <nd ref="32606514"/>
    <nd ref="104994357"/>
    <nd ref="32048673"/>
    <nd ref="312053370"/>
    <nd ref="30901479"/>
    <tag k="created_by" v="PiotrC"/>
    <tag k="highway" v="secondary"/>
    <tag k="name" v="Raszyńska"/>
    <tag k="oneway" v="yes"/>
    <tag k="ref" v="634"/>
  </way>
  <way id="4945612" version="10" timestamp="2009-01-08T20:08:23Z" uid="20587" user="balrog-kun" changeset="757533">
    <nd ref="32594637"/>
    <nd ref="330286055"/>
    <nd ref="248664604"/>
    <nd ref="30902337"/>
    <nd ref="303205616"/>
    <nd ref="30902336"/>
    <nd ref="303205615"/>
    <nd ref="30902334"/>
    <nd ref="54094223"/>
    <nd ref="32572890"/>
    <nd ref="255309065"/>
    <nd ref="30901480"/>
    <nd ref="308117295"/>
    <nd ref="248457778"/>
    <nd ref="32606514"/>
    <nd ref="104994357"/>
    <nd ref="32048673"/>
    <nd ref="312053370"/>
    <nd ref="30901479"/>
    <tag k="created_by" v="PiotrC"/>
    <tag k="highway" v="secondary"/>
    <tag k="name" v="Raszyńska"/>
    <tag k="oneway" v="yes"/>
    <tag k="ref" v="634"/>
  </way>
  <way id="4945612" version="11" timestamp="2009-06-05T12:27:45Z" uid="20587" user="balrog-kun" changeset="1428938">
    <nd ref="32594637"/>
    <nd ref="330286055"/>
    <nd ref="248664604"/>
    <nd ref="30902337"/>
    <nd ref="303205616"/>
    <nd ref="30902336"/>
    <nd ref="303205615"/>
    <nd ref="30902334"/>
    <nd ref="54094223"/>
    <nd ref="32572890"/>
    <nd ref="255309065"/>
    <nd ref="30901480"/>
    <nd ref="308117295"/>
    <nd ref="248457778"/>
    <nd ref="32606514"/>
    <nd ref="104994357"/>
    <nd ref="32048673"/>
    <nd ref="312053370"/>
    <nd ref="415948012"/>
    <nd ref="30901479"/>
    <tag k="created_by" v="PiotrC"/>
    <tag k="highway" v="secondary"/>
    <tag k="name" v="Raszyńska"/>
    <tag k="oneway" v="yes"/>
    <tag k="ref" v="634"/>
  </way>
  <way id="4945612" version="12" timestamp="2009-12-11T11:10:02Z" uid="20587" user="balrog-kun" changeset="3348099">
    <nd ref="32594637"/>
    <nd ref="330286055"/>
    <nd ref="248664604"/>
    <nd ref="30902337"/>
    <nd ref="303205616"/>
    <nd ref="30902336"/>
    <nd ref="303205615"/>
    <nd ref="30902334"/>
    <nd ref="54094223"/>
    <nd ref="32572890"/>
    <nd ref="255309065"/>
    <nd ref="30901480"/>
    <nd ref="308117295"/>
    <nd ref="248457778"/>
    <nd ref="32606514"/>
    <nd ref="104994357"/>
    <nd ref="32048673"/>
    <nd ref="312053370"/>
    <nd ref="415948012"/>
    <nd ref="30901479"/>
    <tag k="highway" v="secondary"/>
    <tag k="maxspeed" v="50"/>
    <tag k="name" v="Raszyńska"/>
    <tag k="oneway" v="yes"/>
    <tag k="ref" v="634"/>
  </way>
  <way id="4945612" version="13" timestamp="2010-01-21T17:05:52Z" uid="20587" user="balrog-kun" changeset="3676232">
    <nd ref="32594637"/>
    <nd ref="330286055"/>
    <nd ref="248664604"/>
    <nd ref="30902337"/>
    <nd ref="303205616"/>
    <nd ref="30902336"/>
    <nd ref="303205615"/>
    <nd ref="30902334"/>
    <nd ref="54094223"/>
    <nd ref="32572890"/>
    <nd ref="255309065"/>
    <nd ref="30901480"/>
    <nd ref="308117295"/>
    <nd ref="248457778"/>
    <nd ref="32606514"/>
    <nd ref="104994357"/>
    <nd ref="32048673"/>
    <nd ref="312053370"/>
    <nd ref="415948012"/>
    <nd ref="30901479"/>
    <tag k="highway" v="secondary"/>
    <tag k="maxspeed" v="50"/>
    <tag k="maxweight" v="2.5"/>
    <tag k="name" v="Raszyńska"/>
    <tag k="oneway" v="yes"/>
    <tag k="ref" v="634"/>
  </way>
  <way id="4945612" version="14" timestamp="2010-05-01T17:19:30Z" uid="20587" user="balrog-kun" changeset="4577369">
    <nd ref="32594637"/>
    <nd ref="330286055"/>
    <nd ref="248664604"/>
    <nd ref="30902337"/>
    <nd ref="303205616"/>
    <nd ref="30902336"/>
    <nd ref="303205615"/>
    <nd ref="30902334"/>
    <nd ref="54094223"/>
    <nd ref="32572890"/>
    <nd ref="255309065"/>
    <nd ref="30901480"/>
    <nd ref="308117295"/>
    <nd ref="248457778"/>
    <nd ref="32606514"/>
    <nd ref="104994357"/>
    <nd ref="32048673"/>
    <nd ref="312053370"/>
    <nd ref="415948012"/>
    <nd ref="30901479"/>
    <tag k="highway" v="secondary"/>
    <tag k="lanes" v="3"/>
    <tag k="maxspeed" v="50"/>
    <tag k="maxweight" v="2.5"/>
    <tag k="name" v="Raszyńska"/>
    <tag k="oneway" v="yes"/>
    <tag k="ref" v="634"/>
  </way>
  <way id="4945612" version="15" timestamp="2011-07-15T11:55:19Z" uid="487944" user="Voitcus" changeset="8730380">
    <nd ref="32594637"/>
    <nd ref="330286055"/>
    <nd ref="248664604"/>
    <nd ref="30902337"/>
    <tag k="highway" v="secondary"/>
    <tag k="lanes" v="3"/>
    <tag k="maxspeed" v="50"/>
    <tag k="maxweight" v="2.5"/>
    <tag k="name" v="Raszyńska"/>
    <tag k="oneway" v="yes"/>
    <tag k="ref" v="634"/>
  </way>
  <way id="4945614" version="6" timestamp="2008-10-07T18:39:59Z" uid="20587" user="balrog-kun" changeset="135180">
    <nd ref="32553130"/>
    <nd ref="32596164"/>
    <nd ref="32596175"/>
    <nd ref="302904553"/>
    <nd ref="119272631"/>
    <nd ref="32553382"/>
    <nd ref="32594634"/>
    <tag k="created_by" v="Potlatch 0.10b"/>
    <tag k="highway" v="primary"/>
    <tag k="name" v="Aleje Jerozolimskie"/>
    <tag k="oneway" v="yes"/>
  </way>
  <way id="4945614" version="7" timestamp="2008-10-28T08:39:39Z" uid="20587" user="balrog-kun" changeset="609926">
    <nd ref="32553130"/>
    <nd ref="32596164"/>
    <nd ref="32596175"/>
    <nd ref="302904553"/>
    <nd ref="119272631"/>
    <nd ref="32553382"/>
    <nd ref="32594634"/>
    <tag k="created_by" v="Potlatch 0.10b"/>
    <tag k="highway" v="primary"/>
    <tag k="name" v="Aleje Jerozolimskie"/>
    <tag k="oneway" v="yes"/>
    <tag k="ref" v="631"/>
  </way>
  <way id="4945614" version="8" timestamp="2009-01-08T20:08:24Z" uid="20587" user="balrog-kun" changeset="757533">
    <nd ref="32553130"/>
    <nd ref="32596164"/>
    <nd ref="32596175"/>
    <nd ref="302904553"/>
    <nd ref="119272631"/>
    <nd ref="32553382"/>
    <nd ref="330286053"/>
    <nd ref="32594634"/>
    <tag k="created_by" v="Potlatch 0.10b"/>
    <tag k="highway" v="primary"/>
    <tag k="name" v="Aleje Jerozolimskie"/>
    <tag k="oneway" v="yes"/>
    <tag k="ref" v="631"/>
  </way>
  <way id="4945614" version="9" timestamp="2009-02-06T15:43:49Z" uid="20587" user="balrog-kun" changeset="198712">
    <nd ref="32553130"/>
    <nd ref="342076291"/>
    <nd ref="32596164"/>
    <nd ref="32596175"/>
    <nd ref="342076271"/>
    <nd ref="302904553"/>
    <nd ref="119272631"/>
    <nd ref="32553382"/>
    <nd ref="330286053"/>
    <nd ref="32594634"/>
    <tag k="created_by" v="Potlatch 0.10b"/>
    <tag k="highway" v="primary"/>
    <tag k="name" v="Aleje Jerozolimskie"/>
    <tag k="oneway" v="yes"/>
    <tag k="ref" v="631"/>
  </way>
  <way id="4945614" version="10" timestamp="2009-02-09T01:34:13Z" uid="20587" user="balrog-kun" changeset="288825">
    <nd ref="32553130"/>
    <nd ref="342076291"/>
    <nd ref="32596164"/>
    <nd ref="32596175"/>
    <nd ref="342076271"/>
    <nd ref="302904553"/>
    <nd ref="119272631"/>
    <nd ref="32553382"/>
    <nd ref="330286053"/>
    <nd ref="32594634"/>
    <tag k="created_by" v="Potlatch 0.10b"/>
    <tag k="highway" v="primary"/>
    <tag k="name" v="Aleje Jerozolimskie"/>
    <tag k="oneway" v="yes"/>
    <tag k="ref" v="631"/>
    <tag k="wikipedia" v="pl:Aleje Jerozolimskie w Warszawie"/>
  </way>
  <way id="4945614" version="11" timestamp="2009-02-22T15:25:56Z" uid="91921" user="kwiecinski" changeset="621682">
    <nd ref="32553130"/>
    <nd ref="342076291"/>
    <nd ref="32596164"/>
    <nd ref="32596175"/>
    <nd ref="342076271"/>
    <nd ref="302904553"/>
    <nd ref="119272631"/>
    <nd ref="32553382"/>
    <nd ref="330286053"/>
    <nd ref="32594634"/>
    <tag k="created_by" v="Merkaartor 0.12"/>
    <tag k="highway" v="secondary"/>
    <tag k="name" v="Aleje Jerozolimskie"/>
    <tag k="oneway" v="yes"/>
    <tag k="ref" v="631"/>
    <tag k="wikipedia" v="pl:Aleje Jerozolimskie w Warszawie"/>
  </way>
  <way id="4945614" version="12" timestamp="2009-07-24T05:35:06Z" uid="98542" user="wajak" changeset="1921403">
    <nd ref="32553130"/>
    <nd ref="342076291"/>
    <nd ref="32596164"/>
    <nd ref="32596175"/>
    <nd ref="342076271"/>
    <nd ref="302904553"/>
    <nd ref="119272631"/>
    <nd ref="32553382"/>
    <nd ref="330286046"/>
    <nd ref="330286053"/>
    <nd ref="32594634"/>
    <tag k="highway" v="secondary"/>
    <tag k="name" v="Aleje Jerozolimskie"/>
    <tag k="oneway" v="yes"/>
    <tag k="ref" v="631"/>
    <tag k="wikipedia" v="pl:Aleje Jerozolimskie w Warszawie"/>
  </way>
  <way id="4945614" version="13" timestamp="2010-01-21T17:05:53Z" uid="20587" user="balrog-kun" changeset="3676232">
    <nd ref="32553130"/>
    <nd ref="342076291"/>
    <nd ref="32596164"/>
    <nd ref="32596175"/>
    <nd ref="342076271"/>
    <nd ref="302904553"/>
    <nd ref="119272631"/>
    <nd ref="32553382"/>
    <nd ref="330286046"/>
    <nd ref="330286053"/>
    <nd ref="32594634"/>
    <tag k="highway" v="secondary"/>
    <tag k="maxweight" v="5"/>
    <tag k="name" v="Aleje Jerozolimskie"/>
    <tag k="oneway" v="yes"/>
    <tag k="ref" v="631"/>
    <tag k="wikipedia" v="pl:Aleje Jerozolimskie w Warszawie"/>
  </way>
  <way id="4945614" version="14" timestamp="2010-05-01T17:19:13Z" uid="20587" user="balrog-kun" changeset="4577369">
    <nd ref="32553130"/>
    <nd ref="342076291"/>
    <nd ref="32596164"/>
    <nd ref="32596175"/>
    <nd ref="342076271"/>
    <nd ref="302904553"/>
    <nd ref="119272631"/>
    <nd ref="32553382"/>
    <nd ref="330286046"/>
    <nd ref="330286053"/>
    <nd ref="32594634"/>
    <tag k="highway" v="secondary"/>
    <tag k="lanes" v="3"/>
    <tag k="maxweight" v="5"/>
    <tag k="name" v="Aleje Jerozolimskie"/>
    <tag k="oneway" v="yes"/>
    <tag k="ref" v="631"/>
    <tag k="wikipedia" v="pl:Aleje Jerozolimskie w Warszawie"/>
  </way>
  <way id="4945615" version="2" timestamp="2008-03-28T23:41:00Z" uid="20587" user="balrog-kun" changeset="415330">
    <nd ref="32553131"/>
    <nd ref="32528057"/>
    <nd ref="32528046"/>
    <nd ref="254515299"/>
    <nd ref="32528048"/>
    <nd ref="32528059"/>
    <nd ref="32553124"/>
    <nd ref="32629360"/>
    <tag k="created_by" v="JOSM"/>
    <tag k="highway" v="primary"/>
    <tag k="name" v="Aleje Jerozolimskie"/>
    <tag k="oneway" v="yes"/>
  </way>
  <way id="4945615" version="3" timestamp="2008-08-07T12:59:25Z" uid="52087" user="kocio" changeset="129628">
    <nd ref="32553131"/>
    <nd ref="32528057"/>
    <nd ref="32528046"/>
    <nd ref="254515299"/>
    <nd ref="32528048"/>
    <nd ref="32629360"/>
    <tag k="created_by" v="Potlatch 0.10b"/>
    <tag k="highway" v="primary"/>
    <tag k="name" v="Aleje Jerozolimskie"/>
    <tag k="oneway" v="yes"/>
  </way>
  <way id="4945615" version="4" timestamp="2008-08-07T12:59:42Z" uid="52087" user="kocio" changeset="129628">
    <nd ref="32553131"/>
    <nd ref="32528057"/>
    <nd ref="32528046"/>
    <nd ref="254515299"/>
    <nd ref="32528048"/>
    <nd ref="32629360"/>
    <tag k="created_by" v="Potlatch 0.10b"/>
    <tag k="highway" v="primary"/>
    <tag k="name" v="Aleje Jerozolimskie"/>
    <tag k="oneway" v="yes"/>
  </way>
  <way id="4945615" version="5" timestamp="2008-08-07T13:00:02Z" uid="52087" user="kocio" changeset="129628">
    <nd ref="32553131"/>
    <nd ref="32528057"/>
    <nd ref="32528046"/>
    <nd ref="254515299"/>
    <nd ref="32528048"/>
    <nd ref="285917780"/>
    <nd ref="32629360"/>
    <tag k="created_by" v="Potlatch 0.10b"/>
    <tag k="highway" v="primary"/>
    <tag k="name" v="Aleje Jerozolimskie"/>
    <tag k="oneway" v="yes"/>
  </way>
  <way id="4945615" version="6" timestamp="2008-08-07T13:00:49Z" uid="52087" user="kocio" changeset="129628">
    <nd ref="32553131"/>
    <nd ref="32528057"/>
    <nd ref="32528046"/>
    <nd ref="254515299"/>
    <nd ref="32528048"/>
    <nd ref="285917780"/>
    <nd ref="32629360"/>
    <tag k="created_by" v="Potlatch 0.10b"/>
    <tag k="highway" v="primary"/>
    <tag k="name" v="Aleje Jerozolimskie"/>
    <tag k="oneway" v="yes"/>
  </way>
  <way id="4945615" version="7" timestamp="2008-08-07T13:01:45Z" uid="52087" user="kocio" changeset="129628">
    <nd ref="32553131"/>
    <nd ref="32528057"/>
    <nd ref="285918302"/>
    <nd ref="32528046"/>
    <nd ref="254515299"/>
    <nd ref="32528048"/>
    <nd ref="285917780"/>
    <nd ref="32629360"/>
    <tag k="created_by" v="Potlatch 0.10b"/>
    <tag k="highway" v="primary"/>
    <tag k="name" v="Aleje Jerozolimskie"/>
    <tag k="oneway" v="yes"/>
  </way>
  <way id="4945615" version="8" timestamp="2008-08-07T13:02:09Z" uid="52087" user="kocio" changeset="129628">
    <nd ref="32553131"/>
    <nd ref="32528057"/>
    <nd ref="285918302"/>
    <nd ref="32528046"/>
    <nd ref="254515299"/>
    <nd ref="32528048"/>
    <nd ref="285917780"/>
    <nd ref="32629360"/>
    <tag k="created_by" v="Potlatch 0.10b"/>
    <tag k="highway" v="primary"/>
    <tag k="name" v="Aleje Jerozolimskie"/>
    <tag k="oneway" v="yes"/>
  </way>
  <way id="4945615" version="9" timestamp="2008-08-07T13:05:12Z" uid="52087" user="kocio" changeset="129628">
    <nd ref="32553131"/>
    <nd ref="32528057"/>
    <nd ref="285918302"/>
    <nd ref="32528046"/>
    <nd ref="254515299"/>
    <nd ref="32528048"/>
    <nd ref="285917780"/>
    <nd ref="32629360"/>
    <tag k="created_by" v="Potlatch 0.10b"/>
    <tag k="highway" v="primary"/>
    <tag k="name" v="Aleje Jerozolimskie"/>
    <tag k="oneway" v="yes"/>
  </way>
  <way id="4945615" version="10" timestamp="2008-10-26T02:41:34Z" uid="20587" user="balrog-kun" changeset="576102">
    <nd ref="32553131"/>
    <nd ref="32528057"/>
    <nd ref="285918302"/>
    <nd ref="32528046"/>
    <nd ref="254515299"/>
    <nd ref="32528048"/>
    <nd ref="307573693"/>
    <nd ref="285917780"/>
    <nd ref="32629360"/>
    <tag k="created_by" v="Potlatch 0.10b"/>
    <tag k="highway" v="primary"/>
    <tag k="name" v="Aleje Jerozolimskie"/>
    <tag k="oneway" v="yes"/>
  </way>
  <way id="4945615" version="11" timestamp="2008-10-28T08:39:40Z" uid="20587" user="balrog-kun" changeset="609926">
    <nd ref="32553131"/>
    <nd ref="32528057"/>
    <nd ref="285918302"/>
    <nd ref="32528046"/>
    <nd ref="254515299"/>
    <nd ref="32528048"/>
    <nd ref="307573693"/>
    <nd ref="285917780"/>
    <nd ref="32629360"/>
    <tag k="created_by" v="Potlatch 0.10b"/>
    <tag k="highway" v="primary"/>
    <tag k="name" v="Aleje Jerozolimskie"/>
    <tag k="oneway" v="yes"/>
    <tag k="ref" v="631"/>
  </way>
  <way id="4945615" version="12" timestamp="2008-10-31T17:06:48Z" uid="20587" user="balrog-kun" changeset="640219">
    <nd ref="32553131"/>
    <nd ref="32528057"/>
    <nd ref="285918302"/>
    <nd ref="308942577"/>
    <nd ref="32528046"/>
    <nd ref="254515299"/>
    <nd ref="32528048"/>
    <nd ref="307573693"/>
    <nd ref="285917780"/>
    <nd ref="32629360"/>
    <tag k="created_by" v="Potlatch 0.10b"/>
    <tag k="highway" v="primary"/>
    <tag k="name" v="Aleje Jerozolimskie"/>
    <tag k="oneway" v="yes"/>
    <tag k="ref" v="631"/>
  </way>
  <way id="4945615" version="13" timestamp="2009-02-09T01:34:14Z" uid="20587" user="balrog-kun" changeset="288825">
    <nd ref="32553131"/>
    <nd ref="32528057"/>
    <nd ref="285918302"/>
    <nd ref="308942577"/>
    <nd ref="32528046"/>
    <nd ref="254515299"/>
    <nd ref="32528048"/>
    <nd ref="307573693"/>
    <nd ref="285917780"/>
    <nd ref="32629360"/>
    <tag k="created_by" v="Potlatch 0.10b"/>
    <tag k="highway" v="primary"/>
    <tag k="name" v="Aleje Jerozolimskie"/>
    <tag k="oneway" v="yes"/>
    <tag k="ref" v="631"/>
    <tag k="wikipedia" v="pl:Aleje Jerozolimskie w Warszawie"/>
  </way>
  <way id="4945615" version="14" timestamp="2009-08-04T06:01:52Z" uid="98542" user="wajak" changeset="2032128">
    <nd ref="32553131"/>
    <nd ref="32528057"/>
    <nd ref="285918302"/>
    <nd ref="308942577"/>
    <nd ref="32528046"/>
    <nd ref="254515299"/>
    <nd ref="32528048"/>
    <nd ref="307573693"/>
    <nd ref="285917780"/>
    <nd ref="32629360"/>
    <tag k="highway" v="secondary"/>
    <tag k="name" v="Aleje Jerozolimskie"/>
    <tag k="oneway" v="yes"/>
    <tag k="ref" v="631"/>
    <tag k="wikipedia" v="pl:Aleje Jerozolimskie w Warszawie"/>
  </way>
  <way id="4945615" version="15" timestamp="2010-01-21T17:05:55Z" uid="20587" user="balrog-kun" changeset="3676232">
    <nd ref="32553131"/>
    <nd ref="32528057"/>
    <nd ref="285918302"/>
    <nd ref="308942577"/>
    <nd ref="32528046"/>
    <nd ref="254515299"/>
    <nd ref="32528048"/>
    <nd ref="307573693"/>
    <nd ref="285917780"/>
    <nd ref="32629360"/>
    <tag k="highway" v="secondary"/>
    <tag k="maxweight" v="5"/>
    <tag k="name" v="Aleje Jerozolimskie"/>
    <tag k="oneway" v="yes"/>
    <tag k="ref" v="631"/>
    <tag k="wikipedia" v="pl:Aleje Jerozolimskie w Warszawie"/>
  </way>
  <way id="4945615" version="16" timestamp="2010-05-01T17:19:22Z" uid="20587" user="balrog-kun" changeset="4577369">
    <nd ref="32553131"/>
    <nd ref="32528057"/>
    <nd ref="285918302"/>
    <nd ref="308942577"/>
    <nd ref="32528046"/>
    <nd ref="254515299"/>
    <nd ref="32528048"/>
    <nd ref="307573693"/>
    <nd ref="285917780"/>
    <nd ref="32629360"/>
    <tag k="highway" v="secondary"/>
    <tag k="lanes" v="3"/>
    <tag k="maxweight" v="5"/>
    <tag k="name" v="Aleje Jerozolimskie"/>
    <tag k="oneway" v="yes"/>
    <tag k="ref" v="631"/>
    <tag k="wikipedia" v="pl:Aleje Jerozolimskie w Warszawie"/>
  </way>
  <way id="4945615" version="17" timestamp="2012-02-04T21:27:29Z" uid="489358" user="poktam" changeset="10588766">
    <nd ref="32553131"/>
    <nd ref="32528057"/>
    <nd ref="285918302"/>
    <nd ref="308942577"/>
    <nd ref="32528046"/>
    <nd ref="254515299"/>
    <nd ref="32528048"/>
    <tag k="highway" v="secondary"/>
    <tag k="lanes" v="3"/>
    <tag k="maxweight" v="5"/>
    <tag k="name" v="Aleje Jerozolimskie"/>
    <tag k="oneway" v="yes"/>
    <tag k="ref" v="631"/>
    <tag k="wikipedia" v="pl:Aleje Jerozolimskie w Warszawie"/>
  </way>
  <way id="4945616" version="2" timestamp="2008-10-28T08:39:37Z" uid="20587" user="balrog-kun" changeset="609926">
    <nd ref="32329851"/>
    <nd ref="32329856"/>
    <tag k="created_by" v="JOSM"/>
    <tag k="highway" v="primary"/>
    <tag k="name" v="Grójecka"/>
    <tag k="oneway" v="yes"/>
    <tag k="ref" v="631"/>
  </way>
  <way id="4945616" version="3" timestamp="2009-01-08T15:15:44Z" uid="20587" user="balrog-kun" changeset="756602">
    <nd ref="32329851"/>
    <nd ref="32329856"/>
    <tag k="created_by" v="JOSM"/>
    <tag k="highway" v="primary"/>
    <tag k="name" v="Grójecka"/>
    <tag k="oneway" v="yes"/>
    <tag k="ref" v="631"/>
    <tag k="wikipedia" v="pl:Ulica Grójecka w Warszawie"/>
  </way>
  <way id="4945616" version="4" timestamp="2009-01-11T01:05:15Z" uid="20587" user="balrog-kun" changeset="769936">
    <nd ref="32329851"/>
    <nd ref="331106188"/>
    <nd ref="32329856"/>
    <tag k="created_by" v="JOSM"/>
    <tag k="highway" v="primary"/>
    <tag k="name" v="Grójecka"/>
    <tag k="oneway" v="yes"/>
    <tag k="ref" v="631"/>
    <tag k="wikipedia" v="pl:Ulica Grójecka w Warszawie"/>
  </way>
  <way id="4945616" version="5" timestamp="2009-02-22T15:24:28Z" uid="91921" user="kwiecinski" changeset="621682">
    <nd ref="32329851"/>
    <nd ref="331106188"/>
    <nd ref="32329856"/>
    <tag k="created_by" v="Merkaartor 0.12"/>
    <tag k="highway" v="secondary"/>
    <tag k="name" v="Grójecka"/>
    <tag k="oneway" v="yes"/>
    <tag k="ref" v="631"/>
    <tag k="wikipedia" v="pl:Ulica Grójecka w Warszawie"/>
  </way>
  <way id="4945618" version="2" timestamp="2008-10-27T22:37:05Z" uid="20587" user="balrog-kun" changeset="600039">
    <nd ref="32572885"/>
    <nd ref="54094195"/>
    <nd ref="308117256"/>
    <nd ref="54094192"/>
    <nd ref="54698906"/>
    <nd ref="32329855"/>
    <tag k="created_by" v="JOSM"/>
    <tag k="highway" v="primary"/>
    <tag k="name" v="Grójecka"/>
    <tag k="oneway" v="yes"/>
  </way>
  <way id="4945618" version="3" timestamp="2008-10-28T08:39:38Z" uid="20587" user="balrog-kun" changeset="609926">
    <nd ref="32572885"/>
    <nd ref="54094195"/>
    <nd ref="308117256"/>
    <nd ref="54094192"/>
    <nd ref="54698906"/>
    <nd ref="32329855"/>
    <tag k="created_by" v="JOSM"/>
    <tag k="highway" v="primary"/>
    <tag k="name" v="Grójecka"/>
    <tag k="oneway" v="yes"/>
    <tag k="ref" v="631"/>
  </way>
  <way id="4945618" version="4" timestamp="2009-01-08T15:15:45Z" uid="20587" user="balrog-kun" changeset="756602">
    <nd ref="32572885"/>
    <nd ref="54094195"/>
    <nd ref="308117256"/>
    <nd ref="54094192"/>
    <nd ref="54698906"/>
    <nd ref="32329855"/>
    <tag k="created_by" v="JOSM"/>
    <tag k="highway" v="primary"/>
    <tag k="name" v="Grójecka"/>
    <tag k="oneway" v="yes"/>
    <tag k="ref" v="631"/>
    <tag k="wikipedia" v="pl:Ulica Grójecka w Warszawie"/>
  </way>
  <way id="4945618" version="5" timestamp="2009-01-11T09:39:20Z" uid="20587" user="balrog-kun" changeset="770650">
    <nd ref="32572885"/>
    <nd ref="54094195"/>
    <nd ref="308117256"/>
    <nd ref="331143201"/>
    <nd ref="54094192"/>
    <nd ref="54698906"/>
    <nd ref="32329855"/>
    <tag k="created_by" v="JOSM"/>
    <tag k="highway" v="primary"/>
    <tag k="name" v="Grójecka"/>
    <tag k="oneway" v="yes"/>
    <tag k="ref" v="631"/>
    <tag k="wikipedia" v="pl:Ulica Grójecka w Warszawie"/>
  </way>
  <way id="4945618" version="6" timestamp="2009-02-22T15:24:27Z" uid="91921" user="kwiecinski" changeset="621682">
    <nd ref="32572885"/>
    <nd ref="54094195"/>
    <nd ref="308117256"/>
    <nd ref="331143201"/>
    <nd ref="54094192"/>
    <nd ref="54698906"/>
    <nd ref="32329855"/>
    <tag k="created_by" v="Merkaartor 0.12"/>
    <tag k="highway" v="secondary"/>
    <tag k="name" v="Grójecka"/>
    <tag k="oneway" v="yes"/>
    <tag k="ref" v="631"/>
    <tag k="wikipedia" v="pl:Ulica Grójecka w Warszawie"/>
  </way>
  <way id="4945618" version="7" timestamp="2009-11-12T18:11:25Z" uid="20587" user="balrog-kun" changeset="3100206">
    <nd ref="32572885"/>
    <nd ref="561287166"/>
    <nd ref="54094195"/>
    <nd ref="308117256"/>
    <nd ref="331143201"/>
    <nd ref="54094192"/>
    <nd ref="54698906"/>
    <nd ref="32329855"/>
    <tag k="highway" v="secondary"/>
    <tag k="name" v="Grójecka"/>
    <tag k="oneway" v="yes"/>
    <tag k="ref" v="631"/>
    <tag k="wikipedia" v="pl:Ulica Grójecka w Warszawie"/>
  </way>
  <way id="4945618" version="8" timestamp="2010-02-26T14:19:56Z" uid="20587" user="balrog-kun" changeset="3980270">
    <nd ref="32572885"/>
    <nd ref="561287166"/>
    <nd ref="54094195"/>
    <nd ref="308117256"/>
    <nd ref="331143201"/>
    <nd ref="54094192"/>
    <nd ref="54698906"/>
    <nd ref="32329855"/>
    <tag k="highway" v="secondary"/>
    <tag k="maxspeed" v="50"/>
    <tag k="name" v="Grójecka"/>
    <tag k="oneway" v="yes"/>
    <tag k="ref" v="631"/>
    <tag k="wikipedia" v="pl:Ulica Grójecka w Warszawie"/>
  </way>
  <way id="4945618" version="9" timestamp="2010-05-01T17:18:56Z" uid="20587" user="balrog-kun" changeset="4577369">
    <nd ref="32572885"/>
    <nd ref="561287166"/>
    <nd ref="54094195"/>
    <nd ref="308117256"/>
    <nd ref="331143201"/>
    <nd ref="54094192"/>
    <nd ref="54698906"/>
    <nd ref="32329855"/>
    <tag k="highway" v="secondary"/>
    <tag k="lanes" v="3"/>
    <tag k="maxspeed" v="50"/>
    <tag k="name" v="Grójecka"/>
    <tag k="oneway" v="yes"/>
    <tag k="ref" v="631"/>
    <tag k="wikipedia" v="pl:Ulica Grójecka w Warszawie"/>
  </way>
  <way id="4945618" version="10" timestamp="2012-02-07T23:42:43Z" uid="550476" user="fishcrosser" changeset="10618496">
    <nd ref="32572885"/>
    <nd ref="561287166"/>
    <nd ref="54094195"/>
    <nd ref="308117256"/>
    <nd ref="1622851968"/>
    <nd ref="331143201"/>
    <nd ref="54094192"/>
    <nd ref="54698906"/>
    <nd ref="32329855"/>
    <tag k="highway" v="secondary"/>
    <tag k="lanes" v="3"/>
    <tag k="maxspeed" v="50"/>
    <tag k="name" v="Grójecka"/>
    <tag k="oneway" v="yes"/>
    <tag k="ref" v="631"/>
    <tag k="wikipedia" v="pl:Ulica Grójecka w Warszawie"/>
  </way>
  <way id="4945619" version="2" timestamp="2008-04-01T20:21:15Z" uid="20587" user="balrog-kun" changeset="8794">
    <nd ref="32329856"/>
    <nd ref="54094053"/>
    <nd ref="33207656"/>
    <nd ref="33207680"/>
    <nd ref="54094051"/>
    <nd ref="33207659"/>
    <nd ref="54091476"/>
    <nd ref="33207672"/>
    <nd ref="255309067"/>
    <nd ref="33207653"/>
    <nd ref="32594646"/>
    <tag k="created_by" v="JOSM"/>
    <tag k="highway" v="primary"/>
    <tag k="name" v="Grójecka"/>
    <tag k="oneway" v="yes"/>
  </way>
  <way id="4945619" version="3" timestamp="2008-04-23T21:26:02Z" uid="20587" user="balrog-kun" changeset="242189">
    <nd ref="32329856"/>
    <nd ref="54094053"/>
    <nd ref="33207656"/>
    <nd ref="33207680"/>
    <nd ref="54094051"/>
    <nd ref="33207659"/>
    <nd ref="54091476"/>
    <nd ref="33207672"/>
    <nd ref="255309067"/>
    <nd ref="259544759"/>
    <nd ref="33207653"/>
    <nd ref="32594646"/>
    <tag k="created_by" v="JOSM"/>
    <tag k="highway" v="primary"/>
    <tag k="name" v="Grójecka"/>
    <tag k="oneway" v="yes"/>
  </way>
  <way id="4945619" version="4" timestamp="2008-10-27T22:37:04Z" uid="20587" user="balrog-kun" changeset="600039">
    <nd ref="32329856"/>
    <nd ref="54094053"/>
    <nd ref="308117230"/>
    <nd ref="308117229"/>
    <nd ref="308117228"/>
    <nd ref="33207656"/>
    <nd ref="33207680"/>
    <nd ref="54094051"/>
    <nd ref="308117227"/>
    <nd ref="33207659"/>
    <nd ref="54091476"/>
    <nd ref="308117243"/>
    <nd ref="308117257"/>
    <nd ref="308117258"/>
    <nd ref="308117240"/>
    <nd ref="308117259"/>
    <nd ref="308117261"/>
    <nd ref="33207653"/>
    <tag k="created_by" v="JOSM"/>
    <tag k="highway" v="primary"/>
    <tag k="name" v="Grójecka"/>
    <tag k="oneway" v="yes"/>
  </way>
  <way id="4945619" version="5" timestamp="2008-10-28T08:39:38Z" uid="20587" user="balrog-kun" changeset="609926">
    <nd ref="32329856"/>
    <nd ref="54094053"/>
    <nd ref="308117230"/>
    <nd ref="308117229"/>
    <nd ref="308117228"/>
    <nd ref="33207656"/>
    <nd ref="33207680"/>
    <nd ref="54094051"/>
    <nd ref="308117227"/>
    <nd ref="33207659"/>
    <nd ref="54091476"/>
    <nd ref="308117243"/>
    <nd ref="308117257"/>
    <nd ref="308117258"/>
    <nd ref="308117240"/>
    <nd ref="308117259"/>
    <nd ref="308117261"/>
    <nd ref="33207653"/>
    <tag k="created_by" v="JOSM"/>
    <tag k="highway" v="primary"/>
    <tag k="name" v="Grójecka"/>
    <tag k="oneway" v="yes"/>
    <tag k="ref" v="631"/>
  </way>
  <way id="4945619" version="6" timestamp="2008-11-19T18:37:46Z" uid="20587" user="balrog-kun" changeset="767985">
    <nd ref="32329856"/>
    <nd ref="54094053"/>
    <nd ref="308117230"/>
    <nd ref="308117229"/>
    <nd ref="308117228"/>
    <nd ref="33207656"/>
    <nd ref="33207680"/>
    <nd ref="54094051"/>
    <nd ref="308117227"/>
    <nd ref="33207659"/>
    <nd ref="54091476"/>
    <nd ref="308117243"/>
    <nd ref="308117257"/>
    <nd ref="308117258"/>
    <nd ref="308117240"/>
    <nd ref="308117259"/>
    <nd ref="308117261"/>
    <nd ref="313192931"/>
    <nd ref="33207653"/>
    <tag k="created_by" v="JOSM"/>
    <tag k="highway" v="primary"/>
    <tag k="name" v="Grójecka"/>
    <tag k="oneway" v="yes"/>
    <tag k="ref" v="631"/>
  </way>
  <way id="4945619" version="7" timestamp="2009-01-08T15:15:45Z" uid="20587" user="balrog-kun" changeset="756602">
    <nd ref="32329856"/>
    <nd ref="54094053"/>
    <nd ref="308117230"/>
    <nd ref="308117229"/>
    <nd ref="308117228"/>
    <nd ref="33207656"/>
    <nd ref="33207680"/>
    <nd ref="54094051"/>
    <nd ref="308117227"/>
    <nd ref="33207659"/>
    <nd ref="54091476"/>
    <nd ref="308117243"/>
    <nd ref="308117257"/>
    <nd ref="308117258"/>
    <nd ref="308117240"/>
    <nd ref="308117259"/>
    <nd ref="308117261"/>
    <nd ref="313192931"/>
    <nd ref="33207653"/>
    <tag k="created_by" v="JOSM"/>
    <tag k="highway" v="primary"/>
    <tag k="name" v="Grójecka"/>
    <tag k="oneway" v="yes"/>
    <tag k="ref" v="631"/>
    <tag k="wikipedia" v="pl:Ulica Grójecka w Warszawie"/>
  </way>
  <way id="4945619" version="8" timestamp="2009-02-22T15:24:28Z" uid="91921" user="kwiecinski" changeset="621682">
    <nd ref="32329856"/>
    <nd ref="54094053"/>
    <nd ref="308117230"/>
    <nd ref="308117229"/>
    <nd ref="308117228"/>
    <nd ref="33207656"/>
    <nd ref="33207680"/>
    <nd ref="54094051"/>
    <nd ref="308117227"/>
    <nd ref="33207659"/>
    <nd ref="54091476"/>
    <nd ref="308117243"/>
    <nd ref="308117257"/>
    <nd ref="308117258"/>
    <nd ref="308117240"/>
    <nd ref="308117259"/>
    <nd ref="308117261"/>
    <nd ref="313192931"/>
    <nd ref="33207653"/>
    <tag k="created_by" v="Merkaartor 0.12"/>
    <tag k="highway" v="secondary"/>
    <tag k="name" v="Grójecka"/>
    <tag k="oneway" v="yes"/>
    <tag k="ref" v="631"/>
    <tag k="wikipedia" v="pl:Ulica Grójecka w Warszawie"/>
  </way>
  <way id="4945619" version="9" timestamp="2009-09-25T11:00:41Z" uid="98542" user="wajak" changeset="2616894">
    <nd ref="32329856"/>
    <nd ref="54094053"/>
    <nd ref="308117230"/>
    <nd ref="308117229"/>
    <nd ref="308117228"/>
    <nd ref="33207656"/>
    <nd ref="33207680"/>
    <nd ref="54094051"/>
    <nd ref="308117227"/>
    <nd ref="33207659"/>
    <nd ref="54091476"/>
    <nd ref="308117243"/>
    <nd ref="308117257"/>
    <nd ref="331143199"/>
    <nd ref="308117258"/>
    <nd ref="308117240"/>
    <nd ref="308117259"/>
    <nd ref="308117261"/>
    <nd ref="313192931"/>
    <nd ref="33207653"/>
    <tag k="highway" v="secondary"/>
    <tag k="name" v="Grójecka"/>
    <tag k="oneway" v="yes"/>
    <tag k="ref" v="631"/>
    <tag k="wikipedia" v="pl:Ulica Grójecka w Warszawie"/>
  </way>
  <way id="4945619" version="10" timestamp="2010-01-10T10:26:11Z" uid="20587" user="balrog-kun" changeset="3585409">
    <nd ref="32329856"/>
    <nd ref="54094053"/>
    <nd ref="308117230"/>
    <nd ref="308117229"/>
    <nd ref="308117228"/>
    <nd ref="33207656"/>
    <nd ref="33207680"/>
    <nd ref="54094051"/>
    <nd ref="308117227"/>
    <nd ref="33207659"/>
    <nd ref="54091476"/>
    <nd ref="308117243"/>
    <nd ref="308117257"/>
    <nd ref="331143199"/>
    <nd ref="308117258"/>
    <nd ref="308117240"/>
    <nd ref="308117259"/>
    <nd ref="308117261"/>
    <nd ref="313192931"/>
    <nd ref="33207653"/>
    <tag k="highway" v="secondary"/>
    <tag k="name" v="Grójecka"/>
    <tag k="note" v="Znak przy przystanku Plac Narutowicza 09 ma napisane 681 -- literówka?"/>
    <tag k="oneway" v="yes"/>
    <tag k="ref" v="631;681"/>
    <tag k="wikipedia" v="pl:Ulica Grójecka w Warszawie"/>
  </way>
  <way id="4945619" version="11" timestamp="2010-01-22T14:32:21Z" uid="20587" user="balrog-kun" changeset="3683630">
    <nd ref="32329856"/>
    <nd ref="54094053"/>
    <nd ref="308117230"/>
    <nd ref="308117229"/>
    <tag k="highway" v="secondary"/>
    <tag k="maxspeed" v="40"/>
    <tag k="name" v="Grójecka"/>
    <tag k="note" v="Znak przy przystanku Plac Narutowicza 09 ma napisane 681 -- literówka?"/>
    <tag k="oneway" v="yes"/>
    <tag k="ref" v="631;681"/>
    <tag k="wikipedia" v="pl:Ulica Grójecka w Warszawie"/>
  </way>
  <way id="4945619" version="12" timestamp="2010-05-01T17:19:12Z" uid="20587" user="balrog-kun" changeset="4577369">
    <nd ref="32329856"/>
    <nd ref="54094053"/>
    <nd ref="308117230"/>
    <nd ref="308117229"/>
    <tag k="highway" v="secondary"/>
    <tag k="lanes" v="3"/>
    <tag k="maxspeed" v="40"/>
    <tag k="name" v="Grójecka"/>
    <tag k="note" v="Znak przy przystanku Plac Narutowicza 09 ma napisane 681 -- literówka?"/>
    <tag k="oneway" v="yes"/>
    <tag k="ref" v="631;681"/>
    <tag k="wikipedia" v="pl:Ulica Grójecka w Warszawie"/>
  </way>
  <way id="4945620" version="3" timestamp="2008-03-28T23:40:58Z" uid="20587" user="balrog-kun" changeset="415330">
    <nd ref="32594634"/>
    <nd ref="32594633"/>
    <nd ref="32594632"/>
    <nd ref="32594631"/>
    <nd ref="32594640"/>
    <nd ref="254515306"/>
    <nd ref="32594637"/>
    <nd ref="32594639"/>
    <nd ref="32594638"/>
    <nd ref="32594635"/>
    <nd ref="253169521"/>
    <nd ref="32594634"/>
    <tag k="created_by" v="Potlatch 0.7b"/>
    <tag k="highway" v="primary"/>
    <tag k="junction" v="roundabout"/>
    <tag k="name" v="Plac Zawiszy"/>
  </way>
  <way id="4945620" version="4" timestamp="2008-03-29T00:08:42Z" uid="20587" user="balrog-kun" changeset="415330">
    <nd ref="32594634"/>
    <nd ref="32594633"/>
    <nd ref="254518081"/>
    <nd ref="32594632"/>
    <nd ref="32594631"/>
    <nd ref="32594640"/>
    <nd ref="254515306"/>
    <nd ref="32594637"/>
    <nd ref="32594639"/>
    <nd ref="32594638"/>
    <nd ref="32594635"/>
    <nd ref="253169521"/>
    <nd ref="32594634"/>
    <tag k="created_by" v="Potlatch 0.7b"/>
    <tag k="highway" v="primary"/>
    <tag k="junction" v="roundabout"/>
    <tag k="name" v="Plac Zawiszy"/>
  </way>
  <way id="4945620" version="5" timestamp="2008-10-09T01:48:24Z" uid="20587" user="balrog-kun" changeset="194107">
    <nd ref="32594634"/>
    <nd ref="32594633"/>
    <nd ref="303205631"/>
    <nd ref="254518081"/>
    <nd ref="32594632"/>
    <nd ref="32594631"/>
    <nd ref="32594640"/>
    <nd ref="254515306"/>
    <nd ref="32594637"/>
    <nd ref="32594635"/>
    <nd ref="303205618"/>
    <nd ref="303205619"/>
    <nd ref="253169521"/>
    <nd ref="303205620"/>
    <nd ref="303205621"/>
    <nd ref="32594634"/>
    <tag k="created_by" v="Potlatch 0.7b"/>
    <tag k="highway" v="primary"/>
    <tag k="junction" v="roundabout"/>
    <tag k="name" v="Plac Zawiszy"/>
  </way>
  <way id="4945620" version="6" timestamp="2008-10-23T09:27:25Z" uid="20587" user="balrog-kun" changeset="533165">
    <nd ref="32594634"/>
    <nd ref="32594633"/>
    <nd ref="303205631"/>
    <nd ref="254518081"/>
    <nd ref="32594632"/>
    <nd ref="32594631"/>
    <nd ref="32594640"/>
    <nd ref="254515306"/>
    <nd ref="32594637"/>
    <nd ref="32594635"/>
    <nd ref="303205618"/>
    <nd ref="303205619"/>
    <nd ref="253169521"/>
    <nd ref="303205620"/>
    <nd ref="303205621"/>
    <nd ref="32594634"/>
    <tag k="created_by" v="Potlatch 0.7b"/>
    <tag k="highway" v="primary"/>
    <tag k="junction" v="roundabout"/>
    <tag k="name" v="Plac Artura Zawiszy"/>
  </way>
  <way id="4945620" version="7" timestamp="2009-01-08T15:20:45Z" uid="20587" user="balrog-kun" changeset="756602">
    <nd ref="32594634"/>
    <nd ref="32594633"/>
    <nd ref="303205631"/>
    <nd ref="254518081"/>
    <nd ref="32594632"/>
    <nd ref="32594631"/>
    <nd ref="32594640"/>
    <nd ref="254515306"/>
    <nd ref="32594637"/>
    <nd ref="32594635"/>
    <nd ref="303205618"/>
    <nd ref="303205619"/>
    <nd ref="253169521"/>
    <nd ref="303205620"/>
    <nd ref="303205621"/>
    <nd ref="32594634"/>
    <tag k="created_by" v="Potlatch 0.7b"/>
    <tag k="highway" v="primary"/>
    <tag k="junction" v="roundabout"/>
    <tag k="name" v="Plac Artura Zawiszy"/>
    <tag k="wikipedia" v="pl:Plac Artura Zawiszy w Warszawie"/>
  </way>
  <way id="4945620" version="8" timestamp="2009-02-22T15:25:57Z" uid="91921" user="kwiecinski" changeset="621682">
    <nd ref="32594634"/>
    <nd ref="32594633"/>
    <nd ref="303205631"/>
    <nd ref="254518081"/>
    <nd ref="32594632"/>
    <nd ref="32594631"/>
    <nd ref="32594640"/>
    <nd ref="254515306"/>
    <nd ref="32594637"/>
    <nd ref="32594635"/>
    <nd ref="303205618"/>
    <nd ref="303205619"/>
    <nd ref="253169521"/>
    <nd ref="303205620"/>
    <nd ref="303205621"/>
    <nd ref="32594634"/>
    <tag k="created_by" v="Merkaartor 0.12"/>
    <tag k="highway" v="secondary"/>
    <tag k="junction" v="roundabout"/>
    <tag k="name" v="Plac Artura Zawiszy"/>
    <tag k="wikipedia" v="pl:Plac Artura Zawiszy w Warszawie"/>
  </way>
  <way id="4945620" version="9" timestamp="2010-01-15T17:58:01Z" uid="20587" user="balrog-kun" changeset="3626110">
    <nd ref="32594634"/>
    <nd ref="32594633"/>
    <nd ref="303205631"/>
    <nd ref="254518081"/>
    <nd ref="32594632"/>
    <nd ref="32594631"/>
    <nd ref="32594640"/>
    <nd ref="254515306"/>
    <nd ref="32594637"/>
    <nd ref="32594635"/>
    <nd ref="303205618"/>
    <nd ref="303205619"/>
    <nd ref="253169521"/>
    <nd ref="614336738"/>
    <nd ref="303205620"/>
    <nd ref="303205621"/>
    <nd ref="32594634"/>
    <tag k="highway" v="secondary"/>
    <tag k="junction" v="roundabout"/>
    <tag k="name" v="Plac Artura Zawiszy"/>
    <tag k="wikipedia" v="pl:Plac Artura Zawiszy w Warszawie"/>
  </way>
  <way id="4945620" version="10" timestamp="2010-01-22T14:32:27Z" uid="20587" user="balrog-kun" changeset="3683630">
    <nd ref="32594634"/>
    <nd ref="32594633"/>
    <nd ref="303205631"/>
    <nd ref="254518081"/>
    <nd ref="32594632"/>
    <nd ref="32594631"/>
    <nd ref="32594640"/>
    <nd ref="254515306"/>
    <nd ref="618122748"/>
    <nd ref="32594637"/>
    <nd ref="32594635"/>
    <nd ref="303205618"/>
    <nd ref="303205619"/>
    <nd ref="253169521"/>
    <nd ref="614336738"/>
    <nd ref="303205620"/>
    <nd ref="303205621"/>
    <nd ref="32594634"/>
    <tag k="highway" v="secondary"/>
    <tag k="junction" v="roundabout"/>
    <tag k="name" v="Plac Artura Zawiszy"/>
    <tag k="wikipedia" v="pl:Plac Artura Zawiszy w Warszawie"/>
  </way>
  <way id="4945620" version="11" timestamp="2010-05-01T17:19:43Z" uid="20587" user="balrog-kun" changeset="4577369">
    <nd ref="32594634"/>
    <nd ref="32594633"/>
    <nd ref="303205631"/>
    <nd ref="254518081"/>
    <nd ref="32594632"/>
    <nd ref="32594631"/>
    <nd ref="32594640"/>
    <nd ref="254515306"/>
    <nd ref="618122748"/>
    <nd ref="32594637"/>
    <nd ref="32594635"/>
    <nd ref="303205618"/>
    <nd ref="303205619"/>
    <nd ref="253169521"/>
    <nd ref="614336738"/>
    <nd ref="303205620"/>
    <nd ref="303205621"/>
    <nd ref="32594634"/>
    <tag k="highway" v="secondary"/>
    <tag k="junction" v="roundabout"/>
    <tag k="lanes" v="3"/>
    <tag k="name" v="Plac Artura Zawiszy"/>
    <tag k="wikipedia" v="pl:Plac Artura Zawiszy w Warszawie"/>
  </way>
  <way id="4945620" version="12" timestamp="2010-07-24T00:04:56Z" uid="20587" user="balrog-kun" changeset="5300013">
    <nd ref="32594634"/>
    <nd ref="32594633"/>
    <nd ref="303205631"/>
    <nd ref="254518081"/>
    <nd ref="32594632"/>
    <nd ref="32594631"/>
    <nd ref="32594640"/>
    <nd ref="830688327"/>
    <nd ref="830688387"/>
    <nd ref="830688178"/>
    <nd ref="830688430"/>
    <nd ref="830688255"/>
    <nd ref="830688227"/>
    <nd ref="32594637"/>
    <nd ref="32594635"/>
    <nd ref="303205618"/>
    <nd ref="303205619"/>
    <nd ref="830688488"/>
    <nd ref="830688191"/>
    <nd ref="614336738"/>
    <nd ref="303205620"/>
    <nd ref="303205621"/>
    <nd ref="32594634"/>
    <tag k="highway" v="secondary"/>
    <tag k="junction" v="roundabout"/>
    <tag k="lanes" v="3"/>
    <tag k="name" v="Plac Artura Zawiszy"/>
    <tag k="wikipedia" v="pl:Plac Artura Zawiszy w Warszawie"/>
  </way>
  <way id="4945620" version="13" timestamp="2011-11-14T18:17:06Z" uid="550476" user="fishcrosser" changeset="9827086">
    <nd ref="32594634"/>
    <nd ref="32594633"/>
    <tag k="highway" v="secondary"/>
    <tag k="junction" v="roundabout"/>
    <tag k="lanes" v="3"/>
    <tag k="name" v="Plac Artura Zawiszy"/>
    <tag k="wikipedia" v="pl:Plac Artura Zawiszy w Warszawie"/>
  </way>
  <way id="4945621" version="5" timestamp="2008-10-09T01:48:24Z" uid="20587" user="balrog-kun" changeset="194107">
    <nd ref="303205570"/>
    <nd ref="303205581"/>
    <nd ref="303205579"/>
    <nd ref="32598956"/>
    <nd ref="207628341"/>
    <nd ref="32598958"/>
    <nd ref="86970185"/>
    <nd ref="32598960"/>
    <nd ref="32598962"/>
    <nd ref="32598964"/>
    <nd ref="190467925"/>
    <nd ref="32598966"/>
    <nd ref="32598968"/>
    <tag k="created_by" v="JOSM"/>
    <tag k="highway" v="primary"/>
    <tag k="name" v="Towarowa"/>
    <tag k="oneway" v="yes"/>
    <tag k="ref" v="634"/>
  </way>
  <way id="4945621" version="6" timestamp="2009-08-04T05:49:55Z" uid="98542" user="wajak" changeset="2032051">
    <nd ref="303205570"/>
    <nd ref="303205581"/>
    <nd ref="303205579"/>
    <nd ref="32598956"/>
    <nd ref="207628341"/>
    <nd ref="32598958"/>
    <nd ref="86970185"/>
    <nd ref="32598960"/>
    <nd ref="32598962"/>
    <nd ref="32598964"/>
    <nd ref="190467925"/>
    <nd ref="32598966"/>
    <nd ref="32598968"/>
    <tag k="highway" v="secondary"/>
    <tag k="name" v="Towarowa"/>
    <tag k="oneway" v="yes"/>
    <tag k="ref" v="634"/>
  </way>
  <way id="4945621" version="7" timestamp="2010-11-19T00:44:49Z" uid="20587" user="balrog-kun" changeset="6404193">
    <nd ref="303205570"/>
    <nd ref="303205581"/>
    <nd ref="303205579"/>
    <nd ref="32598956"/>
    <nd ref="207628341"/>
    <nd ref="32598958"/>
    <nd ref="86970185"/>
    <nd ref="32598960"/>
    <nd ref="32598962"/>
    <nd ref="32598964"/>
    <nd ref="190467925"/>
    <nd ref="32598966"/>
    <nd ref="32598968"/>
    <tag k="highway" v="secondary"/>
    <tag k="lanes" v="2"/>
    <tag k="name" v="Towarowa"/>
    <tag k="oneway" v="yes"/>
    <tag k="ref" v="634"/>
  </way>
  <way id="4945621" version="8" timestamp="2011-01-24T14:40:13Z" uid="20587" user="balrog-kun" changeset="7073235">
    <nd ref="303205570"/>
    <nd ref="303205581"/>
    <nd ref="303205579"/>
    <nd ref="32598956"/>
    <nd ref="207628341"/>
    <nd ref="32598958"/>
    <nd ref="1118730426"/>
    <nd ref="86970185"/>
    <nd ref="1118730133"/>
    <nd ref="32598960"/>
    <nd ref="1118730411"/>
    <nd ref="32598962"/>
    <nd ref="1118730231"/>
    <nd ref="1118730071"/>
    <nd ref="32598964"/>
    <nd ref="1118730239"/>
    <nd ref="190467925"/>
    <nd ref="1118730116"/>
    <nd ref="1118730307"/>
    <nd ref="32598968"/>
    <tag k="highway" v="secondary"/>
    <tag k="lanes" v="2"/>
    <tag k="name" v="Towarowa"/>
    <tag k="oneway" v="yes"/>
    <tag k="ref" v="634"/>
  </way>
  <way id="4945621" version="9" timestamp="2011-06-09T12:48:19Z" uid="98542" user="wajak" changeset="8388241">
    <nd ref="303205570"/>
    <nd ref="303205581"/>
    <nd ref="303205579"/>
    <nd ref="32598956"/>
    <nd ref="207628341"/>
    <nd ref="32598958"/>
    <nd ref="1118730426"/>
    <nd ref="86970185"/>
    <tag k="highway" v="secondary"/>
    <tag k="lanes" v="2"/>
    <tag k="name" v="Towarowa"/>
    <tag k="oneway" v="yes"/>
    <tag k="ref" v="634"/>
  </way>
  <way id="4945622" version="4" timestamp="2008-10-09T01:48:40Z" uid="20587" user="balrog-kun" changeset="194107"/>
  <way id="4945808" version="2" timestamp="2009-02-06T15:43:51Z" uid="20587" user="balrog-kun" changeset="198712">
    <nd ref="32594629"/>
    <nd ref="342076284"/>
    <nd ref="32596163"/>
    <tag k="created_by" v="JOSM"/>
    <tag k="highway" v="residential"/>
    <tag k="name" v="Williama Lindleya"/>
    <tag k="oneway" v="yes"/>
  </way>
  <way id="4945808" version="3" timestamp="2010-05-01T17:19:22Z" uid="20587" user="balrog-kun" changeset="4577369">
    <nd ref="32594629"/>
    <nd ref="342076284"/>
    <nd ref="32596163"/>
    <tag k="highway" v="residential"/>
    <tag k="lanes" v="1"/>
    <tag k="name" v="Williama Lindleya"/>
    <tag k="oneway" v="yes"/>
  </way>
  <way id="4945810" version="2" timestamp="2008-05-08T16:46:50Z" uid="20587" user="balrog-kun" changeset="365483">
    <nd ref="32596174"/>
    <nd ref="262834465"/>
    <nd ref="32594628"/>
    <tag k="created_by" v="JOSM"/>
    <tag k="highway" v="residential"/>
    <tag k="name" v="Plac Sokratesa Starynkiewicza"/>
    <tag k="oneway" v="yes"/>
  </way>
  <way id="4945810" version="3" timestamp="2009-02-06T15:43:51Z" uid="20587" user="balrog-kun" changeset="198712">
    <nd ref="32596174"/>
    <nd ref="342076278"/>
    <nd ref="262834465"/>
    <nd ref="32594628"/>
    <tag k="created_by" v="JOSM"/>
    <tag k="highway" v="residential"/>
    <tag k="name" v="Plac Sokratesa Starynkiewicza"/>
    <tag k="oneway" v="yes"/>
  </way>
  <way id="4945810" version="4" timestamp="2010-05-01T17:18:59Z" uid="20587" user="balrog-kun" changeset="4577369">
    <nd ref="32596174"/>
    <nd ref="342076278"/>
    <nd ref="262834465"/>
    <nd ref="32594628"/>
    <tag k="highway" v="residential"/>
    <tag k="lanes" v="2"/>
    <tag k="name" v="Plac Sokratesa Starynkiewicza"/>
    <tag k="oneway" v="yes"/>
  </way>
  <way id="4945813" version="2" timestamp="2011-06-19T01:00:48Z" uid="20587" user="balrog-kun" changeset="8479249">
    <nd ref="26350113"/>
    <nd ref="1330269532"/>
    <nd ref="32596182"/>
    <nd ref="32596180"/>
    <tag k="highway" v="residential"/>
    <tag k="name" v="Wojciecha Oczki"/>
  </way>
  <way id="4945813" version="3" timestamp="2011-07-30T09:07:32Z" uid="98542" user="wajak" changeset="8870155">
    <nd ref="26350113"/>
    <nd ref="1330269532"/>
    <nd ref="32596182"/>
    <nd ref="32596180"/>
    <tag k="highway" v="residential"/>
    <tag k="name" v="Wojciecha Oczki"/>
    <tag k="oneway" v="-1"/>
  </way>
  <way id="4945813" version="4" timestamp="2011-07-30T13:53:31Z" uid="98542" user="wajak" changeset="8872354">
    <nd ref="32596180"/>
    <nd ref="32596182"/>
    <nd ref="1330269532"/>
    <nd ref="26350113"/>
    <tag k="highway" v="residential"/>
    <tag k="name" v="Wojciecha Oczki"/>
    <tag k="oneway" v="yes"/>
  </way>
  <way id="4945814" version="2" timestamp="2008-03-28T23:40:56Z" uid="20587" user="balrog-kun" changeset="415330">
    <nd ref="32596163"/>
    <nd ref="254515304"/>
    <nd ref="32596164"/>
    <tag k="created_by" v="JOSM"/>
    <tag k="highway" v="primary_link"/>
    <tag k="oneway" v="yes"/>
  </way>
  <way id="4945814" version="3" timestamp="2009-08-04T06:01:51Z" uid="98542" user="wajak" changeset="2032128">
    <nd ref="32596163"/>
    <nd ref="254515304"/>
    <nd ref="32596164"/>
    <tag k="highway" v="tertiary"/>
    <tag k="oneway" v="yes"/>
  </way>
  <way id="4945814" version="4" timestamp="2010-01-15T17:58:02Z" uid="20587" user="balrog-kun" changeset="3626110">
    <nd ref="32596163"/>
    <nd ref="254515304"/>
    <nd ref="614336759"/>
    <nd ref="32596164"/>
    <tag k="highway" v="tertiary"/>
    <tag k="oneway" v="yes"/>
  </way>
  <way id="4945814" version="5" timestamp="2010-05-01T17:19:26Z" uid="20587" user="balrog-kun" changeset="4577369">
    <nd ref="32596163"/>
    <nd ref="254515304"/>
    <nd ref="614336759"/>
    <nd ref="32596164"/>
    <tag k="highway" v="tertiary"/>
    <tag k="lanes" v="2"/>
    <tag k="oneway" v="yes"/>
  </way>
  <way id="4945815" version="2" timestamp="2008-03-28T23:40:55Z" uid="20587" user="balrog-kun" changeset="415330">
    <nd ref="32596175"/>
    <nd ref="254515305"/>
    <nd ref="32596174"/>
    <tag k="created_by" v="JOSM"/>
    <tag k="highway" v="primary_link"/>
    <tag k="oneway" v="yes"/>
  </way>
  <way id="4945815" version="3" timestamp="2009-08-04T06:01:51Z" uid="98542" user="wajak" changeset="2032128">
    <nd ref="32596175"/>
    <nd ref="254515305"/>
    <nd ref="32596174"/>
    <tag k="highway" v="tertiary"/>
    <tag k="oneway" v="yes"/>
  </way>
  <way id="4945815" version="4" timestamp="2010-01-15T17:58:02Z" uid="20587" user="balrog-kun" changeset="3626110">
    <nd ref="32596175"/>
    <nd ref="614336753"/>
    <nd ref="254515305"/>
    <nd ref="32596174"/>
    <tag k="highway" v="tertiary"/>
    <tag k="oneway" v="yes"/>
  </way>
  <way id="4945815" version="5" timestamp="2010-05-01T17:19:34Z" uid="20587" user="balrog-kun" changeset="4577369">
    <nd ref="32596175"/>
    <nd ref="614336753"/>
    <nd ref="254515305"/>
    <nd ref="32596174"/>
    <tag k="highway" v="tertiary"/>
    <tag k="lanes" v="2"/>
    <tag k="oneway" v="yes"/>
  </way>
  <way id="4945816" version="2" timestamp="2009-02-06T15:43:53Z" uid="20587" user="balrog-kun" changeset="198712">
    <nd ref="32596164"/>
    <nd ref="342076264"/>
    <nd ref="32596176"/>
    <nd ref="32596183"/>
    <tag k="created_by" v="JOSM"/>
    <tag k="highway" v="tertiary"/>
    <tag k="name" v="Żelazna"/>
    <tag k="oneway" v="yes"/>
  </way>
  <way id="4945816" version="3" timestamp="2009-02-09T01:34:10Z" uid="20587" user="balrog-kun" changeset="288825">
    <nd ref="32596164"/>
    <nd ref="342076264"/>
    <nd ref="32596176"/>
    <nd ref="32596183"/>
    <tag k="created_by" v="JOSM"/>
    <tag k="highway" v="tertiary"/>
    <tag k="name" v="Żelazna"/>
    <tag k="oneway" v="yes"/>
    <tag k="wikipedia" v="pl:Ulica Żelazna w Warszawie"/>
  </way>
  <way id="4945816" version="4" timestamp="2010-05-01T17:19:34Z" uid="20587" user="balrog-kun" changeset="4577369">
    <nd ref="32596164"/>
    <nd ref="342076264"/>
    <nd ref="32596176"/>
    <nd ref="32596183"/>
    <tag k="highway" v="tertiary"/>
    <tag k="lanes" v="1"/>
    <tag k="name" v="Żelazna"/>
    <tag k="oneway" v="yes"/>
    <tag k="wikipedia" v="pl:Ulica Żelazna w Warszawie"/>
  </way>
  <way id="4945817" version="2" timestamp="2009-02-06T15:43:52Z" uid="20587" user="balrog-kun" changeset="198712">
    <nd ref="32596183"/>
    <nd ref="32596165"/>
    <nd ref="342076267"/>
    <nd ref="32596175"/>
    <tag k="created_by" v="JOSM"/>
    <tag k="highway" v="tertiary"/>
    <tag k="name" v="Żelazna"/>
    <tag k="oneway" v="yes"/>
  </way>
  <way id="4945817" version="3" timestamp="2009-02-09T01:34:10Z" uid="20587" user="balrog-kun" changeset="288825">
    <nd ref="32596183"/>
    <nd ref="32596165"/>
    <nd ref="342076267"/>
    <nd ref="32596175"/>
    <tag k="created_by" v="JOSM"/>
    <tag k="highway" v="tertiary"/>
    <tag k="name" v="Żelazna"/>
    <tag k="oneway" v="yes"/>
    <tag k="wikipedia" v="pl:Ulica Żelazna w Warszawie"/>
  </way>
  <way id="4945817" version="4" timestamp="2010-05-01T17:19:44Z" uid="20587" user="balrog-kun" changeset="4577369">
    <nd ref="32596183"/>
    <nd ref="32596165"/>
    <nd ref="342076267"/>
    <nd ref="32596175"/>
    <tag k="highway" v="tertiary"/>
    <tag k="lanes" v="1"/>
    <tag k="name" v="Żelazna"/>
    <tag k="oneway" v="yes"/>
    <tag k="wikipedia" v="pl:Ulica Żelazna w Warszawie"/>
  </way>
  <way id="4945818" version="4" timestamp="2009-02-09T01:34:10Z" uid="20587" user="balrog-kun" changeset="288825">
    <nd ref="32596183"/>
    <nd ref="32597395"/>
    <nd ref="32596167"/>
    <nd ref="32596169"/>
    <nd ref="207628380"/>
    <nd ref="33124263"/>
    <nd ref="33124279"/>
    <tag k="created_by" v="JOSM"/>
    <tag k="highway" v="tertiary"/>
    <tag k="name" v="Żelazna"/>
    <tag k="wikipedia" v="pl:Ulica Żelazna w Warszawie"/>
  </way>
  <way id="4945818" version="5" timestamp="2009-10-14T10:44:19Z" uid="20587" user="balrog-kun" changeset="2844284">
    <nd ref="32596183"/>
    <nd ref="32597395"/>
    <nd ref="32596167"/>
    <nd ref="32596169"/>
    <nd ref="207628380"/>
    <nd ref="33124263"/>
    <nd ref="530642366"/>
    <nd ref="33124279"/>
    <tag k="highway" v="tertiary"/>
    <tag k="name" v="Żelazna"/>
    <tag k="wikipedia" v="pl:Ulica Żelazna w Warszawie"/>
  </way>
  <way id="4945818" version="6" timestamp="2011-08-03T18:47:14Z" uid="98542" user="wajak" changeset="8913009">
    <nd ref="32596183"/>
    <nd ref="32597395"/>
    <nd ref="32596167"/>
    <nd ref="32596169"/>
    <nd ref="207628380"/>
    <nd ref="33124263"/>
    <tag k="highway" v="tertiary"/>
    <tag k="name" v="Żelazna"/>
    <tag k="wikipedia" v="pl:Ulica Żelazna w Warszawie"/>
  </way>
  <way id="4945818" version="7" timestamp="2011-10-24T13:20:41Z" uid="475943" user="sir-mapalot" changeset="9643380">
    <nd ref="32596183"/>
    <nd ref="1479058700"/>
    <nd ref="32597395"/>
    <nd ref="32596167"/>
    <nd ref="1479058703"/>
    <nd ref="1479058708"/>
    <nd ref="32596169"/>
    <nd ref="1479058717"/>
    <nd ref="207628380"/>
    <nd ref="33124263"/>
    <tag k="highway" v="tertiary"/>
    <tag k="name" v="Żelazna"/>
    <tag k="wikipedia" v="pl:Ulica Żelazna w Warszawie"/>
  </way>
  <way id="4945819" version="2" timestamp="2008-10-06T21:17:26Z" uid="20587" user="balrog-kun" changeset="108077">
    <nd ref="32596188"/>
    <nd ref="32596187"/>
    <nd ref="32596185"/>
    <nd ref="32596184"/>
    <nd ref="32596183"/>
    <nd ref="32596189"/>
    <nd ref="32596190"/>
    <nd ref="32596191"/>
    <tag k="created_by" v="JOSM"/>
    <tag k="highway" v="residential"/>
    <tag k="name" v="Chmielna"/>
  </way>
  <way id="4945819" version="3" timestamp="2009-02-09T01:34:09Z" uid="20587" user="balrog-kun" changeset="288825">
    <nd ref="32596188"/>
    <nd ref="32596187"/>
    <nd ref="32596185"/>
    <nd ref="32596184"/>
    <nd ref="32596183"/>
    <nd ref="32596189"/>
    <nd ref="32596190"/>
    <nd ref="32596191"/>
    <tag k="created_by" v="JOSM"/>
    <tag k="highway" v="residential"/>
    <tag k="name" v="Chmielna"/>
    <tag k="wikipedia" v="pl:Ulica Chmielna w Warszawie"/>
  </way>
  <way id="4945819" version="4" timestamp="2011-05-25T20:39:00Z" uid="20587" user="balrog-kun" changeset="8248535">
    <nd ref="32596188"/>
    <nd ref="32596187"/>
    <nd ref="32596185"/>
    <nd ref="32596184"/>
    <nd ref="32596183"/>
    <nd ref="32596189"/>
    <nd ref="32596190"/>
    <nd ref="1300133486"/>
    <nd ref="32596191"/>
    <tag k="highway" v="residential"/>
    <tag k="name" v="Chmielna"/>
    <tag k="wikipedia" v="pl:Ulica Chmielna w Warszawie"/>
  </way>
  <way id="4945819" version="5" timestamp="2011-07-04T11:07:46Z" uid="471796" user="Alberto Rubio Muñoz" changeset="8628164">
    <nd ref="32596188"/>
    <nd ref="32596187"/>
    <nd ref="32596185"/>
    <nd ref="32596184"/>
    <nd ref="32596183"/>
    <nd ref="32596189"/>
    <nd ref="32596190"/>
    <nd ref="1300133486"/>
    <nd ref="32596191"/>
    <tag k="highway" v="residential"/>
    <tag k="name" v="Chmielna"/>
    <tag k="oneway" v="yes"/>
    <tag k="wikipedia" v="pl:Ulica Chmielna w Warszawie"/>
  </way>
  <way id="4945819" version="6" timestamp="2011-10-24T13:20:01Z" uid="475943" user="sir-mapalot" changeset="9643380">
    <nd ref="32596188"/>
    <nd ref="32596187"/>
    <nd ref="32596185"/>
    <nd ref="32596184"/>
    <nd ref="1479058577"/>
    <nd ref="32596183"/>
    <nd ref="1479058572"/>
    <nd ref="32596189"/>
    <nd ref="32596190"/>
    <nd ref="1300133486"/>
    <nd ref="32596191"/>
    <tag k="highway" v="residential"/>
    <tag k="name" v="Chmielna"/>
    <tag k="oneway" v="yes"/>
    <tag k="wikipedia" v="pl:Ulica Chmielna w Warszawie"/>
  </way>
  <way id="4945829" version="2" timestamp="2007-11-18T15:47:42Z" uid="4667" user="MapZ" changeset="557434">
    <nd ref="32595872"/>
    <nd ref="121965521"/>
    <nd ref="32595873"/>
    <nd ref="32595876"/>
    <nd ref="32595877"/>
    <nd ref="32595878"/>
    <nd ref="32595882"/>
    <nd ref="32595889"/>
    <nd ref="32595911"/>
    <nd ref="32595851"/>
    <nd ref="32595850"/>
    <nd ref="32595849"/>
    <nd ref="32595848"/>
    <tag k="created_by" v="JOSM"/>
    <tag k="highway" v="residential"/>
    <tag k="name" v="Europastraße"/>
  </way>
  <way id="4945829" version="3" timestamp="2008-06-25T14:04:26Z" uid="40801" user="friedemann2811" changeset="296655">
    <nd ref="32595872"/>
    <nd ref="121965521"/>
    <nd ref="32595873"/>
    <nd ref="32595876"/>
    <nd ref="32595877"/>
    <nd ref="32595878"/>
    <nd ref="32595882"/>
    <nd ref="32595889"/>
    <nd ref="32595911"/>
    <nd ref="32595851"/>
    <nd ref="32595850"/>
    <nd ref="32595849"/>
    <nd ref="32595848"/>
    <tag k="created_by" v="JOSM"/>
    <tag k="highway" v="residential"/>
    <tag k="name" v="Europastraße"/>
  </way>
  <way id="4945829" version="4" timestamp="2008-06-25T14:23:20Z" uid="40801" user="friedemann2811" changeset="296655">
    <nd ref="32595872"/>
    <nd ref="121965521"/>
    <nd ref="32595873"/>
    <nd ref="32595876"/>
    <nd ref="32595877"/>
    <nd ref="32595878"/>
    <nd ref="32595882"/>
    <nd ref="32595889"/>
    <nd ref="32595911"/>
    <nd ref="32595851"/>
    <nd ref="32595850"/>
    <nd ref="32595849"/>
    <nd ref="32595848"/>
    <nd ref="32595848"/>
    <nd ref="32595848"/>
    <nd ref="32595848"/>
    <nd ref="32595848"/>
    <nd ref="32595848"/>
    <nd ref="32595848"/>
    <nd ref="32595848"/>
    <tag k="created_by" v="Potlatch 0.9c"/>
    <tag k="highway" v="residential"/>
    <tag k="name" v="Europastraße"/>
  </way>
  <way id="4945829" version="5" timestamp="2008-06-25T14:24:24Z" uid="40801" user="friedemann2811" changeset="296655">
    <nd ref="32595872"/>
    <nd ref="121965521"/>
    <nd ref="32595873"/>
    <nd ref="32595876"/>
    <nd ref="32595877"/>
    <nd ref="32595878"/>
    <nd ref="32595882"/>
    <nd ref="32595889"/>
    <nd ref="32595911"/>
    <nd ref="32595851"/>
    <nd ref="32595850"/>
    <nd ref="32595849"/>
    <nd ref="32595848"/>
    <nd ref="32595848"/>
    <nd ref="32595848"/>
    <nd ref="32595848"/>
    <nd ref="32595848"/>
    <nd ref="32595848"/>
    <nd ref="32595848"/>
    <nd ref="32595848"/>
    <tag k="created_by" v="Potlatch 0.9c"/>
    <tag k="highway" v="residential"/>
    <tag k="name" v="Europastraße"/>
  </way>
  <way id="4945829" version="6" timestamp="2008-07-09T22:27:27Z" uid="16379" user="sherlok" changeset="448731">
    <nd ref="32595872"/>
    <nd ref="121965521"/>
    <nd ref="32595873"/>
    <nd ref="32595876"/>
    <nd ref="32595877"/>
    <nd ref="32595878"/>
    <nd ref="32595882"/>
    <nd ref="32595889"/>
    <nd ref="32595911"/>
    <nd ref="32595851"/>
    <nd ref="32595850"/>
    <nd ref="32595849"/>
    <nd ref="32595848"/>
    <tag k="created_by" v="Potlatch 0.9c"/>
    <tag k="highway" v="residential"/>
    <tag k="name" v="Europastraße"/>
  </way>
  <way id="4945829" version="7" timestamp="2008-10-08T08:39:55Z" uid="57645" user="KartoGrapHiti" changeset="162360">
    <nd ref="32595872"/>
    <nd ref="121965521"/>
    <nd ref="32595873"/>
    <nd ref="32595876"/>
    <nd ref="32595877"/>
    <nd ref="32595878"/>
    <nd ref="32595882"/>
    <nd ref="32595889"/>
    <nd ref="32595911"/>
    <nd ref="32595851"/>
    <nd ref="32595850"/>
    <nd ref="32595849"/>
    <nd ref="32595848"/>
    <tag k="created_by" v="Potlatch 0.10d"/>
    <tag k="highway" v="residential"/>
    <tag k="name" v="Europastraße"/>
  </way>
  <way id="4945829" version="8" timestamp="2009-02-01T20:15:31Z" uid="57645" user="KartoGrapHiti" changeset="36318">
    <nd ref="32595872"/>
    <nd ref="121965521"/>
    <nd ref="32595873"/>
    <nd ref="32595876"/>
    <nd ref="32595877"/>
    <nd ref="32595878"/>
    <nd ref="32595882"/>
    <nd ref="32595889"/>
    <nd ref="32595911"/>
    <nd ref="32595851"/>
    <nd ref="32595850"/>
    <tag k="created_by" v="Potlatch 0.10f"/>
    <tag k="highway" v="residential"/>
    <tag k="name" v="Europastraße"/>
  </way>
  <way id="4945829" version="9" timestamp="2009-03-21T21:42:09Z" uid="57645" user="KartoGrapHiti" changeset="842539">
    <nd ref="32595872"/>
    <nd ref="121965521"/>
    <nd ref="32595877"/>
    <nd ref="32595882"/>
    <nd ref="32595889"/>
    <nd ref="32595911"/>
    <nd ref="32595851"/>
    <nd ref="32595850"/>
    <tag k="created_by" v="Potlatch 0.10f"/>
    <tag k="highway" v="residential"/>
    <tag k="maxspeed" v="50"/>
    <tag k="name" v="Europastraße"/>
  </way>
  <way id="4945829" version="10" timestamp="2010-03-19T13:13:25Z" uid="57645" user="KartoGrapHiti" changeset="4169882">
    <nd ref="32595872"/>
    <nd ref="121965521"/>
    <nd ref="32595877"/>
    <nd ref="32595882"/>
    <nd ref="32595889"/>
    <nd ref="32595911"/>
    <nd ref="32595851"/>
    <nd ref="669580747"/>
    <nd ref="32595850"/>
    <tag k="highway" v="residential"/>
    <tag k="maxspeed" v="50"/>
    <tag k="name" v="Europastraße"/>
  </way>
  <way id="4945829" version="11" timestamp="2010-05-23T08:18:51Z" uid="286452" user="TetiSoft" changeset="4780797">
    <nd ref="32595872"/>
    <nd ref="121965521"/>
    <nd ref="32595877"/>
    <tag k="highway" v="residential"/>
    <tag k="maxspeed" v="50"/>
    <tag k="name" v="Europastraße"/>
  </way>
  <way id="4945829" version="12" timestamp="2011-02-24T20:59:33Z" uid="6879" user="Longbow4u" changeset="7385314">
    <nd ref="32595872"/>
    <nd ref="121965521"/>
    <nd ref="32595877"/>
    <tag k="highway" v="residential"/>
    <tag k="maxspeed" v="50"/>
    <tag k="name" v="Europastraße"/>
    <tag k="postal_code" v="35394"/>
  </way>
  <way id="4945829" version="13" timestamp="2011-03-20T18:38:59Z" uid="57645" user="KartoGrapHiti" changeset="7619952">
    <nd ref="32595872"/>
    <nd ref="121965521"/>
    <nd ref="1210876393"/>
    <nd ref="1210878023"/>
    <nd ref="32595877"/>
    <tag k="highway" v="residential"/>
    <tag k="maxspeed" v="50"/>
    <tag k="name" v="Europastraße"/>
    <tag k="postal_code" v="35394"/>
  </way>
  <way id="4945829" version="14" timestamp="2011-03-20T22:20:04Z" uid="57645" user="KartoGrapHiti" changeset="7622595">
    <nd ref="32595872"/>
    <nd ref="121965521"/>
    <nd ref="1210876393"/>
    <nd ref="1210878023"/>
    <nd ref="32595877"/>
    <tag k="highway" v="residential"/>
    <tag k="lit" v="yes"/>
    <tag k="maxspeed" v="50"/>
    <tag k="name" v="Europastraße"/>
    <tag k="postal_code" v="35394"/>
  </way>
  <way id="4945831" version="2" timestamp="2007-11-18T15:47:43Z" uid="4667" user="MapZ" changeset="557434">
    <nd ref="26977704"/>
    <nd ref="32595852"/>
    <nd ref="32595853"/>
    <nd ref="32595856"/>
    <nd ref="32595857"/>
    <nd ref="32595858"/>
    <nd ref="32595859"/>
    <nd ref="32595860"/>
    <nd ref="32595861"/>
    <nd ref="32595862"/>
    <nd ref="32595864"/>
    <nd ref="32595865"/>
    <nd ref="32595866"/>
    <nd ref="32595867"/>
    <nd ref="121965528"/>
    <nd ref="32595868"/>
    <tag k="created_by" v="JOSM"/>
    <tag k="highway" v="residential"/>
    <tag k="name" v="Europastraße"/>
  </way>
  <way id="4945831" version="3" timestamp="2008-04-27T18:36:52Z" uid="34357" user="tracker24" changeset="267734">
    <nd ref="26977704"/>
    <nd ref="32595852"/>
    <nd ref="32595853"/>
    <nd ref="32595856"/>
    <nd ref="32595857"/>
    <nd ref="32595858"/>
    <nd ref="260247737"/>
    <nd ref="32595862"/>
    <nd ref="32595864"/>
    <nd ref="32595865"/>
    <nd ref="32595866"/>
    <nd ref="32595867"/>
    <nd ref="121965528"/>
    <nd ref="32595868"/>
    <tag k="created_by" v="JOSM"/>
    <tag k="highway" v="residential"/>
    <tag k="name" v="Europastraße"/>
  </way>
  <way id="4945831" version="4" timestamp="2009-03-21T21:42:14Z" uid="57645" user="KartoGrapHiti" changeset="842539">
    <nd ref="26977704"/>
    <nd ref="260247737"/>
    <nd ref="32595862"/>
    <nd ref="121965528"/>
    <nd ref="32595868"/>
    <tag k="created_by" v="JOSM"/>
    <tag k="highway" v="residential"/>
    <tag k="maxspeed" v="70"/>
    <tag k="name" v="Europastraße"/>
  </way>
  <way id="4945831" version="5" timestamp="2010-11-12T13:21:27Z" uid="57645" user="KartoGrapHiti" changeset="6350801">
    <nd ref="26977704"/>
    <nd ref="260247737"/>
    <nd ref="32595862"/>
    <nd ref="121965528"/>
    <nd ref="32595868"/>
    <tag k="highway" v="residential"/>
    <tag k="maxspeed" v="70"/>
    <tag k="name" v="Europastraße"/>
  </way>
  <way id="4945831" version="6" timestamp="2011-02-24T20:59:25Z" uid="6879" user="Longbow4u" changeset="7385314">
    <nd ref="26977704"/>
    <nd ref="260247737"/>
    <nd ref="32595862"/>
    <nd ref="121965528"/>
    <nd ref="32595868"/>
    <tag k="highway" v="residential"/>
    <tag k="maxspeed" v="70"/>
    <tag k="name" v="Europastraße"/>
    <tag k="postal_code" v="35394"/>
  </way>
  <way id="4945831" version="7" timestamp="2011-03-20T18:38:41Z" uid="57645" user="KartoGrapHiti" changeset="7619952">
    <nd ref="26977704"/>
    <nd ref="260247737"/>
    <nd ref="32595862"/>
    <nd ref="1210876686"/>
    <nd ref="121965528"/>
    <nd ref="32595868"/>
    <tag k="highway" v="residential"/>
    <tag k="maxspeed" v="70"/>
    <tag k="name" v="Europastraße"/>
    <tag k="postal_code" v="35394"/>
  </way>
  <way id="4945831" version="8" timestamp="2011-03-20T22:20:03Z" uid="57645" user="KartoGrapHiti" changeset="7622595">
    <nd ref="26977704"/>
    <nd ref="260247737"/>
    <tag k="highway" v="residential"/>
    <tag k="lit" v="no"/>
    <tag k="maxspeed" v="70"/>
    <tag k="name" v="Europastraße"/>
    <tag k="postal_code" v="35394"/>
  </way>
  <way id="4945831" version="9" timestamp="2011-11-11T17:37:26Z" uid="57645" user="KartoGrapHiti" changeset="9798390">
    <nd ref="26977704"/>
    <nd ref="260247737"/>
    <tag k="footway" v="no"/>
    <tag k="highway" v="residential"/>
    <tag k="lit" v="no"/>
    <tag k="maxspeed" v="70"/>
    <tag k="name" v="Europastraße"/>
    <tag k="postal_code" v="35394"/>
  </way>
  <way id="4945831" version="10" timestamp="2012-01-22T15:55:19Z" uid="57645" user="KartoGrapHiti" changeset="10466089">
    <nd ref="26977704"/>
    <nd ref="1601296507"/>
    <nd ref="1601296504"/>
    <nd ref="260247737"/>
    <tag k="footway" v="no"/>
    <tag k="highway" v="residential"/>
    <tag k="lit" v="no"/>
    <tag k="maxspeed" v="70"/>
    <tag k="name" v="Europastraße"/>
    <tag k="postal_code" v="35394"/>
  </way>
  <way id="4945833" version="2" timestamp="2007-11-18T15:47:42Z" uid="4667" user="MapZ" changeset="557434">
    <nd ref="32595868"/>
    <nd ref="121965525"/>
    <nd ref="32595869"/>
    <nd ref="32595870"/>
    <nd ref="32595871"/>
    <nd ref="121965516"/>
    <nd ref="32595872"/>
    <tag k="created_by" v="JOSM"/>
    <tag k="highway" v="residential"/>
    <tag k="name" v="Europastraße"/>
  </way>
  <way id="4945833" version="3" timestamp="2009-02-01T20:16:56Z" uid="57645" user="KartoGrapHiti" changeset="36318">
    <nd ref="32595868"/>
    <nd ref="121965525"/>
    <nd ref="32595869"/>
    <nd ref="32595870"/>
    <nd ref="32595871"/>
    <tag k="created_by" v="Potlatch 0.10f"/>
    <tag k="highway" v="residential"/>
    <tag k="name" v="Europastraße"/>
  </way>
  <way id="4945833" version="4" timestamp="2009-03-21T21:42:17Z" uid="57645" user="KartoGrapHiti" changeset="842539">
    <nd ref="32595868"/>
    <nd ref="121965525"/>
    <nd ref="364513824"/>
    <tag k="created_by" v="Potlatch 0.10f"/>
    <tag k="highway" v="residential"/>
    <tag k="maxspeed" v="70"/>
    <tag k="name" v="Europastraße"/>
  </way>
  <way id="4945833" version="5" timestamp="2010-11-09T13:44:56Z" uid="57645" user="KartoGrapHiti" changeset="6328174">
    <nd ref="32595868"/>
    <nd ref="121965525"/>
    <nd ref="364513824"/>
    <tag k="highway" v="residential"/>
    <tag k="maxspeed" v="70"/>
    <tag k="name" v="Europastraße"/>
  </way>
  <way id="4945833" version="6" timestamp="2011-02-24T20:59:30Z" uid="6879" user="Longbow4u" changeset="7385314">
    <nd ref="32595868"/>
    <nd ref="121965525"/>
    <nd ref="364513824"/>
    <tag k="highway" v="residential"/>
    <tag k="maxspeed" v="70"/>
    <tag k="name" v="Europastraße"/>
    <tag k="postal_code" v="35394"/>
  </way>
  <way id="4945833" version="7" timestamp="2011-03-20T22:20:03Z" uid="57645" user="KartoGrapHiti" changeset="7622595">
    <nd ref="32595868"/>
    <nd ref="121965525"/>
    <nd ref="364513824"/>
    <tag k="highway" v="residential"/>
    <tag k="lit" v="yes"/>
    <tag k="maxspeed" v="70"/>
    <tag k="name" v="Europastraße"/>
    <tag k="postal_code" v="35394"/>
  </way>
  <way id="4945843" version="2" timestamp="2007-11-28T18:52:20Z" uid="4667" user="MapZ" changeset="640996">
    <nd ref="32595988"/>
    <nd ref="32595989"/>
    <nd ref="32599216"/>
    <nd ref="32599217"/>
    <nd ref="32599218"/>
    <nd ref="32599219"/>
    <nd ref="32599221"/>
    <nd ref="32599222"/>
    <nd ref="32599223"/>
    <nd ref="32599224"/>
    <nd ref="32599225"/>
    <nd ref="32599228"/>
    <nd ref="32599226"/>
    <tag k="created_by" v="JOSM"/>
    <tag k="highway" v="primary"/>
    <tag k="layer" v="-1"/>
    <tag k="name" v="B488"/>
    <tag k="nat_ref" v="B488"/>
  </way>
  <way id="4945843" version="3" timestamp="2007-12-08T19:31:41Z" uid="13006" user="mmeusel" changeset="188836"/>
  <way id="4945844" version="2" timestamp="2007-11-28T18:51:10Z" uid="4667" user="MapZ" changeset="640996">
    <nd ref="32596124"/>
    <nd ref="32596123"/>
    <nd ref="32596122"/>
    <nd ref="32596121"/>
    <nd ref="32596120"/>
    <nd ref="32596119"/>
    <nd ref="32596118"/>
    <nd ref="32596117"/>
    <nd ref="32596116"/>
    <nd ref="32596115"/>
    <nd ref="32596114"/>
    <nd ref="32596113"/>
    <nd ref="32596111"/>
    <nd ref="32596109"/>
    <nd ref="32596108"/>
    <nd ref="32596107"/>
    <nd ref="32596106"/>
    <nd ref="32596105"/>
    <nd ref="32596102"/>
    <nd ref="32596099"/>
    <nd ref="32596098"/>
    <nd ref="32596097"/>
    <nd ref="32596096"/>
    <nd ref="32596095"/>
    <nd ref="32596094"/>
    <nd ref="140205716"/>
    <nd ref="32596093"/>
    <nd ref="32596092"/>
    <nd ref="32596090"/>
    <nd ref="32596089"/>
    <nd ref="32596088"/>
    <nd ref="32596087"/>
    <nd ref="32596086"/>
    <nd ref="32596085"/>
    <nd ref="32596084"/>
    <nd ref="32596083"/>
    <nd ref="32596082"/>
    <nd ref="32596081"/>
    <nd ref="32596080"/>
    <nd ref="32596079"/>
    <nd ref="32596078"/>
    <nd ref="32596075"/>
    <nd ref="32596073"/>
    <nd ref="32596072"/>
    <nd ref="32596069"/>
    <nd ref="32596068"/>
    <nd ref="32596067"/>
    <nd ref="32596062"/>
    <nd ref="32596061"/>
    <nd ref="32596060"/>
    <nd ref="32596056"/>
    <nd ref="32596055"/>
    <nd ref="32596054"/>
    <nd ref="32596049"/>
    <nd ref="32596034"/>
    <nd ref="32596032"/>
    <nd ref="32596031"/>
    <nd ref="32596027"/>
    <nd ref="32596014"/>
    <nd ref="32596012"/>
    <nd ref="32596011"/>
    <nd ref="32596010"/>
    <nd ref="32596009"/>
    <nd ref="32596008"/>
    <nd ref="32596007"/>
    <nd ref="32596006"/>
    <nd ref="32596005"/>
    <nd ref="32596004"/>
    <nd ref="32596003"/>
    <nd ref="32596002"/>
    <nd ref="32596001"/>
    <nd ref="32596000"/>
    <nd ref="32595999"/>
    <nd ref="32595998"/>
    <nd ref="32595997"/>
    <nd ref="32595996"/>
    <nd ref="32595995"/>
    <nd ref="32595991"/>
    <nd ref="32595990"/>
    <nd ref="32595992"/>
    <nd ref="53181329"/>
    <nd ref="32595993"/>
    <nd ref="32595994"/>
    <nd ref="53181373"/>
    <nd ref="53181068"/>
    <nd ref="53181071"/>
    <nd ref="53181073"/>
    <nd ref="53181076"/>
    <nd ref="53181078"/>
    <nd ref="53181081"/>
    <nd ref="53181084"/>
    <nd ref="53181087"/>
    <nd ref="53181089"/>
    <nd ref="53181094"/>
    <nd ref="53181098"/>
    <nd ref="53181101"/>
    <nd ref="53181105"/>
    <nd ref="53181109"/>
    <nd ref="53181113"/>
    <nd ref="53181116"/>
    <nd ref="53181119"/>
    <nd ref="53181124"/>
    <nd ref="53181126"/>
    <nd ref="53181129"/>
    <nd ref="53181134"/>
    <nd ref="53181137"/>
    <nd ref="53181141"/>
    <nd ref="53181146"/>
    <tag k="created_by" v="JOSM"/>
    <tag k="highway" v="primary"/>
    <tag k="name" v="B488"/>
    <tag k="nat_ref" v="B488"/>
  </way>
  <way id="4945844" version="3" timestamp="2008-01-02T17:49:44Z" uid="6879" user="Longbow4u" changeset="517720">
    <nd ref="32596124"/>
    <nd ref="32596123"/>
    <nd ref="32596122"/>
    <nd ref="32596121"/>
    <nd ref="32596120"/>
    <nd ref="32596119"/>
    <nd ref="32596118"/>
    <nd ref="32596117"/>
    <nd ref="32596116"/>
    <nd ref="32596115"/>
    <nd ref="32596114"/>
    <nd ref="32596113"/>
    <nd ref="32596111"/>
    <nd ref="32596109"/>
    <nd ref="32596108"/>
    <nd ref="32596107"/>
    <nd ref="32596106"/>
    <nd ref="32596105"/>
    <nd ref="32596102"/>
    <nd ref="32596099"/>
    <nd ref="32596098"/>
    <nd ref="32596097"/>
    <nd ref="32596096"/>
    <nd ref="32596095"/>
    <nd ref="32596094"/>
    <nd ref="140205716"/>
    <nd ref="32596093"/>
    <nd ref="32596092"/>
    <nd ref="32596090"/>
    <nd ref="32596089"/>
    <nd ref="32596088"/>
    <nd ref="32596087"/>
    <nd ref="32596086"/>
    <nd ref="32596085"/>
    <nd ref="32596084"/>
    <nd ref="32596083"/>
    <nd ref="32596082"/>
    <nd ref="32596081"/>
    <nd ref="32596080"/>
    <nd ref="32596079"/>
    <nd ref="32596078"/>
    <nd ref="32596075"/>
    <nd ref="32596073"/>
    <nd ref="32596072"/>
    <nd ref="32596069"/>
    <nd ref="32596068"/>
    <nd ref="32596067"/>
    <nd ref="32596062"/>
    <nd ref="32596061"/>
    <nd ref="32596060"/>
    <nd ref="32596056"/>
    <nd ref="32596055"/>
    <nd ref="32596054"/>
    <nd ref="32596049"/>
    <nd ref="32596034"/>
    <nd ref="32596032"/>
    <nd ref="32596031"/>
    <nd ref="32596027"/>
    <nd ref="32596014"/>
    <nd ref="32596012"/>
    <nd ref="32596011"/>
    <nd ref="32596010"/>
    <nd ref="32596009"/>
    <nd ref="32596008"/>
    <nd ref="32596007"/>
    <nd ref="32596006"/>
    <nd ref="32596005"/>
    <nd ref="32596004"/>
    <nd ref="32596003"/>
    <nd ref="32596002"/>
    <nd ref="32596001"/>
    <nd ref="32596000"/>
    <nd ref="32595999"/>
    <nd ref="32595998"/>
    <nd ref="32595997"/>
    <nd ref="32595996"/>
    <nd ref="32595995"/>
    <nd ref="32595991"/>
    <nd ref="32595990"/>
    <nd ref="203621733"/>
    <nd ref="32595992"/>
    <nd ref="53181329"/>
    <nd ref="32595993"/>
    <nd ref="32595994"/>
    <nd ref="53181373"/>
    <nd ref="203621681"/>
    <nd ref="53181068"/>
    <nd ref="53181071"/>
    <nd ref="53181073"/>
    <nd ref="53181076"/>
    <nd ref="53181078"/>
    <nd ref="53181081"/>
    <nd ref="53181084"/>
    <nd ref="53181087"/>
    <nd ref="53181089"/>
    <nd ref="53181094"/>
    <nd ref="53181098"/>
    <nd ref="53181101"/>
    <nd ref="53181105"/>
    <nd ref="53181109"/>
    <nd ref="53181113"/>
    <nd ref="53181116"/>
    <nd ref="53181119"/>
    <nd ref="53181124"/>
    <nd ref="53181126"/>
    <nd ref="53181129"/>
    <nd ref="53181134"/>
    <nd ref="53181137"/>
    <nd ref="53181141"/>
    <nd ref="53181146"/>
    <tag k="created_by" v="JOSM"/>
    <tag k="highway" v="primary"/>
    <tag k="name" v="B488"/>
    <tag k="nat_ref" v="B488"/>
  </way>
  <way id="4945844" version="4" timestamp="2008-02-05T05:18:45Z" uid="5164" user="woodpeck" changeset="46622">
    <nd ref="32596124"/>
    <nd ref="32596123"/>
    <nd ref="32596122"/>
    <nd ref="32596121"/>
    <nd ref="32596120"/>
    <nd ref="32596119"/>
    <nd ref="32596118"/>
    <nd ref="32596117"/>
    <nd ref="32596116"/>
    <nd ref="32596115"/>
    <nd ref="32596114"/>
    <nd ref="32596113"/>
    <nd ref="32596111"/>
    <nd ref="32596109"/>
    <nd ref="32596108"/>
    <nd ref="32596107"/>
    <nd ref="32596106"/>
    <nd ref="32596105"/>
    <nd ref="32596102"/>
    <nd ref="32596099"/>
    <nd ref="32596098"/>
    <nd ref="32596097"/>
    <nd ref="32596096"/>
    <nd ref="32596095"/>
    <nd ref="32596094"/>
    <nd ref="140205716"/>
    <nd ref="32596093"/>
    <nd ref="32596092"/>
    <nd ref="32596090"/>
    <nd ref="32596089"/>
    <nd ref="32596088"/>
    <nd ref="32596087"/>
    <nd ref="32596086"/>
    <nd ref="32596085"/>
    <nd ref="32596084"/>
    <nd ref="32596083"/>
    <nd ref="32596082"/>
    <nd ref="32596081"/>
    <nd ref="32596080"/>
    <nd ref="32596079"/>
    <nd ref="32596078"/>
    <nd ref="32596075"/>
    <nd ref="32596073"/>
    <nd ref="32596072"/>
    <nd ref="32596069"/>
    <nd ref="32596068"/>
    <nd ref="32596067"/>
    <nd ref="32596062"/>
    <nd ref="32596061"/>
    <nd ref="32596060"/>
    <nd ref="32596056"/>
    <nd ref="32596055"/>
    <nd ref="32596054"/>
    <nd ref="32596049"/>
    <nd ref="32596034"/>
    <nd ref="32596032"/>
    <nd ref="32596031"/>
    <nd ref="32596027"/>
    <nd ref="32596014"/>
    <nd ref="32596012"/>
    <nd ref="32596011"/>
    <nd ref="32596010"/>
    <nd ref="32596009"/>
    <nd ref="32596008"/>
    <nd ref="32596007"/>
    <nd ref="32596006"/>
    <nd ref="32596005"/>
    <nd ref="32596004"/>
    <nd ref="32596003"/>
    <nd ref="32596002"/>
    <nd ref="32596001"/>
    <nd ref="32596000"/>
    <nd ref="32595999"/>
    <nd ref="32595998"/>
    <nd ref="32595997"/>
    <nd ref="32595996"/>
    <nd ref="32595995"/>
    <nd ref="32595991"/>
    <nd ref="32595990"/>
    <nd ref="203621733"/>
    <nd ref="32595992"/>
    <nd ref="53181329"/>
    <nd ref="32595993"/>
    <nd ref="32595994"/>
    <nd ref="53181373"/>
    <nd ref="203621681"/>
    <nd ref="53181068"/>
    <nd ref="53181071"/>
    <nd ref="53181073"/>
    <nd ref="53181076"/>
    <nd ref="53181078"/>
    <nd ref="53181081"/>
    <nd ref="53181084"/>
    <nd ref="53181087"/>
    <nd ref="53181089"/>
    <nd ref="53181094"/>
    <nd ref="53181098"/>
    <nd ref="53181101"/>
    <nd ref="53181105"/>
    <nd ref="53181109"/>
    <nd ref="53181113"/>
    <nd ref="53181116"/>
    <nd ref="53181119"/>
    <nd ref="53181124"/>
    <nd ref="53181126"/>
    <nd ref="53181129"/>
    <nd ref="53181134"/>
    <nd ref="53181137"/>
    <nd ref="53181141"/>
    <nd ref="53181146"/>
    <tag k="created_by" v="fixbot"/>
    <tag k="highway" v="primary"/>
    <tag k="ref" v="B488"/>
  </way>
  <way id="4945844" version="5" timestamp="2008-05-18T16:38:39Z" uid="31059" user="DaBear" changeset="473230">
    <nd ref="32596124"/>
    <nd ref="32596123"/>
    <nd ref="32596122"/>
    <nd ref="32596121"/>
    <nd ref="32596120"/>
    <nd ref="32596119"/>
    <nd ref="32596118"/>
    <nd ref="32596117"/>
    <nd ref="32596116"/>
    <nd ref="32596115"/>
    <nd ref="32596114"/>
    <nd ref="32596113"/>
    <nd ref="32596111"/>
    <nd ref="32596109"/>
    <nd ref="32596108"/>
    <nd ref="32596107"/>
    <nd ref="32596106"/>
    <nd ref="32596105"/>
    <nd ref="32596102"/>
    <nd ref="32596099"/>
    <nd ref="32596098"/>
    <nd ref="32596097"/>
    <nd ref="32596096"/>
    <nd ref="32596095"/>
    <nd ref="32596094"/>
    <nd ref="140205716"/>
    <nd ref="32596093"/>
    <nd ref="32596092"/>
    <nd ref="32596090"/>
    <nd ref="32596089"/>
    <nd ref="32596088"/>
    <nd ref="32596087"/>
    <nd ref="32596086"/>
    <nd ref="32596085"/>
    <nd ref="32596084"/>
    <nd ref="32596083"/>
    <nd ref="32596082"/>
    <nd ref="32596081"/>
    <nd ref="32596080"/>
    <nd ref="32596079"/>
    <nd ref="32596078"/>
    <nd ref="32596075"/>
    <nd ref="32596073"/>
    <nd ref="32596072"/>
    <nd ref="32596069"/>
    <nd ref="32596068"/>
    <nd ref="32596067"/>
    <nd ref="32596062"/>
    <nd ref="32596061"/>
    <nd ref="32596060"/>
    <nd ref="32596056"/>
    <nd ref="32596055"/>
    <nd ref="32596054"/>
    <nd ref="32596049"/>
    <nd ref="32596034"/>
    <nd ref="32596032"/>
    <nd ref="32596031"/>
    <nd ref="32596027"/>
    <nd ref="32596014"/>
    <nd ref="32596012"/>
    <nd ref="32596011"/>
    <nd ref="32596010"/>
    <nd ref="32596009"/>
    <nd ref="32596008"/>
    <nd ref="32596007"/>
    <nd ref="32596006"/>
    <nd ref="32596005"/>
    <nd ref="32596004"/>
    <nd ref="32596003"/>
    <nd ref="32596002"/>
    <nd ref="32596001"/>
    <nd ref="32596000"/>
    <nd ref="32595999"/>
    <nd ref="32595998"/>
    <nd ref="32595997"/>
    <nd ref="32595996"/>
    <nd ref="32595995"/>
    <nd ref="32595991"/>
    <nd ref="32595990"/>
    <nd ref="203621733"/>
    <nd ref="32595992"/>
    <nd ref="53181329"/>
    <nd ref="32595993"/>
    <nd ref="32595994"/>
    <nd ref="53181373"/>
    <nd ref="203621681"/>
    <nd ref="53181068"/>
    <nd ref="53181071"/>
    <nd ref="53181073"/>
    <nd ref="53181076"/>
    <nd ref="53181078"/>
    <nd ref="53181081"/>
    <nd ref="53181084"/>
    <nd ref="53181087"/>
    <nd ref="53181089"/>
    <nd ref="53181094"/>
    <nd ref="53181098"/>
    <nd ref="53181101"/>
    <nd ref="53181105"/>
    <nd ref="53181109"/>
    <nd ref="53181113"/>
    <nd ref="53181116"/>
    <nd ref="53181119"/>
    <nd ref="53181124"/>
    <nd ref="53181126"/>
    <nd ref="53181129"/>
    <nd ref="53181134"/>
    <nd ref="53181137"/>
    <nd ref="53181141"/>
    <nd ref="53181146"/>
    <tag k="created_by" v="Potlatch 0.9a"/>
    <tag k="highway" v="primary"/>
    <tag k="ref" v="B488"/>
  </way>
  <way id="4945844" version="6" timestamp="2008-05-18T16:39:27Z" uid="31059" user="DaBear" changeset="473230">
    <nd ref="32596124"/>
    <nd ref="32596123"/>
    <nd ref="32596122"/>
    <nd ref="32596121"/>
    <nd ref="32596120"/>
    <nd ref="32596119"/>
    <nd ref="32596118"/>
    <nd ref="32596117"/>
    <nd ref="32596116"/>
    <nd ref="32596115"/>
    <nd ref="32596114"/>
    <nd ref="32596113"/>
    <nd ref="32596111"/>
    <nd ref="32596109"/>
    <nd ref="32596108"/>
    <nd ref="32596107"/>
    <nd ref="32596106"/>
    <nd ref="32596105"/>
    <nd ref="32596102"/>
    <nd ref="32596099"/>
    <nd ref="32596098"/>
    <nd ref="32596097"/>
    <nd ref="32596096"/>
    <nd ref="32596095"/>
    <nd ref="32596094"/>
    <nd ref="140205716"/>
    <nd ref="32596093"/>
    <nd ref="32596092"/>
    <nd ref="32596090"/>
    <nd ref="32596089"/>
    <nd ref="32596088"/>
    <nd ref="32596087"/>
    <nd ref="32596086"/>
    <nd ref="32596085"/>
    <nd ref="32596084"/>
    <nd ref="32596083"/>
    <nd ref="32596082"/>
    <nd ref="32596081"/>
    <nd ref="32596080"/>
    <nd ref="32596079"/>
    <nd ref="32596078"/>
    <nd ref="32596075"/>
    <nd ref="32596073"/>
    <nd ref="32596072"/>
    <nd ref="32596069"/>
    <nd ref="32596068"/>
    <nd ref="32596067"/>
    <nd ref="32596062"/>
    <nd ref="32596061"/>
    <nd ref="32596060"/>
    <nd ref="32596056"/>
    <nd ref="32596055"/>
    <nd ref="32596054"/>
    <nd ref="32596049"/>
    <nd ref="32596034"/>
    <nd ref="32596032"/>
    <nd ref="32596031"/>
    <nd ref="32596027"/>
    <nd ref="32596014"/>
    <nd ref="32596012"/>
    <nd ref="32596011"/>
    <nd ref="32596010"/>
    <nd ref="32596009"/>
    <nd ref="32596008"/>
    <nd ref="32596007"/>
    <nd ref="32596006"/>
    <nd ref="32596005"/>
    <nd ref="32596004"/>
    <nd ref="32596003"/>
    <nd ref="32596002"/>
    <nd ref="32596001"/>
    <nd ref="32596000"/>
    <nd ref="32595999"/>
    <nd ref="32595998"/>
    <nd ref="32595997"/>
    <nd ref="32595996"/>
    <nd ref="32595995"/>
    <nd ref="32595991"/>
    <nd ref="32595990"/>
    <nd ref="203621733"/>
    <nd ref="32595992"/>
    <nd ref="53181329"/>
    <nd ref="32595993"/>
    <nd ref="32595994"/>
    <nd ref="53181373"/>
    <nd ref="203621681"/>
    <nd ref="53181068"/>
    <nd ref="53181071"/>
    <nd ref="53181073"/>
    <nd ref="53181076"/>
    <nd ref="53181078"/>
    <nd ref="53181081"/>
    <nd ref="53181084"/>
    <nd ref="53181087"/>
    <nd ref="53181089"/>
    <nd ref="53181094"/>
    <nd ref="53181098"/>
    <nd ref="53181101"/>
    <nd ref="53181105"/>
    <nd ref="53181109"/>
    <nd ref="53181113"/>
    <nd ref="53181116"/>
    <nd ref="53181119"/>
    <nd ref="53181124"/>
    <nd ref="53181126"/>
    <nd ref="53181129"/>
    <nd ref="53181134"/>
    <nd ref="53181137"/>
    <nd ref="53181141"/>
    <nd ref="53181146"/>
    <tag k="created_by" v="Potlatch 0.9a"/>
    <tag k="highway" v="primary"/>
    <tag k="ref" v="B488"/>
  </way>
  <way id="4945844" version="7" timestamp="2008-06-16T22:14:15Z" uid="24920" user="Schusch" changeset="195383">
    <nd ref="32596124"/>
    <nd ref="32596123"/>
    <nd ref="32596122"/>
    <nd ref="32596121"/>
    <nd ref="32596120"/>
    <nd ref="32596119"/>
    <nd ref="32596118"/>
    <nd ref="32596117"/>
    <nd ref="32596116"/>
    <nd ref="32596115"/>
    <nd ref="32596114"/>
    <nd ref="32596113"/>
    <nd ref="32596111"/>
    <nd ref="32596109"/>
    <nd ref="32596108"/>
    <nd ref="32596107"/>
    <nd ref="32596106"/>
    <nd ref="32596105"/>
    <nd ref="32596102"/>
    <nd ref="32596099"/>
    <nd ref="32596098"/>
    <nd ref="32596097"/>
    <nd ref="32596096"/>
    <nd ref="32596095"/>
    <nd ref="32596094"/>
    <nd ref="140205716"/>
    <nd ref="32596093"/>
    <nd ref="32596092"/>
    <nd ref="32596090"/>
    <nd ref="32596089"/>
    <nd ref="32596088"/>
    <nd ref="32596087"/>
    <nd ref="32596086"/>
    <nd ref="32596085"/>
    <nd ref="32596084"/>
    <nd ref="32596083"/>
    <nd ref="32596082"/>
    <nd ref="32596081"/>
    <nd ref="32596080"/>
    <nd ref="32596079"/>
    <nd ref="32596078"/>
    <nd ref="32596075"/>
    <nd ref="32596073"/>
    <nd ref="32596072"/>
    <nd ref="32596069"/>
    <nd ref="32596068"/>
    <nd ref="32596067"/>
    <nd ref="32596062"/>
    <nd ref="32596061"/>
    <nd ref="32596060"/>
    <nd ref="32596056"/>
    <nd ref="32596055"/>
    <nd ref="32596054"/>
    <nd ref="32596049"/>
    <nd ref="32596034"/>
    <nd ref="32596032"/>
    <nd ref="32596031"/>
    <nd ref="32596027"/>
    <nd ref="32596014"/>
    <nd ref="32596012"/>
    <nd ref="32596011"/>
    <nd ref="32596010"/>
    <nd ref="32596009"/>
    <nd ref="32596008"/>
    <nd ref="32596007"/>
    <nd ref="32596006"/>
    <nd ref="32596005"/>
    <nd ref="32596004"/>
    <nd ref="32596003"/>
    <nd ref="32596002"/>
    <nd ref="32596001"/>
    <nd ref="32596000"/>
    <nd ref="32595999"/>
    <nd ref="32595998"/>
    <nd ref="32595997"/>
    <nd ref="32595996"/>
    <nd ref="32595995"/>
    <nd ref="32595991"/>
    <nd ref="32595990"/>
    <nd ref="203621733"/>
    <nd ref="32595992"/>
    <nd ref="53181329"/>
    <nd ref="32595993"/>
    <nd ref="32595994"/>
    <nd ref="53181373"/>
    <nd ref="203621681"/>
    <nd ref="53181068"/>
    <nd ref="53181071"/>
    <nd ref="53181073"/>
    <nd ref="53181076"/>
    <nd ref="53181078"/>
    <nd ref="53181081"/>
    <nd ref="53181084"/>
    <nd ref="53181087"/>
    <nd ref="53181089"/>
    <nd ref="53181094"/>
    <nd ref="53181098"/>
    <nd ref="53181101"/>
    <nd ref="53181105"/>
    <nd ref="53181109"/>
    <nd ref="53181113"/>
    <nd ref="53181116"/>
    <nd ref="53181119"/>
    <nd ref="53181124"/>
    <nd ref="53181126"/>
    <nd ref="53181129"/>
    <nd ref="53181134"/>
    <nd ref="53181137"/>
    <nd ref="53181141"/>
    <nd ref="53181146"/>
    <tag k="created_by" v="Potlatch 0.9c"/>
    <tag k="highway" v="primary"/>
    <tag k="ref" v="B 488"/>
  </way>
  <way id="4945844" version="8" timestamp="2008-07-14T15:54:27Z" uid="31346" user="nitrox9" changeset="490597">
    <nd ref="32596124"/>
    <nd ref="32596123"/>
    <nd ref="32596122"/>
    <nd ref="32596121"/>
    <nd ref="32596120"/>
    <nd ref="32596119"/>
    <nd ref="32596118"/>
    <nd ref="32596117"/>
    <nd ref="32596116"/>
    <nd ref="32596115"/>
    <nd ref="32596114"/>
    <nd ref="32596113"/>
    <nd ref="32596111"/>
    <nd ref="32596109"/>
    <nd ref="32596108"/>
    <nd ref="32596107"/>
    <nd ref="32596106"/>
    <nd ref="32596105"/>
    <nd ref="32596102"/>
    <nd ref="32596099"/>
    <nd ref="32596098"/>
    <nd ref="32596097"/>
    <nd ref="32596096"/>
    <nd ref="32596095"/>
    <nd ref="32596094"/>
    <nd ref="140205716"/>
    <nd ref="32596093"/>
    <nd ref="32596092"/>
    <nd ref="32596090"/>
    <nd ref="32596089"/>
    <nd ref="32596088"/>
    <nd ref="32596087"/>
    <nd ref="32596086"/>
    <nd ref="32596085"/>
    <nd ref="32596084"/>
    <nd ref="32596083"/>
    <nd ref="32596082"/>
    <nd ref="32596081"/>
    <nd ref="32596080"/>
    <nd ref="32596079"/>
    <nd ref="32596078"/>
    <nd ref="32596075"/>
    <nd ref="32596073"/>
    <nd ref="32596072"/>
    <nd ref="32596069"/>
    <nd ref="32596068"/>
    <nd ref="32596067"/>
    <nd ref="32596062"/>
    <nd ref="32596061"/>
    <nd ref="32596060"/>
    <nd ref="32596056"/>
    <nd ref="32596055"/>
    <nd ref="32596054"/>
    <nd ref="32596049"/>
    <nd ref="32596034"/>
    <nd ref="32596032"/>
    <nd ref="32596031"/>
    <nd ref="32596027"/>
    <nd ref="32596014"/>
    <nd ref="32596012"/>
    <nd ref="32596011"/>
    <nd ref="32596010"/>
    <nd ref="32596009"/>
    <nd ref="32596008"/>
    <nd ref="32596007"/>
    <nd ref="32596006"/>
    <nd ref="32596005"/>
    <nd ref="32596004"/>
    <nd ref="32596003"/>
    <nd ref="32596002"/>
    <nd ref="32596001"/>
    <nd ref="32596000"/>
    <nd ref="32595999"/>
    <nd ref="32595998"/>
    <nd ref="32595997"/>
    <nd ref="32595996"/>
    <nd ref="32595995"/>
    <nd ref="32595991"/>
    <nd ref="32595990"/>
    <nd ref="203621733"/>
    <nd ref="32595992"/>
    <nd ref="53181329"/>
    <nd ref="32595993"/>
    <nd ref="32595994"/>
    <nd ref="53181373"/>
    <nd ref="203621681"/>
    <nd ref="53181068"/>
    <nd ref="53181071"/>
    <nd ref="53181073"/>
    <nd ref="53181076"/>
    <nd ref="53181078"/>
    <nd ref="53181081"/>
    <nd ref="53181084"/>
    <nd ref="53181087"/>
    <nd ref="53181089"/>
    <nd ref="53181094"/>
    <nd ref="53181098"/>
    <nd ref="278504370"/>
    <nd ref="53181101"/>
    <nd ref="53181105"/>
    <nd ref="53181109"/>
    <nd ref="53181113"/>
    <nd ref="53181116"/>
    <nd ref="53181119"/>
    <nd ref="53181124"/>
    <nd ref="53181126"/>
    <nd ref="53181129"/>
    <nd ref="53181134"/>
    <nd ref="53181137"/>
    <nd ref="53181141"/>
    <nd ref="53181146"/>
    <tag k="created_by" v="Potlatch 0.9c"/>
    <tag k="highway" v="primary"/>
    <tag k="ref" v="B 488"/>
  </way>
  <way id="4945844" version="9" timestamp="2008-07-25T19:18:58Z" uid="18141" user="Hobby Navigator" changeset="592046">
    <nd ref="32596124"/>
    <nd ref="32596120"/>
    <nd ref="32596119"/>
    <nd ref="32596118"/>
    <nd ref="32596117"/>
    <nd ref="32596116"/>
    <nd ref="32596115"/>
    <nd ref="32596114"/>
    <nd ref="32596113"/>
    <nd ref="32596111"/>
    <nd ref="32596109"/>
    <nd ref="32596108"/>
    <nd ref="32596107"/>
    <nd ref="32596106"/>
    <nd ref="32596105"/>
    <nd ref="32596102"/>
    <nd ref="32596099"/>
    <nd ref="32596098"/>
    <nd ref="32596097"/>
    <nd ref="32596096"/>
    <nd ref="32596095"/>
    <nd ref="32596094"/>
    <nd ref="140205716"/>
    <nd ref="32596093"/>
    <nd ref="32596092"/>
    <nd ref="32596090"/>
    <nd ref="32596089"/>
    <nd ref="32596088"/>
    <nd ref="32596087"/>
    <nd ref="32596086"/>
    <nd ref="32596085"/>
    <nd ref="32596084"/>
    <nd ref="32596083"/>
    <nd ref="32596082"/>
    <nd ref="32596081"/>
    <nd ref="32596080"/>
    <nd ref="32596079"/>
    <nd ref="32596078"/>
    <nd ref="32596075"/>
    <nd ref="32596073"/>
    <nd ref="32596072"/>
    <nd ref="32596069"/>
    <nd ref="32596068"/>
    <nd ref="32596067"/>
    <nd ref="32596062"/>
    <nd ref="32596061"/>
    <nd ref="32596060"/>
    <nd ref="32596056"/>
    <nd ref="32596055"/>
    <nd ref="32596054"/>
    <nd ref="32596049"/>
    <nd ref="32596034"/>
    <nd ref="32596032"/>
    <nd ref="32596031"/>
    <nd ref="32596027"/>
    <nd ref="32596014"/>
    <nd ref="32596012"/>
    <nd ref="32596011"/>
    <nd ref="32596010"/>
    <nd ref="32596009"/>
    <nd ref="32596008"/>
    <nd ref="32596007"/>
    <nd ref="32596006"/>
    <nd ref="32596005"/>
    <nd ref="32596004"/>
    <nd ref="32596003"/>
    <nd ref="32596002"/>
    <nd ref="32596001"/>
    <nd ref="32596000"/>
    <nd ref="32595999"/>
    <nd ref="32595998"/>
    <nd ref="32595997"/>
    <nd ref="32595996"/>
    <nd ref="32595995"/>
    <nd ref="32595991"/>
    <nd ref="32595990"/>
    <nd ref="203621733"/>
    <nd ref="32595992"/>
    <nd ref="53181329"/>
    <nd ref="32595993"/>
    <nd ref="32595994"/>
    <nd ref="53181373"/>
    <nd ref="203621681"/>
    <nd ref="53181068"/>
    <nd ref="53181071"/>
    <nd ref="53181073"/>
    <nd ref="53181076"/>
    <nd ref="53181078"/>
    <nd ref="53181081"/>
    <nd ref="53181084"/>
    <nd ref="53181087"/>
    <nd ref="53181089"/>
    <nd ref="53181094"/>
    <nd ref="53181098"/>
    <nd ref="278504370"/>
    <nd ref="53181101"/>
    <nd ref="53181105"/>
    <nd ref="53181109"/>
    <nd ref="53181113"/>
    <nd ref="53181116"/>
    <nd ref="53181119"/>
    <nd ref="53181124"/>
    <nd ref="53181126"/>
    <nd ref="53181129"/>
    <nd ref="53181134"/>
    <nd ref="53181137"/>
    <nd ref="53181141"/>
    <nd ref="53181146"/>
    <tag k="created_by" v="Potlatch 0.10"/>
    <tag k="highway" v="primary"/>
    <tag k="ref" v="B 488"/>
  </way>
  <way id="4945844" version="10" timestamp="2008-09-07T09:18:39Z" uid="66175" user="vtac" changeset="560544">
    <nd ref="32596124"/>
    <nd ref="32596120"/>
    <nd ref="32596119"/>
    <nd ref="32596118"/>
    <nd ref="32596117"/>
    <nd ref="32596116"/>
    <nd ref="32596115"/>
    <nd ref="32596114"/>
    <nd ref="32596113"/>
    <nd ref="32596111"/>
    <nd ref="32596109"/>
    <nd ref="32596108"/>
    <nd ref="32596107"/>
    <nd ref="32596106"/>
    <nd ref="32596105"/>
    <nd ref="32596102"/>
    <nd ref="32596099"/>
    <nd ref="32596098"/>
    <nd ref="32596097"/>
    <nd ref="32596096"/>
    <nd ref="32596095"/>
    <nd ref="32596094"/>
    <nd ref="140205716"/>
    <nd ref="32596093"/>
    <nd ref="32596092"/>
    <nd ref="32596090"/>
    <nd ref="32596089"/>
    <nd ref="32596088"/>
    <nd ref="32596087"/>
    <nd ref="32596086"/>
    <nd ref="32596085"/>
    <nd ref="32596084"/>
    <nd ref="32596083"/>
    <nd ref="32596082"/>
    <nd ref="32596081"/>
    <nd ref="32596080"/>
    <nd ref="32596079"/>
    <nd ref="32596078"/>
    <nd ref="32596075"/>
    <nd ref="32596073"/>
    <nd ref="32596072"/>
    <nd ref="32596069"/>
    <nd ref="32596068"/>
    <nd ref="32596067"/>
    <nd ref="32596062"/>
    <nd ref="32596061"/>
    <nd ref="32596060"/>
    <nd ref="32596056"/>
    <nd ref="32596055"/>
    <nd ref="32596054"/>
    <nd ref="32596049"/>
    <nd ref="32596034"/>
    <nd ref="32596032"/>
    <nd ref="32596031"/>
    <nd ref="32596027"/>
    <nd ref="32596014"/>
    <nd ref="32596012"/>
    <nd ref="32596011"/>
    <nd ref="32596010"/>
    <nd ref="32596009"/>
    <nd ref="32596008"/>
    <nd ref="32596007"/>
    <nd ref="32596006"/>
    <nd ref="32596005"/>
    <nd ref="32596004"/>
    <nd ref="32596003"/>
    <nd ref="32596002"/>
    <nd ref="32596001"/>
    <nd ref="32596000"/>
    <nd ref="32595999"/>
    <nd ref="32595998"/>
    <nd ref="32595997"/>
    <nd ref="32595996"/>
    <nd ref="32595995"/>
    <nd ref="32595991"/>
    <nd ref="32595990"/>
    <nd ref="203621733"/>
    <nd ref="32595992"/>
    <nd ref="53181329"/>
    <nd ref="32595993"/>
    <nd ref="294547987"/>
    <nd ref="32595994"/>
    <nd ref="53181373"/>
    <nd ref="203621681"/>
    <nd ref="53181068"/>
    <nd ref="53181071"/>
    <nd ref="53181073"/>
    <nd ref="53181076"/>
    <nd ref="53181078"/>
    <nd ref="53181081"/>
    <nd ref="53181084"/>
    <nd ref="53181087"/>
    <nd ref="53181089"/>
    <nd ref="53181094"/>
    <nd ref="53181098"/>
    <nd ref="278504370"/>
    <nd ref="53181101"/>
    <nd ref="53181105"/>
    <nd ref="53181109"/>
    <nd ref="53181113"/>
    <nd ref="53181116"/>
    <nd ref="53181119"/>
    <nd ref="53181124"/>
    <nd ref="53181126"/>
    <nd ref="53181129"/>
    <nd ref="53181134"/>
    <nd ref="53181137"/>
    <nd ref="53181141"/>
    <nd ref="53181146"/>
    <tag k="created_by" v="Potlatch 0.10b"/>
    <tag k="highway" v="primary"/>
    <tag k="ref" v="B 488"/>
  </way>
  <way id="4945844" version="11" timestamp="2008-09-10T12:47:25Z" uid="46169" user="wolter" changeset="598628">
    <nd ref="32596124"/>
    <nd ref="32596120"/>
    <nd ref="32596119"/>
    <nd ref="32596118"/>
    <nd ref="32596117"/>
    <nd ref="32596116"/>
    <nd ref="32596115"/>
    <nd ref="32596114"/>
    <nd ref="32596113"/>
    <nd ref="32596111"/>
    <nd ref="32596109"/>
    <nd ref="32596108"/>
    <nd ref="32596107"/>
    <nd ref="32596106"/>
    <nd ref="32596105"/>
    <nd ref="32596102"/>
    <nd ref="32596099"/>
    <nd ref="32596098"/>
    <nd ref="32596097"/>
    <nd ref="32596096"/>
    <nd ref="32596095"/>
    <nd ref="32596094"/>
    <nd ref="140205716"/>
    <nd ref="32596093"/>
    <nd ref="32596092"/>
    <nd ref="32596090"/>
    <nd ref="32596089"/>
    <nd ref="32596088"/>
    <nd ref="32596087"/>
    <nd ref="32596086"/>
    <nd ref="32596085"/>
    <nd ref="32596084"/>
    <nd ref="32596083"/>
    <nd ref="32596082"/>
    <nd ref="32596081"/>
    <nd ref="32596080"/>
    <nd ref="32596079"/>
    <nd ref="32596078"/>
    <nd ref="32596075"/>
    <nd ref="32596073"/>
    <nd ref="32596072"/>
    <nd ref="32596069"/>
    <nd ref="32596068"/>
    <nd ref="32596067"/>
    <nd ref="32596062"/>
    <nd ref="32596061"/>
    <nd ref="32596060"/>
    <nd ref="32596056"/>
    <nd ref="32596055"/>
    <nd ref="32596054"/>
    <nd ref="32596049"/>
    <nd ref="32596034"/>
    <nd ref="32596032"/>
    <nd ref="32596031"/>
    <nd ref="32596027"/>
    <nd ref="32596014"/>
    <nd ref="32596012"/>
    <nd ref="32596011"/>
    <nd ref="32596010"/>
    <nd ref="32596009"/>
    <nd ref="32596008"/>
    <nd ref="32596007"/>
    <nd ref="32596006"/>
    <nd ref="32596005"/>
    <nd ref="32596004"/>
    <nd ref="32596003"/>
    <nd ref="32596002"/>
    <nd ref="32596001"/>
    <nd ref="32596000"/>
    <nd ref="32595999"/>
    <nd ref="32595998"/>
    <nd ref="32595997"/>
    <nd ref="32595996"/>
    <nd ref="32595995"/>
    <nd ref="32595991"/>
    <nd ref="32595990"/>
    <nd ref="203621733"/>
    <nd ref="32595992"/>
    <nd ref="53181329"/>
    <nd ref="32595993"/>
    <nd ref="294547987"/>
    <nd ref="32595994"/>
    <nd ref="53181373"/>
    <nd ref="203621681"/>
    <nd ref="53181068"/>
    <nd ref="53181071"/>
    <nd ref="53181073"/>
    <nd ref="53181076"/>
    <nd ref="53181078"/>
    <nd ref="53181081"/>
    <nd ref="53181084"/>
    <nd ref="53181087"/>
    <nd ref="53181089"/>
    <nd ref="53181094"/>
    <nd ref="53181098"/>
    <nd ref="278504370"/>
    <nd ref="53181101"/>
    <nd ref="53181105"/>
    <nd ref="53181109"/>
    <nd ref="53181113"/>
    <nd ref="53181116"/>
    <nd ref="53181119"/>
    <nd ref="53181124"/>
    <nd ref="53181126"/>
    <nd ref="53181129"/>
    <nd ref="53181134"/>
    <nd ref="53181137"/>
    <nd ref="53181141"/>
    <nd ref="53181146"/>
    <tag k="created_by" v="Potlatch 0.10b"/>
    <tag k="highway" v="primary"/>
    <tag k="ref" v="B 488"/>
  </way>
  <way id="4945844" version="12" timestamp="2008-11-20T20:42:38Z" uid="60493" user="JWL" changeset="774173">
    <nd ref="32596124"/>
    <nd ref="32596120"/>
    <nd ref="32596119"/>
    <nd ref="32596118"/>
    <nd ref="32596117"/>
    <nd ref="32596116"/>
    <nd ref="32596115"/>
    <nd ref="32596114"/>
    <nd ref="32596113"/>
    <nd ref="32596111"/>
    <nd ref="32596109"/>
    <nd ref="32596108"/>
    <nd ref="32596107"/>
    <nd ref="32596106"/>
    <nd ref="32596105"/>
    <nd ref="32596102"/>
    <nd ref="32596099"/>
    <nd ref="32596098"/>
    <nd ref="32596097"/>
    <nd ref="32596096"/>
    <nd ref="32596095"/>
    <nd ref="32596094"/>
    <nd ref="140205716"/>
    <nd ref="32596093"/>
    <nd ref="32596092"/>
    <nd ref="32596090"/>
    <nd ref="32596089"/>
    <nd ref="32596088"/>
    <nd ref="32596087"/>
    <nd ref="32596086"/>
    <nd ref="32596085"/>
    <nd ref="32596084"/>
    <nd ref="32596083"/>
    <nd ref="32596082"/>
    <nd ref="32596081"/>
    <nd ref="32596080"/>
    <nd ref="32596079"/>
    <nd ref="32596078"/>
    <nd ref="32596075"/>
    <nd ref="313384591"/>
    <nd ref="32596073"/>
    <nd ref="32596072"/>
    <nd ref="32596069"/>
    <nd ref="32596068"/>
    <nd ref="32596067"/>
    <nd ref="32596062"/>
    <nd ref="32596061"/>
    <nd ref="32596060"/>
    <nd ref="32596056"/>
    <nd ref="32596055"/>
    <nd ref="32596054"/>
    <nd ref="32596049"/>
    <nd ref="32596034"/>
    <nd ref="32596032"/>
    <nd ref="32596031"/>
    <nd ref="32596027"/>
    <nd ref="32596014"/>
    <nd ref="32596012"/>
    <nd ref="32596011"/>
    <nd ref="32596010"/>
    <nd ref="32596009"/>
    <nd ref="32596008"/>
    <nd ref="32596007"/>
    <nd ref="32596006"/>
    <nd ref="32596005"/>
    <nd ref="32596004"/>
    <nd ref="32596003"/>
    <nd ref="32596002"/>
    <nd ref="32596001"/>
    <nd ref="32596000"/>
    <nd ref="32595999"/>
    <nd ref="32595998"/>
    <nd ref="32595997"/>
    <nd ref="32595996"/>
    <nd ref="32595995"/>
    <nd ref="32595991"/>
    <nd ref="32595990"/>
    <nd ref="203621733"/>
    <nd ref="32595992"/>
    <nd ref="53181329"/>
    <nd ref="32595993"/>
    <nd ref="294547987"/>
    <nd ref="32595994"/>
    <nd ref="53181373"/>
    <nd ref="203621681"/>
    <nd ref="53181068"/>
    <nd ref="53181071"/>
    <nd ref="53181073"/>
    <nd ref="53181076"/>
    <nd ref="53181078"/>
    <nd ref="53181081"/>
    <nd ref="53181084"/>
    <nd ref="53181087"/>
    <nd ref="53181089"/>
    <nd ref="53181094"/>
    <nd ref="53181098"/>
    <nd ref="278504370"/>
    <nd ref="53181101"/>
    <nd ref="53181105"/>
    <nd ref="53181109"/>
    <nd ref="53181113"/>
    <nd ref="53181116"/>
    <nd ref="53181119"/>
    <nd ref="53181124"/>
    <nd ref="53181126"/>
    <nd ref="53181129"/>
    <nd ref="53181134"/>
    <nd ref="53181137"/>
    <nd ref="53181141"/>
    <nd ref="53181146"/>
    <tag k="created_by" v="Potlatch 0.10b"/>
    <tag k="highway" v="primary"/>
    <tag k="ref" v="B 488"/>
  </way>
  <way id="4945844" version="13" timestamp="2008-11-28T12:45:19Z" uid="57645" user="KartoGrapHiti" changeset="803781">
    <nd ref="32596124"/>
    <nd ref="32596120"/>
    <nd ref="32596119"/>
    <nd ref="32596118"/>
    <nd ref="32596117"/>
    <nd ref="32596116"/>
    <nd ref="32596115"/>
    <nd ref="32596114"/>
    <nd ref="32596113"/>
    <nd ref="32596111"/>
    <nd ref="32596109"/>
    <nd ref="32596108"/>
    <nd ref="32596107"/>
    <nd ref="32596106"/>
    <nd ref="32596105"/>
    <nd ref="32596102"/>
    <nd ref="32596099"/>
    <nd ref="32596098"/>
    <nd ref="32596097"/>
    <nd ref="32596096"/>
    <nd ref="32596095"/>
    <nd ref="32596094"/>
    <nd ref="140205716"/>
    <nd ref="32596093"/>
    <nd ref="32596092"/>
    <nd ref="32596090"/>
    <nd ref="32596089"/>
    <nd ref="32596088"/>
    <nd ref="32596087"/>
    <nd ref="32596086"/>
    <nd ref="32596085"/>
    <nd ref="32596084"/>
    <nd ref="32596083"/>
    <nd ref="32596082"/>
    <nd ref="32596081"/>
    <nd ref="32596080"/>
    <nd ref="32596079"/>
    <nd ref="32596078"/>
    <nd ref="32596075"/>
    <nd ref="313384591"/>
    <nd ref="32596073"/>
    <nd ref="32596072"/>
    <nd ref="32596069"/>
    <nd ref="32596068"/>
    <nd ref="32596067"/>
    <nd ref="32596062"/>
    <nd ref="32596061"/>
    <nd ref="32596060"/>
    <nd ref="32596056"/>
    <nd ref="32596055"/>
    <nd ref="32596054"/>
    <nd ref="32596049"/>
    <nd ref="32596034"/>
    <nd ref="32596032"/>
    <nd ref="32596031"/>
    <nd ref="32596027"/>
    <nd ref="32596014"/>
    <nd ref="32596012"/>
    <nd ref="32596011"/>
    <nd ref="32596010"/>
    <nd ref="32596009"/>
    <nd ref="32596008"/>
    <nd ref="32596007"/>
    <nd ref="32596006"/>
    <nd ref="32596005"/>
    <nd ref="32596004"/>
    <nd ref="32596003"/>
    <nd ref="32596002"/>
    <nd ref="32596001"/>
    <nd ref="32596000"/>
    <nd ref="32595999"/>
    <nd ref="32595998"/>
    <nd ref="32595997"/>
    <nd ref="32595996"/>
    <nd ref="32595995"/>
    <nd ref="32595991"/>
    <nd ref="32595990"/>
    <nd ref="203621733"/>
    <tag k="created_by" v="Potlatch 0.10f"/>
    <tag k="highway" v="primary"/>
    <tag k="ref" v="B 488"/>
  </way>
  <way id="4945844" version="14" timestamp="2009-02-03T22:47:59Z" uid="57645" user="KartoGrapHiti" changeset="125318">
    <nd ref="32596124"/>
    <nd ref="32596120"/>
    <nd ref="32596119"/>
    <nd ref="32596118"/>
    <nd ref="32596117"/>
    <nd ref="32596116"/>
    <nd ref="32596115"/>
    <nd ref="32596114"/>
    <nd ref="32596113"/>
    <nd ref="32596111"/>
    <nd ref="32596109"/>
    <nd ref="32596108"/>
    <nd ref="32596107"/>
    <nd ref="32596106"/>
    <nd ref="32596105"/>
    <nd ref="32596102"/>
    <nd ref="32596099"/>
    <nd ref="32596098"/>
    <nd ref="32596097"/>
    <nd ref="32596096"/>
    <nd ref="32596095"/>
    <nd ref="32596094"/>
    <nd ref="140205716"/>
    <nd ref="32596093"/>
    <nd ref="32596092"/>
    <nd ref="32596090"/>
    <nd ref="32596089"/>
    <nd ref="32596088"/>
    <nd ref="32596087"/>
    <nd ref="32596086"/>
    <nd ref="32596085"/>
    <nd ref="32596084"/>
    <nd ref="32596083"/>
    <nd ref="32596082"/>
    <nd ref="32596081"/>
    <nd ref="32596080"/>
    <nd ref="32596079"/>
    <nd ref="32596078"/>
    <nd ref="32596075"/>
    <nd ref="313384591"/>
    <nd ref="32596073"/>
    <nd ref="32596072"/>
    <nd ref="32596069"/>
    <nd ref="32596068"/>
    <nd ref="32596067"/>
    <nd ref="32596062"/>
    <nd ref="32596061"/>
    <nd ref="32596060"/>
    <nd ref="32596056"/>
    <nd ref="32596055"/>
    <tag k="created_by" v="Potlatch 0.10f"/>
    <tag k="highway" v="primary"/>
    <tag k="ref" v="B 488"/>
  </way>
  <way id="4945844" version="15" timestamp="2009-02-03T22:48:07Z" uid="57645" user="KartoGrapHiti" changeset="125318">
    <nd ref="32596124"/>
    <nd ref="32596120"/>
    <nd ref="32596119"/>
    <nd ref="32596118"/>
    <nd ref="32596117"/>
    <nd ref="32596116"/>
    <nd ref="32596115"/>
    <nd ref="32596114"/>
    <nd ref="32596113"/>
    <nd ref="32596111"/>
    <nd ref="32596109"/>
    <nd ref="32596108"/>
    <nd ref="32596107"/>
    <nd ref="32596106"/>
    <nd ref="32596105"/>
    <nd ref="32596102"/>
    <nd ref="32596099"/>
    <nd ref="32596098"/>
    <nd ref="32596097"/>
    <nd ref="32596096"/>
    <nd ref="32596095"/>
    <nd ref="32596094"/>
    <nd ref="140205716"/>
    <nd ref="32596093"/>
    <nd ref="32596092"/>
    <nd ref="32596090"/>
    <nd ref="32596089"/>
    <nd ref="32596088"/>
    <nd ref="32596087"/>
    <nd ref="32596086"/>
    <tag k="created_by" v="Potlatch 0.10f"/>
    <tag k="highway" v="primary"/>
    <tag k="ref" v="B 488"/>
  </way>
  <way id="4945844" version="16" timestamp="2009-07-24T20:54:20Z" uid="57645" user="KartoGrapHiti" changeset="1929341">
    <nd ref="32596124"/>
    <nd ref="32596120"/>
    <nd ref="32596119"/>
    <nd ref="32596118"/>
    <nd ref="32596117"/>
    <nd ref="32596116"/>
    <nd ref="32596115"/>
    <nd ref="32596114"/>
    <nd ref="32596113"/>
    <nd ref="32596111"/>
    <nd ref="32596109"/>
    <nd ref="32596108"/>
    <nd ref="32596107"/>
    <nd ref="32596106"/>
    <nd ref="32596105"/>
    <nd ref="32596102"/>
    <nd ref="447563581"/>
    <nd ref="32596099"/>
    <nd ref="32596098"/>
    <nd ref="32596097"/>
    <nd ref="32596096"/>
    <nd ref="32596095"/>
    <nd ref="32596094"/>
    <nd ref="140205716"/>
    <nd ref="32596093"/>
    <nd ref="32596092"/>
    <nd ref="32596090"/>
    <nd ref="32596089"/>
    <nd ref="32596088"/>
    <nd ref="32596087"/>
    <nd ref="32596086"/>
    <tag k="created_by" v="Potlatch 0.10f"/>
    <tag k="highway" v="primary"/>
    <tag k="ref" v="B 488"/>
  </way>
  <way id="4945844" version="17" timestamp="2009-07-24T21:17:35Z" uid="57645" user="KartoGrapHiti" changeset="1929512">
    <nd ref="32596124"/>
    <nd ref="32596120"/>
    <nd ref="32596119"/>
    <nd ref="32596118"/>
    <nd ref="32596117"/>
    <nd ref="32596116"/>
    <nd ref="32596115"/>
    <nd ref="32596114"/>
    <nd ref="32596113"/>
    <nd ref="32596111"/>
    <nd ref="32596109"/>
    <nd ref="32596108"/>
    <nd ref="32596107"/>
    <nd ref="32596106"/>
    <nd ref="32596105"/>
    <nd ref="32596102"/>
    <tag k="created_by" v="Potlatch 0.10f"/>
    <tag k="highway" v="primary"/>
    <tag k="ref" v="B 488"/>
  </way>
  <way id="4945844" version="18" timestamp="2009-10-14T18:49:23Z" uid="57645" user="KartoGrapHiti" changeset="2849029">
    <nd ref="32596124"/>
    <nd ref="32596120"/>
    <nd ref="32596119"/>
    <nd ref="32596118"/>
    <nd ref="32596117"/>
    <nd ref="32596116"/>
    <nd ref="32596115"/>
    <nd ref="32596114"/>
    <nd ref="32596113"/>
    <nd ref="32596111"/>
    <nd ref="32596109"/>
    <nd ref="32596108"/>
    <nd ref="32596107"/>
    <nd ref="530797719"/>
    <nd ref="32596106"/>
    <nd ref="32596105"/>
    <nd ref="32596102"/>
    <tag k="highway" v="primary"/>
    <tag k="ref" v="B 488"/>
  </way>
  <way id="4945844" version="19" timestamp="2011-02-27T19:01:01Z" uid="6879" user="Longbow4u" changeset="7414224">
    <nd ref="32596124"/>
    <nd ref="32596120"/>
    <nd ref="32596119"/>
    <nd ref="32596118"/>
    <nd ref="32596117"/>
    <nd ref="32596116"/>
    <nd ref="32596115"/>
    <nd ref="32596114"/>
    <nd ref="32596113"/>
    <nd ref="32596111"/>
    <nd ref="32596109"/>
    <nd ref="32596108"/>
    <nd ref="32596107"/>
    <nd ref="530797719"/>
    <nd ref="32596106"/>
    <nd ref="32596105"/>
    <nd ref="32596102"/>
    <tag k="highway" v="primary"/>
    <tag k="postal_code" v="35423"/>
    <tag k="postal_code:country" v="DE"/>
    <tag k="ref" v="B 488"/>
  </way>
  <way id="4945844" version="20" timestamp="2011-09-14T11:28:57Z" uid="302852" user="be-ju" changeset="9298452">
    <nd ref="32596124"/>
    <nd ref="32596120"/>
    <nd ref="32596119"/>
    <nd ref="32596118"/>
    <nd ref="32596117"/>
    <nd ref="32596116"/>
    <nd ref="32596115"/>
    <nd ref="32596114"/>
    <nd ref="32596113"/>
    <nd ref="32596111"/>
    <nd ref="32596109"/>
    <nd ref="32596108"/>
    <nd ref="32596107"/>
    <nd ref="530797719"/>
    <nd ref="32596106"/>
    <nd ref="32596105"/>
    <nd ref="32596102"/>
    <tag k="highway" v="primary"/>
    <tag k="ref" v="B 488"/>
  </way>
  <way id="4945844" version="21" timestamp="2011-10-28T19:33:12Z" uid="302852" user="be-ju" changeset="9679556">
    <nd ref="32596124"/>
    <nd ref="32596120"/>
    <nd ref="32596119"/>
    <nd ref="32596118"/>
    <nd ref="32596117"/>
    <nd ref="32596116"/>
    <nd ref="32596115"/>
    <nd ref="32596114"/>
    <nd ref="32596113"/>
    <nd ref="32596111"/>
    <nd ref="32596109"/>
    <nd ref="32596108"/>
    <nd ref="32596107"/>
    <nd ref="530797719"/>
    <nd ref="32596106"/>
    <nd ref="32596105"/>
    <nd ref="1483934540"/>
    <nd ref="32596102"/>
    <tag k="highway" v="primary"/>
    <tag k="ref" v="B 488"/>
  </way>
  <way id="4945844" version="22" timestamp="2011-12-29T23:10:40Z" uid="302852" user="be-ju" changeset="10240928"/>
  <way id="4945867" version="3" timestamp="2009-12-09T23:08:48Z" uid="200463" user="harmagedon" changeset="3337772">
    <nd ref="32596387"/>
    <nd ref="32596388"/>
    <tag k="bridge" v="yes"/>
    <tag k="layer" v="1"/>
    <tag k="name" v="Langwiesen - Schlatt"/>
    <tag k="railway" v="rail"/>
  </way>
  <way id="4945867" version="4" timestamp="2011-07-08T06:13:05Z" uid="118006" user="vwistuttgart" changeset="8663140">
    <nd ref="32596387"/>
    <nd ref="32596388"/>
    <tag k="bridge" v="yes"/>
    <tag k="electrified" v="contact_line"/>
    <tag k="layer" v="1"/>
    <tag k="name" v="Langwiesen - Schlatt"/>
    <tag k="railway" v="rail"/>
  </way>
  <way id="4945867" version="5" timestamp="2011-07-09T22:48:27Z" uid="16319" user="ipodolsk" changeset="8678745">
    <nd ref="32596387"/>
    <nd ref="32596388"/>
    <tag k="bridge" v="yes"/>
    <tag k="electrified" v="contact_line"/>
    <tag k="layer" v="1"/>
    <tag k="name" v="Langwiesen - Schlatt"/>
    <tag k="railway" v="rail"/>
    <tag k="tracks" v="1"/>
  </way>
  <way id="4945867" version="6" timestamp="2011-10-31T06:45:02Z" uid="42429" user="FK270673" changeset="9700467">
    <nd ref="32596387"/>
    <nd ref="32596388"/>
    <tag k="bridge" v="yes"/>
    <tag k="electrified" v="contact_line"/>
    <tag k="frequency" v="16.7"/>
    <tag k="gauge" v="1435"/>
    <tag k="layer" v="1"/>
    <tag k="name" v="Langwiesen - Schlatt"/>
    <tag k="railway" v="rail"/>
    <tag k="tracks" v="1"/>
    <tag k="voltage" v="15000"/>
  </way>
  <way id="4945868" version="2" timestamp="2009-12-09T23:08:48Z" uid="200463" user="harmagedon" changeset="3337772">
    <nd ref="32596388"/>
    <nd ref="29791280"/>
    <tag k="name" v="Langwiesen - Schlatt"/>
    <tag k="railway" v="rail"/>
  </way>
  <way id="4945868" version="3" timestamp="2010-11-30T15:12:35Z" uid="122213" user="kds_ch" changeset="6495164">
    <nd ref="32596388"/>
    <nd ref="1013505748"/>
    <tag k="name" v="Langwiesen - Schlatt"/>
    <tag k="railway" v="rail"/>
  </way>
  <way id="4945868" version="4" timestamp="2011-07-08T06:13:05Z" uid="118006" user="vwistuttgart" changeset="8663140">
    <nd ref="32596388"/>
    <nd ref="1013505748"/>
    <tag k="electrified" v="contact_line"/>
    <tag k="name" v="Langwiesen - Schlatt"/>
    <tag k="railway" v="rail"/>
    <tag k="tracks" v="1"/>
  </way>
  <way id="4945868" version="5" timestamp="2011-10-31T06:45:01Z" uid="42429" user="FK270673" changeset="9700467">
    <nd ref="32596388"/>
    <nd ref="1013505748"/>
    <tag k="electrified" v="contact_line"/>
    <tag k="frequency" v="16.7"/>
    <tag k="gauge" v="1435"/>
    <tag k="name" v="Langwiesen - Schlatt"/>
    <tag k="railway" v="rail"/>
    <tag k="tracks" v="1"/>
    <tag k="voltage" v="15000"/>
  </way>
  <way id="4945903" version="3" timestamp="2010-05-23T15:15:34Z" uid="20587" user="balrog-kun" changeset="4784060">
    <nd ref="32528257"/>
    <nd ref="34520515"/>
    <tag k="highway" v="residential"/>
    <tag k="lanes" v="1"/>
    <tag k="name" v="Emilii Plater"/>
    <tag k="oneway" v="yes"/>
  </way>
  <way id="4945903" version="4" timestamp="2011-12-30T19:46:56Z" uid="165509" user="koszatek" changeset="10248968">
    <nd ref="32528257"/>
    <nd ref="1569797843"/>
    <nd ref="34520515"/>
    <tag k="highway" v="residential"/>
    <tag k="lanes" v="1"/>
    <tag k="name" v="Emilii Plater"/>
    <tag k="oneway" v="yes"/>
  </way>
  <way id="4945904" version="2" timestamp="2008-10-06T21:17:25Z" uid="20587" user="balrog-kun" changeset="108077">
    <nd ref="32596645"/>
    <nd ref="302722383"/>
    <nd ref="32596646"/>
    <nd ref="32596647"/>
    <nd ref="32596648"/>
    <tag k="created_by" v="JOSM"/>
    <tag k="highway" v="residential"/>
    <tag k="name" v="Twarda"/>
  </way>
  <way id="4945904" version="3" timestamp="2009-02-09T01:34:07Z" uid="20587" user="balrog-kun" changeset="288825">
    <nd ref="32596645"/>
    <nd ref="302722383"/>
    <nd ref="32596646"/>
    <nd ref="32596647"/>
    <nd ref="32596648"/>
    <tag k="created_by" v="JOSM"/>
    <tag k="highway" v="residential"/>
    <tag k="name" v="Twarda"/>
    <tag k="wikipedia" v="pl:Ulica Twarda w Warszawie"/>
  </way>
  <way id="4945904" version="4" timestamp="2009-04-03T19:11:01Z" uid="20587" user="balrog-kun" changeset="134852">
    <nd ref="32596645"/>
    <nd ref="302722383"/>
    <nd ref="32596646"/>
    <nd ref="369540952"/>
    <nd ref="32596647"/>
    <nd ref="369540947"/>
    <nd ref="32596648"/>
    <tag k="created_by" v="JOSM"/>
    <tag k="highway" v="residential"/>
    <tag k="name" v="Twarda"/>
    <tag k="wikipedia" v="pl:Ulica Twarda w Warszawie"/>
  </way>
  <way id="4945904" version="5" timestamp="2011-12-30T19:47:02Z" uid="165509" user="koszatek" changeset="10248968">
    <nd ref="32596645"/>
    <nd ref="1569797812"/>
    <nd ref="1569797823"/>
    <nd ref="1569797853"/>
    <tag k="highway" v="residential"/>
    <tag k="name" v="Twarda"/>
    <tag k="oneway" v="yes"/>
  </way>
  <way id="4945905" version="2" timestamp="2008-02-18T19:47:16Z" uid="20587" user="balrog-kun" changeset="151535">
    <nd ref="32596648"/>
    <nd ref="32596649"/>
    <nd ref="32596652"/>
    <nd ref="32596651"/>
    <nd ref="248197986"/>
    <nd ref="32596650"/>
    <tag k="created_by" v="JOSM"/>
    <tag k="highway" v="residential"/>
    <tag k="name" v="Plac Grzybowski"/>
  </way>
  <way id="4945905" version="3" timestamp="2008-10-06T20:22:58Z" uid="20587" user="balrog-kun" changeset="108077">
    <nd ref="32596648"/>
    <nd ref="32596649"/>
    <nd ref="302711785"/>
    <nd ref="32596652"/>
    <nd ref="32596651"/>
    <nd ref="248197986"/>
    <nd ref="32596650"/>
    <tag k="created_by" v="JOSM"/>
    <tag k="highway" v="residential"/>
    <tag k="name" v="Plac Grzybowski"/>
  </way>
  <way id="4945905" version="4" timestamp="2009-07-29T16:39:45Z" uid="98542" user="wajak" changeset="1977306">
    <nd ref="32596648"/>
    <nd ref="32596649"/>
    <nd ref="302711785"/>
    <nd ref="32596652"/>
    <nd ref="32596651"/>
    <nd ref="248197986"/>
    <nd ref="450852337"/>
    <nd ref="32596650"/>
    <tag k="highway" v="residential"/>
    <tag k="name" v="Plac Grzybowski"/>
  </way>
  <way id="4945905" version="5" timestamp="2011-02-05T18:35:50Z" uid="20587" user="balrog-kun" changeset="7195763">
    <nd ref="32596648"/>
    <nd ref="32596649"/>
    <nd ref="302711785"/>
    <nd ref="1137779113"/>
    <nd ref="1137779918"/>
    <nd ref="32596652"/>
    <nd ref="1137780490"/>
    <nd ref="1137780388"/>
    <nd ref="32596651"/>
    <nd ref="248197986"/>
    <nd ref="450852337"/>
    <nd ref="32596650"/>
    <tag k="highway" v="residential"/>
    <tag k="name" v="Plac Grzybowski"/>
  </way>
  <way id="4945905" version="6" timestamp="2011-12-30T19:46:59Z" uid="165509" user="koszatek" changeset="10248968">
    <nd ref="32596648"/>
    <nd ref="32596649"/>
    <nd ref="302711785"/>
    <nd ref="1137779113"/>
    <nd ref="1137779918"/>
    <nd ref="32596652"/>
    <nd ref="1137780490"/>
    <nd ref="1137780388"/>
    <nd ref="32596651"/>
    <nd ref="248197986"/>
    <nd ref="450852337"/>
    <nd ref="32596650"/>
    <tag k="highway" v="unclassified"/>
    <tag k="name" v="Plac Grzybowski"/>
  </way>
  <way id="4945906" version="2" timestamp="2008-02-18T19:47:16Z" uid="20587" user="balrog-kun" changeset="151535">
    <nd ref="32596649"/>
    <nd ref="32596653"/>
    <nd ref="32596654"/>
    <nd ref="248197987"/>
    <tag k="created_by" v="JOSM"/>
    <tag k="highway" v="residential"/>
    <tag k="name" v="Twarda"/>
    <tag k="oneway" v="yes"/>
  </way>
  <way id="4945906" version="3" timestamp="2011-02-05T18:36:22Z" uid="20587" user="balrog-kun" changeset="7195763"/>
</osm>
