<?xml version='1.0' encoding='UTF-8'?>
<osm version="0.6" generator="libosmium/2.20.0">
  <way id="49537513" version="2" timestamp="2010-12-19T10:50:41Z" uid="7617" user="Franc" changeset="6704320">
    <nd ref="26359538"/>
    <nd ref="18449014"/>
    <nd ref="580661843"/>
    <tag k="bicycle" v="yes"/>
    <tag k="highway" v="secondary"/>
    <tag k="lcn" v="yes"/>
    <tag k="name" v="O&apos;Dea Avenue"/>
    <tag k="source" v="survey"/>
  </way>
  <way id="49537513" version="3" timestamp="2010-12-31T08:39:18Z" uid="389517" user="good2010" changeset="6817269">
    <nd ref="26359538"/>
    <nd ref="18449014"/>
    <nd ref="580661843"/>
    <tag k="bicycle" v="yes"/>
    <tag k="highway" v="secondary"/>
    <tag k="lcn" v="yes"/>
    <tag k="maxspeed" v="60"/>
    <tag k="name" v="O&apos;Dea Avenue"/>
    <tag k="source" v="survey"/>
  </way>
  <way id="49537513" version="4" timestamp="2011-02-01T00:12:50Z" uid="389517" user="good2010" changeset="7150839">
    <nd ref="26359538"/>
    <nd ref="1130218060"/>
    <nd ref="18449014"/>
    <nd ref="580661843"/>
    <tag k="bicycle" v="yes"/>
    <tag k="highway" v="secondary"/>
    <tag k="lcn" v="yes"/>
    <tag k="maxspeed" v="60"/>
    <tag k="name" v="O&apos;Dea Avenue"/>
    <tag k="source" v="survey"/>
  </way>
  <way id="49537515" version="2" timestamp="2010-10-19T13:00:56Z" uid="7617" user="Franc" changeset="6098994">
    <nd ref="629685041"/>
    <nd ref="957049078"/>
    <nd ref="178366492"/>
    <nd ref="622787550"/>
    <nd ref="18448999"/>
    <nd ref="18449002"/>
    <nd ref="178367109"/>
    <nd ref="18449008"/>
    <tag k="cycleway" v="lane"/>
    <tag k="highway" v="secondary"/>
    <tag k="maxspeed" v="60"/>
    <tag k="name" v="Todman Avenue"/>
    <tag k="oneway" v="yes"/>
  </way>
  <way id="49537515" version="3" timestamp="2011-03-20T18:48:53Z" uid="47419" user="ploppy" changeset="7620128">
    <nd ref="629685041"/>
    <nd ref="957049078"/>
    <nd ref="178366492"/>
    <nd ref="622787550"/>
    <nd ref="18448999"/>
    <nd ref="18449002"/>
    <nd ref="178367109"/>
    <nd ref="1210890189"/>
    <nd ref="18449008"/>
    <tag k="cycleway" v="lane"/>
    <tag k="highway" v="secondary"/>
    <tag k="maxspeed" v="60"/>
    <tag k="name" v="Todman Avenue"/>
    <tag k="oneway" v="yes"/>
  </way>
</osm>
