<?xml version='1.0' encoding='UTF-8'?>
<osm version="0.6" generator="libosmium/2.20.0">
  <way id="49619028" version="5" timestamp="2010-07-09T06:36:46Z" uid="74617" user="JohnSmith" changeset="5171134">
    <nd ref="631014124"/>
    <nd ref="632211152"/>
    <nd ref="631014126"/>
    <nd ref="631017110"/>
    <nd ref="631014129"/>
    <nd ref="631014132"/>
    <nd ref="253707974"/>
    <tag k="highway" v="residential"/>
    <tag k="maxspeed" v="50"/>
    <tag k="maxspeed:source" v="default residential speed limit in Australia"/>
    <tag k="name" v="Adare Court"/>
  </way>
  <way id="49619028" version="6" timestamp="2010-08-01T19:43:50Z" uid="151053" user="Didz" changeset="5374060">
    <nd ref="631014124"/>
    <nd ref="632211152"/>
    <nd ref="631014126"/>
    <nd ref="631017110"/>
    <nd ref="631014129"/>
    <nd ref="631014132"/>
    <nd ref="253707974"/>
    <tag k="highway" v="residential"/>
    <tag k="lanes" v="1"/>
    <tag k="maxspeed" v="50"/>
    <tag k="name" v="Adare Court"/>
  </way>
  <way id="49619028" version="7" timestamp="2010-10-09T14:14:27Z" uid="151053" user="Didz" changeset="5993517">
    <nd ref="631014124"/>
    <nd ref="632211152"/>
    <nd ref="631014126"/>
    <nd ref="631017110"/>
    <nd ref="631014129"/>
    <nd ref="631014132"/>
    <nd ref="253707974"/>
    <tag k="highway" v="residential"/>
    <tag k="lanes" v="1"/>
    <tag k="maxspeed" v="50"/>
    <tag k="name" v="Adare Court"/>
    <tag k="smoothness" v="intermediate"/>
  </way>
  <way id="49619028" version="8" timestamp="2010-10-10T03:05:25Z" uid="151053" user="Didz" changeset="5998594">
    <nd ref="631014124"/>
    <nd ref="632211152"/>
    <nd ref="631014126"/>
    <nd ref="631017110"/>
    <nd ref="631014129"/>
    <nd ref="631014132"/>
    <nd ref="253707974"/>
    <tag k="highway" v="residential"/>
    <tag k="lanes" v="1"/>
    <tag k="maxspeed" v="50"/>
    <tag k="name" v="Adare Court"/>
    <tag k="smoothness" v="intermediate"/>
    <tag k="surface" v="asphalt"/>
  </way>
  <way id="49619028" version="9" timestamp="2011-05-20T01:58:53Z" uid="151053" user="Didz" changeset="8194780">
    <nd ref="631014124"/>
    <nd ref="632211152"/>
    <nd ref="631014126"/>
    <nd ref="631017110"/>
    <nd ref="631014129"/>
    <nd ref="631014132"/>
    <nd ref="253707974"/>
    <tag k="access" v="yes"/>
    <tag k="highway" v="residential"/>
    <tag k="lanes" v="1"/>
    <tag k="maxspeed" v="50"/>
    <tag k="motor_vehicle" v="yes"/>
    <tag k="name" v="Adare Court"/>
    <tag k="oneway" v="no"/>
    <tag k="smoothness" v="intermediate"/>
    <tag k="surface" v="asphalt"/>
  </way>
  <way id="49619028" version="10" timestamp="2012-01-20T00:33:01Z" uid="147510" user="woodpeck_fixbot" changeset="10442006">
    <nd ref="631014124"/>
    <nd ref="632211152"/>
    <nd ref="631014126"/>
    <nd ref="631017110"/>
    <nd ref="631014129"/>
    <nd ref="631014132"/>
    <nd ref="253707974"/>
    <tag k="access" v="yes"/>
    <tag k="highway" v="residential"/>
    <tag k="lanes" v="1"/>
    <tag k="motor_vehicle" v="yes"/>
    <tag k="name" v="Adare Court"/>
    <tag k="oneway" v="no"/>
    <tag k="smoothness" v="intermediate"/>
    <tag k="surface" v="asphalt"/>
  </way>
  <way id="49619029" version="3" timestamp="2010-07-09T06:38:09Z" uid="74617" user="JohnSmith" changeset="5171134">
    <nd ref="497390156"/>
    <nd ref="631014138"/>
    <nd ref="631014139"/>
    <nd ref="631014143"/>
    <nd ref="631014146"/>
    <nd ref="632323305"/>
    <nd ref="631014126"/>
    <tag k="highway" v="residential"/>
    <tag k="maxspeed" v="50"/>
    <tag k="maxspeed:source" v="default residential speed limit in Australia"/>
    <tag k="name" v="Grady Way"/>
  </way>
  <way id="49619029" version="4" timestamp="2010-08-01T19:43:43Z" uid="151053" user="Didz" changeset="5374060">
    <nd ref="497390156"/>
    <nd ref="631014138"/>
    <nd ref="631014139"/>
    <nd ref="631014143"/>
    <nd ref="631014146"/>
    <nd ref="632323305"/>
    <nd ref="631014126"/>
    <tag k="highway" v="residential"/>
    <tag k="lanes" v="1"/>
    <tag k="maxspeed" v="50"/>
    <tag k="name" v="Grady Way"/>
  </way>
  <way id="49619029" version="5" timestamp="2010-09-09T07:45:22Z" uid="151053" user="Didz" changeset="5730404">
    <nd ref="497390156"/>
    <nd ref="631014138"/>
    <nd ref="631014143"/>
    <nd ref="631014146"/>
    <nd ref="632323305"/>
    <nd ref="631014126"/>
    <tag k="highway" v="residential"/>
    <tag k="lanes" v="1"/>
    <tag k="maxspeed" v="50"/>
    <tag k="name" v="Grady Way"/>
  </way>
  <way id="49619029" version="6" timestamp="2010-09-17T00:09:25Z" uid="151053" user="Didz" changeset="5800152">
    <nd ref="497390156"/>
    <nd ref="631014138"/>
    <nd ref="631014143"/>
    <nd ref="631014146"/>
    <nd ref="632323305"/>
    <nd ref="631014126"/>
    <tag k="highway" v="residential"/>
    <tag k="lanes" v="1"/>
    <tag k="maxspeed" v="50"/>
    <tag k="name" v="Grady Way"/>
    <tag k="note" v="Name changed from Sylvan Way as it does not connect to Sylvan Way to the west."/>
  </way>
  <way id="49619029" version="7" timestamp="2010-10-09T14:14:34Z" uid="151053" user="Didz" changeset="5993517">
    <nd ref="497390156"/>
    <nd ref="631014138"/>
    <nd ref="631014143"/>
    <nd ref="631014146"/>
    <nd ref="632323305"/>
    <nd ref="631014126"/>
    <tag k="highway" v="residential"/>
    <tag k="lanes" v="1"/>
    <tag k="maxspeed" v="50"/>
    <tag k="name" v="Grady Way"/>
    <tag k="note" v="Name changed from Sylvan Way as it does not connect to Sylvan Way to the west."/>
    <tag k="smoothness" v="intermediate"/>
  </way>
  <way id="49619029" version="8" timestamp="2010-10-10T03:05:18Z" uid="151053" user="Didz" changeset="5998594">
    <nd ref="497390156"/>
    <nd ref="631014138"/>
    <nd ref="631014143"/>
    <nd ref="631014146"/>
    <nd ref="632323305"/>
    <nd ref="631014126"/>
    <tag k="highway" v="residential"/>
    <tag k="lanes" v="1"/>
    <tag k="maxspeed" v="50"/>
    <tag k="name" v="Grady Way"/>
    <tag k="note" v="Name changed from Sylvan Way as it does not connect to Sylvan Way to the west."/>
    <tag k="smoothness" v="intermediate"/>
    <tag k="surface" v="asphalt"/>
  </way>
  <way id="49619029" version="9" timestamp="2010-10-10T08:38:00Z" uid="151053" user="Didz" changeset="5999610">
    <nd ref="497390156"/>
    <nd ref="631014138"/>
    <nd ref="943303508"/>
    <nd ref="631014143"/>
    <nd ref="631014146"/>
    <nd ref="632323305"/>
    <nd ref="631014126"/>
    <tag k="highway" v="residential"/>
    <tag k="lanes" v="1"/>
    <tag k="maxspeed" v="50"/>
    <tag k="name" v="Grady Way"/>
    <tag k="note" v="Name changed from Sylvan Way as it does not connect to Sylvan Way to the west."/>
    <tag k="smoothness" v="intermediate"/>
    <tag k="surface" v="asphalt"/>
  </way>
  <way id="49619029" version="10" timestamp="2011-05-20T01:58:53Z" uid="151053" user="Didz" changeset="8194780">
    <nd ref="497390156"/>
    <nd ref="631014138"/>
    <nd ref="943303508"/>
    <nd ref="631014143"/>
    <nd ref="631014146"/>
    <nd ref="632323305"/>
    <nd ref="631014126"/>
    <tag k="alt_name" v="Sylvan Way"/>
    <tag k="highway" v="residential"/>
    <tag k="lanes" v="1"/>
    <tag k="maxspeed" v="50"/>
    <tag k="name" v="Grady Way"/>
    <tag k="note" v="Name changed from Sylvan Way as it does not connect to Sylvan Way to the west."/>
    <tag k="old_name" v="Sylvan Way"/>
    <tag k="smoothness" v="intermediate"/>
    <tag k="surface" v="asphalt"/>
  </way>
  <way id="49619029" version="11" timestamp="2012-01-20T00:33:03Z" uid="147510" user="woodpeck_fixbot" changeset="10442006">
    <nd ref="497390156"/>
    <nd ref="631014138"/>
    <nd ref="943303508"/>
    <nd ref="631014143"/>
    <nd ref="631014146"/>
    <nd ref="632323305"/>
    <nd ref="631014126"/>
    <tag k="alt_name" v="Sylvan Way"/>
    <tag k="highway" v="residential"/>
    <tag k="lanes" v="1"/>
    <tag k="name" v="Grady Way"/>
    <tag k="note" v="Name changed from Sylvan Way as it does not connect to Sylvan Way to the west."/>
    <tag k="old_name" v="Sylvan Way"/>
    <tag k="smoothness" v="intermediate"/>
    <tag k="surface" v="asphalt"/>
  </way>
  <way id="49619033" version="4" timestamp="2010-07-09T06:35:17Z" uid="74617" user="JohnSmith" changeset="5171134">
    <nd ref="632211768"/>
    <nd ref="631014156"/>
    <nd ref="631014159"/>
    <nd ref="631014163"/>
    <nd ref="632211769"/>
    <nd ref="631014166"/>
    <tag k="highway" v="residential"/>
    <tag k="maxspeed" v="50"/>
    <tag k="maxspeed:source" v="default residential speed limit in Australia"/>
    <tag k="name" v="Clayton Drive"/>
  </way>
  <way id="49619033" version="5" timestamp="2010-08-01T19:43:39Z" uid="151053" user="Didz" changeset="5374060">
    <nd ref="632211768"/>
    <nd ref="631014156"/>
    <nd ref="631014159"/>
    <nd ref="631014163"/>
    <nd ref="632211769"/>
    <nd ref="631014166"/>
    <tag k="highway" v="residential"/>
    <tag k="lanes" v="1"/>
    <tag k="maxspeed" v="50"/>
    <tag k="name" v="Clayton Drive"/>
  </way>
  <way id="49619033" version="6" timestamp="2010-10-10T03:21:08Z" uid="151053" user="Didz" changeset="5998594">
    <nd ref="632211768"/>
    <nd ref="631014156"/>
    <nd ref="631014159"/>
    <nd ref="631014163"/>
    <nd ref="632211769"/>
    <nd ref="631014166"/>
    <tag k="highway" v="residential"/>
    <tag k="lanes" v="1"/>
    <tag k="maxspeed" v="50"/>
    <tag k="name" v="Clayton Drive"/>
    <tag k="surface" v="asphalt"/>
  </way>
  <way id="49619033" version="7" timestamp="2012-01-20T00:33:06Z" uid="147510" user="woodpeck_fixbot" changeset="10442006">
    <nd ref="632211768"/>
    <nd ref="631014156"/>
    <nd ref="631014159"/>
    <nd ref="631014163"/>
    <nd ref="632211769"/>
    <nd ref="631014166"/>
    <tag k="highway" v="residential"/>
    <tag k="lanes" v="1"/>
    <tag k="name" v="Clayton Drive"/>
    <tag k="surface" v="asphalt"/>
  </way>
  <way id="49619034" version="6" timestamp="2010-07-09T06:37:31Z" uid="74617" user="JohnSmith" changeset="5171134">
    <nd ref="631014129"/>
    <nd ref="632527174"/>
    <nd ref="632517947"/>
    <nd ref="632216034"/>
    <nd ref="631014170"/>
    <nd ref="632216035"/>
    <nd ref="631014174"/>
    <nd ref="631014177"/>
    <nd ref="631014159"/>
    <tag k="highway" v="residential"/>
    <tag k="maxspeed" v="50"/>
    <tag k="maxspeed:source" v="default residential speed limit in Australia"/>
    <tag k="name" v="Clayton Drive"/>
  </way>
  <way id="49619034" version="7" timestamp="2010-08-01T19:43:39Z" uid="151053" user="Didz" changeset="5374060">
    <nd ref="631014129"/>
    <nd ref="632527174"/>
    <nd ref="632517947"/>
    <nd ref="632216034"/>
    <nd ref="631014170"/>
    <nd ref="632216035"/>
    <nd ref="631014174"/>
    <nd ref="631014177"/>
    <nd ref="631014159"/>
    <tag k="highway" v="residential"/>
    <tag k="lanes" v="1"/>
    <tag k="maxspeed" v="50"/>
    <tag k="name" v="Clayton Drive"/>
  </way>
  <way id="49619034" version="8" timestamp="2010-10-10T03:05:26Z" uid="151053" user="Didz" changeset="5998594">
    <nd ref="631014129"/>
    <nd ref="632527174"/>
    <nd ref="632517947"/>
    <nd ref="632216034"/>
    <nd ref="631014170"/>
    <nd ref="632216035"/>
    <nd ref="631014174"/>
    <nd ref="631014177"/>
    <nd ref="631014159"/>
    <tag k="highway" v="residential"/>
    <tag k="lanes" v="1"/>
    <tag k="maxspeed" v="50"/>
    <tag k="name" v="Clayton Drive"/>
    <tag k="surface" v="asphalt"/>
  </way>
  <way id="49619034" version="9" timestamp="2012-01-20T00:33:07Z" uid="147510" user="woodpeck_fixbot" changeset="10442006">
    <nd ref="631014129"/>
    <nd ref="632527174"/>
    <nd ref="632517947"/>
    <nd ref="632216034"/>
    <nd ref="631014170"/>
    <nd ref="632216035"/>
    <nd ref="631014174"/>
    <nd ref="631014177"/>
    <nd ref="631014159"/>
    <tag k="highway" v="residential"/>
    <tag k="lanes" v="1"/>
    <tag k="name" v="Clayton Drive"/>
    <tag k="surface" v="asphalt"/>
  </way>
  <way id="49619193" version="7" timestamp="2010-07-09T06:39:32Z" uid="74617" user="JohnSmith" changeset="5171134">
    <nd ref="631033438"/>
    <nd ref="631829030"/>
    <nd ref="631829034"/>
    <nd ref="631829035"/>
    <nd ref="631829043"/>
    <nd ref="631829044"/>
    <nd ref="631829043"/>
    <nd ref="631829048"/>
    <nd ref="631829052"/>
    <nd ref="631831839"/>
    <nd ref="631033438"/>
    <nd ref="631017135"/>
    <nd ref="631017139"/>
    <nd ref="631831840"/>
    <nd ref="631017145"/>
    <tag k="highway" v="residential"/>
    <tag k="maxspeed" v="50"/>
    <tag k="maxspeed:source" v="default residential speed limit in Australia"/>
    <tag k="name" v="Woodland Court"/>
  </way>
  <way id="49619193" version="8" timestamp="2010-10-09T14:14:51Z" uid="151053" user="Didz" changeset="5993517">
    <nd ref="631033438"/>
    <nd ref="631829030"/>
    <nd ref="631829034"/>
    <nd ref="631829035"/>
    <nd ref="631829043"/>
    <nd ref="631829044"/>
    <nd ref="631829043"/>
    <nd ref="631829048"/>
    <nd ref="631829052"/>
    <nd ref="631831839"/>
    <nd ref="631033438"/>
    <nd ref="631017135"/>
    <nd ref="631017139"/>
    <nd ref="631831840"/>
    <nd ref="631017145"/>
    <tag k="highway" v="residential"/>
    <tag k="maxspeed" v="50"/>
    <tag k="maxspeed:source" v="default residential speed limit in Australia"/>
    <tag k="name" v="Woodland Court"/>
    <tag k="smoothness" v="intermediate"/>
  </way>
  <way id="49619193" version="9" timestamp="2010-10-10T03:05:20Z" uid="151053" user="Didz" changeset="5998594">
    <nd ref="631033438"/>
    <nd ref="631829030"/>
    <nd ref="631829034"/>
    <nd ref="631829035"/>
    <nd ref="631829043"/>
    <nd ref="631829044"/>
    <nd ref="631829043"/>
    <nd ref="631829048"/>
    <nd ref="631829052"/>
    <nd ref="631831839"/>
    <nd ref="631033438"/>
    <nd ref="631017135"/>
    <nd ref="631017139"/>
    <nd ref="631831840"/>
    <nd ref="631017145"/>
    <tag k="highway" v="residential"/>
    <tag k="maxspeed" v="50"/>
    <tag k="maxspeed:source" v="default residential speed limit in Australia"/>
    <tag k="name" v="Woodland Court"/>
    <tag k="smoothness" v="intermediate"/>
    <tag k="surface" v="asphalt"/>
  </way>
  <way id="49619193" version="10" timestamp="2010-10-10T05:00:13Z" uid="151053" user="Didz" changeset="5998763">
    <nd ref="631033438"/>
    <nd ref="631829030"/>
    <nd ref="631829034"/>
    <nd ref="631829035"/>
    <nd ref="631829043"/>
    <nd ref="631829044"/>
    <nd ref="631829043"/>
    <nd ref="631829048"/>
    <nd ref="631829052"/>
    <nd ref="631831839"/>
    <nd ref="631033438"/>
    <nd ref="631017135"/>
    <nd ref="631017139"/>
    <nd ref="631831840"/>
    <nd ref="631017145"/>
    <tag k="highway" v="residential"/>
    <tag k="lanes" v="1"/>
    <tag k="maxspeed" v="50"/>
    <tag k="maxspeed:source" v="default residential speed limit in Australia"/>
    <tag k="name" v="Woodland Court"/>
    <tag k="smoothness" v="intermediate"/>
    <tag k="surface" v="asphalt"/>
  </way>
  <way id="49619193" version="11" timestamp="2010-10-30T10:25:56Z" uid="110263" user="werner2101" changeset="6225319">
    <nd ref="631033438"/>
    <nd ref="631829030"/>
    <nd ref="631829034"/>
    <nd ref="631829035"/>
    <nd ref="631829043"/>
    <tag k="highway" v="residential"/>
    <tag k="lanes" v="1"/>
    <tag k="maxspeed" v="50"/>
    <tag k="maxspeed:source" v="default residential speed limit in Australia"/>
    <tag k="name" v="Woodland Court"/>
    <tag k="smoothness" v="intermediate"/>
    <tag k="surface" v="asphalt"/>
  </way>
  <way id="49619193" version="12" timestamp="2012-01-20T00:33:09Z" uid="147510" user="woodpeck_fixbot" changeset="10442006">
    <nd ref="631033438"/>
    <nd ref="631829030"/>
    <nd ref="631829034"/>
    <nd ref="631829035"/>
    <nd ref="631829043"/>
    <tag k="highway" v="residential"/>
    <tag k="lanes" v="1"/>
    <tag k="name" v="Woodland Court"/>
    <tag k="smoothness" v="intermediate"/>
    <tag k="surface" v="asphalt"/>
  </way>
  <way id="49619915" version="1" timestamp="2010-02-05T21:03:11Z" uid="33382" user="de_muur" changeset="3800683">
    <nd ref="197766461"/>
    <nd ref="197766655"/>
    <nd ref="104471330"/>
    <nd ref="29037426"/>
    <nd ref="631031054"/>
    <tag k="cycleway" v="track"/>
    <tag k="highway" v="unclassified"/>
    <tag k="maxspeed" v="50"/>
    <tag k="name" v="Hannoversche Straße"/>
    <tag k="surface" v="paved"/>
  </way>
  <way id="49619915" version="2" timestamp="2011-05-19T19:01:43Z" uid="45445" user="UScha" changeset="8192470">
    <nd ref="197766461"/>
    <nd ref="197766655"/>
    <nd ref="104471330"/>
    <nd ref="1291977618"/>
    <nd ref="29037426"/>
    <nd ref="631031054"/>
    <tag k="cycleway" v="track"/>
    <tag k="highway" v="unclassified"/>
    <tag k="maxspeed" v="50"/>
    <tag k="name" v="Hannoversche Straße"/>
    <tag k="surface" v="paved"/>
  </way>
  <way id="49619915" version="3" timestamp="2012-03-25T18:11:10Z" uid="445142" user="arco" changeset="11097984">
    <nd ref="197766461"/>
    <nd ref="197766655"/>
    <nd ref="1690681919"/>
    <nd ref="104471330"/>
    <nd ref="1291977618"/>
    <nd ref="29037426"/>
    <nd ref="631031054"/>
    <tag k="cycleway" v="track"/>
    <tag k="highway" v="unclassified"/>
    <tag k="maxspeed" v="50"/>
    <tag k="name" v="Hannoversche Straße"/>
    <tag k="surface" v="paved"/>
  </way>
</osm>
