<?xml version='1.0' encoding='UTF-8'?>
<osm version="0.6" generator="libosmium/2.20.0">
  <way id="49689024" version="1" timestamp="2010-02-06T14:39:46Z" uid="33382" user="de_muur" changeset="3805669">
    <nd ref="251541021"/>
    <nd ref="568247955"/>
    <tag k="embankment" v="yes"/>
    <tag k="foot" v="yes"/>
    <tag k="highway" v="cycleway"/>
    <tag k="surface" v="paved"/>
  </way>
  <way id="49689401" version="2" timestamp="2010-07-09T18:00:18Z" uid="74617" user="JohnSmith" changeset="5175636">
    <nd ref="274909081"/>
    <nd ref="274909082"/>
    <tag k="highway" v="residential"/>
    <tag k="maxspeed" v="50"/>
    <tag k="maxspeed:source" v="default residential speed limit in Australia"/>
    <tag k="name" v="Mallaig Place"/>
  </way>
  <way id="49689401" version="3" timestamp="2012-01-20T00:36:18Z" uid="147510" user="woodpeck_fixbot" changeset="10442006">
    <nd ref="274909081"/>
    <nd ref="274909082"/>
    <tag k="highway" v="residential"/>
    <tag k="name" v="Mallaig Place"/>
  </way>
  <way id="49689437" version="1" timestamp="2010-02-06T14:49:41Z" uid="8619" user="cetest" changeset="3805746">
    <nd ref="612972566"/>
    <nd ref="631638133"/>
    <tag k="highway" v="track"/>
  </way>
  <way id="49689438" version="1" timestamp="2010-02-06T14:49:41Z" uid="8619" user="cetest" changeset="3805746">
    <nd ref="631638180"/>
    <nd ref="631638196"/>
    <nd ref="631638243"/>
    <nd ref="631638226"/>
    <nd ref="631638180"/>
    <tag k="refugee" v="yes"/>
    <tag k="tourism" v="camp_site"/>
  </way>
  <way id="49689438" version="2" timestamp="2010-02-18T01:16:16Z" uid="79857" user="RDSantiago" changeset="3905927">
    <nd ref="631638180"/>
    <nd ref="631638196"/>
    <nd ref="631638243"/>
    <nd ref="631638226"/>
    <nd ref="631638180"/>
    <tag k="addr:country" v="HT"/>
    <tag k="refugee" v="yes"/>
    <tag k="tourism" v="camp_site"/>
  </way>
  <way id="49689438" version="3" timestamp="2010-08-25T17:48:01Z" uid="95488" user="wonderchook" changeset="5591761"/>
  <way id="49689439" version="1" timestamp="2010-02-06T14:49:42Z" uid="8619" user="cetest" changeset="3805746">
    <nd ref="631638307"/>
    <nd ref="631638291"/>
    <nd ref="631638346"/>
    <nd ref="631638328"/>
    <nd ref="631638280"/>
    <nd ref="631638263"/>
    <nd ref="631638307"/>
    <tag k="building" v="collapsed"/>
    <tag k="source" v="GeoEye"/>
  </way>
  <way id="49689439" version="2" timestamp="2012-03-27T01:06:31Z" uid="24440" user="jaakkoh" changeset="11112005"/>
  <way id="49689763" version="2" timestamp="2010-03-22T07:36:20Z" uid="20587" user="balrog-kun" changeset="4199043">
    <nd ref="631651871"/>
    <nd ref="631651875"/>
    <tag k="bridge" v="yes"/>
    <tag k="highway" v="secondary"/>
    <tag k="layer" v="1"/>
    <tag k="name" v="Pacific Boulevard Southwest"/>
    <tag k="name_1" v="State Highway 99E"/>
    <tag k="tiger:cfcc" v="A31"/>
    <tag k="tiger:county" v="Linn, OR"/>
    <tag k="tiger:name_base" v="Pacific"/>
    <tag k="tiger:name_base_1" v="State Highway 99E"/>
    <tag k="tiger:name_direction_suffix" v="SW"/>
    <tag k="tiger:reviewed" v="no"/>
    <tag k="tiger:separated" v="no"/>
    <tag k="tiger:source" v="tiger_import_dch_v0.6_20070808"/>
    <tag k="tiger:tlid" v="156070632"/>
  </way>
  <way id="49689763" version="3" timestamp="2010-12-15T05:10:01Z" uid="373763" user="ylekot" changeset="6664609">
    <nd ref="631651871"/>
    <nd ref="631651875"/>
    <tag k="bridge" v="yes"/>
    <tag k="highway" v="primary"/>
    <tag k="layer" v="1"/>
    <tag k="name" v="Pacific Boulevard Southwest"/>
    <tag k="name_1" v="State Highway 99E"/>
    <tag k="tiger:cfcc" v="A31"/>
    <tag k="tiger:county" v="Linn, OR"/>
    <tag k="tiger:name_base" v="Pacific"/>
    <tag k="tiger:name_base_1" v="State Highway 99E"/>
    <tag k="tiger:name_direction_suffix" v="SW"/>
    <tag k="tiger:reviewed" v="no"/>
    <tag k="tiger:separated" v="no"/>
    <tag k="tiger:source" v="tiger_import_dch_v0.6_20070808"/>
    <tag k="tiger:tlid" v="156070632"/>
  </way>
  <way id="49689763" version="4" timestamp="2011-02-04T05:06:37Z" uid="373763" user="ylekot" changeset="7179988">
    <nd ref="631651871"/>
    <nd ref="631651875"/>
    <tag k="alt_name" v="Albany-Junction City Highway #58"/>
    <tag k="bridge" v="yes"/>
    <tag k="highway" v="primary"/>
    <tag k="layer" v="1"/>
    <tag k="name" v="Pacific Boulevard Southwest"/>
    <tag k="name_1" v="State Highway 99E"/>
    <tag k="old_name" v="Pacific Highway"/>
    <tag k="old_ref" v="US 99E"/>
    <tag k="tiger:cfcc" v="A31"/>
    <tag k="tiger:county" v="Linn, OR"/>
    <tag k="tiger:name_base" v="Pacific"/>
    <tag k="tiger:name_base_1" v="State Highway 99E"/>
    <tag k="tiger:name_direction_suffix" v="SW"/>
    <tag k="tiger:reviewed" v="no"/>
    <tag k="tiger:separated" v="no"/>
    <tag k="tiger:source" v="tiger_import_dch_v0.6_20070808"/>
    <tag k="tiger:tlid" v="156070632"/>
  </way>
  <way id="49689763" version="5" timestamp="2011-06-11T11:19:00Z" uid="207745" user="NE2" changeset="8404776">
    <nd ref="631651871"/>
    <nd ref="631651875"/>
    <tag k="alt_name" v="Albany-Junction City Highway #58"/>
    <tag k="bridge" v="yes"/>
    <tag k="highway" v="trunk"/>
    <tag k="lanes" v="3"/>
    <tag k="layer" v="1"/>
    <tag k="name" v="Pacific Boulevard Southwest"/>
    <tag k="note:lanes" v="1 northbound, 2 southbound"/>
    <tag k="old_name" v="Pacific Highway"/>
    <tag k="old_ref" v="US 99E"/>
    <tag k="tiger:cfcc" v="A31"/>
    <tag k="tiger:county" v="Linn, OR"/>
    <tag k="tiger:name_base" v="Pacific"/>
    <tag k="tiger:name_base_1" v="State Highway 99E"/>
    <tag k="tiger:name_direction_suffix" v="SW"/>
    <tag k="tiger:reviewed" v="no"/>
    <tag k="tiger:separated" v="no"/>
    <tag k="tiger:source" v="tiger_import_dch_v0.6_20070808"/>
    <tag k="tiger:tlid" v="156070632"/>
  </way>
  <way id="49689763" version="6" timestamp="2011-08-07T22:06:12Z" uid="478161" user="MapJunkie" changeset="8952489">
    <nd ref="631651871"/>
    <nd ref="631651875"/>
    <tag k="alt_name" v="Albany-Junction City Highway #58"/>
    <tag k="bridge" v="yes"/>
    <tag k="highway" v="primary"/>
    <tag k="lanes" v="3"/>
    <tag k="layer" v="1"/>
    <tag k="name" v="Pacific Boulevard Southwest"/>
    <tag k="note:lanes" v="1 northbound, 2 southbound"/>
    <tag k="old_name" v="Pacific Highway"/>
    <tag k="old_ref" v="US 99E"/>
    <tag k="tiger:cfcc" v="A31"/>
    <tag k="tiger:county" v="Linn, OR"/>
    <tag k="tiger:name_base" v="Pacific"/>
    <tag k="tiger:name_base_1" v="State Highway 99E"/>
    <tag k="tiger:name_direction_suffix" v="SW"/>
    <tag k="tiger:reviewed" v="no"/>
    <tag k="tiger:separated" v="no"/>
    <tag k="tiger:source" v="tiger_import_dch_v0.6_20070808"/>
    <tag k="tiger:tlid" v="156070632"/>
  </way>
  <way id="49689763" version="7" timestamp="2011-11-25T17:15:22Z" uid="207745" user="NE2" changeset="9945867">
    <nd ref="631651871"/>
    <nd ref="631651875"/>
    <tag k="alt_name" v="Albany-Junction City Highway #58"/>
    <tag k="bridge" v="yes"/>
    <tag k="hgv" v="designated"/>
    <tag k="hgv:national_network" v="yes"/>
    <tag k="highway" v="primary"/>
    <tag k="lanes" v="3"/>
    <tag k="layer" v="1"/>
    <tag k="name" v="Pacific Boulevard Southwest"/>
    <tag k="note:lanes" v="1 northbound, 2 southbound"/>
    <tag k="old_name" v="Pacific Highway"/>
    <tag k="old_ref" v="US 99E"/>
    <tag k="ref" v="OR 99E"/>
    <tag k="source:hgv:national_network" v="Title 23: Highways Part 658 http://ecfr.gpoaccess.gov/cgi/t/text/text-idx?c=ecfr&amp;rgn=div5&amp;view=text&amp;node=23:1.0.1.7.33&amp;idno=23"/>
    <tag k="tiger:cfcc" v="A31"/>
    <tag k="tiger:county" v="Linn, OR"/>
    <tag k="tiger:name_base" v="Pacific"/>
    <tag k="tiger:name_base_1" v="State Highway 99E"/>
    <tag k="tiger:name_direction_suffix" v="SW"/>
    <tag k="tiger:reviewed" v="no"/>
    <tag k="tiger:separated" v="no"/>
    <tag k="tiger:source" v="tiger_import_dch_v0.6_20070808"/>
    <tag k="tiger:tlid" v="156070632"/>
  </way>
  <way id="49689764" version="2" timestamp="2010-03-22T07:36:20Z" uid="20587" user="balrog-kun" changeset="4199043">
    <nd ref="631651875"/>
    <nd ref="631651889"/>
    <nd ref="631651893"/>
    <nd ref="631651897"/>
    <nd ref="631651900"/>
    <nd ref="631651706"/>
    <tag k="highway" v="secondary"/>
    <tag k="name" v="Pacific Boulevard Southwest"/>
    <tag k="name_1" v="State Highway 99E"/>
    <tag k="tiger:cfcc" v="A31"/>
    <tag k="tiger:county" v="Linn, OR"/>
    <tag k="tiger:name_base" v="Pacific"/>
    <tag k="tiger:name_base_1" v="State Highway 99E"/>
    <tag k="tiger:name_direction_suffix" v="SW"/>
    <tag k="tiger:reviewed" v="no"/>
    <tag k="tiger:separated" v="no"/>
    <tag k="tiger:source" v="tiger_import_dch_v0.6_20070808"/>
    <tag k="tiger:tlid" v="156070632"/>
  </way>
  <way id="49689764" version="3" timestamp="2010-12-15T05:10:01Z" uid="373763" user="ylekot" changeset="6664609">
    <nd ref="631651875"/>
    <nd ref="631651889"/>
    <nd ref="631651893"/>
    <nd ref="631651897"/>
    <nd ref="631651900"/>
    <nd ref="631651706"/>
    <tag k="highway" v="primary"/>
    <tag k="name" v="Pacific Boulevard Southwest"/>
    <tag k="name_1" v="State Highway 99E"/>
    <tag k="ref" v="OR 99E"/>
    <tag k="tiger:cfcc" v="A31"/>
    <tag k="tiger:county" v="Linn, OR"/>
    <tag k="tiger:name_base" v="Pacific"/>
    <tag k="tiger:name_base_1" v="State Highway 99E"/>
    <tag k="tiger:name_direction_suffix" v="SW"/>
    <tag k="tiger:reviewed" v="no"/>
    <tag k="tiger:separated" v="no"/>
    <tag k="tiger:source" v="tiger_import_dch_v0.6_20070808"/>
    <tag k="tiger:tlid" v="156070632"/>
  </way>
  <way id="49689764" version="4" timestamp="2011-02-04T04:40:04Z" uid="373763" user="ylekot" changeset="7179988">
    <nd ref="631651875"/>
    <nd ref="631651889"/>
    <nd ref="631651893"/>
    <nd ref="631651897"/>
    <nd ref="631651900"/>
    <nd ref="631651706"/>
    <nd ref="631651702"/>
    <tag k="highway" v="primary"/>
    <tag k="name" v="Pacific Boulevard Southwest"/>
    <tag k="name_1" v="State Highway 99E"/>
    <tag k="ref" v="OR 99E"/>
    <tag k="tiger:cfcc" v="A31"/>
    <tag k="tiger:county" v="Linn, OR"/>
    <tag k="tiger:name_base" v="Pacific"/>
    <tag k="tiger:name_base_1" v="State Highway 99E"/>
    <tag k="tiger:name_direction_suffix" v="SW"/>
    <tag k="tiger:reviewed" v="no"/>
    <tag k="tiger:separated" v="no"/>
    <tag k="tiger:source" v="tiger_import_dch_v0.6_20070808"/>
    <tag k="tiger:tlid" v="156070632"/>
  </way>
  <way id="49689764" version="5" timestamp="2011-02-04T04:42:22Z" uid="373763" user="ylekot" changeset="7179988">
    <nd ref="631651875"/>
    <nd ref="631651889"/>
    <nd ref="631651893"/>
    <nd ref="631651897"/>
    <nd ref="631651900"/>
    <nd ref="631651706"/>
    <nd ref="631651702"/>
    <tag k="alt_name" v="Albany-Junction City Highway #58"/>
    <tag k="highway" v="primary"/>
    <tag k="name" v="Pacific Boulevard Southwest"/>
    <tag k="name_1" v="State Highway 99E"/>
    <tag k="old_name" v="Pacific Highway"/>
    <tag k="old_ref" v="US 99E"/>
    <tag k="ref" v="OR 99E"/>
    <tag k="tiger:cfcc" v="A31"/>
    <tag k="tiger:county" v="Linn, OR"/>
    <tag k="tiger:name_base" v="Pacific"/>
    <tag k="tiger:name_base_1" v="State Highway 99E"/>
    <tag k="tiger:name_direction_suffix" v="SW"/>
    <tag k="tiger:reviewed" v="no"/>
    <tag k="tiger:separated" v="no"/>
    <tag k="tiger:source" v="tiger_import_dch_v0.6_20070808"/>
    <tag k="tiger:tlid" v="156070632"/>
  </way>
  <way id="49689764" version="6" timestamp="2011-06-11T10:57:22Z" uid="207745" user="NE2" changeset="8404776">
    <nd ref="631651875"/>
    <nd ref="631651889"/>
    <nd ref="631651893"/>
    <nd ref="631651897"/>
    <nd ref="631651900"/>
    <nd ref="631651706"/>
    <nd ref="631651702"/>
    <tag k="alt_name" v="Albany-Junction City Highway #58"/>
    <tag k="highway" v="trunk"/>
    <tag k="lanes" v="3"/>
    <tag k="name" v="Pacific Boulevard Southwest"/>
    <tag k="note:lanes" v="1 northbound, 2 southbound"/>
    <tag k="old_name" v="Pacific Highway"/>
    <tag k="old_ref" v="US 99E"/>
    <tag k="ref" v="OR 99E"/>
    <tag k="tiger:cfcc" v="A31"/>
    <tag k="tiger:county" v="Linn, OR"/>
    <tag k="tiger:name_base" v="Pacific"/>
    <tag k="tiger:name_base_1" v="State Highway 99E"/>
    <tag k="tiger:name_direction_suffix" v="SW"/>
    <tag k="tiger:reviewed" v="no"/>
    <tag k="tiger:separated" v="no"/>
    <tag k="tiger:source" v="tiger_import_dch_v0.6_20070808"/>
    <tag k="tiger:tlid" v="156070632"/>
  </way>
  <way id="49689764" version="7" timestamp="2011-08-07T22:06:12Z" uid="478161" user="MapJunkie" changeset="8952489">
    <nd ref="631651875"/>
    <nd ref="631651889"/>
    <nd ref="631651893"/>
    <nd ref="631651897"/>
    <nd ref="631651900"/>
    <nd ref="631651706"/>
    <nd ref="631651702"/>
    <tag k="alt_name" v="Albany-Junction City Highway #58"/>
    <tag k="highway" v="primary"/>
    <tag k="lanes" v="3"/>
    <tag k="name" v="Pacific Boulevard Southwest"/>
    <tag k="note:lanes" v="1 northbound, 2 southbound"/>
    <tag k="old_name" v="Pacific Highway"/>
    <tag k="old_ref" v="US 99E"/>
    <tag k="ref" v="OR 99E"/>
    <tag k="tiger:cfcc" v="A31"/>
    <tag k="tiger:county" v="Linn, OR"/>
    <tag k="tiger:name_base" v="Pacific"/>
    <tag k="tiger:name_base_1" v="State Highway 99E"/>
    <tag k="tiger:name_direction_suffix" v="SW"/>
    <tag k="tiger:reviewed" v="no"/>
    <tag k="tiger:separated" v="no"/>
    <tag k="tiger:source" v="tiger_import_dch_v0.6_20070808"/>
    <tag k="tiger:tlid" v="156070632"/>
  </way>
  <way id="49689764" version="8" timestamp="2011-09-09T04:24:59Z" uid="478161" user="MapJunkie" changeset="9251093">
    <nd ref="631651875"/>
    <nd ref="631651889"/>
    <nd ref="631651893"/>
    <nd ref="631651897"/>
    <nd ref="631651900"/>
    <nd ref="631651706"/>
    <nd ref="631651702"/>
    <tag k="alt_name" v="Albany-Junction City Highway #58"/>
    <tag k="cycleway" v="lane"/>
    <tag k="highway" v="primary"/>
    <tag k="lanes" v="3"/>
    <tag k="name" v="Pacific Boulevard Southwest"/>
    <tag k="note:lanes" v="1 northbound, 2 southbound"/>
    <tag k="old_name" v="Pacific Highway"/>
    <tag k="old_ref" v="US 99E"/>
    <tag k="ref" v="OR 99E"/>
    <tag k="tiger:cfcc" v="A31"/>
    <tag k="tiger:county" v="Linn, OR"/>
    <tag k="tiger:name_base" v="Pacific"/>
    <tag k="tiger:name_base_1" v="State Highway 99E"/>
    <tag k="tiger:name_direction_suffix" v="SW"/>
    <tag k="tiger:reviewed" v="no"/>
    <tag k="tiger:separated" v="no"/>
    <tag k="tiger:source" v="tiger_import_dch_v0.6_20070808"/>
    <tag k="tiger:tlid" v="156070632"/>
  </way>
  <way id="49689764" version="9" timestamp="2011-11-25T17:15:27Z" uid="207745" user="NE2" changeset="9945867">
    <nd ref="631651875"/>
    <nd ref="631651889"/>
    <nd ref="631651893"/>
    <nd ref="631651897"/>
    <nd ref="631651900"/>
    <nd ref="631651706"/>
    <nd ref="631651702"/>
    <tag k="alt_name" v="Albany-Junction City Highway #58"/>
    <tag k="cycleway" v="lane"/>
    <tag k="hgv" v="designated"/>
    <tag k="hgv:national_network" v="yes"/>
    <tag k="highway" v="primary"/>
    <tag k="lanes" v="3"/>
    <tag k="name" v="Pacific Boulevard Southwest"/>
    <tag k="note:lanes" v="1 northbound, 2 southbound"/>
    <tag k="old_name" v="Pacific Highway"/>
    <tag k="old_ref" v="US 99E"/>
    <tag k="ref" v="OR 99E"/>
    <tag k="source:hgv:national_network" v="Title 23: Highways Part 658 http://ecfr.gpoaccess.gov/cgi/t/text/text-idx?c=ecfr&amp;rgn=div5&amp;view=text&amp;node=23:1.0.1.7.33&amp;idno=23"/>
    <tag k="tiger:cfcc" v="A31"/>
    <tag k="tiger:county" v="Linn, OR"/>
    <tag k="tiger:name_base" v="Pacific"/>
    <tag k="tiger:name_base_1" v="State Highway 99E"/>
    <tag k="tiger:name_direction_suffix" v="SW"/>
    <tag k="tiger:reviewed" v="no"/>
    <tag k="tiger:separated" v="no"/>
    <tag k="tiger:source" v="tiger_import_dch_v0.6_20070808"/>
    <tag k="tiger:tlid" v="156070632"/>
  </way>
  <way id="49689948" version="1" timestamp="2010-02-06T14:59:10Z" uid="59758" user="rendle" changeset="3805817">
    <nd ref="631653617"/>
    <nd ref="631653618"/>
    <nd ref="631653619"/>
    <nd ref="631653621"/>
    <nd ref="631653623"/>
    <nd ref="631653625"/>
    <nd ref="631653627"/>
    <nd ref="631653629"/>
    <nd ref="631653631"/>
    <nd ref="631653632"/>
    <nd ref="631653633"/>
    <nd ref="631653634"/>
    <nd ref="631653636"/>
    <nd ref="631653638"/>
    <nd ref="631653639"/>
    <nd ref="631653640"/>
    <nd ref="631653641"/>
    <nd ref="631653642"/>
    <nd ref="631653643"/>
    <nd ref="631653644"/>
    <nd ref="631653645"/>
    <nd ref="631653646"/>
    <nd ref="631653647"/>
    <nd ref="631653648"/>
    <nd ref="631653649"/>
    <nd ref="631653650"/>
    <nd ref="631653651"/>
    <nd ref="631653652"/>
    <nd ref="631653653"/>
    <nd ref="631653654"/>
  </way>
  <way id="49689948" version="2" timestamp="2010-02-06T15:01:20Z" uid="59758" user="rendle" changeset="3805817">
    <nd ref="631653654"/>
    <nd ref="631655171"/>
    <nd ref="631655174"/>
    <nd ref="631655177"/>
    <nd ref="631655179"/>
    <nd ref="631655182"/>
    <nd ref="631655184"/>
    <nd ref="631655186"/>
    <nd ref="631655189"/>
    <nd ref="631655191"/>
    <nd ref="631655193"/>
    <nd ref="631655196"/>
    <nd ref="631655203"/>
    <nd ref="631655206"/>
    <nd ref="631655208"/>
    <nd ref="631655211"/>
    <nd ref="631655213"/>
    <nd ref="631655216"/>
    <nd ref="631655219"/>
    <nd ref="631655222"/>
    <nd ref="631655225"/>
    <nd ref="631655227"/>
    <nd ref="631655230"/>
    <nd ref="631655232"/>
    <nd ref="631655235"/>
    <nd ref="631655242"/>
    <nd ref="631655244"/>
    <nd ref="631655247"/>
    <nd ref="631655249"/>
    <nd ref="631655252"/>
    <nd ref="631655254"/>
    <nd ref="631655257"/>
    <nd ref="631655260"/>
    <nd ref="631655263"/>
    <nd ref="631655266"/>
    <nd ref="631653617"/>
    <nd ref="631653618"/>
    <nd ref="631653619"/>
    <nd ref="631653621"/>
    <nd ref="631653623"/>
    <nd ref="631653625"/>
    <nd ref="631653627"/>
    <nd ref="631653629"/>
    <nd ref="631653631"/>
    <nd ref="631653632"/>
    <nd ref="631653633"/>
    <nd ref="631653634"/>
    <nd ref="631653636"/>
    <nd ref="631653638"/>
    <nd ref="631653639"/>
    <nd ref="631653640"/>
    <nd ref="631653641"/>
    <nd ref="631653642"/>
    <nd ref="631653643"/>
    <nd ref="631653644"/>
    <nd ref="631653645"/>
    <nd ref="631653646"/>
    <nd ref="631653647"/>
    <nd ref="631653648"/>
    <nd ref="631653649"/>
    <nd ref="631653650"/>
    <nd ref="631653651"/>
    <nd ref="631653652"/>
    <nd ref="631653653"/>
    <nd ref="631653654"/>
    <tag k="natural" v="scrub"/>
    <tag k="source" v="GeoEye"/>
  </way>
  <way id="49689948" version="3" timestamp="2010-03-30T05:22:48Z" uid="149876" user="dbusse" changeset="4273551">
    <nd ref="631655174"/>
    <nd ref="631655177"/>
    <nd ref="631655179"/>
    <nd ref="631655182"/>
    <nd ref="631655184"/>
    <nd ref="631655186"/>
    <nd ref="631655189"/>
    <nd ref="631655191"/>
    <nd ref="631655193"/>
    <nd ref="631655196"/>
    <nd ref="631655203"/>
    <nd ref="631655206"/>
    <nd ref="631655208"/>
    <nd ref="631655211"/>
    <nd ref="631655213"/>
    <nd ref="631655216"/>
    <nd ref="631655219"/>
    <nd ref="631655222"/>
    <nd ref="631655225"/>
    <nd ref="631655227"/>
    <nd ref="631655230"/>
    <nd ref="631655232"/>
    <nd ref="631655235"/>
    <nd ref="631655242"/>
    <nd ref="631655244"/>
    <nd ref="631655247"/>
    <nd ref="631655249"/>
    <nd ref="631655252"/>
    <nd ref="631655254"/>
    <nd ref="631655257"/>
    <nd ref="631655260"/>
    <nd ref="631655263"/>
    <nd ref="631655266"/>
    <nd ref="631653617"/>
    <nd ref="631653618"/>
    <nd ref="631653619"/>
    <nd ref="631653621"/>
    <nd ref="631653623"/>
    <nd ref="631653625"/>
    <nd ref="631653627"/>
    <nd ref="631653629"/>
    <nd ref="631653631"/>
    <nd ref="631653632"/>
    <nd ref="631653633"/>
    <nd ref="631653634"/>
    <nd ref="631653636"/>
    <nd ref="631653638"/>
    <nd ref="631653639"/>
    <nd ref="631653640"/>
    <nd ref="631653641"/>
    <nd ref="631653642"/>
    <nd ref="631653643"/>
    <nd ref="631653644"/>
    <nd ref="631653645"/>
    <nd ref="631653646"/>
    <nd ref="631653647"/>
    <nd ref="631653648"/>
    <nd ref="631653649"/>
    <nd ref="631653650"/>
    <nd ref="631653651"/>
    <nd ref="631653652"/>
    <nd ref="631655174"/>
    <tag k="natural" v="scrub"/>
    <tag k="source" v="GeoEye"/>
  </way>
</osm>
