<?xml version='1.0' encoding='UTF-8'?>
<osm version="0.6" generator="libosmium/2.20.0">
  <way id="49843309" version="2" timestamp="2010-02-15T12:17:52Z" uid="74617" user="JohnSmith" changeset="3882541">
    <nd ref="569894938"/>
    <nd ref="569894942"/>
    <nd ref="569894943"/>
    <nd ref="569894948"/>
    <tag k="highway" v="residential"/>
    <tag k="maxspeed" v="50"/>
    <tag k="name" v="Hoskins Drive"/>
    <tag k="source" v="nearmap"/>
  </way>
  <way id="49843309" version="3" timestamp="2012-01-20T00:44:23Z" uid="147510" user="woodpeck_fixbot" changeset="10442006">
    <nd ref="569894938"/>
    <nd ref="569894942"/>
    <nd ref="569894943"/>
    <nd ref="569894948"/>
    <tag k="highway" v="residential"/>
    <tag k="name" v="Hoskins Drive"/>
    <tag k="source" v="nearmap"/>
  </way>
  <way id="49843454" version="2" timestamp="2010-02-15T12:17:51Z" uid="74617" user="JohnSmith" changeset="3882541">
    <nd ref="569894960"/>
    <nd ref="268926897"/>
    <nd ref="268926898"/>
    <nd ref="268926899"/>
    <nd ref="268926900"/>
    <nd ref="268926901"/>
    <nd ref="268926902"/>
    <nd ref="268926903"/>
    <nd ref="268926904"/>
    <nd ref="268926905"/>
    <nd ref="569894944"/>
    <tag k="highway" v="residential"/>
    <tag k="maxspeed" v="50"/>
    <tag k="name" v="Bellevista Crescent"/>
  </way>
  <way id="49843454" version="3" timestamp="2012-01-20T00:44:24Z" uid="147510" user="woodpeck_fixbot" changeset="10442006">
    <nd ref="569894960"/>
    <nd ref="268926897"/>
    <nd ref="268926898"/>
    <nd ref="268926899"/>
    <nd ref="268926900"/>
    <nd ref="268926901"/>
    <nd ref="268926902"/>
    <nd ref="268926903"/>
    <nd ref="268926904"/>
    <nd ref="268926905"/>
    <nd ref="569894944"/>
    <tag k="highway" v="residential"/>
    <tag k="name" v="Bellevista Crescent"/>
  </way>
  <way id="49843455" version="2" timestamp="2010-02-15T12:17:52Z" uid="74617" user="JohnSmith" changeset="3882541">
    <nd ref="569894955"/>
    <nd ref="569894956"/>
    <tag k="highway" v="residential"/>
    <tag k="maxspeed" v="50"/>
    <tag k="name" v="Maria court"/>
    <tag k="source" v="nearmap"/>
  </way>
  <way id="49843455" version="3" timestamp="2012-01-20T00:44:26Z" uid="147510" user="woodpeck_fixbot" changeset="10442006">
    <nd ref="569894955"/>
    <nd ref="569894956"/>
    <tag k="highway" v="residential"/>
    <tag k="name" v="Maria court"/>
    <tag k="source" v="nearmap"/>
  </way>
</osm>
