<?xml version='1.0' encoding='UTF-8'?>
<osm version="0.6" generator="libosmium/2.20.0">
  <way id="49930872" version="2" timestamp="2010-06-01T08:23:13Z" uid="4467" user="Rosscoe" changeset="4872615">
    <nd ref="634524195"/>
    <nd ref="634524117"/>
    <tag k="highway" v="residential"/>
    <tag k="name" v="Cedar Street"/>
    <tag k="surface" v="paved"/>
  </way>
  <way id="49930872" version="3" timestamp="2011-10-03T05:05:03Z" uid="237525" user="aharvey" changeset="9456735">
    <nd ref="634524195"/>
    <nd ref="634524117"/>
    <tag k="highway" v="residential"/>
    <tag k="maxspeed" v="50"/>
    <tag k="name" v="Cedar Street"/>
    <tag k="source:maxspeed" v="default residential speed limit in Australia"/>
    <tag k="surface" v="paved"/>
  </way>
  <way id="49930876" version="4" timestamp="2010-06-02T08:00:52Z" uid="4467" user="Rosscoe" changeset="4881676">
    <nd ref="634524112"/>
    <nd ref="636081607"/>
    <nd ref="634524204"/>
    <nd ref="634524117"/>
    <nd ref="634524194"/>
    <nd ref="634524198"/>
    <nd ref="634524228"/>
    <nd ref="634524216"/>
    <nd ref="225137885"/>
    <tag k="highway" v="residential"/>
    <tag k="name" v="Waratah Street"/>
  </way>
  <way id="49930876" version="5" timestamp="2011-03-30T06:41:10Z" uid="4467" user="Rosscoe" changeset="7713279">
    <nd ref="634524112"/>
    <nd ref="636081607"/>
    <nd ref="634524204"/>
    <nd ref="634524117"/>
    <nd ref="634524194"/>
    <nd ref="634524198"/>
    <nd ref="634524216"/>
    <nd ref="634524115"/>
    <nd ref="225137885"/>
    <tag k="highway" v="residential"/>
    <tag k="name" v="Waratah Street"/>
  </way>
  <way id="49930876" version="6" timestamp="2011-10-03T05:05:05Z" uid="237525" user="aharvey" changeset="9456735">
    <nd ref="634524112"/>
    <nd ref="636081607"/>
    <nd ref="634524204"/>
    <nd ref="634524117"/>
    <nd ref="634524194"/>
    <nd ref="634524198"/>
    <nd ref="634524216"/>
    <nd ref="634524115"/>
    <nd ref="225137885"/>
    <tag k="highway" v="residential"/>
    <tag k="maxspeed" v="50"/>
    <tag k="name" v="Waratah Street"/>
    <tag k="source:maxspeed" v="default residential speed limit in Australia"/>
  </way>
  <way id="49930883" version="2" timestamp="2010-06-02T04:51:06Z" uid="4467" user="Rosscoe" changeset="4880669">
    <nd ref="634524198"/>
    <nd ref="634524196"/>
    <nd ref="634524214"/>
    <tag k="highway" v="residential"/>
    <tag k="name" v="Poplar Street"/>
    <tag k="surface" v="paved"/>
  </way>
  <way id="49930883" version="3" timestamp="2011-10-03T05:05:04Z" uid="237525" user="aharvey" changeset="9456735">
    <nd ref="634524198"/>
    <nd ref="634524196"/>
    <nd ref="634524214"/>
    <tag k="highway" v="residential"/>
    <tag k="maxspeed" v="50"/>
    <tag k="name" v="Poplar Street"/>
    <tag k="source:maxspeed" v="default residential speed limit in Australia"/>
    <tag k="surface" v="paved"/>
  </way>
  <way id="49930887" version="2" timestamp="2010-06-02T08:02:04Z" uid="4467" user="Rosscoe" changeset="4881676">
    <nd ref="634524138"/>
    <nd ref="634524194"/>
    <tag k="highway" v="residential"/>
    <tag k="name" v="Willow Street"/>
  </way>
  <way id="49930887" version="3" timestamp="2011-10-03T05:05:05Z" uid="237525" user="aharvey" changeset="9456735">
    <nd ref="634524138"/>
    <nd ref="634524194"/>
    <tag k="highway" v="residential"/>
    <tag k="maxspeed" v="50"/>
    <tag k="name" v="Willow Street"/>
    <tag k="source:maxspeed" v="default residential speed limit in Australia"/>
  </way>
  <way id="49930888" version="2" timestamp="2010-06-01T08:06:43Z" uid="4467" user="Rosscoe" changeset="4872520">
    <nd ref="634524216"/>
    <nd ref="634524212"/>
    <nd ref="634524213"/>
    <tag k="highway" v="residential"/>
    <tag k="name" v="Jacaranda Avenue"/>
    <tag k="surface" v="paved"/>
  </way>
  <way id="49930888" version="3" timestamp="2011-10-03T05:05:04Z" uid="237525" user="aharvey" changeset="9456735">
    <nd ref="634524216"/>
    <nd ref="634524212"/>
    <nd ref="634524213"/>
    <tag k="highway" v="residential"/>
    <tag k="maxspeed" v="50"/>
    <tag k="name" v="Jacaranda Avenue"/>
    <tag k="source:maxspeed" v="default residential speed limit in Australia"/>
    <tag k="surface" v="paved"/>
  </way>
  <way id="49930890" version="2" timestamp="2010-06-02T03:51:08Z" uid="4467" user="Rosscoe" changeset="4880447">
    <nd ref="634524120"/>
    <nd ref="634524206"/>
    <nd ref="634524209"/>
    <nd ref="634524125"/>
    <nd ref="634524115"/>
    <tag k="highway" v="residential"/>
    <tag k="name" v="Maple Street"/>
    <tag k="surface" v="paved"/>
  </way>
  <way id="49930890" version="3" timestamp="2011-10-03T05:05:04Z" uid="237525" user="aharvey" changeset="9456735">
    <nd ref="634524120"/>
    <nd ref="634524206"/>
    <nd ref="634524209"/>
    <nd ref="634524125"/>
    <nd ref="634524115"/>
    <tag k="highway" v="residential"/>
    <tag k="maxspeed" v="50"/>
    <tag k="name" v="Maple Street"/>
    <tag k="source:maxspeed" v="default residential speed limit in Australia"/>
    <tag k="surface" v="paved"/>
  </way>
  <way id="49930892" version="3" timestamp="2011-03-30T06:41:17Z" uid="4467" user="Rosscoe" changeset="7713279">
    <nd ref="634524223"/>
    <nd ref="634524218"/>
    <nd ref="634524240"/>
    <nd ref="634645861"/>
    <nd ref="634524217"/>
    <nd ref="634524223"/>
    <tag k="amenity" v="parking"/>
    <tag k="name" v="Inyadda Beach"/>
    <tag k="parking" v="surface"/>
  </way>
  <way id="49930900" version="2" timestamp="2010-06-01T08:23:49Z" uid="4467" user="Rosscoe" changeset="4872615">
    <nd ref="634524206"/>
    <nd ref="634524207"/>
    <tag k="highway" v="residential"/>
    <tag k="name" v="Cherry Street"/>
    <tag k="surface" v="paved"/>
  </way>
  <way id="49930900" version="3" timestamp="2011-10-03T05:05:03Z" uid="237525" user="aharvey" changeset="9456735">
    <nd ref="634524206"/>
    <nd ref="634524207"/>
    <tag k="highway" v="residential"/>
    <tag k="maxspeed" v="50"/>
    <tag k="name" v="Cherry Street"/>
    <tag k="source:maxspeed" v="default residential speed limit in Australia"/>
    <tag k="surface" v="paved"/>
  </way>
  <way id="49930905" version="3" timestamp="2011-03-30T06:41:15Z" uid="4467" user="Rosscoe" changeset="7713279">
    <nd ref="634524239"/>
    <nd ref="1224905668"/>
    <nd ref="634645857"/>
    <nd ref="634645860"/>
    <nd ref="634645858"/>
    <nd ref="634645859"/>
    <nd ref="634524234"/>
    <nd ref="634524046"/>
    <nd ref="634524232"/>
    <nd ref="634524231"/>
    <nd ref="634524230"/>
    <nd ref="634524229"/>
    <nd ref="634524253"/>
    <nd ref="634524239"/>
    <tag k="name" v="Holiday Haven Bendalong Point"/>
    <tag k="tourism" v="caravan_site"/>
  </way>
  <way id="49930913" version="2" timestamp="2010-06-02T00:52:41Z" uid="4467" user="Rosscoe" changeset="4879901">
    <nd ref="634524212"/>
    <nd ref="634524210"/>
    <nd ref="634524209"/>
    <tag k="highway" v="residential"/>
    <tag k="name" v="Elm Street"/>
    <tag k="surface" v="paved"/>
  </way>
  <way id="49930913" version="3" timestamp="2011-03-30T06:41:13Z" uid="4467" user="Rosscoe" changeset="7713279">
    <nd ref="634524212"/>
    <nd ref="634524209"/>
    <tag k="highway" v="residential"/>
    <tag k="name" v="Elm Street"/>
    <tag k="surface" v="paved"/>
  </way>
  <way id="49930913" version="4" timestamp="2011-10-03T05:05:03Z" uid="237525" user="aharvey" changeset="9456735">
    <nd ref="634524212"/>
    <nd ref="634524209"/>
    <tag k="highway" v="residential"/>
    <tag k="maxspeed" v="50"/>
    <tag k="name" v="Elm Street"/>
    <tag k="source:maxspeed" v="default residential speed limit in Australia"/>
    <tag k="surface" v="paved"/>
  </way>
  <way id="49930914" version="2" timestamp="2010-06-02T00:51:56Z" uid="4467" user="Rosscoe" changeset="4879901">
    <nd ref="634524116"/>
    <nd ref="634524125"/>
    <tag k="highway" v="residential"/>
    <tag k="name" v="Ebby Street"/>
    <tag k="surface" v="unpaved"/>
  </way>
  <way id="49930914" version="3" timestamp="2011-10-03T05:05:03Z" uid="237525" user="aharvey" changeset="9456735">
    <nd ref="634524116"/>
    <nd ref="634524125"/>
    <tag k="highway" v="residential"/>
    <tag k="maxspeed" v="50"/>
    <tag k="name" v="Ebby Street"/>
    <tag k="source:maxspeed" v="default residential speed limit in Australia"/>
    <tag k="surface" v="unpaved"/>
  </way>
  <way id="49930916" version="4" timestamp="2010-06-01T06:41:14Z" uid="4467" user="Rosscoe" changeset="4872067">
    <nd ref="634524120"/>
    <nd ref="634524207"/>
    <nd ref="634524213"/>
    <nd ref="634524214"/>
    <nd ref="634524138"/>
    <nd ref="634524195"/>
    <nd ref="634524151"/>
    <nd ref="635744521"/>
    <nd ref="634524150"/>
    <nd ref="635744520"/>
    <nd ref="634524147"/>
    <nd ref="634524145"/>
    <nd ref="634524162"/>
    <nd ref="634524164"/>
    <nd ref="634524165"/>
    <nd ref="634524166"/>
    <nd ref="634524154"/>
    <tag k="highway" v="residential"/>
    <tag k="name" v="Boronia Street"/>
    <tag k="surface" v="paved"/>
  </way>
  <way id="49930916" version="5" timestamp="2011-03-30T06:41:16Z" uid="4467" user="Rosscoe" changeset="7713279">
    <nd ref="634524120"/>
    <nd ref="634524207"/>
    <nd ref="1224905664"/>
    <nd ref="634524213"/>
    <nd ref="634524214"/>
    <nd ref="634524138"/>
    <nd ref="1224905670"/>
    <nd ref="634524195"/>
    <nd ref="634524151"/>
    <nd ref="635744521"/>
    <nd ref="634524150"/>
    <nd ref="635744520"/>
    <nd ref="634524147"/>
    <nd ref="634524145"/>
    <nd ref="634524162"/>
    <nd ref="634524164"/>
    <nd ref="634524165"/>
    <nd ref="634524166"/>
    <nd ref="634524154"/>
    <tag k="highway" v="residential"/>
    <tag k="name" v="Boronia Street"/>
    <tag k="surface" v="paved"/>
  </way>
  <way id="49930916" version="6" timestamp="2011-10-03T05:05:02Z" uid="237525" user="aharvey" changeset="9456735">
    <nd ref="634524120"/>
    <nd ref="634524207"/>
    <nd ref="1224905664"/>
    <nd ref="634524213"/>
    <nd ref="634524214"/>
    <nd ref="634524138"/>
    <nd ref="1224905670"/>
    <nd ref="634524195"/>
    <nd ref="634524151"/>
    <nd ref="635744521"/>
    <nd ref="634524150"/>
    <nd ref="635744520"/>
    <nd ref="634524147"/>
    <nd ref="634524145"/>
    <nd ref="634524162"/>
    <nd ref="634524164"/>
    <nd ref="634524165"/>
    <nd ref="634524166"/>
    <nd ref="634524154"/>
    <tag k="highway" v="residential"/>
    <tag k="maxspeed" v="50"/>
    <tag k="name" v="Boronia Street"/>
    <tag k="source:maxspeed" v="default residential speed limit in Australia"/>
    <tag k="surface" v="paved"/>
  </way>
</osm>
