<?xml version='1.0' encoding='UTF-8'?>
<osm version="0.6" generator="libosmium/2.20.0">
  <way id="50221965" version="3" timestamp="2010-03-07T10:52:42Z" uid="58091" user="Andreas M" changeset="4059516">
    <nd ref="430244191"/>
    <nd ref="31438986"/>
    <nd ref="139469700"/>
    <nd ref="247531426"/>
    <tag k="highway" v="secondary"/>
    <tag k="is_in:city" v="Markgrafneusiedl"/>
    <tag k="is_in:country_code" v="AT"/>
    <tag k="maxspeed" v="40"/>
    <tag k="name" v="Gänserndorfer Straße"/>
    <tag k="postal_code" v="2282"/>
  </way>
  <way id="50221965" version="4" timestamp="2010-04-20T20:51:23Z" uid="86147" user="wolfi1220" changeset="4481682">
    <nd ref="430244191"/>
    <nd ref="31438986"/>
    <nd ref="139469700"/>
    <nd ref="247531426"/>
    <tag k="highway" v="secondary"/>
    <tag k="is_in:city" v="Markgrafneusiedl"/>
    <tag k="is_in:country_code" v="AT"/>
    <tag k="maxspeed" v="40"/>
    <tag k="name" v="Gänserndorfer Straße"/>
    <tag k="postal_code" v="2282"/>
    <tag k="ref" v="L11"/>
  </way>
  <way id="50221966" version="3" timestamp="2010-03-07T10:52:45Z" uid="58091" user="Andreas M" changeset="4059516">
    <nd ref="247531426"/>
    <nd ref="139521320"/>
    <nd ref="339147042"/>
    <nd ref="637487901"/>
    <nd ref="339147044"/>
    <nd ref="306001877"/>
    <tag k="highway" v="secondary"/>
    <tag k="is_in:city" v="Markgrafneusiedl"/>
    <tag k="is_in:country_code" v="AT"/>
    <tag k="maxspeed" v="50"/>
    <tag k="name" v="Gänserndorfer Straße"/>
    <tag k="postal_code" v="2282"/>
  </way>
  <way id="50221966" version="4" timestamp="2010-04-20T20:51:27Z" uid="86147" user="wolfi1220" changeset="4481682">
    <nd ref="247531426"/>
    <nd ref="139521320"/>
    <nd ref="339147042"/>
    <nd ref="637487901"/>
    <nd ref="339147044"/>
    <nd ref="306001877"/>
    <tag k="highway" v="secondary"/>
    <tag k="is_in:city" v="Markgrafneusiedl"/>
    <tag k="is_in:country_code" v="AT"/>
    <tag k="maxspeed" v="50"/>
    <tag k="name" v="Gänserndorfer Straße"/>
    <tag k="postal_code" v="2282"/>
    <tag k="ref" v="L11"/>
  </way>
  <way id="50221966" version="5" timestamp="2010-08-04T10:42:20Z" uid="205462" user="BernTom" changeset="5397774">
    <nd ref="247531426"/>
    <nd ref="139521320"/>
    <nd ref="339147042"/>
    <nd ref="637487901"/>
    <nd ref="339147044"/>
    <nd ref="845830748"/>
    <nd ref="306001877"/>
    <tag k="highway" v="secondary"/>
    <tag k="is_in:city" v="Markgrafneusiedl"/>
    <tag k="is_in:country_code" v="AT"/>
    <tag k="maxspeed" v="50"/>
    <tag k="name" v="Gänserndorfer Straße"/>
    <tag k="postal_code" v="2282"/>
    <tag k="ref" v="L11"/>
  </way>
</osm>
