<?xml version='1.0' encoding='UTF-8'?>
<osm version="0.6" generator="libosmium/2.20.0">
  <way id="50233829" version="4" timestamp="2011-01-24T16:35:03Z" uid="6269" user="Mueck" changeset="7073890">
    <nd ref="638528746"/>
    <nd ref="1118886333"/>
    <nd ref="638528748"/>
    <tag k="bench" v="yes"/>
    <tag k="bin" v="yes"/>
    <tag k="name" v="Bahnhofsvorplatz"/>
    <tag k="public_transport" v="platform"/>
    <tag k="railway" v="platform"/>
    <tag k="ref" v="C"/>
    <tag k="shelter" v="yes"/>
    <tag k="tactile_paving" v="yes"/>
    <tag k="tram" v="yes"/>
  </way>
  <way id="50233829" version="5" timestamp="2011-02-17T10:26:17Z" uid="165061" user="keinname" changeset="7311606">
    <nd ref="638528746"/>
    <nd ref="1118886333"/>
    <nd ref="638528748"/>
    <tag k="bench" v="yes"/>
    <tag k="bin" v="yes"/>
    <tag k="name" v="C"/>
    <tag k="public_transport" v="platform"/>
    <tag k="railway" v="platform"/>
    <tag k="ref" v="C"/>
    <tag k="shelter" v="yes"/>
    <tag k="tactile_paving" v="yes"/>
    <tag k="tram" v="yes"/>
  </way>
</osm>
