<?xml version='1.0' encoding='UTF-8'?>
<osm version="0.6" generator="libosmium/2.20.0">
  <way id="50292232" version="2" timestamp="2010-07-09T18:14:04Z" uid="74617" user="JohnSmith" changeset="5175333">
    <nd ref="344378324"/>
    <nd ref="344378325"/>
    <tag k="highway" v="residential"/>
    <tag k="maxspeed" v="50"/>
    <tag k="maxspeed:source" v="default residential speed limit in Australia"/>
    <tag k="name" v="Swan View Terrace"/>
  </way>
  <way id="50292232" version="3" timestamp="2012-01-20T01:42:54Z" uid="147510" user="woodpeck_fixbot" changeset="10442677">
    <nd ref="344378324"/>
    <nd ref="344378325"/>
    <tag k="highway" v="residential"/>
    <tag k="name" v="Swan View Terrace"/>
  </way>
  <way id="50292358" version="3" timestamp="2010-10-24T18:59:07Z" uid="9581" user="Lobelt" changeset="6161173">
    <nd ref="28985651"/>
    <nd ref="28985503"/>
    <nd ref="28985455"/>
    <nd ref="303142829"/>
    <nd ref="290550601"/>
    <nd ref="28985350"/>
    <nd ref="28985593"/>
    <nd ref="266768461"/>
    <nd ref="639043858"/>
    <nd ref="963722122"/>
    <nd ref="306142364"/>
    <nd ref="306141832"/>
    <nd ref="28985546"/>
    <nd ref="28985282"/>
    <nd ref="28985696"/>
    <nd ref="28985537"/>
    <nd ref="28985358"/>
    <nd ref="28985767"/>
    <nd ref="28985651"/>
    <tag k="landuse" v="industrial"/>
  </way>
  <way id="50292358" version="4" timestamp="2010-10-24T19:46:05Z" uid="136055" user="DrScott" changeset="6162070">
    <nd ref="28985651"/>
    <nd ref="28985503"/>
    <nd ref="28985455"/>
    <nd ref="303142829"/>
    <nd ref="290550601"/>
    <nd ref="28985350"/>
    <nd ref="28985593"/>
    <nd ref="266768461"/>
    <nd ref="639043858"/>
    <nd ref="28985719"/>
    <nd ref="306142364"/>
    <nd ref="306141832"/>
    <nd ref="28985546"/>
    <nd ref="28985282"/>
    <nd ref="28985696"/>
    <nd ref="28985537"/>
    <nd ref="28985358"/>
    <nd ref="28985767"/>
    <nd ref="28985651"/>
    <tag k="landuse" v="industrial"/>
  </way>
  <way id="50292358" version="5" timestamp="2011-03-20T23:50:25Z" uid="160164" user="mahau" changeset="7623204">
    <nd ref="28985651"/>
    <nd ref="28985503"/>
    <nd ref="28985455"/>
    <nd ref="303142829"/>
    <nd ref="290550601"/>
    <nd ref="28985350"/>
    <nd ref="28985593"/>
    <nd ref="266768461"/>
    <nd ref="274584746"/>
    <nd ref="1211267527"/>
    <nd ref="28985719"/>
    <nd ref="1211267730"/>
    <nd ref="963722133"/>
    <nd ref="1211267627"/>
    <nd ref="266768771"/>
    <nd ref="963722145"/>
    <nd ref="1211267718"/>
    <nd ref="28985745"/>
    <nd ref="28985546"/>
    <nd ref="28985282"/>
    <nd ref="28985696"/>
    <nd ref="28985537"/>
    <nd ref="28985358"/>
    <nd ref="28985767"/>
    <nd ref="28985651"/>
    <tag k="landuse" v="industrial"/>
  </way>
  <way id="50292358" version="6" timestamp="2012-03-30T18:39:08Z" uid="136321" user="Teddy73" changeset="11156350"/>
  <way id="50292723" version="3" timestamp="2010-03-28T11:48:54Z" uid="20587" user="balrog-kun" changeset="4254597">
    <nd ref="137192364"/>
    <nd ref="447223459"/>
    <nd ref="447223462"/>
    <nd ref="447223466"/>
    <nd ref="447223468"/>
    <nd ref="447223471"/>
    <nd ref="447223474"/>
    <nd ref="447223480"/>
    <nd ref="447223485"/>
    <nd ref="447223489"/>
    <nd ref="447223495"/>
    <nd ref="447223499"/>
    <nd ref="447223505"/>
    <nd ref="447223511"/>
    <nd ref="447223516"/>
    <nd ref="447223520"/>
    <nd ref="447223527"/>
    <nd ref="447223530"/>
    <nd ref="447223534"/>
    <nd ref="137407230"/>
    <tag k="highway" v="trunk"/>
    <tag k="name" v="Boulder Highway"/>
    <tag k="oneway" v="yes"/>
    <tag k="ref" v="US 93; US 95"/>
    <tag k="source" v="Yahoo image; TIGER"/>
  </way>
  <way id="50292723" version="4" timestamp="2010-10-25T18:48:44Z" uid="63936" user="MojaveNC" changeset="6176264">
    <nd ref="137192364"/>
    <nd ref="447223459"/>
    <nd ref="447223462"/>
    <nd ref="447223466"/>
    <nd ref="447223468"/>
    <nd ref="447223471"/>
    <nd ref="447223474"/>
    <nd ref="447223480"/>
    <nd ref="447223485"/>
    <nd ref="447223489"/>
    <nd ref="447223495"/>
    <nd ref="447223499"/>
    <nd ref="447223505"/>
    <nd ref="447223511"/>
    <nd ref="447223516"/>
    <nd ref="447223520"/>
    <nd ref="447223527"/>
    <nd ref="447223530"/>
    <nd ref="447223534"/>
    <nd ref="137407230"/>
    <tag k="highway" v="trunk"/>
    <tag k="name" v="Boulder Highway"/>
    <tag k="oneway" v="yes"/>
    <tag k="ref" v="US 93-95"/>
    <tag k="source" v="Yahoo image; TIGER"/>
  </way>
  <way id="50292723" version="5" timestamp="2010-10-29T20:44:03Z" uid="207745" user="NE2" changeset="6222398">
    <nd ref="137192364"/>
    <nd ref="447223459"/>
    <nd ref="447223462"/>
    <nd ref="447223466"/>
    <nd ref="447223468"/>
    <nd ref="447223471"/>
    <nd ref="447223474"/>
    <nd ref="447223480"/>
    <nd ref="447223485"/>
    <nd ref="447223489"/>
    <nd ref="447223495"/>
    <nd ref="447223499"/>
    <nd ref="447223505"/>
    <nd ref="447223511"/>
    <nd ref="447223516"/>
    <nd ref="447223520"/>
    <nd ref="447223527"/>
    <nd ref="447223530"/>
    <nd ref="447223534"/>
    <nd ref="137407230"/>
    <tag k="highway" v="trunk"/>
    <tag k="name" v="Boulder Highway"/>
    <tag k="oneway" v="yes"/>
    <tag k="ref" v="US 93;US 95"/>
    <tag k="source" v="Yahoo image; TIGER"/>
  </way>
  <way id="50292723" version="6" timestamp="2011-04-30T08:14:41Z" uid="3392" user="SimMoonXP" changeset="8009525">
    <nd ref="137192364"/>
    <nd ref="447223459"/>
    <nd ref="447223462"/>
    <nd ref="447223466"/>
    <nd ref="447223468"/>
    <nd ref="447223471"/>
    <nd ref="447223474"/>
    <nd ref="447223480"/>
    <nd ref="447223485"/>
    <tag k="highway" v="motorway"/>
    <tag k="name" v="Boulder Highway"/>
    <tag k="oneway" v="yes"/>
    <tag k="ref" v="US 93;US 95"/>
    <tag k="source" v="Yahoo image; TIGER"/>
  </way>
  <way id="50292723" version="7" timestamp="2011-06-12T14:35:38Z" uid="207745" user="NE2" changeset="8415993">
    <nd ref="137192364"/>
    <nd ref="447223459"/>
    <nd ref="447223462"/>
    <nd ref="447223466"/>
    <nd ref="447223468"/>
    <nd ref="447223471"/>
    <nd ref="447223474"/>
    <nd ref="447223480"/>
    <nd ref="447223485"/>
    <tag k="highway" v="motorway"/>
    <tag k="lanes" v="2"/>
    <tag k="name" v="Boulder Highway"/>
    <tag k="oneway" v="yes"/>
    <tag k="ref" v="US 93;US 95"/>
    <tag k="source" v="Yahoo image; TIGER"/>
  </way>
  <way id="50292723" version="8" timestamp="2011-07-06T23:08:23Z" uid="473471" user="NE3" changeset="8653193">
    <nd ref="137192364"/>
    <nd ref="447223459"/>
    <nd ref="447223462"/>
    <nd ref="447223466"/>
    <nd ref="447223468"/>
    <nd ref="447223471"/>
    <nd ref="447223474"/>
    <nd ref="447223480"/>
    <nd ref="447223485"/>
    <tag k="NHS" v="STRAHNET"/>
    <tag k="highway" v="motorway"/>
    <tag k="lanes" v="2"/>
    <tag k="name" v="Boulder Highway"/>
    <tag k="oneway" v="yes"/>
    <tag k="ref" v="US 93;US 95"/>
    <tag k="source" v="Yahoo image; TIGER"/>
  </way>
  <way id="50292723" version="9" timestamp="2011-10-16T05:41:47Z" uid="207745" user="NE2" changeset="9569184">
    <nd ref="137192364"/>
    <nd ref="447223459"/>
    <nd ref="447223462"/>
    <nd ref="447223466"/>
    <nd ref="447223468"/>
    <nd ref="447223471"/>
    <nd ref="447223474"/>
    <nd ref="447223480"/>
    <nd ref="447223485"/>
    <tag k="NHS" v="STRAHNET"/>
    <tag k="bicycle" v="yes"/>
    <tag k="highway" v="motorway"/>
    <tag k="lanes" v="2"/>
    <tag k="name" v="Boulder Highway"/>
    <tag k="oneway" v="yes"/>
    <tag k="ref" v="US 93;US 95"/>
    <tag k="source" v="Yahoo image; TIGER"/>
  </way>
  <way id="50292723" version="10" timestamp="2011-11-30T19:40:10Z" uid="207745" user="NE2" changeset="10002171">
    <nd ref="137192364"/>
    <nd ref="447223459"/>
    <nd ref="447223462"/>
    <nd ref="447223466"/>
    <nd ref="447223468"/>
    <nd ref="447223471"/>
    <nd ref="447223474"/>
    <nd ref="447223480"/>
    <nd ref="447223485"/>
    <tag k="NHS" v="STRAHNET"/>
    <tag k="bicycle" v="yes"/>
    <tag k="hgv" v="designated"/>
    <tag k="hgv:national_network" v="yes"/>
    <tag k="highway" v="motorway"/>
    <tag k="lanes" v="2"/>
    <tag k="name" v="Boulder Highway"/>
    <tag k="oneway" v="yes"/>
    <tag k="ref" v="US 93;US 95"/>
    <tag k="source" v="Yahoo image; TIGER"/>
  </way>
  <way id="50292729" version="3" timestamp="2010-03-28T11:48:55Z" uid="20587" user="balrog-kun" changeset="4254597">
    <nd ref="447223434"/>
    <nd ref="447223437"/>
    <tag k="highway" v="trunk"/>
    <tag k="name" v="Boulder Highway"/>
    <tag k="oneway" v="yes"/>
    <tag k="ref" v="US 93"/>
    <tag k="source" v="Yahoo image; TIGER"/>
  </way>
  <way id="50292729" version="4" timestamp="2010-06-03T21:14:38Z" uid="239998" user="Sundance" changeset="4896311">
    <nd ref="447223434"/>
    <nd ref="447223437"/>
    <tag k="highway" v="trunk"/>
    <tag k="name" v="Boulder Highway"/>
    <tag k="name_1" v="United States Route 93"/>
    <tag k="oneway" v="yes"/>
    <tag k="ref" v="US 93"/>
    <tag k="source" v="Yahoo image; TIGER"/>
  </way>
  <way id="50292729" version="5" timestamp="2010-10-25T18:48:12Z" uid="63936" user="MojaveNC" changeset="6176264">
    <nd ref="447223434"/>
    <nd ref="447223437"/>
    <tag k="highway" v="trunk"/>
    <tag k="name" v="Boulder Highway"/>
    <tag k="name_1" v="United States Route 93"/>
    <tag k="oneway" v="yes"/>
    <tag k="source" v="Yahoo image; TIGER"/>
  </way>
  <way id="50292729" version="6" timestamp="2010-10-29T20:43:26Z" uid="207745" user="NE2" changeset="6222398">
    <nd ref="447223434"/>
    <nd ref="447223437"/>
    <tag k="highway" v="trunk"/>
    <tag k="name" v="Boulder Highway"/>
    <tag k="name_1" v="United States Route 93"/>
    <tag k="oneway" v="yes"/>
    <tag k="ref" v="US 93"/>
    <tag k="source" v="Yahoo image; TIGER"/>
  </way>
  <way id="50292729" version="7" timestamp="2011-04-30T08:14:41Z" uid="3392" user="SimMoonXP" changeset="8009525">
    <nd ref="447223434"/>
    <nd ref="447223437"/>
    <tag k="highway" v="motorway"/>
    <tag k="name" v="Boulder Highway"/>
    <tag k="name_1" v="United States Route 93"/>
    <tag k="oneway" v="yes"/>
    <tag k="ref" v="US 93"/>
    <tag k="source" v="Yahoo image; TIGER"/>
  </way>
  <way id="50292729" version="8" timestamp="2011-06-12T14:37:41Z" uid="207745" user="NE2" changeset="8415993">
    <nd ref="447223434"/>
    <nd ref="447223437"/>
    <tag k="highway" v="motorway"/>
    <tag k="lanes" v="2"/>
    <tag k="name" v="Boulder Highway"/>
    <tag k="oneway" v="yes"/>
    <tag k="ref" v="US 93"/>
    <tag k="source" v="Yahoo image; TIGER"/>
  </way>
  <way id="50292729" version="9" timestamp="2011-07-06T23:08:22Z" uid="473471" user="NE3" changeset="8653193">
    <nd ref="447223434"/>
    <nd ref="447223437"/>
    <tag k="NHS" v="STRAHNET"/>
    <tag k="highway" v="motorway"/>
    <tag k="lanes" v="2"/>
    <tag k="name" v="Boulder Highway"/>
    <tag k="oneway" v="yes"/>
    <tag k="ref" v="US 93"/>
    <tag k="source" v="Yahoo image; TIGER"/>
  </way>
  <way id="50292729" version="10" timestamp="2011-10-16T05:41:47Z" uid="207745" user="NE2" changeset="9569184">
    <nd ref="447223434"/>
    <nd ref="447223437"/>
    <tag k="NHS" v="STRAHNET"/>
    <tag k="bicycle" v="yes"/>
    <tag k="highway" v="motorway"/>
    <tag k="lanes" v="2"/>
    <tag k="name" v="Boulder Highway"/>
    <tag k="oneway" v="yes"/>
    <tag k="ref" v="US 93"/>
    <tag k="source" v="Yahoo image; TIGER"/>
  </way>
  <way id="50292729" version="11" timestamp="2011-11-30T19:40:09Z" uid="207745" user="NE2" changeset="10002171">
    <nd ref="447223434"/>
    <nd ref="447223437"/>
    <tag k="NHS" v="STRAHNET"/>
    <tag k="bicycle" v="yes"/>
    <tag k="hgv" v="designated"/>
    <tag k="hgv:national_network" v="yes"/>
    <tag k="highway" v="motorway"/>
    <tag k="lanes" v="2"/>
    <tag k="name" v="Boulder Highway"/>
    <tag k="oneway" v="yes"/>
    <tag k="ref" v="US 93"/>
    <tag k="source" v="Yahoo image; TIGER"/>
  </way>
  <way id="50292811" version="1" timestamp="2010-02-14T15:14:11Z" uid="59758" user="rendle" changeset="3874616">
    <nd ref="639047023"/>
    <nd ref="639047024"/>
    <nd ref="639047025"/>
    <nd ref="639047026"/>
    <nd ref="639047027"/>
    <nd ref="639047028"/>
    <nd ref="639047029"/>
    <nd ref="639047030"/>
    <nd ref="639047031"/>
    <nd ref="639047032"/>
    <nd ref="639047033"/>
    <nd ref="639047034"/>
    <nd ref="639047035"/>
    <nd ref="639047036"/>
    <nd ref="639047037"/>
    <nd ref="639047038"/>
    <nd ref="639047039"/>
    <nd ref="639047040"/>
    <nd ref="639047041"/>
    <nd ref="639047042"/>
    <nd ref="639047023"/>
  </way>
  <way id="50292811" version="2" timestamp="2010-02-14T15:15:01Z" uid="59758" user="rendle" changeset="3874616">
    <nd ref="639047023"/>
    <nd ref="639047024"/>
    <nd ref="639047025"/>
    <nd ref="639047026"/>
    <nd ref="639047027"/>
    <nd ref="639047028"/>
    <nd ref="639047029"/>
    <nd ref="639047030"/>
    <nd ref="639047031"/>
    <nd ref="639047032"/>
    <nd ref="639047033"/>
    <nd ref="639047034"/>
    <nd ref="639047035"/>
    <nd ref="639047036"/>
    <nd ref="639047037"/>
    <nd ref="639047038"/>
    <nd ref="639047039"/>
    <nd ref="639047040"/>
    <nd ref="639047041"/>
    <nd ref="639047042"/>
    <nd ref="639047023"/>
    <tag k="natural" v="scrub"/>
    <tag k="source" v="GeoEye"/>
  </way>
  <way id="50292811" version="3" timestamp="2010-02-26T16:59:33Z" uid="5164" user="woodpeck" changeset="3981879">
    <nd ref="639047023"/>
    <nd ref="639047024"/>
    <nd ref="639047025"/>
    <nd ref="639047026"/>
    <nd ref="639047027"/>
    <nd ref="639047028"/>
    <nd ref="639047029"/>
    <nd ref="639047030"/>
    <nd ref="639047031"/>
    <nd ref="639047032"/>
    <nd ref="639047033"/>
    <nd ref="639047034"/>
    <nd ref="639047035"/>
    <nd ref="639047036"/>
    <nd ref="639047037"/>
    <nd ref="639047038"/>
    <nd ref="639047039"/>
    <nd ref="638516738"/>
    <tag k="natural" v="scrub"/>
    <tag k="source" v="GeoEye"/>
  </way>
  <way id="50292811" version="4" timestamp="2010-04-03T19:28:23Z" uid="149876" user="dbusse" changeset="4316493"/>
  <way id="50292822" version="1" timestamp="2010-02-14T15:14:32Z" uid="74617" user="JohnSmith" changeset="3874633">
    <nd ref="639047107"/>
    <nd ref="639047099"/>
    <nd ref="639047100"/>
    <nd ref="237389167"/>
    <tag k="highway" v="footway"/>
  </way>
  <way id="50292822" version="2" timestamp="2010-02-14T15:44:44Z" uid="74617" user="JohnSmith" changeset="3874884">
    <nd ref="639047107"/>
    <nd ref="639047099"/>
    <nd ref="639047100"/>
    <nd ref="237389167"/>
    <tag k="highway" v="footway"/>
  </way>
  <way id="50292824" version="1" timestamp="2010-02-14T15:14:32Z" uid="74617" user="JohnSmith" changeset="3874633">
    <nd ref="639047170"/>
    <nd ref="639047172"/>
    <nd ref="639047173"/>
    <nd ref="639047174"/>
    <tag k="highway" v="footway"/>
    <tag k="source" v="nearmap"/>
  </way>
  <way id="50292904" version="1" timestamp="2010-02-14T15:17:22Z" uid="171838" user="argrath" changeset="3874631">
    <nd ref="57498527"/>
    <nd ref="57498524"/>
    <tag k="natural" v="coastline"/>
    <tag k="note" v="連絡用"/>
  </way>
  <way id="50292904" version="2" timestamp="2010-02-15T14:38:04Z" uid="120613" user="Melaskia" changeset="3883693"/>
  <way id="50292905" version="1" timestamp="2010-02-14T15:17:23Z" uid="171838" user="argrath" changeset="3874631">
    <nd ref="638995243"/>
    <nd ref="271280399"/>
    <tag k="natural" v="coastline"/>
    <tag k="note" v="連絡用"/>
  </way>
  <way id="50292905" version="2" timestamp="2010-02-16T13:25:55Z" uid="171838" user="argrath" changeset="3892128"/>
</osm>
