<?xml version='1.0' encoding='UTF-8'?>
<osm version="0.6" generator="libosmium/2.20.0">
  <way id="50329061" version="2" timestamp="2010-04-29T06:52:26Z" uid="74617" user="JohnSmith" changeset="4555025">
    <nd ref="639359277"/>
    <nd ref="639359267"/>
    <nd ref="711485476"/>
    <nd ref="639359247"/>
    <nd ref="639359248"/>
    <nd ref="639359250"/>
    <nd ref="639359249"/>
    <tag k="highway" v="residential"/>
  </way>
  <way id="50329133" version="2" timestamp="2010-04-02T17:55:46Z" uid="20587" user="balrog-kun" changeset="4304500">
    <nd ref="639359619"/>
    <nd ref="639359622"/>
    <nd ref="639359634"/>
    <tag k="highway" v="service"/>
    <tag k="name" v="South Grand Street"/>
    <tag k="service" v="alley"/>
  </way>
  <way id="50329134" version="2" timestamp="2010-04-02T17:55:47Z" uid="20587" user="balrog-kun" changeset="4304500">
    <nd ref="639359634"/>
    <nd ref="639359637"/>
    <tag k="highway" v="residential"/>
    <tag k="name" v="South Grand Street"/>
  </way>
  <way id="50329140" version="2" timestamp="2011-01-15T14:21:15Z" uid="4467" user="Rosscoe" changeset="6977402">
    <nd ref="639359780"/>
    <nd ref="1104536672"/>
    <nd ref="1104536676"/>
    <nd ref="639359789"/>
    <nd ref="639359791"/>
    <nd ref="639359792"/>
    <nd ref="639359796"/>
    <nd ref="1104536674"/>
    <nd ref="580868985"/>
    <nd ref="639359801"/>
    <nd ref="639359780"/>
    <tag k="building" v="yes"/>
  </way>
  <way id="50329218" version="2" timestamp="2010-07-25T07:21:04Z" uid="4467" user="Rosscoe" changeset="5309337">
    <nd ref="639359865"/>
    <nd ref="639359873"/>
    <nd ref="639359874"/>
    <nd ref="639359875"/>
    <nd ref="639359876"/>
    <tag k="bridge" v="yes"/>
    <tag k="highway" v="footway"/>
    <tag k="layer" v="1"/>
  </way>
  <way id="50329276" version="2" timestamp="2010-07-25T07:21:05Z" uid="4467" user="Rosscoe" changeset="5309337">
    <nd ref="639360617"/>
    <nd ref="639360618"/>
    <nd ref="639360619"/>
    <nd ref="639360620"/>
    <nd ref="639360621"/>
    <tag k="bridge" v="yes"/>
    <tag k="highway" v="cycleway"/>
    <tag k="layer" v="1"/>
  </way>
  <way id="50329374" version="3" timestamp="2010-07-25T07:21:07Z" uid="4467" user="Rosscoe" changeset="5309337">
    <nd ref="639360869"/>
    <nd ref="639360784"/>
    <tag k="bridge" v="yes"/>
    <tag k="cycleway" v="track"/>
    <tag k="highway" v="cycleway"/>
    <tag k="layer" v="1"/>
  </way>
  <way id="50329429" version="3" timestamp="2010-03-20T01:38:42Z" uid="115684" user="jVviJ11dNx" changeset="4176006">
    <nd ref="639361242"/>
    <nd ref="639361245"/>
    <nd ref="670106805"/>
    <nd ref="670106808"/>
    <nd ref="670106807"/>
    <nd ref="670106883"/>
    <nd ref="271321134"/>
    <tag k="highway" v="tertiary"/>
    <tag k="source" v="nearmap"/>
  </way>
  <way id="50329429" version="4" timestamp="2010-04-08T03:49:59Z" uid="115684" user="jVviJ11dNx" changeset="4360820">
    <nd ref="639361242"/>
    <nd ref="639361245"/>
    <nd ref="670106805"/>
    <nd ref="670106808"/>
    <nd ref="670106807"/>
    <nd ref="688266856"/>
    <tag k="highway" v="tertiary"/>
    <tag k="source" v="nearmap"/>
  </way>
  <way id="50329429" version="5" timestamp="2010-05-23T05:52:50Z" uid="115684" user="jVviJ11dNx" changeset="4780085">
    <nd ref="639361242"/>
    <nd ref="639361245"/>
    <nd ref="746040454"/>
    <tag k="highway" v="tertiary"/>
    <tag k="source" v="nearmap"/>
  </way>
  <way id="50329430" version="8" timestamp="2010-05-23T10:12:24Z" uid="115684" user="jVviJ11dNx" changeset="4781660">
    <nd ref="639361231"/>
    <nd ref="639361227"/>
    <nd ref="641033491"/>
    <nd ref="746295645"/>
    <tag k="highway" v="tertiary"/>
    <tag k="name" v="McKewen Road"/>
    <tag k="source" v="nearmap"/>
  </way>
  <way id="50329513" version="1" timestamp="2010-02-15T01:32:33Z" uid="103576" user="DiverCTH" changeset="3879939">
    <nd ref="639362285"/>
    <nd ref="639362286"/>
    <nd ref="639362292"/>
    <nd ref="639362291"/>
    <nd ref="639362296"/>
    <nd ref="639362295"/>
    <nd ref="639362302"/>
    <nd ref="639362298"/>
    <nd ref="639362297"/>
    <tag k="addr:country" v="US"/>
    <tag k="addr:county" v="Hamilton, TN"/>
    <tag k="addr:interpolation" v="even"/>
    <tag k="addr:postcode" v="37407"/>
    <tag k="addr:state" v="Tennessee"/>
    <tag k="addr:street" v="East 51st Street"/>
    <tag k="attribution" v="tiger"/>
  </way>
  <way id="50329514" version="1" timestamp="2010-02-15T01:32:33Z" uid="103576" user="DiverCTH" changeset="3879939">
    <nd ref="639362288"/>
    <nd ref="639362287"/>
    <nd ref="639362290"/>
    <nd ref="639362289"/>
    <nd ref="639362294"/>
    <nd ref="639362293"/>
    <nd ref="639362299"/>
    <nd ref="639362301"/>
    <nd ref="639362300"/>
    <tag k="addr:country" v="US"/>
    <tag k="addr:county" v="Hamilton, TN"/>
    <tag k="addr:interpolation" v="odd"/>
    <tag k="addr:postcode" v="37407"/>
    <tag k="addr:state" v="Tennessee"/>
    <tag k="addr:street" v="East 51st Street"/>
    <tag k="attribution" v="tiger"/>
  </way>
  <way id="50329581" version="4" timestamp="2010-05-08T08:19:58Z" uid="4467" user="Rosscoe" changeset="4636520"/>
  <way id="50329586" version="1" timestamp="2010-02-15T01:41:13Z" uid="103576" user="DiverCTH" changeset="3879939">
    <nd ref="639362993"/>
    <nd ref="639362953"/>
    <nd ref="639362947"/>
    <tag k="addr:country" v="US"/>
    <tag k="addr:county" v="Hamilton, TN"/>
    <tag k="addr:interpolation" v="odd"/>
    <tag k="addr:postcode" v="37407"/>
    <tag k="addr:state" v="Tennessee"/>
    <tag k="addr:street" v="Walthall Ave"/>
    <tag k="attribution" v="tiger"/>
    <tag k="source" v="tiger_import_v0.3_20091116000619"/>
  </way>
  <way id="50329586" version="2" timestamp="2010-02-15T01:50:59Z" uid="103576" user="DiverCTH" changeset="3879939">
    <nd ref="639362991"/>
    <nd ref="639362993"/>
    <nd ref="639362953"/>
    <nd ref="639362947"/>
    <tag k="addr:country" v="US"/>
    <tag k="addr:county" v="Hamilton, TN"/>
    <tag k="addr:interpolation" v="odd"/>
    <tag k="addr:postcode" v="37407"/>
    <tag k="addr:state" v="Tennessee"/>
    <tag k="addr:street" v="Walthall Ave"/>
    <tag k="attribution" v="tiger"/>
  </way>
  <way id="50329586" version="3" timestamp="2010-02-15T02:18:16Z" uid="103576" user="DiverCTH" changeset="3879939">
    <nd ref="639365946"/>
    <nd ref="639365937"/>
    <nd ref="639365948"/>
    <nd ref="639365918"/>
    <nd ref="639365921"/>
    <nd ref="639365913"/>
    <nd ref="639365915"/>
    <nd ref="639365901"/>
    <nd ref="639365900"/>
    <nd ref="639365899"/>
    <nd ref="639365897"/>
    <nd ref="639362991"/>
    <nd ref="639362993"/>
    <nd ref="639362953"/>
    <nd ref="639362947"/>
    <tag k="addr:country" v="US"/>
    <tag k="addr:county" v="Hamilton, TN"/>
    <tag k="addr:interpolation" v="odd"/>
    <tag k="addr:postcode" v="37407"/>
    <tag k="addr:state" v="Tennessee"/>
    <tag k="addr:street" v="Walthall Avenue"/>
    <tag k="attribution" v="tiger"/>
  </way>
  <way id="50329587" version="1" timestamp="2010-02-15T01:41:14Z" uid="103576" user="DiverCTH" changeset="3879939">
    <nd ref="639362992"/>
    <nd ref="639362951"/>
    <nd ref="639362946"/>
    <tag k="addr:country" v="US"/>
    <tag k="addr:county" v="Hamilton, TN"/>
    <tag k="addr:interpolation" v="even"/>
    <tag k="addr:postcode" v="37407"/>
    <tag k="addr:state" v="Tennessee"/>
    <tag k="addr:street" v="Walthall Ave"/>
    <tag k="attribution" v="tiger"/>
    <tag k="source" v="tiger_import_v0.3_20091116000619"/>
  </way>
  <way id="50329587" version="2" timestamp="2010-02-15T01:50:59Z" uid="103576" user="DiverCTH" changeset="3879939">
    <nd ref="639362994"/>
    <nd ref="639362992"/>
    <nd ref="639362951"/>
    <nd ref="639362946"/>
    <tag k="addr:country" v="US"/>
    <tag k="addr:county" v="Hamilton, TN"/>
    <tag k="addr:interpolation" v="even"/>
    <tag k="addr:postcode" v="37407"/>
    <tag k="addr:state" v="Tennessee"/>
    <tag k="addr:street" v="Walthall Ave"/>
    <tag k="attribution" v="tiger"/>
  </way>
  <way id="50329587" version="3" timestamp="2010-02-15T02:18:16Z" uid="103576" user="DiverCTH" changeset="3879939">
    <nd ref="639365950"/>
    <nd ref="639365954"/>
    <nd ref="639365952"/>
    <nd ref="639365934"/>
    <nd ref="639365930"/>
    <nd ref="639365927"/>
    <nd ref="639365924"/>
    <nd ref="639365911"/>
    <nd ref="639365909"/>
    <nd ref="639365903"/>
    <nd ref="639365898"/>
    <nd ref="639362994"/>
    <nd ref="639362992"/>
    <nd ref="639362951"/>
    <nd ref="639362946"/>
    <tag k="addr:country" v="US"/>
    <tag k="addr:county" v="Hamilton, TN"/>
    <tag k="addr:interpolation" v="even"/>
    <tag k="addr:postcode" v="37407"/>
    <tag k="addr:state" v="Tennessee"/>
    <tag k="addr:street" v="Walthall Avenue"/>
    <tag k="attribution" v="tiger"/>
  </way>
  <way id="50329588" version="1" timestamp="2010-02-15T01:41:14Z" uid="103576" user="DiverCTH" changeset="3879939">
    <nd ref="639363011"/>
    <nd ref="639363005"/>
    <nd ref="639363006"/>
    <nd ref="639363007"/>
    <nd ref="639362965"/>
    <tag k="addr:country" v="US"/>
    <tag k="addr:county" v="Hamilton, TN"/>
    <tag k="addr:interpolation" v="even"/>
    <tag k="addr:postcode" v="37407"/>
    <tag k="addr:state" v="Tennessee"/>
    <tag k="addr:street" v="Calhoun Ave"/>
    <tag k="attribution" v="tiger"/>
    <tag k="source" v="tiger_import_v0.3_20091116000618"/>
  </way>
  <way id="50329588" version="2" timestamp="2010-02-15T01:51:00Z" uid="103576" user="DiverCTH" changeset="3879939"/>
  <way id="50329589" version="1" timestamp="2010-02-15T01:41:14Z" uid="103576" user="DiverCTH" changeset="3879939">
    <nd ref="639363010"/>
    <nd ref="639362962"/>
    <nd ref="639362963"/>
    <nd ref="639362964"/>
    <nd ref="639362956"/>
    <nd ref="639362957"/>
    <tag k="addr:country" v="US"/>
    <tag k="addr:county" v="Hamilton, TN"/>
    <tag k="addr:interpolation" v="odd"/>
    <tag k="addr:postcode" v="37407"/>
    <tag k="addr:state" v="Tennessee"/>
    <tag k="addr:street" v="Calhoun Ave"/>
    <tag k="attribution" v="tiger"/>
    <tag k="source" v="tiger_import_v0.3_20091116000618"/>
  </way>
  <way id="50329589" version="2" timestamp="2010-02-15T01:51:00Z" uid="103576" user="DiverCTH" changeset="3879939"/>
  <way id="50329590" version="1" timestamp="2010-02-15T01:41:15Z" uid="103576" user="DiverCTH" changeset="3879939">
    <nd ref="639363017"/>
    <nd ref="639362970"/>
    <nd ref="639362971"/>
    <nd ref="639362973"/>
    <nd ref="639362967"/>
    <tag k="addr:country" v="US"/>
    <tag k="addr:county" v="Hamilton, TN"/>
    <tag k="addr:interpolation" v="odd"/>
    <tag k="addr:postcode" v="37412"/>
    <tag k="addr:state" v="Tennessee"/>
    <tag k="addr:street" v="Covington St"/>
    <tag k="attribution" v="tiger"/>
    <tag k="source" v="tiger_import_v0.3_20091116000622"/>
  </way>
  <way id="50329591" version="1" timestamp="2010-02-15T01:41:15Z" uid="103576" user="DiverCTH" changeset="3879939">
    <nd ref="639363024"/>
    <nd ref="639362977"/>
    <nd ref="639362979"/>
    <nd ref="639362975"/>
    <nd ref="639362974"/>
    <tag k="addr:country" v="US"/>
    <tag k="addr:county" v="Hamilton, TN"/>
    <tag k="addr:interpolation" v="even"/>
    <tag k="addr:postcode" v="37407"/>
    <tag k="addr:state" v="Tennessee"/>
    <tag k="addr:street" v="Covington St"/>
    <tag k="attribution" v="tiger"/>
    <tag k="source" v="tiger_import_v0.3_20091116000622"/>
  </way>
  <way id="50329591" version="2" timestamp="2010-02-15T01:51:00Z" uid="103576" user="DiverCTH" changeset="3879939"/>
  <way id="50329592" version="1" timestamp="2010-02-15T01:41:15Z" uid="103576" user="DiverCTH" changeset="3879939">
    <nd ref="639362999"/>
    <nd ref="639362998"/>
    <nd ref="639362985"/>
    <nd ref="639362984"/>
    <nd ref="639362990"/>
    <nd ref="639362989"/>
    <nd ref="639362944"/>
    <nd ref="639362943"/>
    <nd ref="639362938"/>
    <nd ref="639362934"/>
    <nd ref="639362928"/>
    <nd ref="639362929"/>
    <nd ref="639362930"/>
    <nd ref="639362931"/>
    <tag k="addr:country" v="US"/>
    <tag k="addr:county" v="Hamilton, TN"/>
    <tag k="addr:interpolation" v="odd"/>
    <tag k="addr:postcode" v="37407"/>
    <tag k="addr:state" v="Tennessee"/>
    <tag k="addr:street" v="Divine Avenue"/>
    <tag k="attribution" v="tiger"/>
  </way>
  <way id="50329593" version="1" timestamp="2010-02-15T01:41:15Z" uid="103576" user="DiverCTH" changeset="3879939">
    <nd ref="639363003"/>
    <nd ref="639363002"/>
    <nd ref="639362987"/>
    <nd ref="639362986"/>
    <nd ref="639362988"/>
    <nd ref="639362983"/>
    <nd ref="639362937"/>
    <nd ref="639362936"/>
    <nd ref="639362945"/>
    <nd ref="639362935"/>
    <nd ref="639362932"/>
    <nd ref="639362933"/>
    <nd ref="639362927"/>
    <nd ref="639362926"/>
    <tag k="addr:country" v="US"/>
    <tag k="addr:county" v="Hamilton, TN"/>
    <tag k="addr:interpolation" v="even"/>
    <tag k="addr:postcode" v="37407"/>
    <tag k="addr:state" v="Tennessee"/>
    <tag k="addr:street" v="Divine Ave"/>
    <tag k="attribution" v="tiger"/>
  </way>
  <way id="50329594" version="1" timestamp="2010-02-15T01:41:15Z" uid="103576" user="DiverCTH" changeset="3879939">
    <nd ref="639362942"/>
    <nd ref="639362939"/>
    <nd ref="639362948"/>
    <nd ref="639362949"/>
    <nd ref="639362960"/>
    <nd ref="639363004"/>
    <nd ref="639363015"/>
    <nd ref="639363013"/>
    <nd ref="639363014"/>
    <nd ref="639363020"/>
    <nd ref="639363022"/>
    <nd ref="639363021"/>
    <nd ref="639363019"/>
    <nd ref="639363018"/>
    <tag k="addr:country" v="US"/>
    <tag k="addr:county" v="Hamilton, TN"/>
    <tag k="addr:interpolation" v="odd"/>
    <tag k="addr:postcode" v="37407"/>
    <tag k="addr:state" v="Tennessee"/>
    <tag k="addr:street" v="East 50th Street"/>
    <tag k="attribution" v="tiger"/>
  </way>
  <way id="50329595" version="1" timestamp="2010-02-15T01:41:16Z" uid="103576" user="DiverCTH" changeset="3879939">
    <nd ref="639362940"/>
    <nd ref="639362941"/>
    <nd ref="639362952"/>
    <nd ref="639362950"/>
    <nd ref="639362961"/>
    <nd ref="639362959"/>
    <nd ref="639362972"/>
    <nd ref="639362968"/>
    <nd ref="639362969"/>
    <nd ref="639362978"/>
    <nd ref="639362976"/>
    <nd ref="639362981"/>
    <nd ref="639362980"/>
    <nd ref="639362982"/>
    <tag k="addr:country" v="US"/>
    <tag k="addr:county" v="Hamilton, TN"/>
    <tag k="addr:interpolation" v="even"/>
    <tag k="addr:postcode" v="37407"/>
    <tag k="addr:state" v="Tennessee"/>
    <tag k="addr:street" v="East 50th Street"/>
    <tag k="attribution" v="tiger"/>
  </way>
  <way id="50329596" version="1" timestamp="2010-02-15T01:41:16Z" uid="103576" user="DiverCTH" changeset="3879939">
    <nd ref="639362965"/>
    <nd ref="639362966"/>
    <nd ref="639362958"/>
    <nd ref="639362954"/>
    <nd ref="639362955"/>
    <tag k="addr:country" v="US"/>
    <tag k="addr:county" v="Hamilton, TN"/>
    <tag k="addr:interpolation" v="even"/>
    <tag k="addr:postcode" v="37407"/>
    <tag k="addr:state" v="Tennessee"/>
    <tag k="addr:street" v="Calhoun Ave"/>
    <tag k="attribution" v="tiger"/>
    <tag k="source" v="tiger_import_v0.3_20091116000618"/>
  </way>
  <way id="50329596" version="2" timestamp="2010-02-15T01:50:59Z" uid="103576" user="DiverCTH" changeset="3879939">
    <nd ref="639363011"/>
    <nd ref="639363005"/>
    <nd ref="639363006"/>
    <nd ref="639363007"/>
    <nd ref="639362965"/>
    <nd ref="639362966"/>
    <nd ref="639362958"/>
    <nd ref="639362954"/>
    <nd ref="639362955"/>
    <tag k="addr:country" v="US"/>
    <tag k="addr:county" v="Hamilton, TN"/>
    <tag k="addr:interpolation" v="even"/>
    <tag k="addr:postcode" v="37407"/>
    <tag k="addr:state" v="Tennessee"/>
    <tag k="addr:street" v="Calhoun Ave"/>
    <tag k="attribution" v="tiger"/>
    <tag k="source" v="tiger_import_v0.3_20091116000618"/>
  </way>
  <way id="50329596" version="3" timestamp="2010-02-15T02:18:15Z" uid="103576" user="DiverCTH" changeset="3879939">
    <nd ref="639366011"/>
    <nd ref="639365997"/>
    <nd ref="639366000"/>
    <nd ref="639365995"/>
    <nd ref="639365991"/>
    <nd ref="639365986"/>
    <nd ref="639365984"/>
    <nd ref="639365987"/>
    <nd ref="639365985"/>
    <nd ref="639365976"/>
    <nd ref="639365974"/>
    <nd ref="639365965"/>
    <nd ref="639365963"/>
    <nd ref="639365959"/>
    <nd ref="639365955"/>
    <nd ref="639363011"/>
    <nd ref="639363005"/>
    <nd ref="639363006"/>
    <nd ref="639363007"/>
    <nd ref="639362965"/>
    <nd ref="639362966"/>
    <nd ref="639362958"/>
    <nd ref="639362954"/>
    <nd ref="639362955"/>
    <tag k="addr:country" v="US"/>
    <tag k="addr:county" v="Hamilton, TN"/>
    <tag k="addr:interpolation" v="even"/>
    <tag k="addr:postcode" v="37407"/>
    <tag k="addr:state" v="Tennessee"/>
    <tag k="addr:street" v="Calhoun Avenue"/>
    <tag k="attribution" v="tiger"/>
  </way>
  <way id="50329597" version="1" timestamp="2010-02-15T01:41:16Z" uid="103576" user="DiverCTH" changeset="3879939">
    <nd ref="639363016"/>
    <nd ref="639363017"/>
    <tag k="addr:country" v="US"/>
    <tag k="addr:county" v="Hamilton, TN"/>
    <tag k="addr:interpolation" v="odd"/>
    <tag k="addr:postcode" v="37407"/>
    <tag k="addr:state" v="Tennessee"/>
    <tag k="addr:street" v="Covington St"/>
    <tag k="attribution" v="tiger"/>
    <tag k="source" v="tiger_import_v0.3_20091116000619"/>
  </way>
  <way id="50329597" version="2" timestamp="2010-02-15T02:22:41Z" uid="103576" user="DiverCTH" changeset="3879939">
    <nd ref="639366606"/>
    <nd ref="639366607"/>
    <nd ref="639366605"/>
    <nd ref="639366608"/>
    <nd ref="639366609"/>
    <nd ref="639366601"/>
    <nd ref="639366602"/>
    <nd ref="639366604"/>
    <nd ref="639366603"/>
    <nd ref="639366598"/>
    <nd ref="639366599"/>
    <nd ref="639366600"/>
    <nd ref="639366597"/>
    <nd ref="639363016"/>
    <nd ref="639363017"/>
    <tag k="addr:country" v="US"/>
    <tag k="addr:county" v="Hamilton, TN"/>
    <tag k="addr:interpolation" v="odd"/>
    <tag k="addr:postcode" v="37407"/>
    <tag k="addr:state" v="Tennessee"/>
    <tag k="addr:street" v="Covington Street"/>
    <tag k="attribution" v="tiger"/>
  </way>
  <way id="50329598" version="1" timestamp="2010-02-15T01:41:16Z" uid="103576" user="DiverCTH" changeset="3879939">
    <nd ref="639363023"/>
    <nd ref="639363024"/>
    <tag k="addr:country" v="US"/>
    <tag k="addr:county" v="Hamilton, TN"/>
    <tag k="addr:interpolation" v="even"/>
    <tag k="addr:postcode" v="37407"/>
    <tag k="addr:state" v="Tennessee"/>
    <tag k="addr:street" v="Covington St"/>
    <tag k="attribution" v="tiger"/>
    <tag k="source" v="tiger_import_v0.3_20091116000619"/>
  </way>
  <way id="50329598" version="2" timestamp="2010-02-15T01:50:59Z" uid="103576" user="DiverCTH" changeset="3879939">
    <nd ref="639363023"/>
    <nd ref="639363024"/>
    <nd ref="639362977"/>
    <nd ref="639362979"/>
    <nd ref="639362975"/>
    <nd ref="639362974"/>
    <tag k="addr:country" v="US"/>
    <tag k="addr:county" v="Hamilton, TN"/>
    <tag k="addr:interpolation" v="even"/>
    <tag k="addr:postcode" v="37407"/>
    <tag k="addr:state" v="Tennessee"/>
    <tag k="addr:street" v="Covington St"/>
    <tag k="attribution" v="tiger"/>
  </way>
  <way id="50329598" version="3" timestamp="2010-02-15T02:22:40Z" uid="103576" user="DiverCTH" changeset="3879939">
    <nd ref="639366618"/>
    <nd ref="639366619"/>
    <nd ref="639366616"/>
    <nd ref="639366617"/>
    <nd ref="639366620"/>
    <nd ref="639366614"/>
    <nd ref="639366615"/>
    <nd ref="639366612"/>
    <nd ref="639366613"/>
    <nd ref="639366611"/>
    <nd ref="639366610"/>
    <nd ref="639363023"/>
    <nd ref="639363024"/>
    <nd ref="639362977"/>
    <nd ref="639362979"/>
    <nd ref="639362975"/>
    <nd ref="639362974"/>
    <tag k="addr:country" v="US"/>
    <tag k="addr:county" v="Hamilton, TN"/>
    <tag k="addr:interpolation" v="even"/>
    <tag k="addr:postcode" v="37407"/>
    <tag k="addr:state" v="Tennessee"/>
    <tag k="addr:street" v="Covington Street"/>
    <tag k="attribution" v="tiger"/>
  </way>
  <way id="50329599" version="1" timestamp="2010-02-15T01:41:16Z" uid="103576" user="DiverCTH" changeset="3879939">
    <nd ref="639363012"/>
    <nd ref="639363008"/>
    <nd ref="639363009"/>
    <nd ref="639363010"/>
    <tag k="addr:country" v="US"/>
    <tag k="addr:county" v="Hamilton, TN"/>
    <tag k="addr:interpolation" v="odd"/>
    <tag k="addr:postcode" v="37407"/>
    <tag k="addr:state" v="Tennessee"/>
    <tag k="addr:street" v="Calhoun Ave"/>
    <tag k="attribution" v="tiger"/>
    <tag k="source" v="tiger_import_v0.3_20091116000618"/>
  </way>
  <way id="50329599" version="2" timestamp="2010-02-15T01:50:59Z" uid="103576" user="DiverCTH" changeset="3879939">
    <nd ref="639363012"/>
    <nd ref="639363008"/>
    <nd ref="639363009"/>
    <nd ref="639363010"/>
    <nd ref="639362962"/>
    <nd ref="639362963"/>
    <nd ref="639362964"/>
    <nd ref="639362956"/>
    <nd ref="639362957"/>
    <tag k="addr:country" v="US"/>
    <tag k="addr:county" v="Hamilton, TN"/>
    <tag k="addr:interpolation" v="odd"/>
    <tag k="addr:postcode" v="37407"/>
    <tag k="addr:state" v="Tennessee"/>
    <tag k="addr:street" v="Calhoun Ave"/>
    <tag k="attribution" v="tiger"/>
    <tag k="source" v="tiger_import_v0.3_20091116000618"/>
  </way>
  <way id="50329599" version="3" timestamp="2010-02-15T02:18:15Z" uid="103576" user="DiverCTH" changeset="3879939">
    <nd ref="639365988"/>
    <nd ref="639365990"/>
    <nd ref="639365989"/>
    <nd ref="639365993"/>
    <nd ref="639365981"/>
    <nd ref="639365977"/>
    <nd ref="639365982"/>
    <nd ref="639365979"/>
    <nd ref="639365972"/>
    <nd ref="639365970"/>
    <nd ref="639365962"/>
    <nd ref="639365961"/>
    <nd ref="639365957"/>
    <nd ref="639365960"/>
    <nd ref="639363012"/>
    <nd ref="639363008"/>
    <nd ref="639363009"/>
    <nd ref="639363010"/>
    <nd ref="639362962"/>
    <nd ref="639362963"/>
    <nd ref="639362964"/>
    <nd ref="639362956"/>
    <nd ref="639362957"/>
    <tag k="addr:country" v="US"/>
    <tag k="addr:county" v="Hamilton, TN"/>
    <tag k="addr:interpolation" v="odd"/>
    <tag k="addr:postcode" v="37407"/>
    <tag k="addr:state" v="Tennessee"/>
    <tag k="addr:street" v="Calhoun Avenue"/>
    <tag k="attribution" v="tiger"/>
  </way>
  <way id="50329600" version="1" timestamp="2010-02-15T01:41:17Z" uid="103576" user="DiverCTH" changeset="3879939">
    <nd ref="639362994"/>
    <nd ref="639362992"/>
    <tag k="addr:country" v="US"/>
    <tag k="addr:county" v="Hamilton, TN"/>
    <tag k="addr:interpolation" v="even"/>
    <tag k="addr:postcode" v="37407"/>
    <tag k="addr:state" v="Tennessee"/>
    <tag k="addr:street" v="Walthall Ave"/>
    <tag k="attribution" v="tiger"/>
    <tag k="source" v="tiger_import_v0.3_20091116000623"/>
  </way>
  <way id="50329600" version="2" timestamp="2010-02-15T01:51:00Z" uid="103576" user="DiverCTH" changeset="3879939"/>
  <way id="50329601" version="1" timestamp="2010-02-15T01:41:17Z" uid="103576" user="DiverCTH" changeset="3879939">
    <nd ref="639362991"/>
    <nd ref="639362993"/>
    <tag k="addr:country" v="US"/>
    <tag k="addr:county" v="Hamilton, TN"/>
    <tag k="addr:interpolation" v="odd"/>
    <tag k="addr:postcode" v="37407"/>
    <tag k="addr:state" v="Tennessee"/>
    <tag k="addr:street" v="Walthall Ave"/>
    <tag k="attribution" v="tiger"/>
    <tag k="source" v="tiger_import_v0.3_20091116000623"/>
  </way>
  <way id="50329601" version="2" timestamp="2010-02-15T01:51:00Z" uid="103576" user="DiverCTH" changeset="3879939"/>
  <way id="50329602" version="1" timestamp="2010-02-15T01:41:17Z" uid="103576" user="DiverCTH" changeset="3879939">
    <nd ref="639363000"/>
    <nd ref="639363001"/>
    <nd ref="639362995"/>
    <nd ref="639362996"/>
    <nd ref="639362997"/>
    <nd ref="639363003"/>
    <tag k="addr:country" v="US"/>
    <tag k="addr:county" v="Hamilton, TN"/>
    <tag k="addr:interpolation" v="all"/>
    <tag k="addr:postcode" v="37407"/>
    <tag k="addr:state" v="Tennessee"/>
    <tag k="addr:street" v="Divine Ave"/>
    <tag k="attribution" v="tiger"/>
    <tag k="source" v="tiger_import_v0.3_20091116000622"/>
  </way>
  <way id="50329638" version="1" timestamp="2010-02-15T01:50:57Z" uid="103576" user="DiverCTH" changeset="3879939">
    <nd ref="639363428"/>
    <nd ref="639363424"/>
    <nd ref="639363423"/>
    <nd ref="639363422"/>
    <nd ref="639363433"/>
    <nd ref="639363434"/>
    <nd ref="639363435"/>
    <nd ref="639363439"/>
    <nd ref="639363438"/>
    <nd ref="639363442"/>
    <nd ref="639363440"/>
    <nd ref="639363445"/>
    <nd ref="639363444"/>
    <nd ref="639363449"/>
    <nd ref="639363456"/>
    <nd ref="639363455"/>
    <nd ref="639363454"/>
    <nd ref="639363450"/>
    <tag k="addr:country" v="US"/>
    <tag k="addr:county" v="Hamilton, TN"/>
    <tag k="addr:interpolation" v="odd"/>
    <tag k="addr:postcode" v="37407"/>
    <tag k="addr:state" v="Tennessee"/>
    <tag k="addr:street" v="East 49th Street"/>
    <tag k="attribution" v="tiger"/>
  </way>
  <way id="50329639" version="1" timestamp="2010-02-15T01:50:58Z" uid="103576" user="DiverCTH" changeset="3879939">
    <nd ref="639363427"/>
    <nd ref="639363426"/>
    <nd ref="639363425"/>
    <nd ref="639363429"/>
    <nd ref="639363431"/>
    <nd ref="639363430"/>
    <nd ref="639363432"/>
    <nd ref="639363437"/>
    <nd ref="639363436"/>
    <nd ref="639363443"/>
    <nd ref="639363441"/>
    <nd ref="639363448"/>
    <nd ref="639363447"/>
    <nd ref="639363446"/>
    <nd ref="639363453"/>
    <nd ref="639363452"/>
    <nd ref="639363451"/>
    <nd ref="639363457"/>
    <tag k="addr:country" v="US"/>
    <tag k="addr:county" v="Hamilton, TN"/>
    <tag k="addr:interpolation" v="even"/>
    <tag k="addr:postcode" v="37407"/>
    <tag k="addr:state" v="Tennessee"/>
    <tag k="addr:street" v="East 49th Street"/>
    <tag k="attribution" v="tiger"/>
  </way>
  <way id="50329647" version="2" timestamp="2010-04-26T12:39:48Z" uid="7617" user="Franc" changeset="4531471">
    <nd ref="639363505"/>
    <nd ref="639363506"/>
    <nd ref="707307874"/>
    <nd ref="639363507"/>
    <nd ref="639363508"/>
    <nd ref="639363509"/>
    <tag k="highway" v="path"/>
    <tag k="source" v="nearmap"/>
  </way>
  <way id="50329649" version="2" timestamp="2010-04-02T11:01:05Z" uid="7617" user="Franc" changeset="4302244">
    <nd ref="639363512"/>
    <nd ref="639363513"/>
    <tag k="highway" v="service"/>
    <tag k="nostreetsign" v="20100402"/>
    <tag k="source" v="nearmap"/>
  </way>
  <way id="50329649" version="3" timestamp="2010-04-19T12:02:58Z" uid="7617" user="Franc" changeset="4467214">
    <nd ref="639363512"/>
    <nd ref="639363513"/>
    <tag k="highway" v="service"/>
    <tag k="nostreetsign" v="20100402"/>
    <tag k="source" v="nearmap"/>
  </way>
  <way id="50329649" version="4" timestamp="2010-04-23T09:07:13Z" uid="7617" user="Franc" changeset="4501825">
    <nd ref="639363512"/>
    <nd ref="639363513"/>
    <tag k="FCC" v="FCC"/>
    <tag k="highway" v="service"/>
    <tag k="nostreetsign" v="20100401"/>
    <tag k="source" v="nearmap"/>
  </way>
  <way id="50329649" version="5" timestamp="2010-04-23T09:07:40Z" uid="7617" user="Franc" changeset="4501826">
    <nd ref="639363512"/>
    <nd ref="639363513"/>
    <tag k="highway" v="service"/>
    <tag k="nostreetsign" v="20100401"/>
    <tag k="source" v="nearmap"/>
  </way>
  <way id="50329649" version="6" timestamp="2010-04-25T09:16:32Z" uid="7617" user="Franc" changeset="4518944">
    <nd ref="639363512"/>
    <nd ref="639363513"/>
    <tag k="fixme:sign:no" v="2010-04-01"/>
    <tag k="highway" v="service"/>
    <tag k="source" v="nearmap"/>
  </way>
  <way id="50329650" version="2" timestamp="2010-04-02T11:01:00Z" uid="7617" user="Franc" changeset="4302244">
    <nd ref="339203692"/>
    <nd ref="639363514"/>
    <nd ref="639363515"/>
    <nd ref="681313577"/>
    <tag k="highway" v="service"/>
    <tag k="name" v="Quinion Place"/>
    <tag k="source" v="survey"/>
  </way>
  <way id="50329651" version="2" timestamp="2010-04-02T11:00:52Z" uid="7617" user="Franc" changeset="4302244">
    <nd ref="639363518"/>
    <nd ref="639363519"/>
    <nd ref="639363511"/>
    <nd ref="639363520"/>
    <nd ref="639363521"/>
    <nd ref="639363522"/>
    <nd ref="639363523"/>
    <tag k="highway" v="residential"/>
    <tag k="nostreetsign" v="20100402"/>
    <tag k="source" v="survey"/>
  </way>
  <way id="50329651" version="3" timestamp="2010-04-19T12:02:53Z" uid="7617" user="Franc" changeset="4467214">
    <nd ref="639363518"/>
    <nd ref="639363519"/>
    <nd ref="639363511"/>
    <nd ref="639363520"/>
    <nd ref="639363521"/>
    <nd ref="639363522"/>
    <nd ref="639363523"/>
    <tag k="highway" v="residential"/>
    <tag k="nostreetsign" v="20100402"/>
    <tag k="source" v="survey"/>
  </way>
  <way id="50329651" version="4" timestamp="2010-04-23T09:07:10Z" uid="7617" user="Franc" changeset="4501825">
    <nd ref="639363518"/>
    <nd ref="639363519"/>
    <nd ref="639363511"/>
    <nd ref="639363520"/>
    <nd ref="639363521"/>
    <nd ref="639363522"/>
    <nd ref="639363523"/>
    <tag k="FCC" v="FCC"/>
    <tag k="highway" v="residential"/>
    <tag k="nostreetsign" v="20100401"/>
    <tag k="source" v="survey"/>
  </way>
  <way id="50329651" version="5" timestamp="2010-04-23T09:07:37Z" uid="7617" user="Franc" changeset="4501826">
    <nd ref="639363518"/>
    <nd ref="639363519"/>
    <nd ref="639363511"/>
    <nd ref="639363520"/>
    <nd ref="639363521"/>
    <nd ref="639363522"/>
    <nd ref="639363523"/>
    <tag k="highway" v="residential"/>
    <tag k="nostreetsign" v="20100401"/>
    <tag k="source" v="survey"/>
  </way>
  <way id="50329651" version="6" timestamp="2010-04-25T09:16:26Z" uid="7617" user="Franc" changeset="4518944">
    <nd ref="639363518"/>
    <nd ref="639363519"/>
    <nd ref="639363511"/>
    <nd ref="639363520"/>
    <nd ref="639363521"/>
    <nd ref="639363522"/>
    <nd ref="639363523"/>
    <tag k="fixme:sign:broken" v="2010-04-01"/>
    <tag k="highway" v="residential"/>
    <tag k="source" v="survey"/>
  </way>
  <way id="50329651" version="7" timestamp="2010-07-07T20:34:00Z" uid="74617" user="JohnSmith" changeset="5161069">
    <nd ref="639363518"/>
    <nd ref="639363519"/>
    <nd ref="639363511"/>
    <nd ref="639363520"/>
    <nd ref="639363521"/>
    <nd ref="639363522"/>
    <nd ref="639363523"/>
    <tag k="fixme:sign:broken" v="2010-04-01"/>
    <tag k="highway" v="residential"/>
    <tag k="maxspeed" v="50"/>
    <tag k="maxspeed:source" v="default residential speed limit in Australia"/>
    <tag k="source" v="survey"/>
  </way>
  <way id="50329651" version="8" timestamp="2012-01-20T01:44:04Z" uid="147510" user="woodpeck_fixbot" changeset="10442677">
    <nd ref="639363518"/>
    <nd ref="639363519"/>
    <nd ref="639363511"/>
    <nd ref="639363520"/>
    <nd ref="639363521"/>
    <nd ref="639363522"/>
    <nd ref="639363523"/>
    <tag k="fixme:sign:broken" v="2010-04-01"/>
    <tag k="highway" v="residential"/>
    <tag k="source" v="survey"/>
  </way>
  <way id="50329652" version="2" timestamp="2010-04-02T22:24:16Z" uid="7617" user="Franc" changeset="4308804">
    <nd ref="639363524"/>
    <nd ref="639363525"/>
    <nd ref="639363526"/>
    <tag k="highway" v="residential"/>
    <tag k="name" v="Dartle Way"/>
    <tag k="source" v="survey"/>
  </way>
  <way id="50329652" version="3" timestamp="2010-07-07T20:32:58Z" uid="74617" user="JohnSmith" changeset="5161069">
    <nd ref="639363524"/>
    <nd ref="639363525"/>
    <nd ref="639363526"/>
    <tag k="highway" v="residential"/>
    <tag k="maxspeed" v="50"/>
    <tag k="maxspeed:source" v="default residential speed limit in Australia"/>
    <tag k="name" v="Dartle Way"/>
    <tag k="source" v="survey"/>
  </way>
  <way id="50329652" version="4" timestamp="2012-01-20T01:44:06Z" uid="147510" user="woodpeck_fixbot" changeset="10442677">
    <nd ref="639363524"/>
    <nd ref="639363525"/>
    <nd ref="639363526"/>
    <tag k="highway" v="residential"/>
    <tag k="name" v="Dartle Way"/>
    <tag k="source" v="survey"/>
  </way>
  <way id="50329653" version="2" timestamp="2010-04-02T11:00:59Z" uid="7617" user="Franc" changeset="4302244">
    <nd ref="639363527"/>
    <nd ref="681313597"/>
    <nd ref="681313595"/>
    <nd ref="639363528"/>
    <nd ref="639363529"/>
    <nd ref="639363530"/>
    <tag k="highway" v="residential"/>
    <tag k="name" v="Nickleby Way"/>
    <tag k="source" v="survey"/>
  </way>
  <way id="50329653" version="3" timestamp="2010-07-07T20:37:35Z" uid="74617" user="JohnSmith" changeset="5161069">
    <nd ref="639363527"/>
    <nd ref="681313597"/>
    <nd ref="681313595"/>
    <nd ref="639363528"/>
    <nd ref="639363529"/>
    <nd ref="639363530"/>
    <tag k="highway" v="residential"/>
    <tag k="maxspeed" v="50"/>
    <tag k="maxspeed:source" v="default residential speed limit in Australia"/>
    <tag k="name" v="Nickleby Way"/>
    <tag k="source" v="survey"/>
  </way>
  <way id="50329653" version="4" timestamp="2012-01-20T01:44:07Z" uid="147510" user="woodpeck_fixbot" changeset="10442677">
    <nd ref="639363527"/>
    <nd ref="681313597"/>
    <nd ref="681313595"/>
    <nd ref="639363528"/>
    <nd ref="639363529"/>
    <nd ref="639363530"/>
    <tag k="highway" v="residential"/>
    <tag k="name" v="Nickleby Way"/>
    <tag k="source" v="survey"/>
  </way>
  <way id="50329654" version="2" timestamp="2010-04-02T11:01:01Z" uid="7617" user="Franc" changeset="4302244">
    <nd ref="639363531"/>
    <nd ref="639363532"/>
    <tag k="highway" v="residential"/>
    <tag k="name" v="Trabb Place"/>
    <tag k="source" v="survey"/>
  </way>
  <way id="50329654" version="3" timestamp="2010-07-07T20:31:28Z" uid="74617" user="JohnSmith" changeset="5161069">
    <nd ref="639363531"/>
    <nd ref="639363532"/>
    <tag k="highway" v="residential"/>
    <tag k="maxspeed" v="50"/>
    <tag k="maxspeed:source" v="default residential speed limit in Australia"/>
    <tag k="name" v="Trabb Place"/>
    <tag k="source" v="survey"/>
  </way>
  <way id="50329654" version="4" timestamp="2012-01-20T01:44:09Z" uid="147510" user="woodpeck_fixbot" changeset="10442677">
    <nd ref="639363531"/>
    <nd ref="639363532"/>
    <tag k="highway" v="residential"/>
    <tag k="name" v="Trabb Place"/>
    <tag k="source" v="survey"/>
  </way>
  <way id="50329655" version="2" timestamp="2010-04-02T11:01:00Z" uid="7617" user="Franc" changeset="4302244">
    <nd ref="639363533"/>
    <nd ref="681313580"/>
    <nd ref="639363534"/>
    <nd ref="639363535"/>
    <nd ref="639363536"/>
    <tag k="highway" v="residential"/>
    <tag k="name" v="Summerstone Way"/>
    <tag k="source" v="survey"/>
  </way>
  <way id="50329655" version="3" timestamp="2010-07-07T20:36:23Z" uid="74617" user="JohnSmith" changeset="5161069">
    <nd ref="639363533"/>
    <nd ref="681313580"/>
    <nd ref="639363534"/>
    <nd ref="639363535"/>
    <nd ref="639363536"/>
    <tag k="highway" v="residential"/>
    <tag k="maxspeed" v="50"/>
    <tag k="maxspeed:source" v="default residential speed limit in Australia"/>
    <tag k="name" v="Summerstone Way"/>
    <tag k="source" v="survey"/>
  </way>
  <way id="50329655" version="4" timestamp="2012-01-20T01:44:11Z" uid="147510" user="woodpeck_fixbot" changeset="10442677">
    <nd ref="639363533"/>
    <nd ref="681313580"/>
    <nd ref="639363534"/>
    <nd ref="639363535"/>
    <nd ref="639363536"/>
    <tag k="highway" v="residential"/>
    <tag k="name" v="Summerstone Way"/>
    <tag k="source" v="survey"/>
  </way>
  <way id="50329656" version="2" timestamp="2010-04-02T11:01:04Z" uid="7617" user="Franc" changeset="4302244">
    <nd ref="639363537"/>
    <nd ref="639363538"/>
    <nd ref="639363539"/>
    <nd ref="639363540"/>
    <tag k="highway" v="residential"/>
    <tag k="nostreetsign" v="20100402"/>
    <tag k="source" v="survey"/>
  </way>
  <way id="50329656" version="3" timestamp="2010-04-19T12:02:58Z" uid="7617" user="Franc" changeset="4467214">
    <nd ref="639363537"/>
    <nd ref="639363538"/>
    <nd ref="639363539"/>
    <nd ref="639363540"/>
    <tag k="highway" v="residential"/>
    <tag k="nostreetsign" v="20100402"/>
    <tag k="source" v="survey"/>
  </way>
  <way id="50329656" version="4" timestamp="2010-04-23T09:07:12Z" uid="7617" user="Franc" changeset="4501825">
    <nd ref="639363537"/>
    <nd ref="639363538"/>
    <nd ref="639363539"/>
    <nd ref="639363540"/>
    <tag k="FCC" v="FCC"/>
    <tag k="highway" v="residential"/>
    <tag k="nostreetsign" v="20100401"/>
    <tag k="source" v="survey"/>
  </way>
  <way id="50329656" version="5" timestamp="2010-04-23T09:07:39Z" uid="7617" user="Franc" changeset="4501826">
    <nd ref="639363537"/>
    <nd ref="639363538"/>
    <nd ref="639363539"/>
    <nd ref="639363540"/>
    <tag k="highway" v="residential"/>
    <tag k="nostreetsign" v="20100401"/>
    <tag k="source" v="survey"/>
  </way>
  <way id="50329656" version="6" timestamp="2010-04-25T09:16:32Z" uid="7617" user="Franc" changeset="4518944">
    <nd ref="639363537"/>
    <nd ref="639363538"/>
    <nd ref="639363539"/>
    <nd ref="639363540"/>
    <tag k="fixme:sign:broken" v="2010-04-01"/>
    <tag k="highway" v="residential"/>
    <tag k="source" v="survey"/>
  </way>
  <way id="50329656" version="7" timestamp="2010-07-07T20:33:41Z" uid="74617" user="JohnSmith" changeset="5161069">
    <nd ref="639363537"/>
    <nd ref="639363538"/>
    <nd ref="639363539"/>
    <nd ref="639363540"/>
    <tag k="fixme:sign:broken" v="2010-04-01"/>
    <tag k="highway" v="residential"/>
    <tag k="maxspeed" v="50"/>
    <tag k="maxspeed:source" v="default residential speed limit in Australia"/>
    <tag k="source" v="survey"/>
  </way>
  <way id="50329656" version="8" timestamp="2012-01-20T01:44:12Z" uid="147510" user="woodpeck_fixbot" changeset="10442677">
    <nd ref="639363537"/>
    <nd ref="639363538"/>
    <nd ref="639363539"/>
    <nd ref="639363540"/>
    <tag k="fixme:sign:broken" v="2010-04-01"/>
    <tag k="highway" v="residential"/>
    <tag k="source" v="survey"/>
  </way>
  <way id="50329657" version="2" timestamp="2010-04-02T11:01:04Z" uid="7617" user="Franc" changeset="4302244">
    <nd ref="639363541"/>
    <nd ref="639363542"/>
    <nd ref="639363543"/>
    <tag k="highway" v="residential"/>
    <tag k="nostreetsign" v="20100402"/>
    <tag k="source" v="survey"/>
  </way>
  <way id="50329657" version="3" timestamp="2010-04-19T12:02:58Z" uid="7617" user="Franc" changeset="4467214">
    <nd ref="639363541"/>
    <nd ref="639363542"/>
    <nd ref="639363543"/>
    <tag k="highway" v="residential"/>
    <tag k="nostreetsign" v="20100402"/>
    <tag k="source" v="survey"/>
  </way>
  <way id="50329657" version="4" timestamp="2010-04-23T09:07:12Z" uid="7617" user="Franc" changeset="4501825">
    <nd ref="639363541"/>
    <nd ref="639363542"/>
    <nd ref="639363543"/>
    <tag k="FCC" v="FCC"/>
    <tag k="highway" v="residential"/>
    <tag k="nostreetsign" v="20100401"/>
    <tag k="source" v="survey"/>
  </way>
  <way id="50329657" version="5" timestamp="2010-04-23T09:07:39Z" uid="7617" user="Franc" changeset="4501826">
    <nd ref="639363541"/>
    <nd ref="639363542"/>
    <nd ref="639363543"/>
    <tag k="highway" v="residential"/>
    <tag k="nostreetsign" v="20100401"/>
    <tag k="source" v="survey"/>
  </way>
  <way id="50329657" version="6" timestamp="2010-04-25T09:16:32Z" uid="7617" user="Franc" changeset="4518944">
    <nd ref="639363541"/>
    <nd ref="639363542"/>
    <nd ref="639363543"/>
    <tag k="fixme:sign:broken" v="2010-04-01"/>
    <tag k="highway" v="residential"/>
    <tag k="source" v="survey"/>
  </way>
  <way id="50329657" version="7" timestamp="2010-07-07T20:38:21Z" uid="74617" user="JohnSmith" changeset="5161069">
    <nd ref="639363541"/>
    <nd ref="639363542"/>
    <nd ref="639363543"/>
    <tag k="fixme:sign:broken" v="2010-04-01"/>
    <tag k="highway" v="residential"/>
    <tag k="maxspeed" v="50"/>
    <tag k="maxspeed:source" v="default residential speed limit in Australia"/>
    <tag k="source" v="survey"/>
  </way>
  <way id="50329657" version="8" timestamp="2012-01-20T01:44:14Z" uid="147510" user="woodpeck_fixbot" changeset="10442677">
    <nd ref="639363541"/>
    <nd ref="639363542"/>
    <nd ref="639363543"/>
    <tag k="fixme:sign:broken" v="2010-04-01"/>
    <tag k="highway" v="residential"/>
    <tag k="source" v="survey"/>
  </way>
  <way id="50329658" version="2" timestamp="2010-07-07T20:32:13Z" uid="74617" user="JohnSmith" changeset="5161069">
    <nd ref="639363544"/>
    <nd ref="639363545"/>
    <nd ref="639363546"/>
    <nd ref="639363547"/>
    <tag k="highway" v="residential"/>
    <tag k="maxspeed" v="50"/>
    <tag k="maxspeed:source" v="default residential speed limit in Australia"/>
    <tag k="source" v="nearmap"/>
  </way>
  <way id="50329658" version="3" timestamp="2010-08-29T10:06:26Z" uid="7617" user="Franc" changeset="5623837">
    <nd ref="639363544"/>
    <nd ref="639363545"/>
    <nd ref="639363546"/>
    <nd ref="639363547"/>
    <tag k="fixme:sign:no" v="2010-08-28"/>
    <tag k="highway" v="residential"/>
    <tag k="maxspeed" v="50"/>
    <tag k="maxspeed:source" v="default residential speed limit in Australia"/>
    <tag k="source" v="nearmap"/>
  </way>
  <way id="50329658" version="4" timestamp="2012-01-20T01:44:15Z" uid="147510" user="woodpeck_fixbot" changeset="10442677">
    <nd ref="639363544"/>
    <nd ref="639363545"/>
    <nd ref="639363546"/>
    <nd ref="639363547"/>
    <tag k="fixme:sign:no" v="2010-08-28"/>
    <tag k="highway" v="residential"/>
    <tag k="source" v="nearmap"/>
  </way>
  <way id="50329660" version="2" timestamp="2010-04-02T11:01:04Z" uid="7617" user="Franc" changeset="4302244">
    <nd ref="639363560"/>
    <nd ref="639363561"/>
    <nd ref="639363562"/>
    <tag k="highway" v="residential"/>
    <tag k="source" v="nearmap"/>
  </way>
  <way id="50329660" version="3" timestamp="2010-07-07T20:36:07Z" uid="74617" user="JohnSmith" changeset="5161069">
    <nd ref="639363560"/>
    <nd ref="639363561"/>
    <nd ref="639363562"/>
    <tag k="highway" v="residential"/>
    <tag k="maxspeed" v="50"/>
    <tag k="maxspeed:source" v="default residential speed limit in Australia"/>
    <tag k="source" v="nearmap"/>
  </way>
  <way id="50329660" version="4" timestamp="2010-08-28T12:59:45Z" uid="7617" user="Franc" changeset="5615880">
    <nd ref="639363560"/>
    <nd ref="884439160"/>
    <nd ref="639363561"/>
    <nd ref="639363562"/>
    <tag k="highway" v="residential"/>
    <tag k="maxspeed" v="50"/>
    <tag k="maxspeed:source" v="default residential speed limit in Australia"/>
    <tag k="name" v="Bilikin Way"/>
    <tag k="source" v="survey"/>
  </way>
  <way id="50329660" version="5" timestamp="2012-01-20T01:44:16Z" uid="147510" user="woodpeck_fixbot" changeset="10442677">
    <nd ref="639363560"/>
    <nd ref="884439160"/>
    <nd ref="639363561"/>
    <nd ref="639363562"/>
    <tag k="highway" v="residential"/>
    <tag k="name" v="Bilikin Way"/>
    <tag k="source" v="survey"/>
  </way>
  <way id="50329661" version="2" timestamp="2010-04-02T11:01:04Z" uid="7617" user="Franc" changeset="4302244">
    <nd ref="639363563"/>
    <nd ref="639363564"/>
    <tag k="highway" v="residential"/>
    <tag k="nostreetsign" v="20100402"/>
    <tag k="source" v="survey"/>
  </way>
  <way id="50329661" version="3" timestamp="2010-04-19T12:02:57Z" uid="7617" user="Franc" changeset="4467214">
    <nd ref="639363563"/>
    <nd ref="639363564"/>
    <tag k="highway" v="residential"/>
    <tag k="nostreetsign" v="20100402"/>
    <tag k="source" v="survey"/>
  </way>
  <way id="50329661" version="4" timestamp="2010-04-23T09:07:13Z" uid="7617" user="Franc" changeset="4501825">
    <nd ref="639363563"/>
    <nd ref="639363564"/>
    <tag k="FCC" v="FCC"/>
    <tag k="highway" v="residential"/>
    <tag k="nostreetsign" v="20100401"/>
    <tag k="source" v="survey"/>
  </way>
  <way id="50329661" version="5" timestamp="2010-04-23T09:07:40Z" uid="7617" user="Franc" changeset="4501826">
    <nd ref="639363563"/>
    <nd ref="639363564"/>
    <tag k="highway" v="residential"/>
    <tag k="nostreetsign" v="20100401"/>
    <tag k="source" v="survey"/>
  </way>
  <way id="50329661" version="6" timestamp="2010-04-25T09:16:32Z" uid="7617" user="Franc" changeset="4518944">
    <nd ref="639363563"/>
    <nd ref="639363564"/>
    <tag k="fixme:sign:broken" v="2010-04-01"/>
    <tag k="highway" v="residential"/>
    <tag k="source" v="survey"/>
  </way>
  <way id="50329661" version="7" timestamp="2010-07-07T20:32:38Z" uid="74617" user="JohnSmith" changeset="5161069">
    <nd ref="639363563"/>
    <nd ref="639363564"/>
    <tag k="fixme:sign:broken" v="2010-04-01"/>
    <tag k="highway" v="residential"/>
    <tag k="maxspeed" v="50"/>
    <tag k="maxspeed:source" v="default residential speed limit in Australia"/>
    <tag k="source" v="survey"/>
  </way>
  <way id="50329661" version="8" timestamp="2012-01-20T01:44:18Z" uid="147510" user="woodpeck_fixbot" changeset="10442677">
    <nd ref="639363563"/>
    <nd ref="639363564"/>
    <tag k="fixme:sign:broken" v="2010-04-01"/>
    <tag k="highway" v="residential"/>
    <tag k="source" v="survey"/>
  </way>
  <way id="50329662" version="2" timestamp="2010-04-02T11:01:05Z" uid="7617" user="Franc" changeset="4302244">
    <nd ref="639363565"/>
    <nd ref="639363566"/>
    <nd ref="681313689"/>
    <nd ref="639363567"/>
    <nd ref="639363568"/>
    <nd ref="639363569"/>
    <nd ref="339217079"/>
    <tag k="highway" v="residential"/>
    <tag k="name" v="Betsey Way"/>
    <tag k="source" v="survey"/>
  </way>
  <way id="50329662" version="3" timestamp="2010-07-07T20:34:56Z" uid="74617" user="JohnSmith" changeset="5161069">
    <nd ref="639363565"/>
    <nd ref="639363566"/>
    <nd ref="681313689"/>
    <nd ref="639363567"/>
    <nd ref="639363568"/>
    <nd ref="639363569"/>
    <nd ref="339217079"/>
    <tag k="highway" v="residential"/>
    <tag k="maxspeed" v="50"/>
    <tag k="maxspeed:source" v="default residential speed limit in Australia"/>
    <tag k="name" v="Betsey Way"/>
    <tag k="source" v="survey"/>
  </way>
  <way id="50329662" version="4" timestamp="2012-01-20T01:44:19Z" uid="147510" user="woodpeck_fixbot" changeset="10442677">
    <nd ref="639363565"/>
    <nd ref="639363566"/>
    <nd ref="681313689"/>
    <nd ref="639363567"/>
    <nd ref="639363568"/>
    <nd ref="639363569"/>
    <nd ref="339217079"/>
    <tag k="highway" v="residential"/>
    <tag k="name" v="Betsey Way"/>
    <tag k="source" v="survey"/>
  </way>
  <way id="50329663" version="2" timestamp="2010-04-02T09:01:06Z" uid="7617" user="Franc" changeset="4301284">
    <nd ref="639363570"/>
    <nd ref="639363571"/>
    <tag k="highway" v="residential"/>
    <tag k="nostreetsign" v="20100402"/>
    <tag k="source" v="nearmap"/>
  </way>
  <way id="50329663" version="3" timestamp="2010-04-19T12:02:52Z" uid="7617" user="Franc" changeset="4467214">
    <nd ref="639363570"/>
    <nd ref="639363571"/>
    <tag k="highway" v="residential"/>
    <tag k="nostreetsign" v="20100402"/>
    <tag k="source" v="nearmap"/>
  </way>
  <way id="50329663" version="4" timestamp="2010-04-23T09:07:09Z" uid="7617" user="Franc" changeset="4501825">
    <nd ref="639363570"/>
    <nd ref="639363571"/>
    <tag k="FCC" v="FCC"/>
    <tag k="highway" v="residential"/>
    <tag k="nostreetsign" v="20100401"/>
    <tag k="source" v="nearmap"/>
  </way>
  <way id="50329663" version="5" timestamp="2010-04-23T09:07:37Z" uid="7617" user="Franc" changeset="4501826">
    <nd ref="639363570"/>
    <nd ref="639363571"/>
    <tag k="highway" v="residential"/>
    <tag k="nostreetsign" v="20100401"/>
    <tag k="source" v="nearmap"/>
  </way>
  <way id="50329663" version="6" timestamp="2010-04-25T09:16:26Z" uid="7617" user="Franc" changeset="4518944">
    <nd ref="639363570"/>
    <nd ref="639363571"/>
    <tag k="fixme:sign:no" v="2010-04-01"/>
    <tag k="highway" v="residential"/>
    <tag k="source" v="nearmap"/>
  </way>
  <way id="50329663" version="7" timestamp="2010-07-07T20:31:07Z" uid="74617" user="JohnSmith" changeset="5161069">
    <nd ref="639363570"/>
    <nd ref="639363571"/>
    <tag k="fixme:sign:no" v="2010-04-01"/>
    <tag k="highway" v="residential"/>
    <tag k="maxspeed" v="50"/>
    <tag k="maxspeed:source" v="default residential speed limit in Australia"/>
    <tag k="source" v="nearmap"/>
  </way>
  <way id="50329663" version="8" timestamp="2012-01-20T01:44:21Z" uid="147510" user="woodpeck_fixbot" changeset="10442677">
    <nd ref="639363570"/>
    <nd ref="639363571"/>
    <tag k="fixme:sign:no" v="2010-04-01"/>
    <tag k="highway" v="residential"/>
    <tag k="source" v="nearmap"/>
  </way>
  <way id="50329664" version="2" timestamp="2010-04-02T11:01:05Z" uid="7617" user="Franc" changeset="4302244">
    <nd ref="639363572"/>
    <nd ref="639363573"/>
    <nd ref="639363574"/>
    <nd ref="639363575"/>
    <tag k="highway" v="residential"/>
    <tag k="name" v="Defarge Way"/>
    <tag k="source" v="survey"/>
  </way>
  <way id="50329664" version="3" timestamp="2010-07-07T20:33:09Z" uid="74617" user="JohnSmith" changeset="5161069">
    <nd ref="639363572"/>
    <nd ref="639363573"/>
    <nd ref="639363574"/>
    <nd ref="639363575"/>
    <tag k="highway" v="residential"/>
    <tag k="maxspeed" v="50"/>
    <tag k="maxspeed:source" v="default residential speed limit in Australia"/>
    <tag k="name" v="Defarge Way"/>
    <tag k="source" v="survey"/>
  </way>
  <way id="50329664" version="4" timestamp="2012-01-20T01:44:22Z" uid="147510" user="woodpeck_fixbot" changeset="10442677">
    <nd ref="639363572"/>
    <nd ref="639363573"/>
    <nd ref="639363574"/>
    <nd ref="639363575"/>
    <tag k="highway" v="residential"/>
    <tag k="name" v="Defarge Way"/>
    <tag k="source" v="survey"/>
  </way>
  <way id="50329665" version="2" timestamp="2010-04-02T11:01:05Z" uid="7617" user="Franc" changeset="4302244">
    <nd ref="639363576"/>
    <nd ref="639363577"/>
    <nd ref="639363578"/>
    <nd ref="639363579"/>
    <nd ref="639363580"/>
    <nd ref="339210997"/>
    <tag k="highway" v="residential"/>
    <tag k="nostreetsign" v="20100402"/>
    <tag k="source" v="nearmap"/>
  </way>
  <way id="50329665" version="3" timestamp="2010-04-19T12:02:57Z" uid="7617" user="Franc" changeset="4467214">
    <nd ref="639363576"/>
    <nd ref="639363577"/>
    <nd ref="639363578"/>
    <nd ref="639363579"/>
    <nd ref="639363580"/>
    <nd ref="339210997"/>
    <tag k="highway" v="residential"/>
    <tag k="nostreetsign" v="20100402"/>
    <tag k="source" v="nearmap"/>
  </way>
  <way id="50329665" version="4" timestamp="2010-04-23T09:07:13Z" uid="7617" user="Franc" changeset="4501825">
    <nd ref="639363576"/>
    <nd ref="639363577"/>
    <nd ref="639363578"/>
    <nd ref="639363579"/>
    <nd ref="639363580"/>
    <nd ref="339210997"/>
    <tag k="FCC" v="FCC"/>
    <tag k="highway" v="residential"/>
    <tag k="nostreetsign" v="20100401"/>
    <tag k="source" v="nearmap"/>
  </way>
  <way id="50329665" version="5" timestamp="2010-04-23T09:07:40Z" uid="7617" user="Franc" changeset="4501826">
    <nd ref="639363576"/>
    <nd ref="639363577"/>
    <nd ref="639363578"/>
    <nd ref="639363579"/>
    <nd ref="639363580"/>
    <nd ref="339210997"/>
    <tag k="highway" v="residential"/>
    <tag k="nostreetsign" v="20100401"/>
    <tag k="source" v="nearmap"/>
  </way>
  <way id="50329665" version="6" timestamp="2010-04-25T09:16:32Z" uid="7617" user="Franc" changeset="4518944">
    <nd ref="639363576"/>
    <nd ref="639363577"/>
    <nd ref="639363578"/>
    <nd ref="639363579"/>
    <nd ref="639363580"/>
    <nd ref="339210997"/>
    <tag k="fixme:sign:broken" v="2010-04-01"/>
    <tag k="highway" v="residential"/>
    <tag k="source" v="nearmap"/>
  </way>
  <way id="50329665" version="7" timestamp="2010-07-07T20:37:45Z" uid="74617" user="JohnSmith" changeset="5161069">
    <nd ref="639363576"/>
    <nd ref="639363577"/>
    <nd ref="639363578"/>
    <nd ref="639363579"/>
    <nd ref="639363580"/>
    <nd ref="339210997"/>
    <tag k="fixme:sign:broken" v="2010-04-01"/>
    <tag k="highway" v="residential"/>
    <tag k="maxspeed" v="50"/>
    <tag k="maxspeed:source" v="default residential speed limit in Australia"/>
    <tag k="source" v="nearmap"/>
  </way>
  <way id="50329665" version="8" timestamp="2012-01-20T01:44:23Z" uid="147510" user="woodpeck_fixbot" changeset="10442677">
    <nd ref="639363576"/>
    <nd ref="639363577"/>
    <nd ref="639363578"/>
    <nd ref="639363579"/>
    <nd ref="639363580"/>
    <nd ref="339210997"/>
    <tag k="fixme:sign:broken" v="2010-04-01"/>
    <tag k="highway" v="residential"/>
    <tag k="source" v="nearmap"/>
  </way>
  <way id="50329666" version="2" timestamp="2010-04-02T11:01:05Z" uid="7617" user="Franc" changeset="4302244">
    <nd ref="639363581"/>
    <nd ref="639363582"/>
    <nd ref="681313672"/>
    <nd ref="639363583"/>
    <nd ref="639363584"/>
    <nd ref="639363585"/>
    <tag k="highway" v="residential"/>
    <tag k="nostreetsign" v="20100402"/>
    <tag k="source" v="nearmap"/>
  </way>
  <way id="50329666" version="3" timestamp="2010-04-19T12:02:57Z" uid="7617" user="Franc" changeset="4467214">
    <nd ref="639363581"/>
    <nd ref="639363582"/>
    <nd ref="681313672"/>
    <nd ref="639363583"/>
    <nd ref="639363584"/>
    <nd ref="639363585"/>
    <tag k="highway" v="residential"/>
    <tag k="nostreetsign" v="20100402"/>
    <tag k="source" v="nearmap"/>
  </way>
  <way id="50329666" version="4" timestamp="2010-04-23T09:07:13Z" uid="7617" user="Franc" changeset="4501825">
    <nd ref="639363581"/>
    <nd ref="639363582"/>
    <nd ref="681313672"/>
    <nd ref="639363583"/>
    <nd ref="639363584"/>
    <nd ref="639363585"/>
    <tag k="FCC" v="FCC"/>
    <tag k="highway" v="residential"/>
    <tag k="nostreetsign" v="20100401"/>
    <tag k="source" v="nearmap"/>
  </way>
  <way id="50329666" version="5" timestamp="2010-04-23T09:07:40Z" uid="7617" user="Franc" changeset="4501826">
    <nd ref="639363581"/>
    <nd ref="639363582"/>
    <nd ref="681313672"/>
    <nd ref="639363583"/>
    <nd ref="639363584"/>
    <nd ref="639363585"/>
    <tag k="highway" v="residential"/>
    <tag k="nostreetsign" v="20100401"/>
    <tag k="source" v="nearmap"/>
  </way>
  <way id="50329666" version="6" timestamp="2010-04-25T09:16:32Z" uid="7617" user="Franc" changeset="4518944">
    <nd ref="639363581"/>
    <nd ref="639363582"/>
    <nd ref="681313672"/>
    <nd ref="639363583"/>
    <nd ref="639363584"/>
    <nd ref="639363585"/>
    <tag k="fixme:sign:broken" v="2010-04-01"/>
    <tag k="highway" v="residential"/>
    <tag k="source" v="nearmap"/>
  </way>
  <way id="50329666" version="7" timestamp="2010-07-07T20:31:40Z" uid="74617" user="JohnSmith" changeset="5161069">
    <nd ref="639363581"/>
    <nd ref="639363582"/>
    <nd ref="681313672"/>
    <nd ref="639363583"/>
    <nd ref="639363584"/>
    <nd ref="639363585"/>
    <tag k="fixme:sign:broken" v="2010-04-01"/>
    <tag k="highway" v="residential"/>
    <tag k="maxspeed" v="50"/>
    <tag k="maxspeed:source" v="default residential speed limit in Australia"/>
    <tag k="source" v="nearmap"/>
  </way>
  <way id="50329666" version="8" timestamp="2012-01-20T01:44:25Z" uid="147510" user="woodpeck_fixbot" changeset="10442677">
    <nd ref="639363581"/>
    <nd ref="639363582"/>
    <nd ref="681313672"/>
    <nd ref="639363583"/>
    <nd ref="639363584"/>
    <nd ref="639363585"/>
    <tag k="fixme:sign:broken" v="2010-04-01"/>
    <tag k="highway" v="residential"/>
    <tag k="source" v="nearmap"/>
  </way>
  <way id="50329667" version="2" timestamp="2010-04-02T11:01:04Z" uid="7617" user="Franc" changeset="4302244">
    <nd ref="639363586"/>
    <nd ref="639363587"/>
    <nd ref="639363562"/>
    <nd ref="639363588"/>
    <nd ref="639363589"/>
    <nd ref="639363590"/>
    <tag k="highway" v="residential"/>
    <tag k="name" v="Bilikin Way"/>
    <tag k="source" v="survey"/>
  </way>
  <way id="50329667" version="3" timestamp="2010-07-07T20:36:32Z" uid="74617" user="JohnSmith" changeset="5161069">
    <nd ref="639363586"/>
    <nd ref="639363587"/>
    <nd ref="639363562"/>
    <nd ref="639363588"/>
    <nd ref="639363589"/>
    <nd ref="639363590"/>
    <tag k="highway" v="residential"/>
    <tag k="maxspeed" v="50"/>
    <tag k="maxspeed:source" v="default residential speed limit in Australia"/>
    <tag k="name" v="Bilikin Way"/>
    <tag k="source" v="survey"/>
  </way>
  <way id="50329667" version="4" timestamp="2012-01-20T01:44:27Z" uid="147510" user="woodpeck_fixbot" changeset="10442677">
    <nd ref="639363586"/>
    <nd ref="639363587"/>
    <nd ref="639363562"/>
    <nd ref="639363588"/>
    <nd ref="639363589"/>
    <nd ref="639363590"/>
    <tag k="highway" v="residential"/>
    <tag k="name" v="Bilikin Way"/>
    <tag k="source" v="survey"/>
  </way>
  <way id="50329668" version="2" timestamp="2010-04-02T09:01:12Z" uid="7617" user="Franc" changeset="4301284">
    <nd ref="639363591"/>
    <nd ref="639363592"/>
    <nd ref="639363593"/>
    <nd ref="639363594"/>
    <nd ref="639363595"/>
    <nd ref="639363596"/>
    <tag k="highway" v="residential"/>
    <tag k="name" v="Willoughby Way"/>
    <tag k="source" v="survey"/>
  </way>
  <way id="50329668" version="3" timestamp="2010-07-07T20:35:39Z" uid="74617" user="JohnSmith" changeset="5161069">
    <nd ref="639363591"/>
    <nd ref="639363592"/>
    <nd ref="639363593"/>
    <nd ref="639363594"/>
    <nd ref="639363595"/>
    <nd ref="639363596"/>
    <tag k="highway" v="residential"/>
    <tag k="maxspeed" v="50"/>
    <tag k="maxspeed:source" v="default residential speed limit in Australia"/>
    <tag k="name" v="Willoughby Way"/>
    <tag k="source" v="survey"/>
  </way>
  <way id="50329668" version="4" timestamp="2012-01-20T01:44:28Z" uid="147510" user="woodpeck_fixbot" changeset="10442677">
    <nd ref="639363591"/>
    <nd ref="639363592"/>
    <nd ref="639363593"/>
    <nd ref="639363594"/>
    <nd ref="639363595"/>
    <nd ref="639363596"/>
    <tag k="highway" v="residential"/>
    <tag k="name" v="Willoughby Way"/>
    <tag k="source" v="survey"/>
  </way>
  <way id="50329669" version="2" timestamp="2010-04-02T09:01:07Z" uid="7617" user="Franc" changeset="4301284">
    <nd ref="639363597"/>
    <nd ref="639363598"/>
    <nd ref="639363599"/>
    <nd ref="639363600"/>
    <nd ref="339204791"/>
    <tag k="highway" v="construction"/>
    <tag k="note" v="closed on or before 20100402"/>
    <tag k="source" v="nearmap"/>
  </way>
  <way id="50329669" version="3" timestamp="2010-08-28T12:59:43Z" uid="7617" user="Franc" changeset="5615880">
    <nd ref="884439152"/>
    <nd ref="639363598"/>
    <nd ref="884439154"/>
    <nd ref="884439155"/>
    <nd ref="884439156"/>
    <nd ref="884439157"/>
    <nd ref="639363599"/>
    <nd ref="639363600"/>
    <nd ref="339204791"/>
    <tag k="highway" v="construction"/>
    <tag k="note" v="closed on or before 20100402"/>
    <tag k="source" v="nearmap"/>
  </way>
  <way id="50329670" version="2" timestamp="2010-04-02T09:01:12Z" uid="7617" user="Franc" changeset="4301284">
    <nd ref="639363601"/>
    <nd ref="639363602"/>
    <nd ref="639363603"/>
    <tag k="highway" v="residential"/>
    <tag k="nostreetsign" v="20100402"/>
    <tag k="source" v="nearmap"/>
  </way>
  <way id="50329670" version="3" timestamp="2010-04-19T12:02:56Z" uid="7617" user="Franc" changeset="4467214">
    <nd ref="639363601"/>
    <nd ref="639363602"/>
    <nd ref="639363603"/>
    <tag k="highway" v="residential"/>
    <tag k="nostreetsign" v="20100402"/>
    <tag k="source" v="nearmap"/>
  </way>
  <way id="50329670" version="4" timestamp="2010-04-23T09:07:12Z" uid="7617" user="Franc" changeset="4501825">
    <nd ref="639363601"/>
    <nd ref="639363602"/>
    <nd ref="639363603"/>
    <tag k="FCC" v="FCC"/>
    <tag k="highway" v="residential"/>
    <tag k="nostreetsign" v="20100401"/>
    <tag k="source" v="nearmap"/>
  </way>
  <way id="50329670" version="5" timestamp="2010-04-23T09:07:39Z" uid="7617" user="Franc" changeset="4501826">
    <nd ref="639363601"/>
    <nd ref="639363602"/>
    <nd ref="639363603"/>
    <tag k="highway" v="residential"/>
    <tag k="nostreetsign" v="20100401"/>
    <tag k="source" v="nearmap"/>
  </way>
  <way id="50329670" version="6" timestamp="2010-04-25T09:16:32Z" uid="7617" user="Franc" changeset="4518944">
    <nd ref="639363601"/>
    <nd ref="639363602"/>
    <nd ref="639363603"/>
    <tag k="fixme:sign:no" v="2010-04-01"/>
    <tag k="highway" v="residential"/>
    <tag k="source" v="nearmap"/>
  </way>
  <way id="50329670" version="7" timestamp="2010-07-07T20:34:24Z" uid="74617" user="JohnSmith" changeset="5161069">
    <nd ref="639363601"/>
    <nd ref="639363602"/>
    <nd ref="639363603"/>
    <tag k="fixme:sign:no" v="2010-04-01"/>
    <tag k="highway" v="residential"/>
    <tag k="maxspeed" v="50"/>
    <tag k="maxspeed:source" v="default residential speed limit in Australia"/>
    <tag k="source" v="nearmap"/>
  </way>
  <way id="50329670" version="8" timestamp="2012-01-20T01:44:29Z" uid="147510" user="woodpeck_fixbot" changeset="10442677">
    <nd ref="639363601"/>
    <nd ref="639363602"/>
    <nd ref="639363603"/>
    <tag k="fixme:sign:no" v="2010-04-01"/>
    <tag k="highway" v="residential"/>
    <tag k="source" v="nearmap"/>
  </way>
  <way id="50329671" version="2" timestamp="2010-04-02T09:01:06Z" uid="7617" user="Franc" changeset="4301284">
    <nd ref="639363602"/>
    <nd ref="639363571"/>
    <nd ref="639363604"/>
    <tag k="highway" v="residential"/>
    <tag k="nostreetsign" v="20100402"/>
    <tag k="source" v="nearmap"/>
  </way>
  <way id="50329671" version="3" timestamp="2010-04-19T12:02:53Z" uid="7617" user="Franc" changeset="4467214">
    <nd ref="639363602"/>
    <nd ref="639363571"/>
    <nd ref="639363604"/>
    <tag k="highway" v="residential"/>
    <tag k="nostreetsign" v="20100402"/>
    <tag k="source" v="nearmap"/>
  </way>
  <way id="50329671" version="4" timestamp="2010-04-23T09:07:09Z" uid="7617" user="Franc" changeset="4501825">
    <nd ref="639363602"/>
    <nd ref="639363571"/>
    <nd ref="639363604"/>
    <tag k="FCC" v="FCC"/>
    <tag k="highway" v="residential"/>
    <tag k="nostreetsign" v="20100401"/>
    <tag k="source" v="nearmap"/>
  </way>
  <way id="50329671" version="5" timestamp="2010-04-23T09:07:37Z" uid="7617" user="Franc" changeset="4501826">
    <nd ref="639363602"/>
    <nd ref="639363571"/>
    <nd ref="639363604"/>
    <tag k="highway" v="residential"/>
    <tag k="nostreetsign" v="20100401"/>
    <tag k="source" v="nearmap"/>
  </way>
  <way id="50329671" version="6" timestamp="2010-04-25T09:16:27Z" uid="7617" user="Franc" changeset="4518944">
    <nd ref="639363602"/>
    <nd ref="639363571"/>
    <nd ref="639363604"/>
    <tag k="fixme:sign:broken" v="2010-04-01"/>
    <tag k="highway" v="residential"/>
    <tag k="source" v="nearmap"/>
  </way>
  <way id="50329671" version="7" timestamp="2010-07-07T20:30:21Z" uid="74617" user="JohnSmith" changeset="5161069">
    <nd ref="639363602"/>
    <nd ref="639363571"/>
    <nd ref="639363604"/>
    <tag k="fixme:sign:broken" v="2010-04-01"/>
    <tag k="highway" v="residential"/>
    <tag k="maxspeed" v="50"/>
    <tag k="maxspeed:source" v="default residential speed limit in Australia"/>
    <tag k="source" v="nearmap"/>
  </way>
  <way id="50329671" version="8" timestamp="2012-01-20T01:44:31Z" uid="147510" user="woodpeck_fixbot" changeset="10442677">
    <nd ref="639363602"/>
    <nd ref="639363571"/>
    <nd ref="639363604"/>
    <tag k="fixme:sign:broken" v="2010-04-01"/>
    <tag k="highway" v="residential"/>
    <tag k="source" v="nearmap"/>
  </way>
  <way id="50329672" version="2" timestamp="2010-04-02T09:01:12Z" uid="7617" user="Franc" changeset="4301284">
    <nd ref="639363605"/>
    <nd ref="639363606"/>
    <nd ref="639363570"/>
    <nd ref="639363607"/>
    <nd ref="639363608"/>
    <tag k="highway" v="residential"/>
    <tag k="nostreetsign" v="20100402"/>
    <tag k="source" v="nearmap"/>
  </way>
  <way id="50329672" version="3" timestamp="2010-04-19T12:02:56Z" uid="7617" user="Franc" changeset="4467214">
    <nd ref="639363605"/>
    <nd ref="639363606"/>
    <nd ref="639363570"/>
    <nd ref="639363607"/>
    <nd ref="639363608"/>
    <tag k="highway" v="residential"/>
    <tag k="nostreetsign" v="20100402"/>
    <tag k="source" v="nearmap"/>
  </way>
  <way id="50329672" version="4" timestamp="2010-04-23T09:07:12Z" uid="7617" user="Franc" changeset="4501825">
    <nd ref="639363605"/>
    <nd ref="639363606"/>
    <nd ref="639363570"/>
    <nd ref="639363607"/>
    <nd ref="639363608"/>
    <tag k="FCC" v="FCC"/>
    <tag k="highway" v="residential"/>
    <tag k="nostreetsign" v="20100401"/>
    <tag k="source" v="nearmap"/>
  </way>
  <way id="50329672" version="5" timestamp="2010-04-23T09:07:39Z" uid="7617" user="Franc" changeset="4501826">
    <nd ref="639363605"/>
    <nd ref="639363606"/>
    <nd ref="639363570"/>
    <nd ref="639363607"/>
    <nd ref="639363608"/>
    <tag k="highway" v="residential"/>
    <tag k="nostreetsign" v="20100401"/>
    <tag k="source" v="nearmap"/>
  </way>
  <way id="50329672" version="6" timestamp="2010-04-25T09:16:33Z" uid="7617" user="Franc" changeset="4518944">
    <nd ref="639363605"/>
    <nd ref="639363606"/>
    <nd ref="639363570"/>
    <nd ref="639363607"/>
    <nd ref="639363608"/>
    <tag k="fixme:sign:no" v="2010-04-01"/>
    <tag k="highway" v="residential"/>
    <tag k="source" v="nearmap"/>
  </way>
  <way id="50329672" version="7" timestamp="2010-07-07T20:36:14Z" uid="74617" user="JohnSmith" changeset="5161069">
    <nd ref="639363605"/>
    <nd ref="639363606"/>
    <nd ref="639363570"/>
    <nd ref="639363607"/>
    <nd ref="639363608"/>
    <tag k="fixme:sign:no" v="2010-04-01"/>
    <tag k="highway" v="residential"/>
    <tag k="maxspeed" v="50"/>
    <tag k="maxspeed:source" v="default residential speed limit in Australia"/>
    <tag k="source" v="nearmap"/>
  </way>
  <way id="50329672" version="8" timestamp="2012-01-20T01:44:32Z" uid="147510" user="woodpeck_fixbot" changeset="10442677">
    <nd ref="639363605"/>
    <nd ref="639363606"/>
    <nd ref="639363570"/>
    <nd ref="639363607"/>
    <nd ref="639363608"/>
    <tag k="fixme:sign:no" v="2010-04-01"/>
    <tag k="highway" v="residential"/>
    <tag k="source" v="nearmap"/>
  </way>
  <way id="50329673" version="2" timestamp="2010-04-02T09:01:12Z" uid="7617" user="Franc" changeset="4301284">
    <nd ref="639363609"/>
    <nd ref="639363610"/>
    <nd ref="639363611"/>
    <nd ref="639363612"/>
    <tag k="highway" v="residential"/>
    <tag k="nostreetsign" v="20100402"/>
    <tag k="source" v="survey"/>
  </way>
  <way id="50329673" version="3" timestamp="2010-04-19T12:02:54Z" uid="7617" user="Franc" changeset="4467214">
    <nd ref="639363609"/>
    <nd ref="639363610"/>
    <nd ref="639363611"/>
    <nd ref="639363612"/>
    <tag k="highway" v="residential"/>
    <tag k="nostreetsign" v="20100402"/>
    <tag k="source" v="survey"/>
  </way>
  <way id="50329673" version="4" timestamp="2010-04-23T09:07:10Z" uid="7617" user="Franc" changeset="4501825">
    <nd ref="639363609"/>
    <nd ref="639363610"/>
    <nd ref="639363611"/>
    <nd ref="639363612"/>
    <tag k="FCC" v="FCC"/>
    <tag k="highway" v="residential"/>
    <tag k="nostreetsign" v="20100401"/>
    <tag k="source" v="survey"/>
  </way>
  <way id="50329673" version="5" timestamp="2010-04-23T09:07:38Z" uid="7617" user="Franc" changeset="4501826">
    <nd ref="639363609"/>
    <nd ref="639363610"/>
    <nd ref="639363611"/>
    <nd ref="639363612"/>
    <tag k="highway" v="residential"/>
    <tag k="nostreetsign" v="20100401"/>
    <tag k="source" v="survey"/>
  </way>
  <way id="50329673" version="6" timestamp="2010-04-25T09:16:28Z" uid="7617" user="Franc" changeset="4518944">
    <nd ref="639363609"/>
    <nd ref="639363610"/>
    <nd ref="639363611"/>
    <nd ref="639363612"/>
    <tag k="fixme:sign:broken" v="2010-04-01"/>
    <tag k="highway" v="residential"/>
    <tag k="source" v="survey"/>
  </way>
  <way id="50329673" version="7" timestamp="2010-07-07T20:32:49Z" uid="74617" user="JohnSmith" changeset="5161069">
    <nd ref="639363609"/>
    <nd ref="639363610"/>
    <nd ref="639363611"/>
    <nd ref="639363612"/>
    <tag k="fixme:sign:broken" v="2010-04-01"/>
    <tag k="highway" v="residential"/>
    <tag k="maxspeed" v="50"/>
    <tag k="maxspeed:source" v="default residential speed limit in Australia"/>
    <tag k="source" v="survey"/>
  </way>
  <way id="50329673" version="8" timestamp="2012-01-20T01:44:34Z" uid="147510" user="woodpeck_fixbot" changeset="10442677">
    <nd ref="639363609"/>
    <nd ref="639363610"/>
    <nd ref="639363611"/>
    <nd ref="639363612"/>
    <tag k="fixme:sign:broken" v="2010-04-01"/>
    <tag k="highway" v="residential"/>
    <tag k="source" v="survey"/>
  </way>
  <way id="50329674" version="2" timestamp="2010-04-02T09:01:12Z" uid="7617" user="Franc" changeset="4301284">
    <nd ref="639363613"/>
    <nd ref="639363614"/>
    <nd ref="639363615"/>
    <tag k="highway" v="residential"/>
    <tag k="nostreetsign" v="20100402"/>
    <tag k="source" v="survey"/>
  </way>
  <way id="50329674" version="3" timestamp="2010-04-19T12:02:54Z" uid="7617" user="Franc" changeset="4467214">
    <nd ref="639363613"/>
    <nd ref="639363614"/>
    <nd ref="639363615"/>
    <tag k="highway" v="residential"/>
    <tag k="nostreetsign" v="20100402"/>
    <tag k="source" v="survey"/>
  </way>
  <way id="50329674" version="4" timestamp="2010-04-23T09:07:10Z" uid="7617" user="Franc" changeset="4501825">
    <nd ref="639363613"/>
    <nd ref="639363614"/>
    <nd ref="639363615"/>
    <tag k="FCC" v="FCC"/>
    <tag k="highway" v="residential"/>
    <tag k="nostreetsign" v="20100401"/>
    <tag k="source" v="survey"/>
  </way>
  <way id="50329674" version="5" timestamp="2010-04-23T09:07:38Z" uid="7617" user="Franc" changeset="4501826">
    <nd ref="639363613"/>
    <nd ref="639363614"/>
    <nd ref="639363615"/>
    <tag k="highway" v="residential"/>
    <tag k="nostreetsign" v="20100401"/>
    <tag k="source" v="survey"/>
  </way>
  <way id="50329674" version="6" timestamp="2010-04-25T09:16:28Z" uid="7617" user="Franc" changeset="4518944">
    <nd ref="639363613"/>
    <nd ref="639363614"/>
    <nd ref="639363615"/>
    <tag k="fixme:sign:broken" v="2010-04-01"/>
    <tag k="highway" v="residential"/>
    <tag k="source" v="survey"/>
  </way>
  <way id="50329674" version="7" timestamp="2010-07-07T20:35:05Z" uid="74617" user="JohnSmith" changeset="5161069">
    <nd ref="639363613"/>
    <nd ref="639363614"/>
    <nd ref="639363615"/>
    <tag k="fixme:sign:broken" v="2010-04-01"/>
    <tag k="highway" v="residential"/>
    <tag k="maxspeed" v="50"/>
    <tag k="maxspeed:source" v="default residential speed limit in Australia"/>
    <tag k="source" v="survey"/>
  </way>
  <way id="50329674" version="8" timestamp="2012-01-20T01:44:35Z" uid="147510" user="woodpeck_fixbot" changeset="10442677">
    <nd ref="639363613"/>
    <nd ref="639363614"/>
    <nd ref="639363615"/>
    <tag k="fixme:sign:broken" v="2010-04-01"/>
    <tag k="highway" v="residential"/>
    <tag k="source" v="survey"/>
  </way>
  <way id="50329675" version="2" timestamp="2010-04-02T09:01:12Z" uid="7617" user="Franc" changeset="4301284">
    <nd ref="639363616"/>
    <nd ref="639363617"/>
    <tag k="highway" v="residential"/>
    <tag k="nostreetsign" v="20100402"/>
    <tag k="source" v="nearmap"/>
  </way>
  <way id="50329675" version="3" timestamp="2010-04-19T12:02:54Z" uid="7617" user="Franc" changeset="4467214">
    <nd ref="639363616"/>
    <nd ref="639363617"/>
    <tag k="highway" v="residential"/>
    <tag k="nostreetsign" v="20100402"/>
    <tag k="source" v="nearmap"/>
  </way>
  <way id="50329675" version="4" timestamp="2010-04-23T09:07:10Z" uid="7617" user="Franc" changeset="4501825">
    <nd ref="639363616"/>
    <nd ref="639363617"/>
    <tag k="FCC" v="FCC"/>
    <tag k="highway" v="residential"/>
    <tag k="nostreetsign" v="20100401"/>
    <tag k="source" v="nearmap"/>
  </way>
  <way id="50329675" version="5" timestamp="2010-04-23T09:07:38Z" uid="7617" user="Franc" changeset="4501826">
    <nd ref="639363616"/>
    <nd ref="639363617"/>
    <tag k="highway" v="residential"/>
    <tag k="nostreetsign" v="20100401"/>
    <tag k="source" v="nearmap"/>
  </way>
  <way id="50329675" version="6" timestamp="2010-04-25T09:16:28Z" uid="7617" user="Franc" changeset="4518944">
    <nd ref="639363616"/>
    <nd ref="639363617"/>
    <tag k="fixme:sign:no" v="2010-04-01"/>
    <tag k="highway" v="residential"/>
    <tag k="source" v="nearmap"/>
  </way>
  <way id="50329675" version="7" timestamp="2010-07-07T20:31:17Z" uid="74617" user="JohnSmith" changeset="5161069">
    <nd ref="639363616"/>
    <nd ref="639363617"/>
    <tag k="fixme:sign:no" v="2010-04-01"/>
    <tag k="highway" v="residential"/>
    <tag k="maxspeed" v="50"/>
    <tag k="maxspeed:source" v="default residential speed limit in Australia"/>
    <tag k="source" v="nearmap"/>
  </way>
  <way id="50329675" version="8" timestamp="2012-01-20T01:44:36Z" uid="147510" user="woodpeck_fixbot" changeset="10442677">
    <nd ref="639363616"/>
    <nd ref="639363617"/>
    <tag k="fixme:sign:no" v="2010-04-01"/>
    <tag k="highway" v="residential"/>
    <tag k="source" v="nearmap"/>
  </way>
  <way id="50329676" version="2" timestamp="2010-04-02T09:01:10Z" uid="7617" user="Franc" changeset="4301284">
    <nd ref="639363618"/>
    <nd ref="639363619"/>
    <nd ref="681275699"/>
    <nd ref="639363620"/>
    <nd ref="639363621"/>
    <nd ref="681275698"/>
    <nd ref="639363622"/>
    <nd ref="639363623"/>
    <nd ref="681275700"/>
    <nd ref="639363624"/>
    <tag k="highway" v="residential"/>
    <tag k="name" v="Westminster Way"/>
    <tag k="source" v="survey"/>
  </way>
  <way id="50329676" version="3" timestamp="2010-07-07T20:38:56Z" uid="74617" user="JohnSmith" changeset="5161069">
    <nd ref="639363618"/>
    <nd ref="639363619"/>
    <nd ref="681275699"/>
    <nd ref="639363620"/>
    <nd ref="639363621"/>
    <nd ref="681275698"/>
    <nd ref="639363622"/>
    <nd ref="639363623"/>
    <nd ref="681275700"/>
    <nd ref="639363624"/>
    <tag k="highway" v="residential"/>
    <tag k="maxspeed" v="50"/>
    <tag k="maxspeed:source" v="default residential speed limit in Australia"/>
    <tag k="name" v="Westminster Way"/>
    <tag k="source" v="survey"/>
  </way>
  <way id="50329676" version="4" timestamp="2012-01-20T01:44:37Z" uid="147510" user="woodpeck_fixbot" changeset="10442677">
    <nd ref="639363618"/>
    <nd ref="639363619"/>
    <nd ref="681275699"/>
    <nd ref="639363620"/>
    <nd ref="639363621"/>
    <nd ref="681275698"/>
    <nd ref="639363622"/>
    <nd ref="639363623"/>
    <nd ref="681275700"/>
    <nd ref="639363624"/>
    <tag k="highway" v="residential"/>
    <tag k="name" v="Westminster Way"/>
    <tag k="source" v="survey"/>
  </way>
  <way id="50329677" version="2" timestamp="2010-03-21T09:03:30Z" uid="7617" user="Franc" changeset="4188274">
    <nd ref="639363625"/>
    <nd ref="671192956"/>
    <nd ref="671192957"/>
    <nd ref="671192958"/>
    <nd ref="639363626"/>
    <nd ref="671192959"/>
    <nd ref="639363627"/>
    <nd ref="671192981"/>
    <nd ref="639363623"/>
    <tag k="highway" v="residential"/>
    <tag k="source" v="nearmap"/>
  </way>
  <way id="50329677" version="3" timestamp="2010-04-02T09:01:10Z" uid="7617" user="Franc" changeset="4301284">
    <nd ref="639363625"/>
    <nd ref="671192956"/>
    <nd ref="671192957"/>
    <nd ref="671192958"/>
    <nd ref="681275697"/>
    <nd ref="639363626"/>
    <nd ref="671192959"/>
    <nd ref="639363627"/>
    <nd ref="671192981"/>
    <nd ref="639363623"/>
    <tag k="highway" v="residential"/>
    <tag k="name" v="Mowbray Way"/>
    <tag k="source" v="survey"/>
  </way>
  <way id="50329677" version="4" timestamp="2010-07-07T20:35:20Z" uid="74617" user="JohnSmith" changeset="5161069">
    <nd ref="639363625"/>
    <nd ref="671192956"/>
    <nd ref="671192957"/>
    <nd ref="671192958"/>
    <nd ref="681275697"/>
    <nd ref="639363626"/>
    <nd ref="671192959"/>
    <nd ref="639363627"/>
    <nd ref="671192981"/>
    <nd ref="639363623"/>
    <tag k="highway" v="residential"/>
    <tag k="maxspeed" v="50"/>
    <tag k="maxspeed:source" v="default residential speed limit in Australia"/>
    <tag k="name" v="Mowbray Way"/>
    <tag k="source" v="survey"/>
  </way>
  <way id="50329677" version="5" timestamp="2012-01-20T01:44:39Z" uid="147510" user="woodpeck_fixbot" changeset="10442677">
    <nd ref="639363625"/>
    <nd ref="671192956"/>
    <nd ref="671192957"/>
    <nd ref="671192958"/>
    <nd ref="681275697"/>
    <nd ref="639363626"/>
    <nd ref="671192959"/>
    <nd ref="639363627"/>
    <nd ref="671192981"/>
    <nd ref="639363623"/>
    <tag k="highway" v="residential"/>
    <tag k="name" v="Mowbray Way"/>
    <tag k="source" v="survey"/>
  </way>
  <way id="50329678" version="2" timestamp="2010-04-02T09:01:09Z" uid="7617" user="Franc" changeset="4301284">
    <nd ref="639363628"/>
    <nd ref="639363629"/>
    <tag k="highway" v="residential"/>
    <tag k="name" v="Charmian Place"/>
    <tag k="source" v="survey"/>
  </way>
  <way id="50329678" version="3" timestamp="2010-07-07T20:37:27Z" uid="74617" user="JohnSmith" changeset="5161069">
    <nd ref="639363628"/>
    <nd ref="639363629"/>
    <tag k="highway" v="residential"/>
    <tag k="maxspeed" v="50"/>
    <tag k="maxspeed:source" v="default residential speed limit in Australia"/>
    <tag k="name" v="Charmian Place"/>
    <tag k="source" v="survey"/>
  </way>
  <way id="50329678" version="4" timestamp="2012-01-20T01:44:41Z" uid="147510" user="woodpeck_fixbot" changeset="10442677">
    <nd ref="639363628"/>
    <nd ref="639363629"/>
    <tag k="highway" v="residential"/>
    <tag k="name" v="Charmian Place"/>
    <tag k="source" v="survey"/>
  </way>
  <way id="50329679" version="2" timestamp="2010-04-02T09:01:09Z" uid="7617" user="Franc" changeset="4301284">
    <nd ref="639363630"/>
    <nd ref="639363631"/>
    <tag k="highway" v="residential"/>
    <tag k="name" v="Iras Place"/>
    <tag k="source" v="survey"/>
  </way>
  <way id="50329679" version="3" timestamp="2010-07-07T20:13:12Z" uid="74617" user="JohnSmith" changeset="5161069">
    <nd ref="639363630"/>
    <nd ref="639363631"/>
    <tag k="highway" v="residential"/>
    <tag k="maxspeed" v="50"/>
    <tag k="maxspeed:source" v="default residential speed limit in Australia"/>
    <tag k="name" v="Iras Place"/>
    <tag k="source" v="survey"/>
  </way>
  <way id="50329679" version="4" timestamp="2012-01-20T01:44:42Z" uid="147510" user="woodpeck_fixbot" changeset="10442677">
    <nd ref="639363630"/>
    <nd ref="639363631"/>
    <tag k="highway" v="residential"/>
    <tag k="name" v="Iras Place"/>
    <tag k="source" v="survey"/>
  </way>
  <way id="50329680" version="2" timestamp="2010-04-02T09:01:09Z" uid="7617" user="Franc" changeset="4301284">
    <nd ref="639363632"/>
    <nd ref="639363633"/>
    <tag k="highway" v="residential"/>
    <tag k="name" v="Philo Close"/>
    <tag k="source" v="survey"/>
  </way>
  <way id="50329680" version="3" timestamp="2010-07-07T20:07:54Z" uid="74617" user="JohnSmith" changeset="5161069">
    <nd ref="639363632"/>
    <nd ref="639363633"/>
    <tag k="highway" v="residential"/>
    <tag k="maxspeed" v="50"/>
    <tag k="maxspeed:source" v="default residential speed limit in Australia"/>
    <tag k="name" v="Philo Close"/>
    <tag k="source" v="survey"/>
  </way>
  <way id="50329680" version="4" timestamp="2012-01-20T01:44:43Z" uid="147510" user="woodpeck_fixbot" changeset="10442677">
    <nd ref="639363632"/>
    <nd ref="639363633"/>
    <tag k="highway" v="residential"/>
    <tag k="name" v="Philo Close"/>
    <tag k="source" v="survey"/>
  </way>
  <way id="50329681" version="2" timestamp="2010-04-02T09:01:09Z" uid="7617" user="Franc" changeset="4301284">
    <nd ref="639363634"/>
    <nd ref="310962033"/>
    <tag k="highway" v="residential"/>
    <tag k="name" v="Eros Place"/>
    <tag k="source" v="survey"/>
  </way>
  <way id="50329681" version="3" timestamp="2010-07-07T20:06:20Z" uid="74617" user="JohnSmith" changeset="5161069">
    <nd ref="639363634"/>
    <nd ref="310962033"/>
    <tag k="highway" v="residential"/>
    <tag k="maxspeed" v="50"/>
    <tag k="maxspeed:source" v="default residential speed limit in Australia"/>
    <tag k="name" v="Eros Place"/>
    <tag k="source" v="survey"/>
  </way>
  <way id="50329681" version="4" timestamp="2012-01-20T01:44:45Z" uid="147510" user="woodpeck_fixbot" changeset="10442677">
    <nd ref="639363634"/>
    <nd ref="310962033"/>
    <tag k="highway" v="residential"/>
    <tag k="name" v="Eros Place"/>
    <tag k="source" v="survey"/>
  </way>
  <way id="50329682" version="2" timestamp="2010-03-21T09:03:31Z" uid="7617" user="Franc" changeset="4188274">
    <nd ref="639363635"/>
    <nd ref="671192976"/>
    <tag k="highway" v="residential"/>
    <tag k="source" v="nearmap"/>
  </way>
  <way id="50329682" version="3" timestamp="2010-04-02T09:01:12Z" uid="7617" user="Franc" changeset="4301284">
    <nd ref="639363635"/>
    <nd ref="671192976"/>
    <tag k="highway" v="residential"/>
    <tag k="name" v="Menus Place"/>
    <tag k="source" v="survey"/>
  </way>
  <way id="50329682" version="4" timestamp="2010-07-07T20:33:44Z" uid="74617" user="JohnSmith" changeset="5161069">
    <nd ref="639363635"/>
    <nd ref="671192976"/>
    <tag k="highway" v="residential"/>
    <tag k="maxspeed" v="50"/>
    <tag k="maxspeed:source" v="default residential speed limit in Australia"/>
    <tag k="name" v="Menus Place"/>
    <tag k="source" v="survey"/>
  </way>
  <way id="50329682" version="5" timestamp="2012-01-20T01:44:46Z" uid="147510" user="woodpeck_fixbot" changeset="10442677">
    <nd ref="639363635"/>
    <nd ref="671192976"/>
    <tag k="highway" v="residential"/>
    <tag k="name" v="Menus Place"/>
    <tag k="source" v="survey"/>
  </way>
  <way id="50329683" version="2" timestamp="2010-04-02T09:01:09Z" uid="7617" user="Franc" changeset="4301284">
    <nd ref="639363637"/>
    <nd ref="639363638"/>
    <nd ref="639363639"/>
    <nd ref="639363640"/>
    <nd ref="639363641"/>
    <nd ref="639363642"/>
    <nd ref="639363643"/>
    <tag k="highway" v="residential"/>
    <tag k="name" v="Scarus Place"/>
    <tag k="source" v="survey"/>
  </way>
  <way id="50329683" version="3" timestamp="2010-07-07T20:09:38Z" uid="74617" user="JohnSmith" changeset="5161069">
    <nd ref="639363637"/>
    <nd ref="639363638"/>
    <nd ref="639363639"/>
    <nd ref="639363640"/>
    <nd ref="639363641"/>
    <nd ref="639363642"/>
    <nd ref="639363643"/>
    <tag k="highway" v="residential"/>
    <tag k="maxspeed" v="50"/>
    <tag k="maxspeed:source" v="default residential speed limit in Australia"/>
    <tag k="name" v="Scarus Place"/>
    <tag k="source" v="survey"/>
  </way>
  <way id="50329683" version="4" timestamp="2012-01-20T01:44:47Z" uid="147510" user="woodpeck_fixbot" changeset="10442677">
    <nd ref="639363637"/>
    <nd ref="639363638"/>
    <nd ref="639363639"/>
    <nd ref="639363640"/>
    <nd ref="639363641"/>
    <nd ref="639363642"/>
    <nd ref="639363643"/>
    <tag k="highway" v="residential"/>
    <tag k="name" v="Scarus Place"/>
    <tag k="source" v="survey"/>
  </way>
  <way id="50329684" version="2" timestamp="2010-03-21T12:48:52Z" uid="7617" user="Franc" changeset="4190431">
    <nd ref="639363641"/>
    <nd ref="639363644"/>
    <nd ref="671322883"/>
    <nd ref="671322882"/>
    <nd ref="671322880"/>
    <nd ref="671322879"/>
    <nd ref="639363646"/>
    <tag k="highway" v="path"/>
    <tag k="source" v="nearmap"/>
  </way>
  <way id="50329685" version="2" timestamp="2010-03-21T10:37:37Z" uid="7617" user="Franc" changeset="4189097">
    <nd ref="639363646"/>
    <nd ref="639363647"/>
    <nd ref="639363648"/>
    <nd ref="639363649"/>
    <nd ref="671219599"/>
    <nd ref="671219597"/>
    <nd ref="639363650"/>
    <tag k="highway" v="path"/>
    <tag k="source" v="nearmap"/>
  </way>
  <way id="50329702" version="2" timestamp="2010-07-07T20:30:02Z" uid="74617" user="JohnSmith" changeset="5161069">
    <nd ref="639363739"/>
    <nd ref="292743112"/>
    <tag k="highway" v="residential"/>
    <tag k="maxspeed" v="50"/>
    <tag k="maxspeed:source" v="default residential speed limit in Australia"/>
    <tag k="source" v="nearmap"/>
  </way>
  <way id="50329702" version="3" timestamp="2012-01-20T01:44:48Z" uid="147510" user="woodpeck_fixbot" changeset="10442677">
    <nd ref="639363739"/>
    <nd ref="292743112"/>
    <tag k="highway" v="residential"/>
    <tag k="source" v="nearmap"/>
  </way>
  <way id="50329703" version="2" timestamp="2010-04-26T12:11:27Z" uid="7617" user="Franc" changeset="4531211">
    <nd ref="639363741"/>
    <nd ref="639363742"/>
    <nd ref="639363743"/>
    <nd ref="639363744"/>
    <nd ref="639363745"/>
    <nd ref="639363746"/>
    <nd ref="639363747"/>
    <nd ref="639363748"/>
    <nd ref="639363749"/>
    <tag k="highway" v="residential"/>
    <tag k="name" v="Weemala Crescent"/>
    <tag k="source" v="survey"/>
  </way>
  <way id="50329703" version="3" timestamp="2010-07-07T20:35:26Z" uid="74617" user="JohnSmith" changeset="5161069">
    <nd ref="639363741"/>
    <nd ref="639363742"/>
    <nd ref="639363743"/>
    <nd ref="639363744"/>
    <nd ref="639363745"/>
    <nd ref="639363746"/>
    <nd ref="639363747"/>
    <nd ref="639363748"/>
    <nd ref="639363749"/>
    <tag k="highway" v="residential"/>
    <tag k="maxspeed" v="50"/>
    <tag k="maxspeed:source" v="default residential speed limit in Australia"/>
    <tag k="name" v="Weemala Crescent"/>
    <tag k="source" v="survey"/>
  </way>
  <way id="50329703" version="4" timestamp="2012-01-20T01:44:51Z" uid="147510" user="woodpeck_fixbot" changeset="10442677">
    <nd ref="639363741"/>
    <nd ref="639363742"/>
    <nd ref="639363743"/>
    <nd ref="639363744"/>
    <nd ref="639363745"/>
    <nd ref="639363746"/>
    <nd ref="639363747"/>
    <nd ref="639363748"/>
    <nd ref="639363749"/>
    <tag k="highway" v="residential"/>
    <tag k="name" v="Weemala Crescent"/>
    <tag k="source" v="survey"/>
  </way>
  <way id="50329704" version="2" timestamp="2010-04-02T07:54:23Z" uid="7617" user="Franc" changeset="4300889">
    <nd ref="639363750"/>
    <nd ref="339222504"/>
    <tag k="highway" v="residential"/>
    <tag k="oneway" v="yes"/>
    <tag k="source" v="nearmap"/>
  </way>
  <way id="50329704" version="3" timestamp="2010-04-26T12:11:23Z" uid="7617" user="Franc" changeset="4531211">
    <nd ref="639363750"/>
    <nd ref="339222504"/>
    <tag k="highway" v="residential"/>
    <tag k="name" v="Kullaroo Avenue"/>
    <tag k="oneway" v="yes"/>
    <tag k="source" v="survey"/>
  </way>
  <way id="50329704" version="4" timestamp="2010-07-07T20:32:31Z" uid="74617" user="JohnSmith" changeset="5161069">
    <nd ref="639363750"/>
    <nd ref="339222504"/>
    <tag k="highway" v="residential"/>
    <tag k="maxspeed" v="50"/>
    <tag k="maxspeed:source" v="default residential speed limit in Australia"/>
    <tag k="name" v="Kullaroo Avenue"/>
    <tag k="oneway" v="yes"/>
    <tag k="source" v="survey"/>
  </way>
  <way id="50329704" version="5" timestamp="2012-01-20T01:44:52Z" uid="147510" user="woodpeck_fixbot" changeset="10442677">
    <nd ref="639363750"/>
    <nd ref="339222504"/>
    <tag k="highway" v="residential"/>
    <tag k="name" v="Kullaroo Avenue"/>
    <tag k="oneway" v="yes"/>
    <tag k="source" v="survey"/>
  </way>
  <way id="50329705" version="2" timestamp="2010-04-02T07:54:23Z" uid="7617" user="Franc" changeset="4300889">
    <nd ref="339222503"/>
    <nd ref="639363750"/>
    <tag k="highway" v="residential"/>
    <tag k="oneway" v="yes"/>
    <tag k="source" v="nearmap"/>
  </way>
  <way id="50329705" version="3" timestamp="2010-04-26T12:11:23Z" uid="7617" user="Franc" changeset="4531211">
    <nd ref="339222503"/>
    <nd ref="639363750"/>
    <tag k="highway" v="residential"/>
    <tag k="name" v="Kullaroo Avenue"/>
    <tag k="oneway" v="yes"/>
    <tag k="source" v="survey"/>
  </way>
  <way id="50329705" version="4" timestamp="2010-07-07T20:37:14Z" uid="74617" user="JohnSmith" changeset="5161069">
    <nd ref="339222503"/>
    <nd ref="639363750"/>
    <tag k="highway" v="residential"/>
    <tag k="maxspeed" v="50"/>
    <tag k="maxspeed:source" v="default residential speed limit in Australia"/>
    <tag k="name" v="Kullaroo Avenue"/>
    <tag k="oneway" v="yes"/>
    <tag k="source" v="survey"/>
  </way>
  <way id="50329705" version="5" timestamp="2012-01-20T01:44:54Z" uid="147510" user="woodpeck_fixbot" changeset="10442677">
    <nd ref="339222503"/>
    <nd ref="639363750"/>
    <tag k="highway" v="residential"/>
    <tag k="name" v="Kullaroo Avenue"/>
    <tag k="oneway" v="yes"/>
    <tag k="source" v="survey"/>
  </way>
  <way id="50329706" version="2" timestamp="2010-04-02T08:22:10Z" uid="7617" user="Franc" changeset="4301067">
    <nd ref="339223494"/>
    <nd ref="339223464"/>
    <nd ref="339223610"/>
    <nd ref="339223465"/>
    <tag k="highway" v="tertiary"/>
    <tag k="name" v="Akuna Avenue"/>
    <tag k="source" v="survey"/>
  </way>
  <way id="50329707" version="2" timestamp="2010-04-02T07:54:27Z" uid="7617" user="Franc" changeset="4300889"/>
  <way id="50329708" version="2" timestamp="2010-04-02T07:54:27Z" uid="7617" user="Franc" changeset="4300889">
    <nd ref="639363753"/>
    <nd ref="639363749"/>
    <nd ref="639363754"/>
    <nd ref="639363741"/>
    <nd ref="681244000"/>
    <nd ref="681244001"/>
    <nd ref="681244003"/>
    <nd ref="639363750"/>
    <tag k="highway" v="residential"/>
    <tag k="source" v="nearmap"/>
  </way>
  <way id="50329708" version="3" timestamp="2010-04-26T12:11:27Z" uid="7617" user="Franc" changeset="4531211">
    <nd ref="639363753"/>
    <nd ref="639363749"/>
    <nd ref="639363754"/>
    <nd ref="639363741"/>
    <nd ref="681244000"/>
    <nd ref="681244001"/>
    <nd ref="681244003"/>
    <nd ref="639363750"/>
    <tag k="highway" v="residential"/>
    <tag k="name" v="Kullaroo Avenue"/>
    <tag k="source" v="survey"/>
  </way>
  <way id="50329708" version="4" timestamp="2010-07-07T20:35:12Z" uid="74617" user="JohnSmith" changeset="5161069">
    <nd ref="639363753"/>
    <nd ref="639363749"/>
    <nd ref="639363754"/>
    <nd ref="639363741"/>
    <nd ref="681244000"/>
    <nd ref="681244001"/>
    <nd ref="681244003"/>
    <nd ref="639363750"/>
    <tag k="highway" v="residential"/>
    <tag k="maxspeed" v="50"/>
    <tag k="maxspeed:source" v="default residential speed limit in Australia"/>
    <tag k="name" v="Kullaroo Avenue"/>
    <tag k="source" v="survey"/>
  </way>
  <way id="50329708" version="5" timestamp="2010-08-29T10:06:29Z" uid="7617" user="Franc" changeset="5623837">
    <nd ref="639363753"/>
    <nd ref="639363749"/>
    <nd ref="639363754"/>
    <nd ref="885946590"/>
    <nd ref="885946585"/>
    <nd ref="639363741"/>
    <nd ref="885946582"/>
    <nd ref="681244000"/>
    <nd ref="681244001"/>
    <nd ref="681244003"/>
    <nd ref="639363750"/>
    <tag k="highway" v="residential"/>
    <tag k="maxspeed" v="50"/>
    <tag k="maxspeed:source" v="default residential speed limit in Australia"/>
    <tag k="name" v="Kullaroo Avenue"/>
    <tag k="source" v="survey"/>
  </way>
  <way id="50329708" version="6" timestamp="2012-01-20T01:44:56Z" uid="147510" user="woodpeck_fixbot" changeset="10442677">
    <nd ref="639363753"/>
    <nd ref="639363749"/>
    <nd ref="639363754"/>
    <nd ref="885946590"/>
    <nd ref="885946585"/>
    <nd ref="639363741"/>
    <nd ref="885946582"/>
    <nd ref="681244000"/>
    <nd ref="681244001"/>
    <nd ref="681244003"/>
    <nd ref="639363750"/>
    <tag k="highway" v="residential"/>
    <tag k="name" v="Kullaroo Avenue"/>
    <tag k="source" v="survey"/>
  </way>
  <way id="50329780" version="1" timestamp="2010-02-15T01:58:13Z" uid="103576" user="DiverCTH" changeset="3879939">
    <nd ref="639364287"/>
    <nd ref="639364288"/>
    <nd ref="639364283"/>
    <nd ref="639364285"/>
    <nd ref="639364278"/>
    <nd ref="639364307"/>
    <nd ref="639364306"/>
    <nd ref="639364305"/>
    <nd ref="639364304"/>
    <nd ref="639364296"/>
    <nd ref="639364294"/>
    <nd ref="639364292"/>
    <nd ref="639364291"/>
    <nd ref="639364290"/>
    <nd ref="639364245"/>
    <nd ref="639364244"/>
    <nd ref="639364252"/>
    <nd ref="639364251"/>
    <nd ref="639364246"/>
    <nd ref="639364249"/>
    <nd ref="639364248"/>
    <nd ref="639364264"/>
    <nd ref="639364268"/>
    <nd ref="639364269"/>
    <nd ref="639364275"/>
    <nd ref="639364277"/>
    <nd ref="639364273"/>
    <nd ref="639364271"/>
    <nd ref="639364313"/>
    <nd ref="639364312"/>
    <nd ref="639364317"/>
    <nd ref="639364319"/>
    <nd ref="639364320"/>
    <nd ref="639364322"/>
    <tag k="addr:country" v="US"/>
    <tag k="addr:county" v="Hamilton, TN"/>
    <tag k="addr:interpolation" v="even"/>
    <tag k="addr:postcode" v="37407"/>
    <tag k="addr:state" v="Tennessee"/>
    <tag k="addr:street" v="East 47th Street"/>
    <tag k="attribution" v="tiger"/>
  </way>
  <way id="50329781" version="1" timestamp="2010-02-15T01:58:14Z" uid="103576" user="DiverCTH" changeset="3879939">
    <nd ref="639364282"/>
    <nd ref="639364280"/>
    <nd ref="639364286"/>
    <nd ref="639364284"/>
    <nd ref="639364281"/>
    <nd ref="639364279"/>
    <nd ref="639364302"/>
    <nd ref="639364301"/>
    <nd ref="639364300"/>
    <nd ref="639364299"/>
    <nd ref="639364303"/>
    <nd ref="639364295"/>
    <nd ref="639364293"/>
    <nd ref="639364310"/>
    <nd ref="639364311"/>
    <nd ref="639364255"/>
    <nd ref="639364254"/>
    <nd ref="639364253"/>
    <nd ref="639364250"/>
    <nd ref="639364261"/>
    <nd ref="639364262"/>
    <nd ref="639364258"/>
    <nd ref="639364259"/>
    <nd ref="639364260"/>
    <nd ref="639364265"/>
    <nd ref="639364267"/>
    <nd ref="639364266"/>
    <nd ref="639364272"/>
    <nd ref="639364274"/>
    <nd ref="639364270"/>
    <nd ref="639364276"/>
    <nd ref="639364315"/>
    <nd ref="639364314"/>
    <nd ref="639364316"/>
    <nd ref="639364318"/>
    <nd ref="639364321"/>
    <nd ref="639364323"/>
    <tag k="addr:country" v="US"/>
    <tag k="addr:county" v="Hamilton, TN"/>
    <tag k="addr:interpolation" v="odd"/>
    <tag k="addr:postcode" v="37407"/>
    <tag k="addr:state" v="Tennessee"/>
    <tag k="addr:street" v="East 47th Street"/>
    <tag k="attribution" v="tiger"/>
  </way>
  <way id="50329794" version="2" timestamp="2010-04-26T13:04:01Z" uid="7617" user="Franc" changeset="4531709">
    <nd ref="639364368"/>
    <nd ref="639364369"/>
    <nd ref="707358807"/>
    <nd ref="639364370"/>
    <nd ref="639364371"/>
    <nd ref="639364372"/>
    <nd ref="639364373"/>
    <tag k="highway" v="path"/>
    <tag k="source" v="nearmap"/>
  </way>
  <way id="50329795" version="2" timestamp="2010-07-07T20:35:02Z" uid="74617" user="JohnSmith" changeset="5161069">
    <nd ref="639364374"/>
    <nd ref="639364375"/>
    <nd ref="639364376"/>
    <tag k="highway" v="residential"/>
    <tag k="maxspeed" v="50"/>
    <tag k="maxspeed:source" v="default residential speed limit in Australia"/>
    <tag k="oneway" v="yes"/>
    <tag k="source" v="nearmap"/>
  </way>
  <way id="50329795" version="3" timestamp="2012-01-20T01:44:57Z" uid="147510" user="woodpeck_fixbot" changeset="10442677">
    <nd ref="639364374"/>
    <nd ref="639364375"/>
    <nd ref="639364376"/>
    <tag k="highway" v="residential"/>
    <tag k="oneway" v="yes"/>
    <tag k="source" v="nearmap"/>
  </way>
  <way id="50329796" version="2" timestamp="2010-07-07T20:34:05Z" uid="74617" user="JohnSmith" changeset="5161069">
    <nd ref="292738618"/>
    <nd ref="292738574"/>
    <nd ref="301097566"/>
    <tag k="highway" v="residential"/>
    <tag k="maxspeed" v="50"/>
    <tag k="maxspeed:source" v="default residential speed limit in Australia"/>
    <tag k="name" v="McLaughlin Circuit"/>
    <tag k="oneway" v="yes"/>
    <tag k="source" v="yahoo_images"/>
  </way>
  <way id="50329796" version="3" timestamp="2010-08-28T10:25:44Z" uid="7617" user="Franc" changeset="5614701">
    <nd ref="292738618"/>
    <nd ref="301097566"/>
    <tag k="highway" v="residential"/>
    <tag k="maxspeed" v="50"/>
    <tag k="maxspeed:source" v="default residential speed limit in Australia"/>
    <tag k="name" v="McLaughlin Circuit"/>
    <tag k="oneway" v="yes"/>
    <tag k="source" v="yahoo_images"/>
  </way>
  <way id="50329796" version="4" timestamp="2012-01-20T01:44:58Z" uid="147510" user="woodpeck_fixbot" changeset="10442677">
    <nd ref="292738618"/>
    <nd ref="301097566"/>
    <tag k="highway" v="residential"/>
    <tag k="name" v="McLaughlin Circuit"/>
    <tag k="oneway" v="yes"/>
    <tag k="source" v="yahoo_images"/>
  </way>
  <way id="50329798" version="2" timestamp="2010-03-20T22:23:12Z" uid="7617" user="Franc" changeset="4185573">
    <nd ref="639364378"/>
    <nd ref="639364379"/>
    <nd ref="639364380"/>
    <nd ref="639364381"/>
    <nd ref="292739668"/>
    <tag k="highway" v="path"/>
    <tag k="source" v="nearmap"/>
  </way>
  <way id="50329799" version="2" timestamp="2010-04-26T13:04:00Z" uid="7617" user="Franc" changeset="4531709">
    <nd ref="639364368"/>
    <nd ref="639364383"/>
    <tag k="highway" v="residential"/>
    <tag k="name" v="lachlan Place"/>
    <tag k="source" v="survey"/>
  </way>
  <way id="50329799" version="3" timestamp="2010-07-07T20:37:23Z" uid="74617" user="JohnSmith" changeset="5161069">
    <nd ref="639364368"/>
    <nd ref="639364383"/>
    <tag k="highway" v="residential"/>
    <tag k="maxspeed" v="50"/>
    <tag k="maxspeed:source" v="default residential speed limit in Australia"/>
    <tag k="name" v="lachlan Place"/>
    <tag k="source" v="survey"/>
  </way>
  <way id="50329799" version="4" timestamp="2012-01-20T01:45:00Z" uid="147510" user="woodpeck_fixbot" changeset="10442677">
    <nd ref="639364368"/>
    <nd ref="639364383"/>
    <tag k="highway" v="residential"/>
    <tag k="name" v="lachlan Place"/>
    <tag k="source" v="survey"/>
  </way>
  <way id="50329801" version="2" timestamp="2010-04-26T13:04:01Z" uid="7617" user="Franc" changeset="4531709">
    <nd ref="639364386"/>
    <nd ref="707358811"/>
    <nd ref="639364387"/>
    <tag k="highway" v="residential"/>
    <tag k="name" v="Radnor Place"/>
    <tag k="source" v="survey"/>
  </way>
  <way id="50329801" version="3" timestamp="2010-07-07T20:30:48Z" uid="74617" user="JohnSmith" changeset="5161069">
    <nd ref="639364386"/>
    <nd ref="707358811"/>
    <nd ref="639364387"/>
    <tag k="highway" v="residential"/>
    <tag k="maxspeed" v="50"/>
    <tag k="maxspeed:source" v="default residential speed limit in Australia"/>
    <tag k="name" v="Radnor Place"/>
    <tag k="source" v="survey"/>
  </way>
  <way id="50329801" version="4" timestamp="2012-01-20T01:45:01Z" uid="147510" user="woodpeck_fixbot" changeset="10442677">
    <nd ref="639364386"/>
    <nd ref="707358811"/>
    <nd ref="639364387"/>
    <tag k="highway" v="residential"/>
    <tag k="name" v="Radnor Place"/>
    <tag k="source" v="survey"/>
  </way>
  <way id="50329864" version="1" timestamp="2010-02-15T02:06:36Z" uid="103576" user="DiverCTH" changeset="3879939">
    <nd ref="202700915"/>
    <nd ref="202738488"/>
    <nd ref="202605308"/>
    <nd ref="202671002"/>
    <nd ref="202738490"/>
    <nd ref="202663952"/>
    <nd ref="202738492"/>
    <tag k="highway" v="residential"/>
    <tag k="name" v="E 48th St"/>
    <tag k="tiger:cfcc" v="A41"/>
    <tag k="tiger:county" v="Hamilton, TN"/>
    <tag k="tiger:name_base" v="48th"/>
    <tag k="tiger:name_direction_prefix" v="E"/>
    <tag k="tiger:name_type" v="St"/>
    <tag k="tiger:reviewed" v="no"/>
    <tag k="tiger:separated" v="no"/>
    <tag k="tiger:source" v="tiger_import_dch_v0.6_20070829"/>
    <tag k="tiger:tlid" v="59313940:59313944:59313822:59313826:59313835:59313846:59313848:59313735:59313850:59313860:59313861"/>
    <tag k="tiger:upload_uuid" v="bulk_upload.pl-91a61642-9d87-4f7b-a49d-af7d8b0d7ecf"/>
    <tag k="tiger:zip_left" v="37407"/>
    <tag k="tiger:zip_right" v="37407"/>
  </way>
  <way id="50329864" version="2" timestamp="2010-02-15T03:04:59Z" uid="103576" user="DiverCTH" changeset="3879939">
    <nd ref="202700915"/>
    <nd ref="202738488"/>
    <nd ref="202605308"/>
    <nd ref="202671002"/>
    <nd ref="202738490"/>
    <nd ref="202663952"/>
    <nd ref="202738492"/>
    <tag k="highway" v="residential"/>
    <tag k="name" v="East 48th Street"/>
    <tag k="tiger:cfcc" v="A41"/>
    <tag k="tiger:county" v="Hamilton, TN"/>
    <tag k="tiger:name_base" v="48th"/>
    <tag k="tiger:name_direction_prefix" v="E"/>
    <tag k="tiger:name_type" v="St"/>
    <tag k="tiger:reviewed" v="aerial"/>
    <tag k="tiger:separated" v="no"/>
    <tag k="tiger:source" v="tiger_import_dch_v0.6_20070829"/>
    <tag k="tiger:tlid" v="59313940:59313944:59313822:59313826:59313835:59313846:59313848:59313735:59313850:59313860:59313861"/>
    <tag k="tiger:upload_uuid" v="bulk_upload.pl-91a61642-9d87-4f7b-a49d-af7d8b0d7ecf"/>
    <tag k="tiger:zip_left" v="37407"/>
    <tag k="tiger:zip_right" v="37407"/>
  </way>
  <way id="50329865" version="1" timestamp="2010-02-15T02:06:36Z" uid="103576" user="DiverCTH" changeset="3879939">
    <nd ref="639365055"/>
    <nd ref="639365057"/>
    <nd ref="639365066"/>
    <nd ref="639365067"/>
    <nd ref="639365072"/>
    <nd ref="639365070"/>
    <nd ref="639365076"/>
    <nd ref="639365074"/>
    <nd ref="639365081"/>
    <nd ref="639365109"/>
    <nd ref="639365110"/>
    <nd ref="639365112"/>
    <nd ref="639365131"/>
    <nd ref="639365124"/>
    <nd ref="639365126"/>
    <nd ref="639365136"/>
    <nd ref="639365140"/>
    <nd ref="639365142"/>
    <tag k="addr:country" v="US"/>
    <tag k="addr:county" v="Hamilton, TN"/>
    <tag k="addr:interpolation" v="even"/>
    <tag k="addr:postcode" v="37407"/>
    <tag k="addr:state" v="Tennessee"/>
    <tag k="addr:street" v="East 48th Street"/>
    <tag k="attribution" v="tiger"/>
  </way>
  <way id="50329866" version="1" timestamp="2010-02-15T02:06:36Z" uid="103576" user="DiverCTH" changeset="3879939">
    <nd ref="639365059"/>
    <nd ref="639365054"/>
    <nd ref="639365062"/>
    <nd ref="639365064"/>
    <nd ref="639365082"/>
    <nd ref="639365078"/>
    <nd ref="639365085"/>
    <nd ref="639365089"/>
    <nd ref="639365087"/>
    <nd ref="639365116"/>
    <nd ref="639365114"/>
    <nd ref="639365117"/>
    <nd ref="639365132"/>
    <nd ref="639365134"/>
    <nd ref="639365120"/>
    <nd ref="639365122"/>
    <nd ref="639365137"/>
    <nd ref="639365138"/>
    <tag k="addr:country" v="US"/>
    <tag k="addr:county" v="Hamilton, TN"/>
    <tag k="addr:interpolation" v="odd"/>
    <tag k="addr:postcode" v="37407"/>
    <tag k="addr:state" v="Tennessee"/>
    <tag k="addr:street" v="East 48th Street"/>
    <tag k="attribution" v="tiger"/>
  </way>
  <way id="50329867" version="1" timestamp="2010-02-15T02:06:36Z" uid="103576" user="DiverCTH" changeset="3879939">
    <nd ref="639365166"/>
    <nd ref="639365167"/>
    <nd ref="639365148"/>
    <nd ref="639365155"/>
    <nd ref="639365144"/>
    <nd ref="639365153"/>
    <nd ref="639365147"/>
    <nd ref="639365102"/>
    <nd ref="639365097"/>
    <nd ref="639365095"/>
    <nd ref="639365093"/>
    <tag k="addr:country" v="US"/>
    <tag k="addr:county" v="Hamilton, TN"/>
    <tag k="addr:interpolation" v="even"/>
    <tag k="addr:postcode" v="37407"/>
    <tag k="addr:state" v="Tennessee"/>
    <tag k="addr:street" v="East 46th Street Pl"/>
    <tag k="attribution" v="tiger"/>
  </way>
  <way id="50329868" version="1" timestamp="2010-02-15T02:06:37Z" uid="103576" user="DiverCTH" changeset="3879939">
    <nd ref="639365100"/>
    <nd ref="639365104"/>
    <nd ref="639365090"/>
    <nd ref="639365108"/>
    <nd ref="639365162"/>
    <nd ref="639365165"/>
    <nd ref="639365164"/>
    <nd ref="639365158"/>
    <nd ref="639365160"/>
    <nd ref="639365171"/>
    <nd ref="639365168"/>
    <tag k="addr:country" v="US"/>
    <tag k="addr:county" v="Hamilton, TN"/>
    <tag k="addr:interpolation" v="odd"/>
    <tag k="addr:postcode" v="37407"/>
    <tag k="addr:state" v="Tennessee"/>
    <tag k="addr:street" v="East 46th Street Pl"/>
    <tag k="attribution" v="tiger"/>
  </way>
  <way id="50329933" version="3" timestamp="2010-04-05T03:05:42Z" uid="4467" user="Rosscoe" changeset="4328970">
    <nd ref="541271942"/>
    <nd ref="684998902"/>
    <nd ref="581816622"/>
    <nd ref="541312787"/>
    <nd ref="391202095"/>
    <nd ref="60302972"/>
    <nd ref="461551811"/>
    <nd ref="558812381"/>
    <nd ref="581816612"/>
    <nd ref="581816606"/>
    <tag k="highway" v="trunk"/>
    <tag k="lanes" v="1"/>
    <tag k="name" v="Napier Street"/>
    <tag k="oneway" v="yes"/>
    <tag k="ref" v="A300"/>
  </way>
  <way id="50329933" version="4" timestamp="2010-04-06T12:49:07Z" uid="74617" user="JohnSmith" changeset="4343676">
    <nd ref="541271942"/>
    <nd ref="684998902"/>
    <nd ref="581816622"/>
    <nd ref="541312787"/>
    <nd ref="391202095"/>
    <nd ref="60302972"/>
    <nd ref="461551811"/>
    <nd ref="558812381"/>
    <nd ref="581816612"/>
    <nd ref="581816606"/>
    <tag k="highway" v="trunk"/>
    <tag k="lanes" v="1"/>
    <tag k="name" v="Napier Street"/>
    <tag k="oneway" v="yes"/>
  </way>
  <way id="50329933" version="5" timestamp="2010-05-11T06:52:57Z" uid="9261" user="Craig Feuerherdt" changeset="4665877">
    <nd ref="541271942"/>
    <nd ref="684998902"/>
    <nd ref="581816622"/>
    <nd ref="541312787"/>
    <nd ref="729528721"/>
    <nd ref="391202095"/>
    <nd ref="60302972"/>
    <nd ref="461551811"/>
    <nd ref="558812381"/>
    <nd ref="581816612"/>
    <nd ref="581816606"/>
    <tag k="highway" v="trunk"/>
    <tag k="lanes" v="1"/>
    <tag k="name" v="Napier Street"/>
    <tag k="oneway" v="yes"/>
  </way>
  <way id="50329933" version="6" timestamp="2010-05-25T12:41:32Z" uid="9261" user="Craig Feuerherdt" changeset="4803293">
    <nd ref="541271942"/>
    <nd ref="684998902"/>
    <nd ref="581816622"/>
    <nd ref="541312787"/>
    <nd ref="729528721"/>
    <nd ref="391202095"/>
    <nd ref="60302972"/>
    <nd ref="461551811"/>
    <nd ref="558812381"/>
    <nd ref="747813396"/>
    <nd ref="581816612"/>
    <nd ref="581816606"/>
    <tag k="highway" v="trunk"/>
    <tag k="lanes" v="1"/>
    <tag k="name" v="Napier Street"/>
    <tag k="oneway" v="yes"/>
  </way>
  <way id="50329933" version="7" timestamp="2010-09-20T03:50:12Z" uid="320632" user="Zulu99" changeset="5825703">
    <nd ref="541271942"/>
    <nd ref="684998902"/>
    <nd ref="581816622"/>
    <nd ref="541312787"/>
    <nd ref="729528721"/>
    <nd ref="391202095"/>
    <nd ref="60302972"/>
    <nd ref="461551811"/>
    <nd ref="558812381"/>
    <nd ref="747813396"/>
    <nd ref="581816612"/>
    <nd ref="919320152"/>
    <tag k="cycleway" v="lane"/>
    <tag k="highway" v="trunk"/>
    <tag k="lanes" v="1"/>
    <tag k="name" v="Napier Street"/>
    <tag k="oneway" v="yes"/>
  </way>
  <way id="50329933" version="8" timestamp="2011-04-19T05:00:25Z" uid="9261" user="Craig Feuerherdt" changeset="7903218">
    <nd ref="541271942"/>
    <nd ref="684998902"/>
    <nd ref="581816622"/>
    <nd ref="541312787"/>
    <nd ref="729528721"/>
    <nd ref="391202095"/>
    <nd ref="60302972"/>
    <nd ref="461551811"/>
    <nd ref="558812381"/>
    <nd ref="1250743614"/>
    <nd ref="747813396"/>
    <nd ref="581816612"/>
    <nd ref="1250743572"/>
    <nd ref="919320152"/>
    <tag k="cycleway" v="lane"/>
    <tag k="highway" v="trunk"/>
    <tag k="lanes" v="1"/>
    <tag k="name" v="Napier Street"/>
    <tag k="oneway" v="yes"/>
  </way>
  <way id="50329933" version="9" timestamp="2011-04-21T11:46:03Z" uid="4467" user="Rosscoe" changeset="7924737">
    <nd ref="471261032"/>
    <nd ref="541271942"/>
    <nd ref="684998902"/>
    <nd ref="581816622"/>
    <nd ref="541312787"/>
    <nd ref="729528721"/>
    <nd ref="391202095"/>
    <nd ref="60302972"/>
    <nd ref="461551811"/>
    <nd ref="558812381"/>
    <nd ref="1250743614"/>
    <nd ref="747813396"/>
    <nd ref="581816612"/>
    <nd ref="1250743572"/>
    <nd ref="919320152"/>
    <tag k="cycleway" v="lane"/>
    <tag k="highway" v="trunk"/>
    <tag k="lanes" v="1"/>
    <tag k="name" v="Napier Street"/>
    <tag k="oneway" v="yes"/>
    <tag k="source" v="survey"/>
  </way>
  <way id="50329954" version="2" timestamp="2010-04-05T03:05:37Z" uid="4467" user="Rosscoe" changeset="4328970">
    <nd ref="639365636"/>
    <nd ref="365835257"/>
    <nd ref="489181295"/>
    <nd ref="365835157"/>
    <nd ref="60302969"/>
    <nd ref="581816719"/>
    <nd ref="322471581"/>
    <nd ref="322468741"/>
    <nd ref="581816695"/>
    <nd ref="589247093"/>
    <nd ref="471755511"/>
    <nd ref="322471589"/>
    <nd ref="541244848"/>
    <nd ref="581816677"/>
    <nd ref="541244826"/>
    <nd ref="60302971"/>
    <nd ref="489188058"/>
    <nd ref="471261032"/>
    <nd ref="541271942"/>
    <tag k="highway" v="trunk"/>
    <tag k="lanes" v="1"/>
    <tag k="name" v="Napier Street"/>
    <tag k="ref" v="A300"/>
    <tag k="source" v="survey"/>
  </way>
  <way id="50329954" version="3" timestamp="2010-04-05T03:27:10Z" uid="4467" user="Rosscoe" changeset="4329004">
    <nd ref="639365636"/>
    <nd ref="365835257"/>
    <tag k="highway" v="trunk"/>
    <tag k="name" v="Midland Highway"/>
    <tag k="ref" v="A300"/>
    <tag k="source" v="survey"/>
  </way>
  <way id="50329954" version="4" timestamp="2010-04-06T12:49:08Z" uid="74617" user="JohnSmith" changeset="4343676">
    <nd ref="639365636"/>
    <nd ref="365835257"/>
    <tag k="highway" v="trunk"/>
    <tag k="name" v="Midland Highway"/>
    <tag k="source" v="survey"/>
  </way>
  <way id="50329954" version="5" timestamp="2010-09-20T03:50:04Z" uid="320632" user="Zulu99" changeset="5825703">
    <nd ref="639365636"/>
    <nd ref="365835257"/>
    <tag k="cycleway" v="lane"/>
    <tag k="highway" v="trunk"/>
    <tag k="name" v="Midland Highway"/>
    <tag k="source" v="survey"/>
  </way>
  <way id="50329954" version="6" timestamp="2011-04-21T11:46:01Z" uid="4467" user="Rosscoe" changeset="7924737">
    <nd ref="1253925872"/>
    <nd ref="1253925766"/>
    <nd ref="639365636"/>
    <tag k="cycleway" v="lane"/>
    <tag k="highway" v="trunk"/>
    <tag k="maxspeed" v="60"/>
    <tag k="name" v="Midland Highway"/>
    <tag k="oneway" v="yes"/>
    <tag k="source" v="nearmap"/>
  </way>
</osm>
