<?xml version='1.0' encoding='UTF-8'?>
<osm version="0.6" generator="libosmium/2.20.0">
  <way id="50341182" version="2" timestamp="2010-03-25T23:16:51Z" uid="115684" user="jVviJ11dNx" changeset="4234059">
    <nd ref="639600291"/>
    <nd ref="639600555"/>
    <tag k="highway" v="road"/>
    <tag k="source" v="nearmap"/>
    <tag k="surface" v="unpaved"/>
  </way>
  <way id="50341182" version="3" timestamp="2011-10-18T10:31:29Z" uid="168136" user="goldfishxyz" changeset="9589742">
    <nd ref="639600291"/>
    <nd ref="639600555"/>
    <tag k="highway" v="secondary"/>
    <tag k="name" v="Lavis Road"/>
    <tag k="source" v="nearmap"/>
    <tag k="surface" v="unpaved"/>
  </way>
  <way id="50341249" version="2" timestamp="2010-03-25T23:16:52Z" uid="115684" user="jVviJ11dNx" changeset="4234059"/>
  <way id="50341252" version="2" timestamp="2010-03-25T23:16:51Z" uid="115684" user="jVviJ11dNx" changeset="4234059">
    <nd ref="640564729"/>
    <nd ref="640564728"/>
    <nd ref="640564726"/>
    <nd ref="640564725"/>
    <nd ref="639601338"/>
    <nd ref="639601397"/>
    <nd ref="639601398"/>
    <nd ref="674488325"/>
    <nd ref="674488323"/>
    <nd ref="674488321"/>
    <nd ref="674488322"/>
    <nd ref="674488313"/>
    <tag k="highway" v="unclassified"/>
    <tag k="source" v="nearmap"/>
    <tag k="surface" v="unpaved"/>
  </way>
  <way id="50341252" version="3" timestamp="2011-10-18T10:31:29Z" uid="168136" user="goldfishxyz" changeset="9589742">
    <nd ref="640564729"/>
    <nd ref="640564728"/>
    <nd ref="640564726"/>
    <nd ref="640564725"/>
    <nd ref="639601338"/>
    <nd ref="639601397"/>
    <nd ref="639601398"/>
    <nd ref="674488325"/>
    <nd ref="674488323"/>
    <nd ref="674488321"/>
    <tag k="highway" v="unclassified"/>
    <tag k="name" v="Reillys Road"/>
    <tag k="source" v="nearmap"/>
    <tag k="surface" v="unpaved"/>
  </way>
  <way id="50341253" version="2" timestamp="2010-03-25T23:16:52Z" uid="115684" user="jVviJ11dNx" changeset="4234059"/>
  <way id="50341255" version="2" timestamp="2010-03-25T23:16:52Z" uid="115684" user="jVviJ11dNx" changeset="4234059"/>
  <way id="50341318" version="5" timestamp="2010-03-25T23:16:42Z" uid="115684" user="jVviJ11dNx" changeset="4234059">
    <nd ref="639600819"/>
    <nd ref="639601398"/>
    <nd ref="639601438"/>
    <nd ref="674488361"/>
    <nd ref="639601993"/>
    <nd ref="674488356"/>
    <nd ref="662607544"/>
    <nd ref="662607545"/>
    <nd ref="662607546"/>
    <nd ref="662607547"/>
    <nd ref="662607548"/>
    <nd ref="662607549"/>
    <nd ref="662607550"/>
    <nd ref="662607551"/>
    <nd ref="659724621"/>
    <tag k="highway" v="unclassified"/>
    <tag k="source" v="nearmap"/>
    <tag k="surface" v="unpaved"/>
  </way>
  <way id="50341318" version="6" timestamp="2010-03-27T09:36:05Z" uid="115684" user="jVviJ11dNx" changeset="4244769">
    <nd ref="639600819"/>
    <nd ref="639601398"/>
    <nd ref="639601438"/>
    <nd ref="674488361"/>
    <nd ref="639601993"/>
    <nd ref="674488356"/>
    <nd ref="662607544"/>
    <nd ref="662607545"/>
    <nd ref="662607546"/>
    <nd ref="662607547"/>
    <nd ref="662607548"/>
    <nd ref="662607549"/>
    <nd ref="662607550"/>
    <nd ref="662607551"/>
    <nd ref="659724621"/>
    <tag k="highway" v="unclassified"/>
    <tag k="source" v="nearmap"/>
    <tag k="surface" v="unpaved"/>
  </way>
  <way id="50341318" version="7" timestamp="2011-10-18T10:44:26Z" uid="168136" user="goldfishxyz" changeset="9589742">
    <nd ref="639600819"/>
    <nd ref="639601398"/>
    <nd ref="639601438"/>
    <nd ref="674488361"/>
    <nd ref="639601993"/>
    <nd ref="674488356"/>
    <nd ref="662607544"/>
    <nd ref="662607545"/>
    <nd ref="662607546"/>
    <nd ref="662607547"/>
    <nd ref="662607548"/>
    <nd ref="662607549"/>
    <nd ref="662607550"/>
    <nd ref="662607551"/>
    <nd ref="659724621"/>
    <tag k="highway" v="unclassified"/>
    <tag k="name" v="Beatties Road"/>
    <tag k="source" v="nearmap"/>
    <tag k="surface" v="unpaved"/>
  </way>
  <way id="50341413" version="2" timestamp="2010-12-29T10:39:29Z" uid="18775" user="drlizau" changeset="6796911">
    <nd ref="639602999"/>
    <nd ref="639603000"/>
    <nd ref="639603002"/>
    <nd ref="639603003"/>
    <nd ref="639603004"/>
    <nd ref="639603005"/>
    <nd ref="639603006"/>
    <nd ref="639603007"/>
    <nd ref="639603008"/>
    <nd ref="639603009"/>
    <nd ref="639603011"/>
    <nd ref="639603013"/>
    <nd ref="639603014"/>
    <nd ref="639603015"/>
    <nd ref="639602999"/>
    <tag k="leisure" v="pitch"/>
    <tag k="name" v="J.C. Lowe Oval"/>
    <tag k="sport" v="cricket"/>
  </way>
  <way id="50341479" version="1" timestamp="2010-02-15T11:23:18Z" uid="115477" user="wowik" changeset="3882209">
    <nd ref="639603188"/>
    <nd ref="639603189"/>
    <nd ref="639603190"/>
    <nd ref="639603191"/>
    <nd ref="639603192"/>
    <nd ref="639603193"/>
    <nd ref="639603194"/>
    <nd ref="639603195"/>
    <nd ref="639603196"/>
    <nd ref="639603197"/>
    <nd ref="639603198"/>
    <nd ref="639603188"/>
    <tag k="natural" v="wood"/>
  </way>
  <way id="50341480" version="1" timestamp="2010-02-15T11:23:19Z" uid="115477" user="wowik" changeset="3882209">
    <nd ref="639603199"/>
    <nd ref="639603200"/>
    <nd ref="639603201"/>
    <nd ref="639603202"/>
    <nd ref="639603203"/>
    <nd ref="639603204"/>
    <nd ref="639603205"/>
    <nd ref="639603206"/>
    <nd ref="639603207"/>
    <nd ref="639603208"/>
    <nd ref="639603209"/>
    <nd ref="639603210"/>
    <nd ref="639603211"/>
    <nd ref="639603212"/>
    <nd ref="639603213"/>
    <nd ref="639603199"/>
    <tag k="natural" v="wood"/>
  </way>
  <way id="50341481" version="1" timestamp="2010-02-15T11:23:20Z" uid="115477" user="wowik" changeset="3882209">
    <nd ref="639603214"/>
    <nd ref="639603216"/>
    <nd ref="639603217"/>
    <nd ref="639603218"/>
    <nd ref="639603219"/>
    <nd ref="639603220"/>
    <nd ref="639603221"/>
    <nd ref="639603222"/>
    <nd ref="639603223"/>
    <nd ref="639603224"/>
    <nd ref="639603214"/>
    <tag k="natural" v="water"/>
  </way>
  <way id="50341482" version="1" timestamp="2010-02-15T11:23:21Z" uid="115477" user="wowik" changeset="3882209">
    <nd ref="639603226"/>
    <nd ref="639603227"/>
    <nd ref="639603228"/>
    <nd ref="639603229"/>
    <nd ref="639603230"/>
    <nd ref="639603231"/>
    <nd ref="639603232"/>
    <nd ref="639603233"/>
    <nd ref="639603226"/>
    <tag k="building" v="yes"/>
  </way>
  <way id="50341482" version="2" timestamp="2010-11-18T06:53:48Z" uid="329816" user="Valaykhal" changeset="6397887">
    <nd ref="639603226"/>
    <nd ref="639603227"/>
    <nd ref="639603228"/>
    <nd ref="639603229"/>
    <nd ref="639603230"/>
    <nd ref="639603231"/>
    <nd ref="639603232"/>
    <nd ref="639603233"/>
    <nd ref="639603226"/>
    <tag k="addr:city" v="Поварово мк-он №2"/>
    <tag k="addr:housenumber" v="10"/>
    <tag k="addr:postcode" v="141540"/>
    <tag k="addr:street" v="ул.Школьная"/>
    <tag k="building" v="yes"/>
  </way>
  <way id="50341482" version="3" timestamp="2010-11-18T16:49:56Z" uid="329816" user="Valaykhal" changeset="6401265">
    <nd ref="639603226"/>
    <nd ref="639603227"/>
    <nd ref="639603228"/>
    <nd ref="639603229"/>
    <nd ref="639603230"/>
    <nd ref="639603231"/>
    <nd ref="639603232"/>
    <nd ref="639603233"/>
    <nd ref="639603226"/>
    <tag k="addr:city" v="Поварово мк-он №2"/>
    <tag k="addr:country" v="RU"/>
    <tag k="addr:district" v="Солнечногорский район"/>
    <tag k="addr:housenumber" v="10"/>
    <tag k="addr:postcode" v="141540"/>
    <tag k="addr:region" v="Московская область"/>
    <tag k="addr:street" v="ул.Школьная"/>
    <tag k="building" v="yes"/>
  </way>
  <way id="50341482" version="4" timestamp="2011-01-14T18:39:40Z" uid="133332" user="AMDmi3" changeset="6969924">
    <nd ref="639603226"/>
    <nd ref="639603227"/>
    <nd ref="639603228"/>
    <nd ref="639603229"/>
    <nd ref="639603230"/>
    <nd ref="639603231"/>
    <nd ref="639603232"/>
    <nd ref="639603233"/>
    <nd ref="639603226"/>
    <tag k="addr:city" v="Поварово мк-он №2"/>
    <tag k="addr:country" v="RU"/>
    <tag k="addr:district" v="Солнечногорский район"/>
    <tag k="addr:housenumber" v="10"/>
    <tag k="addr:postcode" v="141540"/>
    <tag k="addr:region" v="Московская область"/>
    <tag k="addr:street" v="Школьная улица"/>
    <tag k="building" v="yes"/>
  </way>
  <way id="50341483" version="1" timestamp="2010-02-15T11:23:21Z" uid="115477" user="wowik" changeset="3882209">
    <nd ref="639603235"/>
    <nd ref="639603236"/>
    <nd ref="639603237"/>
    <nd ref="639603238"/>
    <nd ref="639603235"/>
    <tag k="building" v="yes"/>
  </way>
  <way id="50341483" version="2" timestamp="2010-11-18T06:53:25Z" uid="329816" user="Valaykhal" changeset="6397887">
    <nd ref="639603235"/>
    <nd ref="639603236"/>
    <nd ref="639603237"/>
    <nd ref="639603238"/>
    <nd ref="639603235"/>
    <tag k="addr:city" v="Поварово мк-он №2"/>
    <tag k="addr:housenumber" v="9"/>
    <tag k="addr:postcode" v="141540"/>
    <tag k="addr:street" v="ул.Школьная"/>
    <tag k="building" v="yes"/>
  </way>
  <way id="50341483" version="3" timestamp="2010-11-18T16:50:26Z" uid="329816" user="Valaykhal" changeset="6401265">
    <nd ref="639603235"/>
    <nd ref="639603236"/>
    <nd ref="639603237"/>
    <nd ref="639603238"/>
    <nd ref="639603235"/>
    <tag k="addr:city" v="Поварово мк-он №2"/>
    <tag k="addr:country" v="RU"/>
    <tag k="addr:district" v="Солнечногорский район"/>
    <tag k="addr:housenumber" v="9"/>
    <tag k="addr:postcode" v="141540"/>
    <tag k="addr:region" v="Московская область"/>
    <tag k="addr:street" v="ул.Школьная"/>
    <tag k="building" v="yes"/>
  </way>
  <way id="50341483" version="4" timestamp="2011-01-14T18:38:28Z" uid="133332" user="AMDmi3" changeset="6969924">
    <nd ref="639603235"/>
    <nd ref="639603236"/>
    <nd ref="639603237"/>
    <nd ref="639603238"/>
    <nd ref="639603235"/>
    <tag k="addr:city" v="Поварово мк-он №2"/>
    <tag k="addr:country" v="RU"/>
    <tag k="addr:district" v="Солнечногорский район"/>
    <tag k="addr:housenumber" v="9"/>
    <tag k="addr:postcode" v="141540"/>
    <tag k="addr:region" v="Московская область"/>
    <tag k="addr:street" v="Школьная улица"/>
    <tag k="building" v="yes"/>
  </way>
  <way id="50341486" version="4" timestamp="2010-12-29T10:33:14Z" uid="18775" user="drlizau" changeset="6796852">
    <nd ref="639603252"/>
    <nd ref="639618510"/>
    <nd ref="639618491"/>
    <nd ref="639603253"/>
    <nd ref="147653777"/>
    <tag k="highway" v="tertiary"/>
    <tag k="source" v="nearmap"/>
  </way>
  <way id="50341486" version="5" timestamp="2010-12-31T08:54:52Z" uid="19626" user="Swamp" changeset="6817239">
    <nd ref="639603252"/>
    <nd ref="639618510"/>
    <nd ref="639618491"/>
    <nd ref="639603253"/>
    <nd ref="147653777"/>
    <tag k="highway" v="tertiary"/>
    <tag k="maxspeed" v="50"/>
    <tag k="name" v="Burley Street"/>
    <tag k="source" v="survey"/>
  </way>
  <way id="50341487" version="3" timestamp="2010-12-29T11:04:29Z" uid="18775" user="drlizau" changeset="6797200">
    <nd ref="639603256"/>
    <nd ref="639603252"/>
    <tag k="bridge" v="yes"/>
    <tag k="highway" v="tertiary"/>
    <tag k="layer" v="1"/>
    <tag k="source" v="nearmap"/>
  </way>
  <way id="50341487" version="4" timestamp="2010-12-31T08:54:55Z" uid="19626" user="Swamp" changeset="6817239">
    <nd ref="639603256"/>
    <nd ref="639603252"/>
    <tag k="bridge" v="yes"/>
    <tag k="highway" v="tertiary"/>
    <tag k="source" v="nearmap"/>
  </way>
  <way id="50341488" version="6" timestamp="2010-12-29T10:33:10Z" uid="18775" user="drlizau" changeset="6796852">
    <nd ref="347291979"/>
    <nd ref="639603374"/>
    <nd ref="639603260"/>
    <nd ref="639603262"/>
    <nd ref="639610221"/>
    <nd ref="639603263"/>
    <nd ref="639603265"/>
    <nd ref="639610333"/>
    <nd ref="639603267"/>
    <nd ref="639603269"/>
    <nd ref="639603271"/>
    <nd ref="639615302"/>
    <nd ref="639603276"/>
    <nd ref="639603256"/>
    <tag k="highway" v="tertiary"/>
    <tag k="source" v="nearmap"/>
  </way>
  <way id="50341494" version="10" timestamp="2010-12-31T08:54:57Z" uid="19626" user="Swamp" changeset="6817239">
    <nd ref="639603374"/>
    <nd ref="1074747778"/>
    <nd ref="639610465"/>
    <nd ref="639603489"/>
    <nd ref="639603841"/>
    <nd ref="639603845"/>
    <nd ref="639604009"/>
    <nd ref="639603491"/>
    <nd ref="639603878"/>
    <nd ref="639603492"/>
    <nd ref="639603493"/>
    <nd ref="639603494"/>
    <nd ref="639603495"/>
    <nd ref="639603496"/>
    <nd ref="639603499"/>
    <nd ref="639603648"/>
    <nd ref="639603500"/>
    <nd ref="639603501"/>
    <nd ref="639603502"/>
    <nd ref="639603503"/>
    <nd ref="639603504"/>
    <nd ref="639603506"/>
    <nd ref="639603507"/>
    <nd ref="639603508"/>
    <nd ref="639603592"/>
    <nd ref="639603511"/>
    <nd ref="639603533"/>
    <nd ref="639603654"/>
    <nd ref="639603512"/>
    <nd ref="639603513"/>
    <nd ref="639603561"/>
    <nd ref="639603514"/>
    <tag k="highway" v="service"/>
    <tag k="maxspeed" v="10"/>
    <tag k="source" v="survey"/>
  </way>
  <way id="50341496" version="2" timestamp="2010-12-31T08:54:48Z" uid="19626" user="Swamp" changeset="6817239">
    <nd ref="639603531"/>
    <nd ref="639603559"/>
    <nd ref="639603560"/>
    <nd ref="639603561"/>
    <tag k="highway" v="service"/>
    <tag k="maxspeed" v="10"/>
    <tag k="source" v="survey"/>
  </way>
  <way id="50341497" version="2" timestamp="2010-12-31T08:54:52Z" uid="19626" user="Swamp" changeset="6817239">
    <nd ref="639603560"/>
    <nd ref="639603495"/>
    <tag k="highway" v="service"/>
    <tag k="maxspeed" v="10"/>
    <tag k="source" v="survey"/>
  </way>
  <way id="50341502" version="3" timestamp="2010-12-31T08:54:53Z" uid="19626" user="Swamp" changeset="6817239">
    <nd ref="639603514"/>
    <nd ref="639603826"/>
    <nd ref="639604468"/>
    <nd ref="639603828"/>
    <nd ref="639603829"/>
    <nd ref="639603830"/>
    <nd ref="639603831"/>
    <nd ref="639603832"/>
    <nd ref="639603834"/>
    <nd ref="639603835"/>
    <nd ref="639603836"/>
    <nd ref="639603838"/>
    <nd ref="639603839"/>
    <nd ref="639603840"/>
    <nd ref="639603841"/>
    <tag k="highway" v="service"/>
    <tag k="maxspeed" v="10"/>
    <tag k="source" v="survey"/>
  </way>
  <way id="50341503" version="2" timestamp="2010-12-31T08:54:57Z" uid="19626" user="Swamp" changeset="6817239">
    <nd ref="639603845"/>
    <nd ref="639603873"/>
    <nd ref="639603875"/>
    <nd ref="639603876"/>
    <nd ref="639603878"/>
    <tag k="highway" v="service"/>
    <tag k="source" v="survey"/>
  </way>
  <way id="50341518" version="2" timestamp="2010-12-31T08:54:57Z" uid="19626" user="Swamp" changeset="6817239">
    <nd ref="639603845"/>
    <nd ref="639604004"/>
    <nd ref="639604005"/>
    <nd ref="639604006"/>
    <nd ref="639604007"/>
    <nd ref="639604009"/>
    <tag k="highway" v="service"/>
    <tag k="maxspeed" v="10"/>
    <tag k="source" v="survey"/>
  </way>
  <way id="50341523" version="4" timestamp="2010-12-31T08:54:55Z" uid="19626" user="Swamp" changeset="6817239">
    <nd ref="639604028"/>
    <nd ref="347291978"/>
    <tag k="bridge" v="yes"/>
    <tag k="highway" v="unclassified"/>
    <tag k="source" v="survey"/>
  </way>
  <way id="50341524" version="5" timestamp="2010-12-29T10:33:05Z" uid="18775" user="drlizau" changeset="6796852">
    <nd ref="347291978"/>
    <nd ref="347291979"/>
    <nd ref="347291980"/>
    <nd ref="347291981"/>
    <nd ref="347291982"/>
    <nd ref="347291983"/>
    <nd ref="347291984"/>
    <nd ref="662608123"/>
    <nd ref="347291985"/>
    <nd ref="639588830"/>
    <tag k="highway" v="tertiary"/>
    <tag k="maxspeed" v="50"/>
    <tag k="name" v="Weir Road"/>
  </way>
  <way id="50341524" version="6" timestamp="2010-12-31T08:54:52Z" uid="19626" user="Swamp" changeset="6817239">
    <nd ref="347291978"/>
    <nd ref="1074747844"/>
    <nd ref="347291979"/>
    <nd ref="347291980"/>
    <nd ref="1074747812"/>
    <nd ref="347291981"/>
    <nd ref="347291982"/>
    <nd ref="347291983"/>
    <nd ref="347291984"/>
    <nd ref="662608123"/>
    <nd ref="1074747799"/>
    <nd ref="347291985"/>
    <nd ref="639588830"/>
    <tag k="highway" v="tertiary"/>
    <tag k="maxspeed" v="50"/>
    <tag k="name" v="Weir Road"/>
  </way>
  <way id="50341525" version="1" timestamp="2010-02-15T11:26:58Z" uid="115477" user="wowik" changeset="3882229">
    <nd ref="639604069"/>
    <nd ref="639604070"/>
    <nd ref="639604072"/>
    <nd ref="639604073"/>
    <nd ref="639604069"/>
    <tag k="building" v="yes"/>
  </way>
  <way id="50341525" version="2" timestamp="2011-11-19T17:46:33Z" uid="441827" user="lipsigal2" changeset="9875164">
    <nd ref="639604069"/>
    <nd ref="639604070"/>
    <nd ref="639604072"/>
    <nd ref="639604073"/>
    <nd ref="639604069"/>
    <tag k="building" v="yes"/>
    <tag k="name" v="поликлиника"/>
  </way>
  <way id="50341525" version="3" timestamp="2011-11-19T17:47:41Z" uid="441827" user="lipsigal2" changeset="9875164">
    <nd ref="639604069"/>
    <nd ref="639604070"/>
    <nd ref="639604072"/>
    <nd ref="639604073"/>
    <nd ref="639604069"/>
    <tag k="amenity" v="hospital"/>
    <tag k="building" v="yes"/>
    <tag k="name" v="поликлиника"/>
  </way>
  <way id="50341525" version="4" timestamp="2011-11-19T17:52:44Z" uid="441827" user="lipsigal2" changeset="9875164">
    <nd ref="639604069"/>
    <nd ref="639604070"/>
    <nd ref="639604072"/>
    <nd ref="639604073"/>
    <nd ref="639604069"/>
    <tag k="amenity" v="hospital"/>
    <tag k="building" v="yes"/>
    <tag k="emergency" v="yes"/>
    <tag k="name" v="поликлиника"/>
  </way>
  <way id="50341526" version="1" timestamp="2010-02-15T11:26:59Z" uid="115477" user="wowik" changeset="3882229">
    <nd ref="639604075"/>
    <nd ref="639604076"/>
    <nd ref="639604078"/>
    <nd ref="639604079"/>
    <nd ref="639604075"/>
    <tag k="building" v="yes"/>
  </way>
  <way id="50341526" version="2" timestamp="2010-11-18T06:56:59Z" uid="329816" user="Valaykhal" changeset="6397887">
    <nd ref="639604075"/>
    <nd ref="639604076"/>
    <nd ref="639604078"/>
    <nd ref="639604079"/>
    <nd ref="639604075"/>
    <tag k="addr:city" v="Поварово мк-он №2"/>
    <tag k="addr:housenumber" v="11"/>
    <tag k="addr:postcode" v="141540"/>
    <tag k="building" v="yes"/>
  </way>
  <way id="50341527" version="1" timestamp="2010-02-15T11:26:59Z" uid="115477" user="wowik" changeset="3882229">
    <nd ref="639604081"/>
    <nd ref="639604083"/>
    <nd ref="639604084"/>
    <nd ref="639604085"/>
    <nd ref="639604081"/>
    <tag k="building" v="yes"/>
  </way>
  <way id="50341527" version="2" timestamp="2010-11-18T06:57:21Z" uid="329816" user="Valaykhal" changeset="6397887">
    <nd ref="639604081"/>
    <nd ref="639604083"/>
    <nd ref="639604084"/>
    <nd ref="639604085"/>
    <nd ref="639604081"/>
    <tag k="addr:city" v="Поварово мк-он №2"/>
    <tag k="addr:housenumber" v="12"/>
    <tag k="addr:postcode" v="141540"/>
    <tag k="building" v="yes"/>
  </way>
  <way id="50341528" version="1" timestamp="2010-02-15T11:27:00Z" uid="115477" user="wowik" changeset="3882229">
    <nd ref="639604087"/>
    <nd ref="639604088"/>
    <nd ref="639604089"/>
    <nd ref="639604090"/>
    <nd ref="639604087"/>
    <tag k="building" v="yes"/>
  </way>
  <way id="50341528" version="2" timestamp="2010-11-18T06:58:26Z" uid="329816" user="Valaykhal" changeset="6397887">
    <nd ref="639604087"/>
    <nd ref="639604088"/>
    <nd ref="639604089"/>
    <nd ref="639604090"/>
    <nd ref="639604087"/>
    <tag k="addr:city" v="Поварово мк-он №2"/>
    <tag k="addr:housenumber" v="16"/>
    <tag k="addr:postcode" v="141540"/>
    <tag k="building" v="yes"/>
  </way>
  <way id="50341528" version="3" timestamp="2011-10-18T17:56:13Z" uid="441827" user="lipsigal2" changeset="9593296">
    <nd ref="639604087"/>
    <nd ref="639604090"/>
    <nd ref="639604089"/>
    <nd ref="639604088"/>
    <nd ref="639604087"/>
    <tag k="addr:city" v="Поварово мк-он №2"/>
    <tag k="addr:housenumber" v="16"/>
    <tag k="addr:postcode" v="141540"/>
    <tag k="building" v="yes"/>
  </way>
  <way id="50341529" version="1" timestamp="2010-02-15T11:27:01Z" uid="115477" user="wowik" changeset="3882229">
    <nd ref="639604092"/>
    <nd ref="639604093"/>
    <nd ref="639604095"/>
    <nd ref="639604097"/>
    <nd ref="639604092"/>
    <tag k="building" v="yes"/>
  </way>
  <way id="50341529" version="2" timestamp="2010-11-18T06:58:42Z" uid="329816" user="Valaykhal" changeset="6397887">
    <nd ref="639604092"/>
    <nd ref="639604093"/>
    <nd ref="639604095"/>
    <nd ref="639604097"/>
    <nd ref="639604092"/>
    <tag k="addr:city" v="Поварово мк-он №2"/>
    <tag k="addr:housenumber" v="17"/>
    <tag k="addr:postcode" v="141540"/>
    <tag k="building" v="yes"/>
  </way>
  <way id="50341530" version="1" timestamp="2010-02-15T11:27:02Z" uid="115477" user="wowik" changeset="3882229">
    <nd ref="639604100"/>
    <nd ref="639604101"/>
    <nd ref="639604103"/>
    <nd ref="639604104"/>
    <nd ref="639604100"/>
    <tag k="building" v="yes"/>
  </way>
  <way id="50341530" version="2" timestamp="2010-11-18T06:56:20Z" uid="329816" user="Valaykhal" changeset="6397887">
    <nd ref="639604100"/>
    <nd ref="639604101"/>
    <nd ref="639604103"/>
    <nd ref="639604104"/>
    <nd ref="639604100"/>
    <tag k="addr:city" v="Поварово мк-он №2"/>
    <tag k="addr:housenumber" v="9"/>
    <tag k="addr:postcode" v="141540"/>
    <tag k="building" v="yes"/>
  </way>
  <way id="50341530" version="3" timestamp="2010-11-18T16:50:42Z" uid="329816" user="Valaykhal" changeset="6401265">
    <nd ref="639604100"/>
    <nd ref="639604101"/>
    <nd ref="639604103"/>
    <nd ref="639604104"/>
    <nd ref="639604100"/>
    <tag k="addr:city" v="Поварово мк-он №2"/>
    <tag k="addr:country" v="RU"/>
    <tag k="addr:district" v="Солнечногорский район"/>
    <tag k="addr:housenumber" v="9"/>
    <tag k="addr:postcode" v="141540"/>
    <tag k="addr:region" v="Московская область"/>
    <tag k="building" v="yes"/>
  </way>
  <way id="50341531" version="1" timestamp="2010-02-15T11:27:02Z" uid="115477" user="wowik" changeset="3882229">
    <nd ref="639604106"/>
    <nd ref="639604107"/>
    <nd ref="639604108"/>
    <nd ref="639604109"/>
    <nd ref="639604106"/>
    <tag k="building" v="yes"/>
  </way>
  <way id="50341531" version="2" timestamp="2010-11-18T06:55:16Z" uid="329816" user="Valaykhal" changeset="6397887">
    <nd ref="639604106"/>
    <nd ref="639604107"/>
    <nd ref="639604108"/>
    <nd ref="639604109"/>
    <nd ref="639604106"/>
    <tag k="addr:city" v="Поварово мк-он №2"/>
    <tag k="addr:housenumber" v="4"/>
    <tag k="addr:postcode" v="141540"/>
    <tag k="building" v="yes"/>
  </way>
  <way id="50341531" version="3" timestamp="2011-11-19T17:30:58Z" uid="441827" user="lipsigal2" changeset="9875164">
    <nd ref="639604106"/>
    <nd ref="639604107"/>
    <nd ref="639604108"/>
    <nd ref="639604109"/>
    <nd ref="639604106"/>
    <tag k="addr:city" v="Поварово мк-он №2"/>
    <tag k="addr:housenumber" v="3"/>
    <tag k="addr:postcode" v="141540"/>
    <tag k="building" v="yes"/>
  </way>
  <way id="50341532" version="1" timestamp="2010-02-15T11:27:03Z" uid="115477" user="wowik" changeset="3882229">
    <nd ref="639604111"/>
    <nd ref="639604112"/>
    <nd ref="639604113"/>
    <nd ref="639604116"/>
    <nd ref="639604111"/>
    <tag k="building" v="yes"/>
  </way>
  <way id="50341532" version="2" timestamp="2010-11-18T06:55:36Z" uid="329816" user="Valaykhal" changeset="6397887">
    <nd ref="639604111"/>
    <nd ref="639604112"/>
    <nd ref="639604113"/>
    <nd ref="639604116"/>
    <nd ref="639604111"/>
    <tag k="addr:city" v="Поварово мк-он №2"/>
    <tag k="addr:housenumber" v="3"/>
    <tag k="addr:postcode" v="141540"/>
    <tag k="building" v="yes"/>
  </way>
  <way id="50341532" version="3" timestamp="2011-11-19T17:30:40Z" uid="441827" user="lipsigal2" changeset="9875164">
    <nd ref="639604111"/>
    <nd ref="639604112"/>
    <nd ref="639604113"/>
    <nd ref="639604116"/>
    <nd ref="639604111"/>
    <tag k="addr:city" v="Поварово мк-он №2"/>
    <tag k="addr:housenumber" v="4"/>
    <tag k="addr:postcode" v="141540"/>
    <tag k="building" v="yes"/>
  </way>
  <way id="50341533" version="1" timestamp="2010-02-15T11:27:04Z" uid="115477" user="wowik" changeset="3882229">
    <nd ref="639604117"/>
    <nd ref="639604119"/>
    <nd ref="639604120"/>
    <nd ref="639604121"/>
    <nd ref="639604117"/>
    <tag k="building" v="yes"/>
  </way>
  <way id="50341533" version="2" timestamp="2010-11-18T06:55:50Z" uid="329816" user="Valaykhal" changeset="6397887">
    <nd ref="639604117"/>
    <nd ref="639604119"/>
    <nd ref="639604120"/>
    <nd ref="639604121"/>
    <nd ref="639604117"/>
    <tag k="addr:city" v="Поварово мк-он №2"/>
    <tag k="addr:housenumber" v="6"/>
    <tag k="addr:postcode" v="141540"/>
    <tag k="building" v="yes"/>
  </way>
  <way id="50341534" version="1" timestamp="2010-02-15T11:27:05Z" uid="115477" user="wowik" changeset="3882229">
    <nd ref="639604124"/>
    <nd ref="639604125"/>
    <nd ref="639604127"/>
    <nd ref="639604128"/>
    <nd ref="639604130"/>
    <nd ref="639604131"/>
    <nd ref="639604124"/>
    <tag k="building" v="yes"/>
  </way>
  <way id="50341534" version="2" timestamp="2010-11-18T06:56:38Z" uid="329816" user="Valaykhal" changeset="6397887">
    <nd ref="639604124"/>
    <nd ref="639604125"/>
    <nd ref="639604127"/>
    <nd ref="639604128"/>
    <nd ref="639604130"/>
    <nd ref="639604131"/>
    <nd ref="639604124"/>
    <tag k="addr:city" v="Поварово мк-он №2"/>
    <tag k="addr:housenumber" v="5"/>
    <tag k="addr:postcode" v="141540"/>
    <tag k="building" v="yes"/>
  </way>
  <way id="50341534" version="3" timestamp="2010-11-18T19:22:20Z" uid="329816" user="Valaykhal" changeset="6402331">
    <nd ref="639604124"/>
    <nd ref="639604125"/>
    <nd ref="993865276"/>
    <nd ref="639604127"/>
    <nd ref="639604128"/>
    <nd ref="639604130"/>
    <nd ref="639604131"/>
    <nd ref="639604124"/>
    <tag k="addr:city" v="Поварово мк-он №2"/>
    <tag k="addr:housenumber" v="5"/>
    <tag k="addr:postcode" v="141540"/>
    <tag k="building" v="yes"/>
  </way>
  <way id="50341535" version="1" timestamp="2010-02-15T11:27:06Z" uid="115477" user="wowik" changeset="3882229">
    <nd ref="639604134"/>
    <nd ref="639604135"/>
    <nd ref="639604137"/>
    <nd ref="639604139"/>
    <nd ref="639604140"/>
    <nd ref="639604141"/>
    <nd ref="639604134"/>
    <tag k="building" v="yes"/>
  </way>
  <way id="50341535" version="2" timestamp="2010-11-17T16:17:14Z" uid="329816" user="Valaykhal" changeset="6393903">
    <nd ref="639604134"/>
    <nd ref="639604135"/>
    <nd ref="639604137"/>
    <nd ref="639604139"/>
    <nd ref="639604140"/>
    <nd ref="639604141"/>
    <nd ref="639604134"/>
    <tag k="addr:city" v="Поварово мкр-н 2"/>
    <tag k="addr:country" v="RU"/>
    <tag k="addr:housenumber" v="10"/>
    <tag k="addr:postcode" v="141540"/>
    <tag k="building" v="yes"/>
  </way>
  <way id="50341535" version="3" timestamp="2010-11-17T16:19:42Z" uid="329816" user="Valaykhal" changeset="6393918">
    <nd ref="639604134"/>
    <nd ref="639604135"/>
    <nd ref="639604137"/>
    <nd ref="639604139"/>
    <nd ref="639604140"/>
    <nd ref="639604141"/>
    <nd ref="639604134"/>
    <tag k="addr:city" v="Поварово мкр-н 2"/>
    <tag k="addr:country" v="RU"/>
    <tag k="addr:district" v="Солнечногорский район"/>
    <tag k="addr:housenumber" v="10"/>
    <tag k="addr:postcode" v="141540"/>
    <tag k="addr:region" v="Московская область"/>
    <tag k="building" v="yes"/>
  </way>
  <way id="50341535" version="4" timestamp="2010-11-17T16:23:02Z" uid="329816" user="Valaykhal" changeset="6393946">
    <nd ref="639604134"/>
    <nd ref="639604135"/>
    <nd ref="639604137"/>
    <nd ref="639604139"/>
    <nd ref="639604140"/>
    <nd ref="639604141"/>
    <nd ref="639604134"/>
    <tag k="addr:city" v="Поварово мкр-н 1"/>
    <tag k="addr:country" v="RU"/>
    <tag k="addr:district" v="Солнечногорский район"/>
    <tag k="addr:housenumber" v="17"/>
    <tag k="addr:postcode" v="141540"/>
    <tag k="addr:region" v="Московская область"/>
    <tag k="building" v="yes"/>
  </way>
  <way id="50341535" version="5" timestamp="2010-11-17T16:39:43Z" uid="329816" user="Valaykhal" changeset="6394054">
    <nd ref="639604134"/>
    <nd ref="639604135"/>
    <nd ref="639604137"/>
    <nd ref="639604139"/>
    <nd ref="639604140"/>
    <nd ref="639604141"/>
    <nd ref="639604134"/>
    <tag k="addr:city" v="Поварово мкр-н 1"/>
    <tag k="addr:country" v="RU"/>
    <tag k="addr:district" v="Солнечногорский район"/>
    <tag k="addr:housenumber" v="10"/>
    <tag k="addr:postcode" v="141540"/>
    <tag k="addr:region" v="Московская область"/>
    <tag k="building" v="yes"/>
  </way>
  <way id="50341536" version="1" timestamp="2010-02-15T11:27:07Z" uid="115477" user="wowik" changeset="3882229">
    <nd ref="639604143"/>
    <nd ref="639604145"/>
    <nd ref="639604146"/>
    <nd ref="639604148"/>
    <nd ref="639604149"/>
    <nd ref="639604150"/>
    <nd ref="639604143"/>
    <tag k="building" v="yes"/>
  </way>
  <way id="50341536" version="2" timestamp="2010-11-17T16:23:02Z" uid="329816" user="Valaykhal" changeset="6393946">
    <nd ref="639604143"/>
    <nd ref="639604145"/>
    <nd ref="639604146"/>
    <nd ref="639604148"/>
    <nd ref="639604149"/>
    <nd ref="639604150"/>
    <nd ref="639604143"/>
    <tag k="addr:city" v="Поварово мк-он №2"/>
    <tag k="addr:housenumber" v="7"/>
    <tag k="building" v="yes"/>
  </way>
  <way id="50341536" version="3" timestamp="2010-11-18T16:49:55Z" uid="329816" user="Valaykhal" changeset="6401265">
    <nd ref="639604143"/>
    <nd ref="639604145"/>
    <nd ref="639604146"/>
    <nd ref="639604148"/>
    <nd ref="639604149"/>
    <nd ref="639604150"/>
    <nd ref="639604143"/>
    <tag k="addr:city" v="Поварово мк-он №2"/>
    <tag k="addr:country" v="RU"/>
    <tag k="addr:district" v="Солнечногорский район"/>
    <tag k="addr:housenumber" v="7"/>
    <tag k="addr:postcode" v="141540"/>
    <tag k="addr:region" v="Московская область"/>
    <tag k="building" v="yes"/>
  </way>
  <way id="50341537" version="1" timestamp="2010-02-15T11:27:08Z" uid="115477" user="wowik" changeset="3882229">
    <nd ref="639604151"/>
    <nd ref="639604152"/>
    <nd ref="639604154"/>
    <nd ref="639604155"/>
    <nd ref="639604151"/>
    <tag k="building" v="yes"/>
  </way>
  <way id="50341537" version="2" timestamp="2010-11-18T06:54:53Z" uid="329816" user="Valaykhal" changeset="6397887">
    <nd ref="639604151"/>
    <nd ref="639604152"/>
    <nd ref="639604154"/>
    <nd ref="639604155"/>
    <nd ref="639604151"/>
    <tag k="addr:city" v="Поварово мк-он №2"/>
    <tag k="addr:housenumber" v="8"/>
    <tag k="addr:postcode" v="141540"/>
    <tag k="building" v="yes"/>
  </way>
  <way id="50341560" version="3" timestamp="2010-12-31T08:54:49Z" uid="19626" user="Swamp" changeset="6817239">
    <nd ref="639603494"/>
    <nd ref="639604465"/>
    <nd ref="639604467"/>
    <nd ref="639604468"/>
    <tag k="highway" v="service"/>
    <tag k="maxspeed" v="10"/>
    <tag k="source" v="survey"/>
  </way>
  <way id="50341574" version="2" timestamp="2010-12-29T10:33:07Z" uid="18775" user="drlizau" changeset="6796852">
    <nd ref="639604667"/>
    <nd ref="639604668"/>
    <nd ref="639604670"/>
    <nd ref="639604673"/>
    <nd ref="639604675"/>
    <nd ref="639604678"/>
    <nd ref="639604680"/>
    <nd ref="639604681"/>
    <nd ref="639604682"/>
    <nd ref="639604684"/>
    <nd ref="639604686"/>
    <nd ref="639604688"/>
    <nd ref="639604690"/>
    <nd ref="639604697"/>
    <nd ref="639604699"/>
    <nd ref="639604702"/>
    <nd ref="639604705"/>
    <nd ref="639604706"/>
    <nd ref="639604667"/>
    <tag k="highway" v="secondary"/>
    <tag k="junction" v="roundabout"/>
  </way>
  <way id="50341576" version="1" timestamp="2010-02-15T11:29:07Z" uid="115477" user="wowik" changeset="3882229">
    <nd ref="639604745"/>
    <nd ref="639604746"/>
    <nd ref="639604748"/>
    <nd ref="639604749"/>
    <nd ref="639604745"/>
    <tag k="building" v="yes"/>
  </way>
  <way id="50341576" version="2" timestamp="2010-11-18T06:58:12Z" uid="329816" user="Valaykhal" changeset="6397887">
    <nd ref="639604745"/>
    <nd ref="639604746"/>
    <nd ref="639604748"/>
    <nd ref="639604749"/>
    <nd ref="639604745"/>
    <tag k="addr:city" v="Поварово мк-он №2"/>
    <tag k="addr:housenumber" v="13"/>
    <tag k="addr:postcode" v="141540"/>
    <tag k="building" v="yes"/>
  </way>
  <way id="50341577" version="1" timestamp="2010-02-15T11:29:08Z" uid="115477" user="wowik" changeset="3882229">
    <nd ref="639604752"/>
    <nd ref="639604753"/>
    <nd ref="639604754"/>
    <nd ref="639604755"/>
    <nd ref="639604752"/>
    <tag k="building" v="yes"/>
  </way>
  <way id="50341577" version="2" timestamp="2010-11-18T06:57:46Z" uid="329816" user="Valaykhal" changeset="6397887">
    <nd ref="639604752"/>
    <nd ref="639604753"/>
    <nd ref="639604754"/>
    <nd ref="639604755"/>
    <nd ref="639604752"/>
    <tag k="addr:city" v="Поварово мк-он №2"/>
    <tag k="addr:housenumber" v="14"/>
    <tag k="addr:postcode" v="141540"/>
    <tag k="building" v="yes"/>
  </way>
  <way id="50341578" version="1" timestamp="2010-02-15T11:29:08Z" uid="115477" user="wowik" changeset="3882229">
    <nd ref="639604758"/>
    <nd ref="639604759"/>
    <nd ref="639604762"/>
    <nd ref="639604764"/>
    <nd ref="639604758"/>
    <tag k="building" v="yes"/>
  </way>
  <way id="50341578" version="2" timestamp="2010-11-18T06:57:34Z" uid="329816" user="Valaykhal" changeset="6397887">
    <nd ref="639604758"/>
    <nd ref="639604759"/>
    <nd ref="639604762"/>
    <nd ref="639604764"/>
    <nd ref="639604758"/>
    <tag k="addr:city" v="Поварово мк-он №2"/>
    <tag k="addr:housenumber" v="15"/>
    <tag k="addr:postcode" v="141540"/>
    <tag k="building" v="yes"/>
  </way>
  <way id="50341578" version="3" timestamp="2011-10-18T17:56:13Z" uid="441827" user="lipsigal2" changeset="9593296">
    <nd ref="639604758"/>
    <nd ref="639604764"/>
    <nd ref="639604762"/>
    <nd ref="639604759"/>
    <nd ref="639604758"/>
    <tag k="addr:city" v="Поварово мк-он №2"/>
    <tag k="addr:housenumber" v="15"/>
    <tag k="addr:postcode" v="141540"/>
    <tag k="building" v="yes"/>
  </way>
  <way id="50341579" version="1" timestamp="2010-02-15T11:29:09Z" uid="115477" user="wowik" changeset="3882229">
    <nd ref="639604769"/>
    <nd ref="639604771"/>
    <nd ref="639604774"/>
    <nd ref="639604776"/>
    <nd ref="639604769"/>
    <tag k="building" v="yes"/>
  </way>
  <way id="50341580" version="1" timestamp="2010-02-15T11:29:10Z" uid="115477" user="wowik" changeset="3882229">
    <nd ref="639604783"/>
    <nd ref="639604785"/>
    <nd ref="639604787"/>
    <nd ref="639604788"/>
    <nd ref="639604789"/>
    <nd ref="639604791"/>
    <nd ref="639604792"/>
    <nd ref="639604794"/>
    <nd ref="639604783"/>
    <tag k="building" v="yes"/>
  </way>
  <way id="50341824" version="7" timestamp="2010-03-23T10:48:09Z" uid="18775" user="drlizau" changeset="4210912">
    <nd ref="672670047"/>
    <nd ref="639606166"/>
    <nd ref="639605914"/>
    <nd ref="639606279"/>
    <nd ref="639614159"/>
    <nd ref="639606280"/>
    <nd ref="639614126"/>
    <nd ref="639606281"/>
    <nd ref="639621567"/>
    <nd ref="639606282"/>
    <nd ref="639606283"/>
    <nd ref="639606284"/>
    <nd ref="639621523"/>
    <nd ref="639606285"/>
    <nd ref="639606286"/>
    <nd ref="639606287"/>
    <nd ref="639606288"/>
    <nd ref="639620669"/>
    <nd ref="639606289"/>
    <nd ref="639606290"/>
    <nd ref="640444972"/>
    <tag k="highway" v="residential"/>
    <tag k="source" v="nearmap"/>
  </way>
  <way id="50341824" version="8" timestamp="2011-10-05T12:54:57Z" uid="168136" user="goldfishxyz" changeset="9477788">
    <nd ref="672670047"/>
    <nd ref="639606166"/>
    <nd ref="639605914"/>
    <nd ref="639606279"/>
    <nd ref="639614159"/>
    <nd ref="639606280"/>
    <nd ref="639614126"/>
    <nd ref="639606281"/>
    <nd ref="639621567"/>
    <nd ref="639606282"/>
    <nd ref="639606283"/>
    <nd ref="639606284"/>
    <nd ref="639621523"/>
    <nd ref="639606285"/>
    <nd ref="639606286"/>
    <nd ref="639606287"/>
    <nd ref="639606288"/>
    <nd ref="639620669"/>
    <nd ref="639606289"/>
    <nd ref="639606290"/>
    <nd ref="640444972"/>
    <tag k="highway" v="residential"/>
    <tag k="name" v="Witt St."/>
    <tag k="source" v="nearmap"/>
  </way>
  <way id="50341824" version="9" timestamp="2011-11-25T22:26:50Z" uid="46482" user="Leon K" changeset="9949446">
    <nd ref="672670047"/>
    <nd ref="639606166"/>
    <nd ref="639605914"/>
    <nd ref="639606279"/>
    <nd ref="639614159"/>
    <nd ref="639606280"/>
    <nd ref="639614126"/>
    <nd ref="639606281"/>
    <nd ref="639621567"/>
    <nd ref="639606282"/>
    <nd ref="639606283"/>
    <nd ref="639606284"/>
    <nd ref="639621523"/>
    <nd ref="639606285"/>
    <nd ref="639606286"/>
    <nd ref="639606287"/>
    <nd ref="639606288"/>
    <nd ref="639620669"/>
    <nd ref="639606289"/>
    <nd ref="639606290"/>
    <nd ref="640444972"/>
    <tag k="highway" v="residential"/>
    <tag k="name" v="Witt Street"/>
    <tag k="source" v="nearmap"/>
  </way>
  <way id="50341906" version="1" timestamp="2010-02-15T11:38:05Z" uid="74617" user="JohnSmith" changeset="3882318">
    <nd ref="639608111"/>
    <nd ref="639608115"/>
    <tag k="highway" v="residential"/>
    <tag k="name" v="Ross Court"/>
  </way>
  <way id="50341906" version="2" timestamp="2010-02-15T12:12:57Z" uid="74617" user="JohnSmith" changeset="3882541">
    <nd ref="639608111"/>
    <nd ref="639608115"/>
    <tag k="highway" v="residential"/>
    <tag k="maxspeed" v="50"/>
    <tag k="name" v="Ross Court"/>
  </way>
  <way id="50341906" version="3" timestamp="2011-05-15T07:36:00Z" uid="22094" user="Chadzopkyo" changeset="8148408">
    <nd ref="639608111"/>
    <nd ref="639608115"/>
    <tag k="highway" v="residential"/>
    <tag k="maxspeed" v="50"/>
    <tag k="name" v="Ross Court"/>
    <tag k="surface" v="asphalt"/>
  </way>
  <way id="50341911" version="1" timestamp="2010-02-15T11:38:45Z" uid="115477" user="wowik" changeset="3882229">
    <nd ref="639608312"/>
    <nd ref="639608314"/>
    <nd ref="639608315"/>
    <nd ref="639608312"/>
    <tag k="natural" v="wood"/>
  </way>
  <way id="50341912" version="1" timestamp="2010-02-15T11:38:46Z" uid="115477" user="wowik" changeset="3882229">
    <nd ref="639608317"/>
    <nd ref="639608319"/>
    <nd ref="639608321"/>
    <nd ref="639608322"/>
    <nd ref="639608323"/>
    <nd ref="639608324"/>
    <nd ref="639608325"/>
    <nd ref="639608317"/>
    <tag k="natural" v="wood"/>
  </way>
  <way id="50341913" version="1" timestamp="2010-02-15T11:38:47Z" uid="115477" user="wowik" changeset="3882229">
    <nd ref="639608327"/>
    <nd ref="639608329"/>
    <nd ref="639608331"/>
    <nd ref="639608332"/>
    <nd ref="639608333"/>
    <nd ref="639608327"/>
    <tag k="natural" v="wood"/>
  </way>
  <way id="50341914" version="1" timestamp="2010-02-15T11:38:47Z" uid="115477" user="wowik" changeset="3882229">
    <nd ref="639608336"/>
    <nd ref="639608337"/>
    <nd ref="639608338"/>
    <nd ref="639608336"/>
    <tag k="natural" v="wood"/>
  </way>
  <way id="50341915" version="1" timestamp="2010-02-15T11:38:49Z" uid="115477" user="wowik" changeset="3882229">
    <nd ref="639608340"/>
    <nd ref="639608341"/>
    <nd ref="639608342"/>
    <nd ref="639608344"/>
    <nd ref="639608346"/>
    <nd ref="639608347"/>
    <nd ref="639608349"/>
    <nd ref="639608351"/>
    <nd ref="639608352"/>
    <nd ref="639608354"/>
    <nd ref="639608355"/>
    <nd ref="639608356"/>
    <nd ref="639608357"/>
    <nd ref="639608358"/>
    <nd ref="639608361"/>
    <nd ref="639608362"/>
    <nd ref="639608340"/>
    <tag k="natural" v="wood"/>
  </way>
  <way id="50341916" version="1" timestamp="2010-02-15T11:38:51Z" uid="115477" user="wowik" changeset="3882229">
    <nd ref="639608366"/>
    <nd ref="639608367"/>
    <nd ref="639608368"/>
    <nd ref="639608370"/>
    <nd ref="639608372"/>
    <nd ref="639608373"/>
    <nd ref="639608375"/>
    <nd ref="639608376"/>
    <nd ref="639608378"/>
    <nd ref="639608379"/>
    <nd ref="639608380"/>
    <nd ref="639608366"/>
    <tag k="natural" v="wood"/>
  </way>
  <way id="50341916" version="2" timestamp="2011-10-16T17:36:55Z" uid="441827" user="lipsigal2" changeset="9574941">
    <nd ref="639608366"/>
    <nd ref="639608367"/>
    <nd ref="639608368"/>
    <nd ref="639608370"/>
    <nd ref="639608372"/>
    <nd ref="639608373"/>
    <nd ref="639608375"/>
    <nd ref="1469617077"/>
    <nd ref="639608376"/>
    <nd ref="639608378"/>
    <nd ref="639608379"/>
    <nd ref="639608380"/>
    <nd ref="639608366"/>
    <tag k="natural" v="wood"/>
  </way>
  <way id="50341917" version="1" timestamp="2010-02-15T11:38:53Z" uid="115477" user="wowik" changeset="3882229">
    <nd ref="639608382"/>
    <nd ref="639608383"/>
    <nd ref="639608385"/>
    <nd ref="639608387"/>
    <nd ref="639608388"/>
    <nd ref="639608390"/>
    <nd ref="639608382"/>
    <tag k="natural" v="wood"/>
  </way>
  <way id="50341920" version="1" timestamp="2010-02-15T11:38:55Z" uid="115477" user="wowik" changeset="3882229">
    <nd ref="639608398"/>
    <nd ref="639608400"/>
    <nd ref="639608404"/>
    <nd ref="639608406"/>
    <nd ref="639608409"/>
    <nd ref="639608411"/>
    <nd ref="639608413"/>
    <nd ref="639608398"/>
    <tag k="natural" v="wood"/>
  </way>
  <way id="50341921" version="1" timestamp="2010-02-15T11:38:57Z" uid="115477" user="wowik" changeset="3882229">
    <nd ref="639608416"/>
    <nd ref="639608418"/>
    <nd ref="639608420"/>
    <nd ref="639608423"/>
    <nd ref="639608425"/>
    <nd ref="639608427"/>
    <nd ref="639608428"/>
    <nd ref="639608416"/>
  </way>
  <way id="50341921" version="2" timestamp="2010-07-22T10:08:06Z" uid="115477" user="wowik" changeset="5285829">
    <nd ref="639608416"/>
    <nd ref="639608418"/>
    <nd ref="639608420"/>
    <nd ref="639608423"/>
    <nd ref="639608425"/>
    <nd ref="639608427"/>
    <nd ref="639608428"/>
    <nd ref="639608416"/>
    <tag k="natural" v="wood"/>
  </way>
  <way id="50341922" version="1" timestamp="2010-02-15T11:38:59Z" uid="115477" user="wowik" changeset="3882229">
    <nd ref="639608430"/>
    <nd ref="639608432"/>
    <nd ref="639608433"/>
    <nd ref="639608434"/>
    <nd ref="639608435"/>
    <nd ref="639608436"/>
    <nd ref="639608437"/>
    <nd ref="639608439"/>
    <nd ref="639608440"/>
    <nd ref="639608442"/>
    <nd ref="639608443"/>
    <nd ref="639608445"/>
    <nd ref="639608446"/>
    <nd ref="639608447"/>
    <nd ref="639608448"/>
    <nd ref="639608449"/>
    <nd ref="639608451"/>
    <nd ref="639608430"/>
  </way>
  <way id="50341922" version="2" timestamp="2010-02-15T11:43:01Z" uid="115477" user="wowik" changeset="3882229">
    <nd ref="639608430"/>
    <nd ref="639608432"/>
    <nd ref="639608433"/>
    <nd ref="639608434"/>
    <nd ref="639608435"/>
    <nd ref="639608436"/>
    <nd ref="639608437"/>
    <nd ref="639608439"/>
    <nd ref="639608440"/>
    <nd ref="639608442"/>
    <nd ref="639608443"/>
    <nd ref="639608445"/>
    <nd ref="639608446"/>
    <nd ref="639608447"/>
    <nd ref="639608448"/>
    <nd ref="639608449"/>
    <nd ref="639608451"/>
    <nd ref="639608430"/>
    <tag k="natural" v="wood"/>
  </way>
  <way id="50341923" version="1" timestamp="2010-02-15T11:39:05Z" uid="115477" user="wowik" changeset="3882229">
    <nd ref="639608485"/>
    <nd ref="639608486"/>
    <nd ref="639608487"/>
    <nd ref="639608488"/>
    <nd ref="639608489"/>
    <nd ref="639608490"/>
    <nd ref="639608491"/>
    <nd ref="639608492"/>
    <nd ref="639608493"/>
    <nd ref="639608494"/>
    <nd ref="639608495"/>
    <nd ref="639608497"/>
    <nd ref="639608498"/>
    <nd ref="639608500"/>
    <nd ref="639608485"/>
    <tag k="natural" v="wood"/>
  </way>
  <way id="50341924" version="1" timestamp="2010-02-15T11:39:05Z" uid="115477" user="wowik" changeset="3882229">
    <nd ref="639608503"/>
    <nd ref="639608504"/>
    <nd ref="639608505"/>
    <nd ref="639608506"/>
    <nd ref="639608503"/>
    <tag k="natural" v="wood"/>
  </way>
  <way id="50341925" version="1" timestamp="2010-02-15T11:39:06Z" uid="115477" user="wowik" changeset="3882229">
    <nd ref="639608507"/>
    <nd ref="639608509"/>
    <nd ref="639608510"/>
    <nd ref="639608513"/>
    <nd ref="639608514"/>
    <nd ref="639608515"/>
    <nd ref="639608516"/>
    <nd ref="639608517"/>
    <nd ref="639608518"/>
    <nd ref="639608507"/>
    <tag k="natural" v="wood"/>
  </way>
</osm>
