<?xml version='1.0' encoding='UTF-8'?>
<osm version="0.6" generator="libosmium/2.20.0">
  <way id="50390123" version="4" timestamp="2010-04-03T17:20:07Z" uid="20587" user="balrog-kun" changeset="4313610">
    <nd ref="640278180"/>
    <nd ref="179412228"/>
    <nd ref="298042468"/>
    <nd ref="179412227"/>
    <nd ref="179412226"/>
    <nd ref="179412224"/>
    <nd ref="179412223"/>
    <nd ref="179412222"/>
    <nd ref="179412220"/>
    <nd ref="179412219"/>
    <nd ref="179412218"/>
    <nd ref="179412217"/>
    <nd ref="179412213"/>
    <nd ref="179412211"/>
    <nd ref="641472581"/>
    <tag k="highway" v="trunk"/>
    <tag k="name" v="Artcraft Road"/>
    <tag k="oneway" v="yes"/>
    <tag k="ref" v="178"/>
    <tag k="tiger:cfcc" v="A41"/>
    <tag k="tiger:county" v="El Paso, TX"/>
    <tag k="tiger:name_base" v="Artcraft"/>
    <tag k="tiger:name_type" v="Rd"/>
    <tag k="tiger:reviewed" v="no"/>
    <tag k="tiger:separated" v="no"/>
    <tag k="tiger:source" v="tiger_import_dch_v0.6_20070829"/>
    <tag k="tiger:tlid" v="189373777:189425465:189425466:189425467:189425469:189425495"/>
    <tag k="tiger:zip_left" v="79932"/>
    <tag k="tiger:zip_right" v="79932"/>
  </way>
  <way id="50390123" version="5" timestamp="2010-08-15T20:28:43Z" uid="37392" user="25or6to4" changeset="5504108">
    <nd ref="640278180"/>
    <nd ref="179412228"/>
    <nd ref="298042468"/>
    <nd ref="179412227"/>
    <nd ref="179412226"/>
    <nd ref="179412224"/>
    <nd ref="179412223"/>
    <nd ref="179412222"/>
    <nd ref="179412220"/>
    <nd ref="179412219"/>
    <nd ref="179412218"/>
    <nd ref="179412217"/>
    <nd ref="861814945"/>
    <nd ref="179412213"/>
    <nd ref="179412211"/>
    <nd ref="641472581"/>
    <tag k="highway" v="trunk"/>
    <tag k="name" v="Artcraft Road"/>
    <tag k="oneway" v="yes"/>
    <tag k="ref" v="TX 178"/>
    <tag k="tiger:cfcc" v="A41"/>
    <tag k="tiger:county" v="El Paso, TX"/>
    <tag k="tiger:name_base" v="Artcraft"/>
    <tag k="tiger:name_type" v="Rd"/>
    <tag k="tiger:separated" v="no"/>
    <tag k="tiger:source" v="tiger_import_dch_v0.6_20070829"/>
    <tag k="tiger:tlid" v="189373777:189425465:189425466:189425467:189425469:189425495"/>
    <tag k="tiger:zip_left" v="79932"/>
    <tag k="tiger:zip_right" v="79932"/>
  </way>
  <way id="50390123" version="6" timestamp="2010-12-25T10:47:55Z" uid="207745" user="NE2" changeset="6759882">
    <nd ref="640278180"/>
    <nd ref="298042468"/>
    <nd ref="179412227"/>
    <nd ref="179412226"/>
    <nd ref="179412224"/>
    <nd ref="179412223"/>
    <nd ref="179412222"/>
    <nd ref="179412220"/>
    <nd ref="179412219"/>
    <nd ref="179412218"/>
    <nd ref="179412217"/>
    <nd ref="861814945"/>
    <nd ref="179412213"/>
    <nd ref="179412211"/>
    <nd ref="641472581"/>
    <tag k="highway" v="trunk"/>
    <tag k="name" v="Artcraft Road"/>
    <tag k="oneway" v="yes"/>
    <tag k="ref" v="TX 178"/>
    <tag k="tiger:cfcc" v="A41"/>
    <tag k="tiger:county" v="El Paso, TX"/>
    <tag k="tiger:name_base" v="Artcraft"/>
    <tag k="tiger:name_type" v="Rd"/>
    <tag k="tiger:separated" v="no"/>
    <tag k="tiger:source" v="tiger_import_dch_v0.6_20070829"/>
    <tag k="tiger:tlid" v="189373777:189425465:189425466:189425467:189425469:189425495"/>
    <tag k="tiger:zip_left" v="79932"/>
    <tag k="tiger:zip_right" v="79932"/>
  </way>
  <way id="50390123" version="7" timestamp="2011-06-12T14:35:23Z" uid="207745" user="NE2" changeset="8415993">
    <nd ref="640278180"/>
    <nd ref="298042468"/>
    <nd ref="179412227"/>
    <nd ref="179412226"/>
    <nd ref="179412224"/>
    <nd ref="179412223"/>
    <nd ref="179412222"/>
    <nd ref="179412220"/>
    <nd ref="179412219"/>
    <nd ref="179412218"/>
    <nd ref="179412217"/>
    <nd ref="861814945"/>
    <nd ref="179412213"/>
    <nd ref="179412211"/>
    <nd ref="641472581"/>
    <tag k="highway" v="trunk"/>
    <tag k="lanes" v="2"/>
    <tag k="name" v="Artcraft Road"/>
    <tag k="oneway" v="yes"/>
    <tag k="ref" v="TX 178"/>
    <tag k="tiger:cfcc" v="A41"/>
    <tag k="tiger:county" v="El Paso, TX"/>
    <tag k="tiger:name_base" v="Artcraft"/>
    <tag k="tiger:name_type" v="Rd"/>
    <tag k="tiger:separated" v="no"/>
    <tag k="tiger:source" v="tiger_import_dch_v0.6_20070829"/>
    <tag k="tiger:tlid" v="189373777:189425465:189425466:189425467:189425469:189425495"/>
    <tag k="tiger:zip_left" v="79932"/>
    <tag k="tiger:zip_right" v="79932"/>
  </way>
  <way id="50390123" version="8" timestamp="2011-11-30T19:39:21Z" uid="207745" user="NE2" changeset="10002171">
    <nd ref="640278180"/>
    <nd ref="298042468"/>
    <nd ref="179412227"/>
    <nd ref="179412226"/>
    <nd ref="179412224"/>
    <nd ref="179412223"/>
    <nd ref="179412222"/>
    <nd ref="179412220"/>
    <nd ref="179412219"/>
    <nd ref="179412218"/>
    <nd ref="179412217"/>
    <nd ref="861814945"/>
    <nd ref="179412213"/>
    <nd ref="179412211"/>
    <nd ref="641472581"/>
    <tag k="hgv" v="yes"/>
    <tag k="highway" v="trunk"/>
    <tag k="lanes" v="2"/>
    <tag k="name" v="Artcraft Road"/>
    <tag k="oneway" v="yes"/>
    <tag k="ref" v="TX 178"/>
    <tag k="tiger:cfcc" v="A41"/>
    <tag k="tiger:county" v="El Paso, TX"/>
    <tag k="tiger:name_base" v="Artcraft"/>
    <tag k="tiger:name_type" v="Rd"/>
    <tag k="tiger:separated" v="no"/>
    <tag k="tiger:source" v="tiger_import_dch_v0.6_20070829"/>
    <tag k="tiger:tlid" v="189373777:189425465:189425466:189425467:189425469:189425495"/>
    <tag k="tiger:zip_left" v="79932"/>
    <tag k="tiger:zip_right" v="79932"/>
  </way>
  <way id="50390125" version="3" timestamp="2010-04-03T17:20:07Z" uid="20587" user="balrog-kun" changeset="4313610">
    <nd ref="640278173"/>
    <nd ref="298042477"/>
    <nd ref="298042478"/>
    <nd ref="559507431"/>
    <tag k="highway" v="motorway"/>
    <tag k="name" v="Artcraft Road"/>
    <tag k="oneway" v="yes"/>
    <tag k="ref" v="178"/>
  </way>
  <way id="50390125" version="4" timestamp="2010-08-15T20:28:34Z" uid="37392" user="25or6to4" changeset="5504108">
    <nd ref="640278173"/>
    <nd ref="298042477"/>
    <nd ref="298042478"/>
    <nd ref="559507431"/>
    <tag k="highway" v="trunk"/>
    <tag k="name" v="Artcraft Road"/>
    <tag k="oneway" v="yes"/>
    <tag k="ref" v="TX 178"/>
  </way>
  <way id="50390125" version="5" timestamp="2010-12-25T10:47:52Z" uid="207745" user="NE2" changeset="6759882">
    <nd ref="640278173"/>
    <nd ref="298042477"/>
    <nd ref="298042478"/>
    <nd ref="559507431"/>
    <tag k="highway" v="motorway"/>
    <tag k="name" v="Artcraft Road"/>
    <tag k="oneway" v="yes"/>
    <tag k="ref" v="TX 178"/>
  </way>
  <way id="50390125" version="6" timestamp="2011-06-12T14:36:46Z" uid="207745" user="NE2" changeset="8415993">
    <nd ref="640278173"/>
    <nd ref="298042477"/>
    <nd ref="298042478"/>
    <nd ref="559507431"/>
    <tag k="highway" v="motorway"/>
    <tag k="lanes" v="2"/>
    <tag k="name" v="Artcraft Road"/>
    <tag k="oneway" v="yes"/>
    <tag k="ref" v="TX 178"/>
  </way>
  <way id="50390125" version="7" timestamp="2011-11-30T19:39:30Z" uid="207745" user="NE2" changeset="10002171">
    <nd ref="640278173"/>
    <nd ref="298042477"/>
    <nd ref="298042478"/>
    <nd ref="559507431"/>
    <tag k="hgv" v="yes"/>
    <tag k="highway" v="motorway"/>
    <tag k="lanes" v="2"/>
    <tag k="name" v="Artcraft Road"/>
    <tag k="oneway" v="yes"/>
    <tag k="ref" v="TX 178"/>
  </way>
</osm>
