<?xml version='1.0' encoding='UTF-8'?>
<osm version="0.6" generator="libosmium/2.20.0">
  <way id="50464255" version="2" timestamp="2010-04-27T17:27:26Z" uid="23543" user="jkjk" changeset="4543025"/>
  <way id="50464325" version="1" timestamp="2010-02-16T17:35:23Z" uid="33382" user="de_muur" changeset="3894220">
    <nd ref="29196313"/>
    <nd ref="172149078"/>
    <nd ref="29036744"/>
    <tag k="cycleway" v="track"/>
    <tag k="highway" v="primary"/>
    <tag k="name" v="Hastedter Heerstraße"/>
    <tag k="oneway" v="yes"/>
    <tag k="ref" v="B 75"/>
    <tag k="source" v="survey"/>
  </way>
  <way id="50464325" version="2" timestamp="2012-03-20T21:55:49Z" uid="42429" user="Nuked Piece of Shit" changeset="11046258"/>
  <way id="50464326" version="1" timestamp="2010-02-16T17:35:23Z" uid="33382" user="de_muur" changeset="3894220">
    <nd ref="29193490"/>
    <nd ref="29535880"/>
    <nd ref="29224980"/>
    <nd ref="29224982"/>
    <nd ref="29224950"/>
    <tag k="cycleway" v="track"/>
    <tag k="highway" v="primary"/>
    <tag k="lanes" v="2"/>
    <tag k="maxspeed" v="50"/>
    <tag k="name" v="Sebaldsbrücker Heerstraße"/>
    <tag k="oneway" v="yes"/>
    <tag k="ref" v="B 75"/>
    <tag k="surface" v="paved"/>
  </way>
  <way id="50464326" version="2" timestamp="2010-02-18T20:23:13Z" uid="33382" user="de_muur" changeset="3911868"/>
  <way id="50464327" version="1" timestamp="2010-02-16T17:35:23Z" uid="33382" user="de_muur" changeset="3894220">
    <nd ref="29224993"/>
    <nd ref="29224992"/>
    <nd ref="30007089"/>
    <nd ref="30007088"/>
    <nd ref="29224946"/>
    <nd ref="29626720"/>
    <nd ref="30007092"/>
    <nd ref="30007093"/>
    <nd ref="29224986"/>
    <nd ref="171310710"/>
    <nd ref="171310723"/>
    <nd ref="29626728"/>
    <tag k="cycleway" v="track"/>
    <tag k="highway" v="primary"/>
    <tag k="maxheight" v="3.65"/>
    <tag k="maxspeed" v="50"/>
    <tag k="name" v="Sebaldsbrücker Heerstraße"/>
    <tag k="ref" v="B 75"/>
    <tag k="surface" v="paved"/>
  </way>
  <way id="50464327" version="2" timestamp="2010-02-17T17:34:46Z" uid="33382" user="de_muur" changeset="3902609">
    <nd ref="29224993"/>
    <nd ref="29224992"/>
    <nd ref="30007089"/>
    <nd ref="30007088"/>
    <nd ref="29224946"/>
    <nd ref="29626720"/>
    <tag k="cycleway" v="track"/>
    <tag k="highway" v="primary"/>
    <tag k="maxheight" v="3.65"/>
    <tag k="maxspeed" v="50"/>
    <tag k="name" v="Sebaldsbrücker Heerstraße"/>
    <tag k="ref" v="B 75"/>
    <tag k="surface" v="paved"/>
  </way>
  <way id="50464327" version="3" timestamp="2011-05-13T22:20:48Z" uid="45445" user="UScha" changeset="8136241">
    <nd ref="29224993"/>
    <nd ref="29224992"/>
    <nd ref="30007089"/>
    <nd ref="30007088"/>
    <nd ref="1283417146"/>
    <nd ref="29224946"/>
    <nd ref="29626720"/>
    <tag k="cycleway" v="track"/>
    <tag k="highway" v="primary"/>
    <tag k="maxheight" v="3.65"/>
    <tag k="maxspeed" v="50"/>
    <tag k="name" v="Sebaldsbrücker Heerstraße"/>
    <tag k="ref" v="B 75"/>
    <tag k="surface" v="paved"/>
  </way>
  <way id="50464327" version="4" timestamp="2012-03-27T12:37:10Z" uid="639648" user="mrbr" changeset="11115770">
    <nd ref="29224993"/>
    <nd ref="29224992"/>
    <nd ref="30007089"/>
    <nd ref="30007088"/>
    <nd ref="1283417146"/>
    <nd ref="29224946"/>
    <nd ref="29626720"/>
    <tag k="cycleway" v="track"/>
    <tag k="highway" v="primary"/>
    <tag k="maxheight" v="3.65"/>
    <tag k="maxspeed" v="50"/>
    <tag k="name" v="Sebaldsbrücker Heerstraße"/>
    <tag k="ref" v="B 75"/>
    <tag k="surface" v="asphalt"/>
  </way>
</osm>
