<?xml version='1.0' encoding='UTF-8'?>
<osm version="0.6" generator="libosmium/2.20.0">
  <way id="50500543" version="5" timestamp="2010-07-09T03:23:01Z" uid="74617" user="JohnSmith" changeset="5170713">
    <nd ref="642342753"/>
    <nd ref="642342785"/>
    <nd ref="306707066"/>
    <nd ref="652941517"/>
    <nd ref="306707105"/>
    <nd ref="721603183"/>
    <nd ref="306707011"/>
    <tag k="highway" v="residential"/>
    <tag k="maxspeed" v="50"/>
    <tag k="maxspeed:source" v="default residential speed limit in Australia"/>
    <tag k="name" v="Raleigh Street"/>
    <tag k="source" v="MMBW"/>
  </way>
  <way id="50500543" version="6" timestamp="2012-01-20T01:53:19Z" uid="147510" user="woodpeck_fixbot" changeset="10442677">
    <nd ref="642342753"/>
    <nd ref="642342785"/>
    <nd ref="306707066"/>
    <nd ref="652941517"/>
    <nd ref="306707105"/>
    <nd ref="721603183"/>
    <nd ref="306707011"/>
    <tag k="highway" v="residential"/>
    <tag k="name" v="Raleigh Street"/>
    <tag k="source" v="MMBW"/>
  </way>
  <way id="50500853" version="2" timestamp="2010-07-09T03:17:43Z" uid="74617" user="JohnSmith" changeset="5170713">
    <nd ref="642342983"/>
    <nd ref="306705901"/>
    <nd ref="642342987"/>
    <nd ref="642342989"/>
    <nd ref="306705655"/>
    <tag k="highway" v="residential"/>
    <tag k="maxspeed" v="50"/>
    <tag k="maxspeed:source" v="default residential speed limit in Australia"/>
    <tag k="name" v="Johnstone Street"/>
    <tag k="source" v="MMBW"/>
  </way>
  <way id="50500853" version="3" timestamp="2012-01-20T01:53:21Z" uid="147510" user="woodpeck_fixbot" changeset="10442677">
    <nd ref="642342983"/>
    <nd ref="306705901"/>
    <nd ref="642342987"/>
    <nd ref="642342989"/>
    <nd ref="306705655"/>
    <tag k="highway" v="residential"/>
    <tag k="name" v="Johnstone Street"/>
    <tag k="source" v="MMBW"/>
  </way>
</osm>
