<?xml version='1.0' encoding='UTF-8'?>
<osm version="0.6" generator="libosmium/2.20.0">
  <way id="50538550" version="2" timestamp="2010-07-08T17:51:09Z" uid="74617" user="JohnSmith" changeset="5167338">
    <nd ref="642987854"/>
    <nd ref="642987858"/>
    <tag k="highway" v="residential"/>
    <tag k="maxspeed" v="50"/>
    <tag k="maxspeed:source" v="default residential speed limit in Australia"/>
    <tag k="name" v="Blackwood Court"/>
  </way>
  <way id="50538550" version="3" timestamp="2012-01-20T01:55:41Z" uid="147510" user="woodpeck_fixbot" changeset="10442677">
    <nd ref="642987854"/>
    <nd ref="642987858"/>
    <tag k="highway" v="residential"/>
    <tag k="name" v="Blackwood Court"/>
  </way>
  <way id="50538554" version="4" timestamp="2010-07-08T17:48:52Z" uid="74617" user="JohnSmith" changeset="5167338">
    <nd ref="644631594"/>
    <nd ref="642987858"/>
    <nd ref="642987861"/>
    <nd ref="644631660"/>
    <tag k="highway" v="residential"/>
    <tag k="maxspeed" v="50"/>
    <tag k="maxspeed:source" v="default residential speed limit in Australia"/>
    <tag k="name" v="Holland Street"/>
  </way>
  <way id="50538554" version="5" timestamp="2011-02-02T09:47:45Z" uid="4467" user="Rosscoe" changeset="7162887">
    <nd ref="1132182061"/>
    <nd ref="642987858"/>
    <nd ref="644631660"/>
    <tag k="highway" v="residential"/>
    <tag k="maxspeed" v="50"/>
    <tag k="maxspeed:source" v="default residential speed limit in Australia"/>
    <tag k="name" v="Holland Street"/>
  </way>
  <way id="50538554" version="6" timestamp="2012-01-20T01:55:43Z" uid="147510" user="woodpeck_fixbot" changeset="10442677">
    <nd ref="1132182061"/>
    <nd ref="642987858"/>
    <nd ref="644631660"/>
    <tag k="highway" v="residential"/>
    <tag k="name" v="Holland Street"/>
  </way>
  <way id="50538633" version="2" timestamp="2010-11-12T20:42:47Z" uid="7617" user="Franc" changeset="6354066">
    <nd ref="642988516"/>
    <nd ref="260461918"/>
    <nd ref="986982589"/>
    <nd ref="28802134"/>
    <tag k="foot" v="yes"/>
    <tag k="highway" v="footway"/>
    <tag k="source" v="survey"/>
  </way>
  <way id="50538724" version="2" timestamp="2010-07-07T22:11:28Z" uid="74617" user="JohnSmith" changeset="5161069">
    <nd ref="29603606"/>
    <nd ref="632245169"/>
    <nd ref="29976353"/>
    <nd ref="582304524"/>
    <nd ref="29604098"/>
    <tag k="highway" v="residential"/>
    <tag k="maxspeed" v="50"/>
    <tag k="maxspeed:source" v="default residential speed limit in Australia"/>
    <tag k="name" v="Philpott Street"/>
  </way>
  <way id="50538724" version="3" timestamp="2012-01-20T01:55:44Z" uid="147510" user="woodpeck_fixbot" changeset="10442677">
    <nd ref="29603606"/>
    <nd ref="632245169"/>
    <nd ref="29976353"/>
    <nd ref="582304524"/>
    <nd ref="29604098"/>
    <tag k="highway" v="residential"/>
    <tag k="name" v="Philpott Street"/>
  </way>
  <way id="50538724" version="4" timestamp="2012-02-28T02:51:09Z" uid="7523" user="inas" changeset="10815385">
    <nd ref="29603606"/>
    <nd ref="29976353"/>
    <nd ref="582304524"/>
    <nd ref="29604098"/>
    <tag k="highway" v="residential"/>
    <tag k="name" v="Philpott Street"/>
  </way>
  <way id="50538725" version="2" timestamp="2010-07-08T03:10:02Z" uid="74617" user="JohnSmith" changeset="5163091">
    <nd ref="29603606"/>
    <nd ref="29603607"/>
    <tag k="highway" v="residential"/>
    <tag k="maxspeed" v="50"/>
    <tag k="maxspeed:source" v="default residential speed limit in Australia"/>
    <tag k="name" v="Cowper Street"/>
  </way>
  <way id="50538725" version="3" timestamp="2012-01-20T01:55:47Z" uid="147510" user="woodpeck_fixbot" changeset="10442677">
    <nd ref="29603606"/>
    <nd ref="29603607"/>
    <tag k="highway" v="residential"/>
    <tag k="name" v="Cowper Street"/>
  </way>
</osm>
