<?xml version='1.0' encoding='UTF-8'?>
<osm version="0.6" generator="libosmium/2.20.0">
  <way id="50592297" version="2" timestamp="2010-08-27T16:47:03Z" uid="16922" user="amai" changeset="5609342">
    <nd ref="643912823"/>
    <nd ref="643912825"/>
    <nd ref="643912826"/>
    <tag k="highway" v="residential"/>
    <tag k="source" v="Yahoo hires"/>
  </way>
  <way id="50592309" version="2" timestamp="2010-08-27T16:46:58Z" uid="16922" user="amai" changeset="5609342">
    <nd ref="643913087"/>
    <nd ref="643913090"/>
    <tag k="highway" v="residential"/>
    <tag k="source" v="Yahoo hires"/>
  </way>
  <way id="50592413" version="5" timestamp="2010-09-06T19:19:22Z" uid="16922" user="amai" changeset="5701510">
    <nd ref="643917678"/>
    <nd ref="643917680"/>
    <nd ref="643917801"/>
    <nd ref="899445293"/>
    <nd ref="899445317"/>
    <nd ref="643916503"/>
    <nd ref="643916513"/>
    <tag k="highway" v="residential"/>
    <tag k="name" v="20nd Street"/>
    <tag k="source" v="Yahoo hires"/>
  </way>
  <way id="50592413" version="6" timestamp="2010-10-20T17:20:27Z" uid="16922" user="amai" changeset="6117732">
    <nd ref="643917678"/>
    <nd ref="958381502"/>
    <nd ref="643917680"/>
    <nd ref="643917801"/>
    <nd ref="899445293"/>
    <nd ref="899445317"/>
    <nd ref="643916503"/>
    <nd ref="643916513"/>
    <tag k="highway" v="residential"/>
    <tag k="name" v="20nd Street"/>
    <tag k="source" v="Yahoo hires"/>
  </way>
  <way id="50592413" version="7" timestamp="2010-10-25T22:21:54Z" uid="16922" user="amai" changeset="6178078">
    <nd ref="643917678"/>
    <nd ref="958381502"/>
    <nd ref="643917680"/>
    <nd ref="965450946"/>
    <nd ref="643917801"/>
    <nd ref="899445293"/>
    <nd ref="899445317"/>
    <nd ref="643916503"/>
    <nd ref="643916513"/>
    <tag k="highway" v="residential"/>
    <tag k="name" v="20nd Street"/>
    <tag k="source" v="Yahoo hires"/>
  </way>
  <way id="50592506" version="2" timestamp="2010-05-12T17:54:57Z" uid="85955" user="Gerd Höweler" changeset="4679372">
    <nd ref="643919472"/>
    <nd ref="205456281"/>
    <tag k="highway" v="footway"/>
  </way>
  <way id="50592593" version="2" timestamp="2010-04-03T21:10:08Z" uid="20587" user="balrog-kun" changeset="4315899">
    <nd ref="643921985"/>
    <nd ref="643921987"/>
    <tag k="bridge" v="yes"/>
    <tag k="highway" v="residential"/>
    <tag k="layer" v="1"/>
    <tag k="name" v="Fly Creek Road"/>
    <tag k="tiger:cfcc" v="A41"/>
    <tag k="tiger:county" v="Yellowstone, MT"/>
    <tag k="tiger:name_base" v="Fly Creek"/>
    <tag k="tiger:name_type" v="Rd"/>
    <tag k="tiger:reviewed" v="no"/>
    <tag k="tiger:separated" v="no"/>
    <tag k="tiger:source" v="tiger_import_dch_v0.6_20070813"/>
    <tag k="tiger:tlid" v="181492164:181472577"/>
    <tag k="tiger:zip_left" v="59064"/>
    <tag k="tiger:zip_right" v="59064"/>
  </way>
  <way id="50592593" version="3" timestamp="2010-10-03T16:07:27Z" uid="28237" user="lyx" changeset="5945470">
    <nd ref="643921985"/>
    <nd ref="643921987"/>
    <tag k="bridge" v="yes"/>
    <tag k="highway" v="residential"/>
    <tag k="layer" v="1"/>
    <tag k="source" v="yahoo"/>
    <tag k="tiger:cfcc" v="A41"/>
    <tag k="tiger:county" v="Yellowstone, MT"/>
    <tag k="tiger:name_base" v="Fly Creek"/>
    <tag k="tiger:name_type" v="Rd"/>
    <tag k="tiger:separated" v="no"/>
    <tag k="tiger:source" v="tiger_import_dch_v0.6_20070813"/>
    <tag k="tiger:tlid" v="181492164:181472577"/>
    <tag k="tiger:zip_left" v="59064"/>
    <tag k="tiger:zip_right" v="59064"/>
  </way>
  <way id="50592593" version="4" timestamp="2010-12-20T05:51:12Z" uid="28237" user="lyx" changeset="6712897">
    <nd ref="643921985"/>
    <nd ref="643921987"/>
    <tag k="bridge" v="yes"/>
    <tag k="highway" v="unclassified"/>
    <tag k="layer" v="1"/>
    <tag k="source" v="yahoo"/>
    <tag k="tiger:cfcc" v="A41"/>
    <tag k="tiger:county" v="Yellowstone, MT"/>
    <tag k="tiger:name_base" v="Fly Creek"/>
    <tag k="tiger:name_type" v="Rd"/>
    <tag k="tiger:separated" v="no"/>
    <tag k="tiger:source" v="tiger_import_dch_v0.6_20070813"/>
    <tag k="tiger:tlid" v="181492164:181472577"/>
    <tag k="tiger:zip_left" v="59064"/>
    <tag k="tiger:zip_right" v="59064"/>
  </way>
  <way id="50592595" version="2" timestamp="2010-04-03T21:10:08Z" uid="20587" user="balrog-kun" changeset="4315899">
    <nd ref="643921987"/>
    <nd ref="46649364"/>
    <nd ref="643922001"/>
    <nd ref="643922003"/>
    <nd ref="46764047"/>
    <nd ref="46738090"/>
    <nd ref="643922012"/>
    <nd ref="46764053"/>
    <nd ref="46764058"/>
    <nd ref="46764061"/>
    <nd ref="46764065"/>
    <nd ref="46764068"/>
    <nd ref="46764072"/>
    <nd ref="643922038"/>
    <nd ref="46764077"/>
    <nd ref="46764082"/>
    <nd ref="46683572"/>
    <tag k="highway" v="residential"/>
    <tag k="name" v="Fly Creek Road"/>
    <tag k="tiger:cfcc" v="A41"/>
    <tag k="tiger:county" v="Yellowstone, MT"/>
    <tag k="tiger:name_base" v="Fly Creek"/>
    <tag k="tiger:name_type" v="Rd"/>
    <tag k="tiger:reviewed" v="no"/>
    <tag k="tiger:separated" v="no"/>
    <tag k="tiger:source" v="tiger_import_dch_v0.6_20070813"/>
    <tag k="tiger:tlid" v="181492164:181472577"/>
    <tag k="tiger:zip_left" v="59064"/>
    <tag k="tiger:zip_right" v="59064"/>
  </way>
  <way id="50592595" version="3" timestamp="2010-10-03T16:06:54Z" uid="28237" user="lyx" changeset="5945470">
    <nd ref="643921987"/>
    <nd ref="46649364"/>
    <nd ref="643922001"/>
    <nd ref="643922003"/>
    <nd ref="46764047"/>
    <nd ref="46738090"/>
    <nd ref="643922012"/>
    <nd ref="46764053"/>
    <nd ref="46764058"/>
    <nd ref="46764061"/>
    <nd ref="46764065"/>
    <nd ref="46764068"/>
    <nd ref="46764072"/>
    <nd ref="643922038"/>
    <nd ref="46764077"/>
    <nd ref="46764082"/>
    <nd ref="936796088"/>
    <nd ref="936795952"/>
    <nd ref="46683572"/>
    <tag k="highway" v="unclassified"/>
    <tag k="name" v="Fly Creek Road"/>
    <tag k="source" v="yahoo"/>
    <tag k="tiger:cfcc" v="A41"/>
    <tag k="tiger:county" v="Yellowstone, MT"/>
    <tag k="tiger:name_base" v="Fly Creek"/>
    <tag k="tiger:name_type" v="Rd"/>
    <tag k="tiger:separated" v="no"/>
    <tag k="tiger:source" v="tiger_import_dch_v0.6_20070813"/>
    <tag k="tiger:tlid" v="181492164:181472577"/>
    <tag k="tiger:zip_left" v="59064"/>
    <tag k="tiger:zip_right" v="59064"/>
  </way>
  <way id="50592801" version="5" timestamp="2010-09-17T14:37:05Z" uid="16922" user="amai" changeset="5804285">
    <nd ref="257177678"/>
    <nd ref="675458570"/>
    <nd ref="491865655"/>
    <nd ref="491866075"/>
    <nd ref="491865648"/>
    <nd ref="491865531"/>
    <nd ref="491865888"/>
    <nd ref="491866349"/>
    <nd ref="750682969"/>
    <nd ref="750683116"/>
    <nd ref="491865607"/>
    <nd ref="491865976"/>
    <nd ref="915604776"/>
    <nd ref="491865525"/>
    <nd ref="915604804"/>
    <nd ref="498055759"/>
    <nd ref="491866069"/>
    <nd ref="491865708"/>
    <nd ref="485688024"/>
    <nd ref="498056433"/>
    <nd ref="750683010"/>
    <nd ref="750683058"/>
    <nd ref="491866284"/>
    <nd ref="491865452"/>
    <nd ref="750682983"/>
    <nd ref="491866136"/>
    <nd ref="257358753"/>
    <nd ref="491866414"/>
    <nd ref="491865792"/>
    <nd ref="621774240"/>
    <nd ref="257072646"/>
    <nd ref="491865786"/>
    <tag k="highway" v="trunk"/>
    <tag k="int_ref" v="AH12"/>
    <tag k="lanes" v="2"/>
    <tag k="name" v="ถนนมิตรภาพ"/>
    <tag k="name:en" v="Mittraphap Road"/>
    <tag k="name:th" v="ถนนมิตรภาพ"/>
    <tag k="ref" v="2"/>
    <tag k="source" v="GPS; sign"/>
  </way>
  <way id="50592801" version="6" timestamp="2010-09-17T14:49:09Z" uid="16922" user="amai" changeset="5804285">
    <nd ref="257177678"/>
    <nd ref="675458570"/>
    <nd ref="491865655"/>
    <nd ref="491866075"/>
    <nd ref="491865648"/>
    <nd ref="491865531"/>
    <nd ref="915609895"/>
    <nd ref="915609896"/>
    <nd ref="491865888"/>
    <nd ref="491866349"/>
    <nd ref="750682969"/>
    <nd ref="750683116"/>
    <nd ref="491865607"/>
    <nd ref="491865976"/>
    <nd ref="915604776"/>
    <nd ref="491865525"/>
    <nd ref="915604804"/>
    <nd ref="498055759"/>
    <nd ref="491866069"/>
    <nd ref="491865708"/>
    <nd ref="485688024"/>
    <nd ref="498056433"/>
    <nd ref="750683010"/>
    <nd ref="750683058"/>
    <nd ref="491866284"/>
    <nd ref="491865452"/>
    <nd ref="750682983"/>
    <nd ref="491866136"/>
    <nd ref="257358753"/>
    <nd ref="491866414"/>
    <nd ref="491865792"/>
    <nd ref="621774240"/>
    <nd ref="257072646"/>
    <nd ref="491865786"/>
    <tag k="highway" v="trunk"/>
    <tag k="int_ref" v="AH12"/>
    <tag k="lanes" v="2"/>
    <tag k="name" v="ถนนมิตรภาพ"/>
    <tag k="name:en" v="Mittraphap Road"/>
    <tag k="name:th" v="ถนนมิตรภาพ"/>
    <tag k="ref" v="2"/>
    <tag k="source" v="GPS; sign"/>
  </way>
  <way id="50592801" version="7" timestamp="2010-11-14T10:15:50Z" uid="104414" user="Willi2006" changeset="6365086">
    <nd ref="257177678"/>
    <nd ref="675458570"/>
    <nd ref="491865655"/>
    <nd ref="491866075"/>
    <nd ref="491865648"/>
    <nd ref="491865531"/>
    <nd ref="915609895"/>
    <nd ref="915609896"/>
    <nd ref="491865888"/>
    <nd ref="491866349"/>
    <nd ref="750682969"/>
    <nd ref="750683116"/>
    <nd ref="491865607"/>
    <nd ref="491865976"/>
    <nd ref="915604776"/>
    <nd ref="491865525"/>
    <nd ref="915604804"/>
    <nd ref="498055759"/>
    <nd ref="491866069"/>
    <nd ref="491865708"/>
    <nd ref="485688024"/>
    <nd ref="498056433"/>
    <nd ref="750683010"/>
    <nd ref="750683058"/>
    <nd ref="491866284"/>
    <nd ref="491865452"/>
    <nd ref="750682983"/>
    <nd ref="491866136"/>
    <nd ref="257358753"/>
    <nd ref="491866414"/>
    <nd ref="491865792"/>
    <nd ref="621774240"/>
    <nd ref="257072646"/>
    <nd ref="491865786"/>
    <tag k="highway" v="trunk"/>
    <tag k="int_ref" v="AH12"/>
    <tag k="lanes" v="2"/>
    <tag k="name" v="ถนนมิตรภาพ"/>
    <tag k="name:en" v="Mittraphap Road"/>
    <tag k="name:th" v="ถนนมิตรภาพ"/>
    <tag k="ref" v="2"/>
    <tag k="source" v="GPS; sign"/>
  </way>
  <way id="50592801" version="8" timestamp="2010-11-15T04:30:26Z" uid="104414" user="Willi2006" changeset="6374839">
    <nd ref="257177678"/>
    <nd ref="675458570"/>
    <nd ref="491865655"/>
    <nd ref="491866075"/>
    <nd ref="491865648"/>
    <nd ref="491865531"/>
    <nd ref="915609895"/>
    <nd ref="915609896"/>
    <nd ref="491865888"/>
    <nd ref="491866349"/>
    <nd ref="750682969"/>
    <nd ref="750683116"/>
    <nd ref="491865607"/>
    <nd ref="491865976"/>
    <nd ref="915604776"/>
    <nd ref="491865525"/>
    <nd ref="915604804"/>
    <nd ref="498055759"/>
    <nd ref="491866069"/>
    <nd ref="491865708"/>
    <nd ref="485688024"/>
    <nd ref="498056433"/>
    <nd ref="750683010"/>
    <nd ref="750683058"/>
    <nd ref="491866284"/>
    <nd ref="491865452"/>
    <nd ref="750682983"/>
    <nd ref="491866136"/>
    <nd ref="257358753"/>
    <nd ref="491866414"/>
    <nd ref="491865792"/>
    <nd ref="621774240"/>
    <nd ref="257072646"/>
    <tag k="highway" v="trunk"/>
    <tag k="int_ref" v="AH12"/>
    <tag k="lanes" v="2"/>
    <tag k="name" v="ถนนมิตรภาพ"/>
    <tag k="name:en" v="Mittraphap Road"/>
    <tag k="name:th" v="ถนนมิตรภาพ"/>
    <tag k="ref" v="2"/>
    <tag k="source" v="GPS; sign"/>
  </way>
  <way id="50592801" version="9" timestamp="2011-08-10T11:11:56Z" uid="104414" user="Willi2006" changeset="8975393">
    <nd ref="1393617903"/>
    <nd ref="675458570"/>
    <nd ref="1393617898"/>
    <nd ref="491865655"/>
    <nd ref="491866075"/>
    <nd ref="491865648"/>
    <nd ref="491865531"/>
    <nd ref="1393617919"/>
    <nd ref="1393617920"/>
    <nd ref="491865888"/>
    <nd ref="491866349"/>
    <nd ref="750682969"/>
    <nd ref="750683116"/>
    <nd ref="491865607"/>
    <nd ref="1393618084"/>
    <nd ref="1393618267"/>
    <nd ref="498055759"/>
    <nd ref="491866069"/>
    <nd ref="491865708"/>
    <nd ref="1393618800"/>
    <nd ref="485688024"/>
    <nd ref="498056433"/>
    <nd ref="750683010"/>
    <nd ref="750683058"/>
    <nd ref="491866284"/>
    <nd ref="491865452"/>
    <nd ref="750682983"/>
    <nd ref="491866136"/>
    <nd ref="257358753"/>
    <nd ref="491866414"/>
    <nd ref="491865792"/>
    <nd ref="621774240"/>
    <nd ref="257072646"/>
    <tag k="highway" v="trunk"/>
    <tag k="int_ref" v="AH12"/>
    <tag k="lanes" v="2"/>
    <tag k="name" v="ถนนมิตรภาพ"/>
    <tag k="name:en" v="Mittraphap Road"/>
    <tag k="name:th" v="ถนนมิตรภาพ"/>
    <tag k="ref" v="2"/>
    <tag k="source" v="GPS; sign"/>
  </way>
  <way id="50592801" version="10" timestamp="2012-03-19T20:22:12Z" uid="61891" user="stephankn" changeset="11034378"/>
</osm>
