<?xml version='1.0' encoding='UTF-8'?>
<osm version="0.6" generator="libosmium/2.20.0">
  <way id="50904740" version="1" timestamp="2010-02-21T16:20:31Z" uid="171838" user="argrath" changeset="3935280">
    <nd ref="638464620"/>
    <nd ref="649113245"/>
    <nd ref="649113248"/>
    <nd ref="649113252"/>
    <nd ref="649113256"/>
    <nd ref="649113260"/>
    <nd ref="317112111"/>
    <tag k="highway" v="motorway"/>
    <tag k="name" v="名神高速道路"/>
    <tag k="oneway" v="yes"/>
  </way>
  <way id="50904909" version="2" timestamp="2010-04-09T14:15:06Z" uid="4467" user="Rosscoe" changeset="4373593"/>
  <way id="50904910" version="2" timestamp="2010-04-09T14:15:01Z" uid="4467" user="Rosscoe" changeset="4373593">
    <nd ref="249072469"/>
    <nd ref="649114826"/>
    <nd ref="649114829"/>
    <nd ref="249072061"/>
    <nd ref="649114809"/>
    <tag k="highway" v="primary"/>
    <tag k="maxspeed" v="60"/>
    <tag k="name" v="Torrens Street"/>
    <tag k="oneway" v="yes"/>
    <tag k="ref" v="B37"/>
    <tag k="source" v="survey"/>
  </way>
</osm>
