<?xml version='1.0' encoding='UTF-8'?>
<osm version="0.6" generator="libosmium/2.20.0">
  <way id="50919514" version="5" timestamp="2011-05-11T16:33:33Z" uid="115477" user="wowik" changeset="8113835">
    <nd ref="159300382"/>
    <nd ref="1235246260"/>
    <nd ref="1065871146"/>
    <nd ref="1065871156"/>
    <nd ref="1065871095"/>
    <nd ref="1280396591"/>
    <nd ref="60656076"/>
    <tag k="highway" v="secondary"/>
    <tag k="layer" v="0"/>
    <tag k="name" v="улица Маяковского"/>
    <tag k="oneway" v="yes"/>
  </way>
  <way id="50919514" version="6" timestamp="2011-10-22T20:10:58Z" uid="397326" user="trolleway" changeset="9627519">
    <nd ref="159300382"/>
    <nd ref="1235246260"/>
    <nd ref="1065871146"/>
    <nd ref="1065871156"/>
    <nd ref="1065871095"/>
    <nd ref="1280396591"/>
    <nd ref="60656076"/>
    <tag k="highway" v="secondary"/>
    <tag k="layer" v="0"/>
    <tag k="name" v="улица Маяковского"/>
    <tag k="oneway" v="yes"/>
    <tag k="trolley_wire" v="yes"/>
  </way>
  <way id="50919514" version="7" timestamp="2012-03-30T23:17:59Z" uid="336354" user="esaulenka" changeset="11161078"/>
  <way id="50919559" version="1" timestamp="2010-02-21T18:37:27Z" uid="33382" user="de_muur" changeset="3937071">
    <nd ref="29036393"/>
    <nd ref="29196041"/>
    <nd ref="29196039"/>
    <tag k="highway" v="cycleway"/>
    <tag k="name" v="Hohensteiner Straße"/>
    <tag k="surface" v="paved"/>
  </way>
  <way id="50919559" version="2" timestamp="2010-08-12T21:07:14Z" uid="61005" user="nkbre" changeset="5477052">
    <nd ref="29036393"/>
    <nd ref="29196041"/>
    <nd ref="857583353"/>
    <tag k="highway" v="cycleway"/>
    <tag k="name" v="Hohensteiner Straße"/>
    <tag k="surface" v="paved"/>
  </way>
  <way id="50919559" version="3" timestamp="2011-05-21T19:30:19Z" uid="45445" user="UScha" changeset="8209940">
    <nd ref="29036393"/>
    <nd ref="29196041"/>
    <nd ref="857583353"/>
    <tag k="bicycle" v="yes"/>
    <tag k="foot" v="yes"/>
    <tag k="highway" v="path"/>
    <tag k="name" v="Hohensteiner Straße"/>
    <tag k="surface" v="paved"/>
  </way>
</osm>
