<?xml version='1.0' encoding='UTF-8'?>
<osm version="0.6" generator="libosmium/2.20.0">
  <way id="50977045" version="2" timestamp="2010-04-07T14:26:26Z" uid="20587" user="balrog-kun" changeset="4353646">
    <nd ref="649984143"/>
    <nd ref="649984206"/>
    <tag k="highway" v="residential"/>
    <tag k="name" v="Whipple Drive"/>
  </way>
  <way id="50977047" version="2" timestamp="2010-04-07T14:26:26Z" uid="20587" user="balrog-kun" changeset="4353646">
    <nd ref="649984192"/>
    <nd ref="649984189"/>
    <nd ref="649984191"/>
    <nd ref="649984188"/>
    <nd ref="649984142"/>
    <tag k="highway" v="residential"/>
    <tag k="name" v="Lyman Hall Drive"/>
  </way>
  <way id="50977049" version="2" timestamp="2010-04-07T14:26:26Z" uid="20587" user="balrog-kun" changeset="4353646">
    <nd ref="649984146"/>
    <nd ref="649984157"/>
    <nd ref="355796115"/>
    <tag k="highway" v="residential"/>
    <tag k="name" v="Mina Verde Road"/>
  </way>
  <way id="50977050" version="5" timestamp="2010-04-07T14:26:26Z" uid="20587" user="balrog-kun" changeset="4353646">
    <nd ref="649984151"/>
    <nd ref="649984155"/>
    <nd ref="649984145"/>
    <nd ref="649984156"/>
    <nd ref="649984158"/>
    <nd ref="649984168"/>
    <nd ref="649984165"/>
    <nd ref="649984171"/>
    <nd ref="649984170"/>
    <nd ref="649984174"/>
    <nd ref="649984173"/>
    <nd ref="673054788"/>
    <nd ref="649984179"/>
    <nd ref="673054801"/>
    <nd ref="355796168"/>
    <nd ref="673887054"/>
    <nd ref="355796162"/>
    <nd ref="649984187"/>
    <nd ref="649984194"/>
    <tag k="highway" v="residential"/>
    <tag k="name" v="Dorado Avenue"/>
  </way>
  <way id="50977050" version="6" timestamp="2011-07-18T23:12:20Z" uid="36121" user="Chris Lawrence" changeset="8763955">
    <nd ref="649984151"/>
    <nd ref="649984155"/>
    <nd ref="649984145"/>
    <nd ref="649984156"/>
    <nd ref="649984158"/>
    <nd ref="649984168"/>
    <nd ref="649984165"/>
    <nd ref="649984171"/>
    <nd ref="649984170"/>
    <nd ref="649984174"/>
    <nd ref="649984173"/>
    <nd ref="649984179"/>
    <nd ref="673054801"/>
    <nd ref="355796168"/>
    <nd ref="673887054"/>
    <nd ref="355796162"/>
    <nd ref="649984187"/>
    <nd ref="649984194"/>
    <tag k="highway" v="residential"/>
    <tag k="name" v="Dorado Avenue"/>
  </way>
  <way id="50977051" version="2" timestamp="2010-04-07T14:26:26Z" uid="20587" user="balrog-kun" changeset="4353646">
    <nd ref="649984164"/>
    <nd ref="649984163"/>
    <nd ref="649984162"/>
    <nd ref="649984161"/>
    <nd ref="649984149"/>
    <nd ref="649984150"/>
    <nd ref="649984154"/>
    <nd ref="649984151"/>
    <nd ref="649984152"/>
    <nd ref="649984153"/>
    <nd ref="649984147"/>
    <nd ref="649984160"/>
    <nd ref="649984159"/>
    <nd ref="649984148"/>
    <nd ref="649984169"/>
    <nd ref="649984168"/>
    <tag k="highway" v="residential"/>
    <tag k="name" v="Old Spanish Trail"/>
  </way>
  <way id="50977052" version="2" timestamp="2010-04-07T14:26:27Z" uid="20587" user="balrog-kun" changeset="4353646">
    <nd ref="649984157"/>
    <nd ref="649984156"/>
    <tag k="highway" v="residential"/>
    <tag k="name" v="Taxco Drive"/>
  </way>
  <way id="50977053" version="2" timestamp="2010-04-07T14:26:27Z" uid="20587" user="balrog-kun" changeset="4353646">
    <nd ref="649984182"/>
    <nd ref="649984183"/>
    <nd ref="649984184"/>
    <nd ref="649984185"/>
    <nd ref="649984181"/>
    <nd ref="355796177"/>
    <nd ref="649984198"/>
    <nd ref="355796184"/>
    <tag k="highway" v="residential"/>
    <tag k="name" v="Costa Del Sol Drive"/>
  </way>
  <way id="50977054" version="2" timestamp="2010-04-07T14:26:27Z" uid="20587" user="balrog-kun" changeset="4353646">
    <nd ref="649984180"/>
    <nd ref="649984181"/>
    <tag k="highway" v="residential"/>
    <tag k="name" v="Marbella Court"/>
  </way>
  <way id="50977055" version="2" timestamp="2010-04-07T14:26:27Z" uid="20587" user="balrog-kun" changeset="4353646">
    <nd ref="649984172"/>
    <nd ref="649984175"/>
    <nd ref="649984174"/>
    <tag k="highway" v="residential"/>
    <tag k="name" v="Rio Plata Court"/>
  </way>
  <way id="50977056" version="2" timestamp="2010-04-07T14:26:27Z" uid="20587" user="balrog-kun" changeset="4353646">
    <nd ref="649984176"/>
    <nd ref="649984177"/>
    <nd ref="229444830"/>
    <nd ref="649984186"/>
    <tag k="highway" v="residential"/>
    <tag k="name" v="Mallorca Drive"/>
  </way>
  <way id="50977057" version="2" timestamp="2010-04-07T14:26:27Z" uid="20587" user="balrog-kun" changeset="4353646">
    <nd ref="649984191"/>
    <nd ref="649984205"/>
    <tag k="highway" v="residential"/>
    <tag k="name" v="George Reed Drive"/>
  </way>
  <way id="50977059" version="2" timestamp="2010-04-07T14:26:27Z" uid="20587" user="balrog-kun" changeset="4353646">
    <nd ref="649984196"/>
    <nd ref="649984198"/>
    <tag k="highway" v="residential"/>
    <tag k="name" v="Montserrat Court"/>
  </way>
  <way id="50977059" version="3" timestamp="2010-12-10T05:06:17Z" uid="36121" user="Chris Lawrence" changeset="6601991">
    <nd ref="649984196"/>
    <nd ref="649984196"/>
    <nd ref="649984198"/>
    <tag k="highway" v="residential"/>
    <tag k="name" v="Montserrat Court"/>
  </way>
  <way id="50977059" version="4" timestamp="2010-12-10T20:04:48Z" uid="70696" user="xybot" changeset="6608855">
    <nd ref="649984196"/>
    <nd ref="649984198"/>
    <tag k="highway" v="residential"/>
    <tag k="name" v="Montserrat Court"/>
  </way>
  <way id="50977237" version="4" timestamp="2010-04-07T14:26:28Z" uid="20587" user="balrog-kun" changeset="4353646">
    <nd ref="649985141"/>
    <nd ref="649985142"/>
    <nd ref="649985140"/>
    <nd ref="649985139"/>
    <nd ref="649985138"/>
    <nd ref="649985137"/>
    <nd ref="649985136"/>
    <nd ref="673055524"/>
    <nd ref="649985185"/>
    <nd ref="649985184"/>
    <nd ref="649985183"/>
    <nd ref="649985182"/>
    <nd ref="649985181"/>
    <nd ref="649985199"/>
    <nd ref="649985202"/>
    <tag k="highway" v="residential"/>
    <tag k="name" v="Cuatro Vientos Drive"/>
  </way>
  <way id="50977238" version="4" timestamp="2010-04-07T14:26:28Z" uid="20587" user="balrog-kun" changeset="4353646">
    <nd ref="649985186"/>
    <nd ref="673055524"/>
    <nd ref="649985143"/>
    <nd ref="649985144"/>
    <nd ref="649985145"/>
    <nd ref="649985146"/>
    <nd ref="649985147"/>
    <nd ref="649985148"/>
    <nd ref="649985149"/>
    <nd ref="649985150"/>
    <nd ref="649985151"/>
    <nd ref="649985154"/>
    <nd ref="649985152"/>
    <nd ref="229395900"/>
    <tag k="highway" v="residential"/>
    <tag k="name" v="Chacota Street"/>
  </way>
  <way id="50977239" version="5" timestamp="2010-04-07T14:26:28Z" uid="20587" user="balrog-kun" changeset="4353646">
    <nd ref="649985176"/>
    <nd ref="673055474"/>
    <nd ref="673056117"/>
    <nd ref="649985160"/>
    <nd ref="649985161"/>
    <nd ref="649985162"/>
    <nd ref="649985163"/>
    <nd ref="649985164"/>
    <nd ref="649985165"/>
    <nd ref="649985166"/>
    <nd ref="649985155"/>
    <tag k="highway" v="residential"/>
    <tag k="name" v="Fuente Lane"/>
  </way>
  <way id="50977240" version="2" timestamp="2010-04-07T14:26:28Z" uid="20587" user="balrog-kun" changeset="4353646">
    <nd ref="649985158"/>
    <nd ref="649985159"/>
    <nd ref="649985175"/>
    <tag k="highway" v="residential"/>
    <tag k="name" v="Brumoso Court"/>
  </way>
  <way id="50977241" version="3" timestamp="2010-04-07T14:26:28Z" uid="20587" user="balrog-kun" changeset="4353646">
    <nd ref="649985167"/>
    <nd ref="673056117"/>
    <nd ref="649985159"/>
    <tag k="highway" v="residential"/>
    <tag k="name" v="Anzures Drive"/>
  </way>
  <way id="50977242" version="2" timestamp="2010-04-07T14:26:28Z" uid="20587" user="balrog-kun" changeset="4353646">
    <nd ref="649985177"/>
    <nd ref="649985167"/>
    <nd ref="649985168"/>
    <nd ref="649985169"/>
    <nd ref="649985170"/>
    <nd ref="649985163"/>
    <tag k="highway" v="residential"/>
    <tag k="name" v="Niebla Drive"/>
  </way>
  <way id="50977243" version="4" timestamp="2010-04-07T14:26:28Z" uid="20587" user="balrog-kun" changeset="4353646">
    <nd ref="649985178"/>
    <nd ref="673055701"/>
    <nd ref="649985196"/>
    <tag k="highway" v="residential"/>
    <tag k="name" v="Aguanieve Drive"/>
  </way>
  <way id="50977244" version="4" timestamp="2010-04-07T14:26:29Z" uid="20587" user="balrog-kun" changeset="4353646">
    <nd ref="649985179"/>
    <nd ref="673055695"/>
    <nd ref="649985200"/>
    <nd ref="649985197"/>
    <tag k="highway" v="residential"/>
    <tag k="name" v="Sereno Drive"/>
  </way>
  <way id="50977245" version="5" timestamp="2010-04-07T14:26:29Z" uid="20587" user="balrog-kun" changeset="4353646">
    <nd ref="649985180"/>
    <nd ref="673055690"/>
    <nd ref="673055674"/>
    <nd ref="649985198"/>
    <nd ref="649985201"/>
    <tag k="highway" v="residential"/>
    <tag k="name" v="Nubes Drive"/>
  </way>
  <way id="50977246" version="2" timestamp="2010-04-07T14:26:29Z" uid="20587" user="balrog-kun" changeset="4353646">
    <nd ref="649985191"/>
    <nd ref="649985192"/>
    <tag k="highway" v="residential"/>
    <tag k="name" v="Bexar Court"/>
  </way>
  <way id="50977247" version="3" timestamp="2010-04-07T14:26:29Z" uid="20587" user="balrog-kun" changeset="4353646">
    <nd ref="673055720"/>
    <nd ref="649985195"/>
    <nd ref="649985190"/>
    <tag k="highway" v="residential"/>
    <tag k="name" v="La Salle Drive"/>
  </way>
  <way id="50977249" version="4" timestamp="2010-04-07T14:26:29Z" uid="20587" user="balrog-kun" changeset="4353646">
    <nd ref="649985199"/>
    <nd ref="673055674"/>
    <nd ref="649985200"/>
    <tag k="highway" v="residential"/>
    <tag k="name" v="Lluvia Lane"/>
  </way>
  <way id="50977250" version="4" timestamp="2010-04-07T14:26:30Z" uid="20587" user="balrog-kun" changeset="4353646">
    <nd ref="649985193"/>
    <nd ref="649985201"/>
    <nd ref="649985194"/>
    <nd ref="673055723"/>
    <nd ref="673055720"/>
    <nd ref="649985187"/>
    <tag k="highway" v="residential"/>
    <tag k="name" v="Bandera Drive"/>
  </way>
  <way id="50977275" version="1" timestamp="2010-02-22T02:27:01Z" uid="7617" user="Franc" changeset="3940549">
    <nd ref="649985389"/>
    <nd ref="33616248"/>
    <nd ref="33616251"/>
    <nd ref="33616348"/>
    <nd ref="33616254"/>
    <nd ref="33616258"/>
    <nd ref="20166415"/>
    <tag k="cycleway" v="lane"/>
    <tag k="highway" v="secondary"/>
    <tag k="lcn" v="yes"/>
    <tag k="name" v="Queens Road"/>
  </way>
  <way id="50977275" version="2" timestamp="2010-02-22T03:03:11Z" uid="7617" user="Franc" changeset="3940640">
    <nd ref="649985389"/>
    <nd ref="33616248"/>
    <nd ref="33616251"/>
    <nd ref="33616348"/>
    <nd ref="33616254"/>
    <nd ref="649987145"/>
    <nd ref="33616258"/>
    <nd ref="20166415"/>
    <tag k="cycleway" v="lane"/>
    <tag k="highway" v="secondary"/>
    <tag k="lcn" v="yes"/>
    <tag k="name" v="Queens Road"/>
  </way>
  <way id="50977275" version="3" timestamp="2011-09-19T12:00:09Z" uid="354179" user="molybtek" changeset="9341966">
    <nd ref="649985389"/>
    <nd ref="33616248"/>
    <nd ref="33616251"/>
    <nd ref="33616348"/>
    <nd ref="33616254"/>
    <nd ref="649987145"/>
    <nd ref="33616258"/>
    <nd ref="20166415"/>
    <tag k="cycleway" v="lane"/>
    <tag k="highway" v="secondary"/>
    <tag k="lcn" v="yes"/>
    <tag k="maxspeed" v="60"/>
    <tag k="name" v="Queens Road"/>
  </way>
  <way id="50977276" version="1" timestamp="2010-02-22T02:27:02Z" uid="7617" user="Franc" changeset="3940549">
    <nd ref="649985377"/>
    <nd ref="300215764"/>
    <nd ref="300215763"/>
    <nd ref="300215762"/>
    <nd ref="300215761"/>
    <nd ref="300215758"/>
    <nd ref="300215760"/>
    <nd ref="300215759"/>
    <nd ref="300215772"/>
    <tag k="highway" v="trunk"/>
    <tag k="lanes" v="3"/>
    <tag k="maxspeed" v="60"/>
    <tag k="name" v="Parramatta Road"/>
    <tag k="oneway" v="yes"/>
    <tag k="ref" v="MR4"/>
  </way>
  <way id="50977276" version="2" timestamp="2010-04-01T12:28:48Z" uid="74617" user="JohnSmith" changeset="4293399">
    <nd ref="649985377"/>
    <nd ref="300215764"/>
    <nd ref="300215763"/>
    <nd ref="300215762"/>
    <nd ref="300215761"/>
    <nd ref="300215758"/>
    <nd ref="300215760"/>
    <nd ref="300215759"/>
    <nd ref="300215772"/>
    <tag k="highway" v="trunk"/>
    <tag k="lanes" v="3"/>
    <tag k="maxspeed" v="60"/>
    <tag k="name" v="Parramatta Road"/>
    <tag k="oneway" v="yes"/>
  </way>
  <way id="50977276" version="3" timestamp="2010-06-30T08:03:33Z" uid="299678" user="peteramjet" changeset="5111489">
    <nd ref="649985377"/>
    <nd ref="300215764"/>
    <nd ref="300215763"/>
    <nd ref="300215762"/>
    <nd ref="300215761"/>
    <nd ref="300215758"/>
    <nd ref="300215760"/>
    <nd ref="300215759"/>
    <nd ref="300215772"/>
    <tag k="highway" v="trunk"/>
    <tag k="lanes" v="3"/>
    <tag k="maxspeed" v="60"/>
    <tag k="name" v="Parramatta Road"/>
    <tag k="oneway" v="yes"/>
    <tag k="ref" v="MR4"/>
  </way>
  <way id="50977276" version="4" timestamp="2010-07-09T22:59:46Z" uid="299678" user="peteramjet" changeset="5177814">
    <nd ref="649985377"/>
    <nd ref="300215764"/>
    <nd ref="300215763"/>
    <nd ref="300215762"/>
    <nd ref="300215761"/>
    <nd ref="300215758"/>
    <nd ref="300215760"/>
    <nd ref="300215759"/>
    <nd ref="300215772"/>
    <tag k="highway" v="trunk"/>
    <tag k="lanes" v="3"/>
    <tag k="maxspeed" v="60"/>
    <tag k="name" v="Parramatta Road"/>
    <tag k="oneway" v="yes"/>
  </way>
  <way id="50977276" version="5" timestamp="2010-10-12T09:22:46Z" uid="20949" user="Ebenezer" changeset="6019008">
    <nd ref="649985377"/>
    <nd ref="300215764"/>
    <tag k="highway" v="trunk"/>
    <tag k="lanes" v="3"/>
    <tag k="maxspeed" v="60"/>
    <tag k="name" v="Parramatta Road"/>
    <tag k="oneway" v="yes"/>
  </way>
  <way id="50977277" version="1" timestamp="2010-02-22T02:27:02Z" uid="7617" user="Franc" changeset="3940549">
    <nd ref="649985376"/>
    <nd ref="37811214"/>
    <nd ref="33616242"/>
    <nd ref="20146892"/>
    <tag k="highway" v="trunk"/>
    <tag k="lanes" v="3"/>
    <tag k="maxspeed" v="60"/>
    <tag k="name" v="Parramatta Road"/>
    <tag k="oneway" v="yes"/>
    <tag k="ref" v="MR4"/>
    <tag k="restriction" v="school_zone"/>
  </way>
  <way id="50977277" version="2" timestamp="2010-04-01T12:28:48Z" uid="74617" user="JohnSmith" changeset="4293399">
    <nd ref="649985376"/>
    <nd ref="37811214"/>
    <nd ref="33616242"/>
    <nd ref="20146892"/>
    <tag k="highway" v="trunk"/>
    <tag k="lanes" v="3"/>
    <tag k="maxspeed" v="60"/>
    <tag k="name" v="Parramatta Road"/>
    <tag k="oneway" v="yes"/>
    <tag k="restriction" v="school_zone"/>
  </way>
  <way id="50977277" version="3" timestamp="2010-06-30T08:03:36Z" uid="299678" user="peteramjet" changeset="5111489">
    <nd ref="649985376"/>
    <nd ref="37811214"/>
    <nd ref="33616242"/>
    <nd ref="20146892"/>
    <tag k="highway" v="trunk"/>
    <tag k="lanes" v="3"/>
    <tag k="maxspeed" v="60"/>
    <tag k="name" v="Parramatta Road"/>
    <tag k="oneway" v="yes"/>
    <tag k="ref" v="MR4"/>
    <tag k="restriction" v="school_zone"/>
  </way>
  <way id="50977277" version="4" timestamp="2010-07-09T22:59:51Z" uid="299678" user="peteramjet" changeset="5177814">
    <nd ref="649985376"/>
    <nd ref="37811214"/>
    <nd ref="33616242"/>
    <nd ref="20146892"/>
    <tag k="highway" v="trunk"/>
    <tag k="lanes" v="3"/>
    <tag k="maxspeed" v="60"/>
    <tag k="name" v="Parramatta Road"/>
    <tag k="oneway" v="yes"/>
    <tag k="restriction" v="school_zone"/>
  </way>
  <way id="50977277" version="5" timestamp="2011-06-19T12:27:39Z" uid="7617" user="Franc" changeset="8483425">
    <nd ref="649985376"/>
    <nd ref="37811214"/>
    <nd ref="33616242"/>
    <tag k="highway" v="trunk"/>
    <tag k="lanes" v="3"/>
    <tag k="maxspeed" v="60"/>
    <tag k="name" v="Parramatta Road"/>
    <tag k="oneway" v="yes"/>
    <tag k="restriction" v="school_zone"/>
  </way>
  <way id="50977277" version="6" timestamp="2012-01-31T05:36:56Z" uid="54784" user="Tom Hollander" changeset="10546288">
    <nd ref="649985376"/>
    <nd ref="37811214"/>
    <nd ref="33616242"/>
    <tag k="highway" v="trunk"/>
    <tag k="lanes" v="3"/>
    <tag k="maxspeed" v="60"/>
    <tag k="name" v="Parramatta Road"/>
    <tag k="oneway" v="yes"/>
    <tag k="ref" v="MR4"/>
    <tag k="restriction" v="school_zone"/>
  </way>
  <way id="50977278" version="1" timestamp="2010-02-22T02:27:03Z" uid="7617" user="Franc" changeset="3940549">
    <nd ref="300215755"/>
    <nd ref="300215756"/>
    <nd ref="300215765"/>
    <nd ref="649985377"/>
    <tag k="highway" v="trunk"/>
    <tag k="lanes" v="3"/>
    <tag k="maxspeed" v="60"/>
    <tag k="name" v="Parramatta Road"/>
    <tag k="oneway" v="yes"/>
    <tag k="ref" v="MR4"/>
    <tag k="restriction" v="school_zone"/>
  </way>
  <way id="50977278" version="2" timestamp="2010-04-01T12:28:48Z" uid="74617" user="JohnSmith" changeset="4293399">
    <nd ref="300215755"/>
    <nd ref="300215756"/>
    <nd ref="300215765"/>
    <nd ref="649985377"/>
    <tag k="highway" v="trunk"/>
    <tag k="lanes" v="3"/>
    <tag k="maxspeed" v="60"/>
    <tag k="name" v="Parramatta Road"/>
    <tag k="oneway" v="yes"/>
    <tag k="restriction" v="school_zone"/>
  </way>
  <way id="50977278" version="3" timestamp="2010-06-30T08:03:36Z" uid="299678" user="peteramjet" changeset="5111489">
    <nd ref="300215755"/>
    <nd ref="300215756"/>
    <nd ref="300215765"/>
    <nd ref="649985377"/>
    <tag k="highway" v="trunk"/>
    <tag k="lanes" v="3"/>
    <tag k="maxspeed" v="60"/>
    <tag k="name" v="Parramatta Road"/>
    <tag k="oneway" v="yes"/>
    <tag k="ref" v="MR4"/>
    <tag k="restriction" v="school_zone"/>
  </way>
  <way id="50977278" version="4" timestamp="2010-07-09T22:59:44Z" uid="299678" user="peteramjet" changeset="5177814">
    <nd ref="300215755"/>
    <nd ref="300215756"/>
    <nd ref="300215765"/>
    <nd ref="649985377"/>
    <tag k="highway" v="trunk"/>
    <tag k="lanes" v="3"/>
    <tag k="maxspeed" v="60"/>
    <tag k="name" v="Parramatta Road"/>
    <tag k="oneway" v="yes"/>
    <tag k="restriction" v="school_zone"/>
  </way>
  <way id="50977278" version="5" timestamp="2011-06-19T12:27:27Z" uid="7617" user="Franc" changeset="8483425">
    <nd ref="300215755"/>
    <nd ref="300215756"/>
    <tag k="highway" v="trunk"/>
    <tag k="lanes" v="3"/>
    <tag k="maxspeed" v="60"/>
    <tag k="name" v="Parramatta Road"/>
    <tag k="oneway" v="yes"/>
    <tag k="restriction" v="school_zone"/>
  </way>
  <way id="50977278" version="6" timestamp="2012-01-31T05:36:56Z" uid="54784" user="Tom Hollander" changeset="10546288">
    <nd ref="300215755"/>
    <nd ref="300215756"/>
    <tag k="highway" v="trunk"/>
    <tag k="lanes" v="3"/>
    <tag k="maxspeed" v="60"/>
    <tag k="name" v="Parramatta Road"/>
    <tag k="oneway" v="yes"/>
    <tag k="ref" v="MR4"/>
    <tag k="restriction" v="school_zone"/>
  </way>
  <way id="50977279" version="1" timestamp="2010-02-22T02:27:03Z" uid="7617" user="Franc" changeset="3940549">
    <nd ref="649985378"/>
    <nd ref="300215765"/>
    <tag k="highway" v="residential"/>
    <tag k="name" v="Byron Street"/>
    <tag k="restriction" v="school_zone"/>
  </way>
  <way id="50977279" version="2" timestamp="2010-07-08T02:39:51Z" uid="74617" user="JohnSmith" changeset="5163091">
    <nd ref="649985378"/>
    <nd ref="300215765"/>
    <tag k="highway" v="residential"/>
    <tag k="maxspeed" v="50"/>
    <tag k="maxspeed:source" v="default residential speed limit in Australia"/>
    <tag k="name" v="Byron Street"/>
    <tag k="restriction" v="school_zone"/>
  </way>
  <way id="50977279" version="3" timestamp="2012-01-20T02:24:48Z" uid="147510" user="woodpeck_fixbot" changeset="10442677">
    <nd ref="649985378"/>
    <nd ref="300215765"/>
    <tag k="highway" v="residential"/>
    <tag k="name" v="Byron Street"/>
    <tag k="restriction" v="school_zone"/>
  </way>
  <way id="50977280" version="1" timestamp="2010-02-22T02:27:03Z" uid="7617" user="Franc" changeset="3940549">
    <nd ref="20146892"/>
    <nd ref="37809988"/>
    <nd ref="20146884"/>
    <nd ref="33616247"/>
    <nd ref="33616250"/>
    <nd ref="33616253"/>
    <nd ref="33616256"/>
    <tag k="highway" v="trunk"/>
    <tag k="lanes" v="3"/>
    <tag k="maxspeed" v="60"/>
    <tag k="name" v="Parramatta Road"/>
    <tag k="oneway" v="yes"/>
    <tag k="ref" v="MR4"/>
  </way>
  <way id="50977280" version="2" timestamp="2010-04-01T12:28:48Z" uid="74617" user="JohnSmith" changeset="4293399">
    <nd ref="20146892"/>
    <nd ref="37809988"/>
    <nd ref="20146884"/>
    <nd ref="33616247"/>
    <nd ref="33616250"/>
    <nd ref="33616253"/>
    <nd ref="33616256"/>
    <tag k="highway" v="trunk"/>
    <tag k="lanes" v="3"/>
    <tag k="maxspeed" v="60"/>
    <tag k="name" v="Parramatta Road"/>
    <tag k="oneway" v="yes"/>
  </way>
  <way id="50977280" version="3" timestamp="2012-01-31T05:36:57Z" uid="54784" user="Tom Hollander" changeset="10546288">
    <nd ref="20146892"/>
    <nd ref="37809988"/>
    <nd ref="20146884"/>
    <nd ref="33616247"/>
    <nd ref="33616250"/>
    <nd ref="33616253"/>
    <nd ref="33616256"/>
    <tag k="highway" v="trunk"/>
    <tag k="lanes" v="3"/>
    <tag k="maxspeed" v="60"/>
    <tag k="name" v="Parramatta Road"/>
    <tag k="oneway" v="yes"/>
    <tag k="ref" v="MR4"/>
  </way>
  <way id="50977281" version="1" timestamp="2010-02-22T02:27:03Z" uid="7617" user="Franc" changeset="3940549">
    <nd ref="649985382"/>
    <nd ref="33616243"/>
    <nd ref="649985389"/>
    <tag k="cycleway" v="lane"/>
    <tag k="highway" v="secondary"/>
    <tag k="lcn" v="yes"/>
    <tag k="name" v="Queens Road"/>
    <tag k="restriction" v="school_zone"/>
  </way>
  <way id="50977281" version="2" timestamp="2011-09-19T12:00:10Z" uid="354179" user="molybtek" changeset="9341966">
    <nd ref="649985382"/>
    <nd ref="33616243"/>
    <nd ref="649985389"/>
    <tag k="cycleway" v="lane"/>
    <tag k="highway" v="secondary"/>
    <tag k="lcn" v="yes"/>
    <tag k="maxspeed" v="60"/>
    <tag k="name" v="Queens Road"/>
    <tag k="restriction" v="school_zone"/>
  </way>
  <way id="50977282" version="1" timestamp="2010-02-22T02:27:03Z" uid="7617" user="Franc" changeset="3940549">
    <nd ref="649985384"/>
    <nd ref="33616306"/>
    <nd ref="33616355"/>
    <nd ref="606251530"/>
    <tag k="highway" v="tertiary"/>
    <tag k="name" v="Harris Street"/>
  </way>
  <way id="50977283" version="1" timestamp="2010-02-22T02:27:03Z" uid="7617" user="Franc" changeset="3940549">
    <nd ref="649985400"/>
    <nd ref="649985402"/>
    <nd ref="256665411"/>
    <nd ref="649985406"/>
    <nd ref="256665412"/>
    <nd ref="256665400"/>
    <tag k="foot" v="yes"/>
    <tag k="highway" v="footway"/>
  </way>
  <way id="50977284" version="1" timestamp="2010-02-22T02:27:04Z" uid="7617" user="Franc" changeset="3940549">
    <nd ref="649985456"/>
    <nd ref="34343209"/>
    <nd ref="33616679"/>
    <nd ref="36717539"/>
    <tag k="cycleway" v="lane"/>
    <tag k="highway" v="secondary"/>
    <tag k="lcn" v="yes"/>
    <tag k="name" v="Great North Road"/>
  </way>
  <way id="50977284" version="2" timestamp="2012-03-01T05:46:34Z" uid="7523" user="inas" changeset="10834563">
    <nd ref="649985456"/>
    <nd ref="34343209"/>
    <nd ref="1653961325"/>
    <nd ref="36717539"/>
    <tag k="cycleway" v="lane"/>
    <tag k="highway" v="secondary"/>
    <tag k="lcn" v="yes"/>
    <tag k="name" v="Great North Road"/>
  </way>
  <way id="50977284" version="3" timestamp="2012-03-01T22:32:46Z" uid="7523" user="inas" changeset="10843063">
    <nd ref="649985456"/>
    <nd ref="34343209"/>
    <nd ref="1653961325"/>
    <nd ref="1655213631"/>
    <tag k="cycleway" v="lane"/>
    <tag k="highway" v="secondary"/>
    <tag k="lcn" v="yes"/>
    <tag k="name" v="Great North Road"/>
  </way>
  <way id="50977285" version="1" timestamp="2010-02-22T02:27:04Z" uid="7617" user="Franc" changeset="3940549">
    <nd ref="649985450"/>
    <nd ref="649985451"/>
    <nd ref="649985452"/>
    <nd ref="649985453"/>
    <tag k="highway" v="service"/>
    <tag k="source" v="nearmap"/>
  </way>
  <way id="50977285" version="2" timestamp="2010-12-19T09:14:33Z" uid="7617" user="Franc" changeset="6703469">
    <nd ref="649985450"/>
    <nd ref="649985451"/>
    <nd ref="649985452"/>
    <nd ref="649985453"/>
    <tag k="fixme:sign:no" v="2010-12-18"/>
    <tag k="highway" v="service"/>
    <tag k="source" v="nearmap"/>
  </way>
  <way id="50977285" version="3" timestamp="2012-03-02T04:15:00Z" uid="7523" user="inas" changeset="10844266">
    <nd ref="649985450"/>
    <nd ref="649985451"/>
    <nd ref="1655485191"/>
    <tag k="fixme:sign:no" v="2010-12-18"/>
    <tag k="highway" v="service"/>
    <tag k="source" v="nearmap"/>
  </way>
  <way id="50977286" version="1" timestamp="2010-02-22T02:27:04Z" uid="7617" user="Franc" changeset="3940549">
    <nd ref="649985458"/>
    <nd ref="33616685"/>
    <nd ref="33616680"/>
    <nd ref="649985457"/>
    <nd ref="26704466"/>
    <nd ref="649985456"/>
    <tag k="cycleway" v="lane"/>
    <tag k="highway" v="secondary"/>
    <tag k="lcn" v="yes"/>
    <tag k="name" v="Great North Road"/>
    <tag k="restriction" v="school_zone"/>
  </way>
  <way id="50977286" version="2" timestamp="2012-03-01T05:46:34Z" uid="7523" user="inas" changeset="10834563">
    <nd ref="649985458"/>
    <nd ref="33616685"/>
    <nd ref="649985457"/>
    <nd ref="1653961315"/>
    <nd ref="649985456"/>
    <tag k="cycleway" v="lane"/>
    <tag k="highway" v="secondary"/>
    <tag k="lcn" v="yes"/>
    <tag k="name" v="Great North Road"/>
    <tag k="restriction" v="school_zone"/>
  </way>
  <way id="50977326" version="2" timestamp="2010-12-31T14:13:15Z" uid="4467" user="Rosscoe" changeset="6820072">
    <nd ref="649985862"/>
    <nd ref="649985863"/>
    <nd ref="649985866"/>
    <nd ref="649985867"/>
    <nd ref="649985868"/>
    <nd ref="649985869"/>
    <nd ref="649985870"/>
    <nd ref="649985871"/>
    <nd ref="649985872"/>
    <nd ref="649985873"/>
    <nd ref="649985874"/>
    <nd ref="649985875"/>
    <nd ref="649985876"/>
    <nd ref="649985877"/>
    <nd ref="649985878"/>
    <nd ref="649985879"/>
    <nd ref="649985880"/>
    <nd ref="649985881"/>
    <nd ref="649985862"/>
    <tag k="amenity" v="parking"/>
  </way>
  <way id="50977330" version="3" timestamp="2010-12-31T14:13:24Z" uid="4467" user="Rosscoe" changeset="6820072">
    <nd ref="649985912"/>
    <nd ref="1075317903"/>
    <nd ref="319429564"/>
    <tag k="highway" v="service"/>
    <tag k="service" v="driveway"/>
  </way>
  <way id="50977335" version="2" timestamp="2010-12-31T14:13:18Z" uid="4467" user="Rosscoe" changeset="6820072">
    <nd ref="649986083"/>
    <nd ref="649986084"/>
    <nd ref="649986085"/>
    <nd ref="649986086"/>
    <nd ref="649986087"/>
    <nd ref="1075317907"/>
    <nd ref="1075317903"/>
    <nd ref="649986088"/>
    <nd ref="1075317892"/>
    <nd ref="649986089"/>
    <nd ref="649986090"/>
    <nd ref="649986091"/>
    <nd ref="649986092"/>
    <nd ref="649986093"/>
    <nd ref="649986094"/>
    <nd ref="649986095"/>
    <nd ref="649986096"/>
    <nd ref="649986097"/>
    <nd ref="649986098"/>
    <nd ref="649986099"/>
    <nd ref="649986100"/>
    <nd ref="649986101"/>
    <nd ref="649986102"/>
    <nd ref="649986103"/>
    <nd ref="649986104"/>
    <nd ref="649986105"/>
    <nd ref="649986106"/>
    <nd ref="649986107"/>
    <nd ref="649986108"/>
    <nd ref="649986109"/>
    <nd ref="649986110"/>
    <nd ref="649986111"/>
    <nd ref="649986112"/>
    <nd ref="649986113"/>
    <nd ref="649986114"/>
    <nd ref="649986083"/>
    <tag k="area" v="yes"/>
    <tag k="highway" v="service"/>
    <tag k="service" v="driveway"/>
  </way>
  <way id="50977350" version="7" timestamp="2010-12-31T14:13:24Z" uid="4467" user="Rosscoe" changeset="6820072">
    <nd ref="649986244"/>
    <nd ref="649986246"/>
    <nd ref="649986442"/>
    <nd ref="649986477"/>
    <nd ref="649986247"/>
    <nd ref="649986256"/>
    <nd ref="649986248"/>
    <nd ref="649986249"/>
    <nd ref="649986255"/>
    <nd ref="649986250"/>
    <nd ref="649986258"/>
    <nd ref="649986251"/>
    <nd ref="649986253"/>
    <tag k="highway" v="service"/>
    <tag k="service" v="parking_aisle"/>
  </way>
  <way id="50977356" version="3" timestamp="2010-12-31T14:13:22Z" uid="4467" user="Rosscoe" changeset="6820072">
    <nd ref="649986267"/>
    <nd ref="649986269"/>
    <nd ref="649986270"/>
    <nd ref="649986271"/>
    <nd ref="649986272"/>
    <nd ref="649986273"/>
    <nd ref="649986274"/>
    <nd ref="649986416"/>
    <nd ref="649986267"/>
    <tag k="amenity" v="parking"/>
  </way>
  <way id="50977369" version="2" timestamp="2010-12-31T14:13:21Z" uid="4467" user="Rosscoe" changeset="6820072">
    <nd ref="649986411"/>
    <nd ref="649986412"/>
    <nd ref="649986413"/>
    <nd ref="649986414"/>
    <nd ref="649986415"/>
    <nd ref="1075317914"/>
    <nd ref="1075317896"/>
    <nd ref="649986417"/>
    <nd ref="649986418"/>
    <nd ref="649986419"/>
    <nd ref="649986421"/>
    <nd ref="649986422"/>
    <nd ref="649986426"/>
    <nd ref="649986427"/>
    <nd ref="649986428"/>
    <nd ref="649986433"/>
    <nd ref="649986434"/>
    <nd ref="649986435"/>
    <nd ref="649986436"/>
    <nd ref="649986437"/>
    <nd ref="649986411"/>
    <tag k="amenity" v="parking"/>
  </way>
  <way id="50977394" version="2" timestamp="2010-04-07T14:26:30Z" uid="20587" user="balrog-kun" changeset="4353646">
    <nd ref="649986579"/>
    <nd ref="649986580"/>
    <tag k="highway" v="residential"/>
    <tag k="name" v="Marshall Street"/>
  </way>
  <way id="50977398" version="2" timestamp="2010-04-07T14:26:30Z" uid="20587" user="balrog-kun" changeset="4353646">
    <nd ref="649986647"/>
    <nd ref="649986627"/>
    <tag k="highway" v="residential"/>
    <tag k="name" v="Don Pascual Lane"/>
  </way>
  <way id="50977399" version="2" timestamp="2010-04-07T14:26:30Z" uid="20587" user="balrog-kun" changeset="4353646">
    <nd ref="649986630"/>
    <nd ref="649986660"/>
    <tag k="highway" v="residential"/>
    <tag k="name" v="Calle Chiquita Court"/>
  </way>
  <way id="50977400" version="2" timestamp="2010-04-07T14:26:30Z" uid="20587" user="balrog-kun" changeset="4353646">
    <nd ref="347435246"/>
    <nd ref="347435247"/>
    <nd ref="347435248"/>
    <nd ref="347435249"/>
    <nd ref="649986607"/>
    <nd ref="649986615"/>
    <nd ref="649986616"/>
    <nd ref="649986619"/>
    <nd ref="649986621"/>
    <nd ref="649986620"/>
    <nd ref="649986647"/>
    <tag k="highway" v="residential"/>
    <tag k="name" v="Cochiti Drive"/>
  </way>
  <way id="50977401" version="2" timestamp="2010-04-07T14:26:31Z" uid="20587" user="balrog-kun" changeset="4353646">
    <nd ref="649986621"/>
    <nd ref="649986648"/>
    <tag k="highway" v="residential"/>
    <tag k="name" v="Dona Ana Drive"/>
  </way>
  <way id="50977402" version="2" timestamp="2010-04-07T14:26:31Z" uid="20587" user="balrog-kun" changeset="4353646">
    <nd ref="649986608"/>
    <nd ref="649986581"/>
    <nd ref="649986582"/>
    <tag k="highway" v="residential"/>
    <tag k="name" v="Golondrina Drive"/>
  </way>
  <way id="50977403" version="2" timestamp="2010-04-07T14:26:31Z" uid="20587" user="balrog-kun" changeset="4353646">
    <nd ref="347435232"/>
    <nd ref="649986587"/>
    <nd ref="347435233"/>
    <nd ref="649986583"/>
    <nd ref="649986588"/>
    <nd ref="649986589"/>
    <nd ref="649986590"/>
    <nd ref="649986591"/>
    <nd ref="649986592"/>
    <nd ref="649986597"/>
    <nd ref="649986598"/>
    <tag k="highway" v="residential"/>
    <tag k="name" v="Montoya Drive"/>
  </way>
  <way id="50977404" version="2" timestamp="2010-04-07T14:26:31Z" uid="20587" user="balrog-kun" changeset="4353646">
    <nd ref="649986594"/>
    <nd ref="649986595"/>
    <nd ref="649986584"/>
    <nd ref="649986585"/>
    <nd ref="649986586"/>
    <nd ref="649986587"/>
    <tag k="highway" v="residential"/>
    <tag k="name" v="Truchas Road"/>
  </way>
  <way id="50977405" version="2" timestamp="2010-04-07T14:26:31Z" uid="20587" user="balrog-kun" changeset="4353646">
    <nd ref="649986591"/>
    <nd ref="649986600"/>
    <nd ref="649986601"/>
    <nd ref="649986602"/>
    <nd ref="649986603"/>
    <nd ref="649986604"/>
    <nd ref="649986599"/>
    <nd ref="649986605"/>
    <nd ref="649986606"/>
    <tag k="highway" v="residential"/>
    <tag k="name" v="Galisteo Drive"/>
  </way>
  <way id="50977407" version="2" timestamp="2010-04-07T14:26:31Z" uid="20587" user="balrog-kun" changeset="4353646">
    <nd ref="649986625"/>
    <nd ref="649986617"/>
    <tag k="highway" v="residential"/>
    <tag k="name" v="Los Suenos Court"/>
  </way>
  <way id="50977408" version="2" timestamp="2010-04-07T14:26:31Z" uid="20587" user="balrog-kun" changeset="4353646">
    <nd ref="649986626"/>
    <nd ref="649986623"/>
    <tag k="highway" v="residential"/>
    <tag k="name" v="Don Pascual Court"/>
  </way>
  <way id="50977409" version="2" timestamp="2010-04-07T14:26:32Z" uid="20587" user="balrog-kun" changeset="4353646">
    <nd ref="649986636"/>
    <nd ref="649986637"/>
    <nd ref="649986638"/>
    <nd ref="649986634"/>
    <nd ref="649986639"/>
    <nd ref="649986668"/>
    <tag k="highway" v="residential"/>
    <tag k="name" v="Buenos Aires Drive"/>
  </way>
  <way id="50977410" version="2" timestamp="2010-04-07T14:26:32Z" uid="20587" user="balrog-kun" changeset="4353646">
    <nd ref="649986633"/>
    <nd ref="649986634"/>
    <nd ref="649986635"/>
    <nd ref="649986649"/>
    <nd ref="649986650"/>
    <nd ref="649986658"/>
    <nd ref="649986648"/>
    <tag k="highway" v="residential"/>
    <tag k="name" v="Santiago Drive"/>
  </way>
  <way id="50977413" version="2" timestamp="2010-04-07T14:26:32Z" uid="20587" user="balrog-kun" changeset="4353646">
    <nd ref="649986674"/>
    <nd ref="649986675"/>
    <tag k="highway" v="residential"/>
    <tag k="name" v="Calle Bonita Court"/>
  </way>
  <way id="50977415" version="2" timestamp="2010-04-07T14:26:32Z" uid="20587" user="balrog-kun" changeset="4353646">
    <nd ref="649986662"/>
    <nd ref="649986663"/>
    <tag k="highway" v="residential"/>
    <tag k="name" v="Calle Nopal Street"/>
  </way>
  <way id="50977485" version="1" timestamp="2010-02-22T03:03:08Z" uid="7617" user="Franc" changeset="3940640">
    <nd ref="649987146"/>
    <nd ref="649987139"/>
    <tag k="highway" v="residential"/>
    <tag k="source" v="nearmap"/>
  </way>
  <way id="50977485" version="2" timestamp="2010-07-08T02:39:47Z" uid="74617" user="JohnSmith" changeset="5163091">
    <nd ref="649987146"/>
    <nd ref="649987139"/>
    <tag k="highway" v="residential"/>
    <tag k="maxspeed" v="50"/>
    <tag k="maxspeed:source" v="default residential speed limit in Australia"/>
    <tag k="source" v="nearmap"/>
  </way>
  <way id="50977485" version="3" timestamp="2010-12-05T03:43:54Z" uid="7617" user="Franc" changeset="6546606">
    <nd ref="649987146"/>
    <nd ref="649987139"/>
    <tag k="highway" v="residential"/>
    <tag k="maxspeed" v="50"/>
    <tag k="maxspeed:source" v="default residential speed limit in Australia"/>
    <tag k="name" v="Wangal Place"/>
    <tag k="source" v="nearmap"/>
    <tag k="source:name" v="survey"/>
  </way>
  <way id="50977485" version="4" timestamp="2012-01-20T02:24:49Z" uid="147510" user="woodpeck_fixbot" changeset="10442677">
    <nd ref="649987146"/>
    <nd ref="649987139"/>
    <tag k="highway" v="residential"/>
    <tag k="name" v="Wangal Place"/>
    <tag k="source" v="nearmap"/>
    <tag k="source:name" v="survey"/>
  </way>
  <way id="50977486" version="1" timestamp="2010-02-22T03:03:08Z" uid="7617" user="Franc" changeset="3940640">
    <nd ref="649987147"/>
    <nd ref="649987140"/>
    <nd ref="247365341"/>
    <tag k="highway" v="residential"/>
    <tag k="name" v="Longview Street"/>
  </way>
  <way id="50977486" version="2" timestamp="2010-07-08T02:34:02Z" uid="74617" user="JohnSmith" changeset="5163091">
    <nd ref="649987147"/>
    <nd ref="649987140"/>
    <nd ref="247365341"/>
    <tag k="highway" v="residential"/>
    <tag k="maxspeed" v="50"/>
    <tag k="maxspeed:source" v="default residential speed limit in Australia"/>
    <tag k="name" v="Longview Street"/>
  </way>
  <way id="50977486" version="3" timestamp="2012-01-20T02:24:50Z" uid="147510" user="woodpeck_fixbot" changeset="10442677">
    <nd ref="649987147"/>
    <nd ref="649987140"/>
    <nd ref="247365341"/>
    <tag k="highway" v="residential"/>
    <tag k="name" v="Longview Street"/>
  </way>
  <way id="50977487" version="1" timestamp="2010-02-22T03:03:08Z" uid="7617" user="Franc" changeset="3940640">
    <nd ref="649987141"/>
    <nd ref="649987142"/>
    <nd ref="649987143"/>
    <nd ref="649987144"/>
    <nd ref="649987141"/>
    <tag k="leisure" v="park"/>
    <tag k="source" v="nearmap"/>
  </way>
  <way id="50977538" version="3" timestamp="2010-03-19T06:01:21Z" uid="30201" user="rrankin" changeset="4167375"/>
  <way id="50977541" version="1" timestamp="2010-02-22T03:09:35Z" uid="110593" user="esetzer" changeset="3940655">
    <nd ref="369079791"/>
    <nd ref="649987580"/>
    <tag k="created_by" v="Merkaartor 0.11"/>
    <tag k="highway" v="service"/>
  </way>
  <way id="50977541" version="2" timestamp="2012-02-04T05:51:49Z" uid="8909" user="mvexel" changeset="10581396"/>
  <way id="50977569" version="1" timestamp="2010-02-22T03:13:37Z" uid="110593" user="esetzer" changeset="3940663">
    <nd ref="386295037"/>
    <nd ref="83550721"/>
    <nd ref="83550719"/>
    <nd ref="83679333"/>
    <nd ref="386295050"/>
    <nd ref="386295037"/>
    <tag k="created_by" v="Merkaartor 0.11"/>
    <tag k="landuse" v="residential"/>
  </way>
  <way id="50977569" version="2" timestamp="2012-02-04T05:32:00Z" uid="8909" user="mvexel" changeset="10581357"/>
  <way id="50977574" version="1" timestamp="2010-02-22T03:13:41Z" uid="110593" user="esetzer" changeset="3940663">
    <nd ref="649987790"/>
    <nd ref="649987794"/>
    <nd ref="649987799"/>
    <nd ref="649987800"/>
    <nd ref="649987801"/>
    <nd ref="649987790"/>
    <tag k="created_by" v="Merkaartor 0.11"/>
    <tag k="landuse" v="residential"/>
  </way>
  <way id="50977574" version="2" timestamp="2012-02-04T05:32:01Z" uid="8909" user="mvexel" changeset="10581357"/>
  <way id="50977610" version="1" timestamp="2010-02-22T03:17:05Z" uid="7617" user="Franc" changeset="3940668">
    <nd ref="26524797"/>
    <nd ref="26524789"/>
    <tag k="highway" v="residential"/>
    <tag k="name" v="McCulloch Street"/>
  </way>
  <way id="50977610" version="2" timestamp="2010-07-08T02:36:47Z" uid="74617" user="JohnSmith" changeset="5163091">
    <nd ref="26524797"/>
    <nd ref="26524789"/>
    <tag k="highway" v="residential"/>
    <tag k="maxspeed" v="50"/>
    <tag k="maxspeed:source" v="default residential speed limit in Australia"/>
    <tag k="name" v="McCulloch Street"/>
  </way>
  <way id="50977610" version="3" timestamp="2012-01-20T02:24:51Z" uid="147510" user="woodpeck_fixbot" changeset="10442677">
    <nd ref="26524797"/>
    <nd ref="26524789"/>
    <tag k="highway" v="residential"/>
    <tag k="name" v="McCulloch Street"/>
  </way>
  <way id="50977610" version="4" timestamp="2012-02-27T05:15:45Z" uid="7523" user="inas" changeset="10805587">
    <nd ref="26524797"/>
    <nd ref="1649977442"/>
    <nd ref="1649977450"/>
    <tag k="highway" v="residential"/>
    <tag k="name" v="McCulloch Street"/>
  </way>
  <way id="50977611" version="1" timestamp="2010-02-22T03:17:05Z" uid="7617" user="Franc" changeset="3940668">
    <nd ref="649988762"/>
    <nd ref="26524788"/>
    <tag k="highway" v="residential"/>
    <tag k="name" v="Speed Avenue"/>
  </way>
  <way id="50977611" version="2" timestamp="2010-07-08T03:14:31Z" uid="74617" user="JohnSmith" changeset="5163091">
    <nd ref="649988762"/>
    <nd ref="26524788"/>
    <tag k="highway" v="residential"/>
    <tag k="maxspeed" v="50"/>
    <tag k="maxspeed:source" v="default residential speed limit in Australia"/>
    <tag k="name" v="Speed Avenue"/>
  </way>
  <way id="50977611" version="3" timestamp="2012-01-20T02:24:53Z" uid="147510" user="woodpeck_fixbot" changeset="10442677">
    <nd ref="649988762"/>
    <nd ref="26524788"/>
    <tag k="highway" v="residential"/>
    <tag k="name" v="Speed Avenue"/>
  </way>
  <way id="50977611" version="4" timestamp="2012-02-27T05:15:46Z" uid="7523" user="inas" changeset="10805587">
    <nd ref="649988762"/>
    <nd ref="1649977448"/>
    <tag k="highway" v="residential"/>
    <tag k="name" v="Speed Avenue"/>
  </way>
  <way id="50977612" version="1" timestamp="2010-02-22T03:17:05Z" uid="7617" user="Franc" changeset="3940668">
    <nd ref="649988768"/>
    <nd ref="34355442"/>
    <tag k="highway" v="residential"/>
    <tag k="name" v="Whittall Street"/>
  </way>
  <way id="50977613" version="1" timestamp="2010-02-22T03:17:05Z" uid="7617" user="Franc" changeset="3940668">
    <nd ref="649988770"/>
    <nd ref="206090613"/>
    <tag k="highway" v="residential"/>
    <tag k="name" v="Lithgow Street"/>
    <tag k="restriction" v="school_zone"/>
    <tag k="source" v="nearmap"/>
    <tag k="source:name" v="survey"/>
  </way>
  <way id="50977614" version="1" timestamp="2010-02-22T03:17:05Z" uid="7617" user="Franc" changeset="3940668">
    <nd ref="649988774"/>
    <nd ref="98730211"/>
    <nd ref="98730259"/>
    <nd ref="98730217"/>
    <nd ref="98730175"/>
    <nd ref="98730182"/>
    <nd ref="34358668"/>
    <nd ref="247409051"/>
    <tag k="highway" v="residential"/>
    <tag k="name" v="Therry Street"/>
    <tag k="source" v="survey"/>
  </way>
  <way id="50977614" version="2" timestamp="2010-02-22T03:34:00Z" uid="7617" user="Franc" changeset="3940703">
    <nd ref="649988774"/>
    <nd ref="98730211"/>
    <nd ref="98730259"/>
    <nd ref="98730217"/>
    <nd ref="98730175"/>
    <nd ref="98730182"/>
    <nd ref="34358668"/>
    <tag k="highway" v="residential"/>
    <tag k="name" v="Therry Street"/>
    <tag k="source" v="survey"/>
  </way>
  <way id="50977614" version="3" timestamp="2010-07-08T00:57:00Z" uid="74617" user="JohnSmith" changeset="5162525">
    <nd ref="649988774"/>
    <nd ref="98730211"/>
    <nd ref="98730259"/>
    <nd ref="98730217"/>
    <nd ref="98730175"/>
    <nd ref="98730182"/>
    <nd ref="34358668"/>
    <tag k="highway" v="residential"/>
    <tag k="maxspeed" v="50"/>
    <tag k="maxspeed:source" v="default residential speed limit in Australia"/>
    <tag k="name" v="Therry Street"/>
    <tag k="source" v="survey"/>
  </way>
  <way id="50977614" version="4" timestamp="2012-01-20T02:24:54Z" uid="147510" user="woodpeck_fixbot" changeset="10442677">
    <nd ref="649988774"/>
    <nd ref="98730211"/>
    <nd ref="98730259"/>
    <nd ref="98730217"/>
    <nd ref="98730175"/>
    <nd ref="98730182"/>
    <nd ref="34358668"/>
    <tag k="highway" v="residential"/>
    <tag k="name" v="Therry Street"/>
    <tag k="source" v="survey"/>
  </way>
  <way id="50977614" version="5" timestamp="2012-02-26T10:29:03Z" uid="7523" user="inas" changeset="10796296">
    <nd ref="98730211"/>
    <nd ref="98730259"/>
    <nd ref="1648294718"/>
    <nd ref="98730175"/>
    <nd ref="98730182"/>
    <nd ref="34358668"/>
    <tag k="highway" v="residential"/>
    <tag k="name" v="Therry Street"/>
    <tag k="source" v="survey"/>
  </way>
  <way id="50977615" version="1" timestamp="2010-02-22T03:17:05Z" uid="7617" user="Franc" changeset="3940668">
    <nd ref="649988775"/>
    <nd ref="98730246"/>
    <nd ref="98730224"/>
    <nd ref="247422068"/>
    <nd ref="247422237"/>
    <nd ref="98730169"/>
    <nd ref="34358996"/>
    <tag k="highway" v="residential"/>
    <tag k="name" v="Broughton Street"/>
    <tag k="source:name" v="survey"/>
  </way>
  <way id="50977615" version="2" timestamp="2010-02-22T03:34:02Z" uid="7617" user="Franc" changeset="3940703">
    <nd ref="649988775"/>
    <nd ref="98730246"/>
    <nd ref="98730224"/>
    <tag k="highway" v="residential"/>
    <tag k="name" v="Broughton Street"/>
    <tag k="source:name" v="survey"/>
  </way>
  <way id="50977615" version="3" timestamp="2010-07-08T00:58:03Z" uid="74617" user="JohnSmith" changeset="5162525">
    <nd ref="649988775"/>
    <nd ref="98730246"/>
    <nd ref="98730224"/>
    <tag k="highway" v="residential"/>
    <tag k="maxspeed" v="50"/>
    <tag k="maxspeed:source" v="default residential speed limit in Australia"/>
    <tag k="name" v="Broughton Street"/>
    <tag k="source:name" v="survey"/>
  </way>
  <way id="50977615" version="4" timestamp="2012-01-20T02:24:55Z" uid="147510" user="woodpeck_fixbot" changeset="10442677">
    <nd ref="649988775"/>
    <nd ref="98730246"/>
    <nd ref="98730224"/>
    <tag k="highway" v="residential"/>
    <tag k="name" v="Broughton Street"/>
    <tag k="source:name" v="survey"/>
  </way>
  <way id="50977615" version="5" timestamp="2012-02-26T10:29:00Z" uid="7523" user="inas" changeset="10796296">
    <nd ref="649988775"/>
    <nd ref="98730246"/>
    <tag k="highway" v="residential"/>
    <tag k="name" v="Broughton Street"/>
    <tag k="source:name" v="survey"/>
  </way>
  <way id="50977615" version="6" timestamp="2012-02-27T08:57:48Z" uid="7523" user="inas" changeset="10806520"/>
  <way id="50977616" version="1" timestamp="2010-02-22T03:17:13Z" uid="110593" user="esetzer" changeset="3940669">
    <nd ref="649988777"/>
    <nd ref="649988778"/>
    <nd ref="649988779"/>
    <nd ref="649988780"/>
    <nd ref="649988781"/>
    <nd ref="649988782"/>
    <nd ref="649988777"/>
    <tag k="created_by" v="Merkaartor 0.11"/>
    <tag k="landuse" v="commercial"/>
  </way>
  <way id="50977617" version="1" timestamp="2010-02-22T03:17:16Z" uid="110593" user="esetzer" changeset="3940669">
    <nd ref="649988783"/>
    <nd ref="649988784"/>
    <nd ref="649988785"/>
    <nd ref="649988779"/>
    <nd ref="649988783"/>
    <tag k="building" v="yes"/>
    <tag k="created_by" v="Merkaartor 0.11"/>
  </way>
  <way id="50977788" version="1" timestamp="2010-02-22T03:27:20Z" uid="110593" user="esetzer" changeset="3940691">
    <nd ref="649990695"/>
    <nd ref="649990696"/>
    <nd ref="649990697"/>
    <nd ref="649990698"/>
    <nd ref="649990695"/>
    <tag k="created_by" v="Merkaartor 0.11"/>
    <tag k="landuse" v="grass"/>
  </way>
  <way id="50977788" version="2" timestamp="2011-11-30T19:45:26Z" uid="8909" user="mvexel" changeset="10002367">
    <nd ref="649990695"/>
    <nd ref="1525109325"/>
    <nd ref="1525109318"/>
    <nd ref="649990696"/>
    <nd ref="649990697"/>
    <nd ref="1525109324"/>
    <nd ref="1525109330"/>
    <nd ref="649990698"/>
    <nd ref="1525109342"/>
    <nd ref="1525109344"/>
    <nd ref="649990695"/>
    <tag k="landuse" v="grass"/>
  </way>
  <way id="50977810" version="2" timestamp="2010-04-07T14:26:32Z" uid="20587" user="balrog-kun" changeset="4353646">
    <nd ref="649990913"/>
    <nd ref="649990914"/>
    <tag k="highway" v="residential"/>
    <tag k="name" v="Parkcrest Drive"/>
  </way>
  <way id="50977811" version="2" timestamp="2010-04-07T14:26:32Z" uid="20587" user="balrog-kun" changeset="4353646">
    <nd ref="649990915"/>
    <nd ref="649990914"/>
    <nd ref="649990916"/>
    <tag k="highway" v="residential"/>
    <tag k="name" v="Wyndum Terrace Trail"/>
  </way>
  <way id="50977812" version="2" timestamp="2010-04-07T14:26:32Z" uid="20587" user="balrog-kun" changeset="4353646">
    <nd ref="649990918"/>
    <nd ref="649990917"/>
    <nd ref="649986631"/>
    <tag k="highway" v="residential"/>
    <tag k="name" v="Sweden Lane"/>
  </way>
  <way id="50977813" version="3" timestamp="2010-04-07T14:26:33Z" uid="20587" user="balrog-kun" changeset="4353646">
    <nd ref="649991055"/>
    <nd ref="649991058"/>
    <nd ref="649991059"/>
    <nd ref="649991006"/>
    <nd ref="649991008"/>
    <nd ref="673891635"/>
    <nd ref="649991009"/>
    <tag k="highway" v="residential"/>
    <tag k="name" v="Cabo Wabo Drive"/>
  </way>
  <way id="50977815" version="2" timestamp="2010-04-07T14:26:33Z" uid="20587" user="balrog-kun" changeset="4353646">
    <nd ref="649991060"/>
    <nd ref="649991061"/>
    <nd ref="649991062"/>
    <nd ref="649991063"/>
    <nd ref="649991064"/>
    <nd ref="649991065"/>
    <nd ref="649991030"/>
    <tag k="highway" v="residential"/>
    <tag k="name" v="Porfirio Drive"/>
  </way>
  <way id="50977817" version="2" timestamp="2010-04-07T14:26:33Z" uid="20587" user="balrog-kun" changeset="4353646">
    <nd ref="649991044"/>
    <nd ref="649990976"/>
    <nd ref="649990977"/>
    <nd ref="649990978"/>
    <nd ref="649990979"/>
    <nd ref="649990980"/>
    <nd ref="649991011"/>
    <nd ref="649991001"/>
    <tag k="highway" v="residential"/>
    <tag k="name" v="Don Sergio Drive"/>
  </way>
  <way id="50977818" version="2" timestamp="2010-04-07T14:26:33Z" uid="20587" user="balrog-kun" changeset="4353646">
    <nd ref="649990939"/>
    <nd ref="649990931"/>
    <nd ref="649990932"/>
    <nd ref="649990933"/>
    <nd ref="649990929"/>
    <nd ref="649990926"/>
    <nd ref="649990927"/>
    <nd ref="649990940"/>
    <nd ref="649990941"/>
    <nd ref="649990959"/>
    <nd ref="649990960"/>
    <nd ref="649990961"/>
    <nd ref="649990962"/>
    <nd ref="649990958"/>
    <nd ref="649990983"/>
    <nd ref="649990984"/>
    <nd ref="649991013"/>
    <nd ref="649991010"/>
    <nd ref="649991014"/>
    <nd ref="649990980"/>
    <nd ref="649991052"/>
    <nd ref="649991046"/>
    <tag k="highway" v="residential"/>
    <tag k="name" v="Anejo Drive"/>
  </way>
  <way id="50977819" version="2" timestamp="2010-04-07T14:26:33Z" uid="20587" user="balrog-kun" changeset="4353646">
    <nd ref="649991041"/>
    <nd ref="649990925"/>
    <nd ref="649990924"/>
    <nd ref="649990923"/>
    <nd ref="649990922"/>
    <nd ref="649990921"/>
    <nd ref="649990920"/>
    <tag k="highway" v="residential"/>
    <tag k="name" v="Stonefield Lane"/>
  </way>
  <way id="50977819" version="3" timestamp="2010-12-03T06:40:25Z" uid="36121" user="Chris Lawrence" changeset="6522703">
    <nd ref="649991041"/>
    <nd ref="649991041"/>
    <nd ref="1017643946"/>
    <nd ref="649990925"/>
    <nd ref="649990924"/>
    <nd ref="649990923"/>
    <nd ref="649990922"/>
    <nd ref="649990921"/>
    <nd ref="649990920"/>
    <tag k="highway" v="residential"/>
    <tag k="name" v="Stonefield Lane"/>
  </way>
  <way id="50977819" version="4" timestamp="2010-12-03T20:18:22Z" uid="70696" user="xybot" changeset="6530301">
    <nd ref="649991041"/>
    <nd ref="1017643946"/>
    <nd ref="649990925"/>
    <nd ref="649990924"/>
    <nd ref="649990923"/>
    <nd ref="649990922"/>
    <nd ref="649990921"/>
    <nd ref="649990920"/>
    <tag k="highway" v="residential"/>
    <tag k="name" v="Stonefield Lane"/>
  </way>
  <way id="50977820" version="2" timestamp="2010-04-07T14:26:33Z" uid="20587" user="balrog-kun" changeset="4353646">
    <nd ref="649990985"/>
    <nd ref="649990986"/>
    <nd ref="649990987"/>
    <nd ref="649990988"/>
    <nd ref="649990989"/>
    <nd ref="649990990"/>
    <nd ref="649990991"/>
    <nd ref="649991035"/>
    <nd ref="649991036"/>
    <nd ref="649991037"/>
    <nd ref="649991038"/>
    <nd ref="649991039"/>
    <tag k="highway" v="residential"/>
    <tag k="name" v="Imperial Drive"/>
  </way>
  <way id="50977821" version="2" timestamp="2010-04-07T14:26:34Z" uid="20587" user="balrog-kun" changeset="4353646">
    <nd ref="649991026"/>
    <nd ref="649990997"/>
    <nd ref="649990993"/>
    <tag k="highway" v="residential"/>
    <tag k="name" v="Moondance Court"/>
  </way>
  <way id="50977822" version="3" timestamp="2010-04-07T14:26:34Z" uid="20587" user="balrog-kun" changeset="4353646">
    <nd ref="649990949"/>
    <nd ref="649990954"/>
    <nd ref="649990955"/>
    <nd ref="649991027"/>
    <tag k="highway" v="residential"/>
    <tag k="name" v="Silhouette Drive"/>
  </way>
  <way id="50977823" version="2" timestamp="2010-04-07T14:26:34Z" uid="20587" user="balrog-kun" changeset="4353646">
    <nd ref="649990941"/>
    <nd ref="649990963"/>
    <nd ref="649990967"/>
    <nd ref="649990964"/>
    <nd ref="649990965"/>
    <nd ref="649990966"/>
    <nd ref="649990982"/>
    <nd ref="649990970"/>
    <tag k="highway" v="residential"/>
    <tag k="name" v="Reposado Drive"/>
  </way>
  <way id="50977824" version="2" timestamp="2010-04-07T14:26:34Z" uid="20587" user="balrog-kun" changeset="4353646">
    <nd ref="649990932"/>
    <nd ref="649990934"/>
    <nd ref="649990935"/>
    <nd ref="649990936"/>
    <nd ref="649990937"/>
    <nd ref="649990967"/>
    <nd ref="649990968"/>
    <nd ref="649990969"/>
    <tag k="highway" v="residential"/>
    <tag k="name" v="Centenario Drive"/>
  </way>
  <way id="50977825" version="2" timestamp="2010-04-07T14:26:34Z" uid="20587" user="balrog-kun" changeset="4353646">
    <nd ref="649990950"/>
    <nd ref="649990960"/>
    <tag k="highway" v="residential"/>
    <tag k="name" v="Chinaco Drive"/>
  </way>
  <way id="50977826" version="2" timestamp="2010-04-07T14:26:34Z" uid="20587" user="balrog-kun" changeset="4353646">
    <nd ref="340742216"/>
    <nd ref="649990943"/>
    <nd ref="649990952"/>
    <nd ref="649990948"/>
    <tag k="highway" v="residential"/>
    <tag k="name" v="Calle Vistoso Drive"/>
  </way>
  <way id="50977827" version="2" timestamp="2010-04-07T14:26:34Z" uid="20587" user="balrog-kun" changeset="4353646">
    <nd ref="649990949"/>
    <nd ref="649990953"/>
    <nd ref="649990985"/>
    <tag k="highway" v="residential"/>
    <tag k="name" v="Casimir Drive"/>
  </way>
  <way id="50977828" version="2" timestamp="2010-04-07T14:26:35Z" uid="20587" user="balrog-kun" changeset="4353646">
    <nd ref="649990987"/>
    <nd ref="649990992"/>
    <nd ref="649990954"/>
    <tag k="highway" v="residential"/>
    <tag k="name" v="Savitee Drive"/>
  </way>
  <way id="50977829" version="2" timestamp="2010-04-07T14:26:35Z" uid="20587" user="balrog-kun" changeset="4353646">
    <nd ref="649990955"/>
    <nd ref="649990993"/>
    <nd ref="649990994"/>
    <nd ref="649990989"/>
    <nd ref="649990995"/>
    <tag k="highway" v="residential"/>
    <tag k="name" v="New River Drive"/>
  </way>
  <way id="50977830" version="2" timestamp="2010-04-07T14:26:35Z" uid="20587" user="balrog-kun" changeset="4353646">
    <nd ref="649990929"/>
    <nd ref="649990930"/>
    <tag k="highway" v="residential"/>
    <tag k="name" v="Hornitos Drive"/>
  </way>
  <way id="50977831" version="2" timestamp="2010-04-07T14:26:35Z" uid="20587" user="balrog-kun" changeset="4353646">
    <nd ref="305873901"/>
    <nd ref="649990931"/>
    <tag k="highway" v="residential"/>
    <tag k="name" v="Don Julio Drive"/>
  </way>
  <way id="50977835" version="2" timestamp="2010-04-07T14:26:35Z" uid="20587" user="balrog-kun" changeset="4353646">
    <nd ref="649990974"/>
    <nd ref="649990981"/>
    <nd ref="649990957"/>
    <nd ref="649990958"/>
    <tag k="highway" v="residential"/>
    <tag k="name" v="Gallardon Drive"/>
  </way>
  <way id="50977836" version="2" timestamp="2010-04-07T14:26:35Z" uid="20587" user="balrog-kun" changeset="4353646">
    <nd ref="649991028"/>
    <nd ref="649991036"/>
    <tag k="highway" v="residential"/>
    <tag k="name" v="Sanderiana Court"/>
  </way>
  <way id="50977837" version="2" timestamp="2010-04-07T14:26:35Z" uid="20587" user="balrog-kun" changeset="4353646">
    <nd ref="649991040"/>
    <nd ref="649991037"/>
    <tag k="highway" v="residential"/>
    <tag k="name" v="Peruviana Court"/>
  </way>
  <way id="50977838" version="2" timestamp="2010-04-07T14:26:36Z" uid="20587" user="balrog-kun" changeset="4353646">
    <nd ref="649991045"/>
    <nd ref="649991043"/>
    <tag k="highway" v="residential"/>
    <tag k="name" v="Sauza Drive"/>
  </way>
  <way id="50977843" version="1" timestamp="2010-02-22T03:33:58Z" uid="7617" user="Franc" changeset="3940703">
    <nd ref="649991213"/>
    <nd ref="247409991"/>
    <nd ref="98730158"/>
    <nd ref="241868306"/>
    <nd ref="34357816"/>
    <tag k="highway" v="residential"/>
    <tag k="name" v="South Street"/>
    <tag k="source:name" v="survey"/>
  </way>
  <way id="50977843" version="2" timestamp="2010-07-08T00:58:15Z" uid="74617" user="JohnSmith" changeset="5162525">
    <nd ref="649991213"/>
    <nd ref="247409991"/>
    <nd ref="98730158"/>
    <nd ref="241868306"/>
    <nd ref="34357816"/>
    <tag k="highway" v="residential"/>
    <tag k="maxspeed" v="50"/>
    <tag k="maxspeed:source" v="default residential speed limit in Australia"/>
    <tag k="name" v="South Street"/>
    <tag k="source:name" v="survey"/>
  </way>
  <way id="50977843" version="3" timestamp="2012-01-20T02:24:56Z" uid="147510" user="woodpeck_fixbot" changeset="10442677">
    <nd ref="649991213"/>
    <nd ref="247409991"/>
    <nd ref="98730158"/>
    <nd ref="241868306"/>
    <nd ref="34357816"/>
    <tag k="highway" v="residential"/>
    <tag k="name" v="South Street"/>
    <tag k="source:name" v="survey"/>
  </way>
  <way id="50977844" version="1" timestamp="2010-02-22T03:33:58Z" uid="7617" user="Franc" changeset="3940703">
    <nd ref="649991214"/>
    <nd ref="34358515"/>
    <nd ref="34358408"/>
    <tag k="highway" v="residential"/>
    <tag k="name" v="Tranmere Street"/>
    <tag k="source:name" v="survey"/>
  </way>
  <way id="50977844" version="2" timestamp="2010-07-08T00:58:33Z" uid="74617" user="JohnSmith" changeset="5162525">
    <nd ref="649991214"/>
    <nd ref="34358515"/>
    <nd ref="34358408"/>
    <tag k="highway" v="residential"/>
    <tag k="maxspeed" v="50"/>
    <tag k="maxspeed:source" v="default residential speed limit in Australia"/>
    <tag k="name" v="Tranmere Street"/>
    <tag k="source:name" v="survey"/>
  </way>
  <way id="50977844" version="3" timestamp="2012-01-20T02:24:58Z" uid="147510" user="woodpeck_fixbot" changeset="10442677">
    <nd ref="649991214"/>
    <nd ref="34358515"/>
    <nd ref="34358408"/>
    <tag k="highway" v="residential"/>
    <tag k="name" v="Tranmere Street"/>
    <tag k="source:name" v="survey"/>
  </way>
  <way id="50977845" version="1" timestamp="2010-02-22T03:33:58Z" uid="7617" user="Franc" changeset="3940703">
    <nd ref="649991212"/>
    <nd ref="247409051"/>
    <tag k="highway" v="residential"/>
    <tag k="name" v="Therry Street"/>
    <tag k="source" v="survey"/>
  </way>
  <way id="50977845" version="2" timestamp="2010-07-08T00:59:28Z" uid="74617" user="JohnSmith" changeset="5162525">
    <nd ref="649991212"/>
    <nd ref="247409051"/>
    <tag k="highway" v="residential"/>
    <tag k="maxspeed" v="50"/>
    <tag k="maxspeed:source" v="default residential speed limit in Australia"/>
    <tag k="name" v="Therry Street"/>
    <tag k="source" v="survey"/>
  </way>
  <way id="50977845" version="3" timestamp="2012-01-20T02:24:59Z" uid="147510" user="woodpeck_fixbot" changeset="10442677">
    <nd ref="649991212"/>
    <nd ref="247409051"/>
    <tag k="highway" v="residential"/>
    <tag k="name" v="Therry Street"/>
    <tag k="source" v="survey"/>
  </way>
  <way id="50977846" version="1" timestamp="2010-02-22T03:33:58Z" uid="7617" user="Franc" changeset="3940703">
    <nd ref="649991208"/>
    <nd ref="247422068"/>
    <nd ref="247422237"/>
    <nd ref="98730169"/>
    <nd ref="34358996"/>
    <tag k="highway" v="residential"/>
    <tag k="name" v="Broughton Street"/>
    <tag k="source:name" v="survey"/>
  </way>
  <way id="50977846" version="2" timestamp="2010-07-08T01:01:07Z" uid="74617" user="JohnSmith" changeset="5162525">
    <nd ref="649991208"/>
    <nd ref="247422068"/>
    <nd ref="247422237"/>
    <nd ref="98730169"/>
    <nd ref="34358996"/>
    <tag k="highway" v="residential"/>
    <tag k="maxspeed" v="50"/>
    <tag k="maxspeed:source" v="default residential speed limit in Australia"/>
    <tag k="name" v="Broughton Street"/>
    <tag k="source:name" v="survey"/>
  </way>
  <way id="50977846" version="3" timestamp="2012-01-20T02:25:00Z" uid="147510" user="woodpeck_fixbot" changeset="10442677">
    <nd ref="649991208"/>
    <nd ref="247422068"/>
    <nd ref="247422237"/>
    <nd ref="98730169"/>
    <nd ref="34358996"/>
    <tag k="highway" v="residential"/>
    <tag k="name" v="Broughton Street"/>
    <tag k="source:name" v="survey"/>
  </way>
  <way id="50977846" version="4" timestamp="2012-02-26T10:29:01Z" uid="7523" user="inas" changeset="10796296">
    <nd ref="247422068"/>
    <nd ref="247422237"/>
    <nd ref="98730169"/>
    <nd ref="34358996"/>
    <tag k="highway" v="residential"/>
    <tag k="name" v="Broughton Street"/>
    <tag k="source:name" v="survey"/>
  </way>
  <way id="50977846" version="5" timestamp="2012-02-27T08:57:47Z" uid="7523" user="inas" changeset="10806520">
    <nd ref="34358996"/>
    <nd ref="98730169"/>
    <nd ref="247422237"/>
    <nd ref="247422068"/>
    <nd ref="1650141452"/>
    <nd ref="98730246"/>
    <nd ref="649988775"/>
    <tag k="highway" v="residential"/>
    <tag k="name" v="Broughton Street"/>
    <tag k="source:name" v="survey"/>
  </way>
  <way id="50977847" version="1" timestamp="2010-02-22T03:33:58Z" uid="7617" user="Franc" changeset="3940703">
    <nd ref="649991209"/>
    <nd ref="247409989"/>
    <tag k="highway" v="service"/>
    <tag k="name" v="Polding Lane"/>
    <tag k="restriction" v="school_zone"/>
    <tag k="source" v="yahoo_imagery"/>
    <tag k="source:name" v="survey"/>
  </way>
  <way id="50977848" version="1" timestamp="2010-02-22T03:33:58Z" uid="7617" user="Franc" changeset="3940703">
    <nd ref="649991212"/>
    <nd ref="649991215"/>
    <nd ref="34358201"/>
    <nd ref="649991214"/>
    <tag k="highway" v="residential"/>
    <tag k="name" v="Tranmere Street"/>
    <tag k="restriction" v="school_zone"/>
    <tag k="source:name" v="survey"/>
  </way>
  <way id="50977848" version="2" timestamp="2010-07-08T00:57:50Z" uid="74617" user="JohnSmith" changeset="5162525">
    <nd ref="649991212"/>
    <nd ref="649991215"/>
    <nd ref="34358201"/>
    <nd ref="649991214"/>
    <tag k="highway" v="residential"/>
    <tag k="maxspeed" v="50"/>
    <tag k="maxspeed:source" v="default residential speed limit in Australia"/>
    <tag k="name" v="Tranmere Street"/>
    <tag k="restriction" v="school_zone"/>
    <tag k="source:name" v="survey"/>
  </way>
  <way id="50977848" version="3" timestamp="2012-01-20T02:25:01Z" uid="147510" user="woodpeck_fixbot" changeset="10442677">
    <nd ref="649991212"/>
    <nd ref="649991215"/>
    <nd ref="34358201"/>
    <nd ref="649991214"/>
    <tag k="highway" v="residential"/>
    <tag k="name" v="Tranmere Street"/>
    <tag k="restriction" v="school_zone"/>
    <tag k="source:name" v="survey"/>
  </way>
  <way id="50977848" version="4" timestamp="2012-02-27T23:38:27Z" uid="7523" user="inas" changeset="10814832">
    <nd ref="649991212"/>
    <nd ref="34358201"/>
    <nd ref="649991214"/>
    <tag k="highway" v="residential"/>
    <tag k="name" v="Tranmere Street"/>
    <tag k="restriction" v="school_zone"/>
    <tag k="source:name" v="survey"/>
  </way>
  <way id="50977849" version="1" timestamp="2010-02-22T03:33:58Z" uid="7617" user="Franc" changeset="3940703">
    <nd ref="34358996"/>
    <nd ref="98730153"/>
    <tag k="highway" v="residential"/>
    <tag k="name" v="South Street"/>
    <tag k="oneway" v="yes"/>
    <tag k="restriction" v="school_zone"/>
  </way>
  <way id="50977849" version="2" timestamp="2010-07-08T00:58:48Z" uid="74617" user="JohnSmith" changeset="5162525">
    <nd ref="34358996"/>
    <nd ref="98730153"/>
    <tag k="highway" v="residential"/>
    <tag k="maxspeed" v="50"/>
    <tag k="maxspeed:source" v="default residential speed limit in Australia"/>
    <tag k="name" v="South Street"/>
    <tag k="oneway" v="yes"/>
    <tag k="restriction" v="school_zone"/>
  </way>
  <way id="50977849" version="3" timestamp="2012-01-20T02:25:02Z" uid="147510" user="woodpeck_fixbot" changeset="10442677">
    <nd ref="34358996"/>
    <nd ref="98730153"/>
    <tag k="highway" v="residential"/>
    <tag k="name" v="South Street"/>
    <tag k="oneway" v="yes"/>
    <tag k="restriction" v="school_zone"/>
  </way>
  <way id="50977973" version="1" timestamp="2010-02-22T03:43:58Z" uid="30201" user="rrankin" changeset="3940724">
    <nd ref="649992947"/>
    <nd ref="649992977"/>
    <nd ref="649992978"/>
    <nd ref="649992979"/>
    <tag k="highway" v="primary"/>
    <tag k="maxspeed" v="60"/>
    <tag k="name" v="Princes Highway"/>
    <tag k="oneway" v="yes"/>
    <tag k="ref" v="S88"/>
  </way>
  <way id="50977973" version="2" timestamp="2010-04-01T17:36:40Z" uid="74617" user="JohnSmith" changeset="4295913">
    <nd ref="649992947"/>
    <nd ref="649992977"/>
    <nd ref="649992978"/>
    <nd ref="649992979"/>
    <tag k="highway" v="primary"/>
    <tag k="maxspeed" v="60"/>
    <tag k="name" v="Princes Highway"/>
    <tag k="oneway" v="yes"/>
  </way>
  <way id="50977973" version="3" timestamp="2010-09-14T13:02:09Z" uid="280711" user="kw_broadens" changeset="5778359">
    <nd ref="649992947"/>
    <nd ref="649992977"/>
    <nd ref="911935440"/>
    <nd ref="649992978"/>
    <nd ref="649992979"/>
    <tag k="highway" v="primary"/>
    <tag k="maxspeed" v="60"/>
    <tag k="name" v="Princes Highway"/>
    <tag k="oneway" v="yes"/>
  </way>
  <way id="50977974" version="1" timestamp="2010-02-22T03:43:58Z" uid="30201" user="rrankin" changeset="3940724">
    <nd ref="363600621"/>
    <nd ref="363600622"/>
    <nd ref="363600623"/>
    <nd ref="363600624"/>
    <nd ref="363600625"/>
    <nd ref="363600626"/>
    <nd ref="363600628"/>
    <nd ref="363600629"/>
    <nd ref="363600630"/>
    <nd ref="363600631"/>
    <nd ref="363600632"/>
    <nd ref="363600633"/>
    <nd ref="363600634"/>
    <nd ref="363600635"/>
    <nd ref="363600636"/>
    <nd ref="363600637"/>
    <nd ref="363600638"/>
    <nd ref="363600639"/>
    <nd ref="363600640"/>
    <nd ref="363600641"/>
    <nd ref="363600642"/>
    <nd ref="363083968"/>
    <tag k="admin_level" v="10"/>
    <tag k="attribution" v="Based on Australian Bureau of Statistics data"/>
    <tag k="boundary" v="administrative"/>
    <tag k="source" v="ABS_2006"/>
  </way>
  <way id="50977974" version="2" timestamp="2012-03-09T12:07:48Z" uid="12434" user="nm7s9" changeset="10919184"/>
  <way id="50977975" version="1" timestamp="2010-02-22T03:43:59Z" uid="30201" user="rrankin" changeset="3940724">
    <nd ref="34919946"/>
    <nd ref="288670726"/>
    <nd ref="288666670"/>
    <nd ref="355834093"/>
    <nd ref="649992956"/>
    <tag k="highway" v="secondary"/>
    <tag k="name" v="Robsons Road"/>
    <tag k="source" v="survey"/>
  </way>
  <way id="50977975" version="2" timestamp="2010-05-28T04:14:06Z" uid="30201" user="rrankin" changeset="4827538">
    <nd ref="34919946"/>
    <nd ref="288670726"/>
    <nd ref="752192410"/>
    <tag k="highway" v="secondary"/>
    <tag k="name" v="Robsons Road"/>
    <tag k="source" v="survey"/>
  </way>
  <way id="50977975" version="3" timestamp="2010-09-19T13:14:54Z" uid="79475" user="AlexOnTheBus" changeset="5819599">
    <nd ref="34919946"/>
    <nd ref="288670726"/>
    <nd ref="752192410"/>
    <tag k="highway" v="tertiary"/>
    <tag k="name" v="Robsons Road"/>
    <tag k="source" v="survey"/>
  </way>
  <way id="50977976" version="1" timestamp="2010-02-22T03:43:59Z" uid="30201" user="rrankin" changeset="3940724">
    <nd ref="649992767"/>
    <nd ref="649992864"/>
    <tag k="highway" v="residential"/>
    <tag k="name" v="Kembla Street"/>
    <tag k="source" v="survey"/>
  </way>
  <way id="50977976" version="2" timestamp="2010-07-07T19:53:17Z" uid="74617" user="JohnSmith" changeset="5161069">
    <nd ref="649992767"/>
    <nd ref="649992864"/>
    <tag k="highway" v="residential"/>
    <tag k="maxspeed" v="50"/>
    <tag k="maxspeed:source" v="default residential speed limit in Australia"/>
    <tag k="name" v="Kembla Street"/>
    <tag k="source" v="survey"/>
  </way>
  <way id="50977976" version="3" timestamp="2012-01-20T02:25:04Z" uid="147510" user="woodpeck_fixbot" changeset="10442677">
    <nd ref="649992767"/>
    <nd ref="649992864"/>
    <tag k="highway" v="residential"/>
    <tag k="name" v="Kembla Street"/>
    <tag k="source" v="survey"/>
  </way>
  <way id="50977977" version="1" timestamp="2010-02-22T03:43:59Z" uid="30201" user="rrankin" changeset="3940724">
    <nd ref="259000658"/>
    <nd ref="645176694"/>
    <nd ref="645176696"/>
    <nd ref="263682719"/>
    <nd ref="259000692"/>
    <nd ref="259002753"/>
    <nd ref="645176494"/>
    <nd ref="259000887"/>
    <nd ref="645176527"/>
    <nd ref="259000359"/>
    <tag k="highway" v="residential"/>
    <tag k="name" v="Church Street"/>
    <tag k="oneway" v="yes"/>
  </way>
  <way id="50977977" version="2" timestamp="2010-07-07T19:46:47Z" uid="74617" user="JohnSmith" changeset="5161069">
    <nd ref="259000658"/>
    <nd ref="645176694"/>
    <nd ref="645176696"/>
    <nd ref="263682719"/>
    <nd ref="259000692"/>
    <nd ref="259002753"/>
    <nd ref="645176494"/>
    <nd ref="259000887"/>
    <nd ref="645176527"/>
    <nd ref="259000359"/>
    <tag k="highway" v="residential"/>
    <tag k="maxspeed" v="50"/>
    <tag k="maxspeed:source" v="default residential speed limit in Australia"/>
    <tag k="name" v="Church Street"/>
    <tag k="oneway" v="yes"/>
  </way>
  <way id="50977977" version="3" timestamp="2011-03-17T04:06:56Z" uid="181013" user="Zhent" changeset="7581770">
    <nd ref="259000658"/>
    <nd ref="645176694"/>
    <nd ref="645176696"/>
    <nd ref="263682719"/>
    <nd ref="259000692"/>
    <nd ref="259002753"/>
    <nd ref="645176494"/>
    <nd ref="259000887"/>
    <nd ref="645176527"/>
    <nd ref="259000359"/>
    <tag k="highway" v="tertiary"/>
    <tag k="maxspeed" v="50"/>
    <tag k="maxspeed:source" v="default residential speed limit in Australia"/>
    <tag k="name" v="Church Street"/>
    <tag k="oneway" v="yes"/>
  </way>
  <way id="50977977" version="4" timestamp="2012-01-20T02:25:06Z" uid="147510" user="woodpeck_fixbot" changeset="10442677">
    <nd ref="259000658"/>
    <nd ref="645176694"/>
    <nd ref="645176696"/>
    <nd ref="263682719"/>
    <nd ref="259000692"/>
    <nd ref="259002753"/>
    <nd ref="645176494"/>
    <nd ref="259000887"/>
    <nd ref="645176527"/>
    <nd ref="259000359"/>
    <tag k="highway" v="tertiary"/>
    <tag k="name" v="Church Street"/>
    <tag k="oneway" v="yes"/>
  </way>
  <way id="50977978" version="1" timestamp="2010-02-22T03:43:59Z" uid="30201" user="rrankin" changeset="3940724">
    <nd ref="649992731"/>
    <nd ref="649992752"/>
    <nd ref="649992753"/>
    <nd ref="649992848"/>
    <nd ref="649992849"/>
    <nd ref="649992854"/>
    <nd ref="649992867"/>
    <nd ref="649992865"/>
    <nd ref="649992866"/>
    <nd ref="649992878"/>
    <nd ref="649992869"/>
    <tag k="highway" v="residential"/>
    <tag k="name" v="Church Street"/>
    <tag k="oneway" v="yes"/>
  </way>
  <way id="50977978" version="2" timestamp="2010-07-07T19:51:09Z" uid="74617" user="JohnSmith" changeset="5161069">
    <nd ref="649992731"/>
    <nd ref="649992752"/>
    <nd ref="649992753"/>
    <nd ref="649992848"/>
    <nd ref="649992849"/>
    <nd ref="649992854"/>
    <nd ref="649992867"/>
    <nd ref="649992865"/>
    <nd ref="649992866"/>
    <nd ref="649992878"/>
    <nd ref="649992869"/>
    <tag k="highway" v="residential"/>
    <tag k="maxspeed" v="50"/>
    <tag k="maxspeed:source" v="default residential speed limit in Australia"/>
    <tag k="name" v="Church Street"/>
    <tag k="oneway" v="yes"/>
  </way>
  <way id="50977978" version="3" timestamp="2011-03-14T10:10:48Z" uid="181013" user="Zhent" changeset="7554209">
    <nd ref="649992731"/>
    <nd ref="649992752"/>
    <nd ref="649992753"/>
    <nd ref="649992848"/>
    <nd ref="649992849"/>
    <nd ref="649992854"/>
    <nd ref="649992867"/>
    <nd ref="649992865"/>
    <nd ref="1201375516"/>
    <nd ref="649992866"/>
    <nd ref="649992878"/>
    <nd ref="649992869"/>
    <tag k="highway" v="residential"/>
    <tag k="maxspeed" v="50"/>
    <tag k="maxspeed:source" v="default residential speed limit in Australia"/>
    <tag k="name" v="Church Street"/>
    <tag k="oneway" v="yes"/>
  </way>
  <way id="50977978" version="4" timestamp="2011-03-17T04:06:43Z" uid="181013" user="Zhent" changeset="7581770">
    <nd ref="649992731"/>
    <nd ref="649992752"/>
    <nd ref="649992753"/>
    <nd ref="649992848"/>
    <nd ref="649992849"/>
    <nd ref="649992854"/>
    <nd ref="649992867"/>
    <nd ref="649992865"/>
    <nd ref="1201375516"/>
    <nd ref="649992866"/>
    <nd ref="649992878"/>
    <nd ref="649992869"/>
    <tag k="highway" v="tertiary"/>
    <tag k="maxspeed" v="50"/>
    <tag k="maxspeed:source" v="default residential speed limit in Australia"/>
    <tag k="name" v="Church Street"/>
    <tag k="oneway" v="yes"/>
  </way>
  <way id="50977978" version="5" timestamp="2012-01-20T02:25:08Z" uid="147510" user="woodpeck_fixbot" changeset="10442677">
    <nd ref="649992731"/>
    <nd ref="649992752"/>
    <nd ref="649992753"/>
    <nd ref="649992848"/>
    <nd ref="649992849"/>
    <nd ref="649992854"/>
    <nd ref="649992867"/>
    <nd ref="649992865"/>
    <nd ref="1201375516"/>
    <nd ref="649992866"/>
    <nd ref="649992878"/>
    <nd ref="649992869"/>
    <tag k="highway" v="tertiary"/>
    <tag k="name" v="Church Street"/>
    <tag k="oneway" v="yes"/>
  </way>
  <way id="50977979" version="1" timestamp="2010-02-22T03:43:59Z" uid="30201" user="rrankin" changeset="3940724">
    <nd ref="263682861"/>
    <nd ref="645178004"/>
    <nd ref="645178008"/>
    <nd ref="649992853"/>
    <tag k="highway" v="secondary"/>
    <tag k="name" v="Keira Street"/>
    <tag k="source" v="survey"/>
  </way>
  <way id="50977979" version="2" timestamp="2010-09-19T12:54:53Z" uid="79475" user="AlexOnTheBus" changeset="5819484">
    <nd ref="263682861"/>
    <nd ref="645178004"/>
    <nd ref="645178008"/>
    <nd ref="649992853"/>
    <tag k="highway" v="tertiary"/>
    <tag k="name" v="Keira Street"/>
    <tag k="source" v="survey"/>
  </way>
  <way id="50977980" version="1" timestamp="2010-02-22T03:43:59Z" uid="30201" user="rrankin" changeset="3940724">
    <nd ref="274245254"/>
    <nd ref="649992725"/>
    <tag k="highway" v="residential"/>
    <tag k="name" v="Kenny Street"/>
  </way>
  <way id="50977980" version="2" timestamp="2010-07-07T19:56:40Z" uid="74617" user="JohnSmith" changeset="5161069">
    <nd ref="274245254"/>
    <nd ref="649992725"/>
    <tag k="highway" v="residential"/>
    <tag k="maxspeed" v="50"/>
    <tag k="maxspeed:source" v="default residential speed limit in Australia"/>
    <tag k="name" v="Kenny Street"/>
  </way>
  <way id="50977980" version="3" timestamp="2012-01-20T02:25:10Z" uid="147510" user="woodpeck_fixbot" changeset="10442677">
    <nd ref="274245254"/>
    <nd ref="649992725"/>
    <tag k="highway" v="residential"/>
    <tag k="name" v="Kenny Street"/>
  </way>
  <way id="50977981" version="1" timestamp="2010-02-22T03:43:59Z" uid="30201" user="rrankin" changeset="3940724">
    <nd ref="274245253"/>
    <nd ref="263682810"/>
    <tag k="highway" v="residential"/>
    <tag k="name" v="Atchison Street"/>
  </way>
  <way id="50977981" version="2" timestamp="2010-07-07T19:51:33Z" uid="74617" user="JohnSmith" changeset="5161069">
    <nd ref="274245253"/>
    <nd ref="263682810"/>
    <tag k="highway" v="residential"/>
    <tag k="maxspeed" v="50"/>
    <tag k="maxspeed:source" v="default residential speed limit in Australia"/>
    <tag k="name" v="Atchison Street"/>
  </way>
  <way id="50977981" version="3" timestamp="2012-01-20T02:25:13Z" uid="147510" user="woodpeck_fixbot" changeset="10442677">
    <nd ref="274245253"/>
    <nd ref="263682810"/>
    <tag k="highway" v="residential"/>
    <tag k="name" v="Atchison Street"/>
  </way>
  <way id="50977982" version="1" timestamp="2010-02-22T03:43:59Z" uid="30201" user="rrankin" changeset="3940724">
    <nd ref="649992712"/>
    <nd ref="263682965"/>
    <nd ref="248254312"/>
    <tag k="highway" v="secondary"/>
    <tag k="name" v="Auburn Street"/>
  </way>
  <way id="50977982" version="2" timestamp="2010-09-19T13:07:50Z" uid="79475" user="AlexOnTheBus" changeset="5819599">
    <nd ref="649992712"/>
    <nd ref="263682965"/>
    <nd ref="248254312"/>
    <tag k="highway" v="tertiary"/>
    <tag k="name" v="Auburn Street"/>
  </way>
  <way id="50977983" version="1" timestamp="2010-02-22T03:44:00Z" uid="30201" user="rrankin" changeset="3940724">
    <nd ref="34230370"/>
    <nd ref="649992700"/>
    <nd ref="34230373"/>
    <nd ref="649992677"/>
    <nd ref="34230376"/>
    <nd ref="36136313"/>
    <nd ref="108292115"/>
    <nd ref="637577518"/>
    <nd ref="34230379"/>
    <nd ref="637577524"/>
    <nd ref="637577527"/>
    <nd ref="34230381"/>
    <nd ref="460429800"/>
    <tag k="highway" v="primary"/>
    <tag k="maxspeed" v="80"/>
    <tag k="name" v="Springhill Road"/>
    <tag k="oneway" v="yes"/>
    <tag k="ref" v="S151"/>
    <tag k="source" v="survey"/>
  </way>
  <way id="50977983" version="2" timestamp="2010-04-04T18:48:19Z" uid="74617" user="JohnSmith" changeset="4325742">
    <nd ref="34230370"/>
    <nd ref="649992700"/>
    <nd ref="34230373"/>
    <nd ref="649992677"/>
    <nd ref="34230376"/>
    <nd ref="36136313"/>
    <nd ref="108292115"/>
    <nd ref="637577518"/>
    <nd ref="34230379"/>
    <nd ref="637577524"/>
    <nd ref="637577527"/>
    <nd ref="34230381"/>
    <nd ref="460429800"/>
    <tag k="highway" v="primary"/>
    <tag k="maxspeed" v="80"/>
    <tag k="name" v="Springhill Road"/>
    <tag k="oneway" v="yes"/>
    <tag k="source" v="survey"/>
  </way>
  <way id="50977983" version="3" timestamp="2010-08-12T06:52:44Z" uid="69319" user="Rhubarb" changeset="5469162">
    <nd ref="34230370"/>
    <nd ref="649992700"/>
    <nd ref="34230373"/>
    <nd ref="649992677"/>
    <nd ref="34230376"/>
    <nd ref="856273968"/>
    <nd ref="36136313"/>
    <nd ref="108292115"/>
    <nd ref="637577518"/>
    <nd ref="34230379"/>
    <nd ref="637577524"/>
    <nd ref="637577527"/>
    <nd ref="34230381"/>
    <nd ref="460429800"/>
    <tag k="highway" v="primary"/>
    <tag k="maxspeed" v="80"/>
    <tag k="name" v="Springhill Road"/>
    <tag k="oneway" v="yes"/>
    <tag k="source" v="survey"/>
  </way>
  <way id="50977983" version="4" timestamp="2010-11-25T02:37:52Z" uid="181013" user="Zhent" changeset="6451813">
    <nd ref="34230370"/>
    <nd ref="649992700"/>
    <nd ref="34230373"/>
    <nd ref="649992677"/>
    <nd ref="34230376"/>
    <nd ref="856273968"/>
    <nd ref="36136313"/>
    <nd ref="108292115"/>
    <nd ref="34230379"/>
    <nd ref="637577524"/>
    <nd ref="637577527"/>
    <nd ref="34230381"/>
    <nd ref="460429800"/>
    <tag k="highway" v="primary"/>
    <tag k="maxspeed" v="80"/>
    <tag k="name" v="Springhill Road"/>
    <tag k="oneway" v="yes"/>
    <tag k="source" v="survey"/>
  </way>
  <way id="50977983" version="5" timestamp="2011-03-25T09:25:55Z" uid="181013" user="Zhent" changeset="7663667">
    <nd ref="34230370"/>
    <nd ref="649992700"/>
    <nd ref="34230373"/>
    <nd ref="649992677"/>
    <nd ref="34230376"/>
    <nd ref="856273968"/>
    <nd ref="36136313"/>
    <nd ref="108292115"/>
    <nd ref="1217267486"/>
    <nd ref="1217266245"/>
    <nd ref="34230379"/>
    <nd ref="637577524"/>
    <nd ref="637577527"/>
    <nd ref="34230381"/>
    <nd ref="1217268281"/>
    <nd ref="460429800"/>
    <tag k="highway" v="primary"/>
    <tag k="maxspeed" v="80"/>
    <tag k="name" v="Springhill Road"/>
    <tag k="oneway" v="yes"/>
    <tag k="source" v="survey"/>
  </way>
  <way id="50977984" version="1" timestamp="2010-02-22T03:44:00Z" uid="30201" user="rrankin" changeset="3940724">
    <nd ref="649992700"/>
    <nd ref="649992705"/>
    <nd ref="649992687"/>
    <nd ref="649992688"/>
    <nd ref="649992690"/>
    <nd ref="649992628"/>
    <nd ref="649992617"/>
    <tag k="highway" v="unclassified"/>
    <tag k="source" v="nearmap"/>
  </way>
  <way id="50977984" version="2" timestamp="2010-08-12T06:52:47Z" uid="69319" user="Rhubarb" changeset="5469162">
    <nd ref="649992700"/>
    <nd ref="649992705"/>
    <nd ref="649992687"/>
    <nd ref="649992688"/>
    <nd ref="649992690"/>
    <nd ref="856273909"/>
    <nd ref="649992628"/>
    <nd ref="649992617"/>
    <tag k="highway" v="unclassified"/>
    <tag k="source" v="nearmap"/>
  </way>
  <way id="50977984" version="3" timestamp="2010-11-25T02:38:12Z" uid="181013" user="Zhent" changeset="6451813">
    <nd ref="649992700"/>
    <nd ref="649992705"/>
    <nd ref="649992687"/>
    <nd ref="649992688"/>
    <nd ref="649992690"/>
    <nd ref="856273909"/>
    <nd ref="649992628"/>
    <nd ref="1003315377"/>
    <nd ref="649992617"/>
    <tag k="highway" v="unclassified"/>
    <tag k="source" v="nearmap"/>
  </way>
  <way id="50977984" version="4" timestamp="2011-03-14T11:57:55Z" uid="3516" user="BiIbo" changeset="7555551">
    <nd ref="649992700"/>
    <nd ref="649992705"/>
    <nd ref="649992687"/>
    <nd ref="649992688"/>
    <nd ref="649992690"/>
    <nd ref="856273909"/>
    <nd ref="649992628"/>
    <nd ref="1003315298"/>
    <nd ref="649992617"/>
    <tag k="highway" v="unclassified"/>
    <tag k="source" v="nearmap"/>
  </way>
  <way id="50977985" version="1" timestamp="2010-02-22T03:44:00Z" uid="30201" user="rrankin" changeset="3940724">
    <nd ref="639108297"/>
    <nd ref="639108298"/>
    <nd ref="639108299"/>
    <nd ref="639108048"/>
    <tag k="bridge" v="yes"/>
    <tag k="layer" v="1"/>
    <tag k="railway" v="rail"/>
    <tag k="source" v="nearmap"/>
  </way>
  <way id="50977986" version="1" timestamp="2010-02-22T03:44:00Z" uid="30201" user="rrankin" changeset="3940724">
    <nd ref="639108095"/>
    <nd ref="639108101"/>
    <nd ref="639108108"/>
    <nd ref="639108114"/>
    <nd ref="639108115"/>
    <tag k="bridge" v="yes"/>
    <tag k="layer" v="1"/>
    <tag k="railway" v="rail"/>
  </way>
  <way id="50977986" version="2" timestamp="2010-05-13T17:12:45Z" uid="74617" user="JohnSmith" changeset="4687351">
    <nd ref="639108095"/>
    <nd ref="639108101"/>
    <nd ref="639108108"/>
    <nd ref="639108114"/>
    <nd ref="639108115"/>
    <tag k="bridge" v="yes"/>
    <tag k="layer" v="1"/>
    <tag k="railway" v="rail"/>
    <tag k="source" v="nearmap"/>
  </way>
  <way id="50977987" version="1" timestamp="2010-02-22T03:44:00Z" uid="30201" user="rrankin" changeset="3940724">
    <nd ref="649992663"/>
    <nd ref="649992654"/>
    <nd ref="649992656"/>
    <nd ref="649992659"/>
    <nd ref="649992660"/>
    <nd ref="649992601"/>
    <nd ref="649992602"/>
    <nd ref="649992603"/>
    <nd ref="649992599"/>
    <nd ref="649992600"/>
    <nd ref="649992597"/>
    <nd ref="649992598"/>
    <nd ref="649992595"/>
    <nd ref="649992596"/>
    <nd ref="649992594"/>
    <tag k="foot" v="yes"/>
    <tag k="highway" v="cycleway"/>
    <tag k="lcn" v="yes"/>
    <tag k="source" v="nearmap"/>
    <tag k="surface" v="paved"/>
  </way>
  <way id="50977987" version="2" timestamp="2010-02-22T07:34:31Z" uid="30201" user="rrankin" changeset="3941259">
    <nd ref="649992663"/>
    <nd ref="649992654"/>
    <nd ref="649992656"/>
    <nd ref="649992659"/>
    <nd ref="649992660"/>
    <nd ref="649992601"/>
    <nd ref="649992602"/>
    <nd ref="649992603"/>
    <nd ref="650024643"/>
    <nd ref="649992599"/>
    <nd ref="649992600"/>
    <nd ref="649992597"/>
    <nd ref="649992598"/>
    <nd ref="649992595"/>
    <nd ref="649992596"/>
    <nd ref="649992594"/>
    <tag k="foot" v="yes"/>
    <tag k="highway" v="cycleway"/>
    <tag k="lcn" v="yes"/>
    <tag k="source" v="nearmap"/>
    <tag k="surface" v="paved"/>
  </way>
  <way id="50977987" version="3" timestamp="2010-11-25T02:37:55Z" uid="181013" user="Zhent" changeset="6451813">
    <nd ref="649992663"/>
    <nd ref="649992654"/>
    <nd ref="649992656"/>
    <nd ref="649992659"/>
    <nd ref="649992660"/>
    <nd ref="649992601"/>
    <nd ref="649992602"/>
    <nd ref="649992603"/>
    <nd ref="649992599"/>
    <nd ref="649992600"/>
    <nd ref="649992597"/>
    <nd ref="649992598"/>
    <nd ref="649992595"/>
    <nd ref="649992596"/>
    <nd ref="649992594"/>
    <tag k="foot" v="yes"/>
    <tag k="highway" v="cycleway"/>
    <tag k="lcn" v="yes"/>
    <tag k="source" v="nearmap"/>
    <tag k="surface" v="paved"/>
  </way>
  <way id="50977987" version="4" timestamp="2011-06-03T08:45:58Z" uid="90960" user="peteonbike" changeset="8327163">
    <nd ref="649992663"/>
    <nd ref="649992654"/>
    <nd ref="649992656"/>
    <nd ref="649992659"/>
    <nd ref="649992660"/>
    <nd ref="649992601"/>
    <nd ref="649992602"/>
    <nd ref="649992603"/>
    <nd ref="649992599"/>
    <nd ref="649992600"/>
    <nd ref="649992597"/>
    <nd ref="649992598"/>
    <nd ref="649992595"/>
    <nd ref="649992596"/>
    <nd ref="649992594"/>
    <tag k="bicycle" v="yes"/>
    <tag k="cycleway" v="shared"/>
    <tag k="foot" v="yes"/>
    <tag k="highway" v="cycleway"/>
    <tag k="lcn" v="yes"/>
    <tag k="source" v="nearmap"/>
    <tag k="surface" v="paved"/>
  </way>
  <way id="50977988" version="1" timestamp="2010-02-22T03:44:00Z" uid="30201" user="rrankin" changeset="3940724">
    <nd ref="649992632"/>
    <nd ref="649992635"/>
    <nd ref="649992636"/>
    <nd ref="649992638"/>
    <nd ref="649992639"/>
    <nd ref="649992641"/>
    <nd ref="649992614"/>
    <nd ref="649992612"/>
    <nd ref="649992613"/>
    <nd ref="649992604"/>
    <nd ref="649992605"/>
    <nd ref="649992662"/>
    <tag k="foot" v="yes"/>
    <tag k="highway" v="cycleway"/>
    <tag k="lcn" v="yes"/>
    <tag k="source" v="nearmap"/>
    <tag k="surface" v="paved"/>
  </way>
  <way id="50977989" version="1" timestamp="2010-02-22T03:44:01Z" uid="30201" user="rrankin" changeset="3940724">
    <nd ref="649992784"/>
    <nd ref="649992785"/>
    <nd ref="649992770"/>
    <nd ref="649992771"/>
    <nd ref="649992703"/>
    <nd ref="649992704"/>
    <nd ref="649992705"/>
    <nd ref="649992691"/>
    <nd ref="649992693"/>
    <nd ref="649992694"/>
    <nd ref="649992695"/>
    <nd ref="649992696"/>
    <nd ref="649992697"/>
    <nd ref="649992681"/>
    <nd ref="649992682"/>
    <nd ref="649992665"/>
    <nd ref="649992666"/>
    <nd ref="649992668"/>
    <nd ref="649992670"/>
    <nd ref="649992672"/>
    <nd ref="649992673"/>
    <nd ref="649992676"/>
    <nd ref="649992630"/>
    <nd ref="649992643"/>
    <tag k="foot" v="yes"/>
    <tag k="highway" v="cycleway"/>
    <tag k="lcn" v="yes"/>
    <tag k="source" v="nearmap"/>
    <tag k="surface" v="paved"/>
  </way>
  <way id="50977989" version="2" timestamp="2010-08-19T13:44:45Z" uid="280711" user="kw_broadens" changeset="5535513">
    <nd ref="649992784"/>
    <nd ref="649992785"/>
    <nd ref="649992770"/>
    <nd ref="649992771"/>
    <nd ref="649992703"/>
    <nd ref="649992704"/>
    <nd ref="649992705"/>
    <nd ref="649992691"/>
    <nd ref="649992693"/>
    <nd ref="649992694"/>
    <nd ref="649992695"/>
    <nd ref="649992696"/>
    <nd ref="649992697"/>
    <nd ref="649992681"/>
    <nd ref="649992682"/>
    <nd ref="868556749"/>
    <nd ref="649992665"/>
    <nd ref="649992666"/>
    <nd ref="649992668"/>
    <nd ref="649992670"/>
    <nd ref="649992672"/>
    <nd ref="649992673"/>
    <nd ref="649992676"/>
    <nd ref="649992630"/>
    <nd ref="649992643"/>
    <tag k="foot" v="yes"/>
    <tag k="highway" v="cycleway"/>
    <tag k="lcn" v="yes"/>
    <tag k="source" v="nearmap"/>
    <tag k="surface" v="paved"/>
  </way>
  <way id="50977990" version="1" timestamp="2010-02-22T03:44:01Z" uid="30201" user="rrankin" changeset="3940724">
    <nd ref="639108048"/>
    <nd ref="639108300"/>
    <nd ref="638320099"/>
    <tag k="railway" v="rail"/>
    <tag k="source" v="nearmap"/>
  </way>
  <way id="50977990" version="2" timestamp="2010-05-13T17:12:52Z" uid="74617" user="JohnSmith" changeset="4687351"/>
  <way id="50977991" version="1" timestamp="2010-02-22T03:44:01Z" uid="30201" user="rrankin" changeset="3940724">
    <nd ref="639108115"/>
    <nd ref="639108124"/>
    <nd ref="638319421"/>
    <nd ref="638319425"/>
    <nd ref="638319429"/>
    <nd ref="638319433"/>
    <nd ref="638319439"/>
    <nd ref="638319444"/>
    <nd ref="638319447"/>
    <nd ref="638319452"/>
    <nd ref="638319456"/>
    <nd ref="638319458"/>
    <nd ref="638319460"/>
    <nd ref="638319462"/>
    <nd ref="638319466"/>
    <nd ref="638319469"/>
    <nd ref="638319473"/>
    <nd ref="638319478"/>
    <nd ref="638319482"/>
    <tag k="railway" v="rail"/>
  </way>
  <way id="50977991" version="2" timestamp="2010-05-13T17:12:28Z" uid="74617" user="JohnSmith" changeset="4687351">
    <nd ref="639108115"/>
    <nd ref="639108124"/>
    <nd ref="638319421"/>
    <nd ref="638319425"/>
    <nd ref="638319429"/>
    <nd ref="638319433"/>
    <nd ref="638319439"/>
    <nd ref="638319444"/>
    <nd ref="638319447"/>
    <nd ref="638319452"/>
    <nd ref="638319456"/>
    <nd ref="638319458"/>
    <nd ref="638319460"/>
    <nd ref="638319462"/>
    <nd ref="638319466"/>
    <nd ref="638319469"/>
    <nd ref="638319473"/>
    <nd ref="638319478"/>
    <nd ref="638319482"/>
    <tag k="railway" v="rail"/>
    <tag k="source" v="nearmap"/>
  </way>
  <way id="50977992" version="1" timestamp="2010-02-22T03:44:01Z" uid="30201" user="rrankin" changeset="3940724">
    <nd ref="649992619"/>
    <nd ref="649992615"/>
    <nd ref="649992611"/>
    <nd ref="649992652"/>
    <nd ref="649992645"/>
    <nd ref="649992648"/>
    <nd ref="649992650"/>
    <nd ref="649992606"/>
    <nd ref="649992607"/>
    <nd ref="649992608"/>
    <nd ref="649992609"/>
    <nd ref="649992610"/>
    <nd ref="649992616"/>
    <nd ref="649992615"/>
    <tag k="highway" v="unclassified"/>
    <tag k="source" v="nearmap"/>
  </way>
  <way id="50977992" version="2" timestamp="2011-03-26T04:45:27Z" uid="181013" user="Zhent" changeset="7672059">
    <nd ref="649992619"/>
    <nd ref="649992615"/>
    <nd ref="1218538923"/>
    <nd ref="1218538690"/>
    <nd ref="649992611"/>
    <nd ref="1218538807"/>
    <nd ref="1218538751"/>
    <nd ref="1218538899"/>
    <nd ref="649992652"/>
    <nd ref="1218538648"/>
    <nd ref="649992645"/>
    <nd ref="1218538834"/>
    <nd ref="649992648"/>
    <nd ref="649992650"/>
    <nd ref="649992606"/>
    <nd ref="649992607"/>
    <nd ref="649992608"/>
    <nd ref="649992609"/>
    <nd ref="649992610"/>
    <nd ref="649992616"/>
    <nd ref="649992615"/>
    <tag k="highway" v="unclassified"/>
    <tag k="source" v="nearmap"/>
  </way>
  <way id="50977993" version="1" timestamp="2010-02-22T03:44:01Z" uid="30201" user="rrankin" changeset="3940724">
    <nd ref="649992617"/>
    <nd ref="649992619"/>
    <tag k="bridge" v="yes"/>
    <tag k="highway" v="unclassified"/>
    <tag k="layer" v="1"/>
    <tag k="source" v="nearmap"/>
  </way>
  <way id="50977994" version="1" timestamp="2010-02-22T03:44:01Z" uid="30201" user="rrankin" changeset="3940724">
    <nd ref="649992643"/>
    <nd ref="649992632"/>
    <tag k="bridge" v="yes"/>
    <tag k="foot" v="yes"/>
    <tag k="highway" v="cycleway"/>
    <tag k="layer" v="1"/>
    <tag k="lcn" v="yes"/>
    <tag k="source" v="nearmap"/>
    <tag k="surface" v="paved"/>
  </way>
  <way id="50977995" version="1" timestamp="2010-02-22T03:44:01Z" uid="30201" user="rrankin" changeset="3940724">
    <nd ref="275493880"/>
    <nd ref="263682961"/>
    <tag k="highway" v="residential"/>
    <tag k="name" v="Kenny Street"/>
  </way>
  <way id="50977995" version="2" timestamp="2010-07-07T19:49:38Z" uid="74617" user="JohnSmith" changeset="5161069">
    <nd ref="275493880"/>
    <nd ref="263682961"/>
    <tag k="highway" v="residential"/>
    <tag k="maxspeed" v="50"/>
    <tag k="maxspeed:source" v="default residential speed limit in Australia"/>
    <tag k="name" v="Kenny Street"/>
  </way>
  <way id="50977995" version="3" timestamp="2010-08-12T06:52:45Z" uid="69319" user="Rhubarb" changeset="5469162">
    <nd ref="275493880"/>
    <nd ref="856273838"/>
    <nd ref="856273975"/>
    <nd ref="263682961"/>
    <tag k="highway" v="residential"/>
    <tag k="maxspeed" v="50"/>
    <tag k="maxspeed:source" v="default residential speed limit in Australia"/>
    <tag k="name" v="Kenny Street"/>
  </way>
  <way id="50977995" version="4" timestamp="2012-01-20T02:25:14Z" uid="147510" user="woodpeck_fixbot" changeset="10442677">
    <nd ref="275493880"/>
    <nd ref="856273838"/>
    <nd ref="856273975"/>
    <nd ref="263682961"/>
    <tag k="highway" v="residential"/>
    <tag k="name" v="Kenny Street"/>
  </way>
  <way id="50977996" version="1" timestamp="2010-02-22T03:44:02Z" uid="30201" user="rrankin" changeset="3940724">
    <nd ref="34230479"/>
    <nd ref="649992768"/>
    <nd ref="649992772"/>
    <nd ref="649992773"/>
    <nd ref="649992783"/>
    <nd ref="649992781"/>
    <tag k="highway" v="primary"/>
    <tag k="maxspeed" v="60"/>
    <tag k="name" v="Springhill Road"/>
    <tag k="oneway" v="yes"/>
    <tag k="ref" v="S151"/>
    <tag k="source" v="survey"/>
  </way>
  <way id="50977996" version="2" timestamp="2010-04-04T18:48:21Z" uid="74617" user="JohnSmith" changeset="4325742">
    <nd ref="34230479"/>
    <nd ref="649992768"/>
    <nd ref="649992772"/>
    <nd ref="649992773"/>
    <nd ref="649992783"/>
    <nd ref="649992781"/>
    <tag k="highway" v="primary"/>
    <tag k="maxspeed" v="60"/>
    <tag k="name" v="Springhill Road"/>
    <tag k="oneway" v="yes"/>
    <tag k="source" v="survey"/>
  </way>
  <way id="50977997" version="1" timestamp="2010-02-22T03:44:02Z" uid="30201" user="rrankin" changeset="3940724">
    <nd ref="649992700"/>
    <nd ref="649992701"/>
    <nd ref="649992702"/>
    <nd ref="34230479"/>
    <tag k="highway" v="primary_link"/>
    <tag k="oneway" v="yes"/>
    <tag k="source" v="nearmap"/>
  </way>
  <way id="50977998" version="1" timestamp="2010-02-22T03:44:02Z" uid="30201" user="rrankin" changeset="3940724">
    <nd ref="645176496"/>
    <nd ref="645176497"/>
    <nd ref="645176498"/>
    <tag k="highway" v="residential"/>
    <tag k="maxspeed" v="50"/>
    <tag k="name" v="Glebe Street"/>
    <tag k="source" v="nearmap"/>
  </way>
  <way id="50977999" version="1" timestamp="2010-02-22T03:44:02Z" uid="30201" user="rrankin" changeset="3940724">
    <nd ref="649992684"/>
    <nd ref="649992685"/>
    <nd ref="649992699"/>
    <nd ref="649992700"/>
    <tag k="highway" v="primary_link"/>
    <tag k="oneway" v="yes"/>
    <tag k="source" v="nearmap"/>
  </way>
</osm>
