<?xml version='1.0' encoding='UTF-8'?>
<osm version="0.6" generator="libosmium/2.20.0">
  <way id="50999091" version="2" timestamp="2010-07-09T03:09:42Z" uid="74617" user="JohnSmith" changeset="5170739">
    <nd ref="584539195"/>
    <nd ref="584539184"/>
    <nd ref="584539165"/>
    <tag k="highway" v="residential"/>
    <tag k="maxspeed" v="50"/>
    <tag k="maxspeed:source" v="default residential speed limit in Australia"/>
    <tag k="name" v="The Gateway"/>
    <tag k="oneway" v="yes"/>
    <tag k="source" v="survey"/>
  </way>
  <way id="50999091" version="3" timestamp="2012-01-20T02:29:18Z" uid="147510" user="woodpeck_fixbot" changeset="10442677">
    <nd ref="584539195"/>
    <nd ref="584539184"/>
    <nd ref="584539165"/>
    <tag k="highway" v="residential"/>
    <tag k="name" v="The Gateway"/>
    <tag k="oneway" v="yes"/>
    <tag k="source" v="survey"/>
  </way>
  <way id="50999098" version="2" timestamp="2010-07-09T03:09:23Z" uid="74617" user="JohnSmith" changeset="5170739">
    <nd ref="584539254"/>
    <nd ref="387253576"/>
    <nd ref="584539255"/>
    <nd ref="387251286"/>
    <tag k="highway" v="residential"/>
    <tag k="maxspeed" v="50"/>
    <tag k="maxspeed:source" v="default residential speed limit in Australia"/>
    <tag k="name" v="King Street"/>
  </way>
  <way id="50999098" version="3" timestamp="2012-01-20T02:29:19Z" uid="147510" user="woodpeck_fixbot" changeset="10442677">
    <nd ref="584539254"/>
    <nd ref="387253576"/>
    <nd ref="584539255"/>
    <nd ref="387251286"/>
    <tag k="highway" v="residential"/>
    <tag k="name" v="King Street"/>
  </way>
  <way id="50999113" version="2" timestamp="2010-07-09T03:09:22Z" uid="74617" user="JohnSmith" changeset="5170739">
    <nd ref="387245710"/>
    <nd ref="591680806"/>
    <nd ref="360604916"/>
    <nd ref="585755570"/>
    <nd ref="387248312"/>
    <nd ref="584552221"/>
    <nd ref="387248313"/>
    <nd ref="584552196"/>
    <nd ref="387253452"/>
    <nd ref="387248314"/>
    <nd ref="387248315"/>
    <nd ref="387248316"/>
    <nd ref="584552208"/>
    <nd ref="584552206"/>
    <nd ref="387251081"/>
    <nd ref="387248317"/>
    <tag k="cycleway" v="lane"/>
    <tag k="highway" v="residential"/>
    <tag k="maxspeed" v="50"/>
    <tag k="maxspeed:source" v="default residential speed limit in Australia"/>
    <tag k="name" v="Dallas Drive"/>
    <tag k="source" v="nearmap"/>
  </way>
  <way id="50999113" version="3" timestamp="2012-01-20T02:29:21Z" uid="147510" user="woodpeck_fixbot" changeset="10442677">
    <nd ref="387245710"/>
    <nd ref="591680806"/>
    <nd ref="360604916"/>
    <nd ref="585755570"/>
    <nd ref="387248312"/>
    <nd ref="584552221"/>
    <nd ref="387248313"/>
    <nd ref="584552196"/>
    <nd ref="387253452"/>
    <nd ref="387248314"/>
    <nd ref="387248315"/>
    <nd ref="387248316"/>
    <nd ref="584552208"/>
    <nd ref="584552206"/>
    <nd ref="387251081"/>
    <nd ref="387248317"/>
    <tag k="cycleway" v="lane"/>
    <tag k="highway" v="residential"/>
    <tag k="name" v="Dallas Drive"/>
    <tag k="source" v="nearmap"/>
  </way>
  <way id="50999552" version="2" timestamp="2010-07-09T03:16:11Z" uid="74617" user="JohnSmith" changeset="5170739">
    <nd ref="583542316"/>
    <nd ref="583542318"/>
    <nd ref="583542310"/>
    <nd ref="583542344"/>
    <nd ref="583542343"/>
    <tag k="highway" v="residential"/>
    <tag k="maxspeed" v="50"/>
    <tag k="maxspeed:source" v="default residential speed limit in Australia"/>
    <tag k="name" v="Gentles Avenue"/>
    <tag k="source" v="nearmap"/>
  </way>
  <way id="50999552" version="3" timestamp="2012-01-20T02:29:23Z" uid="147510" user="woodpeck_fixbot" changeset="10442677">
    <nd ref="583542316"/>
    <nd ref="583542318"/>
    <nd ref="583542310"/>
    <nd ref="583542344"/>
    <nd ref="583542343"/>
    <tag k="highway" v="residential"/>
    <tag k="name" v="Gentles Avenue"/>
    <tag k="source" v="nearmap"/>
  </way>
</osm>
