<?xml version='1.0' encoding='UTF-8'?>
<osm version="0.6" generator="libosmium/2.20.0">
  <way id="5114016" version="6" timestamp="2010-06-20T15:01:58Z" uid="20587" user="balrog-kun" changeset="5033732">
    <nd ref="35150288"/>
    <nd ref="253168190"/>
    <nd ref="511484827"/>
    <tag k="highway" v="primary_link"/>
    <tag k="maxheight" v="4"/>
    <tag k="name" v="Aleja Prymasa Tysiąclecia"/>
    <tag k="oneway" v="yes"/>
    <tag k="ref" v="8"/>
  </way>
  <way id="5114017" version="5" timestamp="2008-10-05T21:13:14Z" uid="30632" user="antblant" changeset="84131">
    <nd ref="32049473"/>
    <nd ref="35150315"/>
    <nd ref="253168121"/>
    <nd ref="27167073"/>
    <tag k="created_by" v="Potlatch 0.10c"/>
    <tag k="highway" v="trunk_link"/>
    <tag k="oneway" v="yes"/>
    <tag k="ref" v="2"/>
  </way>
  <way id="5114017" version="6" timestamp="2009-01-31T12:09:10Z" uid="91921" user="kwiecinski" changeset="860861">
    <nd ref="32049473"/>
    <nd ref="35150315"/>
    <nd ref="253168121"/>
    <nd ref="27167073"/>
    <tag k="created_by" v="Merkaartor 0.12"/>
    <tag k="highway" v="primary_link"/>
    <tag k="oneway" v="yes"/>
    <tag k="ref" v="2"/>
  </way>
  <way id="5114017" version="7" timestamp="2009-02-14T12:39:35Z" uid="9176" user="Maarten Deen" changeset="428540">
    <nd ref="32049473"/>
    <nd ref="35150315"/>
    <nd ref="253168121"/>
    <nd ref="27167073"/>
    <tag k="created_by" v="Merkaartor 0.12"/>
    <tag k="highway" v="primary_link"/>
    <tag k="int_ref" v="E 30"/>
    <tag k="oneway" v="yes"/>
    <tag k="ref" v="2"/>
  </way>
  <way id="5114017" version="8" timestamp="2009-02-15T13:13:55Z" uid="20587" user="balrog-kun" changeset="448483">
    <nd ref="32049473"/>
    <nd ref="35150315"/>
    <nd ref="253168121"/>
    <nd ref="27167073"/>
    <tag k="created_by" v="Merkaartor 0.12"/>
    <tag k="highway" v="primary_link"/>
    <tag k="name" v="Rondo Zesłańców Syberyjskich"/>
    <tag k="oneway" v="yes"/>
    <tag k="ref" v="2"/>
    <tag k="wikipedia" v="Rondo of Polish exiles to Siberia"/>
  </way>
  <way id="5114017" version="9" timestamp="2009-02-22T16:59:04Z" uid="9176" user="Maarten Deen" changeset="611905">
    <nd ref="32049473"/>
    <nd ref="35150315"/>
    <nd ref="253168121"/>
    <nd ref="27167073"/>
    <tag k="created_by" v="Merkaartor 0.12"/>
    <tag k="highway" v="primary_link"/>
    <tag k="int_ref" v="E 30"/>
    <tag k="name" v="Rondo Zesłańców Syberyjskich"/>
    <tag k="oneway" v="yes"/>
    <tag k="ref" v="2"/>
    <tag k="wikipedia" v="Rondo of Polish exiles to Siberia"/>
  </way>
  <way id="5114017" version="10" timestamp="2010-02-22T17:31:53Z" uid="20587" user="balrog-kun" changeset="3945448">
    <nd ref="32049473"/>
    <nd ref="35150315"/>
    <nd ref="253168121"/>
    <nd ref="27167073"/>
    <tag k="highway" v="primary_link"/>
    <tag k="int_ref" v="E 30"/>
    <tag k="maxweight" v="10"/>
    <tag k="name" v="Rondo Zesłańców Syberyjskich"/>
    <tag k="oneway" v="yes"/>
    <tag k="ref" v="2"/>
    <tag k="wikipedia" v="Rondo of Polish exiles to Siberia"/>
  </way>
  <way id="5114017" version="11" timestamp="2011-05-03T19:48:00Z" uid="98542" user="wajak" changeset="8043116">
    <nd ref="32049473"/>
    <nd ref="1271426981"/>
    <nd ref="35150315"/>
    <nd ref="253168121"/>
    <nd ref="27167073"/>
    <tag k="highway" v="primary_link"/>
    <tag k="int_ref" v="E 30"/>
    <tag k="maxweight" v="10"/>
    <tag k="name" v="Rondo Zesłańców Syberyjskich"/>
    <tag k="oneway" v="yes"/>
    <tag k="ref" v="2"/>
    <tag k="wikipedia" v="Rondo of Polish exiles to Siberia"/>
  </way>
  <way id="5114017" version="12" timestamp="2011-11-23T18:53:31Z" uid="477744" user="hormel" changeset="9924583">
    <nd ref="32049473"/>
    <nd ref="1514451070"/>
    <nd ref="1271426981"/>
    <nd ref="35150315"/>
    <nd ref="253168121"/>
    <nd ref="27167073"/>
    <tag k="highway" v="primary_link"/>
    <tag k="int_ref" v="E 30"/>
    <tag k="maxweight" v="10"/>
    <tag k="name" v="Rondo Zesłańców Syberyjskich"/>
    <tag k="oneway" v="yes"/>
    <tag k="ref" v="2"/>
    <tag k="wikipedia" v="Rondo of Polish exiles to Siberia"/>
  </way>
  <way id="5114018" version="6" timestamp="2009-02-12T19:39:53Z" uid="20587" user="balrog-kun" changeset="373828">
    <nd ref="27167150"/>
    <nd ref="253168573"/>
    <nd ref="253168577"/>
    <nd ref="27167149"/>
    <tag k="created_by" v="Merkaartor 0.12"/>
    <tag k="highway" v="primary_link"/>
    <tag k="name" v="Rondo Zesłańców Syberyjskich"/>
    <tag k="oneway" v="yes"/>
  </way>
  <way id="5114018" version="7" timestamp="2009-02-15T13:13:55Z" uid="20587" user="balrog-kun" changeset="448483">
    <nd ref="27167150"/>
    <nd ref="253168573"/>
    <nd ref="253168577"/>
    <nd ref="27167149"/>
    <tag k="created_by" v="Merkaartor 0.12"/>
    <tag k="highway" v="primary_link"/>
    <tag k="name" v="Rondo Zesłańców Syberyjskich"/>
    <tag k="oneway" v="yes"/>
    <tag k="wikipedia" v="Rondo of Polish exiles to Siberia"/>
  </way>
  <way id="5114018" version="8" timestamp="2011-11-23T19:27:32Z" uid="477744" user="hormel" changeset="9925188">
    <nd ref="27167150"/>
    <nd ref="253168573"/>
    <nd ref="1514480643"/>
    <nd ref="253168577"/>
    <nd ref="27167149"/>
    <tag k="highway" v="primary_link"/>
    <tag k="name" v="Rondo Zesłańców Syberyjskich"/>
    <tag k="oneway" v="yes"/>
    <tag k="wikipedia" v="Rondo of Polish exiles to Siberia"/>
  </way>
  <way id="5114018" version="9" timestamp="2011-11-24T01:35:00Z" uid="477744" user="hormel" changeset="9928481">
    <nd ref="27167150"/>
    <nd ref="253168573"/>
    <nd ref="1514480643"/>
    <nd ref="253168577"/>
    <nd ref="27167149"/>
    <tag k="highway" v="secondary_link"/>
    <tag k="name" v="Rondo Zesłańców Syberyjskich"/>
    <tag k="oneway" v="yes"/>
    <tag k="wikipedia" v="Rondo of Polish exiles to Siberia"/>
  </way>
  <way id="5114019" version="6" timestamp="2008-10-05T21:11:37Z" uid="30632" user="antblant" changeset="84131">
    <nd ref="27167122"/>
    <nd ref="253168326"/>
    <nd ref="35150322"/>
    <nd ref="251283184"/>
    <nd ref="251283185"/>
    <nd ref="251283186"/>
    <nd ref="251283187"/>
    <nd ref="251283173"/>
    <tag k="created_by" v="Potlatch 0.10c"/>
    <tag k="highway" v="trunk_link"/>
    <tag k="int_ref" v=""/>
    <tag k="oneway" v="yes"/>
    <tag k="ref" v="2"/>
  </way>
  <way id="5114019" version="7" timestamp="2008-10-08T02:50:03Z" uid="20587" user="balrog-kun" changeset="168522">
    <nd ref="27167122"/>
    <nd ref="253168326"/>
    <nd ref="302981014"/>
    <nd ref="35150322"/>
    <nd ref="251283184"/>
    <nd ref="251283185"/>
    <nd ref="251283186"/>
    <nd ref="251283187"/>
    <nd ref="251283173"/>
    <tag k="created_by" v="Potlatch 0.10c"/>
    <tag k="highway" v="trunk_link"/>
    <tag k="int_ref" v=""/>
    <tag k="oneway" v="yes"/>
    <tag k="ref" v="2"/>
  </way>
  <way id="5114019" version="8" timestamp="2008-10-10T14:14:40Z" uid="70696" user="xybot" changeset="238039">
    <nd ref="27167122"/>
    <nd ref="253168326"/>
    <nd ref="302981014"/>
    <nd ref="35150322"/>
    <nd ref="251283184"/>
    <nd ref="251283185"/>
    <nd ref="251283186"/>
    <nd ref="251283187"/>
    <nd ref="251283173"/>
    <tag k="created_by" v="xybot"/>
    <tag k="highway" v="trunk_link"/>
    <tag k="oneway" v="yes"/>
    <tag k="ref" v="2"/>
  </way>
  <way id="5114019" version="9" timestamp="2009-01-31T12:09:08Z" uid="91921" user="kwiecinski" changeset="860861">
    <nd ref="27167122"/>
    <nd ref="253168326"/>
    <nd ref="302981014"/>
    <nd ref="35150322"/>
    <nd ref="251283184"/>
    <nd ref="251283185"/>
    <nd ref="251283186"/>
    <nd ref="251283187"/>
    <nd ref="251283173"/>
    <tag k="created_by" v="Merkaartor 0.12"/>
    <tag k="highway" v="primary_link"/>
    <tag k="oneway" v="yes"/>
    <tag k="ref" v="2"/>
  </way>
  <way id="5114019" version="10" timestamp="2009-02-14T12:39:36Z" uid="9176" user="Maarten Deen" changeset="428540">
    <nd ref="27167122"/>
    <nd ref="253168326"/>
    <nd ref="302981014"/>
    <nd ref="35150322"/>
    <nd ref="251283184"/>
    <nd ref="251283185"/>
    <nd ref="251283186"/>
    <nd ref="251283187"/>
    <nd ref="251283173"/>
    <tag k="created_by" v="Merkaartor 0.12"/>
    <tag k="highway" v="primary_link"/>
    <tag k="int_ref" v="E 30"/>
    <tag k="oneway" v="yes"/>
    <tag k="ref" v="2"/>
  </way>
  <way id="5114019" version="11" timestamp="2009-02-22T18:47:59Z" uid="59223" user="Briquollo" changeset="619023">
    <nd ref="27167122"/>
    <nd ref="302981014"/>
    <nd ref="35150322"/>
    <nd ref="251283186"/>
    <nd ref="251283173"/>
    <tag k="created_by" v="Merkaartor 0.12"/>
    <tag k="highway" v="primary_link"/>
    <tag k="int_ref" v="E 30"/>
    <tag k="oneway" v="yes"/>
    <tag k="ref" v="2"/>
  </way>
  <way id="5114019" version="12" timestamp="2010-02-22T17:31:53Z" uid="20587" user="balrog-kun" changeset="3945448">
    <nd ref="27167122"/>
    <nd ref="302981014"/>
    <nd ref="35150322"/>
    <nd ref="251283186"/>
    <nd ref="251283173"/>
    <tag k="highway" v="primary_link"/>
    <tag k="int_ref" v="E 30"/>
    <tag k="maxweight" v="10"/>
    <tag k="oneway" v="yes"/>
    <tag k="ref" v="2"/>
  </way>
  <way id="5114019" version="13" timestamp="2011-07-15T11:25:44Z" uid="487944" user="Voitcus" changeset="8730280">
    <nd ref="27167122"/>
    <nd ref="302981014"/>
    <nd ref="35150322"/>
    <tag k="highway" v="primary_link"/>
    <tag k="int_ref" v="E 30"/>
    <tag k="maxweight" v="10"/>
    <tag k="oneway" v="yes"/>
    <tag k="ref" v="2"/>
  </way>
  <way id="5114019" version="14" timestamp="2012-03-11T12:34:27Z" uid="98542" user="wajak" changeset="10942248">
    <nd ref="27167122"/>
    <nd ref="302981014"/>
    <tag k="highway" v="primary_link"/>
    <tag k="int_ref" v="E 30"/>
    <tag k="maxweight" v="10"/>
    <tag k="oneway" v="yes"/>
    <tag k="ref" v="2"/>
  </way>
  <way id="5114034" version="5" timestamp="2009-09-30T11:57:23Z" uid="36809" user="pfoten_weg_!_" changeset="2687494">
    <nd ref="35130234"/>
    <nd ref="35154528"/>
    <nd ref="35154530"/>
    <nd ref="262887458"/>
    <tag k="highway" v="unclassified"/>
    <tag k="tracktype" v="grade3"/>
  </way>
  <way id="5114130" version="6" timestamp="2009-09-30T11:57:56Z" uid="36809" user="pfoten_weg_!_" changeset="2687494">
    <nd ref="35154570"/>
    <nd ref="35157241"/>
    <nd ref="35157248"/>
    <nd ref="35157256"/>
    <nd ref="35157260"/>
    <nd ref="35157268"/>
    <nd ref="35157277"/>
    <nd ref="35157281"/>
    <nd ref="35157288"/>
    <nd ref="35157295"/>
    <nd ref="35157299"/>
    <nd ref="35157307"/>
    <nd ref="35157311"/>
    <nd ref="35157313"/>
    <nd ref="35157317"/>
    <nd ref="35157324"/>
    <nd ref="35157332"/>
    <nd ref="35157338"/>
    <nd ref="35157347"/>
    <nd ref="35157350"/>
    <nd ref="35157354"/>
    <nd ref="35157358"/>
    <nd ref="461949038"/>
    <nd ref="35157366"/>
    <nd ref="35157369"/>
    <nd ref="461948462"/>
    <nd ref="35157377"/>
    <nd ref="258874098"/>
    <nd ref="35157382"/>
    <nd ref="35157386"/>
    <nd ref="35157389"/>
    <nd ref="35151558"/>
    <tag k="highway" v="track"/>
    <tag k="tracktype" v="grade4"/>
  </way>
  <way id="5114130" version="7" timestamp="2010-12-31T17:00:05Z" uid="72719" user="metaroll" changeset="6820829">
    <nd ref="35154570"/>
    <nd ref="35157241"/>
    <nd ref="35157248"/>
    <nd ref="35157256"/>
    <nd ref="35157260"/>
    <nd ref="35157268"/>
    <nd ref="35157277"/>
    <nd ref="35157281"/>
    <nd ref="35157288"/>
    <nd ref="35157295"/>
    <nd ref="35157299"/>
    <nd ref="35157307"/>
    <nd ref="35157311"/>
    <nd ref="35157313"/>
    <nd ref="35157317"/>
    <tag k="highway" v="track"/>
    <tag k="tracktype" v="grade4"/>
  </way>
  <way id="5114130" version="8" timestamp="2011-06-16T22:18:42Z" uid="37197" user="kernl" changeset="8460780">
    <nd ref="35154570"/>
    <nd ref="35157241"/>
    <nd ref="35157248"/>
    <nd ref="35157256"/>
    <nd ref="1327993983"/>
    <nd ref="35157260"/>
    <nd ref="1327993984"/>
    <nd ref="35157268"/>
    <nd ref="35157277"/>
    <nd ref="35157281"/>
    <nd ref="35157288"/>
    <nd ref="35157295"/>
    <nd ref="35157299"/>
    <nd ref="35157307"/>
    <nd ref="35157311"/>
    <nd ref="35157313"/>
    <nd ref="35157317"/>
    <tag k="highway" v="track"/>
    <tag k="tracktype" v="grade4"/>
  </way>
  <way id="5114135" version="9" timestamp="2009-10-20T13:06:22Z" uid="36809" user="pfoten_weg_!_" changeset="2902657">
    <nd ref="9015390"/>
    <nd ref="371311702"/>
    <nd ref="493483551"/>
    <nd ref="35156993"/>
    <nd ref="493483553"/>
    <nd ref="35156989"/>
    <nd ref="493483555"/>
    <nd ref="35156987"/>
    <nd ref="333047498"/>
    <nd ref="493483557"/>
    <nd ref="35156982"/>
    <nd ref="35156979"/>
    <tag k="highway" v="primary_link"/>
    <tag k="oneway" v="yes"/>
  </way>
  <way id="5114135" version="10" timestamp="2011-01-23T12:27:53Z" uid="42393" user="mawi42" changeset="7060457">
    <nd ref="9015390"/>
    <nd ref="371311702"/>
    <nd ref="35156993"/>
    <nd ref="35156989"/>
    <nd ref="35156987"/>
    <nd ref="333047498"/>
    <nd ref="493483557"/>
    <nd ref="35156982"/>
    <nd ref="35156979"/>
    <tag k="highway" v="primary_link"/>
    <tag k="oneway" v="yes"/>
  </way>
  <way id="5114137" version="15" timestamp="2009-10-02T20:04:23Z" uid="86259" user="hasse_osm_korinthenkacker" changeset="2717024">
    <nd ref="7421871"/>
    <nd ref="300500057"/>
    <nd ref="12778218"/>
    <nd ref="300500058"/>
    <nd ref="7421872"/>
    <nd ref="300500059"/>
    <nd ref="12778217"/>
    <nd ref="300500060"/>
    <nd ref="7421873"/>
    <nd ref="428019908"/>
    <nd ref="472781575"/>
    <nd ref="35157166"/>
    <tag k="highway" v="primary_link"/>
  </way>
  <way id="5114224" version="4" timestamp="2009-05-26T17:59:08Z" uid="20587" user="balrog-kun" changeset="1327867">
    <nd ref="35159212"/>
    <nd ref="35159211"/>
    <nd ref="35159235"/>
    <nd ref="35159210"/>
    <nd ref="35159213"/>
    <nd ref="35159212"/>
    <tag k="created_by" v="JOSM"/>
    <tag k="name" v="Glinianka Sznajdera"/>
    <tag k="natural" v="water"/>
    <tag k="note" v="in MSI: Glinianka Sznajdra"/>
  </way>
  <way id="5114224" version="5" timestamp="2009-05-31T14:33:31Z" uid="20587" user="balrog-kun" changeset="1369651">
    <nd ref="35159212"/>
    <nd ref="413497789"/>
    <nd ref="35159211"/>
    <nd ref="413497788"/>
    <nd ref="413497787"/>
    <nd ref="413497786"/>
    <nd ref="413497785"/>
    <nd ref="413497784"/>
    <nd ref="35159235"/>
    <nd ref="413497783"/>
    <nd ref="413497746"/>
    <nd ref="413497782"/>
    <nd ref="413497781"/>
    <nd ref="413497780"/>
    <nd ref="413497744"/>
    <nd ref="413497745"/>
    <nd ref="413497747"/>
    <nd ref="35159210"/>
    <nd ref="413497773"/>
    <nd ref="413497770"/>
    <nd ref="413497771"/>
    <nd ref="413497768"/>
    <nd ref="413497769"/>
    <nd ref="413497766"/>
    <nd ref="413497767"/>
    <nd ref="413497764"/>
    <nd ref="413497765"/>
    <nd ref="413497795"/>
    <nd ref="35159213"/>
    <nd ref="413497794"/>
    <nd ref="413497793"/>
    <nd ref="413497792"/>
    <nd ref="413497791"/>
    <nd ref="413497790"/>
    <nd ref="35159212"/>
    <tag k="created_by" v="JOSM"/>
    <tag k="name" v="Glinianka Sznajdera"/>
    <tag k="natural" v="water"/>
    <tag k="note" v="in MSI: Glinianka Sznajdra"/>
  </way>
  <way id="5114225" version="4" timestamp="2009-05-26T17:59:08Z" uid="20587" user="balrog-kun" changeset="1327867">
    <nd ref="35159216"/>
    <nd ref="35159215"/>
    <nd ref="35159237"/>
    <nd ref="35159214"/>
    <nd ref="35159216"/>
    <tag k="created_by" v="JOSM"/>
    <tag k="name" v="Glinianki Jelonek"/>
    <tag k="natural" v="water"/>
  </way>
  <way id="5114225" version="5" timestamp="2009-05-31T14:33:32Z" uid="20587" user="balrog-kun" changeset="1369651">
    <nd ref="35159216"/>
    <nd ref="413497874"/>
    <nd ref="35159214"/>
    <nd ref="413497875"/>
    <nd ref="413497872"/>
    <nd ref="35159237"/>
    <nd ref="413497873"/>
    <nd ref="35159215"/>
    <nd ref="413497868"/>
    <nd ref="413497869"/>
    <nd ref="35159216"/>
    <tag k="created_by" v="JOSM"/>
    <tag k="name" v="Glinianki Jelonek"/>
    <tag k="natural" v="water"/>
  </way>
  <way id="5114226" version="2" timestamp="2009-05-26T17:59:07Z" uid="20587" user="balrog-kun" changeset="1327867">
    <nd ref="35159231"/>
    <nd ref="411512836"/>
    <nd ref="411512835"/>
    <nd ref="411512834"/>
    <nd ref="35159233"/>
    <nd ref="35159227"/>
    <nd ref="411512833"/>
    <nd ref="411512832"/>
    <nd ref="35159229"/>
    <nd ref="411512831"/>
    <nd ref="411512830"/>
    <nd ref="35159231"/>
    <tag k="created_by" v="JOSM"/>
    <tag k="landuse" v="reservoir"/>
    <tag k="name" v="Glinianki Jelonek"/>
  </way>
  <way id="5114227" version="2" timestamp="2009-05-26T17:59:07Z" uid="20587" user="balrog-kun" changeset="1327867">
    <nd ref="35159225"/>
    <nd ref="35159218"/>
    <nd ref="35159221"/>
    <nd ref="35159223"/>
    <nd ref="35159225"/>
    <tag k="created_by" v="JOSM"/>
    <tag k="landuse" v="reservoir"/>
    <tag k="name" v="Glinianki Jelonek"/>
  </way>
  <way id="5114227" version="3" timestamp="2009-05-31T14:33:31Z" uid="20587" user="balrog-kun" changeset="1369651">
    <nd ref="413497887"/>
    <nd ref="413497886"/>
    <nd ref="35159218"/>
    <nd ref="413497885"/>
    <nd ref="413497884"/>
    <nd ref="35159221"/>
    <nd ref="35159223"/>
    <nd ref="413497887"/>
    <tag k="created_by" v="JOSM"/>
    <tag k="landuse" v="reservoir"/>
    <tag k="name" v="Glinianki Jelonek"/>
  </way>
  <way id="5114229" version="4" timestamp="2008-05-01T18:11:32Z" uid="20587" user="balrog-kun" changeset="300418">
    <nd ref="35163852"/>
    <nd ref="35163849"/>
    <nd ref="35159196"/>
    <nd ref="246561633"/>
    <nd ref="261063127"/>
    <nd ref="246561634"/>
    <nd ref="246561635"/>
    <nd ref="246561636"/>
    <nd ref="246561642"/>
    <tag k="created_by" v="Potlatch 0.7"/>
    <tag k="highway" v="trunk"/>
    <tag k="int_ref" v="E30"/>
    <tag k="name" v="Wolska"/>
    <tag k="ref" v="2"/>
  </way>
  <way id="5114229" version="5" timestamp="2008-10-05T21:07:06Z" uid="30632" user="antblant" changeset="84131">
    <nd ref="35163852"/>
    <nd ref="35163849"/>
    <nd ref="35159196"/>
    <nd ref="246561633"/>
    <nd ref="261063127"/>
    <nd ref="246561634"/>
    <nd ref="246561635"/>
    <nd ref="246561636"/>
    <nd ref="246561642"/>
    <tag k="created_by" v="Potlatch 0.10c"/>
    <tag k="highway" v="trunk"/>
    <tag k="int_ref" v=""/>
    <tag k="name" v="Wolska"/>
    <tag k="ref" v="2"/>
  </way>
  <way id="5114229" version="6" timestamp="2008-10-10T14:14:41Z" uid="70696" user="xybot" changeset="238039">
    <nd ref="35163852"/>
    <nd ref="35163849"/>
    <nd ref="35159196"/>
    <nd ref="246561633"/>
    <nd ref="261063127"/>
    <nd ref="246561634"/>
    <nd ref="246561635"/>
    <nd ref="246561636"/>
    <nd ref="246561642"/>
    <tag k="created_by" v="xybot"/>
    <tag k="highway" v="trunk"/>
    <tag k="name" v="Wolska"/>
    <tag k="ref" v="2"/>
  </way>
  <way id="5114229" version="7" timestamp="2009-01-16T21:57:43Z" uid="59223" user="Briquollo" changeset="796869">
    <nd ref="35163852"/>
    <nd ref="35163849"/>
    <nd ref="35159196"/>
    <nd ref="246561633"/>
    <nd ref="261063127"/>
    <nd ref="246561634"/>
    <nd ref="246561635"/>
    <nd ref="332482260"/>
    <nd ref="246561636"/>
    <nd ref="246561642"/>
    <tag k="created_by" v="xybot"/>
    <tag k="highway" v="trunk"/>
    <tag k="name" v="Wolska"/>
    <tag k="ref" v="2"/>
  </way>
  <way id="5114229" version="8" timestamp="2009-01-28T19:20:30Z" uid="59223" user="Briquollo" changeset="849067">
    <nd ref="35163852"/>
    <nd ref="35163849"/>
    <nd ref="35159196"/>
    <nd ref="246561633"/>
    <nd ref="261063127"/>
    <nd ref="338752820"/>
    <nd ref="246561635"/>
    <nd ref="332482260"/>
    <nd ref="246561642"/>
    <tag k="created_by" v="xybot"/>
    <tag k="highway" v="trunk"/>
    <tag k="name" v="Wolska"/>
    <tag k="ref" v="2"/>
  </way>
  <way id="5114229" version="9" timestamp="2009-01-28T20:05:26Z" uid="59223" user="Briquollo" changeset="849067">
    <nd ref="35163852"/>
    <nd ref="35163849"/>
    <nd ref="35159196"/>
    <nd ref="246561633"/>
    <nd ref="261063127"/>
    <nd ref="338752820"/>
    <nd ref="246561635"/>
    <nd ref="332482260"/>
    <nd ref="338765518"/>
    <nd ref="246561642"/>
    <tag k="created_by" v="xybot"/>
    <tag k="highway" v="trunk"/>
    <tag k="name" v="Wolska"/>
    <tag k="ref" v="2"/>
  </way>
  <way id="5114229" version="10" timestamp="2009-01-31T11:59:21Z" uid="91921" user="kwiecinski" changeset="860861">
    <nd ref="35163852"/>
    <nd ref="35163849"/>
    <nd ref="35159196"/>
    <nd ref="246561633"/>
    <nd ref="261063127"/>
    <nd ref="338752820"/>
    <nd ref="246561635"/>
    <nd ref="332482260"/>
    <nd ref="338765518"/>
    <nd ref="246561642"/>
    <tag k="created_by" v="Merkaartor 0.12"/>
    <tag k="highway" v="primary"/>
    <tag k="int_ref" v="E30"/>
    <tag k="name" v="Wolska"/>
    <tag k="ref" v="2"/>
  </way>
  <way id="5114229" version="11" timestamp="2009-02-05T20:12:44Z" uid="9176" user="Maarten Deen" changeset="162917">
    <nd ref="35163852"/>
    <nd ref="35163849"/>
    <nd ref="35159196"/>
    <nd ref="246561633"/>
    <nd ref="261063127"/>
    <nd ref="338752820"/>
    <nd ref="246561635"/>
    <nd ref="332482260"/>
    <nd ref="338765518"/>
    <nd ref="246561642"/>
    <tag k="created_by" v="Merkaartor 0.12"/>
    <tag k="highway" v="primary"/>
    <tag k="name" v="Wolska"/>
    <tag k="ref" v="2"/>
  </way>
  <way id="5114229" version="12" timestamp="2009-02-14T12:39:36Z" uid="9176" user="Maarten Deen" changeset="428540">
    <nd ref="35163852"/>
    <nd ref="35163849"/>
    <nd ref="35159196"/>
    <nd ref="246561633"/>
    <nd ref="261063127"/>
    <nd ref="338752820"/>
    <nd ref="246561635"/>
    <nd ref="332482260"/>
    <nd ref="338765518"/>
    <nd ref="246561642"/>
    <tag k="created_by" v="Merkaartor 0.12"/>
    <tag k="highway" v="primary"/>
    <tag k="int_ref" v="E 30"/>
    <tag k="name" v="Wolska"/>
    <tag k="ref" v="2"/>
  </way>
  <way id="5114229" version="13" timestamp="2009-05-25T21:42:15Z" uid="20587" user="balrog-kun" changeset="1321398">
    <nd ref="35163852"/>
    <nd ref="35163849"/>
    <nd ref="35159196"/>
    <nd ref="246561633"/>
    <nd ref="261063127"/>
    <nd ref="338752820"/>
    <nd ref="246561635"/>
    <nd ref="332482260"/>
    <nd ref="338765518"/>
    <nd ref="246561642"/>
    <tag k="created_by" v="Merkaartor 0.12"/>
    <tag k="highway" v="primary"/>
    <tag k="int_ref" v="E 30"/>
    <tag k="name" v="Wolska"/>
    <tag k="ref" v="2"/>
    <tag k="wikipedia" v="Ulica Wolska w Warszawie"/>
  </way>
  <way id="5114229" version="14" timestamp="2009-05-26T17:59:06Z" uid="20587" user="balrog-kun" changeset="1327867">
    <nd ref="35163852"/>
    <nd ref="35163849"/>
    <nd ref="35159196"/>
    <nd ref="246561633"/>
    <nd ref="411513151"/>
    <nd ref="261063127"/>
    <nd ref="338752820"/>
    <nd ref="411513292"/>
    <nd ref="246561635"/>
    <nd ref="332482258"/>
    <nd ref="411513493"/>
    <nd ref="332482260"/>
    <nd ref="411513003"/>
    <nd ref="411513001"/>
    <tag k="created_by" v="Merkaartor 0.12"/>
    <tag k="highway" v="primary"/>
    <tag k="int_ref" v="E 30"/>
    <tag k="name" v="Wolska"/>
    <tag k="ref" v="2"/>
    <tag k="wikipedia" v="Ulica Wolska w Warszawie"/>
  </way>
  <way id="5114229" version="15" timestamp="2009-09-03T16:37:00Z" uid="98542" user="wajak" changeset="2361574">
    <nd ref="35163852"/>
    <nd ref="35163849"/>
    <nd ref="35159196"/>
    <nd ref="246561633"/>
    <nd ref="411513151"/>
    <nd ref="261063127"/>
    <nd ref="338752820"/>
    <nd ref="411513292"/>
    <nd ref="246561635"/>
    <nd ref="332482258"/>
    <nd ref="411513493"/>
    <nd ref="332482260"/>
    <nd ref="411513003"/>
    <nd ref="411513001"/>
    <tag k="highway" v="primary"/>
    <tag k="int_ref" v="E 30"/>
    <tag k="name" v="Wolska"/>
    <tag k="oneway" v="yes"/>
    <tag k="ref" v="2"/>
    <tag k="wikipedia" v="Ulica Wolska w Warszawie"/>
  </way>
  <way id="5114229" version="16" timestamp="2010-11-04T16:14:16Z" uid="277387" user="rogal" changeset="6289624">
    <nd ref="35163852"/>
    <nd ref="35163849"/>
    <nd ref="35159196"/>
    <nd ref="246561633"/>
    <nd ref="976655461"/>
    <nd ref="411513151"/>
    <nd ref="261063127"/>
    <nd ref="338752820"/>
    <nd ref="411513292"/>
    <nd ref="246561635"/>
    <nd ref="332482258"/>
    <nd ref="411513493"/>
    <nd ref="332482260"/>
    <nd ref="411513003"/>
    <nd ref="411513001"/>
    <tag k="highway" v="primary"/>
    <tag k="int_ref" v="E 30"/>
    <tag k="name" v="Wolska"/>
    <tag k="oneway" v="yes"/>
    <tag k="ref" v="2"/>
    <tag k="wikipedia" v="Ulica Wolska w Warszawie"/>
  </way>
  <way id="5114229" version="17" timestamp="2011-04-12T18:28:36Z" uid="98542" user="wajak" changeset="7845264">
    <nd ref="35163852"/>
    <nd ref="35163849"/>
    <nd ref="35159196"/>
    <nd ref="246561633"/>
    <nd ref="411513151"/>
    <nd ref="1242274773"/>
    <nd ref="261063127"/>
    <nd ref="338752820"/>
    <nd ref="411513292"/>
    <nd ref="246561635"/>
    <nd ref="332482258"/>
    <nd ref="411513493"/>
    <nd ref="332482260"/>
    <nd ref="411513003"/>
    <nd ref="411513001"/>
    <tag k="highway" v="primary"/>
    <tag k="int_ref" v="E 30"/>
    <tag k="name" v="Wolska"/>
    <tag k="oneway" v="yes"/>
    <tag k="ref" v="2"/>
    <tag k="wikipedia" v="Ulica Wolska w Warszawie"/>
  </way>
  <way id="5114229" version="18" timestamp="2011-11-17T16:15:04Z" uid="477744" user="hormel" changeset="9855183">
    <nd ref="35163852"/>
    <nd ref="35163849"/>
    <nd ref="35159196"/>
    <tag k="highway" v="primary"/>
    <tag k="int_ref" v="E 30"/>
    <tag k="name" v="Wolska"/>
    <tag k="oneway" v="yes"/>
    <tag k="ref" v="2"/>
    <tag k="wikipedia" v="Ulica Wolska w Warszawie"/>
  </way>
  <way id="5114230" version="6" timestamp="2008-10-05T20:53:41Z" uid="30632" user="antblant" changeset="84131">
    <nd ref="246561642"/>
    <nd ref="246561643"/>
    <nd ref="35159208"/>
    <nd ref="35159207"/>
    <nd ref="35159206"/>
    <nd ref="35159209"/>
    <nd ref="35159239"/>
    <nd ref="35159241"/>
    <nd ref="35159243"/>
    <nd ref="250299590"/>
    <nd ref="250299589"/>
    <nd ref="35159245"/>
    <nd ref="35159246"/>
    <nd ref="35159248"/>
    <nd ref="35159250"/>
    <tag k="created_by" v="Potlatch 0.10c"/>
    <tag k="highway" v="primary"/>
    <tag k="int_ref" v=""/>
    <tag k="name" v="Połczyńska"/>
    <tag k="ref" v="2"/>
  </way>
  <way id="5114230" version="7" timestamp="2008-10-05T21:07:18Z" uid="30632" user="antblant" changeset="84131">
    <nd ref="246561642"/>
    <nd ref="246561643"/>
    <nd ref="35159208"/>
    <nd ref="35159207"/>
    <nd ref="35159206"/>
    <nd ref="35159209"/>
    <nd ref="35159239"/>
    <nd ref="35159241"/>
    <nd ref="35159243"/>
    <nd ref="250299590"/>
    <nd ref="250299589"/>
    <nd ref="35159245"/>
    <nd ref="35159246"/>
    <nd ref="35159248"/>
    <nd ref="35159250"/>
    <tag k="created_by" v="Potlatch 0.10c"/>
    <tag k="highway" v="trunk"/>
    <tag k="name" v="Połczyńska"/>
    <tag k="ref" v="2"/>
  </way>
  <way id="5114230" version="8" timestamp="2008-12-18T14:36:04Z" uid="85747" user="Crafty" changeset="456163">
    <nd ref="246561642"/>
    <nd ref="246561643"/>
    <nd ref="35159208"/>
    <nd ref="35159207"/>
    <nd ref="35159206"/>
    <nd ref="35159209"/>
    <nd ref="319733004"/>
    <nd ref="35159239"/>
    <nd ref="35159241"/>
    <nd ref="35159243"/>
    <nd ref="250299590"/>
    <nd ref="250299589"/>
    <nd ref="35159245"/>
    <nd ref="35159246"/>
    <nd ref="35159248"/>
    <nd ref="35159250"/>
    <tag k="created_by" v="Potlatch 0.10f"/>
    <tag k="highway" v="trunk"/>
    <tag k="name" v="Połczyńska"/>
    <tag k="ref" v="2"/>
  </way>
  <way id="5114230" version="9" timestamp="2008-12-18T17:07:58Z" uid="85747" user="Crafty" changeset="468048">
    <nd ref="246561642"/>
    <nd ref="246561643"/>
    <nd ref="35159208"/>
    <nd ref="35159207"/>
    <nd ref="35159206"/>
    <nd ref="35159209"/>
    <nd ref="319733004"/>
    <nd ref="35159239"/>
    <nd ref="35159241"/>
    <nd ref="35159243"/>
    <nd ref="250299590"/>
    <nd ref="250299589"/>
    <nd ref="35159245"/>
    <nd ref="35159246"/>
    <nd ref="35159248"/>
    <nd ref="35159250"/>
    <tag k="created_by" v="Potlatch 0.10f"/>
    <tag k="highway" v="trunk"/>
    <tag k="name" v="Połczyńska"/>
    <tag k="ref" v="2"/>
  </way>
  <way id="5114230" version="10" timestamp="2008-12-18T17:08:23Z" uid="85747" user="Crafty" changeset="468048">
    <nd ref="246561642"/>
    <nd ref="246561643"/>
    <nd ref="35159208"/>
    <nd ref="35159207"/>
    <nd ref="35159206"/>
    <nd ref="35159209"/>
    <nd ref="319733004"/>
    <nd ref="35159239"/>
    <nd ref="35159241"/>
    <nd ref="35159243"/>
    <nd ref="250299590"/>
    <nd ref="250299589"/>
    <nd ref="35159245"/>
    <nd ref="35159246"/>
    <nd ref="35159248"/>
    <nd ref="35159250"/>
    <tag k="created_by" v="Potlatch 0.10f"/>
    <tag k="highway" v="trunk"/>
    <tag k="name" v="Połczyńska"/>
    <tag k="ref" v="2"/>
  </way>
  <way id="5114230" version="11" timestamp="2008-12-18T17:08:55Z" uid="85747" user="Crafty" changeset="468048">
    <nd ref="246561642"/>
    <nd ref="246561643"/>
    <nd ref="35159208"/>
    <nd ref="35159207"/>
    <nd ref="35159206"/>
    <nd ref="35159209"/>
    <nd ref="319733004"/>
    <nd ref="35159239"/>
    <nd ref="35159241"/>
    <nd ref="35159243"/>
    <nd ref="250299589"/>
    <nd ref="35159245"/>
    <nd ref="35159246"/>
    <nd ref="35159248"/>
    <nd ref="35159250"/>
    <tag k="created_by" v="Potlatch 0.10f"/>
    <tag k="highway" v="trunk"/>
    <tag k="name" v="Połczyńska"/>
    <tag k="ref" v="2"/>
  </way>
  <way id="5114230" version="12" timestamp="2009-01-21T11:34:08Z" uid="59223" user="Briquollo" changeset="819715">
    <nd ref="246561642"/>
    <nd ref="246561643"/>
    <nd ref="35159208"/>
    <nd ref="35159207"/>
    <nd ref="35159206"/>
    <nd ref="334507272"/>
    <tag k="created_by" v="Potlatch 0.10f"/>
    <tag k="highway" v="trunk"/>
    <tag k="name" v="Połczyńska"/>
    <tag k="ref" v="2"/>
  </way>
  <way id="5114230" version="13" timestamp="2009-01-28T19:20:46Z" uid="59223" user="Briquollo" changeset="849067">
    <nd ref="246561642"/>
    <nd ref="35159208"/>
    <nd ref="35159207"/>
    <nd ref="35159206"/>
    <nd ref="334507272"/>
    <tag k="created_by" v="Potlatch 0.10f"/>
    <tag k="highway" v="trunk"/>
    <tag k="name" v="Połczyńska"/>
    <tag k="ref" v="2"/>
  </way>
  <way id="5114230" version="14" timestamp="2009-01-28T19:28:44Z" uid="59223" user="Briquollo" changeset="849067">
    <nd ref="246561642"/>
    <nd ref="338754539"/>
    <nd ref="35159208"/>
    <nd ref="35159207"/>
    <nd ref="35159206"/>
    <nd ref="334507272"/>
    <tag k="created_by" v="Potlatch 0.10f"/>
    <tag k="highway" v="trunk"/>
    <tag k="name" v="Połczyńska"/>
    <tag k="ref" v="2"/>
  </way>
  <way id="5114230" version="15" timestamp="2009-02-14T12:39:36Z" uid="9176" user="Maarten Deen" changeset="428540">
    <nd ref="246561642"/>
    <nd ref="338754539"/>
    <nd ref="35159208"/>
    <nd ref="35159207"/>
    <nd ref="35159206"/>
    <nd ref="334507272"/>
    <tag k="created_by" v="Potlatch 0.10f"/>
    <tag k="highway" v="trunk"/>
    <tag k="int_ref" v="E 30"/>
    <tag k="name" v="Połczyńska"/>
    <tag k="ref" v="2"/>
  </way>
  <way id="5114230" version="16" timestamp="2009-05-03T13:01:45Z" uid="30632" user="antblant" changeset="1060855">
    <nd ref="246561642"/>
    <nd ref="338754539"/>
    <nd ref="35159208"/>
    <nd ref="35159207"/>
    <nd ref="35159206"/>
    <nd ref="334507272"/>
    <tag k="created_by" v="Potlatch 0.10f"/>
    <tag k="highway" v="primary"/>
    <tag k="int_ref" v="E 30"/>
    <tag k="name" v="Połczyńska"/>
    <tag k="ref" v="2"/>
  </way>
  <way id="5114230" version="17" timestamp="2009-05-26T17:59:06Z" uid="20587" user="balrog-kun" changeset="1327867">
    <nd ref="246561642"/>
    <nd ref="338754539"/>
    <nd ref="411513034"/>
    <nd ref="35159208"/>
    <nd ref="35159207"/>
    <nd ref="411513036"/>
    <nd ref="35159206"/>
    <nd ref="334507272"/>
    <tag k="created_by" v="Potlatch 0.10f"/>
    <tag k="highway" v="primary"/>
    <tag k="int_ref" v="E 30"/>
    <tag k="name" v="Połczyńska"/>
    <tag k="ref" v="2"/>
  </way>
  <way id="5114230" version="18" timestamp="2009-05-31T14:33:31Z" uid="20587" user="balrog-kun" changeset="1369651">
    <nd ref="246561642"/>
    <nd ref="338754539"/>
    <nd ref="411513034"/>
    <nd ref="413497915"/>
    <nd ref="35159208"/>
    <nd ref="35159207"/>
    <nd ref="411513036"/>
    <nd ref="35159206"/>
    <nd ref="334507272"/>
    <tag k="created_by" v="Potlatch 0.10f"/>
    <tag k="highway" v="primary"/>
    <tag k="int_ref" v="E 30"/>
    <tag k="name" v="Połczyńska"/>
    <tag k="ref" v="2"/>
  </way>
  <way id="5114230" version="19" timestamp="2009-09-03T16:37:04Z" uid="98542" user="wajak" changeset="2361574">
    <nd ref="246561642"/>
    <nd ref="338754539"/>
    <nd ref="411513034"/>
    <nd ref="413497915"/>
    <nd ref="35159208"/>
    <nd ref="35159207"/>
    <nd ref="411513036"/>
    <nd ref="35159206"/>
    <nd ref="334507272"/>
    <tag k="highway" v="primary"/>
    <tag k="int_ref" v="E 30"/>
    <tag k="name" v="Połczyńska"/>
    <tag k="oneway" v="yes"/>
    <tag k="ref" v="2"/>
  </way>
  <way id="5114230" version="20" timestamp="2010-12-29T00:11:09Z" uid="277387" user="rogal" changeset="6793958">
    <nd ref="246561642"/>
    <nd ref="1069985930"/>
    <nd ref="1069985924"/>
    <nd ref="338754539"/>
    <nd ref="411513034"/>
    <nd ref="413497915"/>
    <nd ref="35159208"/>
    <nd ref="35159207"/>
    <nd ref="411513036"/>
    <nd ref="35159206"/>
    <nd ref="334507272"/>
    <tag k="highway" v="primary"/>
    <tag k="int_ref" v="E 30"/>
    <tag k="name" v="Połczyńska"/>
    <tag k="oneway" v="yes"/>
    <tag k="ref" v="2"/>
  </way>
  <way id="5114230" version="21" timestamp="2011-11-17T16:15:04Z" uid="477744" user="hormel" changeset="9855183">
    <nd ref="246561642"/>
    <nd ref="1069985930"/>
    <nd ref="1069985924"/>
    <nd ref="338754539"/>
    <nd ref="411513034"/>
    <nd ref="413497915"/>
    <tag k="highway" v="primary"/>
    <tag k="int_ref" v="E 30"/>
    <tag k="name" v="Połczyńska"/>
    <tag k="oneway" v="yes"/>
    <tag k="ref" v="2"/>
  </way>
  <way id="5114231" version="2" timestamp="2008-10-05T20:53:14Z" uid="30632" user="antblant" changeset="84131">
    <nd ref="35159250"/>
    <nd ref="35159252"/>
    <tag k="created_by" v="Potlatch 0.10c"/>
    <tag k="highway" v="primary"/>
    <tag k="ref" v="2"/>
  </way>
  <way id="5114231" version="3" timestamp="2008-10-05T21:06:49Z" uid="30632" user="antblant" changeset="84131">
    <nd ref="35159250"/>
    <nd ref="35159252"/>
    <tag k="created_by" v="Potlatch 0.10c"/>
    <tag k="highway" v="trunk"/>
    <tag k="ref" v="2"/>
  </way>
  <way id="5114231" version="4" timestamp="2008-12-20T19:48:18Z" uid="20587" user="balrog-kun" changeset="497707">
    <nd ref="35159250"/>
    <nd ref="35159252"/>
    <nd ref="320279482"/>
    <tag k="created_by" v="Potlatch 0.10c"/>
    <tag k="highway" v="primary"/>
    <tag k="ref" v="2"/>
  </way>
  <way id="5114231" version="5" timestamp="2008-12-23T13:38:29Z" uid="59223" user="Briquollo" changeset="575736">
    <nd ref="35159250"/>
    <nd ref="35159252"/>
    <nd ref="320279482"/>
    <nd ref="321243037"/>
    <nd ref="321243038"/>
    <nd ref="321243039"/>
    <nd ref="321243040"/>
    <nd ref="321243041"/>
    <nd ref="321243042"/>
    <nd ref="321243043"/>
    <nd ref="321243044"/>
    <nd ref="321243045"/>
    <nd ref="321243046"/>
    <tag k="created_by" v="Potlatch 0.10f"/>
    <tag k="highway" v="primary"/>
    <tag k="ref" v="2"/>
  </way>
  <way id="5114231" version="6" timestamp="2009-02-04T19:58:08Z" uid="59223" user="Briquollo" changeset="137601">
    <nd ref="35159250"/>
    <nd ref="320279482"/>
    <nd ref="321243038"/>
    <nd ref="321243040"/>
    <nd ref="340451241"/>
    <tag k="created_by" v="Potlatch 0.10f"/>
    <tag k="highway" v="primary"/>
    <tag k="ref" v="2"/>
  </way>
  <way id="5114231" version="7" timestamp="2009-02-04T20:10:09Z" uid="59223" user="Briquollo" changeset="137601">
    <nd ref="35159250"/>
    <nd ref="320279482"/>
    <nd ref="321243038"/>
    <nd ref="321243040"/>
    <nd ref="340455562"/>
    <nd ref="340451241"/>
    <tag k="created_by" v="Potlatch 0.10f"/>
    <tag k="highway" v="primary"/>
    <tag k="ref" v="2"/>
  </way>
  <way id="5114231" version="8" timestamp="2009-02-14T12:39:37Z" uid="9176" user="Maarten Deen" changeset="428540">
    <nd ref="35159250"/>
    <nd ref="320279482"/>
    <nd ref="321243038"/>
    <nd ref="321243040"/>
    <nd ref="340455562"/>
    <nd ref="340451241"/>
    <tag k="created_by" v="Potlatch 0.10f"/>
    <tag k="highway" v="primary"/>
    <tag k="int_ref" v="E 30"/>
    <tag k="ref" v="2"/>
  </way>
  <way id="5114231" version="9" timestamp="2009-05-24T00:10:15Z" uid="20587" user="balrog-kun" changeset="1300809">
    <nd ref="35159250"/>
    <nd ref="410392389"/>
    <nd ref="410392388"/>
    <nd ref="410392413"/>
    <nd ref="410392379"/>
    <nd ref="410392385"/>
    <nd ref="410392386"/>
    <nd ref="320279482"/>
    <nd ref="321243038"/>
    <nd ref="321243040"/>
    <nd ref="340455562"/>
    <nd ref="340451241"/>
    <tag k="created_by" v="Potlatch 0.10f"/>
    <tag k="highway" v="primary"/>
    <tag k="int_ref" v="E 30"/>
    <tag k="ref" v="2"/>
  </way>
  <way id="5114231" version="10" timestamp="2009-08-07T19:31:29Z" uid="129104" user="krzyc" changeset="2069515">
    <nd ref="35159250"/>
    <nd ref="410392389"/>
    <nd ref="410392388"/>
    <nd ref="410392413"/>
    <nd ref="410392379"/>
    <nd ref="410392385"/>
    <nd ref="410392386"/>
    <nd ref="320279482"/>
    <nd ref="321243038"/>
    <nd ref="321243040"/>
    <nd ref="340455562"/>
    <nd ref="340451241"/>
    <tag k="created_by" v="Potlatch 0.10f"/>
    <tag k="highway" v="primary"/>
    <tag k="int_ref" v="E 30"/>
    <tag k="oneway" v="yes"/>
    <tag k="ref" v="2"/>
  </way>
  <way id="5114231" version="11" timestamp="2009-08-07T19:40:58Z" uid="129104" user="krzyc" changeset="2069515">
    <nd ref="35159250"/>
    <nd ref="410392389"/>
    <nd ref="410392388"/>
    <nd ref="410392413"/>
    <nd ref="410392379"/>
    <nd ref="410392385"/>
    <nd ref="410392386"/>
    <nd ref="320279482"/>
    <nd ref="321243038"/>
    <nd ref="321243040"/>
    <nd ref="340455562"/>
    <nd ref="340451241"/>
    <nd ref="373273652"/>
    <nd ref="373273680"/>
    <nd ref="373273700"/>
    <nd ref="373273723"/>
    <tag k="created_by" v="Potlatch 0.10f; Merkaartor 0.13"/>
    <tag k="e-road" v="E 30"/>
    <tag k="highway" v="primary"/>
    <tag k="int_ref" v="E 30"/>
    <tag k="name" v="Poznańska"/>
    <tag k="oneway" v="yes"/>
    <tag k="ref" v="2"/>
  </way>
  <way id="5114231" version="12" timestamp="2009-08-07T20:04:49Z" uid="129104" user="krzyc" changeset="2069869">
    <nd ref="35159250"/>
    <nd ref="410392389"/>
    <nd ref="410392388"/>
    <nd ref="410392413"/>
    <nd ref="410392379"/>
    <nd ref="410392385"/>
    <nd ref="410392386"/>
    <nd ref="320279482"/>
    <nd ref="321243038"/>
    <nd ref="321243040"/>
    <nd ref="340455562"/>
    <nd ref="340451241"/>
    <nd ref="373273652"/>
    <nd ref="458439367"/>
    <nd ref="373273680"/>
    <nd ref="373273700"/>
    <nd ref="373273723"/>
    <tag k="created_by" v="Potlatch 0.10f; Merkaartor 0.13"/>
    <tag k="e-road" v="E 30"/>
    <tag k="highway" v="primary"/>
    <tag k="int_ref" v="E 30"/>
    <tag k="name" v="Poznańska"/>
    <tag k="oneway" v="yes"/>
    <tag k="ref" v="2"/>
  </way>
  <way id="5114231" version="13" timestamp="2009-08-11T11:26:22Z" uid="129104" user="krzyc" changeset="2107231">
    <nd ref="35159250"/>
    <nd ref="410392389"/>
    <nd ref="410392388"/>
    <nd ref="410392413"/>
    <nd ref="410392379"/>
    <nd ref="410392385"/>
    <nd ref="410392386"/>
    <nd ref="320279482"/>
    <nd ref="321243038"/>
    <nd ref="321243040"/>
    <nd ref="340455562"/>
    <nd ref="340451241"/>
    <nd ref="461700261"/>
    <nd ref="373273652"/>
    <nd ref="458439367"/>
    <nd ref="373273680"/>
    <nd ref="373273700"/>
    <nd ref="373273723"/>
    <tag k="created_by" v="Potlatch 0.10f; Merkaartor 0.13"/>
    <tag k="e-road" v="E 30"/>
    <tag k="highway" v="primary"/>
    <tag k="int_ref" v="E 30"/>
    <tag k="name" v="Poznańska"/>
    <tag k="oneway" v="yes"/>
    <tag k="ref" v="2"/>
  </way>
  <way id="5114231" version="14" timestamp="2009-08-20T17:08:15Z" uid="98542" user="wajak" changeset="2214601">
    <nd ref="35159250"/>
    <nd ref="410392389"/>
    <nd ref="410392388"/>
    <nd ref="410392413"/>
    <nd ref="410392379"/>
    <nd ref="410392385"/>
    <nd ref="410392386"/>
    <nd ref="320279482"/>
    <nd ref="321243038"/>
    <nd ref="321243040"/>
    <nd ref="471561324"/>
    <nd ref="340455562"/>
    <nd ref="340451241"/>
    <nd ref="461700261"/>
    <nd ref="373273652"/>
    <nd ref="458439367"/>
    <nd ref="373273680"/>
    <nd ref="373273700"/>
    <nd ref="373273723"/>
    <tag k="e-road" v="E 30"/>
    <tag k="highway" v="primary"/>
    <tag k="int_ref" v="E 30"/>
    <tag k="name" v="Poznańska"/>
    <tag k="oneway" v="yes"/>
    <tag k="ref" v="2"/>
  </way>
  <way id="5114231" version="15" timestamp="2009-12-25T20:54:15Z" uid="59223" user="Briquollo" changeset="3450729">
    <nd ref="35159250"/>
    <nd ref="410392389"/>
    <nd ref="410392388"/>
    <nd ref="410392413"/>
    <nd ref="410392379"/>
    <nd ref="410392385"/>
    <nd ref="410392386"/>
    <nd ref="320279482"/>
    <nd ref="321243038"/>
    <nd ref="321243040"/>
    <nd ref="471561324"/>
    <nd ref="340455562"/>
    <nd ref="340451241"/>
    <nd ref="461700261"/>
    <nd ref="373273652"/>
    <nd ref="458439367"/>
    <nd ref="599353842"/>
    <nd ref="373273680"/>
    <nd ref="373273700"/>
    <nd ref="373273723"/>
    <tag k="e-road" v="E 30"/>
    <tag k="highway" v="primary"/>
    <tag k="int_ref" v="E 30"/>
    <tag k="name" v="Poznańska"/>
    <tag k="oneway" v="yes"/>
    <tag k="ref" v="2"/>
  </way>
  <way id="5114231" version="16" timestamp="2010-03-04T01:15:09Z" uid="83472" user="plush" changeset="4029769">
    <nd ref="35159250"/>
    <nd ref="410392389"/>
    <nd ref="410392388"/>
    <nd ref="410392413"/>
    <nd ref="410392379"/>
    <nd ref="410392385"/>
    <nd ref="410392386"/>
    <nd ref="320279482"/>
    <nd ref="321243038"/>
    <nd ref="321243040"/>
    <nd ref="471561324"/>
    <nd ref="340455562"/>
    <nd ref="340451241"/>
    <nd ref="461700261"/>
    <nd ref="373273652"/>
    <nd ref="458439367"/>
    <nd ref="599353842"/>
    <nd ref="373273680"/>
    <nd ref="373273700"/>
    <nd ref="660014846"/>
    <nd ref="27167207"/>
    <tag k="e-road" v="E 30"/>
    <tag k="highway" v="primary"/>
    <tag k="int_ref" v="E 30"/>
    <tag k="name" v="Poznańska"/>
    <tag k="oneway" v="yes"/>
    <tag k="ref" v="2"/>
  </way>
  <way id="5114231" version="17" timestamp="2010-05-16T07:06:09Z" uid="163896" user="Zbigniew Czernik" changeset="4713696">
    <nd ref="35159250"/>
    <nd ref="410392389"/>
    <nd ref="410392388"/>
    <nd ref="410392413"/>
    <nd ref="410392379"/>
    <nd ref="410392385"/>
    <nd ref="410392386"/>
    <nd ref="320279482"/>
    <nd ref="321243038"/>
    <nd ref="321243040"/>
    <nd ref="471561324"/>
    <nd ref="340455562"/>
    <nd ref="340451241"/>
    <nd ref="461700261"/>
    <nd ref="373273652"/>
    <nd ref="373279765"/>
    <nd ref="458439367"/>
    <nd ref="736033747"/>
    <nd ref="599353842"/>
    <nd ref="373273680"/>
    <nd ref="373273700"/>
    <nd ref="660014846"/>
    <nd ref="27167207"/>
    <tag k="e-road" v="E 30"/>
    <tag k="highway" v="primary"/>
    <tag k="int_ref" v="E 30"/>
    <tag k="name" v="Poznańska"/>
    <tag k="oneway" v="yes"/>
    <tag k="ref" v="2"/>
  </way>
  <way id="5114231" version="18" timestamp="2010-09-21T18:32:57Z" uid="98542" user="wajak" changeset="5839316">
    <nd ref="35159250"/>
    <nd ref="410392389"/>
    <nd ref="410392388"/>
    <nd ref="410392413"/>
    <nd ref="410392379"/>
    <nd ref="410392385"/>
    <nd ref="410392386"/>
    <nd ref="320279482"/>
    <nd ref="321243038"/>
    <nd ref="321243040"/>
    <nd ref="920532016"/>
    <nd ref="471561324"/>
    <nd ref="340455562"/>
    <nd ref="340451241"/>
    <nd ref="461700261"/>
    <nd ref="373273652"/>
    <nd ref="373279765"/>
    <nd ref="458439367"/>
    <nd ref="736033747"/>
    <nd ref="599353842"/>
    <nd ref="373273680"/>
    <nd ref="373273700"/>
    <nd ref="660014846"/>
    <nd ref="27167207"/>
    <tag k="e-road" v="E 30"/>
    <tag k="highway" v="primary"/>
    <tag k="int_ref" v="E 30"/>
    <tag k="name" v="Poznańska"/>
    <tag k="oneway" v="yes"/>
    <tag k="ref" v="2"/>
  </way>
  <way id="5114231" version="19" timestamp="2010-09-22T07:05:25Z" uid="98542" user="wajak" changeset="5842955">
    <nd ref="35159250"/>
    <nd ref="410392389"/>
    <nd ref="410392388"/>
    <nd ref="410392413"/>
    <nd ref="410392379"/>
    <nd ref="410392385"/>
    <nd ref="410392386"/>
    <nd ref="320279482"/>
    <nd ref="321243038"/>
    <nd ref="321243040"/>
    <nd ref="920532016"/>
    <nd ref="921132490"/>
    <nd ref="471561324"/>
    <nd ref="340455562"/>
    <nd ref="340451241"/>
    <nd ref="461700261"/>
    <nd ref="373273652"/>
    <nd ref="373279765"/>
    <nd ref="458439367"/>
    <nd ref="736033747"/>
    <nd ref="599353842"/>
    <nd ref="373273680"/>
    <nd ref="373273700"/>
    <nd ref="660014846"/>
    <nd ref="27167207"/>
    <tag k="e-road" v="E 30"/>
    <tag k="highway" v="primary"/>
    <tag k="int_ref" v="E 30"/>
    <tag k="name" v="Poznańska"/>
    <tag k="oneway" v="yes"/>
    <tag k="ref" v="2"/>
  </way>
  <way id="5114231" version="20" timestamp="2010-11-06T00:54:38Z" uid="165509" user="koszatek" changeset="6299527">
    <nd ref="35159250"/>
    <nd ref="410392389"/>
    <nd ref="410392388"/>
    <nd ref="410392413"/>
    <nd ref="410392379"/>
    <nd ref="410392385"/>
    <nd ref="410392386"/>
    <nd ref="320279482"/>
    <nd ref="321243038"/>
    <nd ref="321243040"/>
    <nd ref="920532016"/>
    <nd ref="978060673"/>
    <nd ref="978060754"/>
    <nd ref="921132490"/>
    <nd ref="978060676"/>
    <nd ref="471561324"/>
    <nd ref="340455562"/>
    <nd ref="340451241"/>
    <nd ref="461700261"/>
    <nd ref="373273652"/>
    <nd ref="373279765"/>
    <nd ref="458439367"/>
    <nd ref="736033747"/>
    <nd ref="599353842"/>
    <nd ref="373273680"/>
    <nd ref="373273700"/>
    <nd ref="660014846"/>
    <nd ref="27167207"/>
    <tag k="e-road" v="E 30"/>
    <tag k="highway" v="primary"/>
    <tag k="int_ref" v="E 30"/>
    <tag k="name" v="Poznańska"/>
    <tag k="oneway" v="yes"/>
    <tag k="ref" v="2"/>
  </way>
  <way id="5114231" version="21" timestamp="2011-01-23T07:18:15Z" uid="98542" user="wajak" changeset="7058099">
    <nd ref="35159250"/>
    <nd ref="410392389"/>
    <nd ref="410392388"/>
    <nd ref="410392413"/>
    <nd ref="410392379"/>
    <nd ref="410392385"/>
    <nd ref="410392386"/>
    <nd ref="320279482"/>
    <nd ref="321243038"/>
    <nd ref="321243040"/>
    <nd ref="920532016"/>
    <nd ref="921132490"/>
    <nd ref="978060676"/>
    <nd ref="471561324"/>
    <nd ref="340455562"/>
    <nd ref="340451241"/>
    <nd ref="461700261"/>
    <nd ref="373273652"/>
    <nd ref="373279765"/>
    <nd ref="458439367"/>
    <nd ref="736033747"/>
    <nd ref="599353842"/>
    <nd ref="373273680"/>
    <nd ref="373273700"/>
    <nd ref="660014846"/>
    <nd ref="27167207"/>
    <tag k="e-road" v="E 30"/>
    <tag k="highway" v="primary"/>
    <tag k="int_ref" v="E 30"/>
    <tag k="name" v="Poznańska"/>
    <tag k="oneway" v="yes"/>
    <tag k="ref" v="2"/>
  </way>
  <way id="5114231" version="22" timestamp="2011-02-23T21:06:26Z" uid="98542" user="wajak" changeset="7376740">
    <nd ref="35159250"/>
    <nd ref="410392389"/>
    <nd ref="410392388"/>
    <nd ref="410392413"/>
    <nd ref="410392379"/>
    <nd ref="410392385"/>
    <nd ref="410392386"/>
    <nd ref="320279482"/>
    <nd ref="321243038"/>
    <nd ref="321243040"/>
    <nd ref="920532016"/>
    <nd ref="921132490"/>
    <nd ref="978060676"/>
    <nd ref="471561324"/>
    <nd ref="340455562"/>
    <nd ref="340451241"/>
    <nd ref="461700261"/>
    <nd ref="373273652"/>
    <nd ref="373279765"/>
    <nd ref="458439367"/>
    <nd ref="736033747"/>
    <nd ref="599353842"/>
    <nd ref="373273680"/>
    <nd ref="373273700"/>
    <nd ref="1168854049"/>
    <nd ref="27167203"/>
    <tag k="e-road" v="E 30"/>
    <tag k="highway" v="primary"/>
    <tag k="int_ref" v="E 30"/>
    <tag k="name" v="Poznańska"/>
    <tag k="oneway" v="yes"/>
    <tag k="ref" v="2"/>
  </way>
  <way id="5114231" version="23" timestamp="2011-02-26T18:05:19Z" uid="98542" user="wajak" changeset="7402614">
    <nd ref="35159250"/>
    <nd ref="410392389"/>
    <nd ref="410392388"/>
    <nd ref="410392413"/>
    <nd ref="410392379"/>
    <nd ref="410392385"/>
    <nd ref="410392386"/>
    <nd ref="320279482"/>
    <nd ref="321243038"/>
    <nd ref="321243040"/>
    <nd ref="920532016"/>
    <nd ref="921132490"/>
    <nd ref="978060676"/>
    <nd ref="471561324"/>
    <nd ref="340455562"/>
    <nd ref="340451241"/>
    <nd ref="1175149716"/>
    <nd ref="461700261"/>
    <nd ref="373273652"/>
    <nd ref="373279765"/>
    <nd ref="458439367"/>
    <nd ref="736033747"/>
    <nd ref="599353842"/>
    <nd ref="373273680"/>
    <nd ref="373273700"/>
    <nd ref="1168854049"/>
    <nd ref="27167203"/>
    <tag k="e-road" v="E 30"/>
    <tag k="highway" v="primary"/>
    <tag k="int_ref" v="E 30"/>
    <tag k="name" v="Poznańska"/>
    <tag k="oneway" v="yes"/>
    <tag k="ref" v="2"/>
  </way>
  <way id="5114231" version="24" timestamp="2011-04-25T06:19:46Z" uid="243642" user="krzysiek" changeset="7959430"/>
  <way id="5114347" version="3" timestamp="2009-05-25T21:42:17Z" uid="20587" user="balrog-kun" changeset="1321398">
    <nd ref="35163858"/>
    <nd ref="35163854"/>
    <tag k="bridge" v="yes"/>
    <tag k="created_by" v="Merkaartor 0.12"/>
    <tag k="highway" v="secondary"/>
    <tag k="layer" v="1"/>
    <tag k="name" v="Wolska"/>
    <tag k="oneway" v="yes"/>
    <tag k="wikipedia" v="Ulica Wolska w Warszawie"/>
  </way>
  <way id="5114347" version="4" timestamp="2009-05-26T17:59:11Z" uid="20587" user="balrog-kun" changeset="1327867">
    <nd ref="35163858"/>
    <nd ref="411513409"/>
    <nd ref="35163854"/>
    <tag k="bridge" v="yes"/>
    <tag k="created_by" v="Merkaartor 0.12"/>
    <tag k="highway" v="secondary"/>
    <tag k="layer" v="1"/>
    <tag k="name" v="Wolska"/>
    <tag k="oneway" v="yes"/>
    <tag k="wikipedia" v="Ulica Wolska w Warszawie"/>
  </way>
  <way id="5114349" version="3" timestamp="2009-05-26T17:59:11Z" uid="20587" user="balrog-kun" changeset="1327867">
    <nd ref="35163871"/>
    <nd ref="411513407"/>
    <nd ref="411513406"/>
    <nd ref="411513405"/>
    <nd ref="35159196"/>
    <tag k="created_by" v="Merkaartor 0.12"/>
    <tag k="highway" v="secondary"/>
    <tag k="oneway" v="yes"/>
  </way>
  <way id="5114350" version="3" timestamp="2009-05-26T17:59:11Z" uid="20587" user="balrog-kun" changeset="1327867">
    <nd ref="35163860"/>
    <nd ref="411513408"/>
    <nd ref="411513404"/>
    <nd ref="35163863"/>
    <nd ref="35163874"/>
    <nd ref="35163871"/>
    <tag k="created_by" v="Merkaartor 0.12"/>
    <tag k="highway" v="secondary"/>
    <tag k="oneway" v="yes"/>
  </way>
  <way id="5114350" version="4" timestamp="2011-07-15T11:55:16Z" uid="487944" user="Voitcus" changeset="8730380">
    <nd ref="35163860"/>
    <nd ref="411513408"/>
    <nd ref="411513404"/>
    <nd ref="35163863"/>
    <tag k="highway" v="secondary"/>
    <tag k="oneway" v="yes"/>
  </way>
  <way id="5114414" version="3" timestamp="2008-09-07T12:12:21Z" uid="6269" user="Mueck" changeset="559913">
    <nd ref="35343341"/>
    <nd ref="36322035"/>
    <nd ref="35348111"/>
    <nd ref="35348110"/>
    <nd ref="35348106"/>
    <nd ref="34579902"/>
    <nd ref="35147437"/>
    <nd ref="276946332"/>
    <nd ref="35339582"/>
    <nd ref="35148892"/>
    <nd ref="35339580"/>
    <nd ref="18409192"/>
    <tag k="created_by" v="Potlatch 0.10b"/>
    <tag k="highway" v="secondary"/>
    <tag k="name" v="Kaiserstraße"/>
    <tag k="oneway" v="true"/>
    <tag k="ref" v="L 3001"/>
  </way>
  <way id="5114414" version="4" timestamp="2009-04-16T23:25:04Z" uid="103885" user="logicbot" changeset="603450">
    <nd ref="35343341"/>
    <nd ref="36322035"/>
    <nd ref="35348111"/>
    <nd ref="35348110"/>
    <nd ref="35348106"/>
    <nd ref="34579902"/>
    <nd ref="35147437"/>
    <nd ref="276946332"/>
    <nd ref="35339582"/>
    <nd ref="35148892"/>
    <nd ref="35339580"/>
    <nd ref="18409192"/>
    <tag k="created_by" v="Potlatch 0.10b"/>
    <tag k="highway" v="secondary"/>
    <tag k="name" v="Kaiserstraße"/>
    <tag k="oneway" v="yes"/>
    <tag k="ref" v="L 3001"/>
  </way>
  <way id="5114414" version="5" timestamp="2009-08-06T15:17:21Z" uid="65364" user="Harry99" changeset="2057100">
    <nd ref="35343341"/>
    <nd ref="36322035"/>
    <nd ref="35348111"/>
    <nd ref="35348110"/>
    <nd ref="35348106"/>
    <nd ref="34579902"/>
    <nd ref="35147437"/>
    <nd ref="276946332"/>
    <nd ref="35339582"/>
    <nd ref="35148892"/>
    <nd ref="35339580"/>
    <nd ref="18409192"/>
    <tag k="highway" v="secondary"/>
    <tag k="name" v="Kaiserstraße"/>
    <tag k="oneway" v="yes"/>
    <tag k="ref" v="L 3001"/>
  </way>
  <way id="5114414" version="6" timestamp="2009-09-10T14:29:51Z" uid="65364" user="Harry99" changeset="2436870">
    <nd ref="35343341"/>
    <nd ref="36322035"/>
    <nd ref="35348111"/>
    <nd ref="35348110"/>
    <nd ref="35348106"/>
    <nd ref="34579902"/>
    <tag k="highway" v="secondary"/>
    <tag k="name" v="Kaiserstraße"/>
    <tag k="oneway" v="yes"/>
    <tag k="ref" v="L 3001"/>
  </way>
  <way id="5114414" version="7" timestamp="2009-11-05T16:49:25Z" uid="65364" user="Harry99" changeset="3041388">
    <nd ref="35343341"/>
    <nd ref="36322035"/>
    <tag k="highway" v="secondary"/>
    <tag k="name" v="Kaiserstraße"/>
    <tag k="oneway" v="yes"/>
    <tag k="ref" v="L 3001"/>
  </way>
  <way id="5114417" version="4" timestamp="2009-06-05T20:06:46Z" uid="59758" user="rendle" changeset="1432603"/>
  <way id="5114418" version="3" timestamp="2009-06-05T20:05:59Z" uid="59758" user="rendle" changeset="1432603">
    <nd ref="416079876"/>
    <nd ref="416079877"/>
    <nd ref="416079878"/>
    <nd ref="35165140"/>
    <nd ref="35165139"/>
    <nd ref="35165137"/>
    <nd ref="149200419"/>
    <nd ref="35165135"/>
    <tag k="created_by" v="JOSM"/>
    <tag k="highway" v="residential"/>
  </way>
  <way id="5114418" version="4" timestamp="2009-06-05T20:06:18Z" uid="59758" user="rendle" changeset="1432603">
    <nd ref="416079876"/>
    <nd ref="416079877"/>
    <nd ref="416079878"/>
    <nd ref="35165140"/>
    <nd ref="35165139"/>
    <nd ref="35165137"/>
    <nd ref="149200419"/>
    <nd ref="35165135"/>
    <tag k="created_by" v="JOSM"/>
    <tag k="highway" v="residential"/>
    <tag k="name" v="Dijkstraat"/>
  </way>
  <way id="5114418" version="5" timestamp="2009-11-12T17:36:20Z" uid="59758" user="rendle" changeset="3099918">
    <nd ref="416079876"/>
    <nd ref="416079877"/>
    <nd ref="416079878"/>
    <nd ref="35165140"/>
    <nd ref="35165139"/>
    <nd ref="35165137"/>
    <nd ref="149200419"/>
    <nd ref="35165135"/>
    <tag k="highway" v="residential"/>
    <tag k="name" v="Dijkstraat"/>
  </way>
  <way id="5114418" version="6" timestamp="2010-02-26T19:22:06Z" uid="59758" user="rendle" changeset="3982906">
    <nd ref="416079876"/>
    <nd ref="416079877"/>
    <nd ref="654215686"/>
    <nd ref="416079878"/>
    <nd ref="35165140"/>
    <nd ref="35165139"/>
    <nd ref="35165137"/>
    <nd ref="149200419"/>
    <nd ref="35165135"/>
    <tag k="highway" v="residential"/>
    <tag k="name" v="Dijkstraat"/>
  </way>
  <way id="5114418" version="7" timestamp="2010-11-06T17:40:13Z" uid="313884" user="el Vinno" changeset="6304476">
    <nd ref="416079876"/>
    <nd ref="416079877"/>
    <nd ref="654215686"/>
    <nd ref="416079878"/>
    <nd ref="35165140"/>
    <nd ref="35165139"/>
    <nd ref="35165137"/>
    <nd ref="149200419"/>
    <nd ref="35165135"/>
    <tag k="highway" v="residential"/>
    <tag k="maxspeed" v="70"/>
    <tag k="name" v="Dijkstraat"/>
  </way>
  <way id="5114418" version="8" timestamp="2011-08-03T08:37:19Z" uid="15188" user="Polyglot" changeset="8907901"/>
  <way id="5114419" version="11" timestamp="2008-08-30T09:58:22Z" uid="59758" user="rendle" changeset="460677">
    <nd ref="96673105"/>
    <nd ref="96673104"/>
    <nd ref="96680236"/>
    <nd ref="96673103"/>
    <nd ref="96673102"/>
    <nd ref="96673100"/>
    <nd ref="96673099"/>
    <nd ref="96673098"/>
    <nd ref="96673097"/>
    <nd ref="96673096"/>
    <nd ref="261621182"/>
    <nd ref="96673095"/>
    <nd ref="96673094"/>
    <nd ref="292227243"/>
    <nd ref="96680234"/>
    <nd ref="96673093"/>
    <nd ref="96673092"/>
    <nd ref="96680232"/>
    <nd ref="96673091"/>
    <nd ref="96680231"/>
    <nd ref="96673090"/>
    <nd ref="149185951"/>
    <nd ref="35165152"/>
    <nd ref="35165128"/>
    <nd ref="35165130"/>
    <nd ref="35165132"/>
    <nd ref="287826081"/>
    <nd ref="287825236"/>
    <nd ref="149185988"/>
    <tag k="created_by" v="Potlatch 0.10b"/>
    <tag k="highway" v="primary"/>
    <tag k="oneway" v="yes"/>
    <tag k="ref" v="N47"/>
  </way>
  <way id="5114419" version="12" timestamp="2008-12-09T19:01:03Z" uid="8323" user="Toi" changeset="280105">
    <nd ref="96673105"/>
    <nd ref="96673104"/>
    <nd ref="96680236"/>
    <nd ref="96673103"/>
    <nd ref="96673102"/>
    <nd ref="96673100"/>
    <nd ref="96673099"/>
    <nd ref="96673098"/>
    <nd ref="96673097"/>
    <nd ref="96673096"/>
    <nd ref="261621182"/>
    <nd ref="96673095"/>
    <nd ref="96673094"/>
    <nd ref="292227243"/>
    <nd ref="96680234"/>
    <nd ref="96673093"/>
    <nd ref="96673092"/>
    <nd ref="96680232"/>
    <nd ref="317623164"/>
    <nd ref="96673091"/>
    <nd ref="96680231"/>
    <nd ref="96673090"/>
    <nd ref="149185951"/>
    <nd ref="35165152"/>
    <nd ref="35165128"/>
    <nd ref="35165130"/>
    <nd ref="35165132"/>
    <nd ref="287826081"/>
    <nd ref="287825236"/>
    <nd ref="149185988"/>
    <tag k="created_by" v="Potlatch 0.10b"/>
    <tag k="highway" v="primary"/>
    <tag k="oneway" v="yes"/>
    <tag k="ref" v="N47"/>
  </way>
  <way id="5114419" version="13" timestamp="2009-01-12T18:56:38Z" uid="73820" user="Mathias Versichele" changeset="780722">
    <nd ref="331529042"/>
    <nd ref="331529009"/>
    <nd ref="331529008"/>
    <nd ref="331529006"/>
    <nd ref="331529004"/>
    <nd ref="207583466"/>
    <tag k="created_by" v="Potlatch 0.10b"/>
    <tag k="highway" v="primary"/>
    <tag k="oneway" v="yes"/>
    <tag k="ref" v="N47"/>
  </way>
  <way id="5114419" version="14" timestamp="2009-01-15T19:16:09Z" uid="73820" user="Mathias Versichele" changeset="792925">
    <nd ref="331529042"/>
    <nd ref="332269281"/>
    <nd ref="331529009"/>
    <nd ref="331529008"/>
    <nd ref="331529006"/>
    <nd ref="331529004"/>
    <nd ref="207583466"/>
    <tag k="created_by" v="Potlatch 0.10b"/>
    <tag k="highway" v="primary"/>
    <tag k="oneway" v="yes"/>
    <tag k="ref" v="N47"/>
  </way>
  <way id="5114419" version="15" timestamp="2009-01-16T19:46:32Z" uid="73820" user="Mathias Versichele" changeset="797301">
    <nd ref="331529042"/>
    <nd ref="332269281"/>
    <nd ref="331529009"/>
    <nd ref="331529008"/>
    <nd ref="331529006"/>
    <nd ref="331529004"/>
    <nd ref="207583466"/>
    <tag k="created_by" v="Potlatch 0.10f"/>
    <tag k="highway" v="primary"/>
    <tag k="name" v="Europalaan"/>
    <tag k="oneway" v="yes"/>
    <tag k="ref" v="N47"/>
  </way>
  <way id="5114419" version="16" timestamp="2009-01-27T15:08:35Z" uid="73820" user="Mathias Versichele" changeset="844058">
    <nd ref="331529042"/>
    <nd ref="332269281"/>
    <nd ref="331529009"/>
    <nd ref="331529008"/>
    <nd ref="331529006"/>
    <nd ref="331529004"/>
    <nd ref="207583466"/>
    <tag k="created_by" v="Potlatch 0.10f"/>
    <tag k="highway" v="primary"/>
    <tag k="lanes" v="2"/>
    <tag k="name" v="Europalaan"/>
    <tag k="oneway" v="yes"/>
    <tag k="ref" v="N47"/>
  </way>
  <way id="5114419" version="17" timestamp="2010-11-06T17:40:09Z" uid="313884" user="el Vinno" changeset="6304476">
    <nd ref="331529042"/>
    <nd ref="332269281"/>
    <nd ref="331529009"/>
    <nd ref="331529008"/>
    <nd ref="331529006"/>
    <nd ref="331529004"/>
    <nd ref="207583466"/>
    <tag k="created_by" v="Potlatch 0.10f"/>
    <tag k="highway" v="primary"/>
    <tag k="lanes" v="2"/>
    <tag k="maxspeed" v="70"/>
    <tag k="name" v="Europalaan"/>
    <tag k="oneway" v="yes"/>
    <tag k="ref" v="N47"/>
  </way>
  <way id="5114434" version="4" timestamp="2009-05-24T11:56:26Z" uid="20587" user="balrog-kun" changeset="1304739">
    <nd ref="35166195"/>
    <nd ref="410506598"/>
    <nd ref="35166192"/>
    <nd ref="410506606"/>
    <nd ref="35166220"/>
    <nd ref="410506607"/>
    <nd ref="410506608"/>
    <nd ref="35166217"/>
    <nd ref="410506609"/>
    <nd ref="410506610"/>
    <nd ref="410506611"/>
    <nd ref="35166212"/>
    <nd ref="257558416"/>
    <nd ref="410506605"/>
    <nd ref="35166208"/>
    <nd ref="410506604"/>
    <nd ref="35166203"/>
    <nd ref="410506603"/>
    <nd ref="35166199"/>
    <nd ref="257558418"/>
    <nd ref="410506602"/>
    <nd ref="257558417"/>
    <nd ref="410506600"/>
    <nd ref="410506599"/>
    <nd ref="35166195"/>
    <tag k="created_by" v="JOSM"/>
    <tag k="name" v="Staw Koziorożca"/>
    <tag k="natural" v="water"/>
  </way>
  <way id="5114434" version="5" timestamp="2010-11-13T13:50:19Z" uid="175746" user="RafalR" changeset="6358275">
    <nd ref="35166195"/>
    <nd ref="410506599"/>
    <nd ref="410506600"/>
    <nd ref="257558417"/>
    <nd ref="410506602"/>
    <nd ref="257558418"/>
    <nd ref="35166199"/>
    <nd ref="410506603"/>
    <nd ref="35166203"/>
    <nd ref="410506604"/>
    <nd ref="35166208"/>
    <nd ref="410506605"/>
    <nd ref="257558416"/>
    <nd ref="35166212"/>
    <nd ref="410506611"/>
    <nd ref="410506610"/>
    <nd ref="410506609"/>
    <nd ref="35166217"/>
    <nd ref="410506608"/>
    <nd ref="410506607"/>
    <nd ref="35166220"/>
    <nd ref="410506606"/>
    <nd ref="35166192"/>
    <nd ref="410506598"/>
    <nd ref="35166195"/>
    <tag k="name" v="Staw Koziorożca"/>
    <tag k="natural" v="water"/>
  </way>
  <way id="5114434" version="6" timestamp="2011-10-13T17:28:53Z" uid="477744" user="hormel" changeset="9549147"/>
  <way id="5114435" version="4" timestamp="2009-05-24T11:56:25Z" uid="20587" user="balrog-kun" changeset="1304739">
    <nd ref="35166259"/>
    <nd ref="410506589"/>
    <nd ref="35166225"/>
    <nd ref="257558404"/>
    <nd ref="410506590"/>
    <nd ref="410506591"/>
    <nd ref="257558402"/>
    <nd ref="410506592"/>
    <nd ref="410506601"/>
    <nd ref="257558401"/>
    <nd ref="410506594"/>
    <nd ref="410506595"/>
    <nd ref="257558400"/>
    <nd ref="410506596"/>
    <nd ref="35166230"/>
    <nd ref="410506597"/>
    <nd ref="35166235"/>
    <nd ref="35166239"/>
    <nd ref="35166244"/>
    <nd ref="410506530"/>
    <nd ref="257558399"/>
    <nd ref="410506529"/>
    <nd ref="410506528"/>
    <nd ref="35166249"/>
    <nd ref="257558398"/>
    <nd ref="257558397"/>
    <nd ref="410506586"/>
    <nd ref="257558396"/>
    <nd ref="410506587"/>
    <nd ref="35166252"/>
    <nd ref="410506588"/>
    <nd ref="35166259"/>
    <tag k="created_by" v="JOSM"/>
    <tag k="natural" v="water"/>
  </way>
  <way id="5114435" version="5" timestamp="2010-11-13T13:50:20Z" uid="175746" user="RafalR" changeset="6358275">
    <nd ref="35166259"/>
    <nd ref="410506588"/>
    <nd ref="35166252"/>
    <nd ref="410506587"/>
    <nd ref="257558396"/>
    <nd ref="410506586"/>
    <nd ref="257558397"/>
    <nd ref="257558398"/>
    <nd ref="35166249"/>
    <nd ref="410506528"/>
    <nd ref="410506529"/>
    <nd ref="257558399"/>
    <nd ref="410506530"/>
    <nd ref="35166244"/>
    <nd ref="35166239"/>
    <nd ref="35166235"/>
    <nd ref="410506597"/>
    <nd ref="35166230"/>
    <nd ref="410506596"/>
    <nd ref="257558400"/>
    <nd ref="410506595"/>
    <nd ref="410506594"/>
    <nd ref="257558401"/>
    <nd ref="410506601"/>
    <nd ref="410506592"/>
    <nd ref="257558402"/>
    <nd ref="410506591"/>
    <nd ref="410506590"/>
    <nd ref="257558404"/>
    <nd ref="35166225"/>
    <nd ref="410506589"/>
    <nd ref="35166259"/>
    <tag k="natural" v="water"/>
  </way>
  <way id="5114435" version="6" timestamp="2011-10-13T17:28:53Z" uid="477744" user="hormel" changeset="9549147"/>
  <way id="5114535" version="4" timestamp="2008-10-07T22:01:37Z" uid="20587" user="balrog-kun" changeset="151343">
    <nd ref="35172747"/>
    <nd ref="253172171"/>
    <nd ref="302956777"/>
    <nd ref="35172749"/>
    <tag k="created_by" v="Potlatch 0.7b"/>
    <tag k="highway" v="tertiary"/>
    <tag k="name" v="Urbanistów"/>
  </way>
  <way id="5114535" version="5" timestamp="2010-12-04T04:20:07Z" uid="20587" user="balrog-kun" changeset="6534205">
    <nd ref="35172747"/>
    <nd ref="253172171"/>
    <nd ref="1019472206"/>
    <nd ref="1019471671"/>
    <nd ref="1019471890"/>
    <nd ref="302956777"/>
    <nd ref="35172749"/>
    <tag k="highway" v="tertiary"/>
    <tag k="name" v="Urbanistów"/>
  </way>
  <way id="5114535" version="6" timestamp="2011-11-29T22:37:45Z" uid="359526" user="arturek" changeset="9993586">
    <nd ref="35172747"/>
    <nd ref="253172171"/>
    <nd ref="1019472206"/>
    <nd ref="1019471671"/>
    <nd ref="1019471890"/>
    <nd ref="302956777"/>
    <nd ref="1523925176"/>
    <nd ref="35172749"/>
    <tag k="highway" v="tertiary"/>
    <tag k="name" v="Urbanistów"/>
  </way>
  <way id="5114536" version="4" timestamp="2008-02-20T19:13:15Z" uid="20587" user="balrog-kun" changeset="164283">
    <nd ref="32605642"/>
    <nd ref="201867180"/>
    <nd ref="201867151"/>
    <nd ref="32049450"/>
    <nd ref="179694998"/>
    <nd ref="32049451"/>
    <nd ref="248557656"/>
    <nd ref="248557708"/>
    <nd ref="248557711"/>
    <nd ref="35172749"/>
    <nd ref="35172751"/>
    <tag k="created_by" v="JOSM"/>
    <tag k="highway" v="tertiary"/>
    <tag k="name" v="Karola Dickensa"/>
  </way>
  <way id="5114536" version="5" timestamp="2008-03-21T13:18:11Z" uid="1679" user="andrewpmk" changeset="363628">
    <nd ref="32605642"/>
    <nd ref="201867180"/>
    <nd ref="201867151"/>
    <nd ref="32049450"/>
    <nd ref="179694998"/>
    <nd ref="32049451"/>
    <nd ref="248557656"/>
    <nd ref="248557708"/>
    <nd ref="248557711"/>
    <nd ref="35172749"/>
    <nd ref="35172751"/>
    <tag k="created_by" v="Potlatch 0.7b"/>
    <tag k="highway" v="tertiary"/>
    <tag k="name" v="Karola Dickensa"/>
  </way>
  <way id="5114536" version="6" timestamp="2008-03-21T13:19:57Z" uid="1679" user="andrewpmk" changeset="363628">
    <nd ref="32605642"/>
    <nd ref="201867180"/>
    <nd ref="201867151"/>
    <nd ref="32049450"/>
    <nd ref="179694998"/>
    <nd ref="32049451"/>
    <nd ref="248557656"/>
    <nd ref="248557708"/>
    <nd ref="248557711"/>
    <nd ref="35172749"/>
    <nd ref="35172751"/>
    <tag k="created_by" v="Potlatch 0.7b"/>
    <tag k="highway" v="tertiary"/>
    <tag k="name" v="Karola Dickensa"/>
  </way>
  <way id="5114536" version="7" timestamp="2008-03-21T13:20:34Z" uid="1679" user="andrewpmk" changeset="363628">
    <nd ref="32605642"/>
    <nd ref="201867180"/>
    <nd ref="201867151"/>
    <nd ref="32049450"/>
    <nd ref="179694998"/>
    <nd ref="32049451"/>
    <nd ref="248557656"/>
    <nd ref="248557708"/>
    <nd ref="248557711"/>
    <nd ref="35172749"/>
    <nd ref="35172751"/>
    <tag k="created_by" v="Potlatch 0.7b"/>
    <tag k="highway" v="tertiary"/>
    <tag k="name" v="Karola Dickensa"/>
  </way>
  <way id="5114536" version="8" timestamp="2008-03-21T13:20:45Z" uid="1679" user="andrewpmk" changeset="363628">
    <nd ref="32605642"/>
    <nd ref="201867180"/>
    <nd ref="201867151"/>
    <nd ref="32049450"/>
    <nd ref="179694998"/>
    <nd ref="32049451"/>
    <nd ref="248557656"/>
    <nd ref="248557708"/>
    <nd ref="248557711"/>
    <nd ref="35172749"/>
    <nd ref="35172751"/>
    <tag k="created_by" v="Potlatch 0.7b"/>
    <tag k="highway" v="tertiary"/>
    <tag k="name" v="Karola Dickensa"/>
  </way>
  <way id="5114536" version="9" timestamp="2008-03-21T13:23:13Z" uid="1679" user="andrewpmk" changeset="363628">
    <nd ref="32605642"/>
    <nd ref="201867180"/>
    <nd ref="201867151"/>
    <nd ref="32049450"/>
    <nd ref="179694998"/>
    <nd ref="32049451"/>
    <nd ref="248557656"/>
    <nd ref="248557708"/>
    <nd ref="248557711"/>
    <nd ref="35172749"/>
    <nd ref="35172751"/>
    <tag k="created_by" v="Potlatch 0.7b"/>
    <tag k="highway" v="tertiary"/>
    <tag k="name" v="Karola Dickensa"/>
  </way>
  <way id="5114536" version="10" timestamp="2008-10-07T22:01:36Z" uid="20587" user="balrog-kun" changeset="151343">
    <nd ref="32605642"/>
    <nd ref="201867180"/>
    <nd ref="201867151"/>
    <nd ref="32049450"/>
    <nd ref="179694998"/>
    <nd ref="32049451"/>
    <nd ref="248557656"/>
    <nd ref="248557708"/>
    <nd ref="248557711"/>
    <nd ref="35172749"/>
    <nd ref="302956788"/>
    <nd ref="35172751"/>
    <tag k="created_by" v="Potlatch 0.7b"/>
    <tag k="highway" v="tertiary"/>
    <tag k="name" v="Karola Dickensa"/>
  </way>
  <way id="5114536" version="11" timestamp="2009-02-07T01:57:30Z" uid="20587" user="balrog-kun" changeset="215573">
    <nd ref="32605642"/>
    <nd ref="201867180"/>
    <nd ref="201867151"/>
    <nd ref="32049450"/>
    <nd ref="179694998"/>
    <nd ref="32049451"/>
    <nd ref="248557656"/>
    <nd ref="248557708"/>
    <nd ref="248557711"/>
    <nd ref="35172749"/>
    <nd ref="342528423"/>
    <nd ref="342528420"/>
    <nd ref="342528428"/>
    <nd ref="302956788"/>
    <nd ref="342528384"/>
    <nd ref="342528437"/>
    <nd ref="35172751"/>
    <tag k="created_by" v="Potlatch 0.7b"/>
    <tag k="highway" v="tertiary"/>
    <tag k="name" v="Karola Dickensa"/>
  </way>
  <way id="5114536" version="12" timestamp="2010-01-22T14:32:14Z" uid="20587" user="balrog-kun" changeset="3683630">
    <nd ref="32605642"/>
    <nd ref="201867180"/>
    <nd ref="201867151"/>
    <nd ref="32049450"/>
    <nd ref="618122458"/>
    <nd ref="179694998"/>
    <nd ref="32049451"/>
    <nd ref="248557656"/>
    <nd ref="248557708"/>
    <nd ref="248557711"/>
    <nd ref="35172749"/>
    <nd ref="342528423"/>
    <nd ref="342528420"/>
    <nd ref="342528428"/>
    <nd ref="302956788"/>
    <nd ref="342528384"/>
    <nd ref="342528437"/>
    <nd ref="35172751"/>
    <tag k="highway" v="tertiary"/>
    <tag k="name" v="Karola Dickensa"/>
  </way>
  <way id="5114536" version="13" timestamp="2010-09-14T07:02:53Z" uid="98542" user="wajak" changeset="5775749">
    <nd ref="32605642"/>
    <nd ref="201867180"/>
    <nd ref="201867151"/>
    <nd ref="32049450"/>
    <nd ref="618122458"/>
    <nd ref="179694998"/>
    <nd ref="32049451"/>
    <nd ref="248557656"/>
    <nd ref="248557708"/>
    <nd ref="248557711"/>
    <nd ref="35172749"/>
    <nd ref="342528423"/>
    <nd ref="342528420"/>
    <nd ref="342528428"/>
    <nd ref="302956788"/>
    <nd ref="342528384"/>
    <nd ref="342528437"/>
    <nd ref="911600979"/>
    <tag k="highway" v="tertiary"/>
    <tag k="name" v="Karola Dickensa"/>
  </way>
  <way id="5114536" version="14" timestamp="2010-10-01T19:39:48Z" uid="20587" user="balrog-kun" changeset="5930868">
    <nd ref="32605642"/>
    <nd ref="201867180"/>
    <nd ref="201867151"/>
    <nd ref="32049450"/>
    <nd ref="618122458"/>
    <nd ref="179694998"/>
    <nd ref="32049451"/>
    <nd ref="248557656"/>
    <nd ref="248557708"/>
    <nd ref="248557711"/>
    <nd ref="35172749"/>
    <nd ref="342528423"/>
    <nd ref="342528420"/>
    <nd ref="342528428"/>
    <nd ref="302956788"/>
    <nd ref="342528384"/>
    <nd ref="342528437"/>
    <nd ref="911600979"/>
    <tag k="highway" v="tertiary"/>
    <tag k="maxweight" v="5"/>
    <tag k="name" v="Karola Dickensa"/>
  </way>
  <way id="5114536" version="15" timestamp="2010-12-04T04:20:05Z" uid="20587" user="balrog-kun" changeset="6534205">
    <nd ref="32605642"/>
    <nd ref="201867180"/>
    <nd ref="201867151"/>
    <nd ref="32049450"/>
    <nd ref="618122458"/>
    <nd ref="179694998"/>
    <nd ref="32049451"/>
    <nd ref="248557656"/>
    <nd ref="248557708"/>
    <nd ref="248557711"/>
    <nd ref="35172749"/>
    <nd ref="342528423"/>
    <nd ref="342528420"/>
    <nd ref="342528428"/>
    <nd ref="302956788"/>
    <nd ref="1019472108"/>
    <nd ref="342528384"/>
    <nd ref="342528437"/>
    <nd ref="911600979"/>
    <tag k="highway" v="tertiary"/>
    <tag k="maxweight" v="5"/>
    <tag k="name" v="Karola Dickensa"/>
  </way>
  <way id="5114536" version="16" timestamp="2011-06-27T20:45:17Z" uid="477744" user="hormel" changeset="8565987">
    <nd ref="32605642"/>
    <nd ref="201867180"/>
    <nd ref="201867151"/>
    <nd ref="32049450"/>
    <nd ref="618122458"/>
    <nd ref="179694998"/>
    <nd ref="32049451"/>
    <nd ref="248557656"/>
    <nd ref="248557708"/>
    <nd ref="248557711"/>
    <nd ref="35172749"/>
    <nd ref="342528423"/>
    <nd ref="342528420"/>
    <nd ref="342528428"/>
    <nd ref="302956788"/>
    <nd ref="1019472108"/>
    <nd ref="342528384"/>
    <nd ref="342528437"/>
    <nd ref="1341660626"/>
    <nd ref="911600979"/>
    <tag k="highway" v="tertiary"/>
    <tag k="maxweight" v="5"/>
    <tag k="name" v="Karola Dickensa"/>
  </way>
  <way id="5114536" version="17" timestamp="2011-10-31T17:25:34Z" uid="359526" user="arturek" changeset="9705573"/>
  <way id="5114537" version="2" timestamp="2008-02-20T19:13:16Z" uid="20587" user="balrog-kun" changeset="164283">
    <nd ref="35172751"/>
    <nd ref="248557706"/>
    <nd ref="248557697"/>
    <nd ref="27167165"/>
    <nd ref="32049466"/>
    <tag k="created_by" v="JOSM"/>
    <tag k="highway" v="tertiary"/>
    <tag k="name" v="Szczęśliwicka"/>
  </way>
  <way id="5114537" version="3" timestamp="2008-02-21T15:53:22Z" uid="20587" user="balrog-kun" changeset="174814">
    <nd ref="35172751"/>
    <nd ref="248557706"/>
    <nd ref="248557697"/>
    <nd ref="27167165"/>
    <nd ref="32049466"/>
    <nd ref="248664396"/>
    <nd ref="248664461"/>
    <nd ref="248664434"/>
    <nd ref="27167059"/>
    <nd ref="31156748"/>
    <nd ref="201830807"/>
    <nd ref="201830798"/>
    <nd ref="201830791"/>
    <tag k="created_by" v="JOSM"/>
    <tag k="highway" v="tertiary"/>
    <tag k="name" v="Szczęśliwicka"/>
    <tag k="source" v="survey"/>
  </way>
  <way id="5114537" version="4" timestamp="2008-03-21T13:07:19Z" uid="1679" user="andrewpmk" changeset="363628">
    <nd ref="35172751"/>
    <nd ref="248557706"/>
    <nd ref="248557697"/>
    <nd ref="27167165"/>
    <nd ref="32049466"/>
    <nd ref="248664396"/>
    <nd ref="248664461"/>
    <nd ref="248664434"/>
    <nd ref="27167059"/>
    <nd ref="31156748"/>
    <nd ref="201830807"/>
    <nd ref="201830798"/>
    <nd ref="201830791"/>
    <tag k="created_by" v="Potlatch 0.7b"/>
    <tag k="highway" v="tertiary"/>
    <tag k="name" v="Szczęśliwicka"/>
    <tag k="source" v="survey"/>
  </way>
  <way id="5114537" version="5" timestamp="2008-03-21T13:09:51Z" uid="1679" user="andrewpmk" changeset="363628">
    <nd ref="35172751"/>
    <nd ref="248557706"/>
    <nd ref="248557697"/>
    <nd ref="27167165"/>
    <nd ref="32049466"/>
    <nd ref="248664396"/>
    <nd ref="248664461"/>
    <nd ref="248664434"/>
    <nd ref="27167059"/>
    <nd ref="31156748"/>
    <nd ref="201830807"/>
    <nd ref="201830798"/>
    <nd ref="201830791"/>
    <tag k="created_by" v="Potlatch 0.7b"/>
    <tag k="highway" v="tertiary"/>
    <tag k="name" v="Szczęśliwicka"/>
    <tag k="source" v="survey"/>
  </way>
  <way id="5114537" version="6" timestamp="2008-03-21T13:11:27Z" uid="1679" user="andrewpmk" changeset="363628"/>
  <way id="5114538" version="9" timestamp="2008-10-08T02:50:07Z" uid="20587" user="balrog-kun" changeset="168522">
    <nd ref="35147465"/>
    <nd ref="253173362"/>
    <nd ref="35172753"/>
    <nd ref="131650168"/>
    <nd ref="131645447"/>
    <nd ref="35172755"/>
    <nd ref="253173015"/>
    <nd ref="35172757"/>
    <nd ref="253172868"/>
    <nd ref="253172869"/>
    <nd ref="253172870"/>
    <nd ref="35172759"/>
    <nd ref="302980936"/>
    <nd ref="35172751"/>
    <tag k="created_by" v="Potlatch 0.7b"/>
    <tag k="highway" v="tertiary"/>
    <tag k="name" v="Drawska"/>
  </way>
  <way id="5114538" version="10" timestamp="2009-02-12T19:39:43Z" uid="20587" user="balrog-kun" changeset="373828">
    <nd ref="35147465"/>
    <nd ref="253173362"/>
    <nd ref="35172753"/>
    <nd ref="131650168"/>
    <nd ref="131645447"/>
    <nd ref="344736344"/>
    <nd ref="35172755"/>
    <nd ref="253173015"/>
    <nd ref="35172757"/>
    <nd ref="253172868"/>
    <nd ref="253172869"/>
    <nd ref="253172870"/>
    <nd ref="35172759"/>
    <nd ref="302980936"/>
    <nd ref="35172751"/>
    <tag k="created_by" v="Potlatch 0.7b"/>
    <tag k="highway" v="tertiary"/>
    <tag k="name" v="Drawska"/>
  </way>
  <way id="5114538" version="11" timestamp="2010-08-15T15:30:47Z" uid="59223" user="Briquollo" changeset="5501034">
    <nd ref="35147465"/>
    <nd ref="253173362"/>
    <nd ref="35172753"/>
    <nd ref="131650168"/>
    <nd ref="131645447"/>
    <nd ref="344736344"/>
    <nd ref="35172755"/>
    <nd ref="253173015"/>
    <nd ref="861374695"/>
    <nd ref="35172757"/>
    <nd ref="253172868"/>
    <nd ref="253172869"/>
    <nd ref="253172870"/>
    <nd ref="35172759"/>
    <nd ref="302980936"/>
    <nd ref="35172751"/>
    <tag k="highway" v="tertiary"/>
    <tag k="name" v="Drawska"/>
  </way>
  <way id="5114538" version="12" timestamp="2010-09-14T07:02:54Z" uid="98542" user="wajak" changeset="5775749">
    <nd ref="35147465"/>
    <nd ref="253173362"/>
    <nd ref="35172753"/>
    <nd ref="131650168"/>
    <nd ref="131645447"/>
    <nd ref="344736344"/>
    <nd ref="35172755"/>
    <nd ref="253173015"/>
    <nd ref="861374695"/>
    <nd ref="35172757"/>
    <nd ref="253172868"/>
    <nd ref="253172869"/>
    <nd ref="253172870"/>
    <nd ref="35172759"/>
    <nd ref="302980936"/>
    <nd ref="911600982"/>
    <tag k="highway" v="tertiary"/>
    <tag k="name" v="Drawska"/>
  </way>
  <way id="5114538" version="13" timestamp="2010-09-24T20:34:19Z" uid="98542" user="wajak" changeset="5866354">
    <nd ref="35147465"/>
    <nd ref="253173362"/>
    <nd ref="35172753"/>
    <nd ref="131650168"/>
    <nd ref="131645447"/>
    <nd ref="344736344"/>
    <nd ref="35172755"/>
    <nd ref="253173015"/>
    <nd ref="861374695"/>
    <nd ref="35172757"/>
    <nd ref="253172868"/>
    <nd ref="253172869"/>
    <nd ref="253172870"/>
    <nd ref="35172759"/>
    <nd ref="302980936"/>
    <nd ref="911600982"/>
    <tag k="highway" v="residential"/>
    <tag k="name" v="Drawska"/>
  </way>
  <way id="5114538" version="14" timestamp="2011-05-23T18:00:51Z" uid="98542" user="wajak" changeset="8228609">
    <nd ref="35147464"/>
    <nd ref="253167698"/>
    <nd ref="253167699"/>
    <nd ref="35147465"/>
    <nd ref="253173362"/>
    <nd ref="35172753"/>
    <nd ref="131650168"/>
    <tag k="highway" v="residential"/>
    <tag k="name" v="Śmigłowca"/>
  </way>
  <way id="5114538" version="15" timestamp="2011-09-24T10:30:07Z" uid="477744" user="hormel" changeset="9383010">
    <nd ref="35147464"/>
    <nd ref="253167698"/>
    <nd ref="253167699"/>
    <nd ref="1444357876"/>
    <nd ref="35147465"/>
    <nd ref="253173362"/>
    <nd ref="35172753"/>
    <nd ref="131650168"/>
    <tag k="highway" v="residential"/>
    <tag k="name" v="Śmigłowca"/>
  </way>
  <way id="5114538" version="16" timestamp="2011-12-11T19:55:03Z" uid="98542" user="wajak" changeset="10093586">
    <nd ref="35147464"/>
    <nd ref="253167698"/>
    <nd ref="253167699"/>
    <nd ref="1541427931"/>
    <nd ref="1444357876"/>
    <nd ref="35147465"/>
    <nd ref="253173362"/>
    <nd ref="35172753"/>
    <nd ref="131650168"/>
    <tag k="highway" v="residential"/>
    <tag k="name" v="Śmigłowca"/>
  </way>
  <way id="5114539" version="2" timestamp="2010-06-23T02:27:05Z" uid="20587" user="balrog-kun" changeset="5056010">
    <nd ref="35172761"/>
    <nd ref="783649857"/>
    <nd ref="783649892"/>
    <nd ref="783649719"/>
    <nd ref="783649755"/>
    <nd ref="35172771"/>
    <nd ref="35172769"/>
    <nd ref="783649787"/>
    <nd ref="783649816"/>
    <nd ref="783649845"/>
    <nd ref="783649871"/>
    <nd ref="783649818"/>
    <nd ref="35172767"/>
    <nd ref="783649876"/>
    <nd ref="783649848"/>
    <nd ref="35172765"/>
    <nd ref="35172763"/>
    <nd ref="783649879"/>
    <nd ref="783649699"/>
    <nd ref="783649733"/>
    <nd ref="35172761"/>
    <tag k="landuse" v="reservoir"/>
  </way>
  <way id="5114699" version="2" timestamp="2008-11-13T15:49:44Z" uid="20587" user="balrog-kun" changeset="742968">
    <nd ref="35175195"/>
    <nd ref="35175191"/>
    <nd ref="311778177"/>
    <nd ref="311778185"/>
    <nd ref="27167101"/>
    <tag k="created_by" v="JOSM"/>
    <tag k="highway" v="tertiary"/>
    <tag k="name" v="Popularna"/>
    <tag k="oneway" v="yes"/>
  </way>
  <way id="5114699" version="3" timestamp="2009-05-14T16:01:46Z" uid="20587" user="balrog-kun" changeset="1189743">
    <nd ref="35175195"/>
    <nd ref="35175191"/>
    <nd ref="311778177"/>
    <nd ref="311778185"/>
    <nd ref="399279480"/>
    <nd ref="27167101"/>
    <tag k="created_by" v="JOSM"/>
    <tag k="highway" v="tertiary"/>
    <tag k="name" v="Popularna"/>
    <tag k="oneway" v="yes"/>
  </way>
  <way id="5114699" version="4" timestamp="2009-05-14T16:09:13Z" uid="20587" user="balrog-kun" changeset="1189810">
    <nd ref="35175195"/>
    <nd ref="35175191"/>
    <nd ref="399293454"/>
    <nd ref="399293473"/>
    <nd ref="311778177"/>
    <nd ref="311778185"/>
    <nd ref="399279480"/>
    <nd ref="27167101"/>
    <tag k="created_by" v="JOSM"/>
    <tag k="highway" v="tertiary"/>
    <tag k="name" v="Popularna"/>
    <tag k="oneway" v="yes"/>
  </way>
  <way id="5114699" version="5" timestamp="2009-05-24T13:46:11Z" uid="20587" user="balrog-kun" changeset="1305789">
    <nd ref="35175195"/>
    <nd ref="410561312"/>
    <nd ref="35175191"/>
    <nd ref="399293454"/>
    <nd ref="399293473"/>
    <nd ref="311778177"/>
    <nd ref="311778185"/>
    <nd ref="399279480"/>
    <nd ref="27167101"/>
    <tag k="created_by" v="JOSM"/>
    <tag k="highway" v="tertiary"/>
    <tag k="name" v="Popularna"/>
    <tag k="oneway" v="yes"/>
  </way>
  <way id="5114700" version="3" timestamp="2009-05-14T16:01:47Z" uid="20587" user="balrog-kun" changeset="1189743">
    <nd ref="27167100"/>
    <nd ref="399279483"/>
    <nd ref="120342010"/>
    <nd ref="120342047"/>
    <nd ref="35175193"/>
    <nd ref="35175195"/>
    <tag k="created_by" v="JOSM"/>
    <tag k="highway" v="tertiary"/>
    <tag k="name" v="Popularna"/>
    <tag k="oneway" v="yes"/>
  </way>
  <way id="5114700" version="4" timestamp="2009-05-14T16:09:13Z" uid="20587" user="balrog-kun" changeset="1189810">
    <nd ref="27167100"/>
    <nd ref="399279483"/>
    <nd ref="120342010"/>
    <nd ref="399293457"/>
    <nd ref="120342047"/>
    <nd ref="35175193"/>
    <nd ref="35175195"/>
    <tag k="created_by" v="JOSM"/>
    <tag k="highway" v="tertiary"/>
    <tag k="name" v="Popularna"/>
    <tag k="oneway" v="yes"/>
  </way>
  <way id="5114700" version="5" timestamp="2011-06-13T19:47:01Z" uid="98542" user="wajak" changeset="8430801">
    <nd ref="27167099"/>
    <nd ref="399279483"/>
    <nd ref="120342010"/>
    <nd ref="399293457"/>
    <nd ref="120342047"/>
    <nd ref="35175193"/>
    <nd ref="35175195"/>
    <tag k="highway" v="tertiary"/>
    <tag k="name" v="Popularna"/>
    <tag k="oneway" v="yes"/>
  </way>
  <way id="5114701" version="11" timestamp="2009-05-24T11:56:24Z" uid="20587" user="balrog-kun" changeset="1304739">
    <nd ref="35175195"/>
    <nd ref="256631511"/>
    <nd ref="35175197"/>
    <nd ref="256631506"/>
    <nd ref="257557957"/>
    <nd ref="131692449"/>
    <nd ref="146538267"/>
    <nd ref="256631496"/>
    <nd ref="257557666"/>
    <nd ref="83559353"/>
    <nd ref="257557653"/>
    <nd ref="88061117"/>
    <nd ref="257557652"/>
    <nd ref="83559382"/>
    <nd ref="131690740"/>
    <nd ref="410506759"/>
    <nd ref="83559397"/>
    <tag k="created_by" v="Potlatch 0.5d"/>
    <tag k="highway" v="tertiary"/>
    <tag k="name" v="Popularna"/>
  </way>
  <way id="5114701" version="12" timestamp="2009-05-24T12:43:51Z" uid="20587" user="balrog-kun" changeset="1305172">
    <nd ref="35175195"/>
    <nd ref="256631511"/>
    <nd ref="35175197"/>
    <nd ref="256631506"/>
    <nd ref="257557957"/>
    <nd ref="131692449"/>
    <nd ref="146538267"/>
    <nd ref="256631496"/>
    <nd ref="410523709"/>
    <nd ref="257557666"/>
    <nd ref="83559353"/>
    <nd ref="257557653"/>
    <nd ref="88061117"/>
    <nd ref="257557652"/>
    <nd ref="83559382"/>
    <nd ref="131690740"/>
    <nd ref="410506759"/>
    <nd ref="83559397"/>
    <tag k="created_by" v="Potlatch 0.5d"/>
    <tag k="highway" v="tertiary"/>
    <tag k="name" v="Popularna"/>
  </way>
  <way id="5114701" version="13" timestamp="2009-05-24T13:46:10Z" uid="20587" user="balrog-kun" changeset="1305789">
    <nd ref="35175195"/>
    <nd ref="256631511"/>
    <nd ref="35175197"/>
    <nd ref="256631506"/>
    <nd ref="257557957"/>
    <nd ref="410561294"/>
    <nd ref="131692449"/>
    <nd ref="410561295"/>
    <nd ref="146538267"/>
    <nd ref="256631496"/>
    <nd ref="410523709"/>
    <nd ref="257557666"/>
    <nd ref="83559353"/>
    <nd ref="257557653"/>
    <nd ref="88061117"/>
    <nd ref="257557652"/>
    <nd ref="83559382"/>
    <nd ref="131690740"/>
    <nd ref="410506759"/>
    <nd ref="83559397"/>
    <tag k="created_by" v="Potlatch 0.5d"/>
    <tag k="highway" v="tertiary"/>
    <tag k="name" v="Popularna"/>
  </way>
  <way id="5114701" version="14" timestamp="2011-06-27T11:10:37Z" uid="477744" user="hormel" changeset="8560844">
    <nd ref="35175195"/>
    <nd ref="256631511"/>
    <nd ref="35175197"/>
    <nd ref="256631506"/>
    <nd ref="410561294"/>
    <nd ref="131692449"/>
    <nd ref="410561295"/>
    <nd ref="146538267"/>
    <nd ref="256631496"/>
    <nd ref="410523709"/>
    <nd ref="257557666"/>
    <nd ref="83559353"/>
    <nd ref="257557653"/>
    <nd ref="88061117"/>
    <nd ref="257557652"/>
    <nd ref="83559382"/>
    <nd ref="131690740"/>
    <nd ref="410506759"/>
    <nd ref="83559397"/>
    <tag k="highway" v="tertiary"/>
    <tag k="name" v="Popularna"/>
  </way>
  <way id="5114701" version="15" timestamp="2011-06-27T14:03:23Z" uid="477744" user="hormel" changeset="8562507">
    <nd ref="35175195"/>
    <nd ref="256631511"/>
    <nd ref="35175197"/>
    <nd ref="256631506"/>
    <nd ref="410561294"/>
    <nd ref="131692449"/>
    <nd ref="410561295"/>
    <nd ref="146538267"/>
    <nd ref="256631496"/>
    <nd ref="410523709"/>
    <nd ref="257557666"/>
    <nd ref="83559353"/>
    <nd ref="257557653"/>
    <nd ref="88061117"/>
    <nd ref="257557652"/>
    <nd ref="83559382"/>
    <nd ref="131690740"/>
    <tag k="highway" v="tertiary"/>
    <tag k="name" v="Popularna"/>
  </way>
  <way id="5114701" version="16" timestamp="2011-06-28T18:53:58Z" uid="98542" user="wajak" changeset="8574183">
    <nd ref="35175195"/>
    <nd ref="256631511"/>
    <nd ref="35175197"/>
    <nd ref="256631506"/>
    <nd ref="1342518065"/>
    <nd ref="410561294"/>
    <nd ref="131692449"/>
    <nd ref="410561295"/>
    <nd ref="146538267"/>
    <nd ref="256631496"/>
    <nd ref="410523709"/>
    <nd ref="257557666"/>
    <nd ref="83559353"/>
    <nd ref="257557653"/>
    <nd ref="88061117"/>
    <nd ref="257557652"/>
    <nd ref="83559382"/>
    <nd ref="131690740"/>
    <tag k="highway" v="tertiary"/>
    <tag k="name" v="Popularna"/>
  </way>
  <way id="5114701" version="17" timestamp="2011-06-28T21:58:38Z" uid="477744" user="hormel" changeset="8576290">
    <nd ref="35175195"/>
    <nd ref="256631511"/>
    <nd ref="35175197"/>
    <nd ref="256631506"/>
    <nd ref="1342518065"/>
    <nd ref="410561294"/>
    <nd ref="131692449"/>
    <nd ref="410561295"/>
    <nd ref="146538267"/>
    <nd ref="256631496"/>
    <nd ref="410523709"/>
    <nd ref="257557666"/>
    <nd ref="83559353"/>
    <nd ref="257557653"/>
    <nd ref="88061117"/>
    <nd ref="257557652"/>
    <nd ref="83559382"/>
    <nd ref="131690740"/>
    <tag k="highway" v="tertiary"/>
    <tag k="lanes" v="2"/>
    <tag k="name" v="Popularna"/>
  </way>
  <way id="5114701" version="18" timestamp="2011-07-15T11:25:45Z" uid="487944" user="Voitcus" changeset="8730280">
    <nd ref="35175195"/>
    <nd ref="256631511"/>
    <nd ref="35175197"/>
    <nd ref="256631506"/>
    <nd ref="1342518065"/>
    <nd ref="410561294"/>
    <nd ref="131692449"/>
    <nd ref="410561295"/>
    <nd ref="146538267"/>
    <nd ref="256631496"/>
    <nd ref="410523709"/>
    <nd ref="257557666"/>
    <nd ref="83559353"/>
    <tag k="highway" v="tertiary"/>
    <tag k="lanes" v="2"/>
    <tag k="name" v="Popularna"/>
  </way>
</osm>
