<?xml version='1.0' encoding='UTF-8'?>
<osm version="0.6" generator="libosmium/2.20.0">
  <way id="51202395" version="3" timestamp="2010-04-07T14:27:06Z" uid="20587" user="balrog-kun" changeset="4353646">
    <nd ref="653290153"/>
    <nd ref="653290173"/>
    <tag k="bridge" v="yes"/>
    <tag k="highway" v="primary"/>
    <tag k="layer" v="1"/>
    <tag k="name" v="Fredericksburg Road"/>
    <tag k="old_ref" v="US 87"/>
    <tag k="ref" v="Loop 345"/>
    <tag k="tiger:cfcc" v="A31"/>
    <tag k="tiger:county" v="Bexar, TX"/>
    <tag k="tiger:name_base" v="Fredericksburg"/>
    <tag k="tiger:name_base_1" v="United States Highway 87 (Bus)"/>
    <tag k="tiger:name_base_2" v="State Highway 345"/>
    <tag k="tiger:name_type" v="Rd"/>
    <tag k="tiger:separated" v="no"/>
    <tag k="tiger:source" v="tiger_import_dch_v0.6_20070829"/>
    <tag k="tiger:tlid" v="101714375:101714378:101493370:101493371:101493374:101493391:101491872:101493394:101714563:101714569:101491829"/>
    <tag k="tiger:zip_left" v="78229"/>
    <tag k="tiger:zip_right" v="78229"/>
  </way>
  <way id="51202395" version="4" timestamp="2011-02-04T23:34:09Z" uid="239998" user="Sundance" changeset="7188454">
    <nd ref="653290153"/>
    <nd ref="653290173"/>
    <tag k="addr:postcode" v="78229"/>
    <tag k="alt_name" v="United States Route 87 (Bus)"/>
    <tag k="bridge" v="yes"/>
    <tag k="highway" v="primary"/>
    <tag k="is_in" v="Bexar, TX"/>
    <tag k="layer" v="1"/>
    <tag k="name" v="Fredericksburg Rd"/>
    <tag k="old_ref" v="US 87"/>
    <tag k="oneway" v="yes"/>
    <tag k="ref" v="Loop 345"/>
    <tag k="reg_name" v="State Highway 345"/>
    <tag k="tiger:name_base" v="Fredericksburg"/>
    <tag k="tiger:source" v="tiger_import_dch_v0.6_20070829"/>
    <tag k="tiger:tlid" v="101714375:101714378:101493370:101493371:101493374:101493391:101491872:101493394:101714563:101714569:101491829"/>
    <tag k="tiger:upload_uuid" v="bulk_upload.pl-f033f43d-5a83-4be5-a442-32cd6acac765"/>
  </way>
  <way id="51202395" version="5" timestamp="2011-08-17T06:16:14Z" uid="119881" user="Clorox" changeset="9044462">
    <nd ref="653290153"/>
    <nd ref="653290173"/>
    <tag k="addr:postcode" v="78229"/>
    <tag k="alt_name" v="United States Route 87 (Bus)"/>
    <tag k="bridge" v="yes"/>
    <tag k="highway" v="primary"/>
    <tag k="is_in" v="Bexar, TX"/>
    <tag k="layer" v="1"/>
    <tag k="name" v="Fredericksburg Road"/>
    <tag k="old_ref" v="US 87"/>
    <tag k="oneway" v="yes"/>
    <tag k="ref" v="Loop 345"/>
    <tag k="reg_name" v="State Highway 345"/>
    <tag k="tiger:name_base" v="Fredericksburg"/>
    <tag k="tiger:source" v="tiger_import_dch_v0.6_20070829"/>
    <tag k="tiger:tlid" v="101714375:101714378:101493370:101493371:101493374:101493391:101491872:101493394:101714563:101714569:101491829"/>
    <tag k="tiger:upload_uuid" v="bulk_upload.pl-f033f43d-5a83-4be5-a442-32cd6acac765"/>
  </way>
  <way id="51202395" version="6" timestamp="2012-01-03T09:36:55Z" uid="207745" user="NE2" changeset="10279358">
    <nd ref="653290153"/>
    <nd ref="653290173"/>
    <tag k="addr:postcode" v="78229"/>
    <tag k="bridge" v="yes"/>
    <tag k="highway" v="primary"/>
    <tag k="is_in" v="Bexar, TX"/>
    <tag k="layer" v="1"/>
    <tag k="name" v="Fredericksburg Road"/>
    <tag k="old_ref" v="US 87"/>
    <tag k="oneway" v="yes"/>
    <tag k="ref" v="Loop 345"/>
    <tag k="tiger:name_base" v="Fredericksburg"/>
    <tag k="tiger:source" v="tiger_import_dch_v0.6_20070829"/>
    <tag k="tiger:tlid" v="101714375:101714378:101493370:101493371:101493374:101493391:101491872:101493394:101714563:101714569:101491829"/>
    <tag k="tiger:upload_uuid" v="bulk_upload.pl-f033f43d-5a83-4be5-a442-32cd6acac765"/>
  </way>
</osm>
