<?xml version='1.0' encoding='UTF-8'?>
<osm version="0.6" generator="libosmium/2.20.0">
  <way id="51362140" version="1" timestamp="2010-02-27T21:00:46Z" uid="17602" user="B10xyz" changeset="3992652">
    <nd ref="655373064"/>
    <nd ref="655373066"/>
    <nd ref="655373065"/>
    <nd ref="655373063"/>
    <nd ref="655373064"/>
    <tag k="building" v="yes"/>
    <tag k="layer" v="1"/>
    <tag k="name" v="Palazzo Michiel dalle Colonne"/>
    <tag k="svg:bezier" v="no"/>
  </way>
  <way id="51362282" version="2" timestamp="2010-03-22T07:36:47Z" uid="20587" user="balrog-kun" changeset="4199043">
    <nd ref="40444377"/>
    <nd ref="40567992"/>
    <tag k="highway" v="cycleway"/>
    <tag k="name" v="Southwest Miller Court"/>
    <tag k="tiger:cfcc" v="A41"/>
    <tag k="tiger:county" v="Multnomah, OR"/>
    <tag k="tiger:name_base" v="Miller"/>
    <tag k="tiger:name_direction_prefix" v="SW"/>
    <tag k="tiger:separated" v="no"/>
    <tag k="tiger:source" v="tiger_import_dch_v0.6_20070808"/>
    <tag k="tiger:tlid" v="157520855"/>
  </way>
  <way id="51362282" version="3" timestamp="2011-06-29T17:29:00Z" uid="362111" user="Mele Sax-Barnett" changeset="8582941">
    <nd ref="40444377"/>
    <nd ref="40567992"/>
    <tag k="bicycle" v="yes"/>
    <tag k="highway" v="path"/>
    <tag k="name" v="Southwest Miller Court"/>
    <tag k="tiger:cfcc" v="A41"/>
    <tag k="tiger:county" v="Multnomah, OR"/>
    <tag k="tiger:name_base" v="Miller"/>
    <tag k="tiger:name_direction_prefix" v="SW"/>
    <tag k="tiger:separated" v="no"/>
    <tag k="tiger:source" v="tiger_import_dch_v0.6_20070808"/>
    <tag k="tiger:tlid" v="157520855"/>
  </way>
  <way id="51362282" version="4" timestamp="2012-01-06T02:55:23Z" uid="393906" user="Grant Humphries" changeset="10307593">
    <nd ref="40444377"/>
    <nd ref="40567992"/>
    <tag k="bicycle" v="yes"/>
    <tag k="highway" v="footway"/>
    <tag k="name" v="Southwest Miller Court"/>
    <tag k="tiger:cfcc" v="A41"/>
    <tag k="tiger:county" v="Multnomah, OR"/>
    <tag k="tiger:name_base" v="Miller"/>
    <tag k="tiger:name_direction_prefix" v="SW"/>
    <tag k="tiger:separated" v="no"/>
    <tag k="tiger:source" v="tiger_import_dch_v0.6_20070808"/>
    <tag k="tiger:tlid" v="157520855"/>
  </way>
  <way id="51362282" version="5" timestamp="2012-02-20T04:40:48Z" uid="393906" user="Grant Humphries" changeset="10737194">
    <nd ref="40444377"/>
    <nd ref="1640099829"/>
    <nd ref="1640099830"/>
    <nd ref="40567992"/>
    <tag k="RLIS:reviewed" v="no"/>
    <tag k="bicycle" v="yes"/>
    <tag k="est_width" v="1.5"/>
    <tag k="highway" v="footway"/>
    <tag k="surface" v="paved"/>
    <tag k="tiger:county" v="Multnomah, OR"/>
  </way>
  <way id="51362481" version="2" timestamp="2010-08-04T17:40:38Z" uid="9581" user="Lobelt" changeset="5401263">
    <nd ref="262300972"/>
    <nd ref="262300971"/>
    <nd ref="262300970"/>
    <nd ref="262300961"/>
    <nd ref="262300962"/>
    <nd ref="262300963"/>
    <nd ref="262300964"/>
    <nd ref="262300965"/>
    <nd ref="262300966"/>
    <nd ref="262300967"/>
    <nd ref="262300968"/>
    <nd ref="262300969"/>
    <nd ref="279464805"/>
    <tag k="cables" v="12"/>
    <tag k="operator" v="EON_Netz"/>
    <tag k="power" v="line"/>
    <tag k="ref" v="1709"/>
    <tag k="voltage" v="110000;20000"/>
    <tag k="wires" v="single"/>
  </way>
  <way id="51362481" version="3" timestamp="2011-06-08T20:47:40Z" uid="384060" user="aliponte" changeset="8383563">
    <nd ref="262300972"/>
    <nd ref="262300971"/>
    <nd ref="262300970"/>
    <nd ref="262300961"/>
    <nd ref="262300962"/>
    <nd ref="262300963"/>
    <nd ref="262300964"/>
    <nd ref="262300965"/>
    <nd ref="262300966"/>
    <nd ref="262300967"/>
    <nd ref="262300968"/>
    <nd ref="262300969"/>
    <nd ref="279464805"/>
    <tag k="cables" v="9"/>
    <tag k="operator" v="EON_Netz"/>
    <tag k="power" v="line"/>
    <tag k="ref" v="1709"/>
    <tag k="voltage" v="110000;20000"/>
    <tag k="wires" v="single"/>
  </way>
  <way id="51362481" version="4" timestamp="2011-08-12T11:22:01Z" uid="384060" user="aliponte" changeset="8994939">
    <nd ref="262300972"/>
    <nd ref="262300971"/>
    <nd ref="262300970"/>
    <nd ref="262300961"/>
    <nd ref="262300962"/>
    <nd ref="262300963"/>
    <nd ref="262300964"/>
    <nd ref="262300965"/>
    <nd ref="262300966"/>
    <nd ref="262300967"/>
    <nd ref="262300968"/>
    <nd ref="262300969"/>
    <nd ref="279464805"/>
    <tag k="cables" v="9"/>
    <tag k="operator" v="E.ON Netz GmbH"/>
    <tag k="power" v="line"/>
    <tag k="ref" v="1709"/>
    <tag k="voltage" v="110000;20000"/>
    <tag k="wires" v="single"/>
  </way>
  <way id="51362482" version="2" timestamp="2010-08-04T17:36:01Z" uid="9581" user="Lobelt" changeset="5401263">
    <nd ref="268553617"/>
    <nd ref="268553618"/>
    <nd ref="268553619"/>
    <nd ref="268553620"/>
    <nd ref="268553621"/>
    <nd ref="268553622"/>
    <nd ref="279659594"/>
    <nd ref="268553462"/>
    <nd ref="268553463"/>
    <nd ref="268553464"/>
    <nd ref="268553465"/>
    <nd ref="268553466"/>
    <nd ref="268553474"/>
    <nd ref="268553475"/>
    <nd ref="268553476"/>
    <nd ref="268552647"/>
    <nd ref="268552648"/>
    <nd ref="268552649"/>
    <nd ref="268552650"/>
    <nd ref="268552651"/>
    <nd ref="262300973"/>
    <nd ref="262300972"/>
    <tag k="cables" v="6"/>
    <tag k="operator" v="EON_Netz"/>
    <tag k="power" v="line"/>
    <tag k="ref" v="1709"/>
    <tag k="voltage" v="110000"/>
    <tag k="wires" v="single"/>
  </way>
  <way id="51362482" version="3" timestamp="2010-08-29T19:12:26Z" uid="7596" user="ck3d" changeset="5629682">
    <nd ref="268553617"/>
    <nd ref="268553618"/>
    <nd ref="268553619"/>
    <nd ref="268553620"/>
    <nd ref="268553621"/>
    <nd ref="268553622"/>
    <nd ref="268553462"/>
    <nd ref="268553463"/>
    <nd ref="268553464"/>
    <nd ref="268553465"/>
    <nd ref="268553466"/>
    <nd ref="268553474"/>
    <nd ref="268553475"/>
    <nd ref="268553476"/>
    <nd ref="268552647"/>
    <nd ref="268552648"/>
    <nd ref="268552649"/>
    <nd ref="268552650"/>
    <nd ref="268552651"/>
    <nd ref="262300973"/>
    <nd ref="262300972"/>
    <tag k="cables" v="6"/>
    <tag k="operator" v="EON_Netz"/>
    <tag k="power" v="line"/>
    <tag k="ref" v="1709"/>
    <tag k="voltage" v="110000"/>
    <tag k="wires" v="single"/>
  </way>
  <way id="51362482" version="4" timestamp="2011-08-12T11:22:02Z" uid="384060" user="aliponte" changeset="8994939">
    <nd ref="268553617"/>
    <nd ref="268553618"/>
    <nd ref="268553619"/>
    <nd ref="268553620"/>
    <nd ref="268553621"/>
    <nd ref="268553622"/>
    <nd ref="268553462"/>
    <nd ref="268553463"/>
    <nd ref="268553464"/>
    <nd ref="268553465"/>
    <nd ref="268553466"/>
    <nd ref="268553474"/>
    <nd ref="268553475"/>
    <nd ref="268553476"/>
    <nd ref="268552647"/>
    <nd ref="268552648"/>
    <nd ref="268552649"/>
    <nd ref="268552650"/>
    <nd ref="268552651"/>
    <nd ref="262300973"/>
    <nd ref="262300972"/>
    <tag k="cables" v="6"/>
    <tag k="operator" v="E.ON Netz GmbH"/>
    <tag k="power" v="line"/>
    <tag k="ref" v="1709"/>
    <tag k="voltage" v="110000"/>
    <tag k="wires" v="single"/>
  </way>
  <way id="51362486" version="2" timestamp="2010-08-04T17:45:07Z" uid="9581" user="Lobelt" changeset="5401263">
    <nd ref="647009671"/>
    <nd ref="647009668"/>
    <tag k="cables" v="3"/>
    <tag k="operator" v="EON_Netz"/>
    <tag k="power" v="line"/>
    <tag k="ref" v="1710"/>
    <tag k="voltage" v="110000"/>
  </way>
  <way id="51362486" version="3" timestamp="2011-08-12T11:47:25Z" uid="384060" user="aliponte" changeset="8995191">
    <nd ref="647009671"/>
    <nd ref="647009668"/>
    <tag k="cables" v="3"/>
    <tag k="operator" v="E.ON Netz GmbH"/>
    <tag k="power" v="line"/>
    <tag k="ref" v="1710"/>
    <tag k="voltage" v="110000"/>
  </way>
  <way id="51362487" version="2" timestamp="2010-08-04T17:42:34Z" uid="9581" user="Lobelt" changeset="5401263">
    <nd ref="279464805"/>
    <nd ref="647009671"/>
    <tag k="cables" v="3"/>
    <tag k="operator" v="EON_Netz"/>
    <tag k="power" v="line"/>
    <tag k="ref" v="1709"/>
    <tag k="voltage" v="110000"/>
    <tag k="wires" v="single"/>
  </way>
  <way id="51362487" version="3" timestamp="2011-08-12T11:47:25Z" uid="384060" user="aliponte" changeset="8995191">
    <nd ref="279464805"/>
    <nd ref="647009671"/>
    <tag k="cables" v="3"/>
    <tag k="operator" v="E.ON Netz GmbH"/>
    <tag k="power" v="line"/>
    <tag k="ref" v="1709"/>
    <tag k="voltage" v="110000"/>
    <tag k="wires" v="single"/>
  </way>
  <way id="51362785" version="2" timestamp="2010-03-28T11:51:07Z" uid="20587" user="balrog-kun" changeset="4254597">
    <nd ref="90834233"/>
    <nd ref="90834232"/>
    <nd ref="90777145"/>
    <nd ref="90834230"/>
    <nd ref="90834228"/>
    <nd ref="90754997"/>
    <nd ref="90834226"/>
    <nd ref="90834224"/>
    <nd ref="90834222"/>
    <nd ref="90834220"/>
    <nd ref="90834218"/>
    <nd ref="90834216"/>
    <tag k="highway" v="secondary"/>
    <tag k="name" v="North Hutchins Street"/>
    <tag k="oneway" v="yes"/>
    <tag k="tiger:cfcc" v="A45"/>
    <tag k="tiger:county" v="San Joaquin, CA"/>
    <tag k="tiger:name_base" v="Hutchins"/>
    <tag k="tiger:name_direction_prefix" v="N"/>
    <tag k="tiger:name_type" v="St"/>
    <tag k="tiger:reviewed" v="no"/>
    <tag k="tiger:separated" v="yes"/>
    <tag k="tiger:source" v="tiger_import_dch_v0.6_20070809"/>
    <tag k="tiger:tlid" v="133903254"/>
  </way>
</osm>
