<?xml version='1.0' encoding='UTF-8'?>
<osm version="0.6" generator="libosmium/2.20.0">
  <way id="51383503" version="3" timestamp="2010-04-07T14:28:10Z" uid="20587" user="balrog-kun" changeset="4353646">
    <nd ref="152977823"/>
    <nd ref="151864335"/>
    <nd ref="151845337"/>
    <nd ref="151826517"/>
    <tag k="highway" v="residential"/>
    <tag k="name" v="West 8th Street"/>
    <tag k="tiger:cfcc" v="A41"/>
    <tag k="tiger:county" v="Harris, TX"/>
    <tag k="tiger:name_base" v="8th"/>
    <tag k="tiger:name_direction_prefix" v="W"/>
    <tag k="tiger:name_type" v="St"/>
    <tag k="tiger:separated" v="no"/>
    <tag k="tiger:source" v="tiger_import_dch_v0.6_20070830"/>
    <tag k="tiger:tlid" v="96612020:96612022:96612024:233479325:96101758:96101759:96101776:96101779:96101785"/>
    <tag k="tiger:zip_left" v="77536"/>
    <tag k="tiger:zip_right" v="77536"/>
  </way>
  <way id="51383535" version="2" timestamp="2010-03-28T11:51:20Z" uid="20587" user="balrog-kun" changeset="4254597">
    <nd ref="65415306"/>
    <nd ref="65508509"/>
    <nd ref="65412274"/>
    <nd ref="65508508"/>
    <tag k="highway" v="motorway"/>
    <tag k="name" v="I 680"/>
    <tag k="name_1" v="Sinclair Freeway"/>
    <tag k="oneway" v="yes"/>
    <tag k="ref" v="I 680"/>
    <tag k="tiger:cfcc" v="A15"/>
    <tag k="tiger:county" v="Santa Clara, CA"/>
    <tag k="tiger:name_base" v="I-680"/>
    <tag k="tiger:name_base_1" v="Sinclair"/>
    <tag k="tiger:name_type_1" v="Fwy"/>
    <tag k="tiger:separated" v="yes"/>
    <tag k="tiger:source" v="tiger_import_dch_v0.6_20070809"/>
    <tag k="tiger:tlid" v="123158161:123158162:123175368:123175374:123158178:123158182"/>
  </way>
  <way id="51383535" version="3" timestamp="2011-01-05T19:05:28Z" uid="14293" user="dahveed76" changeset="6875031">
    <nd ref="65415306"/>
    <nd ref="65508509"/>
    <nd ref="65508508"/>
    <tag k="highway" v="motorway"/>
    <tag k="name" v="I 680"/>
    <tag k="name_1" v="Sinclair Freeway"/>
    <tag k="oneway" v="yes"/>
    <tag k="ref" v="I 680"/>
    <tag k="tiger:cfcc" v="A15"/>
    <tag k="tiger:county" v="Santa Clara, CA"/>
    <tag k="tiger:name_base" v="I-680"/>
    <tag k="tiger:name_base_1" v="Sinclair"/>
    <tag k="tiger:name_type_1" v="Fwy"/>
    <tag k="tiger:separated" v="yes"/>
    <tag k="tiger:source" v="tiger_import_dch_v0.6_20070809"/>
    <tag k="tiger:tlid" v="123158161:123158162:123175368:123175374:123158178:123158182"/>
  </way>
  <way id="51383535" version="4" timestamp="2011-01-05T19:06:33Z" uid="14293" user="dahveed76" changeset="6875031">
    <nd ref="65415306"/>
    <nd ref="1083977502"/>
    <nd ref="65508509"/>
    <nd ref="65508508"/>
    <tag k="highway" v="motorway"/>
    <tag k="name" v="I 680"/>
    <tag k="name_1" v="Sinclair Freeway"/>
    <tag k="oneway" v="yes"/>
    <tag k="ref" v="I 680"/>
    <tag k="tiger:cfcc" v="A15"/>
    <tag k="tiger:county" v="Santa Clara, CA"/>
    <tag k="tiger:name_base" v="I-680"/>
    <tag k="tiger:name_base_1" v="Sinclair"/>
    <tag k="tiger:name_type_1" v="Fwy"/>
    <tag k="tiger:separated" v="yes"/>
    <tag k="tiger:source" v="tiger_import_dch_v0.6_20070809"/>
    <tag k="tiger:tlid" v="123158161:123158162:123175368:123175374:123158178:123158182"/>
  </way>
  <way id="51383535" version="5" timestamp="2011-07-31T11:46:30Z" uid="207745" user="NE2" changeset="8880034">
    <nd ref="65415306"/>
    <nd ref="1083977502"/>
    <nd ref="65508509"/>
    <nd ref="1379850243"/>
    <tag k="highway" v="motorway"/>
    <tag k="hov" v="lane"/>
    <tag k="lanes" v="4"/>
    <tag k="name" v="Sinclair Freeway"/>
    <tag k="note:lanes" v="left lane is hov"/>
    <tag k="oneway" v="yes"/>
    <tag k="ref" v="I 680"/>
    <tag k="tiger:cfcc" v="A15"/>
    <tag k="tiger:county" v="Santa Clara, CA"/>
    <tag k="tiger:name_base" v="I-680"/>
    <tag k="tiger:name_base_1" v="Sinclair"/>
    <tag k="tiger:name_type_1" v="Fwy"/>
    <tag k="tiger:separated" v="yes"/>
    <tag k="tiger:source" v="tiger_import_dch_v0.6_20070809"/>
    <tag k="tiger:tlid" v="123158161:123158162:123175368:123175374:123158178:123158182"/>
  </way>
  <way id="51383535" version="6" timestamp="2011-11-25T15:20:56Z" uid="207745" user="NE2" changeset="9943893">
    <nd ref="65415306"/>
    <nd ref="1083977502"/>
    <nd ref="65508509"/>
    <nd ref="1379850243"/>
    <tag k="hgv" v="designated"/>
    <tag k="highway" v="motorway"/>
    <tag k="hov" v="lane"/>
    <tag k="lanes" v="4"/>
    <tag k="name" v="Sinclair Freeway"/>
    <tag k="note:lanes" v="left lane is hov"/>
    <tag k="oneway" v="yes"/>
    <tag k="ref" v="I 680"/>
    <tag k="tiger:cfcc" v="A15"/>
    <tag k="tiger:county" v="Santa Clara, CA"/>
    <tag k="tiger:name_base" v="I-680"/>
    <tag k="tiger:name_base_1" v="Sinclair"/>
    <tag k="tiger:name_type_1" v="Fwy"/>
    <tag k="tiger:separated" v="yes"/>
    <tag k="tiger:source" v="tiger_import_dch_v0.6_20070809"/>
    <tag k="tiger:tlid" v="123158161:123158162:123175368:123175374:123158178:123158182"/>
  </way>
  <way id="51383537" version="2" timestamp="2010-03-28T11:51:21Z" uid="20587" user="balrog-kun" changeset="4254597">
    <nd ref="65408265"/>
    <nd ref="257881827"/>
    <nd ref="257881756"/>
    <nd ref="65383205"/>
    <tag k="highway" v="motorway"/>
    <tag k="name" v="I 680"/>
    <tag k="name_1" v="Sinclair Freeway"/>
    <tag k="oneway" v="yes"/>
    <tag k="ref" v="I 680"/>
    <tag k="tiger:cfcc" v="A15"/>
    <tag k="tiger:county" v="Santa Clara, CA"/>
    <tag k="tiger:name_base" v="I-680"/>
    <tag k="tiger:name_base_1" v="Sinclair"/>
    <tag k="tiger:name_type_1" v="Fwy"/>
    <tag k="tiger:separated" v="yes"/>
    <tag k="tiger:source" v="tiger_import_dch_v0.6_20070809"/>
    <tag k="tiger:tlid" v="123158161:123158162:123175368:123175374:123158178:123158182"/>
  </way>
  <way id="51383537" version="3" timestamp="2011-01-05T19:07:04Z" uid="14293" user="dahveed76" changeset="6875031">
    <nd ref="65408265"/>
    <nd ref="257881827"/>
    <nd ref="1083979666"/>
    <nd ref="257881756"/>
    <nd ref="1083979677"/>
    <nd ref="65383205"/>
    <tag k="highway" v="motorway"/>
    <tag k="name" v="I 680"/>
    <tag k="name_1" v="Sinclair Freeway"/>
    <tag k="oneway" v="yes"/>
    <tag k="ref" v="I 680"/>
    <tag k="tiger:cfcc" v="A15"/>
    <tag k="tiger:county" v="Santa Clara, CA"/>
    <tag k="tiger:name_base" v="I-680"/>
    <tag k="tiger:name_base_1" v="Sinclair"/>
    <tag k="tiger:name_type_1" v="Fwy"/>
    <tag k="tiger:separated" v="yes"/>
    <tag k="tiger:source" v="tiger_import_dch_v0.6_20070809"/>
    <tag k="tiger:tlid" v="123158161:123158162:123175368:123175374:123158178:123158182"/>
  </way>
  <way id="51383537" version="4" timestamp="2011-06-06T11:24:50Z" uid="14293" user="JuxTPosition" changeset="8359209">
    <nd ref="65408265"/>
    <nd ref="257881827"/>
    <nd ref="1083979666"/>
    <nd ref="257881756"/>
    <nd ref="1083979677"/>
    <nd ref="65383205"/>
    <nd ref="65389498"/>
    <nd ref="371279030"/>
    <tag k="highway" v="motorway"/>
    <tag k="name" v="I 680"/>
    <tag k="name_1" v="Sinclair Freeway"/>
    <tag k="oneway" v="yes"/>
    <tag k="ref" v="I 680"/>
    <tag k="tiger:cfcc" v="A15"/>
    <tag k="tiger:county" v="Santa Clara, CA"/>
    <tag k="tiger:name_base" v="I-680"/>
    <tag k="tiger:name_base_1" v="Sinclair"/>
    <tag k="tiger:name_type_1" v="Fwy"/>
    <tag k="tiger:separated" v="yes"/>
    <tag k="tiger:source" v="tiger_import_dch_v0.6_20070809"/>
    <tag k="tiger:tlid" v="123158161:123158162:123175368:123175374:123158178:123158182"/>
  </way>
  <way id="51383537" version="5" timestamp="2011-07-31T11:46:38Z" uid="207745" user="NE2" changeset="8880034">
    <nd ref="65408265"/>
    <nd ref="257881827"/>
    <nd ref="1083979666"/>
    <nd ref="257881756"/>
    <nd ref="1083979677"/>
    <nd ref="65383205"/>
    <nd ref="65389498"/>
    <nd ref="371279030"/>
    <tag k="highway" v="motorway"/>
    <tag k="lanes" v="3"/>
    <tag k="name" v="Sinclair Freeway"/>
    <tag k="oneway" v="yes"/>
    <tag k="ref" v="I 680"/>
    <tag k="tiger:cfcc" v="A15"/>
    <tag k="tiger:county" v="Santa Clara, CA"/>
    <tag k="tiger:name_base" v="I-680"/>
    <tag k="tiger:name_base_1" v="Sinclair"/>
    <tag k="tiger:name_type_1" v="Fwy"/>
    <tag k="tiger:separated" v="yes"/>
    <tag k="tiger:source" v="tiger_import_dch_v0.6_20070809"/>
    <tag k="tiger:tlid" v="123158161:123158162:123175368:123175374:123158178:123158182"/>
  </way>
  <way id="51383537" version="6" timestamp="2011-11-25T15:21:13Z" uid="207745" user="NE2" changeset="9943893">
    <nd ref="65408265"/>
    <nd ref="257881827"/>
    <nd ref="1083979666"/>
    <nd ref="257881756"/>
    <nd ref="1083979677"/>
    <nd ref="65383205"/>
    <nd ref="65389498"/>
    <nd ref="371279030"/>
    <tag k="hgv" v="designated"/>
    <tag k="highway" v="motorway"/>
    <tag k="lanes" v="3"/>
    <tag k="name" v="Sinclair Freeway"/>
    <tag k="oneway" v="yes"/>
    <tag k="ref" v="I 680"/>
    <tag k="tiger:cfcc" v="A15"/>
    <tag k="tiger:county" v="Santa Clara, CA"/>
    <tag k="tiger:name_base" v="I-680"/>
    <tag k="tiger:name_base_1" v="Sinclair"/>
    <tag k="tiger:name_type_1" v="Fwy"/>
    <tag k="tiger:separated" v="yes"/>
    <tag k="tiger:source" v="tiger_import_dch_v0.6_20070809"/>
    <tag k="tiger:tlid" v="123158161:123158162:123175368:123175374:123158178:123158182"/>
  </way>
  <way id="51383538" version="2" timestamp="2010-03-28T11:51:21Z" uid="20587" user="balrog-kun" changeset="4254597">
    <nd ref="65415324"/>
    <nd ref="65408265"/>
    <tag k="bridge" v="yes"/>
    <tag k="highway" v="motorway"/>
    <tag k="layer" v="1"/>
    <tag k="name" v="I 680"/>
    <tag k="name_1" v="Sinclair Freeway"/>
    <tag k="oneway" v="yes"/>
    <tag k="ref" v="I 680"/>
    <tag k="tiger:cfcc" v="A15"/>
    <tag k="tiger:county" v="Santa Clara, CA"/>
    <tag k="tiger:name_base" v="I-680"/>
    <tag k="tiger:name_base_1" v="Sinclair"/>
    <tag k="tiger:name_type_1" v="Fwy"/>
    <tag k="tiger:separated" v="yes"/>
    <tag k="tiger:source" v="tiger_import_dch_v0.6_20070809"/>
    <tag k="tiger:tlid" v="123158161:123158162:123175368:123175374:123158178:123158182"/>
  </way>
  <way id="51383538" version="3" timestamp="2011-07-31T11:46:19Z" uid="207745" user="NE2" changeset="8880034">
    <nd ref="65415324"/>
    <nd ref="65408265"/>
    <tag k="bridge" v="yes"/>
    <tag k="highway" v="motorway"/>
    <tag k="lanes" v="3"/>
    <tag k="layer" v="1"/>
    <tag k="name" v="Sinclair Freeway"/>
    <tag k="oneway" v="yes"/>
    <tag k="ref" v="I 680"/>
    <tag k="tiger:cfcc" v="A15"/>
    <tag k="tiger:county" v="Santa Clara, CA"/>
    <tag k="tiger:name_base" v="I-680"/>
    <tag k="tiger:name_base_1" v="Sinclair"/>
    <tag k="tiger:name_type_1" v="Fwy"/>
    <tag k="tiger:separated" v="yes"/>
    <tag k="tiger:source" v="tiger_import_dch_v0.6_20070809"/>
    <tag k="tiger:tlid" v="123158161:123158162:123175368:123175374:123158178:123158182"/>
  </way>
  <way id="51383538" version="4" timestamp="2011-11-25T15:20:32Z" uid="207745" user="NE2" changeset="9943893">
    <nd ref="65415324"/>
    <nd ref="65408265"/>
    <tag k="bridge" v="yes"/>
    <tag k="hgv" v="designated"/>
    <tag k="highway" v="motorway"/>
    <tag k="lanes" v="3"/>
    <tag k="layer" v="1"/>
    <tag k="name" v="Sinclair Freeway"/>
    <tag k="oneway" v="yes"/>
    <tag k="ref" v="I 680"/>
    <tag k="tiger:cfcc" v="A15"/>
    <tag k="tiger:county" v="Santa Clara, CA"/>
    <tag k="tiger:name_base" v="I-680"/>
    <tag k="tiger:name_base_1" v="Sinclair"/>
    <tag k="tiger:name_type_1" v="Fwy"/>
    <tag k="tiger:separated" v="yes"/>
    <tag k="tiger:source" v="tiger_import_dch_v0.6_20070809"/>
    <tag k="tiger:tlid" v="123158161:123158162:123175368:123175374:123158178:123158182"/>
  </way>
  <way id="51383539" version="2" timestamp="2010-03-28T11:51:21Z" uid="20587" user="balrog-kun" changeset="4254597">
    <nd ref="65408308"/>
    <nd ref="65415306"/>
    <tag k="bridge" v="yes"/>
    <tag k="highway" v="motorway"/>
    <tag k="layer" v="1"/>
    <tag k="name" v="I 680"/>
    <tag k="name_1" v="Sinclair Freeway"/>
    <tag k="oneway" v="yes"/>
    <tag k="ref" v="I 680"/>
    <tag k="tiger:cfcc" v="A15"/>
    <tag k="tiger:county" v="Santa Clara, CA"/>
    <tag k="tiger:name_base" v="I-680"/>
    <tag k="tiger:name_base_1" v="Sinclair"/>
    <tag k="tiger:name_type_1" v="Fwy"/>
    <tag k="tiger:separated" v="yes"/>
    <tag k="tiger:source" v="tiger_import_dch_v0.6_20070809"/>
    <tag k="tiger:tlid" v="123158161:123158162:123175368:123175374:123158178:123158182"/>
  </way>
  <way id="51383539" version="3" timestamp="2011-07-31T11:46:13Z" uid="207745" user="NE2" changeset="8880034">
    <nd ref="65408308"/>
    <nd ref="65415306"/>
    <tag k="bridge" v="yes"/>
    <tag k="highway" v="motorway"/>
    <tag k="hov" v="lane"/>
    <tag k="lanes" v="4"/>
    <tag k="layer" v="1"/>
    <tag k="name" v="Sinclair Freeway"/>
    <tag k="note:lanes" v="left lane is hov"/>
    <tag k="oneway" v="yes"/>
    <tag k="ref" v="I 680"/>
    <tag k="tiger:cfcc" v="A15"/>
    <tag k="tiger:county" v="Santa Clara, CA"/>
    <tag k="tiger:name_base" v="I-680"/>
    <tag k="tiger:name_base_1" v="Sinclair"/>
    <tag k="tiger:name_type_1" v="Fwy"/>
    <tag k="tiger:separated" v="yes"/>
    <tag k="tiger:source" v="tiger_import_dch_v0.6_20070809"/>
    <tag k="tiger:tlid" v="123158161:123158162:123175368:123175374:123158178:123158182"/>
  </way>
  <way id="51383539" version="4" timestamp="2011-11-25T15:20:36Z" uid="207745" user="NE2" changeset="9943893">
    <nd ref="65408308"/>
    <nd ref="65415306"/>
    <tag k="bridge" v="yes"/>
    <tag k="hgv" v="designated"/>
    <tag k="highway" v="motorway"/>
    <tag k="hov" v="lane"/>
    <tag k="lanes" v="4"/>
    <tag k="layer" v="1"/>
    <tag k="name" v="Sinclair Freeway"/>
    <tag k="note:lanes" v="left lane is hov"/>
    <tag k="oneway" v="yes"/>
    <tag k="ref" v="I 680"/>
    <tag k="tiger:cfcc" v="A15"/>
    <tag k="tiger:county" v="Santa Clara, CA"/>
    <tag k="tiger:name_base" v="I-680"/>
    <tag k="tiger:name_base_1" v="Sinclair"/>
    <tag k="tiger:name_type_1" v="Fwy"/>
    <tag k="tiger:separated" v="yes"/>
    <tag k="tiger:source" v="tiger_import_dch_v0.6_20070809"/>
    <tag k="tiger:tlid" v="123158161:123158162:123175368:123175374:123158178:123158182"/>
  </way>
  <way id="51383675" version="2" timestamp="2010-03-20T01:38:45Z" uid="115684" user="jVviJ11dNx" changeset="4176006">
    <nd ref="656055338"/>
    <nd ref="670106896"/>
    <nd ref="670106898"/>
    <nd ref="670106897"/>
    <nd ref="656055374"/>
    <tag k="highway" v="unclassified"/>
    <tag k="source" v="nearmap"/>
    <tag k="surface" v="unpaved"/>
  </way>
  <way id="51383675" version="3" timestamp="2010-04-03T07:00:41Z" uid="115684" user="jVviJ11dNx" changeset="4310062">
    <nd ref="656055338"/>
    <nd ref="683058574"/>
    <tag k="highway" v="unclassified"/>
    <tag k="source" v="nearmap"/>
    <tag k="surface" v="unpaved"/>
  </way>
</osm>
