<?xml version='1.0' encoding='UTF-8'?>
<osm version="0.6" generator="libosmium/2.20.0">
  <way id="51510005" version="4" timestamp="2010-07-25T07:23:47Z" uid="4467" user="Rosscoe" changeset="5309337">
    <nd ref="658484748"/>
    <nd ref="12353391"/>
    <tag k="bridge" v="yes"/>
    <tag k="highway" v="tertiary"/>
    <tag k="layer" v="1"/>
    <tag k="name" v="Broadbeach Island"/>
  </way>
  <way id="51510028" version="4" timestamp="2010-07-06T17:42:23Z" uid="74617" user="JohnSmith" changeset="5152225">
    <nd ref="658489521"/>
    <nd ref="185902372"/>
    <tag k="bridge" v="yes"/>
    <tag k="highway" v="residential"/>
    <tag k="maxspeed" v="50"/>
    <tag k="maxspeed:source" v="default residential speed limit in Australia"/>
    <tag k="name" v="Pacific Fair Drive"/>
  </way>
  <way id="51510028" version="5" timestamp="2010-07-25T21:42:01Z" uid="4467" user="Rosscoe" changeset="5316996">
    <nd ref="658489521"/>
    <nd ref="185902372"/>
    <tag k="bridge" v="yes"/>
    <tag k="highway" v="residential"/>
    <tag k="layer" v="1"/>
    <tag k="maxspeed" v="50"/>
    <tag k="maxspeed:source" v="default residential speed limit in Australia"/>
    <tag k="name" v="Pacific Fair Drive"/>
  </way>
  <way id="51510028" version="6" timestamp="2012-01-20T03:02:47Z" uid="147510" user="woodpeck_fixbot" changeset="10442677">
    <nd ref="658489521"/>
    <nd ref="185902372"/>
    <tag k="bridge" v="yes"/>
    <tag k="highway" v="residential"/>
    <tag k="layer" v="1"/>
    <tag k="name" v="Pacific Fair Drive"/>
  </way>
  <way id="51510030" version="2" timestamp="2010-07-06T17:46:31Z" uid="74617" user="JohnSmith" changeset="5152225">
    <nd ref="185902372"/>
    <nd ref="185902374"/>
    <nd ref="595562124"/>
    <tag k="highway" v="residential"/>
    <tag k="maxspeed" v="50"/>
    <tag k="maxspeed:source" v="default residential speed limit in Australia"/>
    <tag k="name" v="Pacific Fair Drive"/>
  </way>
  <way id="51510030" version="3" timestamp="2012-01-20T03:02:49Z" uid="147510" user="woodpeck_fixbot" changeset="10442677">
    <nd ref="185902372"/>
    <nd ref="185902374"/>
    <nd ref="595562124"/>
    <tag k="highway" v="residential"/>
    <tag k="name" v="Pacific Fair Drive"/>
  </way>
  <way id="51510062" version="3" timestamp="2010-07-25T07:23:49Z" uid="4467" user="Rosscoe" changeset="5309337">
    <nd ref="658494600"/>
    <nd ref="658494485"/>
    <tag k="bridge" v="yes"/>
    <tag k="highway" v="tertiary"/>
    <tag k="layer" v="1"/>
    <tag k="name" v="Surfers Avenue"/>
  </way>
  <way id="51510691" version="1" timestamp="2010-03-01T17:32:18Z" uid="6326" user="mike_hd" changeset="4010289">
    <nd ref="658532562"/>
    <nd ref="658532570"/>
    <nd ref="658532578"/>
    <nd ref="658532587"/>
    <nd ref="658532593"/>
    <nd ref="658532562"/>
    <tag k="natural" v="scrub"/>
  </way>
  <way id="51510691" version="2" timestamp="2010-03-02T17:55:34Z" uid="9581" user="Lobelt" changeset="4018742">
    <nd ref="658532562"/>
    <nd ref="658532570"/>
    <nd ref="658532578"/>
    <nd ref="658532587"/>
    <nd ref="658532593"/>
    <nd ref="658532562"/>
    <tag k="landuse" v="allotments"/>
  </way>
  <way id="51510928" version="1" timestamp="2010-03-01T17:43:17Z" uid="171838" user="argrath" changeset="4010402">
    <nd ref="658551800"/>
    <nd ref="343603705"/>
    <nd ref="343603706"/>
    <nd ref="343603709"/>
    <nd ref="343603710"/>
    <nd ref="343603714"/>
    <nd ref="343603715"/>
    <nd ref="343603718"/>
    <nd ref="539366815"/>
    <nd ref="343603720"/>
    <nd ref="343603723"/>
    <nd ref="343603724"/>
    <nd ref="343603726"/>
    <nd ref="343603728"/>
    <nd ref="343603730"/>
    <nd ref="343603732"/>
    <nd ref="539366959"/>
    <nd ref="343603733"/>
    <nd ref="343603735"/>
    <nd ref="343603736"/>
    <nd ref="343603739"/>
    <nd ref="343603740"/>
    <nd ref="343603743"/>
    <nd ref="343603744"/>
    <nd ref="343603747"/>
    <nd ref="343603748"/>
    <nd ref="343603750"/>
    <nd ref="343603752"/>
    <nd ref="343603755"/>
    <nd ref="343603759"/>
    <nd ref="343603760"/>
    <nd ref="343603763"/>
    <nd ref="343603764"/>
    <tag k="highway" v="unclassified"/>
    <tag k="oneway" v="no"/>
  </way>
  <way id="51510934" version="1" timestamp="2010-03-01T17:43:19Z" uid="171838" user="argrath" changeset="4010402">
    <nd ref="527975502"/>
    <nd ref="658551903"/>
    <nd ref="658551909"/>
    <nd ref="658551800"/>
    <nd ref="658551818"/>
    <nd ref="658551834"/>
    <nd ref="658551850"/>
    <nd ref="656424384"/>
    <nd ref="656424460"/>
    <nd ref="656423727"/>
    <tag k="highway" v="trunk"/>
    <tag k="name" v="国道310号 (Route 310)"/>
    <tag k="name:ja" v="国道310号"/>
    <tag k="oneway" v="yes"/>
    <tag k="ref" v="310"/>
    <tag k="source" v="MLIT, Japan"/>
    <tag k="source:ja" v="国土画像情報（オルソ化空中写真）国土交通省"/>
  </way>
  <way id="51510934" version="2" timestamp="2010-07-04T02:12:16Z" uid="27464" user="antonpa" changeset="5129271">
    <nd ref="527975502"/>
    <nd ref="658551903"/>
    <nd ref="658551909"/>
    <nd ref="658551800"/>
    <nd ref="658551818"/>
    <nd ref="658551834"/>
    <nd ref="658551850"/>
    <nd ref="799920264"/>
    <nd ref="799920265"/>
    <nd ref="656424384"/>
    <nd ref="656424460"/>
    <nd ref="656423727"/>
    <tag k="highway" v="trunk"/>
    <tag k="name" v="国道310号 (Route 310)"/>
    <tag k="name:ja" v="国道310号"/>
    <tag k="oneway" v="yes"/>
    <tag k="ref" v="310"/>
    <tag k="source" v="MLIT, Japan"/>
    <tag k="source:ja" v="国土画像情報（オルソ化空中写真）国土交通省"/>
  </way>
  <way id="51510938" version="1" timestamp="2010-03-01T17:43:26Z" uid="171838" user="argrath" changeset="4010402">
    <nd ref="657856731"/>
    <nd ref="658552058"/>
    <nd ref="657856905"/>
    <nd ref="658552083"/>
    <nd ref="657856788"/>
    <nd ref="658551910"/>
    <nd ref="657856803"/>
    <nd ref="527975502"/>
    <tag k="highway" v="primary"/>
    <tag k="name" v="大阪中央環状線"/>
    <tag k="oneway" v="yes"/>
    <tag k="ref" v="2"/>
    <tag k="source" v="MLIT, Japan"/>
    <tag k="source:ja" v="国土画像情報（オルソ化空中写真）国土交通省"/>
  </way>
  <way id="51510938" version="2" timestamp="2010-11-13T18:37:29Z" uid="367548" user="peccu" changeset="6360780">
    <nd ref="657856731"/>
    <nd ref="658552058"/>
    <nd ref="657856905"/>
    <nd ref="658552083"/>
    <nd ref="657856788"/>
    <nd ref="658551910"/>
    <nd ref="527975502"/>
    <tag k="highway" v="primary"/>
    <tag k="name" v="大阪中央環状線"/>
    <tag k="oneway" v="yes"/>
    <tag k="ref" v="2"/>
    <tag k="source" v="MLIT, Japan"/>
    <tag k="source:ja" v="国土画像情報（オルソ化空中写真）国土交通省"/>
  </way>
  <way id="51510949" version="1" timestamp="2010-03-01T17:43:29Z" uid="171838" user="argrath" changeset="4010402">
    <nd ref="656592632"/>
    <nd ref="657856731"/>
    <tag k="bridge" v="yes"/>
    <tag k="highway" v="primary"/>
    <tag k="name" v="大阪中央環状線"/>
    <tag k="oneway" v="yes"/>
    <tag k="ref" v="2"/>
    <tag k="source" v="MLIT, Japan"/>
    <tag k="source:ja" v="国土画像情報（オルソ化空中写真）国土交通省"/>
  </way>
  <way id="51510951" version="1" timestamp="2010-03-01T17:43:30Z" uid="171838" user="argrath" changeset="4010402">
    <nd ref="658552261"/>
    <nd ref="266726128"/>
    <tag k="bridge" v="yes"/>
    <tag k="highway" v="primary"/>
    <tag k="name" v="大阪中央環状線 (Osaka-Tyuo-Kanjyo-Line)"/>
    <tag k="oneway" v="yes"/>
    <tag k="ref" v="2"/>
  </way>
  <way id="51510953" version="1" timestamp="2010-03-01T17:43:31Z" uid="171838" user="argrath" changeset="4010402">
    <nd ref="266726128"/>
    <nd ref="266726129"/>
    <nd ref="576876459"/>
    <nd ref="604398736"/>
    <nd ref="266726132"/>
    <nd ref="585132566"/>
    <nd ref="266726133"/>
    <nd ref="296951041"/>
    <nd ref="266726134"/>
    <nd ref="266726135"/>
    <nd ref="266726139"/>
    <nd ref="266726140"/>
    <nd ref="296951034"/>
    <nd ref="266726141"/>
    <nd ref="604398766"/>
    <nd ref="266726142"/>
    <nd ref="535398181"/>
    <tag k="highway" v="primary"/>
    <tag k="name" v="大阪中央環状線 (Osaka-Tyuo-Kanjyo-Line)"/>
    <tag k="oneway" v="yes"/>
    <tag k="ref" v="2"/>
  </way>
  <way id="51510953" version="2" timestamp="2010-03-17T07:46:34Z" uid="19528" user="karida" changeset="4149917">
    <nd ref="266726128"/>
    <nd ref="266726129"/>
    <nd ref="576876459"/>
    <nd ref="604398736"/>
    <nd ref="585132566"/>
    <nd ref="266726133"/>
    <nd ref="296951041"/>
    <nd ref="266726134"/>
    <nd ref="266726135"/>
    <nd ref="296951034"/>
    <nd ref="604398766"/>
    <nd ref="604398765"/>
    <nd ref="535359355"/>
    <nd ref="535359275"/>
    <nd ref="658308200"/>
    <tag k="highway" v="primary"/>
    <tag k="name" v="大阪中央環状線 (Osaka-Tyuo-Kanjyo-Line)"/>
    <tag k="oneway" v="yes"/>
    <tag k="ref" v="2"/>
  </way>
  <way id="51510953" version="3" timestamp="2010-04-05T03:17:27Z" uid="27464" user="antonpa" changeset="4328996">
    <nd ref="266726128"/>
    <nd ref="266726129"/>
    <nd ref="576876459"/>
    <nd ref="604398736"/>
    <nd ref="585132566"/>
    <nd ref="266726133"/>
    <nd ref="296951041"/>
    <nd ref="266726134"/>
    <nd ref="266726135"/>
    <nd ref="685000177"/>
    <nd ref="296951034"/>
    <nd ref="604398766"/>
    <nd ref="685000187"/>
    <nd ref="604398765"/>
    <nd ref="535359355"/>
    <nd ref="535359275"/>
    <nd ref="658308200"/>
    <tag k="highway" v="primary"/>
    <tag k="name" v="大阪中央環状線 (Osaka-Tyuo-Kanjyo-Line)"/>
    <tag k="oneway" v="yes"/>
    <tag k="ref" v="2"/>
  </way>
  <way id="51510965" version="1" timestamp="2010-03-01T17:43:40Z" uid="171838" user="argrath" changeset="4010402">
    <nd ref="658552661"/>
    <nd ref="658552697"/>
    <nd ref="296951121"/>
    <nd ref="656592280"/>
    <nd ref="658552487"/>
    <nd ref="656592575"/>
    <nd ref="658552507"/>
    <nd ref="656592632"/>
    <tag k="highway" v="primary"/>
    <tag k="name" v="大阪中央環状線"/>
    <tag k="oneway" v="yes"/>
    <tag k="ref" v="2"/>
    <tag k="source" v="MLIT, Japan"/>
    <tag k="source:ja" v="国土画像情報（オルソ化空中写真）国土交通省"/>
  </way>
  <way id="51510967" version="1" timestamp="2010-03-01T17:43:42Z" uid="171838" user="argrath" changeset="4010402">
    <nd ref="535398202"/>
    <nd ref="658552661"/>
    <tag k="highway" v="primary"/>
    <tag k="name" v="大阪中央環状線"/>
    <tag k="oneway" v="yes"/>
    <tag k="ref" v="2"/>
    <tag k="source" v="MLIT, Japan"/>
    <tag k="source:ja" v="国土画像情報（オルソ化空中写真）国土交通省"/>
  </way>
  <way id="51510967" version="2" timestamp="2010-03-17T07:46:36Z" uid="19528" user="karida" changeset="4149917"/>
</osm>
