<?xml version='1.0' encoding='UTF-8'?>
<osm version="0.6" generator="libosmium/2.20.0">
  <way id="51551081" version="1" timestamp="2010-03-02T12:32:38Z" uid="115477" user="wowik" changeset="4016408">
    <nd ref="599015649"/>
    <nd ref="599015650"/>
    <tag k="foot" v="yes"/>
    <tag k="highway" v="footway"/>
  </way>
  <way id="51551212" version="4" timestamp="2011-03-17T12:04:13Z" uid="115477" user="wowik" changeset="7584637">
    <nd ref="659051440"/>
    <nd ref="1205585932"/>
    <nd ref="1205585796"/>
    <nd ref="1205586079"/>
    <nd ref="1205585908"/>
    <nd ref="659051434"/>
    <nd ref="1205585763"/>
    <nd ref="659051433"/>
    <nd ref="659051439"/>
    <nd ref="659051440"/>
    <tag k="addr:city" v="Москва"/>
    <tag k="addr:housenumber" v="2/14"/>
    <tag k="addr:street" v="7-й Ростовский переулок"/>
    <tag k="building" v="apartments"/>
    <tag k="cladr:code" v="77000000000249700"/>
  </way>
  <way id="51551212" version="5" timestamp="2011-05-11T23:17:34Z" uid="133332" user="AMDmi3" changeset="8117535">
    <nd ref="659051440"/>
    <nd ref="1205585932"/>
    <nd ref="1205585796"/>
    <nd ref="1205586079"/>
    <nd ref="1205585908"/>
    <nd ref="659051434"/>
    <nd ref="1205585763"/>
    <nd ref="659051433"/>
    <nd ref="659051439"/>
    <nd ref="659051440"/>
    <tag k="addr:city" v="Москва"/>
    <tag k="addr:housenumber" v="2/14"/>
    <tag k="addr:street" v="7-й Ростовский переулок"/>
    <tag k="building" v="apartments"/>
    <tag k="building:levels" v="4"/>
    <tag k="cladr:code" v="77000000000249700"/>
  </way>
  <way id="51551212" version="6" timestamp="2011-10-08T22:56:30Z" uid="133332" user="AMDmi3" changeset="9507677">
    <nd ref="659051440"/>
    <nd ref="1205585932"/>
    <nd ref="1205585796"/>
    <nd ref="1205586079"/>
    <nd ref="1205585908"/>
    <nd ref="659051434"/>
    <nd ref="1205585763"/>
    <nd ref="659051433"/>
    <nd ref="659051439"/>
    <nd ref="659051440"/>
    <tag k="addr:city" v="Москва"/>
    <tag k="addr:housenumber" v="2/14"/>
    <tag k="addr:street" v="7-й Ростовский переулок"/>
    <tag k="building" v="apartments"/>
    <tag k="building:levels" v="4"/>
  </way>
  <way id="51551212" version="7" timestamp="2012-03-18T21:32:27Z" uid="336354" user="esaulenka" changeset="11024334"/>
  <way id="51551214" version="6" timestamp="2011-03-17T12:02:31Z" uid="115477" user="wowik" changeset="7584637">
    <nd ref="659051667"/>
    <nd ref="659051631"/>
    <nd ref="659051630"/>
    <nd ref="1205586031"/>
    <nd ref="1205586158"/>
    <nd ref="1205586175"/>
    <nd ref="1205585582"/>
    <nd ref="659051666"/>
    <nd ref="659051667"/>
    <tag k="addr:housenumber" v="8"/>
    <tag k="addr:street" v="2-й Вражский переулок"/>
    <tag k="building" v="yes"/>
    <tag k="cladr:code" v="77000000000103600"/>
  </way>
  <way id="51551214" version="7" timestamp="2011-10-08T22:58:49Z" uid="133332" user="AMDmi3" changeset="9507677">
    <nd ref="659051667"/>
    <nd ref="659051631"/>
    <nd ref="659051630"/>
    <nd ref="1205586031"/>
    <nd ref="1205586158"/>
    <nd ref="1205586175"/>
    <nd ref="1205585582"/>
    <nd ref="659051666"/>
    <nd ref="659051667"/>
    <tag k="addr:housenumber" v="8"/>
    <tag k="addr:street" v="2-й Вражский переулок"/>
    <tag k="building" v="yes"/>
  </way>
  <way id="51551214" version="8" timestamp="2012-03-18T21:32:36Z" uid="336354" user="esaulenka" changeset="11024334"/>
  <way id="51551218" version="5" timestamp="2011-03-17T15:24:50Z" uid="115477" user="wowik" changeset="7585805">
    <nd ref="659051580"/>
    <nd ref="659051577"/>
    <nd ref="659051578"/>
    <nd ref="659051576"/>
    <nd ref="659051580"/>
    <tag k="addr:housenumber" v="2А"/>
    <tag k="addr:street" v="улица Еланского"/>
    <tag k="amenity" v="place_of_worship"/>
    <tag k="building" v="yes"/>
    <tag k="cladr:code" v="77000000000717800"/>
    <tag k="denomination" v="orthodox"/>
    <tag k="religion" v="christian"/>
  </way>
  <way id="51551218" version="6" timestamp="2011-10-08T22:46:20Z" uid="133332" user="AMDmi3" changeset="9507633"/>
  <way id="51551219" version="7" timestamp="2011-03-17T12:03:17Z" uid="115477" user="wowik" changeset="7584637">
    <nd ref="659051632"/>
    <nd ref="1060953744"/>
    <nd ref="1060953747"/>
    <nd ref="1060953748"/>
    <nd ref="1060953746"/>
    <nd ref="659051633"/>
    <nd ref="659051642"/>
    <nd ref="1205586075"/>
    <nd ref="1205585560"/>
    <nd ref="1205585847"/>
    <nd ref="1205586174"/>
    <nd ref="1205585641"/>
    <nd ref="1205585555"/>
    <nd ref="1205586138"/>
    <nd ref="1205585970"/>
    <nd ref="659051643"/>
    <nd ref="659051632"/>
    <tag k="addr:housenumber" v="8/1"/>
    <tag k="addr:street" v="1-й переулок Тружеников"/>
    <tag k="amenity" v="place_of_worship"/>
    <tag k="building" v="yes"/>
    <tag k="denomination" v="orthodox"/>
    <tag k="religion" v="christian"/>
  </way>
  <way id="51551219" version="8" timestamp="2011-12-12T08:37:46Z" uid="126304" user="TarzanASG" changeset="10096498">
    <nd ref="659051632"/>
    <nd ref="1060953744"/>
    <nd ref="1060953747"/>
    <nd ref="1060953748"/>
    <nd ref="1060953746"/>
    <nd ref="659051633"/>
    <nd ref="659051642"/>
    <nd ref="1205586075"/>
    <nd ref="1205585560"/>
    <nd ref="1205585847"/>
    <nd ref="1205586174"/>
    <nd ref="1205585641"/>
    <nd ref="1205585555"/>
    <nd ref="1205586138"/>
    <nd ref="1205585970"/>
    <nd ref="659051643"/>
    <nd ref="659051632"/>
    <tag k="addr:housenumber" v="8/1"/>
    <tag k="addr:street" v="1-й переулок Тружеников"/>
    <tag k="amenity" v="place_of_worship"/>
    <tag k="building" v="church"/>
    <tag k="denomination" v="orthodox"/>
    <tag k="religion" v="christian"/>
  </way>
  <way id="51551219" version="9" timestamp="2011-12-14T15:10:49Z" uid="143266" user="Sergey Astakhov" changeset="10116697">
    <nd ref="659051632"/>
    <nd ref="1060953744"/>
    <nd ref="1060953747"/>
    <nd ref="1060953748"/>
    <nd ref="1060953746"/>
    <nd ref="659051633"/>
    <nd ref="659051642"/>
    <nd ref="1205586075"/>
    <nd ref="1205585560"/>
    <nd ref="1205585847"/>
    <nd ref="1205586174"/>
    <nd ref="1205585641"/>
    <nd ref="1205585555"/>
    <nd ref="1205586138"/>
    <nd ref="1205585970"/>
    <nd ref="659051643"/>
    <nd ref="659051632"/>
    <tag k="addr:housenumber" v="8/1"/>
    <tag k="addr:street" v="1-й переулок Тружеников"/>
    <tag k="amenity" v="place_of_worship"/>
    <tag k="building" v="yes"/>
    <tag k="denomination" v="orthodox"/>
    <tag k="religion" v="christian"/>
  </way>
  <way id="51551219" version="10" timestamp="2012-03-28T10:37:54Z" uid="39086" user="AlexeyS" changeset="11125521"/>
  <way id="51551221" version="4" timestamp="2011-03-17T14:16:45Z" uid="115477" user="wowik" changeset="7585805">
    <nd ref="659051756"/>
    <nd ref="659051742"/>
    <nd ref="659051743"/>
    <nd ref="659051744"/>
    <nd ref="1205686771"/>
    <nd ref="1205686908"/>
    <nd ref="1205687302"/>
    <nd ref="1205686997"/>
    <nd ref="659051756"/>
    <tag k="addr:city" v="Москва"/>
    <tag k="addr:housenumber" v="30"/>
    <tag k="addr:postcode" v="119121"/>
    <tag k="addr:street" v="улица Плющиха"/>
    <tag k="building" v="apartments;yes"/>
    <tag k="cladr:code" v="77000000000229800"/>
  </way>
  <way id="51551221" version="5" timestamp="2011-05-11T23:17:40Z" uid="133332" user="AMDmi3" changeset="8117535">
    <nd ref="659051756"/>
    <nd ref="659051742"/>
    <nd ref="659051743"/>
    <nd ref="659051744"/>
    <nd ref="1205686771"/>
    <nd ref="1205686908"/>
    <nd ref="1205687302"/>
    <nd ref="1205686997"/>
    <nd ref="659051756"/>
    <tag k="addr:city" v="Москва"/>
    <tag k="addr:housenumber" v="30"/>
    <tag k="addr:postcode" v="119121"/>
    <tag k="addr:street" v="улица Плющиха"/>
    <tag k="building" v="apartments;yes"/>
    <tag k="building:levels" v="4"/>
    <tag k="cladr:code" v="77000000000229800"/>
  </way>
  <way id="51551221" version="6" timestamp="2011-08-27T15:04:14Z" uid="133332" user="AMDmi3" changeset="9138716">
    <nd ref="1205686997"/>
    <nd ref="659051756"/>
    <nd ref="659051742"/>
    <nd ref="659051743"/>
    <nd ref="659051744"/>
    <nd ref="1205686771"/>
    <nd ref="1205686908"/>
    <nd ref="1205687302"/>
    <nd ref="1205686997"/>
    <tag k="addr:city" v="Москва"/>
    <tag k="addr:housenumber" v="30"/>
    <tag k="addr:postcode" v="119121"/>
    <tag k="addr:street" v="улица Плющиха"/>
    <tag k="building" v="apartments;yes"/>
    <tag k="building:levels" v="4"/>
    <tag k="cladr:code" v="77000000000229800"/>
  </way>
  <way id="51551221" version="7" timestamp="2011-10-08T22:57:31Z" uid="133332" user="AMDmi3" changeset="9507677">
    <nd ref="1205686997"/>
    <nd ref="659051756"/>
    <nd ref="659051742"/>
    <nd ref="659051743"/>
    <nd ref="659051744"/>
    <nd ref="1205686771"/>
    <nd ref="1205686908"/>
    <nd ref="1205687302"/>
    <nd ref="1205686997"/>
    <tag k="addr:city" v="Москва"/>
    <tag k="addr:housenumber" v="30"/>
    <tag k="addr:postcode" v="119121"/>
    <tag k="addr:street" v="улица Плющиха"/>
    <tag k="building" v="apartments;yes"/>
    <tag k="building:levels" v="4"/>
  </way>
  <way id="51551221" version="8" timestamp="2012-03-30T16:01:57Z" uid="39086" user="AlexeyS" changeset="11156582"/>
  <way id="51551224" version="2" timestamp="2011-03-17T12:03:28Z" uid="115477" user="wowik" changeset="7584637">
    <nd ref="659051665"/>
    <nd ref="659051660"/>
    <nd ref="1205586165"/>
    <nd ref="1205586046"/>
    <nd ref="1205585920"/>
    <nd ref="1205586205"/>
    <nd ref="1205585734"/>
    <nd ref="1205585896"/>
    <nd ref="659051659"/>
    <nd ref="659051661"/>
    <nd ref="1205586091"/>
    <nd ref="1205586194"/>
    <nd ref="1205585880"/>
    <nd ref="1205585705"/>
    <nd ref="659051665"/>
    <tag k="building" v="yes"/>
  </way>
  <way id="51551224" version="3" timestamp="2012-03-18T21:32:49Z" uid="336354" user="esaulenka" changeset="11024334"/>
  <way id="51551226" version="3" timestamp="2011-03-17T12:24:45Z" uid="115477" user="wowik" changeset="7584833">
    <nd ref="659051701"/>
    <nd ref="1205599344"/>
    <nd ref="1205599397"/>
    <nd ref="1205599293"/>
    <nd ref="659051676"/>
    <nd ref="659051678"/>
    <nd ref="659051681"/>
    <nd ref="659051684"/>
    <nd ref="659051682"/>
    <nd ref="659051680"/>
    <nd ref="659051683"/>
    <nd ref="659051725"/>
    <nd ref="659051679"/>
    <nd ref="659051728"/>
    <nd ref="659051729"/>
    <nd ref="659051723"/>
    <nd ref="659051685"/>
    <nd ref="659051686"/>
    <nd ref="659051687"/>
    <nd ref="659051689"/>
    <nd ref="659051690"/>
    <nd ref="659051712"/>
    <nd ref="659051701"/>
    <tag k="addr:city" v="Москва"/>
    <tag k="addr:housenumber" v="12"/>
    <tag k="addr:street" v="7-й Ростовский переулок"/>
    <tag k="amenity" v="embassy"/>
    <tag k="building" v="yes"/>
    <tag k="country" v="TR"/>
    <tag k="name" v="Посольство Турции"/>
    <tag k="name:ru" v="Посольство Турции"/>
  </way>
  <way id="51551226" version="4" timestamp="2012-03-18T21:32:38Z" uid="336354" user="esaulenka" changeset="11024334"/>
  <way id="51551227" version="3" timestamp="2011-03-17T14:16:36Z" uid="115477" user="wowik" changeset="7585805">
    <nd ref="659051750"/>
    <nd ref="659051751"/>
    <nd ref="659051758"/>
    <nd ref="659051757"/>
    <nd ref="659051750"/>
    <tag k="addr:housenumber" v="6"/>
    <tag k="addr:street" v="6-й Ростовский переулок"/>
    <tag k="building" v="yes"/>
  </way>
  <way id="51551227" version="4" timestamp="2011-05-11T23:17:28Z" uid="133332" user="AMDmi3" changeset="8117535">
    <nd ref="659051750"/>
    <nd ref="659051751"/>
    <nd ref="659051758"/>
    <nd ref="659051757"/>
    <nd ref="659051750"/>
    <tag k="addr:housenumber" v="6"/>
    <tag k="addr:street" v="6-й Ростовский переулок"/>
    <tag k="building" v="yes"/>
    <tag k="fixme" v="Сносится"/>
  </way>
  <way id="51551227" version="5" timestamp="2012-03-18T21:32:33Z" uid="336354" user="esaulenka" changeset="11024334"/>
  <way id="51551228" version="3" timestamp="2011-03-17T14:16:54Z" uid="115477" user="wowik" changeset="7585805">
    <nd ref="659051763"/>
    <nd ref="659051760"/>
    <nd ref="659051759"/>
    <nd ref="659051761"/>
    <nd ref="659051762"/>
    <nd ref="659051768"/>
    <nd ref="1205686995"/>
    <nd ref="1205687296"/>
    <nd ref="659051763"/>
    <tag k="addr:housenumber" v="6"/>
    <tag k="addr:street" v="4-й Ростовский переулок"/>
    <tag k="building" v="yes"/>
  </way>
  <way id="51551228" version="4" timestamp="2011-05-11T23:17:13Z" uid="133332" user="AMDmi3" changeset="8117535">
    <nd ref="659051763"/>
    <nd ref="659051760"/>
    <nd ref="659051759"/>
    <nd ref="659051761"/>
    <nd ref="659051762"/>
    <nd ref="659051768"/>
    <nd ref="1205686995"/>
    <nd ref="1205687296"/>
    <nd ref="659051763"/>
    <tag k="addr:housenumber" v="6"/>
    <tag k="addr:street" v="4-й Ростовский переулок"/>
    <tag k="building" v="yes"/>
    <tag k="building:levels" v="2"/>
    <tag k="fixme" v="Памятник истории; в этом доме в 1903-1958 годах жил и работал художник Василий Николаевич Башкеев"/>
  </way>
  <way id="51551228" version="5" timestamp="2011-05-13T07:04:21Z" uid="133332" user="AMDmi3" changeset="8128624">
    <nd ref="659051763"/>
    <nd ref="659051760"/>
    <nd ref="659051759"/>
    <nd ref="659051761"/>
    <nd ref="659051762"/>
    <nd ref="659051768"/>
    <nd ref="1205686995"/>
    <nd ref="1205687296"/>
    <nd ref="659051763"/>
    <tag k="addr:housenumber" v="6"/>
    <tag k="addr:street" v="4-й Ростовский переулок"/>
    <tag k="building" v="yes"/>
    <tag k="building:levels" v="2"/>
    <tag k="description" v="Памятник истории: в этом доме в 1903-1958 годах жил и работал художник Василий Николаевич Башкеев"/>
    <tag k="historic" v="memorial"/>
  </way>
  <way id="51551228" version="6" timestamp="2012-03-18T21:32:33Z" uid="336354" user="esaulenka" changeset="11024334"/>
  <way id="51551229" version="2" timestamp="2011-03-17T12:24:43Z" uid="115477" user="wowik" changeset="7584833">
    <nd ref="429514116"/>
    <nd ref="659051766"/>
    <nd ref="659051767"/>
    <nd ref="659051765"/>
    <nd ref="429514118"/>
    <nd ref="429514121"/>
    <nd ref="429514120"/>
    <nd ref="429514119"/>
    <nd ref="429514116"/>
    <tag k="addr:housename" v="3"/>
    <tag k="addr:street" v="7-й Ростовский переулок"/>
    <tag k="building" v="yes"/>
  </way>
  <way id="51551229" version="3" timestamp="2011-03-17T14:16:14Z" uid="115477" user="wowik" changeset="7585805">
    <nd ref="429514116"/>
    <nd ref="659051766"/>
    <nd ref="659051767"/>
    <nd ref="659051765"/>
    <nd ref="429514121"/>
    <nd ref="429514120"/>
    <nd ref="429514119"/>
    <nd ref="429514116"/>
    <tag k="addr:street" v="7-й Ростовский переулок"/>
    <tag k="building" v="yes"/>
  </way>
  <way id="51551229" version="4" timestamp="2012-03-18T21:32:44Z" uid="336354" user="esaulenka" changeset="11024334"/>
  <way id="51551230" version="3" timestamp="2011-03-17T14:16:30Z" uid="115477" user="wowik" changeset="7585805">
    <nd ref="659051769"/>
    <nd ref="1205686981"/>
    <nd ref="1205687280"/>
    <nd ref="659051773"/>
    <nd ref="659051770"/>
    <nd ref="659051771"/>
    <nd ref="659051777"/>
    <nd ref="1205687231"/>
    <nd ref="1205686812"/>
    <nd ref="659051776"/>
    <nd ref="659051775"/>
    <nd ref="1205686949"/>
    <nd ref="1205686696"/>
    <nd ref="1205686868"/>
    <nd ref="1205687103"/>
    <nd ref="659051772"/>
    <nd ref="659051769"/>
    <tag k="addr:city" v="Москва"/>
    <tag k="addr:housenumber" v="16 с3"/>
    <tag k="addr:postcode" v="119121"/>
    <tag k="addr:street" v="улица Плющиха"/>
    <tag k="building" v="yes"/>
    <tag k="cladr:code" v="77000000000229800"/>
  </way>
  <way id="51551230" version="4" timestamp="2011-09-09T11:41:40Z" uid="424404" user="Dmitry Vilegzhanin" changeset="9253659">
    <nd ref="659051769"/>
    <nd ref="1205686981"/>
    <nd ref="1205687280"/>
    <nd ref="659051773"/>
    <nd ref="659051770"/>
    <nd ref="659051771"/>
    <nd ref="659051777"/>
    <nd ref="1205687231"/>
    <nd ref="1205686812"/>
    <nd ref="659051776"/>
    <nd ref="659051775"/>
    <nd ref="1205686949"/>
    <nd ref="1205686696"/>
    <nd ref="1205686868"/>
    <nd ref="1205687103"/>
    <nd ref="659051772"/>
    <nd ref="659051769"/>
    <tag k="addr:city" v="Москва"/>
    <tag k="addr:housenumber" v="16 с3"/>
    <tag k="addr:postcode" v="119121"/>
    <tag k="addr:street" v="улица Плющиха"/>
    <tag k="amenity" v="kindergarten"/>
    <tag k="building" v="kindergarten"/>
    <tag k="cladr:code" v="77000000000229800"/>
    <tag k="name" v="ДОУ №1183"/>
  </way>
  <way id="51551230" version="5" timestamp="2011-10-06T11:28:04Z" uid="133332" user="AMDmi3" changeset="9484746">
    <nd ref="659051769"/>
    <nd ref="1205686981"/>
    <nd ref="1205687280"/>
    <nd ref="659051773"/>
    <nd ref="659051770"/>
    <nd ref="659051771"/>
    <nd ref="659051777"/>
    <nd ref="1205687231"/>
    <nd ref="1205686812"/>
    <nd ref="659051776"/>
    <nd ref="659051775"/>
    <nd ref="1205686949"/>
    <nd ref="1205686696"/>
    <nd ref="1205686868"/>
    <nd ref="1205687103"/>
    <nd ref="659051772"/>
    <nd ref="659051769"/>
    <tag k="addr:city" v="Москва"/>
    <tag k="addr:housenumber" v="16 с3"/>
    <tag k="addr:postcode" v="119121"/>
    <tag k="addr:street" v="улица Плющиха"/>
    <tag k="amenity" v="kindergarten"/>
    <tag k="building" v="kindergarten"/>
    <tag k="name" v="Детский сад №1183"/>
  </way>
  <way id="51551230" version="6" timestamp="2012-03-30T16:01:56Z" uid="39086" user="AlexeyS" changeset="11156582"/>
  <way id="51551231" version="3" timestamp="2011-03-17T14:16:49Z" uid="115477" user="wowik" changeset="7585805">
    <nd ref="659051779"/>
    <nd ref="1205687176"/>
    <nd ref="1205686917"/>
    <nd ref="659051774"/>
    <nd ref="659051778"/>
    <nd ref="659051780"/>
    <nd ref="1205686776"/>
    <nd ref="1205686999"/>
    <nd ref="659051779"/>
    <tag k="addr:city" v="Москва"/>
    <tag k="addr:housenumber" v="16 с2"/>
    <tag k="addr:postcode" v="119121"/>
    <tag k="addr:street" v="улица Плющиха"/>
    <tag k="building" v="yes"/>
  </way>
  <way id="51551231" version="4" timestamp="2011-10-08T21:43:27Z" uid="133332" user="AMDmi3" changeset="9507196">
    <nd ref="659051779"/>
    <nd ref="1205687176"/>
    <nd ref="1205686917"/>
    <nd ref="659051774"/>
    <nd ref="659051778"/>
    <nd ref="1459335433"/>
    <nd ref="659051779"/>
    <tag k="addr:city" v="Москва"/>
    <tag k="addr:housenumber" v="16 с2"/>
    <tag k="addr:postcode" v="119121"/>
    <tag k="addr:street" v="улица Плющиха"/>
    <tag k="building" v="yes"/>
  </way>
  <way id="51551231" version="5" timestamp="2012-03-30T16:01:57Z" uid="39086" user="AlexeyS" changeset="11156582"/>
  <way id="51551257" version="2" timestamp="2010-07-09T06:41:41Z" uid="74617" user="JohnSmith" changeset="5171128">
    <nd ref="659106352"/>
    <nd ref="659106356"/>
    <nd ref="659106358"/>
    <nd ref="659106360"/>
    <nd ref="659106363"/>
    <nd ref="659106366"/>
    <nd ref="659106368"/>
    <nd ref="659106370"/>
    <nd ref="659106372"/>
    <nd ref="659106378"/>
    <nd ref="659106381"/>
    <nd ref="659106386"/>
    <nd ref="659106391"/>
    <nd ref="659106393"/>
    <nd ref="659106397"/>
    <nd ref="659106401"/>
    <tag k="highway" v="residential"/>
    <tag k="maxspeed" v="50"/>
    <tag k="maxspeed:source" v="default residential speed limit in Australia"/>
  </way>
  <way id="51551257" version="3" timestamp="2012-01-20T03:06:09Z" uid="147510" user="woodpeck_fixbot" changeset="10442986">
    <nd ref="659106352"/>
    <nd ref="659106356"/>
    <nd ref="659106358"/>
    <nd ref="659106360"/>
    <nd ref="659106363"/>
    <nd ref="659106366"/>
    <nd ref="659106368"/>
    <nd ref="659106370"/>
    <nd ref="659106372"/>
    <nd ref="659106378"/>
    <nd ref="659106381"/>
    <nd ref="659106386"/>
    <nd ref="659106391"/>
    <nd ref="659106393"/>
    <nd ref="659106397"/>
    <nd ref="659106401"/>
    <tag k="highway" v="residential"/>
  </way>
  <way id="51551265" version="1" timestamp="2010-03-02T12:38:09Z" uid="20587" user="balrog-kun" changeset="4016450">
    <nd ref="311852396"/>
    <nd ref="311852391"/>
    <nd ref="311852393"/>
    <nd ref="311852399"/>
    <nd ref="311852400"/>
    <nd ref="311852394"/>
    <nd ref="311852387"/>
    <nd ref="311852388"/>
    <nd ref="311852392"/>
    <nd ref="311852397"/>
    <nd ref="311852396"/>
    <tag k="addr:housenumber" v="45"/>
    <tag k="addr:street" v="Grójecka"/>
    <tag k="building" v="residential"/>
    <tag k="building:levels" v="5"/>
  </way>
  <way id="51551266" version="1" timestamp="2010-03-02T12:38:11Z" uid="20587" user="balrog-kun" changeset="4016450">
    <nd ref="659107834"/>
    <nd ref="659107843"/>
    <nd ref="659107840"/>
    <nd ref="659107838"/>
    <nd ref="659107836"/>
    <nd ref="659107841"/>
    <nd ref="659107834"/>
    <tag k="addr:housenumber" v="18"/>
    <tag k="addr:street" v="Targowa"/>
    <tag k="landuse" v="retail"/>
  </way>
  <way id="51551266" version="2" timestamp="2011-09-22T20:28:02Z" uid="373244" user="Tomekg" changeset="9372213"/>
  <way id="51551267" version="1" timestamp="2010-03-02T12:38:11Z" uid="20587" user="balrog-kun" changeset="4016450">
    <nd ref="659107866"/>
    <nd ref="659107863"/>
    <nd ref="659107864"/>
    <nd ref="659107870"/>
    <nd ref="659107866"/>
    <tag k="amenity" v="kindergarten"/>
    <tag k="name" v="Przedszkole Nr 166"/>
  </way>
  <way id="51551267" version="2" timestamp="2010-07-31T02:37:39Z" uid="20587" user="balrog-kun" changeset="5359588">
    <nd ref="659107866"/>
    <nd ref="659107863"/>
    <nd ref="659107864"/>
    <nd ref="659107870"/>
    <nd ref="659107866"/>
    <tag k="addr:housenumber" v="309/317"/>
    <tag k="addr:postcode" v="03-023"/>
    <tag k="addr:street" v="Grochowska"/>
    <tag k="amenity" v="kindergarten"/>
    <tag k="name" v="Przedszkole Nr 166"/>
  </way>
  <way id="51551267" version="3" timestamp="2011-01-20T19:00:51Z" uid="20587" user="balrog-kun" changeset="7033402">
    <nd ref="659107866"/>
    <nd ref="659107863"/>
    <nd ref="659107864"/>
    <nd ref="659107870"/>
    <nd ref="1111953232"/>
    <nd ref="659107866"/>
    <tag k="addr:housenumber" v="309/317"/>
    <tag k="addr:postcode" v="03-023"/>
    <tag k="addr:street" v="Grochowska"/>
    <tag k="amenity" v="kindergarten"/>
    <tag k="name" v="Przedszkole Nr 166"/>
  </way>
  <way id="51551268" version="1" timestamp="2010-03-02T12:38:11Z" uid="20587" user="balrog-kun" changeset="4016450">
    <nd ref="659107911"/>
    <nd ref="659107913"/>
    <nd ref="659107914"/>
    <nd ref="659107916"/>
    <nd ref="659107919"/>
    <nd ref="32599939"/>
    <tag k="highway" v="service"/>
    <tag k="maxspeed" v="40"/>
  </way>
  <way id="51551268" version="2" timestamp="2011-08-11T13:33:05Z" uid="373244" user="Tomaszg" changeset="8985621">
    <nd ref="659107911"/>
    <nd ref="659107913"/>
    <nd ref="659107914"/>
    <nd ref="659107916"/>
    <nd ref="659107919"/>
    <nd ref="32599939"/>
    <tag k="highway" v="service"/>
    <tag k="maxspeed" v="40"/>
    <tag k="oneway" v="yes"/>
  </way>
  <way id="51551268" version="3" timestamp="2011-08-12T10:45:17Z" uid="373244" user="Tomaszg" changeset="8993387"/>
  <way id="51551323" version="3" timestamp="2010-07-09T06:41:44Z" uid="74617" user="JohnSmith" changeset="5171128">
    <nd ref="659110823"/>
    <nd ref="659111503"/>
    <nd ref="659110826"/>
    <tag k="highway" v="residential"/>
    <tag k="maxspeed" v="50"/>
    <tag k="maxspeed:source" v="default residential speed limit in Australia"/>
  </way>
  <way id="51551323" version="4" timestamp="2012-01-20T03:06:11Z" uid="147510" user="woodpeck_fixbot" changeset="10442986">
    <nd ref="659110823"/>
    <nd ref="659111503"/>
    <nd ref="659110826"/>
    <tag k="highway" v="residential"/>
  </way>
  <way id="51551324" version="2" timestamp="2011-03-17T12:03:44Z" uid="115477" user="wowik" changeset="7584637">
    <nd ref="659051747"/>
    <nd ref="659051656"/>
    <nd ref="1205586161"/>
    <nd ref="659051657"/>
    <nd ref="659051782"/>
    <nd ref="1205585732"/>
    <nd ref="659051781"/>
    <nd ref="659051747"/>
    <tag k="landuse" v="residential"/>
  </way>
  <way id="51551324" version="3" timestamp="2012-02-24T13:53:29Z" uid="133332" user="AMDmi3" changeset="10778349">
    <nd ref="659051747"/>
    <nd ref="659051656"/>
    <nd ref="1205586161"/>
    <nd ref="659051657"/>
    <nd ref="659051782"/>
    <nd ref="1205585732"/>
    <nd ref="659051781"/>
    <nd ref="659051747"/>
    <tag k="landuse" v="residential"/>
    <tag k="residential" v="urban"/>
  </way>
  <way id="51551324" version="4" timestamp="2012-03-18T21:32:50Z" uid="336354" user="esaulenka" changeset="11024334"/>
  <way id="51551339" version="3" timestamp="2010-07-09T06:42:09Z" uid="74617" user="JohnSmith" changeset="5171128">
    <nd ref="659111496"/>
    <nd ref="659111498"/>
    <nd ref="659111499"/>
    <nd ref="659111500"/>
    <nd ref="659111501"/>
    <nd ref="659111502"/>
    <nd ref="659112230"/>
    <nd ref="659111503"/>
    <tag k="highway" v="residential"/>
    <tag k="maxspeed" v="50"/>
    <tag k="maxspeed:source" v="default residential speed limit in Australia"/>
  </way>
  <way id="51551339" version="4" timestamp="2012-01-20T03:06:12Z" uid="147510" user="woodpeck_fixbot" changeset="10442986">
    <nd ref="659111496"/>
    <nd ref="659111498"/>
    <nd ref="659111499"/>
    <nd ref="659111500"/>
    <nd ref="659111501"/>
    <nd ref="659111502"/>
    <nd ref="659112230"/>
    <nd ref="659111503"/>
    <tag k="highway" v="residential"/>
  </way>
  <way id="51551347" version="2" timestamp="2010-07-09T06:41:59Z" uid="74617" user="JohnSmith" changeset="5171128">
    <nd ref="574273082"/>
    <nd ref="659112219"/>
    <nd ref="659112221"/>
    <nd ref="659112222"/>
    <nd ref="659112224"/>
    <nd ref="659112226"/>
    <nd ref="659112228"/>
    <nd ref="659112230"/>
    <tag k="highway" v="residential"/>
    <tag k="maxspeed" v="50"/>
    <tag k="maxspeed:source" v="default residential speed limit in Australia"/>
  </way>
  <way id="51551347" version="3" timestamp="2012-01-20T03:06:13Z" uid="147510" user="woodpeck_fixbot" changeset="10442986">
    <nd ref="574273082"/>
    <nd ref="659112219"/>
    <nd ref="659112221"/>
    <nd ref="659112222"/>
    <nd ref="659112224"/>
    <nd ref="659112226"/>
    <nd ref="659112228"/>
    <nd ref="659112230"/>
    <tag k="highway" v="residential"/>
  </way>
  <way id="51551354" version="1" timestamp="2010-03-02T12:42:31Z" uid="9719" user="dvaey" changeset="4016468">
    <nd ref="659112930"/>
    <nd ref="659112932"/>
    <nd ref="659112933"/>
    <nd ref="659112935"/>
    <nd ref="659112937"/>
    <nd ref="659112939"/>
    <nd ref="644603172"/>
  </way>
  <way id="51551354" version="2" timestamp="2010-03-02T12:42:59Z" uid="9719" user="dvaey" changeset="4016468">
    <nd ref="659112930"/>
    <nd ref="659112932"/>
    <nd ref="659112933"/>
    <nd ref="659112935"/>
    <nd ref="659112937"/>
    <nd ref="659112939"/>
    <nd ref="644603172"/>
    <tag k="power" v="minor_line"/>
  </way>
  <way id="51551459" version="1" timestamp="2010-03-02T12:46:56Z" uid="9719" user="dvaey" changeset="4016468">
    <nd ref="644603174"/>
    <nd ref="659116087"/>
    <nd ref="659116090"/>
    <nd ref="659116093"/>
    <nd ref="659116095"/>
    <nd ref="659116096"/>
    <nd ref="659116097"/>
    <nd ref="659116098"/>
    <nd ref="653992709"/>
  </way>
  <way id="51551459" version="2" timestamp="2010-03-02T12:46:58Z" uid="9719" user="dvaey" changeset="4016468">
    <nd ref="644603174"/>
    <nd ref="659116087"/>
    <nd ref="659116090"/>
    <nd ref="659116093"/>
    <nd ref="659116095"/>
    <nd ref="659116096"/>
    <nd ref="659116097"/>
    <nd ref="659116098"/>
    <nd ref="653992709"/>
    <nd ref="653992710"/>
    <nd ref="653992711"/>
    <nd ref="653992712"/>
    <nd ref="653992713"/>
    <nd ref="653992714"/>
    <nd ref="653992715"/>
    <nd ref="653992716"/>
    <nd ref="653992717"/>
    <nd ref="653992718"/>
    <nd ref="653992719"/>
    <nd ref="653992720"/>
    <nd ref="653992721"/>
    <nd ref="653992722"/>
    <nd ref="653992723"/>
    <nd ref="653992724"/>
    <nd ref="653992725"/>
    <tag k="power" v="minor_line"/>
  </way>
  <way id="51551459" version="3" timestamp="2012-01-12T21:54:55Z" uid="12434" user="nm7s9" changeset="10374021"/>
  <way id="51551461" version="4" timestamp="2010-07-09T06:42:39Z" uid="74617" user="JohnSmith" changeset="5171128">
    <nd ref="659116572"/>
    <nd ref="659116573"/>
    <nd ref="659116574"/>
    <nd ref="659117401"/>
    <nd ref="659116577"/>
    <nd ref="659117723"/>
    <nd ref="659116580"/>
    <nd ref="659116584"/>
    <nd ref="659116587"/>
    <nd ref="659116593"/>
    <nd ref="659116596"/>
    <nd ref="659116599"/>
    <nd ref="659116601"/>
    <nd ref="659116603"/>
    <tag k="highway" v="residential"/>
    <tag k="maxspeed" v="50"/>
    <tag k="maxspeed:source" v="default residential speed limit in Australia"/>
  </way>
  <way id="51551461" version="5" timestamp="2012-01-20T03:06:15Z" uid="147510" user="woodpeck_fixbot" changeset="10442986">
    <nd ref="659116572"/>
    <nd ref="659116573"/>
    <nd ref="659116574"/>
    <nd ref="659117401"/>
    <nd ref="659116577"/>
    <nd ref="659117723"/>
    <nd ref="659116580"/>
    <nd ref="659116584"/>
    <nd ref="659116587"/>
    <nd ref="659116593"/>
    <nd ref="659116596"/>
    <nd ref="659116599"/>
    <nd ref="659116601"/>
    <nd ref="659116603"/>
    <tag k="highway" v="residential"/>
  </way>
  <way id="51551465" version="2" timestamp="2010-07-09T06:42:12Z" uid="74617" user="JohnSmith" changeset="5171128">
    <nd ref="659117108"/>
    <nd ref="659117110"/>
    <nd ref="659117112"/>
    <nd ref="659117115"/>
    <nd ref="659117118"/>
    <nd ref="659117121"/>
    <nd ref="659117123"/>
    <nd ref="659117124"/>
    <nd ref="659117125"/>
    <nd ref="659117128"/>
    <nd ref="659116593"/>
    <tag k="highway" v="residential"/>
    <tag k="maxspeed" v="50"/>
    <tag k="maxspeed:source" v="default residential speed limit in Australia"/>
  </way>
  <way id="51551465" version="3" timestamp="2012-01-20T03:06:17Z" uid="147510" user="woodpeck_fixbot" changeset="10442986">
    <nd ref="659117108"/>
    <nd ref="659117110"/>
    <nd ref="659117112"/>
    <nd ref="659117115"/>
    <nd ref="659117118"/>
    <nd ref="659117121"/>
    <nd ref="659117123"/>
    <nd ref="659117124"/>
    <nd ref="659117125"/>
    <nd ref="659117128"/>
    <nd ref="659116593"/>
    <tag k="highway" v="residential"/>
  </way>
  <way id="51551467" version="2" timestamp="2010-07-09T06:42:26Z" uid="74617" user="JohnSmith" changeset="5171128">
    <nd ref="659117399"/>
    <nd ref="659117401"/>
    <tag k="highway" v="residential"/>
    <tag k="maxspeed" v="50"/>
    <tag k="maxspeed:source" v="default residential speed limit in Australia"/>
  </way>
  <way id="51551467" version="3" timestamp="2012-01-20T03:06:18Z" uid="147510" user="woodpeck_fixbot" changeset="10442986">
    <nd ref="659117399"/>
    <nd ref="659117401"/>
    <tag k="highway" v="residential"/>
  </way>
  <way id="51551468" version="2" timestamp="2010-07-09T06:42:24Z" uid="74617" user="JohnSmith" changeset="5171128">
    <nd ref="659117708"/>
    <nd ref="659117712"/>
    <nd ref="659117715"/>
    <nd ref="659117717"/>
    <nd ref="659117718"/>
    <nd ref="659117723"/>
    <tag k="highway" v="residential"/>
    <tag k="maxspeed" v="50"/>
    <tag k="maxspeed:source" v="default residential speed limit in Australia"/>
  </way>
  <way id="51551468" version="3" timestamp="2012-01-20T03:06:20Z" uid="147510" user="woodpeck_fixbot" changeset="10442986">
    <nd ref="659117708"/>
    <nd ref="659117712"/>
    <nd ref="659117715"/>
    <nd ref="659117717"/>
    <nd ref="659117718"/>
    <nd ref="659117723"/>
    <tag k="highway" v="residential"/>
  </way>
  <way id="51551507" version="2" timestamp="2010-07-09T06:41:54Z" uid="74617" user="JohnSmith" changeset="5171128">
    <nd ref="659122892"/>
    <nd ref="659122893"/>
    <nd ref="659122894"/>
    <nd ref="659122895"/>
    <tag k="highway" v="residential"/>
    <tag k="maxspeed" v="50"/>
    <tag k="maxspeed:source" v="default residential speed limit in Australia"/>
  </way>
  <way id="51551507" version="3" timestamp="2012-01-20T03:06:21Z" uid="147510" user="woodpeck_fixbot" changeset="10442986">
    <nd ref="659122892"/>
    <nd ref="659122893"/>
    <nd ref="659122894"/>
    <nd ref="659122895"/>
    <tag k="highway" v="residential"/>
  </way>
  <way id="51551611" version="1" timestamp="2010-03-02T12:54:00Z" uid="9719" user="dvaey" changeset="4016554">
    <nd ref="659129573"/>
    <nd ref="653222149"/>
    <tag k="power" v="minor_line"/>
  </way>
  <way id="51551611" version="2" timestamp="2010-03-02T12:54:27Z" uid="9719" user="dvaey" changeset="4016554">
    <nd ref="659130628"/>
    <nd ref="659129573"/>
    <nd ref="653222149"/>
    <tag k="power" v="minor_line"/>
  </way>
  <way id="51551611" version="3" timestamp="2010-03-02T12:56:49Z" uid="9719" user="dvaey" changeset="4016554">
    <nd ref="659136067"/>
    <nd ref="659136069"/>
    <nd ref="659136071"/>
    <nd ref="659135059"/>
    <nd ref="659136073"/>
    <tag k="power" v="minor_line"/>
  </way>
  <way id="51551611" version="4" timestamp="2012-01-11T10:45:40Z" uid="12434" user="nm7s9" changeset="10359408"/>
  <way id="51551613" version="1" timestamp="2010-03-02T12:54:02Z" uid="9719" user="dvaey" changeset="4016554">
    <nd ref="659129679"/>
    <nd ref="659129684"/>
    <nd ref="659129688"/>
    <nd ref="659129573"/>
    <tag k="power" v="minor_line"/>
  </way>
  <way id="51551613" version="2" timestamp="2010-03-02T12:55:14Z" uid="9719" user="dvaey" changeset="4016554">
    <nd ref="659129679"/>
    <nd ref="659129684"/>
    <nd ref="659129688"/>
    <nd ref="659129573"/>
    <nd ref="659132404"/>
    <nd ref="659132409"/>
    <nd ref="659132415"/>
    <nd ref="659132420"/>
    <tag k="power" v="minor_line"/>
  </way>
  <way id="51551613" version="3" timestamp="2012-01-11T10:45:41Z" uid="12434" user="nm7s9" changeset="10359408"/>
  <way id="51551693" version="1" timestamp="2010-03-02T12:56:23Z" uid="9719" user="dvaey" changeset="4016554">
    <nd ref="659135059"/>
    <nd ref="659135066"/>
    <nd ref="659135075"/>
    <nd ref="659135082"/>
    <nd ref="659135087"/>
    <nd ref="659135091"/>
    <nd ref="659135093"/>
    <nd ref="659130628"/>
    <nd ref="659129573"/>
    <nd ref="653222149"/>
    <tag k="power" v="minor_line"/>
  </way>
  <way id="51551693" version="2" timestamp="2010-03-02T12:56:51Z" uid="9719" user="dvaey" changeset="4016554">
    <nd ref="659135059"/>
    <nd ref="659135066"/>
    <nd ref="659135075"/>
    <nd ref="659135082"/>
    <nd ref="659135087"/>
    <nd ref="659135091"/>
    <tag k="power" v="minor_line"/>
  </way>
  <way id="51551693" version="3" timestamp="2012-01-11T10:45:41Z" uid="12434" user="nm7s9" changeset="10359408"/>
  <way id="51551733" version="1" timestamp="2010-03-02T12:56:50Z" uid="9719" user="dvaey" changeset="4016554">
    <nd ref="659135091"/>
    <nd ref="659135093"/>
    <nd ref="659130628"/>
    <nd ref="659129573"/>
    <nd ref="653222149"/>
    <tag k="power" v="minor_line"/>
  </way>
  <way id="51551733" version="2" timestamp="2010-03-02T12:57:59Z" uid="9719" user="dvaey" changeset="4016554">
    <nd ref="659139278"/>
    <nd ref="659139280"/>
    <nd ref="659139282"/>
    <nd ref="659139088"/>
    <tag k="power" v="minor_line"/>
  </way>
  <way id="51551733" version="3" timestamp="2012-01-11T10:45:41Z" uid="12434" user="nm7s9" changeset="10359408"/>
  <way id="51551781" version="1" timestamp="2010-03-02T12:57:56Z" uid="9719" user="dvaey" changeset="4016554">
    <nd ref="659139088"/>
    <nd ref="659139092"/>
    <nd ref="659139097"/>
    <nd ref="659139100"/>
    <nd ref="659139103"/>
    <nd ref="659139107"/>
    <nd ref="659139110"/>
    <nd ref="659135091"/>
    <nd ref="659135093"/>
    <nd ref="659130628"/>
    <nd ref="659129573"/>
    <nd ref="653222149"/>
    <tag k="power" v="minor_line"/>
  </way>
  <way id="51551781" version="2" timestamp="2010-03-02T12:58:49Z" uid="9719" user="dvaey" changeset="4016554">
    <nd ref="659141336"/>
    <nd ref="659141341"/>
    <nd ref="659141215"/>
    <tag k="power" v="minor_line"/>
  </way>
  <way id="51551781" version="3" timestamp="2012-01-11T10:45:41Z" uid="12434" user="nm7s9" changeset="10359408"/>
  <way id="51551787" version="1" timestamp="2010-03-02T12:58:46Z" uid="9719" user="dvaey" changeset="4016554">
    <nd ref="659141215"/>
    <nd ref="659141218"/>
    <nd ref="659141221"/>
    <nd ref="659141224"/>
    <nd ref="659139088"/>
    <nd ref="659139092"/>
    <nd ref="659139097"/>
    <nd ref="659139100"/>
    <nd ref="659139103"/>
    <nd ref="659139107"/>
    <nd ref="659139110"/>
    <nd ref="659135091"/>
    <nd ref="659135093"/>
    <nd ref="659130628"/>
    <nd ref="659129573"/>
    <nd ref="653222149"/>
    <tag k="power" v="minor_line"/>
  </way>
  <way id="51551787" version="2" timestamp="2010-03-02T12:59:47Z" uid="9719" user="dvaey" changeset="4016554">
    <nd ref="659144166"/>
    <nd ref="659144169"/>
    <nd ref="659141215"/>
    <nd ref="659141218"/>
    <nd ref="659141221"/>
    <nd ref="659141224"/>
    <nd ref="659139088"/>
    <nd ref="659139092"/>
    <nd ref="659139097"/>
    <nd ref="659139100"/>
    <nd ref="659139103"/>
    <nd ref="659139107"/>
    <nd ref="659139110"/>
    <nd ref="659135091"/>
    <nd ref="659135093"/>
    <nd ref="659130628"/>
    <nd ref="659129573"/>
    <nd ref="653222149"/>
    <tag k="power" v="minor_line"/>
  </way>
  <way id="51551787" version="3" timestamp="2012-01-11T10:45:41Z" uid="12434" user="nm7s9" changeset="10359408"/>
  <way id="51551823" version="1" timestamp="2010-03-02T13:01:11Z" uid="9719" user="dvaey" changeset="4016554">
    <nd ref="659147438"/>
    <nd ref="659147443"/>
    <nd ref="659147448"/>
    <nd ref="659147452"/>
  </way>
  <way id="51551823" version="2" timestamp="2010-03-02T13:01:45Z" uid="9719" user="dvaey" changeset="4016554">
    <nd ref="659149078"/>
    <nd ref="659149081"/>
    <nd ref="659149084"/>
    <nd ref="659147438"/>
    <nd ref="659147443"/>
    <nd ref="659147448"/>
    <nd ref="659147452"/>
    <tag k="power" v="minor_line"/>
  </way>
  <way id="51551823" version="3" timestamp="2012-01-11T10:45:41Z" uid="12434" user="nm7s9" changeset="10359408"/>
  <way id="51551825" version="1" timestamp="2010-03-02T13:01:18Z" uid="9719" user="dvaey" changeset="4016554">
    <nd ref="659141221"/>
    <nd ref="659147863"/>
    <nd ref="659147867"/>
    <nd ref="659147871"/>
    <nd ref="659147874"/>
    <nd ref="659147438"/>
    <tag k="power" v="minor_line"/>
  </way>
  <way id="51551825" version="2" timestamp="2012-01-11T10:45:42Z" uid="12434" user="nm7s9" changeset="10359408"/>
  <way id="51551828" version="1" timestamp="2010-03-02T13:01:21Z" uid="115477" user="wowik" changeset="4016617">
    <nd ref="659147960"/>
    <nd ref="659147979"/>
    <nd ref="659147982"/>
    <nd ref="659147986"/>
    <nd ref="659147989"/>
    <nd ref="659147994"/>
    <nd ref="659147998"/>
    <nd ref="659148002"/>
    <nd ref="659148006"/>
    <nd ref="659148010"/>
    <nd ref="659148014"/>
    <nd ref="659148019"/>
    <nd ref="659148023"/>
    <nd ref="659148028"/>
    <nd ref="659148032"/>
    <nd ref="659147959"/>
    <tag k="highway" v="service"/>
  </way>
  <way id="51551828" version="2" timestamp="2010-03-02T13:19:48Z" uid="115477" user="wowik" changeset="4016696">
    <nd ref="659147960"/>
    <nd ref="659147979"/>
    <nd ref="659147982"/>
    <nd ref="659147986"/>
    <nd ref="659147989"/>
    <nd ref="659147994"/>
    <nd ref="659147998"/>
    <nd ref="659148002"/>
    <nd ref="659148006"/>
    <nd ref="659148010"/>
    <nd ref="659193411"/>
    <nd ref="659148014"/>
    <nd ref="659148019"/>
    <nd ref="659148023"/>
    <nd ref="659148028"/>
    <nd ref="659148032"/>
    <nd ref="659147959"/>
    <tag k="highway" v="service"/>
  </way>
  <way id="51551828" version="3" timestamp="2011-10-30T15:32:04Z" uid="131244" user="Torx" changeset="9694860">
    <nd ref="659147960"/>
    <nd ref="659147979"/>
    <nd ref="659147982"/>
    <nd ref="659147986"/>
    <nd ref="659147989"/>
    <nd ref="659147994"/>
    <nd ref="659147998"/>
    <nd ref="659148002"/>
    <nd ref="659148006"/>
    <nd ref="659148010"/>
    <nd ref="659193411"/>
    <nd ref="659148014"/>
    <nd ref="659148019"/>
    <nd ref="659148023"/>
    <nd ref="659147959"/>
    <tag k="highway" v="service"/>
  </way>
  <way id="51551828" version="4" timestamp="2011-10-30T16:07:24Z" uid="131244" user="Torx" changeset="9695185">
    <nd ref="659147960"/>
    <nd ref="659147982"/>
    <nd ref="1485848806"/>
    <nd ref="659147986"/>
    <nd ref="659147989"/>
    <nd ref="659147994"/>
    <nd ref="1485848801"/>
    <nd ref="659147998"/>
    <nd ref="659148002"/>
    <nd ref="659148006"/>
    <nd ref="659148010"/>
    <nd ref="659193411"/>
    <nd ref="659148014"/>
    <nd ref="659148019"/>
    <nd ref="659148023"/>
    <nd ref="659147959"/>
    <tag k="highway" v="service"/>
  </way>
  <way id="51551945" version="1" timestamp="2010-03-02T13:04:45Z" uid="9719" user="dvaey" changeset="4016554">
    <nd ref="659155927"/>
    <nd ref="659155933"/>
    <tag k="power" v="line"/>
  </way>
  <way id="51551945" version="2" timestamp="2010-03-02T13:08:07Z" uid="9719" user="dvaey" changeset="4016554">
    <nd ref="659164148"/>
    <nd ref="659164151"/>
    <nd ref="659164153"/>
    <nd ref="659164155"/>
    <nd ref="659164157"/>
    <nd ref="659164159"/>
    <nd ref="659164161"/>
    <nd ref="659155927"/>
    <nd ref="659155933"/>
    <tag k="power" v="minor_line"/>
  </way>
  <way id="51551945" version="3" timestamp="2010-03-07T15:28:31Z" uid="9719" user="dvaey" changeset="4061183">
    <nd ref="659164148"/>
    <nd ref="659164151"/>
    <nd ref="659164153"/>
    <nd ref="659164155"/>
    <nd ref="659164157"/>
    <nd ref="659164159"/>
    <tag k="power" v="minor_line"/>
  </way>
  <way id="51551945" version="4" timestamp="2012-01-11T10:45:42Z" uid="12434" user="nm7s9" changeset="10359408"/>
  <way id="51551964" version="1" timestamp="2010-03-02T13:07:01Z" uid="9719" user="dvaey" changeset="4016554">
    <nd ref="659161357"/>
    <nd ref="659161359"/>
    <nd ref="659161360"/>
    <nd ref="659161361"/>
    <nd ref="659161362"/>
    <nd ref="659161363"/>
    <nd ref="659161364"/>
    <nd ref="659161365"/>
    <nd ref="659161367"/>
    <nd ref="659161370"/>
    <nd ref="659155933"/>
    <nd ref="659161373"/>
    <tag k="power" v="minor_line"/>
  </way>
  <way id="51551964" version="2" timestamp="2010-03-07T15:28:37Z" uid="9719" user="dvaey" changeset="4061183">
    <nd ref="659161357"/>
    <nd ref="659161359"/>
    <nd ref="659161360"/>
    <nd ref="659161361"/>
    <nd ref="659161362"/>
    <nd ref="659161363"/>
    <nd ref="659161364"/>
    <nd ref="659161365"/>
    <nd ref="659161367"/>
    <nd ref="659161370"/>
    <nd ref="659155933"/>
    <tag k="power" v="minor_line"/>
  </way>
  <way id="51551964" version="3" timestamp="2010-03-07T15:29:23Z" uid="9719" user="dvaey" changeset="4061183"/>
</osm>
