<?xml version='1.0' encoding='UTF-8'?>
<osm version="0.6" generator="libosmium/2.20.0">
  <way id="51580451" version="2" timestamp="2010-03-23T19:29:14Z" uid="33382" user="de_muur" changeset="4215247">
    <nd ref="659582208"/>
    <nd ref="278638912"/>
    <nd ref="616238654"/>
    <nd ref="619983238"/>
    <nd ref="341990564"/>
    <nd ref="646911103"/>
    <nd ref="278670771"/>
    <nd ref="25435376"/>
    <nd ref="25435377"/>
    <nd ref="25435378"/>
    <nd ref="25435379"/>
    <nd ref="25435380"/>
    <nd ref="25435381"/>
    <nd ref="278670779"/>
    <tag k="highway" v="secondary"/>
    <tag k="maxspeed" v="50"/>
    <tag k="name" v="Bremer Straße"/>
    <tag k="ref" v="L 331"/>
    <tag k="surface" v="paved"/>
  </way>
  <way id="51580451" version="3" timestamp="2010-04-19T19:46:19Z" uid="33382" user="de_muur" changeset="4471594">
    <nd ref="659582208"/>
    <nd ref="278638912"/>
    <nd ref="616238654"/>
    <nd ref="619983238"/>
    <nd ref="341990564"/>
    <nd ref="646911103"/>
    <nd ref="278670771"/>
    <tag k="highway" v="secondary"/>
    <tag k="maxspeed" v="50"/>
    <tag k="name" v="Bremer Straße"/>
    <tag k="ref" v="L 331"/>
    <tag k="surface" v="paved"/>
  </way>
  <way id="51580451" version="4" timestamp="2010-05-25T19:51:08Z" uid="35574" user="Schorse" changeset="4807389">
    <nd ref="659582208"/>
    <nd ref="278638912"/>
    <nd ref="616238654"/>
    <nd ref="619983238"/>
    <nd ref="341990564"/>
    <nd ref="646911103"/>
    <nd ref="278670771"/>
    <tag k="bicycle" v="designated"/>
    <tag k="cycleway" v="track"/>
    <tag k="foot" v="designated"/>
    <tag k="highway" v="secondary"/>
    <tag k="maxspeed" v="50"/>
    <tag k="name" v="Bremer Straße"/>
    <tag k="ref" v="L 331"/>
    <tag k="surface" v="paved"/>
  </way>
  <way id="51580453" version="2" timestamp="2010-03-22T19:20:34Z" uid="33382" user="de_muur" changeset="4205829">
    <nd ref="271975487"/>
    <nd ref="341879470"/>
    <nd ref="271975489"/>
    <nd ref="26334516"/>
    <nd ref="271975491"/>
    <nd ref="659582213"/>
    <tag k="highway" v="tertiary"/>
    <tag k="maxspeed" v="30"/>
    <tag k="name" v="Lehmstraße"/>
    <tag k="ref" v="K 68"/>
    <tag k="surface" v="paved"/>
  </way>
  <way id="51580453" version="3" timestamp="2010-05-25T19:50:49Z" uid="35574" user="Schorse" changeset="4807389">
    <nd ref="271975487"/>
    <nd ref="341879470"/>
    <nd ref="271975489"/>
    <nd ref="26334516"/>
    <nd ref="271975491"/>
    <nd ref="659582213"/>
    <tag k="bicycle" v="designated"/>
    <tag k="cycleway" v="track"/>
    <tag k="foot" v="designated"/>
    <tag k="highway" v="tertiary"/>
    <tag k="maxspeed" v="30"/>
    <tag k="name" v="Lehmstraße"/>
    <tag k="ref" v="K 68"/>
    <tag k="surface" v="paved"/>
  </way>
  <way id="51580453" version="4" timestamp="2011-08-02T12:03:10Z" uid="470667" user="Schefti" changeset="8900191">
    <nd ref="659582213"/>
    <nd ref="271975491"/>
    <nd ref="26334516"/>
    <nd ref="271975489"/>
    <nd ref="341879470"/>
    <nd ref="271975487"/>
    <tag k="bicycle" v="designated"/>
    <tag k="cycleway" v="track"/>
    <tag k="foot" v="designated"/>
    <tag k="highway" v="tertiary"/>
    <tag k="maxspeed" v="30"/>
    <tag k="name" v="Lehmstraße"/>
    <tag k="ref" v="K 68"/>
    <tag k="surface" v="paved"/>
  </way>
  <way id="51580453" version="5" timestamp="2011-12-25T16:59:12Z" uid="57645" user="KartoGrapHiti" changeset="10201266">
    <nd ref="659582213"/>
    <nd ref="271975491"/>
    <nd ref="26334516"/>
    <nd ref="271975489"/>
    <nd ref="341879470"/>
    <nd ref="1561644510"/>
    <nd ref="271975487"/>
    <tag k="bicycle" v="designated"/>
    <tag k="cycleway" v="track"/>
    <tag k="foot" v="designated"/>
    <tag k="highway" v="tertiary"/>
    <tag k="lit" v="no"/>
    <tag k="maxspeed" v="30"/>
    <tag k="name" v="Lehmstraße"/>
    <tag k="ref" v="K 68"/>
    <tag k="surface" v="paved"/>
  </way>
  <way id="51580453" version="6" timestamp="2011-12-27T12:06:59Z" uid="57645" user="KartoGrapHiti" changeset="10215065">
    <nd ref="659582213"/>
    <nd ref="271975491"/>
    <nd ref="26334516"/>
    <nd ref="271975489"/>
    <nd ref="341879470"/>
    <nd ref="1561644510"/>
    <nd ref="271975487"/>
    <tag k="bicycle" v="designated"/>
    <tag k="cycleway" v="track"/>
    <tag k="foot" v="designated"/>
    <tag k="highway" v="tertiary"/>
    <tag k="lit" v="no"/>
    <tag k="maxspeed" v="30"/>
    <tag k="name" v="Lehmstraße"/>
    <tag k="ref" v="K 68"/>
    <tag k="surface" v="asphalt"/>
  </way>
  <way id="51580453" version="7" timestamp="2012-01-27T19:17:47Z" uid="57645" user="KartoGrapHiti" changeset="10515398">
    <nd ref="659582213"/>
    <nd ref="271975491"/>
    <nd ref="26334516"/>
    <nd ref="271975489"/>
    <nd ref="341879470"/>
    <nd ref="1561644510"/>
    <nd ref="271975487"/>
    <tag k="highway" v="tertiary"/>
    <tag k="lit" v="no"/>
    <tag k="maxspeed" v="30"/>
    <tag k="name" v="Lehmstraße"/>
    <tag k="ref" v="K 68"/>
    <tag k="surface" v="asphalt"/>
  </way>
  <way id="51580997" version="1" timestamp="2010-03-02T21:48:26Z" uid="16922" user="amai" changeset="4020784">
    <nd ref="659582633"/>
    <nd ref="659582634"/>
    <nd ref="659582635"/>
    <nd ref="659582636"/>
    <nd ref="659582637"/>
    <nd ref="659582638"/>
    <nd ref="659582639"/>
    <nd ref="659582640"/>
    <nd ref="659582641"/>
    <tag k="highway" v="road"/>
    <tag k="source" v="Yahoo"/>
  </way>
</osm>
