<?xml version='1.0' encoding='UTF-8'?>
<osm version="0.6" generator="libosmium/2.20.0">
  <way id="51634011" version="1" timestamp="2010-03-03T00:58:00Z" uid="230283" user="AuFCL" changeset="4021670">
    <nd ref="659624736"/>
    <nd ref="659624995"/>
    <nd ref="659624996"/>
    <tag k="highway" v="residential"/>
    <tag k="name" v="King&apos;s Park Circuit"/>
  </way>
  <way id="51634011" version="2" timestamp="2010-04-07T23:07:29Z" uid="244897" user="M526244" changeset="4360083">
    <nd ref="659624736"/>
    <nd ref="659624995"/>
    <nd ref="659624996"/>
    <tag k="highway" v="residential"/>
    <tag k="name" v="King&apos;s Park Court"/>
  </way>
  <way id="51634011" version="3" timestamp="2010-07-07T07:18:53Z" uid="74617" user="JohnSmith" changeset="5156250">
    <nd ref="659624736"/>
    <nd ref="659624995"/>
    <nd ref="659624996"/>
    <tag k="highway" v="residential"/>
    <tag k="maxspeed" v="50"/>
    <tag k="maxspeed:source" v="default residential speed limit in Australia"/>
    <tag k="name" v="King&apos;s Park Court"/>
  </way>
  <way id="51634011" version="4" timestamp="2012-01-20T03:07:03Z" uid="147510" user="woodpeck_fixbot" changeset="10442986">
    <nd ref="659624736"/>
    <nd ref="659624995"/>
    <nd ref="659624996"/>
    <tag k="highway" v="residential"/>
    <tag k="name" v="King&apos;s Park Court"/>
  </way>
  <way id="51634244" version="1" timestamp="2010-03-03T00:58:43Z" uid="230283" user="AuFCL" changeset="4021670">
    <nd ref="659624737"/>
    <nd ref="659625017"/>
    <nd ref="659625018"/>
    <nd ref="659625019"/>
    <nd ref="659625020"/>
    <tag k="highway" v="residential"/>
    <tag k="name" v="Queen&apos;s Park Circuit"/>
  </way>
  <way id="51634244" version="2" timestamp="2010-04-07T23:07:29Z" uid="244897" user="M526244" changeset="4360083">
    <nd ref="659624737"/>
    <nd ref="659625017"/>
    <nd ref="659625018"/>
    <nd ref="659625019"/>
    <nd ref="659625020"/>
    <tag k="highway" v="residential"/>
    <tag k="name" v="Queen&apos;s Park Court"/>
  </way>
  <way id="51634244" version="3" timestamp="2010-07-07T07:19:10Z" uid="74617" user="JohnSmith" changeset="5156250">
    <nd ref="659624737"/>
    <nd ref="659625017"/>
    <nd ref="659625018"/>
    <nd ref="659625019"/>
    <nd ref="659625020"/>
    <tag k="highway" v="residential"/>
    <tag k="maxspeed" v="50"/>
    <tag k="maxspeed:source" v="default residential speed limit in Australia"/>
    <tag k="name" v="Queen&apos;s Park Court"/>
  </way>
  <way id="51634244" version="4" timestamp="2012-01-20T03:07:04Z" uid="147510" user="woodpeck_fixbot" changeset="10442986">
    <nd ref="659624737"/>
    <nd ref="659625017"/>
    <nd ref="659625018"/>
    <nd ref="659625019"/>
    <nd ref="659625020"/>
    <tag k="highway" v="residential"/>
    <tag k="name" v="Queen&apos;s Park Court"/>
  </way>
  <way id="51634896" version="2" timestamp="2010-07-09T03:22:08Z" uid="74617" user="JohnSmith" changeset="5170713">
    <nd ref="659624973"/>
    <nd ref="306407268"/>
    <nd ref="659623097"/>
    <nd ref="306407121"/>
    <tag k="highway" v="residential"/>
    <tag k="maxspeed" v="50"/>
    <tag k="maxspeed:source" v="default residential speed limit in Australia"/>
    <tag k="name" v="Denbigh Road"/>
    <tag k="source" v="MMBW"/>
  </way>
  <way id="51634896" version="3" timestamp="2012-01-20T03:07:05Z" uid="147510" user="woodpeck_fixbot" changeset="10442986">
    <nd ref="659624973"/>
    <nd ref="306407268"/>
    <nd ref="659623097"/>
    <nd ref="306407121"/>
    <tag k="highway" v="residential"/>
    <tag k="name" v="Denbigh Road"/>
    <tag k="source" v="MMBW"/>
  </way>
</osm>
