<?xml version='1.0' encoding='UTF-8'?>
<osm version="0.6" generator="libosmium/2.20.0">
  <way id="51663371" version="2" timestamp="2010-04-25T03:34:48Z" uid="20587" user="balrog-kun" changeset="4517482">
    <nd ref="659666416"/>
    <nd ref="659666439"/>
    <nd ref="659666440"/>
    <nd ref="659666441"/>
    <nd ref="659666442"/>
    <nd ref="659666495"/>
    <tag k="highway" v="residential"/>
    <tag k="name" v="Stanisława Staszica"/>
    <tag k="source" v="http://ump.waw.pl/ retrieved 16:02:22 01/18/10 (UMP-Suwalki/src/AUGUSTOW.ulice.txt)"/>
  </way>
  <way id="51663371" version="3" timestamp="2010-08-04T17:07:35Z" uid="63826" user="rhn" changeset="5400998">
    <nd ref="659666416"/>
    <nd ref="659666439"/>
    <nd ref="846136869"/>
    <tag k="highway" v="residential"/>
    <tag k="name" v="Stanisława Staszica"/>
    <tag k="source" v="http://ump.waw.pl/ retrieved 16:02:22 01/18/10 (UMP-Suwalki/src/AUGUSTOW.ulice.txt)"/>
  </way>
  <way id="51663375" version="2" timestamp="2010-04-25T03:34:47Z" uid="20587" user="balrog-kun" changeset="4517482">
    <nd ref="659666418"/>
    <nd ref="659666417"/>
    <nd ref="659666443"/>
    <nd ref="659666498"/>
    <nd ref="659666495"/>
    <tag k="highway" v="residential"/>
    <tag k="name" v="Stanisława Konarskiego"/>
    <tag k="source" v="http://ump.waw.pl/ retrieved 16:02:22 01/18/10 (UMP-Suwalki/src/AUGUSTOW.ulice.txt)"/>
  </way>
  <way id="51663375" version="3" timestamp="2010-08-04T17:07:32Z" uid="63826" user="rhn" changeset="5400998">
    <nd ref="659666418"/>
    <nd ref="659666417"/>
    <nd ref="659666443"/>
    <nd ref="659666440"/>
    <tag k="highway" v="residential"/>
    <tag k="name" v="Stanisława Konarskiego"/>
    <tag k="source" v="http://ump.waw.pl/ retrieved 16:02:22 01/18/10 (UMP-Suwalki/src/AUGUSTOW.ulice.txt)"/>
  </way>
  <way id="51663380" version="3" timestamp="2010-04-25T03:34:50Z" uid="20587" user="balrog-kun" changeset="4517482">
    <nd ref="659666381"/>
    <nd ref="659666473"/>
    <nd ref="659666512"/>
    <nd ref="659666513"/>
    <nd ref="659666514"/>
    <nd ref="679854868"/>
    <nd ref="659666525"/>
    <tag k="highway" v="residential"/>
    <tag k="name" v="Jana Kilińskiego"/>
    <tag k="source" v="http://ump.waw.pl/ retrieved 16:02:22 01/18/10 (UMP-Suwalki/src/AUGUSTOW.ulice.txt)"/>
  </way>
  <way id="51663452" version="2" timestamp="2010-04-25T03:34:47Z" uid="20587" user="balrog-kun" changeset="4517482">
    <nd ref="659666380"/>
    <nd ref="659666382"/>
    <tag k="highway" v="residential"/>
    <tag k="name" v="Księdza Piotra Ściegiennego"/>
    <tag k="oneway" v="yes"/>
    <tag k="source" v="http://ump.waw.pl/ retrieved 16:02:22 01/18/10 (UMP-Suwalki/src/AUGUSTOW.ulice.txt)"/>
  </way>
  <way id="51663472" version="2" timestamp="2010-04-25T03:34:49Z" uid="20587" user="balrog-kun" changeset="4517482">
    <nd ref="659666478"/>
    <nd ref="659666482"/>
    <nd ref="659666481"/>
    <nd ref="659666483"/>
    <nd ref="659666427"/>
    <tag k="highway" v="residential"/>
    <tag k="name" v="Elizy Orzeszkowej"/>
    <tag k="source" v="http://ump.waw.pl/ retrieved 16:02:22 01/18/10 (UMP-Suwalki/src/AUGUSTOW.ulice.txt)"/>
  </way>
  <way id="51663472" version="3" timestamp="2010-08-04T17:07:32Z" uid="63826" user="rhn" changeset="5400998">
    <nd ref="659666478"/>
    <nd ref="659666482"/>
    <nd ref="659666481"/>
    <nd ref="659666483"/>
    <nd ref="659666427"/>
    <tag k="highway" v="residential"/>
    <tag k="name" v="Elizy Orzeszkowej"/>
    <tag k="surface" v="unpaved"/>
  </way>
  <way id="51663474" version="2" timestamp="2010-04-25T03:34:49Z" uid="20587" user="balrog-kun" changeset="4517482">
    <nd ref="659666459"/>
    <nd ref="659666460"/>
    <nd ref="659666478"/>
    <tag k="highway" v="residential"/>
    <tag k="name" v="Generała Henryka Dąbrowskiego"/>
    <tag k="source" v="http://ump.waw.pl/ retrieved 16:02:22 01/18/10 (UMP-Suwalki/src/AUGUSTOW.ulice.txt)"/>
  </way>
  <way id="51663474" version="3" timestamp="2010-08-04T17:07:33Z" uid="63826" user="rhn" changeset="5400998">
    <nd ref="659666459"/>
    <nd ref="659666460"/>
    <nd ref="846136868"/>
    <tag k="highway" v="residential"/>
    <tag k="name" v="Generała Henryka Dąbrowskiego"/>
    <tag k="source" v="http://ump.waw.pl/ retrieved 16:02:22 01/18/10 (UMP-Suwalki/src/AUGUSTOW.ulice.txt)"/>
  </way>
  <way id="51663481" version="2" timestamp="2010-04-25T03:34:48Z" uid="20587" user="balrog-kun" changeset="4517482">
    <nd ref="659666483"/>
    <nd ref="659666428"/>
    <tag k="highway" v="residential"/>
    <tag k="name" v="Marii Dąbrowskiej"/>
    <tag k="source" v="http://ump.waw.pl/ retrieved 16:02:22 01/18/10 (UMP-Suwalki/src/AUGUSTOW.ulice.txt)"/>
  </way>
  <way id="51663516" version="3" timestamp="2010-07-14T01:05:09Z" uid="99207" user="Lar Kiesel" changeset="5213562">
    <nd ref="396754860"/>
    <nd ref="396779827"/>
    <nd ref="114072963"/>
    <nd ref="113940352"/>
    <nd ref="518258143"/>
    <nd ref="114043367"/>
    <nd ref="114072965"/>
    <nd ref="114072967"/>
    <nd ref="114023639"/>
    <nd ref="114072972"/>
    <nd ref="114072974"/>
    <nd ref="114031696"/>
    <nd ref="816234574"/>
    <nd ref="114072978"/>
    <nd ref="114072983"/>
    <nd ref="114072985"/>
    <tag k="highway" v="primary"/>
    <tag k="maxspeed" v="40 mph"/>
    <tag k="name" v="Broad River Rd"/>
    <tag k="name_1" v="United States Highway 176"/>
    <tag k="name_2" v="United States Highway 76"/>
    <tag k="ref" v="US 176; US 76"/>
    <tag k="tiger:cfcc" v="A21"/>
    <tag k="tiger:county" v="Richland, SC"/>
    <tag k="tiger:name_base" v="Broad River"/>
    <tag k="tiger:name_base_1" v="United States Highway 176"/>
    <tag k="tiger:name_type" v="Rd"/>
    <tag k="tiger:reviewed" v="no"/>
    <tag k="tiger:separated" v="no"/>
    <tag k="tiger:source" v="tiger_import_dch_v0.6_20070829"/>
    <tag k="tiger:tlid" v="71816498:71874328:71836025:71836380:71874322:71874323:71844249:71854895:71872027:71858042:71857732:71844174:71809962:71809972:71871325"/>
    <tag k="tiger:upload_uuid" v="bulk_upload.pl-0250b25a-3ed9-45b1-b84e-45e4a188563e"/>
  </way>
  <way id="51663516" version="4" timestamp="2011-06-15T05:55:25Z" uid="207745" user="NE2" changeset="8443930">
    <nd ref="396754860"/>
    <nd ref="396779827"/>
    <nd ref="114072963"/>
    <nd ref="113940352"/>
    <nd ref="518258143"/>
    <nd ref="114043367"/>
    <nd ref="114072965"/>
    <nd ref="114072967"/>
    <nd ref="114023639"/>
    <nd ref="114072972"/>
    <nd ref="114072974"/>
    <nd ref="114031696"/>
    <nd ref="816234574"/>
    <nd ref="114072978"/>
    <nd ref="114072983"/>
    <nd ref="114072985"/>
    <tag k="highway" v="primary"/>
    <tag k="maxspeed" v="40 mph"/>
    <tag k="name" v="Broad River Rd"/>
    <tag k="ref" v="US 176; US 76"/>
    <tag k="tiger:cfcc" v="A21"/>
    <tag k="tiger:county" v="Richland, SC"/>
    <tag k="tiger:name_base" v="Broad River"/>
    <tag k="tiger:name_base_1" v="United States Highway 176"/>
    <tag k="tiger:name_type" v="Rd"/>
    <tag k="tiger:reviewed" v="no"/>
    <tag k="tiger:separated" v="no"/>
    <tag k="tiger:source" v="tiger_import_dch_v0.6_20070829"/>
    <tag k="tiger:tlid" v="71816498:71874328:71836025:71836380:71874322:71874323:71844249:71854895:71872027:71858042:71857732:71844174:71809962:71809972:71871325"/>
    <tag k="tiger:upload_uuid" v="bulk_upload.pl-0250b25a-3ed9-45b1-b84e-45e4a188563e"/>
  </way>
  <way id="51663516" version="5" timestamp="2011-07-02T06:09:13Z" uid="473471" user="NE3" changeset="8604923">
    <nd ref="396754860"/>
    <nd ref="396779827"/>
    <nd ref="114072963"/>
    <nd ref="113940352"/>
    <nd ref="518258143"/>
    <nd ref="114043367"/>
    <nd ref="114072965"/>
    <tag k="highway" v="primary"/>
    <tag k="lanes" v="4"/>
    <tag k="maxspeed" v="40 mph"/>
    <tag k="name" v="Broad River Rd"/>
    <tag k="ref" v="US 176; US 76"/>
    <tag k="tiger:cfcc" v="A21"/>
    <tag k="tiger:county" v="Richland, SC"/>
    <tag k="tiger:name_base" v="Broad River"/>
    <tag k="tiger:name_base_1" v="United States Highway 176"/>
    <tag k="tiger:name_type" v="Rd"/>
    <tag k="tiger:reviewed" v="no"/>
    <tag k="tiger:separated" v="no"/>
    <tag k="tiger:source" v="tiger_import_dch_v0.6_20070829"/>
    <tag k="tiger:tlid" v="71816498:71874328:71836025:71836380:71874322:71874323:71844249:71854895:71872027:71858042:71857732:71844174:71809962:71809972:71871325"/>
    <tag k="tiger:upload_uuid" v="bulk_upload.pl-0250b25a-3ed9-45b1-b84e-45e4a188563e"/>
  </way>
  <way id="51663517" version="2" timestamp="2010-04-25T03:34:49Z" uid="20587" user="balrog-kun" changeset="4517482">
    <nd ref="659666400"/>
    <nd ref="659666402"/>
    <nd ref="659666394"/>
    <nd ref="659666448"/>
    <nd ref="659666452"/>
    <nd ref="659666453"/>
    <tag k="highway" v="residential"/>
    <tag k="name" v="Mikołaja Kopernika"/>
    <tag k="source" v="http://ump.waw.pl/ retrieved 16:02:22 01/18/10 (UMP-Suwalki/src/AUGUSTOW.ulice.txt)"/>
  </way>
  <way id="51663519" version="2" timestamp="2010-04-25T03:34:49Z" uid="20587" user="balrog-kun" changeset="4517482">
    <nd ref="659666404"/>
    <nd ref="659666405"/>
    <nd ref="659666451"/>
    <nd ref="659666454"/>
    <nd ref="659666455"/>
    <tag k="highway" v="residential"/>
    <tag k="name" v="Tadeusza Kościuszki"/>
    <tag k="source" v="http://ump.waw.pl/ retrieved 16:02:22 01/18/10 (UMP-Suwalki/src/AUGUSTOW.ulice.txt)"/>
  </way>
  <way id="51663551" version="2" timestamp="2010-04-25T03:34:48Z" uid="20587" user="balrog-kun" changeset="4517482">
    <nd ref="659666416"/>
    <nd ref="659666420"/>
    <nd ref="659666408"/>
    <tag k="highway" v="residential"/>
    <tag k="name" v="Emilii Plater"/>
    <tag k="source" v="http://ump.waw.pl/ retrieved 16:02:22 01/18/10 (UMP-Suwalki/src/AUGUSTOW.ulice.txt)"/>
  </way>
  <way id="51663556" version="2" timestamp="2010-04-25T03:34:49Z" uid="20587" user="balrog-kun" changeset="4517482">
    <nd ref="659666463"/>
    <nd ref="659666458"/>
    <tag k="highway" v="residential"/>
    <tag k="name" v="Władysława Raginisa"/>
    <tag k="source" v="http://ump.waw.pl/ retrieved 16:02:22 01/18/10 (UMP-Suwalki/src/AUGUSTOW.ulice.txt)"/>
  </way>
  <way id="51663589" version="2" timestamp="2010-04-25T03:34:47Z" uid="20587" user="balrog-kun" changeset="4517482">
    <nd ref="659666583"/>
    <nd ref="659666580"/>
    <nd ref="659666577"/>
    <nd ref="659666559"/>
    <nd ref="659666561"/>
    <nd ref="659666550"/>
    <nd ref="659666551"/>
    <tag k="highway" v="residential"/>
    <tag k="name" v="Marii Konopnickiej"/>
    <tag k="source" v="http://ump.waw.pl/ retrieved 16:02:22 01/18/10 (UMP-Suwalki/src/AUGUSTOW.ulice.txt)"/>
  </way>
  <way id="51663589" version="3" timestamp="2010-08-04T14:40:24Z" uid="63826" user="rhn" changeset="5399751">
    <nd ref="845963630"/>
    <nd ref="845963539"/>
    <nd ref="659666583"/>
    <nd ref="659666580"/>
    <nd ref="845963528"/>
    <nd ref="659666577"/>
    <nd ref="659666559"/>
    <nd ref="659666561"/>
    <nd ref="659666550"/>
    <nd ref="659666551"/>
    <tag k="highway" v="residential"/>
    <tag k="name" v="Marii Konopnickiej"/>
    <tag k="surface" v="paved"/>
  </way>
</osm>
