<?xml version='1.0' encoding='UTF-8'?>
<osm version="0.6" generator="libosmium/2.20.0">
  <way id="51764401" version="2" timestamp="2010-07-07T08:22:59Z" uid="74617" user="JohnSmith" changeset="5156250">
    <nd ref="163977430"/>
    <nd ref="163977513"/>
    <nd ref="163977450"/>
    <nd ref="163977472"/>
    <nd ref="163977486"/>
    <nd ref="660604590"/>
    <nd ref="163976727"/>
    <tag k="highway" v="residential"/>
    <tag k="maxspeed" v="50"/>
    <tag k="maxspeed:source" v="default residential speed limit in Australia"/>
    <tag k="name" v="Edmunds Place"/>
    <tag k="source" v="image"/>
  </way>
  <way id="51764401" version="3" timestamp="2012-01-03T10:21:19Z" uid="12434" user="nm7s9" changeset="10279667"/>
  <way id="51764935" version="3" timestamp="2010-04-06T14:54:50Z" uid="20587" user="balrog-kun" changeset="4342997">
    <nd ref="122138005"/>
    <nd ref="498248514"/>
    <tag k="bridge" v="yes"/>
    <tag k="highway" v="motorway"/>
    <tag k="layer" v="1"/>
    <tag k="name" v="West Kellogg Street"/>
    <tag k="name_1" v="West Harry Street"/>
    <tag k="oneway" v="yes"/>
    <tag k="ref" v="US 54; US 400"/>
    <tag k="tiger:cfcc" v="A25"/>
    <tag k="tiger:county" v="Sedgwick, KS"/>
    <tag k="tiger:name_base" v="Kellogg"/>
    <tag k="tiger:name_base_1" v="Harry"/>
    <tag k="tiger:name_base_2" v="United States Highway 54"/>
    <tag k="tiger:name_base_3" v="United States Highway 400"/>
    <tag k="tiger:name_direction_prefix" v="W"/>
    <tag k="tiger:name_direction_prefix_1" v="W"/>
    <tag k="tiger:name_type" v="St"/>
    <tag k="tiger:name_type_1" v="St"/>
    <tag k="tiger:reviewed" v="no"/>
    <tag k="tiger:separated" v="yes"/>
    <tag k="tiger:source" v="tiger_import_dch_v0.6_20070812"/>
    <tag k="tiger:tlid" v="115708699:115717297:115694103"/>
  </way>
  <way id="51764935" version="4" timestamp="2010-05-02T23:05:36Z" uid="262151" user="ToeBee" changeset="4590676">
    <nd ref="122138005"/>
    <nd ref="498248514"/>
    <tag k="bridge" v="yes"/>
    <tag k="highway" v="motorway"/>
    <tag k="layer" v="1"/>
    <tag k="name" v="West Kellogg Street"/>
    <tag k="name_1" v="West Harry Street"/>
    <tag k="oneway" v="yes"/>
    <tag k="ref" v="US 54; US 400"/>
    <tag k="tiger:cfcc" v="A25"/>
    <tag k="tiger:county" v="Sedgwick, KS"/>
    <tag k="tiger:name_base" v="Kellogg"/>
    <tag k="tiger:name_base_1" v="Harry"/>
    <tag k="tiger:name_base_2" v="United States Highway 54"/>
    <tag k="tiger:name_base_3" v="United States Highway 400"/>
    <tag k="tiger:name_direction_prefix" v="W"/>
    <tag k="tiger:name_direction_prefix_1" v="W"/>
    <tag k="tiger:name_type" v="St"/>
    <tag k="tiger:name_type_1" v="St"/>
    <tag k="tiger:separated" v="yes"/>
    <tag k="tiger:source" v="tiger_import_dch_v0.6_20070812"/>
    <tag k="tiger:tlid" v="115708699:115717297:115694103"/>
  </way>
  <way id="51764935" version="5" timestamp="2010-07-30T06:17:29Z" uid="262151" user="ToeBee" changeset="5351714">
    <nd ref="122138005"/>
    <nd ref="498248514"/>
    <tag k="bridge" v="yes"/>
    <tag k="highway" v="motorway"/>
    <tag k="layer" v="1"/>
    <tag k="name" v="West Kellogg Street"/>
    <tag k="name_1" v="West Harry Street"/>
    <tag k="oneway" v="yes"/>
    <tag k="ref" v="US 54; US 400"/>
    <tag k="tiger:cfcc" v="A25"/>
    <tag k="tiger:county" v="Sedgwick, KS"/>
    <tag k="tiger:name_base" v="Kellogg"/>
    <tag k="tiger:name_base_1" v="Harry"/>
    <tag k="tiger:name_direction_prefix" v="W"/>
    <tag k="tiger:name_type" v="St"/>
    <tag k="tiger:separated" v="yes"/>
    <tag k="tiger:source" v="tiger_import_dch_v0.6_20070812"/>
    <tag k="tiger:tlid" v="115708699:115717297:115694103"/>
  </way>
  <way id="51764935" version="6" timestamp="2010-12-12T01:19:31Z" uid="207745" user="NE2" changeset="6629847">
    <nd ref="122138005"/>
    <nd ref="498248514"/>
    <tag k="NHS_High_Priority_Corridor" v="3"/>
    <tag k="bridge" v="yes"/>
    <tag k="highway" v="motorway"/>
    <tag k="layer" v="1"/>
    <tag k="name" v="West Kellogg Street"/>
    <tag k="name_1" v="West Harry Street"/>
    <tag k="oneway" v="yes"/>
    <tag k="ref" v="US 54; US 400"/>
    <tag k="tiger:cfcc" v="A25"/>
    <tag k="tiger:county" v="Sedgwick, KS"/>
    <tag k="tiger:name_base" v="Kellogg"/>
    <tag k="tiger:name_base_1" v="Harry"/>
    <tag k="tiger:name_direction_prefix" v="W"/>
    <tag k="tiger:name_type" v="St"/>
    <tag k="tiger:separated" v="yes"/>
    <tag k="tiger:source" v="tiger_import_dch_v0.6_20070812"/>
    <tag k="tiger:tlid" v="115708699:115717297:115694103"/>
  </way>
  <way id="51764935" version="7" timestamp="2010-12-13T03:49:11Z" uid="207745" user="NE2" changeset="6644142">
    <nd ref="122138005"/>
    <nd ref="498248514"/>
    <tag k="bridge" v="yes"/>
    <tag k="highway" v="motorway"/>
    <tag k="layer" v="1"/>
    <tag k="name" v="West Kellogg Street"/>
    <tag k="name_1" v="West Harry Street"/>
    <tag k="oneway" v="yes"/>
    <tag k="ref" v="US 54; US 400"/>
    <tag k="tiger:cfcc" v="A25"/>
    <tag k="tiger:county" v="Sedgwick, KS"/>
    <tag k="tiger:name_base" v="Kellogg"/>
    <tag k="tiger:name_base_1" v="Harry"/>
    <tag k="tiger:name_direction_prefix" v="W"/>
    <tag k="tiger:name_type" v="St"/>
    <tag k="tiger:separated" v="yes"/>
    <tag k="tiger:source" v="tiger_import_dch_v0.6_20070812"/>
    <tag k="tiger:tlid" v="115708699:115717297:115694103"/>
  </way>
  <way id="51764935" version="8" timestamp="2011-06-19T11:21:16Z" uid="207745" user="NE2" changeset="8482682">
    <nd ref="122138005"/>
    <nd ref="498248514"/>
    <tag k="bridge" v="yes"/>
    <tag k="highway" v="motorway"/>
    <tag k="lanes" v="3"/>
    <tag k="layer" v="1"/>
    <tag k="name" v="West Kellogg Street"/>
    <tag k="name_1" v="West Harry Street"/>
    <tag k="oneway" v="yes"/>
    <tag k="ref" v="US 54; US 400"/>
    <tag k="tiger:cfcc" v="A25"/>
    <tag k="tiger:county" v="Sedgwick, KS"/>
    <tag k="tiger:name_base" v="Kellogg"/>
    <tag k="tiger:name_base_1" v="Harry"/>
    <tag k="tiger:name_direction_prefix" v="W"/>
    <tag k="tiger:name_type" v="St"/>
    <tag k="tiger:separated" v="yes"/>
    <tag k="tiger:source" v="tiger_import_dch_v0.6_20070812"/>
    <tag k="tiger:tlid" v="115708699:115717297:115694103"/>
  </way>
  <way id="51764935" version="9" timestamp="2011-07-07T02:13:25Z" uid="473471" user="NE3" changeset="8653554">
    <nd ref="122138005"/>
    <nd ref="498248514"/>
    <tag k="NHS" v="yes"/>
    <tag k="bridge" v="yes"/>
    <tag k="highway" v="motorway"/>
    <tag k="lanes" v="3"/>
    <tag k="layer" v="1"/>
    <tag k="name" v="West Kellogg Street"/>
    <tag k="name_1" v="West Harry Street"/>
    <tag k="oneway" v="yes"/>
    <tag k="ref" v="US 54; US 400"/>
    <tag k="tiger:cfcc" v="A25"/>
    <tag k="tiger:county" v="Sedgwick, KS"/>
    <tag k="tiger:name_base" v="Kellogg"/>
    <tag k="tiger:name_base_1" v="Harry"/>
    <tag k="tiger:name_direction_prefix" v="W"/>
    <tag k="tiger:name_type" v="St"/>
    <tag k="tiger:separated" v="yes"/>
    <tag k="tiger:source" v="tiger_import_dch_v0.6_20070812"/>
    <tag k="tiger:tlid" v="115708699:115717297:115694103"/>
  </way>
  <way id="51764935" version="10" timestamp="2011-10-13T17:33:07Z" uid="28378" user="PHerison" changeset="9549172"/>
</osm>
