<?xml version='1.0' encoding='UTF-8'?>
<osm version="0.6" generator="libosmium/2.20.0">
  <way id="51765025" version="4" timestamp="2010-04-06T14:54:50Z" uid="20587" user="balrog-kun" changeset="4342997">
    <nd ref="122203274"/>
    <nd ref="122203275"/>
    <nd ref="122203277"/>
    <nd ref="122182927"/>
    <nd ref="122203285"/>
    <nd ref="122203299"/>
    <tag k="highway" v="motorway"/>
    <tag k="name" v="West Kellogg Street"/>
    <tag k="oneway" v="yes"/>
    <tag k="ref" v="US 54; US 400"/>
    <tag k="tiger:cfcc" v="A25"/>
    <tag k="tiger:county" v="Sedgwick, KS"/>
    <tag k="tiger:name_base" v="Kellogg"/>
    <tag k="tiger:name_base_1" v="Harry"/>
    <tag k="tiger:name_base_2" v="United States Highway 54"/>
    <tag k="tiger:name_base_3" v="United States Highway 400"/>
    <tag k="tiger:name_direction_prefix" v="W"/>
    <tag k="tiger:name_direction_prefix_1" v="W"/>
    <tag k="tiger:name_type" v="St"/>
    <tag k="tiger:name_type_1" v="St"/>
    <tag k="tiger:reviewed" v="no"/>
    <tag k="tiger:separated" v="yes"/>
    <tag k="tiger:source" v="tiger_import_dch_v0.6_20070812"/>
    <tag k="tiger:tlid" v="115708699:115717297:115694103"/>
  </way>
  <way id="51765025" version="5" timestamp="2010-05-02T23:05:40Z" uid="262151" user="ToeBee" changeset="4590676">
    <nd ref="122203274"/>
    <nd ref="122203275"/>
    <nd ref="122203277"/>
    <nd ref="122182927"/>
    <nd ref="718041464"/>
    <nd ref="122203285"/>
    <nd ref="122203299"/>
    <tag k="highway" v="motorway"/>
    <tag k="name" v="West Kellogg Street"/>
    <tag k="oneway" v="yes"/>
    <tag k="ref" v="US 54; US 400"/>
    <tag k="tiger:cfcc" v="A25"/>
    <tag k="tiger:county" v="Sedgwick, KS"/>
    <tag k="tiger:name_base" v="Kellogg"/>
    <tag k="tiger:name_base_1" v="Harry"/>
    <tag k="tiger:name_base_2" v="United States Highway 54"/>
    <tag k="tiger:name_base_3" v="United States Highway 400"/>
    <tag k="tiger:name_direction_prefix" v="W"/>
    <tag k="tiger:name_direction_prefix_1" v="W"/>
    <tag k="tiger:name_type" v="St"/>
    <tag k="tiger:name_type_1" v="St"/>
    <tag k="tiger:separated" v="yes"/>
    <tag k="tiger:source" v="tiger_import_dch_v0.6_20070812"/>
    <tag k="tiger:tlid" v="115708699:115717297:115694103"/>
  </way>
  <way id="51765025" version="6" timestamp="2010-07-30T06:17:26Z" uid="262151" user="ToeBee" changeset="5351714">
    <nd ref="122203274"/>
    <nd ref="122203275"/>
    <nd ref="122203277"/>
    <nd ref="122182927"/>
    <nd ref="718041464"/>
    <nd ref="122203285"/>
    <nd ref="122203299"/>
    <tag k="highway" v="motorway"/>
    <tag k="name" v="West Kellogg Street"/>
    <tag k="oneway" v="yes"/>
    <tag k="ref" v="US 54; US 400"/>
    <tag k="tiger:cfcc" v="A25"/>
    <tag k="tiger:county" v="Sedgwick, KS"/>
    <tag k="tiger:name_base" v="Kellogg"/>
    <tag k="tiger:name_base_1" v="Harry"/>
    <tag k="tiger:name_direction_prefix" v="W"/>
    <tag k="tiger:name_type" v="St"/>
    <tag k="tiger:separated" v="yes"/>
    <tag k="tiger:source" v="tiger_import_dch_v0.6_20070812"/>
    <tag k="tiger:tlid" v="115708699:115717297:115694103"/>
  </way>
  <way id="51765025" version="7" timestamp="2010-12-12T01:44:35Z" uid="207745" user="NE2" changeset="6629847">
    <nd ref="122203274"/>
    <nd ref="122203275"/>
    <nd ref="122203277"/>
    <nd ref="122182927"/>
    <nd ref="718041464"/>
    <nd ref="122203285"/>
    <nd ref="122203299"/>
    <tag k="NHS_High_Priority_Corridor" v="3"/>
    <tag k="highway" v="motorway"/>
    <tag k="name" v="West Kellogg Street"/>
    <tag k="oneway" v="yes"/>
    <tag k="ref" v="US 54; US 400"/>
    <tag k="tiger:cfcc" v="A25"/>
    <tag k="tiger:county" v="Sedgwick, KS"/>
    <tag k="tiger:name_base" v="Kellogg"/>
    <tag k="tiger:name_base_1" v="Harry"/>
    <tag k="tiger:name_direction_prefix" v="W"/>
    <tag k="tiger:name_type" v="St"/>
    <tag k="tiger:separated" v="yes"/>
    <tag k="tiger:source" v="tiger_import_dch_v0.6_20070812"/>
    <tag k="tiger:tlid" v="115708699:115717297:115694103"/>
  </way>
  <way id="51765025" version="8" timestamp="2010-12-13T04:24:59Z" uid="207745" user="NE2" changeset="6644142">
    <nd ref="122203274"/>
    <nd ref="122203275"/>
    <nd ref="122203277"/>
    <nd ref="122182927"/>
    <nd ref="718041464"/>
    <nd ref="122203285"/>
    <nd ref="122203299"/>
    <tag k="highway" v="motorway"/>
    <tag k="name" v="West Kellogg Street"/>
    <tag k="oneway" v="yes"/>
    <tag k="ref" v="US 54; US 400"/>
    <tag k="tiger:cfcc" v="A25"/>
    <tag k="tiger:county" v="Sedgwick, KS"/>
    <tag k="tiger:name_base" v="Kellogg"/>
    <tag k="tiger:name_base_1" v="Harry"/>
    <tag k="tiger:name_direction_prefix" v="W"/>
    <tag k="tiger:name_type" v="St"/>
    <tag k="tiger:separated" v="yes"/>
    <tag k="tiger:source" v="tiger_import_dch_v0.6_20070812"/>
    <tag k="tiger:tlid" v="115708699:115717297:115694103"/>
  </way>
  <way id="51765025" version="9" timestamp="2011-05-29T04:09:40Z" uid="207745" user="NE2" changeset="8277348">
    <nd ref="122203274"/>
    <nd ref="122203275"/>
    <nd ref="122203277"/>
    <nd ref="1304326866"/>
    <nd ref="122182927"/>
    <nd ref="718041464"/>
    <nd ref="122203285"/>
    <nd ref="122203299"/>
    <tag k="highway" v="motorway"/>
    <tag k="name" v="West Kellogg Street"/>
    <tag k="oneway" v="yes"/>
    <tag k="ref" v="US 54; US 400"/>
    <tag k="tiger:cfcc" v="A25"/>
    <tag k="tiger:county" v="Sedgwick, KS"/>
    <tag k="tiger:name_base" v="Kellogg"/>
    <tag k="tiger:name_base_1" v="Harry"/>
    <tag k="tiger:name_direction_prefix" v="W"/>
    <tag k="tiger:name_type" v="St"/>
    <tag k="tiger:separated" v="yes"/>
    <tag k="tiger:source" v="tiger_import_dch_v0.6_20070812"/>
    <tag k="tiger:tlid" v="115708699:115717297:115694103"/>
  </way>
  <way id="51765025" version="10" timestamp="2011-06-19T11:30:45Z" uid="207745" user="NE2" changeset="8482682">
    <nd ref="122203274"/>
    <nd ref="122203275"/>
    <nd ref="122203277"/>
    <nd ref="1304326866"/>
    <nd ref="122182927"/>
    <nd ref="718041464"/>
    <nd ref="122203285"/>
    <nd ref="122203299"/>
    <tag k="highway" v="motorway"/>
    <tag k="lanes" v="3"/>
    <tag k="name" v="West Kellogg Street"/>
    <tag k="oneway" v="yes"/>
    <tag k="ref" v="US 54; US 400"/>
    <tag k="tiger:cfcc" v="A25"/>
    <tag k="tiger:county" v="Sedgwick, KS"/>
    <tag k="tiger:name_base" v="Kellogg"/>
    <tag k="tiger:name_base_1" v="Harry"/>
    <tag k="tiger:name_direction_prefix" v="W"/>
    <tag k="tiger:name_type" v="St"/>
    <tag k="tiger:separated" v="yes"/>
    <tag k="tiger:source" v="tiger_import_dch_v0.6_20070812"/>
    <tag k="tiger:tlid" v="115708699:115717297:115694103"/>
  </way>
  <way id="51765025" version="11" timestamp="2011-07-07T02:13:36Z" uid="473471" user="NE3" changeset="8653554">
    <nd ref="122203274"/>
    <nd ref="122203275"/>
    <nd ref="122203277"/>
    <nd ref="1304326866"/>
    <nd ref="122182927"/>
    <nd ref="718041464"/>
    <nd ref="122203285"/>
    <nd ref="122203299"/>
    <tag k="NHS" v="yes"/>
    <tag k="highway" v="motorway"/>
    <tag k="lanes" v="3"/>
    <tag k="name" v="West Kellogg Street"/>
    <tag k="oneway" v="yes"/>
    <tag k="ref" v="US 54; US 400"/>
    <tag k="tiger:cfcc" v="A25"/>
    <tag k="tiger:county" v="Sedgwick, KS"/>
    <tag k="tiger:name_base" v="Kellogg"/>
    <tag k="tiger:name_base_1" v="Harry"/>
    <tag k="tiger:name_direction_prefix" v="W"/>
    <tag k="tiger:name_type" v="St"/>
    <tag k="tiger:separated" v="yes"/>
    <tag k="tiger:source" v="tiger_import_dch_v0.6_20070812"/>
    <tag k="tiger:tlid" v="115708699:115717297:115694103"/>
  </way>
  <way id="51765025" version="12" timestamp="2011-11-29T19:54:14Z" uid="207745" user="NE2" changeset="9991336">
    <nd ref="122203274"/>
    <nd ref="122203275"/>
    <nd ref="122203277"/>
    <nd ref="1304326866"/>
    <nd ref="122182927"/>
    <nd ref="718041464"/>
    <nd ref="122203285"/>
    <nd ref="122203299"/>
    <tag k="NHS" v="yes"/>
    <tag k="hgv" v="designated"/>
    <tag k="hgv:national_network" v="yes"/>
    <tag k="highway" v="motorway"/>
    <tag k="lanes" v="3"/>
    <tag k="name" v="West Kellogg Street"/>
    <tag k="oneway" v="yes"/>
    <tag k="ref" v="US 54; US 400"/>
    <tag k="tiger:cfcc" v="A25"/>
    <tag k="tiger:county" v="Sedgwick, KS"/>
    <tag k="tiger:name_base" v="Kellogg"/>
    <tag k="tiger:name_base_1" v="Harry"/>
    <tag k="tiger:name_direction_prefix" v="W"/>
    <tag k="tiger:name_type" v="St"/>
    <tag k="tiger:separated" v="yes"/>
    <tag k="tiger:source" v="tiger_import_dch_v0.6_20070812"/>
    <tag k="tiger:tlid" v="115708699:115717297:115694103"/>
  </way>
  <way id="51765025" version="13" timestamp="2011-11-30T05:57:56Z" uid="262151" user="ToeBee" changeset="9995740">
    <nd ref="122203274"/>
    <nd ref="122203275"/>
    <nd ref="122203277"/>
    <nd ref="1304326866"/>
    <nd ref="122182927"/>
    <nd ref="718041464"/>
    <nd ref="122203285"/>
    <nd ref="122203299"/>
    <tag k="NHS" v="yes"/>
    <tag k="hgv" v="designated"/>
    <tag k="hgv:national_network" v="yes"/>
    <tag k="highway" v="motorway"/>
    <tag k="lanes" v="3"/>
    <tag k="maxspeed" v="60 mph"/>
    <tag k="name" v="West Kellogg Street"/>
    <tag k="oneway" v="yes"/>
    <tag k="ref" v="US 54; US 400"/>
    <tag k="tiger:cfcc" v="A25"/>
    <tag k="tiger:county" v="Sedgwick, KS"/>
    <tag k="tiger:name_base" v="Kellogg"/>
    <tag k="tiger:name_base_1" v="Harry"/>
    <tag k="tiger:name_direction_prefix" v="W"/>
    <tag k="tiger:name_type" v="St"/>
    <tag k="tiger:source" v="tiger_import_dch_v0.6_20070812"/>
    <tag k="tiger:tlid" v="115708699:115717297:115694103"/>
  </way>
  <way id="51765030" version="3" timestamp="2010-04-06T14:54:50Z" uid="20587" user="balrog-kun" changeset="4342997">
    <nd ref="122203265"/>
    <nd ref="122203274"/>
    <tag k="bridge" v="yes"/>
    <tag k="highway" v="motorway"/>
    <tag k="layer" v="1"/>
    <tag k="name" v="West Kellogg Street"/>
    <tag k="oneway" v="yes"/>
    <tag k="ref" v="US 54; US 400"/>
    <tag k="tiger:cfcc" v="A25"/>
    <tag k="tiger:county" v="Sedgwick, KS"/>
    <tag k="tiger:name_base" v="Kellogg"/>
    <tag k="tiger:name_base_1" v="Harry"/>
    <tag k="tiger:name_base_2" v="United States Highway 54"/>
    <tag k="tiger:name_base_3" v="United States Highway 400"/>
    <tag k="tiger:name_direction_prefix" v="W"/>
    <tag k="tiger:name_direction_prefix_1" v="W"/>
    <tag k="tiger:name_type" v="St"/>
    <tag k="tiger:name_type_1" v="St"/>
    <tag k="tiger:reviewed" v="aerial"/>
    <tag k="tiger:separated" v="yes"/>
    <tag k="tiger:source" v="tiger_import_dch_v0.6_20070812"/>
    <tag k="tiger:tlid" v="115708699:115717297:115694103"/>
  </way>
  <way id="51765030" version="4" timestamp="2010-05-02T23:05:38Z" uid="262151" user="ToeBee" changeset="4590676">
    <nd ref="122203265"/>
    <nd ref="122203274"/>
    <tag k="bridge" v="yes"/>
    <tag k="highway" v="motorway"/>
    <tag k="layer" v="1"/>
    <tag k="name" v="West Kellogg Street"/>
    <tag k="oneway" v="yes"/>
    <tag k="ref" v="US 54; US 400"/>
    <tag k="tiger:cfcc" v="A25"/>
    <tag k="tiger:county" v="Sedgwick, KS"/>
    <tag k="tiger:name_base" v="Kellogg"/>
    <tag k="tiger:name_base_1" v="Harry"/>
    <tag k="tiger:name_base_2" v="United States Highway 54"/>
    <tag k="tiger:name_base_3" v="United States Highway 400"/>
    <tag k="tiger:name_direction_prefix" v="W"/>
    <tag k="tiger:name_direction_prefix_1" v="W"/>
    <tag k="tiger:name_type" v="St"/>
    <tag k="tiger:name_type_1" v="St"/>
    <tag k="tiger:separated" v="yes"/>
    <tag k="tiger:source" v="tiger_import_dch_v0.6_20070812"/>
    <tag k="tiger:tlid" v="115708699:115717297:115694103"/>
  </way>
  <way id="51765030" version="5" timestamp="2010-07-30T06:17:20Z" uid="262151" user="ToeBee" changeset="5351714">
    <nd ref="122203265"/>
    <nd ref="122203274"/>
    <tag k="bridge" v="yes"/>
    <tag k="highway" v="motorway"/>
    <tag k="layer" v="1"/>
    <tag k="name" v="West Kellogg Street"/>
    <tag k="oneway" v="yes"/>
    <tag k="ref" v="US 54; US 400"/>
    <tag k="tiger:cfcc" v="A25"/>
    <tag k="tiger:county" v="Sedgwick, KS"/>
    <tag k="tiger:name_base" v="Kellogg"/>
    <tag k="tiger:name_base_1" v="Harry"/>
    <tag k="tiger:name_direction_prefix" v="W"/>
    <tag k="tiger:name_type" v="St"/>
    <tag k="tiger:separated" v="yes"/>
    <tag k="tiger:source" v="tiger_import_dch_v0.6_20070812"/>
    <tag k="tiger:tlid" v="115708699:115717297:115694103"/>
  </way>
  <way id="51765030" version="6" timestamp="2010-12-12T01:21:02Z" uid="207745" user="NE2" changeset="6629847">
    <nd ref="122203265"/>
    <nd ref="122203274"/>
    <tag k="NHS_High_Priority_Corridor" v="3"/>
    <tag k="bridge" v="yes"/>
    <tag k="highway" v="motorway"/>
    <tag k="layer" v="1"/>
    <tag k="name" v="West Kellogg Street"/>
    <tag k="oneway" v="yes"/>
    <tag k="ref" v="US 54; US 400"/>
    <tag k="tiger:cfcc" v="A25"/>
    <tag k="tiger:county" v="Sedgwick, KS"/>
    <tag k="tiger:name_base" v="Kellogg"/>
    <tag k="tiger:name_base_1" v="Harry"/>
    <tag k="tiger:name_direction_prefix" v="W"/>
    <tag k="tiger:name_type" v="St"/>
    <tag k="tiger:separated" v="yes"/>
    <tag k="tiger:source" v="tiger_import_dch_v0.6_20070812"/>
    <tag k="tiger:tlid" v="115708699:115717297:115694103"/>
  </way>
  <way id="51765030" version="7" timestamp="2010-12-13T04:10:33Z" uid="207745" user="NE2" changeset="6644142">
    <nd ref="122203265"/>
    <nd ref="122203274"/>
    <tag k="bridge" v="yes"/>
    <tag k="highway" v="motorway"/>
    <tag k="layer" v="1"/>
    <tag k="name" v="West Kellogg Street"/>
    <tag k="oneway" v="yes"/>
    <tag k="ref" v="US 54; US 400"/>
    <tag k="tiger:cfcc" v="A25"/>
    <tag k="tiger:county" v="Sedgwick, KS"/>
    <tag k="tiger:name_base" v="Kellogg"/>
    <tag k="tiger:name_base_1" v="Harry"/>
    <tag k="tiger:name_direction_prefix" v="W"/>
    <tag k="tiger:name_type" v="St"/>
    <tag k="tiger:separated" v="yes"/>
    <tag k="tiger:source" v="tiger_import_dch_v0.6_20070812"/>
    <tag k="tiger:tlid" v="115708699:115717297:115694103"/>
  </way>
  <way id="51765030" version="8" timestamp="2011-06-19T11:32:24Z" uid="207745" user="NE2" changeset="8482682">
    <nd ref="122203265"/>
    <nd ref="122203274"/>
    <tag k="bridge" v="yes"/>
    <tag k="highway" v="motorway"/>
    <tag k="lanes" v="3"/>
    <tag k="layer" v="1"/>
    <tag k="name" v="West Kellogg Street"/>
    <tag k="oneway" v="yes"/>
    <tag k="ref" v="US 54; US 400"/>
    <tag k="tiger:cfcc" v="A25"/>
    <tag k="tiger:county" v="Sedgwick, KS"/>
    <tag k="tiger:name_base" v="Kellogg"/>
    <tag k="tiger:name_base_1" v="Harry"/>
    <tag k="tiger:name_direction_prefix" v="W"/>
    <tag k="tiger:name_type" v="St"/>
    <tag k="tiger:separated" v="yes"/>
    <tag k="tiger:source" v="tiger_import_dch_v0.6_20070812"/>
    <tag k="tiger:tlid" v="115708699:115717297:115694103"/>
  </way>
  <way id="51765030" version="9" timestamp="2011-07-07T02:13:16Z" uid="473471" user="NE3" changeset="8653554">
    <nd ref="122203265"/>
    <nd ref="122203274"/>
    <tag k="NHS" v="yes"/>
    <tag k="bridge" v="yes"/>
    <tag k="highway" v="motorway"/>
    <tag k="lanes" v="3"/>
    <tag k="layer" v="1"/>
    <tag k="name" v="West Kellogg Street"/>
    <tag k="oneway" v="yes"/>
    <tag k="ref" v="US 54; US 400"/>
    <tag k="tiger:cfcc" v="A25"/>
    <tag k="tiger:county" v="Sedgwick, KS"/>
    <tag k="tiger:name_base" v="Kellogg"/>
    <tag k="tiger:name_base_1" v="Harry"/>
    <tag k="tiger:name_direction_prefix" v="W"/>
    <tag k="tiger:name_type" v="St"/>
    <tag k="tiger:separated" v="yes"/>
    <tag k="tiger:source" v="tiger_import_dch_v0.6_20070812"/>
    <tag k="tiger:tlid" v="115708699:115717297:115694103"/>
  </way>
  <way id="51765030" version="10" timestamp="2011-11-29T19:53:35Z" uid="207745" user="NE2" changeset="9991336">
    <nd ref="122203265"/>
    <nd ref="122203274"/>
    <tag k="NHS" v="yes"/>
    <tag k="bridge" v="yes"/>
    <tag k="hgv" v="designated"/>
    <tag k="hgv:national_network" v="yes"/>
    <tag k="highway" v="motorway"/>
    <tag k="lanes" v="3"/>
    <tag k="layer" v="1"/>
    <tag k="name" v="West Kellogg Street"/>
    <tag k="oneway" v="yes"/>
    <tag k="ref" v="US 54; US 400"/>
    <tag k="tiger:cfcc" v="A25"/>
    <tag k="tiger:county" v="Sedgwick, KS"/>
    <tag k="tiger:name_base" v="Kellogg"/>
    <tag k="tiger:name_base_1" v="Harry"/>
    <tag k="tiger:name_direction_prefix" v="W"/>
    <tag k="tiger:name_type" v="St"/>
    <tag k="tiger:separated" v="yes"/>
    <tag k="tiger:source" v="tiger_import_dch_v0.6_20070812"/>
    <tag k="tiger:tlid" v="115708699:115717297:115694103"/>
  </way>
  <way id="51765030" version="11" timestamp="2011-11-30T05:57:33Z" uid="262151" user="ToeBee" changeset="9995740">
    <nd ref="122203265"/>
    <nd ref="122203274"/>
    <tag k="NHS" v="yes"/>
    <tag k="bridge" v="yes"/>
    <tag k="hgv" v="designated"/>
    <tag k="hgv:national_network" v="yes"/>
    <tag k="highway" v="motorway"/>
    <tag k="lanes" v="3"/>
    <tag k="layer" v="1"/>
    <tag k="maxspeed" v="60 mph"/>
    <tag k="name" v="West Kellogg Street"/>
    <tag k="oneway" v="yes"/>
    <tag k="ref" v="US 54; US 400"/>
    <tag k="tiger:cfcc" v="A25"/>
    <tag k="tiger:county" v="Sedgwick, KS"/>
    <tag k="tiger:name_base" v="Kellogg"/>
    <tag k="tiger:name_base_1" v="Harry"/>
    <tag k="tiger:name_direction_prefix" v="W"/>
    <tag k="tiger:name_type" v="St"/>
    <tag k="tiger:source" v="tiger_import_dch_v0.6_20070812"/>
    <tag k="tiger:tlid" v="115708699:115717297:115694103"/>
  </way>
  <way id="51765089" version="4" timestamp="2010-04-06T14:54:51Z" uid="20587" user="balrog-kun" changeset="4342997">
    <nd ref="122203804"/>
    <nd ref="122203796"/>
    <tag k="bridge" v="yes"/>
    <tag k="highway" v="motorway"/>
    <tag k="layer" v="1"/>
    <tag k="name" v="West Kellogg Street"/>
    <tag k="oneway" v="yes"/>
    <tag k="ref" v="US 54; US 400"/>
    <tag k="tiger:cfcc" v="A25"/>
    <tag k="tiger:county" v="Sedgwick, KS"/>
    <tag k="tiger:name_base" v="Kellogg"/>
    <tag k="tiger:name_base_1" v="United States Highway 54"/>
    <tag k="tiger:name_base_2" v="United States Highway 400"/>
    <tag k="tiger:name_direction_prefix" v="W"/>
    <tag k="tiger:name_type" v="St"/>
    <tag k="tiger:reviewed" v="aerial"/>
    <tag k="tiger:separated" v="yes"/>
    <tag k="tiger:source" v="tiger_import_dch_v0.6_20070812"/>
    <tag k="tiger:tlid" v="115713079:115679183:115706497"/>
    <tag k="tiger:zip_left" v="67209"/>
  </way>
  <way id="51765089" version="5" timestamp="2010-05-02T23:21:57Z" uid="262151" user="ToeBee" changeset="4590676">
    <nd ref="122203804"/>
    <nd ref="122203796"/>
    <tag k="bridge" v="yes"/>
    <tag k="highway" v="motorway"/>
    <tag k="layer" v="1"/>
    <tag k="name" v="West Kellogg Street"/>
    <tag k="oneway" v="yes"/>
    <tag k="ref" v="US 54; US 400"/>
    <tag k="tiger:cfcc" v="A25"/>
    <tag k="tiger:county" v="Sedgwick, KS"/>
    <tag k="tiger:name_base" v="Kellogg"/>
    <tag k="tiger:name_base_1" v="United States Highway 54"/>
    <tag k="tiger:name_base_2" v="United States Highway 400"/>
    <tag k="tiger:name_direction_prefix" v="W"/>
    <tag k="tiger:name_type" v="St"/>
    <tag k="tiger:separated" v="yes"/>
    <tag k="tiger:source" v="tiger_import_dch_v0.6_20070812"/>
    <tag k="tiger:tlid" v="115713079:115679183:115706497"/>
    <tag k="tiger:zip_left" v="67209"/>
  </way>
  <way id="51765089" version="6" timestamp="2010-07-30T06:17:20Z" uid="262151" user="ToeBee" changeset="5351714">
    <nd ref="122203804"/>
    <nd ref="122203796"/>
    <tag k="bridge" v="yes"/>
    <tag k="highway" v="motorway"/>
    <tag k="layer" v="1"/>
    <tag k="name" v="West Kellogg Street"/>
    <tag k="oneway" v="yes"/>
    <tag k="ref" v="US 54; US 400"/>
    <tag k="tiger:cfcc" v="A25"/>
    <tag k="tiger:county" v="Sedgwick, KS"/>
    <tag k="tiger:name_base" v="Kellogg"/>
    <tag k="tiger:name_direction_prefix" v="W"/>
    <tag k="tiger:name_type" v="St"/>
    <tag k="tiger:separated" v="yes"/>
    <tag k="tiger:source" v="tiger_import_dch_v0.6_20070812"/>
    <tag k="tiger:tlid" v="115713079:115679183:115706497"/>
    <tag k="tiger:zip_left" v="67209"/>
  </way>
  <way id="51765089" version="7" timestamp="2010-12-12T01:19:55Z" uid="207745" user="NE2" changeset="6629847">
    <nd ref="122203804"/>
    <nd ref="122203796"/>
    <tag k="NHS_High_Priority_Corridor" v="3"/>
    <tag k="bridge" v="yes"/>
    <tag k="highway" v="motorway"/>
    <tag k="layer" v="1"/>
    <tag k="name" v="West Kellogg Street"/>
    <tag k="oneway" v="yes"/>
    <tag k="ref" v="US 54; US 400"/>
    <tag k="tiger:cfcc" v="A25"/>
    <tag k="tiger:county" v="Sedgwick, KS"/>
    <tag k="tiger:name_base" v="Kellogg"/>
    <tag k="tiger:name_direction_prefix" v="W"/>
    <tag k="tiger:name_type" v="St"/>
    <tag k="tiger:separated" v="yes"/>
    <tag k="tiger:source" v="tiger_import_dch_v0.6_20070812"/>
    <tag k="tiger:tlid" v="115713079:115679183:115706497"/>
    <tag k="tiger:zip_left" v="67209"/>
  </way>
  <way id="51765089" version="8" timestamp="2010-12-13T03:37:37Z" uid="207745" user="NE2" changeset="6644142">
    <nd ref="122203804"/>
    <nd ref="122203796"/>
    <tag k="bridge" v="yes"/>
    <tag k="highway" v="motorway"/>
    <tag k="layer" v="1"/>
    <tag k="name" v="West Kellogg Street"/>
    <tag k="oneway" v="yes"/>
    <tag k="ref" v="US 54; US 400"/>
    <tag k="tiger:cfcc" v="A25"/>
    <tag k="tiger:county" v="Sedgwick, KS"/>
    <tag k="tiger:name_base" v="Kellogg"/>
    <tag k="tiger:name_direction_prefix" v="W"/>
    <tag k="tiger:name_type" v="St"/>
    <tag k="tiger:separated" v="yes"/>
    <tag k="tiger:source" v="tiger_import_dch_v0.6_20070812"/>
    <tag k="tiger:tlid" v="115713079:115679183:115706497"/>
    <tag k="tiger:zip_left" v="67209"/>
  </way>
  <way id="51765089" version="9" timestamp="2011-06-19T11:15:49Z" uid="207745" user="NE2" changeset="8482682">
    <nd ref="122203804"/>
    <nd ref="122203796"/>
    <tag k="bridge" v="yes"/>
    <tag k="highway" v="motorway"/>
    <tag k="lanes" v="3"/>
    <tag k="layer" v="1"/>
    <tag k="name" v="West Kellogg Street"/>
    <tag k="oneway" v="yes"/>
    <tag k="ref" v="US 54; US 400"/>
    <tag k="tiger:cfcc" v="A25"/>
    <tag k="tiger:county" v="Sedgwick, KS"/>
    <tag k="tiger:name_base" v="Kellogg"/>
    <tag k="tiger:name_direction_prefix" v="W"/>
    <tag k="tiger:name_type" v="St"/>
    <tag k="tiger:separated" v="yes"/>
    <tag k="tiger:source" v="tiger_import_dch_v0.6_20070812"/>
    <tag k="tiger:tlid" v="115713079:115679183:115706497"/>
    <tag k="tiger:zip_left" v="67209"/>
  </way>
  <way id="51765089" version="10" timestamp="2011-07-07T02:13:20Z" uid="473471" user="NE3" changeset="8653554">
    <nd ref="122203804"/>
    <nd ref="122203796"/>
    <tag k="NHS" v="yes"/>
    <tag k="bridge" v="yes"/>
    <tag k="highway" v="motorway"/>
    <tag k="lanes" v="3"/>
    <tag k="layer" v="1"/>
    <tag k="name" v="West Kellogg Street"/>
    <tag k="oneway" v="yes"/>
    <tag k="ref" v="US 54; US 400"/>
    <tag k="tiger:cfcc" v="A25"/>
    <tag k="tiger:county" v="Sedgwick, KS"/>
    <tag k="tiger:name_base" v="Kellogg"/>
    <tag k="tiger:name_direction_prefix" v="W"/>
    <tag k="tiger:name_type" v="St"/>
    <tag k="tiger:separated" v="yes"/>
    <tag k="tiger:source" v="tiger_import_dch_v0.6_20070812"/>
    <tag k="tiger:tlid" v="115713079:115679183:115706497"/>
    <tag k="tiger:zip_left" v="67209"/>
  </way>
  <way id="51765089" version="11" timestamp="2011-11-29T19:53:31Z" uid="207745" user="NE2" changeset="9991336">
    <nd ref="122203804"/>
    <nd ref="122203796"/>
    <tag k="NHS" v="yes"/>
    <tag k="bridge" v="yes"/>
    <tag k="hgv" v="designated"/>
    <tag k="hgv:national_network" v="yes"/>
    <tag k="highway" v="motorway"/>
    <tag k="lanes" v="3"/>
    <tag k="layer" v="1"/>
    <tag k="name" v="West Kellogg Street"/>
    <tag k="oneway" v="yes"/>
    <tag k="ref" v="US 54; US 400"/>
    <tag k="tiger:cfcc" v="A25"/>
    <tag k="tiger:county" v="Sedgwick, KS"/>
    <tag k="tiger:name_base" v="Kellogg"/>
    <tag k="tiger:name_direction_prefix" v="W"/>
    <tag k="tiger:name_type" v="St"/>
    <tag k="tiger:separated" v="yes"/>
    <tag k="tiger:source" v="tiger_import_dch_v0.6_20070812"/>
    <tag k="tiger:tlid" v="115713079:115679183:115706497"/>
    <tag k="tiger:zip_left" v="67209"/>
  </way>
  <way id="51765089" version="12" timestamp="2011-11-30T05:57:11Z" uid="262151" user="ToeBee" changeset="9995740">
    <nd ref="122203804"/>
    <nd ref="122203796"/>
    <tag k="NHS" v="yes"/>
    <tag k="bridge" v="yes"/>
    <tag k="hgv" v="designated"/>
    <tag k="hgv:national_network" v="yes"/>
    <tag k="highway" v="motorway"/>
    <tag k="lanes" v="3"/>
    <tag k="layer" v="1"/>
    <tag k="maxspeed" v="60 mph"/>
    <tag k="name" v="West Kellogg Street"/>
    <tag k="oneway" v="yes"/>
    <tag k="ref" v="US 54; US 400"/>
    <tag k="tiger:cfcc" v="A25"/>
    <tag k="tiger:county" v="Sedgwick, KS"/>
    <tag k="tiger:name_base" v="Kellogg"/>
    <tag k="tiger:name_direction_prefix" v="W"/>
    <tag k="tiger:name_type" v="St"/>
    <tag k="tiger:source" v="tiger_import_dch_v0.6_20070812"/>
    <tag k="tiger:tlid" v="115713079:115679183:115706497"/>
    <tag k="tiger:zip_left" v="67209"/>
  </way>
  <way id="51765103" version="2" timestamp="2010-04-06T14:54:51Z" uid="20587" user="balrog-kun" changeset="4342997">
    <nd ref="122203796"/>
    <nd ref="122203794"/>
    <nd ref="122134050"/>
    <nd ref="122134024"/>
    <nd ref="122203791"/>
    <nd ref="122203787"/>
    <nd ref="122203782"/>
    <nd ref="122203776"/>
    <nd ref="122203770"/>
    <nd ref="122203768"/>
    <nd ref="122203764"/>
    <nd ref="122203762"/>
    <nd ref="122203759"/>
    <nd ref="122203756"/>
    <nd ref="122203754"/>
    <nd ref="122203747"/>
    <nd ref="122203744"/>
    <nd ref="122203743"/>
    <nd ref="122203742"/>
    <nd ref="122203737"/>
    <nd ref="122203730"/>
    <nd ref="122203721"/>
    <nd ref="122203705"/>
    <nd ref="122203701"/>
    <nd ref="122203696"/>
    <nd ref="122203693"/>
    <nd ref="122203690"/>
    <nd ref="122203687"/>
    <nd ref="122203683"/>
    <nd ref="122203680"/>
    <tag k="highway" v="motorway"/>
    <tag k="name" v="West Kellogg Street"/>
    <tag k="oneway" v="yes"/>
    <tag k="ref" v="US 54; US 400"/>
    <tag k="tiger:cfcc" v="A25"/>
    <tag k="tiger:county" v="Sedgwick, KS"/>
    <tag k="tiger:name_base" v="Kellogg"/>
    <tag k="tiger:name_base_1" v="United States Highway 54"/>
    <tag k="tiger:name_base_2" v="United States Highway 400"/>
    <tag k="tiger:name_direction_prefix" v="W"/>
    <tag k="tiger:name_type" v="St"/>
    <tag k="tiger:reviewed" v="no"/>
    <tag k="tiger:separated" v="yes"/>
    <tag k="tiger:source" v="tiger_import_dch_v0.6_20070812"/>
    <tag k="tiger:tlid" v="115713079:115679183:115706497"/>
    <tag k="tiger:zip_left" v="67209"/>
  </way>
  <way id="51765103" version="3" timestamp="2010-05-02T23:21:59Z" uid="262151" user="ToeBee" changeset="4590676">
    <nd ref="122203796"/>
    <nd ref="122203794"/>
    <nd ref="122134050"/>
    <nd ref="122134024"/>
    <nd ref="122203791"/>
    <nd ref="122203787"/>
    <nd ref="122203782"/>
    <nd ref="122203776"/>
    <nd ref="122203770"/>
    <nd ref="122203768"/>
    <nd ref="122203764"/>
    <nd ref="122203762"/>
    <nd ref="122203759"/>
    <nd ref="122203756"/>
    <nd ref="122203754"/>
    <nd ref="122203747"/>
    <nd ref="122203744"/>
    <nd ref="122203743"/>
    <nd ref="122203742"/>
    <nd ref="122203737"/>
    <nd ref="122203730"/>
    <nd ref="122203721"/>
    <nd ref="122203705"/>
    <nd ref="122203701"/>
    <nd ref="122203696"/>
    <nd ref="122203693"/>
    <nd ref="122203690"/>
    <nd ref="122203687"/>
    <nd ref="122203683"/>
    <nd ref="122203680"/>
    <tag k="highway" v="motorway"/>
    <tag k="name" v="West Kellogg Street"/>
    <tag k="oneway" v="yes"/>
    <tag k="ref" v="US 54; US 400"/>
    <tag k="tiger:cfcc" v="A25"/>
    <tag k="tiger:county" v="Sedgwick, KS"/>
    <tag k="tiger:name_base" v="Kellogg"/>
    <tag k="tiger:name_base_1" v="United States Highway 54"/>
    <tag k="tiger:name_base_2" v="United States Highway 400"/>
    <tag k="tiger:name_direction_prefix" v="W"/>
    <tag k="tiger:name_type" v="St"/>
    <tag k="tiger:separated" v="yes"/>
    <tag k="tiger:source" v="tiger_import_dch_v0.6_20070812"/>
    <tag k="tiger:tlid" v="115713079:115679183:115706497"/>
    <tag k="tiger:zip_left" v="67209"/>
  </way>
  <way id="51765103" version="4" timestamp="2010-07-30T06:17:34Z" uid="262151" user="ToeBee" changeset="5351714">
    <nd ref="122203796"/>
    <nd ref="122203794"/>
    <nd ref="122134050"/>
    <nd ref="122134024"/>
    <nd ref="122203791"/>
    <nd ref="122203787"/>
    <nd ref="122203782"/>
    <nd ref="122203776"/>
    <nd ref="122203770"/>
    <nd ref="122203768"/>
    <nd ref="122203764"/>
    <nd ref="122203762"/>
    <nd ref="122203759"/>
    <nd ref="122203756"/>
    <nd ref="122203754"/>
    <nd ref="122203747"/>
    <nd ref="122203744"/>
    <nd ref="122203743"/>
    <nd ref="122203742"/>
    <nd ref="122203737"/>
    <nd ref="122203730"/>
    <nd ref="122203721"/>
    <nd ref="122203705"/>
    <nd ref="122203701"/>
    <nd ref="122203696"/>
    <nd ref="122203693"/>
    <nd ref="122203690"/>
    <nd ref="122203687"/>
    <nd ref="122203683"/>
    <nd ref="122203680"/>
    <tag k="highway" v="motorway"/>
    <tag k="name" v="West Kellogg Street"/>
    <tag k="oneway" v="yes"/>
    <tag k="ref" v="US 54; US 400"/>
    <tag k="tiger:cfcc" v="A25"/>
    <tag k="tiger:county" v="Sedgwick, KS"/>
    <tag k="tiger:name_base" v="Kellogg"/>
    <tag k="tiger:name_direction_prefix" v="W"/>
    <tag k="tiger:name_type" v="St"/>
    <tag k="tiger:separated" v="yes"/>
    <tag k="tiger:source" v="tiger_import_dch_v0.6_20070812"/>
    <tag k="tiger:tlid" v="115713079:115679183:115706497"/>
    <tag k="tiger:zip_left" v="67209"/>
  </way>
  <way id="51765103" version="5" timestamp="2010-12-12T01:22:53Z" uid="207745" user="NE2" changeset="6629847">
    <nd ref="122203796"/>
    <nd ref="122203794"/>
    <nd ref="122134050"/>
    <nd ref="122134024"/>
    <nd ref="122203791"/>
    <nd ref="122203787"/>
    <nd ref="122203782"/>
    <nd ref="122203776"/>
    <nd ref="122203770"/>
    <nd ref="122203768"/>
    <nd ref="122203764"/>
    <nd ref="122203762"/>
    <nd ref="122203759"/>
    <nd ref="122203756"/>
    <nd ref="122203754"/>
    <nd ref="122203747"/>
    <nd ref="122203744"/>
    <nd ref="122203743"/>
    <nd ref="122203742"/>
    <nd ref="122203737"/>
    <nd ref="122203730"/>
    <nd ref="122203721"/>
    <nd ref="122203705"/>
    <nd ref="122203701"/>
    <nd ref="122203696"/>
    <nd ref="122203693"/>
    <nd ref="122203690"/>
    <nd ref="122203687"/>
    <nd ref="122203683"/>
    <nd ref="122203680"/>
    <tag k="NHS_High_Priority_Corridor" v="3"/>
    <tag k="highway" v="motorway"/>
    <tag k="name" v="West Kellogg Street"/>
    <tag k="oneway" v="yes"/>
    <tag k="ref" v="US 54; US 400"/>
    <tag k="tiger:cfcc" v="A25"/>
    <tag k="tiger:county" v="Sedgwick, KS"/>
    <tag k="tiger:name_base" v="Kellogg"/>
    <tag k="tiger:name_direction_prefix" v="W"/>
    <tag k="tiger:name_type" v="St"/>
    <tag k="tiger:separated" v="yes"/>
    <tag k="tiger:source" v="tiger_import_dch_v0.6_20070812"/>
    <tag k="tiger:tlid" v="115713079:115679183:115706497"/>
    <tag k="tiger:zip_left" v="67209"/>
  </way>
  <way id="51765103" version="6" timestamp="2010-12-13T03:39:36Z" uid="207745" user="NE2" changeset="6644142">
    <nd ref="122203796"/>
    <nd ref="122203794"/>
    <nd ref="122134050"/>
    <nd ref="122134024"/>
    <nd ref="122203791"/>
    <nd ref="122203787"/>
    <nd ref="122203782"/>
    <nd ref="122203776"/>
    <nd ref="122203770"/>
    <nd ref="122203768"/>
    <nd ref="122203764"/>
    <nd ref="122203762"/>
    <nd ref="122203759"/>
    <nd ref="122203756"/>
    <nd ref="122203754"/>
    <nd ref="122203747"/>
    <nd ref="122203744"/>
    <nd ref="122203743"/>
    <nd ref="122203742"/>
    <nd ref="122203737"/>
    <nd ref="122203730"/>
    <nd ref="122203721"/>
    <nd ref="122203705"/>
    <nd ref="122203701"/>
    <nd ref="122203696"/>
    <nd ref="122203693"/>
    <nd ref="122203690"/>
    <nd ref="122203687"/>
    <nd ref="122203683"/>
    <nd ref="122203680"/>
    <tag k="highway" v="motorway"/>
    <tag k="name" v="West Kellogg Street"/>
    <tag k="oneway" v="yes"/>
    <tag k="ref" v="US 54; US 400"/>
    <tag k="tiger:cfcc" v="A25"/>
    <tag k="tiger:county" v="Sedgwick, KS"/>
    <tag k="tiger:name_base" v="Kellogg"/>
    <tag k="tiger:name_direction_prefix" v="W"/>
    <tag k="tiger:name_type" v="St"/>
    <tag k="tiger:separated" v="yes"/>
    <tag k="tiger:source" v="tiger_import_dch_v0.6_20070812"/>
    <tag k="tiger:tlid" v="115713079:115679183:115706497"/>
    <tag k="tiger:zip_left" v="67209"/>
  </way>
  <way id="51765103" version="7" timestamp="2011-05-29T04:08:04Z" uid="207745" user="NE2" changeset="8277348">
    <nd ref="122203796"/>
    <nd ref="122203794"/>
    <nd ref="122134050"/>
    <nd ref="122134024"/>
    <nd ref="122203791"/>
    <nd ref="122203787"/>
    <nd ref="122203782"/>
    <nd ref="122203776"/>
    <nd ref="122203770"/>
    <nd ref="122203768"/>
    <nd ref="122203764"/>
    <nd ref="122203759"/>
    <nd ref="122203754"/>
    <nd ref="122203747"/>
    <nd ref="122203744"/>
    <nd ref="122203743"/>
    <nd ref="122203742"/>
    <nd ref="122203737"/>
    <nd ref="122203730"/>
    <nd ref="122203721"/>
    <nd ref="122203705"/>
    <nd ref="122203701"/>
    <nd ref="122203696"/>
    <nd ref="122203693"/>
    <nd ref="122203690"/>
    <nd ref="122203687"/>
    <nd ref="122203683"/>
    <nd ref="122203680"/>
    <tag k="highway" v="motorway"/>
    <tag k="name" v="West Kellogg Street"/>
    <tag k="oneway" v="yes"/>
    <tag k="ref" v="US 54; US 400"/>
    <tag k="tiger:cfcc" v="A25"/>
    <tag k="tiger:county" v="Sedgwick, KS"/>
    <tag k="tiger:name_base" v="Kellogg"/>
    <tag k="tiger:name_direction_prefix" v="W"/>
    <tag k="tiger:name_type" v="St"/>
    <tag k="tiger:separated" v="yes"/>
    <tag k="tiger:source" v="tiger_import_dch_v0.6_20070812"/>
    <tag k="tiger:tlid" v="115713079:115679183:115706497"/>
    <tag k="tiger:zip_left" v="67209"/>
  </way>
  <way id="51765103" version="8" timestamp="2011-06-19T11:31:37Z" uid="207745" user="NE2" changeset="8482682">
    <nd ref="122203796"/>
    <nd ref="122203794"/>
    <nd ref="122134050"/>
    <nd ref="122134024"/>
    <nd ref="122203791"/>
    <nd ref="122203787"/>
    <nd ref="122203782"/>
    <nd ref="122203776"/>
    <nd ref="122203770"/>
    <nd ref="122203768"/>
    <nd ref="122203764"/>
    <nd ref="122203759"/>
    <nd ref="122203754"/>
    <nd ref="122203747"/>
    <nd ref="122203744"/>
    <nd ref="122203743"/>
    <nd ref="122203742"/>
    <nd ref="122203737"/>
    <nd ref="122203730"/>
    <nd ref="122203721"/>
    <nd ref="122203705"/>
    <nd ref="122203701"/>
    <nd ref="122203696"/>
    <nd ref="122203693"/>
    <nd ref="122203690"/>
    <nd ref="122203687"/>
    <nd ref="122203683"/>
    <nd ref="122203680"/>
    <tag k="highway" v="motorway"/>
    <tag k="lanes" v="3"/>
    <tag k="name" v="West Kellogg Street"/>
    <tag k="oneway" v="yes"/>
    <tag k="ref" v="US 54; US 400"/>
    <tag k="tiger:cfcc" v="A25"/>
    <tag k="tiger:county" v="Sedgwick, KS"/>
    <tag k="tiger:name_base" v="Kellogg"/>
    <tag k="tiger:name_direction_prefix" v="W"/>
    <tag k="tiger:name_type" v="St"/>
    <tag k="tiger:separated" v="yes"/>
    <tag k="tiger:source" v="tiger_import_dch_v0.6_20070812"/>
    <tag k="tiger:tlid" v="115713079:115679183:115706497"/>
    <tag k="tiger:zip_left" v="67209"/>
  </way>
  <way id="51765103" version="9" timestamp="2011-07-07T02:13:28Z" uid="473471" user="NE3" changeset="8653554">
    <nd ref="122203796"/>
    <nd ref="122203794"/>
    <nd ref="122134050"/>
    <nd ref="122134024"/>
    <nd ref="122203791"/>
    <nd ref="122203787"/>
    <nd ref="122203782"/>
    <nd ref="122203776"/>
    <nd ref="122203770"/>
    <nd ref="122203768"/>
    <nd ref="122203764"/>
    <nd ref="122203759"/>
    <nd ref="122203754"/>
    <nd ref="122203747"/>
    <nd ref="122203744"/>
    <nd ref="122203743"/>
    <nd ref="122203742"/>
    <nd ref="122203737"/>
    <nd ref="122203730"/>
    <nd ref="122203721"/>
    <nd ref="122203705"/>
    <nd ref="122203701"/>
    <nd ref="122203696"/>
    <nd ref="122203693"/>
    <nd ref="122203690"/>
    <nd ref="122203687"/>
    <nd ref="122203683"/>
    <nd ref="122203680"/>
    <tag k="NHS" v="yes"/>
    <tag k="highway" v="motorway"/>
    <tag k="lanes" v="3"/>
    <tag k="name" v="West Kellogg Street"/>
    <tag k="oneway" v="yes"/>
    <tag k="ref" v="US 54; US 400"/>
    <tag k="tiger:cfcc" v="A25"/>
    <tag k="tiger:county" v="Sedgwick, KS"/>
    <tag k="tiger:name_base" v="Kellogg"/>
    <tag k="tiger:name_direction_prefix" v="W"/>
    <tag k="tiger:name_type" v="St"/>
    <tag k="tiger:separated" v="yes"/>
    <tag k="tiger:source" v="tiger_import_dch_v0.6_20070812"/>
    <tag k="tiger:tlid" v="115713079:115679183:115706497"/>
    <tag k="tiger:zip_left" v="67209"/>
  </way>
  <way id="51765103" version="10" timestamp="2011-11-29T19:53:55Z" uid="207745" user="NE2" changeset="9991336">
    <nd ref="122203796"/>
    <nd ref="122203794"/>
    <nd ref="122134050"/>
    <nd ref="122134024"/>
    <nd ref="122203791"/>
    <nd ref="122203787"/>
    <nd ref="122203782"/>
    <nd ref="122203776"/>
    <nd ref="122203770"/>
    <nd ref="122203768"/>
    <nd ref="122203764"/>
    <nd ref="122203759"/>
    <nd ref="122203754"/>
    <nd ref="122203747"/>
    <nd ref="122203744"/>
    <nd ref="122203743"/>
    <nd ref="122203742"/>
    <nd ref="122203737"/>
    <nd ref="122203730"/>
    <nd ref="122203721"/>
    <nd ref="122203705"/>
    <nd ref="122203701"/>
    <nd ref="122203696"/>
    <nd ref="122203693"/>
    <nd ref="122203690"/>
    <nd ref="122203687"/>
    <nd ref="122203683"/>
    <nd ref="122203680"/>
    <tag k="NHS" v="yes"/>
    <tag k="hgv" v="designated"/>
    <tag k="hgv:national_network" v="yes"/>
    <tag k="highway" v="motorway"/>
    <tag k="lanes" v="3"/>
    <tag k="name" v="West Kellogg Street"/>
    <tag k="oneway" v="yes"/>
    <tag k="ref" v="US 54; US 400"/>
    <tag k="tiger:cfcc" v="A25"/>
    <tag k="tiger:county" v="Sedgwick, KS"/>
    <tag k="tiger:name_base" v="Kellogg"/>
    <tag k="tiger:name_direction_prefix" v="W"/>
    <tag k="tiger:name_type" v="St"/>
    <tag k="tiger:separated" v="yes"/>
    <tag k="tiger:source" v="tiger_import_dch_v0.6_20070812"/>
    <tag k="tiger:tlid" v="115713079:115679183:115706497"/>
    <tag k="tiger:zip_left" v="67209"/>
  </way>
  <way id="51765103" version="11" timestamp="2011-11-30T05:57:36Z" uid="262151" user="ToeBee" changeset="9995740">
    <nd ref="122203796"/>
    <nd ref="122203794"/>
    <nd ref="122134050"/>
    <nd ref="122134024"/>
    <nd ref="122203791"/>
    <nd ref="122203787"/>
    <nd ref="122203782"/>
    <nd ref="122203776"/>
    <nd ref="122203770"/>
    <nd ref="122203768"/>
    <nd ref="122203764"/>
    <nd ref="122203759"/>
    <nd ref="122203754"/>
    <nd ref="122203747"/>
    <nd ref="122203744"/>
    <nd ref="122203743"/>
    <nd ref="122203742"/>
    <nd ref="122203737"/>
    <nd ref="122203730"/>
    <nd ref="122203721"/>
    <nd ref="122203705"/>
    <nd ref="122203701"/>
    <nd ref="122203696"/>
    <nd ref="122203693"/>
    <nd ref="122203690"/>
    <nd ref="122203687"/>
    <nd ref="122203683"/>
    <nd ref="122203680"/>
    <tag k="NHS" v="yes"/>
    <tag k="hgv" v="designated"/>
    <tag k="hgv:national_network" v="yes"/>
    <tag k="highway" v="motorway"/>
    <tag k="lanes" v="3"/>
    <tag k="maxspeed" v="60 mph"/>
    <tag k="name" v="West Kellogg Street"/>
    <tag k="oneway" v="yes"/>
    <tag k="ref" v="US 54; US 400"/>
    <tag k="tiger:cfcc" v="A25"/>
    <tag k="tiger:county" v="Sedgwick, KS"/>
    <tag k="tiger:name_base" v="Kellogg"/>
    <tag k="tiger:name_direction_prefix" v="W"/>
    <tag k="tiger:name_type" v="St"/>
    <tag k="tiger:source" v="tiger_import_dch_v0.6_20070812"/>
    <tag k="tiger:tlid" v="115713079:115679183:115706497"/>
    <tag k="tiger:zip_left" v="67209"/>
  </way>
  <way id="51765137" version="2" timestamp="2010-04-06T14:54:51Z" uid="20587" user="balrog-kun" changeset="4342997">
    <nd ref="498200801"/>
    <nd ref="122205110"/>
    <nd ref="122205113"/>
    <nd ref="122205116"/>
    <nd ref="122205118"/>
    <nd ref="122205121"/>
    <nd ref="122205124"/>
    <nd ref="122205127"/>
    <nd ref="122205131"/>
    <nd ref="122205133"/>
    <tag k="highway" v="residential"/>
    <tag k="name" v="Seville Street"/>
    <tag k="tiger:cfcc" v="A41"/>
    <tag k="tiger:county" v="Sedgwick, KS"/>
    <tag k="tiger:name_base" v="Seville"/>
    <tag k="tiger:name_type" v="St"/>
    <tag k="tiger:reviewed" v="no"/>
    <tag k="tiger:separated" v="no"/>
    <tag k="tiger:source" v="tiger_import_dch_v0.6_20070812"/>
    <tag k="tiger:tlid" v="115708744:115706208"/>
  </way>
  <way id="51765146" version="4" timestamp="2010-04-06T14:54:52Z" uid="20587" user="balrog-kun" changeset="4342997">
    <nd ref="122203299"/>
    <nd ref="660610505"/>
    <tag k="bridge" v="yes"/>
    <tag k="highway" v="motorway"/>
    <tag k="layer" v="1"/>
    <tag k="name" v="West Kellogg Street"/>
    <tag k="oneway" v="yes"/>
    <tag k="ref" v="US 54; US 400"/>
    <tag k="tiger:cfcc" v="A25"/>
    <tag k="tiger:county" v="Sedgwick, KS"/>
    <tag k="tiger:name_base" v="Kellogg"/>
    <tag k="tiger:name_base_1" v="Harry"/>
    <tag k="tiger:name_base_2" v="United States Highway 54"/>
    <tag k="tiger:name_base_3" v="United States Highway 400"/>
    <tag k="tiger:name_direction_prefix" v="W"/>
    <tag k="tiger:name_direction_prefix_1" v="W"/>
    <tag k="tiger:name_type" v="St"/>
    <tag k="tiger:name_type_1" v="St"/>
    <tag k="tiger:reviewed" v="aerial"/>
    <tag k="tiger:separated" v="yes"/>
    <tag k="tiger:source" v="tiger_import_dch_v0.6_20070812"/>
    <tag k="tiger:tlid" v="115708699:115717297:115694103"/>
  </way>
  <way id="51765146" version="5" timestamp="2010-05-02T23:05:40Z" uid="262151" user="ToeBee" changeset="4590676">
    <nd ref="122203299"/>
    <nd ref="660610505"/>
    <tag k="bridge" v="yes"/>
    <tag k="highway" v="motorway"/>
    <tag k="layer" v="1"/>
    <tag k="name" v="West Kellogg Street"/>
    <tag k="oneway" v="yes"/>
    <tag k="ref" v="US 54; US 400"/>
    <tag k="tiger:cfcc" v="A25"/>
    <tag k="tiger:county" v="Sedgwick, KS"/>
    <tag k="tiger:name_base" v="Kellogg"/>
    <tag k="tiger:name_base_1" v="Harry"/>
    <tag k="tiger:name_base_2" v="United States Highway 54"/>
    <tag k="tiger:name_base_3" v="United States Highway 400"/>
    <tag k="tiger:name_direction_prefix" v="W"/>
    <tag k="tiger:name_direction_prefix_1" v="W"/>
    <tag k="tiger:name_type" v="St"/>
    <tag k="tiger:name_type_1" v="St"/>
    <tag k="tiger:separated" v="yes"/>
    <tag k="tiger:source" v="tiger_import_dch_v0.6_20070812"/>
    <tag k="tiger:tlid" v="115708699:115717297:115694103"/>
  </way>
  <way id="51765146" version="6" timestamp="2010-07-30T06:17:29Z" uid="262151" user="ToeBee" changeset="5351714">
    <nd ref="122203299"/>
    <nd ref="660610505"/>
    <tag k="bridge" v="yes"/>
    <tag k="highway" v="motorway"/>
    <tag k="layer" v="1"/>
    <tag k="name" v="West Kellogg Street"/>
    <tag k="oneway" v="yes"/>
    <tag k="ref" v="US 54; US 400"/>
    <tag k="tiger:cfcc" v="A25"/>
    <tag k="tiger:county" v="Sedgwick, KS"/>
    <tag k="tiger:name_base" v="Kellogg"/>
    <tag k="tiger:name_base_1" v="Harry"/>
    <tag k="tiger:name_direction_prefix" v="W"/>
    <tag k="tiger:name_type" v="St"/>
    <tag k="tiger:separated" v="yes"/>
    <tag k="tiger:source" v="tiger_import_dch_v0.6_20070812"/>
    <tag k="tiger:tlid" v="115708699:115717297:115694103"/>
  </way>
  <way id="51765146" version="7" timestamp="2010-12-12T01:19:50Z" uid="207745" user="NE2" changeset="6629847">
    <nd ref="122203299"/>
    <nd ref="660610505"/>
    <tag k="NHS_High_Priority_Corridor" v="3"/>
    <tag k="bridge" v="yes"/>
    <tag k="highway" v="motorway"/>
    <tag k="layer" v="1"/>
    <tag k="name" v="West Kellogg Street"/>
    <tag k="oneway" v="yes"/>
    <tag k="ref" v="US 54; US 400"/>
    <tag k="tiger:cfcc" v="A25"/>
    <tag k="tiger:county" v="Sedgwick, KS"/>
    <tag k="tiger:name_base" v="Kellogg"/>
    <tag k="tiger:name_base_1" v="Harry"/>
    <tag k="tiger:name_direction_prefix" v="W"/>
    <tag k="tiger:name_type" v="St"/>
    <tag k="tiger:separated" v="yes"/>
    <tag k="tiger:source" v="tiger_import_dch_v0.6_20070812"/>
    <tag k="tiger:tlid" v="115708699:115717297:115694103"/>
  </way>
  <way id="51765146" version="8" timestamp="2010-12-13T03:16:40Z" uid="207745" user="NE2" changeset="6644142">
    <nd ref="122203299"/>
    <nd ref="660610505"/>
    <tag k="bridge" v="yes"/>
    <tag k="highway" v="motorway"/>
    <tag k="layer" v="1"/>
    <tag k="name" v="West Kellogg Street"/>
    <tag k="oneway" v="yes"/>
    <tag k="ref" v="US 54; US 400"/>
    <tag k="tiger:cfcc" v="A25"/>
    <tag k="tiger:county" v="Sedgwick, KS"/>
    <tag k="tiger:name_base" v="Kellogg"/>
    <tag k="tiger:name_base_1" v="Harry"/>
    <tag k="tiger:name_direction_prefix" v="W"/>
    <tag k="tiger:name_type" v="St"/>
    <tag k="tiger:separated" v="yes"/>
    <tag k="tiger:source" v="tiger_import_dch_v0.6_20070812"/>
    <tag k="tiger:tlid" v="115708699:115717297:115694103"/>
  </way>
  <way id="51765146" version="9" timestamp="2011-06-19T11:36:57Z" uid="207745" user="NE2" changeset="8482682">
    <nd ref="122203299"/>
    <nd ref="1330662850"/>
    <tag k="bridge" v="yes"/>
    <tag k="highway" v="motorway"/>
    <tag k="lanes" v="3"/>
    <tag k="layer" v="1"/>
    <tag k="name" v="West Kellogg Street"/>
    <tag k="oneway" v="yes"/>
    <tag k="ref" v="US 54; US 400"/>
    <tag k="tiger:cfcc" v="A25"/>
    <tag k="tiger:county" v="Sedgwick, KS"/>
    <tag k="tiger:name_base" v="Kellogg"/>
    <tag k="tiger:name_base_1" v="Harry"/>
    <tag k="tiger:name_direction_prefix" v="W"/>
    <tag k="tiger:name_type" v="St"/>
    <tag k="tiger:separated" v="yes"/>
    <tag k="tiger:source" v="tiger_import_dch_v0.6_20070812"/>
    <tag k="tiger:tlid" v="115708699:115717297:115694103"/>
  </way>
  <way id="51765146" version="10" timestamp="2011-07-07T02:13:19Z" uid="473471" user="NE3" changeset="8653554">
    <nd ref="122203299"/>
    <nd ref="1330662850"/>
    <tag k="NHS" v="yes"/>
    <tag k="bridge" v="yes"/>
    <tag k="highway" v="motorway"/>
    <tag k="lanes" v="3"/>
    <tag k="layer" v="1"/>
    <tag k="name" v="West Kellogg Street"/>
    <tag k="oneway" v="yes"/>
    <tag k="ref" v="US 54; US 400"/>
    <tag k="tiger:cfcc" v="A25"/>
    <tag k="tiger:county" v="Sedgwick, KS"/>
    <tag k="tiger:name_base" v="Kellogg"/>
    <tag k="tiger:name_base_1" v="Harry"/>
    <tag k="tiger:name_direction_prefix" v="W"/>
    <tag k="tiger:name_type" v="St"/>
    <tag k="tiger:separated" v="yes"/>
    <tag k="tiger:source" v="tiger_import_dch_v0.6_20070812"/>
    <tag k="tiger:tlid" v="115708699:115717297:115694103"/>
  </way>
  <way id="51765146" version="11" timestamp="2011-11-29T19:53:46Z" uid="207745" user="NE2" changeset="9991336">
    <nd ref="122203299"/>
    <nd ref="1330662850"/>
    <tag k="NHS" v="yes"/>
    <tag k="bridge" v="yes"/>
    <tag k="hgv" v="designated"/>
    <tag k="hgv:national_network" v="yes"/>
    <tag k="highway" v="motorway"/>
    <tag k="lanes" v="3"/>
    <tag k="layer" v="1"/>
    <tag k="name" v="West Kellogg Street"/>
    <tag k="oneway" v="yes"/>
    <tag k="ref" v="US 54; US 400"/>
    <tag k="tiger:cfcc" v="A25"/>
    <tag k="tiger:county" v="Sedgwick, KS"/>
    <tag k="tiger:name_base" v="Kellogg"/>
    <tag k="tiger:name_base_1" v="Harry"/>
    <tag k="tiger:name_direction_prefix" v="W"/>
    <tag k="tiger:name_type" v="St"/>
    <tag k="tiger:separated" v="yes"/>
    <tag k="tiger:source" v="tiger_import_dch_v0.6_20070812"/>
    <tag k="tiger:tlid" v="115708699:115717297:115694103"/>
  </way>
  <way id="51765146" version="12" timestamp="2011-11-30T05:57:24Z" uid="262151" user="ToeBee" changeset="9995740">
    <nd ref="122203299"/>
    <nd ref="1330662850"/>
    <tag k="NHS" v="yes"/>
    <tag k="bridge" v="yes"/>
    <tag k="hgv" v="designated"/>
    <tag k="hgv:national_network" v="yes"/>
    <tag k="highway" v="motorway"/>
    <tag k="lanes" v="3"/>
    <tag k="layer" v="1"/>
    <tag k="maxspeed" v="60 mph"/>
    <tag k="name" v="West Kellogg Street"/>
    <tag k="oneway" v="yes"/>
    <tag k="ref" v="US 54; US 400"/>
    <tag k="tiger:cfcc" v="A25"/>
    <tag k="tiger:county" v="Sedgwick, KS"/>
    <tag k="tiger:name_base" v="Kellogg"/>
    <tag k="tiger:name_base_1" v="Harry"/>
    <tag k="tiger:name_direction_prefix" v="W"/>
    <tag k="tiger:name_type" v="St"/>
    <tag k="tiger:source" v="tiger_import_dch_v0.6_20070812"/>
    <tag k="tiger:tlid" v="115708699:115717297:115694103"/>
  </way>
  <way id="51765158" version="4" timestamp="2010-04-06T14:54:52Z" uid="20587" user="balrog-kun" changeset="4342997">
    <nd ref="660610505"/>
    <nd ref="122203303"/>
    <nd ref="122203305"/>
    <nd ref="660612590"/>
    <tag k="highway" v="motorway"/>
    <tag k="name" v="West Kellogg Street"/>
    <tag k="oneway" v="yes"/>
    <tag k="ref" v="US 54; US 400"/>
    <tag k="tiger:cfcc" v="A25"/>
    <tag k="tiger:county" v="Sedgwick, KS"/>
    <tag k="tiger:name_base" v="Kellogg"/>
    <tag k="tiger:name_base_1" v="Harry"/>
    <tag k="tiger:name_base_2" v="United States Highway 54"/>
    <tag k="tiger:name_base_3" v="United States Highway 400"/>
    <tag k="tiger:name_direction_prefix" v="W"/>
    <tag k="tiger:name_direction_prefix_1" v="W"/>
    <tag k="tiger:name_type" v="St"/>
    <tag k="tiger:name_type_1" v="St"/>
    <tag k="tiger:reviewed" v="no"/>
    <tag k="tiger:separated" v="yes"/>
    <tag k="tiger:source" v="tiger_import_dch_v0.6_20070812"/>
    <tag k="tiger:tlid" v="115708699:115717297:115694103"/>
  </way>
  <way id="51765158" version="5" timestamp="2010-05-02T23:05:38Z" uid="262151" user="ToeBee" changeset="4590676">
    <nd ref="660610505"/>
    <nd ref="122203303"/>
    <nd ref="122203305"/>
    <nd ref="660612590"/>
    <tag k="highway" v="motorway"/>
    <tag k="name" v="West Kellogg Street"/>
    <tag k="oneway" v="yes"/>
    <tag k="ref" v="US 54; US 400"/>
    <tag k="tiger:cfcc" v="A25"/>
    <tag k="tiger:county" v="Sedgwick, KS"/>
    <tag k="tiger:name_base" v="Kellogg"/>
    <tag k="tiger:name_base_1" v="Harry"/>
    <tag k="tiger:name_base_2" v="United States Highway 54"/>
    <tag k="tiger:name_base_3" v="United States Highway 400"/>
    <tag k="tiger:name_direction_prefix" v="W"/>
    <tag k="tiger:name_type" v="St"/>
    <tag k="tiger:separated" v="yes"/>
    <tag k="tiger:source" v="tiger_import_dch_v0.6_20070812"/>
    <tag k="tiger:tlid" v="115708699:115717297:115694103"/>
  </way>
  <way id="51765158" version="6" timestamp="2010-07-30T06:17:32Z" uid="262151" user="ToeBee" changeset="5351714">
    <nd ref="660610505"/>
    <nd ref="122203303"/>
    <nd ref="122203305"/>
    <nd ref="660612590"/>
    <tag k="highway" v="motorway"/>
    <tag k="name" v="West Kellogg Street"/>
    <tag k="oneway" v="yes"/>
    <tag k="ref" v="US 54; US 400"/>
    <tag k="tiger:cfcc" v="A25"/>
    <tag k="tiger:county" v="Sedgwick, KS"/>
    <tag k="tiger:name_base" v="Kellogg"/>
    <tag k="tiger:name_base_1" v="Harry"/>
    <tag k="tiger:name_direction_prefix" v="W"/>
    <tag k="tiger:name_type" v="St"/>
    <tag k="tiger:separated" v="yes"/>
    <tag k="tiger:source" v="tiger_import_dch_v0.6_20070812"/>
    <tag k="tiger:tlid" v="115708699:115717297:115694103"/>
  </way>
  <way id="51765158" version="7" timestamp="2010-12-12T01:42:14Z" uid="207745" user="NE2" changeset="6629847">
    <nd ref="660610505"/>
    <nd ref="122203303"/>
    <nd ref="122203305"/>
    <nd ref="660612590"/>
    <tag k="NHS_High_Priority_Corridor" v="3"/>
    <tag k="highway" v="motorway"/>
    <tag k="name" v="West Kellogg Street"/>
    <tag k="oneway" v="yes"/>
    <tag k="ref" v="US 54; US 400"/>
    <tag k="tiger:cfcc" v="A25"/>
    <tag k="tiger:county" v="Sedgwick, KS"/>
    <tag k="tiger:name_base" v="Kellogg"/>
    <tag k="tiger:name_base_1" v="Harry"/>
    <tag k="tiger:name_direction_prefix" v="W"/>
    <tag k="tiger:name_type" v="St"/>
    <tag k="tiger:separated" v="yes"/>
    <tag k="tiger:source" v="tiger_import_dch_v0.6_20070812"/>
    <tag k="tiger:tlid" v="115708699:115717297:115694103"/>
  </way>
  <way id="51765158" version="8" timestamp="2010-12-13T03:53:07Z" uid="207745" user="NE2" changeset="6644142">
    <nd ref="660610505"/>
    <nd ref="122203303"/>
    <nd ref="122203305"/>
    <nd ref="660612590"/>
    <tag k="highway" v="motorway"/>
    <tag k="name" v="West Kellogg Street"/>
    <tag k="oneway" v="yes"/>
    <tag k="ref" v="US 54; US 400"/>
    <tag k="tiger:cfcc" v="A25"/>
    <tag k="tiger:county" v="Sedgwick, KS"/>
    <tag k="tiger:name_base" v="Kellogg"/>
    <tag k="tiger:name_base_1" v="Harry"/>
    <tag k="tiger:name_direction_prefix" v="W"/>
    <tag k="tiger:name_type" v="St"/>
    <tag k="tiger:separated" v="yes"/>
    <tag k="tiger:source" v="tiger_import_dch_v0.6_20070812"/>
    <tag k="tiger:tlid" v="115708699:115717297:115694103"/>
  </way>
  <way id="51765158" version="9" timestamp="2011-05-29T19:20:05Z" uid="207745" user="NE2" changeset="8284955">
    <nd ref="660610505"/>
    <nd ref="122203303"/>
    <nd ref="122203305"/>
    <nd ref="660612590"/>
    <tag k="highway" v="motorway"/>
    <tag k="lanes" v="2"/>
    <tag k="name" v="West Kellogg Street"/>
    <tag k="oneway" v="yes"/>
    <tag k="ref" v="US 54; US 400"/>
    <tag k="tiger:cfcc" v="A25"/>
    <tag k="tiger:county" v="Sedgwick, KS"/>
    <tag k="tiger:name_base" v="Kellogg"/>
    <tag k="tiger:name_base_1" v="Harry"/>
    <tag k="tiger:name_direction_prefix" v="W"/>
    <tag k="tiger:name_type" v="St"/>
    <tag k="tiger:separated" v="yes"/>
    <tag k="tiger:source" v="tiger_import_dch_v0.6_20070812"/>
    <tag k="tiger:tlid" v="115708699:115717297:115694103"/>
  </way>
  <way id="51765158" version="10" timestamp="2011-07-07T02:13:32Z" uid="473471" user="NE3" changeset="8653554">
    <nd ref="660610505"/>
    <nd ref="122203303"/>
    <nd ref="122203305"/>
    <nd ref="660612590"/>
    <tag k="NHS" v="yes"/>
    <tag k="highway" v="motorway"/>
    <tag k="lanes" v="2"/>
    <tag k="name" v="West Kellogg Street"/>
    <tag k="oneway" v="yes"/>
    <tag k="ref" v="US 54; US 400"/>
    <tag k="tiger:cfcc" v="A25"/>
    <tag k="tiger:county" v="Sedgwick, KS"/>
    <tag k="tiger:name_base" v="Kellogg"/>
    <tag k="tiger:name_base_1" v="Harry"/>
    <tag k="tiger:name_direction_prefix" v="W"/>
    <tag k="tiger:name_type" v="St"/>
    <tag k="tiger:separated" v="yes"/>
    <tag k="tiger:source" v="tiger_import_dch_v0.6_20070812"/>
    <tag k="tiger:tlid" v="115708699:115717297:115694103"/>
  </way>
  <way id="51765158" version="11" timestamp="2011-11-29T19:54:02Z" uid="207745" user="NE2" changeset="9991336">
    <nd ref="660610505"/>
    <nd ref="122203303"/>
    <nd ref="122203305"/>
    <nd ref="660612590"/>
    <tag k="NHS" v="yes"/>
    <tag k="hgv" v="designated"/>
    <tag k="hgv:national_network" v="yes"/>
    <tag k="highway" v="motorway"/>
    <tag k="lanes" v="2"/>
    <tag k="name" v="West Kellogg Street"/>
    <tag k="oneway" v="yes"/>
    <tag k="ref" v="US 54; US 400"/>
    <tag k="tiger:cfcc" v="A25"/>
    <tag k="tiger:county" v="Sedgwick, KS"/>
    <tag k="tiger:name_base" v="Kellogg"/>
    <tag k="tiger:name_base_1" v="Harry"/>
    <tag k="tiger:name_direction_prefix" v="W"/>
    <tag k="tiger:name_type" v="St"/>
    <tag k="tiger:separated" v="yes"/>
    <tag k="tiger:source" v="tiger_import_dch_v0.6_20070812"/>
    <tag k="tiger:tlid" v="115708699:115717297:115694103"/>
  </way>
  <way id="51765158" version="12" timestamp="2011-11-30T05:57:47Z" uid="262151" user="ToeBee" changeset="9995740">
    <nd ref="660610505"/>
    <nd ref="122203303"/>
    <nd ref="122203305"/>
    <nd ref="660612590"/>
    <tag k="NHS" v="yes"/>
    <tag k="hgv" v="designated"/>
    <tag k="hgv:national_network" v="yes"/>
    <tag k="highway" v="motorway"/>
    <tag k="lanes" v="2"/>
    <tag k="maxspeed" v="60 mph"/>
    <tag k="name" v="West Kellogg Street"/>
    <tag k="oneway" v="yes"/>
    <tag k="ref" v="US 54; US 400"/>
    <tag k="tiger:cfcc" v="A25"/>
    <tag k="tiger:county" v="Sedgwick, KS"/>
    <tag k="tiger:name_base" v="Kellogg"/>
    <tag k="tiger:name_base_1" v="Harry"/>
    <tag k="tiger:name_direction_prefix" v="W"/>
    <tag k="tiger:name_type" v="St"/>
    <tag k="tiger:source" v="tiger_import_dch_v0.6_20070812"/>
    <tag k="tiger:tlid" v="115708699:115717297:115694103"/>
  </way>
  <way id="51765189" version="4" timestamp="2010-04-06T14:54:52Z" uid="20587" user="balrog-kun" changeset="4342997">
    <nd ref="122203839"/>
    <nd ref="122203835"/>
    <tag k="bridge" v="yes"/>
    <tag k="highway" v="motorway"/>
    <tag k="layer" v="1"/>
    <tag k="name" v="West Kellogg Street"/>
    <tag k="oneway" v="yes"/>
    <tag k="ref" v="US 54; US 400"/>
    <tag k="tiger:cfcc" v="A25"/>
    <tag k="tiger:county" v="Sedgwick, KS"/>
    <tag k="tiger:name_base" v="Kellogg"/>
    <tag k="tiger:name_base_1" v="United States Highway 54"/>
    <tag k="tiger:name_base_2" v="United States Highway 400"/>
    <tag k="tiger:name_direction_prefix" v="W"/>
    <tag k="tiger:name_type" v="St"/>
    <tag k="tiger:reviewed" v="aerial"/>
    <tag k="tiger:separated" v="yes"/>
    <tag k="tiger:source" v="tiger_import_dch_v0.6_20070812"/>
    <tag k="tiger:tlid" v="115713079:115679183:115706497"/>
    <tag k="tiger:zip_left" v="67209"/>
  </way>
  <way id="51765189" version="5" timestamp="2010-07-30T06:17:37Z" uid="262151" user="ToeBee" changeset="5351714">
    <nd ref="122203839"/>
    <nd ref="122203835"/>
    <tag k="bridge" v="yes"/>
    <tag k="highway" v="motorway"/>
    <tag k="layer" v="1"/>
    <tag k="name" v="West Kellogg Street"/>
    <tag k="oneway" v="yes"/>
    <tag k="ref" v="US 54; US 400"/>
    <tag k="tiger:cfcc" v="A25"/>
    <tag k="tiger:county" v="Sedgwick, KS"/>
    <tag k="tiger:name_base" v="Kellogg"/>
    <tag k="tiger:name_direction_prefix" v="W"/>
    <tag k="tiger:name_type" v="St"/>
    <tag k="tiger:reviewed" v="aerial"/>
    <tag k="tiger:separated" v="yes"/>
    <tag k="tiger:source" v="tiger_import_dch_v0.6_20070812"/>
    <tag k="tiger:tlid" v="115713079:115679183:115706497"/>
    <tag k="tiger:zip_left" v="67209"/>
  </way>
  <way id="51765189" version="6" timestamp="2010-12-12T01:18:45Z" uid="207745" user="NE2" changeset="6629847">
    <nd ref="122203839"/>
    <nd ref="122203835"/>
    <tag k="NHS_High_Priority_Corridor" v="3"/>
    <tag k="bridge" v="yes"/>
    <tag k="highway" v="motorway"/>
    <tag k="layer" v="1"/>
    <tag k="name" v="West Kellogg Street"/>
    <tag k="oneway" v="yes"/>
    <tag k="ref" v="US 54; US 400"/>
    <tag k="tiger:cfcc" v="A25"/>
    <tag k="tiger:county" v="Sedgwick, KS"/>
    <tag k="tiger:name_base" v="Kellogg"/>
    <tag k="tiger:name_direction_prefix" v="W"/>
    <tag k="tiger:name_type" v="St"/>
    <tag k="tiger:reviewed" v="aerial"/>
    <tag k="tiger:separated" v="yes"/>
    <tag k="tiger:source" v="tiger_import_dch_v0.6_20070812"/>
    <tag k="tiger:tlid" v="115713079:115679183:115706497"/>
    <tag k="tiger:zip_left" v="67209"/>
  </way>
  <way id="51765189" version="7" timestamp="2010-12-13T04:01:04Z" uid="207745" user="NE2" changeset="6644142">
    <nd ref="122203839"/>
    <nd ref="122203835"/>
    <tag k="bridge" v="yes"/>
    <tag k="highway" v="motorway"/>
    <tag k="layer" v="1"/>
    <tag k="name" v="West Kellogg Street"/>
    <tag k="oneway" v="yes"/>
    <tag k="ref" v="US 54; US 400"/>
    <tag k="tiger:cfcc" v="A25"/>
    <tag k="tiger:county" v="Sedgwick, KS"/>
    <tag k="tiger:name_base" v="Kellogg"/>
    <tag k="tiger:name_direction_prefix" v="W"/>
    <tag k="tiger:name_type" v="St"/>
    <tag k="tiger:reviewed" v="aerial"/>
    <tag k="tiger:separated" v="yes"/>
    <tag k="tiger:source" v="tiger_import_dch_v0.6_20070812"/>
    <tag k="tiger:tlid" v="115713079:115679183:115706497"/>
    <tag k="tiger:zip_left" v="67209"/>
  </way>
  <way id="51765189" version="8" timestamp="2011-06-19T11:15:04Z" uid="207745" user="NE2" changeset="8482682">
    <nd ref="122203839"/>
    <nd ref="122203835"/>
    <tag k="bridge" v="yes"/>
    <tag k="highway" v="motorway"/>
    <tag k="lanes" v="3"/>
    <tag k="layer" v="1"/>
    <tag k="name" v="West Kellogg Street"/>
    <tag k="oneway" v="yes"/>
    <tag k="ref" v="US 54; US 400"/>
    <tag k="tiger:cfcc" v="A25"/>
    <tag k="tiger:county" v="Sedgwick, KS"/>
    <tag k="tiger:name_base" v="Kellogg"/>
    <tag k="tiger:name_direction_prefix" v="W"/>
    <tag k="tiger:name_type" v="St"/>
    <tag k="tiger:reviewed" v="aerial"/>
    <tag k="tiger:separated" v="yes"/>
    <tag k="tiger:source" v="tiger_import_dch_v0.6_20070812"/>
    <tag k="tiger:tlid" v="115713079:115679183:115706497"/>
    <tag k="tiger:zip_left" v="67209"/>
  </way>
  <way id="51765189" version="9" timestamp="2011-07-07T02:13:24Z" uid="473471" user="NE3" changeset="8653554">
    <nd ref="122203839"/>
    <nd ref="122203835"/>
    <tag k="NHS" v="yes"/>
    <tag k="bridge" v="yes"/>
    <tag k="highway" v="motorway"/>
    <tag k="lanes" v="3"/>
    <tag k="layer" v="1"/>
    <tag k="name" v="West Kellogg Street"/>
    <tag k="oneway" v="yes"/>
    <tag k="ref" v="US 54; US 400"/>
    <tag k="tiger:cfcc" v="A25"/>
    <tag k="tiger:county" v="Sedgwick, KS"/>
    <tag k="tiger:name_base" v="Kellogg"/>
    <tag k="tiger:name_direction_prefix" v="W"/>
    <tag k="tiger:name_type" v="St"/>
    <tag k="tiger:reviewed" v="aerial"/>
    <tag k="tiger:separated" v="yes"/>
    <tag k="tiger:source" v="tiger_import_dch_v0.6_20070812"/>
    <tag k="tiger:tlid" v="115713079:115679183:115706497"/>
    <tag k="tiger:zip_left" v="67209"/>
  </way>
  <way id="51765189" version="10" timestamp="2011-11-29T19:53:44Z" uid="207745" user="NE2" changeset="9991336">
    <nd ref="122203839"/>
    <nd ref="122203835"/>
    <tag k="NHS" v="yes"/>
    <tag k="bridge" v="yes"/>
    <tag k="hgv" v="designated"/>
    <tag k="hgv:national_network" v="yes"/>
    <tag k="highway" v="motorway"/>
    <tag k="lanes" v="3"/>
    <tag k="layer" v="1"/>
    <tag k="name" v="West Kellogg Street"/>
    <tag k="oneway" v="yes"/>
    <tag k="ref" v="US 54; US 400"/>
    <tag k="tiger:cfcc" v="A25"/>
    <tag k="tiger:county" v="Sedgwick, KS"/>
    <tag k="tiger:name_base" v="Kellogg"/>
    <tag k="tiger:name_direction_prefix" v="W"/>
    <tag k="tiger:name_type" v="St"/>
    <tag k="tiger:reviewed" v="aerial"/>
    <tag k="tiger:separated" v="yes"/>
    <tag k="tiger:source" v="tiger_import_dch_v0.6_20070812"/>
    <tag k="tiger:tlid" v="115713079:115679183:115706497"/>
    <tag k="tiger:zip_left" v="67209"/>
  </way>
  <way id="51765189" version="11" timestamp="2011-11-30T05:57:19Z" uid="262151" user="ToeBee" changeset="9995740">
    <nd ref="122203839"/>
    <nd ref="122203835"/>
    <tag k="NHS" v="yes"/>
    <tag k="bridge" v="yes"/>
    <tag k="hgv" v="designated"/>
    <tag k="hgv:national_network" v="yes"/>
    <tag k="highway" v="motorway"/>
    <tag k="lanes" v="3"/>
    <tag k="layer" v="1"/>
    <tag k="maxspeed" v="60 mph"/>
    <tag k="name" v="West Kellogg Street"/>
    <tag k="oneway" v="yes"/>
    <tag k="ref" v="US 54; US 400"/>
    <tag k="tiger:cfcc" v="A25"/>
    <tag k="tiger:county" v="Sedgwick, KS"/>
    <tag k="tiger:name_base" v="Kellogg"/>
    <tag k="tiger:name_direction_prefix" v="W"/>
    <tag k="tiger:name_type" v="St"/>
    <tag k="tiger:reviewed" v="aerial"/>
    <tag k="tiger:source" v="tiger_import_dch_v0.6_20070812"/>
    <tag k="tiger:tlid" v="115713079:115679183:115706497"/>
    <tag k="tiger:zip_left" v="67209"/>
  </way>
  <way id="51765194" version="2" timestamp="2010-04-06T14:54:52Z" uid="20587" user="balrog-kun" changeset="4342997">
    <nd ref="122203835"/>
    <nd ref="122203826"/>
    <nd ref="122203823"/>
    <nd ref="122203821"/>
    <nd ref="122203818"/>
    <nd ref="122203804"/>
    <tag k="highway" v="motorway"/>
    <tag k="name" v="West Kellogg Street"/>
    <tag k="oneway" v="yes"/>
    <tag k="ref" v="US 54; US 400"/>
    <tag k="tiger:cfcc" v="A25"/>
    <tag k="tiger:county" v="Sedgwick, KS"/>
    <tag k="tiger:name_base" v="Kellogg"/>
    <tag k="tiger:name_base_1" v="United States Highway 54"/>
    <tag k="tiger:name_base_2" v="United States Highway 400"/>
    <tag k="tiger:name_direction_prefix" v="W"/>
    <tag k="tiger:name_type" v="St"/>
    <tag k="tiger:reviewed" v="no"/>
    <tag k="tiger:separated" v="yes"/>
    <tag k="tiger:source" v="tiger_import_dch_v0.6_20070812"/>
    <tag k="tiger:tlid" v="115713079:115679183:115706497"/>
    <tag k="tiger:zip_left" v="67209"/>
  </way>
  <way id="51765194" version="3" timestamp="2010-05-02T23:21:57Z" uid="262151" user="ToeBee" changeset="4590676">
    <nd ref="122203835"/>
    <nd ref="122203826"/>
    <nd ref="122203823"/>
    <nd ref="122203821"/>
    <nd ref="122203818"/>
    <nd ref="122203804"/>
    <tag k="highway" v="motorway"/>
    <tag k="name" v="West Kellogg Street"/>
    <tag k="oneway" v="yes"/>
    <tag k="ref" v="US 54; US 400"/>
    <tag k="tiger:cfcc" v="A25"/>
    <tag k="tiger:county" v="Sedgwick, KS"/>
    <tag k="tiger:name_base" v="Kellogg"/>
    <tag k="tiger:name_base_1" v="United States Highway 54"/>
    <tag k="tiger:name_base_2" v="United States Highway 400"/>
    <tag k="tiger:name_direction_prefix" v="W"/>
    <tag k="tiger:name_type" v="St"/>
    <tag k="tiger:separated" v="yes"/>
    <tag k="tiger:source" v="tiger_import_dch_v0.6_20070812"/>
    <tag k="tiger:tlid" v="115713079:115679183:115706497"/>
    <tag k="tiger:zip_left" v="67209"/>
  </way>
  <way id="51765194" version="4" timestamp="2010-07-30T06:17:31Z" uid="262151" user="ToeBee" changeset="5351714">
    <nd ref="122203835"/>
    <nd ref="122203826"/>
    <nd ref="122203823"/>
    <nd ref="122203821"/>
    <nd ref="122203818"/>
    <nd ref="122203804"/>
    <tag k="highway" v="motorway"/>
    <tag k="name" v="West Kellogg Street"/>
    <tag k="oneway" v="yes"/>
    <tag k="ref" v="US 54; US 400"/>
    <tag k="tiger:cfcc" v="A25"/>
    <tag k="tiger:county" v="Sedgwick, KS"/>
    <tag k="tiger:name_base" v="Kellogg"/>
    <tag k="tiger:name_direction_prefix" v="W"/>
    <tag k="tiger:name_type" v="St"/>
    <tag k="tiger:separated" v="yes"/>
    <tag k="tiger:source" v="tiger_import_dch_v0.6_20070812"/>
    <tag k="tiger:tlid" v="115713079:115679183:115706497"/>
    <tag k="tiger:zip_left" v="67209"/>
  </way>
  <way id="51765194" version="5" timestamp="2010-12-12T01:43:01Z" uid="207745" user="NE2" changeset="6629847">
    <nd ref="122203835"/>
    <nd ref="122203826"/>
    <nd ref="122203823"/>
    <nd ref="122203821"/>
    <nd ref="122203818"/>
    <nd ref="122203804"/>
    <tag k="NHS_High_Priority_Corridor" v="3"/>
    <tag k="highway" v="motorway"/>
    <tag k="name" v="West Kellogg Street"/>
    <tag k="oneway" v="yes"/>
    <tag k="ref" v="US 54; US 400"/>
    <tag k="tiger:cfcc" v="A25"/>
    <tag k="tiger:county" v="Sedgwick, KS"/>
    <tag k="tiger:name_base" v="Kellogg"/>
    <tag k="tiger:name_direction_prefix" v="W"/>
    <tag k="tiger:name_type" v="St"/>
    <tag k="tiger:separated" v="yes"/>
    <tag k="tiger:source" v="tiger_import_dch_v0.6_20070812"/>
    <tag k="tiger:tlid" v="115713079:115679183:115706497"/>
    <tag k="tiger:zip_left" v="67209"/>
  </way>
  <way id="51765194" version="6" timestamp="2010-12-13T03:45:44Z" uid="207745" user="NE2" changeset="6644142">
    <nd ref="122203835"/>
    <nd ref="122203826"/>
    <nd ref="122203823"/>
    <nd ref="122203821"/>
    <nd ref="122203818"/>
    <nd ref="122203804"/>
    <tag k="highway" v="motorway"/>
    <tag k="name" v="West Kellogg Street"/>
    <tag k="oneway" v="yes"/>
    <tag k="ref" v="US 54; US 400"/>
    <tag k="tiger:cfcc" v="A25"/>
    <tag k="tiger:county" v="Sedgwick, KS"/>
    <tag k="tiger:name_base" v="Kellogg"/>
    <tag k="tiger:name_direction_prefix" v="W"/>
    <tag k="tiger:name_type" v="St"/>
    <tag k="tiger:separated" v="yes"/>
    <tag k="tiger:source" v="tiger_import_dch_v0.6_20070812"/>
    <tag k="tiger:tlid" v="115713079:115679183:115706497"/>
    <tag k="tiger:zip_left" v="67209"/>
  </way>
  <way id="51765194" version="7" timestamp="2011-05-29T04:08:22Z" uid="207745" user="NE2" changeset="8277348">
    <nd ref="122203835"/>
    <nd ref="122203826"/>
    <nd ref="122203823"/>
    <nd ref="122203821"/>
    <nd ref="1304326534"/>
    <nd ref="122203804"/>
    <tag k="highway" v="motorway"/>
    <tag k="name" v="West Kellogg Street"/>
    <tag k="oneway" v="yes"/>
    <tag k="ref" v="US 54; US 400"/>
    <tag k="tiger:cfcc" v="A25"/>
    <tag k="tiger:county" v="Sedgwick, KS"/>
    <tag k="tiger:name_base" v="Kellogg"/>
    <tag k="tiger:name_direction_prefix" v="W"/>
    <tag k="tiger:name_type" v="St"/>
    <tag k="tiger:separated" v="yes"/>
    <tag k="tiger:source" v="tiger_import_dch_v0.6_20070812"/>
    <tag k="tiger:tlid" v="115713079:115679183:115706497"/>
    <tag k="tiger:zip_left" v="67209"/>
  </way>
  <way id="51765194" version="8" timestamp="2011-06-19T11:33:16Z" uid="207745" user="NE2" changeset="8482682">
    <nd ref="122203835"/>
    <nd ref="122203826"/>
    <nd ref="122203823"/>
    <nd ref="122203821"/>
    <nd ref="1304326534"/>
    <nd ref="122203804"/>
    <tag k="highway" v="motorway"/>
    <tag k="lanes" v="3"/>
    <tag k="name" v="West Kellogg Street"/>
    <tag k="oneway" v="yes"/>
    <tag k="ref" v="US 54; US 400"/>
    <tag k="tiger:cfcc" v="A25"/>
    <tag k="tiger:county" v="Sedgwick, KS"/>
    <tag k="tiger:name_base" v="Kellogg"/>
    <tag k="tiger:name_direction_prefix" v="W"/>
    <tag k="tiger:name_type" v="St"/>
    <tag k="tiger:separated" v="yes"/>
    <tag k="tiger:source" v="tiger_import_dch_v0.6_20070812"/>
    <tag k="tiger:tlid" v="115713079:115679183:115706497"/>
    <tag k="tiger:zip_left" v="67209"/>
  </way>
  <way id="51765194" version="9" timestamp="2011-07-07T02:13:34Z" uid="473471" user="NE3" changeset="8653554">
    <nd ref="122203835"/>
    <nd ref="122203826"/>
    <nd ref="122203823"/>
    <nd ref="122203821"/>
    <nd ref="1304326534"/>
    <nd ref="122203804"/>
    <tag k="NHS" v="yes"/>
    <tag k="highway" v="motorway"/>
    <tag k="lanes" v="3"/>
    <tag k="name" v="West Kellogg Street"/>
    <tag k="oneway" v="yes"/>
    <tag k="ref" v="US 54; US 400"/>
    <tag k="tiger:cfcc" v="A25"/>
    <tag k="tiger:county" v="Sedgwick, KS"/>
    <tag k="tiger:name_base" v="Kellogg"/>
    <tag k="tiger:name_direction_prefix" v="W"/>
    <tag k="tiger:name_type" v="St"/>
    <tag k="tiger:separated" v="yes"/>
    <tag k="tiger:source" v="tiger_import_dch_v0.6_20070812"/>
    <tag k="tiger:tlid" v="115713079:115679183:115706497"/>
    <tag k="tiger:zip_left" v="67209"/>
  </way>
  <way id="51765194" version="10" timestamp="2011-11-29T19:54:07Z" uid="207745" user="NE2" changeset="9991336">
    <nd ref="122203835"/>
    <nd ref="122203826"/>
    <nd ref="122203823"/>
    <nd ref="122203821"/>
    <nd ref="1304326534"/>
    <nd ref="122203804"/>
    <tag k="NHS" v="yes"/>
    <tag k="hgv" v="designated"/>
    <tag k="hgv:national_network" v="yes"/>
    <tag k="highway" v="motorway"/>
    <tag k="lanes" v="3"/>
    <tag k="name" v="West Kellogg Street"/>
    <tag k="oneway" v="yes"/>
    <tag k="ref" v="US 54; US 400"/>
    <tag k="tiger:cfcc" v="A25"/>
    <tag k="tiger:county" v="Sedgwick, KS"/>
    <tag k="tiger:name_base" v="Kellogg"/>
    <tag k="tiger:name_direction_prefix" v="W"/>
    <tag k="tiger:name_type" v="St"/>
    <tag k="tiger:separated" v="yes"/>
    <tag k="tiger:source" v="tiger_import_dch_v0.6_20070812"/>
    <tag k="tiger:tlid" v="115713079:115679183:115706497"/>
    <tag k="tiger:zip_left" v="67209"/>
  </way>
  <way id="51765194" version="11" timestamp="2011-11-30T05:57:53Z" uid="262151" user="ToeBee" changeset="9995740">
    <nd ref="122203835"/>
    <nd ref="122203826"/>
    <nd ref="122203823"/>
    <nd ref="122203821"/>
    <nd ref="1304326534"/>
    <nd ref="122203804"/>
    <tag k="NHS" v="yes"/>
    <tag k="hgv" v="designated"/>
    <tag k="hgv:national_network" v="yes"/>
    <tag k="highway" v="motorway"/>
    <tag k="lanes" v="3"/>
    <tag k="maxspeed" v="60 mph"/>
    <tag k="name" v="West Kellogg Street"/>
    <tag k="oneway" v="yes"/>
    <tag k="ref" v="US 54; US 400"/>
    <tag k="tiger:cfcc" v="A25"/>
    <tag k="tiger:county" v="Sedgwick, KS"/>
    <tag k="tiger:name_base" v="Kellogg"/>
    <tag k="tiger:name_direction_prefix" v="W"/>
    <tag k="tiger:name_type" v="St"/>
    <tag k="tiger:source" v="tiger_import_dch_v0.6_20070812"/>
    <tag k="tiger:tlid" v="115713079:115679183:115706497"/>
    <tag k="tiger:zip_left" v="67209"/>
  </way>
  <way id="51765201" version="2" timestamp="2010-03-28T11:52:13Z" uid="20587" user="balrog-kun" changeset="4254597">
    <nd ref="257670652"/>
    <nd ref="660611472"/>
    <nd ref="660611475"/>
    <nd ref="660611473"/>
    <tag k="highway" v="residential"/>
    <tag k="name" v="Hallmark Drive"/>
  </way>
  <way id="51765201" version="3" timestamp="2011-06-11T00:12:46Z" uid="19532" user="tomoyan" changeset="8402021">
    <nd ref="257670652"/>
    <nd ref="1319578557"/>
    <nd ref="660611472"/>
    <nd ref="660611475"/>
    <nd ref="660611473"/>
    <tag k="highway" v="residential"/>
    <tag k="name" v="Hallmark Drive"/>
    <tag k="oneway" v="yes"/>
  </way>
  <way id="51765242" version="2" timestamp="2010-04-19T10:17:05Z" uid="115477" user="wowik" changeset="4466554">
    <nd ref="634697723"/>
    <nd ref="634697726"/>
    <nd ref="654390676"/>
    <nd ref="634697715"/>
    <nd ref="634697679"/>
    <nd ref="634697686"/>
    <nd ref="634697688"/>
    <tag k="highway" v="footway; footway; service"/>
  </way>
  <way id="51765242" version="3" timestamp="2010-10-08T21:03:06Z" uid="206282" user="Amigo" changeset="5989460">
    <nd ref="634697723"/>
    <nd ref="634697726"/>
    <nd ref="654390676"/>
    <nd ref="634697715"/>
    <nd ref="634697679"/>
    <nd ref="634697686"/>
    <nd ref="634697688"/>
    <tag k="highway" v="footway"/>
  </way>
  <way id="51765242" version="4" timestamp="2011-05-19T16:40:12Z" uid="115477" user="wowik" changeset="8191193">
    <nd ref="634697723"/>
    <nd ref="634697726"/>
    <nd ref="654390676"/>
    <nd ref="634697679"/>
    <nd ref="634697686"/>
    <nd ref="634697688"/>
    <tag k="highway" v="footway"/>
  </way>
  <way id="51765242" version="5" timestamp="2011-09-06T05:05:19Z" uid="198482" user="VikDD" changeset="9224071">
    <nd ref="634697723"/>
    <nd ref="634697726"/>
    <nd ref="654390676"/>
    <nd ref="1419328678"/>
    <nd ref="634697679"/>
    <nd ref="634697686"/>
    <nd ref="634697688"/>
    <tag k="highway" v="footway"/>
  </way>
  <way id="51765328" version="4" timestamp="2010-04-06T14:54:53Z" uid="20587" user="balrog-kun" changeset="4342997">
    <nd ref="660612590"/>
    <nd ref="122203317"/>
    <tag k="bridge" v="yes"/>
    <tag k="highway" v="motorway"/>
    <tag k="layer" v="1"/>
    <tag k="name" v="West Kellogg Street"/>
    <tag k="oneway" v="yes"/>
    <tag k="ref" v="US 54; US 400"/>
    <tag k="tiger:cfcc" v="A25"/>
    <tag k="tiger:county" v="Sedgwick, KS"/>
    <tag k="tiger:name_base" v="Kellogg"/>
    <tag k="tiger:name_base_1" v="Harry"/>
    <tag k="tiger:name_base_2" v="United States Highway 54"/>
    <tag k="tiger:name_base_3" v="United States Highway 400"/>
    <tag k="tiger:name_direction_prefix" v="W"/>
    <tag k="tiger:name_direction_prefix_1" v="W"/>
    <tag k="tiger:name_type" v="St"/>
    <tag k="tiger:name_type_1" v="St"/>
    <tag k="tiger:reviewed" v="aerial"/>
    <tag k="tiger:separated" v="yes"/>
    <tag k="tiger:source" v="tiger_import_dch_v0.6_20070812"/>
    <tag k="tiger:tlid" v="115708699:115717297:115694103"/>
  </way>
  <way id="51765328" version="5" timestamp="2010-05-02T23:05:36Z" uid="262151" user="ToeBee" changeset="4590676">
    <nd ref="660612590"/>
    <nd ref="122203317"/>
    <tag k="bridge" v="yes"/>
    <tag k="highway" v="motorway"/>
    <tag k="layer" v="1"/>
    <tag k="name" v="West Kellogg Street"/>
    <tag k="oneway" v="yes"/>
    <tag k="ref" v="US 54; US 400"/>
    <tag k="tiger:cfcc" v="A25"/>
    <tag k="tiger:county" v="Sedgwick, KS"/>
    <tag k="tiger:name_base" v="Kellogg"/>
    <tag k="tiger:name_base_1" v="Harry"/>
    <tag k="tiger:name_base_2" v="United States Highway 54"/>
    <tag k="tiger:name_base_3" v="United States Highway 400"/>
    <tag k="tiger:name_direction_prefix" v="W"/>
    <tag k="tiger:name_direction_prefix_1" v="W"/>
    <tag k="tiger:name_type" v="St"/>
    <tag k="tiger:name_type_1" v="St"/>
    <tag k="tiger:separated" v="yes"/>
    <tag k="tiger:source" v="tiger_import_dch_v0.6_20070812"/>
    <tag k="tiger:tlid" v="115708699:115717297:115694103"/>
  </way>
  <way id="51765328" version="6" timestamp="2010-07-30T06:17:36Z" uid="262151" user="ToeBee" changeset="5351714">
    <nd ref="660612590"/>
    <nd ref="122203317"/>
    <tag k="bridge" v="yes"/>
    <tag k="highway" v="motorway"/>
    <tag k="layer" v="1"/>
    <tag k="name" v="West Kellogg Street"/>
    <tag k="oneway" v="yes"/>
    <tag k="ref" v="US 54; US 400"/>
    <tag k="tiger:cfcc" v="A25"/>
    <tag k="tiger:county" v="Sedgwick, KS"/>
    <tag k="tiger:name_base" v="Kellogg"/>
    <tag k="tiger:name_base_1" v="Harry"/>
    <tag k="tiger:name_direction_prefix" v="W"/>
    <tag k="tiger:name_type" v="St"/>
    <tag k="tiger:separated" v="yes"/>
    <tag k="tiger:source" v="tiger_import_dch_v0.6_20070812"/>
    <tag k="tiger:tlid" v="115708699:115717297:115694103"/>
  </way>
  <way id="51765328" version="7" timestamp="2010-12-12T01:44:47Z" uid="207745" user="NE2" changeset="6629847">
    <nd ref="660612590"/>
    <nd ref="122203317"/>
    <tag k="NHS_High_Priority_Corridor" v="3"/>
    <tag k="bridge" v="yes"/>
    <tag k="highway" v="motorway"/>
    <tag k="layer" v="1"/>
    <tag k="name" v="West Kellogg Street"/>
    <tag k="oneway" v="yes"/>
    <tag k="ref" v="US 54; US 400"/>
    <tag k="tiger:cfcc" v="A25"/>
    <tag k="tiger:county" v="Sedgwick, KS"/>
    <tag k="tiger:name_base" v="Kellogg"/>
    <tag k="tiger:name_base_1" v="Harry"/>
    <tag k="tiger:name_direction_prefix" v="W"/>
    <tag k="tiger:name_type" v="St"/>
    <tag k="tiger:separated" v="yes"/>
    <tag k="tiger:source" v="tiger_import_dch_v0.6_20070812"/>
    <tag k="tiger:tlid" v="115708699:115717297:115694103"/>
  </way>
  <way id="51765328" version="8" timestamp="2010-12-13T03:34:28Z" uid="207745" user="NE2" changeset="6644142">
    <nd ref="660612590"/>
    <nd ref="122203317"/>
    <tag k="bridge" v="yes"/>
    <tag k="highway" v="motorway"/>
    <tag k="layer" v="1"/>
    <tag k="name" v="West Kellogg Street"/>
    <tag k="oneway" v="yes"/>
    <tag k="ref" v="US 54; US 400"/>
    <tag k="tiger:cfcc" v="A25"/>
    <tag k="tiger:county" v="Sedgwick, KS"/>
    <tag k="tiger:name_base" v="Kellogg"/>
    <tag k="tiger:name_base_1" v="Harry"/>
    <tag k="tiger:name_direction_prefix" v="W"/>
    <tag k="tiger:name_type" v="St"/>
    <tag k="tiger:separated" v="yes"/>
    <tag k="tiger:source" v="tiger_import_dch_v0.6_20070812"/>
    <tag k="tiger:tlid" v="115708699:115717297:115694103"/>
  </way>
  <way id="51765328" version="9" timestamp="2011-05-29T19:22:29Z" uid="207745" user="NE2" changeset="8284955">
    <nd ref="660612590"/>
    <nd ref="122203317"/>
    <tag k="bridge" v="yes"/>
    <tag k="highway" v="motorway"/>
    <tag k="lanes" v="2"/>
    <tag k="layer" v="1"/>
    <tag k="name" v="West Kellogg Street"/>
    <tag k="oneway" v="yes"/>
    <tag k="ref" v="US 54; US 400"/>
    <tag k="tiger:cfcc" v="A25"/>
    <tag k="tiger:county" v="Sedgwick, KS"/>
    <tag k="tiger:name_base" v="Kellogg"/>
    <tag k="tiger:name_base_1" v="Harry"/>
    <tag k="tiger:name_direction_prefix" v="W"/>
    <tag k="tiger:name_type" v="St"/>
    <tag k="tiger:separated" v="yes"/>
    <tag k="tiger:source" v="tiger_import_dch_v0.6_20070812"/>
    <tag k="tiger:tlid" v="115708699:115717297:115694103"/>
  </way>
  <way id="51765328" version="10" timestamp="2011-07-07T02:13:23Z" uid="473471" user="NE3" changeset="8653554">
    <nd ref="660612590"/>
    <nd ref="122203317"/>
    <tag k="NHS" v="yes"/>
    <tag k="bridge" v="yes"/>
    <tag k="highway" v="motorway"/>
    <tag k="lanes" v="2"/>
    <tag k="layer" v="1"/>
    <tag k="name" v="West Kellogg Street"/>
    <tag k="oneway" v="yes"/>
    <tag k="ref" v="US 54; US 400"/>
    <tag k="tiger:cfcc" v="A25"/>
    <tag k="tiger:county" v="Sedgwick, KS"/>
    <tag k="tiger:name_base" v="Kellogg"/>
    <tag k="tiger:name_base_1" v="Harry"/>
    <tag k="tiger:name_direction_prefix" v="W"/>
    <tag k="tiger:name_type" v="St"/>
    <tag k="tiger:separated" v="yes"/>
    <tag k="tiger:source" v="tiger_import_dch_v0.6_20070812"/>
    <tag k="tiger:tlid" v="115708699:115717297:115694103"/>
  </way>
  <way id="51765328" version="11" timestamp="2011-11-29T19:53:43Z" uid="207745" user="NE2" changeset="9991336">
    <nd ref="660612590"/>
    <nd ref="122203317"/>
    <tag k="NHS" v="yes"/>
    <tag k="bridge" v="yes"/>
    <tag k="hgv" v="designated"/>
    <tag k="hgv:national_network" v="yes"/>
    <tag k="highway" v="motorway"/>
    <tag k="lanes" v="2"/>
    <tag k="layer" v="1"/>
    <tag k="name" v="West Kellogg Street"/>
    <tag k="oneway" v="yes"/>
    <tag k="ref" v="US 54; US 400"/>
    <tag k="tiger:cfcc" v="A25"/>
    <tag k="tiger:county" v="Sedgwick, KS"/>
    <tag k="tiger:name_base" v="Kellogg"/>
    <tag k="tiger:name_base_1" v="Harry"/>
    <tag k="tiger:name_direction_prefix" v="W"/>
    <tag k="tiger:name_type" v="St"/>
    <tag k="tiger:separated" v="yes"/>
    <tag k="tiger:source" v="tiger_import_dch_v0.6_20070812"/>
    <tag k="tiger:tlid" v="115708699:115717297:115694103"/>
  </way>
  <way id="51765328" version="12" timestamp="2011-11-30T05:57:29Z" uid="262151" user="ToeBee" changeset="9995740">
    <nd ref="660612590"/>
    <nd ref="122203317"/>
    <tag k="NHS" v="yes"/>
    <tag k="bridge" v="yes"/>
    <tag k="hgv" v="designated"/>
    <tag k="hgv:national_network" v="yes"/>
    <tag k="highway" v="motorway"/>
    <tag k="lanes" v="2"/>
    <tag k="layer" v="1"/>
    <tag k="maxspeed" v="60 mph"/>
    <tag k="name" v="West Kellogg Street"/>
    <tag k="oneway" v="yes"/>
    <tag k="ref" v="US 54; US 400"/>
    <tag k="tiger:cfcc" v="A25"/>
    <tag k="tiger:county" v="Sedgwick, KS"/>
    <tag k="tiger:name_base" v="Kellogg"/>
    <tag k="tiger:name_base_1" v="Harry"/>
    <tag k="tiger:name_direction_prefix" v="W"/>
    <tag k="tiger:name_type" v="St"/>
    <tag k="tiger:source" v="tiger_import_dch_v0.6_20070812"/>
    <tag k="tiger:tlid" v="115708699:115717297:115694103"/>
  </way>
  <way id="51765346" version="4" timestamp="2010-04-06T14:54:53Z" uid="20587" user="balrog-kun" changeset="4342997">
    <nd ref="122203317"/>
    <nd ref="122203328"/>
    <nd ref="122200143"/>
    <nd ref="122203332"/>
    <tag k="highway" v="motorway"/>
    <tag k="name" v="West Kellogg Street"/>
    <tag k="oneway" v="yes"/>
    <tag k="ref" v="US 54; US 400"/>
    <tag k="tiger:cfcc" v="A25"/>
    <tag k="tiger:county" v="Sedgwick, KS"/>
    <tag k="tiger:name_base" v="Kellogg"/>
    <tag k="tiger:name_base_1" v="Harry"/>
    <tag k="tiger:name_base_2" v="United States Highway 54"/>
    <tag k="tiger:name_base_3" v="United States Highway 400"/>
    <tag k="tiger:name_direction_prefix" v="W"/>
    <tag k="tiger:name_direction_prefix_1" v="W"/>
    <tag k="tiger:name_type" v="St"/>
    <tag k="tiger:name_type_1" v="St"/>
    <tag k="tiger:reviewed" v="no"/>
    <tag k="tiger:separated" v="yes"/>
    <tag k="tiger:source" v="tiger_import_dch_v0.6_20070812"/>
    <tag k="tiger:tlid" v="115708699:115717297:115694103"/>
  </way>
  <way id="51765346" version="5" timestamp="2010-05-02T23:05:40Z" uid="262151" user="ToeBee" changeset="4590676">
    <nd ref="122203317"/>
    <nd ref="122203328"/>
    <nd ref="122200143"/>
    <nd ref="718041478"/>
    <nd ref="122203332"/>
    <tag k="highway" v="motorway"/>
    <tag k="name" v="West Kellogg Street"/>
    <tag k="oneway" v="yes"/>
    <tag k="ref" v="US 54; US 400"/>
    <tag k="tiger:cfcc" v="A25"/>
    <tag k="tiger:county" v="Sedgwick, KS"/>
    <tag k="tiger:name_base" v="Kellogg"/>
    <tag k="tiger:name_base_1" v="Harry"/>
    <tag k="tiger:name_base_2" v="United States Highway 54"/>
    <tag k="tiger:name_base_3" v="United States Highway 400"/>
    <tag k="tiger:name_direction_prefix" v="W"/>
    <tag k="tiger:name_type" v="St"/>
    <tag k="tiger:separated" v="yes"/>
    <tag k="tiger:source" v="tiger_import_dch_v0.6_20070812"/>
    <tag k="tiger:tlid" v="115708699:115717297:115694103"/>
  </way>
  <way id="51765346" version="6" timestamp="2010-07-30T06:17:24Z" uid="262151" user="ToeBee" changeset="5351714">
    <nd ref="122203317"/>
    <nd ref="122203328"/>
    <nd ref="122200143"/>
    <nd ref="718041478"/>
    <nd ref="122203332"/>
    <tag k="highway" v="motorway"/>
    <tag k="name" v="West Kellogg Street"/>
    <tag k="oneway" v="yes"/>
    <tag k="ref" v="US 54; US 400"/>
    <tag k="tiger:cfcc" v="A25"/>
    <tag k="tiger:county" v="Sedgwick, KS"/>
    <tag k="tiger:name_base" v="Kellogg"/>
    <tag k="tiger:name_base_1" v="Harry"/>
    <tag k="tiger:name_direction_prefix" v="W"/>
    <tag k="tiger:name_type" v="St"/>
    <tag k="tiger:separated" v="yes"/>
    <tag k="tiger:source" v="tiger_import_dch_v0.6_20070812"/>
    <tag k="tiger:tlid" v="115708699:115717297:115694103"/>
  </way>
  <way id="51765346" version="7" timestamp="2010-12-12T01:20:25Z" uid="207745" user="NE2" changeset="6629847">
    <nd ref="122203317"/>
    <nd ref="122203328"/>
    <nd ref="122200143"/>
    <nd ref="718041478"/>
    <nd ref="122203332"/>
    <tag k="NHS_High_Priority_Corridor" v="3"/>
    <tag k="highway" v="motorway"/>
    <tag k="name" v="West Kellogg Street"/>
    <tag k="oneway" v="yes"/>
    <tag k="ref" v="US 54; US 400"/>
    <tag k="tiger:cfcc" v="A25"/>
    <tag k="tiger:county" v="Sedgwick, KS"/>
    <tag k="tiger:name_base" v="Kellogg"/>
    <tag k="tiger:name_base_1" v="Harry"/>
    <tag k="tiger:name_direction_prefix" v="W"/>
    <tag k="tiger:name_type" v="St"/>
    <tag k="tiger:separated" v="yes"/>
    <tag k="tiger:source" v="tiger_import_dch_v0.6_20070812"/>
    <tag k="tiger:tlid" v="115708699:115717297:115694103"/>
  </way>
  <way id="51765346" version="8" timestamp="2010-12-13T03:29:04Z" uid="207745" user="NE2" changeset="6644142">
    <nd ref="122203317"/>
    <nd ref="122203328"/>
    <nd ref="122200143"/>
    <nd ref="718041478"/>
    <nd ref="122203332"/>
    <tag k="highway" v="motorway"/>
    <tag k="name" v="West Kellogg Street"/>
    <tag k="oneway" v="yes"/>
    <tag k="ref" v="US 54; US 400"/>
    <tag k="tiger:cfcc" v="A25"/>
    <tag k="tiger:county" v="Sedgwick, KS"/>
    <tag k="tiger:name_base" v="Kellogg"/>
    <tag k="tiger:name_base_1" v="Harry"/>
    <tag k="tiger:name_direction_prefix" v="W"/>
    <tag k="tiger:name_type" v="St"/>
    <tag k="tiger:separated" v="yes"/>
    <tag k="tiger:source" v="tiger_import_dch_v0.6_20070812"/>
    <tag k="tiger:tlid" v="115708699:115717297:115694103"/>
  </way>
  <way id="51765346" version="9" timestamp="2011-05-29T19:21:56Z" uid="207745" user="NE2" changeset="8284955">
    <nd ref="122203317"/>
    <nd ref="122203328"/>
    <nd ref="122200143"/>
    <nd ref="718041478"/>
    <nd ref="122203332"/>
    <tag k="highway" v="motorway"/>
    <tag k="lanes" v="2"/>
    <tag k="name" v="West Kellogg Street"/>
    <tag k="oneway" v="yes"/>
    <tag k="ref" v="US 54; US 400"/>
    <tag k="tiger:cfcc" v="A25"/>
    <tag k="tiger:county" v="Sedgwick, KS"/>
    <tag k="tiger:name_base" v="Kellogg"/>
    <tag k="tiger:name_base_1" v="Harry"/>
    <tag k="tiger:name_direction_prefix" v="W"/>
    <tag k="tiger:name_type" v="St"/>
    <tag k="tiger:separated" v="yes"/>
    <tag k="tiger:source" v="tiger_import_dch_v0.6_20070812"/>
    <tag k="tiger:tlid" v="115708699:115717297:115694103"/>
  </way>
  <way id="51765346" version="10" timestamp="2011-07-07T02:13:32Z" uid="473471" user="NE3" changeset="8653554">
    <nd ref="122203317"/>
    <nd ref="122203328"/>
    <nd ref="122200143"/>
    <nd ref="718041478"/>
    <nd ref="122203332"/>
    <tag k="NHS" v="yes"/>
    <tag k="highway" v="motorway"/>
    <tag k="lanes" v="2"/>
    <tag k="name" v="West Kellogg Street"/>
    <tag k="oneway" v="yes"/>
    <tag k="ref" v="US 54; US 400"/>
    <tag k="tiger:cfcc" v="A25"/>
    <tag k="tiger:county" v="Sedgwick, KS"/>
    <tag k="tiger:name_base" v="Kellogg"/>
    <tag k="tiger:name_base_1" v="Harry"/>
    <tag k="tiger:name_direction_prefix" v="W"/>
    <tag k="tiger:name_type" v="St"/>
    <tag k="tiger:separated" v="yes"/>
    <tag k="tiger:source" v="tiger_import_dch_v0.6_20070812"/>
    <tag k="tiger:tlid" v="115708699:115717297:115694103"/>
  </way>
  <way id="51765346" version="11" timestamp="2011-11-29T19:54:05Z" uid="207745" user="NE2" changeset="9991336">
    <nd ref="122203317"/>
    <nd ref="122203328"/>
    <nd ref="122200143"/>
    <nd ref="718041478"/>
    <nd ref="122203332"/>
    <tag k="NHS" v="yes"/>
    <tag k="hgv" v="designated"/>
    <tag k="hgv:national_network" v="yes"/>
    <tag k="highway" v="motorway"/>
    <tag k="lanes" v="2"/>
    <tag k="name" v="West Kellogg Street"/>
    <tag k="oneway" v="yes"/>
    <tag k="ref" v="US 54; US 400"/>
    <tag k="tiger:cfcc" v="A25"/>
    <tag k="tiger:county" v="Sedgwick, KS"/>
    <tag k="tiger:name_base" v="Kellogg"/>
    <tag k="tiger:name_base_1" v="Harry"/>
    <tag k="tiger:name_direction_prefix" v="W"/>
    <tag k="tiger:name_type" v="St"/>
    <tag k="tiger:separated" v="yes"/>
    <tag k="tiger:source" v="tiger_import_dch_v0.6_20070812"/>
    <tag k="tiger:tlid" v="115708699:115717297:115694103"/>
  </way>
  <way id="51765346" version="12" timestamp="2011-11-30T05:57:48Z" uid="262151" user="ToeBee" changeset="9995740">
    <nd ref="122203317"/>
    <nd ref="122203328"/>
    <nd ref="122200143"/>
    <nd ref="718041478"/>
    <nd ref="122203332"/>
    <tag k="NHS" v="yes"/>
    <tag k="hgv" v="designated"/>
    <tag k="hgv:national_network" v="yes"/>
    <tag k="highway" v="motorway"/>
    <tag k="lanes" v="2"/>
    <tag k="maxspeed" v="60 mph"/>
    <tag k="name" v="West Kellogg Street"/>
    <tag k="oneway" v="yes"/>
    <tag k="ref" v="US 54; US 400"/>
    <tag k="tiger:cfcc" v="A25"/>
    <tag k="tiger:county" v="Sedgwick, KS"/>
    <tag k="tiger:name_base" v="Kellogg"/>
    <tag k="tiger:name_base_1" v="Harry"/>
    <tag k="tiger:name_direction_prefix" v="W"/>
    <tag k="tiger:name_type" v="St"/>
    <tag k="tiger:source" v="tiger_import_dch_v0.6_20070812"/>
    <tag k="tiger:tlid" v="115708699:115717297:115694103"/>
  </way>
  <way id="51765365" version="4" timestamp="2010-04-06T14:54:54Z" uid="20587" user="balrog-kun" changeset="4342997">
    <nd ref="122203873"/>
    <nd ref="122203858"/>
    <tag k="bridge" v="yes"/>
    <tag k="highway" v="motorway"/>
    <tag k="layer" v="1"/>
    <tag k="name" v="West Kellogg Street"/>
    <tag k="oneway" v="yes"/>
    <tag k="ref" v="US 54; US 400"/>
    <tag k="tiger:cfcc" v="A25"/>
    <tag k="tiger:county" v="Sedgwick, KS"/>
    <tag k="tiger:name_base" v="Kellogg"/>
    <tag k="tiger:name_base_1" v="United States Highway 54"/>
    <tag k="tiger:name_base_2" v="United States Highway 400"/>
    <tag k="tiger:name_direction_prefix" v="W"/>
    <tag k="tiger:name_type" v="St"/>
    <tag k="tiger:reviewed" v="aerial"/>
    <tag k="tiger:separated" v="yes"/>
    <tag k="tiger:source" v="tiger_import_dch_v0.6_20070812"/>
    <tag k="tiger:tlid" v="115713079:115679183:115706497"/>
    <tag k="tiger:zip_left" v="67209"/>
  </way>
  <way id="51765365" version="5" timestamp="2010-05-02T23:21:53Z" uid="262151" user="ToeBee" changeset="4590676">
    <nd ref="122203873"/>
    <nd ref="122203858"/>
    <tag k="bridge" v="yes"/>
    <tag k="highway" v="motorway"/>
    <tag k="layer" v="1"/>
    <tag k="name" v="West Kellogg Street"/>
    <tag k="oneway" v="yes"/>
    <tag k="ref" v="US 54; US 400"/>
    <tag k="tiger:cfcc" v="A25"/>
    <tag k="tiger:county" v="Sedgwick, KS"/>
    <tag k="tiger:name_base" v="Kellogg"/>
    <tag k="tiger:name_base_1" v="United States Highway 54"/>
    <tag k="tiger:name_base_2" v="United States Highway 400"/>
    <tag k="tiger:name_direction_prefix" v="W"/>
    <tag k="tiger:name_type" v="St"/>
    <tag k="tiger:separated" v="yes"/>
    <tag k="tiger:source" v="tiger_import_dch_v0.6_20070812"/>
    <tag k="tiger:tlid" v="115713079:115679183:115706497"/>
    <tag k="tiger:zip_left" v="67209"/>
  </way>
  <way id="51765365" version="6" timestamp="2010-07-30T06:17:25Z" uid="262151" user="ToeBee" changeset="5351714">
    <nd ref="122203873"/>
    <nd ref="122203858"/>
    <tag k="bridge" v="yes"/>
    <tag k="highway" v="motorway"/>
    <tag k="layer" v="1"/>
    <tag k="name" v="West Kellogg Street"/>
    <tag k="oneway" v="yes"/>
    <tag k="ref" v="US 54; US 400"/>
    <tag k="tiger:cfcc" v="A25"/>
    <tag k="tiger:county" v="Sedgwick, KS"/>
    <tag k="tiger:name_base" v="Kellogg"/>
    <tag k="tiger:name_direction_prefix" v="W"/>
    <tag k="tiger:name_type" v="St"/>
    <tag k="tiger:separated" v="yes"/>
    <tag k="tiger:source" v="tiger_import_dch_v0.6_20070812"/>
    <tag k="tiger:tlid" v="115713079:115679183:115706497"/>
    <tag k="tiger:zip_left" v="67209"/>
  </way>
  <way id="51765365" version="7" timestamp="2010-12-12T01:18:43Z" uid="207745" user="NE2" changeset="6629847">
    <nd ref="122203873"/>
    <nd ref="122203858"/>
    <tag k="NHS_High_Priority_Corridor" v="3"/>
    <tag k="bridge" v="yes"/>
    <tag k="highway" v="motorway"/>
    <tag k="layer" v="1"/>
    <tag k="name" v="West Kellogg Street"/>
    <tag k="oneway" v="yes"/>
    <tag k="ref" v="US 54; US 400"/>
    <tag k="tiger:cfcc" v="A25"/>
    <tag k="tiger:county" v="Sedgwick, KS"/>
    <tag k="tiger:name_base" v="Kellogg"/>
    <tag k="tiger:name_direction_prefix" v="W"/>
    <tag k="tiger:name_type" v="St"/>
    <tag k="tiger:separated" v="yes"/>
    <tag k="tiger:source" v="tiger_import_dch_v0.6_20070812"/>
    <tag k="tiger:tlid" v="115713079:115679183:115706497"/>
    <tag k="tiger:zip_left" v="67209"/>
  </way>
  <way id="51765365" version="8" timestamp="2010-12-13T04:28:59Z" uid="207745" user="NE2" changeset="6644142">
    <nd ref="122203873"/>
    <nd ref="122203858"/>
    <tag k="bridge" v="yes"/>
    <tag k="highway" v="motorway"/>
    <tag k="layer" v="1"/>
    <tag k="name" v="West Kellogg Street"/>
    <tag k="oneway" v="yes"/>
    <tag k="ref" v="US 54; US 400"/>
    <tag k="tiger:cfcc" v="A25"/>
    <tag k="tiger:county" v="Sedgwick, KS"/>
    <tag k="tiger:name_base" v="Kellogg"/>
    <tag k="tiger:name_direction_prefix" v="W"/>
    <tag k="tiger:name_type" v="St"/>
    <tag k="tiger:separated" v="yes"/>
    <tag k="tiger:source" v="tiger_import_dch_v0.6_20070812"/>
    <tag k="tiger:tlid" v="115713079:115679183:115706497"/>
    <tag k="tiger:zip_left" v="67209"/>
  </way>
  <way id="51765365" version="9" timestamp="2011-05-29T19:20:22Z" uid="207745" user="NE2" changeset="8284955">
    <nd ref="122203873"/>
    <nd ref="122203858"/>
    <tag k="bridge" v="yes"/>
    <tag k="highway" v="motorway"/>
    <tag k="lanes" v="2"/>
    <tag k="layer" v="1"/>
    <tag k="name" v="West Kellogg Street"/>
    <tag k="oneway" v="yes"/>
    <tag k="ref" v="US 54; US 400"/>
    <tag k="tiger:cfcc" v="A25"/>
    <tag k="tiger:county" v="Sedgwick, KS"/>
    <tag k="tiger:name_base" v="Kellogg"/>
    <tag k="tiger:name_direction_prefix" v="W"/>
    <tag k="tiger:name_type" v="St"/>
    <tag k="tiger:separated" v="yes"/>
    <tag k="tiger:source" v="tiger_import_dch_v0.6_20070812"/>
    <tag k="tiger:tlid" v="115713079:115679183:115706497"/>
    <tag k="tiger:zip_left" v="67209"/>
  </way>
  <way id="51765365" version="10" timestamp="2011-06-19T11:36:38Z" uid="207745" user="NE2" changeset="8482682">
    <nd ref="122203873"/>
    <nd ref="122203858"/>
    <tag k="bridge" v="yes"/>
    <tag k="highway" v="motorway"/>
    <tag k="lanes" v="3"/>
    <tag k="layer" v="1"/>
    <tag k="name" v="West Kellogg Street"/>
    <tag k="oneway" v="yes"/>
    <tag k="ref" v="US 54; US 400"/>
    <tag k="tiger:cfcc" v="A25"/>
    <tag k="tiger:county" v="Sedgwick, KS"/>
    <tag k="tiger:name_base" v="Kellogg"/>
    <tag k="tiger:name_direction_prefix" v="W"/>
    <tag k="tiger:name_type" v="St"/>
    <tag k="tiger:separated" v="yes"/>
    <tag k="tiger:source" v="tiger_import_dch_v0.6_20070812"/>
    <tag k="tiger:tlid" v="115713079:115679183:115706497"/>
    <tag k="tiger:zip_left" v="67209"/>
  </way>
  <way id="51765365" version="11" timestamp="2011-07-07T02:13:17Z" uid="473471" user="NE3" changeset="8653554">
    <nd ref="122203873"/>
    <nd ref="122203858"/>
    <tag k="NHS" v="yes"/>
    <tag k="bridge" v="yes"/>
    <tag k="highway" v="motorway"/>
    <tag k="lanes" v="3"/>
    <tag k="layer" v="1"/>
    <tag k="name" v="West Kellogg Street"/>
    <tag k="oneway" v="yes"/>
    <tag k="ref" v="US 54; US 400"/>
    <tag k="tiger:cfcc" v="A25"/>
    <tag k="tiger:county" v="Sedgwick, KS"/>
    <tag k="tiger:name_base" v="Kellogg"/>
    <tag k="tiger:name_direction_prefix" v="W"/>
    <tag k="tiger:name_type" v="St"/>
    <tag k="tiger:separated" v="yes"/>
    <tag k="tiger:source" v="tiger_import_dch_v0.6_20070812"/>
    <tag k="tiger:tlid" v="115713079:115679183:115706497"/>
    <tag k="tiger:zip_left" v="67209"/>
  </way>
  <way id="51765365" version="12" timestamp="2011-11-29T19:53:26Z" uid="207745" user="NE2" changeset="9991336">
    <nd ref="122203873"/>
    <nd ref="122203858"/>
    <tag k="NHS" v="yes"/>
    <tag k="bridge" v="yes"/>
    <tag k="hgv" v="designated"/>
    <tag k="hgv:national_network" v="yes"/>
    <tag k="highway" v="motorway"/>
    <tag k="lanes" v="3"/>
    <tag k="layer" v="1"/>
    <tag k="name" v="West Kellogg Street"/>
    <tag k="oneway" v="yes"/>
    <tag k="ref" v="US 54; US 400"/>
    <tag k="tiger:cfcc" v="A25"/>
    <tag k="tiger:county" v="Sedgwick, KS"/>
    <tag k="tiger:name_base" v="Kellogg"/>
    <tag k="tiger:name_direction_prefix" v="W"/>
    <tag k="tiger:name_type" v="St"/>
    <tag k="tiger:separated" v="yes"/>
    <tag k="tiger:source" v="tiger_import_dch_v0.6_20070812"/>
    <tag k="tiger:tlid" v="115713079:115679183:115706497"/>
    <tag k="tiger:zip_left" v="67209"/>
  </way>
  <way id="51765365" version="13" timestamp="2011-11-30T05:57:34Z" uid="262151" user="ToeBee" changeset="9995740">
    <nd ref="122203873"/>
    <nd ref="122203858"/>
    <tag k="NHS" v="yes"/>
    <tag k="bridge" v="yes"/>
    <tag k="hgv" v="designated"/>
    <tag k="hgv:national_network" v="yes"/>
    <tag k="highway" v="motorway"/>
    <tag k="lanes" v="3"/>
    <tag k="layer" v="1"/>
    <tag k="maxspeed" v="60 mph"/>
    <tag k="name" v="West Kellogg Street"/>
    <tag k="oneway" v="yes"/>
    <tag k="ref" v="US 54; US 400"/>
    <tag k="tiger:cfcc" v="A25"/>
    <tag k="tiger:county" v="Sedgwick, KS"/>
    <tag k="tiger:name_base" v="Kellogg"/>
    <tag k="tiger:name_direction_prefix" v="W"/>
    <tag k="tiger:name_type" v="St"/>
    <tag k="tiger:source" v="tiger_import_dch_v0.6_20070812"/>
    <tag k="tiger:tlid" v="115713079:115679183:115706497"/>
    <tag k="tiger:zip_left" v="67209"/>
  </way>
  <way id="51765366" version="1" timestamp="2010-03-05T10:48:49Z" uid="4467" user="Rosscoe" changeset="4039687">
    <nd ref="660612939"/>
    <nd ref="660612935"/>
    <nd ref="660612936"/>
    <nd ref="660612937"/>
    <nd ref="660612928"/>
    <nd ref="660612929"/>
    <nd ref="660612930"/>
    <nd ref="660612927"/>
    <nd ref="660612934"/>
    <nd ref="660612919"/>
    <nd ref="660612920"/>
    <nd ref="660612921"/>
    <nd ref="660612922"/>
    <nd ref="660612918"/>
    <nd ref="660612925"/>
    <nd ref="660612926"/>
    <nd ref="660612924"/>
    <nd ref="660612917"/>
    <nd ref="660612923"/>
    <nd ref="660612931"/>
    <nd ref="660612932"/>
    <nd ref="660612938"/>
    <nd ref="660612939"/>
    <tag k="leisure" v="park"/>
    <tag k="name" v="Australian Trackers and Dogs Memorial Park"/>
  </way>
  <way id="51765367" version="1" timestamp="2010-03-05T10:48:49Z" uid="4467" user="Rosscoe" changeset="4039687">
    <nd ref="660612943"/>
    <nd ref="660612942"/>
    <tag k="bridge" v="yes"/>
    <tag k="highway" v="tertiary"/>
    <tag k="layer" v="1"/>
    <tag k="name" v="Main Road"/>
    <tag k="source" v="yahool;knowledge"/>
  </way>
  <way id="51765367" version="2" timestamp="2010-03-20T10:02:30Z" uid="4467" user="Rosscoe" changeset="4177784">
    <nd ref="660612943"/>
    <nd ref="660612942"/>
    <tag k="bridge" v="yes"/>
    <tag k="highway" v="tertiary"/>
    <tag k="layer" v="1"/>
    <tag k="name" v="Main Road"/>
    <tag k="source" v="survey"/>
  </way>
  <way id="51765368" version="1" timestamp="2010-03-05T10:48:49Z" uid="4467" user="Rosscoe" changeset="4039687">
    <nd ref="660612942"/>
    <nd ref="143390710"/>
    <nd ref="143390711"/>
    <nd ref="143390712"/>
    <tag k="highway" v="tertiary"/>
    <tag k="name" v="Main Road"/>
    <tag k="source" v="yahoo;knowledge"/>
  </way>
  <way id="51765368" version="2" timestamp="2010-03-20T10:02:30Z" uid="4467" user="Rosscoe" changeset="4177784">
    <nd ref="660612942"/>
    <nd ref="143390710"/>
    <tag k="highway" v="tertiary"/>
    <tag k="name" v="Main Road"/>
    <tag k="source" v="survey"/>
  </way>
  <way id="51765369" version="1" timestamp="2010-03-05T10:48:49Z" uid="4467" user="Rosscoe" changeset="4039687">
    <nd ref="143390710"/>
    <nd ref="238846898"/>
    <nd ref="238846927"/>
    <nd ref="238846961"/>
    <tag k="highway" v="tertiary"/>
  </way>
  <way id="51765369" version="2" timestamp="2010-03-20T10:02:30Z" uid="4467" user="Rosscoe" changeset="4177784">
    <nd ref="143390710"/>
    <nd ref="670264244"/>
    <nd ref="238846898"/>
    <nd ref="670264247"/>
    <nd ref="238846927"/>
    <nd ref="670264246"/>
    <nd ref="238846961"/>
    <tag k="highway" v="tertiary"/>
    <tag k="oneway" v="yes"/>
    <tag k="source" v="survey"/>
  </way>
  <way id="51765371" version="2" timestamp="2010-04-06T14:54:54Z" uid="20587" user="balrog-kun" changeset="4342997">
    <nd ref="122203858"/>
    <nd ref="122203850"/>
    <nd ref="122203843"/>
    <nd ref="122203839"/>
    <tag k="highway" v="motorway"/>
    <tag k="name" v="West Kellogg Street"/>
    <tag k="oneway" v="yes"/>
    <tag k="ref" v="US 54; US 400"/>
    <tag k="tiger:cfcc" v="A25"/>
    <tag k="tiger:county" v="Sedgwick, KS"/>
    <tag k="tiger:name_base" v="Kellogg"/>
    <tag k="tiger:name_base_1" v="United States Highway 54"/>
    <tag k="tiger:name_base_2" v="United States Highway 400"/>
    <tag k="tiger:name_direction_prefix" v="W"/>
    <tag k="tiger:name_type" v="St"/>
    <tag k="tiger:reviewed" v="no"/>
    <tag k="tiger:separated" v="yes"/>
    <tag k="tiger:source" v="tiger_import_dch_v0.6_20070812"/>
    <tag k="tiger:tlid" v="115713079:115679183:115706497"/>
    <tag k="tiger:zip_left" v="67209"/>
  </way>
  <way id="51765371" version="3" timestamp="2010-05-02T23:21:54Z" uid="262151" user="ToeBee" changeset="4590676">
    <nd ref="122203858"/>
    <nd ref="122203850"/>
    <nd ref="122203843"/>
    <nd ref="122203839"/>
    <tag k="highway" v="motorway"/>
    <tag k="name" v="West Kellogg Street"/>
    <tag k="oneway" v="yes"/>
    <tag k="ref" v="US 54; US 400"/>
    <tag k="tiger:cfcc" v="A25"/>
    <tag k="tiger:county" v="Sedgwick, KS"/>
    <tag k="tiger:name_base" v="Kellogg"/>
    <tag k="tiger:name_base_1" v="United States Highway 54"/>
    <tag k="tiger:name_base_2" v="United States Highway 400"/>
    <tag k="tiger:name_direction_prefix" v="W"/>
    <tag k="tiger:name_type" v="St"/>
    <tag k="tiger:separated" v="yes"/>
    <tag k="tiger:source" v="tiger_import_dch_v0.6_20070812"/>
    <tag k="tiger:tlid" v="115713079:115679183:115706497"/>
    <tag k="tiger:zip_left" v="67209"/>
  </way>
  <way id="51765371" version="4" timestamp="2010-07-30T06:17:34Z" uid="262151" user="ToeBee" changeset="5351714">
    <nd ref="122203858"/>
    <nd ref="122203850"/>
    <nd ref="122203843"/>
    <nd ref="122203839"/>
    <tag k="highway" v="motorway"/>
    <tag k="name" v="West Kellogg Street"/>
    <tag k="oneway" v="yes"/>
    <tag k="ref" v="US 54; US 400"/>
    <tag k="tiger:cfcc" v="A25"/>
    <tag k="tiger:county" v="Sedgwick, KS"/>
    <tag k="tiger:name_base" v="Kellogg"/>
    <tag k="tiger:name_direction_prefix" v="W"/>
    <tag k="tiger:name_type" v="St"/>
    <tag k="tiger:separated" v="yes"/>
    <tag k="tiger:source" v="tiger_import_dch_v0.6_20070812"/>
    <tag k="tiger:tlid" v="115713079:115679183:115706497"/>
    <tag k="tiger:zip_left" v="67209"/>
  </way>
  <way id="51765371" version="5" timestamp="2010-12-12T01:18:35Z" uid="207745" user="NE2" changeset="6629847">
    <nd ref="122203858"/>
    <nd ref="122203850"/>
    <nd ref="122203843"/>
    <nd ref="122203839"/>
    <tag k="NHS_High_Priority_Corridor" v="3"/>
    <tag k="highway" v="motorway"/>
    <tag k="name" v="West Kellogg Street"/>
    <tag k="oneway" v="yes"/>
    <tag k="ref" v="US 54; US 400"/>
    <tag k="tiger:cfcc" v="A25"/>
    <tag k="tiger:county" v="Sedgwick, KS"/>
    <tag k="tiger:name_base" v="Kellogg"/>
    <tag k="tiger:name_direction_prefix" v="W"/>
    <tag k="tiger:name_type" v="St"/>
    <tag k="tiger:separated" v="yes"/>
    <tag k="tiger:source" v="tiger_import_dch_v0.6_20070812"/>
    <tag k="tiger:tlid" v="115713079:115679183:115706497"/>
    <tag k="tiger:zip_left" v="67209"/>
  </way>
  <way id="51765371" version="6" timestamp="2010-12-13T03:59:26Z" uid="207745" user="NE2" changeset="6644142">
    <nd ref="122203858"/>
    <nd ref="122203850"/>
    <nd ref="122203843"/>
    <nd ref="122203839"/>
    <tag k="highway" v="motorway"/>
    <tag k="name" v="West Kellogg Street"/>
    <tag k="oneway" v="yes"/>
    <tag k="ref" v="US 54; US 400"/>
    <tag k="tiger:cfcc" v="A25"/>
    <tag k="tiger:county" v="Sedgwick, KS"/>
    <tag k="tiger:name_base" v="Kellogg"/>
    <tag k="tiger:name_direction_prefix" v="W"/>
    <tag k="tiger:name_type" v="St"/>
    <tag k="tiger:separated" v="yes"/>
    <tag k="tiger:source" v="tiger_import_dch_v0.6_20070812"/>
    <tag k="tiger:tlid" v="115713079:115679183:115706497"/>
    <tag k="tiger:zip_left" v="67209"/>
  </way>
  <way id="51765371" version="7" timestamp="2011-05-29T19:22:16Z" uid="207745" user="NE2" changeset="8284955">
    <nd ref="122203858"/>
    <nd ref="122203850"/>
    <nd ref="122203843"/>
    <nd ref="122203839"/>
    <tag k="highway" v="motorway"/>
    <tag k="lanes" v="2"/>
    <tag k="name" v="West Kellogg Street"/>
    <tag k="oneway" v="yes"/>
    <tag k="ref" v="US 54; US 400"/>
    <tag k="tiger:cfcc" v="A25"/>
    <tag k="tiger:county" v="Sedgwick, KS"/>
    <tag k="tiger:name_base" v="Kellogg"/>
    <tag k="tiger:name_direction_prefix" v="W"/>
    <tag k="tiger:name_type" v="St"/>
    <tag k="tiger:separated" v="yes"/>
    <tag k="tiger:source" v="tiger_import_dch_v0.6_20070812"/>
    <tag k="tiger:tlid" v="115713079:115679183:115706497"/>
    <tag k="tiger:zip_left" v="67209"/>
  </way>
  <way id="51765371" version="8" timestamp="2011-06-19T11:33:50Z" uid="207745" user="NE2" changeset="8482682">
    <nd ref="122203858"/>
    <nd ref="122203850"/>
    <nd ref="122203843"/>
    <nd ref="122203839"/>
    <tag k="highway" v="motorway"/>
    <tag k="lanes" v="3"/>
    <tag k="name" v="West Kellogg Street"/>
    <tag k="oneway" v="yes"/>
    <tag k="ref" v="US 54; US 400"/>
    <tag k="tiger:cfcc" v="A25"/>
    <tag k="tiger:county" v="Sedgwick, KS"/>
    <tag k="tiger:name_base" v="Kellogg"/>
    <tag k="tiger:name_direction_prefix" v="W"/>
    <tag k="tiger:name_type" v="St"/>
    <tag k="tiger:separated" v="yes"/>
    <tag k="tiger:source" v="tiger_import_dch_v0.6_20070812"/>
    <tag k="tiger:tlid" v="115713079:115679183:115706497"/>
    <tag k="tiger:zip_left" v="67209"/>
  </way>
  <way id="51765371" version="9" timestamp="2011-07-07T02:13:29Z" uid="473471" user="NE3" changeset="8653554">
    <nd ref="122203858"/>
    <nd ref="122203850"/>
    <nd ref="122203843"/>
    <nd ref="122203839"/>
    <tag k="NHS" v="yes"/>
    <tag k="highway" v="motorway"/>
    <tag k="lanes" v="3"/>
    <tag k="name" v="West Kellogg Street"/>
    <tag k="oneway" v="yes"/>
    <tag k="ref" v="US 54; US 400"/>
    <tag k="tiger:cfcc" v="A25"/>
    <tag k="tiger:county" v="Sedgwick, KS"/>
    <tag k="tiger:name_base" v="Kellogg"/>
    <tag k="tiger:name_direction_prefix" v="W"/>
    <tag k="tiger:name_type" v="St"/>
    <tag k="tiger:separated" v="yes"/>
    <tag k="tiger:source" v="tiger_import_dch_v0.6_20070812"/>
    <tag k="tiger:tlid" v="115713079:115679183:115706497"/>
    <tag k="tiger:zip_left" v="67209"/>
  </way>
  <way id="51765371" version="10" timestamp="2011-11-29T19:53:58Z" uid="207745" user="NE2" changeset="9991336">
    <nd ref="122203858"/>
    <nd ref="122203850"/>
    <nd ref="122203843"/>
    <nd ref="122203839"/>
    <tag k="NHS" v="yes"/>
    <tag k="hgv" v="designated"/>
    <tag k="hgv:national_network" v="yes"/>
    <tag k="highway" v="motorway"/>
    <tag k="lanes" v="3"/>
    <tag k="name" v="West Kellogg Street"/>
    <tag k="oneway" v="yes"/>
    <tag k="ref" v="US 54; US 400"/>
    <tag k="tiger:cfcc" v="A25"/>
    <tag k="tiger:county" v="Sedgwick, KS"/>
    <tag k="tiger:name_base" v="Kellogg"/>
    <tag k="tiger:name_direction_prefix" v="W"/>
    <tag k="tiger:name_type" v="St"/>
    <tag k="tiger:separated" v="yes"/>
    <tag k="tiger:source" v="tiger_import_dch_v0.6_20070812"/>
    <tag k="tiger:tlid" v="115713079:115679183:115706497"/>
    <tag k="tiger:zip_left" v="67209"/>
  </way>
  <way id="51765371" version="11" timestamp="2011-11-30T05:57:44Z" uid="262151" user="ToeBee" changeset="9995740">
    <nd ref="122203858"/>
    <nd ref="122203850"/>
    <nd ref="122203843"/>
    <nd ref="122203839"/>
    <tag k="NHS" v="yes"/>
    <tag k="hgv" v="designated"/>
    <tag k="hgv:national_network" v="yes"/>
    <tag k="highway" v="motorway"/>
    <tag k="lanes" v="3"/>
    <tag k="maxspeed" v="60 mph"/>
    <tag k="name" v="West Kellogg Street"/>
    <tag k="oneway" v="yes"/>
    <tag k="ref" v="US 54; US 400"/>
    <tag k="tiger:cfcc" v="A25"/>
    <tag k="tiger:county" v="Sedgwick, KS"/>
    <tag k="tiger:name_base" v="Kellogg"/>
    <tag k="tiger:name_direction_prefix" v="W"/>
    <tag k="tiger:name_type" v="St"/>
    <tag k="tiger:source" v="tiger_import_dch_v0.6_20070812"/>
    <tag k="tiger:tlid" v="115713079:115679183:115706497"/>
    <tag k="tiger:zip_left" v="67209"/>
  </way>
  <way id="51765557" version="2" timestamp="2010-07-18T20:13:28Z" uid="23543" user="jkjk" changeset="5255093">
    <nd ref="660614166"/>
    <nd ref="660614167"/>
    <nd ref="660614168"/>
    <nd ref="823623146"/>
    <nd ref="660614169"/>
    <nd ref="660614170"/>
    <nd ref="302472573"/>
    <tag k="highway" v="secondary"/>
    <tag k="source" v="Yahoo hires"/>
  </way>
  <way id="51765557" version="3" timestamp="2011-06-12T10:36:14Z" uid="393369" user="Rondon237" changeset="8413778">
    <nd ref="660614166"/>
    <nd ref="660614167"/>
    <nd ref="1321522663"/>
    <nd ref="660614168"/>
    <nd ref="823623146"/>
    <nd ref="660614169"/>
    <nd ref="660614170"/>
    <nd ref="302472573"/>
    <tag k="highway" v="secondary"/>
    <tag k="source" v="Yahoo hires"/>
  </way>
  <way id="51765557" version="4" timestamp="2011-06-12T16:46:19Z" uid="393369" user="Rondon237" changeset="8417208">
    <nd ref="660614166"/>
    <nd ref="1322248089"/>
    <nd ref="1322247767"/>
    <nd ref="1322247987"/>
    <nd ref="660614167"/>
    <nd ref="1322247979"/>
    <nd ref="1322247675"/>
    <nd ref="1321522663"/>
    <nd ref="1322247464"/>
    <nd ref="1322247662"/>
    <nd ref="1322248038"/>
    <nd ref="660614168"/>
    <nd ref="1322247773"/>
    <nd ref="823623146"/>
    <nd ref="660614169"/>
    <nd ref="660614170"/>
    <nd ref="302472573"/>
    <tag k="highway" v="tertiary"/>
    <tag k="name" v="Broad Street"/>
    <tag k="source" v="Yahoo hires"/>
  </way>
  <way id="51765557" version="5" timestamp="2011-06-12T17:33:46Z" uid="393369" user="Rondon237" changeset="8417695">
    <nd ref="660614166"/>
    <nd ref="1322248089"/>
    <nd ref="1322247767"/>
    <nd ref="1322247987"/>
    <nd ref="660614167"/>
    <nd ref="1322247979"/>
    <nd ref="1322247675"/>
    <nd ref="1321522663"/>
    <nd ref="1322247464"/>
    <nd ref="1322247662"/>
    <nd ref="1322248038"/>
    <nd ref="660614168"/>
    <nd ref="1322247773"/>
    <nd ref="823623146"/>
    <nd ref="1322340141"/>
    <nd ref="660614169"/>
    <nd ref="660614170"/>
    <nd ref="302472573"/>
    <tag k="highway" v="tertiary"/>
    <tag k="name" v="Broad Street"/>
    <tag k="source" v="Yahoo hires"/>
  </way>
  <way id="51765558" version="4" timestamp="2010-04-06T14:54:54Z" uid="20587" user="balrog-kun" changeset="4342997">
    <nd ref="660614165"/>
    <nd ref="122203901"/>
    <tag k="bridge" v="yes"/>
    <tag k="highway" v="trunk"/>
    <tag k="layer" v="1"/>
    <tag k="name" v="West Kellogg Street"/>
    <tag k="oneway" v="yes"/>
    <tag k="ref" v="US 54; US 400"/>
    <tag k="tiger:cfcc" v="A25"/>
    <tag k="tiger:county" v="Sedgwick, KS"/>
    <tag k="tiger:name_base" v="Kellogg"/>
    <tag k="tiger:name_base_1" v="United States Highway 54"/>
    <tag k="tiger:name_base_2" v="United States Highway 400"/>
    <tag k="tiger:name_direction_prefix" v="W"/>
    <tag k="tiger:name_type" v="St"/>
    <tag k="tiger:reviewed" v="aerial"/>
    <tag k="tiger:separated" v="yes"/>
    <tag k="tiger:source" v="tiger_import_dch_v0.6_20070812"/>
    <tag k="tiger:tlid" v="115713079:115679183:115706497"/>
    <tag k="tiger:zip_left" v="67209"/>
  </way>
  <way id="51765558" version="5" timestamp="2010-07-30T06:17:38Z" uid="262151" user="ToeBee" changeset="5351714">
    <nd ref="660614165"/>
    <nd ref="122203901"/>
    <tag k="bridge" v="yes"/>
    <tag k="highway" v="trunk"/>
    <tag k="layer" v="1"/>
    <tag k="name" v="West Kellogg Street"/>
    <tag k="oneway" v="yes"/>
    <tag k="ref" v="US 54; US 400"/>
    <tag k="tiger:cfcc" v="A25"/>
    <tag k="tiger:county" v="Sedgwick, KS"/>
    <tag k="tiger:name_base" v="Kellogg"/>
    <tag k="tiger:name_direction_prefix" v="W"/>
    <tag k="tiger:name_type" v="St"/>
    <tag k="tiger:reviewed" v="aerial"/>
    <tag k="tiger:separated" v="yes"/>
    <tag k="tiger:source" v="tiger_import_dch_v0.6_20070812"/>
    <tag k="tiger:tlid" v="115713079:115679183:115706497"/>
    <tag k="tiger:zip_left" v="67209"/>
  </way>
  <way id="51765558" version="6" timestamp="2010-12-12T01:20:57Z" uid="207745" user="NE2" changeset="6629847">
    <nd ref="660614165"/>
    <nd ref="122203901"/>
    <tag k="NHS_High_Priority_Corridor" v="3"/>
    <tag k="bridge" v="yes"/>
    <tag k="highway" v="trunk"/>
    <tag k="layer" v="1"/>
    <tag k="name" v="West Kellogg Street"/>
    <tag k="oneway" v="yes"/>
    <tag k="ref" v="US 54; US 400"/>
    <tag k="tiger:cfcc" v="A25"/>
    <tag k="tiger:county" v="Sedgwick, KS"/>
    <tag k="tiger:name_base" v="Kellogg"/>
    <tag k="tiger:name_direction_prefix" v="W"/>
    <tag k="tiger:name_type" v="St"/>
    <tag k="tiger:reviewed" v="aerial"/>
    <tag k="tiger:separated" v="yes"/>
    <tag k="tiger:source" v="tiger_import_dch_v0.6_20070812"/>
    <tag k="tiger:tlid" v="115713079:115679183:115706497"/>
    <tag k="tiger:zip_left" v="67209"/>
  </way>
  <way id="51765558" version="7" timestamp="2010-12-13T04:11:01Z" uid="207745" user="NE2" changeset="6644142">
    <nd ref="660614165"/>
    <nd ref="122203901"/>
    <tag k="bridge" v="yes"/>
    <tag k="highway" v="trunk"/>
    <tag k="layer" v="1"/>
    <tag k="name" v="West Kellogg Street"/>
    <tag k="oneway" v="yes"/>
    <tag k="ref" v="US 54; US 400"/>
    <tag k="tiger:cfcc" v="A25"/>
    <tag k="tiger:county" v="Sedgwick, KS"/>
    <tag k="tiger:name_base" v="Kellogg"/>
    <tag k="tiger:name_direction_prefix" v="W"/>
    <tag k="tiger:name_type" v="St"/>
    <tag k="tiger:reviewed" v="aerial"/>
    <tag k="tiger:separated" v="yes"/>
    <tag k="tiger:source" v="tiger_import_dch_v0.6_20070812"/>
    <tag k="tiger:tlid" v="115713079:115679183:115706497"/>
    <tag k="tiger:zip_left" v="67209"/>
  </way>
  <way id="51765558" version="8" timestamp="2011-05-29T04:10:42Z" uid="207745" user="NE2" changeset="8277348">
    <nd ref="660614165"/>
    <nd ref="122203901"/>
    <tag k="bridge" v="yes"/>
    <tag k="highway" v="trunk"/>
    <tag k="lanes" v="2"/>
    <tag k="layer" v="1"/>
    <tag k="name" v="West Kellogg Street"/>
    <tag k="oneway" v="yes"/>
    <tag k="ref" v="US 54; US 400"/>
    <tag k="tiger:cfcc" v="A25"/>
    <tag k="tiger:county" v="Sedgwick, KS"/>
    <tag k="tiger:name_base" v="Kellogg"/>
    <tag k="tiger:name_direction_prefix" v="W"/>
    <tag k="tiger:name_type" v="St"/>
    <tag k="tiger:reviewed" v="aerial"/>
    <tag k="tiger:separated" v="yes"/>
    <tag k="tiger:source" v="tiger_import_dch_v0.6_20070812"/>
    <tag k="tiger:tlid" v="115713079:115679183:115706497"/>
    <tag k="tiger:zip_left" v="67209"/>
  </way>
  <way id="51765558" version="9" timestamp="2011-07-07T02:13:15Z" uid="473471" user="NE3" changeset="8653554">
    <nd ref="660614165"/>
    <nd ref="122203901"/>
    <tag k="NHS" v="yes"/>
    <tag k="bridge" v="yes"/>
    <tag k="highway" v="trunk"/>
    <tag k="lanes" v="2"/>
    <tag k="layer" v="1"/>
    <tag k="name" v="West Kellogg Street"/>
    <tag k="oneway" v="yes"/>
    <tag k="ref" v="US 54; US 400"/>
    <tag k="tiger:cfcc" v="A25"/>
    <tag k="tiger:county" v="Sedgwick, KS"/>
    <tag k="tiger:name_base" v="Kellogg"/>
    <tag k="tiger:name_direction_prefix" v="W"/>
    <tag k="tiger:name_type" v="St"/>
    <tag k="tiger:reviewed" v="aerial"/>
    <tag k="tiger:separated" v="yes"/>
    <tag k="tiger:source" v="tiger_import_dch_v0.6_20070812"/>
    <tag k="tiger:tlid" v="115713079:115679183:115706497"/>
    <tag k="tiger:zip_left" v="67209"/>
  </way>
  <way id="51765558" version="10" timestamp="2011-11-29T19:53:49Z" uid="207745" user="NE2" changeset="9991336">
    <nd ref="660614165"/>
    <nd ref="122203901"/>
    <tag k="NHS" v="yes"/>
    <tag k="bridge" v="yes"/>
    <tag k="hgv" v="designated"/>
    <tag k="hgv:national_network" v="yes"/>
    <tag k="highway" v="trunk"/>
    <tag k="lanes" v="2"/>
    <tag k="layer" v="1"/>
    <tag k="name" v="West Kellogg Street"/>
    <tag k="oneway" v="yes"/>
    <tag k="ref" v="US 54; US 400"/>
    <tag k="tiger:cfcc" v="A25"/>
    <tag k="tiger:county" v="Sedgwick, KS"/>
    <tag k="tiger:name_base" v="Kellogg"/>
    <tag k="tiger:name_direction_prefix" v="W"/>
    <tag k="tiger:name_type" v="St"/>
    <tag k="tiger:reviewed" v="aerial"/>
    <tag k="tiger:separated" v="yes"/>
    <tag k="tiger:source" v="tiger_import_dch_v0.6_20070812"/>
    <tag k="tiger:tlid" v="115713079:115679183:115706497"/>
    <tag k="tiger:zip_left" v="67209"/>
  </way>
  <way id="51765561" version="2" timestamp="2010-04-06T14:54:54Z" uid="20587" user="balrog-kun" changeset="4342997">
    <nd ref="122203901"/>
    <nd ref="122203898"/>
    <nd ref="122203894"/>
    <nd ref="122203890"/>
    <nd ref="122203886"/>
    <nd ref="122203884"/>
    <tag k="highway" v="trunk"/>
    <tag k="name" v="West Kellogg Street"/>
    <tag k="oneway" v="yes"/>
    <tag k="ref" v="US 54; US 400"/>
    <tag k="tiger:cfcc" v="A25"/>
    <tag k="tiger:county" v="Sedgwick, KS"/>
    <tag k="tiger:name_base" v="Kellogg"/>
    <tag k="tiger:name_base_1" v="United States Highway 54"/>
    <tag k="tiger:name_base_2" v="United States Highway 400"/>
    <tag k="tiger:name_direction_prefix" v="W"/>
    <tag k="tiger:name_type" v="St"/>
    <tag k="tiger:reviewed" v="no"/>
    <tag k="tiger:separated" v="yes"/>
    <tag k="tiger:source" v="tiger_import_dch_v0.6_20070812"/>
    <tag k="tiger:tlid" v="115713079:115679183:115706497"/>
    <tag k="tiger:zip_left" v="67209"/>
  </way>
  <way id="51765561" version="3" timestamp="2010-07-30T05:05:34Z" uid="262151" user="ToeBee" changeset="5351714">
    <nd ref="122203901"/>
    <nd ref="122203898"/>
    <nd ref="122203894"/>
    <nd ref="122203890"/>
    <nd ref="122203886"/>
    <nd ref="122203884"/>
    <tag k="highway" v="trunk"/>
    <tag k="maxspeed" v="60 mph"/>
    <tag k="name" v="West Kellogg Street"/>
    <tag k="oneway" v="yes"/>
    <tag k="ref" v="US 54; US 400"/>
    <tag k="tiger:cfcc" v="A25"/>
    <tag k="tiger:county" v="Sedgwick, KS"/>
    <tag k="tiger:name_base" v="Kellogg"/>
    <tag k="tiger:name_base_1" v="United States Highway 54"/>
    <tag k="tiger:name_base_2" v="United States Highway 400"/>
    <tag k="tiger:name_direction_prefix" v="W"/>
    <tag k="tiger:name_type" v="St"/>
    <tag k="tiger:reviewed" v="no"/>
    <tag k="tiger:separated" v="yes"/>
    <tag k="tiger:source" v="tiger_import_dch_v0.6_20070812"/>
    <tag k="tiger:tlid" v="115713079:115679183:115706497"/>
    <tag k="tiger:zip_left" v="67209"/>
  </way>
  <way id="51765561" version="4" timestamp="2010-07-30T06:17:23Z" uid="262151" user="ToeBee" changeset="5351714">
    <nd ref="122203901"/>
    <nd ref="122203898"/>
    <nd ref="122203894"/>
    <nd ref="122203890"/>
    <nd ref="122203886"/>
    <nd ref="122203884"/>
    <tag k="highway" v="trunk"/>
    <tag k="maxspeed" v="60 mph"/>
    <tag k="name" v="West Kellogg Street"/>
    <tag k="oneway" v="yes"/>
    <tag k="ref" v="US 54; US 400"/>
    <tag k="tiger:cfcc" v="A25"/>
    <tag k="tiger:county" v="Sedgwick, KS"/>
    <tag k="tiger:name_base" v="Kellogg"/>
    <tag k="tiger:name_direction_prefix" v="W"/>
    <tag k="tiger:name_type" v="St"/>
    <tag k="tiger:reviewed" v="no"/>
    <tag k="tiger:separated" v="yes"/>
    <tag k="tiger:source" v="tiger_import_dch_v0.6_20070812"/>
    <tag k="tiger:tlid" v="115713079:115679183:115706497"/>
    <tag k="tiger:zip_left" v="67209"/>
  </way>
  <way id="51765561" version="5" timestamp="2010-12-12T01:20:46Z" uid="207745" user="NE2" changeset="6629847">
    <nd ref="122203901"/>
    <nd ref="122203898"/>
    <nd ref="122203894"/>
    <nd ref="122203890"/>
    <nd ref="122203886"/>
    <nd ref="122203884"/>
    <tag k="NHS_High_Priority_Corridor" v="3"/>
    <tag k="highway" v="trunk"/>
    <tag k="maxspeed" v="60 mph"/>
    <tag k="name" v="West Kellogg Street"/>
    <tag k="oneway" v="yes"/>
    <tag k="ref" v="US 54; US 400"/>
    <tag k="tiger:cfcc" v="A25"/>
    <tag k="tiger:county" v="Sedgwick, KS"/>
    <tag k="tiger:name_base" v="Kellogg"/>
    <tag k="tiger:name_direction_prefix" v="W"/>
    <tag k="tiger:name_type" v="St"/>
    <tag k="tiger:reviewed" v="no"/>
    <tag k="tiger:separated" v="yes"/>
    <tag k="tiger:source" v="tiger_import_dch_v0.6_20070812"/>
    <tag k="tiger:tlid" v="115713079:115679183:115706497"/>
    <tag k="tiger:zip_left" v="67209"/>
  </way>
  <way id="51765561" version="6" timestamp="2010-12-13T03:40:26Z" uid="207745" user="NE2" changeset="6644142">
    <nd ref="122203901"/>
    <nd ref="122203898"/>
    <nd ref="122203894"/>
    <nd ref="122203890"/>
    <nd ref="122203886"/>
    <nd ref="122203884"/>
    <tag k="highway" v="trunk"/>
    <tag k="maxspeed" v="60 mph"/>
    <tag k="name" v="West Kellogg Street"/>
    <tag k="oneway" v="yes"/>
    <tag k="ref" v="US 54; US 400"/>
    <tag k="tiger:cfcc" v="A25"/>
    <tag k="tiger:county" v="Sedgwick, KS"/>
    <tag k="tiger:name_base" v="Kellogg"/>
    <tag k="tiger:name_direction_prefix" v="W"/>
    <tag k="tiger:name_type" v="St"/>
    <tag k="tiger:reviewed" v="no"/>
    <tag k="tiger:separated" v="yes"/>
    <tag k="tiger:source" v="tiger_import_dch_v0.6_20070812"/>
    <tag k="tiger:tlid" v="115713079:115679183:115706497"/>
    <tag k="tiger:zip_left" v="67209"/>
  </way>
  <way id="51765561" version="7" timestamp="2011-05-29T04:08:24Z" uid="207745" user="NE2" changeset="8277348">
    <nd ref="122203901"/>
    <nd ref="122203898"/>
    <nd ref="122203894"/>
    <nd ref="122203890"/>
    <nd ref="122203886"/>
    <nd ref="122203884"/>
    <tag k="highway" v="trunk"/>
    <tag k="lanes" v="2"/>
    <tag k="maxspeed" v="60 mph"/>
    <tag k="name" v="West Kellogg Street"/>
    <tag k="oneway" v="yes"/>
    <tag k="ref" v="US 54; US 400"/>
    <tag k="tiger:cfcc" v="A25"/>
    <tag k="tiger:county" v="Sedgwick, KS"/>
    <tag k="tiger:name_base" v="Kellogg"/>
    <tag k="tiger:name_direction_prefix" v="W"/>
    <tag k="tiger:name_type" v="St"/>
    <tag k="tiger:reviewed" v="no"/>
    <tag k="tiger:separated" v="yes"/>
    <tag k="tiger:source" v="tiger_import_dch_v0.6_20070812"/>
    <tag k="tiger:tlid" v="115713079:115679183:115706497"/>
    <tag k="tiger:zip_left" v="67209"/>
  </way>
  <way id="51765561" version="8" timestamp="2011-07-07T02:13:33Z" uid="473471" user="NE3" changeset="8653554">
    <nd ref="122203901"/>
    <nd ref="122203898"/>
    <nd ref="122203894"/>
    <nd ref="122203890"/>
    <nd ref="122203886"/>
    <nd ref="122203884"/>
    <tag k="NHS" v="yes"/>
    <tag k="highway" v="trunk"/>
    <tag k="lanes" v="2"/>
    <tag k="maxspeed" v="60 mph"/>
    <tag k="name" v="West Kellogg Street"/>
    <tag k="oneway" v="yes"/>
    <tag k="ref" v="US 54; US 400"/>
    <tag k="tiger:cfcc" v="A25"/>
    <tag k="tiger:county" v="Sedgwick, KS"/>
    <tag k="tiger:name_base" v="Kellogg"/>
    <tag k="tiger:name_direction_prefix" v="W"/>
    <tag k="tiger:name_type" v="St"/>
    <tag k="tiger:reviewed" v="no"/>
    <tag k="tiger:separated" v="yes"/>
    <tag k="tiger:source" v="tiger_import_dch_v0.6_20070812"/>
    <tag k="tiger:tlid" v="115713079:115679183:115706497"/>
    <tag k="tiger:zip_left" v="67209"/>
  </way>
  <way id="51765561" version="9" timestamp="2011-11-29T19:54:05Z" uid="207745" user="NE2" changeset="9991336">
    <nd ref="122203901"/>
    <nd ref="122203898"/>
    <nd ref="122203894"/>
    <nd ref="122203890"/>
    <nd ref="122203886"/>
    <nd ref="122203884"/>
    <tag k="NHS" v="yes"/>
    <tag k="hgv" v="designated"/>
    <tag k="hgv:national_network" v="yes"/>
    <tag k="highway" v="trunk"/>
    <tag k="lanes" v="2"/>
    <tag k="maxspeed" v="60 mph"/>
    <tag k="name" v="West Kellogg Street"/>
    <tag k="oneway" v="yes"/>
    <tag k="ref" v="US 54; US 400"/>
    <tag k="tiger:cfcc" v="A25"/>
    <tag k="tiger:county" v="Sedgwick, KS"/>
    <tag k="tiger:name_base" v="Kellogg"/>
    <tag k="tiger:name_direction_prefix" v="W"/>
    <tag k="tiger:name_type" v="St"/>
    <tag k="tiger:reviewed" v="no"/>
    <tag k="tiger:separated" v="yes"/>
    <tag k="tiger:source" v="tiger_import_dch_v0.6_20070812"/>
    <tag k="tiger:tlid" v="115713079:115679183:115706497"/>
    <tag k="tiger:zip_left" v="67209"/>
  </way>
  <way id="51765561" version="10" timestamp="2011-11-30T05:57:53Z" uid="262151" user="ToeBee" changeset="9995740">
    <nd ref="122203901"/>
    <nd ref="122203898"/>
    <nd ref="122203894"/>
    <nd ref="122203890"/>
    <nd ref="122203886"/>
    <nd ref="122203884"/>
    <tag k="NHS" v="yes"/>
    <tag k="hgv" v="designated"/>
    <tag k="hgv:national_network" v="yes"/>
    <tag k="highway" v="trunk"/>
    <tag k="lanes" v="2"/>
    <tag k="maxspeed" v="60 mph"/>
    <tag k="name" v="West Kellogg Street"/>
    <tag k="oneway" v="yes"/>
    <tag k="ref" v="US 54; US 400"/>
    <tag k="tiger:cfcc" v="A25"/>
    <tag k="tiger:county" v="Sedgwick, KS"/>
    <tag k="tiger:name_base" v="Kellogg"/>
    <tag k="tiger:name_direction_prefix" v="W"/>
    <tag k="tiger:name_type" v="St"/>
    <tag k="tiger:source" v="tiger_import_dch_v0.6_20070812"/>
    <tag k="tiger:tlid" v="115713079:115679183:115706497"/>
    <tag k="tiger:zip_left" v="67209"/>
  </way>
  <way id="51765562" version="7" timestamp="2010-07-18T20:13:05Z" uid="23543" user="jkjk" changeset="5255093">
    <nd ref="419275098"/>
    <nd ref="660618386"/>
    <nd ref="660618387"/>
    <nd ref="660614206"/>
    <nd ref="823624026"/>
    <nd ref="660614207"/>
    <nd ref="660614208"/>
    <nd ref="660614209"/>
    <nd ref="660614685"/>
    <nd ref="660614692"/>
    <nd ref="660614693"/>
    <nd ref="660614694"/>
    <nd ref="660614695"/>
    <nd ref="660614701"/>
    <nd ref="660615265"/>
    <nd ref="660615270"/>
    <nd ref="660615654"/>
    <nd ref="660615655"/>
    <nd ref="660615656"/>
    <nd ref="660615657"/>
    <nd ref="660615658"/>
    <nd ref="660615659"/>
    <nd ref="660615660"/>
    <tag k="railway" v="rail"/>
    <tag k="source" v="Yahoo hires"/>
  </way>
  <way id="51765562" version="8" timestamp="2011-03-26T09:08:34Z" uid="393369" user="Rondon237" changeset="7673208">
    <nd ref="419275098"/>
    <nd ref="660618386"/>
    <nd ref="660618387"/>
    <nd ref="660614206"/>
    <nd ref="823624026"/>
    <nd ref="660614207"/>
    <nd ref="660614208"/>
    <nd ref="660614209"/>
    <nd ref="660614685"/>
    <nd ref="660614692"/>
    <nd ref="660614693"/>
    <nd ref="660614694"/>
    <nd ref="660614695"/>
    <nd ref="660614701"/>
    <nd ref="660615265"/>
    <nd ref="660615270"/>
    <nd ref="660615654"/>
    <nd ref="660615655"/>
    <nd ref="660615656"/>
    <nd ref="660615657"/>
    <nd ref="660615658"/>
    <nd ref="1218677792"/>
    <nd ref="1218678336"/>
    <nd ref="1218678343"/>
    <nd ref="660615659"/>
    <nd ref="660615660"/>
    <tag k="railway" v="rail"/>
    <tag k="source" v="Yahoo hires"/>
  </way>
  <way id="51765562" version="9" timestamp="2011-05-14T07:46:58Z" uid="393369" user="Rondon237" changeset="8138050">
    <nd ref="419275098"/>
    <nd ref="660618386"/>
    <nd ref="660618387"/>
    <nd ref="660614206"/>
    <nd ref="823624026"/>
    <nd ref="660614207"/>
    <nd ref="660614208"/>
    <nd ref="660614209"/>
    <nd ref="660614685"/>
    <nd ref="660614692"/>
    <nd ref="660614693"/>
    <nd ref="660614694"/>
    <nd ref="660614695"/>
    <nd ref="660614701"/>
    <nd ref="660615265"/>
    <nd ref="1283735120"/>
    <nd ref="1283735212"/>
    <nd ref="660615270"/>
    <nd ref="660615654"/>
    <nd ref="660615655"/>
    <nd ref="660615656"/>
    <nd ref="660615657"/>
    <nd ref="660615658"/>
    <nd ref="1218677792"/>
    <nd ref="1218678336"/>
    <nd ref="1218678343"/>
    <nd ref="660615659"/>
    <nd ref="660615660"/>
    <tag k="railway" v="rail"/>
    <tag k="source" v="Yahoo hires"/>
  </way>
  <way id="51765562" version="10" timestamp="2011-05-14T08:12:06Z" uid="393369" user="Rondon237" changeset="8138050">
    <nd ref="419275098"/>
    <nd ref="660618386"/>
    <nd ref="660618387"/>
    <nd ref="660614206"/>
    <nd ref="823624026"/>
    <nd ref="660614207"/>
    <nd ref="660614208"/>
    <nd ref="660614209"/>
    <nd ref="660614685"/>
    <nd ref="660614692"/>
    <nd ref="660614693"/>
    <nd ref="660614694"/>
    <nd ref="660614695"/>
    <nd ref="660614701"/>
    <nd ref="660615265"/>
    <nd ref="1283735120"/>
    <tag k="railway" v="rail"/>
    <tag k="source" v="Yahoo hires"/>
  </way>
  <way id="51765562" version="11" timestamp="2011-05-14T18:46:19Z" uid="393369" user="Rondon237" changeset="8144309">
    <nd ref="419275098"/>
    <nd ref="660618386"/>
    <nd ref="660618387"/>
    <nd ref="660614206"/>
    <nd ref="823624026"/>
    <nd ref="660614207"/>
    <nd ref="660614208"/>
    <nd ref="660614209"/>
    <nd ref="1285015463"/>
    <nd ref="660614685"/>
    <nd ref="660614692"/>
    <nd ref="660614693"/>
    <nd ref="660614694"/>
    <nd ref="660614695"/>
    <nd ref="660614701"/>
    <nd ref="660615265"/>
    <nd ref="1283735120"/>
    <tag k="railway" v="rail"/>
    <tag k="source" v="Yahoo hires"/>
  </way>
  <way id="51765567" version="4" timestamp="2010-04-06T14:54:55Z" uid="20587" user="balrog-kun" changeset="4342997">
    <nd ref="122203357"/>
    <nd ref="660614172"/>
    <tag k="bridge" v="yes"/>
    <tag k="highway" v="trunk"/>
    <tag k="layer" v="1"/>
    <tag k="name" v="West Kellogg Street"/>
    <tag k="name_1" v="West Harry Street"/>
    <tag k="oneway" v="yes"/>
    <tag k="ref" v="US 54; US 400"/>
    <tag k="tiger:cfcc" v="A25"/>
    <tag k="tiger:county" v="Sedgwick, KS"/>
    <tag k="tiger:name_base" v="Kellogg"/>
    <tag k="tiger:name_base_1" v="Harry"/>
    <tag k="tiger:name_base_2" v="United States Highway 54"/>
    <tag k="tiger:name_base_3" v="United States Highway 400"/>
    <tag k="tiger:name_direction_prefix" v="W"/>
    <tag k="tiger:name_direction_prefix_1" v="W"/>
    <tag k="tiger:name_type" v="St"/>
    <tag k="tiger:name_type_1" v="St"/>
    <tag k="tiger:reviewed" v="aerial"/>
    <tag k="tiger:separated" v="yes"/>
    <tag k="tiger:source" v="tiger_import_dch_v0.6_20070812"/>
    <tag k="tiger:tlid" v="115708699:115717297:115694103"/>
  </way>
  <way id="51765567" version="5" timestamp="2010-07-30T06:17:32Z" uid="262151" user="ToeBee" changeset="5351714">
    <nd ref="122203357"/>
    <nd ref="660614172"/>
    <tag k="bridge" v="yes"/>
    <tag k="highway" v="trunk"/>
    <tag k="layer" v="1"/>
    <tag k="name" v="West Kellogg Street"/>
    <tag k="name_1" v="West Harry Street"/>
    <tag k="oneway" v="yes"/>
    <tag k="ref" v="US 54; US 400"/>
    <tag k="tiger:cfcc" v="A25"/>
    <tag k="tiger:county" v="Sedgwick, KS"/>
    <tag k="tiger:name_base" v="Kellogg"/>
    <tag k="tiger:name_base_1" v="Harry"/>
    <tag k="tiger:name_direction_prefix" v="W"/>
    <tag k="tiger:name_type" v="St"/>
    <tag k="tiger:reviewed" v="aerial"/>
    <tag k="tiger:separated" v="yes"/>
    <tag k="tiger:source" v="tiger_import_dch_v0.6_20070812"/>
    <tag k="tiger:tlid" v="115708699:115717297:115694103"/>
  </way>
  <way id="51765567" version="6" timestamp="2010-12-12T01:19:53Z" uid="207745" user="NE2" changeset="6629847">
    <nd ref="122203357"/>
    <nd ref="660614172"/>
    <tag k="NHS_High_Priority_Corridor" v="3"/>
    <tag k="bridge" v="yes"/>
    <tag k="highway" v="trunk"/>
    <tag k="layer" v="1"/>
    <tag k="name" v="West Kellogg Street"/>
    <tag k="name_1" v="West Harry Street"/>
    <tag k="oneway" v="yes"/>
    <tag k="ref" v="US 54; US 400"/>
    <tag k="tiger:cfcc" v="A25"/>
    <tag k="tiger:county" v="Sedgwick, KS"/>
    <tag k="tiger:name_base" v="Kellogg"/>
    <tag k="tiger:name_base_1" v="Harry"/>
    <tag k="tiger:name_direction_prefix" v="W"/>
    <tag k="tiger:name_type" v="St"/>
    <tag k="tiger:reviewed" v="aerial"/>
    <tag k="tiger:separated" v="yes"/>
    <tag k="tiger:source" v="tiger_import_dch_v0.6_20070812"/>
    <tag k="tiger:tlid" v="115708699:115717297:115694103"/>
  </way>
  <way id="51765567" version="7" timestamp="2010-12-13T04:27:45Z" uid="207745" user="NE2" changeset="6644142">
    <nd ref="122203357"/>
    <nd ref="660614172"/>
    <tag k="bridge" v="yes"/>
    <tag k="highway" v="trunk"/>
    <tag k="layer" v="1"/>
    <tag k="name" v="West Kellogg Street"/>
    <tag k="name_1" v="West Harry Street"/>
    <tag k="oneway" v="yes"/>
    <tag k="ref" v="US 54; US 400"/>
    <tag k="tiger:cfcc" v="A25"/>
    <tag k="tiger:county" v="Sedgwick, KS"/>
    <tag k="tiger:name_base" v="Kellogg"/>
    <tag k="tiger:name_base_1" v="Harry"/>
    <tag k="tiger:name_direction_prefix" v="W"/>
    <tag k="tiger:name_type" v="St"/>
    <tag k="tiger:reviewed" v="aerial"/>
    <tag k="tiger:separated" v="yes"/>
    <tag k="tiger:source" v="tiger_import_dch_v0.6_20070812"/>
    <tag k="tiger:tlid" v="115708699:115717297:115694103"/>
  </way>
  <way id="51765567" version="8" timestamp="2011-05-29T04:08:04Z" uid="207745" user="NE2" changeset="8277348">
    <nd ref="122203357"/>
    <nd ref="660614172"/>
    <tag k="bridge" v="yes"/>
    <tag k="highway" v="trunk"/>
    <tag k="lanes" v="2"/>
    <tag k="layer" v="1"/>
    <tag k="name" v="West Kellogg Street"/>
    <tag k="name_1" v="West Harry Street"/>
    <tag k="oneway" v="yes"/>
    <tag k="ref" v="US 54; US 400"/>
    <tag k="tiger:cfcc" v="A25"/>
    <tag k="tiger:county" v="Sedgwick, KS"/>
    <tag k="tiger:name_base" v="Kellogg"/>
    <tag k="tiger:name_base_1" v="Harry"/>
    <tag k="tiger:name_direction_prefix" v="W"/>
    <tag k="tiger:name_type" v="St"/>
    <tag k="tiger:reviewed" v="aerial"/>
    <tag k="tiger:separated" v="yes"/>
    <tag k="tiger:source" v="tiger_import_dch_v0.6_20070812"/>
    <tag k="tiger:tlid" v="115708699:115717297:115694103"/>
  </way>
  <way id="51765567" version="9" timestamp="2011-07-07T02:13:20Z" uid="473471" user="NE3" changeset="8653554">
    <nd ref="122203357"/>
    <nd ref="660614172"/>
    <tag k="NHS" v="yes"/>
    <tag k="bridge" v="yes"/>
    <tag k="highway" v="trunk"/>
    <tag k="lanes" v="2"/>
    <tag k="layer" v="1"/>
    <tag k="name" v="West Kellogg Street"/>
    <tag k="name_1" v="West Harry Street"/>
    <tag k="oneway" v="yes"/>
    <tag k="ref" v="US 54; US 400"/>
    <tag k="tiger:cfcc" v="A25"/>
    <tag k="tiger:county" v="Sedgwick, KS"/>
    <tag k="tiger:name_base" v="Kellogg"/>
    <tag k="tiger:name_base_1" v="Harry"/>
    <tag k="tiger:name_direction_prefix" v="W"/>
    <tag k="tiger:name_type" v="St"/>
    <tag k="tiger:reviewed" v="aerial"/>
    <tag k="tiger:separated" v="yes"/>
    <tag k="tiger:source" v="tiger_import_dch_v0.6_20070812"/>
    <tag k="tiger:tlid" v="115708699:115717297:115694103"/>
  </way>
  <way id="51765567" version="10" timestamp="2011-11-29T19:53:36Z" uid="207745" user="NE2" changeset="9991336">
    <nd ref="122203357"/>
    <nd ref="660614172"/>
    <tag k="NHS" v="yes"/>
    <tag k="bridge" v="yes"/>
    <tag k="hgv" v="designated"/>
    <tag k="hgv:national_network" v="yes"/>
    <tag k="highway" v="trunk"/>
    <tag k="lanes" v="2"/>
    <tag k="layer" v="1"/>
    <tag k="name" v="West Kellogg Street"/>
    <tag k="name_1" v="West Harry Street"/>
    <tag k="oneway" v="yes"/>
    <tag k="ref" v="US 54; US 400"/>
    <tag k="tiger:cfcc" v="A25"/>
    <tag k="tiger:county" v="Sedgwick, KS"/>
    <tag k="tiger:name_base" v="Kellogg"/>
    <tag k="tiger:name_base_1" v="Harry"/>
    <tag k="tiger:name_direction_prefix" v="W"/>
    <tag k="tiger:name_type" v="St"/>
    <tag k="tiger:reviewed" v="aerial"/>
    <tag k="tiger:separated" v="yes"/>
    <tag k="tiger:source" v="tiger_import_dch_v0.6_20070812"/>
    <tag k="tiger:tlid" v="115708699:115717297:115694103"/>
  </way>
  <way id="51765569" version="2" timestamp="2010-04-06T14:54:55Z" uid="20587" user="balrog-kun" changeset="4342997">
    <nd ref="660614172"/>
    <nd ref="122203361"/>
    <nd ref="122203365"/>
    <nd ref="122203369"/>
    <nd ref="122203372"/>
    <nd ref="122203373"/>
    <nd ref="122203375"/>
    <tag k="highway" v="trunk"/>
    <tag k="name" v="West Kellogg Street"/>
    <tag k="name_1" v="West Harry Street"/>
    <tag k="oneway" v="yes"/>
    <tag k="ref" v="US 54; US 400"/>
    <tag k="tiger:cfcc" v="A25"/>
    <tag k="tiger:county" v="Sedgwick, KS"/>
    <tag k="tiger:name_base" v="Kellogg"/>
    <tag k="tiger:name_base_1" v="Harry"/>
    <tag k="tiger:name_base_2" v="United States Highway 54"/>
    <tag k="tiger:name_base_3" v="United States Highway 400"/>
    <tag k="tiger:name_direction_prefix" v="W"/>
    <tag k="tiger:name_direction_prefix_1" v="W"/>
    <tag k="tiger:name_type" v="St"/>
    <tag k="tiger:name_type_1" v="St"/>
    <tag k="tiger:reviewed" v="no"/>
    <tag k="tiger:separated" v="yes"/>
    <tag k="tiger:source" v="tiger_import_dch_v0.6_20070812"/>
    <tag k="tiger:tlid" v="115708699:115717297:115694103"/>
  </way>
  <way id="51765569" version="3" timestamp="2010-04-09T06:55:05Z" uid="175250" user="Verm" changeset="4370028">
    <nd ref="660614172"/>
    <nd ref="122203361"/>
    <nd ref="122203365"/>
    <nd ref="122203369"/>
    <nd ref="122203372"/>
    <nd ref="122203373"/>
    <nd ref="122203375"/>
    <tag k="highway" v="trunk"/>
    <tag k="name" v="West Kellogg Street"/>
    <tag k="name_1" v="West Harry Street"/>
    <tag k="oneway" v="yes"/>
    <tag k="ref" v="US 54; US 400"/>
    <tag k="tiger:cfcc" v="A25"/>
    <tag k="tiger:county" v="Sedgwick, KS"/>
    <tag k="tiger:name_base" v="Kellogg"/>
    <tag k="tiger:name_base_1" v="Harry"/>
    <tag k="tiger:name_base_2" v="United States Highway 54"/>
    <tag k="tiger:name_base_3" v="United States Highway 400"/>
    <tag k="tiger:name_direction_prefix" v="W"/>
    <tag k="tiger:name_type" v="St"/>
    <tag k="tiger:reviewed" v="no"/>
    <tag k="tiger:separated" v="yes"/>
    <tag k="tiger:source" v="tiger_import_dch_v0.6_20070812"/>
    <tag k="tiger:tlid" v="115708699:115717297:115694103"/>
  </way>
  <way id="51765569" version="4" timestamp="2010-07-30T06:17:36Z" uid="262151" user="ToeBee" changeset="5351714">
    <nd ref="660614172"/>
    <nd ref="122203361"/>
    <nd ref="122203365"/>
    <nd ref="122203369"/>
    <nd ref="122203372"/>
    <nd ref="122203373"/>
    <nd ref="122203375"/>
    <tag k="highway" v="trunk"/>
    <tag k="name" v="West Kellogg Street"/>
    <tag k="name_1" v="West Harry Street"/>
    <tag k="oneway" v="yes"/>
    <tag k="ref" v="US 54; US 400"/>
    <tag k="tiger:cfcc" v="A25"/>
    <tag k="tiger:county" v="Sedgwick, KS"/>
    <tag k="tiger:name_base" v="Kellogg"/>
    <tag k="tiger:name_base_1" v="Harry"/>
    <tag k="tiger:name_direction_prefix" v="W"/>
    <tag k="tiger:name_type" v="St"/>
    <tag k="tiger:reviewed" v="no"/>
    <tag k="tiger:separated" v="yes"/>
    <tag k="tiger:source" v="tiger_import_dch_v0.6_20070812"/>
    <tag k="tiger:tlid" v="115708699:115717297:115694103"/>
  </way>
  <way id="51765569" version="5" timestamp="2010-12-12T01:23:19Z" uid="207745" user="NE2" changeset="6629847">
    <nd ref="660614172"/>
    <nd ref="122203361"/>
    <nd ref="122203365"/>
    <nd ref="122203369"/>
    <nd ref="122203372"/>
    <nd ref="122203373"/>
    <nd ref="122203375"/>
    <tag k="NHS_High_Priority_Corridor" v="3"/>
    <tag k="highway" v="trunk"/>
    <tag k="name" v="West Kellogg Street"/>
    <tag k="name_1" v="West Harry Street"/>
    <tag k="oneway" v="yes"/>
    <tag k="ref" v="US 54; US 400"/>
    <tag k="tiger:cfcc" v="A25"/>
    <tag k="tiger:county" v="Sedgwick, KS"/>
    <tag k="tiger:name_base" v="Kellogg"/>
    <tag k="tiger:name_base_1" v="Harry"/>
    <tag k="tiger:name_direction_prefix" v="W"/>
    <tag k="tiger:name_type" v="St"/>
    <tag k="tiger:reviewed" v="no"/>
    <tag k="tiger:separated" v="yes"/>
    <tag k="tiger:source" v="tiger_import_dch_v0.6_20070812"/>
    <tag k="tiger:tlid" v="115708699:115717297:115694103"/>
  </way>
  <way id="51765569" version="6" timestamp="2010-12-13T03:51:08Z" uid="207745" user="NE2" changeset="6644142">
    <nd ref="660614172"/>
    <nd ref="122203361"/>
    <nd ref="122203365"/>
    <nd ref="122203369"/>
    <nd ref="122203372"/>
    <nd ref="122203373"/>
    <nd ref="122203375"/>
    <tag k="highway" v="trunk"/>
    <tag k="name" v="West Kellogg Street"/>
    <tag k="name_1" v="West Harry Street"/>
    <tag k="oneway" v="yes"/>
    <tag k="ref" v="US 54; US 400"/>
    <tag k="tiger:cfcc" v="A25"/>
    <tag k="tiger:county" v="Sedgwick, KS"/>
    <tag k="tiger:name_base" v="Kellogg"/>
    <tag k="tiger:name_base_1" v="Harry"/>
    <tag k="tiger:name_direction_prefix" v="W"/>
    <tag k="tiger:name_type" v="St"/>
    <tag k="tiger:reviewed" v="no"/>
    <tag k="tiger:separated" v="yes"/>
    <tag k="tiger:source" v="tiger_import_dch_v0.6_20070812"/>
    <tag k="tiger:tlid" v="115708699:115717297:115694103"/>
  </way>
  <way id="51765569" version="7" timestamp="2011-05-29T04:09:44Z" uid="207745" user="NE2" changeset="8277348">
    <nd ref="660614172"/>
    <nd ref="122203361"/>
    <nd ref="122203365"/>
    <nd ref="122203369"/>
    <nd ref="122203372"/>
    <nd ref="122203373"/>
    <nd ref="122203375"/>
    <tag k="highway" v="trunk"/>
    <tag k="lanes" v="2"/>
    <tag k="name" v="West Kellogg Street"/>
    <tag k="name_1" v="West Harry Street"/>
    <tag k="oneway" v="yes"/>
    <tag k="ref" v="US 54; US 400"/>
    <tag k="tiger:cfcc" v="A25"/>
    <tag k="tiger:county" v="Sedgwick, KS"/>
    <tag k="tiger:name_base" v="Kellogg"/>
    <tag k="tiger:name_base_1" v="Harry"/>
    <tag k="tiger:name_direction_prefix" v="W"/>
    <tag k="tiger:name_type" v="St"/>
    <tag k="tiger:reviewed" v="no"/>
    <tag k="tiger:separated" v="yes"/>
    <tag k="tiger:source" v="tiger_import_dch_v0.6_20070812"/>
    <tag k="tiger:tlid" v="115708699:115717297:115694103"/>
  </way>
  <way id="51765569" version="8" timestamp="2011-07-07T02:13:36Z" uid="473471" user="NE3" changeset="8653554">
    <nd ref="660614172"/>
    <nd ref="122203361"/>
    <nd ref="122203365"/>
    <nd ref="122203369"/>
    <nd ref="122203372"/>
    <nd ref="122203373"/>
    <nd ref="122203375"/>
    <tag k="NHS" v="yes"/>
    <tag k="highway" v="trunk"/>
    <tag k="lanes" v="2"/>
    <tag k="name" v="West Kellogg Street"/>
    <tag k="name_1" v="West Harry Street"/>
    <tag k="oneway" v="yes"/>
    <tag k="ref" v="US 54; US 400"/>
    <tag k="tiger:cfcc" v="A25"/>
    <tag k="tiger:county" v="Sedgwick, KS"/>
    <tag k="tiger:name_base" v="Kellogg"/>
    <tag k="tiger:name_base_1" v="Harry"/>
    <tag k="tiger:name_direction_prefix" v="W"/>
    <tag k="tiger:name_type" v="St"/>
    <tag k="tiger:reviewed" v="no"/>
    <tag k="tiger:separated" v="yes"/>
    <tag k="tiger:source" v="tiger_import_dch_v0.6_20070812"/>
    <tag k="tiger:tlid" v="115708699:115717297:115694103"/>
  </way>
  <way id="51765569" version="9" timestamp="2011-11-29T19:54:11Z" uid="207745" user="NE2" changeset="9991336">
    <nd ref="660614172"/>
    <nd ref="122203361"/>
    <nd ref="122203365"/>
    <nd ref="122203369"/>
    <nd ref="122203372"/>
    <nd ref="122203373"/>
    <nd ref="122203375"/>
    <tag k="NHS" v="yes"/>
    <tag k="hgv" v="designated"/>
    <tag k="hgv:national_network" v="yes"/>
    <tag k="highway" v="trunk"/>
    <tag k="lanes" v="2"/>
    <tag k="name" v="West Kellogg Street"/>
    <tag k="name_1" v="West Harry Street"/>
    <tag k="oneway" v="yes"/>
    <tag k="ref" v="US 54; US 400"/>
    <tag k="tiger:cfcc" v="A25"/>
    <tag k="tiger:county" v="Sedgwick, KS"/>
    <tag k="tiger:name_base" v="Kellogg"/>
    <tag k="tiger:name_base_1" v="Harry"/>
    <tag k="tiger:name_direction_prefix" v="W"/>
    <tag k="tiger:name_type" v="St"/>
    <tag k="tiger:reviewed" v="no"/>
    <tag k="tiger:separated" v="yes"/>
    <tag k="tiger:source" v="tiger_import_dch_v0.6_20070812"/>
    <tag k="tiger:tlid" v="115708699:115717297:115694103"/>
  </way>
  <way id="51765583" version="1" timestamp="2010-03-05T10:58:38Z" uid="4467" user="Rosscoe" changeset="4039770">
    <nd ref="660614851"/>
    <nd ref="660614852"/>
    <nd ref="660614853"/>
    <nd ref="660614854"/>
    <nd ref="660614861"/>
    <nd ref="660614862"/>
    <nd ref="660614863"/>
    <nd ref="660614864"/>
    <nd ref="660614865"/>
    <nd ref="660614866"/>
    <nd ref="660614867"/>
    <nd ref="660614868"/>
    <nd ref="660614869"/>
    <nd ref="660614859"/>
    <nd ref="660614860"/>
    <nd ref="660614857"/>
    <nd ref="660614858"/>
    <nd ref="660614855"/>
    <nd ref="660614856"/>
    <nd ref="660614850"/>
    <nd ref="660614851"/>
    <tag k="addr:city" v="Berriedale"/>
    <tag k="addr:country" v="AU"/>
    <tag k="addr:housenumber" v="1"/>
    <tag k="addr:postcode" v="7011"/>
    <tag k="addr:state" v="TAS"/>
    <tag k="addr:street" v="Alcorso Drive"/>
    <tag k="name" v="Treasure Island Caravan Park"/>
    <tag k="tourism" v="caravan_site"/>
  </way>
</osm>
