<?xml version='1.0' encoding='UTF-8'?>
<osm version="0.6" generator="libosmium/2.20.0">
  <way id="51864152" version="2" timestamp="2010-04-07T14:30:11Z" uid="20587" user="balrog-kun" changeset="4353646">
    <nd ref="152383675"/>
    <nd ref="152384557"/>
    <nd ref="471726853"/>
    <nd ref="152550818"/>
    <nd ref="152550821"/>
    <nd ref="152550823"/>
    <nd ref="152550825"/>
    <nd ref="152550827"/>
    <tag k="highway" v="primary"/>
    <tag k="name" v="North Lamar Boulevard"/>
    <tag k="oneway" v="yes"/>
    <tag k="tiger:cfcc" v="A41"/>
    <tag k="tiger:county" v="Travis, TX"/>
    <tag k="tiger:name_base" v="Lamar"/>
    <tag k="tiger:name_direction_prefix" v="N"/>
    <tag k="tiger:name_type" v="Blvd"/>
    <tag k="tiger:reviewed" v="no"/>
    <tag k="tiger:separated" v="no"/>
    <tag k="tiger:source" v="tiger_import_dch_v0.6_20070830"/>
    <tag k="tiger:tlid" v="64041832:64039769:64093800:64093801"/>
  </way>
  <way id="51864152" version="3" timestamp="2012-01-03T09:38:10Z" uid="207745" user="NE2" changeset="10279358">
    <nd ref="152383675"/>
    <nd ref="152384557"/>
    <nd ref="471726853"/>
    <nd ref="152550818"/>
    <nd ref="152550821"/>
    <nd ref="152550823"/>
    <nd ref="152550827"/>
    <tag k="highway" v="primary"/>
    <tag k="name" v="North Lamar Boulevard"/>
    <tag k="old_ref" v="Loop 343 (old US 290)"/>
    <tag k="oneway" v="yes"/>
    <tag k="tiger:cfcc" v="A41"/>
    <tag k="tiger:county" v="Travis, TX"/>
    <tag k="tiger:name_base" v="Lamar"/>
    <tag k="tiger:name_direction_prefix" v="N"/>
    <tag k="tiger:name_type" v="Blvd"/>
    <tag k="tiger:reviewed" v="no"/>
    <tag k="tiger:separated" v="no"/>
    <tag k="tiger:source" v="tiger_import_dch_v0.6_20070830"/>
    <tag k="tiger:tlid" v="64041832:64039769:64093800:64093801"/>
  </way>
  <way id="51864153" version="2" timestamp="2010-04-07T14:30:12Z" uid="20587" user="balrog-kun" changeset="4353646">
    <nd ref="152534192"/>
    <nd ref="152551326"/>
    <nd ref="298584729"/>
    <tag k="highway" v="primary"/>
    <tag k="name" v="North Lamar Boulevard"/>
    <tag k="oneway" v="yes"/>
    <tag k="tiger:cfcc" v="A41"/>
    <tag k="tiger:county" v="Travis, TX"/>
    <tag k="tiger:name_base" v="Lamar"/>
    <tag k="tiger:name_direction_prefix" v="N"/>
    <tag k="tiger:name_type" v="Blvd"/>
    <tag k="tiger:reviewed" v="no"/>
    <tag k="tiger:separated" v="no"/>
    <tag k="tiger:source" v="tiger_import_dch_v0.6_20070830"/>
    <tag k="tiger:tlid" v="64010030:64039755"/>
  </way>
  <way id="51864153" version="3" timestamp="2011-08-18T05:48:25Z" uid="119881" user="Clorox" changeset="9053803">
    <nd ref="152534192"/>
    <nd ref="152551326"/>
    <nd ref="298584729"/>
    <tag k="highway" v="primary"/>
    <tag k="name" v="North Lamar Boulevard"/>
    <tag k="oneway" v="yes"/>
    <tag k="ref" v="Loop 343"/>
    <tag k="tiger:cfcc" v="A41"/>
    <tag k="tiger:county" v="Travis, TX"/>
    <tag k="tiger:name_base" v="Lamar"/>
    <tag k="tiger:name_direction_prefix" v="N"/>
    <tag k="tiger:name_type" v="Blvd"/>
    <tag k="tiger:reviewed" v="no"/>
    <tag k="tiger:separated" v="no"/>
    <tag k="tiger:source" v="tiger_import_dch_v0.6_20070830"/>
    <tag k="tiger:tlid" v="64010030:64039755"/>
  </way>
  <way id="51864153" version="4" timestamp="2012-01-03T09:38:09Z" uid="207745" user="NE2" changeset="10279358">
    <nd ref="152534192"/>
    <nd ref="152551326"/>
    <nd ref="298584729"/>
    <tag k="highway" v="primary"/>
    <tag k="name" v="North Lamar Boulevard"/>
    <tag k="old_ref" v="US 290"/>
    <tag k="oneway" v="yes"/>
    <tag k="ref" v="Loop 343"/>
    <tag k="tiger:cfcc" v="A41"/>
    <tag k="tiger:county" v="Travis, TX"/>
    <tag k="tiger:name_base" v="Lamar"/>
    <tag k="tiger:name_direction_prefix" v="N"/>
    <tag k="tiger:name_type" v="Blvd"/>
    <tag k="tiger:reviewed" v="no"/>
    <tag k="tiger:separated" v="no"/>
    <tag k="tiger:source" v="tiger_import_dch_v0.6_20070830"/>
    <tag k="tiger:tlid" v="64010030:64039755"/>
  </way>
  <way id="51864280" version="1" timestamp="2010-03-07T01:40:16Z" uid="7617" user="Franc" changeset="4056923">
    <nd ref="21400486"/>
    <nd ref="140932012"/>
    <nd ref="26379947"/>
    <nd ref="140931748"/>
    <nd ref="123049986"/>
    <nd ref="140935237"/>
    <nd ref="21400487"/>
    <nd ref="245493809"/>
    <nd ref="123052159"/>
    <nd ref="60072824"/>
    <tag k="highway" v="secondary"/>
    <tag k="name" v="Harbord Road"/>
  </way>
  <way id="51864280" version="2" timestamp="2010-03-07T09:38:53Z" uid="7617" user="Franc" changeset="4058654">
    <nd ref="21400486"/>
    <nd ref="662063033"/>
    <nd ref="140932012"/>
    <nd ref="26379947"/>
    <nd ref="140931748"/>
    <nd ref="123049986"/>
    <nd ref="140935237"/>
    <nd ref="21400487"/>
    <nd ref="245493809"/>
    <nd ref="123052159"/>
    <nd ref="60072824"/>
    <tag k="highway" v="secondary"/>
    <tag k="name" v="Harbord Road"/>
  </way>
  <way id="51864281" version="1" timestamp="2010-03-07T01:40:17Z" uid="7617" user="Franc" changeset="4056923">
    <nd ref="661794713"/>
    <nd ref="581718880"/>
    <nd ref="122967425"/>
    <tag k="highway" v="secondary"/>
    <tag k="name" v="Pitt Road"/>
    <tag k="restriction" v="school_zone"/>
    <tag k="source" v="survey"/>
  </way>
  <way id="51864282" version="1" timestamp="2010-03-07T01:40:17Z" uid="7617" user="Franc" changeset="4056923">
    <nd ref="661794716"/>
    <nd ref="114308091"/>
    <nd ref="661794715"/>
    <nd ref="114308092"/>
    <nd ref="114308093"/>
    <nd ref="661794711"/>
    <nd ref="114308094"/>
    <tag k="highway" v="secondary"/>
    <tag k="name" v="Headland Road"/>
  </way>
  <way id="51864283" version="1" timestamp="2010-03-07T01:40:17Z" uid="7617" user="Franc" changeset="4056923">
    <nd ref="661794712"/>
    <nd ref="114308094"/>
    <nd ref="458868508"/>
    <nd ref="140925416"/>
    <nd ref="122967425"/>
    <tag k="highway" v="secondary"/>
    <tag k="name" v="Harbord Road"/>
    <tag k="restriction" v="school_zone"/>
    <tag k="source" v="survey"/>
  </way>
  <way id="51864284" version="1" timestamp="2010-03-07T01:40:17Z" uid="7617" user="Franc" changeset="4056923">
    <nd ref="661794708"/>
    <nd ref="140930176"/>
    <tag k="highway" v="residential"/>
    <tag k="name" v="Miles Street"/>
    <tag k="restriction" v="school_zone"/>
    <tag k="source:name" v="survey"/>
  </way>
  <way id="51864284" version="2" timestamp="2010-07-07T23:35:13Z" uid="74617" user="JohnSmith" changeset="5162525">
    <nd ref="661794708"/>
    <nd ref="140930176"/>
    <tag k="highway" v="residential"/>
    <tag k="maxspeed" v="50"/>
    <tag k="maxspeed:source" v="default residential speed limit in Australia"/>
    <tag k="name" v="Miles Street"/>
    <tag k="restriction" v="school_zone"/>
    <tag k="source:name" v="survey"/>
  </way>
  <way id="51864284" version="3" timestamp="2011-08-17T23:46:17Z" uid="20949" user="Ebenezer" changeset="9052883">
    <nd ref="661794708"/>
    <nd ref="140930176"/>
    <tag k="highway" v="residential"/>
    <tag k="lcn" v="yes"/>
    <tag k="maxspeed" v="50"/>
    <tag k="maxspeed:source" v="default residential speed limit in Australia"/>
    <tag k="name" v="Miles Street"/>
    <tag k="restriction" v="school_zone"/>
    <tag k="source:name" v="survey"/>
  </way>
  <way id="51864284" version="4" timestamp="2012-01-20T03:27:15Z" uid="147510" user="woodpeck_fixbot" changeset="10442986">
    <nd ref="661794708"/>
    <nd ref="140930176"/>
    <tag k="highway" v="residential"/>
    <tag k="lcn" v="yes"/>
    <tag k="name" v="Miles Street"/>
    <tag k="restriction" v="school_zone"/>
    <tag k="source:name" v="survey"/>
  </way>
  <way id="51864285" version="1" timestamp="2010-03-07T01:40:17Z" uid="7617" user="Franc" changeset="4056923">
    <nd ref="661794709"/>
    <nd ref="140930022"/>
    <tag k="highway" v="tertiary"/>
    <tag k="name" v="Wattle Road"/>
    <tag k="restriction" v="school_zone"/>
    <tag k="source:name" v="survey"/>
  </way>
  <way id="51864286" version="1" timestamp="2010-03-07T01:40:17Z" uid="7617" user="Franc" changeset="4056923">
    <nd ref="661794710"/>
    <nd ref="140925416"/>
    <tag k="highway" v="residential"/>
    <tag k="name" v="Winbourne Road"/>
    <tag k="restriction" v="school_zone"/>
  </way>
  <way id="51864286" version="2" timestamp="2010-07-07T23:35:59Z" uid="74617" user="JohnSmith" changeset="5162525">
    <nd ref="661794710"/>
    <nd ref="140925416"/>
    <tag k="highway" v="residential"/>
    <tag k="maxspeed" v="50"/>
    <tag k="maxspeed:source" v="default residential speed limit in Australia"/>
    <tag k="name" v="Winbourne Road"/>
    <tag k="restriction" v="school_zone"/>
  </way>
  <way id="51864286" version="3" timestamp="2012-01-20T03:27:17Z" uid="147510" user="woodpeck_fixbot" changeset="10442986">
    <nd ref="661794710"/>
    <nd ref="140925416"/>
    <tag k="highway" v="residential"/>
    <tag k="name" v="Winbourne Road"/>
    <tag k="restriction" v="school_zone"/>
  </way>
  <way id="51864287" version="1" timestamp="2010-03-07T01:40:17Z" uid="7617" user="Franc" changeset="4056923">
    <nd ref="661794736"/>
    <nd ref="114306926"/>
    <nd ref="114307388"/>
    <nd ref="114306927"/>
    <nd ref="114306928"/>
    <nd ref="114306009"/>
    <tag k="highway" v="residential"/>
    <tag k="name" v="Quirk Street"/>
  </way>
  <way id="51864287" version="2" timestamp="2010-07-07T23:33:04Z" uid="74617" user="JohnSmith" changeset="5162525">
    <nd ref="661794736"/>
    <nd ref="114306926"/>
    <nd ref="114307388"/>
    <nd ref="114306927"/>
    <nd ref="114306928"/>
    <nd ref="114306009"/>
    <tag k="highway" v="residential"/>
    <tag k="maxspeed" v="50"/>
    <tag k="maxspeed:source" v="default residential speed limit in Australia"/>
    <tag k="name" v="Quirk Street"/>
  </way>
  <way id="51864287" version="3" timestamp="2012-01-20T03:27:18Z" uid="147510" user="woodpeck_fixbot" changeset="10442986">
    <nd ref="661794736"/>
    <nd ref="114306926"/>
    <nd ref="114307388"/>
    <nd ref="114306927"/>
    <nd ref="114306928"/>
    <nd ref="114306009"/>
    <tag k="highway" v="residential"/>
    <tag k="name" v="Quirk Street"/>
  </way>
  <way id="51864288" version="1" timestamp="2010-03-07T01:40:18Z" uid="7617" user="Franc" changeset="4056923">
    <nd ref="114307737"/>
    <nd ref="661794718"/>
    <nd ref="114306925"/>
    <nd ref="661794720"/>
    <nd ref="661794719"/>
    <nd ref="114308090"/>
    <nd ref="661794716"/>
    <tag k="highway" v="secondary"/>
    <tag k="name" v="Headland Road"/>
    <tag k="restriction" v="school_zone"/>
  </way>
  <way id="51864289" version="1" timestamp="2010-03-07T01:40:18Z" uid="7617" user="Franc" changeset="4056923">
    <nd ref="661794729"/>
    <nd ref="114307385"/>
    <nd ref="114307386"/>
    <nd ref="114307387"/>
    <nd ref="114307388"/>
    <tag k="highway" v="residential"/>
    <tag k="name" v="Tango Avenue"/>
  </way>
  <way id="51864289" version="2" timestamp="2010-07-07T23:33:02Z" uid="74617" user="JohnSmith" changeset="5162525">
    <nd ref="661794729"/>
    <nd ref="114307385"/>
    <nd ref="114307386"/>
    <nd ref="114307387"/>
    <nd ref="114307388"/>
    <tag k="highway" v="residential"/>
    <tag k="maxspeed" v="50"/>
    <tag k="maxspeed:source" v="default residential speed limit in Australia"/>
    <tag k="name" v="Tango Avenue"/>
  </way>
  <way id="51864289" version="3" timestamp="2012-01-20T03:27:19Z" uid="147510" user="woodpeck_fixbot" changeset="10442986">
    <nd ref="661794729"/>
    <nd ref="114307385"/>
    <nd ref="114307386"/>
    <nd ref="114307387"/>
    <nd ref="114307388"/>
    <tag k="highway" v="residential"/>
    <tag k="name" v="Tango Avenue"/>
  </way>
  <way id="51864290" version="1" timestamp="2010-03-07T01:40:18Z" uid="7617" user="Franc" changeset="4056923">
    <nd ref="661794717"/>
    <nd ref="661794731"/>
    <nd ref="123025702"/>
    <nd ref="661794732"/>
    <nd ref="661794733"/>
    <nd ref="661794721"/>
    <nd ref="661794722"/>
    <nd ref="661794723"/>
    <nd ref="661794724"/>
    <nd ref="661794725"/>
    <nd ref="661794726"/>
    <nd ref="661794717"/>
    <tag k="amenity" v="school"/>
  </way>
</osm>
