<?xml version='1.0' encoding='UTF-8'?>
<osm version="0.6" generator="libosmium/2.20.0">
  <way id="51964168" version="1" timestamp="2010-03-08T00:36:51Z" uid="230283" user="AuFCL" changeset="4068042">
    <nd ref="662705324"/>
    <nd ref="662705348"/>
    <tag k="highway" v="residential"/>
    <tag k="name" v="Sharpe Street"/>
  </way>
  <way id="51964168" version="2" timestamp="2010-07-07T07:20:01Z" uid="74617" user="JohnSmith" changeset="5156250">
    <nd ref="662705324"/>
    <nd ref="662705348"/>
    <tag k="highway" v="residential"/>
    <tag k="maxspeed" v="50"/>
    <tag k="maxspeed:source" v="default residential speed limit in Australia"/>
    <tag k="name" v="Sharpe Street"/>
  </way>
  <way id="51964168" version="3" timestamp="2012-01-20T03:30:57Z" uid="147510" user="woodpeck_fixbot" changeset="10442986">
    <nd ref="662705324"/>
    <nd ref="662705348"/>
    <tag k="highway" v="residential"/>
    <tag k="name" v="Sharpe Street"/>
  </way>
  <way id="51964176" version="1" timestamp="2010-03-08T00:37:53Z" uid="230283" user="AuFCL" changeset="4068042">
    <nd ref="662705348"/>
    <nd ref="662706850"/>
    <nd ref="662706853"/>
    <nd ref="662706855"/>
    <nd ref="662706858"/>
    <nd ref="662706860"/>
    <nd ref="662701884"/>
    <nd ref="662706863"/>
    <nd ref="662706864"/>
    <nd ref="662701870"/>
    <nd ref="662706865"/>
    <nd ref="662706866"/>
    <nd ref="662701501"/>
    <tag k="FIXME" v="incomplete"/>
    <tag k="highway" v="residential"/>
    <tag k="name" v="Cedar Crescent"/>
  </way>
  <way id="51964176" version="2" timestamp="2010-04-15T01:05:05Z" uid="244897" user="M526244" changeset="4427664">
    <nd ref="662705348"/>
    <nd ref="662706850"/>
    <nd ref="662706853"/>
    <nd ref="662706855"/>
    <nd ref="662706858"/>
    <nd ref="662706860"/>
    <nd ref="662701884"/>
    <nd ref="662706863"/>
    <nd ref="662706864"/>
    <nd ref="662701870"/>
    <nd ref="662706865"/>
    <nd ref="662706866"/>
    <nd ref="662701501"/>
    <nd ref="697188859"/>
    <nd ref="697188860"/>
    <nd ref="697188855"/>
    <tag k="FIXME" v="incomplete"/>
    <tag k="highway" v="residential"/>
    <tag k="name" v="Cedar Crescent"/>
  </way>
  <way id="51964176" version="3" timestamp="2010-05-11T11:13:55Z" uid="244897" user="M526244" changeset="4667517">
    <nd ref="697191191"/>
    <nd ref="697191188"/>
    <nd ref="729633983"/>
    <nd ref="729633984"/>
    <nd ref="729633986"/>
    <nd ref="662705348"/>
    <nd ref="662706850"/>
    <nd ref="662706853"/>
    <nd ref="662706855"/>
    <nd ref="662706858"/>
    <nd ref="662706860"/>
    <nd ref="662701884"/>
    <nd ref="662706863"/>
    <nd ref="662706864"/>
    <nd ref="662701870"/>
    <nd ref="662706865"/>
    <nd ref="662706866"/>
    <nd ref="662701501"/>
    <nd ref="697188859"/>
    <nd ref="697188860"/>
    <nd ref="697188855"/>
    <tag k="FIXME" v="incomplete"/>
    <tag k="highway" v="residential"/>
    <tag k="name" v="Cedar Crescent"/>
    <tag k="source" v="survey"/>
  </way>
  <way id="51964176" version="4" timestamp="2010-05-13T08:26:16Z" uid="244897" user="M526244" changeset="4683344">
    <nd ref="729633854"/>
    <nd ref="697191198"/>
    <nd ref="697191191"/>
    <nd ref="697191188"/>
    <nd ref="729633983"/>
    <nd ref="729633984"/>
    <nd ref="731884289"/>
    <tag k="FIXME" v="incomplete"/>
    <tag k="highway" v="residential"/>
    <tag k="name" v="Cedar Crescent"/>
    <tag k="oneway" v="yes"/>
    <tag k="source" v="survey"/>
  </way>
  <way id="51964176" version="5" timestamp="2010-05-21T10:25:11Z" uid="244897" user="M526244" changeset="4764440">
    <nd ref="729633854"/>
    <nd ref="697191198"/>
    <nd ref="697191191"/>
    <nd ref="697191188"/>
    <nd ref="729633983"/>
    <nd ref="729633984"/>
    <nd ref="731884289"/>
    <tag k="highway" v="residential"/>
    <tag k="name" v="Cedar Crescent"/>
    <tag k="oneway" v="yes"/>
    <tag k="source" v="survey"/>
  </way>
  <way id="51964176" version="6" timestamp="2010-07-07T07:19:30Z" uid="74617" user="JohnSmith" changeset="5156250">
    <nd ref="729633854"/>
    <nd ref="697191198"/>
    <nd ref="697191191"/>
    <nd ref="697191188"/>
    <nd ref="729633983"/>
    <nd ref="729633984"/>
    <nd ref="731884289"/>
    <tag k="highway" v="residential"/>
    <tag k="maxspeed" v="50"/>
    <tag k="maxspeed:source" v="default residential speed limit in Australia"/>
    <tag k="name" v="Cedar Crescent"/>
    <tag k="oneway" v="yes"/>
    <tag k="source" v="survey"/>
  </way>
  <way id="51964176" version="7" timestamp="2012-01-20T03:30:58Z" uid="147510" user="woodpeck_fixbot" changeset="10442986">
    <nd ref="729633854"/>
    <nd ref="697191198"/>
    <nd ref="697191191"/>
    <nd ref="697191188"/>
    <nd ref="729633983"/>
    <nd ref="729633984"/>
    <nd ref="731884289"/>
    <tag k="highway" v="residential"/>
    <tag k="name" v="Cedar Crescent"/>
    <tag k="oneway" v="yes"/>
    <tag k="source" v="survey"/>
  </way>
  <way id="51964786" version="1" timestamp="2010-03-08T00:41:48Z" uid="230283" user="AuFCL" changeset="4068042">
    <nd ref="662706865"/>
    <nd ref="662708815"/>
    <tag k="highway" v="residential"/>
    <tag k="name" v="Easter Parade"/>
  </way>
  <way id="51964786" version="2" timestamp="2010-07-07T07:20:39Z" uid="74617" user="JohnSmith" changeset="5156250">
    <nd ref="662706865"/>
    <nd ref="662708815"/>
    <tag k="highway" v="residential"/>
    <tag k="maxspeed" v="50"/>
    <tag k="maxspeed:source" v="default residential speed limit in Australia"/>
    <tag k="name" v="Easter Parade"/>
  </way>
  <way id="51964786" version="3" timestamp="2012-01-20T03:30:59Z" uid="147510" user="woodpeck_fixbot" changeset="10442986">
    <nd ref="662706865"/>
    <nd ref="662708815"/>
    <tag k="highway" v="residential"/>
    <tag k="name" v="Easter Parade"/>
  </way>
  <way id="51964787" version="1" timestamp="2010-03-08T00:41:49Z" uid="230283" user="AuFCL" changeset="4068042">
    <nd ref="410108711"/>
    <nd ref="470175595"/>
    <nd ref="256557153"/>
    <nd ref="256557152"/>
    <nd ref="662708814"/>
    <tag k="highway" v="residential"/>
    <tag k="name" v="Compton Drive"/>
  </way>
  <way id="51964787" version="2" timestamp="2010-05-13T08:26:14Z" uid="244897" user="M526244" changeset="4683344">
    <nd ref="470175595"/>
    <nd ref="256557153"/>
    <nd ref="731884296"/>
    <nd ref="256557152"/>
    <nd ref="662708814"/>
    <tag k="highway" v="residential"/>
    <tag k="name" v="Compton Drive"/>
  </way>
  <way id="51964787" version="3" timestamp="2010-06-13T22:27:02Z" uid="244897" user="M526244" changeset="4983660">
    <nd ref="772258034"/>
    <nd ref="256557153"/>
    <nd ref="731884296"/>
    <nd ref="256557152"/>
    <nd ref="662708814"/>
    <tag k="highway" v="residential"/>
    <tag k="name" v="Compton Drive"/>
  </way>
  <way id="51964787" version="4" timestamp="2010-07-07T07:19:24Z" uid="74617" user="JohnSmith" changeset="5156250">
    <nd ref="772258034"/>
    <nd ref="256557153"/>
    <nd ref="731884296"/>
    <nd ref="256557152"/>
    <nd ref="662708814"/>
    <tag k="highway" v="residential"/>
    <tag k="maxspeed" v="50"/>
    <tag k="maxspeed:source" v="default residential speed limit in Australia"/>
    <tag k="name" v="Compton Drive"/>
  </way>
  <way id="51964787" version="5" timestamp="2011-01-20T21:36:29Z" uid="69076" user="axk" changeset="7035158">
    <nd ref="772258034"/>
    <nd ref="256557152"/>
    <nd ref="1112217203"/>
    <nd ref="1112217068"/>
    <nd ref="256557151"/>
    <nd ref="697188855"/>
    <nd ref="410108710"/>
    <nd ref="600386329"/>
    <tag k="highway" v="residential"/>
    <tag k="maxspeed" v="50"/>
    <tag k="maxspeed:source" v="default residential speed limit in Australia"/>
    <tag k="name" v="Compton Drive"/>
  </way>
  <way id="51964787" version="6" timestamp="2012-01-20T03:31:01Z" uid="147510" user="woodpeck_fixbot" changeset="10442986">
    <nd ref="772258034"/>
    <nd ref="256557152"/>
    <nd ref="1112217203"/>
    <nd ref="1112217068"/>
    <nd ref="256557151"/>
    <nd ref="697188855"/>
    <nd ref="410108710"/>
    <nd ref="600386329"/>
    <tag k="highway" v="residential"/>
    <tag k="name" v="Compton Drive"/>
  </way>
  <way id="51964787" version="7" timestamp="2012-03-19T07:32:33Z" uid="632558" user="theranmann" changeset="11026784">
    <nd ref="772258034"/>
    <nd ref="256557152"/>
    <nd ref="1112217203"/>
    <nd ref="1112217068"/>
    <nd ref="256557151"/>
    <nd ref="697188855"/>
    <nd ref="410108710"/>
    <nd ref="600386329"/>
    <tag k="highway" v="secondary"/>
    <tag k="name" v="Compton Drive"/>
  </way>
  <way id="51964788" version="1" timestamp="2010-03-08T00:41:49Z" uid="230283" user="AuFCL" changeset="4068042">
    <nd ref="662708814"/>
    <nd ref="662708816"/>
    <nd ref="662708817"/>
    <tag k="FIXME" v="incomplete"/>
    <tag k="highway" v="residential"/>
    <tag k="name" v="Compton Drive"/>
    <tag k="note" v="Local traffic only; frequent speed bumps."/>
    <tag k="oneway" v="yes"/>
  </way>
  <way id="51964788" version="2" timestamp="2010-04-15T01:05:06Z" uid="244897" user="M526244" changeset="4427664">
    <nd ref="662708814"/>
    <nd ref="662708816"/>
    <nd ref="662708817"/>
    <nd ref="697188860"/>
    <nd ref="697188860"/>
    <nd ref="697188860"/>
    <tag k="FIXME" v="incomplete"/>
    <tag k="highway" v="residential"/>
    <tag k="name" v="Compton Drive"/>
    <tag k="note" v="Local traffic only; frequent speed bumps."/>
    <tag k="oneway" v="yes"/>
  </way>
  <way id="51964788" version="3" timestamp="2010-04-15T18:28:32Z" uid="70696" user="xybot" changeset="4432989">
    <nd ref="662708814"/>
    <nd ref="662708816"/>
    <nd ref="662708817"/>
    <nd ref="697188860"/>
    <tag k="FIXME" v="incomplete"/>
    <tag k="highway" v="residential"/>
    <tag k="name" v="Compton Drive"/>
    <tag k="note" v="Local traffic only; frequent speed bumps."/>
    <tag k="oneway" v="yes"/>
  </way>
  <way id="51964788" version="4" timestamp="2010-05-13T08:26:16Z" uid="244897" user="M526244" changeset="4683344">
    <nd ref="256557152"/>
    <nd ref="731884317"/>
    <nd ref="662708816"/>
    <nd ref="662708817"/>
    <nd ref="697188860"/>
    <tag k="FIXME" v="incomplete"/>
    <tag k="highway" v="residential"/>
    <tag k="name" v="Compton Drive"/>
    <tag k="note" v="Local traffic only; frequent speed bumps."/>
    <tag k="oneway" v="yes"/>
  </way>
  <way id="51964788" version="5" timestamp="2010-05-21T10:25:12Z" uid="244897" user="M526244" changeset="4764440">
    <nd ref="256557152"/>
    <nd ref="731884317"/>
    <nd ref="662708816"/>
    <nd ref="662708817"/>
    <nd ref="697188860"/>
    <tag k="highway" v="residential"/>
    <tag k="name" v="Compton Drive"/>
    <tag k="note" v="Local traffic only; frequent speed bumps."/>
    <tag k="oneway" v="yes"/>
  </way>
  <way id="51964788" version="6" timestamp="2010-07-07T07:16:47Z" uid="74617" user="JohnSmith" changeset="5156250">
    <nd ref="256557152"/>
    <nd ref="731884317"/>
    <nd ref="662708816"/>
    <nd ref="662708817"/>
    <nd ref="697188860"/>
    <tag k="highway" v="residential"/>
    <tag k="maxspeed" v="50"/>
    <tag k="maxspeed:source" v="default residential speed limit in Australia"/>
    <tag k="name" v="Compton Drive"/>
    <tag k="note" v="Local traffic only; frequent speed bumps."/>
    <tag k="oneway" v="yes"/>
  </way>
  <way id="51964788" version="7" timestamp="2011-01-20T21:36:31Z" uid="69076" user="axk" changeset="7035158">
    <nd ref="256557152"/>
    <nd ref="731884317"/>
    <nd ref="1112217161"/>
    <nd ref="662708817"/>
    <nd ref="697188860"/>
    <tag k="highway" v="residential"/>
    <tag k="maxspeed" v="50"/>
    <tag k="maxspeed:source" v="default residential speed limit in Australia"/>
    <tag k="name" v="Compton Drive"/>
    <tag k="note" v="Local traffic only; frequent speed bumps."/>
    <tag k="oneway" v="yes"/>
  </way>
  <way id="51964788" version="8" timestamp="2012-01-20T03:31:02Z" uid="147510" user="woodpeck_fixbot" changeset="10442986">
    <nd ref="256557152"/>
    <nd ref="731884317"/>
    <nd ref="1112217161"/>
    <nd ref="662708817"/>
    <nd ref="697188860"/>
    <tag k="highway" v="residential"/>
    <tag k="name" v="Compton Drive"/>
    <tag k="note" v="Local traffic only; frequent speed bumps."/>
    <tag k="oneway" v="yes"/>
  </way>
  <way id="51964793" version="1" timestamp="2010-03-08T00:42:37Z" uid="230283" user="AuFCL" changeset="4068042">
    <nd ref="662708817"/>
    <nd ref="662708984"/>
    <nd ref="662708985"/>
    <nd ref="662708986"/>
    <nd ref="662708815"/>
    <tag k="FIXME" v="incomplete"/>
    <tag k="highway" v="residential"/>
    <tag k="name" v="McKinnon Street"/>
  </way>
  <way id="51964793" version="2" timestamp="2010-05-21T10:25:08Z" uid="244897" user="M526244" changeset="4764440">
    <nd ref="662708817"/>
    <nd ref="662708984"/>
    <nd ref="662708985"/>
    <nd ref="662708986"/>
    <nd ref="662708815"/>
    <tag k="highway" v="residential"/>
    <tag k="name" v="McKinnon Street"/>
  </way>
  <way id="51964793" version="3" timestamp="2010-07-07T07:20:06Z" uid="74617" user="JohnSmith" changeset="5156250">
    <nd ref="662708817"/>
    <nd ref="662708984"/>
    <nd ref="662708985"/>
    <nd ref="662708986"/>
    <nd ref="662708815"/>
    <tag k="highway" v="residential"/>
    <tag k="maxspeed" v="50"/>
    <tag k="maxspeed:source" v="default residential speed limit in Australia"/>
    <tag k="name" v="McKinnon Street"/>
  </way>
  <way id="51964793" version="4" timestamp="2011-01-20T21:36:57Z" uid="69076" user="axk" changeset="7035158">
    <nd ref="662708817"/>
    <nd ref="662708984"/>
    <nd ref="662708986"/>
    <nd ref="662708815"/>
    <tag k="highway" v="residential"/>
    <tag k="maxspeed" v="50"/>
    <tag k="maxspeed:source" v="default residential speed limit in Australia"/>
    <tag k="name" v="McKinnon Street"/>
  </way>
  <way id="51964793" version="5" timestamp="2012-01-20T03:31:03Z" uid="147510" user="woodpeck_fixbot" changeset="10442986">
    <nd ref="662708817"/>
    <nd ref="662708984"/>
    <nd ref="662708986"/>
    <nd ref="662708815"/>
    <tag k="highway" v="residential"/>
    <tag k="name" v="McKinnon Street"/>
  </way>
  <way id="51964795" version="1" timestamp="2010-03-08T00:43:20Z" uid="230283" user="AuFCL" changeset="4068042">
    <nd ref="662706863"/>
    <nd ref="662708993"/>
    <tag k="highway" v="residential"/>
    <tag k="name" v="Yabsley Street"/>
  </way>
  <way id="51964795" version="2" timestamp="2010-07-07T07:17:53Z" uid="74617" user="JohnSmith" changeset="5156250">
    <nd ref="662706863"/>
    <nd ref="662708993"/>
    <tag k="highway" v="residential"/>
    <tag k="maxspeed" v="50"/>
    <tag k="maxspeed:source" v="default residential speed limit in Australia"/>
    <tag k="name" v="Yabsley Street"/>
  </way>
  <way id="51964795" version="3" timestamp="2012-01-20T03:31:04Z" uid="147510" user="woodpeck_fixbot" changeset="10442986">
    <nd ref="662706863"/>
    <nd ref="662708993"/>
    <tag k="highway" v="residential"/>
    <tag k="name" v="Yabsley Street"/>
  </way>
  <way id="51964797" version="1" timestamp="2010-03-08T00:43:52Z" uid="230283" user="AuFCL" changeset="4068042">
    <nd ref="662708993"/>
    <nd ref="662709002"/>
    <nd ref="662709003"/>
    <tag k="FIXME" v="incomplete"/>
    <tag k="highway" v="residential"/>
    <tag k="name" v="McKinnon Street"/>
  </way>
  <way id="51964797" version="2" timestamp="2010-04-15T01:31:17Z" uid="244897" user="M526244" changeset="4427743">
    <nd ref="697191188"/>
    <nd ref="697191189"/>
    <nd ref="697191190"/>
    <nd ref="662708993"/>
    <nd ref="662709002"/>
    <nd ref="662709003"/>
    <tag k="FIXME" v="incomplete"/>
    <tag k="highway" v="residential"/>
    <tag k="name" v="McKinnon Street"/>
  </way>
  <way id="51964797" version="3" timestamp="2010-05-13T08:26:08Z" uid="244897" user="M526244" changeset="4683344">
    <nd ref="697191188"/>
    <nd ref="731884287"/>
    <nd ref="697191189"/>
    <nd ref="697191190"/>
    <nd ref="662708993"/>
    <nd ref="662709002"/>
    <nd ref="662709003"/>
    <nd ref="731884288"/>
    <nd ref="662708815"/>
    <tag k="highway" v="residential"/>
    <tag k="name" v="McKinnon Street"/>
    <tag k="source" v="survey"/>
  </way>
  <way id="51964797" version="4" timestamp="2010-07-07T07:19:14Z" uid="74617" user="JohnSmith" changeset="5156250">
    <nd ref="697191188"/>
    <nd ref="731884287"/>
    <nd ref="697191189"/>
    <nd ref="697191190"/>
    <nd ref="662708993"/>
    <nd ref="662709002"/>
    <nd ref="662709003"/>
    <nd ref="731884288"/>
    <nd ref="662708815"/>
    <tag k="highway" v="residential"/>
    <tag k="maxspeed" v="50"/>
    <tag k="maxspeed:source" v="default residential speed limit in Australia"/>
    <tag k="name" v="McKinnon Street"/>
    <tag k="source" v="survey"/>
  </way>
  <way id="51964797" version="5" timestamp="2011-01-20T21:37:12Z" uid="69076" user="axk" changeset="7035158">
    <nd ref="697191188"/>
    <nd ref="731884287"/>
    <nd ref="697191189"/>
    <nd ref="697191190"/>
    <nd ref="662708993"/>
    <nd ref="662709003"/>
    <nd ref="731884288"/>
    <nd ref="662708815"/>
    <tag k="highway" v="residential"/>
    <tag k="maxspeed" v="50"/>
    <tag k="maxspeed:source" v="default residential speed limit in Australia"/>
    <tag k="name" v="McKinnon Street"/>
    <tag k="source" v="survey"/>
  </way>
  <way id="51964797" version="6" timestamp="2012-01-20T03:31:06Z" uid="147510" user="woodpeck_fixbot" changeset="10442986">
    <nd ref="697191188"/>
    <nd ref="731884287"/>
    <nd ref="697191189"/>
    <nd ref="697191190"/>
    <nd ref="662708993"/>
    <nd ref="662709003"/>
    <nd ref="731884288"/>
    <nd ref="662708815"/>
    <tag k="highway" v="residential"/>
    <tag k="name" v="McKinnon Street"/>
    <tag k="source" v="survey"/>
  </way>
  <way id="51964813" version="1" timestamp="2010-03-08T00:46:17Z" uid="230283" user="AuFCL" changeset="4068042">
    <nd ref="662709003"/>
    <nd ref="662709208"/>
    <tag k="highway" v="residential"/>
    <tag k="name" v="Henderson Street"/>
  </way>
  <way id="51964813" version="2" timestamp="2010-07-07T07:19:33Z" uid="74617" user="JohnSmith" changeset="5156250">
    <nd ref="662709003"/>
    <nd ref="662709208"/>
    <tag k="highway" v="residential"/>
    <tag k="maxspeed" v="50"/>
    <tag k="maxspeed:source" v="default residential speed limit in Australia"/>
    <tag k="name" v="Henderson Street"/>
  </way>
  <way id="51964813" version="3" timestamp="2012-01-20T03:31:11Z" uid="147510" user="woodpeck_fixbot" changeset="10442986">
    <nd ref="662709003"/>
    <nd ref="662709208"/>
    <tag k="highway" v="residential"/>
    <tag k="name" v="Henderson Street"/>
  </way>
  <way id="51964841" version="1" timestamp="2010-03-08T00:47:41Z" uid="230283" user="AuFCL" changeset="4068042">
    <nd ref="662709208"/>
    <nd ref="662709313"/>
    <nd ref="662709314"/>
    <nd ref="662709315"/>
    <nd ref="662709316"/>
    <nd ref="256557152"/>
    <tag k="FIXME" v="incomplete"/>
    <tag k="highway" v="residential"/>
    <tag k="name" v="Cedar Crescent"/>
  </way>
  <way id="51964841" version="2" timestamp="2010-04-15T01:31:20Z" uid="244897" user="M526244" changeset="4427743">
    <nd ref="662709208"/>
    <nd ref="697191198"/>
    <nd ref="697191191"/>
    <nd ref="697191188"/>
    <tag k="FIXME" v="incomplete"/>
    <tag k="highway" v="residential"/>
    <tag k="name" v="Cedar Crescent"/>
    <tag k="source" v="survey"/>
  </way>
  <way id="51964841" version="3" timestamp="2010-05-11T11:13:58Z" uid="244897" user="M526244" changeset="4667517">
    <nd ref="662709208"/>
    <nd ref="697191198"/>
    <tag k="FIXME" v="incomplete"/>
    <tag k="highway" v="residential"/>
    <tag k="name" v="Cedar Crescent"/>
    <tag k="source" v="survey"/>
  </way>
  <way id="51964841" version="4" timestamp="2010-05-21T10:25:07Z" uid="244897" user="M526244" changeset="4764440">
    <nd ref="662709208"/>
    <nd ref="697191198"/>
    <tag k="highway" v="residential"/>
    <tag k="name" v="Cedar Crescent"/>
    <tag k="source" v="survey"/>
  </way>
  <way id="51964841" version="5" timestamp="2010-07-07T07:19:12Z" uid="74617" user="JohnSmith" changeset="5156250">
    <nd ref="662709208"/>
    <nd ref="697191198"/>
    <tag k="highway" v="residential"/>
    <tag k="maxspeed" v="50"/>
    <tag k="maxspeed:source" v="default residential speed limit in Australia"/>
    <tag k="name" v="Cedar Crescent"/>
    <tag k="source" v="survey"/>
  </way>
  <way id="51964841" version="6" timestamp="2012-01-20T03:31:11Z" uid="147510" user="woodpeck_fixbot" changeset="10442986">
    <nd ref="662709208"/>
    <nd ref="697191198"/>
    <tag k="highway" v="residential"/>
    <tag k="name" v="Cedar Crescent"/>
    <tag k="source" v="survey"/>
  </way>
  <way id="51964883" version="5" timestamp="2010-04-04T01:55:30Z" uid="20587" user="balrog-kun" changeset="4318136">
    <nd ref="305499332"/>
    <nd ref="672168189"/>
    <nd ref="662709783"/>
    <nd ref="662709784"/>
    <nd ref="662709785"/>
    <tag k="foot" v="yes"/>
    <tag k="highway" v="footway"/>
    <tag k="name" v="10th Street"/>
    <tag k="tiger:cfcc" v="A41"/>
    <tag k="tiger:county" v="Denver, CO"/>
    <tag k="tiger:name_base" v="10th"/>
    <tag k="tiger:name_type" v="St"/>
    <tag k="tiger:reviewed" v="no"/>
    <tag k="tiger:separated" v="no"/>
    <tag k="tiger:source" v="tiger_import_dch_v0.6_20070809"/>
    <tag k="tiger:tlid" v="177630948"/>
    <tag k="tiger:zip_left" v="80204"/>
    <tag k="tiger:zip_right" v="80204"/>
  </way>
  <way id="51964883" version="6" timestamp="2011-09-10T05:32:12Z" uid="365944" user="homeslice60148" changeset="9259448"/>
  <way id="51964885" version="1" timestamp="2010-03-08T00:52:20Z" uid="230283" user="AuFCL" changeset="4068042">
    <nd ref="410108745"/>
    <nd ref="410108746"/>
    <nd ref="410108747"/>
    <nd ref="410108748"/>
    <nd ref="410108749"/>
    <nd ref="410108750"/>
    <nd ref="410108739"/>
    <tag k="highway" v="residential"/>
    <tag k="name" v="Beach Road"/>
  </way>
  <way id="51964885" version="2" timestamp="2010-07-07T07:16:25Z" uid="74617" user="JohnSmith" changeset="5156250">
    <nd ref="410108745"/>
    <nd ref="410108746"/>
    <nd ref="410108747"/>
    <nd ref="410108748"/>
    <nd ref="410108749"/>
    <nd ref="410108750"/>
    <nd ref="410108739"/>
    <tag k="highway" v="residential"/>
    <tag k="maxspeed" v="50"/>
    <tag k="maxspeed:source" v="default residential speed limit in Australia"/>
    <tag k="name" v="Beach Road"/>
  </way>
  <way id="51964885" version="3" timestamp="2012-01-20T03:31:13Z" uid="147510" user="woodpeck_fixbot" changeset="10442986">
    <nd ref="410108745"/>
    <nd ref="410108746"/>
    <nd ref="410108747"/>
    <nd ref="410108748"/>
    <nd ref="410108749"/>
    <nd ref="410108750"/>
    <nd ref="410108739"/>
    <tag k="highway" v="residential"/>
    <tag k="name" v="Beach Road"/>
  </way>
  <way id="51964886" version="1" timestamp="2010-03-08T00:52:21Z" uid="230283" user="AuFCL" changeset="4068042">
    <nd ref="662709794"/>
    <nd ref="662709795"/>
    <nd ref="662709796"/>
    <nd ref="662709797"/>
    <tag k="highway" v="residential"/>
    <tag k="name" v="Seaview Street"/>
  </way>
  <way id="51964886" version="2" timestamp="2010-07-07T07:20:29Z" uid="74617" user="JohnSmith" changeset="5156250">
    <nd ref="662709794"/>
    <nd ref="662709795"/>
    <nd ref="662709796"/>
    <nd ref="662709797"/>
    <tag k="highway" v="residential"/>
    <tag k="maxspeed" v="50"/>
    <tag k="maxspeed:source" v="default residential speed limit in Australia"/>
    <tag k="name" v="Seaview Street"/>
  </way>
  <way id="51964886" version="3" timestamp="2011-01-20T21:36:36Z" uid="69076" user="axk" changeset="7035158">
    <nd ref="662709794"/>
    <nd ref="662709795"/>
    <nd ref="662709796"/>
    <nd ref="1112216891"/>
    <nd ref="662709797"/>
    <tag k="highway" v="residential"/>
    <tag k="maxspeed" v="50"/>
    <tag k="maxspeed:source" v="default residential speed limit in Australia"/>
    <tag k="name" v="Seaview Street"/>
  </way>
  <way id="51964886" version="4" timestamp="2012-01-20T03:31:14Z" uid="147510" user="woodpeck_fixbot" changeset="10442986">
    <nd ref="662709794"/>
    <nd ref="662709795"/>
    <nd ref="662709796"/>
    <nd ref="1112216891"/>
    <nd ref="662709797"/>
    <tag k="highway" v="residential"/>
    <tag k="name" v="Seaview Street"/>
  </way>
  <way id="51964925" version="1" timestamp="2010-03-08T00:59:31Z" uid="230283" user="AuFCL" changeset="4068042">
    <nd ref="662710013"/>
    <nd ref="662710015"/>
    <nd ref="662710016"/>
    <tag k="highway" v="residential"/>
    <tag k="name" v="Pacific Terrace"/>
  </way>
  <way id="51964925" version="2" timestamp="2010-04-15T01:31:18Z" uid="244897" user="M526244" changeset="4427743">
    <nd ref="662710013"/>
    <nd ref="697191187"/>
    <nd ref="662710015"/>
    <nd ref="697191195"/>
    <nd ref="662710016"/>
    <tag k="highway" v="residential"/>
    <tag k="name" v="Pacific Terrace"/>
  </way>
  <way id="51964925" version="3" timestamp="2010-05-11T11:14:01Z" uid="244897" user="M526244" changeset="4667517">
    <nd ref="662710013"/>
    <nd ref="697191187"/>
    <nd ref="662710015"/>
    <nd ref="697191195"/>
    <nd ref="729633980"/>
    <nd ref="662710016"/>
    <tag k="highway" v="residential"/>
    <tag k="name" v="Pacific Terrace"/>
  </way>
  <way id="51964925" version="4" timestamp="2010-07-07T07:18:48Z" uid="74617" user="JohnSmith" changeset="5156250">
    <nd ref="662710013"/>
    <nd ref="697191187"/>
    <nd ref="662710015"/>
    <nd ref="697191195"/>
    <nd ref="729633980"/>
    <nd ref="662710016"/>
    <tag k="highway" v="residential"/>
    <tag k="maxspeed" v="50"/>
    <tag k="maxspeed:source" v="default residential speed limit in Australia"/>
    <tag k="name" v="Pacific Terrace"/>
  </way>
  <way id="51964925" version="5" timestamp="2011-01-20T21:37:00Z" uid="69076" user="axk" changeset="7035158">
    <nd ref="662710013"/>
    <nd ref="697191187"/>
    <nd ref="697191195"/>
    <nd ref="729633980"/>
    <nd ref="662710016"/>
    <tag k="highway" v="residential"/>
    <tag k="maxspeed" v="50"/>
    <tag k="maxspeed:source" v="default residential speed limit in Australia"/>
    <tag k="name" v="Pacific Terrace"/>
  </way>
  <way id="51964925" version="6" timestamp="2012-01-20T03:31:15Z" uid="147510" user="woodpeck_fixbot" changeset="10442986">
    <nd ref="662710013"/>
    <nd ref="697191187"/>
    <nd ref="697191195"/>
    <nd ref="729633980"/>
    <nd ref="662710016"/>
    <tag k="highway" v="residential"/>
    <tag k="name" v="Pacific Terrace"/>
  </way>
  <way id="51964926" version="1" timestamp="2010-03-08T00:59:31Z" uid="230283" user="AuFCL" changeset="4068042">
    <nd ref="662710016"/>
    <nd ref="662710017"/>
    <nd ref="662710014"/>
    <tag k="FIXME" v="incomplete"/>
    <tag k="highway" v="residential"/>
    <tag k="name" v="Norfolk Avenue"/>
  </way>
  <way id="51964926" version="2" timestamp="2010-05-21T10:25:08Z" uid="244897" user="M526244" changeset="4764440">
    <nd ref="662710016"/>
    <nd ref="662710017"/>
    <nd ref="662710014"/>
    <tag k="highway" v="residential"/>
    <tag k="name" v="Norfolk Avenue"/>
  </way>
  <way id="51964926" version="3" timestamp="2010-07-07T07:17:41Z" uid="74617" user="JohnSmith" changeset="5156250">
    <nd ref="662710016"/>
    <nd ref="662710017"/>
    <nd ref="662710014"/>
    <tag k="highway" v="residential"/>
    <tag k="maxspeed" v="50"/>
    <tag k="maxspeed:source" v="default residential speed limit in Australia"/>
    <tag k="name" v="Norfolk Avenue"/>
  </way>
  <way id="51964926" version="4" timestamp="2012-01-20T03:31:16Z" uid="147510" user="woodpeck_fixbot" changeset="10442986">
    <nd ref="662710016"/>
    <nd ref="662710017"/>
    <nd ref="662710014"/>
    <tag k="highway" v="residential"/>
    <tag k="name" v="Norfolk Avenue"/>
  </way>
  <way id="51964927" version="1" timestamp="2010-03-08T01:00:08Z" uid="7617" user="Franc" changeset="4068230">
    <nd ref="662710018"/>
    <nd ref="662710024"/>
    <nd ref="662710025"/>
    <nd ref="662710026"/>
    <nd ref="662710027"/>
    <nd ref="662710028"/>
    <nd ref="662710029"/>
    <nd ref="662710030"/>
    <nd ref="662710031"/>
    <nd ref="662710032"/>
    <nd ref="662710033"/>
    <nd ref="662710055"/>
    <nd ref="662710056"/>
    <nd ref="662710057"/>
    <nd ref="662710036"/>
    <nd ref="662710034"/>
    <nd ref="662710035"/>
    <nd ref="662710020"/>
    <nd ref="662710021"/>
    <nd ref="662710022"/>
    <nd ref="662710023"/>
    <nd ref="662710019"/>
    <nd ref="662710018"/>
    <tag k="amenity" v="school"/>
    <tag k="source" v="nearmap"/>
  </way>
  <way id="51964928" version="1" timestamp="2010-03-08T01:00:08Z" uid="7617" user="Franc" changeset="4068230">
    <nd ref="662710087"/>
    <nd ref="122979677"/>
    <nd ref="122980081"/>
    <tag k="highway" v="residential"/>
    <tag k="name" v="Playfair Road"/>
    <tag k="source:name" v="survey"/>
  </way>
  <way id="51964928" version="2" timestamp="2010-07-07T23:32:44Z" uid="74617" user="JohnSmith" changeset="5162525">
    <nd ref="662710087"/>
    <nd ref="122979677"/>
    <nd ref="122980081"/>
    <tag k="highway" v="residential"/>
    <tag k="maxspeed" v="50"/>
    <tag k="maxspeed:source" v="default residential speed limit in Australia"/>
    <tag k="name" v="Playfair Road"/>
    <tag k="source:name" v="survey"/>
  </way>
  <way id="51964928" version="3" timestamp="2012-01-20T03:31:17Z" uid="147510" user="woodpeck_fixbot" changeset="10442986">
    <nd ref="662710087"/>
    <nd ref="122979677"/>
    <nd ref="122980081"/>
    <tag k="highway" v="residential"/>
    <tag k="name" v="Playfair Road"/>
    <tag k="source:name" v="survey"/>
  </way>
  <way id="51964929" version="1" timestamp="2010-03-08T01:00:09Z" uid="7617" user="Franc" changeset="4068230">
    <nd ref="662710039"/>
    <nd ref="662710058"/>
    <nd ref="204414903"/>
    <tag k="highway" v="residential"/>
    <tag k="name" v="Gulliver Street"/>
    <tag k="restriction" v="school_zone"/>
    <tag k="source:name" v="survey"/>
  </way>
  <way id="51964929" version="2" timestamp="2010-07-07T23:34:48Z" uid="74617" user="JohnSmith" changeset="5162525">
    <nd ref="662710039"/>
    <nd ref="662710058"/>
    <nd ref="204414903"/>
    <tag k="highway" v="residential"/>
    <tag k="maxspeed" v="50"/>
    <tag k="maxspeed:source" v="default residential speed limit in Australia"/>
    <tag k="name" v="Gulliver Street"/>
    <tag k="restriction" v="school_zone"/>
    <tag k="source:name" v="survey"/>
  </way>
  <way id="51964929" version="3" timestamp="2012-01-20T03:31:18Z" uid="147510" user="woodpeck_fixbot" changeset="10442986">
    <nd ref="662710039"/>
    <nd ref="662710058"/>
    <nd ref="204414903"/>
    <tag k="highway" v="residential"/>
    <tag k="name" v="Gulliver Street"/>
    <tag k="restriction" v="school_zone"/>
    <tag k="source:name" v="survey"/>
  </way>
  <way id="51964930" version="1" timestamp="2010-03-08T01:00:09Z" uid="7617" user="Franc" changeset="4068230">
    <nd ref="662710053"/>
    <nd ref="40522525"/>
    <tag k="highway" v="residential"/>
    <tag k="name" v="Federal Parade West"/>
    <tag k="restriction" v="school_zone"/>
    <tag k="source:name" v="survey"/>
  </way>
  <way id="51964930" version="2" timestamp="2010-07-07T23:33:29Z" uid="74617" user="JohnSmith" changeset="5162525">
    <nd ref="662710053"/>
    <nd ref="40522525"/>
    <tag k="highway" v="residential"/>
    <tag k="maxspeed" v="50"/>
    <tag k="maxspeed:source" v="default residential speed limit in Australia"/>
    <tag k="name" v="Federal Parade West"/>
    <tag k="restriction" v="school_zone"/>
    <tag k="source:name" v="survey"/>
  </way>
  <way id="51964930" version="3" timestamp="2010-10-22T22:18:05Z" uid="7617" user="Franc" changeset="6140904">
    <nd ref="662710053"/>
    <nd ref="960868607"/>
    <nd ref="40522525"/>
    <tag k="highway" v="residential"/>
    <tag k="maxspeed" v="50"/>
    <tag k="maxspeed:source" v="default residential speed limit in Australia"/>
    <tag k="name" v="Federal Parade West"/>
    <tag k="restriction" v="school_zone"/>
    <tag k="source:name" v="survey"/>
  </way>
  <way id="51964930" version="4" timestamp="2012-01-20T03:31:19Z" uid="147510" user="woodpeck_fixbot" changeset="10442986">
    <nd ref="662710053"/>
    <nd ref="960868607"/>
    <nd ref="40522525"/>
    <tag k="highway" v="residential"/>
    <tag k="name" v="Federal Parade West"/>
    <tag k="restriction" v="school_zone"/>
    <tag k="source:name" v="survey"/>
  </way>
  <way id="51964931" version="1" timestamp="2010-03-08T01:00:09Z" uid="7617" user="Franc" changeset="4068230">
    <nd ref="662710054"/>
    <nd ref="662710062"/>
    <nd ref="662710063"/>
    <nd ref="662710059"/>
    <nd ref="662710040"/>
    <nd ref="662710043"/>
    <nd ref="662710044"/>
    <nd ref="662710054"/>
    <tag k="amenity" v="school"/>
    <tag k="source" v="nearmap"/>
  </way>
  <way id="51964932" version="1" timestamp="2010-03-08T01:00:09Z" uid="7617" user="Franc" changeset="4068230">
    <nd ref="204415086"/>
    <nd ref="662710050"/>
    <nd ref="662710051"/>
    <nd ref="204413794"/>
    <tag k="highway" v="residential"/>
    <tag k="name" v="Consul Road"/>
  </way>
  <way id="51964932" version="2" timestamp="2010-07-07T23:31:04Z" uid="74617" user="JohnSmith" changeset="5162525">
    <nd ref="204415086"/>
    <nd ref="662710050"/>
    <nd ref="662710051"/>
    <nd ref="204413794"/>
    <tag k="highway" v="residential"/>
    <tag k="maxspeed" v="50"/>
    <tag k="maxspeed:source" v="default residential speed limit in Australia"/>
    <tag k="name" v="Consul Road"/>
  </way>
  <way id="51964932" version="3" timestamp="2012-01-20T03:31:20Z" uid="147510" user="woodpeck_fixbot" changeset="10442986">
    <nd ref="204415086"/>
    <nd ref="662710050"/>
    <nd ref="662710051"/>
    <nd ref="204413794"/>
    <tag k="highway" v="residential"/>
    <tag k="name" v="Consul Road"/>
  </way>
  <way id="51964933" version="1" timestamp="2010-03-08T01:00:09Z" uid="7617" user="Franc" changeset="4068230">
    <nd ref="662710047"/>
    <nd ref="662710049"/>
    <nd ref="662710048"/>
    <nd ref="662710052"/>
    <nd ref="204413794"/>
    <nd ref="204413795"/>
    <nd ref="204413796"/>
    <tag k="highway" v="residential"/>
    <tag k="name" v="Consul Road"/>
    <tag k="source:name" v="survey"/>
  </way>
  <way id="51964933" version="2" timestamp="2010-07-07T23:33:18Z" uid="74617" user="JohnSmith" changeset="5162525">
    <nd ref="662710047"/>
    <nd ref="662710049"/>
    <nd ref="662710048"/>
    <nd ref="662710052"/>
    <nd ref="204413794"/>
    <nd ref="204413795"/>
    <nd ref="204413796"/>
    <tag k="highway" v="residential"/>
    <tag k="maxspeed" v="50"/>
    <tag k="maxspeed:source" v="default residential speed limit in Australia"/>
    <tag k="name" v="Consul Road"/>
    <tag k="source:name" v="survey"/>
  </way>
  <way id="51964933" version="3" timestamp="2012-01-20T03:31:22Z" uid="147510" user="woodpeck_fixbot" changeset="10442986">
    <nd ref="662710047"/>
    <nd ref="662710049"/>
    <nd ref="662710048"/>
    <nd ref="662710052"/>
    <nd ref="204413794"/>
    <nd ref="204413795"/>
    <nd ref="204413796"/>
    <tag k="highway" v="residential"/>
    <tag k="name" v="Consul Road"/>
    <tag k="source:name" v="survey"/>
  </way>
  <way id="51964934" version="1" timestamp="2010-03-08T01:00:09Z" uid="7617" user="Franc" changeset="4068230">
    <nd ref="662710061"/>
    <nd ref="40522538"/>
    <nd ref="40522549"/>
    <tag k="highway" v="residential"/>
    <tag k="name" v="Alfred Road"/>
    <tag k="source:name" v="survey"/>
  </way>
  <way id="51964934" version="2" timestamp="2010-07-07T23:31:53Z" uid="74617" user="JohnSmith" changeset="5162525">
    <nd ref="662710061"/>
    <nd ref="40522538"/>
    <nd ref="40522549"/>
    <tag k="highway" v="residential"/>
    <tag k="maxspeed" v="50"/>
    <tag k="maxspeed:source" v="default residential speed limit in Australia"/>
    <tag k="name" v="Alfred Road"/>
    <tag k="source:name" v="survey"/>
  </way>
  <way id="51964934" version="3" timestamp="2012-01-20T03:31:23Z" uid="147510" user="woodpeck_fixbot" changeset="10442986">
    <nd ref="662710061"/>
    <nd ref="40522538"/>
    <nd ref="40522549"/>
    <tag k="highway" v="residential"/>
    <tag k="name" v="Alfred Road"/>
    <tag k="source:name" v="survey"/>
  </way>
  <way id="51964935" version="1" timestamp="2010-03-08T01:00:09Z" uid="7617" user="Franc" changeset="4068230">
    <nd ref="662710085"/>
    <nd ref="122980193"/>
    <nd ref="122980898"/>
    <nd ref="122967418"/>
    <nd ref="122983784"/>
    <nd ref="122967419"/>
    <nd ref="122967420"/>
    <nd ref="122967421"/>
    <nd ref="122967422"/>
    <nd ref="122967423"/>
    <nd ref="122983347"/>
    <nd ref="458868462"/>
    <nd ref="661794713"/>
    <tag k="highway" v="secondary"/>
    <tag k="name" v="Pitt Road"/>
    <tag k="source" v="survey"/>
  </way>
  <way id="51964936" version="1" timestamp="2010-03-08T01:00:10Z" uid="7617" user="Franc" changeset="4068230">
    <nd ref="662710079"/>
    <nd ref="618542504"/>
    <tag k="highway" v="residential"/>
    <tag k="name" v="Abbott Road"/>
    <tag k="source:name" v="survey"/>
  </way>
  <way id="51964936" version="2" timestamp="2010-07-07T23:34:35Z" uid="74617" user="JohnSmith" changeset="5162525">
    <nd ref="662710079"/>
    <nd ref="618542504"/>
    <tag k="highway" v="residential"/>
    <tag k="maxspeed" v="50"/>
    <tag k="maxspeed:source" v="default residential speed limit in Australia"/>
    <tag k="name" v="Abbott Road"/>
    <tag k="source:name" v="survey"/>
  </way>
  <way id="51964936" version="3" timestamp="2012-01-20T03:31:24Z" uid="147510" user="woodpeck_fixbot" changeset="10442986">
    <nd ref="662710079"/>
    <nd ref="618542504"/>
    <tag k="highway" v="residential"/>
    <tag k="name" v="Abbott Road"/>
    <tag k="source:name" v="survey"/>
  </way>
  <way id="51964937" version="1" timestamp="2010-03-08T01:00:10Z" uid="7617" user="Franc" changeset="4068230">
    <nd ref="662710084"/>
    <nd ref="581727978"/>
    <nd ref="662710082"/>
    <nd ref="122973655"/>
    <nd ref="618542523"/>
    <nd ref="618542522"/>
    <tag k="highway" v="residential"/>
    <tag k="name" v="Abbott Road"/>
    <tag k="restriction" v="school_zone"/>
    <tag k="source:name" v="survey"/>
  </way>
  <way id="51964937" version="2" timestamp="2010-07-07T23:31:41Z" uid="74617" user="JohnSmith" changeset="5162525">
    <nd ref="662710084"/>
    <nd ref="581727978"/>
    <nd ref="662710082"/>
    <nd ref="122973655"/>
    <nd ref="618542523"/>
    <nd ref="618542522"/>
    <tag k="highway" v="residential"/>
    <tag k="maxspeed" v="50"/>
    <tag k="maxspeed:source" v="default residential speed limit in Australia"/>
    <tag k="name" v="Abbott Road"/>
    <tag k="restriction" v="school_zone"/>
    <tag k="source:name" v="survey"/>
  </way>
  <way id="51964937" version="3" timestamp="2012-01-20T03:31:25Z" uid="147510" user="woodpeck_fixbot" changeset="10442986">
    <nd ref="662710084"/>
    <nd ref="581727978"/>
    <nd ref="662710082"/>
    <nd ref="122973655"/>
    <nd ref="618542523"/>
    <nd ref="618542522"/>
    <tag k="highway" v="residential"/>
    <tag k="name" v="Abbott Road"/>
    <tag k="restriction" v="school_zone"/>
    <tag k="source:name" v="survey"/>
  </way>
  <way id="51964938" version="1" timestamp="2010-03-08T01:00:10Z" uid="7617" user="Franc" changeset="4068230">
    <nd ref="662710083"/>
    <nd ref="122977014"/>
    <tag k="highway" v="residential"/>
    <tag k="name" v="Lillie Street"/>
    <tag k="restriction" v="school_zone"/>
    <tag k="source:name" v="survey"/>
  </way>
  <way id="51964938" version="2" timestamp="2010-07-07T23:35:23Z" uid="74617" user="JohnSmith" changeset="5162525">
    <nd ref="662710083"/>
    <nd ref="122977014"/>
    <tag k="highway" v="residential"/>
    <tag k="maxspeed" v="50"/>
    <tag k="maxspeed:source" v="default residential speed limit in Australia"/>
    <tag k="name" v="Lillie Street"/>
    <tag k="restriction" v="school_zone"/>
    <tag k="source:name" v="survey"/>
  </way>
  <way id="51964938" version="3" timestamp="2012-01-20T03:31:27Z" uid="147510" user="woodpeck_fixbot" changeset="10442986">
    <nd ref="662710083"/>
    <nd ref="122977014"/>
    <tag k="highway" v="residential"/>
    <tag k="name" v="Lillie Street"/>
    <tag k="restriction" v="school_zone"/>
    <tag k="source:name" v="survey"/>
  </way>
  <way id="51964939" version="1" timestamp="2010-03-08T01:00:10Z" uid="7617" user="Franc" changeset="4068230">
    <nd ref="662710089"/>
    <nd ref="443541949"/>
    <nd ref="26380371"/>
    <nd ref="122967417"/>
    <nd ref="662710086"/>
    <nd ref="662710085"/>
    <tag k="highway" v="secondary"/>
    <tag k="name" v="Pitt Road"/>
    <tag k="restriction" v="school_zone"/>
    <tag k="source" v="survey"/>
  </way>
  <way id="51964976" version="1" timestamp="2010-03-08T01:03:11Z" uid="230283" user="AuFCL" changeset="4068042">
    <nd ref="662710543"/>
    <nd ref="361668362"/>
    <nd ref="662710545"/>
    <nd ref="662710546"/>
    <nd ref="662710547"/>
    <nd ref="662710548"/>
    <nd ref="662710549"/>
    <nd ref="662710550"/>
    <nd ref="662710551"/>
    <nd ref="662710552"/>
    <nd ref="662710553"/>
    <nd ref="662710554"/>
    <nd ref="662710544"/>
    <tag k="highway" v="residential"/>
    <tag k="name" v="Headlands Drive"/>
  </way>
  <way id="51964976" version="2" timestamp="2010-05-11T23:38:07Z" uid="244897" user="M526244" changeset="4673633">
    <nd ref="662710543"/>
    <nd ref="730216567"/>
    <nd ref="361668362"/>
    <nd ref="662710545"/>
    <nd ref="662710546"/>
    <nd ref="662710547"/>
    <nd ref="662710548"/>
    <nd ref="662710549"/>
    <nd ref="662710550"/>
    <nd ref="662710551"/>
    <nd ref="662710552"/>
    <nd ref="662710553"/>
    <nd ref="730216568"/>
    <nd ref="662710554"/>
    <nd ref="662710544"/>
    <tag k="highway" v="residential"/>
    <tag k="name" v="Headlands Drive"/>
  </way>
  <way id="51964976" version="3" timestamp="2010-06-01T07:12:41Z" uid="244897" user="M526244" changeset="4872051">
    <nd ref="662710543"/>
    <nd ref="730216567"/>
    <nd ref="361668362"/>
    <nd ref="662710545"/>
    <nd ref="662710546"/>
    <nd ref="662710547"/>
    <nd ref="662710548"/>
    <nd ref="662710549"/>
    <nd ref="662710550"/>
    <nd ref="662710551"/>
    <nd ref="662710552"/>
    <nd ref="662710553"/>
    <nd ref="761052327"/>
    <nd ref="730216568"/>
    <nd ref="662710554"/>
    <nd ref="662710544"/>
    <tag k="highway" v="residential"/>
    <tag k="name" v="Headlands Drive"/>
  </way>
  <way id="51964976" version="4" timestamp="2010-07-07T07:18:21Z" uid="74617" user="JohnSmith" changeset="5156250">
    <nd ref="662710543"/>
    <nd ref="730216567"/>
    <nd ref="361668362"/>
    <nd ref="662710545"/>
    <nd ref="662710546"/>
    <nd ref="662710547"/>
    <nd ref="662710548"/>
    <nd ref="662710549"/>
    <nd ref="662710550"/>
    <nd ref="662710551"/>
    <nd ref="662710552"/>
    <nd ref="662710553"/>
    <nd ref="761052327"/>
    <nd ref="730216568"/>
    <nd ref="662710554"/>
    <nd ref="662710544"/>
    <tag k="highway" v="residential"/>
    <tag k="maxspeed" v="50"/>
    <tag k="maxspeed:source" v="default residential speed limit in Australia"/>
    <tag k="name" v="Headlands Drive"/>
  </way>
  <way id="51964976" version="5" timestamp="2011-01-20T07:36:39Z" uid="69076" user="axk" changeset="7027513"/>
  <way id="51964982" version="1" timestamp="2010-03-08T01:04:10Z" uid="230283" user="AuFCL" changeset="4068042">
    <nd ref="662710548"/>
    <nd ref="662710657"/>
    <nd ref="662710658"/>
    <nd ref="662710659"/>
    <nd ref="662710660"/>
    <nd ref="662710661"/>
    <nd ref="662710662"/>
    <nd ref="662710663"/>
    <nd ref="662710664"/>
    <nd ref="662710665"/>
    <nd ref="662710666"/>
    <tag k="highway" v="residential"/>
    <tag k="name" v="Redford Drive"/>
  </way>
  <way id="51964982" version="2" timestamp="2010-07-07T07:20:34Z" uid="74617" user="JohnSmith" changeset="5156250">
    <nd ref="662710548"/>
    <nd ref="662710657"/>
    <nd ref="662710658"/>
    <nd ref="662710659"/>
    <nd ref="662710660"/>
    <nd ref="662710661"/>
    <nd ref="662710662"/>
    <nd ref="662710663"/>
    <nd ref="662710664"/>
    <nd ref="662710665"/>
    <nd ref="662710666"/>
    <tag k="highway" v="residential"/>
    <tag k="maxspeed" v="50"/>
    <tag k="maxspeed:source" v="default residential speed limit in Australia"/>
    <tag k="name" v="Redford Drive"/>
  </way>
  <way id="51964982" version="3" timestamp="2011-01-20T07:36:34Z" uid="69076" user="axk" changeset="7027513">
    <nd ref="662710548"/>
    <nd ref="662710658"/>
    <nd ref="662710659"/>
    <nd ref="662710660"/>
    <nd ref="662710661"/>
    <nd ref="662710662"/>
    <nd ref="662710663"/>
    <nd ref="662710664"/>
    <nd ref="662710665"/>
    <nd ref="662710666"/>
    <tag k="highway" v="residential"/>
    <tag k="maxspeed" v="50"/>
    <tag k="maxspeed:source" v="default residential speed limit in Australia"/>
    <tag k="name" v="Redford Drive"/>
  </way>
  <way id="51964982" version="4" timestamp="2012-01-20T03:31:28Z" uid="147510" user="woodpeck_fixbot" changeset="10442986">
    <nd ref="662710548"/>
    <nd ref="662710658"/>
    <nd ref="662710659"/>
    <nd ref="662710660"/>
    <nd ref="662710661"/>
    <nd ref="662710662"/>
    <nd ref="662710663"/>
    <nd ref="662710664"/>
    <nd ref="662710665"/>
    <nd ref="662710666"/>
    <tag k="highway" v="residential"/>
    <tag k="name" v="Redford Drive"/>
  </way>
  <way id="51964989" version="1" timestamp="2010-03-08T01:04:55Z" uid="230283" user="AuFCL" changeset="4068042">
    <nd ref="662710700"/>
    <nd ref="662710666"/>
    <nd ref="662710701"/>
    <nd ref="662710702"/>
    <nd ref="662710703"/>
    <tag k="highway" v="residential"/>
    <tag k="name" v="Carroll Avenue"/>
  </way>
  <way id="51964989" version="2" timestamp="2010-07-07T07:20:03Z" uid="74617" user="JohnSmith" changeset="5156250">
    <nd ref="662710700"/>
    <nd ref="662710666"/>
    <nd ref="662710701"/>
    <nd ref="662710702"/>
    <nd ref="662710703"/>
    <tag k="highway" v="residential"/>
    <tag k="maxspeed" v="50"/>
    <tag k="maxspeed:source" v="default residential speed limit in Australia"/>
    <tag k="name" v="Carroll Avenue"/>
  </way>
  <way id="51964989" version="3" timestamp="2012-01-20T03:31:29Z" uid="147510" user="woodpeck_fixbot" changeset="10442986">
    <nd ref="662710700"/>
    <nd ref="662710666"/>
    <nd ref="662710701"/>
    <nd ref="662710702"/>
    <nd ref="662710703"/>
    <tag k="highway" v="residential"/>
    <tag k="name" v="Carroll Avenue"/>
  </way>
</osm>
