<?xml version='1.0' encoding='UTF-8'?>
<osm version="0.6" generator="libosmium/2.20.0">
  <way id="52113358" version="3" timestamp="2011-04-20T11:25:59Z" uid="115477" user="wowik" changeset="7915253">
    <nd ref="664104813"/>
    <nd ref="664104817"/>
    <nd ref="664104818"/>
    <nd ref="664104814"/>
    <nd ref="664104813"/>
    <tag k="addr:city" v="Москва"/>
    <tag k="addr:country" v="RU"/>
    <tag k="addr:housenumber" v="17"/>
    <tag k="addr:street" v="Ермолаевский переулок"/>
    <tag k="building" v="yes"/>
    <tag k="cladr:code" v="77000000000702200"/>
  </way>
  <way id="52113358" version="4" timestamp="2011-07-19T18:05:05Z" uid="397326" user="trolleway" changeset="8770997">
    <nd ref="664104813"/>
    <nd ref="664104817"/>
    <nd ref="664104818"/>
    <nd ref="664104814"/>
    <nd ref="664104813"/>
    <tag k="addr:city" v="Москва"/>
    <tag k="addr:country" v="RU"/>
    <tag k="addr:housenumber" v="17"/>
    <tag k="addr:street" v="Ермолаевский переулок"/>
    <tag k="building" v="yes"/>
    <tag k="building:levels" v="4"/>
    <tag k="cladr:code" v="77000000000702200"/>
  </way>
  <way id="52113358" version="5" timestamp="2012-03-19T22:01:57Z" uid="260756" user="Felis Pimeja" changeset="11035572">
    <nd ref="599928739"/>
    <nd ref="1682353926"/>
    <nd ref="1682353931"/>
    <nd ref="664104817"/>
    <nd ref="664104818"/>
    <nd ref="1682353947"/>
    <nd ref="664104819"/>
    <nd ref="664104816"/>
    <nd ref="599928739"/>
    <tag k="addr:city" v="Москва"/>
    <tag k="addr:country" v="RU"/>
    <tag k="addr:housenumber" v="17"/>
    <tag k="addr:street" v="Ермолаевский переулок"/>
    <tag k="building" v="yes"/>
    <tag k="building:levels" v="4"/>
    <tag k="cladr:code" v="77000000000702200"/>
  </way>
  <way id="52113359" version="3" timestamp="2011-04-20T11:26:15Z" uid="115477" user="wowik" changeset="7915253">
    <nd ref="664104824"/>
    <nd ref="664104816"/>
    <nd ref="664104819"/>
    <nd ref="664104825"/>
    <nd ref="664104824"/>
    <tag k="addr:city" v="Москва"/>
    <tag k="addr:country" v="RU"/>
    <tag k="addr:housenumber" v="19"/>
    <tag k="addr:street" v="Ермолаевский переулок"/>
    <tag k="building" v="yes"/>
    <tag k="cladr:code" v="77000000000702200"/>
  </way>
  <way id="52113359" version="4" timestamp="2011-07-19T18:05:06Z" uid="397326" user="trolleway" changeset="8770997">
    <nd ref="664104824"/>
    <nd ref="664104816"/>
    <nd ref="664104819"/>
    <nd ref="664104825"/>
    <nd ref="664104824"/>
    <tag k="addr:city" v="Москва"/>
    <tag k="addr:country" v="RU"/>
    <tag k="addr:housenumber" v="19"/>
    <tag k="addr:street" v="Ермолаевский переулок"/>
    <tag k="building" v="yes"/>
    <tag k="building:levels" v="6"/>
    <tag k="cladr:code" v="77000000000702200"/>
  </way>
  <way id="52113359" version="5" timestamp="2012-03-19T22:01:58Z" uid="260756" user="Felis Pimeja" changeset="11035572">
    <nd ref="664104824"/>
    <nd ref="1682353934"/>
    <nd ref="664104816"/>
    <nd ref="664104819"/>
    <nd ref="1682353976"/>
    <nd ref="664104825"/>
    <nd ref="664104824"/>
    <tag k="addr:city" v="Москва"/>
    <tag k="addr:country" v="RU"/>
    <tag k="addr:housenumber" v="19"/>
    <tag k="addr:street" v="Ермолаевский переулок"/>
    <tag k="building" v="yes"/>
    <tag k="building:levels" v="6"/>
    <tag k="cladr:code" v="77000000000702200"/>
  </way>
  <way id="52113360" version="3" timestamp="2011-04-20T11:26:59Z" uid="115477" user="wowik" changeset="7915253">
    <nd ref="664104828"/>
    <nd ref="664104829"/>
    <nd ref="664104826"/>
    <nd ref="664104823"/>
    <nd ref="664104821"/>
    <nd ref="664104822"/>
    <nd ref="664104820"/>
    <nd ref="664104827"/>
    <nd ref="664104828"/>
    <tag k="addr:city" v="Москва"/>
    <tag k="addr:country" v="RU"/>
    <tag k="addr:housenumber" v="21"/>
    <tag k="addr:street" v="Ермолаевский переулок"/>
    <tag k="building" v="yes"/>
    <tag k="cladr:code" v="77000000000702200"/>
  </way>
  <way id="52113360" version="4" timestamp="2011-07-19T18:05:06Z" uid="397326" user="trolleway" changeset="8770997">
    <nd ref="664104828"/>
    <nd ref="664104829"/>
    <nd ref="664104826"/>
    <nd ref="664104823"/>
    <nd ref="664104821"/>
    <nd ref="664104822"/>
    <nd ref="664104820"/>
    <nd ref="664104827"/>
    <nd ref="664104828"/>
    <tag k="addr:city" v="Москва"/>
    <tag k="addr:country" v="RU"/>
    <tag k="addr:housenumber" v="21"/>
    <tag k="addr:street" v="Ермолаевский переулок"/>
    <tag k="building" v="yes"/>
    <tag k="building:levels" v="9"/>
    <tag k="cladr:code" v="77000000000702200"/>
  </way>
  <way id="52113360" version="5" timestamp="2012-03-19T22:02:00Z" uid="260756" user="Felis Pimeja" changeset="11035572">
    <nd ref="664104825"/>
    <nd ref="664104824"/>
    <nd ref="1682353968"/>
    <nd ref="664104826"/>
    <nd ref="1682354121"/>
    <nd ref="1682354119"/>
    <nd ref="1682354115"/>
    <nd ref="667982472"/>
    <nd ref="664104822"/>
    <nd ref="664104820"/>
    <nd ref="664104827"/>
    <nd ref="1682353996"/>
    <nd ref="664104825"/>
    <tag k="addr:city" v="Москва"/>
    <tag k="addr:country" v="RU"/>
    <tag k="addr:housenumber" v="21"/>
    <tag k="addr:street" v="Ермолаевский переулок"/>
    <tag k="building" v="yes"/>
    <tag k="building:levels" v="9"/>
    <tag k="cladr:code" v="77000000000702200"/>
  </way>
  <way id="52113554" version="3" timestamp="2010-11-08T20:31:06Z" uid="16922" user="amai" changeset="6323607">
    <nd ref="664107258"/>
    <nd ref="664107267"/>
    <nd ref="664107275"/>
    <nd ref="664107282"/>
    <nd ref="664107291"/>
    <nd ref="664107299"/>
    <nd ref="664107303"/>
    <tag k="highway" v="residential"/>
    <tag k="source" v="Yahoo"/>
  </way>
  <way id="52113578" version="3" timestamp="2011-03-07T23:36:29Z" uid="16922" user="amai" changeset="7490165">
    <nd ref="664107321"/>
    <nd ref="1191889531"/>
    <nd ref="664107326"/>
    <nd ref="664107328"/>
    <nd ref="664107329"/>
    <nd ref="664107330"/>
    <tag k="highway" v="residential"/>
  </way>
  <way id="52113578" version="4" timestamp="2012-03-10T22:22:15Z" uid="61891" user="stephankn" changeset="10937408">
    <nd ref="664107321"/>
    <nd ref="664107326"/>
    <nd ref="664107328"/>
    <nd ref="664107329"/>
    <nd ref="664107330"/>
    <tag k="highway" v="residential"/>
  </way>
</osm>
