<?xml version='1.0' encoding='UTF-8'?>
<osm version="0.6" generator="libosmium/2.20.0">
  <way id="52122169" version="2" timestamp="2010-03-28T11:53:16Z" uid="20587" user="balrog-kun" changeset="4254597">
    <nd ref="366068421"/>
    <nd ref="366068422"/>
    <tag k="bridge" v="yes"/>
    <tag k="highway" v="primary"/>
    <tag k="name" v="Rosemead Boulevard"/>
    <tag k="note" v="http://www.dot.ca.gov/hq/traffops/trucks/truckmap/truckmap-d07.pdf"/>
    <tag k="oneway" v="yes"/>
    <tag k="ref" v="CA 19;CA 164"/>
    <tag k="source" v="CalTrans"/>
  </way>
  <way id="52122169" version="3" timestamp="2010-08-13T22:28:52Z" uid="82317" user="AM909" changeset="5486496">
    <nd ref="366068421"/>
    <nd ref="366068422"/>
    <tag k="bridge" v="yes"/>
    <tag k="highway" v="primary"/>
    <tag k="name" v="Rosemead Boulevard"/>
    <tag k="note" v="http://www.dot.ca.gov/hq/traffops/trucks/truckmap/truckmap-d07.pdf"/>
    <tag k="oneway" v="yes"/>
    <tag k="ref" v="CA 19;CA 164"/>
    <tag k="source" v="CalTrans;usgs_imagery"/>
  </way>
  <way id="52122169" version="4" timestamp="2010-08-13T22:40:30Z" uid="82317" user="AM909" changeset="5486579">
    <nd ref="366068421"/>
    <nd ref="366068422"/>
    <tag k="bridge" v="yes"/>
    <tag k="highway" v="primary"/>
    <tag k="maxspeed" v="50 mph"/>
    <tag k="name" v="Rosemead Boulevard"/>
    <tag k="note" v="http://www.dot.ca.gov/hq/traffops/trucks/truckmap/truckmap-d07.pdf"/>
    <tag k="oneway" v="yes"/>
    <tag k="ref" v="CA 19;CA 164"/>
    <tag k="source" v="CalTrans;usgs_imagery"/>
    <tag k="source:maxspeed" v="survey;image"/>
    <tag k="source_ref:maxspeed" v="AM909_DSCU3813"/>
  </way>
  <way id="52122169" version="5" timestamp="2010-11-22T01:48:22Z" uid="194231" user="Chris Bell in California" changeset="6428521">
    <nd ref="366068421"/>
    <nd ref="366068422"/>
    <tag k="bridge" v="yes"/>
    <tag k="highway" v="primary"/>
    <tag k="layer" v="1"/>
    <tag k="maxspeed" v="50 mph"/>
    <tag k="name" v="Rosemead Boulevard"/>
    <tag k="note" v="http://www.dot.ca.gov/hq/traffops/trucks/truckmap/truckmap-d07.pdf"/>
    <tag k="oneway" v="yes"/>
    <tag k="ref" v="CA 19;CA 164"/>
    <tag k="source" v="CalTrans;usgs_imagery"/>
    <tag k="source:maxspeed" v="survey;image"/>
    <tag k="source_ref:maxspeed" v="AM909_DSCU3813"/>
  </way>
  <way id="52122171" version="2" timestamp="2010-03-28T11:53:16Z" uid="20587" user="balrog-kun" changeset="4254597">
    <nd ref="366068422"/>
    <nd ref="366068423"/>
    <nd ref="366068424"/>
    <nd ref="366068425"/>
    <nd ref="366068426"/>
    <nd ref="366068427"/>
    <nd ref="366068428"/>
    <nd ref="366068429"/>
    <nd ref="366068430"/>
    <tag k="highway" v="primary"/>
    <tag k="layer" v="1"/>
    <tag k="name" v="Rosemead Boulevard"/>
    <tag k="note" v="http://www.dot.ca.gov/hq/traffops/trucks/truckmap/truckmap-d07.pdf"/>
    <tag k="oneway" v="yes"/>
    <tag k="ref" v="CA 19;CA 164"/>
    <tag k="source" v="CalTrans"/>
  </way>
  <way id="52122171" version="3" timestamp="2010-08-13T22:28:54Z" uid="82317" user="AM909" changeset="5486496">
    <nd ref="366068422"/>
    <nd ref="859517983"/>
    <nd ref="366068423"/>
    <nd ref="366068424"/>
    <nd ref="366068425"/>
    <nd ref="366068426"/>
    <nd ref="859517987"/>
    <nd ref="366068427"/>
    <nd ref="859517999"/>
    <nd ref="859517988"/>
    <nd ref="366068428"/>
    <nd ref="366068429"/>
    <nd ref="366068430"/>
    <tag k="highway" v="primary"/>
    <tag k="layer" v="1"/>
    <tag k="name" v="Rosemead Boulevard"/>
    <tag k="note" v="http://www.dot.ca.gov/hq/traffops/trucks/truckmap/truckmap-d07.pdf"/>
    <tag k="oneway" v="yes"/>
    <tag k="ref" v="CA 19;CA 164"/>
    <tag k="source" v="CalTrans;usgs_imagery"/>
  </way>
  <way id="52122171" version="4" timestamp="2010-08-13T22:40:31Z" uid="82317" user="AM909" changeset="5486579">
    <nd ref="366068422"/>
    <nd ref="859517983"/>
    <nd ref="366068423"/>
    <nd ref="366068424"/>
    <nd ref="366068425"/>
    <nd ref="366068426"/>
    <nd ref="859517987"/>
    <nd ref="366068427"/>
    <nd ref="859517999"/>
    <nd ref="859517988"/>
    <nd ref="366068428"/>
    <nd ref="366068429"/>
    <nd ref="366068430"/>
    <tag k="highway" v="primary"/>
    <tag k="layer" v="1"/>
    <tag k="maxspeed" v="50 mph"/>
    <tag k="name" v="Rosemead Boulevard"/>
    <tag k="note" v="http://www.dot.ca.gov/hq/traffops/trucks/truckmap/truckmap-d07.pdf"/>
    <tag k="oneway" v="yes"/>
    <tag k="ref" v="CA 19;CA 164"/>
    <tag k="source" v="CalTrans;usgs_imagery"/>
    <tag k="source:maxspeed" v="survey;image"/>
    <tag k="source_ref:maxspeed" v="AM909_DSCU3813"/>
  </way>
  <way id="52122171" version="5" timestamp="2011-07-01T05:00:12Z" uid="4951" user="PeterIto" changeset="8595876">
    <nd ref="366068422"/>
    <nd ref="859517983"/>
    <nd ref="366068423"/>
    <nd ref="366068424"/>
    <nd ref="366068425"/>
    <nd ref="366068426"/>
    <nd ref="859517987"/>
    <nd ref="366068427"/>
    <nd ref="859517999"/>
    <nd ref="859517988"/>
    <nd ref="366068428"/>
    <nd ref="366068429"/>
    <nd ref="366068430"/>
    <tag k="highway" v="primary"/>
    <tag k="maxspeed" v="50 mph"/>
    <tag k="name" v="Rosemead Boulevard"/>
    <tag k="note" v="http://www.dot.ca.gov/hq/traffops/trucks/truckmap/truckmap-d07.pdf"/>
    <tag k="oneway" v="yes"/>
    <tag k="ref" v="CA 19;CA 164"/>
    <tag k="source" v="CalTrans;usgs_imagery"/>
    <tag k="source:maxspeed" v="survey;image"/>
    <tag k="source_ref:maxspeed" v="AM909_DSCU3813"/>
  </way>
  <way id="52122717" version="2" timestamp="2011-04-05T08:23:20Z" uid="115477" user="wowik" changeset="7772261">
    <nd ref="664200079"/>
    <nd ref="664200080"/>
    <nd ref="1233383258"/>
    <nd ref="1233383266"/>
    <nd ref="1233383290"/>
    <nd ref="1233383305"/>
    <nd ref="1233383323"/>
    <nd ref="1233383352"/>
    <nd ref="664200081"/>
    <nd ref="664200082"/>
    <nd ref="664200083"/>
    <nd ref="664200084"/>
    <nd ref="1233383394"/>
    <nd ref="1233383234"/>
    <nd ref="1233383385"/>
    <nd ref="1233383370"/>
    <nd ref="664200079"/>
    <tag k="addr:housenumber" v="1 с9"/>
    <tag k="addr:street" v="Гранатный переулок"/>
    <tag k="amenity" v="embassy"/>
    <tag k="building" v="yes"/>
    <tag k="country" v="ZA"/>
    <tag k="name" v="посольство ЮАР"/>
    <tag k="name:en" v="Embassy of South Africa"/>
    <tag k="official_name" v="посольство Южно-Африканской Республики"/>
  </way>
  <way id="52122717" version="3" timestamp="2011-04-20T11:17:55Z" uid="115477" user="wowik" changeset="7915124">
    <nd ref="664200079"/>
    <nd ref="664200080"/>
    <nd ref="1233383258"/>
    <nd ref="1233383266"/>
    <nd ref="1233383290"/>
    <nd ref="1233383305"/>
    <nd ref="1233383323"/>
    <nd ref="1233383352"/>
    <nd ref="664200081"/>
    <nd ref="664200082"/>
    <nd ref="664200083"/>
    <nd ref="664200084"/>
    <nd ref="1233383394"/>
    <nd ref="1233383234"/>
    <nd ref="1233383385"/>
    <nd ref="1233383370"/>
    <nd ref="664200079"/>
    <tag k="addr:city" v="Москва"/>
    <tag k="addr:country" v="RU"/>
    <tag k="addr:housenumber" v="1 с9"/>
    <tag k="addr:street" v="Гранатный переулок"/>
    <tag k="amenity" v="embassy"/>
    <tag k="building" v="yes"/>
    <tag k="country" v="ZA"/>
    <tag k="name" v="посольство ЮАР"/>
    <tag k="name:en" v="Embassy of South Africa"/>
    <tag k="official_name" v="посольство Южно-Африканской Республики"/>
  </way>
  <way id="52122718" version="3" timestamp="2011-04-20T11:26:42Z" uid="115477" user="wowik" changeset="7915253">
    <nd ref="664200261"/>
    <nd ref="664200266"/>
    <nd ref="664200189"/>
    <nd ref="664200187"/>
    <nd ref="664200261"/>
    <tag k="addr:city" v="Москва"/>
    <tag k="addr:country" v="RU"/>
    <tag k="addr:housenumber" v="7"/>
    <tag k="addr:street" v="Большая Бронная улица"/>
    <tag k="building" v="yes"/>
    <tag k="cladr:code" v="77000000000090600"/>
  </way>
  <way id="52122719" version="3" timestamp="2011-04-20T11:26:57Z" uid="115477" user="wowik" changeset="7915253">
    <nd ref="664200203"/>
    <nd ref="664200205"/>
    <nd ref="664200206"/>
    <nd ref="664200204"/>
    <nd ref="664200290"/>
    <nd ref="664200291"/>
    <nd ref="664200317"/>
    <nd ref="664200318"/>
    <nd ref="664200319"/>
    <nd ref="664200314"/>
    <nd ref="664200203"/>
    <tag k="addr:city" v="Москва"/>
    <tag k="addr:country" v="RU"/>
    <tag k="addr:housenumber" v="15"/>
    <tag k="addr:street" v="Тверской бульвар"/>
    <tag k="building" v="yes"/>
    <tag k="cladr:code" v="77000000000288300"/>
  </way>
  <way id="52122720" version="2" timestamp="2011-04-20T07:30:38Z" uid="115477" user="wowik" changeset="7913535">
    <nd ref="664200207"/>
    <nd ref="664200209"/>
    <nd ref="664200218"/>
    <nd ref="664200156"/>
    <nd ref="664200207"/>
    <tag k="addr:city" v="Москва"/>
    <tag k="addr:country" v="RU"/>
    <tag k="building" v="yes"/>
  </way>
  <way id="52122721" version="3" timestamp="2011-04-20T11:17:50Z" uid="115477" user="wowik" changeset="7915124">
    <nd ref="664200228"/>
    <nd ref="664200230"/>
    <nd ref="664200158"/>
    <nd ref="664200160"/>
    <nd ref="664200228"/>
    <tag k="addr:city" v="Москва"/>
    <tag k="addr:country" v="RU"/>
    <tag k="addr:housenumber" v="12"/>
    <tag k="addr:street" v="Тверской бульвар"/>
    <tag k="building" v="yes"/>
    <tag k="cladr:code" v="77000000000288300"/>
  </way>
  <way id="52122722" version="3" timestamp="2011-04-20T11:25:51Z" uid="115477" user="wowik" changeset="7915253">
    <nd ref="664200187"/>
    <nd ref="664200189"/>
    <nd ref="664200186"/>
    <nd ref="664200123"/>
    <nd ref="664200192"/>
    <nd ref="664200190"/>
    <nd ref="664200187"/>
    <tag k="addr:city" v="Москва"/>
    <tag k="addr:country" v="RU"/>
    <tag k="addr:housenumber" v="5"/>
    <tag k="addr:street" v="Большая Бронная улица"/>
    <tag k="building" v="yes"/>
    <tag k="cladr:code" v="77000000000090600"/>
  </way>
  <way id="52122723" version="4" timestamp="2011-04-20T11:18:42Z" uid="115477" user="wowik" changeset="7915124">
    <nd ref="664200140"/>
    <nd ref="664200102"/>
    <nd ref="664200166"/>
    <nd ref="664200138"/>
    <nd ref="664200140"/>
    <tag k="addr:city" v="Москва"/>
    <tag k="addr:country" v="RU"/>
    <tag k="addr:housenumber" v="4 с2"/>
    <tag k="addr:street" v="Малая Бронная улица"/>
    <tag k="building" v="yes"/>
    <tag k="cladr:code" v="77000000000090700"/>
  </way>
  <way id="52122724" version="3" timestamp="2011-04-20T11:18:50Z" uid="115477" user="wowik" changeset="7915124">
    <nd ref="664200101"/>
    <nd ref="664200090"/>
    <nd ref="664200140"/>
    <nd ref="664200138"/>
    <nd ref="664200142"/>
    <nd ref="664200139"/>
    <nd ref="664200143"/>
    <nd ref="664200091"/>
    <nd ref="664200127"/>
    <nd ref="664200089"/>
    <nd ref="664200092"/>
    <nd ref="664200093"/>
    <nd ref="664200101"/>
    <tag k="addr:city" v="Москва"/>
    <tag k="addr:country" v="RU"/>
    <tag k="addr:housenumber" v="4"/>
    <tag k="addr:street" v="Малая Бронная улица"/>
    <tag k="building" v="yes"/>
    <tag k="cladr:code" v="77000000000090700"/>
  </way>
  <way id="52122725" version="4" timestamp="2011-04-20T07:30:47Z" uid="115477" user="wowik" changeset="7913535">
    <nd ref="664200127"/>
    <nd ref="664200128"/>
    <nd ref="664200129"/>
    <nd ref="664200124"/>
    <nd ref="664200144"/>
    <nd ref="664200131"/>
    <nd ref="664200130"/>
    <nd ref="664200132"/>
    <nd ref="664200137"/>
    <nd ref="664200145"/>
    <nd ref="664200125"/>
    <nd ref="664200126"/>
    <nd ref="664200089"/>
    <nd ref="664200127"/>
    <tag k="addr:city" v="Москва"/>
    <tag k="addr:country" v="RU"/>
    <tag k="addr:housenumber" v="7"/>
    <tag k="addr:street" v="Тверской бульвар"/>
    <tag k="building" v="yes"/>
    <tag k="cladr:code" v="77000000000090700"/>
  </way>
  <way id="52122726" version="3" timestamp="2011-04-20T07:30:59Z" uid="115477" user="wowik" changeset="7913535">
    <nd ref="664200163"/>
    <nd ref="664200164"/>
    <nd ref="664200173"/>
    <nd ref="664200147"/>
    <nd ref="664200148"/>
    <nd ref="664200149"/>
    <nd ref="664200150"/>
    <nd ref="664200151"/>
    <nd ref="664200141"/>
    <nd ref="664200142"/>
    <nd ref="664200139"/>
    <nd ref="664200143"/>
    <nd ref="664200132"/>
    <nd ref="664200137"/>
    <nd ref="664200145"/>
    <nd ref="664200146"/>
    <nd ref="664200152"/>
    <nd ref="664200153"/>
    <nd ref="664200163"/>
    <tag k="addr:city" v="Москва"/>
    <tag k="addr:country" v="RU"/>
    <tag k="addr:housenumber" v="9"/>
    <tag k="addr:street" v="Тверской бульвар"/>
    <tag k="building" v="yes"/>
    <tag k="cladr:code" v="77000000000288300"/>
  </way>
  <way id="52122727" version="4" timestamp="2011-04-20T11:18:15Z" uid="115477" user="wowik" changeset="7915124">
    <nd ref="664200173"/>
    <nd ref="664200164"/>
    <nd ref="664200165"/>
    <nd ref="664200180"/>
    <nd ref="664200179"/>
    <nd ref="664200181"/>
    <nd ref="664200177"/>
    <nd ref="664200178"/>
    <nd ref="664200173"/>
    <tag k="addr:city" v="Москва"/>
    <tag k="addr:country" v="RU"/>
    <tag k="addr:housenumber" v="11 с2"/>
    <tag k="addr:street" v="Тверской бульвар"/>
    <tag k="building" v="yes"/>
    <tag k="cladr:code" v="77000000000288300"/>
  </way>
  <way id="52122728" version="4" timestamp="2011-04-20T11:18:24Z" uid="115477" user="wowik" changeset="7915124">
    <nd ref="664200108"/>
    <nd ref="664200172"/>
    <nd ref="664200168"/>
    <nd ref="664200167"/>
    <nd ref="664200108"/>
    <tag k="addr:city" v="Москва"/>
    <tag k="addr:country" v="RU"/>
    <tag k="addr:housenumber" v="6 с3"/>
    <tag k="addr:street" v="Малая Бронная улица"/>
    <tag k="amenity" v="place_of_worship"/>
    <tag k="building" v="yes"/>
    <tag k="cladr:code" v="77000000000090700"/>
    <tag k="religion" v="jewish"/>
  </way>
  <way id="52122728" version="5" timestamp="2011-12-12T08:37:41Z" uid="126304" user="TarzanASG" changeset="10096498">
    <nd ref="664200108"/>
    <nd ref="664200172"/>
    <nd ref="664200168"/>
    <nd ref="664200167"/>
    <nd ref="664200108"/>
    <tag k="addr:city" v="Москва"/>
    <tag k="addr:country" v="RU"/>
    <tag k="addr:housenumber" v="6 с3"/>
    <tag k="addr:street" v="Малая Бронная улица"/>
    <tag k="amenity" v="place_of_worship"/>
    <tag k="building" v="church"/>
    <tag k="cladr:code" v="77000000000090700"/>
    <tag k="religion" v="jewish"/>
  </way>
  <way id="52122728" version="6" timestamp="2011-12-14T15:10:40Z" uid="143266" user="Sergey Astakhov" changeset="10116697">
    <nd ref="664200108"/>
    <nd ref="664200172"/>
    <nd ref="664200168"/>
    <nd ref="664200167"/>
    <nd ref="664200108"/>
    <tag k="addr:city" v="Москва"/>
    <tag k="addr:country" v="RU"/>
    <tag k="addr:housenumber" v="6 с3"/>
    <tag k="addr:street" v="Малая Бронная улица"/>
    <tag k="amenity" v="place_of_worship"/>
    <tag k="building" v="yes"/>
    <tag k="cladr:code" v="77000000000090700"/>
    <tag k="religion" v="jewish"/>
  </way>
  <way id="52122729" version="3" timestamp="2011-04-20T11:18:57Z" uid="115477" user="wowik" changeset="7915124">
    <nd ref="664200165"/>
    <nd ref="664200194"/>
    <nd ref="664200185"/>
    <nd ref="664200175"/>
    <nd ref="664200195"/>
    <nd ref="664200180"/>
    <nd ref="664200165"/>
    <tag k="addr:city" v="Москва"/>
    <tag k="addr:country" v="RU"/>
    <tag k="addr:housenumber" v="11"/>
    <tag k="addr:street" v="Тверской бульвар"/>
    <tag k="building" v="yes"/>
    <tag k="cladr:code" v="77000000000288300"/>
  </way>
  <way id="52122730" version="2" timestamp="2011-04-20T11:19:31Z" uid="115477" user="wowik" changeset="7915253">
    <nd ref="664200086"/>
    <nd ref="664200087"/>
    <nd ref="664200085"/>
    <nd ref="664200088"/>
    <nd ref="664200086"/>
    <tag k="addr:city" v="Москва"/>
    <tag k="addr:country" v="RU"/>
    <tag k="building" v="yes"/>
  </way>
  <way id="52122730" version="3" timestamp="2011-09-27T14:34:29Z" uid="528467" user="Alexey Podkova" changeset="9411120">
    <nd ref="664200086"/>
    <nd ref="664200087"/>
    <nd ref="1447032640"/>
    <nd ref="664200085"/>
    <nd ref="664200088"/>
    <nd ref="664200086"/>
    <tag k="addr:city" v="Москва"/>
    <tag k="addr:country" v="RU"/>
    <tag k="building" v="yes"/>
  </way>
  <way id="52122731" version="3" timestamp="2011-04-20T07:31:07Z" uid="115477" user="wowik" changeset="7913535">
    <nd ref="664200095"/>
    <nd ref="664200109"/>
    <nd ref="664200104"/>
    <nd ref="664200103"/>
    <nd ref="664200095"/>
    <tag k="addr:city" v="Москва"/>
    <tag k="addr:country" v="RU"/>
    <tag k="addr:housenumber" v="2/6"/>
    <tag k="addr:housenumber2" v="6/2"/>
    <tag k="addr:street" v="Большая Бронная улица"/>
    <tag k="addr:street2" v="Малая Бронная улица"/>
    <tag k="building" v="yes"/>
    <tag k="cladr:code" v="77000000000090600"/>
  </way>
  <way id="52122732" version="4" timestamp="2011-04-20T11:26:38Z" uid="115477" user="wowik" changeset="7915253">
    <nd ref="664200116"/>
    <nd ref="664200119"/>
    <nd ref="664200114"/>
    <nd ref="664200113"/>
    <nd ref="664200116"/>
    <tag k="addr:city" v="Москва"/>
    <tag k="addr:country" v="RU"/>
    <tag k="addr:housenumber" v="10 с2"/>
    <tag k="addr:street" v="Малая Бронная улица"/>
    <tag k="building" v="yes"/>
    <tag k="cladr:code" v="77000000000090700"/>
  </way>
  <way id="52122733" version="4" timestamp="2011-04-20T11:26:52Z" uid="115477" user="wowik" changeset="7915253">
    <nd ref="664200114"/>
    <nd ref="664200112"/>
    <nd ref="664200111"/>
    <nd ref="664200115"/>
    <nd ref="664200113"/>
    <nd ref="664200114"/>
    <tag k="addr:city" v="Москва"/>
    <tag k="addr:country" v="RU"/>
    <tag k="addr:housenumber" v="1 с4"/>
    <tag k="addr:street" v="Большая Бронная улица"/>
    <tag k="building" v="yes"/>
    <tag k="cladr:code" v="77000000000090600"/>
  </way>
  <way id="52122734" version="3" timestamp="2011-04-20T11:26:05Z" uid="115477" user="wowik" changeset="7915253">
    <nd ref="664200096"/>
    <nd ref="664200110"/>
    <nd ref="664200121"/>
    <nd ref="664200094"/>
    <nd ref="664200096"/>
    <tag k="addr:city" v="Москва"/>
    <tag k="addr:country" v="RU"/>
    <tag k="addr:housenumber" v="10"/>
    <tag k="addr:street" v="Малая Бронная улица"/>
    <tag k="building" v="yes"/>
    <tag k="cladr:code" v="77000000000090700"/>
  </way>
  <way id="52122734" version="4" timestamp="2011-09-13T18:54:34Z" uid="338289" user="PShA" changeset="9292081">
    <nd ref="664200096"/>
    <nd ref="664200110"/>
    <nd ref="1432108895"/>
    <nd ref="664200094"/>
    <nd ref="664200096"/>
    <tag k="addr:city" v="Москва"/>
    <tag k="addr:country" v="RU"/>
    <tag k="addr:housenumber" v="10"/>
    <tag k="addr:street" v="Малая Бронная улица"/>
    <tag k="building" v="yes"/>
    <tag k="cladr:code" v="77000000000090700"/>
  </way>
  <way id="52122735" version="3" timestamp="2011-04-20T07:30:40Z" uid="115477" user="wowik" changeset="7913535">
    <nd ref="664200097"/>
    <nd ref="664200098"/>
    <nd ref="664200099"/>
    <nd ref="664200100"/>
    <nd ref="664200097"/>
    <tag k="addr:city" v="Москва"/>
    <tag k="addr:country" v="RU"/>
    <tag k="addr:housenumber" v="8"/>
    <tag k="addr:street" v="Малая Бронная улица"/>
    <tag k="building" v="yes"/>
    <tag k="cladr:code" v="77000000000090700"/>
  </way>
  <way id="52122736" version="3" timestamp="2011-04-20T11:19:26Z" uid="115477" user="wowik" changeset="7915253">
    <nd ref="664200128"/>
    <nd ref="664200131"/>
    <nd ref="664200144"/>
    <nd ref="664200124"/>
    <nd ref="664200129"/>
    <nd ref="664200128"/>
    <tag k="addr:city" v="Москва"/>
    <tag k="addr:country" v="RU"/>
    <tag k="addr:street" v="Малая Бронная улица"/>
    <tag k="building" v="yes"/>
    <tag k="cladr:code" v="77000000000090700"/>
  </way>
  <way id="52122737" version="4" timestamp="2011-04-20T07:31:04Z" uid="115477" user="wowik" changeset="7913535">
    <nd ref="664200134"/>
    <nd ref="664200135"/>
    <nd ref="664200136"/>
    <nd ref="664200133"/>
    <nd ref="664200134"/>
    <tag k="addr:city" v="Москва"/>
    <tag k="addr:country" v="RU"/>
    <tag k="addr:housenumber" v="2 с4"/>
    <tag k="addr:street" v="Малая Бронная улица"/>
    <tag k="building" v="yes"/>
    <tag k="cladr:code" v="77000000000090700"/>
  </way>
  <way id="52122738" version="3" timestamp="2011-04-20T11:17:49Z" uid="115477" user="wowik" changeset="7915124">
    <nd ref="370562096"/>
    <nd ref="664200160"/>
    <nd ref="664200158"/>
    <nd ref="664200154"/>
    <nd ref="664200155"/>
    <nd ref="664200162"/>
    <nd ref="370562096"/>
    <tag k="addr:city" v="Москва"/>
    <tag k="addr:country" v="RU"/>
    <tag k="addr:housenumber" v="10"/>
    <tag k="addr:street" v="Тверской бульвар"/>
    <tag k="building" v="yes"/>
  </way>
  <way id="52122739" version="3" timestamp="2011-04-20T11:18:31Z" uid="115477" user="wowik" changeset="7915124">
    <nd ref="664200175"/>
    <nd ref="664200182"/>
    <nd ref="664200193"/>
    <nd ref="664200199"/>
    <nd ref="664200185"/>
    <nd ref="664200175"/>
    <tag k="addr:city" v="Москва"/>
    <tag k="addr:country" v="RU"/>
    <tag k="addr:housenumber" v="13"/>
    <tag k="addr:street" v="Тверской бульвар"/>
    <tag k="building" v="yes"/>
    <tag k="cladr:code" v="77000000000288300"/>
  </way>
  <way id="52122740" version="4" timestamp="2011-04-20T11:26:03Z" uid="115477" user="wowik" changeset="7915253">
    <nd ref="664200197"/>
    <nd ref="664200202"/>
    <nd ref="664200200"/>
    <nd ref="664200201"/>
    <nd ref="664200197"/>
    <tag k="addr:city" v="Москва"/>
    <tag k="addr:country" v="RU"/>
    <tag k="addr:housenumber" v="15 с2"/>
    <tag k="addr:street" v="Тверской бульвар"/>
    <tag k="building" v="yes"/>
    <tag k="cladr:code" v="77000000000288300"/>
  </way>
  <way id="52122741" version="3" timestamp="2011-04-20T07:30:37Z" uid="115477" user="wowik" changeset="7913535">
    <nd ref="664200193"/>
    <nd ref="664200198"/>
    <nd ref="664200202"/>
    <nd ref="664200197"/>
    <nd ref="664200196"/>
    <nd ref="664200199"/>
    <nd ref="664200193"/>
    <tag k="addr:city" v="Москва"/>
    <tag k="addr:country" v="RU"/>
    <tag k="addr:street" v="Тверской бульвар"/>
    <tag k="building" v="yes"/>
    <tag k="cladr:code" v="77000000000288300"/>
  </way>
  <way id="52122742" version="2" timestamp="2011-04-20T07:30:45Z" uid="115477" user="wowik" changeset="7913535">
    <nd ref="664200216"/>
    <nd ref="664200211"/>
    <nd ref="664200213"/>
    <nd ref="664200214"/>
    <nd ref="664200216"/>
    <tag k="addr:city" v="Москва"/>
    <tag k="addr:country" v="RU"/>
    <tag k="building" v="yes"/>
  </way>
  <way id="52122743" version="3" timestamp="2011-04-20T11:18:00Z" uid="115477" user="wowik" changeset="7915124">
    <nd ref="664200225"/>
    <nd ref="664200227"/>
    <nd ref="664200230"/>
    <nd ref="664200228"/>
    <nd ref="664200225"/>
    <tag k="addr:city" v="Москва"/>
    <tag k="addr:country" v="RU"/>
    <tag k="addr:housenumber" v="14"/>
    <tag k="addr:street" v="Тверской бульвар"/>
    <tag k="building" v="yes"/>
    <tag k="cladr:code" v="77000000000288300"/>
  </way>
  <way id="52122744" version="4" timestamp="2011-04-20T11:18:12Z" uid="115477" user="wowik" changeset="7915124">
    <nd ref="664200231"/>
    <nd ref="664200234"/>
    <nd ref="664200236"/>
    <nd ref="664200233"/>
    <nd ref="664200243"/>
    <nd ref="664200238"/>
    <nd ref="664200231"/>
    <tag k="addr:city" v="Москва"/>
    <tag k="addr:country" v="RU"/>
    <tag k="addr:housenumber" v="14 с4"/>
    <tag k="addr:street" v="Тверской бульвар"/>
    <tag k="building" v="yes"/>
    <tag k="cladr:code" v="77000000000288300"/>
  </way>
  <way id="52122745" version="2" timestamp="2011-04-20T11:28:31Z" uid="115477" user="wowik" changeset="7915253">
    <nd ref="664200288"/>
    <nd ref="664200289"/>
    <nd ref="664200317"/>
    <nd ref="664200291"/>
    <nd ref="664200290"/>
    <nd ref="664200288"/>
    <tag k="addr:city" v="Москва"/>
    <tag k="addr:country" v="RU"/>
    <tag k="building" v="yes"/>
  </way>
  <way id="52122747" version="3" timestamp="2011-04-20T11:26:33Z" uid="115477" user="wowik" changeset="7915253">
    <nd ref="664200304"/>
    <nd ref="664200334"/>
    <nd ref="664200324"/>
    <nd ref="664200327"/>
    <nd ref="664200306"/>
    <nd ref="664200305"/>
    <nd ref="664200304"/>
    <tag k="addr:city" v="Москва"/>
    <tag k="addr:country" v="RU"/>
    <tag k="addr:housenumber" v="3"/>
    <tag k="addr:street" v="Богословский переулок"/>
    <tag k="building" v="yes"/>
    <tag k="cladr:code" v="77000000000086900"/>
  </way>
  <way id="52122748" version="2" timestamp="2011-04-20T11:28:16Z" uid="115477" user="wowik" changeset="7915253">
    <nd ref="664200292"/>
    <nd ref="664200306"/>
    <nd ref="664200327"/>
    <nd ref="664200328"/>
    <nd ref="664200326"/>
    <nd ref="664200325"/>
    <nd ref="664200296"/>
    <nd ref="664200297"/>
    <nd ref="664200292"/>
    <tag k="addr:city" v="Москва"/>
    <tag k="addr:country" v="RU"/>
    <tag k="building" v="yes"/>
  </way>
  <way id="52122749" version="4" timestamp="2011-04-20T11:25:57Z" uid="115477" user="wowik" changeset="7915253">
    <nd ref="664200307"/>
    <nd ref="664200312"/>
    <nd ref="664200340"/>
    <nd ref="664200339"/>
    <nd ref="664200338"/>
    <nd ref="664200335"/>
    <nd ref="664200307"/>
    <tag k="addr:city" v="Москва"/>
    <tag k="addr:country" v="RU"/>
    <tag k="addr:housenumber" v="4 с2"/>
    <tag k="addr:street" v="Богословский переулок"/>
    <tag k="building" v="yes"/>
    <tag k="cladr:code" v="77000000000086900"/>
  </way>
  <way id="52122750" version="2" timestamp="2011-04-20T11:28:29Z" uid="115477" user="wowik" changeset="7915253">
    <nd ref="664200348"/>
    <nd ref="664200349"/>
    <nd ref="664200342"/>
    <nd ref="664200313"/>
    <nd ref="664200348"/>
    <tag k="addr:city" v="Москва"/>
    <tag k="addr:country" v="RU"/>
    <tag k="building" v="yes"/>
  </way>
  <way id="52122750" version="3" timestamp="2011-12-27T14:37:04Z" uid="260756" user="Felis Pimeja" changeset="10216246">
    <nd ref="664200348"/>
    <nd ref="664200349"/>
    <nd ref="664200342"/>
    <nd ref="664200313"/>
    <nd ref="664200348"/>
  </way>
  <way id="52122751" version="4" timestamp="2011-04-20T11:27:07Z" uid="115477" user="wowik" changeset="7915253">
    <nd ref="664200246"/>
    <nd ref="664200251"/>
    <nd ref="664200248"/>
    <nd ref="664200247"/>
    <nd ref="664200246"/>
    <tag k="addr:city" v="Москва"/>
    <tag k="addr:country" v="RU"/>
    <tag k="addr:housenumber" v="20 с2"/>
    <tag k="addr:street" v="Малая Бронная улица"/>
    <tag k="building" v="yes"/>
    <tag k="cladr:code" v="77000000000090700"/>
  </way>
  <way id="52122751" version="5" timestamp="2012-03-19T22:02:00Z" uid="260756" user="Felis Pimeja" changeset="11035572">
    <nd ref="664200246"/>
    <nd ref="664200251"/>
    <nd ref="664200248"/>
    <nd ref="664200247"/>
    <nd ref="1682353379"/>
    <nd ref="1682353378"/>
    <nd ref="1682353382"/>
    <nd ref="1682353383"/>
    <nd ref="664200246"/>
    <tag k="addr:city" v="Москва"/>
    <tag k="addr:country" v="RU"/>
    <tag k="addr:housenumber" v="20 с2"/>
    <tag k="addr:street" v="Малая Бронная улица"/>
    <tag k="building" v="yes"/>
    <tag k="cladr:code" v="77000000000090700"/>
  </way>
  <way id="52122752" version="4" timestamp="2011-04-20T11:26:34Z" uid="115477" user="wowik" changeset="7915253">
    <nd ref="664200252"/>
    <nd ref="664200253"/>
    <nd ref="664200250"/>
    <nd ref="664200249"/>
    <nd ref="664200252"/>
    <tag k="addr:city" v="Москва"/>
    <tag k="addr:country" v="RU"/>
    <tag k="addr:housenumber" v="7 с2"/>
    <tag k="addr:street" v="Большой Козихинский переулок"/>
    <tag k="building" v="yes"/>
    <tag k="cladr:code" v="77000000000703800"/>
  </way>
  <way id="52122752" version="5" timestamp="2012-03-19T22:02:10Z" uid="260756" user="Felis Pimeja" changeset="11035572">
    <nd ref="664200252"/>
    <nd ref="664200253"/>
    <nd ref="664200250"/>
    <nd ref="664200249"/>
    <nd ref="664200252"/>
    <tag k="addr:city" v="Москва"/>
    <tag k="addr:country" v="RU"/>
    <tag k="addr:housenumber" v="7 с2"/>
    <tag k="addr:street" v="Большой Козихинский переулок"/>
    <tag k="building" v="yes"/>
    <tag k="cladr:code" v="77000000000703800"/>
  </way>
  <way id="52122753" version="3" timestamp="2011-04-20T11:26:46Z" uid="115477" user="wowik" changeset="7915253">
    <nd ref="664200256"/>
    <nd ref="664200257"/>
    <nd ref="664200275"/>
    <nd ref="664200274"/>
    <nd ref="664200256"/>
    <tag k="addr:city" v="Москва"/>
    <tag k="addr:country" v="RU"/>
    <tag k="addr:housenumber" v="8"/>
    <tag k="addr:street" v="Большой Козихинский переулок"/>
    <tag k="building" v="yes"/>
    <tag k="cladr:code" v="77000000000703800"/>
  </way>
  <way id="52122754" version="4" timestamp="2011-04-20T11:25:59Z" uid="115477" user="wowik" changeset="7915253">
    <nd ref="664200256"/>
    <nd ref="664200254"/>
    <nd ref="664200255"/>
    <nd ref="664200257"/>
    <nd ref="664200256"/>
    <tag k="addr:city" v="Москва"/>
    <tag k="addr:country" v="RU"/>
    <tag k="addr:housenumber" v="10"/>
    <tag k="addr:street" v="Большой Козихинский переулок"/>
    <tag k="building" v="yes"/>
    <tag k="cladr:code" v="77000000000703800"/>
  </way>
  <way id="52122755" version="5" timestamp="2011-04-20T11:26:17Z" uid="115477" user="wowik" changeset="7915253">
    <nd ref="664200265"/>
    <nd ref="664200260"/>
    <nd ref="664200259"/>
    <nd ref="664200262"/>
    <nd ref="664200264"/>
    <nd ref="664200263"/>
    <nd ref="664200270"/>
    <nd ref="664200268"/>
    <nd ref="664200271"/>
    <nd ref="664200269"/>
    <nd ref="664200272"/>
    <nd ref="664200267"/>
    <nd ref="664200265"/>
    <tag k="addr:city" v="Москва"/>
    <tag k="addr:country" v="RU"/>
    <tag k="addr:housenumber" v="1/9 с1"/>
    <tag k="addr:housenumber2" v="9/1 с1"/>
    <tag k="addr:street" v="Большой Козихинский переулок"/>
    <tag k="addr:street2" v="Большая Бронная улица"/>
    <tag k="building" v="yes"/>
    <tag k="cladr:code" v="77000000000703800"/>
  </way>
  <way id="52122756" version="3" timestamp="2011-04-20T11:25:26Z" uid="115477" user="wowik" changeset="7915253">
    <nd ref="664200300"/>
    <nd ref="664200301"/>
    <nd ref="664200302"/>
    <nd ref="664200303"/>
    <nd ref="393664735"/>
    <nd ref="393664737"/>
    <nd ref="664200283"/>
    <nd ref="664200277"/>
    <nd ref="664200281"/>
    <nd ref="664200282"/>
    <nd ref="664200280"/>
    <nd ref="664200278"/>
    <nd ref="664200279"/>
    <nd ref="664200298"/>
    <nd ref="664200299"/>
    <nd ref="664200300"/>
    <tag k="addr:city" v="Москва"/>
    <tag k="addr:country" v="RU"/>
    <tag k="addr:housenumber" v="11"/>
    <tag k="addr:street" v="Большая Бронная улица"/>
    <tag k="building" v="yes"/>
    <tag k="cladr:code" v="77000000000090600"/>
  </way>
  <way id="52122757" version="3" timestamp="2011-04-20T11:25:44Z" uid="115477" user="wowik" changeset="7915253">
    <nd ref="664200276"/>
    <nd ref="664200281"/>
    <nd ref="664200277"/>
    <nd ref="664200273"/>
    <nd ref="664200276"/>
    <tag k="addr:city" v="Москва"/>
    <tag k="addr:country" v="RU"/>
    <tag k="addr:housenumber" v="4"/>
    <tag k="addr:street" v="Большой Козихинский переулок"/>
    <tag k="building" v="yes"/>
    <tag k="cladr:code" v="77000000000703800"/>
  </way>
  <way id="52122758" version="3" timestamp="2011-04-20T11:26:39Z" uid="115477" user="wowik" changeset="7915253">
    <nd ref="664200275"/>
    <nd ref="664200276"/>
    <nd ref="664200273"/>
    <nd ref="664200274"/>
    <nd ref="664200275"/>
    <tag k="addr:city" v="Москва"/>
    <tag k="addr:country" v="RU"/>
    <tag k="addr:housenumber" v="6"/>
    <tag k="addr:street" v="Большой Козихинский переулок"/>
    <tag k="building" v="yes"/>
    <tag k="cladr:code" v="77000000000703800"/>
  </way>
  <way id="52122759" version="4" timestamp="2011-04-20T11:26:53Z" uid="115477" user="wowik" changeset="7915253">
    <nd ref="664200292"/>
    <nd ref="664200297"/>
    <nd ref="664200293"/>
    <nd ref="664200294"/>
    <nd ref="664200295"/>
    <nd ref="664200292"/>
    <tag k="addr:city" v="Москва"/>
    <tag k="addr:country" v="RU"/>
    <tag k="addr:housenumber" v="17 с4"/>
    <tag k="addr:street" v="Тверской бульвар"/>
    <tag k="building" v="yes"/>
    <tag k="cladr:code" v="77000000000288300"/>
  </way>
  <way id="52122760" version="3" timestamp="2011-04-20T11:26:07Z" uid="115477" user="wowik" changeset="7915253">
    <nd ref="664200286"/>
    <nd ref="664200287"/>
    <nd ref="664200285"/>
    <nd ref="664200284"/>
    <nd ref="664200286"/>
    <tag k="addr:city" v="Москва"/>
    <tag k="addr:country" v="RU"/>
    <tag k="addr:housenumber" v="10"/>
    <tag k="addr:street" v="Большая Бронная улица"/>
    <tag k="building" v="yes"/>
    <tag k="cladr:code" v="77000000000090600"/>
  </way>
  <way id="52122761" version="3" timestamp="2011-04-20T11:26:25Z" uid="115477" user="wowik" changeset="7915253">
    <nd ref="664200314"/>
    <nd ref="664200319"/>
    <nd ref="664200316"/>
    <nd ref="664200320"/>
    <nd ref="664200315"/>
    <nd ref="664200314"/>
    <tag k="addr:city" v="Москва"/>
    <tag k="addr:country" v="RU"/>
    <tag k="addr:housenumber" v="17"/>
    <tag k="addr:street" v="Тверской бульвар"/>
    <tag k="building" v="yes"/>
    <tag k="cladr:code" v="77000000000288300"/>
  </way>
  <way id="52122762" version="3" timestamp="2011-04-20T11:25:35Z" uid="115477" user="wowik" changeset="7915253">
    <nd ref="664200315"/>
    <nd ref="664200320"/>
    <nd ref="664200330"/>
    <nd ref="664200329"/>
    <nd ref="664200315"/>
    <tag k="addr:city" v="Москва"/>
    <tag k="addr:country" v="RU"/>
    <tag k="addr:street" v="Тверской бульвар"/>
    <tag k="building" v="yes"/>
    <tag k="cladr:code" v="77000000000288300"/>
  </way>
  <way id="52122763" version="2" timestamp="2011-04-20T11:28:17Z" uid="115477" user="wowik" changeset="7915253">
    <nd ref="664200334"/>
    <nd ref="664200331"/>
    <nd ref="664200332"/>
    <nd ref="664200324"/>
    <nd ref="664200334"/>
    <tag k="addr:city" v="Москва"/>
    <tag k="addr:country" v="RU"/>
    <tag k="building" v="yes"/>
  </way>
  <way id="52122764" version="3" timestamp="2011-04-20T11:26:47Z" uid="115477" user="wowik" changeset="7915253">
    <nd ref="664200331"/>
    <nd ref="664200333"/>
    <nd ref="664200329"/>
    <nd ref="664200330"/>
    <nd ref="664200332"/>
    <nd ref="664200331"/>
    <tag k="addr:city" v="Москва"/>
    <tag k="addr:country" v="RU"/>
    <tag k="addr:housenumber" v="19"/>
    <tag k="addr:street" v="Тверской бульвар"/>
    <tag k="building" v="yes"/>
    <tag k="cladr:code" v="77000000000288300"/>
  </way>
  <way id="52122765" version="4" timestamp="2011-04-20T11:27:02Z" uid="115477" user="wowik" changeset="7915253">
    <nd ref="664200321"/>
    <nd ref="664200323"/>
    <nd ref="664200322"/>
    <nd ref="664200325"/>
    <nd ref="664200326"/>
    <nd ref="664200321"/>
    <tag k="addr:city" v="Москва"/>
    <tag k="addr:country" v="RU"/>
    <tag k="addr:housenumber" v="17 с2"/>
    <tag k="addr:street" v="Тверской бульвар"/>
    <tag k="building" v="yes"/>
    <tag k="cladr:code" v="77000000000288300"/>
  </way>
  <way id="52122766" version="2" timestamp="2011-04-20T11:28:23Z" uid="115477" user="wowik" changeset="7915253">
    <nd ref="664200336"/>
    <nd ref="664200337"/>
    <nd ref="664200343"/>
    <nd ref="664200344"/>
    <nd ref="664200336"/>
    <tag k="addr:city" v="Москва"/>
    <tag k="addr:country" v="RU"/>
    <tag k="building" v="yes"/>
  </way>
  <way id="52122768" version="3" timestamp="2011-04-20T11:25:33Z" uid="115477" user="wowik" changeset="7915253">
    <nd ref="664200347"/>
    <nd ref="664200346"/>
    <nd ref="664200345"/>
    <nd ref="664200341"/>
    <nd ref="664200347"/>
    <tag k="addr:city" v="Москва"/>
    <tag k="addr:country" v="RU"/>
    <tag k="addr:housenumber" v="23"/>
    <tag k="addr:street" v="Тверской бульвар"/>
    <tag k="building" v="yes"/>
    <tag k="cladr:code" v="77000000000288300"/>
  </way>
  <way id="52122770" version="2" timestamp="2011-04-20T11:28:28Z" uid="115477" user="wowik" changeset="7915253">
    <nd ref="664200350"/>
    <nd ref="664200352"/>
    <nd ref="664200353"/>
    <nd ref="664200351"/>
    <nd ref="664200350"/>
    <tag k="addr:city" v="Москва"/>
    <tag k="addr:country" v="RU"/>
    <tag k="building" v="yes"/>
  </way>
  <way id="52122770" version="3" timestamp="2011-12-27T14:37:04Z" uid="260756" user="Felis Pimeja" changeset="10216246">
    <nd ref="664200350"/>
    <nd ref="664200352"/>
    <nd ref="664200353"/>
    <nd ref="664200351"/>
    <nd ref="664200350"/>
  </way>
  <way id="52122974" version="4" timestamp="2010-07-29T14:51:16Z" uid="4467" user="Rosscoe" changeset="5347387"/>
  <way id="52122997" version="4" timestamp="2010-07-29T14:51:07Z" uid="4467" user="Rosscoe" changeset="5347387">
    <nd ref="664202618"/>
    <nd ref="664202620"/>
    <nd ref="678461861"/>
    <nd ref="664202609"/>
    <tag k="highway" v="primary_link"/>
    <tag k="maxspeed" v="60"/>
    <tag k="oneway" v="yes"/>
    <tag k="source" v="nearmap"/>
  </way>
  <way id="52122997" version="5" timestamp="2010-08-17T12:07:41Z" uid="79475" user="AlexOnTheBus" changeset="5517182">
    <nd ref="664202618"/>
    <nd ref="664202620"/>
    <nd ref="678461861"/>
    <nd ref="664202609"/>
    <tag k="highway" v="tertiary"/>
    <tag k="maxspeed" v="60"/>
    <tag k="oneway" v="yes"/>
    <tag k="source" v="nearmap"/>
  </way>
  <way id="52122997" version="6" timestamp="2010-08-21T21:24:39Z" uid="12434" user="nm7s9" changeset="5555952">
    <nd ref="664202618"/>
    <nd ref="664202620"/>
    <nd ref="678461861"/>
    <nd ref="664202609"/>
    <tag k="highway" v="tertiary"/>
    <tag k="maxspeed" v="60"/>
    <tag k="name" v="Cameron Avenue"/>
    <tag k="oneway" v="yes"/>
    <tag k="source" v="nearmap"/>
  </way>
  <way id="52122997" version="7" timestamp="2010-08-28T12:32:09Z" uid="79475" user="AlexOnTheBus" changeset="5615662">
    <nd ref="664202618"/>
    <nd ref="664202620"/>
    <nd ref="678461861"/>
    <nd ref="664202609"/>
    <tag k="highway" v="secondary_link"/>
    <tag k="oneway" v="yes"/>
    <tag k="source" v="nearmap"/>
  </way>
  <way id="52122998" version="3" timestamp="2010-07-29T14:50:47Z" uid="4467" user="Rosscoe" changeset="5347387">
    <nd ref="664202578"/>
    <nd ref="309851216"/>
    <nd ref="309851220"/>
    <nd ref="664202611"/>
    <nd ref="664231317"/>
    <nd ref="32548843"/>
    <tag k="highway" v="tertiary"/>
    <tag k="name" v="Cameron Avenue"/>
    <tag k="oneway" v="yes"/>
    <tag k="source" v="nearmap"/>
  </way>
</osm>
