<?xml version='1.0' encoding='UTF-8'?>
<osm version="0.6" generator="libosmium/2.20.0">
  <way id="52148452" version="1" timestamp="2010-03-12T08:13:18Z" uid="7617" user="Franc" changeset="4104157">
    <nd ref="664420381"/>
    <nd ref="139621220"/>
    <nd ref="139621221"/>
    <nd ref="139621222"/>
    <tag k="highway" v="residential"/>
    <tag k="maxspeed" v="50"/>
    <tag k="name" v="Auburn Street"/>
    <tag k="source:maxspeed" v="state_limit"/>
  </way>
  <way id="52148455" version="1" timestamp="2010-03-12T08:13:18Z" uid="7617" user="Franc" changeset="4104157">
    <nd ref="664420385"/>
    <nd ref="26398093"/>
    <nd ref="139647144"/>
    <nd ref="664420381"/>
    <tag k="highway" v="residential"/>
    <tag k="maxspeed" v="50"/>
    <tag k="name" v="Auburn Street"/>
    <tag k="restriction" v="school_zone"/>
    <tag k="source:maxspeed" v="state_limit"/>
  </way>
  <way id="52148457" version="1" timestamp="2010-03-12T08:13:19Z" uid="7617" user="Franc" changeset="4104157">
    <nd ref="664420393"/>
    <nd ref="26398092"/>
    <nd ref="599914449"/>
    <nd ref="599914442"/>
    <nd ref="664420383"/>
    <tag k="highway" v="residential"/>
    <tag k="maxspeed" v="50"/>
    <tag k="name" v="Railway Street"/>
    <tag k="rcn" v="yes"/>
    <tag k="restriction" v="school_zone"/>
    <tag k="source:maxspeed" v="state_limit"/>
  </way>
  <way id="52148460" version="1" timestamp="2010-03-12T08:13:19Z" uid="7617" user="Franc" changeset="4104157">
    <nd ref="664420384"/>
    <nd ref="664420394"/>
    <nd ref="664420389"/>
    <nd ref="664420390"/>
    <nd ref="664420391"/>
    <nd ref="664420382"/>
    <nd ref="664420384"/>
    <tag k="amenity" v="school"/>
    <tag k="source" v="nearmap"/>
  </way>
  <way id="52148460" version="2" timestamp="2012-03-28T22:39:29Z" uid="7523" user="inas" changeset="11132114"/>
  <way id="52148462" version="1" timestamp="2010-03-12T08:13:19Z" uid="7617" user="Franc" changeset="4104157">
    <nd ref="664420383"/>
    <nd ref="139646204"/>
    <nd ref="139646205"/>
    <nd ref="139621222"/>
    <tag k="highway" v="residential"/>
    <tag k="maxspeed" v="50"/>
    <tag k="name" v="Railway Street"/>
    <tag k="rcn" v="yes"/>
    <tag k="source:maxspeed" v="state_limit"/>
  </way>
  <way id="52148464" version="1" timestamp="2010-03-12T08:13:19Z" uid="7617" user="Franc" changeset="4104157">
    <nd ref="664420387"/>
    <nd ref="139647142"/>
    <nd ref="664420388"/>
    <nd ref="664420386"/>
    <tag k="highway" v="residential"/>
    <tag k="maxspeed" v="50"/>
    <tag k="name" v="Young Street"/>
    <tag k="restriction" v="school_zone"/>
    <tag k="source:maxspeed" v="state_limit"/>
  </way>
  <way id="52148466" version="1" timestamp="2010-03-12T08:13:19Z" uid="7617" user="Franc" changeset="4104157">
    <nd ref="664420392"/>
    <nd ref="26398092"/>
    <tag k="highway" v="residential"/>
    <tag k="maxspeed" v="50"/>
    <tag k="rcn" v="yes"/>
    <tag k="restriction" v="school_zone"/>
    <tag k="source" v="nearmap"/>
    <tag k="source:maxspeed" v="state_limit"/>
  </way>
  <way id="52148466" version="2" timestamp="2010-05-09T06:00:51Z" uid="244897" user="M526244" changeset="4644873">
    <nd ref="664420392"/>
    <nd ref="26398092"/>
    <tag k="highway" v="residential"/>
    <tag k="maxspeed" v="50"/>
    <tag k="name" v="Franklin Street"/>
    <tag k="rcn" v="yes"/>
    <tag k="restriction" v="school_zone"/>
    <tag k="source" v="nearmap"/>
    <tag k="source:maxspeed" v="state_limit"/>
  </way>
  <way id="52148469" version="1" timestamp="2010-03-12T08:13:19Z" uid="7617" user="Franc" changeset="4104157">
    <nd ref="664420400"/>
    <nd ref="599975664"/>
    <nd ref="53453898"/>
    <nd ref="36705800"/>
    <nd ref="664420396"/>
    <tag k="highway" v="residential"/>
    <tag k="name" v="Wigram Street"/>
    <tag k="restriction" v="school_zone"/>
  </way>
  <way id="52148469" version="2" timestamp="2010-07-08T01:44:39Z" uid="74617" user="JohnSmith" changeset="5162525">
    <nd ref="664420400"/>
    <nd ref="599975664"/>
    <nd ref="53453898"/>
    <nd ref="36705800"/>
    <nd ref="664420396"/>
    <tag k="highway" v="residential"/>
    <tag k="maxspeed" v="50"/>
    <tag k="maxspeed:source" v="default residential speed limit in Australia"/>
    <tag k="name" v="Wigram Street"/>
    <tag k="restriction" v="school_zone"/>
  </way>
  <way id="52148469" version="3" timestamp="2010-08-14T12:03:26Z" uid="4467" user="Rosscoe" changeset="5489894">
    <nd ref="664420400"/>
    <nd ref="599975664"/>
    <nd ref="53453898"/>
    <nd ref="36705800"/>
    <nd ref="664420396"/>
    <tag k="highway" v="residential"/>
    <tag k="maxspeed" v="50"/>
    <tag k="name" v="Wigram Street"/>
    <tag k="restriction" v="school_zone"/>
    <tag k="source:maxspeed" v="default residential speed limit in Australia"/>
  </way>
  <way id="52148469" version="4" timestamp="2012-01-20T03:41:28Z" uid="147510" user="woodpeck_fixbot" changeset="10442986">
    <nd ref="664420400"/>
    <nd ref="599975664"/>
    <nd ref="53453898"/>
    <nd ref="36705800"/>
    <nd ref="664420396"/>
    <tag k="highway" v="residential"/>
    <tag k="name" v="Wigram Street"/>
    <tag k="restriction" v="school_zone"/>
    <tag k="source:maxspeed" v="default residential speed limit in Australia"/>
  </way>
  <way id="52148472" version="1" timestamp="2010-03-12T08:13:19Z" uid="7617" user="Franc" changeset="4104157">
    <nd ref="664420397"/>
    <nd ref="600165614"/>
    <tag k="highway" v="residential"/>
    <tag k="name" v="Allen Street"/>
    <tag k="source" v="survey"/>
  </way>
  <way id="52148472" version="2" timestamp="2010-07-08T01:45:41Z" uid="74617" user="JohnSmith" changeset="5162525">
    <nd ref="664420397"/>
    <nd ref="600165614"/>
    <tag k="highway" v="residential"/>
    <tag k="maxspeed" v="50"/>
    <tag k="maxspeed:source" v="default residential speed limit in Australia"/>
    <tag k="name" v="Allen Street"/>
    <tag k="source" v="survey"/>
  </way>
  <way id="52148472" version="3" timestamp="2010-08-14T12:03:13Z" uid="4467" user="Rosscoe" changeset="5489894">
    <nd ref="664420397"/>
    <nd ref="600165614"/>
    <tag k="highway" v="residential"/>
    <tag k="maxspeed" v="50"/>
    <tag k="name" v="Allen Street"/>
    <tag k="source" v="survey"/>
    <tag k="source:maxspeed" v="default residential speed limit in Australia"/>
  </way>
  <way id="52148472" version="4" timestamp="2012-01-20T03:41:29Z" uid="147510" user="woodpeck_fixbot" changeset="10442986">
    <nd ref="664420397"/>
    <nd ref="600165614"/>
    <tag k="highway" v="residential"/>
    <tag k="name" v="Allen Street"/>
    <tag k="source" v="survey"/>
    <tag k="source:maxspeed" v="default residential speed limit in Australia"/>
  </way>
  <way id="52148473" version="1" timestamp="2010-03-12T08:13:19Z" uid="7617" user="Franc" changeset="4104157">
    <nd ref="664420395"/>
    <nd ref="53453898"/>
    <tag k="highway" v="unclassified"/>
    <tag k="restriction" v="school_zone"/>
  </way>
  <way id="52148473" version="2" timestamp="2010-05-08T07:03:20Z" uid="7617" user="Franc" changeset="4636103">
    <nd ref="664420395"/>
    <nd ref="53453898"/>
    <tag k="highway" v="unclassified"/>
    <tag k="name" v="Cambridge Street"/>
    <tag k="restriction" v="school_zone"/>
    <tag k="source" v="survey"/>
  </way>
  <way id="52148474" version="1" timestamp="2010-03-12T08:13:19Z" uid="7617" user="Franc" changeset="4104157">
    <nd ref="664420396"/>
    <nd ref="270653505"/>
    <nd ref="38867824"/>
    <tag k="highway" v="residential"/>
    <tag k="name" v="Wigram Street"/>
  </way>
  <way id="52148474" version="2" timestamp="2010-07-08T01:46:17Z" uid="74617" user="JohnSmith" changeset="5162525">
    <nd ref="664420396"/>
    <nd ref="270653505"/>
    <nd ref="38867824"/>
    <tag k="highway" v="residential"/>
    <tag k="maxspeed" v="50"/>
    <tag k="maxspeed:source" v="default residential speed limit in Australia"/>
    <tag k="name" v="Wigram Street"/>
  </way>
  <way id="52148474" version="3" timestamp="2012-01-20T03:41:31Z" uid="147510" user="woodpeck_fixbot" changeset="10442986">
    <nd ref="664420396"/>
    <nd ref="270653505"/>
    <nd ref="38867824"/>
    <tag k="highway" v="residential"/>
    <tag k="name" v="Wigram Street"/>
  </way>
  <way id="52148475" version="1" timestamp="2010-03-12T08:13:19Z" uid="7617" user="Franc" changeset="4104157">
    <nd ref="664420402"/>
    <nd ref="664420405"/>
    <nd ref="664420409"/>
    <nd ref="664420410"/>
    <nd ref="664420406"/>
    <nd ref="664420407"/>
    <nd ref="664420408"/>
    <nd ref="664420401"/>
    <nd ref="664420403"/>
    <nd ref="664420404"/>
    <nd ref="664420402"/>
    <tag k="amenity" v="school"/>
    <tag k="name" v="Oatlands Public School"/>
    <tag k="source" v="nearmap"/>
  </way>
  <way id="52148801" version="1" timestamp="2010-03-12T08:17:26Z" uid="110593" user="esetzer" changeset="4104177">
    <nd ref="664421363"/>
    <nd ref="664421380"/>
    <nd ref="664421396"/>
    <nd ref="664421421"/>
    <nd ref="664421363"/>
    <tag k="amenity" v="parking"/>
    <tag k="created_by" v="Merkaartor 0.11"/>
  </way>
  <way id="52148801" version="2" timestamp="2012-01-30T11:43:45Z" uid="315015" user="WernerP" changeset="10538956"/>
</osm>
