<?xml version='1.0' encoding='UTF-8'?>
<osm version="0.6" generator="libosmium/2.20.0">
  <way id="52328009" version="2" timestamp="2010-05-01T14:27:37Z" uid="58091" user="Andreas M" changeset="4575513">
    <nd ref="293378620"/>
    <nd ref="337358371"/>
    <nd ref="337358375"/>
    <nd ref="337358380"/>
    <nd ref="337358384"/>
    <nd ref="337358387"/>
    <nd ref="337358392"/>
    <nd ref="337358395"/>
    <nd ref="337358399"/>
    <nd ref="337358402"/>
    <nd ref="337358405"/>
    <nd ref="337358409"/>
    <nd ref="337358412"/>
    <nd ref="337358415"/>
    <nd ref="337358418"/>
    <nd ref="337358420"/>
    <nd ref="337358423"/>
    <nd ref="337358426"/>
    <nd ref="337358429"/>
    <tag k="highway" v="track"/>
    <tag k="source" v="plan.at 2009"/>
  </way>
  <way id="52328009" version="3" timestamp="2012-03-27T16:24:53Z" uid="54806" user="_al" changeset="11117892">
    <nd ref="293378620"/>
    <nd ref="337358371"/>
    <nd ref="337358375"/>
    <nd ref="337358380"/>
    <nd ref="337358384"/>
    <nd ref="337358387"/>
    <nd ref="337358392"/>
    <nd ref="337358395"/>
    <nd ref="337358399"/>
    <nd ref="337358402"/>
    <nd ref="337358405"/>
    <nd ref="337358409"/>
    <nd ref="337358412"/>
    <nd ref="337358415"/>
    <nd ref="337358418"/>
    <nd ref="337358420"/>
    <nd ref="337358423"/>
    <nd ref="337358426"/>
    <nd ref="337358429"/>
    <tag k="highway" v="track"/>
    <tag k="odbl" v="clean"/>
    <tag k="source" v="plan.at 2009"/>
  </way>
  <way id="52328235" version="2" timestamp="2010-04-07T20:56:47Z" uid="20587" user="balrog-kun" changeset="4355840">
    <nd ref="665732902"/>
    <nd ref="75168686"/>
    <nd ref="75217910"/>
    <nd ref="75217911"/>
    <nd ref="75115403"/>
    <nd ref="75217913"/>
    <nd ref="75217915"/>
    <nd ref="75217917"/>
    <nd ref="75217918"/>
    <nd ref="75137078"/>
    <nd ref="75217919"/>
    <nd ref="75161913"/>
    <nd ref="75217921"/>
    <nd ref="75161902"/>
    <nd ref="75217922"/>
    <nd ref="75217924"/>
    <nd ref="75208456"/>
    <tag k="highway" v="residential"/>
    <tag k="name" v="27th Street South"/>
    <tag k="tiger:cfcc" v="A41"/>
    <tag k="tiger:county" v="Cass, ND"/>
    <tag k="tiger:name_base" v="27th"/>
    <tag k="tiger:name_direction_suffix" v="S"/>
    <tag k="tiger:name_type" v="St"/>
    <tag k="tiger:reviewed" v="no"/>
    <tag k="tiger:separated" v="no"/>
    <tag k="tiger:source" v="tiger_import_dch_v0.6_20070829"/>
    <tag k="tiger:tlid" v="151471690:151469689:151469690:151471880:151471673:151471674:151471687:151471689"/>
    <tag k="tiger:zip_left" v="58103"/>
    <tag k="tiger:zip_right" v="58103"/>
  </way>
  <way id="52328240" version="2" timestamp="2010-04-07T20:56:48Z" uid="20587" user="balrog-kun" changeset="4355840">
    <nd ref="75231178"/>
    <nd ref="665732927"/>
    <nd ref="75221356"/>
    <nd ref="75229688"/>
    <nd ref="75197662"/>
    <nd ref="75231180"/>
    <nd ref="75231181"/>
    <nd ref="75230111"/>
    <nd ref="75231182"/>
    <nd ref="75141538"/>
    <nd ref="75218504"/>
    <tag k="highway" v="primary"/>
    <tag k="name" v="Main Avenue"/>
    <tag k="name_1" v="United States Highway 10"/>
    <tag k="name_2" v="I-94 (Bus)"/>
    <tag k="oneway" v="yes"/>
    <tag k="ref" v="US 10"/>
    <tag k="tiger:cfcc" v="A25"/>
    <tag k="tiger:county" v="Cass, ND"/>
    <tag k="tiger:name_base" v="Main"/>
    <tag k="tiger:name_base_1" v="United States Highway 10"/>
    <tag k="tiger:name_base_2" v="I-94 (Bus)"/>
    <tag k="tiger:name_type" v="Ave"/>
    <tag k="tiger:reviewed" v="no"/>
    <tag k="tiger:separated" v="yes"/>
    <tag k="tiger:source" v="tiger_import_dch_v0.6_20070829"/>
    <tag k="tiger:tlid" v="151481782"/>
    <tag k="tiger:zip_left" v="58103"/>
    <tag k="tiger:zip_left_1" v="58102"/>
  </way>
  <way id="52328240" version="3" timestamp="2011-06-11T01:06:33Z" uid="207745" user="NE2" changeset="8402187">
    <nd ref="75231178"/>
    <nd ref="665732927"/>
    <nd ref="75221356"/>
    <nd ref="75229688"/>
    <nd ref="75197662"/>
    <nd ref="75231180"/>
    <nd ref="75231181"/>
    <nd ref="75230111"/>
    <nd ref="75231182"/>
    <nd ref="75141538"/>
    <nd ref="75218504"/>
    <tag k="FIXME" v="not dual carriageway"/>
    <tag k="highway" v="primary"/>
    <tag k="lanes" v="2"/>
    <tag k="name" v="Main Avenue"/>
    <tag k="oneway" v="yes"/>
    <tag k="ref" v="US 10"/>
    <tag k="tiger:cfcc" v="A25"/>
    <tag k="tiger:county" v="Cass, ND"/>
    <tag k="tiger:name_base" v="Main"/>
    <tag k="tiger:name_base_1" v="United States Highway 10"/>
    <tag k="tiger:name_base_2" v="I-94 (Bus)"/>
    <tag k="tiger:name_type" v="Ave"/>
    <tag k="tiger:reviewed" v="no"/>
    <tag k="tiger:separated" v="yes"/>
    <tag k="tiger:source" v="tiger_import_dch_v0.6_20070829"/>
    <tag k="tiger:tlid" v="151481782"/>
    <tag k="tiger:zip_left" v="58103"/>
    <tag k="tiger:zip_left_1" v="58102"/>
  </way>
  <way id="52328240" version="4" timestamp="2011-07-07T06:29:17Z" uid="473471" user="NE3" changeset="8654297">
    <nd ref="75231178"/>
    <nd ref="665732927"/>
    <nd ref="75221356"/>
    <nd ref="75229688"/>
    <nd ref="75197662"/>
    <nd ref="75231180"/>
    <nd ref="75231181"/>
    <nd ref="75230111"/>
    <nd ref="75231182"/>
    <nd ref="75141538"/>
    <nd ref="75218504"/>
    <tag k="FIXME" v="not dual carriageway"/>
    <tag k="NHS" v="yes"/>
    <tag k="highway" v="primary"/>
    <tag k="lanes" v="2"/>
    <tag k="name" v="Main Avenue"/>
    <tag k="oneway" v="yes"/>
    <tag k="ref" v="US 10"/>
    <tag k="tiger:cfcc" v="A25"/>
    <tag k="tiger:county" v="Cass, ND"/>
    <tag k="tiger:name_base" v="Main"/>
    <tag k="tiger:name_base_1" v="United States Highway 10"/>
    <tag k="tiger:name_base_2" v="I-94 (Bus)"/>
    <tag k="tiger:name_type" v="Ave"/>
    <tag k="tiger:reviewed" v="no"/>
    <tag k="tiger:separated" v="yes"/>
    <tag k="tiger:source" v="tiger_import_dch_v0.6_20070829"/>
    <tag k="tiger:tlid" v="151481782"/>
    <tag k="tiger:zip_left" v="58103"/>
    <tag k="tiger:zip_left_1" v="58102"/>
  </way>
  <way id="52328240" version="5" timestamp="2011-12-28T08:06:17Z" uid="207745" user="NE2" changeset="10222984">
    <nd ref="75231178"/>
    <nd ref="665732927"/>
    <nd ref="75221356"/>
    <nd ref="75229688"/>
    <nd ref="75197662"/>
    <nd ref="75231180"/>
    <nd ref="75231181"/>
    <nd ref="75230111"/>
    <nd ref="75231182"/>
    <nd ref="75141538"/>
    <nd ref="75218504"/>
    <tag k="FIXME" v="not dual carriageway"/>
    <tag k="NHS" v="yes"/>
    <tag k="highway" v="primary"/>
    <tag k="lanes" v="2"/>
    <tag k="name" v="Main Avenue"/>
    <tag k="oneway" v="yes"/>
    <tag k="ref" v="I 94 Business;US 10"/>
    <tag k="tiger:cfcc" v="A25"/>
    <tag k="tiger:county" v="Cass, ND"/>
    <tag k="tiger:name_base" v="Main"/>
    <tag k="tiger:name_base_1" v="United States Highway 10"/>
    <tag k="tiger:name_base_2" v="I-94 (Bus)"/>
    <tag k="tiger:name_type" v="Ave"/>
    <tag k="tiger:reviewed" v="no"/>
    <tag k="tiger:separated" v="yes"/>
    <tag k="tiger:source" v="tiger_import_dch_v0.6_20070829"/>
    <tag k="tiger:tlid" v="151481782"/>
    <tag k="tiger:zip_left" v="58103"/>
    <tag k="tiger:zip_left_1" v="58102"/>
  </way>
  <way id="52328240" version="6" timestamp="2012-01-17T00:54:51Z" uid="214969" user="AndrewBuck" changeset="10413894">
    <nd ref="75231178"/>
    <nd ref="665732927"/>
    <nd ref="75221356"/>
    <nd ref="75229688"/>
    <nd ref="75197662"/>
    <nd ref="75185285"/>
    <nd ref="75185294"/>
    <nd ref="75230111"/>
    <nd ref="1594049462"/>
    <nd ref="75231182"/>
    <nd ref="75141376"/>
    <nd ref="75218504"/>
    <tag k="FIXME" v="not dual carriageway"/>
    <tag k="NHS" v="yes"/>
    <tag k="highway" v="primary"/>
    <tag k="lanes" v="2"/>
    <tag k="name" v="Main Avenue"/>
    <tag k="oneway" v="yes"/>
    <tag k="ref" v="I 94 Business;US 10"/>
    <tag k="tiger:cfcc" v="A25"/>
    <tag k="tiger:county" v="Cass, ND"/>
    <tag k="tiger:name_base" v="Main"/>
    <tag k="tiger:name_base_1" v="United States Highway 10"/>
    <tag k="tiger:name_base_2" v="I-94 (Bus)"/>
    <tag k="tiger:name_type" v="Ave"/>
    <tag k="tiger:reviewed" v="no"/>
    <tag k="tiger:separated" v="yes"/>
    <tag k="tiger:source" v="tiger_import_dch_v0.6_20070829"/>
    <tag k="tiger:tlid" v="151481782"/>
    <tag k="tiger:zip_left" v="58103"/>
    <tag k="tiger:zip_left_1" v="58102"/>
  </way>
  <way id="52328242" version="2" timestamp="2010-04-07T20:56:48Z" uid="20587" user="balrog-kun" changeset="4355840">
    <nd ref="550879804"/>
    <nd ref="665732946"/>
    <nd ref="550879806"/>
    <nd ref="550879808"/>
    <nd ref="550879810"/>
    <nd ref="550879813"/>
    <nd ref="550914492"/>
    <nd ref="550879815"/>
    <nd ref="550879817"/>
    <nd ref="550879818"/>
    <nd ref="550879820"/>
    <tag k="highway" v="primary"/>
    <tag k="name" v="Main Avenue"/>
    <tag k="name_1" v="United States Highway 10"/>
    <tag k="name_2" v="I-94 (Bus)"/>
    <tag k="oneway" v="yes"/>
    <tag k="ref" v="US 10"/>
  </way>
  <way id="52328242" version="3" timestamp="2011-06-11T01:07:28Z" uid="207745" user="NE2" changeset="8402187">
    <nd ref="550879804"/>
    <nd ref="665732946"/>
    <nd ref="550879806"/>
    <nd ref="550879808"/>
    <nd ref="550879810"/>
    <nd ref="550879813"/>
    <nd ref="550914492"/>
    <nd ref="550879815"/>
    <nd ref="550879817"/>
    <nd ref="550879818"/>
    <nd ref="550879820"/>
    <tag k="highway" v="primary"/>
    <tag k="lanes" v="3"/>
    <tag k="name" v="Main Avenue"/>
    <tag k="oneway" v="yes"/>
    <tag k="ref" v="US 10"/>
  </way>
  <way id="52328242" version="4" timestamp="2011-07-07T06:29:16Z" uid="473471" user="NE3" changeset="8654297">
    <nd ref="550879804"/>
    <nd ref="665732946"/>
    <nd ref="550879806"/>
    <nd ref="550879808"/>
    <nd ref="550879810"/>
    <nd ref="550879813"/>
    <nd ref="550914492"/>
    <nd ref="550879815"/>
    <nd ref="550879817"/>
    <nd ref="550879818"/>
    <nd ref="550879820"/>
    <tag k="NHS" v="yes"/>
    <tag k="highway" v="primary"/>
    <tag k="lanes" v="3"/>
    <tag k="name" v="Main Avenue"/>
    <tag k="oneway" v="yes"/>
    <tag k="ref" v="US 10"/>
  </way>
  <way id="52328242" version="5" timestamp="2011-12-28T08:06:17Z" uid="207745" user="NE2" changeset="10222984">
    <nd ref="550879804"/>
    <nd ref="665732946"/>
    <nd ref="550879806"/>
    <nd ref="550879808"/>
    <nd ref="550879810"/>
    <nd ref="550879813"/>
    <nd ref="550914492"/>
    <nd ref="550879815"/>
    <nd ref="550879817"/>
    <nd ref="550879818"/>
    <nd ref="550879820"/>
    <tag k="NHS" v="yes"/>
    <tag k="highway" v="primary"/>
    <tag k="lanes" v="3"/>
    <tag k="name" v="Main Avenue"/>
    <tag k="oneway" v="yes"/>
    <tag k="ref" v="I 94 Business;US 10"/>
  </way>
  <way id="52328242" version="6" timestamp="2012-01-17T00:54:53Z" uid="214969" user="AndrewBuck" changeset="10413894">
    <nd ref="75257776"/>
    <nd ref="665732946"/>
    <nd ref="75168608"/>
    <nd ref="75168640"/>
    <nd ref="75229220"/>
    <nd ref="1594049470"/>
    <nd ref="550879810"/>
    <nd ref="1594049482"/>
    <nd ref="1594049485"/>
    <nd ref="1594049486"/>
    <nd ref="75123340"/>
    <nd ref="550914492"/>
    <nd ref="550879815"/>
    <nd ref="550879817"/>
    <nd ref="550879818"/>
    <nd ref="550879820"/>
    <tag k="NHS" v="yes"/>
    <tag k="highway" v="primary"/>
    <tag k="lanes" v="3"/>
    <tag k="name" v="Main Avenue"/>
    <tag k="oneway" v="yes"/>
    <tag k="ref" v="I 94 Business;US 10"/>
  </way>
  <way id="52328280" version="2" timestamp="2010-04-03T17:21:03Z" uid="20587" user="balrog-kun" changeset="4313610">
    <nd ref="665733702"/>
    <nd ref="665733703"/>
    <tag k="highway" v="residential"/>
    <tag k="name" v="Boulder Canyon Lane"/>
  </way>
  <way id="52328281" version="2" timestamp="2010-04-03T17:21:03Z" uid="20587" user="balrog-kun" changeset="4313610">
    <nd ref="665733704"/>
    <nd ref="665733705"/>
    <nd ref="665733706"/>
    <nd ref="665733707"/>
    <nd ref="665733708"/>
    <tag k="highway" v="residential"/>
    <tag k="name" v="Ice Canyon Lane"/>
  </way>
  <way id="52328282" version="2" timestamp="2010-04-03T17:21:03Z" uid="20587" user="balrog-kun" changeset="4313610">
    <nd ref="665733709"/>
    <nd ref="665733710"/>
    <tag k="highway" v="residential"/>
    <tag k="name" v="Pyramid Peak Court"/>
  </way>
  <way id="52328283" version="2" timestamp="2010-04-03T17:21:03Z" uid="20587" user="balrog-kun" changeset="4313610">
    <nd ref="665733710"/>
    <nd ref="665733711"/>
    <nd ref="665733712"/>
    <nd ref="665733713"/>
    <nd ref="665733714"/>
    <tag k="highway" v="residential"/>
    <tag k="name" v="Pyramid Peak Lane"/>
  </way>
  <way id="52328284" version="2" timestamp="2010-04-03T17:21:03Z" uid="20587" user="balrog-kun" changeset="4313610">
    <nd ref="665733715"/>
    <nd ref="665733716"/>
    <tag k="highway" v="residential"/>
    <tag k="name" v="Grapevine Canyon Court"/>
  </way>
  <way id="52328285" version="3" timestamp="2010-04-03T17:21:04Z" uid="20587" user="balrog-kun" changeset="4313610">
    <nd ref="665733717"/>
    <nd ref="665733718"/>
    <nd ref="665733719"/>
    <tag k="highway" v="residential"/>
    <tag k="name" v="Waterfall Canyon Court"/>
  </way>
  <way id="52328287" version="2" timestamp="2010-04-03T17:21:04Z" uid="20587" user="balrog-kun" changeset="4313610">
    <nd ref="665733740"/>
    <nd ref="665733741"/>
    <tag k="highway" v="residential"/>
    <tag k="name" v="Salt Springs Court"/>
  </way>
  <way id="52328288" version="2" timestamp="2010-04-03T17:21:04Z" uid="20587" user="balrog-kun" changeset="4313610">
    <nd ref="665733742"/>
    <nd ref="665733739"/>
    <tag k="highway" v="residential"/>
    <tag k="name" v="Waterhole Canyon Court"/>
  </way>
  <way id="52328290" version="2" timestamp="2010-04-03T17:21:04Z" uid="20587" user="balrog-kun" changeset="4313610">
    <nd ref="665733745"/>
    <nd ref="665733746"/>
    <nd ref="665733747"/>
    <nd ref="665733748"/>
    <nd ref="665733749"/>
    <nd ref="665733750"/>
    <tag k="highway" v="residential"/>
    <tag k="name" v="Horse Springs Court"/>
  </way>
  <way id="52328292" version="2" timestamp="2010-04-03T17:21:05Z" uid="20587" user="balrog-kun" changeset="4313610">
    <nd ref="665733751"/>
    <nd ref="665733771"/>
    <nd ref="665733772"/>
    <nd ref="665733773"/>
    <nd ref="665733744"/>
    <tag k="highway" v="residential"/>
    <tag k="name" v="Sheep Springs Road"/>
  </way>
  <way id="52328301" version="2" timestamp="2010-03-22T07:37:08Z" uid="20587" user="balrog-kun" changeset="4199043">
    <nd ref="335171758"/>
    <nd ref="47258812"/>
    <nd ref="356357718"/>
    <nd ref="47258816"/>
    <nd ref="356357720"/>
    <nd ref="47258819"/>
    <nd ref="356357722"/>
    <nd ref="356357724"/>
    <nd ref="47258823"/>
    <nd ref="47258825"/>
    <nd ref="47156055"/>
    <nd ref="47258829"/>
    <nd ref="47247847"/>
    <nd ref="47258832"/>
    <nd ref="47258834"/>
    <nd ref="47258838"/>
    <nd ref="47258842"/>
    <nd ref="47258846"/>
    <nd ref="47258848"/>
    <nd ref="47258849"/>
    <nd ref="47258852"/>
    <nd ref="47258853"/>
    <nd ref="47258855"/>
    <nd ref="47194906"/>
    <nd ref="47258858"/>
    <nd ref="47258860"/>
    <nd ref="47173444"/>
    <nd ref="47258863"/>
    <nd ref="47258867"/>
    <nd ref="47258871"/>
    <nd ref="47258874"/>
    <nd ref="47258875"/>
    <nd ref="47258876"/>
    <nd ref="47258881"/>
    <nd ref="47258885"/>
    <nd ref="47216837"/>
    <nd ref="47258888"/>
    <nd ref="47258891"/>
    <nd ref="47258894"/>
    <nd ref="47258897"/>
    <nd ref="47214487"/>
    <nd ref="47258903"/>
    <nd ref="47258905"/>
    <nd ref="47258909"/>
    <nd ref="47258911"/>
    <tag k="highway" v="tertiary"/>
    <tag k="name" v="Southeast Columbia Way"/>
    <tag k="tiger:cfcc" v="A41"/>
    <tag k="tiger:county" v="Clark, WA"/>
    <tag k="tiger:name_base" v="Columbia"/>
    <tag k="tiger:name_direction_prefix" v="SE"/>
    <tag k="tiger:reviewed" v="no"/>
    <tag k="tiger:separated" v="no"/>
    <tag k="tiger:source" v="tiger_import_dch_v0.6_20070830"/>
    <tag k="tiger:tlid" v="158328219:158328220:158327131:158371263:158347096:158371225:158371229:158327097:158327103:158371275:158371276:158369575:158343118"/>
    <tag k="tiger:zip_left" v="98661"/>
    <tag k="tiger:zip_right" v="98661"/>
  </way>
  <way id="52328301" version="3" timestamp="2011-01-08T01:14:15Z" uid="121241" user="zephyr" changeset="6899364">
    <nd ref="335171758"/>
    <nd ref="47258812"/>
    <nd ref="1089851144"/>
    <nd ref="356357718"/>
    <nd ref="1089852903"/>
    <nd ref="47258816"/>
    <nd ref="1089854005"/>
    <nd ref="356357720"/>
    <nd ref="1089852149"/>
    <nd ref="47258819"/>
    <nd ref="356357722"/>
    <nd ref="356357724"/>
    <nd ref="47258823"/>
    <nd ref="47258825"/>
    <nd ref="47156055"/>
    <nd ref="47258829"/>
    <nd ref="47247847"/>
    <nd ref="47258832"/>
    <nd ref="47258834"/>
    <nd ref="47258838"/>
    <nd ref="47258842"/>
    <nd ref="47258846"/>
    <nd ref="47258848"/>
    <nd ref="47258849"/>
    <nd ref="47258852"/>
    <nd ref="47258853"/>
    <nd ref="47258855"/>
    <nd ref="47194906"/>
    <nd ref="47258858"/>
    <nd ref="47258860"/>
    <nd ref="47173444"/>
    <nd ref="47258863"/>
    <nd ref="47258867"/>
    <nd ref="47258871"/>
    <nd ref="47258874"/>
    <nd ref="47258875"/>
    <nd ref="47258876"/>
    <nd ref="47258881"/>
    <nd ref="47258885"/>
    <nd ref="47216837"/>
    <nd ref="47258888"/>
    <nd ref="47258891"/>
    <nd ref="47258894"/>
    <nd ref="47258897"/>
    <nd ref="47214487"/>
    <nd ref="47258903"/>
    <nd ref="47258905"/>
    <nd ref="47258909"/>
    <nd ref="47258911"/>
    <tag k="highway" v="tertiary"/>
    <tag k="name" v="Southeast Columbia Way"/>
    <tag k="tiger:cfcc" v="A41"/>
    <tag k="tiger:county" v="Clark, WA"/>
    <tag k="tiger:name_base" v="Columbia"/>
    <tag k="tiger:name_direction_prefix" v="SE"/>
    <tag k="tiger:separated" v="no"/>
    <tag k="tiger:source" v="tiger_import_dch_v0.6_20070830"/>
    <tag k="tiger:tlid" v="158328219:158328220:158327131:158371263:158347096:158371225:158371229:158327097:158327103:158371275:158371276:158369575:158343118"/>
    <tag k="tiger:zip_left" v="98661"/>
    <tag k="tiger:zip_right" v="98661"/>
  </way>
  <way id="52328301" version="4" timestamp="2011-03-19T20:50:35Z" uid="362111" user="Mele Sax-Barnett" changeset="7609844">
    <nd ref="335171758"/>
    <nd ref="47258812"/>
    <nd ref="1089851144"/>
    <nd ref="356357718"/>
    <nd ref="1089852903"/>
    <nd ref="47258816"/>
    <nd ref="1089854005"/>
    <nd ref="356357720"/>
    <nd ref="1089852149"/>
    <nd ref="47258819"/>
    <nd ref="356357722"/>
    <nd ref="356357724"/>
    <nd ref="47258823"/>
    <nd ref="47258825"/>
    <tag k="highway" v="tertiary"/>
    <tag k="name" v="Southeast Columbia Way"/>
    <tag k="tiger:cfcc" v="A41"/>
    <tag k="tiger:county" v="Clark, WA"/>
    <tag k="tiger:name_base" v="Columbia"/>
    <tag k="tiger:name_direction_prefix" v="SE"/>
    <tag k="tiger:separated" v="no"/>
    <tag k="tiger:source" v="tiger_import_dch_v0.6_20070830"/>
    <tag k="tiger:tlid" v="158328219:158328220:158327131:158371263:158347096:158371225:158371229:158327097:158327103:158371275:158371276:158369575:158343118"/>
    <tag k="tiger:zip_left" v="98661"/>
    <tag k="tiger:zip_right" v="98661"/>
  </way>
  <way id="52328301" version="5" timestamp="2011-03-19T21:05:59Z" uid="362111" user="Mele Sax-Barnett" changeset="7610086">
    <nd ref="335171758"/>
    <nd ref="47258812"/>
    <nd ref="1089851144"/>
    <nd ref="356357718"/>
    <nd ref="1089852903"/>
    <nd ref="47258816"/>
    <nd ref="1209518916"/>
    <nd ref="1089854005"/>
    <nd ref="356357720"/>
    <nd ref="1089852149"/>
    <nd ref="47258819"/>
    <nd ref="356357722"/>
    <nd ref="356357724"/>
    <nd ref="47258823"/>
    <nd ref="1209518834"/>
    <nd ref="1209518676"/>
    <nd ref="1209518733"/>
    <nd ref="47258825"/>
    <tag k="CCGIS:localid" v="257989"/>
    <tag k="CCGIS:reviewed" v="no"/>
    <tag k="highway" v="residential"/>
    <tag k="maxspeed" v="30 mph"/>
    <tag k="name" v="Southeast Columbia Way"/>
    <tag k="name_base" v="Columbia"/>
    <tag k="name_direction_prefix" v="Southeast"/>
    <tag k="name_type" v="Way"/>
    <tag k="zip_left" v="98661"/>
    <tag k="zip_right" v="98661"/>
  </way>
  <way id="52328301" version="6" timestamp="2011-04-15T16:46:45Z" uid="362111" user="Mele Sax-Barnett" changeset="7870880">
    <nd ref="335171758"/>
    <nd ref="47258812"/>
    <nd ref="1089851144"/>
    <nd ref="356357718"/>
    <nd ref="1089852903"/>
    <nd ref="47258816"/>
    <nd ref="1209518916"/>
    <nd ref="1089854005"/>
    <nd ref="356357720"/>
    <nd ref="1089852149"/>
    <nd ref="47258819"/>
    <nd ref="356357722"/>
    <nd ref="356357724"/>
    <nd ref="1245766631"/>
    <nd ref="47258823"/>
    <nd ref="1209518834"/>
    <nd ref="1209518676"/>
    <nd ref="1209518733"/>
    <nd ref="47258825"/>
    <tag k="CCGIS:localid" v="257989"/>
    <tag k="CCGIS:reviewed" v="no"/>
    <tag k="highway" v="residential"/>
    <tag k="maxspeed" v="30 mph"/>
    <tag k="name" v="Southeast Columbia Way"/>
    <tag k="name_base" v="Columbia"/>
    <tag k="name_direction_prefix" v="Southeast"/>
    <tag k="name_type" v="Way"/>
    <tag k="zip_left" v="98661"/>
    <tag k="zip_right" v="98661"/>
  </way>
  <way id="52328301" version="7" timestamp="2011-04-15T17:01:07Z" uid="362111" user="Mele Sax-Barnett" changeset="7871449">
    <nd ref="335171758"/>
    <nd ref="47258812"/>
    <nd ref="1089851144"/>
    <nd ref="356357718"/>
    <nd ref="1089852903"/>
    <nd ref="47258816"/>
    <nd ref="1209518916"/>
    <nd ref="1089854005"/>
    <nd ref="356357720"/>
    <nd ref="1089852149"/>
    <nd ref="47258819"/>
    <nd ref="356357722"/>
    <nd ref="356357724"/>
    <nd ref="1245766631"/>
    <nd ref="47258823"/>
    <nd ref="1209518834"/>
    <nd ref="1209518676"/>
    <nd ref="1209518733"/>
    <nd ref="47258825"/>
    <tag k="CCGIS:localid" v="257989"/>
    <tag k="CCGIS:reviewed" v="no"/>
    <tag k="highway" v="tertiary"/>
    <tag k="maxspeed" v="30 mph"/>
    <tag k="name" v="Southeast Columbia Way"/>
    <tag k="name_base" v="Columbia"/>
    <tag k="name_direction_prefix" v="Southeast"/>
    <tag k="name_type" v="Way"/>
    <tag k="zip_left" v="98661"/>
    <tag k="zip_right" v="98661"/>
  </way>
  <way id="52328301" version="8" timestamp="2011-05-02T16:42:19Z" uid="362111" user="Mele Sax-Barnett" changeset="8032093">
    <nd ref="335171758"/>
    <nd ref="47258812"/>
    <nd ref="1089851144"/>
    <nd ref="356357718"/>
    <nd ref="1089852903"/>
    <nd ref="47258816"/>
    <nd ref="1209518916"/>
    <nd ref="1089854005"/>
    <nd ref="356357720"/>
    <nd ref="1089852149"/>
    <nd ref="47258819"/>
    <nd ref="1270392917"/>
    <nd ref="356357722"/>
    <nd ref="1270392907"/>
    <nd ref="356357724"/>
    <nd ref="1245766631"/>
    <nd ref="47258823"/>
    <nd ref="1209518834"/>
    <nd ref="1209518676"/>
    <nd ref="1209518733"/>
    <nd ref="47258825"/>
    <tag k="CCGIS:localid" v="257989"/>
    <tag k="CCGIS:reviewed" v="no"/>
    <tag k="highway" v="tertiary"/>
    <tag k="maxspeed" v="30 mph"/>
    <tag k="name" v="Southeast Columbia Way"/>
    <tag k="name_base" v="Columbia"/>
    <tag k="name_direction_prefix" v="Southeast"/>
    <tag k="name_type" v="Way"/>
    <tag k="zip_left" v="98661"/>
    <tag k="zip_right" v="98661"/>
  </way>
  <way id="52328301" version="9" timestamp="2011-06-20T16:24:12Z" uid="362111" user="Mele Sax-Barnett" changeset="8495974">
    <nd ref="335171758"/>
    <nd ref="47258812"/>
    <nd ref="1089851144"/>
    <nd ref="356357718"/>
    <nd ref="1089852903"/>
    <nd ref="47258816"/>
    <nd ref="1209518916"/>
    <nd ref="1089854005"/>
    <nd ref="356357720"/>
    <nd ref="1089852149"/>
    <nd ref="47258819"/>
    <nd ref="1270392917"/>
    <nd ref="356357722"/>
    <nd ref="1270392907"/>
    <nd ref="356357724"/>
    <nd ref="1245766631"/>
    <nd ref="47258823"/>
    <nd ref="1209518834"/>
    <nd ref="1209518676"/>
    <nd ref="1209518733"/>
    <nd ref="47258825"/>
    <tag k="CCGIS:bicycle" v="designated"/>
    <tag k="CCGIS:localid" v="257989"/>
    <tag k="CCGIS:reviewed" v="no"/>
    <tag k="highway" v="tertiary"/>
    <tag k="maxspeed" v="30 mph"/>
    <tag k="name" v="Southeast Columbia Way"/>
    <tag k="name_base" v="Columbia"/>
    <tag k="name_direction_prefix" v="Southeast"/>
    <tag k="name_type" v="Way"/>
    <tag k="zip_left" v="98661"/>
    <tag k="zip_right" v="98661"/>
  </way>
  <way id="52328301" version="10" timestamp="2011-06-20T20:24:59Z" uid="362111" user="Mele Sax-Barnett" changeset="8498734">
    <nd ref="335171758"/>
    <nd ref="47258812"/>
    <nd ref="1332724230"/>
    <nd ref="1089851144"/>
    <nd ref="356357718"/>
    <nd ref="1089852903"/>
    <nd ref="47258816"/>
    <nd ref="1209518916"/>
    <nd ref="1089854005"/>
    <nd ref="356357720"/>
    <nd ref="1089852149"/>
    <nd ref="47258819"/>
    <nd ref="1270392917"/>
    <nd ref="356357722"/>
    <nd ref="1270392907"/>
    <nd ref="356357724"/>
    <nd ref="1245766631"/>
    <nd ref="47258823"/>
    <nd ref="1209518834"/>
    <nd ref="1209518676"/>
    <nd ref="1209518733"/>
    <nd ref="47258825"/>
    <tag k="CCGIS:bicycle" v="designated"/>
    <tag k="CCGIS:localid" v="257989"/>
    <tag k="CCGIS:reviewed" v="no"/>
    <tag k="highway" v="tertiary"/>
    <tag k="maxspeed" v="30 mph"/>
    <tag k="name" v="Southeast Columbia Way"/>
    <tag k="name_base" v="Columbia"/>
    <tag k="name_direction_prefix" v="Southeast"/>
    <tag k="name_type" v="Way"/>
    <tag k="zip_left" v="98661"/>
    <tag k="zip_right" v="98661"/>
  </way>
  <way id="52328301" version="11" timestamp="2011-10-14T00:18:31Z" uid="362111" user="Mele Sax-Barnett" changeset="9552040">
    <nd ref="335171758"/>
    <nd ref="47258812"/>
    <nd ref="1332724230"/>
    <nd ref="1089851144"/>
    <nd ref="356357718"/>
    <nd ref="1089852903"/>
    <nd ref="47258816"/>
    <nd ref="1209518916"/>
    <nd ref="1089854005"/>
    <nd ref="356357720"/>
    <nd ref="1089852149"/>
    <nd ref="47258819"/>
    <nd ref="1270392917"/>
    <nd ref="356357722"/>
    <nd ref="1270392907"/>
    <nd ref="356357724"/>
    <nd ref="1245766631"/>
    <nd ref="47258823"/>
    <nd ref="1466172196"/>
    <nd ref="1466172194"/>
    <nd ref="1209518834"/>
    <nd ref="1466172157"/>
    <nd ref="1209518676"/>
    <nd ref="1209518733"/>
    <nd ref="47258825"/>
    <tag k="CCGIS:bicycle" v="designated"/>
    <tag k="CCGIS:localid" v="257989"/>
    <tag k="CCGIS:reviewed" v="no"/>
    <tag k="highway" v="tertiary"/>
    <tag k="maxspeed" v="30 mph"/>
    <tag k="name" v="Southeast Columbia Way"/>
    <tag k="name_base" v="Columbia"/>
    <tag k="name_direction_prefix" v="Southeast"/>
    <tag k="name_type" v="Way"/>
    <tag k="zip_left" v="98661"/>
    <tag k="zip_right" v="98661"/>
  </way>
  <way id="52328301" version="12" timestamp="2011-10-14T00:46:32Z" uid="362111" user="Mele Sax-Barnett" changeset="9552111">
    <nd ref="335171758"/>
    <nd ref="47258812"/>
    <nd ref="1332724230"/>
    <nd ref="1089851144"/>
    <nd ref="356357718"/>
    <nd ref="1089852903"/>
    <nd ref="47258816"/>
    <nd ref="1466233395"/>
    <nd ref="1209518916"/>
    <nd ref="1089854005"/>
    <nd ref="356357720"/>
    <nd ref="1466233366"/>
    <nd ref="1089852149"/>
    <nd ref="1466233339"/>
    <nd ref="47258819"/>
    <nd ref="1270392917"/>
    <nd ref="356357722"/>
    <nd ref="1270392907"/>
    <nd ref="356357724"/>
    <nd ref="1245766631"/>
    <nd ref="47258823"/>
    <nd ref="1466172196"/>
    <nd ref="1466172194"/>
    <nd ref="1209518834"/>
    <nd ref="1466172157"/>
    <nd ref="1209518676"/>
    <nd ref="1209518733"/>
    <nd ref="47258825"/>
    <tag k="CCGIS:bicycle" v="designated"/>
    <tag k="CCGIS:localid" v="257989"/>
    <tag k="CCGIS:reviewed" v="no"/>
    <tag k="highway" v="tertiary"/>
    <tag k="maxspeed" v="30 mph"/>
    <tag k="name" v="Southeast Columbia Way"/>
    <tag k="name_base" v="Columbia"/>
    <tag k="name_direction_prefix" v="Southeast"/>
    <tag k="name_type" v="Way"/>
    <tag k="zip_left" v="98661"/>
    <tag k="zip_right" v="98661"/>
  </way>
  <way id="52328301" version="13" timestamp="2011-12-13T00:29:21Z" uid="372357" user="PJ Houser" changeset="10104359">
    <nd ref="335171758"/>
    <nd ref="47258812"/>
    <nd ref="1332724230"/>
    <nd ref="1089851144"/>
    <nd ref="356357718"/>
    <nd ref="1089852903"/>
    <nd ref="47258816"/>
    <nd ref="1466233395"/>
    <nd ref="1209518916"/>
    <nd ref="1089854005"/>
    <nd ref="356357720"/>
    <nd ref="1466233366"/>
    <nd ref="1089852149"/>
    <nd ref="1466233339"/>
    <nd ref="47258819"/>
    <nd ref="1270392917"/>
    <nd ref="356357722"/>
    <nd ref="1270392907"/>
    <nd ref="356357724"/>
    <nd ref="1245766631"/>
    <nd ref="47258823"/>
    <nd ref="1466172196"/>
    <nd ref="1466172194"/>
    <nd ref="1209518834"/>
    <nd ref="1466172157"/>
    <nd ref="1209518676"/>
    <nd ref="1209518733"/>
    <nd ref="47258825"/>
    <tag k="CCGIS:bicycle" v="designated"/>
    <tag k="CCGIS:localid" v="257989"/>
    <tag k="CCGIS:reviewed" v="no"/>
    <tag k="bicycle" v="designated"/>
    <tag k="highway" v="tertiary"/>
    <tag k="maxspeed" v="30 mph"/>
    <tag k="name" v="Southeast Columbia Way"/>
    <tag k="name_base" v="Columbia"/>
    <tag k="name_direction_prefix" v="Southeast"/>
    <tag k="name_type" v="Way"/>
    <tag k="zip_left" v="98661"/>
    <tag k="zip_right" v="98661"/>
  </way>
  <way id="52328301" version="14" timestamp="2011-12-13T00:43:21Z" uid="372357" user="PJ Houser" changeset="10104385">
    <nd ref="335171758"/>
    <nd ref="47258812"/>
    <nd ref="1332724230"/>
    <nd ref="1089851144"/>
    <nd ref="356357718"/>
    <nd ref="1089852903"/>
    <nd ref="47258816"/>
    <nd ref="1466233395"/>
    <nd ref="1209518916"/>
    <nd ref="1089854005"/>
    <nd ref="356357720"/>
    <nd ref="1466233366"/>
    <nd ref="1089852149"/>
    <nd ref="1466233339"/>
    <nd ref="47258819"/>
    <nd ref="1270392917"/>
    <nd ref="356357722"/>
    <nd ref="1270392907"/>
    <nd ref="356357724"/>
    <nd ref="1245766631"/>
    <nd ref="47258823"/>
    <nd ref="1466172196"/>
    <nd ref="1466172194"/>
    <nd ref="1209518834"/>
    <nd ref="1466172157"/>
    <nd ref="1209518676"/>
    <nd ref="1209518733"/>
    <nd ref="47258825"/>
    <tag k="CCGIS:bicycle" v="designated"/>
    <tag k="CCGIS:localid" v="257989"/>
    <tag k="CCGIS:reviewed" v="no"/>
    <tag k="bicycle" v="designated"/>
    <tag k="highway" v="tertiary"/>
    <tag k="maxspeed" v="30 mph"/>
    <tag k="name" v="Southeast Columbia Way"/>
    <tag k="zip_left" v="98661"/>
    <tag k="zip_right" v="98661"/>
  </way>
  <way id="52328301" version="15" timestamp="2011-12-29T18:17:26Z" uid="362111" user="Mele Sax-Barnett" changeset="10238124">
    <nd ref="335171758"/>
    <nd ref="47258812"/>
    <nd ref="1332724230"/>
    <nd ref="1089851144"/>
    <nd ref="1567920490"/>
    <nd ref="356357718"/>
    <nd ref="1567920489"/>
    <nd ref="1089852903"/>
    <nd ref="47258816"/>
    <nd ref="1466233395"/>
    <nd ref="1209518916"/>
    <nd ref="1089854005"/>
    <nd ref="356357720"/>
    <nd ref="1466233366"/>
    <nd ref="1089852149"/>
    <nd ref="1466233339"/>
    <nd ref="47258819"/>
    <nd ref="1270392917"/>
    <nd ref="356357722"/>
    <nd ref="1270392907"/>
    <nd ref="356357724"/>
    <nd ref="1245766631"/>
    <nd ref="47258823"/>
    <nd ref="1466172196"/>
    <nd ref="1466172194"/>
    <nd ref="1209518834"/>
    <nd ref="1466172157"/>
    <nd ref="1209518676"/>
    <nd ref="1209518733"/>
    <nd ref="47258825"/>
    <tag k="CCGIS:bicycle" v="designated"/>
    <tag k="CCGIS:localid" v="257989"/>
    <tag k="CCGIS:reviewed" v="no"/>
    <tag k="bicycle" v="designated"/>
    <tag k="highway" v="tertiary"/>
    <tag k="maxspeed" v="30 mph"/>
    <tag k="name" v="Southeast Columbia Way"/>
    <tag k="zip_left" v="98661"/>
    <tag k="zip_right" v="98661"/>
  </way>
  <way id="52328302" version="3" timestamp="2010-03-22T07:37:09Z" uid="20587" user="balrog-kun" changeset="4199043">
    <nd ref="40387395"/>
    <nd ref="40515436"/>
    <nd ref="40515439"/>
    <tag k="highway" v="trunk"/>
    <tag k="name" v="Northeast Martin Luther King, Junior Boulevard"/>
    <tag k="name_1" v="State Highway 99E"/>
    <tag k="oneway" v="yes"/>
    <tag k="ref" v="OR99E"/>
    <tag k="tiger:cfcc" v="A35"/>
    <tag k="tiger:county" v="Multnomah, OR"/>
    <tag k="tiger:name_base" v="M L King"/>
    <tag k="tiger:name_base_1" v="State Highway 99E"/>
    <tag k="tiger:name_direction_prefix" v="NE"/>
    <tag k="tiger:reviewed" v="no"/>
    <tag k="tiger:separated" v="yes"/>
    <tag k="tiger:source" v="tiger_import_dch_v0.6_20070808"/>
    <tag k="tiger:tlid" v="157495132:157559309:157563996:157502007:157495120"/>
    <tag k="tiger:zip_left" v="97217"/>
  </way>
  <way id="52328302" version="4" timestamp="2010-05-10T23:51:31Z" uid="239998" user="Sundance" changeset="4664662">
    <nd ref="40387395"/>
    <nd ref="40515436"/>
    <nd ref="40515439"/>
    <tag k="highway" v="trunk"/>
    <tag k="name" v="Northeast Martin Luther King, Junior Boulevard"/>
    <tag k="name_1" v="tate Highway 99E"/>
    <tag k="oneway" v="yes"/>
    <tag k="ref" v="OR 99"/>
    <tag k="tiger:cfcc" v="A35"/>
    <tag k="tiger:county" v="Multnomah, OR"/>
    <tag k="tiger:name_base" v="M L King"/>
    <tag k="tiger:name_base_1" v="State Highway 99E"/>
    <tag k="tiger:name_direction_prefix" v="NE"/>
    <tag k="tiger:reviewed" v="no"/>
    <tag k="tiger:separated" v="yes"/>
    <tag k="tiger:source" v="tiger_import_dch_v0.6_20070808"/>
    <tag k="tiger:tlid" v="157495132:157559309:157563996:157502007:157495120"/>
    <tag k="tiger:zip_left" v="97217"/>
  </way>
  <way id="52328302" version="5" timestamp="2010-05-10T23:51:59Z" uid="239998" user="Sundance" changeset="4664662">
    <nd ref="40387395"/>
    <nd ref="40515436"/>
    <nd ref="40515439"/>
    <tag k="addr:postcode" v="97217"/>
    <tag k="highway" v="trunk"/>
    <tag k="is_in" v="Multnomah, OR"/>
    <tag k="name" v="Northeast Martin Luther King, Junior Boulevard"/>
    <tag k="name_1" v="tate Highway 99E"/>
    <tag k="oneway" v="yes"/>
    <tag k="ref" v="OR 99E"/>
    <tag k="source" v="Yahoo,TIGER"/>
  </way>
  <way id="52328302" version="6" timestamp="2010-12-18T20:00:22Z" uid="373763" user="ylekot" changeset="6699623">
    <nd ref="40387395"/>
    <nd ref="40515436"/>
    <nd ref="40515439"/>
    <tag k="addr:postcode" v="97217"/>
    <tag k="highway" v="motorway"/>
    <tag k="is_in" v="Multnomah, OR"/>
    <tag k="name" v="Northeast Martin Luther King, Junior Boulevard"/>
    <tag k="name_1" v="tate Highway 99E"/>
    <tag k="oneway" v="yes"/>
    <tag k="ref" v="OR 99E"/>
    <tag k="source" v="Yahoo,TIGER"/>
  </way>
  <way id="52328302" version="7" timestamp="2011-02-11T02:38:29Z" uid="373763" user="ylekot" changeset="7251485">
    <nd ref="40387395"/>
    <nd ref="40515436"/>
    <nd ref="40515439"/>
    <tag k="addr:postcode" v="97217"/>
    <tag k="alt_name" v="Pacific Highway East #1E (81)"/>
    <tag k="highway" v="motorway"/>
    <tag k="is_in" v="Multnomah, OR"/>
    <tag k="name" v="Northeast Martin Luther King Junior Boulevard"/>
    <tag k="name_1" v="tate Highway 99E"/>
    <tag k="old_ref" v="US 99E"/>
    <tag k="oneway" v="yes"/>
    <tag k="ref" v="OR 99E"/>
    <tag k="source" v="Yahoo,TIGER"/>
  </way>
  <way id="52328302" version="8" timestamp="2011-03-11T18:56:10Z" uid="92286" user="Paul Johnson" changeset="7526361">
    <nd ref="40387395"/>
    <nd ref="40515436"/>
    <nd ref="40515439"/>
    <tag k="addr:postcode" v="97217"/>
    <tag k="alt_name" v="Pacific Highway East #1E (81)"/>
    <tag k="highway" v="trunk"/>
    <tag k="is_in" v="Multnomah, OR"/>
    <tag k="name" v="Northeast Martin Luther King Junior Boulevard"/>
    <tag k="name_1" v="tate Highway 99E"/>
    <tag k="old_ref" v="US 99E"/>
    <tag k="oneway" v="yes"/>
    <tag k="ref" v="OR 99E"/>
    <tag k="source" v="Yahoo,TIGER"/>
  </way>
  <way id="52328302" version="9" timestamp="2011-06-04T09:17:51Z" uid="92286" user="Paul Johnson" changeset="8337323">
    <nd ref="40387395"/>
    <nd ref="40515436"/>
    <nd ref="40515439"/>
    <tag k="addr:postcode" v="97217"/>
    <tag k="alt_name" v="Pacific Highway East #1E (81)"/>
    <tag k="cycleway" v="lane"/>
    <tag k="highway" v="trunk"/>
    <tag k="is_in" v="Multnomah, OR"/>
    <tag k="name" v="Northeast Martin Luther King Junior Boulevard"/>
    <tag k="name_1" v="tate Highway 99E"/>
    <tag k="old_ref" v="US 99E"/>
    <tag k="oneway" v="yes"/>
    <tag k="ref" v="OR 99E"/>
    <tag k="source" v="Yahoo,TIGER"/>
  </way>
  <way id="52328302" version="10" timestamp="2011-06-23T02:05:19Z" uid="473471" user="NE3" changeset="8520254">
    <nd ref="40387395"/>
    <nd ref="40515436"/>
    <nd ref="40515439"/>
    <tag k="addr:postcode" v="97217"/>
    <tag k="alt_name" v="Pacific Highway East #1E (81)"/>
    <tag k="cycleway" v="lane"/>
    <tag k="highway" v="trunk"/>
    <tag k="is_in" v="Multnomah, OR"/>
    <tag k="lanes" v="2"/>
    <tag k="name" v="Northeast Martin Luther King Junior Boulevard"/>
    <tag k="name_1" v="tate Highway 99E"/>
    <tag k="old_ref" v="US 99E"/>
    <tag k="oneway" v="yes"/>
    <tag k="ref" v="OR 99E"/>
    <tag k="source" v="Yahoo,TIGER"/>
  </way>
  <way id="52328302" version="11" timestamp="2011-08-03T21:57:15Z" uid="362111" user="Mele Sax-Barnett" changeset="8914939">
    <nd ref="40387395"/>
    <nd ref="1385306707"/>
    <nd ref="40515436"/>
    <nd ref="40515439"/>
    <tag k="addr:postcode" v="97217"/>
    <tag k="alt_name" v="Pacific Highway East #1E (81)"/>
    <tag k="cycleway" v="lane"/>
    <tag k="highway" v="trunk"/>
    <tag k="is_in" v="Multnomah, OR"/>
    <tag k="lanes" v="2"/>
    <tag k="name" v="Northeast Martin Luther King Junior Boulevard"/>
    <tag k="name_1" v="tate Highway 99E"/>
    <tag k="old_ref" v="US 99E"/>
    <tag k="oneway" v="yes"/>
    <tag k="ref" v="OR 99E"/>
    <tag k="source" v="Yahoo,TIGER"/>
  </way>
  <way id="52328302" version="12" timestamp="2011-10-04T00:20:26Z" uid="372357" user="PJ Houser" changeset="9465787">
    <nd ref="40387395"/>
    <nd ref="1454515069"/>
    <nd ref="1385306707"/>
    <nd ref="40515436"/>
    <nd ref="40515439"/>
    <tag k="RLIS:bicycle" v="designated"/>
    <tag k="addr:postcode" v="97217"/>
    <tag k="alt_name" v="Pacific Highway East #1E (81)"/>
    <tag k="bicycle" v="yes"/>
    <tag k="cycleway" v="lane"/>
    <tag k="highway" v="trunk"/>
    <tag k="is_in" v="Multnomah, OR"/>
    <tag k="lanes" v="2"/>
    <tag k="name" v="Northeast Martin Luther King Junior Boulevard"/>
    <tag k="name_1" v="State Highway 99E"/>
    <tag k="old_ref" v="US 99E"/>
    <tag k="oneway" v="yes"/>
    <tag k="ref" v="OR 99E"/>
    <tag k="source" v="Yahoo,TIGER"/>
  </way>
  <way id="52328302" version="13" timestamp="2011-10-07T23:52:29Z" uid="372357" user="PJ Houser" changeset="9498625">
    <nd ref="40387395"/>
    <nd ref="1454515069"/>
    <nd ref="1385306707"/>
    <nd ref="40515436"/>
    <nd ref="40515439"/>
    <tag k="RLIS:bicycle" v="designated"/>
    <tag k="RLIS:localid" v="194814"/>
    <tag k="RLIS:reviewed" v="no"/>
    <tag k="addr:postcode" v="97217"/>
    <tag k="alt_name" v="Pacific Highway East #1E (81)"/>
    <tag k="bicycle" v="yes"/>
    <tag k="cycleway" v="lane"/>
    <tag k="highway" v="trunk"/>
    <tag k="is_in" v="Multnomah, OR"/>
    <tag k="lanes" v="2"/>
    <tag k="name" v="North Martin Luther King Jr Boulevard"/>
    <tag k="name_1" v="State Highway 99E"/>
    <tag k="old_ref" v="US 99E"/>
    <tag k="oneway" v="yes"/>
    <tag k="ref" v="OR 99E"/>
    <tag k="source" v="Yahoo,TIGER"/>
    <tag k="zip_left" v="97217"/>
    <tag k="zip_right" v="97217"/>
  </way>
  <way id="52328302" version="14" timestamp="2011-10-26T21:28:27Z" uid="362111" user="Mele Sax-Barnett" changeset="9664367">
    <nd ref="40387395"/>
    <nd ref="1454515069"/>
    <nd ref="1385306707"/>
    <nd ref="40515436"/>
    <nd ref="40515439"/>
    <tag k="RLIS:bicycle" v="designated"/>
    <tag k="RLIS:localid" v="194814"/>
    <tag k="RLIS:reviewed" v="no"/>
    <tag k="addr:postcode" v="97217"/>
    <tag k="alt_name" v="Pacific Highway East #1E (81)"/>
    <tag k="bicycle" v="yes"/>
    <tag k="cycleway" v="lane"/>
    <tag k="highway" v="trunk"/>
    <tag k="is_in" v="Multnomah, OR"/>
    <tag k="lanes" v="2"/>
    <tag k="maxspeed" v="55 mph"/>
    <tag k="name" v="North Martin Luther King Jr Boulevard"/>
    <tag k="name_1" v="State Highway 99E"/>
    <tag k="old_ref" v="US 99E"/>
    <tag k="oneway" v="yes"/>
    <tag k="ref" v="OR 99E"/>
    <tag k="source" v="Yahoo,TIGER"/>
    <tag k="zip_left" v="97217"/>
    <tag k="zip_right" v="97217"/>
  </way>
  <way id="52328302" version="15" timestamp="2011-10-26T22:25:22Z" uid="362111" user="Mele Sax-Barnett" changeset="9664729">
    <nd ref="40387395"/>
    <nd ref="1454515069"/>
    <nd ref="1385306707"/>
    <nd ref="40515436"/>
    <nd ref="40515439"/>
    <tag k="RLIS:bicycle" v="designated"/>
    <tag k="RLIS:localid" v="194814"/>
    <tag k="RLIS:reviewed" v="no"/>
    <tag k="addr:postcode" v="97217"/>
    <tag k="alt_name" v="Pacific Highway East #1E (81)"/>
    <tag k="bicycle" v="yes"/>
    <tag k="cycleway" v="lane"/>
    <tag k="highway" v="trunk"/>
    <tag k="is_in" v="Multnomah, OR"/>
    <tag k="lanes" v="2"/>
    <tag k="maxspeed" v="55 mph"/>
    <tag k="name" v="North Martin Luther King Junior Boulevard"/>
    <tag k="name_1" v="State Highway 99E"/>
    <tag k="old_ref" v="US 99E"/>
    <tag k="oneway" v="yes"/>
    <tag k="ref" v="OR 99E"/>
    <tag k="source" v="Yahoo,TIGER"/>
    <tag k="zip_left" v="97217"/>
    <tag k="zip_right" v="97217"/>
  </way>
  <way id="52328302" version="16" timestamp="2011-11-25T16:58:01Z" uid="207745" user="NE2" changeset="9945867">
    <nd ref="40387395"/>
    <nd ref="1454515069"/>
    <nd ref="1385306707"/>
    <nd ref="40515436"/>
    <nd ref="40515439"/>
    <tag k="RLIS:bicycle" v="designated"/>
    <tag k="RLIS:localid" v="194814"/>
    <tag k="RLIS:reviewed" v="no"/>
    <tag k="addr:postcode" v="97217"/>
    <tag k="alt_name" v="Pacific Highway East #1E (81)"/>
    <tag k="bicycle" v="yes"/>
    <tag k="cycleway" v="lane"/>
    <tag k="hgv" v="designated"/>
    <tag k="hgv:national_network" v="yes"/>
    <tag k="highway" v="trunk"/>
    <tag k="is_in" v="Multnomah, OR"/>
    <tag k="lanes" v="2"/>
    <tag k="maxspeed" v="55 mph"/>
    <tag k="name" v="North Martin Luther King Junior Boulevard"/>
    <tag k="name_1" v="State Highway 99E"/>
    <tag k="old_ref" v="US 99E"/>
    <tag k="oneway" v="yes"/>
    <tag k="ref" v="OR 99E"/>
    <tag k="source" v="Yahoo,TIGER"/>
    <tag k="source:hgv:national_network" v="Title 23: Highways Part 658 http://ecfr.gpoaccess.gov/cgi/t/text/text-idx?c=ecfr&amp;rgn=div5&amp;view=text&amp;node=23:1.0.1.7.33&amp;idno=23"/>
    <tag k="zip_left" v="97217"/>
    <tag k="zip_right" v="97217"/>
  </way>
  <way id="52328302" version="17" timestamp="2011-12-09T00:18:55Z" uid="372357" user="PJ Houser" changeset="10069888">
    <nd ref="40387395"/>
    <nd ref="1454515069"/>
    <nd ref="1385306707"/>
    <nd ref="40515436"/>
    <nd ref="40515439"/>
    <tag k="RLIS:bicycle" v="designated"/>
    <tag k="RLIS:localid" v="194814"/>
    <tag k="RLIS:reviewed" v="no"/>
    <tag k="addr:postcode" v="97217"/>
    <tag k="alt_name" v="Pacific Highway East #1E (81)"/>
    <tag k="bicycle" v="designated"/>
    <tag k="cycleway" v="lane"/>
    <tag k="hgv" v="designated"/>
    <tag k="hgv:national_network" v="yes"/>
    <tag k="highway" v="trunk"/>
    <tag k="is_in" v="Multnomah, OR"/>
    <tag k="lanes" v="2"/>
    <tag k="maxspeed" v="55 mph"/>
    <tag k="name" v="North Martin Luther King Junior Boulevard"/>
    <tag k="name_1" v="State Highway 99E"/>
    <tag k="old_ref" v="US 99E"/>
    <tag k="oneway" v="yes"/>
    <tag k="ref" v="OR 99E"/>
    <tag k="source" v="Yahoo,TIGER"/>
    <tag k="source:hgv:national_network" v="Title 23: Highways Part 658 http://ecfr.gpoaccess.gov/cgi/t/text/text-idx?c=ecfr&amp;rgn=div5&amp;view=text&amp;node=23:1.0.1.7.33&amp;idno=23"/>
    <tag k="zip_left" v="97217"/>
    <tag k="zip_right" v="97217"/>
  </way>
  <way id="52328302" version="18" timestamp="2012-03-15T04:56:26Z" uid="393906" user="Grant Humphries" changeset="10984887">
    <nd ref="40387395"/>
    <nd ref="1454515069"/>
    <tag k="RLIS:bicycle" v="designated"/>
    <tag k="RLIS:localid" v="194814"/>
    <tag k="RLIS:reviewed" v="no"/>
    <tag k="addr:postcode" v="97217"/>
    <tag k="alt_name" v="Pacific Highway East #1E (81)"/>
    <tag k="bicycle" v="designated"/>
    <tag k="cycleway" v="lane"/>
    <tag k="foot" v="no"/>
    <tag k="hgv" v="designated"/>
    <tag k="hgv:national_network" v="yes"/>
    <tag k="highway" v="trunk"/>
    <tag k="is_in" v="Multnomah, OR"/>
    <tag k="lanes" v="2"/>
    <tag k="maxspeed" v="55 mph"/>
    <tag k="name" v="North Martin Luther King Junior Boulevard"/>
    <tag k="name_1" v="State Highway 99E"/>
    <tag k="old_ref" v="US 99E"/>
    <tag k="oneway" v="yes"/>
    <tag k="ref" v="OR 99E"/>
    <tag k="source" v="Yahoo,TIGER"/>
    <tag k="source:hgv:national_network" v="Title 23: Highways Part 658 http://ecfr.gpoaccess.gov/cgi/t/text/text-idx?c=ecfr&amp;rgn=div5&amp;view=text&amp;node=23:1.0.1.7.33&amp;idno=23"/>
    <tag k="zip_left" v="97217"/>
    <tag k="zip_right" v="97217"/>
  </way>
  <way id="52328302" version="19" timestamp="2012-03-16T19:16:02Z" uid="92286" user="Paul Johnson" changeset="11001433">
    <nd ref="40387395"/>
    <nd ref="1454515069"/>
    <tag k="RLIS:bicycle" v="designated"/>
    <tag k="RLIS:localid" v="194814"/>
    <tag k="RLIS:reviewed" v="no"/>
    <tag k="addr:postcode" v="97217"/>
    <tag k="alt_name" v="Pacific Highway East #1E (81)"/>
    <tag k="bicycle" v="designated"/>
    <tag k="cycleway" v="lane"/>
    <tag k="foot" v="no"/>
    <tag k="hgv" v="designated"/>
    <tag k="hgv:national_network" v="yes"/>
    <tag k="highway" v="trunk"/>
    <tag k="is_in" v="Multnomah, OR"/>
    <tag k="lanes" v="2"/>
    <tag k="maxspeed" v="55 mph"/>
    <tag k="name" v="North Martin Luther King, Junior Boulevard"/>
    <tag k="name_1" v="State Highway 99E"/>
    <tag k="old_ref" v="US 99E"/>
    <tag k="oneway" v="yes"/>
    <tag k="ref" v="OR 99E"/>
    <tag k="source" v="Yahoo,TIGER"/>
    <tag k="source:hgv:national_network" v="Title 23: Highways Part 658 http://ecfr.gpoaccess.gov/cgi/t/text/text-idx?c=ecfr&amp;rgn=div5&amp;view=text&amp;node=23:1.0.1.7.33&amp;idno=23"/>
    <tag k="zip_left" v="97217"/>
    <tag k="zip_right" v="97217"/>
  </way>
  <way id="52328303" version="2" timestamp="2010-03-22T07:37:09Z" uid="20587" user="balrog-kun" changeset="4199043">
    <nd ref="335167621"/>
    <nd ref="40394681"/>
    <tag k="highway" v="tertiary"/>
    <tag k="name" v="North Marine Way"/>
    <tag k="tiger:cfcc" v="A41"/>
    <tag k="tiger:county" v="Multnomah, OR"/>
    <tag k="tiger:name_base" v="Marine"/>
    <tag k="tiger:name_direction_prefix" v="N"/>
    <tag k="tiger:separated" v="no"/>
    <tag k="tiger:source" v="tiger_import_dch_v0.6_20070808"/>
    <tag k="tiger:tlid" v="157495131:157582986:157582987:157495127"/>
  </way>
  <way id="52328303" version="3" timestamp="2011-02-11T02:30:35Z" uid="373763" user="ylekot" changeset="7251485">
    <nd ref="335167621"/>
    <nd ref="40394681"/>
    <tag k="highway" v="secondary"/>
    <tag k="name" v="North Marine Way"/>
    <tag k="tiger:cfcc" v="A41"/>
    <tag k="tiger:county" v="Multnomah, OR"/>
    <tag k="tiger:name_base" v="Marine"/>
    <tag k="tiger:name_direction_prefix" v="N"/>
    <tag k="tiger:separated" v="no"/>
    <tag k="tiger:source" v="tiger_import_dch_v0.6_20070808"/>
    <tag k="tiger:tlid" v="157495131:157582986:157582987:157495127"/>
  </way>
  <way id="52328303" version="4" timestamp="2011-02-11T02:33:39Z" uid="373763" user="ylekot" changeset="7251485">
    <nd ref="335167621"/>
    <nd ref="40394681"/>
    <tag k="alt_name" v="Highway #081BF - West Frontage Road"/>
    <tag k="highway" v="secondary"/>
    <tag k="name" v="North Marine Way"/>
    <tag k="tiger:cfcc" v="A41"/>
    <tag k="tiger:county" v="Multnomah, OR"/>
    <tag k="tiger:name_base" v="Marine"/>
    <tag k="tiger:name_direction_prefix" v="N"/>
    <tag k="tiger:separated" v="no"/>
    <tag k="tiger:source" v="tiger_import_dch_v0.6_20070808"/>
    <tag k="tiger:tlid" v="157495131:157582986:157582987:157495127"/>
  </way>
  <way id="52328303" version="5" timestamp="2011-06-04T09:17:47Z" uid="92286" user="Paul Johnson" changeset="8337323">
    <nd ref="335167621"/>
    <nd ref="40394681"/>
    <tag k="alt_name" v="Highway #081BF - West Frontage Road"/>
    <tag k="cycleway" v="opposite_lane"/>
    <tag k="highway" v="secondary"/>
    <tag k="name" v="North Marine Way"/>
    <tag k="tiger:cfcc" v="A41"/>
    <tag k="tiger:county" v="Multnomah, OR"/>
    <tag k="tiger:name_base" v="Marine"/>
    <tag k="tiger:name_direction_prefix" v="N"/>
    <tag k="tiger:separated" v="no"/>
    <tag k="tiger:source" v="tiger_import_dch_v0.6_20070808"/>
    <tag k="tiger:tlid" v="157495131:157582986:157582987:157495127"/>
  </way>
  <way id="52328303" version="6" timestamp="2011-06-29T21:17:45Z" uid="362111" user="Mele Sax-Barnett" changeset="8585221">
    <nd ref="335167621"/>
    <nd ref="40394681"/>
    <tag k="alt_name" v="Highway #081BF - West Frontage Road"/>
    <tag k="highway" v="secondary"/>
    <tag k="name" v="North Marine Way"/>
    <tag k="tiger:cfcc" v="A41"/>
    <tag k="tiger:county" v="Multnomah, OR"/>
    <tag k="tiger:name_base" v="Marine"/>
    <tag k="tiger:name_direction_prefix" v="N"/>
    <tag k="tiger:separated" v="no"/>
    <tag k="tiger:source" v="tiger_import_dch_v0.6_20070808"/>
    <tag k="tiger:tlid" v="157495131:157582986:157582987:157495127"/>
  </way>
  <way id="52328303" version="7" timestamp="2011-07-14T14:21:58Z" uid="92286" user="Paul Johnson" changeset="8722597">
    <nd ref="335167621"/>
    <nd ref="40394681"/>
    <tag k="alt_name" v="Highway #081BF - West Frontage Road"/>
    <tag k="cycleway" v="opposite_lane"/>
    <tag k="highway" v="secondary"/>
    <tag k="name" v="North Marine Way"/>
    <tag k="tiger:cfcc" v="A41"/>
    <tag k="tiger:county" v="Multnomah, OR"/>
    <tag k="tiger:name_base" v="Marine"/>
    <tag k="tiger:name_direction_prefix" v="N"/>
    <tag k="tiger:separated" v="no"/>
    <tag k="tiger:source" v="tiger_import_dch_v0.6_20070808"/>
    <tag k="tiger:tlid" v="157495131:157582986:157582987:157495127"/>
  </way>
  <way id="52328303" version="8" timestamp="2011-08-03T20:02:01Z" uid="362111" user="Mele Sax-Barnett" changeset="8913834">
    <nd ref="335167621"/>
    <nd ref="1385148812"/>
    <nd ref="1385148823"/>
    <nd ref="1385148847"/>
    <nd ref="40394681"/>
    <tag k="alt_name" v="Highway #081BF - West Frontage Road"/>
    <tag k="cycleway" v="opposite_lane"/>
    <tag k="highway" v="secondary"/>
    <tag k="name" v="North Marine Way"/>
    <tag k="tiger:cfcc" v="A41"/>
    <tag k="tiger:county" v="Multnomah, OR"/>
    <tag k="tiger:name_base" v="Marine"/>
    <tag k="tiger:name_direction_prefix" v="N"/>
    <tag k="tiger:separated" v="no"/>
    <tag k="tiger:source" v="tiger_import_dch_v0.6_20070808"/>
    <tag k="tiger:tlid" v="157495131:157582986:157582987:157495127"/>
  </way>
  <way id="52328303" version="9" timestamp="2011-08-03T21:57:12Z" uid="362111" user="Mele Sax-Barnett" changeset="8914939">
    <nd ref="40387348"/>
    <nd ref="335167621"/>
    <nd ref="1385148812"/>
    <nd ref="1385148823"/>
    <nd ref="1385148847"/>
    <nd ref="40394681"/>
    <tag k="RLIS:localid" v="160445"/>
    <tag k="RLIS:reviewed" v="no"/>
    <tag k="alt_name" v="Highway #081BF - West Frontage Road"/>
    <tag k="cycleway" v="lane"/>
    <tag k="highway" v="tertiary"/>
    <tag k="name" v="North Marine Way"/>
    <tag k="name_base" v="Marine"/>
    <tag k="name_direction_prefix" v="North"/>
    <tag k="name_type" v="Way"/>
    <tag k="zip_left" v="97217"/>
    <tag k="zip_right" v="97217"/>
  </way>
  <way id="52328303" version="10" timestamp="2011-10-04T00:20:14Z" uid="372357" user="PJ Houser" changeset="9465787">
    <nd ref="40387348"/>
    <nd ref="335167621"/>
    <nd ref="1385148812"/>
    <nd ref="1385148823"/>
    <nd ref="1385148847"/>
    <nd ref="40394681"/>
    <tag k="RLIS:bicycle" v="designated"/>
    <tag k="RLIS:localid" v="160445"/>
    <tag k="RLIS:reviewed" v="no"/>
    <tag k="alt_name" v="Highway #081BF - West Frontage Road"/>
    <tag k="cycleway" v="lane"/>
    <tag k="highway" v="tertiary"/>
    <tag k="name" v="North Marine Way"/>
    <tag k="zip_left" v="97217"/>
    <tag k="zip_right" v="97217"/>
  </way>
  <way id="52328303" version="11" timestamp="2011-10-26T21:55:18Z" uid="362111" user="Mele Sax-Barnett" changeset="9664559">
    <nd ref="40387348"/>
    <nd ref="335167621"/>
    <nd ref="1385148812"/>
    <nd ref="1385148823"/>
    <nd ref="1385148847"/>
    <nd ref="40394681"/>
    <tag k="RLIS:bicycle" v="designated"/>
    <tag k="RLIS:localid" v="160445"/>
    <tag k="RLIS:reviewed" v="no"/>
    <tag k="alt_name" v="Highway #081BF - West Frontage Road"/>
    <tag k="cycleway" v="lane"/>
    <tag k="highway" v="primary"/>
    <tag k="name" v="North Marine Way"/>
    <tag k="zip_left" v="97217"/>
    <tag k="zip_right" v="97217"/>
  </way>
  <way id="52328303" version="12" timestamp="2011-12-14T01:05:32Z" uid="372357" user="PJ Houser" changeset="10112539">
    <nd ref="40387348"/>
    <nd ref="335167621"/>
    <nd ref="1385148812"/>
    <nd ref="1385148823"/>
    <nd ref="1385148847"/>
    <nd ref="40394681"/>
    <tag k="RLIS:bicycle" v="designated"/>
    <tag k="RLIS:localid" v="160445"/>
    <tag k="RLIS:reviewed" v="no"/>
    <tag k="alt_name" v="Highway #081BF - West Frontage Road"/>
    <tag k="bicycle" v="designated"/>
    <tag k="cycleway" v="lane"/>
    <tag k="highway" v="primary"/>
    <tag k="name" v="North Marine Way"/>
    <tag k="zip_left" v="97217"/>
    <tag k="zip_right" v="97217"/>
  </way>
  <way id="52328304" version="2" timestamp="2010-03-22T07:37:09Z" uid="20587" user="balrog-kun" changeset="4199043">
    <nd ref="40394654"/>
    <nd ref="40515888"/>
    <tag k="bridge" v="yes"/>
    <tag k="highway" v="trunk"/>
    <tag k="name" v="Northeast Martin Luther King, Junior Boulevard"/>
    <tag k="name_1" v="State Highway 99E"/>
    <tag k="oneway" v="yes"/>
    <tag k="ref" v="OR99E"/>
    <tag k="tiger:cfcc" v="A35"/>
    <tag k="tiger:county" v="Multnomah, OR"/>
    <tag k="tiger:name_base" v="M L King"/>
    <tag k="tiger:name_base_1" v="State Highway 99E"/>
    <tag k="tiger:name_direction_prefix" v="NE"/>
    <tag k="tiger:reviewed" v="no"/>
    <tag k="tiger:separated" v="yes"/>
    <tag k="tiger:source" v="tiger_import_dch_v0.6_20070808"/>
    <tag k="tiger:tlid" v="157608079:157608080:157608088:157597843:157597758:157596710:157596685:157596686:157596690:157596692:157607981:157596713:157596716"/>
  </way>
  <way id="52328304" version="3" timestamp="2010-12-18T19:12:58Z" uid="373763" user="ylekot" changeset="6699301">
    <nd ref="40394654"/>
    <nd ref="40515888"/>
    <tag k="bridge" v="yes"/>
    <tag k="highway" v="trunk"/>
    <tag k="name" v="Northeast Martin Luther King, Junior Boulevard"/>
    <tag k="name_1" v="State Highway 99E"/>
    <tag k="oneway" v="yes"/>
    <tag k="ref" v="OR 99E"/>
    <tag k="tiger:cfcc" v="A35"/>
    <tag k="tiger:county" v="Multnomah, OR"/>
    <tag k="tiger:name_base" v="M L King"/>
    <tag k="tiger:name_base_1" v="State Highway 99E"/>
    <tag k="tiger:name_direction_prefix" v="NE"/>
    <tag k="tiger:reviewed" v="no"/>
    <tag k="tiger:separated" v="yes"/>
    <tag k="tiger:source" v="tiger_import_dch_v0.6_20070808"/>
    <tag k="tiger:tlid" v="157608079:157608080:157608088:157597843:157597758:157596710:157596685:157596686:157596690:157596692:157607981:157596713:157596716"/>
  </way>
  <way id="52328304" version="4" timestamp="2010-12-18T20:00:23Z" uid="373763" user="ylekot" changeset="6699623">
    <nd ref="40394654"/>
    <nd ref="40515888"/>
    <tag k="bridge" v="yes"/>
    <tag k="highway" v="motorway"/>
    <tag k="name" v="Northeast Martin Luther King, Junior Boulevard"/>
    <tag k="name_1" v="State Highway 99E"/>
    <tag k="oneway" v="yes"/>
    <tag k="ref" v="OR 99E"/>
    <tag k="tiger:cfcc" v="A35"/>
    <tag k="tiger:county" v="Multnomah, OR"/>
    <tag k="tiger:name_base" v="M L King"/>
    <tag k="tiger:name_base_1" v="State Highway 99E"/>
    <tag k="tiger:name_direction_prefix" v="NE"/>
    <tag k="tiger:reviewed" v="no"/>
    <tag k="tiger:separated" v="yes"/>
    <tag k="tiger:source" v="tiger_import_dch_v0.6_20070808"/>
    <tag k="tiger:tlid" v="157608079:157608080:157608088:157597843:157597758:157596710:157596685:157596686:157596690:157596692:157607981:157596713:157596716"/>
  </way>
  <way id="52328304" version="5" timestamp="2011-01-23T03:58:27Z" uid="92286" user="Paul Johnson" changeset="7057582">
    <nd ref="40394654"/>
    <nd ref="40515888"/>
    <tag k="bridge" v="yes"/>
    <tag k="highway" v="motorway"/>
    <tag k="name" v="Northeast Martin Luther King, Junior Boulevard"/>
    <tag k="name_1" v="State Highway 99E"/>
    <tag k="oneway" v="yes"/>
    <tag k="ref" v="OR 99E"/>
    <tag k="tiger:cfcc" v="A35"/>
    <tag k="tiger:county" v="Multnomah, OR"/>
    <tag k="tiger:name_base" v="M L King"/>
    <tag k="tiger:name_base_1" v="State Highway 99E"/>
    <tag k="tiger:name_direction_prefix" v="Northeast"/>
    <tag k="tiger:reviewed" v="no"/>
    <tag k="tiger:separated" v="yes"/>
    <tag k="tiger:source" v="tiger_import_dch_v0.6_20070808"/>
    <tag k="tiger:tlid" v="157608079:157608080:157608088:157597843:157597758:157596710:157596685:157596686:157596690:157596692:157607981:157596713:157596716"/>
  </way>
  <way id="52328304" version="6" timestamp="2011-02-11T02:38:30Z" uid="373763" user="ylekot" changeset="7251485">
    <nd ref="40394654"/>
    <nd ref="40515888"/>
    <tag k="alt_name" v="Pacific Highway East #1E (81)"/>
    <tag k="bridge" v="yes"/>
    <tag k="highway" v="motorway"/>
    <tag k="name" v="Northeast Martin Luther King Junior Boulevard"/>
    <tag k="name_1" v="State Highway 99E"/>
    <tag k="old_ref" v="US 99E"/>
    <tag k="oneway" v="yes"/>
    <tag k="ref" v="OR 99E"/>
    <tag k="tiger:cfcc" v="A35"/>
    <tag k="tiger:county" v="Multnomah, OR"/>
    <tag k="tiger:name_base" v="M L King"/>
    <tag k="tiger:name_base_1" v="State Highway 99E"/>
    <tag k="tiger:name_direction_prefix" v="Northeast"/>
    <tag k="tiger:reviewed" v="no"/>
    <tag k="tiger:separated" v="yes"/>
    <tag k="tiger:source" v="tiger_import_dch_v0.6_20070808"/>
    <tag k="tiger:tlid" v="157608079:157608080:157608088:157597843:157597758:157596710:157596685:157596686:157596690:157596692:157607981:157596713:157596716"/>
  </way>
  <way id="52328304" version="7" timestamp="2011-03-11T18:56:13Z" uid="92286" user="Paul Johnson" changeset="7526361">
    <nd ref="40394654"/>
    <nd ref="40515888"/>
    <tag k="alt_name" v="Pacific Highway East #1E (81)"/>
    <tag k="bridge" v="yes"/>
    <tag k="highway" v="trunk"/>
    <tag k="name" v="Northeast Martin Luther King Junior Boulevard"/>
    <tag k="name_1" v="State Highway 99E"/>
    <tag k="old_ref" v="US 99E"/>
    <tag k="oneway" v="yes"/>
    <tag k="ref" v="OR 99E"/>
    <tag k="tiger:cfcc" v="A35"/>
    <tag k="tiger:county" v="Multnomah, OR"/>
    <tag k="tiger:name_base" v="M L King"/>
    <tag k="tiger:name_base_1" v="State Highway 99E"/>
    <tag k="tiger:name_direction_prefix" v="Northeast"/>
    <tag k="tiger:reviewed" v="no"/>
    <tag k="tiger:separated" v="yes"/>
    <tag k="tiger:source" v="tiger_import_dch_v0.6_20070808"/>
    <tag k="tiger:tlid" v="157608079:157608080:157608088:157597843:157597758:157596710:157596685:157596686:157596690:157596692:157607981:157596713:157596716"/>
  </way>
  <way id="52328304" version="8" timestamp="2011-06-04T09:17:57Z" uid="92286" user="Paul Johnson" changeset="8337323">
    <nd ref="40394654"/>
    <nd ref="40515888"/>
    <tag k="alt_name" v="Pacific Highway East #1E (81)"/>
    <tag k="bridge" v="yes"/>
    <tag k="cycleway" v="lane"/>
    <tag k="highway" v="trunk"/>
    <tag k="name" v="Northeast Martin Luther King Junior Boulevard"/>
    <tag k="name_1" v="State Highway 99E"/>
    <tag k="old_ref" v="US 99E"/>
    <tag k="oneway" v="yes"/>
    <tag k="ref" v="OR 99E"/>
    <tag k="tiger:cfcc" v="A35"/>
    <tag k="tiger:county" v="Multnomah, OR"/>
    <tag k="tiger:name_base" v="M L King"/>
    <tag k="tiger:name_base_1" v="State Highway 99E"/>
    <tag k="tiger:name_direction_prefix" v="Northeast"/>
    <tag k="tiger:separated" v="yes"/>
    <tag k="tiger:source" v="tiger_import_dch_v0.6_20070808"/>
    <tag k="tiger:tlid" v="157608079:157608080:157608088:157597843:157597758:157596710:157596685:157596686:157596690:157596692:157607981:157596713:157596716"/>
  </way>
  <way id="52328304" version="9" timestamp="2011-06-23T02:09:38Z" uid="473471" user="NE3" changeset="8520254">
    <nd ref="40394654"/>
    <nd ref="40515888"/>
    <tag k="alt_name" v="Pacific Highway East #1E (81)"/>
    <tag k="bridge" v="yes"/>
    <tag k="cycleway" v="lane"/>
    <tag k="highway" v="trunk"/>
    <tag k="lanes" v="2"/>
    <tag k="name" v="Northeast Martin Luther King Junior Boulevard"/>
    <tag k="name_1" v="State Highway 99E"/>
    <tag k="old_ref" v="US 99E"/>
    <tag k="oneway" v="yes"/>
    <tag k="ref" v="OR 99E"/>
    <tag k="tiger:cfcc" v="A35"/>
    <tag k="tiger:county" v="Multnomah, OR"/>
    <tag k="tiger:name_base" v="M L King"/>
    <tag k="tiger:name_base_1" v="State Highway 99E"/>
    <tag k="tiger:name_direction_prefix" v="Northeast"/>
    <tag k="tiger:separated" v="yes"/>
    <tag k="tiger:source" v="tiger_import_dch_v0.6_20070808"/>
    <tag k="tiger:tlid" v="157608079:157608080:157608088:157597843:157597758:157596710:157596685:157596686:157596690:157596692:157607981:157596713:157596716"/>
  </way>
  <way id="52328304" version="10" timestamp="2011-08-03T23:22:24Z" uid="362111" user="Mele Sax-Barnett" changeset="8915475">
    <nd ref="40394654"/>
    <nd ref="40515888"/>
    <tag k="alt_name" v="Pacific Highway East #1E (81)"/>
    <tag k="bridge" v="yes"/>
    <tag k="cycleway" v="lane"/>
    <tag k="highway" v="trunk"/>
    <tag k="lanes" v="2"/>
    <tag k="layer" v="1"/>
    <tag k="name" v="Northeast Martin Luther King Junior Boulevard"/>
    <tag k="name_1" v="State Highway 99E"/>
    <tag k="old_ref" v="US 99E"/>
    <tag k="oneway" v="yes"/>
    <tag k="ref" v="OR 99E"/>
    <tag k="tiger:cfcc" v="A35"/>
    <tag k="tiger:county" v="Multnomah, OR"/>
    <tag k="tiger:name_base" v="M L King"/>
    <tag k="tiger:name_base_1" v="State Highway 99E"/>
    <tag k="tiger:name_direction_prefix" v="Northeast"/>
    <tag k="tiger:separated" v="yes"/>
    <tag k="tiger:source" v="tiger_import_dch_v0.6_20070808"/>
    <tag k="tiger:tlid" v="157608079:157608080:157608088:157597843:157597758:157596710:157596685:157596686:157596690:157596692:157607981:157596713:157596716"/>
  </way>
  <way id="52328304" version="11" timestamp="2011-10-04T00:20:25Z" uid="372357" user="PJ Houser" changeset="9465787">
    <nd ref="40394654"/>
    <nd ref="40515888"/>
    <tag k="RLIS:bicycle" v="designated"/>
    <tag k="alt_name" v="Pacific Highway East #1E (81)"/>
    <tag k="bicycle" v="yes"/>
    <tag k="bridge" v="yes"/>
    <tag k="cycleway" v="lane"/>
    <tag k="highway" v="trunk"/>
    <tag k="lanes" v="2"/>
    <tag k="layer" v="1"/>
    <tag k="name" v="Northeast Martin Luther King Junior Boulevard"/>
    <tag k="name_1" v="State Highway 99E"/>
    <tag k="old_ref" v="US 99E"/>
    <tag k="oneway" v="yes"/>
    <tag k="ref" v="OR 99E"/>
  </way>
  <way id="52328304" version="12" timestamp="2011-10-07T23:52:29Z" uid="372357" user="PJ Houser" changeset="9498625">
    <nd ref="40394654"/>
    <nd ref="40515888"/>
    <tag k="RLIS:bicycle" v="designated"/>
    <tag k="RLIS:localid" v="161014"/>
    <tag k="RLIS:reviewed" v="no"/>
    <tag k="alt_name" v="Pacific Highway East #1E (81)"/>
    <tag k="bicycle" v="yes"/>
    <tag k="bridge" v="yes"/>
    <tag k="cycleway" v="lane"/>
    <tag k="highway" v="trunk"/>
    <tag k="lanes" v="2"/>
    <tag k="layer" v="1"/>
    <tag k="name" v="North Martin Luther King Jr Boulevard"/>
    <tag k="name_1" v="State Highway 99E"/>
    <tag k="old_ref" v="US 99E"/>
    <tag k="oneway" v="yes"/>
    <tag k="ref" v="OR 99E"/>
    <tag k="zip_left" v="97217"/>
    <tag k="zip_right" v="97217"/>
  </way>
  <way id="52328304" version="13" timestamp="2011-10-26T21:28:27Z" uid="362111" user="Mele Sax-Barnett" changeset="9664367">
    <nd ref="40394654"/>
    <nd ref="40515888"/>
    <tag k="RLIS:bicycle" v="designated"/>
    <tag k="RLIS:localid" v="161014"/>
    <tag k="RLIS:reviewed" v="no"/>
    <tag k="alt_name" v="Pacific Highway East #1E (81)"/>
    <tag k="bicycle" v="yes"/>
    <tag k="bridge" v="yes"/>
    <tag k="cycleway" v="lane"/>
    <tag k="highway" v="trunk"/>
    <tag k="lanes" v="2"/>
    <tag k="layer" v="1"/>
    <tag k="maxspeed" v="55 mph"/>
    <tag k="name" v="North Martin Luther King Jr Boulevard"/>
    <tag k="name_1" v="State Highway 99E"/>
    <tag k="old_ref" v="US 99E"/>
    <tag k="oneway" v="yes"/>
    <tag k="ref" v="OR 99E"/>
    <tag k="zip_left" v="97217"/>
    <tag k="zip_right" v="97217"/>
  </way>
  <way id="52328304" version="14" timestamp="2011-10-26T22:25:21Z" uid="362111" user="Mele Sax-Barnett" changeset="9664729">
    <nd ref="40394654"/>
    <nd ref="40515888"/>
    <tag k="RLIS:bicycle" v="designated"/>
    <tag k="RLIS:localid" v="161014"/>
    <tag k="RLIS:reviewed" v="no"/>
    <tag k="alt_name" v="Pacific Highway East #1E (81)"/>
    <tag k="bicycle" v="yes"/>
    <tag k="bridge" v="yes"/>
    <tag k="cycleway" v="lane"/>
    <tag k="highway" v="trunk"/>
    <tag k="lanes" v="2"/>
    <tag k="layer" v="1"/>
    <tag k="maxspeed" v="55 mph"/>
    <tag k="name" v="North Martin Luther King Junior Boulevard"/>
    <tag k="name_1" v="State Highway 99E"/>
    <tag k="old_ref" v="US 99E"/>
    <tag k="oneway" v="yes"/>
    <tag k="ref" v="OR 99E"/>
    <tag k="zip_left" v="97217"/>
    <tag k="zip_right" v="97217"/>
  </way>
  <way id="52328304" version="15" timestamp="2011-11-25T16:58:01Z" uid="207745" user="NE2" changeset="9945867">
    <nd ref="40394654"/>
    <nd ref="40515888"/>
    <tag k="RLIS:bicycle" v="designated"/>
    <tag k="RLIS:localid" v="161014"/>
    <tag k="RLIS:reviewed" v="no"/>
    <tag k="alt_name" v="Pacific Highway East #1E (81)"/>
    <tag k="bicycle" v="yes"/>
    <tag k="bridge" v="yes"/>
    <tag k="cycleway" v="lane"/>
    <tag k="hgv" v="designated"/>
    <tag k="hgv:national_network" v="yes"/>
    <tag k="highway" v="trunk"/>
    <tag k="lanes" v="2"/>
    <tag k="layer" v="1"/>
    <tag k="maxspeed" v="55 mph"/>
    <tag k="name" v="North Martin Luther King Junior Boulevard"/>
    <tag k="name_1" v="State Highway 99E"/>
    <tag k="old_ref" v="US 99E"/>
    <tag k="oneway" v="yes"/>
    <tag k="ref" v="OR 99E"/>
    <tag k="source:hgv:national_network" v="Title 23: Highways Part 658 http://ecfr.gpoaccess.gov/cgi/t/text/text-idx?c=ecfr&amp;rgn=div5&amp;view=text&amp;node=23:1.0.1.7.33&amp;idno=23"/>
    <tag k="zip_left" v="97217"/>
    <tag k="zip_right" v="97217"/>
  </way>
  <way id="52328304" version="16" timestamp="2011-12-09T00:18:54Z" uid="372357" user="PJ Houser" changeset="10069888">
    <nd ref="40394654"/>
    <nd ref="40515888"/>
    <tag k="RLIS:bicycle" v="designated"/>
    <tag k="RLIS:localid" v="161014"/>
    <tag k="RLIS:reviewed" v="no"/>
    <tag k="alt_name" v="Pacific Highway East #1E (81)"/>
    <tag k="bicycle" v="designated"/>
    <tag k="bridge" v="yes"/>
    <tag k="cycleway" v="lane"/>
    <tag k="hgv" v="designated"/>
    <tag k="hgv:national_network" v="yes"/>
    <tag k="highway" v="trunk"/>
    <tag k="lanes" v="2"/>
    <tag k="layer" v="1"/>
    <tag k="maxspeed" v="55 mph"/>
    <tag k="name" v="North Martin Luther King Junior Boulevard"/>
    <tag k="name_1" v="State Highway 99E"/>
    <tag k="old_ref" v="US 99E"/>
    <tag k="oneway" v="yes"/>
    <tag k="ref" v="OR 99E"/>
    <tag k="source:hgv:national_network" v="Title 23: Highways Part 658 http://ecfr.gpoaccess.gov/cgi/t/text/text-idx?c=ecfr&amp;rgn=div5&amp;view=text&amp;node=23:1.0.1.7.33&amp;idno=23"/>
    <tag k="zip_left" v="97217"/>
    <tag k="zip_right" v="97217"/>
  </way>
  <way id="52328304" version="17" timestamp="2012-03-15T04:56:25Z" uid="393906" user="Grant Humphries" changeset="10984887">
    <nd ref="40394654"/>
    <nd ref="40515888"/>
    <tag k="RLIS:bicycle" v="designated"/>
    <tag k="RLIS:localid" v="161014"/>
    <tag k="RLIS:reviewed" v="no"/>
    <tag k="alt_name" v="Pacific Highway East #1E (81)"/>
    <tag k="bicycle" v="designated"/>
    <tag k="bridge" v="yes"/>
    <tag k="cycleway" v="lane"/>
    <tag k="foot" v="no"/>
    <tag k="hgv" v="designated"/>
    <tag k="hgv:national_network" v="yes"/>
    <tag k="highway" v="trunk"/>
    <tag k="lanes" v="2"/>
    <tag k="layer" v="1"/>
    <tag k="maxspeed" v="55 mph"/>
    <tag k="name" v="North Martin Luther King Junior Boulevard"/>
    <tag k="name_1" v="State Highway 99E"/>
    <tag k="old_ref" v="US 99E"/>
    <tag k="oneway" v="yes"/>
    <tag k="ref" v="OR 99E"/>
    <tag k="source:hgv:national_network" v="Title 23: Highways Part 658 http://ecfr.gpoaccess.gov/cgi/t/text/text-idx?c=ecfr&amp;rgn=div5&amp;view=text&amp;node=23:1.0.1.7.33&amp;idno=23"/>
    <tag k="zip_left" v="97217"/>
    <tag k="zip_right" v="97217"/>
  </way>
  <way id="52328304" version="18" timestamp="2012-03-16T19:16:01Z" uid="92286" user="Paul Johnson" changeset="11001433">
    <nd ref="40394654"/>
    <nd ref="40515888"/>
    <tag k="RLIS:bicycle" v="designated"/>
    <tag k="RLIS:localid" v="161014"/>
    <tag k="RLIS:reviewed" v="no"/>
    <tag k="alt_name" v="Pacific Highway East #1E (81)"/>
    <tag k="bicycle" v="designated"/>
    <tag k="bridge" v="yes"/>
    <tag k="cycleway" v="lane"/>
    <tag k="foot" v="no"/>
    <tag k="hgv" v="designated"/>
    <tag k="hgv:national_network" v="yes"/>
    <tag k="highway" v="trunk"/>
    <tag k="lanes" v="2"/>
    <tag k="layer" v="1"/>
    <tag k="maxspeed" v="55 mph"/>
    <tag k="name" v="North Martin Luther King, Junior Boulevard"/>
    <tag k="name_1" v="State Highway 99E"/>
    <tag k="old_ref" v="US 99E"/>
    <tag k="oneway" v="yes"/>
    <tag k="ref" v="OR 99E"/>
    <tag k="source:hgv:national_network" v="Title 23: Highways Part 658 http://ecfr.gpoaccess.gov/cgi/t/text/text-idx?c=ecfr&amp;rgn=div5&amp;view=text&amp;node=23:1.0.1.7.33&amp;idno=23"/>
    <tag k="zip_left" v="97217"/>
    <tag k="zip_right" v="97217"/>
  </way>
  <way id="52328306" version="2" timestamp="2010-03-22T07:37:09Z" uid="20587" user="balrog-kun" changeset="4199043">
    <nd ref="40515427"/>
    <nd ref="40387395"/>
    <tag k="bridge" v="yes"/>
    <tag k="highway" v="trunk"/>
    <tag k="name" v="Northeast Martin Luther King, Junior Boulevard"/>
    <tag k="name_1" v="State Highway 99E"/>
    <tag k="oneway" v="yes"/>
    <tag k="ref" v="OR99E"/>
    <tag k="tiger:cfcc" v="A35"/>
    <tag k="tiger:county" v="Multnomah, OR"/>
    <tag k="tiger:name_base" v="M L King"/>
    <tag k="tiger:name_base_1" v="State Highway 99E"/>
    <tag k="tiger:name_direction_prefix" v="NE"/>
    <tag k="tiger:reviewed" v="no"/>
    <tag k="tiger:separated" v="yes"/>
    <tag k="tiger:source" v="tiger_import_dch_v0.6_20070808"/>
    <tag k="tiger:tlid" v="157495132:157559309:157563996:157502007:157495120"/>
    <tag k="tiger:zip_left" v="97217"/>
  </way>
  <way id="52328306" version="3" timestamp="2010-12-18T19:12:59Z" uid="373763" user="ylekot" changeset="6699301">
    <nd ref="40515427"/>
    <nd ref="40387395"/>
    <tag k="bridge" v="yes"/>
    <tag k="highway" v="trunk"/>
    <tag k="name" v="Northeast Martin Luther King, Junior Boulevard"/>
    <tag k="name_1" v="State Highway 99E"/>
    <tag k="oneway" v="yes"/>
    <tag k="ref" v="OR 99E"/>
    <tag k="tiger:cfcc" v="A35"/>
    <tag k="tiger:county" v="Multnomah, OR"/>
    <tag k="tiger:name_base" v="M L King"/>
    <tag k="tiger:name_base_1" v="State Highway 99E"/>
    <tag k="tiger:name_direction_prefix" v="NE"/>
    <tag k="tiger:reviewed" v="no"/>
    <tag k="tiger:separated" v="yes"/>
    <tag k="tiger:source" v="tiger_import_dch_v0.6_20070808"/>
    <tag k="tiger:tlid" v="157495132:157559309:157563996:157502007:157495120"/>
    <tag k="tiger:zip_left" v="97217"/>
  </way>
  <way id="52328306" version="4" timestamp="2010-12-18T20:00:25Z" uid="373763" user="ylekot" changeset="6699623">
    <nd ref="40515427"/>
    <nd ref="40387395"/>
    <tag k="bridge" v="yes"/>
    <tag k="highway" v="motorway"/>
    <tag k="name" v="Northeast Martin Luther King, Junior Boulevard"/>
    <tag k="name_1" v="State Highway 99E"/>
    <tag k="oneway" v="yes"/>
    <tag k="ref" v="OR 99E"/>
    <tag k="tiger:cfcc" v="A35"/>
    <tag k="tiger:county" v="Multnomah, OR"/>
    <tag k="tiger:name_base" v="M L King"/>
    <tag k="tiger:name_base_1" v="State Highway 99E"/>
    <tag k="tiger:name_direction_prefix" v="NE"/>
    <tag k="tiger:reviewed" v="no"/>
    <tag k="tiger:separated" v="yes"/>
    <tag k="tiger:source" v="tiger_import_dch_v0.6_20070808"/>
    <tag k="tiger:tlid" v="157495132:157559309:157563996:157502007:157495120"/>
    <tag k="tiger:zip_left" v="97217"/>
  </way>
  <way id="52328306" version="5" timestamp="2011-01-23T03:52:02Z" uid="92286" user="Paul Johnson" changeset="7057582">
    <nd ref="40515427"/>
    <nd ref="40387395"/>
    <tag k="bridge" v="yes"/>
    <tag k="highway" v="motorway"/>
    <tag k="name" v="Northeast Martin Luther King, Junior Boulevard"/>
    <tag k="name_1" v="State Highway 99E"/>
    <tag k="oneway" v="yes"/>
    <tag k="ref" v="OR 99E"/>
    <tag k="tiger:cfcc" v="A35"/>
    <tag k="tiger:county" v="Multnomah, OR"/>
    <tag k="tiger:name_base" v="M L King"/>
    <tag k="tiger:name_base_1" v="State Highway 99E"/>
    <tag k="tiger:name_direction_prefix" v="Northeast"/>
    <tag k="tiger:reviewed" v="no"/>
    <tag k="tiger:separated" v="yes"/>
    <tag k="tiger:source" v="tiger_import_dch_v0.6_20070808"/>
    <tag k="tiger:tlid" v="157495132:157559309:157563996:157502007:157495120"/>
    <tag k="tiger:zip_left" v="97217"/>
  </way>
  <way id="52328306" version="6" timestamp="2011-02-11T02:38:30Z" uid="373763" user="ylekot" changeset="7251485">
    <nd ref="40515427"/>
    <nd ref="40387395"/>
    <tag k="alt_name" v="Pacific Highway East #1E (81)"/>
    <tag k="bridge" v="yes"/>
    <tag k="highway" v="motorway"/>
    <tag k="name" v="Northeast Martin Luther King Junior Boulevard"/>
    <tag k="name_1" v="State Highway 99E"/>
    <tag k="old_ref" v="US 99E"/>
    <tag k="oneway" v="yes"/>
    <tag k="ref" v="OR 99E"/>
    <tag k="tiger:cfcc" v="A35"/>
    <tag k="tiger:county" v="Multnomah, OR"/>
    <tag k="tiger:name_base" v="M L King"/>
    <tag k="tiger:name_base_1" v="State Highway 99E"/>
    <tag k="tiger:name_direction_prefix" v="Northeast"/>
    <tag k="tiger:reviewed" v="no"/>
    <tag k="tiger:separated" v="yes"/>
    <tag k="tiger:source" v="tiger_import_dch_v0.6_20070808"/>
    <tag k="tiger:tlid" v="157495132:157559309:157563996:157502007:157495120"/>
    <tag k="tiger:zip_left" v="97217"/>
  </way>
  <way id="52328306" version="7" timestamp="2011-03-11T18:55:51Z" uid="92286" user="Paul Johnson" changeset="7526361">
    <nd ref="40515427"/>
    <nd ref="40387395"/>
    <tag k="alt_name" v="Pacific Highway East #1E (81)"/>
    <tag k="bridge" v="yes"/>
    <tag k="highway" v="trunk"/>
    <tag k="name" v="Northeast Martin Luther King Junior Boulevard"/>
    <tag k="name_1" v="State Highway 99E"/>
    <tag k="old_ref" v="US 99E"/>
    <tag k="oneway" v="yes"/>
    <tag k="ref" v="OR 99E"/>
    <tag k="tiger:cfcc" v="A35"/>
    <tag k="tiger:county" v="Multnomah, OR"/>
    <tag k="tiger:name_base" v="M L King"/>
    <tag k="tiger:name_base_1" v="State Highway 99E"/>
    <tag k="tiger:name_direction_prefix" v="Northeast"/>
    <tag k="tiger:reviewed" v="no"/>
    <tag k="tiger:separated" v="yes"/>
    <tag k="tiger:source" v="tiger_import_dch_v0.6_20070808"/>
    <tag k="tiger:tlid" v="157495132:157559309:157563996:157502007:157495120"/>
    <tag k="tiger:zip_left" v="97217"/>
  </way>
  <way id="52328306" version="8" timestamp="2011-06-04T09:17:45Z" uid="92286" user="Paul Johnson" changeset="8337323">
    <nd ref="40515427"/>
    <nd ref="40387395"/>
    <tag k="alt_name" v="Pacific Highway East #1E (81)"/>
    <tag k="bridge" v="yes"/>
    <tag k="cycleway" v="lane"/>
    <tag k="highway" v="trunk"/>
    <tag k="name" v="Northeast Martin Luther King Junior Boulevard"/>
    <tag k="name_1" v="State Highway 99E"/>
    <tag k="old_ref" v="US 99E"/>
    <tag k="oneway" v="yes"/>
    <tag k="ref" v="OR 99E"/>
    <tag k="tiger:cfcc" v="A35"/>
    <tag k="tiger:county" v="Multnomah, OR"/>
    <tag k="tiger:name_base" v="M L King"/>
    <tag k="tiger:name_base_1" v="State Highway 99E"/>
    <tag k="tiger:name_direction_prefix" v="Northeast"/>
    <tag k="tiger:separated" v="yes"/>
    <tag k="tiger:source" v="tiger_import_dch_v0.6_20070808"/>
    <tag k="tiger:tlid" v="157495132:157559309:157563996:157502007:157495120"/>
    <tag k="tiger:zip_left" v="97217"/>
  </way>
  <way id="52328306" version="9" timestamp="2011-06-23T02:12:22Z" uid="473471" user="NE3" changeset="8520254">
    <nd ref="40515427"/>
    <nd ref="40387395"/>
    <tag k="alt_name" v="Pacific Highway East #1E (81)"/>
    <tag k="bridge" v="yes"/>
    <tag k="cycleway" v="lane"/>
    <tag k="highway" v="trunk"/>
    <tag k="lanes" v="2"/>
    <tag k="name" v="Northeast Martin Luther King Junior Boulevard"/>
    <tag k="name_1" v="State Highway 99E"/>
    <tag k="old_ref" v="US 99E"/>
    <tag k="oneway" v="yes"/>
    <tag k="ref" v="OR 99E"/>
    <tag k="tiger:cfcc" v="A35"/>
    <tag k="tiger:county" v="Multnomah, OR"/>
    <tag k="tiger:name_base" v="M L King"/>
    <tag k="tiger:name_base_1" v="State Highway 99E"/>
    <tag k="tiger:name_direction_prefix" v="Northeast"/>
    <tag k="tiger:separated" v="yes"/>
    <tag k="tiger:source" v="tiger_import_dch_v0.6_20070808"/>
    <tag k="tiger:tlid" v="157495132:157559309:157563996:157502007:157495120"/>
    <tag k="tiger:zip_left" v="97217"/>
  </way>
  <way id="52328306" version="10" timestamp="2011-08-03T23:22:23Z" uid="362111" user="Mele Sax-Barnett" changeset="8915475">
    <nd ref="40515427"/>
    <nd ref="40387395"/>
    <tag k="alt_name" v="Pacific Highway East #1E (81)"/>
    <tag k="bridge" v="yes"/>
    <tag k="cycleway" v="lane"/>
    <tag k="highway" v="trunk"/>
    <tag k="lanes" v="2"/>
    <tag k="layer" v="1"/>
    <tag k="name" v="Northeast Martin Luther King Junior Boulevard"/>
    <tag k="name_1" v="State Highway 99E"/>
    <tag k="old_ref" v="US 99E"/>
    <tag k="oneway" v="yes"/>
    <tag k="ref" v="OR 99E"/>
    <tag k="tiger:cfcc" v="A35"/>
    <tag k="tiger:county" v="Multnomah, OR"/>
    <tag k="tiger:name_base" v="M L King"/>
    <tag k="tiger:name_base_1" v="State Highway 99E"/>
    <tag k="tiger:name_direction_prefix" v="Northeast"/>
    <tag k="tiger:separated" v="yes"/>
    <tag k="tiger:source" v="tiger_import_dch_v0.6_20070808"/>
    <tag k="tiger:tlid" v="157495132:157559309:157563996:157502007:157495120"/>
    <tag k="tiger:zip_left" v="97217"/>
  </way>
  <way id="52328306" version="11" timestamp="2011-10-04T00:20:24Z" uid="372357" user="PJ Houser" changeset="9465787">
    <nd ref="40515427"/>
    <nd ref="40387395"/>
    <tag k="RLIS:bicycle" v="designated"/>
    <tag k="alt_name" v="Pacific Highway East #1E (81)"/>
    <tag k="bicycle" v="yes"/>
    <tag k="bridge" v="yes"/>
    <tag k="cycleway" v="lane"/>
    <tag k="highway" v="trunk"/>
    <tag k="lanes" v="2"/>
    <tag k="layer" v="1"/>
    <tag k="name" v="Northeast Martin Luther King Junior Boulevard"/>
    <tag k="name_1" v="State Highway 99E"/>
    <tag k="old_ref" v="US 99E"/>
    <tag k="oneway" v="yes"/>
    <tag k="ref" v="OR 99E"/>
  </way>
  <way id="52328306" version="12" timestamp="2011-10-07T23:52:30Z" uid="372357" user="PJ Houser" changeset="9498625">
    <nd ref="40515427"/>
    <nd ref="40387395"/>
    <tag k="RLIS:bicycle" v="designated"/>
    <tag k="alt_name" v="Pacific Highway East #1E (81)"/>
    <tag k="bicycle" v="yes"/>
    <tag k="bridge" v="yes"/>
    <tag k="cycleway" v="lane"/>
    <tag k="highway" v="trunk"/>
    <tag k="lanes" v="2"/>
    <tag k="layer" v="1"/>
    <tag k="name" v="North Martin Luther King Junior Boulevard"/>
    <tag k="name_1" v="State Highway 99E"/>
    <tag k="old_ref" v="US 99E"/>
    <tag k="oneway" v="yes"/>
    <tag k="ref" v="OR 99E"/>
  </way>
  <way id="52328306" version="13" timestamp="2011-10-26T21:28:28Z" uid="362111" user="Mele Sax-Barnett" changeset="9664367">
    <nd ref="40515427"/>
    <nd ref="40387395"/>
    <tag k="RLIS:bicycle" v="designated"/>
    <tag k="alt_name" v="Pacific Highway East #1E (81)"/>
    <tag k="bicycle" v="yes"/>
    <tag k="bridge" v="yes"/>
    <tag k="cycleway" v="lane"/>
    <tag k="highway" v="trunk"/>
    <tag k="lanes" v="2"/>
    <tag k="layer" v="1"/>
    <tag k="maxspeed" v="55 mph"/>
    <tag k="name" v="North Martin Luther King Junior Boulevard"/>
    <tag k="name_1" v="State Highway 99E"/>
    <tag k="old_ref" v="US 99E"/>
    <tag k="oneway" v="yes"/>
    <tag k="ref" v="OR 99E"/>
  </way>
  <way id="52328306" version="14" timestamp="2011-11-25T16:58:00Z" uid="207745" user="NE2" changeset="9945867">
    <nd ref="40515427"/>
    <nd ref="40387395"/>
    <tag k="RLIS:bicycle" v="designated"/>
    <tag k="alt_name" v="Pacific Highway East #1E (81)"/>
    <tag k="bicycle" v="yes"/>
    <tag k="bridge" v="yes"/>
    <tag k="cycleway" v="lane"/>
    <tag k="hgv" v="designated"/>
    <tag k="hgv:national_network" v="yes"/>
    <tag k="highway" v="trunk"/>
    <tag k="lanes" v="2"/>
    <tag k="layer" v="1"/>
    <tag k="maxspeed" v="55 mph"/>
    <tag k="name" v="North Martin Luther King Junior Boulevard"/>
    <tag k="name_1" v="State Highway 99E"/>
    <tag k="old_ref" v="US 99E"/>
    <tag k="oneway" v="yes"/>
    <tag k="ref" v="OR 99E"/>
    <tag k="source:hgv:national_network" v="Title 23: Highways Part 658 http://ecfr.gpoaccess.gov/cgi/t/text/text-idx?c=ecfr&amp;rgn=div5&amp;view=text&amp;node=23:1.0.1.7.33&amp;idno=23"/>
  </way>
  <way id="52328306" version="15" timestamp="2011-12-09T00:18:53Z" uid="372357" user="PJ Houser" changeset="10069888">
    <nd ref="40515427"/>
    <nd ref="40387395"/>
    <tag k="RLIS:bicycle" v="designated"/>
    <tag k="alt_name" v="Pacific Highway East #1E (81)"/>
    <tag k="bicycle" v="designated"/>
    <tag k="bridge" v="yes"/>
    <tag k="cycleway" v="lane"/>
    <tag k="hgv" v="designated"/>
    <tag k="hgv:national_network" v="yes"/>
    <tag k="highway" v="trunk"/>
    <tag k="lanes" v="2"/>
    <tag k="layer" v="1"/>
    <tag k="maxspeed" v="55 mph"/>
    <tag k="name" v="North Martin Luther King Junior Boulevard"/>
    <tag k="name_1" v="State Highway 99E"/>
    <tag k="old_ref" v="US 99E"/>
    <tag k="oneway" v="yes"/>
    <tag k="ref" v="OR 99E"/>
    <tag k="source:hgv:national_network" v="Title 23: Highways Part 658 http://ecfr.gpoaccess.gov/cgi/t/text/text-idx?c=ecfr&amp;rgn=div5&amp;view=text&amp;node=23:1.0.1.7.33&amp;idno=23"/>
  </way>
  <way id="52328306" version="16" timestamp="2012-03-15T04:56:25Z" uid="393906" user="Grant Humphries" changeset="10984887">
    <nd ref="40515427"/>
    <nd ref="40387395"/>
    <tag k="RLIS:bicycle" v="designated"/>
    <tag k="alt_name" v="Pacific Highway East #1E (81)"/>
    <tag k="bicycle" v="designated"/>
    <tag k="bridge" v="yes"/>
    <tag k="cycleway" v="lane"/>
    <tag k="foot" v="no"/>
    <tag k="hgv" v="designated"/>
    <tag k="hgv:national_network" v="yes"/>
    <tag k="highway" v="trunk"/>
    <tag k="lanes" v="2"/>
    <tag k="layer" v="1"/>
    <tag k="maxspeed" v="55 mph"/>
    <tag k="name" v="North Martin Luther King Junior Boulevard"/>
    <tag k="name_1" v="State Highway 99E"/>
    <tag k="old_ref" v="US 99E"/>
    <tag k="oneway" v="yes"/>
    <tag k="ref" v="OR 99E"/>
    <tag k="source:hgv:national_network" v="Title 23: Highways Part 658 http://ecfr.gpoaccess.gov/cgi/t/text/text-idx?c=ecfr&amp;rgn=div5&amp;view=text&amp;node=23:1.0.1.7.33&amp;idno=23"/>
  </way>
  <way id="52328306" version="17" timestamp="2012-03-16T19:16:03Z" uid="92286" user="Paul Johnson" changeset="11001433">
    <nd ref="40515427"/>
    <nd ref="40387395"/>
    <tag k="RLIS:bicycle" v="designated"/>
    <tag k="alt_name" v="Pacific Highway East #1E (81)"/>
    <tag k="bicycle" v="designated"/>
    <tag k="bridge" v="yes"/>
    <tag k="cycleway" v="lane"/>
    <tag k="foot" v="no"/>
    <tag k="hgv" v="designated"/>
    <tag k="hgv:national_network" v="yes"/>
    <tag k="highway" v="trunk"/>
    <tag k="lanes" v="2"/>
    <tag k="layer" v="1"/>
    <tag k="maxspeed" v="55 mph"/>
    <tag k="name" v="North Martin Luther King, Junior Boulevard"/>
    <tag k="name_1" v="State Highway 99E"/>
    <tag k="old_ref" v="US 99E"/>
    <tag k="oneway" v="yes"/>
    <tag k="ref" v="OR 99E"/>
    <tag k="source:hgv:national_network" v="Title 23: Highways Part 658 http://ecfr.gpoaccess.gov/cgi/t/text/text-idx?c=ecfr&amp;rgn=div5&amp;view=text&amp;node=23:1.0.1.7.33&amp;idno=23"/>
  </way>
  <way id="52328307" version="2" timestamp="2010-03-22T07:37:09Z" uid="20587" user="balrog-kun" changeset="4199043">
    <nd ref="40515888"/>
    <nd ref="40515890"/>
    <nd ref="40515891"/>
    <nd ref="40515892"/>
    <nd ref="40515895"/>
    <nd ref="40515899"/>
    <nd ref="40515402"/>
    <tag k="highway" v="trunk"/>
    <tag k="name" v="Northeast Martin Luther King, Junior Boulevard"/>
    <tag k="name_1" v="State Highway 99E"/>
    <tag k="oneway" v="yes"/>
    <tag k="ref" v="OR99E"/>
    <tag k="tiger:cfcc" v="A35"/>
    <tag k="tiger:county" v="Multnomah, OR"/>
    <tag k="tiger:name_base" v="M L King"/>
    <tag k="tiger:name_base_1" v="State Highway 99E"/>
    <tag k="tiger:name_direction_prefix" v="NE"/>
    <tag k="tiger:reviewed" v="no"/>
    <tag k="tiger:separated" v="yes"/>
    <tag k="tiger:source" v="tiger_import_dch_v0.6_20070808"/>
    <tag k="tiger:tlid" v="157608079:157608080:157608088:157597843:157597758:157596710:157596685:157596686:157596690:157596692:157607981:157596713:157596716"/>
  </way>
  <way id="52328307" version="3" timestamp="2010-12-18T19:12:59Z" uid="373763" user="ylekot" changeset="6699301">
    <nd ref="40515888"/>
    <nd ref="40515890"/>
    <nd ref="40515891"/>
    <nd ref="40515892"/>
    <nd ref="40515895"/>
    <nd ref="40515899"/>
    <nd ref="40515402"/>
    <tag k="highway" v="trunk"/>
    <tag k="name" v="Northeast Martin Luther King, Junior Boulevard"/>
    <tag k="name_1" v="State Highway 99E"/>
    <tag k="oneway" v="yes"/>
    <tag k="ref" v="OR 99E"/>
    <tag k="tiger:cfcc" v="A35"/>
    <tag k="tiger:county" v="Multnomah, OR"/>
    <tag k="tiger:name_base" v="M L King"/>
    <tag k="tiger:name_base_1" v="State Highway 99E"/>
    <tag k="tiger:name_direction_prefix" v="NE"/>
    <tag k="tiger:reviewed" v="no"/>
    <tag k="tiger:separated" v="yes"/>
    <tag k="tiger:source" v="tiger_import_dch_v0.6_20070808"/>
    <tag k="tiger:tlid" v="157608079:157608080:157608088:157597843:157597758:157596710:157596685:157596686:157596690:157596692:157607981:157596713:157596716"/>
  </way>
  <way id="52328307" version="4" timestamp="2010-12-18T20:00:27Z" uid="373763" user="ylekot" changeset="6699623">
    <nd ref="40515888"/>
    <nd ref="40515890"/>
    <nd ref="40515891"/>
    <nd ref="40515892"/>
    <nd ref="40515895"/>
    <nd ref="40515899"/>
    <nd ref="40515402"/>
    <tag k="highway" v="motorway"/>
    <tag k="name" v="Northeast Martin Luther King, Junior Boulevard"/>
    <tag k="name_1" v="State Highway 99E"/>
    <tag k="oneway" v="yes"/>
    <tag k="ref" v="OR 99E"/>
    <tag k="tiger:cfcc" v="A35"/>
    <tag k="tiger:county" v="Multnomah, OR"/>
    <tag k="tiger:name_base" v="M L King"/>
    <tag k="tiger:name_base_1" v="State Highway 99E"/>
    <tag k="tiger:name_direction_prefix" v="NE"/>
    <tag k="tiger:reviewed" v="no"/>
    <tag k="tiger:separated" v="yes"/>
    <tag k="tiger:source" v="tiger_import_dch_v0.6_20070808"/>
    <tag k="tiger:tlid" v="157608079:157608080:157608088:157597843:157597758:157596710:157596685:157596686:157596690:157596692:157607981:157596713:157596716"/>
  </way>
  <way id="52328307" version="5" timestamp="2011-01-23T03:48:27Z" uid="92286" user="Paul Johnson" changeset="7057582">
    <nd ref="40515888"/>
    <nd ref="40515890"/>
    <nd ref="40515891"/>
    <nd ref="40515892"/>
    <nd ref="40515895"/>
    <nd ref="40515899"/>
    <nd ref="40515402"/>
    <tag k="highway" v="motorway"/>
    <tag k="name" v="Northeast Martin Luther King, Junior Boulevard"/>
    <tag k="name_1" v="State Highway 99E"/>
    <tag k="oneway" v="yes"/>
    <tag k="ref" v="OR 99E"/>
    <tag k="tiger:cfcc" v="A35"/>
    <tag k="tiger:county" v="Multnomah, OR"/>
    <tag k="tiger:name_base" v="M L King"/>
    <tag k="tiger:name_base_1" v="State Highway 99E"/>
    <tag k="tiger:name_direction_prefix" v="Northeast"/>
    <tag k="tiger:reviewed" v="no"/>
    <tag k="tiger:separated" v="yes"/>
    <tag k="tiger:source" v="tiger_import_dch_v0.6_20070808"/>
    <tag k="tiger:tlid" v="157608079:157608080:157608088:157597843:157597758:157596710:157596685:157596686:157596690:157596692:157607981:157596713:157596716"/>
  </way>
  <way id="52328307" version="6" timestamp="2011-02-11T01:57:49Z" uid="373763" user="ylekot" changeset="7251485">
    <nd ref="40515888"/>
    <nd ref="40515890"/>
    <nd ref="40515891"/>
    <nd ref="40515892"/>
    <nd ref="40515895"/>
    <nd ref="40515899"/>
    <nd ref="1146563279"/>
    <tag k="alt_name" v="Pacific Highway East #1E (81)"/>
    <tag k="highway" v="motorway"/>
    <tag k="name" v="Northeast Martin Luther King Junior Boulevard"/>
    <tag k="name_1" v="State Highway 99E"/>
    <tag k="old_ref" v="US 99E"/>
    <tag k="oneway" v="yes"/>
    <tag k="ref" v="OR 99E"/>
    <tag k="tiger:cfcc" v="A35"/>
    <tag k="tiger:county" v="Multnomah, OR"/>
    <tag k="tiger:name_base" v="M L King"/>
    <tag k="tiger:name_base_1" v="State Highway 99E"/>
    <tag k="tiger:name_direction_prefix" v="Northeast"/>
    <tag k="tiger:reviewed" v="no"/>
    <tag k="tiger:separated" v="yes"/>
    <tag k="tiger:source" v="tiger_import_dch_v0.6_20070808"/>
    <tag k="tiger:tlid" v="157608079:157608080:157608088:157597843:157597758:157596710:157596685:157596686:157596690:157596692:157607981:157596713:157596716"/>
  </way>
  <way id="52328307" version="7" timestamp="2011-03-11T18:56:16Z" uid="92286" user="Paul Johnson" changeset="7526361">
    <nd ref="40515888"/>
    <nd ref="40515890"/>
    <nd ref="40515891"/>
    <nd ref="40515892"/>
    <nd ref="40515895"/>
    <nd ref="40515899"/>
    <nd ref="1146563279"/>
    <tag k="alt_name" v="Pacific Highway East #1E (81)"/>
    <tag k="highway" v="trunk"/>
    <tag k="name" v="Northeast Martin Luther King Junior Boulevard"/>
    <tag k="name_1" v="State Highway 99E"/>
    <tag k="old_ref" v="US 99E"/>
    <tag k="oneway" v="yes"/>
    <tag k="ref" v="OR 99E"/>
    <tag k="tiger:cfcc" v="A35"/>
    <tag k="tiger:county" v="Multnomah, OR"/>
    <tag k="tiger:name_base" v="M L King"/>
    <tag k="tiger:name_base_1" v="State Highway 99E"/>
    <tag k="tiger:name_direction_prefix" v="Northeast"/>
    <tag k="tiger:reviewed" v="no"/>
    <tag k="tiger:separated" v="yes"/>
    <tag k="tiger:source" v="tiger_import_dch_v0.6_20070808"/>
    <tag k="tiger:tlid" v="157608079:157608080:157608088:157597843:157597758:157596710:157596685:157596686:157596690:157596692:157607981:157596713:157596716"/>
  </way>
  <way id="52328307" version="8" timestamp="2011-06-04T09:18:05Z" uid="92286" user="Paul Johnson" changeset="8337323">
    <nd ref="40515888"/>
    <nd ref="40515890"/>
    <nd ref="40515891"/>
    <nd ref="40515892"/>
    <nd ref="40515895"/>
    <nd ref="40515899"/>
    <nd ref="1146563279"/>
    <tag k="alt_name" v="Pacific Highway East #1E (81)"/>
    <tag k="cycleway" v="lane"/>
    <tag k="highway" v="trunk"/>
    <tag k="name" v="Northeast Martin Luther King Junior Boulevard"/>
    <tag k="name_1" v="State Highway 99E"/>
    <tag k="old_ref" v="US 99E"/>
    <tag k="oneway" v="yes"/>
    <tag k="ref" v="OR 99E"/>
    <tag k="tiger:cfcc" v="A35"/>
    <tag k="tiger:county" v="Multnomah, OR"/>
    <tag k="tiger:name_base" v="M L King"/>
    <tag k="tiger:name_base_1" v="State Highway 99E"/>
    <tag k="tiger:name_direction_prefix" v="Northeast"/>
    <tag k="tiger:separated" v="yes"/>
    <tag k="tiger:source" v="tiger_import_dch_v0.6_20070808"/>
    <tag k="tiger:tlid" v="157608079:157608080:157608088:157597843:157597758:157596710:157596685:157596686:157596690:157596692:157607981:157596713:157596716"/>
  </way>
  <way id="52328307" version="9" timestamp="2011-06-23T02:06:46Z" uid="473471" user="NE3" changeset="8520254">
    <nd ref="40515888"/>
    <nd ref="40515890"/>
    <nd ref="40515891"/>
    <nd ref="40515892"/>
    <nd ref="40515895"/>
    <nd ref="40515899"/>
    <nd ref="1146563279"/>
    <tag k="alt_name" v="Pacific Highway East #1E (81)"/>
    <tag k="cycleway" v="lane"/>
    <tag k="highway" v="trunk"/>
    <tag k="lanes" v="2"/>
    <tag k="name" v="Northeast Martin Luther King Junior Boulevard"/>
    <tag k="name_1" v="State Highway 99E"/>
    <tag k="old_ref" v="US 99E"/>
    <tag k="oneway" v="yes"/>
    <tag k="ref" v="OR 99E"/>
    <tag k="tiger:cfcc" v="A35"/>
    <tag k="tiger:county" v="Multnomah, OR"/>
    <tag k="tiger:name_base" v="M L King"/>
    <tag k="tiger:name_base_1" v="State Highway 99E"/>
    <tag k="tiger:name_direction_prefix" v="Northeast"/>
    <tag k="tiger:separated" v="yes"/>
    <tag k="tiger:source" v="tiger_import_dch_v0.6_20070808"/>
    <tag k="tiger:tlid" v="157608079:157608080:157608088:157597843:157597758:157596710:157596685:157596686:157596690:157596692:157607981:157596713:157596716"/>
  </way>
  <way id="52328307" version="10" timestamp="2011-10-04T00:20:27Z" uid="372357" user="PJ Houser" changeset="9465787">
    <nd ref="40515888"/>
    <nd ref="40515890"/>
    <nd ref="40515891"/>
    <nd ref="40515892"/>
    <nd ref="40515895"/>
    <nd ref="40515899"/>
    <nd ref="1146563279"/>
    <tag k="RLIS:bicycle" v="designated"/>
    <tag k="alt_name" v="Pacific Highway East #1E (81)"/>
    <tag k="bicycle" v="yes"/>
    <tag k="cycleway" v="lane"/>
    <tag k="highway" v="trunk"/>
    <tag k="lanes" v="2"/>
    <tag k="name" v="Northeast Martin Luther King Junior Boulevard"/>
    <tag k="name_1" v="State Highway 99E"/>
    <tag k="old_ref" v="US 99E"/>
    <tag k="oneway" v="yes"/>
    <tag k="ref" v="OR 99E"/>
  </way>
  <way id="52328307" version="11" timestamp="2011-10-07T23:52:30Z" uid="372357" user="PJ Houser" changeset="9498625">
    <nd ref="40515888"/>
    <nd ref="40515890"/>
    <nd ref="40515891"/>
    <nd ref="40515892"/>
    <nd ref="40515895"/>
    <nd ref="40515899"/>
    <nd ref="1146563279"/>
    <tag k="RLIS:bicycle" v="designated"/>
    <tag k="RLIS:localid" v="161014"/>
    <tag k="RLIS:reviewed" v="no"/>
    <tag k="alt_name" v="Pacific Highway East #1E (81)"/>
    <tag k="bicycle" v="yes"/>
    <tag k="cycleway" v="lane"/>
    <tag k="highway" v="trunk"/>
    <tag k="lanes" v="2"/>
    <tag k="name" v="North Martin Luther King Jr Boulevard"/>
    <tag k="name_1" v="State Highway 99E"/>
    <tag k="old_ref" v="US 99E"/>
    <tag k="oneway" v="yes"/>
    <tag k="ref" v="OR 99E"/>
    <tag k="zip_left" v="97217"/>
    <tag k="zip_right" v="97217"/>
  </way>
  <way id="52328307" version="12" timestamp="2011-10-26T21:28:27Z" uid="362111" user="Mele Sax-Barnett" changeset="9664367">
    <nd ref="40515888"/>
    <nd ref="40515890"/>
    <nd ref="40515891"/>
    <nd ref="40515892"/>
    <nd ref="40515895"/>
    <nd ref="40515899"/>
    <nd ref="1146563279"/>
    <tag k="RLIS:bicycle" v="designated"/>
    <tag k="RLIS:localid" v="161014"/>
    <tag k="RLIS:reviewed" v="no"/>
    <tag k="alt_name" v="Pacific Highway East #1E (81)"/>
    <tag k="bicycle" v="yes"/>
    <tag k="cycleway" v="lane"/>
    <tag k="highway" v="trunk"/>
    <tag k="lanes" v="2"/>
    <tag k="maxspeed" v="55 mph"/>
    <tag k="name" v="North Martin Luther King Jr Boulevard"/>
    <tag k="name_1" v="State Highway 99E"/>
    <tag k="old_ref" v="US 99E"/>
    <tag k="oneway" v="yes"/>
    <tag k="ref" v="OR 99E"/>
    <tag k="zip_left" v="97217"/>
    <tag k="zip_right" v="97217"/>
  </way>
  <way id="52328307" version="13" timestamp="2011-10-26T22:25:22Z" uid="362111" user="Mele Sax-Barnett" changeset="9664729">
    <nd ref="40515888"/>
    <nd ref="40515890"/>
    <nd ref="40515891"/>
    <nd ref="40515892"/>
    <nd ref="40515895"/>
    <nd ref="40515899"/>
    <nd ref="1146563279"/>
    <tag k="RLIS:bicycle" v="designated"/>
    <tag k="RLIS:localid" v="161014"/>
    <tag k="RLIS:reviewed" v="no"/>
    <tag k="alt_name" v="Pacific Highway East #1E (81)"/>
    <tag k="bicycle" v="yes"/>
    <tag k="cycleway" v="lane"/>
    <tag k="highway" v="trunk"/>
    <tag k="lanes" v="2"/>
    <tag k="maxspeed" v="55 mph"/>
    <tag k="name" v="North Martin Luther King Junior Boulevard"/>
    <tag k="name_1" v="State Highway 99E"/>
    <tag k="old_ref" v="US 99E"/>
    <tag k="oneway" v="yes"/>
    <tag k="ref" v="OR 99E"/>
    <tag k="zip_left" v="97217"/>
    <tag k="zip_right" v="97217"/>
  </way>
  <way id="52328307" version="14" timestamp="2011-11-25T16:58:03Z" uid="207745" user="NE2" changeset="9945867">
    <nd ref="40515888"/>
    <nd ref="40515890"/>
    <nd ref="40515891"/>
    <nd ref="40515892"/>
    <nd ref="40515895"/>
    <nd ref="40515899"/>
    <nd ref="1146563279"/>
    <tag k="RLIS:bicycle" v="designated"/>
    <tag k="RLIS:localid" v="161014"/>
    <tag k="RLIS:reviewed" v="no"/>
    <tag k="alt_name" v="Pacific Highway East #1E (81)"/>
    <tag k="bicycle" v="yes"/>
    <tag k="cycleway" v="lane"/>
    <tag k="hgv" v="designated"/>
    <tag k="hgv:national_network" v="yes"/>
    <tag k="highway" v="trunk"/>
    <tag k="lanes" v="2"/>
    <tag k="maxspeed" v="55 mph"/>
    <tag k="name" v="North Martin Luther King Junior Boulevard"/>
    <tag k="name_1" v="State Highway 99E"/>
    <tag k="old_ref" v="US 99E"/>
    <tag k="oneway" v="yes"/>
    <tag k="ref" v="OR 99E"/>
    <tag k="source:hgv:national_network" v="Title 23: Highways Part 658 http://ecfr.gpoaccess.gov/cgi/t/text/text-idx?c=ecfr&amp;rgn=div5&amp;view=text&amp;node=23:1.0.1.7.33&amp;idno=23"/>
    <tag k="zip_left" v="97217"/>
    <tag k="zip_right" v="97217"/>
  </way>
  <way id="52328307" version="15" timestamp="2011-12-09T00:18:56Z" uid="372357" user="PJ Houser" changeset="10069888">
    <nd ref="40515888"/>
    <nd ref="40515890"/>
    <nd ref="40515891"/>
    <nd ref="40515892"/>
    <nd ref="40515895"/>
    <nd ref="40515899"/>
    <nd ref="1146563279"/>
    <tag k="RLIS:bicycle" v="designated"/>
    <tag k="RLIS:localid" v="161014"/>
    <tag k="RLIS:reviewed" v="no"/>
    <tag k="alt_name" v="Pacific Highway East #1E (81)"/>
    <tag k="bicycle" v="designated"/>
    <tag k="cycleway" v="lane"/>
    <tag k="hgv" v="designated"/>
    <tag k="hgv:national_network" v="yes"/>
    <tag k="highway" v="trunk"/>
    <tag k="lanes" v="2"/>
    <tag k="maxspeed" v="55 mph"/>
    <tag k="name" v="North Martin Luther King Junior Boulevard"/>
    <tag k="name_1" v="State Highway 99E"/>
    <tag k="old_ref" v="US 99E"/>
    <tag k="oneway" v="yes"/>
    <tag k="ref" v="OR 99E"/>
    <tag k="source:hgv:national_network" v="Title 23: Highways Part 658 http://ecfr.gpoaccess.gov/cgi/t/text/text-idx?c=ecfr&amp;rgn=div5&amp;view=text&amp;node=23:1.0.1.7.33&amp;idno=23"/>
    <tag k="zip_left" v="97217"/>
    <tag k="zip_right" v="97217"/>
  </way>
  <way id="52328307" version="16" timestamp="2012-03-15T04:56:27Z" uid="393906" user="Grant Humphries" changeset="10984887">
    <nd ref="40515888"/>
    <nd ref="40515890"/>
    <nd ref="40515891"/>
    <nd ref="40515892"/>
    <nd ref="40515895"/>
    <nd ref="40515899"/>
    <nd ref="1146563279"/>
    <tag k="RLIS:bicycle" v="designated"/>
    <tag k="RLIS:localid" v="161014"/>
    <tag k="RLIS:reviewed" v="no"/>
    <tag k="alt_name" v="Pacific Highway East #1E (81)"/>
    <tag k="bicycle" v="designated"/>
    <tag k="cycleway" v="lane"/>
    <tag k="foot" v="no"/>
    <tag k="hgv" v="designated"/>
    <tag k="hgv:national_network" v="yes"/>
    <tag k="highway" v="trunk"/>
    <tag k="lanes" v="2"/>
    <tag k="maxspeed" v="55 mph"/>
    <tag k="name" v="North Martin Luther King Junior Boulevard"/>
    <tag k="name_1" v="State Highway 99E"/>
    <tag k="old_ref" v="US 99E"/>
    <tag k="oneway" v="yes"/>
    <tag k="ref" v="OR 99E"/>
    <tag k="source:hgv:national_network" v="Title 23: Highways Part 658 http://ecfr.gpoaccess.gov/cgi/t/text/text-idx?c=ecfr&amp;rgn=div5&amp;view=text&amp;node=23:1.0.1.7.33&amp;idno=23"/>
    <tag k="zip_left" v="97217"/>
    <tag k="zip_right" v="97217"/>
  </way>
  <way id="52328307" version="17" timestamp="2012-03-16T19:16:07Z" uid="92286" user="Paul Johnson" changeset="11001433">
    <nd ref="40515888"/>
    <nd ref="40515890"/>
    <nd ref="40515891"/>
    <nd ref="40515892"/>
    <nd ref="40515895"/>
    <nd ref="40515899"/>
    <nd ref="1146563279"/>
    <tag k="RLIS:bicycle" v="designated"/>
    <tag k="RLIS:localid" v="161014"/>
    <tag k="RLIS:reviewed" v="no"/>
    <tag k="alt_name" v="Pacific Highway East #1E (81)"/>
    <tag k="bicycle" v="designated"/>
    <tag k="cycleway" v="lane"/>
    <tag k="foot" v="no"/>
    <tag k="hgv" v="designated"/>
    <tag k="hgv:national_network" v="yes"/>
    <tag k="highway" v="trunk"/>
    <tag k="lanes" v="2"/>
    <tag k="maxspeed" v="55 mph"/>
    <tag k="name" v="North Martin Luther King, Junior Boulevard"/>
    <tag k="name_1" v="State Highway 99E"/>
    <tag k="old_ref" v="US 99E"/>
    <tag k="oneway" v="yes"/>
    <tag k="ref" v="OR 99E"/>
    <tag k="source:hgv:national_network" v="Title 23: Highways Part 658 http://ecfr.gpoaccess.gov/cgi/t/text/text-idx?c=ecfr&amp;rgn=div5&amp;view=text&amp;node=23:1.0.1.7.33&amp;idno=23"/>
    <tag k="zip_left" v="97217"/>
    <tag k="zip_right" v="97217"/>
  </way>
  <way id="52328309" version="2" timestamp="2010-03-22T07:37:10Z" uid="20587" user="balrog-kun" changeset="4199043">
    <nd ref="40515887"/>
    <nd ref="40394654"/>
    <tag k="bridge" v="yes"/>
    <tag k="highway" v="trunk"/>
    <tag k="name" v="Northeast Martin Luther King, Junior Boulevard"/>
    <tag k="name_1" v="State Highway 99E"/>
    <tag k="oneway" v="yes"/>
    <tag k="ref" v="OR99E"/>
    <tag k="tiger:cfcc" v="A35"/>
    <tag k="tiger:county" v="Multnomah, OR"/>
    <tag k="tiger:name_base" v="M L King"/>
    <tag k="tiger:name_base_1" v="State Highway 99E"/>
    <tag k="tiger:name_direction_prefix" v="NE"/>
    <tag k="tiger:reviewed" v="no"/>
    <tag k="tiger:separated" v="yes"/>
    <tag k="tiger:source" v="tiger_import_dch_v0.6_20070808"/>
    <tag k="tiger:tlid" v="157608079:157608080:157608088:157597843:157597758:157596710:157596685:157596686:157596690:157596692:157607981:157596713:157596716"/>
  </way>
  <way id="52328309" version="3" timestamp="2011-01-23T04:08:36Z" uid="92286" user="Paul Johnson" changeset="7057582">
    <nd ref="40515887"/>
    <nd ref="40394654"/>
    <tag k="bridge" v="yes"/>
    <tag k="highway" v="trunk"/>
    <tag k="name" v="Northeast Martin Luther King, Junior Boulevard"/>
    <tag k="name_1" v="State Highway 99E"/>
    <tag k="oneway" v="yes"/>
    <tag k="ref" v="OR99E"/>
    <tag k="tiger:cfcc" v="A35"/>
    <tag k="tiger:county" v="Multnomah, OR"/>
    <tag k="tiger:name_base" v="M L King"/>
    <tag k="tiger:name_base_1" v="State Highway 99E"/>
    <tag k="tiger:name_direction_prefix" v="Northeast"/>
    <tag k="tiger:reviewed" v="no"/>
    <tag k="tiger:separated" v="yes"/>
    <tag k="tiger:source" v="tiger_import_dch_v0.6_20070808"/>
    <tag k="tiger:tlid" v="157608079:157608080:157608088:157597843:157597758:157596710:157596685:157596686:157596690:157596692:157607981:157596713:157596716"/>
  </way>
  <way id="52328309" version="4" timestamp="2011-02-10T19:20:15Z" uid="373763" user="ylekot" changeset="7248485">
    <nd ref="40515887"/>
    <nd ref="40394654"/>
    <tag k="bridge" v="yes"/>
    <tag k="highway" v="motorway"/>
    <tag k="name" v="Northeast Martin Luther King, Junior Boulevard"/>
    <tag k="name_1" v="State Highway 99E"/>
    <tag k="oneway" v="yes"/>
    <tag k="ref" v="OR99E"/>
    <tag k="tiger:cfcc" v="A35"/>
    <tag k="tiger:county" v="Multnomah, OR"/>
    <tag k="tiger:name_base" v="M L King"/>
    <tag k="tiger:name_base_1" v="State Highway 99E"/>
    <tag k="tiger:name_direction_prefix" v="Northeast"/>
    <tag k="tiger:reviewed" v="no"/>
    <tag k="tiger:separated" v="yes"/>
    <tag k="tiger:source" v="tiger_import_dch_v0.6_20070808"/>
    <tag k="tiger:tlid" v="157608079:157608080:157608088:157597843:157597758:157596710:157596685:157596686:157596690:157596692:157607981:157596713:157596716"/>
  </way>
  <way id="52328309" version="5" timestamp="2011-03-26T00:58:34Z" uid="92286" user="Paul Johnson" changeset="7670923">
    <nd ref="40515887"/>
    <nd ref="40394654"/>
    <tag k="bridge" v="yes"/>
    <tag k="highway" v="trunk"/>
    <tag k="name" v="Northeast Martin Luther King, Junior Boulevard"/>
    <tag k="name_1" v="State Highway 99E"/>
    <tag k="oneway" v="yes"/>
    <tag k="ref" v="OR99E"/>
    <tag k="tiger:cfcc" v="A35"/>
    <tag k="tiger:county" v="Multnomah, OR"/>
    <tag k="tiger:name_base" v="M L King"/>
    <tag k="tiger:name_base_1" v="State Highway 99E"/>
    <tag k="tiger:name_direction_prefix" v="Northeast"/>
    <tag k="tiger:reviewed" v="no"/>
    <tag k="tiger:separated" v="yes"/>
    <tag k="tiger:source" v="tiger_import_dch_v0.6_20070808"/>
    <tag k="tiger:tlid" v="157608079:157608080:157608088:157597843:157597758:157596710:157596685:157596686:157596690:157596692:157607981:157596713:157596716"/>
  </way>
  <way id="52328309" version="6" timestamp="2011-06-23T02:08:24Z" uid="473471" user="NE3" changeset="8520254">
    <nd ref="40515887"/>
    <nd ref="40394654"/>
    <tag k="bridge" v="yes"/>
    <tag k="highway" v="trunk"/>
    <tag k="lanes" v="2"/>
    <tag k="name" v="Northeast Martin Luther King, Junior Boulevard"/>
    <tag k="name_1" v="State Highway 99E"/>
    <tag k="oneway" v="yes"/>
    <tag k="ref" v="OR99E"/>
    <tag k="tiger:cfcc" v="A35"/>
    <tag k="tiger:county" v="Multnomah, OR"/>
    <tag k="tiger:name_base" v="M L King"/>
    <tag k="tiger:name_base_1" v="State Highway 99E"/>
    <tag k="tiger:name_direction_prefix" v="Northeast"/>
    <tag k="tiger:reviewed" v="no"/>
    <tag k="tiger:separated" v="yes"/>
    <tag k="tiger:source" v="tiger_import_dch_v0.6_20070808"/>
    <tag k="tiger:tlid" v="157608079:157608080:157608088:157597843:157597758:157596710:157596685:157596686:157596690:157596692:157607981:157596713:157596716"/>
  </way>
  <way id="52328309" version="7" timestamp="2011-08-03T21:31:37Z" uid="362111" user="Mele Sax-Barnett" changeset="8914709"/>
  <way id="52328313" version="2" timestamp="2010-03-22T07:37:10Z" uid="20587" user="balrog-kun" changeset="4199043">
    <nd ref="47227777"/>
    <nd ref="47227783"/>
    <nd ref="47227786"/>
    <nd ref="47227789"/>
    <nd ref="665733807"/>
    <nd ref="47227797"/>
    <tag k="highway" v="residential"/>
    <tag k="name" v="East 5th Street"/>
    <tag k="tiger:cfcc" v="A41"/>
    <tag k="tiger:county" v="Clark, WA"/>
    <tag k="tiger:name_base" v="5th"/>
    <tag k="tiger:name_direction_prefix" v="W"/>
    <tag k="tiger:reviewed" v="no"/>
    <tag k="tiger:separated" v="no"/>
    <tag k="tiger:source" v="tiger_import_dch_v0.6_20070830"/>
    <tag k="tiger:tlid" v="158322216:158325734:158325736:158322218:158325749"/>
    <tag k="tiger:zip_left" v="98660"/>
    <tag k="tiger:zip_right" v="98660"/>
  </way>
  <way id="52328313" version="3" timestamp="2010-03-26T17:48:44Z" uid="20587" user="balrog-kun" changeset="4238822">
    <nd ref="47227777"/>
    <nd ref="47227783"/>
    <nd ref="47227786"/>
    <nd ref="47227789"/>
    <nd ref="665733807"/>
    <nd ref="47227797"/>
    <tag k="highway" v="residential"/>
    <tag k="name" v="West 5th Street"/>
    <tag k="tiger:cfcc" v="A41"/>
    <tag k="tiger:county" v="Clark, WA"/>
    <tag k="tiger:name_base" v="5th"/>
    <tag k="tiger:name_direction_prefix" v="W"/>
    <tag k="tiger:reviewed" v="no"/>
    <tag k="tiger:separated" v="no"/>
    <tag k="tiger:source" v="tiger_import_dch_v0.6_20070830"/>
    <tag k="tiger:tlid" v="158322216:158325734:158325736:158322218:158325749"/>
    <tag k="tiger:zip_left" v="98660"/>
    <tag k="tiger:zip_right" v="98660"/>
  </way>
  <way id="52328313" version="4" timestamp="2011-01-08T01:14:10Z" uid="121241" user="zephyr" changeset="6899364">
    <nd ref="47227777"/>
    <nd ref="47227783"/>
    <nd ref="47227786"/>
    <nd ref="47227789"/>
    <nd ref="47227797"/>
    <tag k="highway" v="residential"/>
    <tag k="name" v="West 5th Street"/>
    <tag k="tiger:cfcc" v="A41"/>
    <tag k="tiger:county" v="Clark, WA"/>
    <tag k="tiger:name_base" v="5th"/>
    <tag k="tiger:name_direction_prefix" v="W"/>
    <tag k="tiger:separated" v="no"/>
    <tag k="tiger:source" v="tiger_import_dch_v0.6_20070830"/>
    <tag k="tiger:tlid" v="158322216:158325734:158325736:158322218:158325749"/>
    <tag k="tiger:zip_left" v="98660"/>
    <tag k="tiger:zip_right" v="98660"/>
  </way>
  <way id="52328313" version="5" timestamp="2011-03-19T20:50:39Z" uid="362111" user="Mele Sax-Barnett" changeset="7609844"/>
  <way id="52328327" version="2" timestamp="2010-03-22T07:37:10Z" uid="20587" user="balrog-kun" changeset="4199043">
    <nd ref="47236458"/>
    <nd ref="665733851"/>
    <nd ref="47230427"/>
    <tag k="highway" v="residential"/>
    <tag k="name" v="West 6th Street"/>
    <tag k="tiger:cfcc" v="A41"/>
    <tag k="tiger:county" v="Clark, WA"/>
    <tag k="tiger:name_base" v="6th"/>
    <tag k="tiger:name_direction_prefix" v="E"/>
    <tag k="tiger:separated" v="no"/>
    <tag k="tiger:source" v="tiger_import_dch_v0.6_20070830"/>
    <tag k="tiger:tlid" v="158325728:158325820"/>
    <tag k="tiger:zip_left" v="98660"/>
    <tag k="tiger:zip_right" v="98660"/>
  </way>
  <way id="52328327" version="3" timestamp="2010-03-26T17:48:44Z" uid="20587" user="balrog-kun" changeset="4238822">
    <nd ref="47236458"/>
    <nd ref="665733851"/>
    <nd ref="47230427"/>
    <tag k="highway" v="residential"/>
    <tag k="name" v="East 6th Street"/>
    <tag k="tiger:cfcc" v="A41"/>
    <tag k="tiger:county" v="Clark, WA"/>
    <tag k="tiger:name_base" v="6th"/>
    <tag k="tiger:name_direction_prefix" v="E"/>
    <tag k="tiger:separated" v="no"/>
    <tag k="tiger:source" v="tiger_import_dch_v0.6_20070830"/>
    <tag k="tiger:tlid" v="158325728:158325820"/>
    <tag k="tiger:zip_left" v="98660"/>
    <tag k="tiger:zip_right" v="98660"/>
  </way>
  <way id="52328327" version="4" timestamp="2011-03-19T22:18:52Z" uid="362111" user="Mele Sax-Barnett" changeset="7610961">
    <nd ref="47236458"/>
    <nd ref="665733851"/>
    <nd ref="47230427"/>
    <tag k="CCGIS:localid" v="113570"/>
    <tag k="CCGIS:reviewed" v="no"/>
    <tag k="highway" v="tertiary"/>
    <tag k="maxspeed" v="25 mph"/>
    <tag k="name" v="East 6th Street"/>
    <tag k="name_base" v="6th"/>
    <tag k="name_direction_prefix" v="East"/>
    <tag k="name_type" v="Street"/>
    <tag k="oneway" v="yes"/>
    <tag k="zip_left" v="98660"/>
    <tag k="zip_right" v="98660"/>
  </way>
  <way id="52328327" version="5" timestamp="2011-12-13T00:37:27Z" uid="372357" user="PJ Houser" changeset="10104385">
    <nd ref="47236458"/>
    <nd ref="665733851"/>
    <nd ref="47230427"/>
    <tag k="CCGIS:localid" v="113570"/>
    <tag k="CCGIS:reviewed" v="no"/>
    <tag k="highway" v="tertiary"/>
    <tag k="maxspeed" v="25 mph"/>
    <tag k="name" v="East 6th Street"/>
    <tag k="oneway" v="yes"/>
    <tag k="zip_left" v="98660"/>
    <tag k="zip_right" v="98660"/>
  </way>
  <way id="52328335" version="2" timestamp="2010-03-22T07:37:10Z" uid="20587" user="balrog-kun" changeset="4199043">
    <nd ref="47262076"/>
    <nd ref="47262080"/>
    <nd ref="47233355"/>
    <nd ref="47262084"/>
    <nd ref="47262088"/>
    <nd ref="47262092"/>
    <nd ref="47262096"/>
    <nd ref="47262101"/>
    <nd ref="47216915"/>
    <nd ref="47262109"/>
    <nd ref="47262113"/>
    <nd ref="47262119"/>
    <nd ref="47262123"/>
    <tag k="highway" v="tertiary"/>
    <tag k="name" v="East 39th Street"/>
    <tag k="tiger:cfcc" v="A41"/>
    <tag k="tiger:county" v="Clark, WA"/>
    <tag k="tiger:name_base" v="39th"/>
    <tag k="tiger:name_direction_prefix" v="W"/>
    <tag k="tiger:reviewed" v="no"/>
    <tag k="tiger:separated" v="no"/>
    <tag k="tiger:source" v="tiger_import_dch_v0.6_20070830"/>
    <tag k="tiger:tlid" v="158321442:158321627:158321633:158321635:158321637:158360492:158321700:158321722:158321725:158324909:158321743:158324947:158324914:158321708:158321646"/>
    <tag k="tiger:zip_left" v="98660"/>
    <tag k="tiger:zip_right" v="98660"/>
  </way>
  <way id="52328335" version="3" timestamp="2010-03-26T17:48:44Z" uid="20587" user="balrog-kun" changeset="4238822">
    <nd ref="47262076"/>
    <nd ref="47262080"/>
    <nd ref="47233355"/>
    <nd ref="47262084"/>
    <nd ref="47262088"/>
    <nd ref="47262092"/>
    <nd ref="47262096"/>
    <nd ref="47262101"/>
    <nd ref="47216915"/>
    <nd ref="47262109"/>
    <nd ref="47262113"/>
    <nd ref="47262119"/>
    <nd ref="47262123"/>
    <tag k="highway" v="tertiary"/>
    <tag k="name" v="West 39th Street"/>
    <tag k="tiger:cfcc" v="A41"/>
    <tag k="tiger:county" v="Clark, WA"/>
    <tag k="tiger:name_base" v="39th"/>
    <tag k="tiger:name_direction_prefix" v="W"/>
    <tag k="tiger:reviewed" v="no"/>
    <tag k="tiger:separated" v="no"/>
    <tag k="tiger:source" v="tiger_import_dch_v0.6_20070830"/>
    <tag k="tiger:tlid" v="158321442:158321627:158321633:158321635:158321637:158360492:158321700:158321722:158321725:158324909:158321743:158324947:158324914:158321708:158321646"/>
    <tag k="tiger:zip_left" v="98660"/>
    <tag k="tiger:zip_right" v="98660"/>
  </way>
  <way id="52328335" version="4" timestamp="2010-10-02T04:48:28Z" uid="97431" user="Dion Dock" changeset="5932923">
    <nd ref="47262076"/>
    <nd ref="47262080"/>
    <nd ref="47233355"/>
    <nd ref="47262084"/>
    <nd ref="47262088"/>
    <nd ref="934399181"/>
    <nd ref="47262092"/>
    <nd ref="47262096"/>
    <nd ref="47262101"/>
    <nd ref="47216915"/>
    <nd ref="47262109"/>
    <nd ref="47262113"/>
    <nd ref="47262119"/>
    <nd ref="47262123"/>
    <tag k="highway" v="tertiary"/>
    <tag k="name" v="West 39th Street"/>
    <tag k="tiger:cfcc" v="A41"/>
    <tag k="tiger:county" v="Clark, WA"/>
    <tag k="tiger:name_base" v="39th"/>
    <tag k="tiger:name_direction_prefix" v="W"/>
    <tag k="tiger:reviewed" v="no"/>
    <tag k="tiger:separated" v="no"/>
    <tag k="tiger:source" v="tiger_import_dch_v0.6_20070830"/>
    <tag k="tiger:tlid" v="158321442:158321627:158321633:158321635:158321637:158360492:158321700:158321722:158321725:158324909:158321743:158324947:158324914:158321708:158321646"/>
    <tag k="tiger:zip_left" v="98660"/>
    <tag k="tiger:zip_right" v="98660"/>
  </way>
  <way id="52328335" version="5" timestamp="2010-10-02T19:28:28Z" uid="97431" user="Dion Dock" changeset="5939019">
    <nd ref="47262076"/>
    <nd ref="47262080"/>
    <nd ref="935578190"/>
    <nd ref="47233355"/>
    <nd ref="47262084"/>
    <nd ref="47262088"/>
    <nd ref="934399181"/>
    <nd ref="47262092"/>
    <nd ref="47262096"/>
    <nd ref="47262101"/>
    <nd ref="47216915"/>
    <nd ref="47262109"/>
    <nd ref="47262113"/>
    <nd ref="47262119"/>
    <nd ref="47262123"/>
    <tag k="highway" v="tertiary"/>
    <tag k="name" v="West 39th Street"/>
    <tag k="tiger:cfcc" v="A41"/>
    <tag k="tiger:county" v="Clark, WA"/>
    <tag k="tiger:name_base" v="39th"/>
    <tag k="tiger:name_direction_prefix" v="W"/>
    <tag k="tiger:reviewed" v="no"/>
    <tag k="tiger:separated" v="no"/>
    <tag k="tiger:source" v="tiger_import_dch_v0.6_20070830"/>
    <tag k="tiger:tlid" v="158321442:158321627:158321633:158321635:158321637:158360492:158321700:158321722:158321725:158324909:158321743:158324947:158324914:158321708:158321646"/>
    <tag k="tiger:zip_left" v="98660"/>
    <tag k="tiger:zip_right" v="98660"/>
  </way>
  <way id="52328335" version="6" timestamp="2011-01-29T07:17:34Z" uid="121241" user="zephyr" changeset="7119482">
    <nd ref="47262076"/>
    <nd ref="47262080"/>
    <nd ref="935578190"/>
    <nd ref="47233355"/>
    <nd ref="47262084"/>
    <nd ref="47262088"/>
    <nd ref="934399181"/>
    <nd ref="47262092"/>
    <nd ref="47262096"/>
    <nd ref="47262101"/>
    <nd ref="47216915"/>
    <nd ref="47262109"/>
    <nd ref="47262113"/>
    <nd ref="1125930440"/>
    <tag k="highway" v="tertiary"/>
    <tag k="name" v="West 39th Street"/>
    <tag k="tiger:cfcc" v="A41"/>
    <tag k="tiger:county" v="Clark, WA"/>
    <tag k="tiger:name_base" v="39th"/>
    <tag k="tiger:name_direction_prefix" v="W"/>
    <tag k="tiger:separated" v="no"/>
    <tag k="tiger:source" v="tiger_import_dch_v0.6_20070830"/>
    <tag k="tiger:tlid" v="158321442:158321627:158321633:158321635:158321637:158360492:158321700:158321722:158321725:158324909:158321743:158324947:158324914:158321708:158321646"/>
    <tag k="tiger:zip_left" v="98660"/>
    <tag k="tiger:zip_right" v="98660"/>
  </way>
  <way id="52328335" version="7" timestamp="2011-03-23T20:02:52Z" uid="362111" user="Mele Sax-Barnett" changeset="7649625">
    <nd ref="47262076"/>
    <nd ref="47262080"/>
    <nd ref="935578190"/>
    <nd ref="47233355"/>
    <nd ref="47262084"/>
    <nd ref="47262088"/>
    <nd ref="934399181"/>
    <nd ref="47262092"/>
    <nd ref="47262096"/>
    <nd ref="47262101"/>
    <nd ref="47216915"/>
    <nd ref="47262109"/>
    <nd ref="47262113"/>
    <nd ref="1125930440"/>
    <tag k="CCGIS:localid" v="89946"/>
    <tag k="CCGIS:reviewed" v="no"/>
    <tag k="highway" v="secondary"/>
    <tag k="maxspeed" v="25 mph"/>
    <tag k="name" v="West 39th Street"/>
    <tag k="name_base" v="39th"/>
    <tag k="name_direction_prefix" v="West"/>
    <tag k="name_type" v="Street"/>
    <tag k="zip_left" v="98660"/>
    <tag k="zip_right" v="98660"/>
  </way>
  <way id="52328335" version="8" timestamp="2011-06-20T16:46:33Z" uid="362111" user="Mele Sax-Barnett" changeset="8496146">
    <nd ref="47262076"/>
    <nd ref="47262080"/>
    <nd ref="935578190"/>
    <nd ref="47233355"/>
    <nd ref="47262084"/>
    <nd ref="47262088"/>
    <nd ref="934399181"/>
    <nd ref="47262092"/>
    <nd ref="47262096"/>
    <tag k="CCGIS:bicycle" v="designated"/>
    <tag k="CCGIS:localid" v="89946"/>
    <tag k="CCGIS:reviewed" v="no"/>
    <tag k="highway" v="secondary"/>
    <tag k="maxspeed" v="25 mph"/>
    <tag k="name" v="West 39th Street"/>
    <tag k="name_base" v="39th"/>
    <tag k="name_direction_prefix" v="West"/>
    <tag k="name_type" v="Street"/>
    <tag k="zip_left" v="98660"/>
    <tag k="zip_right" v="98660"/>
  </way>
  <way id="52328335" version="9" timestamp="2011-12-13T00:29:52Z" uid="372357" user="PJ Houser" changeset="10104359">
    <nd ref="47262076"/>
    <nd ref="47262080"/>
    <nd ref="935578190"/>
    <nd ref="47233355"/>
    <nd ref="47262084"/>
    <nd ref="47262088"/>
    <nd ref="934399181"/>
    <nd ref="47262092"/>
    <nd ref="47262096"/>
    <tag k="CCGIS:bicycle" v="designated"/>
    <tag k="CCGIS:localid" v="89946"/>
    <tag k="CCGIS:reviewed" v="no"/>
    <tag k="bicycle" v="designated"/>
    <tag k="highway" v="secondary"/>
    <tag k="maxspeed" v="25 mph"/>
    <tag k="name" v="West 39th Street"/>
    <tag k="name_base" v="39th"/>
    <tag k="name_direction_prefix" v="West"/>
    <tag k="name_type" v="Street"/>
    <tag k="zip_left" v="98660"/>
    <tag k="zip_right" v="98660"/>
  </way>
  <way id="52328335" version="10" timestamp="2011-12-13T00:45:09Z" uid="372357" user="PJ Houser" changeset="10104385">
    <nd ref="47262076"/>
    <nd ref="47262080"/>
    <nd ref="935578190"/>
    <nd ref="47233355"/>
    <nd ref="47262084"/>
    <nd ref="47262088"/>
    <nd ref="934399181"/>
    <nd ref="47262092"/>
    <nd ref="47262096"/>
    <tag k="CCGIS:bicycle" v="designated"/>
    <tag k="CCGIS:localid" v="89946"/>
    <tag k="CCGIS:reviewed" v="no"/>
    <tag k="bicycle" v="designated"/>
    <tag k="highway" v="secondary"/>
    <tag k="maxspeed" v="25 mph"/>
    <tag k="name" v="West 39th Street"/>
    <tag k="zip_left" v="98660"/>
    <tag k="zip_right" v="98660"/>
  </way>
  <way id="52328337" version="2" timestamp="2010-03-22T07:37:10Z" uid="20587" user="balrog-kun" changeset="4199043">
    <nd ref="47265955"/>
    <nd ref="47210070"/>
    <nd ref="47265962"/>
    <nd ref="356992528"/>
    <nd ref="47265963"/>
    <nd ref="47167001"/>
    <nd ref="47265969"/>
    <nd ref="47265973"/>
    <tag k="highway" v="tertiary"/>
    <tag k="name" v="West 39th Street"/>
    <tag k="tiger:cfcc" v="A41"/>
    <tag k="tiger:county" v="Clark, WA"/>
    <tag k="tiger:name_base" v="39th"/>
    <tag k="tiger:name_direction_prefix" v="E"/>
    <tag k="tiger:reviewed" v="no"/>
    <tag k="tiger:separated" v="no"/>
    <tag k="tiger:source" v="tiger_import_dch_v0.6_20070830"/>
    <tag k="tiger:tlid" v="158347176:158325307:158367162:158369645:158367163:158325297:158325159:158325203:158325204:158326177:158326179"/>
    <tag k="tiger:zip_left" v="98663"/>
    <tag k="tiger:zip_right" v="98663"/>
  </way>
  <way id="52328337" version="3" timestamp="2010-03-26T17:48:45Z" uid="20587" user="balrog-kun" changeset="4238822">
    <nd ref="47265955"/>
    <nd ref="47210070"/>
    <nd ref="47265962"/>
    <nd ref="356992528"/>
    <nd ref="47265963"/>
    <nd ref="47167001"/>
    <nd ref="47265969"/>
    <nd ref="47265973"/>
    <tag k="highway" v="tertiary"/>
    <tag k="name" v="East 39th Street"/>
    <tag k="tiger:cfcc" v="A41"/>
    <tag k="tiger:county" v="Clark, WA"/>
    <tag k="tiger:name_base" v="39th"/>
    <tag k="tiger:name_direction_prefix" v="E"/>
    <tag k="tiger:reviewed" v="no"/>
    <tag k="tiger:separated" v="no"/>
    <tag k="tiger:source" v="tiger_import_dch_v0.6_20070830"/>
    <tag k="tiger:tlid" v="158347176:158325307:158367162:158369645:158367163:158325297:158325159:158325203:158325204:158326177:158326179"/>
    <tag k="tiger:zip_left" v="98663"/>
    <tag k="tiger:zip_right" v="98663"/>
  </way>
  <way id="52328337" version="4" timestamp="2010-05-04T07:39:45Z" uid="28775" user="StellanL" changeset="4601871">
    <nd ref="47265955"/>
    <nd ref="47210070"/>
    <nd ref="47265962"/>
    <nd ref="720589114"/>
    <nd ref="356992528"/>
    <nd ref="47265963"/>
    <nd ref="47167001"/>
    <nd ref="47265969"/>
    <nd ref="47265973"/>
    <tag k="highway" v="tertiary"/>
    <tag k="name" v="East 39th Street"/>
    <tag k="tiger:cfcc" v="A41"/>
    <tag k="tiger:county" v="Clark, WA"/>
    <tag k="tiger:name_base" v="39th"/>
    <tag k="tiger:name_direction_prefix" v="E"/>
    <tag k="tiger:reviewed" v="no"/>
    <tag k="tiger:separated" v="no"/>
    <tag k="tiger:source" v="tiger_import_dch_v0.6_20070830"/>
    <tag k="tiger:tlid" v="158347176:158325307:158367162:158369645:158367163:158325297:158325159:158325203:158325204:158326177:158326179"/>
    <tag k="tiger:zip_left" v="98663"/>
    <tag k="tiger:zip_right" v="98663"/>
  </way>
  <way id="52328337" version="5" timestamp="2010-09-29T04:23:39Z" uid="97431" user="Dion Dock" changeset="5908617"/>
  <way id="52328343" version="2" timestamp="2010-03-22T07:37:10Z" uid="20587" user="balrog-kun" changeset="4199043">
    <nd ref="261681996"/>
    <nd ref="665733876"/>
    <nd ref="47370414"/>
    <nd ref="442665462"/>
    <tag k="highway" v="tertiary"/>
    <tag k="name" v="Northeast 20th Avenue"/>
    <tag k="tiger:cfcc" v="A41"/>
    <tag k="tiger:county" v="Clark, WA"/>
    <tag k="tiger:name_base" v="20th"/>
    <tag k="tiger:name_direction_prefix" v="NE"/>
    <tag k="tiger:reviewed" v="no"/>
    <tag k="tiger:separated" v="no"/>
    <tag k="tiger:source" v="tiger_import_dch_v0.6_20070830"/>
    <tag k="tiger:tlid" v="158360228:158360229:158322310:158322632:158322637:158338915:158322641:158337560:158323050:158322313"/>
    <tag k="tiger:zip_left" v="98686"/>
    <tag k="tiger:zip_right" v="98686"/>
  </way>
  <way id="52328343" version="3" timestamp="2011-03-21T18:41:09Z" uid="362111" user="Mele Sax-Barnett" changeset="7630323">
    <nd ref="261681996"/>
    <nd ref="665733876"/>
    <nd ref="1212258230"/>
    <nd ref="47370414"/>
    <tag k="CCGIS:localid" v="89005"/>
    <tag k="CCGIS:reviewed" v="no"/>
    <tag k="highway" v="primary"/>
    <tag k="maxspeed" v="40 mph"/>
    <tag k="name" v="Northeast 20th Avenue"/>
    <tag k="name_base" v="20th"/>
    <tag k="name_direction_prefix" v="Northeast"/>
    <tag k="name_type" v="Avenue"/>
    <tag k="zip_left" v="98686"/>
    <tag k="zip_right" v="98686"/>
  </way>
  <way id="52328343" version="4" timestamp="2011-06-20T17:40:26Z" uid="362111" user="Mele Sax-Barnett" changeset="8496667">
    <nd ref="261681996"/>
    <nd ref="665733876"/>
    <nd ref="1212258230"/>
    <nd ref="47370414"/>
    <tag k="CCGIS:bicycle" v="designated"/>
    <tag k="CCGIS:localid" v="89005"/>
    <tag k="CCGIS:reviewed" v="no"/>
    <tag k="cycleway" v="lane"/>
    <tag k="highway" v="primary"/>
    <tag k="maxspeed" v="40 mph"/>
    <tag k="name" v="Northeast 20th Avenue"/>
    <tag k="name_base" v="20th"/>
    <tag k="name_direction_prefix" v="Northeast"/>
    <tag k="name_type" v="Avenue"/>
    <tag k="zip_left" v="98686"/>
    <tag k="zip_right" v="98686"/>
  </way>
  <way id="52328343" version="5" timestamp="2011-12-10T02:09:50Z" uid="372357" user="PJ Houser" changeset="10078044">
    <nd ref="261681996"/>
    <nd ref="665733876"/>
    <nd ref="1212258230"/>
    <nd ref="47370414"/>
    <tag k="CCGIS:bicycle" v="designated"/>
    <tag k="CCGIS:localid" v="89005"/>
    <tag k="CCGIS:reviewed" v="no"/>
    <tag k="cycleway" v="lane"/>
    <tag k="highway" v="primary"/>
    <tag k="maxspeed" v="40 mph"/>
    <tag k="name" v="Northeast 20th Avenue"/>
    <tag k="zip_left" v="98686"/>
    <tag k="zip_right" v="98686"/>
  </way>
  <way id="52328343" version="6" timestamp="2011-12-10T02:27:42Z" uid="372357" user="PJ Houser" changeset="10078089">
    <nd ref="261681996"/>
    <nd ref="665733876"/>
    <nd ref="1212258230"/>
    <nd ref="47370414"/>
    <tag k="CCGIS:bicycle" v="designated"/>
    <tag k="CCGIS:localid" v="89005"/>
    <tag k="CCGIS:reviewed" v="no"/>
    <tag k="bicycle" v="designated"/>
    <tag k="cycleway" v="lane"/>
    <tag k="highway" v="primary"/>
    <tag k="maxspeed" v="40 mph"/>
    <tag k="name" v="Northeast 20th Avenue"/>
    <tag k="zip_left" v="98686"/>
    <tag k="zip_right" v="98686"/>
  </way>
  <way id="52328382" version="2" timestamp="2010-03-27T13:27:01Z" uid="74617" user="JohnSmith" changeset="4246444">
    <nd ref="13145170"/>
    <nd ref="13145191"/>
    <nd ref="13145192"/>
    <nd ref="635777835"/>
    <nd ref="635777836"/>
    <nd ref="13145193"/>
    <nd ref="13145194"/>
    <nd ref="635777837"/>
    <nd ref="13145195"/>
    <tag k="bridge" v="yes"/>
    <tag k="layer" v="1"/>
    <tag k="railway" v="rail"/>
    <tag k="source" v="nearmap"/>
  </way>
  <way id="52328383" version="2" timestamp="2010-03-27T17:25:26Z" uid="74617" user="JohnSmith" changeset="4248780">
    <nd ref="635777811"/>
    <nd ref="676065015"/>
    <nd ref="13145436"/>
    <nd ref="676064986"/>
    <nd ref="13145437"/>
    <nd ref="676064990"/>
    <nd ref="13145447"/>
    <nd ref="13145449"/>
    <nd ref="13145450"/>
    <nd ref="13145454"/>
    <nd ref="635777816"/>
    <nd ref="13145457"/>
    <nd ref="635777817"/>
    <nd ref="13145461"/>
    <nd ref="635777818"/>
    <nd ref="635777819"/>
    <tag k="name" v="Main Western Line"/>
    <tag k="railway" v="rail"/>
    <tag k="source" v="survey"/>
  </way>
  <way id="52328383" version="3" timestamp="2010-03-27T17:48:32Z" uid="74617" user="JohnSmith" changeset="4249048">
    <nd ref="635777811"/>
    <nd ref="676065015"/>
    <nd ref="13145436"/>
    <nd ref="676064986"/>
    <nd ref="13145437"/>
    <nd ref="676064990"/>
    <nd ref="13145447"/>
    <nd ref="13145449"/>
    <nd ref="13145450"/>
    <nd ref="13145454"/>
    <nd ref="635777816"/>
    <nd ref="13145457"/>
    <nd ref="635777817"/>
    <nd ref="13145461"/>
    <nd ref="635777818"/>
    <nd ref="635777819"/>
    <tag k="railway" v="rail"/>
    <tag k="source" v="nearmap"/>
  </way>
  <way id="52328403" version="2" timestamp="2010-07-07T10:37:50Z" uid="74617" user="JohnSmith" changeset="5157498">
    <nd ref="257513231"/>
    <nd ref="257512727"/>
    <nd ref="257512906"/>
    <nd ref="257512716"/>
    <nd ref="257513051"/>
    <nd ref="637936331"/>
    <nd ref="637936334"/>
    <nd ref="257513410"/>
    <nd ref="257510640"/>
    <nd ref="257512510"/>
    <tag k="highway" v="residential"/>
    <tag k="maxspeed" v="50"/>
    <tag k="maxspeed:source" v="default residential speed limit in Australia"/>
    <tag k="name" v="Bong Bong Road"/>
    <tag k="source" v="GPS"/>
  </way>
  <way id="52328403" version="3" timestamp="2011-08-14T04:24:06Z" uid="124310" user="Babstar" changeset="9011551">
    <nd ref="257513231"/>
    <nd ref="257512727"/>
    <nd ref="257512906"/>
    <nd ref="257512716"/>
    <nd ref="1398072570"/>
    <nd ref="257513051"/>
    <nd ref="637936331"/>
    <nd ref="637936334"/>
    <nd ref="257513410"/>
    <nd ref="257510640"/>
    <nd ref="257512510"/>
    <tag k="highway" v="residential"/>
    <tag k="maxspeed" v="50"/>
    <tag k="maxspeed:source" v="default residential speed limit in Australia"/>
    <tag k="name" v="Bong Bong Road"/>
    <tag k="source" v="GPS"/>
  </way>
  <way id="52328403" version="4" timestamp="2012-01-20T03:48:09Z" uid="147510" user="woodpeck_fixbot" changeset="10442986">
    <nd ref="257513231"/>
    <nd ref="257512727"/>
    <nd ref="257512906"/>
    <nd ref="257512716"/>
    <nd ref="1398072570"/>
    <nd ref="257513051"/>
    <nd ref="637936331"/>
    <nd ref="637936334"/>
    <nd ref="257513410"/>
    <nd ref="257510640"/>
    <nd ref="257512510"/>
    <tag k="highway" v="residential"/>
    <tag k="name" v="Bong Bong Road"/>
    <tag k="source" v="GPS"/>
  </way>
  <way id="52328462" version="3" timestamp="2010-03-28T11:53:40Z" uid="20587" user="balrog-kun" changeset="4254597">
    <nd ref="665735704"/>
    <nd ref="666730721"/>
    <nd ref="666730724"/>
    <nd ref="665735705"/>
    <nd ref="665735706"/>
    <nd ref="665735707"/>
    <nd ref="665735708"/>
    <nd ref="665735709"/>
    <tag k="highway" v="residential"/>
    <tag k="name" v="Park Street"/>
  </way>
  <way id="52328462" version="4" timestamp="2012-03-08T02:40:30Z" uid="153669" user="dchiles" changeset="10905706"/>
  <way id="52328465" version="3" timestamp="2010-03-28T11:53:40Z" uid="20587" user="balrog-kun" changeset="4254597">
    <nd ref="665735761"/>
    <nd ref="666730716"/>
    <nd ref="666730771"/>
    <nd ref="665735762"/>
    <nd ref="665735763"/>
    <nd ref="666730747"/>
    <nd ref="665735764"/>
    <tag k="highway" v="residential"/>
    <tag k="name" v="Main Street"/>
  </way>
  <way id="52328465" version="4" timestamp="2012-03-08T02:40:29Z" uid="153669" user="dchiles" changeset="10905706"/>
  <way id="52328467" version="3" timestamp="2010-03-28T11:53:40Z" uid="20587" user="balrog-kun" changeset="4254597">
    <nd ref="665735765"/>
    <nd ref="666730778"/>
    <nd ref="666730775"/>
    <nd ref="666730776"/>
    <nd ref="665735766"/>
    <nd ref="665735767"/>
    <nd ref="665735768"/>
    <nd ref="665735769"/>
    <nd ref="665735770"/>
    <nd ref="665735763"/>
    <tag k="highway" v="residential"/>
    <tag k="name" v="Earnest Street"/>
  </way>
  <way id="52328467" version="4" timestamp="2012-03-08T02:40:28Z" uid="153669" user="dchiles" changeset="10905706"/>
  <way id="52328469" version="3" timestamp="2010-03-28T11:53:40Z" uid="20587" user="balrog-kun" changeset="4254597">
    <nd ref="665735786"/>
    <nd ref="665735787"/>
    <nd ref="666730727"/>
    <nd ref="665735788"/>
    <nd ref="665735789"/>
    <nd ref="665735790"/>
    <nd ref="665735791"/>
    <nd ref="665735709"/>
    <nd ref="665735792"/>
    <nd ref="665735793"/>
    <nd ref="665735764"/>
    <nd ref="666730745"/>
    <nd ref="665735794"/>
    <nd ref="665735795"/>
    <nd ref="665735796"/>
    <nd ref="665735797"/>
    <nd ref="665735798"/>
    <nd ref="666730774"/>
    <nd ref="666730773"/>
    <nd ref="666730730"/>
    <nd ref="666730777"/>
    <nd ref="665735785"/>
    <tag k="highway" v="residential"/>
    <tag k="name" v="Promenade Street"/>
  </way>
  <way id="52328469" version="4" timestamp="2012-03-08T02:40:30Z" uid="153669" user="dchiles" changeset="10905706"/>
  <way id="52328565" version="1" timestamp="2010-03-14T08:38:54Z" uid="74617" user="JohnSmith" changeset="4121771">
    <nd ref="360583731"/>
    <nd ref="665728710"/>
    <tag k="highway" v="primary"/>
    <tag k="name" v="Norrie Avenue"/>
  </way>
  <way id="52328565" version="2" timestamp="2011-02-21T19:34:46Z" uid="313533" user="pierrehaselgrove" changeset="7357246">
    <nd ref="1164191275"/>
    <nd ref="1165607894"/>
    <nd ref="1165607949"/>
    <nd ref="1165607812"/>
    <nd ref="1165607850"/>
    <nd ref="1165607876"/>
    <nd ref="1165607925"/>
    <nd ref="1165607960"/>
    <nd ref="1165607822"/>
    <nd ref="1165607856"/>
    <nd ref="1165607814"/>
    <nd ref="1165607853"/>
    <nd ref="1165607881"/>
    <nd ref="1165607938"/>
    <nd ref="1165607803"/>
    <nd ref="1165607826"/>
    <nd ref="665727988"/>
    <nd ref="1165607902"/>
    <nd ref="1165607955"/>
    <nd ref="1165607817"/>
    <nd ref="1165607854"/>
    <nd ref="1165607887"/>
    <nd ref="1165607944"/>
    <nd ref="1165607808"/>
    <nd ref="1165607846"/>
    <nd ref="1165607873"/>
    <nd ref="1165607877"/>
    <nd ref="1165607934"/>
    <nd ref="1165607858"/>
    <nd ref="360583731"/>
    <nd ref="1165607870"/>
    <nd ref="1165607839"/>
    <nd ref="1165588218"/>
    <nd ref="1165607806"/>
    <nd ref="665728710"/>
    <tag k="highway" v="primary"/>
    <tag k="name" v="Norrie Avenue"/>
    <tag k="oneway" v="yes"/>
    <tag k="source" v="Bing"/>
    <tag k="surface" v="asphalt"/>
  </way>
  <way id="52328565" version="3" timestamp="2011-02-21T19:53:15Z" uid="313533" user="pierrehaselgrove" changeset="7357443">
    <nd ref="1164191275"/>
    <nd ref="1165607894"/>
    <nd ref="1165607949"/>
    <nd ref="1165607812"/>
    <nd ref="1165607850"/>
    <nd ref="1165607876"/>
    <nd ref="1165607925"/>
    <nd ref="1165607960"/>
    <nd ref="1165607822"/>
    <nd ref="1165607856"/>
    <nd ref="1165607814"/>
    <nd ref="1165607853"/>
    <nd ref="1165643866"/>
    <nd ref="1165643974"/>
    <nd ref="1165607881"/>
    <nd ref="1165607938"/>
    <nd ref="1165607803"/>
    <nd ref="1165607826"/>
    <nd ref="665727988"/>
    <nd ref="1165607902"/>
    <nd ref="1165607955"/>
    <nd ref="1165607817"/>
    <nd ref="1165607854"/>
    <nd ref="1165607887"/>
    <nd ref="1165607944"/>
    <nd ref="1165607808"/>
    <nd ref="1165607846"/>
    <nd ref="1165607873"/>
    <nd ref="1165607877"/>
    <nd ref="1165607934"/>
    <nd ref="1165607858"/>
    <nd ref="360583731"/>
    <nd ref="1165607870"/>
    <nd ref="1165607839"/>
    <nd ref="1165588218"/>
    <nd ref="1165607806"/>
    <nd ref="665728710"/>
    <tag k="highway" v="primary"/>
    <tag k="name" v="Norrie Avenue"/>
    <tag k="oneway" v="yes"/>
    <tag k="source" v="Bing"/>
    <tag k="surface" v="asphalt"/>
  </way>
  <way id="52328565" version="4" timestamp="2011-02-22T17:03:03Z" uid="313533" user="pierrehaselgrove" changeset="7365192">
    <nd ref="1164191275"/>
    <nd ref="1165607894"/>
    <nd ref="1165607949"/>
    <nd ref="1165607812"/>
    <nd ref="1165607850"/>
    <nd ref="1165607876"/>
    <nd ref="1165607925"/>
    <nd ref="1165607960"/>
    <nd ref="1165607822"/>
    <nd ref="1165607856"/>
    <nd ref="1165607814"/>
    <nd ref="1165607853"/>
    <nd ref="1165643866"/>
    <nd ref="1165643974"/>
    <nd ref="1166719362"/>
    <nd ref="1165607881"/>
    <nd ref="1165607938"/>
    <nd ref="1165607803"/>
    <nd ref="1165607826"/>
    <nd ref="1166719356"/>
    <nd ref="665727988"/>
    <nd ref="1165607902"/>
    <nd ref="1165607955"/>
    <nd ref="1165607817"/>
    <nd ref="1165607854"/>
    <nd ref="1165607887"/>
    <nd ref="1165607944"/>
    <nd ref="1165607808"/>
    <nd ref="1165607846"/>
    <nd ref="1165607873"/>
    <nd ref="1165607877"/>
    <nd ref="1165607934"/>
    <nd ref="1165607858"/>
    <nd ref="360583731"/>
    <nd ref="1165607870"/>
    <nd ref="1165607839"/>
    <nd ref="1165588218"/>
    <nd ref="1165607806"/>
    <nd ref="665728710"/>
    <tag k="highway" v="primary"/>
    <tag k="name" v="Norrie Avenue"/>
    <tag k="oneway" v="yes"/>
    <tag k="source" v="Bing"/>
    <tag k="surface" v="asphalt"/>
  </way>
  <way id="52328565" version="5" timestamp="2011-02-22T20:48:30Z" uid="313533" user="pierrehaselgrove" changeset="7367395">
    <nd ref="1164191275"/>
    <nd ref="1165607894"/>
    <nd ref="1165607949"/>
    <nd ref="1165607812"/>
    <nd ref="1165607850"/>
    <nd ref="1165607876"/>
    <nd ref="1165607925"/>
    <nd ref="1165607960"/>
    <nd ref="1165607822"/>
    <nd ref="1165607856"/>
    <nd ref="1165607814"/>
    <nd ref="1165607853"/>
    <nd ref="1165643866"/>
    <nd ref="1165643974"/>
    <nd ref="1166719362"/>
    <nd ref="1165607881"/>
    <nd ref="1165607938"/>
    <nd ref="1165607803"/>
    <nd ref="1165607826"/>
    <nd ref="1166719356"/>
    <nd ref="665727988"/>
    <nd ref="1165607902"/>
    <nd ref="1165607955"/>
    <nd ref="1167033923"/>
    <nd ref="1165607817"/>
    <nd ref="1165607854"/>
    <nd ref="1165607887"/>
    <nd ref="1165607944"/>
    <nd ref="1165607808"/>
    <nd ref="1165607846"/>
    <nd ref="1165607873"/>
    <nd ref="1165607877"/>
    <nd ref="1165607934"/>
    <nd ref="1165607858"/>
    <nd ref="360583731"/>
    <nd ref="1165607870"/>
    <nd ref="1165607839"/>
    <nd ref="1165588218"/>
    <nd ref="1165607806"/>
    <nd ref="665728710"/>
    <tag k="highway" v="primary"/>
    <tag k="name" v="Norrie Avenue"/>
    <tag k="oneway" v="yes"/>
    <tag k="source" v="Bing"/>
    <tag k="surface" v="asphalt"/>
  </way>
  <way id="52328565" version="6" timestamp="2011-02-22T20:50:20Z" uid="313533" user="pierrehaselgrove" changeset="7367409">
    <nd ref="1164191275"/>
    <nd ref="1165607894"/>
    <nd ref="1165607949"/>
    <nd ref="1165607812"/>
    <nd ref="1165607850"/>
    <nd ref="1165607876"/>
    <nd ref="1165607925"/>
    <nd ref="1165607960"/>
    <nd ref="1165607822"/>
    <nd ref="1165607856"/>
    <nd ref="1165607814"/>
    <nd ref="1165607853"/>
    <nd ref="1165643866"/>
    <nd ref="1165643974"/>
    <nd ref="1166719362"/>
    <nd ref="1165607881"/>
    <nd ref="1165607938"/>
    <nd ref="1165607803"/>
    <nd ref="1165607826"/>
    <nd ref="1166719356"/>
    <nd ref="665727988"/>
    <nd ref="1165607902"/>
    <nd ref="1165607955"/>
    <nd ref="1167033923"/>
    <nd ref="1165607817"/>
    <nd ref="1165607854"/>
    <nd ref="1167036274"/>
    <nd ref="1165607887"/>
    <nd ref="1165607944"/>
    <nd ref="1165607808"/>
    <nd ref="1165607846"/>
    <nd ref="1165607873"/>
    <nd ref="1165607877"/>
    <nd ref="1165607934"/>
    <nd ref="1165607858"/>
    <nd ref="360583731"/>
    <nd ref="1165607870"/>
    <nd ref="1165607839"/>
    <nd ref="1165588218"/>
    <nd ref="1165607806"/>
    <nd ref="665728710"/>
    <tag k="highway" v="primary"/>
    <tag k="name" v="Norrie Avenue"/>
    <tag k="oneway" v="yes"/>
    <tag k="source" v="Bing"/>
    <tag k="surface" v="asphalt"/>
  </way>
  <way id="52328565" version="7" timestamp="2011-02-24T17:45:36Z" uid="313533" user="pierrehaselgrove" changeset="7383600">
    <nd ref="1164191275"/>
    <nd ref="1165607894"/>
    <nd ref="1165607949"/>
    <nd ref="1165607812"/>
    <nd ref="1165607850"/>
    <nd ref="1165607876"/>
    <nd ref="1165607925"/>
    <nd ref="1165607960"/>
    <nd ref="1165607822"/>
    <nd ref="1165607856"/>
    <nd ref="1165607814"/>
    <nd ref="1165607853"/>
    <nd ref="1165643866"/>
    <nd ref="1165643974"/>
    <nd ref="1166719362"/>
    <nd ref="1165607881"/>
    <nd ref="1165607938"/>
    <nd ref="1165607803"/>
    <nd ref="1165607826"/>
    <nd ref="1166719356"/>
    <nd ref="665727988"/>
    <nd ref="1165607902"/>
    <nd ref="1165607955"/>
    <nd ref="1167033923"/>
    <nd ref="1165607817"/>
    <nd ref="1165607854"/>
    <nd ref="1167036274"/>
    <nd ref="1170564456"/>
    <nd ref="1165607887"/>
    <nd ref="1165607944"/>
    <nd ref="1165607808"/>
    <nd ref="1165607846"/>
    <nd ref="1165607873"/>
    <nd ref="1165607877"/>
    <nd ref="1165607934"/>
    <nd ref="1165607858"/>
    <nd ref="360583731"/>
    <nd ref="1165607870"/>
    <nd ref="1165607839"/>
    <nd ref="1165588218"/>
    <nd ref="1165607806"/>
    <nd ref="665728710"/>
    <tag k="highway" v="primary"/>
    <tag k="name" v="Norrie Avenue"/>
    <tag k="oneway" v="yes"/>
    <tag k="source" v="Bing"/>
    <tag k="surface" v="asphalt"/>
  </way>
  <way id="52328565" version="8" timestamp="2011-10-04T18:21:42Z" uid="338866" user="tiger" changeset="9471900">
    <nd ref="1164191275"/>
    <nd ref="1165607894"/>
    <nd ref="1165607949"/>
    <nd ref="1165607850"/>
    <nd ref="1165607925"/>
    <nd ref="1165607960"/>
    <nd ref="1165607822"/>
    <nd ref="1165607856"/>
    <nd ref="1165607814"/>
    <nd ref="1165607853"/>
    <nd ref="1165643866"/>
    <nd ref="1165643974"/>
    <nd ref="1166719362"/>
    <nd ref="1165607881"/>
    <nd ref="1165607803"/>
    <nd ref="1165607826"/>
    <nd ref="1166719356"/>
    <nd ref="665727988"/>
    <nd ref="1165607902"/>
    <nd ref="1165607955"/>
    <nd ref="1167033923"/>
    <nd ref="1165607817"/>
    <nd ref="1165607854"/>
    <nd ref="1167036274"/>
    <nd ref="1170564456"/>
    <nd ref="1165607944"/>
    <nd ref="1165607808"/>
    <nd ref="1165607846"/>
    <nd ref="1165607873"/>
    <nd ref="1165607877"/>
    <nd ref="1165607934"/>
    <nd ref="1165607858"/>
    <nd ref="360583731"/>
    <nd ref="1165607870"/>
    <nd ref="1165607839"/>
    <nd ref="1165588218"/>
    <nd ref="1165607806"/>
    <nd ref="665728710"/>
    <tag k="highway" v="primary"/>
    <tag k="name" v="Norrie Avenue"/>
    <tag k="oneway" v="yes"/>
    <tag k="source" v="Bing"/>
    <tag k="surface" v="asphalt"/>
  </way>
  <way id="52328565" version="9" timestamp="2012-02-05T03:25:58Z" uid="147510" user="woodpeck_fixbot" changeset="10590160">
    <nd ref="1164191275"/>
    <nd ref="1165607894"/>
    <nd ref="1165607949"/>
    <nd ref="1165607850"/>
    <nd ref="1165607925"/>
    <nd ref="1165607960"/>
    <nd ref="1165607822"/>
    <nd ref="1165607856"/>
    <nd ref="1165607814"/>
    <nd ref="1165607853"/>
    <nd ref="1165643866"/>
    <nd ref="1165643974"/>
    <nd ref="1166719362"/>
    <nd ref="1165607881"/>
    <nd ref="1165607803"/>
    <nd ref="1165607826"/>
    <nd ref="1166719356"/>
    <nd ref="665727988"/>
    <nd ref="1165607902"/>
    <nd ref="1165607955"/>
    <nd ref="1167033923"/>
    <nd ref="1165607817"/>
    <nd ref="1165607854"/>
    <nd ref="1167036274"/>
    <nd ref="1170564456"/>
    <nd ref="1165607944"/>
    <nd ref="1165607808"/>
    <nd ref="1165607846"/>
    <nd ref="1165607873"/>
    <nd ref="1165607877"/>
    <nd ref="1165607934"/>
    <nd ref="1165607858"/>
    <nd ref="1165607870"/>
    <nd ref="1165607839"/>
    <nd ref="1165588218"/>
    <nd ref="1165607806"/>
    <nd ref="665728710"/>
    <tag k="highway" v="primary"/>
    <tag k="name" v="Norrie Avenue"/>
    <tag k="oneway" v="yes"/>
    <tag k="source" v="Bing"/>
    <tag k="surface" v="asphalt"/>
  </way>
  <way id="52328630" version="2" timestamp="2010-03-22T07:37:11Z" uid="20587" user="balrog-kun" changeset="4199043">
    <nd ref="665737988"/>
    <nd ref="40447727"/>
    <nd ref="40447730"/>
    <nd ref="40447733"/>
    <nd ref="40447736"/>
    <nd ref="40447740"/>
    <nd ref="40447743"/>
    <tag k="bicycle" v="designated"/>
    <tag k="highway" v="tertiary"/>
    <tag k="name" v="Northeast Marine Drive"/>
  </way>
  <way id="52328630" version="3" timestamp="2011-03-11T03:53:10Z" uid="92286" user="Paul Johnson" changeset="7520204">
    <nd ref="665737988"/>
    <nd ref="40447727"/>
    <tag k="bicycle" v="designated"/>
    <tag k="highway" v="tertiary"/>
    <tag k="name" v="Northeast Marine Drive"/>
  </way>
  <way id="52328630" version="4" timestamp="2011-08-04T18:20:12Z" uid="362111" user="Mele Sax-Barnett" changeset="8922069">
    <nd ref="665737988"/>
    <nd ref="40447727"/>
    <tag k="RLIS:localid" v="133105"/>
    <tag k="RLIS:reviewed" v="no"/>
    <tag k="bicycle" v="designated"/>
    <tag k="cycleway" v="lane"/>
    <tag k="highway" v="primary"/>
    <tag k="name" v="Northeast Marine Drive"/>
    <tag k="name_base" v="Marine"/>
    <tag k="name_direction_prefix" v="Northeast"/>
    <tag k="name_type" v="Drive"/>
    <tag k="zip_left" v="97220"/>
    <tag k="zip_right" v="97220"/>
  </way>
  <way id="52328630" version="5" timestamp="2011-10-05T21:01:26Z" uid="372357" user="PJ Houser" changeset="9481687">
    <nd ref="665737988"/>
    <nd ref="40447727"/>
    <tag k="RLIS:bicycle" v="designated"/>
    <tag k="RLIS:localid" v="133105"/>
    <tag k="RLIS:reviewed" v="no"/>
    <tag k="bicycle" v="designated"/>
    <tag k="cycleway" v="lane"/>
    <tag k="highway" v="primary"/>
    <tag k="name" v="Northeast Marine Drive"/>
    <tag k="zip_left" v="97220"/>
    <tag k="zip_right" v="97220"/>
  </way>
  <way id="52328630" version="6" timestamp="2011-10-26T22:25:26Z" uid="362111" user="Mele Sax-Barnett" changeset="9664729">
    <nd ref="665737988"/>
    <nd ref="40447727"/>
    <tag k="RLIS:bicycle" v="designated"/>
    <tag k="RLIS:localid" v="133105"/>
    <tag k="RLIS:reviewed" v="no"/>
    <tag k="bicycle" v="designated"/>
    <tag k="cycleway" v="lane"/>
    <tag k="highway" v="primary"/>
    <tag k="maxspeed" v="45 mph"/>
    <tag k="name" v="Northeast Marine Drive"/>
    <tag k="zip_left" v="97220"/>
    <tag k="zip_right" v="97220"/>
  </way>
</osm>
