<?xml version='1.0' encoding='UTF-8'?>
<osm version="0.6" generator="libosmium/2.20.0">
  <way id="52330022" version="2" timestamp="2010-07-09T06:22:01Z" uid="74617" user="JohnSmith" changeset="5171134">
    <nd ref="665747158"/>
    <nd ref="665747159"/>
    <tag k="highway" v="residential"/>
    <tag k="maxspeed" v="50"/>
    <tag k="maxspeed:source" v="default residential speed limit in Australia"/>
    <tag k="name" v="Marion Street"/>
  </way>
  <way id="52330022" version="3" timestamp="2012-01-20T03:48:14Z" uid="147510" user="woodpeck_fixbot" changeset="10442986">
    <nd ref="665747158"/>
    <nd ref="665747159"/>
    <tag k="highway" v="residential"/>
    <tag k="name" v="Marion Street"/>
  </way>
  <way id="52330025" version="3" timestamp="2011-04-15T10:45:17Z" uid="4467" user="Rosscoe" changeset="7868461"/>
  <way id="52330033" version="2" timestamp="2011-04-15T10:45:06Z" uid="4467" user="Rosscoe" changeset="7868461">
    <nd ref="1245384915"/>
    <nd ref="665747179"/>
    <nd ref="665746906"/>
    <tag k="highway" v="unclassified"/>
    <tag k="name" v="Paramount Boulevard"/>
    <tag k="oneway" v="yes"/>
    <tag k="source" v="nearmap"/>
  </way>
  <way id="52330054" version="1" timestamp="2010-03-14T09:27:23Z" uid="74617" user="JohnSmith" changeset="4122113">
    <nd ref="665747307"/>
    <nd ref="665747308"/>
    <nd ref="665747309"/>
    <nd ref="665747304"/>
    <nd ref="665747305"/>
    <nd ref="665747306"/>
    <nd ref="665747299"/>
    <nd ref="665747300"/>
    <nd ref="665747301"/>
    <nd ref="665747302"/>
    <nd ref="665747303"/>
    <tag k="admin_level" v="10"/>
    <tag k="attribution" v="Based on Australian Bureau of Statistics data"/>
    <tag k="boundary" v="administrative"/>
    <tag k="source" v="ABS_2006"/>
  </way>
  <way id="52330054" version="2" timestamp="2010-03-19T23:32:22Z" uid="79475" user="AlexOnTheBus" changeset="4175486">
    <nd ref="665747307"/>
    <nd ref="665747308"/>
    <nd ref="665747309"/>
    <nd ref="670077697"/>
    <nd ref="670077698"/>
    <nd ref="670077699"/>
    <nd ref="670077700"/>
    <nd ref="665747304"/>
    <nd ref="665747305"/>
    <nd ref="665747306"/>
    <nd ref="665747299"/>
    <nd ref="665747300"/>
    <nd ref="665747301"/>
    <nd ref="665747302"/>
    <nd ref="665747303"/>
    <tag k="admin_level" v="10"/>
    <tag k="attribution" v="Based on Australian Bureau of Statistics data"/>
    <tag k="boundary" v="administrative"/>
    <tag k="source" v="ABS_2006"/>
  </way>
  <way id="52330054" version="3" timestamp="2012-02-29T19:47:34Z" uid="12434" user="nm7s9" changeset="10831479"/>
  <way id="52330055" version="1" timestamp="2010-03-14T09:27:23Z" uid="74617" user="JohnSmith" changeset="4122113">
    <nd ref="665747307"/>
    <nd ref="354762027"/>
    <nd ref="354762032"/>
    <nd ref="354762037"/>
    <nd ref="354762040"/>
    <nd ref="354762045"/>
    <nd ref="665747303"/>
    <tag k="admin_level" v="10"/>
    <tag k="attribution" v="Based on Australian Bureau of Statistics data"/>
    <tag k="boundary" v="administrative"/>
    <tag k="source" v="ABS_2006"/>
  </way>
  <way id="52330056" version="1" timestamp="2010-03-14T09:27:23Z" uid="74617" user="JohnSmith" changeset="4122113">
    <nd ref="665747303"/>
    <nd ref="354762053"/>
    <nd ref="354762057"/>
    <nd ref="354762061"/>
    <nd ref="354762065"/>
    <nd ref="354762070"/>
    <nd ref="354762074"/>
    <nd ref="354762079"/>
    <nd ref="354762083"/>
    <nd ref="354762087"/>
    <nd ref="354762092"/>
    <nd ref="354762095"/>
    <nd ref="354762100"/>
    <nd ref="354762105"/>
    <nd ref="354762108"/>
    <nd ref="354762113"/>
    <nd ref="354762117"/>
    <nd ref="354762121"/>
    <nd ref="354762126"/>
    <nd ref="354762130"/>
    <nd ref="354762134"/>
    <nd ref="354762138"/>
    <nd ref="354762143"/>
    <nd ref="354762147"/>
    <nd ref="354761484"/>
    <tag k="admin_level" v="10"/>
    <tag k="attribution" v="Based on Australian Bureau of Statistics data"/>
    <tag k="boundary" v="administrative"/>
    <tag k="source" v="ABS_2006"/>
  </way>
  <way id="52330056" version="2" timestamp="2012-02-29T19:48:30Z" uid="12434" user="nm7s9" changeset="10831492"/>
  <way id="52330059" version="3" timestamp="2011-04-15T10:44:37Z" uid="4467" user="Rosscoe" changeset="7868461">
    <nd ref="665747398"/>
    <nd ref="665747833"/>
    <nd ref="665747839"/>
    <tag k="highway" v="primary_link"/>
    <tag k="oneway" v="yes"/>
    <tag k="source" v="nearmap"/>
  </way>
  <way id="52330059" version="4" timestamp="2011-12-07T08:57:01Z" uid="11111" user="melb_guy" changeset="10055989">
    <nd ref="665747398"/>
    <nd ref="665747833"/>
    <nd ref="665747839"/>
    <tag k="highway" v="unclassified"/>
    <tag k="oneway" v="yes"/>
  </way>
  <way id="52330116" version="2" timestamp="2010-04-04T23:58:42Z" uid="74617" user="JohnSmith" changeset="4327637">
    <nd ref="355076395"/>
    <nd ref="55152286"/>
    <nd ref="55152295"/>
    <nd ref="55152308"/>
    <nd ref="55152320"/>
    <nd ref="532729368"/>
    <nd ref="55152328"/>
    <nd ref="55152337"/>
    <nd ref="55152350"/>
    <nd ref="55152362"/>
    <nd ref="55152377"/>
    <nd ref="55152386"/>
    <nd ref="55152393"/>
    <tag k="highway" v="trunk"/>
    <tag k="name" v="Princes Highway"/>
  </way>
  <way id="52330116" version="3" timestamp="2010-04-16T05:31:39Z" uid="22094" user="Chadzopkyo" changeset="4436084">
    <nd ref="55152266"/>
    <nd ref="355076395"/>
    <nd ref="698280639"/>
    <tag k="bridge" v="yes"/>
    <tag k="highway" v="trunk"/>
    <tag k="name" v="Princes Highway"/>
  </way>
  <way id="52330116" version="4" timestamp="2010-07-25T07:25:01Z" uid="4467" user="Rosscoe" changeset="5309337">
    <nd ref="55152266"/>
    <nd ref="355076395"/>
    <nd ref="698280639"/>
    <tag k="bridge" v="yes"/>
    <tag k="highway" v="trunk"/>
    <tag k="layer" v="1"/>
    <tag k="name" v="Princes Highway"/>
  </way>
  <way id="52330119" version="2" timestamp="2010-07-09T06:17:50Z" uid="74617" user="JohnSmith" changeset="5171134">
    <nd ref="665748378"/>
    <nd ref="665748379"/>
    <tag k="highway" v="residential"/>
    <tag k="maxspeed" v="50"/>
    <tag k="maxspeed:source" v="default residential speed limit in Australia"/>
    <tag k="name" v="Cowper Street"/>
  </way>
  <way id="52330119" version="3" timestamp="2012-01-20T03:48:15Z" uid="147510" user="woodpeck_fixbot" changeset="10442986">
    <nd ref="665748378"/>
    <nd ref="665748379"/>
    <tag k="highway" v="residential"/>
    <tag k="name" v="Cowper Street"/>
  </way>
  <way id="52330123" version="3" timestamp="2010-07-09T06:21:19Z" uid="74617" user="JohnSmith" changeset="5171134">
    <nd ref="322535505"/>
    <nd ref="322542491"/>
    <nd ref="322542489"/>
    <tag k="highway" v="residential"/>
    <tag k="maxspeed" v="50"/>
    <tag k="maxspeed:source" v="default residential speed limit in Australia"/>
    <tag k="name" v="Milton Street"/>
    <tag k="oneway" v="yes"/>
    <tag k="source" v="Yahoo"/>
  </way>
  <way id="52330123" version="4" timestamp="2011-05-29T16:38:48Z" uid="238041" user="marquisite" changeset="8283032">
    <nd ref="322535505"/>
    <nd ref="1304983488"/>
    <nd ref="322542491"/>
    <nd ref="1304983524"/>
    <nd ref="322542489"/>
    <tag k="highway" v="residential"/>
    <tag k="maxspeed" v="50"/>
    <tag k="maxspeed:source" v="default residential speed limit in Australia"/>
    <tag k="name" v="Milton Street"/>
    <tag k="oneway" v="yes"/>
    <tag k="source" v="Yahoo"/>
  </way>
  <way id="52330123" version="5" timestamp="2012-01-20T03:48:16Z" uid="147510" user="woodpeck_fixbot" changeset="10442986">
    <nd ref="322535505"/>
    <nd ref="1304983488"/>
    <nd ref="322542491"/>
    <nd ref="1304983524"/>
    <nd ref="322542489"/>
    <tag k="highway" v="residential"/>
    <tag k="name" v="Milton Street"/>
    <tag k="oneway" v="yes"/>
    <tag k="source" v="Yahoo"/>
  </way>
  <way id="52330167" version="7" timestamp="2010-05-26T05:06:42Z" uid="4467" user="Rosscoe" changeset="4809800">
    <nd ref="665748764"/>
    <nd ref="665748765"/>
    <nd ref="665959851"/>
    <nd ref="665959843"/>
    <nd ref="665748764"/>
    <tag k="highway" v="service"/>
  </way>
  <way id="52330169" version="2" timestamp="2010-07-09T22:50:03Z" uid="74617" user="JohnSmith" changeset="5176956">
    <nd ref="665748770"/>
    <nd ref="665748771"/>
    <nd ref="665748772"/>
    <nd ref="665748773"/>
    <nd ref="566260260"/>
    <tag k="highway" v="residential"/>
    <tag k="maxspeed" v="50"/>
    <tag k="maxspeed:source" v="default residential speed limit in Australia"/>
  </way>
  <way id="52330169" version="3" timestamp="2012-01-20T03:48:18Z" uid="147510" user="woodpeck_fixbot" changeset="10442986">
    <nd ref="665748770"/>
    <nd ref="665748771"/>
    <nd ref="665748772"/>
    <nd ref="665748773"/>
    <nd ref="566260260"/>
    <tag k="highway" v="residential"/>
  </way>
  <way id="52330179" version="2" timestamp="2010-07-09T06:19:51Z" uid="74617" user="JohnSmith" changeset="5171134">
    <nd ref="322542403"/>
    <nd ref="322542392"/>
    <tag k="highway" v="residential"/>
    <tag k="maxspeed" v="50"/>
    <tag k="maxspeed:source" v="default residential speed limit in Australia"/>
    <tag k="name" v="Milton Street"/>
    <tag k="source" v="Yahoo"/>
  </way>
  <way id="52330179" version="3" timestamp="2012-01-20T03:48:19Z" uid="147510" user="woodpeck_fixbot" changeset="10442986">
    <nd ref="322542403"/>
    <nd ref="322542392"/>
    <tag k="highway" v="residential"/>
    <tag k="name" v="Milton Street"/>
    <tag k="source" v="Yahoo"/>
  </way>
  <way id="52330258" version="2" timestamp="2010-07-09T06:21:21Z" uid="74617" user="JohnSmith" changeset="5171134">
    <nd ref="141939314"/>
    <nd ref="665749348"/>
    <tag k="highway" v="residential"/>
    <tag k="maxspeed" v="50"/>
    <tag k="maxspeed:source" v="default residential speed limit in Australia"/>
    <tag k="name" v="Elizabeth Street"/>
  </way>
  <way id="52330258" version="3" timestamp="2011-05-27T09:51:21Z" uid="238041" user="marquisite" changeset="8260907">
    <nd ref="141939314"/>
    <nd ref="1301763328"/>
    <nd ref="1301763160"/>
    <nd ref="1301763110"/>
    <nd ref="1301763258"/>
    <nd ref="665749348"/>
    <tag k="highway" v="residential"/>
    <tag k="maxspeed" v="50"/>
    <tag k="maxspeed:source" v="default residential speed limit in Australia"/>
    <tag k="name" v="Elizabeth Street"/>
  </way>
  <way id="52330258" version="4" timestamp="2012-01-20T03:48:22Z" uid="147510" user="woodpeck_fixbot" changeset="10442986">
    <nd ref="141939314"/>
    <nd ref="1301763328"/>
    <nd ref="1301763160"/>
    <nd ref="1301763110"/>
    <nd ref="1301763258"/>
    <nd ref="665749348"/>
    <tag k="highway" v="residential"/>
    <tag k="name" v="Elizabeth Street"/>
  </way>
  <way id="52330359" version="2" timestamp="2010-03-25T15:09:47Z" uid="64977" user="CLoeser" changeset="4229916">
    <nd ref="268493711"/>
    <nd ref="268493712"/>
    <nd ref="268493713"/>
    <nd ref="268493714"/>
    <nd ref="268493715"/>
    <nd ref="268493716"/>
    <nd ref="268493717"/>
    <nd ref="268493718"/>
    <nd ref="268493722"/>
    <nd ref="268493719"/>
    <nd ref="268493720"/>
    <nd ref="268493721"/>
    <nd ref="317627117"/>
    <nd ref="268493724"/>
    <nd ref="268493725"/>
    <nd ref="268493728"/>
    <nd ref="268493730"/>
    <nd ref="268493731"/>
    <nd ref="268493732"/>
    <tag k="bicycle" v="yes"/>
    <tag k="cycleway" v="track"/>
    <tag k="highway" v="secondary"/>
    <tag k="maxspeed" v="70"/>
    <tag k="name" v="Breitenburger Weg"/>
    <tag k="rcn" v="yes"/>
    <tag k="rcn_ref" v="Ochsenweg"/>
    <tag k="ref" v="L 116"/>
  </way>
  <way id="52330373" version="2" timestamp="2010-07-09T06:21:46Z" uid="74617" user="JohnSmith" changeset="5171134">
    <nd ref="665750231"/>
    <nd ref="665750232"/>
    <tag k="highway" v="residential"/>
    <tag k="maxspeed" v="50"/>
    <tag k="maxspeed:source" v="default residential speed limit in Australia"/>
    <tag k="name" v="Raymond Grove"/>
  </way>
  <way id="52330373" version="3" timestamp="2012-01-20T03:48:23Z" uid="147510" user="woodpeck_fixbot" changeset="10442986">
    <nd ref="665750231"/>
    <nd ref="665750232"/>
    <tag k="highway" v="residential"/>
    <tag k="name" v="Raymond Grove"/>
  </way>
  <way id="52330399" version="4" timestamp="2010-07-09T06:21:07Z" uid="74617" user="JohnSmith" changeset="5171134">
    <nd ref="665750503"/>
    <nd ref="665751075"/>
    <nd ref="665750965"/>
    <nd ref="665750504"/>
    <tag k="highway" v="residential"/>
    <tag k="maxspeed" v="50"/>
    <tag k="maxspeed:source" v="default residential speed limit in Australia"/>
    <tag k="name" v="Robert Street"/>
  </way>
  <way id="52330399" version="5" timestamp="2012-01-20T03:48:25Z" uid="147510" user="woodpeck_fixbot" changeset="10442986">
    <nd ref="665750503"/>
    <nd ref="665751075"/>
    <nd ref="665750965"/>
    <nd ref="665750504"/>
    <tag k="highway" v="residential"/>
    <tag k="name" v="Robert Street"/>
  </way>
  <way id="52330484" version="2" timestamp="2010-07-09T06:19:32Z" uid="74617" user="JohnSmith" changeset="5171134">
    <nd ref="665750605"/>
    <nd ref="665750956"/>
    <nd ref="665750957"/>
    <nd ref="665750958"/>
    <nd ref="665750959"/>
    <nd ref="665750960"/>
    <nd ref="665750962"/>
    <nd ref="665750963"/>
    <nd ref="665750964"/>
    <nd ref="665750965"/>
    <tag k="highway" v="residential"/>
    <tag k="maxspeed" v="50"/>
    <tag k="maxspeed:source" v="default residential speed limit in Australia"/>
    <tag k="name" v="Gloucester Street"/>
  </way>
  <way id="52330484" version="3" timestamp="2012-01-20T03:48:27Z" uid="147510" user="woodpeck_fixbot" changeset="10442986">
    <nd ref="665750605"/>
    <nd ref="665750956"/>
    <nd ref="665750957"/>
    <nd ref="665750958"/>
    <nd ref="665750959"/>
    <nd ref="665750960"/>
    <nd ref="665750962"/>
    <nd ref="665750963"/>
    <nd ref="665750964"/>
    <nd ref="665750965"/>
    <tag k="highway" v="residential"/>
    <tag k="name" v="Gloucester Street"/>
  </way>
  <way id="52330511" version="3" timestamp="2010-07-09T06:23:33Z" uid="74617" user="JohnSmith" changeset="5171134">
    <nd ref="665751037"/>
    <nd ref="665751312"/>
    <nd ref="665751075"/>
    <tag k="highway" v="residential"/>
    <tag k="maxspeed" v="50"/>
    <tag k="maxspeed:source" v="default residential speed limit in Australia"/>
    <tag k="name" v="Bristol Street"/>
  </way>
  <way id="52330511" version="4" timestamp="2012-01-20T03:48:29Z" uid="147510" user="woodpeck_fixbot" changeset="10442986">
    <nd ref="665751037"/>
    <nd ref="665751312"/>
    <nd ref="665751075"/>
    <tag k="highway" v="residential"/>
    <tag k="name" v="Bristol Street"/>
  </way>
  <way id="52330545" version="2" timestamp="2010-07-09T06:23:19Z" uid="74617" user="JohnSmith" changeset="5171134">
    <nd ref="665751310"/>
    <nd ref="665751312"/>
    <tag k="highway" v="residential"/>
    <tag k="maxspeed" v="50"/>
    <tag k="maxspeed:source" v="default residential speed limit in Australia"/>
    <tag k="name" v="Bristol Place"/>
  </way>
  <way id="52330545" version="3" timestamp="2012-01-20T03:48:30Z" uid="147510" user="woodpeck_fixbot" changeset="10442986">
    <nd ref="665751310"/>
    <nd ref="665751312"/>
    <tag k="highway" v="residential"/>
    <tag k="name" v="Bristol Place"/>
  </way>
  <way id="52330706" version="4" timestamp="2010-07-09T06:22:58Z" uid="74617" user="JohnSmith" changeset="5171134">
    <nd ref="665752867"/>
    <nd ref="665753422"/>
    <nd ref="141925192"/>
    <tag k="highway" v="residential"/>
    <tag k="maxspeed" v="50"/>
    <tag k="maxspeed:source" v="default residential speed limit in Australia"/>
    <tag k="name" v="Farrell Street"/>
  </way>
  <way id="52330706" version="5" timestamp="2012-01-20T03:48:31Z" uid="147510" user="woodpeck_fixbot" changeset="10442986">
    <nd ref="665752867"/>
    <nd ref="665753422"/>
    <nd ref="141925192"/>
    <tag k="highway" v="residential"/>
    <tag k="name" v="Farrell Street"/>
  </way>
  <way id="52330811" version="5" timestamp="2011-02-26T09:49:31Z" uid="4467" user="Rosscoe" changeset="7397965">
    <nd ref="665758641"/>
    <nd ref="665753750"/>
    <nd ref="665753752"/>
    <nd ref="665753751"/>
    <nd ref="665753748"/>
    <nd ref="665753749"/>
    <nd ref="665753746"/>
    <nd ref="665753747"/>
    <nd ref="665753745"/>
    <nd ref="665753744"/>
    <nd ref="665753743"/>
    <nd ref="665753742"/>
    <nd ref="665753741"/>
    <nd ref="665753740"/>
    <nd ref="665753736"/>
    <nd ref="1174165802"/>
    <nd ref="695190304"/>
    <nd ref="695190305"/>
    <nd ref="821808"/>
    <tag k="attribution" v="Department of Sustainability and Environment"/>
    <tag k="highway" v="secondary"/>
    <tag k="name" v="Bengworden Road"/>
    <tag k="ref" v="C106"/>
    <tag k="source" v="Vicmap Lite (data.vic.gov.au)"/>
  </way>
  <way id="52330811" version="6" timestamp="2011-09-05T06:52:01Z" uid="20974" user="Mander" changeset="9214788">
    <nd ref="665758641"/>
    <nd ref="665753750"/>
    <nd ref="665753752"/>
    <nd ref="665753751"/>
    <nd ref="665753748"/>
    <nd ref="665753749"/>
    <nd ref="665753746"/>
    <nd ref="1423758168"/>
    <nd ref="665753747"/>
    <nd ref="665753745"/>
    <nd ref="665753744"/>
    <nd ref="665753743"/>
    <nd ref="665753742"/>
    <nd ref="665753741"/>
    <nd ref="665753740"/>
    <nd ref="665753736"/>
    <nd ref="1174165802"/>
    <nd ref="695190304"/>
    <nd ref="695190305"/>
    <nd ref="821808"/>
    <tag k="attribution" v="Department of Sustainability and Environment"/>
    <tag k="highway" v="secondary"/>
    <tag k="name" v="Bengworden Road"/>
    <tag k="ref" v="C106"/>
    <tag k="source" v="Vicmap Lite (data.vic.gov.au)"/>
  </way>
  <way id="52330811" version="7" timestamp="2012-01-16T10:49:23Z" uid="221032" user="thekingoffoxes" changeset="10407075">
    <nd ref="665758641"/>
    <nd ref="665753750"/>
    <nd ref="665753752"/>
    <nd ref="665753751"/>
    <nd ref="665753748"/>
    <nd ref="665753749"/>
    <nd ref="665753746"/>
    <nd ref="1423758168"/>
    <nd ref="665753747"/>
    <nd ref="665753745"/>
    <nd ref="665753744"/>
    <nd ref="665753743"/>
    <nd ref="665753742"/>
    <nd ref="665753741"/>
    <nd ref="1592522693"/>
    <nd ref="665753740"/>
    <nd ref="665753736"/>
    <nd ref="1592522600"/>
    <nd ref="1174165802"/>
    <nd ref="695190304"/>
    <nd ref="695190305"/>
    <nd ref="821808"/>
    <tag k="attribution" v="Department of Sustainability and Environment"/>
    <tag k="highway" v="secondary"/>
    <tag k="name" v="Bengworden Road"/>
    <tag k="ref" v="C106"/>
    <tag k="source" v="Vicmap Lite (data.vic.gov.au)"/>
  </way>
  <way id="52330811" version="8" timestamp="2012-01-19T10:16:00Z" uid="221032" user="thekingoffoxes" changeset="10435234">
    <nd ref="665758641"/>
    <nd ref="665753750"/>
    <nd ref="665753752"/>
    <nd ref="665753751"/>
    <nd ref="665753748"/>
    <nd ref="665753749"/>
    <nd ref="665753746"/>
    <nd ref="1423758168"/>
    <nd ref="665753747"/>
    <nd ref="665753745"/>
    <nd ref="665753744"/>
    <nd ref="665753743"/>
    <nd ref="665753742"/>
    <nd ref="665753741"/>
    <nd ref="1592522693"/>
    <nd ref="665753740"/>
    <nd ref="665753736"/>
    <nd ref="1592522600"/>
    <nd ref="1174165802"/>
    <nd ref="1597471705"/>
    <nd ref="695190304"/>
    <nd ref="695190305"/>
    <nd ref="821808"/>
    <tag k="attribution" v="Department of Sustainability and Environment"/>
    <tag k="highway" v="secondary"/>
    <tag k="name" v="Bengworden Road"/>
    <tag k="ref" v="C106"/>
    <tag k="source" v="Vicmap Lite (data.vic.gov.au)"/>
  </way>
  <way id="52330813" version="2" timestamp="2010-07-09T06:23:36Z" uid="74617" user="JohnSmith" changeset="5171134">
    <nd ref="665753422"/>
    <nd ref="665754143"/>
    <tag k="highway" v="residential"/>
    <tag k="maxspeed" v="50"/>
    <tag k="maxspeed:source" v="default residential speed limit in Australia"/>
    <tag k="name" v="Maroong Avenue"/>
  </way>
  <way id="52330813" version="3" timestamp="2012-01-20T03:48:32Z" uid="147510" user="woodpeck_fixbot" changeset="10442986">
    <nd ref="665753422"/>
    <nd ref="665754143"/>
    <tag k="highway" v="residential"/>
    <tag k="name" v="Maroong Avenue"/>
  </way>
  <way id="52330854" version="3" timestamp="2010-07-09T06:20:35Z" uid="74617" user="JohnSmith" changeset="5171134">
    <nd ref="665754210"/>
    <nd ref="665754143"/>
    <nd ref="665757216"/>
    <nd ref="665759601"/>
    <nd ref="665757218"/>
    <nd ref="665757221"/>
    <nd ref="665757223"/>
    <nd ref="665757226"/>
    <nd ref="665757229"/>
    <nd ref="665757232"/>
    <tag k="highway" v="residential"/>
    <tag k="maxspeed" v="50"/>
    <tag k="maxspeed:source" v="default residential speed limit in Australia"/>
    <tag k="name" v="Weewanda Street"/>
  </way>
  <way id="52330854" version="4" timestamp="2010-11-25T23:43:50Z" uid="320632" user="Zulu99" changeset="6458746">
    <nd ref="665754210"/>
    <nd ref="665754143"/>
    <nd ref="665757216"/>
    <nd ref="665759601"/>
    <nd ref="665757218"/>
    <nd ref="665757221"/>
    <nd ref="665757223"/>
    <nd ref="665757226"/>
    <nd ref="665757229"/>
    <nd ref="253464795"/>
    <tag k="highway" v="residential"/>
    <tag k="maxspeed" v="50"/>
    <tag k="maxspeed:source" v="default residential speed limit in Australia"/>
    <tag k="name" v="Weewanda Street"/>
  </way>
  <way id="52330854" version="5" timestamp="2012-01-20T03:48:34Z" uid="147510" user="woodpeck_fixbot" changeset="10442986">
    <nd ref="665754210"/>
    <nd ref="665754143"/>
    <nd ref="665757216"/>
    <nd ref="665759601"/>
    <nd ref="665757218"/>
    <nd ref="665757221"/>
    <nd ref="665757223"/>
    <nd ref="665757226"/>
    <nd ref="665757229"/>
    <nd ref="253464795"/>
    <tag k="highway" v="residential"/>
    <tag k="name" v="Weewanda Street"/>
  </way>
  <way id="52330867" version="2" timestamp="2010-07-09T06:18:24Z" uid="74617" user="JohnSmith" changeset="5171134">
    <nd ref="665758295"/>
    <nd ref="665759596"/>
    <nd ref="665759599"/>
    <nd ref="665759600"/>
    <nd ref="665759601"/>
    <tag k="highway" v="residential"/>
    <tag k="maxspeed" v="50"/>
    <tag k="maxspeed:source" v="default residential speed limit in Australia"/>
    <tag k="name" v="Patawilya Grove"/>
  </way>
  <way id="52330867" version="3" timestamp="2012-01-20T03:48:35Z" uid="147510" user="woodpeck_fixbot" changeset="10442986">
    <nd ref="665758295"/>
    <nd ref="665759596"/>
    <nd ref="665759599"/>
    <nd ref="665759600"/>
    <nd ref="665759601"/>
    <tag k="highway" v="residential"/>
    <tag k="name" v="Patawilya Grove"/>
  </way>
  <way id="52330874" version="2" timestamp="2010-07-09T06:21:31Z" uid="74617" user="JohnSmith" changeset="5171134">
    <nd ref="665762101"/>
    <nd ref="665762103"/>
    <tag k="highway" v="residential"/>
    <tag k="maxspeed" v="50"/>
    <tag k="maxspeed:source" v="default residential speed limit in Australia"/>
    <tag k="name" v="Yarrum Grove"/>
  </way>
  <way id="52330874" version="3" timestamp="2012-01-20T03:48:37Z" uid="147510" user="woodpeck_fixbot" changeset="10442986">
    <nd ref="665762101"/>
    <nd ref="665762103"/>
    <tag k="highway" v="residential"/>
    <tag k="name" v="Yarrum Grove"/>
  </way>
  <way id="52330880" version="3" timestamp="2010-07-09T06:20:17Z" uid="74617" user="JohnSmith" changeset="5171134">
    <nd ref="665763121"/>
    <nd ref="665763983"/>
    <nd ref="665765234"/>
    <nd ref="665763974"/>
    <tag k="highway" v="residential"/>
    <tag k="maxspeed" v="50"/>
    <tag k="maxspeed:source" v="default residential speed limit in Australia"/>
    <tag k="name" v="Phillips Street"/>
  </way>
  <way id="52330880" version="4" timestamp="2012-01-20T03:48:38Z" uid="147510" user="woodpeck_fixbot" changeset="10442986">
    <nd ref="665763121"/>
    <nd ref="665763983"/>
    <nd ref="665765234"/>
    <nd ref="665763974"/>
    <tag k="highway" v="residential"/>
    <tag k="name" v="Phillips Street"/>
  </way>
  <way id="52330910" version="2" timestamp="2010-07-09T06:20:30Z" uid="74617" user="JohnSmith" changeset="5171134">
    <nd ref="665765234"/>
    <nd ref="665765930"/>
    <nd ref="665765933"/>
    <tag k="highway" v="residential"/>
    <tag k="maxspeed" v="50"/>
    <tag k="maxspeed:source" v="default residential speed limit in Australia"/>
    <tag k="name" v="Mokari Street"/>
  </way>
  <way id="52330910" version="3" timestamp="2012-01-20T03:48:39Z" uid="147510" user="woodpeck_fixbot" changeset="10442986">
    <nd ref="665765234"/>
    <nd ref="665765930"/>
    <nd ref="665765933"/>
    <tag k="highway" v="residential"/>
    <tag k="name" v="Mokari Street"/>
  </way>
  <way id="52330930" version="4" timestamp="2011-03-19T08:35:19Z" uid="4467" user="Rosscoe" changeset="7602318">
    <nd ref="665766169"/>
    <nd ref="665766170"/>
    <nd ref="665766171"/>
    <nd ref="665766173"/>
    <nd ref="665766175"/>
    <nd ref="665766176"/>
    <nd ref="665766178"/>
    <nd ref="665766179"/>
    <nd ref="665766180"/>
    <nd ref="665766181"/>
    <nd ref="665766183"/>
    <nd ref="665766185"/>
    <nd ref="665766186"/>
    <nd ref="665766188"/>
    <nd ref="665766189"/>
    <nd ref="665766190"/>
    <nd ref="665766191"/>
    <tag k="highway" v="path"/>
  </way>
</osm>
