<?xml version='1.0' encoding='UTF-8'?>
<osm version="0.6" generator="libosmium/2.20.0">
  <way id="52517414" version="1" timestamp="2010-03-16T18:50:30Z" uid="9581" user="Lobelt" changeset="4145639">
    <nd ref="667418793"/>
    <nd ref="667418795"/>
    <nd ref="667418797"/>
    <nd ref="667418875"/>
    <nd ref="667418793"/>
    <tag k="landuse" v="farmyard"/>
  </way>
  <way id="52517414" version="2" timestamp="2010-09-02T18:53:22Z" uid="279457" user="Piddi" changeset="5664831">
    <nd ref="667418793"/>
    <nd ref="667418795"/>
    <nd ref="667418797"/>
    <nd ref="667418875"/>
    <nd ref="667418793"/>
    <tag k="addr:city" v="Oftersheim"/>
    <tag k="addr:housenumber" v="2"/>
    <tag k="addr:postcode" v="68723"/>
    <tag k="addr:street" v="Hardtlache"/>
    <tag k="landuse" v="farmyard"/>
  </way>
  <way id="52517415" version="1" timestamp="2010-03-16T18:50:31Z" uid="9581" user="Lobelt" changeset="4145639">
    <nd ref="667418877"/>
    <nd ref="667418798"/>
    <nd ref="667418879"/>
    <nd ref="667418881"/>
    <nd ref="667418877"/>
    <tag k="landuse" v="farmyard"/>
  </way>
  <way id="52517415" version="2" timestamp="2010-09-02T18:53:23Z" uid="279457" user="Piddi" changeset="5664831">
    <nd ref="667418877"/>
    <nd ref="667418798"/>
    <nd ref="667418879"/>
    <nd ref="667418881"/>
    <nd ref="667418877"/>
    <tag k="addr:city" v="Oftersheim"/>
    <tag k="addr:housenumber" v="1"/>
    <tag k="addr:postcode" v="68723"/>
    <tag k="addr:street" v="Hardtlache"/>
    <tag k="landuse" v="farmyard"/>
  </way>
  <way id="52517416" version="1" timestamp="2010-03-16T18:50:31Z" uid="9581" user="Lobelt" changeset="4145639">
    <nd ref="667418885"/>
    <nd ref="273949145"/>
    <nd ref="80170268"/>
    <nd ref="262343195"/>
    <nd ref="80167145"/>
    <nd ref="473210209"/>
    <nd ref="80170271"/>
    <tag k="highway" v="secondary"/>
    <tag k="name" v="Heidelberger Straße"/>
    <tag k="ref" v="L 544"/>
  </way>
  <way id="52517416" version="2" timestamp="2011-01-23T17:25:02Z" uid="235296" user="Tom Wolfskin" changeset="7064334">
    <nd ref="667418885"/>
    <nd ref="273949145"/>
    <nd ref="80170268"/>
    <tag k="highway" v="secondary"/>
    <tag k="maxspeed" v="70"/>
    <tag k="name" v="Heidelberger Straße"/>
    <tag k="ref" v="L 544"/>
  </way>
  <way id="52517416" version="3" timestamp="2011-05-01T17:57:47Z" uid="160164" user="mahau" changeset="8023977">
    <nd ref="667418885"/>
    <nd ref="273949145"/>
    <nd ref="1269339563"/>
    <nd ref="80170268"/>
    <tag k="highway" v="secondary"/>
    <tag k="maxspeed" v="70"/>
    <tag k="name" v="Heidelberger Straße"/>
    <tag k="ref" v="L 544"/>
  </way>
  <way id="52517417" version="1" timestamp="2010-03-16T18:50:31Z" uid="9581" user="Lobelt" changeset="4145639">
    <nd ref="667418867"/>
    <nd ref="667418869"/>
    <nd ref="667418819"/>
    <nd ref="667418809"/>
    <nd ref="667418807"/>
    <nd ref="667418814"/>
    <nd ref="667418817"/>
    <nd ref="667418862"/>
    <nd ref="667418867"/>
    <tag k="landuse" v="allotments"/>
  </way>
  <way id="52517417" version="2" timestamp="2010-07-21T11:42:51Z" uid="279457" user="Piddi" changeset="5278187">
    <nd ref="667418867"/>
    <nd ref="667418869"/>
    <nd ref="667418819"/>
    <nd ref="667418809"/>
    <nd ref="667418807"/>
    <nd ref="667418814"/>
    <nd ref="667418817"/>
    <nd ref="827343685"/>
    <nd ref="667418862"/>
    <nd ref="667418867"/>
    <tag k="landuse" v="allotments"/>
  </way>
  <way id="52517418" version="1" timestamp="2010-03-16T18:50:31Z" uid="9581" user="Lobelt" changeset="4145639">
    <nd ref="667418822"/>
    <nd ref="667418872"/>
    <nd ref="667418838"/>
    <nd ref="667418840"/>
    <nd ref="667418857"/>
    <nd ref="667418859"/>
    <nd ref="667418834"/>
    <nd ref="667418812"/>
    <nd ref="667418824"/>
    <nd ref="667418826"/>
    <nd ref="667418829"/>
    <nd ref="667418831"/>
    <nd ref="667418822"/>
    <tag k="landuse" v="allotments"/>
  </way>
  <way id="52517418" version="2" timestamp="2010-08-28T12:16:45Z" uid="279457" user="Piddi" changeset="5615557">
    <nd ref="667418822"/>
    <nd ref="667418872"/>
    <nd ref="667418838"/>
    <nd ref="667418840"/>
    <nd ref="667418857"/>
    <nd ref="667418859"/>
    <nd ref="667418834"/>
    <nd ref="667418812"/>
    <nd ref="667418824"/>
    <nd ref="667418826"/>
    <nd ref="667418829"/>
    <nd ref="667418831"/>
    <nd ref="667418822"/>
    <tag k="landuse" v="allotments"/>
    <tag k="name" v="Gartenanlage Kohlwald"/>
    <tag k="operator" v="Gartenbauverein Oftersheim e.V."/>
  </way>
  <way id="52517418" version="3" timestamp="2010-08-28T18:20:49Z" uid="279457" user="Piddi" changeset="5618593">
    <nd ref="667418822"/>
    <nd ref="667418872"/>
    <nd ref="667418838"/>
    <nd ref="667418840"/>
    <nd ref="667418857"/>
    <nd ref="667418859"/>
    <nd ref="885182205"/>
    <nd ref="667418834"/>
    <nd ref="667418812"/>
    <nd ref="667418824"/>
    <nd ref="667418826"/>
    <nd ref="667418829"/>
    <nd ref="667418831"/>
    <nd ref="667418822"/>
    <tag k="landuse" v="allotments"/>
    <tag k="name" v="Gartenanlage Kohlwald"/>
    <tag k="operator" v="Gartenbauverein Oftersheim e.V."/>
  </way>
  <way id="52517419" version="1" timestamp="2010-03-16T18:50:31Z" uid="9581" user="Lobelt" changeset="4145639">
    <nd ref="80170267"/>
    <nd ref="667418885"/>
    <tag k="bridge" v="yes"/>
    <tag k="highway" v="secondary"/>
    <tag k="layer" v="1"/>
    <tag k="name" v="Heidelberger Straße"/>
    <tag k="ref" v="L 544"/>
  </way>
  <way id="52517419" version="2" timestamp="2011-01-23T17:25:03Z" uid="235296" user="Tom Wolfskin" changeset="7064334">
    <nd ref="80170267"/>
    <nd ref="667418885"/>
    <tag k="bridge" v="yes"/>
    <tag k="highway" v="secondary"/>
    <tag k="layer" v="1"/>
    <tag k="maxspeed" v="70"/>
    <tag k="name" v="Heidelberger Straße"/>
    <tag k="ref" v="L 544"/>
  </way>
  <way id="52517420" version="1" timestamp="2010-03-16T18:50:31Z" uid="9581" user="Lobelt" changeset="4145639">
    <nd ref="480708297"/>
    <nd ref="667418883"/>
    <tag k="bridge" v="yes"/>
    <tag k="highway" v="cycleway"/>
    <tag k="layer" v="1"/>
  </way>
  <way id="52517421" version="1" timestamp="2010-03-16T18:50:31Z" uid="9581" user="Lobelt" changeset="4145639">
    <nd ref="667418883"/>
    <nd ref="263431753"/>
    <nd ref="263431755"/>
    <nd ref="480708299"/>
    <nd ref="480708300"/>
    <nd ref="263431756"/>
    <tag k="highway" v="cycleway"/>
  </way>
  <way id="52517421" version="2" timestamp="2011-07-16T11:52:29Z" uid="121365" user="AKletti" changeset="8738908">
    <nd ref="667418883"/>
    <nd ref="263431753"/>
    <nd ref="1363455553"/>
    <nd ref="263431755"/>
    <nd ref="480708299"/>
    <nd ref="480708300"/>
    <nd ref="263431756"/>
    <tag k="highway" v="cycleway"/>
  </way>
  <way id="52517547" version="3" timestamp="2010-08-02T12:18:18Z" uid="171838" user="argrath" changeset="5380020">
    <nd ref="667419689"/>
    <nd ref="667425423"/>
    <nd ref="667419690"/>
    <tag k="highway" v="unclassified"/>
    <tag k="oneway" v="yes"/>
  </way>
  <way id="52517547" version="4" timestamp="2010-12-11T02:48:12Z" uid="162590" user="higa4" changeset="6618557">
    <nd ref="667419689"/>
    <nd ref="667425423"/>
    <nd ref="1032529174"/>
    <tag k="highway" v="unclassified"/>
    <tag k="oneway" v="yes"/>
  </way>
  <way id="52517547" version="5" timestamp="2010-12-12T11:07:49Z" uid="162590" user="higa4" changeset="6634250">
    <nd ref="1035458934"/>
    <nd ref="667425423"/>
    <nd ref="1032529174"/>
    <tag k="highway" v="unclassified"/>
    <tag k="oneway" v="yes"/>
  </way>
  <way id="52517705" version="1" timestamp="2010-03-16T18:59:22Z" uid="33382" user="de_muur" changeset="4145705">
    <nd ref="30637060"/>
    <nd ref="431703765"/>
    <nd ref="171159368"/>
    <nd ref="29036394"/>
    <nd ref="30441524"/>
    <tag k="foot" v="yes"/>
    <tag k="highway" v="cycleway"/>
    <tag k="name" v="Beneckendorffallee"/>
    <tag k="surface" v="paved"/>
  </way>
  <way id="52517705" version="2" timestamp="2012-03-28T13:53:04Z" uid="639648" user="mrbr" changeset="11127238">
    <nd ref="30637060"/>
    <nd ref="431703765"/>
    <nd ref="171159368"/>
    <nd ref="29036394"/>
    <nd ref="30441524"/>
    <tag k="bicycle" v="yes"/>
    <tag k="foot" v="yes"/>
    <tag k="highway" v="cycleway"/>
    <tag k="name" v="Beneckendorffallee"/>
    <tag k="segregated" v="no"/>
    <tag k="surface" v="paved"/>
  </way>
</osm>
