<?xml version='1.0' encoding='UTF-8'?>
<osm version="0.6" generator="libosmium/2.20.0">
  <way id="52551449" version="2" timestamp="2010-04-07T14:34:12Z" uid="20587" user="balrog-kun" changeset="4353646">
    <nd ref="228469241"/>
    <nd ref="228382929"/>
    <nd ref="228481234"/>
    <tag k="highway" v="primary"/>
    <tag k="name" v="South Broadway Ave; United States Highway 69"/>
    <tag k="ref" v="US 69"/>
    <tag k="tiger:cfcc" v="A25"/>
    <tag k="tiger:county" v="Smith, TX"/>
    <tag k="tiger:name_base" v="Broadway"/>
    <tag k="tiger:name_base_1" v="United States Highway 69"/>
    <tag k="tiger:name_direction_prefix" v="S"/>
    <tag k="tiger:name_type" v="Ave"/>
    <tag k="tiger:reviewed" v="no"/>
    <tag k="tiger:separated" v="yes"/>
    <tag k="tiger:source" v="tiger_import_dch_v0.6_20070830"/>
    <tag k="tiger:tlid" v="141315562:141325677:141315576:141328223:141328224"/>
  </way>
  <way id="52551449" version="3" timestamp="2010-05-02T20:48:12Z" uid="118262" user="Wynndale" changeset="4589972">
    <nd ref="228469241"/>
    <nd ref="228382929"/>
    <nd ref="228481234"/>
    <tag k="highway" v="primary"/>
    <tag k="name" v="South Broadway Avenue"/>
    <tag k="ref" v="US 69"/>
    <tag k="tiger:cfcc" v="A25"/>
    <tag k="tiger:county" v="Smith, TX"/>
    <tag k="tiger:name_base" v="Broadway"/>
    <tag k="tiger:name_base_1" v="United States Highway 69"/>
    <tag k="tiger:name_direction_prefix" v="S"/>
    <tag k="tiger:name_type" v="Ave"/>
    <tag k="tiger:reviewed" v="no"/>
    <tag k="tiger:separated" v="yes"/>
    <tag k="tiger:source" v="tiger_import_dch_v0.6_20070830"/>
    <tag k="tiger:tlid" v="141315562:141325677:141315576:141328223:141328224"/>
  </way>
  <way id="52551449" version="4" timestamp="2010-10-01T15:37:44Z" uid="37392" user="25or6to4" changeset="5928344">
    <nd ref="228469241"/>
    <nd ref="228382929"/>
    <nd ref="228481234"/>
    <tag k="highway" v="primary"/>
    <tag k="name" v="South Broadway Avenue"/>
    <tag k="ref" v="US 69"/>
    <tag k="tiger:cfcc" v="A25"/>
    <tag k="tiger:county" v="Smith, TX"/>
    <tag k="tiger:name_base" v="Broadway"/>
    <tag k="tiger:name_base_1" v="United States Highway 69"/>
    <tag k="tiger:name_direction_prefix" v="S"/>
    <tag k="tiger:name_type" v="Ave"/>
    <tag k="tiger:separated" v="yes"/>
    <tag k="tiger:source" v="tiger_import_dch_v0.6_20070830"/>
    <tag k="tiger:tlid" v="141315562:141325677:141315576:141328223:141328224"/>
  </way>
  <way id="52551449" version="5" timestamp="2011-06-14T14:25:52Z" uid="207745" user="NE2" changeset="8437694">
    <nd ref="228469241"/>
    <nd ref="228382929"/>
    <nd ref="228481234"/>
    <tag k="highway" v="primary"/>
    <tag k="lanes" v="4"/>
    <tag k="name" v="South Broadway Avenue"/>
    <tag k="ref" v="US 69"/>
    <tag k="tiger:cfcc" v="A25"/>
    <tag k="tiger:county" v="Smith, TX"/>
    <tag k="tiger:name_base" v="Broadway"/>
    <tag k="tiger:name_base_1" v="United States Highway 69"/>
    <tag k="tiger:name_direction_prefix" v="S"/>
    <tag k="tiger:name_type" v="Ave"/>
    <tag k="tiger:separated" v="yes"/>
    <tag k="tiger:source" v="tiger_import_dch_v0.6_20070830"/>
    <tag k="tiger:tlid" v="141315562:141325677:141315576:141328223:141328224"/>
  </way>
  <way id="52551449" version="6" timestamp="2011-07-03T21:56:18Z" uid="473471" user="NE3" changeset="8624345">
    <nd ref="228469241"/>
    <nd ref="228382929"/>
    <nd ref="228481234"/>
    <tag k="NHS" v="yes"/>
    <tag k="highway" v="primary"/>
    <tag k="lanes" v="4"/>
    <tag k="name" v="South Broadway Avenue"/>
    <tag k="ref" v="US 69"/>
    <tag k="tiger:cfcc" v="A25"/>
    <tag k="tiger:county" v="Smith, TX"/>
    <tag k="tiger:name_base" v="Broadway"/>
    <tag k="tiger:name_base_1" v="United States Highway 69"/>
    <tag k="tiger:name_direction_prefix" v="S"/>
    <tag k="tiger:name_type" v="Ave"/>
    <tag k="tiger:separated" v="yes"/>
    <tag k="tiger:source" v="tiger_import_dch_v0.6_20070830"/>
    <tag k="tiger:tlid" v="141315562:141325677:141315576:141328223:141328224"/>
  </way>
</osm>
