<?xml version='1.0' encoding='UTF-8'?>
<osm version="0.6" generator="libosmium/2.20.0">
  <way id="52583000" version="3" timestamp="2010-04-07T18:39:44Z" uid="20587" user="balrog-kun" changeset="4355872">
    <nd ref="134342609"/>
    <nd ref="134342611"/>
    <nd ref="134342614"/>
    <nd ref="134342617"/>
    <nd ref="134342620"/>
    <nd ref="134342622"/>
    <nd ref="134926303"/>
    <tag k="highway" v="primary"/>
    <tag k="name" v="South 12th Road"/>
    <tag k="name_1" v="United States Highway 77"/>
    <tag k="ref" v="US 77"/>
    <tag k="tiger:cfcc" v="A21"/>
    <tag k="tiger:county" v="Gage, NE"/>
    <tag k="tiger:name_base" v="12th"/>
    <tag k="tiger:name_base_1" v="United States Highway 77"/>
    <tag k="tiger:name_direction_prefix" v="S"/>
    <tag k="tiger:name_type" v="Rd"/>
    <tag k="tiger:reviewed" v="no"/>
    <tag k="tiger:separated" v="no"/>
    <tag k="tiger:source" v="tiger_import_dch_v0.6_20070813"/>
    <tag k="tiger:tlid" v="11620431:11620437:11640778:11620473"/>
    <tag k="tiger:zip_left" v="68331"/>
  </way>
  <way id="52583000" version="4" timestamp="2011-06-15T05:30:19Z" uid="207745" user="NE2" changeset="8443930">
    <nd ref="134342609"/>
    <nd ref="134342611"/>
    <nd ref="134342614"/>
    <nd ref="134342617"/>
    <nd ref="134342620"/>
    <nd ref="134342622"/>
    <nd ref="134926303"/>
    <tag k="highway" v="primary"/>
    <tag k="name" v="South 12th Road"/>
    <tag k="ref" v="US 77"/>
    <tag k="tiger:cfcc" v="A21"/>
    <tag k="tiger:county" v="Gage, NE"/>
    <tag k="tiger:name_base" v="12th"/>
    <tag k="tiger:name_base_1" v="United States Highway 77"/>
    <tag k="tiger:name_direction_prefix" v="S"/>
    <tag k="tiger:name_type" v="Rd"/>
    <tag k="tiger:reviewed" v="no"/>
    <tag k="tiger:separated" v="no"/>
    <tag k="tiger:source" v="tiger_import_dch_v0.6_20070813"/>
    <tag k="tiger:tlid" v="11620431:11620437:11640778:11620473"/>
    <tag k="tiger:zip_left" v="68331"/>
  </way>
  <way id="52583000" version="5" timestamp="2011-06-23T21:22:59Z" uid="473471" user="NE3" changeset="8527020">
    <nd ref="134342609"/>
    <nd ref="134342611"/>
    <nd ref="134342614"/>
    <nd ref="134342617"/>
    <nd ref="134342620"/>
    <nd ref="134342622"/>
    <nd ref="134926303"/>
    <tag k="highway" v="trunk"/>
    <tag k="lanes" v="2"/>
    <tag k="name" v="South 12th Road"/>
    <tag k="oneway" v="yes"/>
    <tag k="ref" v="US 77"/>
    <tag k="tiger:cfcc" v="A21"/>
    <tag k="tiger:county" v="Gage, NE"/>
    <tag k="tiger:name_base" v="12th"/>
    <tag k="tiger:name_base_1" v="United States Highway 77"/>
    <tag k="tiger:name_direction_prefix" v="S"/>
    <tag k="tiger:name_type" v="Rd"/>
    <tag k="tiger:reviewed" v="no"/>
    <tag k="tiger:separated" v="no"/>
    <tag k="tiger:source" v="tiger_import_dch_v0.6_20070813"/>
    <tag k="tiger:tlid" v="11620431:11620437:11640778:11620473"/>
    <tag k="tiger:zip_left" v="68331"/>
  </way>
  <way id="52583000" version="6" timestamp="2011-07-06T20:51:45Z" uid="473471" user="NE3" changeset="8652165">
    <nd ref="134342609"/>
    <nd ref="134342611"/>
    <nd ref="134342614"/>
    <nd ref="134342617"/>
    <nd ref="134342620"/>
    <nd ref="134342622"/>
    <nd ref="134926303"/>
    <tag k="NHS" v="yes"/>
    <tag k="highway" v="trunk"/>
    <tag k="lanes" v="2"/>
    <tag k="name" v="South 12th Road"/>
    <tag k="oneway" v="yes"/>
    <tag k="ref" v="US 77"/>
    <tag k="tiger:cfcc" v="A21"/>
    <tag k="tiger:county" v="Gage, NE"/>
    <tag k="tiger:name_base" v="12th"/>
    <tag k="tiger:name_base_1" v="United States Highway 77"/>
    <tag k="tiger:name_direction_prefix" v="S"/>
    <tag k="tiger:name_type" v="Rd"/>
    <tag k="tiger:reviewed" v="no"/>
    <tag k="tiger:separated" v="no"/>
    <tag k="tiger:source" v="tiger_import_dch_v0.6_20070813"/>
    <tag k="tiger:tlid" v="11620431:11620437:11640778:11620473"/>
    <tag k="tiger:zip_left" v="68331"/>
  </way>
  <way id="52583000" version="7" timestamp="2011-09-11T18:50:39Z" uid="28378" user="PHerison" changeset="9273899">
    <nd ref="134342609"/>
    <nd ref="134342611"/>
    <nd ref="134342614"/>
    <nd ref="134342622"/>
    <nd ref="134926303"/>
    <tag k="NHS" v="yes"/>
    <tag k="highway" v="trunk"/>
    <tag k="lanes" v="2"/>
    <tag k="name" v="South 12th Road"/>
    <tag k="oneway" v="yes"/>
    <tag k="ref" v="US 77"/>
    <tag k="tiger:cfcc" v="A21"/>
    <tag k="tiger:county" v="Gage, NE"/>
    <tag k="tiger:name_base" v="12th"/>
    <tag k="tiger:name_base_1" v="United States Highway 77"/>
    <tag k="tiger:name_direction_prefix" v="S"/>
    <tag k="tiger:name_type" v="Rd"/>
    <tag k="tiger:reviewed" v="aerial"/>
    <tag k="tiger:separated" v="no"/>
    <tag k="tiger:source" v="tiger_import_dch_v0.6_20070813"/>
    <tag k="tiger:tlid" v="11620431:11620437:11640778:11620473"/>
    <tag k="tiger:zip_left" v="68331"/>
  </way>
  <way id="52583001" version="3" timestamp="2010-04-07T18:39:44Z" uid="20587" user="balrog-kun" changeset="4355872">
    <nd ref="134310889"/>
    <nd ref="134310891"/>
    <nd ref="134310893"/>
    <tag k="highway" v="primary"/>
    <tag k="name" v="United States Highway 77"/>
    <tag k="name_1" v="South 12th Road"/>
    <tag k="ref" v="US 77"/>
    <tag k="tiger:cfcc" v="A21"/>
    <tag k="tiger:county" v="Gage, NE"/>
    <tag k="tiger:name_base" v="United States Highway 77"/>
    <tag k="tiger:name_base_1" v="12th"/>
    <tag k="tiger:name_direction_prefix_1" v="S"/>
    <tag k="tiger:name_type_1" v="Rd"/>
    <tag k="tiger:reviewed" v="no"/>
    <tag k="tiger:separated" v="no"/>
    <tag k="tiger:source" v="tiger_import_dch_v0.6_20070813"/>
    <tag k="tiger:tlid" v="11640076"/>
    <tag k="tiger:zip_left" v="68331"/>
    <tag k="tiger:zip_right" v="68331"/>
  </way>
  <way id="52583001" version="4" timestamp="2011-06-15T05:22:38Z" uid="207745" user="NE2" changeset="8443930">
    <nd ref="134310889"/>
    <nd ref="134310891"/>
    <nd ref="134310893"/>
    <tag k="highway" v="primary"/>
    <tag k="name" v="South 12th Road"/>
    <tag k="ref" v="US 77"/>
    <tag k="tiger:cfcc" v="A21"/>
    <tag k="tiger:county" v="Gage, NE"/>
    <tag k="tiger:name_base" v="United States Highway 77"/>
    <tag k="tiger:name_base_1" v="12th"/>
    <tag k="tiger:name_direction_prefix_1" v="S"/>
    <tag k="tiger:name_type_1" v="Rd"/>
    <tag k="tiger:reviewed" v="no"/>
    <tag k="tiger:separated" v="no"/>
    <tag k="tiger:source" v="tiger_import_dch_v0.6_20070813"/>
    <tag k="tiger:tlid" v="11640076"/>
    <tag k="tiger:zip_left" v="68331"/>
    <tag k="tiger:zip_right" v="68331"/>
  </way>
  <way id="52583001" version="5" timestamp="2011-06-23T21:20:08Z" uid="473471" user="NE3" changeset="8527020">
    <nd ref="134310893"/>
    <nd ref="134310891"/>
    <nd ref="134310889"/>
    <tag k="highway" v="trunk"/>
    <tag k="lanes" v="2"/>
    <tag k="name" v="South 12th Road"/>
    <tag k="oneway" v="yes"/>
    <tag k="ref" v="US 77"/>
    <tag k="tiger:cfcc" v="A21"/>
    <tag k="tiger:county" v="Gage, NE"/>
    <tag k="tiger:name_base" v="United States Highway 77"/>
    <tag k="tiger:name_base_1" v="12th"/>
    <tag k="tiger:name_direction_prefix_1" v="S"/>
    <tag k="tiger:name_type_1" v="Rd"/>
    <tag k="tiger:reviewed" v="no"/>
    <tag k="tiger:separated" v="no"/>
    <tag k="tiger:source" v="tiger_import_dch_v0.6_20070813"/>
    <tag k="tiger:tlid" v="11640076"/>
    <tag k="tiger:zip_left" v="68331"/>
    <tag k="tiger:zip_right" v="68331"/>
  </way>
  <way id="52583001" version="6" timestamp="2011-07-06T20:51:44Z" uid="473471" user="NE3" changeset="8652165">
    <nd ref="134310893"/>
    <nd ref="134310891"/>
    <nd ref="134310889"/>
    <tag k="NHS" v="yes"/>
    <tag k="highway" v="trunk"/>
    <tag k="lanes" v="2"/>
    <tag k="name" v="South 12th Road"/>
    <tag k="oneway" v="yes"/>
    <tag k="ref" v="US 77"/>
    <tag k="tiger:cfcc" v="A21"/>
    <tag k="tiger:county" v="Gage, NE"/>
    <tag k="tiger:name_base" v="United States Highway 77"/>
    <tag k="tiger:name_base_1" v="12th"/>
    <tag k="tiger:name_direction_prefix_1" v="S"/>
    <tag k="tiger:name_type_1" v="Rd"/>
    <tag k="tiger:reviewed" v="no"/>
    <tag k="tiger:separated" v="no"/>
    <tag k="tiger:source" v="tiger_import_dch_v0.6_20070813"/>
    <tag k="tiger:tlid" v="11640076"/>
    <tag k="tiger:zip_left" v="68331"/>
    <tag k="tiger:zip_right" v="68331"/>
  </way>
  <way id="52583204" version="3" timestamp="2011-04-20T11:26:40Z" uid="115477" user="wowik" changeset="7915253">
    <nd ref="667998072"/>
    <nd ref="667998069"/>
    <nd ref="667998068"/>
    <nd ref="667998078"/>
    <nd ref="667998066"/>
    <nd ref="667998067"/>
    <nd ref="667998070"/>
    <nd ref="667998026"/>
    <nd ref="667998029"/>
    <nd ref="667998028"/>
    <nd ref="667998025"/>
    <nd ref="667998027"/>
    <nd ref="667998030"/>
    <nd ref="667998018"/>
    <nd ref="667998033"/>
    <nd ref="667998031"/>
    <nd ref="667998034"/>
    <nd ref="667998035"/>
    <nd ref="667998032"/>
    <nd ref="667998072"/>
    <tag k="addr:city" v="Москва"/>
    <tag k="addr:country" v="RU"/>
    <tag k="addr:housenumber" v="5"/>
    <tag k="addr:street" v="Мамоновский переулок"/>
    <tag k="amenity" v="embassy"/>
    <tag k="building" v="yes"/>
    <tag k="cladr:code" v="77000000000722500"/>
    <tag k="country" v="UG"/>
    <tag k="name" v="посольство Уганды"/>
    <tag k="name:en" v="Embassy of Uganda"/>
    <tag k="name:ru" v="посольство Уганды"/>
  </way>
  <way id="52583205" version="6" timestamp="2011-04-20T11:26:56Z" uid="115477" user="wowik" changeset="7915253">
    <nd ref="667997968"/>
    <nd ref="667998059"/>
    <nd ref="667997967"/>
    <nd ref="667997970"/>
    <nd ref="667997968"/>
    <tag k="addr:city" v="Москва"/>
    <tag k="addr:country" v="RU"/>
    <tag k="addr:housenumber" v="10/2 с2"/>
    <tag k="addr:housenumber2" v="2/10 с2"/>
    <tag k="addr:street" v="Трёхпрудный переулок"/>
    <tag k="addr:street2" v="Мамоновский переулок"/>
    <tag k="building" v="yes"/>
    <tag k="cladr:code" v="77000000000292400"/>
  </way>
  <way id="52583206" version="4" timestamp="2011-04-20T11:26:09Z" uid="115477" user="wowik" changeset="7915253">
    <nd ref="667997968"/>
    <nd ref="667998062"/>
    <nd ref="667998064"/>
    <nd ref="667998079"/>
    <nd ref="667998080"/>
    <nd ref="667998081"/>
    <nd ref="667998091"/>
    <nd ref="667998065"/>
    <nd ref="667998092"/>
    <nd ref="667997969"/>
    <nd ref="667998058"/>
    <nd ref="667998060"/>
    <nd ref="667998059"/>
    <nd ref="667997968"/>
    <tag k="addr:city" v="Москва"/>
    <tag k="addr:country" v="RU"/>
    <tag k="addr:housenumber" v="4"/>
    <tag k="addr:street" v="Мамоновский переулок"/>
    <tag k="amenity" v="embassy"/>
    <tag k="building" v="yes"/>
    <tag k="cladr:code" v="77000000000722500"/>
    <tag k="country" v="no ISO-3166-1 alpha-2 code available"/>
    <tag k="name" v="посольство Абхазии"/>
    <tag k="name:en" v="Embassy of Abkhazia"/>
    <tag k="name:ru" v="посольство Абхазии"/>
  </way>
  <way id="52583208" version="3" timestamp="2011-04-20T11:25:37Z" uid="115477" user="wowik" changeset="7915253">
    <nd ref="667998000"/>
    <nd ref="667997963"/>
    <nd ref="667997959"/>
    <nd ref="667998006"/>
    <nd ref="667998005"/>
    <nd ref="667998008"/>
    <nd ref="667998007"/>
    <nd ref="667997989"/>
    <nd ref="667997961"/>
    <nd ref="667997960"/>
    <nd ref="667997958"/>
    <nd ref="667997962"/>
    <nd ref="667998001"/>
    <nd ref="667998000"/>
    <tag k="addr:city" v="Москва"/>
    <tag k="addr:country" v="RU"/>
    <tag k="addr:housenumber" v="2/16"/>
    <tag k="addr:housenumber2" v="16/2"/>
    <tag k="addr:street" v="Благовещенский переулок"/>
    <tag k="addr:street2" v="Трёхпрудный переулок"/>
    <tag k="building" v="yes"/>
    <tag k="cladr:code" v="77000000000086000"/>
  </way>
  <way id="52583209" version="2" timestamp="2011-04-20T11:28:17Z" uid="115477" user="wowik" changeset="7915253">
    <nd ref="667997977"/>
    <nd ref="667997956"/>
    <nd ref="667997988"/>
    <nd ref="667997990"/>
    <nd ref="667997977"/>
    <tag k="addr:city" v="Москва"/>
    <tag k="addr:country" v="RU"/>
    <tag k="building" v="yes"/>
  </way>
  <way id="52583210" version="3" timestamp="2011-04-20T11:28:28Z" uid="115477" user="wowik" changeset="7915253">
    <nd ref="667997978"/>
    <nd ref="667997979"/>
    <nd ref="667997974"/>
    <nd ref="667997955"/>
    <nd ref="667997957"/>
    <nd ref="667997978"/>
    <tag k="addr:city" v="Москва"/>
    <tag k="addr:country" v="RU"/>
    <tag k="building" v="yes"/>
  </way>
  <way id="52583211" version="4" timestamp="2011-04-20T11:27:03Z" uid="115477" user="wowik" changeset="7915253">
    <nd ref="667997980"/>
    <nd ref="667997985"/>
    <nd ref="667997984"/>
    <nd ref="667997987"/>
    <nd ref="667997983"/>
    <nd ref="667997986"/>
    <nd ref="667997991"/>
    <nd ref="667997992"/>
    <nd ref="667997993"/>
    <nd ref="667997965"/>
    <nd ref="667997966"/>
    <nd ref="667997964"/>
    <nd ref="667997973"/>
    <nd ref="667997971"/>
    <nd ref="667997975"/>
    <nd ref="667997981"/>
    <nd ref="667997980"/>
    <tag k="addr:city" v="Москва"/>
    <tag k="addr:country" v="RU"/>
    <tag k="addr:housenumber" v="14"/>
    <tag k="addr:street" v="Трёхпрудный переулок"/>
    <tag k="building" v="yes"/>
    <tag k="cladr:code" v="77000000000292400"/>
  </way>
  <way id="52583214" version="4" timestamp="2011-04-20T11:25:46Z" uid="115477" user="wowik" changeset="7915253">
    <nd ref="667997997"/>
    <nd ref="667998023"/>
    <nd ref="667998020"/>
    <nd ref="667997994"/>
    <nd ref="667997997"/>
    <tag k="addr:city" v="Москва"/>
    <tag k="addr:country" v="RU"/>
    <tag k="addr:housenumber" v="3 с2"/>
    <tag k="addr:street" v="Мамоновский переулок"/>
    <tag k="building" v="yes"/>
    <tag k="cladr:code" v="77000000000722500"/>
  </way>
  <way id="52583215" version="4" timestamp="2011-04-20T11:26:02Z" uid="115477" user="wowik" changeset="7915253">
    <nd ref="667998022"/>
    <nd ref="667998024"/>
    <nd ref="667998021"/>
    <nd ref="667998019"/>
    <nd ref="667998022"/>
    <tag k="addr:city" v="Москва"/>
    <tag k="addr:country" v="RU"/>
    <tag k="addr:housenumber" v="5 с3"/>
    <tag k="addr:street" v="Мамоновский переулок"/>
    <tag k="building" v="yes"/>
    <tag k="cladr:code" v="77000000000722500"/>
  </way>
  <way id="52583216" version="5" timestamp="2011-04-20T11:26:48Z" uid="115477" user="wowik" changeset="7915253">
    <nd ref="667998132"/>
    <nd ref="667998130"/>
    <nd ref="667998102"/>
    <nd ref="667998101"/>
    <nd ref="667998099"/>
    <nd ref="667998126"/>
    <nd ref="667998132"/>
    <tag k="addr:city" v="Москва"/>
    <tag k="addr:country" v="RU"/>
    <tag k="addr:housenumber" v="23 с4"/>
    <tag k="addr:street" v="Тверская улица"/>
    <tag k="building" v="yes"/>
    <tag k="cladr:code" v="77000000000287700"/>
  </way>
  <way id="52583217" version="3" timestamp="2011-04-20T11:27:03Z" uid="115477" user="wowik" changeset="7915253">
    <nd ref="667998094"/>
    <nd ref="667998093"/>
    <nd ref="667998117"/>
    <nd ref="667998118"/>
    <nd ref="667998109"/>
    <nd ref="667998088"/>
    <nd ref="667998094"/>
    <tag k="addr:city" v="Москва"/>
    <tag k="addr:country" v="RU"/>
    <tag k="addr:housenumber" v="8"/>
    <tag k="addr:street" v="Мамоновский переулок"/>
    <tag k="building" v="yes"/>
    <tag k="cladr:code" v="77000000000722500"/>
  </way>
  <way id="52583219" version="4" timestamp="2011-04-20T11:28:26Z" uid="115477" user="wowik" changeset="7915253">
    <nd ref="667998126"/>
    <nd ref="667998099"/>
    <nd ref="667998104"/>
    <nd ref="667998103"/>
    <nd ref="667998105"/>
    <nd ref="667998112"/>
    <nd ref="667998128"/>
    <nd ref="667998126"/>
    <tag k="addr:city" v="Москва"/>
    <tag k="addr:country" v="RU"/>
    <tag k="building" v="yes"/>
  </way>
  <way id="52583220" version="3" timestamp="2011-04-20T11:25:45Z" uid="115477" user="wowik" changeset="7915253">
    <nd ref="667998084"/>
    <nd ref="667998071"/>
    <nd ref="667998083"/>
    <nd ref="667998087"/>
    <nd ref="667998085"/>
    <nd ref="667998086"/>
    <nd ref="667998084"/>
    <tag k="addr:city" v="Москва"/>
    <tag k="addr:country" v="RU"/>
    <tag k="addr:housenumber" v="6"/>
    <tag k="addr:street" v="Мамоновский переулок"/>
    <tag k="building" v="yes"/>
    <tag k="cladr:code" v="77000000000722500"/>
  </way>
  <way id="52583221" version="4" timestamp="2011-04-20T11:26:00Z" uid="115477" user="wowik" changeset="7915253">
    <nd ref="667998073"/>
    <nd ref="667998074"/>
    <nd ref="667998075"/>
    <nd ref="667998077"/>
    <nd ref="667998073"/>
    <tag k="addr:city" v="Москва"/>
    <tag k="addr:country" v="RU"/>
    <tag k="addr:housenumber" v="5 с4"/>
    <tag k="addr:street" v="Мамоновский переулок"/>
    <tag k="building" v="yes"/>
    <tag k="cladr:code" v="77000000000722500"/>
  </way>
  <way id="52583222" version="4" timestamp="2011-04-20T11:26:55Z" uid="115477" user="wowik" changeset="7915253">
    <nd ref="667998119"/>
    <nd ref="667998121"/>
    <nd ref="667998120"/>
    <nd ref="667998128"/>
    <nd ref="667998112"/>
    <nd ref="667998114"/>
    <nd ref="667998119"/>
    <tag k="addr:city" v="Москва"/>
    <tag k="addr:country" v="RU"/>
    <tag k="addr:housenumber" v="10"/>
    <tag k="addr:street" v="Мамоновский переулок"/>
    <tag k="building" v="yes"/>
    <tag k="cladr:code" v="77000000000722500"/>
  </way>
  <way id="52583223" version="4" timestamp="2011-04-20T11:25:27Z" uid="115477" user="wowik" changeset="7915253">
    <nd ref="667998143"/>
    <nd ref="667998142"/>
    <nd ref="667998131"/>
    <nd ref="667998125"/>
    <nd ref="667998143"/>
    <tag k="addr:city" v="Москва"/>
    <tag k="addr:country" v="RU"/>
    <tag k="addr:housenumber" v="23 с3"/>
    <tag k="addr:street" v="Тверская улица"/>
    <tag k="building" v="yes"/>
    <tag k="cladr:code" v="77000000000287700"/>
  </way>
  <way id="52583224" version="4" timestamp="2011-04-20T11:26:27Z" uid="115477" user="wowik" changeset="7915253">
    <nd ref="667998116"/>
    <nd ref="667998115"/>
    <nd ref="667998107"/>
    <nd ref="667998108"/>
    <nd ref="667998116"/>
    <tag k="addr:city" v="Москва"/>
    <tag k="addr:country" v="RU"/>
    <tag k="addr:housenumber" v="8 с3"/>
    <tag k="addr:street" v="Мамоновский переулок"/>
    <tag k="building" v="yes"/>
    <tag k="cladr:code" v="77000000000722500"/>
  </way>
  <way id="52583250" version="2" timestamp="2010-04-07T14:34:57Z" uid="20587" user="balrog-kun" changeset="4353646">
    <nd ref="81763210"/>
    <nd ref="81763215"/>
    <tag k="highway" v="primary"/>
    <tag k="name" v="Eagle Drive"/>
    <tag k="name_1" v="Unted States Highway 77"/>
    <tag k="ref" v="US 77"/>
    <tag k="tiger:cfcc" v="A21"/>
    <tag k="tiger:county" v="Denton, TX"/>
    <tag k="tiger:name_base" v="Eagle"/>
    <tag k="tiger:name_type" v="Dr"/>
    <tag k="tiger:separated" v="no"/>
    <tag k="tiger:source" v="tiger_import_dch_v0.6_20070829"/>
    <tag k="tiger:tlid" v="218045551"/>
  </way>
  <way id="52583250" version="3" timestamp="2011-06-15T05:45:18Z" uid="207745" user="NE2" changeset="8443930">
    <nd ref="81763210"/>
    <nd ref="81763215"/>
    <tag k="highway" v="primary"/>
    <tag k="name" v="Eagle Drive"/>
    <tag k="ref" v="US 77"/>
    <tag k="tiger:cfcc" v="A21"/>
    <tag k="tiger:county" v="Denton, TX"/>
    <tag k="tiger:name_base" v="Eagle"/>
    <tag k="tiger:name_type" v="Dr"/>
    <tag k="tiger:separated" v="no"/>
    <tag k="tiger:source" v="tiger_import_dch_v0.6_20070829"/>
    <tag k="tiger:tlid" v="218045551"/>
  </way>
  <way id="52583250" version="4" timestamp="2011-06-18T14:47:39Z" uid="207745" user="NE2" changeset="8474084">
    <nd ref="81763210"/>
    <nd ref="81763215"/>
    <tag k="highway" v="primary"/>
    <tag k="lanes" v="2"/>
    <tag k="name" v="Eagle Drive"/>
    <tag k="ref" v="US 77"/>
    <tag k="tiger:cfcc" v="A21"/>
    <tag k="tiger:county" v="Denton, TX"/>
    <tag k="tiger:name_base" v="Eagle"/>
    <tag k="tiger:name_type" v="Dr"/>
    <tag k="tiger:separated" v="no"/>
    <tag k="tiger:source" v="tiger_import_dch_v0.6_20070829"/>
    <tag k="tiger:tlid" v="218045551"/>
  </way>
  <way id="52583250" version="5" timestamp="2012-03-04T21:09:05Z" uid="613751" user="Cartographer1973" changeset="10871174">
    <nd ref="81763210"/>
    <nd ref="81763215"/>
    <tag k="highway" v="primary"/>
    <tag k="lanes" v="2"/>
    <tag k="name" v="Eagle Drive"/>
    <tag k="ref" v="US-77"/>
    <tag k="tiger:cfcc" v="A21"/>
    <tag k="tiger:county" v="Denton, TX"/>
    <tag k="tiger:name_base" v="Eagle"/>
    <tag k="tiger:name_type" v="Dr"/>
    <tag k="tiger:separated" v="no"/>
    <tag k="tiger:source" v="tiger_import_dch_v0.6_20070829"/>
    <tag k="tiger:tlid" v="218045551"/>
  </way>
  <way id="52583250" version="6" timestamp="2012-03-25T07:31:47Z" uid="119881" user="Clorox" changeset="11091935">
    <nd ref="81763210"/>
    <nd ref="81763215"/>
    <tag k="highway" v="primary"/>
    <tag k="lanes" v="2"/>
    <tag k="name" v="Eagle Drive"/>
    <tag k="ref" v="US 77"/>
    <tag k="tiger:cfcc" v="A21"/>
    <tag k="tiger:county" v="Denton, TX"/>
    <tag k="tiger:name_base" v="Eagle"/>
    <tag k="tiger:name_type" v="Dr"/>
    <tag k="tiger:separated" v="no"/>
    <tag k="tiger:source" v="tiger_import_dch_v0.6_20070829"/>
    <tag k="tiger:tlid" v="218045551"/>
  </way>
  <way id="52583251" version="2" timestamp="2010-04-07T14:34:57Z" uid="20587" user="balrog-kun" changeset="4353646">
    <nd ref="81763204"/>
    <nd ref="81763203"/>
    <nd ref="81763201"/>
    <nd ref="81763200"/>
    <nd ref="81763198"/>
    <nd ref="81763196"/>
    <nd ref="81763194"/>
    <nd ref="81763192"/>
    <nd ref="81763191"/>
    <nd ref="81626963"/>
    <nd ref="81763190"/>
    <nd ref="81763189"/>
    <nd ref="81763188"/>
    <nd ref="81763186"/>
    <nd ref="81763182"/>
    <nd ref="81763180"/>
    <nd ref="81763178"/>
    <nd ref="81763176"/>
    <nd ref="81763174"/>
    <tag k="highway" v="primary"/>
    <tag k="name" v="Dallas Drive"/>
    <tag k="name_1" v="United States Highway 77"/>
    <tag k="ref" v="US 77"/>
    <tag k="tiger:cfcc" v="A25"/>
    <tag k="tiger:county" v="Denton, TX"/>
    <tag k="tiger:name_base" v="Dallas"/>
    <tag k="tiger:name_base_1" v="United States Highway 77"/>
    <tag k="tiger:name_type" v="Dr"/>
    <tag k="tiger:separated" v="yes"/>
    <tag k="tiger:source" v="tiger_import_dch_v0.6_20070829"/>
    <tag k="tiger:tlid" v="103434504:103434458"/>
  </way>
  <way id="52583251" version="3" timestamp="2011-06-15T05:37:17Z" uid="207745" user="NE2" changeset="8443930">
    <nd ref="81763204"/>
    <nd ref="81763203"/>
    <nd ref="81763201"/>
    <nd ref="81763200"/>
    <nd ref="81763198"/>
    <nd ref="81763196"/>
    <nd ref="81763194"/>
    <nd ref="81763192"/>
    <nd ref="81763191"/>
    <nd ref="81626963"/>
    <nd ref="81763190"/>
    <nd ref="81763189"/>
    <nd ref="81763188"/>
    <nd ref="81763186"/>
    <nd ref="81763182"/>
    <nd ref="81763180"/>
    <nd ref="81763178"/>
    <nd ref="81763176"/>
    <nd ref="81763174"/>
    <tag k="highway" v="primary"/>
    <tag k="name" v="Dallas Drive"/>
    <tag k="ref" v="US 77"/>
    <tag k="tiger:cfcc" v="A25"/>
    <tag k="tiger:county" v="Denton, TX"/>
    <tag k="tiger:name_base" v="Dallas"/>
    <tag k="tiger:name_base_1" v="United States Highway 77"/>
    <tag k="tiger:name_type" v="Dr"/>
    <tag k="tiger:separated" v="yes"/>
    <tag k="tiger:source" v="tiger_import_dch_v0.6_20070829"/>
    <tag k="tiger:tlid" v="103434504:103434458"/>
  </way>
  <way id="52583251" version="4" timestamp="2011-06-18T14:51:16Z" uid="207745" user="NE2" changeset="8474084">
    <nd ref="81763204"/>
    <nd ref="81763203"/>
    <nd ref="81763201"/>
    <nd ref="81763200"/>
    <nd ref="81763198"/>
    <nd ref="81763196"/>
    <nd ref="81763194"/>
    <nd ref="81763192"/>
    <nd ref="81763191"/>
    <nd ref="81626963"/>
    <nd ref="81763190"/>
    <nd ref="81763189"/>
    <nd ref="81763188"/>
    <nd ref="81763186"/>
    <nd ref="81763182"/>
    <nd ref="81763180"/>
    <nd ref="81763178"/>
    <nd ref="81763176"/>
    <nd ref="81763174"/>
    <tag k="highway" v="primary"/>
    <tag k="lanes" v="4"/>
    <tag k="name" v="Dallas Drive"/>
    <tag k="ref" v="US 77"/>
    <tag k="tiger:cfcc" v="A25"/>
    <tag k="tiger:county" v="Denton, TX"/>
    <tag k="tiger:name_base" v="Dallas"/>
    <tag k="tiger:name_base_1" v="United States Highway 77"/>
    <tag k="tiger:name_type" v="Dr"/>
    <tag k="tiger:separated" v="yes"/>
    <tag k="tiger:source" v="tiger_import_dch_v0.6_20070829"/>
    <tag k="tiger:tlid" v="103434504:103434458"/>
  </way>
  <way id="52583251" version="5" timestamp="2012-03-04T21:09:06Z" uid="613751" user="Cartographer1973" changeset="10871174">
    <nd ref="81763204"/>
    <nd ref="81763203"/>
    <nd ref="81763201"/>
    <nd ref="81763200"/>
    <nd ref="81763198"/>
    <nd ref="81763196"/>
    <nd ref="81763194"/>
    <nd ref="81763192"/>
    <nd ref="81763191"/>
    <nd ref="81626963"/>
    <nd ref="81763190"/>
    <nd ref="81763189"/>
    <nd ref="81763188"/>
    <nd ref="81763186"/>
    <nd ref="81763182"/>
    <nd ref="81763180"/>
    <nd ref="81763178"/>
    <nd ref="81763176"/>
    <nd ref="81763174"/>
    <tag k="highway" v="primary"/>
    <tag k="lanes" v="4"/>
    <tag k="name" v="Dallas Drive"/>
    <tag k="ref" v="US-77"/>
    <tag k="tiger:cfcc" v="A25"/>
    <tag k="tiger:county" v="Denton, TX"/>
    <tag k="tiger:name_base" v="Dallas"/>
    <tag k="tiger:name_base_1" v="United States Highway 77"/>
    <tag k="tiger:name_type" v="Dr"/>
    <tag k="tiger:separated" v="yes"/>
    <tag k="tiger:source" v="tiger_import_dch_v0.6_20070829"/>
    <tag k="tiger:tlid" v="103434504:103434458"/>
  </way>
  <way id="52583251" version="6" timestamp="2012-03-25T07:31:44Z" uid="119881" user="Clorox" changeset="11091935">
    <nd ref="81763204"/>
    <nd ref="81763203"/>
    <nd ref="81763201"/>
    <nd ref="81763200"/>
    <nd ref="81763198"/>
    <nd ref="81763196"/>
    <nd ref="81763194"/>
    <nd ref="81763192"/>
    <nd ref="81763191"/>
    <nd ref="81626963"/>
    <nd ref="81763190"/>
    <nd ref="81763189"/>
    <nd ref="81763188"/>
    <nd ref="81763186"/>
    <nd ref="81763182"/>
    <nd ref="81763180"/>
    <nd ref="81763178"/>
    <nd ref="81763176"/>
    <nd ref="81763174"/>
    <tag k="highway" v="primary"/>
    <tag k="lanes" v="4"/>
    <tag k="name" v="Dallas Drive"/>
    <tag k="ref" v="US 77"/>
    <tag k="tiger:cfcc" v="A25"/>
    <tag k="tiger:county" v="Denton, TX"/>
    <tag k="tiger:name_base" v="Dallas"/>
    <tag k="tiger:name_base_1" v="United States Highway 77"/>
    <tag k="tiger:name_type" v="Dr"/>
    <tag k="tiger:separated" v="yes"/>
    <tag k="tiger:source" v="tiger_import_dch_v0.6_20070829"/>
    <tag k="tiger:tlid" v="103434504:103434458"/>
  </way>
  <way id="52583257" version="3" timestamp="2010-04-07T14:34:58Z" uid="20587" user="balrog-kun" changeset="4353646">
    <nd ref="145191996"/>
    <nd ref="145202341"/>
    <nd ref="145202344"/>
    <nd ref="667998443"/>
    <nd ref="145192009"/>
    <tag k="highway" v="primary"/>
    <tag k="name" v="12th Avenue Southeast"/>
    <tag k="name_1" v="State Highway 77H"/>
    <tag k="ref" v="US 77"/>
    <tag k="tiger:cfcc" v="A35"/>
    <tag k="tiger:county" v="Cleveland, OK"/>
    <tag k="tiger:name_base" v="12th"/>
    <tag k="tiger:name_base_1" v="State Highway 77H"/>
    <tag k="tiger:name_direction_suffix" v="SE"/>
    <tag k="tiger:name_type" v="Ave"/>
    <tag k="tiger:reviewed" v="no"/>
    <tag k="tiger:separated" v="yes"/>
    <tag k="tiger:source" v="tiger_import_dch_v0.6_20070829"/>
    <tag k="tiger:tlid" v="99912335:99912337:99912092:99912094:99919467:99912071:99912051:99912055:99914071:99912048:99912067:99912088:99911958:99911961:99911963:99921420"/>
    <tag k="tiger:zip_left" v="73071"/>
    <tag k="tiger:zip_right" v="73071"/>
  </way>
  <way id="52583257" version="4" timestamp="2011-06-15T05:44:19Z" uid="207745" user="NE2" changeset="8443930">
    <nd ref="145191996"/>
    <nd ref="145202341"/>
    <nd ref="145202344"/>
    <nd ref="667998443"/>
    <nd ref="145192009"/>
    <tag k="highway" v="primary"/>
    <tag k="name" v="12th Avenue Southeast"/>
    <tag k="ref" v="US 77"/>
    <tag k="tiger:cfcc" v="A35"/>
    <tag k="tiger:county" v="Cleveland, OK"/>
    <tag k="tiger:name_base" v="12th"/>
    <tag k="tiger:name_base_1" v="State Highway 77H"/>
    <tag k="tiger:name_direction_suffix" v="SE"/>
    <tag k="tiger:name_type" v="Ave"/>
    <tag k="tiger:reviewed" v="no"/>
    <tag k="tiger:separated" v="yes"/>
    <tag k="tiger:source" v="tiger_import_dch_v0.6_20070829"/>
    <tag k="tiger:tlid" v="99912335:99912337:99912092:99912094:99919467:99912071:99912051:99912055:99914071:99912048:99912067:99912088:99911958:99911961:99911963:99921420"/>
    <tag k="tiger:zip_left" v="73071"/>
    <tag k="tiger:zip_right" v="73071"/>
  </way>
  <way id="52583257" version="5" timestamp="2011-06-22T00:13:13Z" uid="473471" user="NE3" changeset="8510011">
    <nd ref="145191996"/>
    <nd ref="145202341"/>
    <nd ref="145202344"/>
    <nd ref="667998443"/>
    <nd ref="145192009"/>
    <tag k="highway" v="primary"/>
    <tag k="lanes" v="4"/>
    <tag k="name" v="12th Avenue Southeast"/>
    <tag k="ref" v="US 77"/>
    <tag k="tiger:cfcc" v="A35"/>
    <tag k="tiger:county" v="Cleveland, OK"/>
    <tag k="tiger:name_base" v="12th"/>
    <tag k="tiger:name_base_1" v="State Highway 77H"/>
    <tag k="tiger:name_direction_suffix" v="SE"/>
    <tag k="tiger:name_type" v="Ave"/>
    <tag k="tiger:reviewed" v="no"/>
    <tag k="tiger:separated" v="yes"/>
    <tag k="tiger:source" v="tiger_import_dch_v0.6_20070829"/>
    <tag k="tiger:tlid" v="99912335:99912337:99912092:99912094:99919467:99912071:99912051:99912055:99914071:99912048:99912067:99912088:99911958:99911961:99911963:99921420"/>
    <tag k="tiger:zip_left" v="73071"/>
    <tag k="tiger:zip_right" v="73071"/>
  </way>
  <way id="52583257" version="6" timestamp="2012-02-06T16:57:07Z" uid="30521" user="dufekin" changeset="10604679"/>
  <way id="52583258" version="2" timestamp="2010-04-07T18:39:45Z" uid="20587" user="balrog-kun" changeset="4355872">
    <nd ref="135873743"/>
    <nd ref="135873746"/>
    <nd ref="135873590"/>
    <nd ref="135873749"/>
    <nd ref="135873752"/>
    <nd ref="135873755"/>
    <nd ref="135873757"/>
    <nd ref="135873759"/>
    <nd ref="135873763"/>
    <nd ref="135873766"/>
    <nd ref="135873769"/>
    <nd ref="135815069"/>
    <nd ref="135815106"/>
    <nd ref="135873772"/>
    <nd ref="135873775"/>
    <nd ref="135873778"/>
    <nd ref="135873780"/>
    <nd ref="135873782"/>
    <nd ref="135873784"/>
    <nd ref="135873786"/>
    <nd ref="135873788"/>
    <nd ref="135873790"/>
    <nd ref="135873792"/>
    <nd ref="135873794"/>
    <nd ref="135873796"/>
    <nd ref="135873797"/>
    <nd ref="135817775"/>
    <nd ref="135873798"/>
    <nd ref="135873799"/>
    <nd ref="135873800"/>
    <nd ref="135873801"/>
    <nd ref="135873802"/>
    <nd ref="135764726"/>
    <nd ref="135873803"/>
    <nd ref="135873804"/>
    <nd ref="135783222"/>
    <nd ref="135873805"/>
    <nd ref="135873807"/>
    <nd ref="135873809"/>
    <nd ref="135873811"/>
    <nd ref="135873813"/>
    <nd ref="135873815"/>
    <nd ref="135765639"/>
    <nd ref="135873816"/>
    <nd ref="135873817"/>
    <nd ref="135873818"/>
    <nd ref="135873819"/>
    <nd ref="135873820"/>
    <nd ref="135873821"/>
    <nd ref="135873822"/>
    <nd ref="135765561"/>
    <nd ref="135873823"/>
    <nd ref="135873824"/>
    <nd ref="135873825"/>
    <nd ref="135873826"/>
    <nd ref="135873827"/>
    <nd ref="135873828"/>
    <nd ref="135873829"/>
    <nd ref="135873830"/>
    <nd ref="135873831"/>
    <nd ref="135797038"/>
    <nd ref="135873833"/>
    <nd ref="135873835"/>
    <nd ref="135797011"/>
    <nd ref="135797019"/>
    <nd ref="135873837"/>
    <nd ref="135873839"/>
    <nd ref="135873840"/>
    <nd ref="135796987"/>
    <nd ref="135873841"/>
    <nd ref="135873843"/>
    <nd ref="135873845"/>
    <nd ref="135873847"/>
    <nd ref="135873849"/>
    <nd ref="135796850"/>
    <nd ref="135873851"/>
    <nd ref="135873853"/>
    <nd ref="135839159"/>
    <nd ref="135873855"/>
    <nd ref="135873857"/>
    <nd ref="135873858"/>
    <nd ref="135839062"/>
    <nd ref="135873859"/>
    <nd ref="135873860"/>
    <nd ref="135873864"/>
    <nd ref="135873866"/>
    <nd ref="135873868"/>
    <nd ref="135873871"/>
    <nd ref="135873873"/>
    <nd ref="135873875"/>
    <nd ref="135873877"/>
    <nd ref="135873879"/>
    <nd ref="135838945"/>
    <nd ref="135838981"/>
    <nd ref="135873881"/>
    <nd ref="135817130"/>
    <nd ref="135817023"/>
    <nd ref="135816983"/>
    <nd ref="135873884"/>
    <nd ref="135873887"/>
    <nd ref="135873890"/>
    <nd ref="135773068"/>
    <nd ref="135816846"/>
    <nd ref="135873893"/>
    <nd ref="135873897"/>
    <nd ref="135873899"/>
    <nd ref="135873901"/>
    <nd ref="135873903"/>
    <nd ref="135873905"/>
    <nd ref="135873907"/>
    <nd ref="135873910"/>
    <nd ref="135781315"/>
    <nd ref="135873913"/>
    <nd ref="135873916"/>
    <nd ref="135873918"/>
    <nd ref="135873920"/>
    <nd ref="135873922"/>
    <nd ref="135873924"/>
    <nd ref="135873926"/>
    <nd ref="135868678"/>
    <nd ref="135873929"/>
    <nd ref="135873931"/>
    <nd ref="135873934"/>
    <nd ref="135873937"/>
    <nd ref="135873939"/>
    <nd ref="135873941"/>
    <tag k="highway" v="tertiary"/>
    <tag k="name" v="South Chestnut Street"/>
    <tag k="tiger:cfcc" v="A21"/>
    <tag k="tiger:county" v="Saunders, NE"/>
    <tag k="tiger:name_base" v="United States Highway 77"/>
    <tag k="tiger:name_base_1" v="Chestnut"/>
    <tag k="tiger:name_direction_prefix_1" v="S"/>
    <tag k="tiger:name_type_1" v="St"/>
    <tag k="tiger:reviewed" v="no"/>
    <tag k="tiger:separated" v="no"/>
    <tag k="tiger:source" v="tiger_import_dch_v0.6_20070813"/>
    <tag k="tiger:tlid" v="28523446:28531715:28521959:28535528:28535529:28534871:28515971:28553276"/>
    <tag k="tiger:zip_left" v="68066"/>
    <tag k="tiger:zip_right" v="68066"/>
  </way>
  <way id="52583258" version="3" timestamp="2011-09-02T19:40:01Z" uid="28378" user="PHerison" changeset="9195679"/>
  <way id="52583259" version="2" timestamp="2010-04-07T18:39:46Z" uid="20587" user="balrog-kun" changeset="4355872">
    <nd ref="135087853"/>
    <nd ref="135087852"/>
    <nd ref="135087850"/>
    <nd ref="135087848"/>
    <nd ref="135873235"/>
    <tag k="highway" v="primary"/>
    <tag k="name" v="North 56th Street"/>
    <tag k="name_1" v="United States Highway 77"/>
    <tag k="ref" v="US 77"/>
    <tag k="tiger:cfcc" v="A25"/>
    <tag k="tiger:county" v="Lancaster, NE"/>
    <tag k="tiger:name_base" v="56th"/>
    <tag k="tiger:name_base_1" v="United States Highway 77"/>
    <tag k="tiger:name_direction_prefix" v="N"/>
    <tag k="tiger:name_type" v="St"/>
    <tag k="tiger:reviewed" v="no"/>
    <tag k="tiger:separated" v="yes"/>
    <tag k="tiger:source" v="tiger_import_dch_v0.6_20070813"/>
    <tag k="tiger:tlid" v="28302775"/>
  </way>
  <way id="52583259" version="3" timestamp="2011-06-15T05:19:37Z" uid="207745" user="NE2" changeset="8443930">
    <nd ref="135087853"/>
    <nd ref="135087852"/>
    <nd ref="135087850"/>
    <nd ref="135087848"/>
    <nd ref="135873235"/>
    <tag k="highway" v="primary"/>
    <tag k="name" v="North 56th Street"/>
    <tag k="ref" v="US 77"/>
    <tag k="tiger:cfcc" v="A25"/>
    <tag k="tiger:county" v="Lancaster, NE"/>
    <tag k="tiger:name_base" v="56th"/>
    <tag k="tiger:name_base_1" v="United States Highway 77"/>
    <tag k="tiger:name_direction_prefix" v="N"/>
    <tag k="tiger:name_type" v="St"/>
    <tag k="tiger:reviewed" v="no"/>
    <tag k="tiger:separated" v="yes"/>
    <tag k="tiger:source" v="tiger_import_dch_v0.6_20070813"/>
    <tag k="tiger:tlid" v="28302775"/>
  </way>
  <way id="52583259" version="4" timestamp="2011-06-23T21:22:41Z" uid="473471" user="NE3" changeset="8527020">
    <nd ref="135873235"/>
    <nd ref="135087848"/>
    <nd ref="135087850"/>
    <nd ref="135087852"/>
    <nd ref="135087853"/>
    <tag k="highway" v="trunk"/>
    <tag k="lanes" v="2"/>
    <tag k="name" v="North 56th Street"/>
    <tag k="oneway" v="yes"/>
    <tag k="ref" v="US 77"/>
    <tag k="tiger:cfcc" v="A25"/>
    <tag k="tiger:county" v="Lancaster, NE"/>
    <tag k="tiger:name_base" v="56th"/>
    <tag k="tiger:name_base_1" v="United States Highway 77"/>
    <tag k="tiger:name_direction_prefix" v="N"/>
    <tag k="tiger:name_type" v="St"/>
    <tag k="tiger:reviewed" v="no"/>
    <tag k="tiger:separated" v="yes"/>
    <tag k="tiger:source" v="tiger_import_dch_v0.6_20070813"/>
    <tag k="tiger:tlid" v="28302775"/>
  </way>
  <way id="52583259" version="5" timestamp="2011-07-06T20:47:48Z" uid="473471" user="NE3" changeset="8652165">
    <nd ref="135873235"/>
    <nd ref="135087848"/>
    <nd ref="135087850"/>
    <nd ref="135087852"/>
    <nd ref="135087853"/>
    <tag k="NHS" v="yes"/>
    <tag k="highway" v="trunk"/>
    <tag k="lanes" v="2"/>
    <tag k="name" v="North 56th Street"/>
    <tag k="oneway" v="yes"/>
    <tag k="ref" v="US 77"/>
    <tag k="tiger:cfcc" v="A25"/>
    <tag k="tiger:county" v="Lancaster, NE"/>
    <tag k="tiger:name_base" v="56th"/>
    <tag k="tiger:name_base_1" v="United States Highway 77"/>
    <tag k="tiger:name_direction_prefix" v="N"/>
    <tag k="tiger:name_type" v="St"/>
    <tag k="tiger:reviewed" v="no"/>
    <tag k="tiger:separated" v="yes"/>
    <tag k="tiger:source" v="tiger_import_dch_v0.6_20070813"/>
    <tag k="tiger:tlid" v="28302775"/>
  </way>
  <way id="52583414" version="2" timestamp="2011-02-12T00:08:44Z" uid="6269" user="Mueck" changeset="7259787">
    <nd ref="667999548"/>
    <nd ref="1148215414"/>
    <nd ref="1148215579"/>
    <nd ref="667999540"/>
    <tag k="public_transport" v="platform"/>
    <tag k="railway" v="platform"/>
    <tag k="tram" v="yes"/>
  </way>
  <way id="52583425" version="2" timestamp="2011-02-12T00:08:33Z" uid="6269" user="Mueck" changeset="7259787">
    <nd ref="667999568"/>
    <nd ref="667999558"/>
    <tag k="highway" v="footway"/>
    <tag k="public_transport" v="platform"/>
    <tag k="railway" v="platform"/>
    <tag k="tram" v="yes"/>
  </way>
  <way id="52583426" version="2" timestamp="2011-02-12T00:08:33Z" uid="6269" user="Mueck" changeset="7259787">
    <nd ref="667999560"/>
    <nd ref="667999569"/>
    <tag k="public_transport" v="platform"/>
    <tag k="railway" v="platform"/>
    <tag k="tram" v="yes"/>
  </way>
  <way id="52583427" version="2" timestamp="2011-02-12T00:08:47Z" uid="6269" user="Mueck" changeset="7259787"/>
  <way id="52583679" version="2" timestamp="2010-04-07T14:34:58Z" uid="20587" user="balrog-kun" changeset="4353646">
    <nd ref="229142239"/>
    <nd ref="229142245"/>
    <nd ref="229133194"/>
    <nd ref="229142248"/>
    <nd ref="306367758"/>
    <nd ref="229141732"/>
    <nd ref="229142251"/>
    <nd ref="229142254"/>
    <nd ref="229142256"/>
    <nd ref="229117460"/>
    <nd ref="229142258"/>
    <nd ref="229142260"/>
    <nd ref="229142262"/>
    <nd ref="229142265"/>
    <nd ref="229142268"/>
    <nd ref="229142271"/>
    <nd ref="229142274"/>
    <nd ref="229142276"/>
    <nd ref="229142278"/>
    <nd ref="229142280"/>
    <nd ref="229142282"/>
    <nd ref="229142284"/>
    <nd ref="229142287"/>
    <nd ref="229142289"/>
    <nd ref="229142291"/>
    <nd ref="229142293"/>
    <nd ref="229105591"/>
    <nd ref="229142296"/>
    <nd ref="229142299"/>
    <tag k="highway" v="primary"/>
    <tag k="name" v="North Navarro St; United States Highway 77"/>
    <tag k="ref" v="US 77"/>
    <tag k="tiger:cfcc" v="A21"/>
    <tag k="tiger:county" v="Victoria, TX"/>
    <tag k="tiger:name_base" v="Navarro"/>
    <tag k="tiger:name_base_1" v="United States Highway 77"/>
    <tag k="tiger:name_direction_prefix" v="N"/>
    <tag k="tiger:name_type" v="St"/>
    <tag k="tiger:separated" v="no"/>
    <tag k="tiger:source" v="tiger_import_dch_v0.6_20070830"/>
    <tag k="tiger:tlid" v="44570386:44577991:44573653:44558169:44558172:44558180:44558175:44577762:44558187:44558210:44577775:44558214:44570839:44558216:44577776:44558295:44558094:44558095:44558105:44558106:44570832:44558107:44558097:44570449:44578303"/>
    <tag k="tiger:zip_left" v="77904"/>
    <tag k="tiger:zip_right" v="77904"/>
  </way>
  <way id="52583679" version="3" timestamp="2011-06-15T05:31:34Z" uid="207745" user="NE2" changeset="8443930">
    <nd ref="229142239"/>
    <nd ref="229142245"/>
    <nd ref="229133194"/>
    <nd ref="229142248"/>
    <nd ref="306367758"/>
    <nd ref="229141732"/>
    <nd ref="229142251"/>
    <nd ref="229142254"/>
    <nd ref="229142256"/>
    <nd ref="229117460"/>
    <nd ref="229142258"/>
    <nd ref="229142260"/>
    <nd ref="229142262"/>
    <nd ref="229142265"/>
    <nd ref="229142268"/>
    <nd ref="229142271"/>
    <nd ref="229142274"/>
    <nd ref="229142276"/>
    <nd ref="229142278"/>
    <nd ref="229142280"/>
    <nd ref="229142282"/>
    <nd ref="229142284"/>
    <nd ref="229142287"/>
    <nd ref="229142289"/>
    <nd ref="229142291"/>
    <nd ref="229142293"/>
    <nd ref="229105591"/>
    <nd ref="229142296"/>
    <nd ref="229142299"/>
    <tag k="highway" v="trunk"/>
    <tag k="lanes" v="6"/>
    <tag k="name" v="North Navarro St"/>
    <tag k="ref" v="US 77"/>
    <tag k="tiger:cfcc" v="A21"/>
    <tag k="tiger:county" v="Victoria, TX"/>
    <tag k="tiger:name_base" v="Navarro"/>
    <tag k="tiger:name_base_1" v="United States Highway 77"/>
    <tag k="tiger:name_direction_prefix" v="N"/>
    <tag k="tiger:name_type" v="St"/>
    <tag k="tiger:separated" v="no"/>
    <tag k="tiger:source" v="tiger_import_dch_v0.6_20070830"/>
    <tag k="tiger:tlid" v="44570386:44577991:44573653:44558169:44558172:44558180:44558175:44577762:44558187:44558210:44577775:44558214:44570839:44558216:44577776:44558295:44558094:44558095:44558105:44558106:44570832:44558107:44558097:44570449:44578303"/>
    <tag k="tiger:zip_left" v="77904"/>
    <tag k="tiger:zip_right" v="77904"/>
  </way>
  <way id="52583679" version="4" timestamp="2012-01-07T05:03:32Z" uid="207745" user="NE2" changeset="10318298">
    <nd ref="229142239"/>
    <nd ref="229142245"/>
    <nd ref="229133194"/>
    <nd ref="229142248"/>
    <nd ref="306367758"/>
    <nd ref="229141732"/>
    <nd ref="229142251"/>
    <nd ref="229142254"/>
    <nd ref="229142256"/>
    <nd ref="229117460"/>
    <nd ref="229142258"/>
    <nd ref="229142260"/>
    <nd ref="229142262"/>
    <nd ref="229142265"/>
    <nd ref="229142268"/>
    <nd ref="229142271"/>
    <nd ref="229142274"/>
    <nd ref="229142276"/>
    <nd ref="229142278"/>
    <nd ref="229142280"/>
    <nd ref="229142282"/>
    <nd ref="229142284"/>
    <nd ref="229142287"/>
    <nd ref="229142289"/>
    <nd ref="229142291"/>
    <nd ref="229142293"/>
    <nd ref="229105591"/>
    <nd ref="229142296"/>
    <nd ref="229142299"/>
    <tag k="highway" v="trunk"/>
    <tag k="lanes" v="6"/>
    <tag k="name" v="North Navarro St"/>
    <tag k="old_ref" v="SH 295"/>
    <tag k="ref" v="US 77"/>
    <tag k="tiger:cfcc" v="A21"/>
    <tag k="tiger:county" v="Victoria, TX"/>
    <tag k="tiger:name_base" v="Navarro"/>
    <tag k="tiger:name_base_1" v="United States Highway 77"/>
    <tag k="tiger:name_direction_prefix" v="N"/>
    <tag k="tiger:name_type" v="St"/>
    <tag k="tiger:separated" v="no"/>
    <tag k="tiger:source" v="tiger_import_dch_v0.6_20070830"/>
    <tag k="tiger:tlid" v="44570386:44577991:44573653:44558169:44558172:44558180:44558175:44577762:44558187:44558210:44577775:44558214:44570839:44558216:44577776:44558295:44558094:44558095:44558105:44558106:44570832:44558107:44558097:44570449:44578303"/>
    <tag k="tiger:zip_left" v="77904"/>
    <tag k="tiger:zip_right" v="77904"/>
  </way>
  <way id="52583683" version="2" timestamp="2010-04-07T14:34:59Z" uid="20587" user="balrog-kun" changeset="4353646">
    <nd ref="236173462"/>
    <nd ref="236173466"/>
    <nd ref="236153540"/>
    <nd ref="236173472"/>
    <nd ref="236173479"/>
    <nd ref="236173484"/>
    <nd ref="236173492"/>
    <nd ref="236173497"/>
    <nd ref="236126768"/>
    <nd ref="236173499"/>
    <nd ref="236133749"/>
    <tag k="highway" v="primary"/>
    <tag k="name" v="South 18th St; United States Highway 77"/>
    <tag k="ref" v="US 77"/>
    <tag k="tiger:cfcc" v="A41"/>
    <tag k="tiger:county" v="McLennan, TX"/>
    <tag k="tiger:name_base" v="18th"/>
    <tag k="tiger:name_direction_prefix" v="S"/>
    <tag k="tiger:name_type" v="St"/>
    <tag k="tiger:reviewed" v="no"/>
    <tag k="tiger:separated" v="no"/>
    <tag k="tiger:source" v="tiger_import_dch_v0.6_20070830"/>
    <tag k="tiger:tlid" v="146770518:146767062:146773892:146744991"/>
  </way>
  <way id="52583683" version="3" timestamp="2011-06-15T05:43:43Z" uid="207745" user="NE2" changeset="8443930">
    <nd ref="236173462"/>
    <nd ref="236173466"/>
    <nd ref="236153540"/>
    <nd ref="236173472"/>
    <nd ref="236173479"/>
    <nd ref="236173484"/>
    <nd ref="236173492"/>
    <nd ref="236173497"/>
    <nd ref="236126768"/>
    <nd ref="236173499"/>
    <nd ref="236133749"/>
    <tag k="highway" v="primary"/>
    <tag k="name" v="South 18th St"/>
    <tag k="ref" v="US 77"/>
    <tag k="tiger:cfcc" v="A41"/>
    <tag k="tiger:county" v="McLennan, TX"/>
    <tag k="tiger:name_base" v="18th"/>
    <tag k="tiger:name_direction_prefix" v="S"/>
    <tag k="tiger:name_type" v="St"/>
    <tag k="tiger:reviewed" v="no"/>
    <tag k="tiger:separated" v="no"/>
    <tag k="tiger:source" v="tiger_import_dch_v0.6_20070830"/>
    <tag k="tiger:tlid" v="146770518:146767062:146773892:146744991"/>
  </way>
  <way id="52583683" version="4" timestamp="2011-06-18T14:49:14Z" uid="207745" user="NE2" changeset="8474084">
    <nd ref="236173462"/>
    <nd ref="236173466"/>
    <nd ref="236153540"/>
    <nd ref="236173472"/>
    <nd ref="236173479"/>
    <nd ref="236173484"/>
    <nd ref="236173492"/>
    <nd ref="236173497"/>
    <nd ref="236126768"/>
    <nd ref="236173499"/>
    <tag k="highway" v="primary"/>
    <tag k="lanes" v="3"/>
    <tag k="name" v="South 18th St"/>
    <tag k="oneway" v="yes"/>
    <tag k="ref" v="US 77"/>
    <tag k="tiger:cfcc" v="A41"/>
    <tag k="tiger:county" v="McLennan, TX"/>
    <tag k="tiger:name_base" v="18th"/>
    <tag k="tiger:name_direction_prefix" v="S"/>
    <tag k="tiger:name_type" v="St"/>
    <tag k="tiger:reviewed" v="no"/>
    <tag k="tiger:separated" v="no"/>
    <tag k="tiger:source" v="tiger_import_dch_v0.6_20070830"/>
    <tag k="tiger:tlid" v="146770518:146767062:146773892:146744991"/>
  </way>
  <way id="52583683" version="5" timestamp="2012-01-06T06:37:02Z" uid="207745" user="NE2" changeset="10308176">
    <nd ref="236168283"/>
    <nd ref="236173462"/>
    <nd ref="236173466"/>
    <nd ref="236153540"/>
    <nd ref="236173472"/>
    <nd ref="236173479"/>
    <nd ref="236173484"/>
    <nd ref="236173492"/>
    <nd ref="236173497"/>
    <nd ref="236126768"/>
    <nd ref="236173499"/>
    <tag k="highway" v="primary"/>
    <tag k="lanes" v="3"/>
    <tag k="name" v="South 18th St"/>
    <tag k="old_ref" v="Loop 2"/>
    <tag k="oneway" v="yes"/>
    <tag k="ref" v="US 77"/>
    <tag k="tiger:cfcc" v="A41"/>
    <tag k="tiger:county" v="McLennan, TX"/>
    <tag k="tiger:name_base" v="18th"/>
    <tag k="tiger:name_direction_prefix" v="S"/>
    <tag k="tiger:name_type" v="St"/>
    <tag k="tiger:reviewed" v="no"/>
    <tag k="tiger:separated" v="no"/>
    <tag k="tiger:source" v="tiger_import_dch_v0.6_20070830"/>
    <tag k="tiger:tlid" v="146744991:146767062:146770518:146773892"/>
  </way>
  <way id="52583685" version="3" timestamp="2010-04-07T18:39:47Z" uid="20587" user="balrog-kun" changeset="4355872">
    <nd ref="135021747"/>
    <nd ref="135021820"/>
    <nd ref="135021823"/>
    <nd ref="134992072"/>
    <nd ref="134933695"/>
    <nd ref="135021826"/>
    <nd ref="135021828"/>
    <nd ref="135021832"/>
    <nd ref="135021835"/>
    <nd ref="135021838"/>
    <nd ref="135021841"/>
    <nd ref="135021844"/>
    <nd ref="135021846"/>
    <nd ref="135021848"/>
    <tag k="highway" v="primary"/>
    <tag k="name" v="South 12th Street"/>
    <tag k="name_1" v="United States Highway 77"/>
    <tag k="ref" v="US 77"/>
    <tag k="tiger:cfcc" v="A25"/>
    <tag k="tiger:county" v="Lancaster, NE"/>
    <tag k="tiger:name_base" v="12th"/>
    <tag k="tiger:name_base_1" v="United States Highway 77"/>
    <tag k="tiger:name_direction_prefix" v="S"/>
    <tag k="tiger:name_type" v="St"/>
    <tag k="tiger:reviewed" v="no"/>
    <tag k="tiger:separated" v="yes"/>
    <tag k="tiger:source" v="tiger_import_dch_v0.6_20070813"/>
    <tag k="tiger:tlid" v="28268857:28268858"/>
    <tag k="tiger:zip_left" v="68430"/>
  </way>
  <way id="52583685" version="4" timestamp="2011-06-15T05:36:12Z" uid="207745" user="NE2" changeset="8443930">
    <nd ref="135021747"/>
    <nd ref="135021820"/>
    <nd ref="135021823"/>
    <nd ref="134992072"/>
    <nd ref="134933695"/>
    <nd ref="135021826"/>
    <nd ref="135021828"/>
    <nd ref="135021832"/>
    <nd ref="135021835"/>
    <nd ref="135021838"/>
    <nd ref="135021841"/>
    <nd ref="135021844"/>
    <nd ref="135021846"/>
    <nd ref="135021848"/>
    <tag k="highway" v="primary"/>
    <tag k="name" v="South 12th Street"/>
    <tag k="ref" v="US 77"/>
    <tag k="tiger:cfcc" v="A25"/>
    <tag k="tiger:county" v="Lancaster, NE"/>
    <tag k="tiger:name_base" v="12th"/>
    <tag k="tiger:name_base_1" v="United States Highway 77"/>
    <tag k="tiger:name_direction_prefix" v="S"/>
    <tag k="tiger:name_type" v="St"/>
    <tag k="tiger:reviewed" v="no"/>
    <tag k="tiger:separated" v="yes"/>
    <tag k="tiger:source" v="tiger_import_dch_v0.6_20070813"/>
    <tag k="tiger:tlid" v="28268857:28268858"/>
    <tag k="tiger:zip_left" v="68430"/>
  </way>
  <way id="52583685" version="5" timestamp="2011-06-23T21:19:12Z" uid="473471" user="NE3" changeset="8527020">
    <nd ref="135021848"/>
    <nd ref="135021846"/>
    <nd ref="135021844"/>
    <nd ref="135021841"/>
    <nd ref="135021838"/>
    <nd ref="135021835"/>
    <nd ref="135021832"/>
    <nd ref="135021828"/>
    <nd ref="135021826"/>
    <nd ref="134933695"/>
    <nd ref="134992072"/>
    <nd ref="135021823"/>
    <nd ref="135021820"/>
    <nd ref="135021747"/>
    <tag k="highway" v="trunk"/>
    <tag k="lanes" v="2"/>
    <tag k="name" v="South 12th Street"/>
    <tag k="oneway" v="yes"/>
    <tag k="ref" v="US 77"/>
    <tag k="tiger:cfcc" v="A25"/>
    <tag k="tiger:county" v="Lancaster, NE"/>
    <tag k="tiger:name_base" v="12th"/>
    <tag k="tiger:name_base_1" v="United States Highway 77"/>
    <tag k="tiger:name_direction_prefix" v="S"/>
    <tag k="tiger:name_type" v="St"/>
    <tag k="tiger:reviewed" v="no"/>
    <tag k="tiger:separated" v="yes"/>
    <tag k="tiger:source" v="tiger_import_dch_v0.6_20070813"/>
    <tag k="tiger:tlid" v="28268857:28268858"/>
    <tag k="tiger:zip_right" v="68430"/>
  </way>
  <way id="52583685" version="6" timestamp="2011-07-06T20:51:46Z" uid="473471" user="NE3" changeset="8652165">
    <nd ref="135021848"/>
    <nd ref="135021846"/>
    <nd ref="135021844"/>
    <nd ref="135021841"/>
    <nd ref="135021838"/>
    <nd ref="135021835"/>
    <nd ref="135021832"/>
    <nd ref="135021828"/>
    <nd ref="135021826"/>
    <nd ref="134933695"/>
    <nd ref="134992072"/>
    <nd ref="135021823"/>
    <nd ref="135021820"/>
    <nd ref="135021747"/>
    <tag k="NHS" v="yes"/>
    <tag k="highway" v="trunk"/>
    <tag k="lanes" v="2"/>
    <tag k="name" v="South 12th Street"/>
    <tag k="oneway" v="yes"/>
    <tag k="ref" v="US 77"/>
    <tag k="tiger:cfcc" v="A25"/>
    <tag k="tiger:county" v="Lancaster, NE"/>
    <tag k="tiger:name_base" v="12th"/>
    <tag k="tiger:name_base_1" v="United States Highway 77"/>
    <tag k="tiger:name_direction_prefix" v="S"/>
    <tag k="tiger:name_type" v="St"/>
    <tag k="tiger:reviewed" v="no"/>
    <tag k="tiger:separated" v="yes"/>
    <tag k="tiger:source" v="tiger_import_dch_v0.6_20070813"/>
    <tag k="tiger:tlid" v="28268857:28268858"/>
    <tag k="tiger:zip_right" v="68430"/>
  </way>
  <way id="52583685" version="7" timestamp="2011-09-11T18:50:41Z" uid="28378" user="PHerison" changeset="9273899">
    <nd ref="135021848"/>
    <nd ref="135021846"/>
    <nd ref="135021844"/>
    <nd ref="135021841"/>
    <nd ref="135021838"/>
    <nd ref="135021835"/>
    <nd ref="135021832"/>
    <nd ref="135021828"/>
    <nd ref="135021826"/>
    <nd ref="134933695"/>
    <nd ref="134992072"/>
    <nd ref="135021820"/>
    <nd ref="1430405884"/>
    <nd ref="1430405881"/>
    <nd ref="1430405869"/>
    <nd ref="1430405843"/>
    <tag k="NHS" v="yes"/>
    <tag k="highway" v="trunk"/>
    <tag k="lanes" v="2"/>
    <tag k="name" v="South 12th Street"/>
    <tag k="oneway" v="yes"/>
    <tag k="ref" v="US 77"/>
    <tag k="tiger:cfcc" v="A25"/>
    <tag k="tiger:county" v="Lancaster, NE"/>
    <tag k="tiger:name_base" v="12th"/>
    <tag k="tiger:name_base_1" v="United States Highway 77"/>
    <tag k="tiger:name_direction_prefix" v="S"/>
    <tag k="tiger:name_type" v="St"/>
    <tag k="tiger:reviewed" v="no"/>
    <tag k="tiger:separated" v="yes"/>
    <tag k="tiger:source" v="tiger_import_dch_v0.6_20070813"/>
    <tag k="tiger:tlid" v="28268857:28268858"/>
    <tag k="tiger:zip_right" v="68430"/>
  </way>
  <way id="52583685" version="8" timestamp="2011-09-18T15:20:52Z" uid="28378" user="PHerison" changeset="9333722">
    <nd ref="135021848"/>
    <nd ref="135021846"/>
    <nd ref="135021844"/>
    <nd ref="135021841"/>
    <nd ref="135021838"/>
    <nd ref="135021835"/>
    <nd ref="135021832"/>
    <nd ref="135021828"/>
    <nd ref="134933695"/>
    <nd ref="134992072"/>
    <nd ref="135021820"/>
    <nd ref="1430405884"/>
    <nd ref="1430405881"/>
    <nd ref="1430405869"/>
    <nd ref="1430405843"/>
    <tag k="NHS" v="yes"/>
    <tag k="highway" v="trunk"/>
    <tag k="lanes" v="2"/>
    <tag k="name" v="South 12th Street"/>
    <tag k="oneway" v="yes"/>
    <tag k="ref" v="US 77"/>
    <tag k="tiger:cfcc" v="A25"/>
    <tag k="tiger:county" v="Lancaster, NE"/>
    <tag k="tiger:name_base" v="12th"/>
    <tag k="tiger:name_base_1" v="United States Highway 77"/>
    <tag k="tiger:name_direction_prefix" v="S"/>
    <tag k="tiger:name_type" v="St"/>
    <tag k="tiger:reviewed" v="no"/>
    <tag k="tiger:separated" v="yes"/>
    <tag k="tiger:source" v="tiger_import_dch_v0.6_20070813"/>
    <tag k="tiger:tlid" v="28268857:28268858"/>
    <tag k="tiger:zip_right" v="68430"/>
  </way>
  <way id="52583720" version="1" timestamp="2010-03-17T16:31:13Z" uid="136042" user="gent" changeset="4154450">
    <nd ref="668001817"/>
    <nd ref="668001818"/>
    <nd ref="668001820"/>
    <nd ref="668001821"/>
    <nd ref="668001822"/>
    <nd ref="668001823"/>
    <nd ref="668001824"/>
    <nd ref="668001825"/>
    <nd ref="668001826"/>
    <nd ref="668001827"/>
    <nd ref="668001828"/>
  </way>
  <way id="52583720" version="2" timestamp="2010-03-17T16:44:06Z" uid="136042" user="gent" changeset="4154544">
    <nd ref="668001817"/>
    <nd ref="668001818"/>
    <nd ref="668001820"/>
    <nd ref="668001821"/>
    <nd ref="668001822"/>
    <nd ref="668001823"/>
    <nd ref="668001824"/>
    <nd ref="668001825"/>
    <nd ref="668001826"/>
    <nd ref="668001827"/>
    <nd ref="668001828"/>
    <tag k="highway" v="unclassified"/>
  </way>
  <way id="52583778" version="1" timestamp="2010-03-17T16:35:33Z" uid="43967" user="railsnail" changeset="4154477">
    <nd ref="668002931"/>
    <nd ref="668002932"/>
    <nd ref="668002923"/>
    <tag k="cables" v="3"/>
    <tag k="name" v="VG Lienz UW Stribach"/>
    <tag k="operator" v="TIWAG"/>
    <tag k="power" v="line"/>
    <tag k="voltage" v="110000"/>
    <tag k="wires" v="single"/>
  </way>
  <way id="52583778" version="2" timestamp="2010-04-28T13:49:25Z" uid="43967" user="railsnail" changeset="4549756">
    <nd ref="668002931"/>
    <nd ref="668002932"/>
    <nd ref="668002923"/>
    <nd ref="710530608"/>
    <nd ref="710530609"/>
    <nd ref="710530606"/>
    <tag k="cables" v="3"/>
    <tag k="name" v="VG Lienz UW Stribach"/>
    <tag k="operator" v="TIWAG"/>
    <tag k="power" v="line"/>
    <tag k="voltage" v="110000"/>
    <tag k="wires" v="single"/>
  </way>
  <way id="52583778" version="3" timestamp="2011-06-27T16:16:23Z" uid="384060" user="aliponte" changeset="8563606">
    <nd ref="668002931"/>
    <nd ref="668002932"/>
    <nd ref="668002923"/>
    <nd ref="710530608"/>
    <nd ref="710530609"/>
    <nd ref="1341284255"/>
    <nd ref="1341284250"/>
    <tag k="cables" v="3"/>
    <tag k="name" v="VG Lienz UW Stribach"/>
    <tag k="operator" v="TIWAG"/>
    <tag k="power" v="line"/>
    <tag k="voltage" v="110000"/>
    <tag k="wires" v="single"/>
  </way>
  <way id="52583778" version="4" timestamp="2011-06-29T05:50:07Z" uid="384060" user="aliponte" changeset="8577706">
    <nd ref="668002931"/>
    <nd ref="668002932"/>
    <nd ref="668002923"/>
    <nd ref="710530608"/>
    <nd ref="710530609"/>
    <nd ref="1341284255"/>
    <nd ref="1341284250"/>
    <tag k="cables" v="3"/>
    <tag k="name" v="VG Lienz - UW Stribach"/>
    <tag k="operator" v="TIWAG"/>
    <tag k="power" v="line"/>
    <tag k="voltage" v="110000"/>
    <tag k="wires" v="single"/>
  </way>
  <way id="52583779" version="1" timestamp="2010-03-17T16:35:33Z" uid="43967" user="railsnail" changeset="4154477">
    <nd ref="668002933"/>
    <nd ref="668002934"/>
    <tag k="waterway" v="stream"/>
  </way>
</osm>
