<?xml version='1.0' encoding='UTF-8'?>
<osm version="0.6" generator="libosmium/2.20.0">
  <way id="52733116" version="1" timestamp="2010-03-19T01:48:41Z" uid="137033" user="lubomir" changeset="4166927">
    <nd ref="669223448"/>
    <nd ref="669223446"/>
    <nd ref="669223445"/>
    <nd ref="669223450"/>
    <nd ref="669223449"/>
    <nd ref="669223448"/>
    <tag k="amenity" v="car_wash"/>
    <tag k="building" v="yes"/>
    <tag k="name" v="VALTY"/>
  </way>
  <way id="52733530" version="2" timestamp="2010-04-02T17:58:47Z" uid="20587" user="balrog-kun" changeset="4304500">
    <nd ref="53105077"/>
    <nd ref="53103066"/>
    <nd ref="53105079"/>
    <nd ref="53105081"/>
    <nd ref="283227578"/>
    <nd ref="283227582"/>
    <nd ref="283227596"/>
    <nd ref="283227593"/>
    <nd ref="283227592"/>
    <nd ref="283227595"/>
    <nd ref="283227586"/>
    <nd ref="53105082"/>
    <tag k="highway" v="residential"/>
    <tag k="name" v="123rd Place Southeast"/>
    <tag k="tiger:cfcc" v="A41"/>
    <tag k="tiger:county" v="King, WA"/>
    <tag k="tiger:name_base" v="123rd"/>
    <tag k="tiger:name_direction_suffix" v="SE"/>
    <tag k="tiger:name_type" v="Pl"/>
    <tag k="tiger:reviewed" v="no"/>
    <tag k="tiger:separated" v="no"/>
    <tag k="tiger:source" v="tiger_import_dch_v0.6_20070830"/>
    <tag k="tiger:tlid" v="186634148:186634149:186634158:186634159:186634162"/>
    <tag k="tiger:zip_left" v="98031"/>
    <tag k="tiger:zip_right" v="98031"/>
  </way>
  <way id="52733533" version="2" timestamp="2010-07-25T07:25:28Z" uid="4467" user="Rosscoe" changeset="5309337">
    <nd ref="669225082"/>
    <nd ref="669225083"/>
    <nd ref="669225084"/>
    <nd ref="669225085"/>
    <nd ref="669225086"/>
    <nd ref="669225087"/>
    <nd ref="669225088"/>
    <tag k="bridge" v="yes"/>
    <tag k="construction" v="railway"/>
    <tag k="layer" v="1"/>
    <tag k="name" v="Wodonga Bypass"/>
    <tag k="railway" v="construction"/>
  </way>
  <way id="52733533" version="3" timestamp="2010-07-29T09:20:35Z" uid="11111" user="lakeyboy" changeset="5344953">
    <nd ref="669225082"/>
    <nd ref="669225083"/>
    <nd ref="669225084"/>
    <nd ref="669225085"/>
    <nd ref="669225086"/>
    <nd ref="669225087"/>
    <nd ref="669225088"/>
    <tag k="bridge" v="yes"/>
    <tag k="layer" v="1"/>
  </way>
  <way id="52733533" version="4" timestamp="2010-07-29T09:21:07Z" uid="11111" user="lakeyboy" changeset="5344953">
    <nd ref="669225082"/>
    <nd ref="837215737"/>
    <nd ref="669225083"/>
    <nd ref="837215743"/>
    <nd ref="669225084"/>
    <nd ref="669225085"/>
    <nd ref="837215745"/>
    <nd ref="669225086"/>
    <nd ref="669225087"/>
    <nd ref="669225088"/>
    <tag k="bridge" v="yes"/>
    <tag k="gauge" v="standard"/>
    <tag k="layer" v="1"/>
    <tag k="railway" v="rail"/>
    <tag k="source" v="nearmap"/>
  </way>
  <way id="52733533" version="5" timestamp="2010-07-29T09:21:14Z" uid="11111" user="lakeyboy" changeset="5344953">
    <nd ref="669225082"/>
    <nd ref="837215843"/>
    <nd ref="837215737"/>
    <nd ref="669225083"/>
    <nd ref="837215743"/>
    <nd ref="669225084"/>
    <nd ref="669225085"/>
    <nd ref="837215745"/>
    <nd ref="669225086"/>
    <nd ref="669225087"/>
    <nd ref="669225088"/>
    <tag k="bridge" v="yes"/>
    <tag k="gauge" v="standard"/>
    <tag k="layer" v="1"/>
    <tag k="railway" v="rail"/>
    <tag k="source" v="nearmap"/>
  </way>
  <way id="52733533" version="6" timestamp="2010-08-08T11:58:38Z" uid="79475" user="AlexOnTheBus" changeset="5432243">
    <nd ref="669225082"/>
    <nd ref="837215843"/>
    <nd ref="837215737"/>
    <nd ref="669225083"/>
    <nd ref="837215743"/>
    <nd ref="669225084"/>
    <nd ref="669225085"/>
    <nd ref="837215745"/>
    <nd ref="669225086"/>
    <nd ref="669225087"/>
    <nd ref="669225088"/>
    <tag k="bridge" v="yes"/>
    <tag k="gauge" v="standard"/>
    <tag k="layer" v="1"/>
    <tag k="name" v="North Eastern Standard Gauge Line"/>
    <tag k="railway" v="rail"/>
    <tag k="source" v="nearmap"/>
  </way>
  <way id="52733534" version="3" timestamp="2010-07-25T07:25:30Z" uid="4467" user="Rosscoe" changeset="5309337">
    <nd ref="669225089"/>
    <nd ref="669225090"/>
    <tag k="bridge" v="yes"/>
    <tag k="construction" v="railway"/>
    <tag k="layer" v="1"/>
    <tag k="name" v="Wodonga Bypass"/>
    <tag k="railway" v="construction"/>
  </way>
  <way id="52733534" version="4" timestamp="2010-07-29T09:19:47Z" uid="11111" user="lakeyboy" changeset="5344953">
    <nd ref="669225089"/>
    <nd ref="669225090"/>
    <tag k="bridge" v="yes"/>
    <tag k="layer" v="1"/>
  </way>
  <way id="52733534" version="5" timestamp="2010-07-29T09:19:54Z" uid="11111" user="lakeyboy" changeset="5344953">
    <nd ref="669225089"/>
    <nd ref="669225090"/>
    <tag k="bridge" v="yes"/>
    <tag k="gauge" v="standard"/>
    <tag k="layer" v="1"/>
    <tag k="railway" v="rail"/>
    <tag k="source" v="nearmap"/>
  </way>
  <way id="52733534" version="6" timestamp="2010-08-08T11:58:55Z" uid="79475" user="AlexOnTheBus" changeset="5432243">
    <nd ref="669225089"/>
    <nd ref="669225090"/>
    <tag k="bridge" v="yes"/>
    <tag k="gauge" v="standard"/>
    <tag k="layer" v="1"/>
    <tag k="name" v="North Eastern Standard Gauge Line"/>
    <tag k="railway" v="rail"/>
    <tag k="source" v="nearmap"/>
  </way>
  <way id="52733783" version="1" timestamp="2010-03-19T02:51:36Z" uid="74617" user="JohnSmith" changeset="4167051">
    <nd ref="669230770"/>
    <nd ref="669230775"/>
    <nd ref="669230776"/>
    <nd ref="669230777"/>
    <nd ref="669230778"/>
    <nd ref="669230779"/>
    <nd ref="669230780"/>
    <nd ref="669230781"/>
    <tag k="highway" v="residential"/>
    <tag k="maxspeed" v="50"/>
    <tag k="source" v="nearmap"/>
  </way>
  <way id="52733783" version="2" timestamp="2011-07-17T03:54:16Z" uid="490366" user="bjk1" changeset="8744252">
    <nd ref="669230770"/>
    <nd ref="669230775"/>
    <nd ref="669230776"/>
    <nd ref="669230777"/>
    <nd ref="669230778"/>
    <nd ref="669230779"/>
    <nd ref="669230780"/>
    <nd ref="669230781"/>
    <tag k="highway" v="residential"/>
    <tag k="maxspeed" v="50"/>
    <tag k="name" v="Prosper Crt"/>
    <tag k="source" v="nearmap"/>
  </way>
  <way id="52733784" version="1" timestamp="2010-03-19T02:51:36Z" uid="74617" user="JohnSmith" changeset="4167051">
    <nd ref="669230749"/>
    <nd ref="669230750"/>
    <nd ref="669230751"/>
    <tag k="highway" v="residential"/>
    <tag k="maxspeed" v="50"/>
    <tag k="source" v="nearmap"/>
  </way>
  <way id="52733784" version="2" timestamp="2011-03-16T11:49:18Z" uid="349913" user="Peter W34" changeset="7574540">
    <nd ref="669230749"/>
    <nd ref="669230750"/>
    <nd ref="669230751"/>
    <tag k="highway" v="residential"/>
    <tag k="maxspeed" v="50"/>
    <tag k="name" v="Eagle Court"/>
    <tag k="source" v="nearmap"/>
  </way>
  <way id="52733785" version="1" timestamp="2010-03-19T02:51:36Z" uid="74617" user="JohnSmith" changeset="4167051">
    <nd ref="669230750"/>
    <nd ref="669230748"/>
    <tag k="highway" v="residential"/>
    <tag k="maxspeed" v="50"/>
    <tag k="source" v="nearmap"/>
  </way>
  <way id="52733785" version="2" timestamp="2011-03-16T11:49:17Z" uid="349913" user="Peter W34" changeset="7574540">
    <nd ref="669230750"/>
    <nd ref="669230748"/>
    <tag k="highway" v="residential"/>
    <tag k="maxspeed" v="50"/>
    <tag k="name" v="Eagle Court"/>
    <tag k="source" v="nearmap"/>
  </way>
  <way id="52733786" version="1" timestamp="2010-03-19T02:51:36Z" uid="74617" user="JohnSmith" changeset="4167051">
    <nd ref="669230760"/>
    <nd ref="669230766"/>
    <nd ref="669230767"/>
    <nd ref="669230768"/>
    <nd ref="669230769"/>
    <nd ref="669230771"/>
    <tag k="highway" v="residential"/>
    <tag k="maxspeed" v="50"/>
    <tag k="source" v="nearmap"/>
  </way>
  <way id="52733786" version="2" timestamp="2011-07-17T03:57:35Z" uid="490366" user="bjk1" changeset="8744263">
    <nd ref="669230760"/>
    <nd ref="669230766"/>
    <nd ref="669230767"/>
    <nd ref="669230768"/>
    <nd ref="669230769"/>
    <nd ref="669230771"/>
    <tag k="highway" v="residential"/>
    <tag k="maxspeed" v="50"/>
    <tag k="name" v="Thursh Court"/>
    <tag k="source" v="nearmap"/>
  </way>
  <way id="52733787" version="1" timestamp="2010-03-19T02:51:36Z" uid="74617" user="JohnSmith" changeset="4167051">
    <nd ref="669230757"/>
    <nd ref="669230758"/>
    <nd ref="669230752"/>
    <nd ref="669230753"/>
    <nd ref="669230754"/>
    <nd ref="669230755"/>
    <nd ref="669230756"/>
    <tag k="highway" v="residential"/>
    <tag k="maxspeed" v="50"/>
    <tag k="source" v="nearmap"/>
  </way>
  <way id="52733787" version="2" timestamp="2011-07-17T03:57:58Z" uid="490366" user="bjk1" changeset="8744263">
    <nd ref="669230757"/>
    <nd ref="669230758"/>
    <nd ref="669230752"/>
    <nd ref="669230753"/>
    <nd ref="669230754"/>
    <nd ref="669230755"/>
    <nd ref="669230756"/>
    <tag k="highway" v="residential"/>
    <tag k="maxspeed" v="50"/>
    <tag k="name" v="Heron Court"/>
    <tag k="source" v="nearmap"/>
  </way>
  <way id="52733788" version="1" timestamp="2010-03-19T02:51:36Z" uid="74617" user="JohnSmith" changeset="4167051">
    <nd ref="668710167"/>
    <nd ref="669230763"/>
    <nd ref="669230764"/>
    <nd ref="669230765"/>
    <nd ref="669230759"/>
    <tag k="highway" v="residential"/>
    <tag k="maxspeed" v="50"/>
    <tag k="source" v="nearmap"/>
  </way>
  <way id="52733788" version="2" timestamp="2012-02-23T09:39:35Z" uid="168136" user="goldfishxyz" changeset="10766337">
    <nd ref="668710167"/>
    <nd ref="669230763"/>
    <nd ref="669230764"/>
    <nd ref="669230765"/>
    <nd ref="669230759"/>
    <tag k="highway" v="residential"/>
    <tag k="maxspeed" v="50"/>
    <tag k="name" v="Quail Court"/>
    <tag k="source" v="nearmap"/>
  </way>
  <way id="52733789" version="1" timestamp="2010-03-19T02:51:36Z" uid="74617" user="JohnSmith" changeset="4167051">
    <nd ref="669230783"/>
    <nd ref="332267476"/>
    <nd ref="669230782"/>
    <tag k="highway" v="residential"/>
    <tag k="maxspeed" v="50"/>
    <tag k="source" v="nearmap"/>
  </way>
  <way id="52733789" version="2" timestamp="2012-02-23T05:33:17Z" uid="168136" user="goldfishxyz" changeset="10765229">
    <nd ref="669230783"/>
    <nd ref="332267476"/>
    <nd ref="669230782"/>
    <tag k="highway" v="residential"/>
    <tag k="maxspeed" v="50"/>
    <tag k="name" v="Cyrillia Court"/>
    <tag k="source" v="nearmap"/>
  </way>
  <way id="52733893" version="1" timestamp="2010-03-19T03:00:33Z" uid="74617" user="JohnSmith" changeset="4167054">
    <nd ref="474842842"/>
    <nd ref="669231429"/>
    <nd ref="669231416"/>
    <nd ref="669231417"/>
    <nd ref="669231418"/>
    <nd ref="669231406"/>
    <nd ref="669231352"/>
    <tag k="highway" v="residential"/>
    <tag k="maxspeed" v="50"/>
    <tag k="source" v="nearmap"/>
  </way>
  <way id="52733893" version="2" timestamp="2012-02-23T09:15:00Z" uid="168136" user="goldfishxyz" changeset="10766337">
    <nd ref="474842842"/>
    <nd ref="669231429"/>
    <nd ref="669231416"/>
    <nd ref="669231417"/>
    <nd ref="669231418"/>
    <nd ref="669231406"/>
    <nd ref="669231352"/>
    <tag k="highway" v="residential"/>
    <tag k="maxspeed" v="50"/>
    <tag k="name" v="Ritter Road"/>
    <tag k="source" v="nearmap"/>
  </way>
  <way id="52733894" version="1" timestamp="2010-03-19T03:00:33Z" uid="74617" user="JohnSmith" changeset="4167054">
    <nd ref="669231418"/>
    <nd ref="669231407"/>
    <nd ref="669231408"/>
    <nd ref="669231409"/>
    <nd ref="669231410"/>
    <nd ref="669231411"/>
    <nd ref="669231412"/>
    <nd ref="669231354"/>
    <tag k="highway" v="residential"/>
    <tag k="maxspeed" v="50"/>
    <tag k="source" v="nearmap"/>
  </way>
  <way id="52733894" version="2" timestamp="2012-02-23T09:17:14Z" uid="168136" user="goldfishxyz" changeset="10766337">
    <nd ref="669231418"/>
    <nd ref="669231407"/>
    <nd ref="669231408"/>
    <nd ref="669231409"/>
    <nd ref="669231410"/>
    <nd ref="669231411"/>
    <nd ref="669231412"/>
    <nd ref="669231354"/>
    <tag k="highway" v="residential"/>
    <tag k="maxspeed" v="50"/>
    <tag k="name" v="McCrohan Court"/>
    <tag k="source" v="nearmap"/>
  </way>
  <way id="52733895" version="1" timestamp="2010-03-19T03:00:33Z" uid="74617" user="JohnSmith" changeset="4167054">
    <nd ref="669231406"/>
    <nd ref="669231377"/>
    <nd ref="669231378"/>
    <nd ref="669231419"/>
    <nd ref="669231420"/>
    <nd ref="669231421"/>
    <tag k="highway" v="residential"/>
    <tag k="maxspeed" v="50"/>
    <tag k="source" v="nearmap"/>
  </way>
  <way id="52733895" version="2" timestamp="2012-02-23T09:18:11Z" uid="168136" user="goldfishxyz" changeset="10766337">
    <nd ref="669231406"/>
    <nd ref="669231377"/>
    <nd ref="669231378"/>
    <nd ref="669231419"/>
    <nd ref="669231420"/>
    <nd ref="669231421"/>
    <tag k="highway" v="residential"/>
    <tag k="maxspeed" v="50"/>
    <tag k="name" v="Toole Court"/>
    <tag k="source" v="nearmap"/>
  </way>
  <way id="52733896" version="1" timestamp="2010-03-19T03:00:33Z" uid="74617" user="JohnSmith" changeset="4167054">
    <nd ref="669231351"/>
    <nd ref="669231355"/>
    <nd ref="669231356"/>
    <nd ref="669231357"/>
    <nd ref="669231358"/>
    <nd ref="669231413"/>
    <nd ref="669231414"/>
    <nd ref="669231415"/>
    <tag k="highway" v="residential"/>
    <tag k="maxspeed" v="50"/>
    <tag k="source" v="nearmap"/>
  </way>
  <way id="52733896" version="2" timestamp="2012-02-23T09:22:38Z" uid="168136" user="goldfishxyz" changeset="10766337">
    <nd ref="669231351"/>
    <nd ref="669231355"/>
    <nd ref="669231356"/>
    <nd ref="669231357"/>
    <nd ref="669231358"/>
    <nd ref="669231413"/>
    <nd ref="669231414"/>
    <nd ref="669231415"/>
    <tag k="highway" v="residential"/>
    <tag k="maxspeed" v="50"/>
    <tag k="name" v="McEachern Court"/>
    <tag k="source" v="nearmap"/>
  </way>
  <way id="52733897" version="1" timestamp="2010-03-19T03:00:33Z" uid="74617" user="JohnSmith" changeset="4167054">
    <nd ref="669231350"/>
    <nd ref="669231351"/>
    <nd ref="669231392"/>
    <nd ref="669231393"/>
    <nd ref="669231394"/>
    <nd ref="669231395"/>
    <nd ref="669231396"/>
    <nd ref="669231397"/>
    <nd ref="669231398"/>
    <nd ref="669231399"/>
    <nd ref="668711708"/>
    <tag k="highway" v="residential"/>
    <tag k="maxspeed" v="50"/>
    <tag k="source" v="nearmap"/>
  </way>
  <way id="52733897" version="2" timestamp="2012-02-23T09:22:38Z" uid="168136" user="goldfishxyz" changeset="10766337">
    <nd ref="669231350"/>
    <nd ref="669231351"/>
    <nd ref="669231392"/>
    <nd ref="669231393"/>
    <nd ref="669231394"/>
    <nd ref="669231395"/>
    <nd ref="669231396"/>
    <nd ref="669231397"/>
    <nd ref="669231398"/>
    <nd ref="669231399"/>
    <nd ref="668711708"/>
    <tag k="highway" v="residential"/>
    <tag k="maxspeed" v="50"/>
    <tag k="name" v="Hibbett Crescent"/>
    <tag k="source" v="nearmap"/>
  </way>
  <way id="52733898" version="1" timestamp="2010-03-19T03:00:34Z" uid="74617" user="JohnSmith" changeset="4167054">
    <nd ref="669231359"/>
    <nd ref="669231360"/>
    <nd ref="669231361"/>
    <nd ref="669231362"/>
    <nd ref="669231363"/>
    <nd ref="669231364"/>
    <nd ref="669231365"/>
    <nd ref="669231366"/>
    <nd ref="669231367"/>
    <nd ref="669231368"/>
    <tag k="highway" v="residential"/>
    <tag k="maxspeed" v="50"/>
    <tag k="source" v="nearmap"/>
  </way>
  <way id="52733899" version="1" timestamp="2010-03-19T03:00:34Z" uid="74617" user="JohnSmith" changeset="4167054">
    <nd ref="252701239"/>
    <nd ref="252701244"/>
    <nd ref="669231372"/>
    <nd ref="669231376"/>
    <nd ref="669231352"/>
    <nd ref="669231353"/>
    <tag k="highway" v="residential"/>
    <tag k="maxspeed" v="50"/>
    <tag k="source" v="nearmap"/>
  </way>
  <way id="52733899" version="2" timestamp="2012-02-23T09:18:12Z" uid="168136" user="goldfishxyz" changeset="10766337">
    <nd ref="252701239"/>
    <nd ref="252701244"/>
    <nd ref="669231372"/>
    <nd ref="669231376"/>
    <nd ref="669231352"/>
    <nd ref="669231353"/>
    <tag k="highway" v="residential"/>
    <tag k="maxspeed" v="50"/>
    <tag k="name" v="Ritter Road"/>
    <tag k="source" v="nearmap"/>
  </way>
  <way id="52733900" version="1" timestamp="2010-03-19T03:00:34Z" uid="74617" user="JohnSmith" changeset="4167054">
    <nd ref="669231364"/>
    <nd ref="669231369"/>
    <nd ref="669231370"/>
    <nd ref="669231371"/>
    <nd ref="669231373"/>
    <nd ref="669231374"/>
    <nd ref="669231375"/>
    <nd ref="669231376"/>
    <tag k="highway" v="residential"/>
    <tag k="maxspeed" v="50"/>
    <tag k="source" v="nearmap"/>
  </way>
  <way id="52733901" version="1" timestamp="2010-03-19T03:00:34Z" uid="74617" user="JohnSmith" changeset="4167054">
    <nd ref="669231380"/>
    <nd ref="669231381"/>
    <nd ref="669231389"/>
    <nd ref="669231390"/>
    <tag k="highway" v="residential"/>
    <tag k="maxspeed" v="50"/>
    <tag k="source" v="nearmap"/>
  </way>
  <way id="52733901" version="2" timestamp="2012-02-23T09:38:19Z" uid="168136" user="goldfishxyz" changeset="10766337">
    <nd ref="669231380"/>
    <nd ref="669231381"/>
    <nd ref="669231389"/>
    <nd ref="669231390"/>
    <tag k="highway" v="residential"/>
    <tag k="maxspeed" v="50"/>
    <tag k="name" v="Canary Court"/>
    <tag k="source" v="nearmap"/>
  </way>
  <way id="52733902" version="1" timestamp="2010-03-19T03:00:34Z" uid="74617" user="JohnSmith" changeset="4167054">
    <nd ref="474839881"/>
    <nd ref="669231391"/>
    <nd ref="669231382"/>
    <nd ref="669231383"/>
    <nd ref="669231384"/>
    <nd ref="669231385"/>
    <nd ref="669231379"/>
    <nd ref="669231386"/>
    <tag k="highway" v="residential"/>
    <tag k="maxspeed" v="50"/>
    <tag k="source" v="nearmap"/>
  </way>
  <way id="52733902" version="2" timestamp="2012-02-23T09:38:20Z" uid="168136" user="goldfishxyz" changeset="10766337">
    <nd ref="474839881"/>
    <nd ref="669231391"/>
    <nd ref="669231382"/>
    <nd ref="669231383"/>
    <nd ref="669231384"/>
    <nd ref="669231385"/>
    <nd ref="669231379"/>
    <nd ref="669231386"/>
    <tag k="highway" v="residential"/>
    <tag k="maxspeed" v="50"/>
    <tag k="name" v="Swift Court"/>
    <tag k="source" v="nearmap"/>
  </way>
  <way id="52733903" version="1" timestamp="2010-03-19T03:00:34Z" uid="74617" user="JohnSmith" changeset="4167054">
    <nd ref="669231403"/>
    <nd ref="474842818"/>
    <nd ref="474842821"/>
    <nd ref="474842822"/>
    <nd ref="474842828"/>
    <nd ref="669231437"/>
    <nd ref="474842830"/>
    <nd ref="669231436"/>
    <nd ref="474842832"/>
    <nd ref="474842833"/>
    <nd ref="474842836"/>
    <nd ref="474842838"/>
    <nd ref="474842841"/>
    <nd ref="669231428"/>
    <tag k="highway" v="residential"/>
    <tag k="maxspeed" v="40"/>
    <tag k="name" v="Silva Drive"/>
    <tag k="source" v="nearmap"/>
  </way>
  <way id="52733903" version="2" timestamp="2010-03-19T03:29:41Z" uid="74617" user="JohnSmith" changeset="4167087">
    <nd ref="669231403"/>
    <nd ref="669232964"/>
    <nd ref="474842818"/>
    <nd ref="474842821"/>
    <nd ref="474842822"/>
    <nd ref="669232965"/>
    <nd ref="474842828"/>
    <nd ref="669231437"/>
    <nd ref="474842830"/>
    <nd ref="669231436"/>
    <nd ref="474842832"/>
    <nd ref="474842833"/>
    <nd ref="474842836"/>
    <nd ref="474842838"/>
    <nd ref="474842841"/>
    <nd ref="669231428"/>
    <tag k="highway" v="residential"/>
    <tag k="maxspeed" v="40"/>
    <tag k="name" v="Silva Drive"/>
    <tag k="source" v="nearmap"/>
  </way>
  <way id="52733904" version="1" timestamp="2010-03-19T03:00:34Z" uid="74617" user="JohnSmith" changeset="4167054">
    <nd ref="669231428"/>
    <nd ref="474842842"/>
    <nd ref="474842845"/>
    <nd ref="668716202"/>
    <nd ref="474842846"/>
    <nd ref="474842791"/>
    <tag k="highway" v="residential"/>
    <tag k="maxspeed" v="50"/>
    <tag k="name" v="Silva Drive"/>
    <tag k="source" v="nearmap"/>
  </way>
  <way id="52733905" version="1" timestamp="2010-03-19T03:00:35Z" uid="74617" user="JohnSmith" changeset="4167054">
    <nd ref="669231416"/>
    <nd ref="669231422"/>
    <nd ref="669231423"/>
    <nd ref="669231424"/>
    <nd ref="669231425"/>
    <nd ref="669231426"/>
    <nd ref="669231427"/>
    <tag k="highway" v="residential"/>
    <tag k="maxspeed" v="50"/>
    <tag k="source" v="nearmap"/>
  </way>
  <way id="52733905" version="2" timestamp="2012-02-23T09:15:20Z" uid="168136" user="goldfishxyz" changeset="10766337">
    <nd ref="669231416"/>
    <nd ref="669231422"/>
    <nd ref="669231423"/>
    <nd ref="669231424"/>
    <nd ref="669231425"/>
    <nd ref="669231426"/>
    <nd ref="669231427"/>
    <tag k="highway" v="residential"/>
    <tag k="maxspeed" v="50"/>
    <tag k="name" v="Wright Court"/>
    <tag k="source" v="nearmap"/>
  </way>
  <way id="52733906" version="1" timestamp="2010-03-19T03:00:35Z" uid="74617" user="JohnSmith" changeset="4167054">
    <nd ref="668716205"/>
    <nd ref="669231432"/>
    <nd ref="669231433"/>
    <nd ref="669231434"/>
    <nd ref="669231430"/>
    <tag k="highway" v="residential"/>
    <tag k="maxspeed" v="50"/>
    <tag k="source" v="nearmap"/>
  </way>
  <way id="52733906" version="2" timestamp="2012-02-23T09:14:21Z" uid="168136" user="goldfishxyz" changeset="10766337">
    <nd ref="668716205"/>
    <nd ref="669231432"/>
    <nd ref="669231433"/>
    <nd ref="669231434"/>
    <nd ref="669231430"/>
    <tag k="highway" v="residential"/>
    <tag k="maxspeed" v="50"/>
    <tag k="name" v="Voelker Court"/>
    <tag k="source" v="nearmap"/>
  </way>
  <way id="52733920" version="2" timestamp="2010-04-03T13:58:49Z" uid="20587" user="balrog-kun" changeset="4312927">
    <nd ref="83861544"/>
    <nd ref="83861546"/>
    <nd ref="83829023"/>
    <nd ref="83846160"/>
    <nd ref="83861548"/>
    <nd ref="83861549"/>
    <nd ref="83861551"/>
    <nd ref="83861553"/>
    <nd ref="83861555"/>
    <nd ref="83801755"/>
    <nd ref="83861557"/>
    <nd ref="83861560"/>
    <nd ref="83861561"/>
    <nd ref="83861562"/>
    <nd ref="83861564"/>
    <nd ref="83855444"/>
    <nd ref="83794150"/>
    <nd ref="83861566"/>
    <nd ref="83846157"/>
    <nd ref="83861568"/>
    <nd ref="83861570"/>
    <nd ref="83831934"/>
    <nd ref="83861572"/>
    <nd ref="83861574"/>
    <nd ref="83861576"/>
    <nd ref="83861578"/>
    <nd ref="83861580"/>
    <nd ref="83848856"/>
    <nd ref="83861006"/>
    <tag k="highway" v="primary"/>
    <tag k="name" v="Sevier Highway"/>
    <tag k="tiger:cfcc" v="A31"/>
    <tag k="tiger:county" v="Sevier, UT"/>
    <tag k="tiger:name_base" v="Highway 89"/>
    <tag k="tiger:name_base_1" v="Sevier"/>
    <tag k="tiger:name_base_2" v="United States Highway 89"/>
    <tag k="tiger:name_direction_prefix" v="S"/>
    <tag k="tiger:name_type_1" v="Hwy"/>
    <tag k="tiger:reviewed" v="no"/>
    <tag k="tiger:separated" v="no"/>
    <tag k="tiger:source" v="tiger_import_dch_v0.6_20070830"/>
    <tag k="tiger:tlid" v="175336962:175339588:175339291:175339292:175335071:175335083:175337144:175337139:175337145:175339593:175339594"/>
  </way>
  <way id="52733920" version="3" timestamp="2011-03-31T15:00:27Z" uid="207745" user="NE2" changeset="7726674"/>
  <way id="52733923" version="2" timestamp="2010-04-03T13:58:49Z" uid="20587" user="balrog-kun" changeset="4312927">
    <nd ref="376432298"/>
    <nd ref="83855033"/>
    <tag k="highway" v="residential"/>
    <tag k="name" v="Elsinore Road"/>
    <tag k="tiger:cfcc" v="A41"/>
    <tag k="tiger:county" v="Sevier, UT"/>
    <tag k="tiger:name_base" v="Elsinore"/>
    <tag k="tiger:name_type" v="Rd"/>
    <tag k="tiger:separated" v="no"/>
    <tag k="tiger:source" v="tiger_import_dch_v0.6_20070830"/>
    <tag k="tiger:tlid" v="175340349:175340339"/>
  </way>
  <way id="52733929" version="2" timestamp="2010-04-03T13:58:50Z" uid="20587" user="balrog-kun" changeset="4312927">
    <nd ref="84721998"/>
    <nd ref="84721999"/>
    <nd ref="84722003"/>
    <nd ref="84722007"/>
    <nd ref="417919550"/>
    <tag k="highway" v="residential"/>
    <tag k="name" v="North 1200 West"/>
    <tag k="name_1" v="North 1200  West"/>
    <tag k="name_2" v="North 8800  West"/>
    <tag k="tiger:cfcc" v="A41"/>
    <tag k="tiger:county" v="Utah, UT"/>
    <tag k="tiger:name_base" v="1200 West"/>
    <tag k="tiger:name_base_1" v="1200"/>
    <tag k="tiger:name_base_2" v="8800"/>
    <tag k="tiger:name_direction_prefix" v="N"/>
    <tag k="tiger:name_direction_prefix_1" v="N"/>
    <tag k="tiger:name_direction_prefix_2" v="N"/>
    <tag k="tiger:name_direction_suffix_1" v="W"/>
    <tag k="tiger:name_direction_suffix_2" v="W"/>
    <tag k="tiger:name_type" v="St"/>
    <tag k="tiger:reviewed" v="no"/>
    <tag k="tiger:separated" v="no"/>
    <tag k="tiger:source" v="tiger_import_dch_v0.6_20070830"/>
    <tag k="tiger:tlid" v="134212706:134263916"/>
  </way>
  <way id="52733929" version="3" timestamp="2011-02-22T18:52:46Z" uid="341359" user="jackwiplock" changeset="7366210">
    <nd ref="84721998"/>
    <nd ref="84721999"/>
    <nd ref="84722003"/>
    <nd ref="84722007"/>
    <nd ref="417919550"/>
    <tag k="highway" v="residential"/>
    <tag k="name" v="North 1200 West"/>
    <tag k="name_1" v="North 1200  West"/>
    <tag k="name_2" v="North 8800  West"/>
    <tag k="tiger:cfcc" v="A41"/>
    <tag k="tiger:county" v="Utah, UT"/>
    <tag k="tiger:name_base" v="1200 West"/>
    <tag k="tiger:name_base_1" v="1200"/>
    <tag k="tiger:name_base_2" v="8800"/>
    <tag k="tiger:name_direction_prefix" v="N"/>
    <tag k="tiger:name_direction_prefix_1" v="N"/>
    <tag k="tiger:name_direction_prefix_2" v="N"/>
    <tag k="tiger:name_direction_suffix_1" v="W"/>
    <tag k="tiger:name_direction_suffix_2" v="W"/>
    <tag k="tiger:name_type" v="St"/>
    <tag k="tiger:separated" v="no"/>
    <tag k="tiger:source" v="tiger_import_dch_v0.6_20070830"/>
    <tag k="tiger:tlid" v="134212706:134263916"/>
  </way>
  <way id="52733929" version="4" timestamp="2011-07-13T05:31:33Z" uid="473471" user="NE3" changeset="8709061">
    <nd ref="84721998"/>
    <nd ref="84721999"/>
    <nd ref="84722003"/>
    <nd ref="84722007"/>
    <tag k="highway" v="tertiary"/>
    <tag k="name" v="North 1200 West"/>
    <tag k="name_1" v="North 1200  West"/>
    <tag k="name_2" v="North 8800  West"/>
    <tag k="tiger:cfcc" v="A41"/>
    <tag k="tiger:county" v="Utah, UT"/>
    <tag k="tiger:name_base" v="1200 West"/>
    <tag k="tiger:name_base_1" v="1200"/>
    <tag k="tiger:name_base_2" v="8800"/>
    <tag k="tiger:name_direction_prefix" v="N"/>
    <tag k="tiger:name_direction_prefix_1" v="N"/>
    <tag k="tiger:name_direction_prefix_2" v="N"/>
    <tag k="tiger:name_direction_suffix_1" v="W"/>
    <tag k="tiger:name_direction_suffix_2" v="W"/>
    <tag k="tiger:name_type" v="St"/>
    <tag k="tiger:separated" v="no"/>
    <tag k="tiger:source" v="tiger_import_dch_v0.6_20070830"/>
    <tag k="tiger:tlid" v="134212706:134263916"/>
  </way>
  <way id="52733932" version="3" timestamp="2010-04-03T13:58:50Z" uid="20587" user="balrog-kun" changeset="4312927">
    <nd ref="84250450"/>
    <nd ref="84721995"/>
    <nd ref="84721998"/>
    <tag k="highway" v="primary"/>
    <tag k="name" v="North 1200 West"/>
    <tag k="name_1" v="North 1200  West"/>
    <tag k="name_2" v="North 8800  West"/>
    <tag k="ref" v="US 89"/>
    <tag k="tiger:cfcc" v="A41"/>
    <tag k="tiger:county" v="Utah, UT"/>
    <tag k="tiger:name_base" v="1200 West"/>
    <tag k="tiger:name_base_1" v="1200"/>
    <tag k="tiger:name_base_2" v="8800"/>
    <tag k="tiger:name_direction_prefix" v="N"/>
    <tag k="tiger:name_direction_prefix_1" v="N"/>
    <tag k="tiger:name_direction_prefix_2" v="N"/>
    <tag k="tiger:name_direction_suffix_1" v="W"/>
    <tag k="tiger:name_direction_suffix_2" v="W"/>
    <tag k="tiger:name_type" v="St"/>
    <tag k="tiger:reviewed" v="no"/>
    <tag k="tiger:separated" v="no"/>
    <tag k="tiger:source" v="tiger_import_dch_v0.6_20070830"/>
    <tag k="tiger:tlid" v="134212706:134263916"/>
  </way>
  <way id="52733932" version="4" timestamp="2011-02-22T18:53:02Z" uid="341359" user="jackwiplock" changeset="7366210">
    <nd ref="84250450"/>
    <nd ref="84721998"/>
    <tag k="highway" v="primary"/>
    <tag k="name" v="North 1200 West"/>
    <tag k="name_1" v="North 1200  West"/>
    <tag k="name_2" v="North 8800  West"/>
    <tag k="ref" v="US 89"/>
    <tag k="tiger:cfcc" v="A41"/>
    <tag k="tiger:county" v="Utah, UT"/>
    <tag k="tiger:name_base" v="1200 West"/>
    <tag k="tiger:name_base_1" v="1200"/>
    <tag k="tiger:name_base_2" v="8800"/>
    <tag k="tiger:name_direction_prefix" v="N"/>
    <tag k="tiger:name_direction_prefix_1" v="N"/>
    <tag k="tiger:name_direction_prefix_2" v="N"/>
    <tag k="tiger:name_direction_suffix_1" v="W"/>
    <tag k="tiger:name_direction_suffix_2" v="W"/>
    <tag k="tiger:name_type" v="St"/>
    <tag k="tiger:separated" v="no"/>
    <tag k="tiger:source" v="tiger_import_dch_v0.6_20070830"/>
    <tag k="tiger:tlid" v="134212706:134263916"/>
  </way>
  <way id="52733932" version="5" timestamp="2011-03-26T03:50:28Z" uid="207745" user="NE2" changeset="7671910">
    <nd ref="84250450"/>
    <nd ref="84721998"/>
    <tag k="highway" v="primary"/>
    <tag k="name" v="North 1200 West"/>
    <tag k="name_1" v="North 1200  West"/>
    <tag k="name_2" v="North 8800  West"/>
    <tag k="old_ref" v="SR 8 (old SR 1)"/>
    <tag k="ref" v="US 89"/>
    <tag k="tiger:cfcc" v="A41"/>
    <tag k="tiger:county" v="Utah, UT"/>
    <tag k="tiger:name_base" v="1200 West"/>
    <tag k="tiger:name_base_1" v="1200"/>
    <tag k="tiger:name_base_2" v="8800"/>
    <tag k="tiger:name_direction_prefix" v="N"/>
    <tag k="tiger:name_direction_prefix_1" v="N"/>
    <tag k="tiger:name_direction_prefix_2" v="N"/>
    <tag k="tiger:name_direction_suffix_1" v="W"/>
    <tag k="tiger:name_direction_suffix_2" v="W"/>
    <tag k="tiger:name_type" v="St"/>
    <tag k="tiger:separated" v="no"/>
    <tag k="tiger:source" v="tiger_import_dch_v0.6_20070830"/>
    <tag k="tiger:tlid" v="134212706:134263916"/>
  </way>
  <way id="52733932" version="6" timestamp="2011-06-25T03:17:12Z" uid="473471" user="NE3" changeset="8538698">
    <nd ref="84250450"/>
    <nd ref="84721998"/>
    <tag k="highway" v="primary"/>
    <tag k="lanes" v="4"/>
    <tag k="name" v="North 1200 West"/>
    <tag k="name_1" v="North 1200  West"/>
    <tag k="name_2" v="North 8800  West"/>
    <tag k="old_ref" v="SR 8 (old SR 1)"/>
    <tag k="ref" v="US 89"/>
    <tag k="tiger:cfcc" v="A41"/>
    <tag k="tiger:county" v="Utah, UT"/>
    <tag k="tiger:name_base" v="1200 West"/>
    <tag k="tiger:name_base_1" v="1200"/>
    <tag k="tiger:name_base_2" v="8800"/>
    <tag k="tiger:name_direction_prefix" v="N"/>
    <tag k="tiger:name_direction_prefix_1" v="N"/>
    <tag k="tiger:name_direction_prefix_2" v="N"/>
    <tag k="tiger:name_direction_suffix_1" v="W"/>
    <tag k="tiger:name_direction_suffix_2" v="W"/>
    <tag k="tiger:name_type" v="St"/>
    <tag k="tiger:separated" v="no"/>
    <tag k="tiger:source" v="tiger_import_dch_v0.6_20070830"/>
    <tag k="tiger:tlid" v="134212706:134263916"/>
  </way>
  <way id="52733934" version="2" timestamp="2010-04-03T13:58:50Z" uid="20587" user="balrog-kun" changeset="4312927">
    <nd ref="83560159"/>
    <nd ref="83560161"/>
    <nd ref="83560163"/>
    <nd ref="83560167"/>
    <nd ref="471262727"/>
    <nd ref="471262728"/>
    <nd ref="83560172"/>
    <nd ref="83560178"/>
    <nd ref="83548602"/>
    <tag k="highway" v="secondary"/>
    <tag k="name" v="East 12300  South"/>
    <tag k="tiger:cfcc" v="A41"/>
    <tag k="tiger:county" v="Salt Lake, UT"/>
    <tag k="tiger:name_base" v="12300"/>
    <tag k="tiger:name_direction_prefix" v="E"/>
    <tag k="tiger:name_direction_suffix" v="S"/>
    <tag k="tiger:reviewed" v="no"/>
    <tag k="tiger:separated" v="no"/>
    <tag k="tiger:source" v="tiger_import_dch_v0.6_20070830"/>
    <tag k="tiger:tlid" v="176118558"/>
    <tag k="tiger:zip_left" v="84020"/>
    <tag k="tiger:zip_right" v="84020"/>
  </way>
  <way id="52733934" version="3" timestamp="2010-08-05T07:18:38Z" uid="321736" user="Kevin Atkinson" changeset="5405091">
    <nd ref="83560159"/>
    <nd ref="83560161"/>
    <nd ref="83560163"/>
    <nd ref="83560167"/>
    <nd ref="471262727"/>
    <nd ref="471262728"/>
    <nd ref="83560172"/>
    <nd ref="83560178"/>
    <nd ref="83548602"/>
    <tag k="highway" v="secondary"/>
    <tag k="loc_name" v="123rd South"/>
    <tag k="name" v="12300 South"/>
    <tag k="name:full" v="East 12300 South"/>
    <tag k="name:prefix" v="E"/>
    <tag k="tiger:cfcc" v="A41"/>
    <tag k="tiger:county" v="Salt Lake, UT"/>
    <tag k="tiger:name_base" v="12300"/>
    <tag k="tiger:name_direction_prefix" v="E"/>
    <tag k="tiger:name_direction_suffix" v="S"/>
    <tag k="tiger:reviewed" v="no"/>
    <tag k="tiger:separated" v="no"/>
    <tag k="tiger:source" v="tiger_import_dch_v0.6_20070830"/>
    <tag k="tiger:tlid" v="176118558"/>
    <tag k="tiger:zip_left" v="84020"/>
    <tag k="tiger:zip_right" v="84020"/>
  </way>
  <way id="52733934" version="4" timestamp="2010-08-18T21:29:35Z" uid="321736" user="Kevin Atkinson" changeset="5530901">
    <nd ref="83560159"/>
    <nd ref="83560161"/>
    <nd ref="83560163"/>
    <nd ref="83560167"/>
    <nd ref="471262727"/>
    <nd ref="471262728"/>
    <nd ref="83560172"/>
    <tag k="highway" v="primary"/>
    <tag k="loc_name" v="123rd South"/>
    <tag k="name" v="12300 South"/>
    <tag k="name:full" v="East 12300 South"/>
    <tag k="name:prefix" v="E"/>
    <tag k="tiger:cfcc" v="A41"/>
    <tag k="tiger:county" v="Salt Lake, UT"/>
    <tag k="tiger:name_base" v="12300"/>
    <tag k="tiger:name_direction_prefix" v="E"/>
    <tag k="tiger:name_direction_suffix" v="S"/>
    <tag k="tiger:reviewed" v="no"/>
    <tag k="tiger:separated" v="no"/>
    <tag k="tiger:source" v="tiger_import_dch_v0.6_20070830"/>
    <tag k="tiger:tlid" v="176118558"/>
    <tag k="tiger:zip_left" v="84020"/>
    <tag k="tiger:zip_right" v="84020"/>
  </way>
  <way id="52733934" version="5" timestamp="2011-03-25T08:51:29Z" uid="207745" user="NE2" changeset="7662129">
    <nd ref="83560159"/>
    <nd ref="83560161"/>
    <nd ref="83560163"/>
    <nd ref="83560167"/>
    <nd ref="471262727"/>
    <nd ref="471262728"/>
    <nd ref="83560172"/>
    <tag k="highway" v="primary"/>
    <tag k="loc_name" v="123rd South"/>
    <tag k="name" v="12300 South"/>
    <tag k="name:full" v="East 12300 South"/>
    <tag k="name:prefix" v="E"/>
    <tag k="ref" v="SR 71"/>
    <tag k="tiger:cfcc" v="A41"/>
    <tag k="tiger:county" v="Salt Lake, UT"/>
    <tag k="tiger:name_base" v="12300"/>
    <tag k="tiger:name_direction_prefix" v="E"/>
    <tag k="tiger:name_direction_suffix" v="S"/>
    <tag k="tiger:reviewed" v="no"/>
    <tag k="tiger:separated" v="no"/>
    <tag k="tiger:source" v="tiger_import_dch_v0.6_20070830"/>
    <tag k="tiger:tlid" v="176118558"/>
    <tag k="tiger:zip_left" v="84020"/>
    <tag k="tiger:zip_right" v="84020"/>
  </way>
  <way id="52733934" version="6" timestamp="2011-09-30T16:52:34Z" uid="207745" user="NE2" changeset="9436816">
    <nd ref="83560159"/>
    <nd ref="1449664786"/>
    <tag k="highway" v="primary"/>
    <tag k="lanes" v="6"/>
    <tag k="loc_name" v="123rd South"/>
    <tag k="name" v="12300 South"/>
    <tag k="name:full" v="East 12300 South"/>
    <tag k="name:prefix" v="E"/>
    <tag k="ref" v="SR 71"/>
    <tag k="tiger:cfcc" v="A41"/>
    <tag k="tiger:county" v="Salt Lake, UT"/>
    <tag k="tiger:name_base" v="12300"/>
    <tag k="tiger:name_direction_prefix" v="E"/>
    <tag k="tiger:name_direction_suffix" v="S"/>
    <tag k="tiger:reviewed" v="no"/>
    <tag k="tiger:separated" v="no"/>
    <tag k="tiger:source" v="tiger_import_dch_v0.6_20070830"/>
    <tag k="tiger:tlid" v="176118558"/>
    <tag k="tiger:zip_left" v="84020"/>
    <tag k="tiger:zip_right" v="84020"/>
  </way>
  <way id="52733934" version="7" timestamp="2011-11-08T21:58:35Z" uid="239998" user="Sundance" changeset="9777467">
    <nd ref="83560159"/>
    <nd ref="1449664786"/>
    <tag k="highway" v="primary"/>
    <tag k="lanes" v="6"/>
    <tag k="loc_name" v="123rd South"/>
    <tag k="name" v="12300 South"/>
    <tag k="name:full" v="East 12300 South"/>
    <tag k="name:prefix" v="E"/>
    <tag k="ref" v="UT 71"/>
    <tag k="tiger:cfcc" v="A41"/>
    <tag k="tiger:county" v="Salt Lake, UT"/>
    <tag k="tiger:name_base" v="12300"/>
    <tag k="tiger:name_direction_prefix" v="E"/>
    <tag k="tiger:name_direction_suffix" v="S"/>
    <tag k="tiger:reviewed" v="no"/>
    <tag k="tiger:separated" v="no"/>
    <tag k="tiger:source" v="tiger_import_dch_v0.6_20070830"/>
    <tag k="tiger:tlid" v="176118558"/>
    <tag k="tiger:zip_left" v="84020"/>
    <tag k="tiger:zip_right" v="84020"/>
  </way>
  <way id="52733935" version="4" timestamp="2010-04-03T13:58:51Z" uid="20587" user="balrog-kun" changeset="4312927">
    <nd ref="357760175"/>
    <nd ref="357757338"/>
    <nd ref="83560159"/>
    <tag k="addr:postcode" v="84020"/>
    <tag k="highway" v="primary"/>
    <tag k="is_in" v="Salt Lake, UT"/>
    <tag k="name" v="East 12300  South"/>
    <tag k="name_1" v="United States Route 89"/>
    <tag k="ref" v="US 89"/>
    <tag k="source" v="Yahoo,TIGER"/>
  </way>
  <way id="52733935" version="5" timestamp="2010-08-05T07:39:19Z" uid="321736" user="Kevin Atkinson" changeset="5405091">
    <nd ref="357760175"/>
    <nd ref="357757338"/>
    <nd ref="83560159"/>
    <tag k="addr:postcode" v="84020"/>
    <tag k="highway" v="primary"/>
    <tag k="is_in" v="Salt Lake, UT"/>
    <tag k="loc_name" v="123rd South"/>
    <tag k="name" v="12300 South"/>
    <tag k="name:full" v="East 12300 South"/>
    <tag k="name:prefix" v="E"/>
    <tag k="name_1" v="United States Route 89"/>
    <tag k="ref" v="US 89"/>
    <tag k="source" v="Yahoo,TIGER"/>
  </way>
  <way id="52733935" version="6" timestamp="2011-03-25T08:51:13Z" uid="207745" user="NE2" changeset="7662129">
    <nd ref="357760175"/>
    <nd ref="357757338"/>
    <nd ref="83560159"/>
    <tag k="addr:postcode" v="84020"/>
    <tag k="highway" v="primary"/>
    <tag k="is_in" v="Salt Lake, UT"/>
    <tag k="loc_name" v="123rd South"/>
    <tag k="name" v="12300 South"/>
    <tag k="name:full" v="East 12300 South"/>
    <tag k="name:prefix" v="E"/>
    <tag k="ref" v="US 89;SR 71"/>
    <tag k="source" v="Yahoo,TIGER"/>
  </way>
  <way id="52733935" version="7" timestamp="2011-06-25T03:10:14Z" uid="473471" user="NE3" changeset="8538698">
    <nd ref="357760175"/>
    <nd ref="357757338"/>
    <nd ref="83560159"/>
    <tag k="FIXME" v="dual carriageway"/>
    <tag k="addr:postcode" v="84020"/>
    <tag k="highway" v="primary"/>
    <tag k="is_in" v="Salt Lake, UT"/>
    <tag k="lanes" v="6"/>
    <tag k="loc_name" v="123rd South"/>
    <tag k="name" v="12300 South"/>
    <tag k="name:full" v="East 12300 South"/>
    <tag k="name:prefix" v="E"/>
    <tag k="ref" v="US 89;SR 71"/>
    <tag k="source" v="Yahoo,TIGER"/>
  </way>
  <way id="52733935" version="8" timestamp="2011-11-08T21:58:36Z" uid="239998" user="Sundance" changeset="9777467">
    <nd ref="357760175"/>
    <nd ref="357757338"/>
    <nd ref="83560159"/>
    <tag k="FIXME" v="dual carriageway"/>
    <tag k="addr:postcode" v="84020"/>
    <tag k="highway" v="primary"/>
    <tag k="is_in" v="Salt Lake, UT"/>
    <tag k="lanes" v="6"/>
    <tag k="loc_name" v="123rd South"/>
    <tag k="name" v="12300 South"/>
    <tag k="name:full" v="East 12300 South"/>
    <tag k="name:prefix" v="E"/>
    <tag k="ref" v="US 89;UT 71"/>
    <tag k="source" v="Yahoo,TIGER"/>
  </way>
  <way id="52733939" version="4" timestamp="2010-04-03T13:58:51Z" uid="20587" user="balrog-kun" changeset="4312927">
    <nd ref="82885691"/>
    <nd ref="82884533"/>
    <nd ref="82896841"/>
    <nd ref="82896843"/>
    <nd ref="82896844"/>
    <nd ref="82896845"/>
    <nd ref="82896846"/>
    <tag k="highway" v="primary"/>
    <tag k="name" v="South Main Street"/>
    <tag k="name_2" v="United States Highway 89"/>
    <tag k="ref" v="US 89"/>
    <tag k="tiger:cfcc" v="A21"/>
    <tag k="tiger:county" v="Box Elder, UT"/>
    <tag k="tiger:name_base" v="Main"/>
    <tag k="tiger:name_base_1" v="United States Highway 91"/>
    <tag k="tiger:name_base_2" v="United States Highway 89"/>
    <tag k="tiger:name_direction_prefix" v="S"/>
    <tag k="tiger:name_type" v="St"/>
    <tag k="tiger:reviewed" v="no"/>
    <tag k="tiger:separated" v="no"/>
    <tag k="tiger:source" v="tiger_import_dch_v0.6_20070830"/>
    <tag k="tiger:tlid" v="153913510:153891190:153914921"/>
    <tag k="tiger:zip_left" v="84302"/>
    <tag k="tiger:zip_right" v="84302"/>
  </way>
  <way id="52733939" version="5" timestamp="2011-03-26T03:53:19Z" uid="207745" user="NE2" changeset="7671910">
    <nd ref="82885691"/>
    <nd ref="82884533"/>
    <nd ref="82896841"/>
    <nd ref="82896843"/>
    <nd ref="82896844"/>
    <nd ref="82896845"/>
    <nd ref="82896846"/>
    <tag k="highway" v="primary"/>
    <tag k="name" v="South Main Street"/>
    <tag k="ref" v="US 89"/>
    <tag k="tiger:cfcc" v="A21"/>
    <tag k="tiger:county" v="Box Elder, UT"/>
    <tag k="tiger:name_base" v="Main"/>
    <tag k="tiger:name_base_1" v="United States Highway 91"/>
    <tag k="tiger:name_base_2" v="United States Highway 89"/>
    <tag k="tiger:name_direction_prefix" v="S"/>
    <tag k="tiger:name_type" v="St"/>
    <tag k="tiger:reviewed" v="no"/>
    <tag k="tiger:separated" v="no"/>
    <tag k="tiger:source" v="tiger_import_dch_v0.6_20070830"/>
    <tag k="tiger:tlid" v="153913510:153891190:153914921"/>
    <tag k="tiger:zip_left" v="84302"/>
    <tag k="tiger:zip_right" v="84302"/>
  </way>
  <way id="52733939" version="6" timestamp="2011-06-25T03:17:56Z" uid="473471" user="NE3" changeset="8538698">
    <nd ref="82885691"/>
    <nd ref="82884533"/>
    <nd ref="82896841"/>
    <nd ref="82896843"/>
    <nd ref="82896844"/>
    <nd ref="82896845"/>
    <nd ref="82896846"/>
    <tag k="highway" v="primary"/>
    <tag k="lanes" v="4"/>
    <tag k="name" v="South Main Street"/>
    <tag k="ref" v="US 89"/>
    <tag k="tiger:cfcc" v="A21"/>
    <tag k="tiger:county" v="Box Elder, UT"/>
    <tag k="tiger:name_base" v="Main"/>
    <tag k="tiger:name_base_1" v="United States Highway 91"/>
    <tag k="tiger:name_base_2" v="United States Highway 89"/>
    <tag k="tiger:name_direction_prefix" v="S"/>
    <tag k="tiger:name_type" v="St"/>
    <tag k="tiger:reviewed" v="no"/>
    <tag k="tiger:separated" v="no"/>
    <tag k="tiger:source" v="tiger_import_dch_v0.6_20070830"/>
    <tag k="tiger:tlid" v="153913510:153891190:153914921"/>
    <tag k="tiger:zip_left" v="84302"/>
    <tag k="tiger:zip_right" v="84302"/>
  </way>
  <way id="52733939" version="7" timestamp="2011-11-08T21:38:39Z" uid="239998" user="Sundance" changeset="9777304">
    <nd ref="82885691"/>
    <nd ref="1495828232"/>
    <nd ref="82884533"/>
    <nd ref="1495828208"/>
    <nd ref="82896841"/>
    <nd ref="82896843"/>
    <nd ref="82896844"/>
    <nd ref="82896845"/>
    <nd ref="82896846"/>
    <tag k="addr:postcode" v="84302"/>
    <tag k="highway" v="primary"/>
    <tag k="is_in" v="Box Elder, UT"/>
    <tag k="lanes" v="4"/>
    <tag k="name" v="South Main Street"/>
    <tag k="nat_name" v="United States Route  89"/>
    <tag k="ref" v="US 89"/>
    <tag k="tiger:reviewed" v="no"/>
    <tag k="tiger:source" v="tiger_import_dch_v0.6_20070830"/>
    <tag k="tiger:tlid" v="153913510:153891190:153914921"/>
  </way>
  <way id="52733939" version="8" timestamp="2011-11-22T06:11:02Z" uid="207745" user="NE2" changeset="9905294">
    <nd ref="82885691"/>
    <nd ref="1495828232"/>
    <nd ref="82884533"/>
    <nd ref="1495828208"/>
    <nd ref="82896841"/>
    <nd ref="82896843"/>
    <nd ref="82896844"/>
    <nd ref="82896845"/>
    <nd ref="82896846"/>
    <tag k="addr:postcode" v="84302"/>
    <tag k="highway" v="primary"/>
    <tag k="is_in" v="Box Elder, UT"/>
    <tag k="lanes" v="4"/>
    <tag k="name" v="South Main Street"/>
    <tag k="ref" v="US 89"/>
    <tag k="tiger:reviewed" v="no"/>
    <tag k="tiger:source" v="tiger_import_dch_v0.6_20070830"/>
    <tag k="tiger:tlid" v="153913510:153891190:153914921"/>
  </way>
  <way id="52733944" version="4" timestamp="2010-04-03T13:58:51Z" uid="20587" user="balrog-kun" changeset="4312927">
    <nd ref="82903839"/>
    <nd ref="583344010"/>
    <nd ref="454599366"/>
    <nd ref="485312305"/>
    <nd ref="82840136"/>
    <nd ref="82903844"/>
    <nd ref="82840163"/>
    <tag k="highway" v="primary"/>
    <tag k="name" v="South Highway 89"/>
    <tag k="name_1" v="South 750 West"/>
    <tag k="name_2" v="United States Highway 89"/>
    <tag k="ref" v="US 89"/>
    <tag k="tiger:cfcc" v="A21"/>
    <tag k="tiger:county" v="Box Elder, UT"/>
    <tag k="tiger:name_base" v="Highway 89"/>
    <tag k="tiger:name_base_1" v="750"/>
    <tag k="tiger:name_base_2" v="United States Highway 89"/>
    <tag k="tiger:name_base_3" v="United States Highway 91"/>
    <tag k="tiger:name_direction_prefix" v="S"/>
    <tag k="tiger:name_direction_prefix_1" v="S"/>
    <tag k="tiger:name_direction_suffix_1" v="W"/>
    <tag k="tiger:reviewed" v="no"/>
    <tag k="tiger:separated" v="no"/>
    <tag k="tiger:source" v="tiger_import_dch_v0.6_20070830"/>
    <tag k="tiger:tlid" v="153914403:153914407"/>
    <tag k="tiger:zip_left" v="84340"/>
  </way>
  <way id="52733944" version="5" timestamp="2011-03-26T04:00:00Z" uid="207745" user="NE2" changeset="7671930">
    <nd ref="82903839"/>
    <nd ref="583344010"/>
    <nd ref="454599366"/>
    <nd ref="485312305"/>
    <nd ref="82840136"/>
    <nd ref="82903844"/>
    <nd ref="82840163"/>
    <tag k="highway" v="primary"/>
    <tag k="name" v="South 750 West"/>
    <tag k="ref" v="US 89"/>
    <tag k="tiger:cfcc" v="A21"/>
    <tag k="tiger:county" v="Box Elder, UT"/>
    <tag k="tiger:name_base" v="Highway 89"/>
    <tag k="tiger:name_base_1" v="750"/>
    <tag k="tiger:name_base_2" v="United States Highway 89"/>
    <tag k="tiger:name_base_3" v="United States Highway 91"/>
    <tag k="tiger:name_direction_prefix" v="S"/>
    <tag k="tiger:name_direction_prefix_1" v="S"/>
    <tag k="tiger:name_direction_suffix_1" v="W"/>
    <tag k="tiger:reviewed" v="no"/>
    <tag k="tiger:separated" v="no"/>
    <tag k="tiger:source" v="tiger_import_dch_v0.6_20070830"/>
    <tag k="tiger:tlid" v="153914403:153914407"/>
    <tag k="tiger:zip_left" v="84340"/>
  </way>
  <way id="52733944" version="6" timestamp="2011-06-25T03:18:06Z" uid="473471" user="NE3" changeset="8538698">
    <nd ref="1337828075"/>
    <nd ref="82903844"/>
    <nd ref="82840136"/>
    <nd ref="485312305"/>
    <nd ref="454599366"/>
    <nd ref="583344010"/>
    <nd ref="82903839"/>
    <tag k="highway" v="primary"/>
    <tag k="lanes" v="4"/>
    <tag k="name" v="South 750 West"/>
    <tag k="oneway" v="no"/>
    <tag k="ref" v="US 89"/>
    <tag k="tiger:cfcc" v="A21"/>
    <tag k="tiger:county" v="Box Elder, UT"/>
    <tag k="tiger:name_base" v="Highway 89"/>
    <tag k="tiger:name_base_1" v="750"/>
    <tag k="tiger:name_base_2" v="United States Highway 89"/>
    <tag k="tiger:name_base_3" v="United States Highway 91"/>
    <tag k="tiger:name_direction_prefix" v="S"/>
    <tag k="tiger:name_direction_prefix_1" v="S"/>
    <tag k="tiger:name_direction_suffix_1" v="W"/>
    <tag k="tiger:reviewed" v="no"/>
    <tag k="tiger:separated" v="no"/>
    <tag k="tiger:source" v="tiger_import_dch_v0.6_20070830"/>
    <tag k="tiger:tlid" v="153914403:153914407"/>
    <tag k="tiger:zip_right" v="84340"/>
  </way>
  <way id="52733945" version="2" timestamp="2010-04-03T16:53:20Z" uid="20587" user="balrog-kun" changeset="4312936">
    <nd ref="126690992"/>
    <nd ref="126676644"/>
    <nd ref="126690995"/>
    <nd ref="126676545"/>
    <nd ref="126676537"/>
    <nd ref="126690999"/>
    <nd ref="126691003"/>
    <nd ref="126691006"/>
    <nd ref="126606301"/>
    <nd ref="126606044"/>
    <nd ref="126675467"/>
    <nd ref="126691009"/>
    <nd ref="126691012"/>
    <nd ref="126691015"/>
    <nd ref="126691018"/>
    <nd ref="126670269"/>
    <nd ref="126691021"/>
    <tag k="highway" v="primary"/>
    <tag k="name" v="North 4th Street"/>
    <tag k="name_1" v="United States Highway 30"/>
    <tag k="ref" v="US 30"/>
    <tag k="tiger:cfcc" v="A21"/>
    <tag k="tiger:county" v="Bear Lake, ID"/>
    <tag k="tiger:name_base" v="4th"/>
    <tag k="tiger:name_base_1" v="United States Highway 30"/>
    <tag k="tiger:name_direction_prefix" v="N"/>
    <tag k="tiger:name_type" v="St"/>
    <tag k="tiger:reviewed" v="no"/>
    <tag k="tiger:separated" v="no"/>
    <tag k="tiger:source" v="tiger_import_dch_v0.6_20070809"/>
    <tag k="tiger:tlid" v="167316607:167325514:167325516:167325517:167325510:167325511:167325506:167325508:167318956:167308207:167308198"/>
    <tag k="tiger:zip_left" v="83254"/>
    <tag k="tiger:zip_right" v="83254"/>
  </way>
  <way id="52733945" version="3" timestamp="2011-06-13T06:18:59Z" uid="207745" user="NE2" changeset="8422147">
    <nd ref="126690992"/>
    <nd ref="126676644"/>
    <nd ref="126690995"/>
    <nd ref="126676545"/>
    <nd ref="126676537"/>
    <nd ref="126690999"/>
    <nd ref="126691003"/>
    <nd ref="126691006"/>
    <nd ref="126606301"/>
    <nd ref="126606044"/>
    <nd ref="126675467"/>
    <nd ref="126691009"/>
    <nd ref="126691012"/>
    <nd ref="126691015"/>
    <nd ref="126691018"/>
    <nd ref="126670269"/>
    <nd ref="126691021"/>
    <tag k="highway" v="primary"/>
    <tag k="name" v="North 4th Street"/>
    <tag k="ref" v="US 30"/>
    <tag k="tiger:cfcc" v="A21"/>
    <tag k="tiger:county" v="Bear Lake, ID"/>
    <tag k="tiger:name_base" v="4th"/>
    <tag k="tiger:name_base_1" v="United States Highway 30"/>
    <tag k="tiger:name_direction_prefix" v="N"/>
    <tag k="tiger:name_type" v="St"/>
    <tag k="tiger:reviewed" v="no"/>
    <tag k="tiger:separated" v="no"/>
    <tag k="tiger:source" v="tiger_import_dch_v0.6_20070809"/>
    <tag k="tiger:tlid" v="167316607:167325514:167325516:167325517:167325510:167325511:167325506:167325508:167318956:167308207:167308198"/>
    <tag k="tiger:zip_left" v="83254"/>
    <tag k="tiger:zip_right" v="83254"/>
  </way>
  <way id="52733945" version="4" timestamp="2011-06-26T03:16:04Z" uid="473471" user="NE3" changeset="8548309">
    <nd ref="126690992"/>
    <nd ref="126676644"/>
    <nd ref="126690995"/>
    <nd ref="126676545"/>
    <nd ref="126676537"/>
    <nd ref="126690999"/>
    <nd ref="126691003"/>
    <nd ref="126691006"/>
    <nd ref="126606301"/>
    <nd ref="126606044"/>
    <nd ref="126675467"/>
    <nd ref="126691009"/>
    <nd ref="126691012"/>
    <nd ref="1339199482"/>
    <tag k="highway" v="trunk"/>
    <tag k="lanes" v="4"/>
    <tag k="name" v="North 4th Street"/>
    <tag k="ref" v="US 30"/>
    <tag k="tiger:cfcc" v="A21"/>
    <tag k="tiger:county" v="Bear Lake, ID"/>
    <tag k="tiger:name_base" v="4th"/>
    <tag k="tiger:name_base_1" v="United States Highway 30"/>
    <tag k="tiger:name_direction_prefix" v="N"/>
    <tag k="tiger:name_type" v="St"/>
    <tag k="tiger:reviewed" v="no"/>
    <tag k="tiger:separated" v="no"/>
    <tag k="tiger:source" v="tiger_import_dch_v0.6_20070809"/>
    <tag k="tiger:tlid" v="167316607:167325514:167325516:167325517:167325510:167325511:167325506:167325508:167318956:167308207:167308198"/>
    <tag k="tiger:zip_left" v="83254"/>
    <tag k="tiger:zip_right" v="83254"/>
  </way>
  <way id="52733945" version="5" timestamp="2011-07-07T23:11:50Z" uid="473471" user="NE3" changeset="8662067">
    <nd ref="126690992"/>
    <nd ref="126676644"/>
    <nd ref="126690995"/>
    <nd ref="126676545"/>
    <nd ref="126676537"/>
    <nd ref="126690999"/>
    <nd ref="126691003"/>
    <nd ref="126691006"/>
    <nd ref="126606301"/>
    <nd ref="126606044"/>
    <nd ref="126675467"/>
    <nd ref="126691009"/>
    <nd ref="126691012"/>
    <nd ref="1339199482"/>
    <tag k="NHS" v="yes"/>
    <tag k="highway" v="trunk"/>
    <tag k="lanes" v="4"/>
    <tag k="name" v="North 4th Street"/>
    <tag k="ref" v="US 30"/>
    <tag k="tiger:cfcc" v="A21"/>
    <tag k="tiger:county" v="Bear Lake, ID"/>
    <tag k="tiger:name_base" v="4th"/>
    <tag k="tiger:name_base_1" v="United States Highway 30"/>
    <tag k="tiger:name_direction_prefix" v="N"/>
    <tag k="tiger:name_type" v="St"/>
    <tag k="tiger:reviewed" v="no"/>
    <tag k="tiger:separated" v="no"/>
    <tag k="tiger:source" v="tiger_import_dch_v0.6_20070809"/>
    <tag k="tiger:tlid" v="167316607:167325514:167325516:167325517:167325510:167325511:167325506:167325508:167318956:167308207:167308198"/>
    <tag k="tiger:zip_left" v="83254"/>
    <tag k="tiger:zip_right" v="83254"/>
  </way>
  <way id="52733957" version="3" timestamp="2010-04-03T21:10:17Z" uid="20587" user="balrog-kun" changeset="4315899">
    <nd ref="46266623"/>
    <nd ref="46266612"/>
    <tag k="highway" v="primary"/>
    <tag k="junction" v="roundabout"/>
    <tag k="name" v="West Division Street"/>
    <tag k="name_1" v="United States Highway 89"/>
    <tag k="oneway" v="yes"/>
    <tag k="ref" v="US 89"/>
    <tag k="tiger:cfcc" v="A21"/>
    <tag k="tiger:county" v="Teton, MT"/>
    <tag k="tiger:name_base" v="Division"/>
    <tag k="tiger:name_base_1" v="United States Highway 89"/>
    <tag k="tiger:name_base_2" v="United States Highway 287"/>
    <tag k="tiger:name_direction_prefix" v="W"/>
    <tag k="tiger:name_type" v="St"/>
    <tag k="tiger:reviewed" v="no"/>
    <tag k="tiger:separated" v="no"/>
    <tag k="tiger:source" v="tiger_import_dch_v0.6_20070813"/>
    <tag k="tiger:tlid" v="202607980"/>
    <tag k="tiger:zip_left" v="59425"/>
    <tag k="tiger:zip_right" v="59422"/>
  </way>
  <way id="52733957" version="4" timestamp="2010-08-06T04:17:59Z" uid="120468" user="Nakor" changeset="5413132">
    <nd ref="46266623"/>
    <nd ref="847512100"/>
    <nd ref="46266612"/>
    <tag k="highway" v="primary"/>
    <tag k="name" v="West Division Street"/>
    <tag k="name_1" v="United States Highway 89"/>
    <tag k="oneway" v="yes"/>
    <tag k="ref" v="US 89"/>
    <tag k="tiger:cfcc" v="A21"/>
    <tag k="tiger:county" v="Teton, MT"/>
    <tag k="tiger:name_base" v="Division"/>
    <tag k="tiger:name_base_1" v="United States Highway 89"/>
    <tag k="tiger:name_base_2" v="United States Highway 287"/>
    <tag k="tiger:name_direction_prefix" v="W"/>
    <tag k="tiger:name_type" v="St"/>
    <tag k="tiger:reviewed" v="no"/>
    <tag k="tiger:separated" v="no"/>
    <tag k="tiger:source" v="tiger_import_dch_v0.6_20070813"/>
    <tag k="tiger:tlid" v="202607980"/>
    <tag k="tiger:zip_left" v="59425"/>
    <tag k="tiger:zip_right" v="59422"/>
  </way>
  <way id="52733957" version="5" timestamp="2011-03-30T15:29:32Z" uid="207745" user="NE2" changeset="7717203">
    <nd ref="46266623"/>
    <nd ref="847512100"/>
    <nd ref="46266612"/>
    <tag k="highway" v="primary"/>
    <tag k="mdt_base_route" v="P-3"/>
    <tag k="name" v="West Division Street"/>
    <tag k="oneway" v="yes"/>
    <tag k="ref" v="US 89"/>
    <tag k="tiger:cfcc" v="A21"/>
    <tag k="tiger:county" v="Teton, MT"/>
    <tag k="tiger:name_base" v="Division"/>
    <tag k="tiger:name_base_1" v="United States Highway 89"/>
    <tag k="tiger:name_base_2" v="United States Highway 287"/>
    <tag k="tiger:name_direction_prefix" v="W"/>
    <tag k="tiger:name_type" v="St"/>
    <tag k="tiger:reviewed" v="no"/>
    <tag k="tiger:separated" v="no"/>
    <tag k="tiger:source" v="tiger_import_dch_v0.6_20070813"/>
    <tag k="tiger:tlid" v="202607980"/>
    <tag k="tiger:zip_left" v="59425"/>
    <tag k="tiger:zip_right" v="59422"/>
  </way>
  <way id="52733957" version="6" timestamp="2011-06-25T23:17:47Z" uid="473471" user="NE3" changeset="8547615">
    <nd ref="46266623"/>
    <nd ref="847512100"/>
    <nd ref="46266612"/>
    <tag k="highway" v="primary"/>
    <tag k="lanes" v="1"/>
    <tag k="mdt_base_route" v="P-3"/>
    <tag k="name" v="West Division Street"/>
    <tag k="oneway" v="yes"/>
    <tag k="ref" v="US 89"/>
    <tag k="tiger:cfcc" v="A21"/>
    <tag k="tiger:county" v="Teton, MT"/>
    <tag k="tiger:name_base" v="Division"/>
    <tag k="tiger:name_base_1" v="United States Highway 89"/>
    <tag k="tiger:name_base_2" v="United States Highway 287"/>
    <tag k="tiger:name_direction_prefix" v="W"/>
    <tag k="tiger:name_type" v="St"/>
    <tag k="tiger:reviewed" v="no"/>
    <tag k="tiger:separated" v="no"/>
    <tag k="tiger:source" v="tiger_import_dch_v0.6_20070813"/>
    <tag k="tiger:tlid" v="202607980"/>
    <tag k="tiger:zip_left" v="59425"/>
    <tag k="tiger:zip_right" v="59422"/>
  </way>
  <way id="52733958" version="3" timestamp="2010-04-03T21:10:18Z" uid="20587" user="balrog-kun" changeset="4315899">
    <nd ref="46278541"/>
    <nd ref="46278546"/>
    <tag k="highway" v="primary"/>
    <tag k="junction" v="roundabout"/>
    <tag k="name" v="1st Street Southwest"/>
    <tag k="oneway" v="yes"/>
    <tag k="ref" v="US 89"/>
    <tag k="tiger:cfcc" v="A41"/>
    <tag k="tiger:county" v="Teton, MT"/>
    <tag k="tiger:name_base" v="1st"/>
    <tag k="tiger:name_direction_suffix" v="SW"/>
    <tag k="tiger:name_type" v="St"/>
    <tag k="tiger:reviewed" v="no"/>
    <tag k="tiger:separated" v="no"/>
    <tag k="tiger:source" v="tiger_import_dch_v0.6_20070813"/>
    <tag k="tiger:tlid" v="202607992:202608024:202608035:202608036:202608028:202608009"/>
    <tag k="tiger:zip_left" v="59422"/>
    <tag k="tiger:zip_right" v="59422"/>
  </way>
  <way id="52733958" version="4" timestamp="2010-08-06T04:17:55Z" uid="120468" user="Nakor" changeset="5413132">
    <nd ref="46278541"/>
    <nd ref="46278546"/>
    <tag k="highway" v="primary"/>
    <tag k="name" v="1st Street Southwest"/>
    <tag k="oneway" v="yes"/>
    <tag k="ref" v="US 89"/>
    <tag k="tiger:cfcc" v="A41"/>
    <tag k="tiger:county" v="Teton, MT"/>
    <tag k="tiger:name_base" v="1st"/>
    <tag k="tiger:name_direction_suffix" v="SW"/>
    <tag k="tiger:name_type" v="St"/>
    <tag k="tiger:reviewed" v="no"/>
    <tag k="tiger:separated" v="no"/>
    <tag k="tiger:source" v="tiger_import_dch_v0.6_20070813"/>
    <tag k="tiger:tlid" v="202607992:202608024:202608035:202608036:202608028:202608009"/>
    <tag k="tiger:zip_left" v="59422"/>
    <tag k="tiger:zip_right" v="59422"/>
  </way>
  <way id="52733958" version="5" timestamp="2011-03-30T15:35:20Z" uid="207745" user="NE2" changeset="7717203">
    <nd ref="46278541"/>
    <nd ref="46278546"/>
    <tag k="highway" v="primary"/>
    <tag k="mdt_base_route" v="P-3"/>
    <tag k="name" v="1st Street Southwest"/>
    <tag k="oneway" v="yes"/>
    <tag k="ref" v="US 89"/>
    <tag k="tiger:cfcc" v="A41"/>
    <tag k="tiger:county" v="Teton, MT"/>
    <tag k="tiger:name_base" v="1st"/>
    <tag k="tiger:name_direction_suffix" v="SW"/>
    <tag k="tiger:name_type" v="St"/>
    <tag k="tiger:reviewed" v="no"/>
    <tag k="tiger:separated" v="no"/>
    <tag k="tiger:source" v="tiger_import_dch_v0.6_20070813"/>
    <tag k="tiger:tlid" v="202607992:202608024:202608035:202608036:202608028:202608009"/>
    <tag k="tiger:zip_left" v="59422"/>
    <tag k="tiger:zip_right" v="59422"/>
  </way>
  <way id="52733958" version="6" timestamp="2011-06-25T23:27:45Z" uid="473471" user="NE3" changeset="8547615">
    <nd ref="46278541"/>
    <nd ref="46278546"/>
    <tag k="highway" v="primary"/>
    <tag k="lanes" v="1"/>
    <tag k="mdt_base_route" v="P-3"/>
    <tag k="name" v="1st Street Southwest"/>
    <tag k="oneway" v="yes"/>
    <tag k="ref" v="US 89"/>
    <tag k="tiger:cfcc" v="A41"/>
    <tag k="tiger:county" v="Teton, MT"/>
    <tag k="tiger:name_base" v="1st"/>
    <tag k="tiger:name_direction_suffix" v="SW"/>
    <tag k="tiger:name_type" v="St"/>
    <tag k="tiger:reviewed" v="no"/>
    <tag k="tiger:separated" v="no"/>
    <tag k="tiger:source" v="tiger_import_dch_v0.6_20070813"/>
    <tag k="tiger:tlid" v="202607992:202608024:202608035:202608036:202608028:202608009"/>
    <tag k="tiger:zip_left" v="59422"/>
    <tag k="tiger:zip_right" v="59422"/>
  </way>
  <way id="52733959" version="3" timestamp="2010-04-03T21:10:18Z" uid="20587" user="balrog-kun" changeset="4315899">
    <nd ref="46278546"/>
    <nd ref="46266559"/>
    <tag k="highway" v="primary"/>
    <tag k="junction" v="roundabout"/>
    <tag k="name" v="1st Street Southwest"/>
    <tag k="oneway" v="yes"/>
    <tag k="ref" v="US 89"/>
    <tag k="tiger:cfcc" v="A41"/>
    <tag k="tiger:county" v="Teton, MT"/>
    <tag k="tiger:name_base" v="1st"/>
    <tag k="tiger:name_direction_suffix" v="SW"/>
    <tag k="tiger:name_type" v="St"/>
    <tag k="tiger:reviewed" v="no"/>
    <tag k="tiger:separated" v="no"/>
    <tag k="tiger:source" v="tiger_import_dch_v0.6_20070813"/>
    <tag k="tiger:tlid" v="202607992:202608024:202608035:202608036:202608028:202608009"/>
    <tag k="tiger:zip_left" v="59422"/>
    <tag k="tiger:zip_right" v="59422"/>
  </way>
  <way id="52733959" version="4" timestamp="2010-08-06T04:18:00Z" uid="120468" user="Nakor" changeset="5413132">
    <nd ref="46278546"/>
    <nd ref="847512083"/>
    <tag k="highway" v="primary"/>
    <tag k="name" v="1st Street Southwest"/>
    <tag k="oneway" v="yes"/>
    <tag k="ref" v="US 89"/>
    <tag k="tiger:cfcc" v="A41"/>
    <tag k="tiger:county" v="Teton, MT"/>
    <tag k="tiger:name_base" v="1st"/>
    <tag k="tiger:name_direction_suffix" v="SW"/>
    <tag k="tiger:name_type" v="St"/>
    <tag k="tiger:reviewed" v="no"/>
    <tag k="tiger:separated" v="no"/>
    <tag k="tiger:source" v="tiger_import_dch_v0.6_20070813"/>
    <tag k="tiger:tlid" v="202607992:202608024:202608035:202608036:202608028:202608009"/>
    <tag k="tiger:zip_left" v="59422"/>
    <tag k="tiger:zip_right" v="59422"/>
  </way>
  <way id="52733959" version="5" timestamp="2010-10-18T01:39:43Z" uid="120468" user="Nakor" changeset="6073437">
    <nd ref="46278546"/>
    <nd ref="847512083"/>
    <tag k="highway" v="primary"/>
    <tag k="maxspeed" v="25 mph"/>
    <tag k="name" v="1st Street Southwest"/>
    <tag k="oneway" v="yes"/>
    <tag k="ref" v="US 89"/>
    <tag k="tiger:cfcc" v="A41"/>
    <tag k="tiger:county" v="Teton, MT"/>
    <tag k="tiger:name_base" v="1st"/>
    <tag k="tiger:name_direction_suffix" v="SW"/>
    <tag k="tiger:name_type" v="St"/>
    <tag k="tiger:separated" v="no"/>
    <tag k="tiger:source" v="tiger_import_dch_v0.6_20070813"/>
    <tag k="tiger:tlid" v="202607992:202608024:202608035:202608036:202608028:202608009"/>
    <tag k="tiger:zip_left" v="59422"/>
    <tag k="tiger:zip_right" v="59422"/>
  </way>
  <way id="52733959" version="6" timestamp="2011-03-30T15:33:24Z" uid="207745" user="NE2" changeset="7717203">
    <nd ref="46278546"/>
    <nd ref="847512083"/>
    <tag k="highway" v="primary"/>
    <tag k="maxspeed" v="25 mph"/>
    <tag k="mdt_base_route" v="P-3"/>
    <tag k="name" v="1st Street Southwest"/>
    <tag k="oneway" v="yes"/>
    <tag k="ref" v="US 89"/>
    <tag k="tiger:cfcc" v="A41"/>
    <tag k="tiger:county" v="Teton, MT"/>
    <tag k="tiger:name_base" v="1st"/>
    <tag k="tiger:name_direction_suffix" v="SW"/>
    <tag k="tiger:name_type" v="St"/>
    <tag k="tiger:separated" v="no"/>
    <tag k="tiger:source" v="tiger_import_dch_v0.6_20070813"/>
    <tag k="tiger:tlid" v="202607992:202608024:202608035:202608036:202608028:202608009"/>
    <tag k="tiger:zip_left" v="59422"/>
    <tag k="tiger:zip_right" v="59422"/>
  </way>
  <way id="52733959" version="7" timestamp="2011-06-25T23:25:27Z" uid="473471" user="NE3" changeset="8547615">
    <nd ref="46278546"/>
    <nd ref="847512083"/>
    <tag k="highway" v="primary"/>
    <tag k="lanes" v="1"/>
    <tag k="maxspeed" v="25 mph"/>
    <tag k="mdt_base_route" v="P-3"/>
    <tag k="name" v="1st Street Southwest"/>
    <tag k="oneway" v="yes"/>
    <tag k="ref" v="US 89"/>
    <tag k="tiger:cfcc" v="A41"/>
    <tag k="tiger:county" v="Teton, MT"/>
    <tag k="tiger:name_base" v="1st"/>
    <tag k="tiger:name_direction_suffix" v="SW"/>
    <tag k="tiger:name_type" v="St"/>
    <tag k="tiger:separated" v="no"/>
    <tag k="tiger:source" v="tiger_import_dch_v0.6_20070813"/>
    <tag k="tiger:tlid" v="202607992:202608024:202608035:202608036:202608028:202608009"/>
    <tag k="tiger:zip_left" v="59422"/>
    <tag k="tiger:zip_right" v="59422"/>
  </way>
</osm>
