<?xml version='1.0' encoding='UTF-8'?>
<osm version="0.6" generator="libosmium/2.20.0">
  <way id="52826117" version="1" timestamp="2010-03-19T19:15:38Z" uid="143719" user="DarkoS" changeset="4173172">
    <nd ref="669896511"/>
    <nd ref="60305133"/>
    <nd ref="669896510"/>
    <nd ref="60305134"/>
    <nd ref="60305135"/>
    <nd ref="60305136"/>
    <tag k="highway" v="unclassified"/>
  </way>
  <way id="52826117" version="2" timestamp="2010-08-15T15:13:32Z" uid="75317" user="HoloDuke" changeset="5500842">
    <nd ref="669896511"/>
    <nd ref="669896510"/>
    <nd ref="60305134"/>
    <nd ref="60305135"/>
    <nd ref="60305136"/>
    <tag k="highway" v="unclassified"/>
  </way>
  <way id="52826117" version="3" timestamp="2010-09-25T14:05:34Z" uid="109705" user="gscholz" changeset="5871183"/>
  <way id="52826118" version="1" timestamp="2010-03-19T19:15:39Z" uid="143719" user="DarkoS" changeset="4173172">
    <nd ref="669894749"/>
    <nd ref="438419166"/>
  </way>
  <way id="52826118" version="2" timestamp="2010-03-20T09:55:13Z" uid="143719" user="DarkoS" changeset="4177732">
    <nd ref="669894749"/>
    <nd ref="438419166"/>
    <tag k="highway" v="residential"/>
    <tag k="surface" v="paved"/>
  </way>
  <way id="52826118" version="3" timestamp="2010-09-25T14:05:32Z" uid="109705" user="gscholz" changeset="5871183">
    <nd ref="60305131"/>
    <nd ref="669896511"/>
    <nd ref="669894749"/>
    <nd ref="438419166"/>
    <tag k="highway" v="residential"/>
    <tag k="surface" v="paved"/>
  </way>
  <way id="52826118" version="4" timestamp="2011-09-25T16:54:25Z" uid="320873" user="filip55" changeset="9394424"/>
  <way id="52826119" version="1" timestamp="2010-03-19T19:15:39Z" uid="143719" user="DarkoS" changeset="4173172">
    <nd ref="669896507"/>
    <nd ref="669896508"/>
    <nd ref="669896509"/>
    <nd ref="669896510"/>
  </way>
  <way id="52826119" version="2" timestamp="2010-03-20T09:55:13Z" uid="143719" user="DarkoS" changeset="4177732">
    <nd ref="669896507"/>
    <nd ref="669896508"/>
    <nd ref="669896509"/>
    <nd ref="669896510"/>
    <tag k="highway" v="residential"/>
    <tag k="surface" v="paved"/>
  </way>
  <way id="52826119" version="3" timestamp="2010-03-20T15:21:21Z" uid="143719" user="DarkoS" changeset="4180899">
    <nd ref="669896507"/>
    <nd ref="669896510"/>
    <tag k="highway" v="residential"/>
    <tag k="surface" v="paved"/>
  </way>
  <way id="52826119" version="4" timestamp="2010-09-25T14:05:34Z" uid="109705" user="gscholz" changeset="5871183">
    <nd ref="669896507"/>
    <nd ref="669896510"/>
    <tag k="highway" v="residential"/>
    <tag k="name" v="Palazzine"/>
    <tag k="surface" v="paved"/>
  </way>
  <way id="52826119" version="5" timestamp="2011-12-30T00:25:50Z" uid="176920" user="SilverSpace" changeset="10241406"/>
  <way id="52826120" version="1" timestamp="2010-03-19T19:15:39Z" uid="143719" user="DarkoS" changeset="4173172">
    <nd ref="60305131"/>
    <nd ref="669896512"/>
    <nd ref="669896506"/>
  </way>
  <way id="52826120" version="2" timestamp="2010-03-20T09:55:13Z" uid="143719" user="DarkoS" changeset="4177732">
    <nd ref="60305131"/>
    <nd ref="669896512"/>
    <nd ref="669896506"/>
    <tag k="highway" v="residential"/>
    <tag k="surface" v="paved"/>
  </way>
  <way id="52826120" version="3" timestamp="2010-12-09T17:41:02Z" uid="109705" user="gscholz" changeset="6597405">
    <nd ref="60305131"/>
    <nd ref="669896506"/>
    <tag k="highway" v="residential"/>
    <tag k="surface" v="paved"/>
  </way>
  <way id="52826120" version="4" timestamp="2011-09-25T16:54:25Z" uid="320873" user="filip55" changeset="9394424"/>
  <way id="52826720" version="2" timestamp="2010-05-25T00:45:00Z" uid="6269" user="Mueck" changeset="4799840">
    <nd ref="19087920"/>
    <nd ref="659914027"/>
    <nd ref="247044737"/>
    <nd ref="247044738"/>
    <nd ref="247044739"/>
    <tag k="layer" v="1"/>
    <tag k="railway" v="light_rail"/>
  </way>
  <way id="52826720" version="3" timestamp="2010-12-01T18:10:46Z" uid="6269" user="Mueck" changeset="6506594">
    <nd ref="19087920"/>
    <nd ref="659914027"/>
    <nd ref="247044737"/>
    <nd ref="247044738"/>
    <nd ref="1014841969"/>
    <nd ref="1014841867"/>
    <tag k="embankment" v="yes"/>
    <tag k="layer" v="1"/>
    <tag k="railway" v="light_rail"/>
  </way>
  <way id="52826720" version="4" timestamp="2010-12-01T21:48:53Z" uid="6269" user="Mueck" changeset="6508685">
    <nd ref="19087920"/>
    <nd ref="659914027"/>
    <nd ref="247044737"/>
    <tag k="electrified" v="contact_line"/>
    <tag k="embankment" v="yes"/>
    <tag k="layer" v="1"/>
    <tag k="railway" v="light_rail"/>
  </way>
  <way id="52826720" version="5" timestamp="2011-01-24T15:05:54Z" uid="6269" user="Mueck" changeset="7073890">
    <nd ref="19087920"/>
    <nd ref="659914027"/>
    <nd ref="247044737"/>
    <tag k="electrified" v="contact_line"/>
    <tag k="embankment" v="yes"/>
    <tag k="layer" v="1"/>
    <tag k="railway" v="light_rail"/>
    <tag k="voltage" v="0"/>
  </way>
  <way id="52826720" version="6" timestamp="2011-03-05T23:32:25Z" uid="6269" user="Mueck" changeset="7468932">
    <nd ref="19087920"/>
    <nd ref="659914027"/>
    <nd ref="247044737"/>
    <tag k="electrified" v="contact_line"/>
    <tag k="embankment" v="yes"/>
    <tag k="frequency" v="0"/>
    <tag k="gauge" v="1435"/>
    <tag k="layer" v="1"/>
    <tag k="note" v="Systemwechsel"/>
    <tag k="oneway" v="yes"/>
    <tag k="operator" v="AVG"/>
    <tag k="railway" v="light_rail"/>
    <tag k="tracks" v="1"/>
    <tag k="usage" v="branch"/>
    <tag k="voltage" v="0"/>
    <tag k="workrules" v="EBO"/>
  </way>
  <way id="52826720" version="7" timestamp="2011-03-17T17:31:26Z" uid="6269" user="Mueck" changeset="7587624">
    <nd ref="19087920"/>
    <nd ref="659914027"/>
    <nd ref="247044737"/>
    <tag k="electrified" v="contact_line"/>
    <tag k="embankment" v="yes"/>
    <tag k="frequency" v="0"/>
    <tag k="gauge" v="1435"/>
    <tag k="layer" v="1"/>
    <tag k="note" v="Systemwechsel"/>
    <tag k="oneway" v="yes"/>
    <tag k="operator" v="AVG"/>
    <tag k="railway" v="light_rail"/>
    <tag k="ref" v="11"/>
    <tag k="tracks" v="1"/>
    <tag k="usage" v="branch"/>
    <tag k="voltage" v="0"/>
    <tag k="workrules" v="EBO"/>
  </way>
  <way id="52826720" version="8" timestamp="2011-03-20T17:56:02Z" uid="6269" user="Mueck" changeset="7619451">
    <nd ref="1118765449"/>
    <nd ref="1118765435"/>
    <nd ref="19087920"/>
    <nd ref="659914027"/>
    <nd ref="247044737"/>
    <nd ref="1210838412"/>
    <tag k="electrified" v="contact_line"/>
    <tag k="embankment" v="yes"/>
    <tag k="frequency" v="0"/>
    <tag k="gauge" v="1435"/>
    <tag k="layer" v="1"/>
    <tag k="note" v="Systemwechsel"/>
    <tag k="oneway" v="yes"/>
    <tag k="operator" v="AVG"/>
    <tag k="railway" v="light_rail"/>
    <tag k="ref" v="11"/>
    <tag k="tracks" v="1"/>
    <tag k="usage" v="branch"/>
    <tag k="voltage" v="0"/>
    <tag k="workrules" v="EBO"/>
  </way>
  <way id="52826721" version="1" timestamp="2010-03-19T19:31:18Z" uid="33382" user="de_muur" changeset="4173321">
    <nd ref="257552698"/>
    <nd ref="31196614"/>
    <nd ref="31196615"/>
    <nd ref="31196616"/>
    <nd ref="31196617"/>
    <nd ref="31196618"/>
    <nd ref="31196619"/>
    <nd ref="31196620"/>
    <nd ref="31196621"/>
    <nd ref="31196622"/>
    <nd ref="31196623"/>
    <nd ref="31196624"/>
    <nd ref="31196625"/>
    <nd ref="31196626"/>
    <nd ref="31196627"/>
    <nd ref="31196628"/>
    <nd ref="31196629"/>
    <nd ref="31196630"/>
    <nd ref="31196631"/>
    <nd ref="31196632"/>
    <nd ref="31196633"/>
    <nd ref="31196634"/>
    <nd ref="31196635"/>
    <nd ref="31196636"/>
    <nd ref="31196595"/>
    <tag k="highway" v="secondary"/>
    <tag k="ref" v="L 331"/>
    <tag k="surface" v="paved"/>
  </way>
  <way id="52826721" version="2" timestamp="2010-03-24T18:48:48Z" uid="33382" user="de_muur" changeset="4223480">
    <nd ref="257552698"/>
    <nd ref="31196614"/>
    <nd ref="31196615"/>
    <nd ref="31196616"/>
    <nd ref="31196617"/>
    <nd ref="31196618"/>
    <nd ref="31196619"/>
    <nd ref="31196620"/>
    <nd ref="31196621"/>
    <nd ref="31196622"/>
    <nd ref="31196623"/>
    <nd ref="31196624"/>
    <tag k="highway" v="secondary"/>
    <tag k="maxspeed" v="50"/>
    <tag k="ref" v="L 331"/>
    <tag k="surface" v="paved"/>
  </way>
  <way id="52826721" version="3" timestamp="2010-03-25T19:46:52Z" uid="33382" user="de_muur" changeset="4232497">
    <nd ref="257552698"/>
    <nd ref="31196614"/>
    <nd ref="31196615"/>
    <nd ref="31196616"/>
    <nd ref="31196617"/>
    <nd ref="31196618"/>
    <nd ref="31196619"/>
    <nd ref="31196620"/>
    <nd ref="31196621"/>
    <nd ref="31196622"/>
    <nd ref="31196623"/>
    <tag k="highway" v="secondary"/>
    <tag k="maxspeed" v="50"/>
    <tag k="ref" v="L 331"/>
    <tag k="surface" v="paved"/>
  </way>
  <way id="52826721" version="4" timestamp="2011-08-07T10:21:50Z" uid="57645" user="KartoGrapHiti" changeset="8945386">
    <nd ref="257552698"/>
    <nd ref="31196614"/>
    <nd ref="31196615"/>
    <nd ref="31196616"/>
    <nd ref="31196617"/>
    <nd ref="31196618"/>
    <nd ref="31196619"/>
    <nd ref="1389314439"/>
    <nd ref="31196620"/>
    <nd ref="1389314397"/>
    <nd ref="31196621"/>
    <nd ref="31196622"/>
    <nd ref="31196623"/>
    <tag k="highway" v="secondary"/>
    <tag k="maxspeed" v="50"/>
    <tag k="ref" v="L 331"/>
    <tag k="surface" v="paved"/>
  </way>
  <way id="52826721" version="5" timestamp="2011-08-26T19:05:06Z" uid="57645" user="KartoGrapHiti" changeset="9132221">
    <nd ref="257552698"/>
    <nd ref="31196614"/>
    <nd ref="31196615"/>
    <nd ref="31196616"/>
    <nd ref="31196617"/>
    <nd ref="31196618"/>
    <nd ref="1413599732"/>
    <nd ref="1413599724"/>
    <nd ref="31196619"/>
    <nd ref="1389314439"/>
    <nd ref="31196620"/>
    <nd ref="1389314397"/>
    <nd ref="31196621"/>
    <nd ref="31196622"/>
    <nd ref="31196623"/>
    <tag k="highway" v="secondary"/>
    <tag k="lit" v="limited"/>
    <tag k="maxspeed" v="50"/>
    <tag k="ref" v="L 331"/>
    <tag k="surface" v="paved"/>
  </way>
  <way id="52826721" version="6" timestamp="2012-03-04T17:43:00Z" uid="57645" user="KartoGrapHiti" changeset="10871447"/>
  <way id="52826722" version="1" timestamp="2010-03-19T19:31:18Z" uid="33382" user="de_muur" changeset="4173321">
    <nd ref="369693298"/>
    <nd ref="31196611"/>
    <nd ref="31196612"/>
    <nd ref="31196613"/>
    <nd ref="257552698"/>
    <tag k="highway" v="secondary"/>
    <tag k="maxspeed" v="50"/>
    <tag k="ref" v="L 331"/>
    <tag k="surface" v="paved"/>
  </way>
  <way id="52826722" version="2" timestamp="2011-12-28T12:27:23Z" uid="57645" user="KartoGrapHiti" changeset="10225330">
    <nd ref="369693298"/>
    <nd ref="31196611"/>
    <nd ref="31196612"/>
    <nd ref="31196613"/>
    <nd ref="257552698"/>
    <tag k="highway" v="secondary"/>
    <tag k="lit" v="limited"/>
    <tag k="maxspeed" v="50"/>
    <tag k="ref" v="L 331"/>
    <tag k="surface" v="paved"/>
  </way>
  <way id="52826992" version="1" timestamp="2010-03-19T19:43:30Z" uid="33382" user="de_muur" changeset="4173449">
    <nd ref="443051676"/>
    <nd ref="25435405"/>
    <nd ref="25435406"/>
    <nd ref="25435407"/>
    <nd ref="25435408"/>
    <nd ref="409798212"/>
    <nd ref="486093560"/>
    <tag k="highway" v="secondary"/>
    <tag k="name" v="Okeler Straße"/>
    <tag k="ref" v="L 333"/>
    <tag k="surface" v="paved"/>
  </way>
  <way id="52826992" version="2" timestamp="2010-09-09T17:30:36Z" uid="53407" user="perryair" changeset="5734597">
    <nd ref="443051676"/>
    <nd ref="25435405"/>
    <nd ref="25435406"/>
    <nd ref="904225979"/>
    <nd ref="25435407"/>
    <nd ref="25435408"/>
    <nd ref="409798212"/>
    <nd ref="904225965"/>
    <nd ref="486093560"/>
    <tag k="highway" v="secondary"/>
    <tag k="name" v="Okeler Straße"/>
    <tag k="ref" v="L 333"/>
    <tag k="surface" v="paved"/>
  </way>
  <way id="52826992" version="3" timestamp="2011-04-25T12:31:58Z" uid="53407" user="perryair" changeset="7962921">
    <nd ref="443051676"/>
    <nd ref="25435405"/>
    <nd ref="25435406"/>
    <nd ref="1259470431"/>
    <nd ref="25435407"/>
    <nd ref="25435408"/>
    <nd ref="1259470517"/>
    <nd ref="904225965"/>
    <nd ref="486093560"/>
    <tag k="highway" v="secondary"/>
    <tag k="name" v="Okeler Straße"/>
    <tag k="ref" v="L 333"/>
    <tag k="surface" v="paved"/>
  </way>
  <way id="52826992" version="4" timestamp="2011-12-28T12:27:29Z" uid="57645" user="KartoGrapHiti" changeset="10225330">
    <nd ref="443051676"/>
    <nd ref="25435405"/>
    <nd ref="25435406"/>
    <nd ref="1259470431"/>
    <nd ref="25435407"/>
    <nd ref="25435408"/>
    <nd ref="1259470517"/>
    <nd ref="904225965"/>
    <nd ref="486093560"/>
    <tag k="highway" v="secondary"/>
    <tag k="maxspeed" v="100"/>
    <tag k="name" v="Okeler Straße"/>
    <tag k="ref" v="L 333"/>
    <tag k="surface" v="paved"/>
  </way>
  <way id="52826992" version="5" timestamp="2011-12-31T13:55:49Z" uid="57645" user="KartoGrapHiti" changeset="10254934">
    <nd ref="443051676"/>
    <nd ref="25435405"/>
    <nd ref="25435406"/>
    <nd ref="1259470431"/>
    <nd ref="25435407"/>
    <nd ref="1571177807"/>
    <nd ref="25435408"/>
    <nd ref="1259470517"/>
    <nd ref="904225965"/>
    <nd ref="486093560"/>
    <tag k="highway" v="secondary"/>
    <tag k="maxspeed" v="100"/>
    <tag k="name" v="Okeler Straße"/>
    <tag k="ref" v="L 333"/>
    <tag k="surface" v="paved"/>
  </way>
  <way id="52826993" version="1" timestamp="2010-03-19T19:43:31Z" uid="33382" user="de_muur" changeset="4173449">
    <nd ref="296431645"/>
    <nd ref="25435403"/>
    <nd ref="25435404"/>
    <nd ref="443051676"/>
    <tag k="highway" v="secondary"/>
    <tag k="name" v="Okeler Straße"/>
    <tag k="ref" v="L 333"/>
    <tag k="surface" v="paved"/>
  </way>
  <way id="52826993" version="2" timestamp="2011-12-28T12:27:27Z" uid="57645" user="KartoGrapHiti" changeset="10225330">
    <nd ref="296431645"/>
    <nd ref="25435403"/>
    <nd ref="25435404"/>
    <nd ref="443051676"/>
    <tag k="highway" v="secondary"/>
    <tag k="maxspeed" v="100"/>
    <tag k="name" v="Okeler Straße"/>
    <tag k="ref" v="L 333"/>
    <tag k="surface" v="paved"/>
  </way>
  <way id="52826994" version="1" timestamp="2010-03-19T19:43:31Z" uid="33382" user="de_muur" changeset="4173449">
    <nd ref="253489782"/>
    <nd ref="25435402"/>
    <nd ref="296431645"/>
    <tag k="highway" v="secondary"/>
    <tag k="name" v="Okeler Straße"/>
    <tag k="ref" v="L 333"/>
    <tag k="surface" v="paved"/>
  </way>
  <way id="52826994" version="2" timestamp="2011-12-28T12:27:26Z" uid="57645" user="KartoGrapHiti" changeset="10225330">
    <nd ref="253489782"/>
    <nd ref="25435402"/>
    <nd ref="296431645"/>
    <tag k="highway" v="secondary"/>
    <tag k="maxspeed" v="100"/>
    <tag k="name" v="Okeler Straße"/>
    <tag k="ref" v="L 333"/>
    <tag k="surface" v="paved"/>
  </way>
  <way id="52826995" version="1" timestamp="2010-03-19T19:43:31Z" uid="33382" user="de_muur" changeset="4173449">
    <nd ref="25435395"/>
    <nd ref="25435396"/>
    <nd ref="25435397"/>
    <nd ref="25435398"/>
    <nd ref="253489668"/>
    <nd ref="25435399"/>
    <nd ref="25435400"/>
    <nd ref="25435401"/>
    <nd ref="253489782"/>
    <tag k="highway" v="secondary"/>
    <tag k="name" v="Okeler Straße"/>
    <tag k="ref" v="L 333"/>
    <tag k="surface" v="paved"/>
  </way>
  <way id="52826995" version="2" timestamp="2011-12-28T12:27:30Z" uid="57645" user="KartoGrapHiti" changeset="10225330">
    <nd ref="25435395"/>
    <nd ref="25435396"/>
    <nd ref="25435397"/>
    <nd ref="25435398"/>
    <nd ref="253489668"/>
    <nd ref="25435399"/>
    <nd ref="25435400"/>
    <nd ref="25435401"/>
    <nd ref="253489782"/>
    <tag k="highway" v="secondary"/>
    <tag k="maxspeed" v="100"/>
    <tag k="name" v="Okeler Straße"/>
    <tag k="ref" v="L 333"/>
    <tag k="surface" v="paved"/>
  </way>
  <way id="52826995" version="3" timestamp="2011-12-31T13:55:50Z" uid="57645" user="KartoGrapHiti" changeset="10254934">
    <nd ref="25435395"/>
    <nd ref="25435396"/>
    <nd ref="1571177872"/>
    <tag k="highway" v="secondary"/>
    <tag k="lit" v="no"/>
    <tag k="maxspeed" v="100"/>
    <tag k="name" v="Okeler Straße"/>
    <tag k="ref" v="L 333"/>
    <tag k="surface" v="paved"/>
  </way>
</osm>
