<?xml version='1.0' encoding='UTF-8'?>
<osm version="0.6" generator="libosmium/2.20.0">
  <way id="52885376" version="1" timestamp="2010-03-20T13:13:39Z" uid="7617" user="Franc" changeset="4179590">
    <nd ref="26797465"/>
    <nd ref="670391594"/>
    <nd ref="26797466"/>
    <nd ref="26797467"/>
    <nd ref="26797468"/>
    <nd ref="448101788"/>
    <nd ref="26797470"/>
    <nd ref="26797471"/>
    <nd ref="293751814"/>
    <nd ref="26797672"/>
    <nd ref="26797473"/>
    <nd ref="618580883"/>
    <nd ref="618580881"/>
    <nd ref="26797474"/>
    <nd ref="618580884"/>
    <nd ref="26797475"/>
    <nd ref="618580897"/>
    <nd ref="585132157"/>
    <nd ref="26797476"/>
    <nd ref="26797477"/>
    <nd ref="81338289"/>
    <nd ref="26797478"/>
    <nd ref="26797479"/>
    <nd ref="26797480"/>
    <nd ref="293746628"/>
    <tag k="highway" v="tertiary"/>
    <tag k="name" v="Queen Street"/>
  </way>
  <way id="52885376" version="2" timestamp="2011-11-24T12:40:03Z" uid="349913" user="Peter W34" changeset="9932636">
    <nd ref="26797465"/>
    <nd ref="670391594"/>
    <nd ref="26797466"/>
    <nd ref="26797467"/>
    <nd ref="26797468"/>
    <nd ref="448101788"/>
    <nd ref="26797470"/>
    <nd ref="26797471"/>
    <nd ref="1515247965"/>
    <nd ref="293751814"/>
    <nd ref="26797672"/>
    <nd ref="26797473"/>
    <nd ref="618580883"/>
    <nd ref="618580881"/>
    <nd ref="26797474"/>
    <nd ref="618580884"/>
    <nd ref="26797475"/>
    <nd ref="618580897"/>
    <nd ref="585132157"/>
    <nd ref="26797476"/>
    <nd ref="26797477"/>
    <nd ref="81338289"/>
    <nd ref="26797478"/>
    <nd ref="26797479"/>
    <nd ref="26797480"/>
    <nd ref="293746628"/>
    <tag k="highway" v="tertiary"/>
    <tag k="name" v="Queen Street"/>
  </way>
  <way id="52885378" version="1" timestamp="2010-03-20T13:13:40Z" uid="7617" user="Franc" changeset="4179590">
    <nd ref="293527200"/>
    <nd ref="293527204"/>
    <nd ref="293527205"/>
    <nd ref="293527206"/>
    <nd ref="293527207"/>
    <nd ref="293527211"/>
    <nd ref="293527208"/>
    <nd ref="293527209"/>
    <nd ref="293527210"/>
    <tag k="highway" v="residential"/>
    <tag k="source" v="nearmap"/>
  </way>
  <way id="52885378" version="2" timestamp="2010-07-04T07:36:54Z" uid="7617" user="Franc" changeset="5130271">
    <nd ref="293527200"/>
    <nd ref="293527204"/>
    <nd ref="293527205"/>
    <nd ref="293527206"/>
    <nd ref="293527207"/>
    <nd ref="293527211"/>
    <nd ref="293527208"/>
    <nd ref="293527209"/>
    <nd ref="293527210"/>
    <tag k="highway" v="residential"/>
    <tag k="name" v="The Kraal Drive"/>
    <tag k="source" v="survey"/>
  </way>
  <way id="52885378" version="3" timestamp="2010-07-07T20:32:54Z" uid="74617" user="JohnSmith" changeset="5161069">
    <nd ref="293527200"/>
    <nd ref="293527204"/>
    <nd ref="293527205"/>
    <nd ref="293527206"/>
    <nd ref="293527207"/>
    <nd ref="293527211"/>
    <nd ref="293527208"/>
    <nd ref="293527209"/>
    <nd ref="293527210"/>
    <tag k="highway" v="residential"/>
    <tag k="maxspeed" v="50"/>
    <tag k="maxspeed:source" v="default residential speed limit in Australia"/>
    <tag k="name" v="The Kraal Drive"/>
    <tag k="source" v="survey"/>
  </way>
  <way id="52885378" version="4" timestamp="2012-01-20T04:20:30Z" uid="147510" user="woodpeck_fixbot" changeset="10442986">
    <nd ref="293527200"/>
    <nd ref="293527204"/>
    <nd ref="293527205"/>
    <nd ref="293527206"/>
    <nd ref="293527207"/>
    <nd ref="293527211"/>
    <nd ref="293527208"/>
    <nd ref="293527209"/>
    <nd ref="293527210"/>
    <tag k="highway" v="residential"/>
    <tag k="name" v="The Kraal Drive"/>
    <tag k="source" v="survey"/>
  </way>
  <way id="52885379" version="1" timestamp="2010-03-20T13:13:40Z" uid="7617" user="Franc" changeset="4179590">
    <nd ref="293521783"/>
    <nd ref="293521790"/>
    <nd ref="670198083"/>
    <nd ref="293521793"/>
    <tag k="highway" v="residential"/>
    <tag k="name" v="The Kraal Drive"/>
    <tag k="source" v="survey"/>
  </way>
  <way id="52885379" version="2" timestamp="2010-07-07T20:37:31Z" uid="74617" user="JohnSmith" changeset="5161069">
    <nd ref="293521783"/>
    <nd ref="293521790"/>
    <nd ref="670198083"/>
    <nd ref="293521793"/>
    <tag k="highway" v="residential"/>
    <tag k="maxspeed" v="50"/>
    <tag k="maxspeed:source" v="default residential speed limit in Australia"/>
    <tag k="name" v="The Kraal Drive"/>
    <tag k="source" v="survey"/>
  </way>
  <way id="52885379" version="3" timestamp="2012-01-20T04:20:32Z" uid="147510" user="woodpeck_fixbot" changeset="10442986">
    <nd ref="293521783"/>
    <nd ref="293521790"/>
    <nd ref="670198083"/>
    <nd ref="293521793"/>
    <tag k="highway" v="residential"/>
    <tag k="name" v="The Kraal Drive"/>
    <tag k="source" v="survey"/>
  </way>
  <way id="52885380" version="1" timestamp="2010-03-20T13:13:40Z" uid="7617" user="Franc" changeset="4179590">
    <nd ref="293521783"/>
    <nd ref="293519854"/>
    <tag k="highway" v="residential"/>
    <tag k="name" v="The Kraal Drive"/>
    <tag k="oneway" v="yes"/>
    <tag k="source" v="survey"/>
  </way>
  <way id="52885380" version="2" timestamp="2010-07-07T20:36:35Z" uid="74617" user="JohnSmith" changeset="5161069">
    <nd ref="293521783"/>
    <nd ref="293519854"/>
    <tag k="highway" v="residential"/>
    <tag k="maxspeed" v="50"/>
    <tag k="maxspeed:source" v="default residential speed limit in Australia"/>
    <tag k="name" v="The Kraal Drive"/>
    <tag k="oneway" v="yes"/>
    <tag k="source" v="survey"/>
  </way>
  <way id="52885380" version="3" timestamp="2012-01-20T04:20:33Z" uid="147510" user="woodpeck_fixbot" changeset="10442986">
    <nd ref="293521783"/>
    <nd ref="293519854"/>
    <tag k="highway" v="residential"/>
    <tag k="name" v="The Kraal Drive"/>
    <tag k="oneway" v="yes"/>
    <tag k="source" v="survey"/>
  </way>
  <way id="52885381" version="1" timestamp="2010-03-20T13:13:40Z" uid="7617" user="Franc" changeset="4179590">
    <nd ref="670391587"/>
    <nd ref="294930032"/>
    <nd ref="26797465"/>
    <tag k="highway" v="unclassified"/>
    <tag k="source" v="yahoo_maps"/>
  </way>
  <way id="52885381" version="2" timestamp="2010-04-14T11:04:14Z" uid="203324" user="firefly2560" changeset="4421406"/>
  <way id="52885382" version="1" timestamp="2010-03-20T13:13:40Z" uid="7617" user="Franc" changeset="4179590">
    <nd ref="414267670"/>
    <nd ref="670391582"/>
    <nd ref="670391568"/>
    <nd ref="670391569"/>
    <nd ref="670391571"/>
    <nd ref="670391574"/>
    <tag k="highway" v="service"/>
    <tag k="source" v="nearmap"/>
  </way>
  <way id="52885382" version="2" timestamp="2010-04-14T11:03:04Z" uid="203324" user="firefly2560" changeset="4421406">
    <nd ref="414267670"/>
    <nd ref="670391582"/>
    <nd ref="670391568"/>
    <nd ref="670391569"/>
    <nd ref="670391571"/>
    <nd ref="670391574"/>
    <tag k="highway" v="unclassified"/>
    <tag k="name" v="Anzac Lane"/>
    <tag k="source" v="nearmap"/>
  </way>
  <way id="52885383" version="1" timestamp="2010-03-20T13:13:40Z" uid="7617" user="Franc" changeset="4179590">
    <nd ref="670391597"/>
    <nd ref="670391601"/>
    <nd ref="670391593"/>
    <nd ref="670391592"/>
    <nd ref="670391597"/>
    <tag k="landuse" v="cemetery"/>
  </way>
  <way id="52885384" version="1" timestamp="2010-03-20T13:13:40Z" uid="7617" user="Franc" changeset="4179590">
    <nd ref="670391588"/>
    <nd ref="477358300"/>
    <nd ref="670391587"/>
    <tag k="highway" v="unclassified"/>
    <tag k="restriction" v="school_zone"/>
    <tag k="source" v="nearmap"/>
  </way>
  <way id="52885384" version="2" timestamp="2010-04-14T11:03:04Z" uid="203324" user="firefly2560" changeset="4421406">
    <nd ref="670391588"/>
    <nd ref="477358300"/>
    <nd ref="670391587"/>
    <nd ref="294930032"/>
    <nd ref="26797465"/>
    <tag k="highway" v="residential"/>
    <tag k="name" v="Cordeaux Street"/>
    <tag k="restriction" v="school_zone"/>
    <tag k="source" v="nearmap"/>
  </way>
  <way id="52885384" version="3" timestamp="2010-07-07T20:37:14Z" uid="74617" user="JohnSmith" changeset="5161069">
    <nd ref="670391588"/>
    <nd ref="477358300"/>
    <nd ref="670391587"/>
    <nd ref="294930032"/>
    <nd ref="26797465"/>
    <tag k="highway" v="residential"/>
    <tag k="maxspeed" v="50"/>
    <tag k="maxspeed:source" v="default residential speed limit in Australia"/>
    <tag k="name" v="Cordeaux Street"/>
    <tag k="restriction" v="school_zone"/>
    <tag k="source" v="nearmap"/>
  </way>
  <way id="52885384" version="4" timestamp="2012-01-20T04:20:35Z" uid="147510" user="woodpeck_fixbot" changeset="10442986">
    <nd ref="670391588"/>
    <nd ref="477358300"/>
    <nd ref="670391587"/>
    <nd ref="294930032"/>
    <nd ref="26797465"/>
    <tag k="highway" v="residential"/>
    <tag k="name" v="Cordeaux Street"/>
    <tag k="restriction" v="school_zone"/>
    <tag k="source" v="nearmap"/>
  </way>
  <way id="52885385" version="1" timestamp="2010-03-20T13:13:40Z" uid="7617" user="Franc" changeset="4179590">
    <nd ref="670391588"/>
    <nd ref="670391589"/>
    <nd ref="670391590"/>
    <nd ref="670391591"/>
    <nd ref="670391578"/>
    <nd ref="670391580"/>
    <nd ref="670391584"/>
    <nd ref="670391583"/>
    <nd ref="670391581"/>
    <nd ref="670391588"/>
    <tag k="highway" v="residential"/>
    <tag k="source" v="nearmap"/>
  </way>
  <way id="52885385" version="2" timestamp="2010-07-07T20:33:53Z" uid="74617" user="JohnSmith" changeset="5161069">
    <nd ref="670391588"/>
    <nd ref="670391589"/>
    <nd ref="670391590"/>
    <nd ref="670391591"/>
    <nd ref="670391578"/>
    <nd ref="670391580"/>
    <nd ref="670391584"/>
    <nd ref="670391583"/>
    <nd ref="670391581"/>
    <nd ref="670391588"/>
    <tag k="highway" v="residential"/>
    <tag k="maxspeed" v="50"/>
    <tag k="maxspeed:source" v="default residential speed limit in Australia"/>
    <tag k="source" v="nearmap"/>
  </way>
  <way id="52885385" version="3" timestamp="2012-01-20T04:20:36Z" uid="147510" user="woodpeck_fixbot" changeset="10442986">
    <nd ref="670391588"/>
    <nd ref="670391589"/>
    <nd ref="670391590"/>
    <nd ref="670391591"/>
    <nd ref="670391578"/>
    <nd ref="670391580"/>
    <nd ref="670391584"/>
    <nd ref="670391583"/>
    <nd ref="670391581"/>
    <nd ref="670391588"/>
    <tag k="highway" v="residential"/>
    <tag k="source" v="nearmap"/>
  </way>
  <way id="52885385" version="4" timestamp="2012-02-03T05:54:32Z" uid="341998" user="petero114" changeset="10573514">
    <nd ref="670391588"/>
    <nd ref="1616394819"/>
    <nd ref="1616394791"/>
    <nd ref="670391589"/>
    <nd ref="1616394802"/>
    <nd ref="670391590"/>
    <nd ref="1616394814"/>
    <nd ref="670391591"/>
    <nd ref="1616394794"/>
    <nd ref="670391578"/>
    <nd ref="1616394793"/>
    <nd ref="670391580"/>
    <nd ref="1616394801"/>
    <nd ref="670391584"/>
    <nd ref="1616394837"/>
    <nd ref="670391583"/>
    <nd ref="1616394817"/>
    <nd ref="670391581"/>
    <nd ref="1616394804"/>
    <nd ref="670391588"/>
    <tag k="highway" v="residential"/>
    <tag k="source" v="nearmap"/>
  </way>
  <way id="52885386" version="1" timestamp="2010-03-20T13:13:40Z" uid="7617" user="Franc" changeset="4179590">
    <nd ref="670391575"/>
    <nd ref="670391573"/>
    <nd ref="670391574"/>
    <nd ref="26797597"/>
    <nd ref="670391583"/>
    <tag k="highway" v="unclassified"/>
    <tag k="oneway" v="yes"/>
    <tag k="source" v="nearmap"/>
  </way>
  <way id="52885386" version="2" timestamp="2010-04-14T11:03:05Z" uid="203324" user="firefly2560" changeset="4421406">
    <nd ref="670391575"/>
    <nd ref="670391573"/>
    <nd ref="670391574"/>
    <nd ref="26797597"/>
    <nd ref="670391583"/>
    <tag k="highway" v="unclassified"/>
    <tag k="name" v="Carberry Lane"/>
    <tag k="oneway" v="yes"/>
    <tag k="source" v="nearmap"/>
  </way>
  <way id="52885387" version="1" timestamp="2010-03-20T13:13:41Z" uid="7617" user="Franc" changeset="4179590">
    <nd ref="670391580"/>
    <nd ref="670391585"/>
    <nd ref="670391576"/>
    <nd ref="670391577"/>
    <nd ref="670391575"/>
    <tag k="highway" v="unclassified"/>
    <tag k="oneway" v="yes"/>
    <tag k="source" v="nearmap"/>
  </way>
  <way id="52885387" version="2" timestamp="2010-04-14T11:03:05Z" uid="203324" user="firefly2560" changeset="4421406">
    <nd ref="670391580"/>
    <nd ref="670391585"/>
    <nd ref="670391576"/>
    <nd ref="670391577"/>
    <nd ref="670391575"/>
    <tag k="highway" v="unclassified"/>
    <tag k="name" v="Carberry Lane"/>
    <tag k="oneway" v="yes"/>
    <tag k="source" v="nearmap"/>
  </way>
  <way id="52885388" version="1" timestamp="2010-03-20T13:13:41Z" uid="7617" user="Franc" changeset="4179590">
    <nd ref="670391573"/>
    <nd ref="670391571"/>
    <tag k="highway" v="service"/>
    <tag k="source" v="nearmap"/>
  </way>
  <way id="52885389" version="1" timestamp="2010-03-20T13:13:41Z" uid="7617" user="Franc" changeset="4179590">
    <nd ref="670391579"/>
    <nd ref="477358299"/>
    <nd ref="670391591"/>
    <tag k="highway" v="unclassified"/>
    <tag k="restriction" v="school_zone"/>
    <tag k="source" v="nearmap"/>
  </way>
  <way id="52885389" version="2" timestamp="2010-04-14T11:04:15Z" uid="203324" user="firefly2560" changeset="4421406"/>
  <way id="52885390" version="1" timestamp="2010-03-20T13:13:41Z" uid="7617" user="Franc" changeset="4179590">
    <nd ref="670391600"/>
    <nd ref="294929846"/>
    <nd ref="294929847"/>
    <tag k="highway" v="residential"/>
    <tag k="name" v="Howe Street"/>
    <tag k="restriction" v="school_zone"/>
    <tag k="source" v="nearmap"/>
  </way>
  <way id="52885390" version="2" timestamp="2010-07-07T20:38:40Z" uid="74617" user="JohnSmith" changeset="5161069">
    <nd ref="670391600"/>
    <nd ref="294929846"/>
    <nd ref="294929847"/>
    <tag k="highway" v="residential"/>
    <tag k="maxspeed" v="50"/>
    <tag k="maxspeed:source" v="default residential speed limit in Australia"/>
    <tag k="name" v="Howe Street"/>
    <tag k="restriction" v="school_zone"/>
    <tag k="source" v="nearmap"/>
  </way>
  <way id="52885390" version="3" timestamp="2012-01-20T04:20:37Z" uid="147510" user="woodpeck_fixbot" changeset="10442986">
    <nd ref="670391600"/>
    <nd ref="294929846"/>
    <nd ref="294929847"/>
    <tag k="highway" v="residential"/>
    <tag k="name" v="Howe Street"/>
    <tag k="restriction" v="school_zone"/>
    <tag k="source" v="nearmap"/>
  </way>
  <way id="52885391" version="1" timestamp="2010-03-20T13:13:41Z" uid="7617" user="Franc" changeset="4179590">
    <nd ref="670391595"/>
    <nd ref="26797467"/>
    <tag k="highway" v="residential"/>
    <tag k="name" v="Browne Street"/>
    <tag k="source" v="yahoo_maps"/>
  </way>
  <way id="52885391" version="2" timestamp="2010-07-07T20:35:11Z" uid="74617" user="JohnSmith" changeset="5161069">
    <nd ref="670391595"/>
    <nd ref="26797467"/>
    <tag k="highway" v="residential"/>
    <tag k="maxspeed" v="50"/>
    <tag k="maxspeed:source" v="default residential speed limit in Australia"/>
    <tag k="name" v="Browne Street"/>
    <tag k="source" v="yahoo_maps"/>
  </way>
  <way id="52885391" version="3" timestamp="2012-01-20T04:20:38Z" uid="147510" user="woodpeck_fixbot" changeset="10442986">
    <nd ref="670391595"/>
    <nd ref="26797467"/>
    <tag k="highway" v="residential"/>
    <tag k="name" v="Browne Street"/>
    <tag k="source" v="yahoo_maps"/>
  </way>
  <way id="52885508" version="2" timestamp="2011-04-29T19:03:25Z" uid="16922" user="amai" changeset="8005883">
    <nd ref="670391865"/>
    <nd ref="670391866"/>
    <nd ref="1265401758"/>
    <nd ref="670391867"/>
    <tag k="highway" v="tertiary"/>
    <tag k="name" v="01 กาญจนาภิเษก"/>
    <tag k="name:en" v="01 Kanchanapisek"/>
    <tag k="name:th" v="01 กาญจนาภิเษก"/>
  </way>
  <way id="52885508" version="3" timestamp="2012-03-25T08:03:51Z" uid="61891" user="stephankn" changeset="11092167">
    <nd ref="670391865"/>
    <nd ref="670391866"/>
    <nd ref="1690072095"/>
    <nd ref="670391867"/>
    <tag k="highway" v="tertiary"/>
    <tag k="name" v="01 กาญจนาภิเษก"/>
    <tag k="name:en" v="01 Kanchanapisek"/>
    <tag k="name:th" v="01 กาญจนาภิเษก"/>
  </way>
  <way id="52885515" version="4" timestamp="2011-03-31T20:06:45Z" uid="16922" user="amai" changeset="7729599">
    <nd ref="670391873"/>
    <nd ref="670391874"/>
    <nd ref="670391875"/>
    <nd ref="1227116910"/>
    <nd ref="670391876"/>
    <tag k="highway" v="tertiary"/>
    <tag k="name" v="01 กาญจนาภิเษก"/>
    <tag k="name:en" v="01 Kanchanapisek"/>
    <tag k="name:th" v="01 กาญจนาภิเษก"/>
  </way>
  <way id="52885515" version="5" timestamp="2012-03-04T22:10:05Z" uid="61891" user="stephankn" changeset="10874630">
    <nd ref="670391873"/>
    <nd ref="670391874"/>
    <nd ref="670391875"/>
    <nd ref="670391876"/>
    <tag k="highway" v="tertiary"/>
    <tag k="name" v="01 กาญจนาภิเษก"/>
    <tag k="name:en" v="01 Kanchanapisek"/>
    <tag k="name:th" v="01 กาญจนาภิเษก"/>
  </way>
  <way id="52885515" version="6" timestamp="2012-03-24T15:16:01Z" uid="510836" user="Rub21" changeset="11085443">
    <nd ref="670391873"/>
    <nd ref="670391874"/>
    <nd ref="670391875"/>
    <nd ref="1688782274"/>
    <nd ref="670391876"/>
    <tag k="highway" v="tertiary"/>
    <tag k="name" v="01 กาญจนาภิเษก"/>
    <tag k="name:en" v="01 Kanchanapisek"/>
    <tag k="name:th" v="01 กาญจนาภิเษก"/>
  </way>
  <way id="52885564" version="7" timestamp="2010-04-23T05:19:10Z" uid="4467" user="Rosscoe" changeset="4500615"/>
  <way id="52885582" version="2" timestamp="2010-04-05T09:10:02Z" uid="74617" user="JohnSmith" changeset="4330247">
    <nd ref="35436164"/>
    <nd ref="35436152"/>
    <tag k="highway" v="motorway_link"/>
    <tag k="maxspeed" v="80"/>
    <tag k="name" v="Metropolitan Ring Road"/>
    <tag k="oneway" v="yes"/>
    <tag k="source" v="survey"/>
  </way>
  <way id="52885668" version="3" timestamp="2011-03-04T23:18:58Z" uid="16922" user="amai" changeset="7459083">
    <nd ref="312036061"/>
    <nd ref="670397067"/>
    <nd ref="1186560042"/>
    <nd ref="670391876"/>
    <tag k="highway" v="residential"/>
    <tag k="name" v="เฉลิมพระเกียรติ ร.9 ซอย 72"/>
    <tag k="name:en" v="Chaloem Phrakiat Ratchakan Thi 9 Soi 72"/>
    <tag k="name:th" v="เฉลิมพระเกียรติ ร.9 ซอย 72"/>
    <tag k="surface" v="paved"/>
  </way>
  <way id="52885668" version="4" timestamp="2012-03-04T22:09:06Z" uid="61891" user="stephankn" changeset="10874630">
    <nd ref="312036061"/>
    <nd ref="670397067"/>
    <nd ref="670391876"/>
    <tag k="highway" v="residential"/>
    <tag k="name" v="เฉลิมพระเกียรติ ร.9 ซอย 72"/>
    <tag k="name:en" v="Chaloem Phrakiat Ratchakan Thi 9 Soi 72"/>
    <tag k="name:th" v="เฉลิมพระเกียรติ ร.9 ซอย 72"/>
    <tag k="surface" v="paved"/>
  </way>
  <way id="52885676" version="2" timestamp="2010-07-25T07:26:49Z" uid="4467" user="Rosscoe" changeset="5309337">
    <nd ref="670397327"/>
    <nd ref="670397328"/>
    <nd ref="670397330"/>
    <nd ref="670397332"/>
    <nd ref="670397335"/>
    <tag k="bridge" v="yes"/>
    <tag k="highway" v="track"/>
    <tag k="layer" v="1"/>
    <tag k="surface" v="gravel"/>
  </way>
  <way id="52885679" version="2" timestamp="2010-07-25T07:26:50Z" uid="4467" user="Rosscoe" changeset="5309337">
    <nd ref="670397369"/>
    <nd ref="670397372"/>
    <tag k="bridge" v="yes"/>
    <tag k="highway" v="track"/>
    <tag k="layer" v="1"/>
    <tag k="surface" v="gravel"/>
  </way>
  <way id="52885681" version="3" timestamp="2010-07-25T07:26:52Z" uid="4467" user="Rosscoe" changeset="5309337">
    <nd ref="670397378"/>
    <nd ref="670397379"/>
    <nd ref="670397380"/>
    <nd ref="670400212"/>
    <tag k="bridge" v="yes"/>
    <tag k="highway" v="track"/>
    <tag k="layer" v="1"/>
    <tag k="surface" v="gravel"/>
  </way>
  <way id="52885743" version="2" timestamp="2010-07-25T07:26:54Z" uid="4467" user="Rosscoe" changeset="5309337">
    <nd ref="670398160"/>
    <nd ref="670398164"/>
    <tag k="bridge" v="yes"/>
    <tag k="highway" v="track"/>
    <tag k="layer" v="1"/>
    <tag k="surface" v="gravel"/>
  </way>
  <way id="52885894" version="2" timestamp="2010-06-29T19:07:50Z" uid="74617" user="JohnSmith" changeset="5108182">
    <nd ref="670400213"/>
    <nd ref="670400216"/>
    <nd ref="670400218"/>
    <nd ref="670400219"/>
    <nd ref="670400213"/>
    <tag k="fixme" v="sport=football is ambiguous, see http://wiki.osm.org/wiki/Football for more details"/>
    <tag k="leisure" v="pitch"/>
    <tag k="sport" v="football"/>
  </way>
  <way id="52885894" version="3" timestamp="2010-12-25T16:01:26Z" uid="85905" user="Trumbun" changeset="6761824">
    <nd ref="670400213"/>
    <nd ref="670400216"/>
    <nd ref="670400218"/>
    <nd ref="670400219"/>
    <nd ref="670400213"/>
    <tag k="leisure" v="pitch"/>
    <tag k="sport" v="soccer"/>
  </way>
</osm>
