<?xml version='1.0' encoding='UTF-8'?>
<osm version="0.6" generator="libosmium/2.20.0">
  <way id="52897513" version="3" timestamp="2011-04-20T11:26:07Z" uid="115477" user="wowik" changeset="7915253">
    <nd ref="670502081"/>
    <nd ref="670502082"/>
    <nd ref="670502077"/>
    <nd ref="670502092"/>
    <nd ref="670502089"/>
    <nd ref="670502088"/>
    <nd ref="670502090"/>
    <nd ref="670502031"/>
    <nd ref="670502080"/>
    <nd ref="670502081"/>
    <tag k="addr:city" v="Москва"/>
    <tag k="addr:country" v="RU"/>
    <tag k="addr:housenumber" v="16"/>
    <tag k="addr:street" v="Большой Козихинский переулок"/>
    <tag k="building" v="yes"/>
    <tag k="cladr:code" v="77000000000703800"/>
  </way>
  <way id="52897515" version="2" timestamp="2011-04-20T11:28:15Z" uid="115477" user="wowik" changeset="7915253">
    <nd ref="670502098"/>
    <nd ref="670502032"/>
    <nd ref="670502097"/>
    <nd ref="670502096"/>
    <nd ref="670502098"/>
    <tag k="addr:city" v="Москва"/>
    <tag k="addr:country" v="RU"/>
    <tag k="building" v="yes"/>
  </way>
  <way id="52897517" version="3" timestamp="2011-04-20T11:26:47Z" uid="115477" user="wowik" changeset="7915253">
    <nd ref="670502371"/>
    <nd ref="670502367"/>
    <nd ref="670502369"/>
    <nd ref="670502076"/>
    <nd ref="670502365"/>
    <nd ref="670502363"/>
    <nd ref="670502075"/>
    <nd ref="670502074"/>
    <nd ref="670502371"/>
    <tag k="addr:city" v="Москва"/>
    <tag k="addr:country" v="RU"/>
    <tag k="addr:housenumber" v="6"/>
    <tag k="addr:street" v="Сытинский тупик"/>
    <tag k="building" v="yes"/>
    <tag k="cladr:code" v="77000000000285200"/>
  </way>
  <way id="52897518" version="4" timestamp="2011-04-20T11:26:00Z" uid="115477" user="wowik" changeset="7915253">
    <nd ref="670502059"/>
    <nd ref="670502060"/>
    <nd ref="670502042"/>
    <nd ref="670502061"/>
    <nd ref="670502059"/>
    <tag k="addr:city" v="Москва"/>
    <tag k="addr:country" v="RU"/>
    <tag k="addr:housenumber" v="8 с2"/>
    <tag k="addr:street" v="Большой Козихинский переулок"/>
    <tag k="building" v="yes"/>
    <tag k="cladr:code" v="77000000000703800"/>
  </way>
  <way id="52897521" version="3" timestamp="2011-04-20T11:25:31Z" uid="115477" user="wowik" changeset="7915253">
    <nd ref="664072426"/>
    <nd ref="670502005"/>
    <nd ref="670502004"/>
    <nd ref="670502009"/>
    <nd ref="670502003"/>
    <nd ref="664072408"/>
    <nd ref="664072409"/>
    <nd ref="664072426"/>
    <tag k="addr:city" v="Москва"/>
    <tag k="addr:country" v="RU"/>
    <tag k="addr:housenumber" v="10А"/>
    <tag k="addr:street" v="Спиридоньевский переулок"/>
    <tag k="building" v="yes"/>
    <tag k="cladr:code" v="77000000000274400"/>
  </way>
  <way id="52897523" version="3" timestamp="2011-04-20T11:26:45Z" uid="115477" user="wowik" changeset="7915253">
    <nd ref="670502036"/>
    <nd ref="670502041"/>
    <nd ref="670502035"/>
    <nd ref="670502034"/>
    <nd ref="670502033"/>
    <nd ref="670502037"/>
    <nd ref="670502036"/>
    <tag k="addr:city" v="Москва"/>
    <tag k="addr:country" v="RU"/>
    <tag k="addr:housenumber" v="7"/>
    <tag k="addr:street" v="Большой Козихинский переулок"/>
    <tag k="building" v="yes"/>
    <tag k="cladr:code" v="77000000000703800"/>
  </way>
  <way id="52897523" version="4" timestamp="2011-09-13T18:54:32Z" uid="338289" user="PShA" changeset="9292081">
    <nd ref="670502035"/>
    <nd ref="670502034"/>
    <nd ref="670502033"/>
    <nd ref="670502037"/>
    <nd ref="670502036"/>
    <nd ref="670502041"/>
  </way>
  <way id="52897529" version="4" timestamp="2011-04-20T11:26:52Z" uid="115477" user="wowik" changeset="7915253">
    <nd ref="670502008"/>
    <nd ref="670502007"/>
    <nd ref="670502006"/>
    <nd ref="670502002"/>
    <nd ref="670502008"/>
    <tag k="addr:city" v="Москва"/>
    <tag k="addr:country" v="RU"/>
    <tag k="addr:housenumber" v="17"/>
    <tag k="addr:street" v="Спиридоньевский переулок"/>
    <tag k="building" v="yes"/>
    <tag k="cladr:code" v="77000000000274400"/>
  </way>
  <way id="52897529" version="5" timestamp="2011-12-27T14:36:38Z" uid="260756" user="Felis Pimeja" changeset="10216246">
    <nd ref="670502008"/>
    <nd ref="670502007"/>
    <nd ref="670502006"/>
    <nd ref="670502002"/>
    <nd ref="1563601148"/>
    <nd ref="670502008"/>
    <tag k="addr:city" v="Москва"/>
    <tag k="addr:country" v="RU"/>
    <tag k="addr:housenumber" v="17"/>
    <tag k="addr:street" v="Спиридоньевский переулок"/>
    <tag k="building" v="yes"/>
    <tag k="cladr:code" v="77000000000274400"/>
  </way>
  <way id="52897530" version="4" timestamp="2011-04-20T11:26:05Z" uid="115477" user="wowik" changeset="7915253">
    <nd ref="670502029"/>
    <nd ref="670502052"/>
    <nd ref="670502027"/>
    <nd ref="670502045"/>
    <nd ref="670502051"/>
    <nd ref="670502048"/>
    <nd ref="670502043"/>
    <nd ref="670502030"/>
    <nd ref="670502029"/>
    <tag k="addr:city" v="Москва"/>
    <tag k="addr:country" v="RU"/>
    <tag k="addr:housenumber" v="14 с2"/>
    <tag k="addr:street" v="Большой Козихинский переулок"/>
    <tag k="building" v="yes"/>
    <tag k="cladr:code" v="77000000000703800"/>
  </way>
  <way id="52897530" version="5" timestamp="2011-09-07T19:03:38Z" uid="338289" user="PShA" changeset="9239738">
    <nd ref="670502029"/>
    <nd ref="670502052"/>
    <nd ref="670502027"/>
    <nd ref="670502045"/>
    <nd ref="1426411844"/>
    <nd ref="670502051"/>
    <nd ref="670502048"/>
    <nd ref="1426411792"/>
    <nd ref="1426411823"/>
    <nd ref="1426411806"/>
    <nd ref="670502043"/>
    <nd ref="670502030"/>
    <nd ref="670502029"/>
    <tag k="addr:city" v="Москва"/>
    <tag k="addr:country" v="RU"/>
    <tag k="addr:housenumber" v="14 с2"/>
    <tag k="addr:street" v="Большой Козихинский переулок"/>
    <tag k="building" v="yes"/>
    <tag k="cladr:code" v="77000000000703800"/>
  </way>
  <way id="52897532" version="3" timestamp="2011-04-20T11:25:33Z" uid="115477" user="wowik" changeset="7915253">
    <nd ref="670502022"/>
    <nd ref="670502021"/>
    <nd ref="670502026"/>
    <nd ref="670502023"/>
    <nd ref="670502025"/>
    <nd ref="670502024"/>
    <nd ref="670502022"/>
    <tag k="addr:city" v="Москва"/>
    <tag k="addr:country" v="RU"/>
    <tag k="addr:housenumber" v="13"/>
    <tag k="addr:street" v="Большой Козихинский переулок"/>
    <tag k="building" v="yes"/>
    <tag k="cladr:code" v="77000000000703800"/>
  </way>
  <way id="52897532" version="4" timestamp="2011-07-19T18:05:03Z" uid="397326" user="trolleway" changeset="8770997">
    <nd ref="670502022"/>
    <nd ref="670502021"/>
    <nd ref="670502026"/>
    <nd ref="670502023"/>
    <nd ref="670502025"/>
    <nd ref="670502024"/>
    <nd ref="670502022"/>
    <tag k="addr:city" v="Москва"/>
    <tag k="addr:country" v="RU"/>
    <tag k="addr:housenumber" v="13"/>
    <tag k="addr:street" v="Большой Козихинский переулок"/>
    <tag k="building" v="yes"/>
    <tag k="building:levels" v="4"/>
    <tag k="cladr:code" v="77000000000703800"/>
  </way>
  <way id="52897535" version="5" timestamp="2011-04-20T11:27:01Z" uid="115477" user="wowik" changeset="7915253">
    <nd ref="670502018"/>
    <nd ref="670502019"/>
    <nd ref="670502028"/>
    <nd ref="670502021"/>
    <nd ref="670502022"/>
    <nd ref="670502011"/>
    <nd ref="670502012"/>
    <nd ref="670502013"/>
    <nd ref="670502020"/>
    <nd ref="670502014"/>
    <nd ref="670502015"/>
    <nd ref="670502016"/>
    <nd ref="670502017"/>
    <nd ref="670502018"/>
    <tag k="addr:city" v="Москва"/>
    <tag k="addr:country" v="RU"/>
    <tag k="addr:housenumber" v="15 с2"/>
    <tag k="addr:street" v="Большой Козихинский переулок"/>
    <tag k="building" v="yes"/>
    <tag k="cladr:code" v="77000000000703800"/>
  </way>
  <way id="52897535" version="6" timestamp="2011-07-19T18:05:04Z" uid="397326" user="trolleway" changeset="8770997">
    <nd ref="670502018"/>
    <nd ref="670502019"/>
    <nd ref="670502028"/>
    <nd ref="670502021"/>
    <nd ref="670502022"/>
    <nd ref="670502011"/>
    <nd ref="670502012"/>
    <nd ref="670502013"/>
    <nd ref="670502020"/>
    <nd ref="670502014"/>
    <nd ref="670502015"/>
    <nd ref="670502016"/>
    <nd ref="670502017"/>
    <nd ref="670502018"/>
    <tag k="addr:city" v="Москва"/>
    <tag k="addr:country" v="RU"/>
    <tag k="addr:housenumber" v="15 с2"/>
    <tag k="addr:street" v="Большой Козихинский переулок"/>
    <tag k="building" v="yes"/>
    <tag k="building:levels" v="4"/>
    <tag k="cladr:code" v="77000000000703800"/>
  </way>
  <way id="52897536" version="4" timestamp="2011-04-20T11:26:26Z" uid="115477" user="wowik" changeset="7915253">
    <nd ref="664200255"/>
    <nd ref="670502044"/>
    <nd ref="670502049"/>
    <nd ref="670502055"/>
    <nd ref="670502047"/>
    <nd ref="670502046"/>
    <nd ref="664200254"/>
    <nd ref="664200255"/>
    <tag k="addr:city" v="Москва"/>
    <tag k="addr:country" v="RU"/>
    <tag k="addr:housenumber" v="12/2"/>
    <tag k="addr:housenumber2" v="2/12"/>
    <tag k="addr:street" v="Большой Козихинский переулок"/>
    <tag k="addr:street2" v="Большой Палашёвский переулок"/>
    <tag k="building" v="yes"/>
    <tag k="cladr:code" v="77000000000703800"/>
  </way>
  <way id="52897537" version="3" timestamp="2011-04-20T11:26:39Z" uid="115477" user="wowik" changeset="7915253">
    <nd ref="670502053"/>
    <nd ref="670502056"/>
    <nd ref="670502050"/>
    <nd ref="670502054"/>
    <nd ref="670502053"/>
    <tag k="addr:city" v="Москва"/>
    <tag k="addr:country" v="RU"/>
    <tag k="addr:housenumber" v="1/14"/>
    <tag k="addr:housenumber2" v="14/1"/>
    <tag k="addr:street" v="Большой Палашёвский переулок"/>
    <tag k="addr:street2" v="Большой Козихинский переулок"/>
    <tag k="building" v="yes"/>
    <tag k="cladr:code" v="77000000000706800"/>
  </way>
  <way id="52897537" version="4" timestamp="2011-09-07T19:03:39Z" uid="338289" user="PShA" changeset="9239738">
    <nd ref="670502053"/>
    <nd ref="670502056"/>
    <nd ref="670502048"/>
    <nd ref="670502051"/>
    <nd ref="670502053"/>
    <tag k="addr:city" v="Москва"/>
    <tag k="addr:country" v="RU"/>
    <tag k="addr:housenumber" v="1/14"/>
    <tag k="addr:housenumber2" v="14/1"/>
    <tag k="addr:street" v="Большой Палашёвский переулок"/>
    <tag k="addr:street2" v="Большой Козихинский переулок"/>
    <tag k="building" v="yes"/>
    <tag k="cladr:code" v="77000000000706800"/>
  </way>
  <way id="52897538" version="3" timestamp="2011-04-20T11:25:53Z" uid="115477" user="wowik" changeset="7915253">
    <nd ref="670502004"/>
    <nd ref="670502040"/>
    <nd ref="670502036"/>
    <nd ref="670502037"/>
    <nd ref="670502038"/>
    <nd ref="670502039"/>
    <nd ref="670502010"/>
    <nd ref="670502009"/>
    <nd ref="670502004"/>
    <tag k="addr:city" v="Москва"/>
    <tag k="addr:country" v="RU"/>
    <tag k="addr:housenumber" v="12/9"/>
    <tag k="addr:housenumber2" v="9/12"/>
    <tag k="addr:street" v="Спиридоньевский переулок"/>
    <tag k="addr:street2" v="Большой Козихинский переулок"/>
    <tag k="building" v="yes"/>
    <tag k="cladr:code" v="77000000000274400"/>
  </way>
  <way id="52897538" version="4" timestamp="2012-03-19T22:01:56Z" uid="260756" user="Felis Pimeja" changeset="11035572">
    <nd ref="670502004"/>
    <nd ref="1682353528"/>
    <nd ref="670502040"/>
    <nd ref="670502036"/>
    <nd ref="670502037"/>
    <nd ref="670502038"/>
    <nd ref="670502039"/>
    <nd ref="670502010"/>
    <nd ref="670502009"/>
    <nd ref="670502004"/>
    <tag k="addr:city" v="Москва"/>
    <tag k="addr:country" v="RU"/>
    <tag k="addr:housenumber" v="12/9"/>
    <tag k="addr:housenumber2" v="9/12"/>
    <tag k="addr:street" v="Спиридоньевский переулок"/>
    <tag k="addr:street2" v="Большой Козихинский переулок"/>
    <tag k="building" v="yes"/>
    <tag k="cladr:code" v="77000000000274400"/>
  </way>
  <way id="52897539" version="3" timestamp="2011-04-20T11:26:08Z" uid="115477" user="wowik" changeset="7915253">
    <nd ref="670502062"/>
    <nd ref="670502072"/>
    <nd ref="670502073"/>
    <nd ref="670502069"/>
    <nd ref="670502070"/>
    <nd ref="670502071"/>
    <nd ref="670502066"/>
    <nd ref="670502065"/>
    <nd ref="670502064"/>
    <nd ref="670502063"/>
    <nd ref="670502067"/>
    <nd ref="670502058"/>
    <nd ref="670502057"/>
    <nd ref="670502068"/>
    <nd ref="670502062"/>
    <tag k="addr:city" v="Москва"/>
    <tag k="addr:country" v="RU"/>
    <tag k="addr:housenumber" v="10"/>
    <tag k="addr:street" v="Богословский переулок"/>
    <tag k="amenity" v="kindergarten"/>
    <tag k="building" v="yes"/>
    <tag k="cladr:code" v="77000000000086900"/>
  </way>
  <way id="52897539" version="4" timestamp="2011-09-14T14:43:17Z" uid="338289" user="PShA" changeset="9300094">
    <nd ref="670502062"/>
    <nd ref="670502072"/>
    <nd ref="670502073"/>
    <nd ref="670502069"/>
    <nd ref="670502070"/>
    <nd ref="670502071"/>
    <nd ref="670502066"/>
    <nd ref="670502065"/>
    <nd ref="670502064"/>
    <nd ref="670502063"/>
    <nd ref="670502067"/>
    <nd ref="670502058"/>
    <nd ref="670502057"/>
    <nd ref="670502068"/>
    <nd ref="670502062"/>
    <tag k="addr:city" v="Москва"/>
    <tag k="addr:country" v="RU"/>
    <tag k="addr:housenumber" v="10"/>
    <tag k="addr:street" v="Богословский переулок"/>
    <tag k="building" v="yes"/>
    <tag k="cladr:code" v="77000000000086900"/>
  </way>
  <way id="52897539" version="5" timestamp="2011-09-15T17:46:53Z" uid="424404" user="Dmitry Vilegzhanin" changeset="9309744">
    <nd ref="670502062"/>
    <nd ref="670502072"/>
    <nd ref="670502073"/>
    <nd ref="670502069"/>
    <nd ref="670502070"/>
    <nd ref="670502071"/>
    <nd ref="670502066"/>
    <nd ref="670502065"/>
    <nd ref="670502064"/>
    <nd ref="670502063"/>
    <nd ref="670502067"/>
    <nd ref="670502058"/>
    <nd ref="670502057"/>
    <nd ref="670502068"/>
    <nd ref="670502062"/>
    <tag k="addr:city" v="Москва"/>
    <tag k="addr:country" v="RU"/>
    <tag k="addr:housenumber" v="10"/>
    <tag k="addr:street" v="Богословский переулок"/>
    <tag k="amenity" v="kindergarten"/>
    <tag k="building" v="kindergarten"/>
    <tag k="cladr:code" v="77000000000086900"/>
    <tag k="name" v="ДОУ №3"/>
  </way>
  <way id="52897539" version="6" timestamp="2011-09-15T18:18:19Z" uid="338289" user="PShA" changeset="9310189">
    <nd ref="670502062"/>
    <nd ref="1433696670"/>
    <nd ref="1433696650"/>
    <nd ref="670502072"/>
    <nd ref="670502073"/>
    <nd ref="670502069"/>
    <nd ref="670502070"/>
    <nd ref="670502071"/>
    <nd ref="670502066"/>
    <nd ref="670502065"/>
    <nd ref="670502064"/>
    <nd ref="670502063"/>
    <nd ref="670502067"/>
    <nd ref="670502058"/>
    <nd ref="670502057"/>
    <nd ref="670502068"/>
    <nd ref="670502062"/>
    <tag k="addr:city" v="Москва"/>
    <tag k="addr:country" v="RU"/>
    <tag k="addr:housenumber" v="10"/>
    <tag k="addr:street" v="Богословский переулок"/>
    <tag k="amenity" v="kindergarten"/>
    <tag k="building" v="kindergarten"/>
    <tag k="cladr:code" v="77000000000086900"/>
    <tag k="name" v="ДОУ №3"/>
  </way>
  <way id="52897541" version="2" timestamp="2011-04-20T11:28:15Z" uid="115477" user="wowik" changeset="7915253">
    <nd ref="670502344"/>
    <nd ref="670502337"/>
    <nd ref="670502340"/>
    <nd ref="670502341"/>
    <nd ref="670502176"/>
    <nd ref="670502339"/>
    <nd ref="670502172"/>
    <nd ref="670502174"/>
    <nd ref="670502344"/>
    <tag k="addr:city" v="Москва"/>
    <tag k="addr:country" v="RU"/>
    <tag k="building" v="yes"/>
  </way>
  <way id="52897543" version="8" timestamp="2011-04-20T11:26:48Z" uid="115477" user="wowik" changeset="7915253">
    <nd ref="670631683"/>
    <nd ref="956231568"/>
    <nd ref="956231571"/>
    <nd ref="670502314"/>
    <nd ref="670502312"/>
    <nd ref="670502308"/>
    <nd ref="670502310"/>
    <nd ref="670502302"/>
    <nd ref="670502300"/>
    <nd ref="670502306"/>
    <nd ref="670502304"/>
    <nd ref="670502296"/>
    <nd ref="670502286"/>
    <nd ref="670502294"/>
    <nd ref="670502298"/>
    <nd ref="670502140"/>
    <nd ref="670502290"/>
    <nd ref="670502288"/>
    <nd ref="670502292"/>
    <nd ref="956231574"/>
    <nd ref="670502284"/>
    <nd ref="670502280"/>
    <nd ref="670502282"/>
    <nd ref="670502126"/>
    <nd ref="670502125"/>
    <nd ref="670502273"/>
    <nd ref="670502275"/>
    <nd ref="670502277"/>
    <nd ref="670631684"/>
    <nd ref="670631683"/>
    <tag k="addr:city" v="Москва"/>
    <tag k="addr:country" v="RU"/>
    <tag k="addr:housenumber" v="11/13 с2"/>
    <tag k="addr:housenumber2" v="13/11 с2"/>
    <tag k="addr:street" v="Малый Козихинский переулок"/>
    <tag k="addr:street2" v="Трёхпрудный переулок"/>
    <tag k="building" v="yes"/>
    <tag k="cladr:code" v="77000000000149600"/>
  </way>
  <way id="52897545" version="2" timestamp="2011-04-20T11:28:23Z" uid="115477" user="wowik" changeset="7915253">
    <nd ref="670502230"/>
    <nd ref="670502232"/>
    <nd ref="670502224"/>
    <nd ref="670502226"/>
    <nd ref="670502220"/>
    <nd ref="670502222"/>
    <nd ref="670502228"/>
    <nd ref="670502230"/>
    <tag k="addr:city" v="Москва"/>
    <tag k="addr:country" v="RU"/>
    <tag k="building" v="yes"/>
  </way>
  <way id="52897547" version="3" timestamp="2011-04-20T11:25:46Z" uid="115477" user="wowik" changeset="7915253">
    <nd ref="670502263"/>
    <nd ref="670502258"/>
    <nd ref="670502257"/>
    <nd ref="670502261"/>
    <nd ref="670502263"/>
    <tag k="addr:city" v="Москва"/>
    <tag k="addr:country" v="RU"/>
    <tag k="addr:street" v="Трёхпрудный переулок"/>
    <tag k="building" v="yes"/>
    <tag k="cladr:code" v="77000000000292400"/>
  </way>
  <way id="52897547" version="4" timestamp="2011-07-19T18:12:59Z" uid="397326" user="trolleway" changeset="8770997">
    <nd ref="670502263"/>
    <nd ref="670502258"/>
    <nd ref="670502257"/>
    <nd ref="670502261"/>
    <nd ref="670502263"/>
    <tag k="addr:city" v="Москва"/>
    <tag k="addr:country" v="RU"/>
    <tag k="addr:street" v="Трёхпрудный переулок"/>
    <tag k="building" v="yes"/>
    <tag k="building:levels" v="1"/>
    <tag k="cladr:code" v="77000000000292400"/>
  </way>
  <way id="52897548" version="3" timestamp="2011-04-20T11:26:40Z" uid="115477" user="wowik" changeset="7915253">
    <nd ref="670502251"/>
    <nd ref="670502249"/>
    <nd ref="670502247"/>
    <nd ref="670502245"/>
    <nd ref="670502260"/>
    <nd ref="670502264"/>
    <nd ref="670502265"/>
    <nd ref="670502262"/>
    <nd ref="670502263"/>
    <nd ref="670502261"/>
    <nd ref="670502251"/>
    <tag k="addr:city" v="Москва"/>
    <tag k="addr:country" v="RU"/>
    <tag k="addr:housenumber" v="5"/>
    <tag k="addr:street" v="Трёхпрудный переулок"/>
    <tag k="building" v="yes"/>
    <tag k="cladr:code" v="77000000000292400"/>
  </way>
  <way id="52897548" version="4" timestamp="2011-07-19T18:05:10Z" uid="397326" user="trolleway" changeset="8770997">
    <nd ref="670502251"/>
    <nd ref="670502249"/>
    <nd ref="670502247"/>
    <nd ref="670502245"/>
    <nd ref="670502260"/>
    <nd ref="670502264"/>
    <nd ref="670502265"/>
    <nd ref="670502262"/>
    <nd ref="670502263"/>
    <nd ref="670502261"/>
    <nd ref="670502251"/>
    <tag k="addr:city" v="Москва"/>
    <tag k="addr:country" v="RU"/>
    <tag k="addr:housenumber" v="5"/>
    <tag k="addr:street" v="Трёхпрудный переулок"/>
    <tag k="building" v="yes"/>
    <tag k="building:levels" v="6"/>
    <tag k="cladr:code" v="77000000000292400"/>
  </way>
  <way id="52897550" version="2" timestamp="2011-04-20T11:28:21Z" uid="115477" user="wowik" changeset="7915253">
    <nd ref="670502138"/>
    <nd ref="670502137"/>
    <nd ref="670502136"/>
    <nd ref="670502236"/>
    <nd ref="670502203"/>
    <nd ref="670502133"/>
    <nd ref="670502128"/>
    <nd ref="670502127"/>
    <nd ref="670502138"/>
    <tag k="addr:city" v="Москва"/>
    <tag k="addr:country" v="RU"/>
    <tag k="building" v="yes"/>
  </way>
  <way id="52897550" version="3" timestamp="2011-07-19T18:05:13Z" uid="397326" user="trolleway" changeset="8770997">
    <nd ref="670502138"/>
    <nd ref="670502137"/>
    <nd ref="670502136"/>
    <nd ref="670502236"/>
    <nd ref="670502203"/>
    <nd ref="670502133"/>
    <nd ref="670502128"/>
    <nd ref="670502127"/>
    <nd ref="670502138"/>
    <tag k="addr:city" v="Москва"/>
    <tag k="addr:country" v="RU"/>
    <tag k="building" v="yes"/>
    <tag k="building:levels" v="6"/>
  </way>
  <way id="52897552" version="4" timestamp="2011-04-20T11:25:26Z" uid="115477" user="wowik" changeset="7915253">
    <nd ref="670502133"/>
    <nd ref="670502132"/>
    <nd ref="670502139"/>
    <nd ref="670502243"/>
    <nd ref="670502241"/>
    <nd ref="670502228"/>
    <nd ref="670502222"/>
    <nd ref="670502220"/>
    <nd ref="670502226"/>
    <nd ref="670502238"/>
    <nd ref="670502203"/>
    <nd ref="670502236"/>
    <nd ref="670502136"/>
    <nd ref="670502137"/>
    <nd ref="670502138"/>
    <nd ref="670502127"/>
    <nd ref="670502128"/>
    <nd ref="670502133"/>
    <tag k="addr:city" v="Москва"/>
    <tag k="addr:country" v="RU"/>
    <tag k="addr:housenumber" v="9 с2"/>
    <tag k="addr:street" v="Трёхпрудный переулок"/>
    <tag k="building" v="yes"/>
    <tag k="cladr:code" v="77000000000292400"/>
  </way>
  <way id="52897552" version="5" timestamp="2011-07-19T18:05:12Z" uid="397326" user="trolleway" changeset="8770997">
    <nd ref="670502133"/>
    <nd ref="670502132"/>
    <nd ref="670502139"/>
    <nd ref="670502243"/>
    <nd ref="670502241"/>
    <nd ref="670502228"/>
    <nd ref="670502222"/>
    <nd ref="670502220"/>
    <nd ref="670502226"/>
    <nd ref="670502238"/>
    <nd ref="670502203"/>
    <nd ref="670502236"/>
    <nd ref="670502136"/>
    <nd ref="670502137"/>
    <nd ref="670502138"/>
    <nd ref="670502127"/>
    <nd ref="670502128"/>
    <nd ref="670502133"/>
    <tag k="addr:city" v="Москва"/>
    <tag k="addr:country" v="RU"/>
    <tag k="addr:housenumber" v="9 с2"/>
    <tag k="addr:street" v="Трёхпрудный переулок"/>
    <tag k="building" v="yes"/>
    <tag k="building:levels" v="4"/>
    <tag k="cladr:code" v="77000000000292400"/>
  </way>
  <way id="52897556" version="4" timestamp="2011-04-20T11:26:07Z" uid="115477" user="wowik" changeset="7915253">
    <nd ref="670502100"/>
    <nd ref="670502101"/>
    <nd ref="670502111"/>
    <nd ref="670502099"/>
    <nd ref="670502147"/>
    <nd ref="670502143"/>
    <nd ref="670502141"/>
    <nd ref="670502142"/>
    <nd ref="360419326"/>
    <nd ref="360419303"/>
    <nd ref="670502103"/>
    <nd ref="670502102"/>
    <nd ref="670502100"/>
    <tag k="addr:city" v="Москва"/>
    <tag k="addr:country" v="RU"/>
    <tag k="addr:housenumber" v="10 с2"/>
    <tag k="addr:street" v="Малый Козихинский переулок"/>
    <tag k="building" v="yes"/>
    <tag k="cladr:code" v="77000000000149600"/>
  </way>
  <way id="52897569" version="4" timestamp="2011-04-20T11:26:49Z" uid="115477" user="wowik" changeset="7915253">
    <nd ref="670502094"/>
    <nd ref="670502095"/>
    <nd ref="670502104"/>
    <nd ref="670502091"/>
    <nd ref="670502094"/>
    <tag k="addr:city" v="Москва"/>
    <tag k="addr:country" v="RU"/>
    <tag k="addr:housenumber" v="16 с2"/>
    <tag k="addr:street" v="Большой Козихинский переулок"/>
    <tag k="building" v="yes"/>
    <tag k="cladr:code" v="77000000000703800"/>
  </way>
  <way id="52897570" version="3" timestamp="2011-04-20T11:26:02Z" uid="115477" user="wowik" changeset="7915253">
    <nd ref="670502129"/>
    <nd ref="670502185"/>
    <nd ref="670502135"/>
    <nd ref="670502131"/>
    <nd ref="670502130"/>
    <nd ref="670502181"/>
    <nd ref="670502180"/>
    <nd ref="670502183"/>
    <nd ref="670502182"/>
    <nd ref="670502184"/>
    <nd ref="670502197"/>
    <nd ref="670502201"/>
    <nd ref="670502199"/>
    <nd ref="670502194"/>
    <nd ref="670502210"/>
    <nd ref="670502206"/>
    <nd ref="670502208"/>
    <nd ref="670502118"/>
    <nd ref="670502119"/>
    <nd ref="670502134"/>
    <nd ref="670502129"/>
    <tag k="addr:city" v="Москва"/>
    <tag k="addr:country" v="RU"/>
    <tag k="addr:housenumber" v="11"/>
    <tag k="addr:street" v="Малый Козихинский переулок"/>
    <tag k="building" v="yes"/>
    <tag k="cladr:code" v="77000000000149600"/>
  </way>
  <way id="52897570" version="4" timestamp="2011-07-19T18:05:02Z" uid="397326" user="trolleway" changeset="8770997">
    <nd ref="670502129"/>
    <nd ref="670502185"/>
    <nd ref="670502135"/>
    <nd ref="670502131"/>
    <nd ref="670502130"/>
    <nd ref="670502181"/>
    <nd ref="670502180"/>
    <nd ref="670502183"/>
    <nd ref="670502182"/>
    <nd ref="670502184"/>
    <nd ref="670502197"/>
    <nd ref="670502201"/>
    <nd ref="670502199"/>
    <nd ref="670502194"/>
    <nd ref="670502210"/>
    <nd ref="670502206"/>
    <nd ref="670502208"/>
    <nd ref="670502118"/>
    <nd ref="670502119"/>
    <nd ref="670502134"/>
    <nd ref="670502129"/>
    <tag k="addr:city" v="Москва"/>
    <tag k="addr:country" v="RU"/>
    <tag k="addr:housenumber" v="11"/>
    <tag k="addr:street" v="Малый Козихинский переулок"/>
    <tag k="building" v="yes"/>
    <tag k="cladr:code" v="77000000000149600"/>
  </way>
  <way id="52897570" version="5" timestamp="2011-09-07T19:03:35Z" uid="338289" user="PShA" changeset="9239738">
    <nd ref="670502129"/>
    <nd ref="670502185"/>
    <nd ref="670502135"/>
    <nd ref="670502131"/>
    <nd ref="670502130"/>
    <nd ref="670502181"/>
    <nd ref="670502180"/>
    <nd ref="670502183"/>
    <nd ref="670502182"/>
    <nd ref="670502184"/>
    <nd ref="670502197"/>
    <nd ref="670502201"/>
    <nd ref="670502199"/>
    <nd ref="670502194"/>
    <nd ref="670502210"/>
    <nd ref="670502206"/>
    <nd ref="670502208"/>
    <nd ref="670502118"/>
    <nd ref="670502119"/>
    <nd ref="670502134"/>
    <nd ref="670502129"/>
    <tag k="addr:city" v="Москва"/>
    <tag k="addr:country" v="RU"/>
    <tag k="addr:housenumber" v="11"/>
    <tag k="addr:street" v="Малый Козихинский переулок"/>
    <tag k="building" v="no"/>
    <tag k="cladr:code" v="77000000000149600"/>
    <tag k="note" v="Снесен"/>
  </way>
  <way id="52897575" version="6" timestamp="2011-04-20T11:26:58Z" uid="115477" user="wowik" changeset="7915253">
    <nd ref="670502124"/>
    <nd ref="956231579"/>
    <nd ref="670502123"/>
    <nd ref="670502086"/>
    <nd ref="670502087"/>
    <nd ref="956231554"/>
    <nd ref="670502124"/>
    <tag k="addr:city" v="Москва"/>
    <tag k="addr:country" v="RU"/>
    <tag k="addr:housenumber" v="22 с2"/>
    <tag k="addr:street" v="Большой Козихинский переулок"/>
    <tag k="building" v="yes"/>
    <tag k="cladr:code" v="77000000000703800"/>
  </way>
  <way id="52897577" version="4" timestamp="2011-04-20T11:26:29Z" uid="115477" user="wowik" changeset="7915253">
    <nd ref="670502081"/>
    <nd ref="670502080"/>
    <nd ref="670502083"/>
    <nd ref="670502109"/>
    <nd ref="670502110"/>
    <nd ref="670502106"/>
    <nd ref="670502093"/>
    <nd ref="670502105"/>
    <nd ref="670502079"/>
    <nd ref="670502078"/>
    <nd ref="670502081"/>
    <tag k="addr:city" v="Москва"/>
    <tag k="addr:country" v="RU"/>
    <tag k="addr:housenumber" v="8/18"/>
    <tag k="addr:housenumber2" v="18/8"/>
    <tag k="addr:street" v="Малый Козихинский переулок"/>
    <tag k="addr:street2" v="Большой Козихинский переулок"/>
    <tag k="building" v="yes"/>
    <tag k="cladr:code" v="77000000000149600"/>
  </way>
  <way id="52897577" version="5" timestamp="2011-07-19T18:05:11Z" uid="397326" user="trolleway" changeset="8770997">
    <nd ref="670502081"/>
    <nd ref="670502080"/>
    <nd ref="670502083"/>
    <nd ref="670502109"/>
    <nd ref="670502110"/>
    <nd ref="670502106"/>
    <nd ref="670502093"/>
    <nd ref="670502105"/>
    <nd ref="670502079"/>
    <nd ref="670502078"/>
    <nd ref="670502081"/>
    <tag k="addr:city" v="Москва"/>
    <tag k="addr:country" v="RU"/>
    <tag k="addr:housenumber" v="8/18"/>
    <tag k="addr:housenumber2" v="18/8"/>
    <tag k="addr:street" v="Малый Козихинский переулок"/>
    <tag k="addr:street2" v="Большой Козихинский переулок"/>
    <tag k="building" v="yes"/>
    <tag k="building:levels" v="4"/>
    <tag k="cladr:code" v="77000000000149600"/>
  </way>
  <way id="52897579" version="3" timestamp="2011-04-20T11:25:55Z" uid="115477" user="wowik" changeset="7915253">
    <nd ref="670502267"/>
    <nd ref="670502253"/>
    <nd ref="670502255"/>
    <nd ref="670502216"/>
    <nd ref="670502214"/>
    <nd ref="670502218"/>
    <nd ref="670502234"/>
    <nd ref="670502259"/>
    <nd ref="670502267"/>
    <tag k="addr:city" v="Москва"/>
    <tag k="addr:country" v="RU"/>
    <tag k="addr:housenumber" v="13"/>
    <tag k="addr:street" v="Малый Козихинский переулок"/>
    <tag k="building" v="yes"/>
    <tag k="cladr:code" v="77000000000149600"/>
  </way>
  <way id="52897579" version="4" timestamp="2011-07-19T18:05:04Z" uid="397326" user="trolleway" changeset="8770997">
    <nd ref="670502267"/>
    <nd ref="670502253"/>
    <nd ref="670502255"/>
    <nd ref="670502216"/>
    <nd ref="670502214"/>
    <nd ref="670502218"/>
    <nd ref="670502234"/>
    <nd ref="670502259"/>
    <nd ref="670502267"/>
    <tag k="addr:city" v="Москва"/>
    <tag k="addr:country" v="RU"/>
    <tag k="addr:housenumber" v="13"/>
    <tag k="addr:street" v="Малый Козихинский переулок"/>
    <tag k="building" v="yes"/>
    <tag k="building:levels" v="4"/>
    <tag k="cladr:code" v="77000000000149600"/>
  </way>
  <way id="52897582" version="3" timestamp="2011-04-20T11:26:22Z" uid="115477" user="wowik" changeset="7915253">
    <nd ref="670502166"/>
    <nd ref="670502212"/>
    <nd ref="670502178"/>
    <nd ref="670502156"/>
    <nd ref="670502158"/>
    <nd ref="670502168"/>
    <nd ref="670502170"/>
    <nd ref="670502166"/>
    <tag k="addr:city" v="Москва"/>
    <tag k="addr:country" v="RU"/>
    <tag k="addr:housenumber" v="14"/>
    <tag k="addr:street" v="Малый Козихинский переулок"/>
    <tag k="building" v="yes"/>
    <tag k="cladr:code" v="77000000000149600"/>
  </way>
  <way id="52897582" version="4" timestamp="2011-07-19T18:12:53Z" uid="397326" user="trolleway" changeset="8770997">
    <nd ref="670502166"/>
    <nd ref="670502212"/>
    <nd ref="670502178"/>
    <nd ref="670502156"/>
    <nd ref="670502158"/>
    <nd ref="670502168"/>
    <nd ref="670502170"/>
    <nd ref="670502166"/>
    <tag k="addr:city" v="Москва"/>
    <tag k="addr:country" v="RU"/>
    <tag k="addr:housenumber" v="14"/>
    <tag k="addr:street" v="Малый Козихинский переулок"/>
    <tag k="building" v="yes"/>
    <tag k="building:levels" v="7"/>
    <tag k="cladr:code" v="77000000000149600"/>
  </way>
  <way id="52897582" version="5" timestamp="2011-09-07T19:03:40Z" uid="338289" user="PShA" changeset="9239738">
    <nd ref="670502160"/>
    <nd ref="1426411800"/>
    <nd ref="360419127"/>
    <nd ref="360419120"/>
    <nd ref="1426411822"/>
    <nd ref="1426411851"/>
    <nd ref="670502178"/>
    <nd ref="670502156"/>
    <nd ref="670502158"/>
    <nd ref="670502168"/>
    <nd ref="670502162"/>
    <nd ref="670502160"/>
    <tag k="addr:city" v="Москва"/>
    <tag k="addr:country" v="RU"/>
    <tag k="addr:housenumber" v="14"/>
    <tag k="addr:street" v="Малый Козихинский переулок"/>
    <tag k="building" v="yes"/>
    <tag k="building:levels" v="7"/>
    <tag k="cladr:code" v="77000000000149600"/>
  </way>
  <way id="52897585" version="3" timestamp="2011-04-20T11:25:53Z" uid="115477" user="wowik" changeset="7915253">
    <nd ref="670502149"/>
    <nd ref="670502144"/>
    <nd ref="670502112"/>
    <nd ref="670502113"/>
    <nd ref="670502115"/>
    <nd ref="670502114"/>
    <nd ref="670502117"/>
    <nd ref="670502116"/>
    <nd ref="670502108"/>
    <nd ref="670502107"/>
    <nd ref="670502110"/>
    <nd ref="670502109"/>
    <nd ref="670502120"/>
    <nd ref="670502149"/>
    <tag k="addr:city" v="Москва"/>
    <tag k="addr:country" v="RU"/>
    <tag k="addr:housenumber" v="10"/>
    <tag k="addr:street" v="Малый Козихинский переулок"/>
    <tag k="building" v="yes"/>
    <tag k="cladr:code" v="77000000000149600"/>
  </way>
  <way id="52897585" version="4" timestamp="2011-07-19T18:05:02Z" uid="397326" user="trolleway" changeset="8770997">
    <nd ref="670502149"/>
    <nd ref="670502144"/>
    <nd ref="670502112"/>
    <nd ref="670502113"/>
    <nd ref="670502115"/>
    <nd ref="670502114"/>
    <nd ref="670502117"/>
    <nd ref="670502116"/>
    <nd ref="670502108"/>
    <nd ref="670502107"/>
    <nd ref="670502110"/>
    <nd ref="670502109"/>
    <nd ref="670502120"/>
    <nd ref="670502149"/>
    <tag k="addr:city" v="Москва"/>
    <tag k="addr:country" v="RU"/>
    <tag k="addr:housenumber" v="10"/>
    <tag k="addr:street" v="Малый Козихинский переулок"/>
    <tag k="building" v="yes"/>
    <tag k="building:levels" v="4"/>
    <tag k="cladr:code" v="77000000000149600"/>
  </way>
  <way id="52897585" version="5" timestamp="2011-09-07T19:03:41Z" uid="338289" user="PShA" changeset="9239738">
    <nd ref="670502149"/>
    <nd ref="670502144"/>
    <nd ref="1426411819"/>
    <nd ref="670502112"/>
    <nd ref="670502113"/>
    <nd ref="670502115"/>
    <nd ref="670502114"/>
    <nd ref="670502117"/>
    <nd ref="670502116"/>
    <nd ref="670502108"/>
    <nd ref="670502107"/>
    <nd ref="670502110"/>
    <nd ref="670502109"/>
    <nd ref="1426411821"/>
    <nd ref="670502120"/>
    <nd ref="670502149"/>
    <tag k="addr:city" v="Москва"/>
    <tag k="addr:country" v="RU"/>
    <tag k="addr:housenumber" v="10"/>
    <tag k="addr:street" v="Малый Козихинский переулок"/>
    <tag k="building" v="yes"/>
    <tag k="building:levels" v="4"/>
    <tag k="cladr:code" v="77000000000149600"/>
  </way>
  <way id="52897589" version="3" timestamp="2011-04-20T11:26:36Z" uid="115477" user="wowik" changeset="7915253">
    <nd ref="670502160"/>
    <nd ref="670502162"/>
    <nd ref="670502164"/>
    <nd ref="670502154"/>
    <nd ref="670502152"/>
    <nd ref="670502151"/>
    <nd ref="670502146"/>
    <nd ref="670502145"/>
    <nd ref="670502148"/>
    <nd ref="670502144"/>
    <nd ref="670502149"/>
    <nd ref="670502160"/>
    <tag k="addr:city" v="Москва"/>
    <tag k="addr:country" v="RU"/>
    <tag k="addr:housenumber" v="12"/>
    <tag k="addr:street" v="Малый Козихинский переулок"/>
    <tag k="building" v="yes"/>
    <tag k="cladr:code" v="77000000000149600"/>
  </way>
  <way id="52897589" version="4" timestamp="2011-07-19T18:05:03Z" uid="397326" user="trolleway" changeset="8770997">
    <nd ref="670502160"/>
    <nd ref="670502162"/>
    <nd ref="670502164"/>
    <nd ref="670502154"/>
    <nd ref="670502152"/>
    <nd ref="670502151"/>
    <nd ref="670502146"/>
    <nd ref="670502145"/>
    <nd ref="670502148"/>
    <nd ref="670502144"/>
    <nd ref="670502149"/>
    <nd ref="670502160"/>
    <tag k="addr:city" v="Москва"/>
    <tag k="addr:country" v="RU"/>
    <tag k="addr:housenumber" v="12"/>
    <tag k="addr:street" v="Малый Козихинский переулок"/>
    <tag k="building" v="yes"/>
    <tag k="building:levels" v="4"/>
    <tag k="cladr:code" v="77000000000149600"/>
  </way>
  <way id="52897592" version="3" timestamp="2011-04-20T11:26:56Z" uid="115477" user="wowik" changeset="7915253">
    <nd ref="670502343"/>
    <nd ref="670502342"/>
    <nd ref="670502316"/>
    <nd ref="670502320"/>
    <nd ref="670502318"/>
    <nd ref="670502336"/>
    <nd ref="670502334"/>
    <nd ref="670502338"/>
    <nd ref="670502337"/>
    <nd ref="670502344"/>
    <nd ref="670502343"/>
    <tag k="addr:city" v="Москва"/>
    <tag k="addr:country" v="RU"/>
    <tag k="addr:housenumber" v="5/1"/>
    <tag k="addr:housenumber2" v="1/5"/>
    <tag k="addr:street" v="Большой Палашёвский переулок"/>
    <tag k="addr:street2" v="Трёхпрудный переулок"/>
    <tag k="building" v="yes"/>
    <tag k="cladr:code" v="77000000000706800"/>
  </way>
  <way id="52897592" version="4" timestamp="2011-07-19T18:12:57Z" uid="397326" user="trolleway" changeset="8770997">
    <nd ref="670502343"/>
    <nd ref="670502342"/>
    <nd ref="670502316"/>
    <nd ref="670502320"/>
    <nd ref="670502318"/>
    <nd ref="670502336"/>
    <nd ref="670502334"/>
    <nd ref="670502338"/>
    <nd ref="670502337"/>
    <nd ref="670502344"/>
    <nd ref="670502343"/>
    <tag k="addr:city" v="Москва"/>
    <tag k="addr:country" v="RU"/>
    <tag k="addr:housenumber" v="5/1"/>
    <tag k="addr:housenumber2" v="1/5"/>
    <tag k="addr:street" v="Большой Палашёвский переулок"/>
    <tag k="addr:street2" v="Трёхпрудный переулок"/>
    <tag k="building" v="yes"/>
    <tag k="building:levels" v="3"/>
    <tag k="cladr:code" v="77000000000706800"/>
  </way>
  <way id="52897597" version="2" timestamp="2011-04-20T11:28:21Z" uid="115477" user="wowik" changeset="7915253">
    <nd ref="670502348"/>
    <nd ref="670502350"/>
    <nd ref="670502345"/>
    <nd ref="670502346"/>
    <nd ref="670502348"/>
    <tag k="addr:city" v="Москва"/>
    <tag k="addr:country" v="RU"/>
    <tag k="building" v="yes"/>
  </way>
  <way id="52897599" version="4" timestamp="2011-04-20T11:25:38Z" uid="115477" user="wowik" changeset="7915253">
    <nd ref="670502357"/>
    <nd ref="670502353"/>
    <nd ref="670502355"/>
    <nd ref="670502359"/>
    <nd ref="670502361"/>
    <nd ref="670502351"/>
    <nd ref="670502357"/>
    <tag k="addr:city" v="Москва"/>
    <tag k="addr:country" v="RU"/>
    <tag k="addr:housenumber" v="12 с2"/>
    <tag k="addr:street" v="Большой Палашёвский переулок"/>
    <tag k="building" v="yes"/>
    <tag k="cladr:code" v="77000000000706800"/>
  </way>
  <way id="52897602" version="5" timestamp="2011-04-20T11:26:14Z" uid="115477" user="wowik" changeset="7915253">
    <nd ref="676037667"/>
    <nd ref="670502381"/>
    <nd ref="670502383"/>
    <nd ref="670502379"/>
    <nd ref="670502377"/>
    <nd ref="676037674"/>
    <nd ref="676037671"/>
    <nd ref="670502373"/>
    <nd ref="676037666"/>
    <nd ref="676037667"/>
    <tag k="addr:city" v="Москва"/>
    <tag k="addr:country" v="RU"/>
    <tag k="addr:housenumber" v="15 с2"/>
    <tag k="addr:street" v="Большой Палашёвский переулок"/>
    <tag k="building" v="yes"/>
    <tag k="cladr:code" v="77000000000706800"/>
  </way>
  <way id="52897604" version="4" timestamp="2011-04-20T11:25:42Z" uid="115477" user="wowik" changeset="7915253">
    <nd ref="670502391"/>
    <nd ref="670502389"/>
    <nd ref="670502387"/>
    <nd ref="670502385"/>
    <nd ref="670502391"/>
    <tag k="addr:city" v="Москва"/>
    <tag k="addr:country" v="RU"/>
    <tag k="addr:housenumber" v="8 с2"/>
    <tag k="addr:street" v="Трёхпрудный переулок"/>
    <tag k="building" v="yes"/>
    <tag k="cladr:code" v="77000000000292400"/>
  </way>
  <way id="52897607" version="4" timestamp="2011-04-20T11:27:09Z" uid="115477" user="wowik" changeset="7915253">
    <nd ref="670502395"/>
    <nd ref="670502393"/>
    <nd ref="670502397"/>
    <nd ref="670502398"/>
    <nd ref="670502395"/>
    <tag k="addr:city" v="Москва"/>
    <tag k="addr:country" v="RU"/>
    <tag k="addr:housenumber" v="6 с7"/>
    <tag k="addr:street" v="Трёхпрудный переулок"/>
    <tag k="building" v="yes"/>
    <tag k="cladr:code" v="77000000000292400"/>
  </way>
  <way id="52897610" version="4" timestamp="2011-04-20T11:25:51Z" uid="115477" user="wowik" changeset="7915253">
    <nd ref="670502403"/>
    <nd ref="670502401"/>
    <nd ref="670502408"/>
    <nd ref="670502405"/>
    <nd ref="670502403"/>
    <tag k="addr:city" v="Москва"/>
    <tag k="addr:country" v="RU"/>
    <tag k="addr:housenumber" v="25 с2"/>
    <tag k="addr:street" v="Тверской бульвар"/>
    <tag k="building" v="yes"/>
    <tag k="cladr:code" v="77000000000288300"/>
  </way>
</osm>
