<?xml version='1.0' encoding='UTF-8'?>
<osm version="0.6" generator="libosmium/2.20.0">
  <way id="52974556" version="2" timestamp="2010-04-03T13:58:56Z" uid="20587" user="balrog-kun" changeset="4312927">
    <nd ref="671129555"/>
    <nd ref="84320677"/>
    <tag k="highway" v="tertiary"/>
    <tag k="name" v="North Main Street"/>
    <tag k="tiger:cfcc" v="A41"/>
    <tag k="tiger:county" v="Washington, UT"/>
    <tag k="tiger:name_base" v="Main"/>
    <tag k="tiger:name_direction_prefix" v="N"/>
    <tag k="tiger:name_type" v="St"/>
    <tag k="tiger:reviewed" v="no"/>
    <tag k="tiger:separated" v="no"/>
    <tag k="tiger:source" v="tiger_import_dch_v0.6_20070830"/>
    <tag k="tiger:tlid" v="166174169:166173990:166168192:166168194:166178537:166178538:166166844:166166901:166166833"/>
    <tag k="tiger:zip_left" v="84770"/>
    <tag k="tiger:zip_right" v="84770"/>
  </way>
  <way id="52974556" version="3" timestamp="2010-11-23T16:19:30Z" uid="63936" user="MojaveNC" changeset="6440555">
    <nd ref="671129555"/>
    <nd ref="84320677"/>
    <tag k="highway" v="residential"/>
    <tag k="name" v="North Main Street"/>
    <tag k="tiger:cfcc" v="A41"/>
    <tag k="tiger:county" v="Washington, UT"/>
    <tag k="tiger:name_base" v="Main"/>
    <tag k="tiger:name_direction_prefix" v="N"/>
    <tag k="tiger:name_type" v="St"/>
    <tag k="tiger:reviewed" v="no"/>
    <tag k="tiger:separated" v="no"/>
    <tag k="tiger:source" v="tiger_import_dch_v0.6_20070830"/>
    <tag k="tiger:tlid" v="166174169:166173990:166168192:166168194:166178537:166178538:166166844:166166901:166166833"/>
    <tag k="tiger:zip_left" v="84770"/>
    <tag k="tiger:zip_right" v="84770"/>
  </way>
  <way id="52974556" version="4" timestamp="2010-12-27T23:55:16Z" uid="341359" user="jackwiplock" changeset="6783694">
    <nd ref="671129555"/>
    <nd ref="84320677"/>
    <tag k="highway" v="residential"/>
    <tag k="name" v="North Main Street"/>
    <tag k="tiger:cfcc" v="A41"/>
    <tag k="tiger:county" v="Washington, UT"/>
    <tag k="tiger:name_base" v="Main"/>
    <tag k="tiger:name_direction_prefix" v="N"/>
    <tag k="tiger:name_type" v="St"/>
    <tag k="tiger:separated" v="no"/>
    <tag k="tiger:source" v="tiger_import_dch_v0.6_20070830"/>
    <tag k="tiger:tlid" v="166174169:166173990:166168192:166168194:166178537:166178538:166166844:166166901:166166833"/>
    <tag k="tiger:zip_left" v="84770"/>
    <tag k="tiger:zip_right" v="84770"/>
  </way>
  <way id="52974557" version="2" timestamp="2010-04-03T13:58:56Z" uid="20587" user="balrog-kun" changeset="4312927">
    <nd ref="671129557"/>
    <nd ref="671129558"/>
    <nd ref="671129559"/>
    <nd ref="671129560"/>
    <nd ref="671129561"/>
    <nd ref="671129562"/>
    <nd ref="671129552"/>
    <nd ref="671129563"/>
    <nd ref="671129565"/>
    <nd ref="671129566"/>
    <nd ref="671129555"/>
    <nd ref="671129567"/>
    <nd ref="671129568"/>
    <nd ref="671129569"/>
    <nd ref="671129570"/>
    <nd ref="671129571"/>
    <nd ref="671129572"/>
    <nd ref="671129573"/>
    <nd ref="671129557"/>
    <tag k="highway" v="tertiary"/>
    <tag k="name" v="North Main Street"/>
    <tag k="oneway" v="yes"/>
    <tag k="source" v="Yahoo"/>
  </way>
  <way id="52974557" version="3" timestamp="2010-11-23T16:19:33Z" uid="63936" user="MojaveNC" changeset="6440555">
    <nd ref="671129557"/>
    <nd ref="671129558"/>
    <nd ref="671129559"/>
    <nd ref="671129560"/>
    <nd ref="671129561"/>
    <nd ref="671129562"/>
    <nd ref="671129552"/>
    <nd ref="671129563"/>
    <nd ref="671129565"/>
    <nd ref="671129566"/>
    <nd ref="671129555"/>
    <nd ref="671129567"/>
    <nd ref="671129568"/>
    <nd ref="671129569"/>
    <nd ref="671129570"/>
    <nd ref="671129571"/>
    <nd ref="671129572"/>
    <nd ref="671129573"/>
    <nd ref="671129557"/>
    <tag k="highway" v="residential"/>
    <tag k="name" v="North Main Street"/>
    <tag k="oneway" v="yes"/>
    <tag k="source" v="Yahoo"/>
  </way>
  <way id="52974558" version="2" timestamp="2010-04-07T14:37:05Z" uid="20587" user="balrog-kun" changeset="4353646">
    <nd ref="671129583"/>
    <nd ref="224468895"/>
    <tag k="highway" v="trunk"/>
    <tag k="name" v="Grand Parkway"/>
    <tag k="name_1" v="State Highway 99"/>
    <tag k="oneway" v="yes"/>
    <tag k="ref" v="TX 99"/>
    <tag k="tiger:cfcc" v="A35"/>
    <tag k="tiger:county" v="Fort Bend, TX"/>
    <tag k="tiger:name_base" v="Grand"/>
    <tag k="tiger:name_base_1" v="State Highway 99"/>
    <tag k="tiger:name_type" v="Pky"/>
    <tag k="tiger:reviewed" v="no"/>
    <tag k="tiger:separated" v="yes"/>
    <tag k="tiger:source" v="tiger_import_dch_v0.6_20070829"/>
    <tag k="tiger:tlid" v="227753193:227753188:227756554:78347285:227756538:227756551:227756537:227762767:227762825:227762868:227762869:227753136:227757104:227752807:227756561:227763911:227752800:227763949:227763952:227763953:227753207:227759721:227759729"/>
  </way>
  <way id="52974558" version="3" timestamp="2011-01-22T06:33:08Z" uid="37392" user="25or6to4" changeset="7047177"/>
  <way id="52974559" version="3" timestamp="2010-04-07T14:37:06Z" uid="20587" user="balrog-kun" changeset="4353646">
    <nd ref="224470322"/>
    <nd ref="224282622"/>
    <nd ref="224470318"/>
    <nd ref="224470314"/>
    <nd ref="224470310"/>
    <nd ref="224470306"/>
    <nd ref="224470303"/>
    <nd ref="224470300"/>
    <nd ref="224470297"/>
    <nd ref="224420270"/>
    <nd ref="224470292"/>
    <nd ref="224295207"/>
    <nd ref="224470288"/>
    <nd ref="224470284"/>
    <nd ref="224470280"/>
    <nd ref="671129583"/>
    <tag k="highway" v="trunk_link"/>
    <tag k="name" v="Grand Parkway"/>
    <tag k="name_1" v="State Highway 99"/>
    <tag k="oneway" v="yes"/>
    <tag k="ref" v="TX 99"/>
    <tag k="tiger:cfcc" v="A35"/>
    <tag k="tiger:county" v="Fort Bend, TX"/>
    <tag k="tiger:name_base" v="Grand"/>
    <tag k="tiger:name_base_1" v="State Highway 99"/>
    <tag k="tiger:name_type" v="Pky"/>
    <tag k="tiger:reviewed" v="no"/>
    <tag k="tiger:separated" v="yes"/>
    <tag k="tiger:source" v="tiger_import_dch_v0.6_20070829"/>
    <tag k="tiger:tlid" v="227753193:227753188:227756554:78347285:227756538:227756551:227756537:227762767:227762825:227762868:227762869:227753136:227757104:227752807:227756561:227763911:227752800:227763949:227763952:227763953:227753207:227759721:227759729"/>
  </way>
  <way id="52974559" version="4" timestamp="2011-01-22T06:33:01Z" uid="37392" user="25or6to4" changeset="7047177">
    <nd ref="224470326"/>
    <nd ref="224470322"/>
    <nd ref="224282622"/>
    <nd ref="224470318"/>
    <nd ref="224470314"/>
    <nd ref="224470310"/>
    <nd ref="224470306"/>
    <nd ref="224470303"/>
    <nd ref="224470300"/>
    <nd ref="224470297"/>
    <nd ref="224420270"/>
    <nd ref="224470292"/>
    <nd ref="224295207"/>
    <nd ref="224470288"/>
    <nd ref="224470284"/>
    <nd ref="224470280"/>
    <nd ref="671129583"/>
    <nd ref="224468895"/>
    <tag k="highway" v="trunk"/>
    <tag k="name" v="Grand Parkway"/>
    <tag k="oneway" v="yes"/>
    <tag k="ref" v="TX 99"/>
    <tag k="tiger:cfcc" v="A35"/>
    <tag k="tiger:county" v="Fort Bend, TX"/>
    <tag k="tiger:name_base" v="Grand"/>
    <tag k="tiger:name_base_1" v="State Highway 99"/>
    <tag k="tiger:name_type" v="Pky"/>
    <tag k="tiger:separated" v="yes"/>
    <tag k="tiger:source" v="tiger_import_dch_v0.6_20070829"/>
    <tag k="tiger:tlid" v="227752800:227752807:227753136:227753188:227753193:227753207:227756537:227756538:227756551:227756554:227756561:227757104:227759721:227759729:227762767:227762825:227762868:227762869:227763911:227763949:227763952:227763953:78347285"/>
  </way>
  <way id="52974559" version="5" timestamp="2011-06-22T22:07:58Z" uid="473471" user="NE3" changeset="8518867">
    <nd ref="224470326"/>
    <nd ref="224470322"/>
    <nd ref="224282622"/>
    <nd ref="224470318"/>
    <nd ref="224470314"/>
    <nd ref="224470310"/>
    <nd ref="224470306"/>
    <nd ref="224470303"/>
    <nd ref="224470300"/>
    <nd ref="224470297"/>
    <nd ref="224420270"/>
    <nd ref="224470292"/>
    <nd ref="224295207"/>
    <nd ref="224470288"/>
    <nd ref="224470284"/>
    <nd ref="224470280"/>
    <nd ref="671129583"/>
    <nd ref="224468895"/>
    <tag k="highway" v="trunk"/>
    <tag k="lanes" v="2"/>
    <tag k="name" v="Grand Parkway"/>
    <tag k="oneway" v="yes"/>
    <tag k="ref" v="TX 99"/>
    <tag k="tiger:cfcc" v="A35"/>
    <tag k="tiger:county" v="Fort Bend, TX"/>
    <tag k="tiger:name_base" v="Grand"/>
    <tag k="tiger:name_base_1" v="State Highway 99"/>
    <tag k="tiger:name_type" v="Pky"/>
    <tag k="tiger:separated" v="yes"/>
    <tag k="tiger:source" v="tiger_import_dch_v0.6_20070829"/>
    <tag k="tiger:tlid" v="227752800:227752807:227753136:227753188:227753193:227753207:227756537:227756538:227756551:227756554:227756561:227757104:227759721:227759729:227762767:227762825:227762868:227762869:227763911:227763949:227763952:227763953:78347285"/>
  </way>
  <way id="52974559" version="6" timestamp="2011-10-16T23:49:45Z" uid="119881" user="Clorox" changeset="9577969">
    <nd ref="224470326"/>
    <nd ref="224470322"/>
    <nd ref="224282622"/>
    <nd ref="224470318"/>
    <nd ref="224470314"/>
    <nd ref="224470310"/>
    <nd ref="224470306"/>
    <nd ref="224470303"/>
    <nd ref="224470300"/>
    <nd ref="224470297"/>
    <nd ref="224420270"/>
    <nd ref="224470292"/>
    <nd ref="224295207"/>
    <nd ref="224470288"/>
    <nd ref="224470284"/>
    <nd ref="224470280"/>
    <nd ref="671129583"/>
    <nd ref="224468895"/>
    <tag k="highway" v="trunk"/>
    <tag k="lanes" v="2"/>
    <tag k="name" v="West Grand Parkway South"/>
    <tag k="oneway" v="yes"/>
    <tag k="ref" v="TX 99"/>
    <tag k="tiger:cfcc" v="A35"/>
    <tag k="tiger:county" v="Fort Bend, TX"/>
    <tag k="tiger:name_base" v="Grand"/>
    <tag k="tiger:name_base_1" v="State Highway 99"/>
    <tag k="tiger:name_type" v="Pky"/>
    <tag k="tiger:separated" v="yes"/>
    <tag k="tiger:source" v="tiger_import_dch_v0.6_20070829"/>
    <tag k="tiger:tlid" v="227752800:227752807:227753136:227753188:227753193:227753207:227756537:227756538:227756551:227756554:227756561:227757104:227759721:227759729:227762767:227762825:227762868:227762869:227763911:227763949:227763952:227763953:78347285"/>
  </way>
  <way id="52974568" version="12" timestamp="2011-02-28T23:20:56Z" uid="16922" user="amai" changeset="7425744">
    <nd ref="671129941"/>
    <nd ref="671132852"/>
    <nd ref="623889077"/>
    <nd ref="1179799038"/>
    <nd ref="671173567"/>
    <nd ref="756158259"/>
    <nd ref="675458488"/>
    <nd ref="756460072"/>
    <nd ref="756493062"/>
    <nd ref="756158194"/>
    <nd ref="755936852"/>
    <nd ref="755936857"/>
    <nd ref="755936910"/>
    <nd ref="755552764"/>
    <nd ref="755552755"/>
    <nd ref="755936859"/>
    <nd ref="755936869"/>
    <nd ref="671132847"/>
    <tag k="highway" v="primary"/>
    <tag k="name" v="ถนนโพศรี"/>
    <tag k="name:en" v="Phosri Road"/>
    <tag k="name:th" v="ถนนโพศรี"/>
    <tag k="ref" v="22"/>
    <tag k="source" v="GPS; sign"/>
  </way>
  <way id="52974568" version="13" timestamp="2011-03-19T00:45:49Z" uid="140550" user="Beddhist" changeset="7600821">
    <nd ref="671129941"/>
    <nd ref="671132852"/>
    <nd ref="623889077"/>
    <nd ref="1179799038"/>
    <nd ref="671173567"/>
    <nd ref="756158259"/>
    <nd ref="675458488"/>
    <nd ref="756460072"/>
    <nd ref="756493062"/>
    <nd ref="756158194"/>
    <nd ref="755936852"/>
    <nd ref="755936857"/>
    <nd ref="755936910"/>
    <nd ref="755552764"/>
    <nd ref="755552755"/>
    <nd ref="755936859"/>
    <nd ref="755936869"/>
    <nd ref="1208060931"/>
    <tag k="highway" v="primary"/>
    <tag k="name" v="ถนนโพศรี"/>
    <tag k="name:en" v="Phosri Road"/>
    <tag k="name:th" v="ถนนโพศรี"/>
    <tag k="ref" v="22"/>
    <tag k="source" v="GPS; sign"/>
  </way>
  <way id="52974568" version="14" timestamp="2011-03-19T06:25:07Z" uid="140550" user="Beddhist" changeset="7601604">
    <nd ref="671129941"/>
    <nd ref="671132852"/>
    <nd ref="623889077"/>
    <nd ref="1179799038"/>
    <nd ref="671173567"/>
    <nd ref="756158259"/>
    <nd ref="675458488"/>
    <nd ref="756460072"/>
    <nd ref="756493062"/>
    <nd ref="756158194"/>
    <nd ref="755936852"/>
    <nd ref="755936857"/>
    <nd ref="755936910"/>
    <nd ref="755552764"/>
    <nd ref="755552755"/>
    <nd ref="755936859"/>
    <tag k="highway" v="primary"/>
    <tag k="name" v="ถนนโพศรี"/>
    <tag k="name:en" v="Phosri Road"/>
    <tag k="name:th" v="ถนนโพศรี"/>
    <tag k="ref" v="22"/>
    <tag k="source" v="GPS; sign"/>
  </way>
  <way id="52974568" version="15" timestamp="2011-05-01T14:45:00Z" uid="16922" user="amai" changeset="8021959">
    <nd ref="671129941"/>
    <nd ref="671132852"/>
    <nd ref="623889077"/>
    <nd ref="1179799038"/>
    <nd ref="671173567"/>
    <nd ref="756158259"/>
    <nd ref="675458488"/>
    <nd ref="756460072"/>
    <nd ref="756493062"/>
    <nd ref="756158194"/>
    <nd ref="1269009385"/>
    <nd ref="755936852"/>
    <nd ref="755936857"/>
    <nd ref="755936910"/>
    <nd ref="755552764"/>
    <nd ref="1269009594"/>
    <nd ref="755552755"/>
    <nd ref="1269009455"/>
    <nd ref="1269009537"/>
    <nd ref="755936859"/>
    <tag k="highway" v="primary"/>
    <tag k="name" v="ถนนโพศรี"/>
    <tag k="name:en" v="Phosri Road"/>
    <tag k="name:th" v="ถนนโพศรี"/>
    <tag k="ref" v="22"/>
    <tag k="source" v="GPS; sign"/>
  </way>
  <way id="52974568" version="16" timestamp="2011-05-01T15:30:36Z" uid="16922" user="amai" changeset="8021959">
    <nd ref="671129941"/>
    <nd ref="671132852"/>
    <nd ref="623889077"/>
    <nd ref="1179799038"/>
    <nd ref="671173567"/>
    <nd ref="756158259"/>
    <nd ref="675458488"/>
    <nd ref="756460072"/>
    <nd ref="756493062"/>
    <nd ref="756158194"/>
    <nd ref="1269009385"/>
    <nd ref="755936852"/>
    <nd ref="755936857"/>
    <nd ref="755936910"/>
    <nd ref="755552764"/>
    <nd ref="1269009594"/>
    <nd ref="755552755"/>
    <nd ref="1269009455"/>
    <nd ref="1269009537"/>
    <nd ref="1269088054"/>
    <nd ref="755936859"/>
    <tag k="highway" v="primary"/>
    <tag k="name" v="ถนนโพศรี"/>
    <tag k="name:en" v="Phosri Road"/>
    <tag k="name:th" v="ถนนโพศรี"/>
    <tag k="ref" v="22"/>
    <tag k="source" v="GPS; sign"/>
  </way>
  <way id="52974568" version="17" timestamp="2011-06-01T23:13:17Z" uid="61891" user="stephankn" changeset="8315146">
    <nd ref="671129941"/>
    <nd ref="671132852"/>
    <nd ref="623889077"/>
    <nd ref="1179799038"/>
    <nd ref="671173567"/>
    <nd ref="756158259"/>
    <nd ref="675458488"/>
    <nd ref="756460072"/>
    <nd ref="756493062"/>
    <nd ref="756158194"/>
    <nd ref="1269009385"/>
    <nd ref="755936852"/>
    <nd ref="755936857"/>
    <nd ref="755936910"/>
    <nd ref="755552764"/>
    <nd ref="1269009594"/>
    <nd ref="755552755"/>
    <nd ref="1269009455"/>
    <nd ref="1269009537"/>
    <tag k="highway" v="primary"/>
    <tag k="name" v="ถนนโพศรี"/>
    <tag k="name:en" v="Phosri Road"/>
    <tag k="name:th" v="ถนนโพศรี"/>
    <tag k="ref" v="22"/>
    <tag k="source" v="GPS; sign"/>
  </way>
  <way id="52974568" version="18" timestamp="2011-06-02T07:31:03Z" uid="61891" user="stephankn" changeset="8316832">
    <nd ref="671129941"/>
    <nd ref="671132852"/>
    <nd ref="623889077"/>
    <nd ref="1179799038"/>
    <nd ref="671173567"/>
    <nd ref="756158259"/>
    <nd ref="675458488"/>
    <nd ref="756460072"/>
    <tag k="highway" v="primary"/>
    <tag k="name" v="ถนนโพศรี"/>
    <tag k="name:en" v="Phosri Road"/>
    <tag k="name:th" v="ถนนโพศรี"/>
    <tag k="ref" v="22"/>
    <tag k="source" v="GPS; sign"/>
  </way>
  <way id="52974568" version="19" timestamp="2011-06-02T08:01:44Z" uid="61891" user="stephankn" changeset="8317041">
    <nd ref="671129941"/>
    <nd ref="671132852"/>
    <nd ref="623889077"/>
    <nd ref="1179799038"/>
    <nd ref="671173567"/>
    <nd ref="756158259"/>
    <nd ref="1308678354"/>
    <nd ref="675458488"/>
    <nd ref="756460072"/>
    <tag k="highway" v="primary"/>
    <tag k="name" v="ถนนโพศรี"/>
    <tag k="name:en" v="Phosri Road"/>
    <tag k="name:th" v="ถนนโพศรี"/>
    <tag k="ref" v="22"/>
    <tag k="source" v="GPS; sign"/>
  </way>
  <way id="52974568" version="20" timestamp="2011-08-07T08:23:37Z" uid="104414" user="Willi2006" changeset="8944393">
    <nd ref="671129941"/>
    <nd ref="671132852"/>
    <nd ref="623889077"/>
    <nd ref="1389224681"/>
    <nd ref="671173567"/>
    <nd ref="756158259"/>
    <nd ref="1308678354"/>
    <nd ref="675458488"/>
    <nd ref="756460072"/>
    <tag k="highway" v="primary"/>
    <tag k="name" v="ถนนโพศรี"/>
    <tag k="name:en" v="Phosri Road"/>
    <tag k="name:th" v="ถนนโพศรี"/>
    <tag k="ref" v="22"/>
    <tag k="source" v="GPS; sign"/>
  </way>
  <way id="52974573" version="3" timestamp="2010-04-07T14:37:06Z" uid="20587" user="balrog-kun" changeset="4353646">
    <nd ref="224468891"/>
    <nd ref="671130196"/>
    <nd ref="671130174"/>
    <tag k="construction" v="motorway"/>
    <tag k="name" v="Grand Parkway"/>
    <tag k="name_1" v="State Highway 99"/>
    <tag k="oneway" v="yes"/>
    <tag k="toll" v="yes"/>
  </way>
  <way id="52974573" version="4" timestamp="2011-06-01T04:59:37Z" uid="119881" user="Clorox" changeset="8307280">
    <nd ref="224468891"/>
    <nd ref="671130196"/>
    <nd ref="671130174"/>
    <tag k="highway" v="proposed"/>
    <tag k="name" v="Grand Parkway"/>
    <tag k="oneway" v="yes"/>
    <tag k="proposed" v="motorway"/>
    <tag k="ref" v="TX 99"/>
    <tag k="toll" v="yes"/>
  </way>
  <way id="52974573" version="5" timestamp="2011-10-16T23:49:57Z" uid="119881" user="Clorox" changeset="9577969">
    <nd ref="224468891"/>
    <nd ref="671130196"/>
    <nd ref="671130174"/>
    <tag k="highway" v="proposed"/>
    <tag k="name" v="West Grand Parkway South"/>
    <tag k="oneway" v="yes"/>
    <tag k="proposed" v="motorway"/>
    <tag k="ref" v="TX 99"/>
    <tag k="toll" v="yes"/>
  </way>
  <way id="52974573" version="6" timestamp="2012-01-10T10:44:59Z" uid="207745" user="NE2" changeset="10349483">
    <nd ref="224468891"/>
    <nd ref="671130196"/>
    <nd ref="671130174"/>
    <tag k="fut_ref" v="SH 99"/>
    <tag k="highway" v="proposed"/>
    <tag k="name" v="West Grand Parkway South"/>
    <tag k="oneway" v="yes"/>
    <tag k="proposed" v="motorway"/>
    <tag k="toll" v="yes"/>
  </way>
  <way id="52974574" version="4" timestamp="2010-04-07T14:37:06Z" uid="20587" user="balrog-kun" changeset="4353646">
    <nd ref="671130174"/>
    <nd ref="224468846"/>
    <nd ref="224468836"/>
    <tag k="highway" v="trunk"/>
    <tag k="name" v="Grand Parkway"/>
    <tag k="name_1" v="New Territory Boulevard"/>
    <tag k="name_2" v="State Highway 99"/>
    <tag k="oneway" v="yes"/>
    <tag k="tiger:cfcc" v="A35"/>
    <tag k="tiger:county" v="Fort Bend, TX"/>
    <tag k="tiger:name_base" v="Grand"/>
    <tag k="tiger:name_base_1" v="New Territory"/>
    <tag k="tiger:name_base_2" v="State Highway 99"/>
    <tag k="tiger:name_type" v="Pky"/>
    <tag k="tiger:name_type_1" v="Blvd"/>
    <tag k="tiger:reviewed" v="no"/>
    <tag k="tiger:separated" v="yes"/>
    <tag k="tiger:source" v="tiger_import_dch_v0.6_20070829"/>
    <tag k="tiger:tlid" v="227755090:227755093"/>
  </way>
  <way id="52974574" version="5" timestamp="2011-01-22T06:32:58Z" uid="37392" user="25or6to4" changeset="7047177">
    <nd ref="671130174"/>
    <nd ref="224468846"/>
    <nd ref="224468836"/>
    <tag k="highway" v="trunk"/>
    <tag k="name" v="Grand Parkway"/>
    <tag k="oneway" v="yes"/>
    <tag k="ref" v="TX 99"/>
    <tag k="tiger:cfcc" v="A35"/>
    <tag k="tiger:county" v="Fort Bend, TX"/>
    <tag k="tiger:name_base" v="Grand"/>
    <tag k="tiger:name_base_1" v="New Territory"/>
    <tag k="tiger:name_base_2" v="State Highway 99"/>
    <tag k="tiger:name_type" v="Pky"/>
    <tag k="tiger:name_type_1" v="Blvd"/>
    <tag k="tiger:separated" v="yes"/>
    <tag k="tiger:source" v="tiger_import_dch_v0.6_20070829"/>
    <tag k="tiger:tlid" v="227755090:227755093"/>
  </way>
  <way id="52974574" version="6" timestamp="2011-06-22T22:09:06Z" uid="473471" user="NE3" changeset="8518867">
    <nd ref="671130174"/>
    <nd ref="224468846"/>
    <nd ref="224468836"/>
    <tag k="highway" v="trunk"/>
    <tag k="lanes" v="2"/>
    <tag k="name" v="Grand Parkway"/>
    <tag k="oneway" v="yes"/>
    <tag k="ref" v="TX 99"/>
    <tag k="tiger:cfcc" v="A35"/>
    <tag k="tiger:county" v="Fort Bend, TX"/>
    <tag k="tiger:name_base" v="Grand"/>
    <tag k="tiger:name_base_1" v="New Territory"/>
    <tag k="tiger:name_base_2" v="State Highway 99"/>
    <tag k="tiger:name_type" v="Pky"/>
    <tag k="tiger:name_type_1" v="Blvd"/>
    <tag k="tiger:separated" v="yes"/>
    <tag k="tiger:source" v="tiger_import_dch_v0.6_20070829"/>
    <tag k="tiger:tlid" v="227755090:227755093"/>
  </way>
  <way id="52974574" version="7" timestamp="2011-10-16T23:49:56Z" uid="119881" user="Clorox" changeset="9577969">
    <nd ref="671130174"/>
    <nd ref="224468846"/>
    <nd ref="224468836"/>
    <tag k="highway" v="trunk"/>
    <tag k="lanes" v="2"/>
    <tag k="name" v="West Grand Parkway South"/>
    <tag k="oneway" v="yes"/>
    <tag k="ref" v="TX 99"/>
    <tag k="tiger:cfcc" v="A35"/>
    <tag k="tiger:county" v="Fort Bend, TX"/>
    <tag k="tiger:name_base" v="Grand"/>
    <tag k="tiger:name_base_1" v="New Territory"/>
    <tag k="tiger:name_base_2" v="State Highway 99"/>
    <tag k="tiger:name_type" v="Pky"/>
    <tag k="tiger:name_type_1" v="Blvd"/>
    <tag k="tiger:separated" v="yes"/>
    <tag k="tiger:source" v="tiger_import_dch_v0.6_20070829"/>
    <tag k="tiger:tlid" v="227755090:227755093"/>
  </way>
  <way id="52974575" version="3" timestamp="2010-04-07T14:37:07Z" uid="20587" user="balrog-kun" changeset="4353646">
    <nd ref="224468891"/>
    <nd ref="224468888"/>
    <nd ref="224295181"/>
    <nd ref="224468883"/>
    <nd ref="224291764"/>
    <nd ref="224420266"/>
    <nd ref="224468880"/>
    <nd ref="224468874"/>
    <nd ref="224468869"/>
    <nd ref="224468863"/>
    <nd ref="224468859"/>
    <nd ref="224468855"/>
    <nd ref="224468851"/>
    <nd ref="224282602"/>
    <nd ref="671130174"/>
    <tag k="highway" v="trunk_link"/>
    <tag k="name" v="Grand Parkway"/>
    <tag k="name_1" v="New Territory Boulevard"/>
    <tag k="name_2" v="State Highway 99"/>
    <tag k="oneway" v="yes"/>
    <tag k="tiger:cfcc" v="A35"/>
    <tag k="tiger:county" v="Fort Bend, TX"/>
    <tag k="tiger:name_base" v="Grand"/>
    <tag k="tiger:name_base_1" v="New Territory"/>
    <tag k="tiger:name_base_2" v="State Highway 99"/>
    <tag k="tiger:name_type" v="Pky"/>
    <tag k="tiger:name_type_1" v="Blvd"/>
    <tag k="tiger:reviewed" v="no"/>
    <tag k="tiger:separated" v="yes"/>
    <tag k="tiger:source" v="tiger_import_dch_v0.6_20070829"/>
    <tag k="tiger:tlid" v="227755090:227755093"/>
  </way>
  <way id="52974575" version="4" timestamp="2011-10-16T23:49:42Z" uid="119881" user="Clorox" changeset="9577969">
    <nd ref="224468891"/>
    <nd ref="224468888"/>
    <nd ref="224295181"/>
    <nd ref="224468883"/>
    <nd ref="224291764"/>
    <nd ref="224420266"/>
    <nd ref="224468880"/>
    <nd ref="224468874"/>
    <nd ref="224468869"/>
    <nd ref="224468863"/>
    <nd ref="224468859"/>
    <nd ref="224468855"/>
    <nd ref="224468851"/>
    <nd ref="224282602"/>
    <nd ref="671130174"/>
    <tag k="highway" v="trunk_link"/>
    <tag k="name" v="West Grand Parkway South"/>
    <tag k="name_1" v="New Territory Boulevard"/>
    <tag k="name_2" v="State Highway 99"/>
    <tag k="oneway" v="yes"/>
    <tag k="tiger:cfcc" v="A35"/>
    <tag k="tiger:county" v="Fort Bend, TX"/>
    <tag k="tiger:name_base" v="Grand"/>
    <tag k="tiger:name_base_1" v="New Territory"/>
    <tag k="tiger:name_base_2" v="State Highway 99"/>
    <tag k="tiger:name_type" v="Pky"/>
    <tag k="tiger:name_type_1" v="Blvd"/>
    <tag k="tiger:reviewed" v="no"/>
    <tag k="tiger:separated" v="yes"/>
    <tag k="tiger:source" v="tiger_import_dch_v0.6_20070829"/>
    <tag k="tiger:tlid" v="227755090:227755093"/>
  </way>
  <way id="52974576" version="1" timestamp="2010-03-21T03:51:53Z" uid="7617" user="Franc" changeset="4187150">
    <nd ref="343323134"/>
    <nd ref="671130295"/>
    <nd ref="343326742"/>
    <tag k="highway" v="footway"/>
    <tag k="source" v="nearmap"/>
  </way>
  <way id="52974580" version="3" timestamp="2010-04-07T14:37:07Z" uid="20587" user="balrog-kun" changeset="4353646">
    <nd ref="224470363"/>
    <nd ref="671130433"/>
    <nd ref="671130434"/>
    <nd ref="671130435"/>
    <nd ref="224470326"/>
    <tag k="construction" v="motorway"/>
    <tag k="name" v="Grand Parkway"/>
    <tag k="name_1" v="State Highway 99"/>
    <tag k="oneway" v="yes"/>
    <tag k="toll" v="yes"/>
  </way>
  <way id="52974580" version="4" timestamp="2011-01-22T06:33:06Z" uid="37392" user="25or6to4" changeset="7047177">
    <nd ref="224470363"/>
    <nd ref="671130433"/>
    <nd ref="671130434"/>
    <nd ref="671130435"/>
    <nd ref="224470326"/>
    <tag k="construction" v="motorway"/>
    <tag k="highway" v="construction"/>
    <tag k="name" v="Grand Parkway"/>
    <tag k="name_1" v="State Highway 99"/>
    <tag k="oneway" v="yes"/>
    <tag k="toll" v="yes"/>
  </way>
  <way id="52974580" version="5" timestamp="2011-04-08T02:23:33Z" uid="163871" user="517634" changeset="7800222"/>
  <way id="52974583" version="2" timestamp="2010-04-07T14:37:07Z" uid="20587" user="balrog-kun" changeset="4353646">
    <nd ref="224468836"/>
    <nd ref="671130501"/>
    <nd ref="671130502"/>
    <nd ref="224468734"/>
    <tag k="construction" v="motorway"/>
    <tag k="name" v="Grand Parkway"/>
    <tag k="name_1" v="State Highway 99"/>
    <tag k="oneway" v="yes"/>
    <tag k="toll" v="yes"/>
  </way>
  <way id="52974583" version="3" timestamp="2011-01-22T06:32:59Z" uid="37392" user="25or6to4" changeset="7047177">
    <nd ref="224468836"/>
    <nd ref="671130501"/>
    <nd ref="671130502"/>
    <nd ref="224468734"/>
    <tag k="construction" v="motorway"/>
    <tag k="highway" v="construction"/>
    <tag k="name" v="Grand Parkway"/>
    <tag k="name_1" v="State Highway 99"/>
    <tag k="oneway" v="yes"/>
    <tag k="toll" v="yes"/>
  </way>
  <way id="52974583" version="4" timestamp="2011-04-08T02:23:33Z" uid="163871" user="517634" changeset="7800222"/>
  <way id="52974584" version="2" timestamp="2010-04-07T14:37:08Z" uid="20587" user="balrog-kun" changeset="4353646">
    <nd ref="224470326"/>
    <nd ref="224470322"/>
    <nd ref="224282622"/>
    <nd ref="224470318"/>
    <nd ref="224470314"/>
    <nd ref="224470310"/>
    <nd ref="224470306"/>
    <nd ref="224470303"/>
    <nd ref="224470300"/>
    <nd ref="224470297"/>
    <nd ref="224420270"/>
    <nd ref="224470292"/>
    <nd ref="224295207"/>
    <nd ref="224470288"/>
    <nd ref="224470284"/>
    <nd ref="224470280"/>
    <nd ref="671129583"/>
    <tag k="highway" v="trunk"/>
    <tag k="name" v="Grand Parkway"/>
    <tag k="name_1" v="State Highway 99"/>
    <tag k="oneway" v="yes"/>
    <tag k="ref" v="TX 99"/>
    <tag k="tiger:cfcc" v="A35"/>
    <tag k="tiger:county" v="Fort Bend, TX"/>
    <tag k="tiger:name_base" v="Grand"/>
    <tag k="tiger:name_base_1" v="State Highway 99"/>
    <tag k="tiger:name_type" v="Pky"/>
    <tag k="tiger:reviewed" v="no"/>
    <tag k="tiger:separated" v="yes"/>
    <tag k="tiger:source" v="tiger_import_dch_v0.6_20070829"/>
    <tag k="tiger:tlid" v="227753193:227753188:227756554:78347285:227756538:227756551:227756537:227762767:227762825:227762868:227762869:227753136:227757104:227752807:227756561:227763911:227752800:227763949:227763952:227763953:227753207:227759721:227759729"/>
  </way>
  <way id="52974584" version="3" timestamp="2011-01-22T06:33:09Z" uid="37392" user="25or6to4" changeset="7047177"/>
  <way id="52974585" version="3" timestamp="2010-04-07T14:37:08Z" uid="20587" user="balrog-kun" changeset="4353646">
    <nd ref="224470363"/>
    <nd ref="224470357"/>
    <nd ref="224470352"/>
    <nd ref="224470348"/>
    <nd ref="224470346"/>
    <nd ref="224470343"/>
    <nd ref="224470342"/>
    <nd ref="224470340"/>
    <nd ref="224470337"/>
    <nd ref="224470336"/>
    <nd ref="224470330"/>
    <nd ref="224470326"/>
    <tag k="highway" v="trunk_link"/>
    <tag k="name" v="Grand Parkway"/>
    <tag k="name_1" v="State Highway 99"/>
    <tag k="oneway" v="yes"/>
    <tag k="ref" v="TX 99"/>
    <tag k="tiger:cfcc" v="A35"/>
    <tag k="tiger:county" v="Fort Bend, TX"/>
    <tag k="tiger:name_base" v="Grand"/>
    <tag k="tiger:name_base_1" v="State Highway 99"/>
    <tag k="tiger:name_type" v="Pky"/>
    <tag k="tiger:reviewed" v="no"/>
    <tag k="tiger:separated" v="yes"/>
    <tag k="tiger:source" v="tiger_import_dch_v0.6_20070829"/>
    <tag k="tiger:tlid" v="227753193:227753188:227756554:78347285:227756538:227756551:227756537:227762767:227762825:227762868:227762869:227753136:227757104:227752807:227756561:227763911:227752800:227763949:227763952:227763953:227753207:227759721:227759729"/>
  </way>
  <way id="52974585" version="4" timestamp="2011-01-22T06:32:55Z" uid="37392" user="25or6to4" changeset="7047177">
    <nd ref="224470363"/>
    <nd ref="224470357"/>
    <nd ref="224470352"/>
    <nd ref="224470348"/>
    <nd ref="224470346"/>
    <nd ref="224470343"/>
    <nd ref="224470342"/>
    <nd ref="224470340"/>
    <nd ref="224470337"/>
    <nd ref="224470336"/>
    <nd ref="224470330"/>
    <nd ref="224470326"/>
    <tag k="highway" v="trunk"/>
    <tag k="name" v="Grand Parkway"/>
    <tag k="oneway" v="yes"/>
    <tag k="ref" v="TX 99"/>
    <tag k="tiger:cfcc" v="A35"/>
    <tag k="tiger:county" v="Fort Bend, TX"/>
    <tag k="tiger:name_base" v="Grand"/>
    <tag k="tiger:name_base_1" v="State Highway 99"/>
    <tag k="tiger:name_type" v="Pky"/>
    <tag k="tiger:separated" v="yes"/>
    <tag k="tiger:source" v="tiger_import_dch_v0.6_20070829"/>
    <tag k="tiger:tlid" v="227753193:227753188:227756554:78347285:227756538:227756551:227756537:227762767:227762825:227762868:227762869:227753136:227757104:227752807:227756561:227763911:227752800:227763949:227763952:227763953:227753207:227759721:227759729"/>
  </way>
  <way id="52974585" version="5" timestamp="2011-06-22T21:57:30Z" uid="473471" user="NE3" changeset="8518867">
    <nd ref="224470363"/>
    <nd ref="224470357"/>
    <nd ref="224470352"/>
    <nd ref="224470348"/>
    <nd ref="224470346"/>
    <nd ref="224470343"/>
    <nd ref="224470342"/>
    <nd ref="224470340"/>
    <nd ref="224470337"/>
    <nd ref="224470336"/>
    <nd ref="224470330"/>
    <nd ref="224470326"/>
    <tag k="highway" v="trunk"/>
    <tag k="lanes" v="2"/>
    <tag k="name" v="Grand Parkway"/>
    <tag k="oneway" v="yes"/>
    <tag k="ref" v="TX 99"/>
    <tag k="tiger:cfcc" v="A35"/>
    <tag k="tiger:county" v="Fort Bend, TX"/>
    <tag k="tiger:name_base" v="Grand"/>
    <tag k="tiger:name_base_1" v="State Highway 99"/>
    <tag k="tiger:name_type" v="Pky"/>
    <tag k="tiger:separated" v="yes"/>
    <tag k="tiger:source" v="tiger_import_dch_v0.6_20070829"/>
    <tag k="tiger:tlid" v="227753193:227753188:227756554:78347285:227756538:227756551:227756537:227762767:227762825:227762868:227762869:227753136:227757104:227752807:227756561:227763911:227752800:227763949:227763952:227763953:227753207:227759721:227759729"/>
  </way>
  <way id="52974585" version="6" timestamp="2011-10-16T23:49:38Z" uid="119881" user="Clorox" changeset="9577969">
    <nd ref="224470363"/>
    <nd ref="224470357"/>
    <nd ref="224470352"/>
    <nd ref="224470348"/>
    <nd ref="224470346"/>
    <nd ref="224470343"/>
    <nd ref="224470342"/>
    <nd ref="224470340"/>
    <nd ref="224470337"/>
    <nd ref="224470336"/>
    <nd ref="224470330"/>
    <nd ref="224470326"/>
    <tag k="highway" v="trunk"/>
    <tag k="lanes" v="2"/>
    <tag k="name" v="West Grand Parkway South"/>
    <tag k="oneway" v="yes"/>
    <tag k="ref" v="TX 99"/>
    <tag k="tiger:cfcc" v="A35"/>
    <tag k="tiger:county" v="Fort Bend, TX"/>
    <tag k="tiger:name_base" v="Grand"/>
    <tag k="tiger:name_base_1" v="State Highway 99"/>
    <tag k="tiger:name_type" v="Pky"/>
    <tag k="tiger:separated" v="yes"/>
    <tag k="tiger:source" v="tiger_import_dch_v0.6_20070829"/>
    <tag k="tiger:tlid" v="227753193:227753188:227756554:78347285:227756538:227756551:227756537:227762767:227762825:227762868:227762869:227753136:227757104:227752807:227756561:227763911:227752800:227763949:227763952:227763953:227753207:227759721:227759729"/>
  </way>
  <way id="52974595" version="2" timestamp="2010-04-07T14:37:08Z" uid="20587" user="balrog-kun" changeset="4353646">
    <nd ref="224468734"/>
    <nd ref="224468730"/>
    <nd ref="224468724"/>
    <nd ref="607114286"/>
    <tag k="highway" v="trunk"/>
    <tag k="name" v="Grand Parkway"/>
    <tag k="name_1" v="New Territory Boulevard"/>
    <tag k="name_2" v="State Highway 99"/>
    <tag k="oneway" v="yes"/>
    <tag k="tiger:cfcc" v="A35"/>
    <tag k="tiger:county" v="Fort Bend, TX"/>
    <tag k="tiger:name_base" v="Grand"/>
    <tag k="tiger:name_base_1" v="New Territory"/>
    <tag k="tiger:name_base_2" v="State Highway 99"/>
    <tag k="tiger:name_type" v="Pky"/>
    <tag k="tiger:name_type_1" v="Blvd"/>
    <tag k="tiger:reviewed" v="no"/>
    <tag k="tiger:separated" v="yes"/>
    <tag k="tiger:source" v="tiger_import_dch_v0.6_20070829"/>
    <tag k="tiger:tlid" v="227755090:227755093"/>
  </way>
  <way id="52974595" version="3" timestamp="2011-01-22T06:32:53Z" uid="37392" user="25or6to4" changeset="7047177">
    <nd ref="224468734"/>
    <nd ref="224468730"/>
    <nd ref="224468724"/>
    <nd ref="607114286"/>
    <tag k="highway" v="trunk"/>
    <tag k="name" v="Grand Parkway"/>
    <tag k="oneway" v="yes"/>
    <tag k="ref" v="TX 99"/>
    <tag k="tiger:cfcc" v="A35"/>
    <tag k="tiger:county" v="Fort Bend, TX"/>
    <tag k="tiger:name_base" v="Grand"/>
    <tag k="tiger:name_base_1" v="New Territory"/>
    <tag k="tiger:name_base_2" v="State Highway 99"/>
    <tag k="tiger:name_type" v="Pky"/>
    <tag k="tiger:name_type_1" v="Blvd"/>
    <tag k="tiger:separated" v="yes"/>
    <tag k="tiger:source" v="tiger_import_dch_v0.6_20070829"/>
    <tag k="tiger:tlid" v="227755090:227755093"/>
  </way>
  <way id="52974595" version="4" timestamp="2011-06-22T22:02:20Z" uid="473471" user="NE3" changeset="8518867">
    <nd ref="224468734"/>
    <nd ref="224468730"/>
    <nd ref="224468724"/>
    <nd ref="607114286"/>
    <tag k="highway" v="trunk"/>
    <tag k="lanes" v="2"/>
    <tag k="name" v="Grand Parkway"/>
    <tag k="oneway" v="yes"/>
    <tag k="ref" v="TX 99"/>
    <tag k="tiger:cfcc" v="A35"/>
    <tag k="tiger:county" v="Fort Bend, TX"/>
    <tag k="tiger:name_base" v="Grand"/>
    <tag k="tiger:name_base_1" v="New Territory"/>
    <tag k="tiger:name_base_2" v="State Highway 99"/>
    <tag k="tiger:name_type" v="Pky"/>
    <tag k="tiger:name_type_1" v="Blvd"/>
    <tag k="tiger:separated" v="yes"/>
    <tag k="tiger:source" v="tiger_import_dch_v0.6_20070829"/>
    <tag k="tiger:tlid" v="227755090:227755093"/>
  </way>
  <way id="52974595" version="5" timestamp="2011-10-16T23:50:01Z" uid="119881" user="Clorox" changeset="9577969">
    <nd ref="224468734"/>
    <nd ref="224468730"/>
    <nd ref="224468724"/>
    <nd ref="607114286"/>
    <tag k="highway" v="trunk"/>
    <tag k="lanes" v="2"/>
    <tag k="name" v="West Grand Parkway South"/>
    <tag k="oneway" v="yes"/>
    <tag k="ref" v="TX 99"/>
    <tag k="tiger:cfcc" v="A35"/>
    <tag k="tiger:county" v="Fort Bend, TX"/>
    <tag k="tiger:name_base" v="Grand"/>
    <tag k="tiger:name_base_1" v="New Territory"/>
    <tag k="tiger:name_base_2" v="State Highway 99"/>
    <tag k="tiger:name_type" v="Pky"/>
    <tag k="tiger:name_type_1" v="Blvd"/>
    <tag k="tiger:separated" v="yes"/>
    <tag k="tiger:source" v="tiger_import_dch_v0.6_20070829"/>
    <tag k="tiger:tlid" v="227755090:227755093"/>
  </way>
  <way id="52974597" version="3" timestamp="2010-04-07T14:37:08Z" uid="20587" user="balrog-kun" changeset="4353646">
    <nd ref="224468836"/>
    <nd ref="224468828"/>
    <nd ref="224468819"/>
    <nd ref="224468796"/>
    <nd ref="224468789"/>
    <nd ref="224468780"/>
    <nd ref="224468772"/>
    <nd ref="616941378"/>
    <nd ref="224468766"/>
    <nd ref="224468753"/>
    <nd ref="224468746"/>
    <nd ref="224468741"/>
    <nd ref="224468734"/>
    <tag k="highway" v="trunk_link"/>
    <tag k="name" v="Grand Parkway"/>
    <tag k="name_1" v="New Territory Boulevard"/>
    <tag k="name_2" v="State Highway 99"/>
    <tag k="oneway" v="yes"/>
    <tag k="tiger:cfcc" v="A35"/>
    <tag k="tiger:county" v="Fort Bend, TX"/>
    <tag k="tiger:name_base" v="Grand"/>
    <tag k="tiger:name_base_1" v="New Territory"/>
    <tag k="tiger:name_base_2" v="State Highway 99"/>
    <tag k="tiger:name_type" v="Pky"/>
    <tag k="tiger:name_type_1" v="Blvd"/>
    <tag k="tiger:reviewed" v="no"/>
    <tag k="tiger:separated" v="yes"/>
    <tag k="tiger:source" v="tiger_import_dch_v0.6_20070829"/>
    <tag k="tiger:tlid" v="227755090:227755093"/>
  </way>
  <way id="52974597" version="4" timestamp="2011-01-22T06:33:03Z" uid="37392" user="25or6to4" changeset="7047177">
    <nd ref="224468836"/>
    <nd ref="224468828"/>
    <nd ref="224468819"/>
    <nd ref="224468796"/>
    <nd ref="224468789"/>
    <nd ref="224468780"/>
    <nd ref="224468772"/>
    <nd ref="616941378"/>
    <nd ref="224468766"/>
    <nd ref="224468753"/>
    <nd ref="224468746"/>
    <nd ref="224468741"/>
    <nd ref="224468734"/>
    <tag k="highway" v="trunk"/>
    <tag k="name" v="Grand Parkway"/>
    <tag k="oneway" v="yes"/>
    <tag k="ref" v="TX 99"/>
    <tag k="tiger:cfcc" v="A35"/>
    <tag k="tiger:county" v="Fort Bend, TX"/>
    <tag k="tiger:name_base" v="Grand"/>
    <tag k="tiger:name_base_1" v="New Territory"/>
    <tag k="tiger:name_base_2" v="State Highway 99"/>
    <tag k="tiger:name_type" v="Pky"/>
    <tag k="tiger:name_type_1" v="Blvd"/>
    <tag k="tiger:separated" v="yes"/>
    <tag k="tiger:source" v="tiger_import_dch_v0.6_20070829"/>
    <tag k="tiger:tlid" v="227755090:227755093"/>
  </way>
  <way id="52974597" version="5" timestamp="2011-06-22T22:08:54Z" uid="473471" user="NE3" changeset="8518867">
    <nd ref="224468836"/>
    <nd ref="224468828"/>
    <nd ref="224468819"/>
    <nd ref="224468796"/>
    <nd ref="224468789"/>
    <nd ref="224468780"/>
    <nd ref="224468772"/>
    <nd ref="616941378"/>
    <nd ref="224468766"/>
    <nd ref="224468753"/>
    <nd ref="224468746"/>
    <nd ref="224468741"/>
    <nd ref="224468734"/>
    <tag k="highway" v="trunk"/>
    <tag k="lanes" v="2"/>
    <tag k="name" v="Grand Parkway"/>
    <tag k="oneway" v="yes"/>
    <tag k="ref" v="TX 99"/>
    <tag k="tiger:cfcc" v="A35"/>
    <tag k="tiger:county" v="Fort Bend, TX"/>
    <tag k="tiger:name_base" v="Grand"/>
    <tag k="tiger:name_base_1" v="New Territory"/>
    <tag k="tiger:name_base_2" v="State Highway 99"/>
    <tag k="tiger:name_type" v="Pky"/>
    <tag k="tiger:name_type_1" v="Blvd"/>
    <tag k="tiger:separated" v="yes"/>
    <tag k="tiger:source" v="tiger_import_dch_v0.6_20070829"/>
    <tag k="tiger:tlid" v="227755090:227755093"/>
  </way>
  <way id="52974597" version="6" timestamp="2011-10-16T23:49:40Z" uid="119881" user="Clorox" changeset="9577969">
    <nd ref="224468836"/>
    <nd ref="224468828"/>
    <nd ref="224468819"/>
    <nd ref="224468796"/>
    <nd ref="224468789"/>
    <nd ref="224468780"/>
    <nd ref="224468772"/>
    <nd ref="616941378"/>
    <nd ref="224468766"/>
    <nd ref="224468753"/>
    <nd ref="224468746"/>
    <nd ref="224468741"/>
    <nd ref="224468734"/>
    <tag k="highway" v="trunk"/>
    <tag k="lanes" v="2"/>
    <tag k="name" v="West Grand Parkway South"/>
    <tag k="oneway" v="yes"/>
    <tag k="ref" v="TX 99"/>
    <tag k="tiger:cfcc" v="A35"/>
    <tag k="tiger:county" v="Fort Bend, TX"/>
    <tag k="tiger:name_base" v="Grand"/>
    <tag k="tiger:name_base_1" v="New Territory"/>
    <tag k="tiger:name_base_2" v="State Highway 99"/>
    <tag k="tiger:name_type" v="Pky"/>
    <tag k="tiger:name_type_1" v="Blvd"/>
    <tag k="tiger:separated" v="yes"/>
    <tag k="tiger:source" v="tiger_import_dch_v0.6_20070829"/>
    <tag k="tiger:tlid" v="227755090:227755093"/>
  </way>
  <way id="52974600" version="4" timestamp="2010-04-07T14:37:10Z" uid="20587" user="balrog-kun" changeset="4353646">
    <nd ref="224468658"/>
    <nd ref="671130964"/>
    <nd ref="671130966"/>
    <nd ref="671130967"/>
    <nd ref="671130968"/>
    <tag k="construction" v="motorway"/>
    <tag k="name" v="Grand Parkway"/>
    <tag k="name_1" v="State Highway 99"/>
    <tag k="oneway" v="yes"/>
    <tag k="toll" v="yes"/>
  </way>
  <way id="52974600" version="5" timestamp="2011-01-22T06:32:54Z" uid="37392" user="25or6to4" changeset="7047177">
    <nd ref="224468658"/>
    <nd ref="671130964"/>
    <nd ref="671130966"/>
    <nd ref="671130967"/>
    <nd ref="671130968"/>
    <nd ref="671131236"/>
    <tag k="construction" v="motorway"/>
    <tag k="highway" v="construction"/>
    <tag k="name" v="Grand Parkway"/>
    <tag k="oneway" v="yes"/>
    <tag k="toll" v="yes"/>
  </way>
  <way id="52974600" version="6" timestamp="2011-06-01T04:59:37Z" uid="119881" user="Clorox" changeset="8307280">
    <nd ref="224468658"/>
    <nd ref="671130964"/>
    <nd ref="671130966"/>
    <nd ref="671130967"/>
    <nd ref="671130968"/>
    <nd ref="671131236"/>
    <tag k="highway" v="proposed"/>
    <tag k="name" v="Grand Parkway"/>
    <tag k="oneway" v="yes"/>
    <tag k="proposed" v="motorway"/>
    <tag k="ref" v="TX 99"/>
    <tag k="toll" v="yes"/>
  </way>
  <way id="52974600" version="7" timestamp="2011-10-07T15:44:45Z" uid="70659" user="gridlockjoe" changeset="9495141">
    <nd ref="224468658"/>
    <nd ref="671130964"/>
    <nd ref="671130966"/>
    <nd ref="671130967"/>
    <nd ref="671130968"/>
    <nd ref="671131236"/>
    <tag k="construction" v="motorway"/>
    <tag k="highway" v="construction"/>
    <tag k="name" v="Grand Parkway"/>
    <tag k="oneway" v="yes"/>
    <tag k="ref" v="TX 99"/>
    <tag k="toll" v="yes"/>
  </way>
  <way id="52974600" version="8" timestamp="2011-10-16T23:50:04Z" uid="119881" user="Clorox" changeset="9577969">
    <nd ref="224468658"/>
    <nd ref="671130964"/>
    <nd ref="671130966"/>
    <nd ref="671130967"/>
    <nd ref="671130968"/>
    <nd ref="671131236"/>
    <tag k="construction" v="motorway"/>
    <tag k="highway" v="construction"/>
    <tag k="name" v="West Grand Parkway South"/>
    <tag k="oneway" v="yes"/>
    <tag k="ref" v="TX 99"/>
    <tag k="toll" v="yes"/>
  </way>
  <way id="52974600" version="9" timestamp="2012-01-10T10:45:00Z" uid="207745" user="NE2" changeset="10349483">
    <nd ref="224468658"/>
    <nd ref="671130964"/>
    <nd ref="671130966"/>
    <nd ref="671130967"/>
    <nd ref="671130968"/>
    <nd ref="671131236"/>
    <tag k="construction" v="motorway"/>
    <tag k="fut_ref" v="SH 99"/>
    <tag k="highway" v="construction"/>
    <tag k="name" v="West Grand Parkway South"/>
    <tag k="oneway" v="yes"/>
    <tag k="toll" v="yes"/>
  </way>
  <way id="52974606" version="3" timestamp="2010-04-07T14:37:10Z" uid="20587" user="balrog-kun" changeset="4353646">
    <nd ref="671131289"/>
    <nd ref="671131290"/>
    <nd ref="671131291"/>
    <nd ref="671131292"/>
    <nd ref="671131293"/>
    <nd ref="224470401"/>
    <tag k="construction" v="motorway"/>
    <tag k="name" v="Grand Parkway"/>
    <tag k="name_1" v="State Highway 99"/>
    <tag k="oneway" v="yes"/>
    <tag k="toll" v="yes"/>
  </way>
  <way id="52974606" version="4" timestamp="2011-01-22T06:33:07Z" uid="37392" user="25or6to4" changeset="7047177">
    <nd ref="671131549"/>
    <nd ref="671131289"/>
    <nd ref="671131290"/>
    <nd ref="671131291"/>
    <nd ref="671131292"/>
    <nd ref="671131293"/>
    <nd ref="224470401"/>
    <tag k="construction" v="motorway"/>
    <tag k="highway" v="construction"/>
    <tag k="name" v="Grand Parkway"/>
    <tag k="oneway" v="yes"/>
    <tag k="toll" v="yes"/>
  </way>
  <way id="52974606" version="5" timestamp="2011-06-01T04:59:37Z" uid="119881" user="Clorox" changeset="8307280">
    <nd ref="671131549"/>
    <nd ref="671131289"/>
    <nd ref="671131290"/>
    <nd ref="671131291"/>
    <nd ref="671131292"/>
    <nd ref="671131293"/>
    <nd ref="224470401"/>
    <tag k="highway" v="proposed"/>
    <tag k="name" v="Grand Parkway"/>
    <tag k="oneway" v="yes"/>
    <tag k="proposed" v="motorway"/>
    <tag k="ref" v="TX 99"/>
    <tag k="toll" v="yes"/>
  </way>
  <way id="52974606" version="6" timestamp="2011-10-07T15:44:44Z" uid="70659" user="gridlockjoe" changeset="9495141">
    <nd ref="671131549"/>
    <nd ref="671131289"/>
    <nd ref="671131290"/>
    <nd ref="671131291"/>
    <nd ref="671131292"/>
    <nd ref="671131293"/>
    <nd ref="224470401"/>
    <tag k="construction" v="motorway"/>
    <tag k="highway" v="construction"/>
    <tag k="name" v="Grand Parkway"/>
    <tag k="oneway" v="yes"/>
    <tag k="ref" v="TX 99"/>
    <tag k="toll" v="yes"/>
  </way>
  <way id="52974606" version="7" timestamp="2011-10-16T23:50:06Z" uid="119881" user="Clorox" changeset="9577969">
    <nd ref="671131549"/>
    <nd ref="671131289"/>
    <nd ref="671131290"/>
    <nd ref="671131291"/>
    <nd ref="671131292"/>
    <nd ref="671131293"/>
    <nd ref="224470401"/>
    <tag k="construction" v="motorway"/>
    <tag k="highway" v="construction"/>
    <tag k="name" v="West Grand Parkway South"/>
    <tag k="oneway" v="yes"/>
    <tag k="ref" v="TX 99"/>
    <tag k="toll" v="yes"/>
  </way>
  <way id="52974606" version="8" timestamp="2012-01-10T10:45:02Z" uid="207745" user="NE2" changeset="10349483">
    <nd ref="671131549"/>
    <nd ref="671131289"/>
    <nd ref="671131290"/>
    <nd ref="671131291"/>
    <nd ref="671131292"/>
    <nd ref="671131293"/>
    <nd ref="224470401"/>
    <tag k="construction" v="motorway"/>
    <tag k="fut_ref" v="SH 99"/>
    <tag k="highway" v="construction"/>
    <tag k="name" v="West Grand Parkway South"/>
    <tag k="oneway" v="yes"/>
    <tag k="toll" v="yes"/>
  </way>
  <way id="52974607" version="2" timestamp="2010-04-03T13:58:56Z" uid="20587" user="balrog-kun" changeset="4312927">
    <nd ref="84298410"/>
    <nd ref="84298412"/>
    <nd ref="84298414"/>
    <tag k="highway" v="residential"/>
    <tag k="name" v="West 600  North"/>
    <tag k="tiger:cfcc" v="A41"/>
    <tag k="tiger:county" v="Washington, UT"/>
    <tag k="tiger:name_base" v="600"/>
    <tag k="tiger:name_direction_prefix" v="W"/>
    <tag k="tiger:name_direction_suffix" v="N"/>
    <tag k="tiger:reviewed" v="no"/>
    <tag k="tiger:separated" v="no"/>
    <tag k="tiger:source" v="tiger_import_dch_v0.6_20070830"/>
    <tag k="tiger:tlid" v="166166750:166166752:166166753:166166746:166166748"/>
    <tag k="tiger:zip_left" v="84770"/>
    <tag k="tiger:zip_right" v="84770"/>
  </way>
  <way id="52974607" version="3" timestamp="2010-12-27T23:55:38Z" uid="341359" user="jackwiplock" changeset="6783694">
    <nd ref="84298410"/>
    <nd ref="1068551159"/>
    <nd ref="84298412"/>
    <nd ref="84298414"/>
    <tag k="highway" v="residential"/>
    <tag k="name" v="West 600  North"/>
    <tag k="tiger:cfcc" v="A41"/>
    <tag k="tiger:county" v="Washington, UT"/>
    <tag k="tiger:name_base" v="600"/>
    <tag k="tiger:name_direction_prefix" v="W"/>
    <tag k="tiger:name_direction_suffix" v="N"/>
    <tag k="tiger:separated" v="no"/>
    <tag k="tiger:source" v="tiger_import_dch_v0.6_20070830"/>
    <tag k="tiger:tlid" v="166166750:166166752:166166753:166166746:166166748"/>
    <tag k="tiger:zip_left" v="84770"/>
    <tag k="tiger:zip_right" v="84770"/>
  </way>
  <way id="52974624" version="2" timestamp="2010-07-06T10:51:31Z" uid="74617" user="JohnSmith" changeset="5147679">
    <nd ref="671131791"/>
    <nd ref="671131795"/>
    <nd ref="670140604"/>
    <nd ref="670140603"/>
    <tag k="highway" v="residential"/>
    <tag k="maxspeed" v="50"/>
    <tag k="maxspeed:source" v="default residential speed limit in Australia"/>
    <tag k="name" v="Democracy Way"/>
  </way>
  <way id="52974624" version="3" timestamp="2012-01-20T04:23:14Z" uid="147510" user="woodpeck_fixbot" changeset="10442986">
    <nd ref="671131791"/>
    <nd ref="671131795"/>
    <nd ref="670140604"/>
    <nd ref="670140603"/>
    <tag k="highway" v="residential"/>
    <tag k="name" v="Democracy Way"/>
  </way>
  <way id="52974659" version="2" timestamp="2010-06-23T04:14:25Z" uid="4467" user="Rosscoe" changeset="5056147">
    <nd ref="671131773"/>
    <nd ref="671131774"/>
    <nd ref="671131776"/>
    <nd ref="671131731"/>
    <nd ref="671131760"/>
    <nd ref="671131787"/>
    <nd ref="671131788"/>
    <nd ref="671131789"/>
    <nd ref="671131790"/>
    <nd ref="671131791"/>
    <nd ref="671131777"/>
    <nd ref="671131778"/>
    <nd ref="671131773"/>
    <tag k="highway" v="residential"/>
    <tag k="junction" v="roundabout"/>
    <tag k="name" v="Democracy Way"/>
  </way>
  <way id="52974659" version="3" timestamp="2010-07-06T10:47:34Z" uid="74617" user="JohnSmith" changeset="5147679">
    <nd ref="671131773"/>
    <nd ref="671131774"/>
    <nd ref="671131776"/>
    <nd ref="671131731"/>
    <nd ref="671131760"/>
    <nd ref="671131787"/>
    <nd ref="671131788"/>
    <nd ref="671131789"/>
    <nd ref="671131790"/>
    <nd ref="671131791"/>
    <nd ref="671131777"/>
    <nd ref="671131778"/>
    <nd ref="671131773"/>
    <tag k="highway" v="residential"/>
    <tag k="junction" v="roundabout"/>
    <tag k="maxspeed" v="50"/>
    <tag k="maxspeed:source" v="default residential speed limit in Australia"/>
    <tag k="name" v="Democracy Way"/>
  </way>
  <way id="52974659" version="4" timestamp="2012-01-20T04:23:15Z" uid="147510" user="woodpeck_fixbot" changeset="10442986">
    <nd ref="671131773"/>
    <nd ref="671131774"/>
    <nd ref="671131776"/>
    <nd ref="671131731"/>
    <nd ref="671131760"/>
    <nd ref="671131787"/>
    <nd ref="671131788"/>
    <nd ref="671131789"/>
    <nd ref="671131790"/>
    <nd ref="671131791"/>
    <nd ref="671131777"/>
    <nd ref="671131778"/>
    <nd ref="671131773"/>
    <tag k="highway" v="residential"/>
    <tag k="junction" v="roundabout"/>
    <tag k="name" v="Democracy Way"/>
  </way>
  <way id="52974685" version="1" timestamp="2010-03-21T04:00:57Z" uid="7617" user="Franc" changeset="4187179">
    <nd ref="671132023"/>
    <nd ref="671132029"/>
    <nd ref="671132030"/>
    <nd ref="671132025"/>
    <nd ref="671132014"/>
    <nd ref="671132019"/>
    <nd ref="671132020"/>
    <nd ref="671132022"/>
    <nd ref="671132023"/>
    <tag k="leisure" v="park"/>
    <tag k="source" v="nearmap"/>
  </way>
  <way id="52974685" version="2" timestamp="2010-04-15T09:59:31Z" uid="7617" user="Franc" changeset="4429510">
    <nd ref="671132023"/>
    <nd ref="671132029"/>
    <nd ref="671132030"/>
    <nd ref="671132025"/>
    <nd ref="671132014"/>
    <nd ref="671132019"/>
    <nd ref="671132020"/>
    <nd ref="671132022"/>
    <nd ref="671132023"/>
    <tag k="leisure" v="park"/>
    <tag k="name" v="Ceres Reserve"/>
    <tag k="source" v="nearmap"/>
    <tag k="source:name" v="survey"/>
  </way>
  <way id="52974686" version="1" timestamp="2010-03-21T04:00:57Z" uid="7617" user="Franc" changeset="4187179">
    <nd ref="671132012"/>
    <nd ref="671132013"/>
    <tag k="highway" v="footway"/>
    <tag k="source" v="nearmap"/>
  </way>
  <way id="52974687" version="1" timestamp="2010-03-21T04:00:58Z" uid="7617" user="Franc" changeset="4187179">
    <nd ref="671132026"/>
    <nd ref="671132027"/>
    <tag k="highway" v="footway"/>
    <tag k="source" v="nearmap"/>
  </way>
  <way id="52974757" version="2" timestamp="2010-04-07T14:37:10Z" uid="20587" user="balrog-kun" changeset="4353646">
    <nd ref="606153523"/>
    <nd ref="477847742"/>
    <nd ref="606153498"/>
    <nd ref="598766156"/>
    <nd ref="598766157"/>
    <nd ref="477847749"/>
    <nd ref="477847755"/>
    <nd ref="606153496"/>
    <nd ref="477847773"/>
    <tag k="highway" v="tertiary"/>
    <tag k="name" v="Farm-to-Market Road 1093"/>
    <tag k="name_1" v="Farm-to-Market 1093 Rd;Farm-to-Market Road 1093"/>
    <tag k="oneway" v="yes"/>
    <tag k="tiger:cfcc" v="A41;A45"/>
    <tag k="tiger:county" v="Fort Bend, TX;Harris, TX"/>
    <tag k="tiger:name_base" v="Westheimer"/>
    <tag k="tiger:name_base_1" v="Farm-to-Market Road 1093"/>
    <tag k="tiger:name_base_2" v="FM 1093"/>
    <tag k="tiger:name_type" v="Pky;Rd"/>
    <tag k="tiger:name_type_2" v="Rd"/>
    <tag k="tiger:reviewed" v="no"/>
    <tag k="tiger:separated" v="no;yes"/>
    <tag k="tiger:source" v="tiger_import_dch_v0.6_20070829;tiger_import_dch_v0.6_20070830"/>
    <tag k="tiger:tlid" v="78320018;96618734:96618736"/>
    <tag k="tiger:zip_left" v="77077"/>
    <tag k="tiger:zip_right" v="77042"/>
  </way>
  <way id="52974757" version="3" timestamp="2010-12-31T00:32:22Z" uid="119881" user="Clorox" changeset="6815574">
    <nd ref="606153523"/>
    <nd ref="477847742"/>
    <nd ref="606153498"/>
    <nd ref="598766156"/>
    <nd ref="598766157"/>
    <nd ref="477847749"/>
    <nd ref="477847755"/>
    <nd ref="606153496"/>
    <nd ref="477847773"/>
    <tag k="highway" v="tertiary"/>
    <tag k="name" v="Farm-to-Market Road 1093"/>
    <tag k="name_1" v="Farm-to-Market 1093 Rd;Farm-to-Market Road 1093"/>
    <tag k="oneway" v="yes"/>
    <tag k="ref" v="FM 1093"/>
    <tag k="tiger:cfcc" v="A41;A45"/>
    <tag k="tiger:county" v="Fort Bend, TX;Harris, TX"/>
    <tag k="tiger:name_base" v="Westheimer"/>
    <tag k="tiger:name_base_1" v="Farm-to-Market Road 1093"/>
    <tag k="tiger:name_base_2" v="FM 1093"/>
    <tag k="tiger:name_type" v="Pky;Rd"/>
    <tag k="tiger:name_type_2" v="Rd"/>
    <tag k="tiger:reviewed" v="no"/>
    <tag k="tiger:separated" v="no;yes"/>
    <tag k="tiger:source" v="tiger_import_dch_v0.6_20070829;tiger_import_dch_v0.6_20070830"/>
    <tag k="tiger:tlid" v="78320018;96618734:96618736"/>
    <tag k="tiger:zip_left" v="77077"/>
    <tag k="tiger:zip_right" v="77042"/>
  </way>
  <way id="52974757" version="4" timestamp="2011-03-13T06:37:52Z" uid="207745" user="NE2" changeset="7540941">
    <nd ref="606153523"/>
    <nd ref="477847742"/>
    <nd ref="606153498"/>
    <nd ref="598766156"/>
    <nd ref="598766157"/>
    <nd ref="477847749"/>
    <nd ref="477847755"/>
    <nd ref="606153496"/>
    <nd ref="477847773"/>
    <tag k="highway" v="tertiary"/>
    <tag k="oneway" v="yes"/>
    <tag k="ref" v="FM 1093"/>
    <tag k="tiger:cfcc" v="A41;A45"/>
    <tag k="tiger:county" v="Fort Bend, TX;Harris, TX"/>
    <tag k="tiger:name_base" v="Westheimer"/>
    <tag k="tiger:name_base_1" v="Farm-to-Market Road 1093"/>
    <tag k="tiger:name_base_2" v="FM 1093"/>
    <tag k="tiger:name_type" v="Pky;Rd"/>
    <tag k="tiger:name_type_2" v="Rd"/>
    <tag k="tiger:reviewed" v="no"/>
    <tag k="tiger:separated" v="no;yes"/>
    <tag k="tiger:source" v="tiger_import_dch_v0.6_20070829;tiger_import_dch_v0.6_20070830"/>
    <tag k="tiger:tlid" v="78320018;96618734:96618736"/>
    <tag k="tiger:zip_left" v="77077"/>
    <tag k="tiger:zip_right" v="77042"/>
  </way>
  <way id="52974757" version="5" timestamp="2011-03-16T00:26:14Z" uid="119881" user="Clorox" changeset="7571842">
    <nd ref="606153523"/>
    <nd ref="477847742"/>
    <nd ref="606153498"/>
    <nd ref="1203848193"/>
    <nd ref="598766156"/>
    <nd ref="598766157"/>
    <nd ref="1203848182"/>
    <nd ref="477847749"/>
    <nd ref="477847755"/>
    <nd ref="606153496"/>
    <nd ref="477847773"/>
    <tag k="highway" v="secondary"/>
    <tag k="name" v="Farm-to-Market Road 1093"/>
    <tag k="oneway" v="yes"/>
    <tag k="ref" v="FM 1093"/>
    <tag k="tiger:cfcc" v="A41;A45"/>
    <tag k="tiger:county" v="Fort Bend, TX;Harris, TX"/>
    <tag k="tiger:name_base" v="Westheimer"/>
    <tag k="tiger:name_base_1" v="Farm-to-Market Road 1093"/>
    <tag k="tiger:name_base_2" v="FM 1093"/>
    <tag k="tiger:name_type" v="Pky;Rd"/>
    <tag k="tiger:name_type_2" v="Rd"/>
    <tag k="tiger:reviewed" v="no"/>
    <tag k="tiger:separated" v="no;yes"/>
    <tag k="tiger:source" v="tiger_import_dch_v0.6_20070829;tiger_import_dch_v0.6_20070830"/>
    <tag k="tiger:tlid" v="78320018;96618734:96618736"/>
    <tag k="tiger:zip_left" v="77077"/>
    <tag k="tiger:zip_right" v="77042"/>
  </way>
  <way id="52974757" version="6" timestamp="2011-03-21T02:15:19Z" uid="119881" user="Clorox" changeset="7623701">
    <nd ref="606153523"/>
    <nd ref="477847742"/>
    <nd ref="606153498"/>
    <nd ref="1203848193"/>
    <nd ref="598766156"/>
    <nd ref="598766157"/>
    <nd ref="1203848182"/>
    <nd ref="477847749"/>
    <nd ref="477847755"/>
    <nd ref="606153496"/>
    <nd ref="477847773"/>
    <tag k="highway" v="secondary"/>
    <tag k="oneway" v="yes"/>
    <tag k="ref" v="FM 1093"/>
    <tag k="tiger:cfcc" v="A41;A45"/>
    <tag k="tiger:county" v="Fort Bend, TX;Harris, TX"/>
    <tag k="tiger:name_base" v="Westheimer"/>
    <tag k="tiger:name_base_1" v="Farm-to-Market Road 1093"/>
    <tag k="tiger:name_base_2" v="FM 1093"/>
    <tag k="tiger:name_type" v="Pky;Rd"/>
    <tag k="tiger:name_type_2" v="Rd"/>
    <tag k="tiger:reviewed" v="no"/>
    <tag k="tiger:separated" v="no;yes"/>
    <tag k="tiger:source" v="tiger_import_dch_v0.6_20070829;tiger_import_dch_v0.6_20070830"/>
    <tag k="tiger:tlid" v="78320018;96618734:96618736"/>
    <tag k="tiger:zip_left" v="77077"/>
    <tag k="tiger:zip_right" v="77042"/>
  </way>
  <way id="52974757" version="7" timestamp="2011-04-02T05:38:59Z" uid="119881" user="Clorox" changeset="7741131">
    <nd ref="606153523"/>
    <nd ref="477847742"/>
    <nd ref="606153498"/>
    <nd ref="1203848193"/>
    <nd ref="598766156"/>
    <nd ref="598766157"/>
    <nd ref="1203848182"/>
    <nd ref="477847749"/>
    <nd ref="477847755"/>
    <nd ref="606153496"/>
    <nd ref="477847773"/>
    <tag k="highway" v="primary"/>
    <tag k="oneway" v="yes"/>
    <tag k="ref" v="FM 1093"/>
    <tag k="tiger:cfcc" v="A41;A45"/>
    <tag k="tiger:county" v="Fort Bend, TX;Harris, TX"/>
    <tag k="tiger:name_base" v="Westheimer"/>
    <tag k="tiger:name_base_1" v="Farm-to-Market Road 1093"/>
    <tag k="tiger:name_base_2" v="FM 1093"/>
    <tag k="tiger:name_type" v="Pky;Rd"/>
    <tag k="tiger:name_type_2" v="Rd"/>
    <tag k="tiger:reviewed" v="no"/>
    <tag k="tiger:separated" v="no;yes"/>
    <tag k="tiger:source" v="tiger_import_dch_v0.6_20070829;tiger_import_dch_v0.6_20070830"/>
    <tag k="tiger:tlid" v="78320018;96618734:96618736"/>
    <tag k="tiger:zip_left" v="77077"/>
    <tag k="tiger:zip_right" v="77042"/>
  </way>
  <way id="52974757" version="8" timestamp="2012-02-09T06:07:49Z" uid="262151" user="ToeBee" changeset="10630859">
    <nd ref="606153523"/>
    <nd ref="477847742"/>
    <nd ref="606153498"/>
    <nd ref="1203848193"/>
    <nd ref="598766156"/>
    <nd ref="598766157"/>
    <nd ref="1203848182"/>
    <nd ref="477847749"/>
    <nd ref="477847755"/>
    <nd ref="606153496"/>
    <nd ref="477847773"/>
    <tag k="highway" v="primary"/>
    <tag k="oneway" v="yes"/>
    <tag k="ref" v="FM 1093"/>
    <tag k="tiger:cfcc" v="A41;A45"/>
    <tag k="tiger:county" v="Fort Bend, TX;Harris, TX"/>
    <tag k="tiger:name_base" v="Westheimer"/>
    <tag k="tiger:name_base_1" v="Farm-to-Market Road 1093"/>
    <tag k="tiger:name_base_2" v="FM 1093"/>
    <tag k="tiger:name_type" v="Pky;Rd"/>
    <tag k="tiger:name_type_2" v="Rd"/>
    <tag k="tiger:reviewed" v="no"/>
    <tag k="tiger:source" v="tiger_import_dch_v0.6_20070829;tiger_import_dch_v0.6_20070830"/>
    <tag k="tiger:tlid" v="78320018;96618734:96618736"/>
    <tag k="tiger:zip_left" v="77077"/>
    <tag k="tiger:zip_right" v="77042"/>
  </way>
  <way id="52974863" version="1" timestamp="2010-03-21T04:10:14Z" uid="4467" user="Rosscoe" changeset="4187196">
    <nd ref="667253463"/>
    <nd ref="671133692"/>
    <tag k="highway" v="residential"/>
    <tag k="name" v="Quinlan Crescent"/>
    <tag k="source" v="survey"/>
  </way>
  <way id="52974863" version="2" timestamp="2011-02-26T07:17:03Z" uid="79620" user="CraigRat" changeset="7397031">
    <nd ref="667253463"/>
    <nd ref="671133692"/>
    <nd ref="1173998426"/>
    <nd ref="1173998355"/>
    <nd ref="1173998547"/>
    <nd ref="1173998455"/>
    <nd ref="1173998671"/>
    <nd ref="1173998591"/>
    <tag k="highway" v="residential"/>
    <tag k="name" v="Quinlan Crescent"/>
    <tag k="source" v="survey"/>
  </way>
  <way id="52974864" version="1" timestamp="2010-03-21T04:10:14Z" uid="4467" user="Rosscoe" changeset="4187196">
    <nd ref="667253467"/>
    <nd ref="671133683"/>
    <tag k="highway" v="residential"/>
    <tag k="name" v="Fariway Crescent"/>
    <tag k="source" v="survey"/>
  </way>
  <way id="52974864" version="2" timestamp="2010-03-21T04:11:00Z" uid="4467" user="Rosscoe" changeset="4187199">
    <nd ref="667253467"/>
    <nd ref="671133770"/>
    <nd ref="671133683"/>
    <tag k="highway" v="residential"/>
    <tag k="name" v="Fariway Crescent"/>
    <tag k="source" v="survey"/>
  </way>
  <way id="52974866" version="1" timestamp="2010-03-21T04:11:00Z" uid="4467" user="Rosscoe" changeset="4187199">
    <nd ref="671133768"/>
    <nd ref="671133770"/>
    <tag k="highway" v="residential"/>
    <tag k="source" v="survey"/>
  </way>
  <way id="52974867" version="2" timestamp="2010-03-28T11:54:23Z" uid="20587" user="balrog-kun" changeset="4254597">
    <nd ref="615115425"/>
    <nd ref="671134038"/>
    <nd ref="671134041"/>
    <nd ref="65420545"/>
    <tag k="highway" v="tertiary"/>
    <tag k="name" v="Vintage Park Drive"/>
    <tag k="oneway" v="yes"/>
  </way>
  <way id="52974867" version="3" timestamp="2010-04-09T07:53:12Z" uid="14293" user="dahveed76" changeset="4370194">
    <nd ref="615115425"/>
    <nd ref="689950017"/>
    <nd ref="671134038"/>
    <nd ref="689950019"/>
    <nd ref="671134041"/>
    <nd ref="65420545"/>
    <tag k="highway" v="tertiary"/>
    <tag k="name" v="Vintage Park Drive"/>
    <tag k="oneway" v="yes"/>
  </way>
  <way id="52974872" version="2" timestamp="2010-03-28T11:54:23Z" uid="20587" user="balrog-kun" changeset="4254597">
    <nd ref="263988060"/>
    <nd ref="415207338"/>
    <nd ref="65420537"/>
    <nd ref="671134274"/>
    <nd ref="671134276"/>
    <nd ref="65420539"/>
    <nd ref="65420543"/>
    <nd ref="65420545"/>
    <tag k="highway" v="tertiary"/>
    <tag k="name" v="Marsh Drive"/>
    <tag k="tiger:cfcc" v="A41"/>
    <tag k="tiger:county" v="San Mateo, CA"/>
    <tag k="tiger:name_base" v="Marsh"/>
    <tag k="tiger:name_type" v="Dr"/>
    <tag k="tiger:separated" v="no"/>
    <tag k="tiger:source" v="tiger_import_dch_v0.6_20070809"/>
    <tag k="tiger:tlid" v="192401695"/>
    <tag k="tiger:zip_left" v="94404"/>
    <tag k="tiger:zip_right" v="94404"/>
  </way>
  <way id="52974872" version="3" timestamp="2010-04-09T07:53:55Z" uid="14293" user="dahveed76" changeset="4370194">
    <nd ref="263988060"/>
    <nd ref="415207338"/>
    <nd ref="65420537"/>
    <nd ref="689951071"/>
    <nd ref="671134274"/>
    <nd ref="671134276"/>
    <nd ref="65420539"/>
    <nd ref="65420543"/>
    <nd ref="65420545"/>
    <tag k="highway" v="tertiary"/>
    <tag k="name" v="Marsh Drive"/>
    <tag k="tiger:cfcc" v="A41"/>
    <tag k="tiger:county" v="San Mateo, CA"/>
    <tag k="tiger:name_base" v="Marsh"/>
    <tag k="tiger:name_type" v="Dr"/>
    <tag k="tiger:separated" v="no"/>
    <tag k="tiger:source" v="tiger_import_dch_v0.6_20070809"/>
    <tag k="tiger:tlid" v="192401695"/>
    <tag k="tiger:zip_left" v="94404"/>
    <tag k="tiger:zip_right" v="94404"/>
  </way>
  <way id="52974872" version="4" timestamp="2010-04-09T07:55:55Z" uid="14293" user="dahveed76" changeset="4370194">
    <nd ref="263988060"/>
    <nd ref="415207338"/>
    <nd ref="689955342"/>
    <nd ref="65420537"/>
    <nd ref="689951071"/>
    <nd ref="671134274"/>
    <nd ref="671134276"/>
    <nd ref="65420539"/>
    <nd ref="65420543"/>
    <nd ref="65420545"/>
    <tag k="highway" v="tertiary"/>
    <tag k="name" v="Marsh Drive"/>
    <tag k="tiger:cfcc" v="A41"/>
    <tag k="tiger:county" v="San Mateo, CA"/>
    <tag k="tiger:name_base" v="Marsh"/>
    <tag k="tiger:name_type" v="Dr"/>
    <tag k="tiger:separated" v="no"/>
    <tag k="tiger:source" v="tiger_import_dch_v0.6_20070809"/>
    <tag k="tiger:tlid" v="192401695"/>
    <tag k="tiger:zip_left" v="94404"/>
    <tag k="tiger:zip_right" v="94404"/>
  </way>
  <way id="52974931" version="1" timestamp="2010-03-21T04:17:13Z" uid="74617" user="JohnSmith" changeset="4187218">
    <nd ref="671136512"/>
    <nd ref="671136511"/>
    <nd ref="250196634"/>
    <nd ref="250196635"/>
    <nd ref="250196636"/>
    <nd ref="250196637"/>
    <nd ref="250196638"/>
    <nd ref="250548937"/>
    <nd ref="250548933"/>
    <tag k="highway" v="residential"/>
    <tag k="name" v="Shrapnel Road"/>
  </way>
  <way id="52974931" version="2" timestamp="2010-07-06T09:51:38Z" uid="74617" user="JohnSmith" changeset="5147679">
    <nd ref="671136512"/>
    <nd ref="671136511"/>
    <nd ref="250196634"/>
    <nd ref="250196635"/>
    <nd ref="250196636"/>
    <nd ref="250196637"/>
    <nd ref="250196638"/>
    <nd ref="250548937"/>
    <nd ref="250548933"/>
    <tag k="highway" v="residential"/>
    <tag k="maxspeed" v="50"/>
    <tag k="maxspeed:source" v="default residential speed limit in Australia"/>
    <tag k="name" v="Shrapnel Road"/>
  </way>
  <way id="52974934" version="2" timestamp="2010-07-07T08:33:47Z" uid="74617" user="JohnSmith" changeset="5156250">
    <nd ref="671136684"/>
    <nd ref="294070779"/>
    <nd ref="671136683"/>
    <tag k="highway" v="residential"/>
    <tag k="maxspeed" v="50"/>
    <tag k="maxspeed:source" v="default residential speed limit in Australia"/>
    <tag k="name" v="Nicholls Place"/>
  </way>
  <way id="52974934" version="3" timestamp="2012-01-20T04:23:16Z" uid="147510" user="woodpeck_fixbot" changeset="10442986">
    <nd ref="671136684"/>
    <nd ref="294070779"/>
    <nd ref="671136683"/>
    <tag k="highway" v="residential"/>
    <tag k="name" v="Nicholls Place"/>
  </way>
</osm>
