<?xml version='1.0' encoding='UTF-8'?>
<osm version="0.6" generator="libosmium/2.20.0">
  <way id="53016586" version="2" timestamp="2011-04-20T17:41:25Z" uid="115477" user="wowik" changeset="7918311">
    <nd ref="671497270"/>
    <nd ref="671497272"/>
    <nd ref="671497273"/>
    <nd ref="671497318"/>
    <nd ref="671497315"/>
    <nd ref="671497312"/>
    <nd ref="671497313"/>
    <nd ref="671497308"/>
    <nd ref="671497307"/>
    <nd ref="671497264"/>
    <nd ref="671497268"/>
    <nd ref="671497270"/>
    <tag k="addr:city" v="Москва"/>
    <tag k="addr:country" v="RU"/>
    <tag k="building" v="yes"/>
  </way>
  <way id="53016587" version="3" timestamp="2011-04-20T17:38:31Z" uid="115477" user="wowik" changeset="7918297">
    <nd ref="671497315"/>
    <nd ref="671497318"/>
    <nd ref="671497317"/>
    <nd ref="671497320"/>
    <nd ref="671497322"/>
    <nd ref="671497275"/>
    <nd ref="671497277"/>
    <nd ref="671497282"/>
    <nd ref="671497280"/>
    <nd ref="671497339"/>
    <nd ref="671497337"/>
    <nd ref="671497336"/>
    <nd ref="671497315"/>
    <tag k="addr:city" v="Москва"/>
    <tag k="addr:country" v="RU"/>
    <tag k="addr:housenumber" v="8/2"/>
    <tag k="addr:housenumber2" v="2/8"/>
    <tag k="addr:street" v="Мясницкая улица"/>
    <tag k="addr:street2" v="Большой Златоустинский переулок"/>
    <tag k="building" v="yes"/>
    <tag k="cladr:code" v="77000000000711900"/>
  </way>
  <way id="53016587" version="4" timestamp="2011-08-31T19:00:09Z" uid="397326" user="trolleway" changeset="9178801">
    <nd ref="671497315"/>
    <nd ref="671497318"/>
    <nd ref="671497317"/>
    <nd ref="671497320"/>
    <nd ref="671497322"/>
    <nd ref="671497275"/>
    <nd ref="671497277"/>
    <nd ref="671497282"/>
    <nd ref="671497280"/>
    <nd ref="671497339"/>
    <nd ref="671497337"/>
    <nd ref="671497336"/>
    <nd ref="671497315"/>
    <tag k="addr:city" v="Москва"/>
    <tag k="addr:country" v="RU"/>
    <tag k="addr:housenumber" v="8/2"/>
    <tag k="addr:housenumber2" v="2/8"/>
    <tag k="addr:street" v="Мясницкая улица"/>
    <tag k="addr:street2" v="Большой Златоустинский переулок"/>
    <tag k="building" v="yes"/>
    <tag k="building:levels" v="5"/>
    <tag k="cladr:code" v="77000000000711900"/>
  </way>
  <way id="53016588" version="3" timestamp="2011-04-20T17:38:43Z" uid="115477" user="wowik" changeset="7918297">
    <nd ref="671497312"/>
    <nd ref="671497323"/>
    <nd ref="671497325"/>
    <nd ref="671497299"/>
    <nd ref="671497302"/>
    <nd ref="671497303"/>
    <nd ref="671497305"/>
    <nd ref="671497308"/>
    <nd ref="671497313"/>
    <nd ref="671497312"/>
    <tag k="addr:city" v="Москва"/>
    <tag k="addr:country" v="RU"/>
    <tag k="addr:housenumber" v="4"/>
    <tag k="addr:street" v="Большой Златоустинский переулок"/>
    <tag k="building" v="yes"/>
    <tag k="cladr:code" v="77000000000702900"/>
  </way>
  <way id="53016588" version="4" timestamp="2011-12-28T14:32:14Z" uid="461969" user="Stas500" changeset="10226504">
    <nd ref="671497312"/>
    <nd ref="671497323"/>
    <nd ref="671497325"/>
    <nd ref="671497299"/>
    <nd ref="671497302"/>
    <nd ref="671497303"/>
    <nd ref="671497305"/>
    <nd ref="671497308"/>
    <nd ref="671497313"/>
    <nd ref="671497312"/>
    <tag k="addr:city" v="Москва"/>
    <tag k="addr:country" v="RU"/>
    <tag k="addr:housenumber" v="4"/>
    <tag k="addr:street" v="Большой Златоустинский переулок"/>
    <tag k="building" v="yes"/>
    <tag k="cladr:code" v="77000000000702900"/>
    <tag k="name" v="Банк Возрождение"/>
  </way>
</osm>
