<?xml version='1.0' encoding='UTF-8'?>
<osm version="0.6" generator="libosmium/2.20.0">
  <way id="53119705" version="1" timestamp="2010-03-22T20:47:19Z" uid="43967" user="railsnail" changeset="4206822">
    <nd ref="280274822"/>
    <nd ref="672403329"/>
    <nd ref="672403332"/>
    <nd ref="672403336"/>
    <nd ref="672403338"/>
    <nd ref="672403340"/>
    <tag k="highway" v="service"/>
  </way>
  <way id="53119705" version="2" timestamp="2010-03-23T20:09:36Z" uid="43967" user="railsnail" changeset="4215649">
    <nd ref="280274822"/>
    <nd ref="672403329"/>
    <nd ref="672403332"/>
    <nd ref="672403336"/>
    <nd ref="672403338"/>
    <nd ref="672403340"/>
    <tag k="addr:postcode" v="9900"/>
    <tag k="area" v="yes"/>
    <tag k="highway" v="service"/>
    <tag k="is_in" v="...,Bezirk Lienz,Tirol,Österreich,Europa"/>
    <tag k="name" v="Walter von der Vogelweide Platz"/>
    <tag k="note" v="imported from plan.at; (C)=CC-by-sa or oDBL; feel free to change if necessary"/>
    <tag k="plan_at:acad_id" v="lz616"/>
    <tag k="source" v="plan.at 2008"/>
    <tag k="uploaded_by" v="Wolfgang W. Wasserburger"/>
  </way>
  <way id="53119705" version="3" timestamp="2010-06-15T18:07:35Z" uid="70696" user="xybot" changeset="4993390">
    <nd ref="280274822"/>
    <nd ref="672403329"/>
    <nd ref="672403332"/>
    <nd ref="672403336"/>
    <nd ref="672403338"/>
    <nd ref="672403340"/>
    <tag k="addr:postcode" v="9900"/>
    <tag k="area" v="yes"/>
    <tag k="highway" v="service"/>
    <tag k="is_in" v="...,Bezirk Lienz,Tirol,Österreich,Europa"/>
    <tag k="name" v="Walter-von-der-Vogelweide-Platz"/>
    <tag k="note" v="imported from plan.at; (C)=CC-by-sa or oDBL; feel free to change if necessary"/>
    <tag k="plan_at:acad_id" v="lz616"/>
    <tag k="source" v="plan.at 2008"/>
    <tag k="uploaded_by" v="Wolfgang W. Wasserburger"/>
  </way>
  <way id="53119705" version="4" timestamp="2011-04-29T04:57:37Z" uid="45347" user="eriosw" changeset="8000389">
    <nd ref="280274822"/>
    <nd ref="672403329"/>
    <nd ref="672403332"/>
    <nd ref="672403336"/>
    <nd ref="672403338"/>
    <nd ref="672403340"/>
    <tag k="addr:postcode" v="9900"/>
    <tag k="area" v="yes"/>
    <tag k="highway" v="service"/>
    <tag k="is_in" v="Lienz,Lienz,Tirol,Österreich,Europe"/>
    <tag k="name" v="Walter-von-der-Vogelweide-Platz"/>
    <tag k="note" v="imported from plan.at; (C)=CC-by-sa or oDBL; feel free to change if necessary"/>
    <tag k="plan_at:acad_id" v="lz616"/>
    <tag k="source" v="plan.at 2008"/>
    <tag k="uploaded_by" v="Wolfgang W. Wasserburger"/>
  </way>
  <way id="53119705" version="5" timestamp="2011-05-12T18:16:00Z" uid="45347" user="eriosw" changeset="8124781">
    <nd ref="280274822"/>
    <nd ref="672403329"/>
    <nd ref="672403332"/>
    <nd ref="672403336"/>
    <nd ref="672403338"/>
    <nd ref="672403340"/>
    <tag k="addr:postcode" v="9900"/>
    <tag k="highway" v="service"/>
    <tag k="is_in" v="Lienz,Lienz,Tirol,Österreich,Europe"/>
    <tag k="name" v="Walter-von-der-Vogelweide-Platz"/>
    <tag k="source" v="plan.at 2008"/>
  </way>
  <way id="53119705" version="6" timestamp="2011-07-27T10:37:10Z" uid="491845" user="data_at" changeset="8843646">
    <nd ref="280274822"/>
    <nd ref="672403329"/>
    <nd ref="672403332"/>
    <nd ref="672403336"/>
    <nd ref="672403338"/>
    <nd ref="672403340"/>
    <tag k="highway" v="service"/>
    <tag k="is_in" v="Lienz,Lienz,Tirol,Österreich,Europe"/>
    <tag k="name" v="Walter-von-der-Vogelweide-Platz"/>
    <tag k="source" v="plan.at 2008"/>
  </way>
  <way id="53119705" version="7" timestamp="2012-02-02T19:19:48Z" uid="590643" user="seppls" changeset="10570384">
    <nd ref="280274822"/>
    <nd ref="672403329"/>
    <nd ref="672403332"/>
    <nd ref="672403336"/>
    <nd ref="672403340"/>
    <tag k="highway" v="service"/>
    <tag k="is_in" v="Lienz,Lienz,Tirol,Österreich,Europe"/>
    <tag k="name" v="Walter-von-der-Vogelweide-Platz"/>
    <tag k="source" v="plan.at 2008"/>
  </way>
  <way id="53119705" version="8" timestamp="2012-03-21T08:36:11Z" uid="602215" user="gebih" changeset="11049522">
    <nd ref="1684374629"/>
    <nd ref="672403329"/>
    <nd ref="672403332"/>
    <nd ref="672403336"/>
    <nd ref="672403340"/>
    <tag k="highway" v="service"/>
    <tag k="is_in" v="Lienz,Lienz,Tirol,Österreich,Europe"/>
    <tag k="name" v="Walter-von-der-Vogelweide-Platz"/>
    <tag k="source" v="plan.at 2008"/>
  </way>
</osm>
