<?xml version='1.0' encoding='UTF-8'?>
<osm version="0.6" generator="libosmium/2.20.0">
  <way id="5313007" version="3" timestamp="2010-05-10T05:25:59Z" uid="4467" user="Rosscoe" changeset="4655990">
    <nd ref="728170851"/>
    <nd ref="250271069"/>
    <nd ref="250271097"/>
    <nd ref="250271073"/>
    <nd ref="12235470"/>
    <tag k="abutters" v="residential"/>
    <tag k="highway" v="secondary"/>
    <tag k="name" v="Kinghorne Street"/>
    <tag k="source" v="survey"/>
  </way>
  <way id="5313007" version="4" timestamp="2011-01-07T05:37:29Z" uid="30201" user="rrankin" changeset="6889578">
    <nd ref="1087790779"/>
    <nd ref="12235470"/>
    <tag k="abutters" v="residential"/>
    <tag k="highway" v="secondary"/>
    <tag k="name" v="Kinghorne Street"/>
    <tag k="source" v="survey"/>
  </way>
  <way id="5313007" version="5" timestamp="2011-04-09T03:44:49Z" uid="7617" user="Franc" changeset="7809631">
    <nd ref="1087790779"/>
    <nd ref="1238013828"/>
    <nd ref="1238013991"/>
    <nd ref="12235470"/>
    <tag k="abutters" v="residential"/>
    <tag k="highway" v="secondary"/>
    <tag k="name" v="Kinghorne Street"/>
    <tag k="oneway" v="yes"/>
    <tag k="source" v="survey"/>
  </way>
  <way id="5313012" version="4" timestamp="2010-05-10T05:25:58Z" uid="4467" user="Rosscoe" changeset="4655990">
    <nd ref="728170853"/>
    <nd ref="245812667"/>
    <nd ref="245812659"/>
    <nd ref="245812655"/>
    <nd ref="245808677"/>
    <nd ref="33474454"/>
    <nd ref="33474483"/>
    <tag k="abutters" v="residential"/>
    <tag k="highway" v="secondary"/>
    <tag k="name" v="Kinghorne Street"/>
    <tag k="source" v="survey"/>
  </way>
  <way id="5313012" version="5" timestamp="2011-04-09T04:52:45Z" uid="7617" user="Franc" changeset="7809774">
    <nd ref="728170853"/>
    <nd ref="245812667"/>
    <nd ref="245812659"/>
    <nd ref="245812655"/>
    <nd ref="245808677"/>
    <nd ref="1238038219"/>
    <nd ref="33474454"/>
    <nd ref="33474483"/>
    <tag k="abutters" v="residential"/>
    <tag k="highway" v="secondary"/>
    <tag k="name" v="Kinghorne Street"/>
    <tag k="source" v="survey"/>
  </way>
  <way id="5313018" version="2" timestamp="2007-12-16T08:54:41Z" uid="7617" user="Franc" changeset="328398">
    <nd ref="37795724"/>
    <nd ref="172736859"/>
    <nd ref="37796138"/>
    <tag k="created_by" v="Potlatch alpha"/>
    <tag k="highway" v="residential"/>
  </way>
  <way id="5313018" version="3" timestamp="2007-12-29T21:40:10Z" uid="20949" user="Ebenezer" changeset="468435">
    <nd ref="37795724"/>
    <nd ref="172736859"/>
    <nd ref="37796138"/>
    <tag k="created_by" v="Potlatch 0.6"/>
    <tag k="highway" v="residential"/>
    <tag k="name" v="Pembroke Street"/>
  </way>
  <way id="5313018" version="4" timestamp="2010-07-08T02:39:15Z" uid="74617" user="JohnSmith" changeset="5163091">
    <nd ref="37795724"/>
    <nd ref="172736859"/>
    <nd ref="37796138"/>
    <tag k="highway" v="residential"/>
    <tag k="maxspeed" v="50"/>
    <tag k="maxspeed:source" v="default residential speed limit in Australia"/>
    <tag k="name" v="Pembroke Street"/>
  </way>
  <way id="5313018" version="5" timestamp="2012-01-15T05:35:59Z" uid="147510" user="woodpeck_fixbot" changeset="10394551">
    <nd ref="37795724"/>
    <nd ref="172736859"/>
    <nd ref="37796138"/>
    <tag k="highway" v="residential"/>
    <tag k="name" v="Pembroke Street"/>
  </way>
  <way id="5313018" version="6" timestamp="2012-03-24T21:38:48Z" uid="20949" user="Ebenezer" changeset="11089261">
    <nd ref="1689329564"/>
    <nd ref="172736859"/>
    <nd ref="37796138"/>
    <tag k="highway" v="residential"/>
    <tag k="name" v="Pembroke Street"/>
  </way>
  <way id="5313072" version="6" timestamp="2010-02-16T10:59:24Z" uid="7617" user="Franc" changeset="3891079">
    <nd ref="37796185"/>
    <nd ref="619055641"/>
    <nd ref="641297275"/>
    <nd ref="619055668"/>
    <nd ref="37798378"/>
    <nd ref="37796138"/>
    <nd ref="29942587"/>
    <nd ref="29942588"/>
    <tag k="cycleway" v="lane"/>
    <tag k="highway" v="residential"/>
    <tag k="lcn" v="yes"/>
    <tag k="name" v="Orpington Street"/>
  </way>
  <way id="5313072" version="7" timestamp="2010-07-08T02:34:48Z" uid="74617" user="JohnSmith" changeset="5163091">
    <nd ref="37796185"/>
    <nd ref="619055641"/>
    <nd ref="641297275"/>
    <nd ref="619055668"/>
    <nd ref="37798378"/>
    <nd ref="37796138"/>
    <nd ref="29942587"/>
    <nd ref="29942588"/>
    <tag k="cycleway" v="lane"/>
    <tag k="highway" v="residential"/>
    <tag k="lcn" v="yes"/>
    <tag k="maxspeed" v="50"/>
    <tag k="maxspeed:source" v="default residential speed limit in Australia"/>
    <tag k="name" v="Orpington Street"/>
  </way>
  <way id="5313072" version="8" timestamp="2012-01-15T05:36:00Z" uid="147510" user="woodpeck_fixbot" changeset="10394551">
    <nd ref="37796185"/>
    <nd ref="619055641"/>
    <nd ref="641297275"/>
    <nd ref="619055668"/>
    <nd ref="37798378"/>
    <nd ref="37796138"/>
    <nd ref="29942587"/>
    <nd ref="29942588"/>
    <tag k="cycleway" v="lane"/>
    <tag k="highway" v="residential"/>
    <tag k="lcn" v="yes"/>
    <tag k="name" v="Orpington Street"/>
  </way>
  <way id="5313124" version="3" timestamp="2010-07-08T02:41:24Z" uid="74617" user="JohnSmith" changeset="5163091">
    <nd ref="37797063"/>
    <nd ref="37797304"/>
    <nd ref="37797305"/>
    <nd ref="37797307"/>
    <tag k="highway" v="residential"/>
    <tag k="maxspeed" v="50"/>
    <tag k="maxspeed:source" v="default residential speed limit in Australia"/>
    <tag k="name" v="Oak Street"/>
  </way>
  <way id="5313124" version="4" timestamp="2012-01-15T05:36:01Z" uid="147510" user="woodpeck_fixbot" changeset="10394551">
    <nd ref="37797063"/>
    <nd ref="37797304"/>
    <nd ref="37797305"/>
    <nd ref="37797307"/>
    <tag k="highway" v="residential"/>
    <tag k="name" v="Oak Street"/>
  </way>
  <way id="5313165" version="3" timestamp="2008-04-25T08:09:20Z" uid="7617" user="Franc" changeset="253937">
    <nd ref="37797305"/>
    <nd ref="259760935"/>
    <tag k="created_by" v="Potlatch 0.6"/>
    <tag k="highway" v="service"/>
  </way>
  <way id="5313165" version="4" timestamp="2010-12-27T10:16:56Z" uid="7617" user="Franc" changeset="6775930">
    <nd ref="37797305"/>
    <nd ref="259760935"/>
    <tag k="fixme:sign:no" v="2010-12-27"/>
    <tag k="highway" v="service"/>
  </way>
  <way id="5313256" version="4" timestamp="2010-07-08T02:40:56Z" uid="74617" user="JohnSmith" changeset="5163091">
    <nd ref="37798378"/>
    <nd ref="37798542"/>
    <nd ref="37798543"/>
    <tag k="highway" v="residential"/>
    <tag k="lcn" v="yes"/>
    <tag k="maxspeed" v="50"/>
    <tag k="maxspeed:source" v="default residential speed limit in Australia"/>
    <tag k="name" v="Loftus Street"/>
  </way>
  <way id="5313256" version="5" timestamp="2012-01-15T05:36:02Z" uid="147510" user="woodpeck_fixbot" changeset="10394551">
    <nd ref="37798378"/>
    <nd ref="37798542"/>
    <nd ref="37798543"/>
    <tag k="highway" v="residential"/>
    <tag k="lcn" v="yes"/>
    <tag k="name" v="Loftus Street"/>
  </way>
  <way id="5313280" version="3" timestamp="2010-07-08T02:38:05Z" uid="74617" user="JohnSmith" changeset="5163091">
    <nd ref="37798542"/>
    <nd ref="37798737"/>
    <tag k="highway" v="residential"/>
    <tag k="maxspeed" v="50"/>
    <tag k="maxspeed:source" v="default residential speed limit in Australia"/>
    <tag k="name" v="Cecil Street"/>
  </way>
  <way id="5313280" version="4" timestamp="2012-01-15T05:36:04Z" uid="147510" user="woodpeck_fixbot" changeset="10394551">
    <nd ref="37798542"/>
    <nd ref="37798737"/>
    <tag k="highway" v="residential"/>
    <tag k="name" v="Cecil Street"/>
  </way>
  <way id="5313329" version="1" timestamp="2007-09-30T06:07:15Z" uid="7617" user="Franc" changeset="537600">
    <nd ref="37790166"/>
    <nd ref="37799740"/>
    <nd ref="29942590"/>
    <tag k="created_by" v="Potlatch alpha"/>
    <tag k="highway" v="residential"/>
  </way>
  <way id="5313329" version="2" timestamp="2007-10-21T08:54:02Z" uid="7617" user="Franc" changeset="271561">
    <nd ref="37790166"/>
    <nd ref="82460834"/>
    <nd ref="37799740"/>
    <nd ref="29942590"/>
    <tag k="created_by" v="Potlatch alpha"/>
    <tag k="highway" v="residential"/>
  </way>
  <way id="5313329" version="3" timestamp="2007-12-18T11:14:13Z" uid="20949" user="Ebenezer" changeset="354245">
    <nd ref="37790166"/>
    <nd ref="82460834"/>
    <nd ref="37799740"/>
    <nd ref="29942590"/>
    <tag k="created_by" v="Potlatch 0.5d"/>
    <tag k="highway" v="residential"/>
    <tag k="name" v="Bland Street"/>
  </way>
  <way id="5313329" version="4" timestamp="2007-12-29T21:17:58Z" uid="20949" user="Ebenezer" changeset="468435">
    <nd ref="37790166"/>
    <nd ref="82460834"/>
    <nd ref="196199306"/>
    <nd ref="37799740"/>
    <nd ref="29942590"/>
    <tag k="created_by" v="Potlatch 0.6"/>
    <tag k="highway" v="residential"/>
    <tag k="name" v="Bland Street"/>
  </way>
  <way id="5313329" version="5" timestamp="2008-02-09T02:02:47Z" uid="20949" user="Ebenezer" changeset="82240">
    <nd ref="37790166"/>
    <nd ref="82460834"/>
    <nd ref="196199306"/>
    <nd ref="37799740"/>
    <nd ref="29942590"/>
    <tag k="created_by" v="Potlatch 0.7"/>
    <tag k="highway" v="tertiary"/>
    <tag k="name" v="Bland Street"/>
  </way>
  <way id="5313329" version="6" timestamp="2008-02-16T21:37:56Z" uid="20949" user="Ebenezer" changeset="135557">
    <nd ref="37790166"/>
    <nd ref="82460834"/>
    <nd ref="247936689"/>
    <nd ref="196199306"/>
    <nd ref="37799740"/>
    <nd ref="29942590"/>
    <tag k="created_by" v="Potlatch 0.7b"/>
    <tag k="highway" v="tertiary"/>
    <tag k="name" v="Bland Street"/>
  </way>
  <way id="5313329" version="7" timestamp="2010-04-10T22:26:28Z" uid="20949" user="Ebenezer" changeset="4388082">
    <nd ref="37790166"/>
    <nd ref="82460834"/>
    <nd ref="247936689"/>
    <nd ref="196199306"/>
    <nd ref="37799740"/>
    <tag k="highway" v="tertiary"/>
    <tag k="name" v="Bland Street"/>
  </way>
  <way id="5313415" version="1" timestamp="2007-09-30T06:11:41Z" uid="7617" user="Franc" changeset="537600">
    <nd ref="37790428"/>
    <nd ref="37803205"/>
    <nd ref="37801597"/>
    <nd ref="37801427"/>
    <nd ref="37802184"/>
    <nd ref="37799267"/>
    <nd ref="37800670"/>
    <nd ref="29942357"/>
    <tag k="created_by" v="Potlatch alpha"/>
    <tag k="highway" v="residential"/>
  </way>
  <way id="5313415" version="2" timestamp="2007-10-21T08:54:03Z" uid="7617" user="Franc" changeset="271561">
    <nd ref="37790428"/>
    <nd ref="37803205"/>
    <nd ref="37801597"/>
    <nd ref="37801427"/>
    <nd ref="37802184"/>
    <nd ref="82460828"/>
    <nd ref="37799267"/>
    <nd ref="37800670"/>
    <nd ref="29942357"/>
    <tag k="created_by" v="Potlatch alpha"/>
    <tag k="highway" v="residential"/>
    <tag k="name" v="Alt Street"/>
    <tag k="source:name" v="survey"/>
  </way>
  <way id="5313415" version="3" timestamp="2007-12-29T21:19:08Z" uid="20949" user="Ebenezer" changeset="468435">
    <nd ref="37790428"/>
    <nd ref="37803205"/>
    <nd ref="37801597"/>
    <nd ref="37801427"/>
    <nd ref="196200782"/>
    <nd ref="37802184"/>
    <nd ref="82460828"/>
    <nd ref="37799267"/>
    <nd ref="37800670"/>
    <nd ref="29942357"/>
    <tag k="created_by" v="Potlatch 0.6"/>
    <tag k="highway" v="residential"/>
    <tag k="name" v="Alt Street"/>
    <tag k="source:name" v="survey"/>
  </way>
  <way id="5313415" version="4" timestamp="2007-12-29T21:32:29Z" uid="20949" user="Ebenezer" changeset="468435">
    <nd ref="37790428"/>
    <nd ref="37803205"/>
    <nd ref="37801597"/>
    <nd ref="37801427"/>
    <nd ref="196200782"/>
    <nd ref="37802184"/>
    <nd ref="82460828"/>
    <nd ref="37799267"/>
    <nd ref="37800670"/>
    <nd ref="29942357"/>
    <tag k="created_by" v="Potlatch 0.6"/>
    <tag k="highway" v="residential"/>
    <tag k="name" v="Alt Street"/>
    <tag k="source" v="survey"/>
  </way>
  <way id="5313415" version="5" timestamp="2008-10-13T10:27:23Z" uid="20949" user="Ebenezer" changeset="309393">
    <nd ref="37790428"/>
    <nd ref="37803205"/>
    <nd ref="37801597"/>
    <nd ref="304225413"/>
    <nd ref="37801427"/>
    <nd ref="196200782"/>
    <nd ref="37802184"/>
    <nd ref="82460828"/>
    <nd ref="37799267"/>
    <nd ref="37800670"/>
    <nd ref="29942357"/>
    <tag k="created_by" v="Potlatch 0.10e"/>
    <tag k="highway" v="residential"/>
    <tag k="name" v="Alt Street"/>
    <tag k="source" v="survey"/>
  </way>
  <way id="5313415" version="6" timestamp="2009-01-12T06:15:13Z" uid="20949" user="Ebenezer" changeset="777480">
    <nd ref="37790428"/>
    <nd ref="37803205"/>
    <nd ref="37801597"/>
    <nd ref="304225413"/>
    <nd ref="37801427"/>
    <nd ref="196200782"/>
    <nd ref="37802184"/>
    <nd ref="82460828"/>
    <nd ref="37799267"/>
    <nd ref="37800670"/>
    <nd ref="331391524"/>
    <nd ref="29942357"/>
    <tag k="created_by" v="Potlatch 0.10f"/>
    <tag k="highway" v="residential"/>
    <tag k="name" v="Alt Street"/>
    <tag k="source" v="survey"/>
  </way>
  <way id="5313415" version="7" timestamp="2009-01-12T06:15:46Z" uid="20949" user="Ebenezer" changeset="777480">
    <nd ref="37790428"/>
    <nd ref="37803205"/>
    <nd ref="37801597"/>
    <nd ref="304225413"/>
    <nd ref="37801427"/>
    <nd ref="196200782"/>
    <nd ref="37802184"/>
    <nd ref="82460828"/>
    <nd ref="37799267"/>
    <nd ref="37800670"/>
    <nd ref="331391524"/>
    <nd ref="331391576"/>
    <nd ref="29942357"/>
    <tag k="created_by" v="Potlatch 0.10f"/>
    <tag k="highway" v="residential"/>
    <tag k="name" v="Alt Street"/>
    <tag k="source" v="survey"/>
  </way>
  <way id="5313415" version="8" timestamp="2010-04-10T22:26:28Z" uid="20949" user="Ebenezer" changeset="4388082">
    <nd ref="37790428"/>
    <nd ref="37803205"/>
    <nd ref="37801597"/>
    <nd ref="304225413"/>
    <nd ref="37801427"/>
    <tag k="highway" v="residential"/>
    <tag k="name" v="Alt Street"/>
    <tag k="source" v="survey"/>
  </way>
  <way id="5313415" version="9" timestamp="2010-04-19T09:30:33Z" uid="20949" user="Ebenezer" changeset="4466225">
    <nd ref="37790428"/>
    <nd ref="37803205"/>
    <nd ref="37801597"/>
    <nd ref="304225413"/>
    <nd ref="37801427"/>
    <tag k="highway" v="residential"/>
    <tag k="lcn" v="yes"/>
    <tag k="name" v="Alt Street"/>
    <tag k="source" v="survey"/>
  </way>
  <way id="5313415" version="10" timestamp="2010-07-08T02:35:40Z" uid="74617" user="JohnSmith" changeset="5163091">
    <nd ref="37790428"/>
    <nd ref="37803205"/>
    <nd ref="37801597"/>
    <nd ref="304225413"/>
    <nd ref="37801427"/>
    <tag k="highway" v="residential"/>
    <tag k="lcn" v="yes"/>
    <tag k="maxspeed" v="50"/>
    <tag k="maxspeed:source" v="default residential speed limit in Australia"/>
    <tag k="name" v="Alt Street"/>
    <tag k="source" v="survey"/>
  </way>
  <way id="5313415" version="11" timestamp="2012-01-15T05:36:06Z" uid="147510" user="woodpeck_fixbot" changeset="10394551">
    <nd ref="37790428"/>
    <nd ref="37803205"/>
    <nd ref="37801597"/>
    <nd ref="304225413"/>
    <nd ref="37801427"/>
    <tag k="highway" v="residential"/>
    <tag k="lcn" v="yes"/>
    <tag k="name" v="Alt Street"/>
    <tag k="source" v="survey"/>
  </way>
  <way id="5313506" version="1" timestamp="2007-09-30T06:10:07Z" uid="7617" user="Franc" changeset="537600">
    <nd ref="37801323"/>
    <nd ref="37801427"/>
    <tag k="created_by" v="Potlatch alpha"/>
    <tag k="highway" v="residential"/>
  </way>
  <way id="5313506" version="2" timestamp="2007-10-21T08:54:02Z" uid="7617" user="Franc" changeset="271561">
    <nd ref="37801323"/>
    <nd ref="82460834"/>
    <tag k="created_by" v="Potlatch alpha"/>
    <tag k="highway" v="residential"/>
    <tag k="name" v="Julia Street"/>
    <tag k="source:name" v="survey"/>
  </way>
  <way id="5313506" version="3" timestamp="2010-04-19T09:30:30Z" uid="20949" user="Ebenezer" changeset="4466225">
    <nd ref="37801323"/>
    <nd ref="82460834"/>
    <tag k="highway" v="residential"/>
    <tag k="lcn" v="yes"/>
    <tag k="name" v="Julia Street"/>
    <tag k="source:name" v="survey"/>
  </way>
  <way id="5313506" version="4" timestamp="2010-07-08T02:32:23Z" uid="74617" user="JohnSmith" changeset="5163091">
    <nd ref="37801323"/>
    <nd ref="82460834"/>
    <tag k="highway" v="residential"/>
    <tag k="lcn" v="yes"/>
    <tag k="maxspeed" v="50"/>
    <tag k="maxspeed:source" v="default residential speed limit in Australia"/>
    <tag k="name" v="Julia Street"/>
    <tag k="source:name" v="survey"/>
  </way>
  <way id="5313506" version="5" timestamp="2012-01-15T05:36:07Z" uid="147510" user="woodpeck_fixbot" changeset="10394551">
    <nd ref="37801323"/>
    <nd ref="82460834"/>
    <tag k="highway" v="residential"/>
    <tag k="lcn" v="yes"/>
    <tag k="name" v="Julia Street"/>
    <tag k="source:name" v="survey"/>
  </way>
  <way id="5313524" version="3" timestamp="2010-07-08T02:40:37Z" uid="74617" user="JohnSmith" changeset="5163091">
    <nd ref="37798366"/>
    <nd ref="37801583"/>
    <tag k="highway" v="residential"/>
    <tag k="maxspeed" v="50"/>
    <tag k="maxspeed:source" v="default residential speed limit in Australia"/>
    <tag k="name" v="Curt Street"/>
  </way>
  <way id="5313524" version="4" timestamp="2012-01-15T05:36:09Z" uid="147510" user="woodpeck_fixbot" changeset="10394551">
    <nd ref="37798366"/>
    <nd ref="37801583"/>
    <tag k="highway" v="residential"/>
    <tag k="name" v="Curt Street"/>
  </way>
  <way id="5313540" version="1" timestamp="2007-09-30T06:03:01Z" uid="7617" user="Franc" changeset="537600">
    <nd ref="37801597"/>
    <nd ref="37802763"/>
    <nd ref="37801843"/>
    <nd ref="37802491"/>
    <nd ref="37801967"/>
    <nd ref="37801844"/>
    <nd ref="37801845"/>
    <nd ref="37801848"/>
    <nd ref="37801849"/>
    <tag k="created_by" v="Potlatch alpha"/>
    <tag k="highway" v="residential"/>
  </way>
  <way id="5313540" version="2" timestamp="2007-10-21T08:53:57Z" uid="7617" user="Franc" changeset="271561">
    <nd ref="37801597"/>
    <nd ref="37802763"/>
    <nd ref="37801843"/>
    <nd ref="37802491"/>
    <nd ref="37801967"/>
    <nd ref="37801844"/>
    <nd ref="37801845"/>
    <nd ref="37801848"/>
    <nd ref="37801849"/>
    <tag k="created_by" v="Potlatch alpha"/>
    <tag k="highway" v="residential"/>
    <tag k="name" v="Henry Street"/>
    <tag k="source:name" v="survey"/>
  </way>
  <way id="5313540" version="3" timestamp="2007-12-11T06:29:51Z" uid="7617" user="Franc" changeset="251097">
    <nd ref="37801597"/>
    <nd ref="37802763"/>
    <nd ref="161304905"/>
    <nd ref="37801843"/>
    <nd ref="37802491"/>
    <nd ref="37801967"/>
    <nd ref="37801844"/>
    <nd ref="161304919"/>
    <nd ref="37801845"/>
    <nd ref="37801848"/>
    <nd ref="37801849"/>
    <tag k="created_by" v="Potlatch alpha"/>
    <tag k="highway" v="residential"/>
    <tag k="name" v="Henry Street"/>
    <tag k="source:name" v="survey"/>
  </way>
  <way id="5313540" version="4" timestamp="2008-02-07T19:32:42Z" uid="20949" user="Ebenezer" changeset="68208">
    <nd ref="37801597"/>
    <nd ref="37802763"/>
    <nd ref="161304905"/>
    <nd ref="37801843"/>
    <nd ref="37802491"/>
    <nd ref="37801967"/>
    <nd ref="37801844"/>
    <tag k="created_by" v="Potlatch 0.7"/>
    <tag k="highway" v="residential"/>
    <tag k="name" v="Henry Street"/>
    <tag k="source:name" v="survey"/>
  </way>
  <way id="5313540" version="5" timestamp="2008-02-07T19:32:50Z" uid="20949" user="Ebenezer" changeset="68208">
    <nd ref="37801597"/>
    <nd ref="37802763"/>
    <nd ref="161304905"/>
    <nd ref="37801843"/>
    <nd ref="37802491"/>
    <nd ref="37801967"/>
    <nd ref="37801844"/>
    <nd ref="246531319"/>
    <tag k="created_by" v="Potlatch 0.7"/>
    <tag k="highway" v="residential"/>
    <tag k="name" v="Henry Street"/>
    <tag k="source:name" v="survey"/>
  </way>
  <way id="5313540" version="6" timestamp="2008-02-07T19:33:29Z" uid="20949" user="Ebenezer" changeset="68208">
    <nd ref="37801597"/>
    <nd ref="37802763"/>
    <nd ref="161304905"/>
    <nd ref="37801843"/>
    <nd ref="37802491"/>
    <nd ref="37801967"/>
    <nd ref="37801844"/>
    <nd ref="246531319"/>
    <tag k="created_by" v="Potlatch 0.7"/>
    <tag k="highway" v="residential"/>
    <tag k="name" v="Henry Street"/>
    <tag k="source" v="survey"/>
  </way>
  <way id="5313540" version="7" timestamp="2008-06-24T10:16:10Z" uid="46263" user="mostro900" changeset="288277">
    <nd ref="37801597"/>
    <nd ref="37802763"/>
    <nd ref="161304905"/>
    <nd ref="37801843"/>
    <nd ref="37802491"/>
    <nd ref="37801967"/>
    <nd ref="37801844"/>
    <nd ref="246531319"/>
    <nd ref="37801844"/>
    <tag k="created_by" v="Potlatch 0.9c"/>
    <tag k="highway" v="residential"/>
    <tag k="name" v="Henry Street"/>
    <tag k="source" v="survey"/>
  </way>
  <way id="5313540" version="8" timestamp="2008-09-16T00:53:06Z" uid="30201" user="rrankin" changeset="645396">
    <nd ref="37801597"/>
    <nd ref="37802763"/>
    <nd ref="161304905"/>
    <nd ref="37801843"/>
    <nd ref="37802491"/>
    <nd ref="37801967"/>
    <nd ref="37801844"/>
    <tag k="created_by" v="Potlatch 0.9c"/>
    <tag k="highway" v="residential"/>
    <tag k="name" v="Henry Street"/>
    <tag k="source" v="survey"/>
  </way>
  <way id="5313540" version="9" timestamp="2010-07-08T02:36:43Z" uid="74617" user="JohnSmith" changeset="5163091">
    <nd ref="37801597"/>
    <nd ref="37802763"/>
    <nd ref="161304905"/>
    <nd ref="37801843"/>
    <nd ref="37802491"/>
    <nd ref="37801967"/>
    <nd ref="37801844"/>
    <tag k="highway" v="residential"/>
    <tag k="maxspeed" v="50"/>
    <tag k="maxspeed:source" v="default residential speed limit in Australia"/>
    <tag k="name" v="Henry Street"/>
    <tag k="source" v="survey"/>
  </way>
  <way id="5313540" version="10" timestamp="2010-09-23T10:08:49Z" uid="7617" user="Franc" changeset="5852751">
    <nd ref="37801597"/>
    <nd ref="37802763"/>
    <nd ref="161304905"/>
    <nd ref="37801843"/>
    <nd ref="37802491"/>
    <nd ref="37801967"/>
    <nd ref="922434792"/>
    <nd ref="37801844"/>
    <tag k="highway" v="residential"/>
    <tag k="maxspeed" v="50"/>
    <tag k="maxspeed:source" v="default residential speed limit in Australia"/>
    <tag k="name" v="Henry Street"/>
    <tag k="source" v="survey"/>
  </way>
  <way id="5313540" version="11" timestamp="2012-01-15T05:36:10Z" uid="147510" user="woodpeck_fixbot" changeset="10394551">
    <nd ref="37801597"/>
    <nd ref="37802763"/>
    <nd ref="161304905"/>
    <nd ref="37801843"/>
    <nd ref="37802491"/>
    <nd ref="37801967"/>
    <nd ref="922434792"/>
    <nd ref="37801844"/>
    <tag k="highway" v="residential"/>
    <tag k="name" v="Henry Street"/>
    <tag k="source" v="survey"/>
  </way>
  <way id="5313540" version="12" timestamp="2012-02-05T10:20:30Z" uid="20949" user="Ebenezer" changeset="10591508">
    <nd ref="37801597"/>
    <nd ref="37802763"/>
    <nd ref="1618729302"/>
    <nd ref="37801843"/>
    <nd ref="37802491"/>
    <nd ref="37801967"/>
    <nd ref="922434792"/>
    <nd ref="37801844"/>
    <tag k="highway" v="residential"/>
    <tag k="name" v="Henry Street"/>
    <tag k="source" v="survey"/>
  </way>
  <way id="5313563" version="3" timestamp="2010-05-09T08:13:08Z" uid="7617" user="Franc" changeset="4645557">
    <nd ref="37801843"/>
    <nd ref="727188875"/>
    <nd ref="37801955"/>
    <tag k="highway" v="residential"/>
    <tag k="name" v="Earle Avenue"/>
  </way>
  <way id="5313563" version="4" timestamp="2010-07-08T02:38:41Z" uid="74617" user="JohnSmith" changeset="5163091">
    <nd ref="37801843"/>
    <nd ref="727188875"/>
    <nd ref="37801955"/>
    <tag k="highway" v="residential"/>
    <tag k="maxspeed" v="50"/>
    <tag k="maxspeed:source" v="default residential speed limit in Australia"/>
    <tag k="name" v="Earle Avenue"/>
  </way>
  <way id="5313563" version="5" timestamp="2011-06-03T09:39:38Z" uid="7617" user="Franc" changeset="8327641">
    <nd ref="37801843"/>
    <nd ref="1309977415"/>
    <nd ref="37801955"/>
    <tag k="highway" v="residential"/>
    <tag k="maxspeed" v="50"/>
    <tag k="maxspeed:source" v="default residential speed limit in Australia"/>
    <tag k="name" v="Earle Avenue"/>
  </way>
  <way id="5313563" version="6" timestamp="2012-01-15T05:36:12Z" uid="147510" user="woodpeck_fixbot" changeset="10394551">
    <nd ref="37801843"/>
    <nd ref="1309977415"/>
    <nd ref="37801955"/>
    <tag k="highway" v="residential"/>
    <tag k="name" v="Earle Avenue"/>
  </way>
  <way id="5313590" version="1" timestamp="2007-09-30T06:01:48Z" uid="7617" user="Franc" changeset="537600">
    <nd ref="37801967"/>
    <nd ref="37802179"/>
    <tag k="created_by" v="Potlatch alpha"/>
    <tag k="highway" v="residential"/>
  </way>
  <way id="5313590" version="2" timestamp="2008-02-07T19:34:35Z" uid="20949" user="Ebenezer" changeset="68208">
    <nd ref="37801967"/>
    <nd ref="37802179"/>
    <tag k="created_by" v="Potlatch 0.7"/>
    <tag k="highway" v="residential"/>
    <tag k="name" v="Page Avenue"/>
  </way>
  <way id="5313590" version="3" timestamp="2008-09-27T05:08:44Z" uid="7617" user="Franc" changeset="703319">
    <nd ref="37801967"/>
    <nd ref="300215751"/>
    <tag k="created_by" v="Potlatch 0.7"/>
    <tag k="highway" v="residential"/>
    <tag k="name" v="Page Avenue"/>
  </way>
  <way id="5313590" version="4" timestamp="2010-07-08T02:40:00Z" uid="74617" user="JohnSmith" changeset="5163091">
    <nd ref="37801967"/>
    <nd ref="300215751"/>
    <tag k="highway" v="residential"/>
    <tag k="maxspeed" v="50"/>
    <tag k="maxspeed:source" v="default residential speed limit in Australia"/>
    <tag k="name" v="Page Avenue"/>
  </way>
  <way id="5313590" version="5" timestamp="2012-01-15T05:36:13Z" uid="147510" user="woodpeck_fixbot" changeset="10394551">
    <nd ref="37801967"/>
    <nd ref="300215751"/>
    <tag k="highway" v="residential"/>
    <tag k="name" v="Page Avenue"/>
  </way>
  <way id="5313624" version="1" timestamp="2007-09-30T06:07:56Z" uid="7617" user="Franc" changeset="537600">
    <nd ref="37802184"/>
    <nd ref="37802931"/>
    <nd ref="37801849"/>
    <nd ref="37802478"/>
    <nd ref="37802479"/>
    <tag k="created_by" v="Potlatch alpha"/>
    <tag k="highway" v="residential"/>
  </way>
  <way id="5313624" version="2" timestamp="2007-12-11T06:29:54Z" uid="7617" user="Franc" changeset="251097">
    <nd ref="37802184"/>
    <nd ref="37802931"/>
    <nd ref="161304871"/>
    <nd ref="37801849"/>
    <nd ref="37802478"/>
    <tag k="created_by" v="Potlatch alpha"/>
    <tag k="highway" v="residential"/>
  </way>
  <way id="5313624" version="3" timestamp="2007-12-16T08:54:36Z" uid="7617" user="Franc" changeset="328398">
    <nd ref="37802184"/>
    <nd ref="37802931"/>
    <nd ref="161304871"/>
    <nd ref="172736837"/>
    <nd ref="37801849"/>
    <nd ref="37802478"/>
    <tag k="created_by" v="Potlatch alpha"/>
    <tag k="highway" v="residential"/>
  </way>
  <way id="5313624" version="4" timestamp="2007-12-27T05:54:51Z" uid="7617" user="Franc" changeset="435605">
    <nd ref="37802184"/>
    <nd ref="37802931"/>
    <nd ref="161304871"/>
    <nd ref="172736837"/>
    <tag k="created_by" v="Potlatch alpha"/>
    <tag k="highway" v="residential"/>
  </way>
  <way id="5313624" version="5" timestamp="2008-02-07T19:32:14Z" uid="20949" user="Ebenezer" changeset="68208">
    <nd ref="37802184"/>
    <nd ref="37802931"/>
    <nd ref="161304871"/>
    <nd ref="172736837"/>
    <tag k="created_by" v="Potlatch 0.7"/>
    <tag k="highway" v="residential"/>
    <tag k="name" v="Church Street"/>
  </way>
  <way id="5313624" version="6" timestamp="2008-10-05T01:19:17Z" uid="7617" user="Franc" changeset="70858">
    <nd ref="37802184"/>
    <nd ref="37802931"/>
    <nd ref="161304871"/>
    <nd ref="302151424"/>
    <nd ref="302151420"/>
    <nd ref="172736837"/>
    <tag k="created_by" v="Potlatch 0.7"/>
    <tag k="highway" v="residential"/>
    <tag k="name" v="Church Street"/>
  </way>
  <way id="5313624" version="7" timestamp="2008-10-13T10:27:12Z" uid="20949" user="Ebenezer" changeset="309393">
    <nd ref="37802184"/>
    <nd ref="304225340"/>
    <nd ref="37802931"/>
    <nd ref="161304871"/>
    <nd ref="302151424"/>
    <nd ref="302151420"/>
    <nd ref="172736837"/>
    <tag k="created_by" v="Potlatch 0.10e"/>
    <tag k="highway" v="residential"/>
    <tag k="name" v="Church Street"/>
  </way>
  <way id="5313624" version="8" timestamp="2010-04-17T21:50:41Z" uid="20949" user="Ebenezer" changeset="4452759">
    <nd ref="37802184"/>
    <nd ref="304225340"/>
    <nd ref="37802931"/>
    <nd ref="161304871"/>
    <nd ref="302151424"/>
    <nd ref="302151420"/>
    <nd ref="172736837"/>
    <tag k="highway" v="residential"/>
    <tag k="lcn" v="yes"/>
    <tag k="name" v="Church Street"/>
  </way>
  <way id="5313624" version="9" timestamp="2010-07-08T02:36:47Z" uid="74617" user="JohnSmith" changeset="5163091">
    <nd ref="37802184"/>
    <nd ref="304225340"/>
    <nd ref="37802931"/>
    <nd ref="161304871"/>
    <nd ref="302151424"/>
    <nd ref="302151420"/>
    <nd ref="172736837"/>
    <tag k="highway" v="residential"/>
    <tag k="lcn" v="yes"/>
    <tag k="maxspeed" v="50"/>
    <tag k="maxspeed:source" v="default residential speed limit in Australia"/>
    <tag k="name" v="Church Street"/>
  </way>
  <way id="5313624" version="10" timestamp="2012-01-15T05:36:14Z" uid="147510" user="woodpeck_fixbot" changeset="10394551">
    <nd ref="37802184"/>
    <nd ref="304225340"/>
    <nd ref="37802931"/>
    <nd ref="161304871"/>
    <nd ref="302151424"/>
    <nd ref="302151420"/>
    <nd ref="172736837"/>
    <tag k="highway" v="residential"/>
    <tag k="lcn" v="yes"/>
    <tag k="name" v="Church Street"/>
  </way>
  <way id="5313624" version="11" timestamp="2012-02-05T10:20:32Z" uid="20949" user="Ebenezer" changeset="10591508">
    <nd ref="37802184"/>
    <nd ref="304225340"/>
    <nd ref="37802931"/>
    <nd ref="1618729330"/>
    <nd ref="302151424"/>
    <nd ref="302151420"/>
    <nd ref="172736837"/>
    <tag k="highway" v="residential"/>
    <tag k="lcn" v="yes"/>
    <tag k="name" v="Church Street"/>
  </way>
  <way id="5313651" version="1" timestamp="2007-09-30T06:06:11Z" uid="7617" user="Franc" changeset="537600">
    <nd ref="37802491"/>
    <nd ref="37805800"/>
    <nd ref="37802746"/>
    <nd ref="37802747"/>
    <tag k="created_by" v="Potlatch alpha"/>
    <tag k="highway" v="residential"/>
  </way>
  <way id="5313651" version="2" timestamp="2007-12-16T08:54:33Z" uid="7617" user="Franc" changeset="328398">
    <nd ref="37802491"/>
    <nd ref="172736837"/>
    <nd ref="37805800"/>
    <nd ref="37802746"/>
    <nd ref="37802747"/>
    <tag k="created_by" v="Potlatch alpha"/>
    <tag k="highway" v="residential"/>
  </way>
  <way id="5313651" version="3" timestamp="2007-12-27T05:54:51Z" uid="7617" user="Franc" changeset="435605">
    <nd ref="37802491"/>
    <nd ref="172736837"/>
    <tag k="created_by" v="Potlatch alpha"/>
    <tag k="highway" v="residential"/>
  </way>
  <way id="5313651" version="4" timestamp="2008-02-07T19:33:42Z" uid="20949" user="Ebenezer" changeset="68208"/>
  <way id="5313662" version="1" timestamp="2007-09-30T06:06:40Z" uid="7617" user="Franc" changeset="537600">
    <nd ref="37802763"/>
    <nd ref="37802911"/>
    <tag k="created_by" v="Potlatch alpha"/>
    <tag k="highway" v="residential"/>
  </way>
  <way id="5313662" version="2" timestamp="2007-10-21T08:53:59Z" uid="7617" user="Franc" changeset="271561">
    <nd ref="37802763"/>
    <nd ref="37802911"/>
    <tag k="created_by" v="Potlatch alpha"/>
    <tag k="highway" v="residential"/>
    <tag k="name" v="Richmond Avenue"/>
    <tag k="source:name" v="survey"/>
  </way>
  <way id="5313662" version="3" timestamp="2010-07-08T02:32:45Z" uid="74617" user="JohnSmith" changeset="5163091">
    <nd ref="37802763"/>
    <nd ref="37802911"/>
    <tag k="highway" v="residential"/>
    <tag k="maxspeed" v="50"/>
    <tag k="maxspeed:source" v="default residential speed limit in Australia"/>
    <tag k="name" v="Richmond Avenue"/>
    <tag k="source:name" v="survey"/>
  </way>
  <way id="5313662" version="4" timestamp="2012-01-15T05:36:15Z" uid="147510" user="woodpeck_fixbot" changeset="10394551">
    <nd ref="37802763"/>
    <nd ref="37802911"/>
    <tag k="highway" v="residential"/>
    <tag k="name" v="Richmond Avenue"/>
    <tag k="source:name" v="survey"/>
  </way>
  <way id="5313675" version="1" timestamp="2007-09-30T06:09:45Z" uid="7617" user="Franc" changeset="537600">
    <nd ref="37802931"/>
    <nd ref="37803046"/>
    <nd ref="37803048"/>
    <tag k="created_by" v="Potlatch alpha"/>
    <tag k="highway" v="residential"/>
  </way>
  <way id="5313675" version="2" timestamp="2007-12-11T06:29:55Z" uid="7617" user="Franc" changeset="251097">
    <nd ref="37802931"/>
    <nd ref="37803046"/>
    <nd ref="161304893"/>
    <nd ref="37803048"/>
    <tag k="created_by" v="Potlatch alpha"/>
    <tag k="highway" v="residential"/>
  </way>
  <way id="5313675" version="3" timestamp="2008-02-07T19:34:57Z" uid="20949" user="Ebenezer" changeset="68208">
    <nd ref="37802931"/>
    <nd ref="37803046"/>
    <nd ref="161304893"/>
    <nd ref="37803048"/>
    <tag k="created_by" v="Potlatch 0.7"/>
    <tag k="highway" v="residential"/>
    <tag k="name" v="Tawa Street"/>
  </way>
  <way id="5313675" version="4" timestamp="2010-05-09T08:13:08Z" uid="7617" user="Franc" changeset="4645557">
    <nd ref="37802931"/>
    <nd ref="37803046"/>
    <nd ref="727188865"/>
    <nd ref="161304893"/>
    <nd ref="37803048"/>
    <tag k="highway" v="residential"/>
    <tag k="name" v="Tawa Street"/>
  </way>
  <way id="5313675" version="5" timestamp="2010-07-08T02:33:48Z" uid="74617" user="JohnSmith" changeset="5163091">
    <nd ref="37802931"/>
    <nd ref="37803046"/>
    <nd ref="727188865"/>
    <nd ref="161304893"/>
    <nd ref="37803048"/>
    <tag k="highway" v="residential"/>
    <tag k="maxspeed" v="50"/>
    <tag k="maxspeed:source" v="default residential speed limit in Australia"/>
    <tag k="name" v="Tawa Street"/>
  </way>
  <way id="5313675" version="6" timestamp="2012-01-15T05:36:16Z" uid="147510" user="woodpeck_fixbot" changeset="10394551">
    <nd ref="37802931"/>
    <nd ref="37803046"/>
    <nd ref="727188865"/>
    <nd ref="161304893"/>
    <nd ref="37803048"/>
    <tag k="highway" v="residential"/>
    <tag k="name" v="Tawa Street"/>
  </way>
  <way id="5313728" version="1" timestamp="2007-09-30T06:12:57Z" uid="7617" user="Franc" changeset="537600">
    <nd ref="37803442"/>
    <nd ref="37803205"/>
    <tag k="created_by" v="Potlatch alpha"/>
    <tag k="highway" v="residential"/>
  </way>
  <way id="5313728" version="2" timestamp="2007-10-21T08:54:00Z" uid="7617" user="Franc" changeset="271561">
    <nd ref="37803442"/>
    <nd ref="37803205"/>
    <tag k="created_by" v="Potlatch alpha"/>
    <tag k="highway" v="residential"/>
    <tag k="name" v="Ilford Avenue"/>
    <tag k="source:name" v="survey"/>
  </way>
  <way id="5313728" version="3" timestamp="2010-07-08T02:34:42Z" uid="74617" user="JohnSmith" changeset="5163091">
    <nd ref="37803442"/>
    <nd ref="37803205"/>
    <tag k="highway" v="residential"/>
    <tag k="maxspeed" v="50"/>
    <tag k="maxspeed:source" v="default residential speed limit in Australia"/>
    <tag k="name" v="Ilford Avenue"/>
    <tag k="source:name" v="survey"/>
  </way>
  <way id="5313728" version="4" timestamp="2012-01-15T05:36:18Z" uid="147510" user="woodpeck_fixbot" changeset="10394551">
    <nd ref="37803442"/>
    <nd ref="37803205"/>
    <tag k="highway" v="residential"/>
    <tag k="name" v="Ilford Avenue"/>
    <tag k="source:name" v="survey"/>
  </way>
  <way id="5313750" version="1" timestamp="2007-09-30T06:13:59Z" uid="7617" user="Franc" changeset="537600">
    <nd ref="37800670"/>
    <nd ref="37801117"/>
    <nd ref="37802747"/>
    <tag k="created_by" v="Potlatch alpha"/>
    <tag k="highway" v="residential"/>
  </way>
  <way id="5313750" version="2" timestamp="2007-10-21T08:54:01Z" uid="7617" user="Franc" changeset="271561">
    <nd ref="37800670"/>
    <nd ref="82460830"/>
    <nd ref="82460791"/>
    <nd ref="37801117"/>
    <tag k="created_by" v="Potlatch alpha"/>
    <tag k="highway" v="residential"/>
    <tag k="name" v="John Street"/>
    <tag k="source:name" v="survey"/>
  </way>
  <way id="5313750" version="3" timestamp="2007-12-27T05:55:01Z" uid="7617" user="Franc" changeset="435605">
    <nd ref="37800670"/>
    <nd ref="82460830"/>
    <nd ref="82460791"/>
    <nd ref="37801117"/>
    <nd ref="37802747"/>
    <nd ref="37805026"/>
    <tag k="created_by" v="Potlatch alpha"/>
    <tag k="highway" v="residential"/>
    <tag k="name" v="John Street"/>
    <tag k="source:name" v="survey"/>
  </way>
  <way id="5313750" version="4" timestamp="2008-02-07T19:35:28Z" uid="20949" user="Ebenezer" changeset="68208">
    <nd ref="37800670"/>
    <nd ref="82460830"/>
    <nd ref="82460791"/>
    <nd ref="37801117"/>
    <nd ref="37802747"/>
    <nd ref="37805026"/>
    <tag k="created_by" v="Potlatch 0.7"/>
    <tag k="highway" v="residential"/>
    <tag k="name" v="John Street"/>
    <tag k="source" v="survey"/>
  </way>
  <way id="5313750" version="5" timestamp="2008-02-12T18:43:32Z" uid="20949" user="Ebenezer" changeset="109520">
    <nd ref="37800670"/>
    <nd ref="82460830"/>
    <nd ref="82460791"/>
    <nd ref="37801117"/>
    <nd ref="247364704"/>
    <nd ref="37802747"/>
    <nd ref="37805026"/>
    <tag k="created_by" v="Potlatch 0.7a"/>
    <tag k="highway" v="residential"/>
    <tag k="name" v="John Street"/>
    <tag k="source" v="survey"/>
  </way>
  <way id="5313750" version="6" timestamp="2009-01-12T06:14:44Z" uid="20949" user="Ebenezer" changeset="777480">
    <nd ref="331391487"/>
    <nd ref="37800670"/>
    <tag k="created_by" v="Potlatch 0.10f"/>
    <tag k="highway" v="residential"/>
    <tag k="name" v="John Street"/>
    <tag k="source" v="survey"/>
  </way>
  <way id="5313750" version="7" timestamp="2009-01-12T06:14:47Z" uid="20949" user="Ebenezer" changeset="777480">
    <nd ref="331391487"/>
    <nd ref="37800670"/>
    <tag k="created_by" v="Potlatch 0.10f"/>
    <tag k="highway" v="residential"/>
    <tag k="name" v="John Street"/>
    <tag k="source" v="yahoo"/>
  </way>
  <way id="5313750" version="8" timestamp="2009-01-12T06:16:18Z" uid="20949" user="Ebenezer" changeset="777480">
    <nd ref="331391487"/>
    <nd ref="331391609"/>
    <nd ref="37800670"/>
    <tag k="created_by" v="Potlatch 0.10f"/>
    <tag k="highway" v="residential"/>
    <tag k="name" v="John Street"/>
    <tag k="source" v="yahoo"/>
  </way>
  <way id="5313750" version="9" timestamp="2010-07-08T02:34:58Z" uid="74617" user="JohnSmith" changeset="5163091">
    <nd ref="331391487"/>
    <nd ref="331391609"/>
    <nd ref="37800670"/>
    <tag k="highway" v="residential"/>
    <tag k="maxspeed" v="50"/>
    <tag k="maxspeed:source" v="default residential speed limit in Australia"/>
    <tag k="name" v="John Street"/>
    <tag k="source" v="yahoo"/>
  </way>
  <way id="5313750" version="10" timestamp="2012-01-15T05:36:19Z" uid="147510" user="woodpeck_fixbot" changeset="10394551">
    <nd ref="331391487"/>
    <nd ref="331391609"/>
    <nd ref="37800670"/>
    <tag k="highway" v="residential"/>
    <tag k="name" v="John Street"/>
    <tag k="source" v="yahoo"/>
  </way>
  <way id="5313849" version="2" timestamp="2007-12-11T06:29:57Z" uid="7617" user="Franc" changeset="251097">
    <nd ref="29941974"/>
    <nd ref="37814024"/>
    <nd ref="37814378"/>
    <nd ref="37805026"/>
    <nd ref="37804706"/>
    <nd ref="37802479"/>
    <nd ref="37808443"/>
    <nd ref="37807945"/>
    <nd ref="37809858"/>
    <nd ref="33616256"/>
    <tag k="created_by" v="Potlatch alpha"/>
    <tag k="highway" v="secondary"/>
    <tag k="name" v="Croydon Road"/>
  </way>
  <way id="5313849" version="3" timestamp="2007-12-11T06:37:50Z" uid="7617" user="Franc" changeset="251097">
    <nd ref="29941974"/>
    <nd ref="37814024"/>
    <nd ref="37814378"/>
    <nd ref="37805026"/>
    <nd ref="37804706"/>
    <nd ref="161319178"/>
    <nd ref="37802479"/>
    <nd ref="37808443"/>
    <nd ref="37807945"/>
    <nd ref="37809858"/>
    <nd ref="33616256"/>
    <tag k="created_by" v="Potlatch alpha"/>
    <tag k="highway" v="secondary"/>
    <tag k="name" v="Croydon Road"/>
  </way>
  <way id="5313849" version="4" timestamp="2008-02-10T19:36:59Z" uid="20949" user="Ebenezer" changeset="96244">
    <nd ref="29941974"/>
    <nd ref="37814024"/>
    <nd ref="37814378"/>
    <nd ref="37805026"/>
    <nd ref="37804706"/>
    <nd ref="161319178"/>
    <nd ref="37802479"/>
    <nd ref="37808443"/>
    <nd ref="37807945"/>
    <nd ref="37809858"/>
    <nd ref="247090902"/>
    <nd ref="33616256"/>
    <tag k="created_by" v="Potlatch 0.7"/>
    <tag k="highway" v="secondary"/>
    <tag k="name" v="Croydon Road"/>
  </way>
  <way id="5313849" version="5" timestamp="2008-09-27T05:08:43Z" uid="7617" user="Franc" changeset="703319">
    <nd ref="29941974"/>
    <nd ref="37814024"/>
    <nd ref="37814378"/>
    <nd ref="37805026"/>
    <nd ref="37804706"/>
    <nd ref="161319178"/>
    <nd ref="37802479"/>
    <nd ref="37808443"/>
    <nd ref="37807945"/>
    <nd ref="37809858"/>
    <nd ref="247090902"/>
    <nd ref="300215767"/>
    <nd ref="33616256"/>
    <tag k="created_by" v="Potlatch 0.7"/>
    <tag k="highway" v="secondary"/>
    <tag k="name" v="Croydon Road"/>
  </way>
  <way id="5313849" version="6" timestamp="2008-10-02T06:41:01Z" uid="7617" user="Franc" changeset="23906">
    <nd ref="29941974"/>
    <nd ref="37814024"/>
    <nd ref="301507626"/>
    <nd ref="37814378"/>
    <nd ref="37805026"/>
    <nd ref="37804706"/>
    <nd ref="161319178"/>
    <nd ref="37802479"/>
    <nd ref="37808443"/>
    <nd ref="37807945"/>
    <nd ref="37809858"/>
    <nd ref="247090902"/>
    <nd ref="300215767"/>
    <nd ref="33616256"/>
    <tag k="created_by" v="Potlatch 0.7"/>
    <tag k="highway" v="secondary"/>
    <tag k="name" v="Croydon Road"/>
  </way>
  <way id="5313849" version="7" timestamp="2009-12-26T09:17:24Z" uid="7617" user="Franc" changeset="3452940">
    <nd ref="29941974"/>
    <nd ref="37814024"/>
    <nd ref="301507626"/>
    <nd ref="37814378"/>
    <nd ref="37805026"/>
    <nd ref="37804706"/>
    <nd ref="161319178"/>
    <nd ref="599507903"/>
    <nd ref="37802479"/>
    <nd ref="599507904"/>
    <nd ref="37808443"/>
    <nd ref="599507908"/>
    <nd ref="599507909"/>
    <nd ref="37807945"/>
    <nd ref="37809858"/>
    <nd ref="247090902"/>
    <nd ref="599507913"/>
    <nd ref="599507915"/>
    <nd ref="300215767"/>
    <nd ref="33616256"/>
    <tag k="highway" v="secondary"/>
    <tag k="name" v="Croydon Road"/>
  </way>
  <way id="5313849" version="8" timestamp="2010-01-13T10:17:03Z" uid="30201" user="rrankin" changeset="3608813">
    <nd ref="29941974"/>
    <nd ref="37814024"/>
    <nd ref="301507626"/>
    <nd ref="37814378"/>
    <nd ref="37805026"/>
    <nd ref="612865765"/>
    <tag k="highway" v="secondary"/>
    <tag k="name" v="Croydon Road"/>
  </way>
  <way id="5313849" version="9" timestamp="2010-02-22T03:03:12Z" uid="7617" user="Franc" changeset="3940640">
    <nd ref="29941974"/>
    <nd ref="37814024"/>
    <nd ref="301507626"/>
    <nd ref="37814378"/>
    <nd ref="37805026"/>
    <nd ref="649987127"/>
    <nd ref="612865765"/>
    <tag k="highway" v="secondary"/>
    <tag k="name" v="Croydon Road"/>
  </way>
  <way id="5313849" version="10" timestamp="2010-05-29T22:40:06Z" uid="20949" user="Ebenezer" changeset="4847085"/>
  <way id="5313921" version="1" timestamp="2007-09-30T06:10:27Z" uid="7617" user="Franc" changeset="537600">
    <nd ref="37805026"/>
    <nd ref="26704197"/>
    <nd ref="37802747"/>
    <tag k="created_by" v="Potlatch alpha"/>
    <tag k="highway" v="residential"/>
  </way>
  <way id="5313921" version="2" timestamp="2007-12-11T06:29:59Z" uid="7617" user="Franc" changeset="251097">
    <nd ref="37805026"/>
    <nd ref="37802747"/>
    <nd ref="37801117"/>
    <tag k="created_by" v="Potlatch alpha"/>
    <tag k="highway" v="residential"/>
  </way>
  <way id="5313921" version="3" timestamp="2007-12-27T05:55:32Z" uid="7617" user="Franc" changeset="435605"/>
  <way id="5313941" version="1" timestamp="2007-09-30T06:09:51Z" uid="7617" user="Franc" changeset="537600">
    <nd ref="37802746"/>
    <nd ref="37805760"/>
    <nd ref="37805761"/>
    <tag k="created_by" v="Potlatch alpha"/>
    <tag k="highway" v="residential"/>
  </way>
  <way id="5313941" version="2" timestamp="2008-02-12T18:43:31Z" uid="20949" user="Ebenezer" changeset="109520">
    <nd ref="37802746"/>
    <nd ref="37805760"/>
    <nd ref="37805761"/>
    <tag k="created_by" v="Potlatch 0.7a"/>
    <tag k="highway" v="residential"/>
    <tag k="name" v="Lucy Circuit"/>
  </way>
  <way id="5313941" version="3" timestamp="2008-10-05T01:19:12Z" uid="7617" user="Franc" changeset="70858">
    <nd ref="37802746"/>
    <nd ref="302151429"/>
    <nd ref="37805760"/>
    <nd ref="302151440"/>
    <nd ref="37805761"/>
    <tag k="created_by" v="Potlatch 0.7a"/>
    <tag k="highway" v="residential"/>
    <tag k="name" v="Lucy Circuit"/>
  </way>
  <way id="5313941" version="4" timestamp="2010-05-09T08:13:09Z" uid="7617" user="Franc" changeset="4645557">
    <nd ref="37802746"/>
    <nd ref="302151429"/>
    <nd ref="37805760"/>
    <nd ref="727188869"/>
    <tag k="highway" v="residential"/>
    <tag k="name" v="Lucy Court"/>
  </way>
  <way id="5313941" version="5" timestamp="2010-07-08T02:37:39Z" uid="74617" user="JohnSmith" changeset="5163091">
    <nd ref="37802746"/>
    <nd ref="302151429"/>
    <nd ref="37805760"/>
    <nd ref="727188869"/>
    <tag k="highway" v="residential"/>
    <tag k="maxspeed" v="50"/>
    <tag k="maxspeed:source" v="default residential speed limit in Australia"/>
    <tag k="name" v="Lucy Court"/>
  </way>
  <way id="5313941" version="6" timestamp="2012-01-15T05:36:20Z" uid="147510" user="woodpeck_fixbot" changeset="10394551">
    <nd ref="37802746"/>
    <nd ref="302151429"/>
    <nd ref="37805760"/>
    <nd ref="727188869"/>
    <tag k="highway" v="residential"/>
    <tag k="name" v="Lucy Court"/>
  </way>
  <way id="5313978" version="1" timestamp="2007-09-30T06:08:28Z" uid="7617" user="Franc" changeset="537600">
    <nd ref="37805800"/>
    <nd ref="37806035"/>
    <tag k="created_by" v="Potlatch alpha"/>
    <tag k="highway" v="residential"/>
  </way>
  <way id="5313978" version="2" timestamp="2007-12-11T06:30:01Z" uid="7617" user="Franc" changeset="251097">
    <nd ref="37805800"/>
    <nd ref="161304844"/>
    <tag k="created_by" v="Potlatch alpha"/>
    <tag k="highway" v="residential"/>
  </way>
  <way id="5313978" version="3" timestamp="2007-12-27T05:55:05Z" uid="7617" user="Franc" changeset="435605">
    <nd ref="37805800"/>
    <nd ref="161304844"/>
    <tag k="created_by" v="Potlatch alpha"/>
    <tag k="highway" v="residential"/>
    <tag k="name" v="Alexandra Street"/>
    <tag k="source:name" v="survey"/>
  </way>
  <way id="5313978" version="4" timestamp="2008-02-12T18:43:02Z" uid="20949" user="Ebenezer" changeset="109520">
    <nd ref="37805800"/>
    <nd ref="161304844"/>
    <tag k="created_by" v="Potlatch 0.7a"/>
    <tag k="highway" v="residential"/>
    <tag k="name" v="Alexandra Street"/>
    <tag k="source" v="survey"/>
  </way>
  <way id="5313978" version="5" timestamp="2010-07-08T02:41:06Z" uid="74617" user="JohnSmith" changeset="5163091">
    <nd ref="37805800"/>
    <nd ref="161304844"/>
    <tag k="highway" v="residential"/>
    <tag k="maxspeed" v="50"/>
    <tag k="maxspeed:source" v="default residential speed limit in Australia"/>
    <tag k="name" v="Alexandra Street"/>
    <tag k="source" v="survey"/>
  </way>
  <way id="5313978" version="6" timestamp="2012-01-15T05:36:22Z" uid="147510" user="woodpeck_fixbot" changeset="10394551">
    <nd ref="37805800"/>
    <nd ref="161304844"/>
    <tag k="highway" v="residential"/>
    <tag k="name" v="Alexandra Street"/>
    <tag k="source" v="survey"/>
  </way>
</osm>
