<?xml version='1.0' encoding='UTF-8'?>
<osm version="0.6" generator="libosmium/2.20.0">
  <way id="5322143" version="16" timestamp="2009-08-13T02:08:28Z" uid="4467" user="Rosscoe" changeset="2125980">
    <nd ref="26583022"/>
    <nd ref="256668092"/>
    <nd ref="324956918"/>
    <nd ref="324956911"/>
    <nd ref="256668087"/>
    <nd ref="142392574"/>
    <nd ref="142391385"/>
    <nd ref="271301933"/>
    <nd ref="463084575"/>
    <nd ref="30288270"/>
    <nd ref="30288268"/>
    <nd ref="28164896"/>
    <nd ref="444664442"/>
    <tag k="highway" v="trunk"/>
    <tag k="name" v="Warrigal Road"/>
    <tag k="oneway" v="yes"/>
    <tag k="ref" v="S15"/>
  </way>
  <way id="5322143" version="17" timestamp="2010-05-16T13:36:20Z" uid="11111" user="lakeyboy" changeset="4717038">
    <nd ref="26583022"/>
    <nd ref="256668092"/>
    <nd ref="324956918"/>
    <nd ref="324956911"/>
    <nd ref="256668087"/>
    <nd ref="142392574"/>
    <nd ref="142391385"/>
    <nd ref="736471243"/>
    <nd ref="271301933"/>
    <nd ref="463084575"/>
    <nd ref="30288270"/>
    <nd ref="30288268"/>
    <nd ref="28164896"/>
    <nd ref="444664442"/>
    <tag k="highway" v="trunk"/>
    <tag k="name" v="Warrigal Road"/>
    <tag k="oneway" v="yes"/>
    <tag k="ref" v="S15"/>
  </way>
  <way id="5322143" version="18" timestamp="2010-08-17T07:19:20Z" uid="4467" user="Rosscoe" changeset="5515084">
    <nd ref="26583022"/>
    <nd ref="864430093"/>
    <nd ref="256668092"/>
    <nd ref="324956918"/>
    <nd ref="324956911"/>
    <nd ref="256668087"/>
    <nd ref="142392574"/>
    <nd ref="142391385"/>
    <nd ref="736471243"/>
    <nd ref="271301933"/>
    <nd ref="463084575"/>
    <nd ref="30288270"/>
    <nd ref="30288268"/>
    <nd ref="28164896"/>
    <nd ref="444664442"/>
    <tag k="highway" v="trunk"/>
    <tag k="name" v="Warrigal Road"/>
    <tag k="oneway" v="yes"/>
    <tag k="ref" v="S15"/>
  </way>
  <way id="5322143" version="19" timestamp="2010-08-17T07:26:24Z" uid="4467" user="Rosscoe" changeset="5515107">
    <nd ref="26583022"/>
    <nd ref="864430093"/>
    <nd ref="256668092"/>
    <nd ref="324956918"/>
    <nd ref="324956911"/>
    <nd ref="256668087"/>
    <nd ref="142392574"/>
    <nd ref="142391385"/>
    <nd ref="736471243"/>
    <nd ref="271301933"/>
    <nd ref="463084575"/>
    <nd ref="30288270"/>
    <nd ref="30288268"/>
    <nd ref="28164896"/>
    <nd ref="444664442"/>
    <tag k="highway" v="trunk"/>
    <tag k="name" v="Warrigal Road"/>
    <tag k="oneway" v="yes"/>
    <tag k="ref" v="S15"/>
  </way>
  <way id="5322143" version="20" timestamp="2010-08-17T07:34:40Z" uid="4467" user="Rosscoe" changeset="5515151">
    <nd ref="26583022"/>
    <nd ref="864430093"/>
    <nd ref="256668092"/>
    <nd ref="324956918"/>
    <nd ref="324956911"/>
    <nd ref="256668087"/>
    <nd ref="142392574"/>
    <nd ref="142391385"/>
    <nd ref="736471243"/>
    <nd ref="271301933"/>
    <nd ref="463084575"/>
    <nd ref="30288270"/>
    <nd ref="30288268"/>
    <nd ref="28164896"/>
    <nd ref="444664442"/>
    <tag k="highway" v="trunk"/>
    <tag k="name" v="Warrigal Road"/>
    <tag k="oneway" v="yes"/>
    <tag k="ref" v="S15"/>
  </way>
  <way id="5322143" version="21" timestamp="2011-02-08T03:55:32Z" uid="11111" user="lakeyboy" changeset="7223204">
    <nd ref="26583022"/>
    <nd ref="864430093"/>
    <nd ref="256668092"/>
    <nd ref="324956918"/>
    <nd ref="324956911"/>
    <nd ref="256668087"/>
    <nd ref="142392574"/>
    <nd ref="142391385"/>
    <nd ref="736471243"/>
    <nd ref="271301933"/>
    <nd ref="463084575"/>
    <nd ref="30288270"/>
    <nd ref="30288268"/>
    <nd ref="28164896"/>
    <nd ref="444664442"/>
    <tag k="highway" v="trunk"/>
    <tag k="name" v="Warrigal Road"/>
    <tag k="oneway" v="yes"/>
    <tag k="ref" v="S15"/>
  </way>
  <way id="5322143" version="22" timestamp="2011-02-24T11:36:20Z" uid="46482" user="Leon K" changeset="7380700">
    <nd ref="26583022"/>
    <nd ref="864430093"/>
    <nd ref="256668092"/>
    <nd ref="324956918"/>
    <nd ref="324956911"/>
    <nd ref="256668087"/>
    <nd ref="1169913294"/>
    <tag k="highway" v="trunk"/>
    <tag k="maxspeed" v="70"/>
    <tag k="name" v="Warrigal Road"/>
    <tag k="oneway" v="yes"/>
    <tag k="ref" v="S15"/>
  </way>
  <way id="5322143" version="23" timestamp="2011-08-08T03:36:11Z" uid="11111" user="melb_guy" changeset="8953522">
    <nd ref="26583022"/>
    <nd ref="1390356872"/>
    <nd ref="864430093"/>
    <nd ref="1390356854"/>
    <nd ref="256668092"/>
    <nd ref="324956918"/>
    <nd ref="324956911"/>
    <nd ref="256668087"/>
    <nd ref="1169913294"/>
    <tag k="highway" v="trunk"/>
    <tag k="maxspeed" v="70"/>
    <tag k="name" v="Warrigal Road"/>
    <tag k="oneway" v="yes"/>
    <tag k="ref" v="S15"/>
  </way>
  <way id="5322143" version="24" timestamp="2011-10-07T06:39:14Z" uid="11111" user="melb_guy" changeset="9491084">
    <nd ref="26583022"/>
    <nd ref="1390356872"/>
    <nd ref="864430093"/>
    <nd ref="1390356854"/>
    <nd ref="256668092"/>
    <nd ref="324956918"/>
    <nd ref="324956911"/>
    <nd ref="256668087"/>
    <nd ref="1169913294"/>
    <tag k="highway" v="trunk"/>
    <tag k="lanes" v="3"/>
    <tag k="maxspeed" v="70"/>
    <tag k="name" v="Warrigal Road"/>
    <tag k="oneway" v="yes"/>
    <tag k="surface" v="asphalt"/>
  </way>
  <way id="5322282" version="6" timestamp="2010-07-09T02:52:24Z" uid="74617" user="JohnSmith" changeset="5170713">
    <nd ref="27379380"/>
    <nd ref="582792890"/>
    <nd ref="27379379"/>
    <nd ref="27379377"/>
    <nd ref="616557136"/>
    <nd ref="27379378"/>
    <tag k="highway" v="residential"/>
    <tag k="maxspeed" v="50"/>
    <tag k="maxspeed:source" v="default residential speed limit in Australia"/>
    <tag k="name" v="Strand Close"/>
  </way>
  <way id="5322282" version="7" timestamp="2011-12-21T00:00:38Z" uid="320632" user="Zulu99" changeset="10168174">
    <nd ref="27379380"/>
    <nd ref="582792890"/>
    <tag k="highway" v="residential"/>
    <tag k="maxspeed" v="50"/>
    <tag k="maxspeed:source" v="default residential speed limit in Australia"/>
    <tag k="name" v="Strand Close"/>
  </way>
  <way id="5322282" version="8" timestamp="2012-01-15T05:37:39Z" uid="147510" user="woodpeck_fixbot" changeset="10394551">
    <nd ref="27379380"/>
    <nd ref="582792890"/>
    <tag k="highway" v="residential"/>
    <tag k="name" v="Strand Close"/>
  </way>
  <way id="5322283" version="3" timestamp="2010-07-09T02:42:38Z" uid="74617" user="JohnSmith" changeset="5170713">
    <nd ref="27379376"/>
    <nd ref="27379377"/>
    <tag k="highway" v="residential"/>
    <tag k="maxspeed" v="50"/>
    <tag k="maxspeed:source" v="default residential speed limit in Australia"/>
    <tag k="name" v="Tiernan Street"/>
  </way>
  <way id="5322283" version="4" timestamp="2012-01-15T05:37:39Z" uid="147510" user="woodpeck_fixbot" changeset="10394551">
    <nd ref="27379376"/>
    <nd ref="27379377"/>
    <tag k="highway" v="residential"/>
    <tag k="name" v="Tiernan Street"/>
  </way>
  <way id="5322398" version="4" timestamp="2010-12-31T03:41:34Z" uid="4467" user="Rosscoe" changeset="6816290">
    <nd ref="27416521"/>
    <nd ref="27416548"/>
    <nd ref="1074572337"/>
    <nd ref="1074572306"/>
    <nd ref="1074572331"/>
    <nd ref="1074572346"/>
    <nd ref="1074572332"/>
    <nd ref="1074572341"/>
    <nd ref="1074572324"/>
    <nd ref="1074572348"/>
    <nd ref="1074572329"/>
    <nd ref="1074572344"/>
    <nd ref="1074572316"/>
    <nd ref="1074572330"/>
    <nd ref="1074572323"/>
    <nd ref="1074572312"/>
    <nd ref="1074572325"/>
    <nd ref="1074572319"/>
    <nd ref="1074572335"/>
    <nd ref="1074572318"/>
    <nd ref="1074572315"/>
    <nd ref="1074572347"/>
    <nd ref="1074572321"/>
    <nd ref="1074572313"/>
    <nd ref="1074572308"/>
    <tag k="highway" v="tertiary"/>
    <tag k="name" v="Bourke Road"/>
    <tag k="oneway" v="yes"/>
  </way>
  <way id="5322398" version="5" timestamp="2011-02-21T11:18:34Z" uid="46482" user="Leon K" changeset="7352541">
    <nd ref="27416521"/>
    <nd ref="27416548"/>
    <nd ref="1074572337"/>
    <nd ref="1074572306"/>
    <nd ref="1074572331"/>
    <nd ref="1074572346"/>
    <nd ref="1074572332"/>
    <nd ref="1074572341"/>
    <nd ref="1074572324"/>
    <nd ref="1074572348"/>
    <nd ref="1074572329"/>
    <nd ref="1074572344"/>
    <nd ref="1074572316"/>
    <nd ref="1074572330"/>
    <nd ref="1074572323"/>
    <nd ref="1074572312"/>
    <nd ref="1074572325"/>
    <nd ref="1074572319"/>
    <nd ref="1074572335"/>
    <nd ref="1074572318"/>
    <nd ref="1074572315"/>
    <nd ref="1074572347"/>
    <nd ref="1074572321"/>
    <nd ref="1074572313"/>
    <nd ref="1074572308"/>
    <tag k="highway" v="tertiary"/>
    <tag k="maxspeed" v="60"/>
    <tag k="name" v="Bourke Road"/>
    <tag k="oneway" v="yes"/>
  </way>
  <way id="5322398" version="6" timestamp="2011-11-30T21:07:49Z" uid="46482" user="Leon K" changeset="10003247">
    <nd ref="27416521"/>
    <nd ref="27416548"/>
    <nd ref="1074572337"/>
    <nd ref="1074572306"/>
    <nd ref="1525291818"/>
    <nd ref="1074572346"/>
    <nd ref="1525291822"/>
    <nd ref="1525291776"/>
    <nd ref="1074572324"/>
    <nd ref="1074572348"/>
    <nd ref="1074572329"/>
    <nd ref="1074572344"/>
    <nd ref="1074572316"/>
    <nd ref="1074572330"/>
    <nd ref="1074572323"/>
    <nd ref="1074572312"/>
    <nd ref="1074572325"/>
    <nd ref="1074572319"/>
    <nd ref="1074572335"/>
    <nd ref="1074572318"/>
    <nd ref="1074572315"/>
    <nd ref="1074572347"/>
    <nd ref="1074572321"/>
    <nd ref="1074572313"/>
    <nd ref="1074572308"/>
    <tag k="highway" v="tertiary"/>
    <tag k="maxspeed" v="60"/>
    <tag k="name" v="Bourke Road"/>
    <tag k="oneway" v="yes"/>
  </way>
  <way id="5322399" version="4" timestamp="2010-12-31T03:41:40Z" uid="4467" user="Rosscoe" changeset="6816290">
    <nd ref="27416574"/>
    <nd ref="1074572308"/>
    <tag k="highway" v="tertiary"/>
    <tag k="name" v="Bourke Road"/>
  </way>
  <way id="5322399" version="5" timestamp="2011-03-19T07:20:23Z" uid="46482" user="Leon K" changeset="7601882">
    <nd ref="27416574"/>
    <nd ref="1074572308"/>
    <tag k="highway" v="tertiary"/>
    <tag k="maxspeed" v="60"/>
    <tag k="name" v="Bourke Road"/>
  </way>
  <way id="5322444" version="4" timestamp="2009-08-13T12:20:27Z" uid="4467" user="Rosscoe" changeset="2130749">
    <nd ref="27382045"/>
    <nd ref="97145760"/>
    <tag k="highway" v="residential"/>
    <tag k="name" v="King Arthur Drive"/>
    <tag k="oneway" v="yes"/>
    <tag k="osmarender:renderName" v="no"/>
  </way>
  <way id="5322444" version="5" timestamp="2010-07-09T02:46:53Z" uid="74617" user="JohnSmith" changeset="5170713">
    <nd ref="27382045"/>
    <nd ref="97145760"/>
    <tag k="highway" v="residential"/>
    <tag k="maxspeed" v="50"/>
    <tag k="maxspeed:source" v="default residential speed limit in Australia"/>
    <tag k="name" v="King Arthur Drive"/>
    <tag k="oneway" v="yes"/>
  </way>
  <way id="5322444" version="6" timestamp="2012-01-15T05:37:41Z" uid="147510" user="woodpeck_fixbot" changeset="10394551">
    <nd ref="27382045"/>
    <nd ref="97145760"/>
    <tag k="highway" v="residential"/>
    <tag k="name" v="King Arthur Drive"/>
    <tag k="oneway" v="yes"/>
  </way>
  <way id="5322445" version="4" timestamp="2009-08-13T12:20:26Z" uid="4467" user="Rosscoe" changeset="2130749">
    <nd ref="27382129"/>
    <nd ref="27382045"/>
    <tag k="highway" v="residential"/>
    <tag k="name" v="King Arthur Drive"/>
    <tag k="oneway" v="yes"/>
    <tag k="osmarender:renderName" v="no"/>
  </way>
  <way id="5322445" version="5" timestamp="2010-07-09T02:49:27Z" uid="74617" user="JohnSmith" changeset="5170713">
    <nd ref="27382129"/>
    <nd ref="27382045"/>
    <tag k="highway" v="residential"/>
    <tag k="maxspeed" v="50"/>
    <tag k="maxspeed:source" v="default residential speed limit in Australia"/>
    <tag k="name" v="King Arthur Drive"/>
    <tag k="oneway" v="yes"/>
  </way>
  <way id="5322445" version="6" timestamp="2012-01-15T05:37:41Z" uid="147510" user="woodpeck_fixbot" changeset="10394551">
    <nd ref="27382129"/>
    <nd ref="27382045"/>
    <tag k="highway" v="residential"/>
    <tag k="name" v="King Arthur Drive"/>
    <tag k="oneway" v="yes"/>
  </way>
  <way id="5322489" version="16" timestamp="2010-06-26T14:17:32Z" uid="4467" user="Rosscoe" changeset="5081355"/>
  <way id="5322532" version="5" timestamp="2010-07-09T18:18:01Z" uid="74617" user="JohnSmith" changeset="5175333">
    <nd ref="37862077"/>
    <nd ref="37923156"/>
    <tag k="highway" v="unclassified"/>
    <tag k="maxspeed" v="50"/>
    <tag k="maxspeed:source" v="default residential speed limit in Australia"/>
    <tag k="name" v="Gairdner Drive"/>
  </way>
  <way id="5322532" version="6" timestamp="2012-01-15T05:37:42Z" uid="147510" user="woodpeck_fixbot" changeset="10394551">
    <nd ref="37862077"/>
    <nd ref="37923156"/>
    <tag k="highway" v="unclassified"/>
    <tag k="name" v="Gairdner Drive"/>
  </way>
  <way id="5322544" version="5" timestamp="2009-08-13T01:04:18Z" uid="4467" user="Rosscoe" changeset="2125668">
    <nd ref="27347673"/>
    <nd ref="31422308"/>
    <nd ref="27349198"/>
    <nd ref="27349197"/>
    <tag k="highway" v="secondary"/>
    <tag k="name" v="Atherton Road"/>
    <tag k="osmarender:renderName" v="no"/>
  </way>
  <way id="5322544" version="6" timestamp="2010-07-03T12:24:19Z" uid="79475" user="AlexOnTheBus" changeset="5124320">
    <nd ref="27347673"/>
    <nd ref="31422308"/>
    <nd ref="27349198"/>
    <nd ref="27349197"/>
    <tag k="highway" v="tertiary"/>
    <tag k="name" v="Atherton Road"/>
    <tag k="osmarender:renderName" v="no"/>
  </way>
  <way id="5322544" version="7" timestamp="2011-03-09T05:11:24Z" uid="4467" user="Rosscoe" changeset="7500679">
    <nd ref="1193778360"/>
    <nd ref="31422308"/>
    <nd ref="27349198"/>
    <nd ref="27349197"/>
    <tag k="highway" v="tertiary"/>
    <tag k="name" v="Atherton Road"/>
    <tag k="osmarender:renderName" v="no"/>
  </way>
  <way id="5322544" version="8" timestamp="2011-09-01T01:57:37Z" uid="207745" user="NE2" changeset="9181205">
    <nd ref="1193778360"/>
    <nd ref="31422308"/>
    <nd ref="27349198"/>
    <nd ref="27349197"/>
    <tag k="highway" v="tertiary"/>
    <tag k="name" v="Atherton Road"/>
  </way>
  <way id="5322545" version="4" timestamp="2009-08-13T01:04:18Z" uid="4467" user="Rosscoe" changeset="2125668">
    <nd ref="27350012"/>
    <nd ref="27349199"/>
    <nd ref="27347673"/>
    <tag k="highway" v="secondary"/>
    <tag k="name" v="Atherton Rd"/>
    <tag k="osmarender:renderName" v="no"/>
  </way>
  <way id="5322545" version="5" timestamp="2009-08-13T01:46:03Z" uid="4467" user="Rosscoe" changeset="2125878">
    <nd ref="27350012"/>
    <nd ref="27349199"/>
    <nd ref="27347673"/>
    <tag k="highway" v="secondary"/>
    <tag k="name" v="Atherton Road"/>
    <tag k="osmarender:renderName" v="no"/>
  </way>
  <way id="5322545" version="6" timestamp="2010-07-03T12:24:23Z" uid="79475" user="AlexOnTheBus" changeset="5124320">
    <nd ref="27350012"/>
    <nd ref="27349199"/>
    <nd ref="27347673"/>
    <tag k="highway" v="tertiary"/>
    <tag k="name" v="Atherton Road"/>
    <tag k="osmarender:renderName" v="no"/>
  </way>
  <way id="5322545" version="7" timestamp="2011-03-09T05:11:25Z" uid="4467" user="Rosscoe" changeset="7500679">
    <nd ref="27347557"/>
    <nd ref="27350012"/>
    <nd ref="27349199"/>
    <nd ref="1193778365"/>
    <nd ref="1193778360"/>
    <tag k="highway" v="tertiary"/>
    <tag k="name" v="Atherton Road"/>
    <tag k="osmarender:renderName" v="no"/>
  </way>
  <way id="5322545" version="8" timestamp="2011-09-01T01:57:37Z" uid="207745" user="NE2" changeset="9181205">
    <nd ref="27347557"/>
    <nd ref="27350012"/>
    <nd ref="27349199"/>
    <nd ref="1193778365"/>
    <nd ref="1193778360"/>
    <tag k="highway" v="tertiary"/>
    <tag k="name" v="Atherton Road"/>
  </way>
  <way id="5322850" version="4" timestamp="2010-07-09T02:50:52Z" uid="74617" user="JohnSmith" changeset="5170713">
    <nd ref="32886821"/>
    <nd ref="32886840"/>
    <nd ref="32886838"/>
    <nd ref="32886843"/>
    <nd ref="32886089"/>
    <tag k="highway" v="residential"/>
    <tag k="maxspeed" v="50"/>
    <tag k="maxspeed:source" v="default residential speed limit in Australia"/>
    <tag k="name" v="Rupert Drive"/>
  </way>
  <way id="5322850" version="5" timestamp="2012-01-15T05:37:43Z" uid="147510" user="woodpeck_fixbot" changeset="10394551">
    <nd ref="32886821"/>
    <nd ref="32886840"/>
    <nd ref="32886838"/>
    <nd ref="32886843"/>
    <nd ref="32886089"/>
    <tag k="highway" v="residential"/>
    <tag k="name" v="Rupert Drive"/>
  </way>
  <way id="5322851" version="2" timestamp="2010-07-09T02:54:09Z" uid="74617" user="JohnSmith" changeset="5170713">
    <nd ref="32886823"/>
    <nd ref="32886843"/>
    <tag k="highway" v="residential"/>
    <tag k="maxspeed" v="50"/>
    <tag k="maxspeed:source" v="default residential speed limit in Australia"/>
  </way>
  <way id="5322851" version="3" timestamp="2011-07-02T12:02:09Z" uid="472067" user="pringle" changeset="8607124"/>
  <way id="5322856" version="6" timestamp="2010-06-14T14:12:18Z" uid="4467" user="Rosscoe" changeset="4988306">
    <nd ref="579303"/>
    <nd ref="599899568"/>
    <nd ref="599899569"/>
    <nd ref="579300"/>
    <nd ref="599899570"/>
    <nd ref="599899571"/>
    <nd ref="585128466"/>
    <nd ref="599899572"/>
    <nd ref="599899573"/>
    <nd ref="29957926"/>
    <nd ref="599899574"/>
    <nd ref="599899575"/>
    <nd ref="599899576"/>
    <nd ref="26582354"/>
    <nd ref="599899577"/>
    <nd ref="599899578"/>
    <nd ref="599899579"/>
    <nd ref="579303"/>
    <tag k="highway" v="unclassified"/>
    <tag k="junction" v="roundabout"/>
  </way>
</osm>
