<?xml version='1.0' encoding='UTF-8'?>
<osm version="0.6" generator="libosmium/2.20.0">
  <way id="53264000" version="1" timestamp="2010-03-25T08:51:00Z" uid="20587" user="balrog-kun" changeset="4227478">
    <nd ref="673962577"/>
    <nd ref="673962578"/>
    <nd ref="673962580"/>
    <nd ref="673962576"/>
    <nd ref="673962581"/>
    <nd ref="673962586"/>
    <nd ref="673962577"/>
    <tag k="addr:housenumber" v="19"/>
    <tag k="addr:street" v="Grodzka"/>
    <tag k="building" v="residential"/>
    <tag k="building:levels" v="4"/>
    <tag k="building:usage:pl" v="Mieszkalny"/>
    <tag k="source" v="gis.um.szczecin.pl"/>
  </way>
  <way id="53264001" version="1" timestamp="2010-03-25T08:51:00Z" uid="20587" user="balrog-kun" changeset="4227478">
    <nd ref="673962594"/>
    <nd ref="673962588"/>
    <nd ref="673962587"/>
    <nd ref="673962589"/>
    <nd ref="673962599"/>
    <nd ref="673962596"/>
    <nd ref="673962598"/>
    <nd ref="673962603"/>
    <nd ref="673962600"/>
    <nd ref="673962594"/>
    <tag k="addr:housenumber" v="9"/>
    <tag k="addr:street" v="Farna"/>
    <tag k="building" v="residential"/>
    <tag k="building:levels" v="5"/>
    <tag k="building:usage:pl" v="Mieszkalny"/>
    <tag k="source" v="gis.um.szczecin.pl"/>
  </way>
  <way id="53264002" version="1" timestamp="2010-03-25T08:51:00Z" uid="20587" user="balrog-kun" changeset="4227478">
    <nd ref="673962704"/>
    <nd ref="673962700"/>
    <nd ref="673962702"/>
    <nd ref="673962703"/>
    <nd ref="673962704"/>
    <tag k="addr:housenumber" v="1"/>
    <tag k="addr:street" v="Kuśnierska"/>
    <tag k="building" v="residential"/>
    <tag k="building:levels" v="3"/>
    <tag k="building:usage:pl" v="Mieszkalny"/>
    <tag k="source" v="gis.um.szczecin.pl"/>
  </way>
  <way id="53264003" version="1" timestamp="2010-03-25T08:51:00Z" uid="20587" user="balrog-kun" changeset="4227478">
    <nd ref="673962676"/>
    <nd ref="673962675"/>
    <nd ref="673962685"/>
    <nd ref="673962683"/>
    <nd ref="673962684"/>
    <nd ref="673962688"/>
    <nd ref="673962676"/>
    <tag k="building" v="manufacture"/>
    <tag k="building:levels" v="1"/>
    <tag k="building:usage:pl" v="Produkcyjny, usługowy lub gospodarczy dla rolnictwa, garaż podziemny"/>
    <tag k="source" v="gis.um.szczecin.pl"/>
  </way>
  <way id="53264004" version="1" timestamp="2010-03-25T08:51:00Z" uid="20587" user="balrog-kun" changeset="4227478">
    <nd ref="673962675"/>
    <nd ref="673962674"/>
    <nd ref="673962682"/>
    <nd ref="673962685"/>
    <nd ref="673962675"/>
    <tag k="building" v="manufacture"/>
    <tag k="building:levels" v="1"/>
    <tag k="building:usage:pl" v="Produkcyjny, usługowy lub gospodarczy dla rolnictwa, garaż podziemny"/>
    <tag k="source" v="gis.um.szczecin.pl"/>
  </way>
  <way id="53264005" version="1" timestamp="2010-03-25T08:51:00Z" uid="20587" user="balrog-kun" changeset="4227478">
    <nd ref="673962699"/>
    <nd ref="673962693"/>
    <nd ref="673962689"/>
    <nd ref="673962695"/>
    <nd ref="673962696"/>
    <nd ref="673962699"/>
    <tag k="addr:housenumber" v="2"/>
    <tag k="addr:street" v="Farna"/>
    <tag k="building" v="residential"/>
    <tag k="building:levels" v="3"/>
    <tag k="building:usage:pl" v="Mieszkalny"/>
    <tag k="source" v="gis.um.szczecin.pl"/>
  </way>
  <way id="53264006" version="1" timestamp="2010-03-25T08:51:00Z" uid="20587" user="balrog-kun" changeset="4227478">
    <nd ref="673962689"/>
    <nd ref="673962691"/>
    <nd ref="673962690"/>
    <nd ref="673962692"/>
    <nd ref="673962695"/>
    <nd ref="673962689"/>
    <tag k="addr:housenumber" v="4"/>
    <tag k="addr:street" v="Farna"/>
    <tag k="building" v="residential"/>
    <tag k="building:levels" v="3"/>
    <tag k="building:usage:pl" v="Mieszkalny"/>
    <tag k="source" v="gis.um.szczecin.pl"/>
  </way>
  <way id="53264007" version="1" timestamp="2010-03-25T08:51:00Z" uid="20587" user="balrog-kun" changeset="4227478">
    <nd ref="673962662"/>
    <nd ref="673962663"/>
    <nd ref="673962664"/>
    <nd ref="673962653"/>
    <nd ref="673962660"/>
    <nd ref="673962655"/>
    <nd ref="673962654"/>
    <nd ref="673962656"/>
    <nd ref="673962665"/>
    <nd ref="673962662"/>
    <tag k="addr:housenumber" v="3"/>
    <tag k="addr:street" v="Farna"/>
    <tag k="building" v="residential"/>
    <tag k="building:levels" v="5"/>
    <tag k="building:usage:pl" v="Mieszkalny"/>
    <tag k="source" v="gis.um.szczecin.pl"/>
  </way>
  <way id="53264008" version="1" timestamp="2010-03-25T08:51:00Z" uid="20587" user="balrog-kun" changeset="4227478">
    <nd ref="673962744"/>
    <nd ref="673962745"/>
    <nd ref="673962741"/>
    <nd ref="673962742"/>
    <nd ref="673962744"/>
    <tag k="building" v="manufacture"/>
    <tag k="building:levels" v="1"/>
    <tag k="building:usage:pl" v="Produkcyjny, usługowy lub gospodarczy dla rolnictwa, garaż podziemny"/>
    <tag k="source" v="gis.um.szczecin.pl"/>
  </way>
  <way id="53264009" version="1" timestamp="2010-03-25T08:51:00Z" uid="20587" user="balrog-kun" changeset="4227478">
    <nd ref="673962742"/>
    <nd ref="673962741"/>
    <nd ref="673962740"/>
    <nd ref="673962739"/>
    <nd ref="673962743"/>
    <nd ref="673962742"/>
    <tag k="building" v="manufacture"/>
    <tag k="building:levels" v="1"/>
    <tag k="building:usage:pl" v="Produkcyjny, usługowy lub gospodarczy dla rolnictwa, garaż podziemny"/>
    <tag k="source" v="gis.um.szczecin.pl"/>
  </way>
  <way id="53264010" version="1" timestamp="2010-03-25T08:51:00Z" uid="20587" user="balrog-kun" changeset="4227478">
    <nd ref="673962755"/>
    <nd ref="673962756"/>
    <nd ref="673962757"/>
    <nd ref="673962758"/>
    <nd ref="673962753"/>
    <nd ref="673962754"/>
    <nd ref="673962755"/>
    <tag k="building" v="manufacture"/>
    <tag k="building:levels" v="1"/>
    <tag k="building:usage:pl" v="Produkcyjny, usługowy lub gospodarczy dla rolnictwa, garaż podziemny"/>
    <tag k="source" v="gis.um.szczecin.pl"/>
  </way>
  <way id="53264011" version="1" timestamp="2010-03-25T08:51:01Z" uid="20587" user="balrog-kun" changeset="4227478">
    <nd ref="673962804"/>
    <nd ref="673962801"/>
    <nd ref="673962803"/>
    <nd ref="673962793"/>
    <nd ref="673962794"/>
    <nd ref="673962805"/>
    <nd ref="673962804"/>
    <tag k="addr:housenumber" v="5"/>
    <tag k="addr:street" v="Kuśnierska"/>
    <tag k="building" v="residential"/>
    <tag k="building:levels" v="3"/>
    <tag k="building:usage:pl" v="Mieszkalny"/>
    <tag k="source" v="gis.um.szczecin.pl"/>
  </way>
  <way id="53264012" version="1" timestamp="2010-03-25T08:51:01Z" uid="20587" user="balrog-kun" changeset="4227478">
    <nd ref="673962809"/>
    <nd ref="673962802"/>
    <nd ref="673962803"/>
    <nd ref="673962801"/>
    <nd ref="673962809"/>
    <tag k="building" v="manufacture"/>
    <tag k="building:levels" v="1"/>
    <tag k="building:usage:pl" v="Produkcyjny, usługowy lub gospodarczy dla rolnictwa, garaż podziemny"/>
    <tag k="source" v="gis.um.szczecin.pl"/>
  </way>
  <way id="53264013" version="1" timestamp="2010-03-25T08:51:01Z" uid="20587" user="balrog-kun" changeset="4227478">
    <nd ref="673962807"/>
    <nd ref="673962834"/>
    <nd ref="673962833"/>
    <nd ref="673962806"/>
    <nd ref="673962807"/>
    <tag k="addr:housenumber" v="3"/>
    <tag k="addr:street" v="Rycerska"/>
    <tag k="building" v="education"/>
    <tag k="building:levels" v="2"/>
    <tag k="building:usage:pl" v="Oświaty, nauki, kultury lub budynek sportowy"/>
    <tag k="source" v="gis.um.szczecin.pl"/>
  </way>
  <way id="53264013" version="2" timestamp="2011-07-19T12:27:37Z" uid="473784" user="antblant" changeset="8767923">
    <nd ref="673962807"/>
    <nd ref="673962834"/>
    <nd ref="673962833"/>
    <nd ref="673962806"/>
    <nd ref="673962807"/>
    <tag k="addr:housenumber" v="3"/>
    <tag k="addr:street" v="Rycerska"/>
    <tag k="building" v="education"/>
    <tag k="building:levels" v="2"/>
    <tag k="building:usage:pl" v="Oświaty, nauki, kultury lub budynek sportowy"/>
    <tag k="heritage" v="2"/>
    <tag k="heritage:operator" v="nid"/>
    <tag k="ref:nid" v="30"/>
    <tag k="source" v="gis.um.szczecin.pl"/>
  </way>
  <way id="53264014" version="1" timestamp="2010-03-25T08:51:01Z" uid="20587" user="balrog-kun" changeset="4227478">
    <nd ref="673962805"/>
    <nd ref="673962794"/>
    <nd ref="673962819"/>
    <nd ref="673962820"/>
    <nd ref="673962805"/>
    <tag k="addr:housenumber" v="7"/>
    <tag k="addr:street" v="Kuśnierska"/>
    <tag k="building" v="residential"/>
    <tag k="building:levels" v="3"/>
    <tag k="building:usage:pl" v="Mieszkalny"/>
    <tag k="source" v="gis.um.szczecin.pl"/>
  </way>
  <way id="53264015" version="1" timestamp="2010-03-25T08:51:01Z" uid="20587" user="balrog-kun" changeset="4227478">
    <nd ref="673962789"/>
    <nd ref="673962790"/>
    <nd ref="673962791"/>
    <nd ref="673962812"/>
    <nd ref="673962813"/>
    <nd ref="673962792"/>
    <nd ref="673962789"/>
    <tag k="addr:housenumber" v="6"/>
    <tag k="addr:street" v="Kuśnierska"/>
    <tag k="building" v="retail"/>
    <tag k="building:levels" v="3"/>
    <tag k="building:usage:pl" v="Handlowo-usługowy"/>
    <tag k="landuse" v="retail"/>
    <tag k="source" v="gis.um.szczecin.pl"/>
  </way>
  <way id="53264016" version="1" timestamp="2010-03-25T08:51:01Z" uid="20587" user="balrog-kun" changeset="4227478">
    <nd ref="673962813"/>
    <nd ref="673962812"/>
    <nd ref="673962816"/>
    <nd ref="673962814"/>
    <nd ref="673962813"/>
    <tag k="addr:housenumber" v="8"/>
    <tag k="addr:street" v="Kuśnierska"/>
    <tag k="building" v="residential"/>
    <tag k="building:levels" v="4"/>
    <tag k="building:usage:pl" v="Mieszkalny"/>
    <tag k="source" v="gis.um.szczecin.pl"/>
  </way>
  <way id="53264017" version="1" timestamp="2010-03-25T08:51:01Z" uid="20587" user="balrog-kun" changeset="4227478">
    <nd ref="673962814"/>
    <nd ref="673962816"/>
    <nd ref="673962818"/>
    <nd ref="673962817"/>
    <nd ref="673962822"/>
    <nd ref="673962823"/>
    <nd ref="673962814"/>
    <tag k="addr:housenumber" v="10"/>
    <tag k="addr:street" v="Kuśnierska"/>
    <tag k="building" v="residential"/>
    <tag k="building:levels" v="3"/>
    <tag k="building:usage:pl" v="Mieszkalny"/>
    <tag k="source" v="gis.um.szczecin.pl"/>
  </way>
  <way id="53264018" version="1" timestamp="2010-03-25T08:51:01Z" uid="20587" user="balrog-kun" changeset="4227478">
    <nd ref="673962829"/>
    <nd ref="673962828"/>
    <nd ref="673962824"/>
    <nd ref="673962826"/>
    <nd ref="673962829"/>
    <tag k="addr:housenumber" v="12a"/>
    <tag k="addr:street" v="Kuśnierska"/>
    <tag k="building" v="service"/>
    <tag k="building:levels" v="3"/>
    <tag k="building:usage:pl" v="Inny niemieszkalny lub podziemny"/>
    <tag k="source" v="gis.um.szczecin.pl"/>
  </way>
  <way id="53264019" version="1" timestamp="2010-03-25T08:51:01Z" uid="20587" user="balrog-kun" changeset="4227478">
    <nd ref="673962799"/>
    <nd ref="673962797"/>
    <nd ref="673962798"/>
    <nd ref="673962800"/>
    <nd ref="673962799"/>
    <tag k="building" v="manufacture"/>
    <tag k="building:levels" v="1"/>
    <tag k="building:usage:pl" v="Produkcyjny, usługowy lub gospodarczy dla rolnictwa, garaż podziemny"/>
    <tag k="source" v="gis.um.szczecin.pl"/>
  </way>
  <way id="53264020" version="1" timestamp="2010-03-25T08:51:01Z" uid="20587" user="balrog-kun" changeset="4227478">
    <nd ref="673962795"/>
    <nd ref="673962796"/>
    <nd ref="673962798"/>
    <nd ref="673962797"/>
    <nd ref="673962795"/>
    <tag k="building" v="manufacture"/>
    <tag k="building:levels" v="1"/>
    <tag k="building:usage:pl" v="Produkcyjny, usługowy lub gospodarczy dla rolnictwa, garaż podziemny"/>
    <tag k="source" v="gis.um.szczecin.pl"/>
  </way>
  <way id="53264021" version="1" timestamp="2010-03-25T08:51:02Z" uid="20587" user="balrog-kun" changeset="4227478">
    <nd ref="673963044"/>
    <nd ref="673963054"/>
    <nd ref="673963025"/>
    <nd ref="673963043"/>
    <nd ref="673963045"/>
    <nd ref="673962997"/>
    <nd ref="673963046"/>
    <nd ref="673963048"/>
    <nd ref="673963049"/>
    <nd ref="673963053"/>
    <nd ref="673963044"/>
    <tag k="addr:street" v="Kurza Stopka"/>
    <tag k="building" v="residential"/>
    <tag k="building:levels" v="3.5"/>
    <tag k="building:usage:pl" v="Mieszkalny"/>
    <tag k="source" v="gis.um.szczecin.pl"/>
  </way>
  <way id="53264022" version="1" timestamp="2010-03-25T08:51:02Z" uid="20587" user="balrog-kun" changeset="4227478">
    <nd ref="673962994"/>
    <nd ref="673962992"/>
    <nd ref="673962993"/>
    <nd ref="673962990"/>
    <nd ref="673962991"/>
    <nd ref="673963021"/>
    <nd ref="673962994"/>
    <tag k="addr:street" v="Kurza Stopka"/>
    <tag k="building" v="residential"/>
    <tag k="building:levels" v="5"/>
    <tag k="building:usage:pl" v="Mieszkalny"/>
    <tag k="source" v="gis.um.szczecin.pl"/>
  </way>
  <way id="53264023" version="1" timestamp="2010-03-25T08:51:02Z" uid="20587" user="balrog-kun" changeset="4227478">
    <nd ref="673962943"/>
    <nd ref="673962940"/>
    <nd ref="673962938"/>
    <nd ref="673962939"/>
    <nd ref="673962936"/>
    <nd ref="673962937"/>
    <nd ref="673962905"/>
    <nd ref="673962974"/>
    <nd ref="673962942"/>
    <nd ref="673962943"/>
    <tag k="addr:street" v="Wielka Odrzańska"/>
    <tag k="building" v="residential"/>
    <tag k="building:levels" v="4"/>
    <tag k="building:usage:pl" v="Mieszkalny"/>
    <tag k="source" v="gis.um.szczecin.pl"/>
  </way>
  <way id="53264024" version="1" timestamp="2010-03-25T08:51:02Z" uid="20587" user="balrog-kun" changeset="4227478">
    <nd ref="673962876"/>
    <nd ref="673962875"/>
    <nd ref="673962963"/>
    <nd ref="673962944"/>
    <nd ref="673962876"/>
    <tag k="addr:housenumber" v="8"/>
    <tag k="addr:postcode" v="70-533"/>
    <tag k="addr:street" v="Księcia Mściwoja II"/>
    <tag k="building" v="education"/>
    <tag k="building:levels" v="3.5"/>
    <tag k="building:usage:pl" v="Oświaty, nauki, kultury lub budynek sportowy"/>
    <tag k="name" v="Ratusz staromiejski"/>
    <tag k="name:en" v="Old City Town Hall"/>
    <tag k="source" v="gis.um.szczecin.pl"/>
  </way>
  <way id="53264024" version="2" timestamp="2011-07-19T12:27:41Z" uid="473784" user="antblant" changeset="8767923">
    <nd ref="673962876"/>
    <nd ref="673962875"/>
    <nd ref="673962963"/>
    <nd ref="673962944"/>
    <nd ref="673962876"/>
    <tag k="addr:housenumber" v="8"/>
    <tag k="addr:postcode" v="70-533"/>
    <tag k="addr:street" v="Księcia Mściwoja II"/>
    <tag k="building" v="education"/>
    <tag k="building:levels" v="3.5"/>
    <tag k="building:usage:pl" v="Oświaty, nauki, kultury lub budynek sportowy"/>
    <tag k="heritage" v="2"/>
    <tag k="heritage:operator" v="nid"/>
    <tag k="name" v="Ratusz staromiejski"/>
    <tag k="name:en" v="Old City Town Hall"/>
    <tag k="ref:nid" v="4"/>
    <tag k="source" v="gis.um.szczecin.pl"/>
  </way>
  <way id="53264025" version="1" timestamp="2010-03-25T08:51:02Z" uid="20587" user="balrog-kun" changeset="4227478">
    <nd ref="673962971"/>
    <nd ref="673962975"/>
    <nd ref="673963006"/>
    <nd ref="673963001"/>
    <nd ref="673962999"/>
    <nd ref="673963000"/>
    <nd ref="673962971"/>
    <tag k="addr:housenumber" v="4"/>
    <tag k="addr:street" v="Rynek Nowy"/>
    <tag k="building" v="residential"/>
    <tag k="building:levels" v="4"/>
    <tag k="building:usage:pl" v="Mieszkalny"/>
    <tag k="source" v="gis.um.szczecin.pl"/>
  </way>
  <way id="53264026" version="1" timestamp="2010-03-25T08:51:02Z" uid="20587" user="balrog-kun" changeset="4227478">
    <nd ref="673963000"/>
    <nd ref="673962973"/>
    <nd ref="673962972"/>
    <nd ref="673962970"/>
    <nd ref="673962971"/>
    <nd ref="673963000"/>
    <tag k="addr:housenumber" v="3"/>
    <tag k="addr:street" v="Rynek Nowy"/>
    <tag k="building" v="residential"/>
    <tag k="building:levels" v="4"/>
    <tag k="building:usage:pl" v="Mieszkalny"/>
    <tag k="source" v="gis.um.szczecin.pl"/>
  </way>
  <way id="53264027" version="1" timestamp="2010-03-25T08:51:02Z" uid="20587" user="balrog-kun" changeset="4227478">
    <nd ref="673963012"/>
    <nd ref="673963004"/>
    <nd ref="673963005"/>
    <nd ref="673962992"/>
    <nd ref="673962994"/>
    <nd ref="673963021"/>
    <nd ref="673963011"/>
    <nd ref="673963012"/>
    <tag k="addr:housenumber" v="3/4"/>
    <tag k="addr:street" v="Kurza Stopka"/>
    <tag k="building" v="residential"/>
    <tag k="building:levels" v="5"/>
    <tag k="building:usage:pl" v="Mieszkalny"/>
    <tag k="source" v="gis.um.szczecin.pl"/>
  </way>
  <way id="53264028" version="1" timestamp="2010-03-25T08:51:03Z" uid="20587" user="balrog-kun" changeset="4227478">
    <nd ref="673962904"/>
    <nd ref="673962901"/>
    <nd ref="673962900"/>
    <nd ref="673962903"/>
    <nd ref="673962904"/>
    <tag k="addr:housenumber" v="22"/>
    <tag k="addr:street" v="Wielka Odrzańska"/>
    <tag k="building" v="residential"/>
    <tag k="building:levels" v="4"/>
    <tag k="building:usage:pl" v="Mieszkalny"/>
    <tag k="source" v="gis.um.szczecin.pl"/>
  </way>
  <way id="53264029" version="1" timestamp="2010-03-25T08:51:03Z" uid="20587" user="balrog-kun" changeset="4227478">
    <nd ref="673962843"/>
    <nd ref="673962839"/>
    <nd ref="673962851"/>
    <nd ref="673962853"/>
    <nd ref="673962852"/>
    <nd ref="673962850"/>
    <nd ref="673962842"/>
    <nd ref="673962843"/>
    <tag k="addr:housenumber" v="7"/>
    <tag k="addr:street" v="Sienna"/>
    <tag k="building" v="residential"/>
    <tag k="building:levels" v="4"/>
    <tag k="building:usage:pl" v="Mieszkalny"/>
    <tag k="source" v="gis.um.szczecin.pl"/>
  </way>
  <way id="53264030" version="1" timestamp="2010-03-25T08:51:03Z" uid="20587" user="balrog-kun" changeset="4227478">
    <nd ref="673962893"/>
    <nd ref="673962897"/>
    <nd ref="673962902"/>
    <nd ref="673962900"/>
    <nd ref="673962901"/>
    <nd ref="673962893"/>
    <tag k="addr:housenumber" v="23"/>
    <tag k="addr:street" v="Wielka Odrzańska"/>
    <tag k="building" v="residential"/>
    <tag k="building:levels" v="5"/>
    <tag k="building:usage:pl" v="Mieszkalny"/>
    <tag k="source" v="gis.um.szczecin.pl"/>
  </way>
  <way id="53264031" version="1" timestamp="2010-03-25T08:51:03Z" uid="20587" user="balrog-kun" changeset="4227478">
    <nd ref="673962874"/>
    <nd ref="673962869"/>
    <nd ref="673962868"/>
    <nd ref="673962895"/>
    <nd ref="673962894"/>
    <nd ref="673962906"/>
    <nd ref="673962874"/>
    <tag k="addr:housenumber" v="10a"/>
    <tag k="addr:street" v="Sienna"/>
    <tag k="building" v="service"/>
    <tag k="building:levels" v="3"/>
    <tag k="building:usage:pl" v="Inny niemieszkalny lub podziemny"/>
    <tag k="source" v="gis.um.szczecin.pl"/>
  </way>
  <way id="53264032" version="1" timestamp="2010-03-25T08:51:03Z" uid="20587" user="balrog-kun" changeset="4227478">
    <nd ref="673962937"/>
    <nd ref="673962926"/>
    <nd ref="673962928"/>
    <nd ref="673962904"/>
    <nd ref="673962903"/>
    <nd ref="673962905"/>
    <nd ref="673962937"/>
    <tag k="addr:housenumber" v="21"/>
    <tag k="addr:street" v="Wielka Odrzańska"/>
    <tag k="building" v="residential"/>
    <tag k="building:levels" v="4"/>
    <tag k="building:usage:pl" v="Mieszkalny"/>
    <tag k="source" v="gis.um.szczecin.pl"/>
  </way>
  <way id="53264033" version="1" timestamp="2010-03-25T08:51:03Z" uid="20587" user="balrog-kun" changeset="4227478">
    <nd ref="673962842"/>
    <nd ref="673962850"/>
    <nd ref="673962862"/>
    <nd ref="673962865"/>
    <nd ref="673962863"/>
    <nd ref="673962867"/>
    <nd ref="673962866"/>
    <nd ref="673962872"/>
    <nd ref="673962873"/>
    <nd ref="673962842"/>
    <tag k="addr:housenumber" v="8"/>
    <tag k="addr:street" v="Sienna"/>
    <tag k="building" v="residential"/>
    <tag k="building:levels" v="4"/>
    <tag k="building:usage:pl" v="Mieszkalny"/>
    <tag k="source" v="gis.um.szczecin.pl"/>
  </way>
  <way id="53264034" version="1" timestamp="2010-03-25T08:51:03Z" uid="20587" user="balrog-kun" changeset="4227478">
    <nd ref="673962873"/>
    <nd ref="673962872"/>
    <nd ref="673962866"/>
    <nd ref="673962871"/>
    <nd ref="673962870"/>
    <nd ref="673962869"/>
    <nd ref="673962874"/>
    <nd ref="673962877"/>
    <nd ref="673962873"/>
    <tag k="building" v="residential"/>
    <tag k="building:levels" v="4"/>
    <tag k="building:usage:pl" v="Mieszkalny"/>
    <tag k="source" v="gis.um.szczecin.pl"/>
  </way>
  <way id="53264035" version="1" timestamp="2010-03-25T08:51:03Z" uid="20587" user="balrog-kun" changeset="4227478">
    <nd ref="673962880"/>
    <nd ref="673962878"/>
    <nd ref="673962907"/>
    <nd ref="673962913"/>
    <nd ref="673962916"/>
    <nd ref="673962915"/>
    <nd ref="673962880"/>
    <tag k="addr:housenumber" v="11"/>
    <tag k="addr:street" v="Sienna"/>
    <tag k="building" v="residential"/>
    <tag k="building:levels" v="4"/>
    <tag k="building:usage:pl" v="Mieszkalny"/>
    <tag k="source" v="gis.um.szczecin.pl"/>
  </way>
  <way id="53264036" version="1" timestamp="2010-03-25T08:51:03Z" uid="20587" user="balrog-kun" changeset="4227478">
    <nd ref="673962890"/>
    <nd ref="673962886"/>
    <nd ref="673962888"/>
    <nd ref="673962887"/>
    <nd ref="673962890"/>
    <tag k="addr:housenumber" v="26"/>
    <tag k="addr:street" v="Wielka Odrzańska"/>
    <tag k="building" v="residential"/>
    <tag k="building:levels" v="2"/>
    <tag k="building:usage:pl" v="Mieszkalny"/>
    <tag k="source" v="gis.um.szczecin.pl"/>
  </way>
  <way id="53264037" version="1" timestamp="2010-03-25T08:51:03Z" uid="20587" user="balrog-kun" changeset="4227478">
    <nd ref="673962887"/>
    <nd ref="673962898"/>
    <nd ref="673962897"/>
    <nd ref="673962893"/>
    <nd ref="673962896"/>
    <nd ref="673962891"/>
    <nd ref="673962890"/>
    <nd ref="673962887"/>
    <tag k="addr:street" v="Wielka Odrzańska"/>
    <tag k="building" v="residential"/>
    <tag k="building:levels" v="4"/>
    <tag k="building:usage:pl" v="Mieszkalny"/>
    <tag k="source" v="gis.um.szczecin.pl"/>
  </way>
  <way id="53264038" version="1" timestamp="2010-03-25T08:51:04Z" uid="20587" user="balrog-kun" changeset="4227478">
    <nd ref="673962880"/>
    <nd ref="673962915"/>
    <nd ref="673962916"/>
    <nd ref="673962913"/>
    <nd ref="673962924"/>
    <nd ref="673962922"/>
    <nd ref="673962920"/>
    <nd ref="673962919"/>
    <nd ref="673962880"/>
    <tag k="addr:housenumber" v="1"/>
    <tag k="addr:street" v="Rynek Nowy"/>
    <tag k="building" v="residential"/>
    <tag k="building:levels" v="4"/>
    <tag k="building:usage:pl" v="Mieszkalny"/>
    <tag k="source" v="gis.um.szczecin.pl"/>
  </way>
  <way id="53264039" version="1" timestamp="2010-03-25T08:51:04Z" uid="20587" user="balrog-kun" changeset="4227478">
    <nd ref="673962922"/>
    <nd ref="673962924"/>
    <nd ref="673962918"/>
    <nd ref="673962917"/>
    <nd ref="673962912"/>
    <nd ref="673962911"/>
    <nd ref="673962909"/>
    <nd ref="673962908"/>
    <nd ref="673962910"/>
    <nd ref="673962940"/>
    <nd ref="673962943"/>
    <nd ref="673962920"/>
    <nd ref="673962922"/>
    <tag k="addr:housenumber" v="2"/>
    <tag k="addr:street" v="Rynek Nowy"/>
    <tag k="building" v="residential"/>
    <tag k="building:levels" v="4"/>
    <tag k="building:usage:pl" v="Mieszkalny"/>
    <tag k="source" v="gis.um.szczecin.pl"/>
  </way>
  <way id="53264040" version="1" timestamp="2010-03-25T08:51:04Z" uid="20587" user="balrog-kun" changeset="4227478">
    <nd ref="673962877"/>
    <nd ref="673962874"/>
    <nd ref="673962906"/>
    <nd ref="673962907"/>
    <nd ref="673962878"/>
    <nd ref="673962877"/>
    <tag k="addr:housenumber" v="10"/>
    <tag k="addr:street" v="Sienna"/>
    <tag k="building" v="residential"/>
    <tag k="building:levels" v="4"/>
    <tag k="building:usage:pl" v="Mieszkalny"/>
    <tag k="source" v="gis.um.szczecin.pl"/>
  </way>
  <way id="53264041" version="1" timestamp="2010-03-25T08:51:04Z" uid="20587" user="balrog-kun" changeset="4227478">
    <nd ref="673962861"/>
    <nd ref="673962845"/>
    <nd ref="673962849"/>
    <nd ref="673962848"/>
    <nd ref="673962847"/>
    <nd ref="673962846"/>
    <nd ref="673962853"/>
    <nd ref="673962851"/>
    <nd ref="673962839"/>
    <nd ref="673962844"/>
    <nd ref="673962861"/>
    <tag k="addr:housenumber" v="10"/>
    <tag k="addr:street" v="Osiek"/>
    <tag k="building" v="residential"/>
    <tag k="building:levels" v="4"/>
    <tag k="building:usage:pl" v="Mieszkalny"/>
    <tag k="source" v="gis.um.szczecin.pl"/>
  </way>
  <way id="53264042" version="1" timestamp="2010-03-25T08:51:04Z" uid="20587" user="balrog-kun" changeset="4227478">
    <nd ref="673962956"/>
    <nd ref="673962959"/>
    <nd ref="673962958"/>
    <nd ref="673962957"/>
    <nd ref="673962956"/>
    <tag k="building" v="residential"/>
    <tag k="building:levels" v="2"/>
    <tag k="building:usage:pl" v="Mieszkalny"/>
    <tag k="source" v="gis.um.szczecin.pl"/>
  </way>
  <way id="53264043" version="1" timestamp="2010-03-25T08:51:04Z" uid="20587" user="balrog-kun" changeset="4227478">
    <nd ref="673962954"/>
    <nd ref="673962956"/>
    <nd ref="673962957"/>
    <nd ref="673962955"/>
    <nd ref="673962953"/>
    <nd ref="673962954"/>
    <tag k="addr:housenumber" v="3"/>
    <tag k="addr:street" v="Kurkowa"/>
    <tag k="building" v="service"/>
    <tag k="building:levels" v="4"/>
    <tag k="building:usage:pl" v="Inny niemieszkalny lub podziemny"/>
    <tag k="source" v="gis.um.szczecin.pl"/>
  </way>
  <way id="53264043" version="2" timestamp="2011-07-19T12:27:36Z" uid="473784" user="antblant" changeset="8767923">
    <nd ref="673962954"/>
    <nd ref="673962956"/>
    <nd ref="673962957"/>
    <nd ref="673962955"/>
    <nd ref="673962953"/>
    <nd ref="673962954"/>
    <tag k="addr:housenumber" v="3"/>
    <tag k="addr:street" v="Kurkowa"/>
    <tag k="building" v="service"/>
    <tag k="building:levels" v="4"/>
    <tag k="building:usage:pl" v="Inny niemieszkalny lub podziemny"/>
    <tag k="heritage" v="2"/>
    <tag k="heritage:operator" v="nid"/>
    <tag k="ref:nid" v="4"/>
    <tag k="source" v="gis.um.szczecin.pl"/>
  </way>
  <way id="53264044" version="1" timestamp="2010-03-25T08:51:04Z" uid="20587" user="balrog-kun" changeset="4227478">
    <nd ref="673962990"/>
    <nd ref="673962989"/>
    <nd ref="673962996"/>
    <nd ref="673962991"/>
    <nd ref="673962990"/>
    <tag k="addr:housenumber" v="6"/>
    <tag k="addr:street" v="Kurza Stopka"/>
    <tag k="building" v="residential"/>
    <tag k="building:levels" v="4"/>
    <tag k="building:usage:pl" v="Mieszkalny"/>
    <tag k="source" v="gis.um.szczecin.pl"/>
  </way>
  <way id="53264045" version="1" timestamp="2010-03-25T08:51:05Z" uid="20587" user="balrog-kun" changeset="4227478">
    <nd ref="673962978"/>
    <nd ref="673962980"/>
    <nd ref="673962979"/>
    <nd ref="673962976"/>
    <nd ref="673962985"/>
    <nd ref="673962984"/>
    <nd ref="673962987"/>
    <nd ref="673962989"/>
    <nd ref="673962993"/>
    <nd ref="673962978"/>
    <tag k="addr:housenumber" v="19"/>
    <tag k="addr:street" v="Mała Odrzańska"/>
    <tag k="building" v="residential"/>
    <tag k="building:levels" v="3"/>
    <tag k="building:usage:pl" v="Mieszkalny"/>
    <tag k="source" v="gis.um.szczecin.pl"/>
  </way>
  <way id="53264046" version="1" timestamp="2010-03-25T08:51:05Z" uid="20587" user="balrog-kun" changeset="4227478">
    <nd ref="673962983"/>
    <nd ref="673962977"/>
    <nd ref="673962976"/>
    <nd ref="673962979"/>
    <nd ref="673962980"/>
    <nd ref="673962983"/>
    <tag k="addr:housenumber" v="2"/>
    <tag k="addr:street" v="Opłotki"/>
    <tag k="building" v="residential"/>
    <tag k="building:levels" v="3"/>
    <tag k="building:usage:pl" v="Mieszkalny"/>
    <tag k="source" v="gis.um.szczecin.pl"/>
  </way>
  <way id="53264047" version="1" timestamp="2010-03-25T08:51:05Z" uid="20587" user="balrog-kun" changeset="4227478">
    <nd ref="673962970"/>
    <nd ref="673962977"/>
    <nd ref="673962983"/>
    <nd ref="673962982"/>
    <nd ref="673962981"/>
    <nd ref="673962975"/>
    <nd ref="673962971"/>
    <nd ref="673962970"/>
    <tag k="addr:housenumber" v="1"/>
    <tag k="addr:street" v="Opłotki"/>
    <tag k="building" v="residential"/>
    <tag k="building:levels" v="4"/>
    <tag k="building:usage:pl" v="Mieszkalny"/>
    <tag k="source" v="gis.um.szczecin.pl"/>
  </way>
  <way id="53264048" version="1" timestamp="2010-03-25T08:51:05Z" uid="20587" user="balrog-kun" changeset="4227478">
    <nd ref="673963061"/>
    <nd ref="673963060"/>
    <nd ref="673963059"/>
    <nd ref="673963062"/>
    <nd ref="673963076"/>
    <nd ref="673963077"/>
    <nd ref="673963073"/>
    <nd ref="673963070"/>
    <nd ref="673963061"/>
    <tag k="addr:housenumber" v="4"/>
    <tag k="addr:street" v="Targ Rybny"/>
    <tag k="building" v="residential"/>
    <tag k="building:levels" v="4.5"/>
    <tag k="building:usage:pl" v="Mieszkalny"/>
    <tag k="source" v="gis.um.szczecin.pl"/>
  </way>
  <way id="53264049" version="1" timestamp="2010-03-25T08:51:05Z" uid="20587" user="balrog-kun" changeset="4227478">
    <nd ref="673963001"/>
    <nd ref="673963006"/>
    <nd ref="673963009"/>
    <nd ref="673963010"/>
    <nd ref="673963002"/>
    <nd ref="673963001"/>
    <tag k="addr:housenumber" v="5"/>
    <tag k="addr:street" v="Rynek Nowy"/>
    <tag k="building" v="residential"/>
    <tag k="building:levels" v="4"/>
    <tag k="building:usage:pl" v="Mieszkalny"/>
    <tag k="source" v="gis.um.szczecin.pl"/>
  </way>
  <way id="53264050" version="1" timestamp="2010-03-25T08:51:05Z" uid="20587" user="balrog-kun" changeset="4227478">
    <nd ref="673963032"/>
    <nd ref="673963029"/>
    <nd ref="673963035"/>
    <nd ref="673963036"/>
    <nd ref="673963034"/>
    <nd ref="673963042"/>
    <nd ref="673963041"/>
    <nd ref="673963032"/>
    <tag k="addr:housenumber" v="15a"/>
    <tag k="addr:street" v="Kurza Stopka"/>
    <tag k="building" v="residential"/>
    <tag k="building:levels" v="3.5"/>
    <tag k="building:usage:pl" v="Mieszkalny"/>
    <tag k="source" v="gis.um.szczecin.pl"/>
  </way>
  <way id="53264051" version="1" timestamp="2010-03-25T08:51:05Z" uid="20587" user="balrog-kun" changeset="4227478">
    <nd ref="673963017"/>
    <nd ref="673963003"/>
    <nd ref="673963015"/>
    <nd ref="673963016"/>
    <nd ref="673963017"/>
    <tag k="addr:housenumber" v="7"/>
    <tag k="addr:street" v="Rynek Nowy"/>
    <tag k="building" v="residential"/>
    <tag k="building:levels" v="5"/>
    <tag k="building:usage:pl" v="Mieszkalny"/>
    <tag k="source" v="gis.um.szczecin.pl"/>
  </way>
  <way id="53264052" version="1" timestamp="2010-03-25T08:51:05Z" uid="20587" user="balrog-kun" changeset="4227478">
    <nd ref="673963033"/>
    <nd ref="673963034"/>
    <nd ref="673963035"/>
    <nd ref="673963029"/>
    <nd ref="673963028"/>
    <nd ref="673963026"/>
    <nd ref="673963027"/>
    <nd ref="673963025"/>
    <nd ref="673963054"/>
    <nd ref="673963053"/>
    <nd ref="673963052"/>
    <nd ref="673963031"/>
    <nd ref="673963033"/>
    <tag k="addr:housenumber" v="15"/>
    <tag k="addr:street" v="Kurza Stopka"/>
    <tag k="building" v="residential"/>
    <tag k="building:levels" v="4.5"/>
    <tag k="building:usage:pl" v="Mieszkalny"/>
    <tag k="source" v="gis.um.szczecin.pl"/>
  </way>
  <way id="53264053" version="1" timestamp="2010-03-25T08:51:05Z" uid="20587" user="balrog-kun" changeset="4227478">
    <nd ref="673963007"/>
    <nd ref="673963014"/>
    <nd ref="673963013"/>
    <nd ref="673963004"/>
    <nd ref="673963012"/>
    <nd ref="673963011"/>
    <nd ref="673963016"/>
    <nd ref="673963015"/>
    <nd ref="673963007"/>
    <tag k="addr:housenumber" v="2"/>
    <tag k="addr:street" v="Kurza Stopka"/>
    <tag k="building" v="residential"/>
    <tag k="building:levels" v="5"/>
    <tag k="building:usage:pl" v="Mieszkalny"/>
    <tag k="source" v="gis.um.szczecin.pl"/>
  </way>
  <way id="53264054" version="1" timestamp="2010-03-25T08:51:05Z" uid="20587" user="balrog-kun" changeset="4227478">
    <nd ref="673963002"/>
    <nd ref="673963010"/>
    <nd ref="673963009"/>
    <nd ref="673963008"/>
    <nd ref="673963014"/>
    <nd ref="673963007"/>
    <nd ref="673963015"/>
    <nd ref="673963003"/>
    <nd ref="673963002"/>
    <tag k="addr:housenumber" v="6"/>
    <tag k="addr:street" v="Rynek Nowy"/>
    <tag k="building" v="residential"/>
    <tag k="building:levels" v="4"/>
    <tag k="building:usage:pl" v="Mieszkalny"/>
    <tag k="source" v="gis.um.szczecin.pl"/>
  </way>
  <way id="53264055" version="1" timestamp="2010-03-25T08:51:06Z" uid="20587" user="balrog-kun" changeset="4227478">
    <nd ref="673963063"/>
    <nd ref="673963064"/>
    <nd ref="673963065"/>
    <nd ref="673963066"/>
    <nd ref="673963067"/>
    <nd ref="673963068"/>
    <nd ref="673963059"/>
    <nd ref="673963060"/>
    <nd ref="673963061"/>
    <nd ref="673963063"/>
    <tag k="addr:housenumber" v="3"/>
    <tag k="addr:street" v="Targ Rybny"/>
    <tag k="building" v="residential"/>
    <tag k="building:levels" v="4.5"/>
    <tag k="building:usage:pl" v="Mieszkalny"/>
    <tag k="source" v="gis.um.szczecin.pl"/>
  </way>
  <way id="53264056" version="1" timestamp="2010-03-25T08:51:06Z" uid="20587" user="balrog-kun" changeset="4227478">
    <nd ref="673963079"/>
    <nd ref="673963080"/>
    <nd ref="673963081"/>
    <nd ref="673963055"/>
    <nd ref="673963056"/>
    <nd ref="673963057"/>
    <nd ref="673963082"/>
    <nd ref="673963078"/>
    <nd ref="673963079"/>
    <tag k="addr:housenumber" v="9"/>
    <tag k="addr:street" v="Środowa"/>
    <tag k="building" v="residential"/>
    <tag k="building:levels" v="4.5"/>
    <tag k="building:usage:pl" v="Mieszkalny"/>
    <tag k="source" v="gis.um.szczecin.pl"/>
  </way>
  <way id="53264057" version="1" timestamp="2010-03-25T08:51:06Z" uid="20587" user="balrog-kun" changeset="4227478">
    <nd ref="673963018"/>
    <nd ref="673963039"/>
    <nd ref="673963032"/>
    <nd ref="673963041"/>
    <nd ref="673963042"/>
    <nd ref="673963040"/>
    <nd ref="673963038"/>
    <nd ref="673963037"/>
    <nd ref="673963020"/>
    <nd ref="673963018"/>
    <tag k="addr:housenumber" v="1"/>
    <tag k="addr:street" v="Targ Rybny"/>
    <tag k="building" v="residential"/>
    <tag k="building:levels" v="4.5"/>
    <tag k="building:usage:pl" v="Mieszkalny"/>
    <tag k="source" v="gis.um.szczecin.pl"/>
  </way>
  <way id="53264058" version="1" timestamp="2010-03-25T08:51:06Z" uid="20587" user="balrog-kun" changeset="4227478">
    <nd ref="673963077"/>
    <nd ref="673963080"/>
    <nd ref="673963079"/>
    <nd ref="673963078"/>
    <nd ref="673963084"/>
    <nd ref="673963074"/>
    <nd ref="673963073"/>
    <nd ref="673963077"/>
    <tag k="addr:housenumber" v="8"/>
    <tag k="addr:street" v="Środowa"/>
    <tag k="building" v="residential"/>
    <tag k="building:levels" v="4.5"/>
    <tag k="building:usage:pl" v="Mieszkalny"/>
    <tag k="source" v="gis.um.szczecin.pl"/>
  </way>
  <way id="53264059" version="1" timestamp="2010-03-25T08:51:06Z" uid="20587" user="balrog-kun" changeset="4227478">
    <nd ref="673963070"/>
    <nd ref="673963073"/>
    <nd ref="673963074"/>
    <nd ref="673963084"/>
    <nd ref="673963075"/>
    <nd ref="673963072"/>
    <nd ref="673963070"/>
    <tag k="addr:housenumber" v="7"/>
    <tag k="addr:street" v="Środowa"/>
    <tag k="building" v="residential"/>
    <tag k="building:levels" v="4.5"/>
    <tag k="building:usage:pl" v="Mieszkalny"/>
    <tag k="source" v="gis.um.szczecin.pl"/>
  </way>
  <way id="53264060" version="1" timestamp="2010-03-25T08:51:06Z" uid="20587" user="balrog-kun" changeset="4227478">
    <nd ref="673963145"/>
    <nd ref="673963144"/>
    <nd ref="673963177"/>
    <nd ref="673963176"/>
    <nd ref="673963141"/>
    <nd ref="673963143"/>
    <nd ref="673963145"/>
    <tag k="addr:housenumber" v="20"/>
    <tag k="addr:street" v="Panieńska"/>
    <tag k="building" v="residential"/>
    <tag k="building:levels" v="2"/>
    <tag k="building:usage:pl" v="Mieszkalny"/>
    <tag k="source" v="gis.um.szczecin.pl"/>
  </way>
  <way id="53264061" version="1" timestamp="2010-03-25T08:51:07Z" uid="20587" user="balrog-kun" changeset="4227478">
    <nd ref="673963211"/>
    <nd ref="673963212"/>
    <nd ref="673963213"/>
    <nd ref="673963195"/>
    <nd ref="673963197"/>
    <nd ref="673963196"/>
    <nd ref="673963199"/>
    <nd ref="673963201"/>
    <nd ref="673963205"/>
    <nd ref="673963214"/>
    <nd ref="673963215"/>
    <nd ref="673963211"/>
    <tag k="addr:housenumber" v="15"/>
    <tag k="addr:street" v="Panieńska"/>
    <tag k="building" v="residential"/>
    <tag k="building:levels" v="1"/>
    <tag k="building:usage:pl" v="Mieszkalny"/>
    <tag k="source" v="gis.um.szczecin.pl"/>
  </way>
  <way id="53264062" version="1" timestamp="2010-03-25T08:51:07Z" uid="20587" user="balrog-kun" changeset="4227478">
    <nd ref="673963183"/>
    <nd ref="673963143"/>
    <nd ref="673963141"/>
    <nd ref="673963176"/>
    <nd ref="673963186"/>
    <nd ref="673963185"/>
    <nd ref="673963180"/>
    <nd ref="673963179"/>
    <nd ref="673963184"/>
    <nd ref="673963183"/>
    <tag k="addr:housenumber" v="19"/>
    <tag k="addr:street" v="Panieńska"/>
    <tag k="building" v="residential"/>
    <tag k="building:levels" v="3.5"/>
    <tag k="building:usage:pl" v="Mieszkalny"/>
    <tag k="source" v="gis.um.szczecin.pl"/>
  </way>
  <way id="53264063" version="1" timestamp="2010-03-25T08:51:07Z" uid="20587" user="balrog-kun" changeset="4227478">
    <nd ref="673963116"/>
    <nd ref="673963114"/>
    <nd ref="673963113"/>
    <nd ref="673963125"/>
    <nd ref="673963112"/>
    <nd ref="673963117"/>
    <nd ref="673963116"/>
    <tag k="addr:housenumber" v="14"/>
    <tag k="addr:street" v="Kuśnierska"/>
    <tag k="building" v="residential"/>
    <tag k="building:levels" v="4"/>
    <tag k="building:usage:pl" v="Mieszkalny"/>
    <tag k="source" v="gis.um.szczecin.pl"/>
  </way>
  <way id="53264064" version="1" timestamp="2010-03-25T08:51:07Z" uid="20587" user="balrog-kun" changeset="4227478">
    <nd ref="673963088"/>
    <nd ref="673963089"/>
    <nd ref="673963090"/>
    <nd ref="673963091"/>
    <nd ref="673963092"/>
    <nd ref="673963093"/>
    <nd ref="673963094"/>
    <nd ref="673963108"/>
    <nd ref="673963088"/>
    <tag k="addr:housenumber" v="2"/>
    <tag k="addr:street" v="Kurkowa"/>
    <tag k="building" v="service"/>
    <tag k="building:levels" v="3"/>
    <tag k="building:usage:pl" v="Inny niemieszkalny lub podziemny"/>
    <tag k="source" v="gis.um.szczecin.pl"/>
  </way>
  <way id="53264064" version="2" timestamp="2011-07-19T12:27:35Z" uid="473784" user="antblant" changeset="8767923">
    <nd ref="673963088"/>
    <nd ref="673963089"/>
    <nd ref="673963090"/>
    <nd ref="673963091"/>
    <nd ref="673963092"/>
    <nd ref="673963093"/>
    <nd ref="673963094"/>
    <nd ref="673963108"/>
    <nd ref="673963088"/>
    <tag k="addr:housenumber" v="2"/>
    <tag k="addr:street" v="Kurkowa"/>
    <tag k="building" v="service"/>
    <tag k="building:levels" v="3"/>
    <tag k="building:usage:pl" v="Inny niemieszkalny lub podziemny"/>
    <tag k="heritage" v="2"/>
    <tag k="heritage:operator" v="nid"/>
    <tag k="ref:nid" v="4"/>
    <tag k="source" v="gis.um.szczecin.pl"/>
  </way>
  <way id="53264065" version="1" timestamp="2010-03-25T08:51:07Z" uid="20587" user="balrog-kun" changeset="4227478">
    <nd ref="673963104"/>
    <nd ref="673963105"/>
    <nd ref="673963095"/>
    <nd ref="673963106"/>
    <nd ref="673963111"/>
    <nd ref="673963109"/>
    <nd ref="673963103"/>
    <nd ref="673963104"/>
    <tag k="addr:housenumber" v="50"/>
    <tag k="addr:street" v="Grodzka"/>
    <tag k="building" v="service"/>
    <tag k="building:levels" v="3"/>
    <tag k="building:usage:pl" v="Inny niemieszkalny lub podziemny"/>
    <tag k="source" v="gis.um.szczecin.pl"/>
  </way>
  <way id="53264066" version="1" timestamp="2010-03-25T08:51:07Z" uid="20587" user="balrog-kun" changeset="4227478">
    <nd ref="673963111"/>
    <nd ref="673963106"/>
    <nd ref="673963129"/>
    <nd ref="673963127"/>
    <nd ref="673963132"/>
    <nd ref="673963128"/>
    <nd ref="673963111"/>
    <tag k="building" v="service"/>
    <tag k="building:levels" v="2"/>
    <tag k="building:usage:pl" v="Inny niemieszkalny lub podziemny"/>
    <tag k="source" v="gis.um.szczecin.pl"/>
  </way>
  <way id="53264067" version="1" timestamp="2010-03-25T08:51:07Z" uid="20587" user="balrog-kun" changeset="4227478">
    <nd ref="673963133"/>
    <nd ref="673963140"/>
    <nd ref="673963142"/>
    <nd ref="673963139"/>
    <nd ref="673963133"/>
    <tag k="building" v="service"/>
    <tag k="building:levels" v="1"/>
    <tag k="building:usage:pl" v="Inny niemieszkalny lub podziemny"/>
    <tag k="source" v="gis.um.szczecin.pl"/>
  </way>
  <way id="53264067" version="2" timestamp="2010-03-27T18:33:04Z" uid="30632" user="antblant" changeset="4249458">
    <nd ref="673963133"/>
    <nd ref="673963140"/>
    <nd ref="673963142"/>
    <nd ref="676134800"/>
    <nd ref="673963139"/>
    <nd ref="676134798"/>
    <nd ref="673963133"/>
    <tag k="area" v="yes"/>
    <tag k="highway" v="pedestrian"/>
    <tag k="source" v="gis.um.szczecin.pl"/>
  </way>
  <way id="53264068" version="1" timestamp="2010-03-25T08:51:07Z" uid="20587" user="balrog-kun" changeset="4227478">
    <nd ref="673963127"/>
    <nd ref="673963134"/>
    <nd ref="673963131"/>
    <nd ref="673963132"/>
    <nd ref="673963127"/>
    <tag k="addr:housenumber" v="13"/>
    <tag k="addr:street" v="Kuśnierska"/>
    <tag k="building" v="service"/>
    <tag k="building:levels" v="3"/>
    <tag k="building:usage:pl" v="Inny niemieszkalny lub podziemny"/>
    <tag k="source" v="gis.um.szczecin.pl"/>
  </way>
  <way id="53264069" version="1" timestamp="2010-03-25T08:51:07Z" uid="20587" user="balrog-kun" changeset="4227478">
    <nd ref="673963118"/>
    <nd ref="673963116"/>
    <nd ref="673963117"/>
    <nd ref="673963115"/>
    <nd ref="673963130"/>
    <nd ref="673963131"/>
    <nd ref="673963134"/>
    <nd ref="673963118"/>
    <tag k="addr:housenumber" v="14a"/>
    <tag k="addr:street" v="Kuśnierska"/>
    <tag k="building" v="service"/>
    <tag k="building:levels" v="4"/>
    <tag k="building:usage:pl" v="Inny niemieszkalny lub podziemny"/>
    <tag k="source" v="gis.um.szczecin.pl"/>
  </way>
  <way id="53264070" version="1" timestamp="2010-03-25T08:51:07Z" uid="20587" user="balrog-kun" changeset="4227478">
    <nd ref="673963114"/>
    <nd ref="673963122"/>
    <nd ref="673963123"/>
    <nd ref="673963120"/>
    <nd ref="673963124"/>
    <nd ref="673963125"/>
    <nd ref="673963113"/>
    <nd ref="673963114"/>
    <tag k="addr:housenumber" v="15"/>
    <tag k="addr:street" v="Kuśnierska"/>
    <tag k="building" v="residential"/>
    <tag k="building:levels" v="4"/>
    <tag k="building:usage:pl" v="Mieszkalny"/>
    <tag k="source" v="gis.um.szczecin.pl"/>
  </way>
  <way id="53264071" version="1" timestamp="2010-03-25T08:51:08Z" uid="20587" user="balrog-kun" changeset="4227478">
    <nd ref="673963194"/>
    <nd ref="673963188"/>
    <nd ref="673963184"/>
    <nd ref="673963179"/>
    <nd ref="673963180"/>
    <nd ref="673963181"/>
    <nd ref="673963182"/>
    <nd ref="673963178"/>
    <nd ref="673963193"/>
    <nd ref="673963194"/>
    <tag k="addr:housenumber" v="18"/>
    <tag k="addr:street" v="Panieńska"/>
    <tag k="building" v="residential"/>
    <tag k="building:levels" v="3.5"/>
    <tag k="building:usage:pl" v="Mieszkalny"/>
    <tag k="source" v="gis.um.szczecin.pl"/>
  </way>
  <way id="53264072" version="1" timestamp="2010-03-25T08:51:08Z" uid="20587" user="balrog-kun" changeset="4227478">
    <nd ref="673963187"/>
    <nd ref="673963198"/>
    <nd ref="673963199"/>
    <nd ref="673963196"/>
    <nd ref="673963197"/>
    <nd ref="673963192"/>
    <nd ref="673963187"/>
    <tag k="addr:housenumber" v="16"/>
    <tag k="addr:street" v="Panieńska"/>
    <tag k="building" v="offices"/>
    <tag k="building:levels" v="4.5"/>
    <tag k="building:usage:pl" v="Biurowy"/>
    <tag k="landuse" v="commercial"/>
    <tag k="source" v="gis.um.szczecin.pl"/>
  </way>
  <way id="53264073" version="1" timestamp="2010-03-25T08:51:08Z" uid="20587" user="balrog-kun" changeset="4227478">
    <nd ref="673963191"/>
    <nd ref="673963190"/>
    <nd ref="673963188"/>
    <nd ref="673963193"/>
    <nd ref="673963178"/>
    <nd ref="673963198"/>
    <nd ref="673963187"/>
    <nd ref="673963192"/>
    <nd ref="673963191"/>
    <tag k="addr:housenumber" v="17"/>
    <tag k="addr:street" v="Panieńska"/>
    <tag k="building" v="residential"/>
    <tag k="building:levels" v="3.5"/>
    <tag k="building:usage:pl" v="Mieszkalny"/>
    <tag k="source" v="gis.um.szczecin.pl"/>
  </way>
  <way id="53264074" version="1" timestamp="2010-03-25T08:51:08Z" uid="20587" user="balrog-kun" changeset="4227478">
    <nd ref="673963259"/>
    <nd ref="673963260"/>
    <nd ref="673963243"/>
    <nd ref="673963252"/>
    <nd ref="673963221"/>
    <nd ref="673963223"/>
    <nd ref="673963222"/>
    <nd ref="673963220"/>
    <nd ref="673963219"/>
    <nd ref="673963234"/>
    <nd ref="673963251"/>
    <nd ref="673963248"/>
    <nd ref="673963247"/>
    <nd ref="673963250"/>
    <nd ref="673963249"/>
    <nd ref="673963245"/>
    <nd ref="673963244"/>
    <nd ref="673963246"/>
    <nd ref="673963242"/>
    <nd ref="673963254"/>
    <nd ref="673963261"/>
    <nd ref="673963259"/>
    <tag k="addr:housenumber" v="12"/>
    <tag k="addr:street" v="Panieńska"/>
    <tag k="building" v="residential"/>
    <tag k="building:levels" v="4.5"/>
    <tag k="building:usage:pl" v="Mieszkalny"/>
    <tag k="source" v="gis.um.szczecin.pl"/>
  </way>
  <way id="53264075" version="1" timestamp="2010-03-25T08:51:08Z" uid="20587" user="balrog-kun" changeset="4227478">
    <nd ref="673963258"/>
    <nd ref="673963255"/>
    <nd ref="673963256"/>
    <nd ref="673963257"/>
    <nd ref="673963254"/>
    <nd ref="673963242"/>
    <nd ref="673963240"/>
    <nd ref="673963241"/>
    <nd ref="673963266"/>
    <nd ref="673963267"/>
    <nd ref="673963263"/>
    <nd ref="673963264"/>
    <nd ref="673963269"/>
    <nd ref="673963253"/>
    <nd ref="673963258"/>
    <tag k="addr:housenumber" v="11"/>
    <tag k="addr:street" v="Panieńska"/>
    <tag k="building" v="residential"/>
    <tag k="building:levels" v="3.5"/>
    <tag k="building:usage:pl" v="Mieszkalny"/>
    <tag k="source" v="gis.um.szczecin.pl"/>
  </way>
  <way id="53264076" version="1" timestamp="2010-03-25T08:51:08Z" uid="20587" user="balrog-kun" changeset="4227478">
    <nd ref="673963262"/>
    <nd ref="673963253"/>
    <nd ref="673963269"/>
    <nd ref="673963268"/>
    <nd ref="673963272"/>
    <nd ref="673963262"/>
    <tag k="addr:street" v="Panieńska"/>
    <tag k="building" v="residential"/>
    <tag k="building:levels" v="2"/>
    <tag k="building:usage:pl" v="Mieszkalny"/>
    <tag k="source" v="gis.um.szczecin.pl"/>
  </way>
  <way id="53264077" version="1" timestamp="2010-03-25T08:51:09Z" uid="20587" user="balrog-kun" changeset="4227478">
    <nd ref="673963202"/>
    <nd ref="673963203"/>
    <nd ref="673963215"/>
    <nd ref="673963204"/>
    <nd ref="673963214"/>
    <nd ref="673963205"/>
    <nd ref="673963206"/>
    <nd ref="673963207"/>
    <nd ref="673963208"/>
    <nd ref="673963209"/>
    <nd ref="673963210"/>
    <nd ref="673963239"/>
    <nd ref="673963235"/>
    <nd ref="673963236"/>
    <nd ref="673963237"/>
    <nd ref="673963218"/>
    <nd ref="673963216"/>
    <nd ref="673963202"/>
    <tag k="addr:housenumber" v="14"/>
    <tag k="addr:street" v="Panieńska"/>
    <tag k="building" v="residential"/>
    <tag k="building:levels" v="1"/>
    <tag k="building:usage:pl" v="Mieszkalny"/>
    <tag k="source" v="gis.um.szczecin.pl"/>
  </way>
  <way id="53264078" version="1" timestamp="2010-03-25T08:51:09Z" uid="20587" user="balrog-kun" changeset="4227478">
    <nd ref="673963217"/>
    <nd ref="673963216"/>
    <nd ref="673963218"/>
    <nd ref="673963237"/>
    <nd ref="673963233"/>
    <nd ref="673963234"/>
    <nd ref="673963219"/>
    <nd ref="673963217"/>
    <tag k="addr:housenumber" v="13"/>
    <tag k="addr:street" v="Panieńska"/>
    <tag k="building" v="residential"/>
    <tag k="building:levels" v="2"/>
    <tag k="building:usage:pl" v="Mieszkalny"/>
    <tag k="source" v="gis.um.szczecin.pl"/>
  </way>
  <way id="53264079" version="1" timestamp="2010-03-25T08:51:09Z" uid="20587" user="balrog-kun" changeset="4227478">
    <nd ref="673963304"/>
    <nd ref="673963306"/>
    <nd ref="673963307"/>
    <nd ref="673963308"/>
    <nd ref="673963304"/>
    <tag k="addr:housenumber" v="47"/>
    <tag k="addr:street" v="Panieńska"/>
    <tag k="alt_name" v="Baszta Siedmiu Płaszczy"/>
    <tag k="building" v="tower"/>
    <tag k="building:levels" v="1"/>
    <tag k="building:usage:pl" v="Inny niemieszkalny lub podziemny"/>
    <tag k="name" v="Baszta Panieńska"/>
    <tag k="source" v="gis.um.szczecin.pl"/>
    <tag k="tourism" v="attraction"/>
    <tag k="wikipedia" v="Pl:Baszta_Panieńska"/>
  </way>
  <way id="53264079" version="2" timestamp="2011-07-19T12:56:22Z" uid="473784" user="antblant" changeset="8768261">
    <nd ref="673963307"/>
    <nd ref="1366634586"/>
    <nd ref="1366634582"/>
    <nd ref="1366634585"/>
    <nd ref="673963306"/>
    <nd ref="1366634588"/>
    <nd ref="1366634595"/>
    <nd ref="673963304"/>
    <nd ref="1366634597"/>
    <nd ref="1366634596"/>
    <nd ref="1366634594"/>
    <nd ref="673963307"/>
    <tag k="addr:housenumber" v="47"/>
    <tag k="addr:street" v="Panieńska"/>
    <tag k="alt_name" v="Baszta Siedmiu Płaszczy"/>
    <tag k="building" v="tower"/>
    <tag k="building:levels" v="1"/>
    <tag k="building:usage:pl" v="Inny niemieszkalny lub podziemny"/>
    <tag k="name" v="Baszta Panieńska"/>
    <tag k="source" v="gis.um.szczecin.pl"/>
    <tag k="tourism" v="attraction"/>
    <tag k="wikipedia" v="Pl:Baszta_Panieńska"/>
  </way>
  <way id="53264079" version="3" timestamp="2011-08-02T16:41:52Z" uid="473784" user="antblant" changeset="8902709">
    <nd ref="673963307"/>
    <nd ref="1366634586"/>
    <nd ref="1366634582"/>
    <nd ref="1366634585"/>
    <nd ref="673963306"/>
    <nd ref="1366634588"/>
    <nd ref="1366634595"/>
    <nd ref="673963304"/>
    <nd ref="1366634597"/>
    <nd ref="1366634596"/>
    <nd ref="1366634594"/>
    <nd ref="673963307"/>
    <tag k="addr:housenumber" v="47"/>
    <tag k="addr:street" v="Panieńska"/>
    <tag k="alt_name" v="Baszta Siedmiu Płaszczy"/>
    <tag k="building" v="tower"/>
    <tag k="building:levels" v="1"/>
    <tag k="building:usage:pl" v="Inny niemieszkalny lub podziemny"/>
    <tag k="heritage" v="2"/>
    <tag k="heritage:operator" v="nid"/>
    <tag k="name" v="Baszta Panieńska"/>
    <tag k="ref:nid" v="8"/>
    <tag k="source" v="gis.um.szczecin.pl"/>
    <tag k="tourism" v="attraction"/>
    <tag k="wikipedia" v="Pl:Baszta_Panieńska"/>
  </way>
  <way id="53264080" version="1" timestamp="2010-03-25T08:51:09Z" uid="20587" user="balrog-kun" changeset="4227478">
    <nd ref="673963275"/>
    <nd ref="673963276"/>
    <nd ref="673963295"/>
    <nd ref="673963296"/>
    <nd ref="673963294"/>
    <nd ref="673963303"/>
    <nd ref="673963275"/>
    <tag k="addr:housenumber" v="30"/>
    <tag k="addr:street" v="Kłodna"/>
    <tag k="building" v="residential"/>
    <tag k="building:levels" v="3"/>
    <tag k="building:usage:pl" v="Mieszkalny"/>
    <tag k="source" v="gis.um.szczecin.pl"/>
  </way>
  <way id="53264081" version="1" timestamp="2010-03-25T08:51:09Z" uid="20587" user="balrog-kun" changeset="4227478">
    <nd ref="673963276"/>
    <nd ref="673963289"/>
    <nd ref="673963290"/>
    <nd ref="673963297"/>
    <nd ref="673963295"/>
    <nd ref="673963276"/>
    <tag k="addr:housenumber" v="29"/>
    <tag k="addr:street" v="Kłodna"/>
    <tag k="building" v="residential"/>
    <tag k="building:levels" v="4"/>
    <tag k="building:usage:pl" v="Mieszkalny"/>
    <tag k="source" v="gis.um.szczecin.pl"/>
  </way>
  <way id="53264082" version="1" timestamp="2010-03-25T08:51:09Z" uid="20587" user="balrog-kun" changeset="4227478">
    <nd ref="673963292"/>
    <nd ref="673963290"/>
    <nd ref="673963289"/>
    <nd ref="673963291"/>
    <nd ref="673963283"/>
    <nd ref="673963293"/>
    <nd ref="673963292"/>
    <tag k="addr:housenumber" v="28"/>
    <tag k="addr:street" v="Kłodna"/>
    <tag k="building" v="residential"/>
    <tag k="building:levels" v="4"/>
    <tag k="building:usage:pl" v="Mieszkalny"/>
    <tag k="source" v="gis.um.szczecin.pl"/>
  </way>
  <way id="53264083" version="1" timestamp="2010-03-25T08:51:09Z" uid="20587" user="balrog-kun" changeset="4227478">
    <nd ref="673963280"/>
    <nd ref="673963281"/>
    <nd ref="673963282"/>
    <nd ref="673963287"/>
    <nd ref="673963288"/>
    <nd ref="673963280"/>
    <tag k="addr:housenumber" v="25"/>
    <tag k="addr:street" v="Kłodna"/>
    <tag k="building" v="residential"/>
    <tag k="building:levels" v="2.5"/>
    <tag k="building:usage:pl" v="Mieszkalny"/>
    <tag k="source" v="gis.um.szczecin.pl"/>
  </way>
  <way id="53264084" version="1" timestamp="2010-03-25T08:51:09Z" uid="20587" user="balrog-kun" changeset="4227478">
    <nd ref="673963291"/>
    <nd ref="673963279"/>
    <nd ref="673963286"/>
    <nd ref="673963284"/>
    <nd ref="673963283"/>
    <nd ref="673963291"/>
    <tag k="addr:housenumber" v="27"/>
    <tag k="addr:street" v="Kłodna"/>
    <tag k="building" v="residential"/>
    <tag k="building:levels" v="3"/>
    <tag k="building:usage:pl" v="Mieszkalny"/>
    <tag k="source" v="gis.um.szczecin.pl"/>
  </way>
  <way id="53264085" version="1" timestamp="2010-03-25T08:51:09Z" uid="20587" user="balrog-kun" changeset="4227478">
    <nd ref="673963279"/>
    <nd ref="673963280"/>
    <nd ref="673963288"/>
    <nd ref="673963285"/>
    <nd ref="673963286"/>
    <nd ref="673963279"/>
    <tag k="addr:housenumber" v="26"/>
    <tag k="addr:street" v="Kłodna"/>
    <tag k="building" v="residential"/>
    <tag k="building:levels" v="2.5"/>
    <tag k="building:usage:pl" v="Mieszkalny"/>
    <tag k="source" v="gis.um.szczecin.pl"/>
  </way>
  <way id="53264086" version="1" timestamp="2010-03-25T08:51:10Z" uid="20587" user="balrog-kun" changeset="4227478">
    <nd ref="673963305"/>
    <nd ref="673963278"/>
    <nd ref="673963275"/>
    <nd ref="673963303"/>
    <nd ref="673963301"/>
    <nd ref="673963299"/>
    <nd ref="673963298"/>
    <nd ref="673963305"/>
    <tag k="addr:housenumber" v="46"/>
    <tag k="addr:street" v="Panieńska"/>
    <tag k="building" v="residential"/>
    <tag k="building:levels" v="3"/>
    <tag k="building:usage:pl" v="Mieszkalny"/>
    <tag k="source" v="gis.um.szczecin.pl"/>
  </way>
  <way id="53264087" version="1" timestamp="2010-03-25T08:51:10Z" uid="20587" user="balrog-kun" changeset="4227478">
    <nd ref="673963554"/>
    <nd ref="673963557"/>
    <nd ref="673963930"/>
    <nd ref="673963932"/>
    <nd ref="673963554"/>
    <tag k="addr:street" v="Plac Żołnierza Polskiego"/>
    <tag k="building" v="residential"/>
    <tag k="building:levels" v="2"/>
    <tag k="building:usage:pl" v="Mieszkalny"/>
    <tag k="source" v="gis.um.szczecin.pl"/>
  </way>
  <way id="53264087" version="2" timestamp="2011-08-02T20:59:42Z" uid="473784" user="antblant" changeset="8905222">
    <nd ref="673963554"/>
    <nd ref="673963557"/>
    <nd ref="673963930"/>
    <nd ref="673963932"/>
    <nd ref="673963554"/>
    <tag k="addr:street" v="Plac Żołnierza Polskiego"/>
    <tag k="building" v="residential"/>
    <tag k="building:levels" v="2"/>
    <tag k="building:usage:pl" v="Mieszkalny"/>
    <tag k="heritage" v="2"/>
    <tag k="heritage:operator" v="nid"/>
    <tag k="ref:nid" v="15"/>
    <tag k="source" v="gis.um.szczecin.pl"/>
  </way>
  <way id="53264088" version="1" timestamp="2010-03-25T08:51:10Z" uid="20587" user="balrog-kun" changeset="4227478">
    <nd ref="673963476"/>
    <nd ref="673963475"/>
    <nd ref="673963473"/>
    <nd ref="673963472"/>
    <nd ref="673963895"/>
    <nd ref="673963894"/>
    <nd ref="673963908"/>
    <nd ref="673963905"/>
    <nd ref="673963903"/>
    <nd ref="673963902"/>
    <nd ref="673963921"/>
    <nd ref="673963920"/>
    <nd ref="673963899"/>
    <nd ref="673963897"/>
    <nd ref="673963901"/>
    <nd ref="673963900"/>
    <nd ref="673963898"/>
    <nd ref="673963896"/>
    <nd ref="673963907"/>
    <nd ref="673963904"/>
    <nd ref="673963478"/>
    <nd ref="673963477"/>
    <nd ref="673963476"/>
    <tag k="addr:housenumber" v="1"/>
    <tag k="addr:street" v="Plac Mariacki"/>
    <tag k="building" v="service"/>
    <tag k="building:levels" v="3"/>
    <tag k="building:usage:pl" v="Inny niemieszkalny lub podziemny"/>
    <tag k="source" v="gis.um.szczecin.pl"/>
  </way>
  <way id="53264088" version="2" timestamp="2011-08-02T20:05:54Z" uid="473784" user="antblant" changeset="8904614">
    <nd ref="673963476"/>
    <nd ref="673963475"/>
    <nd ref="673963473"/>
    <nd ref="673963472"/>
    <nd ref="673963895"/>
    <nd ref="673963894"/>
    <nd ref="673963908"/>
    <nd ref="673963905"/>
    <nd ref="673963903"/>
    <nd ref="673963902"/>
    <nd ref="673963921"/>
    <nd ref="673963920"/>
    <nd ref="673963899"/>
    <nd ref="673963897"/>
    <nd ref="673963901"/>
    <nd ref="673963900"/>
    <nd ref="673963898"/>
    <nd ref="673963896"/>
    <nd ref="673963907"/>
    <nd ref="673963904"/>
    <nd ref="673963478"/>
    <nd ref="673963477"/>
    <nd ref="673963476"/>
    <tag k="addr:housenumber" v="1"/>
    <tag k="addr:street" v="Plac Mariacki"/>
    <tag k="building" v="service"/>
    <tag k="building:levels" v="3"/>
    <tag k="building:usage:pl" v="Inny niemieszkalny lub podziemny"/>
    <tag k="heritage" v="2"/>
    <tag k="heritage:operator" v="nid"/>
    <tag k="ref:nid" v="1043"/>
    <tag k="source" v="gis.um.szczecin.pl"/>
  </way>
  <way id="53264089" version="1" timestamp="2010-03-25T08:51:10Z" uid="20587" user="balrog-kun" changeset="4227478">
    <nd ref="673963855"/>
    <nd ref="673963857"/>
    <nd ref="673963856"/>
    <nd ref="673963641"/>
    <nd ref="673963640"/>
    <nd ref="673963639"/>
    <nd ref="673963656"/>
    <nd ref="673963655"/>
    <nd ref="673963657"/>
    <nd ref="673963661"/>
    <nd ref="673963663"/>
    <nd ref="673963662"/>
    <nd ref="673963877"/>
    <nd ref="673963664"/>
    <nd ref="673963870"/>
    <nd ref="673963869"/>
    <nd ref="673963855"/>
    <tag k="building" v="transportation"/>
    <tag k="building:levels" v="0"/>
    <tag k="building:usage:pl" v="Transportu i łączności, garaż naziemny"/>
    <tag k="source" v="gis.um.szczecin.pl"/>
  </way>
  <way id="53264090" version="1" timestamp="2010-03-25T08:51:10Z" uid="20587" user="balrog-kun" changeset="4227478">
    <nd ref="673963313"/>
    <nd ref="673963312"/>
    <nd ref="673963311"/>
    <nd ref="673963310"/>
    <nd ref="673963316"/>
    <nd ref="673963616"/>
    <nd ref="673963638"/>
    <nd ref="673963621"/>
    <nd ref="673963619"/>
    <nd ref="673963620"/>
    <nd ref="673963617"/>
    <nd ref="673963618"/>
    <nd ref="673963623"/>
    <nd ref="673963625"/>
    <nd ref="673963622"/>
    <nd ref="673963319"/>
    <nd ref="673963317"/>
    <nd ref="673963318"/>
    <nd ref="673963326"/>
    <nd ref="673963327"/>
    <nd ref="673963322"/>
    <nd ref="673963323"/>
    <nd ref="673963320"/>
    <nd ref="673963321"/>
    <nd ref="673963810"/>
    <nd ref="673963811"/>
    <nd ref="673963808"/>
    <nd ref="673963809"/>
    <nd ref="673963817"/>
    <nd ref="673963839"/>
    <nd ref="673963816"/>
    <nd ref="673963313"/>
    <tag k="addr:street" v="Aleja Wyzwolenia"/>
    <tag k="building" v="residential"/>
    <tag k="building:levels" v="5"/>
    <tag k="building:usage:pl" v="Mieszkalny"/>
    <tag k="source" v="gis.um.szczecin.pl"/>
  </way>
  <way id="53264091" version="1" timestamp="2010-03-25T08:51:10Z" uid="20587" user="balrog-kun" changeset="4227478">
    <nd ref="673963875"/>
    <nd ref="673963673"/>
    <nd ref="673963665"/>
    <nd ref="673963671"/>
    <nd ref="673963672"/>
    <nd ref="673963669"/>
    <nd ref="673963670"/>
    <nd ref="673963668"/>
    <nd ref="673963760"/>
    <nd ref="673963765"/>
    <nd ref="673963766"/>
    <nd ref="673963763"/>
    <nd ref="673963764"/>
    <nd ref="673963761"/>
    <nd ref="673963771"/>
    <nd ref="673963762"/>
    <nd ref="673963879"/>
    <nd ref="673963875"/>
    <tag k="addr:housenumber" v="11"/>
    <tag k="addr:street" v="Małopolska"/>
    <tag k="building" v="residential"/>
    <tag k="building:levels" v="4"/>
    <tag k="building:usage:pl" v="Mieszkalny"/>
    <tag k="source" v="gis.um.szczecin.pl"/>
  </way>
  <way id="53264092" version="1" timestamp="2010-03-25T08:51:10Z" uid="20587" user="balrog-kun" changeset="4227478">
    <nd ref="673963823"/>
    <nd ref="673963825"/>
    <nd ref="673963824"/>
    <nd ref="673963832"/>
    <nd ref="673963831"/>
    <nd ref="673963830"/>
    <nd ref="673963627"/>
    <nd ref="673963626"/>
    <nd ref="673963833"/>
    <nd ref="673963829"/>
    <nd ref="673963835"/>
    <nd ref="673963823"/>
    <tag k="addr:housenumber" v="7-ofof"/>
    <tag k="addr:street" v="Małopolska"/>
    <tag k="building" v="residential"/>
    <tag k="building:levels" v="4"/>
    <tag k="building:usage:pl" v="Mieszkalny"/>
    <tag k="source" v="gis.um.szczecin.pl"/>
  </way>
  <way id="53264093" version="1" timestamp="2010-03-25T08:51:11Z" uid="20587" user="balrog-kun" changeset="4227478">
    <nd ref="673963838"/>
    <nd ref="673963821"/>
    <nd ref="673963853"/>
    <nd ref="673963848"/>
    <nd ref="673963849"/>
    <nd ref="673963845"/>
    <nd ref="673963846"/>
    <nd ref="673963851"/>
    <nd ref="673963852"/>
    <nd ref="673963850"/>
    <nd ref="673963868"/>
    <nd ref="673963864"/>
    <nd ref="673963863"/>
    <nd ref="673963862"/>
    <nd ref="673963861"/>
    <nd ref="673963867"/>
    <nd ref="673963866"/>
    <nd ref="673963865"/>
    <nd ref="673963874"/>
    <nd ref="673963873"/>
    <nd ref="673963660"/>
    <nd ref="673963876"/>
    <nd ref="673963667"/>
    <nd ref="673963875"/>
    <nd ref="673963838"/>
    <tag k="addr:street" v="Małopolska"/>
    <tag k="building" v="residential"/>
    <tag k="building:levels" v="5"/>
    <tag k="building:usage:pl" v="Mieszkalny"/>
    <tag k="source" v="gis.um.szczecin.pl"/>
  </way>
  <way id="53264094" version="1" timestamp="2010-03-25T08:51:11Z" uid="20587" user="balrog-kun" changeset="4227478">
    <nd ref="673963880"/>
    <nd ref="673963767"/>
    <nd ref="673963768"/>
    <nd ref="673963769"/>
    <nd ref="673963770"/>
    <nd ref="673963747"/>
    <nd ref="673963772"/>
    <nd ref="673963746"/>
    <nd ref="673963782"/>
    <nd ref="673963780"/>
    <nd ref="673963781"/>
    <nd ref="673963779"/>
    <nd ref="673963778"/>
    <nd ref="673963785"/>
    <nd ref="673963784"/>
    <nd ref="673963791"/>
    <nd ref="673963790"/>
    <nd ref="673963789"/>
    <nd ref="673963787"/>
    <nd ref="673963804"/>
    <nd ref="673963803"/>
    <nd ref="673963807"/>
    <nd ref="673963806"/>
    <nd ref="673963805"/>
    <nd ref="673963795"/>
    <nd ref="673963793"/>
    <nd ref="673963794"/>
    <nd ref="673963798"/>
    <nd ref="673963799"/>
    <nd ref="673963796"/>
    <nd ref="673963797"/>
    <nd ref="673963801"/>
    <nd ref="673963802"/>
    <nd ref="673963800"/>
    <nd ref="673963881"/>
    <nd ref="673963882"/>
    <nd ref="673963880"/>
    <tag k="addr:street" v="Małopolska"/>
    <tag k="building" v="offices"/>
    <tag k="building:levels" v="5.5"/>
    <tag k="building:usage:pl" v="Biurowy"/>
    <tag k="landuse" v="commercial"/>
    <tag k="source" v="gis.um.szczecin.pl"/>
  </way>
  <way id="53264095" version="1" timestamp="2010-03-25T08:51:11Z" uid="20587" user="balrog-kun" changeset="4227478">
    <nd ref="673963675"/>
    <nd ref="673963508"/>
    <nd ref="673963509"/>
    <nd ref="673963512"/>
    <nd ref="673963513"/>
    <nd ref="673963514"/>
    <nd ref="673963515"/>
    <nd ref="673963510"/>
    <nd ref="673963507"/>
    <nd ref="673963511"/>
    <nd ref="673963674"/>
    <nd ref="673963675"/>
    <tag k="addr:housenumber" v="4"/>
    <tag k="addr:street" v="Plac Żołnierza Polskiego"/>
    <tag k="building" v="residential"/>
    <tag k="building:levels" v="4"/>
    <tag k="building:usage:pl" v="Mieszkalny"/>
    <tag k="source" v="gis.um.szczecin.pl"/>
  </way>
  <way id="53264096" version="1" timestamp="2010-03-25T08:51:11Z" uid="20587" user="balrog-kun" changeset="4227478">
    <nd ref="673963584"/>
    <nd ref="673963600"/>
    <nd ref="673963520"/>
    <nd ref="673963518"/>
    <nd ref="673963519"/>
    <nd ref="673963516"/>
    <nd ref="673963517"/>
    <nd ref="673963675"/>
    <nd ref="673963584"/>
    <tag k="addr:housenumber" v="3"/>
    <tag k="addr:street" v="Plac Żołnierza Polskiego"/>
    <tag k="building" v="residential"/>
    <tag k="building:levels" v="4"/>
    <tag k="building:usage:pl" v="Mieszkalny"/>
    <tag k="source" v="gis.um.szczecin.pl"/>
  </way>
  <way id="53264097" version="1" timestamp="2010-03-25T08:51:11Z" uid="20587" user="balrog-kun" changeset="4227478">
    <nd ref="673963674"/>
    <nd ref="673963511"/>
    <nd ref="673963528"/>
    <nd ref="673963506"/>
    <nd ref="673963522"/>
    <nd ref="673963521"/>
    <nd ref="673963525"/>
    <nd ref="673963524"/>
    <nd ref="673963527"/>
    <nd ref="673963526"/>
    <nd ref="673963544"/>
    <nd ref="673963548"/>
    <nd ref="673963674"/>
    <tag k="addr:housenumber" v="5"/>
    <tag k="addr:street" v="Plac Żołnierza Polskiego"/>
    <tag k="building" v="residential"/>
    <tag k="building:levels" v="4"/>
    <tag k="building:usage:pl" v="Mieszkalny"/>
    <tag k="source" v="gis.um.szczecin.pl"/>
  </way>
  <way id="53264098" version="1" timestamp="2010-03-25T08:51:12Z" uid="20587" user="balrog-kun" changeset="4227478">
    <nd ref="673963582"/>
    <nd ref="673963570"/>
    <nd ref="673963569"/>
    <nd ref="673963567"/>
    <nd ref="673963565"/>
    <nd ref="673963563"/>
    <nd ref="673963572"/>
    <nd ref="673963422"/>
    <nd ref="673963421"/>
    <nd ref="673963420"/>
    <nd ref="673963418"/>
    <nd ref="673963419"/>
    <nd ref="673963424"/>
    <nd ref="673963600"/>
    <nd ref="673963584"/>
    <nd ref="673963598"/>
    <nd ref="673963599"/>
    <nd ref="673963601"/>
    <nd ref="673963606"/>
    <nd ref="673963605"/>
    <nd ref="673963580"/>
    <nd ref="673963576"/>
    <nd ref="673963574"/>
    <nd ref="673963578"/>
    <nd ref="673963582"/>
    <tag k="addr:housenumber" v="27"/>
    <tag k="addr:street" v="Staromłyńska"/>
    <tag k="building" v="education"/>
    <tag k="building:levels" v="3"/>
    <tag k="building:usage:pl" v="Oświaty, nauki, kultury lub budynek sportowy"/>
    <tag k="source" v="gis.um.szczecin.pl"/>
  </way>
  <way id="53264098" version="2" timestamp="2011-08-16T16:18:37Z" uid="473784" user="antblant" changeset="9038440">
    <nd ref="673963582"/>
    <nd ref="673963570"/>
    <nd ref="673963569"/>
    <nd ref="673963567"/>
    <nd ref="673963565"/>
    <nd ref="673963563"/>
    <nd ref="673963572"/>
    <nd ref="673963422"/>
    <nd ref="673963421"/>
    <nd ref="673963420"/>
    <nd ref="673963418"/>
    <nd ref="673963419"/>
    <nd ref="673963424"/>
    <nd ref="673963600"/>
    <nd ref="673963584"/>
    <nd ref="673963598"/>
    <nd ref="673963599"/>
    <nd ref="673963601"/>
    <nd ref="673963606"/>
    <nd ref="673963605"/>
    <nd ref="673963580"/>
    <nd ref="673963576"/>
    <nd ref="673963574"/>
    <nd ref="673963578"/>
    <nd ref="673963582"/>
    <tag k="addr:housenumber" v="27"/>
    <tag k="addr:street" v="Staromłyńska"/>
    <tag k="building" v="education"/>
    <tag k="building:levels" v="3"/>
    <tag k="building:usage:pl" v="Oświaty, nauki, kultury lub budynek sportowy"/>
    <tag k="ref:nid" v="12"/>
    <tag k="source" v="gis.um.szczecin.pl"/>
    <tag k="wikipedia" v="pl:Pałac_Sejmu_Stanów_Pomorskich"/>
  </way>
  <way id="53264098" version="3" timestamp="2011-08-16T16:18:58Z" uid="473784" user="antblant" changeset="9038442">
    <nd ref="673963582"/>
    <nd ref="673963570"/>
    <nd ref="673963569"/>
    <nd ref="673963567"/>
    <nd ref="673963565"/>
    <nd ref="673963563"/>
    <nd ref="673963572"/>
    <nd ref="673963422"/>
    <nd ref="673963421"/>
    <nd ref="673963420"/>
    <nd ref="673963418"/>
    <nd ref="673963419"/>
    <nd ref="673963424"/>
    <nd ref="673963600"/>
    <nd ref="673963584"/>
    <nd ref="673963598"/>
    <nd ref="673963599"/>
    <nd ref="673963601"/>
    <nd ref="673963606"/>
    <nd ref="673963605"/>
    <nd ref="673963580"/>
    <nd ref="673963576"/>
    <nd ref="673963574"/>
    <nd ref="673963578"/>
    <nd ref="673963582"/>
    <tag k="addr:housenumber" v="27"/>
    <tag k="addr:street" v="Staromłyńska"/>
    <tag k="building" v="education"/>
    <tag k="building:levels" v="3"/>
    <tag k="building:usage:pl" v="Oświaty, nauki, kultury lub budynek sportowy"/>
    <tag k="heritage" v="2"/>
    <tag k="heritage:operator" v="nid"/>
    <tag k="ref:nid" v="12"/>
    <tag k="source" v="gis.um.szczecin.pl"/>
    <tag k="wikipedia" v="pl:Pałac_Sejmu_Stanów_Pomorskich"/>
  </way>
  <way id="53264099" version="1" timestamp="2010-03-25T08:51:12Z" uid="20587" user="balrog-kun" changeset="4227478">
    <nd ref="673963417"/>
    <nd ref="673963561"/>
    <nd ref="673963589"/>
    <nd ref="673963587"/>
    <nd ref="673963594"/>
    <nd ref="673963602"/>
    <nd ref="673963592"/>
    <nd ref="673963593"/>
    <nd ref="673963603"/>
    <nd ref="673963604"/>
    <nd ref="673963597"/>
    <nd ref="673963595"/>
    <nd ref="673963596"/>
    <nd ref="673963425"/>
    <nd ref="673963415"/>
    <nd ref="673963416"/>
    <nd ref="673963413"/>
    <nd ref="673963414"/>
    <nd ref="673963417"/>
  </way>
  <way id="53264100" version="1" timestamp="2010-03-25T08:51:12Z" uid="20587" user="balrog-kun" changeset="4227478">
    <nd ref="673963374"/>
    <nd ref="673963369"/>
    <nd ref="673963371"/>
    <nd ref="673963370"/>
    <nd ref="673963426"/>
    <nd ref="673963430"/>
    <nd ref="673963429"/>
    <nd ref="673963372"/>
    <nd ref="673963374"/>
    <tag k="addr:housenumber" v="15a"/>
    <tag k="addr:street" v="Koński Kierat"/>
    <tag k="building" v="service"/>
    <tag k="building:levels" v="2"/>
    <tag k="building:usage:pl" v="Inny niemieszkalny lub podziemny"/>
    <tag k="source" v="gis.um.szczecin.pl"/>
  </way>
  <way id="53264101" version="1" timestamp="2010-03-25T08:51:12Z" uid="20587" user="balrog-kun" changeset="4227478">
    <nd ref="673963485"/>
    <nd ref="673963456"/>
    <nd ref="673963462"/>
    <nd ref="673963457"/>
    <nd ref="673963470"/>
    <nd ref="673963471"/>
    <nd ref="673963529"/>
    <nd ref="673963490"/>
    <nd ref="673963485"/>
    <tag k="addr:housenumber" v="4"/>
    <tag k="addr:street" v="Mariacka"/>
    <tag k="building" v="residential"/>
    <tag k="building:levels" v="2"/>
    <tag k="building:usage:pl" v="Mieszkalny"/>
    <tag k="source" v="gis.um.szczecin.pl"/>
  </way>
  <way id="53264102" version="1" timestamp="2010-03-25T08:51:12Z" uid="20587" user="balrog-kun" changeset="4227478">
    <nd ref="673963404"/>
    <nd ref="673963403"/>
    <nd ref="673963406"/>
    <nd ref="673963407"/>
    <nd ref="673963394"/>
    <nd ref="673963397"/>
    <nd ref="673963399"/>
    <nd ref="673963400"/>
    <nd ref="673963401"/>
    <nd ref="673963402"/>
    <nd ref="673963423"/>
    <nd ref="673963411"/>
    <nd ref="673963404"/>
    <tag k="addr:street" v="Staromłyńska"/>
    <tag k="amenity" v="doctors"/>
    <tag k="building" v="healthcare"/>
    <tag k="building:levels" v="2"/>
    <tag k="building:usage:pl" v="Szpital lub zakład opieki medycznej"/>
    <tag k="source" v="gis.um.szczecin.pl"/>
  </way>
  <way id="53264103" version="1" timestamp="2010-03-25T08:51:12Z" uid="20587" user="balrog-kun" changeset="4227478">
    <nd ref="673963483"/>
    <nd ref="673963450"/>
    <nd ref="673963449"/>
    <nd ref="673963452"/>
    <nd ref="673963448"/>
    <nd ref="673963451"/>
    <nd ref="673963447"/>
    <nd ref="673963453"/>
    <nd ref="673963484"/>
    <nd ref="673963483"/>
    <tag k="building" v="service"/>
    <tag k="building:levels" v="3"/>
    <tag k="building:usage:pl" v="Inny niemieszkalny lub podziemny"/>
    <tag k="source" v="gis.um.szczecin.pl"/>
  </way>
  <way id="53264104" version="1" timestamp="2010-03-25T08:51:12Z" uid="20587" user="balrog-kun" changeset="4227478">
    <nd ref="673963388"/>
    <nd ref="673963389"/>
    <nd ref="673963328"/>
    <nd ref="673963385"/>
    <nd ref="673963386"/>
    <nd ref="673963387"/>
    <nd ref="673963382"/>
    <nd ref="673963383"/>
    <nd ref="673963384"/>
    <nd ref="673963388"/>
    <tag k="building" v="service"/>
    <tag k="building:levels" v="1"/>
    <tag k="building:usage:pl" v="Inny niemieszkalny lub podziemny"/>
    <tag k="source" v="gis.um.szczecin.pl"/>
  </way>
  <way id="53264105" version="1" timestamp="2010-03-25T08:51:12Z" uid="20587" user="balrog-kun" changeset="4227478">
    <nd ref="673963375"/>
    <nd ref="673963376"/>
    <nd ref="673963368"/>
    <nd ref="673963366"/>
    <nd ref="673963369"/>
    <nd ref="673963374"/>
    <nd ref="673963372"/>
    <nd ref="673963377"/>
    <nd ref="673963378"/>
    <nd ref="673963375"/>
    <tag k="addr:housenumber" v="16a"/>
    <tag k="addr:street" v="Koński Kierat"/>
    <tag k="building" v="residential"/>
    <tag k="building:levels" v="3"/>
    <tag k="building:usage:pl" v="Mieszkalny"/>
    <tag k="source" v="gis.um.szczecin.pl"/>
  </way>
  <way id="53264106" version="1" timestamp="2010-03-25T08:51:13Z" uid="20587" user="balrog-kun" changeset="4227478">
    <nd ref="673963439"/>
    <nd ref="673963432"/>
    <nd ref="673963464"/>
    <nd ref="673963463"/>
    <nd ref="673963467"/>
    <nd ref="673963439"/>
    <tag k="addr:housenumber" v="10"/>
    <tag k="addr:street" v="Mariacka"/>
    <tag k="building" v="residential"/>
    <tag k="building:levels" v="4"/>
    <tag k="building:usage:pl" v="Mieszkalny"/>
    <tag k="source" v="gis.um.szczecin.pl"/>
  </way>
  <way id="53264107" version="1" timestamp="2010-03-25T08:51:13Z" uid="20587" user="balrog-kun" changeset="4227478">
    <nd ref="673963446"/>
    <nd ref="673963447"/>
    <nd ref="673963451"/>
    <nd ref="673963448"/>
    <nd ref="673963462"/>
    <nd ref="673963456"/>
    <nd ref="673963446"/>
    <tag k="addr:housenumber" v="4a"/>
    <tag k="addr:street" v="Mariacka"/>
    <tag k="building" v="residential"/>
    <tag k="building:levels" v="2"/>
    <tag k="building:usage:pl" v="Mieszkalny"/>
    <tag k="source" v="gis.um.szczecin.pl"/>
  </way>
  <way id="53264108" version="1" timestamp="2010-03-25T08:51:13Z" uid="20587" user="balrog-kun" changeset="4227478">
    <nd ref="673963461"/>
    <nd ref="673963460"/>
    <nd ref="673963459"/>
    <nd ref="673963458"/>
    <nd ref="673963461"/>
    <tag k="building" v="transportation"/>
    <tag k="building:levels" v="1"/>
    <tag k="building:usage:pl" v="Transportu i łączności, garaż naziemny"/>
    <tag k="source" v="gis.um.szczecin.pl"/>
  </way>
  <way id="53264109" version="1" timestamp="2010-03-25T08:51:13Z" uid="20587" user="balrog-kun" changeset="4227478">
    <nd ref="673963457"/>
    <nd ref="673963454"/>
    <nd ref="673963455"/>
    <nd ref="673963441"/>
    <nd ref="673963442"/>
    <nd ref="673963440"/>
    <nd ref="673963439"/>
    <nd ref="673963467"/>
    <nd ref="673963465"/>
    <nd ref="673963466"/>
    <nd ref="673963468"/>
    <nd ref="673963469"/>
    <nd ref="673963470"/>
    <nd ref="673963457"/>
    <tag k="addr:street" v="Mariacka"/>
    <tag k="building" v="offices"/>
    <tag k="building:levels" v="4"/>
    <tag k="building:usage:pl" v="Biurowy"/>
    <tag k="landuse" v="commercial"/>
    <tag k="source" v="gis.um.szczecin.pl"/>
  </way>
  <way id="53264110" version="1" timestamp="2010-03-25T08:51:13Z" uid="20587" user="balrog-kun" changeset="4227478">
    <nd ref="673963560"/>
    <nd ref="673963558"/>
    <nd ref="673963559"/>
    <nd ref="673963552"/>
    <nd ref="673963553"/>
    <nd ref="673963535"/>
    <nd ref="673963536"/>
    <nd ref="673963556"/>
    <nd ref="673963557"/>
    <nd ref="673963554"/>
    <nd ref="673963555"/>
    <nd ref="673963560"/>
    <tag k="addr:housenumber" v="26"/>
    <tag k="addr:street" v="Mariacka"/>
    <tag k="building" v="residential"/>
    <tag k="building:levels" v="2"/>
    <tag k="building:usage:pl" v="Mieszkalny"/>
    <tag k="source" v="gis.um.szczecin.pl"/>
  </way>
  <way id="53264110" version="2" timestamp="2011-08-02T20:05:55Z" uid="473784" user="antblant" changeset="8904614">
    <nd ref="673963560"/>
    <nd ref="673963558"/>
    <nd ref="673963559"/>
    <nd ref="673963552"/>
    <nd ref="673963553"/>
    <nd ref="673963535"/>
    <nd ref="673963536"/>
    <nd ref="673963556"/>
    <nd ref="673963557"/>
    <nd ref="673963554"/>
    <nd ref="673963555"/>
    <nd ref="673963560"/>
    <tag k="addr:housenumber" v="26"/>
    <tag k="addr:street" v="Mariacka"/>
    <tag k="building" v="residential"/>
    <tag k="building:levels" v="2"/>
    <tag k="building:usage:pl" v="Mieszkalny"/>
    <tag k="heritage" v="2"/>
    <tag k="heritage:operator" v="nid"/>
    <tag k="ref:nid" v="15"/>
    <tag k="source" v="gis.um.szczecin.pl"/>
  </way>
  <way id="53264111" version="1" timestamp="2010-03-25T08:51:13Z" uid="20587" user="balrog-kun" changeset="4227478">
    <nd ref="673963479"/>
    <nd ref="673963482"/>
    <nd ref="673963500"/>
    <nd ref="673963501"/>
    <nd ref="673963479"/>
    <tag k="building" v="transportation"/>
    <tag k="building:levels" v="1"/>
    <tag k="building:usage:pl" v="Transportu i łączności, garaż naziemny"/>
    <tag k="source" v="gis.um.szczecin.pl"/>
  </way>
  <way id="53264112" version="1" timestamp="2010-03-25T08:51:13Z" uid="20587" user="balrog-kun" changeset="4227478">
    <nd ref="673963500"/>
    <nd ref="673963482"/>
    <nd ref="673963480"/>
    <nd ref="673963499"/>
    <nd ref="673963500"/>
    <tag k="building" v="manufacture"/>
    <tag k="building:levels" v="1"/>
    <tag k="building:usage:pl" v="Produkcyjny, usługowy lub gospodarczy dla rolnictwa, garaż podziemny"/>
    <tag k="source" v="gis.um.szczecin.pl"/>
  </way>
  <way id="53264113" version="1" timestamp="2010-03-25T08:51:14Z" uid="20587" user="balrog-kun" changeset="4227478">
    <nd ref="673963544"/>
    <nd ref="673963523"/>
    <nd ref="673963543"/>
    <nd ref="673963540"/>
    <nd ref="673963539"/>
    <nd ref="673963496"/>
    <nd ref="673963530"/>
    <nd ref="673963538"/>
    <nd ref="673963541"/>
    <nd ref="673963547"/>
    <nd ref="673963545"/>
    <nd ref="673963546"/>
    <nd ref="673963544"/>
    <tag k="addr:street" v="Mariacka"/>
    <tag k="building" v="residential"/>
    <tag k="building:levels" v="4"/>
    <tag k="building:usage:pl" v="Mieszkalny"/>
    <tag k="source" v="gis.um.szczecin.pl"/>
  </way>
  <way id="53264114" version="1" timestamp="2010-03-25T08:51:14Z" uid="20587" user="balrog-kun" changeset="4227478">
    <nd ref="673963496"/>
    <nd ref="673963495"/>
    <nd ref="673963494"/>
    <nd ref="673963493"/>
    <nd ref="673963492"/>
    <nd ref="673963491"/>
    <nd ref="673963486"/>
    <nd ref="673963487"/>
    <nd ref="673963488"/>
    <nd ref="673963489"/>
    <nd ref="673963490"/>
    <nd ref="673963529"/>
    <nd ref="673963530"/>
    <nd ref="673963496"/>
    <tag k="addr:housenumber" v="3"/>
    <tag k="addr:street" v="Mariacka"/>
    <tag k="building" v="residential"/>
    <tag k="building:levels" v="5"/>
    <tag k="building:usage:pl" v="Mieszkalny"/>
    <tag k="source" v="gis.um.szczecin.pl"/>
  </way>
  <way id="53264115" version="1" timestamp="2010-03-25T08:51:14Z" uid="20587" user="balrog-kun" changeset="4227478">
    <nd ref="673963497"/>
    <nd ref="673963504"/>
    <nd ref="673963502"/>
    <nd ref="673963506"/>
    <nd ref="673963498"/>
    <nd ref="673963497"/>
    <tag k="building" v="manufacture"/>
    <tag k="building:levels" v="1"/>
    <tag k="building:usage:pl" v="Produkcyjny, usługowy lub gospodarczy dla rolnictwa, garaż podziemny"/>
    <tag k="source" v="gis.um.szczecin.pl"/>
  </way>
  <way id="53264116" version="1" timestamp="2010-03-25T08:51:14Z" uid="20587" user="balrog-kun" changeset="4227478">
    <nd ref="673963507"/>
    <nd ref="673963505"/>
    <nd ref="673963502"/>
    <nd ref="673963504"/>
    <nd ref="673963497"/>
    <nd ref="673963511"/>
    <nd ref="673963507"/>
    <tag k="building" v="manufacture"/>
    <tag k="building:levels" v="1"/>
    <tag k="building:usage:pl" v="Produkcyjny, usługowy lub gospodarczy dla rolnictwa, garaż podziemny"/>
    <tag k="source" v="gis.um.szczecin.pl"/>
  </way>
  <way id="53264117" version="1" timestamp="2010-03-25T08:51:14Z" uid="20587" user="balrog-kun" changeset="4227478">
    <nd ref="673963535"/>
    <nd ref="673963532"/>
    <nd ref="673963534"/>
    <nd ref="673963537"/>
    <nd ref="673963536"/>
    <nd ref="673963535"/>
    <tag k="addr:housenumber" v="25"/>
    <tag k="addr:street" v="Mariacka"/>
    <tag k="building" v="service"/>
    <tag k="building:levels" v="3"/>
    <tag k="building:usage:pl" v="Inny niemieszkalny lub podziemny"/>
    <tag k="source" v="gis.um.szczecin.pl"/>
  </way>
  <way id="53264118" version="1" timestamp="2010-03-25T08:51:14Z" uid="20587" user="balrog-kun" changeset="4227478">
    <nd ref="673963628"/>
    <nd ref="673963630"/>
    <nd ref="673963631"/>
    <nd ref="673963635"/>
    <nd ref="673963628"/>
    <tag k="addr:housenumber" v="8a"/>
    <tag k="addr:street" v="Małopolska"/>
    <tag k="building" v="service"/>
    <tag k="building:levels" v="1"/>
    <tag k="building:usage:pl" v="Inny niemieszkalny lub podziemny"/>
    <tag k="source" v="gis.um.szczecin.pl"/>
  </way>
  <way id="53264119" version="1" timestamp="2010-03-25T08:51:14Z" uid="20587" user="balrog-kun" changeset="4227478">
    <nd ref="673963643"/>
    <nd ref="673963642"/>
    <nd ref="673963646"/>
    <nd ref="673963650"/>
    <nd ref="673963649"/>
    <nd ref="673963648"/>
    <nd ref="673963647"/>
    <nd ref="673963652"/>
    <nd ref="673963643"/>
    <tag k="building" v="transportation"/>
    <tag k="building:levels" v="1"/>
    <tag k="building:usage:pl" v="Transportu i łączności, garaż naziemny"/>
    <tag k="source" v="gis.um.szczecin.pl"/>
  </way>
  <way id="53264120" version="1" timestamp="2010-03-25T08:51:14Z" uid="20587" user="balrog-kun" changeset="4227478">
    <nd ref="673963658"/>
    <nd ref="673963654"/>
    <nd ref="673963666"/>
    <nd ref="673963665"/>
    <nd ref="673963673"/>
    <nd ref="673963658"/>
    <tag k="building" v="residential"/>
    <tag k="building:levels" v="1"/>
    <tag k="building:usage:pl" v="Mieszkalny"/>
    <tag k="source" v="gis.um.szczecin.pl"/>
  </way>
  <way id="53264121" version="1" timestamp="2010-03-25T08:51:14Z" uid="20587" user="balrog-kun" changeset="4227478">
    <nd ref="673963771"/>
    <nd ref="673963753"/>
    <nd ref="673963754"/>
    <nd ref="673963762"/>
    <nd ref="673963771"/>
    <tag k="building" v="residential"/>
    <tag k="building:levels" v="1"/>
    <tag k="building:usage:pl" v="Mieszkalny"/>
    <tag k="source" v="gis.um.szczecin.pl"/>
  </way>
  <way id="53264122" version="1" timestamp="2010-03-25T08:51:14Z" uid="20587" user="balrog-kun" changeset="4227478">
    <nd ref="673963755"/>
    <nd ref="673963756"/>
    <nd ref="673963757"/>
    <nd ref="673963759"/>
    <nd ref="673963755"/>
    <tag k="building" v="service"/>
    <tag k="building:levels" v="1"/>
    <tag k="building:usage:pl" v="Inny niemieszkalny lub podziemny"/>
    <tag k="source" v="gis.um.szczecin.pl"/>
  </way>
  <way id="53264123" version="1" timestamp="2010-03-25T08:51:14Z" uid="20587" user="balrog-kun" changeset="4227478">
    <nd ref="673963703"/>
    <nd ref="673963702"/>
    <nd ref="673963705"/>
    <nd ref="673963692"/>
    <nd ref="673963688"/>
    <nd ref="673963687"/>
    <nd ref="673963691"/>
    <nd ref="673963690"/>
    <nd ref="673963683"/>
    <nd ref="673963682"/>
    <nd ref="673963686"/>
    <nd ref="673963685"/>
    <nd ref="673963680"/>
    <nd ref="673963679"/>
    <nd ref="673963678"/>
    <nd ref="673963681"/>
    <nd ref="673963693"/>
    <nd ref="673963694"/>
    <nd ref="673963696"/>
    <nd ref="673963697"/>
    <nd ref="673963699"/>
    <nd ref="673963700"/>
    <nd ref="673963715"/>
    <nd ref="673963717"/>
    <nd ref="673963718"/>
    <nd ref="673963710"/>
    <nd ref="673963711"/>
    <nd ref="673963713"/>
    <nd ref="673963714"/>
    <nd ref="673963707"/>
    <nd ref="673963708"/>
    <nd ref="673963709"/>
    <nd ref="673963703"/>
    <tag k="addr:housenumber" v="1"/>
    <tag k="addr:street" v="Plac Hołdu Pruskiego"/>
    <tag k="building" v="gate"/>
    <tag k="building:levels" v="1"/>
    <tag k="building:usage:pl" v="Inny niemieszkalny lub podziemny"/>
    <tag k="name" v="Brama Królewska"/>
    <tag k="name:de" v="Königstor"/>
    <tag k="name:en" v="Royal Gate"/>
    <tag k="source" v="gis.um.szczecin.pl"/>
    <tag k="tourism" v="attraction"/>
  </way>
  <way id="53264123" version="2" timestamp="2011-07-19T12:27:33Z" uid="473784" user="antblant" changeset="8767923">
    <nd ref="673963703"/>
    <nd ref="673963702"/>
    <nd ref="673963705"/>
    <nd ref="673963692"/>
    <nd ref="673963688"/>
    <nd ref="673963687"/>
    <nd ref="673963691"/>
    <nd ref="673963690"/>
    <nd ref="673963683"/>
    <nd ref="673963682"/>
    <nd ref="673963686"/>
    <nd ref="673963685"/>
    <nd ref="673963680"/>
    <nd ref="673963679"/>
    <nd ref="673963678"/>
    <nd ref="673963681"/>
    <nd ref="673963693"/>
    <nd ref="673963694"/>
    <nd ref="673963696"/>
    <nd ref="673963697"/>
    <nd ref="673963699"/>
    <nd ref="673963700"/>
    <nd ref="673963715"/>
    <nd ref="673963717"/>
    <nd ref="673963718"/>
    <nd ref="673963710"/>
    <nd ref="673963711"/>
    <nd ref="673963713"/>
    <nd ref="673963714"/>
    <nd ref="673963707"/>
    <nd ref="673963708"/>
    <nd ref="673963709"/>
    <nd ref="673963703"/>
    <tag k="addr:housenumber" v="1"/>
    <tag k="addr:street" v="Plac Hołdu Pruskiego"/>
    <tag k="building" v="gate"/>
    <tag k="building:levels" v="1"/>
    <tag k="building:usage:pl" v="Inny niemieszkalny lub podziemny"/>
    <tag k="heritage" v="2"/>
    <tag k="heritage:operator" v="nid"/>
    <tag k="name" v="Brama Królewska"/>
    <tag k="name:de" v="Königstor"/>
    <tag k="name:en" v="Royal Gate"/>
    <tag k="ref:nid" v="6"/>
    <tag k="source" v="gis.um.szczecin.pl"/>
    <tag k="tourism" v="attraction"/>
  </way>
  <way id="53264124" version="1" timestamp="2010-03-25T08:51:15Z" uid="20587" user="balrog-kun" changeset="4227478">
    <nd ref="673963648"/>
    <nd ref="673963649"/>
    <nd ref="673963650"/>
    <nd ref="673963651"/>
    <nd ref="673963644"/>
    <nd ref="673963613"/>
    <nd ref="673963612"/>
    <nd ref="673963637"/>
    <nd ref="673963616"/>
    <nd ref="673963614"/>
    <nd ref="673963610"/>
    <nd ref="673963609"/>
    <nd ref="673963720"/>
    <nd ref="673963719"/>
    <nd ref="673963721"/>
    <nd ref="673963722"/>
    <nd ref="673963732"/>
    <nd ref="673963645"/>
    <nd ref="673963752"/>
    <nd ref="673963749"/>
    <nd ref="673963750"/>
    <nd ref="673963754"/>
    <nd ref="673963753"/>
    <nd ref="673963653"/>
    <nd ref="673963648"/>
    <tag k="addr:housenumber" v="16"/>
    <tag k="addr:street" v="Plac Żołnierza Polskiego"/>
    <tag k="building" v="offices"/>
    <tag k="building:levels" v="4"/>
    <tag k="building:usage:pl" v="Biurowy"/>
    <tag k="landuse" v="commercial"/>
    <tag k="source" v="gis.um.szczecin.pl"/>
  </way>
  <way id="53264125" version="1" timestamp="2010-03-25T08:51:15Z" uid="20587" user="balrog-kun" changeset="4227478">
    <nd ref="673963773"/>
    <nd ref="673963774"/>
    <nd ref="673963775"/>
    <nd ref="673963723"/>
    <nd ref="673963744"/>
    <nd ref="673963745"/>
    <nd ref="673963776"/>
    <nd ref="673963773"/>
    <tag k="building" v="service"/>
    <tag k="building:levels" v="2"/>
    <tag k="building:usage:pl" v="Inny niemieszkalny lub podziemny"/>
    <tag k="source" v="gis.um.szczecin.pl"/>
  </way>
  <way id="53264126" version="1" timestamp="2010-03-25T08:51:15Z" uid="20587" user="balrog-kun" changeset="4227478">
    <nd ref="673963745"/>
    <nd ref="673963744"/>
    <nd ref="673963736"/>
    <nd ref="673963734"/>
    <nd ref="673963739"/>
    <nd ref="673963737"/>
    <nd ref="673963741"/>
    <nd ref="673963740"/>
    <nd ref="673963743"/>
    <nd ref="673963725"/>
    <nd ref="673963726"/>
    <nd ref="673963727"/>
    <nd ref="673963729"/>
    <nd ref="673963730"/>
    <nd ref="673963733"/>
    <nd ref="673963732"/>
    <nd ref="673963722"/>
    <nd ref="673963676"/>
    <nd ref="673963677"/>
    <nd ref="673963783"/>
    <nd ref="673963782"/>
    <nd ref="673963746"/>
    <nd ref="673963745"/>
    <tag k="addr:housenumber" v="8"/>
    <tag k="addr:street" v="Plac Hołdu Pruskiego"/>
    <tag k="building" v="offices"/>
    <tag k="building:levels" v="4"/>
    <tag k="building:usage:pl" v="Biurowy"/>
    <tag k="landuse" v="commercial"/>
    <tag k="source" v="gis.um.szczecin.pl"/>
  </way>
  <way id="53264127" version="1" timestamp="2010-03-25T08:51:15Z" uid="20587" user="balrog-kun" changeset="4227478">
    <nd ref="673963815"/>
    <nd ref="673963816"/>
    <nd ref="673963839"/>
    <nd ref="673963840"/>
    <nd ref="673963815"/>
    <tag k="addr:housenumber" v="4b"/>
    <tag k="addr:street" v="Aleja Wyzwolenia"/>
    <tag k="building" v="retail"/>
    <tag k="building:levels" v="1"/>
    <tag k="building:usage:pl" v="Handlowo-usługowy"/>
    <tag k="landuse" v="retail"/>
    <tag k="source" v="gis.um.szczecin.pl"/>
  </way>
  <way id="53264128" version="1" timestamp="2010-03-25T08:51:16Z" uid="20587" user="balrog-kun" changeset="4227478">
    <nd ref="673963840"/>
    <nd ref="673963839"/>
    <nd ref="673963817"/>
    <nd ref="673963841"/>
    <nd ref="673963843"/>
    <nd ref="673963844"/>
    <nd ref="673963842"/>
    <nd ref="673963837"/>
    <nd ref="673963825"/>
    <nd ref="673963836"/>
    <nd ref="673963823"/>
    <nd ref="673963835"/>
    <nd ref="673963829"/>
    <nd ref="673963833"/>
    <nd ref="673963821"/>
    <nd ref="673963838"/>
    <nd ref="673963840"/>
    <tag k="addr:housenumber" v="7"/>
    <tag k="addr:street" v="Małopolska"/>
    <tag k="building" v="residential"/>
    <tag k="building:levels" v="4"/>
    <tag k="building:usage:pl" v="Mieszkalny"/>
    <tag k="source" v="gis.um.szczecin.pl"/>
  </way>
  <way id="53264129" version="1" timestamp="2010-03-25T08:51:16Z" uid="20587" user="balrog-kun" changeset="4227478">
    <nd ref="673963809"/>
    <nd ref="673963808"/>
    <nd ref="673963812"/>
    <nd ref="673963826"/>
    <nd ref="673963827"/>
    <nd ref="673963828"/>
    <nd ref="673963844"/>
    <nd ref="673963843"/>
    <nd ref="673963841"/>
    <nd ref="673963817"/>
    <nd ref="673963809"/>
    <tag k="addr:housenumber" v="7-of"/>
    <tag k="addr:street" v="Małopolska"/>
    <tag k="building" v="residential"/>
    <tag k="building:levels" v="4"/>
    <tag k="building:usage:pl" v="Mieszkalny"/>
    <tag k="source" v="gis.um.szczecin.pl"/>
  </way>
  <way id="53264130" version="1" timestamp="2010-03-25T08:51:16Z" uid="20587" user="balrog-kun" changeset="4227478">
    <nd ref="673964108"/>
    <nd ref="673964053"/>
    <nd ref="673964061"/>
    <nd ref="673964062"/>
    <nd ref="673964063"/>
    <nd ref="673964122"/>
    <nd ref="673964108"/>
    <tag k="building" v="manufacture"/>
    <tag k="building:levels" v="1"/>
    <tag k="building:usage:pl" v="Produkcyjny, usługowy lub gospodarczy dla rolnictwa, garaż podziemny"/>
    <tag k="source" v="gis.um.szczecin.pl"/>
  </way>
  <way id="53264131" version="1" timestamp="2010-03-25T08:51:16Z" uid="20587" user="balrog-kun" changeset="4227478">
    <nd ref="673964116"/>
    <nd ref="673964112"/>
    <nd ref="673964113"/>
    <nd ref="673964114"/>
    <nd ref="673964110"/>
    <nd ref="673964109"/>
    <nd ref="673964111"/>
    <nd ref="673964096"/>
    <nd ref="673964093"/>
    <nd ref="673964092"/>
    <nd ref="673964095"/>
    <nd ref="673964094"/>
    <nd ref="673964098"/>
    <nd ref="673964097"/>
    <nd ref="673964100"/>
    <nd ref="673964099"/>
    <nd ref="673964103"/>
    <nd ref="673964104"/>
    <nd ref="673964105"/>
    <nd ref="673964101"/>
    <nd ref="673964060"/>
    <nd ref="673964053"/>
    <nd ref="673964134"/>
    <nd ref="673964116"/>
    <tag k="building" v="transportation"/>
    <tag k="building:levels" v="1"/>
    <tag k="building:usage:pl" v="Transportu i łączności, garaż naziemny"/>
    <tag k="source" v="gis.um.szczecin.pl"/>
  </way>
  <way id="53264132" version="1" timestamp="2010-03-25T08:51:16Z" uid="20587" user="balrog-kun" changeset="4227478">
    <nd ref="673964010"/>
    <nd ref="673964055"/>
    <nd ref="673964056"/>
    <nd ref="673964057"/>
    <nd ref="673964058"/>
    <nd ref="673964059"/>
    <nd ref="673964087"/>
    <nd ref="673964085"/>
    <nd ref="673964086"/>
    <nd ref="673964071"/>
    <nd ref="673964072"/>
    <nd ref="673964073"/>
    <nd ref="673964074"/>
    <nd ref="673964075"/>
    <nd ref="673964076"/>
    <nd ref="673964070"/>
    <nd ref="673964069"/>
    <nd ref="673964067"/>
    <nd ref="673964077"/>
    <nd ref="673964080"/>
    <nd ref="673964079"/>
    <nd ref="673964078"/>
    <nd ref="673964010"/>
    <tag k="addr:street" v="Plac Piotra I Pawła"/>
    <tag k="building" v="residential"/>
    <tag k="building:levels" v="3"/>
    <tag k="building:usage:pl" v="Mieszkalny"/>
    <tag k="source" v="gis.um.szczecin.pl"/>
  </way>
  <way id="53264133" version="1" timestamp="2010-03-25T08:51:16Z" uid="20587" user="balrog-kun" changeset="4227478">
    <nd ref="673964122"/>
    <nd ref="673964063"/>
    <nd ref="673964065"/>
    <nd ref="673964133"/>
    <nd ref="673964124"/>
    <nd ref="673964119"/>
    <nd ref="673964122"/>
    <tag k="building" v="service"/>
    <tag k="building:levels" v="1"/>
    <tag k="building:usage:pl" v="Inny niemieszkalny lub podziemny"/>
    <tag k="source" v="gis.um.szczecin.pl"/>
  </way>
  <way id="53264134" version="1" timestamp="2010-03-25T08:51:16Z" uid="20587" user="balrog-kun" changeset="4227478">
    <nd ref="673964134"/>
    <nd ref="673964115"/>
    <nd ref="673964131"/>
    <nd ref="673964130"/>
    <nd ref="673964129"/>
    <nd ref="673964120"/>
    <nd ref="673964128"/>
    <nd ref="673964127"/>
    <nd ref="673964126"/>
    <nd ref="673964125"/>
    <nd ref="673964124"/>
    <nd ref="673964133"/>
    <nd ref="673964065"/>
    <nd ref="673964064"/>
    <nd ref="673964132"/>
    <nd ref="673964134"/>
    <tag k="addr:housenumber" v="17"/>
    <tag k="addr:street" v="Małopolska"/>
    <tag k="building" v="offices"/>
    <tag k="building:levels" v="5"/>
    <tag k="building:usage:pl" v="Biurowy"/>
    <tag k="landuse" v="commercial"/>
    <tag k="source" v="gis.um.szczecin.pl"/>
  </way>
  <way id="53264135" version="1" timestamp="2010-03-25T08:51:16Z" uid="20587" user="balrog-kun" changeset="4227478">
    <nd ref="673963943"/>
    <nd ref="673963919"/>
    <nd ref="673963918"/>
    <nd ref="673963942"/>
    <nd ref="673963943"/>
    <tag k="addr:housenumber" v="11"/>
    <tag k="addr:street" v="Plac Żołnierza Polskiego"/>
    <tag k="building" v="residential"/>
    <tag k="building:levels" v="2"/>
    <tag k="building:usage:pl" v="Mieszkalny"/>
    <tag k="source" v="gis.um.szczecin.pl"/>
  </way>
  <way id="53264135" version="2" timestamp="2011-08-02T20:59:37Z" uid="473784" user="antblant" changeset="8905222">
    <nd ref="673963943"/>
    <nd ref="673963919"/>
    <nd ref="673963918"/>
    <nd ref="673963942"/>
    <nd ref="673963943"/>
    <tag k="addr:housenumber" v="11"/>
    <tag k="addr:street" v="Plac Żołnierza Polskiego"/>
    <tag k="building" v="residential"/>
    <tag k="building:levels" v="2"/>
    <tag k="building:usage:pl" v="Mieszkalny"/>
    <tag k="heritage" v="2"/>
    <tag k="heritage:operator" v="nid"/>
    <tag k="ref:nid" v="15"/>
    <tag k="source" v="gis.um.szczecin.pl"/>
  </way>
  <way id="53264136" version="1" timestamp="2010-03-25T08:51:17Z" uid="20587" user="balrog-kun" changeset="4227478">
    <nd ref="673963938"/>
    <nd ref="673963919"/>
    <nd ref="673963943"/>
    <nd ref="673963944"/>
    <nd ref="673963938"/>
    <tag k="addr:housenumber" v="10"/>
    <tag k="addr:street" v="Plac Żołnierza Polskiego"/>
    <tag k="building" v="residential"/>
    <tag k="building:levels" v="2"/>
    <tag k="building:usage:pl" v="Mieszkalny"/>
    <tag k="source" v="gis.um.szczecin.pl"/>
  </way>
  <way id="53264136" version="2" timestamp="2011-08-02T20:59:37Z" uid="473784" user="antblant" changeset="8905222">
    <nd ref="673963938"/>
    <nd ref="673963919"/>
    <nd ref="673963943"/>
    <nd ref="673963944"/>
    <nd ref="673963938"/>
    <tag k="addr:housenumber" v="10"/>
    <tag k="addr:street" v="Plac Żołnierza Polskiego"/>
    <tag k="building" v="residential"/>
    <tag k="building:levels" v="2"/>
    <tag k="building:usage:pl" v="Mieszkalny"/>
    <tag k="heritage" v="2"/>
    <tag k="heritage:operator" v="nid"/>
    <tag k="ref:nid" v="15"/>
    <tag k="source" v="gis.um.szczecin.pl"/>
  </way>
  <way id="53264137" version="1" timestamp="2010-03-25T08:51:17Z" uid="20587" user="balrog-kun" changeset="4227478">
    <nd ref="673963912"/>
    <nd ref="673963965"/>
    <nd ref="673963966"/>
    <nd ref="673963967"/>
    <nd ref="673963912"/>
    <tag k="addr:housenumber" v="2"/>
    <tag k="addr:street" v="Korsarzy"/>
    <tag k="building" v="retail"/>
    <tag k="building:levels" v="1"/>
    <tag k="building:usage:pl" v="Handlowo-usługowy"/>
    <tag k="landuse" v="retail"/>
    <tag k="source" v="gis.um.szczecin.pl"/>
  </way>
  <way id="53264138" version="1" timestamp="2010-03-25T08:51:17Z" uid="20587" user="balrog-kun" changeset="4227478">
    <nd ref="673963917"/>
    <nd ref="673963974"/>
    <nd ref="673963972"/>
    <nd ref="673963968"/>
    <nd ref="673963965"/>
    <nd ref="673963917"/>
    <tag k="building" v="retail"/>
    <tag k="building:levels" v="1"/>
    <tag k="building:usage:pl" v="Handlowo-usługowy"/>
    <tag k="landuse" v="retail"/>
    <tag k="source" v="gis.um.szczecin.pl"/>
  </way>
  <way id="53264139" version="1" timestamp="2010-03-25T08:51:17Z" uid="20587" user="balrog-kun" changeset="4227478">
    <nd ref="673963916"/>
    <nd ref="673963915"/>
    <nd ref="673963914"/>
    <nd ref="673963913"/>
    <nd ref="673963916"/>
    <tag k="building" v="service"/>
    <tag k="building:levels" v="1"/>
    <tag k="building:usage:pl" v="Inny niemieszkalny lub podziemny"/>
    <tag k="source" v="gis.um.szczecin.pl"/>
  </way>
  <way id="53264140" version="1" timestamp="2010-03-25T08:51:17Z" uid="20587" user="balrog-kun" changeset="4227478">
    <nd ref="673963930"/>
    <nd ref="673963939"/>
    <nd ref="673963936"/>
    <nd ref="673963937"/>
    <nd ref="673963940"/>
    <nd ref="673963932"/>
    <nd ref="673963930"/>
    <tag k="addr:housenumber" v="8"/>
    <tag k="addr:street" v="Plac Żołnierza Polskiego"/>
    <tag k="building" v="residential"/>
    <tag k="building:levels" v="2"/>
    <tag k="building:usage:pl" v="Mieszkalny"/>
    <tag k="source" v="gis.um.szczecin.pl"/>
  </way>
  <way id="53264140" version="2" timestamp="2011-08-02T20:59:40Z" uid="473784" user="antblant" changeset="8905222">
    <nd ref="673963930"/>
    <nd ref="673963939"/>
    <nd ref="673963936"/>
    <nd ref="673963937"/>
    <nd ref="673963940"/>
    <nd ref="673963932"/>
    <nd ref="673963930"/>
    <tag k="addr:housenumber" v="8"/>
    <tag k="addr:street" v="Plac Żołnierza Polskiego"/>
    <tag k="building" v="residential"/>
    <tag k="building:levels" v="2"/>
    <tag k="building:usage:pl" v="Mieszkalny"/>
    <tag k="heritage" v="2"/>
    <tag k="heritage:operator" v="nid"/>
    <tag k="ref:nid" v="15"/>
    <tag k="source" v="gis.um.szczecin.pl"/>
  </way>
  <way id="53264141" version="1" timestamp="2010-03-25T08:51:17Z" uid="20587" user="balrog-kun" changeset="4227478">
    <nd ref="673963940"/>
    <nd ref="673963937"/>
    <nd ref="673963938"/>
    <nd ref="673963944"/>
    <nd ref="673963940"/>
    <tag k="addr:housenumber" v="9"/>
    <tag k="addr:street" v="Plac Żołnierza Polskiego"/>
    <tag k="building" v="residential"/>
    <tag k="building:levels" v="2"/>
    <tag k="building:usage:pl" v="Mieszkalny"/>
    <tag k="source" v="gis.um.szczecin.pl"/>
  </way>
  <way id="53264141" version="2" timestamp="2011-08-02T20:59:40Z" uid="473784" user="antblant" changeset="8905222">
    <nd ref="673963940"/>
    <nd ref="673963937"/>
    <nd ref="673963938"/>
    <nd ref="673963944"/>
    <nd ref="673963940"/>
    <tag k="addr:housenumber" v="9"/>
    <tag k="addr:street" v="Plac Żołnierza Polskiego"/>
    <tag k="building" v="residential"/>
    <tag k="building:levels" v="2"/>
    <tag k="building:usage:pl" v="Mieszkalny"/>
    <tag k="heritage" v="2"/>
    <tag k="heritage:operator" v="nid"/>
    <tag k="ref:nid" v="15"/>
    <tag k="source" v="gis.um.szczecin.pl"/>
  </way>
  <way id="53264142" version="1" timestamp="2010-03-25T08:51:17Z" uid="20587" user="balrog-kun" changeset="4227478">
    <nd ref="673963935"/>
    <nd ref="673963929"/>
    <nd ref="673963926"/>
    <nd ref="673963924"/>
    <nd ref="673963925"/>
    <nd ref="673963923"/>
    <nd ref="673963928"/>
    <nd ref="673963922"/>
    <nd ref="673963927"/>
    <nd ref="673963934"/>
    <nd ref="673963935"/>
    <tag k="addr:housenumber" v="24"/>
    <tag k="addr:street" v="Mariacka"/>
    <tag k="building" v="service"/>
    <tag k="building:levels" v="2"/>
    <tag k="building:usage:pl" v="Inny niemieszkalny lub podziemny"/>
    <tag k="source" v="gis.um.szczecin.pl"/>
  </way>
  <way id="53264142" version="2" timestamp="2011-08-02T20:05:55Z" uid="473784" user="antblant" changeset="8904614">
    <nd ref="673963935"/>
    <nd ref="673963929"/>
    <nd ref="673963926"/>
    <nd ref="673963924"/>
    <nd ref="673963925"/>
    <nd ref="673963923"/>
    <nd ref="673963928"/>
    <nd ref="673963922"/>
    <nd ref="673963927"/>
    <nd ref="673963934"/>
    <nd ref="673963935"/>
    <tag k="addr:housenumber" v="24"/>
    <tag k="addr:street" v="Mariacka"/>
    <tag k="building" v="service"/>
    <tag k="building:levels" v="2"/>
    <tag k="building:usage:pl" v="Inny niemieszkalny lub podziemny"/>
    <tag k="heritage" v="2"/>
    <tag k="heritage:operator" v="nid"/>
    <tag k="ref:nid" v="11"/>
    <tag k="source" v="gis.um.szczecin.pl"/>
  </way>
  <way id="53264143" version="1" timestamp="2010-03-25T08:51:18Z" uid="20587" user="balrog-kun" changeset="4227478">
    <nd ref="673963945"/>
    <nd ref="673963949"/>
    <nd ref="673963948"/>
    <nd ref="673963947"/>
    <nd ref="673963951"/>
    <nd ref="673963950"/>
    <nd ref="673963989"/>
    <nd ref="673963988"/>
    <nd ref="673963992"/>
    <nd ref="673964009"/>
    <nd ref="673963945"/>
    <tag k="addr:housenumber" v="20"/>
    <tag k="addr:street" v="Korsarzy"/>
    <tag k="building" v="residential"/>
    <tag k="building:levels" v="2"/>
    <tag k="building:usage:pl" v="Mieszkalny"/>
    <tag k="source" v="gis.um.szczecin.pl"/>
  </way>
  <way id="53264144" version="1" timestamp="2010-03-25T08:51:18Z" uid="20587" user="balrog-kun" changeset="4227478">
    <nd ref="673963946"/>
    <nd ref="673963945"/>
    <nd ref="673964009"/>
    <nd ref="673963976"/>
    <nd ref="673963946"/>
    <tag k="addr:housenumber" v="18"/>
    <tag k="addr:street" v="Korsarzy"/>
    <tag k="building" v="residential"/>
    <tag k="building:levels" v="2"/>
    <tag k="building:usage:pl" v="Mieszkalny"/>
    <tag k="source" v="gis.um.szczecin.pl"/>
  </way>
  <way id="53264145" version="1" timestamp="2010-03-25T08:51:18Z" uid="20587" user="balrog-kun" changeset="4227478">
    <nd ref="673963977"/>
    <nd ref="673963978"/>
    <nd ref="673963946"/>
    <nd ref="673963976"/>
    <nd ref="673963977"/>
    <tag k="addr:housenumber" v="16"/>
    <tag k="addr:street" v="Korsarzy"/>
    <tag k="building" v="residential"/>
    <tag k="building:levels" v="2"/>
    <tag k="building:usage:pl" v="Mieszkalny"/>
    <tag k="source" v="gis.um.szczecin.pl"/>
  </way>
  <way id="53264146" version="1" timestamp="2010-03-25T08:51:18Z" uid="20587" user="balrog-kun" changeset="4227478">
    <nd ref="673963969"/>
    <nd ref="673963966"/>
    <nd ref="673963968"/>
    <nd ref="673963972"/>
    <nd ref="673963974"/>
    <nd ref="673963973"/>
    <nd ref="673963960"/>
    <nd ref="673963971"/>
    <nd ref="673963970"/>
    <nd ref="673963969"/>
    <tag k="addr:housenumber" v="4"/>
    <tag k="addr:street" v="Korsarzy"/>
    <tag k="building" v="residential"/>
    <tag k="building:levels" v="2"/>
    <tag k="building:usage:pl" v="Mieszkalny"/>
    <tag k="source" v="gis.um.szczecin.pl"/>
  </way>
  <way id="53264147" version="1" timestamp="2010-03-25T08:51:18Z" uid="20587" user="balrog-kun" changeset="4227478">
    <nd ref="673963980"/>
    <nd ref="673963979"/>
    <nd ref="673963978"/>
    <nd ref="673963977"/>
    <nd ref="673963980"/>
    <tag k="addr:housenumber" v="14"/>
    <tag k="addr:street" v="Korsarzy"/>
    <tag k="building" v="residential"/>
    <tag k="building:levels" v="2"/>
    <tag k="building:usage:pl" v="Mieszkalny"/>
    <tag k="source" v="gis.um.szczecin.pl"/>
  </way>
  <way id="53264148" version="1" timestamp="2010-03-25T08:51:18Z" uid="20587" user="balrog-kun" changeset="4227478">
    <nd ref="673963961"/>
    <nd ref="673963979"/>
    <nd ref="673963980"/>
    <nd ref="673963981"/>
    <nd ref="673963961"/>
    <tag k="addr:housenumber" v="12"/>
    <tag k="addr:street" v="Korsarzy"/>
    <tag k="building" v="residential"/>
    <tag k="building:levels" v="2"/>
    <tag k="building:usage:pl" v="Mieszkalny"/>
    <tag k="source" v="gis.um.szczecin.pl"/>
  </way>
  <way id="53264149" version="1" timestamp="2010-03-25T08:51:18Z" uid="20587" user="balrog-kun" changeset="4227478">
    <nd ref="673963962"/>
    <nd ref="673963961"/>
    <nd ref="673963981"/>
    <nd ref="673963984"/>
    <nd ref="673963962"/>
    <tag k="addr:housenumber" v="10"/>
    <tag k="addr:street" v="Korsarzy"/>
    <tag k="building" v="residential"/>
    <tag k="building:levels" v="2"/>
    <tag k="building:usage:pl" v="Mieszkalny"/>
    <tag k="source" v="gis.um.szczecin.pl"/>
  </way>
  <way id="53264150" version="1" timestamp="2010-03-25T08:51:18Z" uid="20587" user="balrog-kun" changeset="4227478">
    <nd ref="673963963"/>
    <nd ref="673963962"/>
    <nd ref="673963984"/>
    <nd ref="673963975"/>
    <nd ref="673963963"/>
    <tag k="addr:housenumber" v="8"/>
    <tag k="addr:street" v="Korsarzy"/>
    <tag k="building" v="residential"/>
    <tag k="building:levels" v="2"/>
    <tag k="building:usage:pl" v="Mieszkalny"/>
    <tag k="source" v="gis.um.szczecin.pl"/>
  </way>
  <way id="53264151" version="1" timestamp="2010-03-25T08:51:18Z" uid="20587" user="balrog-kun" changeset="4227478">
    <nd ref="673963960"/>
    <nd ref="673963963"/>
    <nd ref="673963975"/>
    <nd ref="673963971"/>
    <nd ref="673963960"/>
    <tag k="addr:housenumber" v="6"/>
    <tag k="addr:street" v="Korsarzy"/>
    <tag k="building" v="residential"/>
    <tag k="building:levels" v="2"/>
    <tag k="building:usage:pl" v="Mieszkalny"/>
    <tag k="source" v="gis.um.szczecin.pl"/>
  </way>
  <way id="53264152" version="1" timestamp="2010-03-25T08:51:18Z" uid="20587" user="balrog-kun" changeset="4227478">
    <nd ref="673964006"/>
    <nd ref="673963986"/>
    <nd ref="673963995"/>
    <nd ref="673964007"/>
    <nd ref="673964006"/>
    <tag k="addr:housenumber" v="30"/>
    <tag k="addr:street" v="Korsarzy"/>
    <tag k="building" v="residential"/>
    <tag k="building:levels" v="2"/>
    <tag k="building:usage:pl" v="Mieszkalny"/>
    <tag k="source" v="gis.um.szczecin.pl"/>
  </way>
  <way id="53264153" version="1" timestamp="2010-03-25T08:51:19Z" uid="20587" user="balrog-kun" changeset="4227478">
    <nd ref="673963995"/>
    <nd ref="673964001"/>
    <nd ref="673964000"/>
    <nd ref="673964003"/>
    <nd ref="673964002"/>
    <nd ref="673964005"/>
    <nd ref="673964007"/>
    <nd ref="673963995"/>
    <tag k="addr:street" v="Korsarzy"/>
    <tag k="building" v="residential"/>
    <tag k="building:levels" v="2"/>
    <tag k="building:usage:pl" v="Mieszkalny"/>
    <tag k="source" v="gis.um.szczecin.pl"/>
  </way>
  <way id="53264154" version="1" timestamp="2010-03-25T08:51:19Z" uid="20587" user="balrog-kun" changeset="4227478">
    <nd ref="673963991"/>
    <nd ref="673963993"/>
    <nd ref="673963994"/>
    <nd ref="673963990"/>
    <nd ref="673963991"/>
    <tag k="addr:housenumber" v="24"/>
    <tag k="addr:street" v="Korsarzy"/>
    <tag k="building" v="residential"/>
    <tag k="building:levels" v="2"/>
    <tag k="building:usage:pl" v="Mieszkalny"/>
    <tag k="source" v="gis.um.szczecin.pl"/>
  </way>
  <way id="53264155" version="1" timestamp="2010-03-25T08:51:19Z" uid="20587" user="balrog-kun" changeset="4227478">
    <nd ref="673963988"/>
    <nd ref="673963991"/>
    <nd ref="673963990"/>
    <nd ref="673963992"/>
    <nd ref="673963988"/>
    <tag k="addr:housenumber" v="22"/>
    <tag k="addr:street" v="Korsarzy"/>
    <tag k="building" v="residential"/>
    <tag k="building:levels" v="2"/>
    <tag k="building:usage:pl" v="Mieszkalny"/>
    <tag k="source" v="gis.um.szczecin.pl"/>
  </way>
  <way id="53264156" version="1" timestamp="2010-03-25T08:51:19Z" uid="20587" user="balrog-kun" changeset="4227478">
    <nd ref="673963993"/>
    <nd ref="673963985"/>
    <nd ref="673963987"/>
    <nd ref="673963994"/>
    <nd ref="673963993"/>
    <tag k="addr:housenumber" v="26"/>
    <tag k="addr:street" v="Korsarzy"/>
    <tag k="building" v="residential"/>
    <tag k="building:levels" v="2"/>
    <tag k="building:usage:pl" v="Mieszkalny"/>
    <tag k="source" v="gis.um.szczecin.pl"/>
  </way>
  <way id="53264157" version="1" timestamp="2010-03-25T08:51:19Z" uid="20587" user="balrog-kun" changeset="4227478">
    <nd ref="673963985"/>
    <nd ref="673963986"/>
    <nd ref="673964006"/>
    <nd ref="673963987"/>
    <nd ref="673963985"/>
    <tag k="addr:housenumber" v="28"/>
    <tag k="addr:street" v="Korsarzy"/>
    <tag k="building" v="residential"/>
    <tag k="building:levels" v="2"/>
    <tag k="building:usage:pl" v="Mieszkalny"/>
    <tag k="source" v="gis.um.szczecin.pl"/>
  </way>
  <way id="53264158" version="1" timestamp="2010-03-25T08:51:19Z" uid="20587" user="balrog-kun" changeset="4227478">
    <nd ref="673964034"/>
    <nd ref="673964033"/>
    <nd ref="673964016"/>
    <nd ref="673964017"/>
    <nd ref="673964018"/>
    <nd ref="673964012"/>
    <nd ref="673964013"/>
    <nd ref="673964014"/>
    <nd ref="673964015"/>
    <nd ref="673964011"/>
    <nd ref="673964032"/>
    <nd ref="673964031"/>
    <nd ref="673964030"/>
    <nd ref="673964029"/>
    <nd ref="673964028"/>
    <nd ref="673964027"/>
    <nd ref="673964026"/>
    <nd ref="673964025"/>
    <nd ref="673964024"/>
    <nd ref="673964023"/>
    <nd ref="673964022"/>
    <nd ref="673964021"/>
    <nd ref="673964020"/>
    <nd ref="673964034"/>
    <tag k="addr:housenumber" v="1"/>
    <tag k="addr:street" v="Plac Piotra I Pawła"/>
    <tag k="amenity" v="place_of_worship"/>
    <tag k="building" v="church"/>
    <tag k="building:levels" v="1"/>
    <tag k="building:usage:pl" v="Inny niemieszkalny lub podziemny"/>
    <tag k="denomination" v="catholic"/>
    <tag k="name" v="Kościół świętego Piotra i świętego Pawła"/>
    <tag k="religion" v="christian"/>
    <tag k="source" v="gis.um.szczecin.pl"/>
  </way>
  <way id="53264158" version="2" timestamp="2011-07-19T12:27:39Z" uid="473784" user="antblant" changeset="8767923">
    <nd ref="673964034"/>
    <nd ref="673964033"/>
    <nd ref="673964016"/>
    <nd ref="673964017"/>
    <nd ref="673964018"/>
    <nd ref="673964012"/>
    <nd ref="673964013"/>
    <nd ref="673964014"/>
    <nd ref="673964015"/>
    <nd ref="673964011"/>
    <nd ref="673964032"/>
    <nd ref="673964031"/>
    <nd ref="673964030"/>
    <nd ref="673964029"/>
    <nd ref="673964028"/>
    <nd ref="673964027"/>
    <nd ref="673964026"/>
    <nd ref="673964025"/>
    <nd ref="673964024"/>
    <nd ref="673964023"/>
    <nd ref="673964022"/>
    <nd ref="673964021"/>
    <nd ref="673964020"/>
    <nd ref="673964034"/>
    <tag k="addr:housenumber" v="1"/>
    <tag k="addr:street" v="Plac Piotra I Pawła"/>
    <tag k="amenity" v="place_of_worship"/>
    <tag k="building" v="church"/>
    <tag k="building:levels" v="1"/>
    <tag k="building:usage:pl" v="Inny niemieszkalny lub podziemny"/>
    <tag k="denomination" v="catholic"/>
    <tag k="heritage" v="2"/>
    <tag k="heritage:operator" v="nid"/>
    <tag k="name" v="Kościół świętego Piotra i świętego Pawła"/>
    <tag k="ref:nid" v="55"/>
    <tag k="religion" v="christian"/>
    <tag k="source" v="gis.um.szczecin.pl"/>
  </way>
  <way id="53264159" version="1" timestamp="2010-03-25T08:51:19Z" uid="20587" user="balrog-kun" changeset="4227478">
    <nd ref="673964040"/>
    <nd ref="673964038"/>
    <nd ref="673964039"/>
    <nd ref="673964036"/>
    <nd ref="673964037"/>
    <nd ref="673964045"/>
    <nd ref="673964047"/>
    <nd ref="673964035"/>
    <nd ref="673964040"/>
    <tag k="building" v="service"/>
    <tag k="building:levels" v="1"/>
    <tag k="building:usage:pl" v="Inny niemieszkalny lub podziemny"/>
    <tag k="source" v="gis.um.szczecin.pl"/>
  </way>
  <way id="53264159" version="2" timestamp="2011-02-06T15:35:58Z" uid="30632" user="antblant" changeset="7205075">
    <nd ref="673964040"/>
    <nd ref="673964038"/>
    <nd ref="673964039"/>
    <nd ref="622601467"/>
    <nd ref="673964036"/>
    <nd ref="673964037"/>
    <nd ref="673964045"/>
    <nd ref="673964047"/>
    <nd ref="622601468"/>
    <nd ref="673964035"/>
    <nd ref="673964040"/>
    <tag k="building" v="service"/>
    <tag k="building:levels" v="1"/>
    <tag k="building:usage:pl" v="Inny niemieszkalny lub podziemny"/>
    <tag k="source" v="gis.um.szczecin.pl"/>
  </way>
  <way id="53264160" version="1" timestamp="2010-03-25T08:51:19Z" uid="20587" user="balrog-kun" changeset="4227478">
    <nd ref="673964118"/>
    <nd ref="673964107"/>
    <nd ref="673964102"/>
    <nd ref="673964104"/>
    <nd ref="673964103"/>
    <nd ref="673964117"/>
    <nd ref="673964118"/>
    <tag k="building" v="service"/>
    <tag k="building:levels" v="1"/>
    <tag k="building:usage:pl" v="Inny niemieszkalny lub podziemny"/>
    <tag k="source" v="gis.um.szczecin.pl"/>
  </way>
  <way id="53264161" version="1" timestamp="2010-03-25T08:51:19Z" uid="20587" user="balrog-kun" changeset="4227478">
    <nd ref="673964090"/>
    <nd ref="673964081"/>
    <nd ref="673964083"/>
    <nd ref="673964084"/>
    <nd ref="673964078"/>
    <nd ref="673964079"/>
    <nd ref="673964088"/>
    <nd ref="673964101"/>
    <nd ref="673964105"/>
    <nd ref="673964089"/>
    <nd ref="673964091"/>
    <nd ref="673964102"/>
    <nd ref="673964107"/>
    <nd ref="673964118"/>
    <nd ref="673964090"/>
    <tag k="addr:housenumber" v="15"/>
    <tag k="addr:street" v="Małopolska"/>
    <tag k="building" v="offices"/>
    <tag k="building:levels" v="5"/>
    <tag k="building:usage:pl" v="Biurowy"/>
    <tag k="landuse" v="commercial"/>
    <tag k="source" v="gis.um.szczecin.pl"/>
  </way>
  <way id="53264162" version="1" timestamp="2010-03-25T08:51:20Z" uid="20587" user="balrog-kun" changeset="4227478">
    <nd ref="673964123"/>
    <nd ref="673964119"/>
    <nd ref="673964124"/>
    <nd ref="673964125"/>
    <nd ref="673964126"/>
    <nd ref="673964127"/>
    <nd ref="673964128"/>
    <nd ref="673964120"/>
    <nd ref="673964121"/>
    <nd ref="673964123"/>
    <tag k="building" v="service"/>
    <tag k="building:levels" v="1"/>
    <tag k="building:usage:pl" v="Inny niemieszkalny lub podziemny"/>
    <tag k="source" v="gis.um.szczecin.pl"/>
  </way>
  <way id="53264163" version="1" timestamp="2010-03-25T08:51:20Z" uid="20587" user="balrog-kun" changeset="4227478">
    <nd ref="673964183"/>
    <nd ref="673964146"/>
    <nd ref="673964144"/>
    <nd ref="673964145"/>
    <nd ref="673964142"/>
    <nd ref="673964143"/>
    <nd ref="673964140"/>
    <nd ref="673964141"/>
    <nd ref="673964138"/>
    <nd ref="673964147"/>
    <nd ref="673964148"/>
    <nd ref="673964166"/>
    <nd ref="673964163"/>
    <nd ref="673964162"/>
    <nd ref="673964165"/>
    <nd ref="673964186"/>
    <nd ref="673964164"/>
    <nd ref="673964185"/>
    <nd ref="673964184"/>
    <nd ref="673964183"/>
    <tag k="addr:housenumber" v="22"/>
    <tag k="addr:street" v="Małopolska"/>
    <tag k="building" v="education"/>
    <tag k="building:levels" v="4"/>
    <tag k="building:usage:pl" v="Oświaty, nauki, kultury lub budynek sportowy"/>
    <tag k="source" v="gis.um.szczecin.pl"/>
  </way>
  <way id="53264163" version="2" timestamp="2011-07-19T12:27:36Z" uid="473784" user="antblant" changeset="8767923">
    <nd ref="673964183"/>
    <nd ref="673964146"/>
    <nd ref="673964144"/>
    <nd ref="673964145"/>
    <nd ref="673964142"/>
    <nd ref="673964143"/>
    <nd ref="673964140"/>
    <nd ref="673964141"/>
    <nd ref="673964138"/>
    <nd ref="673964147"/>
    <nd ref="673964148"/>
    <nd ref="673964166"/>
    <nd ref="673964163"/>
    <nd ref="673964162"/>
    <nd ref="673964165"/>
    <nd ref="673964186"/>
    <nd ref="673964164"/>
    <nd ref="673964185"/>
    <nd ref="673964184"/>
    <nd ref="673964183"/>
    <tag k="addr:housenumber" v="22"/>
    <tag k="addr:street" v="Małopolska"/>
    <tag k="building" v="education"/>
    <tag k="building:levels" v="4"/>
    <tag k="building:usage:pl" v="Oświaty, nauki, kultury lub budynek sportowy"/>
    <tag k="heritage" v="2"/>
    <tag k="heritage:operator" v="nid"/>
    <tag k="ref:nid" v="1379"/>
    <tag k="source" v="gis.um.szczecin.pl"/>
  </way>
  <way id="53264164" version="1" timestamp="2010-03-25T08:51:20Z" uid="20587" user="balrog-kun" changeset="4227478">
    <nd ref="673964163"/>
    <nd ref="673964159"/>
    <nd ref="673964160"/>
    <nd ref="673964162"/>
    <nd ref="673964163"/>
    <tag k="building" v="service"/>
    <tag k="building:levels" v="1"/>
    <tag k="building:usage:pl" v="Inny niemieszkalny lub podziemny"/>
    <tag k="source" v="gis.um.szczecin.pl"/>
  </way>
  <way id="53264165" version="1" timestamp="2010-03-25T08:51:20Z" uid="20587" user="balrog-kun" changeset="4227478">
    <nd ref="673964149"/>
    <nd ref="673964159"/>
    <nd ref="673964163"/>
    <nd ref="673964166"/>
    <nd ref="673964150"/>
    <nd ref="673964149"/>
    <tag k="building" v="service"/>
    <tag k="building:levels" v="1"/>
    <tag k="building:usage:pl" v="Inny niemieszkalny lub podziemny"/>
    <tag k="source" v="gis.um.szczecin.pl"/>
  </way>
  <way id="53264166" version="1" timestamp="2010-03-25T08:51:20Z" uid="20587" user="balrog-kun" changeset="4227478">
    <nd ref="673964137"/>
    <nd ref="673964135"/>
    <nd ref="673964158"/>
    <nd ref="673964157"/>
    <nd ref="673964156"/>
    <nd ref="673964155"/>
    <nd ref="673964137"/>
    <tag k="building" v="service"/>
    <tag k="building:levels" v="1"/>
    <tag k="building:usage:pl" v="Inny niemieszkalny lub podziemny"/>
    <tag k="source" v="gis.um.szczecin.pl"/>
  </way>
  <way id="53264167" version="1" timestamp="2010-03-25T08:51:20Z" uid="20587" user="balrog-kun" changeset="4227478">
    <nd ref="673964165"/>
    <nd ref="673964162"/>
    <nd ref="673964160"/>
    <nd ref="673964161"/>
    <nd ref="673964167"/>
    <nd ref="673964169"/>
    <nd ref="673964168"/>
    <nd ref="673964171"/>
    <nd ref="673964170"/>
    <nd ref="673964173"/>
    <nd ref="673964172"/>
    <nd ref="673964175"/>
    <nd ref="673964174"/>
    <nd ref="673964177"/>
    <nd ref="673964176"/>
    <nd ref="673964178"/>
    <nd ref="673964152"/>
    <nd ref="673964154"/>
    <nd ref="673964153"/>
    <nd ref="673964182"/>
    <nd ref="673964181"/>
    <nd ref="673964180"/>
    <nd ref="673964165"/>
    <tag k="addr:housenumber" v="23"/>
    <tag k="addr:street" v="Małopolska"/>
    <tag k="building" v="service"/>
    <tag k="building:levels" v="5"/>
    <tag k="building:usage:pl" v="Inny niemieszkalny lub podziemny"/>
    <tag k="source" v="gis.um.szczecin.pl"/>
  </way>
  <way id="53264167" version="2" timestamp="2011-07-11T15:45:17Z" uid="322550" user="Tbubu" changeset="8694972">
    <nd ref="673964165"/>
    <nd ref="673964162"/>
    <nd ref="673964160"/>
    <nd ref="673964161"/>
    <nd ref="673964167"/>
    <nd ref="673964169"/>
    <nd ref="673964168"/>
    <nd ref="673964171"/>
    <nd ref="673964170"/>
    <nd ref="673964173"/>
    <nd ref="673964172"/>
    <nd ref="673964175"/>
    <nd ref="673964174"/>
    <nd ref="673964177"/>
    <nd ref="673964176"/>
    <nd ref="673964178"/>
    <nd ref="673964152"/>
    <nd ref="673964154"/>
    <nd ref="673964153"/>
    <nd ref="673964182"/>
    <nd ref="673964181"/>
    <nd ref="673964180"/>
    <nd ref="673964165"/>
    <tag k="addr:housenumber" v="23"/>
    <tag k="addr:street" v="Małopolska"/>
    <tag k="building" v="service"/>
    <tag k="building:levels" v="5"/>
    <tag k="building:usage:pl" v="Inny niemieszkalny lub podziemny"/>
    <tag k="source" v="gis.um.szczecin.pl"/>
  </way>
  <way id="53264167" version="3" timestamp="2011-07-11T18:30:16Z" uid="322550" user="Tbubu" changeset="8696310">
    <nd ref="673964165"/>
    <nd ref="673964162"/>
    <nd ref="673964160"/>
    <nd ref="673964161"/>
    <nd ref="673964167"/>
    <nd ref="673964169"/>
    <nd ref="673964168"/>
    <nd ref="673964171"/>
    <nd ref="673964170"/>
    <nd ref="673964173"/>
    <nd ref="673964172"/>
    <nd ref="673964175"/>
    <nd ref="673964174"/>
    <nd ref="673964177"/>
    <nd ref="673964176"/>
    <nd ref="673964178"/>
    <nd ref="673964152"/>
    <nd ref="673964154"/>
    <nd ref="673964153"/>
    <nd ref="673964182"/>
    <nd ref="673964181"/>
    <nd ref="673964180"/>
    <nd ref="673964165"/>
    <tag k="addr:housenumber" v="23"/>
    <tag k="addr:street" v="Małopolska"/>
    <tag k="building" v="hotel focus"/>
    <tag k="building:levels" v="5"/>
    <tag k="building:usage:pl" v="Inny niemieszkalny lub podziemny"/>
    <tag k="source" v="gis.um.szczecin.pl"/>
  </way>
  <way id="53264168" version="1" timestamp="2010-03-25T08:51:20Z" uid="20587" user="balrog-kun" changeset="4227478">
    <nd ref="673964147"/>
    <nd ref="673964138"/>
    <nd ref="673964141"/>
    <nd ref="673964139"/>
    <nd ref="673964151"/>
    <nd ref="673964148"/>
    <nd ref="673964147"/>
    <tag k="building" v="service"/>
    <tag k="building:levels" v="1"/>
    <tag k="building:usage:pl" v="Inny niemieszkalny lub podziemny"/>
    <tag k="source" v="gis.um.szczecin.pl"/>
  </way>
  <way id="53264480" version="1" timestamp="2010-03-25T09:12:05Z" uid="99207" user="Lar Kiesel" changeset="4227601">
    <nd ref="114074532"/>
    <nd ref="673968830"/>
    <nd ref="673968834"/>
    <nd ref="673968836"/>
    <nd ref="673968837"/>
    <nd ref="673968838"/>
    <nd ref="673968839"/>
    <nd ref="673968840"/>
    <nd ref="673968841"/>
    <nd ref="673968842"/>
    <nd ref="673968844"/>
    <nd ref="114074475"/>
    <tag k="railway" v="rail"/>
  </way>
  <way id="53264480" version="2" timestamp="2010-04-11T15:11:15Z" uid="99207" user="Lar Kiesel" changeset="4394745">
    <nd ref="114074532"/>
    <nd ref="673968830"/>
    <nd ref="673968834"/>
    <nd ref="673968836"/>
    <nd ref="673968837"/>
    <nd ref="673968838"/>
    <nd ref="673968839"/>
    <nd ref="673968840"/>
    <nd ref="673968841"/>
    <nd ref="673968842"/>
    <nd ref="673968844"/>
    <nd ref="114074475"/>
    <tag k="name" v="Columbia"/>
    <tag k="operator" v="CSX Transport"/>
    <tag k="railway" v="rail"/>
    <tag k="ref" v="C2"/>
  </way>
  <way id="53264480" version="3" timestamp="2010-04-13T07:10:50Z" uid="99207" user="Lar Kiesel" changeset="4411087">
    <nd ref="114074532"/>
    <nd ref="673968830"/>
    <nd ref="673968834"/>
    <nd ref="673968836"/>
    <nd ref="673968837"/>
    <nd ref="673968838"/>
    <nd ref="673968839"/>
    <nd ref="673968840"/>
    <nd ref="673968841"/>
    <nd ref="673968842"/>
    <nd ref="673968844"/>
    <nd ref="114074475"/>
    <tag k="name" v="CSX Transport"/>
    <tag k="operator" v="CSX Transport"/>
    <tag k="railway" v="rail"/>
    <tag k="ref" v="C2"/>
  </way>
  <way id="53264480" version="4" timestamp="2010-05-01T01:40:05Z" uid="99207" user="Lar Kiesel" changeset="4571226">
    <nd ref="114074532"/>
    <nd ref="673968830"/>
    <nd ref="673968834"/>
    <nd ref="673968836"/>
    <nd ref="673968837"/>
    <nd ref="673968838"/>
    <nd ref="673968839"/>
    <nd ref="673968840"/>
    <nd ref="673968841"/>
    <nd ref="673968842"/>
    <nd ref="673968844"/>
    <nd ref="114074475"/>
    <tag k="name" v="CSX Transport"/>
    <tag k="operator" v="CSX Transport"/>
    <tag k="railway" v="rail"/>
  </way>
  <way id="53264480" version="5" timestamp="2011-12-07T23:56:52Z" uid="207745" user="NE2" changeset="10062024">
    <nd ref="114074532"/>
    <nd ref="673968830"/>
    <nd ref="673968834"/>
    <nd ref="673968836"/>
    <nd ref="673968837"/>
    <nd ref="673968838"/>
    <nd ref="673968839"/>
    <nd ref="673968840"/>
    <nd ref="673968841"/>
    <nd ref="673968842"/>
    <nd ref="673968844"/>
    <nd ref="114074475"/>
    <tag k="electrified" v="no"/>
    <tag k="gauge" v="1435"/>
    <tag k="railway" v="rail"/>
  </way>
  <way id="53264482" version="1" timestamp="2010-03-25T09:12:06Z" uid="99207" user="Lar Kiesel" changeset="4227601">
    <nd ref="673968846"/>
    <nd ref="114018653"/>
    <tag k="bridge" v="yes"/>
    <tag k="layer" v="1"/>
    <tag k="name" v="Southern Railroad"/>
    <tag k="railway" v="rail"/>
    <tag k="tiger:cfcc" v="B11"/>
    <tag k="tiger:county" v="Richland, SC"/>
    <tag k="tiger:name_base" v="Southern Railroad"/>
    <tag k="tiger:reviewed" v="no"/>
    <tag k="tiger:source" v="tiger_import_dch_v0.6_20070829"/>
    <tag k="tiger:tlid" v="71846543:71846393:71846394:71816309:71871244:71810854:71810856:71810858:71833986:71838623:71872052:71838624:71869559:71845021:71845031:71838267:71817936:71835207:71817993:71871379:71857917:71857918:71871378:71857389:71817999:71818470:71818486:71820571:718"/>
    <tag k="tiger:upload_uuid" v="bulk_upload.pl-0250b25a-3ed9-45b1-b84e-45e4a188563e"/>
  </way>
  <way id="53264484" version="1" timestamp="2010-03-25T09:12:07Z" uid="99207" user="Lar Kiesel" changeset="4227601">
    <nd ref="114018653"/>
    <nd ref="114018655"/>
    <nd ref="658158744"/>
    <nd ref="658158746"/>
    <nd ref="673968848"/>
    <nd ref="658158749"/>
    <nd ref="114018657"/>
    <tag k="name" v="Southern Railroad"/>
    <tag k="railway" v="rail"/>
    <tag k="tiger:cfcc" v="B11"/>
    <tag k="tiger:county" v="Richland, SC"/>
    <tag k="tiger:name_base" v="Southern Railroad"/>
    <tag k="tiger:reviewed" v="no"/>
    <tag k="tiger:source" v="tiger_import_dch_v0.6_20070829"/>
    <tag k="tiger:tlid" v="71846543:71846393:71846394:71816309:71871244:71810854:71810856:71810858:71833986:71838623:71872052:71838624:71869559:71845021:71845031:71838267:71817936:71835207:71817993:71871379:71857917:71857918:71871378:71857389:71817999:71818470:71818486:71820571:718"/>
    <tag k="tiger:upload_uuid" v="bulk_upload.pl-0250b25a-3ed9-45b1-b84e-45e4a188563e"/>
  </way>
  <way id="53264489" version="1" timestamp="2010-03-25T09:12:09Z" uid="99207" user="Lar Kiesel" changeset="4227601">
    <nd ref="673968850"/>
    <nd ref="673968851"/>
    <nd ref="673968852"/>
    <nd ref="673968853"/>
    <nd ref="673968854"/>
    <nd ref="673968855"/>
    <nd ref="673968856"/>
    <nd ref="673968858"/>
    <nd ref="673968859"/>
    <nd ref="673968860"/>
    <nd ref="673968861"/>
    <nd ref="673968863"/>
    <tag k="railway" v="rail"/>
  </way>
  <way id="53264497" version="1" timestamp="2010-03-25T09:12:16Z" uid="99207" user="Lar Kiesel" changeset="4227601">
    <nd ref="658204346"/>
    <nd ref="658204350"/>
    <nd ref="658204356"/>
    <tag k="layer" v="-1"/>
    <tag k="name" v="Southern Railway"/>
    <tag k="railway" v="rail"/>
    <tag k="tiger:cfcc" v="B11"/>
    <tag k="tiger:county" v="Richland, SC"/>
    <tag k="tiger:name_base" v="Southern Railway"/>
    <tag k="tiger:reviewed" v="no"/>
    <tag k="tiger:source" v="tiger_import_dch_v0.6_20070829"/>
    <tag k="tiger:tlid" v="71820682:71871760:71827517:71827519:71871569:71827661:71827665:71827707:71827633:71827713:71827714:71827539"/>
    <tag k="tiger:upload_uuid" v="bulk_upload.pl-0250b25a-3ed9-45b1-b84e-45e4a188563e"/>
    <tag k="tunnel" v="yes"/>
  </way>
  <way id="53264497" version="2" timestamp="2010-03-31T07:24:13Z" uid="99207" user="Lar Kiesel" changeset="4282981">
    <nd ref="658204346"/>
    <nd ref="658204350"/>
    <nd ref="658204356"/>
    <tag k="layer" v="-1"/>
    <tag k="name" v="Norfork Southern Railway"/>
    <tag k="railway" v="rail"/>
    <tag k="tiger:cfcc" v="B11"/>
    <tag k="tiger:county" v="Richland, SC"/>
    <tag k="tiger:name_base" v="Southern Railway"/>
    <tag k="tiger:reviewed" v="no"/>
    <tag k="tiger:source" v="tiger_import_dch_v0.6_20070829"/>
    <tag k="tiger:tlid" v="71820682:71871760:71827517:71827519:71871569:71827661:71827665:71827707:71827633:71827713:71827714:71827539"/>
    <tag k="tiger:upload_uuid" v="bulk_upload.pl-0250b25a-3ed9-45b1-b84e-45e4a188563e"/>
    <tag k="tunnel" v="yes"/>
  </way>
  <way id="53264497" version="3" timestamp="2010-04-11T15:11:06Z" uid="99207" user="Lar Kiesel" changeset="4394745">
    <nd ref="658204346"/>
    <nd ref="658204350"/>
    <nd ref="658204356"/>
    <tag k="layer" v="-1"/>
    <tag k="name" v="Columbia"/>
    <tag k="operator" v="CSX Transport"/>
    <tag k="railway" v="rail"/>
    <tag k="ref" v="C2"/>
    <tag k="tiger:cfcc" v="B11"/>
    <tag k="tiger:county" v="Richland, SC"/>
    <tag k="tiger:name_base" v="Southern Railway"/>
    <tag k="tiger:reviewed" v="no"/>
    <tag k="tiger:source" v="tiger_import_dch_v0.6_20070829"/>
    <tag k="tiger:tlid" v="71820682:71871760:71827517:71827519:71871569:71827661:71827665:71827707:71827633:71827713:71827714:71827539"/>
    <tag k="tiger:upload_uuid" v="bulk_upload.pl-0250b25a-3ed9-45b1-b84e-45e4a188563e"/>
    <tag k="tunnel" v="yes"/>
  </way>
  <way id="53264497" version="4" timestamp="2010-05-01T01:40:04Z" uid="99207" user="Lar Kiesel" changeset="4571226">
    <nd ref="658204346"/>
    <nd ref="658204350"/>
    <nd ref="658204356"/>
    <tag k="layer" v="-1"/>
    <tag k="name" v="CSX Transport"/>
    <tag k="operator" v="CSX Transport"/>
    <tag k="railway" v="rail"/>
    <tag k="tiger:cfcc" v="B11"/>
    <tag k="tiger:county" v="Richland, SC"/>
    <tag k="tiger:name_base" v="Southern Railway"/>
    <tag k="tiger:reviewed" v="no"/>
    <tag k="tiger:source" v="tiger_import_dch_v0.6_20070829"/>
    <tag k="tiger:tlid" v="71820682:71871760:71827517:71827519:71871569:71827661:71827665:71827707:71827633:71827713:71827714:71827539"/>
    <tag k="tiger:upload_uuid" v="bulk_upload.pl-0250b25a-3ed9-45b1-b84e-45e4a188563e"/>
    <tag k="tunnel" v="yes"/>
  </way>
  <way id="53264497" version="5" timestamp="2011-12-07T23:58:40Z" uid="207745" user="NE2" changeset="10062024">
    <nd ref="658204346"/>
    <nd ref="658204350"/>
    <nd ref="658204356"/>
    <tag k="electrified" v="no"/>
    <tag k="gauge" v="1435"/>
    <tag k="layer" v="-1"/>
    <tag k="railway" v="rail"/>
    <tag k="tiger:cfcc" v="B11"/>
    <tag k="tiger:county" v="Richland, SC"/>
    <tag k="tiger:name_base" v="Southern Railway"/>
    <tag k="tiger:reviewed" v="no"/>
    <tag k="tiger:source" v="tiger_import_dch_v0.6_20070829"/>
    <tag k="tiger:tlid" v="71820682:71871760:71827517:71827519:71871569:71827661:71827665:71827707:71827633:71827713:71827714:71827539"/>
    <tag k="tiger:upload_uuid" v="bulk_upload.pl-0250b25a-3ed9-45b1-b84e-45e4a188563e"/>
    <tag k="tunnel" v="yes"/>
  </way>
  <way id="53264498" version="1" timestamp="2010-03-25T09:12:17Z" uid="99207" user="Lar Kiesel" changeset="4227601">
    <nd ref="658204356"/>
    <nd ref="658204361"/>
    <nd ref="658157813"/>
    <nd ref="658204366"/>
    <nd ref="673968985"/>
    <nd ref="114018693"/>
    <nd ref="658204372"/>
    <nd ref="658361564"/>
    <nd ref="658361567"/>
    <nd ref="658204377"/>
    <nd ref="658204381"/>
    <nd ref="658204388"/>
    <nd ref="658204408"/>
    <nd ref="658204416"/>
    <nd ref="658204424"/>
    <nd ref="658204431"/>
    <nd ref="658204433"/>
    <nd ref="658204436"/>
    <nd ref="658204437"/>
    <nd ref="658204440"/>
    <nd ref="658204442"/>
    <nd ref="658204444"/>
    <nd ref="658204446"/>
    <nd ref="658204448"/>
    <nd ref="658204450"/>
    <nd ref="658204452"/>
    <nd ref="658204454"/>
    <nd ref="658204456"/>
    <nd ref="658204458"/>
    <nd ref="658204461"/>
    <nd ref="658204463"/>
    <nd ref="658204464"/>
    <nd ref="658204465"/>
    <nd ref="658204467"/>
    <nd ref="658204474"/>
    <nd ref="658204479"/>
    <nd ref="658204498"/>
    <nd ref="658204503"/>
    <nd ref="658204505"/>
    <nd ref="658204507"/>
    <nd ref="658204511"/>
    <nd ref="658204516"/>
    <nd ref="658204524"/>
    <nd ref="658204529"/>
    <nd ref="658204533"/>
    <nd ref="658204537"/>
    <nd ref="658204542"/>
    <nd ref="658204547"/>
    <nd ref="658204550"/>
    <nd ref="658204556"/>
    <nd ref="658204563"/>
    <nd ref="658204570"/>
    <nd ref="658204581"/>
    <nd ref="658204585"/>
    <nd ref="658204594"/>
    <nd ref="658204601"/>
    <nd ref="658204607"/>
    <nd ref="658204618"/>
    <nd ref="658204628"/>
    <nd ref="658204634"/>
    <nd ref="658204664"/>
    <nd ref="658204671"/>
    <nd ref="658204676"/>
    <nd ref="658204683"/>
    <nd ref="658204690"/>
    <nd ref="658204695"/>
    <nd ref="658204701"/>
    <nd ref="658204706"/>
    <nd ref="658204710"/>
    <nd ref="658204713"/>
    <nd ref="658204717"/>
    <nd ref="658204722"/>
    <nd ref="658204728"/>
    <nd ref="658204733"/>
    <nd ref="658204737"/>
    <nd ref="658204741"/>
    <nd ref="658204745"/>
    <nd ref="658204758"/>
    <nd ref="658204763"/>
    <nd ref="658204768"/>
    <nd ref="658204771"/>
    <nd ref="658204774"/>
    <nd ref="658204778"/>
    <nd ref="658204782"/>
    <nd ref="658204796"/>
    <nd ref="658204799"/>
    <nd ref="658204802"/>
    <nd ref="658204806"/>
    <nd ref="658204811"/>
    <nd ref="658204815"/>
    <nd ref="658204819"/>
    <nd ref="658204826"/>
    <nd ref="658204828"/>
    <nd ref="658204833"/>
    <nd ref="658204837"/>
    <nd ref="658204842"/>
    <nd ref="658204847"/>
    <nd ref="658204852"/>
    <nd ref="658204856"/>
    <nd ref="658204860"/>
    <nd ref="658204865"/>
    <nd ref="658204870"/>
    <nd ref="658204876"/>
    <nd ref="658204879"/>
    <nd ref="658204883"/>
    <nd ref="658204889"/>
    <nd ref="658204896"/>
    <nd ref="658204900"/>
    <nd ref="658204904"/>
    <nd ref="658204916"/>
    <nd ref="658204919"/>
    <nd ref="658204925"/>
    <nd ref="658204936"/>
    <nd ref="658204948"/>
    <nd ref="658204953"/>
    <nd ref="658204958"/>
    <nd ref="658204963"/>
    <nd ref="112360335"/>
    <tag k="name" v="Southern Railway"/>
    <tag k="railway" v="rail"/>
    <tag k="tiger:cfcc" v="B11"/>
    <tag k="tiger:county" v="Richland, SC"/>
    <tag k="tiger:name_base" v="Southern Railway"/>
    <tag k="tiger:reviewed" v="no"/>
    <tag k="tiger:source" v="tiger_import_dch_v0.6_20070829"/>
    <tag k="tiger:tlid" v="71820682:71871760:71827517:71827519:71871569:71827661:71827665:71827707:71827633:71827713:71827714:71827539"/>
    <tag k="tiger:upload_uuid" v="bulk_upload.pl-0250b25a-3ed9-45b1-b84e-45e4a188563e"/>
  </way>
  <way id="53264498" version="2" timestamp="2010-03-31T07:24:16Z" uid="99207" user="Lar Kiesel" changeset="4282981">
    <nd ref="658204356"/>
    <nd ref="658204361"/>
    <nd ref="658157813"/>
    <nd ref="658204366"/>
    <nd ref="673968985"/>
    <nd ref="114018693"/>
    <nd ref="658204372"/>
    <nd ref="658361564"/>
    <nd ref="658361567"/>
    <nd ref="658204377"/>
    <nd ref="658204381"/>
    <nd ref="658204388"/>
    <nd ref="658204408"/>
    <nd ref="658204416"/>
    <nd ref="658204424"/>
    <nd ref="658204431"/>
    <nd ref="658204433"/>
    <nd ref="658204436"/>
    <nd ref="658204437"/>
    <nd ref="658204440"/>
    <nd ref="658204442"/>
    <nd ref="658204444"/>
    <nd ref="658204446"/>
    <nd ref="658204448"/>
    <nd ref="658204450"/>
    <nd ref="658204452"/>
    <nd ref="658204454"/>
    <nd ref="658204456"/>
    <nd ref="658204458"/>
    <nd ref="658204461"/>
    <nd ref="658204463"/>
    <nd ref="658204464"/>
    <nd ref="658204465"/>
    <nd ref="658204467"/>
    <nd ref="658204474"/>
    <nd ref="658204479"/>
    <nd ref="658204498"/>
    <nd ref="658204503"/>
    <nd ref="658204505"/>
    <nd ref="658204507"/>
    <nd ref="658204511"/>
    <nd ref="658204516"/>
    <nd ref="658204524"/>
    <nd ref="658204529"/>
    <nd ref="658204533"/>
    <nd ref="658204537"/>
    <nd ref="658204542"/>
    <nd ref="658204547"/>
    <nd ref="658204550"/>
    <nd ref="658204556"/>
    <nd ref="658204563"/>
    <nd ref="658204570"/>
    <nd ref="658204581"/>
    <nd ref="658204585"/>
    <nd ref="658204594"/>
    <nd ref="658204601"/>
    <nd ref="658204607"/>
    <nd ref="658204618"/>
    <nd ref="658204628"/>
    <nd ref="658204634"/>
    <nd ref="658204664"/>
    <nd ref="658204671"/>
    <nd ref="658204676"/>
    <nd ref="658204683"/>
    <nd ref="658204690"/>
    <nd ref="658204695"/>
    <nd ref="658204701"/>
    <nd ref="658204706"/>
    <nd ref="658204710"/>
    <nd ref="658204713"/>
    <nd ref="658204717"/>
    <nd ref="658204722"/>
    <nd ref="658204728"/>
    <nd ref="658204733"/>
    <nd ref="658204737"/>
    <nd ref="658204741"/>
    <nd ref="658204745"/>
    <nd ref="658204758"/>
    <nd ref="658204763"/>
    <nd ref="658204768"/>
    <nd ref="658204771"/>
    <nd ref="658204774"/>
    <nd ref="658204778"/>
    <nd ref="658204782"/>
    <nd ref="658204796"/>
    <nd ref="658204799"/>
    <nd ref="658204802"/>
    <nd ref="658204806"/>
    <nd ref="658204811"/>
    <nd ref="658204815"/>
    <nd ref="658204819"/>
    <nd ref="658204826"/>
    <nd ref="658204828"/>
    <nd ref="658204833"/>
    <nd ref="658204837"/>
    <nd ref="658204842"/>
    <nd ref="658204847"/>
    <nd ref="658204852"/>
    <nd ref="658204856"/>
    <nd ref="658204860"/>
    <nd ref="658204865"/>
    <nd ref="658204870"/>
    <nd ref="658204876"/>
    <nd ref="658204879"/>
    <nd ref="658204883"/>
    <nd ref="658204889"/>
    <nd ref="658204896"/>
    <nd ref="658204900"/>
    <nd ref="658204904"/>
    <nd ref="658204916"/>
    <nd ref="658204919"/>
    <nd ref="658204925"/>
    <nd ref="658204936"/>
    <nd ref="658204948"/>
    <nd ref="658204953"/>
    <nd ref="658204958"/>
    <nd ref="658204963"/>
    <nd ref="112360335"/>
    <tag k="name" v="Norfork Southern Railway"/>
    <tag k="railway" v="rail"/>
    <tag k="tiger:cfcc" v="B11"/>
    <tag k="tiger:county" v="Richland, SC"/>
    <tag k="tiger:name_base" v="Southern Railway"/>
    <tag k="tiger:reviewed" v="no"/>
    <tag k="tiger:source" v="tiger_import_dch_v0.6_20070829"/>
    <tag k="tiger:tlid" v="71820682:71871760:71827517:71827519:71871569:71827661:71827665:71827707:71827633:71827713:71827714:71827539"/>
    <tag k="tiger:upload_uuid" v="bulk_upload.pl-0250b25a-3ed9-45b1-b84e-45e4a188563e"/>
  </way>
  <way id="53264498" version="3" timestamp="2010-04-02T01:45:43Z" uid="99207" user="Lar Kiesel" changeset="4299684">
    <nd ref="658204356"/>
    <nd ref="658204361"/>
    <nd ref="658157813"/>
    <nd ref="658204366"/>
    <nd ref="673968985"/>
    <nd ref="114018693"/>
    <nd ref="658204372"/>
    <nd ref="658361564"/>
    <nd ref="658361567"/>
    <nd ref="658204377"/>
    <nd ref="658204381"/>
    <nd ref="658204388"/>
    <nd ref="658204408"/>
    <nd ref="658204416"/>
    <nd ref="658204424"/>
    <nd ref="658204431"/>
    <nd ref="658204433"/>
    <nd ref="658204436"/>
    <nd ref="658204437"/>
    <nd ref="658204440"/>
    <nd ref="658204442"/>
    <nd ref="658204444"/>
    <nd ref="658204446"/>
    <nd ref="658204448"/>
    <nd ref="658204450"/>
    <nd ref="658204452"/>
    <nd ref="658204454"/>
    <nd ref="658204456"/>
    <nd ref="658204458"/>
    <nd ref="658204461"/>
    <nd ref="658204463"/>
    <nd ref="658204464"/>
    <nd ref="658204465"/>
    <nd ref="658204467"/>
    <nd ref="658204474"/>
    <nd ref="658204479"/>
    <nd ref="658204498"/>
    <nd ref="658204503"/>
    <nd ref="658204505"/>
    <nd ref="658204507"/>
    <nd ref="658204511"/>
    <nd ref="658204516"/>
    <nd ref="658204524"/>
    <nd ref="658204529"/>
    <nd ref="658204533"/>
    <nd ref="658204537"/>
    <nd ref="658204542"/>
    <nd ref="658204547"/>
    <nd ref="658204550"/>
    <nd ref="658204556"/>
    <nd ref="658204563"/>
    <nd ref="658204570"/>
    <nd ref="658204581"/>
    <nd ref="658204585"/>
    <nd ref="658204594"/>
    <nd ref="658204601"/>
    <nd ref="658204607"/>
    <nd ref="658204618"/>
    <nd ref="658204628"/>
    <nd ref="658204634"/>
    <nd ref="658204664"/>
    <nd ref="658204671"/>
    <nd ref="658204676"/>
    <nd ref="658204683"/>
    <nd ref="658204690"/>
    <nd ref="658204695"/>
    <nd ref="658204701"/>
    <nd ref="658204706"/>
    <nd ref="658204710"/>
    <nd ref="658204713"/>
    <nd ref="658204717"/>
    <nd ref="658204722"/>
    <nd ref="658204728"/>
    <nd ref="658204733"/>
    <nd ref="658204737"/>
    <nd ref="658204741"/>
    <nd ref="658204745"/>
    <nd ref="658204758"/>
    <nd ref="658204763"/>
    <nd ref="658204768"/>
    <nd ref="658204771"/>
    <nd ref="658204774"/>
    <nd ref="658204778"/>
    <nd ref="658204782"/>
    <nd ref="658204796"/>
    <nd ref="658204799"/>
    <nd ref="658204802"/>
    <nd ref="658204806"/>
    <nd ref="658204811"/>
    <nd ref="658204815"/>
    <nd ref="658204819"/>
    <nd ref="658204826"/>
    <nd ref="658204828"/>
    <nd ref="658204833"/>
    <nd ref="658204837"/>
    <nd ref="658204842"/>
    <nd ref="658204847"/>
    <nd ref="658204852"/>
    <nd ref="658204856"/>
    <nd ref="658204860"/>
    <nd ref="658204865"/>
    <nd ref="658204870"/>
    <nd ref="658204876"/>
    <nd ref="658204879"/>
    <nd ref="658204883"/>
    <nd ref="658204889"/>
    <nd ref="658204896"/>
    <nd ref="658204900"/>
    <nd ref="658204904"/>
    <nd ref="658204916"/>
    <nd ref="658204919"/>
    <nd ref="680917805"/>
    <nd ref="658204925"/>
    <nd ref="658204936"/>
    <nd ref="658204948"/>
    <nd ref="658204953"/>
    <nd ref="658204958"/>
    <nd ref="658204963"/>
    <nd ref="112360335"/>
    <tag k="name" v="Norfork Southern"/>
    <tag k="railway" v="rail"/>
    <tag k="tiger:cfcc" v="B11"/>
    <tag k="tiger:county" v="Richland, SC"/>
    <tag k="tiger:name_base" v="Southern Railway"/>
    <tag k="tiger:reviewed" v="no"/>
    <tag k="tiger:source" v="tiger_import_dch_v0.6_20070829"/>
    <tag k="tiger:tlid" v="71820682:71871760:71827517:71827519:71871569:71827661:71827665:71827707:71827633:71827713:71827714:71827539"/>
    <tag k="tiger:upload_uuid" v="bulk_upload.pl-0250b25a-3ed9-45b1-b84e-45e4a188563e"/>
  </way>
  <way id="53264498" version="4" timestamp="2010-04-11T15:11:07Z" uid="99207" user="Lar Kiesel" changeset="4394745">
    <nd ref="658204356"/>
    <nd ref="658204361"/>
    <nd ref="658157813"/>
    <tag k="name" v="Columbia"/>
    <tag k="operator" v="CSX Transport"/>
    <tag k="railway" v="rail"/>
    <tag k="ref" v="C2"/>
    <tag k="tiger:cfcc" v="B11"/>
    <tag k="tiger:county" v="Richland, SC"/>
    <tag k="tiger:name_base" v="Southern Railway"/>
    <tag k="tiger:reviewed" v="no"/>
    <tag k="tiger:source" v="tiger_import_dch_v0.6_20070829"/>
    <tag k="tiger:tlid" v="71820682:71871760:71827517:71827519:71871569:71827661:71827665:71827707:71827633:71827713:71827714:71827539"/>
    <tag k="tiger:upload_uuid" v="bulk_upload.pl-0250b25a-3ed9-45b1-b84e-45e4a188563e"/>
  </way>
  <way id="53264498" version="5" timestamp="2010-04-13T06:21:38Z" uid="99207" user="Lar Kiesel" changeset="4410827">
    <nd ref="658204356"/>
    <nd ref="658204361"/>
    <nd ref="658157813"/>
    <tag k="name" v="Columbia"/>
    <tag k="operator" v="CSX Transport"/>
    <tag k="railway" v="rail"/>
    <tag k="tiger:cfcc" v="B11"/>
    <tag k="tiger:county" v="Richland, SC"/>
    <tag k="tiger:name_base" v="Southern Railway"/>
    <tag k="tiger:reviewed" v="no"/>
    <tag k="tiger:source" v="tiger_import_dch_v0.6_20070829"/>
    <tag k="tiger:tlid" v="71820682:71871760:71827517:71827519:71871569:71827661:71827665:71827707:71827633:71827713:71827714:71827539"/>
    <tag k="tiger:upload_uuid" v="bulk_upload.pl-0250b25a-3ed9-45b1-b84e-45e4a188563e"/>
  </way>
  <way id="53264498" version="6" timestamp="2010-05-01T01:22:48Z" uid="99207" user="Lar Kiesel" changeset="4571207">
    <nd ref="658204356"/>
    <nd ref="658204361"/>
    <nd ref="658157813"/>
    <tag k="layer" v="-1"/>
    <tag k="name" v="Columbia"/>
    <tag k="operator" v="CSX Transport"/>
    <tag k="railway" v="rail"/>
    <tag k="tiger:cfcc" v="B11"/>
    <tag k="tiger:county" v="Richland, SC"/>
    <tag k="tiger:name_base" v="Southern Railway"/>
    <tag k="tiger:reviewed" v="no"/>
    <tag k="tiger:source" v="tiger_import_dch_v0.6_20070829"/>
    <tag k="tiger:tlid" v="71820682:71871760:71827517:71827519:71871569:71827661:71827665:71827707:71827633:71827713:71827714:71827539"/>
    <tag k="tiger:upload_uuid" v="bulk_upload.pl-0250b25a-3ed9-45b1-b84e-45e4a188563e"/>
  </way>
  <way id="53264498" version="7" timestamp="2010-05-01T01:40:04Z" uid="99207" user="Lar Kiesel" changeset="4571226">
    <nd ref="658204356"/>
    <nd ref="658204361"/>
    <nd ref="658157813"/>
    <tag k="layer" v="-1"/>
    <tag k="name" v="CSX Transport"/>
    <tag k="operator" v="CSX Transport"/>
    <tag k="railway" v="rail"/>
    <tag k="tiger:cfcc" v="B11"/>
    <tag k="tiger:county" v="Richland, SC"/>
    <tag k="tiger:name_base" v="Southern Railway"/>
    <tag k="tiger:reviewed" v="no"/>
    <tag k="tiger:source" v="tiger_import_dch_v0.6_20070829"/>
    <tag k="tiger:tlid" v="71820682:71871760:71827517:71827519:71871569:71827661:71827665:71827707:71827633:71827713:71827714:71827539"/>
    <tag k="tiger:upload_uuid" v="bulk_upload.pl-0250b25a-3ed9-45b1-b84e-45e4a188563e"/>
  </way>
  <way id="53264498" version="8" timestamp="2010-05-01T04:41:08Z" uid="207745" user="NE2" changeset="4571533">
    <nd ref="658204356"/>
    <nd ref="658204361"/>
    <nd ref="658157813"/>
    <tag k="name" v="CSX Transport"/>
    <tag k="operator" v="CSX Transport"/>
    <tag k="railway" v="rail"/>
    <tag k="tiger:cfcc" v="B11"/>
    <tag k="tiger:county" v="Richland, SC"/>
    <tag k="tiger:name_base" v="Southern Railway"/>
    <tag k="tiger:reviewed" v="no"/>
    <tag k="tiger:source" v="tiger_import_dch_v0.6_20070829"/>
    <tag k="tiger:tlid" v="71820682:71871760:71827517:71827519:71871569:71827661:71827665:71827707:71827633:71827713:71827714:71827539"/>
    <tag k="tiger:upload_uuid" v="bulk_upload.pl-0250b25a-3ed9-45b1-b84e-45e4a188563e"/>
  </way>
  <way id="53264498" version="9" timestamp="2011-12-07T23:58:34Z" uid="207745" user="NE2" changeset="10062024">
    <nd ref="658204356"/>
    <nd ref="658204361"/>
    <nd ref="658157813"/>
    <tag k="electrified" v="no"/>
    <tag k="gauge" v="1435"/>
    <tag k="railway" v="rail"/>
    <tag k="tiger:cfcc" v="B11"/>
    <tag k="tiger:county" v="Richland, SC"/>
    <tag k="tiger:name_base" v="Southern Railway"/>
    <tag k="tiger:reviewed" v="no"/>
    <tag k="tiger:source" v="tiger_import_dch_v0.6_20070829"/>
    <tag k="tiger:tlid" v="71820682:71871760:71827517:71827519:71871569:71827661:71827665:71827707:71827633:71827713:71827714:71827539"/>
    <tag k="tiger:upload_uuid" v="bulk_upload.pl-0250b25a-3ed9-45b1-b84e-45e4a188563e"/>
  </way>
  <way id="53264884" version="2" timestamp="2010-06-29T19:06:40Z" uid="74617" user="JohnSmith" changeset="5108182">
    <nd ref="673974002"/>
    <nd ref="673974003"/>
    <nd ref="673974000"/>
    <nd ref="673974010"/>
    <nd ref="673974002"/>
    <tag k="fixme" v="sport=football is ambiguous, see http://wiki.osm.org/wiki/Football for more details"/>
    <tag k="leisure" v="pitch"/>
    <tag k="sport" v="football"/>
  </way>
  <way id="53264884" version="3" timestamp="2011-10-04T06:26:04Z" uid="492742" user="docaneesh" changeset="9466540">
    <nd ref="673974002"/>
    <nd ref="673974003"/>
    <nd ref="673974000"/>
    <nd ref="673974010"/>
    <nd ref="673974002"/>
    <tag k="fixme" v="sport=football is ambiguous, see http://wiki.osm.org/wiki/Football for more details"/>
    <tag k="leisure" v="pitch"/>
    <tag k="sport" v="soccer"/>
  </way>
  <way id="53264936" version="2" timestamp="2010-03-28T11:54:53Z" uid="20587" user="balrog-kun" changeset="4254597">
    <nd ref="123088255"/>
    <nd ref="123088252"/>
    <nd ref="673974982"/>
    <nd ref="123088246"/>
    <nd ref="673974984"/>
    <nd ref="123088243"/>
    <nd ref="673974985"/>
    <nd ref="673974983"/>
    <nd ref="673974986"/>
    <nd ref="123088240"/>
    <nd ref="122941678"/>
    <tag k="highway" v="primary"/>
    <tag k="name" v="Magnolia Street"/>
    <tag k="tiger:cfcc" v="A41"/>
    <tag k="tiger:county" v="Orange, CA"/>
    <tag k="tiger:name_base" v="Magnolia"/>
    <tag k="tiger:name_type" v="St"/>
    <tag k="tiger:separated" v="no"/>
    <tag k="tiger:source" v="tiger_import_dch_v0.6_20070809"/>
    <tag k="tiger:tlid" v="144021399:144021440:144021452:144021455:144021477:144021479:144101789:144112897:144252740:144252742"/>
  </way>
  <way id="53264938" version="2" timestamp="2010-03-28T11:54:53Z" uid="20587" user="balrog-kun" changeset="4254597">
    <nd ref="673974981"/>
    <nd ref="123088255"/>
    <tag k="bridge" v="yes"/>
    <tag k="highway" v="primary"/>
    <tag k="name" v="Magnolia Street"/>
    <tag k="tiger:cfcc" v="A41"/>
    <tag k="tiger:county" v="Orange, CA"/>
    <tag k="tiger:name_base" v="Magnolia"/>
    <tag k="tiger:name_type" v="St"/>
    <tag k="tiger:separated" v="no"/>
    <tag k="tiger:source" v="tiger_import_dch_v0.6_20070809"/>
    <tag k="tiger:tlid" v="144021399:144021440:144021452:144021455:144021477:144021479:144101789:144112897:144252740:144252742"/>
  </way>
  <way id="53264952" version="1" timestamp="2010-03-25T09:40:45Z" uid="74617" user="JohnSmith" changeset="4227798">
    <nd ref="673975303"/>
    <nd ref="673975315"/>
    <nd ref="673975317"/>
    <nd ref="673975318"/>
    <nd ref="673975319"/>
    <nd ref="673975320"/>
    <nd ref="673975322"/>
    <nd ref="673975323"/>
    <nd ref="673975325"/>
    <nd ref="673975314"/>
    <nd ref="673975372"/>
    <nd ref="673975374"/>
    <nd ref="673975335"/>
    <nd ref="673975336"/>
    <nd ref="673975337"/>
    <nd ref="673975338"/>
    <nd ref="673975339"/>
    <nd ref="673975341"/>
    <nd ref="673975358"/>
    <nd ref="673975359"/>
    <nd ref="673975360"/>
    <nd ref="673975362"/>
    <nd ref="673975342"/>
    <nd ref="673975343"/>
    <nd ref="673975344"/>
    <nd ref="673975230"/>
    <nd ref="673975231"/>
    <nd ref="673975232"/>
    <nd ref="673975233"/>
    <nd ref="673975221"/>
    <nd ref="673975222"/>
    <nd ref="673975223"/>
    <nd ref="673975224"/>
    <nd ref="673975225"/>
    <nd ref="673975226"/>
    <nd ref="673975227"/>
    <nd ref="673975228"/>
    <nd ref="673975240"/>
    <nd ref="673975243"/>
    <nd ref="673975244"/>
    <nd ref="673975245"/>
    <tag k="highway" v="residential"/>
    <tag k="maxspeed" v="50"/>
    <tag k="source" v="nearmap"/>
  </way>
  <way id="53264952" version="2" timestamp="2010-08-01T16:59:11Z" uid="326118" user="zero07" changeset="5372586">
    <nd ref="673975303"/>
    <nd ref="673975315"/>
    <nd ref="673975317"/>
    <nd ref="673975318"/>
    <nd ref="673975319"/>
    <nd ref="673975320"/>
    <nd ref="673975322"/>
    <nd ref="673975323"/>
    <nd ref="673975325"/>
    <nd ref="673975314"/>
    <nd ref="673975372"/>
    <nd ref="673975374"/>
    <nd ref="673975335"/>
    <nd ref="673975336"/>
    <nd ref="673975337"/>
    <nd ref="673975338"/>
    <nd ref="842157926"/>
    <nd ref="673975339"/>
    <nd ref="673975341"/>
    <nd ref="673975358"/>
    <nd ref="673975359"/>
    <nd ref="673975360"/>
    <nd ref="673975362"/>
    <nd ref="673975342"/>
    <nd ref="673975343"/>
    <nd ref="673975344"/>
    <nd ref="673975230"/>
    <nd ref="673975231"/>
    <nd ref="673975232"/>
    <nd ref="673975233"/>
    <nd ref="673975221"/>
    <nd ref="673975222"/>
    <nd ref="673975223"/>
    <nd ref="673975224"/>
    <nd ref="673975225"/>
    <nd ref="673975226"/>
    <nd ref="673975227"/>
    <nd ref="673975228"/>
    <nd ref="673975240"/>
    <nd ref="673975243"/>
    <nd ref="673975244"/>
    <nd ref="673975245"/>
    <tag k="highway" v="residential"/>
    <tag k="maxspeed" v="50"/>
    <tag k="name" v="Licuala Drive"/>
    <tag k="source" v="nearmap"/>
  </way>
  <way id="53264954" version="1" timestamp="2010-03-25T09:40:45Z" uid="74617" user="JohnSmith" changeset="4227798">
    <nd ref="673975230"/>
    <nd ref="673975238"/>
    <nd ref="673975239"/>
    <nd ref="673975236"/>
    <nd ref="673975345"/>
    <nd ref="673975346"/>
    <nd ref="673975347"/>
    <nd ref="673975349"/>
    <nd ref="673975348"/>
    <nd ref="673975363"/>
    <nd ref="673975364"/>
    <nd ref="673975365"/>
    <nd ref="673975366"/>
    <nd ref="673975368"/>
    <nd ref="673975371"/>
    <tag k="highway" v="residential"/>
    <tag k="maxspeed" v="50"/>
    <tag k="source" v="nearmap"/>
  </way>
  <way id="53264954" version="2" timestamp="2010-08-01T16:59:02Z" uid="326118" user="zero07" changeset="5372586">
    <nd ref="673975230"/>
    <nd ref="673975238"/>
    <nd ref="673975239"/>
    <nd ref="673975236"/>
    <nd ref="673975345"/>
    <nd ref="673975346"/>
    <nd ref="673975347"/>
    <nd ref="673975349"/>
    <nd ref="673975348"/>
    <nd ref="673975363"/>
    <nd ref="673975364"/>
    <nd ref="673975365"/>
    <nd ref="673975366"/>
    <nd ref="673975368"/>
    <nd ref="673975371"/>
    <tag k="highway" v="residential"/>
    <tag k="maxspeed" v="50"/>
    <tag k="name" v="Carey Parade"/>
    <tag k="source" v="nearmap"/>
  </way>
  <way id="53264955" version="1" timestamp="2010-03-25T09:40:45Z" uid="74617" user="JohnSmith" changeset="4227798">
    <nd ref="673975249"/>
    <nd ref="673975250"/>
    <nd ref="673975251"/>
    <nd ref="673975252"/>
    <nd ref="673975253"/>
    <nd ref="673975254"/>
    <nd ref="673975256"/>
    <nd ref="673975258"/>
    <nd ref="673975259"/>
    <nd ref="673975260"/>
    <nd ref="673975261"/>
    <nd ref="673975263"/>
    <nd ref="673975264"/>
    <nd ref="673975246"/>
    <nd ref="673975247"/>
    <nd ref="673975248"/>
    <nd ref="673975234"/>
    <nd ref="673975235"/>
    <nd ref="673975236"/>
    <tag k="highway" v="residential"/>
    <tag k="maxspeed" v="50"/>
    <tag k="source" v="nearmap"/>
  </way>
  <way id="53264955" version="2" timestamp="2010-08-01T16:59:02Z" uid="326118" user="zero07" changeset="5372586">
    <nd ref="673975249"/>
    <nd ref="673975250"/>
    <nd ref="673975251"/>
    <nd ref="673975252"/>
    <nd ref="673975253"/>
    <nd ref="673975254"/>
    <nd ref="673975256"/>
    <nd ref="673975258"/>
    <nd ref="673975259"/>
    <nd ref="673975260"/>
    <nd ref="673975261"/>
    <nd ref="673975263"/>
    <nd ref="673975264"/>
    <nd ref="673975246"/>
    <nd ref="673975247"/>
    <nd ref="673975248"/>
    <nd ref="673975234"/>
    <nd ref="673975235"/>
    <nd ref="673975236"/>
    <tag k="Name" v="Justin Avenue"/>
    <tag k="highway" v="residential"/>
    <tag k="maxspeed" v="50"/>
    <tag k="source" v="nearmap"/>
  </way>
  <way id="53264955" version="3" timestamp="2010-09-05T19:31:02Z" uid="5359" user="user_5359" changeset="5691628">
    <nd ref="673975249"/>
    <nd ref="673975250"/>
    <nd ref="673975251"/>
    <nd ref="673975252"/>
    <nd ref="673975253"/>
    <nd ref="673975254"/>
    <nd ref="673975256"/>
    <nd ref="673975258"/>
    <nd ref="673975259"/>
    <nd ref="673975260"/>
    <nd ref="673975261"/>
    <nd ref="673975263"/>
    <nd ref="673975264"/>
    <nd ref="673975246"/>
    <nd ref="673975247"/>
    <nd ref="673975248"/>
    <nd ref="673975234"/>
    <nd ref="673975235"/>
    <nd ref="673975236"/>
    <tag k="highway" v="residential"/>
    <tag k="maxspeed" v="50"/>
    <tag k="name" v="Justin Avenue"/>
    <tag k="source" v="nearmap"/>
  </way>
  <way id="53264955" version="4" timestamp="2011-01-23T00:39:57Z" uid="397780" user="magnetman" changeset="7057065">
    <nd ref="673975249"/>
    <nd ref="673975250"/>
    <nd ref="673975251"/>
    <nd ref="673975252"/>
    <nd ref="673975253"/>
    <nd ref="673975254"/>
    <nd ref="673975256"/>
    <nd ref="673975258"/>
    <nd ref="673975259"/>
    <nd ref="673975260"/>
    <nd ref="673975261"/>
    <nd ref="673975263"/>
    <nd ref="673975264"/>
    <nd ref="673975246"/>
    <nd ref="673975247"/>
    <nd ref="673975248"/>
    <nd ref="673975234"/>
    <nd ref="673975235"/>
    <nd ref="673975236"/>
    <tag k="highway" v="residential"/>
    <tag k="maxspeed" v="50"/>
    <tag k="name" v="Justin Avenue"/>
    <tag k="source" v="nearmap"/>
  </way>
  <way id="53264957" version="1" timestamp="2010-03-25T09:40:45Z" uid="74617" user="JohnSmith" changeset="4227798">
    <nd ref="207088229"/>
    <nd ref="673975302"/>
    <nd ref="673975266"/>
    <nd ref="673975267"/>
    <nd ref="673975268"/>
    <nd ref="673975270"/>
    <nd ref="673975271"/>
    <nd ref="673975272"/>
    <nd ref="673975275"/>
    <nd ref="673975276"/>
    <nd ref="673975280"/>
    <nd ref="673975279"/>
    <nd ref="673975278"/>
    <nd ref="673975327"/>
    <nd ref="673975328"/>
    <nd ref="673975329"/>
    <nd ref="673975331"/>
    <nd ref="673975332"/>
    <nd ref="673975333"/>
    <nd ref="673975334"/>
    <tag k="highway" v="residential"/>
    <tag k="maxspeed" v="50"/>
    <tag k="source" v="nearmap"/>
  </way>
  <way id="53264957" version="2" timestamp="2010-08-01T16:59:33Z" uid="326118" user="zero07" changeset="5372586"/>
  <way id="53264958" version="1" timestamp="2010-03-25T09:40:45Z" uid="74617" user="JohnSmith" changeset="4227798">
    <nd ref="673975280"/>
    <nd ref="673975281"/>
    <nd ref="673975282"/>
    <nd ref="673975284"/>
    <nd ref="673975304"/>
    <nd ref="673975305"/>
    <nd ref="673975306"/>
    <nd ref="673975309"/>
    <tag k="highway" v="residential"/>
    <tag k="maxspeed" v="50"/>
    <tag k="source" v="nearmap"/>
  </way>
  <way id="53264958" version="2" timestamp="2010-08-01T16:59:02Z" uid="326118" user="zero07" changeset="5372586">
    <nd ref="673975280"/>
    <nd ref="673975281"/>
    <nd ref="673975282"/>
    <nd ref="673975284"/>
    <nd ref="673975304"/>
    <nd ref="673975305"/>
    <nd ref="673975306"/>
    <nd ref="673975309"/>
    <tag k="highway" v="residential"/>
    <tag k="maxspeed" v="50"/>
    <tag k="name" v="Arenga Drive"/>
    <tag k="source" v="nearmap"/>
  </way>
  <way id="53264960" version="1" timestamp="2010-03-25T09:40:46Z" uid="74617" user="JohnSmith" changeset="4227798">
    <nd ref="673975310"/>
    <nd ref="673975311"/>
    <nd ref="673975309"/>
    <nd ref="673975313"/>
    <nd ref="673975286"/>
    <nd ref="673975287"/>
    <nd ref="673975288"/>
    <nd ref="673975289"/>
    <nd ref="673975292"/>
    <nd ref="673975293"/>
    <nd ref="673975279"/>
    <tag k="highway" v="residential"/>
    <tag k="maxspeed" v="50"/>
    <tag k="source" v="nearmap"/>
  </way>
  <way id="53264960" version="2" timestamp="2010-08-01T16:59:07Z" uid="326118" user="zero07" changeset="5372586">
    <nd ref="673975310"/>
    <nd ref="673975311"/>
    <nd ref="673975309"/>
    <nd ref="673975313"/>
    <nd ref="673975286"/>
    <nd ref="673975287"/>
    <nd ref="673975288"/>
    <nd ref="673975289"/>
    <nd ref="673975292"/>
    <nd ref="673975293"/>
    <nd ref="673975279"/>
    <tag k="highway" v="residential"/>
    <tag k="maxspeed" v="50"/>
    <tag k="name" v="Corypha Court"/>
    <tag k="source" v="nearmap"/>
  </way>
  <way id="53264961" version="1" timestamp="2010-03-25T09:40:46Z" uid="74617" user="JohnSmith" changeset="4227798">
    <nd ref="673975313"/>
    <nd ref="673975314"/>
    <tag k="highway" v="residential"/>
    <tag k="maxspeed" v="50"/>
    <tag k="source" v="nearmap"/>
  </way>
  <way id="53264961" version="2" timestamp="2010-08-01T16:59:07Z" uid="326118" user="zero07" changeset="5372586">
    <nd ref="673975313"/>
    <nd ref="673975314"/>
    <tag k="highway" v="residential"/>
    <tag k="maxspeed" v="50"/>
    <tag k="name" v="Cocos Street"/>
    <tag k="source" v="nearmap"/>
  </way>
  <way id="53264962" version="1" timestamp="2010-03-25T09:40:46Z" uid="74617" user="JohnSmith" changeset="4227798">
    <nd ref="673975349"/>
    <nd ref="673975350"/>
    <nd ref="673975352"/>
    <nd ref="673975353"/>
    <nd ref="673975354"/>
    <nd ref="673975355"/>
    <nd ref="673975356"/>
    <nd ref="673975357"/>
    <tag k="highway" v="residential"/>
    <tag k="maxspeed" v="50"/>
    <tag k="source" v="nearmap"/>
  </way>
  <way id="53264962" version="2" timestamp="2010-08-01T16:59:03Z" uid="326118" user="zero07" changeset="5372586">
    <nd ref="673975349"/>
    <nd ref="673975350"/>
    <nd ref="673975352"/>
    <nd ref="673975353"/>
    <nd ref="673975354"/>
    <nd ref="673975355"/>
    <nd ref="673975356"/>
    <nd ref="673975357"/>
    <tag k="highway" v="residential"/>
    <tag k="maxspeed" v="50"/>
    <tag k="name" v="Cade Avenue"/>
    <tag k="source" v="nearmap"/>
  </way>
</osm>
