<?xml version='1.0' encoding='UTF-8'?>
<osm version="0.6" generator="libosmium/2.20.0">
  <way id="53411279" version="2" timestamp="2010-04-02T17:59:31Z" uid="20587" user="balrog-kun" changeset="4304500">
    <nd ref="675302059"/>
    <nd ref="403652894"/>
    <nd ref="403652890"/>
    <nd ref="403652895"/>
    <nd ref="403652896"/>
    <nd ref="403652897"/>
    <nd ref="403652898"/>
    <nd ref="403652899"/>
    <nd ref="403652900"/>
    <nd ref="403652901"/>
    <nd ref="403652914"/>
    <nd ref="403652918"/>
    <tag k="highway" v="residential"/>
    <tag k="name" v="Muirwood Way Northeast"/>
  </way>
  <way id="53411280" version="2" timestamp="2010-04-02T17:59:31Z" uid="20587" user="balrog-kun" changeset="4304500">
    <nd ref="675302093"/>
    <nd ref="403652891"/>
    <nd ref="399475421"/>
    <tag k="highway" v="residential"/>
    <tag k="name" v="Eastridge Dr, Northeast"/>
  </way>
  <way id="53411280" version="3" timestamp="2012-01-25T20:44:38Z" uid="23762" user="Heptazane" changeset="10497387">
    <nd ref="1605573477"/>
    <nd ref="1605573555"/>
    <nd ref="1605573477"/>
    <nd ref="1605573572"/>
    <nd ref="1605573534"/>
    <nd ref="1605573486"/>
    <nd ref="1605573544"/>
    <nd ref="403653139"/>
    <nd ref="675302093"/>
    <nd ref="403652891"/>
    <nd ref="399475421"/>
    <tag k="highway" v="residential"/>
    <tag k="name" v="Eastridge Dr, Northeast"/>
  </way>
  <way id="53411280" version="4" timestamp="2012-01-25T20:48:54Z" uid="23762" user="Heptazane" changeset="10497431">
    <nd ref="1605578596"/>
    <nd ref="1605578547"/>
    <nd ref="1605578595"/>
    <nd ref="1605578538"/>
    <nd ref="1605578531"/>
    <nd ref="1605578521"/>
    <nd ref="1605578579"/>
    <nd ref="1605578520"/>
    <nd ref="1605578563"/>
    <nd ref="1605578587"/>
    <nd ref="1605578530"/>
    <nd ref="1605578601"/>
    <nd ref="1605578518"/>
    <nd ref="1605578590"/>
    <nd ref="1605578529"/>
    <nd ref="1605578624"/>
    <nd ref="1605578567"/>
    <nd ref="1605578509"/>
    <nd ref="1605578597"/>
    <nd ref="1605578525"/>
    <nd ref="1605578560"/>
    <nd ref="1605578542"/>
    <nd ref="1605578508"/>
    <nd ref="1605578619"/>
    <nd ref="1605578626"/>
    <nd ref="1605578546"/>
    <nd ref="1605578652"/>
    <nd ref="1605578577"/>
    <nd ref="1605578544"/>
    <nd ref="1605573477"/>
    <nd ref="1605573572"/>
    <nd ref="1605573534"/>
    <nd ref="1605573486"/>
    <nd ref="1605573544"/>
    <nd ref="403653139"/>
    <nd ref="675302093"/>
    <nd ref="403652891"/>
    <nd ref="399475421"/>
    <tag k="highway" v="residential"/>
    <tag k="name" v="Eastridge Dr, Northeast"/>
  </way>
  <way id="53411286" version="2" timestamp="2010-04-02T17:59:31Z" uid="20587" user="balrog-kun" changeset="4304500">
    <nd ref="399476955"/>
    <nd ref="399475991"/>
    <nd ref="399476963"/>
    <nd ref="399476966"/>
    <nd ref="399476968"/>
    <nd ref="399476972"/>
    <nd ref="399476975"/>
    <tag k="highway" v="residential"/>
    <tag k="name" v="239th Avenue Northeast"/>
  </way>
  <way id="53411451" version="3" timestamp="2010-07-25T07:27:30Z" uid="4467" user="Rosscoe" changeset="5309337">
    <nd ref="675309573"/>
    <nd ref="675309591"/>
    <tag k="bridge" v="yes"/>
    <tag k="construction" v="motorway"/>
    <tag k="highway" v="construction"/>
    <tag k="layer" v="1"/>
    <tag k="name" v="Northern Expressway"/>
    <tag k="oneway" v="yes"/>
    <tag k="ref" v="NH M20"/>
    <tag k="source" v="nearmap"/>
    <tag k="source_ref" v="http://osm.beldin.org/2008/11/dscf4648.jpg;http://osm.beldin.org/2008/11/dscf5057.jpg;http://osm.beldin.org/2008/11/dscf5058.jpg;http://osm.beldin.org/2008/12/dscf5193.jpg;http://osm.beldin.org/2008/12/dscf5194.jpg"/>
  </way>
  <way id="53411451" version="4" timestamp="2010-08-08T09:39:29Z" uid="151053" user="Didz" changeset="5430973">
    <nd ref="675309573"/>
    <nd ref="675309591"/>
    <tag k="bridge" v="yes"/>
    <tag k="construction" v="motorway"/>
    <tag k="highway" v="construction"/>
    <tag k="lanes" v="2"/>
    <tag k="layer" v="1"/>
    <tag k="name" v="Northern Expressway"/>
    <tag k="oneway" v="yes"/>
    <tag k="ref" v="NH M20"/>
    <tag k="source" v="nearmap"/>
    <tag k="source_ref" v="http://osm.beldin.org/2008/11/dscf4648.jpg;http://osm.beldin.org/2008/11/dscf5057.jpg;http://osm.beldin.org/2008/11/dscf5058.jpg;http://osm.beldin.org/2008/12/dscf5193.jpg;http://osm.beldin.org/2008/12/dscf5194.jpg"/>
  </way>
  <way id="53411451" version="5" timestamp="2010-08-08T09:53:25Z" uid="151053" user="Didz" changeset="5431060">
    <nd ref="675309573"/>
    <nd ref="849424736"/>
    <tag k="bridge" v="yes"/>
    <tag k="construction" v="motorway"/>
    <tag k="highway" v="construction"/>
    <tag k="lanes" v="2"/>
    <tag k="layer" v="1"/>
    <tag k="name" v="Northern Expressway"/>
    <tag k="oneway" v="yes"/>
    <tag k="ref" v="NH M20"/>
    <tag k="source" v="nearmap"/>
    <tag k="source_ref" v="http://osm.beldin.org/2008/11/dscf4648.jpg;http://osm.beldin.org/2008/11/dscf5057.jpg;http://osm.beldin.org/2008/11/dscf5058.jpg;http://osm.beldin.org/2008/12/dscf5193.jpg;http://osm.beldin.org/2008/12/dscf5194.jpg"/>
  </way>
  <way id="53411451" version="6" timestamp="2010-09-13T03:03:14Z" uid="238041" user="marquisite" changeset="5765865">
    <nd ref="675309573"/>
    <nd ref="849424736"/>
    <tag k="bridge" v="yes"/>
    <tag k="highway" v="motorway"/>
    <tag k="lanes" v="2"/>
    <tag k="layer" v="1"/>
    <tag k="name" v="Northern Expressway"/>
    <tag k="oneway" v="yes"/>
    <tag k="ref" v="NH M20"/>
    <tag k="source" v="nearmap"/>
    <tag k="source_ref" v="http://osm.beldin.org/2008/11/dscf4648.jpg;http://osm.beldin.org/2008/11/dscf5057.jpg;http://osm.beldin.org/2008/11/dscf5058.jpg;http://osm.beldin.org/2008/12/dscf5193.jpg;http://osm.beldin.org/2008/12/dscf5194.jpg"/>
  </way>
  <way id="53411539" version="1" timestamp="2010-03-26T23:36:01Z" uid="110593" user="esetzer" changeset="4242959">
    <nd ref="675313653"/>
    <nd ref="675313671"/>
    <nd ref="675313704"/>
    <nd ref="675313740"/>
    <nd ref="675313653"/>
    <tag k="building" v="yes"/>
    <tag k="created_by" v="Merkaartor 0.11"/>
    <tag k="name" v="Urbana Eleventh East"/>
  </way>
  <way id="53411544" version="1" timestamp="2010-03-26T23:36:04Z" uid="110593" user="esetzer" changeset="4242959">
    <nd ref="675313777"/>
    <nd ref="675313796"/>
    <nd ref="675313817"/>
    <nd ref="675313833"/>
    <nd ref="675313777"/>
    <tag k="amenity" v="car_wash"/>
    <tag k="created_by" v="Merkaartor 0.11"/>
    <tag k="landuse" v="retail"/>
  </way>
  <way id="53411582" version="2" timestamp="2010-07-25T07:27:32Z" uid="4467" user="Rosscoe" changeset="5309337">
    <nd ref="675312599"/>
    <nd ref="675312574"/>
    <tag k="bridge" v="yes"/>
    <tag k="construction" v="motorway"/>
    <tag k="highway" v="construction"/>
    <tag k="layer" v="1"/>
    <tag k="name" v="Northern Expressway"/>
    <tag k="oneway" v="yes"/>
    <tag k="ref" v="NH M20"/>
    <tag k="source" v="nearmap"/>
    <tag k="source_ref" v="http://osm.beldin.org/2008/11/dscf4648.jpg;http://osm.beldin.org/2008/11/dscf5057.jpg;http://osm.beldin.org/2008/11/dscf5058.jpg;http://osm.beldin.org/2008/12/dscf5193.jpg;http://osm.beldin.org/2008/12/dscf5194.jpg"/>
  </way>
  <way id="53411582" version="3" timestamp="2010-08-08T09:39:30Z" uid="151053" user="Didz" changeset="5430973">
    <nd ref="675312599"/>
    <nd ref="675312574"/>
    <tag k="bridge" v="yes"/>
    <tag k="construction" v="motorway"/>
    <tag k="highway" v="construction"/>
    <tag k="lanes" v="2"/>
    <tag k="layer" v="1"/>
    <tag k="name" v="Northern Expressway"/>
    <tag k="oneway" v="yes"/>
    <tag k="ref" v="NH M20"/>
    <tag k="source" v="nearmap"/>
    <tag k="source_ref" v="http://osm.beldin.org/2008/11/dscf4648.jpg;http://osm.beldin.org/2008/11/dscf5057.jpg;http://osm.beldin.org/2008/11/dscf5058.jpg;http://osm.beldin.org/2008/12/dscf5193.jpg;http://osm.beldin.org/2008/12/dscf5194.jpg"/>
  </way>
  <way id="53411582" version="4" timestamp="2010-08-08T09:53:25Z" uid="151053" user="Didz" changeset="5431060">
    <nd ref="675312599"/>
    <nd ref="849424714"/>
    <tag k="bridge" v="yes"/>
    <tag k="construction" v="motorway"/>
    <tag k="highway" v="construction"/>
    <tag k="lanes" v="2"/>
    <tag k="name" v="Northern Expressway"/>
    <tag k="oneway" v="yes"/>
    <tag k="ref" v="NH M20"/>
    <tag k="source" v="nearmap"/>
    <tag k="source_ref" v="http://osm.beldin.org/2008/11/dscf4648.jpg;http://osm.beldin.org/2008/11/dscf5057.jpg;http://osm.beldin.org/2008/11/dscf5058.jpg;http://osm.beldin.org/2008/12/dscf5193.jpg;http://osm.beldin.org/2008/12/dscf5194.jpg"/>
  </way>
  <way id="53411582" version="5" timestamp="2010-08-28T11:44:42Z" uid="238041" user="marquisite" changeset="5615342">
    <nd ref="675312599"/>
    <nd ref="849424714"/>
    <tag k="construction" v="motorway"/>
    <tag k="highway" v="construction"/>
    <tag k="lanes" v="2"/>
    <tag k="name" v="Northern Expressway"/>
    <tag k="oneway" v="yes"/>
    <tag k="ref" v="NH M20"/>
    <tag k="source" v="nearmap"/>
    <tag k="source_ref" v="http://osm.beldin.org/2008/11/dscf4648.jpg;http://osm.beldin.org/2008/11/dscf5057.jpg;http://osm.beldin.org/2008/11/dscf5058.jpg;http://osm.beldin.org/2008/12/dscf5193.jpg;http://osm.beldin.org/2008/12/dscf5194.jpg"/>
  </way>
  <way id="53411582" version="6" timestamp="2010-09-13T03:03:16Z" uid="238041" user="marquisite" changeset="5765865">
    <nd ref="675312599"/>
    <nd ref="849424714"/>
    <tag k="highway" v="motorway"/>
    <tag k="lanes" v="2"/>
    <tag k="name" v="Northern Expressway"/>
    <tag k="oneway" v="yes"/>
    <tag k="ref" v="NH M20"/>
    <tag k="source" v="nearmap"/>
    <tag k="source_ref" v="http://osm.beldin.org/2008/11/dscf4648.jpg;http://osm.beldin.org/2008/11/dscf5057.jpg;http://osm.beldin.org/2008/11/dscf5058.jpg;http://osm.beldin.org/2008/12/dscf5193.jpg;http://osm.beldin.org/2008/12/dscf5194.jpg"/>
  </way>
</osm>
