<?xml version='1.0' encoding='UTF-8'?>
<osm version="0.6" generator="libosmium/2.20.0">
  <way id="53446042" version="1" timestamp="2010-03-27T07:52:26Z" uid="33382" user="de_muur" changeset="4244176">
    <nd ref="675547391"/>
    <nd ref="318717616"/>
    <tag k="highway" v="secondary"/>
    <tag k="maxspeed" v="50"/>
    <tag k="name" v="Braunschweiger Straße"/>
    <tag k="postal_code" v="27321"/>
    <tag k="ref" v="L 203"/>
    <tag k="surface" v="paved"/>
  </way>
  <way id="53446042" version="2" timestamp="2010-05-25T13:41:12Z" uid="35574" user="Schorse" changeset="4803763">
    <nd ref="675547391"/>
    <nd ref="318717616"/>
    <tag k="bicycle" v="designated"/>
    <tag k="cycleway" v="track"/>
    <tag k="foot" v="designated"/>
    <tag k="highway" v="secondary"/>
    <tag k="maxspeed" v="50"/>
    <tag k="name" v="Braunschweiger Straße"/>
    <tag k="postal_code" v="27321"/>
    <tag k="ref" v="L 203"/>
    <tag k="surface" v="paved"/>
  </way>
  <way id="53446042" version="3" timestamp="2011-02-12T13:01:11Z" uid="57645" user="KartoGrapHiti" changeset="7264469">
    <nd ref="675547391"/>
    <nd ref="318717616"/>
    <tag k="highway" v="secondary"/>
    <tag k="maxspeed" v="50"/>
    <tag k="name" v="Braunschweiger Straße"/>
    <tag k="postal_code" v="27321"/>
    <tag k="ref" v="L 203"/>
    <tag k="surface" v="paved"/>
  </way>
  <way id="53446042" version="4" timestamp="2011-08-02T12:02:20Z" uid="470667" user="Schefti" changeset="8900191">
    <nd ref="318717616"/>
    <nd ref="675547391"/>
    <tag k="highway" v="secondary"/>
    <tag k="maxspeed" v="50"/>
    <tag k="name" v="Braunschweiger Straße"/>
    <tag k="postal_code" v="27321"/>
    <tag k="ref" v="L 203"/>
    <tag k="surface" v="paved"/>
  </way>
  <way id="53446042" version="5" timestamp="2011-12-11T18:06:59Z" uid="57645" user="KartoGrapHiti" changeset="10092446">
    <nd ref="318717616"/>
    <nd ref="1541246044"/>
    <nd ref="675547391"/>
    <tag k="highway" v="secondary"/>
    <tag k="maxspeed" v="50"/>
    <tag k="name" v="Braunschweiger Straße"/>
    <tag k="postal_code" v="27321"/>
    <tag k="ref" v="L 203"/>
    <tag k="surface" v="paved"/>
  </way>
  <way id="53446042" version="6" timestamp="2011-12-27T13:33:38Z" uid="57645" user="KartoGrapHiti" changeset="10215714">
    <nd ref="318717616"/>
    <nd ref="1541246044"/>
    <nd ref="675547391"/>
    <tag k="highway" v="secondary"/>
    <tag k="lit" v="limited"/>
    <tag k="maxspeed" v="50"/>
    <tag k="name" v="Braunschweiger Straße"/>
    <tag k="postal_code" v="27321"/>
    <tag k="ref" v="L 203"/>
    <tag k="surface" v="paved"/>
  </way>
  <way id="53446042" version="7" timestamp="2012-01-27T22:44:03Z" uid="57645" user="KartoGrapHiti" changeset="10517167">
    <nd ref="318717616"/>
    <nd ref="1541246044"/>
    <nd ref="675547391"/>
    <tag k="highway" v="secondary"/>
    <tag k="lit" v="limited"/>
    <tag k="maxspeed" v="50"/>
    <tag k="name" v="Braunschweiger Straße"/>
    <tag k="postal_code" v="27321"/>
    <tag k="ref" v="L 203"/>
    <tag k="surface" v="asphalt"/>
  </way>
  <way id="53446042" version="8" timestamp="2012-03-04T11:42:30Z" uid="57645" user="KartoGrapHiti" changeset="10867257"/>
  <way id="53446043" version="1" timestamp="2010-03-27T07:52:26Z" uid="33382" user="de_muur" changeset="4244176">
    <nd ref="675547389"/>
    <nd ref="272265116"/>
    <nd ref="323888353"/>
    <nd ref="272265108"/>
    <tag k="highway" v="secondary"/>
    <tag k="maxspeed" v="50"/>
    <tag k="name" v="Braunschweiger Straße"/>
    <tag k="ref" v="L 203"/>
    <tag k="surface" v="paved"/>
  </way>
  <way id="53446043" version="2" timestamp="2010-05-25T13:41:31Z" uid="35574" user="Schorse" changeset="4803763">
    <nd ref="675547389"/>
    <nd ref="272265116"/>
    <nd ref="323888353"/>
    <nd ref="272265108"/>
    <tag k="bicycle" v="designated"/>
    <tag k="cycleway" v="track"/>
    <tag k="foot" v="designated"/>
    <tag k="highway" v="secondary"/>
    <tag k="maxspeed" v="50"/>
    <tag k="name" v="Braunschweiger Straße"/>
    <tag k="ref" v="L 203"/>
    <tag k="surface" v="paved"/>
  </way>
  <way id="53446043" version="3" timestamp="2011-02-12T13:01:10Z" uid="57645" user="KartoGrapHiti" changeset="7264469">
    <nd ref="675547389"/>
    <nd ref="272265116"/>
    <nd ref="323888353"/>
    <nd ref="272265108"/>
    <tag k="highway" v="secondary"/>
    <tag k="maxspeed" v="50"/>
    <tag k="name" v="Braunschweiger Straße"/>
    <tag k="ref" v="L 203"/>
    <tag k="surface" v="paved"/>
  </way>
  <way id="53446043" version="4" timestamp="2011-08-02T12:02:21Z" uid="470667" user="Schefti" changeset="8900191">
    <nd ref="272265108"/>
    <nd ref="323888353"/>
    <nd ref="272265116"/>
    <nd ref="675547389"/>
    <tag k="highway" v="secondary"/>
    <tag k="maxspeed" v="50"/>
    <tag k="name" v="Braunschweiger Straße"/>
    <tag k="ref" v="L 203"/>
    <tag k="surface" v="paved"/>
  </way>
  <way id="53446043" version="5" timestamp="2011-09-09T11:25:56Z" uid="57645" user="KartoGrapHiti" changeset="9253564">
    <nd ref="272265108"/>
    <nd ref="323888353"/>
    <nd ref="272265116"/>
    <nd ref="675547389"/>
    <tag k="highway" v="secondary"/>
    <tag k="lit" v="limited"/>
    <tag k="maxspeed" v="50"/>
    <tag k="name" v="Braunschweiger Straße"/>
    <tag k="ref" v="L 203"/>
    <tag k="surface" v="paved"/>
  </way>
  <way id="53446043" version="6" timestamp="2011-10-30T13:01:06Z" uid="57645" user="KartoGrapHiti" changeset="9693431">
    <nd ref="272265108"/>
    <nd ref="323888353"/>
    <nd ref="272265116"/>
    <nd ref="675547389"/>
    <tag k="footway" v="both"/>
    <tag k="highway" v="secondary"/>
    <tag k="lit" v="limited"/>
    <tag k="maxspeed" v="50"/>
    <tag k="name" v="Braunschweiger Straße"/>
    <tag k="ref" v="L 203"/>
    <tag k="surface" v="paved"/>
  </way>
  <way id="53446043" version="7" timestamp="2012-01-27T22:44:04Z" uid="57645" user="KartoGrapHiti" changeset="10517167">
    <nd ref="272265108"/>
    <nd ref="323888353"/>
    <nd ref="272265116"/>
    <nd ref="675547389"/>
    <tag k="footway" v="both"/>
    <tag k="highway" v="secondary"/>
    <tag k="lit" v="limited"/>
    <tag k="maxspeed" v="50"/>
    <tag k="name" v="Braunschweiger Straße"/>
    <tag k="ref" v="L 203"/>
    <tag k="surface" v="asphalt"/>
  </way>
  <way id="53446043" version="8" timestamp="2012-03-04T11:42:30Z" uid="57645" user="KartoGrapHiti" changeset="10867257"/>
  <way id="53446044" version="1" timestamp="2010-03-27T07:52:26Z" uid="33382" user="de_muur" changeset="4244176">
    <nd ref="272265108"/>
    <nd ref="323888188"/>
    <nd ref="97955402"/>
    <nd ref="675547390"/>
    <tag k="highway" v="secondary"/>
    <tag k="maxspeed" v="50"/>
    <tag k="name" v="Braunschweiger Straße"/>
    <tag k="ref" v="L 203"/>
    <tag k="surface" v="paved"/>
  </way>
  <way id="53446044" version="2" timestamp="2010-05-25T13:41:37Z" uid="35574" user="Schorse" changeset="4803763">
    <nd ref="272265108"/>
    <nd ref="323888188"/>
    <nd ref="97955402"/>
    <nd ref="675547390"/>
    <tag k="bicycle" v="designated"/>
    <tag k="cycleway" v="track"/>
    <tag k="foot" v="designated"/>
    <tag k="highway" v="secondary"/>
    <tag k="maxspeed" v="50"/>
    <tag k="name" v="Braunschweiger Straße"/>
    <tag k="ref" v="L 203"/>
    <tag k="surface" v="paved"/>
  </way>
  <way id="53446044" version="3" timestamp="2011-02-12T13:01:10Z" uid="57645" user="KartoGrapHiti" changeset="7264469">
    <nd ref="272265108"/>
    <nd ref="323888188"/>
    <nd ref="97955402"/>
    <nd ref="675547390"/>
    <tag k="highway" v="secondary"/>
    <tag k="maxspeed" v="50"/>
    <tag k="name" v="Braunschweiger Straße"/>
    <tag k="ref" v="L 203"/>
    <tag k="surface" v="paved"/>
  </way>
  <way id="53446044" version="4" timestamp="2011-08-02T12:02:21Z" uid="470667" user="Schefti" changeset="8900191">
    <nd ref="675547390"/>
    <nd ref="97955402"/>
    <nd ref="323888188"/>
    <nd ref="272265108"/>
    <tag k="highway" v="secondary"/>
    <tag k="maxspeed" v="50"/>
    <tag k="name" v="Braunschweiger Straße"/>
    <tag k="ref" v="L 203"/>
    <tag k="surface" v="paved"/>
  </way>
  <way id="53446044" version="5" timestamp="2011-09-09T11:25:56Z" uid="57645" user="KartoGrapHiti" changeset="9253564">
    <nd ref="675547390"/>
    <nd ref="97955402"/>
    <nd ref="323888188"/>
    <nd ref="272265108"/>
    <tag k="highway" v="secondary"/>
    <tag k="lit" v="limited"/>
    <tag k="maxspeed" v="50"/>
    <tag k="name" v="Braunschweiger Straße"/>
    <tag k="ref" v="L 203"/>
    <tag k="surface" v="paved"/>
  </way>
  <way id="53446044" version="6" timestamp="2012-01-27T22:44:04Z" uid="57645" user="KartoGrapHiti" changeset="10517167">
    <nd ref="675547390"/>
    <nd ref="97955402"/>
    <nd ref="323888188"/>
    <nd ref="272265108"/>
    <tag k="highway" v="secondary"/>
    <tag k="lit" v="limited"/>
    <tag k="maxspeed" v="50"/>
    <tag k="name" v="Braunschweiger Straße"/>
    <tag k="ref" v="L 203"/>
    <tag k="surface" v="asphalt"/>
  </way>
  <way id="53446044" version="7" timestamp="2012-03-04T11:42:31Z" uid="57645" user="KartoGrapHiti" changeset="10867257"/>
  <way id="53446045" version="1" timestamp="2010-03-27T07:52:26Z" uid="33382" user="de_muur" changeset="4244176">
    <nd ref="675547390"/>
    <nd ref="251784824"/>
    <tag k="bridge" v="yes"/>
    <tag k="highway" v="secondary"/>
    <tag k="layer" v="1"/>
    <tag k="maxspeed" v="50"/>
    <tag k="name" v="Braunschweiger Straße"/>
    <tag k="ref" v="L 203"/>
    <tag k="surface" v="paved"/>
  </way>
  <way id="53446045" version="2" timestamp="2010-05-25T13:41:42Z" uid="35574" user="Schorse" changeset="4803763">
    <nd ref="675547390"/>
    <nd ref="251784824"/>
    <tag k="bicycle" v="designated"/>
    <tag k="bridge" v="yes"/>
    <tag k="cycleway" v="track"/>
    <tag k="foot" v="designated"/>
    <tag k="highway" v="secondary"/>
    <tag k="layer" v="1"/>
    <tag k="maxspeed" v="50"/>
    <tag k="name" v="Braunschweiger Straße"/>
    <tag k="ref" v="L 203"/>
    <tag k="surface" v="paved"/>
  </way>
  <way id="53446045" version="3" timestamp="2011-02-12T13:01:08Z" uid="57645" user="KartoGrapHiti" changeset="7264469">
    <nd ref="675547390"/>
    <nd ref="251784824"/>
    <tag k="bridge" v="yes"/>
    <tag k="highway" v="secondary"/>
    <tag k="layer" v="1"/>
    <tag k="maxspeed" v="50"/>
    <tag k="name" v="Braunschweiger Straße"/>
    <tag k="ref" v="L 203"/>
    <tag k="surface" v="paved"/>
  </way>
  <way id="53446045" version="4" timestamp="2011-08-02T12:02:20Z" uid="470667" user="Schefti" changeset="8900191">
    <nd ref="251784824"/>
    <nd ref="675547390"/>
    <tag k="bridge" v="yes"/>
    <tag k="highway" v="secondary"/>
    <tag k="layer" v="1"/>
    <tag k="maxspeed" v="50"/>
    <tag k="name" v="Braunschweiger Straße"/>
    <tag k="ref" v="L 203"/>
    <tag k="surface" v="paved"/>
  </way>
  <way id="53446045" version="5" timestamp="2011-12-04T20:40:54Z" uid="57645" user="KartoGrapHiti" changeset="10037380">
    <nd ref="251784824"/>
    <nd ref="675547390"/>
    <tag k="bridge" v="yes"/>
    <tag k="highway" v="secondary"/>
    <tag k="lanes" v="1"/>
    <tag k="layer" v="1"/>
    <tag k="maxspeed" v="50"/>
    <tag k="name" v="Braunschweiger Straße"/>
    <tag k="ref" v="L 203"/>
    <tag k="surface" v="paved"/>
  </way>
  <way id="53446045" version="6" timestamp="2011-12-27T13:33:37Z" uid="57645" user="KartoGrapHiti" changeset="10215714">
    <nd ref="251784824"/>
    <nd ref="675547390"/>
    <tag k="bridge" v="yes"/>
    <tag k="highway" v="secondary"/>
    <tag k="lanes" v="1"/>
    <tag k="layer" v="1"/>
    <tag k="lit" v="limited"/>
    <tag k="maxspeed" v="50"/>
    <tag k="name" v="Braunschweiger Straße"/>
    <tag k="ref" v="L 203"/>
    <tag k="surface" v="paved"/>
  </way>
  <way id="53446045" version="7" timestamp="2012-01-27T22:44:03Z" uid="57645" user="KartoGrapHiti" changeset="10517167">
    <nd ref="251784824"/>
    <nd ref="675547390"/>
    <tag k="bridge" v="yes"/>
    <tag k="highway" v="secondary"/>
    <tag k="lanes" v="1"/>
    <tag k="layer" v="1"/>
    <tag k="lit" v="limited"/>
    <tag k="maxspeed" v="50"/>
    <tag k="name" v="Braunschweiger Straße"/>
    <tag k="ref" v="L 203"/>
    <tag k="surface" v="asphalt"/>
  </way>
  <way id="53446045" version="8" timestamp="2012-03-04T11:42:30Z" uid="57645" user="KartoGrapHiti" changeset="10867257"/>
  <way id="53446046" version="1" timestamp="2010-03-27T07:52:26Z" uid="33382" user="de_muur" changeset="4244176">
    <nd ref="271975506"/>
    <nd ref="322093092"/>
    <nd ref="322093093"/>
    <nd ref="97955397"/>
    <tag k="highway" v="secondary"/>
    <tag k="maxspeed" v="50"/>
    <tag k="name" v="Syker Straße"/>
    <tag k="postal_code" v="27321"/>
    <tag k="ref" v="L 354"/>
  </way>
  <way id="53446046" version="2" timestamp="2010-05-25T19:50:55Z" uid="35574" user="Schorse" changeset="4807389">
    <nd ref="271975506"/>
    <nd ref="322093092"/>
    <nd ref="322093093"/>
    <nd ref="97955397"/>
    <tag k="bicycle" v="designated"/>
    <tag k="cycleway" v="track"/>
    <tag k="foot" v="designated"/>
    <tag k="highway" v="secondary"/>
    <tag k="maxspeed" v="50"/>
    <tag k="name" v="Syker Straße"/>
    <tag k="postal_code" v="27321"/>
    <tag k="ref" v="L 354"/>
  </way>
  <way id="53446046" version="3" timestamp="2010-11-07T18:28:25Z" uid="57645" user="KartoGrapHiti" changeset="6314377">
    <nd ref="271975506"/>
    <nd ref="322093092"/>
    <nd ref="322093093"/>
    <nd ref="97955397"/>
    <tag k="highway" v="secondary"/>
    <tag k="maxspeed" v="50"/>
    <tag k="name" v="Syker Straße"/>
    <tag k="postal_code" v="27321"/>
    <tag k="ref" v="L 354"/>
  </way>
  <way id="53446046" version="4" timestamp="2011-09-09T11:26:15Z" uid="57645" user="KartoGrapHiti" changeset="9253564">
    <nd ref="271975506"/>
    <nd ref="322093092"/>
    <nd ref="322093093"/>
    <nd ref="97955397"/>
    <tag k="highway" v="secondary"/>
    <tag k="lit" v="limited"/>
    <tag k="maxspeed" v="50"/>
    <tag k="name" v="Syker Straße"/>
    <tag k="postal_code" v="27321"/>
    <tag k="ref" v="L 354"/>
  </way>
  <way id="53446046" version="5" timestamp="2011-10-30T13:01:23Z" uid="57645" user="KartoGrapHiti" changeset="9693431">
    <nd ref="271975506"/>
    <nd ref="322093092"/>
    <nd ref="322093093"/>
    <nd ref="97955397"/>
    <tag k="footway" v="both"/>
    <tag k="highway" v="secondary"/>
    <tag k="lit" v="limited"/>
    <tag k="maxspeed" v="50"/>
    <tag k="name" v="Syker Straße"/>
    <tag k="postal_code" v="27321"/>
    <tag k="ref" v="L 354"/>
  </way>
  <way id="53446046" version="6" timestamp="2012-01-27T22:44:14Z" uid="57645" user="KartoGrapHiti" changeset="10517167"/>
  <way id="53446047" version="1" timestamp="2010-03-27T07:52:27Z" uid="33382" user="de_muur" changeset="4244176">
    <nd ref="297039490"/>
    <nd ref="251784049"/>
    <nd ref="322082490"/>
    <nd ref="251784050"/>
    <nd ref="251784051"/>
    <nd ref="305118447"/>
    <nd ref="97955397"/>
    <tag k="highway" v="secondary"/>
    <tag k="maxspeed" v="50"/>
    <tag k="name" v="Schulstraße"/>
    <tag k="postal_code" v="27321"/>
    <tag k="ref" v="L 203"/>
    <tag k="surface" v="paved"/>
  </way>
  <way id="53446047" version="2" timestamp="2010-05-25T19:50:31Z" uid="35574" user="Schorse" changeset="4807389">
    <nd ref="297039490"/>
    <nd ref="251784049"/>
    <nd ref="322082490"/>
    <nd ref="251784050"/>
    <nd ref="251784051"/>
    <nd ref="305118447"/>
    <nd ref="97955397"/>
    <tag k="bicycle" v="designated"/>
    <tag k="cycleway" v="track"/>
    <tag k="foot" v="designated"/>
    <tag k="highway" v="secondary"/>
    <tag k="maxspeed" v="50"/>
    <tag k="name" v="Schulstraße"/>
    <tag k="postal_code" v="27321"/>
    <tag k="ref" v="L 203"/>
    <tag k="surface" v="paved"/>
  </way>
  <way id="53446047" version="3" timestamp="2010-11-07T18:28:23Z" uid="57645" user="KartoGrapHiti" changeset="6314377">
    <nd ref="297039490"/>
    <nd ref="251784049"/>
    <nd ref="322082490"/>
    <nd ref="251784050"/>
    <nd ref="251784051"/>
    <nd ref="305118447"/>
    <nd ref="97955397"/>
    <tag k="highway" v="secondary"/>
    <tag k="maxspeed" v="50"/>
    <tag k="name" v="Schulstraße"/>
    <tag k="postal_code" v="27321"/>
    <tag k="ref" v="L 203"/>
    <tag k="surface" v="asphalt"/>
  </way>
  <way id="53446047" version="4" timestamp="2010-12-06T20:57:29Z" uid="57645" user="KartoGrapHiti" changeset="6568633">
    <nd ref="297039490"/>
    <nd ref="251784049"/>
    <nd ref="322082490"/>
    <nd ref="251784050"/>
    <nd ref="305118447"/>
    <nd ref="97955397"/>
    <tag k="highway" v="secondary"/>
    <tag k="maxspeed" v="50"/>
    <tag k="name" v="Schulstraße"/>
    <tag k="postal_code" v="27321"/>
    <tag k="ref" v="L 203"/>
    <tag k="surface" v="asphalt"/>
  </way>
  <way id="53446047" version="5" timestamp="2010-12-22T19:28:03Z" uid="57645" user="KartoGrapHiti" changeset="6738879">
    <nd ref="297039490"/>
    <nd ref="251784049"/>
    <nd ref="322082490"/>
    <nd ref="251784050"/>
    <nd ref="1057438263"/>
    <nd ref="305118447"/>
    <nd ref="97955397"/>
    <tag k="highway" v="secondary"/>
    <tag k="maxspeed" v="50"/>
    <tag k="name" v="Schulstraße"/>
    <tag k="postal_code" v="27321"/>
    <tag k="ref" v="L 203"/>
    <tag k="surface" v="asphalt"/>
  </way>
  <way id="53446047" version="6" timestamp="2011-01-01T20:38:36Z" uid="57645" user="KartoGrapHiti" changeset="6832140">
    <nd ref="297039490"/>
    <nd ref="251784049"/>
    <nd ref="322082490"/>
    <nd ref="251784050"/>
    <nd ref="1077403624"/>
    <nd ref="1077403613"/>
    <nd ref="1057438263"/>
    <nd ref="305118447"/>
    <nd ref="97955397"/>
    <tag k="highway" v="secondary"/>
    <tag k="maxspeed" v="50"/>
    <tag k="name" v="Schulstraße"/>
    <tag k="postal_code" v="27321"/>
    <tag k="ref" v="L 203"/>
    <tag k="surface" v="asphalt"/>
  </way>
  <way id="53446047" version="7" timestamp="2011-09-09T11:26:08Z" uid="57645" user="KartoGrapHiti" changeset="9253564">
    <nd ref="297039490"/>
    <nd ref="251784049"/>
    <nd ref="322082490"/>
    <nd ref="251784050"/>
    <nd ref="1077403624"/>
    <nd ref="1077403613"/>
    <nd ref="1057438263"/>
    <nd ref="305118447"/>
    <nd ref="97955397"/>
    <tag k="highway" v="secondary"/>
    <tag k="lit" v="limited"/>
    <tag k="maxspeed" v="50"/>
    <tag k="name" v="Schulstraße"/>
    <tag k="postal_code" v="27321"/>
    <tag k="ref" v="L 203"/>
    <tag k="surface" v="asphalt"/>
  </way>
  <way id="53446047" version="8" timestamp="2011-10-30T13:01:19Z" uid="57645" user="KartoGrapHiti" changeset="9693431">
    <nd ref="297039490"/>
    <nd ref="251784049"/>
    <nd ref="322082490"/>
    <nd ref="251784050"/>
    <nd ref="1077403624"/>
    <nd ref="1077403613"/>
    <nd ref="1057438263"/>
    <nd ref="305118447"/>
    <nd ref="97955397"/>
    <tag k="footway" v="both"/>
    <tag k="highway" v="secondary"/>
    <tag k="lit" v="limited"/>
    <tag k="maxspeed" v="50"/>
    <tag k="name" v="Schulstraße"/>
    <tag k="postal_code" v="27321"/>
    <tag k="ref" v="L 203"/>
    <tag k="surface" v="asphalt"/>
  </way>
  <way id="53446047" version="9" timestamp="2012-01-27T22:44:13Z" uid="57645" user="KartoGrapHiti" changeset="10517167"/>
  <way id="53446048" version="1" timestamp="2010-03-27T07:52:27Z" uid="33382" user="de_muur" changeset="4244176">
    <nd ref="410492558"/>
    <nd ref="646911104"/>
    <nd ref="410492559"/>
    <nd ref="646863946"/>
    <tag k="bicycle" v="designated"/>
    <tag k="foot" v="designated"/>
    <tag k="highway" v="path"/>
    <tag k="segregated" v="no"/>
  </way>
  <way id="53446048" version="2" timestamp="2010-05-25T19:51:17Z" uid="35574" user="Schorse" changeset="4807389"/>
</osm>
