<?xml version='1.0' encoding='UTF-8'?>
<osm version="0.6" generator="libosmium/2.20.0">
  <way id="53589326" version="1" timestamp="2010-03-28T19:48:05Z" uid="33382" user="de_muur" changeset="4261316">
    <nd ref="171492112"/>
    <nd ref="676972829"/>
    <tag k="highway" v="residential"/>
  </way>
  <way id="53589326" version="2" timestamp="2010-03-29T16:21:54Z" uid="33382" user="de_muur" changeset="4268834">
    <nd ref="171492112"/>
    <nd ref="677544344"/>
    <nd ref="676972829"/>
    <tag k="highway" v="residential"/>
  </way>
  <way id="53589326" version="3" timestamp="2010-04-05T07:26:09Z" uid="33382" user="de_muur" changeset="4329905">
    <nd ref="171492112"/>
    <nd ref="677544344"/>
    <nd ref="676972829"/>
    <tag k="highway" v="residential"/>
    <tag k="surface" v="paved"/>
  </way>
  <way id="53589326" version="4" timestamp="2012-02-05T13:36:26Z" uid="14002" user="Gehrke" changeset="10593512">
    <nd ref="171492112"/>
    <nd ref="677544344"/>
    <nd ref="676972829"/>
    <tag k="highway" v="residential"/>
    <tag k="name" v="An der Kirche"/>
    <tag k="surface" v="paved"/>
  </way>
  <way id="53589326" version="5" timestamp="2012-03-18T17:12:51Z" uid="45882" user="smarties" changeset="11021411">
    <nd ref="1680249570"/>
    <nd ref="677544344"/>
    <nd ref="676972829"/>
    <tag k="highway" v="residential"/>
    <tag k="name" v="An der Kirche"/>
    <tag k="surface" v="paved"/>
  </way>
  <way id="53589327" version="1" timestamp="2010-03-28T19:48:05Z" uid="33382" user="de_muur" changeset="4261316">
    <nd ref="676972856"/>
    <nd ref="171491874"/>
    <nd ref="365514476"/>
    <tag k="highway" v="tertiary"/>
    <tag k="ref" v="K 12"/>
    <tag k="surface" v="paved"/>
  </way>
  <way id="53589327" version="2" timestamp="2010-03-29T19:02:57Z" uid="33382" user="de_muur" changeset="4270458">
    <nd ref="676972856"/>
    <nd ref="171491874"/>
    <nd ref="365514476"/>
    <tag k="highway" v="unclassified"/>
    <tag k="note" v="es ist zwar eine Kreisstrasse, ist aber nicht entsprechend ausgebaut (historische Strasse)"/>
    <tag k="ref" v="K 12"/>
    <tag k="surface" v="paved"/>
  </way>
  <way id="53589327" version="3" timestamp="2010-04-05T07:12:09Z" uid="33382" user="de_muur" changeset="4329795">
    <nd ref="676972856"/>
    <nd ref="171491874"/>
    <tag k="highway" v="unclassified"/>
    <tag k="note" v="es ist zwar eine Kreisstrasse, ist aber nicht entsprechend ausgebaut (historische Strasse)"/>
    <tag k="ref" v="K 12"/>
    <tag k="surface" v="paved"/>
  </way>
  <way id="53589327" version="4" timestamp="2012-02-08T15:50:09Z" uid="45882" user="smarties" changeset="10625786">
    <nd ref="676972856"/>
    <nd ref="1623986328"/>
    <tag k="highway" v="unclassified"/>
    <tag k="note" v="es ist zwar eine Kreisstrasse, ist aber nicht entsprechend ausgebaut (historische Strasse)"/>
    <tag k="ref" v="K 12"/>
    <tag k="surface" v="paved"/>
  </way>
</osm>
