<?xml version='1.0' encoding='UTF-8'?>
<osm version="0.6" generator="libosmium/2.20.0">
  <way id="53631336" version="1" timestamp="2010-03-29T10:15:54Z" uid="7617" user="Franc" changeset="4265927">
    <nd ref="677367496"/>
    <nd ref="292225179"/>
    <nd ref="292225172"/>
    <nd ref="292225170"/>
    <nd ref="20976030"/>
    <tag k="abutters" v="residential"/>
    <tag k="highway" v="secondary"/>
    <tag k="is_in" v="Australia, NSW, New South Wales, Katoomba"/>
    <tag k="name" v="Merriwa Street"/>
  </way>
  <way id="53631336" version="2" timestamp="2010-04-17T09:13:36Z" uid="30201" user="rrankin" changeset="4445701">
    <nd ref="677367496"/>
    <nd ref="292225179"/>
    <nd ref="292225172"/>
    <nd ref="292225170"/>
    <nd ref="20976030"/>
    <tag k="highway" v="secondary"/>
    <tag k="is_in" v="Australia, NSW, New South Wales, Katoomba"/>
    <tag k="name" v="Merriwa Street"/>
  </way>
  <way id="53631337" version="1" timestamp="2010-03-29T10:15:54Z" uid="7617" user="Franc" changeset="4265927">
    <nd ref="677367510"/>
    <nd ref="292225166"/>
    <nd ref="677367517"/>
    <tag k="highway" v="residential"/>
    <tag k="is_in" v="Australia, NSW, New South Wales, Katoomba"/>
    <tag k="name" v="Waratah Street"/>
    <tag k="restriction" v="school_zone"/>
  </way>
  <way id="53631337" version="2" timestamp="2010-07-08T16:37:53Z" uid="74617" user="JohnSmith" changeset="5167338">
    <nd ref="677367510"/>
    <nd ref="292225166"/>
    <nd ref="677367517"/>
    <tag k="highway" v="residential"/>
    <tag k="maxspeed" v="50"/>
    <tag k="maxspeed:source" v="default residential speed limit in Australia"/>
    <tag k="name" v="Waratah Street"/>
    <tag k="restriction" v="school_zone"/>
  </way>
  <way id="53631337" version="3" timestamp="2012-01-20T04:50:30Z" uid="147510" user="woodpeck_fixbot" changeset="10442986">
    <nd ref="677367510"/>
    <nd ref="292225166"/>
    <nd ref="677367517"/>
    <tag k="highway" v="residential"/>
    <tag k="name" v="Waratah Street"/>
    <tag k="restriction" v="school_zone"/>
  </way>
  <way id="53631338" version="1" timestamp="2010-03-29T10:15:55Z" uid="7617" user="Franc" changeset="4265927">
    <nd ref="311886469"/>
    <nd ref="311886474"/>
    <tag k="highway" v="residential"/>
    <tag k="source" v="nearmap"/>
  </way>
  <way id="53631338" version="2" timestamp="2010-07-08T16:39:41Z" uid="74617" user="JohnSmith" changeset="5167338">
    <nd ref="311886469"/>
    <nd ref="311886474"/>
    <tag k="highway" v="residential"/>
    <tag k="maxspeed" v="50"/>
    <tag k="maxspeed:source" v="default residential speed limit in Australia"/>
    <tag k="source" v="nearmap"/>
  </way>
  <way id="53631338" version="3" timestamp="2012-01-20T04:50:36Z" uid="147510" user="woodpeck_fixbot" changeset="10442986">
    <nd ref="311886469"/>
    <nd ref="311886474"/>
    <tag k="highway" v="residential"/>
    <tag k="source" v="nearmap"/>
  </way>
  <way id="53631339" version="1" timestamp="2010-03-29T10:15:55Z" uid="7617" user="Franc" changeset="4265927">
    <nd ref="677367495"/>
    <nd ref="677358731"/>
    <nd ref="292225168"/>
    <nd ref="292225169"/>
    <tag k="highway" v="residential"/>
    <tag k="name" v="Ada Street"/>
    <tag k="source" v="survey"/>
  </way>
  <way id="53631339" version="2" timestamp="2010-07-08T16:39:09Z" uid="74617" user="JohnSmith" changeset="5167338">
    <nd ref="677367495"/>
    <nd ref="677358731"/>
    <nd ref="292225168"/>
    <nd ref="292225169"/>
    <tag k="highway" v="residential"/>
    <tag k="maxspeed" v="50"/>
    <tag k="maxspeed:source" v="default residential speed limit in Australia"/>
    <tag k="name" v="Ada Street"/>
    <tag k="source" v="survey"/>
  </way>
  <way id="53631339" version="3" timestamp="2012-01-20T04:50:47Z" uid="147510" user="woodpeck_fixbot" changeset="10442986">
    <nd ref="677367495"/>
    <nd ref="677358731"/>
    <nd ref="292225168"/>
    <nd ref="292225169"/>
    <tag k="highway" v="residential"/>
    <tag k="name" v="Ada Street"/>
    <tag k="source" v="survey"/>
  </way>
  <way id="53631340" version="1" timestamp="2010-03-29T10:15:55Z" uid="7617" user="Franc" changeset="4265927">
    <nd ref="677367497"/>
    <nd ref="292225167"/>
    <nd ref="677367496"/>
    <tag k="abutters" v="residential"/>
    <tag k="highway" v="secondary"/>
    <tag k="is_in" v="Australia, NSW, New South Wales, Katoomba"/>
    <tag k="name" v="Merriwa Street"/>
    <tag k="restriction" v="school_zone"/>
  </way>
  <way id="53631340" version="2" timestamp="2010-04-17T09:13:38Z" uid="30201" user="rrankin" changeset="4445701">
    <nd ref="677367497"/>
    <nd ref="292225167"/>
    <nd ref="677367496"/>
    <tag k="highway" v="secondary"/>
    <tag k="is_in" v="Australia, NSW, New South Wales, Katoomba"/>
    <tag k="name" v="Merriwa Street"/>
    <tag k="restriction" v="school_zone"/>
  </way>
  <way id="53631341" version="1" timestamp="2010-03-29T10:15:55Z" uid="7617" user="Franc" changeset="4265927">
    <nd ref="677367506"/>
    <nd ref="677367508"/>
    <nd ref="677367509"/>
    <nd ref="677367510"/>
    <tag k="highway" v="residential"/>
    <tag k="is_in" v="Australia, NSW, New South Wales, Katoomba"/>
    <tag k="name" v="Waratah Street"/>
  </way>
  <way id="53631341" version="2" timestamp="2010-07-08T16:37:27Z" uid="74617" user="JohnSmith" changeset="5167338">
    <nd ref="677367506"/>
    <nd ref="677367508"/>
    <nd ref="677367509"/>
    <nd ref="677367510"/>
    <tag k="highway" v="residential"/>
    <tag k="maxspeed" v="50"/>
    <tag k="maxspeed:source" v="default residential speed limit in Australia"/>
    <tag k="name" v="Waratah Street"/>
  </way>
  <way id="53631341" version="3" timestamp="2012-01-20T04:50:53Z" uid="147510" user="woodpeck_fixbot" changeset="10442986">
    <nd ref="677367506"/>
    <nd ref="677367508"/>
    <nd ref="677367509"/>
    <nd ref="677367510"/>
    <tag k="highway" v="residential"/>
    <tag k="name" v="Waratah Street"/>
  </way>
  <way id="53631342" version="1" timestamp="2010-03-29T10:15:55Z" uid="7617" user="Franc" changeset="4265927">
    <nd ref="677367498"/>
    <nd ref="677367499"/>
    <nd ref="677367500"/>
    <nd ref="677367511"/>
    <nd ref="677367512"/>
    <nd ref="677367513"/>
    <nd ref="677367514"/>
    <nd ref="677367501"/>
    <nd ref="677367503"/>
    <nd ref="677367498"/>
    <tag k="amenity" v="school"/>
    <tag k="source" v="nearmap"/>
  </way>
  <way id="53631343" version="1" timestamp="2010-03-29T10:15:55Z" uid="7617" user="Franc" changeset="4265927">
    <nd ref="677367517"/>
    <nd ref="317383446"/>
    <nd ref="400157413"/>
    <nd ref="292225171"/>
    <nd ref="276341270"/>
    <tag k="highway" v="residential"/>
    <tag k="is_in" v="Australia, NSW, New South Wales, Katoomba"/>
    <tag k="name" v="Waratah Street"/>
  </way>
  <way id="53631343" version="2" timestamp="2010-07-08T16:38:49Z" uid="74617" user="JohnSmith" changeset="5167338">
    <nd ref="677367517"/>
    <nd ref="317383446"/>
    <nd ref="400157413"/>
    <nd ref="292225171"/>
    <nd ref="276341270"/>
    <tag k="highway" v="residential"/>
    <tag k="maxspeed" v="50"/>
    <tag k="maxspeed:source" v="default residential speed limit in Australia"/>
    <tag k="name" v="Waratah Street"/>
  </way>
  <way id="53631343" version="3" timestamp="2012-01-20T04:50:59Z" uid="147510" user="woodpeck_fixbot" changeset="10442986">
    <nd ref="677367517"/>
    <nd ref="317383446"/>
    <nd ref="400157413"/>
    <nd ref="292225171"/>
    <nd ref="276341270"/>
    <tag k="highway" v="residential"/>
    <tag k="name" v="Waratah Street"/>
  </way>
  <way id="53631400" version="1" timestamp="2010-03-29T10:17:42Z" uid="74617" user="JohnSmith" changeset="4265952">
    <nd ref="677368025"/>
    <nd ref="35291371"/>
    <nd ref="771424"/>
    <nd ref="771425"/>
    <nd ref="448930547"/>
    <tag k="highway" v="motorway"/>
    <tag k="lanes" v="2"/>
    <tag k="maxspeed" v="100"/>
    <tag k="oneway" v="yes"/>
    <tag k="source" v="survey"/>
  </way>
  <way id="53631400" version="2" timestamp="2010-06-19T10:05:16Z" uid="299678" user="peteramjet" changeset="5022216">
    <nd ref="677368025"/>
    <nd ref="35291371"/>
    <nd ref="771424"/>
    <nd ref="771425"/>
    <nd ref="448930547"/>
    <tag k="highway" v="motorway"/>
    <tag k="lanes" v="2"/>
    <tag k="maxspeed" v="100"/>
    <tag k="name" v="M5 South Western Motorway"/>
    <tag k="oneway" v="yes"/>
    <tag k="source" v="survey"/>
  </way>
  <way id="53631400" version="3" timestamp="2010-06-27T07:19:09Z" uid="299678" user="peteramjet" changeset="5086859">
    <nd ref="677368025"/>
    <nd ref="35291371"/>
    <nd ref="771424"/>
    <nd ref="771425"/>
    <nd ref="448930547"/>
    <tag k="highway" v="motorway"/>
    <tag k="lanes" v="2"/>
    <tag k="maxspeed" v="100"/>
    <tag k="name" v="M5 South Western Motorway"/>
    <tag k="oneway" v="yes"/>
    <tag k="ref" v="MR5"/>
    <tag k="source" v="survey"/>
  </way>
  <way id="53631400" version="4" timestamp="2010-06-27T23:38:27Z" uid="299678" user="peteramjet" changeset="5094127">
    <nd ref="677368025"/>
    <nd ref="35291371"/>
    <nd ref="771424"/>
    <nd ref="771425"/>
    <nd ref="448930547"/>
    <tag k="highway" v="motorway"/>
    <tag k="lanes" v="2"/>
    <tag k="maxspeed" v="100"/>
    <tag k="name" v="M5 South Western Motorway"/>
    <tag k="oneway" v="yes"/>
    <tag k="source" v="survey"/>
  </way>
  <way id="53631400" version="5" timestamp="2010-06-30T09:52:18Z" uid="299678" user="peteramjet" changeset="5112227">
    <nd ref="677368025"/>
    <nd ref="35291371"/>
    <nd ref="771424"/>
    <nd ref="771425"/>
    <nd ref="448930547"/>
    <tag k="highway" v="motorway"/>
    <tag k="lanes" v="2"/>
    <tag k="maxspeed" v="100"/>
    <tag k="name" v="M5 South Western Motorway"/>
    <tag k="oneway" v="yes"/>
    <tag k="ref" v="MR5"/>
    <tag k="source" v="survey"/>
  </way>
  <way id="53631400" version="6" timestamp="2010-07-08T11:48:43Z" uid="299678" user="peteramjet" changeset="5165369">
    <nd ref="677368025"/>
    <nd ref="35291371"/>
    <nd ref="771424"/>
    <nd ref="771425"/>
    <nd ref="448930547"/>
    <tag k="highway" v="motorway"/>
    <tag k="lanes" v="2"/>
    <tag k="maxspeed" v="100"/>
    <tag k="name" v="M5 South Western Motorway"/>
    <tag k="oneway" v="yes"/>
    <tag k="source" v="survey"/>
  </way>
  <way id="53631400" version="7" timestamp="2010-07-24T10:29:34Z" uid="237525" user="aharvey" changeset="5302723">
    <nd ref="677368025"/>
    <nd ref="35291371"/>
    <nd ref="771424"/>
    <nd ref="771425"/>
    <nd ref="448930547"/>
    <tag k="cycleway" v="lane"/>
    <tag k="highway" v="motorway"/>
    <tag k="lanes" v="2"/>
    <tag k="maxspeed" v="100"/>
    <tag k="name" v="M5 South Western Motorway"/>
    <tag k="oneway" v="yes"/>
    <tag k="source" v="survey"/>
  </way>
  <way id="53631400" version="8" timestamp="2012-01-29T17:54:30Z" uid="54784" user="Tom Hollander" changeset="10532889">
    <nd ref="677368025"/>
    <nd ref="35291371"/>
    <nd ref="771424"/>
    <nd ref="771425"/>
    <nd ref="448930547"/>
    <tag k="cycleway" v="lane"/>
    <tag k="highway" v="motorway"/>
    <tag k="lanes" v="2"/>
    <tag k="maxspeed" v="100"/>
    <tag k="name" v="M5 South Western Motorway"/>
    <tag k="oneway" v="yes"/>
    <tag k="ref" v="M5"/>
    <tag k="source" v="survey"/>
  </way>
  <way id="53631400" version="9" timestamp="2012-03-22T22:54:28Z" uid="7523" user="inas" changeset="11068830"/>
  <way id="53631402" version="1" timestamp="2010-03-29T10:17:43Z" uid="74617" user="JohnSmith" changeset="4265952">
    <nd ref="448931377"/>
    <nd ref="26049985"/>
    <tag k="highway" v="motorway"/>
    <tag k="lanes" v="2"/>
    <tag k="maxspeed" v="100"/>
    <tag k="oneway" v="yes"/>
    <tag k="source" v="survey"/>
  </way>
  <way id="53631402" version="2" timestamp="2010-06-19T10:05:14Z" uid="299678" user="peteramjet" changeset="5022216">
    <nd ref="448931377"/>
    <nd ref="26049985"/>
    <tag k="highway" v="motorway"/>
    <tag k="lanes" v="2"/>
    <tag k="maxspeed" v="100"/>
    <tag k="name" v="M5 South Western Motorway"/>
    <tag k="oneway" v="yes"/>
    <tag k="source" v="survey"/>
  </way>
  <way id="53631402" version="3" timestamp="2010-06-30T09:52:15Z" uid="299678" user="peteramjet" changeset="5112227">
    <nd ref="448931377"/>
    <nd ref="26049985"/>
    <tag k="highway" v="motorway"/>
    <tag k="lanes" v="2"/>
    <tag k="maxspeed" v="100"/>
    <tag k="name" v="M5 South Western Motorway"/>
    <tag k="oneway" v="yes"/>
    <tag k="ref" v="MR5"/>
    <tag k="source" v="survey"/>
  </way>
  <way id="53631402" version="4" timestamp="2010-07-08T11:48:43Z" uid="299678" user="peteramjet" changeset="5165369">
    <nd ref="448931377"/>
    <nd ref="26049985"/>
    <tag k="highway" v="motorway"/>
    <tag k="lanes" v="2"/>
    <tag k="maxspeed" v="100"/>
    <tag k="name" v="M5 South Western Motorway"/>
    <tag k="oneway" v="yes"/>
    <tag k="source" v="survey"/>
  </way>
  <way id="53631402" version="5" timestamp="2012-03-26T23:42:21Z" uid="7523" user="inas" changeset="11111808"/>
  <way id="53631403" version="1" timestamp="2010-03-29T10:17:43Z" uid="74617" user="JohnSmith" changeset="4265952">
    <nd ref="570286007"/>
    <nd ref="677368025"/>
    <tag k="highway" v="motorway"/>
    <tag k="lanes" v="2"/>
    <tag k="maxheight" v="5.3"/>
    <tag k="maxspeed" v="100"/>
    <tag k="oneway" v="yes"/>
    <tag k="source" v="survey"/>
  </way>
  <way id="53631403" version="2" timestamp="2010-06-19T10:05:12Z" uid="299678" user="peteramjet" changeset="5022216">
    <nd ref="570286007"/>
    <nd ref="677368025"/>
    <tag k="highway" v="motorway"/>
    <tag k="lanes" v="2"/>
    <tag k="maxheight" v="5.3"/>
    <tag k="maxspeed" v="100"/>
    <tag k="name" v="M5 South Western Motorway"/>
    <tag k="oneway" v="yes"/>
    <tag k="source" v="survey"/>
  </way>
  <way id="53631403" version="3" timestamp="2010-06-30T09:52:16Z" uid="299678" user="peteramjet" changeset="5112227">
    <nd ref="570286007"/>
    <nd ref="677368025"/>
    <tag k="highway" v="motorway"/>
    <tag k="lanes" v="2"/>
    <tag k="maxheight" v="5.3"/>
    <tag k="maxspeed" v="100"/>
    <tag k="name" v="M5 South Western Motorway"/>
    <tag k="oneway" v="yes"/>
    <tag k="ref" v="MR5"/>
    <tag k="source" v="survey"/>
  </way>
  <way id="53631403" version="4" timestamp="2010-07-08T11:48:42Z" uid="299678" user="peteramjet" changeset="5165369">
    <nd ref="570286007"/>
    <nd ref="677368025"/>
    <tag k="highway" v="motorway"/>
    <tag k="lanes" v="2"/>
    <tag k="maxheight" v="5.3"/>
    <tag k="maxspeed" v="100"/>
    <tag k="name" v="M5 South Western Motorway"/>
    <tag k="oneway" v="yes"/>
    <tag k="source" v="survey"/>
  </way>
  <way id="53631403" version="5" timestamp="2012-03-26T23:42:20Z" uid="7523" user="inas" changeset="11111808"/>
</osm>
