<?xml version='1.0' encoding='UTF-8'?>
<osm version="0.6" generator="libosmium/2.20.0">
  <way id="53632091" version="5" timestamp="2010-07-06T09:49:29Z" uid="74617" user="JohnSmith" changeset="5147679">
    <nd ref="703532014"/>
    <nd ref="677373892"/>
    <nd ref="703532026"/>
    <nd ref="703532025"/>
    <nd ref="703532024"/>
    <nd ref="703532023"/>
    <nd ref="703532022"/>
    <nd ref="703532021"/>
    <nd ref="703532020"/>
    <nd ref="703532019"/>
    <nd ref="703532018"/>
    <nd ref="703532017"/>
    <nd ref="703532016"/>
    <nd ref="703532014"/>
    <tag k="highway" v="unclassified"/>
    <tag k="maxspeed" v="50"/>
    <tag k="maxspeed:source" v="default residential speed limit in Australia"/>
    <tag k="name" v="Festival Place"/>
    <tag k="oneway" v="yes"/>
  </way>
  <way id="53632091" version="6" timestamp="2012-01-20T04:51:03Z" uid="147510" user="woodpeck_fixbot" changeset="10442986">
    <nd ref="703532014"/>
    <nd ref="677373892"/>
    <nd ref="703532026"/>
    <nd ref="703532025"/>
    <nd ref="703532024"/>
    <nd ref="703532023"/>
    <nd ref="703532022"/>
    <nd ref="703532021"/>
    <nd ref="703532020"/>
    <nd ref="703532019"/>
    <nd ref="703532018"/>
    <nd ref="703532017"/>
    <nd ref="703532016"/>
    <nd ref="703532014"/>
    <tag k="highway" v="unclassified"/>
    <tag k="name" v="Festival Place"/>
    <tag k="oneway" v="yes"/>
  </way>
  <way id="53632101" version="1" timestamp="2010-03-29T10:33:40Z" uid="49111" user="Markus B" changeset="4266068">
    <nd ref="676731242"/>
    <nd ref="676731241"/>
    <nd ref="600503179"/>
    <tag k="highway" v="residential"/>
    <tag k="name" v="GleiÃŸende Marter"/>
  </way>
  <way id="53632102" version="1" timestamp="2010-03-29T10:33:40Z" uid="49111" user="Markus B" changeset="4266068">
    <nd ref="677374042"/>
    <nd ref="677374046"/>
    <nd ref="677374057"/>
    <nd ref="677374044"/>
    <nd ref="677374042"/>
    <tag k="building" v="yes"/>
    <tag k="man_made" v="works"/>
  </way>
  <way id="53632103" version="1" timestamp="2010-03-29T10:33:40Z" uid="49111" user="Markus B" changeset="4266068">
    <nd ref="677374053"/>
    <nd ref="677374051"/>
    <nd ref="677374055"/>
    <nd ref="677374048"/>
    <nd ref="677374053"/>
    <tag k="building" v="yes"/>
  </way>
  <way id="53632103" version="2" timestamp="2011-03-06T19:15:22Z" uid="238266" user="bangla" changeset="7477301"/>
  <way id="53632289" version="6" timestamp="2011-05-04T10:17:02Z" uid="9581" user="Lobelt" changeset="8047512">
    <nd ref="677362347"/>
    <nd ref="677362348"/>
    <nd ref="677362349"/>
    <nd ref="677362350"/>
    <nd ref="677362351"/>
    <nd ref="677362352"/>
    <nd ref="677362353"/>
    <nd ref="677362354"/>
    <nd ref="677362355"/>
    <nd ref="677362356"/>
    <nd ref="677362357"/>
    <nd ref="677362359"/>
    <nd ref="677362360"/>
    <nd ref="677362361"/>
    <nd ref="677362362"/>
    <nd ref="677362363"/>
    <nd ref="677362364"/>
    <tag k="name" v="Steinach"/>
    <tag k="waterway" v="river"/>
    <tag k="width" v="3"/>
  </way>
  <way id="53632289" version="7" timestamp="2011-11-17T18:26:41Z" uid="44771" user="bkmap" changeset="9856362"/>
  <way id="53632540" version="1" timestamp="2010-03-29T10:40:47Z" uid="74617" user="JohnSmith" changeset="4266120">
    <nd ref="677376686"/>
    <nd ref="26049997"/>
    <nd ref="677376683"/>
    <nd ref="677376682"/>
    <nd ref="26049998"/>
    <tag k="highway" v="motorway"/>
    <tag k="lanes" v="4"/>
    <tag k="maxspeed" v="110"/>
    <tag k="name" v="M5 Motorway"/>
    <tag k="oneway" v="yes"/>
    <tag k="ref" v="MR5"/>
    <tag k="source" v="survey"/>
  </way>
  <way id="53632540" version="2" timestamp="2010-03-29T10:50:20Z" uid="74617" user="JohnSmith" changeset="4266201">
    <nd ref="677376686"/>
    <nd ref="26049997"/>
    <nd ref="677376683"/>
    <nd ref="677376682"/>
    <nd ref="26049998"/>
    <nd ref="26050000"/>
    <nd ref="26050002"/>
    <nd ref="26050004"/>
    <nd ref="26050006"/>
    <nd ref="26050007"/>
    <nd ref="26050008"/>
    <nd ref="26050009"/>
    <nd ref="26050010"/>
    <nd ref="26050011"/>
    <nd ref="385099738"/>
    <tag k="highway" v="motorway"/>
    <tag k="lanes" v="4"/>
    <tag k="maxspeed" v="110"/>
    <tag k="oneway" v="yes"/>
    <tag k="source" v="survey"/>
  </way>
  <way id="53632540" version="3" timestamp="2010-03-29T10:52:38Z" uid="74617" user="JohnSmith" changeset="4266230">
    <nd ref="677376686"/>
    <nd ref="26049997"/>
    <nd ref="677376683"/>
    <nd ref="677376682"/>
    <nd ref="26049998"/>
    <tag k="highway" v="motorway"/>
    <tag k="lanes" v="4"/>
    <tag k="maxspeed" v="110"/>
    <tag k="oneway" v="yes"/>
    <tag k="source" v="survey"/>
  </way>
  <way id="53632540" version="4" timestamp="2010-06-19T10:17:16Z" uid="299678" user="peteramjet" changeset="5022368">
    <nd ref="677376686"/>
    <nd ref="26049997"/>
    <nd ref="677376683"/>
    <nd ref="677376682"/>
    <nd ref="26049998"/>
    <tag k="highway" v="motorway"/>
    <tag k="lanes" v="4"/>
    <tag k="maxspeed" v="110"/>
    <tag k="name" v="M5 South Western Motorway"/>
    <tag k="oneway" v="yes"/>
    <tag k="source" v="survey"/>
  </way>
  <way id="53632540" version="5" timestamp="2010-06-19T10:23:26Z" uid="299678" user="peteramjet" changeset="5022368">
    <nd ref="677376686"/>
    <nd ref="26049997"/>
    <nd ref="677376683"/>
    <nd ref="677376682"/>
    <nd ref="26049998"/>
    <tag k="highway" v="motorway"/>
    <tag k="lanes" v="4"/>
    <tag k="maxspeed" v="110"/>
    <tag k="name" v="South Western Freeway"/>
    <tag k="oneway" v="yes"/>
    <tag k="source" v="survey"/>
  </way>
  <way id="53632540" version="6" timestamp="2010-06-30T09:55:31Z" uid="299678" user="peteramjet" changeset="5112227"/>
  <way id="53632541" version="1" timestamp="2010-03-29T10:40:47Z" uid="74617" user="JohnSmith" changeset="4266120">
    <nd ref="677376685"/>
    <nd ref="677376681"/>
    <nd ref="26049998"/>
    <tag k="highway" v="motorway_link"/>
    <tag k="maxspeed" v="110"/>
    <tag k="name" v="Hume Highway"/>
  </way>
  <way id="53632541" version="2" timestamp="2010-06-19T10:23:25Z" uid="299678" user="peteramjet" changeset="5022368">
    <nd ref="677376685"/>
    <nd ref="677376681"/>
    <nd ref="26049998"/>
    <tag k="highway" v="motorway_link"/>
    <tag k="maxspeed" v="110"/>
    <tag k="name" v="South Western Freeway"/>
    <tag k="oneway" v="yes"/>
  </way>
  <way id="53632541" version="3" timestamp="2010-06-19T10:31:20Z" uid="299678" user="peteramjet" changeset="5022484">
    <nd ref="677376685"/>
    <nd ref="677376681"/>
    <nd ref="26049998"/>
    <tag k="highway" v="motorway_link"/>
    <tag k="maxspeed" v="110"/>
    <tag k="name" v="Hume Highway"/>
    <tag k="oneway" v="yes"/>
  </way>
  <way id="53632541" version="4" timestamp="2012-02-02T00:57:36Z" uid="54784" user="Tom Hollander" changeset="10563890">
    <nd ref="677376685"/>
    <nd ref="677376681"/>
    <nd ref="26049998"/>
    <tag k="highway" v="motorway_link"/>
    <tag k="maxspeed" v="110"/>
    <tag k="name" v="Hume Highway"/>
    <tag k="oneway" v="yes"/>
    <tag k="ref" v="M5"/>
  </way>
  <way id="53632541" version="5" timestamp="2012-03-22T23:21:09Z" uid="7523" user="inas" changeset="11069008"/>
  <way id="53632749" version="1" timestamp="2010-03-29T10:47:32Z" uid="74617" user="JohnSmith" changeset="4266177">
    <nd ref="599906760"/>
    <nd ref="599906755"/>
    <nd ref="599906757"/>
    <nd ref="599906751"/>
    <nd ref="599906752"/>
    <nd ref="26049732"/>
    <tag k="highway" v="motorway_link"/>
    <tag k="lanes" v="3"/>
    <tag k="loc_name" v="Cash Booths"/>
    <tag k="maxspeed" v="70"/>
    <tag k="oneway" v="yes"/>
    <tag k="source" v="nearmap"/>
    <tag k="toll" v="yes"/>
  </way>
  <way id="53632749" version="2" timestamp="2010-06-19T09:56:10Z" uid="299678" user="peteramjet" changeset="5022216">
    <nd ref="599906760"/>
    <nd ref="599906755"/>
    <nd ref="599906757"/>
    <nd ref="599906751"/>
    <nd ref="599906752"/>
    <nd ref="26049732"/>
    <tag k="highway" v="motorway_link"/>
    <tag k="lanes" v="3"/>
    <tag k="loc_name" v="Cash Booths"/>
    <tag k="maxspeed" v="70"/>
    <tag k="name" v="M5 South Western Motorway"/>
    <tag k="oneway" v="yes"/>
    <tag k="source" v="nearmap"/>
    <tag k="toll" v="yes"/>
  </way>
  <way id="53632749" version="3" timestamp="2010-07-24T10:29:46Z" uid="237525" user="aharvey" changeset="5302723">
    <nd ref="599906760"/>
    <nd ref="599906755"/>
    <nd ref="599906757"/>
    <nd ref="599906751"/>
    <nd ref="599906752"/>
    <nd ref="26049732"/>
    <tag k="cycleway" v="lane"/>
    <tag k="highway" v="motorway_link"/>
    <tag k="lanes" v="3"/>
    <tag k="loc_name" v="Cash Booths"/>
    <tag k="maxspeed" v="70"/>
    <tag k="name" v="M5 South Western Motorway"/>
    <tag k="oneway" v="yes"/>
    <tag k="source" v="nearmap"/>
    <tag k="toll" v="yes"/>
  </way>
  <way id="53632749" version="4" timestamp="2012-01-29T20:27:02Z" uid="54784" user="Tom Hollander" changeset="10534367">
    <nd ref="599906760"/>
    <nd ref="599906755"/>
    <nd ref="599906757"/>
    <nd ref="599906751"/>
    <nd ref="599906752"/>
    <nd ref="26049732"/>
    <tag k="cycleway" v="lane"/>
    <tag k="highway" v="motorway_link"/>
    <tag k="lanes" v="3"/>
    <tag k="loc_name" v="Cash Booths"/>
    <tag k="maxspeed" v="70"/>
    <tag k="name" v="M5 South Western Motorway"/>
    <tag k="oneway" v="yes"/>
    <tag k="ref" v="M5"/>
    <tag k="source" v="nearmap"/>
    <tag k="toll" v="yes"/>
  </way>
  <way id="53632749" version="5" timestamp="2012-03-26T23:47:52Z" uid="7523" user="inas" changeset="11111828">
    <nd ref="599906760"/>
    <nd ref="599906755"/>
    <nd ref="599906757"/>
    <nd ref="599906751"/>
    <nd ref="599906752"/>
    <nd ref="26049732"/>
    <tag k="cycleway" v="lane"/>
    <tag k="highway" v="motorway_link"/>
    <tag k="lanes" v="3"/>
    <tag k="loc_name" v="Cash Booths"/>
    <tag k="maxspeed" v="70"/>
    <tag k="name" v="M5 Motorway"/>
    <tag k="network" v="MR"/>
    <tag k="oneway" v="yes"/>
    <tag k="ref" v="5"/>
    <tag k="source" v="nearmap"/>
    <tag k="toll" v="yes"/>
  </way>
  <way id="53632750" version="1" timestamp="2010-03-29T10:47:32Z" uid="74617" user="JohnSmith" changeset="4266177">
    <nd ref="599906762"/>
    <nd ref="599906763"/>
    <nd ref="599906756"/>
    <nd ref="599906753"/>
    <nd ref="26049732"/>
    <tag k="highway" v="motorway"/>
    <tag k="lanes" v="2"/>
    <tag k="maxspeed" v="70"/>
    <tag k="oneway" v="yes"/>
    <tag k="source" v="nearmap"/>
    <tag k="toll" v="yes"/>
  </way>
  <way id="53632750" version="2" timestamp="2010-06-19T09:56:17Z" uid="299678" user="peteramjet" changeset="5022216">
    <nd ref="599906762"/>
    <nd ref="599906763"/>
    <nd ref="599906756"/>
    <nd ref="599906753"/>
    <nd ref="26049732"/>
    <tag k="highway" v="motorway"/>
    <tag k="lanes" v="2"/>
    <tag k="maxspeed" v="70"/>
    <tag k="name" v="M5 South Western Motorway"/>
    <tag k="oneway" v="yes"/>
    <tag k="source" v="nearmap"/>
    <tag k="toll" v="yes"/>
  </way>
  <way id="53632750" version="3" timestamp="2010-06-30T09:43:13Z" uid="299678" user="peteramjet" changeset="5112150">
    <nd ref="599906762"/>
    <nd ref="599906763"/>
    <nd ref="599906756"/>
    <nd ref="599906753"/>
    <nd ref="26049732"/>
    <tag k="highway" v="motorway"/>
    <tag k="lanes" v="2"/>
    <tag k="maxspeed" v="70"/>
    <tag k="name" v="M5 South Western Motorway"/>
    <tag k="oneway" v="yes"/>
    <tag k="ref" v="MR5"/>
    <tag k="source" v="nearmap"/>
    <tag k="toll" v="yes"/>
  </way>
  <way id="53632750" version="4" timestamp="2010-06-30T09:48:20Z" uid="299678" user="peteramjet" changeset="5112227">
    <nd ref="599906777"/>
    <nd ref="599906771"/>
    <nd ref="599906768"/>
    <nd ref="599906761"/>
    <nd ref="599906762"/>
    <nd ref="599906763"/>
    <nd ref="599906756"/>
    <nd ref="599906753"/>
    <nd ref="26049732"/>
    <nd ref="26049733"/>
    <nd ref="26049734"/>
    <nd ref="26049735"/>
    <nd ref="26049736"/>
    <nd ref="677349654"/>
    <nd ref="26049737"/>
    <nd ref="36193185"/>
    <tag k="highway" v="motorway"/>
    <tag k="lanes" v="2; 3"/>
    <tag k="maxspeed" v="70; 100"/>
    <tag k="name" v="M5 South Western Motorway"/>
    <tag k="oneway" v="yes"/>
    <tag k="ref" v="MR5"/>
    <tag k="source" v="nearmap; survey; survey"/>
    <tag k="toll" v="yes"/>
  </way>
  <way id="53632750" version="5" timestamp="2010-07-08T11:52:28Z" uid="299678" user="peteramjet" changeset="5165369">
    <nd ref="599906777"/>
    <nd ref="599906771"/>
    <nd ref="599906768"/>
    <nd ref="599906761"/>
    <nd ref="599906762"/>
    <nd ref="599906763"/>
    <nd ref="599906756"/>
    <nd ref="599906753"/>
    <nd ref="26049732"/>
    <nd ref="26049733"/>
    <nd ref="26049734"/>
    <nd ref="26049735"/>
    <nd ref="26049736"/>
    <nd ref="677349654"/>
    <nd ref="26049737"/>
    <nd ref="36193185"/>
    <tag k="highway" v="motorway"/>
    <tag k="lanes" v="2; 3"/>
    <tag k="maxspeed" v="70; 100"/>
    <tag k="name" v="M5 South Western Motorway"/>
    <tag k="oneway" v="yes"/>
    <tag k="source" v="nearmap; survey; survey"/>
    <tag k="toll" v="yes"/>
  </way>
  <way id="53632750" version="6" timestamp="2010-07-24T10:29:29Z" uid="237525" user="aharvey" changeset="5302723">
    <nd ref="599906777"/>
    <nd ref="599906771"/>
    <nd ref="599906768"/>
    <nd ref="599906761"/>
    <nd ref="599906762"/>
    <nd ref="599906763"/>
    <nd ref="599906756"/>
    <nd ref="599906753"/>
    <nd ref="26049732"/>
    <tag k="highway" v="motorway"/>
    <tag k="lanes" v="2; 3"/>
    <tag k="maxspeed" v="70; 100"/>
    <tag k="name" v="M5 South Western Motorway"/>
    <tag k="oneway" v="yes"/>
    <tag k="source" v="nearmap; survey; survey"/>
    <tag k="toll" v="yes"/>
  </way>
  <way id="53632750" version="7" timestamp="2010-08-17T04:08:31Z" uid="4467" user="Rosscoe" changeset="5514350">
    <nd ref="599906777"/>
    <nd ref="599906771"/>
    <nd ref="599906768"/>
    <nd ref="599906761"/>
    <nd ref="599906762"/>
    <nd ref="599906763"/>
    <nd ref="864280250"/>
    <nd ref="599906753"/>
    <nd ref="26049732"/>
    <tag k="highway" v="motorway"/>
    <tag k="lanes" v="2"/>
    <tag k="maxspeed" v="70"/>
    <tag k="name" v="M5 South Western Motorway"/>
    <tag k="oneway" v="yes"/>
    <tag k="source" v="nearmap; survey; survey"/>
    <tag k="toll" v="yes"/>
  </way>
  <way id="53632750" version="8" timestamp="2012-01-29T20:27:01Z" uid="54784" user="Tom Hollander" changeset="10534367">
    <nd ref="599906777"/>
    <nd ref="599906771"/>
    <nd ref="599906768"/>
    <nd ref="599906761"/>
    <nd ref="599906762"/>
    <nd ref="599906763"/>
    <nd ref="864280250"/>
    <nd ref="599906753"/>
    <nd ref="26049732"/>
    <tag k="highway" v="motorway"/>
    <tag k="lanes" v="2"/>
    <tag k="maxspeed" v="70"/>
    <tag k="name" v="M5 South Western Motorway"/>
    <tag k="oneway" v="yes"/>
    <tag k="ref" v="M5"/>
    <tag k="source" v="nearmap; survey; survey"/>
    <tag k="toll" v="yes"/>
  </way>
  <way id="53632750" version="9" timestamp="2012-03-22T05:48:19Z" uid="7523" user="inas" changeset="11059415"/>
  <way id="53632751" version="1" timestamp="2010-03-29T10:47:32Z" uid="74617" user="JohnSmith" changeset="4266177">
    <nd ref="599906759"/>
    <nd ref="599906766"/>
    <nd ref="599906770"/>
    <nd ref="599906774"/>
    <tag k="highway" v="motorway"/>
    <tag k="lanes" v="2"/>
    <tag k="maxspeed" v="70"/>
    <tag k="oneway" v="yes"/>
    <tag k="source" v="nearmap"/>
    <tag k="toll" v="yes"/>
  </way>
  <way id="53632751" version="2" timestamp="2010-06-19T09:56:20Z" uid="299678" user="peteramjet" changeset="5022216">
    <nd ref="599906759"/>
    <nd ref="599906766"/>
    <nd ref="599906770"/>
    <nd ref="599906774"/>
    <tag k="highway" v="motorway"/>
    <tag k="lanes" v="2"/>
    <tag k="maxspeed" v="70"/>
    <tag k="name" v="M5 South Western Motorway"/>
    <tag k="oneway" v="yes"/>
    <tag k="source" v="nearmap"/>
    <tag k="toll" v="yes"/>
  </way>
  <way id="53632751" version="3" timestamp="2010-06-30T09:43:13Z" uid="299678" user="peteramjet" changeset="5112150">
    <nd ref="599906759"/>
    <nd ref="599906766"/>
    <nd ref="599906770"/>
    <nd ref="599906774"/>
    <tag k="highway" v="motorway"/>
    <tag k="lanes" v="2"/>
    <tag k="maxspeed" v="70"/>
    <tag k="name" v="M5 South Western Motorway"/>
    <tag k="oneway" v="yes"/>
    <tag k="ref" v="MR5"/>
    <tag k="source" v="nearmap"/>
    <tag k="toll" v="yes"/>
  </way>
  <way id="53632751" version="4" timestamp="2010-06-30T09:48:25Z" uid="299678" user="peteramjet" changeset="5112227"/>
  <way id="53632752" version="1" timestamp="2010-03-29T10:47:32Z" uid="74617" user="JohnSmith" changeset="4266177">
    <nd ref="599906758"/>
    <nd ref="599906765"/>
    <nd ref="599906769"/>
    <nd ref="599906774"/>
    <tag k="highway" v="motorway_link"/>
    <tag k="lanes" v="3"/>
    <tag k="maxspeed" v="70"/>
    <tag k="oneway" v="yes"/>
    <tag k="source" v="nearmap"/>
    <tag k="toll" v="yes"/>
  </way>
  <way id="53632752" version="2" timestamp="2010-06-19T09:56:19Z" uid="299678" user="peteramjet" changeset="5022216">
    <nd ref="599906758"/>
    <nd ref="599906765"/>
    <nd ref="599906769"/>
    <nd ref="599906774"/>
    <tag k="highway" v="motorway_link"/>
    <tag k="lanes" v="3"/>
    <tag k="maxspeed" v="70"/>
    <tag k="name" v="M5 South Western Motorway"/>
    <tag k="oneway" v="yes"/>
    <tag k="source" v="nearmap"/>
    <tag k="toll" v="yes"/>
  </way>
  <way id="53632752" version="3" timestamp="2010-07-24T10:29:24Z" uid="237525" user="aharvey" changeset="5302723">
    <nd ref="599906758"/>
    <nd ref="599906765"/>
    <nd ref="599906769"/>
    <nd ref="599906774"/>
    <tag k="cycleway" v="lane"/>
    <tag k="highway" v="motorway_link"/>
    <tag k="lanes" v="3"/>
    <tag k="maxspeed" v="70"/>
    <tag k="name" v="M5 South Western Motorway"/>
    <tag k="oneway" v="yes"/>
    <tag k="source" v="nearmap"/>
    <tag k="toll" v="yes"/>
  </way>
  <way id="53632752" version="4" timestamp="2012-01-29T20:27:02Z" uid="54784" user="Tom Hollander" changeset="10534367">
    <nd ref="599906758"/>
    <nd ref="599906765"/>
    <nd ref="599906769"/>
    <nd ref="599906774"/>
    <tag k="cycleway" v="lane"/>
    <tag k="highway" v="motorway_link"/>
    <tag k="lanes" v="3"/>
    <tag k="maxspeed" v="70"/>
    <tag k="name" v="M5 South Western Motorway"/>
    <tag k="oneway" v="yes"/>
    <tag k="ref" v="M5"/>
    <tag k="source" v="nearmap"/>
    <tag k="toll" v="yes"/>
  </way>
  <way id="53632752" version="5" timestamp="2012-03-22T05:48:19Z" uid="7523" user="inas" changeset="11059415"/>
  <way id="53632952" version="1" timestamp="2010-03-29T10:52:37Z" uid="74617" user="JohnSmith" changeset="4266230">
    <nd ref="26049998"/>
    <nd ref="26050000"/>
    <nd ref="26050002"/>
    <nd ref="26050004"/>
    <nd ref="26050006"/>
    <nd ref="26050007"/>
    <nd ref="26050008"/>
    <nd ref="26050009"/>
    <nd ref="26050010"/>
    <nd ref="26050011"/>
    <nd ref="385099738"/>
    <tag k="highway" v="motorway"/>
    <tag k="lanes" v="4"/>
    <tag k="maxspeed" v="110"/>
    <tag k="oneway" v="yes"/>
    <tag k="source" v="survey"/>
  </way>
  <way id="53632952" version="2" timestamp="2010-06-19T10:23:26Z" uid="299678" user="peteramjet" changeset="5022368">
    <nd ref="26049998"/>
    <nd ref="26050000"/>
    <nd ref="26050002"/>
    <nd ref="26050004"/>
    <nd ref="26050006"/>
    <nd ref="26050007"/>
    <nd ref="26050008"/>
    <nd ref="26050009"/>
    <nd ref="26050010"/>
    <nd ref="26050011"/>
    <nd ref="385099738"/>
    <tag k="highway" v="motorway"/>
    <tag k="lanes" v="4"/>
    <tag k="maxspeed" v="110"/>
    <tag k="name" v="South Western Freeway"/>
    <tag k="oneway" v="yes"/>
    <tag k="source" v="survey"/>
  </way>
  <way id="53632952" version="3" timestamp="2010-06-19T10:31:19Z" uid="299678" user="peteramjet" changeset="5022484">
    <nd ref="26049998"/>
    <nd ref="26050000"/>
    <nd ref="26050002"/>
    <nd ref="26050004"/>
    <nd ref="26050006"/>
    <nd ref="26050007"/>
    <nd ref="26050008"/>
    <nd ref="26050009"/>
    <nd ref="26050010"/>
    <nd ref="26050011"/>
    <nd ref="385099738"/>
    <tag k="highway" v="motorway"/>
    <tag k="lanes" v="4"/>
    <tag k="maxspeed" v="110"/>
    <tag k="name" v="Hume Highway"/>
    <tag k="oneway" v="yes"/>
    <tag k="source" v="survey"/>
  </way>
  <way id="53632952" version="4" timestamp="2010-06-30T09:55:23Z" uid="299678" user="peteramjet" changeset="5112227">
    <nd ref="26049998"/>
    <nd ref="26050000"/>
    <nd ref="26050002"/>
    <nd ref="26050004"/>
    <nd ref="26050006"/>
    <nd ref="26050007"/>
    <nd ref="26050008"/>
    <nd ref="26050009"/>
    <nd ref="26050010"/>
    <nd ref="26050011"/>
    <nd ref="385099738"/>
    <tag k="highway" v="motorway"/>
    <tag k="lanes" v="4"/>
    <tag k="maxspeed" v="110"/>
    <tag k="name" v="Hume Highway"/>
    <tag k="oneway" v="yes"/>
    <tag k="ref" v="MR5"/>
    <tag k="source" v="survey"/>
  </way>
  <way id="53632952" version="5" timestamp="2010-07-10T08:15:06Z" uid="299678" user="peteramjet" changeset="5180209">
    <nd ref="26049998"/>
    <nd ref="26050000"/>
    <nd ref="26050002"/>
    <nd ref="26050004"/>
    <nd ref="26050006"/>
    <nd ref="26050007"/>
    <nd ref="26050008"/>
    <nd ref="26050009"/>
    <nd ref="26050010"/>
    <nd ref="26050011"/>
    <nd ref="385099738"/>
    <tag k="highway" v="motorway"/>
    <tag k="lanes" v="4"/>
    <tag k="maxspeed" v="110"/>
    <tag k="name" v="Hume Highway"/>
    <tag k="oneway" v="yes"/>
    <tag k="source" v="survey"/>
  </way>
  <way id="53632952" version="6" timestamp="2012-01-29T17:54:31Z" uid="54784" user="Tom Hollander" changeset="10532889">
    <nd ref="26049998"/>
    <nd ref="26050000"/>
    <nd ref="26050002"/>
    <nd ref="26050004"/>
    <nd ref="26050006"/>
    <nd ref="26050007"/>
    <nd ref="26050008"/>
    <nd ref="26050009"/>
    <nd ref="26050010"/>
    <nd ref="26050011"/>
    <nd ref="385099738"/>
    <tag k="highway" v="motorway"/>
    <tag k="lanes" v="4"/>
    <tag k="maxspeed" v="110"/>
    <tag k="name" v="Hume Highway"/>
    <tag k="oneway" v="yes"/>
    <tag k="ref" v="NH31"/>
    <tag k="source" v="survey"/>
  </way>
  <way id="53632952" version="7" timestamp="2012-02-02T00:57:38Z" uid="54784" user="Tom Hollander" changeset="10563890">
    <nd ref="26049998"/>
    <nd ref="26050000"/>
    <nd ref="26050002"/>
    <nd ref="26050004"/>
    <nd ref="26050006"/>
    <nd ref="26050007"/>
    <nd ref="26050008"/>
    <nd ref="26050009"/>
    <nd ref="26050010"/>
    <nd ref="26050011"/>
    <nd ref="385099738"/>
    <tag k="highway" v="motorway"/>
    <tag k="lanes" v="4"/>
    <tag k="maxspeed" v="110"/>
    <tag k="name" v="Hume Highway"/>
    <tag k="oneway" v="yes"/>
    <tag k="ref" v="M5"/>
    <tag k="source" v="survey"/>
  </way>
  <way id="53632952" version="8" timestamp="2012-03-22T23:21:09Z" uid="7523" user="inas" changeset="11069008"/>
  <way id="53632953" version="1" timestamp="2010-03-29T10:52:37Z" uid="74617" user="JohnSmith" changeset="4266230">
    <nd ref="32892409"/>
    <nd ref="32891200"/>
    <nd ref="35291432"/>
    <tag k="highway" v="motorway"/>
    <tag k="lanes" v="4"/>
    <tag k="maxspeed" v="100"/>
    <tag k="oneway" v="yes"/>
    <tag k="source" v="survey"/>
  </way>
  <way id="53632953" version="2" timestamp="2010-06-19T10:05:14Z" uid="299678" user="peteramjet" changeset="5022216">
    <nd ref="32892409"/>
    <nd ref="32891200"/>
    <nd ref="35291432"/>
    <tag k="highway" v="motorway"/>
    <tag k="lanes" v="4"/>
    <tag k="maxspeed" v="100"/>
    <tag k="name" v="M5 South Western Motorway"/>
    <tag k="oneway" v="yes"/>
    <tag k="source" v="survey"/>
  </way>
  <way id="53632953" version="3" timestamp="2010-06-19T10:23:30Z" uid="299678" user="peteramjet" changeset="5022368">
    <nd ref="32892409"/>
    <nd ref="32891200"/>
    <nd ref="35291432"/>
    <tag k="highway" v="motorway"/>
    <tag k="lanes" v="4"/>
    <tag k="maxspeed" v="100"/>
    <tag k="name" v="South Western Freeway"/>
    <tag k="oneway" v="yes"/>
    <tag k="source" v="survey"/>
  </way>
  <way id="53632953" version="4" timestamp="2010-06-19T10:31:11Z" uid="299678" user="peteramjet" changeset="5022484">
    <nd ref="32892409"/>
    <nd ref="32891200"/>
    <nd ref="35291432"/>
    <tag k="highway" v="motorway"/>
    <tag k="lanes" v="4"/>
    <tag k="maxspeed" v="100"/>
    <tag k="name" v="Hume Highway"/>
    <tag k="oneway" v="yes"/>
    <tag k="source" v="survey"/>
  </way>
  <way id="53632953" version="5" timestamp="2010-06-30T09:55:22Z" uid="299678" user="peteramjet" changeset="5112227">
    <nd ref="32892409"/>
    <nd ref="32891200"/>
    <nd ref="35291432"/>
    <tag k="highway" v="motorway"/>
    <tag k="lanes" v="4"/>
    <tag k="maxspeed" v="100"/>
    <tag k="name" v="Hume Highway"/>
    <tag k="oneway" v="yes"/>
    <tag k="ref" v="MR5"/>
    <tag k="source" v="survey"/>
  </way>
  <way id="53632953" version="6" timestamp="2010-07-08T11:45:12Z" uid="299678" user="peteramjet" changeset="5165369">
    <nd ref="32892409"/>
    <nd ref="32891200"/>
    <nd ref="35291432"/>
    <tag k="highway" v="motorway"/>
    <tag k="lanes" v="4"/>
    <tag k="maxspeed" v="100"/>
    <tag k="name" v="Hume Highway"/>
    <tag k="oneway" v="yes"/>
    <tag k="source" v="survey"/>
  </way>
  <way id="53632953" version="7" timestamp="2012-01-30T07:29:00Z" uid="54784" user="Tom Hollander" changeset="10536990">
    <nd ref="32892409"/>
    <nd ref="32891200"/>
    <nd ref="35291432"/>
    <tag k="highway" v="motorway"/>
    <tag k="lanes" v="4"/>
    <tag k="maxspeed" v="100"/>
    <tag k="name" v="Hume Highway"/>
    <tag k="oneway" v="yes"/>
    <tag k="ref" v="M5"/>
    <tag k="source" v="survey"/>
  </way>
  <way id="53632953" version="8" timestamp="2012-03-22T23:21:09Z" uid="7523" user="inas" changeset="11069008"/>
</osm>
