<?xml version='1.0' encoding='UTF-8'?>
<osm version="0.6" generator="libosmium/2.20.0">
  <way id="53753101" version="1" timestamp="2010-03-30T14:42:34Z" uid="6269" user="Mueck" changeset="4277189">
    <nd ref="26974184"/>
    <nd ref="247921360"/>
    <nd ref="25391342"/>
    <nd ref="25391343"/>
    <nd ref="25391344"/>
    <tag k="highway" v="unclassified"/>
    <tag k="name" v="Alte Weingartener Straße"/>
  </way>
  <way id="53753101" version="2" timestamp="2010-03-30T14:44:14Z" uid="6269" user="Mueck" changeset="4277189">
    <nd ref="26353345"/>
    <nd ref="25391341"/>
    <nd ref="26974184"/>
    <nd ref="247921360"/>
    <nd ref="25391342"/>
    <nd ref="25391343"/>
    <nd ref="25391344"/>
    <tag k="highway" v="unclassified"/>
    <tag k="name" v="Alte Weingartener Straße"/>
  </way>
  <way id="53753101" version="3" timestamp="2010-03-30T14:44:43Z" uid="6269" user="Mueck" changeset="4277189">
    <nd ref="26353345"/>
    <nd ref="25391341"/>
    <nd ref="26974184"/>
    <tag k="highway" v="unclassified"/>
    <tag k="name" v="Alte Weingartener Straße"/>
  </way>
  <way id="53753101" version="4" timestamp="2010-03-30T14:44:50Z" uid="6269" user="Mueck" changeset="4277189"/>
  <way id="53753156" version="1" timestamp="2010-03-30T14:44:08Z" uid="6269" user="Mueck" changeset="4277189">
    <nd ref="26353345"/>
    <nd ref="25391341"/>
    <nd ref="26974184"/>
    <tag k="highway" v="residential"/>
    <tag k="name" v="Alte Weingartener Straße"/>
  </way>
  <way id="53753156" version="2" timestamp="2010-03-30T14:44:14Z" uid="6269" user="Mueck" changeset="4277189"/>
  <way id="53753193" version="1" timestamp="2010-03-30T14:44:43Z" uid="6269" user="Mueck" changeset="4277189">
    <nd ref="26974184"/>
    <nd ref="247921360"/>
    <nd ref="25391342"/>
    <nd ref="25391343"/>
    <nd ref="25391344"/>
    <tag k="highway" v="unclassified"/>
    <tag k="name" v="Alte Weingartener Straße"/>
  </way>
  <way id="53753193" version="2" timestamp="2010-11-11T14:07:35Z" uid="5632" user="matt_gnu" changeset="6343761">
    <nd ref="26974184"/>
    <nd ref="247921360"/>
    <nd ref="25391342"/>
    <nd ref="25391343"/>
    <nd ref="25391344"/>
    <tag k="highway" v="unclassified"/>
    <tag k="maxspeed" v="50"/>
    <tag k="name" v="Alte Weingartener Straße"/>
  </way>
  <way id="53753193" version="3" timestamp="2012-03-11T17:37:13Z" uid="35468" user="Blunauer" changeset="10945911">
    <nd ref="26974184"/>
    <nd ref="247921360"/>
    <nd ref="1670652580"/>
    <nd ref="1670652586"/>
    <nd ref="25391342"/>
    <nd ref="25391343"/>
    <nd ref="25391344"/>
    <tag k="highway" v="unclassified"/>
    <tag k="maxspeed" v="50"/>
    <tag k="name" v="Alte Weingartener Straße"/>
  </way>
  <way id="53753193" version="4" timestamp="2012-03-11T18:32:06Z" uid="35468" user="Blunauer" changeset="10946641"/>
  <way id="53753248" version="1" timestamp="2010-03-30T14:45:38Z" uid="6269" user="Mueck" changeset="4277189">
    <nd ref="25391216"/>
    <nd ref="247542084"/>
    <nd ref="248441013"/>
    <nd ref="25391217"/>
    <nd ref="25391218"/>
    <nd ref="26842505"/>
    <nd ref="25391355"/>
    <tag k="highway" v="unclassified"/>
    <tag k="maxspeed" v="70"/>
    <tag k="name" v="Herdweg"/>
    <tag k="note" v="runtergestuf nach Schließung Bahnübergang, früher im SHP des NVK: I, nach Eröffnung B10-komplett runtergesetzt"/>
  </way>
  <way id="53753248" version="2" timestamp="2010-03-30T14:45:42Z" uid="6269" user="Mueck" changeset="4277189">
    <nd ref="25391216"/>
    <nd ref="247542084"/>
    <nd ref="248441013"/>
    <tag k="highway" v="unclassified"/>
    <tag k="maxspeed" v="70"/>
    <tag k="name" v="Herdweg"/>
    <tag k="note" v="runtergestuf nach Schließung Bahnübergang, früher im SHP des NVK: I, nach Eröffnung B10-komplett runtergesetzt"/>
  </way>
  <way id="53753248" version="3" timestamp="2010-03-30T14:47:01Z" uid="6269" user="Mueck" changeset="4277189">
    <nd ref="25391216"/>
    <nd ref="247542084"/>
    <nd ref="248441013"/>
    <tag k="abandoned" v="unclassified"/>
    <tag k="highway" v="abandoned"/>
    <tag k="name" v="Herdweg"/>
    <tag k="note" v="Schließung Bahnübergang ca. März 2010"/>
  </way>
  <way id="53753248" version="4" timestamp="2010-03-30T14:48:36Z" uid="6269" user="Mueck" changeset="4277189">
    <nd ref="25391216"/>
    <nd ref="247542084"/>
    <nd ref="248441013"/>
    <tag k="abandoned" v="unclassified"/>
    <tag k="highway" v="no"/>
    <tag k="note" v="Schließung Bahnübergang ca. März 2010"/>
  </way>
  <way id="53753248" version="5" timestamp="2010-04-07T21:27:35Z" uid="6269" user="Mueck" changeset="4359449">
    <nd ref="25391216"/>
    <nd ref="247542084"/>
    <nd ref="248441013"/>
    <tag k="abandoned" v="unclassified"/>
    <tag k="highway" v="tertiary"/>
    <tag k="maxspeed" v="70"/>
    <tag k="name" v="Herdweg"/>
    <tag k="note" v="früher im SHP des NVK: I, nach Eröffnung B10-komplett runtergesetzt"/>
  </way>
  <way id="53753248" version="6" timestamp="2010-04-07T21:27:45Z" uid="6269" user="Mueck" changeset="4359449">
    <nd ref="25391216"/>
    <nd ref="247542084"/>
    <nd ref="248441013"/>
    <tag k="abandoned" v="unclassified"/>
    <tag k="highway" v="tertiary"/>
    <tag k="maxspeed" v="70"/>
    <tag k="name" v="Herdweg"/>
  </way>
  <way id="53753248" version="7" timestamp="2010-05-19T02:32:31Z" uid="26139" user="dieterdreist" changeset="4744450">
    <nd ref="25391216"/>
    <nd ref="739138200"/>
    <nd ref="248441013"/>
    <tag k="abandoned" v="unclassified"/>
    <tag k="highway" v="tertiary"/>
    <tag k="maxspeed" v="70"/>
    <tag k="name" v="Herdweg"/>
  </way>
  <way id="53753248" version="8" timestamp="2010-12-07T12:10:48Z" uid="6893" user="[HEK]the_other" changeset="6573863"/>
  <way id="53753252" version="1" timestamp="2010-03-30T14:45:42Z" uid="6269" user="Mueck" changeset="4277189">
    <nd ref="248441013"/>
    <nd ref="25391217"/>
    <nd ref="25391218"/>
    <nd ref="26842505"/>
    <nd ref="25391355"/>
    <tag k="highway" v="unclassified"/>
    <tag k="maxspeed" v="70"/>
    <tag k="name" v="Herdweg"/>
    <tag k="note" v="runtergestuf nach Schließung Bahnübergang, früher im SHP des NVK: I, nach Eröffnung B10-komplett runtergesetzt"/>
  </way>
  <way id="53753252" version="2" timestamp="2010-04-07T21:26:08Z" uid="6269" user="Mueck" changeset="4359449">
    <nd ref="248441013"/>
    <nd ref="25391217"/>
    <nd ref="25391218"/>
    <nd ref="26842505"/>
    <nd ref="25391355"/>
    <tag k="highway" v="tertiary"/>
    <tag k="maxspeed" v="70"/>
    <tag k="name" v="Herdweg"/>
    <tag k="note" v="früher im SHP des NVK: I, nach Eröffnung B10-komplett runtergesetzt"/>
  </way>
  <way id="53753252" version="3" timestamp="2010-12-07T12:10:48Z" uid="6893" user="[HEK]the_other" changeset="6573863"/>
</osm>
