<?xml version='1.0' encoding='UTF-8'?>
<osm version="0.6" generator="libosmium/2.20.0">
  <way id="53824927" version="4" timestamp="2011-02-22T14:07:59Z" uid="20587" user="balrog-kun" changeset="7362943">
    <nd ref="699052217"/>
    <nd ref="537238970"/>
    <nd ref="687235159"/>
    <nd ref="679476437"/>
    <nd ref="674687328"/>
    <tag k="addr:city" v="Złotokłos"/>
    <tag k="highway" v="residential"/>
    <tag k="name" v="Warszawska"/>
    <tag k="surface" v="sand"/>
  </way>
  <way id="53824927" version="5" timestamp="2011-08-17T19:24:55Z" uid="98542" user="wajak" changeset="9051007">
    <nd ref="699052217"/>
    <nd ref="1402609537"/>
    <nd ref="537238970"/>
    <nd ref="687235159"/>
    <nd ref="679476437"/>
    <nd ref="674687328"/>
    <tag k="addr:city" v="Złotokłos"/>
    <tag k="highway" v="residential"/>
    <tag k="name" v="Warszawska"/>
    <tag k="surface" v="sand"/>
  </way>
  <way id="53824927" version="6" timestamp="2011-09-20T21:38:00Z" uid="258894" user="RuteX" changeset="9356096">
    <nd ref="699052217"/>
    <nd ref="1402609537"/>
    <nd ref="537238970"/>
    <nd ref="1438793863"/>
    <nd ref="687235159"/>
    <nd ref="679476437"/>
    <nd ref="674687328"/>
    <tag k="addr:city" v="Złotokłos"/>
    <tag k="highway" v="residential"/>
    <tag k="name" v="Warszawska"/>
    <tag k="surface" v="sand"/>
  </way>
  <way id="53824927" version="7" timestamp="2011-12-12T22:56:42Z" uid="258894" user="RuteX" changeset="10103957">
    <nd ref="699052217"/>
    <nd ref="1402609537"/>
    <nd ref="537238970"/>
    <tag k="addr:city" v="Złotokłos"/>
    <tag k="highway" v="track"/>
    <tag k="surface" v="sand"/>
  </way>
</osm>
