<?xml version='1.0' encoding='UTF-8'?>
<osm version="0.6" generator="libosmium/2.20.0">
  <way id="53831062" version="1" timestamp="2010-04-01T04:56:27Z" uid="74617" user="JohnSmith" changeset="4291104">
    <nd ref="679626098"/>
    <nd ref="679626100"/>
    <nd ref="60087504"/>
    <tag k="highway" v="residential"/>
    <tag k="name" v="Dartford Road"/>
    <tag k="source" v="survey"/>
  </way>
  <way id="53831062" version="2" timestamp="2010-07-08T00:00:34Z" uid="74617" user="JohnSmith" changeset="5162525">
    <nd ref="679626098"/>
    <nd ref="679626100"/>
    <nd ref="60087504"/>
    <tag k="highway" v="residential"/>
    <tag k="maxspeed" v="50"/>
    <tag k="maxspeed:source" v="default residential speed limit in Australia"/>
    <tag k="name" v="Dartford Road"/>
    <tag k="source" v="survey"/>
  </way>
  <way id="53831062" version="3" timestamp="2010-07-08T00:10:35Z" uid="74617" user="JohnSmith" changeset="5162525">
    <nd ref="679626098"/>
    <nd ref="679626100"/>
    <nd ref="60087504"/>
    <tag k="highway" v="residential"/>
    <tag k="maxspeed" v="50"/>
    <tag k="maxspeed:source" v="default residential speed limit in Australia"/>
    <tag k="name" v="Dartford Road"/>
    <tag k="source" v="survey"/>
  </way>
  <way id="53831062" version="4" timestamp="2010-12-02T03:14:57Z" uid="4467" user="Rosscoe" changeset="6510905"/>
  <way id="53831072" version="1" timestamp="2010-04-01T05:00:49Z" uid="74617" user="JohnSmith" changeset="4291104">
    <nd ref="362442733"/>
    <nd ref="679627296"/>
    <tag k="highway" v="residential"/>
  </way>
  <way id="53831072" version="2" timestamp="2010-07-08T00:01:39Z" uid="74617" user="JohnSmith" changeset="5162525">
    <nd ref="362442733"/>
    <nd ref="679627296"/>
    <tag k="highway" v="residential"/>
    <tag k="maxspeed" v="50"/>
    <tag k="maxspeed:source" v="default residential speed limit in Australia"/>
  </way>
  <way id="53831072" version="3" timestamp="2010-07-08T00:11:50Z" uid="74617" user="JohnSmith" changeset="5162525">
    <nd ref="362442733"/>
    <nd ref="679627296"/>
    <tag k="highway" v="residential"/>
    <tag k="maxspeed" v="50"/>
    <tag k="maxspeed:source" v="default residential speed limit in Australia"/>
  </way>
  <way id="53831073" version="1" timestamp="2010-04-01T05:00:49Z" uid="74617" user="JohnSmith" changeset="4291104">
    <nd ref="679627298"/>
    <nd ref="97521717"/>
    <nd ref="97521718"/>
    <tag k="highway" v="residential"/>
    <tag k="name" v="Frith Avenue"/>
    <tag k="source" v="nearmap"/>
  </way>
  <way id="53831073" version="2" timestamp="2010-04-17T02:16:47Z" uid="7617" user="Franc" changeset="4443965">
    <nd ref="679627298"/>
    <nd ref="97521717"/>
    <nd ref="699403126"/>
    <tag k="highway" v="residential"/>
    <tag k="name" v="Frith Avenue"/>
    <tag k="source" v="nearmap"/>
  </way>
  <way id="53831073" version="3" timestamp="2010-07-08T00:02:53Z" uid="74617" user="JohnSmith" changeset="5162525">
    <nd ref="679627298"/>
    <nd ref="97521717"/>
    <nd ref="699403126"/>
    <tag k="highway" v="residential"/>
    <tag k="maxspeed" v="50"/>
    <tag k="maxspeed:source" v="default residential speed limit in Australia"/>
    <tag k="name" v="Frith Avenue"/>
    <tag k="source" v="nearmap"/>
  </way>
  <way id="53831073" version="4" timestamp="2010-07-08T00:13:05Z" uid="74617" user="JohnSmith" changeset="5162525">
    <nd ref="679627298"/>
    <nd ref="97521717"/>
    <nd ref="699403126"/>
    <tag k="highway" v="residential"/>
    <tag k="maxspeed" v="50"/>
    <tag k="maxspeed:source" v="default residential speed limit in Australia"/>
    <tag k="name" v="Frith Avenue"/>
    <tag k="source" v="nearmap"/>
  </way>
  <way id="53831073" version="5" timestamp="2010-10-30T09:37:36Z" uid="61114" user="Trav" changeset="6225021">
    <nd ref="679627298"/>
    <nd ref="969986039"/>
    <nd ref="97521717"/>
    <nd ref="699403126"/>
    <tag k="highway" v="residential"/>
    <tag k="maxspeed" v="50"/>
    <tag k="maxspeed:source" v="default residential speed limit in Australia"/>
    <tag k="name" v="Frith Avenue"/>
    <tag k="source" v="nearmap"/>
  </way>
  <way id="53831097" version="1" timestamp="2010-04-01T05:06:35Z" uid="74617" user="JohnSmith" changeset="4291104">
    <nd ref="26939706"/>
    <nd ref="679628777"/>
    <nd ref="679628778"/>
    <nd ref="679628770"/>
    <nd ref="679628771"/>
    <nd ref="679628772"/>
    <nd ref="679628773"/>
    <tag k="highway" v="trunk"/>
    <tag k="oneway" v="yes"/>
    <tag k="source" v="nearmap"/>
  </way>
  <way id="53831097" version="2" timestamp="2010-07-08T12:16:53Z" uid="299678" user="peteramjet" changeset="5165746">
    <nd ref="26939706"/>
    <nd ref="679628777"/>
    <nd ref="679628778"/>
    <nd ref="679628770"/>
    <nd ref="679628771"/>
    <nd ref="679628772"/>
    <nd ref="679628773"/>
    <tag k="highway" v="trunk"/>
    <tag k="name" v="Marsden Road"/>
    <tag k="oneway" v="yes"/>
    <tag k="source" v="nearmap"/>
  </way>
  <way id="53831097" version="3" timestamp="2012-02-02T01:25:31Z" uid="54784" user="Tom Hollander" changeset="10564041">
    <nd ref="26939706"/>
    <nd ref="679628777"/>
    <nd ref="679628778"/>
    <nd ref="679628770"/>
    <nd ref="679628771"/>
    <nd ref="679628772"/>
    <nd ref="679628773"/>
    <tag k="highway" v="trunk"/>
    <tag k="name" v="Marsden Road"/>
    <tag k="oneway" v="yes"/>
    <tag k="ref" v="MR6"/>
    <tag k="source" v="nearmap"/>
  </way>
  <way id="53831097" version="4" timestamp="2012-03-12T05:21:37Z" uid="7523" user="inas" changeset="10950679"/>
  <way id="53831098" version="1" timestamp="2010-04-01T05:06:35Z" uid="74617" user="JohnSmith" changeset="4291104">
    <nd ref="679628774"/>
    <nd ref="679628775"/>
    <nd ref="679628767"/>
    <nd ref="679628768"/>
    <nd ref="679628769"/>
    <nd ref="60283677"/>
    <tag k="highway" v="primary"/>
    <tag k="oneway" v="yes"/>
    <tag k="source" v="nearmap"/>
  </way>
  <way id="53831098" version="2" timestamp="2010-07-08T12:16:54Z" uid="299678" user="peteramjet" changeset="5165746">
    <nd ref="679628774"/>
    <nd ref="679628775"/>
    <nd ref="679628767"/>
    <nd ref="679628768"/>
    <nd ref="679628769"/>
    <nd ref="60283677"/>
    <tag k="highway" v="primary"/>
    <tag k="name" v="Pennant Hills Road"/>
    <tag k="oneway" v="yes"/>
    <tag k="source" v="nearmap"/>
  </way>
  <way id="53831098" version="3" timestamp="2012-03-13T04:51:50Z" uid="7523" user="inas" changeset="10962966"/>
  <way id="53831108" version="1" timestamp="2010-04-01T05:10:42Z" uid="74617" user="JohnSmith" changeset="4291104">
    <nd ref="31910193"/>
    <nd ref="31910194"/>
    <nd ref="31910195"/>
    <nd ref="31910196"/>
    <nd ref="31910197"/>
    <nd ref="31910198"/>
    <nd ref="60282030"/>
    <nd ref="60282029"/>
    <nd ref="60282028"/>
    <nd ref="60282027"/>
    <nd ref="60282026"/>
    <nd ref="60282025"/>
    <nd ref="60282024"/>
    <nd ref="60282023"/>
    <tag k="highway" v="trunk"/>
    <tag k="name" v="Stewart Street"/>
    <tag k="oneway" v="yes"/>
  </way>
  <way id="53831108" version="2" timestamp="2010-06-30T08:53:15Z" uid="299678" user="peteramjet" changeset="5111867">
    <nd ref="31910193"/>
    <nd ref="31910194"/>
    <nd ref="31910195"/>
    <nd ref="31910196"/>
    <nd ref="31910197"/>
    <nd ref="31910198"/>
    <nd ref="60282030"/>
    <nd ref="60282029"/>
    <nd ref="60282028"/>
    <nd ref="60282027"/>
    <nd ref="60282026"/>
    <nd ref="60282025"/>
    <nd ref="60282024"/>
    <nd ref="60282023"/>
    <tag k="highway" v="trunk"/>
    <tag k="name" v="Stewart Street"/>
    <tag k="oneway" v="yes"/>
    <tag k="ref" v="MR6"/>
  </way>
  <way id="53831108" version="3" timestamp="2010-07-08T12:18:20Z" uid="299678" user="peteramjet" changeset="5165746">
    <nd ref="31910193"/>
    <nd ref="31910194"/>
    <nd ref="31910195"/>
    <nd ref="31910196"/>
    <nd ref="31910197"/>
    <nd ref="31910198"/>
    <nd ref="60282030"/>
    <nd ref="60282029"/>
    <nd ref="60282028"/>
    <nd ref="60282027"/>
    <nd ref="60282026"/>
    <nd ref="60282025"/>
    <nd ref="60282024"/>
    <nd ref="60282023"/>
    <tag k="highway" v="trunk"/>
    <tag k="name" v="Stewart Street"/>
    <tag k="oneway" v="yes"/>
  </way>
  <way id="53831108" version="4" timestamp="2010-11-20T02:57:45Z" uid="7617" user="Franc" changeset="6411645">
    <nd ref="31910193"/>
    <nd ref="31910194"/>
    <nd ref="31910195"/>
    <nd ref="31910196"/>
    <nd ref="31910197"/>
    <nd ref="31910198"/>
    <nd ref="60282030"/>
    <nd ref="60282029"/>
    <nd ref="60282028"/>
    <nd ref="60282027"/>
    <nd ref="60282026"/>
    <nd ref="60282025"/>
    <nd ref="60282024"/>
    <nd ref="27028078"/>
    <tag k="highway" v="trunk"/>
    <tag k="name" v="Stewart Street"/>
    <tag k="oneway" v="yes"/>
  </way>
  <way id="53831108" version="5" timestamp="2012-02-02T01:25:32Z" uid="54784" user="Tom Hollander" changeset="10564041">
    <nd ref="31910193"/>
    <nd ref="31910194"/>
    <nd ref="31910195"/>
    <nd ref="31910196"/>
    <nd ref="31910197"/>
    <nd ref="31910198"/>
    <nd ref="60282030"/>
    <nd ref="60282029"/>
    <nd ref="60282028"/>
    <nd ref="60282027"/>
    <nd ref="60282026"/>
    <nd ref="60282025"/>
    <nd ref="60282024"/>
    <nd ref="27028078"/>
    <tag k="highway" v="trunk"/>
    <tag k="name" v="Stewart Street"/>
    <tag k="oneway" v="yes"/>
    <tag k="ref" v="MR6"/>
  </way>
  <way id="53831108" version="6" timestamp="2012-02-06T05:22:30Z" uid="7523" user="inas" changeset="10600252">
    <nd ref="31910193"/>
    <nd ref="31910194"/>
    <nd ref="31910195"/>
    <nd ref="31910196"/>
    <nd ref="1619777017"/>
    <tag k="highway" v="trunk"/>
    <tag k="name" v="Stewart Street"/>
    <tag k="oneway" v="yes"/>
    <tag k="ref" v="MR6"/>
  </way>
  <way id="53831108" version="7" timestamp="2012-02-23T03:02:35Z" uid="412739" user="efAston" changeset="10765009">
    <nd ref="31910193"/>
    <nd ref="31910194"/>
    <nd ref="31910195"/>
    <nd ref="31910196"/>
    <nd ref="1619777017"/>
    <tag k="bicycle" v="yes"/>
    <tag k="cycleway" v="no"/>
    <tag k="highway" v="trunk"/>
    <tag k="name" v="Stewart Street"/>
    <tag k="oneway" v="yes"/>
    <tag k="ref" v="MR6"/>
    <tag k="surface" v="asphalt"/>
  </way>
  <way id="53831109" version="1" timestamp="2010-04-01T05:10:42Z" uid="74617" user="JohnSmith" changeset="4291104">
    <nd ref="31910013"/>
    <nd ref="60025190"/>
    <nd ref="60025191"/>
    <nd ref="420556106"/>
    <tag k="highway" v="trunk"/>
    <tag k="layer" v="1"/>
    <tag k="name" v="Silverwater Road"/>
    <tag k="oneway" v="yes"/>
  </way>
  <way id="53831109" version="2" timestamp="2010-04-01T05:14:20Z" uid="74617" user="JohnSmith" changeset="4291104"/>
  <way id="53831372" version="1" timestamp="2010-04-01T05:14:17Z" uid="74617" user="JohnSmith" changeset="4291104">
    <nd ref="679631970"/>
    <nd ref="582782570"/>
    <tag k="bridge" v="yes"/>
    <tag k="highway" v="trunk"/>
    <tag k="layer" v="1"/>
    <tag k="name" v="Silverwater Road"/>
    <tag k="oneway" v="yes"/>
  </way>
  <way id="53831372" version="2" timestamp="2010-04-01T05:36:48Z" uid="74617" user="JohnSmith" changeset="4291104">
    <nd ref="679631970"/>
    <nd ref="582782570"/>
    <tag k="bridge" v="yes"/>
    <tag k="highway" v="trunk"/>
    <tag k="layer" v="1"/>
    <tag k="maxspeed" v="80"/>
    <tag k="name" v="Silverwater Road"/>
    <tag k="oneway" v="yes"/>
  </way>
  <way id="53831372" version="3" timestamp="2010-06-30T08:54:25Z" uid="299678" user="peteramjet" changeset="5111867">
    <nd ref="679631970"/>
    <nd ref="582782570"/>
    <tag k="bridge" v="yes"/>
    <tag k="highway" v="trunk"/>
    <tag k="layer" v="1"/>
    <tag k="maxspeed" v="80"/>
    <tag k="name" v="Silverwater Road"/>
    <tag k="oneway" v="yes"/>
    <tag k="ref" v="MR6"/>
  </way>
  <way id="53831372" version="4" timestamp="2010-07-09T22:34:19Z" uid="299678" user="peteramjet" changeset="5177730">
    <nd ref="679631970"/>
    <nd ref="582782570"/>
    <tag k="bridge" v="yes"/>
    <tag k="highway" v="trunk"/>
    <tag k="layer" v="1"/>
    <tag k="maxspeed" v="80"/>
    <tag k="name" v="Silverwater Road"/>
    <tag k="oneway" v="yes"/>
  </way>
  <way id="53831372" version="5" timestamp="2012-02-02T01:25:34Z" uid="54784" user="Tom Hollander" changeset="10564041">
    <nd ref="679631970"/>
    <nd ref="582782570"/>
    <tag k="bridge" v="yes"/>
    <tag k="highway" v="trunk"/>
    <tag k="layer" v="1"/>
    <tag k="maxspeed" v="80"/>
    <tag k="name" v="Silverwater Road"/>
    <tag k="oneway" v="yes"/>
    <tag k="ref" v="MR6"/>
  </way>
  <way id="53831372" version="6" timestamp="2012-03-13T22:26:24Z" uid="7523" user="inas" changeset="10972887">
    <nd ref="679631970"/>
    <nd ref="582782570"/>
    <tag k="bridge" v="yes"/>
    <tag k="highway" v="trunk"/>
    <tag k="layer" v="1"/>
    <tag k="maxspeed" v="80"/>
    <tag k="name" v="Silverwater Road"/>
    <tag k="network" v="MR"/>
    <tag k="oneway" v="yes"/>
    <tag k="ref" v="6"/>
  </way>
  <way id="53831372" version="7" timestamp="2012-03-14T01:02:01Z" uid="7523" user="inas" changeset="10973417"/>
  <way id="53831374" version="1" timestamp="2010-04-01T05:14:17Z" uid="74617" user="JohnSmith" changeset="4291104">
    <nd ref="679631971"/>
    <nd ref="582782571"/>
    <tag k="bridge" v="yes"/>
    <tag k="highway" v="trunk_link"/>
    <tag k="layer" v="1"/>
    <tag k="name" v="River Road Exit"/>
    <tag k="oneway" v="yes"/>
  </way>
  <way id="53831374" version="2" timestamp="2012-02-02T01:25:34Z" uid="54784" user="Tom Hollander" changeset="10564041">
    <nd ref="679631971"/>
    <nd ref="582782571"/>
    <tag k="bridge" v="yes"/>
    <tag k="highway" v="trunk_link"/>
    <tag k="layer" v="1"/>
    <tag k="name" v="River Road Exit"/>
    <tag k="oneway" v="yes"/>
    <tag k="ref" v="SH40"/>
  </way>
  <way id="53831374" version="3" timestamp="2012-03-14T01:02:01Z" uid="7523" user="inas" changeset="10973417"/>
  <way id="53831376" version="1" timestamp="2010-04-01T05:14:17Z" uid="74617" user="JohnSmith" changeset="4291104">
    <nd ref="420556096"/>
    <nd ref="420556097"/>
    <tag k="highway" v="footway"/>
    <tag k="layer" v="-1"/>
    <tag k="surface" v="paved"/>
    <tag k="tunnel" v="yes"/>
  </way>
  <way id="53831378" version="1" timestamp="2010-04-01T05:14:17Z" uid="74617" user="JohnSmith" changeset="4291104">
    <nd ref="420556097"/>
    <nd ref="420556098"/>
    <nd ref="420556099"/>
    <tag k="highway" v="footway"/>
    <tag k="layer" v="-1"/>
    <tag k="surface" v="paved"/>
  </way>
  <way id="53831435" version="1" timestamp="2010-04-01T05:20:18Z" uid="74617" user="JohnSmith" changeset="4291104">
    <nd ref="679633341"/>
    <nd ref="60025998"/>
    <nd ref="679633338"/>
    <nd ref="679633336"/>
    <nd ref="679633329"/>
    <nd ref="60025555"/>
    <tag k="highway" v="trunk_link"/>
    <tag k="maxspeed" v="80"/>
    <tag k="oneway" v="yes"/>
  </way>
  <way id="53831435" version="2" timestamp="2012-02-02T01:25:34Z" uid="54784" user="Tom Hollander" changeset="10564041">
    <nd ref="679633341"/>
    <nd ref="60025998"/>
    <nd ref="679633338"/>
    <nd ref="679633336"/>
    <nd ref="679633329"/>
    <nd ref="60025555"/>
    <tag k="highway" v="trunk_link"/>
    <tag k="maxspeed" v="80"/>
    <tag k="oneway" v="yes"/>
    <tag k="ref" v="MR6"/>
  </way>
  <way id="53831435" version="3" timestamp="2012-03-14T01:02:00Z" uid="7523" user="inas" changeset="10973417"/>
  <way id="53831436" version="1" timestamp="2010-04-01T05:20:20Z" uid="74617" user="JohnSmith" changeset="4291104">
    <nd ref="60026373"/>
    <nd ref="679633344"/>
    <nd ref="679633343"/>
    <nd ref="679633342"/>
    <nd ref="679633339"/>
    <nd ref="60025554"/>
    <tag k="bridge" v="yes"/>
    <tag k="highway" v="trunk_link"/>
    <tag k="layer" v="1"/>
    <tag k="name" v="Silverwater Road OnRamp"/>
    <tag k="oneway" v="yes"/>
  </way>
  <way id="53831436" version="2" timestamp="2012-02-02T01:25:34Z" uid="54784" user="Tom Hollander" changeset="10564041">
    <nd ref="60026373"/>
    <nd ref="679633344"/>
    <nd ref="679633343"/>
    <nd ref="679633342"/>
    <nd ref="679633339"/>
    <nd ref="60025554"/>
    <tag k="bridge" v="yes"/>
    <tag k="highway" v="trunk_link"/>
    <tag k="layer" v="1"/>
    <tag k="name" v="Silverwater Road OnRamp"/>
    <tag k="oneway" v="yes"/>
    <tag k="ref" v="MR6"/>
  </way>
  <way id="53831436" version="3" timestamp="2012-03-14T01:02:01Z" uid="7523" user="inas" changeset="10973417"/>
  <way id="53831510" version="1" timestamp="2010-04-01T05:36:46Z" uid="74617" user="JohnSmith" changeset="4291104">
    <nd ref="679636953"/>
    <nd ref="60026579"/>
    <nd ref="60026562"/>
    <nd ref="60026578"/>
    <nd ref="60026566"/>
    <nd ref="60026567"/>
    <nd ref="60026568"/>
    <nd ref="60026569"/>
    <nd ref="60026560"/>
    <nd ref="60284011"/>
    <nd ref="60026559"/>
    <nd ref="60026558"/>
    <nd ref="270197982"/>
    <nd ref="30381742"/>
    <tag k="highway" v="trunk"/>
    <tag k="maxspeed" v="70"/>
    <tag k="name" v="Silverwater Road"/>
    <tag k="oneway" v="yes"/>
  </way>
  <way id="53831510" version="2" timestamp="2010-06-19T03:20:09Z" uid="299678" user="peteramjet" changeset="5020744">
    <nd ref="679636953"/>
    <nd ref="60026579"/>
    <nd ref="60026562"/>
    <nd ref="60026578"/>
    <nd ref="60026566"/>
    <nd ref="60026567"/>
    <nd ref="60026568"/>
    <nd ref="60026569"/>
    <nd ref="60026560"/>
    <nd ref="60284011"/>
    <nd ref="60026559"/>
    <nd ref="775915211"/>
    <nd ref="775915192"/>
    <nd ref="60026558"/>
    <nd ref="270197982"/>
    <nd ref="775915203"/>
    <nd ref="30381742"/>
    <tag k="highway" v="trunk"/>
    <tag k="maxspeed" v="70"/>
    <tag k="name" v="Silverwater Road"/>
    <tag k="oneway" v="yes"/>
  </way>
  <way id="53831510" version="3" timestamp="2010-06-30T08:58:19Z" uid="299678" user="peteramjet" changeset="5111867">
    <nd ref="679636953"/>
    <nd ref="60026579"/>
    <nd ref="60026562"/>
    <nd ref="60026578"/>
    <nd ref="60026566"/>
    <nd ref="60026567"/>
    <nd ref="60026568"/>
    <nd ref="60026569"/>
    <nd ref="60026560"/>
    <nd ref="60284011"/>
    <nd ref="60026559"/>
    <nd ref="775915211"/>
    <nd ref="775915192"/>
    <nd ref="60026558"/>
    <nd ref="270197982"/>
    <nd ref="775915203"/>
    <nd ref="30381742"/>
    <tag k="highway" v="trunk"/>
    <tag k="maxspeed" v="70"/>
    <tag k="name" v="Silverwater Road"/>
    <tag k="oneway" v="yes"/>
    <tag k="ref" v="MR6"/>
  </way>
  <way id="53831510" version="4" timestamp="2010-07-08T12:26:48Z" uid="299678" user="peteramjet" changeset="5165746">
    <nd ref="679636953"/>
    <nd ref="60026579"/>
    <nd ref="60026562"/>
    <nd ref="60026578"/>
    <nd ref="60026566"/>
    <nd ref="60026567"/>
    <nd ref="60026568"/>
    <nd ref="60026569"/>
    <nd ref="60026560"/>
    <nd ref="60284011"/>
    <nd ref="60026559"/>
    <nd ref="775915211"/>
    <nd ref="775915192"/>
    <nd ref="60026558"/>
    <nd ref="270197982"/>
    <nd ref="775915203"/>
    <nd ref="30381742"/>
    <tag k="highway" v="trunk"/>
    <tag k="maxspeed" v="70"/>
    <tag k="name" v="Silverwater Road"/>
    <tag k="oneway" v="yes"/>
  </way>
  <way id="53831510" version="5" timestamp="2011-05-21T13:52:24Z" uid="7617" user="Franc" changeset="8206884">
    <nd ref="679636953"/>
    <nd ref="60026579"/>
    <nd ref="60026562"/>
    <nd ref="60026578"/>
    <nd ref="60026566"/>
    <nd ref="60026567"/>
    <nd ref="60026568"/>
    <nd ref="60026569"/>
    <nd ref="60026560"/>
    <nd ref="60284011"/>
    <nd ref="60026559"/>
    <nd ref="775915211"/>
    <nd ref="775915192"/>
    <nd ref="60026558"/>
    <nd ref="270197982"/>
    <nd ref="775915203"/>
    <nd ref="1294904211"/>
    <tag k="highway" v="trunk"/>
    <tag k="maxspeed" v="70"/>
    <tag k="name" v="Silverwater Road"/>
    <tag k="oneway" v="yes"/>
  </way>
  <way id="53831510" version="6" timestamp="2012-02-02T01:25:35Z" uid="54784" user="Tom Hollander" changeset="10564041">
    <nd ref="679636953"/>
    <nd ref="60026579"/>
    <nd ref="60026562"/>
    <nd ref="60026578"/>
    <nd ref="60026566"/>
    <nd ref="60026567"/>
    <nd ref="60026568"/>
    <nd ref="60026569"/>
    <nd ref="60026560"/>
    <nd ref="60284011"/>
    <nd ref="60026559"/>
    <nd ref="775915211"/>
    <nd ref="775915192"/>
    <nd ref="60026558"/>
    <nd ref="270197982"/>
    <nd ref="775915203"/>
    <nd ref="1294904211"/>
    <tag k="highway" v="trunk"/>
    <tag k="maxspeed" v="70"/>
    <tag k="name" v="Silverwater Road"/>
    <tag k="oneway" v="yes"/>
    <tag k="ref" v="MR6"/>
  </way>
  <way id="53831510" version="7" timestamp="2012-03-12T05:21:39Z" uid="7523" user="inas" changeset="10950679"/>
  <way id="53831511" version="1" timestamp="2010-04-01T05:36:46Z" uid="74617" user="JohnSmith" changeset="4291104">
    <nd ref="679636952"/>
    <nd ref="60025221"/>
    <tag k="highway" v="trunk"/>
    <tag k="maxspeed" v="80"/>
    <tag k="name" v="Silverwater Road"/>
    <tag k="oneway" v="yes"/>
  </way>
  <way id="53831511" version="2" timestamp="2010-06-30T08:58:19Z" uid="299678" user="peteramjet" changeset="5111867">
    <nd ref="679636952"/>
    <nd ref="60025221"/>
    <tag k="highway" v="trunk"/>
    <tag k="maxspeed" v="80"/>
    <tag k="name" v="Silverwater Road"/>
    <tag k="oneway" v="yes"/>
    <tag k="ref" v="MR6"/>
  </way>
  <way id="53831511" version="3" timestamp="2010-07-08T12:22:18Z" uid="299678" user="peteramjet" changeset="5165746">
    <nd ref="679636952"/>
    <nd ref="60025221"/>
    <tag k="highway" v="trunk"/>
    <tag k="maxspeed" v="80"/>
    <tag k="name" v="Silverwater Road"/>
    <tag k="oneway" v="yes"/>
  </way>
  <way id="53831511" version="4" timestamp="2012-02-02T01:25:35Z" uid="54784" user="Tom Hollander" changeset="10564041">
    <nd ref="679636952"/>
    <nd ref="60025221"/>
    <tag k="highway" v="trunk"/>
    <tag k="maxspeed" v="80"/>
    <tag k="name" v="Silverwater Road"/>
    <tag k="oneway" v="yes"/>
    <tag k="ref" v="MR6"/>
  </way>
  <way id="53831511" version="5" timestamp="2012-03-12T05:21:39Z" uid="7523" user="inas" changeset="10950679"/>
  <way id="53831512" version="1" timestamp="2010-04-01T05:36:46Z" uid="74617" user="JohnSmith" changeset="4291104">
    <nd ref="679636955"/>
    <nd ref="60024741"/>
    <nd ref="31910308"/>
    <nd ref="679629626"/>
    <nd ref="31910193"/>
    <tag k="highway" v="trunk"/>
    <tag k="maxspeed" v="70"/>
    <tag k="name" v="Silverwater Road"/>
    <tag k="oneway" v="yes"/>
  </way>
  <way id="53831512" version="2" timestamp="2010-06-30T08:53:16Z" uid="299678" user="peteramjet" changeset="5111867">
    <nd ref="679636955"/>
    <nd ref="60024741"/>
    <nd ref="31910308"/>
    <nd ref="679629626"/>
    <nd ref="31910193"/>
    <tag k="highway" v="trunk"/>
    <tag k="maxspeed" v="70"/>
    <tag k="name" v="Silverwater Road"/>
    <tag k="oneway" v="yes"/>
    <tag k="ref" v="MR6"/>
  </way>
  <way id="53831512" version="3" timestamp="2010-07-08T12:18:21Z" uid="299678" user="peteramjet" changeset="5165746">
    <nd ref="679636955"/>
    <nd ref="60024741"/>
    <nd ref="31910308"/>
    <nd ref="679629626"/>
    <nd ref="31910193"/>
    <tag k="highway" v="trunk"/>
    <tag k="maxspeed" v="70"/>
    <tag k="name" v="Silverwater Road"/>
    <tag k="oneway" v="yes"/>
  </way>
  <way id="53831512" version="4" timestamp="2010-12-27T10:17:51Z" uid="7617" user="Franc" changeset="6775930">
    <nd ref="679636955"/>
    <nd ref="60024741"/>
    <nd ref="31910308"/>
    <nd ref="679629626"/>
    <nd ref="1067430292"/>
    <nd ref="31910193"/>
    <tag k="highway" v="trunk"/>
    <tag k="maxspeed" v="70"/>
    <tag k="name" v="Silverwater Road"/>
    <tag k="oneway" v="yes"/>
  </way>
  <way id="53831512" version="5" timestamp="2012-02-02T01:25:36Z" uid="54784" user="Tom Hollander" changeset="10564041">
    <nd ref="679636955"/>
    <nd ref="60024741"/>
    <nd ref="31910308"/>
    <nd ref="679629626"/>
    <nd ref="1067430292"/>
    <nd ref="31910193"/>
    <tag k="highway" v="trunk"/>
    <tag k="maxspeed" v="70"/>
    <tag k="name" v="Silverwater Road"/>
    <tag k="oneway" v="yes"/>
    <tag k="ref" v="MR6"/>
  </way>
  <way id="53831512" version="6" timestamp="2012-03-12T05:21:38Z" uid="7523" user="inas" changeset="10950679"/>
  <way id="53831539" version="1" timestamp="2010-04-01T05:44:05Z" uid="242497" user="vlchung" changeset="4291263">
    <nd ref="51402675"/>
    <nd ref="30979682"/>
    <nd ref="30979673"/>
    <nd ref="51402739"/>
    <nd ref="30979662"/>
    <nd ref="600267743"/>
    <nd ref="469344055"/>
    <nd ref="566677447"/>
    <nd ref="30979657"/>
    <tag k="highway" v="motorway"/>
    <tag k="maxspeed" v="80"/>
    <tag k="name" v="Mitchell Freeway"/>
    <tag k="oneway" v="yes"/>
    <tag k="ref" v="S2"/>
  </way>
  <way id="53831539" version="2" timestamp="2010-07-17T13:13:22Z" uid="4467" user="Rosscoe" changeset="5242458">
    <nd ref="51402675"/>
    <nd ref="30979682"/>
    <nd ref="30979673"/>
    <nd ref="51402739"/>
    <nd ref="30979662"/>
    <nd ref="600267743"/>
    <nd ref="469344055"/>
    <nd ref="566677447"/>
    <nd ref="821855603"/>
    <nd ref="30979657"/>
    <tag k="highway" v="motorway"/>
    <tag k="maxspeed" v="80"/>
    <tag k="name" v="Mitchell Freeway"/>
    <tag k="oneway" v="yes"/>
    <tag k="ref" v="S2"/>
  </way>
  <way id="53831539" version="3" timestamp="2012-02-11T09:15:42Z" uid="142807" user="SDavies" changeset="10650484">
    <nd ref="51402675"/>
    <nd ref="30979682"/>
    <nd ref="51402739"/>
    <nd ref="1627972389"/>
    <nd ref="1627972392"/>
    <nd ref="1627972402"/>
    <nd ref="30979662"/>
    <nd ref="600267743"/>
    <nd ref="469344055"/>
    <nd ref="566677447"/>
    <nd ref="30979657"/>
    <tag k="highway" v="motorway"/>
    <tag k="maxspeed" v="80"/>
    <tag k="name" v="Mitchell Freeway"/>
    <tag k="oneway" v="yes"/>
    <tag k="ref" v="S2"/>
  </way>
  <way id="53831592" version="2" timestamp="2011-05-15T11:16:58Z" uid="1066" user="pavel" changeset="8150508">
    <nd ref="272088674"/>
    <nd ref="1286176098"/>
    <nd ref="272088671"/>
    <nd ref="272088669"/>
    <nd ref="272088668"/>
    <nd ref="272088666"/>
    <nd ref="272088664"/>
    <nd ref="272088663"/>
    <nd ref="272088662"/>
    <tag k="highway" v="track"/>
    <tag k="tracktype" v="grade3"/>
  </way>
  <way id="53831732" version="1" timestamp="2010-04-01T06:02:02Z" uid="74617" user="JohnSmith" changeset="4291104">
    <nd ref="582770108"/>
    <nd ref="582770098"/>
    <nd ref="582770116"/>
    <nd ref="582770087"/>
    <nd ref="443604684"/>
    <tag k="highway" v="secondary"/>
    <tag k="name" v="Rawson Street"/>
    <tag k="note" v="no street sign - 20090719"/>
    <tag k="oneway" v="yes"/>
    <tag k="source" v="survey"/>
  </way>
  <way id="53831732" version="2" timestamp="2012-03-12T05:21:38Z" uid="7523" user="inas" changeset="10950679"/>
  <way id="53831733" version="1" timestamp="2010-04-01T06:02:04Z" uid="74617" user="JohnSmith" changeset="4291104">
    <nd ref="60027274"/>
    <nd ref="60027404"/>
    <nd ref="582770108"/>
    <tag k="highway" v="secondary"/>
    <tag k="maxspeed" v="70"/>
    <tag k="name" v="St Hilliers Road"/>
    <tag k="oneway" v="yes"/>
    <tag k="source:name" v="knowledge"/>
  </way>
  <way id="53831733" version="2" timestamp="2012-03-12T05:21:39Z" uid="7523" user="inas" changeset="10950679"/>
  <way id="53831734" version="1" timestamp="2010-04-01T06:02:04Z" uid="74617" user="JohnSmith" changeset="4291104">
    <nd ref="60027269"/>
    <nd ref="256173574"/>
    <nd ref="60027270"/>
    <nd ref="60027271"/>
    <nd ref="60027272"/>
    <tag k="highway" v="trunk"/>
    <tag k="name" v="Boorea Avenue"/>
    <tag k="oneway" v="yes"/>
  </way>
  <way id="53831734" version="2" timestamp="2010-06-30T08:58:15Z" uid="299678" user="peteramjet" changeset="5111867">
    <nd ref="60027269"/>
    <nd ref="256173574"/>
    <nd ref="60027270"/>
    <nd ref="60027271"/>
    <nd ref="60027272"/>
    <tag k="highway" v="trunk"/>
    <tag k="name" v="Boorea Avenue"/>
    <tag k="oneway" v="yes"/>
    <tag k="ref" v="MR6"/>
  </way>
  <way id="53831734" version="3" timestamp="2010-07-08T12:26:43Z" uid="299678" user="peteramjet" changeset="5165746">
    <nd ref="60027269"/>
    <nd ref="256173574"/>
    <nd ref="60027270"/>
    <nd ref="60027271"/>
    <nd ref="60027272"/>
    <tag k="highway" v="trunk"/>
    <tag k="name" v="Boorea Avenue"/>
    <tag k="oneway" v="yes"/>
  </way>
  <way id="53831734" version="4" timestamp="2012-02-02T01:25:36Z" uid="54784" user="Tom Hollander" changeset="10564041">
    <nd ref="60027269"/>
    <nd ref="256173574"/>
    <nd ref="60027270"/>
    <nd ref="60027271"/>
    <nd ref="60027272"/>
    <tag k="highway" v="trunk"/>
    <tag k="name" v="Boorea Avenue"/>
    <tag k="oneway" v="yes"/>
    <tag k="ref" v="MR6"/>
  </way>
  <way id="53831734" version="5" timestamp="2012-03-12T05:21:29Z" uid="7523" user="inas" changeset="10950679"/>
</osm>
