<?xml version='1.0' encoding='UTF-8'?>
<osm version="0.6" generator="libosmium/2.20.0">
  <way id="53849096" version="3" timestamp="2010-04-03T16:53:30Z" uid="20587" user="balrog-kun" changeset="4312936">
    <nd ref="43694633"/>
    <nd ref="43694635"/>
    <nd ref="43694638"/>
    <nd ref="679866872"/>
    <nd ref="679866874"/>
    <nd ref="679866876"/>
    <nd ref="679866878"/>
    <nd ref="43686526"/>
    <nd ref="679866880"/>
    <nd ref="43694659"/>
    <nd ref="43692109"/>
    <tag k="highway" v="residential"/>
    <tag k="name" v="Jocko Street"/>
    <tag k="tiger:cfcc" v="A41"/>
    <tag k="tiger:county" v="Lake, MT"/>
    <tag k="tiger:name_base" v="Jocko"/>
    <tag k="tiger:name_type" v="St"/>
    <tag k="tiger:reviewed" v="no"/>
    <tag k="tiger:separated" v="no"/>
    <tag k="tiger:source" v="tiger_import_dch_v0.6_20070813"/>
    <tag k="tiger:tlid" v="206910110:206902890"/>
  </way>
  <way id="53849448" version="1" timestamp="2010-04-01T15:04:03Z" uid="74617" user="JohnSmith" changeset="4294227">
    <nd ref="60456092"/>
    <nd ref="34212837"/>
    <tag k="highway" v="primary"/>
    <tag k="maxspeed" v="80"/>
    <tag k="name" v="Hume Highway"/>
    <tag k="oneway" v="yes"/>
  </way>
  <way id="53849448" version="2" timestamp="2010-06-19T10:23:23Z" uid="299678" user="peteramjet" changeset="5022368">
    <nd ref="60456092"/>
    <nd ref="34212837"/>
    <tag k="highway" v="primary"/>
    <tag k="maxspeed" v="80"/>
    <tag k="name" v="South Western Freeway"/>
    <tag k="oneway" v="yes"/>
  </way>
  <way id="53849448" version="3" timestamp="2010-06-19T10:31:12Z" uid="299678" user="peteramjet" changeset="5022484">
    <nd ref="60456092"/>
    <nd ref="34212837"/>
    <tag k="highway" v="primary"/>
    <tag k="maxspeed" v="80"/>
    <tag k="name" v="Hume Highway"/>
    <tag k="oneway" v="yes"/>
  </way>
  <way id="53849448" version="4" timestamp="2012-03-28T22:14:52Z" uid="7523" user="inas" changeset="11131960">
    <nd ref="60456092"/>
    <nd ref="34212837"/>
    <nd ref="34212838"/>
    <nd ref="34212839"/>
    <nd ref="34212840"/>
    <nd ref="34212841"/>
    <nd ref="34212842"/>
    <nd ref="34212843"/>
    <nd ref="677376685"/>
    <nd ref="1695318198"/>
    <nd ref="1695318199"/>
    <tag k="highway" v="motorway_link"/>
    <tag k="maxspeed" v="80"/>
    <tag k="name" v="Hume Highway"/>
    <tag k="oneway" v="yes"/>
  </way>
  <way id="53849450" version="1" timestamp="2010-04-01T15:04:06Z" uid="74617" user="JohnSmith" changeset="4294227">
    <nd ref="19127220"/>
    <nd ref="60456130"/>
    <nd ref="34212834"/>
    <nd ref="34212835"/>
    <nd ref="264601521"/>
    <nd ref="599906739"/>
    <tag k="highway" v="primary"/>
    <tag k="maxspeed" v="70"/>
    <tag k="name" v="Hume Highway"/>
    <tag k="oneway" v="yes"/>
  </way>
  <way id="53849742" version="1" timestamp="2010-04-01T15:10:37Z" uid="74617" user="JohnSmith" changeset="4294227">
    <nd ref="360071384"/>
    <nd ref="679005883"/>
    <nd ref="570241487"/>
    <tag k="highway" v="motorway_link"/>
    <tag k="maxspeed" v="100"/>
    <tag k="oneway" v="yes"/>
  </way>
  <way id="53849742" version="2" timestamp="2010-06-19T10:15:15Z" uid="299678" user="peteramjet" changeset="5022368">
    <nd ref="360071384"/>
    <nd ref="679005883"/>
    <nd ref="570241487"/>
    <tag k="highway" v="motorway_link"/>
    <tag k="maxspeed" v="100"/>
    <tag k="name" v="M5 South Western Motorway"/>
    <tag k="oneway" v="yes"/>
  </way>
  <way id="53849742" version="3" timestamp="2012-01-30T07:29:18Z" uid="54784" user="Tom Hollander" changeset="10536990">
    <nd ref="360071384"/>
    <nd ref="679005883"/>
    <nd ref="570241487"/>
    <tag k="highway" v="motorway_link"/>
    <tag k="maxspeed" v="100"/>
    <tag k="name" v="M5 South Western Motorway"/>
    <tag k="oneway" v="yes"/>
    <tag k="ref" v="M5"/>
  </way>
  <way id="53849742" version="4" timestamp="2012-03-28T23:40:25Z" uid="7523" user="inas" changeset="11132441"/>
  <way id="53849743" version="1" timestamp="2010-04-01T15:10:38Z" uid="74617" user="JohnSmith" changeset="4294227">
    <nd ref="60455980"/>
    <nd ref="679006016"/>
    <nd ref="679006013"/>
    <nd ref="679006012"/>
    <nd ref="35291428"/>
    <nd ref="679006009"/>
    <nd ref="255997321"/>
    <nd ref="35291427"/>
    <tag k="highway" v="motorway"/>
    <tag k="maxspeed" v="100"/>
    <tag k="oneway" v="yes"/>
  </way>
  <way id="53849743" version="2" timestamp="2010-06-18T01:23:16Z" uid="299678" user="peteramjet" changeset="5013360">
    <nd ref="60455980"/>
    <nd ref="679006016"/>
    <nd ref="679006013"/>
    <nd ref="679006012"/>
    <nd ref="35291428"/>
    <nd ref="679006009"/>
    <nd ref="255997321"/>
    <nd ref="35291427"/>
    <tag k="highway" v="motorway"/>
    <tag k="maxspeed" v="100"/>
    <tag k="name" v="Westlink M7"/>
    <tag k="oneway" v="yes"/>
  </way>
  <way id="53849743" version="3" timestamp="2010-06-19T02:46:41Z" uid="299678" user="peteramjet" changeset="5020602">
    <nd ref="60455980"/>
    <nd ref="679006016"/>
    <nd ref="679006013"/>
    <nd ref="679006012"/>
    <nd ref="35291428"/>
    <nd ref="679006009"/>
    <nd ref="255997321"/>
    <nd ref="35291427"/>
    <tag k="highway" v="motorway"/>
    <tag k="maxspeed" v="100"/>
    <tag k="name" v="M5 South Western Motorway Exit"/>
    <tag k="oneway" v="yes"/>
  </way>
  <way id="53849743" version="4" timestamp="2010-06-30T11:35:07Z" uid="299678" user="peteramjet" changeset="5112617">
    <nd ref="60455980"/>
    <nd ref="679006016"/>
    <nd ref="679006013"/>
    <nd ref="679006012"/>
    <nd ref="35291428"/>
    <nd ref="679006009"/>
    <nd ref="255997321"/>
    <nd ref="35291427"/>
    <tag k="highway" v="motorway"/>
    <tag k="maxspeed" v="100"/>
    <tag k="name" v="Westlink M7"/>
    <tag k="oneway" v="yes"/>
    <tag k="ref" v="M7"/>
  </way>
  <way id="53849743" version="5" timestamp="2010-07-08T11:32:02Z" uid="299678" user="peteramjet" changeset="5165369">
    <nd ref="60455980"/>
    <nd ref="679006016"/>
    <nd ref="679006013"/>
    <nd ref="679006012"/>
    <nd ref="35291428"/>
    <nd ref="679006009"/>
    <nd ref="255997321"/>
    <nd ref="35291427"/>
    <tag k="highway" v="motorway"/>
    <tag k="maxspeed" v="100"/>
    <tag k="name" v="Westlink M7"/>
    <tag k="oneway" v="yes"/>
  </way>
  <way id="53849743" version="6" timestamp="2011-06-28T01:16:07Z" uid="11111" user="melb_guy" changeset="8567687">
    <nd ref="60455980"/>
    <nd ref="679006016"/>
    <nd ref="679006013"/>
    <nd ref="679006012"/>
    <nd ref="35291428"/>
    <nd ref="679006009"/>
    <nd ref="255997321"/>
    <nd ref="35291427"/>
    <tag k="highway" v="motorway"/>
    <tag k="maxspeed" v="100"/>
    <tag k="name" v="Westlink M7"/>
    <tag k="oneway" v="yes"/>
    <tag k="toll" v="yes"/>
  </way>
  <way id="53849743" version="7" timestamp="2012-03-22T23:21:09Z" uid="7523" user="inas" changeset="11069008"/>
  <way id="53849744" version="1" timestamp="2010-04-01T15:10:38Z" uid="74617" user="JohnSmith" changeset="4294227">
    <nd ref="34212650"/>
    <nd ref="32892446"/>
    <tag k="highway" v="motorway_link"/>
    <tag k="oneway" v="yes"/>
  </way>
  <way id="53849744" version="2" timestamp="2010-06-19T10:08:19Z" uid="299678" user="peteramjet" changeset="5022216">
    <nd ref="34212650"/>
    <nd ref="34212650"/>
    <nd ref="34212650"/>
    <nd ref="34212650"/>
    <nd ref="34212650"/>
    <tag k="highway" v="motorway_link"/>
    <tag k="oneway" v="yes"/>
  </way>
  <way id="53849744" version="3" timestamp="2010-06-19T21:28:20Z" uid="70696" user="xybot" changeset="5026580"/>
  <way id="53849983" version="1" timestamp="2010-04-01T15:17:34Z" uid="74617" user="JohnSmith" changeset="4294227">
    <nd ref="152711500"/>
    <nd ref="36401887"/>
    <nd ref="36536031"/>
    <nd ref="36401888"/>
    <nd ref="276329214"/>
    <nd ref="36401889"/>
    <nd ref="36401890"/>
    <nd ref="258252881"/>
    <nd ref="276314249"/>
    <nd ref="258251300"/>
    <nd ref="276314252"/>
    <nd ref="36401891"/>
    <nd ref="276314259"/>
    <nd ref="36401892"/>
    <nd ref="276314260"/>
    <nd ref="258250413"/>
    <nd ref="36401893"/>
    <nd ref="608086024"/>
    <nd ref="36401894"/>
    <nd ref="252991180"/>
    <tag k="highway" v="primary"/>
    <tag k="maxspeed" v="60"/>
    <tag k="name" v="Hume Highway"/>
    <tag k="oneway" v="yes"/>
    <tag k="ref" v="S31"/>
  </way>
  <way id="53849983" version="2" timestamp="2010-04-01T17:25:08Z" uid="74617" user="JohnSmith" changeset="4295913">
    <nd ref="152711500"/>
    <nd ref="36401887"/>
    <nd ref="36536031"/>
    <nd ref="36401888"/>
    <nd ref="276329214"/>
    <nd ref="36401889"/>
    <nd ref="36401890"/>
    <nd ref="258252881"/>
    <nd ref="276314249"/>
    <nd ref="258251300"/>
    <nd ref="276314252"/>
    <nd ref="36401891"/>
    <nd ref="276314259"/>
    <nd ref="36401892"/>
    <nd ref="276314260"/>
    <nd ref="258250413"/>
    <nd ref="36401893"/>
    <nd ref="608086024"/>
    <nd ref="36401894"/>
    <nd ref="252991180"/>
    <tag k="highway" v="primary"/>
    <tag k="maxspeed" v="60"/>
    <tag k="name" v="Hume Highway"/>
    <tag k="oneway" v="yes"/>
  </way>
  <way id="53849983" version="3" timestamp="2012-02-02T05:45:01Z" uid="54784" user="Tom Hollander" changeset="10564724">
    <nd ref="152711500"/>
    <nd ref="36401887"/>
    <nd ref="36536031"/>
    <nd ref="36401888"/>
    <nd ref="276329214"/>
    <nd ref="36401889"/>
    <nd ref="36401890"/>
    <nd ref="258252881"/>
    <nd ref="276314249"/>
    <nd ref="258251300"/>
    <nd ref="276314252"/>
    <nd ref="36401891"/>
    <nd ref="276314259"/>
    <nd ref="36401892"/>
    <nd ref="276314260"/>
    <nd ref="258250413"/>
    <nd ref="36401893"/>
    <nd ref="608086024"/>
    <nd ref="36401894"/>
    <nd ref="252991180"/>
    <tag k="highway" v="primary"/>
    <tag k="maxspeed" v="60"/>
    <tag k="name" v="Hume Highway"/>
    <tag k="oneway" v="yes"/>
    <tag k="ref" v="SH31"/>
  </way>
  <way id="53849984" version="1" timestamp="2010-04-01T15:17:34Z" uid="74617" user="JohnSmith" changeset="4294227">
    <nd ref="36535981"/>
    <nd ref="256005518"/>
    <nd ref="152711500"/>
    <tag k="highway" v="primary"/>
    <tag k="maxspeed" v="60"/>
    <tag k="name" v="Hume Highway"/>
    <tag k="oneway" v="yes"/>
    <tag k="ref" v="S31"/>
  </way>
  <way id="53849984" version="2" timestamp="2010-04-01T17:25:06Z" uid="74617" user="JohnSmith" changeset="4295913">
    <nd ref="36535981"/>
    <nd ref="256005518"/>
    <nd ref="152711500"/>
    <tag k="highway" v="primary"/>
    <tag k="maxspeed" v="60"/>
    <tag k="name" v="Hume Highway"/>
    <tag k="oneway" v="yes"/>
  </way>
  <way id="53849984" version="3" timestamp="2011-09-19T11:40:40Z" uid="354179" user="molybtek" changeset="9341547">
    <nd ref="36535981"/>
    <nd ref="256005518"/>
    <nd ref="152711500"/>
    <tag k="highway" v="primary"/>
    <tag k="maxspeed" v="70"/>
    <tag k="name" v="Hume Highway"/>
    <tag k="oneway" v="yes"/>
  </way>
  <way id="53849984" version="4" timestamp="2012-02-02T05:45:02Z" uid="54784" user="Tom Hollander" changeset="10564724">
    <nd ref="36535981"/>
    <nd ref="256005518"/>
    <nd ref="152711500"/>
    <tag k="highway" v="primary"/>
    <tag k="maxspeed" v="70"/>
    <tag k="name" v="Hume Highway"/>
    <tag k="oneway" v="yes"/>
    <tag k="ref" v="SH31"/>
  </way>
  <way id="53849985" version="1" timestamp="2010-04-01T15:17:35Z" uid="74617" user="JohnSmith" changeset="4294227">
    <nd ref="36425906"/>
    <nd ref="36425907"/>
    <nd ref="288295520"/>
    <nd ref="36425908"/>
    <nd ref="36425909"/>
    <nd ref="36425910"/>
    <nd ref="288295657"/>
    <nd ref="36425911"/>
    <nd ref="36425912"/>
    <nd ref="152708165"/>
    <nd ref="36425913"/>
    <nd ref="36425914"/>
    <nd ref="36425915"/>
    <tag k="highway" v="primary"/>
    <tag k="name" v="Cumberland Highway; Cumerbland Highway"/>
    <tag k="oneway" v="yes"/>
    <tag k="source" v="yahoo_imagery"/>
  </way>
  <way id="53849985" version="2" timestamp="2010-04-01T15:20:11Z" uid="74617" user="JohnSmith" changeset="4294227">
    <nd ref="36425906"/>
    <nd ref="36425907"/>
    <nd ref="288295520"/>
    <nd ref="36425908"/>
    <nd ref="36425909"/>
    <nd ref="679909425"/>
    <nd ref="679909422"/>
    <nd ref="36425910"/>
    <nd ref="288295657"/>
    <nd ref="36425911"/>
    <nd ref="36425912"/>
    <nd ref="152708165"/>
    <nd ref="36425913"/>
    <nd ref="36425914"/>
    <nd ref="679909426"/>
    <nd ref="679909429"/>
    <nd ref="36425915"/>
    <tag k="highway" v="primary"/>
    <tag k="name" v="Cumberland Highway; Cumerbland Highway"/>
    <tag k="oneway" v="yes"/>
    <tag k="source" v="yahoo_imagery"/>
  </way>
  <way id="53849985" version="3" timestamp="2010-06-08T11:46:53Z" uid="203324" user="firefly2560" changeset="4936500">
    <nd ref="36425906"/>
    <nd ref="36425907"/>
    <nd ref="288295520"/>
    <nd ref="36425908"/>
    <nd ref="36425909"/>
    <nd ref="679909425"/>
    <nd ref="679909422"/>
    <nd ref="36425910"/>
    <nd ref="288295657"/>
    <nd ref="36425911"/>
    <nd ref="36425912"/>
    <nd ref="152708165"/>
    <nd ref="36425913"/>
    <nd ref="36425914"/>
    <nd ref="679909426"/>
    <nd ref="679909429"/>
    <nd ref="36425915"/>
    <tag k="highway" v="primary"/>
    <tag k="name" v="Cumberland Highway"/>
    <tag k="oneway" v="yes"/>
    <tag k="source" v="yahoo_imagery"/>
  </way>
  <way id="53849985" version="4" timestamp="2010-07-24T23:06:27Z" uid="30201" user="rrankin" changeset="5307858">
    <nd ref="36425906"/>
    <nd ref="36425907"/>
    <nd ref="288295520"/>
    <nd ref="36425908"/>
    <nd ref="36425909"/>
    <nd ref="679909425"/>
    <nd ref="679909422"/>
    <nd ref="36425910"/>
    <nd ref="36425911"/>
    <nd ref="36425912"/>
    <nd ref="152708165"/>
    <nd ref="36425913"/>
    <nd ref="36425914"/>
    <nd ref="679909426"/>
    <nd ref="679909429"/>
    <nd ref="36425915"/>
    <tag k="highway" v="primary"/>
    <tag k="name" v="Cumberland Highway"/>
    <tag k="oneway" v="yes"/>
    <tag k="source" v="yahoo_imagery"/>
  </way>
  <way id="53849985" version="5" timestamp="2010-07-26T05:51:01Z" uid="4467" user="Rosscoe" changeset="5318332">
    <nd ref="36425906"/>
    <nd ref="36425907"/>
    <nd ref="288295520"/>
    <nd ref="36425908"/>
    <nd ref="36425909"/>
    <nd ref="679909425"/>
    <nd ref="679909422"/>
    <nd ref="36425910"/>
    <nd ref="36425911"/>
    <nd ref="833666285"/>
    <nd ref="36425912"/>
    <nd ref="152708165"/>
    <nd ref="36425913"/>
    <nd ref="36425914"/>
    <nd ref="679909426"/>
    <nd ref="679909429"/>
    <nd ref="36425915"/>
    <tag k="highway" v="primary"/>
    <tag k="name" v="Cumberland Highway"/>
    <tag k="oneway" v="yes"/>
    <tag k="source" v="yahoo_imagery"/>
  </way>
  <way id="53849985" version="6" timestamp="2011-09-19T11:40:40Z" uid="354179" user="molybtek" changeset="9341547">
    <nd ref="36425906"/>
    <nd ref="36425907"/>
    <nd ref="288295520"/>
    <nd ref="36425908"/>
    <nd ref="36425909"/>
    <nd ref="679909425"/>
    <nd ref="679909422"/>
    <nd ref="36425910"/>
    <nd ref="36425911"/>
    <nd ref="833666285"/>
    <nd ref="36425912"/>
    <nd ref="152708165"/>
    <nd ref="36425913"/>
    <nd ref="36425914"/>
    <nd ref="679909426"/>
    <nd ref="679909429"/>
    <nd ref="36425915"/>
    <tag k="highway" v="primary"/>
    <tag k="maxspeed" v="70"/>
    <tag k="name" v="Cumberland Highway"/>
    <tag k="oneway" v="yes"/>
    <tag k="source" v="yahoo_imagery"/>
  </way>
  <way id="53849986" version="1" timestamp="2010-04-01T15:17:35Z" uid="74617" user="JohnSmith" changeset="4294227">
    <nd ref="36535981"/>
    <nd ref="36535982"/>
    <nd ref="679906153"/>
    <nd ref="36535983"/>
    <nd ref="36425906"/>
    <tag k="highway" v="primary_link"/>
  </way>
  <way id="53849986" version="2" timestamp="2010-04-24T02:17:51Z" uid="203324" user="firefly2560" changeset="4508811">
    <nd ref="36535981"/>
    <nd ref="36535982"/>
    <nd ref="679906153"/>
    <nd ref="36535983"/>
    <nd ref="36425906"/>
    <tag k="highway" v="primary_link"/>
    <tag k="name" v="Cumberland Highway"/>
  </way>
  <way id="53849986" version="3" timestamp="2011-09-19T11:40:41Z" uid="354179" user="molybtek" changeset="9341547">
    <nd ref="36535981"/>
    <nd ref="36535982"/>
    <nd ref="679906153"/>
    <nd ref="36535983"/>
    <nd ref="36425906"/>
    <tag k="highway" v="primary_link"/>
    <tag k="maxspeed" v="70"/>
    <tag k="name" v="Cumberland Highway"/>
  </way>
</osm>
