<?xml version='1.0' encoding='UTF-8'?>
<osm version="0.6" generator="libosmium/2.20.0">
  <way id="53857411" version="1" timestamp="2010-04-01T16:51:51Z" uid="74617" user="JohnSmith" changeset="4295590">
    <nd ref="679994066"/>
    <nd ref="679994067"/>
    <nd ref="679994069"/>
    <nd ref="679994073"/>
    <nd ref="679994075"/>
    <nd ref="42935519"/>
    <tag k="highway" v="primary"/>
    <tag k="oneway" v="yes"/>
  </way>
  <way id="53857411" version="2" timestamp="2010-07-25T07:08:39Z" uid="30201" user="rrankin" changeset="5309257">
    <nd ref="679994066"/>
    <nd ref="679994067"/>
    <nd ref="679994069"/>
    <nd ref="832373975"/>
    <nd ref="679994073"/>
    <nd ref="679994075"/>
    <nd ref="42935519"/>
    <tag k="highway" v="primary"/>
    <tag k="oneway" v="yes"/>
  </way>
  <way id="53857412" version="1" timestamp="2010-04-01T16:51:51Z" uid="74617" user="JohnSmith" changeset="4295590">
    <nd ref="679994081"/>
    <nd ref="679994077"/>
    <nd ref="679994078"/>
    <nd ref="679994070"/>
    <nd ref="679994072"/>
    <tag k="highway" v="primary"/>
    <tag k="oneway" v="yes"/>
  </way>
  <way id="53857412" version="2" timestamp="2010-07-25T07:08:37Z" uid="30201" user="rrankin" changeset="5309257">
    <nd ref="679994081"/>
    <nd ref="679994077"/>
    <nd ref="679994078"/>
    <nd ref="454164644"/>
    <nd ref="679994070"/>
    <nd ref="679994072"/>
    <tag k="highway" v="primary"/>
    <tag k="oneway" v="yes"/>
  </way>
  <way id="53857496" version="1" timestamp="2010-04-01T16:57:28Z" uid="74617" user="JohnSmith" changeset="4295590">
    <nd ref="636779054"/>
    <nd ref="665682834"/>
    <tag k="highway" v="primary"/>
    <tag k="maxspeed" v="60"/>
    <tag k="name" v="Pacific Highway"/>
    <tag k="source" v="nearmap"/>
  </way>
  <way id="53857496" version="2" timestamp="2010-06-30T12:58:10Z" uid="299678" user="peteramjet" changeset="5113347">
    <nd ref="26391784"/>
    <nd ref="566583078"/>
    <nd ref="123571975"/>
    <nd ref="123571977"/>
    <nd ref="636779054"/>
    <nd ref="665682834"/>
    <tag k="highway" v="primary"/>
    <tag k="maxspeed" v="60"/>
    <tag k="name" v="Pacific Highway"/>
    <tag k="oneway" v="yes"/>
    <tag k="ref" v="S83"/>
    <tag k="source" v="nearmap; survey"/>
  </way>
  <way id="53857496" version="3" timestamp="2010-07-05T07:05:31Z" uid="299678" user="peteramjet" changeset="5139195">
    <nd ref="26391784"/>
    <nd ref="566583078"/>
    <nd ref="123571975"/>
    <nd ref="123571977"/>
    <nd ref="636779054"/>
    <nd ref="665682834"/>
    <tag k="highway" v="primary"/>
    <tag k="maxspeed" v="60"/>
    <tag k="name" v="Pacific Highway"/>
    <tag k="oneway" v="yes"/>
    <tag k="source" v="nearmap; survey"/>
  </way>
  <way id="53857698" version="4" timestamp="2011-02-19T15:57:40Z" uid="16922" user="amai" changeset="7333309">
    <nd ref="680001040"/>
    <nd ref="312036066"/>
    <nd ref="312036067"/>
    <nd ref="703279937"/>
    <nd ref="312036068"/>
    <nd ref="1161572787"/>
    <nd ref="1161572843"/>
    <nd ref="1161572833"/>
    <nd ref="696941445"/>
    <tag k="highway" v="tertiary"/>
    <tag k="name" v="เฉลิมพระเกียรติ ร.9"/>
    <tag k="name:en" v="Chaloem Phrakiat Ratchakan Thi 9"/>
    <tag k="name:th" v="เฉลิมพระเกียรติ ร.9 ซอย 28"/>
    <tag k="surface" v="paved"/>
  </way>
  <way id="53857698" version="5" timestamp="2012-03-24T15:55:14Z" uid="61891" user="stephankn" changeset="11085802"/>
</osm>
