<?xml version='1.0' encoding='UTF-8'?>
<osm version="0.6" generator="libosmium/2.20.0">
  <way id="53864144" version="1" timestamp="2010-04-01T18:13:06Z" uid="74617" user="JohnSmith" changeset="4296292">
    <nd ref="60089283"/>
    <nd ref="60089284"/>
    <nd ref="60089285"/>
    <tag k="bridge" v="yes"/>
    <tag k="highway" v="primary"/>
    <tag k="layer" v="1"/>
    <tag k="maxspeed" v="60"/>
    <tag k="name" v="Windsor Road"/>
    <tag k="oneway" v="yes"/>
    <tag k="source" v="survey"/>
  </way>
  <way id="53864144" version="2" timestamp="2010-06-19T02:52:20Z" uid="299678" user="peteramjet" changeset="5020723">
    <nd ref="60089283"/>
    <nd ref="60089284"/>
    <nd ref="775914078"/>
    <nd ref="60089285"/>
    <tag k="bridge" v="yes"/>
    <tag k="highway" v="primary"/>
    <tag k="layer" v="1"/>
    <tag k="maxspeed" v="60"/>
    <tag k="name" v="Windsor Road"/>
    <tag k="oneway" v="yes"/>
    <tag k="source" v="survey"/>
  </way>
  <way id="53864144" version="3" timestamp="2010-07-01T01:41:30Z" uid="299678" user="peteramjet" changeset="5117656">
    <nd ref="60089283"/>
    <nd ref="60089284"/>
    <nd ref="775914078"/>
    <nd ref="60089285"/>
    <tag k="bridge" v="yes"/>
    <tag k="highway" v="primary"/>
    <tag k="layer" v="1"/>
    <tag k="maxspeed" v="60"/>
    <tag k="name" v="Windsor Road"/>
    <tag k="oneway" v="yes"/>
    <tag k="ref" v="S40"/>
    <tag k="source" v="survey"/>
  </way>
  <way id="53864144" version="4" timestamp="2010-07-06T09:10:55Z" uid="299678" user="peteramjet" changeset="5148581">
    <nd ref="60089283"/>
    <nd ref="60089284"/>
    <nd ref="775914078"/>
    <nd ref="60089285"/>
    <tag k="bridge" v="yes"/>
    <tag k="highway" v="primary"/>
    <tag k="layer" v="1"/>
    <tag k="maxspeed" v="60"/>
    <tag k="name" v="Windsor Road"/>
    <tag k="oneway" v="yes"/>
    <tag k="source" v="survey"/>
  </way>
  <way id="53864144" version="5" timestamp="2012-02-02T02:15:07Z" uid="54784" user="Tom Hollander" changeset="10564163">
    <nd ref="60089283"/>
    <nd ref="60089284"/>
    <nd ref="775914078"/>
    <nd ref="60089285"/>
    <tag k="bridge" v="yes"/>
    <tag k="highway" v="primary"/>
    <tag k="layer" v="1"/>
    <tag k="maxspeed" v="60"/>
    <tag k="name" v="Windsor Road"/>
    <tag k="oneway" v="yes"/>
    <tag k="ref" v="SH40"/>
    <tag k="source" v="survey"/>
  </way>
  <way id="53864147" version="1" timestamp="2010-04-01T18:13:07Z" uid="74617" user="JohnSmith" changeset="4296292">
    <nd ref="60090410"/>
    <nd ref="60090417"/>
    <nd ref="31880353"/>
    <tag k="highway" v="primary"/>
    <tag k="maxspeed" v="60"/>
    <tag k="name" v="Windsor Road"/>
    <tag k="oneway" v="yes"/>
    <tag k="source" v="survey"/>
  </way>
  <way id="53864147" version="2" timestamp="2010-07-01T01:41:30Z" uid="299678" user="peteramjet" changeset="5117656">
    <nd ref="60090410"/>
    <nd ref="60090417"/>
    <nd ref="31880353"/>
    <tag k="highway" v="primary"/>
    <tag k="maxspeed" v="60"/>
    <tag k="name" v="Windsor Road"/>
    <tag k="oneway" v="yes"/>
    <tag k="ref" v="S40"/>
    <tag k="source" v="survey"/>
  </way>
  <way id="53864147" version="3" timestamp="2010-07-07T07:42:44Z" uid="299678" user="peteramjet" changeset="5156504">
    <nd ref="60090410"/>
    <nd ref="60090417"/>
    <nd ref="31880353"/>
    <tag k="highway" v="primary"/>
    <tag k="maxspeed" v="60"/>
    <tag k="name" v="Windsor Road"/>
    <tag k="oneway" v="yes"/>
    <tag k="source" v="survey"/>
  </way>
  <way id="53864147" version="4" timestamp="2012-02-02T02:15:08Z" uid="54784" user="Tom Hollander" changeset="10564163">
    <nd ref="60090410"/>
    <nd ref="60090417"/>
    <nd ref="31880353"/>
    <tag k="highway" v="primary"/>
    <tag k="maxspeed" v="60"/>
    <tag k="name" v="Windsor Road"/>
    <tag k="oneway" v="yes"/>
    <tag k="ref" v="SH40"/>
    <tag k="source" v="survey"/>
  </way>
  <way id="53864589" version="1" timestamp="2010-04-01T18:22:16Z" uid="74617" user="JohnSmith" changeset="4296292">
    <nd ref="680055313"/>
    <nd ref="332047067"/>
    <nd ref="52038512"/>
    <nd ref="36810139"/>
    <nd ref="21703307"/>
    <nd ref="332047058"/>
    <nd ref="332047021"/>
    <nd ref="21703308"/>
    <nd ref="332047015"/>
    <nd ref="332047012"/>
    <nd ref="332047010"/>
    <nd ref="332046999"/>
    <nd ref="36810140"/>
    <nd ref="141810348"/>
    <nd ref="251132482"/>
    <nd ref="141794926"/>
    <nd ref="141813156"/>
    <nd ref="21703309"/>
    <nd ref="332046982"/>
    <nd ref="601349050"/>
    <nd ref="60000257"/>
    <nd ref="332046980"/>
    <nd ref="141797048"/>
    <nd ref="39797788"/>
    <nd ref="36812264"/>
    <nd ref="36811937"/>
    <nd ref="243182991"/>
    <tag k="highway" v="primary"/>
    <tag k="maxspeed" v="60"/>
    <tag k="name" v="Victoria Road"/>
    <tag k="oneway" v="yes"/>
    <tag k="source" v="yahoo"/>
  </way>
  <way id="53864589" version="2" timestamp="2010-07-01T01:45:54Z" uid="299678" user="peteramjet" changeset="5117656">
    <nd ref="680055313"/>
    <nd ref="332047067"/>
    <nd ref="52038512"/>
    <nd ref="36810139"/>
    <nd ref="21703307"/>
    <nd ref="332047058"/>
    <nd ref="332047021"/>
    <nd ref="21703308"/>
    <nd ref="332047015"/>
    <nd ref="332047012"/>
    <nd ref="332047010"/>
    <nd ref="332046999"/>
    <nd ref="36810140"/>
    <nd ref="141810348"/>
    <nd ref="251132482"/>
    <nd ref="141794926"/>
    <nd ref="141813156"/>
    <nd ref="21703309"/>
    <nd ref="332046982"/>
    <nd ref="601349050"/>
    <nd ref="60000257"/>
    <nd ref="332046980"/>
    <nd ref="141797048"/>
    <nd ref="39797788"/>
    <nd ref="36812264"/>
    <nd ref="36811937"/>
    <nd ref="243182991"/>
    <tag k="highway" v="primary"/>
    <tag k="maxspeed" v="60"/>
    <tag k="name" v="Victoria Road"/>
    <tag k="oneway" v="yes"/>
    <tag k="ref" v="S40"/>
    <tag k="source" v="yahoo"/>
  </way>
  <way id="53864589" version="3" timestamp="2010-07-05T06:37:20Z" uid="299678" user="peteramjet" changeset="5138906">
    <nd ref="680055313"/>
    <nd ref="332047067"/>
    <nd ref="52038512"/>
    <nd ref="36810139"/>
    <nd ref="21703307"/>
    <nd ref="332047058"/>
    <nd ref="332047021"/>
    <nd ref="21703308"/>
    <nd ref="332047015"/>
    <nd ref="332047012"/>
    <nd ref="332047010"/>
    <nd ref="332046999"/>
    <nd ref="36810140"/>
    <nd ref="141810348"/>
    <nd ref="251132482"/>
    <nd ref="141794926"/>
    <nd ref="141813156"/>
    <nd ref="21703309"/>
    <nd ref="332046982"/>
    <nd ref="601349050"/>
    <nd ref="60000257"/>
    <nd ref="332046980"/>
    <nd ref="141797048"/>
    <nd ref="39797788"/>
    <nd ref="36812264"/>
    <nd ref="36811937"/>
    <nd ref="243182991"/>
    <tag k="highway" v="primary"/>
    <tag k="maxspeed" v="60"/>
    <tag k="name" v="Victoria Road"/>
    <tag k="oneway" v="yes"/>
    <tag k="source" v="yahoo"/>
  </way>
  <way id="53864590" version="1" timestamp="2010-04-01T18:22:17Z" uid="74617" user="JohnSmith" changeset="4296292">
    <nd ref="680055313"/>
    <nd ref="610270213"/>
    <tag k="highway" v="primary"/>
    <tag k="maxspeed" v="60"/>
    <tag k="name" v="Church Street"/>
    <tag k="oneway" v="yes"/>
    <tag k="source" v="yahoo"/>
  </way>
</osm>
