<?xml version='1.0' encoding='UTF-8'?>
<osm version="0.6" generator="libosmium/2.20.0">
  <way id="54017812" version="1" timestamp="2010-04-02T04:25:27Z" uid="61114" user="Trav" changeset="4300172">
    <nd ref="681128631"/>
    <nd ref="681128646"/>
    <nd ref="681128674"/>
    <nd ref="681128681"/>
    <nd ref="681128631"/>
    <tag k="leisure" v="pitch"/>
    <tag k="name" v="Samuel King Oval"/>
    <tag k="source" v="nearmap"/>
    <tag k="source:name" v="survey"/>
  </way>
  <way id="54017835" version="1" timestamp="2010-04-02T04:25:33Z" uid="61114" user="Trav" changeset="4300172">
    <nd ref="322480888"/>
    <nd ref="681128833"/>
    <nd ref="31393993"/>
    <tag k="highway" v="footway"/>
    <tag k="source" v="survey;approximation"/>
  </way>
  <way id="54017835" version="2" timestamp="2011-09-24T22:28:15Z" uid="20949" user="Ebenezer" changeset="9388535">
    <nd ref="322480888"/>
    <nd ref="681128833"/>
    <nd ref="1445048758"/>
    <tag k="highway" v="footway"/>
    <tag k="source" v="survey;approximation"/>
  </way>
  <way id="54017865" version="1" timestamp="2010-04-02T04:25:44Z" uid="61114" user="Trav" changeset="4300172">
    <nd ref="681128992"/>
    <nd ref="681128986"/>
    <tag k="highway" v="path"/>
    <tag k="source" v="extrapolation"/>
  </way>
  <way id="54017872" version="1" timestamp="2010-04-02T04:25:45Z" uid="61114" user="Trav" changeset="4300172">
    <nd ref="681128986"/>
    <nd ref="681129032"/>
    <nd ref="243949032"/>
    <nd ref="243949035"/>
    <nd ref="243949033"/>
    <tag k="highway" v="residential"/>
    <tag k="name" v="Alice Street"/>
    <tag k="source:name" v="survey"/>
  </way>
  <way id="54017872" version="2" timestamp="2010-07-08T00:03:37Z" uid="74617" user="JohnSmith" changeset="5162525">
    <nd ref="681128986"/>
    <nd ref="681129032"/>
    <nd ref="243949032"/>
    <nd ref="243949035"/>
    <nd ref="243949033"/>
    <tag k="highway" v="residential"/>
    <tag k="maxspeed" v="50"/>
    <tag k="maxspeed:source" v="default residential speed limit in Australia"/>
    <tag k="name" v="Alice Street"/>
    <tag k="source:name" v="survey"/>
  </way>
  <way id="54017872" version="3" timestamp="2010-07-08T00:13:56Z" uid="74617" user="JohnSmith" changeset="5162525">
    <nd ref="681128986"/>
    <nd ref="681129032"/>
    <nd ref="243949032"/>
    <nd ref="243949035"/>
    <nd ref="243949033"/>
    <tag k="highway" v="residential"/>
    <tag k="maxspeed" v="50"/>
    <tag k="maxspeed:source" v="default residential speed limit in Australia"/>
    <tag k="name" v="Alice Street"/>
    <tag k="source:name" v="survey"/>
  </way>
  <way id="54017872" version="4" timestamp="2012-01-20T05:10:09Z" uid="147510" user="woodpeck_fixbot" changeset="10442986">
    <nd ref="681128986"/>
    <nd ref="681129032"/>
    <nd ref="243949032"/>
    <nd ref="243949035"/>
    <nd ref="243949033"/>
    <tag k="highway" v="residential"/>
    <tag k="name" v="Alice Street"/>
    <tag k="source:name" v="survey"/>
  </way>
  <way id="54017904" version="1" timestamp="2010-04-02T04:25:56Z" uid="61114" user="Trav" changeset="4300172">
    <nd ref="681129307"/>
    <nd ref="243949034"/>
    <tag k="highway" v="residential"/>
    <tag k="name" v="Worcester Place"/>
    <tag k="source:name" v="survey"/>
  </way>
  <way id="54017904" version="2" timestamp="2010-07-08T00:04:52Z" uid="74617" user="JohnSmith" changeset="5162525">
    <nd ref="681129307"/>
    <nd ref="243949034"/>
    <tag k="highway" v="residential"/>
    <tag k="maxspeed" v="50"/>
    <tag k="maxspeed:source" v="default residential speed limit in Australia"/>
    <tag k="name" v="Worcester Place"/>
    <tag k="source:name" v="survey"/>
  </way>
  <way id="54017904" version="3" timestamp="2010-07-08T00:15:40Z" uid="74617" user="JohnSmith" changeset="5162525">
    <nd ref="681129307"/>
    <nd ref="243949034"/>
    <tag k="highway" v="residential"/>
    <tag k="maxspeed" v="50"/>
    <tag k="maxspeed:source" v="default residential speed limit in Australia"/>
    <tag k="name" v="Worcester Place"/>
    <tag k="source:name" v="survey"/>
  </way>
  <way id="54017904" version="4" timestamp="2012-01-20T05:10:10Z" uid="147510" user="woodpeck_fixbot" changeset="10442986">
    <nd ref="681129307"/>
    <nd ref="243949034"/>
    <tag k="highway" v="residential"/>
    <tag k="name" v="Worcester Place"/>
    <tag k="source:name" v="survey"/>
  </way>
</osm>
