<?xml version='1.0' encoding='UTF-8'?>
<osm version="0.6" generator="libosmium/2.20.0">
  <way id="54059146" version="1" timestamp="2010-04-02T17:50:04Z" uid="49111" user="Markus B" changeset="4306184">
    <nd ref="278775816"/>
    <nd ref="681829104"/>
    <tag k="highway" v="track"/>
    <tag k="tracktype" v="grade4"/>
  </way>
  <way id="54059146" version="2" timestamp="2011-12-10T18:48:10Z" uid="82877" user="Wankmann" changeset="10083784">
    <nd ref="278775816"/>
    <nd ref="681829104"/>
    <nd ref="1539895422"/>
    <nd ref="1539895421"/>
    <nd ref="1539895419"/>
    <nd ref="1539895417"/>
    <nd ref="1539895415"/>
    <nd ref="1539895414"/>
    <nd ref="1539895411"/>
    <nd ref="1539895404"/>
    <tag k="highway" v="track"/>
    <tag k="tracktype" v="grade4"/>
  </way>
  <way id="54059147" version="1" timestamp="2010-04-02T17:50:04Z" uid="49111" user="Markus B" changeset="4306184">
    <nd ref="681609264"/>
    <nd ref="681829110"/>
    <tag k="highway" v="track"/>
    <tag k="tracktype" v="grade4"/>
  </way>
  <way id="54059147" version="2" timestamp="2010-09-11T16:47:55Z" uid="82877" user="Wankmann" changeset="5751460">
    <nd ref="681609264"/>
    <nd ref="681829110"/>
    <nd ref="907022989"/>
    <tag k="highway" v="track"/>
    <tag k="tracktype" v="grade4"/>
  </way>
  <way id="54059148" version="1" timestamp="2010-04-02T17:50:04Z" uid="49111" user="Markus B" changeset="4306184">
    <nd ref="681829119"/>
    <nd ref="681829121"/>
    <tag k="highway" v="path"/>
  </way>
  <way id="54059149" version="1" timestamp="2010-04-02T17:50:04Z" uid="49111" user="Markus B" changeset="4306184">
    <nd ref="681609264"/>
    <nd ref="681829117"/>
    <nd ref="278776419"/>
    <tag k="highway" v="track"/>
    <tag k="tracktype" v="grade5"/>
  </way>
  <way id="54059149" version="2" timestamp="2010-04-03T17:22:57Z" uid="49111" user="Markus B" changeset="4315289"/>
  <way id="54059150" version="1" timestamp="2010-04-02T17:50:04Z" uid="49111" user="Markus B" changeset="4306184">
    <nd ref="278775820"/>
    <nd ref="278775821"/>
    <nd ref="278775822"/>
    <nd ref="278775823"/>
    <tag k="highway" v="track"/>
    <tag k="tracktype" v="grade2"/>
  </way>
  <way id="54059150" version="2" timestamp="2010-04-03T22:35:05Z" uid="49111" user="Markus B" changeset="4318083">
    <nd ref="278775820"/>
    <nd ref="278775821"/>
    <nd ref="278775823"/>
    <nd ref="681697012"/>
    <nd ref="681696994"/>
    <nd ref="681697000"/>
    <nd ref="681697010"/>
    <tag k="highway" v="track"/>
    <tag k="tracktype" v="grade2"/>
  </way>
  <way id="54059151" version="1" timestamp="2010-04-02T17:50:04Z" uid="49111" user="Markus B" changeset="4306184">
    <nd ref="309933745"/>
    <nd ref="309933750"/>
    <nd ref="309933751"/>
    <nd ref="295936798"/>
    <tag k="highway" v="track"/>
    <tag k="tracktype" v="grade2"/>
  </way>
  <way id="54059152" version="1" timestamp="2010-04-02T17:50:04Z" uid="49111" user="Markus B" changeset="4306184">
    <nd ref="278775823"/>
    <nd ref="295936786"/>
    <nd ref="295936790"/>
    <nd ref="295936795"/>
    <nd ref="295936741"/>
    <tag k="highway" v="track"/>
    <tag k="note" v="CHECKME"/>
    <tag k="tracktype" v="grade2"/>
  </way>
  <way id="54059152" version="2" timestamp="2010-04-03T21:48:17Z" uid="49111" user="Markus B" changeset="4317775"/>
  <way id="54059153" version="1" timestamp="2010-04-02T17:50:04Z" uid="49111" user="Markus B" changeset="4306184">
    <nd ref="681829167"/>
    <nd ref="681829169"/>
    <nd ref="681829165"/>
    <nd ref="681829171"/>
    <nd ref="681829167"/>
    <tag k="addr:city" v="Simmelsdorf"/>
    <tag k="addr:country" v="DE"/>
    <tag k="addr:housenumber" v="1"/>
    <tag k="addr:postcode" v="91245"/>
    <tag k="addr:street" v="Kapellenweg"/>
    <tag k="building" v="yes"/>
  </way>
  <way id="54059153" version="2" timestamp="2011-12-10T19:40:58Z" uid="82877" user="Wankmann" changeset="10084231">
    <nd ref="681829167"/>
    <nd ref="1539938964"/>
    <nd ref="1539938960"/>
    <nd ref="1539938956"/>
    <nd ref="1539938958"/>
    <nd ref="681829169"/>
    <nd ref="681829165"/>
    <nd ref="681829171"/>
    <nd ref="681829167"/>
    <tag k="addr:city" v="Simmelsdorf"/>
    <tag k="addr:country" v="DE"/>
    <tag k="addr:housenumber" v="1"/>
    <tag k="addr:postcode" v="91245"/>
    <tag k="addr:street" v="Kapellenweg"/>
    <tag k="building" v="yes"/>
  </way>
  <way id="54059594" version="2" timestamp="2010-10-03T19:01:19Z" uid="9581" user="Lobelt" changeset="5947483">
    <nd ref="681766352"/>
    <nd ref="247272289"/>
    <nd ref="429294681"/>
    <nd ref="429294679"/>
    <nd ref="247272290"/>
    <nd ref="247272291"/>
    <nd ref="247272292"/>
    <nd ref="247272293"/>
    <nd ref="247272294"/>
    <nd ref="247272295"/>
    <nd ref="247272296"/>
    <nd ref="247272297"/>
    <nd ref="247272298"/>
    <nd ref="247272299"/>
    <nd ref="247272300"/>
    <nd ref="247272301"/>
    <nd ref="247272302"/>
    <nd ref="937052057"/>
    <nd ref="247272303"/>
    <nd ref="937051997"/>
    <nd ref="681766301"/>
    <tag k="agricultural" v="yes"/>
    <tag k="hgv" v="destination"/>
    <tag k="highway" v="tertiary"/>
    <tag k="maxspeed" v="100"/>
    <tag k="ref" v="K 37"/>
  </way>
  <way id="54059595" version="2" timestamp="2010-10-03T19:01:26Z" uid="9581" user="Lobelt" changeset="5947483">
    <nd ref="681766407"/>
    <nd ref="247272283"/>
    <nd ref="937052006"/>
    <nd ref="247272284"/>
    <nd ref="247272285"/>
    <nd ref="423346833"/>
    <nd ref="247272286"/>
    <nd ref="247272287"/>
    <nd ref="681766422"/>
    <nd ref="937052060"/>
    <tag k="agricultural" v="yes"/>
    <tag k="hgv" v="destination"/>
    <tag k="highway" v="tertiary"/>
    <tag k="maxspeed" v="50"/>
    <tag k="name" v="Raubacher StraÃŸe"/>
    <tag k="ref" v="K 37"/>
  </way>
  <way id="54059596" version="2" timestamp="2010-10-03T19:01:25Z" uid="9581" user="Lobelt" changeset="5947483">
    <nd ref="681766322"/>
    <nd ref="247272306"/>
    <nd ref="247272313"/>
    <nd ref="247272314"/>
    <nd ref="247272315"/>
    <tag k="agricultural" v="yes"/>
    <tag k="hgv" v="destination"/>
    <tag k="highway" v="tertiary"/>
    <tag k="maxspeed" v="100"/>
    <tag k="ref" v="K 37"/>
  </way>
  <way id="54059730" version="3" timestamp="2010-04-11T06:21:25Z" uid="33382" user="de_muur" changeset="4389436">
    <nd ref="372343051"/>
    <nd ref="681877368"/>
    <nd ref="681877374"/>
    <nd ref="681877379"/>
    <nd ref="692721543"/>
    <nd ref="692142299"/>
    <nd ref="681877383"/>
    <tag k="highway" v="unclassified"/>
    <tag k="name" v="Nienstedt"/>
  </way>
</osm>
