<?xml version='1.0' encoding='UTF-8'?>
<osm version="0.6" generator="libosmium/2.20.0">
  <way id="54071449" version="1" timestamp="2010-04-02T19:01:49Z" uid="6269" user="Mueck" changeset="4306422">
    <nd ref="682189640"/>
    <nd ref="60870333"/>
    <nd ref="60870336"/>
    <tag k="highway" v="track"/>
    <tag k="tracktype" v="grade2"/>
  </way>
  <way id="54071449" version="2" timestamp="2010-04-02T19:03:21Z" uid="6269" user="Mueck" changeset="4306422">
    <nd ref="682189640"/>
    <nd ref="60870333"/>
    <nd ref="60870336"/>
    <tag k="highway" v="track"/>
    <tag k="smoothness" v="good"/>
    <tag k="surface" v="asphalt"/>
    <tag k="tracktype" v="grade1"/>
  </way>
  <way id="54071449" version="3" timestamp="2011-11-15T08:26:38Z" uid="442210" user="dwausr" changeset="9832558"/>
  <way id="54071687" version="3" timestamp="2010-08-04T17:39:04Z" uid="9581" user="Lobelt" changeset="5401263">
    <nd ref="244313766"/>
    <nd ref="682189919"/>
    <nd ref="244313767"/>
    <nd ref="244320675"/>
    <nd ref="244319924"/>
    <nd ref="244314223"/>
    <tag k="cables" v="6"/>
    <tag k="frequency" v="50"/>
    <tag k="name" v="220 kV Kasselberg Süd; Niederaußem 5e"/>
    <tag k="operator" v="RWE"/>
    <tag k="power" v="line"/>
    <tag k="ref" v="4560"/>
    <tag k="source" v="survey"/>
    <tag k="voltage" v="220000"/>
    <tag k="wires" v="double"/>
  </way>
  <way id="54071687" version="4" timestamp="2010-12-01T20:01:26Z" uid="67862" user="HolgerJeromin" changeset="6507750">
    <nd ref="244313766"/>
    <nd ref="682189919"/>
    <nd ref="244320675"/>
    <nd ref="244319924"/>
    <nd ref="244314223"/>
    <tag k="cables" v="6"/>
    <tag k="frequency" v="50"/>
    <tag k="name" v="220 kV Kasselberg Süd; Niederaußem 5e"/>
    <tag k="operator" v="RWE"/>
    <tag k="power" v="line"/>
    <tag k="ref" v="4560"/>
    <tag k="source" v="survey"/>
    <tag k="voltage" v="220000"/>
    <tag k="wires" v="double"/>
  </way>
  <way id="54071725" version="4" timestamp="2010-08-04T17:48:30Z" uid="9581" user="Lobelt" changeset="5401263">
    <nd ref="244319585"/>
    <nd ref="244319586"/>
    <nd ref="244319323"/>
    <nd ref="244319324"/>
    <nd ref="244319325"/>
    <tag k="cables" v="12"/>
    <tag k="cables:diff" v="3"/>
    <tag k="frequency" v="50"/>
    <tag k="name" v="220 kV Niederaußem 4d; Stommeln Nord; Wiesdorf Ltg."/>
    <tag k="name:diff" v="0 kV ground_2957"/>
    <tag k="operator" v="RWE"/>
    <tag k="power" v="line"/>
    <tag k="ref" v="2429"/>
    <tag k="source" v="yahoo"/>
    <tag k="voltage" v="220000;0"/>
    <tag k="wires" v="double"/>
  </way>
  <way id="54071725" version="5" timestamp="2010-12-01T20:01:24Z" uid="67862" user="HolgerJeromin" changeset="6507750">
    <nd ref="244319585"/>
    <nd ref="1014952967"/>
    <nd ref="244319586"/>
    <nd ref="244319323"/>
    <nd ref="244319324"/>
    <nd ref="244319325"/>
    <tag k="cables" v="12"/>
    <tag k="cables:diff" v="3"/>
    <tag k="frequency" v="50"/>
    <tag k="name" v="220 kV Niederaußem 4d; Stommeln Nord; Wiesdorf Ltg."/>
    <tag k="name:diff" v="0 kV ground_2957"/>
    <tag k="operator" v="RWE"/>
    <tag k="power" v="line"/>
    <tag k="ref" v="2429"/>
    <tag k="source" v="yahoo"/>
    <tag k="voltage" v="220000;0"/>
    <tag k="wires" v="double"/>
  </way>
  <way id="54071729" version="2" timestamp="2010-08-04T17:42:40Z" uid="9581" user="Lobelt" changeset="5401263">
    <nd ref="244319585"/>
    <nd ref="244313766"/>
    <tag k="operator" v="RWE"/>
    <tag k="power" v="line"/>
    <tag k="voltage" v="220000"/>
  </way>
  <way id="54071729" version="3" timestamp="2010-11-21T01:41:54Z" uid="92274" user="adjuva" changeset="6419521">
    <nd ref="244319585"/>
    <nd ref="244313766"/>
    <tag k="frequency" v="50"/>
    <tag k="operator" v="RWE"/>
    <tag k="power" v="line"/>
    <tag k="voltage" v="220000"/>
  </way>
  <way id="54071729" version="4" timestamp="2011-06-03T23:31:27Z" uid="92274" user="adjuva" changeset="8335063">
    <nd ref="244319585"/>
    <nd ref="244313766"/>
    <tag k="frequency" v="50"/>
    <tag k="name" v="220 kV Niederaußem 4d; Stommeln Nord"/>
    <tag k="operator" v="RWE"/>
    <tag k="power" v="line"/>
    <tag k="voltage" v="220000"/>
  </way>
  <way id="54071840" version="2" timestamp="2011-06-19T09:32:01Z" uid="8619" user="cetest" changeset="8481698">
    <nd ref="682149848"/>
    <nd ref="682010338"/>
    <nd ref="682009997"/>
    <nd ref="681994516"/>
    <nd ref="682075040"/>
    <nd ref="682127594"/>
    <nd ref="682061778"/>
    <nd ref="682158181"/>
    <nd ref="682165297"/>
    <nd ref="681885960"/>
    <nd ref="682014832"/>
    <nd ref="1330541381"/>
    <nd ref="1330541382"/>
    <nd ref="1330541380"/>
    <nd ref="681882662"/>
    <nd ref="682185732"/>
    <nd ref="682066972"/>
    <nd ref="681915059"/>
    <nd ref="681989265"/>
    <nd ref="682149848"/>
    <tag k="3dshapes:ggmodelk" v="5"/>
    <tag k="building" v="yes"/>
    <tag k="source" v="3dShapes"/>
  </way>
</osm>
