<?xml version='1.0' encoding='UTF-8'?>
<osm version="0.6" generator="libosmium/2.20.0">
  <way id="54263670" version="1" timestamp="2010-04-04T16:39:55Z" uid="49111" user="Markus B" changeset="4324461">
    <nd ref="309933780"/>
    <nd ref="309933782"/>
    <tag k="highway" v="residential"/>
    <tag k="name" v="Am Frühanger"/>
  </way>
  <way id="54263671" version="1" timestamp="2010-04-04T16:39:55Z" uid="49111" user="Markus B" changeset="4324461">
    <nd ref="309933799"/>
    <nd ref="306382457"/>
    <nd ref="276430386"/>
    <nd ref="306382552"/>
    <nd ref="276432984"/>
    <tag k="highway" v="secondary"/>
    <tag k="name" v="Haunachstraße"/>
    <tag k="ref" v="St 2241"/>
  </way>
  <way id="54263671" version="2" timestamp="2010-06-30T11:23:34Z" uid="82877" user="Wankmann" changeset="5112713">
    <nd ref="309933799"/>
    <nd ref="306382457"/>
    <nd ref="276430386"/>
    <nd ref="796807523"/>
    <nd ref="306382552"/>
    <nd ref="276432984"/>
    <tag k="highway" v="secondary"/>
    <tag k="name" v="Haunachstraße"/>
    <tag k="ref" v="St 2241"/>
  </way>
  <way id="54263672" version="1" timestamp="2010-04-04T16:39:56Z" uid="49111" user="Markus B" changeset="4324461">
    <nd ref="643785348"/>
    <nd ref="276430385"/>
    <nd ref="276509729"/>
    <nd ref="279027463"/>
    <nd ref="309933799"/>
    <tag k="highway" v="secondary"/>
    <tag k="name" v="Haunachstraße"/>
    <tag k="ref" v="St 2241"/>
  </way>
  <way id="54263672" version="2" timestamp="2010-06-25T22:18:24Z" uid="82877" user="Wankmann" changeset="5077393">
    <nd ref="643785348"/>
    <nd ref="276430385"/>
    <tag k="highway" v="secondary"/>
    <tag k="name" v="Haunachstraße"/>
    <tag k="ref" v="St 2241"/>
  </way>
</osm>
