<?xml version='1.0' encoding='UTF-8'?>
<osm version="0.6" generator="libosmium/2.20.0">
  <way id="54346367" version="1" timestamp="2010-04-05T02:07:05Z" uid="4467" user="Rosscoe" changeset="4328860">
    <nd ref="684990287"/>
    <nd ref="684990286"/>
    <nd ref="684990284"/>
    <nd ref="684990283"/>
    <nd ref="684990275"/>
    <tag k="highway" v="residential"/>
    <tag k="name" v="Darling Street"/>
    <tag k="source" v="survey"/>
  </way>
  <way id="54346367" version="2" timestamp="2010-06-14T02:09:34Z" uid="46482" user="Leon K" changeset="4984464">
    <nd ref="684990287"/>
    <nd ref="684990286"/>
    <nd ref="684990284"/>
    <nd ref="684990283"/>
    <nd ref="772363461"/>
    <nd ref="684990275"/>
    <tag k="highway" v="residential"/>
    <tag k="name" v="Darling Street"/>
    <tag k="source" v="survey"/>
  </way>
  <way id="54346367" version="3" timestamp="2010-07-08T16:54:27Z" uid="74617" user="JohnSmith" changeset="5167338">
    <nd ref="684990287"/>
    <nd ref="684990286"/>
    <nd ref="684990284"/>
    <nd ref="684990283"/>
    <nd ref="772363461"/>
    <nd ref="684990275"/>
    <tag k="highway" v="residential"/>
    <tag k="maxspeed" v="50"/>
    <tag k="maxspeed:source" v="default residential speed limit in Australia"/>
    <tag k="name" v="Darling Street"/>
    <tag k="source" v="survey"/>
  </way>
  <way id="54346367" version="4" timestamp="2010-09-30T10:06:29Z" uid="35066" user="noisymime" changeset="5918601"/>
  <way id="54346368" version="1" timestamp="2010-04-05T02:07:05Z" uid="4467" user="Rosscoe" changeset="4328860">
    <nd ref="684990274"/>
    <nd ref="684990272"/>
    <nd ref="684990278"/>
    <nd ref="684990279"/>
    <nd ref="684990275"/>
    <nd ref="684990276"/>
    <nd ref="684990280"/>
    <nd ref="684990282"/>
    <nd ref="684990274"/>
    <tag k="highway" v="residential"/>
    <tag k="junction" v="roundabout"/>
  </way>
  <way id="54346368" version="2" timestamp="2010-07-08T16:55:14Z" uid="74617" user="JohnSmith" changeset="5167338">
    <nd ref="684990274"/>
    <nd ref="684990272"/>
    <nd ref="684990278"/>
    <nd ref="684990279"/>
    <nd ref="684990275"/>
    <nd ref="684990276"/>
    <nd ref="684990280"/>
    <nd ref="684990282"/>
    <nd ref="684990274"/>
    <tag k="highway" v="residential"/>
    <tag k="junction" v="roundabout"/>
    <tag k="maxspeed" v="50"/>
    <tag k="maxspeed:source" v="default residential speed limit in Australia"/>
  </way>
  <way id="54346368" version="3" timestamp="2011-02-07T09:32:16Z" uid="4467" user="Rosscoe" changeset="7214025">
    <nd ref="684990274"/>
    <nd ref="684990272"/>
    <nd ref="684990278"/>
    <nd ref="684990279"/>
    <nd ref="684990275"/>
    <nd ref="684990276"/>
    <nd ref="684990280"/>
    <nd ref="684990282"/>
    <nd ref="684990274"/>
    <tag k="highway" v="residential"/>
    <tag k="junction" v="roundabout"/>
    <tag k="maxspeed" v="50"/>
    <tag k="maxspeed:source" v="default residential speed limit in Australia"/>
    <tag k="source" v="nearmap"/>
  </way>
  <way id="54346368" version="4" timestamp="2011-02-07T11:15:09Z" uid="4467" user="Rosscoe" changeset="7214726">
    <nd ref="684990274"/>
    <nd ref="684990272"/>
    <nd ref="684990278"/>
    <nd ref="684990279"/>
    <nd ref="684990275"/>
    <nd ref="684990276"/>
    <nd ref="684990280"/>
    <nd ref="684990282"/>
    <nd ref="684990274"/>
    <tag k="highway" v="residential"/>
    <tag k="junction" v="roundabout"/>
    <tag k="maxspeed" v="50"/>
    <tag k="source" v="nearmap"/>
    <tag k="source:maxspeed" v="default residential speed limit in Australia"/>
  </way>
  <way id="54346369" version="1" timestamp="2010-04-05T02:07:05Z" uid="4467" user="Rosscoe" changeset="4328860">
    <nd ref="684990264"/>
    <nd ref="684990261"/>
    <nd ref="684990263"/>
    <nd ref="684990267"/>
    <nd ref="684990266"/>
    <nd ref="684990268"/>
    <nd ref="684990271"/>
    <nd ref="684990270"/>
    <nd ref="684990264"/>
    <tag k="highway" v="tertiary"/>
    <tag k="junction" v="roundabout"/>
  </way>
  <way id="54346369" version="2" timestamp="2011-02-07T09:32:12Z" uid="4467" user="Rosscoe" changeset="7214025">
    <nd ref="684990264"/>
    <nd ref="684990261"/>
    <nd ref="684990263"/>
    <nd ref="684990267"/>
    <nd ref="684990266"/>
    <nd ref="684990268"/>
    <nd ref="684990271"/>
    <nd ref="684990270"/>
    <nd ref="684990264"/>
    <tag k="highway" v="tertiary"/>
    <tag k="junction" v="roundabout"/>
    <tag k="source" v="nearmap"/>
  </way>
  <way id="54346369" version="3" timestamp="2012-02-03T14:30:06Z" uid="379724" user="bugman" changeset="10575831">
    <nd ref="684990271"/>
    <nd ref="684990270"/>
    <nd ref="684990264"/>
    <nd ref="684990261"/>
    <nd ref="684990263"/>
    <tag k="highway" v="tertiary"/>
    <tag k="junction" v="roundabout"/>
    <tag k="source" v="nearmap"/>
  </way>
  <way id="54346370" version="1" timestamp="2010-04-05T02:07:05Z" uid="4467" user="Rosscoe" changeset="4328860">
    <nd ref="684990266"/>
    <nd ref="684990274"/>
    <tag k="highway" v="residential"/>
    <tag k="name" v="Darling Street"/>
    <tag k="source" v="survey"/>
  </way>
  <way id="54346370" version="2" timestamp="2010-07-08T16:56:07Z" uid="74617" user="JohnSmith" changeset="5167338">
    <nd ref="684990266"/>
    <nd ref="684990274"/>
    <tag k="highway" v="residential"/>
    <tag k="maxspeed" v="50"/>
    <tag k="maxspeed:source" v="default residential speed limit in Australia"/>
    <tag k="name" v="Darling Street"/>
    <tag k="source" v="survey"/>
  </way>
  <way id="54346370" version="3" timestamp="2011-02-07T09:32:15Z" uid="4467" user="Rosscoe" changeset="7214025">
    <nd ref="684990266"/>
    <nd ref="684990274"/>
    <tag k="highway" v="residential"/>
    <tag k="maxspeed" v="50"/>
    <tag k="maxspeed:source" v="default residential speed limit in Australia"/>
    <tag k="name" v="Darling Street"/>
    <tag k="source" v="survey"/>
  </way>
  <way id="54346370" version="4" timestamp="2011-02-07T11:14:30Z" uid="4467" user="Rosscoe" changeset="7214726">
    <nd ref="684990266"/>
    <nd ref="684990274"/>
    <tag k="highway" v="residential"/>
    <tag k="maxspeed" v="50"/>
    <tag k="name" v="Darling Street"/>
    <tag k="source" v="survey"/>
    <tag k="source:maxspeed" v="default residential speed limit in Australia"/>
  </way>
  <way id="54346371" version="1" timestamp="2010-04-05T02:07:06Z" uid="4467" user="Rosscoe" changeset="4328860">
    <nd ref="684990280"/>
    <nd ref="673003163"/>
    <tag k="highway" v="residential"/>
    <tag k="name" v="Ripon Street South"/>
  </way>
  <way id="54346371" version="2" timestamp="2010-07-08T16:56:29Z" uid="74617" user="JohnSmith" changeset="5167338">
    <nd ref="684990280"/>
    <nd ref="673003163"/>
    <tag k="highway" v="residential"/>
    <tag k="maxspeed" v="50"/>
    <tag k="maxspeed:source" v="default residential speed limit in Australia"/>
    <tag k="name" v="Ripon Street South"/>
  </way>
  <way id="54346371" version="3" timestamp="2011-02-07T08:21:05Z" uid="379724" user="bugman" changeset="7213199"/>
  <way id="54346372" version="1" timestamp="2010-04-05T02:07:06Z" uid="4467" user="Rosscoe" changeset="4328860">
    <nd ref="684990271"/>
    <nd ref="673003150"/>
    <tag k="highway" v="tertiary"/>
    <tag k="name" v="Pleasant Street North"/>
  </way>
  <way id="54346372" version="2" timestamp="2010-05-15T09:15:05Z" uid="194253" user="fluid1" changeset="4704039">
    <nd ref="684990271"/>
    <nd ref="673003150"/>
    <tag k="highway" v="tertiary"/>
    <tag k="name" v="Pleasant Street South"/>
  </way>
  <way id="54346372" version="3" timestamp="2010-10-11T22:38:39Z" uid="320632" user="Zulu99" changeset="6016772">
    <nd ref="684990271"/>
    <nd ref="945471806"/>
    <tag k="highway" v="tertiary"/>
    <tag k="name" v="Pleasant Street South"/>
  </way>
  <way id="54346372" version="4" timestamp="2011-08-30T23:09:42Z" uid="379724" user="bugman" changeset="9172390">
    <nd ref="684990271"/>
    <nd ref="945471806"/>
    <nd ref="1140561141"/>
    <nd ref="945471814"/>
    <nd ref="673003150"/>
    <tag k="cycleway" v="lane"/>
    <tag k="highway" v="tertiary"/>
    <tag k="name" v="Pleasant Street South"/>
  </way>
  <way id="54346373" version="1" timestamp="2010-04-05T02:07:06Z" uid="4467" user="Rosscoe" changeset="4328860">
    <nd ref="684990295"/>
    <nd ref="684990291"/>
    <tag k="highway" v="secondary"/>
    <tag k="name" v="Drummond Street South"/>
    <tag k="oneway" v="yes"/>
    <tag k="ref" v="C305"/>
  </way>
  <way id="54346373" version="2" timestamp="2010-10-11T21:57:58Z" uid="320632" user="Zulu99" changeset="6016564">
    <nd ref="684990295"/>
    <nd ref="945445470"/>
    <tag k="highway" v="secondary"/>
    <tag k="name" v="Drummond Street South"/>
    <tag k="oneway" v="yes"/>
    <tag k="ref" v="C305"/>
  </way>
  <way id="54346373" version="3" timestamp="2011-02-07T09:22:45Z" uid="4467" user="Rosscoe" changeset="7213935">
    <nd ref="684990287"/>
    <nd ref="945445470"/>
    <tag k="highway" v="secondary"/>
    <tag k="name" v="Drummond Street South"/>
    <tag k="oneway" v="yes"/>
    <tag k="ref" v="C305"/>
  </way>
  <way id="54346374" version="1" timestamp="2010-04-05T02:07:06Z" uid="4467" user="Rosscoe" changeset="4328860">
    <nd ref="684990291"/>
    <nd ref="672690945"/>
    <tag k="highway" v="secondary"/>
    <tag k="name" v="Drummond Street South"/>
    <tag k="ref" v="C305"/>
  </way>
  <way id="54346385" version="1" timestamp="2010-04-05T02:12:52Z" uid="4467" user="Rosscoe" changeset="4328871">
    <nd ref="364001252"/>
    <nd ref="684994654"/>
    <nd ref="684994652"/>
    <tag k="highway" v="trunk_link"/>
    <tag k="oneway" v="yes"/>
    <tag k="source" v="survey"/>
  </way>
  <way id="54346385" version="2" timestamp="2010-10-17T00:02:44Z" uid="79475" user="AlexOnTheBus" changeset="6062999"/>
</osm>
