<?xml version='1.0' encoding='UTF-8'?>
<osm version="0.6" generator="libosmium/2.20.0">
  <way id="54411781" version="1" timestamp="2010-04-05T16:48:19Z" uid="33382" user="de_muur" changeset="4335603">
    <nd ref="93007734"/>
    <nd ref="171492012"/>
    <tag k="highway" v="tertiary"/>
    <tag k="name" v="Kreepener Straße"/>
    <tag k="ref" v="K 18"/>
    <tag k="surface" v="paved"/>
  </way>
  <way id="54411781" version="2" timestamp="2012-02-05T15:01:20Z" uid="14002" user="Gehrke" changeset="10594323">
    <nd ref="93007734"/>
    <nd ref="1618973894"/>
    <nd ref="171492012"/>
    <tag k="highway" v="tertiary"/>
    <tag k="name" v="Kreepener Straße"/>
    <tag k="ref" v="K 18"/>
    <tag k="surface" v="paved"/>
  </way>
  <way id="54411781" version="3" timestamp="2012-02-08T15:22:11Z" uid="45882" user="smarties" changeset="10625539">
    <nd ref="93007734"/>
    <nd ref="1618973894"/>
    <nd ref="1623963455"/>
    <tag k="highway" v="tertiary"/>
    <tag k="name" v="Kreepener Straße"/>
    <tag k="ref" v="K 18"/>
    <tag k="surface" v="paved"/>
  </way>
  <way id="54411781" version="4" timestamp="2012-02-26T15:00:51Z" uid="45882" user="smarties" changeset="10799187">
    <nd ref="93007734"/>
    <nd ref="1618973894"/>
    <nd ref="1648673631"/>
    <tag k="highway" v="tertiary"/>
    <tag k="name" v="Kreepener Straße"/>
    <tag k="ref" v="K 18"/>
    <tag k="surface" v="paved"/>
  </way>
  <way id="54411781" version="5" timestamp="2012-03-18T13:49:26Z" uid="45882" user="smarties" changeset="11018991"/>
  <way id="54411782" version="1" timestamp="2010-04-05T16:48:20Z" uid="33382" user="de_muur" changeset="4335603">
    <nd ref="171492004"/>
    <nd ref="171492008"/>
    <tag k="highway" v="residential"/>
    <tag k="surface" v="paved"/>
  </way>
  <way id="54411782" version="2" timestamp="2011-03-06T22:37:35Z" uid="57645" user="KartoGrapHiti" changeset="7479459">
    <nd ref="171492004"/>
    <nd ref="1190098871"/>
    <nd ref="171492008"/>
    <tag k="highway" v="residential"/>
    <tag k="surface" v="paved"/>
  </way>
  <way id="54411782" version="3" timestamp="2012-02-05T13:33:56Z" uid="14002" user="Gehrke" changeset="10593512">
    <nd ref="171492004"/>
    <nd ref="1190098871"/>
    <nd ref="171492008"/>
    <tag k="highway" v="residential"/>
    <tag k="name" v="Alter Kohlenförder Weg"/>
    <tag k="surface" v="paved"/>
  </way>
  <way id="54411782" version="4" timestamp="2012-02-26T15:00:37Z" uid="45882" user="smarties" changeset="10799187">
    <nd ref="171492004"/>
    <nd ref="1190098871"/>
    <nd ref="1648673623"/>
    <tag k="highway" v="residential"/>
    <tag k="name" v="Alter Kohlenförder Weg"/>
    <tag k="surface" v="paved"/>
  </way>
  <way id="54411783" version="1" timestamp="2010-04-05T16:48:20Z" uid="33382" user="de_muur" changeset="4335603">
    <nd ref="171491865"/>
    <nd ref="171491861"/>
    <nd ref="171491912"/>
    <nd ref="171492004"/>
    <tag k="highway" v="residential"/>
    <tag k="surface" v="paved"/>
  </way>
  <way id="54411783" version="2" timestamp="2012-02-05T13:33:56Z" uid="14002" user="Gehrke" changeset="10593512">
    <nd ref="171491865"/>
    <nd ref="171491861"/>
    <nd ref="171491912"/>
    <nd ref="171492004"/>
    <tag k="highway" v="residential"/>
    <tag k="name" v="Kiefernweg"/>
    <tag k="surface" v="paved"/>
  </way>
  <way id="54411783" version="3" timestamp="2012-02-05T14:58:18Z" uid="14002" user="Gehrke" changeset="10594323">
    <nd ref="171491865"/>
    <nd ref="171491861"/>
    <nd ref="171491912"/>
    <nd ref="171492004"/>
    <tag k="highway" v="residential"/>
    <tag k="name" v="Alter Kohlenförder Weg"/>
    <tag k="surface" v="paved"/>
  </way>
</osm>
