<?xml version='1.0' encoding='UTF-8'?>
<osm version="0.6" generator="libosmium/2.20.0">
  <way id="54562112" version="3" timestamp="2010-04-25T17:42:22Z" uid="58091" user="Andreas M" changeset="4524227">
    <nd ref="485658553"/>
    <nd ref="706464943"/>
    <nd ref="687010831"/>
    <nd ref="706464949"/>
    <nd ref="687010832"/>
    <tag k="bicycle" v="designated"/>
    <tag k="foot" v="designated"/>
    <tag k="highway" v="path"/>
    <tag k="segregated" v="yes"/>
  </way>
  <way id="54562112" version="4" timestamp="2011-03-19T15:54:32Z" uid="411359" user="Thomas Passauer" changeset="7606446">
    <nd ref="485658553"/>
    <nd ref="706464943"/>
    <nd ref="1209131550"/>
    <nd ref="687010831"/>
    <nd ref="706464949"/>
    <nd ref="687010832"/>
    <tag k="bicycle" v="designated"/>
    <tag k="foot" v="designated"/>
    <tag k="highway" v="path"/>
    <tag k="segregated" v="yes"/>
  </way>
  <way id="54562139" version="3" timestamp="2010-11-23T20:56:11Z" uid="43967" user="railsnail" changeset="6442491">
    <nd ref="687010897"/>
    <nd ref="327686301"/>
    <nd ref="327686293"/>
    <nd ref="687010898"/>
    <nd ref="687010899"/>
    <nd ref="327686273"/>
    <nd ref="327686265"/>
    <nd ref="327686261"/>
    <nd ref="333716673"/>
    <tag k="addr:postcode" v="8044"/>
    <tag k="highway" v="unclassified"/>
    <tag k="is_in" v="Graz,Graz,Steiermark,Österreich,Europe"/>
    <tag k="maxspeed" v="30"/>
    <tag k="name" v="Wenisbucher Straße"/>
    <tag k="source" v="GPS"/>
  </way>
  <way id="54562139" version="4" timestamp="2010-12-04T15:48:06Z" uid="115612" user="tyr_asd" changeset="6539416">
    <nd ref="687010897"/>
    <nd ref="327686301"/>
    <nd ref="1020206483"/>
    <nd ref="327686293"/>
    <nd ref="687010898"/>
    <nd ref="687010899"/>
    <nd ref="1020206638"/>
    <nd ref="327686273"/>
    <nd ref="327686265"/>
    <nd ref="327686261"/>
    <nd ref="333716673"/>
    <tag k="addr:postcode" v="8044"/>
    <tag k="highway" v="unclassified"/>
    <tag k="is_in" v="Graz,Graz,Steiermark,Österreich,Europe"/>
    <tag k="maxspeed" v="30"/>
    <tag k="name" v="Wenisbucher Straße"/>
    <tag k="source" v="GPS"/>
  </way>
  <way id="54562139" version="5" timestamp="2011-05-17T13:36:36Z" uid="321042" user="species" changeset="8171743">
    <nd ref="687010897"/>
    <nd ref="327686301"/>
    <nd ref="1289038909"/>
    <nd ref="1020206483"/>
    <nd ref="327686293"/>
    <nd ref="687010898"/>
    <nd ref="687010899"/>
    <nd ref="1020206638"/>
    <nd ref="327686273"/>
    <nd ref="327686265"/>
    <nd ref="327686261"/>
    <nd ref="333716673"/>
    <tag k="addr:postcode" v="8044"/>
    <tag k="highway" v="unclassified"/>
    <tag k="is_in" v="Graz,Graz,Steiermark,Österreich,Europe"/>
    <tag k="maxspeed" v="30"/>
    <tag k="name" v="Wenisbucher Straße"/>
    <tag k="source" v="GPS"/>
  </way>
  <way id="54562139" version="6" timestamp="2011-05-29T19:52:25Z" uid="115612" user="tyr_asd" changeset="8285328">
    <nd ref="687010897"/>
    <nd ref="327686301"/>
    <nd ref="1289038909"/>
    <nd ref="1020206483"/>
    <nd ref="327686293"/>
    <nd ref="687010898"/>
    <nd ref="687010899"/>
    <nd ref="1020206638"/>
    <nd ref="327686273"/>
    <nd ref="327686265"/>
    <nd ref="327686261"/>
    <nd ref="333716673"/>
    <tag k="addr:postcode" v="8044"/>
    <tag k="highway" v="tertiary"/>
    <tag k="is_in" v="Graz,Graz,Steiermark,Österreich,Europe"/>
    <tag k="maxspeed" v="30"/>
    <tag k="name" v="Wenisbucher Straße"/>
    <tag k="source" v="GPS"/>
  </way>
  <way id="54562139" version="7" timestamp="2011-07-28T10:48:55Z" uid="491845" user="data_at" changeset="8853123">
    <nd ref="687010897"/>
    <nd ref="327686301"/>
    <nd ref="1289038909"/>
    <nd ref="1020206483"/>
    <nd ref="327686293"/>
    <nd ref="687010898"/>
    <nd ref="687010899"/>
    <nd ref="1020206638"/>
    <nd ref="327686273"/>
    <nd ref="327686265"/>
    <nd ref="327686261"/>
    <nd ref="333716673"/>
    <tag k="highway" v="tertiary"/>
    <tag k="is_in" v="Graz,Graz,Steiermark,Österreich,Europe"/>
    <tag k="maxspeed" v="30"/>
    <tag k="name" v="Wenisbucher Straße"/>
    <tag k="source" v="GPS"/>
  </way>
  <way id="54562148" version="1" timestamp="2010-04-06T19:44:28Z" uid="33382" user="de_muur" changeset="4348125">
    <nd ref="687010997"/>
    <nd ref="97955354"/>
    <nd ref="687010995"/>
    <nd ref="687010993"/>
    <nd ref="97955356"/>
    <nd ref="292693203"/>
    <nd ref="292693221"/>
    <nd ref="97955363"/>
    <nd ref="687010986"/>
    <nd ref="292693197"/>
    <nd ref="379266415"/>
    <nd ref="687010984"/>
    <nd ref="97955359"/>
    <nd ref="377084066"/>
    <nd ref="377084159"/>
    <nd ref="377084090"/>
    <nd ref="377907469"/>
    <nd ref="36732715"/>
    <tag k="highway" v="tertiary"/>
    <tag k="maxspeed" v="50"/>
    <tag k="ref" v="K 143"/>
    <tag k="surface" v="paved"/>
  </way>
  <way id="54562148" version="2" timestamp="2010-04-24T09:40:59Z" uid="33382" user="de_muur" changeset="4510311">
    <nd ref="687010997"/>
    <nd ref="97955354"/>
    <nd ref="687010995"/>
    <nd ref="687010993"/>
    <nd ref="97955356"/>
    <nd ref="292693203"/>
    <nd ref="292693221"/>
    <nd ref="97955363"/>
    <nd ref="687010986"/>
    <nd ref="292693197"/>
    <tag k="highway" v="tertiary"/>
    <tag k="maxspeed" v="50"/>
    <tag k="name" v="Kirchstraße"/>
    <tag k="ref" v="K 143"/>
    <tag k="surface" v="paved"/>
  </way>
  <way id="54562148" version="3" timestamp="2010-12-11T11:17:17Z" uid="57645" user="KartoGrapHiti" changeset="6621618">
    <nd ref="687010997"/>
    <nd ref="1033036108"/>
    <nd ref="97955354"/>
    <nd ref="687010995"/>
    <nd ref="687010993"/>
    <nd ref="97955356"/>
    <nd ref="292693203"/>
    <nd ref="292693221"/>
    <nd ref="97955363"/>
    <nd ref="687010986"/>
    <nd ref="292693197"/>
    <tag k="highway" v="tertiary"/>
    <tag k="maxspeed" v="50"/>
    <tag k="name" v="Kirchstraße"/>
    <tag k="ref" v="K 143"/>
    <tag k="surface" v="paved"/>
  </way>
  <way id="54562148" version="4" timestamp="2010-12-25T11:28:36Z" uid="57645" user="KartoGrapHiti" changeset="6760121">
    <nd ref="687010997"/>
    <nd ref="1033036108"/>
    <nd ref="97955354"/>
    <nd ref="687010995"/>
    <nd ref="687010993"/>
    <nd ref="97955356"/>
    <nd ref="292693203"/>
    <nd ref="1063807162"/>
    <nd ref="292693221"/>
    <nd ref="97955363"/>
    <nd ref="687010986"/>
    <nd ref="292693197"/>
    <tag k="highway" v="tertiary"/>
    <tag k="maxspeed" v="50"/>
    <tag k="name" v="Kirchstraße"/>
    <tag k="ref" v="K 143"/>
    <tag k="surface" v="paved"/>
  </way>
  <way id="54562675" version="2" timestamp="2010-05-15T16:44:09Z" uid="58091" user="Andreas M" changeset="4708117"/>
  <way id="54562685" version="2" timestamp="2010-05-15T16:44:10Z" uid="58091" user="Andreas M" changeset="4708117"/>
  <way id="54562692" version="2" timestamp="2010-05-15T16:44:06Z" uid="58091" user="Andreas M" changeset="4708117">
    <nd ref="687014467"/>
    <nd ref="687014468"/>
    <nd ref="687014469"/>
    <nd ref="687014470"/>
    <nd ref="687014467"/>
    <tag k="building" v="yes"/>
    <tag k="source" v="Yahoo"/>
  </way>
</osm>
