<?xml version='1.0' encoding='UTF-8'?>
<osm version="0.6" generator="libosmium/2.20.0">
  <way id="5462370" version="4" timestamp="2010-07-08T01:44:37Z" uid="74617" user="JohnSmith" changeset="5162525">
    <nd ref="39796191"/>
    <nd ref="39796196"/>
    <tag k="highway" v="residential"/>
    <tag k="lcn" v="yes"/>
    <tag k="maxspeed" v="50"/>
    <tag k="maxspeed:source" v="default residential speed limit in Australia"/>
    <tag k="name" v="Broughton Street"/>
  </way>
  <way id="5462370" version="5" timestamp="2010-08-14T12:48:11Z" uid="4467" user="Rosscoe" changeset="5490319">
    <nd ref="39796191"/>
    <nd ref="39796196"/>
    <tag k="highway" v="residential"/>
    <tag k="lcn" v="yes"/>
    <tag k="maxspeed" v="50"/>
    <tag k="name" v="Broughton Street"/>
    <tag k="source:maxspeed" v="default residential speed limit in Australia"/>
  </way>
  <way id="5462370" version="6" timestamp="2010-12-05T11:39:01Z" uid="7617" user="Franc" changeset="6549434">
    <nd ref="39796191"/>
    <nd ref="1022481142"/>
    <nd ref="39796196"/>
    <tag k="highway" v="residential"/>
    <tag k="lcn" v="yes"/>
    <tag k="maxspeed" v="50"/>
    <tag k="name" v="Broughton Street"/>
    <tag k="source:maxspeed" v="default residential speed limit in Australia"/>
  </way>
  <way id="5462370" version="7" timestamp="2012-01-15T05:47:43Z" uid="147510" user="woodpeck_fixbot" changeset="10394551">
    <nd ref="39796191"/>
    <nd ref="1022481142"/>
    <nd ref="39796196"/>
    <tag k="highway" v="residential"/>
    <tag k="lcn" v="yes"/>
    <tag k="name" v="Broughton Street"/>
    <tag k="source:maxspeed" v="default residential speed limit in Australia"/>
  </way>
  <way id="5462399" version="6" timestamp="2010-01-09T11:56:17Z" uid="30201" user="rrankin" changeset="3576938">
    <nd ref="537508811"/>
    <nd ref="39796191"/>
    <tag k="highway" v="residential"/>
    <tag k="lcn" v="yes"/>
    <tag k="name" v="Morton Street"/>
  </way>
  <way id="5462399" version="7" timestamp="2010-07-08T01:43:29Z" uid="74617" user="JohnSmith" changeset="5162525">
    <nd ref="537508811"/>
    <nd ref="39796191"/>
    <tag k="highway" v="residential"/>
    <tag k="lcn" v="yes"/>
    <tag k="maxspeed" v="50"/>
    <tag k="maxspeed:source" v="default residential speed limit in Australia"/>
    <tag k="name" v="Morton Street"/>
  </way>
  <way id="5462399" version="8" timestamp="2010-08-14T12:48:49Z" uid="4467" user="Rosscoe" changeset="5490319">
    <nd ref="537508811"/>
    <nd ref="39796191"/>
    <tag k="highway" v="residential"/>
    <tag k="lcn" v="yes"/>
    <tag k="maxspeed" v="50"/>
    <tag k="name" v="Morton Street"/>
    <tag k="source:maxspeed" v="default residential speed limit in Australia"/>
  </way>
  <way id="5462399" version="9" timestamp="2010-12-05T11:39:03Z" uid="7617" user="Franc" changeset="6549434">
    <nd ref="537508811"/>
    <nd ref="1022481084"/>
    <nd ref="39796191"/>
    <tag k="highway" v="residential"/>
    <tag k="lcn" v="yes"/>
    <tag k="maxspeed" v="50"/>
    <tag k="name" v="Morton Street"/>
    <tag k="source:maxspeed" v="default residential speed limit in Australia"/>
  </way>
  <way id="5462399" version="10" timestamp="2012-01-15T05:47:45Z" uid="147510" user="woodpeck_fixbot" changeset="10394551">
    <nd ref="537508811"/>
    <nd ref="1022481084"/>
    <nd ref="39796191"/>
    <tag k="highway" v="residential"/>
    <tag k="lcn" v="yes"/>
    <tag k="name" v="Morton Street"/>
    <tag k="source:maxspeed" v="default residential speed limit in Australia"/>
  </way>
  <way id="5462503" version="6" timestamp="2010-07-08T01:44:17Z" uid="74617" user="JohnSmith" changeset="5162525">
    <nd ref="39796196"/>
    <nd ref="52036311"/>
    <tag k="highway" v="residential"/>
    <tag k="lcn" v="yes"/>
    <tag k="maxspeed" v="50"/>
    <tag k="maxspeed:source" v="default residential speed limit in Australia"/>
    <tag k="name" v="Pemberton Street"/>
  </way>
  <way id="5462503" version="7" timestamp="2010-08-14T12:48:44Z" uid="4467" user="Rosscoe" changeset="5490319">
    <nd ref="39796196"/>
    <nd ref="52036311"/>
    <tag k="highway" v="residential"/>
    <tag k="lcn" v="yes"/>
    <tag k="maxspeed" v="50"/>
    <tag k="name" v="Pemberton Street"/>
    <tag k="source:maxspeed" v="default residential speed limit in Australia"/>
  </way>
  <way id="5462503" version="8" timestamp="2010-12-05T11:39:08Z" uid="7617" user="Franc" changeset="6549434">
    <nd ref="39796196"/>
    <nd ref="1022481107"/>
    <nd ref="52036311"/>
    <tag k="highway" v="residential"/>
    <tag k="lcn" v="yes"/>
    <tag k="maxspeed" v="50"/>
    <tag k="name" v="Pemberton Street"/>
    <tag k="source:maxspeed" v="default residential speed limit in Australia"/>
  </way>
  <way id="5462503" version="9" timestamp="2012-01-15T05:47:45Z" uid="147510" user="woodpeck_fixbot" changeset="10394551">
    <nd ref="39796196"/>
    <nd ref="1022481107"/>
    <nd ref="52036311"/>
    <tag k="highway" v="residential"/>
    <tag k="lcn" v="yes"/>
    <tag k="name" v="Pemberton Street"/>
    <tag k="source:maxspeed" v="default residential speed limit in Australia"/>
  </way>
  <way id="5462634" version="2" timestamp="2008-06-29T08:38:29Z" uid="30201" user="rrankin" changeset="330981">
    <nd ref="39800173"/>
    <nd ref="43134367"/>
    <nd ref="53452598"/>
    <nd ref="39800175"/>
    <tag k="created_by" v="Potlatch alpha"/>
    <tag k="highway" v="residential"/>
    <tag k="name" v="Kemp Street"/>
  </way>
  <way id="5462634" version="3" timestamp="2009-11-01T04:37:29Z" uid="7617" user="Franc" changeset="3003481">
    <nd ref="39800173"/>
    <nd ref="43134367"/>
    <nd ref="53452598"/>
    <nd ref="549663694"/>
    <nd ref="39800175"/>
    <tag k="highway" v="residential"/>
    <tag k="name" v="Kemp Street"/>
  </way>
  <way id="5462634" version="4" timestamp="2010-07-08T01:43:41Z" uid="74617" user="JohnSmith" changeset="5162525">
    <nd ref="39800173"/>
    <nd ref="43134367"/>
    <nd ref="53452598"/>
    <nd ref="549663694"/>
    <nd ref="39800175"/>
    <tag k="highway" v="residential"/>
    <tag k="maxspeed" v="50"/>
    <tag k="maxspeed:source" v="default residential speed limit in Australia"/>
    <tag k="name" v="Kemp Street"/>
  </way>
  <way id="5462634" version="5" timestamp="2012-01-15T05:47:47Z" uid="147510" user="woodpeck_fixbot" changeset="10394551">
    <nd ref="39800173"/>
    <nd ref="43134367"/>
    <nd ref="53452598"/>
    <nd ref="549663694"/>
    <nd ref="39800175"/>
    <tag k="highway" v="residential"/>
    <tag k="name" v="Kemp Street"/>
  </way>
</osm>
