<?xml version='1.0' encoding='UTF-8'?>
<osm version="0.6" generator="libosmium/2.20.0">
  <way id="5464000" version="3" timestamp="2010-07-09T06:23:19Z" uid="74617" user="JohnSmith" changeset="5171128">
    <nd ref="39819252"/>
    <nd ref="598231353"/>
    <nd ref="598231357"/>
    <nd ref="39819336"/>
    <tag k="highway" v="residential"/>
    <tag k="maxspeed" v="50"/>
    <tag k="maxspeed:source" v="default residential speed limit in Australia"/>
  </way>
  <way id="5464000" version="4" timestamp="2012-01-15T05:47:53Z" uid="147510" user="woodpeck_fixbot" changeset="10394551">
    <nd ref="39819252"/>
    <nd ref="598231353"/>
    <nd ref="598231357"/>
    <nd ref="39819336"/>
    <tag k="highway" v="residential"/>
  </way>
  <way id="5464030" version="3" timestamp="2010-07-09T06:20:29Z" uid="74617" user="JohnSmith" changeset="5171128">
    <nd ref="39819253"/>
    <nd ref="39819971"/>
    <nd ref="598231208"/>
    <tag k="highway" v="residential"/>
    <tag k="maxspeed" v="50"/>
    <tag k="maxspeed:source" v="default residential speed limit in Australia"/>
  </way>
  <way id="5464030" version="4" timestamp="2012-01-15T05:47:54Z" uid="147510" user="woodpeck_fixbot" changeset="10394551">
    <nd ref="39819253"/>
    <nd ref="39819971"/>
    <nd ref="598231208"/>
    <tag k="highway" v="residential"/>
  </way>
  <way id="5464102" version="4" timestamp="2010-07-09T06:15:47Z" uid="74617" user="JohnSmith" changeset="5171128">
    <nd ref="38790973"/>
    <nd ref="39820778"/>
    <nd ref="598232318"/>
    <nd ref="598232319"/>
    <nd ref="39820779"/>
    <nd ref="39820780"/>
    <nd ref="39820782"/>
    <nd ref="39820783"/>
    <tag k="highway" v="residential"/>
    <tag k="maxspeed" v="50"/>
    <tag k="maxspeed:source" v="default residential speed limit in Australia"/>
    <tag k="name" v="Barclay Place"/>
  </way>
  <way id="5464102" version="5" timestamp="2012-01-15T05:47:56Z" uid="147510" user="woodpeck_fixbot" changeset="10394551">
    <nd ref="38790973"/>
    <nd ref="39820778"/>
    <nd ref="598232318"/>
    <nd ref="598232319"/>
    <nd ref="39820779"/>
    <nd ref="39820780"/>
    <nd ref="39820782"/>
    <nd ref="39820783"/>
    <tag k="highway" v="residential"/>
    <tag k="name" v="Barclay Place"/>
  </way>
  <way id="5464117" version="3" timestamp="2010-03-01T07:44:41Z" uid="30201" user="rrankin" changeset="4006304">
    <nd ref="39820873"/>
    <nd ref="39820920"/>
    <nd ref="265742731"/>
    <nd ref="39820902"/>
    <nd ref="39820888"/>
    <nd ref="39820873"/>
    <tag k="highway" v="trunk"/>
    <tag k="junction" v="roundabout"/>
    <tag k="maxspeed" v="50"/>
    <tag k="name" v="Princes Highway"/>
    <tag k="ref" v="NR1"/>
  </way>
  <way id="5464117" version="4" timestamp="2010-04-02T02:57:55Z" uid="74617" user="JohnSmith" changeset="4299895">
    <nd ref="39820873"/>
    <nd ref="39820920"/>
    <nd ref="265742731"/>
    <nd ref="39820902"/>
    <nd ref="39820888"/>
    <nd ref="39820873"/>
    <tag k="highway" v="trunk"/>
    <tag k="junction" v="roundabout"/>
    <tag k="maxspeed" v="50"/>
    <tag k="name" v="Princes Highway"/>
  </way>
  <way id="5464117" version="5" timestamp="2010-04-02T03:10:30Z" uid="74617" user="JohnSmith" changeset="4299895">
    <nd ref="39820873"/>
    <nd ref="39820920"/>
    <nd ref="265742731"/>
    <nd ref="39820902"/>
    <nd ref="39820888"/>
    <nd ref="39820873"/>
    <tag k="highway" v="trunk"/>
    <tag k="junction" v="roundabout"/>
    <tag k="maxspeed" v="50"/>
  </way>
  <way id="5464117" version="6" timestamp="2010-05-10T05:48:47Z" uid="4467" user="Rosscoe" changeset="4656047">
    <nd ref="39820873"/>
    <nd ref="728172960"/>
    <nd ref="39820920"/>
    <nd ref="265742731"/>
    <nd ref="39820902"/>
    <nd ref="728172952"/>
    <nd ref="39820888"/>
    <nd ref="728172961"/>
    <nd ref="39820873"/>
    <tag k="highway" v="trunk"/>
    <tag k="junction" v="roundabout"/>
    <tag k="maxspeed" v="50"/>
  </way>
  <way id="5464120" version="4" timestamp="2010-03-01T07:44:40Z" uid="30201" user="rrankin" changeset="4006304">
    <nd ref="39814386"/>
    <nd ref="39814372"/>
    <nd ref="39820858"/>
    <nd ref="265730573"/>
    <nd ref="39820866"/>
    <nd ref="265742736"/>
    <nd ref="39820936"/>
    <tag k="highway" v="trunk"/>
    <tag k="maxspeed" v="50"/>
    <tag k="name" v="Princes Highway"/>
    <tag k="ref" v="NR1"/>
  </way>
  <way id="5464120" version="5" timestamp="2010-04-02T02:57:54Z" uid="74617" user="JohnSmith" changeset="4299895">
    <nd ref="39814386"/>
    <nd ref="39814372"/>
    <nd ref="39820858"/>
    <nd ref="265730573"/>
    <nd ref="39820866"/>
    <nd ref="265742736"/>
    <nd ref="39820936"/>
    <tag k="highway" v="trunk"/>
    <tag k="maxspeed" v="50"/>
    <tag k="name" v="Princes Highway"/>
  </way>
  <way id="5464120" version="6" timestamp="2010-04-02T03:10:30Z" uid="74617" user="JohnSmith" changeset="4299895">
    <nd ref="39814386"/>
    <nd ref="39814372"/>
    <nd ref="39820858"/>
    <nd ref="265730573"/>
    <nd ref="39820866"/>
    <nd ref="265742736"/>
    <nd ref="39820936"/>
    <tag k="highway" v="trunk"/>
    <tag k="maxspeed" v="50"/>
  </way>
  <way id="5464125" version="2" timestamp="2010-03-01T07:44:41Z" uid="30201" user="rrankin" changeset="4006304">
    <nd ref="39820936"/>
    <nd ref="39820873"/>
    <tag k="highway" v="trunk"/>
    <tag k="maxspeed" v="50"/>
    <tag k="name" v="Princes Highway"/>
    <tag k="oneway" v="yes"/>
    <tag k="ref" v="NR1"/>
  </way>
  <way id="5464125" version="3" timestamp="2010-04-02T02:57:54Z" uid="74617" user="JohnSmith" changeset="4299895">
    <nd ref="39820936"/>
    <nd ref="39820873"/>
    <tag k="highway" v="trunk"/>
    <tag k="maxspeed" v="50"/>
    <tag k="name" v="Princes Highway"/>
    <tag k="oneway" v="yes"/>
  </way>
  <way id="5464125" version="4" timestamp="2010-04-02T03:10:30Z" uid="74617" user="JohnSmith" changeset="4299895">
    <nd ref="39820936"/>
    <nd ref="39820873"/>
    <tag k="highway" v="trunk"/>
    <tag k="maxspeed" v="50"/>
    <tag k="oneway" v="yes"/>
  </way>
  <way id="5464126" version="2" timestamp="2010-03-01T07:44:41Z" uid="30201" user="rrankin" changeset="4006304">
    <nd ref="39820888"/>
    <nd ref="39820936"/>
    <tag k="highway" v="trunk"/>
    <tag k="maxspeed" v="50"/>
    <tag k="name" v="Princes Highway"/>
    <tag k="oneway" v="yes"/>
    <tag k="ref" v="NR1"/>
  </way>
  <way id="5464126" version="3" timestamp="2010-04-02T02:57:55Z" uid="74617" user="JohnSmith" changeset="4299895">
    <nd ref="39820888"/>
    <nd ref="39820936"/>
    <tag k="highway" v="trunk"/>
    <tag k="maxspeed" v="50"/>
    <tag k="name" v="Princes Highway"/>
    <tag k="oneway" v="yes"/>
  </way>
  <way id="5464126" version="4" timestamp="2010-04-02T03:10:30Z" uid="74617" user="JohnSmith" changeset="4299895">
    <nd ref="39820888"/>
    <nd ref="39820936"/>
    <tag k="highway" v="trunk"/>
    <tag k="maxspeed" v="50"/>
    <tag k="oneway" v="yes"/>
  </way>
  <way id="5464188" version="3" timestamp="2010-07-09T06:17:23Z" uid="74617" user="JohnSmith" changeset="5171128">
    <nd ref="39820857"/>
    <nd ref="39821943"/>
    <nd ref="39821944"/>
    <nd ref="39821946"/>
    <nd ref="39822754"/>
    <nd ref="39821949"/>
    <nd ref="39821950"/>
    <nd ref="39821952"/>
    <nd ref="39821953"/>
    <nd ref="39821957"/>
    <nd ref="39821959"/>
    <nd ref="39821960"/>
    <nd ref="39821961"/>
    <nd ref="39821963"/>
    <nd ref="39821965"/>
    <nd ref="39821967"/>
    <nd ref="598231665"/>
    <nd ref="39821969"/>
    <nd ref="39821973"/>
    <nd ref="598231666"/>
    <nd ref="39821974"/>
    <nd ref="39821975"/>
    <nd ref="39821979"/>
    <nd ref="39821981"/>
    <tag k="highway" v="residential"/>
    <tag k="maxspeed" v="50"/>
    <tag k="maxspeed:source" v="default residential speed limit in Australia"/>
    <tag k="name" v="Parkfield Way"/>
  </way>
  <way id="5464188" version="4" timestamp="2012-01-15T05:47:57Z" uid="147510" user="woodpeck_fixbot" changeset="10394551">
    <nd ref="39820857"/>
    <nd ref="39821943"/>
    <nd ref="39821944"/>
    <nd ref="39821946"/>
    <nd ref="39822754"/>
    <nd ref="39821949"/>
    <nd ref="39821950"/>
    <nd ref="39821952"/>
    <nd ref="39821953"/>
    <nd ref="39821957"/>
    <nd ref="39821959"/>
    <nd ref="39821960"/>
    <nd ref="39821961"/>
    <nd ref="39821963"/>
    <nd ref="39821965"/>
    <nd ref="39821967"/>
    <nd ref="598231665"/>
    <nd ref="39821969"/>
    <nd ref="39821973"/>
    <nd ref="598231666"/>
    <nd ref="39821974"/>
    <nd ref="39821975"/>
    <nd ref="39821979"/>
    <nd ref="39821981"/>
    <tag k="highway" v="residential"/>
    <tag k="name" v="Parkfield Way"/>
  </way>
  <way id="5464240" version="4" timestamp="2010-07-09T06:18:26Z" uid="74617" user="JohnSmith" changeset="5171128">
    <nd ref="747692524"/>
    <nd ref="747692525"/>
    <nd ref="39822655"/>
    <nd ref="39821943"/>
    <tag k="highway" v="residential"/>
    <tag k="maxspeed" v="50"/>
    <tag k="maxspeed:source" v="default residential speed limit in Australia"/>
    <tag k="name" v="Hughlings Pl"/>
  </way>
  <way id="5464240" version="5" timestamp="2010-07-09T06:53:01Z" uid="4467" user="Rosscoe" changeset="5171422">
    <nd ref="747692524"/>
    <nd ref="747692525"/>
    <nd ref="39822655"/>
    <nd ref="39821943"/>
    <tag k="highway" v="residential"/>
    <tag k="maxspeed" v="50"/>
    <tag k="maxspeed:source" v="default residential speed limit in Australia"/>
    <tag k="name" v="Hughlings Place"/>
  </way>
  <way id="5464240" version="6" timestamp="2011-04-27T06:09:26Z" uid="261730" user="Davoz" changeset="7981591">
    <nd ref="747692524"/>
    <nd ref="747692525"/>
    <nd ref="39822655"/>
    <nd ref="39821943"/>
    <tag k="highway" v="residential"/>
    <tag k="maxspeed" v="50"/>
    <tag k="maxspeed:source" v="default residential speed limit in Australia"/>
    <tag k="name" v="Hughlings Place"/>
  </way>
  <way id="5464240" version="7" timestamp="2012-01-15T05:47:58Z" uid="147510" user="woodpeck_fixbot" changeset="10394551">
    <nd ref="747692524"/>
    <nd ref="747692525"/>
    <nd ref="39822655"/>
    <nd ref="39821943"/>
    <tag k="highway" v="residential"/>
    <tag k="name" v="Hughlings Place"/>
  </way>
  <way id="5464280" version="3" timestamp="2010-06-01T02:55:08Z" uid="4467" user="Rosscoe" changeset="4871118">
    <nd ref="39822754"/>
    <nd ref="598231628"/>
    <nd ref="39823153"/>
    <tag k="highway" v="residential"/>
    <tag k="name" v="Hockins Place"/>
  </way>
  <way id="5464280" version="4" timestamp="2010-07-09T06:21:58Z" uid="74617" user="JohnSmith" changeset="5171128">
    <nd ref="39822754"/>
    <nd ref="598231628"/>
    <nd ref="39823153"/>
    <tag k="highway" v="residential"/>
    <tag k="maxspeed" v="50"/>
    <tag k="maxspeed:source" v="default residential speed limit in Australia"/>
    <tag k="name" v="Hockins Place"/>
  </way>
  <way id="5464280" version="5" timestamp="2012-01-15T05:47:59Z" uid="147510" user="woodpeck_fixbot" changeset="10394551">
    <nd ref="39822754"/>
    <nd ref="598231628"/>
    <nd ref="39823153"/>
    <tag k="highway" v="residential"/>
    <tag k="name" v="Hockins Place"/>
  </way>
  <way id="5464317" version="4" timestamp="2010-06-01T06:30:54Z" uid="4467" user="Rosscoe" changeset="4872033">
    <nd ref="39821953"/>
    <nd ref="39823689"/>
    <nd ref="39823691"/>
    <nd ref="39823692"/>
    <nd ref="747692523"/>
    <tag k="highway" v="residential"/>
    <tag k="name" v="Aylesbury Place"/>
  </way>
  <way id="5464317" version="5" timestamp="2010-07-09T06:16:19Z" uid="74617" user="JohnSmith" changeset="5171128">
    <nd ref="39821953"/>
    <nd ref="39823689"/>
    <nd ref="39823691"/>
    <nd ref="39823692"/>
    <nd ref="747692523"/>
    <tag k="highway" v="residential"/>
    <tag k="maxspeed" v="50"/>
    <tag k="maxspeed:source" v="default residential speed limit in Australia"/>
    <tag k="name" v="Aylesbury Place"/>
  </way>
  <way id="5464317" version="6" timestamp="2012-01-15T05:48:01Z" uid="147510" user="woodpeck_fixbot" changeset="10394551">
    <nd ref="39821953"/>
    <nd ref="39823689"/>
    <nd ref="39823691"/>
    <nd ref="39823692"/>
    <nd ref="747692523"/>
    <tag k="highway" v="residential"/>
    <tag k="name" v="Aylesbury Place"/>
  </way>
  <way id="5464346" version="3" timestamp="2010-06-01T08:10:21Z" uid="4467" user="Rosscoe" changeset="4872544">
    <nd ref="39821960"/>
    <nd ref="39824129"/>
    <nd ref="39824131"/>
    <nd ref="39824132"/>
    <nd ref="39824136"/>
    <tag k="highway" v="residential"/>
    <tag k="name" v="Hamilton Court"/>
  </way>
  <way id="5464346" version="4" timestamp="2010-07-09T06:24:02Z" uid="74617" user="JohnSmith" changeset="5171128">
    <nd ref="39821960"/>
    <nd ref="39824129"/>
    <nd ref="39824131"/>
    <nd ref="39824132"/>
    <nd ref="39824136"/>
    <tag k="highway" v="residential"/>
    <tag k="maxspeed" v="50"/>
    <tag k="maxspeed:source" v="default residential speed limit in Australia"/>
    <tag k="name" v="Hamilton Court"/>
  </way>
  <way id="5464346" version="5" timestamp="2011-02-17T03:04:45Z" uid="189263" user="wildmyron" changeset="7309603">
    <nd ref="39821960"/>
    <nd ref="39824136"/>
    <tag k="highway" v="residential"/>
    <tag k="maxspeed" v="50"/>
    <tag k="maxspeed:source" v="default residential speed limit in Australia"/>
    <tag k="name" v="Hamilton Court"/>
  </way>
  <way id="5464346" version="6" timestamp="2012-01-15T05:48:02Z" uid="147510" user="woodpeck_fixbot" changeset="10394551">
    <nd ref="39821960"/>
    <nd ref="39824136"/>
    <tag k="highway" v="residential"/>
    <tag k="name" v="Hamilton Court"/>
  </way>
  <way id="5464376" version="3" timestamp="2010-06-01T02:55:10Z" uid="4467" user="Rosscoe" changeset="4871118">
    <nd ref="39821973"/>
    <nd ref="39824489"/>
    <tag k="highway" v="residential"/>
    <tag k="name" v="Traquair Place"/>
  </way>
  <way id="5464376" version="4" timestamp="2010-07-09T06:16:25Z" uid="74617" user="JohnSmith" changeset="5171128">
    <nd ref="39821973"/>
    <nd ref="39824489"/>
    <tag k="highway" v="residential"/>
    <tag k="maxspeed" v="50"/>
    <tag k="maxspeed:source" v="default residential speed limit in Australia"/>
    <tag k="name" v="Traquair Place"/>
  </way>
  <way id="5464376" version="5" timestamp="2012-01-15T05:48:04Z" uid="147510" user="woodpeck_fixbot" changeset="10394551">
    <nd ref="39821973"/>
    <nd ref="39824489"/>
    <tag k="highway" v="residential"/>
    <tag k="name" v="Traquair Place"/>
  </way>
  <way id="5464422" version="3" timestamp="2010-06-01T02:55:12Z" uid="4467" user="Rosscoe" changeset="4871118">
    <nd ref="39821974"/>
    <nd ref="39825124"/>
    <nd ref="39825125"/>
    <nd ref="39825127"/>
    <tag k="highway" v="residential"/>
    <tag k="name" v="Alexandrina Place"/>
  </way>
  <way id="5464422" version="4" timestamp="2010-07-09T06:21:51Z" uid="74617" user="JohnSmith" changeset="5171128">
    <nd ref="39821974"/>
    <nd ref="39825124"/>
    <nd ref="39825125"/>
    <nd ref="39825127"/>
    <tag k="highway" v="residential"/>
    <tag k="maxspeed" v="50"/>
    <tag k="maxspeed:source" v="default residential speed limit in Australia"/>
    <tag k="name" v="Alexandrina Place"/>
  </way>
  <way id="5464422" version="5" timestamp="2012-01-15T05:48:05Z" uid="147510" user="woodpeck_fixbot" changeset="10394551">
    <nd ref="39821974"/>
    <nd ref="39825124"/>
    <nd ref="39825125"/>
    <nd ref="39825127"/>
    <tag k="highway" v="residential"/>
    <tag k="name" v="Alexandrina Place"/>
  </way>
  <way id="5464603" version="3" timestamp="2008-08-14T21:18:13Z" uid="6975" user="ulfl" changeset="264731">
    <nd ref="42428537"/>
    <nd ref="14603466"/>
    <tag k="bicycle" v="no"/>
    <tag k="foot" v="no"/>
    <tag k="highway" v="trunk"/>
    <tag k="horse" v="no"/>
    <tag k="layer" v="-1"/>
    <tag k="name" v="Culfail Tunnel"/>
    <tag k="ref" v="A26"/>
    <tag k="tunnel" v="true"/>
  </way>
  <way id="5464603" version="4" timestamp="2009-10-29T22:46:58Z" uid="60345" user="Mirko Küster" changeset="2984818">
    <nd ref="42428537"/>
    <nd ref="14603466"/>
    <tag k="bicycle" v="no"/>
    <tag k="foot" v="no"/>
    <tag k="highway" v="trunk"/>
    <tag k="horse" v="no"/>
    <tag k="layer" v="-1"/>
    <tag k="name" v="Culfail Tunnel"/>
    <tag k="ref" v="A26"/>
    <tag k="tunnel" v="yes"/>
  </way>
  <way id="5464603" version="5" timestamp="2011-05-22T10:16:25Z" uid="445530" user="ajrobb" changeset="8214412">
    <nd ref="42428537"/>
    <nd ref="1295874157"/>
    <nd ref="14603466"/>
    <tag k="bicycle" v="no"/>
    <tag k="foot" v="no"/>
    <tag k="highway" v="trunk"/>
    <tag k="horse" v="no"/>
    <tag k="layer" v="-1"/>
    <tag k="name" v="Culfail Tunnel"/>
    <tag k="ref" v="A26"/>
    <tag k="tunnel" v="yes"/>
  </way>
  <way id="5464603" version="6" timestamp="2011-10-13T13:17:03Z" uid="4951" user="PeterIto" changeset="9547146">
    <nd ref="42428537"/>
    <nd ref="1295874157"/>
    <nd ref="14603466"/>
    <tag k="bicycle" v="no"/>
    <tag k="foot" v="no"/>
    <tag k="highway" v="trunk"/>
    <tag k="horse" v="no"/>
    <tag k="lanes" v="2"/>
    <tag k="layer" v="-1"/>
    <tag k="name" v="Culfail Tunnel"/>
    <tag k="ref" v="A26"/>
    <tag k="tunnel" v="yes"/>
  </way>
  <way id="5464619" version="4" timestamp="2010-04-09T17:51:39Z" uid="23543" user="jkjk" changeset="4375547">
    <nd ref="39825267"/>
    <nd ref="39826238"/>
    <nd ref="39826078"/>
    <nd ref="39826892"/>
    <nd ref="39825413"/>
    <nd ref="342473675"/>
    <nd ref="39826783"/>
    <nd ref="342473678"/>
    <nd ref="39825281"/>
    <nd ref="342473686"/>
    <nd ref="342473692"/>
    <nd ref="342473698"/>
    <nd ref="39826095"/>
    <nd ref="39826737"/>
    <nd ref="342473700"/>
    <nd ref="39825465"/>
    <nd ref="39826731"/>
    <nd ref="342473706"/>
    <nd ref="39825307"/>
    <nd ref="342473713"/>
    <nd ref="39826763"/>
    <nd ref="342473716"/>
    <nd ref="39825062"/>
    <nd ref="342473723"/>
    <nd ref="342473730"/>
    <nd ref="39826137"/>
    <tag k="bicycle" v="no"/>
    <tag k="foot" v="no"/>
    <tag k="highway" v="trunk"/>
    <tag k="nat_ref" v="7"/>
    <tag k="oneway" v="yes"/>
  </way>
  <way id="5464619" version="5" timestamp="2010-08-17T14:49:34Z" uid="69628" user="vsandre" changeset="5518427">
    <nd ref="39825267"/>
    <nd ref="39826238"/>
    <nd ref="864758030"/>
    <tag k="bicycle" v="no"/>
    <tag k="foot" v="no"/>
    <tag k="highway" v="trunk"/>
    <tag k="nat_ref" v="7"/>
    <tag k="oneway" v="yes"/>
  </way>
  <way id="5464619" version="6" timestamp="2011-02-20T13:26:14Z" uid="217051" user="lpechacek" changeset="7342317">
    <nd ref="39825267"/>
    <nd ref="39826238"/>
    <nd ref="864758030"/>
    <tag k="bicycle" v="no"/>
    <tag k="foot" v="no"/>
    <tag k="highway" v="trunk"/>
    <tag k="nat_ref" v="7"/>
    <tag k="oneway" v="yes"/>
    <tag k="ref" v="7"/>
  </way>
</osm>
