<?xml version='1.0' encoding='UTF-8'?>
<osm version="0.6" generator="libosmium/2.20.0">
  <way id="54962156" version="2" timestamp="2010-07-08T18:58:13Z" uid="74617" user="JohnSmith" changeset="5167338">
    <nd ref="587179041"/>
    <nd ref="691508032"/>
    <nd ref="587179043"/>
    <tag k="highway" v="residential"/>
    <tag k="maxspeed" v="50"/>
    <tag k="maxspeed:source" v="default residential speed limit in Australia"/>
    <tag k="name" v="Conrad Court"/>
  </way>
  <way id="54962156" version="3" timestamp="2012-01-20T05:39:36Z" uid="147510" user="woodpeck_fixbot" changeset="10443281">
    <nd ref="587179041"/>
    <nd ref="691508032"/>
    <nd ref="587179043"/>
    <tag k="highway" v="residential"/>
    <tag k="name" v="Conrad Court"/>
  </way>
  <way id="54962157" version="2" timestamp="2010-07-08T18:55:57Z" uid="74617" user="JohnSmith" changeset="5167338">
    <nd ref="587179046"/>
    <nd ref="587179049"/>
    <tag k="highway" v="residential"/>
    <tag k="maxspeed" v="50"/>
    <tag k="maxspeed:source" v="default residential speed limit in Australia"/>
    <tag k="name" v="Claire Close"/>
  </way>
  <way id="54962157" version="3" timestamp="2012-01-20T05:39:37Z" uid="147510" user="woodpeck_fixbot" changeset="10443281">
    <nd ref="587179046"/>
    <nd ref="587179049"/>
    <tag k="highway" v="residential"/>
    <tag k="name" v="Claire Close"/>
  </way>
  <way id="54962916" version="6" timestamp="2010-05-29T06:28:00Z" uid="4467" user="Rosscoe" changeset="4839765">
    <nd ref="703043876"/>
    <nd ref="703044045"/>
    <nd ref="703044047"/>
    <nd ref="703044050"/>
    <nd ref="563701720"/>
    <nd ref="563701723"/>
    <nd ref="563701545"/>
    <tag k="highway" v="residential"/>
    <tag k="maxspeed" v="40"/>
    <tag k="name" v="Queen Street"/>
    <tag k="oneway" v="yes"/>
    <tag k="source" v="nearmap"/>
    <tag k="source:name" v="photo"/>
  </way>
</osm>
