<?xml version='1.0' encoding='UTF-8'?>
<osm version="0.6" generator="libosmium/2.20.0">
  <way id="55090702" version="2" timestamp="2010-07-08T20:00:39Z" uid="74617" user="JohnSmith" changeset="5168730">
    <nd ref="693003311"/>
    <nd ref="693003312"/>
    <nd ref="693003313"/>
    <nd ref="693003314"/>
    <nd ref="693003315"/>
    <nd ref="34221341"/>
    <tag k="highway" v="residential"/>
    <tag k="maxspeed" v="50"/>
    <tag k="maxspeed:source" v="default residential speed limit in Australia"/>
    <tag k="name" v="Rose Street"/>
  </way>
  <way id="55090702" version="3" timestamp="2012-01-20T05:42:13Z" uid="147510" user="woodpeck_fixbot" changeset="10443281">
    <nd ref="693003311"/>
    <nd ref="693003312"/>
    <nd ref="693003313"/>
    <nd ref="693003314"/>
    <nd ref="693003315"/>
    <nd ref="34221341"/>
    <tag k="highway" v="residential"/>
    <tag k="name" v="Rose Street"/>
  </way>
  <way id="55090717" version="2" timestamp="2010-07-08T20:00:55Z" uid="74617" user="JohnSmith" changeset="5168730">
    <nd ref="244892202"/>
    <nd ref="693003332"/>
    <nd ref="693003333"/>
    <nd ref="658951898"/>
    <tag k="highway" v="residential"/>
    <tag k="maxspeed" v="50"/>
    <tag k="maxspeed:source" v="default residential speed limit in Australia"/>
    <tag k="name" v="Rayner Street"/>
  </way>
  <way id="55090717" version="3" timestamp="2012-01-20T05:42:14Z" uid="147510" user="woodpeck_fixbot" changeset="10443281">
    <nd ref="244892202"/>
    <nd ref="693003332"/>
    <nd ref="693003333"/>
    <nd ref="658951898"/>
    <tag k="highway" v="residential"/>
    <tag k="name" v="Rayner Street"/>
  </way>
</osm>
