<?xml version='1.0' encoding='UTF-8'?>
<osm version="0.6" generator="libosmium/2.20.0">
  <way id="55251384" version="3" timestamp="2010-05-17T20:51:31Z" uid="9581" user="Lobelt" changeset="4733282">
    <nd ref="394974456"/>
    <nd ref="21666785"/>
    <nd ref="262603052"/>
    <nd ref="262603039"/>
    <nd ref="21666685"/>
    <nd ref="21666995"/>
    <nd ref="305152396"/>
    <nd ref="21666452"/>
    <nd ref="21666671"/>
    <nd ref="21667043"/>
    <nd ref="21666704"/>
    <nd ref="21666686"/>
    <tag k="highway" v="primary"/>
    <tag k="motorroad" v="yes"/>
    <tag k="ref" v="B 281"/>
  </way>
  <way id="55251384" version="4" timestamp="2010-05-22T10:37:12Z" uid="89943" user="Bengatzer" changeset="4773117">
    <nd ref="394974456"/>
    <nd ref="21666785"/>
    <nd ref="262603052"/>
    <tag k="highway" v="primary"/>
    <tag k="motorroad" v="yes"/>
    <tag k="ref" v="B 281"/>
  </way>
  <way id="55251384" version="5" timestamp="2011-11-13T17:38:56Z" uid="445671" user="flierfy" changeset="9816794">
    <nd ref="394974456"/>
    <nd ref="21666785"/>
    <nd ref="262603052"/>
    <tag k="highway" v="primary"/>
    <tag k="lanes" v="2"/>
    <tag k="motorroad" v="yes"/>
    <tag k="ref" v="B 281"/>
  </way>
  <way id="55251384" version="6" timestamp="2011-11-17T22:52:13Z" uid="192395" user="BBO" changeset="9858909"/>
</osm>
