<?xml version='1.0' encoding='UTF-8'?>
<osm version="0.6" generator="libosmium/2.20.0">
  <way id="55304045" version="2" timestamp="2011-03-15T11:39:06Z" uid="4467" user="Rosscoe" changeset="7565377">
    <nd ref="336145896"/>
    <nd ref="336145895"/>
    <nd ref="336145902"/>
    <nd ref="336146732"/>
    <nd ref="336146733"/>
    <nd ref="336146734"/>
    <nd ref="336146735"/>
    <nd ref="336146736"/>
    <nd ref="336146737"/>
    <nd ref="720435140"/>
    <tag k="highway" v="tertiary"/>
    <tag k="name" v="Cochrane Street"/>
  </way>
  <way id="55304655" version="2" timestamp="2010-07-09T05:01:27Z" uid="74617" user="JohnSmith" changeset="5170986">
    <nd ref="694813230"/>
    <nd ref="419541827"/>
    <nd ref="394660846"/>
    <tag k="highway" v="residential"/>
    <tag k="maxspeed" v="50"/>
    <tag k="maxspeed:source" v="default residential speed limit in Australia"/>
    <tag k="name" v="Thomas Street"/>
    <tag k="source" v="yahoo"/>
  </way>
  <way id="55304655" version="3" timestamp="2012-01-20T05:47:24Z" uid="147510" user="woodpeck_fixbot" changeset="10443281">
    <nd ref="694813230"/>
    <nd ref="419541827"/>
    <nd ref="394660846"/>
    <tag k="highway" v="residential"/>
    <tag k="name" v="Thomas Street"/>
    <tag k="source" v="yahoo"/>
  </way>
  <way id="55304656" version="2" timestamp="2010-05-04T04:21:22Z" uid="4467" user="Rosscoe" changeset="4601071">
    <nd ref="694812945"/>
    <nd ref="694813295"/>
    <nd ref="694813317"/>
    <nd ref="694813331"/>
    <nd ref="694813346"/>
    <nd ref="694813360"/>
    <nd ref="694813230"/>
    <nd ref="694813366"/>
    <nd ref="336145932"/>
    <tag k="highway" v="service"/>
    <tag k="name" v="Maroondah Highway Service Road"/>
    <tag k="oneway" v="yes"/>
  </way>
  <way id="55304656" version="3" timestamp="2011-11-28T13:28:01Z" uid="46482" user="Leon K" changeset="9977776">
    <nd ref="694812945"/>
    <nd ref="694813295"/>
    <nd ref="694813317"/>
    <nd ref="694813331"/>
    <nd ref="694813346"/>
    <nd ref="694813360"/>
    <nd ref="694813230"/>
    <nd ref="694813366"/>
    <nd ref="1521081873"/>
    <tag k="highway" v="service"/>
    <tag k="name" v="Maroondah Highway Service Road"/>
    <tag k="oneway" v="yes"/>
  </way>
</osm>
