<?xml version='1.0' encoding='UTF-8'?>
<osm version="0.6" generator="libosmium/2.20.0">
  <way id="55338335" version="3" timestamp="2010-05-12T13:40:07Z" uid="4467" user="Rosscoe" changeset="4677243">
    <nd ref="695114810"/>
    <nd ref="359618996"/>
    <nd ref="730859577"/>
    <tag k="highway" v="tertiary"/>
    <tag k="name" v="McGilvray Avenue"/>
  </way>
  <way id="55338335" version="4" timestamp="2011-09-27T12:50:06Z" uid="142807" user="SDavies" changeset="9410412">
    <nd ref="695114810"/>
    <nd ref="1446959612"/>
    <nd ref="359618996"/>
    <nd ref="730859577"/>
    <tag k="highway" v="tertiary"/>
    <tag k="name" v="McGilvray Avenue"/>
  </way>
  <way id="55338335" version="5" timestamp="2011-11-30T06:34:13Z" uid="142807" user="SDavies" changeset="9995977">
    <nd ref="695114810"/>
    <nd ref="1446959612"/>
    <nd ref="359618996"/>
    <nd ref="730859577"/>
    <tag k="highway" v="secondary"/>
    <tag k="name" v="McGilvray Avenue"/>
  </way>
  <way id="55338337" version="2" timestamp="2010-07-09T18:39:33Z" uid="74617" user="JohnSmith" changeset="5175636">
    <nd ref="359304608"/>
    <nd ref="283715549"/>
    <nd ref="283715696"/>
    <nd ref="283715653"/>
    <nd ref="283715621"/>
    <nd ref="283715586"/>
    <tag k="highway" v="residential"/>
    <tag k="maxspeed" v="50"/>
    <tag k="maxspeed:source" v="default residential speed limit in Australia"/>
    <tag k="name" v="Danube Avenue"/>
  </way>
  <way id="55338337" version="3" timestamp="2011-09-20T12:26:20Z" uid="142807" user="SDavies" changeset="9350955">
    <nd ref="359304608"/>
    <nd ref="283715549"/>
    <nd ref="283715696"/>
    <nd ref="1438277262"/>
    <nd ref="283715653"/>
    <nd ref="1438277257"/>
    <nd ref="283715621"/>
    <nd ref="283715586"/>
    <tag k="highway" v="residential"/>
    <tag k="maxspeed" v="50"/>
    <tag k="maxspeed:source" v="default residential speed limit in Australia"/>
    <tag k="name" v="Danube Avenue"/>
  </way>
  <way id="55338337" version="4" timestamp="2011-09-24T07:20:42Z" uid="142807" user="SDavies" changeset="9381992">
    <nd ref="359304608"/>
    <nd ref="283715549"/>
    <nd ref="283715696"/>
    <nd ref="1438277262"/>
    <nd ref="283715653"/>
    <nd ref="1438277257"/>
    <nd ref="283715621"/>
    <nd ref="1444160187"/>
    <nd ref="283715586"/>
    <tag k="highway" v="residential"/>
    <tag k="maxspeed" v="50"/>
    <tag k="maxspeed:source" v="default residential speed limit in Australia"/>
    <tag k="name" v="Danube Avenue"/>
  </way>
  <way id="55338337" version="5" timestamp="2011-10-24T16:51:14Z" uid="142807" user="SDavies" changeset="9645109">
    <nd ref="359304608"/>
    <nd ref="283715549"/>
    <nd ref="283715696"/>
    <nd ref="1438277262"/>
    <nd ref="283715653"/>
    <nd ref="1438277257"/>
    <nd ref="283715621"/>
    <nd ref="1444160187"/>
    <nd ref="283715586"/>
    <tag k="highway" v="tertiary"/>
    <tag k="maxspeed" v="50"/>
    <tag k="maxspeed:source" v="default residential speed limit in Australia"/>
    <tag k="name" v="Danube Avenue"/>
  </way>
  <way id="55338337" version="6" timestamp="2011-11-29T12:37:46Z" uid="142807" user="SDavies" changeset="9987287">
    <nd ref="359304608"/>
    <nd ref="283715549"/>
    <nd ref="283715696"/>
    <nd ref="1438277262"/>
    <nd ref="283715653"/>
    <tag k="highway" v="tertiary"/>
    <tag k="maxspeed" v="50"/>
    <tag k="maxspeed:source" v="default residential speed limit in Australia"/>
    <tag k="name" v="Danube Avenue"/>
  </way>
  <way id="55338337" version="7" timestamp="2012-01-20T05:48:21Z" uid="147510" user="woodpeck_fixbot" changeset="10443281">
    <nd ref="359304608"/>
    <nd ref="283715549"/>
    <nd ref="283715696"/>
    <nd ref="1438277262"/>
    <nd ref="283715653"/>
    <tag k="highway" v="tertiary"/>
    <tag k="name" v="Danube Avenue"/>
  </way>
  <way id="55338338" version="2" timestamp="2010-07-09T18:32:33Z" uid="74617" user="JohnSmith" changeset="5175636">
    <nd ref="695114824"/>
    <nd ref="179378345"/>
    <nd ref="179378346"/>
    <nd ref="346249109"/>
    <nd ref="179378349"/>
    <nd ref="179378352"/>
    <tag k="highway" v="residential"/>
    <tag k="maxspeed" v="50"/>
    <tag k="maxspeed:source" v="default residential speed limit in Australia"/>
    <tag k="name" v="McAllister Way"/>
  </way>
  <way id="55338338" version="3" timestamp="2012-01-20T05:48:23Z" uid="147510" user="woodpeck_fixbot" changeset="10443281">
    <nd ref="695114824"/>
    <nd ref="179378345"/>
    <nd ref="179378346"/>
    <nd ref="346249109"/>
    <nd ref="179378349"/>
    <nd ref="179378352"/>
    <tag k="highway" v="residential"/>
    <tag k="name" v="McAllister Way"/>
  </way>
  <way id="55338339" version="2" timestamp="2010-07-09T18:19:00Z" uid="74617" user="JohnSmith" changeset="5175636">
    <nd ref="129391389"/>
    <nd ref="129391390"/>
    <nd ref="129391391"/>
    <nd ref="129391392"/>
    <nd ref="129391394"/>
    <nd ref="129391395"/>
    <nd ref="129391396"/>
    <nd ref="129391397"/>
    <nd ref="179378352"/>
    <nd ref="129391399"/>
    <nd ref="129391400"/>
    <nd ref="129391401"/>
    <nd ref="129391402"/>
    <nd ref="129391403"/>
    <tag k="highway" v="residential"/>
    <tag k="maxspeed" v="50"/>
    <tag k="maxspeed:source" v="default residential speed limit in Australia"/>
    <tag k="name" v="Maguire Avenue"/>
  </way>
  <way id="55338339" version="3" timestamp="2011-09-20T12:52:28Z" uid="142807" user="SDavies" changeset="9351124">
    <nd ref="129391389"/>
    <nd ref="129391390"/>
    <nd ref="129391391"/>
    <nd ref="129391392"/>
    <nd ref="129391394"/>
    <nd ref="129391395"/>
    <nd ref="1438310758"/>
    <nd ref="129391396"/>
    <nd ref="129391397"/>
    <nd ref="179378352"/>
    <nd ref="129391399"/>
    <nd ref="129391400"/>
    <nd ref="129391401"/>
    <nd ref="129391402"/>
    <nd ref="129391403"/>
    <tag k="highway" v="residential"/>
    <tag k="maxspeed" v="50"/>
    <tag k="maxspeed:source" v="default residential speed limit in Australia"/>
    <tag k="name" v="Maguire Avenue"/>
  </way>
  <way id="55338339" version="4" timestamp="2011-10-24T20:12:19Z" uid="142807" user="SDavies" changeset="9647101">
    <nd ref="129391389"/>
    <nd ref="129391390"/>
    <nd ref="129391391"/>
    <nd ref="129391392"/>
    <nd ref="129391394"/>
    <nd ref="129391395"/>
    <nd ref="1438310758"/>
    <nd ref="129391396"/>
    <nd ref="129391397"/>
    <nd ref="179378352"/>
    <nd ref="129391399"/>
    <nd ref="129391400"/>
    <nd ref="129391401"/>
    <nd ref="129391402"/>
    <nd ref="129391403"/>
    <tag k="highway" v="tertiary"/>
    <tag k="maxspeed" v="50"/>
    <tag k="maxspeed:source" v="default residential speed limit in Australia"/>
    <tag k="name" v="Maguire Avenue"/>
  </way>
  <way id="55338339" version="5" timestamp="2012-01-20T05:48:24Z" uid="147510" user="woodpeck_fixbot" changeset="10443281">
    <nd ref="129391389"/>
    <nd ref="129391390"/>
    <nd ref="129391391"/>
    <nd ref="129391392"/>
    <nd ref="129391394"/>
    <nd ref="129391395"/>
    <nd ref="1438310758"/>
    <nd ref="129391396"/>
    <nd ref="129391397"/>
    <nd ref="179378352"/>
    <nd ref="129391399"/>
    <nd ref="129391400"/>
    <nd ref="129391401"/>
    <nd ref="129391402"/>
    <nd ref="129391403"/>
    <tag k="highway" v="tertiary"/>
    <tag k="name" v="Maguire Avenue"/>
  </way>
  <way id="55338340" version="2" timestamp="2010-07-09T18:37:05Z" uid="74617" user="JohnSmith" changeset="5175636">
    <nd ref="359303765"/>
    <nd ref="359304608"/>
    <tag k="highway" v="residential"/>
    <tag k="maxspeed" v="50"/>
    <tag k="maxspeed:source" v="default residential speed limit in Australia"/>
    <tag k="name" v="Danube Avenue"/>
  </way>
  <way id="55338340" version="3" timestamp="2011-10-24T16:51:14Z" uid="142807" user="SDavies" changeset="9645109">
    <nd ref="359303765"/>
    <nd ref="359304608"/>
    <tag k="highway" v="tertiary"/>
    <tag k="maxspeed" v="50"/>
    <tag k="maxspeed:source" v="default residential speed limit in Australia"/>
    <tag k="name" v="Danube Avenue"/>
  </way>
  <way id="55338340" version="4" timestamp="2012-01-20T05:48:25Z" uid="147510" user="woodpeck_fixbot" changeset="10443281">
    <nd ref="359303765"/>
    <nd ref="359304608"/>
    <tag k="highway" v="tertiary"/>
    <tag k="name" v="Danube Avenue"/>
  </way>
  <way id="55338343" version="2" timestamp="2010-07-09T18:26:30Z" uid="74617" user="JohnSmith" changeset="5175636">
    <nd ref="695114823"/>
    <nd ref="79212946"/>
    <tag k="highway" v="residential"/>
    <tag k="maxspeed" v="50"/>
    <tag k="maxspeed:source" v="default residential speed limit in Australia"/>
    <tag k="name" v="Hull Way"/>
  </way>
  <way id="55338343" version="3" timestamp="2011-09-24T18:06:14Z" uid="142807" user="SDavies" changeset="9386372">
    <nd ref="695114823"/>
    <nd ref="1444804504"/>
    <nd ref="1444804509"/>
    <nd ref="79212946"/>
    <tag k="highway" v="residential"/>
    <tag k="maxspeed" v="50"/>
    <tag k="maxspeed:source" v="default residential speed limit in Australia"/>
    <tag k="name" v="Hull Way"/>
  </way>
  <way id="55338343" version="4" timestamp="2012-01-20T05:48:27Z" uid="147510" user="woodpeck_fixbot" changeset="10443281">
    <nd ref="695114823"/>
    <nd ref="1444804504"/>
    <nd ref="1444804509"/>
    <nd ref="79212946"/>
    <tag k="highway" v="residential"/>
    <tag k="name" v="Hull Way"/>
  </way>
  <way id="55338344" version="2" timestamp="2010-07-09T18:38:58Z" uid="74617" user="JohnSmith" changeset="5175636">
    <nd ref="179375352"/>
    <nd ref="129391388"/>
    <nd ref="129391389"/>
    <tag k="highway" v="residential"/>
    <tag k="maxspeed" v="50"/>
    <tag k="maxspeed:source" v="default residential speed limit in Australia"/>
    <tag k="name" v="Maguire Avenue"/>
  </way>
  <way id="55338344" version="3" timestamp="2011-10-24T20:12:19Z" uid="142807" user="SDavies" changeset="9647101">
    <nd ref="179375352"/>
    <nd ref="129391388"/>
    <nd ref="129391389"/>
    <tag k="highway" v="tertiary"/>
    <tag k="maxspeed" v="50"/>
    <tag k="maxspeed:source" v="default residential speed limit in Australia"/>
    <tag k="name" v="Maguire Avenue"/>
  </way>
  <way id="55338344" version="4" timestamp="2012-01-20T05:48:29Z" uid="147510" user="woodpeck_fixbot" changeset="10443281">
    <nd ref="179375352"/>
    <nd ref="129391388"/>
    <nd ref="129391389"/>
    <tag k="highway" v="tertiary"/>
    <tag k="name" v="Maguire Avenue"/>
  </way>
  <way id="55338737" version="2" timestamp="2010-07-08T17:46:54Z" uid="74617" user="JohnSmith" changeset="5167338">
    <nd ref="695117825"/>
    <nd ref="695117829"/>
    <nd ref="695117818"/>
    <nd ref="695117830"/>
    <nd ref="695117828"/>
    <nd ref="695117827"/>
    <nd ref="695117824"/>
    <nd ref="695117823"/>
    <nd ref="695117822"/>
    <nd ref="695117820"/>
    <nd ref="695117819"/>
    <nd ref="695117826"/>
    <tag k="highway" v="residential"/>
    <tag k="maxspeed" v="50"/>
    <tag k="maxspeed:source" v="default residential speed limit in Australia"/>
  </way>
  <way id="55338737" version="3" timestamp="2012-01-20T05:48:30Z" uid="147510" user="woodpeck_fixbot" changeset="10443281">
    <nd ref="695117825"/>
    <nd ref="695117829"/>
    <nd ref="695117818"/>
    <nd ref="695117830"/>
    <nd ref="695117828"/>
    <nd ref="695117827"/>
    <nd ref="695117824"/>
    <nd ref="695117823"/>
    <nd ref="695117822"/>
    <nd ref="695117820"/>
    <nd ref="695117819"/>
    <nd ref="695117826"/>
    <tag k="highway" v="residential"/>
  </way>
  <way id="55338737" version="4" timestamp="2012-02-13T07:17:52Z" uid="11111" user="melb_guy" changeset="10670600">
    <nd ref="695117825"/>
    <nd ref="695117829"/>
    <nd ref="695117818"/>
    <nd ref="695117830"/>
    <nd ref="695117828"/>
    <nd ref="695117827"/>
    <nd ref="695117824"/>
    <nd ref="695117823"/>
    <nd ref="695117822"/>
    <nd ref="695117820"/>
    <nd ref="695117819"/>
    <nd ref="695117826"/>
    <tag k="highway" v="unclassified"/>
    <tag k="maxspeed" v="100"/>
    <tag k="name" v="Loch Street North"/>
  </way>
  <way id="55338738" version="2" timestamp="2010-07-08T17:50:37Z" uid="74617" user="JohnSmith" changeset="5167338">
    <nd ref="695117821"/>
    <nd ref="695117819"/>
    <tag k="highway" v="residential"/>
    <tag k="maxspeed" v="50"/>
    <tag k="maxspeed:source" v="default residential speed limit in Australia"/>
    <tag k="name" v="Reserve Road"/>
  </way>
  <way id="55338738" version="3" timestamp="2012-01-20T05:48:31Z" uid="147510" user="woodpeck_fixbot" changeset="10443281">
    <nd ref="695117821"/>
    <nd ref="695117819"/>
    <tag k="highway" v="residential"/>
    <tag k="name" v="Reserve Road"/>
  </way>
  <way id="55338739" version="2" timestamp="2010-07-08T17:49:43Z" uid="74617" user="JohnSmith" changeset="5167338">
    <nd ref="416852478"/>
    <nd ref="695117826"/>
    <tag k="highway" v="residential"/>
    <tag k="maxspeed" v="50"/>
    <tag k="maxspeed:source" v="default residential speed limit in Australia"/>
    <tag k="surface" v="asphalt"/>
  </way>
  <way id="55338739" version="3" timestamp="2012-01-20T05:48:32Z" uid="147510" user="woodpeck_fixbot" changeset="10443281">
    <nd ref="416852478"/>
    <nd ref="695117826"/>
    <tag k="highway" v="residential"/>
    <tag k="surface" v="asphalt"/>
  </way>
  <way id="55338739" version="4" timestamp="2012-02-13T07:17:52Z" uid="11111" user="melb_guy" changeset="10670600">
    <nd ref="416852478"/>
    <nd ref="1630968254"/>
    <nd ref="1630967631"/>
    <nd ref="695117826"/>
    <nd ref="1630967736"/>
    <nd ref="1630967893"/>
    <nd ref="1630967855"/>
    <nd ref="1630967777"/>
    <tag k="highway" v="unclassified"/>
    <tag k="lanes" v="2"/>
    <tag k="maxspeed" v="60"/>
    <tag k="name" v="Waterloo Road"/>
    <tag k="surface" v="asphalt"/>
  </way>
  <way id="55338776" version="2" timestamp="2010-05-02T07:56:36Z" uid="4467" user="Rosscoe" changeset="4581885">
    <nd ref="447757153"/>
    <nd ref="437071730"/>
    <nd ref="716554606"/>
    <nd ref="716554649"/>
    <tag k="highway" v="residential"/>
    <tag k="name" v="Kenny Street"/>
    <tag k="source" v="nearmap"/>
  </way>
  <way id="55338776" version="3" timestamp="2010-07-09T20:57:33Z" uid="74617" user="JohnSmith" changeset="5176956">
    <nd ref="447757153"/>
    <nd ref="437071730"/>
    <nd ref="716554606"/>
    <nd ref="716554649"/>
    <tag k="highway" v="residential"/>
    <tag k="maxspeed" v="50"/>
    <tag k="maxspeed:source" v="default residential speed limit in Australia"/>
    <tag k="name" v="Kenny Street"/>
    <tag k="source" v="nearmap"/>
  </way>
  <way id="55338776" version="4" timestamp="2012-01-20T05:48:33Z" uid="147510" user="woodpeck_fixbot" changeset="10443281">
    <nd ref="447757153"/>
    <nd ref="437071730"/>
    <nd ref="716554606"/>
    <nd ref="716554649"/>
    <tag k="highway" v="residential"/>
    <tag k="name" v="Kenny Street"/>
    <tag k="source" v="nearmap"/>
  </way>
  <way id="55338779" version="3" timestamp="2010-07-09T20:52:03Z" uid="74617" user="JohnSmith" changeset="5176956">
    <nd ref="436958814"/>
    <nd ref="695120339"/>
    <tag k="highway" v="residential"/>
    <tag k="maxspeed" v="50"/>
    <tag k="maxspeed:source" v="default residential speed limit in Australia"/>
    <tag k="name" v="Wyatt Road"/>
  </way>
  <way id="55338779" version="4" timestamp="2012-01-20T05:48:35Z" uid="147510" user="woodpeck_fixbot" changeset="10443281">
    <nd ref="436958814"/>
    <nd ref="695120339"/>
    <tag k="highway" v="residential"/>
    <tag k="name" v="Wyatt Road"/>
  </way>
  <way id="55338781" version="2" timestamp="2010-07-09T21:05:47Z" uid="74617" user="JohnSmith" changeset="5176956">
    <nd ref="436958815"/>
    <nd ref="446857892"/>
    <tag k="highway" v="residential"/>
    <tag k="maxspeed" v="50"/>
    <tag k="maxspeed:source" v="default residential speed limit in Australia"/>
    <tag k="name" v="River Road"/>
  </way>
  <way id="55338781" version="3" timestamp="2012-01-20T05:48:36Z" uid="147510" user="woodpeck_fixbot" changeset="10443281">
    <nd ref="436958815"/>
    <nd ref="446857892"/>
    <tag k="highway" v="residential"/>
    <tag k="name" v="River Road"/>
  </way>
  <way id="55338782" version="2" timestamp="2010-07-09T21:14:09Z" uid="74617" user="JohnSmith" changeset="5176956">
    <nd ref="446857892"/>
    <nd ref="437071799"/>
    <nd ref="437071832"/>
    <nd ref="437071823"/>
    <nd ref="437071690"/>
    <tag k="highway" v="residential"/>
    <tag k="maxspeed" v="50"/>
    <tag k="maxspeed:source" v="default residential speed limit in Australia"/>
    <tag k="name" v="River Road"/>
  </way>
  <way id="55338782" version="3" timestamp="2010-12-08T09:01:33Z" uid="95751" user="Juffy" changeset="6582824">
    <nd ref="446857892"/>
    <nd ref="437071799"/>
    <nd ref="437071832"/>
    <nd ref="437071823"/>
    <nd ref="437071690"/>
    <tag k="cycleway" v="lane"/>
    <tag k="highway" v="residential"/>
    <tag k="maxspeed" v="50"/>
    <tag k="maxspeed:source" v="default residential speed limit in Australia"/>
    <tag k="name" v="River Road"/>
  </way>
  <way id="55338782" version="4" timestamp="2011-12-03T17:29:41Z" uid="142807" user="SDavies" changeset="10026562">
    <nd ref="446857892"/>
    <nd ref="437071799"/>
    <nd ref="437071832"/>
    <nd ref="437071823"/>
    <tag k="cycleway" v="lane"/>
    <tag k="highway" v="residential"/>
    <tag k="maxspeed" v="50"/>
    <tag k="maxspeed:source" v="default residential speed limit in Australia"/>
    <tag k="name" v="River Road"/>
  </way>
  <way id="55338782" version="5" timestamp="2011-12-05T13:38:00Z" uid="142807" user="SDavies" changeset="10041993">
    <nd ref="446857892"/>
    <nd ref="437071799"/>
    <nd ref="1532739438"/>
    <nd ref="437071832"/>
    <nd ref="437071823"/>
    <tag k="cycleway" v="lane"/>
    <tag k="highway" v="residential"/>
    <tag k="maxspeed" v="50"/>
    <tag k="maxspeed:source" v="default residential speed limit in Australia"/>
    <tag k="name" v="River Road"/>
  </way>
  <way id="55338782" version="6" timestamp="2012-01-20T05:48:37Z" uid="147510" user="woodpeck_fixbot" changeset="10443281">
    <nd ref="446857892"/>
    <nd ref="437071799"/>
    <nd ref="1532739438"/>
    <nd ref="437071832"/>
    <nd ref="437071823"/>
    <tag k="cycleway" v="lane"/>
    <tag k="highway" v="residential"/>
    <tag k="name" v="River Road"/>
  </way>
  <way id="55338783" version="2" timestamp="2010-07-09T20:55:55Z" uid="74617" user="JohnSmith" changeset="5176956">
    <nd ref="437121835"/>
    <nd ref="437121837"/>
    <nd ref="437121744"/>
    <tag k="highway" v="residential"/>
    <tag k="maxspeed" v="50"/>
    <tag k="maxspeed:source" v="default residential speed limit in Australia"/>
    <tag k="name" v="Elder Parade"/>
  </way>
  <way id="55338783" version="3" timestamp="2011-12-04T07:18:10Z" uid="142807" user="SDavies" changeset="10030375">
    <nd ref="437121835"/>
    <nd ref="437121837"/>
    <nd ref="1530669773"/>
    <nd ref="437121744"/>
    <tag k="highway" v="residential"/>
    <tag k="maxspeed" v="50"/>
    <tag k="maxspeed:source" v="default residential speed limit in Australia"/>
    <tag k="name" v="Elder Parade"/>
  </way>
  <way id="55338783" version="4" timestamp="2012-01-20T05:48:38Z" uid="147510" user="woodpeck_fixbot" changeset="10443281">
    <nd ref="437121835"/>
    <nd ref="437121837"/>
    <nd ref="1530669773"/>
    <nd ref="437121744"/>
    <tag k="highway" v="residential"/>
    <tag k="name" v="Elder Parade"/>
  </way>
  <way id="55338784" version="2" timestamp="2010-07-09T20:59:47Z" uid="74617" user="JohnSmith" changeset="5176956">
    <nd ref="447757153"/>
    <nd ref="437121965"/>
    <nd ref="437121835"/>
    <tag k="highway" v="residential"/>
    <tag k="maxspeed" v="50"/>
    <tag k="maxspeed:source" v="default residential speed limit in Australia"/>
    <tag k="name" v="Chapman Street"/>
  </way>
  <way id="55338784" version="3" timestamp="2012-01-20T05:48:40Z" uid="147510" user="woodpeck_fixbot" changeset="10443281">
    <nd ref="447757153"/>
    <nd ref="437121965"/>
    <nd ref="437121835"/>
    <tag k="highway" v="residential"/>
    <tag k="name" v="Chapman Street"/>
  </way>
  <way id="55338785" version="2" timestamp="2010-07-09T18:31:32Z" uid="74617" user="JohnSmith" changeset="5175636">
    <nd ref="359567849"/>
    <nd ref="359567851"/>
    <nd ref="346265081"/>
    <tag k="highway" v="residential"/>
    <tag k="maxspeed" v="50"/>
    <tag k="maxspeed:source" v="default residential speed limit in Australia"/>
    <tag k="name" v="Second Avenue"/>
  </way>
  <way id="55338785" version="3" timestamp="2011-12-07T19:03:06Z" uid="142807" user="SDavies" changeset="10060130">
    <nd ref="359567849"/>
    <nd ref="1535607183"/>
    <nd ref="1535607155"/>
    <nd ref="359567851"/>
    <nd ref="1535607164"/>
    <nd ref="346265081"/>
    <tag k="highway" v="residential"/>
    <tag k="maxspeed" v="50"/>
    <tag k="maxspeed:source" v="default residential speed limit in Australia"/>
    <tag k="name" v="Second Avenue"/>
  </way>
  <way id="55338785" version="4" timestamp="2012-01-20T05:48:42Z" uid="147510" user="woodpeck_fixbot" changeset="10443281">
    <nd ref="359567849"/>
    <nd ref="1535607183"/>
    <nd ref="1535607155"/>
    <nd ref="359567851"/>
    <nd ref="1535607164"/>
    <nd ref="346265081"/>
    <tag k="highway" v="residential"/>
    <tag k="name" v="Second Avenue"/>
  </way>
  <way id="55338789" version="2" timestamp="2010-07-09T18:39:26Z" uid="74617" user="JohnSmith" changeset="5175636">
    <nd ref="346264980"/>
    <nd ref="275226930"/>
    <tag k="highway" v="residential"/>
    <tag k="maxspeed" v="50"/>
    <tag k="maxspeed:source" v="default residential speed limit in Australia"/>
    <tag k="source" v="Yahoo Imagery"/>
  </way>
  <way id="55338789" version="3" timestamp="2011-12-06T18:42:00Z" uid="142807" user="SDavies" changeset="10052300">
    <nd ref="346264980"/>
    <nd ref="1534362749"/>
    <nd ref="275226930"/>
    <tag k="highway" v="residential"/>
    <tag k="maxspeed" v="50"/>
    <tag k="maxspeed:source" v="default residential speed limit in Australia"/>
    <tag k="source" v="Yahoo Imagery"/>
  </way>
  <way id="55338789" version="4" timestamp="2011-12-09T07:39:55Z" uid="142807" user="SDavies" changeset="10071006">
    <nd ref="346264980"/>
    <nd ref="1534362749"/>
    <nd ref="275226930"/>
    <tag k="highway" v="residential"/>
    <tag k="maxspeed" v="50"/>
    <tag k="maxspeed:source" v="default residential speed limit in Australia"/>
    <tag k="name" v="Gallagher Street"/>
    <tag k="source" v="Yahoo Imagery"/>
  </way>
  <way id="55338789" version="5" timestamp="2012-01-20T05:48:43Z" uid="147510" user="woodpeck_fixbot" changeset="10443281">
    <nd ref="346264980"/>
    <nd ref="1534362749"/>
    <nd ref="275226930"/>
    <tag k="highway" v="residential"/>
    <tag k="name" v="Gallagher Street"/>
    <tag k="source" v="Yahoo Imagery"/>
  </way>
  <way id="55338791" version="2" timestamp="2010-07-09T18:18:54Z" uid="74617" user="JohnSmith" changeset="5175636">
    <nd ref="53254884"/>
    <nd ref="86647656"/>
    <nd ref="53254890"/>
    <nd ref="86646593"/>
    <nd ref="86646094"/>
    <nd ref="53254895"/>
    <tag k="highway" v="residential"/>
    <tag k="maxspeed" v="50"/>
    <tag k="maxspeed:source" v="default residential speed limit in Australia"/>
    <tag k="name" v="Rosher Road"/>
  </way>
  <way id="55338791" version="3" timestamp="2011-10-24T20:10:58Z" uid="142807" user="SDavies" changeset="9647101">
    <nd ref="53254884"/>
    <nd ref="86647656"/>
    <nd ref="53254890"/>
    <nd ref="86646593"/>
    <nd ref="86646094"/>
    <nd ref="53254895"/>
    <tag k="highway" v="tertiary"/>
    <tag k="maxspeed" v="50"/>
    <tag k="maxspeed:source" v="default residential speed limit in Australia"/>
    <tag k="name" v="Rosher Road"/>
  </way>
  <way id="55338791" version="4" timestamp="2012-01-20T05:48:45Z" uid="147510" user="woodpeck_fixbot" changeset="10443281">
    <nd ref="53254884"/>
    <nd ref="86647656"/>
    <nd ref="53254890"/>
    <nd ref="86646593"/>
    <nd ref="86646094"/>
    <nd ref="53254895"/>
    <tag k="highway" v="tertiary"/>
    <tag k="name" v="Rosher Road"/>
  </way>
  <way id="55338792" version="2" timestamp="2010-07-09T18:30:35Z" uid="74617" user="JohnSmith" changeset="5175636">
    <nd ref="53254879"/>
    <nd ref="53254880"/>
    <nd ref="53254882"/>
    <nd ref="53254883"/>
    <nd ref="53254884"/>
    <tag k="highway" v="residential"/>
    <tag k="maxspeed" v="50"/>
    <tag k="maxspeed:source" v="default residential speed limit in Australia"/>
    <tag k="name" v="Rosher Road"/>
  </way>
  <way id="55338792" version="3" timestamp="2011-10-24T20:10:58Z" uid="142807" user="SDavies" changeset="9647101">
    <nd ref="53254879"/>
    <nd ref="53254880"/>
    <nd ref="53254882"/>
    <nd ref="53254883"/>
    <nd ref="53254884"/>
    <tag k="highway" v="tertiary"/>
    <tag k="maxspeed" v="50"/>
    <tag k="maxspeed:source" v="default residential speed limit in Australia"/>
    <tag k="name" v="Rosher Road"/>
  </way>
  <way id="55338792" version="4" timestamp="2012-01-20T05:48:46Z" uid="147510" user="woodpeck_fixbot" changeset="10443281">
    <nd ref="53254879"/>
    <nd ref="53254880"/>
    <nd ref="53254882"/>
    <nd ref="53254883"/>
    <nd ref="53254884"/>
    <tag k="highway" v="tertiary"/>
    <tag k="name" v="Rosher Road"/>
  </way>
  <way id="55338793" version="2" timestamp="2010-07-09T18:16:52Z" uid="74617" user="JohnSmith" changeset="5175636">
    <nd ref="53256430"/>
    <nd ref="94508932"/>
    <nd ref="594362442"/>
    <nd ref="94509572"/>
    <nd ref="53256438"/>
    <nd ref="53256439"/>
    <nd ref="53256440"/>
    <nd ref="53256442"/>
    <nd ref="53256443"/>
    <nd ref="53256445"/>
    <nd ref="51095967"/>
    <tag k="highway" v="residential"/>
    <tag k="maxspeed" v="50"/>
    <tag k="maxspeed:source" v="default residential speed limit in Australia"/>
    <tag k="name" v="Diana Crescent"/>
  </way>
  <way id="55338793" version="3" timestamp="2011-10-24T20:10:59Z" uid="142807" user="SDavies" changeset="9647101">
    <nd ref="53256430"/>
    <nd ref="94508932"/>
    <nd ref="594362442"/>
    <nd ref="94509572"/>
    <nd ref="53256438"/>
    <nd ref="53256439"/>
    <nd ref="53256440"/>
    <nd ref="53256442"/>
    <nd ref="53256443"/>
    <nd ref="53256445"/>
    <nd ref="51095967"/>
    <tag k="highway" v="tertiary"/>
    <tag k="maxspeed" v="50"/>
    <tag k="maxspeed:source" v="default residential speed limit in Australia"/>
    <tag k="name" v="Diana Crescent"/>
  </way>
  <way id="55338793" version="4" timestamp="2011-11-29T13:31:13Z" uid="142807" user="SDavies" changeset="9987690">
    <nd ref="53256430"/>
    <nd ref="94508932"/>
    <nd ref="594362442"/>
    <nd ref="94509572"/>
    <nd ref="53256438"/>
    <nd ref="53256439"/>
    <nd ref="53256440"/>
    <nd ref="53256442"/>
    <tag k="highway" v="tertiary"/>
    <tag k="maxspeed" v="50"/>
    <tag k="maxspeed:source" v="default residential speed limit in Australia"/>
    <tag k="name" v="Diana Crescent"/>
  </way>
  <way id="55338793" version="5" timestamp="2012-01-20T05:48:47Z" uid="147510" user="woodpeck_fixbot" changeset="10443281">
    <nd ref="53256430"/>
    <nd ref="94508932"/>
    <nd ref="594362442"/>
    <nd ref="94509572"/>
    <nd ref="53256438"/>
    <nd ref="53256439"/>
    <nd ref="53256440"/>
    <nd ref="53256442"/>
    <tag k="highway" v="tertiary"/>
    <tag k="name" v="Diana Crescent"/>
  </way>
  <way id="55338794" version="4" timestamp="2010-05-07T14:16:14Z" uid="4467" user="Rosscoe" changeset="4630441">
    <nd ref="179357909"/>
    <nd ref="179357917"/>
    <nd ref="558246137"/>
    <nd ref="179357918"/>
    <nd ref="558246144"/>
    <nd ref="179357921"/>
    <nd ref="179357922"/>
    <nd ref="179349235"/>
    <nd ref="558246163"/>
    <nd ref="179357928"/>
    <tag k="highway" v="secondary"/>
    <tag k="name" v="Thurkle Street"/>
  </way>
  <way id="55338794" version="5" timestamp="2011-10-24T20:15:45Z" uid="142807" user="SDavies" changeset="9647178">
    <nd ref="179357909"/>
    <nd ref="179357917"/>
    <nd ref="558246137"/>
    <nd ref="179357918"/>
    <nd ref="558246144"/>
    <nd ref="179357921"/>
    <nd ref="179357922"/>
    <nd ref="179349235"/>
    <tag k="highway" v="tertiary"/>
    <tag k="name" v="Thurkle Street"/>
  </way>
  <way id="55338795" version="2" timestamp="2010-07-09T18:21:07Z" uid="74617" user="JohnSmith" changeset="5175636">
    <nd ref="556321740"/>
    <nd ref="179375361"/>
    <nd ref="179375362"/>
    <nd ref="179357909"/>
    <tag k="highway" v="residential"/>
    <tag k="maxspeed" v="50"/>
    <tag k="maxspeed:source" v="default residential speed limit in Australia"/>
    <tag k="name" v="Cuttler Avenue"/>
  </way>
  <way id="55338795" version="3" timestamp="2011-10-24T20:12:20Z" uid="142807" user="SDavies" changeset="9647101">
    <nd ref="556321740"/>
    <nd ref="179375361"/>
    <nd ref="179375362"/>
    <nd ref="179357909"/>
    <tag k="highway" v="tertiary"/>
    <tag k="maxspeed" v="50"/>
    <tag k="maxspeed:source" v="default residential speed limit in Australia"/>
    <tag k="name" v="Cuttler Avenue"/>
  </way>
  <way id="55338795" version="4" timestamp="2012-01-20T05:48:49Z" uid="147510" user="woodpeck_fixbot" changeset="10443281">
    <nd ref="556321740"/>
    <nd ref="179375361"/>
    <nd ref="179375362"/>
    <nd ref="179357909"/>
    <tag k="highway" v="tertiary"/>
    <tag k="name" v="Cuttler Avenue"/>
  </way>
  <way id="55338919" version="2" timestamp="2010-07-08T17:50:36Z" uid="74617" user="JohnSmith" changeset="5167338">
    <nd ref="695119738"/>
    <nd ref="416857358"/>
    <nd ref="695119739"/>
    <tag k="highway" v="residential"/>
    <tag k="maxspeed" v="50"/>
    <tag k="maxspeed:source" v="default residential speed limit in Australia"/>
    <tag k="name" v="Langford Street"/>
    <tag k="surface" v="asphalt"/>
  </way>
  <way id="55338919" version="3" timestamp="2011-11-24T03:05:02Z" uid="168136" user="goldfishxyz" changeset="9928808">
    <nd ref="695119738"/>
    <nd ref="1514860832"/>
    <nd ref="416857358"/>
    <nd ref="695119739"/>
    <tag k="highway" v="residential"/>
    <tag k="maxspeed" v="50"/>
    <tag k="maxspeed:source" v="default residential speed limit in Australia"/>
    <tag k="name" v="Langford Street"/>
    <tag k="surface" v="asphalt"/>
  </way>
  <way id="55338919" version="4" timestamp="2012-01-20T05:48:50Z" uid="147510" user="woodpeck_fixbot" changeset="10443281">
    <nd ref="695119738"/>
    <nd ref="1514860832"/>
    <nd ref="416857358"/>
    <nd ref="695119739"/>
    <tag k="highway" v="residential"/>
    <tag k="name" v="Langford Street"/>
    <tag k="surface" v="asphalt"/>
  </way>
  <way id="55338920" version="2" timestamp="2010-07-08T17:50:58Z" uid="74617" user="JohnSmith" changeset="5167338">
    <nd ref="695119740"/>
    <nd ref="695119739"/>
    <tag k="highway" v="residential"/>
    <tag k="maxspeed" v="50"/>
    <tag k="maxspeed:source" v="default residential speed limit in Australia"/>
    <tag k="surface" v="asphalt"/>
  </way>
  <way id="55338920" version="3" timestamp="2011-01-03T03:38:01Z" uid="46482" user="Leon K" changeset="6845999"/>
  <way id="55338992" version="2" timestamp="2010-07-09T21:00:35Z" uid="74617" user="JohnSmith" changeset="5176956">
    <nd ref="695120341"/>
    <nd ref="695120342"/>
    <nd ref="695120343"/>
    <nd ref="695120340"/>
    <nd ref="695120344"/>
    <nd ref="695120345"/>
    <nd ref="695120346"/>
    <nd ref="695120339"/>
    <nd ref="695120341"/>
    <tag k="highway" v="residential"/>
    <tag k="junction" v="roundabout"/>
    <tag k="maxspeed" v="50"/>
    <tag k="maxspeed:source" v="default residential speed limit in Australia"/>
    <tag k="name" v="Wright Crescent"/>
  </way>
  <way id="55338992" version="3" timestamp="2012-01-20T05:48:52Z" uid="147510" user="woodpeck_fixbot" changeset="10443281">
    <nd ref="695120341"/>
    <nd ref="695120342"/>
    <nd ref="695120343"/>
    <nd ref="695120340"/>
    <nd ref="695120344"/>
    <nd ref="695120345"/>
    <nd ref="695120346"/>
    <nd ref="695120339"/>
    <nd ref="695120341"/>
    <tag k="highway" v="residential"/>
    <tag k="junction" v="roundabout"/>
    <tag k="name" v="Wright Crescent"/>
  </way>
</osm>
