<?xml version='1.0' encoding='UTF-8'?>
<osm version="0.6" generator="libosmium/2.20.0">
  <way id="55581010" version="1" timestamp="2010-04-16T11:39:23Z" uid="163746" user="anti_bot-nonsense" changeset="4438034">
    <nd ref="698563794"/>
    <nd ref="698563806"/>
    <tag k="layer" v="-1"/>
    <tag k="man_made" v="pipeline"/>
    <tag k="name" v="Franzosengraben"/>
    <tag k="tunnel" v="yes"/>
    <tag k="type" v="water"/>
    <tag k="waterway" v="stream"/>
  </way>
  <way id="55581011" version="1" timestamp="2010-04-16T11:39:23Z" uid="163746" user="anti_bot-nonsense" changeset="4438034">
    <nd ref="698563806"/>
    <nd ref="698563808"/>
    <nd ref="696124647"/>
    <tag k="layer" v="-1"/>
    <tag k="name" v="Franzosengraben"/>
    <tag k="waterway" v="stream"/>
  </way>
  <way id="55581011" version="2" timestamp="2011-09-13T07:55:18Z" uid="149876" user="dbusse" changeset="9287200">
    <nd ref="698563806"/>
    <nd ref="696124647"/>
    <tag k="layer" v="-1"/>
    <tag k="name" v="Franzosengraben"/>
    <tag k="waterway" v="stream"/>
  </way>
  <way id="55581012" version="1" timestamp="2010-04-16T11:39:24Z" uid="163746" user="anti_bot-nonsense" changeset="4438034">
    <nd ref="696124467"/>
    <nd ref="696124671"/>
    <nd ref="696116767"/>
    <nd ref="696116757"/>
    <nd ref="696116749"/>
    <nd ref="696124503"/>
    <nd ref="697311282"/>
    <nd ref="248844660"/>
    <nd ref="697315432"/>
    <nd ref="696116772"/>
    <nd ref="696116779"/>
    <nd ref="696116769"/>
    <nd ref="698544017"/>
    <nd ref="696124702"/>
    <nd ref="696116751"/>
    <nd ref="696116746"/>
    <nd ref="696116773"/>
    <nd ref="696116764"/>
    <nd ref="696116755"/>
    <nd ref="696124563"/>
    <nd ref="696116761"/>
    <nd ref="696116753"/>
    <nd ref="696116747"/>
    <nd ref="696116774"/>
    <nd ref="696116765"/>
    <nd ref="696116756"/>
    <nd ref="696116750"/>
    <nd ref="696116781"/>
    <tag k="highway" v="track"/>
    <tag k="surface" v="ground"/>
    <tag k="tracktype" v="grade3"/>
    <tag k="width" v="3"/>
  </way>
  <way id="55581012" version="2" timestamp="2011-09-12T09:34:28Z" uid="149876" user="dbusse" changeset="9278604">
    <nd ref="696124467"/>
    <nd ref="696124671"/>
    <nd ref="696116767"/>
    <nd ref="696116757"/>
    <nd ref="696116749"/>
    <nd ref="696124503"/>
    <nd ref="697311282"/>
    <nd ref="248844660"/>
    <nd ref="697315432"/>
    <nd ref="1430800517"/>
    <nd ref="696116779"/>
    <nd ref="696116769"/>
    <nd ref="698544017"/>
    <nd ref="696124702"/>
    <nd ref="696116751"/>
    <nd ref="696116746"/>
    <nd ref="696116773"/>
    <nd ref="696116764"/>
    <nd ref="696116755"/>
    <nd ref="696124563"/>
    <nd ref="696116761"/>
    <nd ref="696116753"/>
    <nd ref="696116747"/>
    <nd ref="696116774"/>
    <nd ref="696116765"/>
    <nd ref="696116756"/>
    <nd ref="696116750"/>
    <nd ref="696116781"/>
    <tag k="highway" v="track"/>
    <tag k="surface" v="ground"/>
    <tag k="tracktype" v="grade3"/>
    <tag k="width" v="3"/>
  </way>
  <way id="55581012" version="3" timestamp="2011-09-13T07:55:34Z" uid="149876" user="dbusse" changeset="9287200"/>
  <way id="55581013" version="1" timestamp="2010-04-16T11:39:25Z" uid="163746" user="anti_bot-nonsense" changeset="4438034">
    <nd ref="698563802"/>
    <nd ref="696124467"/>
    <tag k="bridge" v="yes"/>
    <tag k="highway" v="track"/>
    <tag k="surface" v="ground"/>
    <tag k="tracktype" v="grade3"/>
    <tag k="width" v="3"/>
  </way>
  <way id="55581013" version="2" timestamp="2011-09-13T07:55:34Z" uid="149876" user="dbusse" changeset="9287200"/>
  <way id="55581014" version="1" timestamp="2010-04-16T11:39:25Z" uid="163746" user="anti_bot-nonsense" changeset="4438034">
    <nd ref="698563800"/>
    <nd ref="698563795"/>
    <nd ref="698563797"/>
    <nd ref="698563791"/>
    <nd ref="698563793"/>
    <nd ref="698563800"/>
    <tag k="natural" v="water"/>
  </way>
  <way id="55581015" version="1" timestamp="2010-04-16T11:39:25Z" uid="163746" user="anti_bot-nonsense" changeset="4438034">
    <nd ref="698563804"/>
    <nd ref="698563807"/>
    <nd ref="698563801"/>
    <nd ref="698563803"/>
    <nd ref="698563796"/>
    <nd ref="698563790"/>
    <nd ref="698563798"/>
    <nd ref="698563804"/>
    <tag k="natural" v="water"/>
  </way>
  <way id="55581016" version="1" timestamp="2010-04-16T11:39:25Z" uid="163746" user="anti_bot-nonsense" changeset="4438034">
    <nd ref="698563792"/>
    <nd ref="698563805"/>
    <nd ref="698563799"/>
    <nd ref="698563794"/>
    <tag k="layer" v="-1"/>
    <tag k="name" v="Franzosengraben"/>
    <tag k="waterway" v="stream"/>
  </way>
  <way id="55581076" version="3" timestamp="2011-01-03T05:17:08Z" uid="18775" user="drlizau" changeset="6845966">
    <nd ref="698564754"/>
    <nd ref="698564751"/>
    <nd ref="698564749"/>
    <nd ref="698564746"/>
    <nd ref="698564743"/>
    <nd ref="698564740"/>
    <nd ref="698564737"/>
    <nd ref="698564722"/>
    <nd ref="698564720"/>
    <nd ref="698564717"/>
    <nd ref="698564714"/>
    <nd ref="698564711"/>
    <nd ref="698564708"/>
    <nd ref="698564706"/>
    <nd ref="698564704"/>
    <nd ref="698564701"/>
    <nd ref="698564698"/>
    <nd ref="698564697"/>
    <nd ref="698564696"/>
    <nd ref="698564695"/>
    <nd ref="698551716"/>
    <tag k="name" v="Tidbinbilla River"/>
    <tag k="waterway" v="stream"/>
  </way>
  <way id="55581414" version="1" timestamp="2010-04-16T11:52:21Z" uid="64977" user="CLoeser" changeset="4438142">
    <nd ref="698577640"/>
    <nd ref="698577645"/>
    <nd ref="698577651"/>
    <nd ref="698577655"/>
    <nd ref="698577659"/>
    <nd ref="698577664"/>
    <nd ref="698577669"/>
    <nd ref="698577673"/>
    <nd ref="698577698"/>
    <nd ref="698577640"/>
    <tag k="addr:city" v="Itzehoe"/>
    <tag k="addr:country" v="DE"/>
    <tag k="addr:housenumber" v="253"/>
    <tag k="addr:postcode" v="25524"/>
    <tag k="addr:street" v="Lindenstraße"/>
    <tag k="amenity" v="fuel"/>
    <tag k="fuel:GTL_diesel" v="yes"/>
    <tag k="fuel:HGV_diesel" v="yes"/>
    <tag k="fuel:diesel" v="yes"/>
    <tag k="fuel:octane_95" v="yes"/>
    <tag k="name" v="Shell Station"/>
    <tag k="opening_hours" v="24/7"/>
    <tag k="operator" v="Shell"/>
    <tag k="phone" v="+494821799440"/>
  </way>
  <way id="55581414" version="2" timestamp="2011-11-10T11:03:14Z" uid="333740" user="chkr" changeset="9787879">
    <nd ref="698577640"/>
    <nd ref="1497180307"/>
    <nd ref="1497180306"/>
    <nd ref="1497180305"/>
    <nd ref="698577645"/>
    <nd ref="698577651"/>
    <nd ref="698577655"/>
    <nd ref="698577659"/>
    <nd ref="698577664"/>
    <nd ref="698577669"/>
    <nd ref="698577673"/>
    <nd ref="698577698"/>
    <nd ref="698577640"/>
    <tag k="addr:city" v="Itzehoe"/>
    <tag k="addr:country" v="DE"/>
    <tag k="addr:housenumber" v="253"/>
    <tag k="addr:postcode" v="25524"/>
    <tag k="addr:street" v="Lindenstraße"/>
    <tag k="amenity" v="fuel"/>
    <tag k="building" v="yes"/>
    <tag k="fuel:GTL_diesel" v="yes"/>
    <tag k="fuel:HGV_diesel" v="yes"/>
    <tag k="fuel:diesel" v="yes"/>
    <tag k="fuel:octane_95" v="yes"/>
    <tag k="name" v="Shell"/>
    <tag k="opening_hours" v="24/7"/>
    <tag k="operator" v="Shell"/>
    <tag k="phone" v="+494821799440"/>
  </way>
  <way id="55581415" version="1" timestamp="2010-04-16T11:52:22Z" uid="64977" user="CLoeser" changeset="4438142">
    <nd ref="698577735"/>
    <nd ref="698577741"/>
    <nd ref="698577746"/>
    <nd ref="698577753"/>
    <nd ref="698577735"/>
    <tag k="landuse" v="construction"/>
  </way>
  <way id="55581415" version="2" timestamp="2012-01-16T18:46:47Z" uid="429794" user="SennaHB" changeset="10410875"/>
  <way id="55581416" version="1" timestamp="2010-04-16T11:52:23Z" uid="64977" user="CLoeser" changeset="4438142">
    <nd ref="698577768"/>
    <nd ref="698577773"/>
    <nd ref="698577776"/>
    <nd ref="698577780"/>
    <nd ref="698577784"/>
    <nd ref="698577786"/>
    <nd ref="698577789"/>
    <nd ref="698577793"/>
    <nd ref="698577768"/>
    <tag k="landuse" v="industrial"/>
  </way>
  <way id="55581417" version="1" timestamp="2010-04-16T11:52:23Z" uid="64977" user="CLoeser" changeset="4438142">
    <nd ref="698577804"/>
    <nd ref="698577811"/>
    <nd ref="698577814"/>
    <nd ref="698577816"/>
    <nd ref="698577819"/>
    <nd ref="698577822"/>
    <nd ref="698577804"/>
    <tag k="landuse" v="residential"/>
  </way>
  <way id="55581420" version="1" timestamp="2010-04-16T11:52:24Z" uid="64977" user="CLoeser" changeset="4438142">
    <nd ref="698577848"/>
    <nd ref="698577854"/>
    <nd ref="698577862"/>
    <nd ref="698577868"/>
    <nd ref="698577848"/>
    <tag k="leisure" v="pitch"/>
    <tag k="sport" v="soccer"/>
  </way>
</osm>
