<?xml version='1.0' encoding='UTF-8'?>
<osm version="0.6" generator="libosmium/2.20.0">
  <way id="55728941" version="1" timestamp="2010-04-17T19:32:29Z" uid="110593" user="esetzer" changeset="4451276">
    <nd ref="365504713"/>
    <nd ref="700174183"/>
    <nd ref="700174184"/>
    <nd ref="700174185"/>
    <nd ref="700174186"/>
    <nd ref="700174187"/>
    <nd ref="83621297"/>
    <tag k="bicycle" v="yes"/>
    <tag k="created_by" v="Merkaartor 0.11"/>
    <tag k="highway" v="footway"/>
  </way>
  <way id="55728944" version="1" timestamp="2010-04-17T19:32:34Z" uid="110593" user="esetzer" changeset="4451276">
    <nd ref="700174191"/>
    <nd ref="700174197"/>
    <nd ref="700174198"/>
    <nd ref="700174199"/>
    <nd ref="700174200"/>
    <nd ref="700174203"/>
    <nd ref="700174191"/>
    <tag k="created_by" v="Merkaartor 0.11"/>
    <tag k="landuse" v="brownfield"/>
  </way>
  <way id="55728945" version="1" timestamp="2010-04-17T19:32:49Z" uid="110593" user="esetzer" changeset="4451280">
    <nd ref="388447415"/>
    <nd ref="368166067"/>
    <nd ref="700174205"/>
    <nd ref="700174207"/>
    <nd ref="700174371"/>
    <nd ref="700174376"/>
    <nd ref="388447414"/>
    <nd ref="388447415"/>
    <tag k="created_by" v="Merkaartor 0.11"/>
    <tag k="landuse" v="commercial"/>
  </way>
  <way id="55728946" version="1" timestamp="2010-04-17T19:32:51Z" uid="110593" user="esetzer" changeset="4451280">
    <nd ref="700174191"/>
    <nd ref="700174405"/>
    <tag k="barrier" v="fence"/>
    <tag k="created_by" v="Merkaartor 0.11"/>
  </way>
  <way id="55728947" version="1" timestamp="2010-04-17T19:32:52Z" uid="110593" user="esetzer" changeset="4451280">
    <nd ref="388447415"/>
    <nd ref="388447414"/>
    <nd ref="700174376"/>
    <tag k="barrier" v="fence"/>
    <tag k="created_by" v="Merkaartor 0.11"/>
  </way>
  <way id="55728948" version="1" timestamp="2010-04-17T19:32:53Z" uid="110593" user="esetzer" changeset="4451280">
    <nd ref="700174197"/>
    <nd ref="700174198"/>
    <tag k="barrier" v="fence"/>
    <tag k="created_by" v="Merkaartor 0.11"/>
  </way>
  <way id="55728987" version="2" timestamp="2011-01-17T17:37:49Z" uid="115477" user="wowik" changeset="7001640">
    <nd ref="700174697"/>
    <nd ref="700174698"/>
    <nd ref="700174699"/>
    <nd ref="700174700"/>
    <nd ref="700174697"/>
    <tag k="addr:city" v="Зеленоград"/>
    <tag k="addr:housenumber" v="28"/>
    <tag k="addr:street" v="улица Панфилова"/>
    <tag k="building" v="yes"/>
  </way>
  <way id="55728987" version="3" timestamp="2012-03-27T08:08:03Z" uid="481934" user="iWowik" changeset="11113698">
    <nd ref="700174697"/>
    <nd ref="700174698"/>
    <nd ref="700174699"/>
    <nd ref="700174700"/>
    <nd ref="700174697"/>
    <tag k="addr:city" v="Зеленоград"/>
    <tag k="addr:country" v="RU"/>
    <tag k="addr:housenumber" v="28"/>
    <tag k="addr:street" v="улица Панфилова"/>
    <tag k="building" v="yes"/>
  </way>
  <way id="55728987" version="4" timestamp="2012-03-27T11:40:27Z" uid="481934" user="iWowik" changeset="11115472">
    <nd ref="700174697"/>
    <nd ref="700174698"/>
    <nd ref="700174699"/>
    <nd ref="700174700"/>
    <nd ref="700174697"/>
    <tag k="addr:city" v="Зеленоград"/>
    <tag k="addr:country" v="RU"/>
    <tag k="addr:housenumber" v="28"/>
    <tag k="addr:region" v="Москва"/>
    <tag k="addr:street" v="улица Панфилова"/>
    <tag k="building" v="yes"/>
  </way>
  <way id="55728988" version="2" timestamp="2011-01-14T16:42:23Z" uid="115477" user="wowik" changeset="6968851">
    <nd ref="700174701"/>
    <nd ref="700174702"/>
    <nd ref="700174703"/>
    <nd ref="1103423135"/>
    <nd ref="700174704"/>
    <nd ref="700174701"/>
    <tag k="addr:city" v="Зеленоград"/>
    <tag k="addr:housenumber" v="28В"/>
    <tag k="addr:street" v="улица Панфилова"/>
    <tag k="building" v="yes"/>
  </way>
  <way id="55728988" version="3" timestamp="2011-01-17T17:38:56Z" uid="115477" user="wowik" changeset="7001640">
    <nd ref="700174701"/>
    <nd ref="700174702"/>
    <nd ref="1107818548"/>
    <nd ref="700174703"/>
    <nd ref="1103423135"/>
    <nd ref="700174704"/>
    <nd ref="700174701"/>
    <tag k="addr:city" v="Зеленоград"/>
    <tag k="addr:housenumber" v="28В"/>
    <tag k="addr:street" v="улица Панфилова"/>
    <tag k="building" v="yes"/>
  </way>
  <way id="55728988" version="4" timestamp="2012-03-27T08:08:06Z" uid="481934" user="iWowik" changeset="11113698">
    <nd ref="700174701"/>
    <nd ref="700174702"/>
    <nd ref="1107818548"/>
    <nd ref="700174703"/>
    <nd ref="1103423135"/>
    <nd ref="700174704"/>
    <nd ref="700174701"/>
    <tag k="addr:city" v="Зеленоград"/>
    <tag k="addr:country" v="RU"/>
    <tag k="addr:housenumber" v="28В"/>
    <tag k="addr:street" v="улица Панфилова"/>
    <tag k="building" v="yes"/>
  </way>
  <way id="55728988" version="5" timestamp="2012-03-27T11:40:29Z" uid="481934" user="iWowik" changeset="11115472">
    <nd ref="700174701"/>
    <nd ref="700174702"/>
    <nd ref="1107818548"/>
    <nd ref="700174703"/>
    <nd ref="1103423135"/>
    <nd ref="700174704"/>
    <nd ref="700174701"/>
    <tag k="addr:city" v="Зеленоград"/>
    <tag k="addr:country" v="RU"/>
    <tag k="addr:housenumber" v="28В"/>
    <tag k="addr:region" v="Москва"/>
    <tag k="addr:street" v="улица Панфилова"/>
    <tag k="building" v="yes"/>
  </way>
  <way id="55728990" version="2" timestamp="2011-01-14T16:43:45Z" uid="115477" user="wowik" changeset="6968851">
    <nd ref="700174705"/>
    <nd ref="700174706"/>
    <nd ref="700174707"/>
    <nd ref="700174708"/>
    <nd ref="700174705"/>
    <tag k="addr:city" v="Зеленоград"/>
    <tag k="addr:housenumber" v="21с5"/>
    <tag k="addr:street" v="улица Панфилова"/>
    <tag k="amenity" v="prison"/>
    <tag k="building" v="yes"/>
    <tag k="is_in" v="Russia"/>
  </way>
  <way id="55728990" version="3" timestamp="2011-01-19T16:51:11Z" uid="70696" user="xybot" changeset="7021015">
    <nd ref="700174705"/>
    <nd ref="700174706"/>
    <nd ref="700174707"/>
    <nd ref="700174708"/>
    <nd ref="700174705"/>
    <tag k="addr:city" v="Зеленоград"/>
    <tag k="addr:housenumber" v="21 с5"/>
    <tag k="addr:street" v="улица Панфилова"/>
    <tag k="amenity" v="prison"/>
    <tag k="building" v="yes"/>
    <tag k="is_in" v="Russia"/>
  </way>
  <way id="55728990" version="4" timestamp="2011-09-13T10:24:46Z" uid="29320" user="Komяpa" changeset="9288237">
    <nd ref="700174705"/>
    <nd ref="700174706"/>
    <nd ref="700174707"/>
    <nd ref="700174708"/>
    <nd ref="700174705"/>
    <tag k="addr:city" v="Зеленоград"/>
    <tag k="addr:country" v="RU"/>
    <tag k="addr:housenumber" v="21 с5"/>
    <tag k="addr:street" v="улица Панфилова"/>
    <tag k="amenity" v="prison"/>
    <tag k="building" v="yes"/>
  </way>
  <way id="55728990" version="5" timestamp="2012-03-27T11:39:40Z" uid="481934" user="iWowik" changeset="11115472">
    <nd ref="700174705"/>
    <nd ref="700174706"/>
    <nd ref="700174707"/>
    <nd ref="700174708"/>
    <nd ref="700174705"/>
    <tag k="addr:city" v="Зеленоград"/>
    <tag k="addr:country" v="RU"/>
    <tag k="addr:housenumber" v="21 с5"/>
    <tag k="addr:region" v="Москва"/>
    <tag k="addr:street" v="улица Панфилова"/>
    <tag k="amenity" v="prison"/>
    <tag k="building" v="yes"/>
  </way>
  <way id="55728991" version="5" timestamp="2011-01-14T16:44:27Z" uid="115477" user="wowik" changeset="6968851">
    <nd ref="700174709"/>
    <nd ref="700174710"/>
    <nd ref="700174711"/>
    <nd ref="700174712"/>
    <nd ref="700174709"/>
    <tag k="addr:city" v="Зеленоград"/>
    <tag k="addr:housenumber" v="21с1"/>
    <tag k="addr:street" v="улица Панфилова"/>
    <tag k="amenity" v="prison"/>
    <tag k="building" v="yes"/>
    <tag k="is_in" v="Russia"/>
    <tag k="name" v="СИЗО №12"/>
  </way>
  <way id="55728991" version="6" timestamp="2011-01-19T16:51:11Z" uid="70696" user="xybot" changeset="7021015">
    <nd ref="700174709"/>
    <nd ref="700174710"/>
    <nd ref="700174711"/>
    <nd ref="700174712"/>
    <nd ref="700174709"/>
    <tag k="addr:city" v="Зеленоград"/>
    <tag k="addr:housenumber" v="21 с1"/>
    <tag k="addr:street" v="улица Панфилова"/>
    <tag k="amenity" v="prison"/>
    <tag k="building" v="yes"/>
    <tag k="is_in" v="Russia"/>
    <tag k="name" v="СИЗО №12"/>
  </way>
  <way id="55728991" version="7" timestamp="2011-09-13T10:31:12Z" uid="29320" user="Komяpa" changeset="9288237">
    <nd ref="700174709"/>
    <nd ref="700174710"/>
    <nd ref="700174711"/>
    <nd ref="700174712"/>
    <nd ref="700174709"/>
    <tag k="addr:city" v="Зеленоград"/>
    <tag k="addr:country" v="RU"/>
    <tag k="addr:housenumber" v="21 с1"/>
    <tag k="addr:street" v="улица Панфилова"/>
    <tag k="amenity" v="prison"/>
    <tag k="building" v="yes"/>
    <tag k="name" v="СИЗО №12"/>
  </way>
  <way id="55728991" version="8" timestamp="2012-03-27T11:47:53Z" uid="481934" user="iWowik" changeset="11115472">
    <nd ref="700174709"/>
    <nd ref="700174710"/>
    <nd ref="700174711"/>
    <nd ref="700174712"/>
    <nd ref="700174709"/>
    <tag k="addr:city" v="Зеленоград"/>
    <tag k="addr:country" v="RU"/>
    <tag k="addr:housenumber" v="21 с1"/>
    <tag k="addr:region" v="Москва"/>
    <tag k="addr:street" v="улица Панфилова"/>
    <tag k="amenity" v="prison"/>
    <tag k="building" v="yes"/>
    <tag k="name" v="СИЗО №12"/>
  </way>
  <way id="55728992" version="2" timestamp="2011-01-14T16:44:55Z" uid="115477" user="wowik" changeset="6968851">
    <nd ref="700174713"/>
    <nd ref="700174714"/>
    <nd ref="1103423977"/>
    <nd ref="1103424268"/>
    <nd ref="700174715"/>
    <nd ref="700174716"/>
    <nd ref="700174713"/>
    <tag k="addr:city" v="Зеленоград"/>
    <tag k="addr:housenumber" v="4c1"/>
    <tag k="addr:street" v="Алабушевская улица"/>
    <tag k="building" v="yes"/>
  </way>
  <way id="55728992" version="3" timestamp="2011-01-17T10:11:14Z" uid="115477" user="wowik" changeset="6997647">
    <nd ref="700174713"/>
    <nd ref="700174714"/>
    <nd ref="1103423977"/>
    <nd ref="1103424268"/>
    <nd ref="700174715"/>
    <nd ref="700174716"/>
    <nd ref="700174713"/>
    <tag k="addr:city" v="Зеленоград"/>
    <tag k="addr:housenumber" v="4с1"/>
    <tag k="addr:street" v="Алабушевская улица"/>
    <tag k="building" v="yes"/>
  </way>
  <way id="55728992" version="4" timestamp="2011-01-19T16:51:12Z" uid="70696" user="xybot" changeset="7021015">
    <nd ref="700174713"/>
    <nd ref="700174714"/>
    <nd ref="1103423977"/>
    <nd ref="1103424268"/>
    <nd ref="700174715"/>
    <nd ref="700174716"/>
    <nd ref="700174713"/>
    <tag k="addr:city" v="Зеленоград"/>
    <tag k="addr:housenumber" v="4 с1"/>
    <tag k="addr:street" v="Алабушевская улица"/>
    <tag k="building" v="yes"/>
  </way>
  <way id="55728992" version="5" timestamp="2012-03-27T11:42:36Z" uid="481934" user="iWowik" changeset="11115472">
    <nd ref="700174713"/>
    <nd ref="700174714"/>
    <nd ref="1103423977"/>
    <nd ref="1103424268"/>
    <nd ref="700174715"/>
    <nd ref="700174716"/>
    <nd ref="700174713"/>
    <tag k="addr:city" v="Зеленоград"/>
    <tag k="addr:country" v="RU"/>
    <tag k="addr:housenumber" v="4 с1"/>
    <tag k="addr:region" v="Москва"/>
    <tag k="addr:street" v="Алабушевская улица"/>
    <tag k="building" v="yes"/>
  </way>
  <way id="55728993" version="2" timestamp="2010-11-12T09:56:49Z" uid="115477" user="wowik" changeset="6349638">
    <nd ref="700174717"/>
    <nd ref="700174718"/>
    <nd ref="700174719"/>
    <nd ref="700174720"/>
    <nd ref="700174717"/>
    <tag k="addr:city" v="Зеленоград"/>
    <tag k="addr:housenumber" v="1А"/>
    <tag k="addr:street" v="Заводская улица"/>
    <tag k="building" v="yes"/>
  </way>
  <way id="55728993" version="3" timestamp="2011-01-12T12:38:07Z" uid="115477" user="wowik" changeset="6946685">
    <nd ref="700174717"/>
    <nd ref="700174718"/>
    <nd ref="700174719"/>
    <nd ref="700174720"/>
    <nd ref="700174717"/>
    <tag k="addr:city" v="Зеленоград"/>
    <tag k="addr:housenumber" v="1А"/>
    <tag k="addr:street" v="Заводская улица"/>
    <tag k="building" v="yes"/>
    <tag k="is_in" v="Russia"/>
  </way>
  <way id="55728993" version="4" timestamp="2011-09-13T10:23:58Z" uid="29320" user="Komяpa" changeset="9288237">
    <nd ref="700174717"/>
    <nd ref="700174718"/>
    <nd ref="700174719"/>
    <nd ref="700174720"/>
    <nd ref="700174717"/>
    <tag k="addr:city" v="Зеленоград"/>
    <tag k="addr:country" v="RU"/>
    <tag k="addr:housenumber" v="1А"/>
    <tag k="addr:street" v="Заводская улица"/>
    <tag k="building" v="yes"/>
  </way>
  <way id="55728993" version="5" timestamp="2012-03-27T11:38:22Z" uid="481934" user="iWowik" changeset="11115472">
    <nd ref="700174717"/>
    <nd ref="700174718"/>
    <nd ref="700174719"/>
    <nd ref="700174720"/>
    <nd ref="700174717"/>
    <tag k="addr:city" v="Зеленоград"/>
    <tag k="addr:country" v="RU"/>
    <tag k="addr:housenumber" v="1А"/>
    <tag k="addr:region" v="Москва"/>
    <tag k="addr:street" v="Заводская улица"/>
    <tag k="building" v="yes"/>
  </way>
  <way id="55728994" version="2" timestamp="2010-09-10T14:56:03Z" uid="115477" user="wowik" changeset="5741766">
    <nd ref="700174721"/>
    <nd ref="700174722"/>
    <nd ref="700174723"/>
    <nd ref="700174724"/>
    <nd ref="700174721"/>
    <tag k="building" v="train_station"/>
  </way>
  <way id="55728994" version="3" timestamp="2010-11-11T07:17:38Z" uid="115477" user="wowik" changeset="6341405">
    <nd ref="700174721"/>
    <nd ref="700174722"/>
    <nd ref="984984671"/>
    <nd ref="984984661"/>
    <nd ref="984984658"/>
    <nd ref="984984665"/>
    <nd ref="700174723"/>
    <nd ref="700174724"/>
    <nd ref="984984669"/>
    <nd ref="984984659"/>
    <nd ref="984984663"/>
    <nd ref="984984656"/>
    <nd ref="700174721"/>
    <tag k="addr:city" v="Зеленоград"/>
    <tag k="addr:housenumber" v="с1"/>
    <tag k="addr:street" v="Привокзальная площадь"/>
    <tag k="building" v="yes"/>
    <tag k="is_in" v="Russia"/>
    <tag k="name" v="вокзал Крюково"/>
  </way>
  <way id="55728994" version="4" timestamp="2010-11-11T13:28:19Z" uid="115477" user="wowik" changeset="6343524">
    <nd ref="700174721"/>
    <nd ref="700174722"/>
    <nd ref="984984671"/>
    <nd ref="984984661"/>
    <nd ref="984984658"/>
    <nd ref="984984665"/>
    <nd ref="700174723"/>
    <nd ref="700174724"/>
    <nd ref="984984669"/>
    <nd ref="984984659"/>
    <nd ref="984984663"/>
    <nd ref="984984656"/>
    <nd ref="700174721"/>
    <tag k="addr:city" v="Зеленоград"/>
    <tag k="addr:housenumber" v="с1"/>
    <tag k="addr:street" v="Привокзальная площадь"/>
    <tag k="building" v="yes"/>
    <tag k="is_in" v="Russia"/>
    <tag k="name" v="вокзал Крюково"/>
  </way>
  <way id="55728994" version="5" timestamp="2010-12-15T11:25:25Z" uid="115477" user="wowik" changeset="6666693">
    <nd ref="700174721"/>
    <nd ref="700174722"/>
    <nd ref="984984671"/>
    <nd ref="984984661"/>
    <nd ref="984984658"/>
    <nd ref="984984665"/>
    <nd ref="700174723"/>
    <nd ref="700174724"/>
    <nd ref="984984669"/>
    <nd ref="984984659"/>
    <nd ref="984984663"/>
    <nd ref="984984656"/>
    <nd ref="700174721"/>
    <tag k="addr:city" v="Зеленоград"/>
    <tag k="addr:housenumber" v="с1"/>
    <tag k="addr:street" v="Привокзальная площадь"/>
    <tag k="building" v="train_station"/>
    <tag k="is_in" v="Russia"/>
    <tag k="name" v="вокзал Крюково"/>
  </way>
  <way id="55728994" version="6" timestamp="2010-12-15T11:42:34Z" uid="115477" user="wowik" changeset="6666854">
    <nd ref="700174721"/>
    <nd ref="700174722"/>
    <nd ref="984984671"/>
    <nd ref="984984661"/>
    <nd ref="1039134090"/>
    <nd ref="984984658"/>
    <nd ref="984984665"/>
    <nd ref="700174723"/>
    <nd ref="700174724"/>
    <nd ref="984984669"/>
    <nd ref="984984659"/>
    <nd ref="984984663"/>
    <nd ref="984984656"/>
    <nd ref="700174721"/>
    <tag k="addr:city" v="Зеленоград"/>
    <tag k="addr:housenumber" v="с1"/>
    <tag k="addr:street" v="Привокзальная площадь"/>
    <tag k="building" v="train_station"/>
    <tag k="is_in" v="Russia"/>
    <tag k="name" v="Вокзал"/>
  </way>
  <way id="55728994" version="7" timestamp="2011-09-13T10:29:45Z" uid="29320" user="Komяpa" changeset="9288237">
    <nd ref="700174721"/>
    <nd ref="700174722"/>
    <nd ref="984984671"/>
    <nd ref="984984661"/>
    <nd ref="1039134090"/>
    <nd ref="984984658"/>
    <nd ref="984984665"/>
    <nd ref="700174723"/>
    <nd ref="700174724"/>
    <nd ref="984984669"/>
    <nd ref="984984659"/>
    <nd ref="984984663"/>
    <nd ref="984984656"/>
    <nd ref="700174721"/>
    <tag k="addr:city" v="Зеленоград"/>
    <tag k="addr:country" v="RU"/>
    <tag k="addr:housenumber" v="с1"/>
    <tag k="addr:street" v="Привокзальная площадь"/>
    <tag k="building" v="train_station"/>
    <tag k="name" v="Вокзал"/>
  </way>
  <way id="55728994" version="8" timestamp="2012-03-27T11:31:43Z" uid="481934" user="iWowik" changeset="11115472">
    <nd ref="700174721"/>
    <nd ref="700174722"/>
    <nd ref="984984671"/>
    <nd ref="984984661"/>
    <nd ref="1039134090"/>
    <nd ref="984984658"/>
    <nd ref="984984665"/>
    <nd ref="700174723"/>
    <nd ref="700174724"/>
    <nd ref="984984669"/>
    <nd ref="984984659"/>
    <nd ref="984984663"/>
    <nd ref="984984656"/>
    <nd ref="700174721"/>
    <tag k="addr:city" v="Зеленоград"/>
    <tag k="addr:country" v="RU"/>
    <tag k="addr:housenumber" v="с1"/>
    <tag k="addr:region" v="Москва"/>
    <tag k="addr:street" v="Привокзальная площадь"/>
    <tag k="building" v="train_station"/>
    <tag k="name" v="Вокзал"/>
  </way>
  <way id="55728995" version="2" timestamp="2010-11-11T11:42:13Z" uid="115477" user="wowik" changeset="6342919">
    <nd ref="700174725"/>
    <nd ref="700174726"/>
    <nd ref="700174727"/>
    <nd ref="700174728"/>
    <nd ref="700174725"/>
    <tag k="addr:city" v="Зеленоград"/>
    <tag k="addr:housenumber" v="3"/>
    <tag k="addr:street" v="улица Ленина"/>
    <tag k="building" v="yes"/>
  </way>
  <way id="55728995" version="3" timestamp="2010-11-11T11:43:02Z" uid="115477" user="wowik" changeset="6342919">
    <nd ref="700174725"/>
    <nd ref="700174726"/>
    <nd ref="700174727"/>
    <nd ref="700174728"/>
    <nd ref="700174725"/>
    <tag k="addr:city" v="Зеленоград"/>
    <tag k="addr:housenumber" v="3"/>
    <tag k="addr:street" v="улица Ленина"/>
    <tag k="building" v="yes"/>
    <tag k="name" v="ТД Крюково&quot;"/>
  </way>
  <way id="55728995" version="4" timestamp="2010-11-11T11:43:09Z" uid="115477" user="wowik" changeset="6342919">
    <nd ref="700174725"/>
    <nd ref="700174726"/>
    <nd ref="700174727"/>
    <nd ref="700174728"/>
    <nd ref="700174725"/>
    <tag k="addr:city" v="Зеленоград"/>
    <tag k="addr:housenumber" v="3"/>
    <tag k="addr:street" v="улица Ленина"/>
    <tag k="building" v="yes"/>
    <tag k="name" v="ТД Крюково"/>
  </way>
  <way id="55728995" version="5" timestamp="2010-11-11T12:16:37Z" uid="115477" user="wowik" changeset="6343054">
    <nd ref="700174725"/>
    <nd ref="700174726"/>
    <nd ref="985233321"/>
    <nd ref="985233302"/>
    <nd ref="985233314"/>
    <nd ref="985233303"/>
    <nd ref="700174727"/>
    <nd ref="700174728"/>
    <nd ref="985233322"/>
    <nd ref="985233305"/>
    <nd ref="700174725"/>
    <tag k="addr:city" v="Зеленоград"/>
    <tag k="addr:housenumber" v="3"/>
    <tag k="addr:street" v="улица Ленина"/>
    <tag k="building" v="yes"/>
    <tag k="name" v="ТД Крюково"/>
  </way>
  <way id="55728995" version="6" timestamp="2010-11-11T13:28:18Z" uid="115477" user="wowik" changeset="6343524">
    <nd ref="700174725"/>
    <nd ref="700174726"/>
    <nd ref="985233321"/>
    <nd ref="985233302"/>
    <nd ref="985233314"/>
    <nd ref="985233303"/>
    <nd ref="700174727"/>
    <nd ref="700174728"/>
    <nd ref="985233322"/>
    <nd ref="985233305"/>
    <nd ref="700174725"/>
    <tag k="addr:city" v="Зеленоград"/>
    <tag k="addr:housenumber" v="9"/>
    <tag k="addr:street" v="Новокрюковская улица"/>
    <tag k="building" v="yes"/>
    <tag k="name" v="ТД Крюково"/>
    <tag k="note" v="раньше было Ленина д.3?"/>
  </way>
  <way id="55728995" version="7" timestamp="2012-03-27T08:10:25Z" uid="481934" user="iWowik" changeset="11113698">
    <nd ref="700174725"/>
    <nd ref="700174726"/>
    <nd ref="985233321"/>
    <nd ref="985233302"/>
    <nd ref="985233314"/>
    <nd ref="985233303"/>
    <nd ref="700174727"/>
    <nd ref="700174728"/>
    <nd ref="985233322"/>
    <nd ref="985233305"/>
    <nd ref="700174725"/>
    <tag k="addr:city" v="Зеленоград"/>
    <tag k="addr:country" v="RU"/>
    <tag k="addr:housenumber" v="9"/>
    <tag k="addr:street" v="Новокрюковская улица"/>
    <tag k="building" v="yes"/>
    <tag k="name" v="ТД Крюково"/>
    <tag k="note" v="раньше было Ленина д.3?"/>
  </way>
  <way id="55728995" version="8" timestamp="2012-03-27T11:48:00Z" uid="481934" user="iWowik" changeset="11115472">
    <nd ref="700174725"/>
    <nd ref="700174726"/>
    <nd ref="985233321"/>
    <nd ref="985233302"/>
    <nd ref="985233314"/>
    <nd ref="985233303"/>
    <nd ref="700174727"/>
    <nd ref="700174728"/>
    <nd ref="985233322"/>
    <nd ref="985233305"/>
    <nd ref="700174725"/>
    <tag k="addr:city" v="Зеленоград"/>
    <tag k="addr:country" v="RU"/>
    <tag k="addr:housenumber" v="9"/>
    <tag k="addr:region" v="Москва"/>
    <tag k="addr:street" v="Новокрюковская улица"/>
    <tag k="building" v="yes"/>
    <tag k="name" v="ТД Крюково"/>
    <tag k="note" v="раньше было Ленина д.3?"/>
  </way>
  <way id="55728997" version="2" timestamp="2011-01-17T17:39:14Z" uid="115477" user="wowik" changeset="7001640">
    <nd ref="700174735"/>
    <nd ref="700174736"/>
    <nd ref="700174737"/>
    <nd ref="700174738"/>
    <nd ref="700174735"/>
    <tag k="addr:city" v="Зеленоград"/>
    <tag k="addr:housenumber" v="28Ас3"/>
    <tag k="addr:street" v="улица Панфилова"/>
    <tag k="building" v="yes"/>
  </way>
  <way id="55728997" version="3" timestamp="2011-01-19T18:06:01Z" uid="70696" user="xybot" changeset="7022960">
    <nd ref="700174735"/>
    <nd ref="700174736"/>
    <nd ref="700174737"/>
    <nd ref="700174738"/>
    <nd ref="700174735"/>
    <tag k="addr:city" v="Зеленоград"/>
    <tag k="addr:housenumber" v="28А с3"/>
    <tag k="addr:street" v="улица Панфилова"/>
    <tag k="building" v="yes"/>
  </way>
  <way id="55728997" version="4" timestamp="2012-03-27T08:08:05Z" uid="481934" user="iWowik" changeset="11113698">
    <nd ref="700174735"/>
    <nd ref="700174736"/>
    <nd ref="700174737"/>
    <nd ref="700174738"/>
    <nd ref="700174735"/>
    <tag k="addr:city" v="Зеленоград"/>
    <tag k="addr:country" v="RU"/>
    <tag k="addr:housenumber" v="28А с3"/>
    <tag k="addr:street" v="улица Панфилова"/>
    <tag k="building" v="yes"/>
  </way>
  <way id="55728997" version="5" timestamp="2012-03-27T11:40:28Z" uid="481934" user="iWowik" changeset="11115472">
    <nd ref="700174735"/>
    <nd ref="700174736"/>
    <nd ref="700174737"/>
    <nd ref="700174738"/>
    <nd ref="700174735"/>
    <tag k="addr:city" v="Зеленоград"/>
    <tag k="addr:country" v="RU"/>
    <tag k="addr:housenumber" v="28А с3"/>
    <tag k="addr:region" v="Москва"/>
    <tag k="addr:street" v="улица Панфилова"/>
    <tag k="building" v="yes"/>
  </way>
  <way id="55728998" version="4" timestamp="2011-01-12T12:31:52Z" uid="115477" user="wowik" changeset="6946620">
    <nd ref="700174743"/>
    <nd ref="1006446503"/>
    <nd ref="700174739"/>
    <nd ref="700174740"/>
    <nd ref="1006446506"/>
    <nd ref="1006446508"/>
    <nd ref="1006446510"/>
    <nd ref="1006446511"/>
    <nd ref="1006446513"/>
    <nd ref="1006446515"/>
    <nd ref="1006446516"/>
    <nd ref="1006446517"/>
    <nd ref="1006446518"/>
    <nd ref="700174741"/>
    <nd ref="1006446521"/>
    <nd ref="1006446522"/>
    <nd ref="700174742"/>
    <nd ref="700174743"/>
    <tag k="addr:city" v="Зеленоград"/>
    <tag k="addr:housenumber" v="1925"/>
    <tag k="building" v="yes"/>
    <tag k="building:use" v="residential"/>
    <tag k="is_in" v="Zelenograd,Moscow,Russia"/>
  </way>
  <way id="55728998" version="5" timestamp="2011-01-12T12:38:12Z" uid="115477" user="wowik" changeset="6946685">
    <nd ref="700174743"/>
    <nd ref="1006446503"/>
    <nd ref="700174739"/>
    <nd ref="700174740"/>
    <nd ref="1006446506"/>
    <nd ref="1006446508"/>
    <nd ref="1006446510"/>
    <nd ref="1006446511"/>
    <nd ref="1006446513"/>
    <nd ref="1006446515"/>
    <nd ref="1006446516"/>
    <nd ref="1006446517"/>
    <nd ref="1006446518"/>
    <nd ref="700174741"/>
    <nd ref="1006446521"/>
    <nd ref="1006446522"/>
    <nd ref="700174742"/>
    <nd ref="700174743"/>
    <tag k="addr:city" v="Зеленоград"/>
    <tag k="addr:housenumber" v="1925"/>
    <tag k="building" v="yes"/>
    <tag k="building:use" v="residential"/>
    <tag k="is_in" v="Russia"/>
  </way>
  <way id="55728998" version="6" timestamp="2011-01-12T17:31:01Z" uid="115477" user="wowik" changeset="6949358">
    <nd ref="700174743"/>
    <nd ref="1006446503"/>
    <nd ref="700174739"/>
    <nd ref="700174740"/>
    <nd ref="1006446506"/>
    <nd ref="1006446508"/>
    <nd ref="1006446510"/>
    <nd ref="1006446511"/>
    <nd ref="1006446513"/>
    <nd ref="1100317917"/>
    <nd ref="1100317913"/>
    <nd ref="1100317924"/>
    <nd ref="1100317888"/>
    <nd ref="1006446515"/>
    <nd ref="1006446516"/>
    <nd ref="1006446517"/>
    <nd ref="1006446518"/>
    <nd ref="1006446521"/>
    <nd ref="1006446522"/>
    <nd ref="700174742"/>
    <nd ref="700174743"/>
    <tag k="addr:city" v="Зеленоград"/>
    <tag k="addr:housenumber" v="1925"/>
    <tag k="building" v="yes"/>
    <tag k="building:use" v="residential"/>
    <tag k="is_in" v="Russia"/>
  </way>
  <way id="55728998" version="7" timestamp="2011-01-13T14:29:07Z" uid="115477" user="wowik" changeset="6957620">
    <nd ref="700174743"/>
    <nd ref="1006446503"/>
    <nd ref="700174739"/>
    <nd ref="700174740"/>
    <nd ref="1006446506"/>
    <nd ref="1006446508"/>
    <nd ref="1006446510"/>
    <nd ref="1006446511"/>
    <nd ref="1006446513"/>
    <nd ref="1100317917"/>
    <nd ref="1100317913"/>
    <nd ref="1100317924"/>
    <nd ref="1100317888"/>
    <nd ref="1006446515"/>
    <nd ref="1006446516"/>
    <nd ref="1006446517"/>
    <nd ref="1006446518"/>
    <nd ref="1006446521"/>
    <nd ref="1006446522"/>
    <nd ref="700174742"/>
    <nd ref="700174743"/>
    <tag k="addr:city" v="Зеленоград"/>
    <tag k="addr:housenumber" v="1925"/>
    <tag k="addr:street" v="19-й Микрорайон"/>
    <tag k="building" v="yes"/>
    <tag k="building:use" v="residential"/>
    <tag k="is_in" v="Russia"/>
  </way>
  <way id="55728998" version="8" timestamp="2011-06-07T20:47:48Z" uid="133332" user="AMDmi3" changeset="8374030">
    <nd ref="700174743"/>
    <nd ref="1006446503"/>
    <nd ref="700174739"/>
    <nd ref="700174740"/>
    <nd ref="1006446506"/>
    <nd ref="1006446508"/>
    <nd ref="1006446510"/>
    <nd ref="1006446511"/>
    <nd ref="1006446513"/>
    <nd ref="1100317917"/>
    <nd ref="1100317913"/>
    <nd ref="1100317924"/>
    <nd ref="1100317888"/>
    <nd ref="1006446515"/>
    <nd ref="1006446516"/>
    <nd ref="1006446517"/>
    <nd ref="1006446518"/>
    <nd ref="1006446521"/>
    <nd ref="1006446522"/>
    <nd ref="700174742"/>
    <nd ref="700174743"/>
    <tag k="addr:city" v="Зеленоград"/>
    <tag k="addr:housenumber" v="1925"/>
    <tag k="addr:street" v="19-й микрорайон"/>
    <tag k="building" v="yes"/>
    <tag k="building:use" v="residential"/>
    <tag k="is_in" v="Russia"/>
  </way>
  <way id="55728998" version="9" timestamp="2011-09-13T10:23:56Z" uid="29320" user="Komяpa" changeset="9288237">
    <nd ref="700174743"/>
    <nd ref="1006446503"/>
    <nd ref="700174739"/>
    <nd ref="700174740"/>
    <nd ref="1006446506"/>
    <nd ref="1006446508"/>
    <nd ref="1006446510"/>
    <nd ref="1006446511"/>
    <nd ref="1006446513"/>
    <nd ref="1100317917"/>
    <nd ref="1100317913"/>
    <nd ref="1100317924"/>
    <nd ref="1100317888"/>
    <nd ref="1006446515"/>
    <nd ref="1006446516"/>
    <nd ref="1006446517"/>
    <nd ref="1006446518"/>
    <nd ref="1006446521"/>
    <nd ref="1006446522"/>
    <nd ref="700174742"/>
    <nd ref="700174743"/>
    <tag k="addr:city" v="Зеленоград"/>
    <tag k="addr:country" v="RU"/>
    <tag k="addr:housenumber" v="1925"/>
    <tag k="addr:street" v="19-й микрорайон"/>
    <tag k="building" v="yes"/>
    <tag k="building:use" v="residential"/>
  </way>
  <way id="55728998" version="10" timestamp="2012-03-27T11:38:20Z" uid="481934" user="iWowik" changeset="11115472">
    <nd ref="700174743"/>
    <nd ref="1006446503"/>
    <nd ref="700174739"/>
    <nd ref="700174740"/>
    <nd ref="1006446506"/>
    <nd ref="1006446508"/>
    <nd ref="1006446510"/>
    <nd ref="1006446511"/>
    <nd ref="1006446513"/>
    <nd ref="1100317917"/>
    <nd ref="1100317913"/>
    <nd ref="1100317924"/>
    <nd ref="1100317888"/>
    <nd ref="1006446515"/>
    <nd ref="1006446516"/>
    <nd ref="1006446517"/>
    <nd ref="1006446518"/>
    <nd ref="1006446521"/>
    <nd ref="1006446522"/>
    <nd ref="700174742"/>
    <nd ref="700174743"/>
    <tag k="addr:city" v="Зеленоград"/>
    <tag k="addr:country" v="RU"/>
    <tag k="addr:housenumber" v="1925"/>
    <tag k="addr:region" v="Москва"/>
    <tag k="addr:street" v="19-й микрорайон"/>
    <tag k="building" v="yes"/>
    <tag k="building:use" v="residential"/>
  </way>
  <way id="55728999" version="2" timestamp="2010-11-27T06:06:18Z" uid="241531" user="dik_man" changeset="6467097">
    <nd ref="700174744"/>
    <nd ref="700174745"/>
    <nd ref="700174746"/>
    <nd ref="700174747"/>
    <nd ref="700174744"/>
    <tag k="addr:housenumber" v="10"/>
    <tag k="building" v="yes"/>
  </way>
  <way id="55728999" version="3" timestamp="2010-11-28T18:37:38Z" uid="115477" user="wowik" changeset="6480924">
    <nd ref="700174744"/>
    <nd ref="700174745"/>
    <nd ref="700174746"/>
    <nd ref="700174747"/>
    <nd ref="700174744"/>
    <tag k="addr:city" v="Зеленоград"/>
    <tag k="addr:housenumber" v="10"/>
    <tag k="addr:street" v="улица Крупской"/>
    <tag k="building" v="yes"/>
    <tag k="is_in" v="Russia"/>
  </way>
  <way id="55728999" version="4" timestamp="2011-01-12T12:31:46Z" uid="115477" user="wowik" changeset="6946620">
    <nd ref="700174744"/>
    <nd ref="700174745"/>
    <nd ref="700174746"/>
    <nd ref="700174747"/>
    <nd ref="700174744"/>
    <tag k="addr:city" v="Зеленоград"/>
    <tag k="addr:housenumber" v="10"/>
    <tag k="addr:street" v="улица Крупской"/>
    <tag k="building" v="yes"/>
    <tag k="building:use" v="residential"/>
    <tag k="is_in" v="Zelenograd,Moscow,Russia"/>
  </way>
  <way id="55728999" version="5" timestamp="2011-01-12T12:38:09Z" uid="115477" user="wowik" changeset="6946685">
    <nd ref="700174744"/>
    <nd ref="700174745"/>
    <nd ref="700174746"/>
    <nd ref="700174747"/>
    <nd ref="700174744"/>
    <tag k="addr:city" v="Зеленоград"/>
    <tag k="addr:housenumber" v="10"/>
    <tag k="addr:street" v="улица Крупской"/>
    <tag k="building" v="yes"/>
    <tag k="building:use" v="residential"/>
    <tag k="is_in" v="Russia"/>
  </way>
  <way id="55728999" version="6" timestamp="2011-09-13T10:20:57Z" uid="29320" user="Komяpa" changeset="9288237">
    <nd ref="700174744"/>
    <nd ref="700174745"/>
    <nd ref="700174746"/>
    <nd ref="700174747"/>
    <nd ref="700174744"/>
    <tag k="addr:city" v="Зеленоград"/>
    <tag k="addr:country" v="RU"/>
    <tag k="addr:housenumber" v="10"/>
    <tag k="addr:street" v="улица Крупской"/>
    <tag k="building" v="yes"/>
    <tag k="building:use" v="residential"/>
  </way>
  <way id="55728999" version="7" timestamp="2012-03-27T11:33:28Z" uid="481934" user="iWowik" changeset="11115472">
    <nd ref="700174744"/>
    <nd ref="700174745"/>
    <nd ref="700174746"/>
    <nd ref="700174747"/>
    <nd ref="700174744"/>
    <tag k="addr:city" v="Зеленоград"/>
    <tag k="addr:country" v="RU"/>
    <tag k="addr:housenumber" v="10"/>
    <tag k="addr:region" v="Москва"/>
    <tag k="addr:street" v="улица Крупской"/>
    <tag k="building" v="yes"/>
    <tag k="building:use" v="residential"/>
  </way>
</osm>
