<?xml version='1.0' encoding='UTF-8'?>
<osm version="0.6" generator="libosmium/2.20.0">
  <way id="55740324" version="1" timestamp="2010-04-17T20:41:34Z" uid="110593" user="esetzer" changeset="4452106">
    <nd ref="371006727"/>
    <nd ref="700256993"/>
    <nd ref="700256994"/>
    <nd ref="700256995"/>
    <nd ref="700256996"/>
    <nd ref="700256997"/>
    <nd ref="700256998"/>
    <nd ref="700256999"/>
    <nd ref="700257000"/>
    <nd ref="371825443"/>
    <nd ref="371825434"/>
    <nd ref="371006727"/>
    <tag k="construction" v="railway"/>
    <tag k="created_by" v="Merkaartor 0.11"/>
    <tag k="landuse" v="construction"/>
    <tag k="operator" v="Utah Transit Authority"/>
  </way>
  <way id="55740324" version="2" timestamp="2010-10-04T02:49:28Z" uid="120468" user="Nakor" changeset="5950039">
    <nd ref="371006727"/>
    <nd ref="700256993"/>
    <nd ref="700256994"/>
    <nd ref="700256995"/>
    <nd ref="700256996"/>
    <nd ref="700256997"/>
    <nd ref="700256998"/>
    <nd ref="700256999"/>
    <nd ref="700257000"/>
    <nd ref="371825443"/>
    <nd ref="371825434"/>
    <nd ref="371006727"/>
    <tag k="construction" v="railway"/>
    <tag k="landuse" v="construction"/>
    <tag k="operator" v="Utah Transit Authority"/>
  </way>
  <way id="55740324" version="3" timestamp="2012-01-30T11:43:10Z" uid="315015" user="WernerP" changeset="10538956">
    <nd ref="371006727"/>
    <nd ref="700256995"/>
    <nd ref="700256996"/>
    <nd ref="700256997"/>
    <nd ref="700256998"/>
    <nd ref="700256999"/>
    <nd ref="700257000"/>
    <nd ref="371825443"/>
    <nd ref="371825434"/>
    <nd ref="371006727"/>
    <tag k="construction" v="railway"/>
    <tag k="landuse" v="construction"/>
    <tag k="operator" v="Utah Transit Authority"/>
  </way>
  <way id="55740372" version="1" timestamp="2010-04-17T20:41:47Z" uid="110593" user="esetzer" changeset="4452110">
    <nd ref="700257001"/>
    <nd ref="700257002"/>
    <tag k="construction" v="platform"/>
    <tag k="created_by" v="Merkaartor 0.11"/>
    <tag k="railway" v="construction"/>
  </way>
  <way id="55740372" version="2" timestamp="2010-10-04T02:49:35Z" uid="120468" user="Nakor" changeset="5950039">
    <nd ref="700257001"/>
    <nd ref="700257002"/>
    <tag k="construction" v="platform"/>
    <tag k="railway" v="construction"/>
  </way>
  <way id="55740542" version="1" timestamp="2010-04-17T20:42:50Z" uid="110593" user="esetzer" changeset="4452124">
    <nd ref="410795284"/>
    <nd ref="469572741"/>
    <nd ref="700257308"/>
    <tag k="barrier" v="retaining_wall"/>
    <tag k="created_by" v="Merkaartor 0.11"/>
  </way>
  <way id="55740542" version="2" timestamp="2012-01-30T11:43:46Z" uid="315015" user="WernerP" changeset="10538956"/>
  <way id="55740967" version="1" timestamp="2010-04-17T20:49:47Z" uid="110593" user="esetzer" changeset="4452200">
    <nd ref="700278298"/>
    <nd ref="700278334"/>
    <tag k="construction" v="rail"/>
    <tag k="created_by" v="Merkaartor 0.11"/>
    <tag k="name" v="UTA FrontRunner South Line"/>
    <tag k="railway" v="construction"/>
  </way>
  <way id="55740967" version="2" timestamp="2011-03-29T00:33:31Z" uid="207745" user="NE2" changeset="7702646">
    <nd ref="700278298"/>
    <nd ref="700278334"/>
    <tag k="construction" v="rail"/>
    <tag k="name" v="FrontRunner South Line"/>
    <tag k="railway" v="construction"/>
  </way>
  <way id="55740967" version="3" timestamp="2011-03-29T02:28:59Z" uid="207745" user="NE2" changeset="7702646">
    <nd ref="700278298"/>
    <nd ref="700278334"/>
    <tag k="construction" v="rail"/>
    <tag k="name" v="FrontRunner South Line"/>
    <tag k="operator" v="UTA"/>
    <tag k="railway" v="construction"/>
  </way>
  <way id="55740968" version="1" timestamp="2010-04-17T20:49:49Z" uid="110593" user="esetzer" changeset="4452200">
    <nd ref="700278334"/>
    <nd ref="700278425"/>
    <tag k="bridge" v="yes"/>
    <tag k="construction" v="rail"/>
    <tag k="created_by" v="Merkaartor 0.11"/>
    <tag k="layer" v="0"/>
    <tag k="name" v="UTA FrontRunner South Line"/>
    <tag k="railway" v="construction"/>
  </way>
  <way id="55740968" version="2" timestamp="2011-03-29T00:33:31Z" uid="207745" user="NE2" changeset="7702646">
    <nd ref="700278334"/>
    <nd ref="700278425"/>
    <tag k="bridge" v="yes"/>
    <tag k="construction" v="rail"/>
    <tag k="layer" v="0"/>
    <tag k="name" v="FrontRunner South Line"/>
    <tag k="railway" v="construction"/>
  </way>
  <way id="55740968" version="3" timestamp="2011-03-29T02:28:59Z" uid="207745" user="NE2" changeset="7702646">
    <nd ref="700278334"/>
    <nd ref="700278425"/>
    <tag k="bridge" v="yes"/>
    <tag k="construction" v="rail"/>
    <tag k="layer" v="0"/>
    <tag k="name" v="FrontRunner South Line"/>
    <tag k="operator" v="UTA"/>
    <tag k="railway" v="construction"/>
  </way>
</osm>
