<?xml version='1.0' encoding='UTF-8'?>
<osm version="0.6" generator="libosmium/2.20.0">
  <way id="55993189" version="1" timestamp="2010-04-20T20:06:18Z" uid="59758" user="rendle" changeset="4481057">
    <nd ref="702818990"/>
    <nd ref="702835099"/>
    <nd ref="702818464"/>
    <nd ref="702818467"/>
    <tag k="highway" v="residential"/>
    <tag k="name" v="Richard van Britsomstraat"/>
    <tag k="source" v="Yahoo"/>
  </way>
  <way id="55993189" version="2" timestamp="2011-05-16T13:54:26Z" uid="293774" user="Oli-Wan" changeset="8162739">
    <nd ref="702818990"/>
    <nd ref="702818464"/>
    <nd ref="702818467"/>
    <tag k="highway" v="residential"/>
    <tag k="name" v="Richard van Britsomstraat"/>
    <tag k="source" v="Yahoo"/>
  </way>
  <way id="55993189" version="3" timestamp="2012-01-17T17:16:53Z" uid="138772" user="lodde1949" changeset="10419701"/>
  <way id="55993262" version="1" timestamp="2010-04-20T20:06:56Z" uid="59758" user="rendle" changeset="4481057">
    <nd ref="596449610"/>
    <nd ref="670667913"/>
    <tag k="highway" v="residential"/>
    <tag k="name" v="Casinostraat"/>
    <tag k="oneway" v="yes"/>
  </way>
  <way id="55993262" version="2" timestamp="2010-04-20T20:07:19Z" uid="59758" user="rendle" changeset="4481057">
    <nd ref="670667913"/>
    <nd ref="596449610"/>
    <tag k="highway" v="residential"/>
    <tag k="name" v="Casinostraat"/>
    <tag k="oneway" v="yes"/>
  </way>
  <way id="55993262" version="3" timestamp="2011-09-03T21:03:08Z" uid="15188" user="Polyglot" changeset="9203737">
    <nd ref="1422491611"/>
    <nd ref="596449610"/>
    <tag k="highway" v="residential"/>
    <tag k="name" v="Casinostraat"/>
    <tag k="oneway" v="yes"/>
  </way>
  <way id="55993262" version="4" timestamp="2012-01-17T17:16:50Z" uid="138772" user="lodde1949" changeset="10419701"/>
</osm>
