<?xml version='1.0' encoding='UTF-8'?>
<osm version="0.6" generator="libosmium/2.20.0">
  <way id="56321715" version="1" timestamp="2010-04-25T19:59:13Z" uid="164966" user="linuss1" changeset="4525851">
    <nd ref="706657229"/>
    <nd ref="706657243"/>
    <nd ref="263892392"/>
    <tag k="highway" v="track"/>
    <tag k="noexit" v="yes"/>
    <tag k="tracktype" v="grade4"/>
  </way>
  <way id="56321716" version="1" timestamp="2010-04-25T19:59:14Z" uid="164966" user="linuss1" changeset="4525851">
    <nd ref="706657275"/>
    <nd ref="263892392"/>
    <tag k="highway" v="track"/>
    <tag k="noexit" v="yes"/>
    <tag k="tracktype" v="grade5"/>
  </way>
  <way id="56321780" version="2" timestamp="2010-06-29T19:10:52Z" uid="74617" user="JohnSmith" changeset="5108182">
    <nd ref="706659653"/>
    <nd ref="706659676"/>
    <nd ref="706659691"/>
    <nd ref="706659710"/>
    <nd ref="706659734"/>
    <nd ref="706659754"/>
    <nd ref="706659779"/>
    <nd ref="706659793"/>
    <nd ref="706659810"/>
    <nd ref="706659827"/>
    <nd ref="706659653"/>
    <tag k="fixme" v="sport=football is ambiguous, see http://wiki.osm.org/wiki/Football for more details"/>
    <tag k="leisure" v="pitch"/>
    <tag k="name" v="Blundell Park"/>
    <tag k="operator" v="Grimsby Town FC"/>
    <tag k="sport" v="football"/>
  </way>
  <way id="56321780" version="3" timestamp="2010-11-07T22:16:05Z" uid="12355" user="chillly" changeset="6316694">
    <nd ref="706659653"/>
    <nd ref="706659676"/>
    <nd ref="706659691"/>
    <nd ref="706659710"/>
    <nd ref="706659734"/>
    <nd ref="706659754"/>
    <nd ref="706659779"/>
    <nd ref="706659793"/>
    <nd ref="706659810"/>
    <nd ref="706659827"/>
    <nd ref="706659653"/>
    <tag k="leisure" v="pitch"/>
    <tag k="name" v="Blundell Park"/>
    <tag k="operator" v="Grimsby Town FC"/>
    <tag k="sport" v="football"/>
  </way>
</osm>
