<?xml version='1.0' encoding='UTF-8'?>
<osm version="0.6" generator="libosmium/2.20.0">
  <way id="56693132" version="1" timestamp="2010-04-27T19:38:05Z" uid="59758" user="rendle" changeset="4544222">
    <nd ref="709038478"/>
    <nd ref="709038479"/>
    <nd ref="709038480"/>
    <nd ref="709038481"/>
    <nd ref="709038482"/>
    <nd ref="709038483"/>
    <nd ref="709038484"/>
    <nd ref="709038485"/>
    <nd ref="709038478"/>
  </way>
  <way id="56693132" version="2" timestamp="2010-04-27T19:38:38Z" uid="59758" user="rendle" changeset="4544222">
    <nd ref="709038478"/>
    <nd ref="709038479"/>
    <nd ref="709038480"/>
    <nd ref="709038481"/>
    <nd ref="709038482"/>
    <nd ref="709038483"/>
    <nd ref="709038484"/>
    <nd ref="709038485"/>
    <nd ref="709038478"/>
    <tag k="landuse" v="residential"/>
  </way>
  <way id="56693132" version="3" timestamp="2011-07-13T18:28:25Z" uid="472861" user="fbraem" changeset="8715234">
    <nd ref="709038478"/>
    <nd ref="709038479"/>
    <nd ref="515040608"/>
    <nd ref="709038480"/>
    <nd ref="709038481"/>
    <nd ref="709038482"/>
    <nd ref="709038483"/>
    <nd ref="709038484"/>
    <nd ref="709038485"/>
    <nd ref="709038478"/>
    <tag k="landuse" v="residential"/>
  </way>
  <way id="56693132" version="4" timestamp="2012-01-18T16:32:28Z" uid="138772" user="lodde1949" changeset="10428945"/>
  <way id="56693705" version="2" timestamp="2010-06-18T15:42:53Z" uid="49111" user="Markus B" changeset="5017235">
    <nd ref="709047411"/>
    <nd ref="709047412"/>
    <nd ref="709047410"/>
    <nd ref="709047407"/>
    <nd ref="709047408"/>
    <nd ref="709047409"/>
    <nd ref="709047411"/>
    <tag k="addr:city" v="Schnaittach"/>
    <tag k="addr:country" v="DE"/>
    <tag k="addr:housenumber" v="37"/>
    <tag k="addr:postcode" v="91220"/>
    <tag k="addr:street" v="Nürnberger Straße"/>
    <tag k="building" v="yes"/>
    <tag k="shop" v="books"/>
  </way>
  <way id="56693705" version="3" timestamp="2011-01-01T14:09:33Z" uid="82877" user="Wankmann" changeset="6828042">
    <nd ref="709047411"/>
    <nd ref="709047412"/>
    <nd ref="709047407"/>
    <nd ref="709047408"/>
    <nd ref="709047409"/>
    <nd ref="709047411"/>
    <tag k="addr:city" v="Schnaittach"/>
    <tag k="addr:country" v="DE"/>
    <tag k="addr:housenumber" v="37"/>
    <tag k="addr:postcode" v="91220"/>
    <tag k="addr:street" v="Nürnberger Straße"/>
    <tag k="building" v="yes"/>
    <tag k="shop" v="books"/>
  </way>
  <way id="56693705" version="4" timestamp="2011-01-01T20:11:45Z" uid="82877" user="Wankmann" changeset="6831864">
    <nd ref="709047411"/>
    <nd ref="709047412"/>
    <nd ref="709047407"/>
    <nd ref="709047408"/>
    <nd ref="709047409"/>
    <nd ref="709047411"/>
    <tag k="addr:city" v="Schnaittach"/>
    <tag k="addr:country" v="DE"/>
    <tag k="addr:housenumber" v="37"/>
    <tag k="addr:postcode" v="91220"/>
    <tag k="addr:street" v="Nürnberger Straße"/>
    <tag k="amenity" v="post_box"/>
    <tag k="building" v="yes"/>
    <tag k="name" v="Hobitas Buchladen"/>
    <tag k="operator" v="Hermes"/>
    <tag k="shop" v="books"/>
  </way>
  <way id="56693709" version="3" timestamp="2010-06-18T15:42:54Z" uid="49111" user="Markus B" changeset="5017235">
    <nd ref="709047428"/>
    <nd ref="709047433"/>
    <nd ref="709047430"/>
    <nd ref="709047431"/>
    <nd ref="709047422"/>
    <nd ref="709047428"/>
    <tag k="addr:housenumber" v="19"/>
    <tag k="amenity" v="pub"/>
    <tag k="building" v="yes"/>
    <tag k="name" v="Bauernwirt"/>
    <tag k="smoking" v="yes"/>
  </way>
  <way id="56693709" version="4" timestamp="2010-06-18T15:54:19Z" uid="49111" user="Markus B" changeset="5017319">
    <nd ref="709047428"/>
    <nd ref="709047433"/>
    <nd ref="709047430"/>
    <nd ref="709047431"/>
    <nd ref="709047422"/>
    <nd ref="709047428"/>
    <tag k="addr:housenumber" v="19"/>
    <tag k="amenity" v="pub"/>
    <tag k="building" v="yes"/>
    <tag k="name" v="Bauernwirt"/>
    <tag k="smoking" v="yes"/>
    <tag k="website" v="http://bauernwirt.de"/>
  </way>
  <way id="56693709" version="5" timestamp="2010-09-27T14:19:40Z" uid="309463" user="gastromat" changeset="5892514">
    <nd ref="709047428"/>
    <nd ref="709047433"/>
    <nd ref="709047430"/>
    <nd ref="709047431"/>
    <nd ref="709047422"/>
    <nd ref="709047428"/>
    <tag k="addr:housenumber" v="19"/>
    <tag k="amenity" v="pub"/>
    <tag k="building" v="yes"/>
    <tag k="name" v="Bauernwirt"/>
    <tag k="smoking" v="no"/>
    <tag k="website" v="http://bauernwirt.de"/>
  </way>
  <way id="56693709" version="6" timestamp="2010-10-12T09:47:29Z" uid="309463" user="gastromat" changeset="6019197">
    <nd ref="709047428"/>
    <nd ref="709047433"/>
    <nd ref="709047430"/>
    <nd ref="709047431"/>
    <nd ref="709047422"/>
    <nd ref="709047428"/>
    <tag k="addr:housenumber" v="19"/>
    <tag k="amenity" v="pub"/>
    <tag k="building" v="yes"/>
    <tag k="name" v="Bauernwirt"/>
    <tag k="smoking" v="yes"/>
    <tag k="website" v="http://bauernwirt.de"/>
  </way>
  <way id="56693709" version="7" timestamp="2010-11-05T21:49:31Z" uid="202858" user="kellerma" changeset="6298637">
    <nd ref="709047428"/>
    <nd ref="709047433"/>
    <nd ref="709047430"/>
    <nd ref="709047431"/>
    <nd ref="709047422"/>
    <nd ref="709047428"/>
    <tag k="addr:city" v="Schnaittach"/>
    <tag k="addr:country" v="DE"/>
    <tag k="addr:housenumber" v="19"/>
    <tag k="addr:postcode" v="91220"/>
    <tag k="addr:street" v="Nürnberger Straße"/>
    <tag k="amenity" v="pub"/>
    <tag k="building" v="yes"/>
    <tag k="name" v="Bauernwirt"/>
    <tag k="smoking" v="yes"/>
    <tag k="website" v="http://bauernwirt.de/"/>
  </way>
  <way id="56693709" version="8" timestamp="2010-12-08T09:18:02Z" uid="82877" user="Wankmann" changeset="6582937">
    <nd ref="709047428"/>
    <nd ref="709047433"/>
    <nd ref="1027839360"/>
    <nd ref="709047430"/>
    <nd ref="709047431"/>
    <nd ref="709047422"/>
    <nd ref="709047428"/>
    <tag k="addr:city" v="Schnaittach"/>
    <tag k="addr:country" v="DE"/>
    <tag k="addr:housenumber" v="19"/>
    <tag k="addr:postcode" v="91220"/>
    <tag k="addr:street" v="Nürnberger Straße"/>
    <tag k="amenity" v="pub"/>
    <tag k="building" v="yes"/>
    <tag k="name" v="Bauernwirt"/>
    <tag k="smoking" v="yes"/>
    <tag k="website" v="http://bauernwirt.de/"/>
  </way>
  <way id="56693709" version="9" timestamp="2010-12-17T22:45:47Z" uid="82877" user="Wankmann" changeset="6691656">
    <nd ref="709047428"/>
    <nd ref="709047433"/>
    <nd ref="1027839360"/>
    <nd ref="709047430"/>
    <nd ref="709047431"/>
    <nd ref="709047422"/>
    <nd ref="709047428"/>
    <tag k="addr:city" v="Schnaittach"/>
    <tag k="addr:country" v="DE"/>
    <tag k="addr:housenumber" v="19"/>
    <tag k="addr:postcode" v="91220"/>
    <tag k="addr:street" v="Nürnberger Straße"/>
    <tag k="amenity" v="pub"/>
    <tag k="building" v="yes"/>
    <tag k="name" v="Bauernwirt"/>
    <tag k="smoking" v="yes"/>
    <tag k="website" v="http://bauernwirt.de/"/>
    <tag k="wheelchair" v="limited"/>
  </way>
  <way id="56693709" version="10" timestamp="2011-02-03T16:07:53Z" uid="309463" user="gastromat" changeset="7175114">
    <nd ref="709047428"/>
    <nd ref="709047433"/>
    <nd ref="1027839360"/>
    <nd ref="709047430"/>
    <nd ref="709047431"/>
    <nd ref="709047422"/>
    <nd ref="709047428"/>
    <tag k="addr:city" v="Schnaittach"/>
    <tag k="addr:country" v="DE"/>
    <tag k="addr:housenumber" v="19"/>
    <tag k="addr:postcode" v="91220"/>
    <tag k="addr:street" v="Nürnberger Straße"/>
    <tag k="amenity" v="pub"/>
    <tag k="building" v="yes"/>
    <tag k="name" v="Bauernwirt"/>
    <tag k="smoking" v="no"/>
    <tag k="website" v="http://bauernwirt.de/"/>
    <tag k="wheelchair" v="limited"/>
  </way>
  <way id="56693710" version="2" timestamp="2010-06-18T15:42:54Z" uid="49111" user="Markus B" changeset="5017235">
    <nd ref="709047431"/>
    <nd ref="709047432"/>
    <nd ref="709047423"/>
    <nd ref="709047424"/>
    <nd ref="709047431"/>
    <tag k="addr:city" v="Schnaittach"/>
    <tag k="addr:country" v="DE"/>
    <tag k="addr:housenumber" v="23"/>
    <tag k="addr:postcode" v="91220"/>
    <tag k="addr:street" v="Nürnberger Straße"/>
    <tag k="building" v="yes"/>
  </way>
  <way id="56693711" version="2" timestamp="2010-06-18T15:42:55Z" uid="49111" user="Markus B" changeset="5017235">
    <nd ref="709047425"/>
    <nd ref="709047432"/>
    <nd ref="709047421"/>
    <nd ref="709047413"/>
    <nd ref="709047425"/>
    <tag k="addr:city" v="Schnaittach"/>
    <tag k="addr:country" v="DE"/>
    <tag k="addr:housenumber" v="25"/>
    <tag k="addr:postcode" v="91220"/>
    <tag k="addr:street" v="Nürnberger Straße"/>
    <tag k="building" v="yes"/>
  </way>
  <way id="56693713" version="2" timestamp="2010-06-18T15:42:58Z" uid="49111" user="Markus B" changeset="5017235"/>
  <way id="56693714" version="2" timestamp="2010-06-18T15:42:54Z" uid="49111" user="Markus B" changeset="5017235">
    <nd ref="709047396"/>
    <nd ref="709047393"/>
    <nd ref="775725950"/>
    <nd ref="709047391"/>
    <nd ref="709047397"/>
    <nd ref="709047396"/>
    <tag k="addr:city" v="Schnaittach"/>
    <tag k="addr:country" v="DE"/>
    <tag k="addr:housenumber" v="36"/>
    <tag k="addr:postcode" v="91220"/>
    <tag k="addr:street" v="Nürnberger Straße"/>
    <tag k="building" v="yes"/>
    <tag k="shop" v="kiosk"/>
  </way>
  <way id="56693719" version="1" timestamp="2010-04-27T19:49:38Z" uid="59758" user="rendle" changeset="4544222">
    <nd ref="315531920"/>
    <nd ref="279778667"/>
    <nd ref="440120677"/>
    <nd ref="435416466"/>
    <nd ref="279778668"/>
    <nd ref="295718710"/>
    <tag k="highway" v="secondary"/>
    <tag k="name" v="Zandstraat"/>
    <tag k="ref" v="N403"/>
  </way>
  <way id="56693719" version="2" timestamp="2010-04-27T19:50:12Z" uid="59758" user="rendle" changeset="4544222">
    <nd ref="315531920"/>
    <nd ref="279778667"/>
    <nd ref="440120677"/>
    <nd ref="435416466"/>
    <nd ref="279778668"/>
    <nd ref="295718710"/>
    <tag k="highway" v="secondary"/>
    <tag k="ref" v="N403"/>
  </way>
  <way id="56693719" version="3" timestamp="2010-04-27T19:55:13Z" uid="59758" user="rendle" changeset="4544222">
    <nd ref="315531920"/>
    <nd ref="279778667"/>
    <nd ref="440120677"/>
    <tag k="highway" v="secondary"/>
    <tag k="ref" v="N403"/>
  </way>
  <way id="56693719" version="4" timestamp="2011-06-22T18:23:41Z" uid="472861" user="fbraem" changeset="8516672">
    <nd ref="315531920"/>
    <nd ref="1334697387"/>
    <nd ref="1334697382"/>
    <nd ref="279778667"/>
    <nd ref="440120677"/>
    <tag k="highway" v="secondary"/>
    <tag k="ref" v="N403"/>
  </way>
  <way id="56693719" version="5" timestamp="2011-06-22T18:52:40Z" uid="472861" user="fbraem" changeset="8516950">
    <nd ref="315531920"/>
    <nd ref="1334721864"/>
    <nd ref="1334697387"/>
    <nd ref="1334697382"/>
    <nd ref="279778667"/>
    <nd ref="440120677"/>
    <tag k="highway" v="secondary"/>
    <tag k="ref" v="N403"/>
  </way>
  <way id="56693719" version="6" timestamp="2011-06-23T19:56:47Z" uid="472861" user="fbraem" changeset="8526239">
    <nd ref="315531920"/>
    <nd ref="1334721864"/>
    <nd ref="1334697387"/>
    <nd ref="1334697382"/>
    <nd ref="279778667"/>
    <nd ref="440120677"/>
    <tag k="highway" v="secondary"/>
    <tag k="name" v="stationsstraat"/>
    <tag k="ref" v="N403"/>
  </way>
  <way id="56693719" version="7" timestamp="2011-06-23T20:12:43Z" uid="472861" user="fbraem" changeset="8526420">
    <nd ref="315531920"/>
    <nd ref="1334721864"/>
    <nd ref="1334697387"/>
    <nd ref="1334697382"/>
    <nd ref="279778667"/>
    <nd ref="440120677"/>
    <tag k="highway" v="secondary"/>
    <tag k="maxspeed" v="50"/>
    <tag k="name" v="stationsstraat"/>
    <tag k="ref" v="N403"/>
  </way>
  <way id="56693719" version="8" timestamp="2012-01-18T16:32:29Z" uid="138772" user="lodde1949" changeset="10428945"/>
  <way id="56693722" version="1" timestamp="2010-04-27T19:49:49Z" uid="59758" user="rendle" changeset="4544222">
    <nd ref="123446"/>
    <nd ref="315531920"/>
    <tag k="highway" v="secondary"/>
    <tag k="name" v="Zandstraat"/>
    <tag k="ref" v="N403"/>
  </way>
  <way id="56693722" version="2" timestamp="2010-04-27T19:50:06Z" uid="59758" user="rendle" changeset="4544222">
    <nd ref="123446"/>
    <nd ref="315531920"/>
    <tag k="highway" v="secondary"/>
    <tag k="name" v="Hoekstraat"/>
    <tag k="ref" v="N403"/>
  </way>
  <way id="56693722" version="3" timestamp="2011-06-20T20:50:16Z" uid="472861" user="fbraem" changeset="8498861">
    <nd ref="123446"/>
    <nd ref="1332760662"/>
    <nd ref="1332760666"/>
    <nd ref="315531920"/>
    <tag k="highway" v="secondary"/>
    <tag k="name" v="Hoekstraat"/>
    <tag k="ref" v="N403"/>
  </way>
  <way id="56693722" version="4" timestamp="2011-06-23T20:12:43Z" uid="472861" user="fbraem" changeset="8526420">
    <nd ref="123446"/>
    <nd ref="1332760662"/>
    <nd ref="1332760666"/>
    <nd ref="315531920"/>
    <tag k="highway" v="secondary"/>
    <tag k="maxspeed" v="50"/>
    <tag k="name" v="Hoekstraat"/>
    <tag k="ref" v="N403"/>
  </way>
  <way id="56693722" version="5" timestamp="2012-01-18T16:32:26Z" uid="138772" user="lodde1949" changeset="10428945"/>
  <way id="56693851" version="1" timestamp="2010-04-27T19:53:12Z" uid="59758" user="rendle" changeset="4544222">
    <nd ref="440120666"/>
    <nd ref="315531922"/>
    <tag k="highway" v="tertiary"/>
    <tag k="name" v="Kemzekedorp"/>
  </way>
  <way id="56693851" version="2" timestamp="2012-01-18T16:32:26Z" uid="138772" user="lodde1949" changeset="10428945"/>
  <way id="56693970" version="1" timestamp="2010-04-27T19:55:13Z" uid="59758" user="rendle" changeset="4544222">
    <nd ref="440120677"/>
    <nd ref="435416466"/>
    <nd ref="279778668"/>
    <nd ref="295718710"/>
    <tag k="highway" v="secondary"/>
    <tag k="ref" v="N403"/>
  </way>
  <way id="56693970" version="2" timestamp="2011-06-20T21:10:05Z" uid="472861" user="fbraem" changeset="8498861">
    <nd ref="440120677"/>
    <nd ref="1332771513"/>
    <nd ref="435416466"/>
    <nd ref="1332771512"/>
    <nd ref="279778668"/>
    <nd ref="295718710"/>
    <tag k="highway" v="secondary"/>
    <tag k="ref" v="N403"/>
  </way>
  <way id="56693970" version="3" timestamp="2011-06-23T19:56:48Z" uid="472861" user="fbraem" changeset="8526239">
    <nd ref="440120677"/>
    <nd ref="1332771513"/>
    <nd ref="435416466"/>
    <nd ref="1332771512"/>
    <nd ref="279778668"/>
    <nd ref="295718710"/>
    <tag k="highway" v="secondary"/>
    <tag k="name" v="stationsstraat"/>
    <tag k="ref" v="N403"/>
  </way>
  <way id="56693970" version="4" timestamp="2011-06-23T20:12:44Z" uid="472861" user="fbraem" changeset="8526420">
    <nd ref="440120677"/>
    <nd ref="1332771513"/>
    <nd ref="435416466"/>
    <nd ref="1332771512"/>
    <nd ref="279778668"/>
    <nd ref="295718710"/>
    <tag k="highway" v="secondary"/>
    <tag k="maxspeed" v="50"/>
    <tag k="name" v="stationsstraat"/>
    <tag k="ref" v="N403"/>
  </way>
  <way id="56693970" version="5" timestamp="2011-06-24T11:32:48Z" uid="472861" user="fbraem" changeset="8531692">
    <nd ref="440120677"/>
    <nd ref="1332771513"/>
    <nd ref="435416466"/>
    <nd ref="1332771512"/>
    <nd ref="279778668"/>
    <nd ref="1336799890"/>
    <nd ref="1336799891"/>
    <nd ref="295718710"/>
    <tag k="highway" v="secondary"/>
    <tag k="maxspeed" v="50"/>
    <tag k="name" v="stationsstraat"/>
    <tag k="ref" v="N403"/>
  </way>
  <way id="56693970" version="6" timestamp="2011-06-27T18:39:43Z" uid="472861" user="fbraem" changeset="8564804">
    <nd ref="440120677"/>
    <nd ref="1332771513"/>
    <nd ref="435416466"/>
    <nd ref="1332771512"/>
    <nd ref="279778668"/>
    <nd ref="1336799890"/>
    <nd ref="1336799891"/>
    <nd ref="1341478792"/>
    <nd ref="295718710"/>
    <tag k="highway" v="secondary"/>
    <tag k="maxspeed" v="50"/>
    <tag k="name" v="stationsstraat"/>
    <tag k="ref" v="N403"/>
  </way>
  <way id="56693970" version="7" timestamp="2012-01-18T16:32:29Z" uid="138772" user="lodde1949" changeset="10428945"/>
</osm>
