<?xml version='1.0' encoding='UTF-8'?>
<osm version="0.6" generator="libosmium/2.20.0">
  <way id="5747059" version="1" timestamp="2007-09-06T23:40:30Z" uid="6454" user="B10xxx" changeset="364362">
    <nd ref="23657870"/>
    <nd ref="2387269"/>
    <tag k="created_by" v="JOSM"/>
    <tag k="highway" v="residential"/>
  </way>
  <way id="5747059" version="2" timestamp="2007-10-14T01:49:14Z" uid="6454" user="B10xxx" changeset="154656">
    <nd ref="23657870"/>
    <nd ref="69729483"/>
    <nd ref="2387269"/>
    <tag k="created_by" v="Potlatch alpha"/>
    <tag k="highway" v="residential"/>
  </way>
  <way id="5747059" version="3" timestamp="2008-01-02T23:56:47Z" uid="23157" user="nh147" changeset="523116">
    <nd ref="23657870"/>
    <nd ref="69729483"/>
    <nd ref="204148042"/>
    <nd ref="2387269"/>
    <tag k="created_by" v="Potlatch 0.6"/>
    <tag k="highway" v="residential"/>
  </way>
  <way id="5747059" version="4" timestamp="2008-07-26T16:48:55Z" uid="8764" user="egore911" changeset="599497">
    <nd ref="23657870"/>
    <nd ref="69729483"/>
    <nd ref="204148042"/>
    <nd ref="2387269"/>
    <tag k="created_by" v="Potlatch 0.6"/>
    <tag k="highway" v="residential"/>
    <tag k="name" v="Wittelsbacherstraße"/>
  </way>
  <way id="5747059" version="5" timestamp="2009-04-28T17:05:24Z" uid="104912" user="Sir Lancelot" changeset="1006308">
    <nd ref="23657870"/>
    <nd ref="386858197"/>
    <nd ref="69729483"/>
    <nd ref="204148042"/>
    <nd ref="2387269"/>
    <tag k="created_by" v="Potlatch 0.6"/>
    <tag k="highway" v="residential"/>
    <tag k="name" v="Wittelsbacherstraße"/>
  </way>
  <way id="5747059" version="6" timestamp="2009-04-29T18:39:47Z" uid="28378" user="PHerison" changeset="1019387">
    <nd ref="23657870"/>
    <nd ref="386858197"/>
    <nd ref="386857834"/>
    <nd ref="69729483"/>
    <nd ref="204148042"/>
    <nd ref="2387269"/>
    <tag k="created_by" v="Potlatch 0.6"/>
    <tag k="highway" v="residential"/>
    <tag k="name" v="Wittelsbacherstraße"/>
  </way>
  <way id="5747059" version="7" timestamp="2009-05-11T19:13:00Z" uid="123966" user="Koboldchen" changeset="1157040">
    <nd ref="23657870"/>
    <nd ref="386858197"/>
    <nd ref="386857834"/>
    <nd ref="69729483"/>
    <nd ref="204148042"/>
    <nd ref="2387269"/>
    <tag k="created_by" v="Potlatch 0.6"/>
    <tag k="highway" v="residential"/>
    <tag k="name" v="Wittelsbacher Straße"/>
  </way>
  <way id="5747059" version="8" timestamp="2009-05-11T19:13:44Z" uid="123966" user="Koboldchen" changeset="1157040">
    <nd ref="23657870"/>
    <nd ref="386858197"/>
    <nd ref="386857834"/>
    <nd ref="69729483"/>
    <nd ref="204148042"/>
    <nd ref="2387269"/>
    <tag k="created_by" v="Potlatch 0.6"/>
    <tag k="highway" v="residential"/>
    <tag k="name" v="Wittelsbacherstraße"/>
  </way>
  <way id="5747059" version="9" timestamp="2009-05-11T19:14:15Z" uid="123966" user="Koboldchen" changeset="1157040">
    <nd ref="23657870"/>
    <nd ref="386858197"/>
    <nd ref="386857834"/>
    <nd ref="69729483"/>
    <nd ref="204148042"/>
    <nd ref="2387269"/>
    <tag k="created_by" v="Potlatch 0.6"/>
    <tag k="highway" v="residential"/>
    <tag k="name" v="Wittelsbacher Straße"/>
  </way>
  <way id="5747059" version="10" timestamp="2009-08-21T07:44:15Z" uid="8464" user="MichaH" changeset="2220078">
    <nd ref="23657870"/>
    <nd ref="386858197"/>
    <nd ref="386857834"/>
    <nd ref="69729483"/>
    <nd ref="204148042"/>
    <nd ref="2387269"/>
    <tag k="highway" v="residential"/>
    <tag k="name" v="Wittelsbacher Straße"/>
  </way>
  <way id="5747059" version="11" timestamp="2009-12-26T01:44:22Z" uid="27803" user="xavax" changeset="3451951">
    <nd ref="23657870"/>
    <nd ref="386858197"/>
    <nd ref="386857834"/>
    <nd ref="69729483"/>
    <nd ref="204148042"/>
    <nd ref="2387269"/>
    <tag k="highway" v="residential"/>
    <tag k="name" v="Wittelsbacherstraße"/>
  </way>
  <way id="5747059" version="12" timestamp="2010-02-15T21:07:13Z" uid="94353" user="Fips" changeset="3886974">
    <nd ref="23657870"/>
    <nd ref="640440714"/>
    <nd ref="386858197"/>
    <nd ref="386857834"/>
    <nd ref="69729483"/>
    <nd ref="204148042"/>
    <nd ref="2387269"/>
    <tag k="highway" v="residential"/>
    <tag k="name" v="Wittelsbacherstraße"/>
  </way>
  <way id="5747059" version="13" timestamp="2010-04-22T13:43:57Z" uid="40023" user="ALE!" changeset="4495309">
    <nd ref="23657870"/>
    <nd ref="640440714"/>
    <nd ref="386858197"/>
    <nd ref="386857834"/>
    <nd ref="69729483"/>
    <nd ref="703698351"/>
    <nd ref="204148042"/>
    <nd ref="2387269"/>
    <tag k="highway" v="residential"/>
    <tag k="name" v="Wittelsbacherstraße"/>
  </way>
  <way id="5747059" version="14" timestamp="2010-05-20T14:59:02Z" uid="40023" user="ALE!" changeset="4758371">
    <nd ref="23657870"/>
    <nd ref="640440714"/>
    <nd ref="386858197"/>
    <nd ref="386857834"/>
    <nd ref="69729483"/>
    <nd ref="703698351"/>
    <nd ref="741092864"/>
    <nd ref="204148042"/>
    <nd ref="2387269"/>
    <tag k="highway" v="residential"/>
    <tag k="name" v="Wittelsbacherstraße"/>
  </way>
  <way id="5747059" version="15" timestamp="2010-10-25T13:02:05Z" uid="40023" user="ALE!" changeset="6172191">
    <nd ref="23657870"/>
    <nd ref="640440714"/>
    <nd ref="386858197"/>
    <nd ref="386857834"/>
    <nd ref="69729483"/>
    <nd ref="703698351"/>
    <nd ref="741092864"/>
    <nd ref="204148042"/>
    <nd ref="2387269"/>
    <tag k="highway" v="residential"/>
    <tag k="name" v="Wittelsbacherstraße"/>
    <tag k="parking:condition:both" v="free"/>
    <tag k="parking:lane:both" v="inline"/>
  </way>
  <way id="5747059" version="16" timestamp="2012-01-04T13:09:58Z" uid="328555" user="peb12345" changeset="10290638"/>
  <way id="5747129" version="1" timestamp="2007-09-06T23:47:24Z" uid="6454" user="B10xxx" changeset="364362">
    <nd ref="2387266"/>
    <nd ref="2412997"/>
    <nd ref="2413180"/>
    <nd ref="2413145"/>
    <nd ref="2413342"/>
    <nd ref="2413345"/>
    <nd ref="2412755"/>
    <nd ref="2412756"/>
    <nd ref="2412743"/>
    <nd ref="2412590"/>
    <nd ref="2412714"/>
    <nd ref="2413320"/>
    <tag k="created_by" v="JOSM"/>
    <tag k="highway" v="residential"/>
  </way>
  <way id="5747129" version="2" timestamp="2008-07-26T16:40:01Z" uid="8764" user="egore911" changeset="599497">
    <nd ref="2387266"/>
    <nd ref="2412997"/>
    <nd ref="2413180"/>
    <nd ref="2413145"/>
    <nd ref="2413342"/>
    <nd ref="2413345"/>
    <nd ref="2412755"/>
    <nd ref="2412756"/>
    <nd ref="2412743"/>
    <nd ref="2412590"/>
    <nd ref="2412714"/>
    <nd ref="2413320"/>
    <tag k="created_by" v="JOSM"/>
    <tag k="highway" v="residential"/>
    <tag k="name" v="Gartenfeldstraße"/>
  </way>
  <way id="5747129" version="3" timestamp="2008-07-28T09:48:40Z" uid="17602" user="B10xyz" changeset="614911">
    <nd ref="2387266"/>
    <nd ref="2412997"/>
    <nd ref="2413180"/>
    <nd ref="2413145"/>
    <tag k="created_by" v="JOSM"/>
    <tag k="highway" v="residential"/>
    <tag k="name" v="Gartenfeldstraße"/>
  </way>
  <way id="5747129" version="4" timestamp="2009-05-12T13:17:13Z" uid="39762" user="dartial" changeset="1164138">
    <nd ref="2387266"/>
    <nd ref="2412997"/>
    <nd ref="2413145"/>
    <tag k="created_by" v="JOSM"/>
    <tag k="highway" v="residential"/>
    <tag k="name" v="Gartenfeldstraße"/>
  </way>
  <way id="5747129" version="5" timestamp="2009-10-23T11:06:14Z" uid="94353" user="Fips" changeset="2928768">
    <nd ref="2387266"/>
    <nd ref="2412997"/>
    <tag k="highway" v="residential"/>
    <tag k="name" v="Gartenfeldstraße"/>
  </way>
  <way id="5747129" version="6" timestamp="2010-06-17T16:51:51Z" uid="94353" user="Fips" changeset="5010318">
    <nd ref="2387266"/>
    <nd ref="2412997"/>
    <tag k="highway" v="residential"/>
    <tag k="lit" v="yes"/>
    <tag k="name" v="Gartenfeldstraße"/>
  </way>
  <way id="5747129" version="7" timestamp="2012-01-04T13:09:32Z" uid="328555" user="peb12345" changeset="10290638">
    <nd ref="2387266"/>
    <nd ref="1576708511"/>
    <tag k="highway" v="residential"/>
    <tag k="lit" v="yes"/>
    <tag k="name" v="Gartenfeldstraße"/>
  </way>
  <way id="5747129" version="8" timestamp="2012-01-05T14:31:04Z" uid="328555" user="peb12345" changeset="10301488"/>
  <way id="5747306" version="1" timestamp="2007-09-11T13:21:54Z" uid="6454" user="B10xxx" changeset="411127">
    <nd ref="2413320"/>
    <nd ref="2413295"/>
    <nd ref="2413426"/>
    <nd ref="2412940"/>
    <nd ref="2413265"/>
    <nd ref="2412601"/>
    <nd ref="2412765"/>
    <tag k="created_by" v="Potlatch alpha"/>
    <tag k="highway" v="residential"/>
  </way>
  <way id="5747306" version="2" timestamp="2008-07-10T13:25:05Z" changeset="454847">
    <nd ref="2413320"/>
    <nd ref="2413295"/>
    <nd ref="277547969"/>
    <nd ref="277547968"/>
    <nd ref="277547967"/>
    <nd ref="2413426"/>
    <nd ref="2412940"/>
    <nd ref="2413265"/>
    <nd ref="2412601"/>
    <nd ref="2412765"/>
    <tag k="created_by" v="Potlatch alpha"/>
    <tag k="highway" v="residential"/>
    <tag k="oneway" v="yes"/>
  </way>
  <way id="5747306" version="3" timestamp="2008-07-26T15:39:11Z" uid="8764" user="egore911" changeset="599497">
    <nd ref="2413320"/>
    <nd ref="2413295"/>
    <nd ref="277547969"/>
    <nd ref="277547968"/>
    <nd ref="277547967"/>
    <nd ref="2413426"/>
    <nd ref="2412940"/>
    <nd ref="2413265"/>
    <nd ref="2412765"/>
    <tag k="created_by" v="Potlatch alpha"/>
    <tag k="highway" v="residential"/>
    <tag k="oneway" v="yes"/>
  </way>
  <way id="5747306" version="4" timestamp="2008-07-26T16:39:59Z" uid="8764" user="egore911" changeset="599497">
    <nd ref="2413320"/>
    <nd ref="2413295"/>
    <nd ref="277547969"/>
    <nd ref="277547968"/>
    <nd ref="277547967"/>
    <nd ref="2413426"/>
    <nd ref="2412940"/>
    <tag k="created_by" v="Potlatch alpha"/>
    <tag k="highway" v="residential"/>
    <tag k="name" v="Gartenfeldstraße"/>
    <tag k="oneway" v="yes"/>
  </way>
  <way id="5747306" version="5" timestamp="2009-08-21T07:44:10Z" uid="8464" user="MichaH" changeset="2220078">
    <nd ref="2413320"/>
    <nd ref="2413295"/>
    <nd ref="277547969"/>
    <nd ref="277547968"/>
    <nd ref="277547967"/>
    <nd ref="2413426"/>
    <nd ref="2412940"/>
    <tag k="highway" v="residential"/>
    <tag k="name" v="Gartenfeldstraße"/>
    <tag k="oneway" v="yes"/>
  </way>
  <way id="5747306" version="6" timestamp="2009-08-31T13:06:01Z" uid="149372" user="csosm" changeset="2325992">
    <nd ref="2413320"/>
    <nd ref="2413295"/>
    <tag k="highway" v="residential"/>
    <tag k="name" v="Gartenfeldstraße"/>
    <tag k="oneway" v="yes"/>
  </way>
  <way id="5747306" version="7" timestamp="2009-11-14T14:27:09Z" uid="94353" user="Fips" changeset="3113563">
    <nd ref="2413320"/>
    <nd ref="563839500"/>
    <nd ref="563839499"/>
    <nd ref="2413295"/>
    <tag k="highway" v="residential"/>
    <tag k="name" v="Gartenfeldstraße"/>
    <tag k="oneway" v="yes"/>
  </way>
  <way id="5747306" version="8" timestamp="2010-02-03T19:45:46Z" uid="39240" user="Seehundeführer" changeset="3784741">
    <nd ref="2413320"/>
    <nd ref="563839500"/>
    <nd ref="563839499"/>
    <nd ref="627938105"/>
    <nd ref="2413295"/>
    <tag k="highway" v="residential"/>
    <tag k="name" v="Gartenfeldstraße"/>
    <tag k="oneway" v="yes"/>
  </way>
  <way id="5747306" version="9" timestamp="2010-03-03T20:54:33Z" uid="94353" user="Fips" changeset="4028428">
    <nd ref="2413320"/>
    <nd ref="563839500"/>
    <tag k="highway" v="residential"/>
    <tag k="name" v="Gartenfeldstraße"/>
    <tag k="oneway" v="yes"/>
  </way>
  <way id="5747306" version="10" timestamp="2010-06-19T14:16:58Z" uid="94353" user="Fips" changeset="5024347">
    <nd ref="2413320"/>
    <nd ref="776352221"/>
    <nd ref="563839500"/>
    <tag k="highway" v="residential"/>
    <tag k="name" v="Gartenfeldstraße"/>
    <tag k="oneway" v="yes"/>
  </way>
  <way id="5747306" version="11" timestamp="2012-01-04T13:09:51Z" uid="328555" user="peb12345" changeset="10290638"/>
</osm>
