<?xml version='1.0' encoding='UTF-8'?>
<osm version="0.6" generator="libosmium/2.20.0">
  <way id="57727110" version="1" timestamp="2010-05-01T17:18:32Z" uid="20587" user="balrog-kun" changeset="4577369">
    <nd ref="247461208"/>
    <nd ref="32572232"/>
    <nd ref="34521675"/>
    <nd ref="248197964"/>
    <tag k="highway" v="primary"/>
    <tag k="lanes" v="4"/>
    <tag k="name" v="Marszałkowska"/>
    <tag k="oneway" v="yes"/>
    <tag k="wikipedia" v="pl:Ulica Marszałkowska w Warszawie"/>
  </way>
  <way id="57727110" version="2" timestamp="2011-08-16T15:50:50Z" uid="373244" user="Tomaszg" changeset="9038236">
    <nd ref="247461208"/>
    <nd ref="32572232"/>
    <nd ref="34521675"/>
    <nd ref="248197964"/>
    <tag k="highway" v="secondary"/>
    <tag k="lanes" v="4"/>
    <tag k="name" v="Marszałkowska"/>
    <tag k="oneway" v="yes"/>
    <tag k="wikipedia" v="pl:Ulica Marszałkowska w Warszawie"/>
  </way>
  <way id="57727110" version="3" timestamp="2011-08-18T13:50:31Z" uid="373244" user="Tomaszg" changeset="9057143">
    <nd ref="247461208"/>
    <nd ref="32572232"/>
    <nd ref="34521675"/>
    <nd ref="248197964"/>
    <tag k="highway" v="primary"/>
    <tag k="lanes" v="4"/>
    <tag k="name" v="Marszałkowska"/>
    <tag k="oneway" v="yes"/>
    <tag k="wikipedia" v="pl:Ulica Marszałkowska w Warszawie"/>
  </way>
  <way id="57727110" version="4" timestamp="2011-10-08T04:40:50Z" uid="194862" user="abar" changeset="9499217">
    <nd ref="247461208"/>
    <nd ref="32572232"/>
    <nd ref="34521675"/>
    <nd ref="248197964"/>
    <tag k="highway" v="secondary"/>
    <tag k="lanes" v="4"/>
    <tag k="name" v="Marszałkowska"/>
    <tag k="oneway" v="yes"/>
    <tag k="wikipedia" v="pl:Ulica Marszałkowska w Warszawie"/>
  </way>
  <way id="57727112" version="1" timestamp="2010-05-01T17:18:33Z" uid="20587" user="balrog-kun" changeset="4577369">
    <nd ref="262833454"/>
    <nd ref="35970278"/>
    <tag k="highway" v="tertiary"/>
    <tag k="lanes" v="1"/>
    <tag k="maxspeed" v="50"/>
    <tag k="maxweight" v="2.5"/>
  </way>
  <way id="57727112" version="2" timestamp="2010-12-18T00:13:40Z" uid="165509" user="koszatek" changeset="6692159">
    <nd ref="262833454"/>
    <nd ref="35970278"/>
    <tag k="highway" v="secondary"/>
    <tag k="lanes" v="1"/>
    <tag k="maxspeed" v="50"/>
    <tag k="maxweight" v="2.5"/>
  </way>
  <way id="57727112" version="3" timestamp="2011-02-26T22:15:42Z" uid="20587" user="balrog-kun" changeset="7405140">
    <nd ref="262833454"/>
    <nd ref="35970278"/>
    <tag k="highway" v="construction"/>
    <tag k="lanes" v="1"/>
    <tag k="maxspeed" v="50"/>
    <tag k="maxweight" v="2.5"/>
  </way>
  <way id="57727112" version="4" timestamp="2011-06-10T17:00:45Z" uid="20587" user="balrog-kun" changeset="8398943">
    <nd ref="262833454"/>
    <nd ref="35970278"/>
    <tag k="highway" v="tertiary"/>
    <tag k="lanes" v="1"/>
    <tag k="maxspeed" v="50"/>
    <tag k="maxweight" v="2.5"/>
  </way>
  <way id="57727112" version="5" timestamp="2011-06-29T23:16:39Z" uid="165509" user="koszatek" changeset="8586044">
    <nd ref="32552935"/>
    <nd ref="302711448"/>
    <nd ref="35970277"/>
    <nd ref="302711450"/>
    <nd ref="254289152"/>
    <nd ref="254289153"/>
    <nd ref="262833454"/>
    <nd ref="1343922900"/>
    <nd ref="1343922896"/>
    <nd ref="1343922893"/>
    <nd ref="1343922891"/>
    <nd ref="35970278"/>
    <tag k="highway" v="tertiary"/>
    <tag k="lanes" v="1"/>
    <tag k="maxweight" v="2.5"/>
    <tag k="oneway" v="yes"/>
  </way>
  <way id="57727112" version="6" timestamp="2011-09-07T11:39:57Z" uid="375740" user="alurg" changeset="9235958">
    <nd ref="32552935"/>
    <nd ref="302711448"/>
    <nd ref="35970277"/>
    <nd ref="302711450"/>
    <nd ref="254289152"/>
    <nd ref="254289153"/>
    <nd ref="262833454"/>
    <nd ref="1343922900"/>
    <nd ref="1343922896"/>
    <nd ref="1343922893"/>
    <nd ref="1343922891"/>
    <nd ref="35970278"/>
    <tag k="highway" v="secondary_link"/>
    <tag k="lanes" v="1"/>
    <tag k="maxweight" v="2.5"/>
    <tag k="oneway" v="yes"/>
  </way>
  <way id="57727112" version="7" timestamp="2011-09-28T23:11:17Z" uid="373244" user="Tomekg" changeset="9423843"/>
  <way id="57727113" version="1" timestamp="2010-05-01T17:18:33Z" uid="20587" user="balrog-kun" changeset="4577369">
    <nd ref="54094266"/>
    <nd ref="54094261"/>
    <nd ref="32329833"/>
    <nd ref="30901480"/>
    <tag k="highway" v="tertiary"/>
    <tag k="lanes" v="3"/>
    <tag k="name" v="Filtrowa"/>
    <tag k="wikipedia" v="pl:Ulica Filtrowa w Warszawie"/>
  </way>
  <way id="57727113" version="2" timestamp="2010-12-20T19:51:44Z" uid="20587" user="balrog-kun" changeset="6719279">
    <nd ref="54094266"/>
    <nd ref="54094261"/>
    <nd ref="1052381768"/>
    <nd ref="32329833"/>
    <nd ref="30901480"/>
    <tag k="highway" v="tertiary"/>
    <tag k="lanes" v="3"/>
    <tag k="name" v="Filtrowa"/>
    <tag k="wikipedia" v="pl:Ulica Filtrowa w Warszawie"/>
  </way>
  <way id="57727113" version="3" timestamp="2011-09-16T21:32:07Z" uid="480758" user="amaperek" changeset="9320052">
    <nd ref="54094266"/>
    <nd ref="54094261"/>
    <nd ref="1052381768"/>
    <nd ref="32329833"/>
    <tag k="highway" v="tertiary"/>
    <tag k="lanes" v="3"/>
    <tag k="name" v="Filtrowa"/>
    <tag k="wikipedia" v="pl:Ulica Filtrowa w Warszawie"/>
  </way>
  <way id="57727114" version="1" timestamp="2010-05-01T17:18:33Z" uid="20587" user="balrog-kun" changeset="4577369">
    <nd ref="248197964"/>
    <nd ref="32572233"/>
    <nd ref="32572234"/>
    <tag k="highway" v="primary"/>
    <tag k="lanes" v="3"/>
    <tag k="name" v="Marszałkowska"/>
    <tag k="oneway" v="yes"/>
    <tag k="wikipedia" v="pl:Ulica Marszałkowska w Warszawie"/>
  </way>
  <way id="57727114" version="2" timestamp="2011-08-16T15:50:50Z" uid="373244" user="Tomaszg" changeset="9038236">
    <nd ref="248197964"/>
    <nd ref="32572233"/>
    <nd ref="32572234"/>
    <tag k="highway" v="secondary"/>
    <tag k="lanes" v="3"/>
    <tag k="name" v="Marszałkowska"/>
    <tag k="oneway" v="yes"/>
    <tag k="wikipedia" v="pl:Ulica Marszałkowska w Warszawie"/>
  </way>
  <way id="57727114" version="3" timestamp="2011-08-18T13:50:31Z" uid="373244" user="Tomaszg" changeset="9057143">
    <nd ref="248197964"/>
    <nd ref="32572233"/>
    <nd ref="32572234"/>
    <tag k="highway" v="primary"/>
    <tag k="lanes" v="3"/>
    <tag k="name" v="Marszałkowska"/>
    <tag k="oneway" v="yes"/>
    <tag k="wikipedia" v="pl:Ulica Marszałkowska w Warszawie"/>
  </way>
  <way id="57727114" version="4" timestamp="2011-10-08T04:40:50Z" uid="194862" user="abar" changeset="9499217">
    <nd ref="248197964"/>
    <nd ref="32572233"/>
    <nd ref="32572234"/>
    <tag k="highway" v="secondary"/>
    <tag k="lanes" v="3"/>
    <tag k="name" v="Marszałkowska"/>
    <tag k="oneway" v="yes"/>
    <tag k="wikipedia" v="pl:Ulica Marszałkowska w Warszawie"/>
  </way>
  <way id="57727114" version="5" timestamp="2011-12-17T16:46:07Z" uid="98542" user="wajak" changeset="10139708">
    <nd ref="248197964"/>
    <nd ref="32572233"/>
    <nd ref="1550535834"/>
    <nd ref="32572234"/>
    <tag k="highway" v="secondary"/>
    <tag k="lanes" v="3"/>
    <tag k="name" v="Marszałkowska"/>
    <tag k="oneway" v="yes"/>
    <tag k="wikipedia" v="pl:Ulica Marszałkowska w Warszawie"/>
  </way>
  <way id="57727472" version="1" timestamp="2010-05-01T17:29:34Z" uid="151899" user="Bikeman2000" changeset="4577488">
    <nd ref="715733725"/>
    <nd ref="715733727"/>
    <nd ref="715733729"/>
    <nd ref="715733731"/>
    <nd ref="715733733"/>
    <nd ref="715733734"/>
    <nd ref="715733735"/>
    <nd ref="715733725"/>
    <tag k="landuse" v="meadow"/>
  </way>
  <way id="57727472" version="2" timestamp="2010-06-15T21:15:54Z" uid="151899" user="Bikeman2000" changeset="4995870">
    <nd ref="715733725"/>
    <nd ref="715733727"/>
    <nd ref="715733729"/>
    <nd ref="715733731"/>
    <nd ref="715733733"/>
    <nd ref="715733734"/>
    <nd ref="773306233"/>
    <nd ref="715733735"/>
    <nd ref="715733725"/>
    <tag k="landuse" v="meadow"/>
  </way>
  <way id="57727472" version="3" timestamp="2011-12-25T20:31:40Z" uid="12614" user="rabenkind" changeset="10202890"/>
</osm>
