<?xml version='1.0' encoding='UTF-8'?>
<osm version="0.6" generator="libosmium/2.20.0">
  <way id="57738261" version="2" timestamp="2010-07-09T15:26:32Z" uid="43863" user="Rundling" changeset="5174457">
    <nd ref="715858997"/>
    <nd ref="715859008"/>
    <tag k="access" v="forestry"/>
    <tag k="highway" v="track"/>
    <tag k="motorcar" v="agricultural"/>
    <tag k="surface" v="sand"/>
    <tag k="tracktype" v="grade4"/>
  </way>
  <way id="57738262" version="1" timestamp="2010-05-01T20:48:39Z" uid="44827" user="snail044" changeset="4579281">
    <nd ref="715859010"/>
    <nd ref="715859026"/>
    <nd ref="715858993"/>
    <nd ref="715859034"/>
    <nd ref="715859043"/>
    <nd ref="715859012"/>
    <nd ref="715859052"/>
    <nd ref="715859010"/>
    <tag k="landuse" v="meadow"/>
  </way>
  <way id="57738262" version="2" timestamp="2010-05-03T15:15:53Z" uid="43863" user="Rundling" changeset="4595771"/>
  <way id="57738264" version="1" timestamp="2010-05-01T20:48:39Z" uid="44827" user="snail044" changeset="4579281">
    <nd ref="715859032"/>
    <nd ref="715858980"/>
    <nd ref="715859021"/>
    <nd ref="715858988"/>
    <nd ref="715859001"/>
    <nd ref="715859040"/>
    <nd ref="715859007"/>
    <nd ref="715859047"/>
    <nd ref="715858984"/>
    <nd ref="715859032"/>
    <tag k="landuse" v="meadow"/>
  </way>
  <way id="57738264" version="2" timestamp="2010-05-03T15:15:53Z" uid="43863" user="Rundling" changeset="4595771"/>
  <way id="57738265" version="1" timestamp="2010-05-01T20:48:40Z" uid="44827" user="snail044" changeset="4579281">
    <nd ref="715858991"/>
    <nd ref="715859009"/>
    <nd ref="715859049"/>
    <nd ref="715858987"/>
    <nd ref="715858991"/>
    <tag k="landuse" v="meadow"/>
  </way>
  <way id="57738265" version="2" timestamp="2010-05-03T15:15:53Z" uid="43863" user="Rundling" changeset="4595771"/>
  <way id="57738266" version="2" timestamp="2010-07-09T15:26:31Z" uid="43863" user="Rundling" changeset="5174457">
    <nd ref="715859030"/>
    <nd ref="715858982"/>
    <nd ref="715859035"/>
    <tag k="access" v="agricultural"/>
    <tag k="highway" v="track"/>
    <tag k="motorcar" v="forestry"/>
    <tag k="surface" v="sand"/>
    <tag k="tracktype" v="grade4"/>
  </way>
  <way id="57738267" version="2" timestamp="2010-07-09T15:26:32Z" uid="43863" user="Rundling" changeset="5174457">
    <nd ref="715859028"/>
    <nd ref="715859050"/>
    <nd ref="715859014"/>
    <nd ref="715859035"/>
    <nd ref="715858997"/>
    <nd ref="715859036"/>
    <tag k="access" v="forestry"/>
    <tag k="highway" v="track"/>
    <tag k="motorcar" v="agricultural"/>
    <tag k="surface" v="sand"/>
    <tag k="tracktype" v="grade4"/>
  </way>
  <way id="57738268" version="2" timestamp="2010-07-09T15:26:32Z" uid="43863" user="Rundling" changeset="5174457">
    <nd ref="715858990"/>
    <nd ref="715859022"/>
    <nd ref="715859033"/>
    <nd ref="715859008"/>
    <nd ref="715858985"/>
    <nd ref="715858992"/>
    <nd ref="715859042"/>
    <nd ref="715859051"/>
    <nd ref="715859000"/>
    <tag k="access" v="forestry"/>
    <tag k="highway" v="track"/>
    <tag k="motorcar" v="agricultural"/>
    <tag k="surface" v="sand"/>
    <tag k="tracktype" v="grade4"/>
  </way>
  <way id="57738268" version="3" timestamp="2011-07-24T16:27:59Z" uid="389572" user="Wirbel_75" changeset="8818308">
    <nd ref="280474061"/>
    <nd ref="1372538409"/>
    <nd ref="715858990"/>
    <nd ref="715859022"/>
    <nd ref="715859033"/>
    <nd ref="715859008"/>
    <nd ref="715858985"/>
    <nd ref="715858992"/>
    <nd ref="715859042"/>
    <nd ref="715859051"/>
    <nd ref="715859000"/>
    <tag k="access" v="forestry"/>
    <tag k="highway" v="track"/>
    <tag k="motorcar" v="agricultural"/>
    <tag k="surface" v="sand"/>
    <tag k="tracktype" v="grade4"/>
  </way>
  <way id="57738269" version="1" timestamp="2010-05-01T20:48:40Z" uid="44827" user="snail044" changeset="4579281">
    <nd ref="715858996"/>
    <nd ref="715859018"/>
    <nd ref="715859029"/>
    <nd ref="715858998"/>
    <nd ref="715859037"/>
    <nd ref="715858996"/>
    <tag k="landuse" v="meadow"/>
  </way>
  <way id="57738269" version="2" timestamp="2010-05-03T15:15:53Z" uid="43863" user="Rundling" changeset="4595771"/>
  <way id="57738425" version="1" timestamp="2010-05-01T20:49:44Z" uid="33382" user="de_muur" changeset="4579294">
    <nd ref="292367713"/>
    <nd ref="292367714"/>
    <nd ref="292367716"/>
    <nd ref="292367717"/>
    <nd ref="292367718"/>
    <nd ref="292367720"/>
    <nd ref="292367725"/>
    <nd ref="292367736"/>
    <nd ref="292367744"/>
    <nd ref="292367753"/>
    <nd ref="292367759"/>
    <nd ref="292367761"/>
    <nd ref="715860374"/>
    <tag k="highway" v="tertiary"/>
    <tag k="ref" v="K 17"/>
    <tag k="surface" v="paved"/>
  </way>
  <way id="57738425" version="2" timestamp="2011-06-17T08:31:17Z" uid="113113" user="zubenelakrab" changeset="8462484">
    <nd ref="292367713"/>
    <nd ref="292367714"/>
    <nd ref="292367716"/>
    <nd ref="292367717"/>
    <nd ref="292367718"/>
    <nd ref="292367720"/>
    <nd ref="292367725"/>
    <nd ref="292367736"/>
    <nd ref="292367744"/>
    <nd ref="292367753"/>
    <nd ref="292367759"/>
    <nd ref="292367761"/>
    <nd ref="1328303688"/>
    <nd ref="715860374"/>
    <tag k="highway" v="tertiary"/>
    <tag k="ref" v="K 17"/>
    <tag k="surface" v="paved"/>
  </way>
  <way id="57738425" version="3" timestamp="2011-06-25T17:49:18Z" uid="113113" user="zubenelakrab" changeset="8545140">
    <nd ref="292367713"/>
    <nd ref="292367714"/>
    <nd ref="292367716"/>
    <nd ref="292367717"/>
    <nd ref="292367718"/>
    <nd ref="292367720"/>
    <nd ref="292367725"/>
    <nd ref="292367736"/>
    <nd ref="1338653748"/>
    <nd ref="292367744"/>
    <nd ref="292367753"/>
    <nd ref="292367759"/>
    <nd ref="1338653743"/>
    <nd ref="1338653731"/>
    <nd ref="292367761"/>
    <nd ref="1338653750"/>
    <nd ref="1328303688"/>
    <nd ref="715860374"/>
    <tag k="highway" v="tertiary"/>
    <tag k="ref" v="K 17"/>
    <tag k="surface" v="paved"/>
  </way>
  <way id="57738425" version="4" timestamp="2011-07-02T15:48:19Z" uid="113113" user="zubenelakrab" changeset="8608905">
    <nd ref="292367713"/>
    <nd ref="292367714"/>
    <nd ref="292367716"/>
    <nd ref="292367717"/>
    <nd ref="292367718"/>
    <nd ref="292367720"/>
    <nd ref="292367725"/>
    <nd ref="292367736"/>
    <nd ref="1347036311"/>
    <nd ref="1338653748"/>
    <nd ref="292367744"/>
    <nd ref="1347036306"/>
    <nd ref="292367753"/>
    <nd ref="292367759"/>
    <nd ref="1338653743"/>
    <nd ref="1338653731"/>
    <nd ref="292367761"/>
    <nd ref="1338653750"/>
    <nd ref="1328303688"/>
    <nd ref="715860374"/>
    <tag k="highway" v="tertiary"/>
    <tag k="ref" v="K 17"/>
    <tag k="surface" v="paved"/>
  </way>
  <way id="57738425" version="5" timestamp="2011-10-07T07:56:55Z" uid="113113" user="zubenelakrab" changeset="9491608">
    <nd ref="292367713"/>
    <nd ref="292367714"/>
    <nd ref="1457531864"/>
    <nd ref="292367716"/>
    <nd ref="292367717"/>
    <nd ref="292367718"/>
    <nd ref="292367720"/>
    <nd ref="292367725"/>
    <nd ref="292367736"/>
    <nd ref="1347036311"/>
    <nd ref="1338653748"/>
    <nd ref="292367744"/>
    <nd ref="1347036306"/>
    <nd ref="292367753"/>
    <nd ref="292367759"/>
    <nd ref="1338653743"/>
    <nd ref="1338653731"/>
    <nd ref="292367761"/>
    <nd ref="1338653750"/>
    <nd ref="1328303688"/>
    <nd ref="715860374"/>
    <tag k="highway" v="tertiary"/>
    <tag k="ref" v="K 17"/>
    <tag k="surface" v="paved"/>
  </way>
  <way id="57738481" version="1" timestamp="2010-05-01T20:49:52Z" uid="33382" user="de_muur" changeset="4579294">
    <nd ref="715860365"/>
    <nd ref="262491741"/>
    <nd ref="262492087"/>
    <nd ref="262492064"/>
    <nd ref="262491847"/>
    <tag k="bicycle" v="yes"/>
    <tag k="highway" v="footway"/>
    <tag k="surface" v="paved"/>
  </way>
  <way id="57738481" version="2" timestamp="2010-05-03T12:51:38Z" uid="33382" user="de_muur" changeset="4594511">
    <nd ref="715860365"/>
    <nd ref="262491741"/>
    <nd ref="262492087"/>
    <tag k="bicycle" v="yes"/>
    <tag k="highway" v="footway"/>
    <tag k="surface" v="paved"/>
  </way>
  <way id="57738482" version="1" timestamp="2010-05-01T20:49:52Z" uid="33382" user="de_muur" changeset="4579294">
    <nd ref="715860238"/>
    <nd ref="373373669"/>
    <nd ref="715860365"/>
    <tag k="bicycle" v="yes"/>
    <tag k="highway" v="footway"/>
    <tag k="layer" v="-1"/>
    <tag k="surface" v="paved"/>
    <tag k="tunnel" v="yes"/>
  </way>
  <way id="57738482" version="2" timestamp="2010-05-03T12:51:38Z" uid="33382" user="de_muur" changeset="4594511">
    <nd ref="715860238"/>
    <nd ref="718676610"/>
    <tag k="bicycle" v="yes"/>
    <tag k="highway" v="footway"/>
    <tag k="layer" v="-1"/>
    <tag k="surface" v="paved"/>
    <tag k="tunnel" v="yes"/>
  </way>
  <way id="57738482" version="3" timestamp="2011-07-01T14:44:41Z" uid="113113" user="zubenelakrab" changeset="8600170">
    <nd ref="715860238"/>
    <nd ref="1345827414"/>
    <nd ref="718676610"/>
    <tag k="bicycle" v="yes"/>
    <tag k="highway" v="footway"/>
    <tag k="layer" v="-1"/>
    <tag k="surface" v="paved"/>
    <tag k="tunnel" v="yes"/>
  </way>
  <way id="57738483" version="1" timestamp="2010-05-01T20:49:52Z" uid="33382" user="de_muur" changeset="4579294">
    <nd ref="262492087"/>
    <nd ref="715860367"/>
    <nd ref="253241327"/>
  </way>
  <way id="57738483" version="2" timestamp="2010-05-03T13:03:04Z" uid="33382" user="de_muur" changeset="4594619">
    <nd ref="262492087"/>
    <nd ref="715860367"/>
    <nd ref="253241327"/>
    <tag k="bicycle" v="yes"/>
    <tag k="highway" v="footway"/>
    <tag k="surface" v="paved"/>
  </way>
  <way id="57738483" version="3" timestamp="2011-12-04T22:03:58Z" uid="161619" user="FvGordon" changeset="10038104">
    <nd ref="262492087"/>
    <nd ref="715860367"/>
    <nd ref="1531848873"/>
    <nd ref="1531848872"/>
    <nd ref="253241327"/>
    <tag k="bicycle" v="yes"/>
    <tag k="highway" v="footway"/>
    <tag k="surface" v="paved"/>
  </way>
  <way id="57738484" version="1" timestamp="2010-05-01T20:49:52Z" uid="33382" user="de_muur" changeset="4579294">
    <nd ref="341305191"/>
    <nd ref="341305192"/>
    <tag k="highway" v="tertiary"/>
    <tag k="name" v="Grabauer Straße"/>
    <tag k="ref" v="K 17"/>
    <tag k="surface" v="paved"/>
  </way>
  <way id="57738484" version="2" timestamp="2011-06-07T15:59:36Z" uid="113113" user="zubenelakrab" changeset="8371375">
    <nd ref="341305191"/>
    <nd ref="1315194789"/>
    <nd ref="1315194689"/>
    <nd ref="1315194708"/>
    <nd ref="1315194712"/>
    <nd ref="341305192"/>
    <tag k="highway" v="tertiary"/>
    <tag k="name" v="Grabauer Straße"/>
    <tag k="ref" v="K 17"/>
    <tag k="surface" v="paved"/>
  </way>
  <way id="57738484" version="3" timestamp="2011-08-27T12:47:54Z" uid="113113" user="zubenelakrab" changeset="9137539">
    <nd ref="341305191"/>
    <nd ref="1414619161"/>
    <nd ref="1315194789"/>
    <nd ref="1315194689"/>
    <nd ref="1315194708"/>
    <nd ref="1315194712"/>
    <nd ref="341305192"/>
    <tag k="highway" v="tertiary"/>
    <tag k="name" v="Grabauer Straße"/>
    <tag k="ref" v="K 17"/>
    <tag k="surface" v="paved"/>
  </way>
  <way id="57738484" version="4" timestamp="2011-10-27T01:10:37Z" uid="412390" user="MrWebber" changeset="9665187">
    <nd ref="341305191"/>
    <nd ref="1481946299"/>
    <nd ref="1414619161"/>
    <nd ref="1315194789"/>
    <nd ref="1315194689"/>
    <nd ref="1315194708"/>
    <nd ref="1315194712"/>
    <nd ref="341305192"/>
    <tag k="highway" v="tertiary"/>
    <tag k="name" v="Grabauer Straße"/>
    <tag k="ref" v="K 17"/>
    <tag k="surface" v="paved"/>
  </way>
  <way id="57738485" version="1" timestamp="2010-05-01T20:49:52Z" uid="33382" user="de_muur" changeset="4579294">
    <nd ref="292367768"/>
    <nd ref="292367769"/>
    <nd ref="354410851"/>
    <tag k="highway" v="tertiary"/>
    <tag k="ref" v="K 17"/>
    <tag k="surface" v="paved"/>
  </way>
  <way id="57738485" version="2" timestamp="2010-05-03T13:35:36Z" uid="33382" user="de_muur" changeset="4594919">
    <nd ref="292367768"/>
    <nd ref="292367769"/>
    <tag k="highway" v="tertiary"/>
    <tag k="ref" v="K 17"/>
    <tag k="surface" v="paved"/>
  </way>
  <way id="57738485" version="3" timestamp="2011-06-24T11:30:56Z" uid="113113" user="zubenelakrab" changeset="8531672">
    <nd ref="292367768"/>
    <nd ref="1336798623"/>
    <nd ref="292367769"/>
    <tag k="highway" v="tertiary"/>
    <tag k="ref" v="K 17"/>
    <tag k="surface" v="paved"/>
  </way>
  <way id="57738485" version="4" timestamp="2011-07-08T14:34:55Z" uid="113113" user="zubenelakrab" changeset="8666828">
    <nd ref="292367768"/>
    <nd ref="1353874667"/>
    <nd ref="1353874670"/>
    <nd ref="1336798623"/>
    <nd ref="1353874668"/>
    <nd ref="1353874666"/>
    <nd ref="292367769"/>
    <tag k="highway" v="tertiary"/>
    <tag k="ref" v="K 17"/>
    <tag k="surface" v="paved"/>
  </way>
  <way id="57738486" version="1" timestamp="2010-05-01T20:49:53Z" uid="33382" user="de_muur" changeset="4579294">
    <nd ref="715860374"/>
    <nd ref="292367763"/>
    <nd ref="292367766"/>
    <tag k="highway" v="tertiary"/>
    <tag k="maxspeed" v="50"/>
    <tag k="ref" v="K 17"/>
    <tag k="surface" v="paved"/>
  </way>
  <way id="57738486" version="2" timestamp="2010-05-03T13:53:02Z" uid="33382" user="de_muur" changeset="4595078">
    <nd ref="715860374"/>
    <nd ref="292367763"/>
    <nd ref="292367766"/>
    <tag k="highway" v="tertiary"/>
    <tag k="maxspeed" v="50"/>
    <tag k="name" v="Bergstraße"/>
    <tag k="ref" v="K 17"/>
    <tag k="surface" v="paved"/>
  </way>
  <way id="57738486" version="3" timestamp="2011-06-17T08:31:17Z" uid="113113" user="zubenelakrab" changeset="8462484">
    <nd ref="715860374"/>
    <nd ref="292367763"/>
    <nd ref="1328303717"/>
    <nd ref="1328303711"/>
    <nd ref="292367766"/>
    <tag k="highway" v="tertiary"/>
    <tag k="maxspeed" v="50"/>
    <tag k="name" v="Bergstraße"/>
    <tag k="ref" v="K 17"/>
    <tag k="surface" v="paved"/>
  </way>
  <way id="57738486" version="4" timestamp="2011-06-24T11:30:56Z" uid="113113" user="zubenelakrab" changeset="8531672">
    <nd ref="715860374"/>
    <nd ref="1336798647"/>
    <nd ref="292367763"/>
    <nd ref="1328303717"/>
    <nd ref="1328303711"/>
    <nd ref="292367766"/>
    <tag k="highway" v="tertiary"/>
    <tag k="maxspeed" v="50"/>
    <tag k="name" v="Bergstraße"/>
    <tag k="ref" v="K 17"/>
    <tag k="surface" v="paved"/>
  </way>
  <way id="57738487" version="1" timestamp="2010-05-01T20:49:53Z" uid="33382" user="de_muur" changeset="4579294">
    <nd ref="271978875"/>
    <nd ref="271978878"/>
    <nd ref="292367708"/>
    <nd ref="292367710"/>
    <nd ref="292367712"/>
    <nd ref="292367713"/>
    <tag k="highway" v="tertiary"/>
    <tag k="maxspeed" v="50"/>
    <tag k="ref" v="K 17"/>
    <tag k="surface" v="paved"/>
  </way>
  <way id="57738487" version="2" timestamp="2010-05-03T13:53:02Z" uid="33382" user="de_muur" changeset="4595078">
    <nd ref="271978875"/>
    <nd ref="271978878"/>
    <tag k="highway" v="tertiary"/>
    <tag k="maxspeed" v="50"/>
    <tag k="ref" v="K 17"/>
    <tag k="surface" v="paved"/>
  </way>
  <way id="57738748" version="1" timestamp="2010-05-01T20:58:09Z" uid="33382" user="de_muur" changeset="4579370">
    <nd ref="443815633"/>
    <nd ref="269384920"/>
    <nd ref="410409763"/>
    <nd ref="269384922"/>
    <nd ref="269384924"/>
    <nd ref="269384926"/>
    <nd ref="361144948"/>
    <nd ref="269384927"/>
    <nd ref="269384929"/>
    <nd ref="271919498"/>
    <tag k="fixme" v="was hier fehlt ist unklar - vermutlich der name"/>
    <tag k="highway" v="secondary"/>
    <tag k="ref" v="L 200"/>
  </way>
  <way id="57738748" version="2" timestamp="2010-10-25T19:52:27Z" uid="166598" user="Moonwalker" changeset="6176863">
    <nd ref="443815633"/>
    <nd ref="269384920"/>
    <nd ref="410409763"/>
    <nd ref="269384922"/>
    <nd ref="269384924"/>
    <nd ref="269384926"/>
    <nd ref="361144948"/>
    <nd ref="965258719"/>
    <tag k="highway" v="secondary"/>
    <tag k="maxspeed" v="100"/>
    <tag k="ref" v="L 200"/>
  </way>
  <way id="57738748" version="3" timestamp="2010-11-09T06:44:49Z" uid="33382" user="de_muur" changeset="6325575">
    <nd ref="443815633"/>
    <nd ref="269384920"/>
    <nd ref="410409763"/>
    <nd ref="269384922"/>
    <nd ref="269384924"/>
    <nd ref="269384926"/>
    <nd ref="361144948"/>
    <nd ref="965258719"/>
    <tag k="cycleway" v="track"/>
    <tag k="highway" v="secondary"/>
    <tag k="maxspeed" v="100"/>
    <tag k="ref" v="L 200"/>
  </way>
  <way id="57738748" version="4" timestamp="2012-03-13T19:18:18Z" uid="63107" user="brogo" changeset="10970567"/>
  <way id="57738749" version="1" timestamp="2010-05-01T20:58:09Z" uid="33382" user="de_muur" changeset="4579370">
    <nd ref="715863974"/>
    <nd ref="715863973"/>
    <nd ref="60687845"/>
    <nd ref="361142564"/>
    <nd ref="253231439"/>
    <nd ref="253231440"/>
    <nd ref="715582567"/>
    <tag k="highway" v="tertiary"/>
    <tag k="name" v="Roseburger Straße"/>
    <tag k="ref" v="K 75"/>
    <tag k="surface" v="paved"/>
  </way>
  <way id="57738749" version="2" timestamp="2010-05-03T14:21:36Z" uid="33382" user="de_muur" changeset="4595322">
    <nd ref="715863974"/>
    <nd ref="715863973"/>
    <nd ref="60687845"/>
    <nd ref="361142564"/>
    <tag k="highway" v="tertiary"/>
    <tag k="name" v="Roseburger Straße"/>
    <tag k="ref" v="K 75"/>
    <tag k="surface" v="paved"/>
  </way>
  <way id="57738749" version="3" timestamp="2010-11-09T06:44:50Z" uid="33382" user="de_muur" changeset="6325575">
    <nd ref="715863974"/>
    <nd ref="715863973"/>
    <nd ref="60687845"/>
    <nd ref="361142564"/>
    <tag k="cycleway" v="track"/>
    <tag k="highway" v="tertiary"/>
    <tag k="name" v="Roseburger Straße"/>
    <tag k="ref" v="K 75"/>
    <tag k="surface" v="paved"/>
  </way>
  <way id="57738749" version="4" timestamp="2012-03-30T10:57:24Z" uid="46145" user="Jacques_N" changeset="11151375"/>
  <way id="57738750" version="1" timestamp="2010-05-01T20:58:09Z" uid="33382" user="de_muur" changeset="4579370">
    <nd ref="60687837"/>
    <nd ref="60687838"/>
    <nd ref="715863971"/>
    <nd ref="60687839"/>
    <nd ref="60687840"/>
    <tag k="highway" v="unclassified"/>
    <tag k="name" v="Woterserner Weg"/>
    <tag k="surface" v="paved"/>
  </way>
  <way id="57738750" version="2" timestamp="2010-09-17T19:47:00Z" uid="33382" user="de_muur" changeset="5806677">
    <nd ref="60687837"/>
    <nd ref="60687838"/>
    <nd ref="715863971"/>
    <nd ref="60687839"/>
    <nd ref="60687840"/>
    <tag k="highway" v="unclassified"/>
    <tag k="name" v="Wotersener Weg"/>
    <tag k="surface" v="paved"/>
  </way>
  <way id="57738751" version="1" timestamp="2010-05-01T20:58:09Z" uid="33382" user="de_muur" changeset="4579370">
    <nd ref="715863975"/>
    <nd ref="60687844"/>
    <tag k="highway" v="secondary"/>
    <tag k="maxspeed" v="50"/>
    <tag k="name" v="Dorfstraße"/>
    <tag k="ref" v="L 200"/>
    <tag k="surface" v="paved"/>
  </way>
  <way id="57738751" version="2" timestamp="2010-11-09T06:44:51Z" uid="33382" user="de_muur" changeset="6325575">
    <nd ref="715863975"/>
    <nd ref="60687844"/>
    <tag k="cycleway" v="track"/>
    <tag k="highway" v="secondary"/>
    <tag k="maxspeed" v="50"/>
    <tag k="name" v="Dorfstraße"/>
    <tag k="ref" v="L 200"/>
    <tag k="surface" v="paved"/>
  </way>
  <way id="57738751" version="3" timestamp="2012-03-13T19:18:14Z" uid="63107" user="brogo" changeset="10970567"/>
</osm>
