<?xml version='1.0' encoding='UTF-8'?>
<osm version="0.6" generator="libosmium/2.20.0">
  <way id="57782027" version="12" timestamp="2010-07-25T23:04:43Z" uid="4467" user="Rosscoe" changeset="5317442">
    <nd ref="833514464"/>
    <nd ref="716922876"/>
    <nd ref="716922872"/>
    <nd ref="716922082"/>
    <tag k="highway" v="tertiary"/>
    <tag k="name" v="Clontarf Road"/>
    <tag k="oneway" v="yes"/>
  </way>
  <way id="57782107" version="5" timestamp="2010-07-25T23:04:39Z" uid="4467" user="Rosscoe" changeset="5317442">
    <nd ref="716881529"/>
    <nd ref="279127044"/>
    <nd ref="833514464"/>
    <nd ref="370498952"/>
    <nd ref="370498949"/>
    <nd ref="716927335"/>
    <nd ref="716920100"/>
    <tag k="highway" v="secondary"/>
    <tag k="maxspeed" v="60"/>
    <tag k="name" v="Carrington Street"/>
    <tag k="oneway" v="yes"/>
  </way>
  <way id="57782107" version="6" timestamp="2011-12-03T05:39:23Z" uid="36235" user="Sam Wilson" changeset="10021883">
    <nd ref="716931388"/>
    <nd ref="716881529"/>
    <nd ref="279127044"/>
    <nd ref="833514464"/>
    <tag k="highway" v="secondary"/>
    <tag k="maxspeed" v="60"/>
    <tag k="name" v="Carrington Street"/>
    <tag k="oneway" v="yes"/>
  </way>
  <way id="57782724" version="4" timestamp="2010-07-25T23:04:37Z" uid="4467" user="Rosscoe" changeset="5317442">
    <nd ref="833514429"/>
    <nd ref="833514487"/>
    <nd ref="365932768"/>
    <nd ref="729585933"/>
    <nd ref="369116723"/>
    <nd ref="365932840"/>
    <nd ref="369116744"/>
    <nd ref="365932886"/>
    <nd ref="279127045"/>
    <nd ref="281731695"/>
    <tag k="highway" v="secondary"/>
    <tag k="maxspeed" v="60"/>
    <tag k="name" v="Carrington Street"/>
    <tag k="oneway" v="yes"/>
  </way>
  <way id="57782724" version="5" timestamp="2011-12-03T05:39:23Z" uid="36235" user="Sam Wilson" changeset="10021883">
    <nd ref="833514429"/>
    <nd ref="833514487"/>
    <nd ref="365932768"/>
    <nd ref="729585933"/>
    <nd ref="369116723"/>
    <nd ref="365932840"/>
    <nd ref="369116744"/>
    <nd ref="365932886"/>
    <nd ref="279127045"/>
    <nd ref="281731695"/>
    <nd ref="716931388"/>
    <tag k="highway" v="secondary"/>
    <tag k="maxspeed" v="60"/>
    <tag k="name" v="Carrington Street"/>
    <tag k="oneway" v="yes"/>
  </way>
  <way id="57782994" version="3" timestamp="2010-07-25T23:04:53Z" uid="4467" user="Rosscoe" changeset="5317442">
    <nd ref="716930372"/>
    <nd ref="716931388"/>
    <nd ref="833514419"/>
    <tag k="highway" v="secondary"/>
    <tag k="name" v="Winterfold Road"/>
    <tag k="oneway" v="yes"/>
  </way>
  <way id="57782994" version="4" timestamp="2011-12-03T05:39:24Z" uid="36235" user="Sam Wilson" changeset="10021883">
    <nd ref="716930372"/>
    <nd ref="716931388"/>
    <tag k="highway" v="secondary"/>
    <tag k="name" v="Winterfold Road"/>
    <tag k="oneway" v="yes"/>
  </way>
</osm>
