<?xml version='1.0' encoding='UTF-8'?>
<osm version="0.6" generator="libosmium/2.20.0">
  <way id="5791228" version="6" timestamp="2010-04-02T04:29:12Z" uid="74617" user="JohnSmith" changeset="4299895">
    <nd ref="45502213"/>
    <nd ref="32410368"/>
    <tag k="highway" v="trunk"/>
    <tag k="maxspeed" v="60"/>
    <tag k="name" v="Bungendore Road"/>
    <tag k="oneway" v="yes"/>
  </way>
  <way id="5791228" version="7" timestamp="2010-08-23T23:53:23Z" uid="79475" user="AlexOnTheBus" changeset="5576361">
    <nd ref="45502213"/>
    <nd ref="876531041"/>
    <nd ref="32410368"/>
    <tag k="highway" v="trunk"/>
    <tag k="maxspeed" v="60"/>
    <tag k="name" v="Bungendore Road"/>
    <tag k="oneway" v="yes"/>
  </way>
  <way id="5791228" version="8" timestamp="2010-08-23T23:53:53Z" uid="79475" user="AlexOnTheBus" changeset="5576361">
    <nd ref="45502213"/>
    <nd ref="876531041"/>
    <nd ref="876531048"/>
    <nd ref="32410368"/>
    <tag k="highway" v="trunk"/>
    <tag k="maxspeed" v="60"/>
    <tag k="name" v="Bungendore Road"/>
    <tag k="oneway" v="yes"/>
  </way>
  <way id="5791228" version="9" timestamp="2010-09-01T11:05:41Z" uid="79475" user="AlexOnTheBus" changeset="5652906">
    <nd ref="45502213"/>
    <nd ref="876531041"/>
    <nd ref="876531048"/>
    <nd ref="32410368"/>
    <tag k="highway" v="primary"/>
    <tag k="maxspeed" v="60"/>
    <tag k="name" v="Bungendore Road"/>
    <tag k="oneway" v="yes"/>
  </way>
  <way id="5791229" version="4" timestamp="2010-04-02T04:29:15Z" uid="74617" user="JohnSmith" changeset="4299895">
    <nd ref="45502169"/>
    <nd ref="32410367"/>
    <nd ref="45502213"/>
    <tag k="bridge" v="yes"/>
    <tag k="highway" v="trunk"/>
    <tag k="layer" v="1"/>
    <tag k="maxspeed" v="50"/>
    <tag k="name" v="Monaro Street"/>
    <tag k="oneway" v="yes"/>
  </way>
  <way id="5791229" version="5" timestamp="2010-09-01T11:05:51Z" uid="79475" user="AlexOnTheBus" changeset="5652906">
    <nd ref="45502169"/>
    <nd ref="32410367"/>
    <nd ref="45502213"/>
    <tag k="bridge" v="yes"/>
    <tag k="highway" v="primary"/>
    <tag k="layer" v="1"/>
    <tag k="maxspeed" v="50"/>
    <tag k="name" v="Monaro Street"/>
    <tag k="oneway" v="yes"/>
  </way>
  <way id="5791230" version="4" timestamp="2010-04-02T04:29:15Z" uid="74617" user="JohnSmith" changeset="4299895">
    <nd ref="45502192"/>
    <nd ref="32410896"/>
    <nd ref="32410897"/>
    <tag k="bridge" v="yes"/>
    <tag k="highway" v="trunk"/>
    <tag k="layer" v="1"/>
    <tag k="maxspeed" v="50"/>
    <tag k="name" v="Monaro Street"/>
    <tag k="oneway" v="yes"/>
  </way>
  <way id="5791230" version="5" timestamp="2010-08-19T13:46:14Z" uid="4467" user="Rosscoe" changeset="5535517">
    <nd ref="45502192"/>
    <nd ref="32410896"/>
    <nd ref="32410897"/>
    <tag k="bridge" v="yes"/>
    <tag k="highway" v="trunk"/>
    <tag k="layer" v="1"/>
    <tag k="maxspeed" v="50"/>
    <tag k="name" v="Monaro Street"/>
    <tag k="oneway" v="yes"/>
  </way>
  <way id="5791230" version="6" timestamp="2010-09-01T11:05:55Z" uid="79475" user="AlexOnTheBus" changeset="5652906">
    <nd ref="45502192"/>
    <nd ref="32410896"/>
    <nd ref="32410897"/>
    <tag k="bridge" v="yes"/>
    <tag k="highway" v="primary"/>
    <tag k="layer" v="1"/>
    <tag k="maxspeed" v="50"/>
    <tag k="name" v="Monaro Street"/>
    <tag k="oneway" v="yes"/>
  </way>
</osm>
