<?xml version='1.0' encoding='UTF-8'?>
<osm version="0.6" generator="libosmium/2.20.0">
  <way id="58187109" version="2" timestamp="2010-05-05T13:55:25Z" uid="4467" user="Rosscoe" changeset="4613147">
    <nd ref="256536881"/>
    <nd ref="256536882"/>
    <nd ref="256536883"/>
    <nd ref="722426371"/>
    <tag k="highway" v="residential"/>
    <tag k="name" v="Brent Street"/>
  </way>
  <way id="58187109" version="3" timestamp="2010-07-09T05:32:45Z" uid="74617" user="JohnSmith" changeset="5170972">
    <nd ref="256536881"/>
    <nd ref="256536882"/>
    <nd ref="256536883"/>
    <nd ref="722426371"/>
    <tag k="highway" v="residential"/>
    <tag k="maxspeed" v="50"/>
    <tag k="maxspeed:source" v="default residential speed limit in Australia"/>
    <tag k="name" v="Brent Street"/>
  </way>
  <way id="58187109" version="4" timestamp="2010-07-09T05:40:13Z" uid="74617" user="JohnSmith" changeset="5170972">
    <nd ref="256536881"/>
    <nd ref="256536882"/>
    <nd ref="256536883"/>
    <nd ref="722426371"/>
    <tag k="highway" v="residential"/>
    <tag k="maxspeed" v="50"/>
    <tag k="maxspeed:source" v="default residential speed limit in Australia"/>
    <tag k="name" v="Brent Street"/>
  </way>
  <way id="58187109" version="5" timestamp="2012-01-20T07:02:56Z" uid="147510" user="woodpeck_fixbot" changeset="10443281">
    <nd ref="256536881"/>
    <nd ref="256536882"/>
    <nd ref="256536883"/>
    <nd ref="722426371"/>
    <tag k="highway" v="residential"/>
    <tag k="name" v="Brent Street"/>
  </way>
  <way id="58187121" version="2" timestamp="2010-06-29T20:48:19Z" uid="74617" user="JohnSmith" changeset="5109183">
    <nd ref="721676247"/>
    <nd ref="721676259"/>
    <nd ref="721676248"/>
    <nd ref="721676243"/>
    <nd ref="721676250"/>
    <nd ref="721676247"/>
    <tag k="fixme" v="sport=rugby is ambiguous, see http://wiki.osm.org/wiki/Tag:sport%3Drugby for more details"/>
    <tag k="leisure" v="stadium"/>
    <tag k="name" v="Stade Chevalier"/>
    <tag k="sport" v="rugby"/>
  </way>
  <way id="58187121" version="3" timestamp="2012-03-14T02:37:57Z" uid="99151" user="quicky" changeset="10974011"/>
</osm>
