<?xml version='1.0' encoding='UTF-8'?>
<osm version="0.6" generator="libosmium/2.20.0">
  <way id="5827962" version="2" timestamp="2010-07-09T03:01:58Z" uid="74617" user="JohnSmith" changeset="5170739">
    <nd ref="46634397"/>
    <nd ref="32880765"/>
    <nd ref="46641461"/>
    <nd ref="34178021"/>
    <tag k="highway" v="residential"/>
    <tag k="maxspeed" v="50"/>
    <tag k="maxspeed:source" v="default residential speed limit in Australia"/>
    <tag k="name" v="Bakers Parade"/>
  </way>
  <way id="5827962" version="3" timestamp="2011-04-16T06:44:52Z" uid="84937" user="Neil Penman" changeset="7875660">
    <nd ref="46634397"/>
    <nd ref="32880765"/>
    <nd ref="46641461"/>
    <nd ref="1246575856"/>
    <nd ref="34178021"/>
    <tag k="highway" v="residential"/>
    <tag k="maxspeed" v="50"/>
    <tag k="maxspeed:source" v="default residential speed limit in Australia"/>
    <tag k="name" v="Bakers Parade"/>
  </way>
  <way id="5827962" version="4" timestamp="2012-01-15T05:56:18Z" uid="147510" user="woodpeck_fixbot" changeset="10394821">
    <nd ref="46634397"/>
    <nd ref="32880765"/>
    <nd ref="46641461"/>
    <nd ref="1246575856"/>
    <nd ref="34178021"/>
    <tag k="highway" v="residential"/>
    <tag k="name" v="Bakers Parade"/>
  </way>
  <way id="5827965" version="2" timestamp="2010-07-09T02:58:14Z" uid="74617" user="JohnSmith" changeset="5170739">
    <nd ref="46634513"/>
    <nd ref="46634620"/>
    <nd ref="46634823"/>
    <nd ref="46636757"/>
    <nd ref="46639682"/>
    <nd ref="46641331"/>
    <nd ref="46641368"/>
    <tag k="highway" v="residential"/>
    <tag k="maxspeed" v="50"/>
    <tag k="maxspeed:source" v="default residential speed limit in Australia"/>
    <tag k="name" v="McGregor Avenue"/>
  </way>
  <way id="5827965" version="3" timestamp="2012-01-15T05:56:20Z" uid="147510" user="woodpeck_fixbot" changeset="10394821">
    <nd ref="46634513"/>
    <nd ref="46634620"/>
    <nd ref="46634823"/>
    <nd ref="46636757"/>
    <nd ref="46639682"/>
    <nd ref="46641331"/>
    <nd ref="46641368"/>
    <tag k="highway" v="residential"/>
    <tag k="name" v="McGregor Avenue"/>
  </way>
  <way id="5827968" version="2" timestamp="2010-07-09T02:57:52Z" uid="74617" user="JohnSmith" changeset="5170739">
    <nd ref="46639682"/>
    <nd ref="46641425"/>
    <nd ref="46641461"/>
    <tag k="highway" v="residential"/>
    <tag k="maxspeed" v="50"/>
    <tag k="maxspeed:source" v="default residential speed limit in Australia"/>
    <tag k="name" v="Bonar Avenue"/>
  </way>
  <way id="5827968" version="3" timestamp="2012-01-15T05:56:21Z" uid="147510" user="woodpeck_fixbot" changeset="10394821">
    <nd ref="46639682"/>
    <nd ref="46641425"/>
    <nd ref="46641461"/>
    <tag k="highway" v="residential"/>
    <tag k="name" v="Bonar Avenue"/>
  </way>
  <way id="5827970" version="4" timestamp="2010-07-09T03:02:07Z" uid="74617" user="JohnSmith" changeset="5170739">
    <nd ref="31434203"/>
    <nd ref="567771753"/>
    <nd ref="46641521"/>
    <nd ref="46641487"/>
    <nd ref="644148545"/>
    <nd ref="47195650"/>
    <nd ref="46634397"/>
    <nd ref="31434471"/>
    <tag k="highway" v="residential"/>
    <tag k="maxspeed" v="50"/>
    <tag k="maxspeed:source" v="default residential speed limit in Australia"/>
    <tag k="name" v="Everett Street"/>
  </way>
  <way id="5827970" version="5" timestamp="2012-01-15T05:56:22Z" uid="147510" user="woodpeck_fixbot" changeset="10394821">
    <nd ref="31434203"/>
    <nd ref="567771753"/>
    <nd ref="46641521"/>
    <nd ref="46641487"/>
    <nd ref="644148545"/>
    <nd ref="47195650"/>
    <nd ref="46634397"/>
    <nd ref="31434471"/>
    <tag k="highway" v="residential"/>
    <tag k="name" v="Everett Street"/>
  </way>
</osm>
