<?xml version='1.0' encoding='UTF-8'?>
<osm version="0.6" generator="libosmium/2.20.0">
  <way id="58404001" version="2" timestamp="2010-07-08T16:55:58Z" uid="74617" user="JohnSmith" changeset="5167338">
    <nd ref="724161492"/>
    <nd ref="724161490"/>
    <tag k="highway" v="residential"/>
    <tag k="maxspeed" v="50"/>
    <tag k="maxspeed:source" v="default residential speed limit in Australia"/>
    <tag k="name" v="Fore Street"/>
    <tag k="source" v="survey"/>
  </way>
  <way id="58404001" version="3" timestamp="2011-02-07T11:11:25Z" uid="4467" user="Rosscoe" changeset="7214726">
    <nd ref="724161492"/>
    <nd ref="724161490"/>
    <tag k="highway" v="residential"/>
    <tag k="maxspeed" v="50"/>
    <tag k="name" v="Fore Street"/>
    <tag k="source" v="survey"/>
    <tag k="source:maxspeed" v="default residential speed limit in Australia"/>
  </way>
  <way id="58404001" version="4" timestamp="2012-01-20T07:10:59Z" uid="147510" user="woodpeck_fixbot" changeset="10443281">
    <nd ref="724161492"/>
    <nd ref="724161490"/>
    <tag k="highway" v="residential"/>
    <tag k="name" v="Fore Street"/>
    <tag k="source" v="survey"/>
    <tag k="source:maxspeed" v="default residential speed limit in Australia"/>
  </way>
  <way id="58404026" version="2" timestamp="2010-07-08T16:55:46Z" uid="74617" user="JohnSmith" changeset="5167338">
    <nd ref="724161886"/>
    <nd ref="724161887"/>
    <nd ref="724161888"/>
    <nd ref="724161891"/>
    <nd ref="724161893"/>
    <nd ref="724161895"/>
    <tag k="highway" v="residential"/>
    <tag k="maxspeed" v="50"/>
    <tag k="maxspeed:source" v="default residential speed limit in Australia"/>
    <tag k="name" v="Lake Street"/>
    <tag k="source" v="survey"/>
  </way>
  <way id="58404026" version="3" timestamp="2011-02-07T06:18:02Z" uid="4467" user="Rosscoe" changeset="7212788">
    <nd ref="724161887"/>
    <nd ref="724161888"/>
    <nd ref="724161891"/>
    <nd ref="724161893"/>
    <nd ref="724161895"/>
    <tag k="highway" v="residential"/>
    <tag k="maxspeed" v="50"/>
    <tag k="maxspeed:source" v="default residential speed limit in Australia"/>
    <tag k="name" v="Lake Street"/>
    <tag k="source" v="survey"/>
  </way>
  <way id="58404026" version="4" timestamp="2011-02-07T11:11:39Z" uid="4467" user="Rosscoe" changeset="7214726">
    <nd ref="724161887"/>
    <nd ref="724161888"/>
    <nd ref="724161891"/>
    <nd ref="724161893"/>
    <nd ref="724161895"/>
    <tag k="highway" v="residential"/>
    <tag k="maxspeed" v="50"/>
    <tag k="name" v="Lake Street"/>
    <tag k="source" v="survey"/>
    <tag k="source:maxspeed" v="default residential speed limit in Australia"/>
  </way>
  <way id="58404026" version="5" timestamp="2012-01-20T07:11:00Z" uid="147510" user="woodpeck_fixbot" changeset="10443281">
    <nd ref="724161887"/>
    <nd ref="724161888"/>
    <nd ref="724161891"/>
    <nd ref="724161893"/>
    <nd ref="724161895"/>
    <tag k="highway" v="residential"/>
    <tag k="name" v="Lake Street"/>
    <tag k="source" v="survey"/>
    <tag k="source:maxspeed" v="default residential speed limit in Australia"/>
  </way>
  <way id="58404034" version="3" timestamp="2010-07-08T16:56:09Z" uid="74617" user="JohnSmith" changeset="5167338">
    <nd ref="724161895"/>
    <nd ref="724162368"/>
    <nd ref="724162026"/>
    <tag k="highway" v="residential"/>
    <tag k="maxspeed" v="50"/>
    <tag k="maxspeed:source" v="default residential speed limit in Australia"/>
    <tag k="name" v="Devon Street"/>
    <tag k="source" v="survey"/>
  </way>
  <way id="58404034" version="4" timestamp="2011-02-07T06:18:42Z" uid="4467" user="Rosscoe" changeset="7212788">
    <nd ref="707256620"/>
    <nd ref="724161895"/>
    <nd ref="724162368"/>
    <nd ref="724162026"/>
    <tag k="highway" v="residential"/>
    <tag k="maxspeed" v="50"/>
    <tag k="maxspeed:source" v="default residential speed limit in Australia"/>
    <tag k="name" v="Devon Street"/>
    <tag k="source" v="survey"/>
  </way>
  <way id="58404034" version="5" timestamp="2011-02-07T11:15:24Z" uid="4467" user="Rosscoe" changeset="7214726">
    <nd ref="707256620"/>
    <nd ref="724161895"/>
    <nd ref="724162368"/>
    <nd ref="724162026"/>
    <tag k="highway" v="residential"/>
    <tag k="maxspeed" v="50"/>
    <tag k="name" v="Devon Street"/>
    <tag k="source" v="survey"/>
    <tag k="source:maxspeed" v="default residential speed limit in Australia"/>
  </way>
  <way id="58404034" version="6" timestamp="2012-01-20T07:11:01Z" uid="147510" user="woodpeck_fixbot" changeset="10443281">
    <nd ref="707256620"/>
    <nd ref="724161895"/>
    <nd ref="724162368"/>
    <nd ref="724162026"/>
    <tag k="highway" v="residential"/>
    <tag k="name" v="Devon Street"/>
    <tag k="source" v="survey"/>
    <tag k="source:maxspeed" v="default residential speed limit in Australia"/>
  </way>
  <way id="58404043" version="2" timestamp="2010-07-08T16:54:21Z" uid="74617" user="JohnSmith" changeset="5167338">
    <nd ref="619782550"/>
    <nd ref="724162378"/>
    <nd ref="724162380"/>
    <nd ref="724162368"/>
    <tag k="highway" v="residential"/>
    <tag k="maxspeed" v="50"/>
    <tag k="maxspeed:source" v="default residential speed limit in Australia"/>
    <tag k="name" v="High Street"/>
    <tag k="source" v="survey"/>
  </way>
  <way id="58404043" version="3" timestamp="2011-02-07T11:14:35Z" uid="4467" user="Rosscoe" changeset="7214726">
    <nd ref="619782550"/>
    <nd ref="724162378"/>
    <nd ref="724162380"/>
    <nd ref="724162368"/>
    <tag k="highway" v="residential"/>
    <tag k="maxspeed" v="50"/>
    <tag k="name" v="High Street"/>
    <tag k="source" v="survey"/>
    <tag k="source:maxspeed" v="default residential speed limit in Australia"/>
  </way>
  <way id="58404043" version="4" timestamp="2012-01-20T07:11:03Z" uid="147510" user="woodpeck_fixbot" changeset="10443281">
    <nd ref="619782550"/>
    <nd ref="724162378"/>
    <nd ref="724162380"/>
    <nd ref="724162368"/>
    <tag k="highway" v="residential"/>
    <tag k="name" v="High Street"/>
    <tag k="source" v="survey"/>
    <tag k="source:maxspeed" v="default residential speed limit in Australia"/>
  </way>
  <way id="58404061" version="4" timestamp="2010-07-08T16:56:11Z" uid="74617" user="JohnSmith" changeset="5167338">
    <nd ref="724162794"/>
    <nd ref="724163041"/>
    <nd ref="724163462"/>
    <nd ref="724162790"/>
    <tag k="highway" v="residential"/>
    <tag k="maxspeed" v="50"/>
    <tag k="maxspeed:source" v="default residential speed limit in Australia"/>
    <tag k="name" v="Exeter street"/>
    <tag k="source" v="survey"/>
  </way>
  <way id="58404061" version="5" timestamp="2011-02-07T11:14:52Z" uid="4467" user="Rosscoe" changeset="7214726">
    <nd ref="724162794"/>
    <nd ref="724163041"/>
    <nd ref="724163462"/>
    <nd ref="724162790"/>
    <tag k="highway" v="residential"/>
    <tag k="maxspeed" v="50"/>
    <tag k="name" v="Exeter street"/>
    <tag k="source" v="survey"/>
    <tag k="source:maxspeed" v="default residential speed limit in Australia"/>
  </way>
  <way id="58404061" version="6" timestamp="2012-01-20T07:11:05Z" uid="147510" user="woodpeck_fixbot" changeset="10443281">
    <nd ref="724162794"/>
    <nd ref="724163041"/>
    <nd ref="724163462"/>
    <nd ref="724162790"/>
    <tag k="highway" v="residential"/>
    <tag k="name" v="Exeter street"/>
    <tag k="source" v="survey"/>
    <tag k="source:maxspeed" v="default residential speed limit in Australia"/>
  </way>
  <way id="58404067" version="2" timestamp="2010-07-08T16:56:18Z" uid="74617" user="JohnSmith" changeset="5167338">
    <nd ref="724163017"/>
    <nd ref="724163041"/>
    <tag k="highway" v="residential"/>
    <tag k="maxspeed" v="50"/>
    <tag k="maxspeed:source" v="default residential speed limit in Australia"/>
    <tag k="name" v="Cowan Street"/>
    <tag k="source" v="survey"/>
  </way>
  <way id="58404067" version="3" timestamp="2011-02-07T11:15:14Z" uid="4467" user="Rosscoe" changeset="7214726">
    <nd ref="724163017"/>
    <nd ref="724163041"/>
    <tag k="highway" v="residential"/>
    <tag k="maxspeed" v="50"/>
    <tag k="name" v="Cowan Street"/>
    <tag k="source" v="survey"/>
    <tag k="source:maxspeed" v="default residential speed limit in Australia"/>
  </way>
  <way id="58404067" version="4" timestamp="2012-01-20T07:11:06Z" uid="147510" user="woodpeck_fixbot" changeset="10443281">
    <nd ref="724163017"/>
    <nd ref="724163041"/>
    <tag k="highway" v="residential"/>
    <tag k="name" v="Cowan Street"/>
    <tag k="source" v="survey"/>
    <tag k="source:maxspeed" v="default residential speed limit in Australia"/>
  </way>
  <way id="58404074" version="1" timestamp="2010-05-06T12:11:25Z" uid="115477" user="wowik" changeset="4620899">
    <nd ref="724163115"/>
    <nd ref="724163116"/>
    <nd ref="724163117"/>
    <tag k="highway" v="service"/>
  </way>
  <way id="58404074" version="2" timestamp="2011-05-13T07:30:17Z" uid="241531" user="dik_man" changeset="8128793">
    <nd ref="724163115"/>
    <nd ref="1282486967"/>
    <nd ref="724163116"/>
    <nd ref="724163117"/>
    <tag k="highway" v="service"/>
  </way>
  <way id="58404074" version="3" timestamp="2011-05-18T12:39:15Z" uid="115477" user="wowik" changeset="8180249">
    <nd ref="724163115"/>
    <nd ref="1282486967"/>
    <nd ref="724163116"/>
    <nd ref="724163117"/>
    <tag k="highway" v="service"/>
    <tag k="surface" v="asphalt"/>
  </way>
  <way id="58404075" version="1" timestamp="2010-05-06T12:11:26Z" uid="115477" user="wowik" changeset="4620899">
    <nd ref="724163119"/>
    <nd ref="724163120"/>
    <nd ref="724163121"/>
    <tag k="highway" v="service"/>
    <tag k="living_street" v="yes"/>
  </way>
  <way id="58404075" version="2" timestamp="2011-05-18T12:30:48Z" uid="115477" user="wowik" changeset="8180249">
    <nd ref="1290260113"/>
    <nd ref="1290260098"/>
    <nd ref="1290260163"/>
    <nd ref="1290260159"/>
    <nd ref="1290260178"/>
    <nd ref="1290260121"/>
    <nd ref="1290260044"/>
    <nd ref="724163119"/>
    <nd ref="724163120"/>
    <nd ref="724163121"/>
    <tag k="highway" v="residential"/>
    <tag k="living_street" v="yes"/>
  </way>
  <way id="58404075" version="3" timestamp="2011-06-16T08:53:10Z" uid="470526" user="R G" changeset="8454122">
    <nd ref="1290260113"/>
    <nd ref="1290260098"/>
    <nd ref="1290260163"/>
    <nd ref="1290260159"/>
    <nd ref="1290260178"/>
    <nd ref="1290260121"/>
    <nd ref="1290260044"/>
    <nd ref="724163119"/>
    <nd ref="724163120"/>
    <nd ref="1327219794"/>
    <nd ref="724163121"/>
    <tag k="highway" v="residential"/>
    <tag k="living_street" v="yes"/>
  </way>
  <way id="58404075" version="4" timestamp="2011-06-16T09:31:59Z" uid="470526" user="R G" changeset="8454401">
    <nd ref="1290260113"/>
    <nd ref="1290260098"/>
    <nd ref="1290260163"/>
    <nd ref="1290260159"/>
    <nd ref="1290260178"/>
    <nd ref="1290260121"/>
    <nd ref="1290260044"/>
    <nd ref="724163119"/>
    <nd ref="724163120"/>
    <nd ref="1327219794"/>
    <nd ref="724163121"/>
    <tag k="covered" v=""/>
    <tag k="highway" v="residential"/>
    <tag k="living_street" v="yes"/>
  </way>
  <way id="58404075" version="5" timestamp="2011-06-16T17:40:33Z" uid="70696" user="xybot" changeset="8458190">
    <nd ref="1290260113"/>
    <nd ref="1290260098"/>
    <nd ref="1290260163"/>
    <nd ref="1290260159"/>
    <nd ref="1290260178"/>
    <nd ref="1290260121"/>
    <nd ref="1290260044"/>
    <nd ref="724163119"/>
    <nd ref="724163120"/>
    <nd ref="1327219794"/>
    <nd ref="724163121"/>
    <tag k="highway" v="residential"/>
    <tag k="living_street" v="yes"/>
  </way>
  <way id="58404075" version="6" timestamp="2011-06-23T13:56:35Z" uid="470526" user="R G" changeset="8522178">
    <nd ref="1290260113"/>
    <nd ref="1290260098"/>
    <nd ref="1290260163"/>
    <nd ref="1290260159"/>
    <tag k="highway" v="unclassified"/>
    <tag k="living_street" v="yes"/>
    <tag k="surface" v="earth"/>
  </way>
  <way id="58404076" version="1" timestamp="2010-05-06T12:11:27Z" uid="115477" user="wowik" changeset="4620899">
    <nd ref="724163122"/>
    <nd ref="724163123"/>
    <nd ref="724163124"/>
    <nd ref="724163125"/>
    <nd ref="724163127"/>
    <nd ref="724163128"/>
    <nd ref="724163129"/>
    <nd ref="724163130"/>
    <nd ref="724163131"/>
    <nd ref="724163132"/>
    <nd ref="724163113"/>
    <tag k="highway" v="track"/>
  </way>
  <way id="58404076" version="2" timestamp="2010-08-24T05:48:40Z" uid="65083" user="deep125" changeset="5577122">
    <nd ref="724163122"/>
    <nd ref="724163123"/>
    <nd ref="724163124"/>
    <nd ref="724163125"/>
    <nd ref="724163127"/>
    <nd ref="724163128"/>
    <nd ref="724163129"/>
    <nd ref="724163130"/>
    <nd ref="724163131"/>
    <nd ref="724163132"/>
    <nd ref="724160459"/>
    <tag k="highway" v="track"/>
  </way>
  <way id="58404078" version="1" timestamp="2010-05-06T12:11:29Z" uid="115477" user="wowik" changeset="4620899">
    <nd ref="724163134"/>
    <nd ref="724163135"/>
    <nd ref="724163136"/>
    <nd ref="724163139"/>
    <nd ref="724163140"/>
    <nd ref="724163125"/>
    <tag k="highway" v="track"/>
  </way>
  <way id="58404174" version="2" timestamp="2011-02-06T18:06:52Z" uid="4467" user="Rosscoe" changeset="7207150">
    <nd ref="724163978"/>
    <nd ref="724163980"/>
    <nd ref="1139483765"/>
    <nd ref="724163982"/>
    <nd ref="724163984"/>
    <nd ref="724163986"/>
    <nd ref="724163988"/>
    <nd ref="724163990"/>
    <nd ref="724163992"/>
    <nd ref="724163994"/>
    <nd ref="1139484347"/>
    <nd ref="724163978"/>
    <tag k="amenity" v="hospital"/>
    <tag k="name" v="Nazareth House Aged Care"/>
    <tag k="source" v="survey"/>
  </way>
  <way id="58404187" version="2" timestamp="2010-07-08T16:56:26Z" uid="74617" user="JohnSmith" changeset="5167338">
    <nd ref="724164153"/>
    <nd ref="724164152"/>
    <tag k="highway" v="residential"/>
    <tag k="maxspeed" v="50"/>
    <tag k="maxspeed:source" v="default residential speed limit in Australia"/>
    <tag k="name" v="Gnarr Street"/>
    <tag k="source" v="survey"/>
  </way>
  <way id="58404187" version="3" timestamp="2011-02-07T06:18:34Z" uid="4467" user="Rosscoe" changeset="7212788">
    <nd ref="724164153"/>
    <nd ref="724164152"/>
    <nd ref="1140362271"/>
    <tag k="highway" v="residential"/>
    <tag k="maxspeed" v="50"/>
    <tag k="maxspeed:source" v="default residential speed limit in Australia"/>
    <tag k="name" v="Gnarr Street"/>
    <tag k="source" v="survey"/>
  </way>
  <way id="58404187" version="4" timestamp="2011-02-07T11:14:40Z" uid="4467" user="Rosscoe" changeset="7214726">
    <nd ref="724164153"/>
    <nd ref="724164152"/>
    <nd ref="1140362271"/>
    <tag k="highway" v="residential"/>
    <tag k="maxspeed" v="50"/>
    <tag k="name" v="Gnarr Street"/>
    <tag k="source" v="survey"/>
    <tag k="source:maxspeed" v="default residential speed limit in Australia"/>
  </way>
  <way id="58404187" version="5" timestamp="2012-01-20T07:11:08Z" uid="147510" user="woodpeck_fixbot" changeset="10443281">
    <nd ref="724164153"/>
    <nd ref="724164152"/>
    <nd ref="1140362271"/>
    <tag k="highway" v="residential"/>
    <tag k="name" v="Gnarr Street"/>
    <tag k="source" v="survey"/>
    <tag k="source:maxspeed" v="default residential speed limit in Australia"/>
  </way>
  <way id="58404189" version="1" timestamp="2010-05-06T12:15:37Z" uid="4467" user="Rosscoe" changeset="4621095">
    <nd ref="64446173"/>
    <nd ref="724164249"/>
    <nd ref="64446174"/>
    <nd ref="64446175"/>
    <nd ref="64446176"/>
    <nd ref="64446178"/>
    <nd ref="64446179"/>
    <nd ref="724164261"/>
    <nd ref="64446180"/>
    <nd ref="724164234"/>
    <nd ref="437154322"/>
    <nd ref="64446188"/>
    <nd ref="64446189"/>
    <nd ref="64446190"/>
    <nd ref="64446191"/>
    <nd ref="64446193"/>
    <nd ref="281204555"/>
    <nd ref="723778929"/>
    <nd ref="281203290"/>
    <tag k="highway" v="secondary"/>
    <tag k="name" v="Collier Road"/>
  </way>
  <way id="58404189" version="2" timestamp="2010-05-06T12:20:17Z" uid="4467" user="Rosscoe" changeset="4621125">
    <nd ref="64446173"/>
    <nd ref="724164249"/>
    <nd ref="64446174"/>
    <nd ref="64446175"/>
    <nd ref="64446176"/>
    <nd ref="64446178"/>
    <nd ref="64446179"/>
    <nd ref="724164261"/>
    <nd ref="64446180"/>
    <nd ref="724164234"/>
    <nd ref="724165126"/>
    <tag k="highway" v="secondary"/>
    <tag k="name" v="Collier Road"/>
    <tag k="source" v="nearmap"/>
  </way>
  <way id="58404189" version="3" timestamp="2012-01-07T15:28:19Z" uid="142807" user="SDavies" changeset="10322142">
    <nd ref="64446173"/>
    <nd ref="724164249"/>
    <nd ref="64446174"/>
    <nd ref="64446175"/>
    <nd ref="64446176"/>
    <nd ref="64446178"/>
    <nd ref="64446179"/>
    <nd ref="724164261"/>
    <nd ref="64446180"/>
    <nd ref="724164234"/>
    <nd ref="724165126"/>
    <tag k="highway" v="primary"/>
    <tag k="name" v="Collier Road"/>
    <tag k="source" v="nearmap"/>
  </way>
  <way id="58404190" version="1" timestamp="2010-05-06T12:15:45Z" uid="4467" user="Rosscoe" changeset="4621095">
    <nd ref="64446173"/>
    <nd ref="724164258"/>
    <nd ref="724164254"/>
    <nd ref="724164244"/>
    <nd ref="724164230"/>
    <nd ref="724164224"/>
    <nd ref="724164257"/>
    <nd ref="724164253"/>
    <nd ref="724164227"/>
    <nd ref="64446164"/>
    <nd ref="32522335"/>
    <nd ref="724164235"/>
    <nd ref="724164260"/>
    <tag k="highway" v="secondary"/>
    <tag k="name" v="Collier Road"/>
    <tag k="oneway" v="yes"/>
    <tag k="source" v="nearmap"/>
  </way>
  <way id="58404190" version="2" timestamp="2010-07-26T04:10:27Z" uid="4467" user="Rosscoe" changeset="5318132">
    <nd ref="64446173"/>
    <nd ref="724164258"/>
    <nd ref="724164254"/>
    <nd ref="724164244"/>
    <nd ref="724164230"/>
    <nd ref="724164224"/>
    <nd ref="724164257"/>
    <nd ref="724164253"/>
    <nd ref="724164227"/>
    <nd ref="64446164"/>
    <nd ref="32522335"/>
    <nd ref="724164260"/>
    <tag k="highway" v="secondary"/>
    <tag k="name" v="Collier Road"/>
    <tag k="oneway" v="yes"/>
    <tag k="source" v="nearmap"/>
  </way>
  <way id="58404190" version="3" timestamp="2011-01-11T08:50:48Z" uid="95751" user="Juffy" changeset="6934406">
    <nd ref="64446173"/>
    <nd ref="724164258"/>
    <nd ref="724164254"/>
    <nd ref="724164244"/>
    <nd ref="724164230"/>
    <nd ref="724164224"/>
    <nd ref="724164257"/>
    <nd ref="724164253"/>
    <nd ref="724164227"/>
    <nd ref="64446164"/>
    <nd ref="1097749918"/>
    <nd ref="32522335"/>
    <nd ref="724164260"/>
    <tag k="highway" v="secondary"/>
    <tag k="name" v="Collier Road"/>
    <tag k="oneway" v="yes"/>
    <tag k="source" v="nearmap"/>
  </way>
  <way id="58404190" version="4" timestamp="2011-09-17T05:34:35Z" uid="32729" user="NickNewton" changeset="9321055">
    <nd ref="64446173"/>
    <nd ref="724164258"/>
    <nd ref="724164254"/>
    <nd ref="724164244"/>
    <nd ref="724164230"/>
    <nd ref="724164224"/>
    <nd ref="1435122104"/>
    <nd ref="724164257"/>
    <nd ref="724164253"/>
    <nd ref="724164227"/>
    <nd ref="64446164"/>
    <nd ref="1097749918"/>
    <nd ref="32522335"/>
    <nd ref="724164260"/>
    <tag k="highway" v="secondary"/>
    <tag k="name" v="Collier Road"/>
    <tag k="oneway" v="yes"/>
    <tag k="source" v="nearmap"/>
  </way>
  <way id="58404190" version="5" timestamp="2011-09-17T05:36:10Z" uid="32729" user="NickNewton" changeset="9321055">
    <nd ref="64446173"/>
    <nd ref="724164258"/>
    <nd ref="724164254"/>
    <nd ref="724164244"/>
    <nd ref="724164230"/>
    <nd ref="724164224"/>
    <nd ref="724164257"/>
    <nd ref="724164253"/>
    <nd ref="724164227"/>
    <nd ref="64446164"/>
    <nd ref="1097749918"/>
    <nd ref="32522335"/>
    <nd ref="724164260"/>
    <tag k="highway" v="secondary"/>
    <tag k="name" v="Collier Road"/>
    <tag k="oneway" v="yes"/>
    <tag k="source" v="nearmap"/>
  </way>
  <way id="58404190" version="6" timestamp="2011-09-17T06:01:24Z" uid="32729" user="NickNewton" changeset="9321232">
    <nd ref="64446173"/>
    <nd ref="724164258"/>
    <nd ref="724164254"/>
    <nd ref="724164244"/>
    <nd ref="724164230"/>
    <nd ref="724164224"/>
    <nd ref="1435132262"/>
    <nd ref="724164257"/>
    <nd ref="724164253"/>
    <nd ref="724164227"/>
    <nd ref="64446164"/>
    <nd ref="1097749918"/>
    <nd ref="32522335"/>
    <nd ref="724164260"/>
    <tag k="highway" v="secondary"/>
    <tag k="name" v="Collier Road"/>
    <tag k="oneway" v="yes"/>
    <tag k="source" v="nearmap"/>
  </way>
  <way id="58404190" version="7" timestamp="2011-11-29T21:42:19Z" uid="142807" user="SDavies" changeset="9992960">
    <nd ref="64446173"/>
    <nd ref="724164258"/>
    <nd ref="724164254"/>
    <nd ref="724164244"/>
    <tag k="highway" v="secondary"/>
    <tag k="name" v="Collier Road"/>
    <tag k="oneway" v="yes"/>
    <tag k="source" v="nearmap"/>
  </way>
  <way id="58404190" version="8" timestamp="2012-01-07T15:28:19Z" uid="142807" user="SDavies" changeset="10322142">
    <nd ref="64446173"/>
    <nd ref="724164258"/>
    <nd ref="724164254"/>
    <nd ref="724164244"/>
    <tag k="highway" v="primary"/>
    <tag k="name" v="Collier Road"/>
    <tag k="oneway" v="yes"/>
    <tag k="source" v="nearmap"/>
  </way>
  <way id="58404206" version="2" timestamp="2010-07-08T16:55:16Z" uid="74617" user="JohnSmith" changeset="5167338">
    <nd ref="724164337"/>
    <nd ref="724164339"/>
    <tag k="highway" v="residential"/>
    <tag k="maxspeed" v="50"/>
    <tag k="maxspeed:source" v="default residential speed limit in Australia"/>
    <tag k="name" v="Barrett Avenue"/>
    <tag k="source" v="survey"/>
  </way>
  <way id="58404206" version="3" timestamp="2011-02-07T11:12:45Z" uid="4467" user="Rosscoe" changeset="7214726">
    <nd ref="724164337"/>
    <nd ref="724164339"/>
    <tag k="highway" v="residential"/>
    <tag k="maxspeed" v="50"/>
    <tag k="name" v="Barrett Avenue"/>
    <tag k="source" v="survey"/>
    <tag k="source:maxspeed" v="default residential speed limit in Australia"/>
  </way>
  <way id="58404206" version="4" timestamp="2011-08-27T13:50:17Z" uid="379724" user="bugman" changeset="9137691">
    <nd ref="724164337"/>
    <nd ref="1414726537"/>
    <tag k="highway" v="residential"/>
    <tag k="maxspeed" v="50"/>
    <tag k="name" v="Barrett Avenue"/>
    <tag k="source" v="survey"/>
    <tag k="source:maxspeed" v="default residential speed limit in Australia"/>
  </way>
  <way id="58404206" version="5" timestamp="2012-01-20T07:11:09Z" uid="147510" user="woodpeck_fixbot" changeset="10443281">
    <nd ref="724164337"/>
    <nd ref="1414726537"/>
    <tag k="highway" v="residential"/>
    <tag k="name" v="Barrett Avenue"/>
    <tag k="source" v="survey"/>
    <tag k="source:maxspeed" v="default residential speed limit in Australia"/>
  </way>
  <way id="58404206" version="6" timestamp="2012-02-08T21:11:18Z" uid="379724" user="bugman" changeset="10628864">
    <nd ref="724164337"/>
    <nd ref="1624446364"/>
    <tag k="highway" v="residential"/>
    <tag k="name" v="Barrett Avenue"/>
    <tag k="source" v="survey"/>
    <tag k="source:maxspeed" v="default residential speed limit in Australia"/>
  </way>
  <way id="58404206" version="7" timestamp="2012-02-08T21:15:47Z" uid="379724" user="bugman" changeset="10628913">
    <nd ref="724164337"/>
    <nd ref="1624446364"/>
    <tag k="highway" v="service"/>
    <tag k="name" v="Barrett Avenue"/>
    <tag k="source" v="survey"/>
    <tag k="source:maxspeed" v="default residential speed limit in Australia"/>
  </way>
  <way id="58404228" version="1" timestamp="2010-05-06T12:18:57Z" uid="115477" user="wowik" changeset="4621115">
    <nd ref="724154587"/>
    <nd ref="378244798"/>
    <nd ref="371176606"/>
    <tag k="highway" v="service"/>
  </way>
  <way id="58404228" version="2" timestamp="2010-05-06T12:19:33Z" uid="115477" user="wowik" changeset="4621115">
    <nd ref="724154587"/>
    <nd ref="378244798"/>
    <nd ref="371176606"/>
    <tag k="highway" v="service"/>
    <tag k="living_street" v="yes"/>
  </way>
  <way id="58404228" version="3" timestamp="2010-10-27T07:58:39Z" uid="127100" user="kaa" changeset="6192426">
    <nd ref="724154587"/>
    <nd ref="378244798"/>
    <nd ref="371176606"/>
    <tag k="highway" v="track"/>
    <tag k="living_street" v="yes"/>
  </way>
  <way id="58404228" version="4" timestamp="2010-10-27T08:49:53Z" uid="127100" user="kaa" changeset="6192955">
    <nd ref="724154587"/>
    <nd ref="966604257"/>
    <nd ref="378244798"/>
    <nd ref="371176606"/>
    <tag k="highway" v="track"/>
    <tag k="living_street" v="yes"/>
  </way>
  <way id="58404280" version="1" timestamp="2010-05-06T12:20:15Z" uid="4467" user="Rosscoe" changeset="4621125">
    <nd ref="724038514"/>
    <nd ref="281203333"/>
    <nd ref="443628808"/>
    <nd ref="443628809"/>
    <nd ref="723778938"/>
    <nd ref="723977030"/>
    <nd ref="64446203"/>
    <nd ref="723778932"/>
    <nd ref="437181662"/>
    <nd ref="359569906"/>
    <tag k="highway" v="secondary"/>
    <tag k="name" v="Collier Road"/>
    <tag k="source" v="nearmap"/>
  </way>
  <way id="58404280" version="2" timestamp="2011-11-29T21:42:19Z" uid="142807" user="SDavies" changeset="9992960">
    <nd ref="724038514"/>
    <nd ref="281203333"/>
    <nd ref="443628808"/>
    <nd ref="443628809"/>
    <nd ref="723778938"/>
    <nd ref="723977030"/>
    <nd ref="64446203"/>
    <nd ref="723778932"/>
    <nd ref="437181662"/>
    <tag k="highway" v="secondary"/>
    <tag k="name" v="Collier Road"/>
    <tag k="source" v="nearmap"/>
  </way>
  <way id="58404280" version="3" timestamp="2012-01-05T13:51:14Z" uid="142807" user="SDavies" changeset="10300844">
    <nd ref="724038514"/>
    <nd ref="281203333"/>
    <nd ref="443628808"/>
    <nd ref="443628809"/>
    <nd ref="723778938"/>
    <nd ref="723977030"/>
    <nd ref="64446203"/>
    <nd ref="723778932"/>
    <nd ref="437181662"/>
    <tag k="highway" v="primary"/>
    <tag k="name" v="Collier Road"/>
    <tag k="source" v="nearmap"/>
  </way>
  <way id="58404281" version="1" timestamp="2010-05-06T12:20:16Z" uid="4467" user="Rosscoe" changeset="4621125">
    <nd ref="724038514"/>
    <nd ref="724165123"/>
    <nd ref="281204543"/>
    <nd ref="724165120"/>
    <nd ref="724165114"/>
    <nd ref="723778929"/>
    <nd ref="724165104"/>
    <nd ref="724165107"/>
    <nd ref="724165124"/>
    <nd ref="724165112"/>
    <nd ref="724165127"/>
    <nd ref="724165109"/>
    <nd ref="724165125"/>
    <nd ref="724165105"/>
    <nd ref="724165121"/>
    <nd ref="724165115"/>
    <nd ref="724165102"/>
    <nd ref="724165111"/>
    <nd ref="724165118"/>
    <nd ref="724165126"/>
    <tag k="highway" v="secondary"/>
    <tag k="name" v="Collier Road"/>
    <tag k="oneway" v="yes"/>
    <tag k="source" v="nearmap"/>
  </way>
  <way id="58404281" version="2" timestamp="2012-01-07T15:28:20Z" uid="142807" user="SDavies" changeset="10322142">
    <nd ref="724038514"/>
    <nd ref="724165123"/>
    <nd ref="281204543"/>
    <nd ref="724165120"/>
    <nd ref="724165114"/>
    <nd ref="723778929"/>
    <nd ref="724165104"/>
    <nd ref="724165107"/>
    <nd ref="724165124"/>
    <nd ref="724165112"/>
    <nd ref="724165127"/>
    <nd ref="724165109"/>
    <nd ref="724165125"/>
    <nd ref="724165105"/>
    <nd ref="724165121"/>
    <nd ref="724165115"/>
    <nd ref="724165102"/>
    <nd ref="724165111"/>
    <nd ref="724165118"/>
    <nd ref="724165126"/>
    <tag k="highway" v="primary"/>
    <tag k="name" v="Collier Road"/>
    <tag k="oneway" v="yes"/>
    <tag k="source" v="nearmap"/>
  </way>
  <way id="58404282" version="1" timestamp="2010-05-06T12:20:16Z" uid="4467" user="Rosscoe" changeset="4621125">
    <nd ref="724165126"/>
    <nd ref="437154322"/>
    <nd ref="724165113"/>
    <nd ref="64446188"/>
    <nd ref="724165122"/>
    <nd ref="64446189"/>
    <nd ref="724165110"/>
    <nd ref="64446190"/>
    <nd ref="724165119"/>
    <nd ref="64446191"/>
    <nd ref="64446193"/>
    <nd ref="724165116"/>
    <nd ref="724165106"/>
    <nd ref="281204555"/>
    <nd ref="281203290"/>
    <tag k="highway" v="secondary"/>
    <tag k="name" v="Collier Road"/>
    <tag k="oneway" v="yes"/>
    <tag k="source" v="nearmap"/>
  </way>
  <way id="58404282" version="2" timestamp="2012-01-07T15:28:20Z" uid="142807" user="SDavies" changeset="10322142">
    <nd ref="724165126"/>
    <nd ref="437154322"/>
    <nd ref="724165113"/>
    <nd ref="64446188"/>
    <nd ref="724165122"/>
    <nd ref="64446189"/>
    <nd ref="724165110"/>
    <nd ref="64446190"/>
    <nd ref="724165119"/>
    <nd ref="64446191"/>
    <nd ref="64446193"/>
    <nd ref="724165116"/>
    <nd ref="724165106"/>
    <nd ref="281204555"/>
    <nd ref="281203290"/>
    <tag k="highway" v="primary"/>
    <tag k="name" v="Collier Road"/>
    <tag k="oneway" v="yes"/>
    <tag k="source" v="nearmap"/>
  </way>
  <way id="58404423" version="2" timestamp="2010-07-08T16:54:19Z" uid="74617" user="JohnSmith" changeset="5167338">
    <nd ref="724166671"/>
    <nd ref="724166704"/>
    <tag k="highway" v="residential"/>
    <tag k="maxspeed" v="50"/>
    <tag k="maxspeed:source" v="default residential speed limit in Australia"/>
    <tag k="name" v="Stafford Court"/>
    <tag k="source" v="survey"/>
  </way>
  <way id="58404423" version="3" timestamp="2011-02-07T11:13:07Z" uid="4467" user="Rosscoe" changeset="7214726">
    <nd ref="724166671"/>
    <nd ref="724166704"/>
    <tag k="highway" v="residential"/>
    <tag k="maxspeed" v="50"/>
    <tag k="name" v="Stafford Court"/>
    <tag k="source" v="survey"/>
    <tag k="source:maxspeed" v="default residential speed limit in Australia"/>
  </way>
  <way id="58404423" version="4" timestamp="2012-01-20T07:11:12Z" uid="147510" user="woodpeck_fixbot" changeset="10443281">
    <nd ref="724166671"/>
    <nd ref="724166704"/>
    <tag k="highway" v="residential"/>
    <tag k="name" v="Stafford Court"/>
    <tag k="source" v="survey"/>
    <tag k="source:maxspeed" v="default residential speed limit in Australia"/>
  </way>
  <way id="58404424" version="2" timestamp="2010-07-09T03:25:04Z" uid="74617" user="JohnSmith" changeset="5170739">
    <nd ref="724166752"/>
    <nd ref="724166755"/>
    <tag k="highway" v="residential"/>
    <tag k="maxspeed" v="50"/>
    <tag k="maxspeed:source" v="default residential speed limit in Australia"/>
    <tag k="source" v="nearmap"/>
  </way>
  <way id="58404424" version="3" timestamp="2011-10-22T15:02:58Z" uid="165869" user="chdr" changeset="9624845">
    <nd ref="724166752"/>
    <nd ref="724166755"/>
    <tag k="highway" v="residential"/>
    <tag k="maxspeed" v="50"/>
    <tag k="maxspeed:source" v="default residential speed limit in Australia"/>
    <tag k="name" v="Wick Close"/>
    <tag k="source" v="nearmap"/>
  </way>
  <way id="58404424" version="4" timestamp="2012-01-20T07:11:13Z" uid="147510" user="woodpeck_fixbot" changeset="10443281">
    <nd ref="724166752"/>
    <nd ref="724166755"/>
    <tag k="highway" v="residential"/>
    <tag k="name" v="Wick Close"/>
    <tag k="source" v="nearmap"/>
  </way>
  <way id="58404426" version="2" timestamp="2010-07-09T03:32:13Z" uid="74617" user="JohnSmith" changeset="5170739">
    <nd ref="724166761"/>
    <nd ref="724166762"/>
    <tag k="highway" v="residential"/>
    <tag k="maxspeed" v="50"/>
    <tag k="maxspeed:source" v="default residential speed limit in Australia"/>
    <tag k="source" v="nearmap"/>
  </way>
  <way id="58404426" version="3" timestamp="2011-10-22T15:02:57Z" uid="165869" user="chdr" changeset="9624845">
    <nd ref="724166761"/>
    <nd ref="724166762"/>
    <tag k="highway" v="residential"/>
    <tag k="maxspeed" v="50"/>
    <tag k="maxspeed:source" v="default residential speed limit in Australia"/>
    <tag k="name" v="Yatton Place"/>
    <tag k="source" v="nearmap"/>
  </way>
  <way id="58404426" version="4" timestamp="2012-01-20T07:11:14Z" uid="147510" user="woodpeck_fixbot" changeset="10443281">
    <nd ref="724166761"/>
    <nd ref="724166762"/>
    <tag k="highway" v="residential"/>
    <tag k="name" v="Yatton Place"/>
    <tag k="source" v="nearmap"/>
  </way>
  <way id="58404430" version="2" timestamp="2010-07-09T03:29:33Z" uid="74617" user="JohnSmith" changeset="5170739">
    <nd ref="724166764"/>
    <nd ref="724166767"/>
    <tag k="highway" v="residential"/>
    <tag k="maxspeed" v="50"/>
    <tag k="maxspeed:source" v="default residential speed limit in Australia"/>
    <tag k="source" v="nearmap"/>
  </way>
  <way id="58404430" version="3" timestamp="2011-10-22T15:02:58Z" uid="165869" user="chdr" changeset="9624845">
    <nd ref="724166764"/>
    <nd ref="724166767"/>
    <tag k="highway" v="residential"/>
    <tag k="maxspeed" v="50"/>
    <tag k="maxspeed:source" v="default residential speed limit in Australia"/>
    <tag k="name" v="Radstock Place"/>
    <tag k="source" v="nearmap"/>
  </way>
  <way id="58404430" version="4" timestamp="2012-01-20T07:11:15Z" uid="147510" user="woodpeck_fixbot" changeset="10443281">
    <nd ref="724166764"/>
    <nd ref="724166767"/>
    <tag k="highway" v="residential"/>
    <tag k="name" v="Radstock Place"/>
    <tag k="source" v="nearmap"/>
  </way>
  <way id="58404433" version="2" timestamp="2010-07-09T03:27:16Z" uid="74617" user="JohnSmith" changeset="5170739">
    <nd ref="724166768"/>
    <nd ref="724166769"/>
    <nd ref="724166770"/>
    <tag k="highway" v="residential"/>
    <tag k="maxspeed" v="50"/>
    <tag k="maxspeed:source" v="default residential speed limit in Australia"/>
    <tag k="source" v="nearmap"/>
  </way>
  <way id="58404433" version="3" timestamp="2011-10-22T15:02:58Z" uid="165869" user="chdr" changeset="9624845">
    <nd ref="724166768"/>
    <nd ref="724166769"/>
    <nd ref="724166770"/>
    <tag k="highway" v="residential"/>
    <tag k="maxspeed" v="50"/>
    <tag k="maxspeed:source" v="default residential speed limit in Australia"/>
    <tag k="name" v="Salcombe Court"/>
    <tag k="source" v="nearmap"/>
  </way>
  <way id="58404433" version="4" timestamp="2012-01-20T07:11:16Z" uid="147510" user="woodpeck_fixbot" changeset="10443281">
    <nd ref="724166768"/>
    <nd ref="724166769"/>
    <nd ref="724166770"/>
    <tag k="highway" v="residential"/>
    <tag k="name" v="Salcombe Court"/>
    <tag k="source" v="nearmap"/>
  </way>
  <way id="58404437" version="2" timestamp="2010-07-09T03:33:03Z" uid="74617" user="JohnSmith" changeset="5170739">
    <nd ref="724166771"/>
    <nd ref="724166773"/>
    <tag k="highway" v="residential"/>
    <tag k="maxspeed" v="50"/>
    <tag k="maxspeed:source" v="default residential speed limit in Australia"/>
    <tag k="source" v="nearmap"/>
  </way>
  <way id="58404437" version="3" timestamp="2011-10-22T15:02:58Z" uid="165869" user="chdr" changeset="9624845">
    <nd ref="724166771"/>
    <nd ref="724166773"/>
    <tag k="highway" v="residential"/>
    <tag k="maxspeed" v="50"/>
    <tag k="maxspeed:source" v="default residential speed limit in Australia"/>
    <tag k="name" v="Dent Close"/>
    <tag k="source" v="nearmap"/>
  </way>
  <way id="58404437" version="4" timestamp="2012-01-20T07:11:17Z" uid="147510" user="woodpeck_fixbot" changeset="10443281">
    <nd ref="724166771"/>
    <nd ref="724166773"/>
    <tag k="highway" v="residential"/>
    <tag k="name" v="Dent Close"/>
    <tag k="source" v="nearmap"/>
  </way>
  <way id="58404456" version="2" timestamp="2010-07-09T03:28:50Z" uid="74617" user="JohnSmith" changeset="5170739">
    <nd ref="724166803"/>
    <nd ref="724166804"/>
    <nd ref="724166805"/>
    <nd ref="724166807"/>
    <nd ref="724166808"/>
    <nd ref="724166809"/>
    <nd ref="724166810"/>
    <nd ref="724166771"/>
    <nd ref="724166811"/>
    <nd ref="724166813"/>
    <nd ref="724166814"/>
    <nd ref="724166815"/>
    <nd ref="724166816"/>
    <nd ref="724166768"/>
    <nd ref="724166819"/>
    <nd ref="724166820"/>
    <nd ref="724166821"/>
    <nd ref="724166822"/>
    <nd ref="724166825"/>
    <nd ref="724166826"/>
    <nd ref="724166827"/>
    <nd ref="724166828"/>
    <nd ref="724166830"/>
    <nd ref="724166831"/>
    <nd ref="303208006"/>
    <tag k="highway" v="residential"/>
    <tag k="maxspeed" v="50"/>
    <tag k="maxspeed:source" v="default residential speed limit in Australia"/>
    <tag k="source" v="nearmap"/>
  </way>
  <way id="58404456" version="3" timestamp="2010-10-17T00:02:28Z" uid="201443" user="stevage" changeset="6062943">
    <nd ref="724166803"/>
    <nd ref="724166804"/>
    <nd ref="724166805"/>
    <nd ref="724166807"/>
    <nd ref="724166808"/>
    <nd ref="724166809"/>
    <nd ref="724166810"/>
    <nd ref="724166771"/>
    <nd ref="724166811"/>
    <nd ref="724166813"/>
    <nd ref="724166814"/>
    <nd ref="724166815"/>
    <nd ref="724166816"/>
    <nd ref="724166768"/>
    <nd ref="724166819"/>
    <nd ref="724166820"/>
    <nd ref="953046972"/>
    <nd ref="724166821"/>
    <nd ref="724166822"/>
    <nd ref="724166825"/>
    <nd ref="724166826"/>
    <nd ref="724166827"/>
    <nd ref="724166828"/>
    <nd ref="724166830"/>
    <nd ref="724166831"/>
    <nd ref="303208006"/>
    <tag k="highway" v="residential"/>
    <tag k="maxspeed" v="50"/>
    <tag k="maxspeed:source" v="default residential speed limit in Australia"/>
    <tag k="source" v="nearmap"/>
  </way>
  <way id="58404456" version="4" timestamp="2011-10-22T15:02:58Z" uid="165869" user="chdr" changeset="9624845">
    <nd ref="724166803"/>
    <nd ref="724166804"/>
    <nd ref="724166805"/>
    <nd ref="724166807"/>
    <nd ref="724166808"/>
    <nd ref="724166809"/>
    <nd ref="724166810"/>
    <nd ref="724166771"/>
    <nd ref="724166811"/>
    <nd ref="724166813"/>
    <nd ref="724166814"/>
    <nd ref="724166815"/>
    <nd ref="724166816"/>
    <nd ref="724166768"/>
    <nd ref="724166819"/>
    <nd ref="724166820"/>
    <nd ref="953046972"/>
    <nd ref="724166821"/>
    <nd ref="724166822"/>
    <nd ref="724166825"/>
    <nd ref="724166826"/>
    <nd ref="724166827"/>
    <nd ref="724166828"/>
    <nd ref="724166830"/>
    <nd ref="724166831"/>
    <nd ref="303208006"/>
    <tag k="highway" v="residential"/>
    <tag k="maxspeed" v="50"/>
    <tag k="maxspeed:source" v="default residential speed limit in Australia"/>
    <tag k="name" v="Northleigh Avenue"/>
    <tag k="source" v="nearmap"/>
  </way>
  <way id="58404456" version="5" timestamp="2012-01-20T07:11:22Z" uid="147510" user="woodpeck_fixbot" changeset="10443281">
    <nd ref="724166803"/>
    <nd ref="724166804"/>
    <nd ref="724166805"/>
    <nd ref="724166807"/>
    <nd ref="724166808"/>
    <nd ref="724166809"/>
    <nd ref="724166810"/>
    <nd ref="724166771"/>
    <nd ref="724166811"/>
    <nd ref="724166813"/>
    <nd ref="724166814"/>
    <nd ref="724166815"/>
    <nd ref="724166816"/>
    <nd ref="724166768"/>
    <nd ref="724166819"/>
    <nd ref="724166820"/>
    <nd ref="953046972"/>
    <nd ref="724166821"/>
    <nd ref="724166822"/>
    <nd ref="724166825"/>
    <nd ref="724166826"/>
    <nd ref="724166827"/>
    <nd ref="724166828"/>
    <nd ref="724166830"/>
    <nd ref="724166831"/>
    <nd ref="303208006"/>
    <tag k="highway" v="residential"/>
    <tag k="name" v="Northleigh Avenue"/>
    <tag k="source" v="nearmap"/>
  </way>
  <way id="58404457" version="2" timestamp="2010-07-09T03:32:25Z" uid="74617" user="JohnSmith" changeset="5170739">
    <nd ref="724166805"/>
    <nd ref="724166832"/>
    <nd ref="724166764"/>
    <nd ref="724166834"/>
    <nd ref="724166835"/>
    <nd ref="724166836"/>
    <nd ref="724166837"/>
    <nd ref="724166838"/>
    <nd ref="724166839"/>
    <nd ref="724166840"/>
    <nd ref="724166841"/>
    <nd ref="724166752"/>
    <nd ref="724166761"/>
    <nd ref="724166842"/>
    <nd ref="724166843"/>
    <nd ref="724166831"/>
    <tag k="highway" v="residential"/>
    <tag k="maxspeed" v="50"/>
    <tag k="maxspeed:source" v="default residential speed limit in Australia"/>
    <tag k="source" v="nearmap"/>
  </way>
  <way id="58404457" version="3" timestamp="2011-10-22T15:02:58Z" uid="165869" user="chdr" changeset="9624845">
    <nd ref="724166805"/>
    <nd ref="724166832"/>
    <nd ref="724166764"/>
    <nd ref="724166834"/>
    <nd ref="724166835"/>
    <nd ref="724166836"/>
    <nd ref="724166837"/>
    <nd ref="724166838"/>
    <nd ref="724166839"/>
    <nd ref="724166840"/>
    <nd ref="724166841"/>
    <nd ref="724166752"/>
    <nd ref="724166761"/>
    <nd ref="724166842"/>
    <nd ref="724166843"/>
    <nd ref="724166831"/>
    <tag k="highway" v="residential"/>
    <tag k="maxspeed" v="50"/>
    <tag k="maxspeed:source" v="default residential speed limit in Australia"/>
    <tag k="name" v="Princetown Avenue"/>
    <tag k="source" v="nearmap"/>
  </way>
  <way id="58404457" version="4" timestamp="2012-01-20T07:11:24Z" uid="147510" user="woodpeck_fixbot" changeset="10443281">
    <nd ref="724166805"/>
    <nd ref="724166832"/>
    <nd ref="724166764"/>
    <nd ref="724166834"/>
    <nd ref="724166835"/>
    <nd ref="724166836"/>
    <nd ref="724166837"/>
    <nd ref="724166838"/>
    <nd ref="724166839"/>
    <nd ref="724166840"/>
    <nd ref="724166841"/>
    <nd ref="724166752"/>
    <nd ref="724166761"/>
    <nd ref="724166842"/>
    <nd ref="724166843"/>
    <nd ref="724166831"/>
    <tag k="highway" v="residential"/>
    <tag k="name" v="Princetown Avenue"/>
    <tag k="source" v="nearmap"/>
  </way>
  <way id="58404458" version="2" timestamp="2010-07-09T03:27:37Z" uid="74617" user="JohnSmith" changeset="5170739">
    <nd ref="724166834"/>
    <nd ref="724166845"/>
    <nd ref="724166846"/>
    <nd ref="724166847"/>
    <nd ref="724166848"/>
    <tag k="highway" v="residential"/>
    <tag k="maxspeed" v="50"/>
    <tag k="maxspeed:source" v="default residential speed limit in Australia"/>
    <tag k="source" v="nearmap"/>
  </way>
  <way id="58404458" version="3" timestamp="2011-10-22T15:02:59Z" uid="165869" user="chdr" changeset="9624845">
    <nd ref="724166834"/>
    <nd ref="724166845"/>
    <nd ref="724166846"/>
    <nd ref="724166847"/>
    <nd ref="724166848"/>
    <tag k="highway" v="residential"/>
    <tag k="maxspeed" v="50"/>
    <tag k="maxspeed:source" v="default residential speed limit in Australia"/>
    <tag k="name" v="Tavistock Court"/>
    <tag k="source" v="nearmap"/>
  </way>
  <way id="58404458" version="4" timestamp="2012-01-20T07:11:25Z" uid="147510" user="woodpeck_fixbot" changeset="10443281">
    <nd ref="724166834"/>
    <nd ref="724166845"/>
    <nd ref="724166846"/>
    <nd ref="724166847"/>
    <nd ref="724166848"/>
    <tag k="highway" v="residential"/>
    <tag k="name" v="Tavistock Court"/>
    <tag k="source" v="nearmap"/>
  </way>
  <way id="58404459" version="2" timestamp="2010-07-09T03:31:04Z" uid="74617" user="JohnSmith" changeset="5170739">
    <nd ref="724166838"/>
    <nd ref="724166850"/>
    <tag k="highway" v="residential"/>
    <tag k="maxspeed" v="50"/>
    <tag k="maxspeed:source" v="default residential speed limit in Australia"/>
    <tag k="source" v="nearmap"/>
  </way>
  <way id="58404459" version="3" timestamp="2011-10-22T15:02:59Z" uid="165869" user="chdr" changeset="9624845">
    <nd ref="724166838"/>
    <nd ref="724166850"/>
    <tag k="highway" v="residential"/>
    <tag k="maxspeed" v="50"/>
    <tag k="maxspeed:source" v="default residential speed limit in Australia"/>
    <tag k="name" v="Ventor Court"/>
    <tag k="source" v="nearmap"/>
  </way>
  <way id="58404459" version="4" timestamp="2012-01-20T07:11:40Z" uid="147510" user="woodpeck_fixbot" changeset="10443281">
    <nd ref="724166838"/>
    <nd ref="724166850"/>
    <tag k="highway" v="residential"/>
    <tag k="name" v="Ventor Court"/>
    <tag k="source" v="nearmap"/>
  </way>
  <way id="58404542" version="2" timestamp="2010-07-09T03:27:45Z" uid="74617" user="JohnSmith" changeset="5170739">
    <nd ref="724168446"/>
    <nd ref="724168448"/>
    <nd ref="724168449"/>
    <nd ref="724168450"/>
    <nd ref="724168451"/>
    <tag k="highway" v="residential"/>
    <tag k="maxspeed" v="50"/>
    <tag k="maxspeed:source" v="default residential speed limit in Australia"/>
    <tag k="source" v="nearmap"/>
  </way>
  <way id="58404542" version="3" timestamp="2011-10-22T15:03:00Z" uid="165869" user="chdr" changeset="9624845">
    <nd ref="724168446"/>
    <nd ref="724168448"/>
    <nd ref="724168449"/>
    <nd ref="724168450"/>
    <nd ref="724168451"/>
    <tag k="highway" v="residential"/>
    <tag k="maxspeed" v="50"/>
    <tag k="maxspeed:source" v="default residential speed limit in Australia"/>
    <tag k="name" v="Peterlee Court"/>
    <tag k="source" v="nearmap"/>
  </way>
  <way id="58404542" version="4" timestamp="2012-01-20T07:11:41Z" uid="147510" user="woodpeck_fixbot" changeset="10443281">
    <nd ref="724168446"/>
    <nd ref="724168448"/>
    <nd ref="724168449"/>
    <nd ref="724168450"/>
    <nd ref="724168451"/>
    <tag k="highway" v="residential"/>
    <tag k="name" v="Peterlee Court"/>
    <tag k="source" v="nearmap"/>
  </way>
  <way id="58404543" version="2" timestamp="2010-07-09T03:31:15Z" uid="74617" user="JohnSmith" changeset="5170739">
    <nd ref="724168452"/>
    <nd ref="724168453"/>
    <nd ref="724168454"/>
    <nd ref="724168456"/>
    <nd ref="724168457"/>
    <nd ref="724168458"/>
    <tag k="highway" v="residential"/>
    <tag k="maxspeed" v="50"/>
    <tag k="maxspeed:source" v="default residential speed limit in Australia"/>
    <tag k="source" v="nearmap"/>
  </way>
  <way id="58404543" version="3" timestamp="2011-10-22T15:03:00Z" uid="165869" user="chdr" changeset="9624845">
    <nd ref="724168452"/>
    <nd ref="724168453"/>
    <nd ref="724168454"/>
    <nd ref="724168456"/>
    <nd ref="724168457"/>
    <nd ref="724168458"/>
    <tag k="highway" v="residential"/>
    <tag k="maxspeed" v="50"/>
    <tag k="maxspeed:source" v="default residential speed limit in Australia"/>
    <tag k="name" v="Beckington Place"/>
    <tag k="source" v="nearmap"/>
  </way>
  <way id="58404543" version="4" timestamp="2012-01-20T07:11:42Z" uid="147510" user="woodpeck_fixbot" changeset="10443281">
    <nd ref="724168452"/>
    <nd ref="724168453"/>
    <nd ref="724168454"/>
    <nd ref="724168456"/>
    <nd ref="724168457"/>
    <nd ref="724168458"/>
    <tag k="highway" v="residential"/>
    <tag k="name" v="Beckington Place"/>
    <tag k="source" v="nearmap"/>
  </way>
  <way id="58404544" version="2" timestamp="2010-07-09T03:31:54Z" uid="74617" user="JohnSmith" changeset="5170739">
    <nd ref="724168459"/>
    <nd ref="724168460"/>
    <nd ref="724168461"/>
    <nd ref="724168462"/>
    <tag k="highway" v="residential"/>
    <tag k="maxspeed" v="50"/>
    <tag k="maxspeed:source" v="default residential speed limit in Australia"/>
    <tag k="source" v="nearmap"/>
  </way>
  <way id="58404544" version="3" timestamp="2011-10-22T15:03:00Z" uid="165869" user="chdr" changeset="9624845">
    <nd ref="724168459"/>
    <nd ref="724168460"/>
    <nd ref="724168461"/>
    <nd ref="724168462"/>
    <tag k="highway" v="residential"/>
    <tag k="maxspeed" v="50"/>
    <tag k="maxspeed:source" v="default residential speed limit in Australia"/>
    <tag k="name" v="Grinstead Court"/>
    <tag k="source" v="nearmap"/>
  </way>
  <way id="58404544" version="4" timestamp="2012-01-20T07:11:55Z" uid="147510" user="woodpeck_fixbot" changeset="10443281">
    <nd ref="724168459"/>
    <nd ref="724168460"/>
    <nd ref="724168461"/>
    <nd ref="724168462"/>
    <tag k="highway" v="residential"/>
    <tag k="name" v="Grinstead Court"/>
    <tag k="source" v="nearmap"/>
  </way>
  <way id="58404545" version="2" timestamp="2010-07-09T03:27:00Z" uid="74617" user="JohnSmith" changeset="5170739">
    <nd ref="724168464"/>
    <nd ref="724168465"/>
    <nd ref="724168466"/>
    <nd ref="724168467"/>
    <nd ref="724168468"/>
    <nd ref="724168469"/>
    <nd ref="724168470"/>
    <nd ref="724168472"/>
    <tag k="highway" v="residential"/>
    <tag k="maxspeed" v="50"/>
    <tag k="maxspeed:source" v="default residential speed limit in Australia"/>
    <tag k="source" v="nearmap"/>
  </way>
  <way id="58404545" version="3" timestamp="2011-10-22T15:03:00Z" uid="165869" user="chdr" changeset="9624845">
    <nd ref="724168464"/>
    <nd ref="724168465"/>
    <nd ref="724168466"/>
    <nd ref="724168467"/>
    <nd ref="724168468"/>
    <nd ref="724168469"/>
    <nd ref="724168470"/>
    <nd ref="724168472"/>
    <tag k="highway" v="residential"/>
    <tag k="maxspeed" v="50"/>
    <tag k="maxspeed:source" v="default residential speed limit in Australia"/>
    <tag k="name" v="Bowes Place"/>
    <tag k="source" v="nearmap"/>
  </way>
  <way id="58404545" version="4" timestamp="2012-01-20T07:11:56Z" uid="147510" user="woodpeck_fixbot" changeset="10443281">
    <nd ref="724168464"/>
    <nd ref="724168465"/>
    <nd ref="724168466"/>
    <nd ref="724168467"/>
    <nd ref="724168468"/>
    <nd ref="724168469"/>
    <nd ref="724168470"/>
    <nd ref="724168472"/>
    <tag k="highway" v="residential"/>
    <tag k="name" v="Bowes Place"/>
    <tag k="source" v="nearmap"/>
  </way>
  <way id="58404546" version="2" timestamp="2010-07-09T03:30:34Z" uid="74617" user="JohnSmith" changeset="5170739">
    <nd ref="724168467"/>
    <nd ref="724168473"/>
    <nd ref="724168474"/>
    <nd ref="724168475"/>
    <nd ref="724168476"/>
    <tag k="highway" v="residential"/>
    <tag k="maxspeed" v="50"/>
    <tag k="maxspeed:source" v="default residential speed limit in Australia"/>
    <tag k="source" v="nearmap"/>
  </way>
  <way id="58404546" version="3" timestamp="2011-10-22T15:03:01Z" uid="165869" user="chdr" changeset="9624845">
    <nd ref="724168467"/>
    <nd ref="724168473"/>
    <nd ref="724168474"/>
    <nd ref="724168475"/>
    <nd ref="724168476"/>
    <tag k="highway" v="residential"/>
    <tag k="maxspeed" v="50"/>
    <tag k="maxspeed:source" v="default residential speed limit in Australia"/>
    <tag k="name" v="Brandon Court"/>
    <tag k="source" v="nearmap"/>
  </way>
  <way id="58404546" version="4" timestamp="2012-01-20T07:11:59Z" uid="147510" user="woodpeck_fixbot" changeset="10443281">
    <nd ref="724168467"/>
    <nd ref="724168473"/>
    <nd ref="724168474"/>
    <nd ref="724168475"/>
    <nd ref="724168476"/>
    <tag k="highway" v="residential"/>
    <tag k="name" v="Brandon Court"/>
    <tag k="source" v="nearmap"/>
  </way>
  <way id="58404553" version="2" timestamp="2010-07-09T03:30:14Z" uid="74617" user="JohnSmith" changeset="5170739">
    <nd ref="724168516"/>
    <nd ref="724168531"/>
    <nd ref="724168532"/>
    <nd ref="724168533"/>
    <nd ref="724168534"/>
    <nd ref="724168464"/>
    <nd ref="724168536"/>
    <nd ref="724168537"/>
    <nd ref="724168538"/>
    <nd ref="724168459"/>
    <nd ref="724168539"/>
    <nd ref="724168540"/>
    <nd ref="724168541"/>
    <nd ref="724168542"/>
    <nd ref="724168543"/>
    <nd ref="724168544"/>
    <nd ref="724168545"/>
    <nd ref="724168546"/>
    <nd ref="724168547"/>
    <nd ref="724168548"/>
    <nd ref="724168550"/>
    <nd ref="724168551"/>
    <nd ref="724168552"/>
    <nd ref="724168553"/>
    <nd ref="724168554"/>
    <nd ref="724168555"/>
    <nd ref="724168556"/>
    <nd ref="724168557"/>
    <nd ref="724168452"/>
    <nd ref="724168446"/>
    <nd ref="724168558"/>
    <nd ref="724168559"/>
    <nd ref="724168560"/>
    <nd ref="724168561"/>
    <nd ref="724168562"/>
    <nd ref="724168563"/>
    <tag k="highway" v="residential"/>
    <tag k="maxspeed" v="50"/>
    <tag k="maxspeed:source" v="default residential speed limit in Australia"/>
    <tag k="source" v="nearmap"/>
  </way>
  <way id="58404553" version="3" timestamp="2010-07-11T11:22:21Z" uid="57437" user="Canley" changeset="5189294">
    <nd ref="724168516"/>
    <nd ref="724168531"/>
    <nd ref="724168532"/>
    <nd ref="724168533"/>
    <nd ref="724168534"/>
    <nd ref="724168464"/>
    <nd ref="724168536"/>
    <nd ref="724168537"/>
    <nd ref="724168538"/>
    <nd ref="724168459"/>
    <nd ref="724168539"/>
    <nd ref="724168540"/>
    <nd ref="724168541"/>
    <nd ref="724168542"/>
    <nd ref="724168543"/>
    <nd ref="724168544"/>
    <nd ref="724168545"/>
    <nd ref="724168546"/>
    <nd ref="724168547"/>
    <nd ref="724168548"/>
    <nd ref="724168550"/>
    <nd ref="724168551"/>
    <nd ref="724168552"/>
    <nd ref="724168553"/>
    <nd ref="724168554"/>
    <nd ref="724168555"/>
    <nd ref="724168556"/>
    <nd ref="724168557"/>
    <nd ref="724168452"/>
    <nd ref="724168446"/>
    <nd ref="724168558"/>
    <nd ref="724168559"/>
    <nd ref="724168560"/>
    <nd ref="724168561"/>
    <nd ref="724168562"/>
    <nd ref="724168563"/>
    <tag k="highway" v="residential"/>
    <tag k="maxspeed" v="50"/>
    <tag k="maxspeed:source" v="default residential speed limit in Australia"/>
    <tag k="name" v="Langdon Crescent"/>
    <tag k="source" v="nearmap"/>
    <tag k="source:name" v="survey"/>
  </way>
  <way id="58404553" version="4" timestamp="2010-10-17T00:02:28Z" uid="201443" user="stevage" changeset="6062943">
    <nd ref="724168516"/>
    <nd ref="724168531"/>
    <nd ref="724168532"/>
    <nd ref="724168533"/>
    <nd ref="724168534"/>
    <nd ref="724168464"/>
    <nd ref="724168536"/>
    <nd ref="724168537"/>
    <nd ref="724168538"/>
    <nd ref="724168459"/>
    <nd ref="724168539"/>
    <nd ref="724168540"/>
    <nd ref="724168541"/>
    <nd ref="724168542"/>
    <nd ref="724168543"/>
    <nd ref="724168544"/>
    <nd ref="724168545"/>
    <nd ref="953047027"/>
    <nd ref="953046961"/>
    <nd ref="724168546"/>
    <nd ref="724168547"/>
    <nd ref="724168548"/>
    <nd ref="724168550"/>
    <nd ref="724168551"/>
    <nd ref="724168552"/>
    <nd ref="724168553"/>
    <nd ref="724168554"/>
    <nd ref="724168555"/>
    <nd ref="724168556"/>
    <nd ref="724168557"/>
    <nd ref="724168452"/>
    <nd ref="724168446"/>
    <nd ref="724168558"/>
    <nd ref="724168559"/>
    <nd ref="724168560"/>
    <nd ref="724168561"/>
    <nd ref="724168562"/>
    <nd ref="724168563"/>
    <tag k="highway" v="residential"/>
    <tag k="maxspeed" v="50"/>
    <tag k="maxspeed:source" v="default residential speed limit in Australia"/>
    <tag k="name" v="Langdon Crescent"/>
    <tag k="source" v="nearmap"/>
    <tag k="source:name" v="survey"/>
  </way>
  <way id="58404553" version="5" timestamp="2012-01-20T07:12:01Z" uid="147510" user="woodpeck_fixbot" changeset="10443281">
    <nd ref="724168516"/>
    <nd ref="724168531"/>
    <nd ref="724168532"/>
    <nd ref="724168533"/>
    <nd ref="724168534"/>
    <nd ref="724168464"/>
    <nd ref="724168536"/>
    <nd ref="724168537"/>
    <nd ref="724168538"/>
    <nd ref="724168459"/>
    <nd ref="724168539"/>
    <nd ref="724168540"/>
    <nd ref="724168541"/>
    <nd ref="724168542"/>
    <nd ref="724168543"/>
    <nd ref="724168544"/>
    <nd ref="724168545"/>
    <nd ref="953047027"/>
    <nd ref="953046961"/>
    <nd ref="724168546"/>
    <nd ref="724168547"/>
    <nd ref="724168548"/>
    <nd ref="724168550"/>
    <nd ref="724168551"/>
    <nd ref="724168552"/>
    <nd ref="724168553"/>
    <nd ref="724168554"/>
    <nd ref="724168555"/>
    <nd ref="724168556"/>
    <nd ref="724168557"/>
    <nd ref="724168452"/>
    <nd ref="724168446"/>
    <nd ref="724168558"/>
    <nd ref="724168559"/>
    <nd ref="724168560"/>
    <nd ref="724168561"/>
    <nd ref="724168562"/>
    <nd ref="724168563"/>
    <tag k="highway" v="residential"/>
    <tag k="name" v="Langdon Crescent"/>
    <tag k="source" v="nearmap"/>
    <tag k="source:name" v="survey"/>
  </way>
  <way id="58404554" version="2" timestamp="2010-07-09T03:25:21Z" uid="74617" user="JohnSmith" changeset="5170739">
    <nd ref="724168560"/>
    <nd ref="724168565"/>
    <tag k="highway" v="residential"/>
    <tag k="maxspeed" v="50"/>
    <tag k="maxspeed:source" v="default residential speed limit in Australia"/>
    <tag k="source" v="nearmap"/>
  </way>
  <way id="58404554" version="3" timestamp="2011-10-22T15:03:01Z" uid="165869" user="chdr" changeset="9624845">
    <nd ref="724168560"/>
    <nd ref="724168565"/>
    <tag k="highway" v="residential"/>
    <tag k="maxspeed" v="50"/>
    <tag k="maxspeed:source" v="default residential speed limit in Australia"/>
    <tag k="name" v="Walton Close"/>
    <tag k="source" v="nearmap"/>
  </way>
  <way id="58404554" version="4" timestamp="2012-01-20T07:12:03Z" uid="147510" user="woodpeck_fixbot" changeset="10443281">
    <nd ref="724168560"/>
    <nd ref="724168565"/>
    <tag k="highway" v="residential"/>
    <tag k="name" v="Walton Close"/>
    <tag k="source" v="nearmap"/>
  </way>
  <way id="58404735" version="1" timestamp="2010-05-06T12:31:50Z" uid="115477" user="wowik" changeset="4621215">
    <nd ref="724169808"/>
    <nd ref="724169811"/>
    <nd ref="428146883"/>
    <nd ref="724169814"/>
    <nd ref="724169808"/>
    <tag k="addr:city" v="Зеленоград"/>
    <tag k="addr:housenumber" v="426А"/>
    <tag k="addr:street" v="4-й Микрорайон"/>
    <tag k="building" v="yes"/>
    <tag k="building:levels" v="1"/>
    <tag k="is_in" v="Russia"/>
  </way>
  <way id="58404735" version="2" timestamp="2010-05-06T12:37:47Z" uid="115477" user="wowik" changeset="4621215">
    <nd ref="724169808"/>
    <nd ref="724169811"/>
    <nd ref="428146883"/>
    <nd ref="724169814"/>
    <nd ref="724169808"/>
    <tag k="addr:city" v="Зеленоград"/>
    <tag k="addr:housenumber" v="426Ас4"/>
    <tag k="addr:street" v="4-й Микрорайон"/>
    <tag k="building" v="yes"/>
    <tag k="building:levels" v="1"/>
    <tag k="is_in" v="Russia"/>
  </way>
  <way id="58404735" version="3" timestamp="2011-01-19T18:06:06Z" uid="70696" user="xybot" changeset="7022960">
    <nd ref="724169808"/>
    <nd ref="724169811"/>
    <nd ref="428146883"/>
    <nd ref="724169814"/>
    <nd ref="724169808"/>
    <tag k="addr:city" v="Зеленоград"/>
    <tag k="addr:housenumber" v="426А с4"/>
    <tag k="addr:street" v="4-й Микрорайон"/>
    <tag k="building" v="yes"/>
    <tag k="building:levels" v="1"/>
    <tag k="is_in" v="Russia"/>
  </way>
  <way id="58404735" version="4" timestamp="2011-01-25T16:21:30Z" uid="115477" user="wowik" changeset="7085120">
    <nd ref="724169808"/>
    <nd ref="724169811"/>
    <nd ref="428146883"/>
    <nd ref="1120020538"/>
    <nd ref="724169814"/>
    <nd ref="724169808"/>
    <tag k="addr:city" v="Зеленоград"/>
    <tag k="addr:housenumber" v="426А с4"/>
    <tag k="addr:street" v="4-й Микрорайон"/>
    <tag k="amenity" v="pharmacy"/>
    <tag k="building" v="yes"/>
    <tag k="building:levels" v="1"/>
    <tag k="is_in" v="Russia"/>
  </way>
  <way id="58404735" version="5" timestamp="2011-06-07T20:50:06Z" uid="133332" user="AMDmi3" changeset="8374030">
    <nd ref="724169808"/>
    <nd ref="724169811"/>
    <nd ref="428146883"/>
    <nd ref="1120020538"/>
    <nd ref="724169814"/>
    <nd ref="724169808"/>
    <tag k="addr:city" v="Зеленоград"/>
    <tag k="addr:housenumber" v="426А с4"/>
    <tag k="addr:street" v="4-й микрорайон"/>
    <tag k="amenity" v="pharmacy"/>
    <tag k="building" v="yes"/>
    <tag k="building:levels" v="1"/>
    <tag k="is_in" v="Russia"/>
  </way>
  <way id="58404735" version="6" timestamp="2011-09-13T10:26:53Z" uid="29320" user="Komяpa" changeset="9288237">
    <nd ref="724169808"/>
    <nd ref="724169811"/>
    <nd ref="428146883"/>
    <nd ref="1120020538"/>
    <nd ref="724169814"/>
    <nd ref="724169808"/>
    <tag k="addr:city" v="Зеленоград"/>
    <tag k="addr:country" v="RU"/>
    <tag k="addr:housenumber" v="426А с4"/>
    <tag k="addr:street" v="4-й микрорайон"/>
    <tag k="amenity" v="pharmacy"/>
    <tag k="building" v="yes"/>
    <tag k="building:levels" v="1"/>
  </way>
  <way id="58404735" version="7" timestamp="2011-10-28T10:32:00Z" uid="481934" user="iWowik" changeset="9675276">
    <nd ref="724169808"/>
    <nd ref="724169811"/>
    <nd ref="428146883"/>
    <nd ref="1120020538"/>
    <nd ref="724169814"/>
    <nd ref="724169808"/>
    <tag k="addr:city" v="Зеленоград"/>
    <tag k="addr:country" v="RU"/>
    <tag k="addr:housenumber" v="426А с4"/>
    <tag k="addr:street" v="4-й Микрорайон"/>
    <tag k="amenity" v="pharmacy"/>
    <tag k="building" v="yes"/>
    <tag k="building:levels" v="1"/>
  </way>
  <way id="58404735" version="8" timestamp="2011-11-14T20:33:15Z" uid="133332" user="AMDmi3" changeset="9828527">
    <nd ref="724169808"/>
    <nd ref="724169811"/>
    <nd ref="428146883"/>
    <nd ref="1120020538"/>
    <nd ref="724169814"/>
    <nd ref="724169808"/>
    <tag k="addr:city" v="Зеленоград"/>
    <tag k="addr:country" v="RU"/>
    <tag k="addr:housenumber" v="426А с4"/>
    <tag k="addr:street" v="4-й микрорайон"/>
    <tag k="amenity" v="pharmacy"/>
    <tag k="building" v="yes"/>
    <tag k="building:levels" v="1"/>
  </way>
  <way id="58404735" version="9" timestamp="2011-12-12T15:02:05Z" uid="126304" user="TarzanASG" changeset="10099769">
    <nd ref="724169808"/>
    <nd ref="724169811"/>
    <nd ref="428146883"/>
    <nd ref="1120020538"/>
    <nd ref="724169814"/>
    <nd ref="724169808"/>
    <tag k="addr:city" v="Зеленоград"/>
    <tag k="addr:country" v="RU"/>
    <tag k="addr:housenumber" v="426А с4"/>
    <tag k="addr:street" v="4-й микрорайон"/>
    <tag k="amenity" v="pharmacy"/>
    <tag k="building" v="store"/>
    <tag k="building:levels" v="1"/>
  </way>
  <way id="58404735" version="10" timestamp="2011-12-12T15:46:37Z" uid="126304" user="TarzanASG" changeset="10100076">
    <nd ref="724169808"/>
    <nd ref="724169811"/>
    <nd ref="428146883"/>
    <nd ref="1120020538"/>
    <nd ref="724169814"/>
    <nd ref="724169808"/>
    <tag k="addr:city" v="Зеленоград"/>
    <tag k="addr:country" v="RU"/>
    <tag k="addr:housenumber" v="426А с4"/>
    <tag k="addr:street" v="4-й микрорайон"/>
    <tag k="amenity" v="pharmacy"/>
    <tag k="building" v="retail"/>
    <tag k="building:levels" v="1"/>
  </way>
  <way id="58404735" version="11" timestamp="2011-12-14T14:03:42Z" uid="143266" user="Sergey Astakhov" changeset="10116192">
    <nd ref="724169808"/>
    <nd ref="724169811"/>
    <nd ref="428146883"/>
    <nd ref="1120020538"/>
    <nd ref="724169814"/>
    <nd ref="724169808"/>
    <tag k="addr:city" v="Зеленоград"/>
    <tag k="addr:country" v="RU"/>
    <tag k="addr:housenumber" v="426А с4"/>
    <tag k="addr:street" v="4-й микрорайон"/>
    <tag k="amenity" v="pharmacy"/>
    <tag k="building" v="yes"/>
    <tag k="building:levels" v="1"/>
  </way>
  <way id="58404735" version="12" timestamp="2012-03-27T11:43:19Z" uid="481934" user="iWowik" changeset="11115472">
    <nd ref="724169808"/>
    <nd ref="724169811"/>
    <nd ref="428146883"/>
    <nd ref="1120020538"/>
    <nd ref="724169814"/>
    <nd ref="724169808"/>
    <tag k="addr:city" v="Зеленоград"/>
    <tag k="addr:country" v="RU"/>
    <tag k="addr:housenumber" v="426А с4"/>
    <tag k="addr:region" v="Москва"/>
    <tag k="addr:street" v="4-й микрорайон"/>
    <tag k="amenity" v="pharmacy"/>
    <tag k="building" v="yes"/>
    <tag k="building:levels" v="1"/>
  </way>
  <way id="58404737" version="1" timestamp="2010-05-06T12:31:51Z" uid="115477" user="wowik" changeset="4621215">
    <nd ref="724169818"/>
    <nd ref="428146812"/>
    <nd ref="428146947"/>
    <nd ref="428146825"/>
    <nd ref="724169818"/>
    <tag k="addr:city" v="Зеленоград"/>
    <tag k="addr:housenumber" v="426А"/>
    <tag k="addr:street" v="4-й Микрорайон"/>
    <tag k="building" v="yes"/>
    <tag k="building:levels" v="1"/>
    <tag k="is_in" v="Russia"/>
  </way>
  <way id="58404737" version="2" timestamp="2010-05-06T12:37:47Z" uid="115477" user="wowik" changeset="4621215">
    <nd ref="724169818"/>
    <nd ref="428146812"/>
    <nd ref="428146947"/>
    <nd ref="428146825"/>
    <nd ref="724169818"/>
    <tag k="addr:city" v="Зеленоград"/>
    <tag k="addr:housenumber" v="426Ас5"/>
    <tag k="addr:street" v="4-й Микрорайон"/>
    <tag k="building" v="yes"/>
    <tag k="building:levels" v="1"/>
    <tag k="is_in" v="Russia"/>
  </way>
  <way id="58404737" version="3" timestamp="2011-01-19T18:06:06Z" uid="70696" user="xybot" changeset="7022960">
    <nd ref="724169818"/>
    <nd ref="428146812"/>
    <nd ref="428146947"/>
    <nd ref="428146825"/>
    <nd ref="724169818"/>
    <tag k="addr:city" v="Зеленоград"/>
    <tag k="addr:housenumber" v="426А с5"/>
    <tag k="addr:street" v="4-й Микрорайон"/>
    <tag k="building" v="yes"/>
    <tag k="building:levels" v="1"/>
    <tag k="is_in" v="Russia"/>
  </way>
  <way id="58404737" version="4" timestamp="2011-06-07T20:53:45Z" uid="133332" user="AMDmi3" changeset="8374030">
    <nd ref="724169818"/>
    <nd ref="428146812"/>
    <nd ref="428146947"/>
    <nd ref="428146825"/>
    <nd ref="724169818"/>
    <tag k="addr:city" v="Зеленоград"/>
    <tag k="addr:housenumber" v="426А с5"/>
    <tag k="addr:street" v="4-й микрорайон"/>
    <tag k="building" v="yes"/>
    <tag k="building:levels" v="1"/>
    <tag k="is_in" v="Russia"/>
  </way>
  <way id="58404737" version="5" timestamp="2011-09-13T10:26:54Z" uid="29320" user="Komяpa" changeset="9288237">
    <nd ref="724169818"/>
    <nd ref="428146812"/>
    <nd ref="428146947"/>
    <nd ref="428146825"/>
    <nd ref="724169818"/>
    <tag k="addr:city" v="Зеленоград"/>
    <tag k="addr:country" v="RU"/>
    <tag k="addr:housenumber" v="426А с5"/>
    <tag k="addr:street" v="4-й микрорайон"/>
    <tag k="building" v="yes"/>
    <tag k="building:levels" v="1"/>
  </way>
  <way id="58404737" version="6" timestamp="2011-10-28T10:32:00Z" uid="481934" user="iWowik" changeset="9675276">
    <nd ref="724169818"/>
    <nd ref="428146812"/>
    <nd ref="428146947"/>
    <nd ref="428146825"/>
    <nd ref="724169818"/>
    <tag k="addr:city" v="Зеленоград"/>
    <tag k="addr:country" v="RU"/>
    <tag k="addr:housenumber" v="426А с5"/>
    <tag k="addr:street" v="4-й Микрорайон"/>
    <tag k="building" v="yes"/>
    <tag k="building:levels" v="1"/>
  </way>
  <way id="58404737" version="7" timestamp="2011-11-14T20:33:15Z" uid="133332" user="AMDmi3" changeset="9828527">
    <nd ref="724169818"/>
    <nd ref="428146812"/>
    <nd ref="428146947"/>
    <nd ref="428146825"/>
    <nd ref="724169818"/>
    <tag k="addr:city" v="Зеленоград"/>
    <tag k="addr:country" v="RU"/>
    <tag k="addr:housenumber" v="426А с5"/>
    <tag k="addr:street" v="4-й микрорайон"/>
    <tag k="building" v="yes"/>
    <tag k="building:levels" v="1"/>
  </way>
  <way id="58404737" version="8" timestamp="2012-03-14T18:46:48Z" uid="109327" user="OverQuantum" changeset="10980891">
    <nd ref="724169818"/>
    <nd ref="428146812"/>
    <nd ref="1674836489"/>
    <nd ref="1674836495"/>
    <nd ref="428146947"/>
    <nd ref="1674836494"/>
    <nd ref="1674836492"/>
    <nd ref="428146825"/>
    <nd ref="724169818"/>
    <tag k="addr:city" v="Зеленоград"/>
    <tag k="addr:country" v="RU"/>
    <tag k="addr:housenumber" v="426А с5"/>
    <tag k="addr:street" v="4-й микрорайон"/>
    <tag k="building" v="yes"/>
    <tag k="building:levels" v="1"/>
  </way>
  <way id="58404737" version="9" timestamp="2012-03-27T11:43:20Z" uid="481934" user="iWowik" changeset="11115472">
    <nd ref="724169818"/>
    <nd ref="428146812"/>
    <nd ref="1674836489"/>
    <nd ref="1674836495"/>
    <nd ref="428146947"/>
    <nd ref="1674836494"/>
    <nd ref="1674836492"/>
    <nd ref="428146825"/>
    <nd ref="724169818"/>
    <tag k="addr:city" v="Зеленоград"/>
    <tag k="addr:country" v="RU"/>
    <tag k="addr:housenumber" v="426А с5"/>
    <tag k="addr:region" v="Москва"/>
    <tag k="addr:street" v="4-й микрорайон"/>
    <tag k="building" v="yes"/>
    <tag k="building:levels" v="1"/>
  </way>
  <way id="58404739" version="1" timestamp="2010-05-06T12:31:51Z" uid="115477" user="wowik" changeset="4621215">
    <nd ref="428146945"/>
    <nd ref="724169821"/>
    <nd ref="724169822"/>
    <nd ref="724169823"/>
    <nd ref="724169824"/>
    <nd ref="428147121"/>
    <nd ref="428146945"/>
    <tag k="addr:city" v="Зеленоград"/>
    <tag k="addr:housenumber" v="426А"/>
    <tag k="addr:street" v="4-й Микрорайон"/>
    <tag k="building" v="yes"/>
    <tag k="building:levels" v="1"/>
    <tag k="is_in" v="Russia"/>
  </way>
  <way id="58404739" version="2" timestamp="2010-05-06T12:37:47Z" uid="115477" user="wowik" changeset="4621215">
    <nd ref="428146945"/>
    <nd ref="724169821"/>
    <nd ref="724169822"/>
    <nd ref="724169823"/>
    <nd ref="724169824"/>
    <nd ref="428147121"/>
    <nd ref="428146945"/>
    <tag k="addr:city" v="Зеленоград"/>
    <tag k="addr:housenumber" v="426Ас3"/>
    <tag k="addr:street" v="4-й Микрорайон"/>
    <tag k="building" v="yes"/>
    <tag k="building:levels" v="1"/>
    <tag k="is_in" v="Russia"/>
  </way>
  <way id="58404739" version="3" timestamp="2010-11-08T17:30:01Z" uid="115477" user="wowik" changeset="6322246">
    <nd ref="982638153"/>
    <nd ref="982638140"/>
    <nd ref="982638130"/>
    <nd ref="982638150"/>
    <nd ref="428146945"/>
    <nd ref="982638157"/>
    <nd ref="982638139"/>
    <nd ref="982638162"/>
    <nd ref="724169821"/>
    <nd ref="982638122"/>
    <nd ref="982638153"/>
    <tag k="addr:city" v="Зеленоград"/>
    <tag k="addr:housenumber" v="429с2"/>
    <tag k="addr:street" v="4-й Микрорайон"/>
    <tag k="building" v="yes"/>
    <tag k="building:levels" v="1"/>
    <tag k="is_in" v="Russia"/>
    <tag k="shop" v="convenience"/>
  </way>
  <way id="58404739" version="4" timestamp="2011-01-19T16:52:57Z" uid="70696" user="xybot" changeset="7021015">
    <nd ref="982638153"/>
    <nd ref="982638140"/>
    <nd ref="982638130"/>
    <nd ref="982638150"/>
    <nd ref="428146945"/>
    <nd ref="982638157"/>
    <nd ref="982638139"/>
    <nd ref="982638162"/>
    <nd ref="724169821"/>
    <nd ref="982638122"/>
    <nd ref="982638153"/>
    <tag k="addr:city" v="Зеленоград"/>
    <tag k="addr:housenumber" v="429 с2"/>
    <tag k="addr:street" v="4-й Микрорайон"/>
    <tag k="building" v="yes"/>
    <tag k="building:levels" v="1"/>
    <tag k="is_in" v="Russia"/>
    <tag k="shop" v="convenience"/>
  </way>
  <way id="58404739" version="5" timestamp="2011-06-07T20:53:45Z" uid="133332" user="AMDmi3" changeset="8374030">
    <nd ref="982638153"/>
    <nd ref="982638140"/>
    <nd ref="982638130"/>
    <nd ref="982638150"/>
    <nd ref="428146945"/>
    <nd ref="982638157"/>
    <nd ref="982638139"/>
    <nd ref="982638162"/>
    <nd ref="724169821"/>
    <nd ref="982638122"/>
    <nd ref="982638153"/>
    <tag k="addr:city" v="Зеленоград"/>
    <tag k="addr:housenumber" v="429 с2"/>
    <tag k="addr:street" v="4-й микрорайон"/>
    <tag k="building" v="yes"/>
    <tag k="building:levels" v="1"/>
    <tag k="is_in" v="Russia"/>
    <tag k="shop" v="convenience"/>
  </way>
  <way id="58404739" version="6" timestamp="2011-09-13T10:26:55Z" uid="29320" user="Komяpa" changeset="9288237">
    <nd ref="982638153"/>
    <nd ref="982638140"/>
    <nd ref="982638130"/>
    <nd ref="982638150"/>
    <nd ref="428146945"/>
    <nd ref="982638157"/>
    <nd ref="982638139"/>
    <nd ref="982638162"/>
    <nd ref="724169821"/>
    <nd ref="982638122"/>
    <nd ref="982638153"/>
    <tag k="addr:city" v="Зеленоград"/>
    <tag k="addr:country" v="RU"/>
    <tag k="addr:housenumber" v="429 с2"/>
    <tag k="addr:street" v="4-й микрорайон"/>
    <tag k="building" v="yes"/>
    <tag k="building:levels" v="1"/>
    <tag k="shop" v="convenience"/>
  </way>
  <way id="58404739" version="7" timestamp="2011-10-28T10:32:02Z" uid="481934" user="iWowik" changeset="9675276">
    <nd ref="982638153"/>
    <nd ref="982638140"/>
    <nd ref="982638130"/>
    <nd ref="982638150"/>
    <nd ref="428146945"/>
    <nd ref="982638157"/>
    <nd ref="982638139"/>
    <nd ref="982638162"/>
    <nd ref="724169821"/>
    <nd ref="982638122"/>
    <nd ref="982638153"/>
    <tag k="addr:city" v="Зеленоград"/>
    <tag k="addr:country" v="RU"/>
    <tag k="addr:housenumber" v="429 с2"/>
    <tag k="addr:street" v="4-й Микрорайон"/>
    <tag k="building" v="yes"/>
    <tag k="building:levels" v="1"/>
    <tag k="shop" v="convenience"/>
  </way>
  <way id="58404739" version="8" timestamp="2011-11-14T20:33:16Z" uid="133332" user="AMDmi3" changeset="9828527">
    <nd ref="982638153"/>
    <nd ref="982638140"/>
    <nd ref="982638130"/>
    <nd ref="982638150"/>
    <nd ref="428146945"/>
    <nd ref="982638157"/>
    <nd ref="982638139"/>
    <nd ref="982638162"/>
    <nd ref="724169821"/>
    <nd ref="982638122"/>
    <nd ref="982638153"/>
    <tag k="addr:city" v="Зеленоград"/>
    <tag k="addr:country" v="RU"/>
    <tag k="addr:housenumber" v="429 с2"/>
    <tag k="addr:street" v="4-й микрорайон"/>
    <tag k="building" v="yes"/>
    <tag k="building:levels" v="1"/>
    <tag k="shop" v="convenience"/>
  </way>
  <way id="58404739" version="9" timestamp="2011-12-12T17:56:37Z" uid="126304" user="TarzanASG" changeset="10100388">
    <nd ref="982638153"/>
    <nd ref="982638140"/>
    <nd ref="982638130"/>
    <nd ref="982638150"/>
    <nd ref="428146945"/>
    <nd ref="982638157"/>
    <nd ref="982638139"/>
    <nd ref="982638162"/>
    <nd ref="724169821"/>
    <nd ref="982638122"/>
    <nd ref="982638153"/>
    <tag k="addr:city" v="Зеленоград"/>
    <tag k="addr:country" v="RU"/>
    <tag k="addr:housenumber" v="429 с2"/>
    <tag k="addr:street" v="4-й микрорайон"/>
    <tag k="building" v="retail"/>
    <tag k="building:levels" v="1"/>
    <tag k="shop" v="convenience"/>
  </way>
  <way id="58404739" version="10" timestamp="2011-12-14T13:17:21Z" uid="143266" user="Sergey Astakhov" changeset="10115724">
    <nd ref="982638153"/>
    <nd ref="982638140"/>
    <nd ref="982638130"/>
    <nd ref="982638150"/>
    <nd ref="428146945"/>
    <nd ref="982638157"/>
    <nd ref="982638139"/>
    <nd ref="982638162"/>
    <nd ref="724169821"/>
    <nd ref="982638122"/>
    <nd ref="982638153"/>
    <tag k="addr:city" v="Зеленоград"/>
    <tag k="addr:country" v="RU"/>
    <tag k="addr:housenumber" v="429 с2"/>
    <tag k="addr:street" v="4-й микрорайон"/>
    <tag k="building" v="yes"/>
    <tag k="building:levels" v="1"/>
    <tag k="shop" v="convenience"/>
  </way>
  <way id="58404739" version="11" timestamp="2012-03-27T11:43:23Z" uid="481934" user="iWowik" changeset="11115472">
    <nd ref="982638153"/>
    <nd ref="982638140"/>
    <nd ref="982638130"/>
    <nd ref="982638150"/>
    <nd ref="428146945"/>
    <nd ref="982638157"/>
    <nd ref="982638139"/>
    <nd ref="982638162"/>
    <nd ref="724169821"/>
    <nd ref="982638122"/>
    <nd ref="982638153"/>
    <tag k="addr:city" v="Зеленоград"/>
    <tag k="addr:country" v="RU"/>
    <tag k="addr:housenumber" v="429 с2"/>
    <tag k="addr:region" v="Москва"/>
    <tag k="addr:street" v="4-й микрорайон"/>
    <tag k="building" v="yes"/>
    <tag k="building:levels" v="1"/>
    <tag k="shop" v="convenience"/>
  </way>
  <way id="58404775" version="2" timestamp="2010-07-09T03:29:24Z" uid="74617" user="JohnSmith" changeset="5170739">
    <nd ref="724170441"/>
    <nd ref="724170442"/>
    <tag k="highway" v="residential"/>
    <tag k="maxspeed" v="50"/>
    <tag k="maxspeed:source" v="default residential speed limit in Australia"/>
    <tag k="source" v="nearmap"/>
  </way>
  <way id="58404775" version="3" timestamp="2011-10-22T15:03:02Z" uid="165869" user="chdr" changeset="9624845">
    <nd ref="724170441"/>
    <nd ref="724170442"/>
    <tag k="highway" v="residential"/>
    <tag k="maxspeed" v="50"/>
    <tag k="maxspeed:source" v="default residential speed limit in Australia"/>
    <tag k="name" v="Molland Court"/>
    <tag k="source" v="nearmap"/>
  </way>
  <way id="58404775" version="4" timestamp="2012-01-20T07:12:06Z" uid="147510" user="woodpeck_fixbot" changeset="10443281">
    <nd ref="724170441"/>
    <nd ref="724170442"/>
    <tag k="highway" v="residential"/>
    <tag k="name" v="Molland Court"/>
    <tag k="source" v="nearmap"/>
  </way>
  <way id="58404777" version="2" timestamp="2010-07-09T03:28:11Z" uid="74617" user="JohnSmith" changeset="5170739">
    <nd ref="724170443"/>
    <nd ref="724170445"/>
    <nd ref="724170446"/>
    <nd ref="724170447"/>
    <nd ref="724170448"/>
    <tag k="highway" v="residential"/>
    <tag k="maxspeed" v="50"/>
    <tag k="maxspeed:source" v="default residential speed limit in Australia"/>
    <tag k="source" v="nearmap"/>
  </way>
  <way id="58404777" version="3" timestamp="2011-10-22T15:03:02Z" uid="165869" user="chdr" changeset="9624845">
    <nd ref="724170443"/>
    <nd ref="724170445"/>
    <nd ref="724170446"/>
    <nd ref="724170447"/>
    <nd ref="724170448"/>
    <tag k="highway" v="residential"/>
    <tag k="maxspeed" v="50"/>
    <tag k="maxspeed:source" v="default residential speed limit in Australia"/>
    <tag k="name" v="Kelsey Court"/>
    <tag k="source" v="nearmap"/>
  </way>
  <way id="58404777" version="4" timestamp="2012-01-20T07:12:07Z" uid="147510" user="woodpeck_fixbot" changeset="10443281">
    <nd ref="724170443"/>
    <nd ref="724170445"/>
    <nd ref="724170446"/>
    <nd ref="724170447"/>
    <nd ref="724170448"/>
    <tag k="highway" v="residential"/>
    <tag k="name" v="Kelsey Court"/>
    <tag k="source" v="nearmap"/>
  </way>
  <way id="58404779" version="2" timestamp="2010-07-09T03:26:52Z" uid="74617" user="JohnSmith" changeset="5170739">
    <nd ref="724170452"/>
    <nd ref="724170453"/>
    <nd ref="724170454"/>
    <nd ref="724170456"/>
    <nd ref="724170457"/>
    <tag k="highway" v="residential"/>
    <tag k="maxspeed" v="50"/>
    <tag k="maxspeed:source" v="default residential speed limit in Australia"/>
    <tag k="source" v="nearmap"/>
  </way>
  <way id="58404779" version="3" timestamp="2011-10-22T15:03:02Z" uid="165869" user="chdr" changeset="9624845">
    <nd ref="724170452"/>
    <nd ref="724170453"/>
    <nd ref="724170454"/>
    <nd ref="724170456"/>
    <nd ref="724170457"/>
    <tag k="highway" v="residential"/>
    <tag k="maxspeed" v="50"/>
    <tag k="maxspeed:source" v="default residential speed limit in Australia"/>
    <tag k="name" v="Ipswich Place"/>
    <tag k="source" v="nearmap"/>
  </way>
  <way id="58404779" version="4" timestamp="2012-01-20T07:12:08Z" uid="147510" user="woodpeck_fixbot" changeset="10443281">
    <nd ref="724170452"/>
    <nd ref="724170453"/>
    <nd ref="724170454"/>
    <nd ref="724170456"/>
    <nd ref="724170457"/>
    <tag k="highway" v="residential"/>
    <tag k="name" v="Ipswich Place"/>
    <tag k="source" v="nearmap"/>
  </way>
  <way id="58404780" version="2" timestamp="2010-07-09T03:30:23Z" uid="74617" user="JohnSmith" changeset="5170739">
    <nd ref="724170454"/>
    <nd ref="724170459"/>
    <tag k="highway" v="residential"/>
    <tag k="maxspeed" v="50"/>
    <tag k="maxspeed:source" v="default residential speed limit in Australia"/>
    <tag k="source" v="nearmap"/>
  </way>
  <way id="58404780" version="3" timestamp="2011-10-22T15:03:02Z" uid="165869" user="chdr" changeset="9624845">
    <nd ref="724170454"/>
    <nd ref="724170459"/>
    <tag k="highway" v="residential"/>
    <tag k="maxspeed" v="50"/>
    <tag k="maxspeed:source" v="default residential speed limit in Australia"/>
    <tag k="name" v="Clacton Court"/>
    <tag k="source" v="nearmap"/>
  </way>
  <way id="58404780" version="4" timestamp="2012-01-20T07:12:09Z" uid="147510" user="woodpeck_fixbot" changeset="10443281">
    <nd ref="724170454"/>
    <nd ref="724170459"/>
    <tag k="highway" v="residential"/>
    <tag k="name" v="Clacton Court"/>
    <tag k="source" v="nearmap"/>
  </way>
  <way id="58404782" version="2" timestamp="2010-07-08T16:55:54Z" uid="74617" user="JohnSmith" changeset="5167338">
    <nd ref="35290375"/>
    <nd ref="724170461"/>
    <nd ref="724170458"/>
    <tag k="highway" v="residential"/>
    <tag k="maxspeed" v="50"/>
    <tag k="maxspeed:source" v="default residential speed limit in Australia"/>
    <tag k="name" v="Victoria Avenue"/>
    <tag k="source" v="survey"/>
  </way>
  <way id="58404782" version="3" timestamp="2011-02-06T18:04:28Z" uid="4467" user="Rosscoe" changeset="7207150">
    <nd ref="35290375"/>
    <nd ref="724170458"/>
    <tag k="highway" v="residential"/>
    <tag k="maxspeed" v="50"/>
    <tag k="maxspeed:source" v="default residential speed limit in Australia"/>
    <tag k="name" v="Victoria Avenue"/>
    <tag k="source" v="survey"/>
  </way>
  <way id="58404782" version="4" timestamp="2011-02-07T11:13:12Z" uid="4467" user="Rosscoe" changeset="7214726">
    <nd ref="35290375"/>
    <nd ref="724170458"/>
    <tag k="highway" v="residential"/>
    <tag k="maxspeed" v="50"/>
    <tag k="name" v="Victoria Avenue"/>
    <tag k="source" v="survey"/>
    <tag k="source:maxspeed" v="default residential speed limit in Australia"/>
  </way>
  <way id="58404782" version="5" timestamp="2012-01-20T07:12:10Z" uid="147510" user="woodpeck_fixbot" changeset="10443281">
    <nd ref="35290375"/>
    <nd ref="724170458"/>
    <tag k="highway" v="residential"/>
    <tag k="name" v="Victoria Avenue"/>
    <tag k="source" v="survey"/>
    <tag k="source:maxspeed" v="default residential speed limit in Australia"/>
  </way>
  <way id="58404785" version="3" timestamp="2010-07-09T03:26:44Z" uid="74617" user="JohnSmith" changeset="5170739">
    <nd ref="724170462"/>
    <nd ref="724170468"/>
    <nd ref="724170441"/>
    <nd ref="724170470"/>
    <nd ref="724170471"/>
    <nd ref="724170472"/>
    <nd ref="724170474"/>
    <nd ref="724170475"/>
    <nd ref="724170476"/>
    <nd ref="724170477"/>
    <nd ref="724170478"/>
    <nd ref="724170479"/>
    <nd ref="724170443"/>
    <nd ref="724170452"/>
    <nd ref="724170480"/>
    <nd ref="724170481"/>
    <nd ref="724170482"/>
    <nd ref="724170484"/>
    <nd ref="724170485"/>
    <nd ref="724170486"/>
    <nd ref="724170487"/>
    <nd ref="724170488"/>
    <nd ref="724170489"/>
    <nd ref="724170490"/>
    <nd ref="724170491"/>
    <nd ref="724170493"/>
    <nd ref="724170494"/>
    <nd ref="724171727"/>
    <nd ref="724170496"/>
    <nd ref="724170497"/>
    <nd ref="319875864"/>
    <tag k="highway" v="residential"/>
    <tag k="maxspeed" v="50"/>
    <tag k="maxspeed:source" v="default residential speed limit in Australia"/>
    <tag k="source" v="nearmap"/>
  </way>
  <way id="58404785" version="4" timestamp="2011-10-22T15:03:02Z" uid="165869" user="chdr" changeset="9624845">
    <nd ref="724170462"/>
    <nd ref="724170468"/>
    <nd ref="724170441"/>
    <nd ref="724170470"/>
    <nd ref="724170471"/>
    <nd ref="724170472"/>
    <nd ref="724170474"/>
    <nd ref="724170475"/>
    <nd ref="724170476"/>
    <nd ref="724170477"/>
    <nd ref="724170478"/>
    <nd ref="724170479"/>
    <nd ref="724170443"/>
    <nd ref="724170452"/>
    <nd ref="724170480"/>
    <nd ref="724170481"/>
    <nd ref="724170482"/>
    <nd ref="724170484"/>
    <nd ref="724170485"/>
    <nd ref="724170486"/>
    <nd ref="724170487"/>
    <nd ref="724170488"/>
    <nd ref="724170489"/>
    <nd ref="724170490"/>
    <nd ref="724170491"/>
    <nd ref="724170493"/>
    <nd ref="724170494"/>
    <nd ref="724171727"/>
    <nd ref="724170496"/>
    <nd ref="724170497"/>
    <nd ref="319875864"/>
    <tag k="highway" v="residential"/>
    <tag k="maxspeed" v="50"/>
    <tag k="maxspeed:source" v="default residential speed limit in Australia"/>
    <tag k="name" v="Gillingham Crescent"/>
    <tag k="source" v="nearmap"/>
  </way>
  <way id="58404785" version="5" timestamp="2012-01-20T07:12:12Z" uid="147510" user="woodpeck_fixbot" changeset="10443281">
    <nd ref="724170462"/>
    <nd ref="724170468"/>
    <nd ref="724170441"/>
    <nd ref="724170470"/>
    <nd ref="724170471"/>
    <nd ref="724170472"/>
    <nd ref="724170474"/>
    <nd ref="724170475"/>
    <nd ref="724170476"/>
    <nd ref="724170477"/>
    <nd ref="724170478"/>
    <nd ref="724170479"/>
    <nd ref="724170443"/>
    <nd ref="724170452"/>
    <nd ref="724170480"/>
    <nd ref="724170481"/>
    <nd ref="724170482"/>
    <nd ref="724170484"/>
    <nd ref="724170485"/>
    <nd ref="724170486"/>
    <nd ref="724170487"/>
    <nd ref="724170488"/>
    <nd ref="724170489"/>
    <nd ref="724170490"/>
    <nd ref="724170491"/>
    <nd ref="724170493"/>
    <nd ref="724170494"/>
    <nd ref="724171727"/>
    <nd ref="724170496"/>
    <nd ref="724170497"/>
    <nd ref="319875864"/>
    <tag k="highway" v="residential"/>
    <tag k="name" v="Gillingham Crescent"/>
    <tag k="source" v="nearmap"/>
  </way>
  <way id="58404787" version="2" timestamp="2010-07-09T03:25:25Z" uid="74617" user="JohnSmith" changeset="5170739">
    <nd ref="724170496"/>
    <nd ref="724170500"/>
    <nd ref="724170501"/>
    <nd ref="724170502"/>
    <tag k="highway" v="residential"/>
    <tag k="maxspeed" v="50"/>
    <tag k="maxspeed:source" v="default residential speed limit in Australia"/>
    <tag k="source" v="nearmap"/>
  </way>
  <way id="58404787" version="3" timestamp="2010-10-16T12:04:43Z" uid="201443" user="stevage" changeset="6056982">
    <nd ref="724170496"/>
    <nd ref="724170500"/>
    <nd ref="724170501"/>
    <nd ref="951467981"/>
    <nd ref="724170502"/>
    <tag k="highway" v="residential"/>
    <tag k="maxspeed" v="50"/>
    <tag k="maxspeed:source" v="default residential speed limit in Australia"/>
    <tag k="source" v="nearmap"/>
  </way>
  <way id="58404787" version="4" timestamp="2011-10-22T15:03:03Z" uid="165869" user="chdr" changeset="9624845">
    <nd ref="724170496"/>
    <nd ref="724170500"/>
    <nd ref="724170501"/>
    <nd ref="951467981"/>
    <nd ref="724170502"/>
    <tag k="highway" v="residential"/>
    <tag k="maxspeed" v="50"/>
    <tag k="maxspeed:source" v="default residential speed limit in Australia"/>
    <tag k="name" v="Hambledon Court"/>
    <tag k="source" v="nearmap"/>
  </way>
  <way id="58404787" version="5" timestamp="2012-01-20T07:12:14Z" uid="147510" user="woodpeck_fixbot" changeset="10443281">
    <nd ref="724170496"/>
    <nd ref="724170500"/>
    <nd ref="724170501"/>
    <nd ref="951467981"/>
    <nd ref="724170502"/>
    <tag k="highway" v="residential"/>
    <tag k="name" v="Hambledon Court"/>
    <tag k="source" v="nearmap"/>
  </way>
  <way id="58404830" version="1" timestamp="2010-05-06T12:36:20Z" uid="115477" user="wowik" changeset="4621215">
    <nd ref="724171025"/>
    <nd ref="428146795"/>
    <nd ref="428147033"/>
    <nd ref="724171027"/>
    <nd ref="724171028"/>
    <nd ref="724171025"/>
    <tag k="addr:city" v="Зеленоград"/>
    <tag k="addr:housenumber" v="426А"/>
    <tag k="addr:street" v="4-й Микрорайон"/>
    <tag k="building" v="yes"/>
    <tag k="building:levels" v="1"/>
    <tag k="is_in" v="Russia"/>
  </way>
  <way id="58404830" version="2" timestamp="2010-05-06T12:37:48Z" uid="115477" user="wowik" changeset="4621215">
    <nd ref="724171025"/>
    <nd ref="428146795"/>
    <nd ref="428147033"/>
    <nd ref="724171027"/>
    <nd ref="724171028"/>
    <nd ref="724171025"/>
    <tag k="addr:city" v="Зеленоград"/>
    <tag k="addr:housenumber" v="426Ас2"/>
    <tag k="addr:street" v="4-й Микрорайон"/>
    <tag k="building" v="yes"/>
    <tag k="building:levels" v="1"/>
    <tag k="is_in" v="Russia"/>
  </way>
  <way id="58404830" version="3" timestamp="2010-11-08T17:30:04Z" uid="115477" user="wowik" changeset="6322246">
    <nd ref="724171025"/>
    <nd ref="428146795"/>
    <nd ref="428147033"/>
    <nd ref="724171027"/>
    <nd ref="724171028"/>
    <nd ref="982638163"/>
    <nd ref="982638144"/>
    <nd ref="724171025"/>
    <tag k="addr:city" v="Зеленоград"/>
    <tag k="addr:housenumber" v="426Ас2"/>
    <tag k="addr:street" v="4-й Микрорайон"/>
    <tag k="building" v="yes"/>
    <tag k="building:levels" v="1"/>
    <tag k="is_in" v="Russia"/>
  </way>
  <way id="58404830" version="4" timestamp="2011-01-19T18:06:07Z" uid="70696" user="xybot" changeset="7022960">
    <nd ref="724171025"/>
    <nd ref="428146795"/>
    <nd ref="428147033"/>
    <nd ref="724171027"/>
    <nd ref="724171028"/>
    <nd ref="982638163"/>
    <nd ref="982638144"/>
    <nd ref="724171025"/>
    <tag k="addr:city" v="Зеленоград"/>
    <tag k="addr:housenumber" v="426А с2"/>
    <tag k="addr:street" v="4-й Микрорайон"/>
    <tag k="building" v="yes"/>
    <tag k="building:levels" v="1"/>
    <tag k="is_in" v="Russia"/>
  </way>
  <way id="58404830" version="5" timestamp="2011-01-28T15:00:19Z" uid="115477" user="wowik" changeset="7113705">
    <nd ref="724171025"/>
    <nd ref="428146795"/>
    <nd ref="1124897626"/>
    <nd ref="428147033"/>
    <nd ref="724171027"/>
    <nd ref="724171028"/>
    <nd ref="982638163"/>
    <nd ref="982638144"/>
    <nd ref="724171025"/>
    <tag k="addr:city" v="Зеленоград"/>
    <tag k="addr:housenumber" v="426А с2"/>
    <tag k="addr:street" v="4-й Микрорайон"/>
    <tag k="building" v="yes"/>
    <tag k="building:levels" v="1"/>
    <tag k="is_in" v="Russia"/>
  </way>
  <way id="58404830" version="6" timestamp="2011-06-07T20:53:59Z" uid="133332" user="AMDmi3" changeset="8374030">
    <nd ref="724171025"/>
    <nd ref="428146795"/>
    <nd ref="1124897626"/>
    <nd ref="428147033"/>
    <nd ref="724171027"/>
    <nd ref="724171028"/>
    <nd ref="982638163"/>
    <nd ref="982638144"/>
    <nd ref="724171025"/>
    <tag k="addr:city" v="Зеленоград"/>
    <tag k="addr:housenumber" v="426А с2"/>
    <tag k="addr:street" v="4-й микрорайон"/>
    <tag k="building" v="yes"/>
    <tag k="building:levels" v="1"/>
    <tag k="is_in" v="Russia"/>
  </way>
  <way id="58404830" version="7" timestamp="2011-09-13T10:26:53Z" uid="29320" user="Komяpa" changeset="9288237">
    <nd ref="724171025"/>
    <nd ref="428146795"/>
    <nd ref="1124897626"/>
    <nd ref="428147033"/>
    <nd ref="724171027"/>
    <nd ref="724171028"/>
    <nd ref="982638163"/>
    <nd ref="982638144"/>
    <nd ref="724171025"/>
    <tag k="addr:city" v="Зеленоград"/>
    <tag k="addr:country" v="RU"/>
    <tag k="addr:housenumber" v="426А с2"/>
    <tag k="addr:street" v="4-й микрорайон"/>
    <tag k="building" v="yes"/>
    <tag k="building:levels" v="1"/>
  </way>
  <way id="58404830" version="8" timestamp="2011-10-28T10:31:59Z" uid="481934" user="iWowik" changeset="9675276">
    <nd ref="724171025"/>
    <nd ref="428146795"/>
    <nd ref="1124897626"/>
    <nd ref="428147033"/>
    <nd ref="724171027"/>
    <nd ref="724171028"/>
    <nd ref="982638163"/>
    <nd ref="982638144"/>
    <nd ref="724171025"/>
    <tag k="addr:city" v="Зеленоград"/>
    <tag k="addr:country" v="RU"/>
    <tag k="addr:housenumber" v="426А с2"/>
    <tag k="addr:street" v="4-й Микрорайон"/>
    <tag k="building" v="yes"/>
    <tag k="building:levels" v="1"/>
  </way>
  <way id="58404830" version="9" timestamp="2011-11-14T20:33:14Z" uid="133332" user="AMDmi3" changeset="9828527">
    <nd ref="724171025"/>
    <nd ref="428146795"/>
    <nd ref="1124897626"/>
    <nd ref="428147033"/>
    <nd ref="724171027"/>
    <nd ref="724171028"/>
    <nd ref="982638163"/>
    <nd ref="982638144"/>
    <nd ref="724171025"/>
    <tag k="addr:city" v="Зеленоград"/>
    <tag k="addr:country" v="RU"/>
    <tag k="addr:housenumber" v="426А с2"/>
    <tag k="addr:street" v="4-й микрорайон"/>
    <tag k="building" v="yes"/>
    <tag k="building:levels" v="1"/>
  </way>
  <way id="58404830" version="10" timestamp="2012-03-14T18:46:47Z" uid="109327" user="OverQuantum" changeset="10980891">
    <nd ref="724171025"/>
    <nd ref="428146795"/>
    <nd ref="1674836445"/>
    <nd ref="1124897626"/>
    <nd ref="428147033"/>
    <nd ref="724171027"/>
    <nd ref="724171028"/>
    <nd ref="982638163"/>
    <nd ref="982638144"/>
    <nd ref="724171025"/>
    <tag k="addr:city" v="Зеленоград"/>
    <tag k="addr:country" v="RU"/>
    <tag k="addr:housenumber" v="426А с2"/>
    <tag k="addr:street" v="4-й микрорайон"/>
    <tag k="building" v="yes"/>
    <tag k="building:levels" v="1"/>
  </way>
  <way id="58404830" version="11" timestamp="2012-03-27T11:43:18Z" uid="481934" user="iWowik" changeset="11115472">
    <nd ref="724171025"/>
    <nd ref="428146795"/>
    <nd ref="1674836445"/>
    <nd ref="1124897626"/>
    <nd ref="428147033"/>
    <nd ref="724171027"/>
    <nd ref="724171028"/>
    <nd ref="982638163"/>
    <nd ref="982638144"/>
    <nd ref="724171025"/>
    <tag k="addr:city" v="Зеленоград"/>
    <tag k="addr:country" v="RU"/>
    <tag k="addr:housenumber" v="426А с2"/>
    <tag k="addr:region" v="Москва"/>
    <tag k="addr:street" v="4-й микрорайон"/>
    <tag k="building" v="yes"/>
    <tag k="building:levels" v="1"/>
  </way>
  <way id="58404831" version="1" timestamp="2010-05-06T12:36:21Z" uid="115477" user="wowik" changeset="4621215">
    <nd ref="724169801"/>
    <nd ref="724171029"/>
    <nd ref="724171030"/>
    <nd ref="724171031"/>
    <nd ref="428146821"/>
    <nd ref="724169801"/>
    <tag k="addr:city" v="Зеленоград"/>
    <tag k="addr:housenumber" v="426А"/>
    <tag k="addr:street" v="4-й Микрорайон"/>
    <tag k="building" v="yes"/>
    <tag k="building:levels" v="1"/>
    <tag k="is_in" v="Russia"/>
    <tag k="shop" v="mall"/>
  </way>
  <way id="58404831" version="2" timestamp="2010-05-06T12:37:48Z" uid="115477" user="wowik" changeset="4621215">
    <nd ref="724169801"/>
    <nd ref="724171029"/>
    <nd ref="724171030"/>
    <nd ref="724171031"/>
    <nd ref="428146821"/>
    <nd ref="724169801"/>
    <tag k="addr:city" v="Зеленоград"/>
    <tag k="addr:housenumber" v="426Ас1"/>
    <tag k="addr:street" v="4-й Микрорайон"/>
    <tag k="building" v="yes"/>
    <tag k="building:levels" v="1"/>
    <tag k="is_in" v="Russia"/>
    <tag k="shop" v="mall"/>
  </way>
  <way id="58404831" version="3" timestamp="2010-11-08T17:30:01Z" uid="115477" user="wowik" changeset="6322246">
    <nd ref="724169801"/>
    <nd ref="982638126"/>
    <nd ref="724171029"/>
    <nd ref="982638151"/>
    <nd ref="724171030"/>
    <nd ref="428146821"/>
    <nd ref="982638154"/>
    <nd ref="724169801"/>
    <tag k="addr:city" v="Зеленоград"/>
    <tag k="addr:housenumber" v="426Ас1"/>
    <tag k="addr:street" v="4-й Микрорайон"/>
    <tag k="building" v="yes"/>
    <tag k="building:levels" v="1"/>
    <tag k="is_in" v="Russia"/>
    <tag k="shop" v="mall"/>
  </way>
  <way id="58404831" version="4" timestamp="2011-01-19T18:06:08Z" uid="70696" user="xybot" changeset="7022960">
    <nd ref="724169801"/>
    <nd ref="982638126"/>
    <nd ref="724171029"/>
    <nd ref="982638151"/>
    <nd ref="724171030"/>
    <nd ref="428146821"/>
    <nd ref="982638154"/>
    <nd ref="724169801"/>
    <tag k="addr:city" v="Зеленоград"/>
    <tag k="addr:housenumber" v="426А с1"/>
    <tag k="addr:street" v="4-й Микрорайон"/>
    <tag k="building" v="yes"/>
    <tag k="building:levels" v="1"/>
    <tag k="is_in" v="Russia"/>
    <tag k="shop" v="mall"/>
  </way>
  <way id="58404831" version="5" timestamp="2011-06-07T20:53:59Z" uid="133332" user="AMDmi3" changeset="8374030">
    <nd ref="724169801"/>
    <nd ref="982638126"/>
    <nd ref="724171029"/>
    <nd ref="982638151"/>
    <nd ref="724171030"/>
    <nd ref="428146821"/>
    <nd ref="982638154"/>
    <nd ref="724169801"/>
    <tag k="addr:city" v="Зеленоград"/>
    <tag k="addr:housenumber" v="426А с1"/>
    <tag k="addr:street" v="4-й микрорайон"/>
    <tag k="building" v="yes"/>
    <tag k="building:levels" v="1"/>
    <tag k="is_in" v="Russia"/>
    <tag k="shop" v="mall"/>
  </way>
  <way id="58404831" version="6" timestamp="2011-09-13T10:26:52Z" uid="29320" user="Komяpa" changeset="9288237">
    <nd ref="724169801"/>
    <nd ref="982638126"/>
    <nd ref="724171029"/>
    <nd ref="982638151"/>
    <nd ref="724171030"/>
    <nd ref="428146821"/>
    <nd ref="982638154"/>
    <nd ref="724169801"/>
    <tag k="addr:city" v="Зеленоград"/>
    <tag k="addr:country" v="RU"/>
    <tag k="addr:housenumber" v="426А с1"/>
    <tag k="addr:street" v="4-й микрорайон"/>
    <tag k="building" v="yes"/>
    <tag k="building:levels" v="1"/>
    <tag k="shop" v="mall"/>
  </way>
  <way id="58404831" version="7" timestamp="2011-10-28T10:31:59Z" uid="481934" user="iWowik" changeset="9675276">
    <nd ref="724169801"/>
    <nd ref="982638126"/>
    <nd ref="724171029"/>
    <nd ref="982638151"/>
    <nd ref="724171030"/>
    <nd ref="428146821"/>
    <nd ref="982638154"/>
    <nd ref="724169801"/>
    <tag k="addr:city" v="Зеленоград"/>
    <tag k="addr:country" v="RU"/>
    <tag k="addr:housenumber" v="426А с1"/>
    <tag k="addr:street" v="4-й Микрорайон"/>
    <tag k="building" v="yes"/>
    <tag k="building:levels" v="1"/>
    <tag k="shop" v="mall"/>
  </way>
  <way id="58404831" version="8" timestamp="2011-11-14T20:33:14Z" uid="133332" user="AMDmi3" changeset="9828527">
    <nd ref="724169801"/>
    <nd ref="982638126"/>
    <nd ref="724171029"/>
    <nd ref="982638151"/>
    <nd ref="724171030"/>
    <nd ref="428146821"/>
    <nd ref="982638154"/>
    <nd ref="724169801"/>
    <tag k="addr:city" v="Зеленоград"/>
    <tag k="addr:country" v="RU"/>
    <tag k="addr:housenumber" v="426А с1"/>
    <tag k="addr:street" v="4-й микрорайон"/>
    <tag k="building" v="yes"/>
    <tag k="building:levels" v="1"/>
    <tag k="shop" v="mall"/>
  </way>
  <way id="58404831" version="9" timestamp="2011-12-12T17:56:35Z" uid="126304" user="TarzanASG" changeset="10100388">
    <nd ref="724169801"/>
    <nd ref="982638126"/>
    <nd ref="724171029"/>
    <nd ref="982638151"/>
    <nd ref="724171030"/>
    <nd ref="428146821"/>
    <nd ref="982638154"/>
    <nd ref="724169801"/>
    <tag k="addr:city" v="Зеленоград"/>
    <tag k="addr:country" v="RU"/>
    <tag k="addr:housenumber" v="426А с1"/>
    <tag k="addr:street" v="4-й микрорайон"/>
    <tag k="building" v="retail"/>
    <tag k="building:levels" v="1"/>
    <tag k="shop" v="mall"/>
  </way>
  <way id="58404831" version="10" timestamp="2011-12-14T13:17:19Z" uid="143266" user="Sergey Astakhov" changeset="10115724">
    <nd ref="724169801"/>
    <nd ref="982638126"/>
    <nd ref="724171029"/>
    <nd ref="982638151"/>
    <nd ref="724171030"/>
    <nd ref="428146821"/>
    <nd ref="982638154"/>
    <nd ref="724169801"/>
    <tag k="addr:city" v="Зеленоград"/>
    <tag k="addr:country" v="RU"/>
    <tag k="addr:housenumber" v="426А с1"/>
    <tag k="addr:street" v="4-й микрорайон"/>
    <tag k="building" v="yes"/>
    <tag k="building:levels" v="1"/>
    <tag k="shop" v="mall"/>
  </way>
  <way id="58404831" version="11" timestamp="2012-03-14T18:46:46Z" uid="109327" user="OverQuantum" changeset="10980891">
    <nd ref="724169801"/>
    <nd ref="982638126"/>
    <nd ref="724171029"/>
    <nd ref="982638151"/>
    <nd ref="724171030"/>
    <nd ref="1674836476"/>
    <nd ref="1674836478"/>
    <nd ref="428146821"/>
    <nd ref="982638154"/>
    <nd ref="724169801"/>
    <tag k="addr:city" v="Зеленоград"/>
    <tag k="addr:country" v="RU"/>
    <tag k="addr:housenumber" v="426А с1"/>
    <tag k="addr:street" v="4-й микрорайон"/>
    <tag k="building" v="yes"/>
    <tag k="building:levels" v="1"/>
    <tag k="shop" v="mall"/>
  </way>
  <way id="58404831" version="12" timestamp="2012-03-27T11:43:18Z" uid="481934" user="iWowik" changeset="11115472">
    <nd ref="724169801"/>
    <nd ref="982638126"/>
    <nd ref="724171029"/>
    <nd ref="982638151"/>
    <nd ref="724171030"/>
    <nd ref="1674836476"/>
    <nd ref="1674836478"/>
    <nd ref="428146821"/>
    <nd ref="982638154"/>
    <nd ref="724169801"/>
    <tag k="addr:city" v="Зеленоград"/>
    <tag k="addr:country" v="RU"/>
    <tag k="addr:housenumber" v="426А с1"/>
    <tag k="addr:region" v="Москва"/>
    <tag k="addr:street" v="4-й микрорайон"/>
    <tag k="building" v="yes"/>
    <tag k="building:levels" v="1"/>
    <tag k="shop" v="mall"/>
  </way>
  <way id="58404832" version="1" timestamp="2010-05-06T12:36:21Z" uid="115477" user="wowik" changeset="4621215">
    <nd ref="724171030"/>
    <nd ref="724171028"/>
    <tag k="barrier" v="wall"/>
  </way>
  <way id="58404906" version="2" timestamp="2010-07-09T03:32:05Z" uid="74617" user="JohnSmith" changeset="5170739">
    <nd ref="724170485"/>
    <nd ref="724171724"/>
    <tag k="highway" v="residential"/>
    <tag k="maxspeed" v="50"/>
    <tag k="maxspeed:source" v="default residential speed limit in Australia"/>
    <tag k="source" v="nearmap"/>
  </way>
  <way id="58404906" version="3" timestamp="2011-10-22T15:02:37Z" uid="165869" user="chdr" changeset="9624845">
    <nd ref="724170485"/>
    <nd ref="724171724"/>
    <tag k="highway" v="residential"/>
    <tag k="maxspeed" v="50"/>
    <tag k="maxspeed:source" v="default residential speed limit in Australia"/>
    <tag k="name" v="Donat Court"/>
    <tag k="source" v="nearmap"/>
  </way>
  <way id="58404906" version="4" timestamp="2012-01-20T07:12:16Z" uid="147510" user="woodpeck_fixbot" changeset="10443281">
    <nd ref="724170485"/>
    <nd ref="724171724"/>
    <tag k="highway" v="residential"/>
    <tag k="name" v="Donat Court"/>
    <tag k="source" v="nearmap"/>
  </way>
  <way id="58404910" version="2" timestamp="2010-07-09T03:29:27Z" uid="74617" user="JohnSmith" changeset="5170739">
    <nd ref="724170477"/>
    <nd ref="724171725"/>
    <tag k="highway" v="residential"/>
    <tag k="maxspeed" v="50"/>
    <tag k="maxspeed:source" v="default residential speed limit in Australia"/>
    <tag k="source" v="nearmap"/>
  </way>
  <way id="58404910" version="3" timestamp="2011-10-22T15:02:37Z" uid="165869" user="chdr" changeset="9624845">
    <nd ref="724170477"/>
    <nd ref="724171725"/>
    <tag k="highway" v="residential"/>
    <tag k="maxspeed" v="50"/>
    <tag k="maxspeed:source" v="default residential speed limit in Australia"/>
    <tag k="name" v="Lydd Court"/>
    <tag k="source" v="nearmap"/>
  </way>
  <way id="58404910" version="4" timestamp="2012-01-20T07:12:17Z" uid="147510" user="woodpeck_fixbot" changeset="10443281">
    <nd ref="724170477"/>
    <nd ref="724171725"/>
    <tag k="highway" v="residential"/>
    <tag k="name" v="Lydd Court"/>
    <tag k="source" v="nearmap"/>
  </way>
  <way id="58404914" version="2" timestamp="2010-07-09T03:30:42Z" uid="74617" user="JohnSmith" changeset="5170739">
    <nd ref="724171727"/>
    <nd ref="724171728"/>
    <nd ref="724171729"/>
    <nd ref="724171732"/>
    <nd ref="724171733"/>
    <tag k="highway" v="residential"/>
    <tag k="maxspeed" v="50"/>
    <tag k="maxspeed:source" v="default residential speed limit in Australia"/>
    <tag k="source" v="nearmap"/>
  </way>
  <way id="58404914" version="3" timestamp="2011-10-22T15:02:38Z" uid="165869" user="chdr" changeset="9624845">
    <nd ref="724171727"/>
    <nd ref="724171728"/>
    <nd ref="724171729"/>
    <nd ref="724171732"/>
    <nd ref="724171733"/>
    <tag k="highway" v="residential"/>
    <tag k="maxspeed" v="50"/>
    <tag k="maxspeed:source" v="default residential speed limit in Australia"/>
    <tag k="name" v="Falmer Place"/>
    <tag k="source" v="nearmap"/>
  </way>
  <way id="58404914" version="4" timestamp="2012-01-20T07:12:18Z" uid="147510" user="woodpeck_fixbot" changeset="10443281">
    <nd ref="724171727"/>
    <nd ref="724171728"/>
    <nd ref="724171729"/>
    <nd ref="724171732"/>
    <nd ref="724171733"/>
    <tag k="highway" v="residential"/>
    <tag k="name" v="Falmer Place"/>
    <tag k="source" v="nearmap"/>
  </way>
  <way id="58404917" version="2" timestamp="2010-07-09T03:32:59Z" uid="74617" user="JohnSmith" changeset="5170739">
    <nd ref="724170491"/>
    <nd ref="724171738"/>
    <tag k="highway" v="residential"/>
    <tag k="maxspeed" v="50"/>
    <tag k="maxspeed:source" v="default residential speed limit in Australia"/>
    <tag k="source" v="nearmap"/>
  </way>
  <way id="58404917" version="3" timestamp="2011-10-22T15:02:38Z" uid="165869" user="chdr" changeset="9624845">
    <nd ref="724170491"/>
    <nd ref="724171738"/>
    <tag k="highway" v="residential"/>
    <tag k="maxspeed" v="50"/>
    <tag k="maxspeed:source" v="default residential speed limit in Australia"/>
    <tag k="name" v="Ealing Close"/>
    <tag k="source" v="nearmap"/>
  </way>
  <way id="58404917" version="4" timestamp="2012-01-20T07:12:19Z" uid="147510" user="woodpeck_fixbot" changeset="10443281">
    <nd ref="724170491"/>
    <nd ref="724171738"/>
    <tag k="highway" v="residential"/>
    <tag k="name" v="Ealing Close"/>
    <tag k="source" v="nearmap"/>
  </way>
  <way id="58404951" version="4" timestamp="2010-07-09T03:28:46Z" uid="74617" user="JohnSmith" changeset="5170739">
    <nd ref="319875365"/>
    <nd ref="724173567"/>
    <nd ref="724171744"/>
    <nd ref="724171746"/>
    <nd ref="724171747"/>
    <nd ref="724173226"/>
    <nd ref="724171750"/>
    <nd ref="724171753"/>
    <nd ref="724171757"/>
    <nd ref="724171758"/>
    <nd ref="724171769"/>
    <nd ref="724171772"/>
    <nd ref="724171773"/>
    <nd ref="724171775"/>
    <nd ref="724171776"/>
    <nd ref="724171778"/>
    <nd ref="724171779"/>
    <nd ref="724170438"/>
    <tag k="highway" v="residential"/>
    <tag k="maxspeed" v="50"/>
    <tag k="maxspeed:source" v="default residential speed limit in Australia"/>
    <tag k="source" v="nearmap"/>
  </way>
  <way id="58404951" version="5" timestamp="2011-10-22T15:02:39Z" uid="165869" user="chdr" changeset="9624845">
    <nd ref="319875365"/>
    <nd ref="724173567"/>
    <nd ref="724171744"/>
    <nd ref="724171746"/>
    <nd ref="724171747"/>
    <nd ref="724173226"/>
    <nd ref="724171750"/>
    <nd ref="724171753"/>
    <nd ref="724171757"/>
    <nd ref="724171758"/>
    <nd ref="724171769"/>
    <nd ref="724171772"/>
    <nd ref="724171773"/>
    <nd ref="724171775"/>
    <nd ref="724171776"/>
    <nd ref="724171778"/>
    <nd ref="724171779"/>
    <nd ref="724170438"/>
    <tag k="highway" v="residential"/>
    <tag k="maxspeed" v="50"/>
    <tag k="maxspeed:source" v="default residential speed limit in Australia"/>
    <tag k="name" v="Axminster Drive"/>
    <tag k="source" v="nearmap"/>
  </way>
  <way id="58404951" version="6" timestamp="2012-01-20T07:12:20Z" uid="147510" user="woodpeck_fixbot" changeset="10443281">
    <nd ref="319875365"/>
    <nd ref="724173567"/>
    <nd ref="724171744"/>
    <nd ref="724171746"/>
    <nd ref="724171747"/>
    <nd ref="724173226"/>
    <nd ref="724171750"/>
    <nd ref="724171753"/>
    <nd ref="724171757"/>
    <nd ref="724171758"/>
    <nd ref="724171769"/>
    <nd ref="724171772"/>
    <nd ref="724171773"/>
    <nd ref="724171775"/>
    <nd ref="724171776"/>
    <nd ref="724171778"/>
    <nd ref="724171779"/>
    <nd ref="724170438"/>
    <tag k="highway" v="residential"/>
    <tag k="name" v="Axminster Drive"/>
    <tag k="source" v="nearmap"/>
  </way>
</osm>
