<?xml version='1.0' encoding='UTF-8'?>
<osm version="0.6" generator="libosmium/2.20.0">
  <way id="58408016" version="2" timestamp="2010-07-09T06:47:28Z" uid="74617" user="JohnSmith" changeset="5171134">
    <nd ref="724175358"/>
    <nd ref="360047450"/>
    <nd ref="724175323"/>
    <tag k="construction" v="yes"/>
    <tag k="highway" v="residential"/>
    <tag k="maxspeed" v="50"/>
    <tag k="maxspeed:source" v="default residential speed limit in Australia"/>
    <tag k="source" v="nearmap"/>
  </way>
  <way id="58408016" version="3" timestamp="2010-07-10T13:50:57Z" uid="150488" user="ralmin" changeset="5182740">
    <nd ref="724175358"/>
    <nd ref="360047450"/>
    <tag k="construction" v="yes"/>
    <tag k="highway" v="residential"/>
    <tag k="maxspeed" v="50"/>
    <tag k="maxspeed:source" v="default residential speed limit in Australia"/>
    <tag k="source" v="nearmap"/>
  </way>
  <way id="58408016" version="4" timestamp="2010-09-06T02:41:54Z" uid="341547" user="PortBoy" changeset="5694091">
    <nd ref="724175358"/>
    <nd ref="360047450"/>
    <tag k="construction" v="yes"/>
    <tag k="highway" v="residential"/>
    <tag k="maxspeed" v="50"/>
    <tag k="maxspeed:source" v="default residential speed limit in Australia"/>
    <tag k="name" v="Ely Street"/>
    <tag k="source" v="nearmap"/>
    <tag k="source:name" v="developer_newsletter"/>
  </way>
  <way id="58408016" version="5" timestamp="2010-09-09T12:34:14Z" uid="150488" user="ralmin" changeset="5732198"/>
  <way id="58408275" version="1" timestamp="2010-05-06T12:46:12Z" uid="115477" user="wowik" changeset="4621337">
    <nd ref="724175724"/>
    <nd ref="724175725"/>
    <nd ref="724175726"/>
    <nd ref="724175727"/>
    <nd ref="724175729"/>
    <nd ref="724175724"/>
    <tag k="leisure" v="playground"/>
  </way>
  <way id="58408319" version="4" timestamp="2010-07-08T16:56:07Z" uid="74617" user="JohnSmith" changeset="5167338">
    <nd ref="724176730"/>
    <nd ref="724176364"/>
    <tag k="highway" v="residential"/>
    <tag k="maxspeed" v="50"/>
    <tag k="maxspeed:source" v="default residential speed limit in Australia"/>
    <tag k="name" v="White Avenue"/>
    <tag k="oneway" v="yes"/>
    <tag k="source" v="survey"/>
  </way>
  <way id="58408319" version="5" timestamp="2011-02-07T11:12:26Z" uid="4467" user="Rosscoe" changeset="7214726">
    <nd ref="724176730"/>
    <nd ref="724176364"/>
    <tag k="highway" v="residential"/>
    <tag k="maxspeed" v="50"/>
    <tag k="name" v="White Avenue"/>
    <tag k="oneway" v="yes"/>
    <tag k="source" v="survey"/>
    <tag k="source:maxspeed" v="default residential speed limit in Australia"/>
  </way>
  <way id="58408319" version="6" timestamp="2011-08-29T19:40:20Z" uid="379724" user="bugman" changeset="9161198">
    <nd ref="1139485003"/>
    <nd ref="724176368"/>
    <nd ref="724176730"/>
    <nd ref="724176364"/>
    <tag k="highway" v="residential"/>
    <tag k="maxspeed" v="50"/>
    <tag k="name" v="White Avenue"/>
    <tag k="source" v="survey"/>
    <tag k="source:maxspeed" v="default residential speed limit in Australia"/>
  </way>
  <way id="58408319" version="7" timestamp="2012-01-20T07:12:42Z" uid="147510" user="woodpeck_fixbot" changeset="10443281">
    <nd ref="1139485003"/>
    <nd ref="724176368"/>
    <nd ref="724176730"/>
    <nd ref="724176364"/>
    <tag k="highway" v="residential"/>
    <tag k="name" v="White Avenue"/>
    <tag k="source" v="survey"/>
    <tag k="source:maxspeed" v="default residential speed limit in Australia"/>
  </way>
  <way id="58408329" version="2" timestamp="2010-07-08T16:55:07Z" uid="74617" user="JohnSmith" changeset="5167338">
    <nd ref="724176728"/>
    <nd ref="724176730"/>
    <tag k="highway" v="residential"/>
    <tag k="maxspeed" v="50"/>
    <tag k="maxspeed:source" v="default residential speed limit in Australia"/>
    <tag k="name" v="Buckingham Street"/>
    <tag k="source" v="survey"/>
  </way>
  <way id="58408329" version="3" timestamp="2011-02-07T11:15:12Z" uid="4467" user="Rosscoe" changeset="7214726">
    <nd ref="724176728"/>
    <nd ref="724176730"/>
    <tag k="highway" v="residential"/>
    <tag k="maxspeed" v="50"/>
    <tag k="name" v="Buckingham Street"/>
    <tag k="source" v="survey"/>
    <tag k="source:maxspeed" v="default residential speed limit in Australia"/>
  </way>
  <way id="58408329" version="4" timestamp="2012-01-20T07:12:43Z" uid="147510" user="woodpeck_fixbot" changeset="10443281">
    <nd ref="724176728"/>
    <nd ref="724176730"/>
    <tag k="highway" v="residential"/>
    <tag k="name" v="Buckingham Street"/>
    <tag k="source" v="survey"/>
    <tag k="source:maxspeed" v="default residential speed limit in Australia"/>
  </way>
  <way id="58408345" version="3" timestamp="2010-07-08T16:56:37Z" uid="74617" user="JohnSmith" changeset="5167338">
    <nd ref="724176831"/>
    <nd ref="724176833"/>
    <nd ref="724176834"/>
    <nd ref="724176368"/>
    <nd ref="724177198"/>
    <nd ref="724176835"/>
    <nd ref="724176836"/>
    <tag k="highway" v="residential"/>
    <tag k="maxspeed" v="50"/>
    <tag k="maxspeed:source" v="default residential speed limit in Australia"/>
    <tag k="name" v="Sturt Street sevice road"/>
    <tag k="source" v="survey"/>
  </way>
  <way id="58408345" version="4" timestamp="2010-12-04T23:34:31Z" uid="379724" user="bugman" changeset="6545516">
    <nd ref="724176831"/>
    <nd ref="724176833"/>
    <nd ref="724176834"/>
    <nd ref="724176368"/>
    <nd ref="724177198"/>
    <nd ref="724176835"/>
    <nd ref="724176836"/>
    <nd ref="724176836"/>
    <nd ref="724178143"/>
    <tag k="highway" v="residential"/>
    <tag k="maxspeed" v="50"/>
    <tag k="maxspeed:source" v="default residential speed limit in Australia"/>
    <tag k="name" v="Sturt Street sevice road"/>
    <tag k="source" v="survey"/>
  </way>
  <way id="58408345" version="5" timestamp="2010-12-05T20:12:34Z" uid="70696" user="xybot" changeset="6555693">
    <nd ref="724176831"/>
    <nd ref="724176833"/>
    <nd ref="724176834"/>
    <nd ref="724176368"/>
    <nd ref="724177198"/>
    <nd ref="724176835"/>
    <nd ref="724176836"/>
    <nd ref="724178143"/>
    <tag k="highway" v="residential"/>
    <tag k="maxspeed" v="50"/>
    <tag k="maxspeed:source" v="default residential speed limit in Australia"/>
    <tag k="name" v="Sturt Street sevice road"/>
    <tag k="source" v="survey"/>
  </way>
  <way id="58408345" version="6" timestamp="2011-02-06T18:05:13Z" uid="4467" user="Rosscoe" changeset="7207150">
    <nd ref="724176831"/>
    <nd ref="724176833"/>
    <nd ref="724176834"/>
    <nd ref="724176368"/>
    <nd ref="724177198"/>
    <nd ref="724176836"/>
    <nd ref="724178143"/>
    <tag k="highway" v="residential"/>
    <tag k="maxspeed" v="50"/>
    <tag k="maxspeed:source" v="default residential speed limit in Australia"/>
    <tag k="name" v="Sturt Street sevice road"/>
    <tag k="source" v="survey"/>
  </way>
  <way id="58408345" version="7" timestamp="2011-02-07T11:11:09Z" uid="4467" user="Rosscoe" changeset="7214726">
    <nd ref="724176831"/>
    <nd ref="724176833"/>
    <nd ref="724176834"/>
    <nd ref="724176368"/>
    <nd ref="724177198"/>
    <nd ref="724176836"/>
    <nd ref="724178143"/>
    <tag k="highway" v="residential"/>
    <tag k="maxspeed" v="50"/>
    <tag k="name" v="Sturt Street sevice road"/>
    <tag k="source" v="survey"/>
    <tag k="source:maxspeed" v="default residential speed limit in Australia"/>
  </way>
  <way id="58408345" version="8" timestamp="2011-09-15T07:04:10Z" uid="379724" user="bugman" changeset="9305310">
    <nd ref="724176831"/>
    <nd ref="724176833"/>
    <nd ref="724176834"/>
    <nd ref="724176368"/>
    <nd ref="724177198"/>
    <nd ref="724176836"/>
    <nd ref="724178143"/>
    <tag k="highway" v="service"/>
    <tag k="maxspeed" v="50"/>
    <tag k="name" v="Sturt Street sevice road"/>
    <tag k="source" v="survey"/>
    <tag k="source:maxspeed" v="default residential speed limit in Australia"/>
  </way>
  <way id="58408345" version="9" timestamp="2012-01-20T07:12:44Z" uid="147510" user="woodpeck_fixbot" changeset="10443281">
    <nd ref="724176831"/>
    <nd ref="724176833"/>
    <nd ref="724176834"/>
    <nd ref="724176368"/>
    <nd ref="724177198"/>
    <nd ref="724176836"/>
    <nd ref="724178143"/>
    <tag k="highway" v="service"/>
    <tag k="name" v="Sturt Street sevice road"/>
    <tag k="source" v="survey"/>
    <tag k="source:maxspeed" v="default residential speed limit in Australia"/>
  </way>
  <way id="58408345" version="10" timestamp="2012-02-01T16:13:59Z" uid="379724" user="bugman" changeset="10560016">
    <nd ref="724176831"/>
    <nd ref="724176833"/>
    <nd ref="724176834"/>
    <nd ref="724176368"/>
    <nd ref="724177198"/>
    <tag k="highway" v="service"/>
    <tag k="name" v="Sturt Street service road"/>
    <tag k="oneway" v="yes"/>
    <tag k="source" v="survey"/>
    <tag k="source:maxspeed" v="default residential speed limit in Australia"/>
  </way>
  <way id="58408375" version="2" timestamp="2010-07-08T16:54:54Z" uid="74617" user="JohnSmith" changeset="5167338">
    <nd ref="724177196"/>
    <nd ref="724177198"/>
    <tag k="highway" v="residential"/>
    <tag k="maxspeed" v="50"/>
    <tag k="maxspeed:source" v="default residential speed limit in Australia"/>
    <tag k="name" v="Dawsons Avenue"/>
    <tag k="source" v="survey"/>
  </way>
  <way id="58408375" version="3" timestamp="2011-02-06T18:03:34Z" uid="4467" user="Rosscoe" changeset="7207150">
    <nd ref="724177196"/>
    <nd ref="1139483462"/>
    <nd ref="724177198"/>
    <nd ref="1139483630"/>
    <tag k="highway" v="residential"/>
    <tag k="maxspeed" v="50"/>
    <tag k="maxspeed:source" v="default residential speed limit in Australia"/>
    <tag k="name" v="Dawsons Avenue"/>
    <tag k="source" v="survey"/>
  </way>
  <way id="58408375" version="4" timestamp="2011-02-07T11:14:54Z" uid="4467" user="Rosscoe" changeset="7214726">
    <nd ref="724177196"/>
    <nd ref="1139483462"/>
    <nd ref="724177198"/>
    <nd ref="1139483630"/>
    <tag k="highway" v="residential"/>
    <tag k="maxspeed" v="50"/>
    <tag k="name" v="Dawsons Avenue"/>
    <tag k="source" v="survey"/>
    <tag k="source:maxspeed" v="default residential speed limit in Australia"/>
  </way>
  <way id="58408375" version="5" timestamp="2012-01-20T07:12:45Z" uid="147510" user="woodpeck_fixbot" changeset="10443281">
    <nd ref="724177196"/>
    <nd ref="1139483462"/>
    <nd ref="724177198"/>
    <nd ref="1139483630"/>
    <tag k="highway" v="residential"/>
    <tag k="name" v="Dawsons Avenue"/>
    <tag k="source" v="survey"/>
    <tag k="source:maxspeed" v="default residential speed limit in Australia"/>
  </way>
  <way id="58408393" version="2" timestamp="2010-07-08T16:54:37Z" uid="74617" user="JohnSmith" changeset="5167338">
    <nd ref="724176730"/>
    <nd ref="724176368"/>
    <tag k="highway" v="residential"/>
    <tag k="maxspeed" v="50"/>
    <tag k="maxspeed:source" v="default residential speed limit in Australia"/>
    <tag k="name" v="White Avenue"/>
    <tag k="source" v="survey"/>
  </way>
  <way id="58408393" version="3" timestamp="2011-02-06T18:06:34Z" uid="4467" user="Rosscoe" changeset="7207150">
    <nd ref="724176730"/>
    <nd ref="724176368"/>
    <nd ref="1139485003"/>
    <tag k="highway" v="residential"/>
    <tag k="maxspeed" v="50"/>
    <tag k="maxspeed:source" v="default residential speed limit in Australia"/>
    <tag k="name" v="White Avenue"/>
    <tag k="source" v="survey"/>
  </way>
  <way id="58408393" version="4" timestamp="2011-02-07T11:14:47Z" uid="4467" user="Rosscoe" changeset="7214726">
    <nd ref="724176730"/>
    <nd ref="724176368"/>
    <nd ref="1139485003"/>
    <tag k="highway" v="residential"/>
    <tag k="maxspeed" v="50"/>
    <tag k="name" v="White Avenue"/>
    <tag k="source" v="survey"/>
    <tag k="source:maxspeed" v="default residential speed limit in Australia"/>
  </way>
  <way id="58408393" version="5" timestamp="2011-08-29T19:40:20Z" uid="379724" user="bugman" changeset="9161198"/>
  <way id="58408401" version="3" timestamp="2010-07-08T16:55:30Z" uid="74617" user="JohnSmith" changeset="5167338">
    <nd ref="363996925"/>
    <nd ref="724178143"/>
    <nd ref="724177416"/>
    <tag k="highway" v="residential"/>
    <tag k="maxspeed" v="50"/>
    <tag k="maxspeed:source" v="default residential speed limit in Australia"/>
    <tag k="name" v="Alfred Street North"/>
    <tag k="source" v="survey"/>
  </way>
  <way id="58408401" version="4" timestamp="2011-02-06T18:06:57Z" uid="4467" user="Rosscoe" changeset="7207150"/>
  <way id="58408431" version="3" timestamp="2010-07-08T16:56:17Z" uid="74617" user="JohnSmith" changeset="5167338">
    <nd ref="724177764"/>
    <nd ref="724179491"/>
    <nd ref="724177766"/>
    <tag k="highway" v="residential"/>
    <tag k="maxspeed" v="50"/>
    <tag k="maxspeed:source" v="default residential speed limit in Australia"/>
    <tag k="name" v="Service Street"/>
    <tag k="source" v="survey"/>
  </way>
  <way id="58408431" version="4" timestamp="2011-02-07T11:15:11Z" uid="4467" user="Rosscoe" changeset="7214726">
    <nd ref="724177764"/>
    <nd ref="724179491"/>
    <nd ref="724177766"/>
    <tag k="highway" v="residential"/>
    <tag k="maxspeed" v="50"/>
    <tag k="name" v="Service Street"/>
    <tag k="source" v="survey"/>
    <tag k="source:maxspeed" v="default residential speed limit in Australia"/>
  </way>
  <way id="58408431" version="5" timestamp="2012-01-20T07:12:47Z" uid="147510" user="woodpeck_fixbot" changeset="10443281">
    <nd ref="724177764"/>
    <nd ref="724179491"/>
    <nd ref="724177766"/>
    <tag k="highway" v="residential"/>
    <tag k="name" v="Service Street"/>
    <tag k="source" v="survey"/>
    <tag k="source:maxspeed" v="default residential speed limit in Australia"/>
  </way>
  <way id="58408471" version="2" timestamp="2010-07-08T16:55:16Z" uid="74617" user="JohnSmith" changeset="5167338">
    <nd ref="724178143"/>
    <nd ref="724177766"/>
    <nd ref="724178147"/>
    <nd ref="724178148"/>
    <nd ref="724178145"/>
    <nd ref="724178149"/>
    <nd ref="724178150"/>
    <nd ref="724178151"/>
    <nd ref="724178142"/>
    <tag k="highway" v="residential"/>
    <tag k="maxspeed" v="50"/>
    <tag k="maxspeed:source" v="default residential speed limit in Australia"/>
    <tag k="name" v="Sturt Street service road"/>
    <tag k="source" v="survey"/>
  </way>
  <way id="58408471" version="3" timestamp="2011-02-07T11:10:45Z" uid="4467" user="Rosscoe" changeset="7214726">
    <nd ref="724178143"/>
    <nd ref="724177766"/>
    <nd ref="724178147"/>
    <nd ref="724178148"/>
    <nd ref="724178145"/>
    <nd ref="724178149"/>
    <nd ref="724178150"/>
    <nd ref="724178151"/>
    <nd ref="724178142"/>
    <tag k="highway" v="residential"/>
    <tag k="maxspeed" v="50"/>
    <tag k="name" v="Sturt Street service road"/>
    <tag k="source" v="survey"/>
    <tag k="source:maxspeed" v="default residential speed limit in Australia"/>
  </way>
  <way id="58408471" version="4" timestamp="2011-09-15T07:04:11Z" uid="379724" user="bugman" changeset="9305310">
    <nd ref="724178143"/>
    <nd ref="724177766"/>
    <nd ref="724178147"/>
    <nd ref="724178148"/>
    <nd ref="724178145"/>
    <nd ref="724178149"/>
    <nd ref="724178150"/>
    <nd ref="724178151"/>
    <nd ref="724178142"/>
    <tag k="highway" v="service"/>
    <tag k="maxspeed" v="50"/>
    <tag k="name" v="Sturt Street service road"/>
    <tag k="source" v="survey"/>
    <tag k="source:maxspeed" v="default residential speed limit in Australia"/>
  </way>
  <way id="58408471" version="5" timestamp="2012-01-20T07:12:49Z" uid="147510" user="woodpeck_fixbot" changeset="10443281">
    <nd ref="724178143"/>
    <nd ref="724177766"/>
    <nd ref="724178147"/>
    <nd ref="724178148"/>
    <nd ref="724178145"/>
    <nd ref="724178149"/>
    <nd ref="724178150"/>
    <nd ref="724178151"/>
    <nd ref="724178142"/>
    <tag k="highway" v="service"/>
    <tag k="name" v="Sturt Street service road"/>
    <tag k="source" v="survey"/>
    <tag k="source:maxspeed" v="default residential speed limit in Australia"/>
  </way>
  <way id="58408471" version="6" timestamp="2012-02-01T16:13:58Z" uid="379724" user="bugman" changeset="10560016">
    <nd ref="1614364299"/>
    <nd ref="1614364300"/>
    <tag k="highway" v="service"/>
    <tag k="name" v="Sturt Street service road"/>
    <tag k="source" v="survey"/>
    <tag k="source:maxspeed" v="default residential speed limit in Australia"/>
  </way>
  <way id="58408472" version="2" timestamp="2010-07-08T16:56:22Z" uid="74617" user="JohnSmith" changeset="5167338">
    <nd ref="724178149"/>
    <nd ref="724178220"/>
    <tag k="highway" v="residential"/>
    <tag k="maxspeed" v="50"/>
    <tag k="maxspeed:source" v="default residential speed limit in Australia"/>
    <tag k="name" v="Tennis Street"/>
    <tag k="source" v="survey"/>
  </way>
  <way id="58408472" version="3" timestamp="2011-02-06T18:05:26Z" uid="4467" user="Rosscoe" changeset="7207150">
    <nd ref="1139483526"/>
    <nd ref="724178149"/>
    <nd ref="724178220"/>
    <tag k="highway" v="residential"/>
    <tag k="maxspeed" v="50"/>
    <tag k="maxspeed:source" v="default residential speed limit in Australia"/>
    <tag k="name" v="Tennis Street"/>
    <tag k="source" v="survey"/>
  </way>
  <way id="58408472" version="4" timestamp="2011-02-07T11:13:22Z" uid="4467" user="Rosscoe" changeset="7214726">
    <nd ref="1139483526"/>
    <nd ref="724178149"/>
    <nd ref="724178220"/>
    <tag k="highway" v="residential"/>
    <tag k="maxspeed" v="50"/>
    <tag k="name" v="Tennis Street"/>
    <tag k="source" v="survey"/>
    <tag k="source:maxspeed" v="default residential speed limit in Australia"/>
  </way>
  <way id="58408472" version="5" timestamp="2011-08-17T20:05:11Z" uid="379724" user="bugman" changeset="9050899">
    <nd ref="1139483526"/>
    <nd ref="724178149"/>
    <nd ref="1402642082"/>
    <nd ref="724178220"/>
    <tag k="highway" v="residential"/>
    <tag k="maxspeed" v="50"/>
    <tag k="name" v="Tennis Street"/>
    <tag k="source" v="survey"/>
    <tag k="source:maxspeed" v="default residential speed limit in Australia"/>
  </way>
  <way id="58408472" version="6" timestamp="2011-08-29T19:47:45Z" uid="379724" user="bugman" changeset="9161266">
    <nd ref="1139483526"/>
    <nd ref="724178149"/>
    <nd ref="1417491866"/>
    <nd ref="1402642082"/>
    <nd ref="724178220"/>
    <tag k="highway" v="residential"/>
    <tag k="maxspeed" v="50"/>
    <tag k="name" v="Tennis Street"/>
    <tag k="source" v="survey"/>
    <tag k="source:maxspeed" v="default residential speed limit in Australia"/>
  </way>
  <way id="58408472" version="7" timestamp="2012-01-20T07:12:51Z" uid="147510" user="woodpeck_fixbot" changeset="10443281">
    <nd ref="1139483526"/>
    <nd ref="724178149"/>
    <nd ref="1417491866"/>
    <nd ref="1402642082"/>
    <nd ref="724178220"/>
    <tag k="highway" v="residential"/>
    <tag k="name" v="Tennis Street"/>
    <tag k="source" v="survey"/>
    <tag k="source:maxspeed" v="default residential speed limit in Australia"/>
  </way>
  <way id="58408560" version="2" timestamp="2010-07-08T16:54:51Z" uid="74617" user="JohnSmith" changeset="5167338">
    <nd ref="724178403"/>
    <nd ref="724178148"/>
    <tag k="highway" v="residential"/>
    <tag k="maxspeed" v="50"/>
    <tag k="maxspeed:source" v="default residential speed limit in Australia"/>
    <tag k="name" v="Elliott Street"/>
    <tag k="source" v="survey"/>
  </way>
  <way id="58408560" version="3" timestamp="2011-02-06T18:06:53Z" uid="4467" user="Rosscoe" changeset="7207150">
    <nd ref="724178403"/>
    <nd ref="724178148"/>
    <nd ref="1139484163"/>
    <nd ref="1139484732"/>
    <tag k="highway" v="residential"/>
    <tag k="maxspeed" v="50"/>
    <tag k="maxspeed:source" v="default residential speed limit in Australia"/>
    <tag k="name" v="Elliott Street"/>
    <tag k="source" v="survey"/>
  </way>
  <way id="58408560" version="4" timestamp="2011-02-07T11:13:50Z" uid="4467" user="Rosscoe" changeset="7214726">
    <nd ref="724178403"/>
    <nd ref="724178148"/>
    <nd ref="1139484163"/>
    <nd ref="1139484732"/>
    <tag k="highway" v="residential"/>
    <tag k="maxspeed" v="50"/>
    <tag k="name" v="Elliott Street"/>
    <tag k="source" v="survey"/>
    <tag k="source:maxspeed" v="default residential speed limit in Australia"/>
  </way>
  <way id="58408560" version="5" timestamp="2012-01-20T07:12:55Z" uid="147510" user="woodpeck_fixbot" changeset="10443281">
    <nd ref="724178403"/>
    <nd ref="724178148"/>
    <nd ref="1139484163"/>
    <nd ref="1139484732"/>
    <tag k="highway" v="residential"/>
    <tag k="name" v="Elliott Street"/>
    <tag k="source" v="survey"/>
    <tag k="source:maxspeed" v="default residential speed limit in Australia"/>
  </way>
  <way id="58408782" version="2" timestamp="2010-07-08T16:55:37Z" uid="74617" user="JohnSmith" changeset="5167338">
    <nd ref="724178617"/>
    <nd ref="724178147"/>
    <tag k="highway" v="residential"/>
    <tag k="maxspeed" v="50"/>
    <tag k="maxspeed:source" v="default residential speed limit in Australia"/>
    <tag k="name" v="Parker Street"/>
    <tag k="source" v="undefined"/>
  </way>
  <way id="58408782" version="3" timestamp="2011-02-06T18:03:37Z" uid="4467" user="Rosscoe" changeset="7207150">
    <nd ref="724178617"/>
    <nd ref="724178147"/>
    <nd ref="1139484019"/>
    <tag k="highway" v="residential"/>
    <tag k="maxspeed" v="50"/>
    <tag k="maxspeed:source" v="default residential speed limit in Australia"/>
    <tag k="name" v="Parker Street"/>
    <tag k="source" v="undefined"/>
  </way>
  <way id="58408782" version="4" timestamp="2011-02-07T11:12:32Z" uid="4467" user="Rosscoe" changeset="7214726">
    <nd ref="724178617"/>
    <nd ref="724178147"/>
    <nd ref="1139484019"/>
    <tag k="highway" v="residential"/>
    <tag k="maxspeed" v="50"/>
    <tag k="name" v="Parker Street"/>
    <tag k="source" v="undefined"/>
    <tag k="source:maxspeed" v="default residential speed limit in Australia"/>
  </way>
  <way id="58408782" version="5" timestamp="2012-01-20T07:12:57Z" uid="147510" user="woodpeck_fixbot" changeset="10443281">
    <nd ref="724178617"/>
    <nd ref="724178147"/>
    <nd ref="1139484019"/>
    <tag k="highway" v="residential"/>
    <tag k="name" v="Parker Street"/>
    <tag k="source" v="undefined"/>
    <tag k="source:maxspeed" v="default residential speed limit in Australia"/>
  </way>
</osm>
