<?xml version='1.0' encoding='UTF-8'?>
<osm version="0.6" generator="libosmium/2.20.0">
  <way id="58592681" version="1" timestamp="2010-05-08T06:07:56Z" uid="33382" user="de_muur" changeset="4635873">
    <nd ref="258930476"/>
    <nd ref="258930477"/>
    <nd ref="292128706"/>
    <tag k="highway" v="tertiary"/>
    <tag k="name" v="Grasdorfer Straße"/>
    <tag k="ref" v="K 9"/>
    <tag k="surface" v="paved"/>
  </way>
  <way id="58592681" version="2" timestamp="2010-07-25T19:47:49Z" uid="35574" user="Schorse" changeset="5315853">
    <nd ref="258930476"/>
    <nd ref="258930477"/>
    <nd ref="292128706"/>
    <tag k="bicycle" v="designated"/>
    <tag k="cycleway" v="track"/>
    <tag k="foot" v="designated"/>
    <tag k="highway" v="tertiary"/>
    <tag k="name" v="Grasdorfer Straße"/>
    <tag k="ref" v="K 9"/>
    <tag k="surface" v="paved"/>
  </way>
  <way id="58592681" version="3" timestamp="2011-06-28T14:30:20Z" uid="166598" user="Moonwalker" changeset="8572217">
    <nd ref="258930476"/>
    <nd ref="258930477"/>
    <nd ref="1342279706"/>
    <nd ref="292128706"/>
    <tag k="bicycle" v="designated"/>
    <tag k="cycleway" v="track"/>
    <tag k="foot" v="designated"/>
    <tag k="highway" v="tertiary"/>
    <tag k="name" v="Grasdorfer Straße"/>
    <tag k="ref" v="K 9"/>
    <tag k="surface" v="paved"/>
  </way>
  <way id="58592681" version="4" timestamp="2011-07-14T08:31:54Z" uid="192181" user="hennie90" changeset="8719641">
    <nd ref="258930476"/>
    <nd ref="258930477"/>
    <nd ref="1361200091"/>
    <nd ref="1361200108"/>
    <nd ref="1361200166"/>
    <nd ref="1361200192"/>
    <nd ref="1342279706"/>
    <nd ref="292128706"/>
    <tag k="bicycle" v="designated"/>
    <tag k="cycleway" v="track"/>
    <tag k="foot" v="designated"/>
    <tag k="highway" v="tertiary"/>
    <tag k="name" v="Grasdorfer Straße"/>
    <tag k="ref" v="K 9"/>
    <tag k="surface" v="paved"/>
  </way>
  <way id="58592681" version="5" timestamp="2012-03-04T22:26:54Z" uid="57645" user="KartoGrapHiti" changeset="10874769">
    <nd ref="258930476"/>
    <nd ref="258930477"/>
    <nd ref="1361200091"/>
    <nd ref="1361200108"/>
    <nd ref="1361200166"/>
    <nd ref="1361200192"/>
    <nd ref="1342279706"/>
    <nd ref="292128706"/>
    <tag k="highway" v="tertiary"/>
    <tag k="name" v="Grasdorfer Straße"/>
    <tag k="ref" v="K 9"/>
    <tag k="surface" v="asphalt"/>
  </way>
  <way id="58592727" version="1" timestamp="2010-05-08T06:08:05Z" uid="33382" user="de_muur" changeset="4635873">
    <nd ref="258913459"/>
    <nd ref="702253073"/>
    <nd ref="258930476"/>
    <tag k="highway" v="unclassified"/>
    <tag k="motor_vehicle" v="no"/>
    <tag k="name" v="Upp&apos;n Tenever"/>
    <tag k="surface" v="paved"/>
  </way>
  <way id="58592727" version="2" timestamp="2010-07-25T19:46:04Z" uid="35574" user="Schorse" changeset="5315853">
    <nd ref="258913459"/>
    <nd ref="258930476"/>
    <tag k="highway" v="unclassified"/>
    <tag k="motor_vehicle" v="no"/>
    <tag k="name" v="Upp&apos;n Tenever"/>
    <tag k="surface" v="paved"/>
  </way>
  <way id="58592727" version="3" timestamp="2012-03-04T22:27:02Z" uid="57645" user="KartoGrapHiti" changeset="10874769">
    <nd ref="258913459"/>
    <nd ref="1659729828"/>
    <nd ref="258930476"/>
    <tag k="highway" v="unclassified"/>
    <tag k="motor_vehicle" v="no"/>
    <tag k="name" v="Upp&apos;n Tenever"/>
    <tag k="surface" v="paved"/>
  </way>
  <way id="58592729" version="1" timestamp="2010-05-08T06:08:05Z" uid="33382" user="de_muur" changeset="4635873">
    <nd ref="258913460"/>
    <nd ref="88922760"/>
    <nd ref="88922761"/>
    <nd ref="719845463"/>
    <nd ref="267691230"/>
    <nd ref="719845466"/>
    <nd ref="88922763"/>
    <nd ref="88922764"/>
    <nd ref="648421762"/>
    <nd ref="60304066"/>
    <nd ref="314731856"/>
    <nd ref="314730660"/>
    <nd ref="314729858"/>
    <nd ref="60807702"/>
    <nd ref="30439676"/>
    <nd ref="30441739"/>
    <nd ref="30441738"/>
    <nd ref="314710205"/>
    <nd ref="30441731"/>
    <tag k="highway" v="secondary"/>
    <tag k="ref" v="L 155"/>
    <tag k="surface" v="paved"/>
  </way>
  <way id="58592729" version="2" timestamp="2010-05-16T21:14:53Z" uid="68030" user="Kowa" changeset="4722164">
    <nd ref="258913460"/>
    <nd ref="88922760"/>
    <nd ref="88922761"/>
    <nd ref="719845463"/>
    <nd ref="267691230"/>
    <nd ref="719845466"/>
    <nd ref="88922763"/>
    <nd ref="88922764"/>
    <nd ref="648421762"/>
    <nd ref="60304066"/>
    <nd ref="314731856"/>
    <nd ref="314730660"/>
    <nd ref="314729858"/>
    <nd ref="60807702"/>
    <nd ref="30439676"/>
    <nd ref="30441739"/>
    <nd ref="30441738"/>
    <nd ref="314710205"/>
    <nd ref="30441731"/>
    <tag k="highway" v="secondary"/>
    <tag k="maxweight" v="7.5"/>
    <tag k="ref" v="L 155"/>
    <tag k="surface" v="paved"/>
  </way>
  <way id="58592729" version="3" timestamp="2010-05-16T21:25:53Z" uid="68030" user="Kowa" changeset="4722164">
    <nd ref="258913460"/>
    <nd ref="88922760"/>
    <nd ref="88922761"/>
    <nd ref="719845463"/>
    <nd ref="267691230"/>
    <nd ref="719845466"/>
    <nd ref="88922763"/>
    <nd ref="736934414"/>
    <nd ref="88922764"/>
    <nd ref="648421762"/>
    <nd ref="60304066"/>
    <nd ref="314731856"/>
    <nd ref="314730660"/>
    <nd ref="314729858"/>
    <nd ref="60807702"/>
    <nd ref="30439676"/>
    <nd ref="30441739"/>
    <nd ref="30441738"/>
    <nd ref="314710205"/>
    <nd ref="30441731"/>
    <tag k="highway" v="secondary"/>
    <tag k="maxweight" v="7.5"/>
    <tag k="ref" v="L 155"/>
    <tag k="surface" v="paved"/>
  </way>
  <way id="58592729" version="4" timestamp="2010-07-25T19:46:58Z" uid="35574" user="Schorse" changeset="5315853">
    <nd ref="258913460"/>
    <nd ref="88922760"/>
    <nd ref="88922761"/>
    <nd ref="267691230"/>
    <nd ref="719845466"/>
    <nd ref="88922763"/>
    <nd ref="736934414"/>
    <nd ref="88922764"/>
    <nd ref="60304066"/>
    <tag k="highway" v="secondary"/>
    <tag k="maxweight" v="7.5"/>
    <tag k="ref" v="L 155"/>
    <tag k="surface" v="paved"/>
  </way>
  <way id="58592729" version="5" timestamp="2010-08-01T14:25:26Z" uid="33382" user="de_muur" changeset="5371348">
    <nd ref="258913460"/>
    <nd ref="88922760"/>
    <nd ref="88922761"/>
    <nd ref="267691230"/>
    <nd ref="88922763"/>
    <nd ref="842018642"/>
    <tag k="cycleway" v="track"/>
    <tag k="highway" v="secondary"/>
    <tag k="maxweight" v="7.5"/>
    <tag k="ref" v="L 155"/>
    <tag k="surface" v="paved"/>
  </way>
  <way id="58592729" version="6" timestamp="2011-09-23T11:13:27Z" uid="192181" user="hennie90" changeset="9375873">
    <nd ref="258913460"/>
    <nd ref="1442202928"/>
    <nd ref="88922760"/>
    <nd ref="88922761"/>
    <nd ref="267691230"/>
    <nd ref="88922763"/>
    <nd ref="842018642"/>
    <tag k="cycleway" v="track"/>
    <tag k="highway" v="secondary"/>
    <tag k="maxweight" v="7.5"/>
    <tag k="ref" v="L 155"/>
    <tag k="surface" v="paved"/>
  </way>
  <way id="58592729" version="7" timestamp="2012-03-18T09:59:20Z" uid="57645" user="KartoGrapHiti" changeset="11016637"/>
</osm>
