<?xml version='1.0' encoding='UTF-8'?>
<osm version="0.6" generator="libosmium/2.20.0">
  <way id="58665623" version="1" timestamp="2010-05-08T22:15:48Z" uid="99207" user="Lar Kiesel" changeset="4643680">
    <nd ref="726861055"/>
    <nd ref="726861056"/>
    <nd ref="726861058"/>
    <nd ref="726861059"/>
    <nd ref="726861060"/>
    <nd ref="726861061"/>
    <nd ref="726861062"/>
    <nd ref="726861063"/>
    <nd ref="726861064"/>
    <nd ref="726861065"/>
    <nd ref="726861066"/>
    <nd ref="726861068"/>
    <nd ref="726861069"/>
    <nd ref="726861070"/>
    <nd ref="726861071"/>
    <nd ref="726861072"/>
    <nd ref="726861073"/>
    <nd ref="726861074"/>
    <nd ref="110004398"/>
    <tag k="highway" v="primary"/>
    <tag k="lanes" v="2"/>
    <tag k="name" v="Trask Pky"/>
    <tag k="name_1" v="United States Highway 17"/>
    <tag k="name_2" v="United States Highway 21"/>
    <tag k="oneway" v="yes"/>
    <tag k="ref" v="US 17; US 21"/>
  </way>
  <way id="58665623" version="2" timestamp="2010-05-09T19:34:20Z" uid="207745" user="NE2" changeset="4653016">
    <nd ref="726861055"/>
    <nd ref="726861056"/>
    <nd ref="726861058"/>
    <nd ref="726861059"/>
    <nd ref="726861060"/>
    <nd ref="726861061"/>
    <nd ref="726861062"/>
    <nd ref="726861063"/>
    <nd ref="726861064"/>
    <nd ref="726861065"/>
    <nd ref="726861066"/>
    <nd ref="726861068"/>
    <nd ref="726861069"/>
    <nd ref="726861070"/>
    <nd ref="726861071"/>
    <nd ref="726861072"/>
    <nd ref="726861073"/>
    <nd ref="726861074"/>
    <nd ref="110004398"/>
    <tag k="highway" v="trunk"/>
    <tag k="lanes" v="2"/>
    <tag k="name" v="Trask Pky"/>
    <tag k="name_1" v="United States Highway 17"/>
    <tag k="name_2" v="United States Highway 21"/>
    <tag k="oneway" v="yes"/>
    <tag k="ref" v="US 17; US 21"/>
  </way>
  <way id="58665623" version="3" timestamp="2010-05-10T04:32:17Z" uid="99207" user="Lar Kiesel" changeset="4655870">
    <nd ref="726861055"/>
    <nd ref="726861056"/>
    <nd ref="726861058"/>
    <nd ref="726861059"/>
    <nd ref="726861060"/>
    <nd ref="726861061"/>
    <nd ref="726861062"/>
    <nd ref="726861063"/>
    <nd ref="726861064"/>
    <nd ref="726861065"/>
    <nd ref="726861066"/>
    <nd ref="726861068"/>
    <nd ref="726861069"/>
    <nd ref="726861070"/>
    <nd ref="726861071"/>
    <nd ref="726861072"/>
    <nd ref="726861073"/>
    <nd ref="726861074"/>
    <nd ref="110004398"/>
    <tag k="highway" v="primary"/>
    <tag k="lanes" v="2"/>
    <tag k="name" v="Trask Pky"/>
    <tag k="name_1" v="United States Highway 17"/>
    <tag k="name_2" v="United States Highway 21"/>
    <tag k="oneway" v="yes"/>
    <tag k="ref" v="US 17; US 21"/>
  </way>
  <way id="58665623" version="4" timestamp="2010-05-11T12:23:26Z" uid="207745" user="NE2" changeset="4668054">
    <nd ref="726861055"/>
    <nd ref="726861056"/>
    <nd ref="726861058"/>
    <nd ref="726861059"/>
    <nd ref="726861060"/>
    <nd ref="726861061"/>
    <nd ref="726861062"/>
    <nd ref="726861063"/>
    <nd ref="726861064"/>
    <nd ref="726861065"/>
    <nd ref="726861066"/>
    <nd ref="726861068"/>
    <nd ref="726861069"/>
    <nd ref="726861070"/>
    <nd ref="726861071"/>
    <nd ref="726861072"/>
    <nd ref="726861073"/>
    <nd ref="726861074"/>
    <nd ref="110004398"/>
    <tag k="highway" v="trunk"/>
    <tag k="lanes" v="2"/>
    <tag k="name" v="Trask Pky"/>
    <tag k="name_1" v="United States Highway 17"/>
    <tag k="name_2" v="United States Highway 21"/>
    <tag k="oneway" v="yes"/>
    <tag k="ref" v="US 17; US 21"/>
  </way>
  <way id="58665623" version="5" timestamp="2010-06-27T17:14:11Z" uid="99207" user="Lar Kiesel" changeset="5091200">
    <nd ref="726861055"/>
    <nd ref="726861056"/>
    <nd ref="726861058"/>
    <nd ref="726861059"/>
    <nd ref="726861060"/>
    <nd ref="726861061"/>
    <nd ref="726861062"/>
    <nd ref="726861063"/>
    <nd ref="726861064"/>
    <nd ref="726861065"/>
    <nd ref="726861066"/>
    <nd ref="726861068"/>
    <nd ref="726861069"/>
    <nd ref="726861070"/>
    <nd ref="726861071"/>
    <nd ref="726861072"/>
    <nd ref="726861073"/>
    <nd ref="726861074"/>
    <nd ref="110004398"/>
    <tag k="highway" v="primary"/>
    <tag k="lanes" v="2"/>
    <tag k="name" v="Trask Pky"/>
    <tag k="name_1" v="United States Highway 17"/>
    <tag k="name_2" v="United States Highway 21"/>
    <tag k="oneway" v="yes"/>
    <tag k="ref" v="US 17; US 21"/>
  </way>
  <way id="58665623" version="6" timestamp="2010-12-12T05:08:19Z" uid="207745" user="NE2" changeset="6632313">
    <nd ref="726861055"/>
    <nd ref="726861056"/>
    <nd ref="726861058"/>
    <nd ref="726861059"/>
    <nd ref="726861060"/>
    <nd ref="726861061"/>
    <nd ref="726861062"/>
    <nd ref="726861063"/>
    <nd ref="726861064"/>
    <nd ref="726861065"/>
    <nd ref="726861066"/>
    <nd ref="726861068"/>
    <nd ref="726861069"/>
    <nd ref="726861070"/>
    <nd ref="726861071"/>
    <nd ref="726861072"/>
    <nd ref="726861073"/>
    <nd ref="726861074"/>
    <nd ref="110004398"/>
    <tag k="highway" v="trunk"/>
    <tag k="lanes" v="2"/>
    <tag k="name" v="Trask Pky"/>
    <tag k="name_1" v="United States Highway 17"/>
    <tag k="name_2" v="United States Highway 21"/>
    <tag k="oneway" v="yes"/>
    <tag k="ref" v="US 17; US 21"/>
  </way>
  <way id="58665623" version="7" timestamp="2011-05-07T06:01:47Z" uid="207745" user="NE2" changeset="8070753">
    <nd ref="726861055"/>
    <nd ref="726861056"/>
    <nd ref="726861058"/>
    <nd ref="726861059"/>
    <nd ref="726861060"/>
    <nd ref="726861061"/>
    <nd ref="726861062"/>
    <nd ref="726861063"/>
    <nd ref="726861064"/>
    <nd ref="726861065"/>
    <nd ref="726861066"/>
    <nd ref="726861068"/>
    <nd ref="726861069"/>
    <nd ref="726861070"/>
    <nd ref="726861071"/>
    <nd ref="726861072"/>
    <nd ref="726861073"/>
    <nd ref="726861074"/>
    <nd ref="110004398"/>
    <tag k="highway" v="trunk"/>
    <tag k="lanes" v="2"/>
    <tag k="name" v="Trask Pky"/>
    <tag k="oneway" v="yes"/>
    <tag k="ref" v="US 17; US 21"/>
  </way>
  <way id="58665623" version="8" timestamp="2011-06-29T23:50:03Z" uid="473471" user="NE3" changeset="8586091">
    <nd ref="726861055"/>
    <nd ref="726861056"/>
    <nd ref="726861058"/>
    <nd ref="726861059"/>
    <nd ref="726861060"/>
    <nd ref="726861061"/>
    <nd ref="726861062"/>
    <nd ref="726861063"/>
    <nd ref="726861064"/>
    <nd ref="726861065"/>
    <nd ref="726861066"/>
    <nd ref="726861068"/>
    <nd ref="726861069"/>
    <nd ref="726861070"/>
    <nd ref="726861071"/>
    <nd ref="726861072"/>
    <nd ref="726861073"/>
    <nd ref="726861074"/>
    <nd ref="110004398"/>
    <tag k="NHS" v="STRAHNET"/>
    <tag k="highway" v="trunk"/>
    <tag k="lanes" v="2"/>
    <tag k="name" v="Trask Pky"/>
    <tag k="oneway" v="yes"/>
    <tag k="ref" v="US 17; US 21"/>
  </way>
  <way id="58665623" version="9" timestamp="2011-11-24T22:10:46Z" uid="207745" user="NE2" changeset="9937881">
    <nd ref="726861055"/>
    <nd ref="726861056"/>
    <nd ref="726861058"/>
    <nd ref="726861059"/>
    <nd ref="726861060"/>
    <nd ref="726861061"/>
    <nd ref="726861062"/>
    <nd ref="726861063"/>
    <nd ref="726861064"/>
    <nd ref="726861065"/>
    <nd ref="726861066"/>
    <nd ref="726861068"/>
    <nd ref="726861069"/>
    <nd ref="726861070"/>
    <nd ref="726861071"/>
    <nd ref="726861072"/>
    <nd ref="726861073"/>
    <nd ref="726861074"/>
    <nd ref="110004398"/>
    <tag k="NHS" v="STRAHNET"/>
    <tag k="hgv" v="designated"/>
    <tag k="hgv:national_network" v="yes"/>
    <tag k="highway" v="trunk"/>
    <tag k="lanes" v="2"/>
    <tag k="name" v="Trask Pky"/>
    <tag k="oneway" v="yes"/>
    <tag k="ref" v="US 17; US 21"/>
    <tag k="source:hgv:national_network" v="Title 23: Highways Part 658 http://ecfr.gpoaccess.gov/cgi/t/text/text-idx?c=ecfr&amp;rgn=div5&amp;view=text&amp;node=23:1.0.1.7.33&amp;idno=23"/>
  </way>
  <way id="58665624" version="1" timestamp="2010-05-08T22:15:49Z" uid="99207" user="Lar Kiesel" changeset="4643680">
    <nd ref="110004364"/>
    <nd ref="110003012"/>
    <nd ref="109941662"/>
    <nd ref="109952620"/>
    <nd ref="109978624"/>
    <nd ref="110004359"/>
    <nd ref="726861075"/>
    <nd ref="110004357"/>
    <tag k="highway" v="primary"/>
    <tag k="lanes" v="2"/>
    <tag k="name" v="Trask Pky"/>
    <tag k="name_1" v="United States Highway 17"/>
    <tag k="name_2" v="United States Highway 21"/>
    <tag k="oneway" v="yes"/>
    <tag k="ref" v="US 17; US 21"/>
    <tag k="tiger:cfcc" v="A21"/>
    <tag k="tiger:county" v="Beaufort, SC"/>
    <tag k="tiger:name_base" v="Trask"/>
    <tag k="tiger:name_base_1" v="United States Highway 17"/>
    <tag k="tiger:name_base_2" v="United States Highway 21"/>
    <tag k="tiger:name_type" v="Pky"/>
    <tag k="tiger:reviewed" v="no"/>
    <tag k="tiger:separated" v="no"/>
    <tag k="tiger:source" v="tiger_import_dch_v0.6_20070829"/>
    <tag k="tiger:tlid" v="87617798:87631586"/>
    <tag k="tiger:upload_uuid" v="bulk_upload.pl-11a6ffe7-dd42-4940-82bc-aa7d76d3b93f"/>
    <tag k="tiger:zip_left" v="29945"/>
    <tag k="tiger:zip_right" v="29945"/>
  </way>
  <way id="58665624" version="2" timestamp="2010-05-09T19:22:07Z" uid="207745" user="NE2" changeset="4653016">
    <nd ref="110004364"/>
    <nd ref="110003012"/>
    <nd ref="109941662"/>
    <nd ref="109952620"/>
    <nd ref="109978624"/>
    <nd ref="110004359"/>
    <nd ref="726861075"/>
    <nd ref="110004357"/>
    <tag k="highway" v="trunk"/>
    <tag k="lanes" v="2"/>
    <tag k="name" v="Trask Pky"/>
    <tag k="name_1" v="United States Highway 17"/>
    <tag k="name_2" v="United States Highway 21"/>
    <tag k="oneway" v="yes"/>
    <tag k="ref" v="US 17; US 21"/>
    <tag k="tiger:cfcc" v="A21"/>
    <tag k="tiger:county" v="Beaufort, SC"/>
    <tag k="tiger:name_base" v="Trask"/>
    <tag k="tiger:name_base_1" v="United States Highway 17"/>
    <tag k="tiger:name_base_2" v="United States Highway 21"/>
    <tag k="tiger:name_type" v="Pky"/>
    <tag k="tiger:reviewed" v="no"/>
    <tag k="tiger:separated" v="no"/>
    <tag k="tiger:source" v="tiger_import_dch_v0.6_20070829"/>
    <tag k="tiger:tlid" v="87617798:87631586"/>
    <tag k="tiger:upload_uuid" v="bulk_upload.pl-11a6ffe7-dd42-4940-82bc-aa7d76d3b93f"/>
    <tag k="tiger:zip_left" v="29945"/>
    <tag k="tiger:zip_right" v="29945"/>
  </way>
  <way id="58665624" version="3" timestamp="2010-05-10T04:32:14Z" uid="99207" user="Lar Kiesel" changeset="4655870">
    <nd ref="110004364"/>
    <nd ref="110003012"/>
    <nd ref="109941662"/>
    <nd ref="109952620"/>
    <nd ref="109978624"/>
    <nd ref="110004359"/>
    <nd ref="726861075"/>
    <nd ref="110004357"/>
    <tag k="highway" v="primary"/>
    <tag k="lanes" v="2"/>
    <tag k="name" v="Trask Pky"/>
    <tag k="name_1" v="United States Highway 17"/>
    <tag k="name_2" v="United States Highway 21"/>
    <tag k="oneway" v="yes"/>
    <tag k="ref" v="US 17; US 21"/>
    <tag k="tiger:cfcc" v="A21"/>
    <tag k="tiger:county" v="Beaufort, SC"/>
    <tag k="tiger:name_base" v="Trask"/>
    <tag k="tiger:name_base_1" v="United States Highway 17"/>
    <tag k="tiger:name_base_2" v="United States Highway 21"/>
    <tag k="tiger:name_type" v="Pky"/>
    <tag k="tiger:reviewed" v="no"/>
    <tag k="tiger:separated" v="no"/>
    <tag k="tiger:source" v="tiger_import_dch_v0.6_20070829"/>
    <tag k="tiger:tlid" v="87617798:87631586"/>
    <tag k="tiger:upload_uuid" v="bulk_upload.pl-11a6ffe7-dd42-4940-82bc-aa7d76d3b93f"/>
    <tag k="tiger:zip_left" v="29945"/>
    <tag k="tiger:zip_right" v="29945"/>
  </way>
  <way id="58665624" version="4" timestamp="2010-05-11T12:23:33Z" uid="207745" user="NE2" changeset="4668054">
    <nd ref="110004364"/>
    <nd ref="110003012"/>
    <nd ref="109941662"/>
    <nd ref="109952620"/>
    <nd ref="109978624"/>
    <nd ref="110004359"/>
    <nd ref="726861075"/>
    <nd ref="110004357"/>
    <tag k="highway" v="trunk"/>
    <tag k="lanes" v="2"/>
    <tag k="name" v="Trask Pky"/>
    <tag k="name_1" v="United States Highway 17"/>
    <tag k="name_2" v="United States Highway 21"/>
    <tag k="oneway" v="yes"/>
    <tag k="ref" v="US 17; US 21"/>
    <tag k="tiger:cfcc" v="A21"/>
    <tag k="tiger:county" v="Beaufort, SC"/>
    <tag k="tiger:name_base" v="Trask"/>
    <tag k="tiger:name_base_1" v="United States Highway 17"/>
    <tag k="tiger:name_base_2" v="United States Highway 21"/>
    <tag k="tiger:name_type" v="Pky"/>
    <tag k="tiger:reviewed" v="no"/>
    <tag k="tiger:separated" v="no"/>
    <tag k="tiger:source" v="tiger_import_dch_v0.6_20070829"/>
    <tag k="tiger:tlid" v="87617798:87631586"/>
    <tag k="tiger:upload_uuid" v="bulk_upload.pl-11a6ffe7-dd42-4940-82bc-aa7d76d3b93f"/>
    <tag k="tiger:zip_left" v="29945"/>
    <tag k="tiger:zip_right" v="29945"/>
  </way>
  <way id="58665624" version="5" timestamp="2010-06-27T17:14:05Z" uid="99207" user="Lar Kiesel" changeset="5091200">
    <nd ref="110004364"/>
    <nd ref="110003012"/>
    <nd ref="109941662"/>
    <nd ref="109952620"/>
    <nd ref="109978624"/>
    <nd ref="110004359"/>
    <nd ref="726861075"/>
    <nd ref="110004357"/>
    <tag k="highway" v="primary"/>
    <tag k="lanes" v="2"/>
    <tag k="name" v="Trask Pky"/>
    <tag k="name_1" v="United States Highway 17"/>
    <tag k="name_2" v="United States Highway 21"/>
    <tag k="oneway" v="yes"/>
    <tag k="ref" v="US 17; US 21"/>
    <tag k="tiger:cfcc" v="A21"/>
    <tag k="tiger:county" v="Beaufort, SC"/>
    <tag k="tiger:name_base" v="Trask"/>
    <tag k="tiger:name_base_1" v="United States Highway 17"/>
    <tag k="tiger:name_base_2" v="United States Highway 21"/>
    <tag k="tiger:name_type" v="Pky"/>
    <tag k="tiger:reviewed" v="no"/>
    <tag k="tiger:separated" v="no"/>
    <tag k="tiger:source" v="tiger_import_dch_v0.6_20070829"/>
    <tag k="tiger:tlid" v="87617798:87631586"/>
    <tag k="tiger:upload_uuid" v="bulk_upload.pl-11a6ffe7-dd42-4940-82bc-aa7d76d3b93f"/>
    <tag k="tiger:zip_left" v="29945"/>
    <tag k="tiger:zip_right" v="29945"/>
  </way>
  <way id="58665624" version="6" timestamp="2010-12-12T05:06:51Z" uid="207745" user="NE2" changeset="6632313">
    <nd ref="110004364"/>
    <nd ref="110003012"/>
    <nd ref="109941662"/>
    <nd ref="109952620"/>
    <nd ref="109978624"/>
    <nd ref="110004359"/>
    <nd ref="726861075"/>
    <nd ref="110004357"/>
    <tag k="highway" v="trunk"/>
    <tag k="lanes" v="2"/>
    <tag k="name" v="Trask Pky"/>
    <tag k="name_1" v="United States Highway 17"/>
    <tag k="name_2" v="United States Highway 21"/>
    <tag k="oneway" v="yes"/>
    <tag k="ref" v="US 17; US 21"/>
    <tag k="tiger:cfcc" v="A21"/>
    <tag k="tiger:county" v="Beaufort, SC"/>
    <tag k="tiger:name_base" v="Trask"/>
    <tag k="tiger:name_base_1" v="United States Highway 17"/>
    <tag k="tiger:name_base_2" v="United States Highway 21"/>
    <tag k="tiger:name_type" v="Pky"/>
    <tag k="tiger:reviewed" v="no"/>
    <tag k="tiger:separated" v="no"/>
    <tag k="tiger:source" v="tiger_import_dch_v0.6_20070829"/>
    <tag k="tiger:tlid" v="87617798:87631586"/>
    <tag k="tiger:upload_uuid" v="bulk_upload.pl-11a6ffe7-dd42-4940-82bc-aa7d76d3b93f"/>
    <tag k="tiger:zip_left" v="29945"/>
    <tag k="tiger:zip_right" v="29945"/>
  </way>
  <way id="58665624" version="7" timestamp="2011-06-11T04:04:55Z" uid="207745" user="NE2" changeset="8402497">
    <nd ref="110004364"/>
    <nd ref="110003012"/>
    <nd ref="109941662"/>
    <nd ref="109952620"/>
    <nd ref="109978624"/>
    <nd ref="110004359"/>
    <nd ref="726861075"/>
    <nd ref="110004357"/>
    <tag k="highway" v="trunk"/>
    <tag k="lanes" v="2"/>
    <tag k="name" v="Trask Pky"/>
    <tag k="oneway" v="yes"/>
    <tag k="ref" v="US 17; US 21"/>
    <tag k="tiger:cfcc" v="A21"/>
    <tag k="tiger:county" v="Beaufort, SC"/>
    <tag k="tiger:name_base" v="Trask"/>
    <tag k="tiger:name_base_1" v="United States Highway 17"/>
    <tag k="tiger:name_base_2" v="United States Highway 21"/>
    <tag k="tiger:name_type" v="Pky"/>
    <tag k="tiger:reviewed" v="no"/>
    <tag k="tiger:separated" v="no"/>
    <tag k="tiger:source" v="tiger_import_dch_v0.6_20070829"/>
    <tag k="tiger:tlid" v="87617798:87631586"/>
    <tag k="tiger:upload_uuid" v="bulk_upload.pl-11a6ffe7-dd42-4940-82bc-aa7d76d3b93f"/>
    <tag k="tiger:zip_left" v="29945"/>
    <tag k="tiger:zip_right" v="29945"/>
  </way>
  <way id="58665624" version="8" timestamp="2011-06-29T23:50:09Z" uid="473471" user="NE3" changeset="8586091">
    <nd ref="110004364"/>
    <nd ref="110003012"/>
    <nd ref="109941662"/>
    <nd ref="109952620"/>
    <nd ref="109978624"/>
    <nd ref="110004359"/>
    <nd ref="726861075"/>
    <nd ref="110004357"/>
    <tag k="NHS" v="STRAHNET"/>
    <tag k="highway" v="trunk"/>
    <tag k="lanes" v="2"/>
    <tag k="name" v="Trask Pky"/>
    <tag k="oneway" v="yes"/>
    <tag k="ref" v="US 17; US 21"/>
    <tag k="tiger:cfcc" v="A21"/>
    <tag k="tiger:county" v="Beaufort, SC"/>
    <tag k="tiger:name_base" v="Trask"/>
    <tag k="tiger:name_base_1" v="United States Highway 17"/>
    <tag k="tiger:name_base_2" v="United States Highway 21"/>
    <tag k="tiger:name_type" v="Pky"/>
    <tag k="tiger:reviewed" v="no"/>
    <tag k="tiger:separated" v="no"/>
    <tag k="tiger:source" v="tiger_import_dch_v0.6_20070829"/>
    <tag k="tiger:tlid" v="87617798:87631586"/>
    <tag k="tiger:upload_uuid" v="bulk_upload.pl-11a6ffe7-dd42-4940-82bc-aa7d76d3b93f"/>
    <tag k="tiger:zip_left" v="29945"/>
    <tag k="tiger:zip_right" v="29945"/>
  </way>
  <way id="58665624" version="9" timestamp="2011-11-24T22:11:07Z" uid="207745" user="NE2" changeset="9937881">
    <nd ref="110004364"/>
    <nd ref="110003012"/>
    <nd ref="109941662"/>
    <nd ref="109952620"/>
    <nd ref="109978624"/>
    <nd ref="110004359"/>
    <nd ref="726861075"/>
    <nd ref="110004357"/>
    <tag k="NHS" v="STRAHNET"/>
    <tag k="hgv" v="designated"/>
    <tag k="hgv:national_network" v="yes"/>
    <tag k="highway" v="trunk"/>
    <tag k="lanes" v="2"/>
    <tag k="name" v="Trask Pky"/>
    <tag k="oneway" v="yes"/>
    <tag k="ref" v="US 17; US 21"/>
    <tag k="source:hgv:national_network" v="Title 23: Highways Part 658 http://ecfr.gpoaccess.gov/cgi/t/text/text-idx?c=ecfr&amp;rgn=div5&amp;view=text&amp;node=23:1.0.1.7.33&amp;idno=23"/>
    <tag k="tiger:cfcc" v="A21"/>
    <tag k="tiger:county" v="Beaufort, SC"/>
    <tag k="tiger:name_base" v="Trask"/>
    <tag k="tiger:name_base_1" v="United States Highway 17"/>
    <tag k="tiger:name_base_2" v="United States Highway 21"/>
    <tag k="tiger:name_type" v="Pky"/>
    <tag k="tiger:reviewed" v="no"/>
    <tag k="tiger:separated" v="no"/>
    <tag k="tiger:source" v="tiger_import_dch_v0.6_20070829"/>
    <tag k="tiger:tlid" v="87617798:87631586"/>
    <tag k="tiger:upload_uuid" v="bulk_upload.pl-11a6ffe7-dd42-4940-82bc-aa7d76d3b93f"/>
    <tag k="tiger:zip_left" v="29945"/>
    <tag k="tiger:zip_right" v="29945"/>
  </way>
  <way id="58665625" version="1" timestamp="2010-05-08T22:15:50Z" uid="99207" user="Lar Kiesel" changeset="4643680">
    <nd ref="110004366"/>
    <nd ref="110004364"/>
    <tag k="bridge" v="yes"/>
    <tag k="highway" v="primary"/>
    <tag k="lanes" v="2"/>
    <tag k="name" v="Trask Pky"/>
    <tag k="name_1" v="United States Highway 17"/>
    <tag k="name_2" v="United States Highway 21"/>
    <tag k="oneway" v="yes"/>
    <tag k="ref" v="US 17; US 21"/>
    <tag k="tiger:cfcc" v="A21"/>
    <tag k="tiger:county" v="Beaufort, SC"/>
    <tag k="tiger:name_base" v="Trask"/>
    <tag k="tiger:name_base_1" v="United States Highway 17"/>
    <tag k="tiger:name_base_2" v="United States Highway 21"/>
    <tag k="tiger:name_type" v="Pky"/>
    <tag k="tiger:reviewed" v="no"/>
    <tag k="tiger:separated" v="no"/>
    <tag k="tiger:source" v="tiger_import_dch_v0.6_20070829"/>
    <tag k="tiger:tlid" v="87617798:87631586"/>
    <tag k="tiger:upload_uuid" v="bulk_upload.pl-11a6ffe7-dd42-4940-82bc-aa7d76d3b93f"/>
    <tag k="tiger:zip_left" v="29945"/>
    <tag k="tiger:zip_right" v="29945"/>
  </way>
  <way id="58665625" version="2" timestamp="2010-05-09T19:22:48Z" uid="207745" user="NE2" changeset="4653016">
    <nd ref="110004366"/>
    <nd ref="110004364"/>
    <tag k="bridge" v="yes"/>
    <tag k="highway" v="trunk"/>
    <tag k="lanes" v="2"/>
    <tag k="name" v="Trask Pky"/>
    <tag k="name_1" v="United States Highway 17"/>
    <tag k="name_2" v="United States Highway 21"/>
    <tag k="oneway" v="yes"/>
    <tag k="ref" v="US 17; US 21"/>
    <tag k="tiger:cfcc" v="A21"/>
    <tag k="tiger:county" v="Beaufort, SC"/>
    <tag k="tiger:name_base" v="Trask"/>
    <tag k="tiger:name_base_1" v="United States Highway 17"/>
    <tag k="tiger:name_base_2" v="United States Highway 21"/>
    <tag k="tiger:name_type" v="Pky"/>
    <tag k="tiger:reviewed" v="no"/>
    <tag k="tiger:separated" v="no"/>
    <tag k="tiger:source" v="tiger_import_dch_v0.6_20070829"/>
    <tag k="tiger:tlid" v="87617798:87631586"/>
    <tag k="tiger:upload_uuid" v="bulk_upload.pl-11a6ffe7-dd42-4940-82bc-aa7d76d3b93f"/>
    <tag k="tiger:zip_left" v="29945"/>
    <tag k="tiger:zip_right" v="29945"/>
  </way>
  <way id="58665625" version="3" timestamp="2010-05-10T04:32:14Z" uid="99207" user="Lar Kiesel" changeset="4655870">
    <nd ref="110004366"/>
    <nd ref="110004364"/>
    <tag k="bridge" v="yes"/>
    <tag k="highway" v="primary"/>
    <tag k="lanes" v="2"/>
    <tag k="name" v="Trask Pky"/>
    <tag k="name_1" v="United States Highway 17"/>
    <tag k="name_2" v="United States Highway 21"/>
    <tag k="oneway" v="yes"/>
    <tag k="ref" v="US 17; US 21"/>
    <tag k="tiger:cfcc" v="A21"/>
    <tag k="tiger:county" v="Beaufort, SC"/>
    <tag k="tiger:name_base" v="Trask"/>
    <tag k="tiger:name_base_1" v="United States Highway 17"/>
    <tag k="tiger:name_base_2" v="United States Highway 21"/>
    <tag k="tiger:name_type" v="Pky"/>
    <tag k="tiger:reviewed" v="no"/>
    <tag k="tiger:separated" v="no"/>
    <tag k="tiger:source" v="tiger_import_dch_v0.6_20070829"/>
    <tag k="tiger:tlid" v="87617798:87631586"/>
    <tag k="tiger:upload_uuid" v="bulk_upload.pl-11a6ffe7-dd42-4940-82bc-aa7d76d3b93f"/>
    <tag k="tiger:zip_left" v="29945"/>
    <tag k="tiger:zip_right" v="29945"/>
  </way>
  <way id="58665625" version="4" timestamp="2010-05-11T12:23:29Z" uid="207745" user="NE2" changeset="4668054">
    <nd ref="110004366"/>
    <nd ref="110004364"/>
    <tag k="bridge" v="yes"/>
    <tag k="highway" v="trunk"/>
    <tag k="lanes" v="2"/>
    <tag k="name" v="Trask Pky"/>
    <tag k="name_1" v="United States Highway 17"/>
    <tag k="name_2" v="United States Highway 21"/>
    <tag k="oneway" v="yes"/>
    <tag k="ref" v="US 17; US 21"/>
    <tag k="tiger:cfcc" v="A21"/>
    <tag k="tiger:county" v="Beaufort, SC"/>
    <tag k="tiger:name_base" v="Trask"/>
    <tag k="tiger:name_base_1" v="United States Highway 17"/>
    <tag k="tiger:name_base_2" v="United States Highway 21"/>
    <tag k="tiger:name_type" v="Pky"/>
    <tag k="tiger:reviewed" v="no"/>
    <tag k="tiger:separated" v="no"/>
    <tag k="tiger:source" v="tiger_import_dch_v0.6_20070829"/>
    <tag k="tiger:tlid" v="87617798:87631586"/>
    <tag k="tiger:upload_uuid" v="bulk_upload.pl-11a6ffe7-dd42-4940-82bc-aa7d76d3b93f"/>
    <tag k="tiger:zip_left" v="29945"/>
    <tag k="tiger:zip_right" v="29945"/>
  </way>
  <way id="58665625" version="5" timestamp="2010-06-27T17:14:07Z" uid="99207" user="Lar Kiesel" changeset="5091200">
    <nd ref="110004366"/>
    <nd ref="110004364"/>
    <tag k="bridge" v="yes"/>
    <tag k="highway" v="primary"/>
    <tag k="lanes" v="2"/>
    <tag k="name" v="Trask Pky"/>
    <tag k="name_1" v="United States Highway 17"/>
    <tag k="name_2" v="United States Highway 21"/>
    <tag k="oneway" v="yes"/>
    <tag k="ref" v="US 17; US 21"/>
    <tag k="tiger:cfcc" v="A21"/>
    <tag k="tiger:county" v="Beaufort, SC"/>
    <tag k="tiger:name_base" v="Trask"/>
    <tag k="tiger:name_base_1" v="United States Highway 17"/>
    <tag k="tiger:name_base_2" v="United States Highway 21"/>
    <tag k="tiger:name_type" v="Pky"/>
    <tag k="tiger:reviewed" v="no"/>
    <tag k="tiger:separated" v="no"/>
    <tag k="tiger:source" v="tiger_import_dch_v0.6_20070829"/>
    <tag k="tiger:tlid" v="87617798:87631586"/>
    <tag k="tiger:upload_uuid" v="bulk_upload.pl-11a6ffe7-dd42-4940-82bc-aa7d76d3b93f"/>
    <tag k="tiger:zip_left" v="29945"/>
    <tag k="tiger:zip_right" v="29945"/>
  </way>
  <way id="58665625" version="6" timestamp="2010-12-12T05:01:27Z" uid="207745" user="NE2" changeset="6632313">
    <nd ref="110004366"/>
    <nd ref="110004364"/>
    <tag k="bridge" v="yes"/>
    <tag k="highway" v="trunk"/>
    <tag k="lanes" v="2"/>
    <tag k="name" v="Trask Pky"/>
    <tag k="name_1" v="United States Highway 17"/>
    <tag k="name_2" v="United States Highway 21"/>
    <tag k="oneway" v="yes"/>
    <tag k="ref" v="US 17; US 21"/>
    <tag k="tiger:cfcc" v="A21"/>
    <tag k="tiger:county" v="Beaufort, SC"/>
    <tag k="tiger:name_base" v="Trask"/>
    <tag k="tiger:name_base_1" v="United States Highway 17"/>
    <tag k="tiger:name_base_2" v="United States Highway 21"/>
    <tag k="tiger:name_type" v="Pky"/>
    <tag k="tiger:reviewed" v="no"/>
    <tag k="tiger:separated" v="no"/>
    <tag k="tiger:source" v="tiger_import_dch_v0.6_20070829"/>
    <tag k="tiger:tlid" v="87617798:87631586"/>
    <tag k="tiger:upload_uuid" v="bulk_upload.pl-11a6ffe7-dd42-4940-82bc-aa7d76d3b93f"/>
    <tag k="tiger:zip_left" v="29945"/>
    <tag k="tiger:zip_right" v="29945"/>
  </way>
  <way id="58665625" version="7" timestamp="2011-06-11T04:17:18Z" uid="207745" user="NE2" changeset="8402497">
    <nd ref="110004366"/>
    <nd ref="110004364"/>
    <tag k="bridge" v="yes"/>
    <tag k="highway" v="trunk"/>
    <tag k="lanes" v="2"/>
    <tag k="name" v="Trask Pky"/>
    <tag k="oneway" v="yes"/>
    <tag k="ref" v="US 17; US 21"/>
    <tag k="tiger:cfcc" v="A21"/>
    <tag k="tiger:county" v="Beaufort, SC"/>
    <tag k="tiger:name_base" v="Trask"/>
    <tag k="tiger:name_base_1" v="United States Highway 17"/>
    <tag k="tiger:name_base_2" v="United States Highway 21"/>
    <tag k="tiger:name_type" v="Pky"/>
    <tag k="tiger:reviewed" v="no"/>
    <tag k="tiger:separated" v="no"/>
    <tag k="tiger:source" v="tiger_import_dch_v0.6_20070829"/>
    <tag k="tiger:tlid" v="87617798:87631586"/>
    <tag k="tiger:upload_uuid" v="bulk_upload.pl-11a6ffe7-dd42-4940-82bc-aa7d76d3b93f"/>
    <tag k="tiger:zip_left" v="29945"/>
    <tag k="tiger:zip_right" v="29945"/>
  </way>
  <way id="58665625" version="8" timestamp="2011-06-29T23:50:05Z" uid="473471" user="NE3" changeset="8586091">
    <nd ref="110004366"/>
    <nd ref="110004364"/>
    <tag k="NHS" v="STRAHNET"/>
    <tag k="bridge" v="yes"/>
    <tag k="highway" v="trunk"/>
    <tag k="lanes" v="2"/>
    <tag k="name" v="Trask Pky"/>
    <tag k="oneway" v="yes"/>
    <tag k="ref" v="US 17; US 21"/>
    <tag k="tiger:cfcc" v="A21"/>
    <tag k="tiger:county" v="Beaufort, SC"/>
    <tag k="tiger:name_base" v="Trask"/>
    <tag k="tiger:name_base_1" v="United States Highway 17"/>
    <tag k="tiger:name_base_2" v="United States Highway 21"/>
    <tag k="tiger:name_type" v="Pky"/>
    <tag k="tiger:reviewed" v="no"/>
    <tag k="tiger:separated" v="no"/>
    <tag k="tiger:source" v="tiger_import_dch_v0.6_20070829"/>
    <tag k="tiger:tlid" v="87617798:87631586"/>
    <tag k="tiger:upload_uuid" v="bulk_upload.pl-11a6ffe7-dd42-4940-82bc-aa7d76d3b93f"/>
    <tag k="tiger:zip_left" v="29945"/>
    <tag k="tiger:zip_right" v="29945"/>
  </way>
  <way id="58665625" version="9" timestamp="2011-11-24T22:10:53Z" uid="207745" user="NE2" changeset="9937881">
    <nd ref="110004366"/>
    <nd ref="110004364"/>
    <tag k="NHS" v="STRAHNET"/>
    <tag k="bridge" v="yes"/>
    <tag k="hgv" v="designated"/>
    <tag k="hgv:national_network" v="yes"/>
    <tag k="highway" v="trunk"/>
    <tag k="lanes" v="2"/>
    <tag k="name" v="Trask Pky"/>
    <tag k="oneway" v="yes"/>
    <tag k="ref" v="US 17; US 21"/>
    <tag k="source:hgv:national_network" v="Title 23: Highways Part 658 http://ecfr.gpoaccess.gov/cgi/t/text/text-idx?c=ecfr&amp;rgn=div5&amp;view=text&amp;node=23:1.0.1.7.33&amp;idno=23"/>
    <tag k="tiger:cfcc" v="A21"/>
    <tag k="tiger:county" v="Beaufort, SC"/>
    <tag k="tiger:name_base" v="Trask"/>
    <tag k="tiger:name_base_1" v="United States Highway 17"/>
    <tag k="tiger:name_base_2" v="United States Highway 21"/>
    <tag k="tiger:name_type" v="Pky"/>
    <tag k="tiger:reviewed" v="no"/>
    <tag k="tiger:separated" v="no"/>
    <tag k="tiger:source" v="tiger_import_dch_v0.6_20070829"/>
    <tag k="tiger:tlid" v="87617798:87631586"/>
    <tag k="tiger:upload_uuid" v="bulk_upload.pl-11a6ffe7-dd42-4940-82bc-aa7d76d3b93f"/>
    <tag k="tiger:zip_left" v="29945"/>
    <tag k="tiger:zip_right" v="29945"/>
  </way>
  <way id="58665626" version="1" timestamp="2010-05-08T22:15:51Z" uid="99207" user="Lar Kiesel" changeset="4643680">
    <nd ref="726861076"/>
    <nd ref="726861077"/>
    <nd ref="726861078"/>
    <nd ref="726861079"/>
    <tag k="highway" v="service"/>
  </way>
  <way id="58665627" version="1" timestamp="2010-05-08T22:15:51Z" uid="99207" user="Lar Kiesel" changeset="4643680">
    <nd ref="726861080"/>
    <nd ref="726861081"/>
    <tag k="highway" v="service"/>
  </way>
  <way id="58665628" version="1" timestamp="2010-05-08T22:15:54Z" uid="99207" user="Lar Kiesel" changeset="4643680">
    <nd ref="726861088"/>
    <nd ref="726861089"/>
    <tag k="bridge" v="yes"/>
    <tag k="highway" v="primary"/>
    <tag k="lanes" v="2"/>
    <tag k="name" v="Trask Pky"/>
    <tag k="name_1" v="United States Highway 17"/>
    <tag k="name_2" v="United States Highway 21"/>
    <tag k="oneway" v="yes"/>
    <tag k="ref" v="US 17; US 21"/>
  </way>
  <way id="58665628" version="2" timestamp="2010-05-09T19:34:20Z" uid="207745" user="NE2" changeset="4653016">
    <nd ref="726861088"/>
    <nd ref="726861089"/>
    <tag k="bridge" v="yes"/>
    <tag k="highway" v="trunk"/>
    <tag k="lanes" v="2"/>
    <tag k="name" v="Trask Pky"/>
    <tag k="name_1" v="United States Highway 17"/>
    <tag k="name_2" v="United States Highway 21"/>
    <tag k="oneway" v="yes"/>
    <tag k="ref" v="US 17; US 21"/>
  </way>
  <way id="58665628" version="3" timestamp="2010-05-10T04:32:09Z" uid="99207" user="Lar Kiesel" changeset="4655870">
    <nd ref="726861088"/>
    <nd ref="726861089"/>
    <tag k="bridge" v="yes"/>
    <tag k="highway" v="primary"/>
    <tag k="lanes" v="2"/>
    <tag k="name" v="Trask Pky"/>
    <tag k="name_1" v="United States Highway 17"/>
    <tag k="name_2" v="United States Highway 21"/>
    <tag k="oneway" v="yes"/>
    <tag k="ref" v="US 17; US 21"/>
  </way>
  <way id="58665628" version="4" timestamp="2010-05-11T12:23:13Z" uid="207745" user="NE2" changeset="4668054">
    <nd ref="726861088"/>
    <nd ref="726861089"/>
    <tag k="bridge" v="yes"/>
    <tag k="highway" v="trunk"/>
    <tag k="lanes" v="2"/>
    <tag k="name" v="Trask Pky"/>
    <tag k="name_1" v="United States Highway 17"/>
    <tag k="name_2" v="United States Highway 21"/>
    <tag k="oneway" v="yes"/>
    <tag k="ref" v="US 17; US 21"/>
  </way>
  <way id="58665628" version="5" timestamp="2010-06-27T17:13:57Z" uid="99207" user="Lar Kiesel" changeset="5091200">
    <nd ref="726861088"/>
    <nd ref="726861089"/>
    <tag k="bridge" v="yes"/>
    <tag k="highway" v="primary"/>
    <tag k="lanes" v="2"/>
    <tag k="name" v="Trask Pky"/>
    <tag k="name_1" v="United States Highway 17"/>
    <tag k="name_2" v="United States Highway 21"/>
    <tag k="oneway" v="yes"/>
    <tag k="ref" v="US 17; US 21"/>
  </way>
  <way id="58665628" version="6" timestamp="2010-12-12T05:13:04Z" uid="207745" user="NE2" changeset="6632313">
    <nd ref="726861088"/>
    <nd ref="726861089"/>
    <tag k="bridge" v="yes"/>
    <tag k="highway" v="trunk"/>
    <tag k="lanes" v="2"/>
    <tag k="name" v="Trask Pky"/>
    <tag k="name_1" v="United States Highway 17"/>
    <tag k="name_2" v="United States Highway 21"/>
    <tag k="oneway" v="yes"/>
    <tag k="ref" v="US 17; US 21"/>
  </way>
  <way id="58665628" version="7" timestamp="2011-05-07T06:31:36Z" uid="207745" user="NE2" changeset="8070753">
    <nd ref="726861088"/>
    <nd ref="726861089"/>
    <tag k="bridge" v="yes"/>
    <tag k="highway" v="trunk"/>
    <tag k="lanes" v="2"/>
    <tag k="name" v="Trask Pky"/>
    <tag k="oneway" v="yes"/>
    <tag k="ref" v="US 17; US 21"/>
  </way>
  <way id="58665628" version="8" timestamp="2011-06-29T23:50:07Z" uid="473471" user="NE3" changeset="8586091">
    <nd ref="726861088"/>
    <nd ref="726861089"/>
    <tag k="NHS" v="STRAHNET"/>
    <tag k="bridge" v="yes"/>
    <tag k="highway" v="trunk"/>
    <tag k="lanes" v="2"/>
    <tag k="name" v="Trask Pky"/>
    <tag k="oneway" v="yes"/>
    <tag k="ref" v="US 17; US 21"/>
  </way>
  <way id="58665628" version="9" timestamp="2011-11-24T22:10:52Z" uid="207745" user="NE2" changeset="9937881">
    <nd ref="726861088"/>
    <nd ref="726861089"/>
    <tag k="NHS" v="STRAHNET"/>
    <tag k="bridge" v="yes"/>
    <tag k="hgv" v="designated"/>
    <tag k="hgv:national_network" v="yes"/>
    <tag k="highway" v="trunk"/>
    <tag k="lanes" v="2"/>
    <tag k="name" v="Trask Pky"/>
    <tag k="oneway" v="yes"/>
    <tag k="ref" v="US 17; US 21"/>
    <tag k="source:hgv:national_network" v="Title 23: Highways Part 658 http://ecfr.gpoaccess.gov/cgi/t/text/text-idx?c=ecfr&amp;rgn=div5&amp;view=text&amp;node=23:1.0.1.7.33&amp;idno=23"/>
  </way>
  <way id="58665631" version="1" timestamp="2010-05-08T22:15:55Z" uid="99207" user="Lar Kiesel" changeset="4643680">
    <nd ref="726861089"/>
    <nd ref="726861090"/>
    <nd ref="726861091"/>
    <nd ref="726861092"/>
    <nd ref="726861093"/>
    <nd ref="726861094"/>
    <nd ref="726861095"/>
    <nd ref="726861096"/>
    <nd ref="726861097"/>
    <tag k="highway" v="primary"/>
    <tag k="lanes" v="2"/>
    <tag k="name" v="Trask Pky"/>
    <tag k="name_1" v="United States Highway 17"/>
    <tag k="name_2" v="United States Highway 21"/>
    <tag k="oneway" v="yes"/>
    <tag k="ref" v="US 17; US 21"/>
  </way>
  <way id="58665631" version="2" timestamp="2010-05-09T19:33:48Z" uid="207745" user="NE2" changeset="4653016">
    <nd ref="726861089"/>
    <nd ref="726861090"/>
    <nd ref="726861091"/>
    <nd ref="726861092"/>
    <nd ref="726861093"/>
    <nd ref="726861094"/>
    <nd ref="726861095"/>
    <nd ref="726861096"/>
    <nd ref="726861097"/>
    <tag k="highway" v="trunk"/>
    <tag k="lanes" v="2"/>
    <tag k="name" v="Trask Pky"/>
    <tag k="name_1" v="United States Highway 17"/>
    <tag k="name_2" v="United States Highway 21"/>
    <tag k="oneway" v="yes"/>
    <tag k="ref" v="US 17; US 21"/>
  </way>
  <way id="58665631" version="3" timestamp="2010-05-10T04:32:17Z" uid="99207" user="Lar Kiesel" changeset="4655870">
    <nd ref="726861089"/>
    <nd ref="726861090"/>
    <nd ref="726861091"/>
    <nd ref="726861092"/>
    <nd ref="726861093"/>
    <nd ref="726861094"/>
    <nd ref="726861095"/>
    <nd ref="726861096"/>
    <nd ref="726861097"/>
    <tag k="highway" v="primary"/>
    <tag k="lanes" v="2"/>
    <tag k="name" v="Trask Pky"/>
    <tag k="name_1" v="United States Highway 17"/>
    <tag k="name_2" v="United States Highway 21"/>
    <tag k="oneway" v="yes"/>
    <tag k="ref" v="US 17; US 21"/>
  </way>
  <way id="58665631" version="4" timestamp="2010-05-11T12:23:30Z" uid="207745" user="NE2" changeset="4668054">
    <nd ref="726861089"/>
    <nd ref="726861090"/>
    <nd ref="726861091"/>
    <nd ref="726861092"/>
    <nd ref="726861093"/>
    <nd ref="726861094"/>
    <nd ref="726861095"/>
    <nd ref="726861096"/>
    <nd ref="726861097"/>
    <tag k="highway" v="trunk"/>
    <tag k="lanes" v="2"/>
    <tag k="name" v="Trask Pky"/>
    <tag k="name_1" v="United States Highway 17"/>
    <tag k="name_2" v="United States Highway 21"/>
    <tag k="oneway" v="yes"/>
    <tag k="ref" v="US 17; US 21"/>
  </way>
  <way id="58665631" version="5" timestamp="2010-06-27T17:14:03Z" uid="99207" user="Lar Kiesel" changeset="5091200">
    <nd ref="726861089"/>
    <nd ref="726861090"/>
    <nd ref="726861091"/>
    <nd ref="726861092"/>
    <nd ref="726861093"/>
    <nd ref="726861094"/>
    <nd ref="726861095"/>
    <nd ref="726861096"/>
    <nd ref="726861097"/>
    <tag k="highway" v="primary"/>
    <tag k="lanes" v="2"/>
    <tag k="name" v="Trask Pky"/>
    <tag k="name_1" v="United States Highway 17"/>
    <tag k="name_2" v="United States Highway 21"/>
    <tag k="oneway" v="yes"/>
    <tag k="ref" v="US 17; US 21"/>
  </way>
  <way id="58665631" version="6" timestamp="2010-12-12T04:56:18Z" uid="207745" user="NE2" changeset="6632313">
    <nd ref="726861089"/>
    <nd ref="726861090"/>
    <nd ref="726861091"/>
    <nd ref="726861092"/>
    <nd ref="726861093"/>
    <nd ref="726861094"/>
    <nd ref="726861095"/>
    <nd ref="726861096"/>
    <nd ref="726861097"/>
    <tag k="highway" v="trunk"/>
    <tag k="lanes" v="2"/>
    <tag k="name" v="Trask Pky"/>
    <tag k="name_1" v="United States Highway 17"/>
    <tag k="name_2" v="United States Highway 21"/>
    <tag k="oneway" v="yes"/>
    <tag k="ref" v="US 17; US 21"/>
  </way>
  <way id="58665631" version="7" timestamp="2011-05-07T06:28:45Z" uid="207745" user="NE2" changeset="8070753">
    <nd ref="726861089"/>
    <nd ref="726861090"/>
    <nd ref="726861091"/>
    <nd ref="726861092"/>
    <nd ref="726861093"/>
    <nd ref="726861094"/>
    <nd ref="726861095"/>
    <nd ref="726861096"/>
    <nd ref="726861097"/>
    <tag k="highway" v="trunk"/>
    <tag k="lanes" v="2"/>
    <tag k="name" v="Trask Pky"/>
    <tag k="oneway" v="yes"/>
    <tag k="ref" v="US 17; US 21"/>
  </way>
  <way id="58665631" version="8" timestamp="2011-06-29T23:50:12Z" uid="473471" user="NE3" changeset="8586091">
    <nd ref="726861089"/>
    <nd ref="726861090"/>
    <nd ref="726861091"/>
    <nd ref="726861092"/>
    <nd ref="726861093"/>
    <nd ref="726861094"/>
    <nd ref="726861095"/>
    <nd ref="726861096"/>
    <nd ref="726861097"/>
    <tag k="NHS" v="STRAHNET"/>
    <tag k="highway" v="trunk"/>
    <tag k="lanes" v="2"/>
    <tag k="name" v="Trask Pky"/>
    <tag k="oneway" v="yes"/>
    <tag k="ref" v="US 17; US 21"/>
  </way>
  <way id="58665631" version="9" timestamp="2011-11-24T22:11:08Z" uid="207745" user="NE2" changeset="9937881">
    <nd ref="726861089"/>
    <nd ref="726861090"/>
    <nd ref="726861091"/>
    <nd ref="726861092"/>
    <nd ref="726861093"/>
    <nd ref="726861094"/>
    <nd ref="726861095"/>
    <nd ref="726861096"/>
    <nd ref="726861097"/>
    <tag k="NHS" v="STRAHNET"/>
    <tag k="hgv" v="designated"/>
    <tag k="hgv:national_network" v="yes"/>
    <tag k="highway" v="trunk"/>
    <tag k="lanes" v="2"/>
    <tag k="name" v="Trask Pky"/>
    <tag k="oneway" v="yes"/>
    <tag k="ref" v="US 17; US 21"/>
    <tag k="source:hgv:national_network" v="Title 23: Highways Part 658 http://ecfr.gpoaccess.gov/cgi/t/text/text-idx?c=ecfr&amp;rgn=div5&amp;view=text&amp;node=23:1.0.1.7.33&amp;idno=23"/>
  </way>
  <way id="58665632" version="1" timestamp="2010-05-08T22:15:55Z" uid="99207" user="Lar Kiesel" changeset="4643680">
    <nd ref="726861098"/>
    <nd ref="726861088"/>
    <tag k="highway" v="primary"/>
    <tag k="lanes" v="2"/>
    <tag k="name" v="Trask Pky"/>
    <tag k="name_1" v="United States Highway 17"/>
    <tag k="name_2" v="United States Highway 21"/>
    <tag k="oneway" v="yes"/>
    <tag k="ref" v="US 17; US 21"/>
  </way>
  <way id="58665632" version="2" timestamp="2010-05-09T19:34:11Z" uid="207745" user="NE2" changeset="4653016">
    <nd ref="726861098"/>
    <nd ref="726861088"/>
    <tag k="highway" v="trunk"/>
    <tag k="lanes" v="2"/>
    <tag k="name" v="Trask Pky"/>
    <tag k="name_1" v="United States Highway 17"/>
    <tag k="name_2" v="United States Highway 21"/>
    <tag k="oneway" v="yes"/>
    <tag k="ref" v="US 17; US 21"/>
  </way>
  <way id="58665632" version="3" timestamp="2010-05-10T04:32:12Z" uid="99207" user="Lar Kiesel" changeset="4655870">
    <nd ref="726861098"/>
    <nd ref="726861088"/>
    <tag k="highway" v="primary"/>
    <tag k="lanes" v="2"/>
    <tag k="name" v="Trask Pky"/>
    <tag k="name_1" v="United States Highway 17"/>
    <tag k="name_2" v="United States Highway 21"/>
    <tag k="oneway" v="yes"/>
    <tag k="ref" v="US 17; US 21"/>
  </way>
  <way id="58665632" version="4" timestamp="2010-05-11T12:23:36Z" uid="207745" user="NE2" changeset="4668054">
    <nd ref="726861098"/>
    <nd ref="726861088"/>
    <tag k="highway" v="trunk"/>
    <tag k="lanes" v="2"/>
    <tag k="name" v="Trask Pky"/>
    <tag k="name_1" v="United States Highway 17"/>
    <tag k="name_2" v="United States Highway 21"/>
    <tag k="oneway" v="yes"/>
    <tag k="ref" v="US 17; US 21"/>
  </way>
  <way id="58665632" version="5" timestamp="2010-06-27T17:13:57Z" uid="99207" user="Lar Kiesel" changeset="5091200">
    <nd ref="726861098"/>
    <nd ref="726861088"/>
    <tag k="highway" v="primary"/>
    <tag k="lanes" v="2"/>
    <tag k="name" v="Trask Pky"/>
    <tag k="name_1" v="United States Highway 17"/>
    <tag k="name_2" v="United States Highway 21"/>
    <tag k="oneway" v="yes"/>
    <tag k="ref" v="US 17; US 21"/>
  </way>
  <way id="58665632" version="6" timestamp="2010-12-12T05:03:41Z" uid="207745" user="NE2" changeset="6632313">
    <nd ref="726861098"/>
    <nd ref="726861088"/>
    <tag k="highway" v="trunk"/>
    <tag k="lanes" v="2"/>
    <tag k="name" v="Trask Pky"/>
    <tag k="name_1" v="United States Highway 17"/>
    <tag k="name_2" v="United States Highway 21"/>
    <tag k="oneway" v="yes"/>
    <tag k="ref" v="US 17; US 21"/>
  </way>
  <way id="58665632" version="7" timestamp="2011-05-07T06:06:14Z" uid="207745" user="NE2" changeset="8070753">
    <nd ref="726861098"/>
    <nd ref="726861088"/>
    <tag k="highway" v="trunk"/>
    <tag k="lanes" v="2"/>
    <tag k="name" v="Trask Pky"/>
    <tag k="oneway" v="yes"/>
    <tag k="ref" v="US 17; US 21"/>
  </way>
  <way id="58665632" version="8" timestamp="2011-06-29T23:50:05Z" uid="473471" user="NE3" changeset="8586091">
    <nd ref="726861098"/>
    <nd ref="726861088"/>
    <tag k="NHS" v="STRAHNET"/>
    <tag k="highway" v="trunk"/>
    <tag k="lanes" v="2"/>
    <tag k="name" v="Trask Pky"/>
    <tag k="oneway" v="yes"/>
    <tag k="ref" v="US 17; US 21"/>
  </way>
  <way id="58665632" version="9" timestamp="2011-11-24T22:10:47Z" uid="207745" user="NE2" changeset="9937881">
    <nd ref="726861098"/>
    <nd ref="726861088"/>
    <tag k="NHS" v="STRAHNET"/>
    <tag k="hgv" v="designated"/>
    <tag k="hgv:national_network" v="yes"/>
    <tag k="highway" v="trunk"/>
    <tag k="lanes" v="2"/>
    <tag k="name" v="Trask Pky"/>
    <tag k="oneway" v="yes"/>
    <tag k="ref" v="US 17; US 21"/>
    <tag k="source:hgv:national_network" v="Title 23: Highways Part 658 http://ecfr.gpoaccess.gov/cgi/t/text/text-idx?c=ecfr&amp;rgn=div5&amp;view=text&amp;node=23:1.0.1.7.33&amp;idno=23"/>
  </way>
  <way id="58665633" version="1" timestamp="2010-05-08T22:15:56Z" uid="99207" user="Lar Kiesel" changeset="4643680">
    <nd ref="726861099"/>
    <nd ref="726861098"/>
    <tag k="bridge" v="yes"/>
    <tag k="highway" v="primary"/>
    <tag k="lanes" v="2"/>
    <tag k="name" v="Trask Pky"/>
    <tag k="name_1" v="United States Highway 17"/>
    <tag k="name_2" v="United States Highway 21"/>
    <tag k="oneway" v="yes"/>
    <tag k="ref" v="US 17; US 21"/>
  </way>
  <way id="58665633" version="2" timestamp="2010-05-09T19:34:19Z" uid="207745" user="NE2" changeset="4653016">
    <nd ref="726861099"/>
    <nd ref="726861098"/>
    <tag k="bridge" v="yes"/>
    <tag k="highway" v="trunk"/>
    <tag k="lanes" v="2"/>
    <tag k="name" v="Trask Pky"/>
    <tag k="name_1" v="United States Highway 17"/>
    <tag k="name_2" v="United States Highway 21"/>
    <tag k="oneway" v="yes"/>
    <tag k="ref" v="US 17; US 21"/>
  </way>
  <way id="58665633" version="3" timestamp="2010-05-10T04:32:09Z" uid="99207" user="Lar Kiesel" changeset="4655870">
    <nd ref="726861099"/>
    <nd ref="726861098"/>
    <tag k="bridge" v="yes"/>
    <tag k="highway" v="primary"/>
    <tag k="lanes" v="2"/>
    <tag k="name" v="Trask Pky"/>
    <tag k="name_1" v="United States Highway 17"/>
    <tag k="name_2" v="United States Highway 21"/>
    <tag k="oneway" v="yes"/>
    <tag k="ref" v="US 17; US 21"/>
  </way>
  <way id="58665633" version="4" timestamp="2010-05-11T12:23:31Z" uid="207745" user="NE2" changeset="4668054">
    <nd ref="726861099"/>
    <nd ref="726861098"/>
    <tag k="bridge" v="yes"/>
    <tag k="highway" v="trunk"/>
    <tag k="lanes" v="2"/>
    <tag k="name" v="Trask Pky"/>
    <tag k="name_1" v="United States Highway 17"/>
    <tag k="name_2" v="United States Highway 21"/>
    <tag k="oneway" v="yes"/>
    <tag k="ref" v="US 17; US 21"/>
  </way>
  <way id="58665633" version="5" timestamp="2010-06-27T17:13:58Z" uid="99207" user="Lar Kiesel" changeset="5091200">
    <nd ref="726861099"/>
    <nd ref="726861098"/>
    <tag k="bridge" v="yes"/>
    <tag k="highway" v="primary"/>
    <tag k="lanes" v="2"/>
    <tag k="name" v="Trask Pky"/>
    <tag k="name_1" v="United States Highway 17"/>
    <tag k="name_2" v="United States Highway 21"/>
    <tag k="oneway" v="yes"/>
    <tag k="ref" v="US 17; US 21"/>
  </way>
  <way id="58665633" version="6" timestamp="2010-12-12T04:58:18Z" uid="207745" user="NE2" changeset="6632313">
    <nd ref="726861099"/>
    <nd ref="726861098"/>
    <tag k="bridge" v="yes"/>
    <tag k="highway" v="trunk"/>
    <tag k="lanes" v="2"/>
    <tag k="name" v="Trask Pky"/>
    <tag k="name_1" v="United States Highway 17"/>
    <tag k="name_2" v="United States Highway 21"/>
    <tag k="oneway" v="yes"/>
    <tag k="ref" v="US 17; US 21"/>
  </way>
  <way id="58665633" version="7" timestamp="2011-05-07T06:10:17Z" uid="207745" user="NE2" changeset="8070753">
    <nd ref="726861099"/>
    <nd ref="726861098"/>
    <tag k="bridge" v="yes"/>
    <tag k="highway" v="trunk"/>
    <tag k="lanes" v="2"/>
    <tag k="name" v="Trask Pky"/>
    <tag k="oneway" v="yes"/>
    <tag k="ref" v="US 17; US 21"/>
  </way>
  <way id="58665633" version="8" timestamp="2011-06-29T23:50:08Z" uid="473471" user="NE3" changeset="8586091">
    <nd ref="726861099"/>
    <nd ref="726861098"/>
    <tag k="NHS" v="STRAHNET"/>
    <tag k="bridge" v="yes"/>
    <tag k="highway" v="trunk"/>
    <tag k="lanes" v="2"/>
    <tag k="name" v="Trask Pky"/>
    <tag k="oneway" v="yes"/>
    <tag k="ref" v="US 17; US 21"/>
  </way>
  <way id="58665633" version="9" timestamp="2011-11-24T22:10:54Z" uid="207745" user="NE2" changeset="9937881">
    <nd ref="726861099"/>
    <nd ref="726861098"/>
    <tag k="NHS" v="STRAHNET"/>
    <tag k="bridge" v="yes"/>
    <tag k="hgv" v="designated"/>
    <tag k="hgv:national_network" v="yes"/>
    <tag k="highway" v="trunk"/>
    <tag k="lanes" v="2"/>
    <tag k="name" v="Trask Pky"/>
    <tag k="oneway" v="yes"/>
    <tag k="ref" v="US 17; US 21"/>
    <tag k="source:hgv:national_network" v="Title 23: Highways Part 658 http://ecfr.gpoaccess.gov/cgi/t/text/text-idx?c=ecfr&amp;rgn=div5&amp;view=text&amp;node=23:1.0.1.7.33&amp;idno=23"/>
  </way>
  <way id="58665634" version="1" timestamp="2010-05-08T22:15:56Z" uid="99207" user="Lar Kiesel" changeset="4643680">
    <nd ref="726861097"/>
    <nd ref="726861055"/>
    <tag k="bridge" v="yes"/>
    <tag k="highway" v="primary"/>
    <tag k="lanes" v="2"/>
    <tag k="name" v="Trask Pky"/>
    <tag k="name_1" v="United States Highway 17"/>
    <tag k="name_2" v="United States Highway 21"/>
    <tag k="oneway" v="yes"/>
    <tag k="ref" v="US 17; US 21"/>
  </way>
  <way id="58665634" version="2" timestamp="2010-05-09T19:34:21Z" uid="207745" user="NE2" changeset="4653016">
    <nd ref="726861097"/>
    <nd ref="726861055"/>
    <tag k="bridge" v="yes"/>
    <tag k="highway" v="trunk"/>
    <tag k="lanes" v="2"/>
    <tag k="name" v="Trask Pky"/>
    <tag k="name_1" v="United States Highway 17"/>
    <tag k="name_2" v="United States Highway 21"/>
    <tag k="oneway" v="yes"/>
    <tag k="ref" v="US 17; US 21"/>
  </way>
  <way id="58665634" version="3" timestamp="2010-05-10T04:32:17Z" uid="99207" user="Lar Kiesel" changeset="4655870">
    <nd ref="726861097"/>
    <nd ref="726861055"/>
    <tag k="bridge" v="yes"/>
    <tag k="highway" v="primary"/>
    <tag k="lanes" v="2"/>
    <tag k="name" v="Trask Pky"/>
    <tag k="name_1" v="United States Highway 17"/>
    <tag k="name_2" v="United States Highway 21"/>
    <tag k="oneway" v="yes"/>
    <tag k="ref" v="US 17; US 21"/>
  </way>
  <way id="58665634" version="4" timestamp="2010-05-11T12:23:28Z" uid="207745" user="NE2" changeset="4668054">
    <nd ref="726861097"/>
    <nd ref="726861055"/>
    <tag k="bridge" v="yes"/>
    <tag k="highway" v="trunk"/>
    <tag k="lanes" v="2"/>
    <tag k="name" v="Trask Pky"/>
    <tag k="name_1" v="United States Highway 17"/>
    <tag k="name_2" v="United States Highway 21"/>
    <tag k="oneway" v="yes"/>
    <tag k="ref" v="US 17; US 21"/>
  </way>
  <way id="58665634" version="5" timestamp="2010-06-27T17:14:04Z" uid="99207" user="Lar Kiesel" changeset="5091200">
    <nd ref="726861097"/>
    <nd ref="726861055"/>
    <tag k="bridge" v="yes"/>
    <tag k="highway" v="primary"/>
    <tag k="lanes" v="2"/>
    <tag k="name" v="Trask Pky"/>
    <tag k="name_1" v="United States Highway 17"/>
    <tag k="name_2" v="United States Highway 21"/>
    <tag k="oneway" v="yes"/>
    <tag k="ref" v="US 17; US 21"/>
  </way>
  <way id="58665634" version="6" timestamp="2010-12-12T04:52:51Z" uid="207745" user="NE2" changeset="6632313">
    <nd ref="726861097"/>
    <nd ref="726861055"/>
    <tag k="bridge" v="yes"/>
    <tag k="highway" v="trunk"/>
    <tag k="lanes" v="2"/>
    <tag k="name" v="Trask Pky"/>
    <tag k="name_1" v="United States Highway 17"/>
    <tag k="name_2" v="United States Highway 21"/>
    <tag k="oneway" v="yes"/>
    <tag k="ref" v="US 17; US 21"/>
  </way>
  <way id="58665634" version="7" timestamp="2011-05-07T06:32:50Z" uid="207745" user="NE2" changeset="8070753">
    <nd ref="726861097"/>
    <nd ref="726861055"/>
    <tag k="bridge" v="yes"/>
    <tag k="highway" v="trunk"/>
    <tag k="lanes" v="2"/>
    <tag k="name" v="Trask Pky"/>
    <tag k="oneway" v="yes"/>
    <tag k="ref" v="US 17; US 21"/>
  </way>
  <way id="58665634" version="8" timestamp="2011-06-29T23:50:05Z" uid="473471" user="NE3" changeset="8586091">
    <nd ref="726861097"/>
    <nd ref="726861055"/>
    <tag k="NHS" v="STRAHNET"/>
    <tag k="bridge" v="yes"/>
    <tag k="highway" v="trunk"/>
    <tag k="lanes" v="2"/>
    <tag k="name" v="Trask Pky"/>
    <tag k="oneway" v="yes"/>
    <tag k="ref" v="US 17; US 21"/>
  </way>
  <way id="58665634" version="9" timestamp="2011-11-24T22:10:52Z" uid="207745" user="NE2" changeset="9937881">
    <nd ref="726861097"/>
    <nd ref="726861055"/>
    <tag k="NHS" v="STRAHNET"/>
    <tag k="bridge" v="yes"/>
    <tag k="hgv" v="designated"/>
    <tag k="hgv:national_network" v="yes"/>
    <tag k="highway" v="trunk"/>
    <tag k="lanes" v="2"/>
    <tag k="name" v="Trask Pky"/>
    <tag k="oneway" v="yes"/>
    <tag k="ref" v="US 17; US 21"/>
    <tag k="source:hgv:national_network" v="Title 23: Highways Part 658 http://ecfr.gpoaccess.gov/cgi/t/text/text-idx?c=ecfr&amp;rgn=div5&amp;view=text&amp;node=23:1.0.1.7.33&amp;idno=23"/>
  </way>
  <way id="58665638" version="1" timestamp="2010-05-08T22:15:58Z" uid="99207" user="Lar Kiesel" changeset="4643680">
    <nd ref="110004357"/>
    <nd ref="110004355"/>
    <tag k="bridge" v="yes"/>
    <tag k="highway" v="primary"/>
    <tag k="lanes" v="2"/>
    <tag k="name" v="Trask Pky"/>
    <tag k="name_1" v="United States Highway 17"/>
    <tag k="name_2" v="United States Highway 21"/>
    <tag k="oneway" v="yes"/>
    <tag k="ref" v="US 17; US 21"/>
    <tag k="tiger:cfcc" v="A21"/>
    <tag k="tiger:county" v="Beaufort, SC"/>
    <tag k="tiger:name_base" v="Trask"/>
    <tag k="tiger:name_base_1" v="United States Highway 17"/>
    <tag k="tiger:name_base_2" v="United States Highway 21"/>
    <tag k="tiger:name_type" v="Pky"/>
    <tag k="tiger:reviewed" v="no"/>
    <tag k="tiger:separated" v="no"/>
    <tag k="tiger:source" v="tiger_import_dch_v0.6_20070829"/>
    <tag k="tiger:tlid" v="87617798:87631586"/>
    <tag k="tiger:upload_uuid" v="bulk_upload.pl-11a6ffe7-dd42-4940-82bc-aa7d76d3b93f"/>
    <tag k="tiger:zip_left" v="29945"/>
    <tag k="tiger:zip_right" v="29945"/>
  </way>
  <way id="58665638" version="2" timestamp="2010-05-09T19:22:30Z" uid="207745" user="NE2" changeset="4653016">
    <nd ref="110004357"/>
    <nd ref="110004355"/>
    <tag k="bridge" v="yes"/>
    <tag k="highway" v="trunk"/>
    <tag k="lanes" v="2"/>
    <tag k="name" v="Trask Pky"/>
    <tag k="name_1" v="United States Highway 17"/>
    <tag k="name_2" v="United States Highway 21"/>
    <tag k="oneway" v="yes"/>
    <tag k="ref" v="US 17; US 21"/>
    <tag k="tiger:cfcc" v="A21"/>
    <tag k="tiger:county" v="Beaufort, SC"/>
    <tag k="tiger:name_base" v="Trask"/>
    <tag k="tiger:name_base_1" v="United States Highway 17"/>
    <tag k="tiger:name_base_2" v="United States Highway 21"/>
    <tag k="tiger:name_type" v="Pky"/>
    <tag k="tiger:reviewed" v="no"/>
    <tag k="tiger:separated" v="no"/>
    <tag k="tiger:source" v="tiger_import_dch_v0.6_20070829"/>
    <tag k="tiger:tlid" v="87617798:87631586"/>
    <tag k="tiger:upload_uuid" v="bulk_upload.pl-11a6ffe7-dd42-4940-82bc-aa7d76d3b93f"/>
    <tag k="tiger:zip_left" v="29945"/>
    <tag k="tiger:zip_right" v="29945"/>
  </way>
  <way id="58665638" version="3" timestamp="2010-05-10T04:32:11Z" uid="99207" user="Lar Kiesel" changeset="4655870">
    <nd ref="110004357"/>
    <nd ref="110004355"/>
    <tag k="bridge" v="yes"/>
    <tag k="highway" v="primary"/>
    <tag k="lanes" v="2"/>
    <tag k="name" v="Trask Pky"/>
    <tag k="name_1" v="United States Highway 17"/>
    <tag k="name_2" v="United States Highway 21"/>
    <tag k="oneway" v="yes"/>
    <tag k="ref" v="US 17; US 21"/>
    <tag k="tiger:cfcc" v="A21"/>
    <tag k="tiger:county" v="Beaufort, SC"/>
    <tag k="tiger:name_base" v="Trask"/>
    <tag k="tiger:name_base_1" v="United States Highway 17"/>
    <tag k="tiger:name_base_2" v="United States Highway 21"/>
    <tag k="tiger:name_type" v="Pky"/>
    <tag k="tiger:reviewed" v="no"/>
    <tag k="tiger:separated" v="no"/>
    <tag k="tiger:source" v="tiger_import_dch_v0.6_20070829"/>
    <tag k="tiger:tlid" v="87617798:87631586"/>
    <tag k="tiger:upload_uuid" v="bulk_upload.pl-11a6ffe7-dd42-4940-82bc-aa7d76d3b93f"/>
    <tag k="tiger:zip_left" v="29945"/>
    <tag k="tiger:zip_right" v="29945"/>
  </way>
  <way id="58665638" version="4" timestamp="2010-05-11T12:23:40Z" uid="207745" user="NE2" changeset="4668054">
    <nd ref="110004357"/>
    <nd ref="110004355"/>
    <tag k="bridge" v="yes"/>
    <tag k="highway" v="trunk"/>
    <tag k="lanes" v="2"/>
    <tag k="name" v="Trask Pky"/>
    <tag k="name_1" v="United States Highway 17"/>
    <tag k="name_2" v="United States Highway 21"/>
    <tag k="oneway" v="yes"/>
    <tag k="ref" v="US 17; US 21"/>
    <tag k="tiger:cfcc" v="A21"/>
    <tag k="tiger:county" v="Beaufort, SC"/>
    <tag k="tiger:name_base" v="Trask"/>
    <tag k="tiger:name_base_1" v="United States Highway 17"/>
    <tag k="tiger:name_base_2" v="United States Highway 21"/>
    <tag k="tiger:name_type" v="Pky"/>
    <tag k="tiger:reviewed" v="no"/>
    <tag k="tiger:separated" v="no"/>
    <tag k="tiger:source" v="tiger_import_dch_v0.6_20070829"/>
    <tag k="tiger:tlid" v="87617798:87631586"/>
    <tag k="tiger:upload_uuid" v="bulk_upload.pl-11a6ffe7-dd42-4940-82bc-aa7d76d3b93f"/>
    <tag k="tiger:zip_left" v="29945"/>
    <tag k="tiger:zip_right" v="29945"/>
  </way>
  <way id="58665638" version="5" timestamp="2010-06-27T17:13:56Z" uid="99207" user="Lar Kiesel" changeset="5091200">
    <nd ref="110004357"/>
    <nd ref="110004355"/>
    <tag k="bridge" v="yes"/>
    <tag k="highway" v="primary"/>
    <tag k="lanes" v="2"/>
    <tag k="name" v="Trask Pky"/>
    <tag k="name_1" v="United States Highway 17"/>
    <tag k="name_2" v="United States Highway 21"/>
    <tag k="oneway" v="yes"/>
    <tag k="ref" v="US 17; US 21"/>
    <tag k="tiger:cfcc" v="A21"/>
    <tag k="tiger:county" v="Beaufort, SC"/>
    <tag k="tiger:name_base" v="Trask"/>
    <tag k="tiger:name_base_1" v="United States Highway 17"/>
    <tag k="tiger:name_base_2" v="United States Highway 21"/>
    <tag k="tiger:name_type" v="Pky"/>
    <tag k="tiger:reviewed" v="no"/>
    <tag k="tiger:separated" v="no"/>
    <tag k="tiger:source" v="tiger_import_dch_v0.6_20070829"/>
    <tag k="tiger:tlid" v="87617798:87631586"/>
    <tag k="tiger:upload_uuid" v="bulk_upload.pl-11a6ffe7-dd42-4940-82bc-aa7d76d3b93f"/>
    <tag k="tiger:zip_left" v="29945"/>
    <tag k="tiger:zip_right" v="29945"/>
  </way>
  <way id="58665638" version="6" timestamp="2010-12-12T04:58:49Z" uid="207745" user="NE2" changeset="6632313">
    <nd ref="110004357"/>
    <nd ref="110004355"/>
    <tag k="bridge" v="yes"/>
    <tag k="highway" v="trunk"/>
    <tag k="lanes" v="2"/>
    <tag k="name" v="Trask Pky"/>
    <tag k="name_1" v="United States Highway 17"/>
    <tag k="name_2" v="United States Highway 21"/>
    <tag k="oneway" v="yes"/>
    <tag k="ref" v="US 17; US 21"/>
    <tag k="tiger:cfcc" v="A21"/>
    <tag k="tiger:county" v="Beaufort, SC"/>
    <tag k="tiger:name_base" v="Trask"/>
    <tag k="tiger:name_base_1" v="United States Highway 17"/>
    <tag k="tiger:name_base_2" v="United States Highway 21"/>
    <tag k="tiger:name_type" v="Pky"/>
    <tag k="tiger:reviewed" v="no"/>
    <tag k="tiger:separated" v="no"/>
    <tag k="tiger:source" v="tiger_import_dch_v0.6_20070829"/>
    <tag k="tiger:tlid" v="87617798:87631586"/>
    <tag k="tiger:upload_uuid" v="bulk_upload.pl-11a6ffe7-dd42-4940-82bc-aa7d76d3b93f"/>
    <tag k="tiger:zip_left" v="29945"/>
    <tag k="tiger:zip_right" v="29945"/>
  </way>
  <way id="58665638" version="7" timestamp="2011-06-11T04:16:37Z" uid="207745" user="NE2" changeset="8402497">
    <nd ref="110004357"/>
    <nd ref="110004355"/>
    <tag k="bridge" v="yes"/>
    <tag k="highway" v="trunk"/>
    <tag k="lanes" v="2"/>
    <tag k="name" v="Trask Pky"/>
    <tag k="oneway" v="yes"/>
    <tag k="ref" v="US 17; US 21"/>
    <tag k="tiger:cfcc" v="A21"/>
    <tag k="tiger:county" v="Beaufort, SC"/>
    <tag k="tiger:name_base" v="Trask"/>
    <tag k="tiger:name_base_1" v="United States Highway 17"/>
    <tag k="tiger:name_base_2" v="United States Highway 21"/>
    <tag k="tiger:name_type" v="Pky"/>
    <tag k="tiger:reviewed" v="no"/>
    <tag k="tiger:separated" v="no"/>
    <tag k="tiger:source" v="tiger_import_dch_v0.6_20070829"/>
    <tag k="tiger:tlid" v="87617798:87631586"/>
    <tag k="tiger:upload_uuid" v="bulk_upload.pl-11a6ffe7-dd42-4940-82bc-aa7d76d3b93f"/>
    <tag k="tiger:zip_left" v="29945"/>
    <tag k="tiger:zip_right" v="29945"/>
  </way>
  <way id="58665638" version="8" timestamp="2011-06-29T23:50:07Z" uid="473471" user="NE3" changeset="8586091">
    <nd ref="110004357"/>
    <nd ref="110004355"/>
    <tag k="NHS" v="STRAHNET"/>
    <tag k="bridge" v="yes"/>
    <tag k="highway" v="trunk"/>
    <tag k="lanes" v="2"/>
    <tag k="name" v="Trask Pky"/>
    <tag k="oneway" v="yes"/>
    <tag k="ref" v="US 17; US 21"/>
    <tag k="tiger:cfcc" v="A21"/>
    <tag k="tiger:county" v="Beaufort, SC"/>
    <tag k="tiger:name_base" v="Trask"/>
    <tag k="tiger:name_base_1" v="United States Highway 17"/>
    <tag k="tiger:name_base_2" v="United States Highway 21"/>
    <tag k="tiger:name_type" v="Pky"/>
    <tag k="tiger:reviewed" v="no"/>
    <tag k="tiger:separated" v="no"/>
    <tag k="tiger:source" v="tiger_import_dch_v0.6_20070829"/>
    <tag k="tiger:tlid" v="87617798:87631586"/>
    <tag k="tiger:upload_uuid" v="bulk_upload.pl-11a6ffe7-dd42-4940-82bc-aa7d76d3b93f"/>
    <tag k="tiger:zip_left" v="29945"/>
    <tag k="tiger:zip_right" v="29945"/>
  </way>
  <way id="58665638" version="9" timestamp="2011-11-24T22:10:49Z" uid="207745" user="NE2" changeset="9937881">
    <nd ref="110004357"/>
    <nd ref="110004355"/>
    <tag k="NHS" v="STRAHNET"/>
    <tag k="bridge" v="yes"/>
    <tag k="hgv" v="designated"/>
    <tag k="hgv:national_network" v="yes"/>
    <tag k="highway" v="trunk"/>
    <tag k="lanes" v="2"/>
    <tag k="name" v="Trask Pky"/>
    <tag k="oneway" v="yes"/>
    <tag k="ref" v="US 17; US 21"/>
    <tag k="source:hgv:national_network" v="Title 23: Highways Part 658 http://ecfr.gpoaccess.gov/cgi/t/text/text-idx?c=ecfr&amp;rgn=div5&amp;view=text&amp;node=23:1.0.1.7.33&amp;idno=23"/>
    <tag k="tiger:cfcc" v="A21"/>
    <tag k="tiger:county" v="Beaufort, SC"/>
    <tag k="tiger:name_base" v="Trask"/>
    <tag k="tiger:name_base_1" v="United States Highway 17"/>
    <tag k="tiger:name_base_2" v="United States Highway 21"/>
    <tag k="tiger:name_type" v="Pky"/>
    <tag k="tiger:reviewed" v="no"/>
    <tag k="tiger:separated" v="no"/>
    <tag k="tiger:source" v="tiger_import_dch_v0.6_20070829"/>
    <tag k="tiger:tlid" v="87617798:87631586"/>
    <tag k="tiger:upload_uuid" v="bulk_upload.pl-11a6ffe7-dd42-4940-82bc-aa7d76d3b93f"/>
    <tag k="tiger:zip_left" v="29945"/>
    <tag k="tiger:zip_right" v="29945"/>
  </way>
  <way id="58665639" version="1" timestamp="2010-05-08T22:15:59Z" uid="99207" user="Lar Kiesel" changeset="4643680">
    <nd ref="726861111"/>
    <nd ref="726861112"/>
    <tag k="bridge" v="yes"/>
    <tag k="highway" v="primary"/>
    <tag k="lanes" v="2"/>
    <tag k="name" v="Trask Pky"/>
    <tag k="name_1" v="United States Highway 17"/>
    <tag k="name_2" v="United States Highway 21"/>
    <tag k="oneway" v="yes"/>
    <tag k="ref" v="US 17; US 21"/>
    <tag k="tiger:cfcc" v="A21"/>
    <tag k="tiger:county" v="Beaufort, SC"/>
    <tag k="tiger:name_base" v="Trask"/>
    <tag k="tiger:name_base_1" v="United States Highway 17"/>
    <tag k="tiger:name_base_2" v="United States Highway 21"/>
    <tag k="tiger:name_type" v="Pky"/>
    <tag k="tiger:reviewed" v="no"/>
    <tag k="tiger:separated" v="no"/>
    <tag k="tiger:source" v="tiger_import_dch_v0.6_20070829"/>
    <tag k="tiger:tlid" v="87617798:87631586"/>
    <tag k="tiger:upload_uuid" v="bulk_upload.pl-11a6ffe7-dd42-4940-82bc-aa7d76d3b93f"/>
    <tag k="tiger:zip_left" v="29945"/>
    <tag k="tiger:zip_right" v="29945"/>
  </way>
  <way id="58665639" version="2" timestamp="2010-05-09T19:23:14Z" uid="207745" user="NE2" changeset="4653016">
    <nd ref="726861111"/>
    <nd ref="726861112"/>
    <tag k="bridge" v="yes"/>
    <tag k="highway" v="trunk"/>
    <tag k="lanes" v="2"/>
    <tag k="name" v="Trask Pky"/>
    <tag k="name_1" v="United States Highway 17"/>
    <tag k="name_2" v="United States Highway 21"/>
    <tag k="oneway" v="yes"/>
    <tag k="ref" v="US 17; US 21"/>
    <tag k="tiger:cfcc" v="A21"/>
    <tag k="tiger:county" v="Beaufort, SC"/>
    <tag k="tiger:name_base" v="Trask"/>
    <tag k="tiger:name_base_1" v="United States Highway 17"/>
    <tag k="tiger:name_base_2" v="United States Highway 21"/>
    <tag k="tiger:name_type" v="Pky"/>
    <tag k="tiger:reviewed" v="no"/>
    <tag k="tiger:separated" v="no"/>
    <tag k="tiger:source" v="tiger_import_dch_v0.6_20070829"/>
    <tag k="tiger:tlid" v="87617798:87631586"/>
    <tag k="tiger:upload_uuid" v="bulk_upload.pl-11a6ffe7-dd42-4940-82bc-aa7d76d3b93f"/>
    <tag k="tiger:zip_left" v="29945"/>
    <tag k="tiger:zip_right" v="29945"/>
  </way>
  <way id="58665639" version="3" timestamp="2010-05-10T04:32:09Z" uid="99207" user="Lar Kiesel" changeset="4655870">
    <nd ref="726861111"/>
    <nd ref="726861112"/>
    <tag k="bridge" v="yes"/>
    <tag k="highway" v="primary"/>
    <tag k="lanes" v="2"/>
    <tag k="name" v="Trask Pky"/>
    <tag k="name_1" v="United States Highway 17"/>
    <tag k="name_2" v="United States Highway 21"/>
    <tag k="oneway" v="yes"/>
    <tag k="ref" v="US 17; US 21"/>
    <tag k="tiger:cfcc" v="A21"/>
    <tag k="tiger:county" v="Beaufort, SC"/>
    <tag k="tiger:name_base" v="Trask"/>
    <tag k="tiger:name_base_1" v="United States Highway 17"/>
    <tag k="tiger:name_base_2" v="United States Highway 21"/>
    <tag k="tiger:name_type" v="Pky"/>
    <tag k="tiger:reviewed" v="no"/>
    <tag k="tiger:separated" v="no"/>
    <tag k="tiger:source" v="tiger_import_dch_v0.6_20070829"/>
    <tag k="tiger:tlid" v="87617798:87631586"/>
    <tag k="tiger:upload_uuid" v="bulk_upload.pl-11a6ffe7-dd42-4940-82bc-aa7d76d3b93f"/>
    <tag k="tiger:zip_left" v="29945"/>
    <tag k="tiger:zip_right" v="29945"/>
  </way>
  <way id="58665639" version="4" timestamp="2010-05-11T12:23:34Z" uid="207745" user="NE2" changeset="4668054">
    <nd ref="726861111"/>
    <nd ref="726861112"/>
    <tag k="bridge" v="yes"/>
    <tag k="highway" v="trunk"/>
    <tag k="lanes" v="2"/>
    <tag k="name" v="Trask Pky"/>
    <tag k="name_1" v="United States Highway 17"/>
    <tag k="name_2" v="United States Highway 21"/>
    <tag k="oneway" v="yes"/>
    <tag k="ref" v="US 17; US 21"/>
    <tag k="tiger:cfcc" v="A21"/>
    <tag k="tiger:county" v="Beaufort, SC"/>
    <tag k="tiger:name_base" v="Trask"/>
    <tag k="tiger:name_base_1" v="United States Highway 17"/>
    <tag k="tiger:name_base_2" v="United States Highway 21"/>
    <tag k="tiger:name_type" v="Pky"/>
    <tag k="tiger:reviewed" v="no"/>
    <tag k="tiger:separated" v="no"/>
    <tag k="tiger:source" v="tiger_import_dch_v0.6_20070829"/>
    <tag k="tiger:tlid" v="87617798:87631586"/>
    <tag k="tiger:upload_uuid" v="bulk_upload.pl-11a6ffe7-dd42-4940-82bc-aa7d76d3b93f"/>
    <tag k="tiger:zip_left" v="29945"/>
    <tag k="tiger:zip_right" v="29945"/>
  </way>
  <way id="58665639" version="5" timestamp="2010-06-27T17:13:57Z" uid="99207" user="Lar Kiesel" changeset="5091200">
    <nd ref="726861111"/>
    <nd ref="726861112"/>
    <tag k="bridge" v="yes"/>
    <tag k="highway" v="primary"/>
    <tag k="lanes" v="2"/>
    <tag k="name" v="Trask Pky"/>
    <tag k="name_1" v="United States Highway 17"/>
    <tag k="name_2" v="United States Highway 21"/>
    <tag k="oneway" v="yes"/>
    <tag k="ref" v="US 17; US 21"/>
    <tag k="tiger:cfcc" v="A21"/>
    <tag k="tiger:county" v="Beaufort, SC"/>
    <tag k="tiger:name_base" v="Trask"/>
    <tag k="tiger:name_base_1" v="United States Highway 17"/>
    <tag k="tiger:name_base_2" v="United States Highway 21"/>
    <tag k="tiger:name_type" v="Pky"/>
    <tag k="tiger:reviewed" v="no"/>
    <tag k="tiger:separated" v="no"/>
    <tag k="tiger:source" v="tiger_import_dch_v0.6_20070829"/>
    <tag k="tiger:tlid" v="87617798:87631586"/>
    <tag k="tiger:upload_uuid" v="bulk_upload.pl-11a6ffe7-dd42-4940-82bc-aa7d76d3b93f"/>
    <tag k="tiger:zip_left" v="29945"/>
    <tag k="tiger:zip_right" v="29945"/>
  </way>
  <way id="58665639" version="6" timestamp="2010-12-12T04:53:14Z" uid="207745" user="NE2" changeset="6632313">
    <nd ref="726861111"/>
    <nd ref="726861112"/>
    <tag k="bridge" v="yes"/>
    <tag k="highway" v="trunk"/>
    <tag k="lanes" v="2"/>
    <tag k="name" v="Trask Pky"/>
    <tag k="name_1" v="United States Highway 17"/>
    <tag k="name_2" v="United States Highway 21"/>
    <tag k="oneway" v="yes"/>
    <tag k="ref" v="US 17; US 21"/>
    <tag k="tiger:cfcc" v="A21"/>
    <tag k="tiger:county" v="Beaufort, SC"/>
    <tag k="tiger:name_base" v="Trask"/>
    <tag k="tiger:name_base_1" v="United States Highway 17"/>
    <tag k="tiger:name_base_2" v="United States Highway 21"/>
    <tag k="tiger:name_type" v="Pky"/>
    <tag k="tiger:reviewed" v="no"/>
    <tag k="tiger:separated" v="no"/>
    <tag k="tiger:source" v="tiger_import_dch_v0.6_20070829"/>
    <tag k="tiger:tlid" v="87617798:87631586"/>
    <tag k="tiger:upload_uuid" v="bulk_upload.pl-11a6ffe7-dd42-4940-82bc-aa7d76d3b93f"/>
    <tag k="tiger:zip_left" v="29945"/>
    <tag k="tiger:zip_right" v="29945"/>
  </way>
  <way id="58665639" version="7" timestamp="2011-06-11T04:13:21Z" uid="207745" user="NE2" changeset="8402497">
    <nd ref="726861111"/>
    <nd ref="726861112"/>
    <tag k="bridge" v="yes"/>
    <tag k="highway" v="trunk"/>
    <tag k="lanes" v="2"/>
    <tag k="name" v="Trask Pky"/>
    <tag k="oneway" v="yes"/>
    <tag k="ref" v="US 17; US 21"/>
    <tag k="tiger:cfcc" v="A21"/>
    <tag k="tiger:county" v="Beaufort, SC"/>
    <tag k="tiger:name_base" v="Trask"/>
    <tag k="tiger:name_base_1" v="United States Highway 17"/>
    <tag k="tiger:name_base_2" v="United States Highway 21"/>
    <tag k="tiger:name_type" v="Pky"/>
    <tag k="tiger:reviewed" v="no"/>
    <tag k="tiger:separated" v="no"/>
    <tag k="tiger:source" v="tiger_import_dch_v0.6_20070829"/>
    <tag k="tiger:tlid" v="87617798:87631586"/>
    <tag k="tiger:upload_uuid" v="bulk_upload.pl-11a6ffe7-dd42-4940-82bc-aa7d76d3b93f"/>
    <tag k="tiger:zip_left" v="29945"/>
    <tag k="tiger:zip_right" v="29945"/>
  </way>
  <way id="58665639" version="8" timestamp="2011-06-29T23:50:06Z" uid="473471" user="NE3" changeset="8586091">
    <nd ref="726861111"/>
    <nd ref="726861112"/>
    <tag k="NHS" v="STRAHNET"/>
    <tag k="bridge" v="yes"/>
    <tag k="highway" v="trunk"/>
    <tag k="lanes" v="2"/>
    <tag k="name" v="Trask Pky"/>
    <tag k="oneway" v="yes"/>
    <tag k="ref" v="US 17; US 21"/>
    <tag k="tiger:cfcc" v="A21"/>
    <tag k="tiger:county" v="Beaufort, SC"/>
    <tag k="tiger:name_base" v="Trask"/>
    <tag k="tiger:name_base_1" v="United States Highway 17"/>
    <tag k="tiger:name_base_2" v="United States Highway 21"/>
    <tag k="tiger:name_type" v="Pky"/>
    <tag k="tiger:reviewed" v="no"/>
    <tag k="tiger:separated" v="no"/>
    <tag k="tiger:source" v="tiger_import_dch_v0.6_20070829"/>
    <tag k="tiger:tlid" v="87617798:87631586"/>
    <tag k="tiger:upload_uuid" v="bulk_upload.pl-11a6ffe7-dd42-4940-82bc-aa7d76d3b93f"/>
    <tag k="tiger:zip_left" v="29945"/>
    <tag k="tiger:zip_right" v="29945"/>
  </way>
  <way id="58665639" version="9" timestamp="2011-11-24T22:10:48Z" uid="207745" user="NE2" changeset="9937881">
    <nd ref="726861111"/>
    <nd ref="726861112"/>
    <tag k="NHS" v="STRAHNET"/>
    <tag k="bridge" v="yes"/>
    <tag k="hgv" v="designated"/>
    <tag k="hgv:national_network" v="yes"/>
    <tag k="highway" v="trunk"/>
    <tag k="lanes" v="2"/>
    <tag k="name" v="Trask Pky"/>
    <tag k="oneway" v="yes"/>
    <tag k="ref" v="US 17; US 21"/>
    <tag k="source:hgv:national_network" v="Title 23: Highways Part 658 http://ecfr.gpoaccess.gov/cgi/t/text/text-idx?c=ecfr&amp;rgn=div5&amp;view=text&amp;node=23:1.0.1.7.33&amp;idno=23"/>
    <tag k="tiger:cfcc" v="A21"/>
    <tag k="tiger:county" v="Beaufort, SC"/>
    <tag k="tiger:name_base" v="Trask"/>
    <tag k="tiger:name_base_1" v="United States Highway 17"/>
    <tag k="tiger:name_base_2" v="United States Highway 21"/>
    <tag k="tiger:name_type" v="Pky"/>
    <tag k="tiger:reviewed" v="no"/>
    <tag k="tiger:separated" v="no"/>
    <tag k="tiger:source" v="tiger_import_dch_v0.6_20070829"/>
    <tag k="tiger:tlid" v="87617798:87631586"/>
    <tag k="tiger:upload_uuid" v="bulk_upload.pl-11a6ffe7-dd42-4940-82bc-aa7d76d3b93f"/>
    <tag k="tiger:zip_left" v="29945"/>
    <tag k="tiger:zip_right" v="29945"/>
  </way>
  <way id="58665640" version="1" timestamp="2010-05-08T22:16:01Z" uid="99207" user="Lar Kiesel" changeset="4643680">
    <nd ref="726861112"/>
    <nd ref="110004353"/>
    <nd ref="726861113"/>
    <nd ref="110004350"/>
    <nd ref="726861114"/>
    <nd ref="110004344"/>
    <nd ref="109952365"/>
    <nd ref="110004342"/>
    <nd ref="109945155"/>
    <nd ref="110004339"/>
    <nd ref="110004335"/>
    <nd ref="109957841"/>
    <tag k="highway" v="primary"/>
    <tag k="lanes" v="2"/>
    <tag k="name" v="Trask Pky"/>
    <tag k="name_1" v="United States Highway 17"/>
    <tag k="name_2" v="United States Highway 21"/>
    <tag k="oneway" v="yes"/>
    <tag k="ref" v="US 17; US 21"/>
    <tag k="tiger:cfcc" v="A21"/>
    <tag k="tiger:county" v="Beaufort, SC"/>
    <tag k="tiger:name_base" v="Trask"/>
    <tag k="tiger:name_base_1" v="United States Highway 17"/>
    <tag k="tiger:name_base_2" v="United States Highway 21"/>
    <tag k="tiger:name_type" v="Pky"/>
    <tag k="tiger:reviewed" v="no"/>
    <tag k="tiger:separated" v="no"/>
    <tag k="tiger:source" v="tiger_import_dch_v0.6_20070829"/>
    <tag k="tiger:tlid" v="87617798:87631586"/>
    <tag k="tiger:upload_uuid" v="bulk_upload.pl-11a6ffe7-dd42-4940-82bc-aa7d76d3b93f"/>
    <tag k="tiger:zip_left" v="29945"/>
    <tag k="tiger:zip_right" v="29945"/>
  </way>
  <way id="58665640" version="2" timestamp="2010-05-09T19:22:11Z" uid="207745" user="NE2" changeset="4653016">
    <nd ref="726861112"/>
    <nd ref="110004353"/>
    <nd ref="726861113"/>
    <nd ref="110004350"/>
    <nd ref="726861114"/>
    <nd ref="110004344"/>
    <nd ref="109952365"/>
    <nd ref="110004342"/>
    <nd ref="109945155"/>
    <nd ref="110004339"/>
    <nd ref="110004335"/>
    <nd ref="109957841"/>
    <tag k="highway" v="trunk"/>
    <tag k="lanes" v="2"/>
    <tag k="name" v="Trask Pky"/>
    <tag k="name_1" v="United States Highway 17"/>
    <tag k="name_2" v="United States Highway 21"/>
    <tag k="oneway" v="yes"/>
    <tag k="ref" v="US 17; US 21"/>
    <tag k="tiger:cfcc" v="A21"/>
    <tag k="tiger:county" v="Beaufort, SC"/>
    <tag k="tiger:name_base" v="Trask"/>
    <tag k="tiger:name_base_1" v="United States Highway 17"/>
    <tag k="tiger:name_base_2" v="United States Highway 21"/>
    <tag k="tiger:name_type" v="Pky"/>
    <tag k="tiger:reviewed" v="no"/>
    <tag k="tiger:separated" v="no"/>
    <tag k="tiger:source" v="tiger_import_dch_v0.6_20070829"/>
    <tag k="tiger:tlid" v="87617798:87631586"/>
    <tag k="tiger:upload_uuid" v="bulk_upload.pl-11a6ffe7-dd42-4940-82bc-aa7d76d3b93f"/>
    <tag k="tiger:zip_left" v="29945"/>
    <tag k="tiger:zip_right" v="29945"/>
  </way>
  <way id="58665640" version="3" timestamp="2010-05-10T04:32:12Z" uid="99207" user="Lar Kiesel" changeset="4655870">
    <nd ref="726861112"/>
    <nd ref="110004353"/>
    <nd ref="726861113"/>
    <nd ref="110004350"/>
    <nd ref="726861114"/>
    <nd ref="110004344"/>
    <nd ref="109952365"/>
    <nd ref="110004342"/>
    <nd ref="109945155"/>
    <nd ref="110004339"/>
    <nd ref="110004335"/>
    <nd ref="109957841"/>
    <tag k="highway" v="primary"/>
    <tag k="lanes" v="2"/>
    <tag k="name" v="Trask Pky"/>
    <tag k="name_1" v="United States Highway 17"/>
    <tag k="name_2" v="United States Highway 21"/>
    <tag k="oneway" v="yes"/>
    <tag k="ref" v="US 17; US 21"/>
    <tag k="tiger:cfcc" v="A21"/>
    <tag k="tiger:county" v="Beaufort, SC"/>
    <tag k="tiger:name_base" v="Trask"/>
    <tag k="tiger:name_base_1" v="United States Highway 17"/>
    <tag k="tiger:name_base_2" v="United States Highway 21"/>
    <tag k="tiger:name_type" v="Pky"/>
    <tag k="tiger:reviewed" v="no"/>
    <tag k="tiger:separated" v="no"/>
    <tag k="tiger:source" v="tiger_import_dch_v0.6_20070829"/>
    <tag k="tiger:tlid" v="87617798:87631586"/>
    <tag k="tiger:upload_uuid" v="bulk_upload.pl-11a6ffe7-dd42-4940-82bc-aa7d76d3b93f"/>
    <tag k="tiger:zip_left" v="29945"/>
    <tag k="tiger:zip_right" v="29945"/>
  </way>
  <way id="58665640" version="4" timestamp="2010-05-11T12:23:11Z" uid="207745" user="NE2" changeset="4668054">
    <nd ref="726861112"/>
    <nd ref="110004353"/>
    <nd ref="726861113"/>
    <nd ref="110004350"/>
    <nd ref="726861114"/>
    <nd ref="110004344"/>
    <nd ref="109952365"/>
    <nd ref="110004342"/>
    <nd ref="109945155"/>
    <nd ref="110004339"/>
    <nd ref="110004335"/>
    <nd ref="109957841"/>
    <tag k="highway" v="trunk"/>
    <tag k="lanes" v="2"/>
    <tag k="name" v="Trask Pky"/>
    <tag k="name_1" v="United States Highway 17"/>
    <tag k="name_2" v="United States Highway 21"/>
    <tag k="oneway" v="yes"/>
    <tag k="ref" v="US 17; US 21"/>
    <tag k="tiger:cfcc" v="A21"/>
    <tag k="tiger:county" v="Beaufort, SC"/>
    <tag k="tiger:name_base" v="Trask"/>
    <tag k="tiger:name_base_1" v="United States Highway 17"/>
    <tag k="tiger:name_base_2" v="United States Highway 21"/>
    <tag k="tiger:name_type" v="Pky"/>
    <tag k="tiger:reviewed" v="no"/>
    <tag k="tiger:separated" v="no"/>
    <tag k="tiger:source" v="tiger_import_dch_v0.6_20070829"/>
    <tag k="tiger:tlid" v="87617798:87631586"/>
    <tag k="tiger:upload_uuid" v="bulk_upload.pl-11a6ffe7-dd42-4940-82bc-aa7d76d3b93f"/>
    <tag k="tiger:zip_left" v="29945"/>
    <tag k="tiger:zip_right" v="29945"/>
  </way>
  <way id="58665640" version="5" timestamp="2010-06-27T17:13:59Z" uid="99207" user="Lar Kiesel" changeset="5091200">
    <nd ref="726861112"/>
    <nd ref="110004353"/>
    <nd ref="726861113"/>
    <nd ref="110004350"/>
    <nd ref="726861114"/>
    <nd ref="110004344"/>
    <nd ref="109952365"/>
    <nd ref="110004342"/>
    <nd ref="109945155"/>
    <nd ref="110004339"/>
    <nd ref="110004335"/>
    <nd ref="109957841"/>
    <tag k="highway" v="primary"/>
    <tag k="lanes" v="2"/>
    <tag k="name" v="Trask Pky"/>
    <tag k="name_1" v="United States Highway 17"/>
    <tag k="name_2" v="United States Highway 21"/>
    <tag k="oneway" v="yes"/>
    <tag k="ref" v="US 17; US 21"/>
    <tag k="tiger:cfcc" v="A21"/>
    <tag k="tiger:county" v="Beaufort, SC"/>
    <tag k="tiger:name_base" v="Trask"/>
    <tag k="tiger:name_base_1" v="United States Highway 17"/>
    <tag k="tiger:name_base_2" v="United States Highway 21"/>
    <tag k="tiger:name_type" v="Pky"/>
    <tag k="tiger:reviewed" v="no"/>
    <tag k="tiger:separated" v="no"/>
    <tag k="tiger:source" v="tiger_import_dch_v0.6_20070829"/>
    <tag k="tiger:tlid" v="87617798:87631586"/>
    <tag k="tiger:upload_uuid" v="bulk_upload.pl-11a6ffe7-dd42-4940-82bc-aa7d76d3b93f"/>
    <tag k="tiger:zip_left" v="29945"/>
    <tag k="tiger:zip_right" v="29945"/>
  </way>
  <way id="58665640" version="6" timestamp="2010-12-12T04:51:54Z" uid="207745" user="NE2" changeset="6632313">
    <nd ref="726861112"/>
    <nd ref="110004353"/>
    <nd ref="726861113"/>
    <nd ref="110004350"/>
    <nd ref="726861114"/>
    <nd ref="110004344"/>
    <nd ref="109952365"/>
    <nd ref="110004342"/>
    <nd ref="109945155"/>
    <nd ref="110004339"/>
    <nd ref="110004335"/>
    <nd ref="109957841"/>
    <tag k="highway" v="trunk"/>
    <tag k="lanes" v="2"/>
    <tag k="name" v="Trask Pky"/>
    <tag k="name_1" v="United States Highway 17"/>
    <tag k="name_2" v="United States Highway 21"/>
    <tag k="oneway" v="yes"/>
    <tag k="ref" v="US 17; US 21"/>
    <tag k="tiger:cfcc" v="A21"/>
    <tag k="tiger:county" v="Beaufort, SC"/>
    <tag k="tiger:name_base" v="Trask"/>
    <tag k="tiger:name_base_1" v="United States Highway 17"/>
    <tag k="tiger:name_base_2" v="United States Highway 21"/>
    <tag k="tiger:name_type" v="Pky"/>
    <tag k="tiger:reviewed" v="no"/>
    <tag k="tiger:separated" v="no"/>
    <tag k="tiger:source" v="tiger_import_dch_v0.6_20070829"/>
    <tag k="tiger:tlid" v="87617798:87631586"/>
    <tag k="tiger:upload_uuid" v="bulk_upload.pl-11a6ffe7-dd42-4940-82bc-aa7d76d3b93f"/>
    <tag k="tiger:zip_left" v="29945"/>
    <tag k="tiger:zip_right" v="29945"/>
  </way>
  <way id="58665640" version="7" timestamp="2011-06-11T04:07:19Z" uid="207745" user="NE2" changeset="8402497">
    <nd ref="726861112"/>
    <nd ref="110004353"/>
    <nd ref="726861113"/>
    <nd ref="110004350"/>
    <nd ref="726861114"/>
    <nd ref="110004344"/>
    <nd ref="109952365"/>
    <nd ref="110004342"/>
    <nd ref="109945155"/>
    <nd ref="110004339"/>
    <nd ref="110004335"/>
    <nd ref="109957841"/>
    <tag k="highway" v="trunk"/>
    <tag k="lanes" v="2"/>
    <tag k="name" v="Trask Pky"/>
    <tag k="oneway" v="yes"/>
    <tag k="ref" v="US 17; US 21"/>
    <tag k="tiger:cfcc" v="A21"/>
    <tag k="tiger:county" v="Beaufort, SC"/>
    <tag k="tiger:name_base" v="Trask"/>
    <tag k="tiger:name_base_1" v="United States Highway 17"/>
    <tag k="tiger:name_base_2" v="United States Highway 21"/>
    <tag k="tiger:name_type" v="Pky"/>
    <tag k="tiger:reviewed" v="no"/>
    <tag k="tiger:separated" v="no"/>
    <tag k="tiger:source" v="tiger_import_dch_v0.6_20070829"/>
    <tag k="tiger:tlid" v="87617798:87631586"/>
    <tag k="tiger:upload_uuid" v="bulk_upload.pl-11a6ffe7-dd42-4940-82bc-aa7d76d3b93f"/>
    <tag k="tiger:zip_left" v="29945"/>
    <tag k="tiger:zip_right" v="29945"/>
  </way>
  <way id="58665640" version="8" timestamp="2011-06-29T23:50:02Z" uid="473471" user="NE3" changeset="8586091">
    <nd ref="726861112"/>
    <nd ref="110004353"/>
    <nd ref="726861113"/>
    <nd ref="110004350"/>
    <nd ref="726861114"/>
    <nd ref="110004344"/>
    <nd ref="109952365"/>
    <nd ref="110004342"/>
    <nd ref="109945155"/>
    <nd ref="110004339"/>
    <nd ref="110004335"/>
    <nd ref="109957841"/>
    <tag k="NHS" v="STRAHNET"/>
    <tag k="highway" v="trunk"/>
    <tag k="lanes" v="2"/>
    <tag k="name" v="Trask Pky"/>
    <tag k="oneway" v="yes"/>
    <tag k="ref" v="US 17; US 21"/>
    <tag k="tiger:cfcc" v="A21"/>
    <tag k="tiger:county" v="Beaufort, SC"/>
    <tag k="tiger:name_base" v="Trask"/>
    <tag k="tiger:name_base_1" v="United States Highway 17"/>
    <tag k="tiger:name_base_2" v="United States Highway 21"/>
    <tag k="tiger:name_type" v="Pky"/>
    <tag k="tiger:reviewed" v="no"/>
    <tag k="tiger:separated" v="no"/>
    <tag k="tiger:source" v="tiger_import_dch_v0.6_20070829"/>
    <tag k="tiger:tlid" v="87617798:87631586"/>
    <tag k="tiger:upload_uuid" v="bulk_upload.pl-11a6ffe7-dd42-4940-82bc-aa7d76d3b93f"/>
    <tag k="tiger:zip_left" v="29945"/>
    <tag k="tiger:zip_right" v="29945"/>
  </way>
  <way id="58665640" version="9" timestamp="2011-11-24T22:10:41Z" uid="207745" user="NE2" changeset="9937881">
    <nd ref="726861112"/>
    <nd ref="110004353"/>
    <nd ref="726861113"/>
    <nd ref="110004350"/>
    <nd ref="726861114"/>
    <nd ref="110004344"/>
    <nd ref="109952365"/>
    <nd ref="110004342"/>
    <nd ref="109945155"/>
    <nd ref="110004339"/>
    <nd ref="110004335"/>
    <nd ref="109957841"/>
    <tag k="NHS" v="STRAHNET"/>
    <tag k="hgv" v="designated"/>
    <tag k="hgv:national_network" v="yes"/>
    <tag k="highway" v="trunk"/>
    <tag k="lanes" v="2"/>
    <tag k="name" v="Trask Pky"/>
    <tag k="oneway" v="yes"/>
    <tag k="ref" v="US 17; US 21"/>
    <tag k="source:hgv:national_network" v="Title 23: Highways Part 658 http://ecfr.gpoaccess.gov/cgi/t/text/text-idx?c=ecfr&amp;rgn=div5&amp;view=text&amp;node=23:1.0.1.7.33&amp;idno=23"/>
    <tag k="tiger:cfcc" v="A21"/>
    <tag k="tiger:county" v="Beaufort, SC"/>
    <tag k="tiger:name_base" v="Trask"/>
    <tag k="tiger:name_base_1" v="United States Highway 17"/>
    <tag k="tiger:name_base_2" v="United States Highway 21"/>
    <tag k="tiger:name_type" v="Pky"/>
    <tag k="tiger:reviewed" v="no"/>
    <tag k="tiger:separated" v="no"/>
    <tag k="tiger:source" v="tiger_import_dch_v0.6_20070829"/>
    <tag k="tiger:tlid" v="87617798:87631586"/>
    <tag k="tiger:upload_uuid" v="bulk_upload.pl-11a6ffe7-dd42-4940-82bc-aa7d76d3b93f"/>
    <tag k="tiger:zip_left" v="29945"/>
    <tag k="tiger:zip_right" v="29945"/>
  </way>
  <way id="58665641" version="1" timestamp="2010-05-08T22:16:03Z" uid="99207" user="Lar Kiesel" changeset="4643680">
    <nd ref="110004398"/>
    <nd ref="110004392"/>
    <nd ref="110004390"/>
    <nd ref="110004389"/>
    <nd ref="110004387"/>
    <nd ref="110004383"/>
    <nd ref="110004381"/>
    <nd ref="109933053"/>
    <nd ref="110004376"/>
    <nd ref="110004372"/>
    <nd ref="110004370"/>
    <nd ref="109940643"/>
    <nd ref="109909027"/>
    <nd ref="109962199"/>
    <nd ref="109968941"/>
    <nd ref="110004368"/>
    <nd ref="726861115"/>
    <nd ref="726861116"/>
    <nd ref="110004366"/>
    <tag k="highway" v="primary"/>
    <tag k="lanes" v="2"/>
    <tag k="name" v="Trask Pky"/>
    <tag k="name_1" v="United States Highway 17"/>
    <tag k="name_2" v="United States Highway 21"/>
    <tag k="oneway" v="yes"/>
    <tag k="ref" v="US 17; US 21"/>
    <tag k="tiger:cfcc" v="A21"/>
    <tag k="tiger:county" v="Beaufort, SC"/>
    <tag k="tiger:name_base" v="Trask"/>
    <tag k="tiger:name_base_1" v="United States Highway 17"/>
    <tag k="tiger:name_base_2" v="United States Highway 21"/>
    <tag k="tiger:name_type" v="Pky"/>
    <tag k="tiger:reviewed" v="no"/>
    <tag k="tiger:separated" v="no"/>
    <tag k="tiger:source" v="tiger_import_dch_v0.6_20070829"/>
    <tag k="tiger:tlid" v="87617798:87631586"/>
    <tag k="tiger:upload_uuid" v="bulk_upload.pl-11a6ffe7-dd42-4940-82bc-aa7d76d3b93f"/>
    <tag k="tiger:zip_left" v="29945"/>
    <tag k="tiger:zip_right" v="29945"/>
  </way>
  <way id="58665641" version="2" timestamp="2010-05-09T19:22:57Z" uid="207745" user="NE2" changeset="4653016">
    <nd ref="110004398"/>
    <nd ref="110004392"/>
    <nd ref="110004390"/>
    <nd ref="110004389"/>
    <nd ref="110004387"/>
    <nd ref="110004383"/>
    <nd ref="110004381"/>
    <nd ref="109933053"/>
    <nd ref="110004376"/>
    <nd ref="110004372"/>
    <nd ref="110004370"/>
    <nd ref="109940643"/>
    <nd ref="109909027"/>
    <nd ref="109962199"/>
    <nd ref="109968941"/>
    <nd ref="110004368"/>
    <nd ref="726861115"/>
    <nd ref="726861116"/>
    <nd ref="110004366"/>
    <tag k="highway" v="trunk"/>
    <tag k="lanes" v="2"/>
    <tag k="name" v="Trask Pky"/>
    <tag k="name_1" v="United States Highway 17"/>
    <tag k="name_2" v="United States Highway 21"/>
    <tag k="oneway" v="yes"/>
    <tag k="ref" v="US 17; US 21"/>
    <tag k="tiger:cfcc" v="A21"/>
    <tag k="tiger:county" v="Beaufort, SC"/>
    <tag k="tiger:name_base" v="Trask"/>
    <tag k="tiger:name_base_1" v="United States Highway 17"/>
    <tag k="tiger:name_base_2" v="United States Highway 21"/>
    <tag k="tiger:name_type" v="Pky"/>
    <tag k="tiger:reviewed" v="no"/>
    <tag k="tiger:separated" v="no"/>
    <tag k="tiger:source" v="tiger_import_dch_v0.6_20070829"/>
    <tag k="tiger:tlid" v="87617798:87631586"/>
    <tag k="tiger:upload_uuid" v="bulk_upload.pl-11a6ffe7-dd42-4940-82bc-aa7d76d3b93f"/>
    <tag k="tiger:zip_left" v="29945"/>
    <tag k="tiger:zip_right" v="29945"/>
  </way>
  <way id="58665641" version="3" timestamp="2010-05-10T04:32:16Z" uid="99207" user="Lar Kiesel" changeset="4655870">
    <nd ref="110004398"/>
    <nd ref="110004392"/>
    <nd ref="110004390"/>
    <nd ref="110004389"/>
    <nd ref="110004387"/>
    <nd ref="110004383"/>
    <nd ref="110004381"/>
    <nd ref="109933053"/>
    <nd ref="110004376"/>
    <nd ref="110004372"/>
    <nd ref="110004370"/>
    <nd ref="109940643"/>
    <nd ref="109909027"/>
    <nd ref="109962199"/>
    <nd ref="109968941"/>
    <nd ref="110004368"/>
    <nd ref="726861115"/>
    <nd ref="726861116"/>
    <nd ref="110004366"/>
    <tag k="highway" v="primary"/>
    <tag k="lanes" v="2"/>
    <tag k="name" v="Trask Pky"/>
    <tag k="name_1" v="United States Highway 17"/>
    <tag k="name_2" v="United States Highway 21"/>
    <tag k="oneway" v="yes"/>
    <tag k="ref" v="US 17; US 21"/>
    <tag k="tiger:cfcc" v="A21"/>
    <tag k="tiger:county" v="Beaufort, SC"/>
    <tag k="tiger:name_base" v="Trask"/>
    <tag k="tiger:name_base_1" v="United States Highway 17"/>
    <tag k="tiger:name_base_2" v="United States Highway 21"/>
    <tag k="tiger:name_type" v="Pky"/>
    <tag k="tiger:reviewed" v="no"/>
    <tag k="tiger:separated" v="no"/>
    <tag k="tiger:source" v="tiger_import_dch_v0.6_20070829"/>
    <tag k="tiger:tlid" v="87617798:87631586"/>
    <tag k="tiger:upload_uuid" v="bulk_upload.pl-11a6ffe7-dd42-4940-82bc-aa7d76d3b93f"/>
    <tag k="tiger:zip_left" v="29945"/>
    <tag k="tiger:zip_right" v="29945"/>
  </way>
  <way id="58665641" version="4" timestamp="2010-05-11T12:23:39Z" uid="207745" user="NE2" changeset="4668054">
    <nd ref="110004398"/>
    <nd ref="110004392"/>
    <nd ref="110004390"/>
    <nd ref="110004389"/>
    <nd ref="110004387"/>
    <nd ref="110004383"/>
    <nd ref="110004381"/>
    <nd ref="109933053"/>
    <nd ref="110004376"/>
    <nd ref="110004372"/>
    <nd ref="110004370"/>
    <nd ref="109940643"/>
    <nd ref="109909027"/>
    <nd ref="109962199"/>
    <nd ref="109968941"/>
    <nd ref="110004368"/>
    <nd ref="726861115"/>
    <nd ref="726861116"/>
    <nd ref="110004366"/>
    <tag k="highway" v="trunk"/>
    <tag k="lanes" v="2"/>
    <tag k="name" v="Trask Pky"/>
    <tag k="name_1" v="United States Highway 17"/>
    <tag k="name_2" v="United States Highway 21"/>
    <tag k="oneway" v="yes"/>
    <tag k="ref" v="US 17; US 21"/>
    <tag k="tiger:cfcc" v="A21"/>
    <tag k="tiger:county" v="Beaufort, SC"/>
    <tag k="tiger:name_base" v="Trask"/>
    <tag k="tiger:name_base_1" v="United States Highway 17"/>
    <tag k="tiger:name_base_2" v="United States Highway 21"/>
    <tag k="tiger:name_type" v="Pky"/>
    <tag k="tiger:reviewed" v="no"/>
    <tag k="tiger:separated" v="no"/>
    <tag k="tiger:source" v="tiger_import_dch_v0.6_20070829"/>
    <tag k="tiger:tlid" v="87617798:87631586"/>
    <tag k="tiger:upload_uuid" v="bulk_upload.pl-11a6ffe7-dd42-4940-82bc-aa7d76d3b93f"/>
    <tag k="tiger:zip_left" v="29945"/>
    <tag k="tiger:zip_right" v="29945"/>
  </way>
  <way id="58665641" version="5" timestamp="2010-06-27T17:14:10Z" uid="99207" user="Lar Kiesel" changeset="5091200">
    <nd ref="110004398"/>
    <nd ref="110004392"/>
    <nd ref="110004390"/>
    <nd ref="110004389"/>
    <nd ref="110004387"/>
    <nd ref="110004383"/>
    <nd ref="110004381"/>
    <nd ref="109933053"/>
    <nd ref="110004376"/>
    <nd ref="110004372"/>
    <nd ref="110004370"/>
    <nd ref="109940643"/>
    <nd ref="109909027"/>
    <nd ref="109962199"/>
    <nd ref="109968941"/>
    <nd ref="110004368"/>
    <nd ref="726861115"/>
    <nd ref="726861116"/>
    <nd ref="110004366"/>
    <tag k="highway" v="primary"/>
    <tag k="lanes" v="2"/>
    <tag k="name" v="Trask Pky"/>
    <tag k="name_1" v="United States Highway 17"/>
    <tag k="name_2" v="United States Highway 21"/>
    <tag k="oneway" v="yes"/>
    <tag k="ref" v="US 17; US 21"/>
    <tag k="tiger:cfcc" v="A21"/>
    <tag k="tiger:county" v="Beaufort, SC"/>
    <tag k="tiger:name_base" v="Trask"/>
    <tag k="tiger:name_base_1" v="United States Highway 17"/>
    <tag k="tiger:name_base_2" v="United States Highway 21"/>
    <tag k="tiger:name_type" v="Pky"/>
    <tag k="tiger:reviewed" v="no"/>
    <tag k="tiger:separated" v="no"/>
    <tag k="tiger:source" v="tiger_import_dch_v0.6_20070829"/>
    <tag k="tiger:tlid" v="87617798:87631586"/>
    <tag k="tiger:upload_uuid" v="bulk_upload.pl-11a6ffe7-dd42-4940-82bc-aa7d76d3b93f"/>
    <tag k="tiger:zip_left" v="29945"/>
    <tag k="tiger:zip_right" v="29945"/>
  </way>
  <way id="58665641" version="6" timestamp="2010-12-12T05:14:29Z" uid="207745" user="NE2" changeset="6632313">
    <nd ref="110004398"/>
    <nd ref="110004392"/>
    <nd ref="110004390"/>
    <nd ref="110004389"/>
    <nd ref="110004387"/>
    <nd ref="110004383"/>
    <nd ref="110004381"/>
    <nd ref="109933053"/>
    <nd ref="110004376"/>
    <nd ref="110004372"/>
    <nd ref="110004370"/>
    <nd ref="109940643"/>
    <nd ref="109909027"/>
    <nd ref="109962199"/>
    <nd ref="109968941"/>
    <nd ref="110004368"/>
    <nd ref="726861115"/>
    <nd ref="726861116"/>
    <nd ref="110004366"/>
    <tag k="highway" v="trunk"/>
    <tag k="lanes" v="2"/>
    <tag k="name" v="Trask Pky"/>
    <tag k="name_1" v="United States Highway 17"/>
    <tag k="name_2" v="United States Highway 21"/>
    <tag k="oneway" v="yes"/>
    <tag k="ref" v="US 17; US 21"/>
    <tag k="tiger:cfcc" v="A21"/>
    <tag k="tiger:county" v="Beaufort, SC"/>
    <tag k="tiger:name_base" v="Trask"/>
    <tag k="tiger:name_base_1" v="United States Highway 17"/>
    <tag k="tiger:name_base_2" v="United States Highway 21"/>
    <tag k="tiger:name_type" v="Pky"/>
    <tag k="tiger:reviewed" v="no"/>
    <tag k="tiger:separated" v="no"/>
    <tag k="tiger:source" v="tiger_import_dch_v0.6_20070829"/>
    <tag k="tiger:tlid" v="87617798:87631586"/>
    <tag k="tiger:upload_uuid" v="bulk_upload.pl-11a6ffe7-dd42-4940-82bc-aa7d76d3b93f"/>
    <tag k="tiger:zip_left" v="29945"/>
    <tag k="tiger:zip_right" v="29945"/>
  </way>
  <way id="58665641" version="7" timestamp="2011-06-11T04:19:42Z" uid="207745" user="NE2" changeset="8402497">
    <nd ref="110004398"/>
    <nd ref="110004392"/>
    <nd ref="110004390"/>
    <nd ref="110004389"/>
    <nd ref="110004387"/>
    <nd ref="110004383"/>
    <nd ref="110004381"/>
    <nd ref="109933053"/>
    <nd ref="110004376"/>
    <nd ref="110004372"/>
    <nd ref="110004370"/>
    <nd ref="109940643"/>
    <nd ref="109909027"/>
    <nd ref="109962199"/>
    <nd ref="109968941"/>
    <nd ref="110004368"/>
    <nd ref="726861115"/>
    <nd ref="726861116"/>
    <nd ref="110004366"/>
    <tag k="highway" v="trunk"/>
    <tag k="lanes" v="2"/>
    <tag k="name" v="Trask Pky"/>
    <tag k="oneway" v="yes"/>
    <tag k="ref" v="US 17; US 21"/>
    <tag k="tiger:cfcc" v="A21"/>
    <tag k="tiger:county" v="Beaufort, SC"/>
    <tag k="tiger:name_base" v="Trask"/>
    <tag k="tiger:name_base_1" v="United States Highway 17"/>
    <tag k="tiger:name_base_2" v="United States Highway 21"/>
    <tag k="tiger:name_type" v="Pky"/>
    <tag k="tiger:reviewed" v="no"/>
    <tag k="tiger:separated" v="no"/>
    <tag k="tiger:source" v="tiger_import_dch_v0.6_20070829"/>
    <tag k="tiger:tlid" v="87617798:87631586"/>
    <tag k="tiger:upload_uuid" v="bulk_upload.pl-11a6ffe7-dd42-4940-82bc-aa7d76d3b93f"/>
    <tag k="tiger:zip_left" v="29945"/>
    <tag k="tiger:zip_right" v="29945"/>
  </way>
  <way id="58665641" version="8" timestamp="2011-06-29T23:50:04Z" uid="473471" user="NE3" changeset="8586091">
    <nd ref="110004398"/>
    <nd ref="110004392"/>
    <nd ref="110004390"/>
    <nd ref="110004389"/>
    <nd ref="110004387"/>
    <nd ref="110004383"/>
    <nd ref="110004381"/>
    <nd ref="109933053"/>
    <nd ref="110004376"/>
    <nd ref="110004372"/>
    <nd ref="110004370"/>
    <nd ref="109940643"/>
    <nd ref="109909027"/>
    <nd ref="109962199"/>
    <nd ref="109968941"/>
    <nd ref="110004368"/>
    <nd ref="726861115"/>
    <nd ref="726861116"/>
    <nd ref="110004366"/>
    <tag k="NHS" v="STRAHNET"/>
    <tag k="highway" v="trunk"/>
    <tag k="lanes" v="2"/>
    <tag k="name" v="Trask Pky"/>
    <tag k="oneway" v="yes"/>
    <tag k="ref" v="US 17; US 21"/>
    <tag k="tiger:cfcc" v="A21"/>
    <tag k="tiger:county" v="Beaufort, SC"/>
    <tag k="tiger:name_base" v="Trask"/>
    <tag k="tiger:name_base_1" v="United States Highway 17"/>
    <tag k="tiger:name_base_2" v="United States Highway 21"/>
    <tag k="tiger:name_type" v="Pky"/>
    <tag k="tiger:reviewed" v="no"/>
    <tag k="tiger:separated" v="no"/>
    <tag k="tiger:source" v="tiger_import_dch_v0.6_20070829"/>
    <tag k="tiger:tlid" v="87617798:87631586"/>
    <tag k="tiger:upload_uuid" v="bulk_upload.pl-11a6ffe7-dd42-4940-82bc-aa7d76d3b93f"/>
    <tag k="tiger:zip_left" v="29945"/>
    <tag k="tiger:zip_right" v="29945"/>
  </way>
  <way id="58665641" version="9" timestamp="2011-11-24T22:10:45Z" uid="207745" user="NE2" changeset="9937881">
    <nd ref="110004398"/>
    <nd ref="110004392"/>
    <nd ref="110004390"/>
    <nd ref="110004389"/>
    <nd ref="110004387"/>
    <nd ref="110004383"/>
    <nd ref="110004381"/>
    <nd ref="109933053"/>
    <nd ref="110004376"/>
    <nd ref="110004372"/>
    <nd ref="110004370"/>
    <nd ref="109940643"/>
    <nd ref="109909027"/>
    <nd ref="109962199"/>
    <nd ref="109968941"/>
    <nd ref="110004368"/>
    <nd ref="726861115"/>
    <nd ref="726861116"/>
    <nd ref="110004366"/>
    <tag k="NHS" v="STRAHNET"/>
    <tag k="hgv" v="designated"/>
    <tag k="hgv:national_network" v="yes"/>
    <tag k="highway" v="trunk"/>
    <tag k="lanes" v="2"/>
    <tag k="name" v="Trask Pky"/>
    <tag k="oneway" v="yes"/>
    <tag k="ref" v="US 17; US 21"/>
    <tag k="source:hgv:national_network" v="Title 23: Highways Part 658 http://ecfr.gpoaccess.gov/cgi/t/text/text-idx?c=ecfr&amp;rgn=div5&amp;view=text&amp;node=23:1.0.1.7.33&amp;idno=23"/>
    <tag k="tiger:cfcc" v="A21"/>
    <tag k="tiger:county" v="Beaufort, SC"/>
    <tag k="tiger:name_base" v="Trask"/>
    <tag k="tiger:name_base_1" v="United States Highway 17"/>
    <tag k="tiger:name_base_2" v="United States Highway 21"/>
    <tag k="tiger:name_type" v="Pky"/>
    <tag k="tiger:reviewed" v="no"/>
    <tag k="tiger:separated" v="no"/>
    <tag k="tiger:source" v="tiger_import_dch_v0.6_20070829"/>
    <tag k="tiger:tlid" v="87617798:87631586"/>
    <tag k="tiger:upload_uuid" v="bulk_upload.pl-11a6ffe7-dd42-4940-82bc-aa7d76d3b93f"/>
    <tag k="tiger:zip_left" v="29945"/>
    <tag k="tiger:zip_right" v="29945"/>
  </way>
  <way id="58665642" version="1" timestamp="2010-05-08T22:16:05Z" uid="99207" user="Lar Kiesel" changeset="4643680">
    <nd ref="109957841"/>
    <nd ref="726861119"/>
    <nd ref="726861120"/>
    <nd ref="726861121"/>
    <nd ref="726861123"/>
    <nd ref="726861124"/>
    <nd ref="726861125"/>
    <nd ref="726861126"/>
    <nd ref="726861127"/>
    <nd ref="726861128"/>
    <nd ref="726861129"/>
    <nd ref="726861099"/>
    <tag k="highway" v="primary"/>
    <tag k="lanes" v="2"/>
    <tag k="name" v="Trask Pky"/>
    <tag k="name_1" v="United States Highway 17"/>
    <tag k="name_2" v="United States Highway 21"/>
    <tag k="oneway" v="yes"/>
    <tag k="ref" v="US 17; US 21"/>
  </way>
  <way id="58665642" version="2" timestamp="2010-05-08T23:29:02Z" uid="99207" user="Lar Kiesel" changeset="4644050">
    <nd ref="109905342"/>
    <nd ref="726905334"/>
    <nd ref="726905335"/>
    <nd ref="726905336"/>
    <nd ref="726905337"/>
    <nd ref="726905338"/>
    <nd ref="726861119"/>
    <nd ref="726861120"/>
    <nd ref="726861121"/>
    <nd ref="726861123"/>
    <nd ref="726861124"/>
    <nd ref="726861125"/>
    <nd ref="726861126"/>
    <nd ref="726861127"/>
    <nd ref="726861128"/>
    <nd ref="726861129"/>
    <nd ref="726861099"/>
    <tag k="highway" v="primary"/>
    <tag k="lanes" v="2"/>
    <tag k="name" v="Trask Pky"/>
    <tag k="name_1" v="United States Highway 17"/>
    <tag k="name_2" v="United States Highway 21"/>
    <tag k="oneway" v="yes"/>
    <tag k="ref" v="US 17; US 21"/>
  </way>
  <way id="58665642" version="3" timestamp="2010-05-09T19:33:48Z" uid="207745" user="NE2" changeset="4653016">
    <nd ref="109905342"/>
    <nd ref="726905334"/>
    <nd ref="726905335"/>
    <nd ref="726905336"/>
    <nd ref="726905337"/>
    <nd ref="726905338"/>
    <tag k="highway" v="trunk"/>
    <tag k="lanes" v="2"/>
    <tag k="name" v="Trask Pky"/>
    <tag k="name_1" v="United States Highway 17"/>
    <tag k="oneway" v="yes"/>
    <tag k="ref" v="US 17"/>
  </way>
  <way id="58665642" version="4" timestamp="2010-05-10T04:32:08Z" uid="99207" user="Lar Kiesel" changeset="4655870">
    <nd ref="109905342"/>
    <nd ref="726905334"/>
    <nd ref="726905335"/>
    <nd ref="726905336"/>
    <nd ref="726905337"/>
    <nd ref="726905338"/>
    <tag k="highway" v="primary"/>
    <tag k="lanes" v="2"/>
    <tag k="name" v="Trask Pky"/>
    <tag k="name_1" v="United States Highway 17"/>
    <tag k="oneway" v="yes"/>
    <tag k="ref" v="US 17"/>
  </way>
  <way id="58665642" version="5" timestamp="2010-05-11T12:23:34Z" uid="207745" user="NE2" changeset="4668054">
    <nd ref="109905342"/>
    <nd ref="726905334"/>
    <nd ref="726905335"/>
    <nd ref="726905336"/>
    <nd ref="726905337"/>
    <nd ref="726905338"/>
    <tag k="highway" v="trunk"/>
    <tag k="lanes" v="2"/>
    <tag k="name" v="Trask Pky"/>
    <tag k="name_1" v="United States Highway 17"/>
    <tag k="oneway" v="yes"/>
    <tag k="ref" v="US 17"/>
  </way>
  <way id="58665642" version="6" timestamp="2010-06-27T17:13:52Z" uid="99207" user="Lar Kiesel" changeset="5091200">
    <nd ref="109905342"/>
    <nd ref="726905334"/>
    <nd ref="726905335"/>
    <nd ref="726905336"/>
    <nd ref="726905337"/>
    <nd ref="726905338"/>
    <tag k="highway" v="primary"/>
    <tag k="lanes" v="2"/>
    <tag k="name" v="Trask Pky"/>
    <tag k="name_1" v="United States Highway 17"/>
    <tag k="oneway" v="yes"/>
    <tag k="ref" v="US 17"/>
  </way>
  <way id="58665642" version="7" timestamp="2010-12-12T05:08:53Z" uid="207745" user="NE2" changeset="6632313">
    <nd ref="109905342"/>
    <nd ref="726905334"/>
    <nd ref="726905335"/>
    <nd ref="726905336"/>
    <nd ref="726905337"/>
    <nd ref="726905338"/>
    <tag k="highway" v="trunk"/>
    <tag k="lanes" v="2"/>
    <tag k="name" v="Trask Pky"/>
    <tag k="name_1" v="United States Highway 17"/>
    <tag k="oneway" v="yes"/>
    <tag k="ref" v="US 17"/>
  </way>
  <way id="58665642" version="8" timestamp="2011-06-11T04:13:09Z" uid="207745" user="NE2" changeset="8402497">
    <nd ref="109905342"/>
    <nd ref="726905334"/>
    <nd ref="726905335"/>
    <nd ref="726905336"/>
    <nd ref="726905337"/>
    <nd ref="726905338"/>
    <tag k="highway" v="trunk"/>
    <tag k="lanes" v="1"/>
    <tag k="name" v="Trask Pky"/>
    <tag k="oneway" v="yes"/>
    <tag k="ref" v="US 17"/>
  </way>
  <way id="58665642" version="9" timestamp="2011-06-29T23:50:08Z" uid="473471" user="NE3" changeset="8586091">
    <nd ref="109905342"/>
    <nd ref="726905334"/>
    <nd ref="726905335"/>
    <nd ref="726905336"/>
    <nd ref="726905337"/>
    <nd ref="726905338"/>
    <tag k="NHS" v="STRAHNET"/>
    <tag k="highway" v="trunk"/>
    <tag k="lanes" v="1"/>
    <tag k="name" v="Trask Pky"/>
    <tag k="oneway" v="yes"/>
    <tag k="ref" v="US 17"/>
  </way>
  <way id="58665643" version="1" timestamp="2010-05-08T22:16:10Z" uid="99207" user="Lar Kiesel" changeset="4643680">
    <nd ref="110004355"/>
    <nd ref="726861111"/>
    <tag k="highway" v="primary"/>
    <tag k="lanes" v="2"/>
    <tag k="name" v="Trask Pky"/>
    <tag k="name_1" v="United States Highway 17"/>
    <tag k="name_2" v="United States Highway 21"/>
    <tag k="oneway" v="yes"/>
    <tag k="ref" v="US 17; US 21"/>
    <tag k="tiger:cfcc" v="A21"/>
    <tag k="tiger:county" v="Beaufort, SC"/>
    <tag k="tiger:name_base" v="Trask"/>
    <tag k="tiger:name_base_1" v="United States Highway 17"/>
    <tag k="tiger:name_base_2" v="United States Highway 21"/>
    <tag k="tiger:name_type" v="Pky"/>
    <tag k="tiger:reviewed" v="no"/>
    <tag k="tiger:separated" v="no"/>
    <tag k="tiger:source" v="tiger_import_dch_v0.6_20070829"/>
    <tag k="tiger:tlid" v="87617798:87631586"/>
    <tag k="tiger:upload_uuid" v="bulk_upload.pl-11a6ffe7-dd42-4940-82bc-aa7d76d3b93f"/>
    <tag k="tiger:zip_left" v="29945"/>
    <tag k="tiger:zip_right" v="29945"/>
  </way>
  <way id="58665643" version="2" timestamp="2010-05-09T19:22:27Z" uid="207745" user="NE2" changeset="4653016">
    <nd ref="110004355"/>
    <nd ref="726861111"/>
    <tag k="highway" v="trunk"/>
    <tag k="lanes" v="2"/>
    <tag k="name" v="Trask Pky"/>
    <tag k="name_1" v="United States Highway 17"/>
    <tag k="name_2" v="United States Highway 21"/>
    <tag k="oneway" v="yes"/>
    <tag k="ref" v="US 17; US 21"/>
    <tag k="tiger:cfcc" v="A21"/>
    <tag k="tiger:county" v="Beaufort, SC"/>
    <tag k="tiger:name_base" v="Trask"/>
    <tag k="tiger:name_base_1" v="United States Highway 17"/>
    <tag k="tiger:name_base_2" v="United States Highway 21"/>
    <tag k="tiger:name_type" v="Pky"/>
    <tag k="tiger:reviewed" v="no"/>
    <tag k="tiger:separated" v="no"/>
    <tag k="tiger:source" v="tiger_import_dch_v0.6_20070829"/>
    <tag k="tiger:tlid" v="87617798:87631586"/>
    <tag k="tiger:upload_uuid" v="bulk_upload.pl-11a6ffe7-dd42-4940-82bc-aa7d76d3b93f"/>
    <tag k="tiger:zip_left" v="29945"/>
    <tag k="tiger:zip_right" v="29945"/>
  </way>
  <way id="58665643" version="3" timestamp="2010-05-10T04:32:11Z" uid="99207" user="Lar Kiesel" changeset="4655870">
    <nd ref="110004355"/>
    <nd ref="726861111"/>
    <tag k="highway" v="primary"/>
    <tag k="lanes" v="2"/>
    <tag k="name" v="Trask Pky"/>
    <tag k="name_1" v="United States Highway 17"/>
    <tag k="name_2" v="United States Highway 21"/>
    <tag k="oneway" v="yes"/>
    <tag k="ref" v="US 17; US 21"/>
    <tag k="tiger:cfcc" v="A21"/>
    <tag k="tiger:county" v="Beaufort, SC"/>
    <tag k="tiger:name_base" v="Trask"/>
    <tag k="tiger:name_base_1" v="United States Highway 17"/>
    <tag k="tiger:name_base_2" v="United States Highway 21"/>
    <tag k="tiger:name_type" v="Pky"/>
    <tag k="tiger:reviewed" v="no"/>
    <tag k="tiger:separated" v="no"/>
    <tag k="tiger:source" v="tiger_import_dch_v0.6_20070829"/>
    <tag k="tiger:tlid" v="87617798:87631586"/>
    <tag k="tiger:upload_uuid" v="bulk_upload.pl-11a6ffe7-dd42-4940-82bc-aa7d76d3b93f"/>
    <tag k="tiger:zip_left" v="29945"/>
    <tag k="tiger:zip_right" v="29945"/>
  </way>
  <way id="58665643" version="4" timestamp="2010-05-11T12:23:29Z" uid="207745" user="NE2" changeset="4668054">
    <nd ref="110004355"/>
    <nd ref="726861111"/>
    <tag k="highway" v="trunk"/>
    <tag k="lanes" v="2"/>
    <tag k="name" v="Trask Pky"/>
    <tag k="name_1" v="United States Highway 17"/>
    <tag k="name_2" v="United States Highway 21"/>
    <tag k="oneway" v="yes"/>
    <tag k="ref" v="US 17; US 21"/>
    <tag k="tiger:cfcc" v="A21"/>
    <tag k="tiger:county" v="Beaufort, SC"/>
    <tag k="tiger:name_base" v="Trask"/>
    <tag k="tiger:name_base_1" v="United States Highway 17"/>
    <tag k="tiger:name_base_2" v="United States Highway 21"/>
    <tag k="tiger:name_type" v="Pky"/>
    <tag k="tiger:reviewed" v="no"/>
    <tag k="tiger:separated" v="no"/>
    <tag k="tiger:source" v="tiger_import_dch_v0.6_20070829"/>
    <tag k="tiger:tlid" v="87617798:87631586"/>
    <tag k="tiger:upload_uuid" v="bulk_upload.pl-11a6ffe7-dd42-4940-82bc-aa7d76d3b93f"/>
    <tag k="tiger:zip_left" v="29945"/>
    <tag k="tiger:zip_right" v="29945"/>
  </way>
  <way id="58665643" version="5" timestamp="2010-06-27T17:14:01Z" uid="99207" user="Lar Kiesel" changeset="5091200">
    <nd ref="110004355"/>
    <nd ref="726861111"/>
    <tag k="highway" v="primary"/>
    <tag k="lanes" v="2"/>
    <tag k="name" v="Trask Pky"/>
    <tag k="name_1" v="United States Highway 17"/>
    <tag k="name_2" v="United States Highway 21"/>
    <tag k="oneway" v="yes"/>
    <tag k="ref" v="US 17; US 21"/>
    <tag k="tiger:cfcc" v="A21"/>
    <tag k="tiger:county" v="Beaufort, SC"/>
    <tag k="tiger:name_base" v="Trask"/>
    <tag k="tiger:name_base_1" v="United States Highway 17"/>
    <tag k="tiger:name_base_2" v="United States Highway 21"/>
    <tag k="tiger:name_type" v="Pky"/>
    <tag k="tiger:reviewed" v="no"/>
    <tag k="tiger:separated" v="no"/>
    <tag k="tiger:source" v="tiger_import_dch_v0.6_20070829"/>
    <tag k="tiger:tlid" v="87617798:87631586"/>
    <tag k="tiger:upload_uuid" v="bulk_upload.pl-11a6ffe7-dd42-4940-82bc-aa7d76d3b93f"/>
    <tag k="tiger:zip_left" v="29945"/>
    <tag k="tiger:zip_right" v="29945"/>
  </way>
  <way id="58665643" version="6" timestamp="2010-12-12T05:03:13Z" uid="207745" user="NE2" changeset="6632313">
    <nd ref="110004355"/>
    <nd ref="726861111"/>
    <tag k="highway" v="trunk"/>
    <tag k="lanes" v="2"/>
    <tag k="name" v="Trask Pky"/>
    <tag k="name_1" v="United States Highway 17"/>
    <tag k="name_2" v="United States Highway 21"/>
    <tag k="oneway" v="yes"/>
    <tag k="ref" v="US 17; US 21"/>
    <tag k="tiger:cfcc" v="A21"/>
    <tag k="tiger:county" v="Beaufort, SC"/>
    <tag k="tiger:name_base" v="Trask"/>
    <tag k="tiger:name_base_1" v="United States Highway 17"/>
    <tag k="tiger:name_base_2" v="United States Highway 21"/>
    <tag k="tiger:name_type" v="Pky"/>
    <tag k="tiger:reviewed" v="no"/>
    <tag k="tiger:separated" v="no"/>
    <tag k="tiger:source" v="tiger_import_dch_v0.6_20070829"/>
    <tag k="tiger:tlid" v="87617798:87631586"/>
    <tag k="tiger:upload_uuid" v="bulk_upload.pl-11a6ffe7-dd42-4940-82bc-aa7d76d3b93f"/>
    <tag k="tiger:zip_left" v="29945"/>
    <tag k="tiger:zip_right" v="29945"/>
  </way>
  <way id="58665643" version="7" timestamp="2011-06-11T04:10:16Z" uid="207745" user="NE2" changeset="8402497">
    <nd ref="110004355"/>
    <nd ref="726861111"/>
    <tag k="highway" v="trunk"/>
    <tag k="lanes" v="2"/>
    <tag k="name" v="Trask Pky"/>
    <tag k="oneway" v="yes"/>
    <tag k="ref" v="US 17; US 21"/>
    <tag k="tiger:cfcc" v="A21"/>
    <tag k="tiger:county" v="Beaufort, SC"/>
    <tag k="tiger:name_base" v="Trask"/>
    <tag k="tiger:name_base_1" v="United States Highway 17"/>
    <tag k="tiger:name_base_2" v="United States Highway 21"/>
    <tag k="tiger:name_type" v="Pky"/>
    <tag k="tiger:reviewed" v="no"/>
    <tag k="tiger:separated" v="no"/>
    <tag k="tiger:source" v="tiger_import_dch_v0.6_20070829"/>
    <tag k="tiger:tlid" v="87617798:87631586"/>
    <tag k="tiger:upload_uuid" v="bulk_upload.pl-11a6ffe7-dd42-4940-82bc-aa7d76d3b93f"/>
    <tag k="tiger:zip_left" v="29945"/>
    <tag k="tiger:zip_right" v="29945"/>
  </way>
  <way id="58665643" version="8" timestamp="2011-06-29T23:50:07Z" uid="473471" user="NE3" changeset="8586091">
    <nd ref="110004355"/>
    <nd ref="726861111"/>
    <tag k="NHS" v="STRAHNET"/>
    <tag k="highway" v="trunk"/>
    <tag k="lanes" v="2"/>
    <tag k="name" v="Trask Pky"/>
    <tag k="oneway" v="yes"/>
    <tag k="ref" v="US 17; US 21"/>
    <tag k="tiger:cfcc" v="A21"/>
    <tag k="tiger:county" v="Beaufort, SC"/>
    <tag k="tiger:name_base" v="Trask"/>
    <tag k="tiger:name_base_1" v="United States Highway 17"/>
    <tag k="tiger:name_base_2" v="United States Highway 21"/>
    <tag k="tiger:name_type" v="Pky"/>
    <tag k="tiger:reviewed" v="no"/>
    <tag k="tiger:separated" v="no"/>
    <tag k="tiger:source" v="tiger_import_dch_v0.6_20070829"/>
    <tag k="tiger:tlid" v="87617798:87631586"/>
    <tag k="tiger:upload_uuid" v="bulk_upload.pl-11a6ffe7-dd42-4940-82bc-aa7d76d3b93f"/>
    <tag k="tiger:zip_left" v="29945"/>
    <tag k="tiger:zip_right" v="29945"/>
  </way>
  <way id="58665643" version="9" timestamp="2011-11-24T22:10:54Z" uid="207745" user="NE2" changeset="9937881">
    <nd ref="110004355"/>
    <nd ref="726861111"/>
    <tag k="NHS" v="STRAHNET"/>
    <tag k="hgv" v="designated"/>
    <tag k="hgv:national_network" v="yes"/>
    <tag k="highway" v="trunk"/>
    <tag k="lanes" v="2"/>
    <tag k="name" v="Trask Pky"/>
    <tag k="oneway" v="yes"/>
    <tag k="ref" v="US 17; US 21"/>
    <tag k="source:hgv:national_network" v="Title 23: Highways Part 658 http://ecfr.gpoaccess.gov/cgi/t/text/text-idx?c=ecfr&amp;rgn=div5&amp;view=text&amp;node=23:1.0.1.7.33&amp;idno=23"/>
    <tag k="tiger:cfcc" v="A21"/>
    <tag k="tiger:county" v="Beaufort, SC"/>
    <tag k="tiger:name_base" v="Trask"/>
    <tag k="tiger:name_base_1" v="United States Highway 17"/>
    <tag k="tiger:name_base_2" v="United States Highway 21"/>
    <tag k="tiger:name_type" v="Pky"/>
    <tag k="tiger:reviewed" v="no"/>
    <tag k="tiger:separated" v="no"/>
    <tag k="tiger:source" v="tiger_import_dch_v0.6_20070829"/>
    <tag k="tiger:tlid" v="87617798:87631586"/>
    <tag k="tiger:upload_uuid" v="bulk_upload.pl-11a6ffe7-dd42-4940-82bc-aa7d76d3b93f"/>
    <tag k="tiger:zip_left" v="29945"/>
    <tag k="tiger:zip_right" v="29945"/>
  </way>
  <way id="58665669" version="1" timestamp="2010-05-08T22:16:15Z" uid="99207" user="Lar Kiesel" changeset="4643680">
    <nd ref="109916493"/>
    <nd ref="109978640"/>
    <nd ref="109910707"/>
    <nd ref="110004410"/>
    <nd ref="109996853"/>
    <nd ref="110004408"/>
    <nd ref="109968387"/>
    <nd ref="110004402"/>
    <nd ref="110004400"/>
    <nd ref="109968922"/>
    <tag k="highway" v="primary"/>
    <tag k="lanes" v="2"/>
    <tag k="name" v="Trask Pky"/>
    <tag k="name_1" v="United States Highway 17"/>
    <tag k="name_2" v="United States Highway 21"/>
    <tag k="oneway" v="yes"/>
    <tag k="ref" v="US 17; US 21"/>
    <tag k="tiger:cfcc" v="A21"/>
    <tag k="tiger:county" v="Beaufort, SC"/>
    <tag k="tiger:name_base" v="Trask"/>
    <tag k="tiger:name_base_1" v="United States Highway 17"/>
    <tag k="tiger:name_base_2" v="United States Highway 21"/>
    <tag k="tiger:name_type" v="Pky"/>
    <tag k="tiger:reviewed" v="no"/>
    <tag k="tiger:separated" v="no"/>
    <tag k="tiger:source" v="tiger_import_dch_v0.6_20070829"/>
    <tag k="tiger:tlid" v="87617798:87631586"/>
    <tag k="tiger:upload_uuid" v="bulk_upload.pl-11a6ffe7-dd42-4940-82bc-aa7d76d3b93f"/>
    <tag k="tiger:zip_left" v="29945"/>
    <tag k="tiger:zip_right" v="29945"/>
  </way>
  <way id="58665669" version="2" timestamp="2010-05-09T19:22:28Z" uid="207745" user="NE2" changeset="4653016">
    <nd ref="109916493"/>
    <nd ref="109978640"/>
    <nd ref="109910707"/>
    <nd ref="110004410"/>
    <nd ref="109996853"/>
    <nd ref="110004408"/>
    <nd ref="109968387"/>
    <nd ref="110004402"/>
    <nd ref="110004400"/>
    <nd ref="109968922"/>
    <tag k="highway" v="trunk"/>
    <tag k="lanes" v="2"/>
    <tag k="name" v="Trask Pky"/>
    <tag k="name_1" v="United States Highway 17"/>
    <tag k="name_2" v="United States Highway 21"/>
    <tag k="oneway" v="yes"/>
    <tag k="ref" v="US 17; US 21"/>
    <tag k="tiger:cfcc" v="A21"/>
    <tag k="tiger:county" v="Beaufort, SC"/>
    <tag k="tiger:name_base" v="Trask"/>
    <tag k="tiger:name_base_1" v="United States Highway 17"/>
    <tag k="tiger:name_base_2" v="United States Highway 21"/>
    <tag k="tiger:name_type" v="Pky"/>
    <tag k="tiger:reviewed" v="no"/>
    <tag k="tiger:separated" v="no"/>
    <tag k="tiger:source" v="tiger_import_dch_v0.6_20070829"/>
    <tag k="tiger:tlid" v="87617798:87631586"/>
    <tag k="tiger:upload_uuid" v="bulk_upload.pl-11a6ffe7-dd42-4940-82bc-aa7d76d3b93f"/>
    <tag k="tiger:zip_left" v="29945"/>
    <tag k="tiger:zip_right" v="29945"/>
  </way>
  <way id="58665669" version="3" timestamp="2010-05-10T04:32:20Z" uid="99207" user="Lar Kiesel" changeset="4655870">
    <nd ref="109916493"/>
    <nd ref="109978640"/>
    <nd ref="109910707"/>
    <nd ref="110004410"/>
    <nd ref="109996853"/>
    <nd ref="110004408"/>
    <nd ref="109968387"/>
    <nd ref="110004402"/>
    <nd ref="110004400"/>
    <nd ref="109968922"/>
    <tag k="highway" v="primary"/>
    <tag k="lanes" v="2"/>
    <tag k="name" v="Trask Pky"/>
    <tag k="name_1" v="United States Highway 17"/>
    <tag k="name_2" v="United States Highway 21"/>
    <tag k="oneway" v="yes"/>
    <tag k="ref" v="US 17; US 21"/>
    <tag k="tiger:cfcc" v="A21"/>
    <tag k="tiger:county" v="Beaufort, SC"/>
    <tag k="tiger:name_base" v="Trask"/>
    <tag k="tiger:name_base_1" v="United States Highway 17"/>
    <tag k="tiger:name_base_2" v="United States Highway 21"/>
    <tag k="tiger:name_type" v="Pky"/>
    <tag k="tiger:reviewed" v="no"/>
    <tag k="tiger:separated" v="no"/>
    <tag k="tiger:source" v="tiger_import_dch_v0.6_20070829"/>
    <tag k="tiger:tlid" v="87617798:87631586"/>
    <tag k="tiger:upload_uuid" v="bulk_upload.pl-11a6ffe7-dd42-4940-82bc-aa7d76d3b93f"/>
    <tag k="tiger:zip_left" v="29945"/>
    <tag k="tiger:zip_right" v="29945"/>
  </way>
  <way id="58665669" version="4" timestamp="2010-05-11T12:23:43Z" uid="207745" user="NE2" changeset="4668054">
    <nd ref="109916493"/>
    <nd ref="109978640"/>
    <nd ref="109910707"/>
    <nd ref="110004410"/>
    <nd ref="109996853"/>
    <nd ref="110004408"/>
    <nd ref="109968387"/>
    <nd ref="110004402"/>
    <nd ref="110004400"/>
    <nd ref="109968922"/>
    <tag k="highway" v="trunk"/>
    <tag k="lanes" v="2"/>
    <tag k="name" v="Trask Pky"/>
    <tag k="name_1" v="United States Highway 17"/>
    <tag k="name_2" v="United States Highway 21"/>
    <tag k="oneway" v="yes"/>
    <tag k="ref" v="US 17; US 21"/>
    <tag k="tiger:cfcc" v="A21"/>
    <tag k="tiger:county" v="Beaufort, SC"/>
    <tag k="tiger:name_base" v="Trask"/>
    <tag k="tiger:name_base_1" v="United States Highway 17"/>
    <tag k="tiger:name_base_2" v="United States Highway 21"/>
    <tag k="tiger:name_type" v="Pky"/>
    <tag k="tiger:reviewed" v="no"/>
    <tag k="tiger:separated" v="no"/>
    <tag k="tiger:source" v="tiger_import_dch_v0.6_20070829"/>
    <tag k="tiger:tlid" v="87617798:87631586"/>
    <tag k="tiger:upload_uuid" v="bulk_upload.pl-11a6ffe7-dd42-4940-82bc-aa7d76d3b93f"/>
    <tag k="tiger:zip_left" v="29945"/>
    <tag k="tiger:zip_right" v="29945"/>
  </way>
  <way id="58665669" version="5" timestamp="2010-06-27T17:14:18Z" uid="99207" user="Lar Kiesel" changeset="5091200">
    <nd ref="109916493"/>
    <nd ref="109978640"/>
    <nd ref="109910707"/>
    <nd ref="110004410"/>
    <nd ref="109996853"/>
    <nd ref="110004408"/>
    <nd ref="109968387"/>
    <nd ref="110004402"/>
    <nd ref="110004400"/>
    <nd ref="109968922"/>
    <tag k="highway" v="primary"/>
    <tag k="lanes" v="2"/>
    <tag k="name" v="Trask Pky"/>
    <tag k="name_1" v="United States Highway 17"/>
    <tag k="name_2" v="United States Highway 21"/>
    <tag k="oneway" v="yes"/>
    <tag k="ref" v="US 17; US 21"/>
    <tag k="tiger:cfcc" v="A21"/>
    <tag k="tiger:county" v="Beaufort, SC"/>
    <tag k="tiger:name_base" v="Trask"/>
    <tag k="tiger:name_base_1" v="United States Highway 17"/>
    <tag k="tiger:name_base_2" v="United States Highway 21"/>
    <tag k="tiger:name_type" v="Pky"/>
    <tag k="tiger:reviewed" v="no"/>
    <tag k="tiger:separated" v="no"/>
    <tag k="tiger:source" v="tiger_import_dch_v0.6_20070829"/>
    <tag k="tiger:tlid" v="87617798:87631586"/>
    <tag k="tiger:upload_uuid" v="bulk_upload.pl-11a6ffe7-dd42-4940-82bc-aa7d76d3b93f"/>
    <tag k="tiger:zip_left" v="29945"/>
    <tag k="tiger:zip_right" v="29945"/>
  </way>
  <way id="58665669" version="6" timestamp="2010-12-12T05:12:45Z" uid="207745" user="NE2" changeset="6632313">
    <nd ref="109916493"/>
    <nd ref="109978640"/>
    <nd ref="109910707"/>
    <nd ref="110004410"/>
    <nd ref="109996853"/>
    <nd ref="110004408"/>
    <nd ref="109968387"/>
    <nd ref="110004402"/>
    <nd ref="110004400"/>
    <nd ref="109968922"/>
    <tag k="highway" v="trunk"/>
    <tag k="lanes" v="2"/>
    <tag k="name" v="Trask Pky"/>
    <tag k="name_1" v="United States Highway 17"/>
    <tag k="name_2" v="United States Highway 21"/>
    <tag k="oneway" v="yes"/>
    <tag k="ref" v="US 17; US 21"/>
    <tag k="tiger:cfcc" v="A21"/>
    <tag k="tiger:county" v="Beaufort, SC"/>
    <tag k="tiger:name_base" v="Trask"/>
    <tag k="tiger:name_base_1" v="United States Highway 17"/>
    <tag k="tiger:name_base_2" v="United States Highway 21"/>
    <tag k="tiger:name_type" v="Pky"/>
    <tag k="tiger:reviewed" v="no"/>
    <tag k="tiger:separated" v="no"/>
    <tag k="tiger:source" v="tiger_import_dch_v0.6_20070829"/>
    <tag k="tiger:tlid" v="87617798:87631586"/>
    <tag k="tiger:upload_uuid" v="bulk_upload.pl-11a6ffe7-dd42-4940-82bc-aa7d76d3b93f"/>
    <tag k="tiger:zip_left" v="29945"/>
    <tag k="tiger:zip_right" v="29945"/>
  </way>
  <way id="58665669" version="7" timestamp="2011-06-11T04:08:53Z" uid="207745" user="NE2" changeset="8402497">
    <nd ref="109916493"/>
    <nd ref="109978640"/>
    <nd ref="109910707"/>
    <nd ref="110004410"/>
    <nd ref="109996853"/>
    <nd ref="110004408"/>
    <nd ref="109968387"/>
    <nd ref="110004402"/>
    <nd ref="110004400"/>
    <nd ref="109968922"/>
    <tag k="highway" v="trunk"/>
    <tag k="lanes" v="2"/>
    <tag k="name" v="Trask Pky"/>
    <tag k="oneway" v="yes"/>
    <tag k="ref" v="US 17; US 21"/>
    <tag k="tiger:cfcc" v="A21"/>
    <tag k="tiger:county" v="Beaufort, SC"/>
    <tag k="tiger:name_base" v="Trask"/>
    <tag k="tiger:name_base_1" v="United States Highway 17"/>
    <tag k="tiger:name_base_2" v="United States Highway 21"/>
    <tag k="tiger:name_type" v="Pky"/>
    <tag k="tiger:reviewed" v="no"/>
    <tag k="tiger:separated" v="no"/>
    <tag k="tiger:source" v="tiger_import_dch_v0.6_20070829"/>
    <tag k="tiger:tlid" v="87617798:87631586"/>
    <tag k="tiger:upload_uuid" v="bulk_upload.pl-11a6ffe7-dd42-4940-82bc-aa7d76d3b93f"/>
    <tag k="tiger:zip_left" v="29945"/>
    <tag k="tiger:zip_right" v="29945"/>
  </way>
  <way id="58665669" version="8" timestamp="2011-06-29T23:50:01Z" uid="473471" user="NE3" changeset="8586091">
    <nd ref="109916493"/>
    <nd ref="109978640"/>
    <nd ref="109910707"/>
    <nd ref="110004410"/>
    <nd ref="109996853"/>
    <nd ref="110004408"/>
    <nd ref="109968387"/>
    <nd ref="110004402"/>
    <nd ref="110004400"/>
    <nd ref="109968922"/>
    <tag k="NHS" v="STRAHNET"/>
    <tag k="highway" v="trunk"/>
    <tag k="lanes" v="2"/>
    <tag k="name" v="Trask Pky"/>
    <tag k="oneway" v="yes"/>
    <tag k="ref" v="US 17; US 21"/>
    <tag k="tiger:cfcc" v="A21"/>
    <tag k="tiger:county" v="Beaufort, SC"/>
    <tag k="tiger:name_base" v="Trask"/>
    <tag k="tiger:name_base_1" v="United States Highway 17"/>
    <tag k="tiger:name_base_2" v="United States Highway 21"/>
    <tag k="tiger:name_type" v="Pky"/>
    <tag k="tiger:reviewed" v="no"/>
    <tag k="tiger:separated" v="no"/>
    <tag k="tiger:source" v="tiger_import_dch_v0.6_20070829"/>
    <tag k="tiger:tlid" v="87617798:87631586"/>
    <tag k="tiger:upload_uuid" v="bulk_upload.pl-11a6ffe7-dd42-4940-82bc-aa7d76d3b93f"/>
    <tag k="tiger:zip_left" v="29945"/>
    <tag k="tiger:zip_right" v="29945"/>
  </way>
  <way id="58665669" version="9" timestamp="2011-11-24T22:10:39Z" uid="207745" user="NE2" changeset="9937881">
    <nd ref="109916493"/>
    <nd ref="109978640"/>
    <nd ref="109910707"/>
    <nd ref="110004410"/>
    <nd ref="109996853"/>
    <nd ref="110004408"/>
    <nd ref="109968387"/>
    <nd ref="110004402"/>
    <nd ref="110004400"/>
    <nd ref="109968922"/>
    <tag k="NHS" v="STRAHNET"/>
    <tag k="hgv" v="designated"/>
    <tag k="hgv:national_network" v="yes"/>
    <tag k="highway" v="trunk"/>
    <tag k="lanes" v="2"/>
    <tag k="name" v="Trask Pky"/>
    <tag k="oneway" v="yes"/>
    <tag k="ref" v="US 17; US 21"/>
    <tag k="source:hgv:national_network" v="Title 23: Highways Part 658 http://ecfr.gpoaccess.gov/cgi/t/text/text-idx?c=ecfr&amp;rgn=div5&amp;view=text&amp;node=23:1.0.1.7.33&amp;idno=23"/>
    <tag k="tiger:cfcc" v="A21"/>
    <tag k="tiger:county" v="Beaufort, SC"/>
    <tag k="tiger:name_base" v="Trask"/>
    <tag k="tiger:name_base_1" v="United States Highway 17"/>
    <tag k="tiger:name_base_2" v="United States Highway 21"/>
    <tag k="tiger:name_type" v="Pky"/>
    <tag k="tiger:reviewed" v="no"/>
    <tag k="tiger:separated" v="no"/>
    <tag k="tiger:source" v="tiger_import_dch_v0.6_20070829"/>
    <tag k="tiger:tlid" v="87617798:87631586"/>
    <tag k="tiger:upload_uuid" v="bulk_upload.pl-11a6ffe7-dd42-4940-82bc-aa7d76d3b93f"/>
    <tag k="tiger:zip_left" v="29945"/>
    <tag k="tiger:zip_right" v="29945"/>
  </way>
  <way id="58665701" version="1" timestamp="2010-05-08T22:16:18Z" uid="99207" user="Lar Kiesel" changeset="4643680">
    <nd ref="109968922"/>
    <nd ref="726861574"/>
    <nd ref="726861575"/>
    <nd ref="726861572"/>
    <nd ref="726861576"/>
    <nd ref="726861577"/>
    <nd ref="726861578"/>
    <nd ref="726861579"/>
    <nd ref="726861580"/>
    <tag k="highway" v="primary"/>
    <tag k="lanes" v="2"/>
    <tag k="name" v="Trask Pky"/>
    <tag k="name_1" v="United States Highway 17"/>
    <tag k="name_2" v="United States Highway 21"/>
    <tag k="oneway" v="yes"/>
    <tag k="ref" v="US 17; US 21"/>
  </way>
  <way id="58665701" version="2" timestamp="2010-05-09T19:23:13Z" uid="207745" user="NE2" changeset="4653016">
    <nd ref="109968922"/>
    <nd ref="726861574"/>
    <nd ref="726861575"/>
    <nd ref="726861572"/>
    <nd ref="726861576"/>
    <nd ref="726861577"/>
    <nd ref="726861578"/>
    <nd ref="726861579"/>
    <nd ref="726861580"/>
    <tag k="highway" v="trunk"/>
    <tag k="lanes" v="2"/>
    <tag k="name" v="Trask Pky"/>
    <tag k="name_1" v="United States Highway 17"/>
    <tag k="name_2" v="United States Highway 21"/>
    <tag k="oneway" v="yes"/>
    <tag k="ref" v="US 17; US 21"/>
  </way>
  <way id="58665701" version="3" timestamp="2010-05-10T04:32:18Z" uid="99207" user="Lar Kiesel" changeset="4655870">
    <nd ref="109968922"/>
    <nd ref="726861574"/>
    <nd ref="726861575"/>
    <nd ref="726861572"/>
    <nd ref="726861576"/>
    <nd ref="726861577"/>
    <nd ref="726861578"/>
    <nd ref="726861579"/>
    <nd ref="726861580"/>
    <tag k="highway" v="primary"/>
    <tag k="lanes" v="2"/>
    <tag k="name" v="Trask Pky"/>
    <tag k="name_1" v="United States Highway 17"/>
    <tag k="name_2" v="United States Highway 21"/>
    <tag k="oneway" v="yes"/>
    <tag k="ref" v="US 17; US 21"/>
  </way>
  <way id="58665701" version="4" timestamp="2010-05-11T12:23:37Z" uid="207745" user="NE2" changeset="4668054">
    <nd ref="109968922"/>
    <nd ref="726861574"/>
    <nd ref="726861575"/>
    <nd ref="726861572"/>
    <nd ref="726861576"/>
    <nd ref="726861577"/>
    <nd ref="726861578"/>
    <nd ref="726861579"/>
    <nd ref="726861580"/>
    <tag k="highway" v="trunk"/>
    <tag k="lanes" v="2"/>
    <tag k="name" v="Trask Pky"/>
    <tag k="name_1" v="United States Highway 17"/>
    <tag k="name_2" v="United States Highway 21"/>
    <tag k="oneway" v="yes"/>
    <tag k="ref" v="US 17; US 21"/>
  </way>
  <way id="58665701" version="5" timestamp="2010-06-27T17:14:15Z" uid="99207" user="Lar Kiesel" changeset="5091200">
    <nd ref="109968922"/>
    <nd ref="726861574"/>
    <nd ref="726861575"/>
    <nd ref="726861572"/>
    <nd ref="726861576"/>
    <nd ref="726861577"/>
    <nd ref="726861578"/>
    <nd ref="726861579"/>
    <nd ref="726861580"/>
    <tag k="highway" v="primary"/>
    <tag k="lanes" v="2"/>
    <tag k="name" v="Trask Pky"/>
    <tag k="name_1" v="United States Highway 17"/>
    <tag k="name_2" v="United States Highway 21"/>
    <tag k="oneway" v="yes"/>
    <tag k="ref" v="US 17; US 21"/>
  </way>
  <way id="58665701" version="6" timestamp="2010-12-12T04:53:20Z" uid="207745" user="NE2" changeset="6632313">
    <nd ref="109968922"/>
    <nd ref="726861574"/>
    <nd ref="726861575"/>
    <nd ref="726861572"/>
    <nd ref="726861576"/>
    <nd ref="726861577"/>
    <nd ref="726861578"/>
    <nd ref="726861579"/>
    <nd ref="726861580"/>
    <tag k="highway" v="trunk"/>
    <tag k="lanes" v="2"/>
    <tag k="name" v="Trask Pky"/>
    <tag k="name_1" v="United States Highway 17"/>
    <tag k="name_2" v="United States Highway 21"/>
    <tag k="oneway" v="yes"/>
    <tag k="ref" v="US 17; US 21"/>
  </way>
  <way id="58665701" version="7" timestamp="2011-05-07T06:32:45Z" uid="207745" user="NE2" changeset="8070753">
    <nd ref="109968922"/>
    <nd ref="726861574"/>
    <nd ref="726861575"/>
    <nd ref="726861572"/>
    <nd ref="726861576"/>
    <nd ref="726861577"/>
    <nd ref="726861578"/>
    <nd ref="726861579"/>
    <nd ref="726861580"/>
    <tag k="highway" v="trunk"/>
    <tag k="lanes" v="2"/>
    <tag k="name" v="Trask Pky"/>
    <tag k="oneway" v="yes"/>
    <tag k="ref" v="US 17; US 21"/>
  </way>
  <way id="58665701" version="8" timestamp="2011-06-29T23:50:12Z" uid="473471" user="NE3" changeset="8586091">
    <nd ref="109968922"/>
    <nd ref="726861574"/>
    <nd ref="726861575"/>
    <nd ref="726861572"/>
    <nd ref="726861576"/>
    <nd ref="726861577"/>
    <nd ref="726861578"/>
    <nd ref="726861579"/>
    <nd ref="726861580"/>
    <tag k="NHS" v="STRAHNET"/>
    <tag k="highway" v="trunk"/>
    <tag k="lanes" v="2"/>
    <tag k="name" v="Trask Pky"/>
    <tag k="oneway" v="yes"/>
    <tag k="ref" v="US 17; US 21"/>
  </way>
  <way id="58665701" version="9" timestamp="2011-11-24T22:11:10Z" uid="207745" user="NE2" changeset="9937881">
    <nd ref="109968922"/>
    <nd ref="726861574"/>
    <nd ref="726861575"/>
    <nd ref="726861572"/>
    <nd ref="726861576"/>
    <nd ref="726861577"/>
    <nd ref="726861578"/>
    <nd ref="726861579"/>
    <nd ref="726861580"/>
    <tag k="NHS" v="STRAHNET"/>
    <tag k="hgv" v="designated"/>
    <tag k="hgv:national_network" v="yes"/>
    <tag k="highway" v="trunk"/>
    <tag k="lanes" v="2"/>
    <tag k="name" v="Trask Pky"/>
    <tag k="oneway" v="yes"/>
    <tag k="ref" v="US 17; US 21"/>
    <tag k="source:hgv:national_network" v="Title 23: Highways Part 658 http://ecfr.gpoaccess.gov/cgi/t/text/text-idx?c=ecfr&amp;rgn=div5&amp;view=text&amp;node=23:1.0.1.7.33&amp;idno=23"/>
  </way>
</osm>
