<?xml version='1.0' encoding='UTF-8'?>
<osm version="0.6" generator="libosmium/2.20.0">
  <way id="58960081" version="1" timestamp="2010-05-12T09:41:38Z" uid="244897" user="M526244" changeset="4675480">
    <nd ref="730673134"/>
    <nd ref="730673137"/>
    <nd ref="730673142"/>
    <nd ref="730673156"/>
    <tag k="highway" v="residential"/>
    <tag k="name" v="Chilcott Circuit"/>
    <tag k="source" v="survey"/>
  </way>
  <way id="58960081" version="2" timestamp="2010-07-07T07:17:18Z" uid="74617" user="JohnSmith" changeset="5156250">
    <nd ref="730673134"/>
    <nd ref="730673137"/>
    <nd ref="730673142"/>
    <nd ref="730673156"/>
    <tag k="highway" v="residential"/>
    <tag k="maxspeed" v="50"/>
    <tag k="maxspeed:source" v="default residential speed limit in Australia"/>
    <tag k="name" v="Chilcott Circuit"/>
    <tag k="source" v="survey"/>
  </way>
  <way id="58960081" version="3" timestamp="2012-01-20T07:47:16Z" uid="147510" user="woodpeck_fixbot" changeset="10443754">
    <nd ref="730673134"/>
    <nd ref="730673137"/>
    <nd ref="730673142"/>
    <nd ref="730673156"/>
    <tag k="highway" v="residential"/>
    <tag k="name" v="Chilcott Circuit"/>
    <tag k="source" v="survey"/>
  </way>
  <way id="58960082" version="1" timestamp="2010-05-12T09:41:39Z" uid="244897" user="M526244" changeset="4675480">
    <nd ref="730673137"/>
    <nd ref="730673173"/>
    <nd ref="730673177"/>
    <tag k="highway" v="residential"/>
    <tag k="source" v="survey"/>
  </way>
  <way id="58960082" version="2" timestamp="2010-05-13T09:56:40Z" uid="244897" user="M526244" changeset="4683344">
    <nd ref="730673137"/>
    <nd ref="730673173"/>
    <nd ref="730673177"/>
    <tag k="highway" v="residential"/>
    <tag k="name" v="Hilander Street"/>
    <tag k="source" v="survey"/>
  </way>
  <way id="58960082" version="3" timestamp="2010-07-07T07:16:17Z" uid="74617" user="JohnSmith" changeset="5156250">
    <nd ref="730673137"/>
    <nd ref="730673173"/>
    <nd ref="730673177"/>
    <tag k="highway" v="residential"/>
    <tag k="maxspeed" v="50"/>
    <tag k="maxspeed:source" v="default residential speed limit in Australia"/>
    <tag k="name" v="Hilander Street"/>
    <tag k="source" v="survey"/>
  </way>
  <way id="58960082" version="4" timestamp="2012-01-20T07:47:19Z" uid="147510" user="woodpeck_fixbot" changeset="10443754">
    <nd ref="730673137"/>
    <nd ref="730673173"/>
    <nd ref="730673177"/>
    <tag k="highway" v="residential"/>
    <tag k="name" v="Hilander Street"/>
    <tag k="source" v="survey"/>
  </way>
  <way id="58960083" version="1" timestamp="2010-05-12T09:41:40Z" uid="244897" user="M526244" changeset="4675480">
    <nd ref="730673187"/>
    <nd ref="730673191"/>
    <nd ref="730673177"/>
    <nd ref="730673199"/>
    <nd ref="730673210"/>
    <nd ref="730673218"/>
    <nd ref="730673223"/>
    <tag k="highway" v="residential"/>
    <tag k="source" v="survey"/>
  </way>
  <way id="58960083" version="2" timestamp="2010-05-13T09:56:43Z" uid="244897" user="M526244" changeset="4683344">
    <nd ref="730673187"/>
    <nd ref="730673191"/>
    <nd ref="730673177"/>
    <tag k="highway" v="residential"/>
    <tag k="name" v="Kemp Street"/>
    <tag k="source" v="survey"/>
  </way>
  <way id="58960083" version="3" timestamp="2010-07-07T07:20:16Z" uid="74617" user="JohnSmith" changeset="5156250">
    <nd ref="730673187"/>
    <nd ref="730673191"/>
    <nd ref="730673177"/>
    <tag k="highway" v="residential"/>
    <tag k="maxspeed" v="50"/>
    <tag k="maxspeed:source" v="default residential speed limit in Australia"/>
    <tag k="name" v="Kemp Street"/>
    <tag k="source" v="survey"/>
  </way>
  <way id="58960083" version="4" timestamp="2012-01-20T07:47:20Z" uid="147510" user="woodpeck_fixbot" changeset="10443754">
    <nd ref="730673187"/>
    <nd ref="730673191"/>
    <nd ref="730673177"/>
    <tag k="highway" v="residential"/>
    <tag k="name" v="Kemp Street"/>
    <tag k="source" v="survey"/>
  </way>
  <way id="58960084" version="1" timestamp="2010-05-12T09:41:41Z" uid="244897" user="M526244" changeset="4675480">
    <nd ref="730240863"/>
    <nd ref="730673236"/>
    <nd ref="730673239"/>
    <nd ref="730673243"/>
    <tag k="highway" v="residential"/>
    <tag k="name" v="Perkins Close"/>
    <tag k="source" v="survey"/>
  </way>
  <way id="58960084" version="2" timestamp="2010-07-07T07:17:32Z" uid="74617" user="JohnSmith" changeset="5156250">
    <nd ref="730240863"/>
    <nd ref="730673236"/>
    <nd ref="730673239"/>
    <nd ref="730673243"/>
    <tag k="highway" v="residential"/>
    <tag k="maxspeed" v="50"/>
    <tag k="maxspeed:source" v="default residential speed limit in Australia"/>
    <tag k="name" v="Perkins Close"/>
    <tag k="source" v="survey"/>
  </way>
  <way id="58960084" version="3" timestamp="2012-01-20T07:47:21Z" uid="147510" user="woodpeck_fixbot" changeset="10443754">
    <nd ref="730240863"/>
    <nd ref="730673236"/>
    <nd ref="730673239"/>
    <nd ref="730673243"/>
    <tag k="highway" v="residential"/>
    <tag k="name" v="Perkins Close"/>
    <tag k="source" v="survey"/>
  </way>
  <way id="58960085" version="1" timestamp="2010-05-12T09:41:43Z" uid="244897" user="M526244" changeset="4675480">
    <nd ref="730240909"/>
    <nd ref="730673258"/>
    <nd ref="730673264"/>
    <nd ref="730673277"/>
    <nd ref="730673281"/>
    <nd ref="730673287"/>
    <tag k="highway" v="residential"/>
    <tag k="name" v="Madden Place"/>
    <tag k="source" v="survey"/>
  </way>
  <way id="58960085" version="2" timestamp="2010-07-07T07:16:29Z" uid="74617" user="JohnSmith" changeset="5156250">
    <nd ref="730240909"/>
    <nd ref="730673258"/>
    <nd ref="730673264"/>
    <nd ref="730673277"/>
    <nd ref="730673281"/>
    <nd ref="730673287"/>
    <tag k="highway" v="residential"/>
    <tag k="maxspeed" v="50"/>
    <tag k="maxspeed:source" v="default residential speed limit in Australia"/>
    <tag k="name" v="Madden Place"/>
    <tag k="source" v="survey"/>
  </way>
  <way id="58960085" version="3" timestamp="2012-01-20T07:47:23Z" uid="147510" user="woodpeck_fixbot" changeset="10443754">
    <nd ref="730240909"/>
    <nd ref="730673258"/>
    <nd ref="730673264"/>
    <nd ref="730673277"/>
    <nd ref="730673281"/>
    <nd ref="730673287"/>
    <tag k="highway" v="residential"/>
    <tag k="name" v="Madden Place"/>
    <tag k="source" v="survey"/>
  </way>
  <way id="58960088" version="1" timestamp="2010-05-12T09:41:45Z" uid="244897" user="M526244" changeset="4675480">
    <nd ref="730240917"/>
    <nd ref="730673337"/>
    <tag k="highway" v="residential"/>
    <tag k="name" v="Walsh Place"/>
    <tag k="source" v="survey"/>
  </way>
  <way id="58960088" version="2" timestamp="2010-07-07T07:16:45Z" uid="74617" user="JohnSmith" changeset="5156250">
    <nd ref="730240917"/>
    <nd ref="730673337"/>
    <tag k="highway" v="residential"/>
    <tag k="maxspeed" v="50"/>
    <tag k="maxspeed:source" v="default residential speed limit in Australia"/>
    <tag k="name" v="Walsh Place"/>
    <tag k="source" v="survey"/>
  </way>
  <way id="58960088" version="3" timestamp="2012-01-20T07:47:24Z" uid="147510" user="woodpeck_fixbot" changeset="10443754">
    <nd ref="730240917"/>
    <nd ref="730673337"/>
    <tag k="highway" v="residential"/>
    <tag k="name" v="Walsh Place"/>
    <tag k="source" v="survey"/>
  </way>
  <way id="58960089" version="1" timestamp="2010-05-12T09:41:46Z" uid="244897" user="M526244" changeset="4675480">
    <nd ref="730240899"/>
    <nd ref="730673350"/>
    <nd ref="730673364"/>
    <tag k="highway" v="residential"/>
    <tag k="name" v="Chilcott Circuit"/>
    <tag k="source" v="survey"/>
  </way>
  <way id="58960089" version="2" timestamp="2010-07-07T07:15:48Z" uid="74617" user="JohnSmith" changeset="5156250">
    <nd ref="730240899"/>
    <nd ref="730673350"/>
    <nd ref="730673364"/>
    <tag k="highway" v="residential"/>
    <tag k="maxspeed" v="50"/>
    <tag k="maxspeed:source" v="default residential speed limit in Australia"/>
    <tag k="name" v="Chilcott Circuit"/>
    <tag k="source" v="survey"/>
  </way>
  <way id="58960089" version="3" timestamp="2012-01-20T07:47:26Z" uid="147510" user="woodpeck_fixbot" changeset="10443754">
    <nd ref="730240899"/>
    <nd ref="730673350"/>
    <nd ref="730673364"/>
    <tag k="highway" v="residential"/>
    <tag k="name" v="Chilcott Circuit"/>
    <tag k="source" v="survey"/>
  </way>
  <way id="58960090" version="1" timestamp="2010-05-12T09:41:47Z" uid="244897" user="M526244" changeset="4675480">
    <nd ref="730673134"/>
    <nd ref="730673367"/>
    <tag k="highway" v="residential"/>
    <tag k="name" v="Chilcott Circuit"/>
    <tag k="oneway" v="yes"/>
    <tag k="source" v="survey"/>
  </way>
  <way id="58960090" version="2" timestamp="2010-05-13T10:14:45Z" uid="244897" user="M526244" changeset="4683344">
    <nd ref="730673134"/>
    <nd ref="731956032"/>
    <nd ref="731956033"/>
    <nd ref="731956034"/>
    <nd ref="731956035"/>
    <nd ref="731949607"/>
    <tag k="highway" v="residential"/>
    <tag k="name" v="Chilcott Circuit"/>
    <tag k="oneway" v="yes"/>
    <tag k="source" v="survey"/>
  </way>
  <way id="58960090" version="3" timestamp="2010-07-07T07:19:41Z" uid="74617" user="JohnSmith" changeset="5156250">
    <nd ref="730673134"/>
    <nd ref="731956032"/>
    <nd ref="731956033"/>
    <nd ref="731956034"/>
    <nd ref="731956035"/>
    <nd ref="731949607"/>
    <tag k="highway" v="residential"/>
    <tag k="maxspeed" v="50"/>
    <tag k="maxspeed:source" v="default residential speed limit in Australia"/>
    <tag k="name" v="Chilcott Circuit"/>
    <tag k="oneway" v="yes"/>
    <tag k="source" v="survey"/>
  </way>
  <way id="58960090" version="4" timestamp="2012-01-20T07:47:26Z" uid="147510" user="woodpeck_fixbot" changeset="10443754">
    <nd ref="730673134"/>
    <nd ref="731956032"/>
    <nd ref="731956033"/>
    <nd ref="731956034"/>
    <nd ref="731956035"/>
    <nd ref="731949607"/>
    <tag k="highway" v="residential"/>
    <tag k="name" v="Chilcott Circuit"/>
    <tag k="oneway" v="yes"/>
    <tag k="source" v="survey"/>
  </way>
  <way id="58960091" version="1" timestamp="2010-05-12T09:41:47Z" uid="244897" user="M526244" changeset="4675480">
    <nd ref="730673367"/>
    <nd ref="730673369"/>
    <nd ref="730673134"/>
    <tag k="highway" v="residential"/>
    <tag k="name" v="Chilcott Circuit"/>
    <tag k="oneway" v="yes"/>
    <tag k="source" v="survey"/>
  </way>
  <way id="58960091" version="2" timestamp="2010-05-13T10:14:46Z" uid="244897" user="M526244" changeset="4683344"/>
  <way id="58960092" version="1" timestamp="2010-05-12T09:41:48Z" uid="244897" user="M526244" changeset="4675480">
    <nd ref="730673367"/>
    <nd ref="730673371"/>
    <nd ref="730673372"/>
    <nd ref="730673373"/>
    <nd ref="730673187"/>
    <nd ref="730673374"/>
    <nd ref="730673375"/>
    <nd ref="730240926"/>
    <tag k="highway" v="residential"/>
    <tag k="name" v="Chilcott Circuit"/>
    <tag k="source" v="survey"/>
  </way>
  <way id="58960092" version="2" timestamp="2010-05-13T10:14:44Z" uid="244897" user="M526244" changeset="4683344">
    <nd ref="730673134"/>
    <nd ref="730673369"/>
    <nd ref="730673367"/>
    <nd ref="730673371"/>
    <nd ref="730673372"/>
    <nd ref="730673373"/>
    <nd ref="731949607"/>
    <tag k="highway" v="residential"/>
    <tag k="name" v="Chilcott Circuit"/>
    <tag k="oneway" v="yes"/>
    <tag k="source" v="survey"/>
  </way>
  <way id="58960092" version="3" timestamp="2010-07-07T07:16:07Z" uid="74617" user="JohnSmith" changeset="5156250">
    <nd ref="730673134"/>
    <nd ref="730673369"/>
    <nd ref="730673367"/>
    <nd ref="730673371"/>
    <nd ref="730673372"/>
    <nd ref="730673373"/>
    <nd ref="731949607"/>
    <tag k="highway" v="residential"/>
    <tag k="maxspeed" v="50"/>
    <tag k="maxspeed:source" v="default residential speed limit in Australia"/>
    <tag k="name" v="Chilcott Circuit"/>
    <tag k="oneway" v="yes"/>
    <tag k="source" v="survey"/>
  </way>
  <way id="58960092" version="4" timestamp="2012-01-20T07:47:28Z" uid="147510" user="woodpeck_fixbot" changeset="10443754">
    <nd ref="730673134"/>
    <nd ref="730673369"/>
    <nd ref="730673367"/>
    <nd ref="730673371"/>
    <nd ref="730673372"/>
    <nd ref="730673373"/>
    <nd ref="731949607"/>
    <tag k="highway" v="residential"/>
    <tag k="name" v="Chilcott Circuit"/>
    <tag k="oneway" v="yes"/>
    <tag k="source" v="survey"/>
  </way>
  <way id="58960095" version="1" timestamp="2010-05-12T09:41:50Z" uid="244897" user="M526244" changeset="4675480">
    <nd ref="730653184"/>
    <nd ref="730673382"/>
    <nd ref="730673383"/>
    <nd ref="730673385"/>
    <tag k="highway" v="residential"/>
    <tag k="source" v="survey"/>
  </way>
  <way id="58960095" version="2" timestamp="2010-05-21T03:37:03Z" uid="244897" user="M526244" changeset="4762737">
    <nd ref="730653184"/>
    <nd ref="730673382"/>
    <nd ref="730673383"/>
    <nd ref="730673385"/>
    <tag k="highway" v="residential"/>
    <tag k="name" v="Josephine Street"/>
    <tag k="source" v="survey"/>
  </way>
  <way id="58960095" version="3" timestamp="2010-07-07T07:17:51Z" uid="74617" user="JohnSmith" changeset="5156250">
    <nd ref="730653184"/>
    <nd ref="730673382"/>
    <nd ref="730673383"/>
    <nd ref="730673385"/>
    <tag k="highway" v="residential"/>
    <tag k="maxspeed" v="50"/>
    <tag k="maxspeed:source" v="default residential speed limit in Australia"/>
    <tag k="name" v="Josephine Street"/>
    <tag k="source" v="survey"/>
  </way>
  <way id="58960095" version="4" timestamp="2012-01-20T07:47:29Z" uid="147510" user="woodpeck_fixbot" changeset="10443754">
    <nd ref="730653184"/>
    <nd ref="730673382"/>
    <nd ref="730673383"/>
    <nd ref="730673385"/>
    <tag k="highway" v="residential"/>
    <tag k="name" v="Josephine Street"/>
    <tag k="source" v="survey"/>
  </way>
  <way id="58960096" version="1" timestamp="2010-05-12T09:41:51Z" uid="244897" user="M526244" changeset="4675480">
    <nd ref="730673385"/>
    <nd ref="730673386"/>
    <nd ref="730673387"/>
    <nd ref="730673389"/>
    <nd ref="730673390"/>
    <tag k="highway" v="residential"/>
    <tag k="source" v="survey"/>
  </way>
  <way id="58960096" version="2" timestamp="2010-05-21T03:37:03Z" uid="244897" user="M526244" changeset="4762737">
    <nd ref="741870094"/>
    <nd ref="730673396"/>
    <nd ref="730673394"/>
    <nd ref="730673393"/>
    <nd ref="730673392"/>
    <nd ref="730673385"/>
    <nd ref="730673386"/>
    <nd ref="730673387"/>
    <nd ref="730673389"/>
    <nd ref="730673390"/>
    <tag k="highway" v="residential"/>
    <tag k="name" v="Scotia Avenue"/>
    <tag k="source" v="survey"/>
  </way>
  <way id="58960096" version="3" timestamp="2010-07-07T07:19:08Z" uid="74617" user="JohnSmith" changeset="5156250">
    <nd ref="741870094"/>
    <nd ref="730673396"/>
    <nd ref="730673394"/>
    <nd ref="730673393"/>
    <nd ref="730673392"/>
    <nd ref="730673385"/>
    <nd ref="730673386"/>
    <nd ref="730673387"/>
    <nd ref="730673389"/>
    <nd ref="730673390"/>
    <tag k="highway" v="residential"/>
    <tag k="maxspeed" v="50"/>
    <tag k="maxspeed:source" v="default residential speed limit in Australia"/>
    <tag k="name" v="Scotia Avenue"/>
    <tag k="source" v="survey"/>
  </way>
  <way id="58960096" version="4" timestamp="2012-01-20T07:47:31Z" uid="147510" user="woodpeck_fixbot" changeset="10443754">
    <nd ref="741870094"/>
    <nd ref="730673396"/>
    <nd ref="730673394"/>
    <nd ref="730673393"/>
    <nd ref="730673392"/>
    <nd ref="730673385"/>
    <nd ref="730673386"/>
    <nd ref="730673387"/>
    <nd ref="730673389"/>
    <nd ref="730673390"/>
    <tag k="highway" v="residential"/>
    <tag k="name" v="Scotia Avenue"/>
    <tag k="source" v="survey"/>
  </way>
  <way id="58960097" version="1" timestamp="2010-05-12T09:41:53Z" uid="244897" user="M526244" changeset="4675480">
    <nd ref="730673385"/>
    <nd ref="730673392"/>
    <nd ref="730673393"/>
    <nd ref="730673394"/>
    <nd ref="730673396"/>
    <nd ref="730673397"/>
    <nd ref="730673398"/>
    <nd ref="730673399"/>
    <nd ref="730673400"/>
    <nd ref="730673401"/>
    <nd ref="730673403"/>
    <tag k="highway" v="residential"/>
    <tag k="source" v="survey"/>
  </way>
  <way id="58960097" version="2" timestamp="2010-05-21T03:37:04Z" uid="244897" user="M526244" changeset="4762737"/>
  <way id="58960098" version="1" timestamp="2010-05-12T09:41:55Z" uid="244897" user="M526244" changeset="4675480">
    <nd ref="730653226"/>
    <nd ref="730673404"/>
    <nd ref="730673406"/>
    <nd ref="730673407"/>
    <nd ref="730673408"/>
    <nd ref="730673409"/>
    <nd ref="730673411"/>
    <nd ref="730673412"/>
    <nd ref="730673413"/>
    <tag k="highway" v="residential"/>
    <tag k="name" v="Highfield Terrace"/>
    <tag k="source" v="survey"/>
  </way>
  <way id="58960098" version="2" timestamp="2010-07-07T07:16:59Z" uid="74617" user="JohnSmith" changeset="5156250">
    <nd ref="730653226"/>
    <nd ref="730673404"/>
    <nd ref="730673406"/>
    <nd ref="730673407"/>
    <nd ref="730673408"/>
    <nd ref="730673409"/>
    <nd ref="730673411"/>
    <nd ref="730673412"/>
    <nd ref="730673413"/>
    <tag k="highway" v="residential"/>
    <tag k="maxspeed" v="50"/>
    <tag k="maxspeed:source" v="default residential speed limit in Australia"/>
    <tag k="name" v="Highfield Terrace"/>
    <tag k="source" v="survey"/>
  </way>
  <way id="58960098" version="3" timestamp="2012-01-20T07:47:32Z" uid="147510" user="woodpeck_fixbot" changeset="10443754">
    <nd ref="730653226"/>
    <nd ref="730673404"/>
    <nd ref="730673406"/>
    <nd ref="730673407"/>
    <nd ref="730673408"/>
    <nd ref="730673409"/>
    <nd ref="730673411"/>
    <nd ref="730673412"/>
    <nd ref="730673413"/>
    <tag k="highway" v="residential"/>
    <tag k="name" v="Highfield Terrace"/>
    <tag k="source" v="survey"/>
  </way>
  <way id="58960099" version="1" timestamp="2010-05-12T09:41:55Z" uid="244897" user="M526244" changeset="4675480">
    <nd ref="730673413"/>
    <nd ref="730673415"/>
    <tag k="highway" v="residential"/>
    <tag k="name" v="Bannockburn Court"/>
    <tag k="source" v="survey"/>
  </way>
  <way id="58960099" version="2" timestamp="2010-07-07T07:16:04Z" uid="74617" user="JohnSmith" changeset="5156250">
    <nd ref="730673413"/>
    <nd ref="730673415"/>
    <tag k="highway" v="residential"/>
    <tag k="maxspeed" v="50"/>
    <tag k="maxspeed:source" v="default residential speed limit in Australia"/>
    <tag k="name" v="Bannockburn Court"/>
    <tag k="source" v="survey"/>
  </way>
  <way id="58960099" version="3" timestamp="2012-01-20T07:47:34Z" uid="147510" user="woodpeck_fixbot" changeset="10443754">
    <nd ref="730673413"/>
    <nd ref="730673415"/>
    <tag k="highway" v="residential"/>
    <tag k="name" v="Bannockburn Court"/>
    <tag k="source" v="survey"/>
  </way>
  <way id="58960101" version="5" timestamp="2010-05-30T16:59:07Z" uid="9581" user="Lobelt" changeset="4854232">
    <nd ref="730673445"/>
    <nd ref="730676863"/>
    <nd ref="730673446"/>
    <nd ref="730673447"/>
    <nd ref="730673449"/>
    <nd ref="759735277"/>
    <nd ref="730673450"/>
    <tag k="boat" v="no"/>
    <tag k="name" v="Kinderbach"/>
    <tag k="waterway" v="stream"/>
  </way>
  <way id="58960101" version="6" timestamp="2011-02-17T10:08:34Z" uid="242551" user="hmpfgnrrr" changeset="7311563">
    <nd ref="730673445"/>
    <nd ref="1157360173"/>
    <tag k="boat" v="no"/>
    <tag k="name" v="Kinderbach"/>
    <tag k="waterway" v="stream"/>
  </way>
  <way id="58960128" version="5" timestamp="2010-09-07T14:29:16Z" uid="43967" user="railsnail" changeset="5708352">
    <nd ref="730674151"/>
    <nd ref="327513258"/>
    <nd ref="141535016"/>
    <nd ref="265631466"/>
    <nd ref="265631465"/>
    <nd ref="805321816"/>
    <nd ref="317438132"/>
    <nd ref="141535018"/>
    <nd ref="265631464"/>
    <nd ref="327513268"/>
    <nd ref="265631463"/>
    <nd ref="141535019"/>
    <nd ref="265631460"/>
    <nd ref="141535021"/>
    <nd ref="900957516"/>
    <nd ref="141535022"/>
    <nd ref="141535023"/>
    <nd ref="327506336"/>
    <nd ref="141535024"/>
    <nd ref="141535025"/>
    <nd ref="327506340"/>
    <nd ref="327506346"/>
    <nd ref="141535026"/>
    <nd ref="265631738"/>
    <nd ref="327506350"/>
    <nd ref="141535027"/>
    <nd ref="265631737"/>
    <nd ref="141535028"/>
    <nd ref="265631730"/>
    <tag k="highway" v="primary"/>
    <tag k="lanes" v="2"/>
    <tag k="name" v="Strada Statale 47 della Valsugana"/>
    <tag k="ref" v="SS47"/>
  </way>
  <way id="58960128" version="6" timestamp="2010-09-15T17:04:24Z" uid="45952" user="plexi32" changeset="5788954">
    <nd ref="730674151"/>
    <nd ref="327513258"/>
    <nd ref="141535016"/>
    <nd ref="265631466"/>
    <nd ref="265631465"/>
    <nd ref="805321816"/>
    <nd ref="317438132"/>
    <nd ref="141535018"/>
    <nd ref="265631464"/>
    <nd ref="327513268"/>
    <nd ref="265631463"/>
    <nd ref="141535019"/>
    <nd ref="265631460"/>
    <nd ref="141535021"/>
    <nd ref="900957516"/>
    <nd ref="141535022"/>
    <nd ref="141535023"/>
    <nd ref="327506336"/>
    <nd ref="141535024"/>
    <nd ref="913663417"/>
    <nd ref="141535025"/>
    <nd ref="327506340"/>
    <nd ref="327506346"/>
    <nd ref="141535026"/>
    <nd ref="265631738"/>
    <nd ref="327506350"/>
    <nd ref="141535027"/>
    <nd ref="265631737"/>
    <nd ref="141535028"/>
    <nd ref="265631730"/>
    <tag k="highway" v="primary"/>
    <tag k="lanes" v="2"/>
    <tag k="name" v="Strada Statale 47 della Valsugana"/>
    <tag k="ref" v="SS47"/>
  </way>
  <way id="58960128" version="7" timestamp="2011-01-06T17:06:01Z" uid="90188" user="hypersciocco" changeset="6884570">
    <nd ref="730674151"/>
    <nd ref="327513258"/>
    <nd ref="141535016"/>
    <nd ref="265631466"/>
    <tag k="highway" v="primary"/>
    <tag k="name" v="Strada Statale 47 della Valsugana"/>
    <tag k="ref" v="SS47"/>
  </way>
  <way id="58960128" version="8" timestamp="2011-01-06T19:59:15Z" uid="90188" user="hypersciocco" changeset="6886365">
    <nd ref="265631466"/>
    <nd ref="141535016"/>
    <nd ref="327513258"/>
    <nd ref="730674151"/>
    <tag k="highway" v="primary"/>
    <tag k="lanes" v="2"/>
    <tag k="name" v="Strada Statale 47 della Valsugana"/>
    <tag k="oneway" v="yes"/>
    <tag k="ref" v="SS47"/>
  </way>
  <way id="58960128" version="9" timestamp="2011-09-05T14:05:31Z" uid="90188" user="hypersciocco" changeset="9218046">
    <nd ref="265631466"/>
    <nd ref="141535016"/>
    <nd ref="327513258"/>
    <nd ref="730674151"/>
    <tag k="highway" v="trunk"/>
    <tag k="lanes" v="2"/>
    <tag k="name" v="Strada Statale 47 della Valsugana"/>
    <tag k="oneway" v="yes"/>
    <tag k="ref" v="SS47"/>
  </way>
  <way id="58960128" version="10" timestamp="2011-09-09T23:21:01Z" uid="90188" user="hypersciocco" changeset="9258775">
    <nd ref="265631466"/>
    <nd ref="141535016"/>
    <nd ref="327513258"/>
    <nd ref="730674151"/>
    <tag k="highway" v="trunk"/>
    <tag k="lanes" v="2"/>
    <tag k="name" v="Strada Statale 47 della Valsugana"/>
    <tag k="nat_ref" v="SS47"/>
    <tag k="oneway" v="yes"/>
    <tag k="ref" v="SS47"/>
  </way>
  <way id="58960198" version="1" timestamp="2010-05-12T09:44:59Z" uid="4467" user="Rosscoe" changeset="4675669">
    <nd ref="730675256"/>
    <nd ref="730675253"/>
    <nd ref="730675259"/>
    <nd ref="730675257"/>
    <nd ref="730675254"/>
    <nd ref="730675252"/>
    <nd ref="730675258"/>
    <nd ref="730675255"/>
    <nd ref="730675256"/>
    <tag k="highway" v="residential"/>
    <tag k="junction" v="roundabout"/>
    <tag k="source" v="nearmap"/>
  </way>
  <way id="58960649" version="1" timestamp="2010-05-12T09:49:03Z" uid="244897" user="M526244" changeset="4675480">
    <nd ref="730679342"/>
    <nd ref="730653547"/>
    <nd ref="730679343"/>
    <nd ref="730679342"/>
    <nd ref="730679345"/>
    <nd ref="730679347"/>
    <tag k="highway" v="service"/>
  </way>
</osm>
