<?xml version='1.0' encoding='UTF-8'?>
<osm version="0.6" generator="libosmium/2.20.0">
  <way id="59238146" version="5" timestamp="2011-06-10T13:13:43Z" uid="115477" user="wowik" changeset="8396257">
    <nd ref="734777830"/>
    <nd ref="1318844083"/>
    <nd ref="734777849"/>
    <nd ref="734777821"/>
    <nd ref="734777796"/>
    <nd ref="734777769"/>
    <nd ref="734777861"/>
    <nd ref="734777834"/>
    <nd ref="734777807"/>
    <nd ref="734777781"/>
    <nd ref="734777872"/>
    <nd ref="734777845"/>
    <nd ref="1318843962"/>
    <nd ref="1318843980"/>
    <nd ref="1318844329"/>
    <nd ref="1318843818"/>
    <nd ref="1318844189"/>
    <nd ref="1318843581"/>
    <nd ref="734777830"/>
    <tag k="addr:country" v="RU"/>
    <tag k="addr:district" v="Солнечногорский район"/>
    <tag k="addr:postcode" v="141503"/>
    <tag k="addr:region" v="Московская область"/>
    <tag k="area" v="yes"/>
    <tag k="cladr:code" v="5003300003000"/>
    <tag k="cladr:name" v="Головково"/>
    <tag k="cladr:suffix" v="Деревня"/>
    <tag k="landuse" v="residential"/>
    <tag k="name" v="Головково"/>
    <tag k="place" v="hamlet"/>
    <tag k="place_name" v="Головково"/>
  </way>
  <way id="59238146" version="6" timestamp="2011-06-10T14:40:57Z" uid="115477" user="wowik" changeset="8396257">
    <nd ref="734777830"/>
    <nd ref="1318844083"/>
    <nd ref="734777849"/>
    <nd ref="734777821"/>
    <nd ref="734777796"/>
    <nd ref="734777769"/>
    <nd ref="734777861"/>
    <nd ref="734777834"/>
    <nd ref="1318968673"/>
    <nd ref="734777807"/>
    <nd ref="734777781"/>
    <nd ref="734777872"/>
    <nd ref="734777845"/>
    <nd ref="1318843962"/>
    <nd ref="1318843980"/>
    <nd ref="1318844329"/>
    <nd ref="1318843818"/>
    <nd ref="1318844189"/>
    <nd ref="1318843581"/>
    <nd ref="734777830"/>
    <tag k="addr:country" v="RU"/>
    <tag k="addr:district" v="Солнечногорский район"/>
    <tag k="addr:postcode" v="141503"/>
    <tag k="addr:region" v="Московская область"/>
    <tag k="area" v="yes"/>
    <tag k="cladr:code" v="5003300003000"/>
    <tag k="cladr:name" v="Головково"/>
    <tag k="cladr:suffix" v="Деревня"/>
    <tag k="landuse" v="residential"/>
    <tag k="name" v="Головково"/>
    <tag k="place" v="hamlet"/>
    <tag k="place_name" v="Головково"/>
  </way>
  <way id="59238148" version="6" timestamp="2011-06-10T13:13:53Z" uid="115477" user="wowik" changeset="8396257">
    <nd ref="734777772"/>
    <nd ref="734777791"/>
    <nd ref="734777764"/>
    <nd ref="734777761"/>
    <nd ref="734777854"/>
    <nd ref="734777826"/>
    <nd ref="734777800"/>
    <nd ref="734777774"/>
    <nd ref="734777865"/>
    <nd ref="734777838"/>
    <nd ref="734777786"/>
    <nd ref="734777758"/>
    <nd ref="734777851"/>
    <nd ref="734777823"/>
    <nd ref="734777772"/>
    <tag k="landuse" v="allotments"/>
    <tag k="name" v="с/т Дружба-2"/>
  </way>
</osm>
