<?xml version='1.0' encoding='UTF-8'?>
<osm version="0.6" generator="libosmium/2.20.0">
  <way id="59342154" version="1" timestamp="2010-05-16T06:27:15Z" uid="242497" user="cvl" changeset="4713448">
    <nd ref="736018321"/>
    <nd ref="736018322"/>
    <nd ref="736018323"/>
    <nd ref="736018324"/>
    <nd ref="736018325"/>
    <nd ref="736018326"/>
    <nd ref="580925722"/>
    <tag k="highway" v="secondary"/>
    <tag k="name" v="Glengarry Drive"/>
    <tag k="oneway" v="yes"/>
  </way>
  <way id="59342155" version="1" timestamp="2010-05-16T06:27:17Z" uid="242497" user="cvl" changeset="4713448">
    <nd ref="674519858"/>
    <nd ref="736018322"/>
    <tag k="highway" v="service"/>
  </way>
  <way id="59342156" version="1" timestamp="2010-05-16T06:27:17Z" uid="242497" user="cvl" changeset="4713448">
    <nd ref="442614993"/>
    <nd ref="736018327"/>
    <nd ref="736018328"/>
    <nd ref="736018329"/>
    <nd ref="736018330"/>
    <nd ref="736018331"/>
    <nd ref="736018332"/>
    <nd ref="736018321"/>
    <tag k="highway" v="secondary"/>
    <tag k="name" v="Glengarry Drive"/>
    <tag k="oneway" v="yes"/>
  </way>
  <way id="59342157" version="1" timestamp="2010-05-16T06:27:18Z" uid="242497" user="cvl" changeset="4713448">
    <nd ref="199140078"/>
    <nd ref="30975917"/>
    <nd ref="30975916"/>
    <nd ref="200313927"/>
    <tag k="highway" v="secondary"/>
    <tag k="name" v="Glengarry Drive"/>
    <tag k="oneway" v="yes"/>
  </way>
  <way id="59342159" version="1" timestamp="2010-05-16T06:27:21Z" uid="242497" user="cvl" changeset="4713448">
    <nd ref="200796179"/>
    <nd ref="736018338"/>
    <nd ref="736018337"/>
    <tag k="highway" v="secondary"/>
    <tag k="name" v="Glengarry Drive"/>
    <tag k="oneway" v="yes"/>
  </way>
  <way id="59342160" version="1" timestamp="2010-05-16T06:27:22Z" uid="242497" user="cvl" changeset="4713448">
    <nd ref="200330776"/>
    <nd ref="580921376"/>
    <nd ref="30975918"/>
    <nd ref="443547700"/>
    <tag k="highway" v="secondary"/>
    <tag k="name" v="Glengarry Drive"/>
    <tag k="oneway" v="yes"/>
  </way>
  <way id="59342713" version="3" timestamp="2010-07-09T05:27:56Z" uid="74617" user="JohnSmith" changeset="5170986">
    <nd ref="736029916"/>
    <nd ref="736029918"/>
    <nd ref="736029920"/>
    <nd ref="736029922"/>
    <nd ref="736029927"/>
    <nd ref="736029930"/>
    <nd ref="736029932"/>
    <nd ref="736029935"/>
    <nd ref="736029938"/>
    <nd ref="736029941"/>
    <nd ref="736029944"/>
    <nd ref="736029947"/>
    <nd ref="736029949"/>
    <nd ref="736029951"/>
    <nd ref="736029953"/>
    <nd ref="736029957"/>
    <nd ref="736029960"/>
    <nd ref="736029962"/>
    <nd ref="736029964"/>
    <nd ref="736029966"/>
    <nd ref="736029968"/>
    <tag k="highway" v="unclassified"/>
    <tag k="maxspeed" v="50"/>
    <tag k="maxspeed:source" v="default residential speed limit in Australia"/>
    <tag k="name" v="Lake Kara"/>
    <tag k="tourism" v="camp_site"/>
    <tag k="tracktype" v="grade2"/>
  </way>
  <way id="59342713" version="4" timestamp="2010-08-17T13:07:05Z" uid="4467" user="Rosscoe" changeset="5517641">
    <nd ref="736029916"/>
    <nd ref="736029918"/>
    <nd ref="736029920"/>
    <nd ref="736029922"/>
    <nd ref="736029927"/>
    <nd ref="736029930"/>
    <nd ref="736029932"/>
    <nd ref="736029935"/>
    <nd ref="736029938"/>
    <nd ref="736029941"/>
    <nd ref="736029944"/>
    <nd ref="736029947"/>
    <nd ref="736029949"/>
    <nd ref="736029951"/>
    <nd ref="736029953"/>
    <nd ref="736029957"/>
    <nd ref="736029960"/>
    <nd ref="736029962"/>
    <nd ref="736029964"/>
    <nd ref="736029966"/>
    <nd ref="736029968"/>
    <tag k="highway" v="unclassified"/>
    <tag k="maxspeed" v="50"/>
    <tag k="maxspeed:source" v="default residential speed limit in Australia"/>
    <tag k="name" v="Lake Kara"/>
    <tag k="tracktype" v="grade2"/>
  </way>
  <way id="59342713" version="5" timestamp="2012-01-20T08:11:19Z" uid="147510" user="woodpeck_fixbot" changeset="10443754">
    <nd ref="736029916"/>
    <nd ref="736029918"/>
    <nd ref="736029920"/>
    <nd ref="736029922"/>
    <nd ref="736029927"/>
    <nd ref="736029930"/>
    <nd ref="736029932"/>
    <nd ref="736029935"/>
    <nd ref="736029938"/>
    <nd ref="736029941"/>
    <nd ref="736029944"/>
    <nd ref="736029947"/>
    <nd ref="736029949"/>
    <nd ref="736029951"/>
    <nd ref="736029953"/>
    <nd ref="736029957"/>
    <nd ref="736029960"/>
    <nd ref="736029962"/>
    <nd ref="736029964"/>
    <nd ref="736029966"/>
    <nd ref="736029968"/>
    <tag k="highway" v="unclassified"/>
    <tag k="name" v="Lake Kara"/>
    <tag k="tracktype" v="grade2"/>
  </way>
  <way id="59342717" version="2" timestamp="2010-06-01T06:36:01Z" uid="4467" user="Rosscoe" changeset="4872053">
    <nd ref="736029865"/>
    <nd ref="736029981"/>
    <nd ref="736029988"/>
    <nd ref="736029989"/>
    <nd ref="736029991"/>
    <nd ref="736029993"/>
    <nd ref="736029994"/>
    <nd ref="736029996"/>
    <nd ref="736029998"/>
    <nd ref="736030000"/>
    <nd ref="736030002"/>
    <nd ref="736030003"/>
    <nd ref="736030006"/>
    <nd ref="736030007"/>
    <nd ref="736030009"/>
    <nd ref="736030011"/>
    <nd ref="736030014"/>
    <nd ref="736030015"/>
    <nd ref="736030017"/>
    <nd ref="736030020"/>
    <nd ref="736030022"/>
    <nd ref="736030024"/>
    <nd ref="736030026"/>
    <nd ref="736030029"/>
    <nd ref="736030031"/>
    <nd ref="736030033"/>
    <nd ref="736030042"/>
    <nd ref="736030044"/>
    <nd ref="736030046"/>
    <nd ref="736030047"/>
    <nd ref="736030049"/>
    <nd ref="736030050"/>
    <tag k="highway" v="tertiary"/>
    <tag k="name" v="Blythe Road"/>
  </way>
  <way id="59342717" version="3" timestamp="2011-12-26T22:26:22Z" uid="276071" user="Dave- Tas" changeset="10211556">
    <nd ref="736029865"/>
    <nd ref="736029981"/>
    <nd ref="736029988"/>
    <nd ref="736029989"/>
    <nd ref="736029991"/>
    <nd ref="736029993"/>
    <nd ref="736029994"/>
    <nd ref="736029996"/>
    <nd ref="736029998"/>
    <nd ref="736030000"/>
    <nd ref="736030002"/>
    <nd ref="736030003"/>
    <nd ref="736030006"/>
    <nd ref="736030007"/>
    <nd ref="736030009"/>
    <nd ref="736030011"/>
    <nd ref="736030014"/>
    <nd ref="736030015"/>
    <nd ref="736030017"/>
    <nd ref="736030020"/>
    <nd ref="736030022"/>
    <nd ref="736030024"/>
    <nd ref="736030026"/>
    <nd ref="736030029"/>
    <nd ref="736030031"/>
    <nd ref="736030033"/>
    <nd ref="736030042"/>
    <nd ref="736030044"/>
    <nd ref="736030046"/>
    <nd ref="736030047"/>
    <nd ref="736030049"/>
    <nd ref="736030050"/>
    <nd ref="1563012517"/>
    <nd ref="1563012453"/>
    <nd ref="1563012455"/>
    <nd ref="1563012474"/>
    <nd ref="1563012627"/>
    <tag k="highway" v="service"/>
    <tag k="name" v="Blythe Road"/>
  </way>
  <way id="59342728" version="1" timestamp="2010-05-16T06:51:53Z" uid="30201" user="rrankin" changeset="4713608">
    <nd ref="736030308"/>
    <nd ref="736030246"/>
    <tag k="highway" v="residential"/>
    <tag k="name" v="Henry Street"/>
    <tag k="source" v="nearmap"/>
  </way>
  <way id="59342728" version="2" timestamp="2010-07-08T03:32:27Z" uid="74617" user="JohnSmith" changeset="5163091">
    <nd ref="736030308"/>
    <nd ref="736030246"/>
    <tag k="highway" v="residential"/>
    <tag k="maxspeed" v="50"/>
    <tag k="maxspeed:source" v="default residential speed limit in Australia"/>
    <tag k="name" v="Henry Street"/>
    <tag k="source" v="nearmap"/>
  </way>
  <way id="59342728" version="3" timestamp="2012-01-20T08:11:24Z" uid="147510" user="woodpeck_fixbot" changeset="10443754">
    <nd ref="736030308"/>
    <nd ref="736030246"/>
    <tag k="highway" v="residential"/>
    <tag k="name" v="Henry Street"/>
    <tag k="source" v="nearmap"/>
  </way>
  <way id="59342729" version="1" timestamp="2010-05-16T06:51:53Z" uid="30201" user="rrankin" changeset="4713608">
    <nd ref="735960413"/>
    <nd ref="735960465"/>
    <nd ref="735960446"/>
    <tag k="highway" v="unclassified"/>
    <tag k="source" v="nearmap"/>
  </way>
  <way id="59342730" version="1" timestamp="2010-05-16T06:51:53Z" uid="30201" user="rrankin" changeset="4713608">
    <nd ref="736030258"/>
    <nd ref="736030294"/>
    <nd ref="736030304"/>
    <nd ref="736030287"/>
    <nd ref="736030313"/>
    <nd ref="736030250"/>
    <nd ref="736030233"/>
    <tag k="highway" v="residential"/>
    <tag k="name" v="Boyce Avenue"/>
    <tag k="source" v="nearmap"/>
  </way>
  <way id="59342730" version="2" timestamp="2010-07-08T03:40:22Z" uid="74617" user="JohnSmith" changeset="5163091">
    <nd ref="736030258"/>
    <nd ref="736030294"/>
    <nd ref="736030304"/>
    <nd ref="736030287"/>
    <nd ref="736030313"/>
    <nd ref="736030250"/>
    <nd ref="736030233"/>
    <tag k="highway" v="residential"/>
    <tag k="maxspeed" v="50"/>
    <tag k="maxspeed:source" v="default residential speed limit in Australia"/>
    <tag k="name" v="Boyce Avenue"/>
    <tag k="source" v="nearmap"/>
  </way>
  <way id="59342730" version="3" timestamp="2012-01-20T08:11:26Z" uid="147510" user="woodpeck_fixbot" changeset="10443754">
    <nd ref="736030258"/>
    <nd ref="736030294"/>
    <nd ref="736030304"/>
    <nd ref="736030287"/>
    <nd ref="736030313"/>
    <nd ref="736030250"/>
    <nd ref="736030233"/>
    <tag k="highway" v="residential"/>
    <tag k="name" v="Boyce Avenue"/>
    <tag k="source" v="nearmap"/>
  </way>
  <way id="59342731" version="1" timestamp="2010-05-16T06:51:54Z" uid="30201" user="rrankin" changeset="4713608">
    <nd ref="736030234"/>
    <nd ref="736030273"/>
    <tag k="highway" v="residential"/>
    <tag k="name" v="Ansell Close"/>
    <tag k="source" v="nearmap"/>
  </way>
  <way id="59342731" version="2" timestamp="2010-07-08T03:31:14Z" uid="74617" user="JohnSmith" changeset="5163091">
    <nd ref="736030234"/>
    <nd ref="736030273"/>
    <tag k="highway" v="residential"/>
    <tag k="maxspeed" v="50"/>
    <tag k="maxspeed:source" v="default residential speed limit in Australia"/>
    <tag k="name" v="Ansell Close"/>
    <tag k="source" v="nearmap"/>
  </way>
  <way id="59342731" version="3" timestamp="2012-01-20T08:11:29Z" uid="147510" user="woodpeck_fixbot" changeset="10443754">
    <nd ref="736030234"/>
    <nd ref="736030273"/>
    <tag k="highway" v="residential"/>
    <tag k="name" v="Ansell Close"/>
    <tag k="source" v="nearmap"/>
  </way>
  <way id="59342732" version="1" timestamp="2010-05-16T06:51:54Z" uid="30201" user="rrankin" changeset="4713608">
    <nd ref="736030274"/>
    <nd ref="736030300"/>
    <tag k="highway" v="residential"/>
    <tag k="name" v="Raymond Street"/>
    <tag k="source" v="nearmap"/>
  </way>
  <way id="59342732" version="2" timestamp="2010-07-08T03:37:27Z" uid="74617" user="JohnSmith" changeset="5163091">
    <nd ref="736030274"/>
    <nd ref="736030300"/>
    <tag k="highway" v="residential"/>
    <tag k="maxspeed" v="50"/>
    <tag k="maxspeed:source" v="default residential speed limit in Australia"/>
    <tag k="name" v="Raymond Street"/>
    <tag k="source" v="nearmap"/>
  </way>
  <way id="59342732" version="3" timestamp="2012-01-20T08:11:31Z" uid="147510" user="woodpeck_fixbot" changeset="10443754">
    <nd ref="736030274"/>
    <nd ref="736030300"/>
    <tag k="highway" v="residential"/>
    <tag k="name" v="Raymond Street"/>
    <tag k="source" v="nearmap"/>
  </way>
  <way id="59342733" version="1" timestamp="2010-05-16T06:51:54Z" uid="30201" user="rrankin" changeset="4713608">
    <nd ref="735960413"/>
    <nd ref="736030270"/>
    <nd ref="736030265"/>
    <nd ref="736030307"/>
    <nd ref="736030286"/>
    <nd ref="736030226"/>
    <nd ref="736030221"/>
    <nd ref="736030261"/>
    <nd ref="736030245"/>
    <nd ref="736030280"/>
    <nd ref="736030275"/>
    <nd ref="736030215"/>
    <nd ref="736030297"/>
    <nd ref="736030236"/>
    <nd ref="736030230"/>
    <nd ref="736030267"/>
    <nd ref="736030256"/>
    <nd ref="736030292"/>
    <nd ref="736030282"/>
    <nd ref="736030224"/>
    <nd ref="736030312"/>
    <nd ref="736030248"/>
    <nd ref="736030238"/>
    <nd ref="736030277"/>
    <nd ref="736030263"/>
    <nd ref="736030301"/>
    <nd ref="736030251"/>
    <nd ref="736030285"/>
    <nd ref="736030269"/>
    <nd ref="736030314"/>
    <nd ref="736030306"/>
    <nd ref="736030244"/>
    <nd ref="736030225"/>
    <nd ref="736030264"/>
    <nd ref="736030260"/>
    <nd ref="736030296"/>
    <nd ref="736030279"/>
    <nd ref="736030220"/>
    <nd ref="736030213"/>
    <nd ref="736030255"/>
    <nd ref="736030235"/>
    <nd ref="736030274"/>
    <nd ref="736030266"/>
    <nd ref="736030310"/>
    <nd ref="736030290"/>
    <nd ref="736030229"/>
    <nd ref="736030222"/>
    <tag k="highway" v="residential"/>
    <tag k="name" v="South Tacoma Road"/>
    <tag k="source" v="nearmap"/>
  </way>
  <way id="59342733" version="2" timestamp="2010-05-16T10:02:50Z" uid="30201" user="rrankin" changeset="4715082"/>
  <way id="59342734" version="1" timestamp="2010-05-16T06:51:54Z" uid="30201" user="rrankin" changeset="4713608">
    <nd ref="736030235"/>
    <nd ref="736030281"/>
    <tag k="highway" v="residential"/>
    <tag k="name" v="Kingsland Close"/>
    <tag k="source" v="nearmap"/>
  </way>
  <way id="59342734" version="2" timestamp="2010-07-08T03:39:45Z" uid="74617" user="JohnSmith" changeset="5163091">
    <nd ref="736030235"/>
    <nd ref="736030281"/>
    <tag k="highway" v="residential"/>
    <tag k="maxspeed" v="50"/>
    <tag k="maxspeed:source" v="default residential speed limit in Australia"/>
    <tag k="name" v="Kingsland Close"/>
    <tag k="source" v="nearmap"/>
  </way>
  <way id="59342734" version="3" timestamp="2012-01-20T08:11:32Z" uid="147510" user="woodpeck_fixbot" changeset="10443754">
    <nd ref="736030235"/>
    <nd ref="736030281"/>
    <tag k="highway" v="residential"/>
    <tag k="name" v="Kingsland Close"/>
    <tag k="source" v="nearmap"/>
  </way>
  <way id="59342735" version="1" timestamp="2010-05-16T06:51:54Z" uid="30201" user="rrankin" changeset="4713608">
    <nd ref="736030254"/>
    <nd ref="736030289"/>
    <tag k="highway" v="residential"/>
    <tag k="name" v="Hyles Street"/>
    <tag k="source" v="nearmap"/>
  </way>
  <way id="59342735" version="2" timestamp="2010-07-08T03:33:12Z" uid="74617" user="JohnSmith" changeset="5163091">
    <nd ref="736030254"/>
    <nd ref="736030289"/>
    <tag k="highway" v="residential"/>
    <tag k="maxspeed" v="50"/>
    <tag k="maxspeed:source" v="default residential speed limit in Australia"/>
    <tag k="name" v="Hyles Street"/>
    <tag k="source" v="nearmap"/>
  </way>
  <way id="59342735" version="3" timestamp="2012-01-20T08:11:35Z" uid="147510" user="woodpeck_fixbot" changeset="10443754">
    <nd ref="736030254"/>
    <nd ref="736030289"/>
    <tag k="highway" v="residential"/>
    <tag k="name" v="Hyles Street"/>
    <tag k="source" v="nearmap"/>
  </way>
  <way id="59342736" version="1" timestamp="2010-05-16T06:51:54Z" uid="30201" user="rrankin" changeset="4713608">
    <nd ref="736030288"/>
    <nd ref="736030227"/>
    <tag k="highway" v="residential"/>
    <tag k="name" v="Sunshine Avenue"/>
    <tag k="source" v="nearmap"/>
  </way>
  <way id="59342736" version="2" timestamp="2010-07-08T03:31:59Z" uid="74617" user="JohnSmith" changeset="5163091">
    <nd ref="736030288"/>
    <nd ref="736030227"/>
    <tag k="highway" v="residential"/>
    <tag k="maxspeed" v="50"/>
    <tag k="maxspeed:source" v="default residential speed limit in Australia"/>
    <tag k="name" v="Sunshine Avenue"/>
    <tag k="source" v="nearmap"/>
  </way>
  <way id="59342736" version="3" timestamp="2012-01-20T08:11:36Z" uid="147510" user="woodpeck_fixbot" changeset="10443754">
    <nd ref="736030288"/>
    <nd ref="736030227"/>
    <tag k="highway" v="residential"/>
    <tag k="name" v="Sunshine Avenue"/>
    <tag k="source" v="nearmap"/>
  </way>
  <way id="59342737" version="1" timestamp="2010-05-16T06:51:54Z" uid="30201" user="rrankin" changeset="4713608">
    <nd ref="736030231"/>
    <nd ref="736030268"/>
    <tag k="highway" v="residential"/>
    <tag k="name" v="Royle Street"/>
    <tag k="source" v="nearmap"/>
  </way>
  <way id="59342737" version="2" timestamp="2010-07-08T03:33:10Z" uid="74617" user="JohnSmith" changeset="5163091">
    <nd ref="736030231"/>
    <nd ref="736030268"/>
    <tag k="highway" v="residential"/>
    <tag k="maxspeed" v="50"/>
    <tag k="maxspeed:source" v="default residential speed limit in Australia"/>
    <tag k="name" v="Royle Street"/>
    <tag k="source" v="nearmap"/>
  </way>
  <way id="59342737" version="3" timestamp="2012-01-20T08:11:37Z" uid="147510" user="woodpeck_fixbot" changeset="10443754">
    <nd ref="736030231"/>
    <nd ref="736030268"/>
    <tag k="highway" v="residential"/>
    <tag k="name" v="Royle Street"/>
    <tag k="source" v="nearmap"/>
  </way>
  <way id="59342738" version="1" timestamp="2010-05-16T06:51:54Z" uid="30201" user="rrankin" changeset="4713608">
    <nd ref="736030304"/>
    <nd ref="736030272"/>
    <nd ref="736030259"/>
    <nd ref="736030295"/>
    <nd ref="736030287"/>
    <tag k="highway" v="residential"/>
    <tag k="name" v="Riverview Drive"/>
    <tag k="source" v="nearmap"/>
  </way>
  <way id="59342738" version="2" timestamp="2010-07-08T03:40:02Z" uid="74617" user="JohnSmith" changeset="5163091">
    <nd ref="736030304"/>
    <nd ref="736030272"/>
    <nd ref="736030259"/>
    <nd ref="736030295"/>
    <nd ref="736030287"/>
    <tag k="highway" v="residential"/>
    <tag k="maxspeed" v="50"/>
    <tag k="maxspeed:source" v="default residential speed limit in Australia"/>
    <tag k="name" v="Riverview Drive"/>
    <tag k="source" v="nearmap"/>
  </way>
  <way id="59342738" version="3" timestamp="2012-01-20T08:11:39Z" uid="147510" user="woodpeck_fixbot" changeset="10443754">
    <nd ref="736030304"/>
    <nd ref="736030272"/>
    <nd ref="736030259"/>
    <nd ref="736030295"/>
    <nd ref="736030287"/>
    <tag k="highway" v="residential"/>
    <tag k="name" v="Riverview Drive"/>
    <tag k="source" v="nearmap"/>
  </way>
</osm>
