<?xml version='1.0' encoding='UTF-8'?>
<osm version="0.6" generator="libosmium/2.20.0">
  <way id="59445527" version="1" timestamp="2010-05-17T05:08:15Z" uid="4467" user="Rosscoe" changeset="4725678">
    <nd ref="737146251"/>
    <nd ref="242429235"/>
    <nd ref="242416075"/>
    <tag k="highway" v="residential"/>
    <tag k="name" v="Boondialla Road"/>
  </way>
  <way id="59445527" version="2" timestamp="2010-05-17T05:24:13Z" uid="4467" user="Rosscoe" changeset="4725722">
    <nd ref="737146251"/>
    <nd ref="242429235"/>
    <nd ref="242416075"/>
    <tag k="highway" v="residential"/>
    <tag k="name" v="Boondialla Road"/>
    <tag k="source" v="nearmap"/>
  </way>
  <way id="59445527" version="3" timestamp="2010-07-08T03:33:29Z" uid="74617" user="JohnSmith" changeset="5163091">
    <nd ref="737146251"/>
    <nd ref="242429235"/>
    <nd ref="242416075"/>
    <tag k="highway" v="residential"/>
    <tag k="maxspeed" v="50"/>
    <tag k="maxspeed:source" v="default residential speed limit in Australia"/>
    <tag k="name" v="Boondialla Road"/>
    <tag k="source" v="nearmap"/>
  </way>
  <way id="59445528" version="1" timestamp="2010-05-17T05:08:15Z" uid="4467" user="Rosscoe" changeset="4725678">
    <nd ref="242416099"/>
    <nd ref="242428677"/>
    <nd ref="242416100"/>
    <tag k="highway" v="residential"/>
    <tag k="name" v="Ocean Parade"/>
  </way>
  <way id="59445528" version="2" timestamp="2010-07-08T03:30:55Z" uid="74617" user="JohnSmith" changeset="5163091">
    <nd ref="242416099"/>
    <nd ref="242428677"/>
    <nd ref="242416100"/>
    <tag k="highway" v="residential"/>
    <tag k="maxspeed" v="50"/>
    <tag k="maxspeed:source" v="default residential speed limit in Australia"/>
    <tag k="name" v="Ocean Parade"/>
  </way>
  <way id="59445530" version="1" timestamp="2010-05-17T05:08:15Z" uid="4467" user="Rosscoe" changeset="4725678">
    <nd ref="737146258"/>
    <nd ref="737146260"/>
    <nd ref="242417332"/>
    <nd ref="242417334"/>
    <nd ref="242416089"/>
    <tag k="highway" v="residential"/>
    <tag k="name" v="Bay Road"/>
  </way>
  <way id="59445530" version="2" timestamp="2010-07-08T03:31:23Z" uid="74617" user="JohnSmith" changeset="5163091">
    <nd ref="737146258"/>
    <nd ref="737146260"/>
    <nd ref="242417332"/>
    <nd ref="242417334"/>
    <nd ref="242416089"/>
    <tag k="highway" v="residential"/>
    <tag k="maxspeed" v="50"/>
    <tag k="maxspeed:source" v="default residential speed limit in Australia"/>
    <tag k="name" v="Bay Road"/>
  </way>
  <way id="59445531" version="1" timestamp="2010-05-17T05:08:15Z" uid="4467" user="Rosscoe" changeset="4725678">
    <nd ref="242429234"/>
    <nd ref="242429235"/>
    <tag k="highway" v="residential"/>
    <tag k="name" v="The Crescent"/>
  </way>
  <way id="59445531" version="2" timestamp="2010-07-08T03:32:37Z" uid="74617" user="JohnSmith" changeset="5163091">
    <nd ref="242429234"/>
    <nd ref="242429235"/>
    <tag k="highway" v="residential"/>
    <tag k="maxspeed" v="50"/>
    <tag k="maxspeed:source" v="default residential speed limit in Australia"/>
    <tag k="name" v="The Crescent"/>
  </way>
  <way id="59445533" version="1" timestamp="2010-05-17T05:08:15Z" uid="4467" user="Rosscoe" changeset="4725678">
    <nd ref="737146255"/>
    <nd ref="737146256"/>
    <nd ref="737146258"/>
    <nd ref="737146248"/>
    <nd ref="737146251"/>
    <nd ref="737146257"/>
    <nd ref="737146247"/>
    <nd ref="737146250"/>
    <nd ref="737146255"/>
    <tag k="highway" v="residential"/>
    <tag k="junction" v="roundabout"/>
    <tag k="source" v="nearmap"/>
  </way>
  <way id="59445533" version="2" timestamp="2010-07-08T03:31:17Z" uid="74617" user="JohnSmith" changeset="5163091">
    <nd ref="737146255"/>
    <nd ref="737146256"/>
    <nd ref="737146258"/>
    <nd ref="737146248"/>
    <nd ref="737146251"/>
    <nd ref="737146257"/>
    <nd ref="737146247"/>
    <nd ref="737146250"/>
    <nd ref="737146255"/>
    <tag k="highway" v="residential"/>
    <tag k="junction" v="roundabout"/>
    <tag k="maxspeed" v="50"/>
    <tag k="maxspeed:source" v="default residential speed limit in Australia"/>
    <tag k="source" v="nearmap"/>
  </way>
  <way id="59445534" version="1" timestamp="2010-05-17T05:08:15Z" uid="4467" user="Rosscoe" changeset="4725678">
    <nd ref="242416151"/>
    <nd ref="266072046"/>
    <tag k="highway" v="residential"/>
    <tag k="name" v="Toowoon Bay Road"/>
  </way>
  <way id="59445534" version="2" timestamp="2010-07-08T03:33:23Z" uid="74617" user="JohnSmith" changeset="5163091">
    <nd ref="242416151"/>
    <nd ref="266072046"/>
    <tag k="highway" v="residential"/>
    <tag k="maxspeed" v="50"/>
    <tag k="maxspeed:source" v="default residential speed limit in Australia"/>
    <tag k="name" v="Toowoon Bay Road"/>
  </way>
  <way id="59445536" version="1" timestamp="2010-05-17T05:08:15Z" uid="4467" user="Rosscoe" changeset="4725678">
    <nd ref="242429230"/>
    <nd ref="242429232"/>
    <nd ref="737146246"/>
    <nd ref="242429233"/>
    <nd ref="242429234"/>
    <tag k="highway" v="residential"/>
    <tag k="name" v="The Crescent"/>
  </way>
  <way id="59445536" version="2" timestamp="2010-05-17T05:24:16Z" uid="4467" user="Rosscoe" changeset="4725722">
    <nd ref="242429230"/>
    <nd ref="242429232"/>
    <nd ref="737146246"/>
    <nd ref="242429233"/>
    <nd ref="242429234"/>
    <tag k="highway" v="residential"/>
    <tag k="name" v="The Crescent"/>
    <tag k="source" v="nearmap"/>
  </way>
  <way id="59445536" version="3" timestamp="2010-07-08T03:33:21Z" uid="74617" user="JohnSmith" changeset="5163091">
    <nd ref="242429230"/>
    <nd ref="242429232"/>
    <nd ref="737146246"/>
    <nd ref="242429233"/>
    <nd ref="242429234"/>
    <tag k="highway" v="residential"/>
    <tag k="maxspeed" v="50"/>
    <tag k="maxspeed:source" v="default residential speed limit in Australia"/>
    <tag k="name" v="The Crescent"/>
    <tag k="source" v="nearmap"/>
  </way>
</osm>
