<?xml version='1.0' encoding='UTF-8'?>
<osm version="0.6" generator="libosmium/2.20.0">
  <way id="59483693" version="1" timestamp="2010-05-17T18:39:54Z" uid="12295" user="mapper_07" changeset="4731482">
    <nd ref="60296238"/>
    <nd ref="737873586"/>
    <nd ref="737873593"/>
    <nd ref="737873574"/>
    <nd ref="60296239"/>
    <tag k="highway" v="tertiary"/>
    <tag k="name" v="Höchstädtplatz"/>
  </way>
  <way id="59483693" version="2" timestamp="2010-05-18T11:08:04Z" uid="58091" user="Andreas M" changeset="4737583">
    <nd ref="60296238"/>
    <nd ref="737873586"/>
    <nd ref="737873593"/>
    <nd ref="737873574"/>
    <nd ref="60296239"/>
    <tag k="highway" v="tertiary"/>
    <tag k="maxspeed" v="50"/>
    <tag k="name" v="Marchfeldstraße"/>
    <tag k="oneway" v="yes"/>
    <tag k="postal_code" v="1200"/>
  </way>
  <way id="59483693" version="3" timestamp="2011-03-01T12:46:33Z" uid="99800" user="wolfbert" changeset="7428956">
    <nd ref="60296238"/>
    <nd ref="737873586"/>
    <nd ref="737873593"/>
    <nd ref="737873574"/>
    <nd ref="60296239"/>
    <tag k="highway" v="tertiary"/>
    <tag k="maxspeed" v="50"/>
    <tag k="name" v="Marchfeldstraße"/>
    <tag k="oneway" v="yes"/>
  </way>
  <way id="59483693" version="4" timestamp="2012-03-11T16:17:10Z" uid="99800" user="wolfbert" changeset="10944808">
    <nd ref="60296238"/>
    <nd ref="737873574"/>
    <nd ref="60296239"/>
    <tag k="highway" v="tertiary"/>
    <tag k="maxspeed" v="50"/>
    <tag k="name" v="Marchfeldstraße"/>
    <tag k="oneway" v="yes"/>
  </way>
  <way id="59483695" version="1" timestamp="2010-05-17T18:39:54Z" uid="12295" user="mapper_07" changeset="4731482">
    <nd ref="737873588"/>
    <nd ref="737873560"/>
    <nd ref="737873585"/>
    <nd ref="737873579"/>
    <nd ref="737873564"/>
    <nd ref="75206575"/>
    <tag k="highway" v="secondary"/>
    <tag k="oneway" v="yes"/>
  </way>
  <way id="59483695" version="2" timestamp="2010-05-18T11:08:03Z" uid="58091" user="Andreas M" changeset="4737583">
    <nd ref="737873588"/>
    <nd ref="737873560"/>
    <tag k="highway" v="secondary"/>
    <tag k="maxspeed" v="50"/>
    <tag k="name" v="Höchstädtplatz"/>
    <tag k="oneway" v="yes"/>
  </way>
  <way id="59483704" version="1" timestamp="2010-05-17T18:39:54Z" uid="12295" user="mapper_07" changeset="4731482">
    <nd ref="75206575"/>
    <nd ref="737873561"/>
    <nd ref="60296237"/>
    <nd ref="737873563"/>
    <nd ref="737873571"/>
    <nd ref="737873573"/>
    <nd ref="314051520"/>
    <nd ref="60296239"/>
    <tag k="electrified" v="contact_line"/>
    <tag k="frequency" v="0"/>
    <tag k="gauge" v="1435"/>
    <tag k="railway" v="tram"/>
  </way>
  <way id="59483704" version="2" timestamp="2010-05-18T11:08:04Z" uid="58091" user="Andreas M" changeset="4737583">
    <nd ref="75206575"/>
    <nd ref="737873561"/>
    <nd ref="60296237"/>
    <nd ref="737873563"/>
    <nd ref="737873571"/>
    <nd ref="737873573"/>
    <tag k="electrified" v="contact_line"/>
    <tag k="frequency" v="0"/>
    <tag k="gauge" v="1435"/>
    <tag k="railway" v="tram"/>
  </way>
  <way id="59483704" version="3" timestamp="2011-02-21T10:39:53Z" uid="321862" user="DanX" changeset="7352246">
    <nd ref="75206575"/>
    <nd ref="737873561"/>
    <nd ref="60296237"/>
    <nd ref="737873563"/>
    <nd ref="737873571"/>
    <nd ref="737873573"/>
    <tag k="electrified" v="contact_line"/>
    <tag k="frequency" v="0"/>
    <tag k="gauge" v="1435"/>
    <tag k="name" v="31, 33"/>
    <tag k="railway" v="tram"/>
  </way>
  <way id="59483704" version="4" timestamp="2011-11-08T00:47:46Z" uid="129531" user="almich" changeset="9770160">
    <nd ref="75206575"/>
    <nd ref="737873561"/>
    <nd ref="60296237"/>
    <nd ref="737873563"/>
    <nd ref="737873571"/>
    <nd ref="737873573"/>
    <tag k="electrified" v="contact_line"/>
    <tag k="frequency" v="0"/>
    <tag k="gauge" v="1435"/>
    <tag k="name" v="31, 33"/>
    <tag k="railway" v="tram"/>
    <tag k="voltage" v="600"/>
  </way>
  <way id="59483707" version="1" timestamp="2010-05-17T18:39:55Z" uid="12295" user="mapper_07" changeset="4731482">
    <nd ref="60296239"/>
    <nd ref="737873562"/>
    <nd ref="737873588"/>
    <tag k="addr:city" v="Wien"/>
    <tag k="addr:country" v="AT"/>
    <tag k="addr:postcode" v="1200"/>
    <tag k="highway" v="tertiary"/>
    <tag k="maxspeed" v="50"/>
    <tag k="name" v="Marchfeldstraße"/>
  </way>
  <way id="59483707" version="2" timestamp="2010-05-18T11:07:59Z" uid="58091" user="Andreas M" changeset="4737583">
    <nd ref="60296239"/>
    <nd ref="737873562"/>
    <nd ref="737873588"/>
    <tag k="highway" v="tertiary"/>
    <tag k="maxspeed" v="50"/>
    <tag k="name" v="Marchfeldstraße"/>
    <tag k="oneway" v="yes"/>
    <tag k="postal_code" v="1200"/>
  </way>
  <way id="59483707" version="3" timestamp="2011-03-01T12:46:35Z" uid="99800" user="wolfbert" changeset="7428956">
    <nd ref="60296239"/>
    <nd ref="737873562"/>
    <nd ref="737873588"/>
    <tag k="highway" v="tertiary"/>
    <tag k="maxspeed" v="50"/>
    <tag k="name" v="Marchfeldstraße"/>
    <tag k="oneway" v="yes"/>
  </way>
  <way id="59483707" version="4" timestamp="2011-05-17T09:21:51Z" uid="93384" user="Paul Rosenkranz" changeset="8169736">
    <nd ref="60296239"/>
    <nd ref="737873562"/>
    <nd ref="737873588"/>
    <tag k="access" v="no"/>
    <tag k="highway" v="tertiary"/>
    <tag k="landuse" v="construction"/>
    <tag k="maxspeed" v="50"/>
    <tag k="name" v="Marchfeldstraße"/>
    <tag k="oneway" v="yes"/>
  </way>
  <way id="59483707" version="5" timestamp="2011-11-20T16:35:03Z" uid="12295" user="mapper_07" changeset="9886404">
    <nd ref="60296239"/>
    <nd ref="737873562"/>
    <nd ref="737873588"/>
    <tag k="highway" v="tertiary"/>
    <tag k="maxspeed" v="50"/>
    <tag k="name" v="Marchfeldstraße"/>
    <tag k="oneway" v="yes"/>
  </way>
</osm>
