<?xml version='1.0' encoding='UTF-8'?>
<osm version="0.6" generator="libosmium/2.20.0">
  <way id="59526103" version="1" timestamp="2010-05-18T04:29:51Z" uid="4467" user="Rosscoe" changeset="4735179">
    <nd ref="738193691"/>
    <nd ref="738193688"/>
    <tag k="highway" v="secondary"/>
    <tag k="oneway" v="yes"/>
    <tag k="source" v="nearmap"/>
  </way>
  <way id="59526158" version="1" timestamp="2010-05-18T04:34:48Z" uid="4467" user="Rosscoe" changeset="4735194">
    <nd ref="595523897"/>
    <nd ref="595523900"/>
    <tag k="highway" v="residential"/>
    <tag k="source" v="nearmap"/>
  </way>
  <way id="59526158" version="2" timestamp="2010-07-08T19:16:01Z" uid="74617" user="JohnSmith" changeset="5168688">
    <nd ref="595523897"/>
    <nd ref="595523900"/>
    <tag k="highway" v="residential"/>
    <tag k="maxspeed" v="50"/>
    <tag k="maxspeed:source" v="default residential speed limit in Australia"/>
    <tag k="source" v="nearmap"/>
  </way>
  <way id="59526159" version="4" timestamp="2010-08-12T11:50:37Z" uid="4467" user="Rosscoe" changeset="5472481">
    <nd ref="738194188"/>
    <nd ref="738194189"/>
    <nd ref="740390563"/>
    <nd ref="738194190"/>
    <nd ref="738194191"/>
    <nd ref="738190251"/>
    <nd ref="740299426"/>
    <nd ref="738190252"/>
    <nd ref="738194188"/>
    <tag k="landuse" v="residential"/>
  </way>
  <way id="59526211" version="3" timestamp="2010-08-12T11:50:31Z" uid="4467" user="Rosscoe" changeset="5472481">
    <nd ref="738194479"/>
    <nd ref="738194480"/>
    <nd ref="738194482"/>
    <nd ref="738194486"/>
    <nd ref="738194487"/>
    <nd ref="738194488"/>
    <nd ref="738194489"/>
    <nd ref="738194490"/>
    <nd ref="738194491"/>
    <nd ref="738194479"/>
    <tag k="landuse" v="residential"/>
  </way>
  <way id="59526217" version="1" timestamp="2010-05-18T04:39:54Z" uid="4467" user="Rosscoe" changeset="4735208">
    <nd ref="125269551"/>
    <nd ref="125269553"/>
    <nd ref="125269557"/>
    <nd ref="347256019"/>
    <nd ref="444669278"/>
    <nd ref="290313019"/>
    <nd ref="347253452"/>
    <nd ref="125269559"/>
    <nd ref="347253382"/>
    <nd ref="290310724"/>
    <nd ref="290311875"/>
    <nd ref="290310726"/>
    <nd ref="290310745"/>
    <tag k="highway" v="secondary"/>
    <tag k="name" v="Heaths Road"/>
    <tag k="oneway" v="yes"/>
    <tag k="ref" v="C701"/>
  </way>
  <way id="59526217" version="2" timestamp="2010-05-19T02:16:04Z" uid="4467" user="Rosscoe" changeset="4744428">
    <nd ref="125269551"/>
    <nd ref="125269553"/>
    <nd ref="739134310"/>
    <nd ref="739134330"/>
    <nd ref="347256019"/>
    <nd ref="444669278"/>
    <nd ref="290313019"/>
    <nd ref="347253452"/>
    <nd ref="347253382"/>
    <nd ref="290310724"/>
    <nd ref="290311875"/>
    <nd ref="290310726"/>
    <nd ref="290310745"/>
    <tag k="highway" v="secondary"/>
    <tag k="name" v="Heaths Road"/>
    <tag k="oneway" v="yes"/>
    <tag k="ref" v="C701"/>
    <tag k="source" v="nearmap"/>
  </way>
  <way id="59526217" version="3" timestamp="2011-07-01T10:52:56Z" uid="480039" user="dredga01" changeset="8598230">
    <nd ref="125269551"/>
    <nd ref="1345663953"/>
    <nd ref="1345663958"/>
    <nd ref="125269553"/>
    <nd ref="739134310"/>
    <nd ref="739134330"/>
    <nd ref="347256019"/>
    <nd ref="444669278"/>
    <nd ref="290313019"/>
    <nd ref="347253452"/>
    <nd ref="347253382"/>
    <nd ref="290310724"/>
    <nd ref="290311875"/>
    <nd ref="290310726"/>
    <nd ref="290310745"/>
    <tag k="highway" v="secondary"/>
    <tag k="name" v="Heaths Road"/>
    <tag k="oneway" v="yes"/>
    <tag k="ref" v="C701"/>
    <tag k="source" v="nearmap"/>
  </way>
  <way id="59526217" version="4" timestamp="2011-07-03T12:10:52Z" uid="46482" user="Leon K" changeset="8618011">
    <nd ref="125269551"/>
    <nd ref="1347795154"/>
    <nd ref="1345663953"/>
    <nd ref="1345663958"/>
    <nd ref="125269553"/>
    <nd ref="739134310"/>
    <nd ref="739134330"/>
    <nd ref="347256019"/>
    <nd ref="444669278"/>
    <nd ref="290313019"/>
    <nd ref="347253452"/>
    <nd ref="347253382"/>
    <nd ref="290310724"/>
    <nd ref="290311875"/>
    <nd ref="290310726"/>
    <nd ref="290310745"/>
    <tag k="highway" v="secondary"/>
    <tag k="name" v="Heaths Road"/>
    <tag k="oneway" v="yes"/>
    <tag k="ref" v="C701"/>
    <tag k="source" v="nearmap"/>
  </way>
  <way id="59526218" version="1" timestamp="2010-05-18T04:39:54Z" uid="4467" user="Rosscoe" changeset="4735208">
    <nd ref="125269538"/>
    <nd ref="347429216"/>
    <nd ref="347224126"/>
    <nd ref="347223541"/>
    <nd ref="347429283"/>
    <nd ref="347429233"/>
    <nd ref="347223332"/>
    <nd ref="738194526"/>
    <nd ref="347226036"/>
    <nd ref="347226033"/>
    <nd ref="347223714"/>
    <nd ref="347223603"/>
    <nd ref="347223627"/>
    <nd ref="738194186"/>
    <nd ref="125269551"/>
    <tag k="highway" v="secondary"/>
    <tag k="name" v="Heaths Road"/>
    <tag k="oneway" v="yes"/>
    <tag k="ref" v="C701"/>
    <tag k="source" v="nearmap"/>
  </way>
  <way id="59526218" version="2" timestamp="2010-10-20T09:09:49Z" uid="320632" user="Zulu99" changeset="6109443">
    <nd ref="125269538"/>
    <nd ref="347429216"/>
    <nd ref="957899485"/>
    <tag k="cycleway" v="lane"/>
    <tag k="name" v="Heaths Road"/>
    <tag k="oneway" v="yes"/>
    <tag k="ref" v="C701"/>
    <tag k="source" v="nearmap"/>
  </way>
  <way id="59526218" version="3" timestamp="2011-12-06T06:15:09Z" uid="11111" user="melb_guy" changeset="10047404"/>
  <way id="59526219" version="1" timestamp="2010-05-18T04:39:54Z" uid="4467" user="Rosscoe" changeset="4735208">
    <nd ref="347429209"/>
    <nd ref="347429213"/>
    <nd ref="34218857"/>
    <nd ref="34218858"/>
    <nd ref="34218859"/>
    <nd ref="125267364"/>
    <nd ref="125267263"/>
    <tag k="highway" v="secondary"/>
    <tag k="name" v="Heaths Road"/>
    <tag k="oneway" v="yes"/>
    <tag k="ref" v="C701"/>
  </way>
  <way id="59526219" version="2" timestamp="2011-12-06T06:15:05Z" uid="11111" user="melb_guy" changeset="10047404">
    <nd ref="347429209"/>
    <nd ref="347429213"/>
    <nd ref="1533664437"/>
    <nd ref="1533664462"/>
    <nd ref="1533664450"/>
    <nd ref="1533664505"/>
    <nd ref="1533664541"/>
    <nd ref="34218857"/>
    <nd ref="1533664490"/>
    <nd ref="34218858"/>
    <nd ref="1533664429"/>
    <nd ref="1533664441"/>
    <nd ref="34218859"/>
    <nd ref="1533664534"/>
    <nd ref="125267364"/>
    <nd ref="125267263"/>
    <tag k="highway" v="secondary"/>
    <tag k="name" v="Heaths Road"/>
    <tag k="oneway" v="yes"/>
    <tag k="ref" v="C701"/>
  </way>
  <way id="59526219" version="3" timestamp="2011-12-07T01:30:29Z" uid="11111" user="melb_guy" changeset="10054745">
    <nd ref="347429209"/>
    <nd ref="347429213"/>
    <nd ref="1534823126"/>
    <nd ref="1533664437"/>
    <nd ref="1533664462"/>
    <nd ref="1533664450"/>
    <nd ref="1533664505"/>
    <nd ref="1533664541"/>
    <nd ref="34218857"/>
    <nd ref="1533664490"/>
    <nd ref="34218858"/>
    <nd ref="1533664429"/>
    <nd ref="1533664441"/>
    <nd ref="34218859"/>
    <nd ref="1533664534"/>
    <nd ref="125267364"/>
    <nd ref="125267263"/>
    <tag k="highway" v="secondary"/>
    <tag k="lanes" v="2"/>
    <tag k="maxspeed" v="70"/>
    <tag k="name" v="Heaths Road"/>
    <tag k="oneway" v="yes"/>
    <tag k="surface" v="asphalt"/>
  </way>
  <way id="59526219" version="4" timestamp="2011-12-07T01:57:28Z" uid="11111" user="melb_guy" changeset="10054745">
    <nd ref="957899483"/>
    <nd ref="347223630"/>
    <nd ref="347223711"/>
    <nd ref="347226034"/>
    <nd ref="347226035"/>
    <nd ref="1534827602"/>
    <nd ref="738194525"/>
    <nd ref="347223650"/>
    <nd ref="595530841"/>
    <nd ref="347223329"/>
    <nd ref="1534827597"/>
    <tag k="cycleway" v="lane"/>
    <tag k="highway" v="secondary"/>
    <tag k="lanes" v="2"/>
    <tag k="maxspeed" v="70"/>
    <tag k="name" v="Heaths Road"/>
    <tag k="oneway" v="yes"/>
    <tag k="surface" v="asphalt"/>
  </way>
  <way id="59526220" version="1" timestamp="2010-05-18T04:39:54Z" uid="4467" user="Rosscoe" changeset="4735208">
    <nd ref="34218853"/>
    <nd ref="281941447"/>
    <nd ref="290313277"/>
    <nd ref="595533496"/>
    <nd ref="347223630"/>
    <nd ref="347223711"/>
    <nd ref="347226034"/>
    <nd ref="347226035"/>
    <nd ref="738194525"/>
    <nd ref="347223650"/>
    <nd ref="595530841"/>
    <nd ref="347223329"/>
    <nd ref="34218855"/>
    <nd ref="347429282"/>
    <nd ref="738194524"/>
    <nd ref="347224156"/>
    <nd ref="347224123"/>
    <nd ref="34218856"/>
    <nd ref="347429209"/>
    <tag k="highway" v="secondary"/>
    <tag k="name" v="Heaths Road"/>
    <tag k="oneway" v="yes"/>
    <tag k="ref" v="C701"/>
    <tag k="source" v="nearmap"/>
  </way>
  <way id="59526220" version="2" timestamp="2010-10-20T09:09:50Z" uid="320632" user="Zulu99" changeset="6109443">
    <nd ref="34218853"/>
    <nd ref="281941447"/>
    <nd ref="290313277"/>
    <nd ref="595533496"/>
    <nd ref="957899483"/>
    <tag k="highway" v="secondary"/>
    <tag k="name" v="Heaths Road"/>
    <tag k="oneway" v="yes"/>
    <tag k="ref" v="C701"/>
    <tag k="source" v="nearmap"/>
  </way>
  <way id="59526237" version="3" timestamp="2010-07-27T08:50:30Z" uid="4467" user="Rosscoe" changeset="5327375">
    <nd ref="738194639"/>
    <nd ref="738194640"/>
    <nd ref="738194641"/>
    <nd ref="738194642"/>
    <nd ref="738194639"/>
    <tag k="building" v="yes"/>
    <tag k="waterway" v="boatyard"/>
  </way>
  <way id="59526237" version="4" timestamp="2010-12-06T01:16:05Z" uid="367158" user="GeoffJ" changeset="6558804">
    <nd ref="738194639"/>
    <nd ref="738194640"/>
    <nd ref="738194641"/>
    <nd ref="738194642"/>
    <nd ref="738194639"/>
    <tag k="building" v="yes"/>
    <tag k="name" v="Royal Brighton Yacht Club"/>
  </way>
  <way id="59526242" version="1" timestamp="2010-05-18T04:44:01Z" uid="4467" user="Rosscoe" changeset="4735219">
    <nd ref="347429254"/>
    <nd ref="595534662"/>
    <nd ref="347256602"/>
    <nd ref="347429255"/>
    <nd ref="347256603"/>
    <nd ref="347256617"/>
    <nd ref="347256695"/>
    <nd ref="347429271"/>
    <nd ref="347429256"/>
    <nd ref="728587084"/>
    <tag k="highway" v="tertiary"/>
    <tag k="maxspeed" v="50"/>
    <tag k="name" v="Mossfiel Drive"/>
    <tag k="oneway" v="yes"/>
    <tag k="source" v="nearmap"/>
  </way>
  <way id="59526242" version="2" timestamp="2011-03-02T06:37:47Z" uid="320632" user="Zulu99" changeset="7435507">
    <nd ref="347429254"/>
    <nd ref="1182334029"/>
    <tag k="highway" v="tertiary"/>
    <tag k="maxspeed" v="50"/>
    <tag k="name" v="Mossfiel Drive"/>
    <tag k="oneway" v="yes"/>
    <tag k="source" v="nearmap"/>
  </way>
  <way id="59526246" version="2" timestamp="2010-07-27T08:50:18Z" uid="4467" user="Rosscoe" changeset="5327375">
    <nd ref="738194708"/>
    <nd ref="738194709"/>
    <nd ref="738194710"/>
    <nd ref="738194711"/>
    <nd ref="738194713"/>
    <nd ref="738194714"/>
    <nd ref="310962830"/>
    <nd ref="738194715"/>
    <nd ref="738194716"/>
    <nd ref="738194717"/>
    <nd ref="738194718"/>
    <nd ref="738194719"/>
    <nd ref="738194720"/>
    <nd ref="738194708"/>
    <tag k="leisure" v="park"/>
  </way>
</osm>
