<?xml version='1.0' encoding='UTF-8'?>
<osm version="0.6" generator="libosmium/2.20.0">
  <way id="5954241" version="15" timestamp="2010-03-27T07:46:57Z" uid="20587" user="balrog-kun" changeset="4244079">
    <nd ref="660530259"/>
    <nd ref="660530351"/>
    <nd ref="660533347"/>
    <nd ref="660543604"/>
    <nd ref="660543605"/>
    <nd ref="660543606"/>
    <nd ref="660543607"/>
    <nd ref="660543608"/>
    <nd ref="660543609"/>
    <nd ref="660543610"/>
    <nd ref="660543611"/>
    <nd ref="660543612"/>
    <nd ref="660543613"/>
    <nd ref="660543602"/>
    <nd ref="660543614"/>
    <nd ref="660543615"/>
    <nd ref="660543616"/>
    <nd ref="660543617"/>
    <nd ref="660543618"/>
    <nd ref="660543619"/>
    <nd ref="660543620"/>
    <nd ref="660543621"/>
    <nd ref="660543622"/>
    <nd ref="660543623"/>
    <nd ref="660543624"/>
    <nd ref="660543625"/>
    <nd ref="660543626"/>
    <nd ref="660543603"/>
    <nd ref="276783686"/>
    <nd ref="276783660"/>
    <nd ref="276783494"/>
    <nd ref="276783349"/>
    <nd ref="276783348"/>
    <nd ref="276783346"/>
    <nd ref="276783345"/>
    <tag k="highway" v="primary"/>
    <tag k="name" v="West Mission Bay Drive"/>
    <tag k="oneway" v="yes"/>
    <tag k="tiger:cfcc" v="A63"/>
    <tag k="tiger:county" v="San Diego, CA"/>
    <tag k="tiger:reviewed" v="no"/>
    <tag k="tiger:source" v="tiger_import_dch_v0.6_20070809"/>
    <tag k="tiger:tlid" v="195339516"/>
  </way>
  <way id="5954241" version="16" timestamp="2011-02-08T18:18:18Z" uid="282329" user="compdude" changeset="7229105">
    <nd ref="660530259"/>
    <nd ref="660530351"/>
    <nd ref="660533347"/>
    <nd ref="660543604"/>
    <nd ref="660543605"/>
    <nd ref="660543606"/>
    <nd ref="660543607"/>
    <nd ref="660543608"/>
    <nd ref="660543609"/>
    <nd ref="660543610"/>
    <nd ref="660543611"/>
    <nd ref="660543612"/>
    <nd ref="660543613"/>
    <nd ref="660543602"/>
    <nd ref="660543614"/>
    <nd ref="660543615"/>
    <nd ref="660543616"/>
    <nd ref="660543617"/>
    <tag k="highway" v="primary"/>
    <tag k="name" v="West Mission Bay Drive"/>
    <tag k="oneway" v="yes"/>
    <tag k="tiger:cfcc" v="A63"/>
    <tag k="tiger:county" v="San Diego, CA"/>
    <tag k="tiger:reviewed" v="no"/>
    <tag k="tiger:source" v="tiger_import_dch_v0.6_20070809"/>
    <tag k="tiger:tlid" v="195339516"/>
  </way>
  <way id="5954255" version="6" timestamp="2010-04-02T15:18:14Z" uid="20587" user="balrog-kun" changeset="4304478">
    <nd ref="34704680"/>
    <nd ref="34704682"/>
    <nd ref="34704684"/>
    <nd ref="34704687"/>
    <nd ref="34704689"/>
    <nd ref="243681417"/>
    <nd ref="110647831"/>
    <nd ref="110647827"/>
    <nd ref="110479294"/>
    <nd ref="110647824"/>
    <tag k="created_by" v="JOSM"/>
    <tag k="highway" v="residential"/>
    <tag k="name" v="South Asotin Avenue"/>
    <tag k="tiger:cfcc" v="A41"/>
    <tag k="tiger:county" v="Pierce, WA"/>
    <tag k="tiger:name_base" v="Asotin"/>
    <tag k="tiger:name_direction_prefix" v="S"/>
    <tag k="tiger:separated" v="no"/>
    <tag k="tiger:source" v="tiger_import_dch_v0.6_20070830"/>
    <tag k="tiger:tlid" v="184627899:184705459:184627900:184627920"/>
    <tag k="tiger:zip_left" v="98408"/>
    <tag k="tiger:zip_right" v="98408"/>
  </way>
  <way id="5954385" version="2" timestamp="2010-01-05T09:10:47Z" uid="7617" user="Franc" changeset="3543237">
    <nd ref="49035920"/>
    <nd ref="49038029"/>
    <nd ref="49039491"/>
    <nd ref="605236053"/>
    <nd ref="49036166"/>
    <tag k="highway" v="residential"/>
    <tag k="name" v="Mandoon Road"/>
  </way>
  <way id="5954385" version="3" timestamp="2010-01-30T09:37:54Z" uid="7617" user="Franc" changeset="3749138">
    <nd ref="49035920"/>
    <nd ref="622961324"/>
    <tag k="highway" v="residential"/>
    <tag k="name" v="Mandoon Road"/>
  </way>
  <way id="5954385" version="4" timestamp="2010-07-08T01:34:22Z" uid="74617" user="JohnSmith" changeset="5162525">
    <nd ref="49035920"/>
    <nd ref="622961324"/>
    <tag k="highway" v="residential"/>
    <tag k="maxspeed" v="50"/>
    <tag k="maxspeed:source" v="default residential speed limit in Australia"/>
    <tag k="name" v="Mandoon Road"/>
  </way>
  <way id="5954385" version="5" timestamp="2012-01-15T06:05:11Z" uid="147510" user="woodpeck_fixbot" changeset="10394821">
    <nd ref="49035920"/>
    <nd ref="622961324"/>
    <tag k="highway" v="residential"/>
    <tag k="name" v="Mandoon Road"/>
  </way>
  <way id="5954499" version="4" timestamp="2010-03-27T07:46:58Z" uid="20587" user="balrog-kun" changeset="4244079">
    <nd ref="49037074"/>
    <nd ref="49037075"/>
    <tag k="created_by" v="Potlatch 0.10b"/>
    <tag k="highway" v="secondary"/>
    <tag k="name" v="La Jolla Boulevard"/>
    <tag k="tiger:cfcc" v="A31"/>
    <tag k="tiger:county" v="San Diego, CA"/>
    <tag k="tiger:reviewed" v="no"/>
    <tag k="tiger:separated" v="no"/>
    <tag k="tiger:source" v="tiger_import_dch_v0.6_20070809"/>
    <tag k="tiger:tlid" v="195700700"/>
  </way>
  <way id="5954522" version="2" timestamp="2010-07-08T01:34:03Z" uid="74617" user="JohnSmith" changeset="5162525">
    <nd ref="49037031"/>
    <nd ref="49037274"/>
    <nd ref="49037277"/>
    <nd ref="49037279"/>
    <nd ref="49037280"/>
    <nd ref="49037283"/>
    <tag k="highway" v="residential"/>
    <tag k="maxspeed" v="50"/>
    <tag k="maxspeed:source" v="default residential speed limit in Australia"/>
    <tag k="name" v="Amax Avenue"/>
  </way>
  <way id="5954522" version="3" timestamp="2012-01-15T06:05:12Z" uid="147510" user="woodpeck_fixbot" changeset="10394821">
    <nd ref="49037031"/>
    <nd ref="49037274"/>
    <nd ref="49037277"/>
    <nd ref="49037279"/>
    <nd ref="49037280"/>
    <nd ref="49037283"/>
    <tag k="highway" v="residential"/>
    <tag k="name" v="Amax Avenue"/>
  </way>
  <way id="5954654" version="2" timestamp="2010-07-08T01:35:20Z" uid="74617" user="JohnSmith" changeset="5162525">
    <nd ref="49038660"/>
    <nd ref="49038737"/>
    <tag k="highway" v="residential"/>
    <tag k="maxspeed" v="50"/>
    <tag k="maxspeed:source" v="default residential speed limit in Australia"/>
    <tag k="name" v="Heather Street"/>
  </way>
  <way id="5954654" version="3" timestamp="2012-01-15T06:05:15Z" uid="147510" user="woodpeck_fixbot" changeset="10394821">
    <nd ref="49038660"/>
    <nd ref="49038737"/>
    <tag k="highway" v="residential"/>
    <tag k="name" v="Heather Street"/>
  </way>
  <way id="5954675" version="2" timestamp="2010-07-08T01:34:22Z" uid="74617" user="JohnSmith" changeset="5162525">
    <nd ref="49038767"/>
    <nd ref="49038881"/>
    <tag k="highway" v="residential"/>
    <tag k="maxspeed" v="50"/>
    <tag k="maxspeed:source" v="default residential speed limit in Australia"/>
    <tag k="name" v="Hazel Street"/>
  </way>
  <way id="5954675" version="3" timestamp="2012-01-15T06:05:15Z" uid="147510" user="woodpeck_fixbot" changeset="10394821">
    <nd ref="49038767"/>
    <nd ref="49038881"/>
    <tag k="highway" v="residential"/>
    <tag k="name" v="Hazel Street"/>
  </way>
  <way id="5954699" version="3" timestamp="2010-03-27T07:46:58Z" uid="20587" user="balrog-kun" changeset="4244079">
    <nd ref="49039059"/>
    <nd ref="49039060"/>
    <tag k="created_by" v="Potlatch 0.10f"/>
    <tag k="highway" v="secondary"/>
    <tag k="name" v="University Avenue"/>
    <tag k="tiger:cfcc" v="A41"/>
    <tag k="tiger:county" v="San Diego, CA"/>
    <tag k="tiger:name_base" v="University"/>
    <tag k="tiger:name_type" v="Ave"/>
    <tag k="tiger:reviewed" v="no"/>
    <tag k="tiger:separated" v="no"/>
    <tag k="tiger:source" v="tiger_import_dch_v0.6_20070809"/>
    <tag k="tiger:tlid" v="195409698:195418026"/>
    <tag k="tiger:zip_left" v="91941"/>
  </way>
  <way id="5954771" version="2" timestamp="2010-01-30T09:37:54Z" uid="7617" user="Franc" changeset="3749138">
    <nd ref="49039490"/>
    <nd ref="622961311"/>
    <nd ref="49038881"/>
    <nd ref="49038737"/>
    <nd ref="49039491"/>
    <tag k="highway" v="residential"/>
    <tag k="name" v="Mansfield Street"/>
  </way>
  <way id="5954771" version="3" timestamp="2010-07-08T01:31:29Z" uid="74617" user="JohnSmith" changeset="5162525">
    <nd ref="49039490"/>
    <nd ref="622961311"/>
    <nd ref="49038881"/>
    <nd ref="49038737"/>
    <nd ref="49039491"/>
    <tag k="highway" v="residential"/>
    <tag k="maxspeed" v="50"/>
    <tag k="maxspeed:source" v="default residential speed limit in Australia"/>
    <tag k="name" v="Mansfield Street"/>
  </way>
  <way id="5954771" version="4" timestamp="2012-01-15T06:05:17Z" uid="147510" user="woodpeck_fixbot" changeset="10394821">
    <nd ref="49039490"/>
    <nd ref="622961311"/>
    <nd ref="49038881"/>
    <nd ref="49038737"/>
    <nd ref="49039491"/>
    <tag k="highway" v="residential"/>
    <tag k="name" v="Mansfield Street"/>
  </way>
  <way id="5954829" version="2" timestamp="2010-07-08T01:33:17Z" uid="74617" user="JohnSmith" changeset="5162525">
    <nd ref="49039858"/>
    <nd ref="49039860"/>
    <nd ref="49039861"/>
    <nd ref="49039862"/>
    <tag k="highway" v="residential"/>
    <tag k="maxspeed" v="50"/>
    <tag k="maxspeed:source" v="default residential speed limit in Australia"/>
    <tag k="name" v="Mardi Street"/>
  </way>
  <way id="5954829" version="3" timestamp="2012-01-15T06:05:18Z" uid="147510" user="woodpeck_fixbot" changeset="10394821">
    <nd ref="49039858"/>
    <nd ref="49039860"/>
    <nd ref="49039861"/>
    <nd ref="49039862"/>
    <tag k="highway" v="residential"/>
    <tag k="name" v="Mardi Street"/>
  </way>
  <way id="5954898" version="2" timestamp="2010-07-08T01:32:14Z" uid="74617" user="JohnSmith" changeset="5162525">
    <nd ref="49040284"/>
    <nd ref="49040347"/>
    <tag k="highway" v="residential"/>
    <tag k="maxspeed" v="50"/>
    <tag k="maxspeed:source" v="default residential speed limit in Australia"/>
    <tag k="name" v="Parry Street"/>
  </way>
  <way id="5954898" version="3" timestamp="2012-01-15T06:05:19Z" uid="147510" user="woodpeck_fixbot" changeset="10394821">
    <nd ref="49040284"/>
    <nd ref="49040347"/>
    <tag k="highway" v="residential"/>
    <tag k="name" v="Parry Street"/>
  </way>
  <way id="5954913" version="2" timestamp="2010-07-08T01:34:25Z" uid="74617" user="JohnSmith" changeset="5162525">
    <nd ref="49040453"/>
    <nd ref="49040455"/>
    <tag k="highway" v="residential"/>
    <tag k="maxspeed" v="50"/>
    <tag k="maxspeed:source" v="default residential speed limit in Australia"/>
    <tag k="name" v="Saxby Street"/>
  </way>
  <way id="5954913" version="3" timestamp="2012-01-15T06:05:20Z" uid="147510" user="woodpeck_fixbot" changeset="10394821">
    <nd ref="49040453"/>
    <nd ref="49040455"/>
    <tag k="highway" v="residential"/>
    <tag k="name" v="Saxby Street"/>
  </way>
  <way id="5954994" version="4" timestamp="2010-01-30T09:37:52Z" uid="7617" user="Franc" changeset="3749138">
    <nd ref="49040959"/>
    <nd ref="82479037"/>
    <nd ref="622961585"/>
    <tag k="highway" v="residential"/>
    <tag k="name" v="Tungarra Road"/>
  </way>
  <way id="5954994" version="5" timestamp="2010-07-08T01:38:04Z" uid="74617" user="JohnSmith" changeset="5162525">
    <nd ref="49040959"/>
    <nd ref="82479037"/>
    <nd ref="622961585"/>
    <tag k="highway" v="residential"/>
    <tag k="maxspeed" v="50"/>
    <tag k="maxspeed:source" v="default residential speed limit in Australia"/>
    <tag k="name" v="Tungarra Road"/>
  </way>
  <way id="5954994" version="6" timestamp="2012-01-15T06:05:22Z" uid="147510" user="woodpeck_fixbot" changeset="10394821">
    <nd ref="49040959"/>
    <nd ref="82479037"/>
    <nd ref="622961585"/>
    <tag k="highway" v="residential"/>
    <tag k="name" v="Tungarra Road"/>
  </way>
</osm>
