<?xml version='1.0' encoding='UTF-8'?>
<osm version="0.6" generator="libosmium/2.20.0">
  <way id="59884336" version="1" timestamp="2010-05-22T03:28:17Z" uid="179658" user="Troy Rollo" changeset="4771278">
    <nd ref="60984517"/>
    <nd ref="173004246"/>
    <nd ref="173043107"/>
    <nd ref="26940772"/>
    <nd ref="31909617"/>
    <nd ref="26940778"/>
    <nd ref="369939576"/>
    <nd ref="26940780"/>
    <nd ref="369939577"/>
    <nd ref="26940788"/>
    <tag k="highway" v="primary"/>
    <tag k="maxspeed" v="60"/>
    <tag k="name" v="Epping Road"/>
  </way>
  <way id="59884336" version="2" timestamp="2010-05-24T13:52:23Z" uid="4467" user="Rosscoe" changeset="4793608">
    <nd ref="60984517"/>
    <nd ref="173004246"/>
    <nd ref="173043107"/>
    <nd ref="747100811"/>
    <nd ref="26940772"/>
    <nd ref="31909617"/>
    <tag k="highway" v="primary"/>
    <tag k="maxspeed" v="60"/>
    <tag k="name" v="Epping Road"/>
  </way>
  <way id="59884336" version="3" timestamp="2011-11-08T13:40:54Z" uid="551209" user="Alanl" changeset="9773001">
    <nd ref="60984517"/>
    <nd ref="173004246"/>
    <nd ref="173043107"/>
    <nd ref="747100811"/>
    <nd ref="26940772"/>
    <nd ref="31909617"/>
    <tag k="highway" v="primary"/>
    <tag k="maxspeed" v="60"/>
    <tag k="name" v="Epping Road"/>
    <tag k="oneway" v="no"/>
  </way>
</osm>
