<?xml version='1.0' encoding='UTF-8'?>
<osm version="0.6" generator="libosmium/2.20.0">
  <way id="60038540" version="1" timestamp="2010-05-23T08:29:14Z" uid="4467" user="Rosscoe" changeset="4780872">
    <nd ref="266738790"/>
    <nd ref="746252161"/>
    <nd ref="746252137"/>
    <nd ref="583692654"/>
    <tag k="highway" v="residential"/>
    <tag k="name" v="Fleming Avenue"/>
    <tag k="source" v="nearmap"/>
  </way>
  <way id="60038540" version="2" timestamp="2010-07-09T17:20:53Z" uid="74617" user="JohnSmith" changeset="5175333">
    <nd ref="266738790"/>
    <nd ref="746252161"/>
    <nd ref="746252137"/>
    <nd ref="583692654"/>
    <tag k="highway" v="residential"/>
    <tag k="maxspeed" v="50"/>
    <tag k="maxspeed:source" v="default residential speed limit in Australia"/>
    <tag k="name" v="Fleming Avenue"/>
    <tag k="source" v="nearmap"/>
  </way>
  <way id="60038541" version="1" timestamp="2010-05-23T08:29:15Z" uid="4467" user="Rosscoe" changeset="4780872">
    <nd ref="30736190"/>
    <nd ref="266738795"/>
    <nd ref="266738788"/>
    <nd ref="746252145"/>
    <tag k="highway" v="residential"/>
    <tag k="source" v="nearmap"/>
  </way>
  <way id="60038541" version="2" timestamp="2010-07-09T17:23:17Z" uid="74617" user="JohnSmith" changeset="5175333">
    <nd ref="30736190"/>
    <nd ref="266738795"/>
    <nd ref="266738788"/>
    <nd ref="746252145"/>
    <tag k="highway" v="residential"/>
    <tag k="maxspeed" v="50"/>
    <tag k="maxspeed:source" v="default residential speed limit in Australia"/>
    <tag k="source" v="nearmap"/>
  </way>
  <way id="60038542" version="1" timestamp="2010-05-23T08:29:15Z" uid="4467" user="Rosscoe" changeset="4780872">
    <nd ref="583692986"/>
    <nd ref="746252160"/>
    <nd ref="746252157"/>
    <tag k="highway" v="trunk_link"/>
    <tag k="oneway" v="yes"/>
    <tag k="source" v="nearmap"/>
  </way>
  <way id="60038543" version="1" timestamp="2010-05-23T08:29:17Z" uid="4467" user="Rosscoe" changeset="4780872">
    <nd ref="746252158"/>
    <nd ref="30736200"/>
    <nd ref="30736201"/>
    <nd ref="30736202"/>
    <nd ref="457323927"/>
    <nd ref="30736203"/>
    <nd ref="30736204"/>
    <nd ref="30736206"/>
    <nd ref="384139904"/>
    <nd ref="30736207"/>
    <nd ref="746252130"/>
    <nd ref="30736208"/>
    <nd ref="30736209"/>
    <nd ref="746252162"/>
    <nd ref="382892982"/>
    <nd ref="30736210"/>
    <nd ref="384145649"/>
    <nd ref="384145422"/>
    <nd ref="30736214"/>
    <tag k="highway" v="primary"/>
    <tag k="name" v="Manning Road"/>
    <tag k="oneway" v="yes"/>
    <tag k="ref" v="S26"/>
    <tag k="source" v="nearmap"/>
    <tag k="source:name" v="knowledge"/>
  </way>
  <way id="60038543" version="2" timestamp="2011-10-12T13:28:29Z" uid="110283" user="drgis" changeset="9538956">
    <nd ref="746252158"/>
    <nd ref="30736200"/>
    <nd ref="30736201"/>
    <nd ref="30736202"/>
    <nd ref="457323927"/>
    <nd ref="30736203"/>
    <nd ref="30736204"/>
    <nd ref="30736206"/>
    <nd ref="384139904"/>
    <nd ref="30736207"/>
    <nd ref="746252130"/>
    <nd ref="30736208"/>
    <nd ref="1463910445"/>
    <nd ref="30736209"/>
    <nd ref="746252162"/>
    <nd ref="382892982"/>
    <nd ref="30736210"/>
    <nd ref="384145649"/>
    <nd ref="384145422"/>
    <nd ref="30736214"/>
    <tag k="highway" v="primary"/>
    <tag k="name" v="Manning Road"/>
    <tag k="oneway" v="yes"/>
    <tag k="ref" v="S26"/>
    <tag k="source" v="nearmap"/>
    <tag k="source:name" v="knowledge"/>
  </way>
  <way id="60038544" version="1" timestamp="2010-05-23T08:29:18Z" uid="4467" user="Rosscoe" changeset="4780872">
    <nd ref="30733234"/>
    <nd ref="30736189"/>
    <nd ref="30736190"/>
    <nd ref="583692638"/>
    <nd ref="266738787"/>
    <nd ref="746252147"/>
    <nd ref="30736193"/>
    <nd ref="30736194"/>
    <nd ref="30736195"/>
    <nd ref="30736196"/>
    <nd ref="30736197"/>
    <nd ref="457328838"/>
    <nd ref="30736198"/>
    <nd ref="30736199"/>
    <nd ref="746252158"/>
    <tag k="highway" v="primary"/>
    <tag k="name" v="Manning Road"/>
    <tag k="oneway" v="yes"/>
    <tag k="ref" v="S26"/>
    <tag k="source" v="nearmap"/>
    <tag k="source:name" v="knowledge"/>
  </way>
  <way id="60038545" version="1" timestamp="2010-05-23T08:29:19Z" uid="4467" user="Rosscoe" changeset="4780872">
    <nd ref="30733214"/>
    <nd ref="30733215"/>
    <nd ref="454743773"/>
    <nd ref="427873792"/>
    <nd ref="427873771"/>
    <nd ref="454743623"/>
    <nd ref="454743244"/>
    <nd ref="30733217"/>
    <nd ref="746252164"/>
    <nd ref="30733218"/>
    <nd ref="384139879"/>
    <nd ref="30733219"/>
    <nd ref="30733221"/>
    <nd ref="30733222"/>
    <nd ref="457323929"/>
    <nd ref="30733223"/>
    <nd ref="30733224"/>
    <nd ref="267607230"/>
    <nd ref="30733225"/>
    <nd ref="746117353"/>
    <nd ref="746117399"/>
    <tag k="highway" v="primary"/>
    <tag k="name" v="Manning Road"/>
    <tag k="oneway" v="yes"/>
    <tag k="ref" v="S26"/>
    <tag k="source" v="nearmap"/>
    <tag k="source:name" v="knowledge"/>
  </way>
  <way id="60038545" version="2" timestamp="2011-10-12T13:28:30Z" uid="110283" user="drgis" changeset="9538956">
    <nd ref="30733214"/>
    <nd ref="30733215"/>
    <nd ref="454743773"/>
    <nd ref="427873792"/>
    <nd ref="427873771"/>
    <nd ref="454743623"/>
    <nd ref="454743244"/>
    <nd ref="1463910448"/>
    <nd ref="30733217"/>
    <nd ref="746252164"/>
    <nd ref="30733218"/>
    <nd ref="384139879"/>
    <nd ref="30733219"/>
    <nd ref="30733221"/>
    <nd ref="30733222"/>
    <nd ref="457323929"/>
    <nd ref="30733223"/>
    <nd ref="30733224"/>
    <nd ref="267607230"/>
    <nd ref="30733225"/>
    <nd ref="746117353"/>
    <nd ref="746117399"/>
    <tag k="highway" v="primary"/>
    <tag k="name" v="Manning Road"/>
    <tag k="oneway" v="yes"/>
    <tag k="ref" v="S26"/>
    <tag k="source" v="nearmap"/>
    <tag k="source:name" v="knowledge"/>
  </way>
  <way id="60038547" version="1" timestamp="2010-05-23T08:29:20Z" uid="4467" user="Rosscoe" changeset="4780872">
    <nd ref="30733234"/>
    <nd ref="30733235"/>
    <tag k="highway" v="primary"/>
    <tag k="name" v="Manning Road"/>
    <tag k="ref" v="S26"/>
    <tag k="source" v="nearmap"/>
  </way>
  <way id="60038548" version="1" timestamp="2010-05-23T08:29:21Z" uid="4467" user="Rosscoe" changeset="4780872">
    <nd ref="30736214"/>
    <nd ref="384346204"/>
    <nd ref="384346154"/>
    <nd ref="30736216"/>
    <nd ref="30736217"/>
    <nd ref="30736218"/>
    <nd ref="662080124"/>
    <nd ref="30736219"/>
    <nd ref="698804116"/>
    <nd ref="662081665"/>
    <nd ref="30736220"/>
    <nd ref="662077181"/>
    <nd ref="662078594"/>
    <nd ref="662074110"/>
    <nd ref="30736222"/>
    <nd ref="30736223"/>
    <nd ref="662072933"/>
    <nd ref="431378308"/>
    <nd ref="30736225"/>
    <nd ref="444504719"/>
    <nd ref="30736226"/>
    <nd ref="30736227"/>
    <nd ref="30736228"/>
    <nd ref="30736229"/>
    <nd ref="698804109"/>
    <nd ref="30736230"/>
    <nd ref="415912169"/>
    <nd ref="415911714"/>
    <nd ref="30736231"/>
    <nd ref="30736232"/>
    <nd ref="415831774"/>
    <nd ref="30736233"/>
    <nd ref="638206711"/>
    <nd ref="30736234"/>
    <tag k="highway" v="primary"/>
    <tag k="name" v="Manning Road"/>
    <tag k="oneway" v="yes"/>
    <tag k="ref" v="S26"/>
    <tag k="source:name" v="general knowledge"/>
  </way>
  <way id="60038548" version="2" timestamp="2010-05-23T08:51:29Z" uid="4467" user="Rosscoe" changeset="4781017">
    <nd ref="30736214"/>
    <nd ref="384346204"/>
    <nd ref="384346154"/>
    <nd ref="30736216"/>
    <nd ref="30736217"/>
    <nd ref="746257166"/>
    <nd ref="30736218"/>
    <nd ref="30736219"/>
    <nd ref="698804116"/>
    <nd ref="746256974"/>
    <nd ref="30736220"/>
    <nd ref="662077181"/>
    <nd ref="662078594"/>
    <nd ref="662074110"/>
    <nd ref="30736222"/>
    <nd ref="30736223"/>
    <nd ref="662072933"/>
    <nd ref="431378308"/>
    <nd ref="444504719"/>
    <nd ref="30736226"/>
    <nd ref="30736227"/>
    <nd ref="30736228"/>
    <nd ref="30736229"/>
    <tag k="highway" v="primary"/>
    <tag k="name" v="Manning Road"/>
    <tag k="oneway" v="yes"/>
    <tag k="ref" v="S26"/>
    <tag k="source" v="nearmap"/>
    <tag k="source:name" v="knowledge"/>
  </way>
  <way id="60038548" version="3" timestamp="2010-05-24T14:43:10Z" uid="4467" user="Rosscoe" changeset="4794156">
    <nd ref="30736214"/>
    <nd ref="384346204"/>
    <nd ref="384346154"/>
    <nd ref="30736216"/>
    <nd ref="30736217"/>
    <nd ref="746257166"/>
    <nd ref="30736218"/>
    <nd ref="30736219"/>
    <nd ref="698804116"/>
    <nd ref="746256974"/>
    <nd ref="30736220"/>
    <nd ref="662077181"/>
    <nd ref="662078594"/>
    <nd ref="662074110"/>
    <nd ref="30736222"/>
    <nd ref="30736223"/>
    <nd ref="662072933"/>
    <nd ref="431378308"/>
    <nd ref="444504719"/>
    <nd ref="30736226"/>
    <nd ref="30736227"/>
    <nd ref="30736228"/>
    <nd ref="747123175"/>
    <nd ref="30736229"/>
    <tag k="highway" v="primary"/>
    <tag k="name" v="Manning Road"/>
    <tag k="oneway" v="yes"/>
    <tag k="ref" v="S26"/>
    <tag k="source" v="nearmap"/>
    <tag k="source:name" v="knowledge"/>
  </way>
  <way id="60038549" version="1" timestamp="2010-05-23T08:29:24Z" uid="4467" user="Rosscoe" changeset="4780872">
    <nd ref="33400334"/>
    <nd ref="746252134"/>
    <nd ref="583692988"/>
    <nd ref="746252136"/>
    <nd ref="746252143"/>
    <nd ref="746252163"/>
    <nd ref="746252127"/>
    <nd ref="746252119"/>
    <nd ref="746252161"/>
    <tag k="highway" v="secondary"/>
    <tag k="name" v="George Street"/>
    <tag k="oneway" v="yes"/>
    <tag k="source" v="nearmap"/>
  </way>
  <way id="60038550" version="1" timestamp="2010-05-23T08:29:25Z" uid="4467" user="Rosscoe" changeset="4780872">
    <nd ref="355413699"/>
    <nd ref="583693024"/>
    <tag k="highway" v="tertiary"/>
    <tag k="name" v="Mallard Way"/>
    <tag k="oneway" v="yes"/>
  </way>
  <way id="60038551" version="1" timestamp="2010-05-23T08:29:26Z" uid="4467" user="Rosscoe" changeset="4780872">
    <nd ref="746117399"/>
    <nd ref="30733226"/>
    <nd ref="422328056"/>
    <nd ref="30733227"/>
    <nd ref="457329390"/>
    <nd ref="30733228"/>
    <nd ref="30733229"/>
    <nd ref="30733230"/>
    <nd ref="583692633"/>
    <nd ref="266738786"/>
    <nd ref="583692636"/>
    <nd ref="30733232"/>
    <nd ref="30733233"/>
    <nd ref="30733234"/>
    <tag k="highway" v="primary"/>
    <tag k="name" v="Manning Road"/>
    <tag k="oneway" v="yes"/>
    <tag k="ref" v="S26"/>
    <tag k="source" v="nearmap"/>
    <tag k="source:name" v="knowledge"/>
  </way>
  <way id="60038552" version="1" timestamp="2010-05-23T08:29:27Z" uid="4467" user="Rosscoe" changeset="4780872">
    <nd ref="266738786"/>
    <nd ref="266738787"/>
    <nd ref="422406083"/>
    <nd ref="422406082"/>
    <tag k="highway" v="secondary"/>
    <tag k="name" v="Fleming Avenue"/>
    <tag k="oneway" v="yes"/>
    <tag k="source" v="nearmap"/>
  </way>
</osm>
