<?xml version='1.0' encoding='UTF-8'?>
<osm version="0.6" generator="libosmium/2.20.0">
  <way id="60049917" version="1" timestamp="2010-05-23T12:19:52Z" uid="7617" user="Franc" changeset="4782688">
    <nd ref="18544902"/>
    <nd ref="18548776"/>
    <tag k="highway" v="secondary"/>
    <tag k="maxspeed" v="50"/>
    <tag k="name" v="Coogee Bay Road"/>
    <tag k="oneway" v="yes"/>
  </way>
  <way id="60049918" version="1" timestamp="2010-05-23T12:19:52Z" uid="7617" user="Franc" changeset="4782688">
    <nd ref="746354416"/>
    <nd ref="18548790"/>
    <tag k="highway" v="residential"/>
    <tag k="name" v="Don Juan Avenue"/>
    <tag k="restriction" v="school_zone"/>
    <tag k="source" v="survey"/>
  </way>
  <way id="60049918" version="2" timestamp="2010-07-07T21:52:56Z" uid="74617" user="JohnSmith" changeset="5161069">
    <nd ref="746354416"/>
    <nd ref="18548790"/>
    <tag k="highway" v="residential"/>
    <tag k="maxspeed" v="50"/>
    <tag k="maxspeed:source" v="default residential speed limit in Australia"/>
    <tag k="name" v="Don Juan Avenue"/>
    <tag k="restriction" v="school_zone"/>
    <tag k="source" v="survey"/>
  </way>
  <way id="60049918" version="3" timestamp="2012-01-20T08:30:57Z" uid="147510" user="woodpeck_fixbot" changeset="10443754">
    <nd ref="746354416"/>
    <nd ref="18548790"/>
    <tag k="highway" v="residential"/>
    <tag k="name" v="Don Juan Avenue"/>
    <tag k="restriction" v="school_zone"/>
    <tag k="source" v="survey"/>
  </way>
</osm>
