<?xml version='1.0' encoding='UTF-8'?>
<osm version="0.6" generator="libosmium/2.20.0">
  <way id="60238215" version="1" timestamp="2010-05-25T23:31:12Z" uid="163746" user="anti_bot-nonsense" changeset="4809130">
    <nd ref="748607543"/>
    <nd ref="748607547"/>
    <nd ref="748607564"/>
    <nd ref="748607552"/>
    <nd ref="748607541"/>
    <nd ref="748607555"/>
    <nd ref="748607557"/>
    <nd ref="748607544"/>
    <nd ref="748607559"/>
    <nd ref="748607545"/>
    <nd ref="748607561"/>
    <nd ref="748607548"/>
    <nd ref="748607565"/>
    <nd ref="748607553"/>
    <nd ref="748607546"/>
    <nd ref="748607558"/>
    <nd ref="748607551"/>
    <nd ref="748607560"/>
    <nd ref="748607554"/>
    <nd ref="748607563"/>
    <nd ref="748607556"/>
    <nd ref="748607540"/>
    <nd ref="748607562"/>
    <nd ref="748607550"/>
    <nd ref="748607566"/>
    <nd ref="748607543"/>
    <tag k="leisure" v="park"/>
    <tag k="name" v="Kurpark"/>
  </way>
  <way id="60238215" version="2" timestamp="2010-06-02T08:34:23Z" uid="297122" user="ipunktendorf" changeset="4881780">
    <nd ref="748607543"/>
    <nd ref="748607547"/>
    <nd ref="748607564"/>
    <nd ref="748607552"/>
    <nd ref="748607541"/>
    <nd ref="748607557"/>
    <nd ref="748607544"/>
    <nd ref="748607559"/>
    <nd ref="748607545"/>
    <nd ref="748607561"/>
    <nd ref="748607548"/>
    <nd ref="748607565"/>
    <nd ref="748607553"/>
    <nd ref="748607546"/>
    <nd ref="748607558"/>
    <nd ref="748607551"/>
    <nd ref="748607560"/>
    <nd ref="748607550"/>
    <nd ref="748607566"/>
    <nd ref="748607543"/>
    <tag k="leisure" v="park"/>
    <tag k="name" v="Kurpark"/>
  </way>
  <way id="60238215" version="3" timestamp="2010-06-02T08:34:55Z" uid="297122" user="ipunktendorf" changeset="4881780">
    <nd ref="748607543"/>
    <nd ref="748607547"/>
    <nd ref="748607564"/>
    <nd ref="748607552"/>
    <nd ref="748607541"/>
    <nd ref="748607565"/>
    <nd ref="748607546"/>
    <nd ref="748607558"/>
    <nd ref="748607551"/>
    <nd ref="748607560"/>
    <nd ref="748607550"/>
    <nd ref="748607566"/>
    <nd ref="748607543"/>
    <tag k="leisure" v="park"/>
    <tag k="name" v="Kurpark"/>
  </way>
  <way id="60238215" version="4" timestamp="2010-06-02T08:35:26Z" uid="297122" user="ipunktendorf" changeset="4881780">
    <nd ref="748607543"/>
    <nd ref="748607547"/>
    <nd ref="748607564"/>
    <nd ref="748607552"/>
    <nd ref="748607541"/>
    <nd ref="748607558"/>
    <nd ref="748607551"/>
    <nd ref="748607560"/>
    <nd ref="748607550"/>
    <nd ref="748607566"/>
    <nd ref="748607543"/>
    <tag k="leisure" v="park"/>
    <tag k="name" v="Kurpark"/>
  </way>
  <way id="60238215" version="5" timestamp="2010-06-02T08:36:25Z" uid="297122" user="ipunktendorf" changeset="4881780"/>
  <way id="60238737" version="1" timestamp="2010-05-25T23:54:15Z" uid="163746" user="anti_bot-nonsense" changeset="4809202">
    <nd ref="748628456"/>
    <nd ref="748628427"/>
    <nd ref="748628446"/>
    <nd ref="748628437"/>
    <nd ref="748628456"/>
    <tag k="amenity" v="restaurant"/>
    <tag k="building" v="yes"/>
    <tag k="cuisine" v="regional"/>
    <tag k="name" v="Fohlenhof"/>
  </way>
  <way id="60238737" version="2" timestamp="2010-06-02T14:37:10Z" uid="163746" user="anti_bot-nonsense" changeset="4884767">
    <nd ref="748628456"/>
    <nd ref="748628427"/>
    <nd ref="748628446"/>
    <nd ref="748628437"/>
    <nd ref="748628456"/>
    <tag k="addr:city" v="Bad Endorf"/>
    <tag k="addr:country" v="GER"/>
    <tag k="addr:housenumber" v="2"/>
    <tag k="addr:postcode" v="83093"/>
    <tag k="addr:state" v="Bayern"/>
    <tag k="addr:street" v="Kurstraße"/>
    <tag k="amenity" v="restaurant"/>
    <tag k="building" v="yes"/>
    <tag k="cuisine" v="regional"/>
    <tag k="name" v="Fohlenhof"/>
  </way>
  <way id="60238737" version="3" timestamp="2010-06-02T18:14:05Z" uid="70696" user="xybot" changeset="4886360">
    <nd ref="748628456"/>
    <nd ref="748628427"/>
    <nd ref="748628446"/>
    <nd ref="748628437"/>
    <nd ref="748628456"/>
    <tag k="addr:city" v="Bad Endorf"/>
    <tag k="addr:country" v="DE"/>
    <tag k="addr:housenumber" v="2"/>
    <tag k="addr:postcode" v="83093"/>
    <tag k="addr:state" v="Bayern"/>
    <tag k="addr:street" v="Kurstraße"/>
    <tag k="amenity" v="restaurant"/>
    <tag k="building" v="yes"/>
    <tag k="cuisine" v="regional"/>
    <tag k="name" v="Fohlenhof"/>
  </way>
  <way id="60238737" version="4" timestamp="2010-06-07T19:47:20Z" uid="163746" user="anti_bot-nonsense" changeset="4931752">
    <nd ref="748628456"/>
    <nd ref="748628427"/>
    <nd ref="748628446"/>
    <nd ref="748628437"/>
    <nd ref="766858602"/>
    <nd ref="748628456"/>
    <tag k="addr:city" v="Bad Endorf"/>
    <tag k="addr:country" v="DE"/>
    <tag k="addr:housenumber" v="2"/>
    <tag k="addr:postcode" v="83093"/>
    <tag k="addr:state" v="Bayern"/>
    <tag k="addr:street" v="Kurstraße"/>
    <tag k="amenity" v="restaurant"/>
    <tag k="building" v="yes"/>
    <tag k="cuisine" v="regional"/>
    <tag k="name" v="Fohlenhof"/>
  </way>
  <way id="60238737" version="5" timestamp="2010-06-09T20:57:33Z" uid="163746" user="anti_bot-nonsense" changeset="4949255">
    <nd ref="748628456"/>
    <nd ref="748628427"/>
    <nd ref="748628446"/>
    <nd ref="748628437"/>
    <nd ref="766858602"/>
    <nd ref="748628456"/>
    <tag k="addr:city" v="Bad Endorf"/>
    <tag k="addr:country" v="DE"/>
    <tag k="addr:housenumber" v="2"/>
    <tag k="addr:postcode" v="83093"/>
    <tag k="addr:state" v="Bayern"/>
    <tag k="addr:street" v="Kurstraße"/>
    <tag k="amenity" v="restaurant"/>
    <tag k="building" v="yes"/>
    <tag k="cuisine" v="regional"/>
    <tag k="name" v="Fohlenhof"/>
  </way>
  <way id="60238947" version="2" timestamp="2010-07-09T06:33:33Z" uid="74617" user="JohnSmith" changeset="5171128">
    <nd ref="289145991"/>
    <nd ref="748654959"/>
    <nd ref="748654962"/>
    <nd ref="748654963"/>
    <nd ref="748654965"/>
    <nd ref="748654895"/>
    <nd ref="748654966"/>
    <nd ref="748654968"/>
    <nd ref="748654969"/>
    <nd ref="748654971"/>
    <tag k="highway" v="residential"/>
    <tag k="maxspeed" v="50"/>
    <tag k="maxspeed:source" v="default residential speed limit in Australia"/>
    <tag k="name" v="Hayes Road"/>
  </way>
  <way id="60238947" version="3" timestamp="2012-01-20T08:39:05Z" uid="147510" user="woodpeck_fixbot" changeset="10443754">
    <nd ref="289145991"/>
    <nd ref="748654959"/>
    <nd ref="748654962"/>
    <nd ref="748654963"/>
    <nd ref="748654965"/>
    <nd ref="748654895"/>
    <nd ref="748654966"/>
    <nd ref="748654968"/>
    <nd ref="748654969"/>
    <nd ref="748654971"/>
    <tag k="highway" v="residential"/>
    <tag k="name" v="Hayes Road"/>
  </way>
</osm>
