<?xml version='1.0' encoding='UTF-8'?>
<osm version="0.6" generator="libosmium/2.20.0">
  <way id="60359111" version="1" timestamp="2010-05-27T14:34:02Z" uid="115477" user="wowik" changeset="4822602">
    <nd ref="751032314"/>
    <nd ref="751032334"/>
    <nd ref="751032360"/>
    <nd ref="751032364"/>
    <nd ref="751032367"/>
    <nd ref="751032373"/>
    <nd ref="751032379"/>
    <nd ref="751032384"/>
    <nd ref="751032389"/>
    <nd ref="751032393"/>
    <nd ref="751032398"/>
    <nd ref="751032401"/>
    <nd ref="751032314"/>
    <tag k="building" v="yes"/>
  </way>
  <way id="60359111" version="2" timestamp="2011-01-13T17:42:32Z" uid="115477" user="wowik" changeset="6959469">
    <nd ref="751032314"/>
    <nd ref="751032334"/>
    <nd ref="1102294281"/>
    <nd ref="1102294219"/>
    <nd ref="751032360"/>
    <nd ref="751032364"/>
    <nd ref="751032367"/>
    <nd ref="751032373"/>
    <nd ref="751032379"/>
    <nd ref="1102294247"/>
    <nd ref="1102294210"/>
    <nd ref="751032384"/>
    <nd ref="751032389"/>
    <nd ref="751032393"/>
    <nd ref="751032398"/>
    <nd ref="751032401"/>
    <nd ref="751032314"/>
    <tag k="addr:city" v="Зеленоград"/>
    <tag k="addr:housenumber" v="11c1"/>
    <tag k="addr:street" v="улица ЦНИИМОД"/>
    <tag k="building" v="yes"/>
  </way>
  <way id="60359111" version="3" timestamp="2011-01-17T10:10:58Z" uid="115477" user="wowik" changeset="6997647">
    <nd ref="751032314"/>
    <nd ref="751032334"/>
    <nd ref="1102294281"/>
    <nd ref="1102294219"/>
    <nd ref="751032360"/>
    <nd ref="751032364"/>
    <nd ref="751032367"/>
    <nd ref="751032373"/>
    <nd ref="751032379"/>
    <nd ref="1102294247"/>
    <nd ref="1102294210"/>
    <nd ref="751032384"/>
    <nd ref="751032389"/>
    <nd ref="751032393"/>
    <nd ref="751032398"/>
    <nd ref="751032401"/>
    <nd ref="751032314"/>
    <tag k="addr:city" v="Зеленоград"/>
    <tag k="addr:housenumber" v="11с1"/>
    <tag k="addr:street" v="улица ЦНИИМОД"/>
    <tag k="building" v="yes"/>
  </way>
  <way id="60359111" version="4" timestamp="2011-01-19T16:54:53Z" uid="70696" user="xybot" changeset="7021015">
    <nd ref="751032314"/>
    <nd ref="751032334"/>
    <nd ref="1102294281"/>
    <nd ref="1102294219"/>
    <nd ref="751032360"/>
    <nd ref="751032364"/>
    <nd ref="751032367"/>
    <nd ref="751032373"/>
    <nd ref="751032379"/>
    <nd ref="1102294247"/>
    <nd ref="1102294210"/>
    <nd ref="751032384"/>
    <nd ref="751032389"/>
    <nd ref="751032393"/>
    <nd ref="751032398"/>
    <nd ref="751032401"/>
    <nd ref="751032314"/>
    <tag k="addr:city" v="Зеленоград"/>
    <tag k="addr:housenumber" v="11 с1"/>
    <tag k="addr:street" v="улица ЦНИИМОД"/>
    <tag k="building" v="yes"/>
  </way>
  <way id="60359111" version="5" timestamp="2012-02-29T06:45:08Z" uid="481934" user="iWowik" changeset="10825240">
    <nd ref="751032314"/>
    <nd ref="751032334"/>
    <nd ref="1102294281"/>
    <nd ref="1102294219"/>
    <nd ref="751032360"/>
    <nd ref="751032364"/>
    <nd ref="751032367"/>
    <nd ref="751032373"/>
    <nd ref="751032379"/>
    <nd ref="1102294247"/>
    <nd ref="1102294210"/>
    <nd ref="751032384"/>
    <nd ref="751032389"/>
    <nd ref="751032393"/>
    <nd ref="751032398"/>
    <nd ref="751032401"/>
    <nd ref="751032314"/>
    <tag k="addr:city" v="Зеленоград"/>
    <tag k="addr:housenumber" v="11 с1"/>
    <tag k="addr:street" v="улица ЦНИИМОД"/>
    <tag k="building" v="no"/>
    <tag k="note" v="должно быть тут всё снесено"/>
  </way>
  <way id="60359111" version="6" timestamp="2012-03-27T11:33:56Z" uid="481934" user="iWowik" changeset="11115472">
    <nd ref="751032314"/>
    <nd ref="751032334"/>
    <nd ref="1102294281"/>
    <nd ref="1102294219"/>
    <nd ref="751032360"/>
    <nd ref="751032364"/>
    <nd ref="751032367"/>
    <nd ref="751032373"/>
    <nd ref="751032379"/>
    <nd ref="1102294247"/>
    <nd ref="1102294210"/>
    <nd ref="751032384"/>
    <nd ref="751032389"/>
    <nd ref="751032393"/>
    <nd ref="751032398"/>
    <nd ref="751032401"/>
    <nd ref="751032314"/>
    <tag k="addr:city" v="Зеленоград"/>
    <tag k="addr:country" v="RU"/>
    <tag k="addr:housenumber" v="11 с1"/>
    <tag k="addr:region" v="Москва"/>
    <tag k="addr:street" v="улица ЦНИИМОД"/>
    <tag k="building" v="no"/>
    <tag k="note" v="должно быть тут всё снесено"/>
  </way>
  <way id="60359117" version="1" timestamp="2010-05-27T14:34:03Z" uid="115477" user="wowik" changeset="4822602">
    <nd ref="751032419"/>
    <nd ref="751032421"/>
    <nd ref="751032423"/>
    <nd ref="751032424"/>
    <nd ref="751032419"/>
    <tag k="building" v="yes"/>
  </way>
  <way id="60359117" version="2" timestamp="2011-01-13T17:42:29Z" uid="115477" user="wowik" changeset="6959469">
    <nd ref="751032419"/>
    <nd ref="751032421"/>
    <nd ref="751032423"/>
    <nd ref="751032424"/>
    <nd ref="751032419"/>
    <tag k="addr:city" v="Зеленоград"/>
    <tag k="addr:housenumber" v="11c3"/>
    <tag k="addr:street" v="улица ЦНИИМОД"/>
    <tag k="building" v="yes"/>
  </way>
  <way id="60359117" version="3" timestamp="2011-01-17T10:11:05Z" uid="115477" user="wowik" changeset="6997647">
    <nd ref="751032419"/>
    <nd ref="751032421"/>
    <nd ref="751032423"/>
    <nd ref="751032424"/>
    <nd ref="751032419"/>
    <tag k="addr:city" v="Зеленоград"/>
    <tag k="addr:housenumber" v="11с3"/>
    <tag k="addr:street" v="улица ЦНИИМОД"/>
    <tag k="building" v="yes"/>
  </way>
  <way id="60359117" version="4" timestamp="2011-01-19T16:54:54Z" uid="70696" user="xybot" changeset="7021015">
    <nd ref="751032419"/>
    <nd ref="751032421"/>
    <nd ref="751032423"/>
    <nd ref="751032424"/>
    <nd ref="751032419"/>
    <tag k="addr:city" v="Зеленоград"/>
    <tag k="addr:housenumber" v="11 с3"/>
    <tag k="addr:street" v="улица ЦНИИМОД"/>
    <tag k="building" v="yes"/>
  </way>
  <way id="60359117" version="5" timestamp="2012-02-29T06:45:09Z" uid="481934" user="iWowik" changeset="10825240">
    <nd ref="751032419"/>
    <nd ref="751032421"/>
    <nd ref="751032423"/>
    <nd ref="751032424"/>
    <nd ref="751032419"/>
    <tag k="addr:city" v="Зеленоград"/>
    <tag k="addr:housenumber" v="11 с3"/>
    <tag k="addr:street" v="улица ЦНИИМОД"/>
    <tag k="building" v="no"/>
    <tag k="note" v="должно быть тут всё снесено"/>
  </way>
  <way id="60359117" version="6" timestamp="2012-03-27T11:34:03Z" uid="481934" user="iWowik" changeset="11115472">
    <nd ref="751032419"/>
    <nd ref="751032421"/>
    <nd ref="751032423"/>
    <nd ref="751032424"/>
    <nd ref="751032419"/>
    <tag k="addr:city" v="Зеленоград"/>
    <tag k="addr:country" v="RU"/>
    <tag k="addr:housenumber" v="11 с3"/>
    <tag k="addr:region" v="Москва"/>
    <tag k="addr:street" v="улица ЦНИИМОД"/>
    <tag k="building" v="no"/>
    <tag k="note" v="должно быть тут всё снесено"/>
  </way>
  <way id="60359122" version="1" timestamp="2010-05-27T14:34:03Z" uid="115477" user="wowik" changeset="4822602">
    <nd ref="751032427"/>
    <nd ref="751032429"/>
    <nd ref="751032431"/>
    <nd ref="751032433"/>
    <nd ref="751032427"/>
    <tag k="building" v="yes"/>
  </way>
  <way id="60359122" version="2" timestamp="2011-01-13T17:42:29Z" uid="115477" user="wowik" changeset="6959469">
    <nd ref="751032427"/>
    <nd ref="751032429"/>
    <nd ref="751032431"/>
    <nd ref="751032433"/>
    <nd ref="751032427"/>
    <tag k="addr:city" v="Зеленоград"/>
    <tag k="addr:housenumber" v="11c2"/>
    <tag k="addr:street" v="улица ЦНИИМОД"/>
    <tag k="building" v="yes"/>
  </way>
  <way id="60359122" version="3" timestamp="2011-01-17T10:11:04Z" uid="115477" user="wowik" changeset="6997647">
    <nd ref="751032427"/>
    <nd ref="751032429"/>
    <nd ref="751032431"/>
    <nd ref="751032433"/>
    <nd ref="751032427"/>
    <tag k="addr:city" v="Зеленоград"/>
    <tag k="addr:housenumber" v="11с2"/>
    <tag k="addr:street" v="улица ЦНИИМОД"/>
    <tag k="building" v="yes"/>
  </way>
  <way id="60359122" version="4" timestamp="2011-01-19T16:54:55Z" uid="70696" user="xybot" changeset="7021015">
    <nd ref="751032427"/>
    <nd ref="751032429"/>
    <nd ref="751032431"/>
    <nd ref="751032433"/>
    <nd ref="751032427"/>
    <tag k="addr:city" v="Зеленоград"/>
    <tag k="addr:housenumber" v="11 с2"/>
    <tag k="addr:street" v="улица ЦНИИМОД"/>
    <tag k="building" v="yes"/>
  </way>
  <way id="60359122" version="5" timestamp="2012-02-29T06:45:08Z" uid="481934" user="iWowik" changeset="10825240">
    <nd ref="751032427"/>
    <nd ref="751032429"/>
    <nd ref="751032431"/>
    <nd ref="751032433"/>
    <nd ref="751032427"/>
    <tag k="addr:city" v="Зеленоград"/>
    <tag k="addr:housenumber" v="11 с2"/>
    <tag k="addr:street" v="улица ЦНИИМОД"/>
    <tag k="building" v="no"/>
    <tag k="note" v="должно быть тут всё снесено"/>
  </way>
  <way id="60359122" version="6" timestamp="2012-03-27T11:34:00Z" uid="481934" user="iWowik" changeset="11115472">
    <nd ref="751032427"/>
    <nd ref="751032429"/>
    <nd ref="751032431"/>
    <nd ref="751032433"/>
    <nd ref="751032427"/>
    <tag k="addr:city" v="Зеленоград"/>
    <tag k="addr:country" v="RU"/>
    <tag k="addr:housenumber" v="11 с2"/>
    <tag k="addr:region" v="Москва"/>
    <tag k="addr:street" v="улица ЦНИИМОД"/>
    <tag k="building" v="no"/>
    <tag k="note" v="должно быть тут всё снесено"/>
  </way>
  <way id="60359804" version="1" timestamp="2010-05-27T14:47:17Z" uid="4467" user="Rosscoe" changeset="4822768">
    <nd ref="576828323"/>
    <nd ref="576828568"/>
    <tag k="bridge" v="yes"/>
    <tag k="highway" v="tertiary"/>
    <tag k="layer" v="1"/>
    <tag k="name" v="Hammersford Drive"/>
  </way>
  <way id="60359862" version="1" timestamp="2010-05-27T14:48:10Z" uid="115477" user="wowik" changeset="4822724">
    <nd ref="751095827"/>
    <nd ref="302887449"/>
    <tag k="foot" v="yes"/>
    <tag k="highway" v="footway"/>
  </way>
  <way id="60359863" version="1" timestamp="2010-05-27T14:48:10Z" uid="115477" user="wowik" changeset="4822724">
    <nd ref="751095791"/>
    <nd ref="751095841"/>
    <tag k="foot" v="yes"/>
    <tag k="highway" v="footway"/>
  </way>
  <way id="60359864" version="1" timestamp="2010-05-27T14:48:10Z" uid="115477" user="wowik" changeset="4822724">
    <nd ref="751095849"/>
    <nd ref="751095852"/>
    <tag k="foot" v="yes"/>
    <tag k="highway" v="footway"/>
  </way>
  <way id="60359865" version="1" timestamp="2010-05-27T14:48:11Z" uid="115477" user="wowik" changeset="4822724">
    <nd ref="751095861"/>
    <nd ref="751095864"/>
    <tag k="foot" v="yes"/>
    <tag k="highway" v="footway"/>
  </way>
</osm>
