<?xml version='1.0' encoding='UTF-8'?>
<osm version="0.6" generator="libosmium/2.20.0">
  <way id="60355150" version="1" timestamp="2010-05-27T13:06:21Z" uid="4467" user="Rosscoe" changeset="4821822">
    <nd ref="243818269"/>
    <nd ref="321402714"/>
    <nd ref="321402200"/>
    <nd ref="332023745"/>
    <nd ref="243818271"/>
    <nd ref="243818272"/>
    <nd ref="243818549"/>
    <nd ref="243818522"/>
    <nd ref="243818273"/>
    <nd ref="243818274"/>
    <nd ref="243818275"/>
    <tag k="highway" v="tertiary"/>
    <tag k="name" v="Dalyellup Boulevard"/>
  </way>
  <way id="60355268" version="1" timestamp="2010-05-27T13:10:33Z" uid="6269" user="Mueck" changeset="4821813">
    <nd ref="750801690"/>
    <nd ref="750801694"/>
    <nd ref="750801696"/>
    <nd ref="750801699"/>
    <nd ref="750801701"/>
    <nd ref="750801703"/>
    <nd ref="750801706"/>
    <nd ref="750801708"/>
    <nd ref="750801711"/>
    <nd ref="750801714"/>
    <nd ref="750801717"/>
    <nd ref="750801720"/>
    <nd ref="750801723"/>
    <nd ref="750801726"/>
    <nd ref="750801728"/>
  </way>
  <way id="60355268" version="2" timestamp="2010-05-27T13:11:05Z" uid="6269" user="Mueck" changeset="4821813">
    <nd ref="750801690"/>
    <nd ref="750801694"/>
    <nd ref="750801696"/>
    <nd ref="750801699"/>
    <nd ref="750801701"/>
    <nd ref="750801703"/>
    <nd ref="750801706"/>
    <nd ref="750801708"/>
    <nd ref="750801711"/>
    <nd ref="750801714"/>
    <nd ref="750801717"/>
    <nd ref="750801720"/>
    <nd ref="750801723"/>
    <nd ref="750801726"/>
    <nd ref="750801728"/>
    <tag k="abandoned" v="rail"/>
    <tag k="railway" v="abandoned"/>
  </way>
  <way id="60355268" version="3" timestamp="2010-05-27T13:15:52Z" uid="6269" user="Mueck" changeset="4821813">
    <nd ref="750801690"/>
    <nd ref="750801694"/>
    <nd ref="750801696"/>
    <nd ref="750801699"/>
    <nd ref="750801701"/>
    <nd ref="750801706"/>
    <nd ref="750801708"/>
    <nd ref="750801714"/>
    <nd ref="750801717"/>
    <nd ref="750801720"/>
    <nd ref="750801723"/>
    <nd ref="750801726"/>
    <nd ref="750801728"/>
    <tag k="abandoned" v="rail"/>
    <tag k="name" v="Albtalbahn bis 1977"/>
    <tag k="railway" v="abandoned"/>
    <tag k="source" v="estimated from old maps"/>
  </way>
  <way id="60355268" version="4" timestamp="2010-08-06T13:21:17Z" uid="6269" user="Mueck" changeset="5416563">
    <nd ref="750801690"/>
    <nd ref="750801694"/>
    <nd ref="750801696"/>
    <nd ref="750801699"/>
    <nd ref="750801701"/>
    <nd ref="750801706"/>
    <nd ref="750801708"/>
    <nd ref="750801714"/>
    <tag k="abandoned" v="rail"/>
    <tag k="name" v="Albtalbahn bis 1977"/>
    <tag k="railway" v="razed"/>
    <tag k="razed" v="rail"/>
    <tag k="source" v="estimated from old maps"/>
  </way>
  <way id="60355268" version="5" timestamp="2010-08-06T13:21:40Z" uid="6269" user="Mueck" changeset="5416563">
    <nd ref="750801690"/>
    <nd ref="750801694"/>
    <nd ref="750801696"/>
    <nd ref="750801699"/>
    <nd ref="750801701"/>
    <nd ref="750801706"/>
    <nd ref="750801708"/>
    <nd ref="750801714"/>
    <tag k="name" v="Albtalbahn bis 1977"/>
    <tag k="railway" v="razed"/>
    <tag k="razed" v="rail"/>
    <tag k="source" v="estimated from old maps"/>
  </way>
  <way id="60355268" version="6" timestamp="2011-06-18T13:37:15Z" uid="165061" user="keinname" changeset="8473420">
    <nd ref="750801690"/>
    <nd ref="1329621922"/>
    <nd ref="1329622313"/>
    <nd ref="1329622078"/>
    <nd ref="750801694"/>
    <nd ref="750801696"/>
    <nd ref="750801699"/>
    <nd ref="750801701"/>
    <nd ref="750801706"/>
    <nd ref="750801708"/>
    <nd ref="750801714"/>
    <tag k="name" v="Albtalbahn bis 1977"/>
    <tag k="railway" v="razed"/>
    <tag k="razed" v="rail"/>
    <tag k="source" v="estimated from old maps"/>
  </way>
  <way id="60355268" version="7" timestamp="2011-11-03T16:32:12Z" uid="165061" user="keinname" changeset="9731149">
    <nd ref="750801690"/>
    <nd ref="1490495705"/>
    <nd ref="1329621922"/>
    <nd ref="1329622313"/>
    <nd ref="1329622078"/>
    <nd ref="750801694"/>
    <nd ref="750801696"/>
    <nd ref="750801699"/>
    <nd ref="750801701"/>
    <nd ref="750801706"/>
    <nd ref="750801708"/>
    <nd ref="750801714"/>
    <tag k="name" v="Albtalbahn bis 1977"/>
    <tag k="railway" v="razed"/>
    <tag k="razed" v="rail"/>
    <tag k="source" v="estimated from old maps"/>
  </way>
  <way id="60355361" version="3" timestamp="2010-06-29T19:04:44Z" uid="74617" user="JohnSmith" changeset="5108182">
    <nd ref="750809692"/>
    <nd ref="750809787"/>
    <nd ref="750809801"/>
    <nd ref="750809861"/>
    <nd ref="750809692"/>
    <tag k="fixme" v="sport=football is ambiguous, see http://wiki.osm.org/wiki/Football for more details"/>
    <tag k="leisure" v="stadium"/>
    <tag k="name" v="Estádio Joaquim Dinis"/>
    <tag k="sport" v="football"/>
  </way>
  <way id="60355716" version="1" timestamp="2010-05-27T13:26:13Z" uid="115477" user="wowik" changeset="4821948">
    <nd ref="750820822"/>
    <nd ref="750820824"/>
    <nd ref="750820826"/>
    <nd ref="750820828"/>
    <nd ref="750820830"/>
    <nd ref="750820833"/>
    <nd ref="750820835"/>
    <nd ref="750820837"/>
    <nd ref="750820822"/>
    <tag k="amenity" v="hospital"/>
    <tag k="building" v="yes"/>
    <tag k="name" v="Гор.больница"/>
  </way>
  <way id="60355716" version="2" timestamp="2011-01-14T15:11:46Z" uid="206282" user="Amigo" changeset="6968011">
    <nd ref="750820822"/>
    <nd ref="750820824"/>
    <nd ref="750820826"/>
    <nd ref="750820828"/>
    <nd ref="750820830"/>
    <nd ref="750820833"/>
    <nd ref="750820835"/>
    <nd ref="750820837"/>
    <nd ref="750820822"/>
    <tag k="amenity" v="hospital"/>
    <tag k="building" v="yes"/>
    <tag k="name" v="Городская больница"/>
  </way>
  <way id="60355716" version="3" timestamp="2011-01-14T15:12:29Z" uid="206282" user="Amigo" changeset="6968011">
    <nd ref="750820822"/>
    <nd ref="750820824"/>
    <nd ref="750820826"/>
    <nd ref="750820828"/>
    <nd ref="750820830"/>
    <nd ref="750820833"/>
    <nd ref="750820835"/>
    <nd ref="750820837"/>
    <nd ref="750820822"/>
    <tag k="amenity" v="hospital"/>
    <tag k="building" v="yes"/>
    <tag k="name" v="Долгопрудненская городская больница"/>
  </way>
  <way id="60355716" version="4" timestamp="2011-02-01T08:59:45Z" uid="206282" user="Amigo" changeset="7152663">
    <nd ref="750820822"/>
    <nd ref="750820824"/>
    <nd ref="750820826"/>
    <nd ref="750820828"/>
    <nd ref="750820830"/>
    <nd ref="750820833"/>
    <nd ref="750820835"/>
    <nd ref="750820837"/>
    <nd ref="750820822"/>
    <tag k="addr:housenumber" v="2"/>
    <tag k="addr:street" v="улица Павлова"/>
    <tag k="amenity" v="hospital"/>
    <tag k="building" v="yes"/>
    <tag k="name" v="Долгопрудненская центральная городская больница"/>
  </way>
  <way id="60355716" version="5" timestamp="2011-05-19T09:53:33Z" uid="260756" user="Felis Pimeja" changeset="8188127">
    <nd ref="750820822"/>
    <nd ref="750820824"/>
    <nd ref="750820826"/>
    <nd ref="1291455928"/>
    <nd ref="1291455926"/>
    <nd ref="750820828"/>
    <nd ref="750820830"/>
    <nd ref="750820833"/>
    <nd ref="750820835"/>
    <nd ref="750820837"/>
    <nd ref="750820822"/>
    <tag k="addr:housenumber" v="2"/>
    <tag k="addr:street" v="улица Павлова"/>
    <tag k="amenity" v="hospital"/>
    <tag k="building" v="yes"/>
    <tag k="name" v="Долгопрудненская центральная городская больница"/>
  </way>
  <way id="60355716" version="6" timestamp="2012-02-03T05:35:36Z" uid="440644" user="markhor" changeset="10573450">
    <nd ref="750820822"/>
    <nd ref="750820824"/>
    <nd ref="750820826"/>
    <nd ref="1291455928"/>
    <nd ref="1291455926"/>
    <nd ref="750820828"/>
    <nd ref="750820830"/>
    <nd ref="750820833"/>
    <nd ref="750820835"/>
    <nd ref="750820837"/>
    <nd ref="750820822"/>
    <tag k="addr:housenumber" v="2"/>
    <tag k="addr:street" v="улица Павлова"/>
    <tag k="amenity" v="hospital"/>
    <tag k="building" v="yes"/>
    <tag k="building:levels" v="3"/>
    <tag k="name" v="Долгопрудненская центральная городская больница"/>
  </way>
  <way id="60355717" version="1" timestamp="2010-05-27T13:26:14Z" uid="115477" user="wowik" changeset="4821948">
    <nd ref="750820846"/>
    <nd ref="750820852"/>
    <nd ref="750820855"/>
    <nd ref="750820856"/>
    <nd ref="750820846"/>
    <tag k="amenity" v="hospital"/>
    <tag k="building" v="yes"/>
  </way>
  <way id="60355717" version="2" timestamp="2010-05-27T13:28:27Z" uid="115477" user="wowik" changeset="4821962">
    <nd ref="750820846"/>
    <nd ref="750820852"/>
    <nd ref="750820855"/>
    <nd ref="750820856"/>
    <nd ref="750820846"/>
    <tag k="amenity" v="hospital"/>
    <tag k="building" v="yes"/>
    <tag k="name" v="Городская поликлиника"/>
  </way>
  <way id="60355717" version="3" timestamp="2011-01-14T15:11:47Z" uid="206282" user="Amigo" changeset="6968011">
    <nd ref="750820846"/>
    <nd ref="750820852"/>
    <nd ref="750820855"/>
    <nd ref="750820856"/>
    <nd ref="750820846"/>
    <tag k="building" v="yes"/>
    <tag k="healthcare" v="clinic"/>
    <tag k="name" v="Городская поликлиника"/>
  </way>
  <way id="60355717" version="4" timestamp="2011-01-20T09:26:13Z" uid="298815" user="miha12" changeset="7028131">
    <nd ref="750820846"/>
    <nd ref="750820852"/>
    <nd ref="750820855"/>
    <nd ref="750820856"/>
    <nd ref="750820846"/>
    <tag k="amenity" v="hospital"/>
    <tag k="building" v="yes"/>
    <tag k="healthcare" v="clinic"/>
    <tag k="name" v="Городская поликлиника"/>
  </way>
  <way id="60355717" version="5" timestamp="2011-01-30T13:03:22Z" uid="24702" user="Dmitry &apos;MAD&apos; Artamonow" changeset="7133773">
    <nd ref="750820846"/>
    <nd ref="750820852"/>
    <nd ref="750820855"/>
    <nd ref="750820856"/>
    <nd ref="750820846"/>
    <tag k="addr:housenumber" v="2"/>
    <tag k="addr:street" v="улица Павлова"/>
    <tag k="amenity" v="hospital"/>
    <tag k="building" v="yes"/>
    <tag k="healthcare" v="clinic"/>
    <tag k="name" v="Городская поликлиника"/>
  </way>
  <way id="60355717" version="6" timestamp="2011-02-01T08:59:44Z" uid="206282" user="Amigo" changeset="7152663">
    <nd ref="750820846"/>
    <nd ref="750820852"/>
    <nd ref="750820855"/>
    <nd ref="750820856"/>
    <nd ref="750820846"/>
    <tag k="addr:housenumber" v="2"/>
    <tag k="addr:street" v="улица Павлова"/>
    <tag k="building" v="yes"/>
    <tag k="healthcare" v="clinic"/>
    <tag k="name" v="Городская поликлиника"/>
  </way>
  <way id="60355717" version="7" timestamp="2011-04-22T15:40:03Z" uid="440644" user="markhor" changeset="7935537">
    <nd ref="750820846"/>
    <nd ref="750820852"/>
    <nd ref="750820855"/>
    <nd ref="750820856"/>
    <nd ref="750820846"/>
    <tag k="addr:housenumber" v="2"/>
    <tag k="addr:street" v="улица Павлова"/>
    <tag k="amenity" v="hospital"/>
    <tag k="healthcare" v="clinic"/>
    <tag k="name" v="Городская поликлиника"/>
  </way>
  <way id="60355717" version="8" timestamp="2011-04-30T14:07:04Z" uid="298815" user="miha12" changeset="8011277">
    <nd ref="750820846"/>
    <nd ref="750820852"/>
    <nd ref="750820855"/>
    <nd ref="750820856"/>
    <nd ref="750820846"/>
    <tag k="addr:housenumber" v="2"/>
    <tag k="addr:street" v="улица Павлова"/>
    <tag k="amenity" v="hospital"/>
    <tag k="building" v="yes"/>
    <tag k="healthcare" v="clinic"/>
    <tag k="name" v="Городская поликлиника"/>
  </way>
  <way id="60355717" version="9" timestamp="2011-05-19T09:53:06Z" uid="260756" user="Felis Pimeja" changeset="8188127">
    <nd ref="750820846"/>
    <nd ref="750820852"/>
    <nd ref="750820855"/>
    <nd ref="750820856"/>
    <nd ref="1291455962"/>
    <nd ref="1291455922"/>
    <nd ref="750820846"/>
    <tag k="addr:housenumber" v="2"/>
    <tag k="addr:street" v="улица Павлова"/>
    <tag k="amenity" v="hospital"/>
    <tag k="building" v="yes"/>
    <tag k="healthcare" v="clinic"/>
    <tag k="name" v="Городская поликлиника"/>
  </way>
  <way id="60355717" version="10" timestamp="2011-09-04T09:15:25Z" uid="206282" user="Amigo" changeset="9206778">
    <nd ref="750820846"/>
    <nd ref="750820852"/>
    <nd ref="750820855"/>
    <nd ref="750820856"/>
    <nd ref="1291455962"/>
    <nd ref="1291455922"/>
    <nd ref="750820846"/>
    <tag k="addr:housenumber" v="2"/>
    <tag k="addr:street" v="улица Павлова"/>
    <tag k="building" v="hospital"/>
    <tag k="healthcare" v="clinic"/>
    <tag k="name" v="Городская поликлиника"/>
  </way>
  <way id="60355717" version="11" timestamp="2012-02-03T05:35:37Z" uid="440644" user="markhor" changeset="10573450">
    <nd ref="750820846"/>
    <nd ref="750820852"/>
    <nd ref="1616374334"/>
    <nd ref="750820855"/>
    <nd ref="750820856"/>
    <nd ref="1291455962"/>
    <nd ref="1291455922"/>
    <nd ref="750820846"/>
    <tag k="addr:housenumber" v="2"/>
    <tag k="addr:street" v="улица Павлова"/>
    <tag k="building" v="hospital"/>
    <tag k="building:levels" v="9"/>
    <tag k="healthcare" v="clinic"/>
    <tag k="name" v="Городская поликлиника"/>
  </way>
  <way id="60355718" version="1" timestamp="2010-05-27T13:26:15Z" uid="115477" user="wowik" changeset="4821948">
    <nd ref="750820860"/>
    <nd ref="750820862"/>
    <nd ref="750820864"/>
    <nd ref="750820866"/>
    <nd ref="750820868"/>
    <nd ref="750820870"/>
    <nd ref="750820872"/>
    <nd ref="750820874"/>
    <nd ref="750820876"/>
    <nd ref="750820878"/>
    <nd ref="750820880"/>
    <nd ref="750820881"/>
    <nd ref="750820860"/>
    <tag k="building" v="yes"/>
  </way>
  <way id="60355718" version="2" timestamp="2011-04-22T15:40:04Z" uid="440644" user="markhor" changeset="7935537">
    <nd ref="750820860"/>
    <nd ref="750820862"/>
    <nd ref="750820864"/>
    <nd ref="750820866"/>
    <nd ref="750820868"/>
    <nd ref="750820870"/>
    <nd ref="750820872"/>
    <nd ref="750820874"/>
    <nd ref="750820876"/>
    <nd ref="750820878"/>
    <nd ref="750820880"/>
    <nd ref="750820881"/>
    <nd ref="750820860"/>
    <tag k="amenity" v="hospital"/>
  </way>
  <way id="60355718" version="3" timestamp="2011-04-30T14:07:03Z" uid="298815" user="miha12" changeset="8011277">
    <nd ref="750820860"/>
    <nd ref="750820862"/>
    <nd ref="750820864"/>
    <nd ref="750820866"/>
    <nd ref="750820868"/>
    <nd ref="750820870"/>
    <nd ref="750820872"/>
    <nd ref="750820874"/>
    <nd ref="750820876"/>
    <nd ref="750820878"/>
    <nd ref="750820880"/>
    <nd ref="750820881"/>
    <nd ref="750820860"/>
    <tag k="amenity" v="hospital"/>
    <tag k="building" v="yes"/>
  </way>
  <way id="60355718" version="4" timestamp="2011-05-19T09:53:58Z" uid="260756" user="Felis Pimeja" changeset="8188127">
    <nd ref="1291455922"/>
    <nd ref="750820862"/>
    <nd ref="750820864"/>
    <nd ref="750820866"/>
    <nd ref="750820868"/>
    <nd ref="1291455928"/>
    <nd ref="1291455926"/>
    <nd ref="750820874"/>
    <nd ref="750820876"/>
    <nd ref="750820878"/>
    <nd ref="750820880"/>
    <nd ref="1291455962"/>
    <nd ref="1291455922"/>
    <tag k="amenity" v="hospital"/>
    <tag k="building" v="yes"/>
  </way>
  <way id="60355718" version="5" timestamp="2011-09-04T09:15:25Z" uid="206282" user="Amigo" changeset="9206778">
    <nd ref="1291455922"/>
    <nd ref="750820862"/>
    <nd ref="750820864"/>
    <nd ref="750820866"/>
    <nd ref="750820868"/>
    <nd ref="1291455928"/>
    <nd ref="1291455926"/>
    <nd ref="750820874"/>
    <nd ref="750820876"/>
    <nd ref="750820878"/>
    <nd ref="750820880"/>
    <nd ref="1291455962"/>
    <nd ref="1291455922"/>
    <tag k="building" v="hospital"/>
  </way>
  <way id="60355765" version="2" timestamp="2010-09-16T18:06:59Z" uid="16922" user="amai" changeset="5797747">
    <nd ref="750823516"/>
    <nd ref="750823305"/>
    <nd ref="491865903"/>
    <nd ref="914764485"/>
    <nd ref="914764689"/>
    <nd ref="485655211"/>
    <nd ref="914764449"/>
    <nd ref="621895277"/>
    <nd ref="621895278"/>
    <nd ref="621895285"/>
    <nd ref="621895284"/>
    <nd ref="257177678"/>
    <tag k="highway" v="trunk"/>
    <tag k="int_ref" v="AH12"/>
    <tag k="lanes" v="6"/>
    <tag k="name" v="ถนนมิตรภาพ"/>
    <tag k="name:en" v="Mittraphap Road"/>
    <tag k="name:th" v="ถนนมิตรภาพ"/>
    <tag k="ref" v="2"/>
    <tag k="source" v="GPS"/>
  </way>
  <way id="60355765" version="3" timestamp="2010-11-14T10:15:30Z" uid="104414" user="Willi2006" changeset="6365086">
    <nd ref="750823516"/>
    <nd ref="750823305"/>
    <nd ref="491865903"/>
    <nd ref="914764485"/>
    <nd ref="257177678"/>
    <tag k="highway" v="trunk"/>
    <tag k="int_ref" v="AH12"/>
    <tag k="lanes" v="3"/>
    <tag k="name" v="ถนนมิตรภาพ"/>
    <tag k="name:en" v="Mittraphap Road"/>
    <tag k="name:th" v="ถนนมิตรภาพ"/>
    <tag k="oneway" v="yes"/>
    <tag k="ref" v="2"/>
    <tag k="source" v="GPS; sign"/>
  </way>
  <way id="60355765" version="4" timestamp="2010-11-14T11:23:28Z" uid="104414" user="Willi2006" changeset="6365086">
    <nd ref="750823516"/>
    <nd ref="750823305"/>
    <nd ref="491865903"/>
    <nd ref="914764485"/>
    <nd ref="914764449"/>
    <nd ref="257177678"/>
    <tag k="fixme" v="U-turns missing"/>
    <tag k="highway" v="trunk"/>
    <tag k="int_ref" v="AH12"/>
    <tag k="lanes" v="3"/>
    <tag k="name" v="ถนนมิตรภาพ"/>
    <tag k="name:en" v="Mittraphap Road"/>
    <tag k="name:th" v="ถนนมิตรภาพ"/>
    <tag k="oneway" v="yes"/>
    <tag k="ref" v="2"/>
    <tag k="source" v="GPS; sign"/>
  </way>
  <way id="60355765" version="5" timestamp="2010-12-25T05:41:02Z" uid="104414" user="Willi2006" changeset="6758901">
    <nd ref="750823516"/>
    <nd ref="1063431853"/>
    <nd ref="750823305"/>
    <nd ref="491865903"/>
    <nd ref="1063432514"/>
    <nd ref="914764485"/>
    <nd ref="914764449"/>
    <nd ref="1063432154"/>
    <nd ref="257177678"/>
    <tag k="highway" v="trunk"/>
    <tag k="int_ref" v="AH12"/>
    <tag k="lanes" v="3"/>
    <tag k="name" v="ถนนมิตรภาพ"/>
    <tag k="name:en" v="Mittraphap Road"/>
    <tag k="name:th" v="ถนนมิตรภาพ"/>
    <tag k="oneway" v="yes"/>
    <tag k="ref" v="2"/>
    <tag k="source" v="GPS; sign"/>
  </way>
  <way id="60355765" version="6" timestamp="2011-08-10T11:11:57Z" uid="104414" user="Willi2006" changeset="8975393">
    <nd ref="750823516"/>
    <nd ref="1063431853"/>
    <nd ref="750823305"/>
    <nd ref="491865903"/>
    <nd ref="1063432514"/>
    <nd ref="1393617684"/>
    <nd ref="1063432154"/>
    <nd ref="1393617886"/>
    <tag k="highway" v="trunk"/>
    <tag k="int_ref" v="AH12"/>
    <tag k="lanes" v="3"/>
    <tag k="name" v="ถนนมิตรภาพ"/>
    <tag k="name:en" v="Mittraphap Road"/>
    <tag k="name:th" v="ถนนมิตรภาพ"/>
    <tag k="oneway" v="yes"/>
    <tag k="ref" v="2"/>
    <tag k="source" v="GPS; sign"/>
  </way>
  <way id="60355765" version="7" timestamp="2012-03-19T20:22:13Z" uid="61891" user="stephankn" changeset="11034378"/>
  <way id="60355787" version="1" timestamp="2010-05-27T13:30:07Z" uid="115477" user="wowik" changeset="4821962">
    <nd ref="750825316"/>
    <nd ref="750825319"/>
    <nd ref="750825323"/>
    <nd ref="750825327"/>
    <nd ref="750825329"/>
    <nd ref="750825332"/>
    <nd ref="750825334"/>
    <nd ref="750825335"/>
    <nd ref="750825338"/>
    <nd ref="750825342"/>
    <nd ref="750825344"/>
    <nd ref="750825347"/>
    <nd ref="750825316"/>
    <tag k="amenity" v="hospital"/>
    <tag k="landuse" v="construction"/>
  </way>
  <way id="60355787" version="2" timestamp="2011-01-14T15:11:46Z" uid="206282" user="Amigo" changeset="6968011">
    <nd ref="750825316"/>
    <nd ref="750825319"/>
    <nd ref="750825323"/>
    <nd ref="750825327"/>
    <nd ref="750825329"/>
    <nd ref="750825332"/>
    <nd ref="750825334"/>
    <nd ref="750825335"/>
    <nd ref="750825338"/>
    <nd ref="750825342"/>
    <nd ref="750825344"/>
    <nd ref="750825347"/>
    <nd ref="750825316"/>
    <tag k="landuse" v="construction"/>
  </way>
  <way id="60355787" version="3" timestamp="2012-02-03T05:35:38Z" uid="440644" user="markhor" changeset="10573450">
    <nd ref="750825316"/>
    <nd ref="750825319"/>
    <nd ref="750825323"/>
    <nd ref="750825327"/>
    <nd ref="750825329"/>
    <nd ref="750825332"/>
    <nd ref="750825334"/>
    <nd ref="750825335"/>
    <nd ref="750825338"/>
    <nd ref="750825342"/>
    <nd ref="750825344"/>
    <nd ref="750825347"/>
    <nd ref="750825316"/>
    <tag k="addr:housenumber" v="2"/>
    <tag k="addr:street" v="улица Павлова"/>
    <tag k="building" v="yes"/>
    <tag k="building:levels" v="9"/>
    <tag k="landuse" v="construction"/>
    <tag k="name" v="Хирургический корпус"/>
  </way>
  <way id="60355869" version="1" timestamp="2010-05-27T13:32:06Z" uid="6269" user="Mueck" changeset="4821971">
    <nd ref="750828927"/>
    <nd ref="694854101"/>
    <nd ref="694854073"/>
    <nd ref="694854034"/>
    <nd ref="694854057"/>
    <nd ref="694853999"/>
    <nd ref="694854025"/>
    <nd ref="694853965"/>
    <nd ref="694853988"/>
    <nd ref="694854094"/>
    <nd ref="694853967"/>
    <tag k="railway" v="rail"/>
  </way>
  <way id="60355869" version="2" timestamp="2010-05-27T13:40:17Z" uid="6269" user="Mueck" changeset="4821971">
    <nd ref="750828927"/>
    <nd ref="694854101"/>
    <nd ref="694854073"/>
    <nd ref="694854034"/>
    <nd ref="750839101"/>
    <nd ref="694854057"/>
    <nd ref="694853999"/>
    <nd ref="694854025"/>
    <nd ref="694853965"/>
    <nd ref="694853988"/>
    <nd ref="694854094"/>
    <nd ref="694853967"/>
    <tag k="railway" v="rail"/>
  </way>
  <way id="60355869" version="3" timestamp="2010-05-27T13:49:01Z" uid="6269" user="Mueck" changeset="4822139">
    <nd ref="750828927"/>
    <nd ref="694854101"/>
    <nd ref="694854073"/>
    <nd ref="694854034"/>
    <nd ref="750839101"/>
    <nd ref="694854057"/>
    <nd ref="694853999"/>
    <nd ref="694854025"/>
    <nd ref="694853965"/>
    <nd ref="750857613"/>
    <nd ref="694853988"/>
    <nd ref="694854094"/>
    <nd ref="694853967"/>
    <tag k="railway" v="rail"/>
  </way>
  <way id="60355869" version="4" timestamp="2010-05-27T13:57:29Z" uid="6269" user="Mueck" changeset="4822139">
    <nd ref="750828927"/>
    <nd ref="694854101"/>
    <nd ref="694854073"/>
    <nd ref="694854034"/>
    <nd ref="750839101"/>
    <nd ref="694854057"/>
    <nd ref="694853999"/>
    <nd ref="694854025"/>
    <nd ref="694853965"/>
    <nd ref="750857613"/>
    <nd ref="694853988"/>
    <nd ref="694853967"/>
    <tag k="railway" v="rail"/>
  </way>
  <way id="60355869" version="5" timestamp="2011-03-05T23:00:59Z" uid="6269" user="Mueck" changeset="7468724">
    <nd ref="750828927"/>
    <nd ref="1188199453"/>
    <nd ref="694854101"/>
    <nd ref="1188199440"/>
    <nd ref="694854073"/>
    <nd ref="694854034"/>
    <nd ref="1188199623"/>
    <nd ref="1188199761"/>
    <nd ref="750839101"/>
    <nd ref="1188199773"/>
    <nd ref="1188199863"/>
    <nd ref="694854057"/>
    <nd ref="1188199585"/>
    <nd ref="694853999"/>
    <nd ref="1188199536"/>
    <nd ref="1188199531"/>
    <nd ref="694854025"/>
    <nd ref="1188199820"/>
    <nd ref="694853965"/>
    <nd ref="750857613"/>
    <nd ref="694853988"/>
    <nd ref="694853967"/>
    <tag k="railway" v="rail"/>
  </way>
  <way id="60355869" version="6" timestamp="2011-03-05T23:02:25Z" uid="6269" user="Mueck" changeset="7468735">
    <nd ref="750828927"/>
    <nd ref="1188199453"/>
    <nd ref="694854101"/>
    <nd ref="1188199440"/>
    <nd ref="694854073"/>
    <nd ref="694854034"/>
    <nd ref="1188199623"/>
    <nd ref="1188199761"/>
    <nd ref="750839101"/>
    <nd ref="1188199773"/>
    <nd ref="1188199863"/>
    <nd ref="694854057"/>
    <nd ref="1188199585"/>
    <nd ref="694853999"/>
    <nd ref="1188199536"/>
    <nd ref="1188199531"/>
    <nd ref="694854025"/>
    <nd ref="1188199820"/>
    <nd ref="694853965"/>
    <nd ref="750857613"/>
    <nd ref="694853988"/>
    <nd ref="694853967"/>
    <tag k="electrified" v="contact_line"/>
    <tag k="frequency" v="16.7"/>
    <tag k="gauge" v="1435"/>
    <tag k="operator" v="DB Netz"/>
    <tag k="railway" v="rail"/>
    <tag k="tracks" v="1"/>
    <tag k="usage" v="main"/>
    <tag k="voltage" v="15000"/>
    <tag k="workrules" v="EBO"/>
  </way>
  <way id="60355869" version="7" timestamp="2011-11-10T21:55:06Z" uid="165061" user="keinname" changeset="9791318"/>
</osm>
