<?xml version='1.0' encoding='UTF-8'?>
<osm version="0.6" generator="libosmium/2.20.0">
  <way id="60776404" version="2" timestamp="2010-07-08T02:32:37Z" uid="74617" user="JohnSmith" changeset="5163091">
    <nd ref="31998665"/>
    <nd ref="31998672"/>
    <nd ref="31998673"/>
    <nd ref="31998666"/>
    <tag k="highway" v="residential"/>
    <tag k="maxspeed" v="50"/>
    <tag k="maxspeed:source" v="default residential speed limit in Australia"/>
    <tag k="name" v="Albert Crescent"/>
  </way>
  <way id="60776404" version="3" timestamp="2012-01-20T09:07:39Z" uid="147510" user="woodpeck_fixbot" changeset="10443754">
    <nd ref="31998665"/>
    <nd ref="31998672"/>
    <nd ref="31998673"/>
    <nd ref="31998666"/>
    <tag k="highway" v="residential"/>
    <tag k="name" v="Albert Crescent"/>
  </way>
  <way id="60776405" version="2" timestamp="2010-07-08T02:35:11Z" uid="74617" user="JohnSmith" changeset="5163091">
    <nd ref="37815338"/>
    <nd ref="191520095"/>
    <nd ref="37815599"/>
    <tag k="highway" v="residential"/>
    <tag k="lcn" v="yes"/>
    <tag k="maxspeed" v="50"/>
    <tag k="maxspeed:source" v="default residential speed limit in Australia"/>
    <tag k="name" v="Webb Street"/>
    <tag k="source:name" v="survey"/>
  </way>
  <way id="60776405" version="3" timestamp="2012-01-20T09:07:42Z" uid="147510" user="woodpeck_fixbot" changeset="10443754">
    <nd ref="37815338"/>
    <nd ref="191520095"/>
    <nd ref="37815599"/>
    <tag k="highway" v="residential"/>
    <tag k="lcn" v="yes"/>
    <tag k="name" v="Webb Street"/>
    <tag k="source:name" v="survey"/>
  </way>
  <way id="60776407" version="2" timestamp="2010-07-08T02:40:08Z" uid="74617" user="JohnSmith" changeset="5163091">
    <nd ref="31998658"/>
    <nd ref="191520113"/>
    <nd ref="641297257"/>
    <nd ref="31998655"/>
    <tag k="highway" v="residential"/>
    <tag k="maxspeed" v="50"/>
    <tag k="maxspeed:source" v="default residential speed limit in Australia"/>
    <tag k="name" v="Young Street"/>
    <tag k="restriction" v="school_zone"/>
    <tag k="source" v="survey"/>
  </way>
  <way id="60776407" version="3" timestamp="2010-10-12T08:44:09Z" uid="20949" user="Ebenezer" changeset="6018803">
    <nd ref="31998658"/>
    <nd ref="191520113"/>
    <nd ref="641297257"/>
    <nd ref="31998655"/>
    <tag k="highway" v="residential"/>
    <tag k="lcn" v="yes"/>
    <tag k="maxspeed" v="50"/>
    <tag k="maxspeed:source" v="default residential speed limit in Australia"/>
    <tag k="name" v="Young Street"/>
    <tag k="restriction" v="school_zone"/>
    <tag k="source" v="survey"/>
  </way>
  <way id="60776407" version="4" timestamp="2012-01-20T09:07:45Z" uid="147510" user="woodpeck_fixbot" changeset="10443754">
    <nd ref="31998658"/>
    <nd ref="191520113"/>
    <nd ref="641297257"/>
    <nd ref="31998655"/>
    <tag k="highway" v="residential"/>
    <tag k="lcn" v="yes"/>
    <tag k="name" v="Young Street"/>
    <tag k="restriction" v="school_zone"/>
    <tag k="source" v="survey"/>
  </way>
  <way id="60776408" version="2" timestamp="2010-07-08T02:40:32Z" uid="74617" user="JohnSmith" changeset="5163091">
    <nd ref="37812879"/>
    <nd ref="641297283"/>
    <tag k="highway" v="residential"/>
    <tag k="lcn" v="yes"/>
    <tag k="maxspeed" v="50"/>
    <tag k="maxspeed:source" v="default residential speed limit in Australia"/>
    <tag k="name" v="Young Street"/>
    <tag k="restriction" v="school_zone"/>
    <tag k="source" v="survey"/>
  </way>
  <way id="60776408" version="3" timestamp="2012-01-20T09:07:47Z" uid="147510" user="woodpeck_fixbot" changeset="10443754">
    <nd ref="37812879"/>
    <nd ref="641297283"/>
    <tag k="highway" v="residential"/>
    <tag k="lcn" v="yes"/>
    <tag k="name" v="Young Street"/>
    <tag k="restriction" v="school_zone"/>
    <tag k="source" v="survey"/>
  </way>
</osm>
