<?xml version='1.0' encoding='UTF-8'?>
<osm version="0.6" generator="libosmium/2.20.0">
  <way id="60960114" version="4" timestamp="2010-07-06T10:09:30Z" uid="74617" user="JohnSmith" changeset="5147679">
    <nd ref="763106348"/>
    <nd ref="128572129"/>
    <nd ref="249762149"/>
    <tag k="highway" v="residential"/>
    <tag k="maxspeed" v="50"/>
    <tag k="maxspeed:source" v="default residential speed limit in Australia"/>
    <tag k="name" v="Blackwood Avenue"/>
    <tag k="surface" v="asphalt"/>
  </way>
  <way id="60960114" version="5" timestamp="2010-11-20T08:17:31Z" uid="22094" user="Chadzopkyo" changeset="6412260">
    <nd ref="763106348"/>
    <nd ref="128572129"/>
    <nd ref="249762149"/>
    <tag k="highway" v="residential"/>
    <tag k="maxspeed" v="50"/>
    <tag k="name" v="Blackwood Avenue"/>
    <tag k="source" v="GPS"/>
    <tag k="surface" v="asphalt"/>
  </way>
  <way id="60960114" version="6" timestamp="2012-01-20T09:13:48Z" uid="147510" user="woodpeck_fixbot" changeset="10443754">
    <nd ref="763106348"/>
    <nd ref="128572129"/>
    <nd ref="249762149"/>
    <tag k="highway" v="residential"/>
    <tag k="name" v="Blackwood Avenue"/>
    <tag k="source" v="GPS"/>
    <tag k="surface" v="asphalt"/>
  </way>
  <way id="60960115" version="2" timestamp="2010-07-06T09:52:26Z" uid="74617" user="JohnSmith" changeset="5147679">
    <nd ref="388413244"/>
    <nd ref="128570790"/>
    <tag k="highway" v="residential"/>
    <tag k="maxspeed" v="50"/>
    <tag k="maxspeed:source" v="default residential speed limit in Australia"/>
    <tag k="name" v="Blackwood Avenue"/>
    <tag k="surface" v="asphalt"/>
  </way>
  <way id="60960115" version="3" timestamp="2010-11-20T08:17:38Z" uid="22094" user="Chadzopkyo" changeset="6412260">
    <nd ref="388413244"/>
    <nd ref="128570790"/>
    <tag k="highway" v="residential"/>
    <tag k="maxspeed" v="50"/>
    <tag k="name" v="Blackwood Avenue"/>
    <tag k="source" v="GPS"/>
    <tag k="surface" v="asphalt"/>
  </way>
  <way id="60960115" version="4" timestamp="2012-01-20T09:13:50Z" uid="147510" user="woodpeck_fixbot" changeset="10443754">
    <nd ref="388413244"/>
    <nd ref="128570790"/>
    <tag k="highway" v="residential"/>
    <tag k="name" v="Blackwood Avenue"/>
    <tag k="source" v="GPS"/>
    <tag k="surface" v="asphalt"/>
  </way>
  <way id="60960470" version="3" timestamp="2010-07-09T03:46:45Z" uid="74617" user="JohnSmith" changeset="5170825">
    <nd ref="762861554"/>
    <nd ref="763163047"/>
    <nd ref="763113385"/>
    <nd ref="763113386"/>
    <nd ref="763113387"/>
    <nd ref="763113388"/>
    <nd ref="763113389"/>
    <nd ref="763113390"/>
    <nd ref="762087162"/>
    <nd ref="763113391"/>
    <nd ref="763113392"/>
    <nd ref="763113393"/>
    <nd ref="763113394"/>
    <nd ref="763113395"/>
    <nd ref="763113396"/>
    <nd ref="762861538"/>
    <tag k="highway" v="residential"/>
    <tag k="maxspeed" v="50"/>
    <tag k="maxspeed:source" v="default residential speed limit in Australia"/>
    <tag k="name" v="Ballanoma Green"/>
    <tag k="source" v="nearmap"/>
  </way>
  <way id="60960470" version="4" timestamp="2012-01-20T09:13:52Z" uid="147510" user="woodpeck_fixbot" changeset="10443754">
    <nd ref="762861554"/>
    <nd ref="763163047"/>
    <nd ref="763113385"/>
    <nd ref="763113386"/>
    <nd ref="763113387"/>
    <nd ref="763113388"/>
    <nd ref="763113389"/>
    <nd ref="763113390"/>
    <nd ref="762087162"/>
    <nd ref="763113391"/>
    <nd ref="763113392"/>
    <nd ref="763113393"/>
    <nd ref="763113394"/>
    <nd ref="763113395"/>
    <nd ref="763113396"/>
    <nd ref="762861538"/>
    <tag k="highway" v="residential"/>
    <tag k="name" v="Ballanoma Green"/>
    <tag k="source" v="nearmap"/>
  </way>
  <way id="60960508" version="2" timestamp="2010-07-09T03:49:46Z" uid="74617" user="JohnSmith" changeset="5170825">
    <nd ref="746433184"/>
    <nd ref="763113562"/>
    <nd ref="763113563"/>
    <nd ref="763113564"/>
    <nd ref="763113565"/>
    <nd ref="763113566"/>
    <nd ref="763113567"/>
    <nd ref="763113568"/>
    <nd ref="762095019"/>
    <tag k="highway" v="residential"/>
    <tag k="maxspeed" v="50"/>
    <tag k="maxspeed:source" v="default residential speed limit in Australia"/>
    <tag k="name" v="Juggal Close"/>
    <tag k="source" v="nearmap"/>
  </way>
  <way id="60960508" version="3" timestamp="2012-01-20T09:13:53Z" uid="147510" user="woodpeck_fixbot" changeset="10443754">
    <nd ref="746433184"/>
    <nd ref="763113562"/>
    <nd ref="763113563"/>
    <nd ref="763113564"/>
    <nd ref="763113565"/>
    <nd ref="763113566"/>
    <nd ref="763113567"/>
    <nd ref="763113568"/>
    <nd ref="762095019"/>
    <tag k="highway" v="residential"/>
    <tag k="name" v="Juggal Close"/>
    <tag k="source" v="nearmap"/>
  </way>
  <way id="60960890" version="2" timestamp="2010-08-13T09:32:02Z" uid="4467" user="Rosscoe" changeset="5480202">
    <nd ref="297865012"/>
    <nd ref="450519321"/>
    <nd ref="450519322"/>
    <nd ref="450519323"/>
    <nd ref="450519324"/>
    <nd ref="450519325"/>
    <nd ref="450519327"/>
    <nd ref="763121894"/>
    <nd ref="763121895"/>
    <nd ref="763121858"/>
    <tag k="highway" v="unclassified"/>
    <tag k="maxspeed" v="100"/>
    <tag k="name" v="Burra Gorge Road"/>
    <tag k="source" v="landsat"/>
    <tag k="source_ref" v="http://osm.beldin.org/DSCF1514.JPG"/>
    <tag k="surface" v="unpaved"/>
  </way>
</osm>
