<?xml version='1.0' encoding='UTF-8'?>
<osm version="0.6" generator="libosmium/2.20.0">
  <way id="61072045" version="8" timestamp="2010-08-12T11:51:07Z" uid="4467" user="Rosscoe" changeset="5472481">
    <nd ref="280897368"/>
    <nd ref="280897498"/>
    <nd ref="280897477"/>
    <nd ref="280897382"/>
    <nd ref="280207661"/>
    <nd ref="839606763"/>
    <nd ref="839606764"/>
    <nd ref="100839873"/>
    <tag k="cycleway" v="lane"/>
    <tag k="highway" v="tertiary"/>
    <tag k="maxspeed" v="60"/>
    <tag k="name" v="Chadstone Road"/>
    <tag k="oneway" v="yes"/>
    <tag k="source" v="nearmap"/>
  </way>
  <way id="61072045" version="9" timestamp="2010-08-29T00:11:47Z" uid="320632" user="Zulu99" changeset="5621413">
    <nd ref="280897368"/>
    <nd ref="280897498"/>
    <nd ref="280897477"/>
    <nd ref="280897382"/>
    <nd ref="280207661"/>
    <nd ref="839606763"/>
    <nd ref="839606764"/>
    <nd ref="100839873"/>
    <tag k="highway" v="tertiary"/>
    <tag k="maxspeed" v="60"/>
    <tag k="name" v="Chadstone Road"/>
    <tag k="oneway" v="yes"/>
    <tag k="source" v="nearmap"/>
  </way>
  <way id="61072045" version="10" timestamp="2011-06-07T04:35:18Z" uid="466543" user="PJKs_shirt" changeset="8366568">
    <nd ref="280897368"/>
    <nd ref="280897498"/>
    <nd ref="280897477"/>
    <nd ref="280897382"/>
    <nd ref="280207661"/>
    <tag k="highway" v="tertiary"/>
    <tag k="maxspeed" v="60"/>
    <tag k="name" v="Chadstone Road"/>
    <tag k="oneway" v="yes"/>
    <tag k="source" v="nearmap"/>
  </way>
  <way id="61072045" version="11" timestamp="2011-06-08T06:46:38Z" uid="466543" user="PJKs_shirt" changeset="8376410">
    <nd ref="280897368"/>
    <nd ref="280897498"/>
    <tag k="highway" v="tertiary"/>
    <tag k="maxspeed" v="60"/>
    <tag k="name" v="Chadstone Road"/>
    <tag k="oneway" v="yes"/>
    <tag k="source" v="nearmap"/>
  </way>
</osm>
