<?xml version='1.0' encoding='UTF-8'?>
<osm version="0.6" generator="libosmium/2.20.0">
  <way id="61243265" version="2" timestamp="2011-01-26T19:12:59Z" uid="6269" user="Mueck" changeset="7094659">
    <nd ref="15843290"/>
    <nd ref="567711278"/>
    <nd ref="1122250644"/>
    <nd ref="15843298"/>
    <nd ref="497114761"/>
    <nd ref="15843299"/>
    <nd ref="28199625"/>
    <nd ref="15843292"/>
    <tag k="highway" v="secondary"/>
    <tag k="name" v="Karlsruher Straße"/>
    <tag k="note" v="im SHP des NVK: II"/>
    <tag k="oneway" v="yes"/>
    <tag k="ref" v="L 561"/>
  </way>
  <way id="61243265" version="3" timestamp="2012-03-11T19:51:51Z" uid="110838" user="Bernhard W" changeset="10947440">
    <nd ref="15843290"/>
    <nd ref="567711278"/>
    <nd ref="1670887796"/>
    <nd ref="1122250644"/>
    <nd ref="15843298"/>
    <nd ref="497114761"/>
    <nd ref="15843299"/>
    <nd ref="28199625"/>
    <nd ref="15843292"/>
    <tag k="highway" v="secondary"/>
    <tag k="name" v="Karlsruher Straße"/>
    <tag k="note" v="im SHP des NVK: II"/>
    <tag k="oneway" v="yes"/>
    <tag k="ref" v="L 561"/>
  </way>
  <way id="61243265" version="4" timestamp="2012-03-28T15:53:27Z" uid="35468" user="Blunauer" changeset="11128371">
    <nd ref="15843290"/>
    <nd ref="567711278"/>
    <nd ref="1670887796"/>
    <nd ref="1122250644"/>
    <nd ref="15843298"/>
    <nd ref="1694895390"/>
    <nd ref="15843299"/>
    <nd ref="28199625"/>
    <nd ref="15843292"/>
    <tag k="highway" v="secondary"/>
    <tag k="name" v="Karlsruher Straße"/>
    <tag k="note" v="im SHP des NVK: II"/>
    <tag k="oneway" v="yes"/>
    <tag k="ref" v="L 561"/>
  </way>
  <way id="61243272" version="4" timestamp="2011-03-23T19:29:49Z" uid="6269" user="Mueck" changeset="7649358">
    <nd ref="30483015"/>
    <nd ref="14915555"/>
    <nd ref="346615059"/>
    <tag k="highway" v="primary"/>
    <tag k="lanes" v="4"/>
    <tag k="motorroad" v="no"/>
    <tag k="oneway" v="yes"/>
    <tag k="ref" v="B 3"/>
  </way>
  <way id="61243272" version="5" timestamp="2011-10-08T18:22:18Z" uid="4499" user="Jochen Topf" changeset="9505314">
    <nd ref="30483015"/>
    <nd ref="14915555"/>
    <nd ref="346615059"/>
    <tag k="highway" v="primary"/>
    <tag k="lanes" v="4"/>
    <tag k="motorroad" v="no"/>
    <tag k="oneway" v="yes"/>
    <tag k="ref" v="B 3"/>
    <tag k="tmc" v="DE:22714-53066"/>
  </way>
  <way id="61243272" version="6" timestamp="2011-10-13T15:10:23Z" uid="4499" user="Jochen Topf" changeset="9548007">
    <nd ref="30483015"/>
    <nd ref="14915555"/>
    <nd ref="346615059"/>
    <tag k="highway" v="primary"/>
    <tag k="lanes" v="4"/>
    <tag k="motorroad" v="no"/>
    <tag k="oneway" v="yes"/>
    <tag k="ref" v="B 3"/>
  </way>
  <way id="61243276" version="3" timestamp="2010-09-17T18:58:06Z" uid="6269" user="Mueck" changeset="5806244">
    <nd ref="29847307"/>
    <nd ref="267986107"/>
    <nd ref="29847304"/>
    <tag k="highway" v="secondary"/>
    <tag k="maxspeed" v="60"/>
    <tag k="name" v="Herrenalber Straße"/>
    <tag k="note" v="im SHP des NVK: II"/>
    <tag k="oneway" v="yes"/>
    <tag k="ref" v="L 561"/>
  </way>
  <way id="61243276" version="4" timestamp="2011-10-14T09:21:34Z" uid="4499" user="Jochen Topf" changeset="9553819">
    <nd ref="29847307"/>
    <nd ref="267986107"/>
    <nd ref="29847304"/>
    <tag k="highway" v="secondary"/>
    <tag k="maxspeed" v="60"/>
    <tag k="name" v="Herrenalber Straße"/>
    <tag k="note" v="im SHP des NVK: II"/>
    <tag k="oneway" v="yes"/>
    <tag k="ref" v="L 561"/>
    <tag k="tmc" v="DE:53077+53078"/>
  </way>
  <way id="61243276" version="5" timestamp="2011-11-10T19:18:33Z" uid="165061" user="keinname" changeset="9791318"/>
  <way id="61243285" version="2" timestamp="2011-01-26T17:56:13Z" uid="6269" user="Mueck" changeset="7094659">
    <nd ref="29847303"/>
    <nd ref="15843301"/>
    <nd ref="30623409"/>
    <nd ref="15750935"/>
    <nd ref="25186252"/>
    <nd ref="25187588"/>
    <nd ref="15843285"/>
    <nd ref="1122143082"/>
    <nd ref="1122143092"/>
    <nd ref="1122142692"/>
    <nd ref="15843283"/>
    <nd ref="1122142976"/>
    <nd ref="15843280"/>
    <nd ref="1122142754"/>
    <nd ref="1122143021"/>
    <nd ref="15843271"/>
    <tag k="highway" v="secondary"/>
    <tag k="lanes" v="2"/>
    <tag k="maxspeed" v="60"/>
    <tag k="name" v="Herrenalber Straße"/>
    <tag k="note" v="im SHP des NVK: II"/>
    <tag k="oneway" v="yes"/>
    <tag k="ref" v="L 561"/>
  </way>
  <way id="61243285" version="3" timestamp="2011-01-26T18:08:09Z" uid="6269" user="Mueck" changeset="7094659">
    <nd ref="29847303"/>
    <nd ref="15843301"/>
    <nd ref="30623409"/>
    <nd ref="15750935"/>
    <nd ref="25186252"/>
    <nd ref="25187588"/>
    <nd ref="1122157907"/>
    <nd ref="1122157899"/>
    <nd ref="1122157966"/>
    <nd ref="1122157971"/>
    <nd ref="1122157962"/>
    <nd ref="1122157926"/>
    <nd ref="1122157964"/>
    <nd ref="15843285"/>
    <nd ref="1122143082"/>
    <nd ref="1122143092"/>
    <nd ref="1122142692"/>
    <nd ref="15843283"/>
    <nd ref="1122142976"/>
    <nd ref="15843280"/>
    <nd ref="1122142754"/>
    <nd ref="1122143021"/>
    <nd ref="15843271"/>
    <tag k="highway" v="secondary"/>
    <tag k="lanes" v="2"/>
    <tag k="maxspeed" v="60"/>
    <tag k="name" v="Herrenalber Straße"/>
    <tag k="note" v="im SHP des NVK: II"/>
    <tag k="oneway" v="yes"/>
    <tag k="ref" v="L 561"/>
  </way>
  <way id="61243285" version="4" timestamp="2011-01-26T18:24:43Z" uid="6269" user="Mueck" changeset="7094659">
    <nd ref="29847303"/>
    <nd ref="15843301"/>
    <nd ref="1122179604"/>
    <nd ref="1122179664"/>
    <nd ref="30623409"/>
    <nd ref="1122179617"/>
    <nd ref="15750935"/>
    <nd ref="25186252"/>
    <nd ref="1122179543"/>
    <nd ref="25187588"/>
    <nd ref="1122179578"/>
    <nd ref="1122157907"/>
    <nd ref="1122157899"/>
    <nd ref="1122157966"/>
    <nd ref="1122157971"/>
    <nd ref="1122157962"/>
    <nd ref="1122157926"/>
    <nd ref="1122157964"/>
    <nd ref="15843285"/>
    <nd ref="1122143082"/>
    <nd ref="1122143092"/>
    <nd ref="1122142692"/>
    <nd ref="15843283"/>
    <nd ref="1122142976"/>
    <nd ref="15843280"/>
    <nd ref="1122142754"/>
    <nd ref="1122143021"/>
    <nd ref="15843271"/>
    <tag k="highway" v="secondary"/>
    <tag k="lanes" v="2"/>
    <tag k="maxspeed" v="60"/>
    <tag k="name" v="Herrenalber Straße"/>
    <tag k="note" v="im SHP des NVK: II"/>
    <tag k="oneway" v="yes"/>
    <tag k="ref" v="L 561"/>
  </way>
  <way id="61243285" version="5" timestamp="2011-01-26T18:43:02Z" uid="6269" user="Mueck" changeset="7094659">
    <nd ref="29847303"/>
    <nd ref="15843301"/>
    <nd ref="1122209091"/>
    <nd ref="1122179604"/>
    <nd ref="1122179664"/>
    <nd ref="30623409"/>
    <nd ref="1122179617"/>
    <nd ref="15750935"/>
    <nd ref="25186252"/>
    <nd ref="1122179543"/>
    <nd ref="25187588"/>
    <nd ref="1122179578"/>
    <nd ref="1122157907"/>
    <nd ref="1122157899"/>
    <nd ref="1122157966"/>
    <nd ref="1122157971"/>
    <nd ref="1122157962"/>
    <nd ref="1122157926"/>
    <nd ref="1122157964"/>
    <nd ref="15843285"/>
    <nd ref="1122143082"/>
    <nd ref="1122143092"/>
    <nd ref="1122142692"/>
    <nd ref="15843283"/>
    <nd ref="1122142976"/>
    <nd ref="15843280"/>
    <nd ref="1122142754"/>
    <nd ref="1122143021"/>
    <nd ref="15843271"/>
    <tag k="highway" v="secondary"/>
    <tag k="lanes" v="2"/>
    <tag k="maxspeed" v="60"/>
    <tag k="name" v="Herrenalber Straße"/>
    <tag k="note" v="im SHP des NVK: II"/>
    <tag k="oneway" v="yes"/>
    <tag k="ref" v="L 561"/>
  </way>
  <way id="61243285" version="6" timestamp="2011-01-26T18:59:41Z" uid="6269" user="Mueck" changeset="7094659">
    <nd ref="29847303"/>
    <nd ref="1122235226"/>
    <nd ref="1122235258"/>
    <nd ref="1122235352"/>
    <nd ref="15843301"/>
    <nd ref="1122209091"/>
    <nd ref="1122179604"/>
    <nd ref="1122179664"/>
    <nd ref="30623409"/>
    <nd ref="1122179617"/>
    <nd ref="15750935"/>
    <nd ref="25186252"/>
    <nd ref="1122179543"/>
    <nd ref="25187588"/>
    <nd ref="1122179578"/>
    <nd ref="1122157907"/>
    <nd ref="1122157899"/>
    <nd ref="1122157966"/>
    <nd ref="1122157971"/>
    <nd ref="1122157962"/>
    <nd ref="1122157926"/>
    <nd ref="1122157964"/>
    <nd ref="15843285"/>
    <nd ref="1122143082"/>
    <nd ref="1122143092"/>
    <nd ref="1122142692"/>
    <nd ref="15843283"/>
    <nd ref="1122142976"/>
    <nd ref="15843280"/>
    <nd ref="1122142754"/>
    <nd ref="1122143021"/>
    <nd ref="15843271"/>
    <tag k="highway" v="secondary"/>
    <tag k="lanes" v="2"/>
    <tag k="maxspeed" v="60"/>
    <tag k="name" v="Herrenalber Straße"/>
    <tag k="note" v="im SHP des NVK: II"/>
    <tag k="oneway" v="yes"/>
    <tag k="ref" v="L 561"/>
  </way>
  <way id="61243285" version="7" timestamp="2011-10-08T18:22:23Z" uid="4499" user="Jochen Topf" changeset="9505314">
    <nd ref="29847303"/>
    <nd ref="1122235226"/>
    <nd ref="1122235258"/>
    <nd ref="1122235352"/>
    <nd ref="15843301"/>
    <nd ref="1122209091"/>
    <nd ref="1122179604"/>
    <nd ref="1122179664"/>
    <nd ref="30623409"/>
    <nd ref="1122179617"/>
    <nd ref="15750935"/>
    <nd ref="25186252"/>
    <nd ref="1122179543"/>
    <nd ref="25187588"/>
    <nd ref="1122179578"/>
    <nd ref="1122157907"/>
    <nd ref="1122157899"/>
    <nd ref="1122157966"/>
    <nd ref="1122157971"/>
    <nd ref="1122157962"/>
    <nd ref="1122157926"/>
    <nd ref="1122157964"/>
    <nd ref="15843285"/>
    <nd ref="1122143082"/>
    <nd ref="1122143092"/>
    <nd ref="1122142692"/>
    <nd ref="15843283"/>
    <nd ref="1122142976"/>
    <nd ref="15843280"/>
    <nd ref="1122142754"/>
    <nd ref="1122143021"/>
    <nd ref="15843271"/>
    <tag k="highway" v="secondary"/>
    <tag k="lanes" v="2"/>
    <tag k="maxspeed" v="60"/>
    <tag k="name" v="Herrenalber Straße"/>
    <tag k="note" v="im SHP des NVK: II"/>
    <tag k="oneway" v="yes"/>
    <tag k="ref" v="L 561"/>
    <tag k="tmc" v="DE:53077+53078"/>
  </way>
  <way id="61243285" version="8" timestamp="2011-10-14T09:21:35Z" uid="4499" user="Jochen Topf" changeset="9553819">
    <nd ref="29847303"/>
    <nd ref="1122235226"/>
    <nd ref="1122235258"/>
    <nd ref="1122235352"/>
    <nd ref="15843301"/>
    <nd ref="1122209091"/>
    <nd ref="1122179604"/>
    <nd ref="1122179664"/>
    <nd ref="30623409"/>
    <nd ref="1122179617"/>
    <nd ref="15750935"/>
    <nd ref="25186252"/>
    <nd ref="1122179543"/>
    <nd ref="25187588"/>
    <nd ref="1122179578"/>
    <nd ref="1122157907"/>
    <nd ref="1122157899"/>
    <nd ref="1122157966"/>
    <nd ref="1122157971"/>
    <nd ref="1122157962"/>
    <nd ref="1122157926"/>
    <nd ref="1122157964"/>
    <nd ref="15843285"/>
    <nd ref="1122143082"/>
    <nd ref="1122143092"/>
    <nd ref="1122142692"/>
    <nd ref="15843283"/>
    <nd ref="1122142976"/>
    <nd ref="15843280"/>
    <nd ref="1122142754"/>
    <nd ref="1122143021"/>
    <nd ref="15843271"/>
    <tag k="highway" v="secondary"/>
    <tag k="lanes" v="2"/>
    <tag k="maxspeed" v="60"/>
    <tag k="name" v="Herrenalber Straße"/>
    <tag k="note" v="im SHP des NVK: II"/>
    <tag k="oneway" v="yes"/>
    <tag k="ref" v="L 561"/>
    <tag k="tmc" v="DE:53078-53077"/>
  </way>
  <way id="61243285" version="9" timestamp="2012-02-17T20:35:33Z" uid="60137" user="michael2402" changeset="10714902">
    <nd ref="29847303"/>
    <nd ref="1122235226"/>
    <nd ref="1122235258"/>
    <nd ref="1122235352"/>
    <nd ref="15843301"/>
    <nd ref="1122209091"/>
    <nd ref="1122179604"/>
    <nd ref="1122179664"/>
    <nd ref="30623409"/>
    <nd ref="1122179617"/>
    <nd ref="1636969930"/>
    <nd ref="15750935"/>
    <nd ref="25186252"/>
    <nd ref="1122179543"/>
    <nd ref="25187588"/>
    <nd ref="1122179578"/>
    <nd ref="1122157907"/>
    <nd ref="1122157899"/>
    <nd ref="1122157966"/>
    <nd ref="1122157971"/>
    <nd ref="1122157962"/>
    <nd ref="1122157926"/>
    <nd ref="1122157964"/>
    <nd ref="15843285"/>
    <nd ref="1122143082"/>
    <nd ref="1122143092"/>
    <nd ref="1122142692"/>
    <nd ref="15843283"/>
    <nd ref="1122142976"/>
    <nd ref="15843280"/>
    <nd ref="1122142754"/>
    <nd ref="1122143021"/>
    <nd ref="15843271"/>
    <tag k="highway" v="secondary"/>
    <tag k="lanes" v="2"/>
    <tag k="maxspeed" v="60"/>
    <tag k="name" v="Herrenalber Straße"/>
    <tag k="note" v="im SHP des NVK: II"/>
    <tag k="oneway" v="yes"/>
    <tag k="ref" v="L 561"/>
    <tag k="tmc" v="DE:53078-53077"/>
  </way>
  <way id="61243285" version="10" timestamp="2012-03-28T16:36:52Z" uid="35468" user="Blunauer" changeset="11128763">
    <nd ref="29847303"/>
    <nd ref="1122235226"/>
    <nd ref="1122235258"/>
    <nd ref="1122235352"/>
    <nd ref="15843301"/>
    <nd ref="1122209091"/>
    <nd ref="1122179604"/>
    <nd ref="1122179664"/>
    <nd ref="1694932522"/>
    <nd ref="1122179617"/>
    <nd ref="1636969930"/>
    <nd ref="15750935"/>
    <nd ref="25186252"/>
    <nd ref="1122179543"/>
    <nd ref="25187588"/>
    <nd ref="1122179578"/>
    <nd ref="1122157907"/>
    <nd ref="1122157899"/>
    <nd ref="1122157966"/>
    <nd ref="1122157971"/>
    <nd ref="1122157962"/>
    <nd ref="1122157926"/>
    <nd ref="1122157964"/>
    <nd ref="15843285"/>
    <nd ref="1122143082"/>
    <nd ref="1122143092"/>
    <nd ref="1122142692"/>
    <nd ref="15843283"/>
    <nd ref="1122142976"/>
    <nd ref="15843280"/>
    <nd ref="1122142754"/>
    <nd ref="1122143021"/>
    <nd ref="15843271"/>
    <tag k="highway" v="secondary"/>
    <tag k="lanes" v="2"/>
    <tag k="maxspeed" v="60"/>
    <tag k="name" v="Herrenalber Straße"/>
    <tag k="note" v="im SHP des NVK: II"/>
    <tag k="oneway" v="yes"/>
    <tag k="ref" v="L 561"/>
    <tag k="tmc" v="DE:53078-53077"/>
  </way>
  <way id="61243285" version="11" timestamp="2012-03-30T18:19:47Z" uid="35468" user="Blunauer" changeset="11158471">
    <nd ref="29847303"/>
    <nd ref="1122235226"/>
    <nd ref="1122235258"/>
    <nd ref="1122235352"/>
    <nd ref="15843301"/>
    <nd ref="1122209091"/>
    <nd ref="1122179604"/>
    <nd ref="1122179664"/>
    <nd ref="1694932522"/>
    <nd ref="1122179617"/>
    <nd ref="1636969930"/>
    <nd ref="15750935"/>
    <nd ref="25186252"/>
    <nd ref="1122179543"/>
    <nd ref="25187588"/>
    <nd ref="1122179578"/>
    <nd ref="1122157907"/>
    <nd ref="1122157899"/>
    <nd ref="1122157966"/>
    <nd ref="1122157971"/>
    <nd ref="1122157962"/>
    <nd ref="1122157926"/>
    <nd ref="1122157964"/>
    <nd ref="15843285"/>
    <nd ref="1122143082"/>
    <nd ref="1122143092"/>
    <nd ref="1698219732"/>
    <nd ref="15843283"/>
    <nd ref="1122142976"/>
    <nd ref="15843280"/>
    <nd ref="1122142754"/>
    <nd ref="1122143021"/>
    <nd ref="15843271"/>
    <tag k="highway" v="secondary"/>
    <tag k="lanes" v="2"/>
    <tag k="maxspeed" v="60"/>
    <tag k="name" v="Herrenalber Straße"/>
    <tag k="note" v="im SHP des NVK: II"/>
    <tag k="oneway" v="yes"/>
    <tag k="ref" v="L 561"/>
    <tag k="tmc" v="DE:53078-53077"/>
  </way>
</osm>
