<?xml version='1.0' encoding='UTF-8'?>
<osm version="0.6" generator="libosmium/2.20.0">
  <way id="61265623" version="4" timestamp="2010-07-08T05:41:56Z" uid="30201" user="rrankin" changeset="5163533">
    <nd ref="29549223"/>
    <nd ref="136862709"/>
    <nd ref="26375768"/>
    <tag k="highway" v="primary"/>
    <tag k="maxspeed" v="60"/>
    <tag k="name" v="Victoria Road"/>
    <tag k="oneway" v="yes"/>
  </way>
  <way id="61265623" version="5" timestamp="2010-12-06T12:00:21Z" uid="18713" user="Diego" changeset="6562337">
    <nd ref="29549223"/>
    <nd ref="1024826552"/>
    <nd ref="136862709"/>
    <nd ref="26375768"/>
    <tag k="highway" v="primary"/>
    <tag k="maxspeed" v="60"/>
    <tag k="name" v="Victoria Road"/>
    <tag k="oneway" v="yes"/>
  </way>
  <way id="61265623" version="6" timestamp="2012-02-02T02:14:42Z" uid="54784" user="Tom Hollander" changeset="10564163">
    <nd ref="29549223"/>
    <nd ref="1024826552"/>
    <nd ref="136862709"/>
    <nd ref="26375768"/>
    <tag k="highway" v="primary"/>
    <tag k="maxspeed" v="60"/>
    <tag k="name" v="Victoria Road"/>
    <tag k="oneway" v="yes"/>
    <tag k="ref" v="SH40"/>
  </way>
  <way id="61265624" version="2" timestamp="2010-07-08T00:58:51Z" uid="74617" user="JohnSmith" changeset="5162525">
    <nd ref="99619419"/>
    <nd ref="8919760"/>
    <nd ref="8919761"/>
    <tag k="highway" v="residential"/>
    <tag k="image" v="80n:dsc04297.jpg"/>
    <tag k="maxspeed" v="50"/>
    <tag k="maxspeed:source" v="default residential speed limit in Australia"/>
    <tag k="name" v="Lyons Road"/>
  </way>
  <way id="61265624" version="3" timestamp="2012-01-20T09:36:47Z" uid="147510" user="woodpeck_fixbot" changeset="10443754">
    <nd ref="99619419"/>
    <nd ref="8919760"/>
    <nd ref="8919761"/>
    <tag k="highway" v="residential"/>
    <tag k="image" v="80n:dsc04297.jpg"/>
    <tag k="name" v="Lyons Road"/>
  </way>
  <way id="61265625" version="4" timestamp="2010-07-08T04:41:19Z" uid="30201" user="rrankin" changeset="5163349">
    <nd ref="33266391"/>
    <nd ref="197135545"/>
    <nd ref="33267113"/>
    <nd ref="69745894"/>
    <nd ref="69747150"/>
    <tag k="highway" v="primary"/>
    <tag k="maxspeed" v="60"/>
    <tag k="name" v="Victoria Road"/>
    <tag k="oneway" v="yes"/>
  </way>
  <way id="61265625" version="5" timestamp="2012-02-02T02:14:43Z" uid="54784" user="Tom Hollander" changeset="10564163">
    <nd ref="33266391"/>
    <nd ref="197135545"/>
    <nd ref="33267113"/>
    <nd ref="69745894"/>
    <nd ref="69747150"/>
    <tag k="highway" v="primary"/>
    <tag k="maxspeed" v="60"/>
    <tag k="name" v="Victoria Road"/>
    <tag k="oneway" v="yes"/>
    <tag k="ref" v="SH40"/>
  </way>
  <way id="61265626" version="2" timestamp="2010-07-08T01:01:27Z" uid="74617" user="JohnSmith" changeset="5162525">
    <nd ref="99619433"/>
    <nd ref="670864992"/>
    <nd ref="8919763"/>
    <tag k="highway" v="residential"/>
    <tag k="lcn" v="yes"/>
    <tag k="maxspeed" v="50"/>
    <tag k="maxspeed:source" v="default residential speed limit in Australia"/>
    <tag k="name" v="Day Street"/>
    <tag k="oneway" v="yes"/>
  </way>
  <way id="61265626" version="3" timestamp="2012-01-20T09:36:48Z" uid="147510" user="woodpeck_fixbot" changeset="10443754">
    <nd ref="99619433"/>
    <nd ref="670864992"/>
    <nd ref="8919763"/>
    <tag k="highway" v="residential"/>
    <tag k="lcn" v="yes"/>
    <tag k="name" v="Day Street"/>
    <tag k="oneway" v="yes"/>
  </way>
</osm>
