<?xml version='1.0' encoding='UTF-8'?>
<osm version="0.6" generator="libosmium/2.20.0">
  <way id="61292000" version="3" timestamp="2010-07-09T05:44:31Z" uid="74617" user="JohnSmith" changeset="5170986">
    <nd ref="765731486"/>
    <nd ref="765731491"/>
    <tag k="highway" v="residential"/>
    <tag k="maxspeed" v="50"/>
    <tag k="maxspeed:source" v="default residential speed limit in Australia"/>
    <tag k="name" v="Johns Street"/>
  </way>
  <way id="61292000" version="4" timestamp="2011-04-12T07:31:05Z" uid="4467" user="Rosscoe" changeset="7839941">
    <nd ref="765731486"/>
    <nd ref="765731491"/>
    <tag k="highway" v="residential"/>
    <tag k="maxspeed" v="50"/>
    <tag k="name" v="Johns Street"/>
    <tag k="source:maxspeed" v="default residential speed limit in Australia"/>
  </way>
  <way id="61292000" version="5" timestamp="2012-01-20T09:37:35Z" uid="147510" user="woodpeck_fixbot" changeset="10443754">
    <nd ref="765731486"/>
    <nd ref="765731491"/>
    <tag k="highway" v="residential"/>
    <tag k="name" v="Johns Street"/>
    <tag k="source:maxspeed" v="default residential speed limit in Australia"/>
  </way>
  <way id="61292001" version="3" timestamp="2010-07-09T05:44:36Z" uid="74617" user="JohnSmith" changeset="5170986">
    <nd ref="437644766"/>
    <nd ref="765731523"/>
    <nd ref="765731527"/>
    <nd ref="765731551"/>
    <nd ref="765731555"/>
    <nd ref="765731562"/>
    <nd ref="765731567"/>
    <nd ref="765731572"/>
    <nd ref="765731575"/>
    <nd ref="765731580"/>
    <nd ref="765731584"/>
    <nd ref="765731587"/>
    <nd ref="765731591"/>
    <nd ref="765731595"/>
    <nd ref="765731598"/>
    <tag k="highway" v="residential"/>
    <tag k="maxspeed" v="50"/>
    <tag k="maxspeed:source" v="default residential speed limit in Australia"/>
    <tag k="name" v="Richard Street"/>
  </way>
  <way id="61292001" version="4" timestamp="2011-04-11T16:14:05Z" uid="4467" user="Rosscoe" changeset="7834558">
    <nd ref="437644766"/>
    <nd ref="765731523"/>
    <nd ref="765731527"/>
    <nd ref="765731551"/>
    <nd ref="765731555"/>
    <nd ref="765731562"/>
    <nd ref="765731567"/>
    <nd ref="765731572"/>
    <nd ref="765731575"/>
    <nd ref="1241037144"/>
    <nd ref="765731580"/>
    <nd ref="765731584"/>
    <nd ref="765731587"/>
    <nd ref="765731591"/>
    <nd ref="765731595"/>
    <nd ref="1241036832"/>
    <tag k="highway" v="residential"/>
    <tag k="maxspeed" v="50"/>
    <tag k="maxspeed:source" v="default residential speed limit in Australia"/>
    <tag k="name" v="Richard Street"/>
  </way>
  <way id="61292001" version="5" timestamp="2011-04-12T07:31:45Z" uid="4467" user="Rosscoe" changeset="7839941">
    <nd ref="437644766"/>
    <nd ref="765731523"/>
    <nd ref="765731527"/>
    <nd ref="765731551"/>
    <nd ref="765731555"/>
    <nd ref="765731562"/>
    <nd ref="765731567"/>
    <nd ref="765731572"/>
    <nd ref="765731575"/>
    <nd ref="1241037144"/>
    <nd ref="765731580"/>
    <nd ref="765731584"/>
    <nd ref="765731587"/>
    <nd ref="765731591"/>
    <nd ref="765731595"/>
    <nd ref="1241036832"/>
    <tag k="highway" v="residential"/>
    <tag k="maxspeed" v="50"/>
    <tag k="name" v="Richard Street"/>
    <tag k="source:maxspeed" v="default residential speed limit in Australia"/>
  </way>
  <way id="61292001" version="6" timestamp="2012-01-20T09:37:37Z" uid="147510" user="woodpeck_fixbot" changeset="10443754">
    <nd ref="437644766"/>
    <nd ref="765731523"/>
    <nd ref="765731527"/>
    <nd ref="765731551"/>
    <nd ref="765731555"/>
    <nd ref="765731562"/>
    <nd ref="765731567"/>
    <nd ref="765731572"/>
    <nd ref="765731575"/>
    <nd ref="1241037144"/>
    <nd ref="765731580"/>
    <nd ref="765731584"/>
    <nd ref="765731587"/>
    <nd ref="765731591"/>
    <nd ref="765731595"/>
    <nd ref="1241036832"/>
    <tag k="highway" v="residential"/>
    <tag k="name" v="Richard Street"/>
    <tag k="source:maxspeed" v="default residential speed limit in Australia"/>
  </way>
  <way id="61292002" version="3" timestamp="2011-04-11T16:13:39Z" uid="4467" user="Rosscoe" changeset="7834558">
    <nd ref="765731615"/>
    <nd ref="1241037151"/>
    <nd ref="765731619"/>
    <nd ref="765731622"/>
    <tag k="highway" v="unclassified"/>
    <tag k="name" v="Translink Avenue South"/>
    <tag k="source" v="nearmap"/>
  </way>
  <way id="61292003" version="3" timestamp="2010-07-09T05:44:12Z" uid="74617" user="JohnSmith" changeset="5170986">
    <nd ref="765731629"/>
    <nd ref="765731644"/>
    <tag k="highway" v="residential"/>
    <tag k="maxspeed" v="50"/>
    <tag k="maxspeed:source" v="default residential speed limit in Australia"/>
    <tag k="name" v="Munro Street"/>
  </way>
  <way id="61292003" version="4" timestamp="2011-04-11T16:13:56Z" uid="4467" user="Rosscoe" changeset="7834558">
    <nd ref="765731629"/>
    <nd ref="1241037187"/>
    <nd ref="765731644"/>
    <tag k="highway" v="residential"/>
    <tag k="maxspeed" v="50"/>
    <tag k="maxspeed:source" v="default residential speed limit in Australia"/>
    <tag k="name" v="Munro Street"/>
    <tag k="source" v="nearmap"/>
  </way>
  <way id="61292003" version="5" timestamp="2011-04-12T07:31:30Z" uid="4467" user="Rosscoe" changeset="7839941">
    <nd ref="765731629"/>
    <nd ref="1241037187"/>
    <nd ref="765731644"/>
    <tag k="highway" v="residential"/>
    <tag k="maxspeed" v="50"/>
    <tag k="name" v="Munro Street"/>
    <tag k="source" v="nearmap"/>
    <tag k="source:maxspeed" v="default residential speed limit in Australia"/>
  </way>
  <way id="61292003" version="6" timestamp="2012-01-20T09:37:46Z" uid="147510" user="woodpeck_fixbot" changeset="10443754">
    <nd ref="765731629"/>
    <nd ref="1241037187"/>
    <nd ref="765731644"/>
    <tag k="highway" v="residential"/>
    <tag k="name" v="Munro Street"/>
    <tag k="source" v="nearmap"/>
    <tag k="source:maxspeed" v="default residential speed limit in Australia"/>
  </way>
  <way id="61292004" version="3" timestamp="2011-04-11T16:14:08Z" uid="4467" user="Rosscoe" changeset="7834558">
    <nd ref="765731598"/>
    <nd ref="765731491"/>
    <nd ref="1241036773"/>
    <nd ref="765731659"/>
    <nd ref="765731664"/>
    <tag k="highway" v="residential"/>
    <tag k="name" v="Boral Road"/>
  </way>
  <way id="61292005" version="3" timestamp="2010-07-09T05:44:23Z" uid="74617" user="JohnSmith" changeset="5170986">
    <nd ref="765731768"/>
    <nd ref="765731816"/>
    <tag k="highway" v="residential"/>
    <tag k="maxspeed" v="50"/>
    <tag k="maxspeed:source" v="default residential speed limit in Australia"/>
  </way>
  <way id="61292005" version="4" timestamp="2011-04-12T07:32:35Z" uid="4467" user="Rosscoe" changeset="7839941">
    <nd ref="765731768"/>
    <nd ref="765731816"/>
    <tag k="highway" v="residential"/>
    <tag k="maxspeed" v="50"/>
    <tag k="source:maxspeed" v="default residential speed limit in Australia"/>
  </way>
  <way id="61292005" version="5" timestamp="2012-01-20T09:37:53Z" uid="147510" user="woodpeck_fixbot" changeset="10443754">
    <nd ref="765731768"/>
    <nd ref="765731816"/>
    <tag k="highway" v="residential"/>
    <tag k="source:maxspeed" v="default residential speed limit in Australia"/>
  </way>
  <way id="61292006" version="3" timestamp="2010-07-09T05:44:28Z" uid="74617" user="JohnSmith" changeset="5170986">
    <nd ref="765731737"/>
    <nd ref="765731831"/>
    <tag k="highway" v="residential"/>
    <tag k="maxspeed" v="50"/>
    <tag k="maxspeed:source" v="default residential speed limit in Australia"/>
    <tag k="name" v="Hughes Court"/>
  </way>
  <way id="61292006" version="4" timestamp="2012-01-20T09:38:06Z" uid="147510" user="woodpeck_fixbot" changeset="10443754">
    <nd ref="765731737"/>
    <nd ref="765731831"/>
    <tag k="highway" v="residential"/>
    <tag k="name" v="Hughes Court"/>
  </way>
  <way id="61292156" version="2" timestamp="2010-07-09T06:23:33Z" uid="74617" user="JohnSmith" changeset="5171128">
    <nd ref="765734002"/>
    <nd ref="729659934"/>
    <nd ref="765734003"/>
    <nd ref="765734004"/>
    <tag k="highway" v="residential"/>
    <tag k="maxspeed" v="50"/>
    <tag k="maxspeed:source" v="default residential speed limit in Australia"/>
    <tag k="name" v="Harland Street"/>
  </way>
  <way id="61292156" version="3" timestamp="2012-01-20T09:38:19Z" uid="147510" user="woodpeck_fixbot" changeset="10443754">
    <nd ref="765734002"/>
    <nd ref="729659934"/>
    <nd ref="765734003"/>
    <nd ref="765734004"/>
    <tag k="highway" v="residential"/>
    <tag k="name" v="Harland Street"/>
  </way>
  <way id="61292157" version="3" timestamp="2010-07-09T06:21:21Z" uid="74617" user="JohnSmith" changeset="5171128">
    <nd ref="765734005"/>
    <nd ref="765734007"/>
    <nd ref="765734002"/>
    <nd ref="765734008"/>
    <nd ref="729659873"/>
    <tag k="highway" v="residential"/>
    <tag k="maxspeed" v="50"/>
    <tag k="maxspeed:source" v="default residential speed limit in Australia"/>
    <tag k="name" v="Webber Street"/>
  </way>
  <way id="61292157" version="4" timestamp="2011-04-23T02:09:55Z" uid="4467" user="Rosscoe" changeset="7940033">
    <nd ref="765734005"/>
    <nd ref="765734007"/>
    <nd ref="765734002"/>
    <nd ref="765734008"/>
    <nd ref="729659873"/>
    <tag k="highway" v="residential"/>
    <tag k="maxspeed" v="50"/>
    <tag k="name" v="Webber Street"/>
    <tag k="source:maxspeed" v="default residential speed limit in Australia"/>
  </way>
  <way id="61292157" version="5" timestamp="2012-01-20T09:39:18Z" uid="147510" user="woodpeck_fixbot" changeset="10443754">
    <nd ref="765734005"/>
    <nd ref="765734007"/>
    <nd ref="765734002"/>
    <nd ref="765734008"/>
    <nd ref="729659873"/>
    <tag k="highway" v="residential"/>
    <tag k="name" v="Webber Street"/>
    <tag k="source:maxspeed" v="default residential speed limit in Australia"/>
  </way>
  <way id="61292873" version="3" timestamp="2010-08-04T17:37:39Z" uid="9581" user="Lobelt" changeset="5401263">
    <nd ref="344604295"/>
    <nd ref="344604296"/>
    <nd ref="348144316"/>
    <nd ref="348144318"/>
    <nd ref="348144319"/>
    <nd ref="344604297"/>
    <nd ref="348144321"/>
    <nd ref="348144322"/>
    <nd ref="348144323"/>
    <nd ref="344604298"/>
    <nd ref="348144324"/>
    <nd ref="348144326"/>
    <nd ref="348144328"/>
    <nd ref="348144329"/>
    <nd ref="348144330"/>
    <nd ref="344604299"/>
    <nd ref="348144332"/>
    <nd ref="344604301"/>
    <nd ref="348144333"/>
    <nd ref="348144335"/>
    <nd ref="348144336"/>
    <nd ref="348144338"/>
    <nd ref="344604300"/>
    <nd ref="348144340"/>
    <nd ref="348144342"/>
    <nd ref="348144344"/>
    <nd ref="348144345"/>
    <nd ref="344604304"/>
    <nd ref="344604306"/>
    <nd ref="344604309"/>
    <nd ref="344604307"/>
    <nd ref="344604308"/>
    <nd ref="348144347"/>
    <nd ref="348144348"/>
    <nd ref="348144350"/>
    <nd ref="344604310"/>
    <nd ref="344604311"/>
    <nd ref="348144354"/>
    <nd ref="348144352"/>
    <nd ref="344604312"/>
    <nd ref="348144355"/>
    <nd ref="348144357"/>
    <nd ref="348144358"/>
    <nd ref="267217832"/>
    <tag k="cables" v="6"/>
    <tag k="frequency" v="50"/>
    <tag k="name" v="128"/>
    <tag k="note" v="nord:grün;süd:gelb"/>
    <tag k="operator" v="EON_Netz"/>
    <tag k="power" v="line"/>
    <tag k="ref" v="128"/>
    <tag k="voltage" v="110000"/>
    <tag k="wires" v="single"/>
  </way>
</osm>
