<?xml version='1.0' encoding='UTF-8'?>
<osm version="0.6" generator="libosmium/2.20.0">
  <way id="61318012" version="1" timestamp="2010-06-06T17:21:28Z" uid="6269" user="Mueck" changeset="4919602">
    <nd ref="765928159"/>
    <nd ref="765927839"/>
    <tag k="highway" v="no"/>
  </way>
  <way id="61318044" version="1" timestamp="2010-06-06T17:22:53Z" uid="6269" user="Mueck" changeset="4919602">
    <nd ref="765928399"/>
    <nd ref="765928400"/>
    <nd ref="765928402"/>
    <nd ref="765928404"/>
    <nd ref="765928406"/>
    <nd ref="765928409"/>
    <nd ref="765928393"/>
  </way>
  <way id="61318044" version="2" timestamp="2010-06-06T17:23:04Z" uid="6269" user="Mueck" changeset="4919602">
    <nd ref="765928399"/>
    <nd ref="765928400"/>
    <nd ref="765928402"/>
    <nd ref="765928404"/>
    <nd ref="765928406"/>
    <nd ref="765928409"/>
    <nd ref="765928393"/>
    <tag k="highway" v="path"/>
    <tag k="smoothness" v="bad"/>
    <tag k="surface" v="ground"/>
    <tag k="tracktype" v="grade5"/>
    <tag k="width" v="0.3"/>
  </way>
  <way id="61318089" version="1" timestamp="2010-06-06T17:24:46Z" uid="16922" user="amai" changeset="4920294">
    <nd ref="765928984"/>
    <nd ref="765928987"/>
    <nd ref="765928990"/>
    <nd ref="765928992"/>
    <nd ref="765928984"/>
    <tag k="amenity" v="kindergarten"/>
    <tag k="name" v="Kindertagesstätte St. Martin"/>
    <tag k="website" v="http://www.pfarrgruppe-dieburg.de/index.php?option=com_content&amp;task=view&amp;id=26&amp;Itemid=1"/>
  </way>
  <way id="61318089" version="2" timestamp="2011-04-01T18:00:11Z" uid="16922" user="amai" changeset="7737637">
    <nd ref="765928984"/>
    <nd ref="765928987"/>
    <nd ref="765928990"/>
    <nd ref="765928992"/>
    <nd ref="765928984"/>
    <tag k="amenity" v="kindergarten"/>
    <tag k="name" v="Kindertagesstätte St. Martin"/>
    <tag k="source" v="Bing, survey"/>
    <tag k="website" v="http://www.pfarrgruppe-dieburg.de/index.php?option=com_content&amp;task=view&amp;id=26&amp;Itemid=1"/>
  </way>
  <way id="61318089" version="3" timestamp="2012-02-10T00:58:34Z" uid="131968" user="changchun_1" changeset="10639723"/>
  <way id="61318091" version="2" timestamp="2010-06-17T10:13:28Z" uid="49111" user="Markus B" changeset="5007582">
    <nd ref="765928995"/>
    <nd ref="765928905"/>
    <nd ref="774565147"/>
    <nd ref="765928945"/>
    <nd ref="765928995"/>
    <tag k="addr:housenumber" v="2"/>
    <tag k="amenity" v="pub"/>
    <tag k="building" v="yes"/>
    <tag k="name" v="Zum Sternwirt"/>
    <tag k="smokefree" v="yes"/>
  </way>
  <way id="61318091" version="3" timestamp="2010-08-02T12:28:41Z" uid="49111" user="Markus B" changeset="5380134">
    <nd ref="765928995"/>
    <nd ref="765928905"/>
    <nd ref="774565147"/>
    <nd ref="765928945"/>
    <nd ref="765928995"/>
    <tag k="addr:housenumber" v="2"/>
    <tag k="amenity" v="pub"/>
    <tag k="building" v="yes"/>
    <tag k="name" v="Zum Sternwirt"/>
    <tag k="smoking" v="no"/>
  </way>
  <way id="61318091" version="4" timestamp="2010-11-05T21:49:29Z" uid="202858" user="kellerma" changeset="6298637">
    <nd ref="765928995"/>
    <nd ref="765928905"/>
    <nd ref="774565147"/>
    <nd ref="765928945"/>
    <nd ref="765928995"/>
    <tag k="addr:city" v="Schnaittach"/>
    <tag k="addr:country" v="DE"/>
    <tag k="addr:housenumber" v="2"/>
    <tag k="addr:postcode" v="91220"/>
    <tag k="addr:street" v="Festungsstraße"/>
    <tag k="amenity" v="pub"/>
    <tag k="building" v="yes"/>
    <tag k="name" v="Zum Sternwirt"/>
    <tag k="smoking" v="no"/>
  </way>
  <way id="61318091" version="5" timestamp="2010-12-17T22:45:49Z" uid="82877" user="Wankmann" changeset="6691656">
    <nd ref="765928995"/>
    <nd ref="765928905"/>
    <nd ref="774565147"/>
    <nd ref="765928945"/>
    <nd ref="765928995"/>
    <tag k="addr:city" v="Schnaittach"/>
    <tag k="addr:country" v="DE"/>
    <tag k="addr:housenumber" v="2"/>
    <tag k="addr:postcode" v="91220"/>
    <tag k="addr:street" v="Festungsstraße"/>
    <tag k="amenity" v="pub"/>
    <tag k="building" v="yes"/>
    <tag k="name" v="Zum Sternwirt"/>
    <tag k="smoking" v="no"/>
    <tag k="wheelchair" v="unknown"/>
  </way>
  <way id="61318096" version="2" timestamp="2010-06-17T10:13:27Z" uid="49111" user="Markus B" changeset="5007582">
    <nd ref="765928942"/>
    <nd ref="765929018"/>
    <nd ref="765928994"/>
    <nd ref="765928961"/>
    <nd ref="765928956"/>
    <nd ref="765928919"/>
    <nd ref="765928908"/>
    <nd ref="765928980"/>
    <nd ref="765928973"/>
    <nd ref="765928940"/>
    <nd ref="765928942"/>
    <tag k="addr:city" v="Schnaittach"/>
    <tag k="addr:country" v="DE"/>
    <tag k="addr:housenumber" v="29"/>
    <tag k="addr:postcode" v="91220"/>
    <tag k="addr:street" v="Erlangerstraße"/>
    <tag k="amenity" v="restaurant"/>
    <tag k="building" v="yes"/>
    <tag k="cuisine" v="italian"/>
    <tag k="name" v="Ristorante-Pizzeria Romana"/>
    <tag k="opening_hours" v="Mo off"/>
    <tag k="phone" v="09153-970355"/>
    <tag k="smoking" v="no"/>
    <tag k="smoking:outside" v="yes"/>
  </way>
  <way id="61318096" version="3" timestamp="2010-06-17T19:16:58Z" uid="49111" user="Markus B" changeset="5011460">
    <nd ref="765928942"/>
    <nd ref="765929018"/>
    <nd ref="765928994"/>
    <nd ref="765928961"/>
    <nd ref="765928956"/>
    <nd ref="765928919"/>
    <nd ref="765928908"/>
    <nd ref="765928980"/>
    <nd ref="765928973"/>
    <nd ref="765928940"/>
    <nd ref="765928942"/>
    <tag k="addr:city" v="Schnaittach"/>
    <tag k="addr:country" v="DE"/>
    <tag k="addr:housenumber" v="29"/>
    <tag k="addr:postcode" v="91220"/>
    <tag k="addr:street" v="Erlangerstraße"/>
    <tag k="amenity" v="restaurant"/>
    <tag k="building" v="yes"/>
    <tag k="cuisine" v="greek"/>
    <tag k="name" v="Schaffer Bräustüberl"/>
    <tag k="opening_hours" v="Mo off"/>
    <tag k="phone" v="09153-970355"/>
    <tag k="smoking" v="no"/>
    <tag k="smoking:outside" v="yes"/>
  </way>
  <way id="61318096" version="4" timestamp="2010-11-05T21:49:18Z" uid="202858" user="kellerma" changeset="6298637">
    <nd ref="765928942"/>
    <nd ref="765929018"/>
    <nd ref="765928994"/>
    <nd ref="765928961"/>
    <nd ref="765928956"/>
    <nd ref="765928919"/>
    <nd ref="765928908"/>
    <nd ref="765928980"/>
    <nd ref="765928973"/>
    <nd ref="765928940"/>
    <nd ref="765928942"/>
    <tag k="addr:city" v="Schnaittach"/>
    <tag k="addr:country" v="DE"/>
    <tag k="addr:housenumber" v="29"/>
    <tag k="addr:postcode" v="91220"/>
    <tag k="addr:street" v="Erlanger Straße"/>
    <tag k="amenity" v="restaurant"/>
    <tag k="building" v="yes"/>
    <tag k="cuisine" v="greek"/>
    <tag k="name" v="Schaffer Bräustüberl"/>
    <tag k="opening_hours" v="Mo off"/>
    <tag k="phone" v="09153-970355"/>
    <tag k="smoking" v="no"/>
    <tag k="smoking:outside" v="yes"/>
  </way>
  <way id="61318098" version="2" timestamp="2010-06-17T10:13:28Z" uid="49111" user="Markus B" changeset="5007582">
    <nd ref="765929000"/>
    <nd ref="765929010"/>
    <nd ref="765928989"/>
    <nd ref="765928959"/>
    <nd ref="765928947"/>
    <nd ref="765929000"/>
    <tag k="building" v="yes"/>
  </way>
  <way id="61318098" version="3" timestamp="2011-01-06T23:51:47Z" uid="82877" user="Wankmann" changeset="6888523">
    <nd ref="765929000"/>
    <nd ref="765929010"/>
    <nd ref="1087105561"/>
    <nd ref="1087105448"/>
    <nd ref="765928989"/>
    <nd ref="765928959"/>
    <nd ref="765928947"/>
    <nd ref="765929000"/>
    <tag k="building" v="yes"/>
  </way>
  <way id="61318098" version="4" timestamp="2011-01-31T10:28:20Z" uid="82877" user="Wankmann" changeset="7143677">
    <nd ref="765929000"/>
    <nd ref="765929010"/>
    <nd ref="1087105561"/>
    <nd ref="1087105448"/>
    <nd ref="765928989"/>
    <nd ref="765928959"/>
    <nd ref="765928947"/>
    <nd ref="765929000"/>
    <tag k="addr:city" v="Schnaittach"/>
    <tag k="addr:country" v="DE"/>
    <tag k="addr:housenumber" v="8"/>
    <tag k="addr:postcode" v="91220"/>
    <tag k="addr:street" v="Brauhausgasse"/>
    <tag k="building" v="yes"/>
  </way>
  <way id="61318520" version="1" timestamp="2010-06-06T17:34:52Z" uid="6269" user="Mueck" changeset="4919602">
    <nd ref="765933155"/>
    <nd ref="765933156"/>
    <nd ref="765928625"/>
    <nd ref="765933157"/>
    <nd ref="765933158"/>
    <nd ref="765933159"/>
    <tag k="embankment" v="yes"/>
    <tag k="historic" v="ruins"/>
    <tag k="source" v="estimated and a little bit survey"/>
  </way>
  <way id="61318520" version="2" timestamp="2010-06-07T16:49:09Z" uid="6269" user="Mueck" changeset="4929970">
    <nd ref="765933155"/>
    <nd ref="765933156"/>
    <nd ref="765928625"/>
    <nd ref="765933157"/>
    <nd ref="765933158"/>
    <nd ref="765933159"/>
    <tag k="embankment" v="yes"/>
    <tag k="fortification_type" v="sconce"/>
    <tag k="historic" v="archarchaeological_site"/>
    <tag k="site_type" v="fortification"/>
    <tag k="source" v="estimated and a little bit survey"/>
  </way>
  <way id="61318520" version="3" timestamp="2010-11-11T17:40:55Z" uid="78656" user="Walter Schlögl" changeset="6345275">
    <nd ref="765933155"/>
    <nd ref="765933156"/>
    <nd ref="765928625"/>
    <nd ref="765933157"/>
    <nd ref="765933158"/>
    <nd ref="765933159"/>
    <tag k="embankment" v="yes"/>
    <tag k="fortification_type" v="sconce"/>
    <tag k="historic" v="archaeological_site"/>
    <tag k="site_type" v="fortification"/>
    <tag k="source" v="estimated and a little bit survey"/>
  </way>
  <way id="61318525" version="1" timestamp="2010-06-06T17:35:16Z" uid="6269" user="Mueck" changeset="4919602">
    <nd ref="765933310"/>
    <nd ref="765933311"/>
    <tag k="embankment" v="yes"/>
    <tag k="historic" v="ruins"/>
    <tag k="source" v="estimated and a little bit survey"/>
  </way>
  <way id="61318525" version="2" timestamp="2010-06-07T16:48:23Z" uid="6269" user="Mueck" changeset="4929970">
    <nd ref="765933310"/>
    <nd ref="765933311"/>
    <tag k="embankment" v="yes"/>
    <tag k="historic" v="archarchaeological_site"/>
    <tag k="site_type" v="fortification"/>
    <tag k="source" v="estimated and a little bit survey"/>
  </way>
  <way id="61318525" version="3" timestamp="2010-06-07T16:50:36Z" uid="6269" user="Mueck" changeset="4929970">
    <nd ref="765933310"/>
    <nd ref="765933311"/>
    <tag k="embankment" v="yes"/>
    <tag k="historic" v="archarchaeological_site"/>
    <tag k="name" v="Ettlinger Linie"/>
    <tag k="site_type" v="fortification"/>
    <tag k="source" v="estimated and a little bit survey"/>
  </way>
  <way id="61318525" version="4" timestamp="2010-11-11T17:41:15Z" uid="78656" user="Walter Schlögl" changeset="6345275">
    <nd ref="765933310"/>
    <nd ref="765933311"/>
    <tag k="embankment" v="yes"/>
    <tag k="historic" v="archaeological_site"/>
    <tag k="name" v="Ettlinger Linie"/>
    <tag k="site_type" v="fortification"/>
    <tag k="source" v="estimated and a little bit survey"/>
  </way>
  <way id="61318598" version="1" timestamp="2010-06-06T17:36:40Z" uid="6269" user="Mueck" changeset="4919602">
    <nd ref="16475829"/>
    <nd ref="765934220"/>
    <nd ref="765934222"/>
    <nd ref="765934224"/>
    <nd ref="765934226"/>
    <nd ref="765934228"/>
    <nd ref="765934231"/>
    <nd ref="765934234"/>
    <nd ref="765934236"/>
    <nd ref="765934237"/>
    <nd ref="765934239"/>
    <nd ref="765934242"/>
    <nd ref="765934245"/>
    <nd ref="765934247"/>
    <nd ref="765934249"/>
    <nd ref="765934252"/>
    <nd ref="765934258"/>
    <nd ref="765934260"/>
    <nd ref="765934261"/>
    <nd ref="765934262"/>
  </way>
  <way id="61318598" version="2" timestamp="2010-06-06T17:38:04Z" uid="6269" user="Mueck" changeset="4919602">
    <nd ref="16475829"/>
    <nd ref="765934220"/>
    <nd ref="765934222"/>
    <nd ref="765934224"/>
    <nd ref="765934226"/>
    <nd ref="765934228"/>
    <nd ref="765934231"/>
    <nd ref="765934234"/>
    <nd ref="765934236"/>
    <nd ref="765934237"/>
    <nd ref="765934239"/>
    <nd ref="765934242"/>
    <nd ref="765934245"/>
    <nd ref="765934247"/>
    <nd ref="765934249"/>
    <nd ref="765934252"/>
    <nd ref="765934258"/>
    <nd ref="765934260"/>
    <nd ref="765934261"/>
    <nd ref="765934262"/>
    <tag k="bicycle" v="no"/>
    <tag k="embankment" v="yes"/>
    <tag k="highway" v="path"/>
    <tag k="historic" v="ruins"/>
    <tag k="smoothness" v="intermediate"/>
    <tag k="surface" v="compacted"/>
    <tag k="tracktype" v="grade2"/>
    <tag k="width" v="0.5"/>
  </way>
  <way id="61318598" version="3" timestamp="2010-06-06T18:35:03Z" uid="6269" user="Mueck" changeset="4921023">
    <nd ref="16475829"/>
    <nd ref="765934220"/>
    <nd ref="765934222"/>
    <nd ref="765934224"/>
    <nd ref="765934226"/>
    <nd ref="765934228"/>
    <nd ref="765934231"/>
    <nd ref="765934234"/>
    <nd ref="765934236"/>
    <nd ref="765934237"/>
    <nd ref="765934239"/>
    <nd ref="765934242"/>
    <nd ref="765934245"/>
    <nd ref="765934247"/>
    <nd ref="765934249"/>
    <nd ref="765934252"/>
    <nd ref="765934258"/>
    <nd ref="765934260"/>
    <nd ref="765934261"/>
    <nd ref="765934262"/>
    <tag k="bicycle" v="no"/>
    <tag k="embankment" v="yes"/>
    <tag k="highway" v="path"/>
    <tag k="historic" v="ruins"/>
    <tag k="name" v="Ettlinger Linie"/>
    <tag k="smoothness" v="intermediate"/>
    <tag k="surface" v="compacted"/>
    <tag k="tracktype" v="grade2"/>
    <tag k="width" v="0.5"/>
  </way>
  <way id="61318598" version="4" timestamp="2010-06-07T16:50:17Z" uid="6269" user="Mueck" changeset="4929970">
    <nd ref="16475829"/>
    <nd ref="765934220"/>
    <nd ref="765934222"/>
    <nd ref="765934224"/>
    <nd ref="765934226"/>
    <nd ref="765934228"/>
    <nd ref="765934231"/>
    <nd ref="765934234"/>
    <nd ref="765934236"/>
    <nd ref="765934237"/>
    <nd ref="765934239"/>
    <nd ref="765934242"/>
    <nd ref="765934245"/>
    <nd ref="765934247"/>
    <nd ref="765934249"/>
    <nd ref="765934252"/>
    <nd ref="765934258"/>
    <nd ref="765934260"/>
    <nd ref="765934261"/>
    <nd ref="765934262"/>
    <tag k="bicycle" v="no"/>
    <tag k="embankment" v="yes"/>
    <tag k="highway" v="path"/>
    <tag k="historic" v="archarchaeological_site"/>
    <tag k="name" v="Ettlinger Linie"/>
    <tag k="site_type" v="fortification"/>
    <tag k="smoothness" v="intermediate"/>
    <tag k="surface" v="compacted"/>
    <tag k="tracktype" v="grade2"/>
    <tag k="width" v="0.5"/>
  </way>
  <way id="61318598" version="5" timestamp="2010-11-11T17:41:08Z" uid="78656" user="Walter Schlögl" changeset="6345275">
    <nd ref="16475829"/>
    <nd ref="765934220"/>
    <nd ref="765934222"/>
    <nd ref="765934224"/>
    <nd ref="765934226"/>
    <nd ref="765934228"/>
    <nd ref="765934231"/>
    <nd ref="765934234"/>
    <nd ref="765934236"/>
    <nd ref="765934237"/>
    <nd ref="765934239"/>
    <nd ref="765934242"/>
    <nd ref="765934245"/>
    <nd ref="765934247"/>
    <nd ref="765934249"/>
    <nd ref="765934252"/>
    <nd ref="765934258"/>
    <nd ref="765934260"/>
    <nd ref="765934261"/>
    <nd ref="765934262"/>
    <tag k="bicycle" v="no"/>
    <tag k="embankment" v="yes"/>
    <tag k="highway" v="path"/>
    <tag k="historic" v="archaeological_site"/>
    <tag k="name" v="Ettlinger Linie"/>
    <tag k="site_type" v="fortification"/>
    <tag k="smoothness" v="intermediate"/>
    <tag k="surface" v="compacted"/>
    <tag k="tracktype" v="grade2"/>
    <tag k="width" v="0.5"/>
  </way>
  <way id="61318713" version="1" timestamp="2010-06-06T17:38:10Z" uid="6269" user="Mueck" changeset="4919602">
    <nd ref="765934767"/>
    <nd ref="765934768"/>
  </way>
  <way id="61318713" version="2" timestamp="2010-06-06T17:38:15Z" uid="6269" user="Mueck" changeset="4919602">
    <nd ref="765934767"/>
    <nd ref="765934768"/>
    <tag k="embankment" v="yes"/>
    <tag k="historic" v="ruins"/>
    <tag k="source" v="estimated and a little bit survey"/>
  </way>
  <way id="61318713" version="3" timestamp="2010-06-07T16:48:08Z" uid="6269" user="Mueck" changeset="4929970">
    <nd ref="765934767"/>
    <nd ref="765934768"/>
    <tag k="embankment" v="yes"/>
    <tag k="historic" v="archarchaeological_site"/>
    <tag k="site_type" v="fortification"/>
    <tag k="source" v="estimated and a little bit survey"/>
  </way>
  <way id="61318713" version="4" timestamp="2010-11-11T17:41:16Z" uid="78656" user="Walter Schlögl" changeset="6345275">
    <nd ref="765934767"/>
    <nd ref="765934768"/>
    <tag k="embankment" v="yes"/>
    <tag k="historic" v="archaeological_site"/>
    <tag k="site_type" v="fortification"/>
    <tag k="source" v="estimated and a little bit survey"/>
  </way>
  <way id="61318764" version="1" timestamp="2010-06-06T17:39:43Z" uid="6269" user="Mueck" changeset="4919602">
    <nd ref="765934993"/>
    <nd ref="765934994"/>
  </way>
  <way id="61318764" version="2" timestamp="2010-06-06T17:39:49Z" uid="6269" user="Mueck" changeset="4919602">
    <nd ref="765934993"/>
    <nd ref="765934994"/>
    <tag k="embankment" v="yes"/>
    <tag k="historic" v="ruins"/>
    <tag k="source" v="estimated and a little bit survey"/>
  </way>
  <way id="61318764" version="3" timestamp="2010-06-07T16:49:22Z" uid="6269" user="Mueck" changeset="4929970">
    <nd ref="765934993"/>
    <nd ref="765934994"/>
    <tag k="embankment" v="yes"/>
    <tag k="historic" v="archarchaeological_site"/>
    <tag k="site_type" v="fortification"/>
    <tag k="source" v="estimated and a little bit survey"/>
  </way>
  <way id="61318764" version="4" timestamp="2010-11-11T17:41:05Z" uid="78656" user="Walter Schlögl" changeset="6345275">
    <nd ref="765934993"/>
    <nd ref="765934994"/>
    <tag k="embankment" v="yes"/>
    <tag k="historic" v="archaeological_site"/>
    <tag k="site_type" v="fortification"/>
    <tag k="source" v="estimated and a little bit survey"/>
  </way>
  <way id="61318810" version="1" timestamp="2010-06-06T17:40:47Z" uid="6269" user="Mueck" changeset="4919602">
    <nd ref="765935281"/>
    <nd ref="765935282"/>
  </way>
  <way id="61318810" version="2" timestamp="2010-06-06T17:41:11Z" uid="6269" user="Mueck" changeset="4919602">
    <nd ref="765935281"/>
    <nd ref="765935282"/>
    <tag k="highway" v="track"/>
    <tag k="smoothness" v="very_bad"/>
    <tag k="surface" v="ground"/>
    <tag k="tracktype" v="grade5"/>
  </way>
  <way id="61318868" version="1" timestamp="2010-06-06T17:43:34Z" uid="6269" user="Mueck" changeset="4919602">
    <nd ref="25623612"/>
    <nd ref="25642698"/>
    <tag k="highway" v="track"/>
    <tag k="smoothness" v="intermediate"/>
    <tag k="surface" v="compacted"/>
    <tag k="tracktype" v="grade3"/>
  </way>
  <way id="61318873" version="1" timestamp="2010-06-06T17:43:59Z" uid="6269" user="Mueck" changeset="4919602">
    <nd ref="25623618"/>
    <nd ref="25623617"/>
    <nd ref="25623616"/>
    <nd ref="25623615"/>
    <nd ref="25623613"/>
    <nd ref="27513194"/>
    <nd ref="27513195"/>
    <nd ref="25623611"/>
    <tag k="highway" v="track"/>
    <tag k="smoothness" v="intermediate"/>
    <tag k="surface" v="compacted"/>
    <tag k="tracktype" v="grade2"/>
  </way>
  <way id="61318873" version="2" timestamp="2010-06-06T17:44:17Z" uid="6269" user="Mueck" changeset="4919602">
    <nd ref="25623618"/>
    <nd ref="25623617"/>
    <nd ref="25623616"/>
    <nd ref="25623615"/>
    <nd ref="25623613"/>
    <nd ref="27513194"/>
    <tag k="highway" v="track"/>
    <tag k="smoothness" v="intermediate"/>
    <tag k="surface" v="compacted"/>
    <tag k="tracktype" v="grade3"/>
  </way>
  <way id="61318882" version="1" timestamp="2010-06-06T17:44:16Z" uid="6269" user="Mueck" changeset="4919602">
    <nd ref="27513194"/>
    <nd ref="27513195"/>
    <nd ref="25623611"/>
    <tag k="highway" v="track"/>
    <tag k="smoothness" v="intermediate"/>
    <tag k="surface" v="compacted"/>
    <tag k="tracktype" v="grade3"/>
  </way>
  <way id="61318882" version="2" timestamp="2010-06-06T17:44:28Z" uid="6269" user="Mueck" changeset="4919602">
    <nd ref="27513194"/>
    <nd ref="27513195"/>
    <nd ref="25623611"/>
    <tag k="highway" v="track"/>
    <tag k="smoothness" v="intermediate"/>
    <tag k="surface" v="compacted"/>
    <tag k="tracktype" v="grade2"/>
  </way>
  <way id="61318931" version="1" timestamp="2010-06-06T17:44:53Z" uid="6269" user="Mueck" changeset="4919602">
    <nd ref="765938174"/>
    <nd ref="25623611"/>
  </way>
  <way id="61318931" version="2" timestamp="2010-06-06T17:45:14Z" uid="6269" user="Mueck" changeset="4919602">
    <nd ref="765938174"/>
    <nd ref="25623611"/>
    <tag k="highway" v="track"/>
    <tag k="smoothness" v="horrible"/>
    <tag k="surface" v="ground"/>
    <tag k="tracktype" v="grade5"/>
  </way>
  <way id="61318981" version="2" timestamp="2011-03-14T12:23:23Z" uid="66036" user="h4v" changeset="7555755">
    <nd ref="765938321"/>
    <nd ref="765938322"/>
    <nd ref="765938323"/>
    <nd ref="765938324"/>
    <nd ref="765938325"/>
    <nd ref="765938326"/>
    <nd ref="765938321"/>
    <tag k="landuse" v="forest"/>
  </way>
</osm>
