<?xml version='1.0' encoding='UTF-8'?>
<osm version="0.6" generator="libosmium/2.20.0">
  <way id="61407597" version="2" timestamp="2010-07-09T06:09:18Z" uid="74617" user="JohnSmith" changeset="5171134">
    <nd ref="361344312"/>
    <nd ref="615073690"/>
    <tag k="highway" v="residential"/>
    <tag k="maxspeed" v="50"/>
    <tag k="maxspeed:source" v="default residential speed limit in Australia"/>
    <tag k="name" v="Byards Road"/>
  </way>
  <way id="61407597" version="3" timestamp="2012-01-20T09:44:23Z" uid="147510" user="woodpeck_fixbot" changeset="10443754">
    <nd ref="361344312"/>
    <nd ref="615073690"/>
    <tag k="highway" v="residential"/>
    <tag k="name" v="Byards Road"/>
  </way>
  <way id="61407600" version="2" timestamp="2010-07-09T06:05:39Z" uid="74617" user="JohnSmith" changeset="5171134">
    <nd ref="361344646"/>
    <nd ref="361344642"/>
    <nd ref="361344644"/>
    <nd ref="361344623"/>
    <tag k="highway" v="residential"/>
    <tag k="maxspeed" v="50"/>
    <tag k="maxspeed:source" v="default residential speed limit in Australia"/>
    <tag k="name" v="Rumborg Court"/>
  </way>
  <way id="61407600" version="3" timestamp="2012-01-20T09:44:24Z" uid="147510" user="woodpeck_fixbot" changeset="10443754">
    <nd ref="361344646"/>
    <nd ref="361344642"/>
    <nd ref="361344644"/>
    <nd ref="361344623"/>
    <tag k="highway" v="residential"/>
    <tag k="name" v="Rumborg Court"/>
  </way>
  <way id="61407604" version="2" timestamp="2010-07-09T06:07:05Z" uid="74617" user="JohnSmith" changeset="5171134">
    <nd ref="362988071"/>
    <nd ref="362988094"/>
    <nd ref="362988101"/>
    <nd ref="362988113"/>
    <nd ref="361351469"/>
    <tag k="highway" v="residential"/>
    <tag k="maxspeed" v="50"/>
    <tag k="maxspeed:source" v="default residential speed limit in Australia"/>
    <tag k="name" v="Chapel Hill Way"/>
  </way>
  <way id="61407604" version="3" timestamp="2012-01-20T09:44:26Z" uid="147510" user="woodpeck_fixbot" changeset="10443754">
    <nd ref="362988071"/>
    <nd ref="362988094"/>
    <nd ref="362988101"/>
    <nd ref="362988113"/>
    <nd ref="361351469"/>
    <tag k="highway" v="residential"/>
    <tag k="name" v="Chapel Hill Way"/>
  </way>
  <way id="61407607" version="3" timestamp="2010-07-09T06:05:14Z" uid="74617" user="JohnSmith" changeset="5171134">
    <nd ref="362985435"/>
    <nd ref="766922848"/>
    <tag k="highway" v="residential"/>
    <tag k="maxspeed" v="50"/>
    <tag k="maxspeed:source" v="default residential speed limit in Australia"/>
    <tag k="name" v="Dorrien Avenue"/>
  </way>
  <way id="61407607" version="4" timestamp="2012-01-20T09:44:28Z" uid="147510" user="woodpeck_fixbot" changeset="10443754">
    <nd ref="362985435"/>
    <nd ref="766922848"/>
    <tag k="highway" v="residential"/>
    <tag k="name" v="Dorrien Avenue"/>
  </way>
  <way id="61407609" version="3" timestamp="2010-07-09T06:04:57Z" uid="74617" user="JohnSmith" changeset="5171134">
    <nd ref="766922847"/>
    <nd ref="766922849"/>
    <nd ref="362958401"/>
    <tag k="highway" v="residential"/>
    <tag k="maxspeed" v="50"/>
    <tag k="maxspeed:source" v="default residential speed limit in Australia"/>
    <tag k="name" v="Sherebrooke Boulevard"/>
  </way>
  <way id="61407609" version="4" timestamp="2012-01-20T09:45:02Z" uid="147510" user="woodpeck_fixbot" changeset="10443754">
    <nd ref="766922847"/>
    <nd ref="766922849"/>
    <nd ref="362958401"/>
    <tag k="highway" v="residential"/>
    <tag k="name" v="Sherebrooke Boulevard"/>
  </way>
  <way id="61407661" version="1" timestamp="2010-06-07T15:06:33Z" uid="4467" user="Rosscoe" changeset="4928977">
    <nd ref="606415495"/>
    <nd ref="766721716"/>
    <nd ref="766721739"/>
    <nd ref="766721558"/>
    <nd ref="766721709"/>
    <nd ref="766721553"/>
    <nd ref="766721641"/>
    <nd ref="766721719"/>
    <nd ref="766721724"/>
    <nd ref="766721726"/>
    <nd ref="766721814"/>
    <nd ref="766721604"/>
    <nd ref="766721718"/>
    <nd ref="766721723"/>
    <nd ref="288074497"/>
    <tag k="highway" v="residential"/>
    <tag k="name" v="Hartley Road"/>
    <tag k="oneway" v="yes"/>
    <tag k="source" v="nearmap"/>
  </way>
  <way id="61407661" version="2" timestamp="2010-06-07T23:19:36Z" uid="4467" user="Rosscoe" changeset="4933469">
    <nd ref="606415495"/>
    <nd ref="766721716"/>
    <nd ref="766721739"/>
    <nd ref="766721558"/>
    <nd ref="766721709"/>
    <nd ref="766721553"/>
    <nd ref="766721641"/>
    <nd ref="766721719"/>
    <nd ref="766721724"/>
    <nd ref="766721726"/>
    <nd ref="766721814"/>
    <nd ref="766721604"/>
    <nd ref="766721718"/>
    <nd ref="766721723"/>
    <nd ref="288074497"/>
    <tag k="highway" v="residential"/>
    <tag k="name" v="Hartley Road"/>
    <tag k="oneway" v="yes"/>
    <tag k="source" v="nearmap"/>
  </way>
  <way id="61407661" version="3" timestamp="2010-06-07T23:23:14Z" uid="4467" user="Rosscoe" changeset="4933469">
    <nd ref="606415495"/>
    <nd ref="766721716"/>
    <nd ref="766721739"/>
    <nd ref="766721558"/>
    <nd ref="766721709"/>
    <nd ref="766721553"/>
    <nd ref="766721641"/>
    <nd ref="766721719"/>
    <nd ref="766721724"/>
    <nd ref="766721726"/>
    <nd ref="766721814"/>
    <nd ref="766721604"/>
    <nd ref="766721718"/>
    <nd ref="766721723"/>
    <nd ref="288074497"/>
    <tag k="highway" v="residential"/>
    <tag k="name" v="Hartley Road"/>
    <tag k="oneway" v="yes"/>
    <tag k="source" v="nearmap"/>
  </way>
  <way id="61407661" version="4" timestamp="2010-07-07T20:10:54Z" uid="74617" user="JohnSmith" changeset="5161069">
    <nd ref="606415495"/>
    <nd ref="766721716"/>
    <nd ref="766721739"/>
    <nd ref="766721558"/>
    <nd ref="766721709"/>
    <nd ref="766721553"/>
    <nd ref="766721641"/>
    <nd ref="766721719"/>
    <nd ref="766721724"/>
    <nd ref="766721726"/>
    <nd ref="766721814"/>
    <nd ref="766721604"/>
    <nd ref="766721718"/>
    <nd ref="766721723"/>
    <nd ref="288074497"/>
    <tag k="highway" v="residential"/>
    <tag k="maxspeed" v="50"/>
    <tag k="maxspeed:source" v="default residential speed limit in Australia"/>
    <tag k="name" v="Hartley Road"/>
    <tag k="oneway" v="yes"/>
    <tag k="source" v="nearmap"/>
  </way>
  <way id="61407664" version="1" timestamp="2010-06-07T15:06:37Z" uid="4467" user="Rosscoe" changeset="4928977">
    <nd ref="766721596"/>
    <nd ref="766721722"/>
    <nd ref="766721587"/>
    <nd ref="606415490"/>
    <tag k="highway" v="residential"/>
    <tag k="name" v="Hartley Road"/>
  </way>
  <way id="61407664" version="2" timestamp="2010-06-07T23:23:21Z" uid="4467" user="Rosscoe" changeset="4933469">
    <nd ref="766721596"/>
    <nd ref="766721722"/>
    <nd ref="766721587"/>
    <nd ref="606415490"/>
    <tag k="highway" v="residential"/>
    <tag k="name" v="Hartley Road"/>
  </way>
  <way id="61407664" version="3" timestamp="2010-07-07T20:10:29Z" uid="74617" user="JohnSmith" changeset="5161069">
    <nd ref="766721596"/>
    <nd ref="766721722"/>
    <nd ref="766721587"/>
    <nd ref="606415490"/>
    <tag k="highway" v="residential"/>
    <tag k="maxspeed" v="50"/>
    <tag k="maxspeed:source" v="default residential speed limit in Australia"/>
    <tag k="name" v="Hartley Road"/>
  </way>
</osm>
