<?xml version='1.0' encoding='UTF-8'?>
<osm version="0.6" generator="libosmium/2.20.0">
  <way id="61415013" version="1" timestamp="2010-06-07T18:24:46Z" uid="300379" user="mrrc" changeset="4929693">
    <nd ref="766793730"/>
    <nd ref="766793731"/>
    <tag k="highway" v="residential"/>
    <tag k="name" v="Włókiennicza"/>
  </way>
  <way id="61415013" version="2" timestamp="2010-06-09T22:32:05Z" uid="66036" user="h4v" changeset="4950046">
    <nd ref="766793730"/>
    <nd ref="766793731"/>
    <tag k="fixme" v="residential"/>
    <tag k="name" v="Włókiennicza"/>
  </way>
  <way id="61415013" version="3" timestamp="2010-06-18T12:46:15Z" uid="66036" user="h4v" changeset="5016048">
    <nd ref="766793730"/>
    <nd ref="766793731"/>
    <tag k="fixme" v="check"/>
    <tag k="highway" v="residential"/>
    <tag k="name" v="Włókiennicza"/>
  </way>
  <way id="61415013" version="4" timestamp="2011-04-07T21:08:28Z" uid="66036" user="h4v" changeset="7798773">
    <nd ref="766793730"/>
    <nd ref="766793731"/>
    <tag k="highway" v="residential"/>
    <tag k="name" v="Włókiennicza"/>
  </way>
  <way id="61415013" version="5" timestamp="2012-03-05T11:55:27Z" uid="607553" user="Duke83" changeset="10878505">
    <nd ref="766793730"/>
    <nd ref="766793731"/>
    <tag k="highway" v="residential"/>
    <tag k="name" v="Włókiennicza"/>
    <tag k="surface" v="asphalt"/>
  </way>
  <way id="61415013" version="6" timestamp="2012-03-26T10:32:11Z" uid="537860" user="awulkiew" changeset="11104262">
    <nd ref="766793730"/>
    <nd ref="1691756730"/>
    <nd ref="1691756732"/>
    <nd ref="766793731"/>
    <tag k="highway" v="residential"/>
    <tag k="name" v="Włókiennicza"/>
    <tag k="surface" v="asphalt"/>
  </way>
</osm>
