<?xml version='1.0' encoding='UTF-8'?>
<osm version="0.6" generator="libosmium/2.20.0">
  <way id="61458817" version="2" timestamp="2010-07-09T03:58:49Z" uid="74617" user="JohnSmith" changeset="5170825">
    <nd ref="767142059"/>
    <nd ref="298601693"/>
    <tag k="highway" v="residential"/>
    <tag k="maxspeed" v="50"/>
    <tag k="maxspeed:source" v="default residential speed limit in Australia"/>
    <tag k="name" v="Woolton Avenue"/>
  </way>
  <way id="61458817" version="3" timestamp="2011-05-31T08:24:22Z" uid="434542" user="null_dev" changeset="8299244">
    <nd ref="767142059"/>
    <nd ref="298601693"/>
    <tag k="highway" v="residential"/>
    <tag k="maxspeed" v="50"/>
    <tag k="maxspeed:source" v="default residential speed limit in Australia"/>
    <tag k="name" v="Woolton Avenue"/>
    <tag k="surface" v="paved"/>
  </way>
  <way id="61458817" version="4" timestamp="2012-01-20T09:48:15Z" uid="147510" user="woodpeck_fixbot" changeset="10443754">
    <nd ref="767142059"/>
    <nd ref="298601693"/>
    <tag k="highway" v="residential"/>
    <tag k="name" v="Woolton Avenue"/>
    <tag k="surface" v="paved"/>
  </way>
  <way id="61458863" version="1" timestamp="2010-06-08T11:05:00Z" uid="18775" user="drlizau" changeset="4936234">
    <nd ref="767143259"/>
    <nd ref="767143263"/>
    <nd ref="767143251"/>
    <nd ref="767143262"/>
    <nd ref="767143259"/>
    <tag k="amenity" v="school"/>
    <tag k="name" v="Monash Primary School"/>
  </way>
  <way id="61458864" version="1" timestamp="2010-06-08T11:05:01Z" uid="18775" user="drlizau" changeset="4936234">
    <nd ref="270109638"/>
    <nd ref="767143261"/>
    <tag k="highway" v="residential"/>
    <tag k="name" v="Madison Avenue"/>
  </way>
  <way id="61458865" version="1" timestamp="2010-06-08T11:05:01Z" uid="18775" user="drlizau" changeset="4936234">
    <nd ref="270109639"/>
    <nd ref="767143264"/>
    <nd ref="767143242"/>
    <nd ref="767143241"/>
    <nd ref="270109638"/>
    <tag k="highway" v="residential"/>
    <tag k="name" v="Madison Avenue"/>
    <tag k="oneway" v="yes"/>
  </way>
  <way id="61458866" version="1" timestamp="2010-06-08T11:05:01Z" uid="18775" user="drlizau" changeset="4936234">
    <nd ref="767143252"/>
    <nd ref="767143224"/>
    <tag k="highway" v="unclassified"/>
    <tag k="name" v="Heward Road"/>
    <tag k="source" v="landsat"/>
    <tag k="source:name" v="survey"/>
  </way>
  <way id="61458867" version="1" timestamp="2010-06-08T11:05:01Z" uid="18775" user="drlizau" changeset="4936234">
    <nd ref="767143247"/>
    <nd ref="767143237"/>
    <nd ref="767143232"/>
    <nd ref="767143252"/>
    <nd ref="767143222"/>
    <nd ref="767143226"/>
    <tag k="highway" v="residential"/>
    <tag k="name" v="Delatour Terrace"/>
  </way>
  <way id="61458868" version="1" timestamp="2010-06-08T11:05:01Z" uid="18775" user="drlizau" changeset="4936234">
    <nd ref="270109638"/>
    <nd ref="767143246"/>
    <nd ref="767143258"/>
    <nd ref="767143240"/>
    <nd ref="270109624"/>
    <tag k="highway" v="residential"/>
    <tag k="name" v="Madison Avenue"/>
    <tag k="oneway" v="yes"/>
  </way>
  <way id="61458869" version="1" timestamp="2010-06-08T11:05:02Z" uid="18775" user="drlizau" changeset="4936234">
    <nd ref="767143261"/>
    <nd ref="767143239"/>
    <nd ref="767143249"/>
    <tag k="highway" v="unclassified"/>
  </way>
  <way id="61458870" version="1" timestamp="2010-06-08T11:05:02Z" uid="18775" user="drlizau" changeset="4936234">
    <nd ref="767143232"/>
    <nd ref="767143242"/>
    <nd ref="767143258"/>
    <nd ref="767143216"/>
    <tag k="highway" v="residential"/>
    <tag k="name" v="Jackson Street"/>
  </way>
  <way id="61458871" version="1" timestamp="2010-06-08T11:05:02Z" uid="18775" user="drlizau" changeset="4936234">
    <nd ref="270109639"/>
    <nd ref="767143238"/>
    <tag k="highway" v="unclassified"/>
  </way>
  <way id="61458872" version="1" timestamp="2010-06-08T11:05:02Z" uid="18775" user="drlizau" changeset="4936234">
    <nd ref="767143220"/>
    <nd ref="767143234"/>
    <nd ref="767143244"/>
    <nd ref="767143225"/>
    <nd ref="767143220"/>
    <tag k="leisure" v="pitch"/>
    <tag k="name" v="Monash Bowling Club"/>
    <tag k="sport" v="bowls"/>
  </way>
  <way id="61458873" version="1" timestamp="2010-06-08T11:05:02Z" uid="18775" user="drlizau" changeset="4936234">
    <nd ref="767143222"/>
    <nd ref="767143241"/>
    <nd ref="767143246"/>
    <tag k="highway" v="residential"/>
  </way>
  <way id="61458874" version="1" timestamp="2010-06-08T11:05:02Z" uid="18775" user="drlizau" changeset="4936234">
    <nd ref="767143226"/>
    <nd ref="270109638"/>
    <tag k="highway" v="residential"/>
    <tag k="name" v="Angove Terrace"/>
  </way>
  <way id="61458875" version="1" timestamp="2010-06-08T11:05:02Z" uid="18775" user="drlizau" changeset="4936234">
    <nd ref="767143239"/>
    <nd ref="767143255"/>
    <nd ref="767143216"/>
    <nd ref="767143221"/>
    <nd ref="767143230"/>
    <tag k="highway" v="residential"/>
    <tag k="name" v="Fenwick Road"/>
  </way>
  <way id="61458876" version="1" timestamp="2010-06-08T11:05:02Z" uid="18775" user="drlizau" changeset="4936234">
    <nd ref="767143221"/>
    <nd ref="767143240"/>
    <nd ref="767143264"/>
    <nd ref="767143237"/>
    <tag k="highway" v="residential"/>
    <tag k="name" v="Randell Terrace"/>
  </way>
  <way id="61458877" version="1" timestamp="2010-06-08T11:05:02Z" uid="18775" user="drlizau" changeset="4936234">
    <nd ref="767143250"/>
    <nd ref="767143254"/>
    <nd ref="767143215"/>
    <nd ref="767143218"/>
    <nd ref="767143250"/>
    <tag k="leisure" v="playground"/>
    <tag k="name" v="Monash Adventure Park"/>
    <tag k="opening_hours" v="10:00-17:00"/>
  </way>
  <way id="61458878" version="1" timestamp="2010-06-08T11:05:02Z" uid="18775" user="drlizau" changeset="4936234">
    <nd ref="767143223"/>
    <nd ref="767143236"/>
    <nd ref="767143245"/>
    <nd ref="767143243"/>
    <nd ref="767143223"/>
    <tag k="amenity" v="parking"/>
  </way>
  <way id="61458879" version="1" timestamp="2010-06-08T11:05:02Z" uid="18775" user="drlizau" changeset="4936234">
    <nd ref="767143261"/>
    <nd ref="767143229"/>
    <tag k="highway" v="unclassified"/>
  </way>
  <way id="61458902" version="2" timestamp="2010-07-09T03:58:59Z" uid="74617" user="JohnSmith" changeset="5170825">
    <nd ref="363261555"/>
    <nd ref="767143522"/>
    <tag k="admin_level" v="10"/>
    <tag k="attribution" v="Based on Australian Bureau of Statistics data"/>
    <tag k="boundary" v="administrative"/>
    <tag k="highway" v="residential"/>
    <tag k="maxspeed" v="50"/>
    <tag k="maxspeed:source" v="default residential speed limit in Australia"/>
    <tag k="name" v="Bird Avenue"/>
    <tag k="source" v="ABS_2006"/>
  </way>
  <way id="61458902" version="3" timestamp="2010-07-28T05:59:43Z" uid="211804" user="KenS" changeset="5335222">
    <nd ref="363261555"/>
    <nd ref="836057638"/>
    <nd ref="767143522"/>
    <tag k="admin_level" v="10"/>
    <tag k="attribution" v="Based on Australian Bureau of Statistics data"/>
    <tag k="boundary" v="administrative"/>
    <tag k="highway" v="residential"/>
    <tag k="maxspeed" v="50"/>
    <tag k="maxspeed:source" v="default residential speed limit in Australia"/>
    <tag k="name" v="Bird Avenue"/>
    <tag k="source" v="ABS_2006"/>
  </way>
  <way id="61458902" version="4" timestamp="2012-01-20T09:48:17Z" uid="147510" user="woodpeck_fixbot" changeset="10443754">
    <nd ref="363261555"/>
    <nd ref="836057638"/>
    <nd ref="767143522"/>
    <tag k="admin_level" v="10"/>
    <tag k="attribution" v="Based on Australian Bureau of Statistics data"/>
    <tag k="boundary" v="administrative"/>
    <tag k="highway" v="residential"/>
    <tag k="name" v="Bird Avenue"/>
    <tag k="source" v="ABS_2006"/>
  </way>
  <way id="61458902" version="5" timestamp="2012-01-22T10:43:57Z" uid="211804" user="KenS" changeset="10463209">
    <nd ref="1600904994"/>
    <nd ref="836057638"/>
    <nd ref="1600904999"/>
    <tag k="admin_level" v="10"/>
    <tag k="attribution" v="Based on Australian Bureau of Statistics data"/>
    <tag k="boundary" v="administrative"/>
    <tag k="source" v="ABS_2006"/>
  </way>
</osm>
