<?xml version='1.0' encoding='UTF-8'?>
<osm version="0.6" generator="libosmium/2.20.0">
  <way id="61718298" version="3" timestamp="2011-01-18T12:21:44Z" uid="115477" user="wowik" changeset="7009789">
    <nd ref="769068592"/>
    <nd ref="769068593"/>
    <nd ref="769068594"/>
    <nd ref="769068595"/>
    <nd ref="769068592"/>
    <tag k="addr:city" v="Зеленоград"/>
    <tag k="addr:housenumber" v="919с1"/>
    <tag k="addr:street" v="9-й Микрорайон"/>
    <tag k="amenity" v="market"/>
    <tag k="building" v="yes"/>
    <tag k="building:levels" v="1"/>
    <tag k="is_in" v="Russia"/>
    <tag k="landuse" v="commercial"/>
  </way>
  <way id="61718298" version="4" timestamp="2011-01-19T16:56:01Z" uid="70696" user="xybot" changeset="7021015">
    <nd ref="769068592"/>
    <nd ref="769068593"/>
    <nd ref="769068594"/>
    <nd ref="769068595"/>
    <nd ref="769068592"/>
    <tag k="addr:city" v="Зеленоград"/>
    <tag k="addr:housenumber" v="919 с1"/>
    <tag k="addr:street" v="9-й Микрорайон"/>
    <tag k="amenity" v="market"/>
    <tag k="building" v="yes"/>
    <tag k="building:levels" v="1"/>
    <tag k="is_in" v="Russia"/>
    <tag k="landuse" v="commercial"/>
  </way>
  <way id="61718298" version="5" timestamp="2011-02-03T18:58:06Z" uid="135021" user="andriano" changeset="7176617">
    <nd ref="769068592"/>
    <nd ref="769068593"/>
    <nd ref="769068594"/>
    <nd ref="769068595"/>
    <nd ref="769068592"/>
    <tag k="addr:city" v="Зеленоград"/>
    <tag k="addr:housenumber" v="919 с1"/>
    <tag k="addr:street" v="9-й Микрорайон"/>
    <tag k="amenity" v="marketplace"/>
    <tag k="building" v="yes"/>
    <tag k="building:levels" v="1"/>
    <tag k="is_in" v="Russia"/>
    <tag k="landuse" v="commercial"/>
  </way>
  <way id="61718298" version="6" timestamp="2011-06-07T20:49:28Z" uid="133332" user="AMDmi3" changeset="8374030">
    <nd ref="769068592"/>
    <nd ref="769068593"/>
    <nd ref="769068594"/>
    <nd ref="769068595"/>
    <nd ref="769068592"/>
    <tag k="addr:city" v="Зеленоград"/>
    <tag k="addr:housenumber" v="919 с1"/>
    <tag k="addr:street" v="9-й микрорайон"/>
    <tag k="amenity" v="marketplace"/>
    <tag k="building" v="yes"/>
    <tag k="building:levels" v="1"/>
    <tag k="is_in" v="Russia"/>
    <tag k="landuse" v="commercial"/>
  </way>
  <way id="61718298" version="7" timestamp="2011-09-13T10:29:18Z" uid="29320" user="Komяpa" changeset="9288237">
    <nd ref="769068592"/>
    <nd ref="769068593"/>
    <nd ref="769068594"/>
    <nd ref="769068595"/>
    <nd ref="769068592"/>
    <tag k="addr:city" v="Зеленоград"/>
    <tag k="addr:country" v="RU"/>
    <tag k="addr:housenumber" v="919 с1"/>
    <tag k="addr:street" v="9-й микрорайон"/>
    <tag k="amenity" v="marketplace"/>
    <tag k="building" v="commercial"/>
    <tag k="building:levels" v="1"/>
  </way>
  <way id="61718298" version="8" timestamp="2012-03-27T11:47:04Z" uid="481934" user="iWowik" changeset="11115472">
    <nd ref="769068592"/>
    <nd ref="769068593"/>
    <nd ref="769068594"/>
    <nd ref="769068595"/>
    <nd ref="769068592"/>
    <tag k="addr:city" v="Зеленоград"/>
    <tag k="addr:country" v="RU"/>
    <tag k="addr:housenumber" v="919 с1"/>
    <tag k="addr:region" v="Москва"/>
    <tag k="addr:street" v="9-й микрорайон"/>
    <tag k="amenity" v="marketplace"/>
    <tag k="building" v="commercial"/>
    <tag k="building:levels" v="1"/>
  </way>
  <way id="61718303" version="3" timestamp="2011-01-18T12:23:06Z" uid="115477" user="wowik" changeset="7009789">
    <nd ref="769068782"/>
    <nd ref="769068783"/>
    <nd ref="769068785"/>
    <nd ref="769068786"/>
    <nd ref="769068782"/>
    <tag k="addr:city" v="Зеленоград"/>
    <tag k="addr:housenumber" v="920А"/>
    <tag k="addr:street" v="9-й Микрорайон"/>
    <tag k="amenity" v="market"/>
    <tag k="building" v="yes"/>
    <tag k="building:levels" v="1"/>
    <tag k="is_in" v="Russia"/>
    <tag k="landuse" v="commercial"/>
  </way>
  <way id="61718303" version="4" timestamp="2011-01-28T17:28:44Z" uid="135021" user="andriano" changeset="7114991">
    <nd ref="769068782"/>
    <nd ref="769068783"/>
    <nd ref="769068785"/>
    <nd ref="769068786"/>
    <nd ref="769068782"/>
    <tag k="addr:city" v="Зеленоград"/>
    <tag k="addr:housenumber" v="920А"/>
    <tag k="addr:street" v="9-й Микрорайон"/>
    <tag k="amenity" v="marketplace"/>
    <tag k="building" v="yes"/>
    <tag k="building:levels" v="1"/>
    <tag k="is_in" v="Russia"/>
    <tag k="landuse" v="commercial"/>
  </way>
  <way id="61718303" version="5" timestamp="2011-06-07T20:49:26Z" uid="133332" user="AMDmi3" changeset="8374030">
    <nd ref="769068782"/>
    <nd ref="769068783"/>
    <nd ref="769068785"/>
    <nd ref="769068786"/>
    <nd ref="769068782"/>
    <tag k="addr:city" v="Зеленоград"/>
    <tag k="addr:housenumber" v="920А"/>
    <tag k="addr:street" v="9-й микрорайон"/>
    <tag k="amenity" v="marketplace"/>
    <tag k="building" v="yes"/>
    <tag k="building:levels" v="1"/>
    <tag k="is_in" v="Russia"/>
    <tag k="landuse" v="commercial"/>
  </way>
  <way id="61718303" version="6" timestamp="2011-09-13T10:29:20Z" uid="29320" user="Komяpa" changeset="9288237">
    <nd ref="769068782"/>
    <nd ref="769068783"/>
    <nd ref="769068785"/>
    <nd ref="769068786"/>
    <nd ref="769068782"/>
    <tag k="addr:city" v="Зеленоград"/>
    <tag k="addr:country" v="RU"/>
    <tag k="addr:housenumber" v="920А"/>
    <tag k="addr:street" v="9-й микрорайон"/>
    <tag k="amenity" v="marketplace"/>
    <tag k="building" v="commercial"/>
    <tag k="building:levels" v="1"/>
  </way>
  <way id="61718303" version="7" timestamp="2012-03-27T11:47:06Z" uid="481934" user="iWowik" changeset="11115472">
    <nd ref="769068782"/>
    <nd ref="769068783"/>
    <nd ref="769068785"/>
    <nd ref="769068786"/>
    <nd ref="769068782"/>
    <tag k="addr:city" v="Зеленоград"/>
    <tag k="addr:country" v="RU"/>
    <tag k="addr:housenumber" v="920А"/>
    <tag k="addr:region" v="Москва"/>
    <tag k="addr:street" v="9-й микрорайон"/>
    <tag k="amenity" v="marketplace"/>
    <tag k="building" v="commercial"/>
    <tag k="building:levels" v="1"/>
  </way>
  <way id="61718598" version="2" timestamp="2010-11-09T11:29:35Z" uid="115477" user="wowik" changeset="6327211">
    <nd ref="769071148"/>
    <nd ref="769071149"/>
    <nd ref="769071150"/>
    <nd ref="769071151"/>
    <nd ref="769071152"/>
    <nd ref="769071155"/>
    <nd ref="769071156"/>
    <nd ref="769071157"/>
    <nd ref="769071158"/>
    <nd ref="769071159"/>
    <nd ref="983253316"/>
    <nd ref="983253820"/>
    <nd ref="983253515"/>
    <nd ref="983253928"/>
    <nd ref="769071148"/>
    <tag k="addr:city" v="Зеленоград"/>
    <tag k="addr:housenumber" v="3с2"/>
    <tag k="addr:street" v="4-й Западный проезд"/>
    <tag k="building" v="yes"/>
    <tag k="is_in" v="Russia"/>
  </way>
  <way id="61718598" version="3" timestamp="2011-01-14T19:45:20Z" uid="206282" user="Amigo" changeset="6970476">
    <nd ref="769071148"/>
    <nd ref="769071149"/>
    <nd ref="769071150"/>
    <nd ref="769071151"/>
    <nd ref="769071152"/>
    <nd ref="769071155"/>
    <nd ref="769071156"/>
    <nd ref="769071157"/>
    <nd ref="769071158"/>
    <nd ref="769071159"/>
    <nd ref="983253316"/>
    <nd ref="983253820"/>
    <nd ref="983253515"/>
    <nd ref="983253928"/>
    <nd ref="769071148"/>
    <tag k="addr:city" v="Зеленоград"/>
    <tag k="addr:housenumber" v="3 с2"/>
    <tag k="addr:street" v="4-й Западный проезд"/>
    <tag k="building" v="yes"/>
    <tag k="is_in" v="Russia"/>
  </way>
  <way id="61718598" version="4" timestamp="2011-02-09T16:15:24Z" uid="115477" user="wowik" changeset="7237446">
    <nd ref="769071159"/>
    <nd ref="983253316"/>
    <nd ref="983253820"/>
    <nd ref="983253515"/>
    <nd ref="983253928"/>
    <nd ref="769071148"/>
    <nd ref="769071149"/>
    <nd ref="769071150"/>
    <nd ref="769071159"/>
    <tag k="addr:city" v="Зеленоград"/>
    <tag k="addr:housenumber" v="3 с2"/>
    <tag k="addr:street" v="4-й Западный проезд"/>
    <tag k="building" v="yes"/>
    <tag k="is_in" v="Russia"/>
  </way>
  <way id="61718598" version="5" timestamp="2011-09-13T10:25:28Z" uid="29320" user="Komяpa" changeset="9288237">
    <nd ref="769071159"/>
    <nd ref="983253316"/>
    <nd ref="983253820"/>
    <nd ref="983253515"/>
    <nd ref="983253928"/>
    <nd ref="769071148"/>
    <nd ref="769071149"/>
    <nd ref="769071150"/>
    <nd ref="769071159"/>
    <tag k="addr:city" v="Зеленоград"/>
    <tag k="addr:country" v="RU"/>
    <tag k="addr:housenumber" v="3 с2"/>
    <tag k="addr:street" v="4-й Западный проезд"/>
    <tag k="building" v="yes"/>
  </way>
  <way id="61718633" version="2" timestamp="2011-02-02T19:31:04Z" uid="115477" user="wowik" changeset="7167748">
    <nd ref="769071716"/>
    <nd ref="1132653006"/>
    <nd ref="1132653435"/>
    <nd ref="1132653654"/>
    <nd ref="1132653179"/>
    <nd ref="769071717"/>
    <nd ref="1132653145"/>
    <nd ref="1132653304"/>
    <nd ref="1132652865"/>
    <nd ref="1132653781"/>
    <nd ref="769071718"/>
    <nd ref="769071719"/>
    <nd ref="769071716"/>
    <tag k="addr:city" v="Зеленоград"/>
    <tag k="addr:country" v="RU"/>
    <tag k="addr:housenumber" v="11 с4"/>
    <tag k="addr:street" v="3-й Западный проезд"/>
    <tag k="building" v="yes"/>
  </way>
  <way id="61718633" version="3" timestamp="2012-03-27T11:34:03Z" uid="481934" user="iWowik" changeset="11115472">
    <nd ref="769071716"/>
    <nd ref="1132653006"/>
    <nd ref="1132653435"/>
    <nd ref="1132653654"/>
    <nd ref="1132653179"/>
    <nd ref="769071717"/>
    <nd ref="1132653145"/>
    <nd ref="1132653304"/>
    <nd ref="1132652865"/>
    <nd ref="1132653781"/>
    <nd ref="769071718"/>
    <nd ref="769071719"/>
    <nd ref="769071716"/>
    <tag k="addr:city" v="Зеленоград"/>
    <tag k="addr:country" v="RU"/>
    <tag k="addr:housenumber" v="11 с4"/>
    <tag k="addr:region" v="Москва"/>
    <tag k="addr:street" v="3-й Западный проезд"/>
    <tag k="building" v="yes"/>
  </way>
  <way id="61718634" version="2" timestamp="2011-02-02T19:30:54Z" uid="115477" user="wowik" changeset="7167748">
    <nd ref="769071720"/>
    <nd ref="1132653336"/>
    <nd ref="1132652895"/>
    <nd ref="769071721"/>
    <nd ref="1132653496"/>
    <nd ref="1132653059"/>
    <nd ref="769071722"/>
    <nd ref="769071723"/>
    <nd ref="769071720"/>
    <tag k="addr:city" v="Зеленоград"/>
    <tag k="addr:country" v="RU"/>
    <tag k="addr:housenumber" v="15 с5"/>
    <tag k="addr:street" v="3-й Западный проезд"/>
    <tag k="building" v="yes"/>
  </way>
  <way id="61718635" version="2" timestamp="2011-02-02T20:08:52Z" uid="115477" user="wowik" changeset="7168176">
    <nd ref="769071726"/>
    <nd ref="769071727"/>
    <nd ref="769071728"/>
    <nd ref="769071729"/>
    <nd ref="769071726"/>
    <tag k="addr:city" v="Зеленоград"/>
    <tag k="addr:country" v="RU"/>
    <tag k="addr:housenumber" v="44"/>
    <tag k="addr:street" v="Колхозная улица"/>
    <tag k="building" v="yes"/>
  </way>
  <way id="61718677" version="2" timestamp="2011-02-02T19:31:20Z" uid="115477" user="wowik" changeset="7167748">
    <nd ref="769071919"/>
    <nd ref="769071920"/>
    <nd ref="769071921"/>
    <nd ref="769071922"/>
    <nd ref="769071919"/>
    <tag k="addr:city" v="Зеленоград"/>
    <tag k="addr:country" v="RU"/>
    <tag k="addr:housenumber" v="12 с7"/>
    <tag k="addr:street" v="3-й Западный проезд"/>
    <tag k="building" v="yes"/>
  </way>
  <way id="61718678" version="2" timestamp="2011-02-02T20:08:50Z" uid="115477" user="wowik" changeset="7168176">
    <nd ref="769071923"/>
    <nd ref="769071924"/>
    <nd ref="769071925"/>
    <nd ref="769071926"/>
    <nd ref="769071923"/>
    <tag k="addr:city" v="Зеленоград"/>
    <tag k="addr:country" v="RU"/>
    <tag k="addr:housenumber" v="12 с4"/>
    <tag k="addr:street" v="3-й Западный проезд"/>
    <tag k="building" v="yes"/>
  </way>
  <way id="61718679" version="4" timestamp="2011-02-02T19:31:07Z" uid="115477" user="wowik" changeset="7167748">
    <nd ref="769071927"/>
    <nd ref="793151307"/>
    <nd ref="1132653086"/>
    <nd ref="1132653535"/>
    <nd ref="769071928"/>
    <nd ref="769071929"/>
    <nd ref="769071930"/>
    <nd ref="769071931"/>
    <nd ref="1132653489"/>
    <nd ref="769071927"/>
    <tag k="barrier" v="wall"/>
    <tag k="landuse" v="industrial"/>
    <tag k="name" v="Хлебозавод №28"/>
    <tag k="source" v="Wikimapia"/>
  </way>
</osm>
