<?xml version='1.0' encoding='UTF-8'?>
<osm version="0.6" generator="libosmium/2.20.0">
  <way id="61731617" version="1" timestamp="2010-06-11T14:59:26Z" uid="4467" user="Rosscoe" changeset="4963171">
    <nd ref="696235584"/>
    <nd ref="735985044"/>
    <nd ref="725879900"/>
    <nd ref="726593062"/>
    <nd ref="726593068"/>
    <nd ref="445401734"/>
    <nd ref="709562945"/>
    <nd ref="709562895"/>
    <nd ref="697205827"/>
    <nd ref="709562966"/>
    <nd ref="725879883"/>
    <nd ref="725879902"/>
    <nd ref="696235595"/>
    <tag k="highway" v="trunk"/>
    <tag k="name" v="Great Eastern Highway"/>
    <tag k="oneway" v="yes"/>
    <tag k="ref" v="NR1;S51"/>
    <tag k="source" v="nearmap"/>
  </way>
  <way id="61731618" version="1" timestamp="2010-06-11T14:59:27Z" uid="4467" user="Rosscoe" changeset="4963171">
    <nd ref="769203775"/>
    <nd ref="769203779"/>
    <nd ref="32485711"/>
    <nd ref="769203780"/>
    <nd ref="32485717"/>
    <nd ref="735989084"/>
    <tag k="highway" v="trunk"/>
    <tag k="name" v="Great Eastern Highway"/>
    <tag k="ref" v="NR1"/>
    <tag k="source" v="nearmap"/>
  </way>
  <way id="61731618" version="2" timestamp="2010-06-20T10:36:03Z" uid="306817" user="chainsaw" changeset="5031598">
    <nd ref="769203775"/>
    <nd ref="769203779"/>
    <nd ref="32485711"/>
    <nd ref="769203780"/>
    <nd ref="32485717"/>
    <nd ref="735989084"/>
    <tag k="highway" v="trunk"/>
    <tag k="name" v="Johnston Street"/>
    <tag k="ref" v="NR1"/>
    <tag k="source" v="nearmap"/>
  </way>
  <way id="61731618" version="3" timestamp="2010-09-15T23:48:20Z" uid="294850" user="Q4004" changeset="5791857">
    <nd ref="769203775"/>
    <nd ref="769203779"/>
    <nd ref="32485711"/>
    <nd ref="769203780"/>
    <nd ref="32485717"/>
    <nd ref="735989084"/>
    <tag k="highway" v="trunk"/>
    <tag k="name" v="Johnson Street"/>
    <tag k="ref" v="NR1"/>
    <tag k="source" v="nearmap"/>
  </way>
  <way id="61731618" version="4" timestamp="2010-10-22T01:21:44Z" uid="192584" user="ORYX" changeset="6132555">
    <nd ref="769203775"/>
    <nd ref="769203779"/>
    <nd ref="32485711"/>
    <nd ref="769203780"/>
    <nd ref="32485717"/>
    <nd ref="735989084"/>
    <tag k="highway" v="trunk"/>
    <tag k="name" v="Johnson Street"/>
    <tag k="oneway" v="yes"/>
    <tag k="ref" v="NR1"/>
    <tag k="source" v="nearmap"/>
  </way>
</osm>
