<?xml version='1.0' encoding='UTF-8'?>
<osm version="0.6" generator="libosmium/2.20.0">
  <way id="61948042" version="4" timestamp="2010-07-11T23:53:57Z" uid="20587" user="balrog-kun" changeset="5195140">
    <nd ref="772176076"/>
    <nd ref="772261232"/>
    <nd ref="772164497"/>
    <nd ref="772111952"/>
    <tag k="highway" v="service"/>
    <tag k="local_code" v="0193"/>
    <tag k="maxspeed" v="50"/>
    <tag k="name" v="Plaça d&apos;Espanya"/>
    <tag k="name:ca" v="Plaça d&apos;Espanya"/>
    <tag k="oneway" v="yes"/>
    <tag k="source" v="Ajuntament de Girona"/>
  </way>
  <way id="61948059" version="3" timestamp="2010-07-11T23:53:51Z" uid="20587" user="balrog-kun" changeset="5195140">
    <nd ref="772172645"/>
    <nd ref="772127050"/>
    <tag k="construction" v="primary"/>
    <tag k="highway" v="construction"/>
    <tag k="local_code" v="0434"/>
    <tag k="maxspeed" v="50"/>
    <tag k="name" v="Passeig d&apos;Olot"/>
    <tag k="name:ca" v="Passeig d&apos;Olot"/>
    <tag k="oneway" v="-1"/>
    <tag k="ref" v="N-141"/>
    <tag k="source" v="Ajuntament de Girona"/>
  </way>
  <way id="61948207" version="3" timestamp="2010-07-11T23:53:49Z" uid="20587" user="balrog-kun" changeset="5195140">
    <nd ref="772192635"/>
    <nd ref="772174756"/>
    <nd ref="772129257"/>
    <nd ref="771975574"/>
    <nd ref="772117738"/>
    <nd ref="772247508"/>
    <tag k="bicycle" v="designated"/>
    <tag k="highway" v="service"/>
    <tag k="local_code" v="0759"/>
    <tag k="maxspeed" v="30"/>
    <tag k="motor_vehicle" v="yes"/>
    <tag k="name" v="Carrer de Pierre Vilar"/>
    <tag k="name:ca" v="Carrer de Pierre Vilar"/>
    <tag k="oneway" v="-1"/>
    <tag k="source" v="Ajuntament de Girona"/>
  </way>
  <way id="61948207" version="4" timestamp="2010-07-26T17:44:49Z" uid="7630" user="LivingWithDragons" changeset="5322890">
    <nd ref="772247508"/>
    <nd ref="772117738"/>
    <nd ref="771975574"/>
    <nd ref="772129257"/>
    <nd ref="772174756"/>
    <nd ref="772192635"/>
    <tag k="bicycle" v="designated"/>
    <tag k="highway" v="service"/>
    <tag k="local_code" v="0759"/>
    <tag k="maxspeed" v="30"/>
    <tag k="motor_vehicle" v="yes"/>
    <tag k="name" v="Carrer de Pierre Vilar"/>
    <tag k="name:ca" v="Carrer de Pierre Vilar"/>
    <tag k="oneway" v="yes"/>
    <tag k="source" v="Ajuntament de Girona"/>
  </way>
  <way id="61948496" version="3" timestamp="2010-07-11T23:53:54Z" uid="20587" user="balrog-kun" changeset="5195140">
    <nd ref="772106338"/>
    <nd ref="772195005"/>
    <nd ref="812530600"/>
    <nd ref="772110323"/>
    <nd ref="771997506"/>
    <nd ref="772208117"/>
    <nd ref="772162827"/>
    <nd ref="772034425"/>
    <nd ref="772168480"/>
    <nd ref="772049448"/>
    <tag k="bicycle" v="designated"/>
    <tag k="highway" v="residential"/>
    <tag k="local_code" v="0171"/>
    <tag k="maxspeed" v="30"/>
    <tag k="motor_vehicle" v="yes"/>
    <tag k="name" v="Carrer de Cristòfor Colom"/>
    <tag k="name:ca" v="Carrer de Cristòfor Colom"/>
    <tag k="oneway" v="yes"/>
    <tag k="source" v="Ajuntament de Girona"/>
  </way>
  <way id="61948523" version="3" timestamp="2010-08-09T06:16:45Z" uid="20587" user="balrog-kun" changeset="5440289">
    <nd ref="772100287"/>
    <nd ref="772228458"/>
    <nd ref="772129481"/>
    <nd ref="772156839"/>
    <tag k="highway" v="steps"/>
    <tag k="local_code" v="0043"/>
    <tag k="maxspeed" v="20"/>
    <tag k="motor_vehicle" v="no"/>
    <tag k="name" v="Travessia de l&apos;Auriga"/>
    <tag k="name:ca" v="Travessia de l&apos;Auriga"/>
    <tag k="pedestrian" v="designated"/>
    <tag k="source" v="Ajuntament de Girona"/>
    <tag k="wheelchair" v="no"/>
  </way>
  <way id="61948523" version="4" timestamp="2010-11-04T18:36:45Z" uid="45952" user="plexi32" changeset="6290633">
    <nd ref="772100287"/>
    <nd ref="772129481"/>
    <nd ref="772156839"/>
    <tag k="highway" v="steps"/>
    <tag k="local_code" v="0043"/>
    <tag k="maxspeed" v="20"/>
    <tag k="motor_vehicle" v="no"/>
    <tag k="name" v="Travessia de l&apos;Auriga"/>
    <tag k="name:ca" v="Travessia de l&apos;Auriga"/>
    <tag k="pedestrian" v="designated"/>
    <tag k="source" v="Ajuntament de Girona"/>
    <tag k="wheelchair" v="no"/>
  </way>
  <way id="61948523" version="5" timestamp="2012-03-30T05:07:26Z" uid="70696" user="xybot" changeset="11146745">
    <nd ref="772100287"/>
    <nd ref="772129481"/>
    <nd ref="772156839"/>
    <tag k="highway" v="steps"/>
    <tag k="local_code" v="0043"/>
    <tag k="maxspeed" v="20"/>
    <tag k="motor_vehicle" v="no"/>
    <tag k="name" v="Travessia de l&apos;Auriga"/>
    <tag k="name:ca" v="Travessia de l&apos;Auriga"/>
    <tag k="pedestrians" v="designated"/>
    <tag k="source" v="Ajuntament de Girona"/>
    <tag k="wheelchair" v="no"/>
  </way>
  <way id="61948601" version="4" timestamp="2010-07-11T23:54:12Z" uid="20587" user="balrog-kun" changeset="5195140">
    <nd ref="772172645"/>
    <nd ref="812530621"/>
    <nd ref="800522068"/>
    <tag k="construction" v="primary"/>
    <tag k="highway" v="construction"/>
    <tag k="local_code" v="0434"/>
    <tag k="maxspeed" v="50"/>
    <tag k="name" v="Passeig d&apos;Olot"/>
    <tag k="name:ca" v="Passeig d&apos;Olot"/>
    <tag k="oneway" v="yes"/>
    <tag k="ref" v="N-141"/>
    <tag k="source" v="Ajuntament de Girona"/>
  </way>
  <way id="61948628" version="1" timestamp="2010-06-13T23:01:01Z" uid="38528" user="acrosscanadatrails" changeset="4983802">
    <nd ref="772243186"/>
    <nd ref="772243258"/>
    <tag k="highway" v="residential"/>
  </way>
  <way id="61948628" version="2" timestamp="2012-01-30T16:22:09Z" uid="147510" user="woodpeck_fixbot" changeset="10538137"/>
  <way id="61948629" version="1" timestamp="2010-06-13T23:01:01Z" uid="38528" user="acrosscanadatrails" changeset="4983802">
    <nd ref="772243258"/>
    <nd ref="772243392"/>
    <nd ref="772170891"/>
    <nd ref="772243278"/>
    <nd ref="772243208"/>
    <nd ref="772243336"/>
    <nd ref="772243254"/>
    <nd ref="772243350"/>
    <nd ref="772243386"/>
    <tag k="highway" v="residential"/>
  </way>
  <way id="61948629" version="2" timestamp="2012-01-30T16:22:10Z" uid="147510" user="woodpeck_fixbot" changeset="10538137"/>
  <way id="61948630" version="1" timestamp="2010-06-13T23:01:02Z" uid="38528" user="acrosscanadatrails" changeset="4983802">
    <nd ref="490266717"/>
    <nd ref="490266746"/>
    <nd ref="490266744"/>
    <nd ref="490265971"/>
    <nd ref="490265972"/>
    <nd ref="490266710"/>
    <nd ref="490266709"/>
    <nd ref="490265973"/>
    <nd ref="490266407"/>
    <nd ref="490265974"/>
    <nd ref="490265975"/>
    <nd ref="490265976"/>
    <nd ref="490265977"/>
    <nd ref="490265978"/>
    <tag k="highway" v="residential"/>
    <tag k="name" v="Kokannee Drive"/>
  </way>
  <way id="61948630" version="2" timestamp="2010-12-09T16:51:42Z" uid="239998" user="Sundance" changeset="6596918">
    <nd ref="490266717"/>
    <nd ref="490266746"/>
    <nd ref="490266744"/>
    <nd ref="490265971"/>
    <nd ref="490265972"/>
    <nd ref="490266710"/>
    <nd ref="490266709"/>
    <nd ref="490265973"/>
    <nd ref="490266407"/>
    <nd ref="490265974"/>
    <tag k="highway" v="residential"/>
    <tag k="name" v="Kokannee Drive"/>
  </way>
  <way id="61948630" version="3" timestamp="2012-03-02T05:08:26Z" uid="147510" user="woodpeck_fixbot" changeset="10842511"/>
  <way id="61948630" version="4" timestamp="2012-03-13T06:37:56Z" uid="147510" user="woodpeck_fixbot" changeset="10960757">
    <nd ref="490266717"/>
    <nd ref="490266746"/>
    <nd ref="490266744"/>
    <nd ref="490265971"/>
    <nd ref="490265972"/>
    <nd ref="490266710"/>
    <nd ref="490266709"/>
    <nd ref="490265973"/>
    <nd ref="490266407"/>
    <nd ref="490265974"/>
    <tag k="highway" v="residential"/>
    <tag k="name" v="Kokannee Drive"/>
  </way>
  <way id="61948631" version="1" timestamp="2010-06-13T23:01:03Z" uid="38528" user="acrosscanadatrails" changeset="4983802">
    <nd ref="490266713"/>
    <nd ref="772115768"/>
    <nd ref="490266714"/>
    <nd ref="772115717"/>
    <nd ref="490266715"/>
    <nd ref="490266716"/>
    <nd ref="490266717"/>
    <tag k="highway" v="residential"/>
    <tag k="name" v="Kokannee Cresent North"/>
  </way>
  <way id="61948631" version="2" timestamp="2012-01-30T16:22:11Z" uid="147510" user="woodpeck_fixbot" changeset="10538137"/>
  <way id="61948632" version="1" timestamp="2010-06-13T23:01:05Z" uid="38528" user="acrosscanadatrails" changeset="4983802">
    <nd ref="293056555"/>
    <nd ref="490265848"/>
    <tag k="highway" v="trunk"/>
    <tag k="name" v="Cranbrook Street north"/>
    <tag k="name_1" v="Highway 3"/>
    <tag k="name_2" v="Highway 95"/>
    <tag k="name_3" v="Crowsnest Highway"/>
    <tag k="oneway" v="yes"/>
    <tag k="ref" v="3; 95"/>
  </way>
  <way id="61948632" version="2" timestamp="2011-08-23T07:07:50Z" uid="207745" user="NE2" changeset="9100531">
    <nd ref="293056555"/>
    <nd ref="490265848"/>
    <tag k="highway" v="trunk"/>
    <tag k="name" v="Cranbrook Street north"/>
    <tag k="name_1" v="Highway 3"/>
    <tag k="name_2" v="Highway 95"/>
    <tag k="name_3" v="Crowsnest Highway"/>
    <tag k="ref" v="3; 95"/>
  </way>
  <way id="61948632" version="3" timestamp="2011-08-23T21:11:02Z" uid="207745" user="NE2" changeset="9107736">
    <nd ref="293056555"/>
    <nd ref="490265848"/>
    <tag k="NHS" v="yes"/>
    <tag k="highway" v="trunk"/>
    <tag k="name" v="Cranbrook Street north"/>
    <tag k="name_1" v="Highway 3"/>
    <tag k="name_2" v="Highway 95"/>
    <tag k="name_3" v="Crowsnest Highway"/>
    <tag k="ref" v="3; 95"/>
  </way>
  <way id="61948632" version="4" timestamp="2011-09-19T22:01:08Z" uid="355617" user="pnorman" changeset="9347216">
    <nd ref="293056555"/>
    <nd ref="490265848"/>
    <tag k="highway" v="trunk"/>
    <tag k="name" v="Cranbrook Street north"/>
    <tag k="name_1" v="Highway 3"/>
    <tag k="name_2" v="Highway 95"/>
    <tag k="name_3" v="Crowsnest Highway"/>
    <tag k="ref" v="3; 95"/>
  </way>
  <way id="61948632" version="5" timestamp="2012-03-02T05:08:34Z" uid="147510" user="woodpeck_fixbot" changeset="10842511"/>
  <way id="61948632" version="6" timestamp="2012-03-13T06:37:56Z" uid="147510" user="woodpeck_fixbot" changeset="10960757">
    <nd ref="293056555"/>
    <nd ref="490265848"/>
    <tag k="highway" v="trunk"/>
    <tag k="name" v="Cranbrook Street north"/>
    <tag k="name_1" v="Highway 3"/>
    <tag k="name_2" v="Highway 95"/>
    <tag k="name_3" v="Crowsnest Highway"/>
    <tag k="ref" v="3; 95"/>
  </way>
  <way id="61948633" version="1" timestamp="2010-06-13T23:01:05Z" uid="38528" user="acrosscanadatrails" changeset="4983802">
    <nd ref="490265861"/>
    <nd ref="427493865"/>
    <nd ref="427493867"/>
    <nd ref="772202180"/>
    <nd ref="427493868"/>
    <nd ref="427493869"/>
    <nd ref="772202236"/>
    <nd ref="427493870"/>
    <tag k="highway" v="residential"/>
    <tag k="key" v="30th Aveneu North"/>
  </way>
  <way id="61948633" version="2" timestamp="2010-12-09T16:51:40Z" uid="239998" user="Sundance" changeset="6596918">
    <nd ref="490265861"/>
    <nd ref="427493865"/>
    <nd ref="427493867"/>
    <nd ref="772202180"/>
    <nd ref="427493868"/>
    <nd ref="427493869"/>
    <nd ref="772202236"/>
    <nd ref="427493870"/>
    <tag k="highway" v="residential"/>
    <tag k="key" v="30th Avenue North"/>
  </way>
  <way id="61948633" version="3" timestamp="2012-03-02T05:08:35Z" uid="147510" user="woodpeck_fixbot" changeset="10842511"/>
  <way id="61948633" version="4" timestamp="2012-03-13T06:37:57Z" uid="147510" user="woodpeck_fixbot" changeset="10960757">
    <nd ref="490265861"/>
    <nd ref="427493865"/>
    <nd ref="427493867"/>
    <nd ref="772202180"/>
    <nd ref="427493868"/>
    <nd ref="427493869"/>
    <nd ref="772202236"/>
    <nd ref="427493870"/>
    <tag k="highway" v="residential"/>
    <tag k="key" v="30th Avenue North"/>
  </way>
  <way id="61948634" version="1" timestamp="2010-06-13T23:01:06Z" uid="38528" user="acrosscanadatrails" changeset="4983802">
    <nd ref="490265955"/>
    <nd ref="490265861"/>
    <tag k="highway" v="residential"/>
    <tag k="key" v="30th Aveneu North"/>
  </way>
  <way id="61948634" version="2" timestamp="2012-01-30T16:22:13Z" uid="147510" user="woodpeck_fixbot" changeset="10538137"/>
  <way id="61948635" version="1" timestamp="2010-06-13T23:01:07Z" uid="38528" user="acrosscanadatrails" changeset="4983802">
    <nd ref="427873830"/>
    <nd ref="427873831"/>
    <nd ref="427873832"/>
    <nd ref="427873833"/>
    <nd ref="427873834"/>
    <nd ref="427873835"/>
    <nd ref="427873836"/>
    <nd ref="427873837"/>
    <nd ref="427873838"/>
    <nd ref="427873839"/>
    <nd ref="427873840"/>
    <nd ref="427873841"/>
    <nd ref="427873842"/>
    <nd ref="427873843"/>
    <nd ref="427873844"/>
    <nd ref="427873845"/>
    <tag k="highway" v="tertiary"/>
    <tag k="name" v="Timber Road"/>
    <tag k="source" v="City of Cranbrook (c) 2009"/>
  </way>
  <way id="61948635" version="2" timestamp="2012-01-30T16:22:14Z" uid="147510" user="woodpeck_fixbot" changeset="10538137"/>
  <way id="61948637" version="1" timestamp="2010-06-13T23:01:08Z" uid="38528" user="acrosscanadatrails" changeset="4983802">
    <nd ref="772115792"/>
    <nd ref="427873055"/>
    <nd ref="427873056"/>
    <nd ref="293056553"/>
    <nd ref="427873057"/>
    <nd ref="427873058"/>
    <nd ref="293056548"/>
    <nd ref="427873059"/>
    <nd ref="427873060"/>
    <nd ref="427873061"/>
    <nd ref="255737508"/>
    <nd ref="427873062"/>
    <nd ref="427873244"/>
    <nd ref="415781029"/>
    <nd ref="255737507"/>
    <nd ref="427873063"/>
    <nd ref="255737506"/>
    <nd ref="255737505"/>
    <nd ref="255737504"/>
    <nd ref="255737503"/>
    <nd ref="255737502"/>
    <nd ref="255737501"/>
    <nd ref="255737103"/>
    <nd ref="255737102"/>
    <nd ref="255736995"/>
    <tag k="highway" v="residential"/>
    <tag k="name" v="Industrial Road G"/>
  </way>
  <way id="61948637" version="2" timestamp="2010-12-08T22:53:10Z" uid="239998" user="Sundance" changeset="6590638">
    <nd ref="772115792"/>
    <nd ref="427873055"/>
    <nd ref="427873056"/>
    <nd ref="293056553"/>
    <nd ref="427873057"/>
    <nd ref="427873058"/>
    <nd ref="293056548"/>
    <nd ref="427873059"/>
    <nd ref="427873061"/>
    <nd ref="255737508"/>
    <nd ref="427873062"/>
    <nd ref="427873244"/>
    <nd ref="415781029"/>
    <nd ref="255737507"/>
    <nd ref="427873063"/>
    <nd ref="255737506"/>
    <nd ref="255737505"/>
    <nd ref="255737504"/>
    <nd ref="255737503"/>
    <nd ref="255737502"/>
    <nd ref="255737501"/>
    <nd ref="255737103"/>
    <nd ref="255737102"/>
    <nd ref="255736995"/>
    <tag k="highway" v="residential"/>
    <tag k="name" v="Industrial Road G"/>
  </way>
  <way id="61948637" version="3" timestamp="2010-12-09T00:05:36Z" uid="239998" user="Sundance" changeset="6591106">
    <nd ref="772115792"/>
    <nd ref="427873055"/>
    <nd ref="427873056"/>
    <nd ref="293056553"/>
    <nd ref="427873057"/>
    <nd ref="427873058"/>
    <nd ref="293056548"/>
    <nd ref="427873059"/>
    <nd ref="427873061"/>
    <nd ref="1028896954"/>
    <nd ref="255737508"/>
    <nd ref="427873062"/>
    <nd ref="427873244"/>
    <nd ref="415781029"/>
    <nd ref="255737507"/>
    <nd ref="427873063"/>
    <nd ref="255737506"/>
    <nd ref="255737505"/>
    <nd ref="255737504"/>
    <nd ref="255737503"/>
    <nd ref="255737502"/>
    <nd ref="255737501"/>
    <nd ref="255737103"/>
    <nd ref="255737102"/>
    <nd ref="255736995"/>
    <tag k="highway" v="residential"/>
    <tag k="name" v="Industrial Road G"/>
  </way>
  <way id="61948637" version="4" timestamp="2010-12-09T16:51:41Z" uid="239998" user="Sundance" changeset="6596918">
    <nd ref="772115792"/>
    <nd ref="427873055"/>
    <nd ref="427873056"/>
    <nd ref="293056553"/>
    <nd ref="427873057"/>
    <nd ref="427873058"/>
    <nd ref="293056548"/>
    <nd ref="427873059"/>
    <nd ref="427873061"/>
    <nd ref="1028896954"/>
    <nd ref="255737508"/>
    <nd ref="427873062"/>
    <nd ref="427873244"/>
    <nd ref="415781029"/>
    <nd ref="255737507"/>
    <nd ref="1029736096"/>
    <nd ref="427873063"/>
    <nd ref="1029736195"/>
    <nd ref="255737506"/>
    <nd ref="255737505"/>
    <nd ref="255737504"/>
    <nd ref="255737503"/>
    <nd ref="255737502"/>
    <nd ref="255737501"/>
    <nd ref="255737103"/>
    <nd ref="255737102"/>
    <nd ref="255736995"/>
    <tag k="highway" v="residential"/>
    <tag k="name" v="Industrial Road G"/>
  </way>
  <way id="61948637" version="5" timestamp="2011-02-09T00:58:27Z" uid="239998" user="Sundance" changeset="7232368">
    <nd ref="772115792"/>
    <nd ref="427873055"/>
    <nd ref="427873056"/>
    <nd ref="293056553"/>
    <nd ref="427873057"/>
    <nd ref="427873058"/>
    <nd ref="293056548"/>
    <nd ref="427873059"/>
    <nd ref="427873061"/>
    <nd ref="1028896954"/>
    <nd ref="255737508"/>
    <nd ref="427873062"/>
    <nd ref="427873244"/>
    <nd ref="415781029"/>
    <nd ref="255737507"/>
    <nd ref="1029736096"/>
    <nd ref="427873063"/>
    <nd ref="1029736195"/>
    <nd ref="255737506"/>
    <nd ref="255737505"/>
    <nd ref="255737504"/>
    <nd ref="255737503"/>
    <nd ref="255737502"/>
    <nd ref="255737501"/>
    <nd ref="255737103"/>
    <nd ref="255737102"/>
    <nd ref="1143231001"/>
    <nd ref="1143231265"/>
    <nd ref="255736995"/>
    <nd ref="1143230990"/>
    <nd ref="1143231078"/>
    <nd ref="1143230781"/>
    <nd ref="1143231121"/>
    <tag k="highway" v="residential"/>
    <tag k="name" v="Industrial Road G"/>
  </way>
  <way id="61948637" version="6" timestamp="2012-03-02T05:08:36Z" uid="147510" user="woodpeck_fixbot" changeset="10842511"/>
  <way id="61948637" version="7" timestamp="2012-03-13T06:37:58Z" uid="147510" user="woodpeck_fixbot" changeset="10960757">
    <nd ref="772115792"/>
    <nd ref="427873055"/>
    <nd ref="427873056"/>
    <nd ref="293056553"/>
    <nd ref="427873057"/>
    <nd ref="427873058"/>
    <nd ref="293056548"/>
    <nd ref="427873059"/>
    <nd ref="427873061"/>
    <nd ref="1028896954"/>
    <nd ref="255737508"/>
    <nd ref="427873062"/>
    <nd ref="427873244"/>
    <nd ref="415781029"/>
    <nd ref="255737507"/>
    <nd ref="1029736096"/>
    <nd ref="427873063"/>
    <nd ref="1029736195"/>
    <nd ref="255737506"/>
    <nd ref="255737505"/>
    <nd ref="255737504"/>
    <nd ref="255737503"/>
    <nd ref="255737502"/>
    <nd ref="255737501"/>
    <nd ref="255737103"/>
    <nd ref="255737102"/>
    <nd ref="1143231001"/>
    <nd ref="1143231265"/>
    <nd ref="255736995"/>
    <nd ref="1143230990"/>
    <nd ref="1143231078"/>
    <nd ref="1143230781"/>
    <nd ref="1143231121"/>
    <tag k="highway" v="residential"/>
    <tag k="name" v="Industrial Road G"/>
  </way>
  <way id="61948639" version="1" timestamp="2010-06-13T23:01:09Z" uid="38528" user="acrosscanadatrails" changeset="4983802">
    <nd ref="490265848"/>
    <nd ref="427493870"/>
    <nd ref="772202176"/>
    <nd ref="248490982"/>
    <tag k="highway" v="trunk"/>
    <tag k="name" v="Cranbrook Street north"/>
    <tag k="name_1" v="Highway 3"/>
    <tag k="name_2" v="Highway 95"/>
    <tag k="name_3" v="Crowsnest Highway"/>
    <tag k="oneway" v="yes"/>
    <tag k="ref" v="3; 95"/>
  </way>
  <way id="61948639" version="2" timestamp="2010-12-08T22:53:11Z" uid="239998" user="Sundance" changeset="6590638">
    <nd ref="248490982"/>
    <nd ref="772202176"/>
    <nd ref="427493870"/>
    <nd ref="1028825229"/>
    <nd ref="490265848"/>
    <tag k="highway" v="trunk"/>
    <tag k="name" v="Cranbrook Street north"/>
    <tag k="name_1" v="Highway 3"/>
    <tag k="name_2" v="Highway 95"/>
    <tag k="name_3" v="Crowsnest Highway"/>
    <tag k="oneway" v="yes"/>
    <tag k="ref" v="3; 95"/>
  </way>
  <way id="61948639" version="3" timestamp="2010-12-09T00:58:26Z" uid="239998" user="Sundance" changeset="6591320">
    <nd ref="248490982"/>
    <nd ref="772202176"/>
    <nd ref="427493870"/>
    <nd ref="1028825229"/>
    <nd ref="490265848"/>
    <tag k="highway" v="trunk"/>
    <tag k="name" v="Cranbrook Street north"/>
    <tag k="name_1" v="Highway 3"/>
    <tag k="name_2" v="Highway 95"/>
    <tag k="name_3" v="Crowsnest Highway"/>
    <tag k="ref" v="3; 95"/>
  </way>
  <way id="61948639" version="4" timestamp="2011-08-23T21:11:03Z" uid="207745" user="NE2" changeset="9107736">
    <nd ref="248490982"/>
    <nd ref="772202176"/>
    <nd ref="427493870"/>
    <nd ref="1028825229"/>
    <nd ref="490265848"/>
    <tag k="NHS" v="yes"/>
    <tag k="highway" v="trunk"/>
    <tag k="name" v="Cranbrook Street north"/>
    <tag k="name_1" v="Highway 3"/>
    <tag k="name_2" v="Highway 95"/>
    <tag k="name_3" v="Crowsnest Highway"/>
    <tag k="ref" v="3; 95"/>
  </way>
  <way id="61948639" version="5" timestamp="2011-09-19T22:01:09Z" uid="355617" user="pnorman" changeset="9347216">
    <nd ref="248490982"/>
    <nd ref="772202176"/>
    <nd ref="427493870"/>
    <nd ref="1028825229"/>
    <nd ref="490265848"/>
    <tag k="highway" v="trunk"/>
    <tag k="name" v="Cranbrook Street north"/>
    <tag k="name_1" v="Highway 3"/>
    <tag k="name_2" v="Highway 95"/>
    <tag k="name_3" v="Crowsnest Highway"/>
    <tag k="ref" v="3; 95"/>
  </way>
  <way id="61948639" version="6" timestamp="2012-03-02T05:08:46Z" uid="147510" user="woodpeck_fixbot" changeset="10842511"/>
  <way id="61948639" version="7" timestamp="2012-03-13T06:38:01Z" uid="147510" user="woodpeck_fixbot" changeset="10960757">
    <nd ref="248490982"/>
    <nd ref="772202176"/>
    <nd ref="427493870"/>
    <nd ref="1028825229"/>
    <nd ref="490265848"/>
    <tag k="highway" v="trunk"/>
    <tag k="name" v="Cranbrook Street north"/>
    <tag k="name_1" v="Highway 3"/>
    <tag k="name_2" v="Highway 95"/>
    <tag k="name_3" v="Crowsnest Highway"/>
    <tag k="ref" v="3; 95"/>
  </way>
  <way id="61948684" version="1" timestamp="2010-06-13T23:04:28Z" uid="244897" user="M526244" changeset="4983825">
    <nd ref="772312002"/>
    <nd ref="772312004"/>
    <nd ref="772312007"/>
    <nd ref="772312009"/>
    <nd ref="772312011"/>
    <nd ref="772312013"/>
    <nd ref="772312015"/>
    <nd ref="772312017"/>
    <nd ref="772312019"/>
    <nd ref="772312022"/>
    <nd ref="772312024"/>
    <nd ref="772312026"/>
    <nd ref="772312027"/>
    <nd ref="772312029"/>
    <nd ref="772312031"/>
    <nd ref="772312040"/>
    <nd ref="772312043"/>
    <nd ref="772312045"/>
    <nd ref="772312048"/>
    <nd ref="772312050"/>
    <nd ref="772312052"/>
    <nd ref="772312054"/>
    <nd ref="772312056"/>
    <nd ref="772312057"/>
    <nd ref="772312060"/>
    <nd ref="772312062"/>
    <nd ref="772312065"/>
    <nd ref="772312067"/>
    <nd ref="772312070"/>
    <nd ref="772312073"/>
    <nd ref="772312076"/>
    <nd ref="772312079"/>
    <nd ref="772312082"/>
    <nd ref="772312085"/>
    <nd ref="772312088"/>
    <nd ref="772312090"/>
    <nd ref="772312092"/>
    <nd ref="772312094"/>
    <nd ref="772312096"/>
    <nd ref="772312099"/>
    <nd ref="772312101"/>
    <nd ref="772312103"/>
    <nd ref="772312105"/>
    <nd ref="772312107"/>
    <nd ref="772312109"/>
    <nd ref="772312111"/>
    <nd ref="772312113"/>
    <nd ref="772312115"/>
    <nd ref="772312116"/>
    <nd ref="772312118"/>
    <nd ref="772312121"/>
    <nd ref="772312124"/>
    <nd ref="772312126"/>
    <nd ref="772312130"/>
    <nd ref="772312136"/>
    <nd ref="772312138"/>
    <nd ref="772312140"/>
    <nd ref="772312143"/>
    <nd ref="772312146"/>
    <nd ref="772312148"/>
    <nd ref="772312150"/>
    <nd ref="772312152"/>
    <nd ref="772312154"/>
    <nd ref="772312157"/>
    <nd ref="772312158"/>
    <nd ref="772312160"/>
    <nd ref="772312162"/>
    <nd ref="772312164"/>
    <nd ref="772312166"/>
    <nd ref="772312168"/>
    <nd ref="772312170"/>
    <nd ref="772312172"/>
    <nd ref="772312174"/>
    <nd ref="772312176"/>
    <nd ref="772312178"/>
    <nd ref="772312180"/>
    <nd ref="772312182"/>
    <nd ref="772312184"/>
    <nd ref="772312188"/>
    <nd ref="772312190"/>
    <nd ref="772312192"/>
    <nd ref="772312194"/>
    <nd ref="772312196"/>
    <nd ref="772312198"/>
    <nd ref="772312201"/>
    <nd ref="772312203"/>
    <nd ref="772312205"/>
    <nd ref="772312207"/>
    <nd ref="772312209"/>
    <nd ref="772312211"/>
    <nd ref="772312213"/>
    <nd ref="772312215"/>
    <nd ref="772312217"/>
    <nd ref="772312219"/>
    <nd ref="772312221"/>
    <nd ref="772312223"/>
    <nd ref="772312225"/>
    <nd ref="772312227"/>
    <nd ref="772312234"/>
    <nd ref="772312236"/>
    <nd ref="772312237"/>
    <nd ref="772312239"/>
    <nd ref="772312241"/>
    <nd ref="772312243"/>
    <nd ref="772312245"/>
    <nd ref="772312247"/>
    <nd ref="772312249"/>
    <nd ref="772312251"/>
    <nd ref="772312252"/>
    <nd ref="772312255"/>
    <nd ref="772312258"/>
    <nd ref="772312260"/>
    <nd ref="772312262"/>
    <nd ref="772312265"/>
    <nd ref="772312267"/>
    <nd ref="772312270"/>
    <nd ref="772312272"/>
    <nd ref="772312275"/>
    <nd ref="772312277"/>
    <nd ref="772312279"/>
    <nd ref="772312281"/>
    <nd ref="772312283"/>
    <nd ref="772312285"/>
    <nd ref="772312288"/>
    <nd ref="772312290"/>
    <nd ref="772312292"/>
    <nd ref="772312294"/>
    <nd ref="772312296"/>
    <nd ref="772312298"/>
    <nd ref="772312300"/>
    <nd ref="772312303"/>
    <nd ref="772312306"/>
    <nd ref="772312309"/>
    <nd ref="772312311"/>
    <nd ref="772312313"/>
    <nd ref="772312315"/>
    <nd ref="772312317"/>
    <nd ref="772312319"/>
    <nd ref="772312322"/>
    <nd ref="772312325"/>
    <nd ref="772312334"/>
    <nd ref="772312337"/>
    <nd ref="772312339"/>
    <nd ref="772312340"/>
    <nd ref="772312342"/>
    <nd ref="772312344"/>
    <nd ref="772312346"/>
    <nd ref="772312348"/>
    <nd ref="772312350"/>
    <nd ref="772312352"/>
    <nd ref="772312354"/>
    <nd ref="772312356"/>
    <nd ref="772312358"/>
    <nd ref="772312359"/>
    <nd ref="772312362"/>
    <nd ref="772312363"/>
    <nd ref="772312364"/>
    <nd ref="772312365"/>
    <nd ref="772312366"/>
    <nd ref="772312367"/>
    <nd ref="772312368"/>
    <nd ref="772312370"/>
    <nd ref="772312372"/>
    <nd ref="772312375"/>
    <nd ref="772312377"/>
    <nd ref="772312379"/>
    <nd ref="772312381"/>
    <nd ref="772312383"/>
    <nd ref="772312385"/>
    <nd ref="772312387"/>
    <nd ref="772312389"/>
    <nd ref="772312391"/>
    <nd ref="772312392"/>
    <nd ref="772312395"/>
    <nd ref="772312397"/>
    <nd ref="772312400"/>
    <nd ref="772312403"/>
    <nd ref="772312405"/>
    <nd ref="772312407"/>
    <nd ref="772312409"/>
    <nd ref="772312412"/>
    <nd ref="772312421"/>
    <nd ref="772312423"/>
    <nd ref="772312425"/>
    <nd ref="772312427"/>
    <nd ref="772312428"/>
    <nd ref="772312430"/>
    <nd ref="772312432"/>
    <nd ref="772312434"/>
    <nd ref="772312436"/>
    <nd ref="772312438"/>
    <nd ref="772312440"/>
    <nd ref="772312442"/>
    <nd ref="772312444"/>
    <nd ref="772312446"/>
    <nd ref="772312448"/>
    <nd ref="772312450"/>
    <nd ref="772312453"/>
    <nd ref="772312454"/>
    <nd ref="772312456"/>
    <nd ref="772312458"/>
    <nd ref="772312460"/>
    <nd ref="772312462"/>
    <nd ref="772312463"/>
    <nd ref="772312466"/>
    <nd ref="772312468"/>
    <nd ref="772312471"/>
    <nd ref="772312473"/>
    <nd ref="772312475"/>
    <nd ref="772312477"/>
    <nd ref="772312479"/>
    <nd ref="772312482"/>
    <nd ref="772312484"/>
    <nd ref="772312486"/>
    <nd ref="772312487"/>
    <nd ref="772312489"/>
    <nd ref="772312492"/>
    <nd ref="772312494"/>
    <nd ref="772312497"/>
    <nd ref="772312499"/>
    <nd ref="772312002"/>
    <tag k="name" v="Tallow Beach"/>
    <tag k="natural" v="beach"/>
    <tag k="source" v="local_knowledge"/>
  </way>
  <way id="61948699" version="1" timestamp="2010-06-13T23:05:18Z" uid="38528" user="acrosscanadatrails" changeset="4983802">
    <nd ref="258933605"/>
    <nd ref="772243225"/>
    <tag k="highway" v="residential"/>
    <tag k="name" v="2 Street North"/>
  </way>
  <way id="61948699" version="2" timestamp="2012-01-30T16:22:15Z" uid="147510" user="woodpeck_fixbot" changeset="10538137"/>
  <way id="61948700" version="1" timestamp="2010-06-13T23:05:19Z" uid="38528" user="acrosscanadatrails" changeset="4983802">
    <nd ref="771803374"/>
    <nd ref="258933380"/>
    <tag k="highway" v="residential"/>
    <tag k="name" v="1 Street South"/>
  </way>
  <way id="61948700" version="2" timestamp="2012-01-30T16:22:16Z" uid="147510" user="woodpeck_fixbot" changeset="10538137"/>
  <way id="61948701" version="1" timestamp="2010-06-13T23:05:19Z" uid="38528" user="acrosscanadatrails" changeset="4983802">
    <nd ref="417774315"/>
    <nd ref="417774316"/>
    <nd ref="417774317"/>
    <nd ref="417774319"/>
    <tag k="highway" v="cycleway"/>
    <tag k="surface" v="paved"/>
  </way>
  <way id="61948701" version="2" timestamp="2012-01-30T16:22:17Z" uid="147510" user="woodpeck_fixbot" changeset="10538137"/>
  <way id="61948702" version="1" timestamp="2010-06-13T23:05:20Z" uid="38528" user="acrosscanadatrails" changeset="4983802">
    <nd ref="772243283"/>
    <nd ref="772243173"/>
    <nd ref="772243294"/>
    <nd ref="772243271"/>
    <tag k="highway" v="residential"/>
  </way>
  <way id="61948702" version="2" timestamp="2012-01-30T16:22:20Z" uid="147510" user="woodpeck_fixbot" changeset="10538137"/>
  <way id="61948703" version="1" timestamp="2010-06-13T23:05:20Z" uid="38528" user="acrosscanadatrails" changeset="4983802">
    <nd ref="772243263"/>
    <nd ref="772243264"/>
    <nd ref="772243283"/>
    <tag k="highway" v="residential"/>
  </way>
  <way id="61948703" version="2" timestamp="2012-01-30T16:22:21Z" uid="147510" user="woodpeck_fixbot" changeset="10538137"/>
  <way id="61948704" version="1" timestamp="2010-06-13T23:05:20Z" uid="38528" user="acrosscanadatrails" changeset="4983802">
    <nd ref="772243263"/>
    <nd ref="772243343"/>
    <nd ref="772243395"/>
    <tag k="highway" v="residential"/>
  </way>
  <way id="61948704" version="2" timestamp="2010-12-09T19:32:02Z" uid="239998" user="Sundance" changeset="6598427">
    <nd ref="772243263"/>
    <nd ref="1029877441"/>
    <nd ref="1029877660"/>
    <nd ref="772243343"/>
    <nd ref="772243395"/>
    <tag k="highway" v="residential"/>
  </way>
  <way id="61948704" version="3" timestamp="2012-03-02T05:08:46Z" uid="147510" user="woodpeck_fixbot" changeset="10842511"/>
  <way id="61948704" version="4" timestamp="2012-03-13T06:38:03Z" uid="147510" user="woodpeck_fixbot" changeset="10960757">
    <nd ref="772243263"/>
    <nd ref="1029877441"/>
    <nd ref="1029877660"/>
    <nd ref="772243343"/>
    <nd ref="772243395"/>
    <tag k="highway" v="residential"/>
  </way>
  <way id="61948705" version="1" timestamp="2010-06-13T23:05:21Z" uid="38528" user="acrosscanadatrails" changeset="4983802">
    <nd ref="772243225"/>
    <nd ref="258022725"/>
    <tag k="highway" v="residential"/>
    <tag k="name" v="2 Street North"/>
  </way>
  <way id="61948705" version="2" timestamp="2012-01-02T08:14:39Z" uid="492807" user="mattropolis" changeset="10268309">
    <nd ref="772243225"/>
    <nd ref="1573742974"/>
    <nd ref="1573742972"/>
    <nd ref="258022725"/>
    <tag k="highway" v="residential"/>
    <tag k="name" v="2 Street North"/>
  </way>
  <way id="61948705" version="3" timestamp="2012-03-02T05:08:50Z" uid="147510" user="woodpeck_fixbot" changeset="10842511"/>
  <way id="61948705" version="4" timestamp="2012-03-13T06:38:04Z" uid="147510" user="woodpeck_fixbot" changeset="10960757">
    <nd ref="772243225"/>
    <nd ref="1573742974"/>
    <nd ref="1573742972"/>
    <nd ref="258022725"/>
    <tag k="highway" v="residential"/>
    <tag k="name" v="2 Street North"/>
  </way>
  <way id="61948868" version="1" timestamp="2010-06-13T23:10:16Z" uid="49111" user="Markus B" changeset="4983912">
    <nd ref="306232921"/>
    <nd ref="306368871"/>
    <nd ref="306368873"/>
    <nd ref="306368876"/>
    <nd ref="772312128"/>
    <nd ref="772312123"/>
    <nd ref="306232921"/>
    <tag k="building" v="yes"/>
  </way>
  <way id="61948868" version="2" timestamp="2010-12-30T14:17:16Z" uid="49111" user="Markus B" changeset="6809869">
    <nd ref="306232921"/>
    <nd ref="306368871"/>
    <nd ref="306368876"/>
    <nd ref="772312128"/>
    <nd ref="772312123"/>
    <nd ref="306232921"/>
    <tag k="building" v="yes"/>
  </way>
  <way id="61948869" version="1" timestamp="2010-06-13T23:10:16Z" uid="49111" user="Markus B" changeset="4983912">
    <nd ref="306232918"/>
    <nd ref="772312133"/>
    <nd ref="772312129"/>
    <nd ref="772312132"/>
    <nd ref="306232918"/>
    <tag k="building" v="yes"/>
    <tag k="name" v="Metzgerei Daut"/>
    <tag k="shop" v="butcher"/>
  </way>
  <way id="61948870" version="1" timestamp="2010-06-13T23:10:16Z" uid="49111" user="Markus B" changeset="4983912">
    <nd ref="772319570"/>
    <nd ref="772319571"/>
    <nd ref="772319576"/>
    <nd ref="772319578"/>
    <nd ref="772319579"/>
    <nd ref="772319570"/>
    <tag k="landuse" v="basin"/>
    <tag k="sport" v="swimming"/>
  </way>
  <way id="61948871" version="1" timestamp="2010-06-13T23:10:17Z" uid="49111" user="Markus B" changeset="4983912">
    <nd ref="772319589"/>
    <nd ref="772319591"/>
    <nd ref="772319585"/>
    <nd ref="772319587"/>
    <nd ref="772319589"/>
    <tag k="addr:city" v="Simmelsdorf"/>
    <tag k="addr:country" v="DE"/>
    <tag k="addr:housenumber" v="12"/>
    <tag k="addr:postcode" v="91245"/>
    <tag k="addr:street" v="Osternoher Weg"/>
    <tag k="building" v="yes"/>
    <tag k="name" v="Simmelsdorfer Mühle"/>
  </way>
  <way id="61948872" version="1" timestamp="2010-06-13T23:10:17Z" uid="49111" user="Markus B" changeset="4983912">
    <nd ref="772319607"/>
    <nd ref="772319609"/>
    <nd ref="772319610"/>
    <nd ref="772319604"/>
    <nd ref="772319607"/>
    <tag k="addr:city" v="Diepoltsdorf"/>
    <tag k="addr:country" v="DE"/>
    <tag k="addr:housenumber" v="7"/>
    <tag k="addr:postcode" v="91245"/>
    <tag k="addr:street" v="Wessebergstraße"/>
    <tag k="building" v="yes"/>
    <tag k="name" v="Simons Weltkugel"/>
    <tag k="phone" v="09155-1768"/>
  </way>
  <way id="61948873" version="1" timestamp="2010-06-13T23:10:17Z" uid="49111" user="Markus B" changeset="4983912">
    <nd ref="772319634"/>
    <nd ref="772319635"/>
    <nd ref="772319638"/>
    <nd ref="772319637"/>
    <nd ref="772319634"/>
    <tag k="building" v="yes"/>
    <tag k="shelter" v="yes"/>
  </way>
  <way id="61948903" version="1" timestamp="2010-06-13T23:11:40Z" uid="244897" user="M526244" changeset="4983825">
    <nd ref="772321077"/>
    <nd ref="772321080"/>
    <nd ref="772321082"/>
    <nd ref="772321083"/>
    <nd ref="772321085"/>
    <nd ref="772321087"/>
    <nd ref="772321088"/>
    <nd ref="772321090"/>
    <nd ref="772321092"/>
    <nd ref="772321094"/>
    <nd ref="772321095"/>
    <nd ref="772321098"/>
    <nd ref="772321099"/>
    <nd ref="772321101"/>
    <nd ref="772321103"/>
    <nd ref="772321106"/>
    <nd ref="772321108"/>
    <nd ref="772321110"/>
    <nd ref="772321113"/>
    <nd ref="772321115"/>
    <nd ref="772321117"/>
    <nd ref="772321119"/>
    <nd ref="772321121"/>
    <nd ref="772321123"/>
    <nd ref="772321125"/>
    <nd ref="772321127"/>
    <nd ref="772321129"/>
    <nd ref="772321130"/>
    <nd ref="772321132"/>
    <nd ref="772321134"/>
    <nd ref="772321135"/>
    <nd ref="772321077"/>
    <tag k="name" v="Watego&apos;s Beach"/>
    <tag k="natural" v="beach"/>
    <tag k="source" v="local_knowledge"/>
  </way>
  <way id="61948970" version="1" timestamp="2010-06-13T23:14:07Z" uid="244897" user="M526244" changeset="4983825">
    <nd ref="772323749"/>
    <nd ref="772323751"/>
    <nd ref="772323753"/>
    <nd ref="772323755"/>
    <nd ref="772323757"/>
    <nd ref="772323759"/>
    <nd ref="772323761"/>
    <nd ref="772323762"/>
    <nd ref="772323764"/>
    <nd ref="772323766"/>
    <nd ref="772323768"/>
    <nd ref="772323770"/>
    <nd ref="772323772"/>
    <nd ref="772323774"/>
    <nd ref="772323776"/>
    <nd ref="772323778"/>
    <nd ref="772323780"/>
    <nd ref="772323782"/>
    <nd ref="772323784"/>
    <nd ref="772323786"/>
    <nd ref="772323788"/>
    <nd ref="772323791"/>
    <nd ref="772323793"/>
    <nd ref="772323795"/>
    <nd ref="772323797"/>
    <nd ref="772323799"/>
    <nd ref="772323801"/>
    <nd ref="772323803"/>
    <nd ref="772323804"/>
    <nd ref="772323806"/>
    <nd ref="772323749"/>
    <tag k="name" v="Clark&apos;s Beach"/>
    <tag k="natural" v="beach"/>
    <tag k="source" v="local_knowledge"/>
  </way>
  <way id="61948970" version="2" timestamp="2010-06-13T23:14:24Z" uid="244897" user="M526244" changeset="4983825">
    <nd ref="772323749"/>
    <nd ref="772323753"/>
    <nd ref="772323755"/>
    <nd ref="772323757"/>
    <nd ref="772323759"/>
    <nd ref="772323761"/>
    <nd ref="772323762"/>
    <nd ref="772323764"/>
    <nd ref="772323766"/>
    <nd ref="772323768"/>
    <nd ref="772323770"/>
    <nd ref="772323772"/>
    <nd ref="772323774"/>
    <nd ref="772323776"/>
    <nd ref="772323778"/>
    <nd ref="772323780"/>
    <nd ref="772323782"/>
    <nd ref="772323784"/>
    <nd ref="772323786"/>
    <nd ref="772323788"/>
    <nd ref="772323791"/>
    <nd ref="772323793"/>
    <nd ref="772323795"/>
    <nd ref="772323797"/>
    <nd ref="772323799"/>
    <nd ref="772323801"/>
    <nd ref="772323803"/>
    <nd ref="772323804"/>
    <nd ref="772323806"/>
    <nd ref="772323749"/>
    <tag k="name" v="Clark&apos;s Beach"/>
    <tag k="natural" v="beach"/>
    <tag k="source" v="local_knowledge"/>
  </way>
</osm>
