<?xml version='1.0' encoding='UTF-8'?>
<osm version="0.6" generator="libosmium/2.20.0">
  <way id="62069081" version="2" timestamp="2010-07-08T18:59:50Z" uid="74617" user="JohnSmith" changeset="5167338">
    <nd ref="323413850"/>
    <nd ref="323413848"/>
    <nd ref="773638412"/>
    <nd ref="773638364"/>
    <nd ref="773638388"/>
    <nd ref="773638422"/>
    <nd ref="773638375"/>
    <tag k="highway" v="residential"/>
    <tag k="maxspeed" v="50"/>
    <tag k="maxspeed:source" v="default residential speed limit in Australia"/>
    <tag k="name" v="Cherry Blossom Cha"/>
    <tag k="source" v="GPS trace"/>
    <tag k="surface" v="paved"/>
  </way>
  <way id="62069081" version="3" timestamp="2012-01-20T10:14:34Z" uid="147510" user="woodpeck_fixbot" changeset="10443754">
    <nd ref="323413850"/>
    <nd ref="323413848"/>
    <nd ref="773638412"/>
    <nd ref="773638364"/>
    <nd ref="773638388"/>
    <nd ref="773638422"/>
    <nd ref="773638375"/>
    <tag k="highway" v="residential"/>
    <tag k="name" v="Cherry Blossom Cha"/>
    <tag k="source" v="GPS trace"/>
    <tag k="surface" v="paved"/>
  </way>
  <way id="62069083" version="2" timestamp="2010-07-08T18:55:12Z" uid="74617" user="JohnSmith" changeset="5167338">
    <nd ref="773638440"/>
    <nd ref="773638403"/>
    <nd ref="773638434"/>
    <tag k="highway" v="residential"/>
    <tag k="maxspeed" v="50"/>
    <tag k="maxspeed:source" v="default residential speed limit in Australia"/>
    <tag k="name" v="Mia Drive"/>
  </way>
  <way id="62069083" version="3" timestamp="2012-01-20T10:14:35Z" uid="147510" user="woodpeck_fixbot" changeset="10443754">
    <nd ref="773638440"/>
    <nd ref="773638403"/>
    <nd ref="773638434"/>
    <tag k="highway" v="residential"/>
    <tag k="name" v="Mia Drive"/>
  </way>
  <way id="62069084" version="2" timestamp="2010-07-08T19:00:36Z" uid="74617" user="JohnSmith" changeset="5167338">
    <nd ref="323413847"/>
    <nd ref="773638394"/>
    <nd ref="323413848"/>
    <tag k="highway" v="residential"/>
    <tag k="maxspeed" v="50"/>
    <tag k="maxspeed:source" v="default residential speed limit in Australia"/>
    <tag k="name" v="Persimmon Lane"/>
    <tag k="source" v="GPS trace"/>
    <tag k="surface" v="paved"/>
  </way>
  <way id="62069084" version="3" timestamp="2012-01-20T10:14:36Z" uid="147510" user="woodpeck_fixbot" changeset="10443754">
    <nd ref="323413847"/>
    <nd ref="773638394"/>
    <nd ref="323413848"/>
    <tag k="highway" v="residential"/>
    <tag k="name" v="Persimmon Lane"/>
    <tag k="source" v="GPS trace"/>
    <tag k="surface" v="paved"/>
  </way>
  <way id="62069085" version="2" timestamp="2010-07-08T18:58:04Z" uid="74617" user="JohnSmith" changeset="5167338">
    <nd ref="773638432"/>
    <nd ref="773638379"/>
    <nd ref="773638395"/>
    <tag k="highway" v="residential"/>
    <tag k="maxspeed" v="50"/>
    <tag k="maxspeed:source" v="default residential speed limit in Australia"/>
    <tag k="name" v="Macadamia Street"/>
  </way>
  <way id="62069085" version="3" timestamp="2012-01-20T10:14:38Z" uid="147510" user="woodpeck_fixbot" changeset="10443754">
    <nd ref="773638432"/>
    <nd ref="773638379"/>
    <nd ref="773638395"/>
    <tag k="highway" v="residential"/>
    <tag k="name" v="Macadamia Street"/>
  </way>
  <way id="62069086" version="2" timestamp="2010-07-08T18:55:49Z" uid="74617" user="JohnSmith" changeset="5167338">
    <nd ref="773638402"/>
    <nd ref="773638368"/>
    <nd ref="773638393"/>
    <nd ref="773638432"/>
    <tag k="highway" v="residential"/>
    <tag k="maxspeed" v="50"/>
    <tag k="maxspeed:source" v="default residential speed limit in Australia"/>
    <tag k="name" v="Beech Street"/>
  </way>
  <way id="62069086" version="3" timestamp="2012-01-20T10:14:39Z" uid="147510" user="woodpeck_fixbot" changeset="10443754">
    <nd ref="773638402"/>
    <nd ref="773638368"/>
    <nd ref="773638393"/>
    <nd ref="773638432"/>
    <tag k="highway" v="residential"/>
    <tag k="name" v="Beech Street"/>
  </way>
  <way id="62069087" version="2" timestamp="2010-07-08T19:06:03Z" uid="74617" user="JohnSmith" changeset="5167338">
    <nd ref="773638405"/>
    <nd ref="773638401"/>
    <tag k="highway" v="residential"/>
    <tag k="maxspeed" v="50"/>
    <tag k="maxspeed:source" v="default residential speed limit in Australia"/>
    <tag k="name" v="Valencia Lane"/>
    <tag k="source" v="GPS trace"/>
    <tag k="surface" v="paved"/>
  </way>
  <way id="62069087" version="3" timestamp="2012-01-20T10:14:40Z" uid="147510" user="woodpeck_fixbot" changeset="10443754">
    <nd ref="773638405"/>
    <nd ref="773638401"/>
    <tag k="highway" v="residential"/>
    <tag k="name" v="Valencia Lane"/>
    <tag k="source" v="GPS trace"/>
    <tag k="surface" v="paved"/>
  </way>
  <way id="62069088" version="2" timestamp="2010-07-08T18:56:55Z" uid="74617" user="JohnSmith" changeset="5167338">
    <nd ref="323413847"/>
    <nd ref="773638436"/>
    <nd ref="773638381"/>
    <tag k="highway" v="residential"/>
    <tag k="maxspeed" v="50"/>
    <tag k="maxspeed:source" v="default residential speed limit in Australia"/>
    <tag k="source" v="GPS trace"/>
    <tag k="surface" v="paved"/>
  </way>
  <way id="62069088" version="3" timestamp="2012-01-20T10:14:42Z" uid="147510" user="woodpeck_fixbot" changeset="10443754">
    <nd ref="323413847"/>
    <nd ref="773638436"/>
    <nd ref="773638381"/>
    <tag k="highway" v="residential"/>
    <tag k="source" v="GPS trace"/>
    <tag k="surface" v="paved"/>
  </way>
  <way id="62069089" version="2" timestamp="2010-07-08T18:54:40Z" uid="74617" user="JohnSmith" changeset="5167338">
    <nd ref="323415680"/>
    <nd ref="323415682"/>
    <tag k="highway" v="residential"/>
    <tag k="maxspeed" v="50"/>
    <tag k="maxspeed:source" v="default residential speed limit in Australia"/>
    <tag k="name" v="Tamar Street"/>
    <tag k="source" v="GPS trace"/>
    <tag k="surface" v="paved"/>
  </way>
  <way id="62069089" version="3" timestamp="2012-01-20T10:14:43Z" uid="147510" user="woodpeck_fixbot" changeset="10443754">
    <nd ref="323415680"/>
    <nd ref="323415682"/>
    <tag k="highway" v="residential"/>
    <tag k="name" v="Tamar Street"/>
    <tag k="source" v="GPS trace"/>
    <tag k="surface" v="paved"/>
  </way>
  <way id="62069090" version="2" timestamp="2010-07-08T19:04:56Z" uid="74617" user="JohnSmith" changeset="5167338">
    <nd ref="773638383"/>
    <nd ref="773638442"/>
    <nd ref="773638408"/>
    <nd ref="773638370"/>
    <nd ref="773638399"/>
    <nd ref="773638361"/>
    <nd ref="773638384"/>
    <tag k="highway" v="residential"/>
    <tag k="maxspeed" v="50"/>
    <tag k="maxspeed:source" v="default residential speed limit in Australia"/>
  </way>
  <way id="62069090" version="3" timestamp="2012-01-20T10:14:46Z" uid="147510" user="woodpeck_fixbot" changeset="10443754">
    <nd ref="773638383"/>
    <nd ref="773638442"/>
    <nd ref="773638408"/>
    <nd ref="773638370"/>
    <nd ref="773638399"/>
    <nd ref="773638361"/>
    <nd ref="773638384"/>
    <tag k="highway" v="residential"/>
  </way>
  <way id="62069091" version="2" timestamp="2010-07-08T19:01:21Z" uid="74617" user="JohnSmith" changeset="5167338">
    <nd ref="323416420"/>
    <nd ref="323414627"/>
    <nd ref="773638389"/>
    <nd ref="773638424"/>
    <nd ref="773638405"/>
    <nd ref="773638438"/>
    <nd ref="773638375"/>
    <tag k="highway" v="residential"/>
    <tag k="maxspeed" v="50"/>
    <tag k="maxspeed:source" v="default residential speed limit in Australia"/>
    <tag k="name" v="Seville Street"/>
    <tag k="source" v="GPS trace"/>
    <tag k="surface" v="paved"/>
  </way>
  <way id="62069091" version="3" timestamp="2012-01-20T10:14:48Z" uid="147510" user="woodpeck_fixbot" changeset="10443754">
    <nd ref="323416420"/>
    <nd ref="323414627"/>
    <nd ref="773638389"/>
    <nd ref="773638424"/>
    <nd ref="773638405"/>
    <nd ref="773638438"/>
    <nd ref="773638375"/>
    <tag k="highway" v="residential"/>
    <tag k="name" v="Seville Street"/>
    <tag k="source" v="GPS trace"/>
    <tag k="surface" v="paved"/>
  </way>
  <way id="62069092" version="2" timestamp="2010-07-08T18:55:20Z" uid="74617" user="JohnSmith" changeset="5167338">
    <nd ref="773638368"/>
    <nd ref="773638373"/>
    <nd ref="773638396"/>
    <tag k="highway" v="residential"/>
    <tag k="maxspeed" v="50"/>
    <tag k="maxspeed:source" v="default residential speed limit in Australia"/>
    <tag k="name" v="Greta Court"/>
  </way>
  <way id="62069092" version="3" timestamp="2012-01-20T10:14:49Z" uid="147510" user="woodpeck_fixbot" changeset="10443754">
    <nd ref="773638368"/>
    <nd ref="773638373"/>
    <nd ref="773638396"/>
    <tag k="highway" v="residential"/>
    <tag k="name" v="Greta Court"/>
  </way>
  <way id="62069093" version="2" timestamp="2010-07-08T19:05:33Z" uid="74617" user="JohnSmith" changeset="5167338">
    <nd ref="323416419"/>
    <nd ref="323416420"/>
    <nd ref="323415682"/>
    <nd ref="323415683"/>
    <tag k="highway" v="residential"/>
    <tag k="maxspeed" v="50"/>
    <tag k="maxspeed:source" v="default residential speed limit in Australia"/>
    <tag k="name" v="Walnut Way"/>
    <tag k="source" v="GPS trace"/>
    <tag k="surface" v="paved"/>
  </way>
  <way id="62069093" version="3" timestamp="2012-01-20T10:14:50Z" uid="147510" user="woodpeck_fixbot" changeset="10443754">
    <nd ref="323416419"/>
    <nd ref="323416420"/>
    <nd ref="323415682"/>
    <nd ref="323415683"/>
    <tag k="highway" v="residential"/>
    <tag k="name" v="Walnut Way"/>
    <tag k="source" v="GPS trace"/>
    <tag k="surface" v="paved"/>
  </way>
  <way id="62069094" version="2" timestamp="2010-07-08T19:02:36Z" uid="74617" user="JohnSmith" changeset="5167338">
    <nd ref="773638379"/>
    <nd ref="773638397"/>
    <tag k="highway" v="residential"/>
    <tag k="maxspeed" v="50"/>
    <tag k="maxspeed:source" v="default residential speed limit in Australia"/>
    <tag k="name" v="Maya Street"/>
  </way>
  <way id="62069094" version="3" timestamp="2012-01-20T10:14:52Z" uid="147510" user="woodpeck_fixbot" changeset="10443754">
    <nd ref="773638379"/>
    <nd ref="773638397"/>
    <tag k="highway" v="residential"/>
    <tag k="name" v="Maya Street"/>
  </way>
  <way id="62069095" version="2" timestamp="2010-07-08T18:59:13Z" uid="74617" user="JohnSmith" changeset="5167338">
    <nd ref="773638418"/>
    <nd ref="773638393"/>
    <tag k="highway" v="residential"/>
    <tag k="maxspeed" v="50"/>
    <tag k="maxspeed:source" v="default residential speed limit in Australia"/>
    <tag k="name" v="Jason Lane"/>
  </way>
  <way id="62069095" version="3" timestamp="2012-01-20T10:14:53Z" uid="147510" user="woodpeck_fixbot" changeset="10443754">
    <nd ref="773638418"/>
    <nd ref="773638393"/>
    <tag k="highway" v="residential"/>
    <tag k="name" v="Jason Lane"/>
  </way>
  <way id="62069096" version="2" timestamp="2010-07-08T19:00:28Z" uid="74617" user="JohnSmith" changeset="5167338">
    <nd ref="773638409"/>
    <nd ref="773638386"/>
    <nd ref="773638420"/>
    <nd ref="773638432"/>
    <tag k="highway" v="residential"/>
    <tag k="maxspeed" v="50"/>
    <tag k="maxspeed:source" v="default residential speed limit in Australia"/>
    <tag k="name" v="Loz Court"/>
  </way>
  <way id="62069096" version="3" timestamp="2012-01-20T10:14:56Z" uid="147510" user="woodpeck_fixbot" changeset="10443754">
    <nd ref="773638409"/>
    <nd ref="773638386"/>
    <nd ref="773638420"/>
    <nd ref="773638432"/>
    <tag k="highway" v="residential"/>
    <tag k="name" v="Loz Court"/>
  </way>
  <way id="62069097" version="2" timestamp="2010-07-08T18:57:59Z" uid="74617" user="JohnSmith" changeset="5167338">
    <nd ref="773638424"/>
    <nd ref="773638367"/>
    <tag k="highway" v="residential"/>
    <tag k="maxspeed" v="50"/>
    <tag k="maxspeed:source" v="default residential speed limit in Australia"/>
    <tag k="name" v="Burdekin"/>
  </way>
  <way id="62069097" version="3" timestamp="2012-01-20T10:14:57Z" uid="147510" user="woodpeck_fixbot" changeset="10443754">
    <nd ref="773638424"/>
    <nd ref="773638367"/>
    <tag k="highway" v="residential"/>
    <tag k="name" v="Burdekin"/>
  </way>
  <way id="62069098" version="2" timestamp="2010-07-08T18:55:44Z" uid="74617" user="JohnSmith" changeset="5167338">
    <nd ref="773638414"/>
    <nd ref="773638371"/>
    <nd ref="773638390"/>
    <nd ref="773638426"/>
    <nd ref="773638376"/>
    <nd ref="773638401"/>
    <nd ref="773638367"/>
    <nd ref="773638392"/>
    <nd ref="773638430"/>
    <nd ref="323416418"/>
    <nd ref="323416419"/>
    <nd ref="773638378"/>
    <tag k="highway" v="residential"/>
    <tag k="maxspeed" v="50"/>
    <tag k="maxspeed:source" v="default residential speed limit in Australia"/>
    <tag k="name" v="Orchard Valley Avenue"/>
    <tag k="source" v="GPS trace"/>
    <tag k="surface" v="paved"/>
  </way>
  <way id="62069098" version="3" timestamp="2012-01-20T10:14:59Z" uid="147510" user="woodpeck_fixbot" changeset="10443754">
    <nd ref="773638414"/>
    <nd ref="773638371"/>
    <nd ref="773638390"/>
    <nd ref="773638426"/>
    <nd ref="773638376"/>
    <nd ref="773638401"/>
    <nd ref="773638367"/>
    <nd ref="773638392"/>
    <nd ref="773638430"/>
    <nd ref="323416418"/>
    <nd ref="323416419"/>
    <nd ref="773638378"/>
    <tag k="highway" v="residential"/>
    <tag k="name" v="Orchard Valley Avenue"/>
    <tag k="source" v="GPS trace"/>
    <tag k="surface" v="paved"/>
  </way>
  <way id="62069099" version="2" timestamp="2010-07-08T19:05:57Z" uid="74617" user="JohnSmith" changeset="5167338">
    <nd ref="773638403"/>
    <nd ref="773638385"/>
    <tag k="highway" v="residential"/>
    <tag k="maxspeed" v="50"/>
    <tag k="maxspeed:source" v="default residential speed limit in Australia"/>
    <tag k="name" v="Olivia Court"/>
  </way>
  <way id="62069099" version="3" timestamp="2012-01-20T10:15:00Z" uid="147510" user="woodpeck_fixbot" changeset="10443754">
    <nd ref="773638403"/>
    <nd ref="773638385"/>
    <tag k="highway" v="residential"/>
    <tag k="name" v="Olivia Court"/>
  </way>
  <way id="62069100" version="2" timestamp="2010-07-08T18:58:34Z" uid="74617" user="JohnSmith" changeset="5167338">
    <nd ref="323413846"/>
    <nd ref="323415175"/>
    <nd ref="323415679"/>
    <nd ref="323415683"/>
    <nd ref="323415011"/>
    <nd ref="773638404"/>
    <nd ref="773638363"/>
    <nd ref="323413847"/>
    <tag k="highway" v="residential"/>
    <tag k="maxspeed" v="50"/>
    <tag k="maxspeed:source" v="default residential speed limit in Australia"/>
    <tag k="name" v="Pomegranite Way"/>
    <tag k="source" v="GPS trace"/>
    <tag k="surface" v="paved"/>
  </way>
  <way id="62069100" version="3" timestamp="2012-01-20T10:15:02Z" uid="147510" user="woodpeck_fixbot" changeset="10443754">
    <nd ref="323413846"/>
    <nd ref="323415175"/>
    <nd ref="323415679"/>
    <nd ref="323415683"/>
    <nd ref="323415011"/>
    <nd ref="773638404"/>
    <nd ref="773638363"/>
    <nd ref="323413847"/>
    <tag k="highway" v="residential"/>
    <tag k="name" v="Pomegranite Way"/>
    <tag k="source" v="GPS trace"/>
    <tag k="surface" v="paved"/>
  </way>
  <way id="62069101" version="2" timestamp="2010-07-08T18:56:17Z" uid="74617" user="JohnSmith" changeset="5167338">
    <nd ref="773638404"/>
    <nd ref="773638442"/>
    <tag k="highway" v="residential"/>
    <tag k="maxspeed" v="50"/>
    <tag k="maxspeed:source" v="default residential speed limit in Australia"/>
    <tag k="name" v="Laurel Lane"/>
  </way>
  <way id="62069101" version="3" timestamp="2012-01-20T10:15:04Z" uid="147510" user="woodpeck_fixbot" changeset="10443754">
    <nd ref="773638404"/>
    <nd ref="773638442"/>
    <tag k="highway" v="residential"/>
    <tag k="name" v="Laurel Lane"/>
  </way>
  <way id="62069329" version="2" timestamp="2010-07-08T03:33:14Z" uid="74617" user="JohnSmith" changeset="5163091">
    <nd ref="773639102"/>
    <nd ref="773639103"/>
    <nd ref="362028942"/>
    <nd ref="567270129"/>
    <nd ref="773639104"/>
    <nd ref="773639105"/>
    <nd ref="773639106"/>
    <tag k="highway" v="residential"/>
    <tag k="maxspeed" v="50"/>
    <tag k="maxspeed:source" v="default residential speed limit in Australia"/>
    <tag k="name" v="Berrys Head Road"/>
  </way>
  <way id="62069329" version="3" timestamp="2012-01-20T10:15:06Z" uid="147510" user="woodpeck_fixbot" changeset="10443754">
    <nd ref="773639102"/>
    <nd ref="773639103"/>
    <nd ref="362028942"/>
    <nd ref="567270129"/>
    <nd ref="773639104"/>
    <nd ref="773639105"/>
    <nd ref="773639106"/>
    <tag k="highway" v="residential"/>
    <tag k="name" v="Berrys Head Road"/>
  </way>
  <way id="62069332" version="2" timestamp="2010-07-08T03:31:10Z" uid="74617" user="JohnSmith" changeset="5163091">
    <nd ref="567270143"/>
    <nd ref="567270145"/>
    <nd ref="567270147"/>
    <nd ref="567270149"/>
    <tag k="highway" v="residential"/>
    <tag k="maxspeed" v="50"/>
    <tag k="maxspeed:source" v="default residential speed limit in Australia"/>
    <tag k="name" v="Apanie Avenue"/>
    <tag k="source" v="Yahoo"/>
  </way>
  <way id="62069332" version="3" timestamp="2012-01-20T10:15:09Z" uid="147510" user="woodpeck_fixbot" changeset="10443754">
    <nd ref="567270143"/>
    <nd ref="567270145"/>
    <nd ref="567270147"/>
    <nd ref="567270149"/>
    <tag k="highway" v="residential"/>
    <tag k="name" v="Apanie Avenue"/>
    <tag k="source" v="Yahoo"/>
  </way>
  <way id="62069340" version="2" timestamp="2010-07-08T03:32:18Z" uid="74617" user="JohnSmith" changeset="5163091">
    <nd ref="773639108"/>
    <nd ref="773639122"/>
    <nd ref="567270199"/>
    <nd ref="773639123"/>
    <tag k="highway" v="residential"/>
    <tag k="maxspeed" v="50"/>
    <tag k="maxspeed:source" v="default residential speed limit in Australia"/>
    <tag k="name" v="Larbonya Avenue"/>
  </way>
  <way id="62069340" version="3" timestamp="2012-01-20T10:15:11Z" uid="147510" user="woodpeck_fixbot" changeset="10443754">
    <nd ref="773639108"/>
    <nd ref="773639122"/>
    <nd ref="567270199"/>
    <nd ref="773639123"/>
    <tag k="highway" v="residential"/>
    <tag k="name" v="Larbonya Avenue"/>
  </way>
  <way id="62069355" version="1" timestamp="2010-06-16T13:32:05Z" uid="4467" user="Rosscoe" changeset="5000660">
    <nd ref="430147337"/>
    <nd ref="430147353"/>
    <nd ref="430147355"/>
    <nd ref="430147356"/>
    <nd ref="430147338"/>
    <nd ref="430147339"/>
    <nd ref="430147340"/>
    <nd ref="430147350"/>
    <tag k="highway" v="residential"/>
    <tag k="maxspeed" v="50"/>
    <tag k="name" v="Harington Avenue"/>
    <tag k="source" v="survey"/>
  </way>
  <way id="62069461" version="1" timestamp="2010-06-16T13:33:39Z" uid="9719" user="dvaey" changeset="5000654">
    <nd ref="60960626"/>
    <nd ref="60796059"/>
    <nd ref="60983557"/>
    <nd ref="667503562"/>
    <nd ref="60796060"/>
    <nd ref="82881113"/>
    <nd ref="60983326"/>
    <nd ref="60796061"/>
    <nd ref="773602069"/>
    <nd ref="773602070"/>
    <nd ref="665038081"/>
    <nd ref="60796062"/>
    <nd ref="665038249"/>
    <tag k="highway" v="secondary"/>
    <tag k="name" v="Darwinia Terrace"/>
  </way>
  <way id="62069461" version="2" timestamp="2010-07-17T01:48:04Z" uid="4467" user="Rosscoe" changeset="5238915">
    <nd ref="60960626"/>
    <nd ref="60796059"/>
    <nd ref="60983557"/>
    <nd ref="667503562"/>
    <nd ref="82881113"/>
    <nd ref="60983326"/>
    <nd ref="60796061"/>
    <nd ref="773602069"/>
    <nd ref="773602070"/>
    <nd ref="665038081"/>
    <nd ref="60796062"/>
    <nd ref="665038249"/>
    <tag k="highway" v="secondary"/>
    <tag k="name" v="Darwinia Terrace"/>
  </way>
  <way id="62069461" version="3" timestamp="2012-01-30T11:06:49Z" uid="12434" user="nm7s9" changeset="10538724"/>
  <way id="62069610" version="2" timestamp="2010-07-08T03:32:31Z" uid="74617" user="JohnSmith" changeset="5163091">
    <nd ref="567270207"/>
    <nd ref="773640691"/>
    <tag k="highway" v="residential"/>
    <tag k="maxspeed" v="50"/>
    <tag k="maxspeed:source" v="default residential speed limit in Australia"/>
    <tag k="name" v="Carina Close"/>
  </way>
  <way id="62069610" version="3" timestamp="2012-01-20T10:15:13Z" uid="147510" user="woodpeck_fixbot" changeset="10443754">
    <nd ref="567270207"/>
    <nd ref="773640691"/>
    <tag k="highway" v="residential"/>
    <tag k="name" v="Carina Close"/>
  </way>
  <way id="62069611" version="2" timestamp="2010-07-08T03:33:42Z" uid="74617" user="JohnSmith" changeset="5163091">
    <nd ref="567270214"/>
    <nd ref="773640711"/>
    <tag k="highway" v="residential"/>
    <tag k="maxspeed" v="50"/>
    <tag k="maxspeed:source" v="default residential speed limit in Australia"/>
    <tag k="name" v="Christopher Close"/>
  </way>
  <way id="62069611" version="3" timestamp="2012-01-20T10:15:14Z" uid="147510" user="woodpeck_fixbot" changeset="10443754">
    <nd ref="567270214"/>
    <nd ref="773640711"/>
    <tag k="highway" v="residential"/>
    <tag k="name" v="Christopher Close"/>
  </way>
  <way id="62069775" version="2" timestamp="2010-07-08T03:31:10Z" uid="74617" user="JohnSmith" changeset="5163091">
    <nd ref="328743700"/>
    <nd ref="773643267"/>
    <tag k="highway" v="residential"/>
    <tag k="maxspeed" v="50"/>
    <tag k="maxspeed:source" v="default residential speed limit in Australia"/>
    <tag k="name" v="Dana Close"/>
  </way>
  <way id="62069775" version="3" timestamp="2012-01-20T10:15:17Z" uid="147510" user="woodpeck_fixbot" changeset="10443754">
    <nd ref="328743700"/>
    <nd ref="773643267"/>
    <tag k="highway" v="residential"/>
    <tag k="name" v="Dana Close"/>
  </way>
  <way id="62069776" version="2" timestamp="2010-07-08T03:32:48Z" uid="74617" user="JohnSmith" changeset="5163091">
    <nd ref="773643330"/>
    <nd ref="773643301"/>
    <nd ref="328743834"/>
    <nd ref="328743861"/>
    <nd ref="328743512"/>
    <nd ref="328743548"/>
    <tag k="highway" v="residential"/>
    <tag k="maxspeed" v="50"/>
    <tag k="maxspeed:source" v="default residential speed limit in Australia"/>
    <tag k="name" v="Belina Avenue"/>
    <tag k="source" v="yahoo"/>
  </way>
  <way id="62069776" version="3" timestamp="2012-01-20T10:15:19Z" uid="147510" user="woodpeck_fixbot" changeset="10443754">
    <nd ref="773643330"/>
    <nd ref="773643301"/>
    <nd ref="328743834"/>
    <nd ref="328743861"/>
    <nd ref="328743512"/>
    <nd ref="328743548"/>
    <tag k="highway" v="residential"/>
    <tag k="name" v="Belina Avenue"/>
    <tag k="source" v="yahoo"/>
  </way>
  <way id="62069812" version="3" timestamp="2010-12-20T06:11:48Z" uid="20587" user="balrog-kun" changeset="6712952"/>
  <way id="62069835" version="1" timestamp="2010-06-16T13:48:46Z" uid="4467" user="Rosscoe" changeset="5000783">
    <nd ref="29550380"/>
    <nd ref="29550381"/>
    <nd ref="29550382"/>
    <nd ref="29550383"/>
    <tag k="bridge" v="yes"/>
    <tag k="highway" v="secondary"/>
    <tag k="layer" v="1"/>
    <tag k="oneway" v="yes"/>
  </way>
  <way id="62069835" version="2" timestamp="2011-03-23T09:47:02Z" uid="4467" user="Rosscoe" changeset="7644795">
    <nd ref="29550380"/>
    <nd ref="1214591584"/>
    <nd ref="29550381"/>
    <nd ref="29550382"/>
    <nd ref="29550383"/>
    <tag k="bridge" v="yes"/>
    <tag k="highway" v="secondary"/>
    <tag k="layer" v="1"/>
    <tag k="oneway" v="yes"/>
  </way>
  <way id="62069836" version="1" timestamp="2010-06-16T13:48:48Z" uid="4467" user="Rosscoe" changeset="5000783">
    <nd ref="29550383"/>
    <nd ref="29550384"/>
    <nd ref="29550385"/>
    <tag k="highway" v="secondary"/>
    <tag k="oneway" v="yes"/>
  </way>
  <way id="62069860" version="3" timestamp="2011-02-06T02:21:34Z" uid="4467" user="Rosscoe" changeset="7199528">
    <nd ref="25954786"/>
    <nd ref="30203943"/>
    <nd ref="30203942"/>
    <nd ref="25954784"/>
    <nd ref="773644566"/>
    <tag k="highway" v="pedestrian"/>
    <tag k="source" v="nearmap"/>
  </way>
</osm>
