<?xml version='1.0' encoding='UTF-8'?>
<osm version="0.6" generator="libosmium/2.20.0">
  <way id="62078781" version="2" timestamp="2010-07-09T05:15:26Z" uid="74617" user="JohnSmith" changeset="5170986">
    <nd ref="340364207"/>
    <nd ref="340364209"/>
    <nd ref="773858845"/>
    <tag k="highway" v="residential"/>
    <tag k="maxspeed" v="50"/>
    <tag k="maxspeed:source" v="default residential speed limit in Australia"/>
    <tag k="name" v="Brendan Avenue"/>
  </way>
  <way id="62078781" version="3" timestamp="2012-01-20T10:17:00Z" uid="147510" user="woodpeck_fixbot" changeset="10443754">
    <nd ref="340364207"/>
    <nd ref="340364209"/>
    <nd ref="773858845"/>
    <tag k="highway" v="residential"/>
    <tag k="name" v="Brendan Avenue"/>
  </way>
  <way id="62078784" version="2" timestamp="2010-07-09T05:18:48Z" uid="74617" user="JohnSmith" changeset="5170986">
    <nd ref="340364142"/>
    <nd ref="340364149"/>
    <nd ref="340364153"/>
    <nd ref="340364143"/>
    <tag k="highway" v="residential"/>
    <tag k="maxspeed" v="50"/>
    <tag k="maxspeed:source" v="default residential speed limit in Australia"/>
    <tag k="name" v="Burgundy Drive"/>
  </way>
  <way id="62078784" version="3" timestamp="2012-01-20T10:17:02Z" uid="147510" user="woodpeck_fixbot" changeset="10443754">
    <nd ref="340364142"/>
    <nd ref="340364149"/>
    <nd ref="340364153"/>
    <nd ref="340364143"/>
    <tag k="highway" v="residential"/>
    <tag k="name" v="Burgundy Drive"/>
  </way>
  <way id="62078785" version="2" timestamp="2010-07-09T05:17:08Z" uid="74617" user="JohnSmith" changeset="5170986">
    <nd ref="340363087"/>
    <nd ref="773858876"/>
    <nd ref="773858842"/>
    <nd ref="773858814"/>
    <nd ref="773858869"/>
    <nd ref="773858838"/>
    <nd ref="773858891"/>
    <nd ref="773858858"/>
    <nd ref="773858824"/>
    <tag k="highway" v="residential"/>
    <tag k="maxspeed" v="50"/>
    <tag k="maxspeed:source" v="default residential speed limit in Australia"/>
    <tag k="name" v="Cason Street"/>
  </way>
  <way id="62078785" version="3" timestamp="2012-01-20T10:17:03Z" uid="147510" user="woodpeck_fixbot" changeset="10443754">
    <nd ref="340363087"/>
    <nd ref="773858876"/>
    <nd ref="773858842"/>
    <nd ref="773858814"/>
    <nd ref="773858869"/>
    <nd ref="773858838"/>
    <nd ref="773858891"/>
    <nd ref="773858858"/>
    <nd ref="773858824"/>
    <tag k="highway" v="residential"/>
    <tag k="name" v="Cason Street"/>
  </way>
  <way id="62078786" version="2" timestamp="2010-07-09T05:15:28Z" uid="74617" user="JohnSmith" changeset="5170986">
    <nd ref="340364141"/>
    <nd ref="340364142"/>
    <nd ref="773858884"/>
    <tag k="highway" v="residential"/>
    <tag k="maxspeed" v="50"/>
    <tag k="maxspeed:source" v="default residential speed limit in Australia"/>
    <tag k="name" v="Burgundy Drive"/>
  </way>
  <way id="62078786" version="3" timestamp="2012-01-20T10:17:06Z" uid="147510" user="woodpeck_fixbot" changeset="10443754">
    <nd ref="340364141"/>
    <nd ref="340364142"/>
    <nd ref="773858884"/>
    <tag k="highway" v="residential"/>
    <tag k="name" v="Burgundy Drive"/>
  </way>
  <way id="62078790" version="2" timestamp="2010-07-09T05:16:42Z" uid="74617" user="JohnSmith" changeset="5170986">
    <nd ref="773858858"/>
    <nd ref="773858811"/>
    <nd ref="773858864"/>
    <nd ref="773858828"/>
    <nd ref="773858888"/>
    <nd ref="773858855"/>
    <tag k="highway" v="residential"/>
    <tag k="maxspeed" v="50"/>
    <tag k="maxspeed:source" v="default residential speed limit in Australia"/>
    <tag k="name" v="Moselle Court"/>
  </way>
  <way id="62078790" version="3" timestamp="2012-01-20T10:17:09Z" uid="147510" user="woodpeck_fixbot" changeset="10443754">
    <nd ref="773858858"/>
    <nd ref="773858811"/>
    <nd ref="773858864"/>
    <nd ref="773858828"/>
    <nd ref="773858888"/>
    <nd ref="773858855"/>
    <tag k="highway" v="residential"/>
    <tag k="name" v="Moselle Court"/>
  </way>
  <way id="62078905" version="4" timestamp="2010-10-21T14:45:44Z" uid="115477" user="wowik" changeset="6127469">
    <nd ref="773861010"/>
    <nd ref="773861011"/>
    <nd ref="773861012"/>
    <nd ref="959470111"/>
    <nd ref="959470112"/>
    <nd ref="959470115"/>
    <nd ref="959470116"/>
    <nd ref="773861014"/>
    <nd ref="773861010"/>
    <tag k="addr:city" v="Москва"/>
    <tag k="addr:country" v="RU"/>
    <tag k="addr:district" v="ЮАО"/>
    <tag k="addr:housenumber" v="20"/>
    <tag k="addr:region" v="Москва"/>
    <tag k="building" v="yes"/>
  </way>
  <way id="62078905" version="5" timestamp="2010-10-21T14:52:35Z" uid="115477" user="wowik" changeset="6127593">
    <nd ref="773861010"/>
    <nd ref="773861011"/>
    <nd ref="773861012"/>
    <nd ref="959470111"/>
    <nd ref="959470112"/>
    <nd ref="959470115"/>
    <nd ref="959470116"/>
    <nd ref="773861014"/>
    <nd ref="773861010"/>
    <tag k="addr:city" v="Москва"/>
    <tag k="addr:country" v="RU"/>
    <tag k="addr:district" v="ЮАО"/>
    <tag k="addr:housenumber" v="20"/>
    <tag k="addr:region" v="Москва"/>
    <tag k="addr:street" v="МКАД, 32-й километр"/>
    <tag k="building" v="yes"/>
  </way>
  <way id="62078905" version="6" timestamp="2011-02-13T15:08:30Z" uid="316868" user="LexIgnatov" changeset="7276318">
    <nd ref="773861010"/>
    <nd ref="773861011"/>
    <nd ref="773861012"/>
    <nd ref="773861014"/>
    <nd ref="773861010"/>
    <tag k="addr:city" v="Москва"/>
    <tag k="addr:country" v="RU"/>
    <tag k="addr:district" v="ЮАО"/>
    <tag k="addr:housenumber" v="20"/>
    <tag k="addr:region" v="Москва"/>
    <tag k="addr:street" v="МКАД, 32-й километр"/>
    <tag k="building" v="yes"/>
  </way>
  <way id="62078905" version="7" timestamp="2012-03-26T21:13:40Z" uid="336354" user="esaulenka" changeset="11110815"/>
</osm>
