<?xml version='1.0' encoding='UTF-8'?>
<osm version="0.6" generator="libosmium/2.20.0">
  <way id="62077883" version="2" timestamp="2010-07-09T05:16:20Z" uid="74617" user="JohnSmith" changeset="5170986">
    <nd ref="773849486"/>
    <nd ref="773849578"/>
    <tag k="highway" v="residential"/>
    <tag k="maxspeed" v="50"/>
    <tag k="maxspeed:source" v="default residential speed limit in Australia"/>
    <tag k="name" v="Kiandra Court"/>
  </way>
  <way id="62077883" version="3" timestamp="2012-01-20T10:16:35Z" uid="147510" user="woodpeck_fixbot" changeset="10443754">
    <nd ref="773849486"/>
    <nd ref="773849578"/>
    <tag k="highway" v="residential"/>
    <tag k="name" v="Kiandra Court"/>
  </way>
  <way id="62077892" version="2" timestamp="2010-07-09T05:17:34Z" uid="74617" user="JohnSmith" changeset="5170986">
    <nd ref="773849565"/>
    <nd ref="773849544"/>
    <tag k="highway" v="residential"/>
    <tag k="maxspeed" v="50"/>
    <tag k="maxspeed:source" v="default residential speed limit in Australia"/>
    <tag k="name" v="Silverdale Court"/>
  </way>
  <way id="62077892" version="3" timestamp="2012-01-20T10:16:36Z" uid="147510" user="woodpeck_fixbot" changeset="10443754">
    <nd ref="773849565"/>
    <nd ref="773849544"/>
    <tag k="highway" v="residential"/>
    <tag k="name" v="Silverdale Court"/>
  </way>
  <way id="62077900" version="2" timestamp="2010-07-09T05:15:08Z" uid="74617" user="JohnSmith" changeset="5170986">
    <nd ref="773849602"/>
    <nd ref="773849646"/>
    <nd ref="773849422"/>
    <nd ref="773849433"/>
    <tag k="highway" v="residential"/>
    <tag k="maxspeed" v="50"/>
    <tag k="maxspeed:source" v="default residential speed limit in Australia"/>
    <tag k="name" v="Tusanne Place"/>
  </way>
  <way id="62077900" version="3" timestamp="2012-01-20T10:16:38Z" uid="147510" user="woodpeck_fixbot" changeset="10443754">
    <nd ref="773849602"/>
    <nd ref="773849646"/>
    <nd ref="773849422"/>
    <nd ref="773849433"/>
    <tag k="highway" v="residential"/>
    <tag k="name" v="Tusanne Place"/>
  </way>
  <way id="62077904" version="2" timestamp="2010-07-09T05:13:17Z" uid="74617" user="JohnSmith" changeset="5170986">
    <nd ref="315422763"/>
    <nd ref="315422764"/>
    <nd ref="315422765"/>
    <tag k="highway" v="residential"/>
    <tag k="maxspeed" v="50"/>
    <tag k="maxspeed:source" v="default residential speed limit in Australia"/>
    <tag k="name" v="Daphne Street"/>
  </way>
  <way id="62077904" version="3" timestamp="2012-01-20T10:16:40Z" uid="147510" user="woodpeck_fixbot" changeset="10443754">
    <nd ref="315422763"/>
    <nd ref="315422764"/>
    <nd ref="315422765"/>
    <tag k="highway" v="residential"/>
    <tag k="name" v="Daphne Street"/>
  </way>
  <way id="62077913" version="2" timestamp="2010-07-09T05:17:07Z" uid="74617" user="JohnSmith" changeset="5170986">
    <nd ref="773849438"/>
    <nd ref="773849631"/>
    <tag k="highway" v="residential"/>
    <tag k="maxspeed" v="50"/>
    <tag k="maxspeed:source" v="default residential speed limit in Australia"/>
    <tag k="name" v="Latham Court"/>
  </way>
  <way id="62077913" version="3" timestamp="2012-01-20T10:16:43Z" uid="147510" user="woodpeck_fixbot" changeset="10443754">
    <nd ref="773849438"/>
    <nd ref="773849631"/>
    <tag k="highway" v="residential"/>
    <tag k="name" v="Latham Court"/>
  </way>
  <way id="62077925" version="2" timestamp="2010-07-09T05:14:07Z" uid="74617" user="JohnSmith" changeset="5170986">
    <nd ref="217905775"/>
    <nd ref="773849419"/>
    <tag k="highway" v="residential"/>
    <tag k="maxspeed" v="50"/>
    <tag k="maxspeed:source" v="default residential speed limit in Australia"/>
    <tag k="name" v="Leura Street"/>
  </way>
  <way id="62077925" version="3" timestamp="2011-02-27T10:17:35Z" uid="4467" user="Rosscoe" changeset="7408633">
    <nd ref="217905523"/>
    <nd ref="217905775"/>
    <nd ref="773849419"/>
    <tag k="highway" v="residential"/>
    <tag k="maxspeed" v="50"/>
    <tag k="maxspeed:source" v="default residential speed limit in Australia"/>
    <tag k="name" v="Leura Street"/>
  </way>
  <way id="62077925" version="4" timestamp="2012-01-20T10:16:49Z" uid="147510" user="woodpeck_fixbot" changeset="10443754">
    <nd ref="217905523"/>
    <nd ref="217905775"/>
    <nd ref="773849419"/>
    <tag k="highway" v="residential"/>
    <tag k="name" v="Leura Street"/>
  </way>
  <way id="62077926" version="2" timestamp="2010-07-09T05:12:15Z" uid="74617" user="JohnSmith" changeset="5170986">
    <nd ref="773849430"/>
    <nd ref="773849441"/>
    <nd ref="773849497"/>
    <nd ref="773849452"/>
    <nd ref="773849598"/>
    <tag k="highway" v="residential"/>
    <tag k="maxspeed" v="50"/>
    <tag k="maxspeed:source" v="default residential speed limit in Australia"/>
    <tag k="name" v="Kennon Street"/>
  </way>
  <way id="62077926" version="3" timestamp="2012-01-20T10:16:51Z" uid="147510" user="woodpeck_fixbot" changeset="10443754">
    <nd ref="773849430"/>
    <nd ref="773849441"/>
    <nd ref="773849497"/>
    <nd ref="773849452"/>
    <nd ref="773849598"/>
    <tag k="highway" v="residential"/>
    <tag k="name" v="Kennon Street"/>
  </way>
  <way id="62077929" version="2" timestamp="2010-07-09T05:18:22Z" uid="74617" user="JohnSmith" changeset="5170986">
    <nd ref="89085774"/>
    <nd ref="773849552"/>
    <nd ref="773849618"/>
    <nd ref="773849654"/>
    <nd ref="773849486"/>
    <nd ref="773849470"/>
    <nd ref="773849438"/>
    <nd ref="773849491"/>
    <nd ref="773849582"/>
    <nd ref="773849401"/>
    <nd ref="773849460"/>
    <nd ref="773849530"/>
    <nd ref="773849608"/>
    <nd ref="324210779"/>
    <nd ref="773849565"/>
    <nd ref="773849626"/>
    <nd ref="773849395"/>
    <nd ref="773849519"/>
    <tag k="highway" v="residential"/>
    <tag k="maxspeed" v="50"/>
    <tag k="maxspeed:source" v="default residential speed limit in Australia"/>
    <tag k="name" v="Worthing Avenue"/>
  </way>
  <way id="62077929" version="3" timestamp="2012-01-20T10:16:53Z" uid="147510" user="woodpeck_fixbot" changeset="10443754">
    <nd ref="89085774"/>
    <nd ref="773849552"/>
    <nd ref="773849618"/>
    <nd ref="773849654"/>
    <nd ref="773849486"/>
    <nd ref="773849470"/>
    <nd ref="773849438"/>
    <nd ref="773849491"/>
    <nd ref="773849582"/>
    <nd ref="773849401"/>
    <nd ref="773849460"/>
    <nd ref="773849530"/>
    <nd ref="773849608"/>
    <nd ref="324210779"/>
    <nd ref="773849565"/>
    <nd ref="773849626"/>
    <nd ref="773849395"/>
    <nd ref="773849519"/>
    <tag k="highway" v="residential"/>
    <tag k="name" v="Worthing Avenue"/>
  </way>
  <way id="62077932" version="2" timestamp="2010-07-09T05:13:20Z" uid="74617" user="JohnSmith" changeset="5170986">
    <nd ref="773849446"/>
    <nd ref="773849513"/>
    <tag k="highway" v="residential"/>
    <tag k="maxspeed" v="50"/>
    <tag k="maxspeed:source" v="default residential speed limit in Australia"/>
    <tag k="name" v="Homebush Court"/>
  </way>
  <way id="62077932" version="3" timestamp="2012-01-20T10:16:55Z" uid="147510" user="woodpeck_fixbot" changeset="10443754">
    <nd ref="773849446"/>
    <nd ref="773849513"/>
    <tag k="highway" v="residential"/>
    <tag k="name" v="Homebush Court"/>
  </way>
  <way id="62077933" version="2" timestamp="2010-07-09T05:19:40Z" uid="74617" user="JohnSmith" changeset="5170986">
    <nd ref="143863165"/>
    <nd ref="315422970"/>
    <nd ref="773849635"/>
    <tag k="highway" v="residential"/>
    <tag k="maxspeed" v="50"/>
    <tag k="maxspeed:source" v="default residential speed limit in Australia"/>
    <tag k="name" v="Jocelyn Court"/>
  </way>
  <way id="62077933" version="3" timestamp="2012-01-20T10:16:55Z" uid="147510" user="woodpeck_fixbot" changeset="10443754">
    <nd ref="143863165"/>
    <nd ref="315422970"/>
    <nd ref="773849635"/>
    <tag k="highway" v="residential"/>
    <tag k="name" v="Jocelyn Court"/>
  </way>
  <way id="62077936" version="2" timestamp="2010-07-09T05:19:29Z" uid="74617" user="JohnSmith" changeset="5170986">
    <nd ref="773849593"/>
    <nd ref="773849411"/>
    <tag k="highway" v="residential"/>
    <tag k="maxspeed" v="50"/>
    <tag k="maxspeed:source" v="default residential speed limit in Australia"/>
    <tag k="name" v="Apple Green Lane"/>
  </way>
  <way id="62077936" version="3" timestamp="2012-01-20T10:16:57Z" uid="147510" user="woodpeck_fixbot" changeset="10443754">
    <nd ref="773849593"/>
    <nd ref="773849411"/>
    <tag k="highway" v="residential"/>
    <tag k="name" v="Apple Green Lane"/>
  </way>
  <way id="62077937" version="2" timestamp="2010-07-09T05:17:45Z" uid="74617" user="JohnSmith" changeset="5170986">
    <nd ref="773849477"/>
    <nd ref="773849561"/>
    <tag k="highway" v="residential"/>
    <tag k="maxspeed" v="50"/>
    <tag k="maxspeed:source" v="default residential speed limit in Australia"/>
    <tag k="name" v="Apricot Lane"/>
  </way>
  <way id="62077937" version="3" timestamp="2012-01-20T10:16:58Z" uid="147510" user="woodpeck_fixbot" changeset="10443754">
    <nd ref="773849477"/>
    <nd ref="773849561"/>
    <tag k="highway" v="residential"/>
    <tag k="name" v="Apricot Lane"/>
  </way>
</osm>
