<?xml version='1.0' encoding='UTF-8'?>
<osm version="0.6" generator="libosmium/2.20.0">
  <way id="62114784" version="1" timestamp="2010-06-17T11:49:22Z" uid="19626" user="Swamp" changeset="5008131">
    <nd ref="774655189"/>
    <nd ref="774655188"/>
    <tag k="bridge" v="yes"/>
    <tag k="highway" v="unclassified"/>
    <tag k="name" v="River Road"/>
    <tag k="source" v="survey"/>
    <tag k="surface" v="paved"/>
  </way>
  <way id="62114784" version="2" timestamp="2010-07-25T13:59:15Z" uid="4467" user="Rosscoe" changeset="5312110">
    <nd ref="774655189"/>
    <nd ref="774655188"/>
    <tag k="bridge" v="yes"/>
    <tag k="highway" v="unclassified"/>
    <tag k="layer" v="1"/>
    <tag k="name" v="River Road"/>
    <tag k="source" v="survey"/>
    <tag k="surface" v="paved"/>
  </way>
  <way id="62114785" version="1" timestamp="2010-06-17T11:49:22Z" uid="19626" user="Swamp" changeset="5008131">
    <nd ref="774655188"/>
    <nd ref="373160949"/>
    <tag k="highway" v="unclassified"/>
    <tag k="name" v="River Road"/>
    <tag k="source" v="survey"/>
    <tag k="surface" v="paved"/>
  </way>
  <way id="62114925" version="2" timestamp="2010-07-09T04:07:02Z" uid="74617" user="JohnSmith" changeset="5170825">
    <nd ref="774658882"/>
    <nd ref="774658884"/>
    <tag k="highway" v="residential"/>
    <tag k="maxspeed" v="50"/>
    <tag k="maxspeed:source" v="default residential speed limit in Australia"/>
    <tag k="name" v="The Nook"/>
  </way>
  <way id="62114925" version="3" timestamp="2012-01-20T10:18:50Z" uid="147510" user="woodpeck_fixbot" changeset="10443754">
    <nd ref="774658882"/>
    <nd ref="774658884"/>
    <tag k="highway" v="residential"/>
    <tag k="name" v="The Nook"/>
  </way>
  <way id="62114926" version="3" timestamp="2010-07-09T04:03:32Z" uid="74617" user="JohnSmith" changeset="5170825">
    <nd ref="774658890"/>
    <nd ref="774658892"/>
    <nd ref="774658893"/>
    <tag k="highway" v="residential"/>
    <tag k="maxspeed" v="50"/>
    <tag k="maxspeed:source" v="default residential speed limit in Australia"/>
    <tag k="name" v="Crawley Court"/>
  </way>
  <way id="62114926" version="4" timestamp="2012-01-20T10:18:52Z" uid="147510" user="woodpeck_fixbot" changeset="10443754">
    <nd ref="774658890"/>
    <nd ref="774658892"/>
    <nd ref="774658893"/>
    <tag k="highway" v="residential"/>
    <tag k="name" v="Crawley Court"/>
  </way>
  <way id="62114927" version="4" timestamp="2010-07-09T03:59:46Z" uid="74617" user="JohnSmith" changeset="5170825">
    <nd ref="774658898"/>
    <nd ref="774658899"/>
    <nd ref="774658901"/>
    <nd ref="774658902"/>
    <nd ref="774658904"/>
    <tag k="highway" v="residential"/>
    <tag k="maxspeed" v="50"/>
    <tag k="maxspeed:source" v="default residential speed limit in Australia"/>
    <tag k="name" v="Danson Street"/>
  </way>
  <way id="62114927" version="5" timestamp="2012-01-20T10:18:52Z" uid="147510" user="woodpeck_fixbot" changeset="10443754">
    <nd ref="774658898"/>
    <nd ref="774658899"/>
    <nd ref="774658901"/>
    <nd ref="774658902"/>
    <nd ref="774658904"/>
    <tag k="highway" v="residential"/>
    <tag k="name" v="Danson Street"/>
  </way>
  <way id="62114928" version="2" timestamp="2010-07-09T04:06:41Z" uid="74617" user="JohnSmith" changeset="5170825">
    <nd ref="774658907"/>
    <nd ref="774658909"/>
    <nd ref="774658910"/>
    <tag k="highway" v="residential"/>
    <tag k="maxspeed" v="50"/>
    <tag k="maxspeed:source" v="default residential speed limit in Australia"/>
    <tag k="name" v="Dawn Court"/>
  </way>
  <way id="62114928" version="3" timestamp="2012-01-20T10:18:54Z" uid="147510" user="woodpeck_fixbot" changeset="10443754">
    <nd ref="774658907"/>
    <nd ref="774658909"/>
    <nd ref="774658910"/>
    <tag k="highway" v="residential"/>
    <tag k="name" v="Dawn Court"/>
  </way>
  <way id="62114929" version="3" timestamp="2010-07-09T04:03:10Z" uid="74617" user="JohnSmith" changeset="5170825">
    <nd ref="774658915"/>
    <nd ref="774658917"/>
    <nd ref="774658919"/>
    <tag k="highway" v="residential"/>
    <tag k="maxspeed" v="50"/>
    <tag k="maxspeed:source" v="default residential speed limit in Australia"/>
    <tag k="name" v="Denise Court"/>
  </way>
  <way id="62114929" version="4" timestamp="2012-01-20T10:18:55Z" uid="147510" user="woodpeck_fixbot" changeset="10443754">
    <nd ref="774658915"/>
    <nd ref="774658917"/>
    <nd ref="774658919"/>
    <tag k="highway" v="residential"/>
    <tag k="name" v="Denise Court"/>
  </way>
  <way id="62114930" version="3" timestamp="2010-07-09T03:59:11Z" uid="74617" user="JohnSmith" changeset="5170825">
    <nd ref="774658935"/>
    <nd ref="774658936"/>
    <nd ref="774658937"/>
    <nd ref="292434306"/>
    <tag k="highway" v="residential"/>
    <tag k="maxspeed" v="50"/>
    <tag k="maxspeed:source" v="default residential speed limit in Australia"/>
    <tag k="name" v="Lodge Court"/>
  </way>
  <way id="62114930" version="4" timestamp="2012-01-20T10:18:56Z" uid="147510" user="woodpeck_fixbot" changeset="10443754">
    <nd ref="774658935"/>
    <nd ref="774658936"/>
    <nd ref="774658937"/>
    <nd ref="292434306"/>
    <tag k="highway" v="residential"/>
    <tag k="name" v="Lodge Court"/>
  </way>
  <way id="62114930" version="5" timestamp="2012-03-29T06:38:16Z" uid="211804" user="KenS" changeset="11134069">
    <nd ref="774658935"/>
    <nd ref="774658936"/>
    <nd ref="774658937"/>
    <nd ref="1695771671"/>
    <tag k="highway" v="residential"/>
    <tag k="name" v="Lodge Court"/>
  </way>
  <way id="62114931" version="2" timestamp="2010-07-09T04:12:30Z" uid="74617" user="JohnSmith" changeset="5170825">
    <nd ref="774658938"/>
    <nd ref="774658939"/>
    <nd ref="774658941"/>
    <nd ref="774658942"/>
    <tag k="highway" v="residential"/>
    <tag k="maxspeed" v="50"/>
    <tag k="maxspeed:source" v="default residential speed limit in Australia"/>
    <tag k="name" v="Oaktree Close"/>
  </way>
  <way id="62114931" version="3" timestamp="2012-01-20T10:18:57Z" uid="147510" user="woodpeck_fixbot" changeset="10443754">
    <nd ref="774658938"/>
    <nd ref="774658939"/>
    <nd ref="774658941"/>
    <nd ref="774658942"/>
    <tag k="highway" v="residential"/>
    <tag k="name" v="Oaktree Close"/>
  </way>
  <way id="62114932" version="2" timestamp="2010-07-09T04:09:18Z" uid="74617" user="JohnSmith" changeset="5170825">
    <nd ref="774658945"/>
    <nd ref="774658947"/>
    <tag k="highway" v="residential"/>
    <tag k="maxspeed" v="50"/>
    <tag k="maxspeed:source" v="default residential speed limit in Australia"/>
    <tag k="name" v="Northwood Drive"/>
  </way>
  <way id="62114932" version="3" timestamp="2012-01-20T10:18:58Z" uid="147510" user="woodpeck_fixbot" changeset="10443754">
    <nd ref="774658945"/>
    <nd ref="774658947"/>
    <tag k="highway" v="residential"/>
    <tag k="name" v="Northwood Drive"/>
  </way>
  <way id="62114933" version="2" timestamp="2010-07-09T04:05:41Z" uid="74617" user="JohnSmith" changeset="5170825">
    <nd ref="774658949"/>
    <nd ref="292434308"/>
    <nd ref="774658949"/>
    <nd ref="774658947"/>
    <nd ref="774658951"/>
    <nd ref="774658952"/>
    <nd ref="774658953"/>
    <nd ref="774658955"/>
    <nd ref="774658956"/>
    <nd ref="774658957"/>
    <nd ref="774658958"/>
    <nd ref="774658942"/>
    <nd ref="774658960"/>
    <nd ref="774658961"/>
    <nd ref="774658962"/>
    <tag k="highway" v="residential"/>
    <tag k="maxspeed" v="50"/>
    <tag k="maxspeed:source" v="default residential speed limit in Australia"/>
    <tag k="name" v="Northwood Drive"/>
  </way>
  <way id="62114933" version="3" timestamp="2011-12-28T12:14:29Z" uid="211804" user="KenS" changeset="10225205"/>
  <way id="62114934" version="2" timestamp="2010-07-09T04:02:22Z" uid="74617" user="JohnSmith" changeset="5170825">
    <nd ref="774658966"/>
    <nd ref="774658967"/>
    <nd ref="774658969"/>
    <tag k="highway" v="residential"/>
    <tag k="maxspeed" v="50"/>
    <tag k="maxspeed:source" v="default residential speed limit in Australia"/>
    <tag k="name" v="Adam Court"/>
  </way>
  <way id="62114934" version="3" timestamp="2012-01-20T10:19:00Z" uid="147510" user="woodpeck_fixbot" changeset="10443754">
    <nd ref="774658966"/>
    <nd ref="774658967"/>
    <nd ref="774658969"/>
    <tag k="highway" v="residential"/>
    <tag k="name" v="Adam Court"/>
  </way>
  <way id="62114936" version="2" timestamp="2010-07-09T04:01:51Z" uid="74617" user="JohnSmith" changeset="5170825">
    <nd ref="774658990"/>
    <nd ref="774658992"/>
    <nd ref="774658994"/>
    <nd ref="774658996"/>
    <tag k="highway" v="residential"/>
    <tag k="maxspeed" v="50"/>
    <tag k="maxspeed:source" v="default residential speed limit in Australia"/>
    <tag k="name" v="Meadow Court"/>
  </way>
  <way id="62114936" version="3" timestamp="2012-01-20T10:19:01Z" uid="147510" user="woodpeck_fixbot" changeset="10443754">
    <nd ref="774658990"/>
    <nd ref="774658992"/>
    <nd ref="774658994"/>
    <nd ref="774658996"/>
    <tag k="highway" v="residential"/>
    <tag k="name" v="Meadow Court"/>
  </way>
  <way id="62114937" version="2" timestamp="2010-07-09T04:14:14Z" uid="74617" user="JohnSmith" changeset="5170825">
    <nd ref="774658998"/>
    <nd ref="774658999"/>
    <tag k="highway" v="residential"/>
    <tag k="maxspeed" v="50"/>
    <tag k="maxspeed:source" v="default residential speed limit in Australia"/>
    <tag k="name" v="Jacaranda Place"/>
  </way>
  <way id="62114937" version="3" timestamp="2012-01-20T10:19:03Z" uid="147510" user="woodpeck_fixbot" changeset="10443754">
    <nd ref="774658998"/>
    <nd ref="774658999"/>
    <tag k="highway" v="residential"/>
    <tag k="name" v="Jacaranda Place"/>
  </way>
  <way id="62114938" version="2" timestamp="2010-07-09T04:11:01Z" uid="74617" user="JohnSmith" changeset="5170825">
    <nd ref="774659003"/>
    <nd ref="774659004"/>
    <nd ref="774659006"/>
    <nd ref="774659007"/>
    <nd ref="774659009"/>
    <nd ref="774659010"/>
    <tag k="highway" v="residential"/>
    <tag k="maxspeed" v="50"/>
    <tag k="maxspeed:source" v="default residential speed limit in Australia"/>
    <tag k="name" v="Kurrajong Close"/>
  </way>
  <way id="62114938" version="3" timestamp="2012-01-20T10:19:04Z" uid="147510" user="woodpeck_fixbot" changeset="10443754">
    <nd ref="774659003"/>
    <nd ref="774659004"/>
    <nd ref="774659006"/>
    <nd ref="774659007"/>
    <nd ref="774659009"/>
    <nd ref="774659010"/>
    <tag k="highway" v="residential"/>
    <tag k="name" v="Kurrajong Close"/>
  </way>
  <way id="62114939" version="2" timestamp="2010-07-09T04:07:43Z" uid="74617" user="JohnSmith" changeset="5170825">
    <nd ref="774659012"/>
    <nd ref="774659013"/>
    <nd ref="774659015"/>
    <tag k="highway" v="residential"/>
    <tag k="maxspeed" v="50"/>
    <tag k="maxspeed:source" v="default residential speed limit in Australia"/>
    <tag k="name" v="Jason Court"/>
  </way>
  <way id="62114939" version="3" timestamp="2012-01-20T10:19:05Z" uid="147510" user="woodpeck_fixbot" changeset="10443754">
    <nd ref="774659012"/>
    <nd ref="774659013"/>
    <nd ref="774659015"/>
    <tag k="highway" v="residential"/>
    <tag k="name" v="Jason Court"/>
  </way>
  <way id="62114940" version="2" timestamp="2010-07-09T04:04:05Z" uid="74617" user="JohnSmith" changeset="5170825">
    <nd ref="774658960"/>
    <nd ref="774659017"/>
    <nd ref="774658996"/>
    <nd ref="774659018"/>
    <nd ref="774659010"/>
    <nd ref="774658999"/>
    <nd ref="292434301"/>
    <tag k="highway" v="residential"/>
    <tag k="maxspeed" v="50"/>
    <tag k="maxspeed:source" v="default residential speed limit in Australia"/>
    <tag k="name" v="Ironbark Street"/>
  </way>
  <way id="62114940" version="3" timestamp="2012-01-20T10:19:06Z" uid="147510" user="woodpeck_fixbot" changeset="10443754">
    <nd ref="774658960"/>
    <nd ref="774659017"/>
    <nd ref="774658996"/>
    <nd ref="774659018"/>
    <nd ref="774659010"/>
    <nd ref="774658999"/>
    <nd ref="292434301"/>
    <tag k="highway" v="residential"/>
    <tag k="name" v="Ironbark Street"/>
  </way>
</osm>
