<?xml version='1.0' encoding='UTF-8'?>
<osm version="0.6" generator="libosmium/2.20.0">
  <way id="62140030" version="1" timestamp="2010-06-17T19:16:54Z" uid="49111" user="Markus B" changeset="5011460">
    <nd ref="775289966"/>
    <nd ref="775289974"/>
    <nd ref="775289975"/>
    <nd ref="775289976"/>
    <nd ref="775289966"/>
    <tag k="amenity" v="biergarten"/>
    <tag k="smoking" v="yes"/>
  </way>
  <way id="62140031" version="1" timestamp="2010-06-17T19:16:54Z" uid="49111" user="Markus B" changeset="5011460">
    <nd ref="775289985"/>
    <nd ref="775289986"/>
    <nd ref="775289984"/>
    <nd ref="775289983"/>
    <nd ref="775289985"/>
    <tag k="building" v="yes"/>
    <tag k="shop" v="convenience"/>
  </way>
  <way id="62140031" version="2" timestamp="2011-01-19T08:15:56Z" uid="82877" user="Wankmann" changeset="7018103">
    <nd ref="775289985"/>
    <nd ref="775289986"/>
    <nd ref="775289984"/>
    <nd ref="775289983"/>
    <nd ref="775289985"/>
    <tag k="addr:city" v="Großbellhofen"/>
    <tag k="addr:country" v="DE"/>
    <tag k="addr:housenumber" v="14"/>
    <tag k="addr:postcode" v="91220"/>
    <tag k="addr:street" v="Großbellhofener Hauptstraße"/>
    <tag k="building" v="yes"/>
    <tag k="shop" v="convenience"/>
  </way>
  <way id="62140032" version="1" timestamp="2010-06-17T19:16:54Z" uid="49111" user="Markus B" changeset="5011460">
    <nd ref="775289970"/>
    <nd ref="775289960"/>
    <nd ref="775289959"/>
    <nd ref="775289967"/>
    <nd ref="775289968"/>
    <nd ref="775289969"/>
    <nd ref="775289970"/>
    <tag k="building" v="yes"/>
  </way>
  <way id="62140032" version="2" timestamp="2011-01-19T07:12:02Z" uid="82877" user="Wankmann" changeset="7017666"/>
  <way id="62140033" version="1" timestamp="2010-06-17T19:16:54Z" uid="49111" user="Markus B" changeset="5011460">
    <nd ref="775289971"/>
    <nd ref="775289972"/>
    <nd ref="775289962"/>
    <nd ref="775289961"/>
    <nd ref="775289971"/>
    <tag k="building" v="yes"/>
    <tag k="shop" v="bakery"/>
  </way>
  <way id="62140033" version="2" timestamp="2011-01-19T08:16:10Z" uid="82877" user="Wankmann" changeset="7018103"/>
  <way id="62140034" version="1" timestamp="2010-06-17T19:16:54Z" uid="49111" user="Markus B" changeset="5011460">
    <nd ref="775289964"/>
    <nd ref="775289965"/>
    <tag k="highway" v="service"/>
  </way>
  <way id="62140035" version="1" timestamp="2010-06-17T19:16:55Z" uid="49111" user="Markus B" changeset="5011460">
    <nd ref="775289991"/>
    <nd ref="775289977"/>
    <nd ref="775289978"/>
    <nd ref="775289992"/>
    <nd ref="775289990"/>
    <nd ref="775289991"/>
    <tag k="amenity" v="fire_station"/>
    <tag k="building" v="yes"/>
    <tag k="name" v="Freiwillige Feuerwehr Großbellhofen"/>
  </way>
  <way id="62140035" version="2" timestamp="2010-12-11T07:26:52Z" uid="82877" user="Wankmann" changeset="6619700">
    <nd ref="775289991"/>
    <nd ref="775289977"/>
    <nd ref="775289978"/>
    <nd ref="775289992"/>
    <nd ref="775289990"/>
    <nd ref="775289991"/>
    <tag k="addr:city" v="Großbellhofen"/>
    <tag k="addr:country" v="DE"/>
    <tag k="addr:postcode" v="91220"/>
    <tag k="amenity" v="fire_station"/>
    <tag k="building" v="yes"/>
    <tag k="name" v="Freiwillige Feuerwehr Großbellhofen"/>
    <tag k="website" v="http://www.grossbellhofen.de"/>
  </way>
  <way id="62140035" version="3" timestamp="2011-01-19T08:16:04Z" uid="82877" user="Wankmann" changeset="7018103">
    <nd ref="775289991"/>
    <nd ref="775289977"/>
    <nd ref="775289978"/>
    <nd ref="1110109807"/>
    <nd ref="775289992"/>
    <nd ref="775289990"/>
    <nd ref="775289991"/>
    <tag k="addr:city" v="Großbellhofen"/>
    <tag k="addr:country" v="DE"/>
    <tag k="addr:housenumber" v="1"/>
    <tag k="addr:postcode" v="91220"/>
    <tag k="addr:street" v="Brunnenstraße"/>
    <tag k="amenity" v="fire_station"/>
    <tag k="building" v="yes"/>
    <tag k="name" v="Freiwillige Feuerwehr Großbellhofen"/>
    <tag k="website" v="http://www.grossbellhofen.de"/>
  </way>
  <way id="62140036" version="1" timestamp="2010-06-17T19:16:55Z" uid="49111" user="Markus B" changeset="5011460">
    <nd ref="775289992"/>
    <nd ref="775289994"/>
    <nd ref="775289993"/>
    <nd ref="775289979"/>
    <nd ref="775289978"/>
    <nd ref="775289992"/>
    <tag k="amenity" v="arts_centre"/>
    <tag k="building" v="yes"/>
    <tag k="name" v="Dorfhaus"/>
  </way>
  <way id="62140036" version="2" timestamp="2011-01-19T08:16:06Z" uid="82877" user="Wankmann" changeset="7018103">
    <nd ref="775289992"/>
    <nd ref="775289994"/>
    <nd ref="775289993"/>
    <nd ref="775289979"/>
    <nd ref="775289978"/>
    <nd ref="1110109807"/>
    <nd ref="775289992"/>
    <tag k="amenity" v="arts_centre"/>
    <tag k="building" v="yes"/>
    <tag k="name" v="Dorfhaus"/>
  </way>
  <way id="62140037" version="1" timestamp="2010-06-17T19:16:55Z" uid="49111" user="Markus B" changeset="5011460">
    <nd ref="775289980"/>
    <nd ref="775289981"/>
    <nd ref="775289973"/>
    <tag k="highway" v="footway"/>
  </way>
  <way id="62140038" version="1" timestamp="2010-06-17T19:16:55Z" uid="49111" user="Markus B" changeset="5011460">
    <nd ref="775290009"/>
    <nd ref="775290008"/>
    <nd ref="775290010"/>
    <tag k="highway" v="service"/>
  </way>
  <way id="62140039" version="1" timestamp="2010-06-17T19:16:55Z" uid="49111" user="Markus B" changeset="5011460">
    <nd ref="775290015"/>
    <nd ref="775290011"/>
    <nd ref="775290012"/>
    <nd ref="775290013"/>
    <nd ref="775290015"/>
    <tag k="amenity" v="biergarten"/>
    <tag k="smoking" v="yes"/>
  </way>
  <way id="62140040" version="1" timestamp="2010-06-17T19:16:55Z" uid="49111" user="Markus B" changeset="5011460">
    <nd ref="775290019"/>
    <nd ref="775290017"/>
    <nd ref="775290018"/>
    <nd ref="775290020"/>
    <nd ref="775290019"/>
    <tag k="amenity" v="biergarten"/>
    <tag k="smoking" v="yes"/>
  </way>
  <way id="62140041" version="1" timestamp="2010-06-17T19:16:55Z" uid="49111" user="Markus B" changeset="5011460">
    <nd ref="392740393"/>
    <nd ref="762993691"/>
  </way>
  <way id="62140041" version="2" timestamp="2010-10-21T17:53:52Z" uid="62236" user="Paulchen Panther" changeset="6129892"/>
  <way id="62140042" version="1" timestamp="2010-06-17T19:16:55Z" uid="49111" user="Markus B" changeset="5011460">
    <nd ref="775290035"/>
    <nd ref="775290024"/>
    <nd ref="775290027"/>
    <nd ref="775290026"/>
    <nd ref="775290025"/>
    <nd ref="775290028"/>
    <nd ref="775290035"/>
    <tag k="addr:city" v="Hedersdorf"/>
    <tag k="addr:country" v="DE"/>
    <tag k="addr:housenumber" v="6"/>
    <tag k="addr:postcode" v="91220"/>
    <tag k="addr:street" v="Kirchenweg"/>
    <tag k="amenity" v="restaurant"/>
    <tag k="building" v="yes"/>
    <tag k="cuisine" v="german"/>
    <tag k="name" v="Gasthof Schuster"/>
    <tag k="opening_hours" v="Di off"/>
    <tag k="phone" v="09153-1288"/>
    <tag k="smoking" v="no"/>
    <tag k="smoking:outside" v="yes"/>
  </way>
  <way id="62140042" version="2" timestamp="2010-11-05T21:49:24Z" uid="202858" user="kellerma" changeset="6298637">
    <nd ref="775290035"/>
    <nd ref="775290024"/>
    <nd ref="775290027"/>
    <nd ref="775290026"/>
    <nd ref="775290025"/>
    <nd ref="775290028"/>
    <nd ref="775290035"/>
    <tag k="addr:city" v="Schnaittach"/>
    <tag k="addr:country" v="DE"/>
    <tag k="addr:housenumber" v="6"/>
    <tag k="addr:postcode" v="91220"/>
    <tag k="addr:street" v="Kirchenweg"/>
    <tag k="amenity" v="restaurant"/>
    <tag k="building" v="yes"/>
    <tag k="cuisine" v="german"/>
    <tag k="name" v="Gasthof Schuster"/>
    <tag k="opening_hours" v="Di off"/>
    <tag k="phone" v="09153-1288"/>
    <tag k="smoking" v="no"/>
    <tag k="smoking:outside" v="yes"/>
  </way>
  <way id="62140042" version="3" timestamp="2011-01-29T18:42:07Z" uid="82877" user="Wankmann" changeset="7125621">
    <nd ref="775290035"/>
    <nd ref="775290024"/>
    <nd ref="775290027"/>
    <nd ref="775290026"/>
    <nd ref="775290025"/>
    <nd ref="775290028"/>
    <nd ref="775290035"/>
    <tag k="addr:city" v="Schnaittach"/>
    <tag k="addr:country" v="DE"/>
    <tag k="addr:housenumber" v="6"/>
    <tag k="addr:postcode" v="91220"/>
    <tag k="addr:street" v="Kirchenweg"/>
    <tag k="amenity" v="restaurant"/>
    <tag k="building" v="yes"/>
    <tag k="cuisine" v="german"/>
    <tag k="name" v="Gasthof Schuster"/>
    <tag k="opening_hours" v="Di off"/>
    <tag k="phone" v="09153-1288"/>
    <tag k="smoking" v="no"/>
    <tag k="smoking:outside" v="yes"/>
  </way>
  <way id="62140042" version="4" timestamp="2011-03-11T20:42:28Z" uid="89943" user="Bengatzer" changeset="7527334">
    <nd ref="775290035"/>
    <nd ref="775290024"/>
    <nd ref="775290027"/>
    <nd ref="775290026"/>
    <nd ref="775290025"/>
    <nd ref="775290028"/>
    <nd ref="775290035"/>
    <tag k="addr:city" v="Schnaittach"/>
    <tag k="addr:country" v="DE"/>
    <tag k="addr:housenumber" v="6"/>
    <tag k="addr:postcode" v="91220"/>
    <tag k="addr:street" v="Kirchenweg"/>
    <tag k="amenity" v="restaurant"/>
    <tag k="building" v="yes"/>
    <tag k="cuisine" v="german"/>
    <tag k="name" v="Gasthof Schuster"/>
    <tag k="opening_hours" v="Tu off"/>
    <tag k="phone" v="09153-1288"/>
    <tag k="smoking" v="no"/>
    <tag k="smoking:outside" v="yes"/>
  </way>
  <way id="62140043" version="1" timestamp="2010-06-17T19:16:55Z" uid="49111" user="Markus B" changeset="5011460">
    <nd ref="775290032"/>
    <nd ref="775290031"/>
    <nd ref="775290029"/>
    <nd ref="775290034"/>
    <nd ref="775290032"/>
    <tag k="amenity" v="biergarten"/>
    <tag k="smoking" v="yes"/>
  </way>
</osm>
