<?xml version='1.0' encoding='UTF-8'?>
<osm version="0.6" generator="libosmium/2.20.0">
  <way id="62183692" version="1" timestamp="2010-06-18T15:42:50Z" uid="49111" user="Markus B" changeset="5017235">
    <nd ref="775725950"/>
    <nd ref="709047393"/>
    <nd ref="709047394"/>
    <nd ref="709047395"/>
    <nd ref="709047388"/>
    <nd ref="709047402"/>
    <nd ref="709047389"/>
    <nd ref="775725951"/>
    <nd ref="775725950"/>
    <tag k="building" v="yes"/>
  </way>
  <way id="62183692" version="2" timestamp="2010-12-22T09:56:42Z" uid="82877" user="Wankmann" changeset="6733688">
    <nd ref="775725950"/>
    <nd ref="709047393"/>
    <nd ref="709047394"/>
    <nd ref="709047395"/>
    <nd ref="709047388"/>
    <nd ref="709047402"/>
    <nd ref="709047389"/>
    <nd ref="775725951"/>
    <nd ref="775725950"/>
    <tag k="addr:city" v="Schnaittach"/>
    <tag k="addr:country" v="DE"/>
    <tag k="addr:housenumber" v="34"/>
    <tag k="addr:postcode" v="91220"/>
    <tag k="addr:street" v="Nürnberger Straße"/>
    <tag k="building" v="yes"/>
  </way>
  <way id="62183693" version="1" timestamp="2010-06-18T15:42:51Z" uid="49111" user="Markus B" changeset="5017235">
    <nd ref="709047391"/>
    <nd ref="775725950"/>
    <nd ref="775725951"/>
    <nd ref="709047390"/>
    <nd ref="709047391"/>
    <tag k="addr:city" v="Schnaittach"/>
    <tag k="addr:country" v="DE"/>
    <tag k="addr:housenumber" v="34"/>
    <tag k="addr:postcode" v="91220"/>
    <tag k="addr:street" v="Nürnberger Straße"/>
    <tag k="building" v="yes"/>
    <tag k="shop" v="hairdresser"/>
  </way>
  <way id="62183693" version="2" timestamp="2011-01-01T14:09:45Z" uid="82877" user="Wankmann" changeset="6828042">
    <nd ref="709047391"/>
    <nd ref="775725950"/>
    <nd ref="775725951"/>
    <nd ref="709047390"/>
    <nd ref="709047391"/>
    <tag k="addr:city" v="Schnaittach"/>
    <tag k="addr:country" v="DE"/>
    <tag k="addr:housenumber" v="34"/>
    <tag k="addr:postcode" v="91220"/>
    <tag k="addr:street" v="Nürnberger Straße"/>
    <tag k="building" v="yes"/>
    <tag k="name" v="Ute&apos;s Haarstübchen"/>
    <tag k="shop" v="hairdresser"/>
  </way>
  <way id="62183694" version="1" timestamp="2010-06-18T15:42:51Z" uid="49111" user="Markus B" changeset="5017235">
    <nd ref="775725957"/>
    <nd ref="775725956"/>
    <nd ref="775725958"/>
    <nd ref="775725959"/>
    <nd ref="775725960"/>
    <nd ref="775725961"/>
    <nd ref="775725957"/>
    <tag k="addr:city" v="Osternohe"/>
    <tag k="addr:country" v="DE"/>
    <tag k="addr:housenumber" v="2"/>
    <tag k="addr:postcode" v="91220"/>
    <tag k="addr:street" v="An der Osternohe"/>
    <tag k="amenity" v="restaurant"/>
    <tag k="building" v="yes"/>
    <tag k="cuisine" v="german"/>
    <tag k="name" v="Goldener Stern"/>
    <tag k="opening_hours" v="Do off"/>
    <tag k="phone" v="09153-7586"/>
    <tag k="smoking" v="no"/>
    <tag k="smoking:outside" v="yes"/>
    <tag k="website" v="http://goldener-stern-osternohe.de"/>
  </way>
  <way id="62183694" version="2" timestamp="2011-03-11T20:42:23Z" uid="89943" user="Bengatzer" changeset="7527334">
    <nd ref="775725957"/>
    <nd ref="775725956"/>
    <nd ref="775725958"/>
    <nd ref="775725959"/>
    <nd ref="775725960"/>
    <nd ref="775725961"/>
    <nd ref="775725957"/>
    <tag k="addr:city" v="Osternohe"/>
    <tag k="addr:country" v="DE"/>
    <tag k="addr:housenumber" v="2"/>
    <tag k="addr:postcode" v="91220"/>
    <tag k="addr:street" v="An der Osternohe"/>
    <tag k="amenity" v="restaurant"/>
    <tag k="building" v="yes"/>
    <tag k="cuisine" v="german"/>
    <tag k="name" v="Goldener Stern"/>
    <tag k="opening_hours" v="Th off"/>
    <tag k="phone" v="09153-7586"/>
    <tag k="smoking" v="no"/>
    <tag k="smoking:outside" v="yes"/>
    <tag k="website" v="http://goldener-stern-osternohe.de"/>
  </way>
  <way id="62183695" version="1" timestamp="2010-06-18T15:42:51Z" uid="49111" user="Markus B" changeset="5017235">
    <nd ref="775725963"/>
    <nd ref="775725962"/>
    <nd ref="775725955"/>
    <nd ref="775725954"/>
    <nd ref="775725963"/>
    <tag k="amenity" v="biergarten"/>
    <tag k="smoking" v="yes"/>
  </way>
  <way id="62183695" version="2" timestamp="2011-01-28T09:40:53Z" uid="82877" user="Wankmann" changeset="7111213">
    <nd ref="775725963"/>
    <nd ref="775725962"/>
    <nd ref="775725955"/>
    <nd ref="775725954"/>
    <nd ref="1124701429"/>
    <nd ref="1124701375"/>
    <nd ref="775725963"/>
    <tag k="amenity" v="biergarten"/>
    <tag k="smoking" v="yes"/>
  </way>
  <way id="62183696" version="1" timestamp="2010-06-18T15:42:51Z" uid="49111" user="Markus B" changeset="5017235">
    <nd ref="775725967"/>
    <nd ref="775725971"/>
    <nd ref="775725968"/>
    <nd ref="775725969"/>
    <nd ref="775725967"/>
    <tag k="amenity" v="parking"/>
  </way>
  <way id="62183696" version="2" timestamp="2011-01-24T11:25:31Z" uid="82877" user="Wankmann" changeset="7071913">
    <nd ref="775725967"/>
    <nd ref="775725971"/>
    <nd ref="775725968"/>
    <nd ref="775725969"/>
    <nd ref="775725967"/>
    <tag k="amenity" v="parking"/>
    <tag k="building" v="yes"/>
  </way>
</osm>
