<?xml version='1.0' encoding='UTF-8'?>
<osm version="0.6" generator="libosmium/2.20.0">
  <way id="62269673" version="3" timestamp="2011-02-12T04:45:52Z" uid="4467" user="Rosscoe" changeset="7261402">
    <nd ref="778103593"/>
    <nd ref="778103597"/>
    <tag k="highway" v="residential"/>
    <tag k="name" v="Stanwell Street"/>
    <tag k="source" v="survey"/>
    <tag k="survey" v="GPS"/>
  </way>
  <way id="62269680" version="3" timestamp="2011-02-19T06:48:12Z" uid="4467" user="Rosscoe" changeset="7328817">
    <nd ref="778103627"/>
    <nd ref="778103628"/>
    <nd ref="778103629"/>
    <nd ref="800027643"/>
    <nd ref="778103632"/>
    <tag k="highway" v="service"/>
    <tag k="source" v="survey"/>
    <tag k="surface" v="asphalt"/>
  </way>
  <way id="62269686" version="3" timestamp="2011-02-12T04:45:49Z" uid="4467" user="Rosscoe" changeset="7261402">
    <nd ref="778103636"/>
    <nd ref="778103638"/>
    <tag k="highway" v="residential"/>
    <tag k="name" v="coolinda street"/>
    <tag k="source" v="survey"/>
    <tag k="survey" v="GPS"/>
  </way>
  <way id="62269686" version="4" timestamp="2011-02-12T09:08:50Z" uid="4467" user="Rosscoe" changeset="7262475">
    <nd ref="778103636"/>
    <nd ref="778103638"/>
    <tag k="highway" v="residential"/>
    <tag k="name" v="Coolinda Street"/>
    <tag k="source" v="survey"/>
    <tag k="survey" v="GPS"/>
  </way>
  <way id="62269697" version="3" timestamp="2011-02-12T04:46:15Z" uid="4467" user="Rosscoe" changeset="7261402">
    <nd ref="778103647"/>
    <nd ref="778103649"/>
    <tag k="highway" v="residential"/>
    <tag k="name" v="Jacoby Street"/>
    <tag k="source" v="survey"/>
    <tag k="survey" v="GPS"/>
  </way>
  <way id="62269699" version="3" timestamp="2011-02-12T04:45:56Z" uid="4467" user="Rosscoe" changeset="7261402">
    <nd ref="778103651"/>
    <nd ref="778103652"/>
    <tag k="highway" v="residential"/>
    <tag k="name" v="Simpson Street"/>
    <tag k="source" v="survey"/>
    <tag k="survey" v="GPS"/>
  </way>
  <way id="62269700" version="3" timestamp="2011-02-12T04:46:07Z" uid="4467" user="Rosscoe" changeset="7261402">
    <nd ref="778103657"/>
    <nd ref="778103659"/>
    <tag k="highway" v="residential"/>
    <tag k="name" v="kingsmill road"/>
    <tag k="source" v="survey"/>
    <tag k="survey" v="GPS"/>
  </way>
  <way id="62269705" version="3" timestamp="2011-02-12T04:45:53Z" uid="4467" user="Rosscoe" changeset="7261402">
    <nd ref="778103660"/>
    <nd ref="778103662"/>
    <nd ref="778103663"/>
    <nd ref="778103665"/>
    <nd ref="778103593"/>
    <nd ref="778103667"/>
    <nd ref="778103670"/>
    <tag k="highway" v="residential"/>
    <tag k="name" v="Darlot Street"/>
    <tag k="source" v="survey"/>
    <tag k="survey" v="GPS"/>
  </way>
  <way id="62269712" version="3" timestamp="2011-02-12T04:45:55Z" uid="4467" user="Rosscoe" changeset="7261402">
    <nd ref="778103678"/>
    <nd ref="778103663"/>
    <nd ref="778103682"/>
    <nd ref="778103683"/>
    <nd ref="778103685"/>
    <nd ref="778103687"/>
    <nd ref="778103689"/>
    <nd ref="778103690"/>
    <tag k="highway" v="residential"/>
    <tag k="name" v="Morgans Street"/>
    <tag k="source" v="survey"/>
    <tag k="survey" v="GPS"/>
  </way>
  <way id="62269722" version="4" timestamp="2011-02-12T04:46:01Z" uid="4467" user="Rosscoe" changeset="7261402">
    <nd ref="778103700"/>
    <nd ref="778103703"/>
    <tag k="FIXME" v="school zone speed limit"/>
    <tag k="highway" v="residential"/>
    <tag k="name" v="Rodereda Street"/>
    <tag k="source" v="survey"/>
    <tag k="survey" v="GPS"/>
  </way>
  <way id="62269727" version="4" timestamp="2011-02-12T04:46:29Z" uid="4467" user="Rosscoe" changeset="7261402">
    <nd ref="778103709"/>
    <nd ref="778103710"/>
    <tag k="FIXME" v="school zone speed limit"/>
    <tag k="highway" v="residential"/>
    <tag k="name" v="Mieklejohn Street"/>
    <tag k="source" v="survey"/>
    <tag k="survey" v="GPS"/>
  </way>
  <way id="62269735" version="3" timestamp="2011-02-12T04:45:57Z" uid="4467" user="Rosscoe" changeset="7261402">
    <nd ref="778103728"/>
    <nd ref="778103729"/>
    <tag k="highway" v="residential"/>
    <tag k="name" v="Frewer Street"/>
    <tag k="source" v="survey"/>
    <tag k="survey" v="GPS"/>
  </way>
  <way id="62269741" version="3" timestamp="2011-02-12T04:45:54Z" uid="4467" user="Rosscoe" changeset="7261402">
    <nd ref="778103733"/>
    <nd ref="778103734"/>
    <nd ref="778103649"/>
    <nd ref="778103729"/>
    <nd ref="778103652"/>
    <nd ref="778103735"/>
    <nd ref="778103737"/>
    <tag k="highway" v="residential"/>
    <tag k="name" v="Moore street"/>
    <tag k="source" v="survey"/>
    <tag k="survey" v="GPS"/>
  </way>
  <way id="62269759" version="4" timestamp="2011-02-12T04:46:21Z" uid="4467" user="Rosscoe" changeset="7261402">
    <nd ref="778103761"/>
    <nd ref="778103766"/>
    <nd ref="778103768"/>
    <tag k="highway" v="residential"/>
    <tag k="name" v="Leeds Street"/>
    <tag k="source" v="survey"/>
    <tag k="survey" v="GPS"/>
  </way>
  <way id="62269764" version="3" timestamp="2011-02-12T04:46:30Z" uid="4467" user="Rosscoe" changeset="7261402">
    <nd ref="778103774"/>
    <nd ref="778103775"/>
    <nd ref="778103776"/>
    <nd ref="778103777"/>
    <nd ref="778103780"/>
    <tag k="highway" v="residential"/>
    <tag k="name" v="Harper Street"/>
    <tag k="source" v="survey"/>
    <tag k="survey" v="GPS"/>
  </way>
  <way id="62269769" version="3" timestamp="2011-02-12T04:46:10Z" uid="4467" user="Rosscoe" changeset="7261402">
    <nd ref="778103792"/>
    <nd ref="778103718"/>
    <tag k="highway" v="residential"/>
    <tag k="name" v="Stevens Street"/>
    <tag k="source" v="survey"/>
    <tag k="survey" v="GPS"/>
  </way>
  <way id="62269773" version="4" timestamp="2011-02-12T04:46:26Z" uid="4467" user="Rosscoe" changeset="7261402">
    <nd ref="778103798"/>
    <nd ref="778103716"/>
    <tag k="highway" v="residential"/>
    <tag k="name" v="Pilkington Street"/>
    <tag k="source" v="survey"/>
    <tag k="survey" v="GPS"/>
  </way>
  <way id="62269783" version="3" timestamp="2011-02-12T04:46:24Z" uid="4467" user="Rosscoe" changeset="7261402">
    <nd ref="778103818"/>
    <nd ref="778103774"/>
    <nd ref="778103820"/>
    <nd ref="778103823"/>
    <nd ref="778103825"/>
    <nd ref="778103827"/>
    <tag k="highway" v="residential"/>
    <tag k="name" v="Robinson Street"/>
    <tag k="source" v="survey"/>
    <tag k="survey" v="GPS"/>
  </way>
  <way id="62269787" version="3" timestamp="2011-02-12T04:45:50Z" uid="4467" user="Rosscoe" changeset="7261402">
    <nd ref="778103825"/>
    <nd ref="778103839"/>
    <tag k="highway" v="residential"/>
    <tag k="name" v="Bell Street"/>
    <tag k="source" v="survey"/>
    <tag k="survey" v="GPS"/>
  </way>
  <way id="62269789" version="3" timestamp="2011-02-12T04:46:20Z" uid="4467" user="Rosscoe" changeset="7261402">
    <nd ref="778103855"/>
    <nd ref="778103820"/>
    <tag k="highway" v="residential"/>
    <tag k="name" v="Lacy Street"/>
    <tag k="source" v="survey"/>
    <tag k="survey" v="GPS"/>
  </way>
  <way id="62269792" version="3" timestamp="2011-02-12T04:46:06Z" uid="4467" user="Rosscoe" changeset="7261402">
    <nd ref="778103867"/>
    <nd ref="778103761"/>
    <nd ref="778103869"/>
    <nd ref="778103871"/>
    <nd ref="778103873"/>
    <nd ref="778103823"/>
    <tag k="highway" v="residential"/>
    <tag k="name" v="Bayman Street"/>
    <tag k="source" v="survey"/>
    <tag k="survey" v="GPS"/>
  </way>
  <way id="62269795" version="3" timestamp="2011-02-12T04:46:03Z" uid="4467" user="Rosscoe" changeset="7261402">
    <nd ref="778103879"/>
    <nd ref="778103869"/>
    <tag k="highway" v="residential"/>
    <tag k="name" v="Wyndham Street"/>
    <tag k="source" v="survey"/>
    <tag k="survey" v="GPS"/>
  </way>
  <way id="62269808" version="3" timestamp="2011-02-12T04:46:02Z" uid="4467" user="Rosscoe" changeset="7261402">
    <nd ref="778104028"/>
    <nd ref="778104039"/>
    <nd ref="778104046"/>
    <nd ref="778104053"/>
    <nd ref="321910844"/>
    <nd ref="321910847"/>
    <tag k="highway" v="residential"/>
    <tag k="name" v="Moseley Street"/>
    <tag k="source" v="survey"/>
    <tag k="survey" v="GPS"/>
  </way>
  <way id="62269813" version="3" timestamp="2011-02-12T04:46:30Z" uid="4467" user="Rosscoe" changeset="7261402">
    <nd ref="778104086"/>
    <nd ref="778104091"/>
    <nd ref="778104098"/>
    <nd ref="778104103"/>
    <tag k="highway" v="residential"/>
    <tag k="name" v="Trembath street"/>
    <tag k="source" v="survey"/>
    <tag k="survey" v="GPS"/>
  </way>
  <way id="62269852" version="3" timestamp="2011-02-12T04:45:54Z" uid="4467" user="Rosscoe" changeset="7261402">
    <nd ref="778104182"/>
    <nd ref="778103827"/>
    <nd ref="778104184"/>
    <nd ref="778104189"/>
    <nd ref="778104192"/>
    <tag k="highway" v="residential"/>
    <tag k="name" v="Thompson street"/>
    <tag k="source" v="survey"/>
    <tag k="survey" v="GPS"/>
  </way>
  <way id="62269866" version="3" timestamp="2011-02-12T04:46:05Z" uid="4467" user="Rosscoe" changeset="7261402">
    <nd ref="778104200"/>
    <nd ref="778104202"/>
    <nd ref="778104162"/>
    <tag k="highway" v="service"/>
    <tag k="source" v="survey"/>
    <tag k="survey" v="GPS"/>
  </way>
  <way id="62269873" version="3" timestamp="2011-02-12T04:46:07Z" uid="4467" user="Rosscoe" changeset="7261402">
    <nd ref="778104204"/>
    <nd ref="778104206"/>
    <nd ref="778104208"/>
    <nd ref="778104209"/>
    <nd ref="778104210"/>
    <nd ref="778104141"/>
    <tag k="highway" v="service"/>
    <tag k="source" v="survey"/>
    <tag k="survey" v="GPS"/>
  </way>
  <way id="62269888" version="3" timestamp="2011-02-12T04:46:29Z" uid="4467" user="Rosscoe" changeset="7261402">
    <nd ref="778104221"/>
    <nd ref="778104222"/>
    <nd ref="778104223"/>
    <nd ref="778104225"/>
    <nd ref="778104138"/>
    <tag k="highway" v="residential"/>
    <tag k="name" v="Crawford Street"/>
    <tag k="source" v="survey"/>
    <tag k="survey" v="GPS"/>
  </way>
  <way id="62269890" version="3" timestamp="2011-02-12T04:46:06Z" uid="4467" user="Rosscoe" changeset="7261402">
    <nd ref="778104229"/>
    <nd ref="778104218"/>
    <tag k="highway" v="residential"/>
    <tag k="name" v="Grant Place"/>
    <tag k="source" v="survey"/>
    <tag k="survey" v="GPS"/>
  </way>
  <way id="62269892" version="3" timestamp="2011-02-12T04:45:52Z" uid="4467" user="Rosscoe" changeset="7261402">
    <nd ref="778104231"/>
    <nd ref="778104215"/>
    <tag k="highway" v="residential"/>
    <tag k="name" v="Padbury Place"/>
    <tag k="source" v="survey"/>
    <tag k="survey" v="GPS"/>
  </way>
  <way id="62269916" version="3" timestamp="2011-02-12T04:46:11Z" uid="4467" user="Rosscoe" changeset="7261402">
    <nd ref="778104276"/>
    <nd ref="778104277"/>
    <nd ref="778104278"/>
    <tag k="highway" v="residential"/>
    <tag k="name" v="Gratwick Street"/>
    <tag k="source" v="survey"/>
    <tag k="survey" v="GPS"/>
  </way>
  <way id="62269921" version="3" timestamp="2011-02-12T04:45:49Z" uid="4467" user="Rosscoe" changeset="7261402">
    <nd ref="778104282"/>
    <nd ref="287778624"/>
    <nd ref="287778625"/>
    <nd ref="778104286"/>
    <nd ref="778104287"/>
    <nd ref="778104278"/>
    <nd ref="778104166"/>
    <tag k="highway" v="residential"/>
    <tag k="name" v="Gratwick Street"/>
    <tag k="source" v="survey"/>
    <tag k="survey" v="GPS"/>
  </way>
</osm>
