<?xml version='1.0' encoding='UTF-8'?>
<osm version="0.6" generator="libosmium/2.20.0">
  <way id="62262007" version="2" timestamp="2011-04-24T03:25:41Z" uid="4467" user="Rosscoe" changeset="7949032">
    <nd ref="777801949"/>
    <nd ref="777801950"/>
    <nd ref="777801951"/>
    <nd ref="777801952"/>
    <nd ref="777801949"/>
    <tag k="amenity" v="parking"/>
  </way>
  <way id="62262019" version="5" timestamp="2010-12-16T11:38:48Z" uid="4467" user="Rosscoe" changeset="6675796"/>
  <way id="62262021" version="1" timestamp="2010-06-20T04:44:55Z" uid="61114" user="Trav" changeset="5029559">
    <nd ref="271623357"/>
    <nd ref="271623360"/>
    <tag k="highway" v="residential"/>
    <tag k="name" v="Pitt Lane"/>
    <tag k="oneway" v="yes"/>
    <tag k="source" v="yahoo"/>
  </way>
  <way id="62262021" version="2" timestamp="2010-07-08T03:18:12Z" uid="74617" user="JohnSmith" changeset="5163091">
    <nd ref="271623357"/>
    <nd ref="271623360"/>
    <tag k="highway" v="residential"/>
    <tag k="maxspeed" v="50"/>
    <tag k="maxspeed:source" v="default residential speed limit in Australia"/>
    <tag k="name" v="Pitt Lane"/>
    <tag k="oneway" v="yes"/>
    <tag k="source" v="yahoo"/>
  </way>
  <way id="62262021" version="3" timestamp="2010-10-10T02:39:47Z" uid="7617" user="Franc" changeset="5998568">
    <nd ref="271623357"/>
    <nd ref="943165966"/>
    <nd ref="271623360"/>
    <tag k="highway" v="residential"/>
    <tag k="maxspeed" v="50"/>
    <tag k="maxspeed:source" v="default residential speed limit in Australia"/>
    <tag k="name" v="Pitt Lane"/>
    <tag k="oneway" v="yes"/>
    <tag k="source" v="yahoo"/>
  </way>
  <way id="62262021" version="4" timestamp="2012-01-20T10:30:13Z" uid="147510" user="woodpeck_fixbot" changeset="10443754">
    <nd ref="271623357"/>
    <nd ref="943165966"/>
    <nd ref="271623360"/>
    <tag k="highway" v="residential"/>
    <tag k="name" v="Pitt Lane"/>
    <tag k="oneway" v="yes"/>
    <tag k="source" v="yahoo"/>
  </way>
  <way id="62262022" version="1" timestamp="2010-06-20T04:44:59Z" uid="61114" user="Trav" changeset="5029559">
    <nd ref="274839220"/>
    <nd ref="274839221"/>
    <nd ref="274839222"/>
    <nd ref="274839223"/>
    <tag k="highway" v="unclassified"/>
    <tag k="name" v="Douglas Street"/>
    <tag k="source" v="yahoo"/>
    <tag k="source:name" v="survey"/>
    <tag k="surface" v="unpaved"/>
  </way>
  <way id="62262023" version="1" timestamp="2010-06-20T04:45:11Z" uid="61114" user="Trav" changeset="5029559">
    <nd ref="469056746"/>
    <nd ref="465211262"/>
    <tag k="highway" v="service"/>
    <tag k="maxspeed" v="40"/>
    <tag k="name" v="Clydesdale Lane"/>
    <tag k="source:maxspeed" v="survey"/>
    <tag k="source:name" v="survey"/>
  </way>
  <way id="62262023" version="2" timestamp="2010-06-22T07:15:40Z" uid="61114" user="Trav" changeset="5048831">
    <nd ref="469056746"/>
    <nd ref="781081263"/>
    <nd ref="781081260"/>
    <nd ref="781081250"/>
    <tag k="highway" v="service"/>
    <tag k="maxspeed" v="40"/>
    <tag k="name" v="Clydesdale Lane"/>
    <tag k="source:maxspeed" v="survey"/>
    <tag k="source:name" v="survey"/>
  </way>
  <way id="62262023" version="3" timestamp="2010-06-30T13:18:46Z" uid="61114" user="Trav" changeset="5113476">
    <nd ref="469056746"/>
    <nd ref="797045737"/>
    <nd ref="781081263"/>
    <nd ref="781081260"/>
    <nd ref="781081250"/>
    <tag k="highway" v="service"/>
    <tag k="maxspeed" v="40"/>
    <tag k="name" v="Clydesdale Lane"/>
    <tag k="source:maxspeed" v="survey"/>
    <tag k="source:name" v="survey"/>
  </way>
  <way id="62262024" version="1" timestamp="2010-06-20T04:45:13Z" uid="61114" user="Trav" changeset="5029559">
    <nd ref="311430927"/>
    <nd ref="311430920"/>
    <nd ref="311430921"/>
    <tag k="highway" v="residential"/>
    <tag k="name" v="Merrindal Close"/>
    <tag k="source" v="yahoo"/>
    <tag k="source:name" v="survey"/>
  </way>
  <way id="62262024" version="2" timestamp="2010-07-07T22:53:02Z" uid="74617" user="JohnSmith" changeset="5162525">
    <nd ref="311430927"/>
    <nd ref="311430920"/>
    <nd ref="311430921"/>
    <tag k="highway" v="residential"/>
    <tag k="maxspeed" v="50"/>
    <tag k="maxspeed:source" v="default residential speed limit in Australia"/>
    <tag k="name" v="Merrindal Close"/>
    <tag k="source" v="yahoo"/>
    <tag k="source:name" v="survey"/>
  </way>
  <way id="62262024" version="3" timestamp="2012-01-20T10:30:16Z" uid="147510" user="woodpeck_fixbot" changeset="10443754">
    <nd ref="311430927"/>
    <nd ref="311430920"/>
    <nd ref="311430921"/>
    <tag k="highway" v="residential"/>
    <tag k="name" v="Merrindal Close"/>
    <tag k="source" v="yahoo"/>
    <tag k="source:name" v="survey"/>
  </way>
  <way id="62262025" version="1" timestamp="2010-06-20T04:45:15Z" uid="61114" user="Trav" changeset="5029559">
    <nd ref="777808739"/>
    <nd ref="777808741"/>
    <tag k="highway" v="residential"/>
    <tag k="name" v="Ellim Place"/>
    <tag k="source" v="nearmap;survey"/>
    <tag k="source:name" v="survey"/>
  </way>
  <way id="62262025" version="2" timestamp="2010-07-07T22:44:45Z" uid="74617" user="JohnSmith" changeset="5162525">
    <nd ref="777808739"/>
    <nd ref="777808741"/>
    <tag k="highway" v="residential"/>
    <tag k="maxspeed" v="50"/>
    <tag k="maxspeed:source" v="default residential speed limit in Australia"/>
    <tag k="name" v="Ellim Place"/>
    <tag k="source" v="nearmap;survey"/>
    <tag k="source:name" v="survey"/>
  </way>
  <way id="62262025" version="3" timestamp="2012-01-20T10:30:17Z" uid="147510" user="woodpeck_fixbot" changeset="10443754">
    <nd ref="777808739"/>
    <nd ref="777808741"/>
    <tag k="highway" v="residential"/>
    <tag k="name" v="Ellim Place"/>
    <tag k="source" v="nearmap;survey"/>
    <tag k="source:name" v="survey"/>
  </way>
  <way id="62262026" version="1" timestamp="2010-06-20T04:45:16Z" uid="61114" user="Trav" changeset="5029559">
    <nd ref="777808759"/>
    <nd ref="777808741"/>
    <nd ref="777808760"/>
    <tag k="highway" v="residential"/>
    <tag k="name" v="Ellim Place"/>
    <tag k="source" v="nearmap;survey"/>
    <tag k="source:name" v="survey"/>
  </way>
  <way id="62262026" version="2" timestamp="2010-07-07T22:48:22Z" uid="74617" user="JohnSmith" changeset="5162525">
    <nd ref="777808759"/>
    <nd ref="777808741"/>
    <nd ref="777808760"/>
    <tag k="highway" v="residential"/>
    <tag k="maxspeed" v="50"/>
    <tag k="maxspeed:source" v="default residential speed limit in Australia"/>
    <tag k="name" v="Ellim Place"/>
    <tag k="source" v="nearmap;survey"/>
    <tag k="source:name" v="survey"/>
  </way>
  <way id="62262026" version="3" timestamp="2012-01-20T10:30:19Z" uid="147510" user="woodpeck_fixbot" changeset="10443754">
    <nd ref="777808759"/>
    <nd ref="777808741"/>
    <nd ref="777808760"/>
    <tag k="highway" v="residential"/>
    <tag k="name" v="Ellim Place"/>
    <tag k="source" v="nearmap;survey"/>
    <tag k="source:name" v="survey"/>
  </way>
  <way id="62262027" version="1" timestamp="2010-06-20T04:45:18Z" uid="61114" user="Trav" changeset="5029559">
    <nd ref="311411349"/>
    <nd ref="777808794"/>
    <tag k="highway" v="footway"/>
    <tag k="source" v="survey;approximation"/>
  </way>
  <way id="62262027" version="2" timestamp="2010-06-21T11:38:39Z" uid="61114" user="Trav" changeset="5041889">
    <nd ref="311411349"/>
    <nd ref="779078126"/>
    <nd ref="777808794"/>
    <tag k="highway" v="footway"/>
    <tag k="source" v="survey;approximation"/>
  </way>
  <way id="62262029" version="1" timestamp="2010-06-20T04:45:26Z" uid="61114" user="Trav" changeset="5029559">
    <nd ref="777808834"/>
    <nd ref="777808836"/>
    <tag k="highway" v="residential"/>
    <tag k="name" v="Perseus Close"/>
    <tag k="source" v="nearmap"/>
    <tag k="source:name" v="survey"/>
  </way>
  <way id="62262029" version="2" timestamp="2010-07-07T22:53:32Z" uid="74617" user="JohnSmith" changeset="5162525">
    <nd ref="777808834"/>
    <nd ref="777808836"/>
    <tag k="highway" v="residential"/>
    <tag k="maxspeed" v="50"/>
    <tag k="maxspeed:source" v="default residential speed limit in Australia"/>
    <tag k="name" v="Perseus Close"/>
    <tag k="source" v="nearmap"/>
    <tag k="source:name" v="survey"/>
  </way>
  <way id="62262029" version="3" timestamp="2012-01-20T10:30:22Z" uid="147510" user="woodpeck_fixbot" changeset="10443754">
    <nd ref="777808834"/>
    <nd ref="777808836"/>
    <tag k="highway" v="residential"/>
    <tag k="name" v="Perseus Close"/>
    <tag k="source" v="nearmap"/>
    <tag k="source:name" v="survey"/>
  </way>
  <way id="62262030" version="1" timestamp="2010-06-20T04:45:28Z" uid="61114" user="Trav" changeset="5029559">
    <nd ref="311424851"/>
    <nd ref="311424850"/>
    <tag k="highway" v="footway"/>
    <tag k="source" v="survey;approximation"/>
  </way>
  <way id="62262055" version="3" timestamp="2010-06-22T06:52:04Z" uid="4467" user="Rosscoe" changeset="5048688">
    <nd ref="767737566"/>
    <nd ref="777800877"/>
    <nd ref="767737557"/>
    <nd ref="777800550"/>
    <nd ref="781036920"/>
    <tag k="cycleway" v="lane"/>
    <tag k="highway" v="tertiary"/>
    <tag k="maxspeed" v="40"/>
    <tag k="name" v="Queensberry Street"/>
    <tag k="oneway" v="yes"/>
    <tag k="source" v="nearmap"/>
  </way>
  <way id="62262055" version="4" timestamp="2010-12-10T07:59:58Z" uid="84937" user="Neil Penman" changeset="6602718">
    <nd ref="767737566"/>
    <nd ref="777800877"/>
    <nd ref="777800550"/>
    <nd ref="781036920"/>
    <tag k="cycleway" v="lane"/>
    <tag k="highway" v="tertiary"/>
    <tag k="maxspeed" v="40"/>
    <tag k="name" v="Queensberry Street"/>
    <tag k="oneway" v="yes"/>
    <tag k="source" v="nearmap"/>
  </way>
  <way id="62262056" version="7" timestamp="2010-12-16T11:43:55Z" uid="4467" user="Rosscoe" changeset="6675850">
    <nd ref="767737648"/>
    <nd ref="777825195"/>
    <nd ref="767737627"/>
    <nd ref="777825626"/>
    <nd ref="767737602"/>
    <nd ref="777814394"/>
    <nd ref="767737607"/>
    <nd ref="777813987"/>
    <nd ref="767737566"/>
    <tag k="cycleway" v="lane"/>
    <tag k="highway" v="tertiary"/>
    <tag k="lanes" v="2"/>
    <tag k="maxspeed" v="50"/>
    <tag k="name" v="Queensberry Street"/>
    <tag k="oneway" v="yes"/>
    <tag k="source" v="nearmap"/>
  </way>
  <way id="62262076" version="6" timestamp="2010-12-16T11:44:01Z" uid="4467" user="Rosscoe" changeset="6675850">
    <nd ref="89531904"/>
    <nd ref="780910234"/>
    <nd ref="780910447"/>
    <nd ref="30943324"/>
    <nd ref="777826228"/>
    <nd ref="777826283"/>
    <nd ref="777827023"/>
    <nd ref="777831467"/>
    <nd ref="307350279"/>
    <tag k="cycleway" v="lane"/>
    <tag k="highway" v="tertiary"/>
    <tag k="lanes" v="2"/>
    <tag k="maxspeed" v="50"/>
    <tag k="name" v="Queensberry Street"/>
    <tag k="oneway" v="yes"/>
    <tag k="source" v="nearmap"/>
  </way>
  <way id="62262114" version="2" timestamp="2010-07-08T19:53:54Z" uid="74617" user="JohnSmith" changeset="5168688">
    <nd ref="777822760"/>
    <nd ref="356634328"/>
    <tag k="highway" v="residential"/>
    <tag k="maxspeed" v="50"/>
    <tag k="maxspeed:source" v="default residential speed limit in Australia"/>
    <tag k="name" v="Back Road"/>
    <tag k="surface" v="gravel"/>
  </way>
  <way id="62262114" version="3" timestamp="2012-01-20T10:30:24Z" uid="147510" user="woodpeck_fixbot" changeset="10443754">
    <nd ref="777822760"/>
    <nd ref="356634328"/>
    <tag k="highway" v="residential"/>
    <tag k="name" v="Back Road"/>
    <tag k="surface" v="gravel"/>
  </way>
  <way id="62262142" version="3" timestamp="2010-07-08T20:01:42Z" uid="74617" user="JohnSmith" changeset="5168688">
    <nd ref="360494249"/>
    <nd ref="777826298"/>
    <nd ref="777824744"/>
    <nd ref="777824747"/>
    <nd ref="777824750"/>
    <nd ref="777824752"/>
    <nd ref="722215894"/>
    <tag k="highway" v="residential"/>
    <tag k="maxspeed" v="50"/>
    <tag k="maxspeed:source" v="default residential speed limit in Australia"/>
    <tag k="name" v="Braeside Avenue"/>
    <tag k="surface" v="paved"/>
  </way>
  <way id="62262142" version="4" timestamp="2012-01-20T10:30:26Z" uid="147510" user="woodpeck_fixbot" changeset="10443754">
    <nd ref="360494249"/>
    <nd ref="777826298"/>
    <nd ref="777824744"/>
    <nd ref="777824747"/>
    <nd ref="777824750"/>
    <nd ref="777824752"/>
    <nd ref="722215894"/>
    <tag k="highway" v="residential"/>
    <tag k="name" v="Braeside Avenue"/>
    <tag k="surface" v="paved"/>
  </way>
  <way id="62262142" version="5" timestamp="2012-02-01T20:38:53Z" uid="211804" user="KenS" changeset="10562276">
    <nd ref="1614735701"/>
    <nd ref="777826298"/>
    <nd ref="777824744"/>
    <nd ref="777824747"/>
    <nd ref="777824750"/>
    <nd ref="777824752"/>
    <nd ref="722215894"/>
    <tag k="highway" v="residential"/>
    <tag k="name" v="Braeside Avenue"/>
    <tag k="surface" v="paved"/>
  </way>
  <way id="62262145" version="4" timestamp="2010-12-16T11:44:01Z" uid="4467" user="Rosscoe" changeset="6675850">
    <nd ref="137172657"/>
    <nd ref="137172723"/>
    <nd ref="711331755"/>
    <nd ref="777696327"/>
    <nd ref="30943513"/>
    <nd ref="777759525"/>
    <nd ref="777759530"/>
    <tag k="highway" v="residential"/>
    <tag k="maxspeed" v="50"/>
    <tag k="name" v="Cobden Street"/>
    <tag k="oneway" v="yes"/>
    <tag k="source" v="nearmap"/>
  </way>
  <way id="62262146" version="2" timestamp="2010-07-09T03:46:41Z" uid="74617" user="JohnSmith" changeset="5170825">
    <nd ref="591984763"/>
    <nd ref="777825258"/>
    <tag k="highway" v="residential"/>
    <tag k="maxspeed" v="50"/>
    <tag k="maxspeed:source" v="default residential speed limit in Australia"/>
    <tag k="name" v="Church Street"/>
    <tag k="source" v="nearmap"/>
  </way>
  <way id="62262146" version="3" timestamp="2012-01-20T10:30:29Z" uid="147510" user="woodpeck_fixbot" changeset="10443754">
    <nd ref="591984763"/>
    <nd ref="777825258"/>
    <tag k="highway" v="residential"/>
    <tag k="name" v="Church Street"/>
    <tag k="source" v="nearmap"/>
  </way>
  <way id="62262156" version="9" timestamp="2010-12-16T11:44:04Z" uid="4467" user="Rosscoe" changeset="6675850"/>
  <way id="62262160" version="3" timestamp="2010-12-16T11:44:03Z" uid="4467" user="Rosscoe" changeset="6675850"/>
  <way id="62262163" version="3" timestamp="2011-04-16T10:45:58Z" uid="4467" user="Rosscoe" changeset="7877170">
    <nd ref="307350280"/>
    <nd ref="777828239"/>
    <nd ref="52600163"/>
    <nd ref="1246732945"/>
    <nd ref="52600140"/>
    <nd ref="312718293"/>
    <nd ref="33238476"/>
    <nd ref="775942860"/>
    <nd ref="312718905"/>
    <nd ref="242538790"/>
    <nd ref="356215162"/>
    <nd ref="317535752"/>
    <nd ref="137181160"/>
    <nd ref="1246732909"/>
    <nd ref="317536476"/>
    <nd ref="366082400"/>
    <nd ref="30943325"/>
    <nd ref="471341054"/>
    <nd ref="319157881"/>
    <nd ref="30287383"/>
    <nd ref="30943326"/>
    <nd ref="319157922"/>
    <nd ref="767671454"/>
    <tag k="cycleway" v="lane"/>
    <tag k="highway" v="tertiary"/>
    <tag k="lanes" v="2"/>
    <tag k="maxspeed" v="50"/>
    <tag k="name" v="Queensberry Street"/>
    <tag k="oneway" v="yes"/>
    <tag k="source" v="nearmap"/>
  </way>
  <way id="62262163" version="4" timestamp="2011-11-05T14:44:14Z" uid="11111" user="melb_guy" changeset="9746131">
    <nd ref="307350280"/>
    <nd ref="777828239"/>
    <nd ref="52600163"/>
    <nd ref="1246732945"/>
    <nd ref="52600140"/>
    <nd ref="312718293"/>
    <nd ref="33238476"/>
    <nd ref="775942860"/>
    <nd ref="312718905"/>
    <nd ref="1492410213"/>
    <nd ref="1492410217"/>
    <nd ref="1492410159"/>
    <nd ref="1492410156"/>
    <nd ref="1492410185"/>
    <nd ref="1492410162"/>
    <nd ref="356215162"/>
    <nd ref="317535752"/>
    <nd ref="137181160"/>
    <nd ref="1246732909"/>
    <nd ref="317536476"/>
    <nd ref="366082400"/>
    <nd ref="30943325"/>
    <nd ref="471341054"/>
    <nd ref="319157881"/>
    <nd ref="30287383"/>
    <nd ref="30943326"/>
    <nd ref="319157922"/>
    <nd ref="767671454"/>
    <tag k="cycleway" v="lane"/>
    <tag k="highway" v="tertiary"/>
    <tag k="lanes" v="2"/>
    <tag k="maxspeed" v="50"/>
    <tag k="name" v="Queensberry Street"/>
    <tag k="oneway" v="yes"/>
    <tag k="source" v="nearmap"/>
  </way>
  <way id="62262202" version="4" timestamp="2010-07-09T03:51:16Z" uid="74617" user="JohnSmith" changeset="5170825">
    <nd ref="777832405"/>
    <nd ref="777832408"/>
    <nd ref="591984686"/>
    <nd ref="591984683"/>
    <nd ref="777833264"/>
    <tag k="highway" v="residential"/>
    <tag k="maxspeed" v="50"/>
    <tag k="maxspeed:source" v="default residential speed limit in Australia"/>
    <tag k="name" v="Houston Street"/>
    <tag k="source" v="nearmap"/>
  </way>
  <way id="62262202" version="5" timestamp="2012-01-20T10:30:31Z" uid="147510" user="woodpeck_fixbot" changeset="10443754">
    <nd ref="777832405"/>
    <nd ref="777832408"/>
    <nd ref="591984686"/>
    <nd ref="591984683"/>
    <nd ref="777833264"/>
    <tag k="highway" v="residential"/>
    <tag k="name" v="Houston Street"/>
    <tag k="source" v="nearmap"/>
  </way>
  <way id="62262203" version="2" timestamp="2010-07-09T03:49:31Z" uid="74617" user="JohnSmith" changeset="5170825">
    <nd ref="777832419"/>
    <nd ref="777832421"/>
    <nd ref="777832405"/>
    <tag k="highway" v="residential"/>
    <tag k="maxspeed" v="50"/>
    <tag k="maxspeed:source" v="default residential speed limit in Australia"/>
    <tag k="name" v="Houston Street"/>
    <tag k="oneway" v="yes"/>
    <tag k="source" v="nearmap"/>
  </way>
  <way id="62262203" version="3" timestamp="2012-01-20T10:30:34Z" uid="147510" user="woodpeck_fixbot" changeset="10443754">
    <nd ref="777832419"/>
    <nd ref="777832421"/>
    <nd ref="777832405"/>
    <tag k="highway" v="residential"/>
    <tag k="name" v="Houston Street"/>
    <tag k="oneway" v="yes"/>
    <tag k="source" v="nearmap"/>
  </way>
  <way id="62262213" version="1" timestamp="2010-06-20T05:10:46Z" uid="61114" user="Trav" changeset="5029636">
    <nd ref="311424031"/>
    <nd ref="311424841"/>
    <tag k="highway" v="footway"/>
    <tag k="source" v="survey;approximation"/>
  </way>
  <way id="62262214" version="1" timestamp="2010-06-20T05:10:47Z" uid="61114" user="Trav" changeset="5029636">
    <nd ref="313287888"/>
    <nd ref="311424817"/>
    <nd ref="311424818"/>
    <nd ref="311424819"/>
    <nd ref="311424820"/>
    <tag k="highway" v="residential"/>
    <tag k="name" v="Wagner Place"/>
    <tag k="source" v="yahoo"/>
    <tag k="source:name" v="survey"/>
  </way>
  <way id="62262214" version="2" timestamp="2010-07-07T22:53:45Z" uid="74617" user="JohnSmith" changeset="5162525">
    <nd ref="313287888"/>
    <nd ref="311424817"/>
    <nd ref="311424818"/>
    <nd ref="311424819"/>
    <nd ref="311424820"/>
    <tag k="highway" v="residential"/>
    <tag k="maxspeed" v="50"/>
    <tag k="maxspeed:source" v="default residential speed limit in Australia"/>
    <tag k="name" v="Wagner Place"/>
    <tag k="source" v="yahoo"/>
    <tag k="source:name" v="survey"/>
  </way>
  <way id="62262214" version="3" timestamp="2012-01-20T10:30:36Z" uid="147510" user="woodpeck_fixbot" changeset="10443754">
    <nd ref="313287888"/>
    <nd ref="311424817"/>
    <nd ref="311424818"/>
    <nd ref="311424819"/>
    <nd ref="311424820"/>
    <tag k="highway" v="residential"/>
    <tag k="name" v="Wagner Place"/>
    <tag k="source" v="yahoo"/>
    <tag k="source:name" v="survey"/>
  </way>
  <way id="62262215" version="1" timestamp="2010-06-20T05:10:48Z" uid="61114" user="Trav" changeset="5029636">
    <nd ref="311424823"/>
    <nd ref="311424830"/>
    <tag k="highway" v="footway"/>
    <tag k="source" v="survey;approximation"/>
  </way>
  <way id="62262215" version="2" timestamp="2010-06-21T11:38:30Z" uid="61114" user="Trav" changeset="5041889">
    <nd ref="311424823"/>
    <nd ref="779077870"/>
    <nd ref="779077872"/>
    <nd ref="779077868"/>
    <nd ref="779077876"/>
    <nd ref="779077878"/>
    <nd ref="779077880"/>
    <nd ref="779077881"/>
    <nd ref="779077874"/>
    <nd ref="779077883"/>
    <nd ref="779077885"/>
    <nd ref="779077887"/>
    <nd ref="779077889"/>
    <nd ref="779077892"/>
    <nd ref="779077894"/>
    <nd ref="779077896"/>
    <nd ref="779077901"/>
    <nd ref="779077898"/>
    <nd ref="311411343"/>
    <tag k="highway" v="footway"/>
    <tag k="source" v="survey;approximation;nearmap"/>
  </way>
  <way id="62262216" version="1" timestamp="2010-06-20T05:10:48Z" uid="61114" user="Trav" changeset="5029636">
    <nd ref="311424816"/>
    <nd ref="311411393"/>
    <nd ref="311411414"/>
    <nd ref="626307491"/>
    <tag k="highway" v="residential"/>
    <tag k="name" v="Middleton Avenue"/>
    <tag k="source" v="yahoo"/>
    <tag k="source:name" v="survey"/>
  </way>
  <way id="62262216" version="2" timestamp="2010-07-07T22:46:17Z" uid="74617" user="JohnSmith" changeset="5162525">
    <nd ref="311424816"/>
    <nd ref="311411393"/>
    <nd ref="311411414"/>
    <nd ref="626307491"/>
    <tag k="highway" v="residential"/>
    <tag k="maxspeed" v="50"/>
    <tag k="maxspeed:source" v="default residential speed limit in Australia"/>
    <tag k="name" v="Middleton Avenue"/>
    <tag k="source" v="yahoo"/>
    <tag k="source:name" v="survey"/>
  </way>
  <way id="62262216" version="3" timestamp="2012-01-20T10:30:38Z" uid="147510" user="woodpeck_fixbot" changeset="10443754">
    <nd ref="311424816"/>
    <nd ref="311411393"/>
    <nd ref="311411414"/>
    <nd ref="626307491"/>
    <tag k="highway" v="residential"/>
    <tag k="name" v="Middleton Avenue"/>
    <tag k="source" v="yahoo"/>
    <tag k="source:name" v="survey"/>
  </way>
  <way id="62262217" version="1" timestamp="2010-06-20T05:10:49Z" uid="61114" user="Trav" changeset="5029636">
    <nd ref="311424816"/>
    <nd ref="311411474"/>
    <tag k="highway" v="footway"/>
    <tag k="source" v="survey;approximation"/>
  </way>
  <way id="62262350" version="2" timestamp="2010-07-09T03:50:00Z" uid="74617" user="JohnSmith" changeset="5170825">
    <nd ref="777833264"/>
    <nd ref="777843807"/>
    <nd ref="777843809"/>
    <nd ref="591984661"/>
    <tag k="highway" v="residential"/>
    <tag k="maxspeed" v="50"/>
    <tag k="maxspeed:source" v="default residential speed limit in Australia"/>
    <tag k="name" v="Houston Street"/>
    <tag k="oneway" v="yes"/>
    <tag k="source" v="nearmap"/>
  </way>
  <way id="62262350" version="3" timestamp="2012-01-20T10:30:40Z" uid="147510" user="woodpeck_fixbot" changeset="10443754">
    <nd ref="777833264"/>
    <nd ref="777843807"/>
    <nd ref="777843809"/>
    <nd ref="591984661"/>
    <tag k="highway" v="residential"/>
    <tag k="name" v="Houston Street"/>
    <tag k="oneway" v="yes"/>
    <tag k="source" v="nearmap"/>
  </way>
  <way id="62262351" version="2" timestamp="2010-07-09T03:48:14Z" uid="74617" user="JohnSmith" changeset="5170825">
    <nd ref="591984661"/>
    <nd ref="777843818"/>
    <nd ref="777843821"/>
    <nd ref="777843823"/>
    <tag k="highway" v="residential"/>
    <tag k="maxspeed" v="50"/>
    <tag k="maxspeed:source" v="default residential speed limit in Australia"/>
    <tag k="name" v="Duffy Street"/>
    <tag k="oneway" v="yes"/>
    <tag k="source" v="nearmap"/>
  </way>
  <way id="62262351" version="3" timestamp="2012-01-20T10:30:42Z" uid="147510" user="woodpeck_fixbot" changeset="10443754">
    <nd ref="591984661"/>
    <nd ref="777843818"/>
    <nd ref="777843821"/>
    <nd ref="777843823"/>
    <tag k="highway" v="residential"/>
    <tag k="name" v="Duffy Street"/>
    <tag k="oneway" v="yes"/>
    <tag k="source" v="nearmap"/>
  </way>
  <way id="62262352" version="2" timestamp="2010-07-09T03:51:33Z" uid="74617" user="JohnSmith" changeset="5170825">
    <nd ref="777843823"/>
    <nd ref="777843832"/>
    <nd ref="591984657"/>
    <tag k="highway" v="residential"/>
    <tag k="maxspeed" v="50"/>
    <tag k="maxspeed:source" v="default residential speed limit in Australia"/>
    <tag k="name" v="Duffy Street"/>
    <tag k="oneway" v="yes"/>
    <tag k="source" v="nearmap"/>
  </way>
  <way id="62262352" version="3" timestamp="2012-01-20T10:30:45Z" uid="147510" user="woodpeck_fixbot" changeset="10443754">
    <nd ref="777843823"/>
    <nd ref="777843832"/>
    <nd ref="591984657"/>
    <tag k="highway" v="residential"/>
    <tag k="name" v="Duffy Street"/>
    <tag k="oneway" v="yes"/>
    <tag k="source" v="nearmap"/>
  </way>
  <way id="62262353" version="2" timestamp="2010-07-09T03:49:49Z" uid="74617" user="JohnSmith" changeset="5170825">
    <nd ref="591984655"/>
    <nd ref="777843846"/>
    <nd ref="777843849"/>
    <nd ref="591984672"/>
    <tag k="highway" v="residential"/>
    <tag k="maxspeed" v="50"/>
    <tag k="maxspeed:source" v="default residential speed limit in Australia"/>
    <tag k="name" v="Duffy Street"/>
    <tag k="oneway" v="yes"/>
    <tag k="source" v="nearmap"/>
  </way>
  <way id="62262353" version="3" timestamp="2012-01-20T10:30:48Z" uid="147510" user="woodpeck_fixbot" changeset="10443754">
    <nd ref="591984655"/>
    <nd ref="777843846"/>
    <nd ref="777843849"/>
    <nd ref="591984672"/>
    <tag k="highway" v="residential"/>
    <tag k="name" v="Duffy Street"/>
    <tag k="oneway" v="yes"/>
    <tag k="source" v="nearmap"/>
  </way>
  <way id="62262354" version="2" timestamp="2010-07-09T03:48:00Z" uid="74617" user="JohnSmith" changeset="5170825">
    <nd ref="591984672"/>
    <nd ref="777843872"/>
    <nd ref="591984665"/>
    <tag k="highway" v="residential"/>
    <tag k="maxspeed" v="50"/>
    <tag k="maxspeed:source" v="default residential speed limit in Australia"/>
    <tag k="name" v="Duffy Street"/>
    <tag k="oneway" v="yes"/>
    <tag k="source" v="nearmap"/>
  </way>
  <way id="62262354" version="3" timestamp="2012-01-20T10:30:49Z" uid="147510" user="woodpeck_fixbot" changeset="10443754">
    <nd ref="591984672"/>
    <nd ref="777843872"/>
    <nd ref="591984665"/>
    <tag k="highway" v="residential"/>
    <tag k="name" v="Duffy Street"/>
    <tag k="oneway" v="yes"/>
    <tag k="source" v="nearmap"/>
  </way>
  <way id="62262355" version="2" timestamp="2010-07-09T03:46:04Z" uid="74617" user="JohnSmith" changeset="5170825">
    <nd ref="591984657"/>
    <nd ref="777843921"/>
    <nd ref="777843926"/>
    <nd ref="777843907"/>
    <tag k="highway" v="residential"/>
    <tag k="maxspeed" v="50"/>
    <tag k="maxspeed:source" v="default residential speed limit in Australia"/>
    <tag k="name" v="Houston Street"/>
    <tag k="oneway" v="yes"/>
    <tag k="source" v="nearmap"/>
  </way>
  <way id="62262355" version="3" timestamp="2012-01-20T10:30:51Z" uid="147510" user="woodpeck_fixbot" changeset="10443754">
    <nd ref="591984657"/>
    <nd ref="777843921"/>
    <nd ref="777843926"/>
    <nd ref="777843907"/>
    <tag k="highway" v="residential"/>
    <tag k="name" v="Houston Street"/>
    <tag k="oneway" v="yes"/>
    <tag k="source" v="nearmap"/>
  </way>
  <way id="62262357" version="2" timestamp="2010-07-09T03:51:06Z" uid="74617" user="JohnSmith" changeset="5170825">
    <nd ref="777843907"/>
    <nd ref="777843941"/>
    <nd ref="777843945"/>
    <nd ref="591984655"/>
    <tag k="highway" v="residential"/>
    <tag k="maxspeed" v="50"/>
    <tag k="maxspeed:source" v="default residential speed limit in Australia"/>
    <tag k="name" v="Houston Street"/>
    <tag k="oneway" v="yes"/>
    <tag k="source" v="nearmap"/>
  </way>
  <way id="62262357" version="3" timestamp="2012-01-20T10:30:52Z" uid="147510" user="woodpeck_fixbot" changeset="10443754">
    <nd ref="777843907"/>
    <nd ref="777843941"/>
    <nd ref="777843945"/>
    <nd ref="591984655"/>
    <tag k="highway" v="residential"/>
    <tag k="name" v="Houston Street"/>
    <tag k="oneway" v="yes"/>
    <tag k="source" v="nearmap"/>
  </way>
  <way id="62262358" version="2" timestamp="2010-07-09T03:49:22Z" uid="74617" user="JohnSmith" changeset="5170825">
    <nd ref="591984665"/>
    <nd ref="777843954"/>
    <nd ref="777843959"/>
    <nd ref="777833264"/>
    <tag k="highway" v="residential"/>
    <tag k="maxspeed" v="50"/>
    <tag k="maxspeed:source" v="default residential speed limit in Australia"/>
    <tag k="name" v="Houston Street"/>
    <tag k="oneway" v="yes"/>
    <tag k="source" v="nearmap"/>
  </way>
  <way id="62262358" version="3" timestamp="2012-01-20T10:30:54Z" uid="147510" user="woodpeck_fixbot" changeset="10443754">
    <nd ref="591984665"/>
    <nd ref="777843954"/>
    <nd ref="777843959"/>
    <nd ref="777833264"/>
    <tag k="highway" v="residential"/>
    <tag k="name" v="Houston Street"/>
    <tag k="oneway" v="yes"/>
    <tag k="source" v="nearmap"/>
  </way>
  <way id="62262361" version="2" timestamp="2010-07-09T03:47:12Z" uid="74617" user="JohnSmith" changeset="5170825">
    <nd ref="591984632"/>
    <nd ref="777845573"/>
    <nd ref="777845557"/>
    <tag k="highway" v="residential"/>
    <tag k="maxspeed" v="50"/>
    <tag k="maxspeed:source" v="default residential speed limit in Australia"/>
    <tag k="name" v="Rufus Street"/>
    <tag k="oneway" v="yes"/>
    <tag k="source" v="nearmap"/>
  </way>
  <way id="62262361" version="3" timestamp="2012-01-20T10:30:56Z" uid="147510" user="woodpeck_fixbot" changeset="10443754">
    <nd ref="591984632"/>
    <nd ref="777845573"/>
    <nd ref="777845557"/>
    <tag k="highway" v="residential"/>
    <tag k="name" v="Rufus Street"/>
    <tag k="oneway" v="yes"/>
    <tag k="source" v="nearmap"/>
  </way>
  <way id="62262362" version="2" timestamp="2010-07-09T03:45:15Z" uid="74617" user="JohnSmith" changeset="5170825">
    <nd ref="777845557"/>
    <nd ref="777845578"/>
    <nd ref="777845539"/>
    <tag k="highway" v="residential"/>
    <tag k="maxspeed" v="50"/>
    <tag k="maxspeed:source" v="default residential speed limit in Australia"/>
    <tag k="name" v="Rufus Street"/>
    <tag k="oneway" v="yes"/>
    <tag k="source" v="nearmap"/>
  </way>
  <way id="62262362" version="3" timestamp="2012-01-20T10:30:58Z" uid="147510" user="woodpeck_fixbot" changeset="10443754">
    <nd ref="777845557"/>
    <nd ref="777845578"/>
    <nd ref="777845539"/>
    <tag k="highway" v="residential"/>
    <tag k="name" v="Rufus Street"/>
    <tag k="oneway" v="yes"/>
    <tag k="source" v="nearmap"/>
  </way>
  <way id="62262682" version="3" timestamp="2010-06-23T02:24:23Z" uid="4467" user="Rosscoe" changeset="5056007">
    <nd ref="110152052"/>
    <nd ref="777869916"/>
    <nd ref="777869918"/>
    <nd ref="777869899"/>
    <nd ref="110152086"/>
    <nd ref="109798371"/>
    <nd ref="110152094"/>
    <nd ref="109728293"/>
    <nd ref="110152108"/>
    <nd ref="110152119"/>
    <nd ref="109887108"/>
    <nd ref="110152130"/>
    <nd ref="109727831"/>
    <nd ref="110152144"/>
    <nd ref="110152151"/>
    <nd ref="110152159"/>
    <nd ref="110152169"/>
    <nd ref="110152178"/>
    <nd ref="110152186"/>
    <nd ref="110152197"/>
    <nd ref="110152208"/>
    <nd ref="110152222"/>
    <nd ref="110152234"/>
    <nd ref="110152246"/>
    <nd ref="110152258"/>
    <nd ref="110152270"/>
    <nd ref="110152278"/>
    <nd ref="110053725"/>
    <tag k="highway" v="tertiary"/>
    <tag k="name" v="Belfield Avenue"/>
    <tag k="tiger:cfcc" v="A41"/>
    <tag k="tiger:name_base" v="Belfield"/>
    <tag k="tiger:name_type" v="Ave"/>
    <tag k="tiger:reviewed" v="no"/>
    <tag k="tiger:separated" v="no"/>
    <tag k="tiger:source" v="tiger_import_dch_v0.7_20071112"/>
    <tag k="tiger:tlid" v="131401399:131401401:131416627:131416644:131416755:131416785:131416787:131459739"/>
    <tag k="tiger:zip_left" v="19144"/>
    <tag k="tiger:zip_right" v="19144"/>
  </way>
  <way id="62262693" version="1" timestamp="2010-06-20T05:51:16Z" uid="61114" user="Trav" changeset="5029718">
    <nd ref="276892635"/>
    <nd ref="276892637"/>
    <nd ref="276892639"/>
    <nd ref="777875364"/>
    <nd ref="276860834"/>
    <tag k="highway" v="unclassified"/>
    <tag k="name" v="Thorley Street"/>
    <tag k="note" v="Flood evacuation route"/>
    <tag k="source" v="yahoo"/>
  </way>
  <way id="62262693" version="2" timestamp="2010-06-20T07:56:52Z" uid="61114" user="Trav" changeset="5030379">
    <nd ref="276892635"/>
    <nd ref="276892637"/>
    <nd ref="276892639"/>
    <nd ref="778043596"/>
    <nd ref="777875364"/>
    <nd ref="276860834"/>
    <tag k="highway" v="unclassified"/>
    <tag k="name" v="Thorley Street"/>
    <tag k="note" v="Flood evacuation route"/>
    <tag k="source" v="yahoo"/>
  </way>
  <way id="62262694" version="1" timestamp="2010-06-20T05:51:24Z" uid="61114" user="Trav" changeset="5029718">
    <nd ref="276860845"/>
    <nd ref="777875604"/>
    <tag k="complete" v="no"/>
    <tag k="highway" v="service"/>
    <tag k="name" v="Sunrise Crescent"/>
    <tag k="source:name" v="survey"/>
  </way>
  <way id="62262694" version="2" timestamp="2010-06-20T07:56:50Z" uid="61114" user="Trav" changeset="5030379">
    <nd ref="276860845"/>
    <nd ref="777875604"/>
    <nd ref="778043510"/>
    <nd ref="778043514"/>
    <nd ref="778043518"/>
    <nd ref="778043523"/>
    <nd ref="778043526"/>
    <nd ref="778043530"/>
    <nd ref="778043533"/>
    <nd ref="778043536"/>
    <tag k="highway" v="service"/>
    <tag k="name" v="Sunrise Crescent"/>
    <tag k="source" v="nearmap"/>
    <tag k="source:name" v="survey"/>
  </way>
  <way id="62262889" version="3" timestamp="2010-07-06T18:40:20Z" uid="74617" user="JohnSmith" changeset="5152225">
    <nd ref="777887193"/>
    <nd ref="777887173"/>
    <nd ref="777887197"/>
    <tag k="highway" v="residential"/>
    <tag k="maxspeed" v="50"/>
    <tag k="maxspeed:source" v="default residential speed limit in Australia"/>
    <tag k="name" v="Davidson Street"/>
  </way>
  <way id="62262889" version="4" timestamp="2010-07-31T00:10:23Z" uid="62457" user="cybercrypt" changeset="5359202">
    <nd ref="839421130"/>
    <nd ref="777887193"/>
    <nd ref="777887173"/>
    <nd ref="777887197"/>
    <tag k="highway" v="residential"/>
    <tag k="maxspeed" v="50"/>
    <tag k="maxspeed:source" v="default residential speed limit in Australia"/>
    <tag k="name" v="Davidson Street"/>
  </way>
  <way id="62262889" version="5" timestamp="2010-07-31T00:11:12Z" uid="62457" user="cybercrypt" changeset="5359202">
    <nd ref="839421130"/>
    <nd ref="777887193"/>
    <nd ref="777887173"/>
    <nd ref="777887197"/>
    <nd ref="839423328"/>
    <tag k="highway" v="residential"/>
    <tag k="maxspeed" v="50"/>
    <tag k="maxspeed:source" v="default residential speed limit in Australia"/>
    <tag k="name" v="Davidson Street"/>
  </way>
  <way id="62262889" version="6" timestamp="2010-07-31T09:05:11Z" uid="62457" user="cybercrypt" changeset="5360328">
    <nd ref="839421130"/>
    <nd ref="777887193"/>
    <nd ref="839770796"/>
    <nd ref="777887173"/>
    <nd ref="777887197"/>
    <nd ref="839423328"/>
    <tag k="highway" v="residential"/>
    <tag k="maxspeed" v="50"/>
    <tag k="maxspeed:source" v="default residential speed limit in Australia"/>
    <tag k="name" v="Davidson Street"/>
  </way>
  <way id="62262889" version="7" timestamp="2011-12-02T16:44:59Z" uid="338866" user="tiger" changeset="10017750">
    <nd ref="839421130"/>
    <nd ref="777887193"/>
    <nd ref="839770934"/>
    <nd ref="839770796"/>
    <nd ref="777887173"/>
    <nd ref="777887197"/>
    <nd ref="839423328"/>
    <tag k="highway" v="residential"/>
    <tag k="maxspeed" v="50"/>
    <tag k="maxspeed:source" v="default residential speed limit in Australia"/>
    <tag k="name" v="Davidson Street"/>
  </way>
  <way id="62262889" version="8" timestamp="2012-01-20T10:31:00Z" uid="147510" user="woodpeck_fixbot" changeset="10443754">
    <nd ref="839421130"/>
    <nd ref="777887193"/>
    <nd ref="839770934"/>
    <nd ref="839770796"/>
    <nd ref="777887173"/>
    <nd ref="777887197"/>
    <nd ref="839423328"/>
    <tag k="highway" v="residential"/>
    <tag k="name" v="Davidson Street"/>
  </way>
  <way id="62262891" version="3" timestamp="2010-07-06T18:38:13Z" uid="74617" user="JohnSmith" changeset="5152225">
    <nd ref="777887221"/>
    <nd ref="777887223"/>
    <tag k="highway" v="residential"/>
    <tag k="maxspeed" v="50"/>
    <tag k="maxspeed:source" v="default residential speed limit in Australia"/>
    <tag k="name" v="Parrot Street"/>
  </way>
  <way id="62262891" version="4" timestamp="2012-01-20T10:31:02Z" uid="147510" user="woodpeck_fixbot" changeset="10443754">
    <nd ref="777887221"/>
    <nd ref="777887223"/>
    <tag k="highway" v="residential"/>
    <tag k="name" v="Parrot Street"/>
  </way>
  <way id="62262892" version="3" timestamp="2010-07-06T18:34:32Z" uid="74617" user="JohnSmith" changeset="5152225">
    <nd ref="777887238"/>
    <nd ref="777887245"/>
    <tag k="highway" v="residential"/>
    <tag k="maxspeed" v="50"/>
    <tag k="maxspeed:source" v="default residential speed limit in Australia"/>
    <tag k="name" v="Myall Street"/>
  </way>
  <way id="62262892" version="4" timestamp="2012-01-20T10:31:03Z" uid="147510" user="woodpeck_fixbot" changeset="10443754">
    <nd ref="777887238"/>
    <nd ref="777887245"/>
    <tag k="highway" v="residential"/>
    <tag k="name" v="Myall Street"/>
  </way>
  <way id="62262896" version="3" timestamp="2010-07-06T18:41:19Z" uid="74617" user="JohnSmith" changeset="5152225">
    <nd ref="777887317"/>
    <nd ref="777887320"/>
    <nd ref="777887323"/>
    <nd ref="777887333"/>
    <tag k="highway" v="residential"/>
    <tag k="maxspeed" v="50"/>
    <tag k="maxspeed:source" v="default residential speed limit in Australia"/>
    <tag k="name" v="Peace Street"/>
  </way>
  <way id="62262896" version="4" timestamp="2012-01-20T10:31:05Z" uid="147510" user="woodpeck_fixbot" changeset="10443754">
    <nd ref="777887317"/>
    <nd ref="777887320"/>
    <nd ref="777887323"/>
    <nd ref="777887333"/>
    <tag k="highway" v="residential"/>
    <tag k="name" v="Peace Street"/>
  </way>
  <way id="62262897" version="3" timestamp="2010-07-06T18:35:14Z" uid="74617" user="JohnSmith" changeset="5152225">
    <nd ref="777887347"/>
    <nd ref="777887349"/>
    <nd ref="777887350"/>
    <nd ref="777887351"/>
    <nd ref="777887202"/>
    <tag k="highway" v="residential"/>
    <tag k="maxspeed" v="50"/>
    <tag k="maxspeed:source" v="default residential speed limit in Australia"/>
    <tag k="name" v="Wilkinson Street"/>
  </way>
  <way id="62262897" version="4" timestamp="2012-01-20T10:31:08Z" uid="147510" user="woodpeck_fixbot" changeset="10443754">
    <nd ref="777887347"/>
    <nd ref="777887349"/>
    <nd ref="777887350"/>
    <nd ref="777887351"/>
    <nd ref="777887202"/>
    <tag k="highway" v="residential"/>
    <tag k="name" v="Wilkinson Street"/>
  </way>
  <way id="62262898" version="3" timestamp="2010-07-06T18:39:27Z" uid="74617" user="JohnSmith" changeset="5152225">
    <nd ref="777887370"/>
    <nd ref="777887373"/>
    <nd ref="777887350"/>
    <tag k="highway" v="residential"/>
    <tag k="maxspeed" v="50"/>
    <tag k="maxspeed:source" v="default residential speed limit in Australia"/>
    <tag k="name" v="Civil Court"/>
  </way>
  <way id="62262898" version="4" timestamp="2012-01-20T10:31:11Z" uid="147510" user="woodpeck_fixbot" changeset="10443754">
    <nd ref="777887370"/>
    <nd ref="777887373"/>
    <nd ref="777887350"/>
    <tag k="highway" v="residential"/>
    <tag k="name" v="Civil Court"/>
  </way>
  <way id="62262899" version="3" timestamp="2010-07-06T18:40:26Z" uid="74617" user="JohnSmith" changeset="5152225">
    <nd ref="777887379"/>
    <nd ref="777887382"/>
    <tag k="highway" v="residential"/>
    <tag k="maxspeed" v="50"/>
    <tag k="maxspeed:source" v="default residential speed limit in Australia"/>
    <tag k="name" v="Churinga Street"/>
  </way>
  <way id="62262899" version="4" timestamp="2012-01-20T10:31:13Z" uid="147510" user="woodpeck_fixbot" changeset="10443754">
    <nd ref="777887379"/>
    <nd ref="777887382"/>
    <tag k="highway" v="residential"/>
    <tag k="name" v="Churinga Street"/>
  </way>
  <way id="62262901" version="3" timestamp="2010-07-06T18:38:21Z" uid="74617" user="JohnSmith" changeset="5152225">
    <nd ref="777887436"/>
    <nd ref="777887333"/>
    <nd ref="777887382"/>
    <nd ref="777887417"/>
    <tag k="highway" v="residential"/>
    <tag k="maxspeed" v="50"/>
    <tag k="maxspeed:source" v="default residential speed limit in Australia"/>
    <tag k="name" v="Mole Street"/>
  </way>
  <way id="62262901" version="4" timestamp="2012-01-20T10:31:14Z" uid="147510" user="woodpeck_fixbot" changeset="10443754">
    <nd ref="777887436"/>
    <nd ref="777887333"/>
    <nd ref="777887382"/>
    <nd ref="777887417"/>
    <tag k="highway" v="residential"/>
    <tag k="name" v="Mole Street"/>
  </way>
</osm>
