<?xml version='1.0' encoding='UTF-8'?>
<osm version="0.6" generator="libosmium/2.20.0">
  <way id="62307091" version="1" timestamp="2010-06-20T17:45:34Z" uid="33382" user="de_muur" changeset="5035324">
    <nd ref="778430510"/>
    <nd ref="412128001"/>
    <nd ref="52176092"/>
    <nd ref="60261934"/>
    <nd ref="778430528"/>
    <nd ref="60261976"/>
    <tag k="cycleway" v="track"/>
    <tag k="highway" v="tertiary"/>
    <tag k="maxspeed" v="70"/>
    <tag k="name" v="Memelstraße"/>
    <tag k="surface" v="paved"/>
  </way>
  <way id="62307091" version="2" timestamp="2010-07-25T19:46:05Z" uid="35574" user="Schorse" changeset="5315853">
    <nd ref="778430510"/>
    <nd ref="412128001"/>
    <nd ref="52176092"/>
    <nd ref="60261934"/>
    <nd ref="778430528"/>
    <nd ref="60261976"/>
    <tag k="bicycle" v="designated"/>
    <tag k="cycleway" v="track"/>
    <tag k="foot" v="designated"/>
    <tag k="highway" v="tertiary"/>
    <tag k="maxspeed" v="70"/>
    <tag k="name" v="Memelstraße"/>
    <tag k="surface" v="paved"/>
  </way>
  <way id="62307091" version="3" timestamp="2010-10-05T11:21:31Z" uid="45882" user="smarties" changeset="5960446">
    <nd ref="778430510"/>
    <nd ref="412128001"/>
    <nd ref="52176092"/>
    <nd ref="60261934"/>
    <nd ref="778430528"/>
    <nd ref="60261976"/>
    <tag k="bicycle" v="designated"/>
    <tag k="cycleway" v="track"/>
    <tag k="foot" v="designated"/>
    <tag k="highway" v="tertiary"/>
    <tag k="maxspeed" v="70"/>
    <tag k="name" v="Memelstraße"/>
    <tag k="ref" v="K 27"/>
    <tag k="surface" v="paved"/>
  </way>
  <way id="62307091" version="4" timestamp="2012-03-04T23:00:00Z" uid="57645" user="KartoGrapHiti" changeset="10875039">
    <nd ref="778430510"/>
    <nd ref="412128001"/>
    <nd ref="52176092"/>
    <nd ref="60261934"/>
    <nd ref="778430528"/>
    <nd ref="60261976"/>
    <tag k="highway" v="tertiary"/>
    <tag k="maxspeed" v="70"/>
    <tag k="name" v="Memelstraße"/>
    <tag k="ref" v="K 27"/>
    <tag k="surface" v="paved"/>
  </way>
  <way id="62307091" version="5" timestamp="2012-03-08T20:16:22Z" uid="57645" user="KartoGrapHiti" changeset="10913181"/>
  <way id="62307092" version="1" timestamp="2010-06-20T17:45:36Z" uid="33382" user="de_muur" changeset="5035324">
    <nd ref="60261965"/>
    <nd ref="60261981"/>
    <tag k="highway" v="tertiary"/>
    <tag k="maxspeed" v="50"/>
    <tag k="name" v="Eisseler Straße"/>
    <tag k="ref" v="K 27"/>
    <tag k="surface" v="paved"/>
  </way>
  <way id="62307092" version="2" timestamp="2010-08-01T06:29:33Z" uid="33382" user="de_muur" changeset="5367898">
    <nd ref="60261965"/>
    <nd ref="60261981"/>
    <tag k="cycleway" v="track"/>
    <tag k="highway" v="tertiary"/>
    <tag k="maxspeed" v="50"/>
    <tag k="name" v="Eisseler Straße"/>
    <tag k="ref" v="K 27"/>
    <tag k="surface" v="paved"/>
  </way>
  <way id="62307092" version="3" timestamp="2012-03-04T23:37:24Z" uid="57645" user="KartoGrapHiti" changeset="10875270">
    <nd ref="60261965"/>
    <nd ref="60261981"/>
    <tag k="highway" v="tertiary"/>
    <tag k="maxspeed" v="50"/>
    <tag k="name" v="Eisseler Straße"/>
    <tag k="ref" v="K 27"/>
    <tag k="surface" v="paved"/>
  </way>
  <way id="62307092" version="4" timestamp="2012-03-08T19:49:30Z" uid="57645" user="KartoGrapHiti" changeset="10912874"/>
  <way id="62307093" version="1" timestamp="2010-06-20T17:45:37Z" uid="33382" user="de_muur" changeset="5035324">
    <nd ref="778430531"/>
    <nd ref="60261965"/>
    <tag k="highway" v="tertiary"/>
    <tag k="maxspeed" v="70"/>
    <tag k="name" v="Eisseler Straße"/>
    <tag k="ref" v="K 27"/>
    <tag k="surface" v="paved"/>
  </way>
  <way id="62307093" version="2" timestamp="2010-07-25T19:47:39Z" uid="35574" user="Schorse" changeset="5315853">
    <nd ref="778430531"/>
    <nd ref="60261965"/>
    <tag k="bicycle" v="designated"/>
    <tag k="cycleway" v="track"/>
    <tag k="foot" v="designated"/>
    <tag k="highway" v="tertiary"/>
    <tag k="maxspeed" v="70"/>
    <tag k="name" v="Eisseler Straße"/>
    <tag k="ref" v="K 27"/>
    <tag k="surface" v="paved"/>
  </way>
  <way id="62307093" version="3" timestamp="2012-03-04T22:59:55Z" uid="57645" user="KartoGrapHiti" changeset="10875039">
    <nd ref="778430531"/>
    <nd ref="60261965"/>
    <tag k="highway" v="tertiary"/>
    <tag k="maxspeed" v="70"/>
    <tag k="name" v="Eisseler Straße"/>
    <tag k="ref" v="K 27"/>
    <tag k="surface" v="paved"/>
  </way>
  <way id="62307093" version="4" timestamp="2012-03-08T19:49:30Z" uid="57645" user="KartoGrapHiti" changeset="10912874"/>
  <way id="62307094" version="1" timestamp="2010-06-20T17:45:37Z" uid="33382" user="de_muur" changeset="5035324">
    <nd ref="778430524"/>
    <nd ref="778430529"/>
    <nd ref="778430519"/>
    <nd ref="60261978"/>
    <nd ref="778430531"/>
    <tag k="highway" v="tertiary"/>
    <tag k="name" v="Eisseler Straße"/>
    <tag k="ref" v="K 27"/>
    <tag k="surface" v="paved"/>
  </way>
  <way id="62307094" version="2" timestamp="2010-07-25T19:45:31Z" uid="35574" user="Schorse" changeset="5315853">
    <nd ref="778430524"/>
    <nd ref="778430529"/>
    <nd ref="778430519"/>
    <nd ref="60261978"/>
    <nd ref="778430531"/>
    <tag k="bicycle" v="designated"/>
    <tag k="cycleway" v="track"/>
    <tag k="foot" v="designated"/>
    <tag k="highway" v="tertiary"/>
    <tag k="name" v="Eisseler Straße"/>
    <tag k="ref" v="K 27"/>
    <tag k="surface" v="paved"/>
  </way>
  <way id="62307094" version="3" timestamp="2012-03-04T22:59:55Z" uid="57645" user="KartoGrapHiti" changeset="10875039">
    <nd ref="778430524"/>
    <nd ref="778430529"/>
    <nd ref="778430519"/>
    <nd ref="60261978"/>
    <nd ref="778430531"/>
    <tag k="highway" v="tertiary"/>
    <tag k="name" v="Eisseler Straße"/>
    <tag k="ref" v="K 27"/>
    <tag k="surface" v="paved"/>
  </way>
  <way id="62307094" version="4" timestamp="2012-03-04T23:37:25Z" uid="57645" user="KartoGrapHiti" changeset="10875270">
    <nd ref="778430524"/>
    <nd ref="778430529"/>
    <nd ref="1659781925"/>
    <nd ref="1659781929"/>
    <nd ref="60261978"/>
    <nd ref="1659781965"/>
    <nd ref="778430531"/>
    <tag k="highway" v="tertiary"/>
    <tag k="name" v="Eisseler Straße"/>
    <tag k="ref" v="K 27"/>
    <tag k="surface" v="paved"/>
  </way>
  <way id="62307094" version="5" timestamp="2012-03-08T19:49:30Z" uid="57645" user="KartoGrapHiti" changeset="10912874"/>
  <way id="62307095" version="1" timestamp="2010-06-20T17:45:37Z" uid="33382" user="de_muur" changeset="5035324">
    <nd ref="82712232"/>
    <nd ref="82712230"/>
    <nd ref="82712236"/>
    <nd ref="82712233"/>
    <nd ref="82712221"/>
    <nd ref="60261971"/>
    <tag k="cycleway" v="track"/>
    <tag k="highway" v="tertiary"/>
    <tag k="maxspeed" v="50"/>
    <tag k="name" v="Langwedeler Straße"/>
    <tag k="ref" v="K 27"/>
    <tag k="surface" v="paved"/>
  </way>
  <way id="62307095" version="2" timestamp="2010-07-25T19:47:26Z" uid="35574" user="Schorse" changeset="5315853">
    <nd ref="82712232"/>
    <nd ref="82712230"/>
    <nd ref="82712236"/>
    <nd ref="82712233"/>
    <nd ref="82712221"/>
    <nd ref="60261971"/>
    <tag k="bicycle" v="designated"/>
    <tag k="cycleway" v="track"/>
    <tag k="foot" v="designated"/>
    <tag k="highway" v="tertiary"/>
    <tag k="maxspeed" v="50"/>
    <tag k="name" v="Langwedeler Straße"/>
    <tag k="ref" v="K 27"/>
    <tag k="surface" v="paved"/>
  </way>
  <way id="62307095" version="3" timestamp="2012-03-04T22:59:58Z" uid="57645" user="KartoGrapHiti" changeset="10875039">
    <nd ref="82712232"/>
    <nd ref="82712230"/>
    <nd ref="82712236"/>
    <nd ref="82712233"/>
    <nd ref="82712221"/>
    <nd ref="60261971"/>
    <tag k="highway" v="tertiary"/>
    <tag k="maxspeed" v="50"/>
    <tag k="name" v="Langwedeler Straße"/>
    <tag k="ref" v="K 27"/>
    <tag k="surface" v="asphalt"/>
  </way>
  <way id="62307095" version="4" timestamp="2012-03-08T19:49:31Z" uid="57645" user="KartoGrapHiti" changeset="10912874"/>
  <way id="62307096" version="1" timestamp="2010-06-20T17:45:37Z" uid="33382" user="de_muur" changeset="5035324">
    <nd ref="35146907"/>
    <nd ref="366941681"/>
    <nd ref="35146902"/>
    <nd ref="507119607"/>
    <tag k="cycleway" v="track"/>
    <tag k="highway" v="secondary"/>
    <tag k="ref" v="L 158"/>
  </way>
  <way id="62307096" version="2" timestamp="2010-09-09T19:34:53Z" uid="72127" user="wer-ist-was" changeset="5735459">
    <nd ref="35146907"/>
    <nd ref="366941681"/>
    <nd ref="35146902"/>
    <nd ref="904397347"/>
    <nd ref="904397351"/>
    <nd ref="507119607"/>
    <tag k="cycleway" v="track"/>
    <tag k="highway" v="secondary"/>
    <tag k="ref" v="L 158"/>
  </way>
  <way id="62307096" version="3" timestamp="2010-09-09T19:58:11Z" uid="72127" user="wer-ist-was" changeset="5735793">
    <nd ref="35146907"/>
    <nd ref="366941681"/>
    <nd ref="35146902"/>
    <nd ref="904426698"/>
    <nd ref="904397347"/>
    <nd ref="904397351"/>
    <nd ref="507119607"/>
    <tag k="cycleway" v="track"/>
    <tag k="highway" v="secondary"/>
    <tag k="ref" v="L 158"/>
  </way>
  <way id="62307096" version="4" timestamp="2010-10-06T19:59:22Z" uid="72127" user="wer-ist-was" changeset="5972593">
    <nd ref="35146907"/>
    <nd ref="939543781"/>
    <nd ref="366941681"/>
    <nd ref="939543809"/>
    <nd ref="35146902"/>
    <nd ref="904426698"/>
    <nd ref="904397347"/>
    <nd ref="904397351"/>
    <nd ref="507119607"/>
    <tag k="cycleway" v="track"/>
    <tag k="highway" v="secondary"/>
    <tag k="ref" v="L 158"/>
  </way>
  <way id="62307096" version="5" timestamp="2010-10-30T20:44:13Z" uid="58095" user="BudBundi" changeset="6233167">
    <nd ref="35146907"/>
    <nd ref="939543781"/>
    <nd ref="366941681"/>
    <nd ref="939543809"/>
    <nd ref="35146902"/>
    <nd ref="939549437"/>
    <nd ref="904426698"/>
    <nd ref="904397347"/>
    <nd ref="904397351"/>
    <nd ref="507119607"/>
    <tag k="cycleway" v="track"/>
    <tag k="highway" v="secondary"/>
    <tag k="ref" v="L 158"/>
  </way>
  <way id="62307096" version="6" timestamp="2011-08-22T18:20:43Z" uid="57645" user="KartoGrapHiti" changeset="9096685">
    <nd ref="35146907"/>
    <nd ref="939543781"/>
    <nd ref="366941681"/>
    <nd ref="939543809"/>
    <nd ref="35146902"/>
    <nd ref="1408799216"/>
    <tag k="cycleway" v="track"/>
    <tag k="highway" v="secondary"/>
    <tag k="maxspeed" v="100"/>
    <tag k="ref" v="L 158"/>
  </way>
  <way id="62307096" version="7" timestamp="2012-03-04T22:32:42Z" uid="57645" user="KartoGrapHiti" changeset="10874814">
    <nd ref="35146907"/>
    <nd ref="939543781"/>
    <nd ref="366941681"/>
    <nd ref="939543809"/>
    <nd ref="35146902"/>
    <nd ref="1408799216"/>
    <tag k="highway" v="secondary"/>
    <tag k="maxspeed" v="100"/>
    <tag k="ref" v="L 158"/>
  </way>
  <way id="62307096" version="8" timestamp="2012-03-04T22:40:17Z" uid="57645" user="KartoGrapHiti" changeset="10874879"/>
</osm>
