<?xml version='1.0' encoding='UTF-8'?>
<osm version="0.6" generator="libosmium/2.20.0">
  <way id="62361201" version="1" timestamp="2010-06-21T09:45:14Z" uid="244897" user="M526244" changeset="5040968">
    <nd ref="779020308"/>
    <nd ref="25989468"/>
    <tag k="highway" v="secondary"/>
  </way>
  <way id="62361201" version="2" timestamp="2010-07-27T07:57:43Z" uid="4467" user="Rosscoe" changeset="5327016">
    <nd ref="778901366"/>
    <nd ref="779020308"/>
    <nd ref="25989468"/>
    <tag k="highway" v="secondary"/>
  </way>
  <way id="62361202" version="1" timestamp="2010-06-21T09:45:15Z" uid="244897" user="M526244" changeset="5040968">
    <nd ref="25989468"/>
    <nd ref="778901388"/>
    <tag k="highway" v="secondary"/>
  </way>
  <way id="62361203" version="1" timestamp="2010-06-21T09:45:16Z" uid="244897" user="M526244" changeset="5040968">
    <nd ref="779020364"/>
    <nd ref="25989464"/>
    <nd ref="25989465"/>
    <nd ref="662701445"/>
    <nd ref="25989466"/>
    <nd ref="778901366"/>
    <nd ref="779020308"/>
    <tag k="highway" v="secondary"/>
  </way>
  <way id="62361203" version="2" timestamp="2010-07-27T07:57:47Z" uid="4467" user="Rosscoe" changeset="5327016">
    <nd ref="779020364"/>
    <nd ref="25989464"/>
    <nd ref="25989465"/>
    <nd ref="662701445"/>
    <nd ref="25989466"/>
    <nd ref="778901366"/>
    <tag k="highway" v="secondary"/>
  </way>
  <way id="62361204" version="1" timestamp="2010-06-21T09:45:17Z" uid="244897" user="M526244" changeset="5040968">
    <nd ref="779020395"/>
    <nd ref="662701139"/>
    <tag k="highway" v="secondary"/>
  </way>
  <way id="62361204" version="2" timestamp="2010-07-27T07:54:38Z" uid="4467" user="Rosscoe" changeset="5326998"/>
  <way id="62361206" version="1" timestamp="2010-06-21T09:45:17Z" uid="244897" user="M526244" changeset="5040968">
    <nd ref="662701139"/>
    <nd ref="779020364"/>
    <tag k="highway" v="secondary"/>
  </way>
  <way id="62361211" version="1" timestamp="2010-06-21T09:45:19Z" uid="244897" user="M526244" changeset="5040968">
    <nd ref="778901467"/>
    <nd ref="778901469"/>
    <nd ref="256557139"/>
    <nd ref="256557140"/>
    <nd ref="778910849"/>
    <nd ref="778910850"/>
    <nd ref="778910851"/>
    <nd ref="256557141"/>
    <nd ref="256557142"/>
    <nd ref="778910853"/>
    <nd ref="256557143"/>
    <nd ref="256557144"/>
    <nd ref="256557145"/>
    <nd ref="256557146"/>
    <nd ref="256557147"/>
    <nd ref="256557148"/>
    <nd ref="410104431"/>
    <nd ref="256557149"/>
    <nd ref="600386329"/>
    <nd ref="410108710"/>
    <nd ref="256557150"/>
    <nd ref="697188855"/>
    <nd ref="256557151"/>
    <nd ref="662708814"/>
    <tag k="highway" v="residential"/>
    <tag k="name" v="Compton Drive"/>
    <tag k="source" v="survey"/>
  </way>
  <way id="62361211" version="2" timestamp="2010-07-07T07:20:01Z" uid="74617" user="JohnSmith" changeset="5156250">
    <nd ref="778901467"/>
    <nd ref="778901469"/>
    <nd ref="256557139"/>
    <nd ref="256557140"/>
    <nd ref="778910849"/>
    <nd ref="778910850"/>
    <nd ref="778910851"/>
    <nd ref="256557141"/>
    <nd ref="256557142"/>
    <nd ref="778910853"/>
    <nd ref="256557143"/>
    <nd ref="256557144"/>
    <nd ref="256557145"/>
    <nd ref="256557146"/>
    <nd ref="256557147"/>
    <nd ref="256557148"/>
    <nd ref="410104431"/>
    <nd ref="256557149"/>
    <nd ref="600386329"/>
    <nd ref="410108710"/>
    <nd ref="256557150"/>
    <nd ref="697188855"/>
    <nd ref="256557151"/>
    <nd ref="662708814"/>
    <tag k="highway" v="residential"/>
    <tag k="maxspeed" v="50"/>
    <tag k="maxspeed:source" v="default residential speed limit in Australia"/>
    <tag k="name" v="Compton Drive"/>
    <tag k="source" v="survey"/>
  </way>
  <way id="62361211" version="3" timestamp="2010-07-27T07:57:48Z" uid="4467" user="Rosscoe" changeset="5327016">
    <nd ref="25989468"/>
    <nd ref="778901467"/>
    <nd ref="778901469"/>
    <nd ref="256557139"/>
    <nd ref="256557140"/>
    <nd ref="778910849"/>
    <nd ref="778910850"/>
    <nd ref="778910851"/>
    <nd ref="256557141"/>
    <nd ref="256557142"/>
    <nd ref="778910853"/>
    <nd ref="256557143"/>
    <nd ref="256557144"/>
    <nd ref="256557145"/>
    <nd ref="256557146"/>
    <nd ref="256557147"/>
    <nd ref="256557148"/>
    <nd ref="410104431"/>
    <nd ref="256557149"/>
    <nd ref="600386329"/>
    <tag k="highway" v="residential"/>
    <tag k="maxspeed" v="50"/>
    <tag k="maxspeed:source" v="default residential speed limit in Australia"/>
    <tag k="name" v="Compton Drive"/>
    <tag k="source" v="survey"/>
  </way>
  <way id="62361211" version="4" timestamp="2012-01-20T10:33:04Z" uid="147510" user="woodpeck_fixbot" changeset="10443754">
    <nd ref="25989468"/>
    <nd ref="778901467"/>
    <nd ref="778901469"/>
    <nd ref="256557139"/>
    <nd ref="256557140"/>
    <nd ref="778910849"/>
    <nd ref="778910850"/>
    <nd ref="778910851"/>
    <nd ref="256557141"/>
    <nd ref="256557142"/>
    <nd ref="778910853"/>
    <nd ref="256557143"/>
    <nd ref="256557144"/>
    <nd ref="256557145"/>
    <nd ref="256557146"/>
    <nd ref="256557147"/>
    <nd ref="256557148"/>
    <nd ref="410104431"/>
    <nd ref="256557149"/>
    <nd ref="600386329"/>
    <tag k="highway" v="residential"/>
    <tag k="name" v="Compton Drive"/>
    <tag k="source" v="survey"/>
  </way>
  <way id="62361211" version="5" timestamp="2012-03-19T07:32:34Z" uid="632558" user="theranmann" changeset="11026784">
    <nd ref="25989468"/>
    <nd ref="778901467"/>
    <nd ref="778901469"/>
    <nd ref="256557139"/>
    <nd ref="256557140"/>
    <nd ref="778910849"/>
    <nd ref="778910850"/>
    <nd ref="778910851"/>
    <nd ref="256557141"/>
    <nd ref="256557142"/>
    <nd ref="778910853"/>
    <nd ref="256557143"/>
    <nd ref="256557144"/>
    <nd ref="256557145"/>
    <nd ref="256557146"/>
    <nd ref="256557147"/>
    <nd ref="256557148"/>
    <nd ref="410104431"/>
    <nd ref="256557149"/>
    <nd ref="600386329"/>
    <tag k="highway" v="secondary"/>
    <tag k="name" v="Compton Drive"/>
    <tag k="source" v="survey"/>
  </way>
  <way id="62361644" version="2" timestamp="2010-07-08T16:47:54Z" uid="74617" user="JohnSmith" changeset="5167338">
    <nd ref="779024362"/>
    <nd ref="779024365"/>
    <tag k="highway" v="residential"/>
    <tag k="lanes" v="1"/>
    <tag k="maxspeed" v="50"/>
    <tag k="maxspeed:source" v="default residential speed limit in Australia"/>
    <tag k="name" v="Prince George Lane"/>
    <tag k="source" v="survey"/>
  </way>
  <way id="62361644" version="3" timestamp="2012-01-20T10:33:06Z" uid="147510" user="woodpeck_fixbot" changeset="10443754">
    <nd ref="779024362"/>
    <nd ref="779024365"/>
    <tag k="highway" v="residential"/>
    <tag k="lanes" v="1"/>
    <tag k="name" v="Prince George Lane"/>
    <tag k="source" v="survey"/>
  </way>
  <way id="62361645" version="2" timestamp="2010-07-08T16:50:28Z" uid="74617" user="JohnSmith" changeset="5167338">
    <nd ref="330750457"/>
    <nd ref="779024377"/>
    <nd ref="779024385"/>
    <nd ref="779024387"/>
    <nd ref="779024389"/>
    <nd ref="779024392"/>
    <nd ref="779024394"/>
    <nd ref="779024396"/>
    <nd ref="779024399"/>
    <tag k="highway" v="residential"/>
    <tag k="maxspeed" v="50"/>
    <tag k="maxspeed:source" v="default residential speed limit in Australia"/>
    <tag k="name" v="Palmer Crescent"/>
    <tag k="oneway" v="yes"/>
    <tag k="source" v="survey"/>
  </way>
  <way id="62361645" version="3" timestamp="2012-01-20T10:33:08Z" uid="147510" user="woodpeck_fixbot" changeset="10443754">
    <nd ref="330750457"/>
    <nd ref="779024377"/>
    <nd ref="779024385"/>
    <nd ref="779024387"/>
    <nd ref="779024389"/>
    <nd ref="779024392"/>
    <nd ref="779024394"/>
    <nd ref="779024396"/>
    <nd ref="779024399"/>
    <tag k="highway" v="residential"/>
    <tag k="name" v="Palmer Crescent"/>
    <tag k="oneway" v="yes"/>
    <tag k="source" v="survey"/>
  </way>
  <way id="62361646" version="2" timestamp="2010-07-08T16:48:38Z" uid="74617" user="JohnSmith" changeset="5167338">
    <nd ref="779024408"/>
    <nd ref="779024411"/>
    <nd ref="779024414"/>
    <tag k="highway" v="residential"/>
    <tag k="maxspeed" v="50"/>
    <tag k="maxspeed:source" v="default residential speed limit in Australia"/>
    <tag k="name" v="Romaine Street"/>
    <tag k="source" v="survey"/>
  </way>
  <way id="62361646" version="3" timestamp="2012-01-20T10:33:09Z" uid="147510" user="woodpeck_fixbot" changeset="10443754">
    <nd ref="779024408"/>
    <nd ref="779024411"/>
    <nd ref="779024414"/>
    <tag k="highway" v="residential"/>
    <tag k="name" v="Romaine Street"/>
    <tag k="source" v="survey"/>
  </way>
  <way id="62361647" version="2" timestamp="2010-07-08T16:51:06Z" uid="74617" user="JohnSmith" changeset="5167338">
    <nd ref="779024422"/>
    <nd ref="779024424"/>
    <tag k="highway" v="residential"/>
    <tag k="maxspeed" v="50"/>
    <tag k="maxspeed:source" v="default residential speed limit in Australia"/>
    <tag k="name" v="Heath Street"/>
    <tag k="source" v="survey"/>
  </way>
  <way id="62361647" version="3" timestamp="2012-01-20T10:33:10Z" uid="147510" user="woodpeck_fixbot" changeset="10443754">
    <nd ref="779024422"/>
    <nd ref="779024424"/>
    <tag k="highway" v="residential"/>
    <tag k="name" v="Heath Street"/>
    <tag k="source" v="survey"/>
  </way>
  <way id="62361650" version="2" timestamp="2010-07-08T16:50:42Z" uid="74617" user="JohnSmith" changeset="5167338">
    <nd ref="779024473"/>
    <nd ref="779024476"/>
    <tag k="highway" v="residential"/>
    <tag k="maxspeed" v="50"/>
    <tag k="maxspeed:source" v="default residential speed limit in Australia"/>
    <tag k="name" v="Lakeview Avenue"/>
    <tag k="source" v="survey"/>
  </way>
  <way id="62361650" version="3" timestamp="2012-01-20T10:33:12Z" uid="147510" user="woodpeck_fixbot" changeset="10443754">
    <nd ref="779024473"/>
    <nd ref="779024476"/>
    <tag k="highway" v="residential"/>
    <tag k="name" v="Lakeview Avenue"/>
    <tag k="source" v="survey"/>
  </way>
  <way id="62361651" version="2" timestamp="2010-07-08T16:48:52Z" uid="74617" user="JohnSmith" changeset="5167338">
    <nd ref="779024482"/>
    <nd ref="779024484"/>
    <tag k="highway" v="residential"/>
    <tag k="maxspeed" v="50"/>
    <tag k="maxspeed:source" v="default residential speed limit in Australia"/>
    <tag k="name" v="Arcadia Road"/>
    <tag k="source" v="survey"/>
  </way>
  <way id="62361651" version="3" timestamp="2012-01-20T10:33:13Z" uid="147510" user="woodpeck_fixbot" changeset="10443754">
    <nd ref="779024482"/>
    <nd ref="779024484"/>
    <tag k="highway" v="residential"/>
    <tag k="name" v="Arcadia Road"/>
    <tag k="source" v="survey"/>
  </way>
  <way id="62361652" version="2" timestamp="2010-07-08T16:48:39Z" uid="74617" user="JohnSmith" changeset="5167338">
    <nd ref="779024490"/>
    <nd ref="779024493"/>
    <nd ref="779024495"/>
    <nd ref="330755619"/>
    <tag k="highway" v="residential"/>
    <tag k="maxspeed" v="50"/>
    <tag k="maxspeed:source" v="default residential speed limit in Australia"/>
    <tag k="name" v="Leichhardt Street"/>
    <tag k="source" v="survey"/>
  </way>
  <way id="62361652" version="3" timestamp="2012-01-20T10:33:14Z" uid="147510" user="woodpeck_fixbot" changeset="10443754">
    <nd ref="779024490"/>
    <nd ref="779024493"/>
    <nd ref="779024495"/>
    <nd ref="330755619"/>
    <tag k="highway" v="residential"/>
    <tag k="name" v="Leichhardt Street"/>
    <tag k="source" v="survey"/>
  </way>
  <way id="62361653" version="2" timestamp="2010-07-08T16:51:07Z" uid="74617" user="JohnSmith" changeset="5167338">
    <nd ref="779024493"/>
    <nd ref="779024362"/>
    <nd ref="779024504"/>
    <tag k="highway" v="residential"/>
    <tag k="lanes" v="1"/>
    <tag k="maxspeed" v="50"/>
    <tag k="maxspeed:source" v="default residential speed limit in Australia"/>
    <tag k="name" v="Pope Lane"/>
    <tag k="source" v="survey"/>
    <tag k="surface" v="unpaved"/>
  </way>
  <way id="62361653" version="3" timestamp="2012-01-20T10:33:15Z" uid="147510" user="woodpeck_fixbot" changeset="10443754">
    <nd ref="779024493"/>
    <nd ref="779024362"/>
    <nd ref="779024504"/>
    <tag k="highway" v="residential"/>
    <tag k="lanes" v="1"/>
    <tag k="name" v="Pope Lane"/>
    <tag k="source" v="survey"/>
    <tag k="surface" v="unpaved"/>
  </way>
  <way id="62361654" version="2" timestamp="2010-07-08T16:49:22Z" uid="74617" user="JohnSmith" changeset="5167338">
    <nd ref="779024535"/>
    <nd ref="779024537"/>
    <nd ref="779024539"/>
    <nd ref="779024541"/>
    <nd ref="779024543"/>
    <tag k="highway" v="residential"/>
    <tag k="maxspeed" v="50"/>
    <tag k="maxspeed:source" v="default residential speed limit in Australia"/>
    <tag k="name" v="Mountbatten Street"/>
    <tag k="source" v="survey"/>
  </way>
  <way id="62361654" version="3" timestamp="2012-01-20T10:33:16Z" uid="147510" user="woodpeck_fixbot" changeset="10443754">
    <nd ref="779024535"/>
    <nd ref="779024537"/>
    <nd ref="779024539"/>
    <nd ref="779024541"/>
    <nd ref="779024543"/>
    <tag k="highway" v="residential"/>
    <tag k="name" v="Mountbatten Street"/>
    <tag k="source" v="survey"/>
  </way>
  <way id="62361655" version="2" timestamp="2010-07-08T16:51:35Z" uid="74617" user="JohnSmith" changeset="5167338">
    <nd ref="779024552"/>
    <nd ref="779024541"/>
    <tag k="highway" v="residential"/>
    <tag k="maxspeed" v="50"/>
    <tag k="maxspeed:source" v="default residential speed limit in Australia"/>
    <tag k="name" v="Pittendrigh Avenue"/>
    <tag k="source" v="survey"/>
  </way>
  <way id="62361655" version="3" timestamp="2011-11-24T16:58:43Z" uid="338866" user="tiger" changeset="9934366">
    <nd ref="779024552"/>
    <nd ref="779024639"/>
    <nd ref="779024541"/>
    <tag k="highway" v="residential"/>
    <tag k="maxspeed" v="50"/>
    <tag k="maxspeed:source" v="default residential speed limit in Australia"/>
    <tag k="name" v="Pittendrigh Avenue"/>
    <tag k="source" v="survey"/>
  </way>
  <way id="62361655" version="4" timestamp="2012-01-20T10:33:18Z" uid="147510" user="woodpeck_fixbot" changeset="10443754">
    <nd ref="779024552"/>
    <nd ref="779024639"/>
    <nd ref="779024541"/>
    <tag k="highway" v="residential"/>
    <tag k="name" v="Pittendrigh Avenue"/>
    <tag k="source" v="survey"/>
  </way>
  <way id="62361660" version="2" timestamp="2010-07-08T16:51:15Z" uid="74617" user="JohnSmith" changeset="5167338">
    <nd ref="779024566"/>
    <nd ref="779024569"/>
    <nd ref="779024543"/>
    <nd ref="779024571"/>
    <nd ref="779024573"/>
    <tag k="highway" v="residential"/>
    <tag k="maxspeed" v="50"/>
    <tag k="maxspeed:source" v="default residential speed limit in Australia"/>
    <tag k="name" v="Connaught Road"/>
    <tag k="source" v="survey"/>
  </way>
  <way id="62361660" version="3" timestamp="2012-01-20T10:33:19Z" uid="147510" user="woodpeck_fixbot" changeset="10443754">
    <nd ref="779024566"/>
    <nd ref="779024569"/>
    <nd ref="779024543"/>
    <nd ref="779024571"/>
    <nd ref="779024573"/>
    <tag k="highway" v="residential"/>
    <tag k="name" v="Connaught Road"/>
    <tag k="source" v="survey"/>
  </way>
  <way id="62361663" version="2" timestamp="2010-07-08T16:50:15Z" uid="74617" user="JohnSmith" changeset="5167338">
    <nd ref="779024569"/>
    <nd ref="779024581"/>
    <nd ref="779024583"/>
    <nd ref="779024585"/>
    <nd ref="779024587"/>
    <nd ref="263853224"/>
    <tag k="highway" v="residential"/>
    <tag k="maxspeed" v="50"/>
    <tag k="maxspeed:source" v="default residential speed limit in Australia"/>
    <tag k="name" v="McLaren Crescent"/>
    <tag k="source" v="survey"/>
  </way>
  <way id="62361663" version="3" timestamp="2011-12-30T05:34:23Z" uid="59920" user="PhilJ" changeset="10242200">
    <nd ref="779024569"/>
    <nd ref="779024581"/>
    <nd ref="779024583"/>
    <nd ref="779024585"/>
    <nd ref="779024587"/>
    <nd ref="263853224"/>
    <tag k="bicycle" v="yes"/>
    <tag k="cycleway" v="no"/>
    <tag k="highway" v="residential"/>
    <tag k="maxspeed" v="50"/>
    <tag k="maxspeed:source" v="default residential speed limit in Australia"/>
    <tag k="name" v="McLaren Crescent"/>
    <tag k="source" v="survey"/>
  </way>
  <way id="62361663" version="4" timestamp="2012-01-20T10:33:21Z" uid="147510" user="woodpeck_fixbot" changeset="10443754">
    <nd ref="779024569"/>
    <nd ref="779024581"/>
    <nd ref="779024583"/>
    <nd ref="779024585"/>
    <nd ref="779024587"/>
    <nd ref="263853224"/>
    <tag k="bicycle" v="yes"/>
    <tag k="cycleway" v="no"/>
    <tag k="highway" v="residential"/>
    <tag k="name" v="McLaren Crescent"/>
    <tag k="source" v="survey"/>
  </way>
  <way id="62361671" version="2" timestamp="2010-07-08T16:50:27Z" uid="74617" user="JohnSmith" changeset="5167338">
    <nd ref="779024613"/>
    <nd ref="779024467"/>
    <tag k="highway" v="residential"/>
    <tag k="maxspeed" v="50"/>
    <tag k="maxspeed:source" v="default residential speed limit in Australia"/>
    <tag k="name" v="Fourth Street"/>
    <tag k="source" v="survey"/>
  </way>
  <way id="62361671" version="3" timestamp="2012-01-20T10:33:22Z" uid="147510" user="woodpeck_fixbot" changeset="10443754">
    <nd ref="779024613"/>
    <nd ref="779024467"/>
    <tag k="highway" v="residential"/>
    <tag k="name" v="Fourth Street"/>
    <tag k="source" v="survey"/>
  </way>
  <way id="62361673" version="2" timestamp="2010-07-08T16:49:29Z" uid="74617" user="JohnSmith" changeset="5167338">
    <nd ref="779024614"/>
    <nd ref="779024615"/>
    <tag k="highway" v="residential"/>
    <tag k="maxspeed" v="50"/>
    <tag k="maxspeed:source" v="default residential speed limit in Australia"/>
    <tag k="name" v="Third Street"/>
    <tag k="source" v="survey"/>
  </way>
  <way id="62361673" version="3" timestamp="2012-01-20T10:33:23Z" uid="147510" user="woodpeck_fixbot" changeset="10443754">
    <nd ref="779024614"/>
    <nd ref="779024615"/>
    <tag k="highway" v="residential"/>
    <tag k="name" v="Third Street"/>
    <tag k="source" v="survey"/>
  </way>
  <way id="62361674" version="2" timestamp="2010-07-08T16:51:38Z" uid="74617" user="JohnSmith" changeset="5167338">
    <nd ref="779024620"/>
    <nd ref="779024622"/>
    <tag k="highway" v="residential"/>
    <tag k="maxspeed" v="50"/>
    <tag k="maxspeed:source" v="default residential speed limit in Australia"/>
    <tag k="name" v="Second Street"/>
    <tag k="source" v="survey"/>
  </way>
  <way id="62361674" version="3" timestamp="2012-01-20T10:33:25Z" uid="147510" user="woodpeck_fixbot" changeset="10443754">
    <nd ref="779024620"/>
    <nd ref="779024622"/>
    <tag k="highway" v="residential"/>
    <tag k="name" v="Second Street"/>
    <tag k="source" v="survey"/>
  </way>
  <way id="62361675" version="2" timestamp="2010-07-08T16:50:08Z" uid="74617" user="JohnSmith" changeset="5167338">
    <nd ref="779024628"/>
    <nd ref="779024631"/>
    <tag k="highway" v="residential"/>
    <tag k="maxspeed" v="50"/>
    <tag k="maxspeed:source" v="default residential speed limit in Australia"/>
    <tag k="name" v="First Street"/>
    <tag k="source" v="survey"/>
  </way>
  <way id="62361675" version="3" timestamp="2012-01-20T10:33:25Z" uid="147510" user="woodpeck_fixbot" changeset="10443754">
    <nd ref="779024628"/>
    <nd ref="779024631"/>
    <tag k="highway" v="residential"/>
    <tag k="name" v="First Street"/>
    <tag k="source" v="survey"/>
  </way>
  <way id="62361676" version="2" timestamp="2010-07-08T16:49:57Z" uid="74617" user="JohnSmith" changeset="5167338">
    <nd ref="779024636"/>
    <nd ref="779024639"/>
    <nd ref="779024571"/>
    <tag k="highway" v="residential"/>
    <tag k="maxspeed" v="50"/>
    <tag k="maxspeed:source" v="default residential speed limit in Australia"/>
    <tag k="name" v="Hillier Avenue"/>
    <tag k="source" v="survey"/>
  </way>
  <way id="62361676" version="3" timestamp="2012-01-20T10:33:27Z" uid="147510" user="woodpeck_fixbot" changeset="10443754">
    <nd ref="779024636"/>
    <nd ref="779024639"/>
    <nd ref="779024571"/>
    <tag k="highway" v="residential"/>
    <tag k="name" v="Hillier Avenue"/>
    <tag k="source" v="survey"/>
  </way>
  <way id="62361677" version="2" timestamp="2010-07-08T16:48:04Z" uid="74617" user="JohnSmith" changeset="5167338">
    <nd ref="779024665"/>
    <nd ref="779024669"/>
    <tag k="highway" v="residential"/>
    <tag k="maxspeed" v="50"/>
    <tag k="maxspeed:source" v="default residential speed limit in Australia"/>
    <tag k="name" v="Grose Street"/>
    <tag k="source" v="survey"/>
  </way>
  <way id="62361677" version="3" timestamp="2012-01-20T10:33:28Z" uid="147510" user="woodpeck_fixbot" changeset="10443754">
    <nd ref="779024665"/>
    <nd ref="779024669"/>
    <tag k="highway" v="residential"/>
    <tag k="name" v="Grose Street"/>
    <tag k="source" v="survey"/>
  </way>
  <way id="62361678" version="2" timestamp="2010-07-08T16:50:36Z" uid="74617" user="JohnSmith" changeset="5167338">
    <nd ref="779024677"/>
    <nd ref="779024679"/>
    <nd ref="779024681"/>
    <tag k="highway" v="residential"/>
    <tag k="maxspeed" v="50"/>
    <tag k="maxspeed:source" v="default residential speed limit in Australia"/>
    <tag k="name" v="Connaught Road"/>
    <tag k="source" v="survey"/>
  </way>
  <way id="62361678" version="3" timestamp="2012-01-20T10:33:29Z" uid="147510" user="woodpeck_fixbot" changeset="10443754">
    <nd ref="779024677"/>
    <nd ref="779024679"/>
    <nd ref="779024681"/>
    <tag k="highway" v="residential"/>
    <tag k="name" v="Connaught Road"/>
    <tag k="source" v="survey"/>
  </way>
  <way id="62361679" version="3" timestamp="2010-07-08T16:48:44Z" uid="74617" user="JohnSmith" changeset="5167338">
    <nd ref="779024679"/>
    <nd ref="779024687"/>
    <nd ref="779024688"/>
    <nd ref="779024690"/>
    <nd ref="779024692"/>
    <nd ref="779105710"/>
    <nd ref="779024694"/>
    <tag k="highway" v="residential"/>
    <tag k="maxspeed" v="50"/>
    <tag k="maxspeed:source" v="default residential speed limit in Australia"/>
    <tag k="name" v="Days Crescent"/>
    <tag k="source" v="survey"/>
  </way>
  <way id="62361679" version="4" timestamp="2012-01-20T10:33:30Z" uid="147510" user="woodpeck_fixbot" changeset="10443754">
    <nd ref="779024679"/>
    <nd ref="779024687"/>
    <nd ref="779024688"/>
    <nd ref="779024690"/>
    <nd ref="779024692"/>
    <nd ref="779105710"/>
    <nd ref="779024694"/>
    <tag k="highway" v="residential"/>
    <tag k="name" v="Days Crescent"/>
    <tag k="source" v="survey"/>
  </way>
  <way id="62361680" version="2" timestamp="2010-07-08T16:51:39Z" uid="74617" user="JohnSmith" changeset="5167338">
    <nd ref="779024704"/>
    <nd ref="779024573"/>
    <tag k="highway" v="residential"/>
    <tag k="maxspeed" v="50"/>
    <tag k="maxspeed:source" v="default residential speed limit in Australia"/>
    <tag k="name" v="Connaught Road"/>
    <tag k="source" v="survey"/>
  </way>
  <way id="62361680" version="3" timestamp="2012-01-20T10:33:31Z" uid="147510" user="woodpeck_fixbot" changeset="10443754">
    <nd ref="779024704"/>
    <nd ref="779024573"/>
    <tag k="highway" v="residential"/>
    <tag k="name" v="Connaught Road"/>
    <tag k="source" v="survey"/>
  </way>
  <way id="62361681" version="2" timestamp="2010-07-08T16:50:10Z" uid="74617" user="JohnSmith" changeset="5167338">
    <nd ref="779024467"/>
    <nd ref="779024535"/>
    <nd ref="779024622"/>
    <nd ref="779024636"/>
    <nd ref="779024631"/>
    <nd ref="330751034"/>
    <tag k="highway" v="residential"/>
    <tag k="maxspeed" v="50"/>
    <tag k="maxspeed:source" v="default residential speed limit in Australia"/>
    <tag k="name" v="Clarence Road"/>
    <tag k="source" v="survey"/>
  </way>
  <way id="62361681" version="3" timestamp="2011-07-06T11:33:54Z" uid="67896" user="mrpulley" changeset="8647024">
    <nd ref="779024467"/>
    <nd ref="779024615"/>
    <nd ref="779024535"/>
    <nd ref="779024622"/>
    <nd ref="779024636"/>
    <nd ref="779024631"/>
    <nd ref="330751034"/>
    <tag k="highway" v="residential"/>
    <tag k="maxspeed" v="50"/>
    <tag k="maxspeed:source" v="default residential speed limit in Australia"/>
    <tag k="name" v="Clarence Road"/>
    <tag k="source" v="survey"/>
  </way>
  <way id="62361681" version="4" timestamp="2012-01-20T10:33:33Z" uid="147510" user="woodpeck_fixbot" changeset="10443754">
    <nd ref="779024467"/>
    <nd ref="779024615"/>
    <nd ref="779024535"/>
    <nd ref="779024622"/>
    <nd ref="779024636"/>
    <nd ref="779024631"/>
    <nd ref="330751034"/>
    <tag k="highway" v="residential"/>
    <tag k="name" v="Clarence Road"/>
    <tag k="source" v="survey"/>
  </way>
  <way id="62361682" version="2" timestamp="2010-07-08T16:48:16Z" uid="74617" user="JohnSmith" changeset="5167338">
    <nd ref="779024798"/>
    <nd ref="779024408"/>
    <tag k="highway" v="residential"/>
    <tag k="maxspeed" v="50"/>
    <tag k="maxspeed:source" v="default residential speed limit in Australia"/>
    <tag k="name" v="Romaine Street"/>
    <tag k="source" v="survey"/>
    <tag k="surface" v="unpaved"/>
  </way>
  <way id="62361682" version="3" timestamp="2012-01-20T10:33:34Z" uid="147510" user="woodpeck_fixbot" changeset="10443754">
    <nd ref="779024798"/>
    <nd ref="779024408"/>
    <tag k="highway" v="residential"/>
    <tag k="name" v="Romaine Street"/>
    <tag k="source" v="survey"/>
    <tag k="surface" v="unpaved"/>
  </way>
  <way id="62361683" version="2" timestamp="2010-07-08T16:50:47Z" uid="74617" user="JohnSmith" changeset="5167338">
    <nd ref="779024411"/>
    <nd ref="779024812"/>
    <tag k="highway" v="residential"/>
    <tag k="maxspeed" v="50"/>
    <tag k="maxspeed:source" v="default residential speed limit in Australia"/>
    <tag k="name" v="Barratt Street"/>
    <tag k="source" v="survey"/>
  </way>
  <way id="62361683" version="3" timestamp="2012-01-20T10:33:40Z" uid="147510" user="woodpeck_fixbot" changeset="10443754">
    <nd ref="779024411"/>
    <nd ref="779024812"/>
    <tag k="highway" v="residential"/>
    <tag k="name" v="Barratt Street"/>
    <tag k="source" v="survey"/>
  </way>
  <way id="62361990" version="1" timestamp="2010-06-21T09:53:55Z" uid="244897" user="M526244" changeset="5040968">
    <nd ref="778910812"/>
    <nd ref="778910811"/>
    <nd ref="778910816"/>
    <nd ref="778910817"/>
    <nd ref="778910818"/>
    <nd ref="778910819"/>
    <nd ref="778910820"/>
    <nd ref="778910822"/>
    <nd ref="778910823"/>
    <nd ref="778910824"/>
    <nd ref="778910825"/>
    <nd ref="778910826"/>
    <nd ref="778910827"/>
    <nd ref="778910828"/>
    <nd ref="778910830"/>
    <nd ref="778910831"/>
    <nd ref="778910832"/>
    <nd ref="778910833"/>
    <nd ref="778910834"/>
    <nd ref="778910835"/>
    <nd ref="778910836"/>
    <nd ref="778910838"/>
    <nd ref="778910839"/>
    <nd ref="778910810"/>
    <tag k="foot" v="yes"/>
    <tag k="highway" v="cycleway"/>
    <tag k="source" v="survey"/>
  </way>
</osm>
