<?xml version='1.0' encoding='UTF-8'?>
<osm version="0.6" generator="libosmium/2.20.0">
  <way id="6244002" version="2" timestamp="2010-04-02T15:50:14Z" uid="20587" user="balrog-kun" changeset="4304484">
    <nd ref="48268367"/>
    <nd ref="48282749"/>
    <tag k="created_by" v="Potlatch alpha"/>
    <tag k="highway" v="secondary"/>
    <tag k="name" v="De Bruyn Avenue"/>
    <tag k="tiger:cfcc" v="A41"/>
    <tag k="tiger:county" v="Island, WA"/>
    <tag k="tiger:name_base" v="De Bruyn"/>
    <tag k="tiger:name_type" v="Ave"/>
    <tag k="tiger:reviewed" v="no"/>
    <tag k="tiger:separated" v="no"/>
    <tag k="tiger:source" v="tiger_import_dch_v0.6_20070830"/>
    <tag k="tiger:tlid" v="187597181:187597202:187592472:187587757"/>
    <tag k="tiger:zip_left" v="98260"/>
    <tag k="tiger:zip_right" v="98260"/>
  </way>
  <way id="6244002" version="3" timestamp="2010-06-01T21:20:32Z" uid="12448" user="Hartmut Holzgraefe" changeset="4878860"/>
  <way id="6244049" version="2" timestamp="2010-04-02T15:50:14Z" uid="20587" user="balrog-kun" changeset="4304484">
    <nd ref="48282749"/>
    <nd ref="48273033"/>
    <nd ref="48299970"/>
    <tag k="created_by" v="Potlatch alpha"/>
    <tag k="highway" v="residential"/>
    <tag k="name" v="De Bruyn Avenue"/>
    <tag k="tiger:cfcc" v="A41"/>
    <tag k="tiger:county" v="Island, WA"/>
    <tag k="tiger:name_base" v="De Bruyn"/>
    <tag k="tiger:name_type" v="Ave"/>
    <tag k="tiger:reviewed" v="no"/>
    <tag k="tiger:separated" v="no"/>
    <tag k="tiger:source" v="tiger_import_dch_v0.6_20070830"/>
    <tag k="tiger:tlid" v="187597181:187597202:187592472:187587757"/>
    <tag k="tiger:zip_left" v="98260"/>
    <tag k="tiger:zip_right" v="98260"/>
  </way>
  <way id="6244049" version="3" timestamp="2010-06-01T21:20:22Z" uid="12448" user="Hartmut Holzgraefe" changeset="4878860"/>
  <way id="6244287" version="1" timestamp="2007-09-15T18:55:18Z" uid="13367" user="nubok" changeset="437780">
    <nd ref="26600793"/>
    <nd ref="52203420"/>
    <nd ref="52203421"/>
    <nd ref="52203422"/>
    <nd ref="26600792"/>
    <tag k="created_by" v="Potlatch alpha"/>
    <tag k="highway" v="residential"/>
    <tag k="name" v="Greenways Road"/>
  </way>
  <way id="6244287" version="2" timestamp="2009-02-08T08:48:32Z" uid="5588" user="Chris11" changeset="259539">
    <nd ref="26600793"/>
    <nd ref="343320998"/>
    <nd ref="52203420"/>
    <nd ref="343320986"/>
    <tag k="created_by" v="Potlatch alpha"/>
    <tag k="highway" v="residential"/>
    <tag k="name" v="Stockton Road"/>
  </way>
  <way id="6244287" version="3" timestamp="2011-07-29T20:04:15Z" uid="3560" user="Firefishy" changeset="8866684"/>
  <way id="6244310" version="2" timestamp="2007-10-13T17:33:56Z" uid="8328" user="benpre" changeset="145992"/>
  <way id="6244313" version="1" timestamp="2007-09-15T18:56:35Z" uid="13367" user="nubok" changeset="437780">
    <nd ref="26600796"/>
    <nd ref="52203723"/>
    <nd ref="52203726"/>
    <nd ref="52203447"/>
    <tag k="created_by" v="Potlatch alpha"/>
    <tag k="highway" v="residential"/>
  </way>
  <way id="6244313" version="2" timestamp="2009-02-08T08:48:30Z" uid="5588" user="Chris11" changeset="259539">
    <nd ref="26600796"/>
    <nd ref="52203723"/>
    <nd ref="52203726"/>
    <nd ref="343320983"/>
    <nd ref="343320986"/>
    <nd ref="343320987"/>
    <nd ref="343320988"/>
    <nd ref="343320989"/>
    <nd ref="343320990"/>
    <nd ref="343320991"/>
    <nd ref="343320996"/>
    <nd ref="343320997"/>
    <tag k="created_by" v="Potlatch alpha"/>
    <tag k="highway" v="residential"/>
    <tag k="name" v="Louise Michael Drive"/>
  </way>
  <way id="6244313" version="3" timestamp="2011-07-24T14:20:50Z" uid="3560" user="Firefishy" changeset="8816716">
    <nd ref="26600796"/>
    <nd ref="52203723"/>
    <nd ref="1372312211"/>
    <nd ref="343320983"/>
    <nd ref="343320986"/>
    <nd ref="1372312201"/>
    <nd ref="343320987"/>
    <nd ref="1372312200"/>
    <nd ref="343320988"/>
    <nd ref="343320989"/>
    <nd ref="1372312202"/>
    <nd ref="343320990"/>
    <nd ref="1372312203"/>
    <nd ref="343320991"/>
    <nd ref="1372312205"/>
    <nd ref="343320996"/>
    <nd ref="343320997"/>
    <tag k="highway" v="residential"/>
    <tag k="name" v="Louise Michael Drive"/>
  </way>
  <way id="6244313" version="4" timestamp="2011-07-29T20:04:15Z" uid="3560" user="Firefishy" changeset="8866684"/>
  <way id="6244314" version="4" timestamp="2008-12-08T15:36:30Z" uid="27600" user="Islanit" changeset="256442">
    <nd ref="52203492"/>
    <nd ref="52203487"/>
    <nd ref="52203431"/>
    <nd ref="317414101"/>
    <tag k="abutters" v="mixed"/>
    <tag k="created_by" v="Potlatch 0.10b"/>
    <tag k="highway" v="unclassified"/>
    <tag k="maxspeed" v="50"/>
    <tag k="name" v="Auto-Focus"/>
    <tag k="oneway" v="false"/>
  </way>
  <way id="6244314" version="5" timestamp="2008-12-10T18:45:01Z" uid="36894" user="rab" changeset="303094">
    <nd ref="317791067"/>
    <nd ref="52203487"/>
    <nd ref="52203431"/>
    <nd ref="317414101"/>
    <tag k="abutters" v="mixed"/>
    <tag k="created_by" v="Potlatch 0.10b"/>
    <tag k="highway" v="unclassified"/>
    <tag k="maxspeed" v="50"/>
    <tag k="name" v="Auto-Focus"/>
    <tag k="oneway" v="false"/>
  </way>
  <way id="6244314" version="6" timestamp="2009-04-16T23:56:19Z" uid="103885" user="logicbot" changeset="603450">
    <nd ref="317791067"/>
    <nd ref="52203487"/>
    <nd ref="52203431"/>
    <nd ref="317414101"/>
    <tag k="abutters" v="mixed"/>
    <tag k="created_by" v="Potlatch 0.10b"/>
    <tag k="highway" v="unclassified"/>
    <tag k="maxspeed" v="50"/>
    <tag k="name" v="Auto-Focus"/>
    <tag k="oneway" v="no"/>
  </way>
  <way id="6244314" version="7" timestamp="2009-09-28T12:10:05Z" uid="109035" user="Teddy80" changeset="2663725">
    <nd ref="317791067"/>
    <nd ref="52203487"/>
    <nd ref="52203431"/>
    <nd ref="317414101"/>
    <tag k="abutters" v="mixed"/>
    <tag k="highway" v="unclassified"/>
    <tag k="maxspeed" v="50"/>
    <tag k="name" v="Auto-Focus"/>
    <tag k="oneway" v="no"/>
  </way>
  <way id="6244314" version="8" timestamp="2010-07-01T11:28:04Z" uid="42938" user="Xanadu" changeset="5119688">
    <nd ref="317791067"/>
    <nd ref="52203487"/>
    <nd ref="317414101"/>
    <tag k="abutters" v="mixed"/>
    <tag k="highway" v="unclassified"/>
    <tag k="maxspeed" v="50"/>
    <tag k="name" v="Auto-Focus"/>
    <tag k="oneway" v="no"/>
  </way>
  <way id="6244314" version="9" timestamp="2011-01-17T01:37:58Z" uid="115651" user="Konrad Aust" changeset="6995665">
    <nd ref="1107024742"/>
    <nd ref="1107024434"/>
    <nd ref="1107024502"/>
    <nd ref="1107024436"/>
    <nd ref="52203487"/>
    <nd ref="1107024575"/>
    <nd ref="1052873632"/>
    <tag k="highway" v="residential"/>
    <tag k="maxspeed" v="50"/>
    <tag k="name" v="Auto-Focus"/>
  </way>
  <way id="6244317" version="1" timestamp="2007-09-15T18:56:39Z" uid="13367" user="nubok" changeset="437780">
    <nd ref="25323567"/>
    <nd ref="52203815"/>
    <tag k="created_by" v="Potlatch alpha"/>
    <tag k="highway" v="residential"/>
  </way>
  <way id="6244317" version="2" timestamp="2011-07-24T14:21:01Z" uid="3560" user="Firefishy" changeset="8816716"/>
  <way id="6244371" version="4" timestamp="2009-09-04T21:14:36Z" uid="36809" user="pfoten_weg_!_" changeset="2374562">
    <nd ref="21583336"/>
    <nd ref="158729804"/>
    <nd ref="32443522"/>
    <tag k="highway" v="residential"/>
    <tag k="name" v="Röntgenstraße"/>
  </way>
  <way id="6244371" version="5" timestamp="2011-10-08T12:49:14Z" uid="290723" user="sulagaloh" changeset="9502190">
    <nd ref="21583336"/>
    <nd ref="158729804"/>
    <nd ref="1458712189"/>
    <nd ref="32443522"/>
    <tag k="highway" v="residential"/>
    <tag k="name" v="Röntgenstraße"/>
  </way>
  <way id="6244371" version="6" timestamp="2011-12-26T15:16:13Z" uid="13832" user="Peter14" changeset="10207888"/>
  <way id="6244379" version="4" timestamp="2008-12-08T15:36:34Z" uid="27600" user="Islanit" changeset="256442">
    <nd ref="59250762"/>
    <nd ref="52205220"/>
    <nd ref="36265090"/>
    <tag k="abutters" v="residential"/>
    <tag k="created_by" v="JOSM"/>
    <tag k="highway" v="residential"/>
    <tag k="maxspeed" v="50"/>
    <tag k="name" v="Rauener Kirchweg"/>
    <tag k="oneway" v="false"/>
  </way>
  <way id="6244379" version="5" timestamp="2008-12-09T11:35:45Z" uid="27600" user="Islanit" changeset="282277">
    <nd ref="59250762"/>
    <nd ref="317552035"/>
    <tag k="abutters" v="residential"/>
    <tag k="created_by" v="Potlatch 0.10f"/>
    <tag k="highway" v="residential"/>
    <tag k="maxspeed" v="50"/>
    <tag k="name" v="Rauener Kirchweg"/>
    <tag k="oneway" v="false"/>
  </way>
  <way id="6244379" version="6" timestamp="2008-12-09T11:36:30Z" uid="27600" user="Islanit" changeset="282277">
    <nd ref="59250762"/>
    <nd ref="317552035"/>
    <nd ref="36265090"/>
    <tag k="abutters" v="residential"/>
    <tag k="created_by" v="Potlatch 0.10f"/>
    <tag k="highway" v="residential"/>
    <tag k="maxspeed" v="50"/>
    <tag k="name" v="Rauener Kirchweg"/>
  </way>
  <way id="6244379" version="7" timestamp="2009-09-28T12:09:36Z" uid="109035" user="Teddy80" changeset="2663725">
    <nd ref="59250762"/>
    <nd ref="317552035"/>
    <nd ref="36265090"/>
    <tag k="abutters" v="residential"/>
    <tag k="highway" v="residential"/>
    <tag k="maxspeed" v="50"/>
    <tag k="name" v="Rauener Kirchweg"/>
  </way>
  <way id="6244379" version="8" timestamp="2010-07-06T12:45:31Z" uid="42938" user="Xanadu" changeset="5150257">
    <nd ref="59250762"/>
    <nd ref="317552035"/>
    <nd ref="36265090"/>
    <tag k="highway" v="residential"/>
    <tag k="maxspeed" v="50"/>
    <tag k="name" v="Rauener Kirchweg"/>
  </way>
  <way id="6244379" version="9" timestamp="2011-01-17T01:37:58Z" uid="115651" user="Konrad Aust" changeset="6995665"/>
  <way id="6244380" version="4" timestamp="2008-12-08T17:29:42Z" uid="27600" user="Islanit" changeset="259237">
    <nd ref="52203487"/>
    <nd ref="59250762"/>
    <tag k="abutters" v="mixed"/>
    <tag k="created_by" v="JOSM"/>
    <tag k="highway" v="unclassified"/>
    <tag k="maxspeed" v="50"/>
    <tag k="name" v="Ferdinand-Bauer-Straße"/>
    <tag k="oneway" v="false"/>
  </way>
  <way id="6244380" version="5" timestamp="2009-04-16T23:56:21Z" uid="103885" user="logicbot" changeset="603450">
    <nd ref="52203487"/>
    <nd ref="59250762"/>
    <tag k="abutters" v="mixed"/>
    <tag k="created_by" v="JOSM"/>
    <tag k="highway" v="unclassified"/>
    <tag k="maxspeed" v="50"/>
    <tag k="name" v="Ferdinand-Bauer-Straße"/>
    <tag k="oneway" v="no"/>
  </way>
  <way id="6244380" version="6" timestamp="2009-09-28T12:10:13Z" uid="109035" user="Teddy80" changeset="2663725">
    <nd ref="52203487"/>
    <nd ref="59250762"/>
    <tag k="abutters" v="mixed"/>
    <tag k="highway" v="unclassified"/>
    <tag k="maxspeed" v="50"/>
    <tag k="name" v="Ferdinand-Bauer-Straße"/>
    <tag k="oneway" v="no"/>
  </way>
  <way id="6244380" version="7" timestamp="2010-03-08T16:50:41Z" uid="161619" user="FvGordon" changeset="4073432">
    <nd ref="52203487"/>
    <nd ref="59250762"/>
    <tag k="abutters" v="mixed"/>
    <tag k="highway" v="unclassified"/>
    <tag k="maxspeed" v="50"/>
    <tag k="name" v="Ferdinand-Bauer-Straße"/>
  </way>
  <way id="6244380" version="8" timestamp="2011-01-17T01:37:58Z" uid="115651" user="Konrad Aust" changeset="6995665"/>
  <way id="6244403" version="5" timestamp="2008-12-08T17:29:37Z" uid="27600" user="Islanit" changeset="259237">
    <nd ref="52207647"/>
    <nd ref="122481437"/>
    <nd ref="52206443"/>
    <nd ref="294187986"/>
    <nd ref="52206402"/>
    <tag k="abutters" v="mixed"/>
    <tag k="created_by" v="Potlatch 0.10b"/>
    <tag k="highway" v="residential"/>
    <tag k="maxspeed" v="50"/>
    <tag k="name" v="Lange Straße"/>
    <tag k="oneway" v="false"/>
  </way>
  <way id="6244403" version="6" timestamp="2008-12-08T21:56:07Z" uid="27600" user="Islanit" changeset="263827">
    <nd ref="52207647"/>
    <nd ref="122481437"/>
    <nd ref="52206443"/>
    <nd ref="294187986"/>
    <nd ref="52206402"/>
    <nd ref="36265623"/>
    <tag k="abutters" v="mixed"/>
    <tag k="created_by" v="Potlatch 0.10b"/>
    <tag k="highway" v="residential"/>
    <tag k="maxspeed" v="50"/>
    <tag k="name" v="Lange Straße"/>
    <tag k="oneway" v="false"/>
  </way>
  <way id="6244403" version="7" timestamp="2008-12-10T21:39:02Z" uid="36894" user="rab" changeset="303094">
    <nd ref="52207647"/>
    <nd ref="122481437"/>
    <nd ref="122480206"/>
    <nd ref="294187986"/>
    <nd ref="36265623"/>
    <tag k="abutters" v="mixed"/>
    <tag k="created_by" v="Potlatch 0.10b"/>
    <tag k="highway" v="residential"/>
    <tag k="maxspeed" v="50"/>
    <tag k="name" v="Lange Straße"/>
    <tag k="oneway" v="false"/>
  </way>
  <way id="6244403" version="8" timestamp="2009-04-16T23:56:22Z" uid="103885" user="logicbot" changeset="603450">
    <nd ref="52207647"/>
    <nd ref="122481437"/>
    <nd ref="122480206"/>
    <nd ref="294187986"/>
    <nd ref="36265623"/>
    <tag k="abutters" v="mixed"/>
    <tag k="created_by" v="Potlatch 0.10b"/>
    <tag k="highway" v="residential"/>
    <tag k="maxspeed" v="50"/>
    <tag k="name" v="Lange Straße"/>
    <tag k="oneway" v="no"/>
  </way>
  <way id="6244403" version="9" timestamp="2009-09-28T12:09:55Z" uid="109035" user="Teddy80" changeset="2663725">
    <nd ref="52207647"/>
    <nd ref="122481437"/>
    <nd ref="122480206"/>
    <nd ref="294187986"/>
    <nd ref="36265623"/>
    <tag k="abutters" v="mixed"/>
    <tag k="highway" v="residential"/>
    <tag k="maxspeed" v="50"/>
    <tag k="name" v="Lange Straße"/>
    <tag k="oneway" v="no"/>
  </way>
  <way id="6244403" version="10" timestamp="2010-12-24T14:09:50Z" uid="163437" user="r-michael" changeset="6754822">
    <nd ref="52207647"/>
    <nd ref="122480206"/>
    <nd ref="294187986"/>
    <nd ref="36265623"/>
    <tag k="abutters" v="mixed"/>
    <tag k="highway" v="residential"/>
    <tag k="maxspeed" v="50"/>
    <tag k="name" v="Lange Straße"/>
    <tag k="oneway" v="no"/>
  </way>
  <way id="6244403" version="11" timestamp="2011-01-23T22:48:03Z" uid="115651" user="Konrad Aust" changeset="7068319">
    <nd ref="52207647"/>
    <nd ref="1117807373"/>
    <nd ref="1117807385"/>
    <nd ref="294187986"/>
    <nd ref="1117807344"/>
    <nd ref="36265623"/>
    <tag k="abutters" v="mixed"/>
    <tag k="highway" v="residential"/>
    <tag k="maxspeed" v="50"/>
    <tag k="name" v="Lange Straße"/>
    <tag k="oneway" v="no"/>
  </way>
  <way id="6244442" version="6" timestamp="2008-12-08T15:36:28Z" uid="27600" user="Islanit" changeset="256442">
    <nd ref="52207647"/>
    <nd ref="52207631"/>
    <nd ref="52207602"/>
    <nd ref="52207654"/>
    <nd ref="52207609"/>
    <nd ref="317414102"/>
    <tag k="abutters" v="residential"/>
    <tag k="created_by" v="Potlatch 0.10d"/>
    <tag k="highway" v="tertiary"/>
    <tag k="maxspeed" v="50"/>
    <tag k="name" v="Goethestraße"/>
    <tag k="postal_code" v="15517"/>
  </way>
  <way id="6244442" version="7" timestamp="2008-12-10T20:17:22Z" uid="36894" user="rab" changeset="303094">
    <nd ref="52207647"/>
    <nd ref="52207631"/>
    <nd ref="52207602"/>
    <nd ref="52207654"/>
    <nd ref="317414102"/>
    <tag k="abutters" v="residential"/>
    <tag k="created_by" v="Potlatch 0.10d"/>
    <tag k="highway" v="tertiary"/>
    <tag k="maxspeed" v="50"/>
    <tag k="name" v="Goethestraße"/>
    <tag k="postal_code" v="15517"/>
  </way>
  <way id="6244442" version="8" timestamp="2009-09-28T12:09:14Z" uid="109035" user="Teddy80" changeset="2663725">
    <nd ref="52207647"/>
    <nd ref="52207631"/>
    <nd ref="52207602"/>
    <nd ref="52207654"/>
    <nd ref="317414102"/>
    <tag k="abutters" v="residential"/>
    <tag k="highway" v="tertiary"/>
    <tag k="maxspeed" v="50"/>
    <tag k="name" v="Goethestraße"/>
    <tag k="postal_code" v="15517"/>
  </way>
  <way id="6244442" version="9" timestamp="2010-07-06T12:20:51Z" uid="42938" user="Xanadu" changeset="5149257">
    <nd ref="52207647"/>
    <nd ref="52207631"/>
    <nd ref="52207602"/>
    <nd ref="52207654"/>
    <nd ref="36265673"/>
    <tag k="abutters" v="residential"/>
    <tag k="highway" v="tertiary"/>
    <tag k="maxspeed" v="50"/>
    <tag k="name" v="Goethestraße"/>
    <tag k="postal_code" v="15517"/>
  </way>
  <way id="6244442" version="10" timestamp="2010-07-06T12:45:36Z" uid="42938" user="Xanadu" changeset="5150257">
    <nd ref="52207647"/>
    <nd ref="52207631"/>
    <nd ref="52207602"/>
    <nd ref="52207654"/>
    <nd ref="36265673"/>
    <tag k="highway" v="tertiary"/>
    <tag k="maxspeed" v="50"/>
    <tag k="name" v="Goethestraße"/>
    <tag k="postal_code" v="15517"/>
  </way>
  <way id="6244442" version="11" timestamp="2010-12-24T14:09:57Z" uid="163437" user="r-michael" changeset="6754822">
    <nd ref="52207647"/>
    <nd ref="52207631"/>
    <nd ref="52207602"/>
    <nd ref="36265673"/>
    <tag k="highway" v="tertiary"/>
    <tag k="maxspeed" v="50"/>
    <tag k="name" v="Goethestraße"/>
    <tag k="postal_code" v="15517"/>
  </way>
  <way id="6244442" version="12" timestamp="2011-01-17T21:34:04Z" uid="115651" user="Konrad Aust" changeset="7004711">
    <nd ref="52207647"/>
    <nd ref="52207631"/>
    <nd ref="52207602"/>
    <nd ref="36265673"/>
    <tag k="highway" v="residential"/>
    <tag k="maxspeed" v="50"/>
    <tag k="name" v="Goethestraße"/>
    <tag k="postal_code" v="15517"/>
  </way>
  <way id="6244442" version="13" timestamp="2011-01-23T22:48:04Z" uid="115651" user="Konrad Aust" changeset="7068319">
    <nd ref="52207647"/>
    <nd ref="1117807391"/>
    <nd ref="52207631"/>
    <nd ref="52207602"/>
    <nd ref="36265673"/>
    <tag k="highway" v="residential"/>
    <tag k="maxspeed" v="50"/>
    <tag k="name" v="Goethestraße"/>
    <tag k="postal_code" v="15517"/>
  </way>
  <way id="6244484" version="3" timestamp="2008-04-14T13:46:41Z" uid="33382" user="de_muur" changeset="141778"/>
  <way id="6244485" version="4" timestamp="2009-03-29T14:58:36Z" uid="33382" user="de_muur" changeset="867996">
    <nd ref="36801042"/>
    <nd ref="366931738"/>
    <nd ref="366931743"/>
    <nd ref="366931752"/>
    <nd ref="366931747"/>
    <nd ref="52204004"/>
    <tag k="created_by" v="nmea2osm"/>
    <tag k="highway" v="unclassified"/>
  </way>
  <way id="6244485" version="5" timestamp="2009-09-05T15:31:44Z" uid="33382" user="de_muur" changeset="2382006">
    <nd ref="36801042"/>
    <nd ref="366931738"/>
    <nd ref="366931743"/>
    <nd ref="366931752"/>
    <nd ref="366931747"/>
    <nd ref="52204004"/>
    <tag k="highway" v="unclassified"/>
    <tag k="surface" v="paved"/>
  </way>
  <way id="6244485" version="6" timestamp="2009-09-11T22:29:50Z" uid="57645" user="KartoGrapHiti" changeset="2452629">
    <nd ref="36801042"/>
    <nd ref="366931738"/>
    <nd ref="366931743"/>
    <nd ref="366931752"/>
    <nd ref="366931747"/>
    <nd ref="52204004"/>
    <tag k="highway" v="track"/>
    <tag k="surface" v="paved"/>
    <tag k="tracktype" v="grade1"/>
  </way>
  <way id="6244487" version="4" timestamp="2010-08-01T07:14:07Z" uid="33382" user="de_muur" changeset="5368089">
    <nd ref="52207516"/>
    <nd ref="52207520"/>
    <nd ref="52207355"/>
    <nd ref="52207347"/>
    <tag k="foot" v="yes"/>
    <tag k="highway" v="cycleway"/>
    <tag k="surface" v="paved"/>
  </way>
  <way id="6244487" version="5" timestamp="2011-08-22T16:43:09Z" uid="57645" user="KartoGrapHiti" changeset="9095851">
    <nd ref="52207516"/>
    <nd ref="52207520"/>
    <nd ref="52207355"/>
    <nd ref="52207347"/>
    <tag k="bicycle" v="no"/>
    <tag k="foot" v="designated"/>
    <tag k="highway" v="footway"/>
    <tag k="surface" v="paved"/>
  </way>
  <way id="6244489" version="2" timestamp="2008-06-18T05:12:39Z" uid="33382" user="de_muur" changeset="214620">
    <nd ref="31196879"/>
    <nd ref="271062606"/>
    <nd ref="52203866"/>
    <nd ref="271062462"/>
    <nd ref="52203871"/>
    <nd ref="52203868"/>
    <nd ref="52203873"/>
    <nd ref="52203876"/>
    <nd ref="271062349"/>
    <nd ref="271062390"/>
    <nd ref="251784043"/>
    <nd ref="271062508"/>
    <nd ref="271062240"/>
    <nd ref="251784044"/>
    <tag k="highway" v="tertiary"/>
    <tag k="surface" v="paved"/>
  </way>
  <way id="6244489" version="3" timestamp="2008-07-01T21:07:42Z" uid="35574" user="Schorse" changeset="361547">
    <nd ref="31196879"/>
    <nd ref="271062606"/>
    <nd ref="52203866"/>
    <nd ref="271062462"/>
    <nd ref="52203871"/>
    <nd ref="52203868"/>
    <nd ref="52203873"/>
    <nd ref="52203876"/>
    <nd ref="271062349"/>
    <nd ref="271062390"/>
    <nd ref="251784043"/>
    <nd ref="271062508"/>
    <nd ref="271062240"/>
    <nd ref="251784044"/>
    <tag k="highway" v="tertiary"/>
    <tag k="name" v="Eisseler Dorfstraße"/>
    <tag k="ref" v="K 69"/>
    <tag k="surface" v="paved"/>
  </way>
  <way id="6244489" version="4" timestamp="2008-10-17T08:50:01Z" uid="57645" user="KartoGrapHiti" changeset="403037">
    <nd ref="31196879"/>
    <nd ref="271062606"/>
    <nd ref="52203866"/>
    <nd ref="271062462"/>
    <nd ref="52203871"/>
    <nd ref="52203868"/>
    <nd ref="52203873"/>
    <nd ref="52203876"/>
    <nd ref="271062349"/>
    <nd ref="271062390"/>
    <nd ref="251784043"/>
    <nd ref="271062508"/>
    <nd ref="271062240"/>
    <nd ref="305115812"/>
    <nd ref="251784044"/>
    <tag k="created_by" v="Potlatch 0.10e"/>
    <tag k="highway" v="tertiary"/>
    <tag k="name" v="Eisseler Dorfstraße"/>
    <tag k="ref" v="K 69"/>
    <tag k="surface" v="paved"/>
  </way>
  <way id="6244489" version="5" timestamp="2008-10-17T08:51:10Z" uid="57645" user="KartoGrapHiti" changeset="403037">
    <nd ref="31196879"/>
    <nd ref="271062606"/>
    <nd ref="52203866"/>
    <nd ref="271062462"/>
    <nd ref="52203871"/>
    <nd ref="52203868"/>
    <nd ref="52203873"/>
    <nd ref="52203876"/>
    <nd ref="271062349"/>
    <nd ref="271062390"/>
    <nd ref="251784043"/>
    <nd ref="271062508"/>
    <nd ref="271062240"/>
    <nd ref="305115812"/>
    <tag k="created_by" v="Potlatch 0.10e"/>
    <tag k="highway" v="tertiary"/>
    <tag k="name" v="Eisseler Dorfstraße"/>
    <tag k="ref" v="K 69"/>
    <tag k="surface" v="paved"/>
  </way>
  <way id="6244489" version="6" timestamp="2008-11-10T12:48:33Z" uid="42429" user="FK270673" changeset="730697">
    <nd ref="31196879"/>
    <nd ref="271062606"/>
    <nd ref="52203866"/>
    <nd ref="271062462"/>
    <nd ref="52203871"/>
    <nd ref="52203868"/>
    <nd ref="52203873"/>
    <nd ref="52203876"/>
    <nd ref="271062349"/>
    <nd ref="271062390"/>
    <nd ref="251784043"/>
    <nd ref="271062508"/>
    <nd ref="271062240"/>
    <nd ref="305115812"/>
    <tag k="created_by" v="Potlatch 0.10f"/>
    <tag k="highway" v="tertiary"/>
    <tag k="name" v="Eisseler Dorfstraße"/>
    <tag k="ref" v="K 69"/>
    <tag k="surface" v="paved"/>
  </way>
  <way id="6244489" version="7" timestamp="2008-11-10T12:48:39Z" uid="42429" user="FK270673" changeset="730697">
    <nd ref="31196879"/>
    <nd ref="271062606"/>
    <nd ref="52203866"/>
    <nd ref="271062462"/>
    <nd ref="52203871"/>
    <nd ref="52203868"/>
    <nd ref="52203873"/>
    <nd ref="52203876"/>
    <nd ref="271062349"/>
    <nd ref="271062390"/>
    <nd ref="251784043"/>
    <nd ref="271062508"/>
    <nd ref="271062240"/>
    <nd ref="305115812"/>
    <tag k="created_by" v="Potlatch 0.10f"/>
    <tag k="highway" v="tertiary"/>
    <tag k="name" v="Eisseler Dorfstraße"/>
    <tag k="ref" v="K 69"/>
    <tag k="surface" v="paved"/>
  </way>
  <way id="6244489" version="8" timestamp="2009-02-06T10:56:26Z" uid="57645" user="KartoGrapHiti" changeset="184515">
    <nd ref="31196879"/>
    <nd ref="271062606"/>
    <nd ref="52203866"/>
    <nd ref="271062462"/>
    <nd ref="52203871"/>
    <nd ref="52203868"/>
    <nd ref="52203873"/>
    <nd ref="52203876"/>
    <nd ref="271062349"/>
    <nd ref="271062390"/>
    <nd ref="251784043"/>
    <nd ref="271062508"/>
    <nd ref="271062240"/>
    <nd ref="305115812"/>
    <tag k="created_by" v="Potlatch 0.10f"/>
    <tag k="highway" v="tertiary"/>
    <tag k="name" v="Eisseler Dorfstraße"/>
    <tag k="ref" v="K 69"/>
    <tag k="surface" v="paved"/>
  </way>
  <way id="6244489" version="9" timestamp="2009-04-13T16:54:04Z" uid="57645" user="KartoGrapHiti" changeset="490797">
    <nd ref="31196879"/>
    <nd ref="271062606"/>
    <nd ref="52203866"/>
    <nd ref="271062462"/>
    <nd ref="52203871"/>
    <nd ref="52203868"/>
    <nd ref="52203873"/>
    <nd ref="52203876"/>
    <tag k="created_by" v="Potlatch 0.10f"/>
    <tag k="highway" v="tertiary"/>
    <tag k="name" v="Eisseler Dorfstraße"/>
    <tag k="ref" v="K 69"/>
    <tag k="surface" v="paved"/>
  </way>
  <way id="6244489" version="10" timestamp="2009-04-14T18:17:34Z" uid="57645" user="KartoGrapHiti" changeset="533908">
    <nd ref="31196879"/>
    <nd ref="271062606"/>
    <nd ref="52203866"/>
    <nd ref="271062462"/>
    <nd ref="52203871"/>
    <nd ref="52203868"/>
    <nd ref="52203873"/>
    <tag k="created_by" v="Potlatch 0.10f"/>
    <tag k="highway" v="tertiary"/>
    <tag k="name" v="Eisseler Dorfstraße"/>
    <tag k="ref" v="K 69"/>
    <tag k="surface" v="paved"/>
  </way>
  <way id="6244489" version="11" timestamp="2009-08-25T05:29:49Z" uid="33382" user="de_muur" changeset="2252270">
    <nd ref="31196879"/>
    <nd ref="271062606"/>
    <nd ref="52203866"/>
    <nd ref="271062462"/>
    <nd ref="473391136"/>
    <nd ref="52203871"/>
    <nd ref="52203868"/>
    <nd ref="52203873"/>
    <tag k="highway" v="tertiary"/>
    <tag k="name" v="Eisseler Dorfstraße"/>
    <tag k="ref" v="K 69"/>
    <tag k="surface" v="paved"/>
  </way>
  <way id="6244489" version="12" timestamp="2010-02-19T17:19:31Z" uid="57645" user="KartoGrapHiti" changeset="3917146">
    <nd ref="31196879"/>
    <nd ref="646926691"/>
    <nd ref="271062606"/>
    <nd ref="52203866"/>
    <nd ref="271062462"/>
    <nd ref="473391136"/>
    <nd ref="52203871"/>
    <nd ref="52203868"/>
    <nd ref="52203873"/>
    <tag k="highway" v="tertiary"/>
    <tag k="name" v="Eisseler Dorfstraße"/>
    <tag k="ref" v="K 69"/>
    <tag k="surface" v="paved"/>
  </way>
  <way id="6244489" version="13" timestamp="2010-03-02T21:46:24Z" uid="57645" user="KartoGrapHiti" changeset="4020766">
    <nd ref="31196879"/>
    <nd ref="646926691"/>
    <nd ref="271062606"/>
    <nd ref="52203866"/>
    <nd ref="271062462"/>
    <nd ref="473391136"/>
    <nd ref="52203871"/>
    <nd ref="52203868"/>
    <nd ref="659582251"/>
    <nd ref="52203873"/>
    <tag k="highway" v="tertiary"/>
    <tag k="name" v="Eisseler Dorfstraße"/>
    <tag k="ref" v="K 69"/>
    <tag k="surface" v="paved"/>
  </way>
  <way id="6244489" version="14" timestamp="2011-09-09T11:26:00Z" uid="57645" user="KartoGrapHiti" changeset="9253564">
    <nd ref="31196879"/>
    <nd ref="646926691"/>
    <nd ref="271062606"/>
    <nd ref="52203866"/>
    <nd ref="271062462"/>
    <nd ref="473391136"/>
    <nd ref="52203871"/>
    <nd ref="52203868"/>
    <nd ref="659582251"/>
    <nd ref="52203873"/>
    <tag k="highway" v="tertiary"/>
    <tag k="lit" v="no"/>
    <tag k="name" v="Eisseler Dorfstraße"/>
    <tag k="ref" v="K 69"/>
    <tag k="surface" v="paved"/>
  </way>
  <way id="6244489" version="15" timestamp="2011-10-30T13:01:11Z" uid="57645" user="KartoGrapHiti" changeset="9693431">
    <nd ref="31196879"/>
    <nd ref="646926691"/>
    <nd ref="271062606"/>
    <nd ref="52203866"/>
    <nd ref="271062462"/>
    <nd ref="473391136"/>
    <nd ref="52203871"/>
    <nd ref="52203868"/>
    <nd ref="659582251"/>
    <nd ref="52203873"/>
    <tag k="footway" v="no"/>
    <tag k="highway" v="tertiary"/>
    <tag k="lit" v="no"/>
    <tag k="name" v="Eisseler Dorfstraße"/>
    <tag k="ref" v="K 69"/>
    <tag k="surface" v="paved"/>
  </way>
  <way id="6244489" version="16" timestamp="2012-01-27T19:53:17Z" uid="57645" user="KartoGrapHiti" changeset="10515710">
    <nd ref="31196879"/>
    <nd ref="1607762113"/>
    <nd ref="646926691"/>
    <nd ref="271062606"/>
    <nd ref="52203866"/>
    <nd ref="271062462"/>
    <nd ref="473391136"/>
    <nd ref="52203871"/>
    <nd ref="52203868"/>
    <nd ref="659582251"/>
    <nd ref="52203873"/>
    <tag k="footway" v="no"/>
    <tag k="highway" v="tertiary"/>
    <tag k="lit" v="no"/>
    <tag k="name" v="Eisseler Dorfstraße"/>
    <tag k="ref" v="K 69"/>
    <tag k="surface" v="asphalt"/>
  </way>
  <way id="6244489" version="17" timestamp="2012-03-04T11:41:43Z" uid="57645" user="KartoGrapHiti" changeset="10867257">
    <nd ref="31196879"/>
    <nd ref="1607762113"/>
    <nd ref="646926691"/>
    <nd ref="271062606"/>
    <nd ref="52203866"/>
    <nd ref="1658878636"/>
    <nd ref="52203871"/>
    <nd ref="52203868"/>
    <nd ref="659582251"/>
    <nd ref="52203873"/>
    <tag k="footway" v="no"/>
    <tag k="highway" v="tertiary"/>
    <tag k="lit" v="no"/>
    <tag k="name" v="Eisseler Dorfstraße"/>
    <tag k="ref" v="K 69"/>
    <tag k="surface" v="asphalt"/>
  </way>
  <way id="6244489" version="18" timestamp="2012-03-04T17:57:40Z" uid="57645" user="KartoGrapHiti" changeset="10871646">
    <nd ref="31196879"/>
    <nd ref="1607762113"/>
    <tag k="footway" v="no"/>
    <tag k="highway" v="tertiary"/>
    <tag k="lit" v="no"/>
    <tag k="name" v="Eisseler Dorfstraße"/>
    <tag k="ref" v="K 69"/>
    <tag k="surface" v="asphalt"/>
  </way>
  <way id="6244490" version="3" timestamp="2008-06-18T05:12:44Z" uid="33382" user="de_muur" changeset="214620">
    <nd ref="52203876"/>
    <nd ref="271062385"/>
    <nd ref="52203881"/>
    <nd ref="52203888"/>
    <nd ref="52203885"/>
    <tag k="highway" v="unclassified"/>
    <tag k="surface" v="paved"/>
  </way>
  <way id="6244490" version="4" timestamp="2009-04-14T18:17:36Z" uid="57645" user="KartoGrapHiti" changeset="533908">
    <nd ref="52203876"/>
    <nd ref="375960855"/>
    <tag k="highway" v="unclassified"/>
    <tag k="maxspeed" v="50"/>
    <tag k="surface" v="paved"/>
  </way>
  <way id="6244490" version="5" timestamp="2009-08-25T05:29:49Z" uid="33382" user="de_muur" changeset="2252270">
    <nd ref="52203876"/>
    <nd ref="473391134"/>
    <nd ref="375960855"/>
    <tag k="highway" v="unclassified"/>
    <tag k="maxspeed" v="50"/>
    <tag k="surface" v="paved"/>
  </way>
  <way id="6244490" version="6" timestamp="2010-02-19T16:29:44Z" uid="57645" user="KartoGrapHiti" changeset="3916783">
    <nd ref="52203876"/>
    <nd ref="375960855"/>
    <tag k="highway" v="unclassified"/>
    <tag k="maxspeed" v="50"/>
    <tag k="surface" v="paved"/>
  </way>
  <way id="6244490" version="7" timestamp="2010-03-02T21:46:25Z" uid="57645" user="KartoGrapHiti" changeset="4020766">
    <nd ref="52203876"/>
    <nd ref="375960855"/>
    <tag k="highway" v="unclassified"/>
    <tag k="maxspeed" v="50"/>
    <tag k="maxweight" v="5.5"/>
    <tag k="surface" v="paved"/>
  </way>
  <way id="6244490" version="8" timestamp="2011-10-30T13:01:21Z" uid="57645" user="KartoGrapHiti" changeset="9693431">
    <nd ref="52203876"/>
    <nd ref="375960855"/>
    <tag k="footway" v="no"/>
    <tag k="highway" v="unclassified"/>
    <tag k="maxspeed" v="50"/>
    <tag k="maxweight" v="5.5"/>
    <tag k="surface" v="paved"/>
  </way>
  <way id="6244491" version="4" timestamp="2011-03-27T19:19:12Z" uid="33382" user="de_muur" changeset="7689979">
    <nd ref="34971472"/>
    <nd ref="52207475"/>
    <nd ref="52207466"/>
    <nd ref="1222143983"/>
    <tag k="highway" v="residential"/>
    <tag k="name" v="Dauelsener Dorfstraße"/>
    <tag k="surface" v="cobblestone"/>
  </way>
  <way id="6244492" version="3" timestamp="2011-03-27T15:44:32Z" uid="33382" user="de_muur" changeset="7687475">
    <nd ref="52207418"/>
    <nd ref="122631357"/>
    <nd ref="252650090"/>
    <nd ref="52207421"/>
    <nd ref="52207409"/>
    <nd ref="122631360"/>
    <nd ref="52207412"/>
    <nd ref="1221633181"/>
    <nd ref="52207415"/>
    <tag k="highway" v="residential"/>
    <tag k="maxspeed" v="30"/>
    <tag k="name" v="Auf dem Kronsberg"/>
    <tag k="surface" v="paved"/>
  </way>
  <way id="6244492" version="4" timestamp="2011-06-12T19:35:15Z" uid="469462" user="wolme" changeset="8418843">
    <nd ref="52207418"/>
    <nd ref="122631357"/>
    <nd ref="252650090"/>
    <nd ref="52207421"/>
    <nd ref="52207409"/>
    <nd ref="122631360"/>
    <tag k="highway" v="residential"/>
    <tag k="maxspeed" v="30"/>
    <tag k="name" v="Auf dem Kronsberg"/>
    <tag k="surface" v="paved"/>
  </way>
  <way id="6244492" version="5" timestamp="2011-08-23T14:15:31Z" uid="57645" user="KartoGrapHiti" changeset="9104079">
    <nd ref="52207418"/>
    <nd ref="1409954068"/>
    <nd ref="122631357"/>
    <nd ref="252650090"/>
    <nd ref="52207421"/>
    <nd ref="52207409"/>
    <nd ref="122631360"/>
    <tag k="highway" v="residential"/>
    <tag k="maxspeed" v="30"/>
    <tag k="name" v="Auf dem Kronsberg"/>
    <tag k="surface" v="paved"/>
  </way>
  <way id="6244492" version="6" timestamp="2011-12-28T18:23:08Z" uid="29975" user="OxKing" changeset="10228765">
    <nd ref="52207418"/>
    <nd ref="1565746209"/>
    <nd ref="1565746207"/>
    <nd ref="1565746210"/>
    <nd ref="1409954068"/>
    <nd ref="122631357"/>
    <nd ref="252650090"/>
    <nd ref="52207421"/>
    <nd ref="52207409"/>
    <nd ref="122631360"/>
    <tag k="highway" v="residential"/>
    <tag k="maxspeed" v="30"/>
    <tag k="name" v="Auf dem Kronsberg"/>
    <tag k="surface" v="paved"/>
  </way>
  <way id="6244494" version="4" timestamp="2008-07-06T20:13:11Z" uid="6975" user="ulfl" changeset="415781">
    <nd ref="52207273"/>
    <nd ref="52207293"/>
    <nd ref="52207297"/>
    <nd ref="52207302"/>
    <nd ref="52207307"/>
    <nd ref="52207310"/>
    <nd ref="82712398"/>
    <nd ref="52207313"/>
    <nd ref="52207319"/>
    <tag k="agricultural" v="yes"/>
    <tag k="highway" v="unclassified"/>
    <tag k="motorcar" v="no"/>
  </way>
  <way id="6244494" version="5" timestamp="2008-10-12T20:55:59Z" uid="72127" user="wer-ist-was" changeset="294111">
    <nd ref="52207273"/>
    <nd ref="52207293"/>
    <nd ref="52207297"/>
    <nd ref="52207302"/>
    <nd ref="52207307"/>
    <nd ref="52207310"/>
    <nd ref="82712398"/>
    <nd ref="52207313"/>
    <nd ref="52207319"/>
    <tag k="agricultural" v="yes"/>
    <tag k="created_by" v="Potlatch 0.10d"/>
    <tag k="highway" v="unclassified"/>
    <tag k="motorcar" v="no"/>
  </way>
  <way id="6244494" version="6" timestamp="2009-09-01T07:53:42Z" uid="57645" user="KartoGrapHiti" changeset="2334304">
    <nd ref="52207273"/>
    <nd ref="52207293"/>
    <nd ref="52207297"/>
    <nd ref="52207302"/>
    <nd ref="52207307"/>
    <nd ref="52207310"/>
    <nd ref="82712398"/>
    <tag k="agricultural" v="yes"/>
    <tag k="highway" v="track"/>
    <tag k="motorcar" v="no"/>
    <tag k="surface" v="paved"/>
    <tag k="tracktype" v="grade1"/>
  </way>
  <way id="6244494" version="7" timestamp="2010-08-01T07:22:04Z" uid="33382" user="de_muur" changeset="5368126">
    <nd ref="52207273"/>
    <nd ref="52207293"/>
    <nd ref="52207297"/>
    <nd ref="52207302"/>
    <tag k="agricultural" v="yes"/>
    <tag k="highway" v="track"/>
    <tag k="motor_vehicle" v="no"/>
    <tag k="surface" v="paved"/>
    <tag k="tracktype" v="grade1"/>
  </way>
  <way id="6244498" version="2" timestamp="2009-11-15T15:16:05Z" uid="33382" user="de_muur" changeset="3122269">
    <nd ref="52207522"/>
    <nd ref="52207391"/>
    <nd ref="52207394"/>
    <nd ref="52207404"/>
    <nd ref="52207418"/>
    <tag k="highway" v="track"/>
    <tag k="name" v="Birkenallee"/>
    <tag k="surface" v="unpaved"/>
    <tag k="tracktype" v="grade3"/>
  </way>
  <way id="6244498" version="3" timestamp="2011-12-28T18:18:13Z" uid="29975" user="OxKing" changeset="10228765">
    <nd ref="52207522"/>
    <nd ref="52207391"/>
    <nd ref="1565736220"/>
    <nd ref="52207394"/>
    <nd ref="1565736219"/>
    <nd ref="1565736155"/>
    <nd ref="52207404"/>
    <nd ref="52207418"/>
    <tag k="highway" v="track"/>
    <tag k="name" v="Birkenallee"/>
    <tag k="surface" v="unpaved"/>
    <tag k="tracktype" v="grade3"/>
  </way>
  <way id="6244500" version="3" timestamp="2009-04-05T15:59:39Z" uid="33382" user="de_muur" changeset="226740">
    <nd ref="247981745"/>
    <nd ref="247943202"/>
    <nd ref="34971461"/>
    <nd ref="52207426"/>
    <nd ref="52207428"/>
    <nd ref="52207555"/>
    <nd ref="52207432"/>
    <tag k="created_by" v="JOSM"/>
    <tag k="highway" v="unclassified"/>
    <tag k="name" v="Waller Straße"/>
    <tag k="surface" v="paved"/>
  </way>
  <way id="6244500" version="4" timestamp="2009-11-15T15:19:34Z" uid="33382" user="de_muur" changeset="3122269">
    <nd ref="247981745"/>
    <nd ref="247943202"/>
    <nd ref="34971461"/>
    <nd ref="52207426"/>
    <nd ref="52207428"/>
    <nd ref="564748083"/>
    <tag k="highway" v="unclassified"/>
    <tag k="name" v="Waller Straße"/>
    <tag k="surface" v="paved"/>
  </way>
  <way id="6244501" version="2" timestamp="2008-06-18T05:12:50Z" uid="33382" user="de_muur" changeset="214620"/>
  <way id="6244502" version="3" timestamp="2008-07-06T20:13:12Z" uid="6975" user="ulfl" changeset="415781">
    <nd ref="52207272"/>
    <nd ref="52207267"/>
    <nd ref="52207277"/>
    <nd ref="52207273"/>
    <tag k="agricultural" v="yes"/>
    <tag k="highway" v="unclassified"/>
    <tag k="motorcar" v="no"/>
  </way>
  <way id="6244502" version="4" timestamp="2009-09-01T07:53:40Z" uid="57645" user="KartoGrapHiti" changeset="2334304">
    <nd ref="52207272"/>
    <nd ref="52207267"/>
    <nd ref="52207277"/>
    <nd ref="52207273"/>
    <tag k="agricultural" v="yes"/>
    <tag k="highway" v="track"/>
    <tag k="motorcar" v="no"/>
    <tag k="surface" v="paved"/>
    <tag k="tracktype" v="grade1"/>
  </way>
  <way id="6244502" version="5" timestamp="2012-03-08T20:16:17Z" uid="57645" user="KartoGrapHiti" changeset="10913181">
    <nd ref="52207272"/>
    <nd ref="52207267"/>
    <nd ref="52207277"/>
    <nd ref="52207273"/>
    <tag k="agricultural" v="yes"/>
    <tag k="highway" v="track"/>
    <tag k="motorcar" v="no"/>
    <tag k="surface" v="paved"/>
    <tag k="tracktype" v="grade1"/>
  </way>
  <way id="6244506" version="2" timestamp="2009-11-15T15:16:05Z" uid="33382" user="de_muur" changeset="3122269">
    <nd ref="35146904"/>
    <nd ref="52207525"/>
    <nd ref="52207528"/>
    <nd ref="52207532"/>
    <nd ref="52207534"/>
    <nd ref="52207418"/>
    <tag k="highway" v="unclassified"/>
  </way>
  <way id="6244506" version="3" timestamp="2010-09-09T19:25:47Z" uid="72127" user="wer-ist-was" changeset="5735459">
    <nd ref="35146904"/>
    <nd ref="52207525"/>
    <tag k="highway" v="unclassified"/>
  </way>
  <way id="6244506" version="4" timestamp="2010-09-14T11:46:18Z" uid="7471" user="Irrfahrt" changeset="5777744">
    <nd ref="35146904"/>
    <nd ref="52207525"/>
    <nd ref="52207528"/>
    <tag k="highway" v="unclassified"/>
  </way>
  <way id="6244506" version="5" timestamp="2011-12-28T18:18:14Z" uid="29975" user="OxKing" changeset="10228765">
    <nd ref="35146904"/>
    <nd ref="1565736224"/>
    <nd ref="52207525"/>
    <nd ref="52207528"/>
    <tag k="highway" v="unclassified"/>
  </way>
  <way id="6244524" version="2" timestamp="2008-04-14T13:46:38Z" uid="33382" user="de_muur" changeset="141778">
    <nd ref="52207560"/>
    <nd ref="36801088"/>
    <nd ref="36801092"/>
    <nd ref="36801093"/>
    <nd ref="36801089"/>
    <nd ref="36801091"/>
    <nd ref="36801080"/>
    <nd ref="36801081"/>
    <tag k="created_by" v="nmea2osm"/>
    <tag k="highway" v="residential"/>
    <tag k="layer" v="0"/>
    <tag k="name" v="Uesener Weserstraße"/>
    <tag k="surface" v="paved"/>
  </way>
  <way id="6244524" version="3" timestamp="2008-04-15T16:38:06Z" uid="33382" user="de_muur" changeset="156989">
    <nd ref="52207560"/>
    <nd ref="36801088"/>
    <nd ref="36801092"/>
    <nd ref="36801093"/>
    <nd ref="36801089"/>
    <nd ref="36801091"/>
    <nd ref="36801080"/>
    <nd ref="36801081"/>
    <tag k="created_by" v="nmea2osm"/>
    <tag k="highway" v="residential"/>
    <tag k="layer" v="0"/>
    <tag k="name" v="Uesener Weserstraße"/>
    <tag k="surface" v="paved"/>
  </way>
  <way id="6244524" version="4" timestamp="2008-09-08T18:18:26Z" uid="33382" user="de_muur" changeset="575672">
    <nd ref="52207560"/>
    <nd ref="36801088"/>
    <nd ref="36801092"/>
    <nd ref="36801093"/>
    <nd ref="36801089"/>
    <nd ref="36801091"/>
    <nd ref="36801080"/>
    <nd ref="36801081"/>
    <nd ref="295124990"/>
    <nd ref="295124992"/>
    <tag k="created_by" v="nmea2osm"/>
    <tag k="highway" v="residential"/>
    <tag k="layer" v="0"/>
    <tag k="name" v="Uesener Weserstraße"/>
    <tag k="surface" v="paved"/>
  </way>
  <way id="6244524" version="5" timestamp="2008-09-20T17:38:25Z" uid="57645" user="KartoGrapHiti" changeset="670872">
    <nd ref="52207560"/>
    <nd ref="36801088"/>
    <nd ref="36801092"/>
    <nd ref="36801093"/>
    <nd ref="36801089"/>
    <nd ref="36801091"/>
    <nd ref="36801080"/>
    <nd ref="36801081"/>
    <nd ref="295124990"/>
    <nd ref="295124992"/>
    <tag k="created_by" v="Potlatch 0.10b"/>
    <tag k="highway" v="residential"/>
    <tag k="layer" v="0"/>
    <tag k="name" v="Uesener Weserstraße"/>
    <tag k="surface" v="paved"/>
  </way>
  <way id="6244524" version="6" timestamp="2008-10-03T16:48:11Z" uid="42045" user="Waldrenner" changeset="48648">
    <nd ref="52207560"/>
    <nd ref="36801088"/>
    <nd ref="36801092"/>
    <nd ref="36801093"/>
    <nd ref="36801089"/>
    <nd ref="36801091"/>
    <nd ref="36801080"/>
    <nd ref="36801081"/>
    <nd ref="295124990"/>
    <nd ref="295124992"/>
    <tag k="created_by" v="Potlatch 0.10c"/>
    <tag k="highway" v="residential"/>
    <tag k="layer" v="0"/>
    <tag k="name" v="Uesener Weserstraße"/>
    <tag k="surface" v="paved"/>
  </way>
  <way id="6244524" version="7" timestamp="2008-10-03T16:48:51Z" uid="42045" user="Waldrenner" changeset="48648">
    <nd ref="52207560"/>
    <nd ref="36801088"/>
    <nd ref="36801092"/>
    <nd ref="36801093"/>
    <nd ref="36801089"/>
    <nd ref="36801091"/>
    <nd ref="36801080"/>
    <nd ref="36801081"/>
    <nd ref="301810001"/>
    <nd ref="301810002"/>
    <nd ref="301810003"/>
    <nd ref="295124990"/>
    <nd ref="295124992"/>
    <tag k="created_by" v="Potlatch 0.10c"/>
    <tag k="highway" v="residential"/>
    <tag k="layer" v="0"/>
    <tag k="name" v="Uesener Weserstraße"/>
    <tag k="surface" v="paved"/>
  </way>
  <way id="6244524" version="8" timestamp="2008-10-03T16:49:05Z" uid="42045" user="Waldrenner" changeset="48648">
    <nd ref="52207560"/>
    <nd ref="36801088"/>
    <nd ref="36801092"/>
    <nd ref="36801093"/>
    <nd ref="36801089"/>
    <nd ref="301810056"/>
    <nd ref="36801091"/>
    <nd ref="36801080"/>
    <nd ref="36801081"/>
    <nd ref="301810001"/>
    <nd ref="301810002"/>
    <nd ref="301810003"/>
    <nd ref="295124990"/>
    <nd ref="295124992"/>
    <tag k="created_by" v="Potlatch 0.10c"/>
    <tag k="highway" v="residential"/>
    <tag k="layer" v="0"/>
    <tag k="name" v="Uesener Weserstraße"/>
    <tag k="surface" v="paved"/>
  </way>
  <way id="6244524" version="9" timestamp="2008-10-03T16:49:11Z" uid="42045" user="Waldrenner" changeset="48648">
    <nd ref="52207560"/>
    <nd ref="36801088"/>
    <nd ref="36801092"/>
    <nd ref="36801093"/>
    <nd ref="36801089"/>
    <nd ref="301810056"/>
    <nd ref="36801091"/>
    <nd ref="36801080"/>
    <nd ref="301810083"/>
    <nd ref="36801081"/>
    <nd ref="301810001"/>
    <nd ref="301810002"/>
    <nd ref="301810003"/>
    <nd ref="295124990"/>
    <nd ref="295124992"/>
    <tag k="created_by" v="Potlatch 0.10c"/>
    <tag k="highway" v="residential"/>
    <tag k="layer" v="0"/>
    <tag k="name" v="Uesener Weserstraße"/>
    <tag k="surface" v="paved"/>
  </way>
  <way id="6244524" version="10" timestamp="2008-11-10T10:26:34Z" uid="57645" user="KartoGrapHiti" changeset="727563">
    <nd ref="52207560"/>
    <nd ref="36801088"/>
    <nd ref="36801092"/>
    <nd ref="36801093"/>
    <nd ref="36801089"/>
    <nd ref="301810056"/>
    <nd ref="36801091"/>
    <nd ref="36801080"/>
    <nd ref="301810083"/>
    <nd ref="36801081"/>
    <tag k="created_by" v="Potlatch 0.10f"/>
    <tag k="highway" v="residential"/>
    <tag k="layer" v="0"/>
    <tag k="name" v="Uesener Weserstraße"/>
    <tag k="surface" v="paved"/>
  </way>
  <way id="6244524" version="11" timestamp="2009-04-14T18:17:15Z" uid="57645" user="KartoGrapHiti" changeset="533908">
    <nd ref="52207560"/>
    <nd ref="36801088"/>
    <nd ref="36801092"/>
    <nd ref="36801093"/>
    <nd ref="36801089"/>
    <nd ref="301810056"/>
    <nd ref="36801091"/>
    <nd ref="36801080"/>
    <nd ref="301810083"/>
    <nd ref="36801081"/>
    <tag k="created_by" v="Potlatch 0.10f"/>
    <tag k="highway" v="residential"/>
    <tag k="layer" v="0"/>
    <tag k="maxspeed" v="30"/>
    <tag k="name" v="Uesener Weserstraße"/>
    <tag k="surface" v="paved"/>
  </way>
  <way id="6244524" version="12" timestamp="2009-11-14T13:07:45Z" uid="33382" user="de_muur" changeset="3112927">
    <nd ref="52207560"/>
    <nd ref="563794535"/>
    <nd ref="36801088"/>
    <nd ref="36801092"/>
    <nd ref="36801093"/>
    <nd ref="36801089"/>
    <nd ref="301810056"/>
    <nd ref="36801091"/>
    <nd ref="36801080"/>
    <nd ref="301810083"/>
    <nd ref="36801081"/>
    <tag k="highway" v="residential"/>
    <tag k="layer" v="0"/>
    <tag k="maxspeed" v="30"/>
    <tag k="name" v="Uesener Weserstraße"/>
    <tag k="surface" v="paved"/>
  </way>
  <way id="6244524" version="13" timestamp="2011-01-11T19:03:21Z" uid="33382" user="de_muur" changeset="6940141">
    <nd ref="52207560"/>
    <nd ref="563794535"/>
    <nd ref="36801088"/>
    <nd ref="36801092"/>
    <nd ref="36801093"/>
    <nd ref="1098364810"/>
    <nd ref="36801089"/>
    <nd ref="301810056"/>
    <nd ref="36801091"/>
    <nd ref="36801080"/>
    <nd ref="301810083"/>
    <nd ref="36801081"/>
    <tag k="highway" v="residential"/>
    <tag k="layer" v="0"/>
    <tag k="maxspeed" v="30"/>
    <tag k="name" v="Uesener Weserstraße"/>
    <tag k="surface" v="paved"/>
  </way>
  <way id="6244524" version="14" timestamp="2012-03-04T20:23:52Z" uid="57645" user="KartoGrapHiti" changeset="10873509">
    <nd ref="52207560"/>
    <nd ref="563794535"/>
    <nd ref="36801088"/>
    <nd ref="36801092"/>
    <nd ref="1659538549"/>
    <nd ref="301810056"/>
    <nd ref="36801091"/>
    <nd ref="36801080"/>
    <nd ref="301810083"/>
    <nd ref="36801081"/>
    <tag k="highway" v="residential"/>
    <tag k="layer" v="0"/>
    <tag k="maxspeed" v="30"/>
    <tag k="name" v="Uesener Weserstraße"/>
    <tag k="surface" v="asphalt"/>
  </way>
  <way id="6244525" version="5" timestamp="2008-09-08T18:18:28Z" uid="33382" user="de_muur" changeset="575672">
    <nd ref="52207562"/>
    <nd ref="52203926"/>
    <nd ref="295124992"/>
    <nd ref="35146847"/>
    <nd ref="35146849"/>
    <nd ref="253651441"/>
    <nd ref="35146836"/>
    <nd ref="35146838"/>
    <tag k="created_by" v="Potlatch 0.9c"/>
    <tag k="highway" v="secondary"/>
    <tag k="name" v="Brückenstraße"/>
    <tag k="ref" v="L 156"/>
  </way>
  <way id="6244525" version="6" timestamp="2008-09-13T18:38:44Z" uid="57645" user="KartoGrapHiti" changeset="622025">
    <nd ref="52207562"/>
    <nd ref="52203926"/>
    <nd ref="295124992"/>
    <nd ref="35146847"/>
    <nd ref="35146849"/>
    <nd ref="253651441"/>
    <nd ref="35146836"/>
    <nd ref="35146838"/>
    <tag k="created_by" v="Potlatch 0.10b"/>
    <tag k="cycleway" v="track"/>
    <tag k="highway" v="secondary"/>
    <tag k="name" v="Brückenstraße"/>
    <tag k="ref" v="L 156"/>
  </way>
  <way id="6244525" version="7" timestamp="2008-09-20T17:49:09Z" uid="57645" user="KartoGrapHiti" changeset="670872">
    <nd ref="52207562"/>
    <nd ref="52203926"/>
    <nd ref="295124992"/>
    <nd ref="35146847"/>
    <nd ref="35146849"/>
    <nd ref="253651441"/>
    <nd ref="35146836"/>
    <nd ref="35146838"/>
    <tag k="created_by" v="Potlatch 0.10b"/>
    <tag k="highway" v="secondary"/>
    <tag k="name" v="Brückenstraße"/>
    <tag k="ref" v="L 156"/>
  </way>
  <way id="6244525" version="8" timestamp="2008-10-18T20:12:12Z" uid="70088" user="Falo" changeset="428899">
    <nd ref="52207562"/>
    <nd ref="52203926"/>
    <nd ref="295124992"/>
    <nd ref="35146847"/>
    <nd ref="35146849"/>
    <nd ref="253651441"/>
    <nd ref="305494809"/>
    <nd ref="35146836"/>
    <nd ref="35146838"/>
    <tag k="created_by" v="Potlatch 0.10b"/>
    <tag k="highway" v="secondary"/>
    <tag k="name" v="Brückenstraße"/>
    <tag k="ref" v="L 156"/>
  </way>
  <way id="6244525" version="9" timestamp="2008-12-24T15:13:42Z" uid="57645" user="KartoGrapHiti" changeset="590312">
    <nd ref="52207562"/>
    <nd ref="52203926"/>
    <nd ref="295124992"/>
    <nd ref="35146847"/>
    <nd ref="35146849"/>
    <nd ref="253651441"/>
    <nd ref="305494809"/>
    <nd ref="35146836"/>
    <nd ref="321477974"/>
    <nd ref="35146838"/>
    <tag k="created_by" v="Potlatch 0.10f"/>
    <tag k="highway" v="secondary"/>
    <tag k="name" v="Brückenstraße"/>
    <tag k="ref" v="L 156"/>
  </way>
  <way id="6244525" version="10" timestamp="2009-04-14T18:17:17Z" uid="57645" user="KartoGrapHiti" changeset="533908">
    <nd ref="52207562"/>
    <nd ref="52203926"/>
    <nd ref="295124992"/>
    <nd ref="35146847"/>
    <nd ref="375961214"/>
    <nd ref="35146849"/>
    <nd ref="253651441"/>
    <nd ref="305494809"/>
    <nd ref="35146836"/>
    <nd ref="321477974"/>
    <nd ref="35146838"/>
    <tag k="created_by" v="Potlatch 0.10f"/>
    <tag k="highway" v="secondary"/>
    <tag k="name" v="Brückenstraße"/>
    <tag k="ref" v="L 156"/>
  </way>
  <way id="6244525" version="11" timestamp="2009-09-06T15:27:17Z" uid="33382" user="de_muur" changeset="2392344">
    <nd ref="52207562"/>
    <nd ref="486090421"/>
    <tag k="highway" v="secondary"/>
    <tag k="name" v="Brückenstraße"/>
    <tag k="ref" v="L 156"/>
  </way>
  <way id="6244525" version="12" timestamp="2009-12-27T17:28:11Z" uid="57645" user="KartoGrapHiti" changeset="3465035">
    <nd ref="52207562"/>
    <nd ref="486090421"/>
    <tag k="highway" v="secondary"/>
    <tag k="maxspeed" v="70"/>
    <tag k="name" v="Brückenstraße"/>
    <tag k="ref" v="L 156"/>
  </way>
  <way id="6244525" version="13" timestamp="2010-01-16T17:27:00Z" uid="33382" user="de_muur" changeset="3633580">
    <nd ref="52207562"/>
    <nd ref="486090421"/>
    <tag k="highway" v="secondary"/>
    <tag k="maxspeed" v="70"/>
    <tag k="name" v="Brückenstraße"/>
    <tag k="ref" v="L 156"/>
    <tag k="surface" v="paved"/>
  </way>
  <way id="6244525" version="14" timestamp="2010-05-25T13:40:16Z" uid="35574" user="Schorse" changeset="4803763">
    <nd ref="52207562"/>
    <nd ref="486090421"/>
    <tag k="bicycle" v="designated"/>
    <tag k="cycleway" v="track"/>
    <tag k="foot" v="designated"/>
    <tag k="highway" v="secondary"/>
    <tag k="maxspeed" v="70"/>
    <tag k="name" v="Brückenstraße"/>
    <tag k="ref" v="L 156"/>
    <tag k="surface" v="paved"/>
  </way>
  <way id="6244525" version="15" timestamp="2011-08-02T12:02:24Z" uid="470667" user="Schefti" changeset="8900191">
    <nd ref="486090421"/>
    <nd ref="52207562"/>
    <tag k="bicycle" v="designated"/>
    <tag k="cycleway" v="track"/>
    <tag k="foot" v="designated"/>
    <tag k="highway" v="secondary"/>
    <tag k="maxspeed" v="70"/>
    <tag k="name" v="Brückenstraße"/>
    <tag k="ref" v="L 156"/>
    <tag k="surface" v="paved"/>
  </way>
  <way id="6244525" version="16" timestamp="2011-12-11T18:37:11Z" uid="57645" user="KartoGrapHiti" changeset="10092775">
    <nd ref="486090421"/>
    <nd ref="52207562"/>
    <tag k="bicycle" v="designated"/>
    <tag k="cycleway" v="track"/>
    <tag k="foot" v="designated"/>
    <tag k="footway" v="right"/>
    <tag k="highway" v="secondary"/>
    <tag k="maxspeed" v="70"/>
    <tag k="name" v="Brückenstraße"/>
    <tag k="ref" v="L 156"/>
    <tag k="surface" v="paved"/>
  </way>
  <way id="6244525" version="17" timestamp="2012-03-04T11:41:40Z" uid="57645" user="KartoGrapHiti" changeset="10867257">
    <nd ref="486090421"/>
    <nd ref="52207562"/>
    <tag k="footway" v="right"/>
    <tag k="highway" v="secondary"/>
    <tag k="maxspeed" v="70"/>
    <tag k="name" v="Brückenstraße"/>
    <tag k="ref" v="L 156"/>
    <tag k="surface" v="paved"/>
  </way>
  <way id="6244564" version="4" timestamp="2008-12-08T12:02:25Z" uid="27600" user="Islanit" changeset="255247">
    <nd ref="52208826"/>
    <nd ref="52208835"/>
    <nd ref="52208437"/>
    <nd ref="52208812"/>
    <nd ref="52208315"/>
    <nd ref="317390473"/>
    <nd ref="52208329"/>
    <nd ref="52208301"/>
    <nd ref="52208389"/>
    <nd ref="52208806"/>
    <nd ref="52208416"/>
    <nd ref="52208380"/>
    <nd ref="52208308"/>
    <nd ref="52208334"/>
    <nd ref="52208319"/>
    <nd ref="52208437"/>
    <tag k="abutters" v="residential"/>
    <tag k="created_by" v="Potlatch 0.10f"/>
    <tag k="highway" v="residential"/>
    <tag k="maxspeed" v="30"/>
    <tag k="name" v="Paul-Frost-Ring"/>
    <tag k="oneway" v="false"/>
  </way>
  <way id="6244564" version="5" timestamp="2008-12-08T12:02:27Z" uid="27600" user="Islanit" changeset="255247">
    <nd ref="52208826"/>
    <nd ref="52208835"/>
    <nd ref="52208437"/>
    <nd ref="52208812"/>
    <nd ref="52208315"/>
    <nd ref="317390474"/>
    <nd ref="317390473"/>
    <nd ref="52208329"/>
    <nd ref="52208301"/>
    <nd ref="52208389"/>
    <nd ref="52208806"/>
    <nd ref="52208416"/>
    <nd ref="52208380"/>
    <nd ref="52208308"/>
    <nd ref="52208334"/>
    <nd ref="52208319"/>
    <nd ref="52208437"/>
    <tag k="abutters" v="residential"/>
    <tag k="created_by" v="Potlatch 0.10f"/>
    <tag k="highway" v="residential"/>
    <tag k="maxspeed" v="30"/>
    <tag k="name" v="Paul-Frost-Ring"/>
    <tag k="oneway" v="false"/>
  </way>
  <way id="6244564" version="6" timestamp="2008-12-08T15:36:25Z" uid="27600" user="Islanit" changeset="256442">
    <nd ref="317414094"/>
    <nd ref="52208826"/>
    <nd ref="52208835"/>
    <nd ref="52208437"/>
    <nd ref="52208812"/>
    <nd ref="52208315"/>
    <nd ref="317390474"/>
    <nd ref="317390473"/>
    <nd ref="317414100"/>
    <nd ref="52208329"/>
    <nd ref="52208301"/>
    <nd ref="52208389"/>
    <nd ref="52208806"/>
    <nd ref="52208416"/>
    <nd ref="52208380"/>
    <nd ref="52208308"/>
    <nd ref="52208334"/>
    <nd ref="52208319"/>
    <nd ref="52208437"/>
    <tag k="abutters" v="residential"/>
    <tag k="created_by" v="Potlatch 0.10f"/>
    <tag k="highway" v="residential"/>
    <tag k="maxspeed" v="30"/>
    <tag k="name" v="Paul-Frost-Ring"/>
    <tag k="oneway" v="false"/>
  </way>
  <way id="6244564" version="7" timestamp="2008-12-10T19:36:30Z" uid="36894" user="rab" changeset="303094">
    <nd ref="317414094"/>
    <nd ref="52208835"/>
    <nd ref="52208437"/>
    <nd ref="52208812"/>
    <nd ref="52208315"/>
    <nd ref="317390474"/>
    <nd ref="317390473"/>
    <nd ref="317414100"/>
    <nd ref="52208329"/>
    <nd ref="52208301"/>
    <nd ref="52208389"/>
    <nd ref="52208806"/>
    <nd ref="52208416"/>
    <nd ref="52208380"/>
    <nd ref="52208308"/>
    <nd ref="52208334"/>
    <nd ref="52208319"/>
    <nd ref="52208437"/>
    <tag k="abutters" v="residential"/>
    <tag k="created_by" v="Potlatch 0.10f"/>
    <tag k="highway" v="residential"/>
    <tag k="maxspeed" v="30"/>
    <tag k="name" v="Paul-Frost-Ring"/>
    <tag k="oneway" v="false"/>
  </way>
  <way id="6244564" version="8" timestamp="2008-12-10T20:40:09Z" uid="36894" user="rab" changeset="303094">
    <nd ref="317414094"/>
    <nd ref="52208835"/>
    <nd ref="52208437"/>
    <nd ref="52208812"/>
    <nd ref="59249205"/>
    <nd ref="52208315"/>
    <nd ref="317390474"/>
    <nd ref="317390473"/>
    <nd ref="317414100"/>
    <nd ref="52208329"/>
    <nd ref="52208301"/>
    <nd ref="52208389"/>
    <nd ref="52208806"/>
    <nd ref="52208416"/>
    <nd ref="52208380"/>
    <nd ref="52208308"/>
    <nd ref="52208334"/>
    <nd ref="52208319"/>
    <nd ref="52208437"/>
    <tag k="abutters" v="residential"/>
    <tag k="created_by" v="Potlatch 0.10f"/>
    <tag k="highway" v="residential"/>
    <tag k="maxspeed" v="30"/>
    <tag k="name" v="Paul-Frost-Ring"/>
    <tag k="oneway" v="false"/>
  </way>
  <way id="6244564" version="9" timestamp="2009-04-16T23:56:24Z" uid="103885" user="logicbot" changeset="603450">
    <nd ref="317414094"/>
    <nd ref="52208835"/>
    <nd ref="52208437"/>
    <nd ref="52208812"/>
    <nd ref="59249205"/>
    <nd ref="52208315"/>
    <nd ref="317390474"/>
    <nd ref="317390473"/>
    <nd ref="317414100"/>
    <nd ref="52208329"/>
    <nd ref="52208301"/>
    <nd ref="52208389"/>
    <nd ref="52208806"/>
    <nd ref="52208416"/>
    <nd ref="52208380"/>
    <nd ref="52208308"/>
    <nd ref="52208334"/>
    <nd ref="52208319"/>
    <nd ref="52208437"/>
    <tag k="abutters" v="residential"/>
    <tag k="created_by" v="Potlatch 0.10f"/>
    <tag k="highway" v="residential"/>
    <tag k="maxspeed" v="30"/>
    <tag k="name" v="Paul-Frost-Ring"/>
    <tag k="oneway" v="no"/>
  </way>
  <way id="6244564" version="10" timestamp="2009-09-28T12:10:08Z" uid="109035" user="Teddy80" changeset="2663725">
    <nd ref="317414094"/>
    <nd ref="52208835"/>
    <nd ref="52208437"/>
    <nd ref="52208812"/>
    <nd ref="59249205"/>
    <nd ref="52208315"/>
    <nd ref="317390474"/>
    <nd ref="317390473"/>
    <nd ref="317414100"/>
    <nd ref="52208329"/>
    <nd ref="52208301"/>
    <nd ref="52208389"/>
    <nd ref="52208806"/>
    <nd ref="52208416"/>
    <nd ref="52208380"/>
    <nd ref="52208308"/>
    <nd ref="52208334"/>
    <nd ref="52208319"/>
    <nd ref="52208437"/>
    <tag k="abutters" v="residential"/>
    <tag k="highway" v="residential"/>
    <tag k="maxspeed" v="30"/>
    <tag k="name" v="Paul-Frost-Ring"/>
    <tag k="oneway" v="no"/>
  </way>
  <way id="6244564" version="11" timestamp="2010-07-06T12:46:30Z" uid="42938" user="Xanadu" changeset="5150257">
    <nd ref="317414094"/>
    <nd ref="52208835"/>
    <nd ref="52208437"/>
    <nd ref="52208812"/>
    <nd ref="59249205"/>
    <nd ref="52208315"/>
    <nd ref="317390474"/>
    <nd ref="317390473"/>
    <nd ref="317414100"/>
    <nd ref="52208329"/>
    <nd ref="52208301"/>
    <nd ref="52208389"/>
    <nd ref="52208806"/>
    <nd ref="52208416"/>
    <nd ref="52208380"/>
    <nd ref="52208308"/>
    <nd ref="52208334"/>
    <nd ref="52208319"/>
    <nd ref="52208437"/>
    <tag k="highway" v="residential"/>
    <tag k="maxspeed" v="30"/>
    <tag k="name" v="Paul-Frost-Ring"/>
    <tag k="oneway" v="no"/>
  </way>
  <way id="6244564" version="12" timestamp="2010-12-24T14:10:00Z" uid="163437" user="r-michael" changeset="6754822">
    <nd ref="317414094"/>
    <nd ref="52208437"/>
    <nd ref="52208812"/>
    <nd ref="59249205"/>
    <nd ref="52208315"/>
    <nd ref="317390474"/>
    <nd ref="317390473"/>
    <nd ref="317414100"/>
    <nd ref="52208329"/>
    <nd ref="52208301"/>
    <nd ref="52208389"/>
    <nd ref="52208806"/>
    <nd ref="52208416"/>
    <nd ref="52208380"/>
    <nd ref="52208308"/>
    <nd ref="52208334"/>
    <nd ref="52208319"/>
    <nd ref="52208437"/>
    <tag k="highway" v="residential"/>
    <tag k="maxspeed" v="30"/>
    <tag k="name" v="Paul-Frost-Ring"/>
    <tag k="oneway" v="no"/>
  </way>
  <way id="6244564" version="13" timestamp="2011-01-27T02:58:52Z" uid="115651" user="Konrad Aust" changeset="7099952">
    <nd ref="317414094"/>
    <nd ref="1122948538"/>
    <nd ref="1122948557"/>
    <nd ref="52208812"/>
    <tag k="highway" v="residential"/>
    <tag k="maxspeed" v="30"/>
    <tag k="name" v="Paul-Frost-Ring"/>
    <tag k="oneway" v="no"/>
  </way>
  <way id="6244564" version="14" timestamp="2012-03-29T22:35:55Z" uid="460437" user="wirschatzfinder" changeset="11145517"/>
  <way id="6244632" version="9" timestamp="2008-12-08T12:03:24Z" uid="27600" user="Islanit" changeset="255247">
    <nd ref="38645814"/>
    <nd ref="38645809"/>
    <nd ref="38645770"/>
    <nd ref="317390625"/>
    <nd ref="38645752"/>
    <nd ref="38645743"/>
    <nd ref="52210121"/>
    <nd ref="52210151"/>
    <tag k="abutters" v="residential"/>
    <tag k="created_by" v="Potlatch 0.10f"/>
    <tag k="highway" v="residential"/>
    <tag k="maxspeed" v="50"/>
    <tag k="name" v="Lange Straße"/>
    <tag k="postal_code" v="15517"/>
  </way>
  <way id="6244632" version="10" timestamp="2008-12-08T15:36:26Z" uid="27600" user="Islanit" changeset="256442">
    <nd ref="38645814"/>
    <nd ref="317414097"/>
    <nd ref="38645809"/>
    <nd ref="38645770"/>
    <nd ref="317414096"/>
    <nd ref="317390625"/>
    <nd ref="317414095"/>
    <nd ref="38645752"/>
    <nd ref="317414094"/>
    <nd ref="38645743"/>
    <nd ref="52210121"/>
    <nd ref="317414093"/>
    <nd ref="52210151"/>
    <tag k="abutters" v="residential"/>
    <tag k="created_by" v="Potlatch 0.10f"/>
    <tag k="highway" v="residential"/>
    <tag k="maxspeed" v="50"/>
    <tag k="name" v="Lange Straße"/>
    <tag k="postal_code" v="15517"/>
  </way>
  <way id="6244632" version="11" timestamp="2008-12-08T17:29:37Z" uid="27600" user="Islanit" changeset="259237">
    <nd ref="38645814"/>
    <nd ref="317414097"/>
    <nd ref="38645809"/>
    <nd ref="38645770"/>
    <nd ref="317414096"/>
    <nd ref="317390625"/>
    <nd ref="317414095"/>
    <nd ref="38645752"/>
    <nd ref="317430954"/>
    <nd ref="317414094"/>
    <nd ref="38645743"/>
    <nd ref="52210121"/>
    <nd ref="317414093"/>
    <nd ref="52207647"/>
    <tag k="abutters" v="residential"/>
    <tag k="created_by" v="Potlatch 0.10f"/>
    <tag k="highway" v="residential"/>
    <tag k="maxspeed" v="50"/>
    <tag k="name" v="Lange Straße"/>
    <tag k="postal_code" v="15517"/>
  </way>
  <way id="6244632" version="12" timestamp="2008-12-10T18:55:24Z" uid="36894" user="rab" changeset="303094">
    <nd ref="38645814"/>
    <nd ref="317414097"/>
    <nd ref="38645809"/>
    <nd ref="317792285"/>
    <nd ref="38645770"/>
    <nd ref="317414096"/>
    <nd ref="317390625"/>
    <nd ref="317414095"/>
    <nd ref="38645752"/>
    <nd ref="317430954"/>
    <nd ref="317414094"/>
    <nd ref="38645743"/>
    <nd ref="52210121"/>
    <nd ref="317414093"/>
    <nd ref="52207647"/>
    <tag k="abutters" v="residential"/>
    <tag k="created_by" v="Potlatch 0.10f"/>
    <tag k="highway" v="residential"/>
    <tag k="maxspeed" v="50"/>
    <tag k="name" v="Lange Straße"/>
    <tag k="postal_code" v="15517"/>
  </way>
  <way id="6244632" version="13" timestamp="2008-12-10T19:36:24Z" uid="36894" user="rab" changeset="303094">
    <nd ref="38645814"/>
    <nd ref="317414097"/>
    <nd ref="38645809"/>
    <nd ref="317792285"/>
    <nd ref="317799998"/>
    <nd ref="317799995"/>
    <nd ref="38645770"/>
    <nd ref="317414096"/>
    <nd ref="78718801"/>
    <nd ref="317414095"/>
    <nd ref="317430954"/>
    <nd ref="317414094"/>
    <nd ref="38645743"/>
    <nd ref="317414093"/>
    <nd ref="52207647"/>
    <tag k="abutters" v="residential"/>
    <tag k="created_by" v="Potlatch 0.10f"/>
    <tag k="highway" v="residential"/>
    <tag k="maxspeed" v="50"/>
    <tag k="name" v="Lange Straße"/>
    <tag k="postal_code" v="15517"/>
  </way>
  <way id="6244632" version="14" timestamp="2009-09-28T12:09:04Z" uid="109035" user="Teddy80" changeset="2663725">
    <nd ref="38645814"/>
    <nd ref="317414097"/>
    <nd ref="38645809"/>
    <nd ref="317792285"/>
    <nd ref="317799998"/>
    <nd ref="317799995"/>
    <nd ref="38645770"/>
    <nd ref="317414096"/>
    <nd ref="78718801"/>
    <nd ref="317414095"/>
    <nd ref="317430954"/>
    <nd ref="317414094"/>
    <nd ref="38645743"/>
    <nd ref="317414093"/>
    <nd ref="52207647"/>
    <tag k="abutters" v="residential"/>
    <tag k="highway" v="residential"/>
    <tag k="maxspeed" v="50"/>
    <tag k="name" v="Lange Straße"/>
    <tag k="postal_code" v="15517"/>
  </way>
  <way id="6244632" version="15" timestamp="2010-03-20T18:03:26Z" uid="43566" user="anbr" changeset="4182816">
    <nd ref="38645814"/>
    <nd ref="317414097"/>
    <nd ref="38645809"/>
    <nd ref="317792285"/>
    <nd ref="317799998"/>
    <nd ref="317799995"/>
    <nd ref="38645770"/>
    <nd ref="317414096"/>
    <nd ref="78718801"/>
    <nd ref="317414095"/>
    <nd ref="317430954"/>
    <nd ref="317414094"/>
    <nd ref="38645743"/>
    <nd ref="317414093"/>
    <nd ref="52207647"/>
    <tag k="abutters" v="residential"/>
    <tag k="highway" v="tertiary"/>
    <tag k="maxspeed" v="50"/>
    <tag k="name" v="Lange Straße"/>
    <tag k="postal_code" v="15517"/>
  </way>
  <way id="6244632" version="16" timestamp="2010-07-06T12:47:08Z" uid="42938" user="Xanadu" changeset="5150257">
    <nd ref="38645814"/>
    <nd ref="317414097"/>
    <nd ref="38645809"/>
    <nd ref="317792285"/>
    <nd ref="317799998"/>
    <nd ref="317799995"/>
    <nd ref="38645770"/>
    <nd ref="317414096"/>
    <nd ref="78718801"/>
    <nd ref="317414095"/>
    <nd ref="317430954"/>
    <nd ref="317414094"/>
    <nd ref="38645743"/>
    <nd ref="317414093"/>
    <nd ref="52207647"/>
    <tag k="highway" v="tertiary"/>
    <tag k="maxspeed" v="50"/>
    <tag k="name" v="Lange Straße"/>
    <tag k="postal_code" v="15517"/>
  </way>
  <way id="6244632" version="17" timestamp="2010-12-24T14:09:50Z" uid="163437" user="r-michael" changeset="6754822">
    <nd ref="38645814"/>
    <nd ref="317414097"/>
    <nd ref="38645809"/>
    <nd ref="317792285"/>
    <nd ref="317799998"/>
    <nd ref="317799995"/>
    <nd ref="317414096"/>
    <nd ref="78718801"/>
    <nd ref="317414095"/>
    <nd ref="317430954"/>
    <nd ref="317414094"/>
    <nd ref="317414093"/>
    <nd ref="52207647"/>
    <tag k="highway" v="tertiary"/>
    <tag k="maxspeed" v="50"/>
    <tag k="name" v="Lange Straße"/>
    <tag k="postal_code" v="15517"/>
  </way>
  <way id="6244632" version="18" timestamp="2011-01-17T01:37:50Z" uid="115651" user="Konrad Aust" changeset="6995665">
    <nd ref="38645814"/>
    <nd ref="317414097"/>
    <nd ref="38645809"/>
    <nd ref="317792285"/>
    <nd ref="317799998"/>
    <nd ref="317799995"/>
    <nd ref="1107024508"/>
    <nd ref="317414096"/>
    <nd ref="78718801"/>
    <nd ref="317414095"/>
    <nd ref="317430954"/>
    <nd ref="317414094"/>
    <nd ref="317414093"/>
    <nd ref="52207647"/>
    <tag k="highway" v="tertiary"/>
    <tag k="maxspeed" v="50"/>
    <tag k="name" v="Lange Straße"/>
    <tag k="postal_code" v="15517"/>
  </way>
  <way id="6244632" version="19" timestamp="2011-01-17T21:34:06Z" uid="115651" user="Konrad Aust" changeset="7004711">
    <nd ref="38645814"/>
    <nd ref="317414097"/>
    <nd ref="38645809"/>
    <nd ref="317792285"/>
    <nd ref="317799998"/>
    <nd ref="317799995"/>
    <nd ref="1107024508"/>
    <nd ref="317414096"/>
    <nd ref="78718801"/>
    <nd ref="317414095"/>
    <nd ref="317430954"/>
    <nd ref="317414094"/>
    <nd ref="317414093"/>
    <nd ref="52207647"/>
    <tag k="highway" v="residential"/>
    <tag k="maxspeed" v="50"/>
    <tag k="name" v="Lange Straße"/>
    <tag k="postal_code" v="15517"/>
  </way>
  <way id="6244632" version="20" timestamp="2011-01-21T23:39:45Z" uid="115651" user="Konrad Aust" changeset="7045946">
    <nd ref="38645814"/>
    <nd ref="317414097"/>
    <nd ref="38645809"/>
    <nd ref="317792285"/>
    <nd ref="1114070886"/>
    <nd ref="317799995"/>
    <nd ref="1107024508"/>
    <nd ref="1114070757"/>
    <nd ref="317414096"/>
    <nd ref="78718801"/>
    <nd ref="317430954"/>
    <nd ref="317414094"/>
    <nd ref="317414093"/>
    <nd ref="52207647"/>
    <tag k="highway" v="residential"/>
    <tag k="maxspeed" v="50"/>
    <tag k="name" v="Lange Straße"/>
    <tag k="postal_code" v="15517"/>
  </way>
  <way id="6244632" version="21" timestamp="2011-01-23T22:48:04Z" uid="115651" user="Konrad Aust" changeset="7068319">
    <nd ref="38645814"/>
    <nd ref="317414097"/>
    <nd ref="38645809"/>
    <nd ref="317792285"/>
    <nd ref="1114070886"/>
    <nd ref="317799995"/>
    <nd ref="1107024508"/>
    <nd ref="1114070757"/>
    <nd ref="317414096"/>
    <nd ref="78718801"/>
    <nd ref="317430954"/>
    <nd ref="317414094"/>
    <nd ref="317414093"/>
    <nd ref="1117807317"/>
    <nd ref="52207647"/>
    <tag k="highway" v="residential"/>
    <tag k="maxspeed" v="50"/>
    <tag k="name" v="Lange Straße"/>
    <tag k="postal_code" v="15517"/>
  </way>
  <way id="6244632" version="22" timestamp="2011-02-06T13:01:54Z" uid="115651" user="Konrad Aust" changeset="7203243">
    <nd ref="38645814"/>
    <nd ref="317414097"/>
    <nd ref="317792285"/>
    <nd ref="1114070886"/>
    <nd ref="317799995"/>
    <nd ref="1107024508"/>
    <nd ref="1114070757"/>
    <nd ref="317414096"/>
    <nd ref="78718801"/>
    <nd ref="317430954"/>
    <nd ref="317414094"/>
    <nd ref="317414093"/>
    <nd ref="1117807317"/>
    <nd ref="52207647"/>
    <tag k="highway" v="residential"/>
    <tag k="maxspeed" v="50"/>
    <tag k="name" v="Lange Straße"/>
    <tag k="postal_code" v="15517"/>
  </way>
  <way id="6244632" version="23" timestamp="2011-05-15T19:13:21Z" uid="43566" user="anbr" changeset="8155570">
    <nd ref="38645814"/>
    <nd ref="317414097"/>
    <nd ref="317792285"/>
    <nd ref="1114070886"/>
    <nd ref="317799995"/>
    <nd ref="1286793827"/>
    <nd ref="1286793857"/>
    <nd ref="317414096"/>
    <nd ref="78718801"/>
    <nd ref="317430954"/>
    <nd ref="317414094"/>
    <nd ref="317414093"/>
    <nd ref="1117807317"/>
    <nd ref="52207647"/>
    <tag k="highway" v="residential"/>
    <tag k="maxspeed" v="50"/>
    <tag k="name" v="Lange Straße"/>
    <tag k="postal_code" v="15517"/>
  </way>
  <way id="6244632" version="24" timestamp="2011-08-03T18:07:05Z" uid="194089" user="Daresch" changeset="8912629">
    <nd ref="38645814"/>
    <nd ref="317414097"/>
    <nd ref="317792285"/>
    <nd ref="1114070886"/>
    <nd ref="317799995"/>
    <nd ref="1286793827"/>
    <nd ref="1286793857"/>
    <nd ref="317414096"/>
    <nd ref="78718801"/>
    <nd ref="317430954"/>
    <nd ref="317414094"/>
    <nd ref="317414093"/>
    <nd ref="1117807317"/>
    <nd ref="52207647"/>
    <tag k="highway" v="residential"/>
    <tag k="maxspeed" v="50"/>
    <tag k="name" v="Lange Straße"/>
    <tag k="postal_code" v="15517"/>
    <tag k="surface" v="asphalt"/>
  </way>
  <way id="6244632" version="25" timestamp="2012-03-27T21:58:11Z" uid="161619" user="FvGordon" changeset="11121477">
    <nd ref="38645814"/>
    <nd ref="317414097"/>
    <nd ref="317792285"/>
    <nd ref="1114070886"/>
    <nd ref="317799995"/>
    <nd ref="1286793827"/>
    <nd ref="1286793857"/>
    <nd ref="317414096"/>
    <nd ref="1693855512"/>
    <nd ref="78718801"/>
    <nd ref="317430954"/>
    <nd ref="317414094"/>
    <nd ref="317414093"/>
    <nd ref="1117807317"/>
    <nd ref="52207647"/>
    <tag k="highway" v="residential"/>
    <tag k="maxspeed" v="50"/>
    <tag k="name" v="Lange Straße"/>
    <tag k="postal_code" v="15517"/>
    <tag k="surface" v="asphalt"/>
  </way>
  <way id="6244740" version="4" timestamp="2009-09-30T13:49:57Z" uid="36809" user="pfoten_weg_!_" changeset="2688655">
    <nd ref="52211999"/>
    <nd ref="52212026"/>
    <tag k="bicycle" v="yes"/>
    <tag k="bridge" v="yes"/>
    <tag k="highway" v="footway"/>
    <tag k="layer" v="1"/>
    <tag k="tracktype" v="grade1"/>
  </way>
  <way id="6244740" version="5" timestamp="2011-09-10T08:13:50Z" uid="7596" user="ck3d" changeset="9260074">
    <nd ref="52211999"/>
    <nd ref="1428633817"/>
    <tag k="bicycle" v="yes"/>
    <tag k="highway" v="footway"/>
    <tag k="tracktype" v="grade1"/>
  </way>
  <way id="6244745" version="6" timestamp="2009-09-30T13:49:55Z" uid="36809" user="pfoten_weg_!_" changeset="2688655">
    <nd ref="357285"/>
    <nd ref="249080602"/>
    <nd ref="410328043"/>
    <nd ref="305276710"/>
    <nd ref="305276709"/>
    <nd ref="410328041"/>
    <nd ref="52104742"/>
    <nd ref="52104744"/>
    <nd ref="52104746"/>
    <tag k="highway" v="unclassified"/>
    <tag k="name" v="Toni-März-Straße"/>
  </way>
  <way id="6244745" version="7" timestamp="2010-04-22T09:48:06Z" uid="247670" user="burt13de" changeset="4493617">
    <nd ref="357285"/>
    <nd ref="249080602"/>
    <nd ref="410328043"/>
    <nd ref="305276710"/>
    <nd ref="305276709"/>
    <nd ref="410328041"/>
    <nd ref="52104742"/>
    <nd ref="703619319"/>
    <nd ref="52104744"/>
    <nd ref="52104746"/>
    <tag k="highway" v="unclassified"/>
    <tag k="name" v="Toni-März-Straße"/>
  </way>
  <way id="6244745" version="8" timestamp="2010-04-22T09:51:22Z" uid="247670" user="burt13de" changeset="4493617">
    <nd ref="357285"/>
    <nd ref="249080602"/>
    <nd ref="410328043"/>
    <nd ref="305276710"/>
    <nd ref="305276709"/>
    <nd ref="410328041"/>
    <nd ref="52104742"/>
    <nd ref="703619319"/>
    <nd ref="703619857"/>
    <nd ref="52104744"/>
    <nd ref="52104746"/>
    <tag k="highway" v="unclassified"/>
    <tag k="name" v="Toni-März-Straße"/>
  </way>
  <way id="6244745" version="9" timestamp="2010-04-29T09:57:47Z" uid="247670" user="burt13de" changeset="4556542">
    <nd ref="357285"/>
    <nd ref="249080602"/>
    <nd ref="410328043"/>
    <nd ref="305276710"/>
    <nd ref="305276709"/>
    <nd ref="410328041"/>
    <nd ref="52104742"/>
    <nd ref="703619319"/>
    <nd ref="703619857"/>
    <nd ref="52104744"/>
    <nd ref="711690423"/>
    <tag k="highway" v="unclassified"/>
    <tag k="name" v="Toni-März-Straße"/>
  </way>
  <way id="6244805" version="2" timestamp="2007-10-13T17:25:33Z" uid="8328" user="benpre" changeset="145992">
    <nd ref="52213060"/>
    <nd ref="52213060"/>
    <nd ref="52213173"/>
    <nd ref="52213180"/>
    <tag k="created_by" v="JOSM"/>
    <tag k="highway" v="residential"/>
    <tag k="maxspeed" v="50"/>
    <tag k="name" v="Heldstrasse"/>
  </way>
  <way id="6244805" version="3" timestamp="2008-04-30T19:10:49Z" uid="32786" user="Netzwolf" changeset="297290">
    <nd ref="52213060"/>
    <nd ref="52213173"/>
    <nd ref="52213180"/>
    <tag k="created_by" v="JOSM"/>
    <tag k="highway" v="residential"/>
    <tag k="maxspeed" v="50"/>
    <tag k="name" v="Heldstrasse"/>
  </way>
  <way id="6244805" version="4" timestamp="2012-02-26T23:07:36Z" uid="178186" user="mdk" changeset="10804378"/>
  <way id="6244824" version="3" timestamp="2008-12-08T17:23:04Z" uid="27600" user="Islanit" changeset="259237">
    <nd ref="317430300"/>
    <nd ref="52213348"/>
    <nd ref="52213030"/>
    <tag k="abutters" v="residential"/>
    <tag k="created_by" v="Potlatch 0.10f"/>
    <tag k="highway" v="residential"/>
    <tag k="maxspeed" v="50"/>
    <tag k="name" v="Waldemarstraße"/>
    <tag k="oneway" v="false"/>
  </way>
  <way id="6244824" version="4" timestamp="2009-04-16T23:56:28Z" uid="103885" user="logicbot" changeset="603450">
    <nd ref="317430300"/>
    <nd ref="52213348"/>
    <nd ref="52213030"/>
    <tag k="abutters" v="residential"/>
    <tag k="created_by" v="Potlatch 0.10f"/>
    <tag k="highway" v="residential"/>
    <tag k="maxspeed" v="50"/>
    <tag k="name" v="Waldemarstraße"/>
    <tag k="oneway" v="no"/>
  </way>
  <way id="6244824" version="5" timestamp="2009-09-28T12:09:40Z" uid="109035" user="Teddy80" changeset="2663725">
    <nd ref="317430300"/>
    <nd ref="52213348"/>
    <nd ref="52213030"/>
    <tag k="abutters" v="residential"/>
    <tag k="highway" v="residential"/>
    <tag k="maxspeed" v="50"/>
    <tag k="name" v="Waldemarstraße"/>
    <tag k="oneway" v="no"/>
  </way>
  <way id="6244824" version="6" timestamp="2010-07-06T12:46:47Z" uid="42938" user="Xanadu" changeset="5150257">
    <nd ref="317430300"/>
    <nd ref="52213348"/>
    <nd ref="52213030"/>
    <tag k="highway" v="residential"/>
    <tag k="maxspeed" v="50"/>
    <tag k="name" v="Waldemarstraße"/>
    <tag k="oneway" v="no"/>
  </way>
  <way id="6244824" version="7" timestamp="2010-12-24T14:10:02Z" uid="163437" user="r-michael" changeset="6754822">
    <nd ref="317430300"/>
    <nd ref="52213030"/>
    <tag k="highway" v="residential"/>
    <tag k="maxspeed" v="50"/>
    <tag k="name" v="Waldemarstraße"/>
    <tag k="oneway" v="no"/>
  </way>
  <way id="6244869" version="7" timestamp="2008-12-08T17:29:41Z" uid="27600" user="Islanit" changeset="259237">
    <nd ref="52214723"/>
    <nd ref="71827605"/>
    <tag k="abutters" v="residential"/>
    <tag k="created_by" v="Potlatch 0.10d"/>
    <tag k="highway" v="residential"/>
    <tag k="maxspeed" v="30"/>
    <tag k="name" v="Hauffstraße"/>
  </way>
  <way id="6244869" version="8" timestamp="2008-12-10T21:18:55Z" uid="36894" user="rab" changeset="303094">
    <nd ref="38646225"/>
    <nd ref="71827605"/>
    <tag k="abutters" v="residential"/>
    <tag k="created_by" v="Potlatch 0.10d"/>
    <tag k="highway" v="residential"/>
    <tag k="maxspeed" v="30"/>
    <tag k="name" v="Hauffstraße"/>
  </way>
  <way id="6244869" version="9" timestamp="2009-09-28T12:09:40Z" uid="109035" user="Teddy80" changeset="2663725">
    <nd ref="38646225"/>
    <nd ref="71827605"/>
    <tag k="abutters" v="residential"/>
    <tag k="highway" v="residential"/>
    <tag k="maxspeed" v="30"/>
    <tag k="name" v="Hauffstraße"/>
  </way>
  <way id="6244869" version="10" timestamp="2010-07-06T12:46:53Z" uid="42938" user="Xanadu" changeset="5150257">
    <nd ref="38646225"/>
    <nd ref="71827605"/>
    <tag k="highway" v="residential"/>
    <tag k="maxspeed" v="30"/>
    <tag k="name" v="Hauffstraße"/>
  </way>
  <way id="6244869" version="11" timestamp="2010-12-20T23:35:48Z" uid="115651" user="Konrad Aust" changeset="6721478">
    <nd ref="1052873637"/>
    <nd ref="1052873738"/>
    <nd ref="1052873657"/>
    <nd ref="71827605"/>
    <tag k="highway" v="residential"/>
    <tag k="maxspeed" v="30"/>
    <tag k="name" v="Hauffstraße"/>
  </way>
  <way id="6244955" version="5" timestamp="2008-12-08T17:29:40Z" uid="27600" user="Islanit" changeset="259237">
    <nd ref="71827605"/>
    <nd ref="248887482"/>
    <nd ref="52216161"/>
    <nd ref="52216073"/>
    <nd ref="52216146"/>
    <nd ref="52216150"/>
    <tag k="abutters" v="residential"/>
    <tag k="created_by" v="JOSM"/>
    <tag k="highway" v="residential"/>
    <tag k="maxspeed" v="50"/>
    <tag k="name" v="Erich-Weinert-Siedlung"/>
  </way>
  <way id="6244955" version="6" timestamp="2009-09-28T12:08:57Z" uid="109035" user="Teddy80" changeset="2663725">
    <nd ref="71827605"/>
    <nd ref="248887482"/>
    <nd ref="52216161"/>
    <nd ref="52216073"/>
    <nd ref="52216146"/>
    <nd ref="52216150"/>
    <tag k="abutters" v="residential"/>
    <tag k="highway" v="residential"/>
    <tag k="maxspeed" v="50"/>
    <tag k="name" v="Erich-Weinert-Siedlung"/>
  </way>
  <way id="6244955" version="7" timestamp="2010-07-06T12:46:35Z" uid="42938" user="Xanadu" changeset="5150257">
    <nd ref="71827605"/>
    <nd ref="248887482"/>
    <nd ref="52216161"/>
    <nd ref="52216073"/>
    <nd ref="52216146"/>
    <nd ref="52216150"/>
    <tag k="highway" v="residential"/>
    <tag k="maxspeed" v="50"/>
    <tag k="name" v="Erich-Weinert-Siedlung"/>
  </way>
  <way id="6244955" version="8" timestamp="2011-02-06T13:01:56Z" uid="115651" user="Konrad Aust" changeset="7203243"/>
</osm>
