<?xml version='1.0' encoding='UTF-8'?>
<osm version="0.6" generator="libosmium/2.20.0">
  <way id="62608110" version="1" timestamp="2010-06-22T01:20:02Z" uid="4467" user="Rosscoe" changeset="5047863">
    <nd ref="780782197"/>
    <nd ref="780799516"/>
    <nd ref="780799558"/>
    <nd ref="780799430"/>
    <nd ref="780799547"/>
    <nd ref="780799617"/>
    <nd ref="780799476"/>
    <nd ref="275335805"/>
    <tag k="highway" v="secondary"/>
    <tag k="name" v="North Beach Road"/>
    <tag k="oneway" v="yes"/>
    <tag k="ref" v="S77"/>
    <tag k="source" v="nearmap"/>
  </way>
  <way id="62608120" version="1" timestamp="2010-06-22T01:20:04Z" uid="4467" user="Rosscoe" changeset="5047863">
    <nd ref="275335805"/>
    <nd ref="30976040"/>
    <nd ref="780799446"/>
    <nd ref="281218607"/>
    <nd ref="281218592"/>
    <nd ref="598232965"/>
    <nd ref="281221526"/>
    <nd ref="281220946"/>
    <nd ref="780782094"/>
    <nd ref="780782116"/>
    <nd ref="780782155"/>
    <nd ref="439224125"/>
    <tag k="highway" v="secondary"/>
    <tag k="name" v="North Beach Road"/>
    <tag k="oneway" v="yes"/>
    <tag k="ref" v="S77"/>
    <tag k="source" v="nearmap"/>
  </way>
  <way id="62608135" version="1" timestamp="2010-06-22T01:20:06Z" uid="4467" user="Rosscoe" changeset="5047863">
    <nd ref="780799618"/>
    <nd ref="30976037"/>
    <nd ref="275335799"/>
    <nd ref="275335800"/>
    <nd ref="30976038"/>
    <nd ref="275335801"/>
    <nd ref="275335802"/>
    <nd ref="30976039"/>
    <nd ref="275335804"/>
    <nd ref="275335805"/>
    <tag k="highway" v="secondary"/>
    <tag k="name" v="North Beach Road"/>
    <tag k="oneway" v="yes"/>
    <tag k="ref" v="S77"/>
    <tag k="source" v="nearmap"/>
  </way>
</osm>
