<?xml version='1.0' encoding='UTF-8'?>
<osm version="0.6" generator="libosmium/2.20.0">
  <way id="63195007" version="1" timestamp="2010-06-23T15:36:26Z" uid="43967" user="railsnail" changeset="5059577">
    <nd ref="280748475"/>
    <nd ref="410078184"/>
    <nd ref="546122454"/>
    <nd ref="541639711"/>
    <nd ref="31238826"/>
    <tag k="highway" v="primary"/>
    <tag k="name" v="Glocknerstraße"/>
    <tag k="ref" v="B107a"/>
  </way>
  <way id="63195007" version="2" timestamp="2010-06-23T15:46:54Z" uid="43967" user="railsnail" changeset="5059577">
    <nd ref="280748475"/>
    <nd ref="784505619"/>
    <tag k="bridge" v="yes"/>
    <tag k="highway" v="primary"/>
    <tag k="name" v="Glocknerstraße"/>
    <tag k="ref" v="B107a"/>
  </way>
  <way id="63195007" version="3" timestamp="2012-02-08T22:19:48Z" uid="45481" user="borisC" changeset="10629440"/>
  <way id="63195100" version="1" timestamp="2010-06-23T15:36:33Z" uid="43967" user="railsnail" changeset="5059577">
    <nd ref="784505619"/>
    <nd ref="410078184"/>
    <nd ref="546122454"/>
    <nd ref="541639711"/>
    <nd ref="31238826"/>
    <tag k="highway" v="primary"/>
    <tag k="name" v="Glocknerstraße"/>
    <tag k="ref" v="B107a"/>
  </way>
  <way id="63195100" version="2" timestamp="2012-02-08T22:19:48Z" uid="45481" user="borisC" changeset="10629440"/>
</osm>
