<?xml version='1.0' encoding='UTF-8'?>
<osm version="0.6" generator="libosmium/2.20.0">
  <way id="63724820" version="1" timestamp="2010-06-24T19:05:46Z" uid="33382" user="de_muur" changeset="5068477">
    <nd ref="699053244"/>
    <nd ref="699053241"/>
    <nd ref="699053242"/>
    <nd ref="715582532"/>
    <tag k="access" v="forestry"/>
    <tag k="highway" v="track"/>
    <tag k="motorcar" v="no"/>
    <tag k="motorcycle" v="no"/>
    <tag k="surface" v="sand"/>
    <tag k="tracktype" v="grade3"/>
    <tag k="width" v="3,0"/>
  </way>
  <way id="63724823" version="1" timestamp="2010-06-24T19:05:47Z" uid="33382" user="de_muur" changeset="5068477">
    <nd ref="309678153"/>
    <nd ref="788010554"/>
    <nd ref="309678154"/>
    <nd ref="309678155"/>
    <nd ref="309678156"/>
    <nd ref="309678157"/>
    <nd ref="309678158"/>
    <nd ref="309678159"/>
    <nd ref="309678160"/>
    <nd ref="309678161"/>
    <nd ref="309678162"/>
    <nd ref="496199432"/>
    <nd ref="309678163"/>
    <nd ref="496199434"/>
    <tag k="highway" v="tertiary"/>
    <tag k="name" v="Langenlehster Straße"/>
    <tag k="ref" v="K 28"/>
    <tag k="surface" v="asphalt"/>
  </way>
  <way id="63724823" version="2" timestamp="2010-07-09T20:40:45Z" uid="33382" user="de_muur" changeset="5176909">
    <nd ref="309678153"/>
    <nd ref="788010554"/>
    <tag k="highway" v="tertiary"/>
    <tag k="name" v="Langenlehster Straße"/>
    <tag k="ref" v="K 28"/>
    <tag k="surface" v="asphalt"/>
  </way>
  <way id="63724823" version="3" timestamp="2010-09-12T14:58:28Z" uid="245788" user="boehring" changeset="5760307">
    <nd ref="309678153"/>
    <nd ref="908499252"/>
    <nd ref="788010554"/>
    <tag k="highway" v="tertiary"/>
    <tag k="name" v="Langenlehster Straße"/>
    <tag k="ref" v="K 28"/>
    <tag k="surface" v="asphalt"/>
  </way>
  <way id="63724826" version="1" timestamp="2010-06-24T19:05:47Z" uid="33382" user="de_muur" changeset="5068477">
    <nd ref="699053244"/>
    <nd ref="788010507"/>
    <tag k="highway" v="track"/>
    <tag k="note" v="to be continued"/>
    <tag k="surface" v="unpaved"/>
  </way>
  <way id="63724827" version="1" timestamp="2010-06-24T19:05:47Z" uid="33382" user="de_muur" changeset="5068477">
    <nd ref="788010522"/>
    <nd ref="788010525"/>
    <nd ref="788010528"/>
    <nd ref="788010534"/>
    <nd ref="788010539"/>
    <nd ref="788010548"/>
    <nd ref="788010554"/>
    <tag k="highway" v="track"/>
    <tag k="surface" v="unpaved"/>
    <tag k="tracktype" v="grade3"/>
  </way>
  <way id="63724829" version="1" timestamp="2010-06-24T19:05:47Z" uid="33382" user="de_muur" changeset="5068477">
    <nd ref="788010522"/>
    <nd ref="788010544"/>
    <tag k="highway" v="track"/>
    <tag k="surface" v="unpaved"/>
    <tag k="tracktype" v="grade3"/>
  </way>
  <way id="63724831" version="1" timestamp="2010-06-24T19:05:47Z" uid="33382" user="de_muur" changeset="5068477">
    <nd ref="699053244"/>
    <nd ref="788010512"/>
    <tag k="highway" v="track"/>
    <tag k="surface" v="unpaved"/>
    <tag k="tracktype" v="grade3"/>
  </way>
  <way id="63724832" version="1" timestamp="2010-06-24T19:05:47Z" uid="33382" user="de_muur" changeset="5068477">
    <nd ref="788010512"/>
    <nd ref="788010515"/>
    <nd ref="788010518"/>
    <nd ref="788010522"/>
    <tag k="highway" v="track"/>
    <tag k="surface" v="unpaved"/>
    <tag k="tracktype" v="grade4"/>
  </way>
  <way id="63724834" version="1" timestamp="2010-06-24T19:05:47Z" uid="33382" user="de_muur" changeset="5068477">
    <nd ref="788010503"/>
    <nd ref="309678152"/>
    <nd ref="788010558"/>
    <nd ref="309678153"/>
    <tag k="highway" v="tertiary"/>
    <tag k="maxspeed" v="50"/>
    <tag k="name" v="Langenlehster Straße"/>
    <tag k="ref" v="K 28"/>
    <tag k="surface" v="asphalt"/>
  </way>
</osm>
