<?xml version='1.0' encoding='UTF-8'?>
<osm version="0.6" generator="libosmium/2.20.0">
  <way id="63746808" version="2" timestamp="2011-01-14T21:50:14Z" uid="27600" user="Islanit" changeset="6971815">
    <nd ref="288589557"/>
    <nd ref="288589558"/>
    <nd ref="1103867990"/>
    <nd ref="1103867991"/>
    <tag k="highway" v="footway"/>
    <tag k="name" v="Hans-Ulrich-Höller-Weg"/>
    <tag k="tracktype" v="grade2"/>
  </way>
  <way id="63746808" version="3" timestamp="2011-01-14T21:51:25Z" uid="27600" user="Islanit" changeset="6971815">
    <nd ref="288589557"/>
    <nd ref="288589558"/>
    <nd ref="1103867396"/>
    <tag k="highway" v="footway"/>
    <tag k="name" v="Hans-Ulrich-Höller-Weg"/>
    <tag k="tracktype" v="grade2"/>
  </way>
  <way id="63746808" version="4" timestamp="2012-03-05T18:22:14Z" uid="63375" user="Divjo" changeset="10882411">
    <nd ref="288589557"/>
    <nd ref="288589558"/>
    <nd ref="1660984474"/>
    <tag k="highway" v="footway"/>
    <tag k="name" v="Hans-Ulrich-Höller-Weg"/>
    <tag k="tracktype" v="grade2"/>
  </way>
</osm>
