<?xml version='1.0' encoding='UTF-8'?>
<osm version="0.6" generator="libosmium/2.20.0">
  <way id="64226336" version="1" timestamp="2010-06-26T14:15:17Z" uid="4467" user="Rosscoe" changeset="5081355">
    <nd ref="594574285"/>
    <nd ref="594574287"/>
    <nd ref="594574290"/>
    <tag k="highway" v="trunk_link"/>
    <tag k="oneway" v="yes"/>
  </way>
  <way id="64226337" version="1" timestamp="2010-06-26T14:15:18Z" uid="4467" user="Rosscoe" changeset="5081355">
    <nd ref="29191847"/>
    <nd ref="271291454"/>
    <nd ref="902651"/>
    <tag k="highway" v="primary"/>
    <tag k="name" v="Centre Road"/>
    <tag k="oneway" v="yes"/>
    <tag k="ref" v="S16"/>
  </way>
  <way id="64226337" version="2" timestamp="2010-06-27T13:27:17Z" uid="79475" user="AlexOnTheBus" changeset="5089424">
    <nd ref="29191847"/>
    <nd ref="271291454"/>
    <nd ref="902651"/>
    <tag k="highway" v="trunk"/>
    <tag k="oneway" v="yes"/>
    <tag k="ref" v="S 16"/>
  </way>
  <way id="64226337" version="3" timestamp="2011-08-10T14:02:15Z" uid="11111" user="melb_guy" changeset="8976847">
    <nd ref="29191847"/>
    <nd ref="1393751107"/>
    <nd ref="902651"/>
    <tag k="highway" v="trunk"/>
    <tag k="oneway" v="yes"/>
    <tag k="ref" v="S 16"/>
  </way>
  <way id="64226338" version="1" timestamp="2010-06-26T14:15:19Z" uid="4467" user="Rosscoe" changeset="5081355">
    <nd ref="902651"/>
    <nd ref="271291455"/>
    <tag k="highway" v="primary"/>
    <tag k="name" v="Centre Road"/>
    <tag k="oneway" v="yes"/>
    <tag k="ref" v="S16"/>
  </way>
  <way id="64226338" version="2" timestamp="2010-06-27T13:27:01Z" uid="79475" user="AlexOnTheBus" changeset="5089424">
    <nd ref="902651"/>
    <nd ref="271291455"/>
    <tag k="highway" v="trunk"/>
    <tag k="name" v="Centre Road"/>
    <tag k="oneway" v="yes"/>
    <tag k="ref" v="S 16"/>
  </way>
  <way id="64226338" version="3" timestamp="2010-06-27T13:27:09Z" uid="79475" user="AlexOnTheBus" changeset="5089424">
    <nd ref="902651"/>
    <nd ref="271291455"/>
    <tag k="highway" v="trunk"/>
    <tag k="oneway" v="yes"/>
    <tag k="ref" v="S 16"/>
  </way>
  <way id="64226339" version="1" timestamp="2010-06-26T14:15:21Z" uid="4467" user="Rosscoe" changeset="5081355">
    <nd ref="271291455"/>
    <nd ref="271291456"/>
    <nd ref="271291457"/>
    <nd ref="271291719"/>
    <nd ref="271291458"/>
    <nd ref="271291460"/>
    <nd ref="27605798"/>
    <tag k="highway" v="primary"/>
    <tag k="name" v="Police Road"/>
    <tag k="oneway" v="yes"/>
    <tag k="ref" v="S16"/>
  </way>
  <way id="64226339" version="2" timestamp="2010-06-27T13:26:32Z" uid="79475" user="AlexOnTheBus" changeset="5089424">
    <nd ref="271291455"/>
    <nd ref="271291456"/>
    <nd ref="271291457"/>
    <nd ref="271291719"/>
    <nd ref="271291458"/>
    <tag k="highway" v="primary"/>
    <tag k="name" v="Police Road"/>
    <tag k="oneway" v="yes"/>
    <tag k="ref" v="S16"/>
  </way>
  <way id="64226339" version="3" timestamp="2010-06-27T13:27:06Z" uid="79475" user="AlexOnTheBus" changeset="5089424">
    <nd ref="271291455"/>
    <nd ref="271291456"/>
    <nd ref="271291457"/>
    <nd ref="271291719"/>
    <nd ref="271291458"/>
    <tag k="highway" v="trunk"/>
    <tag k="name" v="Police Road"/>
    <tag k="oneway" v="yes"/>
    <tag k="ref" v="S 16"/>
  </way>
  <way id="64226339" version="4" timestamp="2011-08-10T14:02:16Z" uid="11111" user="melb_guy" changeset="8976847">
    <nd ref="271291455"/>
    <nd ref="1393751128"/>
    <nd ref="271291456"/>
    <nd ref="1393751115"/>
    <nd ref="271291457"/>
    <nd ref="1393751110"/>
    <nd ref="271291458"/>
    <tag k="highway" v="trunk"/>
    <tag k="name" v="Police Road"/>
    <tag k="oneway" v="yes"/>
    <tag k="ref" v="S 16"/>
  </way>
  <way id="64226340" version="1" timestamp="2010-06-26T14:15:22Z" uid="4467" user="Rosscoe" changeset="5081355">
    <nd ref="791178296"/>
    <nd ref="594574254"/>
    <tag k="highway" v="service"/>
    <tag k="service" v="parking_aisle"/>
  </way>
  <way id="64226651" version="2" timestamp="2010-07-09T05:28:37Z" uid="74617" user="JohnSmith" changeset="5170972">
    <nd ref="791189022"/>
    <nd ref="791189060"/>
    <tag k="highway" v="residential"/>
    <tag k="maxspeed" v="50"/>
    <tag k="maxspeed:source" v="default residential speed limit in Australia"/>
    <tag k="name" v="Moss Park Drive"/>
  </way>
  <way id="64226651" version="3" timestamp="2010-07-09T05:36:21Z" uid="74617" user="JohnSmith" changeset="5170972">
    <nd ref="791189022"/>
    <nd ref="791189060"/>
    <tag k="highway" v="residential"/>
    <tag k="maxspeed" v="50"/>
    <tag k="maxspeed:source" v="default residential speed limit in Australia"/>
    <tag k="name" v="Moss Park Drive"/>
  </way>
  <way id="64226651" version="4" timestamp="2012-01-20T10:41:43Z" uid="147510" user="woodpeck_fixbot" changeset="10443754">
    <nd ref="791189022"/>
    <nd ref="791189060"/>
    <tag k="highway" v="residential"/>
    <tag k="name" v="Moss Park Drive"/>
  </way>
  <way id="64226652" version="2" timestamp="2010-07-09T05:28:52Z" uid="74617" user="JohnSmith" changeset="5170972">
    <nd ref="791189067"/>
    <nd ref="791189069"/>
    <tag k="highway" v="residential"/>
    <tag k="maxspeed" v="50"/>
    <tag k="maxspeed:source" v="default residential speed limit in Australia"/>
    <tag k="name" v="Moss Park Drive"/>
  </way>
  <way id="64226652" version="3" timestamp="2010-07-09T05:36:32Z" uid="74617" user="JohnSmith" changeset="5170972">
    <nd ref="791189067"/>
    <nd ref="791189069"/>
    <tag k="highway" v="residential"/>
    <tag k="maxspeed" v="50"/>
    <tag k="maxspeed:source" v="default residential speed limit in Australia"/>
    <tag k="name" v="Moss Park Drive"/>
  </way>
  <way id="64226652" version="4" timestamp="2012-01-20T10:41:45Z" uid="147510" user="woodpeck_fixbot" changeset="10443754">
    <nd ref="791189067"/>
    <nd ref="791189069"/>
    <tag k="highway" v="residential"/>
    <tag k="name" v="Moss Park Drive"/>
  </way>
  <way id="64226653" version="2" timestamp="2010-07-09T05:31:17Z" uid="74617" user="JohnSmith" changeset="5170972">
    <nd ref="791189060"/>
    <nd ref="791189067"/>
    <tag k="bridge" v="yes"/>
    <tag k="highway" v="residential"/>
    <tag k="lanes" v="1"/>
    <tag k="level" v="1"/>
    <tag k="maxspeed" v="50"/>
    <tag k="maxspeed:source" v="default residential speed limit in Australia"/>
    <tag k="name" v="Moss Park Drive"/>
  </way>
  <way id="64226653" version="3" timestamp="2010-07-09T05:38:50Z" uid="74617" user="JohnSmith" changeset="5170972">
    <nd ref="791189060"/>
    <nd ref="791189067"/>
    <tag k="bridge" v="yes"/>
    <tag k="highway" v="residential"/>
    <tag k="lanes" v="1"/>
    <tag k="level" v="1"/>
    <tag k="maxspeed" v="50"/>
    <tag k="maxspeed:source" v="default residential speed limit in Australia"/>
    <tag k="name" v="Moss Park Drive"/>
  </way>
  <way id="64226653" version="4" timestamp="2010-07-25T22:00:56Z" uid="4467" user="Rosscoe" changeset="5317120">
    <nd ref="791189060"/>
    <nd ref="791189067"/>
    <tag k="bridge" v="yes"/>
    <tag k="highway" v="residential"/>
    <tag k="lanes" v="1"/>
    <tag k="layer" v="1"/>
    <tag k="maxspeed" v="50"/>
    <tag k="maxspeed:source" v="default residential speed limit in Australia"/>
    <tag k="name" v="Moss Park Drive"/>
  </way>
  <way id="64226653" version="5" timestamp="2012-01-20T10:41:46Z" uid="147510" user="woodpeck_fixbot" changeset="10443754">
    <nd ref="791189060"/>
    <nd ref="791189067"/>
    <tag k="bridge" v="yes"/>
    <tag k="highway" v="residential"/>
    <tag k="lanes" v="1"/>
    <tag k="layer" v="1"/>
    <tag k="name" v="Moss Park Drive"/>
  </way>
  <way id="64226756" version="2" timestamp="2010-07-09T05:32:08Z" uid="74617" user="JohnSmith" changeset="5170972">
    <nd ref="791195869"/>
    <nd ref="791195904"/>
    <tag k="highway" v="residential"/>
    <tag k="maxspeed" v="50"/>
    <tag k="maxspeed:source" v="default residential speed limit in Australia"/>
    <tag k="name" v="Abermere Avenue"/>
  </way>
  <way id="64226756" version="3" timestamp="2010-07-09T05:39:40Z" uid="74617" user="JohnSmith" changeset="5170972">
    <nd ref="791195869"/>
    <nd ref="791195904"/>
    <tag k="highway" v="residential"/>
    <tag k="maxspeed" v="50"/>
    <tag k="maxspeed:source" v="default residential speed limit in Australia"/>
    <tag k="name" v="Abermere Avenue"/>
  </way>
  <way id="64226756" version="4" timestamp="2012-01-20T10:41:48Z" uid="147510" user="woodpeck_fixbot" changeset="10443754">
    <nd ref="791195869"/>
    <nd ref="791195904"/>
    <tag k="highway" v="residential"/>
    <tag k="name" v="Abermere Avenue"/>
  </way>
  <way id="64226757" version="2" timestamp="2010-07-09T05:28:56Z" uid="74617" user="JohnSmith" changeset="5170972">
    <nd ref="241792484"/>
    <nd ref="791195909"/>
    <nd ref="791195910"/>
    <nd ref="791195911"/>
    <nd ref="791195912"/>
    <nd ref="791195913"/>
    <nd ref="791195914"/>
    <nd ref="791195909"/>
    <tag k="highway" v="residential"/>
    <tag k="maxspeed" v="50"/>
    <tag k="maxspeed:source" v="default residential speed limit in Australia"/>
    <tag k="name" v="Rosina Court"/>
  </way>
  <way id="64226757" version="3" timestamp="2010-07-09T05:36:36Z" uid="74617" user="JohnSmith" changeset="5170972">
    <nd ref="241792484"/>
    <nd ref="791195909"/>
    <nd ref="791195910"/>
    <nd ref="791195911"/>
    <nd ref="791195912"/>
    <nd ref="791195913"/>
    <nd ref="791195914"/>
    <nd ref="791195909"/>
    <tag k="highway" v="residential"/>
    <tag k="maxspeed" v="50"/>
    <tag k="maxspeed:source" v="default residential speed limit in Australia"/>
    <tag k="name" v="Rosina Court"/>
  </way>
  <way id="64226757" version="4" timestamp="2012-01-20T10:41:49Z" uid="147510" user="woodpeck_fixbot" changeset="10443754">
    <nd ref="241792484"/>
    <nd ref="791195909"/>
    <nd ref="791195910"/>
    <nd ref="791195911"/>
    <nd ref="791195912"/>
    <nd ref="791195913"/>
    <nd ref="791195914"/>
    <nd ref="791195909"/>
    <tag k="highway" v="residential"/>
    <tag k="name" v="Rosina Court"/>
  </way>
  <way id="64226759" version="2" timestamp="2010-07-09T05:27:59Z" uid="74617" user="JohnSmith" changeset="5170972">
    <nd ref="791195883"/>
    <nd ref="791195917"/>
    <tag k="highway" v="residential"/>
    <tag k="maxspeed" v="50"/>
    <tag k="maxspeed:source" v="default residential speed limit in Australia"/>
    <tag k="name" v="Una Street"/>
  </way>
  <way id="64226759" version="3" timestamp="2010-07-09T05:35:48Z" uid="74617" user="JohnSmith" changeset="5170972">
    <nd ref="791195883"/>
    <nd ref="791195917"/>
    <tag k="highway" v="residential"/>
    <tag k="maxspeed" v="50"/>
    <tag k="maxspeed:source" v="default residential speed limit in Australia"/>
    <tag k="name" v="Una Street"/>
  </way>
  <way id="64226759" version="4" timestamp="2012-01-20T10:41:52Z" uid="147510" user="woodpeck_fixbot" changeset="10443754">
    <nd ref="791195883"/>
    <nd ref="791195917"/>
    <tag k="highway" v="residential"/>
    <tag k="name" v="Una Street"/>
  </way>
</osm>
