<?xml version='1.0' encoding='UTF-8'?>
<osm version="0.6" generator="libosmium/2.20.0">
  <way id="64311718" version="1" timestamp="2010-06-26T21:24:37Z" uid="49111" user="Markus B" changeset="5084581">
    <nd ref="791811981"/>
    <nd ref="791811979"/>
    <nd ref="791811978"/>
    <nd ref="791811982"/>
    <nd ref="791811981"/>
    <tag k="amenity" v="biergarten"/>
    <tag k="smoking" v="yes"/>
  </way>
  <way id="64311718" version="2" timestamp="2011-10-23T21:07:33Z" uid="346758" user="kukuk" changeset="9638435"/>
  <way id="64311720" version="1" timestamp="2010-06-26T21:24:37Z" uid="49111" user="Markus B" changeset="5084581">
    <nd ref="791811984"/>
    <nd ref="791812008"/>
    <nd ref="791812009"/>
    <nd ref="791812007"/>
    <nd ref="791812011"/>
    <nd ref="791811999"/>
    <nd ref="791812000"/>
    <nd ref="791811984"/>
    <tag k="addr:city" v="Nürnberg"/>
    <tag k="addr:country" v="DE"/>
    <tag k="addr:housenumber" v="44"/>
    <tag k="addr:postcode" v="90489"/>
    <tag k="addr:street" v="Bauvereinstraße"/>
    <tag k="amenity" v="restaurant"/>
    <tag k="building" v="yes"/>
    <tag k="cuisine" v="italian"/>
    <tag k="name" v="Rossini"/>
    <tag k="opening_hours" v="Mo-Fr 11:00-23:00; Sa-So 17:00-23:00"/>
    <tag k="phone" v="+49-911-5974433"/>
    <tag k="smoking" v="no"/>
    <tag k="smoking:outside" v="yes"/>
  </way>
  <way id="64311720" version="2" timestamp="2010-07-07T21:55:17Z" uid="10712" user="Kraeml" changeset="5162315">
    <nd ref="791811984"/>
    <nd ref="791812008"/>
    <nd ref="791812009"/>
    <nd ref="791812007"/>
    <nd ref="791812011"/>
    <nd ref="791811999"/>
    <nd ref="791812000"/>
    <nd ref="791811984"/>
    <tag k="addr:city" v="Nürnberg"/>
    <tag k="addr:country" v="DE"/>
    <tag k="addr:housenumber" v="44"/>
    <tag k="addr:postcode" v="90489"/>
    <tag k="addr:street" v="Bauvereinstraße"/>
    <tag k="amenity" v="restaurant"/>
    <tag k="building" v="yes"/>
    <tag k="cuisine" v="italian"/>
    <tag k="email" v="rossini-nbg@t-online.de"/>
    <tag k="name" v="Rossini"/>
    <tag k="opening_hours" v="Mo-Fr 11:00-24:00; Sa-So 17:00-24:00"/>
    <tag k="phone" v="+49-911-5974433"/>
    <tag k="smoking" v="no"/>
    <tag k="smoking:outside" v="yes"/>
    <tag k="wheelchair" v="limited"/>
  </way>
  <way id="64311720" version="3" timestamp="2011-03-11T22:20:15Z" uid="89943" user="Bengatzer" changeset="7528179">
    <nd ref="791811984"/>
    <nd ref="791812008"/>
    <nd ref="791812009"/>
    <nd ref="791812007"/>
    <nd ref="791812011"/>
    <nd ref="791811999"/>
    <nd ref="791812000"/>
    <nd ref="791811984"/>
    <tag k="addr:city" v="Nürnberg"/>
    <tag k="addr:country" v="DE"/>
    <tag k="addr:housenumber" v="44"/>
    <tag k="addr:postcode" v="90489"/>
    <tag k="addr:street" v="Bauvereinstraße"/>
    <tag k="amenity" v="restaurant"/>
    <tag k="building" v="yes"/>
    <tag k="cuisine" v="italian"/>
    <tag k="email" v="rossini-nbg@t-online.de"/>
    <tag k="name" v="Rossini"/>
    <tag k="opening_hours" v="Mo-Fr 11:00-24:00; Sa-Su 17:00-24:00"/>
    <tag k="phone" v="+49-911-5974433"/>
    <tag k="smoking" v="no"/>
    <tag k="smoking:outside" v="yes"/>
    <tag k="wheelchair" v="limited"/>
  </way>
  <way id="64311720" version="4" timestamp="2011-11-21T21:49:54Z" uid="346758" user="kukuk" changeset="9902413"/>
  <way id="64311721" version="1" timestamp="2010-06-26T21:24:37Z" uid="49111" user="Markus B" changeset="5084581">
    <nd ref="791812013"/>
    <nd ref="791812010"/>
    <nd ref="791812012"/>
    <nd ref="791812014"/>
    <nd ref="791812013"/>
    <tag k="amenity" v="biergarten"/>
    <tag k="smoking" v="yes"/>
  </way>
  <way id="64311721" version="2" timestamp="2010-07-25T19:55:22Z" uid="71557" user="Taroc" changeset="5315977">
    <nd ref="791812011"/>
    <nd ref="791812007"/>
    <nd ref="791812009"/>
    <nd ref="791812014"/>
    <nd ref="791812011"/>
    <tag k="amenity" v="biergarten"/>
    <tag k="smoking" v="yes"/>
  </way>
  <way id="64311721" version="3" timestamp="2011-11-21T21:49:59Z" uid="346758" user="kukuk" changeset="9902413"/>
  <way id="64311722" version="1" timestamp="2010-06-26T21:24:37Z" uid="49111" user="Markus B" changeset="5084581">
    <nd ref="791811987"/>
    <nd ref="791811990"/>
    <nd ref="791812004"/>
    <nd ref="791812005"/>
    <nd ref="791811992"/>
    <nd ref="791811988"/>
    <nd ref="791811987"/>
    <tag k="amenity" v="parking"/>
  </way>
  <way id="64311722" version="2" timestamp="2010-07-25T19:55:19Z" uid="71557" user="Taroc" changeset="5315977">
    <nd ref="791811987"/>
    <nd ref="791811990"/>
    <nd ref="791812004"/>
    <nd ref="791812005"/>
    <nd ref="791811988"/>
    <nd ref="791811987"/>
    <tag k="amenity" v="parking"/>
  </way>
  <way id="64311722" version="3" timestamp="2011-10-22T19:53:44Z" uid="346758" user="kukuk" changeset="9627366">
    <nd ref="791811987"/>
    <nd ref="791812004"/>
    <nd ref="791812005"/>
    <nd ref="791811988"/>
    <nd ref="791811987"/>
    <tag k="amenity" v="parking"/>
  </way>
  <way id="64311724" version="1" timestamp="2010-06-26T21:24:37Z" uid="49111" user="Markus B" changeset="5084581">
    <nd ref="791811995"/>
    <nd ref="791811996"/>
    <nd ref="791811997"/>
    <nd ref="791811998"/>
    <nd ref="791811995"/>
    <tag k="amenity" v="biergarten"/>
    <tag k="smoking" v="yes"/>
  </way>
  <way id="64311724" version="2" timestamp="2010-07-07T19:20:33Z" uid="40851" user="gypakk" changeset="5161024"/>
  <way id="64311726" version="1" timestamp="2010-06-26T21:24:38Z" uid="49111" user="Markus B" changeset="5084581">
    <nd ref="791812027"/>
    <nd ref="791812026"/>
    <nd ref="791812025"/>
    <nd ref="791812028"/>
    <nd ref="791812027"/>
    <tag k="amenity" v="biergarten"/>
    <tag k="smoking" v="yes"/>
  </way>
  <way id="64311726" version="2" timestamp="2011-10-19T21:52:47Z" uid="346758" user="kukuk" changeset="9604350"/>
  <way id="64311727" version="1" timestamp="2010-06-26T21:24:38Z" uid="49111" user="Markus B" changeset="5084581">
    <nd ref="791812035"/>
    <nd ref="791812036"/>
    <nd ref="791812032"/>
    <nd ref="791812030"/>
    <nd ref="791812035"/>
    <tag k="amenity" v="biergarten"/>
    <tag k="smoking" v="yes"/>
  </way>
  <way id="64311729" version="1" timestamp="2010-06-26T21:24:38Z" uid="49111" user="Markus B" changeset="5084581">
    <nd ref="791812041"/>
    <nd ref="791812038"/>
    <nd ref="791812039"/>
    <nd ref="791812042"/>
    <nd ref="791812041"/>
    <tag k="amenity" v="biergarten"/>
    <tag k="smoking" v="yes"/>
  </way>
  <way id="64311729" version="2" timestamp="2010-08-07T09:56:26Z" uid="82877" user="Wankmann" changeset="5423223">
    <nd ref="791812041"/>
    <nd ref="848503673"/>
    <nd ref="848503666"/>
    <nd ref="791812038"/>
    <nd ref="791812039"/>
    <nd ref="791812042"/>
    <nd ref="791812041"/>
    <tag k="amenity" v="biergarten"/>
    <tag k="smoking" v="yes"/>
  </way>
</osm>
