<?xml version='1.0' encoding='UTF-8'?>
<osm version="0.6" generator="libosmium/2.20.0">
  <way id="64885346" version="2" timestamp="2010-07-09T07:00:02Z" uid="74617" user="JohnSmith" changeset="5171412">
    <nd ref="278482348"/>
    <nd ref="795298935"/>
    <nd ref="795298937"/>
    <nd ref="795298940"/>
    <nd ref="795298943"/>
    <nd ref="795298946"/>
    <tag k="highway" v="residential"/>
    <tag k="maxspeed" v="50"/>
    <tag k="maxspeed:source" v="default residential speed limit in Australia"/>
    <tag k="name" v="Salter Place"/>
  </way>
  <way id="64885346" version="3" timestamp="2012-01-20T10:46:10Z" uid="147510" user="woodpeck_fixbot" changeset="10443754">
    <nd ref="278482348"/>
    <nd ref="795298935"/>
    <nd ref="795298937"/>
    <nd ref="795298940"/>
    <nd ref="795298943"/>
    <nd ref="795298946"/>
    <tag k="highway" v="residential"/>
    <tag k="name" v="Salter Place"/>
  </way>
  <way id="64885879" version="2" timestamp="2010-07-09T07:01:06Z" uid="74617" user="JohnSmith" changeset="5171412">
    <nd ref="711583543"/>
    <nd ref="795305549"/>
    <tag k="highway" v="residential"/>
    <tag k="maxspeed" v="50"/>
    <tag k="maxspeed:source" v="default residential speed limit in Australia"/>
    <tag k="name" v="Eton Court"/>
  </way>
  <way id="64885879" version="3" timestamp="2012-01-20T10:46:11Z" uid="147510" user="woodpeck_fixbot" changeset="10443754">
    <nd ref="711583543"/>
    <nd ref="795305549"/>
    <tag k="highway" v="residential"/>
    <tag k="name" v="Eton Court"/>
  </way>
</osm>
