<?xml version='1.0' encoding='UTF-8'?>
<osm version="0.6" generator="libosmium/2.20.0">
  <way id="65443414" version="2" timestamp="2010-07-09T05:31:36Z" uid="74617" user="JohnSmith" changeset="5170972">
    <nd ref="799162450"/>
    <nd ref="799162453"/>
    <tag k="highway" v="residential"/>
    <tag k="maxspeed" v="50"/>
    <tag k="maxspeed:source" v="default residential speed limit in Australia"/>
    <tag k="name" v="Cane Street"/>
  </way>
  <way id="65443414" version="3" timestamp="2010-07-09T05:39:10Z" uid="74617" user="JohnSmith" changeset="5170972">
    <nd ref="799162450"/>
    <nd ref="799162453"/>
    <tag k="highway" v="residential"/>
    <tag k="maxspeed" v="50"/>
    <tag k="maxspeed:source" v="default residential speed limit in Australia"/>
    <tag k="name" v="Cane Street"/>
  </way>
  <way id="65443414" version="4" timestamp="2012-01-20T10:51:27Z" uid="147510" user="woodpeck_fixbot" changeset="10443754">
    <nd ref="799162450"/>
    <nd ref="799162453"/>
    <tag k="highway" v="residential"/>
    <tag k="name" v="Cane Street"/>
  </way>
  <way id="65443415" version="2" timestamp="2010-07-09T05:28:19Z" uid="74617" user="JohnSmith" changeset="5170972">
    <nd ref="799162453"/>
    <nd ref="799162461"/>
    <nd ref="799162463"/>
    <tag k="highway" v="residential"/>
    <tag k="maxspeed" v="50"/>
    <tag k="maxspeed:source" v="default residential speed limit in Australia"/>
    <tag k="name" v="Amelia Street"/>
  </way>
  <way id="65443415" version="3" timestamp="2010-07-09T05:36:04Z" uid="74617" user="JohnSmith" changeset="5170972">
    <nd ref="799162453"/>
    <nd ref="799162461"/>
    <nd ref="799162463"/>
    <tag k="highway" v="residential"/>
    <tag k="maxspeed" v="50"/>
    <tag k="maxspeed:source" v="default residential speed limit in Australia"/>
    <tag k="name" v="Amelia Street"/>
  </way>
  <way id="65443415" version="4" timestamp="2012-01-20T10:51:28Z" uid="147510" user="woodpeck_fixbot" changeset="10443754">
    <nd ref="799162453"/>
    <nd ref="799162461"/>
    <nd ref="799162463"/>
    <tag k="highway" v="residential"/>
    <tag k="name" v="Amelia Street"/>
  </way>
  <way id="65443416" version="2" timestamp="2010-07-09T05:32:53Z" uid="74617" user="JohnSmith" changeset="5170972">
    <nd ref="799162461"/>
    <nd ref="799162480"/>
    <tag k="highway" v="residential"/>
    <tag k="maxspeed" v="50"/>
    <tag k="maxspeed:source" v="default residential speed limit in Australia"/>
    <tag k="name" v="Hugos Lane"/>
    <tag k="oneway" v="yes"/>
  </way>
  <way id="65443416" version="3" timestamp="2010-07-09T05:40:20Z" uid="74617" user="JohnSmith" changeset="5170972">
    <nd ref="799162461"/>
    <nd ref="799162480"/>
    <tag k="highway" v="residential"/>
    <tag k="maxspeed" v="50"/>
    <tag k="maxspeed:source" v="default residential speed limit in Australia"/>
    <tag k="name" v="Hugos Lane"/>
    <tag k="oneway" v="yes"/>
  </way>
  <way id="65443416" version="4" timestamp="2012-01-20T10:51:30Z" uid="147510" user="woodpeck_fixbot" changeset="10443754">
    <nd ref="799162461"/>
    <nd ref="799162480"/>
    <tag k="highway" v="residential"/>
    <tag k="name" v="Hugos Lane"/>
    <tag k="oneway" v="yes"/>
  </way>
  <way id="65443418" version="2" timestamp="2010-07-09T05:32:04Z" uid="74617" user="JohnSmith" changeset="5170972">
    <nd ref="799162488"/>
    <nd ref="799162453"/>
    <tag k="highway" v="residential"/>
    <tag k="maxspeed" v="50"/>
    <tag k="maxspeed:source" v="default residential speed limit in Australia"/>
    <tag k="name" v="Cane Street"/>
    <tag k="oneway" v="yes"/>
  </way>
  <way id="65443418" version="3" timestamp="2010-07-09T05:39:37Z" uid="74617" user="JohnSmith" changeset="5170972">
    <nd ref="799162488"/>
    <nd ref="799162453"/>
    <tag k="highway" v="residential"/>
    <tag k="maxspeed" v="50"/>
    <tag k="maxspeed:source" v="default residential speed limit in Australia"/>
    <tag k="name" v="Cane Street"/>
    <tag k="oneway" v="yes"/>
  </way>
  <way id="65443418" version="4" timestamp="2012-01-20T10:51:31Z" uid="147510" user="woodpeck_fixbot" changeset="10443754">
    <nd ref="799162488"/>
    <nd ref="799162453"/>
    <tag k="highway" v="residential"/>
    <tag k="name" v="Cane Street"/>
    <tag k="oneway" v="yes"/>
  </way>
  <way id="65443428" version="2" timestamp="2010-07-09T05:28:37Z" uid="74617" user="JohnSmith" changeset="5170972">
    <nd ref="257846590"/>
    <nd ref="257846576"/>
    <nd ref="257846578"/>
    <nd ref="257846591"/>
    <nd ref="257846592"/>
    <tag k="highway" v="residential"/>
    <tag k="maxspeed" v="50"/>
    <tag k="maxspeed:source" v="default residential speed limit in Australia"/>
    <tag k="name" v="Shannuk Drive"/>
  </way>
  <way id="65443428" version="3" timestamp="2010-07-09T05:36:21Z" uid="74617" user="JohnSmith" changeset="5170972">
    <nd ref="257846590"/>
    <nd ref="257846576"/>
    <nd ref="257846578"/>
    <nd ref="257846591"/>
    <nd ref="257846592"/>
    <tag k="highway" v="residential"/>
    <tag k="maxspeed" v="50"/>
    <tag k="maxspeed:source" v="default residential speed limit in Australia"/>
    <tag k="name" v="Shannuk Drive"/>
  </way>
  <way id="65443428" version="4" timestamp="2012-01-20T10:51:32Z" uid="147510" user="woodpeck_fixbot" changeset="10443754">
    <nd ref="257846590"/>
    <nd ref="257846576"/>
    <nd ref="257846578"/>
    <nd ref="257846591"/>
    <nd ref="257846592"/>
    <tag k="highway" v="residential"/>
    <tag k="name" v="Shannuk Drive"/>
  </way>
  <way id="65443430" version="2" timestamp="2010-07-09T05:27:43Z" uid="74617" user="JohnSmith" changeset="5170972">
    <nd ref="799162591"/>
    <nd ref="799162595"/>
    <nd ref="799162600"/>
    <tag k="highway" v="residential"/>
    <tag k="maxspeed" v="50"/>
    <tag k="maxspeed:source" v="default residential speed limit in Australia"/>
    <tag k="name" v="Tennyson Court"/>
  </way>
  <way id="65443430" version="3" timestamp="2010-07-09T05:35:34Z" uid="74617" user="JohnSmith" changeset="5170972">
    <nd ref="799162591"/>
    <nd ref="799162595"/>
    <nd ref="799162600"/>
    <tag k="highway" v="residential"/>
    <tag k="maxspeed" v="50"/>
    <tag k="maxspeed:source" v="default residential speed limit in Australia"/>
    <tag k="name" v="Tennyson Court"/>
  </way>
  <way id="65443430" version="4" timestamp="2012-01-20T10:51:34Z" uid="147510" user="woodpeck_fixbot" changeset="10443754">
    <nd ref="799162591"/>
    <nd ref="799162595"/>
    <nd ref="799162600"/>
    <tag k="highway" v="residential"/>
    <tag k="name" v="Tennyson Court"/>
  </way>
  <way id="65443433" version="2" timestamp="2010-07-09T05:31:30Z" uid="74617" user="JohnSmith" changeset="5170972">
    <nd ref="298968629"/>
    <nd ref="799162629"/>
    <tag k="highway" v="residential"/>
    <tag k="maxspeed" v="50"/>
    <tag k="maxspeed:source" v="default residential speed limit in Australia"/>
    <tag k="name" v="Murchison Street"/>
  </way>
  <way id="65443433" version="3" timestamp="2010-07-09T05:39:04Z" uid="74617" user="JohnSmith" changeset="5170972">
    <nd ref="298968629"/>
    <nd ref="799162629"/>
    <tag k="highway" v="residential"/>
    <tag k="maxspeed" v="50"/>
    <tag k="maxspeed:source" v="default residential speed limit in Australia"/>
    <tag k="name" v="Murchison Street"/>
  </way>
  <way id="65443433" version="4" timestamp="2012-01-20T10:51:35Z" uid="147510" user="woodpeck_fixbot" changeset="10443754">
    <nd ref="298968629"/>
    <nd ref="799162629"/>
    <tag k="highway" v="residential"/>
    <tag k="name" v="Murchison Street"/>
  </way>
</osm>
