<?xml version='1.0' encoding='UTF-8'?>
<osm version="0.6" generator="libosmium/2.20.0">
  <way id="65504462" version="1" timestamp="2010-07-03T19:37:20Z" uid="6269" user="Mueck" changeset="5127108">
    <nd ref="14959797"/>
    <nd ref="25931403"/>
    <nd ref="25931402"/>
    <nd ref="26556866"/>
    <nd ref="25931404"/>
    <tag k="bicycle" v="yes"/>
    <tag k="foot" v="yes"/>
    <tag k="highway" v="track"/>
    <tag k="name" v="Karl-Knierer-Weg"/>
    <tag k="smoothness" v="intermediate"/>
    <tag k="surface" v="compacted"/>
    <tag k="tracktype" v="grade2"/>
  </way>
  <way id="65504462" version="2" timestamp="2012-03-23T14:17:05Z" uid="35468" user="Blunauer" changeset="11074355">
    <nd ref="1687241533"/>
    <nd ref="25931403"/>
    <nd ref="25931402"/>
    <nd ref="26556866"/>
    <nd ref="25931404"/>
    <tag k="bicycle" v="yes"/>
    <tag k="foot" v="yes"/>
    <tag k="highway" v="track"/>
    <tag k="name" v="Karl-Knierer-Weg"/>
    <tag k="smoothness" v="intermediate"/>
    <tag k="surface" v="compacted"/>
    <tag k="tracktype" v="grade2"/>
  </way>
  <way id="65504462" version="3" timestamp="2012-03-23T14:45:40Z" uid="35468" user="Blunauer" changeset="11074618">
    <nd ref="1687241533"/>
    <nd ref="1687287650"/>
    <nd ref="25931403"/>
    <nd ref="25931402"/>
    <nd ref="26556866"/>
    <nd ref="25931404"/>
    <tag k="bicycle" v="yes"/>
    <tag k="foot" v="yes"/>
    <tag k="highway" v="track"/>
    <tag k="name" v="Karl-Knierer-Weg"/>
    <tag k="smoothness" v="intermediate"/>
    <tag k="surface" v="compacted"/>
    <tag k="tracktype" v="grade2"/>
  </way>
  <way id="65504462" version="4" timestamp="2012-03-23T18:01:08Z" uid="35468" user="Blunauer" changeset="11076601"/>
  <way id="65504471" version="1" timestamp="2010-07-03T19:37:23Z" uid="6269" user="Mueck" changeset="5127108">
    <nd ref="14959797"/>
    <nd ref="25971889"/>
    <tag k="bicycle" v="yes"/>
    <tag k="foot" v="yes"/>
    <tag k="highway" v="service"/>
    <tag k="name" v="Linkenheimer Allee"/>
    <tag k="smoothness" v="good"/>
    <tag k="surface" v="asphalt"/>
  </way>
  <way id="65504471" version="2" timestamp="2011-05-13T12:58:04Z" uid="12837" user="flschm" changeset="8131436">
    <nd ref="14959797"/>
    <nd ref="1282737201"/>
    <nd ref="25971889"/>
    <tag k="bicycle" v="yes"/>
    <tag k="foot" v="yes"/>
    <tag k="highway" v="service"/>
    <tag k="name" v="Linkenheimer Allee"/>
    <tag k="smoothness" v="good"/>
    <tag k="surface" v="asphalt"/>
  </way>
  <way id="65504471" version="3" timestamp="2012-03-23T14:17:14Z" uid="35468" user="Blunauer" changeset="11074355">
    <nd ref="1687241533"/>
    <nd ref="1282737201"/>
    <nd ref="25971889"/>
    <tag k="bicycle" v="yes"/>
    <tag k="foot" v="yes"/>
    <tag k="highway" v="service"/>
    <tag k="name" v="Linkenheimer Allee"/>
    <tag k="smoothness" v="good"/>
    <tag k="surface" v="asphalt"/>
  </way>
  <way id="65504471" version="4" timestamp="2012-03-23T14:45:46Z" uid="35468" user="Blunauer" changeset="11074618">
    <nd ref="1687241533"/>
    <nd ref="1282737201"/>
    <nd ref="25971889"/>
    <tag k="bicycle" v="yes"/>
    <tag k="foot" v="yes"/>
    <tag k="highway" v="service"/>
    <tag k="name" v="Linkenheimer Allee"/>
    <tag k="smoothness" v="good"/>
    <tag k="surface" v="asphalt"/>
  </way>
  <way id="65504471" version="5" timestamp="2012-03-23T18:32:02Z" uid="35468" user="Blunauer" changeset="11076898">
    <nd ref="1687525005"/>
    <nd ref="1282737201"/>
    <nd ref="25971889"/>
    <tag k="bicycle" v="yes"/>
    <tag k="foot" v="yes"/>
    <tag k="highway" v="service"/>
    <tag k="name" v="Linkenheimer Allee"/>
    <tag k="smoothness" v="good"/>
    <tag k="surface" v="asphalt"/>
  </way>
  <way id="65504471" version="6" timestamp="2012-03-25T13:52:00Z" uid="35468" user="Blunauer" changeset="11095306">
    <nd ref="1690369642"/>
    <nd ref="1282737201"/>
    <nd ref="25971889"/>
    <tag k="bicycle" v="yes"/>
    <tag k="foot" v="yes"/>
    <tag k="highway" v="service"/>
    <tag k="name" v="Linkenheimer Allee"/>
    <tag k="smoothness" v="good"/>
    <tag k="surface" v="asphalt"/>
  </way>
  <way id="65504520" version="1" timestamp="2010-07-03T19:37:45Z" uid="6269" user="Mueck" changeset="5127108">
    <nd ref="17069121"/>
    <nd ref="381078695"/>
    <nd ref="25967655"/>
    <nd ref="14954528"/>
    <nd ref="258537317"/>
    <nd ref="14959797"/>
    <nd ref="25971889"/>
    <tag k="bicycle" v="yes"/>
    <tag k="foot" v="yes"/>
    <tag k="highway" v="service"/>
    <tag k="name" v="Linkenheimer Allee"/>
    <tag k="smoothness" v="good"/>
    <tag k="surface" v="asphalt"/>
  </way>
  <way id="65504520" version="2" timestamp="2010-07-06T11:48:11Z" uid="7471" user="Irrfahrt" changeset="5149811">
    <nd ref="17069121"/>
    <nd ref="381078695"/>
    <nd ref="25967655"/>
    <nd ref="14954528"/>
    <nd ref="258537317"/>
    <nd ref="14959797"/>
    <tag k="bicycle" v="yes"/>
    <tag k="foot" v="yes"/>
    <tag k="highway" v="service"/>
    <tag k="name" v="Linkenheimer Allee"/>
    <tag k="smoothness" v="good"/>
    <tag k="surface" v="asphalt"/>
  </way>
  <way id="65504520" version="3" timestamp="2012-03-23T14:17:15Z" uid="35468" user="Blunauer" changeset="11074355">
    <nd ref="17069121"/>
    <nd ref="381078695"/>
    <nd ref="1687241505"/>
    <nd ref="14954528"/>
    <nd ref="258537317"/>
    <nd ref="1687241533"/>
    <tag k="bicycle" v="yes"/>
    <tag k="foot" v="yes"/>
    <tag k="highway" v="service"/>
    <tag k="name" v="Linkenheimer Allee"/>
    <tag k="smoothness" v="good"/>
    <tag k="surface" v="asphalt"/>
  </way>
  <way id="65504520" version="4" timestamp="2012-03-23T14:45:46Z" uid="35468" user="Blunauer" changeset="11074618">
    <nd ref="17069121"/>
    <nd ref="381078695"/>
    <nd ref="1687241505"/>
    <nd ref="1687287622"/>
    <nd ref="14954528"/>
    <nd ref="258537317"/>
    <nd ref="1687241533"/>
    <tag k="bicycle" v="yes"/>
    <tag k="foot" v="yes"/>
    <tag k="highway" v="service"/>
    <tag k="name" v="Linkenheimer Allee"/>
    <tag k="smoothness" v="good"/>
    <tag k="source" v="LA-KA"/>
    <tag k="surface" v="asphalt"/>
  </way>
  <way id="65504520" version="5" timestamp="2012-03-23T18:00:59Z" uid="35468" user="Blunauer" changeset="11076601">
    <nd ref="17069121"/>
    <nd ref="381078695"/>
    <nd ref="1687241505"/>
    <nd ref="1687287622"/>
    <nd ref="14954528"/>
    <nd ref="258537317"/>
    <nd ref="1687241533"/>
    <tag k="bicycle" v="yes"/>
    <tag k="foot" v="yes"/>
    <tag k="highway" v="service"/>
    <tag k="name" v="Linkenheimer Allee"/>
    <tag k="smoothness" v="good"/>
    <tag k="source" v="LA-KA"/>
    <tag k="surface" v="asphalt"/>
  </way>
  <way id="65504520" version="6" timestamp="2012-03-23T18:32:03Z" uid="35468" user="Blunauer" changeset="11076898">
    <nd ref="17069121"/>
    <nd ref="381078695"/>
    <nd ref="1687241505"/>
    <nd ref="1687287622"/>
    <nd ref="14954528"/>
    <nd ref="258537317"/>
    <nd ref="1687525005"/>
    <tag k="bicycle" v="yes"/>
    <tag k="foot" v="yes"/>
    <tag k="highway" v="service"/>
    <tag k="name" v="Linkenheimer Allee"/>
    <tag k="smoothness" v="good"/>
    <tag k="source" v="LA-KA"/>
    <tag k="surface" v="asphalt"/>
  </way>
  <way id="65504520" version="7" timestamp="2012-03-25T13:52:02Z" uid="35468" user="Blunauer" changeset="11095306"/>
</osm>
