<?xml version='1.0' encoding='UTF-8'?>
<osm version="0.6" generator="libosmium/2.20.0">
  <way id="65592293" version="1" timestamp="2010-07-04T05:40:20Z" uid="64977" user="CLoeser" changeset="5129770">
    <nd ref="800023493"/>
    <nd ref="800023494"/>
    <tag k="name" v="Hollerwettern"/>
    <tag k="waterway" v="drain"/>
  </way>
  <way id="65592293" version="2" timestamp="2010-12-12T14:52:35Z" uid="66904" user="OSchlüter" changeset="6636966">
    <nd ref="800023493"/>
    <nd ref="800023494"/>
    <nd ref="1035752840"/>
    <tag k="name" v="Hollerwettern"/>
    <tag k="waterway" v="drain"/>
  </way>
  <way id="65592295" version="1" timestamp="2010-07-04T05:40:20Z" uid="64977" user="CLoeser" changeset="5129770">
    <nd ref="332532437"/>
    <nd ref="800023495"/>
    <nd ref="800023496"/>
    <nd ref="800023497"/>
    <nd ref="800023493"/>
    <tag k="name" v="Hollerwettern"/>
    <tag k="tunnel" v="yes"/>
    <tag k="waterway" v="drain"/>
  </way>
  <way id="65592295" version="2" timestamp="2010-12-12T14:52:51Z" uid="66904" user="OSchlüter" changeset="6636966">
    <nd ref="332532437"/>
    <nd ref="800023495"/>
    <nd ref="800023496"/>
    <nd ref="800023497"/>
    <nd ref="800023493"/>
    <tag k="layer" v="-1"/>
    <tag k="name" v="Hollerwettern"/>
    <tag k="tunnel" v="yes"/>
    <tag k="waterway" v="drain"/>
  </way>
  <way id="65592348" version="5" timestamp="2011-05-02T05:44:57Z" uid="4467" user="Rosscoe" changeset="8027811">
    <nd ref="799986610"/>
    <nd ref="799984849"/>
    <nd ref="799983817"/>
    <nd ref="799984505"/>
    <nd ref="799986478"/>
    <tag k="highway" v="track"/>
    <tag k="surface" v="unpaved"/>
  </way>
  <way id="65592572" version="2" timestamp="2011-02-12T09:08:47Z" uid="4467" user="Rosscoe" changeset="7262475">
    <nd ref="800027657"/>
    <nd ref="306328109"/>
    <tag k="highway" v="service"/>
  </way>
  <way id="65592827" version="2" timestamp="2010-11-25T20:28:58Z" uid="8619" user="cetest" changeset="6457388">
    <nd ref="90572108"/>
    <nd ref="90572103"/>
    <tag k="highway" v="cycleway"/>
    <tag k="name" v="Nassaukade"/>
  </way>
  <way id="65592827" version="3" timestamp="2012-01-11T09:15:05Z" uid="334075" user="eggie" changeset="10358722">
    <nd ref="90572108"/>
    <nd ref="90572103"/>
    <tag k="bicycle" v="designated"/>
    <tag k="highway" v="residential"/>
    <tag k="name" v="Nassaukade"/>
  </way>
  <way id="65592827" version="4" timestamp="2012-01-22T22:03:25Z" uid="242798" user="AnkEric" changeset="10470256"/>
</osm>
