<?xml version='1.0' encoding='UTF-8'?>
<osm version="0.6" generator="libosmium/2.20.0">
  <way id="6563064" version="2" timestamp="2008-05-04T15:04:24Z" uid="36809" user="pfoten_weg_!_" changeset="336054">
    <nd ref="53281768"/>
    <nd ref="53281901"/>
    <nd ref="53281902"/>
    <nd ref="53353677"/>
    <nd ref="53281903"/>
    <nd ref="53281905"/>
    <nd ref="53281906"/>
    <nd ref="53281907"/>
    <tag k="created_by" v="Potlatch 0.8c"/>
    <tag k="highway" v="residential"/>
  </way>
  <way id="6563064" version="3" timestamp="2008-05-04T15:04:31Z" uid="36809" user="pfoten_weg_!_" changeset="336054">
    <nd ref="53281768"/>
    <nd ref="53281901"/>
    <nd ref="53281902"/>
    <nd ref="53353677"/>
    <nd ref="53281903"/>
    <nd ref="53281905"/>
    <nd ref="53281906"/>
    <nd ref="53281907"/>
    <tag k="created_by" v="Potlatch 0.8c"/>
    <tag k="highway" v="residential"/>
  </way>
  <way id="6563064" version="4" timestamp="2008-05-04T15:04:51Z" uid="36809" user="pfoten_weg_!_" changeset="336054">
    <nd ref="53281768"/>
    <nd ref="53281901"/>
    <nd ref="53353677"/>
    <nd ref="53281903"/>
    <nd ref="53281907"/>
    <tag k="created_by" v="Potlatch 0.8c"/>
    <tag k="highway" v="residential"/>
  </way>
  <way id="6563064" version="5" timestamp="2008-05-04T16:01:30Z" uid="36809" user="pfoten_weg_!_" changeset="336054">
    <nd ref="53281768"/>
    <nd ref="53281901"/>
    <nd ref="53353677"/>
    <nd ref="53281903"/>
    <nd ref="53281907"/>
    <tag k="created_by" v="Potlatch 0.8c"/>
    <tag k="highway" v="residential"/>
  </way>
  <way id="6563064" version="6" timestamp="2008-05-04T16:08:15Z" uid="36809" user="pfoten_weg_!_" changeset="336054">
    <nd ref="53281768"/>
    <nd ref="53281901"/>
    <nd ref="53353677"/>
    <nd ref="53281903"/>
    <nd ref="53281907"/>
    <tag k="created_by" v="Potlatch 0.8c"/>
    <tag k="highway" v="residential"/>
    <tag k="name" v="Erlenstraße"/>
  </way>
  <way id="6563064" version="7" timestamp="2008-05-15T12:45:37Z" uid="36809" user="pfoten_weg_!_" changeset="450409">
    <nd ref="53281768"/>
    <nd ref="53281901"/>
    <nd ref="53353677"/>
    <nd ref="53281903"/>
    <nd ref="53281907"/>
    <tag k="created_by" v="Potlatch 0.9a"/>
    <tag k="highway" v="residential"/>
    <tag k="maxspeed" v="30"/>
    <tag k="name" v="Erlenstraße"/>
  </way>
  <way id="6563064" version="8" timestamp="2008-06-06T22:14:20Z" uid="36809" user="pfoten_weg_!_" changeset="89399">
    <nd ref="53281768"/>
    <nd ref="53281901"/>
    <nd ref="53353677"/>
    <nd ref="53281903"/>
    <nd ref="53281907"/>
    <tag k="created_by" v="Potlatch 0.9c"/>
    <tag k="highway" v="residential"/>
    <tag k="maxspeed" v="30"/>
    <tag k="name" v="Erlenstraße"/>
  </way>
  <way id="6563064" version="9" timestamp="2008-07-13T00:23:13Z" uid="36809" user="pfoten_weg_!_" changeset="471902">
    <nd ref="53281768"/>
    <nd ref="53281901"/>
    <nd ref="53353677"/>
    <nd ref="53281903"/>
    <nd ref="53281907"/>
    <tag k="created_by" v="RambaZamba"/>
    <tag k="highway" v="residential"/>
    <tag k="maxspeed" v="30"/>
    <tag k="name" v="Erlenstraße"/>
  </way>
  <way id="6563064" version="10" timestamp="2008-08-16T14:41:06Z" uid="31231" user="Andre68" changeset="275838">
    <nd ref="53281768"/>
    <nd ref="53281901"/>
    <nd ref="53281903"/>
    <nd ref="53281907"/>
    <tag k="created_by" v="RambaZamba"/>
    <tag k="highway" v="residential"/>
    <tag k="maxspeed" v="30"/>
    <tag k="name" v="Erlenstraße"/>
  </way>
  <way id="6563064" version="11" timestamp="2008-08-18T12:10:46Z" uid="36809" user="pfoten_weg_!_" changeset="306127"/>
  <way id="6563233" version="2" timestamp="2008-05-04T15:04:39Z" uid="36809" user="pfoten_weg_!_" changeset="336054">
    <nd ref="53281901"/>
    <nd ref="53282208"/>
    <nd ref="53281960"/>
    <tag k="created_by" v="Potlatch 0.8c"/>
    <tag k="highway" v="residential"/>
  </way>
  <way id="6563233" version="3" timestamp="2008-05-04T16:09:05Z" uid="36809" user="pfoten_weg_!_" changeset="336054">
    <nd ref="53281901"/>
    <nd ref="53282208"/>
    <nd ref="53281960"/>
    <tag k="created_by" v="Potlatch 0.8c"/>
    <tag k="highway" v="residential"/>
    <tag k="name" v="Lerchenstraße"/>
  </way>
  <way id="6563233" version="4" timestamp="2008-06-06T22:14:15Z" uid="36809" user="pfoten_weg_!_" changeset="89399">
    <nd ref="53281901"/>
    <nd ref="53282208"/>
    <nd ref="53281960"/>
    <tag k="created_by" v="Potlatch 0.9c"/>
    <tag k="highway" v="residential"/>
    <tag k="name" v="Lerchenstraße"/>
  </way>
  <way id="6563233" version="5" timestamp="2008-07-13T00:23:24Z" uid="36809" user="pfoten_weg_!_" changeset="471902">
    <nd ref="53281901"/>
    <nd ref="53282208"/>
    <nd ref="53281960"/>
    <tag k="created_by" v="RambaZamba"/>
    <tag k="highway" v="residential"/>
    <tag k="name" v="Lerchenstraße"/>
  </way>
  <way id="6563233" version="6" timestamp="2008-08-16T14:38:27Z" uid="31231" user="Andre68" changeset="275838">
    <nd ref="53281901"/>
    <nd ref="53281960"/>
    <tag k="created_by" v="RambaZamba"/>
    <tag k="highway" v="residential"/>
    <tag k="name" v="Lerchenstraße"/>
  </way>
  <way id="6563233" version="7" timestamp="2008-08-18T12:09:52Z" uid="36809" user="pfoten_weg_!_" changeset="306127">
    <nd ref="53281901"/>
    <nd ref="53281960"/>
    <tag k="created_by" v="RambaZamba"/>
    <tag k="highway" v="residential"/>
    <tag k="name" v="Lerchenstraße"/>
  </way>
  <way id="6563233" version="8" timestamp="2008-09-13T00:28:45Z" uid="55961" user="rambazamba" changeset="625690">
    <nd ref="53281901"/>
    <nd ref="53281960"/>
    <tag k="created_by" v="RambaZamba"/>
    <tag k="highway" v="residential"/>
    <tag k="maxspeed" v="30"/>
    <tag k="name" v="Lerchenstraße"/>
  </way>
  <way id="6563233" version="9" timestamp="2008-09-22T01:05:35Z" uid="36809" user="pfoten_weg_!_" changeset="678890">
    <nd ref="53281901"/>
    <nd ref="53281960"/>
    <tag k="created_by" v="RambaZamba"/>
    <tag k="highway" v="residential"/>
    <tag k="maxspeed" v="30"/>
    <tag k="name" v="Lerchenstraße"/>
  </way>
  <way id="6563233" version="10" timestamp="2008-09-25T19:50:29Z" uid="36809" user="pfoten_weg_!_" changeset="696635">
    <nd ref="53281901"/>
    <nd ref="53281960"/>
    <tag k="created_by" v="RambaZamba"/>
    <tag k="highway" v="residential"/>
    <tag k="maxspeed" v="30"/>
    <tag k="name" v="Lerchenstraße"/>
    <tag k="source" v="survey"/>
  </way>
  <way id="6563233" version="11" timestamp="2008-10-01T02:08:09Z" uid="36809" user="pfoten_weg_!_" changeset="5644">
    <nd ref="53281901"/>
    <nd ref="53281960"/>
    <tag k="created_by" v="RambaZamba"/>
    <tag k="highway" v="residential"/>
    <tag k="maxspeed" v="30"/>
    <tag k="name" v="Lerchenstraße"/>
    <tag k="source" v="survey"/>
  </way>
  <way id="6563233" version="12" timestamp="2009-06-06T11:59:54Z" uid="36809" user="pfoten_weg_!_" changeset="1437402">
    <nd ref="53281901"/>
    <nd ref="413292073"/>
    <nd ref="53281960"/>
    <tag k="created_by" v="RambaZamba"/>
    <tag k="highway" v="residential"/>
    <tag k="maxspeed" v="30"/>
    <tag k="name" v="Lerchenstraße"/>
    <tag k="source" v="survey"/>
  </way>
  <way id="6563233" version="13" timestamp="2009-07-17T15:10:12Z" uid="36809" user="pfoten_weg_!_" changeset="1855298">
    <nd ref="53281901"/>
    <nd ref="413292073"/>
    <nd ref="53281960"/>
    <tag k="discovered_by" v="RambaZamba"/>
    <tag k="highway" v="residential"/>
    <tag k="maxspeed" v="30"/>
    <tag k="name" v="Lerchenstraße"/>
    <tag k="source" v="survey"/>
  </way>
  <way id="6563233" version="14" timestamp="2009-08-28T19:51:35Z" uid="156995" user="HampelZamba" changeset="2294580">
    <nd ref="53281901"/>
    <nd ref="413292073"/>
    <nd ref="53281960"/>
    <tag k="highway" v="residential"/>
    <tag k="maxspeed" v="30"/>
    <tag k="name" v="Lerchenstraße"/>
    <tag k="source" v="survey"/>
  </way>
  <way id="6563233" version="15" timestamp="2009-08-28T20:57:45Z" uid="36809" user="pfoten_weg_!_" changeset="2295155">
    <nd ref="53281901"/>
    <nd ref="413292073"/>
    <nd ref="53281960"/>
    <tag k="discovered_by" v="RambaZamba"/>
    <tag k="highway" v="residential"/>
    <tag k="maxspeed" v="30"/>
    <tag k="name" v="Lerchenstraße"/>
    <tag k="source" v="survey"/>
  </way>
  <way id="6563233" version="16" timestamp="2009-08-30T09:19:30Z" uid="156995" user="HampelZamba" changeset="2310659">
    <nd ref="53281901"/>
    <nd ref="413292073"/>
    <nd ref="53281960"/>
    <tag k="highway" v="residential"/>
    <tag k="maxspeed" v="30"/>
    <tag k="name" v="Lerchenstraße"/>
    <tag k="source" v="survey"/>
  </way>
  <way id="6563233" version="17" timestamp="2009-09-01T11:06:14Z" uid="36809" user="pfoten_weg_!_" changeset="2335754">
    <nd ref="53281901"/>
    <nd ref="413292073"/>
    <nd ref="53281960"/>
    <tag k="highway" v="residential"/>
    <tag k="maxspeed" v="30"/>
    <tag k="name" v="Lerchenstraße"/>
    <tag k="source" v="survey"/>
  </way>
  <way id="6563233" version="18" timestamp="2009-10-02T21:25:12Z" uid="86259" user="hasse_osm_korinthenkacker" changeset="2717728">
    <nd ref="53281901"/>
    <nd ref="413292073"/>
    <nd ref="53281960"/>
    <tag k="highway" v="residential"/>
    <tag k="maxspeed" v="30"/>
    <tag k="name" v="Lerchenstraße"/>
  </way>
  <way id="6563272" version="2" timestamp="2008-05-04T14:58:36Z" uid="36809" user="pfoten_weg_!_" changeset="336054">
    <nd ref="53282275"/>
    <nd ref="262149953"/>
    <tag k="created_by" v="Potlatch 0.8c"/>
    <tag k="highway" v="residential"/>
  </way>
  <way id="6563272" version="3" timestamp="2008-05-10T14:31:34Z" uid="36809" user="pfoten_weg_!_" changeset="394983">
    <nd ref="53282275"/>
    <nd ref="262149953"/>
    <tag k="created_by" v="Potlatch 0.9"/>
    <tag k="highway" v="living_street"/>
  </way>
  <way id="6563272" version="4" timestamp="2008-05-14T21:30:40Z" uid="36809" user="pfoten_weg_!_" changeset="449749">
    <nd ref="53282275"/>
    <nd ref="262149953"/>
    <tag k="created_by" v="Potlatch 0.9a"/>
    <tag k="highway" v="living_street"/>
    <tag k="name" v="Waldstraße"/>
  </way>
  <way id="6563272" version="5" timestamp="2008-07-13T00:23:28Z" uid="36809" user="pfoten_weg_!_" changeset="471902">
    <nd ref="53282275"/>
    <nd ref="262149953"/>
    <tag k="created_by" v="RambaZamba"/>
    <tag k="highway" v="living_street"/>
    <tag k="name" v="Waldstraße"/>
  </way>
  <way id="6563272" version="6" timestamp="2008-09-25T19:50:37Z" uid="36809" user="pfoten_weg_!_" changeset="696635">
    <nd ref="53282275"/>
    <nd ref="262149953"/>
    <tag k="created_by" v="RambaZamba"/>
    <tag k="highway" v="living_street"/>
    <tag k="name" v="Waldstraße"/>
    <tag k="source" v="survey"/>
  </way>
  <way id="6563272" version="7" timestamp="2008-10-01T02:09:31Z" uid="36809" user="pfoten_weg_!_" changeset="5644">
    <nd ref="53282275"/>
    <nd ref="262149953"/>
    <tag k="created_by" v="RambaZamba"/>
    <tag k="highway" v="living_street"/>
    <tag k="name" v="Waldstraße"/>
    <tag k="source" v="survey"/>
  </way>
  <way id="6563272" version="8" timestamp="2009-07-17T15:10:24Z" uid="36809" user="pfoten_weg_!_" changeset="1855298">
    <nd ref="53282275"/>
    <nd ref="262149953"/>
    <tag k="discovered_by" v="RambaZamba"/>
    <tag k="highway" v="living_street"/>
    <tag k="name" v="Waldstraße"/>
    <tag k="source" v="survey"/>
  </way>
  <way id="6563272" version="9" timestamp="2009-08-28T19:51:35Z" uid="156995" user="HampelZamba" changeset="2294580">
    <nd ref="53282275"/>
    <nd ref="262149953"/>
    <tag k="highway" v="living_street"/>
    <tag k="name" v="Waldstraße"/>
    <tag k="source" v="survey"/>
  </way>
  <way id="6563272" version="10" timestamp="2009-08-28T21:04:56Z" uid="36809" user="pfoten_weg_!_" changeset="2295155">
    <nd ref="53282275"/>
    <nd ref="262149953"/>
    <tag k="discovered_by" v="RambaZamba"/>
    <tag k="highway" v="living_street"/>
    <tag k="name" v="Waldstraße"/>
    <tag k="source" v="survey"/>
  </way>
  <way id="6563272" version="11" timestamp="2009-08-30T09:19:30Z" uid="156995" user="HampelZamba" changeset="2310659">
    <nd ref="53282275"/>
    <nd ref="262149953"/>
    <tag k="highway" v="living_street"/>
    <tag k="name" v="Waldstraße"/>
    <tag k="source" v="survey"/>
  </way>
  <way id="6563272" version="12" timestamp="2009-09-01T10:51:55Z" uid="36809" user="pfoten_weg_!_" changeset="2335754">
    <nd ref="53282275"/>
    <nd ref="262149953"/>
    <tag k="highway" v="living_street"/>
    <tag k="name" v="Waldstraße"/>
    <tag k="source" v="survey"/>
  </way>
  <way id="6563272" version="13" timestamp="2009-10-12T21:13:55Z" uid="36809" user="pfoten_weg_!_" changeset="2831027">
    <nd ref="53282275"/>
    <nd ref="262149953"/>
    <tag k="highway" v="living_street"/>
    <tag k="name" v="Waldstraße"/>
  </way>
  <way id="6563272" version="14" timestamp="2011-07-30T17:09:33Z" uid="42393" user="mawi42" changeset="8873919">
    <nd ref="53282275"/>
    <nd ref="1379007595"/>
    <nd ref="262149953"/>
    <tag k="highway" v="living_street"/>
    <tag k="name" v="Waldstraße"/>
  </way>
  <way id="6563567" version="2" timestamp="2008-05-04T14:45:01Z" uid="36809" user="pfoten_weg_!_" changeset="336054">
    <nd ref="53282997"/>
    <nd ref="53283001"/>
    <nd ref="53283004"/>
    <nd ref="53283006"/>
    <nd ref="53355553"/>
    <nd ref="53283009"/>
    <nd ref="53283010"/>
    <nd ref="53283012"/>
    <nd ref="53283014"/>
    <nd ref="53283016"/>
    <nd ref="53283017"/>
    <nd ref="53283019"/>
    <nd ref="53283134"/>
    <nd ref="53283137"/>
    <nd ref="53283138"/>
    <nd ref="53283139"/>
    <nd ref="53283033"/>
    <tag k="created_by" v="Potlatch 0.8c"/>
    <tag k="highway" v="unclassified"/>
    <tag k="name" v="Wolfratshausener Straße"/>
  </way>
  <way id="6563567" version="3" timestamp="2008-05-04T14:46:11Z" uid="36809" user="pfoten_weg_!_" changeset="336054">
    <nd ref="53282997"/>
    <nd ref="53283009"/>
    <nd ref="53283014"/>
    <nd ref="53283016"/>
    <nd ref="53283017"/>
    <nd ref="53283019"/>
    <nd ref="53283134"/>
    <nd ref="53283137"/>
    <nd ref="53283138"/>
    <nd ref="53283139"/>
    <nd ref="53283033"/>
    <tag k="created_by" v="Potlatch 0.8c"/>
    <tag k="highway" v="unclassified"/>
    <tag k="name" v="Wolfratshausener Straße"/>
  </way>
  <way id="6563567" version="4" timestamp="2008-05-04T14:46:28Z" uid="36809" user="pfoten_weg_!_" changeset="336054">
    <nd ref="53282997"/>
    <nd ref="53283009"/>
    <nd ref="53283014"/>
    <nd ref="53283016"/>
    <nd ref="53283017"/>
    <nd ref="53283134"/>
    <nd ref="53283138"/>
    <nd ref="53283139"/>
    <nd ref="53283033"/>
    <tag k="created_by" v="Potlatch 0.8c"/>
    <tag k="highway" v="unclassified"/>
    <tag k="name" v="Wolfratshausener Straße"/>
  </way>
  <way id="6563567" version="5" timestamp="2008-05-04T14:56:39Z" uid="36809" user="pfoten_weg_!_" changeset="336054"/>
</osm>
