<?xml version='1.0' encoding='UTF-8'?>
<osm version="0.6" generator="libosmium/2.20.0">
  <way id="65685048" version="2" timestamp="2010-12-10T18:56:04Z" uid="107674" user="GeoCounter" changeset="6608397"/>
  <way id="65685050" version="2" timestamp="2010-12-10T18:56:05Z" uid="107674" user="GeoCounter" changeset="6608397"/>
  <way id="65685053" version="2" timestamp="2010-12-10T18:56:04Z" uid="107674" user="GeoCounter" changeset="6608397"/>
  <way id="65685055" version="2" timestamp="2010-12-10T18:56:05Z" uid="107674" user="GeoCounter" changeset="6608397"/>
  <way id="65685058" version="2" timestamp="2010-12-10T18:56:05Z" uid="107674" user="GeoCounter" changeset="6608397"/>
  <way id="65685060" version="2" timestamp="2010-12-10T18:56:04Z" uid="107674" user="GeoCounter" changeset="6608397"/>
  <way id="65685061" version="2" timestamp="2010-12-10T18:56:04Z" uid="107674" user="GeoCounter" changeset="6608397"/>
  <way id="65685062" version="3" timestamp="2010-08-26T19:44:11Z" uid="107674" user="GeoCounter" changeset="5602076">
    <nd ref="800614089"/>
    <nd ref="800613956"/>
    <nd ref="800614031"/>
    <nd ref="800614154"/>
    <nd ref="800613894"/>
    <nd ref="800613997"/>
    <nd ref="800614081"/>
    <nd ref="800614187"/>
    <nd ref="800613937"/>
    <nd ref="800614020"/>
    <nd ref="800614126"/>
    <nd ref="800613888"/>
    <nd ref="800613950"/>
    <nd ref="800614077"/>
    <nd ref="800614146"/>
    <nd ref="800613972"/>
    <nd ref="800614071"/>
    <nd ref="800614162"/>
    <nd ref="800613904"/>
    <nd ref="800614009"/>
    <nd ref="800614089"/>
    <tag k="addr:city" v="Heusenstamm"/>
    <tag k="addr:country" v="DE"/>
    <tag k="addr:housenumber" v="8"/>
    <tag k="addr:postcode" v="63150"/>
    <tag k="addr:street" v="Schloßstraße"/>
    <tag k="amenity" v="place_of_worship"/>
    <tag k="building" v="yes"/>
    <tag k="contact:website" v="http://www.stcaecilia.de/"/>
    <tag k="denomination" v="catholic"/>
    <tag k="name" v="St. Cäcilia"/>
    <tag k="religion" v="christian"/>
    <tag k="service_times" v="Su 09:30+"/>
    <tag k="wikipedia:de" v="St. Cäcilia (Heusenstamm)"/>
  </way>
  <way id="65685062" version="4" timestamp="2010-12-14T18:13:57Z" uid="107674" user="GeoCounter" changeset="6660768">
    <nd ref="800614089"/>
    <nd ref="800613956"/>
    <nd ref="800614031"/>
    <nd ref="800614154"/>
    <nd ref="800613894"/>
    <nd ref="800613997"/>
    <nd ref="800614081"/>
    <nd ref="800614187"/>
    <nd ref="800613937"/>
    <nd ref="800614020"/>
    <nd ref="800614126"/>
    <nd ref="800613888"/>
    <nd ref="800613950"/>
    <nd ref="800614077"/>
    <nd ref="800614146"/>
    <nd ref="800613972"/>
    <nd ref="800614071"/>
    <nd ref="800614162"/>
    <nd ref="800613904"/>
    <nd ref="800614009"/>
    <nd ref="800614089"/>
    <tag k="addr:city" v="Heusenstamm"/>
    <tag k="addr:country" v="DE"/>
    <tag k="addr:housenumber" v="8"/>
    <tag k="addr:postcode" v="63150"/>
    <tag k="addr:street" v="Schloßstraße"/>
    <tag k="amenity" v="place_of_worship"/>
    <tag k="building" v="yes"/>
    <tag k="contact:website" v="http://www.stcaecilia.de/"/>
    <tag k="denomination" v="catholic"/>
    <tag k="name" v="St. Cäcilia"/>
    <tag k="religion" v="christian"/>
    <tag k="service_times" v="Su 09:30"/>
    <tag k="wikipedia:de" v="St. Cäcilia (Heusenstamm)"/>
  </way>
  <way id="65685062" version="5" timestamp="2010-12-14T22:19:30Z" uid="107674" user="GeoCounter" changeset="6663250">
    <nd ref="800614089"/>
    <nd ref="800613956"/>
    <nd ref="800614031"/>
    <nd ref="800614154"/>
    <nd ref="800613894"/>
    <nd ref="800613997"/>
    <nd ref="800614081"/>
    <nd ref="800614187"/>
    <nd ref="800613937"/>
    <nd ref="800614020"/>
    <nd ref="800614126"/>
    <nd ref="800613888"/>
    <nd ref="800613950"/>
    <nd ref="800614077"/>
    <nd ref="800614146"/>
    <nd ref="800613972"/>
    <nd ref="800614071"/>
    <nd ref="800614162"/>
    <nd ref="800613904"/>
    <nd ref="800614009"/>
    <nd ref="800614089"/>
    <tag k="addr:city" v="Heusenstamm"/>
    <tag k="addr:country" v="DE"/>
    <tag k="addr:housenumber" v="8"/>
    <tag k="addr:postcode" v="63150"/>
    <tag k="addr:street" v="Schloßstraße"/>
    <tag k="amenity" v="place_of_worship"/>
    <tag k="building" v="yes"/>
    <tag k="contact:website" v="http://www.stcaecilia.de/"/>
    <tag k="denomination" v="catholic"/>
    <tag k="name" v="St. Cäcilia"/>
    <tag k="religion" v="christian"/>
    <tag k="service_times" v="Tu 9:30 &quot;Hochamt&quot;, Su 09:00 &quot;Messe der Frauen und Mütter&quot;"/>
    <tag k="wikipedia:de" v="St. Cäcilia (Heusenstamm)"/>
  </way>
  <way id="65685062" version="6" timestamp="2012-01-03T12:10:57Z" uid="91490" user="Heinz_V" changeset="10280528">
    <nd ref="800614089"/>
    <nd ref="800613956"/>
    <nd ref="800614031"/>
    <nd ref="800614154"/>
    <nd ref="800613894"/>
    <nd ref="800613997"/>
    <nd ref="800614081"/>
    <nd ref="800614187"/>
    <nd ref="800613937"/>
    <nd ref="800614020"/>
    <nd ref="800614126"/>
    <nd ref="800613888"/>
    <nd ref="800613950"/>
    <nd ref="800614077"/>
    <nd ref="800614146"/>
    <nd ref="800613972"/>
    <nd ref="800614071"/>
    <nd ref="800614162"/>
    <nd ref="800613904"/>
    <nd ref="800614009"/>
    <nd ref="800614089"/>
    <tag k="addr:city" v="Heusenstamm"/>
    <tag k="addr:country" v="DE"/>
    <tag k="addr:housenumber" v="8"/>
    <tag k="addr:postcode" v="63150"/>
    <tag k="addr:street" v="Schloßstraße"/>
    <tag k="amenity" v="place_of_worship"/>
    <tag k="building" v="yes"/>
    <tag k="contact:website" v="http://www.stcaecilia.de/"/>
    <tag k="denomination" v="catholic"/>
    <tag k="name" v="St. Cäcilia"/>
    <tag k="odbl" v="clean"/>
    <tag k="religion" v="christian"/>
    <tag k="service_times" v="Tu 9:30 &quot;Hochamt&quot;, Su 09:00 &quot;Messe der Frauen und Mütter&quot;"/>
    <tag k="wikipedia:de" v="St. Cäcilia (Heusenstamm)"/>
  </way>
  <way id="65685979" version="2" timestamp="2010-12-05T18:02:18Z" uid="9581" user="Lobelt" changeset="6554270">
    <nd ref="430646053"/>
    <nd ref="800626537"/>
    <nd ref="800626541"/>
    <nd ref="800626591"/>
    <nd ref="800626600"/>
    <nd ref="800626539"/>
    <nd ref="800626585"/>
    <nd ref="800626603"/>
    <nd ref="800626546"/>
    <nd ref="1023240193"/>
    <tag k="foot" v="yes"/>
    <tag k="highway" v="path"/>
    <tag k="surface" v="ground"/>
  </way>
  <way id="65685979" version="3" timestamp="2011-10-04T15:40:16Z" uid="140064" user="debfreak" changeset="9470420"/>
</osm>
