<?xml version='1.0' encoding='UTF-8'?>
<osm version="0.6" generator="libosmium/2.20.0">
  <way id="6598483" version="6" timestamp="2008-05-12T01:36:27Z" uid="36809" user="pfoten_weg_!_" changeset="425442">
    <nd ref="32572743"/>
    <nd ref="53345234"/>
    <nd ref="53345237"/>
    <nd ref="53345238"/>
    <nd ref="263985381"/>
    <nd ref="53345239"/>
    <nd ref="53353910"/>
    <nd ref="53353912"/>
    <tag k="created_by" v="Potlatch 0.9a"/>
    <tag k="highway" v="residential"/>
    <tag k="name" v="Margaretenstraße"/>
  </way>
  <way id="6598483" version="7" timestamp="2008-05-12T01:36:32Z" uid="36809" user="pfoten_weg_!_" changeset="425442">
    <nd ref="32572743"/>
    <nd ref="53345234"/>
    <nd ref="53345238"/>
    <nd ref="263985381"/>
    <nd ref="53345239"/>
    <nd ref="53353910"/>
    <nd ref="53353912"/>
    <tag k="created_by" v="Potlatch 0.9a"/>
    <tag k="highway" v="residential"/>
    <tag k="name" v="Margaretenstraße"/>
  </way>
  <way id="6598483" version="8" timestamp="2008-05-29T18:49:23Z" uid="36809" user="pfoten_weg_!_" changeset="545847">
    <nd ref="32572743"/>
    <nd ref="53345234"/>
    <nd ref="53345238"/>
    <nd ref="263985381"/>
    <nd ref="53345239"/>
    <nd ref="53353910"/>
    <nd ref="53353912"/>
    <tag k="created_by" v="Potlatch 0.9c"/>
    <tag k="highway" v="residential"/>
    <tag k="name" v="Margaretenstraße"/>
  </way>
  <way id="6598483" version="9" timestamp="2008-06-06T22:17:01Z" uid="36809" user="pfoten_weg_!_" changeset="89399">
    <nd ref="32572743"/>
    <nd ref="53345234"/>
    <nd ref="53345238"/>
    <nd ref="263985381"/>
    <nd ref="53345239"/>
    <nd ref="53353910"/>
    <nd ref="53353912"/>
    <tag k="created_by" v="Potlatch 0.9c"/>
    <tag k="highway" v="residential"/>
    <tag k="name" v="Margaretenstraße"/>
  </way>
  <way id="6598483" version="10" timestamp="2008-08-16T14:38:24Z" uid="31231" user="Andre68" changeset="275838">
    <nd ref="32572743"/>
    <nd ref="53345234"/>
    <nd ref="53345239"/>
    <nd ref="53353910"/>
    <nd ref="53353912"/>
    <tag k="created_by" v="Potlatch 0.9c"/>
    <tag k="highway" v="residential"/>
    <tag k="name" v="Margaretenstraße"/>
  </way>
  <way id="6598483" version="11" timestamp="2008-08-18T12:08:33Z" uid="36809" user="pfoten_weg_!_" changeset="306127">
    <nd ref="32572743"/>
    <nd ref="53345234"/>
    <nd ref="53345239"/>
    <nd ref="53353910"/>
    <nd ref="53353912"/>
    <tag k="created_by" v="RambaZamba"/>
    <tag k="highway" v="residential"/>
    <tag k="name" v="Margaretenstraße"/>
  </way>
  <way id="6598483" version="12" timestamp="2008-08-27T23:52:50Z" uid="36809" user="pfoten_weg_!_" changeset="434049">
    <nd ref="32572743"/>
    <nd ref="53345234"/>
    <nd ref="53345239"/>
    <nd ref="53353910"/>
    <nd ref="291662063"/>
    <tag k="created_by" v="RambaZamba"/>
    <tag k="highway" v="residential"/>
    <tag k="name" v="Margaretenstraße"/>
  </way>
  <way id="6598483" version="13" timestamp="2008-08-28T09:51:44Z" uid="36809" user="pfoten_weg_!_" changeset="436157"/>
  <way id="6598920" version="2" timestamp="2008-05-04T15:08:34Z" uid="36809" user="pfoten_weg_!_" changeset="336054">
    <nd ref="53277061"/>
    <nd ref="53277062"/>
    <nd ref="53277063"/>
    <nd ref="53277064"/>
    <tag k="created_by" v="Potlatch 0.8c"/>
    <tag k="highway" v="residential"/>
  </way>
  <way id="6598920" version="3" timestamp="2008-05-04T15:08:46Z" uid="36809" user="pfoten_weg_!_" changeset="336054">
    <nd ref="53277061"/>
    <nd ref="53277062"/>
    <nd ref="53277063"/>
    <nd ref="53277064"/>
    <tag k="created_by" v="Potlatch 0.8c"/>
    <tag k="highway" v="residential"/>
  </way>
  <way id="6598920" version="4" timestamp="2008-05-04T16:30:25Z" uid="36809" user="pfoten_weg_!_" changeset="336054">
    <nd ref="53277061"/>
    <nd ref="53277062"/>
    <nd ref="53277063"/>
    <nd ref="53277064"/>
    <tag k="created_by" v="Potlatch 0.8c"/>
    <tag k="highway" v="residential"/>
    <tag k="name" v="Jakobusplatz"/>
  </way>
  <way id="6598920" version="5" timestamp="2008-05-12T01:00:20Z" uid="36809" user="pfoten_weg_!_" changeset="425442">
    <nd ref="53277061"/>
    <nd ref="53277062"/>
    <nd ref="53277063"/>
    <nd ref="53277064"/>
    <tag k="created_by" v="Potlatch 0.9a"/>
    <tag k="highway" v="residential"/>
    <tag k="name" v="Jakobusplatz"/>
  </way>
  <way id="6598920" version="6" timestamp="2008-07-13T00:23:21Z" uid="36809" user="pfoten_weg_!_" changeset="471902">
    <nd ref="53277061"/>
    <nd ref="53277062"/>
    <nd ref="53277063"/>
    <nd ref="53277064"/>
    <tag k="created_by" v="RambaZamba"/>
    <tag k="highway" v="residential"/>
    <tag k="name" v="Jakobusplatz"/>
  </way>
  <way id="6598920" version="7" timestamp="2008-08-16T14:38:56Z" uid="31231" user="Andre68" changeset="275838">
    <nd ref="53277061"/>
    <nd ref="53277064"/>
    <tag k="created_by" v="RambaZamba"/>
    <tag k="highway" v="residential"/>
    <tag k="name" v="Jakobusplatz"/>
  </way>
  <way id="6598920" version="8" timestamp="2008-08-18T12:10:43Z" uid="36809" user="pfoten_weg_!_" changeset="306127"/>
</osm>
