<?xml version='1.0' encoding='UTF-8'?>
<osm version="0.6" generator="libosmium/2.20.0">
  <way id="66065027" version="2" timestamp="2010-07-29T14:48:19Z" uid="33382" user="de_muur" changeset="5347369">
    <nd ref="802101840"/>
    <nd ref="384914100"/>
    <tag k="bridge" v="yes"/>
    <tag k="highway" v="residential"/>
    <tag k="layer" v="1"/>
    <tag k="name" v="Am Hexenberg"/>
    <tag k="surface" v="paved"/>
  </way>
  <way id="66065027" version="3" timestamp="2011-07-24T22:04:30Z" uid="45882" user="smarties" changeset="8821814">
    <nd ref="1373187689"/>
    <nd ref="384914100"/>
    <tag k="bridge" v="yes"/>
    <tag k="highway" v="residential"/>
    <tag k="layer" v="1"/>
    <tag k="name" v="Am Hexenberg"/>
    <tag k="surface" v="paved"/>
  </way>
  <way id="66065027" version="4" timestamp="2012-03-23T16:01:27Z" uid="45882" user="smarties" changeset="11075261"/>
  <way id="66065028" version="2" timestamp="2010-07-29T14:48:08Z" uid="33382" user="de_muur" changeset="5347369">
    <nd ref="384914100"/>
    <nd ref="272008992"/>
    <tag k="highway" v="residential"/>
    <tag k="name" v="Am Hexenberg"/>
    <tag k="surface" v="paved"/>
  </way>
  <way id="66065028" version="3" timestamp="2012-03-23T16:01:27Z" uid="45882" user="smarties" changeset="11075261"/>
</osm>
