<?xml version='1.0' encoding='UTF-8'?>
<osm version="0.6" generator="libosmium/2.20.0">
  <way id="66326599" version="1" timestamp="2010-07-06T16:21:29Z" uid="23543" user="jkjk" changeset="5151797">
    <nd ref="803957896"/>
    <nd ref="803957853"/>
    <nd ref="803957908"/>
    <nd ref="803957953"/>
    <tag k="highway" v="proposed"/>
    <tag k="proposed" v="primary"/>
    <tag k="ref" v="58"/>
  </way>
  <way id="66326599" version="2" timestamp="2012-03-17T12:38:27Z" uid="461574" user="Mar4s" changeset="11007532"/>
  <way id="66326601" version="1" timestamp="2010-07-06T16:21:29Z" uid="23543" user="jkjk" changeset="5151797">
    <nd ref="803957915"/>
    <nd ref="803957886"/>
    <tag k="highway" v="proposed"/>
    <tag k="proposed" v="primary"/>
    <tag k="ref" v="58"/>
  </way>
  <way id="66326601" version="2" timestamp="2012-03-17T12:38:27Z" uid="461574" user="Mar4s" changeset="11007532"/>
  <way id="66326602" version="1" timestamp="2010-07-06T16:21:29Z" uid="23543" user="jkjk" changeset="5151797">
    <nd ref="803957951"/>
    <nd ref="803957855"/>
    <tag k="highway" v="proposed"/>
    <tag k="layer" v="0"/>
    <tag k="proposed" v="primary"/>
    <tag k="ref" v="58"/>
    <tag k="tunnel" v="yes"/>
  </way>
  <way id="66326602" version="2" timestamp="2010-09-08T18:43:18Z" uid="3516" user="BiIbo" changeset="5718147">
    <nd ref="803957951"/>
    <nd ref="803957855"/>
    <tag k="highway" v="proposed"/>
    <tag k="layer" v="-1"/>
    <tag k="proposed" v="primary"/>
    <tag k="ref" v="58"/>
    <tag k="tunnel" v="yes"/>
  </way>
  <way id="66326602" version="3" timestamp="2012-01-06T20:32:15Z" uid="461574" user="Mar4s" changeset="10315624">
    <nd ref="803957951"/>
    <nd ref="1579991457"/>
    <tag k="highway" v="proposed"/>
    <tag k="layer" v="-1"/>
    <tag k="name" v="tunel Prchalov"/>
    <tag k="proposed" v="primary"/>
    <tag k="ref" v="58"/>
    <tag k="source" v="cuzk:km"/>
    <tag k="tunnel" v="yes"/>
  </way>
  <way id="66326602" version="4" timestamp="2012-03-17T12:38:23Z" uid="461574" user="Mar4s" changeset="11007532">
    <nd ref="1678200249"/>
    <nd ref="803957925"/>
    <tag k="bridge" v="yes"/>
    <tag k="highway" v="proposed"/>
    <tag k="layer" v="1"/>
    <tag k="name" v="Obchvat Skotnice"/>
    <tag k="proposed" v="primary"/>
    <tag k="ref" v="58"/>
    <tag k="source" v="cuzk:km"/>
    <tag k="tunnel" v="yes"/>
  </way>
  <way id="66326604" version="1" timestamp="2010-07-06T16:21:29Z" uid="23543" user="jkjk" changeset="5151797">
    <nd ref="329332967"/>
    <nd ref="803957889"/>
    <nd ref="803957948"/>
    <nd ref="803957917"/>
    <nd ref="803957865"/>
    <nd ref="803957906"/>
    <nd ref="803957851"/>
    <nd ref="803957882"/>
    <nd ref="803957939"/>
    <nd ref="803957859"/>
    <tag k="highway" v="residential"/>
  </way>
  <way id="66326604" version="2" timestamp="2012-03-17T12:38:27Z" uid="461574" user="Mar4s" changeset="11007532"/>
  <way id="66326605" version="1" timestamp="2010-07-06T16:21:30Z" uid="23543" user="jkjk" changeset="5151797">
    <nd ref="803957855"/>
    <nd ref="803957934"/>
    <nd ref="803957862"/>
    <nd ref="803957942"/>
    <nd ref="439015208"/>
    <tag k="highway" v="proposed"/>
    <tag k="proposed" v="primary"/>
    <tag k="ref" v="58"/>
  </way>
  <way id="66326605" version="2" timestamp="2011-07-15T19:12:58Z" uid="461574" user="Mar4s" changeset="8733899">
    <nd ref="803957855"/>
    <nd ref="803957934"/>
    <nd ref="1363009971"/>
    <nd ref="803957862"/>
    <nd ref="803957942"/>
    <nd ref="439015208"/>
    <tag k="highway" v="proposed"/>
    <tag k="proposed" v="primary"/>
    <tag k="ref" v="58"/>
  </way>
  <way id="66326605" version="3" timestamp="2011-11-24T08:36:52Z" uid="25867" user="adamos" changeset="9930769">
    <nd ref="803957855"/>
    <nd ref="803957934"/>
    <nd ref="1363009971"/>
    <nd ref="803957862"/>
    <nd ref="803957942"/>
    <nd ref="1515055010"/>
    <tag k="highway" v="proposed"/>
    <tag k="proposed" v="primary"/>
    <tag k="ref" v="58"/>
  </way>
  <way id="66326605" version="4" timestamp="2012-01-06T20:32:09Z" uid="461574" user="Mar4s" changeset="10315624">
    <nd ref="803957855"/>
    <nd ref="803957934"/>
    <nd ref="1363009971"/>
    <nd ref="803957862"/>
    <nd ref="803957942"/>
    <nd ref="1515055010"/>
    <nd ref="439015208"/>
    <tag k="highway" v="proposed"/>
    <tag k="name" v="Obchvat Skotnice"/>
    <tag k="proposed" v="primary"/>
    <tag k="ref" v="58"/>
    <tag k="source:position" v="cuzk:km"/>
  </way>
  <way id="66326605" version="5" timestamp="2012-03-17T12:38:26Z" uid="461574" user="Mar4s" changeset="11007532"/>
  <way id="66326607" version="1" timestamp="2010-07-06T16:21:30Z" uid="23543" user="jkjk" changeset="5151797">
    <nd ref="803957922"/>
    <nd ref="803957920"/>
    <nd ref="803957880"/>
    <nd ref="803957911"/>
    <nd ref="803957853"/>
    <nd ref="803957918"/>
    <nd ref="803957878"/>
    <nd ref="803957859"/>
    <tag k="highway" v="unclassified"/>
  </way>
  <way id="66326607" version="2" timestamp="2012-03-17T12:38:26Z" uid="461574" user="Mar4s" changeset="11007532"/>
  <way id="66326609" version="1" timestamp="2010-07-06T16:21:30Z" uid="23543" user="jkjk" changeset="5151797">
    <nd ref="803957886"/>
    <nd ref="803957925"/>
    <tag k="bridge" v="yes"/>
    <tag k="highway" v="proposed"/>
    <tag k="layer" v="1"/>
    <tag k="proposed" v="primary"/>
    <tag k="ref" v="58"/>
  </way>
  <way id="66326609" version="2" timestamp="2012-03-17T12:38:27Z" uid="461574" user="Mar4s" changeset="11007532"/>
  <way id="66326610" version="1" timestamp="2010-07-06T16:21:30Z" uid="23543" user="jkjk" changeset="5151797">
    <nd ref="803957925"/>
    <nd ref="803957877"/>
    <nd ref="803957945"/>
    <nd ref="803957937"/>
    <nd ref="803957893"/>
    <nd ref="803957951"/>
    <tag k="highway" v="proposed"/>
    <tag k="proposed" v="primary"/>
    <tag k="ref" v="58"/>
  </way>
  <way id="66326610" version="2" timestamp="2012-01-06T20:32:08Z" uid="461574" user="Mar4s" changeset="10315624">
    <nd ref="803957925"/>
    <nd ref="803957877"/>
    <nd ref="803957945"/>
    <nd ref="803957937"/>
    <nd ref="803957893"/>
    <nd ref="803957951"/>
    <tag k="highway" v="proposed"/>
    <tag k="name" v="Obchvat Skotnice"/>
    <tag k="proposed" v="primary"/>
    <tag k="ref" v="58"/>
  </way>
  <way id="66326610" version="3" timestamp="2012-03-17T12:38:26Z" uid="461574" user="Mar4s" changeset="11007532"/>
  <way id="66326613" version="1" timestamp="2010-07-06T16:21:30Z" uid="23543" user="jkjk" changeset="5151797">
    <nd ref="439015208"/>
    <nd ref="439015210"/>
    <nd ref="439015212"/>
    <nd ref="439015214"/>
    <nd ref="439015216"/>
    <nd ref="439015217"/>
    <nd ref="439015219"/>
    <nd ref="439015232"/>
    <nd ref="439015234"/>
    <nd ref="439015236"/>
    <nd ref="439015238"/>
    <nd ref="439015240"/>
    <nd ref="439015242"/>
    <nd ref="439015244"/>
    <nd ref="439015245"/>
    <nd ref="439015247"/>
    <nd ref="439015249"/>
    <nd ref="439015251"/>
    <nd ref="439015253"/>
    <nd ref="439015255"/>
    <nd ref="75034770"/>
    <tag k="construction" v="primary"/>
    <tag k="highway" v="construction"/>
    <tag k="ref" v="58"/>
  </way>
  <way id="66326613" version="2" timestamp="2011-07-15T19:13:00Z" uid="461574" user="Mar4s" changeset="8733899">
    <nd ref="439015208"/>
    <nd ref="1363009920"/>
    <tag k="bridge" v="yes"/>
    <tag k="construction" v="primary"/>
    <tag k="highway" v="construction"/>
    <tag k="layer" v="1"/>
    <tag k="ref" v="58"/>
  </way>
  <way id="66326613" version="3" timestamp="2011-11-24T08:36:52Z" uid="25867" user="adamos" changeset="9930769">
    <nd ref="439015208"/>
    <nd ref="1363009920"/>
    <tag k="bridge" v="yes"/>
    <tag k="highway" v="primary"/>
    <tag k="lanes" v="2"/>
    <tag k="layer" v="1"/>
    <tag k="ref" v="58"/>
    <tag k="source" v="HELP SERVICE - REMOTE SENSING spol. s r.o. http://www.bnhelp.cz"/>
  </way>
  <way id="66326613" version="4" timestamp="2012-01-06T20:32:19Z" uid="461574" user="Mar4s" changeset="10315624">
    <nd ref="439015208"/>
    <nd ref="1363009920"/>
    <tag k="bridge" v="yes"/>
    <tag k="highway" v="primary"/>
    <tag k="lanes" v="2"/>
    <tag k="layer" v="1"/>
    <tag k="ref" v="58"/>
    <tag k="source" v="HELP SERVICE - REMOTE SENSING spol. s r.o. http://www.bnhelp.cz"/>
    <tag k="source:position" v="cuzk:km"/>
  </way>
  <way id="66326613" version="5" timestamp="2012-02-07T16:45:25Z" uid="461574" user="Mar4s" changeset="10613850">
    <nd ref="439015208"/>
    <nd ref="1363009920"/>
    <tag k="bridge" v="yes"/>
    <tag k="highway" v="primary"/>
    <tag k="lanes" v="2"/>
    <tag k="layer" v="1"/>
    <tag k="motorroad" v="yes"/>
    <tag k="ref" v="58"/>
    <tag k="source" v="HELP SERVICE - REMOTE SENSING spol. s r.o. http://www.bnhelp.cz"/>
    <tag k="source:position" v="cuzk:km"/>
  </way>
  <way id="66326615" version="1" timestamp="2010-07-06T16:21:31Z" uid="23543" user="jkjk" changeset="5151797">
    <nd ref="803957953"/>
    <nd ref="803957915"/>
    <tag k="bridge" v="yes"/>
    <tag k="highway" v="proposed"/>
    <tag k="layer" v="1"/>
    <tag k="proposed" v="primary"/>
    <tag k="ref" v="58"/>
  </way>
  <way id="66326615" version="2" timestamp="2012-03-17T12:38:27Z" uid="461574" user="Mar4s" changeset="11007532"/>
  <way id="66326616" version="1" timestamp="2010-07-06T16:21:31Z" uid="23543" user="jkjk" changeset="5151797">
    <nd ref="803957850"/>
    <nd ref="803957896"/>
    <tag k="bridge" v="yes"/>
    <tag k="highway" v="proposed"/>
    <tag k="layer" v="1"/>
    <tag k="proposed" v="primary"/>
    <tag k="ref" v="58"/>
  </way>
  <way id="66326616" version="2" timestamp="2012-03-17T12:38:27Z" uid="461574" user="Mar4s" changeset="11007532"/>
</osm>
