<?xml version='1.0' encoding='UTF-8'?>
<osm version="0.6" generator="libosmium/2.20.0">
  <way id="66414702" version="1" timestamp="2010-07-07T02:16:34Z" uid="9477" user="NilbogAus" changeset="5155577">
    <nd ref="26391696"/>
    <nd ref="148807192"/>
    <nd ref="30959791"/>
    <nd ref="30959768"/>
    <tag k="highway" v="residential"/>
    <tag k="is_in" v="Hornsby, NSW, New South Wales, Australia"/>
    <tag k="name" v="Bridge Road"/>
    <tag k="source" v="survey"/>
  </way>
  <way id="66414702" version="2" timestamp="2010-07-08T00:02:16Z" uid="74617" user="JohnSmith" changeset="5162525">
    <nd ref="26391696"/>
    <nd ref="148807192"/>
    <nd ref="30959791"/>
    <nd ref="30959768"/>
    <tag k="highway" v="residential"/>
    <tag k="maxspeed" v="50"/>
    <tag k="maxspeed:source" v="default residential speed limit in Australia"/>
    <tag k="name" v="Bridge Road"/>
    <tag k="source" v="survey"/>
  </way>
  <way id="66414702" version="3" timestamp="2010-07-08T00:12:30Z" uid="74617" user="JohnSmith" changeset="5162525">
    <nd ref="26391696"/>
    <nd ref="148807192"/>
    <nd ref="30959791"/>
    <nd ref="30959768"/>
    <tag k="highway" v="residential"/>
    <tag k="maxspeed" v="50"/>
    <tag k="maxspeed:source" v="default residential speed limit in Australia"/>
    <tag k="name" v="Bridge Road"/>
    <tag k="source" v="survey"/>
  </way>
  <way id="66414702" version="4" timestamp="2012-01-20T10:57:57Z" uid="147510" user="woodpeck_fixbot" changeset="10445120">
    <nd ref="26391696"/>
    <nd ref="148807192"/>
    <nd ref="30959791"/>
    <nd ref="30959768"/>
    <tag k="highway" v="residential"/>
    <tag k="name" v="Bridge Road"/>
    <tag k="source" v="survey"/>
  </way>
</osm>
