<?xml version='1.0' encoding='UTF-8'?>
<osm version="0.6" generator="libosmium/2.20.0">
  <way id="66666418" version="2" timestamp="2011-02-27T21:27:36Z" uid="115477" user="wowik" changeset="7415650">
    <nd ref="806438908"/>
    <nd ref="1177967178"/>
    <nd ref="806438912"/>
    <tag k="highway" v="service"/>
    <tag k="living_street" v="yes"/>
  </way>
  <way id="66666421" version="4" timestamp="2011-02-25T08:57:28Z" uid="115477" user="wowik" changeset="7388402">
    <nd ref="806438941"/>
    <nd ref="806438945"/>
    <nd ref="806438948"/>
    <nd ref="806438950"/>
    <nd ref="806438941"/>
    <tag k="addr:housenumber" v="23 к2 с1"/>
    <tag k="addr:street" v="Пятницкое шоссе"/>
    <tag k="building" v="yes"/>
  </way>
  <way id="66666421" version="5" timestamp="2012-03-27T16:49:32Z" uid="481934" user="iWowik" changeset="11118068">
    <nd ref="806438941"/>
    <nd ref="806438945"/>
    <nd ref="806438948"/>
    <nd ref="806438950"/>
    <nd ref="806438941"/>
    <tag k="addr:city" v="Москва"/>
    <tag k="addr:country" v="RU"/>
    <tag k="addr:housenumber" v="23 к2 с1"/>
    <tag k="addr:street" v="Пятницкое шоссе"/>
    <tag k="building" v="yes"/>
  </way>
  <way id="66666425" version="3" timestamp="2011-02-27T21:27:32Z" uid="115477" user="wowik" changeset="7415650">
    <nd ref="1177967301"/>
    <nd ref="806440760"/>
    <nd ref="806438993"/>
    <nd ref="806438867"/>
    <tag k="highway" v="service"/>
    <tag k="living_street" v="yes"/>
  </way>
  <way id="66666426" version="3" timestamp="2011-02-25T08:55:46Z" uid="115477" user="wowik" changeset="7388402">
    <nd ref="806438867"/>
    <nd ref="1171822213"/>
    <nd ref="806440759"/>
    <nd ref="806438974"/>
    <tag k="foot" v="yes"/>
    <tag k="highway" v="footway"/>
  </way>
  <way id="66666762" version="2" timestamp="2011-02-25T08:56:40Z" uid="115477" user="wowik" changeset="7388402">
    <nd ref="1171828705"/>
    <nd ref="806441360"/>
    <nd ref="806441359"/>
    <nd ref="1171828539"/>
    <nd ref="1171826611"/>
    <tag k="foot" v="yes"/>
    <tag k="highway" v="footway"/>
  </way>
</osm>
