<?xml version='1.0' encoding='UTF-8'?>
<osm version="0.6" generator="libosmium/2.20.0">
  <way id="66692788" version="1" timestamp="2010-07-08T13:50:45Z" uid="7617" user="Franc" changeset="5166439">
    <nd ref="806619692"/>
    <nd ref="806619694"/>
    <nd ref="806619693"/>
    <nd ref="806619691"/>
    <nd ref="806619692"/>
    <tag k="leisure" v="pitch"/>
    <tag k="source" v="nearmap"/>
  </way>
  <way id="66692788" version="2" timestamp="2010-07-24T04:57:16Z" uid="7617" user="Franc" changeset="5300753">
    <nd ref="806619692"/>
    <nd ref="806619694"/>
    <nd ref="806619693"/>
    <nd ref="806619691"/>
    <nd ref="806619692"/>
    <tag k="leisure" v="pitch"/>
    <tag k="name" v="Davis Park"/>
    <tag k="source" v="nearmap"/>
  </way>
  <way id="66692790" version="1" timestamp="2010-07-08T13:50:45Z" uid="7617" user="Franc" changeset="5166439">
    <nd ref="806619671"/>
    <nd ref="806619679"/>
    <nd ref="806619680"/>
    <nd ref="806619681"/>
    <nd ref="806619682"/>
    <nd ref="799817661"/>
    <tag k="highway" v="residential"/>
    <tag k="source" v="nearmap"/>
  </way>
  <way id="66692790" version="2" timestamp="2010-07-14T12:12:43Z" uid="7617" user="Franc" changeset="5216369">
    <nd ref="806619671"/>
    <nd ref="806619679"/>
    <nd ref="806619680"/>
    <nd ref="806619681"/>
    <nd ref="806619682"/>
    <nd ref="799817661"/>
    <tag k="highway" v="residential"/>
    <tag k="name" v="Read Way"/>
    <tag k="source" v="survey"/>
  </way>
  <way id="66692791" version="1" timestamp="2010-07-08T13:50:45Z" uid="7617" user="Franc" changeset="5166439">
    <nd ref="806619686"/>
    <nd ref="806619687"/>
    <tag k="highway" v="residential"/>
    <tag k="source" v="nearmap"/>
  </way>
  <way id="66692791" version="2" timestamp="2010-07-14T12:12:43Z" uid="7617" user="Franc" changeset="5216369">
    <nd ref="806619686"/>
    <nd ref="806619687"/>
    <tag k="highway" v="residential"/>
    <tag k="name" v="Garling Way"/>
    <tag k="source" v="survey"/>
  </way>
  <way id="66692792" version="1" timestamp="2010-07-08T13:50:45Z" uid="7617" user="Franc" changeset="5166439">
    <nd ref="806619684"/>
    <nd ref="806619687"/>
    <nd ref="806619688"/>
    <nd ref="806619685"/>
    <nd ref="806619683"/>
    <nd ref="799817664"/>
    <tag k="highway" v="residential"/>
    <tag k="source" v="nearmap"/>
  </way>
  <way id="66692792" version="2" timestamp="2010-07-14T12:12:43Z" uid="7617" user="Franc" changeset="5216369">
    <nd ref="806619684"/>
    <nd ref="806619687"/>
    <nd ref="806619688"/>
    <nd ref="806619685"/>
    <nd ref="806619683"/>
    <nd ref="799817664"/>
    <tag k="highway" v="residential"/>
    <tag k="name" v="Garling Way"/>
    <tag k="source" v="survey"/>
  </way>
  <way id="66692794" version="1" timestamp="2010-07-08T13:50:46Z" uid="7617" user="Franc" changeset="5166439">
    <nd ref="806619672"/>
    <nd ref="806619673"/>
    <nd ref="806619674"/>
    <nd ref="806619675"/>
    <nd ref="806619676"/>
    <nd ref="806619677"/>
    <nd ref="799817645"/>
    <tag k="highway" v="residential"/>
    <tag k="source" v="nearmap"/>
  </way>
  <way id="66692794" version="2" timestamp="2010-07-14T12:12:43Z" uid="7617" user="Franc" changeset="5216369">
    <nd ref="806619672"/>
    <nd ref="806619673"/>
    <nd ref="806619674"/>
    <nd ref="806619675"/>
    <nd ref="806619676"/>
    <nd ref="806619677"/>
    <nd ref="799817645"/>
    <tag k="highway" v="residential"/>
    <tag k="name" v="Martens Way"/>
    <tag k="source" v="survey"/>
  </way>
  <way id="66692794" version="3" timestamp="2010-07-24T04:57:17Z" uid="7617" user="Franc" changeset="5300753">
    <nd ref="830870859"/>
    <nd ref="830870865"/>
    <nd ref="830870863"/>
    <nd ref="830870860"/>
    <nd ref="830870859"/>
    <nd ref="830870856"/>
    <nd ref="830870852"/>
    <nd ref="830870851"/>
    <nd ref="830870849"/>
    <nd ref="830870846"/>
    <nd ref="830870844"/>
    <nd ref="806619672"/>
    <nd ref="806619673"/>
    <nd ref="806619674"/>
    <nd ref="806619675"/>
    <nd ref="806619676"/>
    <nd ref="806619677"/>
    <nd ref="799817645"/>
    <tag k="highway" v="residential"/>
    <tag k="name" v="Martens Way"/>
    <tag k="source" v="survey"/>
  </way>
  <way id="66692796" version="1" timestamp="2010-07-08T13:50:46Z" uid="4467" user="Rosscoe" changeset="5166438">
    <nd ref="275600855"/>
    <nd ref="275600853"/>
    <tag k="highway" v="residential"/>
    <tag k="maxspeed" v="50"/>
    <tag k="name" v="Denham Avenue"/>
    <tag k="oneway" v="yes"/>
    <tag k="source" v="yahoo"/>
    <tag k="source:name" v="survey"/>
  </way>
  <way id="66692799" version="1" timestamp="2010-07-08T13:50:47Z" uid="4467" user="Rosscoe" changeset="5166438">
    <nd ref="369632667"/>
    <nd ref="369632668"/>
    <tag k="highway" v="service"/>
    <tag k="service" v="driveway"/>
  </way>
  <way id="66692799" version="2" timestamp="2010-08-11T09:53:00Z" uid="331504" user="normangerman" changeset="5459632"/>
  <way id="66692843" version="2" timestamp="2010-07-09T05:31:59Z" uid="74617" user="JohnSmith" changeset="5170972">
    <nd ref="806619727"/>
    <nd ref="806619728"/>
    <tag k="highway" v="residential"/>
    <tag k="maxspeed" v="50"/>
    <tag k="maxspeed:source" v="default residential speed limit in Australia"/>
    <tag k="name" v="Charleston Place"/>
  </way>
  <way id="66692843" version="3" timestamp="2010-07-09T05:39:32Z" uid="74617" user="JohnSmith" changeset="5170972">
    <nd ref="806619727"/>
    <nd ref="806619728"/>
    <tag k="highway" v="residential"/>
    <tag k="maxspeed" v="50"/>
    <tag k="maxspeed:source" v="default residential speed limit in Australia"/>
    <tag k="name" v="Charleston Place"/>
  </way>
  <way id="66692843" version="4" timestamp="2012-01-20T10:59:42Z" uid="147510" user="woodpeck_fixbot" changeset="10445120">
    <nd ref="806619727"/>
    <nd ref="806619728"/>
    <tag k="highway" v="residential"/>
    <tag k="name" v="Charleston Place"/>
  </way>
  <way id="66692845" version="2" timestamp="2010-07-09T05:29:01Z" uid="74617" user="JohnSmith" changeset="5170972">
    <nd ref="806619729"/>
    <nd ref="806619730"/>
    <tag k="highway" v="residential"/>
    <tag k="maxspeed" v="50"/>
    <tag k="maxspeed:source" v="default residential speed limit in Australia"/>
    <tag k="name" v="Charleston Place"/>
  </way>
  <way id="66692845" version="3" timestamp="2010-07-09T05:36:41Z" uid="74617" user="JohnSmith" changeset="5170972">
    <nd ref="806619729"/>
    <nd ref="806619730"/>
    <tag k="highway" v="residential"/>
    <tag k="maxspeed" v="50"/>
    <tag k="maxspeed:source" v="default residential speed limit in Australia"/>
    <tag k="name" v="Charleston Place"/>
  </way>
  <way id="66692845" version="4" timestamp="2010-07-10T12:10:38Z" uid="1649" user="Chuq" changeset="5182046"/>
  <way id="66692856" version="2" timestamp="2010-07-09T05:31:45Z" uid="74617" user="JohnSmith" changeset="5170972">
    <nd ref="806619746"/>
    <nd ref="806619727"/>
    <nd ref="806619729"/>
    <nd ref="806619747"/>
    <nd ref="806619748"/>
    <tag k="highway" v="residential"/>
    <tag k="maxspeed" v="50"/>
    <tag k="maxspeed:source" v="default residential speed limit in Australia"/>
    <tag k="name" v="Charleston Place"/>
  </way>
  <way id="66692856" version="3" timestamp="2010-07-09T05:39:19Z" uid="74617" user="JohnSmith" changeset="5170972">
    <nd ref="806619746"/>
    <nd ref="806619727"/>
    <nd ref="806619729"/>
    <nd ref="806619747"/>
    <nd ref="806619748"/>
    <tag k="highway" v="residential"/>
    <tag k="maxspeed" v="50"/>
    <tag k="maxspeed:source" v="default residential speed limit in Australia"/>
    <tag k="name" v="Charleston Place"/>
  </way>
  <way id="66692856" version="4" timestamp="2010-07-10T12:10:37Z" uid="1649" user="Chuq" changeset="5182046">
    <nd ref="806619746"/>
    <nd ref="806619727"/>
    <nd ref="806619729"/>
    <nd ref="806619747"/>
    <tag k="highway" v="residential"/>
    <tag k="maxspeed" v="50"/>
    <tag k="maxspeed:source" v="default residential speed limit in Australia"/>
    <tag k="name" v="Charleston Place"/>
  </way>
  <way id="66692856" version="5" timestamp="2012-01-20T10:59:43Z" uid="147510" user="woodpeck_fixbot" changeset="10445120">
    <nd ref="806619746"/>
    <nd ref="806619727"/>
    <nd ref="806619729"/>
    <nd ref="806619747"/>
    <tag k="highway" v="residential"/>
    <tag k="name" v="Charleston Place"/>
  </way>
  <way id="66692857" version="2" timestamp="2010-07-09T05:28:30Z" uid="74617" user="JohnSmith" changeset="5170972">
    <nd ref="806619747"/>
    <nd ref="806619749"/>
    <tag k="highway" v="residential"/>
    <tag k="maxspeed" v="50"/>
    <tag k="maxspeed:source" v="default residential speed limit in Australia"/>
    <tag k="name" v="Charleston Place"/>
  </way>
  <way id="66692857" version="3" timestamp="2010-07-09T05:36:14Z" uid="74617" user="JohnSmith" changeset="5170972">
    <nd ref="806619747"/>
    <nd ref="806619749"/>
    <tag k="highway" v="residential"/>
    <tag k="maxspeed" v="50"/>
    <tag k="maxspeed:source" v="default residential speed limit in Australia"/>
    <tag k="name" v="Charleston Place"/>
  </way>
  <way id="66692857" version="4" timestamp="2010-07-10T12:10:37Z" uid="1649" user="Chuq" changeset="5182046">
    <nd ref="806619748"/>
    <nd ref="806619747"/>
    <nd ref="809976669"/>
    <tag k="highway" v="residential"/>
    <tag k="maxspeed" v="50"/>
    <tag k="maxspeed:source" v="default residential speed limit in Australia"/>
    <tag k="name" v="Charleston Place"/>
  </way>
  <way id="66692857" version="5" timestamp="2012-01-20T10:59:45Z" uid="147510" user="woodpeck_fixbot" changeset="10445120">
    <nd ref="806619748"/>
    <nd ref="806619747"/>
    <nd ref="809976669"/>
    <tag k="highway" v="residential"/>
    <tag k="name" v="Charleston Place"/>
  </way>
</osm>
