<?xml version='1.0' encoding='UTF-8'?>
<osm version="0.6" generator="libosmium/2.20.0">
  <way id="67188413" version="1" timestamp="2010-07-11T12:55:25Z" uid="27600" user="Islanit" changeset="5190103">
    <nd ref="251375477"/>
    <nd ref="27300879"/>
    <nd ref="27300880"/>
    <nd ref="27300881"/>
    <nd ref="27300882"/>
    <nd ref="428132631"/>
    <nd ref="27300883"/>
    <nd ref="253773197"/>
    <nd ref="301649116"/>
    <nd ref="27300884"/>
    <nd ref="313042220"/>
    <nd ref="27301113"/>
    <nd ref="252384126"/>
    <nd ref="310479453"/>
    <nd ref="252384124"/>
    <tag k="highway" v="primary"/>
    <tag k="name" v="Hannoversche Heerstraße"/>
    <tag k="ref" v="B 3"/>
  </way>
  <way id="67188413" version="2" timestamp="2010-09-07T08:44:55Z" uid="166132" user="adlatus" changeset="5705579">
    <nd ref="251375477"/>
    <nd ref="27300879"/>
    <nd ref="27300880"/>
    <nd ref="27300881"/>
    <nd ref="27300882"/>
    <tag k="cycleway" v="track"/>
    <tag k="highway" v="primary"/>
    <tag k="name" v="Hannoversche Heerstraße"/>
    <tag k="ref" v="B 3"/>
  </way>
  <way id="67188413" version="3" timestamp="2011-05-20T19:20:13Z" uid="387237" user="SammysHP" changeset="8201417">
    <nd ref="251375477"/>
    <nd ref="27300880"/>
    <nd ref="27300881"/>
    <nd ref="27300882"/>
    <tag k="cycleway" v="track"/>
    <tag k="highway" v="primary"/>
    <tag k="name" v="Hannoversche Heerstraße"/>
    <tag k="ref" v="B 3"/>
  </way>
  <way id="67188413" version="4" timestamp="2012-01-09T15:28:37Z" uid="580469" user="Hundehalter" changeset="10342770">
    <nd ref="251375477"/>
    <nd ref="27300880"/>
    <nd ref="27300881"/>
    <nd ref="27300882"/>
    <tag k="cycleway" v="track"/>
    <tag k="highway" v="primary"/>
    <tag k="lanes" v="2"/>
    <tag k="name" v="Hannoversche Heerstraße"/>
    <tag k="ref" v="B 3"/>
  </way>
  <way id="67188413" version="5" timestamp="2012-01-09T15:29:33Z" uid="580469" user="Hundehalter" changeset="10342787">
    <nd ref="251375477"/>
    <nd ref="27300880"/>
    <nd ref="27300881"/>
    <nd ref="27300882"/>
    <tag k="cycleway" v="track"/>
    <tag k="highway" v="primary"/>
    <tag k="lanes" v="3"/>
    <tag k="name" v="Hannoversche Heerstraße"/>
    <tag k="ref" v="B 3"/>
  </way>
  <way id="67188413" version="6" timestamp="2012-01-14T20:50:29Z" uid="580469" user="Hundehalter" changeset="10392298">
    <nd ref="251375477"/>
    <nd ref="1589981624"/>
    <nd ref="1589981619"/>
    <nd ref="1589981582"/>
    <nd ref="1589981576"/>
    <nd ref="27300880"/>
    <nd ref="1589981567"/>
    <nd ref="27300881"/>
    <nd ref="27300882"/>
    <tag k="cycleway" v="track"/>
    <tag k="highway" v="primary"/>
    <tag k="lanes" v="3"/>
    <tag k="name" v="Hannoversche Heerstraße"/>
    <tag k="ref" v="B 3"/>
  </way>
  <way id="67188413" version="7" timestamp="2012-02-01T13:38:48Z" uid="387237" user="SammysHP" changeset="10558713"/>
</osm>
