<?xml version='1.0' encoding='UTF-8'?>
<osm version="0.6" generator="libosmium/2.20.0">
  <way id="67219206" version="1" timestamp="2010-07-11T16:12:24Z" uid="74617" user="JohnSmith" changeset="5191856">
    <nd ref="27479647"/>
    <nd ref="612012594"/>
    <nd ref="612012596"/>
    <nd ref="612012597"/>
    <nd ref="612012599"/>
    <nd ref="612012602"/>
    <nd ref="768276484"/>
    <nd ref="214038900"/>
    <tag k="highway" v="secondary"/>
    <tag k="maxspeed" v="70"/>
    <tag k="name" v="Lipscombe Road"/>
    <tag k="oneway" v="yes"/>
  </way>
  <way id="67219206" version="2" timestamp="2012-01-09T01:59:20Z" uid="2585" user="rw_" changeset="10338587">
    <nd ref="27479647"/>
    <nd ref="612012594"/>
    <nd ref="612012596"/>
    <nd ref="612012597"/>
    <nd ref="612012599"/>
    <nd ref="612012602"/>
    <nd ref="768276484"/>
    <nd ref="214038900"/>
    <tag k="highway" v="secondary"/>
    <tag k="name" v="Lipscombe Road"/>
    <tag k="oneway" v="yes"/>
  </way>
  <way id="67219206" version="3" timestamp="2012-01-09T04:36:01Z" uid="2585" user="rw_" changeset="10338896">
    <nd ref="27479647"/>
    <nd ref="612012594"/>
    <nd ref="612012596"/>
    <nd ref="612012597"/>
    <nd ref="612012599"/>
    <nd ref="612012602"/>
    <nd ref="768276484"/>
    <nd ref="214038900"/>
    <tag k="highway" v="secondary"/>
    <tag k="maxspeed" v="70"/>
    <tag k="name" v="Lipscombe Road"/>
    <tag k="oneway" v="yes"/>
  </way>
  <way id="67219686" version="1" timestamp="2010-07-11T16:23:32Z" uid="33382" user="de_muur" changeset="5191958">
    <nd ref="811732529"/>
    <nd ref="811732539"/>
    <nd ref="811732533"/>
    <nd ref="811732512"/>
    <nd ref="811732548"/>
    <nd ref="811732543"/>
    <nd ref="811732537"/>
    <nd ref="811732518"/>
    <nd ref="811732572"/>
    <nd ref="811732544"/>
    <nd ref="811732541"/>
    <nd ref="811732532"/>
    <nd ref="811732510"/>
    <nd ref="811732547"/>
    <nd ref="811732536"/>
    <nd ref="811732517"/>
    <nd ref="670735394"/>
    <tag k="highway" v="track"/>
    <tag k="surface" v="unpaved"/>
    <tag k="tracktype" v="grade3"/>
  </way>
  <way id="67219686" version="2" timestamp="2010-11-29T08:19:00Z" uid="42429" user="FK270673" changeset="6484420">
    <nd ref="811732529"/>
    <nd ref="811732539"/>
    <nd ref="811732533"/>
    <nd ref="811732512"/>
    <nd ref="811732548"/>
    <nd ref="811732543"/>
    <nd ref="811732537"/>
    <nd ref="811732518"/>
    <nd ref="811732572"/>
    <nd ref="811732544"/>
    <nd ref="811732541"/>
    <nd ref="811732532"/>
    <nd ref="811732510"/>
    <nd ref="811732547"/>
    <nd ref="811732536"/>
    <nd ref="811732517"/>
    <nd ref="670735394"/>
    <tag k="highway" v="track"/>
    <tag k="name" v="Klein Hollen"/>
    <tag k="surface" v="unpaved"/>
    <tag k="tracktype" v="grade3"/>
  </way>
  <way id="67219687" version="1" timestamp="2010-07-11T16:23:33Z" uid="33382" user="de_muur" changeset="5191958">
    <nd ref="271119906"/>
    <nd ref="93444773"/>
    <tag k="highway" v="track"/>
    <tag k="name" v="Ueser Moor"/>
    <tag k="surface" v="unpaved"/>
    <tag k="tracktype" v="grade4"/>
  </way>
  <way id="67219687" version="2" timestamp="2010-11-29T08:18:56Z" uid="42429" user="FK270673" changeset="6484420">
    <nd ref="271119906"/>
    <nd ref="93444773"/>
    <tag k="highway" v="track"/>
    <tag k="name" v="Ueser Moorweg"/>
    <tag k="surface" v="unpaved"/>
    <tag k="tracktype" v="grade4"/>
  </way>
  <way id="67219688" version="1" timestamp="2010-07-11T16:23:34Z" uid="33382" user="de_muur" changeset="5191958">
    <nd ref="811732529"/>
    <nd ref="811732513"/>
    <tag k="highway" v="track"/>
    <tag k="note" v="to be continued"/>
    <tag k="surface" v="unpaved"/>
    <tag k="tracktype" v="grade3"/>
  </way>
  <way id="67219688" version="2" timestamp="2012-01-08T10:54:49Z" uid="29975" user="OxKing" changeset="10329730">
    <nd ref="811732529"/>
    <nd ref="1582383161"/>
    <nd ref="811732513"/>
    <tag k="highway" v="track"/>
    <tag k="note" v="to be continued"/>
    <tag k="surface" v="unpaved"/>
    <tag k="tracktype" v="grade3"/>
  </way>
  <way id="67219758" version="1" timestamp="2010-07-11T16:27:19Z" uid="33382" user="de_muur" changeset="5191989">
    <nd ref="295418363"/>
    <nd ref="266792540"/>
    <nd ref="266792541"/>
    <nd ref="93444773"/>
    <nd ref="93444774"/>
    <nd ref="364776595"/>
    <nd ref="364776604"/>
    <nd ref="93444776"/>
    <nd ref="93444777"/>
    <nd ref="93444778"/>
    <nd ref="93444779"/>
    <nd ref="93444783"/>
    <nd ref="93444781"/>
    <tag k="cycleway" v="track"/>
    <tag k="highway" v="tertiary"/>
    <tag k="ref" v="K 5"/>
    <tag k="surface" v="paved"/>
  </way>
  <way id="67219758" version="2" timestamp="2010-07-11T16:32:09Z" uid="33382" user="de_muur" changeset="5192043">
    <nd ref="295418363"/>
    <nd ref="266792540"/>
    <nd ref="266792541"/>
    <nd ref="93444773"/>
    <tag k="cycleway" v="track"/>
    <tag k="highway" v="tertiary"/>
    <tag k="ref" v="K 5"/>
    <tag k="surface" v="paved"/>
  </way>
  <way id="67219758" version="3" timestamp="2010-07-25T19:45:27Z" uid="35574" user="Schorse" changeset="5315853">
    <nd ref="295418363"/>
    <nd ref="266792540"/>
    <nd ref="266792541"/>
    <nd ref="93444773"/>
    <tag k="bicycle" v="designated"/>
    <tag k="cycleway" v="track"/>
    <tag k="foot" v="designated"/>
    <tag k="highway" v="tertiary"/>
    <tag k="ref" v="K 5"/>
    <tag k="surface" v="paved"/>
  </way>
  <way id="67219758" version="4" timestamp="2010-11-29T08:19:01Z" uid="42429" user="FK270673" changeset="6484420">
    <nd ref="295418363"/>
    <nd ref="266792540"/>
    <nd ref="266792541"/>
    <nd ref="93444773"/>
    <tag k="bicycle" v="designated"/>
    <tag k="cycleway" v="track"/>
    <tag k="foot" v="designated"/>
    <tag k="highway" v="tertiary"/>
    <tag k="name" v="Moorstraße"/>
    <tag k="ref" v="K 5"/>
    <tag k="surface" v="paved"/>
  </way>
  <way id="67219758" version="5" timestamp="2011-04-23T19:41:00Z" uid="57645" user="KartoGrapHiti" changeset="7946726">
    <nd ref="295418363"/>
    <nd ref="266792540"/>
    <nd ref="266792541"/>
    <nd ref="93444773"/>
    <tag k="highway" v="tertiary"/>
    <tag k="name" v="Moorstraße"/>
    <tag k="ref" v="K 5"/>
    <tag k="surface" v="paved"/>
  </way>
  <way id="67219758" version="6" timestamp="2011-09-23T11:13:33Z" uid="192181" user="hennie90" changeset="9375873">
    <nd ref="295418363"/>
    <nd ref="1442203529"/>
    <nd ref="266792540"/>
    <nd ref="266792541"/>
    <nd ref="93444773"/>
    <tag k="highway" v="tertiary"/>
    <tag k="name" v="Moorstraße"/>
    <tag k="ref" v="K 5"/>
    <tag k="surface" v="paved"/>
  </way>
  <way id="67219758" version="7" timestamp="2012-03-18T09:59:21Z" uid="57645" user="KartoGrapHiti" changeset="11016637"/>
</osm>
