<?xml version='1.0' encoding='UTF-8'?>
<osm version="0.6" generator="libosmium/2.20.0">
  <way id="67605008" version="2" timestamp="2011-04-07T10:41:15Z" uid="4467" user="Rosscoe" changeset="7793262">
    <nd ref="294108394"/>
    <nd ref="294108330"/>
    <nd ref="816614707"/>
    <nd ref="816614697"/>
    <nd ref="1235821018"/>
    <nd ref="294108331"/>
    <tag k="highway" v="service"/>
    <tag k="maxspeed" v="50"/>
    <tag k="name" v="Logan Road"/>
    <tag k="oneway" v="yes"/>
  </way>
  <way id="67605009" version="2" timestamp="2011-04-07T10:41:26Z" uid="4467" user="Rosscoe" changeset="7793262">
    <nd ref="266754419"/>
    <nd ref="294108335"/>
    <nd ref="816614696"/>
    <nd ref="816614747"/>
    <nd ref="294108334"/>
    <nd ref="816614703"/>
    <nd ref="816614709"/>
    <nd ref="294108582"/>
    <nd ref="294108332"/>
    <nd ref="294108331"/>
    <tag k="highway" v="service"/>
    <tag k="maxspeed" v="50"/>
    <tag k="name" v="Logan Road"/>
  </way>
  <way id="67605011" version="3" timestamp="2010-07-30T08:34:11Z" uid="4467" user="Rosscoe" changeset="5352592">
    <nd ref="816614719"/>
    <nd ref="294108392"/>
    <nd ref="816728119"/>
    <nd ref="294108394"/>
    <nd ref="294108396"/>
    <tag k="highway" v="unclassified"/>
    <tag k="maxspeed" v="50"/>
    <tag k="name" v="Gunn Street"/>
    <tag k="source" v="GPS"/>
    <tag k="surface" v="asphalt"/>
  </way>
  <way id="67605446" version="1" timestamp="2010-07-14T08:58:35Z" uid="4467" user="Rosscoe" changeset="5215069">
    <nd ref="816679114"/>
    <nd ref="268906212"/>
    <tag k="highway" v="primary"/>
    <tag k="maxspeed" v="60"/>
    <tag k="name" v="Parramatta Road"/>
  </way>
  <way id="67605447" version="1" timestamp="2010-07-14T08:58:37Z" uid="4467" user="Rosscoe" changeset="5215069">
    <nd ref="26399841"/>
    <nd ref="26399842"/>
    <nd ref="36611239"/>
    <nd ref="816679507"/>
    <nd ref="26399843"/>
    <tag k="highway" v="motorway_link"/>
    <tag k="maxspeed" v="signals"/>
    <tag k="name" v="M4 Western Motorway"/>
    <tag k="oneway" v="yes"/>
  </way>
  <way id="67605447" version="2" timestamp="2012-01-31T05:22:32Z" uid="54784" user="Tom Hollander" changeset="10546288">
    <nd ref="26399841"/>
    <nd ref="26399842"/>
    <nd ref="36611239"/>
    <nd ref="816679507"/>
    <nd ref="26399843"/>
    <tag k="highway" v="motorway_link"/>
    <tag k="maxspeed" v="signals"/>
    <tag k="name" v="M4 Western Motorway"/>
    <tag k="oneway" v="yes"/>
    <tag k="ref" v="M4"/>
  </way>
  <way id="67605447" version="3" timestamp="2012-03-28T23:21:34Z" uid="7523" user="inas" changeset="11132320"/>
</osm>
