<?xml version='1.0' encoding='UTF-8'?>
<osm version="0.6" generator="libosmium/2.20.0">
  <way id="68050455" version="1" timestamp="2010-07-16T13:54:10Z" uid="4467" user="Rosscoe" changeset="5235031">
    <nd ref="820800704"/>
    <nd ref="820801022"/>
    <tag k="bridge" v="yes"/>
    <tag k="cycleway" v="track"/>
    <tag k="highway" v="cycleway"/>
    <tag k="layer" v="1"/>
    <tag k="name" v="Gungahlin Cycleway"/>
    <tag k="ref" v="Yerrabi Pond cycle track"/>
  </way>
  <way id="68050455" version="2" timestamp="2010-10-12T12:56:34Z" uid="12434" user="nm7s9" changeset="6020630">
    <nd ref="820800704"/>
    <nd ref="820801022"/>
    <tag k="bridge" v="yes"/>
    <tag k="bridge_number" v="1216"/>
    <tag k="cycleway" v="track"/>
    <tag k="highway" v="cycleway"/>
    <tag k="layer" v="1"/>
    <tag k="name" v="Gungahlin Cycleway"/>
    <tag k="ref" v="Yerrabi Pond cycle track"/>
    <tag k="source" v="survey"/>
  </way>
  <way id="68050455" version="3" timestamp="2010-11-16T08:31:50Z" uid="320632" user="Zulu99" changeset="6383263">
    <nd ref="820800704"/>
    <nd ref="820801022"/>
    <tag k="bicycle" v="yes"/>
    <tag k="bridge" v="yes"/>
    <tag k="bridge_number" v="1216"/>
    <tag k="cycleway" v="track"/>
    <tag k="highway" v="cycleway"/>
    <tag k="layer" v="1"/>
    <tag k="name" v="Gungahlin Cycleway"/>
    <tag k="ref" v="Yerrabi Pond cycle track"/>
    <tag k="source" v="survey"/>
  </way>
  <way id="68050463" version="1" timestamp="2010-07-16T13:54:11Z" uid="4467" user="Rosscoe" changeset="5235031">
    <nd ref="254825782"/>
    <nd ref="254825747"/>
    <nd ref="254825748"/>
    <nd ref="254825750"/>
    <nd ref="254825767"/>
    <nd ref="820800857"/>
    <nd ref="254825780"/>
    <nd ref="254825742"/>
    <nd ref="254825744"/>
    <nd ref="254825746"/>
    <nd ref="254825782"/>
    <tag k="highway" v="residential"/>
    <tag k="maxspeed" v="50"/>
    <tag k="maxspeed:source" v="default residential speed limit in Australia"/>
    <tag k="name" v="Fryans Place"/>
    <tag k="oneway" v="yes"/>
  </way>
  <way id="68050471" version="1" timestamp="2010-07-16T13:54:12Z" uid="4467" user="Rosscoe" changeset="5235031">
    <nd ref="154559144"/>
    <nd ref="154559159"/>
    <nd ref="154559167"/>
    <nd ref="154559180"/>
    <nd ref="154559191"/>
    <nd ref="154559209"/>
    <nd ref="154559228"/>
    <nd ref="154559258"/>
    <nd ref="256790891"/>
    <nd ref="256790893"/>
    <tag k="highway" v="residential"/>
    <tag k="maxspeed" v="50"/>
    <tag k="maxspeed:source" v="default residential speed limit in Australia"/>
    <tag k="name" v="Margany Close"/>
  </way>
  <way id="68050471" version="2" timestamp="2012-01-24T14:56:39Z" uid="12434" user="nm7s9" changeset="10485261"/>
  <way id="68050479" version="1" timestamp="2010-07-16T13:54:13Z" uid="4467" user="Rosscoe" changeset="5235031">
    <nd ref="820801022"/>
    <nd ref="441518885"/>
    <tag k="cycleway" v="track"/>
    <tag k="highway" v="cycleway"/>
    <tag k="name" v="Gungahlin Cycleway"/>
    <tag k="ref" v="Yerrabi Pond cycle track"/>
  </way>
  <way id="68050479" version="2" timestamp="2010-11-16T08:31:48Z" uid="320632" user="Zulu99" changeset="6383263">
    <nd ref="820801022"/>
    <nd ref="441518885"/>
    <tag k="bicycle" v="yes"/>
    <tag k="cycleway" v="track"/>
    <tag k="highway" v="cycleway"/>
    <tag k="name" v="Gungahlin Cycleway"/>
    <tag k="ref" v="Yerrabi Pond cycle track"/>
  </way>
  <way id="68050486" version="1" timestamp="2010-07-16T13:54:14Z" uid="4467" user="Rosscoe" changeset="5235031">
    <nd ref="154559287"/>
    <nd ref="820801068"/>
    <nd ref="154559191"/>
    <tag k="highway" v="residential"/>
    <tag k="maxspeed" v="50"/>
    <tag k="maxspeed:source" v="default residential speed limit in Australia"/>
    <tag k="name" v="Jaru Place"/>
  </way>
  <way id="68050486" version="2" timestamp="2012-01-24T14:56:39Z" uid="12434" user="nm7s9" changeset="10485261"/>
</osm>
