<?xml version='1.0' encoding='UTF-8'?>
<osm version="0.6" generator="libosmium/2.20.0">
  <way id="68181950" version="1" timestamp="2010-07-17T07:42:11Z" uid="4467" user="Rosscoe" changeset="5240084">
    <nd ref="821496241"/>
    <nd ref="821495943"/>
    <nd ref="432500835"/>
    <nd ref="87315546"/>
    <tag k="highway" v="secondary"/>
    <tag k="name" v="Roghan Road"/>
  </way>
  <way id="68181950" version="2" timestamp="2010-12-22T11:30:32Z" uid="22094" user="Chadzopkyo" changeset="6734469">
    <nd ref="821496241"/>
    <nd ref="432500835"/>
    <nd ref="87315546"/>
    <tag k="highway" v="secondary"/>
    <tag k="name" v="Roghan Road"/>
  </way>
  <way id="68181954" version="1" timestamp="2010-07-17T07:42:12Z" uid="4467" user="Rosscoe" changeset="5240084">
    <nd ref="821495778"/>
    <nd ref="821496241"/>
    <tag k="bridge" v="yes"/>
    <tag k="highway" v="secondary"/>
    <tag k="layer" v="1"/>
    <tag k="name" v="Roghan Road"/>
    <tag k="source" v="nearmap"/>
  </way>
  <way id="68181958" version="1" timestamp="2010-07-17T07:42:13Z" uid="4467" user="Rosscoe" changeset="5240084">
    <nd ref="821496770"/>
    <nd ref="572727007"/>
    <nd ref="432500837"/>
    <nd ref="264179200"/>
    <tag k="highway" v="tertiary"/>
    <tag k="name" v="Church Road"/>
  </way>
  <way id="68181964" version="1" timestamp="2010-07-17T07:42:14Z" uid="4467" user="Rosscoe" changeset="5240084">
    <nd ref="821497062"/>
    <nd ref="87313719"/>
    <tag k="highway" v="tertiary"/>
    <tag k="name" v="Roghan Road"/>
  </way>
  <way id="68181969" version="1" timestamp="2010-07-17T07:42:15Z" uid="4467" user="Rosscoe" changeset="5240084">
    <nd ref="821495981"/>
    <nd ref="821496770"/>
    <tag k="bridge" v="yes"/>
    <tag k="highway" v="tertiary"/>
    <tag k="layer" v="1"/>
    <tag k="name" v="Church Road"/>
  </way>
  <way id="68181971" version="1" timestamp="2010-07-17T07:42:16Z" uid="4467" user="Rosscoe" changeset="5240084">
    <nd ref="432500777"/>
    <nd ref="441755278"/>
    <nd ref="441755280"/>
    <nd ref="441755290"/>
    <nd ref="441755282"/>
    <nd ref="441755284"/>
    <nd ref="441755295"/>
    <nd ref="441755287"/>
    <nd ref="441755288"/>
    <nd ref="441755292"/>
    <nd ref="432500777"/>
    <tag k="highway" v="residential"/>
    <tag k="maxspeed" v="50"/>
    <tag k="name" v="Ginko Close"/>
  </way>
  <way id="68181976" version="1" timestamp="2010-07-17T07:42:17Z" uid="4467" user="Rosscoe" changeset="5240084">
    <nd ref="266632270"/>
    <nd ref="821495895"/>
    <tag k="highway" v="tertiary"/>
    <tag k="name" v="Roghan Road"/>
  </way>
  <way id="68181976" version="2" timestamp="2010-07-17T08:07:43Z" uid="4467" user="Rosscoe" changeset="5240231">
    <nd ref="821522038"/>
    <nd ref="266632270"/>
    <tag k="construction" v="tertiary"/>
    <tag k="highway" v="construction"/>
    <tag k="name" v="Roghan Road"/>
  </way>
  <way id="68181976" version="3" timestamp="2012-01-10T10:50:29Z" uid="26975" user="JamesI" changeset="10350081"/>
  <way id="68181980" version="1" timestamp="2010-07-17T07:42:19Z" uid="4467" user="Rosscoe" changeset="5240084">
    <nd ref="441767148"/>
    <nd ref="441767150"/>
    <nd ref="441767151"/>
    <tag k="highway" v="primary_link"/>
    <tag k="oneway" v="yes"/>
    <tag k="source" v="nearmap"/>
  </way>
  <way id="68181984" version="1" timestamp="2010-07-17T07:42:19Z" uid="4467" user="Rosscoe" changeset="5240084">
    <nd ref="821496173"/>
    <nd ref="821497062"/>
    <tag k="bridge" v="yes"/>
    <tag k="highway" v="tertiary"/>
    <tag k="layer" v="1"/>
    <tag k="name" v="Roghan Road"/>
  </way>
  <way id="68181984" version="2" timestamp="2010-07-17T08:08:16Z" uid="4467" user="Rosscoe" changeset="5240231">
    <nd ref="276382557"/>
    <nd ref="821496173"/>
    <tag k="highway" v="tertiary"/>
    <tag k="name" v="Roghan Road"/>
  </way>
</osm>
