<?xml version='1.0' encoding='UTF-8'?>
<osm version="0.6" generator="libosmium/2.20.0">
  <way id="68255070" version="2" timestamp="2010-11-01T18:57:55Z" uid="9581" user="Lobelt" changeset="6259686">
    <nd ref="759197253"/>
    <nd ref="601661589"/>
    <nd ref="302786121"/>
    <nd ref="550277264"/>
    <tag k="highway" v="motorway"/>
    <tag k="int_ref" v="E 40"/>
    <tag k="lanes" v="2"/>
    <tag k="maxspeed" v="no"/>
    <tag k="oneway" v="yes"/>
    <tag k="ref" v="A 4"/>
  </way>
  <way id="68255070" version="3" timestamp="2011-05-26T20:04:00Z" uid="131670" user="Ana Luisa" changeset="8256802">
    <nd ref="759197253"/>
    <nd ref="601661589"/>
    <nd ref="302786121"/>
    <nd ref="550277264"/>
    <tag k="highway" v="motorway"/>
    <tag k="int_ref" v="E 40"/>
    <tag k="lanes" v="2"/>
    <tag k="maxspeed" v="none"/>
    <tag k="oneway" v="yes"/>
    <tag k="ref" v="A 4"/>
  </way>
  <way id="68255070" version="4" timestamp="2011-08-21T12:25:11Z" uid="30077" user="ChristianW" changeset="9083518">
    <nd ref="759197253"/>
    <nd ref="601661589"/>
    <nd ref="302786121"/>
    <nd ref="550277264"/>
    <tag k="highway" v="motorway"/>
    <tag k="int_ref" v="E 40"/>
    <tag k="lanes" v="2"/>
    <tag k="lit" v="no"/>
    <tag k="maxspeed" v="none"/>
    <tag k="oneway" v="yes"/>
    <tag k="ref" v="A 4"/>
    <tag k="source:lit" v="http://www.autobahn-bilder.de"/>
  </way>
  <way id="68255071" version="3" timestamp="2010-11-01T18:57:59Z" uid="9581" user="Lobelt" changeset="6259686">
    <nd ref="759197256"/>
    <nd ref="299248964"/>
    <nd ref="415762487"/>
    <nd ref="648228510"/>
    <nd ref="299249036"/>
    <nd ref="299248966"/>
    <nd ref="759197244"/>
    <nd ref="299249037"/>
    <nd ref="759197247"/>
    <nd ref="299248968"/>
    <nd ref="415762497"/>
    <tag k="highway" v="motorway"/>
    <tag k="int_ref" v="E 40"/>
    <tag k="lanes" v="3"/>
    <tag k="maxspeed" v="no"/>
    <tag k="oneway" v="yes"/>
    <tag k="ref" v="A 4"/>
  </way>
  <way id="68255071" version="4" timestamp="2011-05-26T20:04:18Z" uid="131670" user="Ana Luisa" changeset="8256802">
    <nd ref="759197256"/>
    <nd ref="299248964"/>
    <nd ref="415762487"/>
    <nd ref="648228510"/>
    <nd ref="299249036"/>
    <nd ref="299248966"/>
    <nd ref="759197244"/>
    <nd ref="299249037"/>
    <nd ref="759197247"/>
    <nd ref="299248968"/>
    <nd ref="415762497"/>
    <tag k="highway" v="motorway"/>
    <tag k="int_ref" v="E 40"/>
    <tag k="lanes" v="3"/>
    <tag k="maxspeed" v="none"/>
    <tag k="oneway" v="yes"/>
    <tag k="ref" v="A 4"/>
  </way>
  <way id="68255071" version="5" timestamp="2011-08-21T12:21:05Z" uid="30077" user="ChristianW" changeset="9083518">
    <nd ref="759197256"/>
    <nd ref="299248964"/>
    <nd ref="415762487"/>
    <nd ref="648228510"/>
    <nd ref="299249036"/>
    <nd ref="299248966"/>
    <nd ref="759197244"/>
    <nd ref="299249037"/>
    <nd ref="759197247"/>
    <nd ref="299248968"/>
    <nd ref="415762497"/>
    <tag k="highway" v="motorway"/>
    <tag k="int_ref" v="E 40"/>
    <tag k="lanes" v="3"/>
    <tag k="lit" v="no"/>
    <tag k="maxspeed" v="none"/>
    <tag k="oneway" v="yes"/>
    <tag k="ref" v="A 4"/>
    <tag k="source:lit" v="http://www.autobahn-bilder.de"/>
  </way>
  <way id="68255075" version="2" timestamp="2010-08-02T10:56:17Z" uid="171838" user="argrath" changeset="5379332">
    <nd ref="821946790"/>
    <nd ref="821946781"/>
    <nd ref="821946778"/>
    <nd ref="821946770"/>
    <tag k="highway" v="trunk"/>
    <tag k="maxspeed" v="50"/>
    <tag k="ref" v="155"/>
  </way>
  <way id="68255075" version="3" timestamp="2010-11-13T17:16:45Z" uid="162500" user="nobichan" changeset="6360031">
    <nd ref="821946770"/>
    <nd ref="987911721"/>
    <nd ref="821946778"/>
    <nd ref="821946781"/>
    <nd ref="821946790"/>
    <tag k="highway" v="trunk"/>
    <tag k="maxspeed" v="50"/>
    <tag k="oneway" v="yes"/>
    <tag k="ref" v="155"/>
  </way>
  <way id="68255075" version="4" timestamp="2011-04-09T14:02:22Z" uid="162500" user="nobichan" changeset="7813587">
    <nd ref="671617680"/>
    <nd ref="1238593223"/>
    <nd ref="987911744"/>
    <nd ref="987911024"/>
    <nd ref="821946770"/>
    <nd ref="987911721"/>
    <nd ref="821946778"/>
    <nd ref="821946781"/>
    <nd ref="821946790"/>
    <tag k="highway" v="trunk"/>
    <tag k="maxspeed" v="50"/>
    <tag k="oneway" v="yes"/>
    <tag k="ref" v="155"/>
  </way>
  <way id="68255075" version="5" timestamp="2012-01-04T01:30:05Z" uid="162500" user="nobichan" changeset="10287637">
    <nd ref="671617680"/>
    <nd ref="1238593223"/>
    <nd ref="987911744"/>
    <nd ref="987911024"/>
    <nd ref="821946770"/>
    <nd ref="987911721"/>
    <nd ref="821946778"/>
    <nd ref="821946781"/>
    <nd ref="821946790"/>
    <nd ref="677550434"/>
    <tag k="highway" v="trunk"/>
    <tag k="maxspeed" v="50"/>
    <tag k="oneway" v="yes"/>
    <tag k="ref" v="155"/>
  </way>
  <way id="68255075" version="6" timestamp="2012-01-29T11:18:46Z" uid="162500" user="nobichan" changeset="10528687">
    <nd ref="671617680"/>
    <nd ref="1238593223"/>
    <nd ref="987911744"/>
    <nd ref="987911024"/>
    <nd ref="821946770"/>
    <nd ref="987911721"/>
    <nd ref="821946778"/>
    <nd ref="821946781"/>
    <nd ref="821946790"/>
    <nd ref="1610089129"/>
    <nd ref="677550434"/>
    <tag k="highway" v="trunk"/>
    <tag k="maxspeed" v="50"/>
    <tag k="oneway" v="yes"/>
    <tag k="ref" v="155"/>
  </way>
  <way id="68255076" version="2" timestamp="2010-08-10T11:07:02Z" uid="171838" user="argrath" changeset="5452881">
    <nd ref="821946770"/>
    <nd ref="686806309"/>
    <tag k="highway" v="road"/>
    <tag k="maxspeed" v="50"/>
    <tag k="ref" v="155"/>
  </way>
  <way id="68255076" version="3" timestamp="2010-11-13T17:16:50Z" uid="162500" user="nobichan" changeset="6360031">
    <nd ref="821946770"/>
    <nd ref="987911465"/>
    <nd ref="987911024"/>
    <nd ref="987911744"/>
    <nd ref="686806309"/>
    <tag k="highway" v="road"/>
    <tag k="maxspeed" v="50"/>
    <tag k="ref" v="155"/>
  </way>
  <way id="68255076" version="4" timestamp="2011-04-09T14:02:43Z" uid="162500" user="nobichan" changeset="7813587"/>
</osm>
