<?xml version='1.0' encoding='UTF-8'?>
<osm version="0.6" generator="libosmium/2.20.0">
  <way id="68519013" version="1" timestamp="2010-07-19T01:59:55Z" uid="4467" user="Rosscoe" changeset="5257073">
    <nd ref="294313166"/>
    <nd ref="823956440"/>
    <nd ref="728020184"/>
    <tag k="highway" v="unclassified"/>
    <tag k="name" v="Dinah Road"/>
    <tag k="source" v="nearmap"/>
    <tag k="surface" v="paved"/>
  </way>
  <way id="68519014" version="1" timestamp="2010-07-19T01:59:56Z" uid="4467" user="Rosscoe" changeset="5257073">
    <nd ref="728020184"/>
    <nd ref="728020185"/>
    <nd ref="728020186"/>
    <nd ref="728020187"/>
    <nd ref="728020996"/>
    <nd ref="728020188"/>
    <tag k="highway" v="unclassified"/>
    <tag k="name" v="Dinah Road"/>
    <tag k="source" v="nearmap"/>
    <tag k="surface" v="paved"/>
  </way>
  <way id="68519015" version="1" timestamp="2010-07-19T01:59:57Z" uid="4467" user="Rosscoe" changeset="5257073">
    <nd ref="823956441"/>
    <nd ref="318537598"/>
    <tag k="bridge" v="yes"/>
    <tag k="highway" v="tertiary"/>
    <tag k="layer" v="1"/>
    <tag k="name" v="Fryers Road"/>
  </way>
  <way id="68519595" version="2" timestamp="2011-01-28T12:02:36Z" uid="4467" user="Rosscoe" changeset="7112270">
    <nd ref="823965772"/>
    <nd ref="823965773"/>
    <nd ref="823965774"/>
    <nd ref="823965775"/>
    <nd ref="823965776"/>
    <nd ref="823965777"/>
    <nd ref="823965778"/>
    <nd ref="823965779"/>
    <nd ref="823965780"/>
    <nd ref="823965781"/>
    <nd ref="823965782"/>
    <nd ref="823965783"/>
    <nd ref="1124787715"/>
    <nd ref="823965784"/>
    <nd ref="823965772"/>
    <tag k="leisure" v="park"/>
  </way>
  <way id="68519604" version="2" timestamp="2011-01-28T12:02:39Z" uid="4467" user="Rosscoe" changeset="7112270">
    <nd ref="110854570"/>
    <nd ref="823965825"/>
    <tag k="highway" v="residential"/>
    <tag k="name" v="Carleton Street"/>
  </way>
</osm>
