<?xml version='1.0' encoding='UTF-8'?>
<osm version="0.6" generator="libosmium/2.20.0">
  <way id="68564927" version="1" timestamp="2010-07-19T11:46:02Z" uid="7617" user="Franc" changeset="5260235">
    <nd ref="824373755"/>
    <nd ref="256375096"/>
    <nd ref="256375748"/>
    <nd ref="256369806"/>
    <nd ref="256369027"/>
    <tag k="highway" v="service"/>
    <tag k="name" v="Grey Gum Lane"/>
    <tag k="source" v="survey"/>
  </way>
  <way id="68564928" version="1" timestamp="2010-07-19T11:46:03Z" uid="7617" user="Franc" changeset="5260235">
    <nd ref="256369027"/>
    <nd ref="256369491"/>
    <nd ref="256370195"/>
    <nd ref="824373728"/>
    <nd ref="256373686"/>
    <tag k="highway" v="residential"/>
    <tag k="maxspeed" v="50"/>
    <tag k="maxspeed:source" v="default residential speed limit in Australia"/>
    <tag k="name" v="Lucas Street"/>
    <tag k="source" v="survey"/>
  </way>
  <way id="68564929" version="1" timestamp="2010-07-19T11:46:03Z" uid="7617" user="Franc" changeset="5260235">
    <nd ref="256368782"/>
    <nd ref="265550033"/>
    <nd ref="256374638"/>
    <nd ref="256369026"/>
    <nd ref="256370152"/>
    <nd ref="256370012"/>
    <nd ref="824373796"/>
    <nd ref="256369507"/>
    <nd ref="256369997"/>
    <nd ref="348244758"/>
    <nd ref="256375525"/>
    <nd ref="256372851"/>
    <nd ref="256368817"/>
    <nd ref="256368964"/>
    <nd ref="256370192"/>
    <nd ref="256375617"/>
    <nd ref="256372712"/>
    <nd ref="256370000"/>
    <nd ref="256368628"/>
    <nd ref="256368518"/>
    <nd ref="348229820"/>
    <nd ref="256372679"/>
    <nd ref="256369448"/>
    <nd ref="256376027"/>
    <nd ref="256375904"/>
    <nd ref="348229821"/>
    <nd ref="256372652"/>
    <nd ref="256375366"/>
    <nd ref="34052730"/>
    <nd ref="29378883"/>
    <nd ref="29378882"/>
    <nd ref="29378881"/>
    <nd ref="29378880"/>
    <tag k="highway" v="secondary"/>
    <tag k="name" v="Higland Way"/>
  </way>
  <way id="68564929" version="2" timestamp="2010-07-19T12:28:14Z" uid="7617" user="Franc" changeset="5260633">
    <nd ref="256368782"/>
    <nd ref="265550033"/>
    <nd ref="256374638"/>
    <nd ref="256369026"/>
    <nd ref="256370152"/>
    <nd ref="256370012"/>
    <nd ref="824373796"/>
    <tag k="highway" v="secondary"/>
    <tag k="name" v="Railway Avenue"/>
    <tag k="source" v="survey"/>
  </way>
  <way id="68564930" version="1" timestamp="2010-07-19T11:46:04Z" uid="7617" user="Franc" changeset="5260235">
    <nd ref="256370089"/>
    <nd ref="256373609"/>
    <nd ref="259588827"/>
    <nd ref="256368686"/>
    <nd ref="256373952"/>
    <nd ref="824373743"/>
    <nd ref="256370175"/>
    <nd ref="256375576"/>
    <tag k="highway" v="unclassified"/>
    <tag k="source" v="survey"/>
    <tag k="surface" v="unpaved"/>
  </way>
  <way id="68564931" version="1" timestamp="2010-07-19T11:46:04Z" uid="7617" user="Franc" changeset="5260235">
    <nd ref="256372967"/>
    <nd ref="256369762"/>
    <nd ref="256368828"/>
    <nd ref="256372819"/>
    <nd ref="256373153"/>
    <nd ref="256370118"/>
    <tag k="highway" v="residential"/>
    <tag k="maxspeed" v="50"/>
    <tag k="maxspeed:source" v="default residential speed limit in Australia"/>
    <tag k="name" v="Viewland Street"/>
    <tag k="source" v="survey"/>
  </way>
  <way id="68564932" version="1" timestamp="2010-07-19T11:46:04Z" uid="7617" user="Franc" changeset="5260235">
    <nd ref="824373796"/>
    <nd ref="824373779"/>
    <nd ref="824373780"/>
    <nd ref="824373781"/>
    <nd ref="824373782"/>
    <nd ref="824373783"/>
    <nd ref="824373784"/>
    <nd ref="824373786"/>
    <nd ref="824373787"/>
    <nd ref="824373792"/>
    <nd ref="824373767"/>
    <nd ref="824373769"/>
    <nd ref="824373770"/>
    <nd ref="824373772"/>
    <nd ref="824373773"/>
    <nd ref="824373774"/>
    <tag k="highway" v="service"/>
    <tag k="name" v="Amos Lane"/>
    <tag k="source" v="survey"/>
  </way>
  <way id="68564933" version="1" timestamp="2010-07-19T11:46:04Z" uid="7617" user="Franc" changeset="5260235">
    <nd ref="256369740"/>
    <nd ref="256368819"/>
    <nd ref="824373763"/>
    <nd ref="256368782"/>
    <tag k="highway" v="secondary"/>
    <tag k="name" v="Church Street"/>
    <tag k="source" v="survey"/>
  </way>
  <way id="68564934" version="1" timestamp="2010-07-19T11:46:04Z" uid="7617" user="Franc" changeset="5260235">
    <nd ref="256368801"/>
    <nd ref="256369740"/>
    <tag k="highway" v="secondary"/>
    <tag k="name" v="Anzac Parade"/>
    <tag k="source" v="survey"/>
  </way>
  <way id="68564935" version="1" timestamp="2010-07-19T11:46:05Z" uid="7617" user="Franc" changeset="5260235">
    <nd ref="256370118"/>
    <nd ref="256368952"/>
    <tag k="highway" v="residential"/>
    <tag k="maxspeed" v="50"/>
    <tag k="maxspeed:source" v="default residential speed limit in Australia"/>
    <tag k="name" v="Hawthorne Street"/>
    <tag k="source" v="survey"/>
  </way>
  <way id="68564936" version="1" timestamp="2010-07-19T11:46:05Z" uid="7617" user="Franc" changeset="5260235">
    <nd ref="824373787"/>
    <nd ref="824373793"/>
    <nd ref="256370118"/>
    <tag k="highway" v="service"/>
    <tag k="name" v="Amos Lane"/>
    <tag k="source" v="survey"/>
  </way>
  <way id="68564937" version="1" timestamp="2010-07-19T11:46:05Z" uid="7617" user="Franc" changeset="5260235">
    <nd ref="256375700"/>
    <nd ref="824373815"/>
    <nd ref="34052726"/>
    <tag k="highway" v="service"/>
    <tag k="name" v="Ringwood Lane"/>
    <tag k="source" v="survey"/>
    <tag k="surface" v="unpaved"/>
  </way>
  <way id="68564938" version="1" timestamp="2010-07-19T11:46:05Z" uid="7617" user="Franc" changeset="5260235">
    <nd ref="824373808"/>
    <nd ref="824373809"/>
    <nd ref="824373810"/>
    <nd ref="824373812"/>
    <nd ref="824373803"/>
    <nd ref="256372775"/>
    <tag k="highway" v="residential"/>
    <tag k="name" v="Ardross Avenue"/>
    <tag k="source" v="survey"/>
  </way>
  <way id="68564939" version="1" timestamp="2010-07-19T11:46:05Z" uid="7617" user="Franc" changeset="5260235">
    <nd ref="824373804"/>
    <nd ref="824373810"/>
    <tag k="highway" v="residential"/>
    <tag k="name" v="Tobin Place"/>
    <tag k="source" v="survey"/>
  </way>
  <way id="68564940" version="1" timestamp="2010-07-19T11:46:06Z" uid="7617" user="Franc" changeset="5260235">
    <nd ref="256672966"/>
    <nd ref="256676661"/>
    <nd ref="256672602"/>
    <tag k="highway" v="unclassified"/>
    <tag k="name" v="Cornwall Road"/>
    <tag k="source:name" v="survey"/>
  </way>
  <way id="68564941" version="1" timestamp="2010-07-19T11:46:06Z" uid="7617" user="Franc" changeset="5260235">
    <nd ref="824373816"/>
    <nd ref="824373819"/>
    <nd ref="824373817"/>
    <tag k="highway" v="residential"/>
    <tag k="name" v="Invergowrie Lane"/>
    <tag k="source" v="survey"/>
  </way>
</osm>
