<?xml version='1.0' encoding='UTF-8'?>
<osm version="0.6" generator="libosmium/2.20.0">
  <way id="6859432" version="6" timestamp="2010-12-01T20:42:29Z" uid="115477" user="wowik" changeset="6508304">
    <nd ref="266716689"/>
    <nd ref="53850412"/>
    <tag k="addr:postcode" v="125167"/>
    <tag k="cladr:code" v="77000000000332400"/>
    <tag k="cladr:name" v="Константина Симонова"/>
    <tag k="cladr:suffix" v="Улица"/>
    <tag k="highway" v="residential"/>
    <tag k="name" v="улица Константина Симонова"/>
    <tag k="omkum:code" v="25225"/>
    <tag k="omkum:old_name" v="Лазовский переулок (до 1917 г.)"/>
    <tag k="oneway" v="yes"/>
    <tag k="sorting_name" v="Симонова  Константина  улица"/>
  </way>
  <way id="6859432" version="7" timestamp="2011-02-19T20:22:46Z" uid="7547" user="edinorog" changeset="7336071">
    <nd ref="266716689"/>
    <nd ref="1162054713"/>
    <nd ref="53850412"/>
    <tag k="addr:postcode" v="125167"/>
    <tag k="cladr:code" v="77000000000332400"/>
    <tag k="cladr:name" v="Константина Симонова"/>
    <tag k="cladr:suffix" v="Улица"/>
    <tag k="highway" v="residential"/>
    <tag k="name" v="улица Константина Симонова"/>
    <tag k="omkum:code" v="25225"/>
    <tag k="omkum:old_name" v="Лазовский переулок (до 1917 г.)"/>
    <tag k="oneway" v="yes"/>
    <tag k="sorting_name" v="Симонова  Константина  улица"/>
  </way>
</osm>
