<?xml version='1.0' encoding='UTF-8'?>
<osm version="0.6" generator="libosmium/2.20.0">
  <way id="6864130" version="3" timestamp="2009-01-17T19:55:01Z" uid="31056" user="vctos" changeset="801090">
    <nd ref="53856567"/>
    <nd ref="53860548"/>
    <tag k="created_by" v="Potlatch 0.10f"/>
    <tag k="highway" v="residential"/>
    <tag k="name" v="8 Марта 4-я ул"/>
  </way>
  <way id="6864130" version="4" timestamp="2009-01-17T20:30:04Z" uid="66687" user="DarkAve" changeset="802071">
    <nd ref="53856567"/>
    <nd ref="53860548"/>
    <tag k="cladr" v="77000000000103000"/>
    <tag k="created_by" v="Merkaartor 0.12"/>
    <tag k="highway" v="residential"/>
    <tag k="name" v="8 Марта 4-я Улица"/>
  </way>
  <way id="6864130" version="5" timestamp="2009-02-26T09:40:59Z" uid="30590" user="KekcuHa" changeset="673384">
    <nd ref="53856567"/>
    <nd ref="53860548"/>
    <tag k="cladr" v="77000000000103000"/>
    <tag k="cladr:code" v="77000000000103000"/>
    <tag k="cladr:name" v="8 Марта 4-я"/>
    <tag k="cladr:suffix" v="Улица"/>
    <tag k="highway" v="residential"/>
    <tag k="name" v="8 Марта 4-я Улица"/>
  </way>
  <way id="6864130" version="6" timestamp="2009-11-13T18:19:46Z" uid="11132" user="liosha" changeset="3107858">
    <nd ref="53856567"/>
    <nd ref="53860548"/>
    <tag k="cladr" v="77000000000103000"/>
    <tag k="cladr:code" v="77000000000103000"/>
    <tag k="cladr:name" v="8 Марта 4-я"/>
    <tag k="cladr:suffix" v="Улица"/>
    <tag k="highway" v="residential"/>
    <tag k="name" v="4-я улица 8 Марта"/>
    <tag k="omkum:code" v="04230"/>
    <tag k="omkum:old_name" v="4-я Истоминская улица (1937 г.) 4-я улица Рыкова (1928 г.)"/>
    <tag k="sorting_name" v="8 Марта  4-я  улица"/>
  </way>
  <way id="6864556" version="3" timestamp="2009-01-11T21:06:54Z" uid="31056" user="vctos" changeset="773753">
    <nd ref="53857308"/>
    <nd ref="53861486"/>
    <tag k="created_by" v="Potlatch 0.10f"/>
    <tag k="highway" v="residential"/>
    <tag k="name" v="8 Марта 1-я улица"/>
  </way>
  <way id="6864556" version="4" timestamp="2009-02-26T12:01:56Z" uid="30590" user="KekcuHa" changeset="673384">
    <nd ref="53857308"/>
    <nd ref="53861486"/>
    <tag k="addr:postcode" v="125167"/>
    <tag k="cladr:code" v="77000000000102900"/>
    <tag k="cladr:name" v="8 Марта 1-я"/>
    <tag k="cladr:suffix" v="Улица"/>
    <tag k="created_by" v="Potlatch 0.10f"/>
    <tag k="highway" v="residential"/>
    <tag k="name" v="8 Марта 1-я улица"/>
  </way>
  <way id="6864556" version="5" timestamp="2009-11-10T15:53:29Z" uid="70742" user="Ezhick" changeset="3082913">
    <nd ref="53857308"/>
    <nd ref="53861486"/>
    <tag k="addr:postcode" v="125167"/>
    <tag k="cladr:code" v="77000000000102900"/>
    <tag k="cladr:name" v="8 Марта 1-я"/>
    <tag k="cladr:suffix" v="Улица"/>
    <tag k="highway" v="residential"/>
    <tag k="name" v="8 Марта 1-я улица"/>
  </way>
  <way id="6864556" version="6" timestamp="2009-11-13T18:19:42Z" uid="11132" user="liosha" changeset="3107858">
    <nd ref="53857308"/>
    <nd ref="53861486"/>
    <tag k="addr:postcode" v="125167"/>
    <tag k="cladr:code" v="77000000000102900"/>
    <tag k="cladr:name" v="8 Марта 1-я"/>
    <tag k="cladr:suffix" v="Улица"/>
    <tag k="highway" v="residential"/>
    <tag k="name" v="1-я улица 8 Марта"/>
    <tag k="omkum:code" v="04220"/>
    <tag k="omkum:old_name" v="1-я Истоминская улица (1937 г.) 1-я улица Рыкова (1928 г.)"/>
    <tag k="sorting_name" v="8 Марта  1-я  улица"/>
  </way>
  <way id="6864556" version="7" timestamp="2010-01-02T20:32:19Z" uid="60561" user="VIPstars" changeset="3522371">
    <nd ref="53857308"/>
    <nd ref="603242546"/>
    <nd ref="603242547"/>
    <nd ref="53861486"/>
    <tag k="addr:postcode" v="125167"/>
    <tag k="cladr:code" v="77000000000102900"/>
    <tag k="cladr:name" v="8 Марта 1-я"/>
    <tag k="cladr:suffix" v="Улица"/>
    <tag k="highway" v="residential"/>
    <tag k="name" v="1-я улица 8 Марта"/>
    <tag k="omkum:code" v="04220"/>
    <tag k="omkum:old_name" v="1-я Истоминская улица (1937 г.) 1-я улица Рыкова (1928 г.)"/>
    <tag k="sorting_name" v="8 Марта  1-я  улица"/>
  </way>
  <way id="6864556" version="8" timestamp="2010-03-15T19:01:35Z" uid="30590" user="KekcuHa" changeset="4137221">
    <nd ref="53857308"/>
    <nd ref="603242546"/>
    <nd ref="603242547"/>
    <nd ref="667008190"/>
    <nd ref="53861486"/>
    <tag k="addr:postcode" v="125167"/>
    <tag k="cladr:code" v="77000000000102900"/>
    <tag k="cladr:name" v="8 Марта 1-я"/>
    <tag k="cladr:suffix" v="Улица"/>
    <tag k="highway" v="residential"/>
    <tag k="name" v="1-я улица 8 Марта"/>
    <tag k="omkum:code" v="04220"/>
    <tag k="omkum:old_name" v="1-я Истоминская улица (1937 г.) 1-я улица Рыкова (1928 г.)"/>
    <tag k="sorting_name" v="8 Марта  1-я  улица"/>
  </way>
  <way id="6864556" version="9" timestamp="2011-02-25T10:26:49Z" uid="411448" user="Beefeater" changeset="7389180">
    <nd ref="53857308"/>
    <nd ref="1171919790"/>
    <nd ref="603242546"/>
    <nd ref="603242547"/>
    <nd ref="667008190"/>
    <nd ref="53861486"/>
    <tag k="addr:postcode" v="125167"/>
    <tag k="cladr:code" v="77000000000102900"/>
    <tag k="cladr:name" v="8 Марта 1-я"/>
    <tag k="cladr:suffix" v="Улица"/>
    <tag k="highway" v="residential"/>
    <tag k="name" v="1-я улица 8 Марта"/>
    <tag k="omkum:code" v="04220"/>
    <tag k="omkum:old_name" v="1-я Истоминская улица (1937 г.) 1-я улица Рыкова (1928 г.)"/>
    <tag k="sorting_name" v="8 Марта  1-я  улица"/>
  </way>
  <way id="6864718" version="3" timestamp="2008-06-11T07:33:39Z" uid="18775" user="drlizau" changeset="127022">
    <nd ref="31415911"/>
    <nd ref="53494125"/>
    <nd ref="53494227"/>
    <nd ref="53494235"/>
    <nd ref="53494241"/>
    <nd ref="53494282"/>
    <nd ref="53494297"/>
    <nd ref="53494298"/>
    <nd ref="53494314"/>
    <nd ref="53494309"/>
    <nd ref="53494321"/>
    <nd ref="53494316"/>
    <nd ref="53494329"/>
    <nd ref="53494325"/>
    <nd ref="53494366"/>
    <nd ref="53494372"/>
    <nd ref="53494355"/>
    <nd ref="53494343"/>
    <nd ref="53494349"/>
    <nd ref="53494332"/>
    <nd ref="53494337"/>
    <nd ref="53494417"/>
    <nd ref="53494423"/>
    <nd ref="53494403"/>
    <nd ref="53494410"/>
    <nd ref="53494389"/>
    <nd ref="269655243"/>
    <nd ref="53494398"/>
    <nd ref="53494377"/>
    <nd ref="53494383"/>
    <nd ref="53494474"/>
    <nd ref="53494468"/>
    <nd ref="53494461"/>
    <nd ref="53494456"/>
    <nd ref="53494451"/>
    <nd ref="53494435"/>
    <nd ref="53494428"/>
    <nd ref="53494531"/>
    <nd ref="53494522"/>
    <nd ref="53494513"/>
    <nd ref="53494508"/>
    <nd ref="53494503"/>
    <nd ref="53494497"/>
    <nd ref="53494491"/>
    <nd ref="53494485"/>
    <tag k="created_by" v="Potlatch alpha"/>
    <tag k="natural" v="coastline"/>
    <tag k="source" v="PGS"/>
  </way>
  <way id="6864718" version="4" timestamp="2008-11-19T11:22:21Z" uid="1164" user="dmgroom" changeset="768299"/>
</osm>
