<?xml version='1.0' encoding='UTF-8'?>
<osm version="0.6" generator="libosmium/2.20.0">
  <way id="69229189" version="1" timestamp="2010-07-23T10:44:21Z" uid="273460" user="oguri-kasugayoung" changeset="5294176">
    <nd ref="829989968"/>
    <nd ref="829989970"/>
    <nd ref="829989971"/>
    <nd ref="829989974"/>
    <nd ref="829989975"/>
    <nd ref="829989976"/>
    <nd ref="829989978"/>
    <nd ref="829989979"/>
    <nd ref="829989980"/>
    <nd ref="829989981"/>
    <nd ref="829989983"/>
    <nd ref="829989984"/>
    <nd ref="829989985"/>
    <nd ref="829989986"/>
    <nd ref="829989987"/>
    <tag k="bridge" v="yes"/>
    <tag k="highway" v="motorway"/>
    <tag k="layer" v="2"/>
    <tag k="motorroad " v="no"/>
    <tag k="name" v="国道9号線江津道路"/>
    <tag k="oneway" v="yes"/>
    <tag k="ref" v="9"/>
  </way>
  <way id="69229189" version="2" timestamp="2010-07-23T20:44:09Z" uid="70696" user="xybot" changeset="5298638">
    <nd ref="829989968"/>
    <nd ref="829989970"/>
    <nd ref="829989971"/>
    <nd ref="829989974"/>
    <nd ref="829989975"/>
    <nd ref="829989976"/>
    <nd ref="829989978"/>
    <nd ref="829989979"/>
    <nd ref="829989980"/>
    <nd ref="829989981"/>
    <nd ref="829989983"/>
    <nd ref="829989984"/>
    <nd ref="829989985"/>
    <nd ref="829989986"/>
    <nd ref="829989987"/>
    <tag k="bridge" v="yes"/>
    <tag k="highway" v="motorway"/>
    <tag k="layer" v="2"/>
    <tag k="motorroad" v="no"/>
    <tag k="name" v="国道9号線江津道路"/>
    <tag k="oneway" v="yes"/>
    <tag k="ref" v="9"/>
  </way>
  <way id="69229189" version="3" timestamp="2010-07-24T17:16:37Z" uid="171838" user="argrath" changeset="5305595">
    <nd ref="829989968"/>
    <nd ref="829989970"/>
    <nd ref="829989971"/>
    <nd ref="829989974"/>
    <nd ref="829989975"/>
    <nd ref="829989976"/>
    <nd ref="829989978"/>
    <nd ref="829989979"/>
    <nd ref="829989980"/>
    <nd ref="829989981"/>
    <nd ref="829989983"/>
    <nd ref="829989984"/>
    <nd ref="829989985"/>
    <nd ref="829989986"/>
    <nd ref="829989987"/>
    <tag k="bridge" v="yes"/>
    <tag k="highway" v="motorway"/>
    <tag k="layer" v="2"/>
    <tag k="name" v="国道9号線江津道路"/>
    <tag k="note" v="motorroad=no"/>
    <tag k="oneway" v="yes"/>
    <tag k="ref" v="9"/>
  </way>
  <way id="69229189" version="4" timestamp="2011-04-30T13:50:56Z" uid="384916" user="takemori3" changeset="8011783">
    <nd ref="829989968"/>
    <nd ref="829989970"/>
    <nd ref="829989971"/>
    <nd ref="829989974"/>
    <nd ref="829989975"/>
    <nd ref="829989976"/>
    <nd ref="1267215911"/>
    <nd ref="829989978"/>
    <nd ref="829989979"/>
    <nd ref="829989980"/>
    <nd ref="829989981"/>
    <nd ref="829989983"/>
    <nd ref="829989984"/>
    <nd ref="829989985"/>
    <nd ref="829989986"/>
    <nd ref="829989987"/>
    <tag k="bridge" v="yes"/>
    <tag k="highway" v="motorway"/>
    <tag k="layer" v="2"/>
    <tag k="name" v="国道9号線江津道路"/>
    <tag k="note" v="motorroad=no"/>
    <tag k="oneway" v="yes"/>
    <tag k="ref" v="9"/>
  </way>
  <way id="69229189" version="5" timestamp="2011-06-10T16:28:19Z" uid="32308" user="yamasan" changeset="8398576">
    <nd ref="829989968"/>
    <nd ref="829989970"/>
    <nd ref="829989971"/>
    <nd ref="829989974"/>
    <nd ref="829989975"/>
    <nd ref="829989976"/>
    <nd ref="1267215911"/>
    <nd ref="829989978"/>
    <nd ref="829989979"/>
    <nd ref="829989980"/>
    <nd ref="829989981"/>
    <nd ref="829989983"/>
    <nd ref="829989984"/>
    <nd ref="829989985"/>
    <nd ref="1319069677"/>
    <nd ref="829989986"/>
    <nd ref="829989987"/>
    <tag k="bridge" v="yes"/>
    <tag k="highway" v="motorway"/>
    <tag k="layer" v="2"/>
    <tag k="name" v="国道9号線江津道路"/>
    <tag k="note" v="motorroad=no"/>
    <tag k="oneway" v="yes"/>
    <tag k="ref" v="9"/>
  </way>
</osm>
