<?xml version='1.0' encoding='UTF-8'?>
<osm version="0.6" generator="libosmium/2.20.0">
  <way id="69337806" version="2" timestamp="2010-10-31T04:37:58Z" uid="7617" user="Franc" changeset="6234980">
    <nd ref="599108513"/>
    <nd ref="830741443"/>
    <tag k="highway" v="service"/>
    <tag k="name" v="Renwick Street"/>
  </way>
  <way id="69337807" version="2" timestamp="2010-10-31T04:37:41Z" uid="7617" user="Franc" changeset="6234980">
    <nd ref="253268046"/>
    <nd ref="415550606"/>
    <tag k="highway" v="service"/>
    <tag k="name" v="James Street"/>
    <tag k="source" v="nearmap"/>
    <tag k="source:name" v="survey"/>
  </way>
  <way id="69337807" version="3" timestamp="2011-04-09T02:21:05Z" uid="7617" user="Franc" changeset="7809501">
    <nd ref="253268046"/>
    <nd ref="1237989616"/>
    <nd ref="415550606"/>
    <tag k="highway" v="service"/>
    <tag k="name" v="James Street"/>
    <tag k="source" v="nearmap"/>
    <tag k="source:name" v="survey"/>
  </way>
</osm>
