<?xml version='1.0' encoding='UTF-8'?>
<osm version="0.6" generator="libosmium/2.20.0">
  <way id="6952359" version="2" timestamp="2008-06-12T18:42:43Z" uid="8619" user="cetest" changeset="141927">
    <nd ref="45095903"/>
    <nd ref="269951847"/>
    <nd ref="45089387"/>
    <nd ref="45086403"/>
    <nd ref="45084025"/>
    <nd ref="45081884"/>
    <nd ref="45077360"/>
    <nd ref="45066791"/>
    <nd ref="45060115"/>
    <nd ref="45045450"/>
    <tag k="AND:importance_level" v="2"/>
    <tag k="AND_nosr_r" v="15550031"/>
    <tag k="highway" v="primary"/>
    <tag k="name" v="Apeldoornseweg"/>
    <tag k="oneway" v="1"/>
    <tag k="ref" v="N304"/>
  </way>
  <way id="6952359" version="3" timestamp="2008-09-02T16:14:30Z" uid="6424" user="Lambertus" changeset="498942">
    <nd ref="45095903"/>
    <nd ref="269951847"/>
    <nd ref="45089387"/>
    <nd ref="45086403"/>
    <nd ref="45081884"/>
    <nd ref="45077360"/>
    <nd ref="45066791"/>
    <nd ref="45060115"/>
    <nd ref="45045450"/>
    <tag k="AND:importance_level" v="2"/>
    <tag k="AND_nosr_r" v="15550031"/>
    <tag k="highway" v="primary"/>
    <tag k="name" v="Apeldoornseweg"/>
    <tag k="oneway" v="1"/>
    <tag k="ref" v="N304"/>
  </way>
  <way id="6952359" version="4" timestamp="2008-09-28T05:56:13Z" uid="25641" user="Geert Schuring" changeset="709147">
    <nd ref="45095903"/>
    <nd ref="269951847"/>
    <nd ref="45089387"/>
    <nd ref="45086403"/>
    <nd ref="45081884"/>
    <nd ref="45077360"/>
    <nd ref="45066791"/>
    <nd ref="45060115"/>
    <nd ref="300493400"/>
    <nd ref="45045450"/>
    <tag k="AND:importance_level" v="2"/>
    <tag k="AND_nosr_r" v="15550031"/>
    <tag k="highway" v="primary"/>
    <tag k="name" v="Apeldoornseweg"/>
    <tag k="oneway" v="1"/>
    <tag k="ref" v="N304"/>
  </way>
  <way id="6952359" version="5" timestamp="2009-05-17T20:57:01Z" uid="25641" user="Geert Schuring" changeset="1229369">
    <nd ref="45095903"/>
    <nd ref="269951847"/>
    <nd ref="45089387"/>
    <nd ref="45086403"/>
    <nd ref="45081884"/>
    <nd ref="45077360"/>
    <nd ref="45066791"/>
    <nd ref="45060115"/>
    <nd ref="300493400"/>
    <nd ref="45045450"/>
    <tag k="AND:importance_level" v="2"/>
    <tag k="AND_nosr_r" v="15550031"/>
    <tag k="highway" v="primary"/>
    <tag k="maxspeed" v="80"/>
    <tag k="name" v="Apeldoornseweg"/>
    <tag k="oneway" v="1"/>
    <tag k="ref" v="N304"/>
  </way>
  <way id="6952359" version="6" timestamp="2010-07-22T06:42:55Z" uid="204153" user="mfvl" changeset="5284398">
    <nd ref="45095903"/>
    <nd ref="269951847"/>
    <nd ref="45089387"/>
    <nd ref="45086403"/>
    <nd ref="45081884"/>
    <nd ref="45077360"/>
    <nd ref="45066791"/>
    <nd ref="45060115"/>
    <nd ref="300493400"/>
    <nd ref="45045450"/>
    <tag k="AND:importance_level" v="2"/>
    <tag k="AND_nosr_r" v="15550031"/>
    <tag k="highway" v="primary"/>
    <tag k="maxspeed" v="80"/>
    <tag k="name" v="Apeldoornseweg"/>
    <tag k="oneway" v="yes"/>
    <tag k="ref" v="N304"/>
  </way>
  <way id="6952359" version="7" timestamp="2011-06-21T05:37:01Z" uid="426580" user="MStorm" changeset="8501320"/>
  <way id="6952360" version="2" timestamp="2008-06-12T18:42:43Z" uid="8619" user="cetest" changeset="141927">
    <nd ref="45044878"/>
    <nd ref="45052637"/>
    <nd ref="45063080"/>
    <nd ref="45074458"/>
    <nd ref="45078097"/>
    <nd ref="45081971"/>
    <nd ref="45085982"/>
    <nd ref="45088365"/>
    <nd ref="45093702"/>
    <nd ref="269951848"/>
    <nd ref="45095254"/>
    <tag k="AND:importance_level" v="2"/>
    <tag k="AND_nosr_r" v="15550030"/>
    <tag k="highway" v="primary"/>
    <tag k="name" v="Apeldoornseweg"/>
    <tag k="oneway" v="1"/>
    <tag k="ref" v="N304"/>
  </way>
  <way id="6952360" version="3" timestamp="2008-09-02T16:14:30Z" uid="6424" user="Lambertus" changeset="498942">
    <nd ref="45044878"/>
    <nd ref="45052637"/>
    <nd ref="45063080"/>
    <nd ref="45078097"/>
    <nd ref="45081971"/>
    <nd ref="45085982"/>
    <nd ref="45088365"/>
    <nd ref="45093702"/>
    <nd ref="269951848"/>
    <nd ref="45095254"/>
    <tag k="AND:importance_level" v="2"/>
    <tag k="AND_nosr_r" v="15550030"/>
    <tag k="highway" v="primary"/>
    <tag k="name" v="Apeldoornseweg"/>
    <tag k="oneway" v="1"/>
    <tag k="ref" v="N304"/>
  </way>
  <way id="6952360" version="4" timestamp="2008-09-28T05:56:13Z" uid="25641" user="Geert Schuring" changeset="709147">
    <nd ref="45044878"/>
    <nd ref="300493398"/>
    <nd ref="45052637"/>
    <nd ref="45063080"/>
    <nd ref="45078097"/>
    <nd ref="45081971"/>
    <nd ref="45085982"/>
    <nd ref="45088365"/>
    <nd ref="45093702"/>
    <nd ref="269951848"/>
    <nd ref="45095254"/>
    <tag k="AND:importance_level" v="2"/>
    <tag k="AND_nosr_r" v="15550030"/>
    <tag k="highway" v="primary"/>
    <tag k="name" v="Apeldoornseweg"/>
    <tag k="oneway" v="1"/>
    <tag k="ref" v="N304"/>
  </way>
  <way id="6952360" version="5" timestamp="2009-05-17T20:57:01Z" uid="25641" user="Geert Schuring" changeset="1229369">
    <nd ref="45044878"/>
    <nd ref="300493398"/>
    <nd ref="45052637"/>
    <nd ref="45063080"/>
    <nd ref="45078097"/>
    <nd ref="45081971"/>
    <nd ref="45085982"/>
    <nd ref="45088365"/>
    <nd ref="45093702"/>
    <nd ref="269951848"/>
    <nd ref="45095254"/>
    <tag k="AND:importance_level" v="2"/>
    <tag k="AND_nosr_r" v="15550030"/>
    <tag k="highway" v="primary"/>
    <tag k="maxspeed" v="80"/>
    <tag k="name" v="Apeldoornseweg"/>
    <tag k="oneway" v="1"/>
    <tag k="ref" v="N304"/>
  </way>
  <way id="6952360" version="6" timestamp="2010-07-22T06:42:32Z" uid="204153" user="mfvl" changeset="5284398">
    <nd ref="45044878"/>
    <nd ref="300493398"/>
    <nd ref="45052637"/>
    <nd ref="45063080"/>
    <nd ref="45078097"/>
    <nd ref="45081971"/>
    <nd ref="45085982"/>
    <nd ref="45088365"/>
    <nd ref="45093702"/>
    <nd ref="269951848"/>
    <nd ref="45095254"/>
    <tag k="AND:importance_level" v="2"/>
    <tag k="AND_nosr_r" v="15550030"/>
    <tag k="highway" v="primary"/>
    <tag k="maxspeed" v="80"/>
    <tag k="name" v="Apeldoornseweg"/>
    <tag k="oneway" v="yes"/>
    <tag k="ref" v="N304"/>
  </way>
  <way id="6952360" version="7" timestamp="2011-06-21T05:36:47Z" uid="426580" user="MStorm" changeset="8501320">
    <nd ref="45044878"/>
    <nd ref="300493398"/>
    <nd ref="45052637"/>
    <nd ref="45063080"/>
    <nd ref="45078097"/>
    <nd ref="45081971"/>
    <nd ref="45085982"/>
    <nd ref="45088365"/>
    <nd ref="45093702"/>
    <nd ref="269951848"/>
    <nd ref="1333124529"/>
    <tag k="AND:importance_level" v="2"/>
    <tag k="AND_nosr_r" v="15550030"/>
    <tag k="highway" v="primary"/>
    <tag k="maxspeed" v="80"/>
    <tag k="name" v="Apeldoornseweg"/>
    <tag k="oneway" v="yes"/>
    <tag k="ref" v="N304"/>
  </way>
  <way id="6952360" version="8" timestamp="2011-06-21T05:39:53Z" uid="426580" user="MStorm" changeset="8501320">
    <nd ref="45044878"/>
    <nd ref="300493398"/>
    <nd ref="45052637"/>
    <nd ref="45063080"/>
    <nd ref="45078097"/>
    <nd ref="45081971"/>
    <nd ref="45085982"/>
    <nd ref="45088365"/>
    <nd ref="45093702"/>
    <nd ref="269951848"/>
    <nd ref="1333124529"/>
    <tag k="AND:importance_level" v="2"/>
    <tag k="AND_nosr_r" v="15550030"/>
    <tag k="bicycle" v="no"/>
    <tag k="foot" v="no"/>
    <tag k="highway" v="primary"/>
    <tag k="maxspeed" v="80"/>
    <tag k="name" v="Apeldoornseweg"/>
    <tag k="oneway" v="yes"/>
    <tag k="ref" v="N304"/>
  </way>
  <way id="6952360" version="9" timestamp="2011-10-09T21:33:06Z" uid="36080" user="polderrunner" changeset="9517632">
    <nd ref="45044878"/>
    <nd ref="300493398"/>
    <nd ref="45052637"/>
    <nd ref="45063080"/>
    <nd ref="45078097"/>
    <nd ref="45081971"/>
    <nd ref="45085982"/>
    <nd ref="45088365"/>
    <nd ref="45093702"/>
    <nd ref="269951848"/>
    <nd ref="1333124529"/>
    <tag k="AND:importance_level" v="2"/>
    <tag k="AND_nosr_r" v="15550030"/>
    <tag k="bicycle" v="no"/>
    <tag k="foot" v="no"/>
    <tag k="highway" v="primary"/>
    <tag k="maxspeed" v="80"/>
    <tag k="name" v="Apeldoornseweg"/>
    <tag k="oneway" v="yes"/>
    <tag k="ref" v="N304"/>
    <tag k="source:maxspeed" v="NL:rural"/>
  </way>
  <way id="6952361" version="2" timestamp="2008-06-12T18:42:47Z" uid="8619" user="cetest" changeset="141927">
    <nd ref="45020285"/>
    <nd ref="45019549"/>
    <nd ref="45019485"/>
    <nd ref="45019489"/>
    <nd ref="45020288"/>
    <nd ref="45020785"/>
    <nd ref="45021228"/>
    <nd ref="45021890"/>
    <nd ref="45021902"/>
    <nd ref="45024299"/>
    <nd ref="45025384"/>
    <nd ref="45025813"/>
    <nd ref="45025410"/>
    <nd ref="45025793"/>
    <tag k="AND:importance_level" v="5"/>
    <tag k="AND_nosr_r" v="15550029"/>
    <tag k="highway" v="track"/>
    <tag k="name" v="Kreelseweg"/>
  </way>
  <way id="6952361" version="3" timestamp="2008-08-16T06:41:09Z" uid="25641" user="Geert Schuring" changeset="281301">
    <nd ref="45020285"/>
    <nd ref="45019549"/>
    <nd ref="45019485"/>
    <nd ref="45019489"/>
    <nd ref="45020288"/>
    <nd ref="45020785"/>
    <nd ref="45021228"/>
    <nd ref="45021890"/>
    <nd ref="45021902"/>
    <nd ref="45024299"/>
    <nd ref="45025384"/>
    <nd ref="45025813"/>
    <nd ref="45025410"/>
    <nd ref="45025793"/>
    <tag k="AND:importance_level" v="5"/>
    <tag k="AND_nosr_r" v="15550029"/>
    <tag k="highway" v="cycleway"/>
  </way>
  <way id="6952361" version="4" timestamp="2009-01-31T23:20:36Z" uid="91749" user="Frankl2009" changeset="860856">
    <nd ref="45020285"/>
    <nd ref="45019549"/>
    <nd ref="45019485"/>
    <nd ref="339508560"/>
    <nd ref="45019489"/>
    <nd ref="45020288"/>
    <nd ref="45020785"/>
    <nd ref="45021228"/>
    <nd ref="45021890"/>
    <nd ref="45021902"/>
    <nd ref="45024299"/>
    <nd ref="45025384"/>
    <nd ref="45025813"/>
    <nd ref="45025410"/>
    <nd ref="45025793"/>
    <tag k="AND:importance_level" v="5"/>
    <tag k="AND_nosr_r" v="15550029"/>
    <tag k="created_by" v="Potlatch 0.10f"/>
    <tag k="highway" v="cycleway"/>
  </way>
  <way id="6952380" version="2" timestamp="2008-06-14T07:28:19Z" uid="8619" user="cetest" changeset="156122">
    <nd ref="45007756"/>
    <nd ref="45007736"/>
    <nd ref="45007420"/>
    <nd ref="45006972"/>
    <nd ref="45006441"/>
    <nd ref="45004699"/>
    <nd ref="45004655"/>
    <tag k="AND_nosr_r" v="15550014"/>
    <tag k="highway" v="unclassified"/>
    <tag k="name" v="Oude Arnhemseweg"/>
    <tag k="oneway" v="1"/>
  </way>
  <way id="6952380" version="3" timestamp="2008-06-25T19:07:39Z" uid="25641" user="Geert Schuring" changeset="295254">
    <nd ref="45007756"/>
    <nd ref="45007736"/>
    <nd ref="45007420"/>
    <nd ref="45006972"/>
    <nd ref="45006441"/>
    <nd ref="45004699"/>
    <nd ref="273179358"/>
    <nd ref="45004655"/>
    <tag k="AND_nosr_r" v="15550014"/>
    <tag k="highway" v="unclassified"/>
    <tag k="name" v="Oude Arnhemseweg"/>
    <tag k="oneway" v="1"/>
  </way>
  <way id="6952380" version="4" timestamp="2010-07-22T06:41:30Z" uid="204153" user="mfvl" changeset="5284398">
    <nd ref="45007756"/>
    <nd ref="45007736"/>
    <nd ref="45007420"/>
    <nd ref="45006972"/>
    <nd ref="45006441"/>
    <nd ref="45004699"/>
    <nd ref="273179358"/>
    <nd ref="45004655"/>
    <tag k="AND_nosr_r" v="15550014"/>
    <tag k="highway" v="unclassified"/>
    <tag k="name" v="Oude Arnhemseweg"/>
    <tag k="oneway" v="yes"/>
  </way>
  <way id="6952380" version="5" timestamp="2012-01-21T22:11:12Z" uid="334075" user="eggie" changeset="10460340">
    <nd ref="45007756"/>
    <nd ref="45007736"/>
    <nd ref="45007420"/>
    <nd ref="45006972"/>
    <nd ref="45006441"/>
    <nd ref="45004699"/>
    <nd ref="273179358"/>
    <nd ref="45004655"/>
    <tag k="AND_nosr_r" v="15550014"/>
    <tag k="highway" v="unclassified"/>
    <tag k="name" v="Oude Arnhemseweg"/>
    <tag k="oneway" v="yes"/>
  </way>
  <way id="6952380" version="6" timestamp="2012-01-21T22:15:16Z" uid="334075" user="eggie" changeset="10460340">
    <nd ref="45007756"/>
    <nd ref="45007736"/>
    <nd ref="45007420"/>
    <nd ref="45006972"/>
    <nd ref="45006441"/>
    <nd ref="45004699"/>
    <nd ref="273179358"/>
    <nd ref="45004655"/>
    <tag k="AND_nosr_r" v="15550014"/>
    <tag k="cycleway" v="opposite"/>
    <tag k="highway" v="unclassified"/>
    <tag k="name" v="Oude Arnhemseweg"/>
    <tag k="oneway" v="yes"/>
  </way>
  <way id="6952542" version="2" timestamp="2008-06-12T18:42:53Z" uid="8619" user="cetest" changeset="141927">
    <nd ref="45094758"/>
    <nd ref="269951851"/>
    <nd ref="45089258"/>
    <nd ref="269951852"/>
    <tag k="AND:importance_level" v="5"/>
    <tag k="AND_nosr_r" v="15549876"/>
    <tag k="highway" v="tertiary"/>
    <tag k="name" v="Hessenweg"/>
  </way>
  <way id="6952542" version="3" timestamp="2008-06-14T07:23:33Z" uid="8619" user="cetest" changeset="156122">
    <nd ref="45094758"/>
    <nd ref="269951851"/>
    <tag k="AND:importance_level" v="5"/>
    <tag k="AND_nosr_r" v="15549876"/>
    <tag k="highway" v="tertiary"/>
    <tag k="name" v="Hessenweg"/>
  </way>
  <way id="6952542" version="4" timestamp="2009-11-14T09:01:33Z" uid="162879" user="Reinout" changeset="3111345">
    <nd ref="45094758"/>
    <nd ref="269951851"/>
    <tag k="AND:importance_level" v="5"/>
    <tag k="AND_nosr_r" v="15549876"/>
    <tag k="highway" v="unclassified"/>
    <tag k="name" v="Hessenweg"/>
  </way>
  <way id="6952542" version="5" timestamp="2011-06-21T05:36:48Z" uid="426580" user="MStorm" changeset="8501320">
    <nd ref="45094758"/>
    <nd ref="269951851"/>
    <nd ref="269951852"/>
    <nd ref="45089258"/>
    <tag k="AND:importance_level" v="5"/>
    <tag k="AND_nosr_r" v="15549876"/>
    <tag k="highway" v="unclassified"/>
    <tag k="name" v="Hessenweg"/>
  </way>
  <way id="6952542" version="6" timestamp="2011-07-26T09:11:16Z" uid="426580" user="MStorm" changeset="8833583">
    <nd ref="45094758"/>
    <nd ref="269951851"/>
    <nd ref="269951852"/>
    <tag k="AND:importance_level" v="5"/>
    <tag k="AND_nosr_r" v="15549876"/>
    <tag k="bicycle" v="yes"/>
    <tag k="cycleway" v="no"/>
    <tag k="foot" v="yes"/>
    <tag k="highway" v="unclassified"/>
    <tag k="name" v="Hessenweg"/>
    <tag k="surface" v="asphalt"/>
  </way>
  <way id="6952542" version="7" timestamp="2012-01-21T21:47:05Z" uid="334075" user="eggie" changeset="10460108">
    <nd ref="1600543515"/>
    <nd ref="1600543513"/>
    <nd ref="269951852"/>
    <tag k="AND:importance_level" v="5"/>
    <tag k="AND_nosr_r" v="15549876"/>
    <tag k="bicycle" v="yes"/>
    <tag k="cycleway" v="no"/>
    <tag k="foot" v="yes"/>
    <tag k="highway" v="unclassified"/>
    <tag k="name" v="Hessenweg"/>
    <tag k="surface" v="asphalt"/>
  </way>
  <way id="6952542" version="8" timestamp="2012-01-21T22:26:36Z" uid="334075" user="eggie" changeset="10460340">
    <nd ref="1600543515"/>
    <nd ref="1600543513"/>
    <nd ref="1600578924"/>
    <tag k="AND:importance_level" v="5"/>
    <tag k="AND_nosr_r" v="15549876"/>
    <tag k="bicycle" v="yes"/>
    <tag k="cycleway" v="no"/>
    <tag k="foot" v="yes"/>
    <tag k="highway" v="unclassified"/>
    <tag k="name" v="Hessenweg"/>
    <tag k="surface" v="asphalt"/>
  </way>
  <way id="6952542" version="9" timestamp="2012-03-12T20:37:48Z" uid="334075" user="eggie" changeset="10960199">
    <nd ref="1600543515"/>
    <nd ref="1600543513"/>
    <nd ref="1672526776"/>
    <nd ref="1600578924"/>
    <tag k="AND:importance_level" v="5"/>
    <tag k="AND_nosr_r" v="15549876"/>
    <tag k="bicycle" v="yes"/>
    <tag k="cycleway" v="no"/>
    <tag k="foot" v="yes"/>
    <tag k="highway" v="unclassified"/>
    <tag k="name" v="Hessenweg"/>
    <tag k="surface" v="asphalt"/>
  </way>
  <way id="6952546" version="2" timestamp="2008-06-12T18:42:48Z" uid="8619" user="cetest" changeset="141927">
    <nd ref="45021229"/>
    <nd ref="45019996"/>
    <nd ref="45020358"/>
    <nd ref="45021616"/>
    <nd ref="45025815"/>
    <nd ref="45028022"/>
    <nd ref="45029730"/>
    <nd ref="45031405"/>
    <nd ref="45032075"/>
    <tag k="AND:importance_level" v="5"/>
    <tag k="AND_nosr_r" v="15549872"/>
    <tag k="highway" v="unclassified"/>
    <tag k="name" v="Kreelseweg"/>
  </way>
  <way id="6952546" version="3" timestamp="2008-06-29T14:24:38Z" uid="25641" user="Geert Schuring" changeset="334341"/>
  <way id="6952554" version="2" timestamp="2008-06-12T18:42:44Z" uid="8619" user="cetest" changeset="141927">
    <nd ref="45108658"/>
    <nd ref="45112930"/>
    <nd ref="45114785"/>
    <nd ref="45115745"/>
    <nd ref="45116566"/>
    <nd ref="45117706"/>
    <nd ref="269951845"/>
    <nd ref="45118392"/>
    <nd ref="45128318"/>
    <tag k="AND:importance_level" v="5"/>
    <tag k="AND_nosr_r" v="15549866"/>
    <tag k="highway" v="tertiary"/>
    <tag k="name" v="Apeldoornseweg"/>
  </way>
  <way id="6952554" version="3" timestamp="2008-06-14T07:23:34Z" uid="8619" user="cetest" changeset="156122">
    <nd ref="45108658"/>
    <nd ref="45112930"/>
    <nd ref="45114785"/>
    <nd ref="45115745"/>
    <nd ref="45116566"/>
    <nd ref="45117706"/>
    <nd ref="269951845"/>
    <tag k="AND:importance_level" v="5"/>
    <tag k="AND_nosr_r" v="15549866"/>
    <tag k="highway" v="tertiary"/>
    <tag k="name" v="Apeldoornseweg"/>
  </way>
  <way id="6952554" version="4" timestamp="2009-11-14T09:01:27Z" uid="162879" user="Reinout" changeset="3111345">
    <nd ref="45108658"/>
    <nd ref="45112930"/>
    <nd ref="45114785"/>
    <nd ref="45115745"/>
    <nd ref="45116566"/>
    <nd ref="45117706"/>
    <nd ref="269951845"/>
    <tag k="AND:importance_level" v="5"/>
    <tag k="AND_nosr_r" v="15549866"/>
    <tag k="highway" v="unclassified"/>
    <tag k="name" v="Apeldoornseweg"/>
  </way>
  <way id="6952554" version="5" timestamp="2011-07-26T09:11:16Z" uid="426580" user="MStorm" changeset="8833583">
    <nd ref="45108658"/>
    <nd ref="45112930"/>
    <nd ref="45114785"/>
    <nd ref="45115745"/>
    <nd ref="45116566"/>
    <nd ref="45117706"/>
    <nd ref="269951845"/>
    <tag k="AND:importance_level" v="5"/>
    <tag k="AND_nosr_r" v="15549866"/>
    <tag k="bicycle" v="yes"/>
    <tag k="cycleway" v="no"/>
    <tag k="foot" v="yes"/>
    <tag k="highway" v="unclassified"/>
    <tag k="name" v="Apeldoornseweg"/>
    <tag k="surface" v="asphalt"/>
  </way>
  <way id="6952557" version="2" timestamp="2008-06-12T18:42:51Z" uid="8619" user="cetest" changeset="141927">
    <nd ref="45093078"/>
    <nd ref="269951846"/>
    <nd ref="45097076"/>
    <tag k="AND:importance_level" v="5"/>
    <tag k="AND_nosr_r" v="15549864"/>
    <tag k="highway" v="tertiary"/>
    <tag k="name" v="Apeldoornseweg"/>
  </way>
  <way id="6952557" version="3" timestamp="2008-06-14T07:23:35Z" uid="8619" user="cetest" changeset="156122">
    <nd ref="45093078"/>
    <nd ref="269951846"/>
    <tag k="AND:importance_level" v="5"/>
    <tag k="AND_nosr_r" v="15549864"/>
    <tag k="highway" v="tertiary"/>
    <tag k="name" v="Apeldoornseweg"/>
  </way>
  <way id="6952557" version="4" timestamp="2009-11-14T09:01:33Z" uid="162879" user="Reinout" changeset="3111345">
    <nd ref="45093078"/>
    <nd ref="269951846"/>
    <tag k="AND:importance_level" v="5"/>
    <tag k="AND_nosr_r" v="15549864"/>
    <tag k="highway" v="unclassified"/>
    <tag k="name" v="Apeldoornseweg"/>
  </way>
  <way id="6952557" version="5" timestamp="2011-06-21T05:39:53Z" uid="426580" user="MStorm" changeset="8501320">
    <nd ref="45093078"/>
    <nd ref="269951846"/>
    <tag k="AND:importance_level" v="5"/>
    <tag k="AND_nosr_r" v="15549864"/>
    <tag k="bicycle" v="yes"/>
    <tag k="cycleway" v="no"/>
    <tag k="foot" v="yes"/>
    <tag k="highway" v="unclassified"/>
    <tag k="name" v="Apeldoornseweg"/>
  </way>
  <way id="6952557" version="6" timestamp="2012-01-21T21:47:06Z" uid="334075" user="eggie" changeset="10460108">
    <nd ref="45093078"/>
    <nd ref="1600543519"/>
    <tag k="AND:importance_level" v="5"/>
    <tag k="AND_nosr_r" v="15549864"/>
    <tag k="bicycle" v="yes"/>
    <tag k="cycleway" v="no"/>
    <tag k="foot" v="yes"/>
    <tag k="highway" v="unclassified"/>
    <tag k="name" v="Apeldoornseweg"/>
  </way>
  <way id="6952557" version="7" timestamp="2012-01-24T20:46:11Z" uid="334075" user="eggie" changeset="10488359">
    <nd ref="45093078"/>
    <nd ref="1604078661"/>
    <tag k="AND:importance_level" v="5"/>
    <tag k="AND_nosr_r" v="15549864"/>
    <tag k="bicycle" v="yes"/>
    <tag k="cycleway" v="no"/>
    <tag k="foot" v="yes"/>
    <tag k="highway" v="unclassified"/>
    <tag k="name" v="Apeldoornseweg"/>
  </way>
  <way id="6952559" version="2" timestamp="2008-06-12T18:42:49Z" uid="8619" user="cetest" changeset="141927">
    <nd ref="45021229"/>
    <nd ref="45022685"/>
    <nd ref="45025267"/>
    <nd ref="45025793"/>
    <tag k="AND:importance_level" v="5"/>
    <tag k="AND_nosr_r" v="15549863"/>
    <tag k="highway" v="track"/>
    <tag k="name" v="Kreelseweg"/>
  </way>
  <way id="6952559" version="3" timestamp="2008-06-29T14:24:38Z" uid="25641" user="Geert Schuring" changeset="334341">
    <nd ref="45021229"/>
    <nd ref="45022685"/>
    <nd ref="274653808"/>
    <nd ref="45025267"/>
    <nd ref="45025793"/>
    <tag k="AND:importance_level" v="5"/>
    <tag k="AND_nosr_r" v="15549863"/>
    <tag k="highway" v="track"/>
    <tag k="name" v="Kreelseweg"/>
  </way>
  <way id="6952559" version="4" timestamp="2008-08-16T06:41:12Z" uid="25641" user="Geert Schuring" changeset="281301"/>
  <way id="6952706" version="2" timestamp="2008-06-12T18:42:46Z" uid="8619" user="cetest" changeset="141927">
    <nd ref="45115483"/>
    <nd ref="269951842"/>
    <nd ref="45133241"/>
    <nd ref="45148272"/>
    <nd ref="45153436"/>
    <nd ref="45157588"/>
    <nd ref="45173935"/>
    <nd ref="45184646"/>
    <nd ref="45187951"/>
    <nd ref="45200872"/>
    <nd ref="45209259"/>
    <tag k="AND:importance_level" v="4"/>
    <tag k="AND_nosr_r" v="15549736"/>
    <tag k="highway" v="secondary"/>
    <tag k="name" v="Wekeromseweg"/>
  </way>
  <way id="6952706" version="3" timestamp="2008-08-31T22:19:40Z" uid="25641" user="Geert Schuring" changeset="483691">
    <nd ref="45115483"/>
    <nd ref="269951842"/>
    <nd ref="45133241"/>
    <nd ref="45148272"/>
    <nd ref="45153436"/>
    <nd ref="45157588"/>
    <nd ref="45173935"/>
    <nd ref="45184646"/>
    <nd ref="45187951"/>
    <nd ref="45200872"/>
    <nd ref="292748842"/>
    <nd ref="45209259"/>
    <tag k="AND:importance_level" v="4"/>
    <tag k="AND_nosr_r" v="15549736"/>
    <tag k="highway" v="secondary"/>
    <tag k="name" v="Wekeromseweg"/>
  </way>
  <way id="6952706" version="4" timestamp="2008-08-31T22:32:08Z" uid="25641" user="Geert Schuring" changeset="483691">
    <nd ref="45115483"/>
    <nd ref="269951842"/>
    <nd ref="45133241"/>
    <nd ref="45148272"/>
    <nd ref="45153436"/>
    <nd ref="45157588"/>
    <nd ref="45173935"/>
    <nd ref="45184646"/>
    <nd ref="45187951"/>
    <nd ref="45200872"/>
    <nd ref="292748842"/>
    <nd ref="292752093"/>
    <nd ref="45209259"/>
    <tag k="AND:importance_level" v="4"/>
    <tag k="AND_nosr_r" v="15549736"/>
    <tag k="highway" v="secondary"/>
    <tag k="name" v="Wekeromseweg"/>
  </way>
  <way id="6952706" version="5" timestamp="2009-05-17T20:56:58Z" uid="25641" user="Geert Schuring" changeset="1229369">
    <nd ref="45115483"/>
    <nd ref="269951842"/>
    <nd ref="45133241"/>
    <nd ref="45148272"/>
    <nd ref="45153436"/>
    <nd ref="45157588"/>
    <nd ref="45173935"/>
    <nd ref="45184646"/>
    <nd ref="45187951"/>
    <nd ref="45200872"/>
    <nd ref="292748842"/>
    <nd ref="292752093"/>
    <nd ref="45209259"/>
    <tag k="AND:importance_level" v="4"/>
    <tag k="AND_nosr_r" v="15549736"/>
    <tag k="highway" v="secondary"/>
    <tag k="maxspeed" v="80"/>
    <tag k="name" v="Wekeromseweg"/>
  </way>
  <way id="6952706" version="6" timestamp="2010-08-04T11:55:11Z" uid="24419" user="keesb" changeset="5398416">
    <nd ref="45115483"/>
    <nd ref="269951842"/>
    <nd ref="45133241"/>
    <nd ref="45148272"/>
    <nd ref="45153436"/>
    <nd ref="845864580"/>
    <nd ref="45157588"/>
    <nd ref="45173935"/>
    <nd ref="45184646"/>
    <nd ref="45187951"/>
    <nd ref="45200872"/>
    <nd ref="292748842"/>
    <nd ref="292752093"/>
    <nd ref="45209259"/>
    <tag k="AND:importance_level" v="4"/>
    <tag k="AND_nosr_r" v="15549736"/>
    <tag k="highway" v="secondary"/>
    <tag k="maxspeed" v="80"/>
    <tag k="name" v="Wekeromseweg"/>
  </way>
  <way id="6952706" version="7" timestamp="2011-07-26T09:11:18Z" uid="426580" user="MStorm" changeset="8833583">
    <nd ref="45115483"/>
    <nd ref="269951842"/>
    <nd ref="45133241"/>
    <nd ref="45148272"/>
    <nd ref="45153436"/>
    <nd ref="845864580"/>
    <tag k="AND:importance_level" v="4"/>
    <tag k="AND_nosr_r" v="15549736"/>
    <tag k="bicycle" v="no"/>
    <tag k="foot" v="no"/>
    <tag k="highway" v="secondary"/>
    <tag k="maxspeed" v="80"/>
    <tag k="name" v="Wekeromseweg"/>
  </way>
  <way id="6952706" version="8" timestamp="2011-08-01T12:05:58Z" uid="25657" user="pjdebruin" changeset="8890071"/>
  <way id="6952759" version="2" timestamp="2008-06-12T18:26:04Z" uid="8619" user="cetest" changeset="141927">
    <nd ref="45191400"/>
    <nd ref="45192412"/>
    <nd ref="269949420"/>
    <nd ref="45192860"/>
    <tag k="AND:importance_level" v="5"/>
    <tag k="AND_nosr_r" v="15549689"/>
    <tag k="highway" v="unclassified"/>
    <tag k="name" v="Boslaan"/>
  </way>
  <way id="6952759" version="3" timestamp="2011-03-26T18:41:57Z" uid="334075" user="eggie" changeset="7678743">
    <nd ref="45191400"/>
    <nd ref="1219443519"/>
    <nd ref="45192412"/>
    <nd ref="269949420"/>
    <nd ref="45192860"/>
    <tag k="AND:importance_level" v="5"/>
    <tag k="AND_nosr_r" v="15549689"/>
    <tag k="highway" v="unclassified"/>
    <tag k="name" v="Boslaan"/>
  </way>
  <way id="6952759" version="4" timestamp="2011-03-27T09:36:47Z" uid="334075" user="eggie" changeset="7683834">
    <nd ref="45191400"/>
    <nd ref="1219443519"/>
    <nd ref="1221193954"/>
    <nd ref="45192412"/>
    <nd ref="269949420"/>
    <nd ref="45192860"/>
    <tag k="AND:importance_level" v="5"/>
    <tag k="AND_nosr_r" v="15549689"/>
    <tag k="highway" v="unclassified"/>
    <tag k="name" v="Boslaan"/>
  </way>
  <way id="6952796" version="2" timestamp="2008-06-12T18:42:45Z" uid="8619" user="cetest" changeset="141927">
    <nd ref="45181225"/>
    <nd ref="45181961"/>
    <nd ref="247743031"/>
    <nd ref="269951822"/>
    <tag k="AND:importance_level" v="5"/>
    <tag k="AND_nosr_r" v="15549655"/>
    <tag k="highway" v="tertiary"/>
    <tag k="name" v="Immenweg"/>
  </way>
  <way id="6952796" version="3" timestamp="2008-06-14T07:19:57Z" uid="8619" user="cetest" changeset="156122">
    <nd ref="45181225"/>
    <nd ref="45181961"/>
    <nd ref="247743031"/>
    <tag k="AND:importance_level" v="5"/>
    <tag k="AND_nosr_r" v="15549655"/>
    <tag k="highway" v="tertiary"/>
    <tag k="name" v="Immenweg"/>
  </way>
  <way id="6952796" version="4" timestamp="2011-07-26T09:11:18Z" uid="426580" user="MStorm" changeset="8833583">
    <nd ref="45181225"/>
    <nd ref="45181961"/>
    <nd ref="1374509527"/>
    <nd ref="247743031"/>
    <tag k="AND:importance_level" v="5"/>
    <tag k="AND_nosr_r" v="15549655"/>
    <tag k="highway" v="tertiary"/>
    <tag k="name" v="Immenweg"/>
  </way>
  <way id="6952796" version="5" timestamp="2011-07-26T09:31:13Z" uid="426580" user="MStorm" changeset="8833583">
    <nd ref="45181225"/>
    <nd ref="45181961"/>
    <nd ref="1374509527"/>
    <nd ref="247743031"/>
    <tag k="AND:importance_level" v="5"/>
    <tag k="AND_nosr_r" v="15549655"/>
    <tag k="bicycle" v="yes"/>
    <tag k="foot" v="yes"/>
    <tag k="highway" v="cycleway"/>
    <tag k="name" v="Immenweg"/>
    <tag k="segregated" v="no"/>
    <tag k="surface" v="asphalt"/>
  </way>
  <way id="6952796" version="6" timestamp="2011-12-06T08:57:52Z" uid="334075" user="eggie" changeset="10048075">
    <nd ref="45181225"/>
    <nd ref="45181961"/>
    <nd ref="1374509527"/>
    <nd ref="1533800317"/>
    <nd ref="247743031"/>
    <tag k="AND:importance_level" v="5"/>
    <tag k="AND_nosr_r" v="15549655"/>
    <tag k="bicycle" v="yes"/>
    <tag k="foot" v="yes"/>
    <tag k="highway" v="cycleway"/>
    <tag k="name" v="Immenweg"/>
    <tag k="segregated" v="no"/>
    <tag k="surface" v="asphalt"/>
  </way>
  <way id="6952803" version="2" timestamp="2008-06-10T20:14:40Z" uid="8619" user="cetest" changeset="121082">
    <nd ref="45226106"/>
    <nd ref="45230459"/>
    <nd ref="45237923"/>
    <nd ref="45244047"/>
    <nd ref="247742848"/>
    <nd ref="45252470"/>
    <nd ref="45258613"/>
    <nd ref="45260933"/>
    <tag k="AND:importance_level" v="5"/>
    <tag k="AND_nosr_r" v="15549649"/>
    <tag k="highway" v="tertiary"/>
    <tag k="name" v="Hessenweg"/>
  </way>
  <way id="6952803" version="3" timestamp="2008-06-12T18:26:05Z" uid="8619" user="cetest" changeset="141927"/>
</osm>
