<?xml version='1.0' encoding='UTF-8'?>
<osm version="0.6" generator="libosmium/2.20.0">
  <way id="70130255" version="1" timestamp="2010-07-29T16:10:17Z" uid="74617" user="JohnSmith" changeset="5347963">
    <nd ref="252820942"/>
    <nd ref="368201961"/>
    <nd ref="252820943"/>
    <nd ref="261737507"/>
    <tag k="highway" v="tertiary"/>
    <tag k="name" v="Fitzmaurice Street"/>
    <tag k="oneway" v="yes"/>
    <tag k="source" v="nearmap"/>
  </way>
  <way id="70130255" version="2" timestamp="2011-02-27T06:48:28Z" uid="18775" user="drlizau" changeset="7407204">
    <nd ref="252820942"/>
    <nd ref="368201961"/>
    <nd ref="252820943"/>
    <nd ref="261737507"/>
    <tag k="highway" v="tertiary"/>
    <tag k="maxspeed" v="50"/>
    <tag k="name" v="Fitzmaurice Street"/>
    <tag k="oneway" v="yes"/>
    <tag k="source" v="nearmap"/>
  </way>
  <way id="70130256" version="1" timestamp="2010-07-29T16:10:17Z" uid="74617" user="JohnSmith" changeset="5347963">
    <nd ref="360210065"/>
    <nd ref="837695365"/>
    <nd ref="837695308"/>
    <nd ref="837695342"/>
    <nd ref="837695351"/>
    <tag k="highway" v="secondary"/>
    <tag k="name" v="Fitzmaurice Street"/>
    <tag k="oneway" v="yes"/>
    <tag k="source" v="nearmap"/>
  </way>
  <way id="70130256" version="2" timestamp="2011-02-27T06:48:26Z" uid="18775" user="drlizau" changeset="7407204">
    <nd ref="360210065"/>
    <nd ref="837695365"/>
    <nd ref="837695308"/>
    <nd ref="837695342"/>
    <nd ref="837695351"/>
    <tag k="highway" v="secondary"/>
    <tag k="maxspeed" v="50"/>
    <tag k="name" v="Fitzmaurice Street"/>
    <tag k="oneway" v="yes"/>
    <tag k="source" v="nearmap"/>
  </way>
  <way id="70130256" version="3" timestamp="2012-01-19T09:00:07Z" uid="14286" user="Lawrence" changeset="10434895">
    <nd ref="360210065"/>
    <nd ref="837695308"/>
    <nd ref="837695342"/>
    <nd ref="837695351"/>
    <tag k="highway" v="secondary"/>
    <tag k="maxspeed" v="50"/>
    <tag k="name" v="Fitzmaurice Street"/>
    <tag k="oneway" v="yes"/>
    <tag k="source" v="nearmap"/>
  </way>
  <way id="70130257" version="1" timestamp="2010-07-29T16:10:17Z" uid="74617" user="JohnSmith" changeset="5347963">
    <nd ref="252820942"/>
    <nd ref="355858975"/>
    <tag k="highway" v="tertiary"/>
    <tag k="name" v="Fitzmaurice Street"/>
  </way>
  <way id="70130257" version="2" timestamp="2011-02-27T06:48:29Z" uid="18775" user="drlizau" changeset="7407204">
    <nd ref="252820942"/>
    <nd ref="355858975"/>
    <tag k="highway" v="tertiary"/>
    <tag k="maxspeed" v="50"/>
    <tag k="name" v="Fitzmaurice Street"/>
  </way>
  <way id="70130258" version="1" timestamp="2010-07-29T16:10:18Z" uid="74617" user="JohnSmith" changeset="5347963">
    <nd ref="837695342"/>
    <nd ref="837695304"/>
    <nd ref="360210058"/>
    <nd ref="252819903"/>
    <nd ref="252821517"/>
    <tag k="highway" v="residential"/>
    <tag k="maxspeed" v="50"/>
    <tag k="maxspeed:source" v="default residential speed limit in Australia"/>
    <tag k="name" v="Sturt Street"/>
  </way>
  <way id="70130630" version="1" timestamp="2010-07-29T16:23:36Z" uid="74617" user="JohnSmith" changeset="5348071">
    <nd ref="837729890"/>
    <nd ref="837729882"/>
    <nd ref="261736682"/>
    <nd ref="837729894"/>
    <tag k="highway" v="residential"/>
    <tag k="maxspeed" v="50"/>
    <tag k="maxspeed:source" v="default residential speed limit in Australia"/>
    <tag k="source" v="nearmap"/>
  </way>
  <way id="70130630" version="2" timestamp="2012-01-19T09:10:47Z" uid="14286" user="Lawrence" changeset="10434977">
    <nd ref="837729890"/>
    <nd ref="261736682"/>
    <nd ref="837729894"/>
    <tag k="highway" v="residential"/>
    <tag k="maxspeed" v="50"/>
    <tag k="maxspeed:source" v="default residential speed limit in Australia"/>
    <tag k="source" v="nearmap"/>
  </way>
</osm>
