<?xml version='1.0' encoding='UTF-8'?>
<osm version="0.6" generator="libosmium/2.20.0">
  <way id="70713320" version="1" timestamp="2010-08-02T14:13:40Z" uid="33382" user="de_muur" changeset="5381047">
    <nd ref="453562530"/>
    <nd ref="268290082"/>
    <nd ref="461990675"/>
    <nd ref="453568441"/>
    <nd ref="268290084"/>
    <nd ref="461990679"/>
    <nd ref="268290087"/>
    <nd ref="468767731"/>
    <nd ref="268290089"/>
    <nd ref="268290092"/>
    <nd ref="453569707"/>
    <nd ref="268290094"/>
    <nd ref="453569856"/>
    <tag k="highway" v="tertiary"/>
    <tag k="name" v="Am Glockenstuhl"/>
    <tag k="ref" v="K 4"/>
    <tag k="surface" v="paved"/>
  </way>
  <way id="70713320" version="2" timestamp="2010-08-02T14:23:30Z" uid="33382" user="de_muur" changeset="5381153">
    <nd ref="453562530"/>
    <nd ref="268290082"/>
    <nd ref="461990675"/>
    <nd ref="453568441"/>
    <nd ref="268290084"/>
    <nd ref="843428866"/>
    <nd ref="461990679"/>
    <nd ref="268290087"/>
    <nd ref="468767731"/>
    <nd ref="268290089"/>
    <nd ref="268290092"/>
    <nd ref="453569707"/>
    <nd ref="268290094"/>
    <nd ref="453569856"/>
    <nd ref="843428846"/>
    <tag k="highway" v="tertiary"/>
    <tag k="maxspeed" v="50"/>
    <tag k="name" v="Am Glockenstuhl"/>
    <tag k="ref" v="K 4"/>
    <tag k="surface" v="paved"/>
  </way>
  <way id="70713320" version="3" timestamp="2011-07-24T22:04:29Z" uid="45882" user="smarties" changeset="8821814">
    <nd ref="453562530"/>
    <nd ref="268290082"/>
    <nd ref="461990675"/>
    <nd ref="453568441"/>
    <nd ref="268290084"/>
    <nd ref="843428866"/>
    <nd ref="461990679"/>
    <nd ref="268290087"/>
    <nd ref="468767731"/>
    <nd ref="268290089"/>
    <nd ref="268290092"/>
    <nd ref="453569707"/>
    <tag k="highway" v="tertiary"/>
    <tag k="maxspeed" v="50"/>
    <tag k="name" v="Am Glockenstuhl"/>
    <tag k="ref" v="K 4"/>
    <tag k="surface" v="paved"/>
  </way>
  <way id="70713326" version="1" timestamp="2010-08-02T14:13:42Z" uid="33382" user="de_muur" changeset="5381047">
    <nd ref="358433647"/>
    <nd ref="268290064"/>
    <nd ref="468766759"/>
    <nd ref="461990659"/>
    <nd ref="843414405"/>
    <tag k="highway" v="tertiary"/>
    <tag k="maxspeed" v="50"/>
    <tag k="name" v="Brügger Straße"/>
    <tag k="ref" v="K 4"/>
    <tag k="surface" v="paved"/>
  </way>
  <way id="70713326" version="2" timestamp="2011-07-24T22:04:35Z" uid="45882" user="smarties" changeset="8821814">
    <nd ref="358433647"/>
    <nd ref="268290064"/>
    <nd ref="468766759"/>
    <nd ref="461990659"/>
    <nd ref="843414405"/>
    <tag k="cycleway" v="track"/>
    <tag k="highway" v="tertiary"/>
    <tag k="maxspeed" v="50"/>
    <tag k="name" v="Brügger Straße"/>
    <tag k="ref" v="K 4"/>
    <tag k="surface" v="paved"/>
  </way>
  <way id="70713329" version="1" timestamp="2010-08-02T14:13:42Z" uid="33382" user="de_muur" changeset="5381047">
    <nd ref="843414393"/>
    <nd ref="268290080"/>
    <nd ref="453562530"/>
    <tag k="highway" v="tertiary"/>
    <tag k="name" v="Am Glockenstuhl"/>
    <tag k="ref" v="K 4"/>
    <tag k="surface" v="paved"/>
  </way>
  <way id="70713329" version="2" timestamp="2011-07-24T22:04:29Z" uid="45882" user="smarties" changeset="8821814">
    <nd ref="843414393"/>
    <nd ref="268290080"/>
    <nd ref="453562530"/>
    <tag k="cycleway" v="track"/>
    <tag k="highway" v="tertiary"/>
    <tag k="name" v="Am Glockenstuhl"/>
    <tag k="ref" v="K 4"/>
    <tag k="surface" v="paved"/>
  </way>
  <way id="70713332" version="1" timestamp="2010-08-02T14:13:43Z" uid="33382" user="de_muur" changeset="5381047">
    <nd ref="843414405"/>
    <nd ref="268290066"/>
    <nd ref="268290068"/>
    <nd ref="461990671"/>
    <nd ref="268290071"/>
    <tag k="highway" v="tertiary"/>
    <tag k="name" v="Brügger Straße"/>
    <tag k="ref" v="K 4"/>
    <tag k="surface" v="paved"/>
  </way>
  <way id="70713332" version="2" timestamp="2011-07-24T22:04:35Z" uid="45882" user="smarties" changeset="8821814">
    <nd ref="843414405"/>
    <nd ref="268290066"/>
    <nd ref="268290068"/>
    <nd ref="461990671"/>
    <nd ref="268290071"/>
    <tag k="cycleway" v="track"/>
    <tag k="highway" v="tertiary"/>
    <tag k="name" v="Brügger Straße"/>
    <tag k="ref" v="K 4"/>
    <tag k="surface" v="paved"/>
  </way>
  <way id="70713337" version="1" timestamp="2010-08-02T14:13:43Z" uid="33382" user="de_muur" changeset="5381047">
    <nd ref="843414386"/>
    <nd ref="450249523"/>
    <nd ref="358433647"/>
    <tag k="highway" v="tertiary"/>
    <tag k="maxspeed" v="50"/>
    <tag k="name" v="Reeßumer Straße"/>
    <tag k="ref" v="K 36"/>
    <tag k="surface" v="paved"/>
  </way>
  <way id="70713339" version="1" timestamp="2010-08-02T14:13:44Z" uid="33382" user="de_muur" changeset="5381047">
    <nd ref="447987850"/>
    <nd ref="358433173"/>
    <nd ref="447987515"/>
    <nd ref="447987520"/>
    <nd ref="843414386"/>
    <tag k="highway" v="tertiary"/>
    <tag k="name" v="Reeßumer Straße"/>
    <tag k="ref" v="K 36"/>
    <tag k="surface" v="paved"/>
  </way>
</osm>
