<?xml version='1.0' encoding='UTF-8'?>
<osm version="0.6" generator="libosmium/2.20.0">
  <way id="71502044" version="2" timestamp="2010-08-09T15:25:42Z" uid="171838" user="argrath" changeset="5445001">
    <nd ref="850558176"/>
    <nd ref="850558073"/>
    <nd ref="850558195"/>
    <nd ref="850558222"/>
    <nd ref="850558142"/>
    <nd ref="850558178"/>
    <nd ref="850558103"/>
    <nd ref="850558176"/>
    <tag k="area" v=""/>
    <tag k="name" v="オークワ"/>
    <tag k="shop" v="supermarket"/>
  </way>
  <way id="71502044" version="3" timestamp="2010-08-09T15:53:25Z" uid="171838" user="argrath" changeset="5445315">
    <nd ref="850558176"/>
    <nd ref="850558073"/>
    <nd ref="850558195"/>
    <nd ref="850558222"/>
    <nd ref="850558142"/>
    <nd ref="850558178"/>
    <nd ref="850558103"/>
    <nd ref="850558176"/>
    <tag k="building" v="yes"/>
    <tag k="name" v="オークワ"/>
    <tag k="shop" v="supermarket"/>
  </way>
  <way id="71502054" version="2" timestamp="2010-08-16T11:52:44Z" uid="171838" user="argrath" changeset="5508451">
    <nd ref="850558164"/>
    <nd ref="850558201"/>
    <nd ref="850558124"/>
    <tag k="highway" v="service"/>
  </way>
  <way id="71502401" version="2" timestamp="2010-08-09T15:33:02Z" uid="171838" user="argrath" changeset="5445098">
    <nd ref="850566615"/>
    <nd ref="850566620"/>
    <nd ref="850566621"/>
    <nd ref="850566618"/>
    <nd ref="850566619"/>
    <nd ref="850566616"/>
    <tag k="highway" v="residential"/>
  </way>
  <way id="71502401" version="3" timestamp="2010-08-12T12:44:23Z" uid="20728" user="Daisuke Yoshida" changeset="5472877">
    <nd ref="850566615"/>
    <nd ref="850566620"/>
    <nd ref="850566621"/>
    <nd ref="850566618"/>
    <nd ref="850566619"/>
    <nd ref="850566616"/>
    <tag k="highway" v="residential"/>
    <tag k="source" v="NRPB of MLIT Japan"/>
    <tag k="source:ja" v="国土画像情報（オルソ化空中写真）国土計画局"/>
  </way>
  <way id="71502461" version="1" timestamp="2010-08-09T08:26:25Z" uid="99207" user="Lar Kiesel" changeset="5441059">
    <nd ref="850567182"/>
    <nd ref="850316775"/>
    <nd ref="27131155"/>
    <nd ref="850316852"/>
    <nd ref="606292085"/>
    <nd ref="27131154"/>
    <nd ref="411284403"/>
    <tag k="highway" v="motorway"/>
    <tag k="name" v="Mark Clark Expy"/>
    <tag k="oneway" v="yes"/>
    <tag k="ref" v="I 526"/>
  </way>
  <way id="71502461" version="2" timestamp="2010-09-22T07:12:28Z" uid="252811" user="rickmastfan67" changeset="5842986">
    <nd ref="850567182"/>
    <nd ref="850316775"/>
    <nd ref="921133501"/>
    <nd ref="27131155"/>
    <nd ref="850316852"/>
    <nd ref="606292085"/>
    <nd ref="921133502"/>
    <nd ref="27131154"/>
    <nd ref="411284403"/>
    <tag k="highway" v="motorway"/>
    <tag k="name" v="Mark Clark Expy"/>
    <tag k="oneway" v="yes"/>
    <tag k="ref" v="I 526"/>
  </way>
  <way id="71502461" version="3" timestamp="2011-07-26T07:47:40Z" uid="207745" user="NE2" changeset="8832920">
    <nd ref="850567182"/>
    <nd ref="850316775"/>
    <nd ref="921133501"/>
    <nd ref="27131155"/>
    <nd ref="850316852"/>
    <nd ref="606292085"/>
    <nd ref="921133502"/>
    <nd ref="27131154"/>
    <nd ref="411284403"/>
    <tag k="highway" v="motorway"/>
    <tag k="lanes" v="2"/>
    <tag k="name" v="Mark Clark Expy"/>
    <tag k="oneway" v="yes"/>
    <tag k="ref" v="I 526"/>
  </way>
  <way id="71502461" version="4" timestamp="2011-11-24T22:01:46Z" uid="207745" user="NE2" changeset="9937881">
    <nd ref="850567182"/>
    <nd ref="850316775"/>
    <nd ref="921133501"/>
    <nd ref="27131155"/>
    <nd ref="850316852"/>
    <nd ref="606292085"/>
    <nd ref="921133502"/>
    <nd ref="27131154"/>
    <nd ref="411284403"/>
    <tag k="bicycle" v="no"/>
    <tag k="foot" v="no"/>
    <tag k="hgv" v="designated"/>
    <tag k="highway" v="motorway"/>
    <tag k="horse" v="no"/>
    <tag k="lanes" v="2"/>
    <tag k="name" v="Mark Clark Expy"/>
    <tag k="oneway" v="yes"/>
    <tag k="ref" v="I 526"/>
    <tag k="sidewalk" v="none"/>
  </way>
  <way id="71502464" version="1" timestamp="2010-08-09T08:26:26Z" uid="99207" user="Lar Kiesel" changeset="5441059">
    <nd ref="850567192"/>
    <nd ref="850567182"/>
    <tag k="bridge" v="yes"/>
    <tag k="highway" v="motorway"/>
    <tag k="layer" v="1"/>
    <tag k="name" v="Mark Clark Expy"/>
    <tag k="oneway" v="yes"/>
    <tag k="ref" v="I 526"/>
  </way>
  <way id="71502464" version="2" timestamp="2011-07-26T07:47:28Z" uid="207745" user="NE2" changeset="8832920">
    <nd ref="850567192"/>
    <nd ref="850567182"/>
    <tag k="bridge" v="yes"/>
    <tag k="highway" v="motorway"/>
    <tag k="lanes" v="2"/>
    <tag k="layer" v="1"/>
    <tag k="name" v="Mark Clark Expy"/>
    <tag k="oneway" v="yes"/>
    <tag k="ref" v="I 526"/>
  </way>
  <way id="71502464" version="3" timestamp="2011-11-24T22:01:25Z" uid="207745" user="NE2" changeset="9937881">
    <nd ref="850567192"/>
    <nd ref="850567182"/>
    <tag k="bicycle" v="no"/>
    <tag k="bridge" v="yes"/>
    <tag k="foot" v="no"/>
    <tag k="hgv" v="designated"/>
    <tag k="highway" v="motorway"/>
    <tag k="horse" v="no"/>
    <tag k="lanes" v="2"/>
    <tag k="layer" v="1"/>
    <tag k="name" v="Mark Clark Expy"/>
    <tag k="oneway" v="yes"/>
    <tag k="ref" v="I 526"/>
    <tag k="sidewalk" v="none"/>
  </way>
  <way id="71502466" version="1" timestamp="2010-08-09T08:26:26Z" uid="99207" user="Lar Kiesel" changeset="5441059">
    <nd ref="850567199"/>
    <nd ref="411288604"/>
    <tag k="bridge" v="yes"/>
    <tag k="highway" v="motorway"/>
    <tag k="layer" v="1"/>
    <tag k="name" v="Mark Clark Expy"/>
    <tag k="oneway" v="yes"/>
    <tag k="ref" v="I 526"/>
  </way>
  <way id="71502466" version="2" timestamp="2011-07-26T07:47:27Z" uid="207745" user="NE2" changeset="8832920">
    <nd ref="850567199"/>
    <nd ref="411288604"/>
    <tag k="bridge" v="yes"/>
    <tag k="highway" v="motorway"/>
    <tag k="lanes" v="2"/>
    <tag k="layer" v="1"/>
    <tag k="name" v="Mark Clark Expy"/>
    <tag k="oneway" v="yes"/>
    <tag k="ref" v="I 526"/>
  </way>
  <way id="71502466" version="3" timestamp="2011-11-24T22:01:15Z" uid="207745" user="NE2" changeset="9937881">
    <nd ref="850567199"/>
    <nd ref="411288604"/>
    <tag k="bicycle" v="no"/>
    <tag k="bridge" v="yes"/>
    <tag k="foot" v="no"/>
    <tag k="hgv" v="designated"/>
    <tag k="highway" v="motorway"/>
    <tag k="horse" v="no"/>
    <tag k="lanes" v="2"/>
    <tag k="layer" v="1"/>
    <tag k="name" v="Mark Clark Expy"/>
    <tag k="oneway" v="yes"/>
    <tag k="ref" v="I 526"/>
    <tag k="sidewalk" v="none"/>
  </way>
  <way id="71502467" version="1" timestamp="2010-08-09T08:26:26Z" uid="99207" user="Lar Kiesel" changeset="5441059">
    <nd ref="411288604"/>
    <nd ref="411288605"/>
    <nd ref="411288606"/>
    <nd ref="411288607"/>
    <nd ref="470361036"/>
    <nd ref="411288608"/>
    <nd ref="850281440"/>
    <nd ref="411288609"/>
    <tag k="highway" v="motorway"/>
    <tag k="name" v="Mark Clark Expy"/>
    <tag k="oneway" v="yes"/>
    <tag k="ref" v="I 526"/>
  </way>
  <way id="71502467" version="2" timestamp="2010-08-17T01:01:30Z" uid="99207" user="Lar Kiesel" changeset="5514046">
    <nd ref="411288604"/>
    <nd ref="411288605"/>
    <nd ref="411288606"/>
    <nd ref="411288607"/>
    <nd ref="864197674"/>
    <tag k="highway" v="motorway"/>
    <tag k="name" v="Mark Clark Expy"/>
    <tag k="oneway" v="yes"/>
    <tag k="ref" v="I 526"/>
  </way>
  <way id="71502467" version="3" timestamp="2010-09-22T07:12:31Z" uid="252811" user="rickmastfan67" changeset="5842986">
    <nd ref="411288604"/>
    <nd ref="411288605"/>
    <nd ref="921133507"/>
    <nd ref="921133508"/>
    <nd ref="921133509"/>
    <nd ref="921133510"/>
    <nd ref="921133511"/>
    <nd ref="921133512"/>
    <nd ref="921133513"/>
    <nd ref="921133514"/>
    <nd ref="921133515"/>
    <nd ref="921133516"/>
    <nd ref="921133517"/>
    <nd ref="921133518"/>
    <nd ref="921133519"/>
    <nd ref="864197674"/>
    <tag k="highway" v="motorway"/>
    <tag k="name" v="Mark Clark Expy"/>
    <tag k="oneway" v="yes"/>
    <tag k="ref" v="I 526"/>
  </way>
  <way id="71502467" version="4" timestamp="2011-07-26T07:47:24Z" uid="207745" user="NE2" changeset="8832920">
    <nd ref="411288604"/>
    <nd ref="411288605"/>
    <nd ref="921133507"/>
    <nd ref="921133508"/>
    <nd ref="921133509"/>
    <nd ref="921133510"/>
    <nd ref="921133511"/>
    <nd ref="921133512"/>
    <nd ref="921133513"/>
    <nd ref="921133514"/>
    <nd ref="921133515"/>
    <nd ref="921133516"/>
    <nd ref="921133517"/>
    <nd ref="921133518"/>
    <nd ref="921133519"/>
    <nd ref="864197674"/>
    <tag k="highway" v="motorway"/>
    <tag k="lanes" v="2"/>
    <tag k="name" v="Mark Clark Expy"/>
    <tag k="oneway" v="yes"/>
    <tag k="ref" v="I 526"/>
  </way>
  <way id="71502467" version="5" timestamp="2011-11-24T22:01:04Z" uid="207745" user="NE2" changeset="9937881">
    <nd ref="411288604"/>
    <nd ref="411288605"/>
    <nd ref="921133507"/>
    <nd ref="921133508"/>
    <nd ref="921133509"/>
    <nd ref="921133510"/>
    <nd ref="921133511"/>
    <nd ref="921133512"/>
    <nd ref="921133513"/>
    <nd ref="921133514"/>
    <nd ref="921133515"/>
    <nd ref="921133516"/>
    <nd ref="921133517"/>
    <nd ref="921133518"/>
    <nd ref="921133519"/>
    <nd ref="864197674"/>
    <tag k="bicycle" v="no"/>
    <tag k="foot" v="no"/>
    <tag k="hgv" v="designated"/>
    <tag k="highway" v="motorway"/>
    <tag k="horse" v="no"/>
    <tag k="lanes" v="2"/>
    <tag k="name" v="Mark Clark Expy"/>
    <tag k="oneway" v="yes"/>
    <tag k="ref" v="I 526"/>
    <tag k="sidewalk" v="none"/>
  </way>
  <way id="71502762" version="2" timestamp="2010-09-02T05:00:08Z" uid="115477" user="wowik" changeset="5658986">
    <nd ref="850571284"/>
    <nd ref="892671772"/>
    <nd ref="850571261"/>
    <tag k="highway" v="service"/>
  </way>
  <way id="71502762" version="3" timestamp="2010-09-02T05:01:03Z" uid="115477" user="wowik" changeset="5658986">
    <nd ref="850571284"/>
    <nd ref="850571261"/>
    <tag k="highway" v="service"/>
  </way>
  <way id="71502762" version="4" timestamp="2011-03-20T15:00:13Z" uid="65083" user="deep125" changeset="7617402">
    <nd ref="850571284"/>
    <nd ref="1210589970"/>
    <nd ref="850571261"/>
    <tag k="highway" v="service"/>
  </way>
  <way id="71502789" version="2" timestamp="2011-01-17T16:52:15Z" uid="115477" user="wowik" changeset="7001307">
    <nd ref="850572483"/>
    <nd ref="850572484"/>
    <nd ref="1107763337"/>
    <nd ref="850572486"/>
    <nd ref="850572487"/>
    <nd ref="850572492"/>
    <nd ref="850572493"/>
    <nd ref="850572483"/>
    <tag k="barrier" v="fence"/>
  </way>
  <way id="71502789" version="3" timestamp="2011-01-29T15:55:58Z" uid="115477" user="wowik" changeset="7123629">
    <nd ref="850572483"/>
    <nd ref="850572484"/>
    <nd ref="1107763337"/>
    <nd ref="850572486"/>
    <nd ref="850572487"/>
    <nd ref="850572492"/>
    <nd ref="1126332297"/>
    <nd ref="850572483"/>
    <tag k="barrier" v="fence"/>
  </way>
  <way id="71502802" version="1" timestamp="2010-08-09T08:33:48Z" uid="9719" user="dvaey" changeset="5440927">
    <nd ref="660086286"/>
    <nd ref="660086287"/>
    <nd ref="660086289"/>
    <nd ref="660086068"/>
    <nd ref="660086069"/>
    <tag k="power" v="minor_line"/>
  </way>
</osm>
