<?xml version='1.0' encoding='UTF-8'?>
<osm version="0.6" generator="libosmium/2.20.0">
  <way id="71823353" version="5" timestamp="2011-01-12T16:24:28Z" uid="115477" user="wowik" changeset="6948770">
    <nd ref="853548044"/>
    <nd ref="853548046"/>
    <nd ref="853548049"/>
    <nd ref="853548051"/>
    <nd ref="853548053"/>
    <nd ref="853548056"/>
    <nd ref="914209794"/>
    <nd ref="853548058"/>
    <nd ref="853548059"/>
    <nd ref="853548044"/>
    <tag k="addr:city" v="Зеленоград"/>
    <tag k="addr:housenumber" v="2"/>
    <tag k="addr:street" v="проезд N 623"/>
    <tag k="amenity" v="fire_station"/>
    <tag k="building" v="yes"/>
    <tag k="name" v="Пожарная часть №70"/>
  </way>
  <way id="71823353" version="6" timestamp="2011-01-12T16:31:06Z" uid="115477" user="wowik" changeset="6948828">
    <nd ref="853548044"/>
    <nd ref="853548046"/>
    <nd ref="853548049"/>
    <nd ref="853548051"/>
    <nd ref="853548053"/>
    <nd ref="853548056"/>
    <nd ref="914209794"/>
    <nd ref="853548058"/>
    <nd ref="853548059"/>
    <nd ref="853548044"/>
    <tag k="addr:city" v="Зеленоград"/>
    <tag k="addr:housenumber" v="2"/>
    <tag k="addr:street" v="проезд N 623"/>
    <tag k="amenity" v="fire_station"/>
    <tag k="building" v="yes"/>
    <tag k="is_in" v="Russia"/>
    <tag k="name" v="Пожарная часть №70"/>
  </way>
  <way id="71823353" version="7" timestamp="2011-01-12T16:45:09Z" uid="115477" user="wowik" changeset="6948926">
    <nd ref="853548044"/>
    <nd ref="853548046"/>
    <nd ref="853548049"/>
    <nd ref="853548051"/>
    <nd ref="853548053"/>
    <nd ref="853548056"/>
    <nd ref="914209794"/>
    <nd ref="853548058"/>
    <nd ref="853548059"/>
    <nd ref="853548044"/>
    <tag k="addr:city" v="Зеленоград"/>
    <tag k="addr:housenumber" v="2"/>
    <tag k="addr:postcode" v="124617"/>
    <tag k="addr:street" v="проезд N 623"/>
    <tag k="amenity" v="fire_station"/>
    <tag k="building" v="yes"/>
    <tag k="is_in" v="Russia"/>
    <tag k="name" v="Пожарная часть №70"/>
  </way>
  <way id="71823353" version="8" timestamp="2011-01-14T11:07:23Z" uid="115477" user="wowik" changeset="6966068">
    <nd ref="853548044"/>
    <nd ref="853548046"/>
    <nd ref="853548049"/>
    <nd ref="853548051"/>
    <nd ref="853548053"/>
    <nd ref="853548056"/>
    <nd ref="914209794"/>
    <nd ref="853548058"/>
    <nd ref="853548059"/>
    <nd ref="853548044"/>
    <tag k="addr:city" v="Зеленоград"/>
    <tag k="addr:housenumber" v="2"/>
    <tag k="addr:postcode" v="124617"/>
    <tag k="addr:street" v="Проезд N 623"/>
    <tag k="amenity" v="fire_station"/>
    <tag k="building" v="yes"/>
    <tag k="is_in" v="Russia"/>
    <tag k="name" v="Пожарная часть №70"/>
  </way>
  <way id="71823353" version="9" timestamp="2011-01-20T19:14:20Z" uid="115477" user="wowik" changeset="7033529">
    <nd ref="853548044"/>
    <nd ref="853548046"/>
    <nd ref="853548049"/>
    <nd ref="853548051"/>
    <nd ref="853548053"/>
    <nd ref="853548056"/>
    <nd ref="1111971819"/>
    <nd ref="1111968206"/>
    <nd ref="914209794"/>
    <nd ref="853548058"/>
    <nd ref="853548044"/>
    <tag k="addr:city" v="Зеленоград"/>
    <tag k="addr:housenumber" v="2"/>
    <tag k="addr:postcode" v="124617"/>
    <tag k="addr:street" v="Проезд N 623"/>
    <tag k="amenity" v="fire_station"/>
    <tag k="building" v="yes"/>
    <tag k="is_in" v="Russia"/>
    <tag k="name" v="Пожарная часть №70"/>
  </way>
  <way id="71823353" version="10" timestamp="2011-02-07T11:07:36Z" uid="115477" user="wowik" changeset="7214763">
    <nd ref="853548044"/>
    <nd ref="853548046"/>
    <nd ref="853548049"/>
    <nd ref="853548051"/>
    <nd ref="853548053"/>
    <nd ref="853548056"/>
    <nd ref="1111971819"/>
    <nd ref="1111968206"/>
    <nd ref="914209794"/>
    <nd ref="853548058"/>
    <nd ref="853548044"/>
    <tag k="addr:city" v="Зеленоград"/>
    <tag k="addr:housenumber" v="2"/>
    <tag k="addr:postcode" v="124617"/>
    <tag k="addr:street" v="Новокрюковская улица"/>
    <tag k="amenity" v="fire_station"/>
    <tag k="building" v="yes"/>
    <tag k="is_in" v="Russia"/>
    <tag k="name" v="Пожарная часть №70"/>
  </way>
  <way id="71823353" version="11" timestamp="2011-09-13T10:30:58Z" uid="29320" user="Komяpa" changeset="9288237">
    <nd ref="853548044"/>
    <nd ref="853548046"/>
    <nd ref="853548049"/>
    <nd ref="853548051"/>
    <nd ref="853548053"/>
    <nd ref="853548056"/>
    <nd ref="1111971819"/>
    <nd ref="1111968206"/>
    <nd ref="914209794"/>
    <nd ref="853548058"/>
    <nd ref="853548044"/>
    <tag k="addr:city" v="Зеленоград"/>
    <tag k="addr:country" v="RU"/>
    <tag k="addr:housenumber" v="2"/>
    <tag k="addr:postcode" v="124617"/>
    <tag k="addr:street" v="Новокрюковская улица"/>
    <tag k="amenity" v="fire_station"/>
    <tag k="building" v="yes"/>
    <tag k="name" v="Пожарная часть №70"/>
  </way>
  <way id="71823355" version="2" timestamp="2011-01-20T19:13:57Z" uid="115477" user="wowik" changeset="7033529">
    <nd ref="853548061"/>
    <nd ref="853548062"/>
    <nd ref="853548063"/>
    <nd ref="1111968171"/>
    <nd ref="1111971760"/>
    <nd ref="1111969011"/>
    <nd ref="1111968561"/>
    <nd ref="1111969518"/>
    <nd ref="853548064"/>
    <nd ref="853548061"/>
    <tag k="barrier" v="wall"/>
  </way>
  <way id="71823355" version="3" timestamp="2011-01-21T09:51:33Z" uid="115477" user="wowik" changeset="7038507">
    <nd ref="853548061"/>
    <nd ref="853548062"/>
    <nd ref="853548063"/>
    <nd ref="1111968171"/>
    <nd ref="1111971760"/>
    <nd ref="1111969011"/>
    <nd ref="1111968561"/>
    <nd ref="1111969518"/>
    <nd ref="853548064"/>
    <nd ref="1112828061"/>
    <nd ref="853548061"/>
    <tag k="barrier" v="wall"/>
  </way>
  <way id="71823951" version="2" timestamp="2011-02-28T15:30:25Z" uid="23543" user="jkjk" changeset="7421513">
    <nd ref="853551137"/>
    <nd ref="853551139"/>
    <nd ref="853551140"/>
    <nd ref="853551141"/>
    <nd ref="853551137"/>
  </way>
  <way id="71823982" version="2" timestamp="2011-02-28T15:30:29Z" uid="23543" user="jkjk" changeset="7421513">
    <nd ref="853551282"/>
    <nd ref="853551283"/>
    <nd ref="853551284"/>
    <nd ref="853551285"/>
    <nd ref="853551282"/>
  </way>
</osm>
