<?xml version='1.0' encoding='UTF-8'?>
<osm version="0.6" generator="libosmium/2.20.0">
  <way id="71919349" version="5" timestamp="2011-05-05T15:36:20Z" uid="115477" user="wowik" changeset="8058202">
    <nd ref="60731640"/>
    <nd ref="456883552"/>
    <nd ref="630430631"/>
    <nd ref="630430633"/>
    <nd ref="630430635"/>
    <nd ref="630430637"/>
    <nd ref="162133213"/>
    <nd ref="60731641"/>
    <nd ref="255084074"/>
    <nd ref="1273180026"/>
    <tag k="addr:city" v="Москва"/>
    <tag k="addr:housenumber" v="6"/>
    <tag k="cladr:code" v="77000000000236600"/>
    <tag k="cladr:name" v="Преображенская"/>
    <tag k="cladr:suffix" v="Улица"/>
    <tag k="highway" v="primary"/>
    <tag k="lanes" v="3"/>
    <tag k="name" v="Преображенская улица"/>
    <tag k="omkum:code" v="21790"/>
    <tag k="oneway" v="yes"/>
    <tag k="sorting_name" v="Преображенская  улица"/>
    <tag k="trolley_wire" v="yes"/>
  </way>
  <way id="71919349" version="6" timestamp="2011-05-20T14:57:28Z" uid="421524" user="Scondo" changeset="8199404">
    <nd ref="60731640"/>
    <nd ref="456883552"/>
    <nd ref="630430631"/>
    <nd ref="630430633"/>
    <nd ref="630430635"/>
    <nd ref="630430637"/>
    <nd ref="162133213"/>
    <nd ref="60731641"/>
    <nd ref="255084074"/>
    <nd ref="1273180026"/>
    <tag k="cladr:code" v="77000000000236600"/>
    <tag k="cladr:name" v="Преображенская"/>
    <tag k="cladr:suffix" v="Улица"/>
    <tag k="highway" v="primary"/>
    <tag k="lanes" v="3"/>
    <tag k="name" v="Преображенская улица"/>
    <tag k="omkum:code" v="21790"/>
    <tag k="oneway" v="yes"/>
    <tag k="sorting_name" v="Преображенская  улица"/>
    <tag k="trolley_wire" v="yes"/>
  </way>
  <way id="71919349" version="7" timestamp="2011-07-28T13:46:48Z" uid="421524" user="Scondo" changeset="8854823">
    <nd ref="60731640"/>
    <nd ref="456883552"/>
    <nd ref="630430631"/>
    <nd ref="630430633"/>
    <nd ref="630430635"/>
    <nd ref="630430637"/>
    <nd ref="162133213"/>
    <nd ref="60731641"/>
    <nd ref="255084074"/>
    <nd ref="1376717367"/>
    <tag k="cladr:code" v="77000000000236600"/>
    <tag k="cladr:name" v="Преображенская"/>
    <tag k="cladr:suffix" v="Улица"/>
    <tag k="highway" v="primary"/>
    <tag k="lanes" v="3"/>
    <tag k="name" v="Преображенская улица"/>
    <tag k="omkum:code" v="21790"/>
    <tag k="oneway" v="yes"/>
    <tag k="sorting_name" v="Преображенская  улица"/>
    <tag k="trolley_wire" v="yes"/>
  </way>
</osm>
