<?xml version='1.0' encoding='UTF-8'?>
<osm version="0.6" generator="libosmium/2.20.0">
  <way id="72112080" version="1" timestamp="2010-08-12T18:25:48Z" uid="115477" user="wowik" changeset="5475328">
    <nd ref="857354632"/>
    <nd ref="775135792"/>
    <tag k="highway" v="service"/>
    <tag k="name" v="переулок Сиреневый"/>
    <tag k="service" v="living_street"/>
  </way>
  <way id="72112080" version="2" timestamp="2011-09-09T13:02:33Z" uid="133332" user="AMDmi3" changeset="9254200">
    <nd ref="857354632"/>
    <nd ref="775135792"/>
    <tag k="highway" v="service"/>
    <tag k="name" v="Сиреневый переулок"/>
    <tag k="service" v="living_street"/>
  </way>
  <way id="72112082" version="1" timestamp="2010-08-12T18:25:50Z" uid="115477" user="wowik" changeset="5475328">
    <nd ref="857354671"/>
    <nd ref="857354675"/>
    <nd ref="857354678"/>
    <nd ref="857354682"/>
    <nd ref="857354685"/>
    <nd ref="857354652"/>
    <tag k="highway" v="residential"/>
    <tag k="name" v="переулок Ягодный"/>
  </way>
  <way id="72112082" version="2" timestamp="2010-10-11T07:47:09Z" uid="115477" user="wowik" changeset="6009233">
    <nd ref="857354671"/>
    <nd ref="857354675"/>
    <nd ref="857354678"/>
    <nd ref="857354682"/>
    <nd ref="857354685"/>
    <nd ref="857354652"/>
    <tag k="highway" v="residential"/>
    <tag k="name" v="Ягодный переулок"/>
  </way>
  <way id="72112833" version="1" timestamp="2010-08-12T18:32:08Z" uid="115477" user="wowik" changeset="5475490">
    <nd ref="830268554"/>
    <nd ref="857126435"/>
    <nd ref="830269222"/>
    <tag k="highway" v="tertiary"/>
    <tag k="name" v="Майский проезд"/>
  </way>
</osm>
