<?xml version='1.0' encoding='UTF-8'?>
<osm version="0.6" generator="libosmium/2.20.0">
  <way id="72214150" version="3" timestamp="2010-12-20T13:37:42Z" uid="6269" user="Mueck" changeset="6716052">
    <nd ref="25338280"/>
    <nd ref="1051580694"/>
    <tag k="highway" v="motorway"/>
    <tag k="int_ref" v="E 234"/>
    <tag k="lanes" v="2"/>
    <tag k="name" v="Bundesautobahn A 27"/>
    <tag k="note:name" v="Der reg_name, sowie ggf. der loc_name sind dem zugehörigen Wikipediaartikel entnommen."/>
    <tag k="oneway" v="yes"/>
    <tag k="ref" v="A 27"/>
    <tag k="reg_name" v="Schellfischlinie"/>
  </way>
  <way id="72214150" version="4" timestamp="2011-04-01T22:49:22Z" uid="422063" user="Meinereiner" changeset="7740173">
    <nd ref="25338280"/>
    <nd ref="1051580694"/>
    <tag k="highway" v="motorway"/>
    <tag k="int_ref" v="E 234"/>
    <tag k="lanes" v="2"/>
    <tag k="note:name" v="Der reg_name, sowie ggf. der loc_name sind dem zugehörigen Wikipediaartikel entnommen."/>
    <tag k="oneway" v="yes"/>
    <tag k="ref" v="A 27"/>
    <tag k="reg_name" v="Schellfischlinie"/>
  </way>
  <way id="72214150" version="5" timestamp="2012-03-04T19:06:19Z" uid="45882" user="smarties" changeset="10872568"/>
  <way id="72214157" version="3" timestamp="2010-12-20T13:37:42Z" uid="6269" user="Mueck" changeset="6716052">
    <nd ref="21112216"/>
    <nd ref="25338278"/>
    <nd ref="25338282"/>
    <tag k="highway" v="motorway"/>
    <tag k="int_ref" v="E 234"/>
    <tag k="lanes" v="2"/>
    <tag k="maxspeed" v="120"/>
    <tag k="name" v="Bundesautobahn A 27"/>
    <tag k="note:name" v="Der reg_name, sowie ggf. der loc_name sind dem zugehörigen Wikipediaartikel entnommen."/>
    <tag k="oneway" v="yes"/>
    <tag k="ref" v="A 27"/>
    <tag k="reg_name" v="Schellfischlinie"/>
  </way>
  <way id="72214157" version="4" timestamp="2011-04-01T22:49:33Z" uid="422063" user="Meinereiner" changeset="7740173">
    <nd ref="21112216"/>
    <nd ref="25338278"/>
    <nd ref="25338282"/>
    <tag k="highway" v="motorway"/>
    <tag k="int_ref" v="E 234"/>
    <tag k="lanes" v="2"/>
    <tag k="maxspeed" v="120"/>
    <tag k="note:name" v="Der reg_name, sowie ggf. der loc_name sind dem zugehörigen Wikipediaartikel entnommen."/>
    <tag k="oneway" v="yes"/>
    <tag k="ref" v="A 27"/>
    <tag k="reg_name" v="Schellfischlinie"/>
  </way>
  <way id="72214157" version="5" timestamp="2012-03-04T19:06:20Z" uid="45882" user="smarties" changeset="10872568"/>
  <way id="72214422" version="1" timestamp="2010-08-13T10:03:13Z" uid="4467" user="Rosscoe" changeset="5480414">
    <nd ref="858294841"/>
    <nd ref="537416099"/>
    <nd ref="537416101"/>
    <nd ref="266261406"/>
    <tag k="highway" v="tertiary"/>
    <tag k="name" v="Glenfern Road"/>
    <tag k="ref" v="S 5"/>
  </way>
  <way id="72214422" version="2" timestamp="2011-05-13T12:03:12Z" uid="206929" user="Supt_of_Printing" changeset="8131010">
    <nd ref="858294841"/>
    <nd ref="537416099"/>
    <nd ref="537416101"/>
    <nd ref="1282692190"/>
    <nd ref="266261406"/>
    <tag k="highway" v="tertiary"/>
    <tag k="name" v="Glenfern Road"/>
    <tag k="ref" v="S 5"/>
  </way>
  <way id="72214422" version="3" timestamp="2011-08-24T07:17:04Z" uid="11111" user="melb_guy" changeset="9109762">
    <nd ref="858294841"/>
    <nd ref="537416099"/>
    <nd ref="537416101"/>
    <nd ref="1282692190"/>
    <nd ref="266261406"/>
    <tag k="highway" v="secondary"/>
    <tag k="maxspeed" v="60"/>
    <tag k="name" v="Glenfern Road"/>
    <tag k="surface" v="asphalt"/>
  </way>
  <way id="72214426" version="1" timestamp="2010-08-13T10:03:14Z" uid="4467" user="Rosscoe" changeset="5480414">
    <nd ref="858294795"/>
    <nd ref="858294935"/>
    <tag k="bridge" v="yes"/>
    <tag k="highway" v="tertiary"/>
    <tag k="layer" v="1"/>
    <tag k="name" v="Glenfern Road"/>
    <tag k="oneway" v="yes"/>
    <tag k="ref" v="S 5"/>
  </way>
  <way id="72214426" version="2" timestamp="2011-08-24T07:17:04Z" uid="11111" user="melb_guy" changeset="9109762">
    <nd ref="858294795"/>
    <nd ref="858294935"/>
    <tag k="bridge" v="yes"/>
    <tag k="highway" v="secondary"/>
    <tag k="layer" v="1"/>
    <tag k="maxspeed" v="60"/>
    <tag k="name" v="Glenfern Road"/>
    <tag k="oneway" v="yes"/>
    <tag k="surface" v="asphalt"/>
  </way>
  <way id="72214700" version="1" timestamp="2010-08-13T10:04:25Z" uid="74027" user="katzlbt" changeset="5480400">
    <nd ref="858296552"/>
    <nd ref="858296553"/>
    <nd ref="858296555"/>
    <nd ref="858296556"/>
    <nd ref="333296648"/>
    <nd ref="333296632"/>
    <nd ref="333296633"/>
    <nd ref="858296558"/>
    <nd ref="858296560"/>
    <nd ref="858296561"/>
    <nd ref="858296563"/>
    <nd ref="858296565"/>
    <nd ref="858296567"/>
    <nd ref="858296552"/>
    <tag k="landuse" v="meadow"/>
  </way>
  <way id="72214700" version="2" timestamp="2011-11-17T21:27:04Z" uid="439111" user="Hafelekar" changeset="9858197">
    <nd ref="858296552"/>
    <nd ref="1506717657"/>
    <nd ref="858296553"/>
    <nd ref="858296555"/>
    <nd ref="858296556"/>
    <nd ref="333296648"/>
    <nd ref="333296632"/>
    <nd ref="333296633"/>
    <nd ref="858296558"/>
    <nd ref="858296560"/>
    <nd ref="858296561"/>
    <nd ref="858296563"/>
    <nd ref="858296565"/>
    <nd ref="858296567"/>
    <nd ref="1506717664"/>
    <nd ref="1506717661"/>
    <nd ref="858296552"/>
    <tag k="landuse" v="meadow"/>
  </way>
  <way id="72214700" version="3" timestamp="2012-03-07T17:21:08Z" uid="606250" user="katzlmacher" changeset="10901857"/>
</osm>
