<?xml version='1.0' encoding='UTF-8'?>
<osm version="0.6" generator="libosmium/2.20.0">
  <way id="72509408" version="1" timestamp="2010-08-15T05:47:19Z" uid="33382" user="de_muur" changeset="5496239">
    <nd ref="31197271"/>
    <nd ref="317610245"/>
    <nd ref="31197270"/>
    <nd ref="317610246"/>
    <nd ref="298776448"/>
    <tag k="highway" v="secondary"/>
    <tag k="maxspeed" v="50"/>
    <tag k="name" v="Lindhorster Straße"/>
    <tag k="ref" v="K 30"/>
    <tag k="surface" v="paved"/>
  </way>
  <way id="72509426" version="2" timestamp="2011-01-07T00:18:22Z" uid="30201" user="rrankin" changeset="6888648">
    <nd ref="860813015"/>
    <nd ref="860813048"/>
    <nd ref="1087159036"/>
    <nd ref="860813049"/>
    <nd ref="860813050"/>
    <nd ref="860813051"/>
    <nd ref="860813052"/>
    <nd ref="860813053"/>
    <nd ref="860813054"/>
    <nd ref="860813055"/>
    <nd ref="860813010"/>
    <tag k="highway" v="footway"/>
  </way>
  <way id="72509460" version="1" timestamp="2010-08-15T05:54:14Z" uid="33382" user="de_muur" changeset="5496255">
    <nd ref="860813532"/>
    <nd ref="31197436"/>
    <nd ref="31197437"/>
    <nd ref="321871674"/>
    <nd ref="293279184"/>
    <tag k="highway" v="secondary"/>
    <tag k="ref" v="L 370"/>
    <tag k="surface" v="paved"/>
  </way>
  <way id="72509460" version="2" timestamp="2010-08-23T18:43:50Z" uid="72235" user="Basstoelpel" changeset="5573746">
    <nd ref="860813532"/>
    <nd ref="31197436"/>
    <nd ref="876235134"/>
    <nd ref="31197437"/>
    <nd ref="321871674"/>
    <tag k="highway" v="secondary"/>
    <tag k="maxspeed" v="70"/>
    <tag k="name" v="Bergholer Straße"/>
    <tag k="ref" v="L 370"/>
    <tag k="surface" v="paved"/>
  </way>
  <way id="72509460" version="3" timestamp="2012-03-13T09:15:59Z" uid="72235" user="Basstoelpel" changeset="10964363"/>
  <way id="72509461" version="1" timestamp="2010-08-15T05:54:14Z" uid="33382" user="de_muur" changeset="5496255">
    <nd ref="860813536"/>
    <nd ref="31199582"/>
    <nd ref="31199583"/>
    <nd ref="31199584"/>
    <tag k="highway" v="primary"/>
    <tag k="maxspeed" v="50"/>
    <tag k="name" v="Alte Poststraße"/>
    <tag k="ref" v="B 441"/>
    <tag k="surface" v="paved"/>
  </way>
  <way id="72509461" version="2" timestamp="2010-12-28T13:47:19Z" uid="104779" user="ABRob" changeset="6787986">
    <nd ref="860813536"/>
    <nd ref="31199582"/>
    <nd ref="31199583"/>
    <nd ref="31199584"/>
    <tag k="highway" v="primary"/>
    <tag k="maxspeed" v="50"/>
    <tag k="name" v="Alte Poststraße"/>
    <tag k="postal_code" v="31547"/>
    <tag k="ref" v="B 441"/>
    <tag k="surface" v="paved"/>
  </way>
  <way id="72509461" version="3" timestamp="2012-03-13T09:15:58Z" uid="72235" user="Basstoelpel" changeset="10964363"/>
  <way id="72509462" version="1" timestamp="2010-08-15T05:54:14Z" uid="33382" user="de_muur" changeset="5496255">
    <nd ref="860813533"/>
    <nd ref="31413883"/>
    <nd ref="31413884"/>
    <nd ref="679045319"/>
    <nd ref="31413885"/>
    <nd ref="31413886"/>
    <nd ref="31413887"/>
    <nd ref="31413888"/>
    <nd ref="31413889"/>
    <nd ref="31413890"/>
    <nd ref="31413891"/>
    <nd ref="31413892"/>
    <nd ref="31413893"/>
    <nd ref="31413894"/>
    <nd ref="31413895"/>
    <nd ref="679045354"/>
    <nd ref="31413896"/>
    <nd ref="31413897"/>
    <nd ref="31413898"/>
    <nd ref="31413899"/>
    <nd ref="31413900"/>
    <nd ref="479776591"/>
    <nd ref="479776304"/>
    <nd ref="31413901"/>
    <nd ref="479776344"/>
    <nd ref="53322159"/>
    <tag k="highway" v="secondary"/>
    <tag k="name" v="Allee"/>
    <tag k="ref" v="L 370"/>
    <tag k="surface" v="paved"/>
  </way>
  <way id="72509462" version="2" timestamp="2010-08-15T06:41:42Z" uid="33382" user="de_muur" changeset="5496398">
    <nd ref="860813533"/>
    <nd ref="31413883"/>
    <nd ref="31413884"/>
    <nd ref="679045319"/>
    <nd ref="31413885"/>
    <nd ref="860829587"/>
    <nd ref="31413886"/>
    <nd ref="31413887"/>
    <nd ref="31413888"/>
    <nd ref="31413889"/>
    <nd ref="31413890"/>
    <nd ref="31413891"/>
    <nd ref="31413892"/>
    <nd ref="31413893"/>
    <nd ref="860829585"/>
    <tag k="highway" v="secondary"/>
    <tag k="maxspeed" v="50"/>
    <tag k="name" v="Allee"/>
    <tag k="ref" v="L 370"/>
    <tag k="surface" v="paved"/>
  </way>
  <way id="72509462" version="3" timestamp="2010-08-15T17:30:13Z" uid="326385" user="dgoeh" changeset="5502267">
    <nd ref="860813533"/>
    <nd ref="31413883"/>
    <nd ref="31413884"/>
    <nd ref="679045319"/>
    <nd ref="31413885"/>
    <nd ref="860829587"/>
    <nd ref="31413886"/>
    <nd ref="31413887"/>
    <nd ref="31413888"/>
    <nd ref="31413889"/>
    <nd ref="31413890"/>
    <nd ref="31413891"/>
    <nd ref="31413892"/>
    <nd ref="861581685"/>
    <nd ref="31413893"/>
    <nd ref="860829585"/>
    <tag k="highway" v="secondary"/>
    <tag k="maxspeed" v="50"/>
    <tag k="name" v="Allee"/>
    <tag k="ref" v="L 370"/>
    <tag k="surface" v="paved"/>
  </way>
  <way id="72509462" version="4" timestamp="2011-06-22T16:21:35Z" uid="474772" user="AndreasJ42" changeset="8515640">
    <nd ref="860813533"/>
    <nd ref="31413883"/>
    <nd ref="31413884"/>
    <nd ref="679045319"/>
    <nd ref="31413885"/>
    <nd ref="860829587"/>
    <nd ref="31413886"/>
    <nd ref="31413887"/>
    <nd ref="31413888"/>
    <nd ref="31413889"/>
    <nd ref="31413890"/>
    <tag k="highway" v="secondary"/>
    <tag k="maxspeed" v="50"/>
    <tag k="name" v="Allee"/>
    <tag k="ref" v="L 370"/>
    <tag k="surface" v="paved"/>
  </way>
  <way id="72509462" version="5" timestamp="2011-06-25T10:21:34Z" uid="474772" user="AndreasJ42" changeset="8540676">
    <nd ref="860813533"/>
    <nd ref="31413883"/>
    <nd ref="31413884"/>
    <nd ref="679045319"/>
    <nd ref="31413885"/>
    <nd ref="860829587"/>
    <nd ref="1338123481"/>
    <nd ref="31413886"/>
    <nd ref="31413887"/>
    <nd ref="31413888"/>
    <nd ref="31413889"/>
    <nd ref="31413890"/>
    <tag k="highway" v="secondary"/>
    <tag k="maxspeed" v="50"/>
    <tag k="name" v="Allee"/>
    <tag k="ref" v="L 370"/>
    <tag k="surface" v="paved"/>
  </way>
  <way id="72509462" version="6" timestamp="2011-08-08T16:40:16Z" uid="474772" user="AndreasJ42" changeset="8959104">
    <nd ref="860813533"/>
    <nd ref="31413883"/>
    <nd ref="31413884"/>
    <nd ref="679045319"/>
    <nd ref="31413885"/>
    <nd ref="860829587"/>
    <nd ref="1391130311"/>
    <nd ref="1338123481"/>
    <nd ref="31413886"/>
    <nd ref="31413887"/>
    <nd ref="1391130217"/>
    <nd ref="31413888"/>
    <nd ref="31413889"/>
    <nd ref="31413890"/>
    <tag k="highway" v="secondary"/>
    <tag k="maxspeed" v="50"/>
    <tag k="name" v="Allee"/>
    <tag k="ref" v="L 370"/>
    <tag k="surface" v="paved"/>
  </way>
  <way id="72509462" version="7" timestamp="2012-03-13T09:15:57Z" uid="72235" user="Basstoelpel" changeset="10964363"/>
  <way id="72509463" version="1" timestamp="2010-08-15T05:54:15Z" uid="33382" user="de_muur" changeset="5496255">
    <nd ref="860813534"/>
    <nd ref="360328386"/>
    <nd ref="31197435"/>
    <nd ref="860813532"/>
    <tag k="highway" v="secondary"/>
    <tag k="maxspeed" v="50"/>
    <tag k="ref" v="L 370"/>
    <tag k="surface" v="paved"/>
  </way>
  <way id="72509463" version="2" timestamp="2010-08-23T18:44:10Z" uid="72235" user="Basstoelpel" changeset="5573746">
    <nd ref="860813534"/>
    <nd ref="360328386"/>
    <nd ref="31197435"/>
    <nd ref="860813532"/>
    <tag k="cycleway" v="track"/>
    <tag k="highway" v="secondary"/>
    <tag k="maxspeed" v="50"/>
    <tag k="postal_code" v="31556"/>
    <tag k="ref" v="L 370"/>
    <tag k="surface" v="paved"/>
  </way>
  <way id="72509463" version="3" timestamp="2011-04-22T19:30:29Z" uid="45263" user="Noframe" changeset="7937928">
    <nd ref="860813534"/>
    <nd ref="360328386"/>
    <nd ref="31197435"/>
    <nd ref="1255790124"/>
    <nd ref="860813532"/>
    <tag k="cycleway" v="track"/>
    <tag k="highway" v="secondary"/>
    <tag k="maxspeed" v="50"/>
    <tag k="postal_code" v="31556"/>
    <tag k="ref" v="L 370"/>
    <tag k="surface" v="paved"/>
  </way>
  <way id="72509463" version="4" timestamp="2012-03-13T09:16:01Z" uid="72235" user="Basstoelpel" changeset="10964363"/>
  <way id="72509918" version="1" timestamp="2010-08-15T06:41:39Z" uid="33382" user="de_muur" changeset="5496398">
    <nd ref="31197478"/>
    <nd ref="31197477"/>
    <nd ref="289651711"/>
    <nd ref="31197476"/>
    <nd ref="260539086"/>
    <nd ref="31197475"/>
    <nd ref="31197474"/>
    <nd ref="857323865"/>
    <nd ref="857323733"/>
    <nd ref="31197473"/>
    <nd ref="260539087"/>
    <nd ref="260539088"/>
    <nd ref="31197472"/>
    <nd ref="31197471"/>
    <nd ref="289651615"/>
    <nd ref="31197470"/>
    <tag k="highway" v="tertiary"/>
    <tag k="name" v="Winzlarer Straße"/>
    <tag k="ref" v="K 10"/>
    <tag k="surface" v="paved"/>
  </way>
  <way id="72509918" version="2" timestamp="2010-09-05T17:58:43Z" uid="326385" user="dgoeh" changeset="5690576">
    <nd ref="31197478"/>
    <nd ref="31197477"/>
    <nd ref="289651711"/>
    <nd ref="31197476"/>
    <nd ref="260539086"/>
    <nd ref="31197475"/>
    <nd ref="31197474"/>
    <nd ref="857323865"/>
    <nd ref="857323733"/>
    <nd ref="31197473"/>
    <nd ref="260539087"/>
    <nd ref="260539088"/>
    <nd ref="31197472"/>
    <nd ref="31197471"/>
    <nd ref="289651615"/>
    <nd ref="31197470"/>
    <tag k="bicycle" v="designated"/>
    <tag k="cycleway:right" v="lane"/>
    <tag k="foot" v="designated"/>
    <tag k="highway" v="tertiary"/>
    <tag k="name" v="Winzlarer Straße"/>
    <tag k="ref" v="K 10"/>
    <tag k="surface" v="paved"/>
  </way>
  <way id="72509918" version="3" timestamp="2010-09-16T09:43:47Z" uid="81732" user="zahilb" changeset="5793827">
    <nd ref="31197478"/>
    <nd ref="31197477"/>
    <nd ref="31197476"/>
    <nd ref="260539086"/>
    <nd ref="31197474"/>
    <nd ref="857323865"/>
    <nd ref="857323733"/>
    <nd ref="260539087"/>
    <nd ref="31197471"/>
    <nd ref="289651615"/>
    <nd ref="31197470"/>
    <tag k="bicycle" v="designated"/>
    <tag k="cycleway:right" v="lane"/>
    <tag k="foot" v="designated"/>
    <tag k="highway" v="tertiary"/>
    <tag k="name" v="Winzlarer Straße"/>
    <tag k="ref" v="K 10"/>
    <tag k="surface" v="paved"/>
  </way>
  <way id="72509918" version="4" timestamp="2011-06-22T16:37:18Z" uid="474772" user="AndreasJ42" changeset="8515640">
    <nd ref="31197478"/>
    <nd ref="31197477"/>
    <nd ref="31197476"/>
    <nd ref="260539086"/>
    <nd ref="1334641520"/>
    <nd ref="31197474"/>
    <nd ref="857323865"/>
    <nd ref="857323733"/>
    <nd ref="260539087"/>
    <nd ref="31197471"/>
    <nd ref="289651615"/>
    <nd ref="31197470"/>
    <tag k="bicycle" v="designated"/>
    <tag k="cycleway:right" v="lane"/>
    <tag k="foot" v="designated"/>
    <tag k="highway" v="tertiary"/>
    <tag k="name" v="Winzlarer Straße"/>
    <tag k="ref" v="K 10"/>
    <tag k="surface" v="paved"/>
  </way>
  <way id="72509918" version="5" timestamp="2011-06-30T09:40:14Z" uid="474772" user="AndreasJ42" changeset="8588709">
    <nd ref="31197478"/>
    <nd ref="31197477"/>
    <nd ref="31197476"/>
    <nd ref="260539086"/>
    <nd ref="1334641520"/>
    <nd ref="31197474"/>
    <nd ref="857323865"/>
    <nd ref="857323733"/>
    <nd ref="260539087"/>
    <nd ref="1344325067"/>
    <nd ref="31197471"/>
    <nd ref="289651615"/>
    <nd ref="31197470"/>
    <tag k="bicycle" v="designated"/>
    <tag k="cycleway:right" v="lane"/>
    <tag k="foot" v="designated"/>
    <tag k="highway" v="tertiary"/>
    <tag k="name" v="Winzlarer Straße"/>
    <tag k="ref" v="K 10"/>
    <tag k="surface" v="paved"/>
  </way>
  <way id="72509918" version="6" timestamp="2011-07-27T10:05:07Z" uid="474772" user="AndreasJ42" changeset="8843479">
    <nd ref="31197478"/>
    <nd ref="31197477"/>
    <nd ref="31197476"/>
    <nd ref="260539086"/>
    <nd ref="1375624373"/>
    <nd ref="1334641520"/>
    <nd ref="31197474"/>
    <nd ref="857323865"/>
    <nd ref="857323733"/>
    <nd ref="260539087"/>
    <nd ref="1344325067"/>
    <nd ref="31197471"/>
    <nd ref="289651615"/>
    <nd ref="31197470"/>
    <tag k="bicycle" v="designated"/>
    <tag k="cycleway:right" v="lane"/>
    <tag k="foot" v="designated"/>
    <tag k="highway" v="tertiary"/>
    <tag k="name" v="Winzlarer Straße"/>
    <tag k="ref" v="K 10"/>
    <tag k="surface" v="paved"/>
  </way>
  <way id="72509918" version="7" timestamp="2011-08-28T11:29:46Z" uid="474772" user="AndreasJ42" changeset="9146256">
    <nd ref="31197478"/>
    <nd ref="1415941362"/>
    <nd ref="31197477"/>
    <nd ref="31197476"/>
    <nd ref="1415941401"/>
    <nd ref="260539086"/>
    <nd ref="1375624373"/>
    <nd ref="1415941405"/>
    <nd ref="1415941357"/>
    <nd ref="1334641520"/>
    <nd ref="1415941371"/>
    <nd ref="31197474"/>
    <nd ref="1415941397"/>
    <nd ref="857323865"/>
    <nd ref="857323733"/>
    <nd ref="260539087"/>
    <nd ref="1415941419"/>
    <nd ref="1344325067"/>
    <nd ref="1415941413"/>
    <nd ref="31197471"/>
    <nd ref="289651615"/>
    <nd ref="31197470"/>
    <tag k="bicycle" v="designated"/>
    <tag k="cycleway:right" v="lane"/>
    <tag k="foot" v="designated"/>
    <tag k="highway" v="tertiary"/>
    <tag k="name" v="Winzlarer Straße"/>
    <tag k="ref" v="K 10"/>
    <tag k="surface" v="paved"/>
  </way>
  <way id="72509918" version="8" timestamp="2011-09-02T18:32:15Z" uid="72235" user="Basstoelpel" changeset="9195224">
    <nd ref="31197478"/>
    <nd ref="1415941362"/>
    <nd ref="31197477"/>
    <nd ref="31197476"/>
    <nd ref="1415941401"/>
    <nd ref="260539086"/>
    <nd ref="1375624373"/>
    <nd ref="1415941405"/>
    <nd ref="1415941357"/>
    <nd ref="1334641520"/>
    <nd ref="1415941371"/>
    <nd ref="31197474"/>
    <nd ref="857323865"/>
    <nd ref="857323733"/>
    <nd ref="260539087"/>
    <nd ref="1415941419"/>
    <nd ref="1344325067"/>
    <nd ref="1415941413"/>
    <nd ref="1421213999"/>
    <tag k="cycleway:right" v="lane"/>
    <tag k="highway" v="tertiary"/>
    <tag k="name" v="Winzlarer Straße"/>
    <tag k="ref" v="K 10"/>
    <tag k="surface" v="paved"/>
  </way>
  <way id="72509918" version="9" timestamp="2012-03-13T09:16:03Z" uid="72235" user="Basstoelpel" changeset="10964363"/>
  <way id="72509919" version="1" timestamp="2010-08-15T06:41:40Z" uid="33382" user="de_muur" changeset="5496398">
    <nd ref="31413900"/>
    <nd ref="479776591"/>
    <nd ref="479776304"/>
    <nd ref="31413901"/>
    <nd ref="479776344"/>
    <nd ref="53322159"/>
    <tag k="highway" v="secondary"/>
    <tag k="maxspeed" v="50"/>
    <tag k="name" v="Allee"/>
    <tag k="ref" v="L 370"/>
    <tag k="surface" v="paved"/>
  </way>
  <way id="72509919" version="2" timestamp="2010-08-16T14:11:11Z" uid="326385" user="dgoeh" changeset="5509554">
    <nd ref="31413900"/>
    <nd ref="863228132"/>
    <nd ref="479776591"/>
    <nd ref="479776304"/>
    <nd ref="31413901"/>
    <nd ref="479776344"/>
    <nd ref="53322159"/>
    <tag k="highway" v="secondary"/>
    <tag k="maxspeed" v="50"/>
    <tag k="name" v="Allee"/>
    <tag k="ref" v="L 370"/>
    <tag k="surface" v="paved"/>
  </way>
  <way id="72509919" version="3" timestamp="2010-09-16T06:39:15Z" uid="326385" user="dgoeh" changeset="5792719">
    <nd ref="31413900"/>
    <nd ref="863228132"/>
    <nd ref="479776591"/>
    <nd ref="479776304"/>
    <tag k="highway" v="secondary"/>
    <tag k="maxspeed" v="50"/>
    <tag k="name" v="Allee"/>
    <tag k="ref" v="L 370"/>
    <tag k="surface" v="paved"/>
  </way>
  <way id="72509919" version="4" timestamp="2011-06-22T16:37:19Z" uid="474772" user="AndreasJ42" changeset="8515640">
    <nd ref="31413900"/>
    <nd ref="863228132"/>
    <nd ref="479776591"/>
    <nd ref="1334641518"/>
    <nd ref="479776304"/>
    <tag k="highway" v="secondary"/>
    <tag k="maxspeed" v="50"/>
    <tag k="name" v="Allee"/>
    <tag k="ref" v="L 370"/>
    <tag k="surface" v="paved"/>
  </way>
  <way id="72509919" version="5" timestamp="2011-07-05T08:00:37Z" uid="474772" user="AndreasJ42" changeset="8636747">
    <nd ref="31413900"/>
    <nd ref="863228132"/>
    <nd ref="479776591"/>
    <nd ref="1334641518"/>
    <nd ref="479776304"/>
    <tag k="highway" v="secondary"/>
    <tag k="maxspeed" v="50"/>
    <tag k="name" v="Brunnenstraße"/>
    <tag k="ref" v="L 370"/>
    <tag k="surface" v="paved"/>
  </way>
  <way id="72509919" version="6" timestamp="2011-08-24T14:06:16Z" uid="474772" user="AndreasJ42" changeset="9112656">
    <nd ref="31413900"/>
    <nd ref="863228132"/>
    <nd ref="479776591"/>
    <nd ref="1334641518"/>
    <nd ref="1411270709"/>
    <nd ref="479776304"/>
    <tag k="highway" v="secondary"/>
    <tag k="maxspeed" v="50"/>
    <tag k="name" v="Brunnenstraße"/>
    <tag k="ref" v="L 370"/>
    <tag k="surface" v="paved"/>
  </way>
  <way id="72509919" version="7" timestamp="2012-03-13T09:16:00Z" uid="72235" user="Basstoelpel" changeset="10964363"/>
  <way id="72509920" version="1" timestamp="2010-08-15T06:41:40Z" uid="33382" user="de_muur" changeset="5496398">
    <nd ref="860829585"/>
    <nd ref="31413894"/>
    <nd ref="31413895"/>
    <nd ref="679045354"/>
    <nd ref="31413896"/>
    <nd ref="31413897"/>
    <nd ref="31413898"/>
    <nd ref="31413899"/>
    <nd ref="31413900"/>
    <tag k="highway" v="secondary"/>
    <tag k="maxspeed" v="70"/>
    <tag k="name" v="Allee"/>
    <tag k="ref" v="L 370"/>
    <tag k="surface" v="paved"/>
  </way>
  <way id="72509920" version="2" timestamp="2010-08-15T17:30:15Z" uid="326385" user="dgoeh" changeset="5502267">
    <nd ref="860829585"/>
    <nd ref="31413894"/>
    <nd ref="31413895"/>
    <nd ref="679045354"/>
    <nd ref="31413896"/>
    <nd ref="31413897"/>
    <nd ref="861581673"/>
    <nd ref="31413898"/>
    <nd ref="31413899"/>
    <nd ref="31413900"/>
    <tag k="highway" v="secondary"/>
    <tag k="maxspeed" v="70"/>
    <tag k="name" v="Allee"/>
    <tag k="ref" v="L 370"/>
    <tag k="surface" v="paved"/>
  </way>
  <way id="72509920" version="3" timestamp="2011-06-22T16:21:35Z" uid="474772" user="AndreasJ42" changeset="8515640">
    <nd ref="860829585"/>
    <nd ref="1334629612"/>
    <nd ref="31413894"/>
    <nd ref="1334629574"/>
    <nd ref="31413895"/>
    <nd ref="679045354"/>
    <nd ref="31413896"/>
    <nd ref="31413897"/>
    <nd ref="861581673"/>
    <nd ref="1334629598"/>
    <nd ref="31413898"/>
    <nd ref="1334629572"/>
    <nd ref="31413899"/>
    <nd ref="1334629602"/>
    <nd ref="31413900"/>
    <tag k="highway" v="secondary"/>
    <tag k="maxspeed" v="70"/>
    <tag k="name" v="Brunnenstraße"/>
    <tag k="ref" v="L 370"/>
    <tag k="surface" v="paved"/>
  </way>
  <way id="72509920" version="4" timestamp="2011-07-19T05:49:37Z" uid="118623" user="hknk1" changeset="8765025"/>
  <way id="72509982" version="1" timestamp="2010-08-15T06:47:42Z" uid="33382" user="de_muur" changeset="5496426">
    <nd ref="860839064"/>
    <nd ref="364054914"/>
    <nd ref="364054947"/>
    <nd ref="767307321"/>
    <tag k="highway" v="secondary"/>
    <tag k="maxspeed" v="50"/>
    <tag k="ref" v="L 370"/>
    <tag k="surface" v="paved"/>
  </way>
  <way id="72509983" version="1" timestamp="2010-08-15T06:47:42Z" uid="33382" user="de_muur" changeset="5496426">
    <nd ref="860839074"/>
    <nd ref="860839076"/>
    <tag k="highway" v="secondary"/>
    <tag k="maxspeed" v="70"/>
    <tag k="name" v="Nienburger Straße"/>
    <tag k="ref" v="L 370"/>
    <tag k="surface" v="paved"/>
  </way>
  <way id="72509983" version="2" timestamp="2010-08-17T19:22:56Z" uid="33382" user="de_muur" changeset="5520820">
    <nd ref="860839074"/>
    <nd ref="860839076"/>
    <tag k="highway" v="secondary"/>
    <tag k="maxspeed:backward" v="70"/>
    <tag k="name" v="Nienburger Straße"/>
    <tag k="ref" v="L 370"/>
    <tag k="surface" v="paved"/>
  </way>
  <way id="72509983" version="3" timestamp="2011-08-07T16:26:10Z" uid="48632" user="Pappnase[GER]" changeset="8948974">
    <nd ref="860839074"/>
    <nd ref="860839076"/>
    <tag k="highway" v="secondary"/>
    <tag k="maxspeed" v="70"/>
    <tag k="name" v="Nienburger Straße"/>
    <tag k="ref" v="L 370"/>
    <tag k="surface" v="paved"/>
  </way>
  <way id="72509984" version="1" timestamp="2010-08-15T06:47:43Z" uid="33382" user="de_muur" changeset="5496426">
    <nd ref="860839059"/>
    <nd ref="51849589"/>
    <nd ref="51849591"/>
    <nd ref="51849594"/>
    <nd ref="51849598"/>
    <nd ref="860839078"/>
    <tag k="highway" v="secondary"/>
    <tag k="maxspeed" v="70"/>
    <tag k="name" v="Nienburger Straße"/>
    <tag k="ref" v="L 370"/>
    <tag k="surface" v="paved"/>
  </way>
  <way id="72509984" version="2" timestamp="2010-12-28T13:27:03Z" uid="104779" user="ABRob" changeset="6787986">
    <nd ref="860839059"/>
    <nd ref="51849589"/>
    <nd ref="51849591"/>
    <nd ref="51849594"/>
    <nd ref="51849598"/>
    <nd ref="860839078"/>
    <tag k="highway" v="secondary"/>
    <tag k="maxspeed" v="70"/>
    <tag k="name" v="Nienburger Straße"/>
    <tag k="postal_code" v="31632"/>
    <tag k="ref" v="L 370"/>
    <tag k="surface" v="paved"/>
  </way>
  <way id="72509985" version="1" timestamp="2010-08-15T06:47:43Z" uid="33382" user="de_muur" changeset="5496426">
    <nd ref="860839076"/>
    <nd ref="51849545"/>
    <nd ref="51849550"/>
    <nd ref="51849554"/>
    <nd ref="51849559"/>
    <nd ref="51849564"/>
    <nd ref="51849569"/>
    <nd ref="51849574"/>
    <nd ref="51849578"/>
    <nd ref="51849583"/>
    <nd ref="860839059"/>
    <tag k="highway" v="secondary"/>
    <tag k="name" v="Nienburger Straße"/>
    <tag k="ref" v="L 370"/>
    <tag k="surface" v="paved"/>
  </way>
  <way id="72509985" version="2" timestamp="2011-11-10T16:49:30Z" uid="528360" user="Konfusius" changeset="9790229">
    <nd ref="860839076"/>
    <nd ref="51849545"/>
    <nd ref="1497383314"/>
    <nd ref="51849550"/>
    <nd ref="51849554"/>
    <nd ref="51849559"/>
    <nd ref="51849564"/>
    <nd ref="51849569"/>
    <nd ref="51849574"/>
    <nd ref="51849578"/>
    <nd ref="51849583"/>
    <nd ref="860839059"/>
    <tag k="highway" v="secondary"/>
    <tag k="name" v="Nienburger Straße"/>
    <tag k="ref" v="L 370"/>
    <tag k="surface" v="paved"/>
  </way>
  <way id="72509986" version="1" timestamp="2010-08-15T06:47:43Z" uid="33382" user="de_muur" changeset="5496426">
    <nd ref="860839078"/>
    <nd ref="51849602"/>
    <nd ref="51849605"/>
    <nd ref="860839056"/>
    <tag k="highway" v="secondary"/>
    <tag k="maxspeed" v="50"/>
    <tag k="name" v="Nienburger Straße"/>
    <tag k="ref" v="L 370"/>
    <tag k="surface" v="paved"/>
  </way>
  <way id="72509986" version="2" timestamp="2010-12-28T13:16:35Z" uid="104779" user="ABRob" changeset="6787986">
    <nd ref="860839078"/>
    <nd ref="51849602"/>
    <nd ref="51849605"/>
    <nd ref="860839056"/>
    <tag k="highway" v="secondary"/>
    <tag k="maxspeed" v="50"/>
    <tag k="name" v="Nienburger Straße"/>
    <tag k="postal_code" v="31632"/>
    <tag k="ref" v="L 370"/>
    <tag k="surface" v="paved"/>
  </way>
  <way id="72509987" version="1" timestamp="2010-08-15T06:47:43Z" uid="33382" user="de_muur" changeset="5496426">
    <nd ref="51866964"/>
    <nd ref="860839072"/>
    <nd ref="51866969"/>
    <nd ref="51866973"/>
    <nd ref="286505723"/>
    <nd ref="51866977"/>
    <tag k="highway" v="secondary"/>
    <tag k="maxspeed" v="70"/>
    <tag k="ref" v="L 370"/>
    <tag k="surface" v="paved"/>
  </way>
  <way id="72509987" version="2" timestamp="2010-12-28T13:34:39Z" uid="104779" user="ABRob" changeset="6787986">
    <nd ref="51866964"/>
    <nd ref="860839072"/>
    <nd ref="51866969"/>
    <nd ref="51866973"/>
    <nd ref="1069123939"/>
    <tag k="highway" v="secondary"/>
    <tag k="maxspeed" v="70"/>
    <tag k="postal_code" v="31632"/>
    <tag k="ref" v="L 370"/>
    <tag k="surface" v="paved"/>
  </way>
  <way id="72509987" version="3" timestamp="2011-09-06T17:21:58Z" uid="474772" user="AndreasJ42" changeset="9229444">
    <nd ref="51866964"/>
    <nd ref="860839072"/>
    <nd ref="1425314709"/>
    <nd ref="51866969"/>
    <nd ref="51866973"/>
    <nd ref="1069123939"/>
    <tag k="highway" v="secondary"/>
    <tag k="maxspeed" v="70"/>
    <tag k="postal_code" v="31632"/>
    <tag k="ref" v="L 370"/>
    <tag k="surface" v="paved"/>
  </way>
  <way id="72509988" version="1" timestamp="2010-08-15T06:47:44Z" uid="33382" user="de_muur" changeset="5496426">
    <nd ref="860839056"/>
    <nd ref="51849609"/>
    <nd ref="283721695"/>
    <nd ref="51849613"/>
    <nd ref="51849616"/>
    <nd ref="52562160"/>
    <tag k="highway" v="secondary"/>
    <tag k="maxspeed" v="50"/>
    <tag k="name" v="Nienburger Straße"/>
    <tag k="ref" v="L 370"/>
    <tag k="surface" v="paved"/>
  </way>
  <way id="72509988" version="2" timestamp="2010-12-28T13:52:17Z" uid="104779" user="ABRob" changeset="6787986">
    <nd ref="860839056"/>
    <nd ref="51849609"/>
    <nd ref="283721695"/>
    <nd ref="51849613"/>
    <nd ref="51849616"/>
    <nd ref="52562160"/>
    <tag k="highway" v="secondary"/>
    <tag k="maxspeed" v="50"/>
    <tag k="name" v="Nienburger Straße"/>
    <tag k="postal_code" v="31632"/>
    <tag k="ref" v="L 370"/>
    <tag k="surface" v="paved"/>
  </way>
  <way id="72509989" version="1" timestamp="2010-08-15T06:47:44Z" uid="33382" user="de_muur" changeset="5496426">
    <nd ref="51866977"/>
    <nd ref="51866981"/>
    <nd ref="51866986"/>
    <nd ref="673431794"/>
    <nd ref="51866991"/>
    <nd ref="673431796"/>
    <nd ref="51866992"/>
    <nd ref="860839062"/>
    <tag k="highway" v="secondary"/>
    <tag k="ref" v="L 370"/>
    <tag k="surface" v="paved"/>
  </way>
  <way id="72509989" version="2" timestamp="2010-12-28T13:25:58Z" uid="104779" user="ABRob" changeset="6787986">
    <nd ref="51866977"/>
    <nd ref="51866981"/>
    <nd ref="51866986"/>
    <nd ref="673431794"/>
    <nd ref="51866991"/>
    <nd ref="673431796"/>
    <nd ref="51866992"/>
    <nd ref="860839062"/>
    <tag k="highway" v="secondary"/>
    <tag k="postal_code" v="31628"/>
    <tag k="ref" v="L 370"/>
    <tag k="surface" v="paved"/>
  </way>
  <way id="72509989" version="3" timestamp="2011-05-11T15:12:43Z" uid="439402" user="Oertel" changeset="8113231">
    <nd ref="51866977"/>
    <nd ref="51866981"/>
    <nd ref="51866986"/>
    <nd ref="673431794"/>
    <nd ref="51866991"/>
    <nd ref="673431796"/>
    <nd ref="51866992"/>
    <nd ref="1280332649"/>
    <nd ref="860839062"/>
    <tag k="highway" v="secondary"/>
    <tag k="postal_code" v="31628"/>
    <tag k="ref" v="L 370"/>
    <tag k="surface" v="paved"/>
  </way>
  <way id="72509989" version="4" timestamp="2011-09-06T17:02:45Z" uid="474772" user="AndreasJ42" changeset="9229444">
    <nd ref="51866977"/>
    <nd ref="51866981"/>
    <nd ref="1425300516"/>
    <nd ref="1425300537"/>
    <nd ref="1425300527"/>
    <nd ref="51866986"/>
    <nd ref="1425300600"/>
    <nd ref="673431794"/>
    <nd ref="51866991"/>
    <nd ref="673431796"/>
    <nd ref="51866992"/>
    <nd ref="1280332649"/>
    <nd ref="860839062"/>
    <tag k="highway" v="secondary"/>
    <tag k="postal_code" v="31628"/>
    <tag k="ref" v="L 370"/>
    <tag k="surface" v="paved"/>
  </way>
  <way id="72509990" version="1" timestamp="2010-08-15T06:47:44Z" uid="33382" user="de_muur" changeset="5496426">
    <nd ref="860839062"/>
    <nd ref="277847853"/>
    <nd ref="277847676"/>
    <nd ref="51866996"/>
    <nd ref="51871562"/>
    <nd ref="51871566"/>
    <nd ref="860839064"/>
    <tag k="highway" v="secondary"/>
    <tag k="maxspeed" v="70"/>
    <tag k="ref" v="L 370"/>
    <tag k="surface" v="paved"/>
  </way>
  <way id="72509990" version="2" timestamp="2010-12-28T13:42:04Z" uid="104779" user="ABRob" changeset="6787986">
    <nd ref="860839062"/>
    <nd ref="277847853"/>
    <nd ref="1069123773"/>
    <tag k="highway" v="secondary"/>
    <tag k="maxspeed" v="70"/>
    <tag k="postal_code" v="31628"/>
    <tag k="ref" v="L 370"/>
    <tag k="surface" v="paved"/>
  </way>
  <way id="72509990" version="3" timestamp="2011-09-06T17:02:45Z" uid="474772" user="AndreasJ42" changeset="9229444">
    <nd ref="860839062"/>
    <nd ref="1425300617"/>
    <nd ref="277847853"/>
    <nd ref="1069123773"/>
    <tag k="highway" v="secondary"/>
    <tag k="maxspeed" v="70"/>
    <tag k="postal_code" v="31628"/>
    <tag k="ref" v="L 370"/>
    <tag k="surface" v="paved"/>
  </way>
</osm>
