<?xml version='1.0' encoding='UTF-8'?>
<osm version="0.6" generator="libosmium/2.20.0">
  <way id="72514509" version="1" timestamp="2010-08-15T07:12:19Z" uid="7617" user="Franc" changeset="5496539">
    <nd ref="860869157"/>
    <nd ref="860869118"/>
    <nd ref="860869356"/>
    <tag k="addr:interpolation" v="odd"/>
  </way>
  <way id="72514509" version="2" timestamp="2012-02-13T04:44:47Z" uid="7523" user="inas" changeset="10670200">
    <nd ref="860869157"/>
    <nd ref="860869118"/>
    <tag k="addr:interpolation" v="odd"/>
  </way>
  <way id="72514509" version="3" timestamp="2012-02-13T05:12:15Z" uid="7523" user="inas" changeset="10670260"/>
  <way id="72514510" version="1" timestamp="2010-08-15T07:12:19Z" uid="7617" user="Franc" changeset="5496539">
    <nd ref="860869125"/>
    <nd ref="860869103"/>
    <nd ref="860869100"/>
    <tag k="addr:interpolation" v="even"/>
  </way>
  <way id="72514510" version="2" timestamp="2011-02-27T13:34:31Z" uid="7617" user="Franc" changeset="7410705"/>
  <way id="72514511" version="1" timestamp="2010-08-15T07:12:19Z" uid="7617" user="Franc" changeset="5496539">
    <nd ref="860869133"/>
    <nd ref="860869131"/>
    <nd ref="860869128"/>
    <nd ref="860869111"/>
    <nd ref="860869109"/>
    <tag k="addr:interpolation" v="odd"/>
  </way>
  <way id="72514511" version="2" timestamp="2011-02-27T13:34:18Z" uid="7617" user="Franc" changeset="7410705">
    <nd ref="860869133"/>
    <nd ref="860869131"/>
    <tag k="addr:interpolation" v="odd"/>
  </way>
  <way id="72514511" version="3" timestamp="2011-05-24T11:41:33Z" uid="7617" user="Franc" changeset="8234563"/>
  <way id="72514512" version="1" timestamp="2010-08-15T07:12:19Z" uid="7617" user="Franc" changeset="5496539">
    <nd ref="860869159"/>
    <nd ref="860869114"/>
    <tag k="addr:interpolation" v="even"/>
  </way>
  <way id="72514512" version="2" timestamp="2012-02-13T05:12:15Z" uid="7523" user="inas" changeset="10670260"/>
  <way id="72514513" version="1" timestamp="2010-08-15T07:12:19Z" uid="7617" user="Franc" changeset="5496539">
    <nd ref="860869146"/>
    <nd ref="849314569"/>
    <tag k="addr:interpolation" v="even"/>
  </way>
  <way id="72514513" version="2" timestamp="2012-02-13T05:12:15Z" uid="7523" user="inas" changeset="10670260"/>
  <way id="72514514" version="1" timestamp="2010-08-15T07:12:19Z" uid="7617" user="Franc" changeset="5496539">
    <nd ref="110960621"/>
    <nd ref="860869416"/>
    <nd ref="860869414"/>
    <nd ref="860869412"/>
    <nd ref="860869358"/>
    <nd ref="860869367"/>
    <nd ref="110960613"/>
    <nd ref="110960621"/>
    <tag k="leisure" v="nature_reserve"/>
    <tag k="name" v="Dibble Avenue Waterhole"/>
  </way>
  <way id="72514514" version="2" timestamp="2012-02-28T03:26:32Z" uid="7523" user="inas" changeset="10815457"/>
  <way id="72514672" version="1" timestamp="2010-08-15T07:18:28Z" uid="33382" user="de_muur" changeset="5496573">
    <nd ref="442118284"/>
    <nd ref="21725019"/>
    <tag k="highway" v="primary"/>
    <tag k="maxspeed" v="50"/>
    <tag k="name" v="Neuenlander Straße"/>
    <tag k="oneway" v="yes"/>
    <tag k="ref" v="B 6"/>
    <tag k="surface" v="paved"/>
  </way>
  <way id="72514672" version="2" timestamp="2011-06-03T18:28:58Z" uid="42429" user="FK270673" changeset="8332158">
    <nd ref="442118284"/>
    <nd ref="21725019"/>
    <tag k="highway" v="primary"/>
    <tag k="maxspeed" v="50"/>
    <tag k="name" v="Neuenlander Straße"/>
    <tag k="oneway" v="yes"/>
    <tag k="power" v="underground_cable"/>
    <tag k="ref" v="B 6"/>
    <tag k="surface" v="paved"/>
    <tag k="voltage" v="110000"/>
  </way>
  <way id="72514673" version="1" timestamp="2010-08-15T07:18:28Z" uid="33382" user="de_muur" changeset="5496573">
    <nd ref="25832067"/>
    <nd ref="21725018"/>
    <nd ref="21725016"/>
    <tag k="highway" v="primary"/>
    <tag k="maxspeed" v="50"/>
    <tag k="name" v="Neuenlander Straße"/>
    <tag k="oneway" v="yes"/>
    <tag k="ref" v="B 6"/>
    <tag k="surface" v="paved"/>
  </way>
  <way id="72514673" version="2" timestamp="2010-10-02T21:45:16Z" uid="45445" user="UScha" changeset="5940047">
    <nd ref="25832067"/>
    <nd ref="21725018"/>
    <nd ref="935787298"/>
    <nd ref="21725016"/>
    <tag k="highway" v="primary"/>
    <tag k="maxspeed" v="50"/>
    <tag k="name" v="Neuenlander Straße"/>
    <tag k="oneway" v="yes"/>
    <tag k="ref" v="B 6"/>
    <tag k="surface" v="paved"/>
  </way>
  <way id="72514673" version="3" timestamp="2010-11-05T12:35:58Z" uid="45445" user="UScha" changeset="6294908">
    <nd ref="25832067"/>
    <nd ref="21725018"/>
    <nd ref="935787298"/>
    <nd ref="21725016"/>
    <tag k="highway" v="primary"/>
    <tag k="lanes" v="2"/>
    <tag k="maxspeed" v="50"/>
    <tag k="name" v="Neuenlander Straße"/>
    <tag k="oneway" v="yes"/>
    <tag k="ref" v="B 6"/>
    <tag k="surface" v="paved"/>
  </way>
  <way id="72514673" version="4" timestamp="2010-12-31T11:17:29Z" uid="388405" user="RobertHB" changeset="6818446">
    <nd ref="25832067"/>
    <nd ref="1075047743"/>
    <nd ref="1075047738"/>
    <nd ref="21725018"/>
    <nd ref="935787298"/>
    <nd ref="21725016"/>
    <tag k="highway" v="primary"/>
    <tag k="lanes" v="2"/>
    <tag k="maxspeed" v="50"/>
    <tag k="name" v="Neuenlander Straße"/>
    <tag k="oneway" v="yes"/>
    <tag k="ref" v="B 6"/>
    <tag k="surface" v="paved"/>
  </way>
  <way id="72514673" version="5" timestamp="2011-01-04T17:15:27Z" uid="388405" user="RobertHB" changeset="6863117">
    <nd ref="25832067"/>
    <nd ref="1075047743"/>
    <tag k="highway" v="primary"/>
    <tag k="lanes" v="2"/>
    <tag k="maxspeed" v="50"/>
    <tag k="name" v="Neuenlander Straße"/>
    <tag k="oneway" v="yes"/>
    <tag k="ref" v="B 6"/>
    <tag k="surface" v="paved"/>
  </way>
  <way id="72514674" version="1" timestamp="2010-08-15T07:19:13Z" uid="4467" user="Rosscoe" changeset="5496574">
    <nd ref="860878668"/>
    <nd ref="860878773"/>
    <tag k="gauge" v="600"/>
    <tag k="railway" v="narrow_gauge"/>
    <tag k="source" v="nearmap"/>
  </way>
  <way id="72514674" version="2" timestamp="2010-08-15T10:27:00Z" uid="4467" user="Rosscoe" changeset="5497991">
    <nd ref="860878668"/>
    <nd ref="860878773"/>
    <nd ref="861047439"/>
    <nd ref="861047628"/>
    <nd ref="861047659"/>
    <nd ref="861047350"/>
    <nd ref="861047618"/>
    <nd ref="861047313"/>
    <nd ref="861047228"/>
    <nd ref="861047557"/>
    <nd ref="861047772"/>
    <nd ref="861047506"/>
    <nd ref="861047538"/>
    <nd ref="861047717"/>
    <nd ref="861047471"/>
    <nd ref="861047632"/>
    <nd ref="861047580"/>
    <nd ref="861047699"/>
    <nd ref="861047402"/>
    <nd ref="861047624"/>
    <nd ref="861047639"/>
    <nd ref="861047328"/>
    <nd ref="861047602"/>
    <nd ref="861047275"/>
    <nd ref="861047786"/>
    <nd ref="861047552"/>
    <nd ref="861047743"/>
    <nd ref="861047488"/>
    <nd ref="861047524"/>
    <nd ref="861047566"/>
    <nd ref="861047777"/>
    <nd ref="861047671"/>
    <nd ref="861047373"/>
    <tag k="gauge" v="600"/>
    <tag k="railway" v="narrow_gauge"/>
    <tag k="source" v="nearmap"/>
  </way>
  <way id="72514674" version="3" timestamp="2010-08-15T10:34:08Z" uid="4467" user="Rosscoe" changeset="5498056">
    <nd ref="860878668"/>
    <nd ref="860878773"/>
    <nd ref="861047439"/>
    <nd ref="861047628"/>
    <nd ref="861047659"/>
    <nd ref="861047350"/>
    <nd ref="861047618"/>
    <nd ref="861047313"/>
    <nd ref="861047228"/>
    <nd ref="861047557"/>
    <nd ref="861047772"/>
    <nd ref="861047506"/>
    <nd ref="861047538"/>
    <nd ref="861047717"/>
    <nd ref="861047471"/>
    <nd ref="861047632"/>
    <nd ref="861047580"/>
    <nd ref="861047699"/>
    <nd ref="861047402"/>
    <nd ref="861047624"/>
    <nd ref="861047639"/>
    <nd ref="861047328"/>
    <nd ref="861047602"/>
    <nd ref="861047275"/>
    <nd ref="861047786"/>
    <nd ref="861047552"/>
    <nd ref="861047743"/>
    <nd ref="861047488"/>
    <nd ref="861047524"/>
    <nd ref="861047566"/>
    <nd ref="861047777"/>
    <nd ref="861047671"/>
    <nd ref="861047373"/>
    <nd ref="861051204"/>
    <nd ref="861051206"/>
    <nd ref="861051228"/>
    <nd ref="861051203"/>
    <nd ref="861051218"/>
    <tag k="gauge" v="600"/>
    <tag k="railway" v="narrow_gauge"/>
    <tag k="source" v="nearmap"/>
  </way>
  <way id="72514677" version="1" timestamp="2010-08-15T07:19:24Z" uid="4467" user="Rosscoe" changeset="5496574">
    <nd ref="860878688"/>
    <nd ref="860878668"/>
    <tag k="bridge" v="yes"/>
    <tag k="gauge" v="600"/>
    <tag k="layer" v="1"/>
    <tag k="railway" v="narrow_gauge"/>
    <tag k="source" v="nearmap"/>
  </way>
</osm>
