<?xml version='1.0' encoding='UTF-8'?>
<osm version="0.6" generator="libosmium/2.20.0">
  <way id="72658097" version="2" timestamp="2010-10-05T01:33:40Z" uid="20587" user="balrog-kun" changeset="5958352">
    <nd ref="862710570"/>
    <nd ref="862710572"/>
    <nd ref="862710584"/>
    <nd ref="862710586"/>
    <nd ref="862710570"/>
    <tag k="amenity" v="townhall"/>
    <tag k="area" v="yes"/>
    <tag k="building" v="yes"/>
    <tag k="name" v="Ratusz"/>
  </way>
  <way id="72658455" version="1" timestamp="2010-08-16T05:43:06Z" uid="4467" user="Rosscoe" changeset="5506276">
    <nd ref="30137965"/>
    <nd ref="258981047"/>
    <nd ref="132506776"/>
    <nd ref="132521673"/>
    <tag k="highway" v="trunk"/>
    <tag k="lanes" v="4"/>
    <tag k="maxspeed" v="60"/>
    <tag k="name" v="Glen Osmond Road"/>
    <tag k="postal_code" v="5063"/>
    <tag k="ref" v="A1"/>
    <tag k="source" v="survey"/>
    <tag k="source_ref:name" v="http://osm.beldin.org/2009/05/DSCF9578.JPG"/>
  </way>
  <way id="72658455" version="2" timestamp="2010-08-16T06:04:36Z" uid="4467" user="Rosscoe" changeset="5506382">
    <nd ref="30137965"/>
    <nd ref="258981047"/>
    <nd ref="132506776"/>
    <nd ref="132521673"/>
    <tag k="highway" v="trunk"/>
    <tag k="lanes" v="4"/>
    <tag k="maxspeed" v="60"/>
    <tag k="name" v="Glen Osmond Road"/>
    <tag k="postal_code" v="5063"/>
    <tag k="ref" v="A1"/>
    <tag k="source" v="survey"/>
    <tag k="source_ref:name" v="http://osm.beldin.org/2009/05/DSCF9578.JPG"/>
  </way>
  <way id="72658455" version="3" timestamp="2010-09-27T03:39:29Z" uid="79475" user="AlexOnTheBus" changeset="5888712">
    <nd ref="30137965"/>
    <nd ref="258981047"/>
    <nd ref="132506776"/>
    <nd ref="132521673"/>
    <tag k="highway" v="primary"/>
    <tag k="lanes" v="4"/>
    <tag k="maxspeed" v="60"/>
    <tag k="name" v="Glen Osmond Road"/>
    <tag k="postal_code" v="5063"/>
    <tag k="ref" v="A1"/>
    <tag k="source" v="survey"/>
    <tag k="source_ref:name" v="http://osm.beldin.org/2009/05/DSCF9578.JPG"/>
  </way>
  <way id="72658456" version="1" timestamp="2010-08-16T05:43:07Z" uid="4467" user="Rosscoe" changeset="5506276">
    <nd ref="260148148"/>
    <nd ref="237474475"/>
    <tag k="highway" v="residential"/>
    <tag k="is_in" v="Parkside,South Australia,Australia"/>
    <tag k="maxspeed" v="40"/>
    <tag k="name" v="Jaffrey Street"/>
    <tag k="oneway" v="yes"/>
    <tag k="postal_code" v="5063"/>
    <tag k="source" v="nearmap"/>
  </way>
  <way id="72658457" version="1" timestamp="2010-08-16T05:43:08Z" uid="4467" user="Rosscoe" changeset="5506276">
    <nd ref="260148148"/>
    <nd ref="321370016"/>
    <nd ref="260148150"/>
    <tag k="highway" v="residential"/>
    <tag k="is_in" v="Parkside,South Australia,Australia"/>
    <tag k="maxspeed" v="40"/>
    <tag k="name" v="Jaffrey Street"/>
    <tag k="postal_code" v="5063"/>
    <tag k="source" v="yahoo"/>
  </way>
  <way id="72658458" version="1" timestamp="2010-08-16T05:43:09Z" uid="4467" user="Rosscoe" changeset="5506276">
    <nd ref="862748250"/>
    <nd ref="862749809"/>
    <nd ref="862747945"/>
    <tag k="highway" v="trunk_link"/>
    <tag k="oneway" v="yes"/>
  </way>
  <way id="72658458" version="2" timestamp="2010-09-21T12:25:05Z" uid="79475" user="AlexOnTheBus" changeset="5836704">
    <nd ref="862748250"/>
    <nd ref="862749809"/>
    <nd ref="862747945"/>
    <tag k="highway" v="secondary_link"/>
    <tag k="oneway" v="yes"/>
  </way>
  <way id="72658458" version="3" timestamp="2011-04-03T16:45:54Z" uid="4467" user="Rosscoe" changeset="7756305">
    <nd ref="862748250"/>
    <nd ref="862749809"/>
    <nd ref="862747945"/>
    <tag k="highway" v="primary_link"/>
    <tag k="oneway" v="yes"/>
  </way>
  <way id="72658459" version="1" timestamp="2010-08-16T05:43:10Z" uid="4467" user="Rosscoe" changeset="5506276">
    <nd ref="132521673"/>
    <nd ref="862749907"/>
    <nd ref="862748860"/>
    <nd ref="862748352"/>
    <nd ref="862750127"/>
    <nd ref="862750392"/>
    <nd ref="862749828"/>
    <nd ref="862750366"/>
    <nd ref="862750412"/>
    <nd ref="862748623"/>
    <tag k="highway" v="trunk"/>
    <tag k="lanes" v="4"/>
    <tag k="maxspeed" v="60"/>
    <tag k="name" v="Glen Osmond Road"/>
    <tag k="postal_code" v="5063"/>
    <tag k="ref" v="A1"/>
    <tag k="source" v="survey"/>
  </way>
  <way id="72658459" version="2" timestamp="2010-09-27T03:39:42Z" uid="79475" user="AlexOnTheBus" changeset="5888712">
    <nd ref="132521673"/>
    <nd ref="862749907"/>
    <nd ref="862748860"/>
    <nd ref="862748352"/>
    <nd ref="862750127"/>
    <nd ref="862750392"/>
    <nd ref="862749828"/>
    <nd ref="862750366"/>
    <nd ref="862750412"/>
    <nd ref="862748623"/>
    <tag k="highway" v="primary"/>
    <tag k="lanes" v="4"/>
    <tag k="maxspeed" v="60"/>
    <tag k="name" v="Glen Osmond Road"/>
    <tag k="postal_code" v="5063"/>
    <tag k="ref" v="A1"/>
    <tag k="source" v="survey"/>
  </way>
  <way id="72658461" version="1" timestamp="2010-08-16T05:43:13Z" uid="4467" user="Rosscoe" changeset="5506276">
    <nd ref="862748577"/>
    <nd ref="862749846"/>
    <nd ref="862748203"/>
    <nd ref="862748896"/>
    <nd ref="862749269"/>
    <nd ref="862747810"/>
    <nd ref="862748750"/>
    <nd ref="862749092"/>
    <nd ref="862750547"/>
    <nd ref="862748229"/>
    <nd ref="862749226"/>
    <tag k="highway" v="trunk"/>
    <tag k="lanes" v="4"/>
    <tag k="maxspeed" v="60"/>
    <tag k="name" v="Glen Osmond Road"/>
    <tag k="postal_code" v="5064"/>
    <tag k="ref" v="A1"/>
    <tag k="source" v="survey"/>
    <tag k="source_ref:name" v="http://osm.beldin.org/2009/05/DSCF9634.JPG;http://osm.beldin.org/2009/05/DSCF9638.JPG;http://osm.beldin.org/2009/05/DSCF9641.JPG"/>
  </way>
  <way id="72658461" version="2" timestamp="2010-09-27T03:39:04Z" uid="79475" user="AlexOnTheBus" changeset="5888712">
    <nd ref="862748577"/>
    <nd ref="862749846"/>
    <nd ref="862748203"/>
    <nd ref="862748896"/>
    <nd ref="862749269"/>
    <nd ref="862747810"/>
    <nd ref="862748750"/>
    <nd ref="862749092"/>
    <nd ref="862750547"/>
    <nd ref="862748229"/>
    <nd ref="862749226"/>
    <tag k="highway" v="primary"/>
    <tag k="lanes" v="4"/>
    <tag k="maxspeed" v="60"/>
    <tag k="name" v="Glen Osmond Road"/>
    <tag k="postal_code" v="5064"/>
    <tag k="ref" v="A1"/>
    <tag k="source" v="survey"/>
    <tag k="source_ref:name" v="http://osm.beldin.org/2009/05/DSCF9634.JPG;http://osm.beldin.org/2009/05/DSCF9638.JPG;http://osm.beldin.org/2009/05/DSCF9641.JPG"/>
  </way>
  <way id="72658461" version="3" timestamp="2011-02-27T11:31:18Z" uid="171576" user="Conquest" changeset="7409371">
    <nd ref="862748577"/>
    <nd ref="862749846"/>
    <nd ref="862748203"/>
    <nd ref="862748896"/>
    <nd ref="862749269"/>
    <nd ref="862747810"/>
    <nd ref="862748750"/>
    <nd ref="862749092"/>
    <nd ref="862750547"/>
    <nd ref="862748229"/>
    <nd ref="1177017383"/>
    <nd ref="862749226"/>
    <tag k="highway" v="primary"/>
    <tag k="lanes" v="4"/>
    <tag k="maxspeed" v="60"/>
    <tag k="name" v="Glen Osmond Road"/>
    <tag k="postal_code" v="5064"/>
    <tag k="ref" v="A1"/>
    <tag k="source" v="survey"/>
    <tag k="source_ref:name" v="http://osm.beldin.org/2009/05/DSCF9634.JPG;http://osm.beldin.org/2009/05/DSCF9638.JPG;http://osm.beldin.org/2009/05/DSCF9641.JPG"/>
  </way>
  <way id="72658462" version="1" timestamp="2010-08-16T05:43:14Z" uid="4467" user="Rosscoe" changeset="5506276">
    <nd ref="244494515"/>
    <nd ref="244494516"/>
    <nd ref="244494518"/>
    <nd ref="244494519"/>
    <nd ref="244494521"/>
    <tag k="highway" v="residential"/>
    <tag k="name" v="Beaumont Road"/>
    <tag k="oneway" v="yes"/>
  </way>
  <way id="72658463" version="1" timestamp="2010-08-16T05:43:15Z" uid="4467" user="Rosscoe" changeset="5506276">
    <nd ref="132522282"/>
    <nd ref="30137965"/>
    <tag k="highway" v="trunk"/>
    <tag k="lanes" v="4"/>
    <tag k="maxspeed" v="60"/>
    <tag k="name" v="Glen Osmond Road"/>
    <tag k="ref" v="A1"/>
    <tag k="source" v="survey"/>
    <tag k="source_ref:name" v="http://osm.beldin.org/2009/05/DSCF9578.JPG"/>
  </way>
  <way id="72658463" version="2" timestamp="2010-08-16T06:04:28Z" uid="4467" user="Rosscoe" changeset="5506382">
    <nd ref="132522282"/>
    <nd ref="30137965"/>
    <tag k="highway" v="trunk"/>
    <tag k="lanes" v="4"/>
    <tag k="maxspeed" v="60"/>
    <tag k="name" v="Glen Osmond Road"/>
    <tag k="ref" v="A1"/>
    <tag k="source" v="survey"/>
    <tag k="source_ref:name" v="http://osm.beldin.org/2009/05/DSCF9578.JPG"/>
  </way>
  <way id="72658463" version="3" timestamp="2010-09-27T03:39:24Z" uid="79475" user="AlexOnTheBus" changeset="5888712">
    <nd ref="132522282"/>
    <nd ref="30137965"/>
    <tag k="highway" v="primary"/>
    <tag k="lanes" v="4"/>
    <tag k="maxspeed" v="60"/>
    <tag k="name" v="Glen Osmond Road"/>
    <tag k="ref" v="A1"/>
    <tag k="source" v="survey"/>
    <tag k="source_ref:name" v="http://osm.beldin.org/2009/05/DSCF9578.JPG"/>
  </way>
  <way id="72658463" version="4" timestamp="2011-08-02T06:09:37Z" uid="12434" user="nm7s9" changeset="8897608">
    <nd ref="132522282"/>
    <nd ref="1382655884"/>
    <nd ref="30137965"/>
    <tag k="highway" v="primary"/>
    <tag k="lanes" v="4"/>
    <tag k="maxspeed" v="60"/>
    <tag k="name" v="Glen Osmond Road"/>
    <tag k="ref" v="A1"/>
    <tag k="source" v="survey"/>
    <tag k="source_ref:name" v="http://osm.beldin.org/2009/05/DSCF9578.JPG"/>
  </way>
  <way id="72658465" version="1" timestamp="2010-08-16T05:43:16Z" uid="4467" user="Rosscoe" changeset="5506276">
    <nd ref="244446571"/>
    <nd ref="862749972"/>
    <nd ref="244492860"/>
    <tag k="highway" v="trunk_link"/>
    <tag k="oneway" v="yes"/>
    <tag k="source" v="nearmap"/>
  </way>
  <way id="72658465" version="2" timestamp="2010-09-27T03:40:18Z" uid="79475" user="AlexOnTheBus" changeset="5888712">
    <nd ref="244446571"/>
    <nd ref="862749972"/>
    <nd ref="244492860"/>
    <tag k="highway" v="primary_link"/>
    <tag k="oneway" v="yes"/>
    <tag k="source" v="nearmap"/>
  </way>
  <way id="72658466" version="1" timestamp="2010-08-16T05:43:17Z" uid="4467" user="Rosscoe" changeset="5506276">
    <nd ref="862747857"/>
    <nd ref="29748475"/>
    <nd ref="862748307"/>
    <tag k="highway" v="trunk_link"/>
    <tag k="oneway" v="yes"/>
    <tag k="source" v="nearmap"/>
  </way>
  <way id="72658466" version="2" timestamp="2010-09-27T03:51:41Z" uid="79475" user="AlexOnTheBus" changeset="5888740">
    <nd ref="862747857"/>
    <nd ref="29748475"/>
    <nd ref="862748307"/>
    <tag k="highway" v="secondary_link"/>
    <tag k="oneway" v="yes"/>
    <tag k="source" v="nearmap"/>
  </way>
  <way id="72658467" version="1" timestamp="2010-08-16T05:43:18Z" uid="4467" user="Rosscoe" changeset="5506276">
    <nd ref="862750192"/>
    <nd ref="862750300"/>
    <nd ref="862749341"/>
    <nd ref="862749504"/>
    <nd ref="244446545"/>
    <tag k="highway" v="primary"/>
    <tag k="maxspeed" v="60"/>
    <tag k="name" v="Glen Osmond Road"/>
    <tag k="postal_code" v="5063"/>
    <tag k="source" v="survey"/>
  </way>
  <way id="72658467" version="2" timestamp="2011-08-02T08:26:17Z" uid="428465" user="markinspace" changeset="8898424">
    <nd ref="862750192"/>
    <nd ref="862750300"/>
    <nd ref="862749341"/>
    <nd ref="862749504"/>
    <nd ref="244446545"/>
    <tag k="highway" v="primary"/>
    <tag k="lanes" v="4"/>
    <tag k="maxspeed" v="60"/>
    <tag k="name" v="Glen Osmond Road"/>
    <tag k="postal_code" v="5063"/>
    <tag k="source" v="survey"/>
  </way>
  <way id="72658468" version="1" timestamp="2010-08-16T05:43:19Z" uid="4467" user="Rosscoe" changeset="5506276">
    <nd ref="862748381"/>
    <nd ref="862747676"/>
    <nd ref="862749993"/>
    <nd ref="862750273"/>
    <nd ref="260149620"/>
    <nd ref="260379092"/>
    <nd ref="260149180"/>
    <nd ref="141972877"/>
    <nd ref="862750192"/>
    <tag k="highway" v="primary"/>
    <tag k="lanes" v="2"/>
    <tag k="maxspeed" v="60"/>
    <tag k="name" v="Glen Osmond Road"/>
    <tag k="postal_code" v="5063"/>
    <tag k="source" v="survey"/>
  </way>
  <way id="72658468" version="2" timestamp="2011-01-08T01:11:43Z" uid="171576" user="Conquest" changeset="6899354">
    <nd ref="862748381"/>
    <nd ref="862747676"/>
    <nd ref="1089847513"/>
    <nd ref="862749993"/>
    <nd ref="862750273"/>
    <nd ref="260149620"/>
    <nd ref="260379092"/>
    <nd ref="260149180"/>
    <nd ref="141972877"/>
    <nd ref="862750192"/>
    <tag k="highway" v="primary"/>
    <tag k="lanes" v="2"/>
    <tag k="maxspeed" v="60"/>
    <tag k="name" v="Glen Osmond Road"/>
    <tag k="postal_code" v="5063"/>
    <tag k="source" v="survey"/>
  </way>
  <way id="72658468" version="3" timestamp="2011-07-30T22:20:02Z" uid="428465" user="markinspace" changeset="8876256">
    <nd ref="862748381"/>
    <nd ref="862747676"/>
    <nd ref="1089847513"/>
    <nd ref="862749993"/>
    <nd ref="862750273"/>
    <nd ref="260149620"/>
    <nd ref="260379092"/>
    <nd ref="260149180"/>
    <nd ref="141972877"/>
    <nd ref="862750192"/>
    <tag k="highway" v="primary"/>
    <tag k="lanes" v="4"/>
    <tag k="maxspeed" v="60"/>
    <tag k="name" v="Glen Osmond Road"/>
    <tag k="postal_code" v="5063"/>
    <tag k="source" v="survey"/>
  </way>
  <way id="72658469" version="1" timestamp="2010-08-16T05:43:20Z" uid="4467" user="Rosscoe" changeset="5506276">
    <nd ref="862748577"/>
    <nd ref="249566663"/>
    <nd ref="862748099"/>
    <nd ref="249566576"/>
    <nd ref="320281656"/>
    <nd ref="249566607"/>
    <nd ref="320281393"/>
    <nd ref="253426007"/>
    <nd ref="132522282"/>
    <tag k="highway" v="trunk"/>
    <tag k="is_in" v="Fullarton,Myrtle Bank,South Australia,Australia"/>
    <tag k="lanes" v="4"/>
    <tag k="maxspeed" v="60"/>
    <tag k="name" v="Glen Osmond Road"/>
    <tag k="postal_code" v="5063,5064"/>
    <tag k="ref" v="A1"/>
    <tag k="source" v="survey"/>
  </way>
  <way id="72658469" version="2" timestamp="2010-09-27T03:39:12Z" uid="79475" user="AlexOnTheBus" changeset="5888712">
    <nd ref="862748577"/>
    <nd ref="249566663"/>
    <nd ref="862748099"/>
    <nd ref="249566576"/>
    <nd ref="320281656"/>
    <nd ref="249566607"/>
    <nd ref="320281393"/>
    <nd ref="253426007"/>
    <nd ref="132522282"/>
    <tag k="highway" v="primary"/>
    <tag k="is_in" v="Fullarton,Myrtle Bank,South Australia,Australia"/>
    <tag k="lanes" v="4"/>
    <tag k="maxspeed" v="60"/>
    <tag k="name" v="Glen Osmond Road"/>
    <tag k="postal_code" v="5063,5064"/>
    <tag k="ref" v="A1"/>
    <tag k="source" v="survey"/>
  </way>
  <way id="72658929" version="1" timestamp="2010-08-16T06:03:41Z" uid="4467" user="Rosscoe" changeset="5506382">
    <nd ref="30137965"/>
    <nd ref="862777875"/>
    <nd ref="132507298"/>
    <nd ref="862777465"/>
    <nd ref="862777916"/>
    <nd ref="862777859"/>
    <tag k="highway" v="tertiary"/>
    <tag k="maxspeed" v="50"/>
    <tag k="name" v="Conyngham Street"/>
    <tag k="source" v="nearmap"/>
    <tag k="source_ref:name" v="http://osm.beldin.org/2009/03/dscf8235.jpg"/>
  </way>
  <way id="72658931" version="1" timestamp="2010-08-16T06:03:42Z" uid="4467" user="Rosscoe" changeset="5506382">
    <nd ref="132459393"/>
    <nd ref="845826362"/>
    <nd ref="260383164"/>
    <nd ref="862777945"/>
    <nd ref="862777782"/>
    <tag k="highway" v="residential"/>
    <tag k="maxspeed" v="50"/>
    <tag k="name" v="Flemington Street"/>
    <tag k="source" v="nearmap"/>
    <tag k="source:name" v="survey"/>
  </way>
</osm>
