<?xml version='1.0' encoding='UTF-8'?>
<osm version="0.6" generator="libosmium/2.20.0">
  <way id="72819004" version="1" timestamp="2010-08-16T23:50:36Z" uid="4467" user="Rosscoe" changeset="5513893">
    <nd ref="864149130"/>
    <nd ref="864149112"/>
    <nd ref="848342555"/>
    <tag k="highway" v="trunk_link"/>
    <tag k="oneway" v="yes"/>
  </way>
  <way id="72819004" version="2" timestamp="2010-10-07T10:01:11Z" uid="79475" user="AlexOnTheBus" changeset="5976624">
    <nd ref="864149130"/>
    <nd ref="864149112"/>
    <nd ref="848342555"/>
    <nd ref="848342818"/>
    <nd ref="848342824"/>
    <nd ref="848342829"/>
    <nd ref="848342830"/>
    <tag k="highway" v="trunk_link"/>
    <tag k="oneway" v="yes"/>
  </way>
  <way id="72819010" version="1" timestamp="2010-08-16T23:50:37Z" uid="4467" user="Rosscoe" changeset="5513893">
    <nd ref="864149264"/>
    <nd ref="848342764"/>
    <nd ref="848342766"/>
    <tag k="highway" v="trunk"/>
    <tag k="name" v="New England Highway"/>
    <tag k="oneway" v="yes"/>
  </way>
  <way id="72819010" version="2" timestamp="2010-08-17T00:36:13Z" uid="4467" user="Rosscoe" changeset="5513999"/>
  <way id="72819017" version="1" timestamp="2010-08-16T23:50:38Z" uid="4467" user="Rosscoe" changeset="5513893">
    <nd ref="864149259"/>
    <nd ref="864149264"/>
    <tag k="bridge" v="yes"/>
    <tag k="highway" v="trunk"/>
    <tag k="layer" v="1"/>
    <tag k="name" v="New England Highway"/>
    <tag k="oneway" v="yes"/>
  </way>
  <way id="72819017" version="2" timestamp="2012-01-08T05:09:27Z" uid="67896" user="mrpulley" changeset="10328121">
    <nd ref="864149259"/>
    <nd ref="864149264"/>
    <tag k="bridge" v="yes"/>
    <tag k="highway" v="trunk"/>
    <tag k="layer" v="1"/>
    <tag k="name" v="New England Highway"/>
    <tag k="oneway" v="yes"/>
    <tag k="ref" v="NH15"/>
  </way>
  <way id="72819025" version="1" timestamp="2010-08-16T23:50:39Z" uid="4467" user="Rosscoe" changeset="5513893">
    <nd ref="17657572"/>
    <nd ref="362210291"/>
    <nd ref="344620352"/>
    <nd ref="17657574"/>
    <nd ref="17657575"/>
    <nd ref="251558769"/>
    <nd ref="332948273"/>
    <nd ref="17657576"/>
    <nd ref="344624206"/>
    <nd ref="118076277"/>
    <tag k="highway" v="trunk"/>
    <tag k="oneway" v="yes"/>
  </way>
  <way id="72819025" version="2" timestamp="2010-08-17T00:34:00Z" uid="4467" user="Rosscoe" changeset="5513999">
    <nd ref="17657572"/>
    <nd ref="362210291"/>
    <nd ref="344620352"/>
    <nd ref="17657574"/>
    <nd ref="17657575"/>
    <nd ref="251558769"/>
    <nd ref="332948273"/>
    <nd ref="17657576"/>
    <nd ref="344624206"/>
    <nd ref="118076277"/>
    <tag k="highway" v="trunk"/>
    <tag k="name" v="New England Highway"/>
    <tag k="oneway" v="yes"/>
  </way>
  <way id="72819025" version="3" timestamp="2011-02-09T23:53:13Z" uid="170282" user="rlewis" changeset="7241660">
    <nd ref="17657572"/>
    <nd ref="362210291"/>
    <nd ref="344620352"/>
    <nd ref="17657574"/>
    <nd ref="17657575"/>
    <nd ref="251558769"/>
    <nd ref="332948273"/>
    <nd ref="1144819318"/>
    <nd ref="17657576"/>
    <nd ref="344624206"/>
    <nd ref="118076277"/>
    <tag k="highway" v="trunk"/>
    <tag k="name" v="New England Highway"/>
    <tag k="oneway" v="yes"/>
  </way>
  <way id="72819025" version="4" timestamp="2012-01-08T05:08:50Z" uid="67896" user="mrpulley" changeset="10328121">
    <nd ref="17657572"/>
    <nd ref="362210291"/>
    <nd ref="344620352"/>
    <nd ref="17657574"/>
    <nd ref="17657575"/>
    <nd ref="251558769"/>
    <nd ref="332948273"/>
    <nd ref="1144819318"/>
    <nd ref="17657576"/>
    <nd ref="344624206"/>
    <nd ref="118076277"/>
    <tag k="highway" v="trunk"/>
    <tag k="name" v="New England Highway"/>
    <tag k="oneway" v="yes"/>
  </way>
  <way id="72819031" version="1" timestamp="2010-08-16T23:50:41Z" uid="4467" user="Rosscoe" changeset="5513893">
    <nd ref="864149275"/>
    <nd ref="864149123"/>
    <tag k="bridge" v="yes"/>
    <tag k="highway" v="trunk"/>
    <tag k="layer" v="1"/>
    <tag k="name" v="New England Highway"/>
    <tag k="oneway" v="yes"/>
  </way>
  <way id="72819031" version="2" timestamp="2012-01-08T05:09:33Z" uid="67896" user="mrpulley" changeset="10328121">
    <nd ref="864149275"/>
    <nd ref="864149123"/>
    <tag k="bridge" v="yes"/>
    <tag k="highway" v="trunk"/>
    <tag k="layer" v="1"/>
    <tag k="name" v="New England Highway"/>
    <tag k="oneway" v="yes"/>
    <tag k="ref" v="NH15"/>
  </way>
  <way id="72819035" version="1" timestamp="2010-08-16T23:50:42Z" uid="4467" user="Rosscoe" changeset="5513893">
    <nd ref="456523450"/>
    <nd ref="456526739"/>
    <nd ref="61724872"/>
    <nd ref="456526740"/>
    <nd ref="51014486"/>
    <nd ref="51014487"/>
    <nd ref="456526741"/>
    <nd ref="51014488"/>
    <nd ref="456526742"/>
    <nd ref="51014489"/>
    <nd ref="51014490"/>
    <tag k="highway" v="trunk"/>
    <tag k="name" v="John Renshaw Drive"/>
    <tag k="oneway" v="yes"/>
  </way>
  <way id="72819035" version="2" timestamp="2010-08-17T00:43:06Z" uid="4467" user="Rosscoe" changeset="5514017">
    <nd ref="456523450"/>
    <nd ref="456526739"/>
    <nd ref="61724872"/>
    <nd ref="456526740"/>
    <nd ref="51014486"/>
    <nd ref="51014487"/>
    <nd ref="456526741"/>
    <nd ref="51014488"/>
    <nd ref="456526742"/>
    <nd ref="51014489"/>
    <nd ref="51014490"/>
    <nd ref="456528052"/>
    <nd ref="456528849"/>
    <nd ref="51015759"/>
    <tag k="highway" v="trunk"/>
    <tag k="name" v="John Renshaw Drive"/>
    <tag k="oneway" v="yes"/>
  </way>
  <way id="72819043" version="1" timestamp="2010-08-16T23:50:43Z" uid="4467" user="Rosscoe" changeset="5513893">
    <nd ref="344620260"/>
    <nd ref="864149260"/>
    <nd ref="344620261"/>
    <tag k="highway" v="residential"/>
    <tag k="maxspeed" v="50"/>
    <tag k="maxspeed:source" v="default residential speed limit in Australia"/>
  </way>
  <way id="72819048" version="1" timestamp="2010-08-16T23:50:44Z" uid="4467" user="Rosscoe" changeset="5513893">
    <nd ref="848429555"/>
    <nd ref="848429557"/>
    <nd ref="848429463"/>
    <tag k="highway" v="trunk"/>
    <tag k="name" v="Weakleys Drive"/>
  </way>
  <way id="72819048" version="2" timestamp="2010-08-17T00:04:23Z" uid="4467" user="Rosscoe" changeset="5513935">
    <nd ref="848429555"/>
    <nd ref="848429557"/>
    <nd ref="848429463"/>
    <tag k="highway" v="secondary"/>
    <tag k="name" v="Weakleys Drive"/>
  </way>
  <way id="72819048" version="3" timestamp="2010-10-06T23:19:29Z" uid="79475" user="AlexOnTheBus" changeset="5974318">
    <nd ref="848429555"/>
    <nd ref="848429557"/>
    <nd ref="848429463"/>
    <tag k="highway" v="trunk"/>
    <tag k="name" v="Weakleys Drive"/>
  </way>
  <way id="72819055" version="1" timestamp="2010-08-16T23:50:45Z" uid="4467" user="Rosscoe" changeset="5513893">
    <nd ref="61729150"/>
    <nd ref="456526726"/>
    <nd ref="17087554"/>
    <nd ref="61729151"/>
    <tag k="bridge" v="yes"/>
    <tag k="highway" v="trunk"/>
    <tag k="layer" v="1"/>
    <tag k="name" v="John Renshaw Drive"/>
    <tag k="oneway" v="yes"/>
  </way>
  <way id="72819061" version="1" timestamp="2010-08-16T23:50:46Z" uid="4467" user="Rosscoe" changeset="5513893">
    <nd ref="775975283"/>
    <nd ref="848342499"/>
    <tag k="highway" v="trunk_link"/>
    <tag k="oneway" v="yes"/>
  </way>
  <way id="72819061" version="2" timestamp="2010-10-07T10:00:40Z" uid="79475" user="AlexOnTheBus" changeset="5976624">
    <nd ref="775975283"/>
    <nd ref="848342499"/>
    <nd ref="848342503"/>
    <nd ref="848342507"/>
    <nd ref="848342510"/>
    <nd ref="848342511"/>
    <nd ref="848342520"/>
    <tag k="highway" v="trunk_link"/>
    <tag k="oneway" v="yes"/>
  </way>
</osm>
