<?xml version='1.0' encoding='UTF-8'?>
<osm version="0.6" generator="libosmium/2.20.0">
  <way id="73014622" version="6" timestamp="2011-05-12T01:40:28Z" uid="20587" user="balrog-kun" changeset="8117887">
    <nd ref="866564959"/>
    <nd ref="866564877"/>
    <nd ref="866564918"/>
    <nd ref="866564824"/>
    <nd ref="866564861"/>
    <nd ref="866564880"/>
    <nd ref="866861920"/>
    <nd ref="866862584"/>
    <nd ref="866564923"/>
    <nd ref="866564965"/>
    <nd ref="866564828"/>
    <nd ref="866564865"/>
    <nd ref="866564778"/>
    <nd ref="866564810"/>
    <nd ref="866564839"/>
    <nd ref="866564771"/>
    <nd ref="866564962"/>
    <nd ref="886108535"/>
    <nd ref="866564825"/>
    <tag k="highway" v="residential"/>
    <tag k="name" v="Józefa Wybickiego"/>
    <tag k="name:de" v="Gießhübler Str."/>
    <tag k="surface" v="asphalt"/>
    <tag k="width" v="6"/>
  </way>
  <way id="73014646" version="4" timestamp="2011-05-12T01:40:24Z" uid="20587" user="balrog-kun" changeset="8117887">
    <nd ref="866564965"/>
    <nd ref="866564971"/>
    <nd ref="866564899"/>
    <nd ref="866564950"/>
    <nd ref="866564803"/>
    <nd ref="866564862"/>
    <tag k="highway" v="residential"/>
    <tag k="name" v="Słoneczna"/>
    <tag k="surface" v="asphalt"/>
    <tag k="width" v="5"/>
  </way>
  <way id="73014646" version="5" timestamp="2011-05-29T21:30:33Z" uid="163896" user="Zbigniew Czernik" changeset="8286312">
    <nd ref="866564965"/>
    <nd ref="866564971"/>
    <nd ref="866564899"/>
    <nd ref="866564950"/>
    <nd ref="866564803"/>
    <nd ref="1305261715"/>
    <nd ref="866564862"/>
    <tag k="highway" v="residential"/>
    <tag k="name" v="Słoneczna"/>
    <tag k="surface" v="asphalt"/>
    <tag k="width" v="5"/>
  </way>
</osm>
