<?xml version='1.0' encoding='UTF-8'?>
<osm version="0.6" generator="libosmium/2.20.0">
  <way id="73610491" version="2" timestamp="2011-02-06T16:33:26Z" uid="49111" user="Markus B" changeset="7205110">
    <nd ref="388757803"/>
    <nd ref="872426474"/>
    <nd ref="1139368602"/>
    <nd ref="872426487"/>
    <nd ref="872426491"/>
    <tag k="highway" v="tertiary"/>
    <tag k="name" v="ואלוס"/>
    <tag k="name:en" v="Valos"/>
  </way>
  <way id="73610491" version="3" timestamp="2011-02-20T09:44:15Z" uid="22684" user="Mr_Israel" changeset="7339462">
    <nd ref="872427240"/>
    <nd ref="1163034703"/>
    <nd ref="872426487"/>
    <nd ref="1139368602"/>
    <nd ref="872426474"/>
    <nd ref="388757803"/>
    <tag k="highway" v="tertiary"/>
    <tag k="name" v="ואלוס"/>
    <tag k="name:en" v="Valos"/>
    <tag k="oneway" v="yes"/>
  </way>
  <way id="73610810" version="2" timestamp="2011-02-06T16:34:20Z" uid="49111" user="Markus B" changeset="7205110">
    <nd ref="872427161"/>
    <nd ref="872428770"/>
    <nd ref="1139362623"/>
    <nd ref="1139359559"/>
    <nd ref="872428776"/>
    <nd ref="872428784"/>
    <nd ref="1139356149"/>
    <nd ref="872428786"/>
    <nd ref="1139370308"/>
    <nd ref="1139365383"/>
    <nd ref="872428788"/>
    <nd ref="872428789"/>
    <nd ref="872428791"/>
    <nd ref="872428795"/>
    <tag k="highway" v="tertiary"/>
    <tag k="name" v="אגוז"/>
    <tag k="name:en" v="Egoz"/>
  </way>
  <way id="73610810" version="3" timestamp="2011-02-20T09:44:17Z" uid="22684" user="Mr_Israel" changeset="7339462">
    <nd ref="872428770"/>
    <nd ref="1163034848"/>
    <tag k="highway" v="tertiary"/>
    <tag k="name" v="אגוז"/>
    <tag k="name:en" v="Egoz"/>
    <tag k="oneway" v="yes"/>
  </way>
  <way id="73610906" version="2" timestamp="2011-02-06T16:34:24Z" uid="49111" user="Markus B" changeset="7205110">
    <nd ref="872429384"/>
    <nd ref="1139358784"/>
    <nd ref="1139355738"/>
    <nd ref="872430185"/>
    <nd ref="872430199"/>
    <tag k="highway" v="residential"/>
  </way>
</osm>
