<?xml version='1.0' encoding='UTF-8'?>
<osm version="0.6" generator="libosmium/2.20.0">
  <way id="73713577" version="1" timestamp="2010-08-21T23:22:57Z" uid="4467" user="Rosscoe" changeset="5556841">
    <nd ref="872873133"/>
    <nd ref="872873137"/>
    <nd ref="872873185"/>
    <nd ref="872873212"/>
    <nd ref="872873145"/>
    <nd ref="872873174"/>
    <nd ref="872873163"/>
    <nd ref="872873202"/>
    <nd ref="872873125"/>
    <nd ref="872873152"/>
    <nd ref="872873192"/>
    <nd ref="872873118"/>
    <nd ref="872873133"/>
    <tag k="addr:city" v="Mackay"/>
    <tag k="addr:country" v="AU"/>
    <tag k="addr:postcode" v="4740"/>
    <tag k="addr:state" v="Qld"/>
    <tag k="addr:street" v="Alfred Street"/>
    <tag k="amenity" v="public_building"/>
    <tag k="name" v="Mackay Entertainment Convention Centre"/>
    <tag k="source" v="nearmap;knowledge"/>
    <tag k="source:addr" v="mackayecc.com.au"/>
  </way>
  <way id="73713577" version="2" timestamp="2012-02-18T07:55:33Z" uid="603720" user="Andergrove1" changeset="10717575">
    <nd ref="872873133"/>
    <nd ref="872873137"/>
    <nd ref="872873185"/>
    <nd ref="872873212"/>
    <nd ref="872873145"/>
    <nd ref="872873174"/>
    <nd ref="872873163"/>
    <nd ref="872873202"/>
    <nd ref="872873125"/>
    <nd ref="872873152"/>
    <nd ref="872873192"/>
    <nd ref="872873118"/>
    <nd ref="872873133"/>
    <tag k="addr:city" v="Mackay"/>
    <tag k="addr:country" v="AU"/>
    <tag k="addr:postcode" v="4740"/>
    <tag k="addr:state" v="Qld"/>
    <tag k="addr:street" v="Alfred Street"/>
    <tag k="amenity" v="public_building"/>
    <tag k="building" v="yes"/>
    <tag k="name" v="Mackay Entertainment Convention Centre"/>
    <tag k="source" v="nearmap;knowledge"/>
    <tag k="source:addr" v="mackayecc.com.au"/>
  </way>
  <way id="73713577" version="3" timestamp="2012-02-18T08:01:41Z" uid="603720" user="Andergrove1" changeset="10717602">
    <nd ref="872873133"/>
    <nd ref="872873137"/>
    <nd ref="872873185"/>
    <nd ref="872873212"/>
    <nd ref="872873145"/>
    <nd ref="872873174"/>
    <nd ref="872873163"/>
    <nd ref="872873202"/>
    <nd ref="872873125"/>
    <nd ref="872873152"/>
    <nd ref="872873192"/>
    <nd ref="872873118"/>
    <nd ref="872873133"/>
    <tag k="addr:city" v="Mackay"/>
    <tag k="addr:country" v="AU"/>
    <tag k="addr:postcode" v="4740"/>
    <tag k="addr:state" v="Qld"/>
    <tag k="addr:street" v="Alfred Street"/>
    <tag k="amenity" v="public_building"/>
    <tag k="building" v="yes"/>
    <tag k="name" v="Mackay Entertainment Convention Centre"/>
    <tag k="source" v="nearmap"/>
    <tag k="source:addr" v="mackayecc.com.au"/>
  </way>
  <way id="73713577" version="4" timestamp="2012-02-18T11:04:25Z" uid="603720" user="Andergrove1" changeset="10718871">
    <nd ref="872873133"/>
    <nd ref="872873137"/>
    <nd ref="872873212"/>
    <nd ref="872873145"/>
    <nd ref="872873174"/>
    <nd ref="872873163"/>
    <nd ref="872873202"/>
    <nd ref="872873125"/>
    <nd ref="872873152"/>
    <nd ref="872873192"/>
    <nd ref="872873118"/>
    <nd ref="872873133"/>
    <tag k="addr:city" v="Mackay"/>
    <tag k="addr:country" v="AU"/>
    <tag k="addr:postcode" v="4740"/>
    <tag k="addr:state" v="Qld"/>
    <tag k="addr:street" v="Alfred Street"/>
    <tag k="amenity" v="public_building"/>
    <tag k="building" v="yes"/>
    <tag k="name" v="Mackay Entertainment Convention Centre"/>
    <tag k="source" v="nearmap"/>
    <tag k="source:addr" v="mackayecc.com.au"/>
  </way>
</osm>
