<?xml version='1.0' encoding='UTF-8'?>
<osm version="0.6" generator="libosmium/2.20.0">
  <way id="73776330" version="1" timestamp="2010-08-22T03:46:28Z" uid="4467" user="Rosscoe" changeset="5557509">
    <nd ref="873337467"/>
    <nd ref="873336983"/>
    <nd ref="873337051"/>
    <nd ref="873337153"/>
    <nd ref="873337393"/>
    <nd ref="873337577"/>
    <nd ref="873337467"/>
    <tag k="addr:city" v="Mackay"/>
    <tag k="addr:country" v="AU"/>
    <tag k="addr:housenumber" v="40-68"/>
    <tag k="addr:postcode" v="4740"/>
    <tag k="addr:state" v="Qld"/>
    <tag k="addr:street" v="Beaconsfield Road"/>
    <tag k="addr:suburb" v="Andergrove"/>
    <tag k="name" v="Andergrove Van Park"/>
    <tag k="source" v="nearmap"/>
    <tag k="source:addr" v="andergrovepark.com.au"/>
    <tag k="tourism" v="caravan_site"/>
  </way>
  <way id="73776334" version="1" timestamp="2010-08-22T03:46:29Z" uid="4467" user="Rosscoe" changeset="5557509">
    <nd ref="873337358"/>
    <nd ref="873337539"/>
    <tag k="highway" v="service"/>
    <tag k="service" v="driveway"/>
    <tag k="source" v="nearmap"/>
  </way>
  <way id="73776337" version="1" timestamp="2010-08-22T03:46:30Z" uid="4467" user="Rosscoe" changeset="5557509">
    <nd ref="873337651"/>
    <nd ref="873337016"/>
    <nd ref="873337119"/>
    <nd ref="873337255"/>
    <nd ref="873337321"/>
    <nd ref="873337503"/>
    <nd ref="873337688"/>
    <nd ref="873337751"/>
    <nd ref="873337651"/>
    <tag k="addr:city" v="Mackay"/>
    <tag k="addr:country" v="AU"/>
    <tag k="addr:housenumber" v="379"/>
    <tag k="addr:postcode" v="4740"/>
    <tag k="addr:state" v="Qld"/>
    <tag k="addr:street" v="Harbour Road"/>
    <tag k="name" v="Mackay Marine Tourist Park"/>
    <tag k="source" v="nearmap"/>
    <tag k="source:addr" v="caravanqld.com.au"/>
    <tag k="tourism" v="caravan_site"/>
  </way>
  <way id="73776337" version="2" timestamp="2012-02-20T03:08:43Z" uid="603720" user="Andergrove1" changeset="10736977">
    <nd ref="873337651"/>
    <nd ref="873337016"/>
    <nd ref="873337119"/>
    <nd ref="873337255"/>
    <nd ref="873337321"/>
    <nd ref="873337503"/>
    <nd ref="873337688"/>
    <nd ref="873337751"/>
    <nd ref="873337651"/>
    <tag k="addr:city" v="Mackay"/>
    <tag k="addr:country" v="AU"/>
    <tag k="addr:housenumber" v="379"/>
    <tag k="addr:postcode" v="4740"/>
    <tag k="addr:state" v="Qld"/>
    <tag k="addr:street" v="Harbour Road"/>
    <tag k="source" v="nearmap"/>
    <tag k="source:addr" v="caravanqld.com.au"/>
    <tag k="tourism" v="caravan_site"/>
  </way>
  <way id="73776342" version="1" timestamp="2010-08-22T03:46:32Z" uid="4467" user="Rosscoe" changeset="5557509">
    <nd ref="873337786"/>
    <nd ref="873337215"/>
    <nd ref="873337430"/>
    <nd ref="873337622"/>
    <nd ref="873337721"/>
    <nd ref="873337786"/>
    <tag k="leisure" v="pitch"/>
    <tag k="source" v="nearmap"/>
    <tag k="sport" v="baseball"/>
  </way>
  <way id="73776342" version="2" timestamp="2012-02-14T12:05:31Z" uid="603720" user="Andergrove1" changeset="10682069">
    <nd ref="873337786"/>
    <nd ref="873337215"/>
    <nd ref="873337430"/>
    <nd ref="873337622"/>
    <nd ref="873337721"/>
    <nd ref="873337786"/>
    <tag k="leisure" v="pitch"/>
    <tag k="source" v="nearmap"/>
    <tag k="sport" v="soccer"/>
  </way>
  <way id="73776346" version="1" timestamp="2010-08-22T03:46:33Z" uid="4467" user="Rosscoe" changeset="5557509">
    <nd ref="873337080"/>
    <nd ref="873337283"/>
    <tag k="highway" v="service"/>
    <tag k="service" v="driveway"/>
    <tag k="source" v="nearmap"/>
  </way>
  <way id="73776346" version="2" timestamp="2010-08-28T08:22:20Z" uid="4467" user="Rosscoe" changeset="5613823">
    <nd ref="873337080"/>
    <nd ref="884200475"/>
    <nd ref="884200467"/>
    <nd ref="884200491"/>
    <nd ref="873337283"/>
    <tag k="highway" v="service"/>
    <tag k="service" v="driveway"/>
    <tag k="source" v="nearmap"/>
  </way>
</osm>
