<?xml version='1.0' encoding='UTF-8'?>
<osm version="0.6" generator="libosmium/2.20.0">
  <way id="73989495" version="1" timestamp="2010-08-23T09:17:46Z" uid="4467" user="Rosscoe" changeset="5569216">
    <nd ref="875517794"/>
    <nd ref="875517291"/>
    <nd ref="875517675"/>
    <nd ref="875517869"/>
    <nd ref="875518108"/>
    <nd ref="875517135"/>
    <nd ref="875517794"/>
    <tag k="landuse" v="residential"/>
    <tag k="source" v="nearmap"/>
  </way>
  <way id="73989496" version="1" timestamp="2010-08-23T09:17:47Z" uid="4467" user="Rosscoe" changeset="5569216">
    <nd ref="875517245"/>
    <nd ref="875517993"/>
    <nd ref="875517087"/>
    <nd ref="875516950"/>
    <nd ref="875517461"/>
    <nd ref="875517725"/>
    <nd ref="875517941"/>
    <nd ref="875518155"/>
    <nd ref="875517186"/>
    <nd ref="875517970"/>
    <nd ref="875516976"/>
    <nd ref="875517622"/>
    <nd ref="875517750"/>
    <nd ref="875517846"/>
    <nd ref="875516886"/>
    <nd ref="875517559"/>
    <nd ref="875517245"/>
    <tag k="landuse" v="residential"/>
    <tag k="source" v="nearmap"/>
  </way>
  <way id="73989498" version="1" timestamp="2010-08-23T09:17:50Z" uid="4467" user="Rosscoe" changeset="5569216">
    <nd ref="875517650"/>
    <nd ref="875516917"/>
    <nd ref="875517598"/>
    <nd ref="875517701"/>
    <nd ref="875517822"/>
    <nd ref="875518132"/>
    <nd ref="875517338"/>
    <nd ref="875517650"/>
    <tag k="addr:city" v="Mackay"/>
    <tag k="addr:country" v="AU"/>
    <tag k="addr:postcode" v="4740"/>
    <tag k="addr:state" v="Qld"/>
    <tag k="addr:street" v="Kemp Street"/>
    <tag k="addr:suburb" v="Bucasia"/>
    <tag k="amenity" v="school"/>
    <tag k="name" v="Bucasia State School"/>
    <tag k="source" v="nearmap"/>
    <tag k="source:addr" v="bucasiass.eq.edu.au"/>
  </way>
  <way id="73989684" version="2" timestamp="2010-11-13T05:20:20Z" uid="30632" user="antblant" changeset="6355892">
    <nd ref="854409304"/>
    <nd ref="875532628"/>
    <tag k="highway" v="primary"/>
    <tag k="oneway" v="yes"/>
    <tag k="ref" v="40"/>
  </way>
  <way id="73989686" version="2" timestamp="2010-11-13T05:20:20Z" uid="30632" user="antblant" changeset="6355892">
    <nd ref="875532628"/>
    <nd ref="854409297"/>
    <tag k="highway" v="primary"/>
    <tag k="oneway" v="yes"/>
    <tag k="ref" v="40"/>
  </way>
</osm>
