<?xml version='1.0' encoding='UTF-8'?>
<osm version="0.6" generator="libosmium/2.20.0">
  <way id="74119272" version="1" timestamp="2010-08-24T06:42:29Z" uid="49111" user="Markus B" changeset="5577399">
    <nd ref="876889549"/>
    <nd ref="876889426"/>
    <nd ref="876889507"/>
    <nd ref="876889374"/>
    <nd ref="876889549"/>
    <tag k="addr:city" v="Germersberg"/>
    <tag k="addr:country" v="DE"/>
    <tag k="addr:housenumber" v="21"/>
    <tag k="addr:postcode" v="91220"/>
    <tag k="addr:street" v="Spanhaufenstraße"/>
    <tag k="building" v="yes"/>
  </way>
  <way id="74119275" version="1" timestamp="2010-08-24T06:42:30Z" uid="49111" user="Markus B" changeset="5577399">
    <nd ref="876889537"/>
    <nd ref="876889412"/>
    <nd ref="876889501"/>
    <nd ref="876889564"/>
    <nd ref="876889537"/>
    <tag k="building" v="yes"/>
  </way>
  <way id="74119275" version="2" timestamp="2011-01-19T17:14:24Z" uid="82877" user="Wankmann" changeset="7022470">
    <nd ref="771420074"/>
    <nd ref="876889412"/>
    <nd ref="876889501"/>
    <nd ref="876889564"/>
    <nd ref="771420074"/>
    <tag k="building" v="yes"/>
  </way>
  <way id="74119277" version="1" timestamp="2010-08-24T06:42:30Z" uid="49111" user="Markus B" changeset="5577399">
    <nd ref="876889672"/>
    <nd ref="876889539"/>
    <nd ref="876889628"/>
    <nd ref="876889649"/>
    <nd ref="876889456"/>
    <nd ref="876889672"/>
    <tag k="addr:city" v="Germersberg"/>
    <tag k="addr:country" v="DE"/>
    <tag k="addr:housenumber" v="17"/>
    <tag k="addr:postcode" v="91220"/>
    <tag k="addr:street" v="Spanhaufenstraße"/>
    <tag k="building" v="yes"/>
  </way>
  <way id="74119278" version="1" timestamp="2010-08-24T06:42:30Z" uid="49111" user="Markus B" changeset="5577399">
    <nd ref="876889621"/>
    <nd ref="876889496"/>
    <nd ref="876889363"/>
    <nd ref="876889559"/>
    <nd ref="876889621"/>
    <tag k="addr:city" v="Germersberg"/>
    <tag k="addr:country" v="DE"/>
    <tag k="addr:housenumber" v="11"/>
    <tag k="addr:postcode" v="91220"/>
    <tag k="addr:street" v="Spanhaufenstraße"/>
    <tag k="building" v="yes"/>
  </way>
  <way id="74119279" version="1" timestamp="2010-08-24T06:42:30Z" uid="49111" user="Markus B" changeset="5577399">
    <nd ref="876889526"/>
    <nd ref="876889668"/>
    <nd ref="876889619"/>
    <nd ref="876889558"/>
    <nd ref="876889526"/>
    <tag k="building" v="yes"/>
  </way>
  <way id="74119280" version="1" timestamp="2010-08-24T06:42:30Z" uid="49111" user="Markus B" changeset="5577399">
    <nd ref="876889652"/>
    <nd ref="876889569"/>
    <nd ref="876889531"/>
    <nd ref="876889606"/>
    <nd ref="876889652"/>
    <tag k="building" v="yes"/>
  </way>
  <way id="74119282" version="1" timestamp="2010-08-24T06:42:31Z" uid="49111" user="Markus B" changeset="5577399">
    <nd ref="876889650"/>
    <nd ref="876889517"/>
    <nd ref="876889591"/>
    <nd ref="876889667"/>
    <nd ref="876889650"/>
    <tag k="addr:city" v="Germersberg"/>
    <tag k="addr:country" v="DE"/>
    <tag k="addr:housenumber" v="19"/>
    <tag k="addr:postcode" v="91220"/>
    <tag k="addr:street" v="Spanhaufenstraße"/>
    <tag k="building" v="yes"/>
  </way>
  <way id="74119283" version="1" timestamp="2010-08-24T06:42:31Z" uid="49111" user="Markus B" changeset="5577399">
    <nd ref="876889628"/>
    <nd ref="876889649"/>
    <nd ref="876889589"/>
    <nd ref="876889392"/>
    <nd ref="876889628"/>
    <tag k="name" v="Agnes Haarstyling"/>
    <tag k="shop" v="hairdresser"/>
  </way>
  <way id="74119283" version="2" timestamp="2010-08-24T07:42:09Z" uid="49111" user="Markus B" changeset="5577777">
    <nd ref="876889628"/>
    <nd ref="876889649"/>
    <nd ref="876889589"/>
    <nd ref="876889392"/>
    <nd ref="876889628"/>
    <tag k="building" v="yes"/>
    <tag k="name" v="Agnes Haarstyling"/>
    <tag k="shop" v="hairdresser"/>
  </way>
  <way id="74119284" version="1" timestamp="2010-08-24T06:42:31Z" uid="49111" user="Markus B" changeset="5577399">
    <nd ref="876889378"/>
    <nd ref="876889571"/>
    <nd ref="876889444"/>
    <nd ref="876889520"/>
    <nd ref="876889378"/>
    <tag k="addr:city" v="Germersberg"/>
    <tag k="addr:country" v="DE"/>
    <tag k="addr:housenumber" v="13"/>
    <tag k="addr:postcode" v="91220"/>
    <tag k="addr:street" v="Spanhaufenstraße"/>
    <tag k="building" v="yes"/>
  </way>
  <way id="74119285" version="1" timestamp="2010-08-24T06:42:31Z" uid="49111" user="Markus B" changeset="5577399">
    <nd ref="876889513"/>
    <nd ref="876889380"/>
    <nd ref="876889583"/>
    <nd ref="876889457"/>
    <nd ref="876889513"/>
    <tag k="building" v="yes"/>
  </way>
  <way id="74119287" version="1" timestamp="2010-08-24T06:42:32Z" uid="49111" user="Markus B" changeset="5577399">
    <nd ref="876889461"/>
    <nd ref="876889671"/>
    <nd ref="876889409"/>
    <nd ref="876889498"/>
    <nd ref="876889461"/>
    <tag k="building" v="yes"/>
  </way>
  <way id="74119287" version="2" timestamp="2011-01-16T21:17:29Z" uid="82877" user="Wankmann" changeset="6994012">
    <nd ref="876889461"/>
    <nd ref="876889671"/>
    <nd ref="876889409"/>
    <nd ref="876889498"/>
    <nd ref="876889461"/>
    <tag k="addr:city" v="Germersberg"/>
    <tag k="addr:country" v="DE"/>
    <tag k="addr:housenumber" v="14"/>
    <tag k="addr:postcode" v="91220"/>
    <tag k="addr:street" v="Spanhaufenstraße"/>
    <tag k="building" v="yes"/>
  </way>
  <way id="74119288" version="1" timestamp="2010-08-24T06:42:32Z" uid="49111" user="Markus B" changeset="5577399">
    <nd ref="876889518"/>
    <nd ref="876889526"/>
    <nd ref="876889558"/>
    <nd ref="876889386"/>
    <nd ref="876889459"/>
    <nd ref="876889604"/>
    <nd ref="876889518"/>
    <tag k="addr:city" v="Germersberg"/>
    <tag k="addr:country" v="DE"/>
    <tag k="addr:housenumber" v="23"/>
    <tag k="addr:postcode" v="91220"/>
    <tag k="addr:street" v="Spanhaufenstraße"/>
    <tag k="building" v="yes"/>
    <tag k="craft" v="carpenter"/>
    <tag k="name" v="Thomas Meier"/>
  </way>
  <way id="74119290" version="1" timestamp="2010-08-24T06:42:32Z" uid="49111" user="Markus B" changeset="5577399">
    <nd ref="876889434"/>
    <nd ref="876889642"/>
    <nd ref="876889382"/>
    <nd ref="876889388"/>
    <nd ref="876889434"/>
    <tag k="building" v="yes"/>
  </way>
  <way id="74119291" version="1" timestamp="2010-08-24T06:42:32Z" uid="49111" user="Markus B" changeset="5577399">
    <nd ref="876889499"/>
    <nd ref="876889598"/>
    <nd ref="876889365"/>
    <nd ref="876889376"/>
    <nd ref="876889449"/>
    <nd ref="876889499"/>
    <tag k="addr:city" v="Germersberg"/>
    <tag k="addr:country" v="DE"/>
    <tag k="addr:housenumber" v="20"/>
    <tag k="addr:postcode" v="91220"/>
    <tag k="addr:street" v="Spanhaufenstraße"/>
    <tag k="building" v="yes"/>
  </way>
  <way id="74119292" version="1" timestamp="2010-08-24T06:42:33Z" uid="49111" user="Markus B" changeset="5577399">
    <nd ref="876889627"/>
    <nd ref="876889428"/>
    <nd ref="876889510"/>
    <nd ref="876889578"/>
    <nd ref="876889627"/>
    <tag k="building" v="yes"/>
  </way>
  <way id="74119292" version="2" timestamp="2011-01-16T21:17:28Z" uid="82877" user="Wankmann" changeset="6994012">
    <nd ref="876889627"/>
    <nd ref="876889428"/>
    <nd ref="876889510"/>
    <nd ref="876889578"/>
    <nd ref="876889627"/>
    <tag k="addr:city" v="Germersberg"/>
    <tag k="addr:country" v="DE"/>
    <tag k="addr:housenumber" v="12"/>
    <tag k="addr:postcode" v="91220"/>
    <tag k="addr:street" v="Spanhaufenstraße"/>
    <tag k="building" v="yes"/>
  </way>
  <way id="74119293" version="1" timestamp="2010-08-24T06:42:33Z" uid="49111" user="Markus B" changeset="5577399">
    <nd ref="876889545"/>
    <nd ref="876889421"/>
    <nd ref="876889505"/>
    <nd ref="876889565"/>
    <nd ref="876889581"/>
    <nd ref="876889653"/>
    <nd ref="876889390"/>
    <nd ref="876889476"/>
    <nd ref="876889617"/>
    <nd ref="876889675"/>
    <nd ref="876889429"/>
    <nd ref="876889512"/>
    <nd ref="876889516"/>
    <nd ref="876889588"/>
    <nd ref="876889662"/>
    <nd ref="876889403"/>
    <nd ref="876889536"/>
    <nd ref="876889625"/>
    <nd ref="876889366"/>
    <nd ref="876889441"/>
    <nd ref="876889454"/>
    <nd ref="876889523"/>
    <nd ref="876889599"/>
    <nd ref="876889670"/>
    <nd ref="876889489"/>
    <nd ref="876889553"/>
    <nd ref="876889636"/>
    <nd ref="876889377"/>
    <nd ref="876889545"/>
    <tag k="natural" v="beach"/>
  </way>
  <way id="74119294" version="1" timestamp="2010-08-24T06:42:33Z" uid="49111" user="Markus B" changeset="5577399">
    <nd ref="876889522"/>
    <nd ref="876889389"/>
    <nd ref="876889460"/>
    <nd ref="876889534"/>
    <nd ref="876889522"/>
    <tag k="building" v="yes"/>
  </way>
  <way id="74119295" version="1" timestamp="2010-08-24T06:42:34Z" uid="49111" user="Markus B" changeset="5577399">
    <nd ref="876889446"/>
    <nd ref="876889651"/>
    <nd ref="876889655"/>
    <nd ref="876889395"/>
    <nd ref="876889480"/>
    <nd ref="876889546"/>
    <nd ref="876889446"/>
    <tag k="addr:city" v="Germersberg"/>
    <tag k="addr:country" v="DE"/>
    <tag k="addr:housenumber" v="10"/>
    <tag k="addr:postcode" v="91220"/>
    <tag k="addr:street" v="Spanhaufenstraße"/>
    <tag k="building" v="yes"/>
    <tag k="craft" v="carpenter"/>
  </way>
  <way id="74119296" version="1" timestamp="2010-08-24T06:42:34Z" uid="49111" user="Markus B" changeset="5577399">
    <nd ref="876889423"/>
    <nd ref="876889630"/>
    <nd ref="876889640"/>
    <nd ref="876889381"/>
    <nd ref="876889619"/>
    <nd ref="876889668"/>
    <nd ref="876889423"/>
    <tag k="building" v="yes"/>
  </way>
  <way id="74119297" version="1" timestamp="2010-08-24T06:42:34Z" uid="49111" user="Markus B" changeset="5577399">
    <nd ref="876889608"/>
    <nd ref="876889491"/>
    <nd ref="876889626"/>
    <nd ref="876889369"/>
    <nd ref="876889608"/>
    <tag k="amenity" v="biergarten"/>
  </way>
  <way id="74119298" version="1" timestamp="2010-08-24T06:42:34Z" uid="49111" user="Markus B" changeset="5577399">
    <nd ref="876889533"/>
    <nd ref="876889407"/>
    <nd ref="876889495"/>
    <nd ref="876889632"/>
    <nd ref="876889533"/>
    <tag k="building" v="yes"/>
  </way>
  <way id="74119299" version="1" timestamp="2010-08-24T06:42:34Z" uid="49111" user="Markus B" changeset="5577399">
    <nd ref="876889603"/>
    <nd ref="876889532"/>
    <nd ref="876889610"/>
    <nd ref="876889673"/>
    <nd ref="876889603"/>
    <tag k="addr:city" v="Germersberg"/>
    <tag k="addr:country" v="DE"/>
    <tag k="addr:housenumber" v="15"/>
    <tag k="addr:postcode" v="91220"/>
    <tag k="addr:street" v="Spanhaufenstraße"/>
    <tag k="building" v="yes"/>
  </way>
  <way id="74119300" version="1" timestamp="2010-08-24T06:42:35Z" uid="49111" user="Markus B" changeset="5577399">
    <nd ref="876889458"/>
    <nd ref="876889665"/>
    <nd ref="876889405"/>
    <nd ref="876889493"/>
    <nd ref="876889458"/>
    <tag k="addr:city" v="Germersberg"/>
    <tag k="addr:country" v="DE"/>
    <tag k="addr:housenumber" v="12 a"/>
    <tag k="addr:postcode" v="91220"/>
    <tag k="addr:street" v="Spanhaufenstraße"/>
    <tag k="amenity" v="restaurant"/>
    <tag k="building" v="yes"/>
    <tag k="cuisine" v="regional"/>
    <tag k="name" v="Cafe Holzwzrm"/>
    <tag k="opening_hours" v="Mo-Sa 07:00-22:00; So 10:00-22:00; Di off; Mi abend off"/>
    <tag k="phone" v="+49 9153 7325"/>
    <tag k="smoking" v="no"/>
    <tag k="smoking:outside" v="yes"/>
  </way>
  <way id="74119300" version="2" timestamp="2011-01-17T10:32:38Z" uid="293774" user="Oli-Wan" changeset="6997824">
    <nd ref="876889458"/>
    <nd ref="876889665"/>
    <nd ref="876889405"/>
    <nd ref="876889493"/>
    <nd ref="876889458"/>
    <tag k="addr:city" v="Germersberg"/>
    <tag k="addr:country" v="DE"/>
    <tag k="addr:housenumber" v="12 a"/>
    <tag k="addr:postcode" v="91220"/>
    <tag k="addr:street" v="Spanhaufenstraße"/>
    <tag k="amenity" v="restaurant"/>
    <tag k="building" v="yes"/>
    <tag k="cuisine" v="regional"/>
    <tag k="name" v="Cafe Holzwurm"/>
    <tag k="opening_hours" v="Mo, We-Sa 07:00-22:00; Su 10:00-22:00"/>
    <tag k="phone" v="+49 9153 7325"/>
    <tag k="smoking" v="no"/>
    <tag k="smoking:outside" v="yes"/>
  </way>
  <way id="74119301" version="1" timestamp="2010-08-24T06:42:35Z" uid="49111" user="Markus B" changeset="5577399">
    <nd ref="876889530"/>
    <nd ref="876889397"/>
    <nd ref="876889482"/>
    <nd ref="876889623"/>
    <nd ref="876889364"/>
    <nd ref="876889436"/>
    <nd ref="876889530"/>
    <tag k="amenity" v="cafe"/>
    <tag k="building" v="yes"/>
  </way>
  <way id="74119301" version="2" timestamp="2010-08-31T06:55:04Z" uid="49111" user="Markus B" changeset="5642694">
    <nd ref="876889530"/>
    <nd ref="876889397"/>
    <nd ref="876889482"/>
    <nd ref="876889623"/>
    <nd ref="876889364"/>
    <nd ref="876889436"/>
    <nd ref="876889530"/>
    <tag k="amenity" v="cafe"/>
    <tag k="building" v="yes"/>
    <tag k="smoking" v="no"/>
  </way>
  <way id="74119302" version="1" timestamp="2010-08-24T06:42:35Z" uid="49111" user="Markus B" changeset="5577399">
    <nd ref="876889598"/>
    <nd ref="876889402"/>
    <nd ref="876889483"/>
    <nd ref="876889551"/>
    <nd ref="876889598"/>
    <tag k="building" v="yes"/>
  </way>
  <way id="74119304" version="1" timestamp="2010-08-24T06:42:36Z" uid="49111" user="Markus B" changeset="5577399">
    <nd ref="876889634"/>
    <nd ref="876889509"/>
    <nd ref="876889569"/>
    <nd ref="876889652"/>
    <nd ref="876889634"/>
    <tag k="building" v="yes"/>
  </way>
  <way id="74119305" version="1" timestamp="2010-08-24T06:42:36Z" uid="49111" user="Markus B" changeset="5577399">
    <nd ref="876889563"/>
    <nd ref="876889438"/>
    <nd ref="876889515"/>
    <nd ref="876889586"/>
    <nd ref="876889563"/>
    <tag k="building" v="yes"/>
  </way>
</osm>
