<?xml version='1.0' encoding='UTF-8'?>
<osm version="0.6" generator="libosmium/2.20.0">
  <way id="74121851" version="1" timestamp="2010-08-24T07:07:47Z" uid="4467" user="Rosscoe" changeset="5577561">
    <nd ref="876923555"/>
    <nd ref="876924024"/>
    <nd ref="876924115"/>
    <nd ref="876923522"/>
    <nd ref="876923697"/>
    <nd ref="876923278"/>
    <nd ref="876923358"/>
    <nd ref="876924243"/>
    <nd ref="876923906"/>
    <nd ref="876923080"/>
    <nd ref="876923039"/>
    <nd ref="876923857"/>
    <nd ref="876923192"/>
    <nd ref="876923979"/>
    <nd ref="876924315"/>
    <nd ref="876923626"/>
    <nd ref="876923660"/>
    <nd ref="876923247"/>
    <nd ref="876923414"/>
    <nd ref="876923815"/>
    <nd ref="876922992"/>
    <nd ref="876922957"/>
    <nd ref="876924087"/>
    <nd ref="876923451"/>
    <nd ref="876923589"/>
    <nd ref="876923152"/>
    <nd ref="876923317"/>
    <nd ref="876924156"/>
    <nd ref="876923555"/>
    <tag k="landuse" v="residential"/>
    <tag k="source" v="nearmap"/>
  </way>
  <way id="74121852" version="1" timestamp="2010-08-24T07:07:48Z" uid="4467" user="Rosscoe" changeset="5577561">
    <nd ref="876923772"/>
    <nd ref="876922925"/>
    <nd ref="876923117"/>
    <nd ref="876923944"/>
    <nd ref="876923772"/>
    <tag k="source" v="nearmap"/>
  </way>
  <way id="74121852" version="2" timestamp="2010-08-24T07:15:20Z" uid="4467" user="Rosscoe" changeset="5577611">
    <nd ref="876923772"/>
    <nd ref="876922925"/>
    <nd ref="876923117"/>
    <nd ref="876923944"/>
    <nd ref="876923772"/>
    <tag k="addr:city" v="Mackay"/>
    <tag k="addr:country" v="AU"/>
    <tag k="addr:housenumber" v="9"/>
    <tag k="addr:postcode" v="4740"/>
    <tag k="addr:state" v="Qld"/>
    <tag k="addr:street" v="Pacific Drive"/>
    <tag k="addr:suburb" v="Blacks Beach"/>
    <tag k="name" v="The Shores Holiday Apartments"/>
    <tag k="source" v="nearmap"/>
    <tag k="source:addr" v="theshores.com.au"/>
    <tag k="tourism" v="motel"/>
  </way>
  <way id="74121853" version="1" timestamp="2010-08-24T07:07:50Z" uid="4467" user="Rosscoe" changeset="5577561">
    <nd ref="876924057"/>
    <nd ref="876922940"/>
    <tag k="highway" v="residential"/>
    <tag k="source" v="nearmap"/>
  </way>
  <way id="74121853" version="2" timestamp="2012-02-19T10:55:52Z" uid="603720" user="Andergrove1" changeset="10728368">
    <nd ref="876924057"/>
    <nd ref="876922940"/>
    <tag k="highway" v="residential"/>
    <tag k="name" v="Neptune Street"/>
    <tag k="source" v="nearmap"/>
  </way>
  <way id="74121874" version="1" timestamp="2010-08-24T07:09:33Z" uid="33382" user="de_muur" changeset="5577573">
    <nd ref="838731254"/>
    <nd ref="411029082"/>
    <nd ref="411029081"/>
    <nd ref="411029080"/>
    <nd ref="411029079"/>
    <nd ref="411029078"/>
    <nd ref="411029077"/>
    <nd ref="267339108"/>
    <nd ref="267339109"/>
    <nd ref="267339110"/>
    <nd ref="789380298"/>
    <nd ref="534917464"/>
    <nd ref="267339112"/>
    <nd ref="267339113"/>
    <nd ref="267339114"/>
    <nd ref="609094018"/>
    <nd ref="267339117"/>
    <nd ref="410748846"/>
    <nd ref="410748851"/>
    <nd ref="267339118"/>
    <nd ref="267339119"/>
    <nd ref="267339120"/>
    <nd ref="268211566"/>
    <tag k="foot" v="yes"/>
    <tag k="highway" v="cycleway"/>
    <tag k="horse" v="no"/>
    <tag k="surface" v="paved"/>
  </way>
  <way id="74121874" version="2" timestamp="2012-02-19T19:50:24Z" uid="600035" user="Zambian Fever" changeset="10733162">
    <nd ref="838731254"/>
    <nd ref="411029082"/>
    <nd ref="411029081"/>
    <nd ref="411029080"/>
    <nd ref="411029079"/>
    <nd ref="411029078"/>
    <nd ref="411029077"/>
    <nd ref="267339108"/>
    <nd ref="267339109"/>
    <nd ref="267339110"/>
    <nd ref="789380298"/>
    <nd ref="534917464"/>
    <nd ref="267339112"/>
    <nd ref="267339113"/>
    <nd ref="267339114"/>
    <nd ref="609094018"/>
    <nd ref="267339117"/>
    <nd ref="410748846"/>
    <nd ref="410748851"/>
    <nd ref="267339118"/>
    <nd ref="267339119"/>
    <nd ref="267339120"/>
    <nd ref="268211566"/>
    <tag k="access" v="yes"/>
    <tag k="bicycle" v="designated"/>
    <tag k="foot" v="yes"/>
    <tag k="highway" v="cycleway"/>
    <tag k="horse" v="no"/>
    <tag k="motor_vehicle" v="no"/>
    <tag k="name" v="Radwanderweg"/>
    <tag k="segregated" v="no"/>
    <tag k="surface" v="paved"/>
  </way>
  <way id="74121874" version="3" timestamp="2012-03-26T17:14:47Z" uid="349191" user="Glühwürmchen" changeset="11108243"/>
  <way id="74121875" version="1" timestamp="2010-08-24T07:09:33Z" uid="33382" user="de_muur" changeset="5577573">
    <nd ref="268211566"/>
    <nd ref="104523523"/>
    <nd ref="104523524"/>
    <nd ref="104524704"/>
    <nd ref="104524705"/>
    <nd ref="268211926"/>
    <nd ref="21716708"/>
    <tag k="highway" v="tertiary"/>
    <tag k="maxspeed" v="50"/>
    <tag k="name" v="Grönwohlder Straße"/>
    <tag k="ref" v="K 31"/>
    <tag k="surface" v="paved"/>
  </way>
  <way id="74121875" version="2" timestamp="2012-03-26T20:41:07Z" uid="349191" user="Glühwürmchen" changeset="11109456"/>
  <way id="74121876" version="1" timestamp="2010-08-24T07:09:34Z" uid="33382" user="de_muur" changeset="5577573">
    <nd ref="26943106"/>
    <nd ref="435045566"/>
    <nd ref="21700726"/>
    <nd ref="21700728"/>
    <nd ref="410842629"/>
    <nd ref="410842631"/>
    <nd ref="21700751"/>
    <nd ref="435045567"/>
    <nd ref="21700752"/>
    <nd ref="410842630"/>
    <nd ref="410748861"/>
    <nd ref="21700755"/>
    <nd ref="435045568"/>
    <nd ref="410748865"/>
    <nd ref="435045570"/>
    <nd ref="277921794"/>
    <nd ref="410748877"/>
    <tag k="highway" v="tertiary"/>
    <tag k="lit" v="no"/>
    <tag k="maxspeed" v="50"/>
    <tag k="name" v="Drahtmühle"/>
    <tag k="ref" v="K 31"/>
  </way>
  <way id="74121876" version="2" timestamp="2012-03-26T20:41:08Z" uid="349191" user="Glühwürmchen" changeset="11109456"/>
  <way id="74121877" version="1" timestamp="2010-08-24T07:09:34Z" uid="33382" user="de_muur" changeset="5577573">
    <nd ref="410748964"/>
    <nd ref="435045579"/>
    <nd ref="322088697"/>
    <nd ref="435045580"/>
    <nd ref="21721839"/>
    <nd ref="435045581"/>
    <nd ref="21721841"/>
    <nd ref="435045582"/>
    <nd ref="21721843"/>
    <nd ref="435045583"/>
    <nd ref="369645407"/>
    <nd ref="21721844"/>
    <tag k="cycleway" v="track"/>
    <tag k="highway" v="tertiary"/>
    <tag k="lit" v="no"/>
    <tag k="name" v="Steinern"/>
    <tag k="ref" v="K 31"/>
    <tag k="surface" v="paved"/>
  </way>
  <way id="74121877" version="2" timestamp="2012-03-26T20:41:08Z" uid="349191" user="Glühwürmchen" changeset="11109456"/>
</osm>
