<?xml version='1.0' encoding='UTF-8'?>
<osm version="0.6" generator="libosmium/2.20.0">
  <way id="74406249" version="2" timestamp="2010-10-14T18:57:12Z" uid="96874" user="Quedel" changeset="6040209">
    <nd ref="879401575"/>
    <nd ref="948470230"/>
    <nd ref="879401657"/>
    <tag k="highway" v="footway"/>
    <tag k="surface" v="paved"/>
  </way>
  <way id="74406257" version="2" timestamp="2010-10-14T17:58:14Z" uid="96874" user="Quedel" changeset="6040209">
    <nd ref="879401544"/>
    <nd ref="879401702"/>
    <nd ref="948361002"/>
    <nd ref="879401590"/>
    <tag k="highway" v="footway"/>
    <tag k="surface" v="paved"/>
  </way>
  <way id="74406257" version="3" timestamp="2010-10-14T18:57:12Z" uid="96874" user="Quedel" changeset="6040209">
    <nd ref="948470230"/>
    <nd ref="879401702"/>
    <nd ref="948361002"/>
    <nd ref="879401590"/>
    <tag k="highway" v="footway"/>
    <tag k="surface" v="paved"/>
  </way>
  <way id="74406257" version="4" timestamp="2010-10-15T14:04:20Z" uid="96874" user="Quedel" changeset="6049555">
    <nd ref="948470230"/>
    <nd ref="879401702"/>
    <nd ref="948361002"/>
    <nd ref="879401590"/>
    <nd ref="950166678"/>
    <tag k="highway" v="footway"/>
    <tag k="surface" v="paved"/>
  </way>
  <way id="74406257" version="5" timestamp="2010-10-17T21:12:21Z" uid="96874" user="Quedel" changeset="6070824">
    <nd ref="948470230"/>
    <nd ref="879401702"/>
    <nd ref="948361002"/>
    <nd ref="955196511"/>
    <nd ref="955196343"/>
    <nd ref="955196429"/>
    <nd ref="879401590"/>
    <nd ref="950166678"/>
    <tag k="highway" v="footway"/>
    <tag k="surface" v="paved"/>
  </way>
  <way id="74406302" version="1" timestamp="2010-08-25T20:26:54Z" uid="33382" user="de_muur" changeset="5593483">
    <nd ref="879401944"/>
    <nd ref="301730557"/>
    <nd ref="301730558"/>
    <nd ref="301730559"/>
    <nd ref="703966664"/>
    <nd ref="355181405"/>
    <nd ref="301730560"/>
    <nd ref="301730561"/>
    <nd ref="420335730"/>
    <nd ref="301730562"/>
    <nd ref="302583493"/>
    <nd ref="301730563"/>
    <nd ref="265552371"/>
    <tag k="highway" v="unclassified"/>
    <tag k="maxweight" v="7.5"/>
    <tag k="name" v="Hasental"/>
    <tag k="surface" v="paved"/>
  </way>
  <way id="74406302" version="2" timestamp="2010-11-09T20:26:57Z" uid="33382" user="de_muur" changeset="6331211">
    <nd ref="879401944"/>
    <nd ref="301730557"/>
    <tag k="highway" v="unclassified"/>
    <tag k="maxweight" v="7.5"/>
    <tag k="name" v="Hasental"/>
    <tag k="surface" v="paved"/>
  </way>
  <way id="74406302" version="3" timestamp="2011-11-07T11:52:01Z" uid="47018" user="RitterJ" changeset="9763958">
    <nd ref="879401944"/>
    <nd ref="301730557"/>
    <tag k="highway" v="unclassified"/>
    <tag k="maxweight" v="7.5"/>
    <tag k="surface" v="paved"/>
  </way>
  <way id="74406308" version="1" timestamp="2010-08-25T20:26:54Z" uid="33382" user="de_muur" changeset="5593483">
    <nd ref="410916295"/>
    <nd ref="311474152"/>
    <nd ref="244630150"/>
    <nd ref="268479767"/>
    <nd ref="244630151"/>
    <nd ref="244630152"/>
    <nd ref="244630154"/>
    <nd ref="244630156"/>
    <nd ref="244630157"/>
    <nd ref="533620959"/>
    <tag k="highway" v="tertiary"/>
    <tag k="name" v="Elbuferstraße"/>
    <tag k="postal_code" v="21502"/>
    <tag k="ref" v="K 63"/>
    <tag k="surface" v="paved"/>
  </way>
  <way id="74406308" version="2" timestamp="2011-03-21T18:59:59Z" uid="33382" user="de_muur" changeset="7630553">
    <nd ref="410916295"/>
    <nd ref="311474152"/>
    <nd ref="244630150"/>
    <nd ref="268479767"/>
    <nd ref="244630151"/>
    <nd ref="244630152"/>
    <nd ref="244630154"/>
    <nd ref="244630156"/>
    <nd ref="244630157"/>
    <nd ref="533620959"/>
    <tag k="highway" v="tertiary"/>
    <tag k="maxspeed" v="70"/>
    <tag k="name" v="Elbuferstraße"/>
    <tag k="postal_code" v="21502"/>
    <tag k="ref" v="K 63"/>
    <tag k="surface" v="paved"/>
  </way>
  <way id="74406311" version="1" timestamp="2010-08-25T20:26:55Z" uid="33382" user="de_muur" changeset="5593483">
    <nd ref="339937758"/>
    <nd ref="244630149"/>
    <nd ref="410916295"/>
    <tag k="highway" v="tertiary"/>
    <tag k="name" v="Elbuferstraße"/>
    <tag k="postal_code" v="21502"/>
    <tag k="ref" v="K 63"/>
    <tag k="surface" v="paved"/>
  </way>
  <way id="74406311" version="2" timestamp="2010-08-26T07:48:59Z" uid="33382" user="de_muur" changeset="5596626">
    <nd ref="339937758"/>
    <nd ref="244630149"/>
    <nd ref="410916295"/>
    <tag k="cycleway" v="track"/>
    <tag k="highway" v="tertiary"/>
    <tag k="name" v="Elbuferstraße"/>
    <tag k="postal_code" v="21502"/>
    <tag k="ref" v="K 63"/>
    <tag k="surface" v="paved"/>
  </way>
  <way id="74406315" version="1" timestamp="2010-08-25T20:26:55Z" uid="33382" user="de_muur" changeset="5593483">
    <nd ref="355181638"/>
    <nd ref="253731848"/>
    <nd ref="301730556"/>
    <nd ref="879401944"/>
    <tag k="highway" v="unclassified"/>
    <tag k="maxweight" v="7.5"/>
    <tag k="name" v="Hasental"/>
    <tag k="surface" v="unpaved"/>
  </way>
  <way id="74406315" version="2" timestamp="2010-12-27T18:04:28Z" uid="149876" user="dbusse" changeset="6780411">
    <nd ref="355181638"/>
    <nd ref="253731848"/>
    <nd ref="1067966599"/>
    <nd ref="301730556"/>
    <nd ref="879401944"/>
    <tag k="highway" v="unclassified"/>
    <tag k="maxweight" v="7.5"/>
    <tag k="name" v="Hasental"/>
    <tag k="surface" v="unpaved"/>
  </way>
  <way id="74406315" version="3" timestamp="2011-05-12T11:14:45Z" uid="47018" user="RitterJ" changeset="8121040">
    <nd ref="355181638"/>
    <nd ref="253731848"/>
    <nd ref="1067966599"/>
    <nd ref="301730556"/>
    <nd ref="1281370345"/>
    <nd ref="879401944"/>
    <tag k="highway" v="unclassified"/>
    <tag k="maxweight" v="7.5"/>
    <tag k="name" v="Hasental"/>
    <tag k="surface" v="unpaved"/>
  </way>
  <way id="74406315" version="4" timestamp="2011-05-19T11:34:25Z" uid="47018" user="RitterJ" changeset="8189025">
    <nd ref="355181638"/>
    <nd ref="253731848"/>
    <nd ref="1067966599"/>
    <nd ref="1291502483"/>
    <nd ref="301730556"/>
    <nd ref="1281370345"/>
    <nd ref="879401944"/>
    <tag k="highway" v="unclassified"/>
    <tag k="maxweight" v="7.5"/>
    <tag k="name" v="Hasental"/>
    <tag k="surface" v="unpaved"/>
  </way>
  <way id="74406315" version="5" timestamp="2011-11-07T11:52:00Z" uid="47018" user="RitterJ" changeset="9763958">
    <nd ref="355181638"/>
    <nd ref="253731848"/>
    <nd ref="1067966599"/>
    <nd ref="1291502483"/>
    <nd ref="301730556"/>
    <nd ref="1281370345"/>
    <nd ref="879401944"/>
    <tag k="highway" v="unclassified"/>
    <tag k="maxweight" v="7.5"/>
    <tag k="surface" v="unpaved"/>
  </way>
</osm>
