<?xml version='1.0' encoding='UTF-8'?>
<osm version="0.6" generator="libosmium/2.20.0">
  <way id="74659074" version="1" timestamp="2010-08-27T06:21:52Z" uid="4467" user="Rosscoe" changeset="5604703">
    <nd ref="881802888"/>
    <nd ref="881802994"/>
    <nd ref="881802954"/>
    <nd ref="363246091"/>
    <nd ref="705854910"/>
    <nd ref="881802889"/>
    <nd ref="363246093"/>
    <tag k="highway" v="secondary"/>
    <tag k="maxspeed" v="80"/>
    <tag k="name" v="Watson Street"/>
    <tag k="source" v="nearmap"/>
  </way>
  <way id="74659075" version="1" timestamp="2010-08-27T06:21:53Z" uid="4467" user="Rosscoe" changeset="5604703">
    <nd ref="881802952"/>
    <nd ref="881803009"/>
    <nd ref="881802897"/>
    <tag k="name" v="Tocumwal Line"/>
    <tag k="railway" v="rail"/>
    <tag k="source" v="nearmap"/>
  </way>
  <way id="74659076" version="1" timestamp="2010-08-27T06:21:54Z" uid="4467" user="Rosscoe" changeset="5604703">
    <nd ref="363246051"/>
    <nd ref="712787045"/>
    <nd ref="704147498"/>
    <nd ref="881802899"/>
    <tag k="highway" v="secondary"/>
    <tag k="maxspeed" v="100"/>
    <tag k="name" v="Wallan - Whittlesea Road"/>
    <tag k="ref" v="C727"/>
    <tag k="source" v="nearmap"/>
  </way>
  <way id="74659077" version="1" timestamp="2010-08-27T06:21:55Z" uid="4467" user="Rosscoe" changeset="5604703">
    <nd ref="881803053"/>
    <nd ref="881803016"/>
    <nd ref="881802880"/>
    <nd ref="703696165"/>
    <tag k="highway" v="tertiary"/>
    <tag k="name" v="Beveridge Road"/>
    <tag k="source" v="nearmap"/>
  </way>
  <way id="74659078" version="1" timestamp="2010-08-27T06:21:56Z" uid="4467" user="Rosscoe" changeset="5604703">
    <nd ref="706086324"/>
    <nd ref="881802903"/>
    <nd ref="881802862"/>
    <nd ref="881802966"/>
    <nd ref="881802928"/>
    <nd ref="881803054"/>
    <nd ref="881803020"/>
    <nd ref="881802906"/>
    <nd ref="881802865"/>
    <nd ref="881802967"/>
    <nd ref="881802930"/>
    <nd ref="881803055"/>
    <nd ref="881803023"/>
    <nd ref="881802882"/>
    <nd ref="881802855"/>
    <nd ref="881802949"/>
    <nd ref="881802914"/>
    <nd ref="881803038"/>
    <nd ref="881802989"/>
    <nd ref="881802864"/>
    <nd ref="881802830"/>
    <nd ref="881802929"/>
    <nd ref="881802905"/>
    <nd ref="881803040"/>
    <nd ref="881803004"/>
    <nd ref="881802867"/>
    <nd ref="881802833"/>
    <nd ref="881802932"/>
    <nd ref="881802907"/>
    <nd ref="881803025"/>
    <nd ref="881802970"/>
    <nd ref="881802857"/>
    <nd ref="881803057"/>
    <nd ref="881802916"/>
    <nd ref="881802886"/>
    <nd ref="881802992"/>
    <nd ref="881802951"/>
    <nd ref="881802831"/>
    <nd ref="881803039"/>
    <nd ref="881802919"/>
    <nd ref="881802890"/>
    <nd ref="881803006"/>
    <nd ref="881802955"/>
    <nd ref="881802834"/>
    <nd ref="881803042"/>
    <nd ref="881802908"/>
    <nd ref="881802870"/>
    <nd ref="881802972"/>
    <nd ref="881802934"/>
    <nd ref="881802821"/>
    <nd ref="881802941"/>
    <nd ref="881803029"/>
    <tag k="highway" v="unclassified"/>
    <tag k="name" v="Glenburnie Road"/>
    <tag k="source" v="nearmap"/>
    <tag k="surface" v="unpaved"/>
  </way>
  <way id="74659079" version="1" timestamp="2010-08-27T06:21:58Z" uid="4467" user="Rosscoe" changeset="5604703">
    <nd ref="881803050"/>
    <nd ref="361954525"/>
    <tag k="name" v="Tocumwal Line"/>
    <tag k="railway" v="rail"/>
    <tag k="source" v="nearmap"/>
  </way>
  <way id="74659080" version="1" timestamp="2010-08-27T06:21:59Z" uid="4467" user="Rosscoe" changeset="5604703">
    <nd ref="881802835"/>
    <nd ref="881803045"/>
    <nd ref="706875215"/>
    <nd ref="881802875"/>
    <nd ref="881802974"/>
    <nd ref="361954455"/>
    <tag k="highway" v="unclassified"/>
    <tag k="name" v="Eighth Avenue"/>
    <tag k="source" v="nearmap"/>
  </way>
  <way id="74659080" version="2" timestamp="2011-04-25T14:06:55Z" uid="443778" user="RFnerds" changeset="7963836">
    <nd ref="1259569320"/>
    <nd ref="1259569322"/>
    <nd ref="1259569314"/>
    <nd ref="1259569312"/>
    <nd ref="1259569311"/>
    <nd ref="1259569309"/>
    <nd ref="1259569310"/>
    <nd ref="1259569370"/>
    <nd ref="361954449"/>
    <nd ref="1259569367"/>
    <nd ref="1259569369"/>
    <nd ref="361954451"/>
    <nd ref="1259569365"/>
    <nd ref="361954452"/>
    <nd ref="1259569363"/>
    <nd ref="1259569372"/>
    <nd ref="1259569361"/>
    <nd ref="1259569360"/>
    <nd ref="1259569357"/>
    <nd ref="1259569359"/>
    <nd ref="1259569355"/>
    <nd ref="881802835"/>
    <nd ref="881803045"/>
    <nd ref="706875215"/>
    <nd ref="881802875"/>
    <nd ref="881802974"/>
    <nd ref="361954455"/>
    <tag k="highway" v="unclassified"/>
    <tag k="name" v="Eighth Avenue"/>
    <tag k="source" v="nearmap"/>
  </way>
  <way id="74659081" version="1" timestamp="2010-08-27T06:22:00Z" uid="4467" user="Rosscoe" changeset="5604703">
    <nd ref="881802960"/>
    <nd ref="881803050"/>
    <tag k="bridge" v="yes"/>
    <tag k="layer" v="1"/>
    <tag k="name" v="Tocumwal Line"/>
    <tag k="railway" v="rail"/>
    <tag k="source" v="nearmap"/>
  </way>
  <way id="74659082" version="1" timestamp="2010-08-27T06:22:01Z" uid="4467" user="Rosscoe" changeset="5604703">
    <nd ref="361954523"/>
    <nd ref="881803035"/>
    <tag k="highway" v="tertiary"/>
    <tag k="name" v="Beveridge Road"/>
    <tag k="source" v="nearmap"/>
  </way>
  <way id="74659083" version="1" timestamp="2010-08-27T06:22:02Z" uid="4467" user="Rosscoe" changeset="5604703">
    <nd ref="881802899"/>
    <nd ref="705871913"/>
    <nd ref="881803011"/>
    <nd ref="881802963"/>
    <nd ref="881802888"/>
    <tag k="highway" v="secondary"/>
    <tag k="maxspeed" v="100"/>
    <tag k="name" v="Watson Street"/>
    <tag k="source" v="nearmap"/>
  </way>
  <way id="74659084" version="1" timestamp="2010-08-27T06:22:03Z" uid="4467" user="Rosscoe" changeset="5604703">
    <nd ref="881803033"/>
    <nd ref="881802872"/>
    <nd ref="881802973"/>
    <nd ref="881802937"/>
    <nd ref="881802852"/>
    <nd ref="881803047"/>
    <nd ref="881802909"/>
    <nd ref="881802877"/>
    <nd ref="881802977"/>
    <nd ref="881802944"/>
    <nd ref="881802825"/>
    <nd ref="881803031"/>
    <nd ref="881802894"/>
    <nd ref="881802859"/>
    <nd ref="881802957"/>
    <nd ref="881802921"/>
    <nd ref="881803046"/>
    <nd ref="881803008"/>
    <nd ref="881802876"/>
    <nd ref="881802836"/>
    <nd ref="881802964"/>
    <nd ref="881802925"/>
    <nd ref="881803051"/>
    <nd ref="881803013"/>
    <nd ref="881802878"/>
    <nd ref="881802853"/>
    <nd ref="881802946"/>
    <nd ref="881802911"/>
    <nd ref="881803032"/>
    <nd ref="881802978"/>
    <nd ref="881802860"/>
    <nd ref="881802826"/>
    <nd ref="881802922"/>
    <nd ref="881802896"/>
    <nd ref="881803010"/>
    <nd ref="881802958"/>
    <nd ref="881802861"/>
    <nd ref="881802828"/>
    <nd ref="881802927"/>
    <nd ref="881802902"/>
    <nd ref="881803015"/>
    <nd ref="881802965"/>
    <nd ref="881802854"/>
    <nd ref="881803052"/>
    <nd ref="881802912"/>
    <nd ref="881802879"/>
    <nd ref="881802979"/>
    <nd ref="881802947"/>
    <nd ref="881802827"/>
    <nd ref="881803034"/>
    <nd ref="881802900"/>
    <nd ref="881803048"/>
    <nd ref="881803014"/>
    <tag k="highway" v="tertiary"/>
    <tag k="name" v="Glenburnie Road"/>
    <tag k="source" v="nearmap"/>
  </way>
  <way id="74659085" version="1" timestamp="2010-08-27T06:22:04Z" uid="4467" user="Rosscoe" changeset="5604703">
    <nd ref="881803029"/>
    <nd ref="881802866"/>
    <nd ref="881802910"/>
    <nd ref="881802968"/>
    <nd ref="881802931"/>
    <nd ref="881802822"/>
    <nd ref="881803056"/>
    <nd ref="881802874"/>
    <nd ref="881803024"/>
    <nd ref="881802883"/>
    <nd ref="881802920"/>
    <nd ref="881802856"/>
    <nd ref="881803007"/>
    <nd ref="881802950"/>
    <nd ref="881803044"/>
    <nd ref="881802915"/>
    <nd ref="361954521"/>
    <tag k="highway" v="secondary"/>
    <tag k="name" v="Epping - Kilmore Road"/>
    <tag k="ref" v="C729"/>
    <tag k="source" v="nearmap"/>
  </way>
  <way id="74659086" version="1" timestamp="2010-08-27T06:22:05Z" uid="4467" user="Rosscoe" changeset="5604703">
    <nd ref="881802887"/>
    <nd ref="881802952"/>
    <tag k="bridge" v="yes"/>
    <tag k="layer" v="1"/>
    <tag k="name" v="Tocumwal Line"/>
    <tag k="railway" v="rail"/>
    <tag k="source" v="nearmap"/>
  </way>
  <way id="74659087" version="1" timestamp="2010-08-27T06:22:07Z" uid="4467" user="Rosscoe" changeset="5604703">
    <nd ref="881802959"/>
    <nd ref="881802960"/>
    <tag k="name" v="Tocumwal Line"/>
    <tag k="railway" v="rail"/>
    <tag k="source" v="nearmap"/>
  </way>
  <way id="74659089" version="1" timestamp="2010-08-27T06:22:08Z" uid="4467" user="Rosscoe" changeset="5604703">
    <nd ref="881803035"/>
    <nd ref="881803053"/>
    <tag k="bridge" v="yes"/>
    <tag k="highway" v="tertiary"/>
    <tag k="layer" v="1"/>
    <tag k="name" v="Beveridge Road"/>
    <tag k="source" v="nearmap"/>
  </way>
  <way id="74659090" version="1" timestamp="2010-08-27T06:22:09Z" uid="4467" user="Rosscoe" changeset="5604703">
    <nd ref="881802897"/>
    <nd ref="881802959"/>
    <tag k="bridge" v="yes"/>
    <tag k="layer" v="1"/>
    <tag k="name" v="Tocumwal Line"/>
    <tag k="railway" v="rail"/>
    <tag k="source" v="nearmap"/>
  </way>
  <way id="74659091" version="1" timestamp="2010-08-27T06:22:10Z" uid="4467" user="Rosscoe" changeset="5604703">
    <nd ref="712787340"/>
    <nd ref="712787372"/>
    <tag k="cycleway" v="track"/>
    <tag k="foot" v="yes"/>
    <tag k="highway" v="cycleway"/>
    <tag k="source" v="nearmap"/>
  </way>
  <way id="74659173" version="1" timestamp="2010-08-27T06:27:48Z" uid="33382" user="de_muur" changeset="5604752">
    <nd ref="101608556"/>
    <nd ref="101608562"/>
    <nd ref="101608569"/>
    <nd ref="101608575"/>
    <nd ref="320407618"/>
    <nd ref="101608582"/>
    <nd ref="320407617"/>
    <nd ref="101608588"/>
    <nd ref="320704203"/>
    <nd ref="322520886"/>
    <nd ref="101608595"/>
    <nd ref="318691855"/>
    <nd ref="101608600"/>
    <tag k="highway" v="tertiary"/>
    <tag k="name" v="Hauptstraße"/>
    <tag k="ref" v="K 12"/>
    <tag k="surface" v="paved"/>
  </way>
  <way id="74659173" version="2" timestamp="2010-11-23T15:48:36Z" uid="129508" user="WDMittmann" changeset="6440382">
    <nd ref="101608556"/>
    <nd ref="101608562"/>
    <nd ref="101608569"/>
    <nd ref="101608575"/>
    <nd ref="320407618"/>
    <nd ref="101608582"/>
    <nd ref="320407617"/>
    <nd ref="101608588"/>
    <nd ref="320704203"/>
    <nd ref="322520886"/>
    <nd ref="101608595"/>
    <nd ref="318691855"/>
    <nd ref="101608600"/>
    <tag k="highway" v="tertiary"/>
    <tag k="lcn" v="yes"/>
    <tag k="name" v="Hauptstraße"/>
    <tag k="ref" v="K 12"/>
    <tag k="surface" v="paved"/>
  </way>
  <way id="74659173" version="3" timestamp="2011-03-12T10:23:18Z" uid="134506" user="kele7" changeset="7531496">
    <nd ref="101608556"/>
    <nd ref="101608562"/>
    <nd ref="101608569"/>
    <nd ref="101608575"/>
    <nd ref="320407618"/>
    <nd ref="101608582"/>
    <nd ref="320407617"/>
    <nd ref="101608588"/>
    <tag k="highway" v="tertiary"/>
    <tag k="lcn" v="yes"/>
    <tag k="name" v="Hauptstraße"/>
    <tag k="ref" v="K 12"/>
    <tag k="surface" v="paved"/>
  </way>
  <way id="74659173" version="4" timestamp="2012-03-24T14:24:27Z" uid="423438" user="streele" changeset="11084890"/>
  <way id="74659174" version="1" timestamp="2010-08-27T06:27:48Z" uid="33382" user="de_muur" changeset="5604752">
    <nd ref="101608797"/>
    <nd ref="321226518"/>
    <nd ref="31912344"/>
    <nd ref="317658938"/>
    <nd ref="881804312"/>
    <nd ref="31912345"/>
    <tag k="highway" v="tertiary"/>
    <tag k="maxspeed" v="50"/>
    <tag k="name" v="Schloßstraße"/>
    <tag k="ref" v="K 61"/>
    <tag k="surface" v="paved"/>
  </way>
  <way id="74659174" version="2" timestamp="2012-03-24T14:58:49Z" uid="423438" user="streele" changeset="11085271"/>
  <way id="74659175" version="1" timestamp="2010-08-27T06:27:48Z" uid="33382" user="de_muur" changeset="5604752">
    <nd ref="101608794"/>
    <nd ref="31912342"/>
    <nd ref="269225943"/>
    <nd ref="101608428"/>
    <nd ref="320218885"/>
    <nd ref="684606667"/>
    <nd ref="31912343"/>
    <nd ref="448850365"/>
    <nd ref="101608797"/>
    <tag k="highway" v="tertiary"/>
    <tag k="maxspeed" v="50"/>
    <tag k="name" v="Schloßstraße"/>
    <tag k="ref" v="K 61"/>
    <tag k="surface" v="paved"/>
  </way>
  <way id="74659175" version="2" timestamp="2011-01-04T21:53:26Z" uid="134506" user="kele7" changeset="6866393">
    <nd ref="101608794"/>
    <nd ref="1082870516"/>
    <nd ref="31912342"/>
    <nd ref="269225943"/>
    <nd ref="101608428"/>
    <nd ref="320218885"/>
    <nd ref="684606667"/>
    <nd ref="31912343"/>
    <nd ref="448850365"/>
    <nd ref="101608797"/>
    <tag k="highway" v="tertiary"/>
    <tag k="maxspeed" v="50"/>
    <tag k="name" v="Schloßstraße"/>
    <tag k="ref" v="K 61"/>
    <tag k="surface" v="paved"/>
  </way>
  <way id="74659175" version="3" timestamp="2012-03-24T14:58:48Z" uid="423438" user="streele" changeset="11085271"/>
  <way id="74659176" version="1" timestamp="2010-08-27T06:27:48Z" uid="33382" user="de_muur" changeset="5604752">
    <nd ref="100398074"/>
    <nd ref="100398069"/>
    <nd ref="100398063"/>
    <nd ref="100398057"/>
    <nd ref="100398054"/>
    <nd ref="100398052"/>
    <nd ref="100398048"/>
    <nd ref="100303541"/>
    <nd ref="100303538"/>
    <nd ref="100303534"/>
    <nd ref="100303533"/>
    <nd ref="100303530"/>
    <nd ref="100303526"/>
    <nd ref="100303523"/>
    <nd ref="93758825"/>
    <nd ref="93758830"/>
    <nd ref="93758835"/>
    <nd ref="93758839"/>
    <nd ref="93758841"/>
    <nd ref="100303514"/>
    <nd ref="100303518"/>
    <nd ref="100303521"/>
    <nd ref="100303476"/>
    <tag k="highway" v="tertiary"/>
    <tag k="name" v="Sattenfelder Straße"/>
    <tag k="ref" v="K 61"/>
    <tag k="surface" v="paved"/>
  </way>
  <way id="74659176" version="2" timestamp="2010-08-27T20:12:14Z" uid="33382" user="de_muur" changeset="5611025">
    <nd ref="100398074"/>
    <nd ref="100398069"/>
    <nd ref="100398063"/>
    <nd ref="100398057"/>
    <nd ref="100398054"/>
    <nd ref="100398052"/>
    <nd ref="100398048"/>
    <nd ref="100303541"/>
    <nd ref="100303538"/>
    <nd ref="100303534"/>
    <nd ref="100303533"/>
    <nd ref="100303530"/>
    <nd ref="100303526"/>
    <nd ref="100303523"/>
    <nd ref="93758825"/>
    <nd ref="93758830"/>
    <nd ref="93758835"/>
    <nd ref="93758839"/>
    <nd ref="93758841"/>
    <nd ref="100303514"/>
    <tag k="highway" v="tertiary"/>
    <tag k="name" v="Sattenfelder Straße"/>
    <tag k="ref" v="K 61"/>
    <tag k="surface" v="paved"/>
  </way>
  <way id="74659176" version="3" timestamp="2012-03-25T23:24:23Z" uid="423438" user="streele" changeset="11101022"/>
  <way id="74659177" version="1" timestamp="2010-08-27T06:27:49Z" uid="33382" user="de_muur" changeset="5604752">
    <nd ref="881804313"/>
    <nd ref="518575214"/>
    <nd ref="471298811"/>
    <nd ref="31912332"/>
    <nd ref="320682031"/>
    <nd ref="31912334"/>
    <nd ref="100398098"/>
    <tag k="highway" v="residential"/>
    <tag k="maxspeed" v="30"/>
    <tag k="name" v="Fischbeker Weg"/>
    <tag k="surface" v="paved"/>
  </way>
  <way id="74659177" version="2" timestamp="2011-06-22T10:07:41Z" uid="83876" user="BurnyB" changeset="8512693">
    <nd ref="881804313"/>
    <nd ref="518575214"/>
    <nd ref="471298811"/>
    <nd ref="1334388120"/>
    <nd ref="31912332"/>
    <nd ref="320682031"/>
    <nd ref="31912334"/>
    <nd ref="100398098"/>
    <tag k="highway" v="residential"/>
    <tag k="maxspeed" v="30"/>
    <tag k="name" v="Fischbeker Weg"/>
    <tag k="surface" v="paved"/>
  </way>
  <way id="74659177" version="3" timestamp="2012-03-24T14:58:40Z" uid="423438" user="streele" changeset="11085271">
    <nd ref="881804313"/>
    <nd ref="518575214"/>
    <nd ref="471298811"/>
    <nd ref="1334388120"/>
    <nd ref="31912332"/>
    <nd ref="320682031"/>
    <nd ref="1688762630"/>
    <nd ref="31912334"/>
    <tag k="highway" v="residential"/>
    <tag k="maxspeed" v="30"/>
    <tag k="name" v="Fischbeker Weg"/>
    <tag k="surface" v="paved"/>
  </way>
  <way id="74659177" version="4" timestamp="2012-03-24T15:03:43Z" uid="423438" user="streele" changeset="11085322"/>
  <way id="74659242" version="2" timestamp="2010-08-27T15:12:12Z" uid="4467" user="Rosscoe" changeset="5608646">
    <nd ref="881812017"/>
    <nd ref="595694986"/>
    <tag k="highway" v="residential"/>
    <tag k="name" v="McCoy Place"/>
  </way>
  <way id="74659242" version="3" timestamp="2010-08-28T00:30:16Z" uid="4467" user="Rosscoe" changeset="5612499"/>
  <way id="74659243" version="2" timestamp="2010-08-27T14:55:51Z" uid="4467" user="Rosscoe" changeset="5608488">
    <nd ref="881812041"/>
    <nd ref="595694980"/>
    <tag k="highway" v="residential"/>
    <tag k="name" v="Quintal Court"/>
  </way>
  <way id="74659244" version="2" timestamp="2010-08-27T15:12:23Z" uid="4467" user="Rosscoe" changeset="5608646">
    <nd ref="881812049"/>
    <nd ref="881812051"/>
    <nd ref="595694946"/>
    <tag k="highway" v="residential"/>
    <tag k="name" v="Mission Place"/>
  </way>
  <way id="74659245" version="2" timestamp="2011-01-15T14:56:36Z" uid="4467" user="Rosscoe" changeset="6977766">
    <nd ref="881812364"/>
    <nd ref="881812367"/>
    <nd ref="881812372"/>
    <nd ref="881812375"/>
    <nd ref="595692437"/>
    <tag k="highway" v="residential"/>
    <tag k="name" v="Little Green Gardens"/>
  </way>
  <way id="74659246" version="2" timestamp="2011-01-08T04:01:15Z" uid="4467" user="Rosscoe" changeset="6899945">
    <nd ref="881812377"/>
    <nd ref="881812380"/>
    <nd ref="595692069"/>
    <tag k="highway" v="residential"/>
    <tag k="name" v="Howe Elbow"/>
  </way>
  <way id="74659247" version="2" timestamp="2010-08-27T15:10:13Z" uid="4467" user="Rosscoe" changeset="5608623">
    <nd ref="881812399"/>
    <nd ref="881812405"/>
    <nd ref="595692035"/>
    <tag k="highway" v="residential"/>
    <tag k="name" v="Duncombe Grove"/>
  </way>
  <way id="74659287" version="1" timestamp="2010-08-27T06:37:49Z" uid="4467" user="Rosscoe" changeset="5604817">
    <nd ref="598786538"/>
    <nd ref="598786539"/>
    <nd ref="598786537"/>
    <tag k="highway" v="residential"/>
    <tag k="maxspeed" v="50"/>
    <tag k="name" v="Wattle Court"/>
  </way>
</osm>
