<?xml version='1.0' encoding='UTF-8'?>
<osm version="0.6" generator="libosmium/2.20.0">
  <way id="74753360" version="5" timestamp="2010-10-15T14:25:07Z" uid="67441" user="u14183" changeset="6049678">
    <nd ref="883108049"/>
    <nd ref="883108016"/>
    <nd ref="885924079"/>
    <nd ref="885924096"/>
    <nd ref="885924107"/>
    <nd ref="885924113"/>
    <nd ref="885924121"/>
    <nd ref="885924091"/>
    <nd ref="885924105"/>
    <nd ref="885924111"/>
    <nd ref="885924120"/>
    <nd ref="950209338"/>
    <nd ref="253997442"/>
    <nd ref="296433306"/>
    <nd ref="35700370"/>
    <nd ref="253997797"/>
    <tag k="highway" v="secondary"/>
    <tag k="layer" v="0"/>
    <tag k="ref" v="L 66"/>
  </way>
  <way id="74753360" version="6" timestamp="2010-10-20T18:20:05Z" uid="96874" user="Quedel" changeset="6118586">
    <nd ref="883108049"/>
    <nd ref="883108016"/>
    <nd ref="885924079"/>
    <nd ref="885924096"/>
    <nd ref="885924107"/>
    <nd ref="885924113"/>
    <nd ref="885924121"/>
    <nd ref="885924091"/>
    <nd ref="885924105"/>
    <nd ref="885924111"/>
    <nd ref="885924120"/>
    <nd ref="950209338"/>
    <nd ref="253997442"/>
    <nd ref="296433306"/>
    <nd ref="35700370"/>
    <nd ref="253997797"/>
    <tag k="highway" v="secondary"/>
    <tag k="layer" v="0"/>
    <tag k="parking:lane:both" v="no_parking"/>
    <tag k="ref" v="L 66"/>
  </way>
  <way id="74753360" version="7" timestamp="2010-12-22T21:27:49Z" uid="89932" user="matchman" changeset="6740198">
    <nd ref="883108049"/>
    <nd ref="885924096"/>
    <nd ref="885924107"/>
    <nd ref="885924113"/>
    <nd ref="885924121"/>
    <nd ref="885924091"/>
    <nd ref="885924105"/>
    <nd ref="885924111"/>
    <nd ref="885924120"/>
    <nd ref="950209338"/>
    <nd ref="253997442"/>
    <nd ref="296433306"/>
    <nd ref="35700370"/>
    <nd ref="253997797"/>
    <tag k="highway" v="secondary"/>
    <tag k="layer" v="0"/>
    <tag k="parking:lane:both" v="no_parking"/>
    <tag k="ref" v="L 66"/>
  </way>
  <way id="74753360" version="8" timestamp="2011-04-08T22:11:34Z" uid="42123" user="Ropino" changeset="7808736">
    <nd ref="883108049"/>
    <nd ref="885924096"/>
    <nd ref="885924107"/>
    <nd ref="885924113"/>
    <nd ref="885924121"/>
    <nd ref="885924091"/>
    <nd ref="885924105"/>
    <nd ref="885924111"/>
    <nd ref="885924120"/>
    <nd ref="950209338"/>
    <nd ref="253997442"/>
    <nd ref="296433306"/>
    <nd ref="35700370"/>
    <nd ref="253997797"/>
    <tag k="highway" v="secondary"/>
    <tag k="parking:lane:both" v="no_parking"/>
    <tag k="ref" v="L 66"/>
  </way>
  <way id="74753370" version="2" timestamp="2010-10-15T21:26:35Z" uid="96874" user="Quedel" changeset="6051410">
    <nd ref="883107840"/>
    <nd ref="883107794"/>
    <nd ref="33506164"/>
    <nd ref="33506163"/>
    <nd ref="389908564"/>
    <nd ref="33506166"/>
    <nd ref="33506165"/>
    <nd ref="253745978"/>
    <tag k="highway" v="secondary"/>
    <tag k="name" v="Quedlinburger Straße"/>
    <tag k="parking:lane:both" v="no_parking"/>
    <tag k="ref" v="L 85"/>
  </way>
  <way id="74753370" version="3" timestamp="2010-12-22T21:27:50Z" uid="89932" user="matchman" changeset="6740198">
    <nd ref="883107840"/>
    <nd ref="33506163"/>
    <nd ref="389908564"/>
    <nd ref="33506166"/>
    <nd ref="33506165"/>
    <nd ref="253745978"/>
    <tag k="highway" v="secondary"/>
    <tag k="name" v="Quedlinburger Straße"/>
    <tag k="parking:lane:both" v="no_parking"/>
    <tag k="ref" v="L 85"/>
  </way>
  <way id="74753370" version="4" timestamp="2011-05-29T18:16:11Z" uid="89932" user="matchman" changeset="8284255">
    <nd ref="883107840"/>
    <nd ref="33506163"/>
    <nd ref="389908564"/>
    <nd ref="33506166"/>
    <nd ref="1305097062"/>
    <nd ref="33506165"/>
    <nd ref="1305097065"/>
    <nd ref="1305097312"/>
    <nd ref="1305097112"/>
    <nd ref="253745978"/>
    <tag k="highway" v="secondary"/>
    <tag k="name" v="Quedlinburger Straße"/>
    <tag k="parking:lane:both" v="no_parking"/>
    <tag k="ref" v="L 85"/>
  </way>
  <way id="74753375" version="5" timestamp="2010-10-17T19:32:27Z" uid="96874" user="Quedel" changeset="6070824">
    <nd ref="883107773"/>
    <nd ref="883107878"/>
    <nd ref="891547752"/>
    <nd ref="891551633"/>
    <nd ref="891551665"/>
    <tag k="construction" v="secondary"/>
    <tag k="highway" v="construction"/>
    <tag k="layer" v="0"/>
    <tag k="note" v="incomplete"/>
    <tag k="ref" v="L 242"/>
  </way>
  <way id="74753375" version="6" timestamp="2011-06-03T21:33:00Z" uid="465109" user="Commifreak" changeset="8334314">
    <nd ref="883107773"/>
    <nd ref="883107878"/>
    <nd ref="891547752"/>
    <nd ref="891551633"/>
    <nd ref="891551665"/>
    <tag k="highway" v="secondary"/>
    <tag k="layer" v="0"/>
    <tag k="maxspeed" v="100"/>
    <tag k="parking:lane:both" v="no_parking"/>
    <tag k="ref" v="L 242"/>
  </way>
  <way id="74753375" version="7" timestamp="2011-06-04T22:09:06Z" uid="89932" user="matchman" changeset="8343717">
    <nd ref="883107773"/>
    <nd ref="883107878"/>
    <nd ref="891547752"/>
    <nd ref="1312386173"/>
    <nd ref="891551633"/>
    <nd ref="1312386163"/>
    <nd ref="1312386154"/>
    <nd ref="1312386165"/>
    <nd ref="891551665"/>
    <tag k="highway" v="secondary"/>
    <tag k="layer" v="0"/>
    <tag k="maxspeed" v="100"/>
    <tag k="parking:lane:both" v="no_parking"/>
    <tag k="ref" v="L 242"/>
  </way>
  <way id="74753375" version="8" timestamp="2011-06-07T19:12:20Z" uid="301419" user="heinzpeter47" changeset="8373090">
    <nd ref="1315413915"/>
    <nd ref="883107878"/>
    <nd ref="891547752"/>
    <nd ref="1312386173"/>
    <nd ref="891551633"/>
    <nd ref="1312386163"/>
    <nd ref="1315413912"/>
    <nd ref="1315413942"/>
    <nd ref="1315413937"/>
    <nd ref="1315413927"/>
    <nd ref="1315413953"/>
    <nd ref="1315413923"/>
    <nd ref="1315413938"/>
    <nd ref="1312386154"/>
    <nd ref="1312386165"/>
    <nd ref="891551665"/>
    <tag k="highway" v="secondary"/>
    <tag k="layer" v="0"/>
    <tag k="maxspeed" v="100"/>
    <tag k="parking:lane:both" v="no_parking"/>
    <tag k="ref" v="L 242"/>
  </way>
  <way id="74753375" version="9" timestamp="2011-06-09T12:02:48Z" uid="39691" user="yzemaze" changeset="8386675">
    <nd ref="1057661242"/>
    <nd ref="883107878"/>
    <nd ref="891547752"/>
    <nd ref="1312386173"/>
    <nd ref="891551633"/>
    <nd ref="1312386163"/>
    <nd ref="1315413912"/>
    <nd ref="1315413942"/>
    <nd ref="1315413937"/>
    <nd ref="1315413927"/>
    <nd ref="1315413953"/>
    <nd ref="1315413923"/>
    <nd ref="1315413938"/>
    <nd ref="1312386154"/>
    <nd ref="1312386165"/>
    <nd ref="891551665"/>
    <tag k="highway" v="secondary"/>
    <tag k="layer" v="0"/>
    <tag k="maxspeed" v="100"/>
    <tag k="parking:lane:both" v="no_parking"/>
    <tag k="ref" v="L 242"/>
  </way>
  <way id="74753375" version="10" timestamp="2011-10-19T15:59:26Z" uid="490470" user="59rbc" changeset="9601102">
    <nd ref="883107773"/>
    <nd ref="1312386173"/>
    <nd ref="891551633"/>
    <nd ref="1312386163"/>
    <nd ref="1315413912"/>
    <nd ref="1315413942"/>
    <nd ref="1315413937"/>
    <nd ref="1315413927"/>
    <nd ref="1315413953"/>
    <nd ref="1315413923"/>
    <nd ref="1315413938"/>
    <nd ref="1312386154"/>
    <nd ref="1312386165"/>
    <nd ref="891551665"/>
    <tag k="highway" v="secondary"/>
    <tag k="layer" v="0"/>
    <tag k="maxspeed" v="100"/>
    <tag k="parking:lane:both" v="no_parking"/>
    <tag k="ref" v="L 242"/>
  </way>
  <way id="74753375" version="11" timestamp="2012-01-03T18:52:52Z" uid="429794" user="SennaHB" changeset="10284424">
    <nd ref="883107773"/>
    <nd ref="1312386173"/>
    <nd ref="891551633"/>
    <nd ref="1312386163"/>
    <nd ref="1315413912"/>
    <nd ref="1315413942"/>
    <nd ref="1315413937"/>
    <nd ref="1315413927"/>
    <nd ref="1315413953"/>
    <nd ref="1315413923"/>
    <nd ref="1315413938"/>
    <nd ref="1312386154"/>
    <nd ref="1312386165"/>
    <nd ref="891551665"/>
    <tag k="highway" v="secondary"/>
    <tag k="layer" v="0"/>
    <tag k="maxspeed" v="100"/>
    <tag k="parking:lane:both" v="no_parking"/>
    <tag k="ref" v="L 66"/>
  </way>
</osm>
