<?xml version='1.0' encoding='UTF-8'?>
<osm version="0.6" generator="libosmium/2.20.0">
  <way id="75101204" version="2" timestamp="2010-10-21T16:18:48Z" uid="59758" user="rendle" changeset="6129004">
    <nd ref="886366111"/>
    <nd ref="380867390"/>
    <nd ref="645778369"/>
    <nd ref="367925223"/>
    <nd ref="685093707"/>
    <nd ref="959518690"/>
    <nd ref="367925225"/>
    <tag k="highway" v="secondary"/>
    <tag k="name" v="Dendermondse Steenweg"/>
    <tag k="ref" v="N470"/>
  </way>
  <way id="75101204" version="3" timestamp="2010-11-03T08:51:29Z" uid="313884" user="el Vinno" changeset="6274166">
    <nd ref="886366111"/>
    <nd ref="380867390"/>
    <nd ref="645778369"/>
    <nd ref="367925223"/>
    <nd ref="685093707"/>
    <nd ref="959518690"/>
    <nd ref="367925225"/>
    <tag k="highway" v="secondary"/>
    <tag k="maxspeed" v="70"/>
    <tag k="name" v="Dendermondse Steenweg"/>
    <tag k="ref" v="N470"/>
  </way>
  <way id="75101204" version="4" timestamp="2011-02-17T12:02:17Z" uid="8196" user="raskas" changeset="7312444">
    <nd ref="367925225"/>
    <nd ref="959518690"/>
    <nd ref="685093707"/>
    <nd ref="367925223"/>
    <nd ref="645778369"/>
    <nd ref="380867390"/>
    <nd ref="886366111"/>
    <nd ref="1157439634"/>
    <tag k="highway" v="secondary"/>
    <tag k="maxspeed" v="70"/>
    <tag k="name" v="Dendermondse Steenweg"/>
    <tag k="ref" v="N470"/>
  </way>
  <way id="75101204" version="5" timestamp="2012-01-16T23:20:55Z" uid="138772" user="lodde1949" changeset="10413510"/>
</osm>
