<?xml version='1.0' encoding='UTF-8'?>
<osm version="0.6" generator="libosmium/2.20.0">
  <way id="75393603" version="3" timestamp="2010-09-02T04:21:50Z" uid="115477" user="wowik" changeset="5658916">
    <nd ref="305052665"/>
    <nd ref="877217097"/>
    <nd ref="877220350"/>
    <nd ref="451737650"/>
    <nd ref="890216909"/>
    <tag k="highway" v="secondary"/>
    <tag k="lanes" v="2"/>
    <tag k="layer" v="0"/>
    <tag k="name" v="Заводская улица"/>
    <tag k="omkum:code" v="07547"/>
    <tag k="oneway" v="yes"/>
    <tag k="sorting_name" v="Заводская  улица"/>
  </way>
  <way id="75393603" version="4" timestamp="2010-09-02T10:41:39Z" uid="115477" user="wowik" changeset="5661060">
    <nd ref="305052665"/>
    <nd ref="892783517"/>
    <nd ref="877217097"/>
    <nd ref="877220350"/>
    <nd ref="451737650"/>
    <nd ref="890216909"/>
    <tag k="highway" v="secondary"/>
    <tag k="lanes" v="2"/>
    <tag k="layer" v="0"/>
    <tag k="name" v="Заводская улица"/>
    <tag k="omkum:code" v="07547"/>
    <tag k="oneway" v="yes"/>
    <tag k="sorting_name" v="Заводская  улица"/>
  </way>
  <way id="75393603" version="5" timestamp="2010-09-02T11:26:32Z" uid="241531" user="dik_man" changeset="5661425">
    <nd ref="305052665"/>
    <nd ref="877217097"/>
    <nd ref="877220350"/>
    <nd ref="451737650"/>
    <nd ref="890216909"/>
    <tag k="highway" v="secondary"/>
    <tag k="lanes" v="2"/>
    <tag k="layer" v="0"/>
    <tag k="name" v="Заводская улица"/>
    <tag k="omkum:code" v="07547"/>
    <tag k="oneway" v="yes"/>
    <tag k="sorting_name" v="Заводская  улица"/>
  </way>
  <way id="75393603" version="6" timestamp="2010-11-11T06:27:28Z" uid="115477" user="wowik" changeset="6341308">
    <nd ref="305052665"/>
    <nd ref="877217097"/>
    <nd ref="877220350"/>
    <nd ref="451737650"/>
    <tag k="highway" v="secondary"/>
    <tag k="lanes" v="2"/>
    <tag k="name" v="улица Ленина"/>
    <tag k="oneway" v="yes"/>
  </way>
</osm>
