<?xml version='1.0' encoding='UTF-8'?>
<osm version="0.6" generator="libosmium/2.20.0">
  <way id="75456441" version="1" timestamp="2010-08-31T18:50:48Z" uid="49111" user="Markus B" changeset="5648101">
    <nd ref="890859573"/>
    <nd ref="890859699"/>
    <nd ref="890859664"/>
    <nd ref="890859634"/>
    <nd ref="890859612"/>
    <nd ref="890859573"/>
    <tag k="addr:city" v="St. Gallen"/>
    <tag k="addr:country" v="CH"/>
    <tag k="addr:housenumber" v="1"/>
    <tag k="addr:postcode" v="9000"/>
    <tag k="addr:street" v="Sternackerstrasse"/>
    <tag k="building" v="yes"/>
    <tag k="shop" v="car_repair"/>
  </way>
  <way id="75456441" version="2" timestamp="2010-09-09T16:43:24Z" uid="49111" user="Markus B" changeset="5734279">
    <nd ref="890859573"/>
    <nd ref="890859699"/>
    <nd ref="890859664"/>
    <nd ref="890859634"/>
    <nd ref="890859612"/>
    <nd ref="890859573"/>
    <tag k="addr:city" v="St. Gallen"/>
    <tag k="addr:country" v="CH"/>
    <tag k="addr:housenumber" v="1"/>
    <tag k="addr:postcode" v="9000"/>
    <tag k="addr:street" v="Sternackerstrasse"/>
    <tag k="building" v="yes"/>
    <tag k="name" v="Bodan Garage"/>
    <tag k="shop" v="car_repair"/>
  </way>
  <way id="75456445" version="1" timestamp="2010-08-31T18:50:49Z" uid="49111" user="Markus B" changeset="5648101">
    <nd ref="890859585"/>
    <nd ref="890859654"/>
    <nd ref="890859680"/>
    <nd ref="890859707"/>
    <nd ref="890859641"/>
    <nd ref="890859711"/>
    <nd ref="890859731"/>
    <nd ref="890859585"/>
    <tag k="addr:city" v="St. Gallen"/>
    <tag k="addr:country" v="CH"/>
    <tag k="addr:housenumber" v="48"/>
    <tag k="addr:postcode" v="9000"/>
    <tag k="addr:street" v="Rorschacherstrasse"/>
    <tag k="building" v="yes"/>
  </way>
  <way id="75456445" version="2" timestamp="2010-09-09T16:43:27Z" uid="49111" user="Markus B" changeset="5734279">
    <nd ref="890859585"/>
    <nd ref="890859654"/>
    <nd ref="890859680"/>
    <nd ref="890859707"/>
    <nd ref="890859641"/>
    <nd ref="890859711"/>
    <nd ref="890859731"/>
    <nd ref="890859585"/>
    <tag k="addr:city" v="St. Gallen"/>
    <tag k="addr:country" v="CH"/>
    <tag k="addr:housenumber" v="48"/>
    <tag k="addr:postcode" v="9000"/>
    <tag k="addr:street" v="Rorschacherstrasse"/>
    <tag k="building" v="yes"/>
    <tag k="tourism" v="hotel"/>
  </way>
  <way id="75456449" version="1" timestamp="2010-08-31T18:50:49Z" uid="49111" user="Markus B" changeset="5648101">
    <nd ref="890859708"/>
    <nd ref="890859659"/>
    <nd ref="890859699"/>
    <nd ref="890859573"/>
    <nd ref="890859702"/>
    <nd ref="890859708"/>
    <tag k="building" v="yes"/>
  </way>
  <way id="75456449" version="2" timestamp="2010-09-09T16:43:24Z" uid="49111" user="Markus B" changeset="5734279">
    <nd ref="890859708"/>
    <nd ref="890859659"/>
    <nd ref="890859699"/>
    <nd ref="890859573"/>
    <nd ref="890859702"/>
    <nd ref="890859708"/>
    <tag k="addr:city" v="Baden"/>
    <tag k="addr:country" v="CH"/>
    <tag k="addr:housenumber" v="3"/>
    <tag k="addr:postcode" v="5400"/>
    <tag k="addr:street" v="Sternackerstrasse"/>
    <tag k="building" v="yes"/>
  </way>
  <way id="75456451" version="1" timestamp="2010-08-31T18:50:49Z" uid="49111" user="Markus B" changeset="5648101">
    <nd ref="890859575"/>
    <nd ref="890859708"/>
    <nd ref="890859659"/>
    <nd ref="890859636"/>
    <nd ref="890859631"/>
    <nd ref="890859567"/>
    <nd ref="890859575"/>
    <tag k="building" v="yes"/>
  </way>
  <way id="75456451" version="2" timestamp="2010-09-09T16:43:28Z" uid="49111" user="Markus B" changeset="5734279">
    <nd ref="890859575"/>
    <nd ref="890859708"/>
    <nd ref="890859659"/>
    <nd ref="890859636"/>
    <nd ref="890859567"/>
    <nd ref="890859575"/>
    <tag k="building" v="yes"/>
  </way>
  <way id="75456453" version="1" timestamp="2010-08-31T18:50:49Z" uid="49111" user="Markus B" changeset="5648101">
    <nd ref="890859597"/>
    <nd ref="890859638"/>
    <nd ref="890859574"/>
    <nd ref="890859657"/>
    <nd ref="890859597"/>
    <tag k="building" v="yes"/>
    <tag k="note" v="FIXME"/>
  </way>
  <way id="75456453" version="2" timestamp="2010-09-09T16:43:28Z" uid="49111" user="Markus B" changeset="5734279">
    <nd ref="890859597"/>
    <nd ref="890859638"/>
    <nd ref="890859574"/>
    <nd ref="904185734"/>
    <nd ref="904185774"/>
    <nd ref="904185729"/>
    <nd ref="904185764"/>
    <nd ref="890859657"/>
    <nd ref="890859597"/>
    <tag k="building" v="yes"/>
    <tag k="note" v="FIXME"/>
  </way>
  <way id="75456453" version="3" timestamp="2011-08-07T17:53:40Z" uid="441118" user="Geosign" changeset="8949988">
    <nd ref="890859597"/>
    <nd ref="890859638"/>
    <nd ref="890859574"/>
    <nd ref="904185734"/>
    <nd ref="904185774"/>
    <nd ref="904185729"/>
    <nd ref="1389962297"/>
    <nd ref="904185764"/>
    <nd ref="890859657"/>
    <nd ref="890859597"/>
    <tag k="building" v="yes"/>
    <tag k="note" v="FIXME"/>
  </way>
  <way id="75456453" version="4" timestamp="2011-11-12T22:57:44Z" uid="44456" user="twalter" changeset="9809569">
    <nd ref="890859597"/>
    <nd ref="890859638"/>
    <nd ref="890859574"/>
    <nd ref="904185734"/>
    <nd ref="904185774"/>
    <nd ref="904185729"/>
    <nd ref="1389962297"/>
    <nd ref="904185764"/>
    <nd ref="890859657"/>
    <nd ref="890859597"/>
    <tag k="building" v="yes"/>
  </way>
  <way id="75456456" version="1" timestamp="2010-08-31T18:50:50Z" uid="49111" user="Markus B" changeset="5648101">
    <nd ref="890859683"/>
    <nd ref="890859710"/>
    <nd ref="890859591"/>
    <nd ref="890859622"/>
    <nd ref="890859634"/>
    <nd ref="890859612"/>
    <nd ref="890859619"/>
    <nd ref="890859683"/>
    <tag k="addr:city" v="St. Gallen"/>
    <tag k="addr:country" v="CH"/>
    <tag k="addr:housenumber" v="44"/>
    <tag k="addr:postcode" v="9000"/>
    <tag k="addr:street" v="Rorschacherstrasse"/>
    <tag k="building" v="yes"/>
  </way>
  <way id="75456459" version="1" timestamp="2010-08-31T18:50:50Z" uid="49111" user="Markus B" changeset="5648101">
    <nd ref="890859687"/>
    <nd ref="890859722"/>
    <nd ref="890859705"/>
    <nd ref="890859606"/>
    <nd ref="890859687"/>
    <tag k="leisure" v="pitch"/>
    <tag k="sport" v="soccer"/>
  </way>
  <way id="75456459" version="2" timestamp="2010-09-09T16:43:29Z" uid="49111" user="Markus B" changeset="5734279">
    <nd ref="890859687"/>
    <nd ref="890859722"/>
    <nd ref="890859705"/>
    <nd ref="890859606"/>
    <nd ref="890859687"/>
    <tag k="leisure" v="pitch"/>
    <tag k="name" v="Fussball"/>
    <tag k="sport" v="soccer"/>
  </way>
  <way id="75456460" version="1" timestamp="2010-08-31T18:50:50Z" uid="49111" user="Markus B" changeset="5648101">
    <nd ref="890859696"/>
    <nd ref="890859731"/>
    <nd ref="890859711"/>
    <nd ref="890859677"/>
    <nd ref="890859596"/>
    <nd ref="890859662"/>
    <nd ref="890859621"/>
    <nd ref="890859564"/>
    <nd ref="890859553"/>
    <nd ref="890859588"/>
    <nd ref="890859640"/>
    <nd ref="890859729"/>
    <nd ref="890859570"/>
    <nd ref="890859696"/>
    <tag k="addr:city" v="St. Gallen"/>
    <tag k="addr:country" v="CH"/>
    <tag k="addr:housenumber" v="50"/>
    <tag k="addr:postcode" v="9000"/>
    <tag k="addr:street" v="Rorschacherstrasse"/>
    <tag k="building" v="yes"/>
    <tag k="source" v="Bauplan"/>
  </way>
  <way id="75456460" version="2" timestamp="2010-09-09T16:43:27Z" uid="49111" user="Markus B" changeset="5734279">
    <nd ref="890859696"/>
    <nd ref="890859731"/>
    <nd ref="890859711"/>
    <nd ref="890859677"/>
    <nd ref="890859596"/>
    <nd ref="890859662"/>
    <nd ref="890859621"/>
    <nd ref="890859564"/>
    <nd ref="890859553"/>
    <nd ref="890859588"/>
    <nd ref="890859640"/>
    <nd ref="890859729"/>
    <nd ref="890859570"/>
    <nd ref="890859696"/>
    <tag k="addr:city" v="St. Gallen"/>
    <tag k="addr:country" v="CH"/>
    <tag k="addr:housenumber" v="50"/>
    <tag k="addr:postcode" v="9000"/>
    <tag k="addr:street" v="Rorschacherstrasse"/>
    <tag k="building" v="yes"/>
    <tag k="source" v="Bauplan"/>
    <tag k="tourism" v="hotel"/>
  </way>
  <way id="75456463" version="1" timestamp="2010-08-31T18:50:50Z" uid="49111" user="Markus B" changeset="5648101">
    <nd ref="890859680"/>
    <nd ref="890859654"/>
    <nd ref="890859585"/>
    <nd ref="890859710"/>
    <nd ref="890859591"/>
    <nd ref="890859595"/>
    <nd ref="890859680"/>
    <tag k="addr:city" v="St. Gallen"/>
    <tag k="addr:country" v="CH"/>
    <tag k="addr:housenumber" v="46"/>
    <tag k="addr:postcode" v="9000"/>
    <tag k="addr:street" v="Rorschacherstrasse"/>
    <tag k="building" v="yes"/>
  </way>
  <way id="75456467" version="1" timestamp="2010-08-31T18:50:51Z" uid="49111" user="Markus B" changeset="5648101">
    <nd ref="890859561"/>
    <nd ref="890859636"/>
    <nd ref="890859631"/>
    <nd ref="890859651"/>
    <nd ref="890859561"/>
    <tag k="building" v="yes"/>
  </way>
  <way id="75456467" version="2" timestamp="2010-09-09T16:43:30Z" uid="49111" user="Markus B" changeset="5734279"/>
  <way id="75456468" version="1" timestamp="2010-08-31T18:50:51Z" uid="49111" user="Markus B" changeset="5648101">
    <nd ref="890859614"/>
    <nd ref="890859651"/>
    <nd ref="890859561"/>
    <nd ref="890859642"/>
    <nd ref="890859614"/>
    <tag k="building" v="yes"/>
  </way>
  <way id="75456468" version="2" timestamp="2010-09-09T16:43:28Z" uid="49111" user="Markus B" changeset="5734279">
    <nd ref="890859614"/>
    <nd ref="890859651"/>
    <nd ref="890859561"/>
    <nd ref="890859642"/>
    <nd ref="890859614"/>
    <tag k="addr:city" v="St. Gallen"/>
    <tag k="addr:country" v="CH"/>
    <tag k="addr:housenumber" v="5"/>
    <tag k="addr:postcode" v="9000"/>
    <tag k="addr:street" v="Schwalbenstrasse"/>
    <tag k="amenity" v="kindergarten"/>
    <tag k="building" v="yes"/>
  </way>
  <way id="75456471" version="1" timestamp="2010-08-31T18:50:51Z" uid="49111" user="Markus B" changeset="5648101">
    <nd ref="890859561"/>
    <nd ref="890859729"/>
    <nd ref="890859570"/>
    <nd ref="890859642"/>
    <nd ref="890859561"/>
    <tag k="building" v="yes"/>
  </way>
  <way id="75456471" version="2" timestamp="2010-09-09T16:43:24Z" uid="49111" user="Markus B" changeset="5734279">
    <nd ref="890859561"/>
    <nd ref="890859729"/>
    <nd ref="890859570"/>
    <nd ref="890859642"/>
    <nd ref="890859561"/>
    <tag k="addr:city" v="St. Gallen"/>
    <tag k="addr:country" v="CH"/>
    <tag k="addr:housenumber" v="7"/>
    <tag k="addr:postcode" v="9000"/>
    <tag k="addr:street" v="Schwalbenstrasse"/>
    <tag k="building" v="yes"/>
  </way>
  <way id="75456474" version="1" timestamp="2010-08-31T18:50:51Z" uid="49111" user="Markus B" changeset="5648101">
    <nd ref="890859664"/>
    <nd ref="890859564"/>
    <nd ref="890859553"/>
    <nd ref="890859723"/>
    <nd ref="890859699"/>
    <nd ref="890859664"/>
    <tag k="building" v="yes"/>
    <tag k="shop" v="car_repair"/>
  </way>
</osm>
