<?xml version='1.0' encoding='UTF-8'?>
<osm version="0.6" generator="libosmium/2.20.0">
  <way id="75605824" version="3" timestamp="2011-04-19T13:25:22Z" uid="7617" user="Franc" changeset="7906595">
    <nd ref="892619246"/>
    <nd ref="892619253"/>
    <nd ref="892619261"/>
    <nd ref="892619250"/>
    <nd ref="892619247"/>
    <nd ref="892619256"/>
    <nd ref="892619248"/>
    <tag k="highway" v="service"/>
    <tag k="name" v="Chaffey Lane"/>
    <tag k="oneway" v="yes"/>
    <tag k="source" v="survey"/>
  </way>
  <way id="75605825" version="3" timestamp="2010-12-31T13:25:36Z" uid="4467" user="Rosscoe" changeset="6819619">
    <nd ref="892619246"/>
    <nd ref="892619255"/>
    <tag k="highway" v="residential"/>
    <tag k="name" v="Toorak Avenue"/>
    <tag k="source" v="survey"/>
  </way>
  <way id="75605825" version="4" timestamp="2011-04-19T13:25:38Z" uid="7617" user="Franc" changeset="7906595">
    <nd ref="892619246"/>
    <nd ref="1251177911"/>
    <nd ref="1251178225"/>
    <nd ref="892619255"/>
    <tag k="highway" v="residential"/>
    <tag k="name" v="Toorak Avenue"/>
    <tag k="source" v="survey"/>
  </way>
  <way id="75605826" version="3" timestamp="2010-12-31T13:25:49Z" uid="4467" user="Rosscoe" changeset="6819619">
    <nd ref="892619249"/>
    <nd ref="892619257"/>
    <nd ref="892619251"/>
    <nd ref="892619260"/>
    <tag k="highway" v="residential"/>
    <tag k="name" v="Desroy Avenue"/>
    <tag k="source" v="survey"/>
  </way>
  <way id="75605826" version="4" timestamp="2011-04-19T13:25:32Z" uid="7617" user="Franc" changeset="7906595">
    <nd ref="892619249"/>
    <nd ref="1251177926"/>
    <nd ref="1251178093"/>
    <nd ref="1251178234"/>
    <nd ref="1251177919"/>
    <nd ref="1251178216"/>
    <nd ref="1251177902"/>
    <nd ref="1251177996"/>
    <nd ref="1251178142"/>
    <nd ref="1251178241"/>
    <nd ref="892619251"/>
    <nd ref="892619260"/>
    <tag k="highway" v="residential"/>
    <tag k="name" v="Desroy Avenue"/>
    <tag k="source" v="survey"/>
  </way>
  <way id="75605828" version="3" timestamp="2010-12-31T13:25:40Z" uid="4467" user="Rosscoe" changeset="6819619">
    <nd ref="892619258"/>
    <nd ref="892619252"/>
    <tag k="highway" v="residential"/>
    <tag k="name" v="Cameron Avenue"/>
    <tag k="source" v="survey"/>
  </way>
</osm>
