<?xml version='1.0' encoding='UTF-8'?>
<osm version="0.6" generator="libosmium/2.20.0">
  <way id="75619018" version="1" timestamp="2010-09-02T10:37:19Z" uid="115477" user="wowik" changeset="5660868">
    <nd ref="892782484"/>
    <nd ref="892782485"/>
    <nd ref="892782486"/>
    <nd ref="892782487"/>
    <nd ref="892782484"/>
    <tag k="building" v="yes"/>
  </way>
  <way id="75619018" version="2" timestamp="2012-03-27T08:12:43Z" uid="481934" user="iWowik" changeset="11113698">
    <nd ref="892782484"/>
    <nd ref="892782485"/>
    <nd ref="892782486"/>
    <nd ref="892782487"/>
    <nd ref="892782484"/>
    <tag k="addr:city" v="Зеленоград"/>
    <tag k="addr:country" v="RU"/>
    <tag k="building" v="yes"/>
  </way>
  <way id="75619018" version="3" timestamp="2012-03-27T11:51:04Z" uid="481934" user="iWowik" changeset="11115472">
    <nd ref="892782484"/>
    <nd ref="892782485"/>
    <nd ref="892782486"/>
    <nd ref="892782487"/>
    <nd ref="892782484"/>
    <tag k="addr:city" v="Зеленоград"/>
    <tag k="addr:country" v="RU"/>
    <tag k="addr:region" v="Москва"/>
    <tag k="building" v="yes"/>
  </way>
  <way id="75619266" version="1" timestamp="2010-09-02T10:47:12Z" uid="115477" user="wowik" changeset="5661105">
    <nd ref="892784453"/>
    <nd ref="892784437"/>
    <tag k="highway" v="service"/>
    <tag k="service" v="parking_aisle"/>
  </way>
  <way id="75619278" version="3" timestamp="2011-03-24T19:54:26Z" uid="88880" user="firsttimelinux" changeset="7659297">
    <nd ref="253374405"/>
    <nd ref="892786010"/>
    <nd ref="892786007"/>
    <nd ref="892786026"/>
    <nd ref="892786003"/>
    <nd ref="892770308"/>
    <tag k="fixme" v="continue"/>
    <tag k="highway" v="residential"/>
    <tag k="name" v="Obergasse"/>
    <tag k="surface" v="paved"/>
  </way>
</osm>
