<?xml version='1.0' encoding='UTF-8'?>
<osm version="0.6" generator="libosmium/2.20.0">
  <way id="75630000" version="2" timestamp="2011-02-07T12:00:12Z" uid="4467" user="Rosscoe" changeset="7215161">
    <nd ref="892895369"/>
    <nd ref="1140747338"/>
    <nd ref="892895354"/>
    <tag k="highway" v="residential"/>
    <tag k="maxspeed" v="50"/>
    <tag k="name" v="Vine Street"/>
    <tag k="source" v="nearmap"/>
    <tag k="source:maxspeed" v="default residential speed limit in Australia"/>
    <tag k="surface" v="asphalt"/>
  </way>
  <way id="75630002" version="2" timestamp="2011-02-07T12:00:07Z" uid="4467" user="Rosscoe" changeset="7215161">
    <nd ref="1140747326"/>
    <nd ref="892895334"/>
    <tag k="highway" v="residential"/>
    <tag k="name" v="Fraser Street"/>
  </way>
  <way id="75630002" version="3" timestamp="2012-02-03T17:02:10Z" uid="379724" user="bugman" changeset="10577197">
    <nd ref="1140747326"/>
    <nd ref="1616837586"/>
    <nd ref="892895334"/>
    <tag k="highway" v="residential"/>
    <tag k="name" v="Fraser Street"/>
  </way>
  <way id="75630005" version="2" timestamp="2011-02-07T11:59:32Z" uid="4467" user="Rosscoe" changeset="7215161">
    <nd ref="892895302"/>
    <nd ref="892895305"/>
    <nd ref="892895308"/>
    <nd ref="892895323"/>
    <nd ref="892895311"/>
    <nd ref="892895315"/>
    <nd ref="892895318"/>
    <nd ref="892895321"/>
    <tag k="highway" v="residential"/>
    <tag k="name" v="McManus Drive"/>
  </way>
  <way id="75630005" version="3" timestamp="2011-08-17T17:30:58Z" uid="379724" user="bugman" changeset="9049947">
    <nd ref="892895302"/>
    <nd ref="1402542665"/>
    <nd ref="892895305"/>
    <nd ref="892895308"/>
    <nd ref="1402542676"/>
    <nd ref="892895323"/>
    <nd ref="892895311"/>
    <nd ref="892895315"/>
    <nd ref="892895318"/>
    <nd ref="892895321"/>
    <tag k="highway" v="residential"/>
    <tag k="name" v="McManus Drive"/>
  </way>
  <way id="75630005" version="4" timestamp="2012-02-03T17:04:19Z" uid="379724" user="bugman" changeset="10577215">
    <nd ref="892895302"/>
    <nd ref="1402542665"/>
    <nd ref="892895305"/>
    <nd ref="892895308"/>
    <nd ref="1402542676"/>
    <nd ref="892895323"/>
    <nd ref="892895311"/>
    <nd ref="892895315"/>
    <nd ref="1616838187"/>
    <nd ref="892895318"/>
    <nd ref="892895321"/>
    <tag k="highway" v="residential"/>
    <tag k="name" v="McManus Drive"/>
  </way>
  <way id="75630012" version="2" timestamp="2011-02-07T11:11:16Z" uid="4467" user="Rosscoe" changeset="7214726">
    <nd ref="608182581"/>
    <nd ref="608182586"/>
    <nd ref="608182589"/>
    <tag k="highway" v="residential"/>
    <tag k="maxspeed" v="50"/>
    <tag k="name" v="Trethowan Street"/>
    <tag k="source:maxspeed" v="default residential speed limit in Australia"/>
  </way>
  <way id="75630012" version="3" timestamp="2011-02-07T11:59:29Z" uid="4467" user="Rosscoe" changeset="7215161">
    <nd ref="608182581"/>
    <nd ref="608182586"/>
    <nd ref="1140747328"/>
    <nd ref="1140747361"/>
    <nd ref="608182589"/>
    <tag k="highway" v="residential"/>
    <tag k="maxspeed" v="50"/>
    <tag k="name" v="Trethowan Street"/>
    <tag k="source:maxspeed" v="default residential speed limit in Australia"/>
  </way>
</osm>
