<?xml version='1.0' encoding='UTF-8'?>
<osm version="0.6" generator="libosmium/2.20.0">
  <way id="75691000" version="2" timestamp="2011-05-25T18:43:10Z" uid="74617" user="JohnSmith" changeset="8247415">
    <nd ref="97575166"/>
    <nd ref="893571196"/>
    <nd ref="1299989717"/>
    <nd ref="893571197"/>
    <tag k="highway" v="residential"/>
    <tag k="name" v="MacLeay Street"/>
    <tag k="source" v="GPS"/>
  </way>
  <way id="75691002" version="3" timestamp="2011-05-25T18:43:12Z" uid="74617" user="JohnSmith" changeset="8247415">
    <nd ref="97574974"/>
    <nd ref="1299989795"/>
    <nd ref="893571205"/>
    <nd ref="893571207"/>
    <nd ref="893571208"/>
    <nd ref="893572813"/>
    <nd ref="893572814"/>
    <nd ref="97575166"/>
    <tag k="highway" v="secondary"/>
    <tag k="name" v="Bissett Street"/>
    <tag k="source" v="GPS"/>
  </way>
  <way id="75691005" version="3" timestamp="2011-05-25T18:43:17Z" uid="74617" user="JohnSmith" changeset="8247415">
    <nd ref="893571197"/>
    <nd ref="893571212"/>
    <nd ref="1299989733"/>
    <nd ref="1299989755"/>
    <nd ref="893572825"/>
    <nd ref="893571171"/>
    <tag k="highway" v="residential"/>
    <tag k="name" v="Gill Street"/>
    <tag k="source" v="GPS"/>
  </way>
  <way id="75691241" version="2" timestamp="2011-05-25T18:43:13Z" uid="74617" user="JohnSmith" changeset="8247415">
    <nd ref="893572813"/>
    <nd ref="1299989653"/>
    <nd ref="1299989651"/>
    <nd ref="893572825"/>
    <tag k="highway" v="residential"/>
    <tag k="name" v="Innes Street"/>
    <tag k="source" v="GPS"/>
  </way>
  <way id="75691499" version="3" timestamp="2011-05-25T18:43:14Z" uid="74617" user="JohnSmith" changeset="8247415">
    <nd ref="893575731"/>
    <nd ref="1299989725"/>
    <nd ref="893583660"/>
    <nd ref="893583699"/>
    <nd ref="1299989694"/>
    <nd ref="893575737"/>
    <tag k="highway" v="residential"/>
    <tag k="name" v="Sullivan Street"/>
    <tag k="source" v="GPS"/>
  </way>
  <way id="75691500" version="2" timestamp="2011-05-25T18:43:16Z" uid="74617" user="JohnSmith" changeset="8247415">
    <nd ref="893575751"/>
    <nd ref="1299989709"/>
    <nd ref="893575736"/>
    <tag k="highway" v="residential"/>
    <tag k="name" v="Stanley Street"/>
    <tag k="source" v="GPS"/>
  </way>
  <way id="75691524" version="2" timestamp="2011-05-25T18:43:12Z" uid="74617" user="JohnSmith" changeset="8247415">
    <nd ref="893583647"/>
    <nd ref="893583648"/>
    <nd ref="893583658"/>
    <nd ref="1299989763"/>
    <nd ref="1299989799"/>
    <nd ref="893583659"/>
    <nd ref="1299989777"/>
    <nd ref="893583660"/>
    <tag k="highway" v="residential"/>
    <tag k="name" v="William Street"/>
  </way>
  <way id="75691526" version="2" timestamp="2011-05-25T18:43:16Z" uid="74617" user="JohnSmith" changeset="8247415">
    <nd ref="893583672"/>
    <nd ref="1299989684"/>
    <nd ref="893583658"/>
    <tag k="highway" v="residential"/>
  </way>
  <way id="75691527" version="2" timestamp="2011-05-25T18:43:18Z" uid="74617" user="JohnSmith" changeset="8247415">
    <nd ref="893583677"/>
    <nd ref="1299989660"/>
    <nd ref="1299989803"/>
    <nd ref="893583659"/>
    <tag k="highway" v="residential"/>
    <tag k="source" v="GPS"/>
  </way>
  <way id="75691529" version="2" timestamp="2011-05-25T18:43:17Z" uid="74617" user="JohnSmith" changeset="8247415">
    <nd ref="893583704"/>
    <nd ref="1299989788"/>
    <nd ref="1299989721"/>
    <nd ref="1299989674"/>
    <nd ref="893583699"/>
    <tag k="highway" v="residential"/>
    <tag k="name" v="Victoria Street"/>
    <tag k="source" v="GPS"/>
  </way>
</osm>
