<?xml version='1.0' encoding='UTF-8'?>
<osm version="0.6" generator="libosmium/2.20.0">
  <way id="75732142" version="1" timestamp="2010-09-03T12:02:39Z" uid="115477" user="wowik" changeset="5670126">
    <nd ref="894108938"/>
    <nd ref="894108939"/>
    <nd ref="894108940"/>
    <nd ref="894108941"/>
    <nd ref="894108938"/>
    <tag k="building" v="yes"/>
  </way>
  <way id="75732142" version="2" timestamp="2010-09-29T09:51:23Z" uid="313900" user="Stud555" changeset="5910055">
    <nd ref="894108938"/>
    <nd ref="894108939"/>
    <nd ref="894108940"/>
    <nd ref="894108941"/>
    <nd ref="894108938"/>
    <tag k="addr:city" v="Зеленоград"/>
    <tag k="addr:housenumber" v="1Б с1"/>
    <tag k="addr:street" v="Заводская улица"/>
    <tag k="building" v="yes"/>
  </way>
  <way id="75732142" version="3" timestamp="2011-01-13T13:41:17Z" uid="115477" user="wowik" changeset="6957204">
    <nd ref="894108938"/>
    <nd ref="894108939"/>
    <nd ref="894108940"/>
    <nd ref="894108941"/>
    <nd ref="1102000245"/>
    <nd ref="1101999724"/>
    <nd ref="1101999316"/>
    <nd ref="1101996686"/>
    <nd ref="894108938"/>
    <tag k="addr:city" v="Зеленоград"/>
    <tag k="addr:housenumber" v="1Б с1"/>
    <tag k="addr:street" v="Заводская улица"/>
    <tag k="building" v="yes"/>
  </way>
  <way id="75732142" version="4" timestamp="2012-03-27T08:07:20Z" uid="481934" user="iWowik" changeset="11113698">
    <nd ref="894108938"/>
    <nd ref="894108939"/>
    <nd ref="894108940"/>
    <nd ref="894108941"/>
    <nd ref="1102000245"/>
    <nd ref="1101999724"/>
    <nd ref="1101999316"/>
    <nd ref="1101996686"/>
    <nd ref="894108938"/>
    <tag k="addr:city" v="Зеленоград"/>
    <tag k="addr:country" v="RU"/>
    <tag k="addr:housenumber" v="1Б с1"/>
    <tag k="addr:street" v="Заводская улица"/>
    <tag k="building" v="yes"/>
  </way>
  <way id="75732142" version="5" timestamp="2012-03-27T11:38:24Z" uid="481934" user="iWowik" changeset="11115472">
    <nd ref="894108938"/>
    <nd ref="894108939"/>
    <nd ref="894108940"/>
    <nd ref="894108941"/>
    <nd ref="1102000245"/>
    <nd ref="1101999724"/>
    <nd ref="1101999316"/>
    <nd ref="1101996686"/>
    <nd ref="894108938"/>
    <tag k="addr:city" v="Зеленоград"/>
    <tag k="addr:country" v="RU"/>
    <tag k="addr:housenumber" v="1Б с1"/>
    <tag k="addr:region" v="Москва"/>
    <tag k="addr:street" v="Заводская улица"/>
    <tag k="building" v="yes"/>
  </way>
  <way id="75732143" version="1" timestamp="2010-09-03T12:02:39Z" uid="115477" user="wowik" changeset="5670126">
    <nd ref="894108942"/>
    <nd ref="894108943"/>
    <nd ref="894108944"/>
    <nd ref="894108947"/>
    <nd ref="894108942"/>
    <tag k="building" v="yes"/>
  </way>
  <way id="75732143" version="2" timestamp="2010-09-29T09:51:24Z" uid="313900" user="Stud555" changeset="5910055">
    <nd ref="894108942"/>
    <nd ref="894108943"/>
    <nd ref="894108944"/>
    <nd ref="894108947"/>
    <nd ref="894108942"/>
    <tag k="addr:city" v="Зеленоград"/>
    <tag k="addr:housenumber" v="1Б с5"/>
    <tag k="addr:street" v="Заводская улица"/>
    <tag k="building" v="yes"/>
  </way>
  <way id="75732143" version="3" timestamp="2011-01-13T13:40:49Z" uid="115477" user="wowik" changeset="6957204">
    <nd ref="894108942"/>
    <nd ref="894108943"/>
    <nd ref="894108944"/>
    <nd ref="894108947"/>
    <nd ref="1101998496"/>
    <nd ref="1101996912"/>
    <nd ref="1101996667"/>
    <nd ref="1101996425"/>
    <nd ref="894108942"/>
    <tag k="addr:city" v="Зеленоград"/>
    <tag k="addr:housenumber" v="1Б с6"/>
    <tag k="addr:street" v="Заводская улица"/>
    <tag k="building" v="yes"/>
  </way>
  <way id="75732143" version="4" timestamp="2012-03-27T08:07:21Z" uid="481934" user="iWowik" changeset="11113698">
    <nd ref="894108942"/>
    <nd ref="894108943"/>
    <nd ref="894108944"/>
    <nd ref="894108947"/>
    <nd ref="1101998496"/>
    <nd ref="1101996912"/>
    <nd ref="1101996667"/>
    <nd ref="1101996425"/>
    <nd ref="894108942"/>
    <tag k="addr:city" v="Зеленоград"/>
    <tag k="addr:country" v="RU"/>
    <tag k="addr:housenumber" v="1Б с6"/>
    <tag k="addr:street" v="Заводская улица"/>
    <tag k="building" v="yes"/>
  </way>
  <way id="75732143" version="5" timestamp="2012-03-27T11:38:26Z" uid="481934" user="iWowik" changeset="11115472">
    <nd ref="894108942"/>
    <nd ref="894108943"/>
    <nd ref="894108944"/>
    <nd ref="894108947"/>
    <nd ref="1101998496"/>
    <nd ref="1101996912"/>
    <nd ref="1101996667"/>
    <nd ref="1101996425"/>
    <nd ref="894108942"/>
    <tag k="addr:city" v="Зеленоград"/>
    <tag k="addr:country" v="RU"/>
    <tag k="addr:housenumber" v="1Б с6"/>
    <tag k="addr:region" v="Москва"/>
    <tag k="addr:street" v="Заводская улица"/>
    <tag k="building" v="yes"/>
  </way>
  <way id="75732144" version="1" timestamp="2010-09-03T12:02:40Z" uid="115477" user="wowik" changeset="5670126">
    <nd ref="894108949"/>
    <nd ref="894108950"/>
    <nd ref="450565971"/>
    <tag k="highway" v="service"/>
    <tag k="living_street" v="yes"/>
  </way>
  <way id="75732144" version="2" timestamp="2010-09-29T09:51:24Z" uid="313900" user="Stud555" changeset="5910055">
    <nd ref="894108949"/>
    <nd ref="894108950"/>
    <nd ref="450565971"/>
    <tag k="highway" v="service"/>
    <tag k="living_street" v="yes"/>
    <tag k="name" v="Заводской пер."/>
  </way>
  <way id="75732144" version="3" timestamp="2010-11-12T12:24:17Z" uid="115477" user="wowik" changeset="6349638">
    <nd ref="894108949"/>
    <nd ref="894108950"/>
    <nd ref="450565971"/>
    <tag k="highway" v="service"/>
    <tag k="living_street" v="yes"/>
    <tag k="name" v="Заводской перeулок"/>
  </way>
  <way id="75732144" version="4" timestamp="2010-11-12T17:32:31Z" uid="115477" user="wowik" changeset="6352472">
    <nd ref="450565972"/>
    <nd ref="986806702"/>
    <nd ref="894108949"/>
    <nd ref="894108950"/>
    <nd ref="450565971"/>
    <tag k="highway" v="service"/>
    <tag k="living_street" v="yes"/>
    <tag k="name" v="Заводской перeулок"/>
  </way>
  <way id="75732144" version="5" timestamp="2010-11-19T11:04:43Z" uid="115477" user="wowik" changeset="6406057">
    <nd ref="450565972"/>
    <nd ref="986806702"/>
    <tag k="highway" v="service"/>
    <tag k="living_street" v="yes"/>
    <tag k="name" v="Заводской тупик"/>
  </way>
  <way id="75732144" version="6" timestamp="2010-11-19T11:57:40Z" uid="115477" user="wowik" changeset="6406057">
    <nd ref="450565972"/>
    <nd ref="994555037"/>
    <nd ref="986806702"/>
    <tag k="highway" v="service"/>
    <tag k="living_street" v="yes"/>
    <tag k="name" v="Заводской тупик"/>
  </way>
  <way id="75732145" version="1" timestamp="2010-09-03T12:02:40Z" uid="115477" user="wowik" changeset="5670126">
    <nd ref="894108954"/>
    <nd ref="894108955"/>
    <nd ref="894108957"/>
    <nd ref="894108958"/>
    <tag k="highway" v="service"/>
  </way>
  <way id="75732146" version="1" timestamp="2010-09-03T12:02:43Z" uid="115477" user="wowik" changeset="5670126">
    <nd ref="894108960"/>
    <nd ref="894108961"/>
    <nd ref="894108962"/>
    <nd ref="894108963"/>
    <nd ref="894108960"/>
    <tag k="building" v="yes"/>
  </way>
  <way id="75732146" version="2" timestamp="2010-09-29T09:51:24Z" uid="313900" user="Stud555" changeset="5910055">
    <nd ref="894108960"/>
    <nd ref="894108961"/>
    <nd ref="894108962"/>
    <nd ref="894108963"/>
    <nd ref="894108960"/>
    <tag k="addr:city" v="Зеленоград"/>
    <tag k="addr:housenumber" v="1Б с2"/>
    <tag k="addr:street" v="Заводская улица"/>
    <tag k="building" v="yes"/>
  </way>
  <way id="75732146" version="3" timestamp="2012-03-27T08:07:21Z" uid="481934" user="iWowik" changeset="11113698">
    <nd ref="894108960"/>
    <nd ref="894108961"/>
    <nd ref="894108962"/>
    <nd ref="894108963"/>
    <nd ref="894108960"/>
    <tag k="addr:city" v="Зеленоград"/>
    <tag k="addr:country" v="RU"/>
    <tag k="addr:housenumber" v="1Б с2"/>
    <tag k="addr:street" v="Заводская улица"/>
    <tag k="building" v="yes"/>
  </way>
  <way id="75732146" version="4" timestamp="2012-03-27T11:38:24Z" uid="481934" user="iWowik" changeset="11115472">
    <nd ref="894108960"/>
    <nd ref="894108961"/>
    <nd ref="894108962"/>
    <nd ref="894108963"/>
    <nd ref="894108960"/>
    <tag k="addr:city" v="Зеленоград"/>
    <tag k="addr:country" v="RU"/>
    <tag k="addr:housenumber" v="1Б с2"/>
    <tag k="addr:region" v="Москва"/>
    <tag k="addr:street" v="Заводская улица"/>
    <tag k="building" v="yes"/>
  </way>
  <way id="75732174" version="1" timestamp="2010-09-03T12:04:25Z" uid="115477" user="wowik" changeset="5670126">
    <nd ref="894109314"/>
    <nd ref="894109313"/>
    <tag k="foot" v="yes"/>
    <tag k="highway" v="footway"/>
  </way>
  <way id="75732181" version="1" timestamp="2010-09-03T12:05:13Z" uid="115477" user="wowik" changeset="5670126">
    <nd ref="894109428"/>
    <nd ref="894109429"/>
    <nd ref="894109430"/>
    <nd ref="894109431"/>
    <nd ref="894109432"/>
    <nd ref="894109433"/>
    <nd ref="894109434"/>
    <nd ref="894109435"/>
    <nd ref="894109436"/>
    <nd ref="894109437"/>
    <nd ref="894109428"/>
    <tag k="barrier" v="fence"/>
  </way>
  <way id="75732181" version="2" timestamp="2010-09-03T12:05:21Z" uid="115477" user="wowik" changeset="5670126">
    <nd ref="894109428"/>
    <nd ref="894109446"/>
    <nd ref="894109429"/>
    <nd ref="894109430"/>
    <nd ref="894109431"/>
    <nd ref="894109432"/>
    <nd ref="894109433"/>
    <nd ref="894109434"/>
    <nd ref="894109435"/>
    <nd ref="894109436"/>
    <nd ref="894109437"/>
    <nd ref="894109428"/>
    <tag k="barrier" v="fence"/>
  </way>
  <way id="75732181" version="3" timestamp="2010-11-12T15:51:36Z" uid="115477" user="wowik" changeset="6351100">
    <nd ref="894109428"/>
    <nd ref="894109446"/>
    <nd ref="986727657"/>
    <nd ref="894109429"/>
    <nd ref="986727194"/>
    <nd ref="986727391"/>
    <nd ref="894109430"/>
    <nd ref="894109431"/>
    <nd ref="986727437"/>
    <nd ref="986727600"/>
    <nd ref="894109432"/>
    <nd ref="986727618"/>
    <nd ref="894109433"/>
    <nd ref="894109434"/>
    <nd ref="894109435"/>
    <nd ref="986727458"/>
    <nd ref="894109436"/>
    <nd ref="986727255"/>
    <nd ref="894109437"/>
    <nd ref="894109428"/>
    <tag k="barrier" v="fence"/>
  </way>
  <way id="75732181" version="4" timestamp="2011-12-29T12:39:31Z" uid="397326" user="trolleway" changeset="10234780">
    <nd ref="894109428"/>
    <nd ref="894109446"/>
    <nd ref="986727657"/>
    <nd ref="894109429"/>
    <nd ref="986727194"/>
    <nd ref="986727391"/>
    <nd ref="894109430"/>
    <tag k="barrier" v="fence"/>
  </way>
</osm>
