<?xml version='1.0' encoding='UTF-8'?>
<osm version="0.6" generator="libosmium/2.20.0">
  <way id="7602019" version="3" timestamp="2009-01-07T07:10:01Z" uid="8807" user="brendanpuck" changeset="752317">
    <nd ref="30961980"/>
    <nd ref="329965364"/>
    <nd ref="55156869"/>
    <nd ref="55156870"/>
    <nd ref="55156871"/>
    <tag k="highway" v="residential"/>
    <tag k="junction" v="roundabout"/>
    <tag k="name" v="Egerszegi Avenue"/>
    <tag k="source" v="survey"/>
  </way>
  <way id="7602019" version="4" timestamp="2010-05-29T09:31:50Z" uid="7617" user="Franc" changeset="4840788">
    <nd ref="30961980"/>
    <nd ref="329965364"/>
    <nd ref="755814832"/>
    <nd ref="55156869"/>
    <nd ref="755814820"/>
    <nd ref="55156870"/>
    <nd ref="55156871"/>
    <tag k="highway" v="residential"/>
    <tag k="junction" v="roundabout"/>
    <tag k="name" v="Egerszegi Avenue"/>
    <tag k="source" v="survey"/>
  </way>
  <way id="7602019" version="5" timestamp="2010-07-08T03:07:04Z" uid="74617" user="JohnSmith" changeset="5163091">
    <nd ref="30961980"/>
    <nd ref="329965364"/>
    <nd ref="755814832"/>
    <nd ref="55156869"/>
    <nd ref="755814820"/>
    <nd ref="55156870"/>
    <nd ref="55156871"/>
    <tag k="highway" v="residential"/>
    <tag k="junction" v="roundabout"/>
    <tag k="maxspeed" v="50"/>
    <tag k="maxspeed:source" v="default residential speed limit in Australia"/>
    <tag k="name" v="Egerszegi Avenue"/>
    <tag k="source" v="survey"/>
  </way>
  <way id="7602019" version="6" timestamp="2012-01-15T06:27:18Z" uid="147510" user="woodpeck_fixbot" changeset="10394821">
    <nd ref="30961980"/>
    <nd ref="329965364"/>
    <nd ref="755814832"/>
    <nd ref="55156869"/>
    <nd ref="755814820"/>
    <nd ref="55156870"/>
    <nd ref="55156871"/>
    <tag k="highway" v="residential"/>
    <tag k="junction" v="roundabout"/>
    <tag k="name" v="Egerszegi Avenue"/>
    <tag k="source" v="survey"/>
  </way>
  <way id="7602061" version="2" timestamp="2009-01-07T07:10:02Z" uid="8807" user="brendanpuck" changeset="752317">
    <nd ref="30962025"/>
    <nd ref="329965365"/>
    <nd ref="55156871"/>
    <nd ref="55156955"/>
    <nd ref="329965371"/>
    <nd ref="329965367"/>
    <nd ref="55156956"/>
    <tag k="highway" v="residential"/>
    <tag k="name" v="Ottey Avenue"/>
    <tag k="source" v="survey"/>
  </way>
  <way id="7602061" version="3" timestamp="2010-05-29T09:31:50Z" uid="7617" user="Franc" changeset="4840788">
    <nd ref="30962025"/>
    <nd ref="329965365"/>
    <nd ref="55156871"/>
    <nd ref="55156955"/>
    <nd ref="755814812"/>
    <nd ref="755814811"/>
    <nd ref="329965371"/>
    <nd ref="329965367"/>
    <nd ref="55156956"/>
    <tag k="highway" v="residential"/>
    <tag k="name" v="Ottey Avenue"/>
    <tag k="source" v="survey"/>
  </way>
  <way id="7602061" version="4" timestamp="2010-07-08T03:06:51Z" uid="74617" user="JohnSmith" changeset="5163091">
    <nd ref="30962025"/>
    <nd ref="329965365"/>
    <nd ref="55156871"/>
    <nd ref="55156955"/>
    <nd ref="755814812"/>
    <nd ref="755814811"/>
    <nd ref="329965371"/>
    <nd ref="329965367"/>
    <nd ref="55156956"/>
    <tag k="highway" v="residential"/>
    <tag k="maxspeed" v="50"/>
    <tag k="maxspeed:source" v="default residential speed limit in Australia"/>
    <tag k="name" v="Ottey Avenue"/>
    <tag k="source" v="survey"/>
  </way>
  <way id="7602061" version="5" timestamp="2012-01-15T06:27:19Z" uid="147510" user="woodpeck_fixbot" changeset="10394821">
    <nd ref="30962025"/>
    <nd ref="329965365"/>
    <nd ref="55156871"/>
    <nd ref="55156955"/>
    <nd ref="755814812"/>
    <nd ref="755814811"/>
    <nd ref="329965371"/>
    <nd ref="329965367"/>
    <nd ref="55156956"/>
    <tag k="highway" v="residential"/>
    <tag k="name" v="Ottey Avenue"/>
    <tag k="source" v="survey"/>
  </way>
  <way id="7602109" version="3" timestamp="2008-06-13T23:46:10Z" uid="30201" user="rrankin" changeset="154901">
    <nd ref="30961711"/>
    <nd ref="55156956"/>
    <nd ref="55157731"/>
    <nd ref="55157064"/>
    <tag k="highway" v="residential"/>
    <tag k="name" v="Perkins Avenue"/>
  </way>
  <way id="7602109" version="4" timestamp="2009-01-07T07:10:04Z" uid="8807" user="brendanpuck" changeset="752317">
    <nd ref="30961711"/>
    <nd ref="55156956"/>
    <nd ref="329965373"/>
    <nd ref="55157731"/>
    <nd ref="55157064"/>
    <tag k="highway" v="residential"/>
    <tag k="name" v="Perkins Avenue"/>
  </way>
  <way id="7602109" version="5" timestamp="2010-05-29T09:31:45Z" uid="7617" user="Franc" changeset="4840788">
    <nd ref="30961711"/>
    <nd ref="55156956"/>
    <nd ref="329965373"/>
    <nd ref="55157731"/>
    <nd ref="755814770"/>
    <nd ref="55157064"/>
    <tag k="highway" v="residential"/>
    <tag k="name" v="Perkins Avenue"/>
  </way>
  <way id="7602109" version="6" timestamp="2010-07-08T03:07:05Z" uid="74617" user="JohnSmith" changeset="5163091">
    <nd ref="30961711"/>
    <nd ref="55156956"/>
    <nd ref="329965373"/>
    <nd ref="55157731"/>
    <nd ref="755814770"/>
    <nd ref="55157064"/>
    <tag k="highway" v="residential"/>
    <tag k="maxspeed" v="50"/>
    <tag k="maxspeed:source" v="default residential speed limit in Australia"/>
    <tag k="name" v="Perkins Avenue"/>
  </way>
  <way id="7602109" version="7" timestamp="2012-01-15T06:27:20Z" uid="147510" user="woodpeck_fixbot" changeset="10394821">
    <nd ref="30961711"/>
    <nd ref="55156956"/>
    <nd ref="329965373"/>
    <nd ref="55157731"/>
    <nd ref="755814770"/>
    <nd ref="55157064"/>
    <tag k="highway" v="residential"/>
    <tag k="name" v="Perkins Avenue"/>
  </way>
  <way id="7602142" version="2" timestamp="2008-06-13T23:46:10Z" uid="30201" user="rrankin" changeset="154901">
    <nd ref="55157064"/>
    <nd ref="55157668"/>
    <nd ref="55158383"/>
    <nd ref="55157630"/>
    <nd ref="55157701"/>
    <nd ref="55157770"/>
    <nd ref="55157161"/>
    <tag k="created_by" v="Potlatch alpha"/>
    <tag k="highway" v="residential"/>
    <tag k="name" v="Spitz Avenue"/>
  </way>
  <way id="7602142" version="3" timestamp="2009-08-09T05:08:35Z" uid="1679" user="andrewpmk" changeset="2081302">
    <nd ref="55157064"/>
    <nd ref="55157668"/>
    <nd ref="55158383"/>
    <nd ref="55157630"/>
    <nd ref="372410624"/>
    <nd ref="372410506"/>
    <nd ref="55157770"/>
    <nd ref="55157161"/>
    <tag k="highway" v="residential"/>
    <tag k="name" v="Spitz Avenue"/>
  </way>
  <way id="7602142" version="4" timestamp="2010-05-29T09:31:45Z" uid="7617" user="Franc" changeset="4840788">
    <nd ref="55157064"/>
    <nd ref="755814769"/>
    <nd ref="55157668"/>
    <nd ref="55158383"/>
    <nd ref="55157630"/>
    <nd ref="372410624"/>
    <nd ref="372410506"/>
    <nd ref="55157770"/>
    <nd ref="755814754"/>
    <nd ref="55157161"/>
    <tag k="highway" v="residential"/>
    <tag k="name" v="Spitz Avenue"/>
  </way>
  <way id="7602142" version="5" timestamp="2010-07-08T03:06:56Z" uid="74617" user="JohnSmith" changeset="5163091">
    <nd ref="55157064"/>
    <nd ref="755814769"/>
    <nd ref="55157668"/>
    <nd ref="55158383"/>
    <nd ref="55157630"/>
    <nd ref="372410624"/>
    <nd ref="372410506"/>
    <nd ref="55157770"/>
    <nd ref="755814754"/>
    <nd ref="55157161"/>
    <tag k="highway" v="residential"/>
    <tag k="maxspeed" v="50"/>
    <tag k="maxspeed:source" v="default residential speed limit in Australia"/>
    <tag k="name" v="Spitz Avenue"/>
  </way>
  <way id="7602142" version="6" timestamp="2012-01-15T06:27:22Z" uid="147510" user="woodpeck_fixbot" changeset="10394821">
    <nd ref="55157064"/>
    <nd ref="755814769"/>
    <nd ref="55157668"/>
    <nd ref="55158383"/>
    <nd ref="55157630"/>
    <nd ref="372410624"/>
    <nd ref="372410506"/>
    <nd ref="55157770"/>
    <nd ref="755814754"/>
    <nd ref="55157161"/>
    <tag k="highway" v="residential"/>
    <tag k="name" v="Spitz Avenue"/>
  </way>
  <way id="7602219" version="2" timestamp="2008-06-13T23:46:12Z" uid="30201" user="rrankin" changeset="154901">
    <nd ref="47380524"/>
    <nd ref="55157362"/>
    <nd ref="55157364"/>
    <nd ref="55157161"/>
    <tag k="created_by" v="Potlatch alpha"/>
    <tag k="highway" v="residential"/>
    <tag k="name" v="Roycroft Avenue"/>
  </way>
  <way id="7602219" version="3" timestamp="2010-02-08T17:06:25Z" uid="33377" user="Victor LP" changeset="3824968">
    <nd ref="47380524"/>
    <nd ref="55157362"/>
    <nd ref="55157364"/>
    <nd ref="55157161"/>
    <tag k="highway" v="residential"/>
    <tag k="name" v="Roycroft Avenue"/>
  </way>
  <way id="7602219" version="4" timestamp="2010-05-29T09:31:45Z" uid="7617" user="Franc" changeset="4840788">
    <nd ref="47380524"/>
    <nd ref="55157362"/>
    <nd ref="55157364"/>
    <nd ref="755814753"/>
    <nd ref="55157161"/>
    <tag k="highway" v="residential"/>
    <tag k="name" v="Roycroft Avenue"/>
  </way>
  <way id="7602219" version="5" timestamp="2010-07-08T03:06:59Z" uid="74617" user="JohnSmith" changeset="5163091">
    <nd ref="47380524"/>
    <nd ref="55157362"/>
    <nd ref="55157364"/>
    <nd ref="755814753"/>
    <nd ref="55157161"/>
    <tag k="highway" v="residential"/>
    <tag k="maxspeed" v="50"/>
    <tag k="maxspeed:source" v="default residential speed limit in Australia"/>
    <tag k="name" v="Roycroft Avenue"/>
  </way>
  <way id="7602219" version="6" timestamp="2012-01-15T06:27:23Z" uid="147510" user="woodpeck_fixbot" changeset="10394821">
    <nd ref="47380524"/>
    <nd ref="55157362"/>
    <nd ref="55157364"/>
    <nd ref="755814753"/>
    <nd ref="55157161"/>
    <tag k="highway" v="residential"/>
    <tag k="name" v="Roycroft Avenue"/>
  </way>
  <way id="7602226" version="2" timestamp="2008-06-07T06:23:06Z" uid="30201" user="rrankin" changeset="81397">
    <nd ref="55157364"/>
    <nd ref="268908256"/>
    <nd ref="55157643"/>
    <nd ref="55157383"/>
    <tag k="created_by" v="Potlatch alpha"/>
    <tag k="highway" v="residential"/>
  </way>
  <way id="7602226" version="3" timestamp="2008-06-13T23:46:11Z" uid="30201" user="rrankin" changeset="154901">
    <nd ref="55157364"/>
    <nd ref="268908256"/>
    <nd ref="55157643"/>
    <nd ref="55157383"/>
    <tag k="created_by" v="Potlatch alpha"/>
    <tag k="highway" v="residential"/>
    <tag k="name" v="Thompson Avenue"/>
  </way>
  <way id="7602226" version="4" timestamp="2009-08-09T05:08:38Z" uid="1679" user="andrewpmk" changeset="2081302">
    <nd ref="55157364"/>
    <nd ref="268908256"/>
    <nd ref="372410718"/>
    <nd ref="55157643"/>
    <nd ref="55157383"/>
    <tag k="highway" v="residential"/>
    <tag k="name" v="Thompson Avenue"/>
  </way>
  <way id="7602226" version="5" timestamp="2010-07-08T03:06:53Z" uid="74617" user="JohnSmith" changeset="5163091">
    <nd ref="55157364"/>
    <nd ref="268908256"/>
    <nd ref="372410718"/>
    <nd ref="55157643"/>
    <nd ref="55157383"/>
    <tag k="highway" v="residential"/>
    <tag k="maxspeed" v="50"/>
    <tag k="maxspeed:source" v="default residential speed limit in Australia"/>
    <tag k="name" v="Thompson Avenue"/>
  </way>
  <way id="7602226" version="6" timestamp="2012-01-15T06:27:24Z" uid="147510" user="woodpeck_fixbot" changeset="10394821">
    <nd ref="55157364"/>
    <nd ref="268908256"/>
    <nd ref="372410718"/>
    <nd ref="55157643"/>
    <nd ref="55157383"/>
    <tag k="highway" v="residential"/>
    <tag k="name" v="Thompson Avenue"/>
  </way>
  <way id="7602332" version="2" timestamp="2009-01-07T07:10:08Z" uid="8807" user="brendanpuck" changeset="752317">
    <nd ref="55157630"/>
    <nd ref="329965386"/>
    <nd ref="55157383"/>
    <nd ref="55157631"/>
    <tag k="created_by" v="Potlatch alpha"/>
    <tag k="highway" v="residential"/>
  </way>
  <way id="7602332" version="3" timestamp="2010-07-08T03:07:06Z" uid="74617" user="JohnSmith" changeset="5163091">
    <nd ref="55157630"/>
    <nd ref="329965386"/>
    <nd ref="55157383"/>
    <nd ref="55157631"/>
    <tag k="highway" v="residential"/>
    <tag k="maxspeed" v="50"/>
    <tag k="maxspeed:source" v="default residential speed limit in Australia"/>
  </way>
  <way id="7602332" version="4" timestamp="2010-12-26T11:09:54Z" uid="7617" user="Franc" changeset="6766987">
    <nd ref="55157630"/>
    <nd ref="329965386"/>
    <nd ref="55157383"/>
    <nd ref="55157631"/>
    <tag k="highway" v="residential"/>
    <tag k="maxspeed" v="50"/>
    <tag k="maxspeed:source" v="default residential speed limit in Australia"/>
    <tag k="name" v="Didriksen Avenue"/>
  </way>
  <way id="7602332" version="5" timestamp="2012-01-15T06:27:25Z" uid="147510" user="woodpeck_fixbot" changeset="10394821">
    <nd ref="55157630"/>
    <nd ref="329965386"/>
    <nd ref="55157383"/>
    <nd ref="55157631"/>
    <tag k="highway" v="residential"/>
    <tag k="name" v="Didriksen Avenue"/>
  </way>
  <way id="7602356" version="2" timestamp="2008-06-13T23:46:09Z" uid="30201" user="rrankin" changeset="154901">
    <nd ref="55157643"/>
    <nd ref="55157666"/>
    <tag k="created_by" v="Potlatch alpha"/>
    <tag k="highway" v="residential"/>
    <tag k="name" v="Rolton Avenue"/>
  </way>
  <way id="7602356" version="3" timestamp="2010-05-29T09:31:47Z" uid="7617" user="Franc" changeset="4840788">
    <nd ref="55157643"/>
    <nd ref="755814758"/>
    <nd ref="55157666"/>
    <tag k="highway" v="residential"/>
    <tag k="name" v="Rolton Avenue"/>
  </way>
  <way id="7602356" version="4" timestamp="2010-07-08T03:06:52Z" uid="74617" user="JohnSmith" changeset="5163091">
    <nd ref="55157643"/>
    <nd ref="755814758"/>
    <nd ref="55157666"/>
    <tag k="highway" v="residential"/>
    <tag k="maxspeed" v="50"/>
    <tag k="maxspeed:source" v="default residential speed limit in Australia"/>
    <tag k="name" v="Rolton Avenue"/>
  </way>
  <way id="7602356" version="5" timestamp="2012-01-15T06:27:26Z" uid="147510" user="woodpeck_fixbot" changeset="10394821">
    <nd ref="55157643"/>
    <nd ref="755814758"/>
    <nd ref="55157666"/>
    <tag k="highway" v="residential"/>
    <tag k="name" v="Rolton Avenue"/>
  </way>
  <way id="7602377" version="2" timestamp="2008-06-07T06:23:19Z" uid="30201" user="rrankin" changeset="81397">
    <nd ref="47380524"/>
    <nd ref="268908256"/>
    <nd ref="55157701"/>
    <tag k="created_by" v="Potlatch alpha"/>
    <tag k="highway" v="residential"/>
  </way>
  <way id="7602377" version="3" timestamp="2008-06-13T23:46:13Z" uid="30201" user="rrankin" changeset="154901">
    <nd ref="47380524"/>
    <nd ref="268908256"/>
    <nd ref="55157701"/>
    <tag k="created_by" v="Potlatch alpha"/>
    <tag k="highway" v="residential"/>
    <tag k="name" v="Charlton Avenue"/>
  </way>
  <way id="7602377" version="4" timestamp="2009-08-09T05:08:31Z" uid="1679" user="andrewpmk" changeset="2081302">
    <nd ref="47380524"/>
    <nd ref="372410858"/>
    <nd ref="372410854"/>
    <nd ref="268908256"/>
    <nd ref="372410720"/>
    <nd ref="372410506"/>
    <tag k="highway" v="residential"/>
    <tag k="name" v="Charlton Avenue"/>
  </way>
  <way id="7602377" version="5" timestamp="2010-07-08T03:06:55Z" uid="74617" user="JohnSmith" changeset="5163091">
    <nd ref="47380524"/>
    <nd ref="372410858"/>
    <nd ref="372410854"/>
    <nd ref="268908256"/>
    <nd ref="372410720"/>
    <nd ref="372410506"/>
    <tag k="highway" v="residential"/>
    <tag k="maxspeed" v="50"/>
    <tag k="maxspeed:source" v="default residential speed limit in Australia"/>
    <tag k="name" v="Charlton Avenue"/>
  </way>
  <way id="7602377" version="6" timestamp="2010-12-26T11:13:07Z" uid="7617" user="Franc" changeset="6766987">
    <nd ref="47380524"/>
    <nd ref="372410858"/>
    <nd ref="372410854"/>
    <nd ref="268908256"/>
    <nd ref="372410720"/>
    <nd ref="1065430564"/>
    <nd ref="372410506"/>
    <tag k="highway" v="residential"/>
    <tag k="maxspeed" v="50"/>
    <tag k="maxspeed:source" v="default residential speed limit in Australia"/>
    <tag k="name" v="Charlton Avenue"/>
  </way>
  <way id="7602377" version="7" timestamp="2012-01-15T06:27:26Z" uid="147510" user="woodpeck_fixbot" changeset="10394821">
    <nd ref="47380524"/>
    <nd ref="372410858"/>
    <nd ref="372410854"/>
    <nd ref="268908256"/>
    <nd ref="372410720"/>
    <nd ref="1065430564"/>
    <nd ref="372410506"/>
    <tag k="highway" v="residential"/>
    <tag k="name" v="Charlton Avenue"/>
  </way>
  <way id="7602471" version="3" timestamp="2008-06-07T05:44:23Z" uid="30201" user="rrankin" changeset="81397">
    <nd ref="55157731"/>
    <nd ref="55158271"/>
    <nd ref="268906211"/>
    <nd ref="55157775"/>
    <nd ref="55157776"/>
    <tag k="highway" v="residential"/>
  </way>
  <way id="7602471" version="4" timestamp="2008-06-13T23:33:06Z" uid="30201" user="rrankin" changeset="154901">
    <nd ref="55157731"/>
    <nd ref="55158271"/>
    <nd ref="268906211"/>
    <tag k="highway" v="residential"/>
  </way>
  <way id="7602471" version="5" timestamp="2009-01-07T07:10:00Z" uid="8807" user="brendanpuck" changeset="752317">
    <nd ref="55157731"/>
    <nd ref="55158271"/>
    <nd ref="268906211"/>
    <tag k="highway" v="residential"/>
    <tag k="name" v="Tooth Avenue"/>
  </way>
  <way id="7602471" version="6" timestamp="2009-08-09T05:08:29Z" uid="1679" user="andrewpmk" changeset="2081302">
    <nd ref="55157731"/>
    <nd ref="55158271"/>
    <nd ref="372410508"/>
    <nd ref="268906211"/>
    <tag k="highway" v="residential"/>
    <tag k="name" v="Tooth Avenue"/>
  </way>
  <way id="7602471" version="7" timestamp="2009-12-06T22:37:29Z" uid="30201" user="rrankin" changeset="3310717">
    <nd ref="55157731"/>
    <nd ref="55158271"/>
    <nd ref="372410508"/>
    <nd ref="372410622"/>
    <nd ref="268906211"/>
    <tag k="highway" v="residential"/>
    <tag k="name" v="Tooth Avenue"/>
  </way>
  <way id="7602471" version="8" timestamp="2010-07-08T03:06:56Z" uid="74617" user="JohnSmith" changeset="5163091">
    <nd ref="55157731"/>
    <nd ref="55158271"/>
    <nd ref="372410508"/>
    <nd ref="372410622"/>
    <nd ref="268906211"/>
    <tag k="highway" v="residential"/>
    <tag k="maxspeed" v="50"/>
    <tag k="maxspeed:source" v="default residential speed limit in Australia"/>
    <tag k="name" v="Tooth Avenue"/>
  </way>
  <way id="7602471" version="9" timestamp="2012-01-15T06:27:28Z" uid="147510" user="woodpeck_fixbot" changeset="10394821">
    <nd ref="55157731"/>
    <nd ref="55158271"/>
    <nd ref="372410508"/>
    <nd ref="372410622"/>
    <nd ref="268906211"/>
    <tag k="highway" v="residential"/>
    <tag k="name" v="Tooth Avenue"/>
  </way>
  <way id="7602498" version="2" timestamp="2008-06-07T05:44:30Z" uid="30201" user="rrankin" changeset="81397">
    <nd ref="55157770"/>
    <nd ref="268906211"/>
    <nd ref="55158160"/>
    <nd ref="55157912"/>
    <nd ref="55157869"/>
    <nd ref="268906214"/>
    <nd ref="55157825"/>
    <tag k="created_by" v="Potlatch alpha"/>
    <tag k="highway" v="residential"/>
  </way>
  <way id="7602498" version="3" timestamp="2008-06-13T23:22:32Z" uid="30201" user="rrankin" changeset="154901">
    <nd ref="55157770"/>
    <nd ref="268906211"/>
    <nd ref="55158160"/>
    <nd ref="55157912"/>
    <nd ref="55157869"/>
    <nd ref="268906214"/>
    <tag k="created_by" v="Potlatch alpha"/>
    <tag k="highway" v="residential"/>
    <tag k="name" v="Thele Avenue"/>
  </way>
  <way id="7602498" version="4" timestamp="2009-08-09T05:08:34Z" uid="1679" user="andrewpmk" changeset="2081302">
    <nd ref="55157770"/>
    <nd ref="268906211"/>
    <nd ref="55158160"/>
    <nd ref="55157912"/>
    <nd ref="372434053"/>
    <nd ref="55157869"/>
    <nd ref="372434039"/>
    <nd ref="268906214"/>
    <tag k="highway" v="residential"/>
    <tag k="name" v="Thele Avenue"/>
  </way>
  <way id="7602498" version="5" timestamp="2010-07-08T02:40:00Z" uid="74617" user="JohnSmith" changeset="5163091">
    <nd ref="55157770"/>
    <nd ref="268906211"/>
    <nd ref="55158160"/>
    <nd ref="55157912"/>
    <nd ref="372434053"/>
    <nd ref="55157869"/>
    <nd ref="372434039"/>
    <nd ref="268906214"/>
    <tag k="highway" v="residential"/>
    <tag k="maxspeed" v="50"/>
    <tag k="maxspeed:source" v="default residential speed limit in Australia"/>
    <tag k="name" v="Thele Avenue"/>
  </way>
  <way id="7602498" version="6" timestamp="2012-01-15T06:27:29Z" uid="147510" user="woodpeck_fixbot" changeset="10394821">
    <nd ref="55157770"/>
    <nd ref="268906211"/>
    <nd ref="55158160"/>
    <nd ref="55157912"/>
    <nd ref="372434053"/>
    <nd ref="55157869"/>
    <nd ref="372434039"/>
    <nd ref="268906214"/>
    <tag k="highway" v="residential"/>
    <tag k="name" v="Thele Avenue"/>
  </way>
  <way id="7602522" version="3" timestamp="2008-06-07T05:44:32Z" uid="30201" user="rrankin" changeset="81397">
    <nd ref="30961693"/>
    <nd ref="268906215"/>
    <nd ref="55157869"/>
    <tag k="highway" v="residential"/>
  </way>
  <way id="7602522" version="4" timestamp="2008-06-13T23:22:33Z" uid="30201" user="rrankin" changeset="154901">
    <nd ref="30961693"/>
    <nd ref="268906215"/>
    <nd ref="270194711"/>
    <nd ref="55157869"/>
    <tag k="highway" v="residential"/>
  </way>
  <way id="7602522" version="5" timestamp="2008-06-13T23:33:07Z" uid="30201" user="rrankin" changeset="154901">
    <nd ref="30961693"/>
    <nd ref="268906215"/>
    <nd ref="270194711"/>
    <nd ref="55157869"/>
    <tag k="highway" v="residential"/>
    <tag k="name" v="Periera Street"/>
  </way>
  <way id="7602522" version="6" timestamp="2010-07-08T03:07:06Z" uid="74617" user="JohnSmith" changeset="5163091">
    <nd ref="30961693"/>
    <nd ref="268906215"/>
    <nd ref="270194711"/>
    <nd ref="55157869"/>
    <tag k="highway" v="residential"/>
    <tag k="maxspeed" v="50"/>
    <tag k="maxspeed:source" v="default residential speed limit in Australia"/>
    <tag k="name" v="Periera Street"/>
  </way>
  <way id="7602522" version="7" timestamp="2012-01-15T06:27:31Z" uid="147510" user="woodpeck_fixbot" changeset="10394821">
    <nd ref="30961693"/>
    <nd ref="268906215"/>
    <nd ref="270194711"/>
    <nd ref="55157869"/>
    <tag k="highway" v="residential"/>
    <tag k="name" v="Periera Street"/>
  </way>
  <way id="7602649" version="2" timestamp="2008-06-07T05:44:35Z" uid="30201" user="rrankin" changeset="81397">
    <nd ref="55157912"/>
    <nd ref="55157776"/>
    <nd ref="55158152"/>
    <nd ref="55158153"/>
    <nd ref="55158154"/>
    <nd ref="55158155"/>
    <nd ref="55158156"/>
    <nd ref="55157825"/>
    <nd ref="55158157"/>
    <nd ref="55158158"/>
    <nd ref="268906215"/>
    <nd ref="55158159"/>
    <nd ref="55158160"/>
    <tag k="created_by" v="Potlatch alpha"/>
    <tag k="highway" v="residential"/>
  </way>
  <way id="7602649" version="3" timestamp="2008-06-13T23:22:35Z" uid="30201" user="rrankin" changeset="154901">
    <nd ref="55157912"/>
    <nd ref="55157776"/>
    <nd ref="55158152"/>
    <tag k="created_by" v="Potlatch alpha"/>
    <tag k="highway" v="residential"/>
  </way>
  <way id="7602649" version="4" timestamp="2008-06-13T23:33:09Z" uid="30201" user="rrankin" changeset="154901">
    <nd ref="55157912"/>
    <nd ref="55157776"/>
    <nd ref="55158152"/>
    <tag k="created_by" v="Potlatch alpha"/>
    <tag k="highway" v="residential"/>
    <tag k="name" v="Janet Avenue"/>
  </way>
  <way id="7602649" version="5" timestamp="2009-12-06T22:37:30Z" uid="30201" user="rrankin" changeset="3310717">
    <nd ref="55157912"/>
    <nd ref="55157776"/>
    <nd ref="372409287"/>
    <tag k="highway" v="residential"/>
    <tag k="name" v="Janet Avenue"/>
  </way>
  <way id="7602649" version="6" timestamp="2010-07-08T02:40:17Z" uid="74617" user="JohnSmith" changeset="5163091">
    <nd ref="55157912"/>
    <nd ref="55157776"/>
    <nd ref="372409287"/>
    <tag k="highway" v="residential"/>
    <tag k="maxspeed" v="50"/>
    <tag k="maxspeed:source" v="default residential speed limit in Australia"/>
    <tag k="name" v="Janet Avenue"/>
  </way>
  <way id="7602649" version="7" timestamp="2012-01-15T06:27:32Z" uid="147510" user="woodpeck_fixbot" changeset="10394821">
    <nd ref="55157912"/>
    <nd ref="55157776"/>
    <nd ref="372409287"/>
    <tag k="highway" v="residential"/>
    <tag k="name" v="Janet Avenue"/>
  </way>
  <way id="7602680" version="2" timestamp="2008-06-07T05:44:34Z" uid="30201" user="rrankin" changeset="81397">
    <nd ref="55158158"/>
    <nd ref="268906214"/>
    <nd ref="55158189"/>
    <nd ref="55158153"/>
    <tag k="created_by" v="Potlatch alpha"/>
    <tag k="highway" v="residential"/>
  </way>
  <way id="7602680" version="3" timestamp="2008-06-13T23:22:34Z" uid="30201" user="rrankin" changeset="154901">
    <nd ref="55158158"/>
    <nd ref="270194712"/>
    <nd ref="268906214"/>
    <nd ref="55158189"/>
    <nd ref="55158153"/>
    <tag k="created_by" v="Potlatch alpha"/>
    <tag k="highway" v="residential"/>
  </way>
  <way id="7602680" version="4" timestamp="2008-06-13T23:33:08Z" uid="30201" user="rrankin" changeset="154901">
    <nd ref="55158158"/>
    <nd ref="270194712"/>
    <nd ref="268906214"/>
    <nd ref="55158189"/>
    <nd ref="55158153"/>
    <tag k="created_by" v="Potlatch alpha"/>
    <tag k="highway" v="residential"/>
    <tag k="name" v="Beaurepaire Avenue"/>
  </way>
  <way id="7602680" version="5" timestamp="2010-07-08T02:40:22Z" uid="74617" user="JohnSmith" changeset="5163091">
    <nd ref="55158158"/>
    <nd ref="270194712"/>
    <nd ref="268906214"/>
    <nd ref="55158189"/>
    <nd ref="55158153"/>
    <tag k="highway" v="residential"/>
    <tag k="maxspeed" v="50"/>
    <tag k="maxspeed:source" v="default residential speed limit in Australia"/>
    <tag k="name" v="Beaurepaire Avenue"/>
  </way>
  <way id="7602680" version="6" timestamp="2012-01-15T06:27:32Z" uid="147510" user="woodpeck_fixbot" changeset="10394821">
    <nd ref="55158158"/>
    <nd ref="270194712"/>
    <nd ref="268906214"/>
    <nd ref="55158189"/>
    <nd ref="55158153"/>
    <tag k="highway" v="residential"/>
    <tag k="name" v="Beaurepaire Avenue"/>
  </way>
  <way id="7602718" version="2" timestamp="2008-06-14T00:26:06Z" uid="30201" user="rrankin" changeset="154901"/>
  <way id="7602799" version="3" timestamp="2009-01-07T07:10:05Z" uid="8807" user="brendanpuck" changeset="752317">
    <nd ref="55158271"/>
    <nd ref="55158383"/>
    <tag k="highway" v="residential"/>
    <tag k="name" v="Keino Avenue"/>
    <tag k="source" v="survey"/>
  </way>
  <way id="7602799" version="4" timestamp="2010-07-08T03:07:00Z" uid="74617" user="JohnSmith" changeset="5163091">
    <nd ref="55158271"/>
    <nd ref="55158383"/>
    <tag k="highway" v="residential"/>
    <tag k="maxspeed" v="50"/>
    <tag k="maxspeed:source" v="default residential speed limit in Australia"/>
    <tag k="name" v="Keino Avenue"/>
    <tag k="source" v="survey"/>
  </way>
  <way id="7602799" version="5" timestamp="2012-01-15T06:27:34Z" uid="147510" user="woodpeck_fixbot" changeset="10394821">
    <nd ref="55158271"/>
    <nd ref="55158383"/>
    <tag k="highway" v="residential"/>
    <tag k="name" v="Keino Avenue"/>
    <tag k="source" v="survey"/>
  </way>
  <way id="7602847" version="2" timestamp="2008-06-11T23:42:30Z" uid="30201" user="rrankin" changeset="136848">
    <nd ref="47385892"/>
    <nd ref="55158496"/>
    <tag k="created_by" v="Potlatch alpha"/>
    <tag k="highway" v="unclassified"/>
    <tag k="name" v="Rachael Close"/>
  </way>
  <way id="7602847" version="3" timestamp="2010-01-15T10:28:35Z" uid="7617" user="Franc" changeset="3623118">
    <nd ref="47385892"/>
    <nd ref="614107411"/>
    <nd ref="55158496"/>
    <tag k="highway" v="unclassified"/>
    <tag k="name" v="Rachael Close"/>
  </way>
  <way id="7602963" version="9" timestamp="2010-02-04T07:20:50Z" uid="9719" user="dvaey" changeset="3788353">
    <nd ref="53938906"/>
    <nd ref="628596940"/>
    <nd ref="55158395"/>
    <tag k="highway" v="primary"/>
    <tag k="maxspeed" v="80"/>
    <tag k="name" v="Erindale Drive"/>
    <tag k="oneway" v="yes"/>
  </way>
  <way id="7602963" version="10" timestamp="2010-08-22T12:35:20Z" uid="79475" user="AlexOnTheBus" changeset="5560639">
    <nd ref="53938906"/>
    <nd ref="628596940"/>
    <nd ref="873831780"/>
    <tag k="highway" v="primary"/>
    <tag k="maxspeed" v="80"/>
    <tag k="name" v="Erindale Drive"/>
    <tag k="oneway" v="yes"/>
  </way>
  <way id="7602963" version="11" timestamp="2010-08-22T12:35:58Z" uid="79475" user="AlexOnTheBus" changeset="5560639">
    <nd ref="53938906"/>
    <nd ref="628596940"/>
    <nd ref="873831780"/>
    <nd ref="873831972"/>
    <nd ref="628596937"/>
    <tag k="highway" v="primary"/>
    <tag k="maxspeed" v="80"/>
    <tag k="name" v="Erindale Drive"/>
    <tag k="oneway" v="yes"/>
  </way>
  <way id="7602998" version="2" timestamp="2008-06-14T06:31:19Z" uid="30201" user="rrankin" changeset="162213">
    <nd ref="55158649"/>
    <nd ref="55159524"/>
    <nd ref="55158880"/>
    <nd ref="55158881"/>
    <tag k="created_by" v="Potlatch alpha"/>
    <tag k="highway" v="residential"/>
    <tag k="name" v="Newington Road"/>
  </way>
  <way id="7602998" version="3" timestamp="2009-07-05T07:30:59Z" uid="7617" user="Franc" changeset="1736354">
    <nd ref="55158649"/>
    <nd ref="434313673"/>
    <nd ref="55159524"/>
    <nd ref="55158880"/>
    <nd ref="55158881"/>
    <tag k="created_by" v="Potlatch alpha"/>
    <tag k="highway" v="residential"/>
    <tag k="name" v="Newington Road"/>
  </way>
  <way id="7602998" version="4" timestamp="2009-12-06T02:12:03Z" uid="30201" user="rrankin" changeset="3300169">
    <nd ref="55158649"/>
    <nd ref="582304830"/>
    <nd ref="434313673"/>
    <nd ref="55159524"/>
    <nd ref="55158880"/>
    <nd ref="55158881"/>
    <tag k="highway" v="residential"/>
    <tag k="name" v="Newington Road"/>
  </way>
  <way id="7602998" version="5" timestamp="2010-07-08T01:44:59Z" uid="74617" user="JohnSmith" changeset="5162525">
    <nd ref="55158649"/>
    <nd ref="582304830"/>
    <nd ref="434313673"/>
    <nd ref="55159524"/>
    <nd ref="55158880"/>
    <nd ref="55158881"/>
    <tag k="highway" v="residential"/>
    <tag k="maxspeed" v="50"/>
    <tag k="maxspeed:source" v="default residential speed limit in Australia"/>
    <tag k="name" v="Newington Road"/>
  </way>
  <way id="7602998" version="6" timestamp="2012-01-15T06:27:35Z" uid="147510" user="woodpeck_fixbot" changeset="10394821">
    <nd ref="55158649"/>
    <nd ref="582304830"/>
    <nd ref="434313673"/>
    <nd ref="55159524"/>
    <nd ref="55158880"/>
    <nd ref="55158881"/>
    <tag k="highway" v="residential"/>
    <tag k="name" v="Newington Road"/>
  </way>
</osm>
