<?xml version='1.0' encoding='UTF-8'?>
<osm version="0.6" generator="libosmium/2.20.0">
  <way id="7606052" version="2" timestamp="2008-06-13T06:26:34Z" uid="30201" user="rrankin" changeset="152574">
    <nd ref="31928071"/>
    <nd ref="55166391"/>
    <nd ref="55166714"/>
    <nd ref="55166180"/>
    <tag k="created_by" v="Potlatch alpha"/>
    <tag k="highway" v="unclassified"/>
    <tag k="name" v="Holker Street"/>
  </way>
  <way id="7606158" version="2" timestamp="2008-06-13T06:26:32Z" uid="30201" user="rrankin" changeset="152574">
    <nd ref="55166187"/>
    <nd ref="55166376"/>
    <nd ref="55164830"/>
    <nd ref="55167392"/>
    <nd ref="55166501"/>
    <nd ref="55166378"/>
    <tag k="created_by" v="Potlatch alpha"/>
    <tag k="highway" v="unclassified"/>
    <tag k="name" v="Giffard Street"/>
  </way>
  <way id="7606189" version="2" timestamp="2009-07-05T07:31:00Z" uid="7617" user="Franc" changeset="1736354">
    <nd ref="55166376"/>
    <nd ref="55166391"/>
    <tag k="created_by" v="Potlatch alpha"/>
    <tag k="highway" v="unclassified"/>
    <tag k="name" v="Shaft Street"/>
    <tag k="source" v="survey"/>
  </way>
  <way id="7606226" version="2" timestamp="2008-06-13T06:26:36Z" uid="30201" user="rrankin" changeset="152574">
    <nd ref="55166458"/>
    <nd ref="55166501"/>
    <tag k="created_by" v="Potlatch alpha"/>
    <tag k="highway" v="unclassified"/>
    <tag k="name" v="Carolyn Street"/>
  </way>
  <way id="7606264" version="2" timestamp="2008-06-13T06:26:37Z" uid="30201" user="rrankin" changeset="152574">
    <nd ref="55166521"/>
    <nd ref="55166727"/>
    <nd ref="55166608"/>
    <nd ref="55166594"/>
    <tag k="created_by" v="Potlatch alpha"/>
    <tag k="highway" v="unclassified"/>
    <tag k="name" v="River Street"/>
  </way>
  <way id="7606323" version="2" timestamp="2009-07-05T07:30:58Z" uid="7617" user="Franc" changeset="1736354">
    <nd ref="55166608"/>
    <nd ref="55166714"/>
    <tag k="created_by" v="Potlatch alpha"/>
    <tag k="highway" v="unclassified"/>
    <tag k="name" v="Shaft Street"/>
    <tag k="source" v="survey"/>
  </way>
  <way id="7606387" version="2" timestamp="2008-06-13T06:26:30Z" uid="30201" user="rrankin" changeset="152574">
    <nd ref="55166747"/>
    <nd ref="55167032"/>
    <nd ref="55167204"/>
    <nd ref="55167005"/>
    <tag k="created_by" v="Potlatch alpha"/>
    <tag k="highway" v="unclassified"/>
    <tag k="name" v="Blaxland Street"/>
  </way>
  <way id="7606387" version="3" timestamp="2009-07-05T07:31:00Z" uid="7617" user="Franc" changeset="1736354">
    <nd ref="55166747"/>
    <nd ref="55167032"/>
    <nd ref="55167204"/>
    <nd ref="55167005"/>
    <nd ref="434313671"/>
    <tag k="created_by" v="Potlatch alpha"/>
    <tag k="highway" v="unclassified"/>
    <tag k="name" v="Blaxland Street"/>
    <tag k="source:name" v="survey"/>
  </way>
  <way id="7606464" version="2" timestamp="2008-06-13T06:26:33Z" uid="30201" user="rrankin" changeset="152574">
    <nd ref="55158944"/>
    <nd ref="55167003"/>
    <nd ref="55167004"/>
    <tag k="created_by" v="Potlatch alpha"/>
    <tag k="highway" v="unclassified"/>
    <tag k="name" v="Clyde Street"/>
  </way>
  <way id="7606508" version="2" timestamp="2009-07-05T07:31:00Z" uid="7617" user="Franc" changeset="1736354">
    <nd ref="55167003"/>
    <nd ref="55167032"/>
    <tag k="created_by" v="Potlatch alpha"/>
    <tag k="highway" v="residential"/>
    <tag k="name" v="Silver Street"/>
    <tag k="source" v="survey"/>
  </way>
  <way id="7606508" version="3" timestamp="2010-07-08T01:44:18Z" uid="74617" user="JohnSmith" changeset="5162525">
    <nd ref="55167003"/>
    <nd ref="55167032"/>
    <tag k="highway" v="residential"/>
    <tag k="maxspeed" v="50"/>
    <tag k="maxspeed:source" v="default residential speed limit in Australia"/>
    <tag k="name" v="Silver Street"/>
    <tag k="source" v="survey"/>
  </way>
  <way id="7606508" version="4" timestamp="2012-01-15T06:27:49Z" uid="147510" user="woodpeck_fixbot" changeset="10394821">
    <nd ref="55167003"/>
    <nd ref="55167032"/>
    <tag k="highway" v="residential"/>
    <tag k="name" v="Silver Street"/>
    <tag k="source" v="survey"/>
  </way>
  <way id="7606631" version="2" timestamp="2009-07-05T07:31:00Z" uid="7617" user="Franc" changeset="1736354">
    <nd ref="55167204"/>
    <nd ref="55166727"/>
    <tag k="created_by" v="Potlatch alpha"/>
    <tag k="highway" v="residential"/>
    <tag k="name" v="Silver Street"/>
    <tag k="source" v="survey"/>
  </way>
  <way id="7606631" version="3" timestamp="2010-07-08T01:43:23Z" uid="74617" user="JohnSmith" changeset="5162525">
    <nd ref="55167204"/>
    <nd ref="55166727"/>
    <tag k="highway" v="residential"/>
    <tag k="maxspeed" v="50"/>
    <tag k="maxspeed:source" v="default residential speed limit in Australia"/>
    <tag k="name" v="Silver Street"/>
    <tag k="source" v="survey"/>
  </way>
  <way id="7606631" version="4" timestamp="2012-01-15T06:27:50Z" uid="147510" user="woodpeck_fixbot" changeset="10394821">
    <nd ref="55167204"/>
    <nd ref="55166727"/>
    <tag k="highway" v="residential"/>
    <tag k="name" v="Silver Street"/>
    <tag k="source" v="survey"/>
  </way>
  <way id="7606799" version="2" timestamp="2008-06-13T06:26:29Z" uid="30201" user="rrankin" changeset="152574">
    <nd ref="55167392"/>
    <nd ref="55167689"/>
    <tag k="created_by" v="Potlatch alpha"/>
    <tag k="highway" v="unclassified"/>
    <tag k="name" v="Coal Street"/>
  </way>
  <way id="7606799" version="3" timestamp="2009-07-05T07:30:58Z" uid="7617" user="Franc" changeset="1736354">
    <nd ref="55167392"/>
    <nd ref="434313670"/>
    <nd ref="55167689"/>
    <tag k="created_by" v="Potlatch alpha"/>
    <tag k="highway" v="unclassified"/>
    <tag k="name" v="Coal Street"/>
    <tag k="source" v="survey"/>
  </way>
</osm>
