<?xml version='1.0' encoding='UTF-8'?>
<osm version="0.6" generator="libosmium/2.20.0">
  <way id="76341392" version="3" timestamp="2011-04-19T11:16:00Z" uid="7617" user="Franc" changeset="7905511">
    <nd ref="900134804"/>
    <nd ref="900134803"/>
    <nd ref="900134714"/>
    <nd ref="900134576"/>
    <nd ref="900134387"/>
    <nd ref="900134258"/>
    <nd ref="60796427"/>
    <nd ref="1251052776"/>
    <nd ref="1251052711"/>
    <nd ref="1251052647"/>
    <nd ref="900133661"/>
    <nd ref="251214545"/>
    <tag k="highway" v="trunk"/>
    <tag k="name" v="Sturt Highway"/>
    <tag k="source" v="nearmap"/>
  </way>
  <way id="76341392" version="4" timestamp="2011-06-05T14:02:35Z" uid="67896" user="mrpulley" changeset="8349471">
    <nd ref="900134804"/>
    <nd ref="900134803"/>
    <nd ref="900134714"/>
    <nd ref="900134576"/>
    <nd ref="900134387"/>
    <nd ref="900134258"/>
    <nd ref="60796427"/>
    <nd ref="1251052776"/>
    <nd ref="1251052711"/>
    <nd ref="1251052647"/>
    <nd ref="900133661"/>
    <nd ref="251214545"/>
    <tag k="highway" v="trunk"/>
    <tag k="name" v="Sturt Highway"/>
    <tag k="ref" v="A20;A79"/>
    <tag k="source" v="nearmap"/>
    <tag k="surface" v="asphalt"/>
  </way>
  <way id="76341392" version="5" timestamp="2011-06-18T13:17:07Z" uid="67896" user="mrpulley" changeset="8473223">
    <nd ref="900134804"/>
    <nd ref="900134803"/>
    <nd ref="900134714"/>
    <nd ref="900134576"/>
    <nd ref="900134387"/>
    <nd ref="900134258"/>
    <nd ref="60796427"/>
    <nd ref="1251052776"/>
    <nd ref="1251052711"/>
    <nd ref="1251052647"/>
    <nd ref="900133661"/>
    <nd ref="251214545"/>
    <tag k="highway" v="trunk"/>
    <tag k="name" v="Deakin Avenue"/>
    <tag k="ref" v="A20;A79"/>
    <tag k="source" v="nearmap"/>
    <tag k="surface" v="asphalt"/>
  </way>
</osm>
