<?xml version='1.0' encoding='UTF-8'?>
<osm version="0.6" generator="libosmium/2.20.0">
  <way id="7659126" version="7" timestamp="2008-12-22T00:10:06Z" uid="1066" user="pavel" changeset="541832">
    <nd ref="29166269"/>
    <nd ref="7081082"/>
    <nd ref="7080856"/>
    <nd ref="30024849"/>
    <nd ref="30024850"/>
    <nd ref="7080854"/>
    <nd ref="243518635"/>
    <nd ref="7080850"/>
    <nd ref="243518640"/>
    <nd ref="30024851"/>
    <nd ref="7080847"/>
    <nd ref="7080844"/>
    <nd ref="320778010"/>
    <nd ref="7080841"/>
    <nd ref="29447592"/>
    <nd ref="7080835"/>
    <nd ref="7080821"/>
    <nd ref="21263162"/>
    <nd ref="55505421"/>
    <nd ref="483390"/>
    <nd ref="483389"/>
    <nd ref="65354242"/>
    <nd ref="8811408"/>
    <tag k="created_by" v="Potlatch 0.10b"/>
    <tag k="highway" v="primary"/>
    <tag k="name" v="Přátelství"/>
    <tag k="note" v="Hlavní cesta Praha - Říčany"/>
    <tag k="ref" v="2"/>
    <tag k="source:ref" v="survey"/>
  </way>
  <way id="7659126" version="8" timestamp="2009-02-10T19:25:11Z" uid="8007" user="vrabcak" changeset="325867">
    <nd ref="29166269"/>
    <nd ref="7081082"/>
    <nd ref="7080856"/>
    <nd ref="30024849"/>
    <nd ref="30024850"/>
    <nd ref="7080854"/>
    <nd ref="243518635"/>
    <nd ref="7080850"/>
    <nd ref="243518640"/>
    <nd ref="30024851"/>
    <nd ref="7080847"/>
    <nd ref="7080844"/>
    <nd ref="344247186"/>
    <nd ref="320778010"/>
    <nd ref="7080841"/>
    <nd ref="29447592"/>
    <nd ref="7080835"/>
    <nd ref="7080821"/>
    <nd ref="21263162"/>
    <nd ref="55505421"/>
    <nd ref="483390"/>
    <nd ref="483389"/>
    <nd ref="65354242"/>
    <nd ref="8811408"/>
    <tag k="created_by" v="Potlatch 0.10b"/>
    <tag k="highway" v="primary"/>
    <tag k="name" v="Přátelství"/>
    <tag k="note" v="Hlavní cesta Praha - Říčany"/>
    <tag k="ref" v="2"/>
    <tag k="source:ref" v="survey"/>
  </way>
  <way id="7659126" version="9" timestamp="2009-02-10T19:33:49Z" uid="8007" user="vrabcak" changeset="325867">
    <nd ref="29166269"/>
    <nd ref="7081082"/>
    <nd ref="7080856"/>
    <nd ref="30024849"/>
    <nd ref="30024850"/>
    <nd ref="7080854"/>
    <nd ref="243518635"/>
    <nd ref="7080850"/>
    <nd ref="243518640"/>
    <nd ref="30024851"/>
    <nd ref="344251647"/>
    <nd ref="7080847"/>
    <nd ref="7080844"/>
    <nd ref="344247186"/>
    <nd ref="320778010"/>
    <nd ref="7080841"/>
    <nd ref="29447592"/>
    <nd ref="7080835"/>
    <nd ref="7080821"/>
    <nd ref="21263162"/>
    <nd ref="55505421"/>
    <nd ref="483390"/>
    <nd ref="483389"/>
    <nd ref="65354242"/>
    <nd ref="8811408"/>
    <tag k="created_by" v="Potlatch 0.10b"/>
    <tag k="highway" v="primary"/>
    <tag k="name" v="Přátelství"/>
    <tag k="note" v="Hlavní cesta Praha - Říčany"/>
    <tag k="ref" v="2"/>
    <tag k="source:ref" v="survey"/>
  </way>
  <way id="7659126" version="10" timestamp="2009-03-03T21:09:38Z" uid="1066" user="pavel" changeset="729965">
    <nd ref="29166269"/>
    <nd ref="7081082"/>
    <nd ref="7080856"/>
    <nd ref="30024849"/>
    <nd ref="30024850"/>
    <nd ref="355309161"/>
    <nd ref="7080854"/>
    <nd ref="243518635"/>
    <nd ref="7080850"/>
    <nd ref="243518640"/>
    <nd ref="30024851"/>
    <nd ref="344251647"/>
    <nd ref="7080847"/>
    <nd ref="7080844"/>
    <nd ref="344247186"/>
    <nd ref="320778010"/>
    <nd ref="7080841"/>
    <nd ref="29447592"/>
    <nd ref="7080835"/>
    <nd ref="7080821"/>
    <nd ref="21263162"/>
    <nd ref="55505421"/>
    <nd ref="483390"/>
    <nd ref="483389"/>
    <nd ref="65354242"/>
    <nd ref="8811408"/>
    <tag k="created_by" v="Potlatch 0.10b"/>
    <tag k="highway" v="primary"/>
    <tag k="name" v="Přátelství"/>
    <tag k="note" v="Hlavní cesta Praha - Říčany"/>
    <tag k="ref" v="2"/>
    <tag k="source:ref" v="survey"/>
  </way>
  <way id="7659126" version="11" timestamp="2009-03-05T15:31:22Z" uid="8007" user="vrabcak" changeset="739220">
    <nd ref="29166269"/>
    <nd ref="7081082"/>
    <nd ref="7080856"/>
    <nd ref="30024849"/>
    <nd ref="30024850"/>
    <nd ref="355309161"/>
    <nd ref="7080854"/>
    <nd ref="243518635"/>
    <nd ref="7080850"/>
    <nd ref="243518640"/>
    <nd ref="30024851"/>
    <nd ref="344251647"/>
    <nd ref="7080847"/>
    <nd ref="7080844"/>
    <nd ref="355906082"/>
    <nd ref="344247186"/>
    <nd ref="320778010"/>
    <nd ref="7080841"/>
    <nd ref="29447592"/>
    <nd ref="7080835"/>
    <nd ref="7080821"/>
    <nd ref="21263162"/>
    <nd ref="55505421"/>
    <nd ref="483390"/>
    <nd ref="483389"/>
    <nd ref="65354242"/>
    <nd ref="8811408"/>
    <tag k="created_by" v="Potlatch 0.10b"/>
    <tag k="highway" v="primary"/>
    <tag k="name" v="Přátelství"/>
    <tag k="note" v="Hlavní cesta Praha - Říčany"/>
    <tag k="ref" v="2"/>
    <tag k="source:ref" v="survey"/>
  </way>
  <way id="7659126" version="12" timestamp="2009-04-05T21:27:02Z" uid="17615" user="Petr Dlouhý" changeset="219256">
    <nd ref="29166269"/>
    <nd ref="7081082"/>
    <nd ref="7080856"/>
    <nd ref="30024849"/>
    <nd ref="30024850"/>
    <nd ref="355309161"/>
    <nd ref="7080854"/>
    <nd ref="243518635"/>
    <nd ref="7080850"/>
    <nd ref="243518640"/>
    <nd ref="30024851"/>
    <nd ref="344251647"/>
    <nd ref="7080847"/>
    <tag k="created_by" v="Potlatch 0.10b"/>
    <tag k="highway" v="primary"/>
    <tag k="name" v="Přátelství"/>
    <tag k="note" v="Hlavní cesta Praha - Říčany"/>
    <tag k="ref" v="2"/>
    <tag k="source:ref" v="survey"/>
  </way>
  <way id="7659126" version="13" timestamp="2009-05-21T20:18:59Z" uid="126741" user="LStealth" changeset="1280450">
    <nd ref="29166269"/>
    <nd ref="7081082"/>
    <nd ref="7080856"/>
    <nd ref="30024849"/>
    <nd ref="30024850"/>
    <nd ref="355309161"/>
    <nd ref="7080854"/>
    <nd ref="243518635"/>
    <nd ref="7080850"/>
    <nd ref="409198481"/>
    <tag k="created_by" v="Potlatch 0.10b"/>
    <tag k="highway" v="primary"/>
    <tag k="name" v="Přátelství"/>
    <tag k="note" v="Hlavní cesta Praha - Říčany"/>
    <tag k="ref" v="2"/>
    <tag k="source:ref" v="survey"/>
  </way>
  <way id="7659126" version="14" timestamp="2009-09-01T00:27:45Z" uid="23543" user="jkjk" changeset="2332611">
    <nd ref="29166269"/>
    <nd ref="7081082"/>
    <nd ref="7080856"/>
    <nd ref="30024849"/>
    <nd ref="30024850"/>
    <nd ref="355309161"/>
    <nd ref="7080854"/>
    <nd ref="243518635"/>
    <nd ref="7080850"/>
    <nd ref="409198481"/>
    <tag k="highway" v="primary"/>
    <tag k="kct_red" v="major"/>
    <tag k="name" v="Přátelství"/>
    <tag k="note" v="Hlavní cesta Praha - Říčany"/>
    <tag k="ref" v="2"/>
    <tag k="source:ref" v="survey"/>
  </way>
  <way id="7659126" version="15" timestamp="2009-09-09T21:38:55Z" uid="17615" user="Petr Dlouhý" changeset="2430703">
    <nd ref="29166269"/>
    <nd ref="7081082"/>
    <nd ref="7080856"/>
    <nd ref="30024849"/>
    <nd ref="30024850"/>
    <nd ref="355309161"/>
    <nd ref="7080854"/>
    <nd ref="243518635"/>
    <nd ref="7080850"/>
    <nd ref="409198481"/>
    <tag k="highway" v="primary"/>
    <tag k="name" v="Přátelství"/>
    <tag k="note" v="Hlavní cesta Praha - Říčany"/>
    <tag k="ref" v="2"/>
    <tag k="source:ref" v="survey"/>
  </way>
  <way id="7659126" version="16" timestamp="2011-02-24T11:26:17Z" uid="25867" user="adamos" changeset="7380620">
    <nd ref="29166269"/>
    <nd ref="1169894059"/>
    <nd ref="7081082"/>
    <nd ref="7080856"/>
    <nd ref="30024849"/>
    <nd ref="30024850"/>
    <nd ref="355309161"/>
    <nd ref="1169894064"/>
    <nd ref="7080854"/>
    <nd ref="243518635"/>
    <nd ref="7080850"/>
    <nd ref="409198481"/>
    <tag k="highway" v="primary"/>
    <tag k="name" v="Přátelství"/>
    <tag k="note" v="Hlavní cesta Praha - Říčany"/>
    <tag k="ref" v="2"/>
    <tag k="source:ref" v="survey"/>
  </way>
  <way id="7659126" version="17" timestamp="2011-05-14T10:56:34Z" uid="126741" user="LStealth" changeset="8138105">
    <nd ref="29166269"/>
    <nd ref="1169894059"/>
    <nd ref="7081082"/>
    <nd ref="7080856"/>
    <nd ref="30024849"/>
    <nd ref="30024850"/>
    <nd ref="355309161"/>
    <nd ref="1169894064"/>
    <nd ref="7080854"/>
    <nd ref="243518635"/>
    <nd ref="1284006139"/>
    <nd ref="7080850"/>
    <nd ref="409198481"/>
    <tag k="highway" v="primary"/>
    <tag k="name" v="Přátelství"/>
    <tag k="note" v="Hlavní cesta Praha - Říčany"/>
    <tag k="ref" v="2"/>
    <tag k="source:ref" v="survey"/>
  </way>
  <way id="7659126" version="18" timestamp="2011-10-08T17:35:43Z" uid="527259" user="Vratislav Filler" changeset="9504913">
    <nd ref="29166269"/>
    <nd ref="1169894059"/>
    <nd ref="1459107058"/>
    <nd ref="7081082"/>
    <nd ref="7080856"/>
    <nd ref="30024849"/>
    <nd ref="30024850"/>
    <nd ref="355309161"/>
    <nd ref="1459107043"/>
    <nd ref="1169894064"/>
    <nd ref="7080854"/>
    <nd ref="243518635"/>
    <nd ref="1284006139"/>
    <nd ref="7080850"/>
    <nd ref="409198481"/>
    <tag k="highway" v="primary"/>
    <tag k="name" v="Přátelství"/>
    <tag k="note" v="Hlavní cesta Praha - Říčany"/>
    <tag k="ref" v="2"/>
    <tag k="source:ref" v="survey"/>
  </way>
  <way id="7659126" version="19" timestamp="2012-02-10T23:54:22Z" uid="507276" user="FuckOSMFandODbL" changeset="10648663">
    <nd ref="29166269"/>
    <nd ref="1169894059"/>
    <nd ref="1459107058"/>
    <nd ref="7081082"/>
    <nd ref="7080856"/>
    <tag k="highway" v="primary"/>
    <tag k="name" v="Přátelství"/>
    <tag k="note" v="Hlavní cesta Praha - Říčany"/>
    <tag k="ref" v="2"/>
    <tag k="source:ref" v="survey"/>
  </way>
  <way id="7659281" version="1" timestamp="2007-09-20T21:45:13Z" uid="6454" user="B10xxx" changeset="484736">
    <nd ref="55503146"/>
    <nd ref="55507220"/>
    <nd ref="28535845"/>
    <tag k="created_by" v="JOSM"/>
    <tag k="highway" v="secondary"/>
    <tag k="ref" v="improve_me"/>
  </way>
  <way id="7659281" version="2" timestamp="2008-02-27T21:23:19Z" uid="21310" user="HStrupp" changeset="222745"/>
</osm>
