<?xml version='1.0' encoding='UTF-8'?>
<osm version="0.6" generator="libosmium/2.20.0">
  <way id="7661183" version="1" timestamp="2007-09-20T22:09:49Z" uid="6454" user="B10xxx" changeset="484736">
    <nd ref="26820515"/>
    <nd ref="55526965"/>
    <nd ref="55526936"/>
    <tag k="created_by" v="JOSM"/>
    <tag k="highway" v="residential"/>
  </way>
  <way id="7661183" version="2" timestamp="2008-01-18T00:49:53Z" uid="6454" user="B10xxx" changeset="658570">
    <nd ref="26820515"/>
    <nd ref="55526965"/>
    <nd ref="236105404"/>
    <nd ref="55526936"/>
    <tag k="created_by" v="Potlatch 0.6c"/>
    <tag k="highway" v="residential"/>
  </way>
  <way id="7661183" version="3" timestamp="2008-06-05T16:00:05Z" uid="17602" user="B10xyz" changeset="57886">
    <nd ref="26820515"/>
    <nd ref="55526965"/>
    <nd ref="236105404"/>
    <nd ref="55526936"/>
    <tag k="created_by" v="Potlatch 0.6c"/>
    <tag k="highway" v="residential"/>
    <tag k="name" v="Georg-August-Straße"/>
  </way>
  <way id="7661183" version="4" timestamp="2011-11-30T21:27:30Z" uid="65268" user="mattsches" changeset="10003441">
    <nd ref="1525326048"/>
    <nd ref="26820515"/>
    <tag k="highway" v="residential"/>
    <tag k="name" v="Georg-August-Straße"/>
    <tag k="oneway" v="yes"/>
  </way>
  <way id="7661183" version="5" timestamp="2012-01-01T14:05:21Z" uid="328555" user="peb12345" changeset="10261596"/>
  <way id="7661185" version="1" timestamp="2007-09-20T22:09:50Z" uid="6454" user="B10xxx" changeset="484736">
    <nd ref="55526936"/>
    <nd ref="26821948"/>
    <tag k="created_by" v="JOSM"/>
    <tag k="highway" v="residential"/>
  </way>
  <way id="7661185" version="2" timestamp="2008-06-18T21:17:25Z" uid="17602" user="B10xyz" changeset="219178">
    <nd ref="55526936"/>
    <nd ref="26821948"/>
    <tag k="created_by" v="JOSM"/>
    <tag k="highway" v="residential"/>
    <tag k="name" v="Westerwaldstraße"/>
    <tag k="oneway" v="yes"/>
  </way>
  <way id="7661185" version="3" timestamp="2008-12-13T17:59:58Z" uid="17602" user="B10xyz" changeset="354472">
    <nd ref="26821948"/>
    <nd ref="55526936"/>
    <tag k="created_by" v="JOSM"/>
    <tag k="highway" v="residential"/>
    <tag k="name" v="Westerwaldstraße"/>
    <tag k="oneway" v="yes"/>
  </way>
  <way id="7661185" version="4" timestamp="2010-03-31T14:25:05Z" uid="28378" user="PHerison" changeset="4285754">
    <nd ref="26821948"/>
    <nd ref="55526936"/>
    <tag k="highway" v="residential"/>
    <tag k="name" v="Westerwaldstraße"/>
    <tag k="oneway" v="yes"/>
  </way>
  <way id="7661185" version="5" timestamp="2010-11-04T14:47:11Z" uid="65268" user="mattsches" changeset="6289010">
    <nd ref="26821948"/>
    <nd ref="976577754"/>
    <nd ref="55526936"/>
    <tag k="highway" v="residential"/>
    <tag k="name" v="Westerwaldstraße"/>
    <tag k="oneway" v="yes"/>
  </way>
  <way id="7661185" version="6" timestamp="2012-01-01T14:05:21Z" uid="328555" user="peb12345" changeset="10261596"/>
  <way id="7661188" version="1" timestamp="2007-09-20T22:09:50Z" uid="6454" user="B10xxx" changeset="484736">
    <nd ref="55526965"/>
    <nd ref="55526926"/>
    <nd ref="26821947"/>
    <tag k="created_by" v="JOSM"/>
    <tag k="highway" v="residential"/>
  </way>
  <way id="7661188" version="2" timestamp="2008-06-18T21:17:23Z" uid="17602" user="B10xyz" changeset="219178">
    <nd ref="55526965"/>
    <nd ref="55526926"/>
    <nd ref="26821947"/>
    <tag k="created_by" v="JOSM"/>
    <tag k="cycleway" v="opposite"/>
    <tag k="highway" v="residential"/>
    <tag k="name" v="Eckernfördestraße"/>
    <tag k="oneway" v="yes"/>
  </way>
  <way id="7661188" version="3" timestamp="2010-03-31T14:25:05Z" uid="28378" user="PHerison" changeset="4285754">
    <nd ref="55526965"/>
    <nd ref="55526926"/>
    <nd ref="26821947"/>
    <tag k="cycleway" v="opposite"/>
    <tag k="highway" v="residential"/>
    <tag k="name" v="Eckernfördestraße"/>
    <tag k="oneway" v="yes"/>
  </way>
  <way id="7661188" version="4" timestamp="2012-01-01T14:05:20Z" uid="328555" user="peb12345" changeset="10261596"/>
  <way id="7661189" version="1" timestamp="2007-09-22T22:06:31Z" uid="6454" user="B10xxx" changeset="497313">
    <nd ref="55526926"/>
    <nd ref="26820494"/>
    <tag k="created_by" v="JOSM"/>
    <tag k="highway" v="residential"/>
    <tag k="oneway" v="yes"/>
  </way>
  <way id="7661189" version="2" timestamp="2008-06-05T16:00:06Z" uid="17602" user="B10xyz" changeset="57886">
    <nd ref="55526926"/>
    <nd ref="26820494"/>
    <tag k="created_by" v="JOSM"/>
    <tag k="highway" v="residential"/>
    <tag k="name" v="Waterloostraße"/>
    <tag k="oneway" v="yes"/>
  </way>
  <way id="7661189" version="3" timestamp="2008-06-18T21:17:25Z" uid="17602" user="B10xyz" changeset="219178">
    <nd ref="271236327"/>
    <nd ref="271236326"/>
    <nd ref="55526926"/>
    <tag k="created_by" v="JOSM"/>
    <tag k="highway" v="residential"/>
    <tag k="name" v="Waterloostraße"/>
  </way>
  <way id="7661189" version="4" timestamp="2008-08-25T20:49:25Z" uid="17602" user="B10xyz" changeset="402551">
    <nd ref="271236327"/>
    <nd ref="291074426"/>
    <nd ref="271236326"/>
    <nd ref="55526926"/>
    <tag k="created_by" v="JOSM"/>
    <tag k="highway" v="living_street"/>
    <tag k="name" v="Waterloostraße"/>
  </way>
  <way id="7661189" version="5" timestamp="2010-06-27T12:19:08Z" uid="94353" user="Fips" changeset="5089042">
    <nd ref="271236327"/>
    <nd ref="291074426"/>
    <nd ref="271236326"/>
    <tag k="highway" v="living_street"/>
    <tag k="name" v="Waterloostraße"/>
  </way>
  <way id="7661189" version="6" timestamp="2012-01-05T13:34:18Z" uid="328555" user="peb12345" changeset="10300945"/>
  <way id="7661191" version="1" timestamp="2007-09-20T22:09:51Z" uid="6454" user="B10xxx" changeset="484736">
    <nd ref="55526981"/>
    <nd ref="55526990"/>
    <tag k="created_by" v="JOSM"/>
    <tag k="highway" v="residential"/>
  </way>
  <way id="7661191" version="2" timestamp="2008-07-26T17:24:37Z" uid="8764" user="egore911" changeset="599497">
    <nd ref="55526981"/>
    <nd ref="55526990"/>
    <tag k="created_by" v="JOSM"/>
    <tag k="highway" v="residential"/>
    <tag k="name" v="Waterloostraße"/>
  </way>
  <way id="7661191" version="3" timestamp="2012-01-05T13:34:17Z" uid="328555" user="peb12345" changeset="10300945"/>
</osm>
