<?xml version='1.0' encoding='UTF-8'?>
<osm version="0.6" generator="libosmium/2.20.0">
  <way id="77198379" version="1" timestamp="2010-09-12T17:26:04Z" uid="9581" user="Lobelt" changeset="5762017">
    <nd ref="908790859"/>
    <nd ref="29332699"/>
    <tag k="bridge" v="yes"/>
    <tag k="highway" v="motorway"/>
    <tag k="layer" v="1"/>
    <tag k="oneway" v="yes"/>
    <tag k="ref" v="A 65"/>
  </way>
  <way id="77198379" version="2" timestamp="2012-02-25T11:22:20Z" uid="418724" user="wintersportler" changeset="10786556"/>
  <way id="77198382" version="1" timestamp="2010-09-12T17:26:05Z" uid="9581" user="Lobelt" changeset="5762017">
    <nd ref="908790904"/>
    <nd ref="259081576"/>
    <tag k="highway" v="motorway"/>
    <tag k="maxspeed" v="no"/>
    <tag k="oneway" v="yes"/>
    <tag k="osmarender:renderName" v="no"/>
    <tag k="osmarender:renderRef" v="no"/>
    <tag k="ref" v="A 65"/>
  </way>
  <way id="77198382" version="4" timestamp="2011-01-06T20:56:48Z" uid="207745" user="NE2" changeset="6886621">
    <nd ref="908790904"/>
    <nd ref="259081576"/>
    <tag k="highway" v="motorway"/>
    <tag k="maxspeed" v="none"/>
    <tag k="oneway" v="yes"/>
    <tag k="ref" v="A 65"/>
    <tag k="source:maxspeed" v="DE:motorway"/>
    <tag k="zone:traffic" v="DE:rural"/>
  </way>
  <way id="77198382" version="5" timestamp="2012-02-25T11:19:34Z" uid="418724" user="wintersportler" changeset="10786556"/>
</osm>
