<?xml version='1.0' encoding='UTF-8'?>
<osm version="0.6" generator="libosmium/2.20.0">
  <way id="7735071" version="3" timestamp="2010-07-09T06:36:17Z" uid="74617" user="JohnSmith" changeset="5171134">
    <nd ref="56339039"/>
    <nd ref="56340851"/>
    <nd ref="56340374"/>
    <tag k="highway" v="residential"/>
    <tag k="maxspeed" v="50"/>
    <tag k="maxspeed:source" v="default residential speed limit in Australia"/>
    <tag k="name" v="Rosedale Avenue"/>
    <tag k="source" v="Yahoo"/>
  </way>
  <way id="7735071" version="4" timestamp="2012-01-15T06:28:47Z" uid="147510" user="woodpeck_fixbot" changeset="10394821">
    <nd ref="56339039"/>
    <nd ref="56340851"/>
    <nd ref="56340374"/>
    <tag k="highway" v="residential"/>
    <tag k="name" v="Rosedale Avenue"/>
    <tag k="source" v="Yahoo"/>
  </way>
  <way id="7735278" version="3" timestamp="2010-07-09T06:38:11Z" uid="74617" user="JohnSmith" changeset="5171134">
    <nd ref="56341798"/>
    <nd ref="56344070"/>
    <nd ref="56340374"/>
    <nd ref="56344071"/>
    <nd ref="56344072"/>
    <nd ref="56344073"/>
    <tag k="highway" v="residential"/>
    <tag k="maxspeed" v="50"/>
    <tag k="maxspeed:source" v="default residential speed limit in Australia"/>
    <tag k="name" v="Cooper Angus Grove"/>
    <tag k="source" v="Yahoo"/>
  </way>
  <way id="7735278" version="4" timestamp="2012-01-15T06:28:48Z" uid="147510" user="woodpeck_fixbot" changeset="10394821">
    <nd ref="56341798"/>
    <nd ref="56344070"/>
    <nd ref="56340374"/>
    <nd ref="56344071"/>
    <nd ref="56344072"/>
    <nd ref="56344073"/>
    <tag k="highway" v="residential"/>
    <tag k="name" v="Cooper Angus Grove"/>
    <tag k="source" v="Yahoo"/>
  </way>
  <way id="7735303" version="3" timestamp="2010-07-09T06:38:17Z" uid="74617" user="JohnSmith" changeset="5171134">
    <nd ref="56341796"/>
    <nd ref="56340851"/>
    <tag k="highway" v="residential"/>
    <tag k="maxspeed" v="50"/>
    <tag k="maxspeed:source" v="default residential speed limit in Australia"/>
    <tag k="name" v="Loma Linda Grove"/>
    <tag k="source" v="Yahoo"/>
  </way>
  <way id="7735303" version="4" timestamp="2012-01-15T06:28:49Z" uid="147510" user="woodpeck_fixbot" changeset="10394821">
    <nd ref="56341796"/>
    <nd ref="56340851"/>
    <tag k="highway" v="residential"/>
    <tag k="name" v="Loma Linda Grove"/>
    <tag k="source" v="Yahoo"/>
  </way>
  <way id="7735427" version="3" timestamp="2010-07-09T06:36:39Z" uid="74617" user="JohnSmith" changeset="5171134">
    <nd ref="56344070"/>
    <nd ref="56347110"/>
    <nd ref="56347111"/>
    <nd ref="56347113"/>
    <tag k="highway" v="residential"/>
    <tag k="maxspeed" v="50"/>
    <tag k="maxspeed:source" v="default residential speed limit in Australia"/>
    <tag k="name" v="Wanbrow Avenue"/>
    <tag k="source" v="Yahoo"/>
  </way>
  <way id="7735427" version="4" timestamp="2012-01-15T06:28:50Z" uid="147510" user="woodpeck_fixbot" changeset="10394821">
    <nd ref="56344070"/>
    <nd ref="56347110"/>
    <nd ref="56347111"/>
    <nd ref="56347113"/>
    <tag k="highway" v="residential"/>
    <tag k="name" v="Wanbrow Avenue"/>
    <tag k="source" v="Yahoo"/>
  </way>
  <way id="7735492" version="4" timestamp="2010-07-09T06:35:32Z" uid="74617" user="JohnSmith" changeset="5171134">
    <nd ref="56249429"/>
    <nd ref="56347110"/>
    <tag k="highway" v="residential"/>
    <tag k="maxspeed" v="50"/>
    <tag k="maxspeed:source" v="default residential speed limit in Australia"/>
    <tag k="name" v="Wynyard Grove"/>
    <tag k="source:name" v="survey"/>
  </way>
  <way id="7735492" version="5" timestamp="2012-01-15T06:28:51Z" uid="147510" user="woodpeck_fixbot" changeset="10394821">
    <nd ref="56249429"/>
    <nd ref="56347110"/>
    <tag k="highway" v="residential"/>
    <tag k="name" v="Wynyard Grove"/>
    <tag k="source:name" v="survey"/>
  </way>
  <way id="7735651" version="5" timestamp="2010-07-09T06:39:59Z" uid="74617" user="JohnSmith" changeset="5171134">
    <nd ref="56341799"/>
    <nd ref="56351215"/>
    <nd ref="56353629"/>
    <nd ref="56347113"/>
    <nd ref="56351216"/>
    <nd ref="56351217"/>
    <nd ref="56351219"/>
    <nd ref="56351220"/>
    <tag k="highway" v="residential"/>
    <tag k="maxspeed" v="50"/>
    <tag k="maxspeed:source" v="default residential speed limit in Australia"/>
    <tag k="name" v="Carunta Street"/>
    <tag k="source" v="Yahoo"/>
    <tag k="source:name" v="survey"/>
  </way>
  <way id="7735651" version="6" timestamp="2012-01-15T06:28:52Z" uid="147510" user="woodpeck_fixbot" changeset="10394821">
    <nd ref="56341799"/>
    <nd ref="56351215"/>
    <nd ref="56353629"/>
    <nd ref="56347113"/>
    <nd ref="56351216"/>
    <nd ref="56351217"/>
    <nd ref="56351219"/>
    <nd ref="56351220"/>
    <tag k="highway" v="residential"/>
    <tag k="name" v="Carunta Street"/>
    <tag k="source" v="Yahoo"/>
    <tag k="source:name" v="survey"/>
  </way>
  <way id="7735765" version="4" timestamp="2010-07-09T06:35:42Z" uid="74617" user="JohnSmith" changeset="5171134">
    <nd ref="56352266"/>
    <nd ref="56351216"/>
    <nd ref="56353052"/>
    <nd ref="56353054"/>
    <nd ref="56353056"/>
    <nd ref="56353058"/>
    <tag k="highway" v="residential"/>
    <tag k="maxspeed" v="50"/>
    <tag k="maxspeed:source" v="default residential speed limit in Australia"/>
    <tag k="name" v="Yeltana Avenue"/>
  </way>
  <way id="7735765" version="5" timestamp="2012-01-15T06:28:53Z" uid="147510" user="woodpeck_fixbot" changeset="10394821">
    <nd ref="56352266"/>
    <nd ref="56351216"/>
    <nd ref="56353052"/>
    <nd ref="56353054"/>
    <nd ref="56353056"/>
    <nd ref="56353058"/>
    <tag k="highway" v="residential"/>
    <tag k="name" v="Yeltana Avenue"/>
  </way>
  <way id="7735814" version="5" timestamp="2010-07-09T06:39:26Z" uid="74617" user="JohnSmith" changeset="5171134">
    <nd ref="56353629"/>
    <nd ref="56353838"/>
    <nd ref="56353839"/>
    <nd ref="56341800"/>
    <tag k="highway" v="residential"/>
    <tag k="maxspeed" v="50"/>
    <tag k="maxspeed:source" v="default residential speed limit in Australia"/>
    <tag k="name" v="Wanbrow Avenue"/>
    <tag k="source" v="Yahoo"/>
    <tag k="source:name" v="survey"/>
  </way>
  <way id="7735814" version="6" timestamp="2012-01-15T06:28:55Z" uid="147510" user="woodpeck_fixbot" changeset="10394821">
    <nd ref="56353629"/>
    <nd ref="56353838"/>
    <nd ref="56353839"/>
    <nd ref="56341800"/>
    <tag k="highway" v="residential"/>
    <tag k="name" v="Wanbrow Avenue"/>
    <tag k="source" v="Yahoo"/>
    <tag k="source:name" v="survey"/>
  </way>
  <way id="7735873" version="5" timestamp="2010-07-09T06:39:02Z" uid="74617" user="JohnSmith" changeset="5171134">
    <nd ref="56354590"/>
    <nd ref="56354919"/>
    <nd ref="56354920"/>
    <tag k="highway" v="residential"/>
    <tag k="maxspeed" v="50"/>
    <tag k="maxspeed:source" v="default residential speed limit in Australia"/>
    <tag k="name" v="Hambour Place"/>
    <tag k="source" v="Yahoo"/>
    <tag k="source:name" v="survey"/>
  </way>
  <way id="7735873" version="6" timestamp="2012-01-15T06:28:56Z" uid="147510" user="woodpeck_fixbot" changeset="10394821">
    <nd ref="56354590"/>
    <nd ref="56354919"/>
    <nd ref="56354920"/>
    <tag k="highway" v="residential"/>
    <tag k="name" v="Hambour Place"/>
    <tag k="source" v="Yahoo"/>
    <tag k="source:name" v="survey"/>
  </way>
  <way id="7735927" version="15" timestamp="2010-07-09T06:39:46Z" uid="74617" user="JohnSmith" changeset="5171134">
    <nd ref="56355219"/>
    <nd ref="335036142"/>
    <nd ref="335036249"/>
    <nd ref="319950970"/>
    <nd ref="56356171"/>
    <nd ref="56355950"/>
    <nd ref="150559360"/>
    <nd ref="319950440"/>
    <nd ref="56355952"/>
    <nd ref="319950389"/>
    <nd ref="56355954"/>
    <nd ref="319950259"/>
    <nd ref="56295771"/>
    <tag k="admin_level" v="10"/>
    <tag k="boundary" v="administrative"/>
    <tag k="highway" v="residential"/>
    <tag k="maxspeed" v="50"/>
    <tag k="maxspeed:source" v="default residential speed limit in Australia"/>
    <tag k="name" v="Stonyfell Road"/>
  </way>
  <way id="7735927" version="16" timestamp="2010-07-11T04:54:51Z" uid="4467" user="Rosscoe" changeset="5186892">
    <nd ref="56355219"/>
    <nd ref="335036142"/>
    <nd ref="335036249"/>
    <nd ref="319950970"/>
    <nd ref="56356171"/>
    <nd ref="56355950"/>
    <nd ref="150559360"/>
    <nd ref="319950440"/>
    <nd ref="56355952"/>
    <nd ref="319950389"/>
    <nd ref="56355954"/>
    <nd ref="319950259"/>
    <nd ref="56295771"/>
    <tag k="highway" v="residential"/>
    <tag k="maxspeed" v="50"/>
    <tag k="maxspeed:source" v="default residential speed limit in Australia"/>
    <tag k="name" v="Stonyfell Road"/>
  </way>
  <way id="7735927" version="17" timestamp="2012-01-15T06:28:58Z" uid="147510" user="woodpeck_fixbot" changeset="10394821">
    <nd ref="56355219"/>
    <nd ref="335036142"/>
    <nd ref="335036249"/>
    <nd ref="319950970"/>
    <nd ref="56356171"/>
    <nd ref="56355950"/>
    <nd ref="150559360"/>
    <nd ref="319950440"/>
    <nd ref="56355952"/>
    <nd ref="319950389"/>
    <nd ref="56355954"/>
    <nd ref="319950259"/>
    <nd ref="56295771"/>
    <tag k="highway" v="residential"/>
    <tag k="name" v="Stonyfell Road"/>
  </way>
  <way id="7735969" version="5" timestamp="2010-07-09T06:40:17Z" uid="74617" user="JohnSmith" changeset="5171134">
    <nd ref="56356171"/>
    <nd ref="56356559"/>
    <nd ref="56356560"/>
    <nd ref="56353058"/>
    <nd ref="134753448"/>
    <nd ref="56356561"/>
    <nd ref="56295775"/>
    <tag k="highway" v="residential"/>
    <tag k="maxspeed" v="50"/>
    <tag k="maxspeed:source" v="default residential speed limit in Australia"/>
    <tag k="name" v="Simpson Road"/>
    <tag k="source" v="Yahoo"/>
    <tag k="source:name" v="survey"/>
  </way>
  <way id="7735969" version="6" timestamp="2012-01-15T06:28:59Z" uid="147510" user="woodpeck_fixbot" changeset="10394821">
    <nd ref="56356171"/>
    <nd ref="56356559"/>
    <nd ref="56356560"/>
    <nd ref="56353058"/>
    <nd ref="134753448"/>
    <nd ref="56356561"/>
    <nd ref="56295775"/>
    <tag k="highway" v="residential"/>
    <tag k="name" v="Simpson Road"/>
    <tag k="source" v="Yahoo"/>
    <tag k="source:name" v="survey"/>
  </way>
</osm>
