<?xml version='1.0' encoding='UTF-8'?>
<osm version="0.6" generator="libosmium/2.20.0">
  <way id="77626002" version="2" timestamp="2011-01-14T16:41:59Z" uid="115477" user="wowik" changeset="6968851">
    <nd ref="913378219"/>
    <nd ref="913378220"/>
    <nd ref="913378221"/>
    <nd ref="913378222"/>
    <nd ref="913378219"/>
    <tag k="addr:city" v="Зеленоград"/>
    <tag k="addr:housenumber" v="5c1"/>
    <tag k="addr:street" v="Алабушевская улица"/>
    <tag k="building" v="yes"/>
  </way>
  <way id="77626002" version="3" timestamp="2011-01-17T10:10:47Z" uid="115477" user="wowik" changeset="6997647">
    <nd ref="913378219"/>
    <nd ref="913378220"/>
    <nd ref="913378221"/>
    <nd ref="913378222"/>
    <nd ref="913378219"/>
    <tag k="addr:city" v="Зеленоград"/>
    <tag k="addr:housenumber" v="5с1"/>
    <tag k="addr:street" v="Алабушевская улица"/>
    <tag k="building" v="yes"/>
  </way>
  <way id="77626002" version="4" timestamp="2011-01-19T16:59:40Z" uid="70696" user="xybot" changeset="7021015">
    <nd ref="913378219"/>
    <nd ref="913378220"/>
    <nd ref="913378221"/>
    <nd ref="913378222"/>
    <nd ref="913378219"/>
    <tag k="addr:city" v="Зеленоград"/>
    <tag k="addr:housenumber" v="5 с1"/>
    <tag k="addr:street" v="Алабушевская улица"/>
    <tag k="building" v="yes"/>
  </way>
  <way id="77626002" version="5" timestamp="2012-03-27T11:44:12Z" uid="481934" user="iWowik" changeset="11115472">
    <nd ref="913378219"/>
    <nd ref="913378220"/>
    <nd ref="913378221"/>
    <nd ref="913378222"/>
    <nd ref="913378219"/>
    <tag k="addr:city" v="Зеленоград"/>
    <tag k="addr:country" v="RU"/>
    <tag k="addr:housenumber" v="5 с1"/>
    <tag k="addr:region" v="Москва"/>
    <tag k="addr:street" v="Алабушевская улица"/>
    <tag k="building" v="yes"/>
  </way>
  <way id="77626275" version="3" timestamp="2010-11-09T08:24:14Z" uid="115477" user="wowik" changeset="6325744">
    <nd ref="429283072"/>
    <nd ref="429283186"/>
    <nd ref="429283160"/>
    <nd ref="429283323"/>
    <nd ref="429283072"/>
    <tag k="addr:city" v="Зеленоград"/>
    <tag k="addr:housenumber" v="11с2"/>
    <tag k="addr:street" v="Панфиловский проспект"/>
    <tag k="building" v="yes"/>
    <tag k="cladr:code" v="77000002000220500"/>
    <tag k="is_in" v="Russia"/>
  </way>
  <way id="77626275" version="4" timestamp="2011-01-19T16:59:40Z" uid="70696" user="xybot" changeset="7021015">
    <nd ref="429283072"/>
    <nd ref="429283186"/>
    <nd ref="429283160"/>
    <nd ref="429283323"/>
    <nd ref="429283072"/>
    <tag k="addr:city" v="Зеленоград"/>
    <tag k="addr:housenumber" v="11 с2"/>
    <tag k="addr:street" v="Панфиловский проспект"/>
    <tag k="building" v="yes"/>
    <tag k="cladr:code" v="77000002000220500"/>
    <tag k="is_in" v="Russia"/>
  </way>
  <way id="77626275" version="5" timestamp="2011-09-13T10:21:24Z" uid="29320" user="Komяpa" changeset="9288237">
    <nd ref="429283072"/>
    <nd ref="429283186"/>
    <nd ref="429283160"/>
    <nd ref="429283323"/>
    <nd ref="429283072"/>
    <tag k="addr:city" v="Зеленоград"/>
    <tag k="addr:country" v="RU"/>
    <tag k="addr:housenumber" v="11 с2"/>
    <tag k="addr:street" v="Панфиловский проспект"/>
    <tag k="building" v="yes"/>
    <tag k="cladr:code" v="77000002000220500"/>
  </way>
  <way id="77626275" version="6" timestamp="2012-03-27T11:33:59Z" uid="481934" user="iWowik" changeset="11115472">
    <nd ref="429283072"/>
    <nd ref="429283186"/>
    <nd ref="429283160"/>
    <nd ref="429283323"/>
    <nd ref="429283072"/>
    <tag k="addr:city" v="Зеленоград"/>
    <tag k="addr:country" v="RU"/>
    <tag k="addr:housenumber" v="11 с2"/>
    <tag k="addr:region" v="Москва"/>
    <tag k="addr:street" v="Панфиловский проспект"/>
    <tag k="building" v="yes"/>
    <tag k="cladr:code" v="77000002000220500"/>
  </way>
  <way id="77626276" version="2" timestamp="2010-11-09T08:24:41Z" uid="115477" user="wowik" changeset="6325744">
    <nd ref="913387282"/>
    <nd ref="983105173"/>
    <nd ref="983105063"/>
    <nd ref="983105312"/>
    <nd ref="983105029"/>
    <nd ref="913387287"/>
    <nd ref="913387291"/>
    <nd ref="913387296"/>
    <nd ref="913387282"/>
    <tag k="addr:city" v="Зеленоград"/>
    <tag k="addr:housenumber" v="11с1"/>
    <tag k="addr:street" v="Панфиловский проспект"/>
    <tag k="building" v="yes"/>
    <tag k="cladr:code" v="77000002000220500"/>
    <tag k="is_in" v="Russia"/>
  </way>
  <way id="77626276" version="3" timestamp="2011-01-19T16:59:41Z" uid="70696" user="xybot" changeset="7021015">
    <nd ref="913387282"/>
    <nd ref="983105173"/>
    <nd ref="983105063"/>
    <nd ref="983105312"/>
    <nd ref="983105029"/>
    <nd ref="913387287"/>
    <nd ref="913387291"/>
    <nd ref="913387296"/>
    <nd ref="913387282"/>
    <tag k="addr:city" v="Зеленоград"/>
    <tag k="addr:housenumber" v="11 с1"/>
    <tag k="addr:street" v="Панфиловский проспект"/>
    <tag k="building" v="yes"/>
    <tag k="cladr:code" v="77000002000220500"/>
    <tag k="is_in" v="Russia"/>
  </way>
  <way id="77626276" version="4" timestamp="2011-09-13T10:21:22Z" uid="29320" user="Komяpa" changeset="9288237">
    <nd ref="913387282"/>
    <nd ref="983105173"/>
    <nd ref="983105063"/>
    <nd ref="983105312"/>
    <nd ref="983105029"/>
    <nd ref="913387287"/>
    <nd ref="913387291"/>
    <nd ref="913387296"/>
    <nd ref="913387282"/>
    <tag k="addr:city" v="Зеленоград"/>
    <tag k="addr:country" v="RU"/>
    <tag k="addr:housenumber" v="11 с1"/>
    <tag k="addr:street" v="Панфиловский проспект"/>
    <tag k="building" v="yes"/>
    <tag k="cladr:code" v="77000002000220500"/>
  </way>
  <way id="77626276" version="5" timestamp="2012-03-27T11:33:55Z" uid="481934" user="iWowik" changeset="11115472">
    <nd ref="913387282"/>
    <nd ref="983105173"/>
    <nd ref="983105063"/>
    <nd ref="983105312"/>
    <nd ref="983105029"/>
    <nd ref="913387287"/>
    <nd ref="913387291"/>
    <nd ref="913387296"/>
    <nd ref="913387282"/>
    <tag k="addr:city" v="Зеленоград"/>
    <tag k="addr:country" v="RU"/>
    <tag k="addr:housenumber" v="11 с1"/>
    <tag k="addr:region" v="Москва"/>
    <tag k="addr:street" v="Панфиловский проспект"/>
    <tag k="building" v="yes"/>
    <tag k="cladr:code" v="77000002000220500"/>
  </way>
  <way id="77626972" version="2" timestamp="2011-01-29T19:23:46Z" uid="115477" user="wowik" changeset="7126149">
    <nd ref="658012532"/>
    <nd ref="913404412"/>
    <nd ref="913404417"/>
    <nd ref="658012537"/>
    <tag k="highway" v="service"/>
  </way>
  <way id="77626972" version="3" timestamp="2011-04-21T11:56:17Z" uid="241531" user="dik_man" changeset="7924726">
    <nd ref="658012532"/>
    <nd ref="913404412"/>
    <nd ref="913404417"/>
    <nd ref="658012537"/>
    <tag k="bicycle" v="private"/>
    <tag k="highway" v="service"/>
  </way>
</osm>
