<?xml version='1.0' encoding='UTF-8'?>
<osm version="0.6" generator="libosmium/2.20.0">
  <way id="77620025" version="3" timestamp="2011-02-23T11:28:36Z" uid="20587" user="balrog-kun" changeset="7370136">
    <nd ref="913328035"/>
    <nd ref="913328048"/>
    <nd ref="913328053"/>
    <tag k="highway" v="track"/>
  </way>
  <way id="77620026" version="2" timestamp="2011-02-23T11:28:32Z" uid="20587" user="balrog-kun" changeset="7370136">
    <nd ref="913328053"/>
    <nd ref="913328054"/>
    <nd ref="913328055"/>
    <nd ref="1167982727"/>
    <nd ref="913328041"/>
    <tag k="highway" v="service"/>
  </way>
  <way id="77620719" version="2" timestamp="2011-01-26T20:03:05Z" uid="115477" user="wowik" changeset="7097268">
    <nd ref="913333348"/>
    <nd ref="913333351"/>
    <nd ref="913333353"/>
    <nd ref="913333355"/>
    <nd ref="913333348"/>
    <tag k="addr:city" v="Зеленоград"/>
    <tag k="addr:housenumber" v="1 с1"/>
    <tag k="addr:street" v="Проезд N 4807"/>
    <tag k="building" v="yes"/>
  </way>
  <way id="77620719" version="3" timestamp="2011-01-27T12:56:35Z" uid="115477" user="wowik" changeset="7103328">
    <nd ref="913333348"/>
    <nd ref="913333351"/>
    <nd ref="913333353"/>
    <nd ref="913333355"/>
    <nd ref="1123357548"/>
    <nd ref="1123357328"/>
    <nd ref="1123357339"/>
    <nd ref="1123357306"/>
    <nd ref="1123357566"/>
    <nd ref="1123357438"/>
    <nd ref="1123357285"/>
    <nd ref="1123357493"/>
    <nd ref="1123357400"/>
    <nd ref="1123357388"/>
    <nd ref="913333348"/>
    <tag k="addr:city" v="Зеленоград"/>
    <tag k="addr:housenumber" v="1 с1"/>
    <tag k="addr:street" v="Проезд N 4807"/>
    <tag k="building" v="yes"/>
  </way>
  <way id="77620719" version="4" timestamp="2012-03-27T11:32:45Z" uid="481934" user="iWowik" changeset="11115472">
    <nd ref="913333348"/>
    <nd ref="913333351"/>
    <nd ref="913333353"/>
    <nd ref="913333355"/>
    <nd ref="1123357548"/>
    <nd ref="1123357328"/>
    <nd ref="1123357339"/>
    <nd ref="1123357306"/>
    <nd ref="1123357566"/>
    <nd ref="1123357438"/>
    <nd ref="1123357285"/>
    <nd ref="1123357493"/>
    <nd ref="1123357400"/>
    <nd ref="1123357388"/>
    <nd ref="913333348"/>
    <tag k="addr:city" v="Зеленоград"/>
    <tag k="addr:country" v="RU"/>
    <tag k="addr:housenumber" v="1 с1"/>
    <tag k="addr:region" v="Москва"/>
    <tag k="addr:street" v="Проезд N 4807"/>
    <tag k="building" v="yes"/>
  </way>
  <way id="77620722" version="2" timestamp="2011-01-26T20:03:35Z" uid="115477" user="wowik" changeset="7097268">
    <nd ref="913333362"/>
    <nd ref="913333365"/>
    <nd ref="913333368"/>
    <nd ref="913333375"/>
    <nd ref="913333362"/>
    <tag k="addr:city" v="Зеленоград"/>
    <tag k="addr:housenumber" v="1 с9"/>
    <tag k="addr:street" v="Проезд N 4807"/>
    <tag k="building" v="yes"/>
  </way>
  <way id="77620722" version="3" timestamp="2011-01-27T12:56:37Z" uid="115477" user="wowik" changeset="7103328">
    <nd ref="913333362"/>
    <nd ref="913333365"/>
    <nd ref="913333368"/>
    <nd ref="1123357281"/>
    <nd ref="1123357568"/>
    <nd ref="913333375"/>
    <nd ref="913333362"/>
    <tag k="addr:city" v="Зеленоград"/>
    <tag k="addr:housenumber" v="1 с9"/>
    <tag k="addr:street" v="Проезд N 4807"/>
    <tag k="building" v="yes"/>
  </way>
  <way id="77620722" version="4" timestamp="2012-03-27T11:33:20Z" uid="481934" user="iWowik" changeset="11115472">
    <nd ref="913333362"/>
    <nd ref="913333365"/>
    <nd ref="913333368"/>
    <nd ref="1123357281"/>
    <nd ref="1123357568"/>
    <nd ref="913333375"/>
    <nd ref="913333362"/>
    <tag k="addr:city" v="Зеленоград"/>
    <tag k="addr:country" v="RU"/>
    <tag k="addr:housenumber" v="1 с9"/>
    <tag k="addr:region" v="Москва"/>
    <tag k="addr:street" v="Проезд N 4807"/>
    <tag k="building" v="yes"/>
  </way>
  <way id="77620723" version="2" timestamp="2011-01-27T12:56:36Z" uid="115477" user="wowik" changeset="7103328">
    <nd ref="913333382"/>
    <nd ref="1123357391"/>
    <nd ref="1123357553"/>
    <nd ref="913333385"/>
    <nd ref="913333387"/>
    <nd ref="913333389"/>
    <nd ref="1123357397"/>
    <nd ref="913333382"/>
    <tag k="addr:city" v="Зеленоград"/>
    <tag k="addr:street" v="Проезд N 4807"/>
    <tag k="building" v="yes"/>
  </way>
  <way id="77620723" version="3" timestamp="2012-03-27T11:55:33Z" uid="481934" user="iWowik" changeset="11115472">
    <nd ref="913333382"/>
    <nd ref="1123357391"/>
    <nd ref="1123357553"/>
    <nd ref="913333385"/>
    <nd ref="913333387"/>
    <nd ref="913333389"/>
    <nd ref="1123357397"/>
    <nd ref="913333382"/>
    <tag k="addr:city" v="Зеленоград"/>
    <tag k="addr:country" v="RU"/>
    <tag k="addr:region" v="Москва"/>
    <tag k="addr:street" v="Проезд N 4807"/>
    <tag k="building" v="yes"/>
  </way>
  <way id="77620727" version="2" timestamp="2011-01-27T12:56:39Z" uid="115477" user="wowik" changeset="7103328"/>
  <way id="77620730" version="2" timestamp="2011-01-27T12:56:35Z" uid="115477" user="wowik" changeset="7103328">
    <nd ref="913333464"/>
    <nd ref="913333468"/>
    <nd ref="913333473"/>
    <nd ref="913333476"/>
    <nd ref="913333464"/>
    <tag k="building" v="yes"/>
  </way>
  <way id="77620730" version="3" timestamp="2012-03-27T11:49:58Z" uid="481934" user="iWowik" changeset="11115472">
    <nd ref="913333464"/>
    <nd ref="913333468"/>
    <nd ref="913333473"/>
    <nd ref="913333476"/>
    <nd ref="913333464"/>
    <tag k="addr:city" v="Зеленоград"/>
    <tag k="addr:country" v="RU"/>
    <tag k="addr:region" v="Москва"/>
    <tag k="building" v="yes"/>
  </way>
  <way id="77620777" version="2" timestamp="2010-10-03T19:22:28Z" uid="9581" user="Lobelt" changeset="5947712">
    <nd ref="275591375"/>
    <nd ref="908776804"/>
    <nd ref="275591376"/>
    <nd ref="937085723"/>
    <nd ref="275591377"/>
    <tag k="highway" v="track"/>
    <tag k="tracktype" v="grade2"/>
    <tag k="width" v="3.5"/>
  </way>
  <way id="77620777" version="3" timestamp="2011-05-17T16:55:55Z" uid="367722" user="dornweg" changeset="8173626">
    <nd ref="275591375"/>
    <nd ref="908776804"/>
    <nd ref="275591376"/>
    <nd ref="937085723"/>
    <nd ref="275591377"/>
    <tag k="highway" v="track"/>
    <tag k="surface" v="gravel"/>
    <tag k="tracktype" v="grade2"/>
    <tag k="width" v="3.5"/>
  </way>
  <way id="77620960" version="2" timestamp="2011-01-27T12:56:36Z" uid="115477" user="wowik" changeset="7103328">
    <nd ref="913336502"/>
    <nd ref="913336503"/>
    <nd ref="913336506"/>
    <nd ref="1123357327"/>
    <nd ref="913336508"/>
    <nd ref="913336509"/>
    <nd ref="913336511"/>
    <nd ref="1123357535"/>
    <nd ref="1123357370"/>
    <nd ref="913336513"/>
    <nd ref="913336515"/>
    <nd ref="913336502"/>
    <tag k="landuse" v="industrial"/>
    <tag k="name" v="Дана и Ко"/>
  </way>
</osm>
