<?xml version='1.0' encoding='UTF-8'?>
<osm version="0.6" generator="libosmium/2.20.0">
  <way id="77630000" version="1" timestamp="2010-09-15T14:12:47Z" uid="115477" user="wowik" changeset="5787574">
    <nd ref="913487896"/>
    <nd ref="913487609"/>
    <nd ref="913487766"/>
    <tag k="highway" v="residential"/>
  </way>
  <way id="77630000" version="2" timestamp="2011-09-12T04:27:35Z" uid="155088" user="mixdm" changeset="9276944">
    <nd ref="913487896"/>
    <nd ref="913487609"/>
    <nd ref="913487766"/>
    <tag k="highway" v="unclassified"/>
  </way>
  <way id="77630001" version="1" timestamp="2010-09-15T14:12:47Z" uid="115477" user="wowik" changeset="5787574">
    <nd ref="913487870"/>
    <nd ref="913487573"/>
    <tag k="highway" v="track"/>
  </way>
  <way id="77630001" version="2" timestamp="2011-01-09T15:47:00Z" uid="155088" user="mixdm" changeset="6916599">
    <nd ref="913487870"/>
    <nd ref="913487573"/>
    <nd ref="913487713"/>
    <tag k="highway" v="track"/>
  </way>
  <way id="77630001" version="3" timestamp="2011-01-12T20:52:24Z" uid="155088" user="mixdm" changeset="6951552">
    <nd ref="913487870"/>
    <nd ref="913487573"/>
    <nd ref="1100578503"/>
    <nd ref="1100578500"/>
    <nd ref="772447740"/>
    <tag k="highway" v="track"/>
  </way>
  <way id="77630002" version="1" timestamp="2010-09-15T14:12:48Z" uid="115477" user="wowik" changeset="5787574">
    <nd ref="913487545"/>
    <nd ref="913487659"/>
    <nd ref="913487192"/>
    <nd ref="913487756"/>
    <nd ref="913487928"/>
    <nd ref="913487845"/>
    <tag k="highway" v="unclassified"/>
  </way>
  <way id="77630003" version="1" timestamp="2010-09-15T14:12:48Z" uid="115477" user="wowik" changeset="5787574">
    <nd ref="913487298"/>
    <nd ref="913487327"/>
    <nd ref="913487311"/>
    <nd ref="913487841"/>
    <tag k="highway" v="residential"/>
  </way>
  <way id="77630003" version="2" timestamp="2011-09-12T04:27:38Z" uid="155088" user="mixdm" changeset="9276944">
    <nd ref="913487298"/>
    <nd ref="913487327"/>
    <nd ref="913487311"/>
    <nd ref="913487841"/>
    <tag k="highway" v="unclassified"/>
  </way>
  <way id="77630004" version="1" timestamp="2010-09-15T14:12:48Z" uid="115477" user="wowik" changeset="5787574">
    <nd ref="913487455"/>
    <nd ref="913487815"/>
    <tag k="highway" v="residential"/>
  </way>
  <way id="77630004" version="2" timestamp="2011-01-14T06:43:30Z" uid="155088" user="mixdm" changeset="6964382">
    <nd ref="913487455"/>
    <nd ref="913487815"/>
    <tag k="highway" v="unclassified"/>
  </way>
  <way id="77630005" version="1" timestamp="2010-09-15T14:12:48Z" uid="115477" user="wowik" changeset="5787574">
    <nd ref="913487475"/>
    <nd ref="913487726"/>
    <nd ref="913487367"/>
    <nd ref="913487420"/>
    <tag k="highway" v="residential"/>
  </way>
  <way id="77630005" version="2" timestamp="2011-09-12T04:27:37Z" uid="155088" user="mixdm" changeset="9276944">
    <nd ref="913487475"/>
    <nd ref="913487726"/>
    <nd ref="913487367"/>
    <nd ref="913487420"/>
    <tag k="highway" v="unclassified"/>
  </way>
  <way id="77630006" version="1" timestamp="2010-09-15T14:12:48Z" uid="115477" user="wowik" changeset="5787574">
    <nd ref="913487811"/>
    <nd ref="913487479"/>
    <tag k="highway" v="residential"/>
  </way>
  <way id="77630006" version="2" timestamp="2011-09-12T04:27:34Z" uid="155088" user="mixdm" changeset="9276944">
    <nd ref="913487811"/>
    <nd ref="913487479"/>
    <tag k="highway" v="unclassified"/>
  </way>
  <way id="77630007" version="1" timestamp="2010-09-15T14:12:49Z" uid="115477" user="wowik" changeset="5787574">
    <nd ref="913487684"/>
    <nd ref="359722830"/>
    <tag k="bridge" v="yes"/>
    <tag k="highway" v="primary"/>
    <tag k="nat_ref" v="Р86"/>
    <tag k="ref" v="Р86"/>
  </way>
  <way id="77630007" version="2" timestamp="2010-10-05T08:46:33Z" uid="115477" user="wowik" changeset="5959509">
    <nd ref="913487684"/>
    <nd ref="359722830"/>
    <tag k="bridge" v="yes"/>
    <tag k="highway" v="primary"/>
    <tag k="layer" v="1"/>
    <tag k="nat_ref" v="Р86"/>
    <tag k="ref" v="Р86"/>
  </way>
  <way id="77630007" version="3" timestamp="2010-10-26T10:25:19Z" uid="29320" user="Komяpa" changeset="6180855">
    <nd ref="913487684"/>
    <nd ref="359722830"/>
    <tag k="bridge" v="yes"/>
    <tag k="highway" v="primary"/>
    <tag k="layer" v="1"/>
    <tag k="nat_ref" v="Р86"/>
    <tag k="ref" v="P86"/>
  </way>
  <way id="77630008" version="1" timestamp="2010-09-15T14:12:49Z" uid="115477" user="wowik" changeset="5787574">
    <nd ref="913487242"/>
    <nd ref="913487791"/>
    <nd ref="913487682"/>
    <nd ref="913487839"/>
    <nd ref="913487412"/>
    <tag k="waterway" v="stream"/>
  </way>
  <way id="77630009" version="1" timestamp="2010-09-15T14:12:49Z" uid="115477" user="wowik" changeset="5787574">
    <nd ref="913487819"/>
    <nd ref="913487502"/>
    <nd ref="913487707"/>
    <tag k="highway" v="residential"/>
  </way>
  <way id="77630009" version="2" timestamp="2011-09-12T04:27:35Z" uid="155088" user="mixdm" changeset="9276944">
    <nd ref="913487819"/>
    <nd ref="913487502"/>
    <nd ref="913487707"/>
    <tag k="highway" v="unclassified"/>
  </way>
  <way id="77630010" version="1" timestamp="2010-09-15T14:12:49Z" uid="115477" user="wowik" changeset="5787574">
    <nd ref="913487450"/>
    <nd ref="913487218"/>
    <tag k="bridge" v="yes"/>
    <tag k="highway" v="primary"/>
    <tag k="name" v="улица Гагарина"/>
    <tag k="nat_ref" v="Р111"/>
    <tag k="ref" v="Р111"/>
  </way>
  <way id="77630010" version="2" timestamp="2010-11-04T22:07:19Z" uid="29320" user="Komяpa" changeset="6291771">
    <nd ref="913487450"/>
    <nd ref="913487218"/>
    <tag k="bridge" v="yes"/>
    <tag k="highway" v="primary"/>
    <tag k="name" v="улица Гагарина"/>
    <tag k="nat_ref" v="Р111"/>
    <tag k="ref" v="P111"/>
  </way>
  <way id="77630010" version="3" timestamp="2011-10-22T13:11:10Z" uid="86479" user="osm-belarus" changeset="9623402">
    <nd ref="913487450"/>
    <nd ref="913487218"/>
    <tag k="bridge" v="yes"/>
    <tag k="highway" v="primary"/>
    <tag k="name" v="ул. Гагарина"/>
    <tag k="nat_ref" v="Р111"/>
    <tag k="ref" v="P111"/>
  </way>
  <way id="77630010" version="4" timestamp="2011-11-27T20:33:26Z" uid="86479" user="osm-belarus" changeset="9969899">
    <nd ref="913487450"/>
    <nd ref="913487218"/>
    <tag k="bridge" v="yes"/>
    <tag k="highway" v="primary"/>
    <tag k="name" v="ул. Гагарина"/>
    <tag k="name:ru" v="ул. Гагарина"/>
    <tag k="nat_ref" v="Р111"/>
    <tag k="ref" v="P111"/>
  </way>
  <way id="77630010" version="5" timestamp="2011-12-07T22:39:16Z" uid="86479" user="osm-belarus" changeset="10061441">
    <nd ref="913487450"/>
    <nd ref="913487218"/>
    <tag k="bridge" v="yes"/>
    <tag k="highway" v="primary"/>
    <tag k="int_name" v="vul. Haharyna"/>
    <tag k="name" v="ул. Гагарина"/>
    <tag k="name:be" v="вул. Гагарына"/>
    <tag k="name:ru" v="ул. Гагарина"/>
    <tag k="nat_ref" v="Р111"/>
    <tag k="ref" v="P111"/>
  </way>
  <way id="77630011" version="1" timestamp="2010-09-15T14:12:49Z" uid="115477" user="wowik" changeset="5787574">
    <nd ref="274636702"/>
    <nd ref="913487713"/>
    <nd ref="913487217"/>
  </way>
  <way id="77630011" version="2" timestamp="2010-10-24T16:57:36Z" uid="155088" user="mixdm" changeset="6159001">
    <nd ref="274636702"/>
    <nd ref="913487713"/>
    <nd ref="913487217"/>
    <tag k="waterway" v="stream"/>
  </way>
  <way id="77630012" version="1" timestamp="2010-09-15T14:12:50Z" uid="115477" user="wowik" changeset="5787574">
    <nd ref="913487993"/>
    <nd ref="913487363"/>
    <nd ref="913487517"/>
    <tag k="highway" v="residential"/>
  </way>
  <way id="77630012" version="2" timestamp="2011-09-12T04:27:37Z" uid="155088" user="mixdm" changeset="9276944">
    <nd ref="913487993"/>
    <nd ref="913487363"/>
    <nd ref="913487517"/>
    <tag k="highway" v="unclassified"/>
  </way>
  <way id="77630013" version="1" timestamp="2010-09-15T14:12:50Z" uid="115477" user="wowik" changeset="5787574">
    <nd ref="772447664"/>
    <nd ref="913487269"/>
    <nd ref="913487901"/>
    <nd ref="913487328"/>
    <nd ref="913487427"/>
    <tag k="highway" v="residential"/>
  </way>
  <way id="77630013" version="2" timestamp="2011-09-12T04:27:39Z" uid="155088" user="mixdm" changeset="9276944">
    <nd ref="772447664"/>
    <nd ref="913487269"/>
    <nd ref="913487901"/>
    <nd ref="913487328"/>
    <nd ref="913487427"/>
    <tag k="highway" v="unclassified"/>
  </way>
  <way id="77630014" version="1" timestamp="2010-09-15T14:12:50Z" uid="115477" user="wowik" changeset="5787574">
    <nd ref="913487782"/>
    <nd ref="913487454"/>
    <nd ref="913487673"/>
    <nd ref="913487821"/>
    <nd ref="913487782"/>
    <tag k="landuse" v="cemetery"/>
  </way>
  <way id="77630015" version="1" timestamp="2010-09-15T14:12:50Z" uid="115477" user="wowik" changeset="5787574">
    <nd ref="913487282"/>
    <nd ref="913487976"/>
    <nd ref="913487311"/>
    <tag k="highway" v="residential"/>
  </way>
  <way id="77630015" version="2" timestamp="2011-09-12T04:27:35Z" uid="155088" user="mixdm" changeset="9276944">
    <nd ref="913487282"/>
    <nd ref="913487976"/>
    <nd ref="913487311"/>
    <tag k="highway" v="unclassified"/>
  </way>
  <way id="77630016" version="1" timestamp="2010-09-15T14:12:50Z" uid="115477" user="wowik" changeset="5787574">
    <nd ref="275207931"/>
    <nd ref="359722827"/>
    <nd ref="913487684"/>
    <tag k="highway" v="primary"/>
    <tag k="name" v="улица Гагарина"/>
    <tag k="nat_ref" v="Р86"/>
    <tag k="ref" v="Р86"/>
  </way>
  <way id="77630016" version="2" timestamp="2010-10-24T16:57:36Z" uid="155088" user="mixdm" changeset="6159001">
    <nd ref="275207931"/>
    <nd ref="359722827"/>
    <nd ref="913487684"/>
    <tag k="highway" v="primary"/>
    <tag k="name" v="Гагарина ул."/>
    <tag k="nat_ref" v="Р86"/>
    <tag k="ref" v="Р86"/>
  </way>
  <way id="77630016" version="3" timestamp="2010-11-04T22:02:44Z" uid="29320" user="Komяpa" changeset="6291771">
    <nd ref="275207931"/>
    <nd ref="359722827"/>
    <nd ref="913487684"/>
    <tag k="highway" v="primary"/>
    <tag k="name" v="Гагарина ул."/>
    <tag k="nat_ref" v="Р86"/>
    <tag k="ref" v="P86"/>
  </way>
  <way id="77630016" version="4" timestamp="2011-10-22T13:11:15Z" uid="86479" user="osm-belarus" changeset="9623402">
    <nd ref="275207931"/>
    <nd ref="359722827"/>
    <nd ref="913487684"/>
    <tag k="highway" v="primary"/>
    <tag k="name" v="ул. Гагарина"/>
    <tag k="nat_ref" v="Р86"/>
    <tag k="ref" v="P86"/>
  </way>
  <way id="77630016" version="5" timestamp="2011-11-27T20:33:31Z" uid="86479" user="osm-belarus" changeset="9969899">
    <nd ref="275207931"/>
    <nd ref="359722827"/>
    <nd ref="913487684"/>
    <tag k="highway" v="primary"/>
    <tag k="name" v="ул. Гагарина"/>
    <tag k="name:ru" v="ул. Гагарина"/>
    <tag k="nat_ref" v="Р86"/>
    <tag k="ref" v="P86"/>
  </way>
  <way id="77630016" version="6" timestamp="2011-12-07T22:39:32Z" uid="86479" user="osm-belarus" changeset="10061441">
    <nd ref="275207931"/>
    <nd ref="359722827"/>
    <nd ref="913487684"/>
    <tag k="highway" v="primary"/>
    <tag k="int_name" v="vul. Haharyna"/>
    <tag k="name" v="ул. Гагарина"/>
    <tag k="name:be" v="вул. Гагарына"/>
    <tag k="name:ru" v="ул. Гагарина"/>
    <tag k="nat_ref" v="Р86"/>
    <tag k="ref" v="P86"/>
  </way>
  <way id="77630017" version="1" timestamp="2010-09-15T14:12:50Z" uid="115477" user="wowik" changeset="5787574">
    <nd ref="913487734"/>
    <nd ref="913487394"/>
    <tag k="highway" v="residential"/>
  </way>
  <way id="77630017" version="2" timestamp="2011-09-12T04:27:33Z" uid="155088" user="mixdm" changeset="9276944">
    <nd ref="913487734"/>
    <nd ref="913487394"/>
    <tag k="highway" v="unclassified"/>
  </way>
  <way id="77630018" version="1" timestamp="2010-09-15T14:12:51Z" uid="115477" user="wowik" changeset="5787574">
    <nd ref="913487997"/>
    <nd ref="273279909"/>
    <nd ref="913487181"/>
    <nd ref="913487386"/>
    <nd ref="913487616"/>
    <tag k="waterway" v="stream"/>
  </way>
  <way id="77630019" version="1" timestamp="2010-09-15T14:12:51Z" uid="115477" user="wowik" changeset="5787574">
    <nd ref="772447664"/>
    <nd ref="772447727"/>
    <nd ref="772447685"/>
    <nd ref="772447721"/>
    <tag k="highway" v="residential"/>
  </way>
  <way id="77630019" version="2" timestamp="2010-09-16T16:50:51Z" uid="115477" user="wowik" changeset="5795582">
    <nd ref="772447664"/>
    <nd ref="772447727"/>
    <nd ref="772447685"/>
    <nd ref="914732089"/>
    <nd ref="772447721"/>
    <tag k="highway" v="residential"/>
  </way>
  <way id="77630019" version="3" timestamp="2011-09-12T04:27:39Z" uid="155088" user="mixdm" changeset="9276944">
    <nd ref="772447664"/>
    <nd ref="772447727"/>
    <nd ref="772447685"/>
    <nd ref="914732089"/>
    <nd ref="772447721"/>
    <tag k="highway" v="unclassified"/>
  </way>
  <way id="77630019" version="4" timestamp="2012-03-27T11:24:02Z" uid="595300" user="artem13" changeset="11115376">
    <nd ref="772447664"/>
    <nd ref="772447727"/>
    <nd ref="772447685"/>
    <nd ref="772447721"/>
    <tag k="addr:street" v="Мира ул."/>
    <tag k="highway" v="unclassified"/>
  </way>
  <way id="77630020" version="1" timestamp="2010-09-15T14:12:51Z" uid="115477" user="wowik" changeset="5787574">
    <nd ref="913487236"/>
    <nd ref="913487959"/>
    <nd ref="913487355"/>
    <nd ref="913487871"/>
    <tag k="highway" v="residential"/>
  </way>
  <way id="77630020" version="2" timestamp="2011-09-12T04:27:38Z" uid="155088" user="mixdm" changeset="9276944">
    <nd ref="913487236"/>
    <nd ref="913487959"/>
    <nd ref="913487355"/>
    <nd ref="913487871"/>
    <tag k="highway" v="unclassified"/>
  </way>
  <way id="77630021" version="1" timestamp="2010-09-15T14:12:51Z" uid="115477" user="wowik" changeset="5787574">
    <nd ref="275207948"/>
    <nd ref="913487416"/>
    <nd ref="913487628"/>
    <nd ref="913487283"/>
    <nd ref="913487652"/>
    <nd ref="913487394"/>
    <nd ref="913487675"/>
    <nd ref="913487991"/>
    <nd ref="913487331"/>
  </way>
  <way id="77630021" version="2" timestamp="2010-11-22T06:48:52Z" uid="155088" user="mixdm" changeset="6429137">
    <nd ref="275207948"/>
    <nd ref="913487416"/>
    <nd ref="913487628"/>
    <nd ref="913487283"/>
    <nd ref="913487652"/>
    <nd ref="913487394"/>
    <nd ref="913487675"/>
    <nd ref="913487991"/>
    <nd ref="913487331"/>
    <tag k="highway" v="unclassified"/>
  </way>
  <way id="77630021" version="3" timestamp="2012-01-29T03:42:47Z" uid="411298" user="Yury Yatsynovich" changeset="10526752">
    <nd ref="275207948"/>
    <nd ref="913487416"/>
    <nd ref="913487628"/>
    <nd ref="913487283"/>
    <nd ref="913487652"/>
    <nd ref="913487394"/>
    <nd ref="913487675"/>
    <nd ref="913487991"/>
    <nd ref="913487331"/>
    <nd ref="1609770514"/>
    <nd ref="1609770528"/>
    <nd ref="1609770544"/>
    <nd ref="1609770562"/>
    <nd ref="1609770569"/>
    <tag k="highway" v="unclassified"/>
  </way>
  <way id="77630022" version="1" timestamp="2010-09-15T14:12:51Z" uid="115477" user="wowik" changeset="5787574">
    <nd ref="772447772"/>
    <nd ref="913487969"/>
    <nd ref="772447716"/>
    <tag k="highway" v="residential"/>
    <tag k="name" v="улица Строительная"/>
  </way>
  <way id="77630022" version="2" timestamp="2010-09-16T13:29:28Z" uid="115477" user="wowik" changeset="5795582">
    <nd ref="772447772"/>
    <nd ref="913487969"/>
    <nd ref="914485926"/>
    <nd ref="772447716"/>
    <tag k="highway" v="residential"/>
    <tag k="name" v="улица Строительная"/>
  </way>
  <way id="77630022" version="3" timestamp="2010-09-16T16:53:52Z" uid="115477" user="wowik" changeset="5795582">
    <nd ref="772447772"/>
    <nd ref="913487969"/>
    <nd ref="914735915"/>
    <nd ref="914485926"/>
    <nd ref="772447716"/>
    <tag k="highway" v="residential"/>
    <tag k="name" v="улица Строительная"/>
  </way>
  <way id="77630022" version="4" timestamp="2010-10-05T14:35:05Z" uid="115477" user="wowik" changeset="5961736">
    <nd ref="772447772"/>
    <nd ref="913487969"/>
    <nd ref="914735915"/>
    <nd ref="914485926"/>
    <nd ref="772447716"/>
    <tag k="highway" v="residential"/>
    <tag k="name" v="Строительная ул."/>
  </way>
  <way id="77630022" version="5" timestamp="2012-01-06T16:16:31Z" uid="159783" user="andrejczyk" changeset="10313105">
    <nd ref="772447772"/>
    <nd ref="913487969"/>
    <nd ref="914735915"/>
    <nd ref="914485926"/>
    <nd ref="772447716"/>
    <tag k="highway" v="residential"/>
    <tag k="name" v="Строительная ул."/>
    <tag k="name:be" v="Будаўнічая вул."/>
  </way>
  <way id="77630024" version="1" timestamp="2010-09-15T14:12:51Z" uid="115477" user="wowik" changeset="5787574">
    <nd ref="772447664"/>
    <nd ref="913487296"/>
    <tag k="highway" v="residential"/>
    <tag k="name" v="улица Советская"/>
  </way>
  <way id="77630024" version="2" timestamp="2010-10-05T08:42:51Z" uid="115477" user="wowik" changeset="5959491">
    <nd ref="772447664"/>
    <nd ref="913487296"/>
    <tag k="highway" v="residential"/>
    <tag k="name" v="Советская ул."/>
  </way>
  <way id="77630024" version="3" timestamp="2011-12-07T22:27:22Z" uid="86479" user="osm-belarus" changeset="10061441">
    <nd ref="772447664"/>
    <nd ref="913487296"/>
    <tag k="highway" v="residential"/>
    <tag k="int_name" v="Savieckaja vul."/>
    <tag k="name" v="Советская ул."/>
    <tag k="name:be" v="Савецкая вул."/>
    <tag k="name:ru" v="Советская ул."/>
  </way>
  <way id="77630026" version="1" timestamp="2010-09-15T14:12:52Z" uid="115477" user="wowik" changeset="5787574">
    <nd ref="913487730"/>
    <nd ref="913487896"/>
    <nd ref="913487847"/>
    <nd ref="772447731"/>
    <tag k="highway" v="residential"/>
  </way>
  <way id="77630026" version="2" timestamp="2011-09-12T04:27:37Z" uid="155088" user="mixdm" changeset="9276944">
    <nd ref="913487730"/>
    <nd ref="913487896"/>
    <nd ref="913487847"/>
    <nd ref="772447731"/>
    <tag k="highway" v="unclassified"/>
  </way>
  <way id="77630027" version="1" timestamp="2010-09-15T14:12:52Z" uid="115477" user="wowik" changeset="5787574">
    <nd ref="913487296"/>
    <nd ref="772447685"/>
    <nd ref="275207923"/>
    <nd ref="275207945"/>
    <tag k="highway" v="primary"/>
    <tag k="nat_ref" v="Р86"/>
    <tag k="ref" v="Р86"/>
  </way>
  <way id="77630027" version="2" timestamp="2010-10-26T11:02:21Z" uid="29320" user="Komяpa" changeset="6180855">
    <nd ref="913487296"/>
    <nd ref="772447685"/>
    <nd ref="275207923"/>
    <nd ref="275207945"/>
    <tag k="highway" v="primary"/>
    <tag k="nat_ref" v="Р86"/>
    <tag k="ref" v="P86"/>
  </way>
  <way id="77630028" version="1" timestamp="2010-09-15T14:12:52Z" uid="115477" user="wowik" changeset="5787574">
    <nd ref="913487485"/>
    <nd ref="273279910"/>
    <nd ref="273279909"/>
    <tag k="waterway" v="stream"/>
  </way>
  <way id="77630029" version="1" timestamp="2010-09-15T14:12:52Z" uid="115477" user="wowik" changeset="5787574">
    <nd ref="449092719"/>
    <nd ref="772447677"/>
    <tag k="highway" v="residential"/>
  </way>
  <way id="77630029" version="2" timestamp="2011-09-12T04:27:34Z" uid="155088" user="mixdm" changeset="9276944">
    <nd ref="449092719"/>
    <nd ref="772447677"/>
    <tag k="highway" v="unclassified"/>
  </way>
  <way id="77630030" version="1" timestamp="2010-09-15T14:12:52Z" uid="115477" user="wowik" changeset="5787574">
    <nd ref="913487790"/>
    <nd ref="913487969"/>
  </way>
  <way id="77630030" version="2" timestamp="2010-09-17T04:55:51Z" uid="155088" user="mixdm" changeset="5800781">
    <nd ref="913487790"/>
    <nd ref="913487969"/>
    <tag k="highway" v="residential"/>
  </way>
  <way id="77630030" version="3" timestamp="2011-09-12T04:27:34Z" uid="155088" user="mixdm" changeset="9276944">
    <nd ref="913487790"/>
    <nd ref="913487969"/>
    <tag k="highway" v="unclassified"/>
  </way>
  <way id="77630030" version="4" timestamp="2012-03-27T11:24:01Z" uid="595300" user="artem13" changeset="11115376">
    <nd ref="913487790"/>
    <nd ref="1693116019"/>
    <nd ref="913487969"/>
    <tag k="highway" v="unclassified"/>
  </way>
  <way id="77630031" version="1" timestamp="2010-09-15T14:12:52Z" uid="115477" user="wowik" changeset="5787574">
    <nd ref="913487330"/>
    <nd ref="913487833"/>
    <nd ref="913487616"/>
    <nd ref="913487787"/>
    <nd ref="913487758"/>
    <nd ref="913487473"/>
    <tag k="waterway" v="stream"/>
  </way>
  <way id="77630031" version="2" timestamp="2011-01-09T15:46:57Z" uid="155088" user="mixdm" changeset="6916599">
    <nd ref="913487330"/>
    <nd ref="913487833"/>
    <nd ref="913487616"/>
    <nd ref="913487787"/>
    <nd ref="913487758"/>
    <nd ref="1094463679"/>
    <tag k="waterway" v="stream"/>
  </way>
  <way id="77630032" version="1" timestamp="2010-09-15T14:12:53Z" uid="115477" user="wowik" changeset="5787574">
    <nd ref="913487893"/>
    <nd ref="913487432"/>
    <tag k="bridge" v="yes"/>
  </way>
  <way id="77630032" version="2" timestamp="2011-01-14T06:43:30Z" uid="155088" user="mixdm" changeset="6964382">
    <nd ref="913487893"/>
    <nd ref="913487432"/>
    <tag k="bridge" v="yes"/>
    <tag k="highway" v="unclassified"/>
  </way>
  <way id="77630033" version="1" timestamp="2010-09-15T14:12:53Z" uid="115477" user="wowik" changeset="5787574">
    <nd ref="913487887"/>
    <nd ref="913487602"/>
    <tag k="waterway" v="stream"/>
  </way>
  <way id="77630034" version="1" timestamp="2010-09-15T14:12:53Z" uid="115477" user="wowik" changeset="5787574">
    <nd ref="913487893"/>
    <nd ref="913487432"/>
    <tag k="highway" v="secondary"/>
  </way>
  <way id="77630034" version="2" timestamp="2011-01-14T06:43:31Z" uid="155088" user="mixdm" changeset="6964382"/>
  <way id="77630035" version="1" timestamp="2010-09-15T14:12:53Z" uid="115477" user="wowik" changeset="5787574">
    <nd ref="913487633"/>
    <nd ref="772447728"/>
    <nd ref="913487847"/>
    <tag k="highway" v="residential"/>
  </way>
  <way id="77630035" version="2" timestamp="2011-09-12T04:27:36Z" uid="155088" user="mixdm" changeset="9276944">
    <nd ref="913487633"/>
    <nd ref="772447728"/>
    <nd ref="913487847"/>
    <tag k="highway" v="unclassified"/>
  </way>
  <way id="77630036" version="1" timestamp="2010-09-15T14:12:53Z" uid="115477" user="wowik" changeset="5787574">
    <nd ref="913487875"/>
    <nd ref="913487597"/>
    <nd ref="275207950"/>
    <tag k="highway" v="residential"/>
  </way>
  <way id="77630036" version="2" timestamp="2011-09-12T04:27:36Z" uid="155088" user="mixdm" changeset="9276944">
    <nd ref="913487875"/>
    <nd ref="913487597"/>
    <nd ref="275207950"/>
    <tag k="highway" v="unclassified"/>
  </way>
  <way id="77630037" version="1" timestamp="2010-09-15T14:12:53Z" uid="115477" user="wowik" changeset="5787574">
    <nd ref="913487703"/>
    <nd ref="913487858"/>
    <nd ref="913487891"/>
    <nd ref="913487945"/>
    <nd ref="913487272"/>
    <tag k="highway" v="residential"/>
  </way>
  <way id="77630037" version="2" timestamp="2011-09-12T04:27:38Z" uid="155088" user="mixdm" changeset="9276944">
    <nd ref="913487703"/>
    <nd ref="913487858"/>
    <nd ref="913487891"/>
    <nd ref="913487945"/>
    <nd ref="913487272"/>
    <tag k="highway" v="unclassified"/>
  </way>
  <way id="77630038" version="1" timestamp="2010-09-15T14:12:53Z" uid="115477" user="wowik" changeset="5787574">
    <nd ref="913487686"/>
    <nd ref="913487186"/>
    <nd ref="913487845"/>
    <tag k="highway" v="residential"/>
  </way>
  <way id="77630038" version="2" timestamp="2011-09-12T04:27:36Z" uid="155088" user="mixdm" changeset="9276944">
    <nd ref="913487686"/>
    <nd ref="913487186"/>
    <nd ref="913487845"/>
    <tag k="highway" v="unclassified"/>
  </way>
  <way id="77630039" version="1" timestamp="2010-09-15T14:12:53Z" uid="115477" user="wowik" changeset="5787574">
    <nd ref="913487759"/>
    <nd ref="913487600"/>
    <nd ref="913487358"/>
    <nd ref="913487848"/>
    <nd ref="913487697"/>
    <nd ref="913487239"/>
    <nd ref="913487789"/>
    <tag k="waterway" v="stream"/>
  </way>
  <way id="77630040" version="1" timestamp="2010-09-15T14:12:54Z" uid="115477" user="wowik" changeset="5787574">
    <nd ref="913487247"/>
    <nd ref="913487835"/>
    <nd ref="913487275"/>
    <tag k="highway" v="residential"/>
  </way>
  <way id="77630040" version="2" timestamp="2011-09-12T04:27:35Z" uid="155088" user="mixdm" changeset="9276944">
    <nd ref="913487247"/>
    <nd ref="913487835"/>
    <nd ref="913487275"/>
    <tag k="highway" v="unclassified"/>
  </way>
  <way id="77630041" version="1" timestamp="2010-09-15T14:12:54Z" uid="115477" user="wowik" changeset="5787574">
    <nd ref="913487818"/>
    <nd ref="913487809"/>
    <nd ref="913487367"/>
    <tag k="highway" v="residential"/>
  </way>
  <way id="77630041" version="2" timestamp="2011-09-12T04:27:36Z" uid="155088" user="mixdm" changeset="9276944">
    <nd ref="913487818"/>
    <nd ref="913487809"/>
    <nd ref="913487367"/>
    <tag k="highway" v="unclassified"/>
  </way>
  <way id="77630042" version="1" timestamp="2010-09-15T14:12:54Z" uid="115477" user="wowik" changeset="5787574">
    <nd ref="913487596"/>
    <nd ref="913487208"/>
    <nd ref="913487626"/>
    <nd ref="913487786"/>
    <nd ref="272580546"/>
    <tag k="waterway" v="stream"/>
  </way>
  <way id="77630042" version="2" timestamp="2010-10-05T08:48:25Z" uid="115477" user="wowik" changeset="5959528">
    <nd ref="913487596"/>
    <nd ref="913487208"/>
    <nd ref="913487626"/>
    <nd ref="913487786"/>
    <tag k="waterway" v="stream"/>
  </way>
  <way id="77630043" version="1" timestamp="2010-09-15T14:12:54Z" uid="115477" user="wowik" changeset="5787574">
    <nd ref="913487328"/>
    <nd ref="913487858"/>
    <nd ref="492366675"/>
    <tag k="highway" v="residential"/>
    <tag k="name" v="улица Заслонова"/>
  </way>
  <way id="77630043" version="2" timestamp="2010-09-17T04:55:51Z" uid="155088" user="mixdm" changeset="5800781">
    <nd ref="913487328"/>
    <nd ref="913487858"/>
    <nd ref="492366675"/>
    <tag k="highway" v="residential"/>
    <tag k="name" v="Заслонова ул."/>
  </way>
  <way id="77630043" version="3" timestamp="2011-10-22T13:12:07Z" uid="86479" user="osm-belarus" changeset="9623402">
    <nd ref="913487328"/>
    <nd ref="913487858"/>
    <nd ref="492366675"/>
    <tag k="highway" v="residential"/>
    <tag k="name" v="ул. Заслонова"/>
  </way>
  <way id="77630043" version="4" timestamp="2011-11-27T20:36:00Z" uid="86479" user="osm-belarus" changeset="9969899">
    <nd ref="913487328"/>
    <nd ref="913487858"/>
    <nd ref="492366675"/>
    <tag k="highway" v="residential"/>
    <tag k="name" v="ул. Заслонова"/>
    <tag k="name:be" v="вул. Заслонава"/>
    <tag k="name:ru" v="ул. Заслонова"/>
  </way>
  <way id="77630043" version="5" timestamp="2011-12-07T22:41:23Z" uid="86479" user="osm-belarus" changeset="10061441">
    <nd ref="913487328"/>
    <nd ref="913487858"/>
    <nd ref="492366675"/>
    <tag k="highway" v="residential"/>
    <tag k="int_name" v="vul. Zaslonava"/>
    <tag k="name" v="ул. Заслонова"/>
    <tag k="name:be" v="вул. Заслонава"/>
    <tag k="name:ru" v="ул. Заслонова"/>
  </way>
  <way id="77630044" version="1" timestamp="2010-09-15T14:12:54Z" uid="115477" user="wowik" changeset="5787574">
    <nd ref="359735550"/>
    <nd ref="913487507"/>
    <tag k="highway" v="tertiary"/>
  </way>
  <way id="77630044" version="2" timestamp="2011-09-27T13:59:44Z" uid="155088" user="mixdm" changeset="9410866">
    <nd ref="359735550"/>
    <nd ref="913487507"/>
    <tag k="highway" v="unclassified"/>
  </way>
  <way id="77630045" version="1" timestamp="2010-09-15T14:12:54Z" uid="115477" user="wowik" changeset="5787574">
    <nd ref="913487830"/>
    <nd ref="913487511"/>
    <tag k="highway" v="service"/>
  </way>
  <way id="77630046" version="1" timestamp="2010-09-15T14:12:54Z" uid="115477" user="wowik" changeset="5787574">
    <nd ref="913487954"/>
    <nd ref="913487278"/>
    <tag k="bridge" v="yes"/>
    <tag k="highway" v="primary"/>
    <tag k="nat_ref" v="Р62"/>
    <tag k="ref" v="Р62"/>
  </way>
  <way id="77630046" version="2" timestamp="2010-11-04T21:48:17Z" uid="29320" user="Komяpa" changeset="6291771">
    <nd ref="913487954"/>
    <nd ref="913487278"/>
    <tag k="bridge" v="yes"/>
    <tag k="highway" v="primary"/>
    <tag k="nat_ref" v="Р62"/>
    <tag k="ref" v="P62"/>
  </way>
  <way id="77630047" version="1" timestamp="2010-09-15T14:12:55Z" uid="115477" user="wowik" changeset="5787574">
    <nd ref="275207945"/>
    <nd ref="913487949"/>
    <nd ref="913487677"/>
    <nd ref="913487570"/>
    <nd ref="913487427"/>
    <nd ref="359735128"/>
    <nd ref="275207946"/>
    <nd ref="913487475"/>
    <tag k="highway" v="primary"/>
    <tag k="name" v="улица Пролетарская"/>
    <tag k="nat_ref" v="Р86"/>
    <tag k="ref" v="Р86"/>
  </way>
  <way id="77630047" version="2" timestamp="2010-09-19T05:07:07Z" uid="155088" user="mixdm" changeset="5816670">
    <nd ref="275207945"/>
    <nd ref="913487949"/>
    <nd ref="913487677"/>
    <nd ref="913487570"/>
    <nd ref="913487427"/>
    <nd ref="359735128"/>
    <nd ref="275207946"/>
    <nd ref="913487475"/>
    <tag k="highway" v="primary"/>
    <tag k="name" v="Пролетарская ул."/>
    <tag k="nat_ref" v="Р86"/>
    <tag k="ref" v="Р86"/>
  </way>
  <way id="77630047" version="3" timestamp="2010-11-04T21:57:45Z" uid="29320" user="Komяpa" changeset="6291771">
    <nd ref="275207945"/>
    <nd ref="913487949"/>
    <nd ref="913487677"/>
    <nd ref="913487570"/>
    <nd ref="913487427"/>
    <nd ref="359735128"/>
    <nd ref="275207946"/>
    <nd ref="913487475"/>
    <tag k="highway" v="primary"/>
    <tag k="name" v="Пролетарская ул."/>
    <tag k="nat_ref" v="Р86"/>
    <tag k="ref" v="P86"/>
  </way>
  <way id="77630047" version="4" timestamp="2011-11-27T19:42:43Z" uid="86479" user="osm-belarus" changeset="9969899">
    <nd ref="275207945"/>
    <nd ref="913487949"/>
    <nd ref="913487677"/>
    <nd ref="913487570"/>
    <nd ref="913487427"/>
    <nd ref="359735128"/>
    <nd ref="275207946"/>
    <nd ref="913487475"/>
    <tag k="highway" v="primary"/>
    <tag k="name" v="Пролетарская ул."/>
    <tag k="name:be" v="Пралетарская вул."/>
    <tag k="name:ru" v="Пролетарская ул."/>
    <tag k="nat_ref" v="Р86"/>
    <tag k="ref" v="P86"/>
  </way>
  <way id="77630048" version="1" timestamp="2010-09-15T14:12:55Z" uid="115477" user="wowik" changeset="5787574">
    <nd ref="913487567"/>
    <nd ref="913487648"/>
    <tag k="highway" v="service"/>
  </way>
  <way id="77630049" version="1" timestamp="2010-09-15T14:12:55Z" uid="115477" user="wowik" changeset="5787574">
    <nd ref="913487388"/>
    <nd ref="913487491"/>
    <nd ref="913487295"/>
    <nd ref="913487514"/>
    <tag k="highway" v="residential"/>
  </way>
  <way id="77630049" version="2" timestamp="2011-09-12T04:27:37Z" uid="155088" user="mixdm" changeset="9276944">
    <nd ref="913487388"/>
    <nd ref="913487491"/>
    <nd ref="913487295"/>
    <nd ref="913487514"/>
    <tag k="highway" v="unclassified"/>
  </way>
  <way id="77630050" version="1" timestamp="2010-09-15T14:12:55Z" uid="115477" user="wowik" changeset="5787574">
    <nd ref="913487538"/>
    <nd ref="913487335"/>
    <nd ref="913487575"/>
    <nd ref="913487739"/>
    <tag k="waterway" v="stream"/>
  </way>
  <way id="77630051" version="1" timestamp="2010-09-15T14:12:55Z" uid="115477" user="wowik" changeset="5787574">
    <nd ref="772447680"/>
    <nd ref="772447762"/>
    <nd ref="913487930"/>
    <nd ref="913487250"/>
    <nd ref="913487488"/>
    <tag k="highway" v="unclassified"/>
    <tag k="name" v="улица Горького"/>
  </way>
  <way id="77630051" version="2" timestamp="2010-10-05T14:37:04Z" uid="115477" user="wowik" changeset="5961747">
    <nd ref="772447680"/>
    <nd ref="772447762"/>
    <nd ref="913487930"/>
    <nd ref="913487250"/>
    <nd ref="913487488"/>
    <tag k="highway" v="unclassified"/>
    <tag k="name" v="Горького ул."/>
  </way>
  <way id="77630051" version="3" timestamp="2011-10-22T13:11:44Z" uid="86479" user="osm-belarus" changeset="9623402">
    <nd ref="772447680"/>
    <nd ref="772447762"/>
    <nd ref="913487930"/>
    <nd ref="913487250"/>
    <nd ref="913487488"/>
    <tag k="highway" v="unclassified"/>
    <tag k="name" v="ул. Горького"/>
  </way>
  <way id="77630051" version="4" timestamp="2011-11-27T20:34:42Z" uid="86479" user="osm-belarus" changeset="9969899">
    <nd ref="772447680"/>
    <nd ref="772447762"/>
    <nd ref="913487930"/>
    <nd ref="913487250"/>
    <nd ref="913487488"/>
    <tag k="highway" v="unclassified"/>
    <tag k="name" v="ул. Горького"/>
    <tag k="name:be" v="вул. Горкага"/>
    <tag k="name:ru" v="ул. Горького"/>
  </way>
  <way id="77630052" version="1" timestamp="2010-09-15T14:12:55Z" uid="115477" user="wowik" changeset="5787574">
    <nd ref="913487567"/>
    <nd ref="275207924"/>
    <tag k="highway" v="residential"/>
  </way>
  <way id="77630052" version="2" timestamp="2011-01-14T06:43:31Z" uid="155088" user="mixdm" changeset="6964382">
    <nd ref="913487567"/>
    <nd ref="275207924"/>
    <tag k="highway" v="unclassified"/>
  </way>
  <way id="77630053" version="1" timestamp="2010-09-15T14:12:56Z" uid="115477" user="wowik" changeset="5787574">
    <nd ref="913487542"/>
    <nd ref="913487179"/>
    <nd ref="913487372"/>
    <nd ref="913487611"/>
    <nd ref="913487922"/>
    <tag k="waterway" v="stream"/>
  </way>
  <way id="77630053" version="2" timestamp="2010-09-16T15:46:47Z" uid="115477" user="wowik" changeset="5795582">
    <nd ref="913487542"/>
    <nd ref="914654905"/>
    <nd ref="913487179"/>
    <nd ref="913487372"/>
    <nd ref="913487611"/>
    <nd ref="913487922"/>
    <tag k="waterway" v="stream"/>
  </way>
  <way id="77630054" version="1" timestamp="2010-09-15T14:12:56Z" uid="115477" user="wowik" changeset="5787574">
    <nd ref="913487845"/>
    <nd ref="913487182"/>
    <tag k="highway" v="residential"/>
  </way>
  <way id="77630054" version="2" timestamp="2011-09-12T04:27:33Z" uid="155088" user="mixdm" changeset="9276944">
    <nd ref="913487845"/>
    <nd ref="913487182"/>
    <tag k="highway" v="unclassified"/>
  </way>
  <way id="77630055" version="1" timestamp="2010-09-15T14:12:56Z" uid="115477" user="wowik" changeset="5787574">
    <nd ref="772447662"/>
    <nd ref="772447680"/>
    <tag k="highway" v="unclassified"/>
    <tag k="name" v="улица Горького"/>
  </way>
  <way id="77630055" version="2" timestamp="2010-10-05T14:37:40Z" uid="115477" user="wowik" changeset="5961751">
    <nd ref="772447662"/>
    <nd ref="772447680"/>
    <tag k="highway" v="unclassified"/>
    <tag k="name" v="Горького ул."/>
  </way>
  <way id="77630055" version="3" timestamp="2011-10-22T13:11:41Z" uid="86479" user="osm-belarus" changeset="9623402">
    <nd ref="772447662"/>
    <nd ref="772447680"/>
    <tag k="highway" v="unclassified"/>
    <tag k="name" v="ул. Горького"/>
  </way>
  <way id="77630055" version="4" timestamp="2011-11-27T20:34:34Z" uid="86479" user="osm-belarus" changeset="9969899">
    <nd ref="772447662"/>
    <nd ref="772447680"/>
    <tag k="highway" v="unclassified"/>
    <tag k="name" v="ул. Горького"/>
    <tag k="name:be" v="вул. Горкага"/>
    <tag k="name:ru" v="ул. Горького"/>
  </way>
  <way id="77630056" version="1" timestamp="2010-09-15T14:12:56Z" uid="115477" user="wowik" changeset="5787574">
    <nd ref="913487951"/>
    <nd ref="913487655"/>
    <tag k="waterway" v="stream"/>
  </way>
</osm>
