<?xml version='1.0' encoding='UTF-8'?>
<osm version="0.6" generator="libosmium/2.20.0">
  <way id="7769290" version="9" timestamp="2009-09-04T21:11:49Z" uid="36809" user="pfoten_weg_!_" changeset="2374562">
    <nd ref="148519979"/>
    <nd ref="274864021"/>
    <nd ref="236856"/>
    <nd ref="564872"/>
    <nd ref="564871"/>
    <nd ref="21133561"/>
    <tag k="highway" v="secondary"/>
    <tag k="name" v="Würmtalstraße"/>
    <tag k="oneway" v="yes"/>
  </way>
  <way id="7769290" version="10" timestamp="2009-10-19T07:03:11Z" uid="65019" user="Kaefer84" changeset="2891320">
    <nd ref="148519979"/>
    <nd ref="274864021"/>
    <nd ref="236856"/>
    <nd ref="564872"/>
    <nd ref="564871"/>
    <nd ref="21133561"/>
    <tag k="highway" v="secondary"/>
    <tag k="maxspeed" v="50"/>
    <tag k="name" v="Würmtalstraße"/>
    <tag k="oneway" v="yes"/>
  </way>
  <way id="7769290" version="11" timestamp="2010-06-04T22:40:37Z" uid="46472" user="sendelhorst" changeset="4904996">
    <nd ref="148519979"/>
    <nd ref="274864021"/>
    <nd ref="236856"/>
    <nd ref="564872"/>
    <nd ref="764705287"/>
    <nd ref="564871"/>
    <nd ref="21133561"/>
    <tag k="highway" v="secondary"/>
    <tag k="maxspeed" v="50"/>
    <tag k="name" v="Würmtalstraße"/>
    <tag k="oneway" v="yes"/>
  </way>
  <way id="7769290" version="12" timestamp="2010-08-07T22:45:25Z" uid="92233" user="tubaner" changeset="5428602">
    <nd ref="148519979"/>
    <nd ref="274864021"/>
    <nd ref="236856"/>
    <nd ref="564872"/>
    <nd ref="764705287"/>
    <nd ref="564871"/>
    <tag k="highway" v="secondary"/>
    <tag k="maxspeed" v="50"/>
    <tag k="name" v="Würmtalstraße"/>
    <tag k="oneway" v="yes"/>
  </way>
  <way id="7769290" version="13" timestamp="2011-07-15T07:12:55Z" uid="42393" user="mawi42" changeset="8728487">
    <nd ref="148519979"/>
    <nd ref="274864021"/>
    <nd ref="236856"/>
    <nd ref="1362381856"/>
    <nd ref="1362381892"/>
    <nd ref="1362381816"/>
    <nd ref="564872"/>
    <nd ref="1362381808"/>
    <nd ref="764705287"/>
    <nd ref="564871"/>
    <tag k="highway" v="secondary"/>
    <tag k="maxspeed" v="50"/>
    <tag k="name" v="Würmtalstraße"/>
    <tag k="oneway" v="yes"/>
  </way>
  <way id="7769290" version="14" timestamp="2012-03-07T21:08:52Z" uid="224490" user="Geo-Tobi" changeset="10903964">
    <nd ref="148519979"/>
    <nd ref="274864021"/>
    <nd ref="236856"/>
    <nd ref="1362381856"/>
    <nd ref="1362381892"/>
    <nd ref="1362381816"/>
    <nd ref="564872"/>
    <nd ref="1362381808"/>
    <nd ref="764705287"/>
    <nd ref="564871"/>
    <tag k="highway" v="secondary"/>
    <tag k="lanes" v="3"/>
    <tag k="maxspeed" v="50"/>
    <tag k="name" v="Würmtalstraße"/>
    <tag k="oneway" v="yes"/>
  </way>
  <way id="7769600" version="5" timestamp="2010-10-30T06:29:49Z" uid="33382" user="de_muur" changeset="6224101">
    <nd ref="56662318"/>
    <nd ref="34913080"/>
    <nd ref="34913081"/>
    <nd ref="56662346"/>
    <nd ref="412126605"/>
    <nd ref="34913083"/>
    <nd ref="910824730"/>
    <nd ref="36307102"/>
    <tag k="cycleway" v="track"/>
    <tag k="highway" v="secondary"/>
    <tag k="maxspeed" v="50"/>
    <tag k="name" v="Eitzer Straße"/>
    <tag k="ref" v="L 160"/>
    <tag k="surface" v="paved"/>
  </way>
  <way id="7769600" version="6" timestamp="2012-03-18T17:13:10Z" uid="45882" user="smarties" changeset="11021411"/>
  <way id="7769602" version="8" timestamp="2010-10-30T06:29:50Z" uid="33382" user="de_muur" changeset="6224101">
    <nd ref="34913079"/>
    <nd ref="412124163"/>
    <nd ref="56662338"/>
    <nd ref="56662318"/>
    <nd ref="56662322"/>
    <nd ref="412124164"/>
    <nd ref="56662328"/>
    <nd ref="56662341"/>
    <nd ref="412124162"/>
    <nd ref="56662331"/>
    <nd ref="34913079"/>
    <tag k="cycleway" v="track"/>
    <tag k="highway" v="secondary"/>
    <tag k="junction" v="roundabout"/>
    <tag k="maxspeed" v="50"/>
    <tag k="name" v="Eitzer Straße"/>
    <tag k="oneway" v="yes"/>
    <tag k="surface" v="paved"/>
  </way>
  <way id="7769602" version="9" timestamp="2012-02-08T15:22:07Z" uid="45882" user="smarties" changeset="10625539">
    <nd ref="34913079"/>
    <nd ref="412124163"/>
    <nd ref="56662338"/>
    <nd ref="56662318"/>
    <nd ref="56662322"/>
    <nd ref="412124164"/>
    <nd ref="56662328"/>
    <nd ref="1623963415"/>
    <nd ref="412124162"/>
    <nd ref="56662331"/>
    <nd ref="34913079"/>
    <tag k="cycleway" v="track"/>
    <tag k="highway" v="secondary"/>
    <tag k="junction" v="roundabout"/>
    <tag k="maxspeed" v="50"/>
    <tag k="name" v="Eitzer Straße"/>
    <tag k="oneway" v="yes"/>
    <tag k="surface" v="paved"/>
  </way>
  <way id="7769602" version="10" timestamp="2012-03-18T17:13:11Z" uid="45882" user="smarties" changeset="11021411"/>
</osm>
