<?xml version='1.0' encoding='UTF-8'?>
<osm version="0.6" generator="libosmium/2.20.0">
  <way id="77722722" version="1" timestamp="2010-09-16T06:09:42Z" uid="33382" user="de_muur" changeset="5792594">
    <nd ref="914201498"/>
    <nd ref="21268640"/>
    <nd ref="21268645"/>
    <nd ref="247785334"/>
    <nd ref="21268651"/>
    <tag k="highway" v="motorway"/>
    <tag k="int_ref" v="E 22"/>
    <tag k="maxspeed" v="80"/>
    <tag k="oneway" v="yes"/>
    <tag k="ref" v="A 1"/>
  </way>
  <way id="77722722" version="2" timestamp="2010-10-03T17:46:15Z" uid="33382" user="de_muur" changeset="5946561">
    <nd ref="914201498"/>
    <nd ref="21268640"/>
    <tag k="highway" v="motorway"/>
    <tag k="int_ref" v="E 22"/>
    <tag k="maxspeed" v="60"/>
    <tag k="oneway" v="yes"/>
    <tag k="ref" v="A 1"/>
  </way>
  <way id="77722722" version="3" timestamp="2010-10-31T20:04:09Z" uid="33382" user="de_muur" changeset="6245597"/>
  <way id="77722834" version="2" timestamp="2011-01-21T19:27:21Z" uid="115477" user="wowik" changeset="7043561">
    <nd ref="914202276"/>
    <nd ref="914202268"/>
    <nd ref="1113614683"/>
    <nd ref="914202287"/>
    <nd ref="1113616622"/>
    <nd ref="914202296"/>
    <tag k="highway" v="service"/>
  </way>
  <way id="77722834" version="3" timestamp="2011-03-20T14:20:13Z" uid="65083" user="deep125" changeset="7617004">
    <nd ref="914202276"/>
    <nd ref="914202268"/>
    <nd ref="1210540237"/>
    <nd ref="1113614683"/>
    <nd ref="914202287"/>
    <nd ref="1113616622"/>
    <nd ref="914202296"/>
    <tag k="highway" v="service"/>
  </way>
  <way id="77722891" version="3" timestamp="2011-01-20T19:13:40Z" uid="115477" user="wowik" changeset="7033529">
    <nd ref="429223285"/>
    <nd ref="914204146"/>
    <nd ref="914204147"/>
    <nd ref="792691248"/>
    <nd ref="1111969350"/>
    <nd ref="914204148"/>
    <nd ref="914204149"/>
    <nd ref="914204150"/>
    <tag k="foot" v="yes"/>
    <tag k="footway" v="sidewalk"/>
    <tag k="highway" v="footway"/>
    <tag k="motorcar" v="no"/>
    <tag k="surface" v="paved"/>
  </way>
  <way id="77722892" version="2" timestamp="2011-01-20T19:13:46Z" uid="115477" user="wowik" changeset="7033529">
    <nd ref="914204148"/>
    <nd ref="914204153"/>
    <tag k="bicycle" v="yes"/>
    <tag k="foot" v="yes"/>
    <tag k="footway" v="sidewalk"/>
    <tag k="highway" v="footway"/>
    <tag k="motorcar" v="no"/>
    <tag k="surface" v="paved"/>
  </way>
  <way id="77722893" version="3" timestamp="2011-01-20T19:14:50Z" uid="115477" user="wowik" changeset="7033529">
    <nd ref="914204147"/>
    <nd ref="914204154"/>
    <nd ref="1026624463"/>
    <nd ref="914204156"/>
    <nd ref="890306315"/>
    <nd ref="913115976"/>
    <tag k="foot" v="yes"/>
    <tag k="footway" v="sidewalk"/>
    <tag k="highway" v="footway"/>
    <tag k="motorcar" v="no"/>
    <tag k="surface" v="paved"/>
  </way>
  <way id="77722947" version="3" timestamp="2010-11-13T11:20:57Z" uid="115477" user="wowik" changeset="6356871">
    <nd ref="914204810"/>
    <nd ref="914204811"/>
    <nd ref="914204812"/>
    <nd ref="914204813"/>
    <nd ref="914204810"/>
    <tag k="addr:city" v="Зеленоград"/>
    <tag k="addr:street" v="14-й Микрорайон"/>
    <tag k="building" v="yes"/>
    <tag k="is_in" v="Russia"/>
    <tag k="leisure" v="sports_centre"/>
    <tag k="name" v="ФОК"/>
  </way>
  <way id="77722947" version="4" timestamp="2011-02-02T11:19:12Z" uid="241531" user="dik_man" changeset="7163609">
    <nd ref="914204810"/>
    <nd ref="914204811"/>
    <nd ref="914204812"/>
    <nd ref="914204813"/>
    <nd ref="914204810"/>
    <tag k="addr:city" v="Зеленоград"/>
    <tag k="addr:housenumber" v="1447"/>
    <tag k="addr:street" v="14-й Микрорайон"/>
    <tag k="building" v="yes"/>
    <tag k="is_in" v="Russia"/>
    <tag k="leisure" v="sports_centre"/>
    <tag k="name" v="Сортивный комплекс"/>
  </way>
  <way id="77722947" version="5" timestamp="2011-06-07T20:53:43Z" uid="133332" user="AMDmi3" changeset="8374030">
    <nd ref="914204810"/>
    <nd ref="914204811"/>
    <nd ref="914204812"/>
    <nd ref="914204813"/>
    <nd ref="914204810"/>
    <tag k="addr:city" v="Зеленоград"/>
    <tag k="addr:housenumber" v="1447"/>
    <tag k="addr:street" v="14-й микрорайон"/>
    <tag k="building" v="yes"/>
    <tag k="is_in" v="Russia"/>
    <tag k="leisure" v="sports_centre"/>
    <tag k="name" v="Сортивный комплекс"/>
  </way>
  <way id="77722947" version="6" timestamp="2011-09-13T10:31:13Z" uid="29320" user="Komяpa" changeset="9288237">
    <nd ref="914204810"/>
    <nd ref="914204811"/>
    <nd ref="914204812"/>
    <nd ref="914204813"/>
    <nd ref="914204810"/>
    <tag k="addr:city" v="Зеленоград"/>
    <tag k="addr:country" v="RU"/>
    <tag k="addr:housenumber" v="1447"/>
    <tag k="addr:street" v="14-й микрорайон"/>
    <tag k="building" v="yes"/>
    <tag k="leisure" v="sports_centre"/>
    <tag k="name" v="Сортивный комплекс"/>
  </way>
  <way id="77722947" version="7" timestamp="2012-03-27T11:47:56Z" uid="481934" user="iWowik" changeset="11115472">
    <nd ref="914204810"/>
    <nd ref="914204811"/>
    <nd ref="914204812"/>
    <nd ref="914204813"/>
    <nd ref="914204810"/>
    <tag k="addr:city" v="Зеленоград"/>
    <tag k="addr:country" v="RU"/>
    <tag k="addr:housenumber" v="1447"/>
    <tag k="addr:region" v="Москва"/>
    <tag k="addr:street" v="14-й микрорайон"/>
    <tag k="building" v="yes"/>
    <tag k="leisure" v="sports_centre"/>
    <tag k="name" v="Сортивный комплекс"/>
  </way>
</osm>
