<?xml version='1.0' encoding='UTF-8'?>
<osm version="0.6" generator="libosmium/2.20.0">
  <way id="77754321" version="1" timestamp="2010-09-16T12:41:24Z" uid="115477" user="wowik" changeset="5795138">
    <nd ref="914430731"/>
    <nd ref="914430733"/>
    <nd ref="914430735"/>
    <nd ref="914430736"/>
    <nd ref="914430740"/>
    <tag k="foot" v="yes"/>
    <tag k="highway" v="footway"/>
  </way>
  <way id="77754321" version="2" timestamp="2010-12-23T16:15:41Z" uid="176819" user="akashihi" changeset="6746928">
    <nd ref="914430731"/>
    <nd ref="914430733"/>
    <nd ref="1059534443"/>
    <nd ref="914430735"/>
    <nd ref="914430736"/>
    <nd ref="914430740"/>
    <tag k="foot" v="yes"/>
    <tag k="highway" v="footway"/>
  </way>
  <way id="77754321" version="3" timestamp="2012-01-04T14:41:11Z" uid="463854" user="Фил Наливайко" changeset="10291555">
    <nd ref="914430731"/>
    <nd ref="914430733"/>
    <nd ref="1059534443"/>
    <nd ref="914430735"/>
    <nd ref="1576835050"/>
    <nd ref="914430740"/>
    <tag k="foot" v="yes"/>
    <tag k="highway" v="footway"/>
  </way>
  <way id="77754325" version="1" timestamp="2010-09-16T12:41:25Z" uid="115477" user="wowik" changeset="5795138">
    <nd ref="914430749"/>
    <nd ref="914430753"/>
    <nd ref="914430758"/>
    <nd ref="914430759"/>
    <nd ref="914430749"/>
    <tag k="building" v="yes"/>
  </way>
  <way id="77754325" version="2" timestamp="2011-06-11T08:05:22Z" uid="383137" user="ErshKUS" changeset="8403702">
    <nd ref="914430749"/>
    <nd ref="1319801661"/>
    <nd ref="914430753"/>
    <nd ref="914430758"/>
    <nd ref="914430759"/>
    <nd ref="914430749"/>
    <tag k="addr:city" v="Калининград"/>
    <tag k="addr:country" v="RU"/>
    <tag k="addr:housenumber" v="32"/>
    <tag k="addr:street" v="Ленинский проспект"/>
    <tag k="building" v="yes"/>
  </way>
  <way id="77754325" version="3" timestamp="2011-06-11T08:08:45Z" uid="383137" user="ErshKUS" changeset="8403702">
    <nd ref="914430749"/>
    <nd ref="914430753"/>
    <nd ref="914430758"/>
    <nd ref="914430759"/>
    <nd ref="914430749"/>
    <tag k="addr:city" v="Калининград"/>
    <tag k="addr:country" v="RU"/>
    <tag k="addr:housenumber" v="32"/>
    <tag k="addr:street" v="Ленинский проспект"/>
    <tag k="building" v="yes"/>
    <tag k="name" v="Калининградский филиал ОАО Ростелеком"/>
  </way>
  <way id="77754325" version="4" timestamp="2012-01-05T21:51:07Z" uid="383137" user="ErshKUS" changeset="10305953">
    <nd ref="914430749"/>
    <nd ref="914430753"/>
    <nd ref="914430758"/>
    <nd ref="914430759"/>
    <nd ref="914430749"/>
    <tag k="addr:city" v="Калининград"/>
    <tag k="addr:country" v="RU"/>
    <tag k="addr:housenumber" v="32"/>
    <tag k="addr:street" v="Ленинский проспект"/>
    <tag k="building" v="yes"/>
    <tag k="building:levels" v="8"/>
    <tag k="name" v="Калининградский филиал ОАО Ростелеком"/>
  </way>
  <way id="77754328" version="1" timestamp="2010-09-16T12:41:25Z" uid="115477" user="wowik" changeset="5795138">
    <nd ref="914430763"/>
    <nd ref="914430766"/>
    <nd ref="914430770"/>
    <nd ref="914430773"/>
    <nd ref="914430774"/>
    <nd ref="914430776"/>
    <nd ref="914430777"/>
    <nd ref="914430763"/>
    <tag k="building" v="yes"/>
    <tag k="name" v="Плаза"/>
    <tag k="shop" v="mall"/>
  </way>
  <way id="77754328" version="2" timestamp="2011-11-29T12:47:23Z" uid="397835" user="Arhemed" changeset="9987343"/>
  <way id="77754333" version="1" timestamp="2010-09-16T12:41:27Z" uid="115477" user="wowik" changeset="5795138">
    <nd ref="914430783"/>
    <nd ref="914430790"/>
    <nd ref="914430792"/>
    <nd ref="914430794"/>
    <nd ref="914430783"/>
    <tag k="building" v="yes"/>
  </way>
  <way id="77754333" version="2" timestamp="2011-11-29T12:47:23Z" uid="397835" user="Arhemed" changeset="9987343"/>
  <way id="77754595" version="1" timestamp="2010-09-16T12:42:53Z" uid="115477" user="wowik" changeset="5795138">
    <nd ref="914431451"/>
    <nd ref="914431452"/>
    <nd ref="914431453"/>
    <nd ref="914431455"/>
    <nd ref="914431451"/>
    <tag k="building" v="yes"/>
  </way>
</osm>
