<?xml version='1.0' encoding='UTF-8'?>
<osm version="0.6" generator="libosmium/2.20.0">
  <way id="7784539" version="1" timestamp="2007-09-23T02:18:00Z" uid="7617" user="Franc" changeset="498457">
    <nd ref="26359869"/>
    <nd ref="58100619"/>
    <nd ref="26359868"/>
    <tag k="created_by" v="JOSM"/>
    <tag k="highway" v="residential"/>
    <tag k="name" v="Universal Street"/>
    <tag k="source" v="Yahoo Imagery"/>
    <tag k="source:name" v="survey"/>
  </way>
  <way id="7784539" version="2" timestamp="2007-12-29T02:28:12Z" uid="7617" user="Franc" changeset="465245">
    <nd ref="26359869"/>
    <nd ref="58100619"/>
    <nd ref="56853337"/>
    <tag k="created_by" v="JOSM"/>
    <tag k="highway" v="residential"/>
    <tag k="name" v="Universal Street"/>
    <tag k="source" v="survey"/>
  </way>
  <way id="7784539" version="3" timestamp="2009-05-08T13:28:30Z" uid="47419" user="ploppy" changeset="1117485">
    <nd ref="26359869"/>
    <nd ref="58100619"/>
    <nd ref="56853337"/>
    <tag k="created_by" v="JOSM"/>
    <tag k="cycleway" v="lane"/>
    <tag k="highway" v="residential"/>
    <tag k="name" v="Universal Street"/>
    <tag k="source" v="survey"/>
  </way>
  <way id="7784539" version="4" timestamp="2010-01-30T06:10:53Z" uid="30201" user="rrankin" changeset="3748418">
    <nd ref="26359869"/>
    <nd ref="622831830"/>
    <tag k="cycleway" v="lane"/>
    <tag k="highway" v="residential"/>
    <tag k="name" v="Universal Street"/>
    <tag k="source" v="survey"/>
  </way>
  <way id="7784539" version="5" timestamp="2010-07-07T21:43:38Z" uid="74617" user="JohnSmith" changeset="5161069">
    <nd ref="26359869"/>
    <nd ref="622831830"/>
    <tag k="cycleway" v="lane"/>
    <tag k="highway" v="residential"/>
    <tag k="maxspeed" v="50"/>
    <tag k="maxspeed:source" v="default residential speed limit in Australia"/>
    <tag k="name" v="Universal Street"/>
    <tag k="source" v="survey"/>
  </way>
  <way id="7784539" version="6" timestamp="2012-01-15T06:29:11Z" uid="147510" user="woodpeck_fixbot" changeset="10394821">
    <nd ref="26359869"/>
    <nd ref="622831830"/>
    <tag k="cycleway" v="lane"/>
    <tag k="highway" v="residential"/>
    <tag k="name" v="Universal Street"/>
    <tag k="source" v="survey"/>
  </way>
  <way id="7784541" version="1" timestamp="2007-09-23T02:17:59Z" uid="7617" user="Franc" changeset="498457">
    <nd ref="56877969"/>
    <nd ref="26359871"/>
    <nd ref="56877947"/>
    <nd ref="26359882"/>
    <nd ref="56877927"/>
    <tag k="created_by" v="JOSM"/>
    <tag k="highway" v="residential"/>
    <tag k="name" v="Garden Street"/>
    <tag k="source" v="Yahoo Imagery"/>
    <tag k="source:name" v="survey"/>
  </way>
  <way id="7784541" version="2" timestamp="2007-12-29T02:28:12Z" uid="7617" user="Franc" changeset="465245">
    <nd ref="56877969"/>
    <nd ref="26359871"/>
    <nd ref="56877947"/>
    <nd ref="26359882"/>
    <nd ref="56877927"/>
    <tag k="created_by" v="JOSM"/>
    <tag k="highway" v="residential"/>
    <tag k="name" v="Garden Street"/>
    <tag k="source" v="survey"/>
  </way>
  <way id="7784541" version="3" timestamp="2010-07-07T21:44:30Z" uid="74617" user="JohnSmith" changeset="5161069">
    <nd ref="56877969"/>
    <nd ref="26359871"/>
    <nd ref="56877947"/>
    <nd ref="26359882"/>
    <nd ref="56877927"/>
    <tag k="highway" v="residential"/>
    <tag k="maxspeed" v="50"/>
    <tag k="maxspeed:source" v="default residential speed limit in Australia"/>
    <tag k="name" v="Garden Street"/>
    <tag k="source" v="survey"/>
  </way>
  <way id="7784541" version="4" timestamp="2012-01-15T06:29:12Z" uid="147510" user="woodpeck_fixbot" changeset="10394821">
    <nd ref="56877969"/>
    <nd ref="26359871"/>
    <nd ref="56877947"/>
    <nd ref="26359882"/>
    <nd ref="56877927"/>
    <tag k="highway" v="residential"/>
    <tag k="name" v="Garden Street"/>
    <tag k="source" v="survey"/>
  </way>
  <way id="7784545" version="1" timestamp="2007-09-23T02:18:03Z" uid="7617" user="Franc" changeset="498457">
    <nd ref="26359870"/>
    <nd ref="58100595"/>
    <nd ref="26359876"/>
    <tag k="created_by" v="JOSM"/>
    <tag k="highway" v="residential"/>
    <tag k="name" v="George Street"/>
    <tag k="source" v="Yahoo Imagery"/>
    <tag k="source:name" v="survey"/>
  </way>
  <way id="7784545" version="2" timestamp="2007-12-29T02:28:15Z" uid="7617" user="Franc" changeset="465245">
    <nd ref="26359870"/>
    <nd ref="58100595"/>
    <nd ref="26359876"/>
    <tag k="created_by" v="JOSM"/>
    <tag k="highway" v="residential"/>
    <tag k="name" v="George Street"/>
    <tag k="source" v="survey"/>
  </way>
  <way id="7784545" version="3" timestamp="2009-05-08T13:28:30Z" uid="47419" user="ploppy" changeset="1117485">
    <nd ref="26359870"/>
    <nd ref="58100595"/>
    <nd ref="26359876"/>
    <tag k="created_by" v="JOSM"/>
    <tag k="cycleway" v="lane"/>
    <tag k="highway" v="residential"/>
    <tag k="name" v="George Street"/>
    <tag k="source" v="survey"/>
  </way>
  <way id="7784545" version="4" timestamp="2010-01-30T06:10:53Z" uid="30201" user="rrankin" changeset="3748418">
    <nd ref="26359870"/>
    <nd ref="622831828"/>
    <tag k="cycleway" v="lane"/>
    <tag k="highway" v="residential"/>
    <tag k="name" v="George Street"/>
    <tag k="source" v="survey"/>
  </way>
  <way id="7784545" version="5" timestamp="2010-07-07T21:43:47Z" uid="74617" user="JohnSmith" changeset="5161069">
    <nd ref="26359870"/>
    <nd ref="622831828"/>
    <tag k="cycleway" v="lane"/>
    <tag k="highway" v="residential"/>
    <tag k="maxspeed" v="50"/>
    <tag k="maxspeed:source" v="default residential speed limit in Australia"/>
    <tag k="name" v="George Street"/>
    <tag k="source" v="survey"/>
  </way>
  <way id="7784545" version="6" timestamp="2012-01-15T06:29:13Z" uid="147510" user="woodpeck_fixbot" changeset="10394821">
    <nd ref="26359870"/>
    <nd ref="622831828"/>
    <tag k="cycleway" v="lane"/>
    <tag k="highway" v="residential"/>
    <tag k="name" v="George Street"/>
    <tag k="source" v="survey"/>
  </way>
  <way id="7784546" version="1" timestamp="2007-09-22T01:47:10Z" uid="7617" user="Franc" changeset="490863">
    <nd ref="26359868"/>
    <nd ref="56853337"/>
    <nd ref="56853364"/>
    <nd ref="56853390"/>
    <nd ref="26359868"/>
    <tag k="created_by" v="JOSM"/>
    <tag k="highway" v="residential"/>
    <tag k="roundabout" v="yes"/>
    <tag k="source" v="Yahoo Imagery"/>
  </way>
  <way id="7784546" version="2" timestamp="2007-12-29T02:28:22Z" uid="7617" user="Franc" changeset="465245"/>
  <way id="7784548" version="1" timestamp="2007-09-23T03:05:27Z" uid="7617" user="Franc" changeset="498457">
    <nd ref="26359867"/>
    <nd ref="58100124"/>
    <nd ref="56853337"/>
    <tag k="created_by" v="JOSM"/>
    <tag k="highway" v="residential"/>
    <tag k="name" v="St Helena Parade"/>
    <tag k="source" v="Yahoo Imagery"/>
    <tag k="source:name" v="survey"/>
  </way>
  <way id="7784548" version="2" timestamp="2007-12-29T02:28:14Z" uid="7617" user="Franc" changeset="465245">
    <nd ref="26359867"/>
    <nd ref="58100124"/>
    <nd ref="56853337"/>
    <nd ref="18319547"/>
    <tag k="created_by" v="JOSM"/>
    <tag k="highway" v="residential"/>
    <tag k="name" v="St Helena Parade"/>
    <tag k="source" v="Yahoo Imagery"/>
    <tag k="source:name" v="survey"/>
  </way>
  <way id="7784548" version="3" timestamp="2009-12-28T00:51:15Z" uid="12203" user="brainwad" changeset="3468245">
    <nd ref="26359867"/>
    <nd ref="58100124"/>
    <nd ref="56853337"/>
    <nd ref="18319547"/>
    <tag k="highway" v="residential"/>
    <tag k="maxspeed" v="40"/>
    <tag k="name" v="St Helena Parade"/>
    <tag k="source" v="Yahoo Imagery"/>
    <tag k="source:name" v="survey"/>
  </way>
  <way id="7784548" version="4" timestamp="2010-01-30T06:10:53Z" uid="30201" user="rrankin" changeset="3748418">
    <nd ref="26359867"/>
    <nd ref="58100124"/>
    <nd ref="622831881"/>
    <nd ref="622831868"/>
    <tag k="highway" v="residential"/>
    <tag k="maxspeed" v="40"/>
    <tag k="name" v="St Helena Parade"/>
    <tag k="source" v="Yahoo Imagery"/>
    <tag k="source:name" v="survey"/>
  </way>
  <way id="7784550" version="1" timestamp="2007-09-23T03:05:28Z" uid="7617" user="Franc" changeset="498457">
    <nd ref="56853390"/>
    <nd ref="18319547"/>
    <tag k="created_by" v="JOSM"/>
    <tag k="highway" v="residential"/>
    <tag k="name" v="St Helena Parade"/>
    <tag k="source" v="Yahoo Imagery"/>
    <tag k="source:name" v="survey"/>
  </way>
  <way id="7784550" version="2" timestamp="2007-12-29T02:28:23Z" uid="7617" user="Franc" changeset="465245"/>
</osm>
