<?xml version='1.0' encoding='UTF-8'?>
<osm version="0.6" generator="libosmium/2.20.0">
  <way id="7791134" version="6" timestamp="2010-07-09T06:21:36Z" uid="74617" user="JohnSmith" changeset="5171134">
    <nd ref="56928829"/>
    <nd ref="56935125"/>
    <nd ref="56935126"/>
    <nd ref="56935127"/>
    <nd ref="56935128"/>
    <nd ref="56935129"/>
    <nd ref="321363494"/>
    <nd ref="56935130"/>
    <nd ref="140910971"/>
    <tag k="highway" v="residential"/>
    <tag k="maxspeed" v="50"/>
    <tag k="maxspeed:source" v="default residential speed limit in Australia"/>
    <tag k="name" v="Lockwood Road"/>
    <tag k="source" v="Yahoo"/>
    <tag k="source:name" v="survey"/>
  </way>
  <way id="7791134" version="7" timestamp="2011-12-14T08:35:12Z" uid="171576" user="Conquest" changeset="10113613">
    <nd ref="56928829"/>
    <nd ref="56935125"/>
    <nd ref="56935126"/>
    <nd ref="56935127"/>
    <nd ref="56935128"/>
    <nd ref="56935129"/>
    <nd ref="321363494"/>
    <nd ref="56935130"/>
    <nd ref="1545539594"/>
    <nd ref="140910971"/>
    <tag k="highway" v="residential"/>
    <tag k="maxspeed" v="50"/>
    <tag k="maxspeed:source" v="default residential speed limit in Australia"/>
    <tag k="name" v="Lockwood Road"/>
    <tag k="source" v="Yahoo"/>
    <tag k="source:name" v="survey"/>
  </way>
  <way id="7791134" version="8" timestamp="2012-01-15T06:29:32Z" uid="147510" user="woodpeck_fixbot" changeset="10394821">
    <nd ref="56928829"/>
    <nd ref="56935125"/>
    <nd ref="56935126"/>
    <nd ref="56935127"/>
    <nd ref="56935128"/>
    <nd ref="56935129"/>
    <nd ref="321363494"/>
    <nd ref="56935130"/>
    <nd ref="1545539594"/>
    <nd ref="140910971"/>
    <tag k="highway" v="residential"/>
    <tag k="name" v="Lockwood Road"/>
    <tag k="source" v="Yahoo"/>
    <tag k="source:name" v="survey"/>
  </way>
  <way id="7791151" version="6" timestamp="2010-07-09T06:35:13Z" uid="74617" user="JohnSmith" changeset="5171134">
    <nd ref="56930385"/>
    <nd ref="56935459"/>
    <nd ref="142942453"/>
    <nd ref="56935135"/>
    <nd ref="56935460"/>
    <nd ref="56935461"/>
    <nd ref="56931878"/>
    <nd ref="132337741"/>
    <nd ref="57653199"/>
    <tag k="highway" v="residential"/>
    <tag k="maxspeed" v="50"/>
    <tag k="maxspeed:source" v="default residential speed limit in Australia"/>
    <tag k="name" v="Stanley Street"/>
    <tag k="source" v="Yahoo"/>
    <tag k="source:name" v="survey"/>
  </way>
  <way id="7791151" version="7" timestamp="2011-07-29T01:47:22Z" uid="494561" user="Yeti Hunter" changeset="8859835">
    <nd ref="56930385"/>
    <nd ref="56935459"/>
    <nd ref="142942453"/>
    <nd ref="56935135"/>
    <nd ref="56935460"/>
    <nd ref="56935461"/>
    <nd ref="56931878"/>
    <nd ref="132337741"/>
    <nd ref="1377275691"/>
    <nd ref="57653199"/>
    <tag k="highway" v="residential"/>
    <tag k="maxspeed" v="50"/>
    <tag k="maxspeed:source" v="default residential speed limit in Australia"/>
    <tag k="name" v="Stanley Street"/>
    <tag k="source" v="Yahoo"/>
    <tag k="source:name" v="survey"/>
  </way>
  <way id="7791151" version="8" timestamp="2012-01-15T06:29:33Z" uid="147510" user="woodpeck_fixbot" changeset="10394821">
    <nd ref="56930385"/>
    <nd ref="56935459"/>
    <nd ref="142942453"/>
    <nd ref="56935135"/>
    <nd ref="56935460"/>
    <nd ref="56935461"/>
    <nd ref="56931878"/>
    <nd ref="132337741"/>
    <nd ref="1377275691"/>
    <nd ref="57653199"/>
    <tag k="highway" v="residential"/>
    <tag k="name" v="Stanley Street"/>
    <tag k="source" v="Yahoo"/>
    <tag k="source:name" v="survey"/>
  </way>
  <way id="7791385" version="8" timestamp="2010-07-09T06:37:01Z" uid="74617" user="JohnSmith" changeset="5171134">
    <nd ref="56930386"/>
    <nd ref="56939245"/>
    <nd ref="56939246"/>
    <nd ref="142939335"/>
    <nd ref="56939247"/>
    <nd ref="142941887"/>
    <nd ref="56935134"/>
    <nd ref="56939248"/>
    <nd ref="56939249"/>
    <nd ref="57649033"/>
    <nd ref="56939250"/>
    <nd ref="56931877"/>
    <nd ref="314932556"/>
    <nd ref="59997903"/>
    <tag k="highway" v="residential"/>
    <tag k="maxspeed" v="50"/>
    <tag k="maxspeed:source" v="default residential speed limit in Australia"/>
    <tag k="name" v="Statenborough Street"/>
    <tag k="source" v="Yahoo"/>
    <tag k="source:name" v="survey"/>
  </way>
  <way id="7791385" version="9" timestamp="2010-07-11T04:55:09Z" uid="4467" user="Rosscoe" changeset="5186892">
    <nd ref="56930386"/>
    <nd ref="56939245"/>
    <nd ref="56939246"/>
    <nd ref="142939335"/>
    <nd ref="56939247"/>
    <nd ref="142941887"/>
    <nd ref="810940928"/>
    <tag k="highway" v="residential"/>
    <tag k="maxspeed" v="50"/>
    <tag k="maxspeed:source" v="default residential speed limit in Australia"/>
    <tag k="name" v="Statenborough Street"/>
    <tag k="source" v="nearmap"/>
    <tag k="source:name" v="survey"/>
  </way>
  <way id="7791385" version="10" timestamp="2012-01-15T06:29:34Z" uid="147510" user="woodpeck_fixbot" changeset="10394821">
    <nd ref="56930386"/>
    <nd ref="56939245"/>
    <nd ref="56939246"/>
    <nd ref="142939335"/>
    <nd ref="56939247"/>
    <nd ref="142941887"/>
    <nd ref="810940928"/>
    <tag k="highway" v="residential"/>
    <tag k="name" v="Statenborough Street"/>
    <tag k="source" v="nearmap"/>
    <tag k="source:name" v="survey"/>
  </way>
  <way id="7791427" version="3" timestamp="2010-07-09T06:17:47Z" uid="74617" user="JohnSmith" changeset="5171134">
    <nd ref="56930388"/>
    <nd ref="56939757"/>
    <nd ref="56935126"/>
    <nd ref="56939758"/>
    <nd ref="56931997"/>
    <tag k="highway" v="residential"/>
    <tag k="maxspeed" v="50"/>
    <tag k="maxspeed:source" v="default residential speed limit in Australia"/>
    <tag k="name" v="High Street"/>
    <tag k="source" v="survey"/>
  </way>
  <way id="7791427" version="4" timestamp="2010-09-29T23:13:54Z" uid="313400" user="tadmore" changeset="5916276">
    <nd ref="56930388"/>
    <nd ref="56939757"/>
    <nd ref="931208696"/>
    <nd ref="56935126"/>
    <nd ref="56939758"/>
    <nd ref="56931997"/>
    <tag k="highway" v="residential"/>
    <tag k="maxspeed" v="50"/>
    <tag k="maxspeed:source" v="default residential speed limit in Australia"/>
    <tag k="name" v="High Street"/>
    <tag k="source" v="survey"/>
  </way>
  <way id="7791427" version="5" timestamp="2012-01-15T06:29:35Z" uid="147510" user="woodpeck_fixbot" changeset="10394821">
    <nd ref="56930388"/>
    <nd ref="56939757"/>
    <nd ref="931208696"/>
    <nd ref="56935126"/>
    <nd ref="56939758"/>
    <nd ref="56931997"/>
    <tag k="highway" v="residential"/>
    <tag k="name" v="High Street"/>
    <tag k="source" v="survey"/>
  </way>
  <way id="7791478" version="3" timestamp="2010-07-09T06:37:22Z" uid="74617" user="JohnSmith" changeset="5171134">
    <nd ref="56935131"/>
    <nd ref="56940425"/>
    <nd ref="56940426"/>
    <nd ref="56940427"/>
    <nd ref="56940428"/>
    <nd ref="56940429"/>
    <nd ref="56940430"/>
    <nd ref="56930387"/>
    <tag k="highway" v="residential"/>
    <tag k="maxspeed" v="50"/>
    <tag k="maxspeed:source" v="default residential speed limit in Australia"/>
    <tag k="name" v="Newland Road"/>
  </way>
  <way id="7791478" version="4" timestamp="2011-12-14T08:35:12Z" uid="171576" user="Conquest" changeset="10113613">
    <nd ref="56935131"/>
    <nd ref="1545539611"/>
    <nd ref="56940425"/>
    <nd ref="56940426"/>
    <nd ref="56940427"/>
    <nd ref="56940428"/>
    <nd ref="56940429"/>
    <nd ref="56940430"/>
    <nd ref="56930387"/>
    <tag k="highway" v="residential"/>
    <tag k="maxspeed" v="50"/>
    <tag k="maxspeed:source" v="default residential speed limit in Australia"/>
    <tag k="name" v="Newland Road"/>
  </way>
  <way id="7791478" version="5" timestamp="2011-12-15T06:47:11Z" uid="171576" user="Conquest" changeset="10121618">
    <nd ref="56935131"/>
    <nd ref="1545539611"/>
    <nd ref="56940425"/>
    <nd ref="56940426"/>
    <nd ref="1546843687"/>
    <nd ref="1546843710"/>
    <nd ref="56940427"/>
    <nd ref="56940429"/>
    <nd ref="56930387"/>
    <tag k="highway" v="residential"/>
    <tag k="maxspeed" v="50"/>
    <tag k="maxspeed:source" v="default residential speed limit in Australia"/>
    <tag k="name" v="Newland Road"/>
  </way>
  <way id="7791478" version="6" timestamp="2012-01-15T06:29:37Z" uid="147510" user="woodpeck_fixbot" changeset="10394821">
    <nd ref="56935131"/>
    <nd ref="1545539611"/>
    <nd ref="56940425"/>
    <nd ref="56940426"/>
    <nd ref="1546843687"/>
    <nd ref="1546843710"/>
    <nd ref="56940427"/>
    <nd ref="56940429"/>
    <nd ref="56930387"/>
    <tag k="highway" v="residential"/>
    <tag k="name" v="Newland Road"/>
  </way>
  <way id="7791577" version="5" timestamp="2010-02-15T05:06:07Z" uid="74617" user="JohnSmith" changeset="3880242">
    <nd ref="56941505"/>
    <nd ref="608645860"/>
    <nd ref="56941531"/>
    <nd ref="608647035"/>
    <nd ref="608647036"/>
    <nd ref="608647037"/>
    <nd ref="608647039"/>
    <nd ref="608647040"/>
    <nd ref="608647041"/>
    <nd ref="608647043"/>
    <nd ref="48324869"/>
    <nd ref="48336954"/>
    <nd ref="608647045"/>
    <nd ref="608647046"/>
    <nd ref="56941517"/>
    <tag k="highway" v="service"/>
    <tag k="maxspeed" v="50"/>
    <tag k="oneway" v="yes"/>
  </way>
  <way id="7791577" version="6" timestamp="2012-01-15T06:29:38Z" uid="147510" user="woodpeck_fixbot" changeset="10394821">
    <nd ref="56941505"/>
    <nd ref="608645860"/>
    <nd ref="56941531"/>
    <nd ref="608647035"/>
    <nd ref="608647036"/>
    <nd ref="608647037"/>
    <nd ref="608647039"/>
    <nd ref="608647040"/>
    <nd ref="608647041"/>
    <nd ref="608647043"/>
    <nd ref="48324869"/>
    <nd ref="48336954"/>
    <nd ref="608647045"/>
    <nd ref="608647046"/>
    <nd ref="56941517"/>
    <tag k="highway" v="service"/>
    <tag k="oneway" v="yes"/>
  </way>
  <way id="7791579" version="4" timestamp="2010-02-15T05:06:33Z" uid="74617" user="JohnSmith" changeset="3880242">
    <nd ref="56941565"/>
    <nd ref="56941593"/>
    <nd ref="441057623"/>
    <nd ref="60110723"/>
    <nd ref="56941579"/>
    <nd ref="56941547"/>
    <tag k="highway" v="tertiary"/>
    <tag k="name" v="Woodstock Road"/>
  </way>
  <way id="7791581" version="6" timestamp="2010-02-15T05:06:33Z" uid="74617" user="JohnSmith" changeset="3880242">
    <nd ref="56941593"/>
    <nd ref="157379153"/>
    <nd ref="59852635"/>
    <nd ref="60110718"/>
    <nd ref="157363359"/>
    <nd ref="365478611"/>
    <nd ref="56941604"/>
    <tag k="highway" v="tertiary"/>
    <tag k="name" v="Miskin Street"/>
  </way>
  <way id="7791581" version="7" timestamp="2010-04-22T13:46:23Z" uid="16385" user="morb_au" changeset="4495400">
    <nd ref="56941593"/>
    <nd ref="157379153"/>
    <nd ref="59852635"/>
    <nd ref="60110718"/>
    <nd ref="157363359"/>
    <nd ref="703698645"/>
    <nd ref="703698733"/>
    <tag k="highway" v="tertiary"/>
    <tag k="name" v="Miskin Street"/>
  </way>
  <way id="7791586" version="2" timestamp="2010-02-14T17:04:41Z" uid="74617" user="JohnSmith" changeset="3875836">
    <nd ref="56941746"/>
    <nd ref="60114352"/>
    <nd ref="60114353"/>
    <nd ref="21590183"/>
    <tag k="highway" v="unclassified"/>
    <tag k="maxspeed" v="50"/>
    <tag k="name" v="Torwood Street"/>
  </way>
  <way id="7791586" version="3" timestamp="2010-04-22T14:04:48Z" uid="16385" user="morb_au" changeset="4495535">
    <nd ref="56941746"/>
    <nd ref="60114352"/>
    <nd ref="60114353"/>
    <nd ref="703705991"/>
    <nd ref="21590183"/>
    <tag k="highway" v="unclassified"/>
    <tag k="maxspeed" v="50"/>
    <tag k="name" v="Torwood Street"/>
  </way>
  <way id="7791586" version="4" timestamp="2012-01-15T06:29:39Z" uid="147510" user="woodpeck_fixbot" changeset="10394821">
    <nd ref="56941746"/>
    <nd ref="60114352"/>
    <nd ref="60114353"/>
    <nd ref="703705991"/>
    <nd ref="21590183"/>
    <tag k="highway" v="unclassified"/>
    <tag k="name" v="Torwood Street"/>
  </way>
  <way id="7791589" version="2" timestamp="2010-02-15T05:07:12Z" uid="74617" user="JohnSmith" changeset="3880242">
    <nd ref="56941798"/>
    <nd ref="56941771"/>
    <tag k="highway" v="unclassified"/>
    <tag k="maxspeed" v="50"/>
    <tag k="name" v="Owen Lane"/>
  </way>
  <way id="7791589" version="3" timestamp="2012-01-15T06:29:40Z" uid="147510" user="woodpeck_fixbot" changeset="10394821">
    <nd ref="56941798"/>
    <nd ref="56941771"/>
    <tag k="highway" v="unclassified"/>
    <tag k="name" v="Owen Lane"/>
  </way>
  <way id="7791590" version="4" timestamp="2010-02-15T05:06:53Z" uid="74617" user="JohnSmith" changeset="3880242">
    <nd ref="56941677"/>
    <nd ref="56941798"/>
    <nd ref="148849786"/>
    <nd ref="148849790"/>
    <nd ref="304154701"/>
    <tag k="highway" v="residential"/>
    <tag k="maxspeed" v="50"/>
    <tag k="name" v="Hume Street"/>
  </way>
  <way id="7791590" version="5" timestamp="2012-01-15T06:29:42Z" uid="147510" user="woodpeck_fixbot" changeset="10394821">
    <nd ref="56941677"/>
    <nd ref="56941798"/>
    <nd ref="148849786"/>
    <nd ref="148849790"/>
    <nd ref="304154701"/>
    <tag k="highway" v="residential"/>
    <tag k="name" v="Hume Street"/>
  </way>
  <way id="7791591" version="3" timestamp="2010-02-15T05:06:54Z" uid="74617" user="JohnSmith" changeset="3880242">
    <nd ref="56941703"/>
    <nd ref="56941771"/>
    <nd ref="56941783"/>
    <tag k="highway" v="residential"/>
    <tag k="maxspeed" v="50"/>
    <tag k="name" v="Hope Street"/>
  </way>
  <way id="7791591" version="4" timestamp="2012-01-15T06:29:43Z" uid="147510" user="woodpeck_fixbot" changeset="10394821">
    <nd ref="56941703"/>
    <nd ref="56941771"/>
    <nd ref="56941783"/>
    <tag k="highway" v="residential"/>
    <tag k="name" v="Hope Street"/>
  </way>
  <way id="7791592" version="4" timestamp="2010-02-15T05:06:48Z" uid="74617" user="JohnSmith" changeset="3880242">
    <nd ref="21590179"/>
    <nd ref="60675169"/>
    <nd ref="81821389"/>
    <nd ref="81821376"/>
    <nd ref="393668019"/>
    <nd ref="21616704"/>
    <tag k="highway" v="secondary"/>
    <tag k="name" v="Croydon Street"/>
  </way>
  <way id="7791592" version="5" timestamp="2010-04-22T12:16:02Z" uid="16385" user="morb_au" changeset="4494783">
    <nd ref="21590179"/>
    <nd ref="703671304"/>
    <nd ref="703671385"/>
    <nd ref="703671365"/>
    <nd ref="703671367"/>
    <nd ref="703671302"/>
    <nd ref="703671401"/>
    <nd ref="60675169"/>
    <nd ref="81821389"/>
    <nd ref="81821376"/>
    <nd ref="393668019"/>
    <nd ref="703671392"/>
    <nd ref="703671356"/>
    <nd ref="21616704"/>
    <tag k="highway" v="secondary"/>
    <tag k="name" v="Croydon Street"/>
  </way>
  <way id="7791592" version="6" timestamp="2010-04-22T12:38:31Z" uid="16385" user="morb_au" changeset="4494910">
    <nd ref="21590179"/>
    <nd ref="703671304"/>
    <nd ref="703671385"/>
    <nd ref="703671365"/>
    <nd ref="703671367"/>
    <nd ref="703671302"/>
    <nd ref="703671401"/>
    <nd ref="60675169"/>
    <nd ref="81821389"/>
    <tag k="highway" v="secondary"/>
    <tag k="name" v="Croydon Street"/>
  </way>
  <way id="7791630" version="8" timestamp="2010-07-09T06:40:19Z" uid="74617" user="JohnSmith" changeset="5171134">
    <nd ref="56935130"/>
    <nd ref="316090025"/>
    <nd ref="56942767"/>
    <nd ref="314932625"/>
    <nd ref="56942768"/>
    <nd ref="56931873"/>
    <tag k="highway" v="residential"/>
    <tag k="maxspeed" v="50"/>
    <tag k="maxspeed:source" v="default residential speed limit in Australia"/>
    <tag k="name" v="Chisholm Avenue"/>
  </way>
  <way id="7791630" version="9" timestamp="2012-01-15T06:29:44Z" uid="147510" user="woodpeck_fixbot" changeset="10394821">
    <nd ref="56935130"/>
    <nd ref="316090025"/>
    <nd ref="56942767"/>
    <nd ref="314932625"/>
    <nd ref="56942768"/>
    <nd ref="56931873"/>
    <tag k="highway" v="residential"/>
    <tag k="name" v="Chisholm Avenue"/>
  </way>
  <way id="7791678" version="6" timestamp="2010-07-09T06:36:34Z" uid="74617" user="JohnSmith" changeset="5171134">
    <nd ref="56942849"/>
    <nd ref="56943406"/>
    <nd ref="56943407"/>
    <nd ref="56943408"/>
    <tag k="highway" v="residential"/>
    <tag k="maxspeed" v="50"/>
    <tag k="maxspeed:source" v="default residential speed limit in Australia"/>
    <tag k="name" v="Highland Terrace"/>
    <tag k="source:name" v="survey"/>
  </way>
  <way id="7791678" version="7" timestamp="2012-01-15T06:29:46Z" uid="147510" user="woodpeck_fixbot" changeset="10394821">
    <nd ref="56942849"/>
    <nd ref="56943406"/>
    <nd ref="56943407"/>
    <nd ref="56943408"/>
    <tag k="highway" v="residential"/>
    <tag k="name" v="Highland Terrace"/>
    <tag k="source:name" v="survey"/>
  </way>
  <way id="7791826" version="2" timestamp="2010-07-08T17:49:27Z" uid="74617" user="JohnSmith" changeset="5167338">
    <nd ref="56945147"/>
    <nd ref="59647246"/>
    <nd ref="56945170"/>
    <nd ref="56945154"/>
    <nd ref="56945263"/>
    <tag k="highway" v="residential"/>
    <tag k="maxspeed" v="50"/>
    <tag k="maxspeed:source" v="default residential speed limit in Australia"/>
    <tag k="name" v="Peterkin Street"/>
  </way>
  <way id="7791826" version="3" timestamp="2012-01-15T06:29:47Z" uid="147510" user="woodpeck_fixbot" changeset="10394821">
    <nd ref="56945147"/>
    <nd ref="59647246"/>
    <nd ref="56945170"/>
    <nd ref="56945154"/>
    <nd ref="56945263"/>
    <tag k="highway" v="residential"/>
    <tag k="name" v="Peterkin Street"/>
  </way>
  <way id="7791827" version="2" timestamp="2010-07-08T17:48:27Z" uid="74617" user="JohnSmith" changeset="5167338">
    <nd ref="56945185"/>
    <nd ref="56945211"/>
    <nd ref="56945239"/>
    <nd ref="56945170"/>
    <tag k="highway" v="residential"/>
    <tag k="maxspeed" v="50"/>
    <tag k="maxspeed:source" v="default residential speed limit in Australia"/>
    <tag k="name" v="Peterkin Street"/>
  </way>
  <way id="7791827" version="3" timestamp="2012-01-15T06:29:48Z" uid="147510" user="woodpeck_fixbot" changeset="10394821">
    <nd ref="56945185"/>
    <nd ref="56945211"/>
    <nd ref="56945239"/>
    <nd ref="56945170"/>
    <tag k="highway" v="residential"/>
    <tag k="name" v="Peterkin Street"/>
  </way>
  <way id="7791828" version="2" timestamp="2010-07-08T17:50:38Z" uid="74617" user="JohnSmith" changeset="5167338">
    <nd ref="55113485"/>
    <nd ref="56945286"/>
    <nd ref="55231518"/>
    <nd ref="55231807"/>
    <tag k="highway" v="residential"/>
    <tag k="maxspeed" v="50"/>
    <tag k="maxspeed:source" v="default residential speed limit in Australia"/>
    <tag k="name" v="John Street"/>
  </way>
  <way id="7791828" version="3" timestamp="2012-01-15T06:29:49Z" uid="147510" user="woodpeck_fixbot" changeset="10394821">
    <nd ref="55113485"/>
    <nd ref="56945286"/>
    <nd ref="55231518"/>
    <nd ref="55231807"/>
    <tag k="highway" v="residential"/>
    <tag k="name" v="John Street"/>
  </way>
  <way id="7791830" version="2" timestamp="2010-07-08T17:48:44Z" uid="74617" user="JohnSmith" changeset="5167338">
    <nd ref="56945170"/>
    <nd ref="56945267"/>
    <nd ref="56945374"/>
    <nd ref="56945286"/>
    <tag k="highway" v="residential"/>
    <tag k="maxspeed" v="50"/>
    <tag k="maxspeed:source" v="default residential speed limit in Australia"/>
    <tag k="name" v="Argyle Street"/>
  </way>
  <way id="7791830" version="3" timestamp="2012-01-15T06:29:51Z" uid="147510" user="woodpeck_fixbot" changeset="10394821">
    <nd ref="56945170"/>
    <nd ref="56945267"/>
    <nd ref="56945374"/>
    <nd ref="56945286"/>
    <tag k="highway" v="residential"/>
    <tag k="name" v="Argyle Street"/>
  </way>
  <way id="7791831" version="2" timestamp="2010-07-08T17:47:37Z" uid="74617" user="JohnSmith" changeset="5167338">
    <nd ref="55231439"/>
    <nd ref="56945308"/>
    <nd ref="56945328"/>
    <nd ref="56945348"/>
    <nd ref="56945267"/>
    <tag k="highway" v="residential"/>
    <tag k="maxspeed" v="50"/>
    <tag k="maxspeed:source" v="default residential speed limit in Australia"/>
    <tag k="name" v="Argyle Street"/>
  </way>
  <way id="7791831" version="3" timestamp="2012-01-15T06:29:53Z" uid="147510" user="woodpeck_fixbot" changeset="10394821">
    <nd ref="55231439"/>
    <nd ref="56945308"/>
    <nd ref="56945328"/>
    <nd ref="56945348"/>
    <nd ref="56945267"/>
    <tag k="highway" v="residential"/>
    <tag k="name" v="Argyle Street"/>
  </way>
  <way id="7791833" version="2" timestamp="2010-07-08T17:47:04Z" uid="74617" user="JohnSmith" changeset="5167338">
    <nd ref="55113475"/>
    <nd ref="59647245"/>
    <nd ref="56945374"/>
    <tag k="highway" v="residential"/>
    <tag k="maxspeed" v="50"/>
    <tag k="maxspeed:source" v="default residential speed limit in Australia"/>
    <tag k="name" v="Campbell Street"/>
  </way>
  <way id="7791833" version="3" timestamp="2012-01-15T06:29:54Z" uid="147510" user="woodpeck_fixbot" changeset="10394821">
    <nd ref="55113475"/>
    <nd ref="59647245"/>
    <nd ref="56945374"/>
    <tag k="highway" v="residential"/>
    <tag k="name" v="Campbell Street"/>
  </way>
  <way id="7791838" version="2" timestamp="2010-07-08T17:50:08Z" uid="74617" user="JohnSmith" changeset="5167338">
    <nd ref="56945442"/>
    <nd ref="56945459"/>
    <tag k="highway" v="residential"/>
    <tag k="maxspeed" v="50"/>
    <tag k="maxspeed:source" v="default residential speed limit in Australia"/>
    <tag k="name" v="Mason Street"/>
  </way>
  <way id="7791838" version="3" timestamp="2012-01-15T06:29:56Z" uid="147510" user="woodpeck_fixbot" changeset="10394821">
    <nd ref="56945442"/>
    <nd ref="56945459"/>
    <tag k="highway" v="residential"/>
    <tag k="name" v="Mason Street"/>
  </way>
  <way id="7791841" version="2" timestamp="2010-07-08T17:49:41Z" uid="74617" user="JohnSmith" changeset="5167338">
    <nd ref="56945396"/>
    <nd ref="56945409"/>
    <nd ref="56945459"/>
    <nd ref="56945427"/>
    <nd ref="55231564"/>
    <tag k="highway" v="residential"/>
    <tag k="maxspeed" v="50"/>
    <tag k="maxspeed:source" v="default residential speed limit in Australia"/>
    <tag k="name" v="Argyle Street"/>
  </way>
  <way id="7791841" version="3" timestamp="2012-01-15T06:29:57Z" uid="147510" user="woodpeck_fixbot" changeset="10394821">
    <nd ref="56945396"/>
    <nd ref="56945409"/>
    <nd ref="56945459"/>
    <nd ref="56945427"/>
    <nd ref="55231564"/>
    <tag k="highway" v="residential"/>
    <tag k="name" v="Argyle Street"/>
  </way>
  <way id="7791905" version="6" timestamp="2010-07-09T06:38:59Z" uid="74617" user="JohnSmith" changeset="5171134">
    <nd ref="56244112"/>
    <nd ref="56946922"/>
    <nd ref="56946923"/>
    <nd ref="137639559"/>
    <nd ref="56946577"/>
    <tag k="highway" v="residential"/>
    <tag k="maxspeed" v="50"/>
    <tag k="maxspeed:source" v="default residential speed limit in Australia"/>
    <tag k="name" v="Taylor Terrace"/>
    <tag k="source:name" v="survey"/>
  </way>
  <way id="7791905" version="7" timestamp="2012-01-15T06:29:58Z" uid="147510" user="woodpeck_fixbot" changeset="10394821">
    <nd ref="56244112"/>
    <nd ref="56946922"/>
    <nd ref="56946923"/>
    <nd ref="137639559"/>
    <nd ref="56946577"/>
    <tag k="highway" v="residential"/>
    <tag k="name" v="Taylor Terrace"/>
    <tag k="source:name" v="survey"/>
  </way>
  <way id="7791965" version="7" timestamp="2010-07-09T06:39:49Z" uid="74617" user="JohnSmith" changeset="5171134">
    <nd ref="56943407"/>
    <nd ref="56946923"/>
    <nd ref="320957277"/>
    <nd ref="56947635"/>
    <nd ref="56947636"/>
    <nd ref="56947637"/>
    <nd ref="56947638"/>
    <tag k="highway" v="residential"/>
    <tag k="maxspeed" v="50"/>
    <tag k="maxspeed:source" v="default residential speed limit in Australia"/>
    <tag k="name" v="Highland Terrace"/>
    <tag k="source:name" v="survey"/>
  </way>
  <way id="7791965" version="8" timestamp="2011-12-11T10:16:11Z" uid="62202" user="notentirelysure85" changeset="10087949">
    <nd ref="56943407"/>
    <nd ref="56946923"/>
    <nd ref="320957277"/>
    <nd ref="56947635"/>
    <nd ref="56947636"/>
    <nd ref="56947637"/>
    <nd ref="56947638"/>
    <tag k="highway" v="residential"/>
    <tag k="maxspeed" v="50"/>
    <tag k="maxspeed:source" v="default residential speed limit in Australia"/>
    <tag k="name" v="Park Avenue"/>
    <tag k="source:name" v="survey"/>
  </way>
  <way id="7791965" version="9" timestamp="2012-01-15T06:29:59Z" uid="147510" user="woodpeck_fixbot" changeset="10394821">
    <nd ref="56943407"/>
    <nd ref="56946923"/>
    <nd ref="320957277"/>
    <nd ref="56947635"/>
    <nd ref="56947636"/>
    <nd ref="56947637"/>
    <nd ref="56947638"/>
    <tag k="highway" v="residential"/>
    <tag k="name" v="Park Avenue"/>
    <tag k="source:name" v="survey"/>
  </way>
</osm>
