<?xml version='1.0' encoding='UTF-8'?>
<osm version="0.6" generator="libosmium/2.20.0">
  <way id="77947057" version="3" timestamp="2011-04-20T12:59:55Z" uid="115477" user="wowik" changeset="7916018">
    <nd ref="916076978"/>
    <nd ref="916076854"/>
    <nd ref="916076908"/>
    <nd ref="916076760"/>
    <nd ref="916076872"/>
    <nd ref="916076719"/>
    <nd ref="916076768"/>
    <nd ref="916076617"/>
    <nd ref="916076978"/>
    <tag k="addr:city" v="Москва"/>
    <tag k="addr:country" v="RU"/>
    <tag k="addr:housenumber" v="9 с7"/>
    <tag k="building" v="yes"/>
    <tag k="name" v="Лаборатория"/>
    <tag k="official_name" v="Учебно-полиграфическая лаборатория факультета журналистики"/>
  </way>
  <way id="77947057" version="4" timestamp="2011-07-28T09:40:23Z" uid="433361" user="Dima M" changeset="8852711">
    <nd ref="916076978"/>
    <nd ref="916076854"/>
    <nd ref="916076908"/>
    <nd ref="916076760"/>
    <nd ref="916076872"/>
    <nd ref="916076719"/>
    <nd ref="916076768"/>
    <nd ref="916076617"/>
    <nd ref="916076978"/>
    <tag k="addr:city" v="Москва"/>
    <tag k="addr:country" v="RU"/>
    <tag k="addr:housenumber" v="9 с7"/>
    <tag k="addr:street" v="Моховая улица"/>
    <tag k="building" v="yes"/>
    <tag k="name" v="Лаборатория"/>
    <tag k="official_name" v="Учебно-полиграфическая лаборатория факультета журналистики"/>
  </way>
</osm>
