<?xml version='1.0' encoding='UTF-8'?>
<osm version="0.6" generator="libosmium/2.20.0">
  <way id="7797437" version="7" timestamp="2010-07-06T08:39:13Z" uid="74617" user="JohnSmith" changeset="5147679">
    <nd ref="53912199"/>
    <nd ref="257264692"/>
    <nd ref="53860687"/>
    <tag k="highway" v="unclassified"/>
    <tag k="lcn" v="yes"/>
    <tag k="maxspeed" v="50"/>
    <tag k="maxspeed:source" v="default residential speed limit in Australia"/>
    <tag k="name" v="Lambert Road"/>
  </way>
  <way id="7797437" version="8" timestamp="2010-12-03T08:35:41Z" uid="22094" user="Chadzopkyo" changeset="6523412">
    <nd ref="53912199"/>
    <nd ref="53860687"/>
    <tag k="highway" v="unclassified"/>
    <tag k="lcn" v="yes"/>
    <tag k="maxspeed" v="50"/>
    <tag k="maxspeed:source" v="default residential speed limit in Australia"/>
    <tag k="name" v="Lambert Road"/>
    <tag k="source" v="GPS"/>
    <tag k="surface" v="asphalt"/>
  </way>
  <way id="7797437" version="9" timestamp="2012-01-15T06:30:40Z" uid="147510" user="woodpeck_fixbot" changeset="10394821">
    <nd ref="53912199"/>
    <nd ref="53860687"/>
    <tag k="highway" v="unclassified"/>
    <tag k="lcn" v="yes"/>
    <tag k="name" v="Lambert Road"/>
    <tag k="source" v="GPS"/>
    <tag k="surface" v="asphalt"/>
  </way>
  <way id="7797440" version="7" timestamp="2009-07-27T12:29:19Z" uid="74617" user="JohnSmith" changeset="1955021">
    <nd ref="21477499"/>
    <nd ref="212742688"/>
    <tag k="highway" v="motorway_link"/>
    <tag k="name" v="Centenary Highway"/>
    <tag k="oneway" v="yes"/>
  </way>
  <way id="7797440" version="8" timestamp="2010-03-16T06:03:32Z" uid="74617" user="JohnSmith" changeset="4140818">
    <nd ref="21477499"/>
    <nd ref="212742688"/>
    <tag k="highway" v="motorway_link"/>
    <tag k="oneway" v="yes"/>
  </way>
</osm>
