<?xml version='1.0' encoding='UTF-8'?>
<osm version="0.6" generator="libosmium/2.20.0">
  <way id="78253411" version="2" timestamp="2011-02-11T11:23:11Z" uid="4467" user="Rosscoe" changeset="7254203">
    <nd ref="918062521"/>
    <nd ref="918969572"/>
    <nd ref="918969580"/>
    <nd ref="918969576"/>
    <tag k="bicycle" v="yes"/>
    <tag k="cycleway" v="track"/>
    <tag k="foot" v="yes"/>
    <tag k="highway" v="cycleway"/>
    <tag k="name" v="Whipstick Road"/>
    <tag k="notes" v="Mulga Bill hits the water!"/>
    <tag k="source" v="nearmap"/>
    <tag k="surface" v="unpaved"/>
  </way>
  <way id="78253411" version="3" timestamp="2011-02-11T18:55:04Z" uid="70696" user="xybot" changeset="7257804">
    <nd ref="918062521"/>
    <nd ref="918969572"/>
    <nd ref="918969580"/>
    <nd ref="918969576"/>
    <tag k="bicycle" v="yes"/>
    <tag k="cycleway" v="track"/>
    <tag k="foot" v="yes"/>
    <tag k="highway" v="cycleway"/>
    <tag k="name" v="Whipstick Road"/>
    <tag k="note" v="Mulga Bill hits the water!"/>
    <tag k="source" v="nearmap"/>
    <tag k="surface" v="unpaved"/>
  </way>
  <way id="78253988" version="2" timestamp="2010-10-23T17:34:51Z" uid="9581" user="Lobelt" changeset="6148952">
    <nd ref="307678826"/>
    <nd ref="918974324"/>
    <tag k="name" v="Emischbach"/>
    <tag k="waterway" v="stream"/>
  </way>
</osm>
