<?xml version='1.0' encoding='UTF-8'?>
<osm version="0.6" generator="libosmium/2.20.0">
  <way id="78319362" version="1" timestamp="2010-09-20T11:17:48Z" uid="4467" user="Rosscoe" changeset="5828198">
    <nd ref="919517997"/>
    <nd ref="919505314"/>
    <nd ref="919505308"/>
    <tag k="highway" v="residential"/>
    <tag k="name" v="Kestrel Way"/>
    <tag k="source" v="survey"/>
  </way>
  <way id="78319703" version="1" timestamp="2010-09-20T11:21:06Z" uid="4467" user="Rosscoe" changeset="5828225">
    <nd ref="919519804"/>
    <nd ref="919519816"/>
    <nd ref="919519805"/>
    <tag k="highway" v="residential"/>
    <tag k="name" v="Hartog Crescent"/>
    <tag k="source" v="survey"/>
  </way>
  <way id="78319703" version="2" timestamp="2010-11-08T13:14:29Z" uid="4467" user="Rosscoe" changeset="6320554">
    <nd ref="919519804"/>
    <nd ref="919519816"/>
    <nd ref="919519805"/>
    <tag k="highway" v="residential"/>
    <tag k="maxspeed" v="50"/>
    <tag k="name" v="Hartog Crescent"/>
    <tag k="source" v="survey"/>
  </way>
  <way id="78319704" version="1" timestamp="2010-09-20T11:21:06Z" uid="4467" user="Rosscoe" changeset="5828225">
    <nd ref="919519820"/>
    <nd ref="919519815"/>
    <nd ref="919519818"/>
    <nd ref="919519807"/>
    <nd ref="919519821"/>
    <tag k="highway" v="residential"/>
    <tag k="name" v="Durack Crescent"/>
    <tag k="source" v="survey"/>
  </way>
  <way id="78319704" version="2" timestamp="2010-11-08T13:14:30Z" uid="4467" user="Rosscoe" changeset="6320554">
    <nd ref="919519820"/>
    <nd ref="919519815"/>
    <nd ref="919519818"/>
    <nd ref="919519807"/>
    <nd ref="919519821"/>
    <tag k="highway" v="residential"/>
    <tag k="maxspeed" v="50"/>
    <tag k="name" v="Durack Crescent"/>
    <tag k="source" v="survey"/>
  </way>
  <way id="78319704" version="3" timestamp="2010-11-30T22:45:53Z" uid="4467" user="Rosscoe" changeset="6498673">
    <nd ref="1014039814"/>
    <nd ref="919519820"/>
    <nd ref="919519815"/>
    <nd ref="919519818"/>
    <nd ref="919519807"/>
    <nd ref="919519821"/>
    <tag k="highway" v="residential"/>
    <tag k="maxspeed" v="50"/>
    <tag k="name" v="Durack Crescent"/>
    <tag k="source" v="survey"/>
  </way>
</osm>
