<?xml version='1.0' encoding='UTF-8'?>
<osm version="0.6" generator="libosmium/2.20.0">
  <way id="78575096" version="1" timestamp="2010-09-22T21:19:15Z" uid="23543" user="jkjk" changeset="5849298">
    <nd ref="921917827"/>
    <nd ref="921917873"/>
    <nd ref="921917911"/>
    <nd ref="921917786"/>
    <nd ref="921917828"/>
    <nd ref="921917830"/>
    <nd ref="921917875"/>
    <nd ref="921917739"/>
    <nd ref="921917769"/>
    <nd ref="921917845"/>
    <nd ref="921917890"/>
    <nd ref="921917749"/>
    <nd ref="921917790"/>
    <nd ref="921917760"/>
    <nd ref="921917798"/>
    <nd ref="921917840"/>
    <nd ref="921917886"/>
    <nd ref="921917776"/>
    <nd ref="921917816"/>
    <nd ref="921917859"/>
    <nd ref="921917901"/>
    <nd ref="921917905"/>
    <nd ref="921917767"/>
    <nd ref="921917815"/>
    <nd ref="921917858"/>
    <nd ref="921917899"/>
    <nd ref="921917792"/>
    <nd ref="921917831"/>
    <nd ref="921917876"/>
    <nd ref="921917743"/>
    <nd ref="921917746"/>
    <nd ref="921917782"/>
    <nd ref="921917825"/>
    <nd ref="921917862"/>
    <nd ref="921917752"/>
    <nd ref="921917797"/>
    <nd ref="921917839"/>
    <nd ref="921917884"/>
    <tag k="converted_by" v="Track2osm"/>
    <tag k="highway" v="motorway"/>
    <tag k="name" v="呼包高速"/>
    <tag k="name:en" v="Hubao Expressway"/>
    <tag k="note" v="FIXME"/>
    <tag k="ref" v="G6"/>
  </way>
  <way id="78575096" version="2" timestamp="2011-10-31T12:29:08Z" uid="475557" user="orzseiha" changeset="9702654">
    <nd ref="921917827"/>
    <nd ref="921917873"/>
    <nd ref="921917911"/>
    <nd ref="921917786"/>
    <nd ref="921917828"/>
    <nd ref="921917830"/>
    <nd ref="921917875"/>
    <nd ref="921917739"/>
    <nd ref="921917769"/>
    <nd ref="921917845"/>
    <nd ref="921917890"/>
    <nd ref="921917749"/>
    <nd ref="921917790"/>
    <nd ref="921917760"/>
    <nd ref="921917798"/>
    <nd ref="921917840"/>
    <nd ref="921917886"/>
    <nd ref="921917776"/>
    <nd ref="921917816"/>
    <nd ref="921917859"/>
    <nd ref="921917901"/>
    <tag k="converted_by" v="Track2osm"/>
    <tag k="highway" v="motorway"/>
    <tag k="layer" v="1"/>
    <tag k="name" v="呼包高速"/>
    <tag k="name:en" v="Hubao Expressway"/>
    <tag k="note" v="FIXME"/>
    <tag k="ref" v="G6"/>
  </way>
  <way id="78575096" version="3" timestamp="2011-11-28T18:26:43Z" uid="386131" user="zhongguo" changeset="9980556"/>
  <way id="78575102" version="1" timestamp="2010-09-22T21:19:16Z" uid="23543" user="jkjk" changeset="5849298">
    <nd ref="843122584"/>
    <nd ref="124221311"/>
    <nd ref="124221319"/>
    <nd ref="124221323"/>
    <nd ref="124221283"/>
    <nd ref="124221289"/>
    <nd ref="124221294"/>
    <nd ref="124221300"/>
    <nd ref="124220992"/>
    <nd ref="124220985"/>
    <nd ref="124220975"/>
    <tag k="railway" v="rail"/>
  </way>
  <way id="78575105" version="1" timestamp="2010-09-22T21:19:16Z" uid="23543" user="jkjk" changeset="5849298">
    <nd ref="921917884"/>
    <nd ref="921917844"/>
    <tag k="bridge" v="yes"/>
    <tag k="converted_by" v="Track2osm"/>
    <tag k="highway" v="motorway"/>
    <tag k="layer" v="1"/>
    <tag k="name" v="呼包高速"/>
    <tag k="name:en" v="Hubao Expressway"/>
    <tag k="note" v="FIXME"/>
    <tag k="ref" v="G6"/>
  </way>
  <way id="78575110" version="1" timestamp="2010-09-22T21:19:17Z" uid="23543" user="jkjk" changeset="5849298">
    <nd ref="620728098"/>
    <nd ref="921917793"/>
    <nd ref="921917834"/>
    <nd ref="921917878"/>
    <nd ref="921917744"/>
    <nd ref="921917812"/>
    <nd ref="921917854"/>
    <nd ref="921917891"/>
    <nd ref="921917751"/>
    <nd ref="921917904"/>
    <nd ref="921917766"/>
    <nd ref="921917809"/>
    <nd ref="921917843"/>
    <nd ref="921917745"/>
    <nd ref="921917781"/>
    <nd ref="921917824"/>
    <nd ref="921917861"/>
    <nd ref="921917868"/>
    <tag k="highway" v="primary"/>
  </way>
  <way id="78575111" version="1" timestamp="2010-09-22T21:19:17Z" uid="23543" user="jkjk" changeset="5849298">
    <nd ref="921917785"/>
    <nd ref="921917827"/>
    <tag k="bridge" v="yes"/>
    <tag k="converted_by" v="Track2osm"/>
    <tag k="highway" v="motorway"/>
    <tag k="layer" v="1"/>
    <tag k="name" v="呼包高速"/>
    <tag k="name:en" v="Hubao Expressway"/>
    <tag k="note" v="FIXME"/>
    <tag k="ref" v="G6"/>
  </way>
  <way id="78575115" version="1" timestamp="2010-09-22T21:19:17Z" uid="23543" user="jkjk" changeset="5849298">
    <nd ref="921917844"/>
    <nd ref="921917888"/>
    <nd ref="921917748"/>
    <nd ref="921917788"/>
    <nd ref="921917867"/>
    <nd ref="921917811"/>
    <nd ref="921917848"/>
    <nd ref="921917795"/>
    <nd ref="921917835"/>
    <nd ref="921917883"/>
    <nd ref="921917775"/>
    <nd ref="921917814"/>
    <nd ref="921917857"/>
    <nd ref="921917897"/>
    <nd ref="921917764"/>
    <tag k="converted_by" v="Track2osm"/>
    <tag k="highway" v="motorway"/>
    <tag k="name" v="呼包高速"/>
    <tag k="name:en" v="Hubao Expressway"/>
    <tag k="note" v="FIXME"/>
    <tag k="ref" v="G6"/>
  </way>
  <way id="78575115" version="2" timestamp="2011-03-06T10:44:43Z" uid="68934" user="_kendell" changeset="7471621">
    <nd ref="921917844"/>
    <nd ref="921917888"/>
    <nd ref="921917748"/>
    <nd ref="921917788"/>
    <nd ref="921917867"/>
    <nd ref="921917811"/>
    <nd ref="921917848"/>
    <nd ref="921917795"/>
    <nd ref="921917835"/>
    <nd ref="921917883"/>
    <nd ref="921917775"/>
    <nd ref="921917814"/>
    <nd ref="921917857"/>
    <nd ref="921917897"/>
    <nd ref="921917764"/>
    <nd ref="1188957915"/>
    <tag k="converted_by" v="Track2osm"/>
    <tag k="highway" v="motorway"/>
    <tag k="name" v="呼包高速"/>
    <tag k="name:en" v="Hubao Expressway"/>
    <tag k="note" v="FIXME"/>
    <tag k="ref" v="G6"/>
  </way>
  <way id="78575262" version="1" timestamp="2010-09-22T21:19:40Z" uid="6269" user="Mueck" changeset="5849418">
    <nd ref="32340941"/>
    <nd ref="470676645"/>
    <nd ref="32340942"/>
    <nd ref="32340943"/>
    <tag k="access" v="designated"/>
    <tag k="highway" v="service"/>
    <tag k="maxspeed" v="50"/>
    <tag k="motorcar" v="destination"/>
    <tag k="motorcycle" v="destination"/>
    <tag k="name" v="Waisenrainweg"/>
    <tag k="surface" v="asphalt"/>
  </way>
  <way id="78575262" version="2" timestamp="2010-11-27T22:07:20Z" uid="101348" user="Stefan Karl" changeset="6473873">
    <nd ref="32340942"/>
    <nd ref="32340943"/>
    <tag k="access" v="designated"/>
    <tag k="highway" v="service"/>
    <tag k="maxspeed" v="50"/>
    <tag k="motorcar" v="destination"/>
    <tag k="motorcycle" v="destination"/>
    <tag k="name" v="Waisenrainweg"/>
    <tag k="surface" v="asphalt"/>
  </way>
  <way id="78575262" version="3" timestamp="2011-12-17T11:47:47Z" uid="63969" user="olvagor" changeset="10137688">
    <nd ref="32340942"/>
    <nd ref="1550166551"/>
    <tag k="access" v="designated"/>
    <tag k="highway" v="service"/>
    <tag k="maxspeed" v="50"/>
    <tag k="motorcar" v="destination"/>
    <tag k="motorcycle" v="destination"/>
    <tag k="name" v="Waisenrainweg"/>
    <tag k="surface" v="asphalt"/>
  </way>
  <way id="78575458" version="1" timestamp="2010-09-22T21:20:11Z" uid="6269" user="Mueck" changeset="5849418">
    <nd ref="470676649"/>
    <nd ref="470676647"/>
    <nd ref="310638698"/>
    <nd ref="32340941"/>
    <tag k="access" v="designated"/>
    <tag k="highway" v="service"/>
    <tag k="maxspeed" v="50"/>
    <tag k="motorcar" v="destination"/>
    <tag k="motorcycle" v="destination"/>
    <tag k="name" v="Waisenrainweg"/>
    <tag k="surface" v="asphalt"/>
  </way>
  <way id="78575458" version="2" timestamp="2011-09-22T08:38:01Z" uid="442210" user="dwausr" changeset="9366549"/>
</osm>
