<?xml version='1.0' encoding='UTF-8'?>
<osm version="0.6" generator="libosmium/2.20.0">
  <way id="78578245" version="1" timestamp="2010-09-22T21:31:06Z" uid="49111" user="Markus B" changeset="5849507">
    <nd ref="921928724"/>
    <nd ref="921928954"/>
    <nd ref="921928534"/>
    <nd ref="921929651"/>
    <nd ref="921929449"/>
    <nd ref="921929064"/>
    <nd ref="921928643"/>
    <nd ref="921928358"/>
    <nd ref="921928724"/>
    <tag k="addr:city" v="Bachs"/>
    <tag k="addr:country" v="CH"/>
    <tag k="addr:housenumber" v="3"/>
    <tag k="addr:postcode" v="8164"/>
    <tag k="addr:street" v="Bachsertal-Strasse"/>
    <tag k="building" v="yes"/>
  </way>
  <way id="78578245" version="2" timestamp="2012-01-13T00:02:16Z" uid="178186" user="mdk" changeset="10374865">
    <nd ref="921928724"/>
    <nd ref="921928954"/>
    <nd ref="921928534"/>
    <nd ref="921929651"/>
    <nd ref="921929449"/>
    <nd ref="921929064"/>
    <nd ref="921928643"/>
    <nd ref="921928358"/>
    <nd ref="921928724"/>
    <tag k="addr:city" v="Bachs"/>
    <tag k="addr:country" v="CH"/>
    <tag k="addr:housenumber" v="3"/>
    <tag k="addr:postcode" v="8164"/>
    <tag k="addr:street" v="Bachsertalstrasse"/>
    <tag k="building" v="yes"/>
  </way>
  <way id="78578246" version="1" timestamp="2010-09-22T21:31:06Z" uid="49111" user="Markus B" changeset="5849507">
    <nd ref="921929513"/>
    <nd ref="921928433"/>
    <nd ref="921929361"/>
    <nd ref="921929019"/>
    <nd ref="921929773"/>
    <nd ref="921929354"/>
    <nd ref="921929513"/>
    <tag k="building" v="yes"/>
  </way>
  <way id="78578247" version="1" timestamp="2010-09-22T21:31:06Z" uid="49111" user="Markus B" changeset="5849507">
    <nd ref="921928691"/>
    <nd ref="921928933"/>
    <nd ref="921928493"/>
    <nd ref="921929628"/>
    <nd ref="921928691"/>
    <tag k="building" v="yes"/>
  </way>
  <way id="78578248" version="1" timestamp="2010-09-22T21:31:06Z" uid="49111" user="Markus B" changeset="5849507">
    <nd ref="921928583"/>
    <nd ref="921928798"/>
    <nd ref="921928618"/>
    <nd ref="921928327"/>
    <nd ref="921928583"/>
    <tag k="addr:city" v="Bachs"/>
    <tag k="addr:country" v="CH"/>
    <tag k="addr:housenumber" v="30"/>
    <tag k="addr:postcode" v="8164"/>
    <tag k="addr:street" v="Mufler-Strasse"/>
    <tag k="building" v="yes"/>
  </way>
  <way id="78578248" version="2" timestamp="2011-09-03T23:35:14Z" uid="90689" user="HansJ" changeset="9204691">
    <nd ref="921928583"/>
    <nd ref="921928798"/>
    <nd ref="921928618"/>
    <nd ref="921928327"/>
    <nd ref="921928583"/>
    <tag k="addr:city" v="Bachs"/>
    <tag k="addr:country" v="CH"/>
    <tag k="addr:housenumber" v="30"/>
    <tag k="addr:postcode" v="8164"/>
    <tag k="addr:street" v="Muflerstrasse"/>
    <tag k="building" v="yes"/>
  </way>
  <way id="78578251" version="1" timestamp="2010-09-22T21:31:07Z" uid="49111" user="Markus B" changeset="5849507">
    <nd ref="921929546"/>
    <nd ref="921928935"/>
  </way>
  <way id="78578251" version="2" timestamp="2010-10-04T20:19:03Z" uid="49111" user="Markus B" changeset="5957026">
    <nd ref="921929546"/>
    <nd ref="921928935"/>
    <tag k="name" v="Schussbahn"/>
  </way>
  <way id="78578251" version="3" timestamp="2010-10-05T14:51:39Z" uid="49111" user="Markus B" changeset="5961851">
    <nd ref="921929546"/>
    <nd ref="921928935"/>
    <tag k="aerialway" v="chair_lift"/>
    <tag k="name" v="Schussbahn"/>
  </way>
  <way id="78578251" version="4" timestamp="2010-10-05T20:56:26Z" uid="49111" user="Markus B" changeset="5964834">
    <nd ref="921929546"/>
    <nd ref="921928935"/>
    <tag k="aerialway" v="chair_lift"/>
    <tag k="name" v="Schussbahn"/>
    <tag k="sport" v="shooting"/>
  </way>
  <way id="78578251" version="5" timestamp="2010-10-06T11:21:32Z" uid="49111" user="Markus B" changeset="5968158">
    <nd ref="921929546"/>
    <nd ref="921928935"/>
    <tag k="aerialway" v="goods"/>
    <tag k="name" v="Schussbahn"/>
    <tag k="sport" v="shooting"/>
  </way>
  <way id="78578251" version="6" timestamp="2010-11-22T19:07:13Z" uid="8296" user="kuede" changeset="6434071">
    <nd ref="921929546"/>
    <nd ref="921928935"/>
    <tag k="note" v="Schussbahn"/>
    <tag k="sport" v="shooting"/>
  </way>
  <way id="78578251" version="7" timestamp="2011-07-24T15:04:54Z" uid="17835" user="Stéphane Brunner" changeset="8817299"/>
  <way id="78578252" version="1" timestamp="2010-09-22T21:31:07Z" uid="49111" user="Markus B" changeset="5849507">
    <nd ref="921929336"/>
    <nd ref="921928912"/>
    <nd ref="921928604"/>
    <nd ref="921929602"/>
    <nd ref="921929209"/>
    <nd ref="921929017"/>
    <nd ref="921929336"/>
    <tag k="addr:city" v="Bachs"/>
    <tag k="addr:country" v="CH"/>
    <tag k="addr:housenumber" v="30"/>
    <tag k="addr:postcode" v="8164"/>
    <tag k="addr:street" v="Bachsertal-Strasse"/>
    <tag k="building" v="yes"/>
  </way>
  <way id="78578252" version="2" timestamp="2012-01-13T00:02:17Z" uid="178186" user="mdk" changeset="10374865">
    <nd ref="921929336"/>
    <nd ref="921928912"/>
    <nd ref="921928604"/>
    <nd ref="921929602"/>
    <nd ref="921929209"/>
    <nd ref="921929017"/>
    <nd ref="921929336"/>
    <tag k="addr:city" v="Bachs"/>
    <tag k="addr:country" v="CH"/>
    <tag k="addr:housenumber" v="30"/>
    <tag k="addr:postcode" v="8164"/>
    <tag k="addr:street" v="Bachsertalstrasse"/>
    <tag k="building" v="yes"/>
  </way>
  <way id="78578255" version="1" timestamp="2010-09-22T21:31:07Z" uid="49111" user="Markus B" changeset="5849507">
    <nd ref="921928922"/>
    <nd ref="921928390"/>
    <nd ref="921929287"/>
    <nd ref="921928980"/>
    <nd ref="921928922"/>
    <tag k="building" v="yes"/>
  </way>
  <way id="78578257" version="1" timestamp="2010-09-22T21:31:08Z" uid="49111" user="Markus B" changeset="5849507">
    <nd ref="921928400"/>
    <nd ref="921929530"/>
    <nd ref="921929260"/>
    <nd ref="921928959"/>
    <tag k="highway" v="service"/>
  </way>
  <way id="78578260" version="1" timestamp="2010-09-22T21:31:08Z" uid="49111" user="Markus B" changeset="5849507">
    <nd ref="921928555"/>
    <nd ref="921928754"/>
    <nd ref="921928599"/>
    <nd ref="921929765"/>
    <nd ref="921929195"/>
    <nd ref="921928907"/>
    <nd ref="921928700"/>
    <nd ref="921928424"/>
    <nd ref="921928555"/>
    <tag k="building" v="yes"/>
  </way>
  <way id="78578261" version="1" timestamp="2010-09-22T21:31:08Z" uid="49111" user="Markus B" changeset="5849507">
    <nd ref="921928658"/>
    <nd ref="921928750"/>
    <nd ref="921928464"/>
    <nd ref="921929754"/>
    <nd ref="921929341"/>
    <nd ref="921928905"/>
    <nd ref="921928658"/>
    <tag k="building" v="yes"/>
  </way>
  <way id="78578264" version="1" timestamp="2010-09-22T21:31:08Z" uid="49111" user="Markus B" changeset="5849507">
    <nd ref="921929702"/>
    <nd ref="921928725"/>
    <nd ref="921928442"/>
    <nd ref="921929376"/>
    <nd ref="921929025"/>
    <nd ref="921928888"/>
    <nd ref="921928582"/>
    <nd ref="921929579"/>
    <nd ref="921929702"/>
    <tag k="building" v="yes"/>
  </way>
  <way id="78578265" version="1" timestamp="2010-09-22T21:31:09Z" uid="49111" user="Markus B" changeset="5849507">
    <nd ref="921928903"/>
    <nd ref="921928376"/>
    <nd ref="921929274"/>
    <nd ref="921928969"/>
    <nd ref="921929432"/>
    <nd ref="921929053"/>
    <nd ref="921928903"/>
    <tag k="building" v="yes"/>
  </way>
  <way id="78578266" version="1" timestamp="2010-09-22T21:31:09Z" uid="49111" user="Markus B" changeset="5849507">
    <nd ref="921928645"/>
    <nd ref="921929173"/>
    <nd ref="921928728"/>
    <nd ref="921928445"/>
    <nd ref="921928645"/>
    <tag k="building" v="yes"/>
  </way>
  <way id="78578268" version="1" timestamp="2010-09-22T21:31:09Z" uid="49111" user="Markus B" changeset="5849507">
    <nd ref="921928640"/>
    <nd ref="921928881"/>
    <nd ref="921928435"/>
    <nd ref="921929569"/>
    <nd ref="921929295"/>
    <nd ref="921928985"/>
    <nd ref="921928573"/>
    <nd ref="921929705"/>
    <nd ref="921929525"/>
    <nd ref="921929099"/>
    <nd ref="921928677"/>
    <nd ref="921928640"/>
    <tag k="building" v="yes"/>
  </way>
  <way id="78578269" version="1" timestamp="2010-09-22T21:31:10Z" uid="49111" user="Markus B" changeset="5849507">
    <nd ref="921928898"/>
    <nd ref="921928369"/>
    <nd ref="921929474"/>
    <nd ref="921929237"/>
    <nd ref="921928898"/>
    <tag k="building" v="yes"/>
  </way>
  <way id="78578271" version="1" timestamp="2010-09-22T21:31:10Z" uid="49111" user="Markus B" changeset="5849507">
    <nd ref="921928361"/>
    <nd ref="921928581"/>
    <tag k="highway" v="track"/>
    <tag k="tracktype" v="grade2"/>
  </way>
  <way id="78578273" version="1" timestamp="2010-09-22T21:31:10Z" uid="49111" user="Markus B" changeset="5849507">
    <nd ref="921929578"/>
    <nd ref="921929653"/>
    <nd ref="921929256"/>
    <nd ref="921929065"/>
    <nd ref="921928795"/>
    <nd ref="921928359"/>
    <nd ref="921929450"/>
    <nd ref="921929227"/>
    <nd ref="921928928"/>
    <nd ref="921929161"/>
    <nd ref="921929578"/>
    <tag k="building" v="yes"/>
    <tag k="name" v="Köchli Reisen"/>
  </way>
  <way id="78578273" version="2" timestamp="2010-09-22T21:57:36Z" uid="49111" user="Markus B" changeset="5849760">
    <nd ref="921929578"/>
    <nd ref="921929653"/>
    <nd ref="921929256"/>
    <nd ref="921929065"/>
    <nd ref="921928795"/>
    <nd ref="921928359"/>
    <nd ref="921929450"/>
    <nd ref="921929227"/>
    <nd ref="921928928"/>
    <nd ref="921929161"/>
    <nd ref="921929578"/>
    <tag k="addr:city" v="Bachs"/>
    <tag k="addr:country" v="CH"/>
    <tag k="addr:housenumber" v="14"/>
    <tag k="addr:postcode" v="8164"/>
    <tag k="addr:street" v="Dorf-Strasse"/>
    <tag k="building" v="yes"/>
    <tag k="name" v="Köchli Reisen"/>
  </way>
  <way id="78578273" version="3" timestamp="2010-09-22T22:08:12Z" uid="49111" user="Markus B" changeset="5849845">
    <nd ref="922016836"/>
    <nd ref="922016838"/>
    <nd ref="921929227"/>
    <nd ref="921928928"/>
    <nd ref="921929161"/>
    <nd ref="921929578"/>
    <nd ref="921929653"/>
    <nd ref="922016836"/>
    <tag k="addr:city" v="Bachs"/>
    <tag k="addr:country" v="CH"/>
    <tag k="addr:housenumber" v="14"/>
    <tag k="addr:postcode" v="8164"/>
    <tag k="addr:street" v="Dorf-Strasse"/>
    <tag k="building" v="yes"/>
    <tag k="name" v="Köchli Reisen"/>
  </way>
  <way id="78578273" version="4" timestamp="2011-09-03T23:35:22Z" uid="90689" user="HansJ" changeset="9204691">
    <nd ref="922016836"/>
    <nd ref="922016838"/>
    <nd ref="921929227"/>
    <nd ref="921928928"/>
    <nd ref="921929161"/>
    <nd ref="921929578"/>
    <nd ref="921929653"/>
    <nd ref="922016836"/>
    <tag k="addr:city" v="Bachs"/>
    <tag k="addr:country" v="CH"/>
    <tag k="addr:housenumber" v="14"/>
    <tag k="addr:postcode" v="8164"/>
    <tag k="addr:street" v="Dorfstrasse"/>
    <tag k="building" v="yes"/>
    <tag k="name" v="Köchli Reisen"/>
  </way>
  <way id="78578275" version="1" timestamp="2010-09-22T21:31:11Z" uid="49111" user="Markus B" changeset="5849507">
    <nd ref="921928341"/>
    <nd ref="921929123"/>
    <nd ref="921928696"/>
    <nd ref="921928418"/>
    <nd ref="921928341"/>
    <tag k="building" v="yes"/>
  </way>
  <way id="78578276" version="1" timestamp="2010-09-22T21:31:11Z" uid="49111" user="Markus B" changeset="5849507">
    <nd ref="921928622"/>
    <nd ref="921928856"/>
    <nd ref="921928409"/>
    <nd ref="921929539"/>
    <nd ref="921929271"/>
    <nd ref="921928966"/>
    <nd ref="921928547"/>
    <nd ref="921929679"/>
    <nd ref="921929479"/>
    <nd ref="921929077"/>
    <nd ref="921928622"/>
    <tag k="addr:city" v="Bachs"/>
    <tag k="addr:country" v="CH"/>
    <tag k="addr:housenumber" v="45"/>
    <tag k="addr:postcode" v="8164"/>
    <tag k="addr:street" v="Bachsertal-Strasse"/>
    <tag k="building" v="yes"/>
  </way>
  <way id="78578276" version="2" timestamp="2012-01-13T00:02:19Z" uid="178186" user="mdk" changeset="10374865">
    <nd ref="921928622"/>
    <nd ref="921928856"/>
    <nd ref="921928409"/>
    <nd ref="921929539"/>
    <nd ref="921929271"/>
    <nd ref="921928966"/>
    <nd ref="921928547"/>
    <nd ref="921929679"/>
    <nd ref="921929479"/>
    <nd ref="921929077"/>
    <nd ref="921928622"/>
    <tag k="addr:city" v="Bachs"/>
    <tag k="addr:country" v="CH"/>
    <tag k="addr:housenumber" v="45"/>
    <tag k="addr:postcode" v="8164"/>
    <tag k="addr:street" v="Bachsertalstrasse"/>
    <tag k="building" v="yes"/>
  </way>
  <way id="78578279" version="1" timestamp="2010-09-22T21:31:11Z" uid="49111" user="Markus B" changeset="5849507">
    <nd ref="921928650"/>
    <nd ref="921928855"/>
    <nd ref="921928546"/>
    <nd ref="921929538"/>
    <nd ref="921928650"/>
    <tag k="building" v="yes"/>
  </way>
  <way id="78578279" version="2" timestamp="2010-09-22T21:57:40Z" uid="49111" user="Markus B" changeset="5849760">
    <nd ref="921928650"/>
    <nd ref="921928855"/>
    <nd ref="921928546"/>
    <nd ref="921929538"/>
    <nd ref="921928650"/>
    <tag k="addr:city" v="Bachs"/>
    <tag k="addr:country" v="CH"/>
    <tag k="addr:housenumber" v="15"/>
    <tag k="addr:postcode" v="8164"/>
    <tag k="addr:street" v="Pünt-Strasse"/>
    <tag k="building" v="yes"/>
  </way>
  <way id="78578279" version="3" timestamp="2011-09-03T23:35:07Z" uid="90689" user="HansJ" changeset="9204691">
    <nd ref="921928650"/>
    <nd ref="921928855"/>
    <nd ref="921928546"/>
    <nd ref="921929538"/>
    <nd ref="921928650"/>
    <tag k="addr:city" v="Bachs"/>
    <tag k="addr:country" v="CH"/>
    <tag k="addr:housenumber" v="15"/>
    <tag k="addr:postcode" v="8164"/>
    <tag k="addr:street" v="Püntstrasse"/>
    <tag k="building" v="yes"/>
  </way>
  <way id="78578280" version="1" timestamp="2010-09-22T21:31:11Z" uid="49111" user="Markus B" changeset="5849507">
    <nd ref="921929130"/>
    <nd ref="921929605"/>
    <nd ref="921929215"/>
    <nd ref="921928775"/>
    <nd ref="921928472"/>
    <nd ref="921929790"/>
    <nd ref="921928529"/>
    <nd ref="921929130"/>
    <tag k="building" v="yes"/>
  </way>
  <way id="78578281" version="1" timestamp="2010-09-22T21:31:12Z" uid="49111" user="Markus B" changeset="5849507">
    <nd ref="921236918"/>
    <nd ref="921237024"/>
    <nd ref="921928845"/>
    <nd ref="921928401"/>
    <nd ref="921929531"/>
    <nd ref="921929261"/>
    <nd ref="921928960"/>
    <nd ref="921236918"/>
    <tag k="addr:city" v="Bachs"/>
    <tag k="addr:country" v="CH"/>
    <tag k="addr:housenumber" v="12"/>
    <tag k="addr:postcode" v="8164"/>
    <tag k="addr:street" v="Bachsertal-Strasse"/>
    <tag k="building" v="yes"/>
  </way>
  <way id="78578281" version="2" timestamp="2012-01-13T00:02:14Z" uid="178186" user="mdk" changeset="10374865">
    <nd ref="921236918"/>
    <nd ref="921237024"/>
    <nd ref="921928845"/>
    <nd ref="921928401"/>
    <nd ref="921929531"/>
    <nd ref="921929261"/>
    <nd ref="921928960"/>
    <nd ref="921236918"/>
    <tag k="addr:city" v="Bachs"/>
    <tag k="addr:country" v="CH"/>
    <tag k="addr:housenumber" v="12"/>
    <tag k="addr:postcode" v="8164"/>
    <tag k="addr:street" v="Bachsertalstrasse"/>
    <tag k="building" v="yes"/>
  </way>
  <way id="78578283" version="1" timestamp="2010-09-22T21:31:12Z" uid="49111" user="Markus B" changeset="5849507">
    <nd ref="921928994"/>
    <nd ref="921929230"/>
    <nd ref="921929036"/>
    <nd ref="921928733"/>
    <nd ref="921928994"/>
    <tag k="building" v="yes"/>
  </way>
  <way id="78578284" version="1" timestamp="2010-09-22T21:31:13Z" uid="49111" user="Markus B" changeset="5849507">
    <nd ref="921928614"/>
    <nd ref="921928674"/>
    <nd ref="921928393"/>
    <nd ref="921929654"/>
    <nd ref="921929257"/>
    <nd ref="921928838"/>
    <nd ref="921928614"/>
    <tag k="addr:city" v="Bachs"/>
    <tag k="addr:country" v="CH"/>
    <tag k="addr:housenumber" v="28"/>
    <tag k="addr:postcode" v="8164"/>
    <tag k="addr:street" v="Mufler-Strasse"/>
    <tag k="building" v="yes"/>
  </way>
  <way id="78578284" version="2" timestamp="2011-09-03T23:35:12Z" uid="90689" user="HansJ" changeset="9204691">
    <nd ref="921928614"/>
    <nd ref="921928674"/>
    <nd ref="921928393"/>
    <nd ref="921929654"/>
    <nd ref="921929257"/>
    <nd ref="921928838"/>
    <nd ref="921928614"/>
    <tag k="addr:city" v="Bachs"/>
    <tag k="addr:country" v="CH"/>
    <tag k="addr:housenumber" v="28"/>
    <tag k="addr:postcode" v="8164"/>
    <tag k="addr:street" v="Muflerstrasse"/>
    <tag k="building" v="yes"/>
  </way>
  <way id="78578285" version="1" timestamp="2010-09-22T21:31:13Z" uid="49111" user="Markus B" changeset="5849507">
    <nd ref="921928453"/>
    <nd ref="921928811"/>
    <nd ref="921928492"/>
    <nd ref="921929465"/>
    <nd ref="921928453"/>
    <tag k="building" v="yes"/>
  </way>
  <way id="78578287" version="1" timestamp="2010-09-22T21:31:13Z" uid="49111" user="Markus B" changeset="5849507">
    <nd ref="304183764"/>
    <nd ref="921929279"/>
  </way>
  <way id="78578287" version="2" timestamp="2010-11-26T12:10:41Z" uid="8296" user="kuede" changeset="6461520">
    <nd ref="304183764"/>
    <nd ref="921929279"/>
    <tag k="highway" v="track"/>
  </way>
  <way id="78578287" version="3" timestamp="2011-07-24T00:19:17Z" uid="449569" user="Nautic" changeset="8811240">
    <nd ref="304183764"/>
    <nd ref="921929279"/>
    <nd ref="921929724"/>
    <tag k="highway" v="track"/>
  </way>
  <way id="78578288" version="1" timestamp="2010-09-22T21:31:13Z" uid="49111" user="Markus B" changeset="5849507">
    <nd ref="921929583"/>
    <nd ref="921928958"/>
    <nd ref="921928647"/>
    <nd ref="921928486"/>
    <nd ref="921929620"/>
    <nd ref="921929069"/>
    <nd ref="921929583"/>
    <tag k="building" v="yes"/>
  </way>
  <way id="78578288" version="2" timestamp="2010-09-22T21:57:41Z" uid="49111" user="Markus B" changeset="5849760">
    <nd ref="921929583"/>
    <nd ref="921928958"/>
    <nd ref="921928647"/>
    <nd ref="921928486"/>
    <nd ref="921929620"/>
    <nd ref="921929069"/>
    <nd ref="921929583"/>
    <tag k="addr:city" v="Bachs"/>
    <tag k="addr:country" v="CH"/>
    <tag k="addr:housenumber" v="2"/>
    <tag k="addr:postcode" v="8164"/>
    <tag k="addr:street" v="Bungert-Weg"/>
    <tag k="building" v="yes"/>
  </way>
  <way id="78578288" version="3" timestamp="2011-09-03T23:35:10Z" uid="90689" user="HansJ" changeset="9204691">
    <nd ref="921929583"/>
    <nd ref="921928958"/>
    <nd ref="921928647"/>
    <nd ref="921928486"/>
    <nd ref="921929620"/>
    <nd ref="921929069"/>
    <nd ref="921929583"/>
    <tag k="addr:city" v="Bachs"/>
    <tag k="addr:country" v="CH"/>
    <tag k="addr:housenumber" v="2"/>
    <tag k="addr:postcode" v="8164"/>
    <tag k="addr:street" v="Bungertweg"/>
    <tag k="building" v="yes"/>
  </way>
  <way id="78578289" version="1" timestamp="2010-09-22T21:31:13Z" uid="49111" user="Markus B" changeset="5849507">
    <nd ref="921929086"/>
    <nd ref="921929555"/>
    <nd ref="921929135"/>
    <nd ref="921928702"/>
    <nd ref="921928425"/>
    <nd ref="921929698"/>
    <nd ref="921929086"/>
    <tag k="building" v="yes"/>
  </way>
  <way id="78578292" version="1" timestamp="2010-09-22T21:31:14Z" uid="49111" user="Markus B" changeset="5849507">
    <nd ref="921928394"/>
    <nd ref="921929444"/>
    <tag k="name" v="Hochrütibach"/>
    <tag k="tunnel" v="yes"/>
    <tag k="waterway" v="stream"/>
  </way>
  <way id="78578292" version="2" timestamp="2011-02-25T15:48:52Z" uid="178186" user="mdk" changeset="7391600">
    <nd ref="921928394"/>
    <nd ref="921929444"/>
    <tag k="layer" v="-1"/>
    <tag k="name" v="Hochrütibach"/>
    <tag k="tunnel" v="yes"/>
    <tag k="waterway" v="stream"/>
  </way>
  <way id="78578294" version="1" timestamp="2010-09-22T21:31:14Z" uid="49111" user="Markus B" changeset="5849507">
    <nd ref="731476222"/>
    <nd ref="921928474"/>
    <nd ref="921929794"/>
    <nd ref="921929365"/>
    <nd ref="921928919"/>
    <tag k="highway" v="track"/>
    <tag k="tracktype" v="grade3"/>
  </way>
  <way id="78578295" version="1" timestamp="2010-09-22T21:31:14Z" uid="49111" user="Markus B" changeset="5849507">
    <nd ref="921928396"/>
    <nd ref="921928729"/>
    <nd ref="921928449"/>
    <nd ref="921929380"/>
    <nd ref="921929031"/>
    <nd ref="921928892"/>
    <nd ref="921928396"/>
    <tag k="building" v="yes"/>
  </way>
  <way id="78578295" version="2" timestamp="2010-09-22T21:57:37Z" uid="49111" user="Markus B" changeset="5849760">
    <nd ref="921928396"/>
    <nd ref="921928729"/>
    <nd ref="921928449"/>
    <nd ref="921929380"/>
    <nd ref="921929031"/>
    <nd ref="921928892"/>
    <nd ref="921928396"/>
    <tag k="addr:city" v="Bachs"/>
    <tag k="addr:country" v="CH"/>
    <tag k="addr:housenumber" v="3"/>
    <tag k="addr:postcode" v="8164"/>
    <tag k="addr:street" v="Bungert-Weg"/>
    <tag k="building" v="yes"/>
  </way>
  <way id="78578295" version="3" timestamp="2011-09-03T23:35:13Z" uid="90689" user="HansJ" changeset="9204691">
    <nd ref="921928396"/>
    <nd ref="921928729"/>
    <nd ref="921928449"/>
    <nd ref="921929380"/>
    <nd ref="921929031"/>
    <nd ref="921928892"/>
    <nd ref="921928396"/>
    <tag k="addr:city" v="Bachs"/>
    <tag k="addr:country" v="CH"/>
    <tag k="addr:housenumber" v="3"/>
    <tag k="addr:postcode" v="8164"/>
    <tag k="addr:street" v="Bungertweg"/>
    <tag k="building" v="yes"/>
  </way>
  <way id="78578296" version="1" timestamp="2010-09-22T21:31:15Z" uid="49111" user="Markus B" changeset="5849507">
    <nd ref="921928533"/>
    <nd ref="921928611"/>
    <nd ref="921929811"/>
    <nd ref="921929574"/>
    <nd ref="921929158"/>
    <nd ref="921928721"/>
    <nd ref="921928439"/>
    <nd ref="921929710"/>
    <nd ref="921929304"/>
    <nd ref="921928886"/>
    <nd ref="921928578"/>
    <nd ref="921928399"/>
    <nd ref="921928533"/>
    <tag k="building" v="yes"/>
  </way>
  <way id="78578298" version="1" timestamp="2010-09-22T21:31:15Z" uid="49111" user="Markus B" changeset="5849507">
    <nd ref="921928661"/>
    <nd ref="921928466"/>
    <nd ref="921929596"/>
    <nd ref="921929351"/>
    <nd ref="921929012"/>
    <nd ref="921928864"/>
    <nd ref="921928661"/>
    <tag k="building" v="yes"/>
  </way>
  <way id="78578300" version="1" timestamp="2010-09-22T21:31:15Z" uid="49111" user="Markus B" changeset="5849507">
    <nd ref="921929029"/>
    <nd ref="921929100"/>
    <nd ref="921928844"/>
    <nd ref="921928645"/>
    <nd ref="921928445"/>
    <nd ref="921929029"/>
    <tag k="building" v="yes"/>
  </way>
  <way id="78578301" version="1" timestamp="2010-09-22T21:31:15Z" uid="49111" user="Markus B" changeset="5849507">
    <nd ref="921928462"/>
    <nd ref="289678516"/>
  </way>
  <way id="78578301" version="2" timestamp="2010-11-26T12:10:39Z" uid="8296" user="kuede" changeset="6461520">
    <nd ref="921928462"/>
    <nd ref="289678516"/>
    <tag k="highway" v="road"/>
  </way>
  <way id="78578301" version="3" timestamp="2011-07-24T00:48:13Z" uid="449569" user="Nautic" changeset="8811297">
    <nd ref="921928462"/>
    <nd ref="289678516"/>
    <tag k="highway" v="track"/>
    <tag k="tracktype" v="grade2"/>
  </way>
  <way id="78578303" version="1" timestamp="2010-09-22T21:31:16Z" uid="49111" user="Markus B" changeset="5849507">
    <nd ref="921929269"/>
    <nd ref="921929475"/>
    <nd ref="921929075"/>
    <nd ref="921928936"/>
    <nd ref="921928628"/>
    <nd ref="921929269"/>
    <tag k="addr:city" v="Bachs"/>
    <tag k="addr:country" v="CH"/>
    <tag k="addr:housenumber" v="4"/>
    <tag k="addr:postcode" v="8164"/>
    <tag k="addr:street" v="Bachsertal-Strasse"/>
    <tag k="building" v="yes"/>
  </way>
  <way id="78578303" version="2" timestamp="2012-01-13T00:02:18Z" uid="178186" user="mdk" changeset="10374865">
    <nd ref="921929269"/>
    <nd ref="921929475"/>
    <nd ref="921929075"/>
    <nd ref="921928936"/>
    <nd ref="921928628"/>
    <nd ref="921929269"/>
    <tag k="addr:city" v="Bachs"/>
    <tag k="addr:country" v="CH"/>
    <tag k="addr:housenumber" v="4"/>
    <tag k="addr:postcode" v="8164"/>
    <tag k="addr:street" v="Bachsertalstrasse"/>
    <tag k="building" v="yes"/>
  </way>
  <way id="78578304" version="1" timestamp="2010-09-22T21:31:16Z" uid="49111" user="Markus B" changeset="5849507">
    <nd ref="921929459"/>
    <nd ref="921928891"/>
    <nd ref="921928586"/>
    <nd ref="921928406"/>
    <nd ref="921929459"/>
    <tag k="building" v="yes"/>
  </way>
  <way id="78578306" version="1" timestamp="2010-09-22T21:31:16Z" uid="49111" user="Markus B" changeset="5849507">
    <nd ref="921928687"/>
    <nd ref="921929622"/>
    <nd ref="921929233"/>
    <nd ref="921928807"/>
    <nd ref="921928487"/>
    <nd ref="921929067"/>
    <nd ref="921928800"/>
    <nd ref="921928362"/>
    <nd ref="921928687"/>
    <tag k="addr:city" v="Bachs"/>
    <tag k="addr:country" v="CH"/>
    <tag k="addr:housenumber" v="20"/>
    <tag k="addr:postcode" v="8164"/>
    <tag k="addr:street" v="Bachsertal-Strasse"/>
    <tag k="building" v="yes"/>
  </way>
  <way id="78578306" version="2" timestamp="2012-01-13T00:02:15Z" uid="178186" user="mdk" changeset="10374865">
    <nd ref="921928687"/>
    <nd ref="921929622"/>
    <nd ref="921929233"/>
    <nd ref="921928807"/>
    <nd ref="921928487"/>
    <nd ref="921929067"/>
    <nd ref="921928800"/>
    <nd ref="921928362"/>
    <nd ref="921928687"/>
    <tag k="addr:city" v="Bachs"/>
    <tag k="addr:country" v="CH"/>
    <tag k="addr:housenumber" v="20"/>
    <tag k="addr:postcode" v="8164"/>
    <tag k="addr:street" v="Bachsertalstrasse"/>
    <tag k="building" v="yes"/>
  </way>
  <way id="78578307" version="1" timestamp="2010-09-22T21:31:17Z" uid="49111" user="Markus B" changeset="5849507">
    <nd ref="921928997"/>
    <nd ref="921929624"/>
    <nd ref="921929398"/>
    <nd ref="921929540"/>
    <nd ref="921928997"/>
    <tag k="building" v="yes"/>
  </way>
  <way id="78578311" version="1" timestamp="2010-09-22T21:31:17Z" uid="49111" user="Markus B" changeset="5849507">
    <nd ref="921928345"/>
    <nd ref="921928668"/>
    <nd ref="921928387"/>
    <nd ref="921928776"/>
    <nd ref="921928345"/>
    <tag k="addr:city" v="Bachs"/>
    <tag k="addr:country" v="CH"/>
    <tag k="addr:housenumber" v="26"/>
    <tag k="addr:postcode" v="8164"/>
    <tag k="addr:street" v="Bachsertal-Strasse"/>
    <tag k="building" v="yes"/>
  </way>
  <way id="78578311" version="2" timestamp="2012-01-13T00:02:15Z" uid="178186" user="mdk" changeset="10374865">
    <nd ref="921928345"/>
    <nd ref="921928668"/>
    <nd ref="921928387"/>
    <nd ref="921928776"/>
    <nd ref="921928345"/>
    <tag k="addr:city" v="Bachs"/>
    <tag k="addr:country" v="CH"/>
    <tag k="addr:housenumber" v="26"/>
    <tag k="addr:postcode" v="8164"/>
    <tag k="addr:street" v="Bachsertalstrasse"/>
    <tag k="building" v="yes"/>
  </way>
  <way id="78578312" version="1" timestamp="2010-09-22T21:31:17Z" uid="49111" user="Markus B" changeset="5849507">
    <nd ref="921929636"/>
    <nd ref="921928665"/>
    <nd ref="921928383"/>
    <nd ref="921929282"/>
    <nd ref="921929636"/>
    <tag k="building" v="yes"/>
  </way>
  <way id="78578314" version="1" timestamp="2010-09-22T21:31:18Z" uid="49111" user="Markus B" changeset="5849507">
    <nd ref="921928565"/>
    <nd ref="921929434"/>
    <nd ref="921929057"/>
    <nd ref="921928921"/>
    <nd ref="921928610"/>
    <nd ref="921929610"/>
    <nd ref="921929219"/>
    <nd ref="921928880"/>
    <nd ref="921928572"/>
    <nd ref="921929567"/>
    <nd ref="921928565"/>
    <tag k="building" v="yes"/>
  </way>
  <way id="78578315" version="1" timestamp="2010-09-22T21:31:18Z" uid="49111" user="Markus B" changeset="5849507">
    <nd ref="921928670"/>
    <nd ref="921929611"/>
    <nd ref="921929372"/>
    <nd ref="921929023"/>
    <nd ref="921928670"/>
  </way>
  <way id="78578315" version="2" timestamp="2010-09-22T21:57:34Z" uid="49111" user="Markus B" changeset="5849760">
    <nd ref="921928670"/>
    <nd ref="921929611"/>
    <nd ref="921929372"/>
    <nd ref="921929023"/>
    <nd ref="921928670"/>
    <tag k="addr:city" v="Bachs"/>
    <tag k="addr:country" v="CH"/>
    <tag k="addr:housenumber" v="5"/>
    <tag k="addr:postcode" v="8164"/>
    <tag k="addr:street" v="Pünt-Strasse"/>
    <tag k="building" v="yes"/>
  </way>
  <way id="78578315" version="3" timestamp="2011-09-03T23:35:19Z" uid="90689" user="HansJ" changeset="9204691">
    <nd ref="921928670"/>
    <nd ref="921929611"/>
    <nd ref="921929372"/>
    <nd ref="921929023"/>
    <nd ref="921928670"/>
    <tag k="addr:city" v="Bachs"/>
    <tag k="addr:country" v="CH"/>
    <tag k="addr:housenumber" v="5"/>
    <tag k="addr:postcode" v="8164"/>
    <tag k="addr:street" v="Püntstrasse"/>
    <tag k="building" v="yes"/>
  </way>
  <way id="78578317" version="1" timestamp="2010-09-22T21:31:18Z" uid="49111" user="Markus B" changeset="5849507">
    <nd ref="921928858"/>
    <nd ref="921929191"/>
    <nd ref="921928901"/>
    <nd ref="921929483"/>
    <nd ref="921928458"/>
    <nd ref="921929592"/>
    <nd ref="921929337"/>
    <nd ref="921928502"/>
    <nd ref="921928858"/>
    <tag k="building" v="yes"/>
  </way>
  <way id="78578318" version="1" timestamp="2010-09-22T21:31:18Z" uid="49111" user="Markus B" changeset="5849507">
    <nd ref="921928616"/>
    <nd ref="921929352"/>
    <nd ref="921929015"/>
    <nd ref="921928602"/>
    <nd ref="921928616"/>
    <tag k="building" v="yes"/>
  </way>
  <way id="78578318" version="2" timestamp="2010-09-22T21:57:36Z" uid="49111" user="Markus B" changeset="5849760">
    <nd ref="921928616"/>
    <nd ref="921929352"/>
    <nd ref="921929015"/>
    <nd ref="921928602"/>
    <nd ref="921928616"/>
    <tag k="addr:city" v="Bachs"/>
    <tag k="addr:country" v="CH"/>
    <tag k="addr:housenumber" v="17"/>
    <tag k="addr:postcode" v="8164"/>
    <tag k="addr:street" v="Dorfwiesen"/>
    <tag k="building" v="yes"/>
    <tag k="name" v="Köchli Reisen"/>
  </way>
  <way id="78578318" version="3" timestamp="2010-09-23T09:22:00Z" uid="49111" user="Markus B" changeset="5852421">
    <nd ref="921928616"/>
    <nd ref="921929352"/>
    <nd ref="921929015"/>
    <nd ref="921928602"/>
    <nd ref="921928616"/>
    <tag k="addr:city" v="Bachs"/>
    <tag k="addr:country" v="CH"/>
    <tag k="addr:housenumber" v="17"/>
    <tag k="addr:postcode" v="8164"/>
    <tag k="addr:street" v="Dorfwiesen"/>
    <tag k="building" v="yes"/>
  </way>
  <way id="78578320" version="1" timestamp="2010-09-22T21:31:18Z" uid="49111" user="Markus B" changeset="5849507">
    <nd ref="441675257"/>
    <nd ref="921928648"/>
    <nd ref="921928364"/>
    <nd ref="921929259"/>
    <tag k="highway" v="service"/>
  </way>
  <way id="78578320" version="2" timestamp="2010-10-04T20:18:50Z" uid="49111" user="Markus B" changeset="5957026">
    <nd ref="937953355"/>
    <nd ref="937953341"/>
    <nd ref="937953351"/>
    <nd ref="937953348"/>
    <nd ref="937953342"/>
    <nd ref="937953355"/>
    <tag k="amenity" v="parking"/>
    <tag k="parking" v="surface"/>
  </way>
  <way id="78578321" version="1" timestamp="2010-09-22T21:31:19Z" uid="49111" user="Markus B" changeset="5849507">
    <nd ref="921929790"/>
    <nd ref="921928833"/>
    <nd ref="921928386"/>
    <nd ref="921929512"/>
    <nd ref="921929251"/>
    <nd ref="921928952"/>
    <nd ref="921928529"/>
    <nd ref="921929790"/>
    <tag k="building" v="yes"/>
  </way>
  <way id="78578322" version="1" timestamp="2010-09-22T21:31:19Z" uid="49111" user="Markus B" changeset="5849507">
    <nd ref="921929767"/>
    <nd ref="921928379"/>
    <nd ref="921929500"/>
    <nd ref="921928476"/>
    <nd ref="921929767"/>
    <tag k="building" v="yes"/>
  </way>
  <way id="78578322" version="2" timestamp="2012-01-13T00:03:57Z" uid="178186" user="mdk" changeset="10374865">
    <nd ref="921929767"/>
    <nd ref="921928379"/>
    <nd ref="921929500"/>
    <nd ref="921928476"/>
    <nd ref="921929767"/>
    <tag k="building" v="yes"/>
  </way>
  <way id="78578324" version="1" timestamp="2010-09-22T21:31:19Z" uid="49111" user="Markus B" changeset="5849507">
    <nd ref="921928957"/>
    <nd ref="921929026"/>
    <nd ref="921928727"/>
    <nd ref="921929107"/>
    <nd ref="921928584"/>
    <nd ref="921929728"/>
    <nd ref="921929163"/>
    <nd ref="921928957"/>
    <tag k="building" v="yes"/>
  </way>
  <way id="78578325" version="1" timestamp="2010-09-22T21:31:20Z" uid="49111" user="Markus B" changeset="5849507">
    <nd ref="921929074"/>
    <nd ref="921929543"/>
    <nd ref="921929323"/>
    <nd ref="921928897"/>
    <nd ref="921928591"/>
    <nd ref="921929074"/>
  </way>
  <way id="78578325" version="2" timestamp="2010-09-22T21:57:39Z" uid="49111" user="Markus B" changeset="5849760">
    <nd ref="921929074"/>
    <nd ref="921929543"/>
    <nd ref="921929323"/>
    <nd ref="921928897"/>
    <nd ref="921928591"/>
    <nd ref="921929074"/>
    <tag k="addr:city" v="Bachs"/>
    <tag k="addr:country" v="CH"/>
    <tag k="addr:housenumber" v="7"/>
    <tag k="addr:postcode" v="8164"/>
    <tag k="addr:street" v="Pünt-Strasse"/>
    <tag k="building" v="yes"/>
  </way>
  <way id="78578325" version="3" timestamp="2011-09-03T23:35:21Z" uid="90689" user="HansJ" changeset="9204691">
    <nd ref="921929074"/>
    <nd ref="921929543"/>
    <nd ref="921929323"/>
    <nd ref="921928897"/>
    <nd ref="921928591"/>
    <nd ref="921929074"/>
    <tag k="addr:city" v="Bachs"/>
    <tag k="addr:country" v="CH"/>
    <tag k="addr:housenumber" v="7"/>
    <tag k="addr:postcode" v="8164"/>
    <tag k="addr:street" v="Püntstrasse"/>
    <tag k="building" v="yes"/>
  </way>
  <way id="78578326" version="1" timestamp="2010-09-22T21:31:20Z" uid="49111" user="Markus B" changeset="5849507">
    <nd ref="301364608"/>
    <nd ref="921928663"/>
    <nd ref="921928942"/>
    <nd ref="921928865"/>
    <nd ref="921928509"/>
    <nd ref="921929125"/>
    <nd ref="921929690"/>
    <nd ref="921929635"/>
    <nd ref="301182865"/>
  </way>
  <way id="78578326" version="2" timestamp="2010-11-26T12:10:22Z" uid="8296" user="kuede" changeset="6461520">
    <nd ref="301364608"/>
    <nd ref="921928663"/>
    <nd ref="921928942"/>
    <nd ref="921928865"/>
    <nd ref="921928509"/>
    <nd ref="921929125"/>
    <nd ref="921929690"/>
    <nd ref="921929635"/>
    <nd ref="301182865"/>
    <tag k="highway" v="road"/>
  </way>
  <way id="78578326" version="3" timestamp="2011-07-24T00:48:15Z" uid="449569" user="Nautic" changeset="8811297">
    <nd ref="301364608"/>
    <nd ref="921928663"/>
    <nd ref="921928942"/>
    <nd ref="921928865"/>
    <nd ref="921928509"/>
    <nd ref="921929125"/>
    <nd ref="921929690"/>
    <nd ref="921929635"/>
    <nd ref="301182865"/>
    <tag k="highway" v="track"/>
    <tag k="tracktype" v="grade2"/>
  </way>
  <way id="78578328" version="1" timestamp="2010-09-22T21:31:20Z" uid="49111" user="Markus B" changeset="5849507">
    <nd ref="921929179"/>
    <nd ref="921929326"/>
    <nd ref="921929002"/>
    <nd ref="921928862"/>
    <nd ref="921928553"/>
    <nd ref="921929547"/>
    <nd ref="921929116"/>
    <nd ref="921929642"/>
    <nd ref="921929179"/>
    <tag k="building" v="yes"/>
  </way>
  <way id="78578329" version="1" timestamp="2010-09-22T21:31:20Z" uid="49111" user="Markus B" changeset="5849507">
    <nd ref="921928934"/>
    <nd ref="921929115"/>
    <nd ref="921928692"/>
    <nd ref="921928415"/>
    <nd ref="921929686"/>
    <nd ref="921929275"/>
    <nd ref="921928861"/>
    <nd ref="921928552"/>
    <nd ref="921928934"/>
    <tag k="building" v="yes"/>
  </way>
  <way id="78578332" version="1" timestamp="2010-09-22T21:31:21Z" uid="49111" user="Markus B" changeset="5849507">
    <nd ref="921929553"/>
    <nd ref="921928344"/>
    <nd ref="921928545"/>
    <nd ref="921929678"/>
    <nd ref="921929109"/>
    <nd ref="921929751"/>
    <nd ref="921928853"/>
    <nd ref="921929553"/>
    <tag k="addr:city" v="Bachs"/>
    <tag k="addr:country" v="CH"/>
    <tag k="addr:housenumber" v="7"/>
    <tag k="addr:postcode" v="8164"/>
    <tag k="addr:street" v="Widem-Strasse"/>
    <tag k="building" v="yes"/>
  </way>
  <way id="78578335" version="1" timestamp="2010-09-22T21:31:21Z" uid="49111" user="Markus B" changeset="5849507">
    <nd ref="921928697"/>
    <nd ref="921928911"/>
    <nd ref="921928342"/>
    <nd ref="921929426"/>
    <nd ref="921929206"/>
    <nd ref="921928911"/>
    <tag k="building" v="yes"/>
  </way>
  <way id="78578335" version="2" timestamp="2010-09-22T21:57:38Z" uid="49111" user="Markus B" changeset="5849760">
    <nd ref="921928697"/>
    <nd ref="921928911"/>
    <nd ref="921928342"/>
    <nd ref="921929426"/>
    <nd ref="921929206"/>
    <nd ref="921928911"/>
    <tag k="addr:city" v="Bachs"/>
    <tag k="addr:country" v="CH"/>
    <tag k="addr:housenumber" v="3"/>
    <tag k="addr:postcode" v="8164"/>
    <tag k="addr:street" v="Dorfwiesen"/>
    <tag k="building" v="yes"/>
  </way>
  <way id="78578335" version="3" timestamp="2010-09-25T13:00:22Z" uid="52921" user="t-i" changeset="5870645">
    <nd ref="921928911"/>
    <nd ref="921928342"/>
    <nd ref="921929426"/>
    <nd ref="921929206"/>
    <nd ref="921928911"/>
    <tag k="addr:city" v="Bachs"/>
    <tag k="addr:country" v="CH"/>
    <tag k="addr:housenumber" v="3"/>
    <tag k="addr:postcode" v="8164"/>
    <tag k="addr:street" v="Dorfwiesen"/>
    <tag k="building" v="yes"/>
  </way>
  <way id="78578336" version="1" timestamp="2010-09-22T21:31:21Z" uid="49111" user="Markus B" changeset="5849507">
    <nd ref="921929542"/>
    <nd ref="921928459"/>
    <nd ref="921929593"/>
    <nd ref="921929041"/>
    <nd ref="921929542"/>
    <tag k="building" v="yes"/>
  </way>
  <way id="78578337" version="1" timestamp="2010-09-22T21:31:21Z" uid="49111" user="Markus B" changeset="5849507">
    <nd ref="921929494"/>
    <nd ref="921928904"/>
    <nd ref="921928463"/>
    <nd ref="921929595"/>
    <nd ref="921929339"/>
    <nd ref="921929007"/>
    <nd ref="921929494"/>
    <tag k="building" v="yes"/>
  </way>
  <way id="78578339" version="1" timestamp="2010-09-22T21:31:22Z" uid="49111" user="Markus B" changeset="5849507">
    <nd ref="921929250"/>
    <nd ref="921928714"/>
    <nd ref="921929789"/>
    <nd ref="921929357"/>
    <nd ref="921929144"/>
    <nd ref="921928878"/>
    <nd ref="921928431"/>
    <nd ref="921929564"/>
    <nd ref="921929250"/>
    <tag k="building" v="yes"/>
  </way>
  <way id="78578339" version="2" timestamp="2010-09-22T21:57:37Z" uid="49111" user="Markus B" changeset="5849760">
    <nd ref="921929250"/>
    <nd ref="921928714"/>
    <nd ref="921929789"/>
    <nd ref="921929357"/>
    <nd ref="921929144"/>
    <nd ref="921928878"/>
    <nd ref="921928431"/>
    <nd ref="921929564"/>
    <nd ref="921929250"/>
    <tag k="addr:city" v="Bachs"/>
    <tag k="addr:country" v="CH"/>
    <tag k="addr:housenumber" v="7"/>
    <tag k="addr:postcode" v="8164"/>
    <tag k="addr:street" v="Brunnwise-Strasse"/>
    <tag k="building" v="yes"/>
  </way>
  <way id="78578339" version="3" timestamp="2011-09-03T23:35:20Z" uid="90689" user="HansJ" changeset="9204691">
    <nd ref="921929250"/>
    <nd ref="921928714"/>
    <nd ref="921929789"/>
    <nd ref="921929357"/>
    <nd ref="921929144"/>
    <nd ref="921928878"/>
    <nd ref="921928431"/>
    <nd ref="921929564"/>
    <nd ref="921929250"/>
    <tag k="addr:city" v="Bachs"/>
    <tag k="addr:country" v="CH"/>
    <tag k="addr:housenumber" v="7"/>
    <tag k="addr:postcode" v="8164"/>
    <tag k="addr:street" v="Brunnwisestrasse"/>
    <tag k="building" v="yes"/>
  </way>
  <way id="78578340" version="1" timestamp="2010-09-22T21:31:22Z" uid="49111" user="Markus B" changeset="5849507">
    <nd ref="921929448"/>
    <nd ref="921928884"/>
    <nd ref="921928438"/>
    <nd ref="921929573"/>
    <nd ref="921929301"/>
    <nd ref="921928987"/>
    <nd ref="921928576"/>
    <nd ref="921929708"/>
    <nd ref="921929528"/>
    <nd ref="921929102"/>
    <nd ref="921929448"/>
    <tag k="building" v="yes"/>
  </way>
  <way id="78578342" version="1" timestamp="2010-09-22T21:31:23Z" uid="49111" user="Markus B" changeset="5849507">
    <nd ref="921929650"/>
    <nd ref="921928436"/>
    <nd ref="921929706"/>
    <nd ref="921929296"/>
    <nd ref="921928882"/>
    <nd ref="921928574"/>
    <nd ref="921929650"/>
    <tag k="building" v="yes"/>
  </way>
  <way id="78578343" version="1" timestamp="2010-09-22T21:31:23Z" uid="49111" user="Markus B" changeset="5849507">
    <nd ref="921929637"/>
    <nd ref="921929756"/>
    <nd ref="921929343"/>
    <nd ref="921929126"/>
    <nd ref="921928869"/>
    <nd ref="921928421"/>
    <nd ref="921929637"/>
    <tag k="building" v="yes"/>
  </way>
  <way id="78578343" version="2" timestamp="2010-09-22T21:57:31Z" uid="49111" user="Markus B" changeset="5849760">
    <nd ref="921929637"/>
    <nd ref="921929756"/>
    <nd ref="921929343"/>
    <nd ref="921929126"/>
    <nd ref="921928869"/>
    <nd ref="921928421"/>
    <nd ref="921929637"/>
    <tag k="addr:city" v="Bachs"/>
    <tag k="addr:country" v="CH"/>
    <tag k="addr:housenumber" v="4"/>
    <tag k="addr:postcode" v="8164"/>
    <tag k="addr:street" v="Dorf-Strasse"/>
    <tag k="building" v="yes"/>
  </way>
  <way id="78578343" version="3" timestamp="2011-09-03T23:35:17Z" uid="90689" user="HansJ" changeset="9204691">
    <nd ref="921929637"/>
    <nd ref="921929756"/>
    <nd ref="921929343"/>
    <nd ref="921929126"/>
    <nd ref="921928869"/>
    <nd ref="921928421"/>
    <nd ref="921929637"/>
    <tag k="addr:city" v="Bachs"/>
    <tag k="addr:country" v="CH"/>
    <tag k="addr:housenumber" v="4"/>
    <tag k="addr:postcode" v="8164"/>
    <tag k="addr:street" v="Dorfstrasse"/>
    <tag k="building" v="yes"/>
  </way>
  <way id="78578345" version="1" timestamp="2010-09-22T21:31:23Z" uid="49111" user="Markus B" changeset="5849507">
    <nd ref="921928644"/>
    <nd ref="921928361"/>
    <tag k="bridge" v="yes"/>
    <tag k="highway" v="track"/>
    <tag k="tracktype" v="grade2"/>
  </way>
  <way id="78578345" version="2" timestamp="2010-11-26T12:10:43Z" uid="8296" user="kuede" changeset="6461520">
    <nd ref="921928644"/>
    <nd ref="921928361"/>
    <tag k="bridge" v="yes"/>
    <tag k="highway" v="track"/>
    <tag k="layer" v="1"/>
    <tag k="tracktype" v="grade2"/>
  </way>
  <way id="78578346" version="1" timestamp="2010-09-22T21:31:23Z" uid="49111" user="Markus B" changeset="5849507">
    <nd ref="921929244"/>
    <nd ref="921928698"/>
    <nd ref="921928419"/>
    <nd ref="921929340"/>
    <nd ref="921929008"/>
    <nd ref="921928868"/>
    <nd ref="921929244"/>
    <tag k="building" v="yes"/>
  </way>
  <way id="78578347" version="1" timestamp="2010-09-22T21:31:24Z" uid="49111" user="Markus B" changeset="5849507">
    <nd ref="302655845"/>
    <nd ref="921928927"/>
  </way>
  <way id="78578347" version="2" timestamp="2010-11-26T12:10:37Z" uid="8296" user="kuede" changeset="6461520">
    <nd ref="302655845"/>
    <nd ref="921928927"/>
    <tag k="highway" v="track"/>
    <tag k="tracktype" v="grade2"/>
  </way>
  <way id="78578350" version="1" timestamp="2010-09-22T21:31:24Z" uid="49111" user="Markus B" changeset="5849507">
    <nd ref="921928853"/>
    <nd ref="921929590"/>
    <nd ref="921929188"/>
    <nd ref="921928737"/>
    <nd ref="921928456"/>
    <nd ref="921929751"/>
    <nd ref="921928853"/>
    <tag k="addr:city" v="Bachs"/>
    <tag k="addr:country" v="CH"/>
    <tag k="addr:housenumber" v="5"/>
    <tag k="addr:postcode" v="8164"/>
    <tag k="addr:street" v="Widem-Strasse"/>
    <tag k="building" v="yes"/>
  </way>
  <way id="78578351" version="1" timestamp="2010-09-22T21:31:24Z" uid="49111" user="Markus B" changeset="5849507">
    <nd ref="921929788"/>
    <nd ref="921928527"/>
    <nd ref="921929510"/>
    <nd ref="921929089"/>
    <nd ref="921928951"/>
    <nd ref="921928638"/>
    <nd ref="921929788"/>
    <tag k="building" v="yes"/>
  </way>
  <way id="78578352" version="1" timestamp="2010-09-22T21:31:25Z" uid="49111" user="Markus B" changeset="5849507">
    <nd ref="921928530"/>
    <nd ref="921929359"/>
    <nd ref="921928916"/>
    <nd ref="921928606"/>
    <nd ref="921928530"/>
    <tag k="addr:city" v="Bachs"/>
    <tag k="addr:country" v="CH"/>
    <tag k="addr:housenumber" v="35"/>
    <tag k="addr:postcode" v="8164"/>
    <tag k="addr:street" v="Bachsertal-Strasse"/>
    <tag k="building" v="yes"/>
  </way>
  <way id="78578352" version="2" timestamp="2012-01-13T00:02:17Z" uid="178186" user="mdk" changeset="10374865">
    <nd ref="921928530"/>
    <nd ref="921929359"/>
    <nd ref="921928916"/>
    <nd ref="921928606"/>
    <nd ref="921928530"/>
    <tag k="addr:city" v="Bachs"/>
    <tag k="addr:country" v="CH"/>
    <tag k="addr:housenumber" v="35"/>
    <tag k="addr:postcode" v="8164"/>
    <tag k="addr:street" v="Bachsertalstrasse"/>
    <tag k="building" v="yes"/>
  </way>
  <way id="78578353" version="1" timestamp="2010-09-22T21:31:25Z" uid="49111" user="Markus B" changeset="5849507">
    <nd ref="921928825"/>
    <nd ref="921928906"/>
    <nd ref="921928598"/>
    <nd ref="921928423"/>
    <nd ref="921929554"/>
    <nd ref="921929010"/>
    <nd ref="921928825"/>
    <tag k="building" v="yes"/>
  </way>
  <way id="78578353" version="2" timestamp="2010-09-22T21:57:38Z" uid="49111" user="Markus B" changeset="5849760">
    <nd ref="921928825"/>
    <nd ref="921928906"/>
    <nd ref="921928598"/>
    <nd ref="921928423"/>
    <nd ref="921929554"/>
    <nd ref="921929010"/>
    <nd ref="921928825"/>
    <tag k="addr:city" v="Bachs"/>
    <tag k="addr:country" v="CH"/>
    <tag k="addr:housenumber" v="6"/>
    <tag k="addr:postcode" v="8164"/>
    <tag k="addr:street" v="Bungert-Weg"/>
    <tag k="building" v="yes"/>
  </way>
  <way id="78578353" version="3" timestamp="2011-09-03T23:35:20Z" uid="90689" user="HansJ" changeset="9204691">
    <nd ref="921928825"/>
    <nd ref="921928906"/>
    <nd ref="921928598"/>
    <nd ref="921928423"/>
    <nd ref="921929554"/>
    <nd ref="921929010"/>
    <nd ref="921928825"/>
    <tag k="addr:city" v="Bachs"/>
    <tag k="addr:country" v="CH"/>
    <tag k="addr:housenumber" v="6"/>
    <tag k="addr:postcode" v="8164"/>
    <tag k="addr:street" v="Bungertweg"/>
    <tag k="building" v="yes"/>
  </way>
  <way id="78578354" version="1" timestamp="2010-09-22T21:31:25Z" uid="49111" user="Markus B" changeset="5849507">
    <nd ref="921928518"/>
    <nd ref="921929345"/>
    <nd ref="921929009"/>
    <nd ref="921928633"/>
    <nd ref="921928518"/>
    <tag k="building" v="yes"/>
  </way>
  <way id="78578355" version="1" timestamp="2010-09-22T21:31:25Z" uid="49111" user="Markus B" changeset="5849507">
    <nd ref="921929325"/>
    <nd ref="921928812"/>
    <nd ref="921928494"/>
    <nd ref="921929466"/>
    <nd ref="921929325"/>
  </way>
  <way id="78578355" version="2" timestamp="2010-09-23T09:22:02Z" uid="49111" user="Markus B" changeset="5852421">
    <nd ref="921929325"/>
    <nd ref="921928812"/>
    <nd ref="921928494"/>
    <nd ref="922416435"/>
    <nd ref="921929466"/>
    <nd ref="921929325"/>
    <tag k="building" v="yes"/>
  </way>
  <way id="78578357" version="1" timestamp="2010-09-22T21:31:26Z" uid="49111" user="Markus B" changeset="5849507">
    <nd ref="921928372"/>
    <nd ref="921929190"/>
    <nd ref="921929004"/>
    <nd ref="921928694"/>
    <nd ref="921928372"/>
    <tag k="building" v="yes"/>
  </way>
  <way id="78578358" version="1" timestamp="2010-09-22T21:31:26Z" uid="49111" user="Markus B" changeset="5849507">
    <nd ref="921929543"/>
    <nd ref="921929001"/>
    <nd ref="921928690"/>
    <nd ref="921928549"/>
    <nd ref="921929323"/>
    <nd ref="921929543"/>
  </way>
  <way id="78578358" version="2" timestamp="2010-11-26T12:10:23Z" uid="8296" user="kuede" changeset="6461520">
    <nd ref="921929543"/>
    <nd ref="921929001"/>
    <nd ref="921928690"/>
    <nd ref="921928549"/>
    <nd ref="921929323"/>
    <nd ref="921929543"/>
    <tag k="building" v="yes"/>
  </way>
  <way id="78578359" version="1" timestamp="2010-09-22T21:31:26Z" uid="49111" user="Markus B" changeset="5849507">
    <nd ref="921928490"/>
    <nd ref="921929318"/>
    <nd ref="921929112"/>
    <nd ref="921928859"/>
    <nd ref="921928490"/>
    <tag k="building" v="yes"/>
  </way>
  <way id="78578361" version="1" timestamp="2010-09-22T21:31:27Z" uid="49111" user="Markus B" changeset="5849507">
    <nd ref="301364604"/>
    <nd ref="921929616"/>
    <nd ref="921929103"/>
    <nd ref="921929383"/>
    <nd ref="921929032"/>
    <tag k="highway" v="track"/>
    <tag k="tracktype" v="grade2"/>
  </way>
  <way id="78578362" version="1" timestamp="2010-09-22T21:31:27Z" uid="49111" user="Markus B" changeset="5849507">
    <nd ref="921928914"/>
    <nd ref="921929090"/>
    <nd ref="921928666"/>
    <nd ref="921928384"/>
    <nd ref="921928914"/>
    <tag k="building" v="yes"/>
  </way>
  <way id="78578362" version="2" timestamp="2010-09-22T21:57:31Z" uid="49111" user="Markus B" changeset="5849760">
    <nd ref="921928914"/>
    <nd ref="921929090"/>
    <nd ref="921928666"/>
    <nd ref="921928384"/>
    <nd ref="921928914"/>
    <tag k="addr:city" v="Bachs"/>
    <tag k="addr:country" v="CH"/>
    <tag k="addr:housenumber" v="9"/>
    <tag k="addr:postcode" v="8164"/>
    <tag k="addr:street" v="Brunnwise-Strasse"/>
    <tag k="building" v="yes"/>
  </way>
  <way id="78578362" version="3" timestamp="2011-09-03T23:35:21Z" uid="90689" user="HansJ" changeset="9204691">
    <nd ref="921928914"/>
    <nd ref="921929090"/>
    <nd ref="921928666"/>
    <nd ref="921928384"/>
    <nd ref="921928914"/>
    <tag k="addr:city" v="Bachs"/>
    <tag k="addr:country" v="CH"/>
    <tag k="addr:housenumber" v="9"/>
    <tag k="addr:postcode" v="8164"/>
    <tag k="addr:street" v="Brunnwisestrasse"/>
    <tag k="building" v="yes"/>
  </way>
  <way id="78578363" version="1" timestamp="2010-09-22T21:31:27Z" uid="49111" user="Markus B" changeset="5849507">
    <nd ref="921929273"/>
    <nd ref="921928968"/>
    <tag k="highway" v="service"/>
  </way>
  <way id="78578366" version="1" timestamp="2010-09-22T21:31:27Z" uid="49111" user="Markus B" changeset="5849507">
    <nd ref="921928596"/>
    <nd ref="921929496"/>
    <nd ref="921928972"/>
    <nd ref="921928659"/>
    <nd ref="921928596"/>
    <tag k="building" v="yes"/>
  </way>
  <way id="78578369" version="1" timestamp="2010-09-22T21:31:27Z" uid="49111" user="Markus B" changeset="5849507">
    <nd ref="921929281"/>
    <nd ref="921929600"/>
    <nd ref="921928751"/>
    <nd ref="921928465"/>
    <nd ref="921929412"/>
    <nd ref="921929045"/>
    <nd ref="921929281"/>
    <tag k="building" v="yes"/>
  </way>
  <way id="78578369" version="2" timestamp="2010-09-22T21:57:38Z" uid="49111" user="Markus B" changeset="5849760">
    <nd ref="921929281"/>
    <nd ref="921929600"/>
    <nd ref="921928751"/>
    <nd ref="921928465"/>
    <nd ref="921929412"/>
    <nd ref="921929045"/>
    <nd ref="921929281"/>
    <tag k="addr:city" v="Bachs"/>
    <tag k="addr:country" v="CH"/>
    <tag k="addr:housenumber" v="2"/>
    <tag k="addr:postcode" v="8164"/>
    <tag k="addr:street" v="Dorf-Strasse"/>
    <tag k="building" v="yes"/>
  </way>
  <way id="78578369" version="3" timestamp="2011-09-03T23:35:10Z" uid="90689" user="HansJ" changeset="9204691">
    <nd ref="921929281"/>
    <nd ref="921929600"/>
    <nd ref="921928751"/>
    <nd ref="921928465"/>
    <nd ref="921929412"/>
    <nd ref="921929045"/>
    <nd ref="921929281"/>
    <tag k="addr:city" v="Bachs"/>
    <tag k="addr:country" v="CH"/>
    <tag k="addr:housenumber" v="2"/>
    <tag k="addr:postcode" v="8164"/>
    <tag k="addr:street" v="Dorfstrasse"/>
    <tag k="building" v="yes"/>
  </way>
  <way id="78578371" version="1" timestamp="2010-09-22T21:31:28Z" uid="49111" user="Markus B" changeset="5849507">
    <nd ref="921928420"/>
    <nd ref="921929243"/>
    <nd ref="921928944"/>
    <nd ref="921928515"/>
    <nd ref="921929636"/>
    <nd ref="921929282"/>
    <nd ref="921929430"/>
    <nd ref="921929051"/>
    <nd ref="921928632"/>
    <nd ref="921928420"/>
    <tag k="building" v="yes"/>
  </way>
  <way id="78578375" version="1" timestamp="2010-09-22T21:31:28Z" uid="49111" user="Markus B" changeset="5849507">
    <nd ref="921929066"/>
    <nd ref="301182884"/>
    <nd ref="301182886"/>
    <tag k="highway" v="tertiary"/>
    <tag k="name" v="Dorfstrasse"/>
  </way>
  <way id="78578375" version="2" timestamp="2010-11-12T00:17:07Z" uid="52921" user="t-i" changeset="6348076">
    <nd ref="921929066"/>
    <nd ref="301182884"/>
    <nd ref="301182886"/>
    <tag k="highway" v="unclassified"/>
    <tag k="name" v="Dorfstrasse"/>
  </way>
  <way id="78578375" version="3" timestamp="2011-08-10T21:18:27Z" uid="92387" user="SimonPoole" changeset="8980783">
    <nd ref="921929066"/>
    <nd ref="301182884"/>
    <nd ref="1394142078"/>
    <tag k="highway" v="unclassified"/>
    <tag k="name" v="Dorfstrasse"/>
  </way>
  <way id="78578376" version="1" timestamp="2010-09-22T21:31:28Z" uid="49111" user="Markus B" changeset="5849507">
    <nd ref="921928580"/>
    <nd ref="921928796"/>
    <nd ref="921929626"/>
    <nd ref="921929235"/>
    <nd ref="921928580"/>
    <tag k="building" v="yes"/>
  </way>
  <way id="78578380" version="1" timestamp="2010-09-22T21:31:29Z" uid="49111" user="Markus B" changeset="5849507">
    <nd ref="921928408"/>
    <nd ref="921929232"/>
    <nd ref="921929038"/>
    <nd ref="921928736"/>
    <nd ref="921928331"/>
    <nd ref="921929396"/>
    <nd ref="921929180"/>
    <nd ref="921928900"/>
    <nd ref="921928455"/>
    <nd ref="921929589"/>
    <nd ref="921928408"/>
    <tag k="building" v="yes"/>
  </way>
  <way id="78578381" version="1" timestamp="2010-09-22T21:31:29Z" uid="49111" user="Markus B" changeset="5849507">
    <nd ref="921928846"/>
    <nd ref="921929033"/>
    <nd ref="921928617"/>
    <nd ref="921928326"/>
    <nd ref="921928846"/>
    <tag k="building" v="yes"/>
  </way>
  <way id="78578381" version="2" timestamp="2012-02-26T23:06:49Z" uid="178186" user="mdk" changeset="10804378">
    <nd ref="1649652763"/>
    <nd ref="1649652780"/>
    <nd ref="921929033"/>
    <nd ref="921928617"/>
    <nd ref="921928326"/>
    <nd ref="1649652763"/>
    <tag k="building" v="yes"/>
  </way>
  <way id="78578383" version="1" timestamp="2010-09-22T21:31:29Z" uid="49111" user="Markus B" changeset="5849507">
    <nd ref="921928564"/>
    <nd ref="921928918"/>
    <nd ref="921928608"/>
    <nd ref="921929608"/>
    <nd ref="921928564"/>
    <tag k="building" v="yes"/>
  </way>
  <way id="78578385" version="1" timestamp="2010-09-22T21:31:29Z" uid="49111" user="Markus B" changeset="5849507">
    <nd ref="921928380"/>
    <nd ref="921929207"/>
    <nd ref="921928766"/>
    <nd ref="921928468"/>
    <nd ref="921928651"/>
    <nd ref="921928368"/>
    <nd ref="921928380"/>
  </way>
  <way id="78578385" version="2" timestamp="2010-11-26T12:10:25Z" uid="8296" user="kuede" changeset="6461520">
    <nd ref="921928380"/>
    <nd ref="921929207"/>
    <nd ref="921928766"/>
    <nd ref="921928468"/>
    <nd ref="921928651"/>
    <nd ref="921928368"/>
    <nd ref="921928380"/>
    <tag k="building" v="yes"/>
  </way>
  <way id="78578386" version="1" timestamp="2010-09-22T21:31:29Z" uid="49111" user="Markus B" changeset="5849507">
    <nd ref="921928365"/>
    <nd ref="921929176"/>
    <nd ref="921928731"/>
    <nd ref="921928452"/>
    <nd ref="921929732"/>
    <nd ref="921929316"/>
    <nd ref="921928896"/>
    <nd ref="921928590"/>
    <nd ref="921928365"/>
    <tag k="building" v="yes"/>
  </way>
  <way id="78578386" version="2" timestamp="2010-09-22T21:57:40Z" uid="49111" user="Markus B" changeset="5849760">
    <nd ref="921928365"/>
    <nd ref="921929176"/>
    <nd ref="921928731"/>
    <nd ref="921928452"/>
    <nd ref="921929732"/>
    <nd ref="921929316"/>
    <nd ref="921928896"/>
    <nd ref="921928590"/>
    <nd ref="921928365"/>
    <tag k="addr:city" v="Bachs"/>
    <tag k="addr:country" v="CH"/>
    <tag k="addr:housenumber" v="16"/>
    <tag k="addr:postcode" v="8164"/>
    <tag k="addr:street" v="Dorf-Strasse"/>
    <tag k="building" v="yes"/>
  </way>
  <way id="78578386" version="3" timestamp="2011-09-03T23:35:07Z" uid="90689" user="HansJ" changeset="9204691">
    <nd ref="921928365"/>
    <nd ref="921929176"/>
    <nd ref="921928731"/>
    <nd ref="921928452"/>
    <nd ref="921929732"/>
    <nd ref="921929316"/>
    <nd ref="921928896"/>
    <nd ref="921928590"/>
    <nd ref="921928365"/>
    <tag k="addr:city" v="Bachs"/>
    <tag k="addr:country" v="CH"/>
    <tag k="addr:housenumber" v="16"/>
    <tag k="addr:postcode" v="8164"/>
    <tag k="addr:street" v="Dorfstrasse"/>
    <tag k="building" v="yes"/>
  </way>
  <way id="78578387" version="1" timestamp="2010-09-22T21:31:30Z" uid="49111" user="Markus B" changeset="5849507">
    <nd ref="921928542"/>
    <nd ref="921928894"/>
    <nd ref="921928589"/>
    <nd ref="921929584"/>
    <nd ref="921928542"/>
    <tag k="building" v="yes"/>
  </way>
  <way id="78578388" version="1" timestamp="2010-09-22T21:31:30Z" uid="49111" user="Markus B" changeset="5849507">
    <nd ref="921929193"/>
    <nd ref="921929498"/>
    <nd ref="921929246"/>
    <nd ref="921928945"/>
    <nd ref="921928520"/>
    <nd ref="921929639"/>
    <nd ref="921929193"/>
    <tag k="building" v="yes"/>
  </way>
  <way id="78578390" version="1" timestamp="2010-09-22T21:31:31Z" uid="49111" user="Markus B" changeset="5849507">
    <nd ref="921928360"/>
    <nd ref="921929162"/>
    <nd ref="921928889"/>
    <nd ref="921928443"/>
    <nd ref="921929580"/>
    <nd ref="921929312"/>
    <nd ref="921928360"/>
    <tag k="addr:city" v="Bachs"/>
    <tag k="addr:country" v="CH"/>
    <tag k="addr:housenumber" v="26"/>
    <tag k="addr:postcode" v="8164"/>
    <tag k="addr:street" v="Mufler-Strasse"/>
    <tag k="building" v="yes"/>
  </way>
  <way id="78578390" version="2" timestamp="2011-09-03T23:35:12Z" uid="90689" user="HansJ" changeset="9204691">
    <nd ref="921928360"/>
    <nd ref="921929162"/>
    <nd ref="921928889"/>
    <nd ref="921928443"/>
    <nd ref="921929580"/>
    <nd ref="921929312"/>
    <nd ref="921928360"/>
    <tag k="addr:city" v="Bachs"/>
    <tag k="addr:country" v="CH"/>
    <tag k="addr:housenumber" v="26"/>
    <tag k="addr:postcode" v="8164"/>
    <tag k="addr:street" v="Muflerstrasse"/>
    <tag k="building" v="yes"/>
  </way>
  <way id="78578392" version="1" timestamp="2010-09-22T21:31:31Z" uid="49111" user="Markus B" changeset="5849507">
    <nd ref="921929011"/>
    <nd ref="921928522"/>
    <nd ref="921928346"/>
    <nd ref="921929433"/>
    <nd ref="921928946"/>
    <nd ref="921928634"/>
    <nd ref="921928473"/>
    <nd ref="921929606"/>
    <nd ref="921929054"/>
    <nd ref="921928778"/>
    <nd ref="921929011"/>
    <tag k="building" v="yes"/>
  </way>
  <way id="78578395" version="1" timestamp="2010-09-22T21:31:31Z" uid="49111" user="Markus B" changeset="5849507">
    <nd ref="921929289"/>
    <nd ref="921929612"/>
    <nd ref="921929059"/>
    <nd ref="921928784"/>
    <nd ref="921928612"/>
    <nd ref="921929814"/>
    <nd ref="921929220"/>
    <nd ref="921928923"/>
    <nd ref="921928722"/>
    <nd ref="921928440"/>
    <nd ref="921929374"/>
    <nd ref="921929024"/>
    <nd ref="921928887"/>
    <nd ref="921928579"/>
    <nd ref="921929575"/>
    <nd ref="921929160"/>
    <nd ref="921928990"/>
    <nd ref="921928679"/>
    <nd ref="921929711"/>
    <tag k="name" v="Hochrütibach"/>
    <tag k="waterway" v="stream"/>
  </way>
  <way id="78578395" version="2" timestamp="2010-09-22T21:57:34Z" uid="49111" user="Markus B" changeset="5849760">
    <nd ref="921929289"/>
    <nd ref="921929612"/>
    <nd ref="921929059"/>
    <nd ref="921928784"/>
    <nd ref="921928612"/>
    <nd ref="921929814"/>
    <nd ref="921929220"/>
    <tag k="name" v="Hochrütibach"/>
    <tag k="waterway" v="stream"/>
  </way>
  <way id="78578400" version="1" timestamp="2010-09-22T21:31:32Z" uid="49111" user="Markus B" changeset="5849507">
    <nd ref="921928495"/>
    <nd ref="921929044"/>
    <tag k="highway" v="track"/>
    <tag k="tracktype" v="grade2"/>
  </way>
  <way id="78578401" version="1" timestamp="2010-09-22T21:31:32Z" uid="49111" user="Markus B" changeset="5849507">
    <nd ref="921928337"/>
    <nd ref="921929118"/>
    <nd ref="921928864"/>
    <nd ref="921928661"/>
    <nd ref="921928337"/>
    <tag k="building" v="yes"/>
  </way>
  <way id="78578402" version="1" timestamp="2010-09-22T21:31:32Z" uid="49111" user="Markus B" changeset="5849507">
    <nd ref="921928621"/>
    <nd ref="921928852"/>
    <nd ref="921928407"/>
    <nd ref="921929536"/>
    <nd ref="921928505"/>
    <nd ref="921929633"/>
    <nd ref="921929082"/>
    <nd ref="921928817"/>
    <nd ref="921928621"/>
    <tag k="building" v="yes"/>
  </way>
  <way id="78578402" version="2" timestamp="2010-09-22T21:57:35Z" uid="49111" user="Markus B" changeset="5849760">
    <nd ref="921928621"/>
    <nd ref="921928852"/>
    <nd ref="921928407"/>
    <nd ref="921929536"/>
    <nd ref="921928505"/>
    <nd ref="921929633"/>
    <nd ref="921929082"/>
    <nd ref="921928817"/>
    <nd ref="921928621"/>
    <tag k="addr:city" v="Bachs"/>
    <tag k="addr:country" v="CH"/>
    <tag k="addr:housenumber" v="4"/>
    <tag k="addr:postcode" v="8164"/>
    <tag k="addr:street" v="Bungert-Weg"/>
    <tag k="building" v="yes"/>
  </way>
  <way id="78578402" version="3" timestamp="2011-09-03T23:35:16Z" uid="90689" user="HansJ" changeset="9204691">
    <nd ref="921928621"/>
    <nd ref="921928852"/>
    <nd ref="921928407"/>
    <nd ref="921929536"/>
    <nd ref="921928505"/>
    <nd ref="921929633"/>
    <nd ref="921929082"/>
    <nd ref="921928817"/>
    <nd ref="921928621"/>
    <tag k="addr:city" v="Bachs"/>
    <tag k="addr:country" v="CH"/>
    <tag k="addr:housenumber" v="4"/>
    <tag k="addr:postcode" v="8164"/>
    <tag k="addr:street" v="Bungertweg"/>
    <tag k="building" v="yes"/>
  </way>
  <way id="78578405" version="1" timestamp="2010-09-22T21:31:33Z" uid="49111" user="Markus B" changeset="5849507">
    <nd ref="921928627"/>
    <nd ref="921928971"/>
    <nd ref="921928657"/>
    <nd ref="921929687"/>
    <nd ref="921929276"/>
    <nd ref="921929085"/>
    <nd ref="921928822"/>
    <nd ref="921928377"/>
    <nd ref="921928627"/>
    <tag k="building" v="yes"/>
  </way>
  <way id="78578406" version="1" timestamp="2010-09-22T21:31:33Z" uid="49111" user="Markus B" changeset="5849507">
    <nd ref="921928975"/>
    <nd ref="921929776"/>
    <nd ref="921928469"/>
    <nd ref="921929601"/>
    <nd ref="921929050"/>
    <nd ref="921928768"/>
    <nd ref="921928603"/>
    <nd ref="921929776"/>
    <tag k="building" v="yes"/>
  </way>
  <way id="78578406" version="2" timestamp="2010-09-25T13:00:19Z" uid="52921" user="t-i" changeset="5870645">
    <nd ref="921928975"/>
    <nd ref="921928469"/>
    <nd ref="921929601"/>
    <nd ref="921929050"/>
    <nd ref="921928768"/>
    <nd ref="921928603"/>
    <nd ref="921928975"/>
    <tag k="building" v="yes"/>
  </way>
  <way id="78578406" version="3" timestamp="2012-01-13T00:03:57Z" uid="178186" user="mdk" changeset="10374865">
    <nd ref="921928975"/>
    <nd ref="921928469"/>
    <nd ref="921929601"/>
    <nd ref="1587759304"/>
    <nd ref="1587759308"/>
    <nd ref="1587759300"/>
    <nd ref="921929050"/>
    <nd ref="921928768"/>
    <nd ref="921928603"/>
    <nd ref="921928975"/>
    <tag k="building" v="yes"/>
  </way>
  <way id="78578407" version="1" timestamp="2010-09-22T21:31:34Z" uid="49111" user="Markus B" changeset="5849507">
    <nd ref="921237021"/>
    <nd ref="921928593"/>
    <nd ref="921929748"/>
    <nd ref="921929179"/>
    <nd ref="921929642"/>
    <nd ref="921928899"/>
    <nd ref="921928693"/>
    <nd ref="921236910"/>
    <nd ref="921237021"/>
    <tag k="building" v="yes"/>
  </way>
  <way id="78578408" version="1" timestamp="2010-09-22T21:31:34Z" uid="49111" user="Markus B" changeset="5849507">
    <nd ref="921929444"/>
    <nd ref="921928351"/>
    <nd ref="921928525"/>
    <nd ref="921928828"/>
    <nd ref="921929248"/>
    <nd ref="921929645"/>
    <nd ref="921928382"/>
    <nd ref="921928664"/>
    <nd ref="921929087"/>
    <nd ref="921929509"/>
    <nd ref="921929003"/>
    <nd ref="921929327"/>
    <nd ref="921928416"/>
    <tag k="name" v="Dorfbach"/>
    <tag k="waterway" v="stream"/>
  </way>
  <way id="78578411" version="1" timestamp="2010-09-22T21:31:35Z" uid="49111" user="Markus B" changeset="5849507">
    <nd ref="921928947"/>
    <nd ref="921928427"/>
    <nd ref="921929699"/>
    <nd ref="921929285"/>
    <nd ref="921928947"/>
    <tag k="building" v="yes"/>
  </way>
  <way id="78578412" version="1" timestamp="2010-09-22T21:31:35Z" uid="49111" user="Markus B" changeset="5849507">
    <nd ref="921929562"/>
    <nd ref="921928950"/>
    <nd ref="921928785"/>
    <nd ref="921928475"/>
    <nd ref="921929562"/>
    <tag k="building" v="yes"/>
  </way>
  <way id="78578414" version="1" timestamp="2010-09-22T21:31:35Z" uid="49111" user="Markus B" changeset="5849507">
    <nd ref="921928566"/>
    <nd ref="921928782"/>
    <nd ref="921928350"/>
    <nd ref="921929443"/>
    <nd ref="921928566"/>
    <tag k="building" v="yes"/>
  </way>
  <way id="78578416" version="1" timestamp="2010-09-22T21:31:35Z" uid="49111" user="Markus B" changeset="5849507">
    <nd ref="921928939"/>
    <nd ref="921928417"/>
    <nd ref="921929548"/>
    <nd ref="921929278"/>
    <nd ref="921928939"/>
    <tag k="building" v="yes"/>
  </way>
  <way id="78578417" version="1" timestamp="2010-09-22T21:31:35Z" uid="49111" user="Markus B" changeset="5849507">
    <nd ref="921928550"/>
    <nd ref="921928776"/>
    <nd ref="921928387"/>
    <nd ref="921928748"/>
    <nd ref="921928334"/>
    <nd ref="921929408"/>
    <nd ref="921928550"/>
    <tag k="addr:city" v="Bachs"/>
    <tag k="addr:country" v="CH"/>
    <tag k="addr:housenumber" v="28"/>
    <tag k="addr:postcode" v="8164"/>
    <tag k="addr:street" v="Bachsertal-Strasse"/>
    <tag k="building" v="yes"/>
  </way>
  <way id="78578417" version="2" timestamp="2012-01-13T00:02:16Z" uid="178186" user="mdk" changeset="10374865">
    <nd ref="921928550"/>
    <nd ref="921928776"/>
    <nd ref="921928387"/>
    <nd ref="921928748"/>
    <nd ref="921928334"/>
    <nd ref="921929408"/>
    <nd ref="921928550"/>
    <tag k="addr:city" v="Bachs"/>
    <tag k="addr:country" v="CH"/>
    <tag k="addr:housenumber" v="28"/>
    <tag k="addr:postcode" v="8164"/>
    <tag k="addr:street" v="Bachsertalstrasse"/>
    <tag k="building" v="yes"/>
  </way>
  <way id="78578422" version="1" timestamp="2010-09-22T21:31:36Z" uid="49111" user="Markus B" changeset="5849507">
    <nd ref="921929675"/>
    <nd ref="921929035"/>
    <nd ref="921928619"/>
    <nd ref="921928328"/>
    <nd ref="921929585"/>
    <nd ref="921929177"/>
    <nd ref="921929675"/>
    <tag k="building" v="yes"/>
  </way>
  <way id="78578423" version="1" timestamp="2010-09-22T21:31:36Z" uid="49111" user="Markus B" changeset="5849507">
    <nd ref="921928672"/>
    <nd ref="921928537"/>
    <nd ref="921928321"/>
    <nd ref="921929578"/>
    <nd ref="921929161"/>
    <nd ref="921928672"/>
    <tag k="building" v="yes"/>
    <tag k="name" v="Köchli Reisen"/>
  </way>
  <way id="78578423" version="2" timestamp="2010-09-22T21:57:32Z" uid="49111" user="Markus B" changeset="5849760">
    <nd ref="921928672"/>
    <nd ref="921928537"/>
    <nd ref="921928321"/>
    <nd ref="921929578"/>
    <nd ref="921929161"/>
    <nd ref="921928672"/>
    <tag k="addr:city" v="Bachs"/>
    <tag k="addr:country" v="CH"/>
    <tag k="addr:housenumber" v="12"/>
    <tag k="addr:postcode" v="8164"/>
    <tag k="addr:street" v="Dorf-Strasse"/>
    <tag k="building" v="yes"/>
    <tag k="name" v="Köchli Reisen"/>
  </way>
  <way id="78578423" version="3" timestamp="2010-09-22T22:08:12Z" uid="49111" user="Markus B" changeset="5849845">
    <nd ref="921928672"/>
    <nd ref="921928537"/>
    <nd ref="921928321"/>
    <nd ref="921929578"/>
    <nd ref="921929161"/>
    <nd ref="921928672"/>
    <tag k="addr:city" v="Bachs"/>
    <tag k="addr:country" v="CH"/>
    <tag k="addr:housenumber" v="12"/>
    <tag k="addr:postcode" v="8164"/>
    <tag k="addr:street" v="Dorf-Strasse"/>
    <tag k="building" v="yes"/>
    <tag k="name" v="Köchli Reisen"/>
  </way>
  <way id="78578423" version="4" timestamp="2010-09-23T08:48:58Z" uid="49111" user="Markus B" changeset="5852210">
    <nd ref="921928672"/>
    <nd ref="921928537"/>
    <nd ref="921928321"/>
    <nd ref="921929578"/>
    <nd ref="921929161"/>
    <nd ref="921928672"/>
    <tag k="addr:city" v="Bachs"/>
    <tag k="addr:country" v="CH"/>
    <tag k="addr:housenumber" v="12"/>
    <tag k="addr:postcode" v="8164"/>
    <tag k="addr:street" v="Dorf-Strasse"/>
    <tag k="building" v="yes"/>
  </way>
  <way id="78578423" version="5" timestamp="2011-09-03T23:35:05Z" uid="90689" user="HansJ" changeset="9204691">
    <nd ref="921928672"/>
    <nd ref="921928537"/>
    <nd ref="921928321"/>
    <nd ref="921929578"/>
    <nd ref="921929161"/>
    <nd ref="921928672"/>
    <tag k="addr:city" v="Bachs"/>
    <tag k="addr:country" v="CH"/>
    <tag k="addr:housenumber" v="12"/>
    <tag k="addr:postcode" v="8164"/>
    <tag k="addr:street" v="Dorfstrasse"/>
    <tag k="building" v="yes"/>
  </way>
  <way id="78578427" version="1" timestamp="2010-09-22T21:31:36Z" uid="49111" user="Markus B" changeset="5849507">
    <nd ref="921928820"/>
    <nd ref="921928467"/>
  </way>
  <way id="78578427" version="2" timestamp="2010-11-26T12:10:26Z" uid="8296" user="kuede" changeset="6461520">
    <nd ref="921928820"/>
    <nd ref="921928467"/>
    <tag k="highway" v="road"/>
  </way>
  <way id="78578427" version="3" timestamp="2012-01-04T19:18:38Z" uid="8296" user="kuede" changeset="10294261">
    <nd ref="921928820"/>
    <nd ref="921928467"/>
    <tag k="highway" v="track"/>
  </way>
  <way id="78578428" version="1" timestamp="2010-09-22T21:31:36Z" uid="49111" user="Markus B" changeset="5849507">
    <nd ref="921929264"/>
    <nd ref="921929741"/>
    <nd ref="921929072"/>
    <nd ref="921929667"/>
    <nd ref="921929314"/>
    <nd ref="921928808"/>
    <nd ref="921928895"/>
    <nd ref="921928732"/>
    <nd ref="921929264"/>
    <tag k="building" v="yes"/>
  </way>
  <way id="78578428" version="2" timestamp="2012-02-26T23:07:39Z" uid="178186" user="mdk" changeset="10804378"/>
  <way id="78578432" version="1" timestamp="2010-09-22T21:31:37Z" uid="49111" user="Markus B" changeset="5849507">
    <nd ref="921929634"/>
    <nd ref="921929006"/>
    <nd ref="921928697"/>
    <nd ref="921928558"/>
    <nd ref="921929634"/>
    <tag k="building" v="yes"/>
  </way>
  <way id="78578432" version="2" timestamp="2010-09-22T21:57:34Z" uid="49111" user="Markus B" changeset="5849760">
    <nd ref="921929634"/>
    <nd ref="921929006"/>
    <nd ref="921928697"/>
    <nd ref="921928558"/>
    <nd ref="921929634"/>
    <tag k="addr:city" v="Bachs"/>
    <tag k="addr:country" v="CH"/>
    <tag k="addr:housenumber" v="1"/>
    <tag k="addr:postcode" v="8164"/>
    <tag k="addr:street" v="Dorfwiesen"/>
    <tag k="building" v="yes"/>
  </way>
  <way id="78578433" version="1" timestamp="2010-09-22T21:31:37Z" uid="49111" user="Markus B" changeset="5849507">
    <nd ref="921928981"/>
    <nd ref="921928477"/>
    <nd ref="921929445"/>
    <nd ref="921929061"/>
    <nd ref="921928981"/>
    <tag k="building" v="yes"/>
  </way>
  <way id="78578434" version="1" timestamp="2010-09-22T21:31:37Z" uid="49111" user="Markus B" changeset="5849507">
    <nd ref="921929428"/>
    <nd ref="921928867"/>
    <nd ref="921928560"/>
    <nd ref="921928953"/>
    <nd ref="921929428"/>
    <tag k="building" v="yes"/>
  </way>
  <way id="78578438" version="1" timestamp="2010-09-22T21:31:37Z" uid="49111" user="Markus B" changeset="5849507">
    <nd ref="921928965"/>
    <nd ref="921928457"/>
    <nd ref="921929591"/>
    <nd ref="921929040"/>
    <nd ref="921928745"/>
    <nd ref="921928594"/>
    <nd ref="921928965"/>
    <tag k="building" v="yes"/>
  </way>
  <way id="78578438" version="2" timestamp="2010-09-22T21:57:38Z" uid="49111" user="Markus B" changeset="5849760">
    <nd ref="921928965"/>
    <nd ref="921928457"/>
    <nd ref="921929591"/>
    <nd ref="921929040"/>
    <nd ref="921928745"/>
    <nd ref="921928594"/>
    <nd ref="921928965"/>
    <tag k="addr:city" v="Bachs"/>
    <tag k="addr:country" v="CH"/>
    <tag k="addr:housenumber" v="17"/>
    <tag k="addr:postcode" v="8164"/>
    <tag k="addr:street" v="Pünt-Strasse"/>
    <tag k="building" v="yes"/>
  </way>
  <way id="78578438" version="3" timestamp="2011-09-03T23:35:08Z" uid="90689" user="HansJ" changeset="9204691">
    <nd ref="921928965"/>
    <nd ref="921928457"/>
    <nd ref="921929591"/>
    <nd ref="921929040"/>
    <nd ref="921928745"/>
    <nd ref="921928594"/>
    <nd ref="921928965"/>
    <tag k="addr:city" v="Bachs"/>
    <tag k="addr:country" v="CH"/>
    <tag k="addr:housenumber" v="17"/>
    <tag k="addr:postcode" v="8164"/>
    <tag k="addr:street" v="Püntstrasse"/>
    <tag k="building" v="yes"/>
  </way>
  <way id="78578440" version="1" timestamp="2010-09-22T21:31:37Z" uid="49111" user="Markus B" changeset="5849507">
    <nd ref="921928571"/>
    <nd ref="921929703"/>
    <nd ref="921929147"/>
    <nd ref="921928879"/>
    <nd ref="921928842"/>
    <nd ref="921928675"/>
    <nd ref="921928394"/>
    <tag k="name" v="Hochrütibach"/>
    <tag k="waterway" v="stream"/>
  </way>
  <way id="78578442" version="1" timestamp="2010-09-22T21:31:38Z" uid="49111" user="Markus B" changeset="5849507">
    <nd ref="921928461"/>
    <nd ref="921928819"/>
    <nd ref="921928507"/>
    <nd ref="921929493"/>
    <nd ref="921929083"/>
    <nd ref="921928941"/>
    <nd ref="921928461"/>
    <tag k="building" v="yes"/>
  </way>
  <way id="78578442" version="2" timestamp="2010-09-22T21:57:32Z" uid="49111" user="Markus B" changeset="5849760">
    <nd ref="921928461"/>
    <nd ref="921928819"/>
    <nd ref="921928507"/>
    <nd ref="921929493"/>
    <nd ref="921929083"/>
    <nd ref="921928941"/>
    <nd ref="921928461"/>
    <tag k="addr:city" v="Bachs"/>
    <tag k="addr:country" v="CH"/>
    <tag k="addr:housenumber" v="5"/>
    <tag k="addr:postcode" v="8164"/>
    <tag k="addr:street" v="Dorfwiesen"/>
    <tag k="building" v="yes"/>
  </way>
  <way id="78578444" version="1" timestamp="2010-09-22T21:31:38Z" uid="49111" user="Markus B" changeset="5849507">
    <nd ref="304183766"/>
    <nd ref="921928644"/>
    <tag k="highway" v="track"/>
    <tag k="tracktype" v="grade2"/>
  </way>
  <way id="78578445" version="1" timestamp="2010-09-22T21:31:38Z" uid="49111" user="Markus B" changeset="5849507">
    <nd ref="921928949"/>
    <nd ref="921928429"/>
    <nd ref="921929559"/>
    <nd ref="921929016"/>
    <nd ref="921928949"/>
    <tag k="building" v="yes"/>
  </way>
  <way id="78578447" version="1" timestamp="2010-09-22T21:31:38Z" uid="49111" user="Markus B" changeset="5849507">
    <nd ref="921929079"/>
    <nd ref="921929549"/>
    <nd ref="921929120"/>
    <nd ref="921928695"/>
    <nd ref="921929079"/>
    <tag k="building" v="yes"/>
  </way>
  <way id="78578447" version="2" timestamp="2011-07-24T00:48:15Z" uid="449569" user="Nautic" changeset="8811297">
    <nd ref="921929079"/>
    <nd ref="921929549"/>
    <nd ref="921929120"/>
    <nd ref="1371746371"/>
    <nd ref="921928695"/>
    <nd ref="1371746380"/>
    <nd ref="921929079"/>
    <tag k="building" v="yes"/>
  </way>
  <way id="78578449" version="1" timestamp="2010-09-22T21:31:38Z" uid="49111" user="Markus B" changeset="5849507">
    <nd ref="329009497"/>
    <nd ref="921929063"/>
    <nd ref="921928641"/>
    <nd ref="921928356"/>
    <nd ref="921929615"/>
    <nd ref="921929225"/>
    <nd ref="921928792"/>
    <nd ref="921928481"/>
    <nd ref="921928323"/>
    <tag k="highway" v="track"/>
    <tag k="tracktype" v="grade3"/>
  </way>
  <way id="78578451" version="1" timestamp="2010-09-22T21:31:39Z" uid="49111" user="Markus B" changeset="5849507">
    <nd ref="921929753"/>
    <nd ref="921928631"/>
    <nd ref="921928343"/>
    <nd ref="921929242"/>
    <nd ref="921928943"/>
    <nd ref="921928771"/>
    <nd ref="921929753"/>
    <tag k="building" v="yes"/>
  </way>
  <way id="78578452" version="1" timestamp="2010-09-22T21:31:39Z" uid="49111" user="Markus B" changeset="5849507">
    <nd ref="921928932"/>
    <nd ref="921928413"/>
    <nd ref="921929544"/>
    <nd ref="921929000"/>
    <nd ref="921928932"/>
    <tag k="building" v="yes"/>
  </way>
  <way id="78578453" version="1" timestamp="2010-09-22T21:31:39Z" uid="49111" user="Markus B" changeset="5849507">
    <nd ref="921928794"/>
    <nd ref="921929709"/>
    <nd ref="921929303"/>
    <nd ref="921928885"/>
    <nd ref="921928577"/>
    <nd ref="921928397"/>
    <nd ref="921929529"/>
    <nd ref="921928988"/>
    <nd ref="921928794"/>
    <tag k="building" v="yes"/>
  </way>
  <way id="78578453" version="2" timestamp="2010-09-22T21:57:31Z" uid="49111" user="Markus B" changeset="5849760">
    <nd ref="921928794"/>
    <nd ref="921929709"/>
    <nd ref="921929303"/>
    <nd ref="921928885"/>
    <nd ref="921928577"/>
    <nd ref="921928397"/>
    <nd ref="921929529"/>
    <nd ref="921928988"/>
    <nd ref="921928794"/>
    <tag k="addr:city" v="Bachs"/>
    <tag k="addr:country" v="CH"/>
    <tag k="addr:housenumber" v="1"/>
    <tag k="addr:postcode" v="8164"/>
    <tag k="addr:street" v="Pünt-Strasse"/>
    <tag k="building" v="yes"/>
  </way>
  <way id="78578453" version="3" timestamp="2011-09-03T23:35:03Z" uid="90689" user="HansJ" changeset="9204691">
    <nd ref="921928794"/>
    <nd ref="921929709"/>
    <nd ref="921929303"/>
    <nd ref="921928885"/>
    <nd ref="921928577"/>
    <nd ref="921928397"/>
    <nd ref="921929529"/>
    <nd ref="921928988"/>
    <nd ref="921928794"/>
    <tag k="addr:city" v="Bachs"/>
    <tag k="addr:country" v="CH"/>
    <tag k="addr:housenumber" v="1"/>
    <tag k="addr:postcode" v="8164"/>
    <tag k="addr:street" v="Püntstrasse"/>
    <tag k="building" v="yes"/>
  </way>
  <way id="78578455" version="1" timestamp="2010-09-22T21:31:40Z" uid="49111" user="Markus B" changeset="5849507">
    <nd ref="921929228"/>
    <nd ref="921929534"/>
    <nd ref="921928992"/>
    <nd ref="921928684"/>
    <nd ref="921929228"/>
    <tag k="building" v="yes"/>
  </way>
  <way id="78578456" version="1" timestamp="2010-09-22T21:31:40Z" uid="49111" user="Markus B" changeset="5849507">
    <nd ref="921929058"/>
    <nd ref="921929288"/>
    <nd ref="921928875"/>
    <nd ref="921928567"/>
    <nd ref="921928391"/>
    <nd ref="921929520"/>
    <nd ref="921929058"/>
    <tag k="building" v="yes"/>
  </way>
  <way id="78578456" version="2" timestamp="2010-09-22T21:57:33Z" uid="49111" user="Markus B" changeset="5849760">
    <nd ref="921929058"/>
    <nd ref="921929288"/>
    <nd ref="921928875"/>
    <nd ref="921928567"/>
    <nd ref="921928391"/>
    <nd ref="921929520"/>
    <nd ref="921929058"/>
    <tag k="addr:city" v="Bachs"/>
    <tag k="addr:country" v="CH"/>
    <tag k="addr:housenumber" v="9"/>
    <tag k="addr:postcode" v="8164"/>
    <tag k="addr:street" v="Dorfwiesen"/>
    <tag k="building" v="yes"/>
  </way>
  <way id="78578458" version="1" timestamp="2010-09-22T21:31:40Z" uid="49111" user="Markus B" changeset="5849507">
    <nd ref="921929392"/>
    <nd ref="921928851"/>
    <nd ref="921929532"/>
    <nd ref="921929105"/>
    <nd ref="921928681"/>
    <nd ref="921928402"/>
    <nd ref="921929666"/>
    <nd ref="921929262"/>
    <nd ref="921929392"/>
    <tag k="building" v="yes"/>
  </way>
  <way id="78578459" version="1" timestamp="2010-09-22T21:31:40Z" uid="49111" user="Markus B" changeset="5849507">
    <nd ref="921929521"/>
    <nd ref="921929093"/>
    <nd ref="921928671"/>
    <nd ref="921928392"/>
    <nd ref="921929652"/>
    <nd ref="921929255"/>
    <nd ref="921928837"/>
    <nd ref="921928535"/>
    <nd ref="921929521"/>
    <tag k="addr:city" v="Bachs"/>
    <tag k="addr:country" v="CH"/>
    <tag k="addr:housenumber" v="40"/>
    <tag k="addr:postcode" v="8164"/>
    <tag k="addr:street" v="Bachsertal-Strasse"/>
    <tag k="building" v="yes"/>
  </way>
  <way id="78578459" version="2" timestamp="2012-01-13T00:02:18Z" uid="178186" user="mdk" changeset="10374865">
    <nd ref="921929521"/>
    <nd ref="921929093"/>
    <nd ref="921928671"/>
    <nd ref="921928392"/>
    <nd ref="921929652"/>
    <nd ref="921929255"/>
    <nd ref="921928837"/>
    <nd ref="921928535"/>
    <nd ref="921929521"/>
    <tag k="addr:city" v="Bachs"/>
    <tag k="addr:country" v="CH"/>
    <tag k="addr:housenumber" v="40"/>
    <tag k="addr:postcode" v="8164"/>
    <tag k="addr:street" v="Bachsertalstrasse"/>
    <tag k="building" v="yes"/>
  </way>
  <way id="78578460" version="1" timestamp="2010-09-22T21:31:41Z" uid="49111" user="Markus B" changeset="5849507">
    <nd ref="921929526"/>
    <nd ref="921928926"/>
    <nd ref="921928480"/>
    <nd ref="921929614"/>
    <nd ref="921929526"/>
    <tag k="building" v="yes"/>
  </way>
  <way id="78578461" version="1" timestamp="2010-09-22T21:31:41Z" uid="49111" user="Markus B" changeset="5849507">
    <nd ref="921928878"/>
    <nd ref="921928730"/>
    <nd ref="921928324"/>
    <nd ref="921929381"/>
    <nd ref="921929174"/>
    <nd ref="921928893"/>
    <nd ref="921928451"/>
    <nd ref="921929144"/>
    <nd ref="921928878"/>
    <tag k="building" v="yes"/>
  </way>
  <way id="78578461" version="2" timestamp="2010-09-22T21:57:32Z" uid="49111" user="Markus B" changeset="5849760">
    <nd ref="921928878"/>
    <nd ref="921928730"/>
    <nd ref="921928324"/>
    <nd ref="921929381"/>
    <nd ref="921929174"/>
    <nd ref="921928893"/>
    <nd ref="921928451"/>
    <nd ref="921929144"/>
    <nd ref="921928878"/>
    <tag k="addr:city" v="Bachs"/>
    <tag k="addr:country" v="CH"/>
    <tag k="addr:housenumber" v="5"/>
    <tag k="addr:postcode" v="8164"/>
    <tag k="addr:street" v="Brunnwise-Strasse"/>
    <tag k="building" v="yes"/>
  </way>
  <way id="78578461" version="3" timestamp="2011-09-03T23:35:18Z" uid="90689" user="HansJ" changeset="9204691">
    <nd ref="921928878"/>
    <nd ref="921928730"/>
    <nd ref="921928324"/>
    <nd ref="921929381"/>
    <nd ref="921929174"/>
    <nd ref="921928893"/>
    <nd ref="921928451"/>
    <nd ref="921929144"/>
    <nd ref="921928878"/>
    <tag k="addr:city" v="Bachs"/>
    <tag k="addr:country" v="CH"/>
    <tag k="addr:housenumber" v="5"/>
    <tag k="addr:postcode" v="8164"/>
    <tag k="addr:street" v="Brunnwisestrasse"/>
    <tag k="building" v="yes"/>
  </way>
  <way id="78578463" version="1" timestamp="2010-09-22T21:31:41Z" uid="49111" user="Markus B" changeset="5849507">
    <nd ref="412540021"/>
    <nd ref="921928462"/>
    <nd ref="703686441"/>
    <nd ref="921929084"/>
    <nd ref="921928820"/>
    <nd ref="402893047"/>
  </way>
  <way id="78578463" version="2" timestamp="2010-11-26T12:10:24Z" uid="8296" user="kuede" changeset="6461520">
    <nd ref="412540021"/>
    <nd ref="921928462"/>
    <nd ref="703686441"/>
    <nd ref="921929084"/>
    <nd ref="921928820"/>
    <nd ref="402893047"/>
    <tag k="highway" v="road"/>
  </way>
  <way id="78578463" version="3" timestamp="2011-07-24T00:48:12Z" uid="449569" user="Nautic" changeset="8811297">
    <nd ref="412540021"/>
    <nd ref="1371746357"/>
    <nd ref="1371746355"/>
    <nd ref="1371746353"/>
    <nd ref="1371746350"/>
    <nd ref="1371746348"/>
    <nd ref="921928462"/>
    <nd ref="703686441"/>
    <nd ref="921929084"/>
    <nd ref="921928820"/>
    <nd ref="402893047"/>
    <tag k="highway" v="track"/>
    <tag k="tracktype" v="grade2"/>
  </way>
  <way id="78578464" version="1" timestamp="2010-09-22T21:31:41Z" uid="49111" user="Markus B" changeset="5849507">
    <nd ref="921929665"/>
    <nd ref="921928588"/>
    <nd ref="921929731"/>
    <nd ref="921929175"/>
    <nd ref="921929665"/>
    <tag k="addr:city" v="Bachs"/>
    <tag k="addr:country" v="CH"/>
    <tag k="addr:housenumber" v="18"/>
    <tag k="addr:postcode" v="8164"/>
    <tag k="addr:street" v="Bachsertal-Strasse"/>
    <tag k="building" v="yes"/>
  </way>
  <way id="78578464" version="2" timestamp="2012-01-13T00:02:15Z" uid="178186" user="mdk" changeset="10374865">
    <nd ref="921929665"/>
    <nd ref="921928588"/>
    <nd ref="921929731"/>
    <nd ref="921929175"/>
    <nd ref="921929665"/>
    <tag k="addr:city" v="Bachs"/>
    <tag k="addr:country" v="CH"/>
    <tag k="addr:housenumber" v="18"/>
    <tag k="addr:postcode" v="8164"/>
    <tag k="addr:street" v="Bachsertalstrasse"/>
    <tag k="building" v="yes"/>
  </way>
  <way id="78578465" version="1" timestamp="2010-09-22T21:31:42Z" uid="49111" user="Markus B" changeset="5849507">
    <nd ref="921929661"/>
    <nd ref="921928444"/>
    <nd ref="921928635"/>
    <nd ref="921928348"/>
    <nd ref="921929661"/>
    <tag k="building" v="yes"/>
  </way>
  <way id="78578466" version="1" timestamp="2010-09-22T21:31:42Z" uid="49111" user="Markus B" changeset="5849507">
    <nd ref="921928352"/>
    <nd ref="921928432"/>
    <nd ref="921929565"/>
    <nd ref="921928540"/>
    <nd ref="921929663"/>
    <nd ref="921929104"/>
    <nd ref="921928352"/>
    <tag k="building" v="yes"/>
    <tag k="name" v="Schützenhaus"/>
  </way>
  <way id="78578466" version="2" timestamp="2010-10-06T11:24:44Z" uid="49111" user="Markus B" changeset="5968180">
    <nd ref="921928352"/>
    <nd ref="921928432"/>
    <nd ref="921929565"/>
    <nd ref="921928540"/>
    <nd ref="921929663"/>
    <nd ref="921929104"/>
    <nd ref="921928352"/>
    <tag k="building" v="yes"/>
    <tag k="name" v="Schützenhaus"/>
    <tag k="shooting" v="rifle"/>
    <tag k="sport" v="shooting"/>
  </way>
  <way id="78578467" version="1" timestamp="2010-09-22T21:31:42Z" uid="49111" user="Markus B" changeset="5849507">
    <nd ref="921929249"/>
    <nd ref="921928712"/>
    <nd ref="921928569"/>
    <nd ref="921929701"/>
    <nd ref="921929143"/>
    <nd ref="921928877"/>
    <nd ref="921929249"/>
    <tag k="building" v="yes"/>
  </way>
  <way id="78578468" version="1" timestamp="2010-09-22T21:31:42Z" uid="49111" user="Markus B" changeset="5849507">
    <nd ref="921928483"/>
    <nd ref="921928683"/>
    <nd ref="921929727"/>
    <nd ref="921929311"/>
    <nd ref="921929106"/>
    <nd ref="921928847"/>
    <nd ref="921928483"/>
    <tag k="building" v="yes"/>
  </way>
  <way id="78578469" version="1" timestamp="2010-09-22T21:31:42Z" uid="49111" user="Markus B" changeset="5849507">
    <nd ref="921929245"/>
    <nd ref="921928699"/>
    <nd ref="921928422"/>
    <nd ref="921929695"/>
    <nd ref="921929245"/>
    <tag k="building" v="yes"/>
  </way>
  <way id="78578470" version="1" timestamp="2010-09-22T21:31:43Z" uid="49111" user="Markus B" changeset="5849507">
    <nd ref="921928347"/>
    <nd ref="921928563"/>
    <nd ref="921928389"/>
    <nd ref="921929515"/>
    <nd ref="921928977"/>
    <nd ref="921928669"/>
    <nd ref="921928403"/>
    <nd ref="921928682"/>
    <nd ref="921928531"/>
    <nd ref="921929648"/>
    <nd ref="921929091"/>
    <nd ref="921928835"/>
    <nd ref="921928347"/>
    <tag k="building" v="yes"/>
  </way>
  <way id="78578472" version="1" timestamp="2010-09-22T21:31:43Z" uid="49111" user="Markus B" changeset="5849507">
    <nd ref="921928662"/>
    <nd ref="921929598"/>
    <nd ref="921929048"/>
    <nd ref="921928765"/>
    <nd ref="921928662"/>
    <tag k="building" v="yes"/>
  </way>
  <way id="78578473" version="1" timestamp="2010-09-22T21:31:43Z" uid="49111" user="Markus B" changeset="5849507">
    <nd ref="921929791"/>
    <nd ref="921928388"/>
    <nd ref="921929354"/>
    <nd ref="921929513"/>
    <nd ref="921929253"/>
    <nd ref="921929791"/>
    <tag k="building" v="yes"/>
  </way>
  <way id="78578474" version="1" timestamp="2010-09-22T21:31:43Z" uid="49111" user="Markus B" changeset="5849507">
    <nd ref="921929809"/>
    <nd ref="921928642"/>
    <nd ref="921928357"/>
    <nd ref="921929254"/>
    <nd ref="921929809"/>
  </way>
  <way id="78578474" version="2" timestamp="2010-09-22T21:57:37Z" uid="49111" user="Markus B" changeset="5849760">
    <nd ref="921929809"/>
    <nd ref="921928642"/>
    <nd ref="921928357"/>
    <nd ref="921929254"/>
    <nd ref="921929809"/>
    <tag k="addr:city" v="Bachs"/>
    <tag k="addr:country" v="CH"/>
    <tag k="addr:housenumber" v="3"/>
    <tag k="addr:postcode" v="8164"/>
    <tag k="addr:street" v="Pünt-Strasse"/>
    <tag k="building" v="yes"/>
  </way>
  <way id="78578474" version="3" timestamp="2011-09-03T23:35:13Z" uid="90689" user="HansJ" changeset="9204691">
    <nd ref="921929809"/>
    <nd ref="921928642"/>
    <nd ref="921928357"/>
    <nd ref="921929254"/>
    <nd ref="921929809"/>
    <tag k="addr:city" v="Bachs"/>
    <tag k="addr:country" v="CH"/>
    <tag k="addr:housenumber" v="3"/>
    <tag k="addr:postcode" v="8164"/>
    <tag k="addr:street" v="Püntstrasse"/>
    <tag k="building" v="yes"/>
  </way>
  <way id="78578476" version="1" timestamp="2010-09-22T21:31:44Z" uid="49111" user="Markus B" changeset="5849507">
    <nd ref="921929558"/>
    <nd ref="921928948"/>
    <nd ref="921928636"/>
    <nd ref="921929643"/>
    <nd ref="921929558"/>
    <tag k="building" v="yes"/>
  </way>
  <way id="78578476" version="2" timestamp="2010-09-22T21:57:34Z" uid="49111" user="Markus B" changeset="5849760">
    <nd ref="921929558"/>
    <nd ref="921928948"/>
    <nd ref="921928636"/>
    <nd ref="921929643"/>
    <nd ref="921929558"/>
    <tag k="addr:city" v="Bachs"/>
    <tag k="addr:country" v="CH"/>
    <tag k="addr:housenumber" v="15"/>
    <tag k="addr:postcode" v="8164"/>
    <tag k="addr:street" v="Dorfwiesen"/>
    <tag k="building" v="yes"/>
    <tag k="name" v="Köchli Reisen"/>
  </way>
  <way id="78578476" version="3" timestamp="2010-09-23T09:22:01Z" uid="49111" user="Markus B" changeset="5852421">
    <nd ref="921929558"/>
    <nd ref="921928948"/>
    <nd ref="921928636"/>
    <nd ref="921929643"/>
    <nd ref="921929558"/>
    <tag k="addr:city" v="Bachs"/>
    <tag k="addr:country" v="CH"/>
    <tag k="addr:housenumber" v="15"/>
    <tag k="addr:postcode" v="8164"/>
    <tag k="addr:street" v="Dorfwiesen"/>
    <tag k="building" v="yes"/>
  </way>
  <way id="78578477" version="1" timestamp="2010-09-22T21:31:44Z" uid="49111" user="Markus B" changeset="5849507">
    <nd ref="921929336"/>
    <nd ref="921929646"/>
    <nd ref="921929088"/>
    <nd ref="921928829"/>
    <nd ref="921928637"/>
    <nd ref="921928912"/>
    <nd ref="921929336"/>
    <tag k="addr:city" v="Bachs"/>
    <tag k="addr:country" v="CH"/>
    <tag k="addr:housenumber" v="36"/>
    <tag k="addr:postcode" v="8164"/>
    <tag k="addr:street" v="Bachsertal-Strasse"/>
    <tag k="building" v="yes"/>
  </way>
  <way id="78578477" version="2" timestamp="2012-01-13T00:02:18Z" uid="178186" user="mdk" changeset="10374865">
    <nd ref="921929336"/>
    <nd ref="921929646"/>
    <nd ref="921929088"/>
    <nd ref="921928829"/>
    <nd ref="921928637"/>
    <nd ref="921928912"/>
    <nd ref="921929336"/>
    <tag k="addr:city" v="Bachs"/>
    <tag k="addr:country" v="CH"/>
    <tag k="addr:housenumber" v="36"/>
    <tag k="addr:postcode" v="8164"/>
    <tag k="addr:street" v="Bachsertalstrasse"/>
    <tag k="building" v="yes"/>
  </way>
  <way id="78578478" version="1" timestamp="2010-09-22T21:31:44Z" uid="49111" user="Markus B" changeset="5849507">
    <nd ref="921928595"/>
    <nd ref="921929491"/>
    <nd ref="921929080"/>
    <nd ref="921928654"/>
    <nd ref="921928374"/>
    <nd ref="921929632"/>
    <nd ref="921929240"/>
    <nd ref="921928815"/>
    <nd ref="921928595"/>
    <tag k="addr:city" v="Bachs"/>
    <tag k="addr:country" v="CH"/>
    <tag k="addr:housenumber" v="50"/>
    <tag k="addr:postcode" v="8164"/>
    <tag k="addr:street" v="Bachsertal-Strasse"/>
    <tag k="building" v="yes"/>
  </way>
  <way id="78578478" version="2" timestamp="2012-01-13T00:02:19Z" uid="178186" user="mdk" changeset="10374865">
    <nd ref="921928595"/>
    <nd ref="921929491"/>
    <nd ref="921929080"/>
    <nd ref="921928654"/>
    <nd ref="921928374"/>
    <nd ref="921929632"/>
    <nd ref="921929240"/>
    <nd ref="921928815"/>
    <nd ref="921928595"/>
    <tag k="addr:city" v="Bachs"/>
    <tag k="addr:country" v="CH"/>
    <tag k="addr:housenumber" v="50"/>
    <tag k="addr:postcode" v="8164"/>
    <tag k="addr:street" v="Bachsertalstrasse"/>
    <tag k="building" v="yes"/>
  </way>
  <way id="78578479" version="1" timestamp="2010-09-22T21:31:45Z" uid="49111" user="Markus B" changeset="5849507">
    <nd ref="301364610"/>
    <nd ref="921929241"/>
    <nd ref="412540053"/>
  </way>
  <way id="78578479" version="2" timestamp="2010-11-26T12:10:41Z" uid="8296" user="kuede" changeset="6461520">
    <nd ref="301364610"/>
    <nd ref="921929241"/>
    <nd ref="412540053"/>
    <tag k="highway" v="road"/>
  </way>
  <way id="78578479" version="3" timestamp="2011-07-24T00:48:14Z" uid="449569" user="Nautic" changeset="8811297">
    <nd ref="301364610"/>
    <nd ref="921929241"/>
    <nd ref="412540053"/>
    <tag k="highway" v="track"/>
    <tag k="tracktype" v="grade2"/>
  </way>
  <way id="78578480" version="1" timestamp="2010-09-22T21:31:45Z" uid="49111" user="Markus B" changeset="5849507">
    <nd ref="921928520"/>
    <nd ref="921928872"/>
    <nd ref="921928562"/>
    <nd ref="921929639"/>
    <nd ref="921928520"/>
    <tag k="building" v="yes"/>
  </way>
  <way id="78578481" version="1" timestamp="2010-09-22T21:31:45Z" uid="49111" user="Markus B" changeset="5849507">
    <nd ref="921928686"/>
    <nd ref="921929618"/>
    <nd ref="921929229"/>
    <nd ref="921928801"/>
    <nd ref="921928484"/>
    <nd ref="921928329"/>
    <nd ref="921929389"/>
    <nd ref="921928727"/>
    <nd ref="921929107"/>
    <nd ref="921928686"/>
    <tag k="building" v="yes"/>
  </way>
  <way id="78578483" version="1" timestamp="2010-09-22T21:31:45Z" uid="49111" user="Markus B" changeset="5849507">
    <nd ref="921928339"/>
    <nd ref="921928556"/>
    <nd ref="921929550"/>
    <nd ref="921929122"/>
    <nd ref="921928339"/>
    <tag k="building" v="yes"/>
  </way>
  <way id="78578483" version="2" timestamp="2012-01-13T00:03:57Z" uid="178186" user="mdk" changeset="10374865">
    <nd ref="921928339"/>
    <nd ref="921928556"/>
    <nd ref="1587759306"/>
    <nd ref="1587759302"/>
    <nd ref="921929550"/>
    <nd ref="921929122"/>
    <nd ref="1587759281"/>
    <nd ref="1587759284"/>
    <nd ref="921928339"/>
    <tag k="building" v="yes"/>
  </way>
  <way id="78578485" version="1" timestamp="2010-09-22T21:31:46Z" uid="49111" user="Markus B" changeset="5849507">
    <nd ref="921928983"/>
    <nd ref="921929223"/>
    <nd ref="921928791"/>
    <nd ref="921928479"/>
    <nd ref="921928322"/>
    <nd ref="921929378"/>
    <nd ref="921928925"/>
    <nd ref="921928615"/>
    <nd ref="921928983"/>
    <tag k="building" v="yes"/>
  </way>
  <way id="78578487" version="1" timestamp="2010-09-22T21:31:46Z" uid="49111" user="Markus B" changeset="5849507">
    <nd ref="921929226"/>
    <nd ref="921928680"/>
    <nd ref="921929721"/>
    <nd ref="921929306"/>
    <nd ref="921929226"/>
    <tag k="addr:city" v="Bachs"/>
    <tag k="addr:country" v="CH"/>
    <tag k="addr:housenumber" v="8"/>
    <tag k="addr:postcode" v="8164"/>
    <tag k="addr:street" v="Bachsertal-Strasse"/>
    <tag k="building" v="yes"/>
  </way>
  <way id="78578487" version="2" timestamp="2012-01-13T00:02:20Z" uid="178186" user="mdk" changeset="10374865">
    <nd ref="921929226"/>
    <nd ref="921928680"/>
    <nd ref="921929721"/>
    <nd ref="921929306"/>
    <nd ref="921929226"/>
    <tag k="addr:city" v="Bachs"/>
    <tag k="addr:country" v="CH"/>
    <tag k="addr:housenumber" v="8"/>
    <tag k="addr:postcode" v="8164"/>
    <tag k="addr:street" v="Bachsertalstrasse"/>
    <tag k="building" v="yes"/>
  </way>
  <way id="78578488" version="1" timestamp="2010-09-22T21:31:46Z" uid="49111" user="Markus B" changeset="5849507">
    <nd ref="921929629"/>
    <nd ref="921929410"/>
    <nd ref="921929044"/>
    <nd ref="921928626"/>
    <tag k="highway" v="track"/>
    <tag k="tracktype" v="grade2"/>
  </way>
  <way id="78578490" version="1" timestamp="2010-09-22T21:31:46Z" uid="49111" user="Markus B" changeset="5849507">
    <nd ref="921928870"/>
    <nd ref="921929052"/>
    <nd ref="921928915"/>
    <nd ref="921928605"/>
    <nd ref="921929604"/>
    <nd ref="921929213"/>
    <nd ref="921929018"/>
    <nd ref="921928715"/>
    <nd ref="921928870"/>
    <tag k="addr:city" v="Bachs"/>
    <tag k="addr:country" v="CH"/>
    <tag k="addr:housenumber" v="20"/>
    <tag k="addr:postcode" v="8164"/>
    <tag k="addr:street" v="Mufler-Strasse"/>
    <tag k="building" v="yes"/>
  </way>
  <way id="78578490" version="2" timestamp="2011-09-03T23:35:11Z" uid="90689" user="HansJ" changeset="9204691">
    <nd ref="921928870"/>
    <nd ref="921929052"/>
    <nd ref="921928915"/>
    <nd ref="921928605"/>
    <nd ref="921929604"/>
    <nd ref="921929213"/>
    <nd ref="921929018"/>
    <nd ref="921928715"/>
    <nd ref="921928870"/>
    <tag k="addr:city" v="Bachs"/>
    <tag k="addr:country" v="CH"/>
    <tag k="addr:housenumber" v="20"/>
    <tag k="addr:postcode" v="8164"/>
    <tag k="addr:street" v="Muflerstrasse"/>
    <tag k="building" v="yes"/>
  </way>
  <way id="78578492" version="1" timestamp="2010-09-22T21:31:47Z" uid="49111" user="Markus B" changeset="5849507">
    <nd ref="921929711"/>
    <nd ref="921928571"/>
    <tag k="name" v="Hochrütibach"/>
    <tag k="tunnel" v="yes"/>
    <tag k="waterway" v="stream"/>
  </way>
  <way id="78578492" version="2" timestamp="2012-02-27T10:53:16Z" uid="178186" user="mdk" changeset="10807285">
    <nd ref="921929711"/>
    <nd ref="921928571"/>
    <tag k="layer" v="-1"/>
    <tag k="name" v="Hochrütibach"/>
    <tag k="tunnel" v="yes"/>
    <tag k="waterway" v="stream"/>
  </way>
  <way id="78578493" version="1" timestamp="2010-09-22T21:31:47Z" uid="49111" user="Markus B" changeset="5849507">
    <nd ref="921929404"/>
    <nd ref="921929685"/>
    <nd ref="921929492"/>
    <nd ref="921929081"/>
    <nd ref="921929404"/>
    <tag k="amenity" v="parking"/>
  </way>
  <way id="78578496" version="1" timestamp="2010-09-22T21:31:48Z" uid="49111" user="Markus B" changeset="5849507">
    <nd ref="442047176"/>
    <nd ref="921929247"/>
    <nd ref="921929508"/>
    <nd ref="304183751"/>
  </way>
  <way id="78578496" version="2" timestamp="2010-11-26T12:10:27Z" uid="8296" user="kuede" changeset="6461520">
    <nd ref="442047176"/>
    <nd ref="921929247"/>
    <nd ref="921929508"/>
    <nd ref="304183751"/>
    <tag k="highway" v="road"/>
  </way>
  <way id="78578496" version="3" timestamp="2012-01-04T19:18:48Z" uid="8296" user="kuede" changeset="10294261"/>
  <way id="78578497" version="1" timestamp="2010-09-22T21:31:48Z" uid="49111" user="Markus B" changeset="5849507">
    <nd ref="921929586"/>
    <nd ref="921929676"/>
    <nd ref="921929267"/>
    <nd ref="921928336"/>
    <nd ref="921929586"/>
    <tag k="building" v="yes"/>
  </way>
  <way id="78578498" version="1" timestamp="2010-09-22T21:31:48Z" uid="49111" user="Markus B" changeset="5849507">
    <nd ref="921928826"/>
    <nd ref="921929139"/>
    <nd ref="921928874"/>
    <nd ref="921928428"/>
    <nd ref="921929557"/>
    <nd ref="921929286"/>
    <nd ref="921928979"/>
    <tag k="building" v="yes"/>
  </way>
  <way id="78578498" version="2" timestamp="2010-09-25T13:00:22Z" uid="52921" user="t-i" changeset="5870645">
    <nd ref="921928826"/>
    <nd ref="921929139"/>
    <nd ref="921928874"/>
    <nd ref="921928428"/>
    <nd ref="921929557"/>
    <nd ref="921929286"/>
    <nd ref="921928826"/>
    <tag k="building" v="yes"/>
  </way>
  <way id="78578499" version="1" timestamp="2010-09-22T21:31:48Z" uid="49111" user="Markus B" changeset="5849507">
    <nd ref="921929566"/>
    <nd ref="921929647"/>
    <nd ref="921929252"/>
    <nd ref="921929062"/>
    <nd ref="921928787"/>
    <nd ref="921928354"/>
    <nd ref="921929447"/>
    <nd ref="921929222"/>
    <nd ref="921929566"/>
    <tag k="building" v="yes"/>
  </way>
  <way id="78578500" version="1" timestamp="2010-09-22T21:31:48Z" uid="49111" user="Markus B" changeset="5849507">
    <nd ref="921928805"/>
    <nd ref="921928995"/>
    <nd ref="921928587"/>
    <nd ref="921929730"/>
    <nd ref="921929537"/>
    <nd ref="921929108"/>
    <nd ref="921928805"/>
    <tag k="building" v="yes"/>
  </way>
  <way id="78578500" version="2" timestamp="2010-09-22T21:57:31Z" uid="49111" user="Markus B" changeset="5849760">
    <nd ref="921928805"/>
    <nd ref="921928995"/>
    <nd ref="921928587"/>
    <nd ref="921929730"/>
    <nd ref="921929537"/>
    <nd ref="921929108"/>
    <nd ref="921928805"/>
    <tag k="addr:city" v="Bachs"/>
    <tag k="addr:country" v="CH"/>
    <tag k="addr:housenumber" v="11"/>
    <tag k="addr:postcode" v="8164"/>
    <tag k="addr:street" v="Brunnwise-Strasse"/>
    <tag k="building" v="yes"/>
  </way>
  <way id="78578500" version="3" timestamp="2011-09-03T23:35:04Z" uid="90689" user="HansJ" changeset="9204691">
    <nd ref="921928805"/>
    <nd ref="921928995"/>
    <nd ref="921928587"/>
    <nd ref="921929730"/>
    <nd ref="921929537"/>
    <nd ref="921929108"/>
    <nd ref="921928805"/>
    <tag k="addr:city" v="Bachs"/>
    <tag k="addr:country" v="CH"/>
    <tag k="addr:housenumber" v="11"/>
    <tag k="addr:postcode" v="8164"/>
    <tag k="addr:street" v="Brunnwisestrasse"/>
    <tag k="building" v="yes"/>
  </way>
  <way id="78578502" version="1" timestamp="2010-09-22T21:31:49Z" uid="49111" user="Markus B" changeset="5849507">
    <nd ref="921929283"/>
    <nd ref="921928774"/>
    <nd ref="921928471"/>
    <nd ref="921929431"/>
    <nd ref="921929283"/>
  </way>
  <way id="78578502" version="2" timestamp="2010-09-22T21:57:40Z" uid="49111" user="Markus B" changeset="5849760">
    <nd ref="921929283"/>
    <nd ref="921928774"/>
    <nd ref="921928471"/>
    <nd ref="921929431"/>
    <nd ref="921929283"/>
    <tag k="building" v="yes"/>
  </way>
  <way id="78578503" version="1" timestamp="2010-09-22T21:31:49Z" uid="49111" user="Markus B" changeset="5849507">
    <nd ref="921928478"/>
    <nd ref="921929292"/>
    <nd ref="921928982"/>
    <nd ref="921928841"/>
    <nd ref="921928539"/>
    <nd ref="921929523"/>
    <nd ref="921929097"/>
    <nd ref="921928956"/>
    <nd ref="921928478"/>
    <tag k="addr:city" v="Bachs"/>
    <tag k="addr:country" v="CH"/>
    <tag k="addr:housenumber" v="8"/>
    <tag k="addr:postcode" v="8164"/>
    <tag k="addr:street" v="Widem-Strasse"/>
    <tag k="building" v="yes"/>
  </way>
  <way id="78578505" version="1" timestamp="2010-09-22T21:31:49Z" uid="49111" user="Markus B" changeset="5849507">
    <nd ref="921928989"/>
    <nd ref="921928482"/>
    <nd ref="921929617"/>
    <nd ref="921928592"/>
    <nd ref="921929745"/>
    <nd ref="921929178"/>
    <nd ref="921928989"/>
    <tag k="building" v="yes"/>
  </way>
  <way id="78578506" version="1" timestamp="2010-09-22T21:31:49Z" uid="49111" user="Markus B" changeset="5849507">
    <nd ref="921928625"/>
    <nd ref="921928860"/>
    <nd ref="921928655"/>
    <nd ref="921928375"/>
    <nd ref="921928625"/>
    <tag k="building" v="yes"/>
  </way>
  <way id="78578506" version="2" timestamp="2010-09-22T21:57:35Z" uid="49111" user="Markus B" changeset="5849760">
    <nd ref="921928625"/>
    <nd ref="921928860"/>
    <nd ref="921928655"/>
    <nd ref="921928375"/>
    <nd ref="921928625"/>
    <tag k="addr:city" v="Bachs"/>
    <tag k="addr:country" v="CH"/>
    <tag k="addr:housenumber" v="2"/>
    <tag k="addr:postcode" v="8164"/>
    <tag k="addr:street" v="Brunnwise-Strasse"/>
    <tag k="building" v="yes"/>
  </way>
  <way id="78578506" version="3" timestamp="2011-09-03T23:35:09Z" uid="90689" user="HansJ" changeset="9204691">
    <nd ref="921928625"/>
    <nd ref="921928860"/>
    <nd ref="921928655"/>
    <nd ref="921928375"/>
    <nd ref="921928625"/>
    <tag k="addr:city" v="Bachs"/>
    <tag k="addr:country" v="CH"/>
    <tag k="addr:housenumber" v="2"/>
    <tag k="addr:postcode" v="8164"/>
    <tag k="addr:street" v="Brunnwisestrasse"/>
    <tag k="building" v="yes"/>
  </way>
  <way id="78578507" version="1" timestamp="2010-09-22T21:31:49Z" uid="49111" user="Markus B" changeset="5849507">
    <nd ref="921929507"/>
    <nd ref="921929768"/>
    <nd ref="921929204"/>
    <nd ref="921928909"/>
    <nd ref="921929507"/>
    <tag k="addr:city" v="Bachs"/>
    <tag k="addr:country" v="CH"/>
    <tag k="addr:housenumber" v="34"/>
    <tag k="addr:postcode" v="8164"/>
    <tag k="addr:street" v="Mufler-Strasse"/>
    <tag k="building" v="yes"/>
  </way>
  <way id="78578507" version="2" timestamp="2011-09-03T23:35:15Z" uid="90689" user="HansJ" changeset="9204691">
    <nd ref="921929507"/>
    <nd ref="921929768"/>
    <nd ref="921929204"/>
    <nd ref="921928909"/>
    <nd ref="921929507"/>
    <tag k="addr:city" v="Bachs"/>
    <tag k="addr:country" v="CH"/>
    <tag k="addr:housenumber" v="34"/>
    <tag k="addr:postcode" v="8164"/>
    <tag k="addr:street" v="Muflerstrasse"/>
    <tag k="building" v="yes"/>
  </way>
  <way id="78578509" version="1" timestamp="2010-09-22T21:31:50Z" uid="49111" user="Markus B" changeset="5849507">
    <nd ref="921928955"/>
    <nd ref="921928441"/>
    <nd ref="921929577"/>
    <nd ref="921929308"/>
    <nd ref="921928955"/>
    <tag k="building" v="yes"/>
  </way>
  <way id="78578510" version="1" timestamp="2010-09-22T21:31:50Z" uid="49111" user="Markus B" changeset="5849507">
    <nd ref="921929462"/>
    <nd ref="921928410"/>
    <nd ref="921929540"/>
    <nd ref="921928997"/>
    <nd ref="921929462"/>
    <tag k="building" v="yes"/>
  </way>
  <way id="78578511" version="1" timestamp="2010-09-22T21:31:50Z" uid="49111" user="Markus B" changeset="5849507">
    <nd ref="921929060"/>
    <nd ref="921928570"/>
    <nd ref="921929702"/>
    <nd ref="921929579"/>
    <nd ref="921929522"/>
    <nd ref="921929094"/>
    <nd ref="921928673"/>
    <nd ref="921929060"/>
    <tag k="building" v="yes"/>
  </way>
  <way id="78578511" version="2" timestamp="2012-01-13T00:03:58Z" uid="178186" user="mdk" changeset="10374865">
    <nd ref="921929060"/>
    <nd ref="921928570"/>
    <nd ref="1587759279"/>
    <nd ref="921929702"/>
    <nd ref="921929579"/>
    <nd ref="921929522"/>
    <nd ref="921929094"/>
    <nd ref="921928673"/>
    <nd ref="921929060"/>
    <tag k="building" v="yes"/>
  </way>
  <way id="78578512" version="1" timestamp="2010-09-22T21:31:50Z" uid="49111" user="Markus B" changeset="5849507">
    <nd ref="921929043"/>
    <nd ref="921928551"/>
    <nd ref="921929545"/>
    <nd ref="921929114"/>
    <nd ref="921928970"/>
    <nd ref="921928656"/>
    <nd ref="921929043"/>
    <tag k="building" v="yes"/>
  </way>
  <way id="78578512" version="2" timestamp="2010-10-04T09:57:34Z" uid="49111" user="Markus B" changeset="5951919">
    <nd ref="921929043"/>
    <nd ref="921928551"/>
    <nd ref="921929545"/>
    <nd ref="921929114"/>
    <nd ref="921928970"/>
    <nd ref="921928656"/>
    <nd ref="921929043"/>
    <tag k="amenity" v="restaurant"/>
    <tag k="building" v="yes"/>
    <tag k="cuisine" v="regional"/>
    <tag k="name" v="Eichhof"/>
    <tag k="opening_hours" v="Mi 12:00-14:00 17:00-24:00 Do So 09:00-24:00"/>
    <tag k="phone" v="+41 44 8582401"/>
    <tag k="smoking" v="no"/>
    <tag k="wheelchair" v="yes"/>
  </way>
  <way id="78578512" version="3" timestamp="2010-12-07T17:12:56Z" uid="51157" user="lemontree" changeset="6577037">
    <nd ref="921929043"/>
    <nd ref="921928551"/>
    <nd ref="921929545"/>
    <nd ref="921929114"/>
    <nd ref="921928970"/>
    <nd ref="921928656"/>
    <nd ref="921929043"/>
    <tag k="addr:city" v="Bachs"/>
    <tag k="addr:country" v="CH"/>
    <tag k="addr:housenumber" v="361"/>
    <tag k="addr:postcode" v="8164"/>
    <tag k="addr:street" v="Eichhof"/>
    <tag k="amenity" v="restaurant"/>
    <tag k="building" v="yes"/>
    <tag k="cuisine" v="regional"/>
    <tag k="name" v="Eichhof"/>
    <tag k="opening_hours" v="We 09:00-14:00,17:00-23:00; Th 17:00-23:00; So 09:00-23:00"/>
    <tag k="phone" v="+41 44 8582401"/>
    <tag k="smoking" v="no"/>
    <tag k="website" v="http://www.echtbachs.ch/betriebe/besenbeiz_eichhof.html"/>
    <tag k="wheelchair" v="yes"/>
  </way>
  <way id="78578512" version="4" timestamp="2010-12-17T10:57:57Z" uid="32786" user="Netzwolf" changeset="6685502">
    <nd ref="921929043"/>
    <nd ref="921928551"/>
    <nd ref="921929545"/>
    <nd ref="921929114"/>
    <nd ref="921928970"/>
    <nd ref="921928656"/>
    <nd ref="921929043"/>
    <tag k="addr:city" v="Bachs"/>
    <tag k="addr:country" v="CH"/>
    <tag k="addr:housenumber" v="361"/>
    <tag k="addr:postcode" v="8164"/>
    <tag k="addr:street" v="Eichhof"/>
    <tag k="amenity" v="restaurant"/>
    <tag k="building" v="yes"/>
    <tag k="cuisine" v="regional"/>
    <tag k="name" v="Eichhof"/>
    <tag k="opening_hours" v="We 09:00-14:00,17:00-23:00; Th 17:00-23:00; Su 09:00-23:00"/>
    <tag k="phone" v="+41 44 8582401"/>
    <tag k="smoking" v="no"/>
    <tag k="website" v="http://www.echtbachs.ch/betriebe/besenbeiz_eichhof.html"/>
    <tag k="wheelchair" v="yes"/>
  </way>
  <way id="78578512" version="5" timestamp="2012-02-26T23:06:40Z" uid="178186" user="mdk" changeset="10804378">
    <nd ref="921929043"/>
    <nd ref="1649652751"/>
    <nd ref="1649652756"/>
    <nd ref="1649652761"/>
    <nd ref="1649652778"/>
    <nd ref="1649652766"/>
    <nd ref="921928551"/>
    <nd ref="1649652773"/>
    <nd ref="1649652775"/>
    <nd ref="1649652748"/>
    <nd ref="1649652744"/>
    <nd ref="921929545"/>
    <nd ref="921929114"/>
    <nd ref="921928970"/>
    <nd ref="921928656"/>
    <nd ref="1649652741"/>
    <nd ref="921929043"/>
    <tag k="addr:city" v="Bachs"/>
    <tag k="addr:country" v="CH"/>
    <tag k="addr:housenumber" v="361"/>
    <tag k="addr:postcode" v="8164"/>
    <tag k="addr:street" v="Eichhof"/>
    <tag k="amenity" v="restaurant"/>
    <tag k="building" v="yes"/>
    <tag k="cuisine" v="regional"/>
    <tag k="name" v="Eichhof"/>
    <tag k="opening_hours" v="We 09:00-14:00,17:00-23:00; Th 17:00-23:00; Su 09:00-23:00"/>
    <tag k="phone" v="+41 44 8582401"/>
    <tag k="smoking" v="no"/>
    <tag k="website" v="http://www.echtbachs.ch/betriebe/besenbeiz_eichhof.html"/>
    <tag k="wheelchair" v="yes"/>
  </way>
  <way id="78578513" version="1" timestamp="2010-09-22T21:31:51Z" uid="49111" user="Markus B" changeset="5849507">
    <nd ref="921928929"/>
    <nd ref="921928404"/>
    <nd ref="921929673"/>
    <nd ref="921929265"/>
    <nd ref="921928848"/>
    <nd ref="921928543"/>
    <nd ref="921928366"/>
    <nd ref="921929463"/>
    <nd ref="921928929"/>
    <tag k="building" v="yes"/>
  </way>
  <way id="78578513" version="2" timestamp="2010-09-22T21:57:39Z" uid="49111" user="Markus B" changeset="5849760">
    <nd ref="921928929"/>
    <nd ref="921928404"/>
    <nd ref="921929673"/>
    <nd ref="921929265"/>
    <nd ref="921928848"/>
    <nd ref="921928543"/>
    <nd ref="921928366"/>
    <nd ref="921929463"/>
    <nd ref="921928929"/>
    <tag k="addr:city" v="Bachs"/>
    <tag k="addr:country" v="CH"/>
    <tag k="addr:housenumber" v="19"/>
    <tag k="addr:postcode" v="8164"/>
    <tag k="addr:street" v="Pünt-Strasse"/>
    <tag k="building" v="yes"/>
  </way>
  <way id="78578513" version="3" timestamp="2011-09-03T23:35:09Z" uid="90689" user="HansJ" changeset="9204691">
    <nd ref="921928929"/>
    <nd ref="921928404"/>
    <nd ref="921929673"/>
    <nd ref="921929265"/>
    <nd ref="921928848"/>
    <nd ref="921928543"/>
    <nd ref="921928366"/>
    <nd ref="921929463"/>
    <nd ref="921928929"/>
    <tag k="addr:city" v="Bachs"/>
    <tag k="addr:country" v="CH"/>
    <tag k="addr:housenumber" v="19"/>
    <tag k="addr:postcode" v="8164"/>
    <tag k="addr:street" v="Püntstrasse"/>
    <tag k="building" v="yes"/>
  </way>
  <way id="78578514" version="1" timestamp="2010-09-22T21:31:51Z" uid="49111" user="Markus B" changeset="5849507">
    <nd ref="921929386"/>
    <nd ref="921929664"/>
    <nd ref="921929461"/>
    <nd ref="921929070"/>
    <nd ref="921929386"/>
    <tag k="building" v="yes"/>
  </way>
  <way id="78578515" version="1" timestamp="2010-09-22T21:31:51Z" uid="49111" user="Markus B" changeset="5849507">
    <nd ref="921929021"/>
    <nd ref="921928532"/>
    <nd ref="921929649"/>
    <nd ref="921929092"/>
    <nd ref="921929021"/>
    <tag k="building" v="yes"/>
  </way>
  <way id="78578516" version="1" timestamp="2010-09-22T21:31:51Z" uid="49111" user="Markus B" changeset="5849507">
    <nd ref="921928320"/>
    <nd ref="921929192"/>
    <nd ref="921929005"/>
    <nd ref="921928816"/>
    <nd ref="921928503"/>
    <nd ref="921928340"/>
    <nd ref="921929418"/>
    <tag k="bicycle" v="designated"/>
    <tag k="foot" v="designated"/>
    <tag k="highway" v="path"/>
    <tag k="segregated" v="no"/>
    <tag k="surface" v="asphalt"/>
  </way>
  <way id="78578516" version="2" timestamp="2011-07-24T00:19:19Z" uid="449569" user="Nautic" changeset="8811240">
    <nd ref="921928320"/>
    <nd ref="921929192"/>
    <nd ref="921929005"/>
    <nd ref="921928816"/>
    <nd ref="921928503"/>
    <nd ref="921928340"/>
    <nd ref="1371733310"/>
    <nd ref="1371733351"/>
    <nd ref="921929418"/>
    <tag k="bicycle" v="designated"/>
    <tag k="foot" v="designated"/>
    <tag k="highway" v="path"/>
    <tag k="segregated" v="no"/>
    <tag k="surface" v="asphalt"/>
  </way>
  <way id="78578516" version="3" timestamp="2011-08-10T21:18:44Z" uid="92387" user="SimonPoole" changeset="8980783">
    <nd ref="921928320"/>
    <nd ref="921929192"/>
    <nd ref="921929005"/>
    <nd ref="921928816"/>
    <nd ref="921928503"/>
    <nd ref="921928340"/>
    <nd ref="1371733310"/>
    <nd ref="1371733351"/>
    <nd ref="921929418"/>
    <nd ref="1394142140"/>
    <nd ref="1394142141"/>
    <nd ref="1394142142"/>
    <nd ref="1394142144"/>
    <nd ref="1394142146"/>
    <nd ref="1394142148"/>
    <nd ref="1394142150"/>
    <nd ref="1394142152"/>
    <nd ref="1394142154"/>
    <nd ref="1394142159"/>
    <nd ref="1394142162"/>
    <nd ref="1394142164"/>
    <nd ref="1394142166"/>
    <nd ref="1394142168"/>
    <nd ref="1394142170"/>
    <nd ref="1394142172"/>
    <nd ref="1394142174"/>
    <nd ref="1394142175"/>
    <nd ref="1394142177"/>
    <nd ref="1394142178"/>
    <nd ref="1394142179"/>
    <nd ref="1394142180"/>
    <nd ref="1394142182"/>
    <nd ref="1394142191"/>
    <nd ref="1394142192"/>
    <nd ref="1394142193"/>
    <tag k="bicycle" v="designated"/>
    <tag k="foot" v="designated"/>
    <tag k="highway" v="path"/>
    <tag k="segregated" v="no"/>
    <tag k="surface" v="asphalt"/>
  </way>
  <way id="78578517" version="1" timestamp="2010-09-22T21:31:52Z" uid="49111" user="Markus B" changeset="5849507">
    <nd ref="921928999"/>
    <nd ref="921928689"/>
    <nd ref="921929743"/>
    <nd ref="921929320"/>
    <nd ref="921929113"/>
    <nd ref="921928999"/>
    <tag k="amenity" v="school"/>
  </way>
  <way id="78578518" version="1" timestamp="2010-09-22T21:31:52Z" uid="49111" user="Markus B" changeset="5849507">
    <nd ref="921929189"/>
    <nd ref="921929478"/>
    <nd ref="921929238"/>
    <nd ref="921928938"/>
    <nd ref="921928500"/>
    <nd ref="921929630"/>
    <nd ref="921929414"/>
    <nd ref="921929046"/>
    <nd ref="921929189"/>
    <tag k="building" v="yes"/>
  </way>
  <way id="78578518" version="2" timestamp="2010-09-22T21:57:39Z" uid="49111" user="Markus B" changeset="5849760">
    <nd ref="921929189"/>
    <nd ref="921929478"/>
    <nd ref="921929238"/>
    <nd ref="921928938"/>
    <nd ref="921928500"/>
    <nd ref="921929630"/>
    <nd ref="921929414"/>
    <nd ref="921929046"/>
    <nd ref="921929189"/>
    <tag k="addr:city" v="Bachs"/>
    <tag k="addr:country" v="CH"/>
    <tag k="addr:housenumber" v="17"/>
    <tag k="addr:postcode" v="8164"/>
    <tag k="addr:street" v="Brunnwise-Strasse"/>
    <tag k="building" v="yes"/>
  </way>
  <way id="78578518" version="3" timestamp="2011-09-03T23:35:08Z" uid="90689" user="HansJ" changeset="9204691">
    <nd ref="921929189"/>
    <nd ref="921929478"/>
    <nd ref="921929238"/>
    <nd ref="921928938"/>
    <nd ref="921928500"/>
    <nd ref="921929630"/>
    <nd ref="921929414"/>
    <nd ref="921929046"/>
    <nd ref="921929189"/>
    <tag k="addr:city" v="Bachs"/>
    <tag k="addr:country" v="CH"/>
    <tag k="addr:housenumber" v="17"/>
    <tag k="addr:postcode" v="8164"/>
    <tag k="addr:street" v="Brunnwisestrasse"/>
    <tag k="building" v="yes"/>
  </way>
  <way id="78578519" version="1" timestamp="2010-09-22T21:31:52Z" uid="49111" user="Markus B" changeset="5849507">
    <nd ref="301182883"/>
    <nd ref="921929066"/>
    <tag k="bridge" v="yes"/>
    <tag k="highway" v="tertiary"/>
    <tag k="name" v="Dorfstrasse"/>
  </way>
  <way id="78578519" version="2" timestamp="2010-11-12T00:17:07Z" uid="52921" user="t-i" changeset="6348076">
    <nd ref="301182883"/>
    <nd ref="921929066"/>
    <tag k="bridge" v="yes"/>
    <tag k="highway" v="unclassified"/>
    <tag k="layer" v="1"/>
    <tag k="name" v="Dorfstrasse"/>
  </way>
  <way id="78578522" version="1" timestamp="2010-09-22T21:31:53Z" uid="49111" user="Markus B" changeset="5849507">
    <nd ref="921928996"/>
    <nd ref="921928488"/>
    <nd ref="921929623"/>
    <nd ref="921929071"/>
    <nd ref="921928996"/>
    <tag k="building" v="yes"/>
  </way>
  <way id="78578523" version="1" timestamp="2010-09-22T21:31:53Z" uid="49111" user="Markus B" changeset="5849507">
    <nd ref="921928511"/>
    <nd ref="921928866"/>
    <nd ref="921928559"/>
    <nd ref="921929552"/>
    <nd ref="921928511"/>
    <tag k="building" v="yes"/>
  </way>
  <way id="78578523" version="2" timestamp="2012-01-13T00:03:58Z" uid="178186" user="mdk" changeset="10374865">
    <nd ref="921928511"/>
    <nd ref="921928866"/>
    <nd ref="921928559"/>
    <nd ref="921929552"/>
    <nd ref="921928511"/>
    <tag k="building" v="yes"/>
  </way>
  <way id="78578524" version="1" timestamp="2010-09-22T21:31:53Z" uid="49111" user="Markus B" changeset="5849507">
    <nd ref="921928335"/>
    <nd ref="921929117"/>
    <nd ref="921928974"/>
    <nd ref="921928660"/>
    <nd ref="921929688"/>
    <nd ref="921929277"/>
    <nd ref="921928335"/>
    <tag k="building" v="yes"/>
  </way>
  <way id="78578524" version="2" timestamp="2010-09-22T21:57:41Z" uid="49111" user="Markus B" changeset="5849760">
    <nd ref="921928335"/>
    <nd ref="921929117"/>
    <nd ref="921928974"/>
    <nd ref="921928660"/>
    <nd ref="921929688"/>
    <nd ref="921929277"/>
    <nd ref="921928335"/>
    <tag k="addr:city" v="Bachs"/>
    <tag k="addr:country" v="CH"/>
    <tag k="addr:housenumber" v="15"/>
    <tag k="addr:postcode" v="8164"/>
    <tag k="addr:street" v="Brunnwise-Strasse"/>
    <tag k="building" v="yes"/>
  </way>
  <way id="78578524" version="3" timestamp="2011-09-03T23:35:06Z" uid="90689" user="HansJ" changeset="9204691">
    <nd ref="921928335"/>
    <nd ref="921929117"/>
    <nd ref="921928974"/>
    <nd ref="921928660"/>
    <nd ref="921929688"/>
    <nd ref="921929277"/>
    <nd ref="921928335"/>
    <tag k="addr:city" v="Bachs"/>
    <tag k="addr:country" v="CH"/>
    <tag k="addr:housenumber" v="15"/>
    <tag k="addr:postcode" v="8164"/>
    <tag k="addr:street" v="Brunnwisestrasse"/>
    <tag k="building" v="yes"/>
  </way>
  <way id="78578525" version="1" timestamp="2010-09-22T21:31:53Z" uid="49111" user="Markus B" changeset="5849507">
    <nd ref="921928752"/>
    <nd ref="921928863"/>
    <nd ref="921928554"/>
    <nd ref="921928378"/>
    <nd ref="921929497"/>
    <nd ref="921928973"/>
    <nd ref="921928752"/>
    <tag k="building" v="yes"/>
  </way>
  <way id="78578526" version="1" timestamp="2010-09-22T21:31:53Z" uid="49111" user="Markus B" changeset="5849507">
    <nd ref="921929280"/>
    <nd ref="921929423"/>
    <nd ref="921929049"/>
    <nd ref="921928910"/>
    <nd ref="921928601"/>
    <nd ref="921929599"/>
    <nd ref="921929205"/>
    <nd ref="921929014"/>
    <nd ref="921928709"/>
    <nd ref="921929770"/>
    <nd ref="921929280"/>
    <tag k="building" v="yes"/>
  </way>
  <way id="78578669" version="1" timestamp="2010-09-22T21:33:45Z" uid="6269" user="Mueck" changeset="5849552">
    <nd ref="300383252"/>
    <nd ref="300383253"/>
    <nd ref="300383254"/>
    <nd ref="300383255"/>
    <nd ref="300383256"/>
    <nd ref="300383257"/>
    <nd ref="300383258"/>
    <nd ref="300383259"/>
    <nd ref="300383260"/>
    <nd ref="300383261"/>
    <nd ref="60678511"/>
    <tag k="highway" v="track"/>
    <tag k="tracktype" v="grade1"/>
  </way>
  <way id="78578669" version="2" timestamp="2010-09-22T21:35:05Z" uid="6269" user="Mueck" changeset="5849552">
    <nd ref="300383252"/>
    <nd ref="300383253"/>
    <nd ref="300383254"/>
    <nd ref="300383255"/>
    <nd ref="300383256"/>
    <tag k="highway" v="track"/>
    <tag k="tracktype" v="grade1"/>
  </way>
  <way id="78578669" version="3" timestamp="2010-09-22T21:35:11Z" uid="6269" user="Mueck" changeset="5849552">
    <nd ref="300383252"/>
    <nd ref="300383253"/>
    <nd ref="300383254"/>
    <nd ref="300383255"/>
    <nd ref="300383256"/>
    <tag k="highway" v="track"/>
    <tag k="tracktype" v="grade4"/>
  </way>
  <way id="78578780" version="1" timestamp="2010-09-22T21:34:32Z" uid="6269" user="Mueck" changeset="5849552">
    <nd ref="300383252"/>
    <nd ref="921937213"/>
    <nd ref="921937219"/>
    <nd ref="921937226"/>
    <nd ref="921937235"/>
    <nd ref="921937240"/>
    <nd ref="921937245"/>
    <nd ref="921937250"/>
    <nd ref="308647198"/>
  </way>
  <way id="78578780" version="2" timestamp="2010-09-22T21:34:34Z" uid="6269" user="Mueck" changeset="5849552">
    <nd ref="300383252"/>
    <nd ref="921937213"/>
    <nd ref="921937219"/>
    <nd ref="921937226"/>
    <nd ref="921937235"/>
    <nd ref="921937240"/>
    <nd ref="921937245"/>
    <nd ref="921937250"/>
    <nd ref="308647198"/>
    <nd ref="308647194"/>
    <tag k="fixme" v="yes"/>
    <tag k="highway" v="track"/>
    <tag k="tracktype" v="grade1"/>
  </way>
  <way id="78578780" version="3" timestamp="2010-09-22T21:34:58Z" uid="6269" user="Mueck" changeset="5849552">
    <nd ref="300383252"/>
    <nd ref="921937213"/>
    <nd ref="921937219"/>
    <nd ref="921937226"/>
    <nd ref="921937235"/>
    <nd ref="921937240"/>
    <nd ref="921937245"/>
    <nd ref="921937250"/>
    <nd ref="308647198"/>
    <nd ref="308647194"/>
    <tag k="fixme" v="Verlauf nur geschätzt"/>
    <tag k="highway" v="track"/>
    <tag k="tracktype" v="grade2"/>
  </way>
  <way id="78578780" version="4" timestamp="2011-02-10T21:47:33Z" uid="179581" user="Geofreund1" changeset="7250082">
    <nd ref="300383252"/>
    <nd ref="921937213"/>
    <nd ref="921937219"/>
    <nd ref="921937226"/>
    <nd ref="921937235"/>
    <nd ref="921937240"/>
    <nd ref="921937245"/>
    <nd ref="921937250"/>
    <nd ref="308647198"/>
    <nd ref="308647194"/>
    <tag k="highway" v="track"/>
    <tag k="tracktype" v="grade2"/>
  </way>
  <way id="78578881" version="1" timestamp="2010-09-22T21:35:04Z" uid="6269" user="Mueck" changeset="5849552">
    <nd ref="300383256"/>
    <nd ref="300383257"/>
    <nd ref="300383258"/>
    <nd ref="300383259"/>
    <nd ref="300383260"/>
    <nd ref="300383261"/>
    <nd ref="60678511"/>
    <tag k="highway" v="track"/>
    <tag k="tracktype" v="grade1"/>
  </way>
  <way id="78578881" version="2" timestamp="2010-09-22T21:35:45Z" uid="6269" user="Mueck" changeset="5849552">
    <nd ref="300383256"/>
    <nd ref="300383257"/>
    <nd ref="300383258"/>
    <nd ref="300383259"/>
    <nd ref="300383260"/>
    <nd ref="300383261"/>
    <nd ref="60678511"/>
    <tag k="highway" v="track"/>
    <tag k="tracktype" v="grade5"/>
  </way>
</osm>
