<?xml version='1.0' encoding='UTF-8'?>
<osm version="0.6" generator="libosmium/2.20.0">
  <way id="7896308" version="1" timestamp="2007-09-23T02:55:28Z" uid="7617" user="Franc" changeset="498457">
    <nd ref="58100146"/>
    <nd ref="58100153"/>
    <nd ref="58148475"/>
    <nd ref="58100124"/>
    <tag k="created_by" v="JOSM"/>
    <tag k="highway" v="residential"/>
    <tag k="name" v="Mascot Drive"/>
    <tag k="source" v="survey"/>
  </way>
  <way id="7896308" version="2" timestamp="2009-12-28T00:51:15Z" uid="12203" user="brainwad" changeset="3468245">
    <nd ref="58100146"/>
    <nd ref="58100153"/>
    <nd ref="58148475"/>
    <nd ref="58100124"/>
    <tag k="highway" v="residential"/>
    <tag k="maxspeed" v="40"/>
    <tag k="name" v="Mascot Drive"/>
    <tag k="source" v="survey"/>
  </way>
  <way id="7896311" version="1" timestamp="2007-09-23T02:17:21Z" uid="7617" user="Franc" changeset="498457">
    <nd ref="58100170"/>
    <nd ref="58100183"/>
    <nd ref="58100200"/>
    <tag k="created_by" v="JOSM"/>
    <tag k="highway" v="residential"/>
    <tag k="source" v="Yahoo Imagery"/>
  </way>
  <way id="7896311" version="2" timestamp="2007-11-20T03:19:24Z" uid="7617" user="Franc" changeset="578612">
    <nd ref="58100170"/>
    <nd ref="58100183"/>
    <nd ref="58100200"/>
    <tag k="created_by" v="JOSM"/>
    <tag k="highway" v="residential"/>
    <tag k="name" v="Mascot Drive"/>
    <tag k="source" v="Yahoo Imagery"/>
    <tag k="source:name" v="survey"/>
  </way>
  <way id="7896311" version="3" timestamp="2007-12-29T02:28:06Z" uid="7617" user="Franc" changeset="465245">
    <nd ref="58100170"/>
    <nd ref="58100183"/>
    <nd ref="58100200"/>
    <tag k="created_by" v="JOSM"/>
    <tag k="highway" v="residential"/>
    <tag k="name" v="Mascot Drive"/>
    <tag k="source" v="survey"/>
  </way>
  <way id="7896311" version="4" timestamp="2009-12-28T00:51:11Z" uid="12203" user="brainwad" changeset="3468245">
    <nd ref="58100170"/>
    <nd ref="58100183"/>
    <nd ref="58100200"/>
    <tag k="highway" v="residential"/>
    <tag k="maxspeed" v="40"/>
    <tag k="name" v="Mascot Drive"/>
    <tag k="source" v="survey"/>
  </way>
  <way id="7896314" version="1" timestamp="2007-09-23T02:17:22Z" uid="7617" user="Franc" changeset="498457">
    <nd ref="58100146"/>
    <nd ref="58100170"/>
    <tag k="created_by" v="JOSM"/>
    <tag k="highway" v="footway"/>
    <tag k="source" v="survey"/>
  </way>
  <way id="7896318" version="1" timestamp="2007-09-23T02:41:54Z" uid="7617" user="Franc" changeset="498457">
    <nd ref="18319579"/>
    <nd ref="58100245"/>
    <nd ref="58100215"/>
    <nd ref="58100237"/>
    <nd ref="26359867"/>
    <nd ref="58100384"/>
    <nd ref="58130201"/>
    <nd ref="58100405"/>
    <tag k="created_by" v="JOSM"/>
    <tag k="highway" v="residential"/>
    <tag k="name" v="Barber Avenue"/>
    <tag k="source" v="survey"/>
  </way>
  <way id="7896318" version="2" timestamp="2009-12-28T00:51:11Z" uid="12203" user="brainwad" changeset="3468245">
    <nd ref="18319579"/>
    <nd ref="58100245"/>
    <nd ref="58100215"/>
    <nd ref="58100237"/>
    <nd ref="26359867"/>
    <nd ref="58100384"/>
    <nd ref="58130201"/>
    <nd ref="58100405"/>
    <tag k="highway" v="residential"/>
    <tag k="maxspeed" v="40"/>
    <tag k="name" v="Barber Avenue"/>
    <tag k="source" v="survey"/>
  </way>
  <way id="7896318" version="3" timestamp="2010-07-27T11:52:38Z" uid="237525" user="aharvey" changeset="5328652">
    <nd ref="18319579"/>
    <nd ref="835351466"/>
    <nd ref="58100245"/>
    <nd ref="58100215"/>
    <nd ref="58100237"/>
    <nd ref="26359867"/>
    <nd ref="835351465"/>
    <nd ref="58100384"/>
    <nd ref="835351467"/>
    <nd ref="58130201"/>
    <nd ref="58100405"/>
    <tag k="highway" v="residential"/>
    <tag k="maxspeed" v="40"/>
    <tag k="name" v="Barber Avenue"/>
    <tag k="source" v="survey"/>
  </way>
  <way id="7896320" version="1" timestamp="2007-09-23T02:17:24Z" uid="7617" user="Franc" changeset="498457">
    <nd ref="58100265"/>
    <nd ref="58100274"/>
    <nd ref="58100293"/>
    <nd ref="58100306"/>
    <nd ref="58100329"/>
    <nd ref="58100332"/>
    <nd ref="58100265"/>
    <tag k="created_by" v="JOSM"/>
    <tag k="landuse" v="commercial"/>
    <tag k="layer" v="-1"/>
    <tag k="name" v="East Lakes Shopping Centre"/>
  </way>
  <way id="7896320" version="2" timestamp="2009-11-29T04:43:17Z" uid="12203" user="brainwad" changeset="3242205">
    <nd ref="58100265"/>
    <nd ref="58100274"/>
    <nd ref="58100293"/>
    <nd ref="58100306"/>
    <nd ref="58100329"/>
    <nd ref="58100332"/>
    <nd ref="58100265"/>
    <tag k="landuse" v="commercial"/>
    <tag k="layer" v="-1"/>
    <tag k="name" v="Eastlakes Shopping Centre"/>
  </way>
  <way id="7896320" version="3" timestamp="2010-09-19T09:30:37Z" uid="7617" user="Franc" changeset="5817899">
    <nd ref="58100265"/>
    <nd ref="918045007"/>
    <nd ref="918045437"/>
    <nd ref="918044818"/>
    <nd ref="58100274"/>
    <nd ref="58100293"/>
    <nd ref="58100306"/>
    <nd ref="58100329"/>
    <nd ref="58100332"/>
    <nd ref="58100265"/>
    <tag k="landuse" v="commercial"/>
    <tag k="layer" v="-1"/>
    <tag k="name" v="Eastlakes Shopping Centre"/>
  </way>
  <way id="7896324" version="1" timestamp="2007-09-23T02:17:25Z" uid="7617" user="Franc" changeset="498457">
    <nd ref="58100333"/>
    <nd ref="58100335"/>
    <nd ref="58100343"/>
    <nd ref="58100362"/>
    <nd ref="58100333"/>
    <tag k="created_by" v="JOSM"/>
    <tag k="layer" v="-1"/>
    <tag k="leisure" v="park"/>
  </way>
  <way id="7896324" version="2" timestamp="2007-11-20T05:22:50Z" uid="7617" user="Franc" changeset="578612">
    <nd ref="58100333"/>
    <nd ref="58100335"/>
    <nd ref="58100343"/>
    <nd ref="58100362"/>
    <nd ref="58100333"/>
    <tag k="created_by" v="JOSM"/>
    <tag k="layer" v="-1"/>
    <tag k="leisure" v="park"/>
    <tag k="name" v="Bridget Tight Reserve"/>
    <tag k="source:name" v="survey"/>
  </way>
  <way id="7896324" version="3" timestamp="2010-09-19T09:31:15Z" uid="7617" user="Franc" changeset="5817899">
    <nd ref="58100333"/>
    <nd ref="58100335"/>
    <nd ref="58100343"/>
    <nd ref="918045226"/>
    <nd ref="58100362"/>
    <nd ref="58100333"/>
    <tag k="leisure" v="park"/>
    <tag k="name" v="Bridget Tight Reserve"/>
    <tag k="source:name" v="survey"/>
  </way>
  <way id="7896326" version="1" timestamp="2007-09-23T02:17:25Z" uid="7617" user="Franc" changeset="498457">
    <nd ref="58100124"/>
    <nd ref="58100423"/>
    <nd ref="58100511"/>
    <nd ref="58100447"/>
    <nd ref="58100491"/>
    <nd ref="58100405"/>
    <nd ref="58100465"/>
    <tag k="created_by" v="JOSM"/>
    <tag k="highway" v="residential"/>
    <tag k="name" v="Mascot Drive"/>
    <tag k="source" v="survey"/>
  </way>
  <way id="7896326" version="2" timestamp="2009-12-28T00:51:11Z" uid="12203" user="brainwad" changeset="3468245">
    <nd ref="58100124"/>
    <nd ref="58100423"/>
    <nd ref="58100511"/>
    <nd ref="58100447"/>
    <nd ref="58100491"/>
    <nd ref="58100405"/>
    <nd ref="58100465"/>
    <tag k="highway" v="residential"/>
    <tag k="maxspeed" v="40"/>
    <tag k="name" v="Mascot Drive"/>
    <tag k="source" v="survey"/>
  </way>
  <way id="7896330" version="1" timestamp="2007-09-23T02:17:26Z" uid="7617" user="Franc" changeset="498457">
    <nd ref="58100523"/>
    <nd ref="58100549"/>
    <tag k="created_by" v="JOSM"/>
    <tag k="highway" v="residential"/>
    <tag k="source" v="Yahoo Imagery"/>
  </way>
  <way id="7896330" version="2" timestamp="2010-07-07T21:43:24Z" uid="74617" user="JohnSmith" changeset="5161069">
    <nd ref="58100523"/>
    <nd ref="58100549"/>
    <tag k="highway" v="residential"/>
    <tag k="maxspeed" v="50"/>
    <tag k="maxspeed:source" v="default residential speed limit in Australia"/>
    <tag k="source" v="Yahoo Imagery"/>
  </way>
  <way id="7896330" version="3" timestamp="2010-09-19T09:31:09Z" uid="7617" user="Franc" changeset="5817899">
    <nd ref="58100523"/>
    <nd ref="58100549"/>
    <tag k="highway" v="service"/>
    <tag k="service" v="parking_aisle"/>
    <tag k="source" v="nearmap"/>
  </way>
  <way id="7896332" version="1" timestamp="2007-09-23T02:17:27Z" uid="7617" user="Franc" changeset="498457">
    <nd ref="58100549"/>
    <nd ref="58100572"/>
    <nd ref="58100447"/>
    <tag k="created_by" v="JOSM"/>
    <tag k="highway" v="footway"/>
    <tag k="source" v="survey"/>
  </way>
  <way id="7896332" version="2" timestamp="2010-09-19T09:31:26Z" uid="7617" user="Franc" changeset="5817899">
    <nd ref="58100549"/>
    <nd ref="918044864"/>
    <nd ref="58100572"/>
    <nd ref="58100447"/>
    <tag k="highway" v="footway"/>
    <tag k="source" v="survey"/>
  </way>
  <way id="7896335" version="1" timestamp="2007-09-23T02:17:27Z" uid="7617" user="Franc" changeset="498457">
    <nd ref="58100619"/>
    <nd ref="58100595"/>
    <tag k="created_by" v="JOSM"/>
    <tag k="highway" v="service"/>
    <tag k="source" v="survey"/>
  </way>
  <way id="7896335" version="2" timestamp="2010-11-20T22:11:32Z" uid="7617" user="Franc" changeset="6418560">
    <nd ref="58100619"/>
    <nd ref="58100595"/>
    <tag k="fixme:sign:no" v="2010-11-21"/>
    <tag k="highway" v="service"/>
    <tag k="source" v="survey"/>
  </way>
  <way id="7896339" version="1" timestamp="2007-09-23T02:17:28Z" uid="7617" user="Franc" changeset="498457">
    <nd ref="58100646"/>
    <nd ref="58100668"/>
    <nd ref="58100692"/>
    <nd ref="58100707"/>
    <nd ref="58100646"/>
    <tag k="created_by" v="JOSM"/>
    <tag k="layer" v="-1"/>
    <tag k="leisure" v="pitch"/>
    <tag k="source" v="Yahoo Imagery"/>
    <tag k="sport" v="bowls"/>
  </way>
  <way id="7896341" version="1" timestamp="2007-09-23T02:17:29Z" uid="7617" user="Franc" changeset="498457">
    <nd ref="58100720"/>
    <nd ref="26359941"/>
    <tag k="created_by" v="JOSM"/>
    <tag k="highway" v="residential"/>
    <tag k="name" v="Picton Street"/>
    <tag k="source" v="Yahoo Imagery"/>
    <tag k="source:name" v="survey"/>
  </way>
  <way id="7896341" version="2" timestamp="2010-07-07T21:45:04Z" uid="74617" user="JohnSmith" changeset="5161069">
    <nd ref="58100720"/>
    <nd ref="26359941"/>
    <tag k="highway" v="residential"/>
    <tag k="maxspeed" v="50"/>
    <tag k="maxspeed:source" v="default residential speed limit in Australia"/>
    <tag k="name" v="Picton Street"/>
    <tag k="source" v="Yahoo Imagery"/>
    <tag k="source:name" v="survey"/>
  </way>
  <way id="7896341" version="3" timestamp="2012-01-15T06:31:45Z" uid="147510" user="woodpeck_fixbot" changeset="10394821">
    <nd ref="58100720"/>
    <nd ref="26359941"/>
    <tag k="highway" v="residential"/>
    <tag k="name" v="Picton Street"/>
    <tag k="source" v="Yahoo Imagery"/>
    <tag k="source:name" v="survey"/>
  </way>
  <way id="7896342" version="1" timestamp="2007-09-23T02:17:30Z" uid="7617" user="Franc" changeset="498457">
    <nd ref="46045508"/>
    <nd ref="26360065"/>
    <tag k="created_by" v="JOSM"/>
    <tag k="highway" v="footway"/>
  </way>
  <way id="7896345" version="1" timestamp="2007-09-23T02:17:30Z" uid="7617" user="Franc" changeset="498457">
    <nd ref="58100770"/>
    <nd ref="58100792"/>
    <nd ref="58100728"/>
    <nd ref="58100746"/>
    <nd ref="58100770"/>
    <tag k="created_by" v="JOSM"/>
    <tag k="layer" v="-2"/>
    <tag k="name" v="L&apos;Estrange Park"/>
    <tag k="source" v="Yahoo Imagery"/>
  </way>
  <way id="7896345" version="2" timestamp="2008-02-15T00:50:20Z" uid="7617" user="Franc" changeset="122829">
    <nd ref="58100770"/>
    <nd ref="58100792"/>
    <nd ref="58100728"/>
    <nd ref="58100746"/>
    <nd ref="58100770"/>
    <tag k="created_by" v="JOSM"/>
    <tag k="name" v="L&apos;Estrange Park"/>
    <tag k="source" v="Yahoo Imagery"/>
  </way>
  <way id="7896345" version="3" timestamp="2008-05-19T12:01:33Z" uid="17425" user="jackb" changeset="481178">
    <nd ref="58100770"/>
    <nd ref="58100792"/>
    <nd ref="58100728"/>
    <nd ref="58100746"/>
    <nd ref="58100770"/>
    <tag k="created_by" v="JOSM"/>
    <tag k="leisure" v="park"/>
    <tag k="name" v="L&apos;Estrange Park"/>
    <tag k="source" v="Yahoo Imagery"/>
  </way>
  <way id="7896366" version="2" timestamp="2009-07-28T06:10:31Z" uid="38528" user="acrosscanadatrails" changeset="1961723">
    <nd ref="26823702"/>
    <nd ref="449544726"/>
    <nd ref="26823700"/>
    <nd ref="26824095"/>
    <nd ref="26823698"/>
    <tag k="highway" v="residential"/>
    <tag k="name" v="Blanshard Street"/>
  </way>
  <way id="7896366" version="3" timestamp="2010-05-29T20:15:38Z" uid="293149" user="Homsar123" changeset="4846181">
    <nd ref="26823702"/>
    <nd ref="449544726"/>
    <nd ref="26823700"/>
    <nd ref="26824095"/>
    <nd ref="26823698"/>
    <tag k="highway" v="residential"/>
    <tag k="name" v="Blanshard Street"/>
    <tag k="oneway" v="yes"/>
    <tag k="ref" v="17"/>
  </way>
  <way id="7896366" version="4" timestamp="2010-05-30T06:23:47Z" uid="293149" user="Homsar123" changeset="4848793">
    <nd ref="26823702"/>
    <nd ref="449544726"/>
    <nd ref="26823700"/>
    <nd ref="26824095"/>
    <nd ref="26823698"/>
    <tag k="highway" v="residential"/>
    <tag k="name" v="Blanshard Street"/>
    <tag k="ref" v="17"/>
  </way>
  <way id="7896366" version="5" timestamp="2010-05-30T08:59:54Z" uid="293149" user="Homsar123" changeset="4849620">
    <nd ref="26823702"/>
    <nd ref="449544726"/>
    <tag k="highway" v="residential"/>
    <tag k="name" v="Blanshard Street"/>
    <tag k="oneway" v="yesy"/>
    <tag k="ref" v="17"/>
  </way>
  <way id="7896366" version="6" timestamp="2010-06-03T07:03:55Z" uid="293149" user="Homsar123" changeset="4889769">
    <nd ref="26823702"/>
    <nd ref="449544726"/>
    <nd ref="758748258"/>
    <tag k="highway" v="residential"/>
    <tag k="name" v="Blanshard Street"/>
    <tag k="oneway" v="yesy"/>
    <tag k="ref" v="17"/>
  </way>
  <way id="7896366" version="7" timestamp="2010-09-25T22:33:07Z" uid="293149" user="Homsar123" changeset="5875042">
    <nd ref="26823702"/>
    <nd ref="449544726"/>
    <nd ref="758748258"/>
    <tag k="highway" v="residential"/>
    <tag k="name" v="Blanshard Street"/>
    <tag k="oneway" v="yes"/>
    <tag k="ref" v="17"/>
  </way>
  <way id="7896366" version="8" timestamp="2010-11-26T17:47:22Z" uid="307202" user="alester" changeset="6463717"/>
  <way id="7896374" version="2" timestamp="2009-06-29T21:17:05Z" uid="38528" user="acrosscanadatrails" changeset="1682773">
    <nd ref="25883536"/>
    <nd ref="25883538"/>
    <nd ref="430958158"/>
    <nd ref="430958177"/>
    <nd ref="25883557"/>
    <nd ref="430958201"/>
    <nd ref="25883558"/>
    <tag k="created_by" v="JOSM"/>
    <tag k="highway" v="residential"/>
    <tag k="name" v="Heywood Avenue"/>
  </way>
  <way id="7896374" version="3" timestamp="2010-11-27T21:29:50Z" uid="307202" user="alester" changeset="6473531">
    <nd ref="25883536"/>
    <nd ref="25883538"/>
    <nd ref="430958177"/>
    <nd ref="25883557"/>
    <nd ref="430958201"/>
    <nd ref="25883558"/>
    <tag k="highway" v="residential"/>
    <tag k="name" v="Heywood Avenue"/>
  </way>
  <way id="7896379" version="5" timestamp="2009-06-29T21:39:11Z" uid="38528" user="acrosscanadatrails" changeset="1682901">
    <nd ref="26824095"/>
    <nd ref="430962311"/>
    <nd ref="26824098"/>
    <tag k="created_by" v="Potlatch 0.10b"/>
    <tag k="highway" v="residential"/>
    <tag k="name" v="Academy Close"/>
  </way>
  <way id="7896379" version="6" timestamp="2010-05-20T04:32:57Z" uid="24300" user="Paul Ramsey" changeset="4753773">
    <nd ref="26824095"/>
    <nd ref="740363633"/>
    <nd ref="740363634"/>
    <nd ref="740363635"/>
    <nd ref="740363637"/>
    <nd ref="740363630"/>
    <tag k="foot" v="yes"/>
    <tag k="highway" v="footway"/>
    <tag k="name" v="Academy Close"/>
  </way>
  <way id="7896379" version="7" timestamp="2011-11-28T19:14:36Z" uid="307202" user="alester" changeset="9981037">
    <nd ref="26824095"/>
    <nd ref="740363633"/>
    <tag k="highway" v="residential"/>
    <tag k="name" v="Academy Close"/>
  </way>
</osm>
