<?xml version='1.0' encoding='UTF-8'?>
<osm version="0.6" generator="libosmium/2.20.0">
  <way id="79126720" version="1" timestamp="2010-09-24T20:09:22Z" uid="33382" user="de_muur" changeset="5866108">
    <nd ref="250670385"/>
    <nd ref="301657657"/>
    <nd ref="357458913"/>
    <nd ref="30421523"/>
    <nd ref="30421524"/>
    <nd ref="364780141"/>
    <nd ref="30440815"/>
    <nd ref="30440816"/>
    <nd ref="30421525"/>
    <tag k="cycleway" v="track"/>
    <tag k="highway" v="secondary"/>
    <tag k="maxspeed" v="50"/>
    <tag k="name" v="Quelkhorner Landstraße"/>
    <tag k="ref" v="L 154"/>
    <tag k="surface" v="paved"/>
  </way>
  <way id="79126720" version="2" timestamp="2010-09-25T07:57:48Z" uid="33382" user="de_muur" changeset="5868653">
    <nd ref="250670385"/>
    <nd ref="301657657"/>
    <nd ref="357458913"/>
    <tag k="cycleway" v="track"/>
    <tag k="highway" v="secondary"/>
    <tag k="maxspeed" v="50"/>
    <tag k="name" v="Quelkhorner Landstraße"/>
    <tag k="ref" v="L 154"/>
    <tag k="surface" v="paved"/>
  </way>
  <way id="79126946" version="3" timestamp="2010-10-07T17:11:29Z" uid="9581" user="Lobelt" changeset="5979695">
    <nd ref="51206464"/>
    <nd ref="51206465"/>
    <nd ref="51206467"/>
    <nd ref="51206469"/>
    <nd ref="51206471"/>
    <nd ref="51206473"/>
    <nd ref="51206475"/>
    <nd ref="51206477"/>
    <nd ref="51206480"/>
    <nd ref="51206482"/>
    <nd ref="51206484"/>
    <nd ref="51206485"/>
    <nd ref="51206488"/>
    <nd ref="51206491"/>
    <nd ref="51206493"/>
    <nd ref="51206495"/>
    <nd ref="51206497"/>
    <nd ref="51206499"/>
    <nd ref="51206501"/>
    <nd ref="51206504"/>
    <nd ref="51206507"/>
    <nd ref="51206509"/>
    <tag k="highway" v="tertiary"/>
    <tag k="maxspeed" v="50"/>
    <tag k="name" v="Dorfstraße"/>
    <tag k="ref" v="K124"/>
    <tag k="surface" v="asphalt"/>
    <tag k="width" v="4"/>
  </way>
  <way id="79126946" version="4" timestamp="2011-01-05T23:19:15Z" uid="133974" user="refbotDE" changeset="6877518">
    <nd ref="51206464"/>
    <nd ref="51206465"/>
    <nd ref="51206467"/>
    <nd ref="51206469"/>
    <nd ref="51206471"/>
    <nd ref="51206473"/>
    <nd ref="51206475"/>
    <nd ref="51206477"/>
    <nd ref="51206480"/>
    <nd ref="51206482"/>
    <nd ref="51206484"/>
    <nd ref="51206485"/>
    <nd ref="51206488"/>
    <nd ref="51206491"/>
    <nd ref="51206493"/>
    <nd ref="51206495"/>
    <nd ref="51206497"/>
    <nd ref="51206499"/>
    <nd ref="51206501"/>
    <nd ref="51206504"/>
    <nd ref="51206507"/>
    <nd ref="51206509"/>
    <tag k="highway" v="tertiary"/>
    <tag k="maxspeed" v="50"/>
    <tag k="name" v="Dorfstraße"/>
    <tag k="ref" v="K 124"/>
    <tag k="surface" v="asphalt"/>
    <tag k="width" v="4"/>
  </way>
  <way id="79126946" version="5" timestamp="2011-01-24T15:47:03Z" uid="212079" user="atz" changeset="7074384">
    <nd ref="51206464"/>
    <nd ref="51206465"/>
    <nd ref="51206467"/>
    <nd ref="51206469"/>
    <nd ref="51206471"/>
    <nd ref="51206473"/>
    <nd ref="51206475"/>
    <nd ref="51206477"/>
    <nd ref="51206480"/>
    <nd ref="51206482"/>
    <nd ref="51206484"/>
    <nd ref="51206485"/>
    <nd ref="51206488"/>
    <nd ref="51206491"/>
    <nd ref="51206493"/>
    <nd ref="51206495"/>
    <nd ref="51206497"/>
    <nd ref="51206499"/>
    <nd ref="1118814014"/>
    <nd ref="51206501"/>
    <nd ref="51206504"/>
    <nd ref="51206507"/>
    <nd ref="51206509"/>
    <tag k="highway" v="tertiary"/>
    <tag k="maxspeed" v="50"/>
    <tag k="name" v="Dorfstraße"/>
    <tag k="ref" v="K 124"/>
    <tag k="surface" v="asphalt"/>
    <tag k="width" v="4"/>
  </way>
  <way id="79126946" version="6" timestamp="2012-01-06T17:44:36Z" uid="125832" user="tijuca" changeset="10313917"/>
</osm>
