<?xml version='1.0' encoding='UTF-8'?>
<osm version="0.6" generator="libosmium/2.20.0">
  <way id="79394436" version="2" timestamp="2010-10-07T17:11:09Z" uid="9581" user="Lobelt" changeset="5979695">
    <nd ref="51205959"/>
    <nd ref="51205961"/>
    <nd ref="51205964"/>
    <tag k="highway" v="secondary"/>
    <tag k="lanes" v="1"/>
    <tag k="maxspeed" v="70"/>
    <tag k="ref" v="L 1076"/>
  </way>
  <way id="79394436" version="3" timestamp="2010-11-30T21:30:08Z" uid="125832" user="tijuca" changeset="6498125">
    <nd ref="51205959"/>
    <nd ref="51205961"/>
    <nd ref="51205964"/>
    <tag k="highway" v="secondary"/>
    <tag k="maxspeed" v="70"/>
    <tag k="ref" v="L 1076"/>
  </way>
  <way id="79394436" version="4" timestamp="2011-01-10T15:59:05Z" uid="212079" user="atz" changeset="6927668">
    <nd ref="51205959"/>
    <nd ref="51205961"/>
    <tag k="highway" v="secondary"/>
    <tag k="maxspeed" v="70"/>
    <tag k="ref" v="L 1076"/>
  </way>
  <way id="79394436" version="5" timestamp="2012-01-21T16:15:09Z" uid="212079" user="atz" changeset="10457036">
    <nd ref="1600207056"/>
    <nd ref="1600207055"/>
    <tag k="highway" v="secondary"/>
    <tag k="maxspeed" v="70"/>
    <tag k="ref" v="L 1076"/>
  </way>
  <way id="79394436" version="6" timestamp="2012-03-01T18:33:26Z" uid="212079" user="atz" changeset="10840801">
    <nd ref="1600207055"/>
    <nd ref="1600207056"/>
    <tag k="highway" v="secondary"/>
    <tag k="maxspeed" v="70"/>
    <tag k="ref" v="L 1076"/>
  </way>
  <way id="79394438" version="2" timestamp="2010-10-07T17:11:34Z" uid="9581" user="Lobelt" changeset="5979695">
    <nd ref="51205964"/>
    <nd ref="51205965"/>
    <nd ref="51205967"/>
    <nd ref="51205970"/>
    <nd ref="51205972"/>
    <nd ref="51205974"/>
    <nd ref="51205975"/>
    <nd ref="122203083"/>
    <nd ref="51205979"/>
    <nd ref="51205980"/>
    <nd ref="51205982"/>
    <nd ref="51194406"/>
    <nd ref="51194378"/>
    <nd ref="51194376"/>
    <nd ref="51205984"/>
    <tag k="highway" v="secondary"/>
    <tag k="lanes" v="1"/>
    <tag k="maxspeed" v="100"/>
    <tag k="ref" v="L 1076"/>
  </way>
  <way id="79394438" version="3" timestamp="2010-10-20T16:31:39Z" uid="212079" user="atz" changeset="6116724">
    <nd ref="51205964"/>
    <nd ref="51205965"/>
    <nd ref="51205967"/>
    <nd ref="51205970"/>
    <nd ref="51205972"/>
    <nd ref="51205974"/>
    <nd ref="51205975"/>
    <nd ref="122203083"/>
    <nd ref="51205979"/>
    <nd ref="51205980"/>
    <nd ref="51205982"/>
    <tag k="highway" v="secondary"/>
    <tag k="lanes" v="1"/>
    <tag k="maxspeed" v="100"/>
    <tag k="ref" v="L 1076"/>
  </way>
  <way id="79394438" version="4" timestamp="2010-11-30T21:29:36Z" uid="125832" user="tijuca" changeset="6498125">
    <nd ref="51205964"/>
    <nd ref="51205965"/>
    <nd ref="51205967"/>
    <nd ref="51205970"/>
    <nd ref="51205972"/>
    <nd ref="51205974"/>
    <nd ref="51205975"/>
    <nd ref="122203083"/>
    <nd ref="51205979"/>
    <nd ref="51205980"/>
    <nd ref="51205982"/>
    <tag k="highway" v="secondary"/>
    <tag k="maxspeed" v="100"/>
    <tag k="ref" v="L 1076"/>
  </way>
  <way id="79394438" version="5" timestamp="2011-01-04T14:13:39Z" uid="212079" user="atz" changeset="6861022">
    <nd ref="51205964"/>
    <nd ref="51205965"/>
    <nd ref="51205967"/>
    <nd ref="1082107765"/>
    <nd ref="51205970"/>
    <nd ref="51205972"/>
    <nd ref="51205974"/>
    <nd ref="51205975"/>
    <nd ref="122203083"/>
    <nd ref="51205979"/>
    <nd ref="51205980"/>
    <nd ref="51205982"/>
    <tag k="highway" v="secondary"/>
    <tag k="maxspeed" v="100"/>
    <tag k="ref" v="L 1076"/>
  </way>
  <way id="79394438" version="6" timestamp="2011-05-18T13:12:23Z" uid="451776" user="strich" changeset="8180974"/>
  <way id="79394438" version="7" timestamp="2011-06-01T20:20:49Z" uid="125832" user="tijuca" changeset="8313799">
    <nd ref="51205964"/>
    <nd ref="51205965"/>
    <nd ref="51205967"/>
    <nd ref="1082107765"/>
    <nd ref="51205970"/>
    <nd ref="51205972"/>
    <nd ref="51205974"/>
    <nd ref="51205975"/>
    <nd ref="122203083"/>
    <nd ref="51205979"/>
    <nd ref="51205980"/>
    <nd ref="51205982"/>
    <tag k="highway" v="secondary"/>
    <tag k="history" v="Retrieved from v5"/>
    <tag k="maxspeed" v="100"/>
    <tag k="ref" v="L 1076"/>
  </way>
  <way id="79394438" version="8" timestamp="2011-06-01T20:38:17Z" uid="125832" user="tijuca" changeset="8313978"/>
  <way id="79394439" version="2" timestamp="2010-10-07T17:11:19Z" uid="9581" user="Lobelt" changeset="5979695">
    <nd ref="330193930"/>
    <nd ref="81616423"/>
    <tag k="highway" v="residential"/>
    <tag k="name" v="Werner-Seelenbinder-Straße"/>
    <tag k="surface" v="asphalt"/>
    <tag k="width" v="5"/>
  </way>
  <way id="79394439" version="3" timestamp="2011-01-01T20:11:05Z" uid="212079" user="atz" changeset="6831836">
    <nd ref="330193930"/>
    <nd ref="1077367684"/>
    <nd ref="1077367722"/>
    <nd ref="81616423"/>
    <tag k="highway" v="residential"/>
    <tag k="name" v="Werner-Seelenbinder-Straße"/>
    <tag k="surface" v="asphalt"/>
    <tag k="width" v="5"/>
  </way>
  <way id="79394439" version="4" timestamp="2012-01-30T17:49:21Z" uid="125832" user="tijuca" changeset="10542017">
    <nd ref="330193930"/>
    <nd ref="1077367684"/>
    <nd ref="1077367722"/>
    <nd ref="1612030176"/>
    <tag k="highway" v="residential"/>
    <tag k="name" v="Werner-Seelenbinder-Straße"/>
    <tag k="surface" v="asphalt"/>
    <tag k="width" v="5"/>
  </way>
  <way id="79394440" version="2" timestamp="2010-10-09T18:09:07Z" uid="9581" user="Lobelt" changeset="5995663">
    <nd ref="330193937"/>
    <nd ref="81613804"/>
    <nd ref="81613806"/>
    <nd ref="81613809"/>
    <nd ref="81613811"/>
    <nd ref="81613813"/>
    <nd ref="81613819"/>
    <nd ref="81613820"/>
    <nd ref="330193948"/>
    <nd ref="81613821"/>
    <nd ref="81613822"/>
    <nd ref="81613823"/>
    <nd ref="926927575"/>
    <nd ref="926927475"/>
    <nd ref="81613840"/>
    <tag k="highway" v="residential"/>
    <tag k="name" v="Rudolf-Breitscheid-Straße"/>
    <tag k="surface" v="asphalt"/>
    <tag k="width" v="4"/>
  </way>
  <way id="79394440" version="3" timestamp="2010-10-18T19:36:08Z" uid="212079" user="atz" changeset="6086035">
    <nd ref="330193937"/>
    <nd ref="81613804"/>
    <nd ref="81613806"/>
    <nd ref="81613809"/>
    <nd ref="81613811"/>
    <nd ref="81613813"/>
    <nd ref="81613819"/>
    <nd ref="81613820"/>
    <nd ref="330193948"/>
    <nd ref="81613821"/>
    <nd ref="81613822"/>
    <nd ref="81613823"/>
    <nd ref="926927475"/>
    <nd ref="81613840"/>
    <tag k="highway" v="residential"/>
    <tag k="name" v="Rudolf-Breitscheid-Straße"/>
    <tag k="surface" v="asphalt"/>
    <tag k="width" v="4"/>
  </way>
  <way id="79394440" version="4" timestamp="2010-12-02T19:38:11Z" uid="212079" user="atz" changeset="6518484">
    <nd ref="330193937"/>
    <nd ref="81613804"/>
    <nd ref="81613806"/>
    <nd ref="81613809"/>
    <nd ref="81613811"/>
    <nd ref="81613813"/>
    <nd ref="81613819"/>
    <nd ref="81613820"/>
    <nd ref="330193948"/>
    <nd ref="81613821"/>
    <nd ref="81613822"/>
    <nd ref="81613823"/>
    <nd ref="1016431715"/>
    <tag k="highway" v="residential"/>
    <tag k="name" v="Rudolf-Breitscheid-Straße"/>
    <tag k="surface" v="asphalt"/>
    <tag k="width" v="4"/>
  </way>
  <way id="79394440" version="5" timestamp="2011-01-02T16:01:37Z" uid="212079" user="atz" changeset="6839801">
    <nd ref="330193937"/>
    <nd ref="81613804"/>
    <nd ref="81613806"/>
    <nd ref="81613809"/>
    <nd ref="81613811"/>
    <nd ref="81613813"/>
    <nd ref="81613819"/>
    <nd ref="81613820"/>
    <nd ref="330193948"/>
    <nd ref="81613821"/>
    <nd ref="81613822"/>
    <nd ref="81613823"/>
    <nd ref="1016431715"/>
    <tag k="highway" v="residential"/>
    <tag k="name" v="Rudolf-Breitscheid-Straße"/>
    <tag k="surface" v="asphalt"/>
    <tag k="width" v="4"/>
  </way>
  <way id="79394440" version="6" timestamp="2011-01-02T17:21:06Z" uid="212079" user="atz" changeset="6840782">
    <nd ref="330193937"/>
    <nd ref="81613804"/>
    <nd ref="81613806"/>
    <nd ref="81613809"/>
    <nd ref="81613811"/>
    <nd ref="81613813"/>
    <tag k="highway" v="residential"/>
    <tag k="name" v="Rudolf-Breitscheid-Straße"/>
    <tag k="surface" v="asphalt"/>
    <tag k="width" v="4"/>
  </way>
  <way id="79394441" version="2" timestamp="2010-10-07T17:11:10Z" uid="9581" user="Lobelt" changeset="5979695">
    <nd ref="290110945"/>
    <nd ref="619180835"/>
    <tag k="highway" v="residential"/>
    <tag k="name" v="Amselweg"/>
    <tag k="surface" v="cobblestone"/>
    <tag k="width" v="3"/>
  </way>
  <way id="79394587" version="2" timestamp="2010-11-20T19:45:05Z" uid="9581" user="Lobelt" changeset="6417384">
    <nd ref="14957244"/>
    <nd ref="996676098"/>
    <nd ref="14957243"/>
    <nd ref="14957245"/>
    <tag k="highway" v="tertiary"/>
    <tag k="name" v="Gronauer Straße"/>
    <tag k="ref" v="K 58"/>
  </way>
  <way id="79394587" version="3" timestamp="2012-02-26T11:00:56Z" uid="75608" user="LordCJ" changeset="10796572">
    <nd ref="14957244"/>
    <nd ref="1648342019"/>
    <nd ref="14957243"/>
    <nd ref="14957245"/>
    <tag k="highway" v="tertiary"/>
    <tag k="name" v="Gronauer Straße"/>
    <tag k="ref" v="K 58"/>
  </way>
  <way id="79394588" version="2" timestamp="2010-11-20T19:46:06Z" uid="9581" user="Lobelt" changeset="6417384">
    <nd ref="14957245"/>
    <nd ref="996675954"/>
    <nd ref="14957246"/>
    <nd ref="14957247"/>
    <nd ref="443894161"/>
    <nd ref="14957248"/>
    <nd ref="14957249"/>
    <nd ref="14957250"/>
    <nd ref="14957251"/>
    <nd ref="14957252"/>
    <nd ref="14957253"/>
    <nd ref="14957254"/>
    <nd ref="14957255"/>
    <nd ref="14957256"/>
    <nd ref="14957257"/>
    <nd ref="663073455"/>
    <nd ref="14957258"/>
    <nd ref="322644603"/>
    <tag k="highway" v="tertiary"/>
    <tag k="name" v="Gronauer Straße"/>
    <tag k="ref" v="K 58"/>
  </way>
  <way id="79394588" version="3" timestamp="2010-11-21T18:04:42Z" uid="156845" user="hpahlke" changeset="6425040">
    <nd ref="14957245"/>
    <nd ref="996675954"/>
    <nd ref="14957246"/>
    <nd ref="14957247"/>
    <nd ref="443894161"/>
    <nd ref="14957248"/>
    <nd ref="14957249"/>
    <nd ref="14957250"/>
    <nd ref="998216475"/>
    <nd ref="14957251"/>
    <nd ref="14957252"/>
    <nd ref="14957253"/>
    <nd ref="14957254"/>
    <nd ref="14957255"/>
    <nd ref="14957256"/>
    <nd ref="14957257"/>
    <nd ref="663073455"/>
    <nd ref="14957258"/>
    <nd ref="322644603"/>
    <tag k="highway" v="tertiary"/>
    <tag k="name" v="Gronauer Straße"/>
    <tag k="ref" v="K 58"/>
  </way>
  <way id="79394588" version="4" timestamp="2011-08-29T08:08:29Z" uid="117878" user="catweazle69514" changeset="9154468">
    <nd ref="14957245"/>
    <nd ref="996675954"/>
    <nd ref="14957246"/>
    <nd ref="14957247"/>
    <nd ref="443894161"/>
    <nd ref="14957248"/>
    <nd ref="14957249"/>
    <nd ref="14957250"/>
    <nd ref="998216475"/>
    <nd ref="14957251"/>
    <nd ref="14957252"/>
    <nd ref="14957253"/>
    <nd ref="14957254"/>
    <nd ref="14957255"/>
    <nd ref="14957256"/>
    <nd ref="14957257"/>
    <nd ref="663073455"/>
    <nd ref="14957258"/>
    <nd ref="322644603"/>
    <tag k="access" v="yes"/>
    <tag k="highway" v="tertiary"/>
    <tag k="maxspeed" v="30"/>
    <tag k="name" v="Gronauer Straße"/>
    <tag k="ref" v="K 58"/>
    <tag k="surface" v="asphalt"/>
  </way>
  <way id="79394588" version="5" timestamp="2012-02-26T11:00:55Z" uid="75608" user="LordCJ" changeset="10796572">
    <nd ref="14957245"/>
    <nd ref="1648342011"/>
    <nd ref="14957246"/>
    <nd ref="14957247"/>
    <nd ref="443894161"/>
    <nd ref="14957248"/>
    <nd ref="14957249"/>
    <nd ref="14957250"/>
    <nd ref="998216475"/>
    <nd ref="14957251"/>
    <nd ref="14957252"/>
    <nd ref="14957253"/>
    <nd ref="14957254"/>
    <nd ref="14957255"/>
    <nd ref="14957256"/>
    <nd ref="14957257"/>
    <nd ref="663073455"/>
    <nd ref="14957258"/>
    <nd ref="322644603"/>
    <tag k="access" v="yes"/>
    <tag k="highway" v="tertiary"/>
    <tag k="maxspeed" v="30"/>
    <tag k="name" v="Gronauer Straße"/>
    <tag k="ref" v="K 58"/>
    <tag k="surface" v="asphalt"/>
  </way>
</osm>
