<?xml version='1.0' encoding='UTF-8'?>
<osm version="0.6" generator="libosmium/2.20.0">
  <way id="7942190" version="2" timestamp="2007-10-10T22:35:52Z" uid="4667" user="MapZ" changeset="104682"/>
  <way id="7942208" version="9" timestamp="2011-02-13T10:30:32Z" uid="4467" user="Rosscoe" changeset="7273588">
    <nd ref="59150134"/>
    <nd ref="59155889"/>
    <nd ref="59159642"/>
    <nd ref="59150135"/>
    <nd ref="59154508"/>
    <nd ref="59154509"/>
    <nd ref="59154510"/>
    <nd ref="1150689164"/>
    <tag k="bridge" v="yes"/>
    <tag k="cycleway" v="segregated"/>
    <tag k="highway" v="trunk"/>
    <tag k="lanes" v="5"/>
    <tag k="layer" v="1"/>
    <tag k="name" v="Tasman Bridge"/>
    <tag k="ref" v="A3"/>
  </way>
  <way id="7942208" version="10" timestamp="2011-12-24T00:06:14Z" uid="46482" user="Leon K" changeset="10191138">
    <nd ref="59150134"/>
    <nd ref="59155889"/>
    <nd ref="59159642"/>
    <nd ref="1559928026"/>
    <nd ref="1559928027"/>
    <nd ref="1559928024"/>
    <nd ref="1559928022"/>
    <nd ref="1559928028"/>
    <tag k="bridge" v="yes"/>
    <tag k="cycleway" v="segregated"/>
    <tag k="highway" v="trunk"/>
    <tag k="lanes" v="5"/>
    <tag k="layer" v="1"/>
    <tag k="name" v="Tasman Bridge"/>
    <tag k="ref" v="A3"/>
  </way>
  <way id="7942657" version="2" timestamp="2007-12-14T23:34:12Z" uid="4667" user="MapZ" changeset="310342">
    <nd ref="21133569"/>
    <nd ref="59159270"/>
    <nd ref="59159277"/>
    <nd ref="59159283"/>
    <nd ref="59159295"/>
    <nd ref="59159306"/>
    <nd ref="59159320"/>
    <nd ref="59159325"/>
    <nd ref="59159335"/>
    <nd ref="59159338"/>
    <nd ref="59159355"/>
    <tag k="created_by" v="Tways 0.2"/>
    <tag k="highway" v="motorway_link"/>
    <tag k="name" v="Viernheimer Kreuz"/>
    <tag k="source" v="survey"/>
  </way>
  <way id="7942657" version="3" timestamp="2008-05-14T08:53:32Z" uid="7562" user="LosHawlos" changeset="443430">
    <nd ref="21133569"/>
    <nd ref="59159270"/>
    <nd ref="59159277"/>
    <nd ref="59159283"/>
    <nd ref="59159295"/>
    <nd ref="59159306"/>
    <nd ref="59159320"/>
    <nd ref="59159325"/>
    <nd ref="59159335"/>
    <nd ref="59159338"/>
    <nd ref="499989"/>
    <tag k="created_by" v="Tways 0.2"/>
    <tag k="highway" v="motorway_link"/>
    <tag k="name" v="Viernheimer Kreuz"/>
    <tag k="source" v="survey"/>
  </way>
  <way id="7942657" version="4" timestamp="2009-03-13T21:17:44Z" uid="6390" user="grenzdebil_bonn" changeset="800814">
    <nd ref="21133569"/>
    <nd ref="59159270"/>
    <nd ref="59159277"/>
    <nd ref="59159283"/>
    <nd ref="59159295"/>
    <nd ref="59159306"/>
    <nd ref="59159320"/>
    <nd ref="59159325"/>
    <nd ref="59159335"/>
    <nd ref="59159338"/>
    <nd ref="499989"/>
    <tag k="highway" v="motorway_link"/>
    <tag k="name" v="Viernheimer Kreuz"/>
    <tag k="oneway" v="yes"/>
    <tag k="source" v="survey"/>
  </way>
  <way id="7942657" version="5" timestamp="2010-01-02T15:29:40Z" uid="131670" user="Ana Luisa" changeset="3519323">
    <nd ref="21133569"/>
    <nd ref="59159270"/>
    <nd ref="59159277"/>
    <nd ref="59159283"/>
    <nd ref="59159295"/>
    <nd ref="59159306"/>
    <nd ref="59159320"/>
    <nd ref="59159325"/>
    <nd ref="59159335"/>
    <nd ref="59159338"/>
    <nd ref="499989"/>
    <tag k="highway" v="motorway_link"/>
    <tag k="name" v="Viernheimer Kreuz"/>
    <tag k="oneway" v="yes"/>
    <tag k="ref" v="A 6"/>
    <tag k="source" v="survey"/>
  </way>
  <way id="7942657" version="6" timestamp="2010-05-24T19:54:30Z" uid="6326" user="mike_hd" changeset="4797691">
    <nd ref="21133569"/>
    <nd ref="59159270"/>
    <nd ref="747407881"/>
    <nd ref="59159277"/>
    <nd ref="747407884"/>
    <nd ref="59159283"/>
    <nd ref="747407885"/>
    <nd ref="59159295"/>
    <nd ref="747407897"/>
    <nd ref="59159306"/>
    <nd ref="747407901"/>
    <nd ref="59159320"/>
    <nd ref="59159325"/>
    <nd ref="59159335"/>
    <nd ref="59159338"/>
    <nd ref="499989"/>
    <tag k="highway" v="motorway_link"/>
    <tag k="name" v="Viernheimer Kreuz"/>
    <tag k="oneway" v="yes"/>
    <tag k="ref" v="A 6"/>
    <tag k="source" v="survey"/>
  </way>
  <way id="7942657" version="7" timestamp="2010-05-24T19:54:40Z" uid="6326" user="mike_hd" changeset="4797691">
    <nd ref="21133569"/>
    <nd ref="59159270"/>
    <nd ref="747407881"/>
    <nd ref="59159277"/>
    <nd ref="747407884"/>
    <nd ref="59159283"/>
    <nd ref="747407885"/>
    <nd ref="59159295"/>
    <nd ref="747407897"/>
    <nd ref="59159306"/>
    <nd ref="747407901"/>
    <nd ref="59159320"/>
    <nd ref="747408182"/>
    <nd ref="59159325"/>
    <nd ref="747408193"/>
    <nd ref="59159335"/>
    <nd ref="747408204"/>
    <nd ref="59159338"/>
    <nd ref="499989"/>
    <tag k="highway" v="motorway_link"/>
    <tag k="name" v="Viernheimer Kreuz"/>
    <tag k="oneway" v="yes"/>
    <tag k="ref" v="A 6"/>
    <tag k="source" v="survey"/>
  </way>
  <way id="7942657" version="8" timestamp="2011-06-24T09:13:27Z" uid="110838" user="Bernhard W" changeset="8530393">
    <nd ref="21133569"/>
    <nd ref="1336673179"/>
    <nd ref="59159270"/>
    <nd ref="747407881"/>
    <nd ref="59159277"/>
    <nd ref="747407884"/>
    <nd ref="59159283"/>
    <nd ref="747407885"/>
    <nd ref="59159295"/>
    <nd ref="747407897"/>
    <nd ref="59159306"/>
    <nd ref="747407901"/>
    <nd ref="59159320"/>
    <nd ref="747408182"/>
    <nd ref="59159325"/>
    <nd ref="747408193"/>
    <nd ref="59159335"/>
    <nd ref="747408204"/>
    <nd ref="59159338"/>
    <nd ref="499989"/>
    <tag k="highway" v="motorway_link"/>
    <tag k="name" v="Viernheimer Kreuz"/>
    <tag k="oneway" v="yes"/>
    <tag k="ref" v="A 6"/>
    <tag k="source" v="survey"/>
  </way>
  <way id="7942657" version="9" timestamp="2011-07-02T06:44:11Z" uid="110838" user="Bernhard W" changeset="8605027">
    <nd ref="21133569"/>
    <nd ref="1336673179"/>
    <nd ref="59159270"/>
    <nd ref="747407881"/>
    <nd ref="59159277"/>
    <nd ref="747407884"/>
    <nd ref="59159283"/>
    <nd ref="747407885"/>
    <nd ref="59159295"/>
    <nd ref="747407897"/>
    <nd ref="59159306"/>
    <nd ref="747407901"/>
    <nd ref="59159320"/>
    <nd ref="747408182"/>
    <nd ref="59159325"/>
    <nd ref="747408193"/>
    <nd ref="59159335"/>
    <nd ref="747408204"/>
    <nd ref="59159338"/>
    <nd ref="499989"/>
    <tag k="bicycle" v="no"/>
    <tag k="cycleway" v="no"/>
    <tag k="foot" v="no"/>
    <tag k="highway" v="motorway_link"/>
    <tag k="name" v="Viernheimer Kreuz"/>
    <tag k="oneway" v="yes"/>
    <tag k="ref" v="A 6"/>
    <tag k="source" v="survey"/>
  </way>
  <way id="7942657" version="10" timestamp="2011-07-02T06:44:55Z" uid="110838" user="Bernhard W" changeset="8605027">
    <nd ref="21133569"/>
    <nd ref="1336673179"/>
    <nd ref="59159270"/>
    <nd ref="747407881"/>
    <nd ref="59159277"/>
    <nd ref="747407884"/>
    <nd ref="59159283"/>
    <nd ref="747407885"/>
    <nd ref="59159295"/>
    <nd ref="747407897"/>
    <nd ref="59159306"/>
    <nd ref="747407901"/>
    <nd ref="59159320"/>
    <nd ref="747408182"/>
    <nd ref="59159325"/>
    <nd ref="747408193"/>
    <nd ref="59159335"/>
    <nd ref="747408204"/>
    <nd ref="59159338"/>
    <nd ref="499989"/>
    <tag k="access" v="yes"/>
    <tag k="bicycle" v="no"/>
    <tag k="cycleway" v="no"/>
    <tag k="foot" v="no"/>
    <tag k="highway" v="motorway_link"/>
    <tag k="horse" v="no"/>
    <tag k="motor_vehicle" v="designated"/>
    <tag k="name" v="Viernheimer Kreuz"/>
    <tag k="oneway" v="yes"/>
    <tag k="ref" v="A 6"/>
    <tag k="source" v="survey"/>
  </way>
  <way id="7942657" version="11" timestamp="2011-07-02T06:47:53Z" uid="110838" user="Bernhard W" changeset="8605027">
    <nd ref="21133569"/>
    <nd ref="1336673179"/>
    <nd ref="59159270"/>
    <nd ref="747407881"/>
    <nd ref="59159277"/>
    <nd ref="747407884"/>
    <nd ref="59159283"/>
    <nd ref="747407885"/>
    <nd ref="59159295"/>
    <nd ref="747407897"/>
    <nd ref="59159306"/>
    <nd ref="747407901"/>
    <nd ref="59159320"/>
    <nd ref="747408182"/>
    <nd ref="59159325"/>
    <nd ref="747408193"/>
    <nd ref="59159335"/>
    <nd ref="747408204"/>
    <nd ref="59159338"/>
    <nd ref="499989"/>
    <tag k="access" v="yes"/>
    <tag k="bicycle" v="no"/>
    <tag k="cycleway" v="no"/>
    <tag k="foot" v="no"/>
    <tag k="highway" v="motorway_link"/>
    <tag k="horse" v="no"/>
    <tag k="lit" v="no"/>
    <tag k="motor_vehicle" v="designated"/>
    <tag k="name" v="Viernheimer Kreuz"/>
    <tag k="oneway" v="yes"/>
    <tag k="ref" v="A 6"/>
    <tag k="source" v="survey"/>
  </way>
  <way id="7942657" version="12" timestamp="2011-09-18T10:34:15Z" uid="110838" user="Bernhard W" changeset="9331251">
    <nd ref="21133569"/>
    <nd ref="1336673179"/>
    <nd ref="59159270"/>
    <nd ref="747407881"/>
    <nd ref="59159277"/>
    <nd ref="747407884"/>
    <nd ref="59159283"/>
    <tag k="access" v="yes"/>
    <tag k="bicycle" v="no"/>
    <tag k="cycleway" v="no"/>
    <tag k="foot" v="no"/>
    <tag k="highway" v="motorway_link"/>
    <tag k="horse" v="no"/>
    <tag k="lit" v="no"/>
    <tag k="motor_vehicle" v="designated"/>
    <tag k="name" v="Viernheimer Kreuz"/>
    <tag k="oneway" v="yes"/>
    <tag k="ref" v="A 6"/>
    <tag k="source" v="survey"/>
  </way>
  <way id="7942657" version="13" timestamp="2011-09-18T10:34:28Z" uid="110838" user="Bernhard W" changeset="9331251">
    <nd ref="21133569"/>
    <nd ref="1336673179"/>
    <nd ref="59159270"/>
    <nd ref="747407881"/>
    <nd ref="59159277"/>
    <nd ref="747407884"/>
    <nd ref="59159283"/>
    <tag k="access" v="yes"/>
    <tag k="bicycle" v="no"/>
    <tag k="cycleway" v="no"/>
    <tag k="foot" v="no"/>
    <tag k="highway" v="motorway_link"/>
    <tag k="horse" v="no"/>
    <tag k="lit" v="no"/>
    <tag k="motor_vehicle" v="designated"/>
    <tag k="name" v="Viernheimer Kreuz"/>
    <tag k="oneway" v="yes"/>
    <tag k="ref" v="A 6"/>
    <tag k="source" v="survey"/>
    <tag k="surface" v="asphalt"/>
  </way>
  <way id="7942657" version="14" timestamp="2011-09-18T10:34:36Z" uid="110838" user="Bernhard W" changeset="9331251">
    <nd ref="21133569"/>
    <nd ref="1336673179"/>
    <nd ref="59159270"/>
    <nd ref="747407881"/>
    <nd ref="59159277"/>
    <nd ref="747407884"/>
    <nd ref="59159283"/>
    <tag k="access" v="yes"/>
    <tag k="bicycle" v="no"/>
    <tag k="cycleway" v="no"/>
    <tag k="foot" v="no"/>
    <tag k="highway" v="motorway_link"/>
    <tag k="horse" v="no"/>
    <tag k="lanes" v="1"/>
    <tag k="lit" v="no"/>
    <tag k="motor_vehicle" v="designated"/>
    <tag k="name" v="Viernheimer Kreuz"/>
    <tag k="oneway" v="yes"/>
    <tag k="ref" v="A 6"/>
    <tag k="source" v="survey"/>
    <tag k="surface" v="asphalt"/>
  </way>
  <way id="7942657" version="15" timestamp="2011-12-30T19:57:01Z" uid="136321" user="Teddy73" changeset="10249048">
    <nd ref="21133569"/>
    <nd ref="1336673179"/>
    <nd ref="59159270"/>
    <nd ref="747407881"/>
    <nd ref="59159277"/>
    <nd ref="747407884"/>
    <nd ref="59159283"/>
    <tag k="highway" v="motorway_link"/>
    <tag k="lanes" v="1"/>
    <tag k="lit" v="no"/>
    <tag k="oneway" v="yes"/>
    <tag k="ref" v="A 6"/>
    <tag k="source" v="survey"/>
    <tag k="surface" v="asphalt"/>
  </way>
  <way id="7942657" version="16" timestamp="2012-01-06T09:23:23Z" uid="110838" user="Bernhard W" changeset="10308936">
    <nd ref="21133569"/>
    <nd ref="59159270"/>
    <nd ref="747407881"/>
    <nd ref="59159277"/>
    <nd ref="747407884"/>
    <nd ref="59159283"/>
    <tag k="highway" v="motorway_link"/>
    <tag k="lanes" v="1"/>
    <tag k="lit" v="no"/>
    <tag k="oneway" v="yes"/>
    <tag k="ref" v="A 6"/>
    <tag k="source" v="survey"/>
    <tag k="surface" v="asphalt"/>
  </way>
  <way id="7942658" version="2" timestamp="2007-12-14T23:47:05Z" uid="4667" user="MapZ" changeset="310342">
    <nd ref="59159347"/>
    <nd ref="59159355"/>
    <nd ref="499991"/>
    <nd ref="21279705"/>
    <tag k="bridge" v="yes"/>
    <tag k="created_by" v="Tways 0.2"/>
    <tag k="highway" v="motorway_link"/>
  </way>
  <way id="7942658" version="3" timestamp="2008-05-14T08:53:33Z" uid="7562" user="LosHawlos" changeset="443430"/>
</osm>
