<?xml version='1.0' encoding='UTF-8'?>
<osm version="0.6" generator="libosmium/2.20.0">
  <way id="7955351" version="1" timestamp="2007-09-23T20:08:11Z" uid="8328" user="benpre" changeset="506234">
    <nd ref="21681129"/>
    <nd ref="21681122"/>
    <tag k="aeroway" v="taxiway"/>
    <tag k="created_by" v="JOSM"/>
    <tag k="source" v="landsat"/>
  </way>
  <way id="7955351" version="2" timestamp="2009-10-26T20:45:00Z" uid="190285" user="IvoL" changeset="2960189">
    <nd ref="21681129"/>
    <nd ref="21681122"/>
    <tag k="aeroway" v="taxiway"/>
    <tag k="ref" v="B"/>
    <tag k="source" v="landsat"/>
  </way>
  <way id="7955351" version="3" timestamp="2011-04-11T10:38:01Z" uid="4788" user="hanoj" changeset="7831680">
    <nd ref="21681129"/>
    <nd ref="21681122"/>
    <tag k="aeroway" v="taxiway"/>
    <tag k="ref" v="B"/>
    <tag k="source" v="landsat"/>
    <tag k="surface" v="paved"/>
  </way>
  <way id="7955352" version="1" timestamp="2007-09-23T20:08:11Z" uid="8328" user="benpre" changeset="506234">
    <nd ref="21681118"/>
    <nd ref="21681120"/>
    <nd ref="21681122"/>
    <nd ref="21681123"/>
    <nd ref="21681124"/>
    <nd ref="21681125"/>
    <nd ref="21681121"/>
    <tag k="aeroway" v="taxiway"/>
    <tag k="created_by" v="JOSM"/>
    <tag k="source" v="landsat"/>
  </way>
  <way id="7955352" version="2" timestamp="2008-07-10T07:04:55Z" uid="29729" user="talmik" changeset="454550">
    <nd ref="21681118"/>
    <nd ref="21681120"/>
    <nd ref="21681122"/>
    <nd ref="21681123"/>
    <nd ref="21681124"/>
    <nd ref="21681125"/>
    <nd ref="21681121"/>
    <tag k="aeroway" v="runway"/>
    <tag k="created_by" v="JOSM"/>
    <tag k="source" v="UHUL:orthofoto"/>
  </way>
  <way id="7955352" version="3" timestamp="2008-09-10T14:50:27Z" uid="4788" user="hanoj" changeset="596244">
    <nd ref="21681118"/>
    <nd ref="21681120"/>
    <nd ref="21681122"/>
    <nd ref="21681123"/>
    <nd ref="21681124"/>
    <nd ref="21681125"/>
    <nd ref="21681121"/>
    <tag k="aeroway" v="runway"/>
    <tag k="created_by" v="JOSM"/>
    <tag k="source" v="uhul:ortofoto"/>
  </way>
  <way id="7955352" version="4" timestamp="2008-10-11T21:26:21Z" uid="27052" user="onovy" changeset="259002">
    <nd ref="21681118"/>
    <nd ref="21681120"/>
    <tag k="aeroway" v="taxiway"/>
    <tag k="created_by" v="JOSM"/>
    <tag k="source" v="uhul:ortofoto"/>
  </way>
  <way id="7955352" version="5" timestamp="2009-10-26T20:44:48Z" uid="190285" user="IvoL" changeset="2960189">
    <nd ref="21681118"/>
    <nd ref="21681120"/>
    <tag k="aeroway" v="taxiway"/>
    <tag k="ref" v="A"/>
    <tag k="source" v="uhul:ortofoto"/>
  </way>
  <way id="7955352" version="6" timestamp="2011-04-11T10:38:01Z" uid="4788" user="hanoj" changeset="7831680">
    <nd ref="21681118"/>
    <nd ref="21681120"/>
    <tag k="aeroway" v="taxiway"/>
    <tag k="ref" v="A"/>
    <tag k="source" v="uhul:ortofoto"/>
    <tag k="surface" v="paved"/>
  </way>
  <way id="7955353" version="1" timestamp="2007-09-23T20:08:11Z" uid="8328" user="benpre" changeset="506234">
    <nd ref="21681128"/>
    <nd ref="21681123"/>
    <tag k="aeroway" v="taxiway"/>
    <tag k="created_by" v="JOSM"/>
    <tag k="source" v="landsat"/>
  </way>
  <way id="7955353" version="2" timestamp="2009-10-26T20:45:11Z" uid="190285" user="IvoL" changeset="2960189">
    <nd ref="21681128"/>
    <nd ref="21681123"/>
    <tag k="aeroway" v="taxiway"/>
    <tag k="ref" v="D"/>
    <tag k="source" v="landsat"/>
  </way>
  <way id="7955353" version="3" timestamp="2009-10-26T20:47:04Z" uid="190285" user="IvoL" changeset="2960218">
    <nd ref="21681128"/>
    <nd ref="21681123"/>
    <tag k="aeroway" v="taxiway"/>
    <tag k="ref" v="C"/>
    <tag k="source" v="landsat"/>
  </way>
  <way id="7955353" version="4" timestamp="2011-04-11T10:38:01Z" uid="4788" user="hanoj" changeset="7831680">
    <nd ref="21681128"/>
    <nd ref="21681123"/>
    <tag k="aeroway" v="taxiway"/>
    <tag k="ref" v="C"/>
    <tag k="source" v="landsat"/>
    <tag k="surface" v="paved"/>
  </way>
  <way id="7955354" version="1" timestamp="2007-09-23T20:08:11Z" uid="8328" user="benpre" changeset="506234">
    <nd ref="21681127"/>
    <nd ref="21681124"/>
    <tag k="aeroway" v="taxiway"/>
    <tag k="created_by" v="JOSM"/>
    <tag k="source" v="landsat"/>
  </way>
  <way id="7955354" version="2" timestamp="2009-10-26T20:45:23Z" uid="190285" user="IvoL" changeset="2960189">
    <nd ref="21681127"/>
    <nd ref="21681124"/>
    <tag k="aeroway" v="taxiway"/>
    <tag k="ref" v="D"/>
    <tag k="source" v="landsat"/>
  </way>
  <way id="7955354" version="3" timestamp="2011-04-11T10:38:01Z" uid="4788" user="hanoj" changeset="7831680">
    <nd ref="21681127"/>
    <nd ref="21681124"/>
    <tag k="aeroway" v="taxiway"/>
    <tag k="ref" v="D"/>
    <tag k="source" v="landsat"/>
    <tag k="surface" v="paved"/>
  </way>
  <way id="7955356" version="1" timestamp="2007-09-23T20:08:11Z" uid="8328" user="benpre" changeset="506234">
    <nd ref="21681126"/>
    <nd ref="21681125"/>
    <tag k="aeroway" v="taxiway"/>
    <tag k="created_by" v="JOSM"/>
    <tag k="source" v="landsat"/>
  </way>
  <way id="7955356" version="2" timestamp="2009-10-26T20:45:34Z" uid="190285" user="IvoL" changeset="2960189">
    <nd ref="21681126"/>
    <nd ref="21681125"/>
    <tag k="aeroway" v="taxiway"/>
    <tag k="ref" v="E"/>
    <tag k="source" v="landsat"/>
  </way>
  <way id="7955356" version="3" timestamp="2011-04-11T10:38:01Z" uid="4788" user="hanoj" changeset="7831680">
    <nd ref="21681126"/>
    <nd ref="21681125"/>
    <tag k="aeroway" v="taxiway"/>
    <tag k="ref" v="E"/>
    <tag k="source" v="landsat"/>
    <tag k="surface" v="paved"/>
  </way>
  <way id="7955819" version="6" timestamp="2009-12-06T23:33:59Z" uid="200463" user="harmagedon" changeset="3311555">
    <nd ref="38423263"/>
    <nd ref="299257030"/>
    <nd ref="300825612"/>
    <nd ref="38423262"/>
    <nd ref="60638953"/>
    <nd ref="38423261"/>
    <nd ref="132828752"/>
    <nd ref="38423260"/>
    <tag k="highway" v="secondary"/>
    <tag k="name" v="Neuburger Straße"/>
  </way>
  <way id="7955819" version="7" timestamp="2010-07-19T21:14:20Z" uid="152074" user="beweta" changeset="5265252">
    <nd ref="38423263"/>
    <nd ref="299257030"/>
    <nd ref="300825612"/>
    <nd ref="38423262"/>
    <nd ref="60638953"/>
    <nd ref="38423261"/>
    <nd ref="132828752"/>
    <nd ref="38423260"/>
    <tag k="highway" v="secondary"/>
    <tag k="name" v="Neuburger Straße"/>
    <tag k="ref" v="St 2110"/>
  </way>
  <way id="7955819" version="8" timestamp="2010-08-20T00:42:34Z" uid="65957" user="Michael_K" changeset="5540248">
    <nd ref="38423263"/>
    <nd ref="299257030"/>
    <nd ref="869650520"/>
    <nd ref="300825612"/>
    <nd ref="38423262"/>
    <tag k="highway" v="secondary"/>
    <tag k="name" v="Neuburger Straße"/>
    <tag k="ref" v="St 2110"/>
  </way>
  <way id="7955819" version="9" timestamp="2010-08-20T02:02:26Z" uid="65957" user="Michael_K" changeset="5540397">
    <nd ref="38423263"/>
    <nd ref="299257030"/>
    <nd ref="869650520"/>
    <nd ref="300825612"/>
    <nd ref="38423262"/>
    <tag k="highway" v="secondary"/>
    <tag k="lanes" v="4"/>
    <tag k="maxspeed" v="DE:urban"/>
    <tag k="name" v="Neuburger Straße"/>
    <tag k="ref" v="St 2110"/>
  </way>
  <way id="7955819" version="10" timestamp="2010-09-13T10:59:49Z" uid="104779" user="ABRob" changeset="5768179">
    <nd ref="38423263"/>
    <nd ref="299257030"/>
    <nd ref="869650520"/>
    <nd ref="300825612"/>
    <nd ref="38423262"/>
    <tag k="highway" v="secondary"/>
    <tag k="lanes" v="4"/>
    <tag k="maxspeed" v="50"/>
    <tag k="name" v="Neuburger Straße"/>
    <tag k="ref" v="St 2110"/>
    <tag k="zone:maxspeed" v="DE:urban"/>
    <tag k="zone:traffic" v="DE:urban"/>
  </way>
  <way id="7955819" version="11" timestamp="2010-09-16T15:44:17Z" uid="96069" user="theophrastos" changeset="5796765">
    <nd ref="38423263"/>
    <nd ref="299257030"/>
    <nd ref="869650520"/>
    <nd ref="300825612"/>
    <nd ref="38423262"/>
    <tag k="highway" v="secondary"/>
    <tag k="lanes" v="4"/>
    <tag k="maxspeed" v="50"/>
    <tag k="name" v="Neuburger Straße"/>
    <tag k="ref" v="St 2110"/>
    <tag k="source:maxspeed" v="DE:urban"/>
    <tag k="zone:maxspeed" v="DE:urban"/>
    <tag k="zone:traffic" v="DE:urban"/>
  </way>
  <way id="7955819" version="12" timestamp="2011-03-03T18:44:02Z" uid="27223" user="Tordanik" changeset="7448372">
    <nd ref="38423263"/>
    <nd ref="1184694503"/>
    <nd ref="1184694366"/>
    <nd ref="299257030"/>
    <nd ref="869650520"/>
    <nd ref="300825612"/>
    <nd ref="38423262"/>
    <tag k="highway" v="secondary"/>
    <tag k="lanes" v="4"/>
    <tag k="maxspeed" v="50"/>
    <tag k="name" v="Neuburger Straße"/>
    <tag k="ref" v="St 2110"/>
    <tag k="source:maxspeed" v="DE:urban"/>
    <tag k="zone:maxspeed" v="DE:urban"/>
    <tag k="zone:traffic" v="DE:urban"/>
  </way>
  <way id="7955819" version="13" timestamp="2011-03-03T19:52:15Z" uid="27223" user="Tordanik" changeset="7448934">
    <nd ref="38423263"/>
    <nd ref="1184794783"/>
    <nd ref="1184694503"/>
    <nd ref="1184694366"/>
    <nd ref="299257030"/>
    <nd ref="869650520"/>
    <nd ref="300825612"/>
    <nd ref="38423262"/>
    <tag k="highway" v="secondary"/>
    <tag k="lanes" v="4"/>
    <tag k="maxspeed" v="50"/>
    <tag k="name" v="Neuburger Straße"/>
    <tag k="ref" v="St 2110"/>
    <tag k="source:maxspeed" v="DE:urban"/>
    <tag k="zone:maxspeed" v="DE:urban"/>
    <tag k="zone:traffic" v="DE:urban"/>
  </way>
</osm>
