<?xml version='1.0' encoding='UTF-8'?>
<osm version="0.6" generator="libosmium/2.20.0">
  <way id="79591008" version="1" timestamp="2010-09-28T07:43:30Z" uid="49111" user="Markus B" changeset="5901313">
    <nd ref="928919786"/>
    <nd ref="928919793"/>
    <nd ref="583283569"/>
    <nd ref="583283556"/>
    <nd ref="583283577"/>
    <nd ref="583283583"/>
    <nd ref="928919786"/>
    <tag k="addr:city" v="Lauf a.d. Pegnitz"/>
    <tag k="addr:country" v="DE"/>
    <tag k="addr:postcode" v="91207"/>
    <tag k="building" v="yes"/>
    <tag k="source" v="Luftbilder Stadt Lauf"/>
  </way>
  <way id="79591008" version="2" timestamp="2010-11-02T18:24:45Z" uid="202858" user="kellerma" changeset="6270074">
    <nd ref="928919786"/>
    <nd ref="928919793"/>
    <nd ref="583283569"/>
    <nd ref="583283556"/>
    <nd ref="583283577"/>
    <nd ref="583283583"/>
    <nd ref="928919786"/>
    <tag k="addr:city" v="Lauf a.d.Pegnitz"/>
    <tag k="addr:country" v="DE"/>
    <tag k="addr:postcode" v="91207"/>
    <tag k="building" v="yes"/>
    <tag k="source" v="Luftbilder Stadt Lauf"/>
  </way>
  <way id="79591775" version="1" timestamp="2010-09-28T07:48:10Z" uid="6975" user="ulfl" changeset="5901340">
    <nd ref="148612917"/>
    <nd ref="928924374"/>
    <nd ref="928924379"/>
    <nd ref="928924372"/>
    <tag k="highway" v="service"/>
  </way>
  <way id="79591775" version="2" timestamp="2010-10-25T10:09:14Z" uid="354284" user="sbiribizio" changeset="6170110">
    <nd ref="148612917"/>
    <nd ref="964718142"/>
    <nd ref="964718143"/>
    <nd ref="964718144"/>
    <tag k="highway" v="unclassified"/>
    <tag k="name" v="Piazza Eugenio Curiel"/>
  </way>
  <way id="79591775" version="3" timestamp="2010-11-16T15:47:27Z" uid="354284" user="sbiribizio" changeset="6385883">
    <nd ref="148612917"/>
    <nd ref="991495116"/>
    <nd ref="964718142"/>
    <nd ref="964718143"/>
    <nd ref="991495084"/>
    <nd ref="964718144"/>
    <tag k="highway" v="unclassified"/>
    <tag k="name" v="Piazza Eugenio Curiel"/>
  </way>
  <way id="79591775" version="4" timestamp="2011-03-19T16:25:00Z" uid="354284" user="sbiribizio" changeset="7606780">
    <nd ref="148612917"/>
    <nd ref="991495116"/>
    <nd ref="964718142"/>
    <nd ref="964718143"/>
    <nd ref="991495084"/>
    <nd ref="964718144"/>
    <tag k="highway" v="unclassified"/>
    <tag k="lit" v="yes"/>
    <tag k="name" v="Piazza Eugenio Curiel"/>
  </way>
</osm>
