<?xml version='1.0' encoding='UTF-8'?>
<osm version="0.6" generator="libosmium/2.20.0">
  <way id="7961009" version="3" timestamp="2008-12-17T11:54:06Z" uid="27600" user="Islanit" changeset="444522">
    <nd ref="59434031"/>
    <nd ref="60628918"/>
    <nd ref="60628960"/>
    <nd ref="59434032"/>
    <nd ref="59431993"/>
    <nd ref="59434033"/>
    <nd ref="60629486"/>
    <nd ref="319495229"/>
    <tag k="created_by" v="Potlatch 0.10f"/>
    <tag k="highway" v="residential"/>
    <tag k="name" v="Amselweg"/>
    <tag k="postal_code" v="14656"/>
  </way>
  <way id="7961009" version="4" timestamp="2009-02-09T10:37:04Z" uid="32860" user="schulzibabe" changeset="305729">
    <nd ref="59434031"/>
    <nd ref="60628918"/>
    <nd ref="60628960"/>
    <nd ref="59434032"/>
    <nd ref="59431993"/>
    <nd ref="59434033"/>
    <nd ref="60629486"/>
    <nd ref="319495229"/>
    <tag k="created_by" v="Potlatch 0.10f"/>
    <tag k="highway" v="residential"/>
    <tag k="name" v="Amselweg"/>
    <tag k="postal_code" v="14656"/>
  </way>
  <way id="7961009" version="5" timestamp="2011-04-18T18:50:50Z" uid="6669" user="Elwood" changeset="7899710">
    <nd ref="59434031"/>
    <nd ref="60628918"/>
    <nd ref="60628960"/>
    <nd ref="59434032"/>
    <nd ref="59431993"/>
    <nd ref="59434033"/>
    <nd ref="60629486"/>
    <nd ref="319495229"/>
    <tag k="highway" v="residential"/>
    <tag k="name" v="Amselweg"/>
    <tag k="postal_code" v="14656"/>
  </way>
</osm>
