<?xml version='1.0' encoding='UTF-8'?>
<osm version="0.6" generator="libosmium/2.20.0">
  <way id="80279262" version="1" timestamp="2010-10-03T18:07:54Z" uid="33382" user="de_muur" changeset="5946806">
    <nd ref="267836335"/>
    <nd ref="28401189"/>
    <nd ref="28401192"/>
    <nd ref="28401194"/>
    <nd ref="28401195"/>
    <nd ref="28401197"/>
    <nd ref="28401198"/>
    <nd ref="28401200"/>
    <tag k="highway" v="unclassified"/>
    <tag k="name" v="Klein Sarau"/>
    <tag k="surface" v="paved"/>
  </way>
  <way id="80279262" version="2" timestamp="2011-04-15T18:26:23Z" uid="33382" user="de_muur" changeset="7872209">
    <nd ref="267836335"/>
    <nd ref="28401189"/>
    <tag k="highway" v="unclassified"/>
    <tag k="name" v="Klein Sarau"/>
    <tag k="surface" v="paved"/>
  </way>
  <way id="80279264" version="1" timestamp="2010-10-03T18:07:55Z" uid="33382" user="de_muur" changeset="5946806">
    <nd ref="31051956"/>
    <nd ref="365543840"/>
    <tag k="highway" v="secondary"/>
    <tag k="maxspeed" v="50"/>
    <tag k="name" v="Klempauer StraÃŸe"/>
    <tag k="ref" v="L 221"/>
    <tag k="source:maxspeed" v="DE:urban"/>
    <tag k="zone:traffic" v="DE:urban"/>
  </way>
  <way id="80279264" version="2" timestamp="2010-12-23T10:46:54Z" uid="387195" user="Kaanjamiso" changeset="6743877">
    <nd ref="31051956"/>
    <nd ref="365543840"/>
    <tag k="highway" v="secondary"/>
    <tag k="maxspeed" v="50"/>
    <tag k="ref" v="L 221"/>
    <tag k="source:maxspeed" v="DE:urban"/>
    <tag k="zone:traffic" v="DE:urban"/>
  </way>
  <way id="80279264" version="3" timestamp="2010-12-31T15:03:48Z" uid="16085" user="artus70" changeset="6820589">
    <nd ref="31051956"/>
    <nd ref="1075389095"/>
    <nd ref="365543840"/>
    <tag k="highway" v="secondary"/>
    <tag k="maxspeed" v="50"/>
    <tag k="ref" v="L 221"/>
    <tag k="source:maxspeed" v="DE:urban"/>
    <tag k="zone:traffic" v="DE:urban"/>
  </way>
  <way id="80279264" version="4" timestamp="2011-06-08T16:37:37Z" uid="33382" user="de_muur" changeset="8381165">
    <nd ref="31051956"/>
    <nd ref="1075389095"/>
    <nd ref="365543840"/>
    <tag k="highway" v="secondary"/>
    <tag k="maxspeed" v="50"/>
    <tag k="ref" v="L 221"/>
    <tag k="source:maxspeed" v="DE:urban"/>
    <tag k="surface" v="paved"/>
    <tag k="zone:traffic" v="DE:urban"/>
  </way>
  <way id="80279264" version="5" timestamp="2012-03-09T11:43:48Z" uid="63107" user="brogo" changeset="10918925"/>
</osm>
