<?xml version='1.0' encoding='UTF-8'?>
<osm version="0.6" generator="libosmium/2.20.0">
  <way id="8031008" version="2" timestamp="2009-07-19T06:00:47Z" uid="7617" user="Franc" changeset="1869567">
    <nd ref="60025196"/>
    <nd ref="60026493"/>
    <nd ref="60026494"/>
    <nd ref="60026495"/>
    <nd ref="60026496"/>
    <nd ref="60026497"/>
    <nd ref="60026498"/>
    <tag k="created_by" v="Potlatch alpha"/>
    <tag k="highway" v="trunk_link"/>
    <tag k="name" v="River Road Exit"/>
    <tag k="oneway" v="yes"/>
  </way>
  <way id="8031008" version="3" timestamp="2009-12-07T02:35:16Z" uid="30201" user="rrankin" changeset="3312226">
    <nd ref="60025196"/>
    <nd ref="582782571"/>
    <tag k="bridge" v="yes"/>
    <tag k="highway" v="trunk_link"/>
    <tag k="layer" v="1"/>
    <tag k="name" v="River Road Exit"/>
    <tag k="oneway" v="yes"/>
  </way>
  <way id="8031008" version="4" timestamp="2010-04-01T05:14:19Z" uid="74617" user="JohnSmith" changeset="4291104">
    <nd ref="60025196"/>
    <nd ref="679631971"/>
    <tag k="highway" v="trunk_link"/>
    <tag k="name" v="River Road Exit"/>
    <tag k="oneway" v="yes"/>
  </way>
  <way id="8031008" version="5" timestamp="2012-02-02T01:25:47Z" uid="54784" user="Tom Hollander" changeset="10564041">
    <nd ref="60025196"/>
    <nd ref="679631971"/>
    <tag k="highway" v="trunk_link"/>
    <tag k="name" v="River Road Exit"/>
    <tag k="oneway" v="yes"/>
    <tag k="ref" v="SH40"/>
  </way>
  <way id="8031018" version="2" timestamp="2008-07-25T22:45:39Z" uid="38524" user="Kuddy" changeset="601182">
    <nd ref="60026506"/>
    <nd ref="60026509"/>
    <nd ref="60026501"/>
    <tag k="created_by" v="Potlatch alpha"/>
    <tag k="foot" v="yes"/>
    <tag k="highway" v="footway"/>
  </way>
  <way id="8031043" version="2" timestamp="2008-06-15T12:47:20Z" uid="30201" user="rrankin" changeset="175923">
    <nd ref="60026560"/>
    <nd ref="47380519"/>
    <nd ref="47380521"/>
    <nd ref="47380524"/>
    <tag k="created_by" v="Potlatch alpha"/>
    <tag k="highway" v="residential"/>
    <tag k="name" v="Beaconsfield Street"/>
  </way>
  <way id="8031043" version="3" timestamp="2008-06-16T08:23:30Z" uid="30201" user="rrankin" changeset="180144">
    <nd ref="60026560"/>
    <nd ref="47380519"/>
    <nd ref="47380521"/>
    <nd ref="270653577"/>
    <nd ref="47380524"/>
    <tag k="created_by" v="Potlatch alpha"/>
    <tag k="highway" v="residential"/>
    <tag k="name" v="Beaconsfield Street"/>
  </way>
  <way id="8031043" version="4" timestamp="2009-08-09T05:08:35Z" uid="1679" user="andrewpmk" changeset="2081302">
    <nd ref="60026560"/>
    <nd ref="47380519"/>
    <nd ref="47380521"/>
    <nd ref="372411175"/>
    <nd ref="47380524"/>
    <tag k="highway" v="residential"/>
    <tag k="name" v="Beaconsfield Street"/>
  </way>
  <way id="8031043" version="5" timestamp="2010-07-08T03:07:06Z" uid="74617" user="JohnSmith" changeset="5163091">
    <nd ref="60026560"/>
    <nd ref="47380519"/>
    <nd ref="47380521"/>
    <nd ref="372411175"/>
    <nd ref="47380524"/>
    <tag k="highway" v="residential"/>
    <tag k="maxspeed" v="50"/>
    <tag k="maxspeed:source" v="default residential speed limit in Australia"/>
    <tag k="name" v="Beaconsfield Street"/>
  </way>
  <way id="8031043" version="6" timestamp="2012-01-15T06:52:20Z" uid="147510" user="woodpeck_fixbot" changeset="10394821">
    <nd ref="60026560"/>
    <nd ref="47380519"/>
    <nd ref="47380521"/>
    <nd ref="372411175"/>
    <nd ref="47380524"/>
    <tag k="highway" v="residential"/>
    <tag k="name" v="Beaconsfield Street"/>
  </way>
  <way id="8031043" version="7" timestamp="2012-03-13T02:35:30Z" uid="7523" user="inas" changeset="10962608">
    <nd ref="1672896844"/>
    <nd ref="60026560"/>
    <nd ref="47380519"/>
    <nd ref="47380521"/>
    <nd ref="372411175"/>
    <nd ref="47380524"/>
    <tag k="highway" v="residential"/>
    <tag k="name" v="Beaconsfield Street"/>
  </way>
  <way id="8031044" version="2" timestamp="2008-06-14T00:26:04Z" uid="30201" user="rrankin" changeset="154901">
    <nd ref="60025225"/>
    <nd ref="60026579"/>
    <nd ref="60026562"/>
    <nd ref="60026578"/>
    <nd ref="60026564"/>
    <nd ref="60026565"/>
    <nd ref="60026566"/>
    <nd ref="60026567"/>
    <nd ref="60026568"/>
    <nd ref="60026569"/>
    <nd ref="60026560"/>
    <nd ref="60284011"/>
    <nd ref="60026559"/>
    <nd ref="60026558"/>
    <nd ref="270197982"/>
    <nd ref="60026573"/>
    <nd ref="30381742"/>
    <tag k="created_by" v="Potlatch alpha"/>
    <tag k="highway" v="trunk"/>
    <tag k="name" v="Silverwater Road"/>
    <tag k="oneway" v="yes"/>
    <tag k="ref" v="MR6"/>
  </way>
  <way id="8031044" version="3" timestamp="2008-07-08T15:00:54Z" uid="12203" user="brainwad" changeset="434606">
    <nd ref="60025225"/>
    <nd ref="60026579"/>
    <nd ref="60026562"/>
    <nd ref="60026578"/>
    <nd ref="60026564"/>
    <nd ref="60026565"/>
    <nd ref="60026566"/>
    <nd ref="60026567"/>
    <nd ref="60026568"/>
    <nd ref="60026569"/>
    <nd ref="60026560"/>
    <nd ref="60284011"/>
    <nd ref="60026559"/>
    <nd ref="60026558"/>
    <nd ref="270197982"/>
    <nd ref="60026573"/>
    <nd ref="30381742"/>
    <tag k="created_by" v="Potlatch 0.9c"/>
    <tag k="highway" v="trunk"/>
    <tag k="name" v="Silverwater Road"/>
    <tag k="oneway" v="yes"/>
    <tag k="ref" v="MR6"/>
  </way>
  <way id="8031044" version="4" timestamp="2008-07-08T15:01:19Z" uid="12203" user="brainwad" changeset="434606">
    <nd ref="60025225"/>
    <nd ref="60026579"/>
    <nd ref="60026562"/>
    <nd ref="60026578"/>
    <nd ref="60026564"/>
    <nd ref="60026565"/>
    <nd ref="60026566"/>
    <nd ref="60026567"/>
    <nd ref="60026568"/>
    <nd ref="60026569"/>
    <nd ref="60026560"/>
    <nd ref="60284011"/>
    <nd ref="60026559"/>
    <nd ref="60026558"/>
    <nd ref="270197982"/>
    <nd ref="60026573"/>
    <nd ref="30381742"/>
    <tag k="created_by" v="Potlatch 0.9c"/>
    <tag k="highway" v="trunk"/>
    <tag k="name" v="Silverwater Road"/>
    <tag k="oneway" v="yes"/>
    <tag k="ref" v="MR6"/>
  </way>
  <way id="8031044" version="5" timestamp="2008-07-08T15:01:26Z" uid="12203" user="brainwad" changeset="434606">
    <nd ref="60025225"/>
    <nd ref="60026579"/>
    <nd ref="60026562"/>
    <nd ref="60026578"/>
    <nd ref="60026564"/>
    <nd ref="60026565"/>
    <nd ref="60026566"/>
    <nd ref="60026567"/>
    <nd ref="60026568"/>
    <nd ref="60026569"/>
    <nd ref="60026560"/>
    <nd ref="60284011"/>
    <nd ref="60026559"/>
    <nd ref="60026558"/>
    <nd ref="270197982"/>
    <nd ref="60026573"/>
    <nd ref="30381742"/>
    <tag k="created_by" v="Potlatch 0.9c"/>
    <tag k="highway" v="trunk"/>
    <tag k="name" v="Silverwater Road"/>
    <tag k="oneway" v="yes"/>
    <tag k="ref" v="MR6"/>
  </way>
  <way id="8031044" version="6" timestamp="2009-06-20T12:31:02Z" uid="9477" user="NilbogAus" changeset="1574228">
    <nd ref="60025225"/>
    <nd ref="60026579"/>
    <nd ref="60026562"/>
    <nd ref="60026578"/>
    <nd ref="60026566"/>
    <nd ref="60026567"/>
    <nd ref="60026568"/>
    <nd ref="60026569"/>
    <nd ref="60026560"/>
    <nd ref="60284011"/>
    <nd ref="60026559"/>
    <nd ref="60026558"/>
    <nd ref="270197982"/>
    <nd ref="60026573"/>
    <nd ref="30381742"/>
    <tag k="created_by" v="Potlatch 0.9c"/>
    <tag k="highway" v="trunk"/>
    <tag k="name" v="Silverwater Road"/>
    <tag k="oneway" v="yes"/>
    <tag k="ref" v="MR6"/>
  </way>
  <way id="8031044" version="7" timestamp="2009-08-16T03:23:45Z" uid="9477" user="NilbogAus" changeset="2159960">
    <nd ref="60025225"/>
    <nd ref="60026579"/>
    <nd ref="60026562"/>
    <nd ref="60026578"/>
    <nd ref="60026566"/>
    <nd ref="60026567"/>
    <nd ref="60026568"/>
    <nd ref="60026569"/>
    <nd ref="60026560"/>
    <nd ref="60284011"/>
    <nd ref="60026559"/>
    <nd ref="60026558"/>
    <nd ref="270197982"/>
    <nd ref="30381742"/>
    <tag k="highway" v="trunk"/>
    <tag k="name" v="Silverwater Road"/>
    <tag k="oneway" v="yes"/>
    <tag k="ref" v="MR6"/>
  </way>
  <way id="8031044" version="8" timestamp="2009-12-26T16:20:22Z" uid="12203" user="brainwad" changeset="3455356">
    <nd ref="60025225"/>
    <nd ref="60026579"/>
    <nd ref="60026562"/>
    <nd ref="60026578"/>
    <nd ref="60026566"/>
    <nd ref="60026567"/>
    <nd ref="60026568"/>
    <nd ref="60026569"/>
    <nd ref="60026560"/>
    <nd ref="60284011"/>
    <nd ref="60026559"/>
    <nd ref="60026558"/>
    <nd ref="270197982"/>
    <nd ref="30381742"/>
    <tag k="highway" v="trunk"/>
    <tag k="maxspeed" v="70"/>
    <tag k="name" v="Silverwater Road"/>
    <tag k="oneway" v="yes"/>
    <tag k="ref" v="MR6"/>
  </way>
  <way id="8031044" version="9" timestamp="2010-04-01T05:36:47Z" uid="74617" user="JohnSmith" changeset="4291104">
    <nd ref="60025225"/>
    <nd ref="679636953"/>
    <tag k="highway" v="trunk"/>
    <tag k="maxspeed" v="80"/>
    <tag k="name" v="Silverwater Road"/>
    <tag k="oneway" v="yes"/>
  </way>
  <way id="8031044" version="10" timestamp="2010-06-30T08:58:18Z" uid="299678" user="peteramjet" changeset="5111867">
    <nd ref="60025225"/>
    <nd ref="679636953"/>
    <tag k="highway" v="trunk"/>
    <tag k="maxspeed" v="80"/>
    <tag k="name" v="Silverwater Road"/>
    <tag k="oneway" v="yes"/>
    <tag k="ref" v="MR6"/>
  </way>
  <way id="8031044" version="11" timestamp="2010-07-08T12:22:18Z" uid="299678" user="peteramjet" changeset="5165746">
    <nd ref="60025225"/>
    <nd ref="679636953"/>
    <tag k="highway" v="trunk"/>
    <tag k="maxspeed" v="80"/>
    <tag k="name" v="Silverwater Road"/>
    <tag k="oneway" v="yes"/>
  </way>
  <way id="8031044" version="12" timestamp="2012-02-02T01:25:46Z" uid="54784" user="Tom Hollander" changeset="10564041">
    <nd ref="60025225"/>
    <nd ref="679636953"/>
    <tag k="highway" v="trunk"/>
    <tag k="maxspeed" v="80"/>
    <tag k="name" v="Silverwater Road"/>
    <tag k="oneway" v="yes"/>
    <tag k="ref" v="MR6"/>
  </way>
  <way id="8031044" version="13" timestamp="2012-03-13T02:35:32Z" uid="7523" user="inas" changeset="10962608">
    <nd ref="60025225"/>
    <nd ref="679636953"/>
    <tag k="highway" v="trunk"/>
    <tag k="maxspeed" v="80"/>
    <tag k="name" v="Silverwater Road"/>
    <tag k="oneway" v="yes"/>
    <tag k="ref" v="MR6"/>
  </way>
  <way id="8031044" version="14" timestamp="2012-03-13T22:26:24Z" uid="7523" user="inas" changeset="10972887">
    <nd ref="60025225"/>
    <nd ref="679636953"/>
    <tag k="highway" v="trunk"/>
    <tag k="maxspeed" v="80"/>
    <tag k="name" v="Silverwater Road"/>
    <tag k="network" v="MR"/>
    <tag k="oneway" v="yes"/>
    <tag k="ref" v="6"/>
  </way>
  <way id="8031044" version="15" timestamp="2012-03-17T06:33:57Z" uid="299678" user="peteramjet" changeset="11004839">
    <nd ref="60025225"/>
    <nd ref="679636953"/>
    <tag k="highway" v="trunk"/>
    <tag k="maxspeed" v="80"/>
    <tag k="name" v="Silverwater Road"/>
    <tag k="network" v="MR"/>
    <tag k="oneway" v="yes"/>
    <tag k="ref" v="MR6"/>
  </way>
  <way id="8031050" version="2" timestamp="2008-06-11T23:30:42Z" uid="30201" user="rrankin" changeset="136848">
    <nd ref="60026568"/>
    <nd ref="47379548"/>
    <nd ref="47379549"/>
    <nd ref="47379552"/>
    <tag k="created_by" v="Potlatch alpha"/>
    <tag k="highway" v="unclassified"/>
    <tag k="name" v="Derby Street"/>
  </way>
  <way id="8031059" version="2" timestamp="2008-06-11T23:30:43Z" uid="30201" user="rrankin" changeset="136848">
    <nd ref="60026567"/>
    <nd ref="47378730"/>
    <nd ref="47384303"/>
    <nd ref="47378732"/>
    <nd ref="47378734"/>
    <tag k="created_by" v="Potlatch alpha"/>
    <tag k="highway" v="unclassified"/>
    <tag k="name" v="Egerton Street"/>
  </way>
  <way id="8031059" version="3" timestamp="2009-08-09T05:01:28Z" uid="1679" user="andrewpmk" changeset="2081279">
    <nd ref="60026567"/>
    <nd ref="47378730"/>
    <nd ref="47378732"/>
    <nd ref="47378734"/>
    <tag k="created_by" v="Potlatch alpha"/>
    <tag k="highway" v="unclassified"/>
    <tag k="name" v="Egerton Street"/>
  </way>
  <way id="8031059" version="4" timestamp="2009-08-09T05:08:37Z" uid="1679" user="andrewpmk" changeset="2081302">
    <nd ref="60026567"/>
    <nd ref="47378730"/>
    <nd ref="47378732"/>
    <nd ref="47378734"/>
    <tag k="highway" v="unclassified"/>
    <tag k="name" v="Egerton Street"/>
  </way>
  <way id="8031130" version="4" timestamp="2009-05-31T07:38:03Z" uid="7617" user="Franc" changeset="1365885">
    <nd ref="60026983"/>
    <nd ref="413345390"/>
    <nd ref="60027003"/>
    <nd ref="230410330"/>
    <nd ref="60027016"/>
    <nd ref="60027017"/>
    <nd ref="60027018"/>
    <nd ref="60027019"/>
    <tag k="created_by" v="Potlatch 0.6b"/>
    <tag k="highway" v="trunk"/>
    <tag k="name" v="St Hilliers Road"/>
    <tag k="oneway" v="yes"/>
    <tag k="ref" v="MR6"/>
    <tag k="source:name" v="knowledge"/>
  </way>
  <way id="8031130" version="5" timestamp="2009-12-07T01:01:26Z" uid="30201" user="rrankin" changeset="3311972"/>
  <way id="8031143" version="2" timestamp="2008-06-14T00:26:02Z" uid="30201" user="rrankin" changeset="154901">
    <nd ref="60025221"/>
    <nd ref="55158944"/>
    <nd ref="55166747"/>
    <nd ref="55166521"/>
    <nd ref="31928071"/>
    <nd ref="55166187"/>
    <nd ref="47382101"/>
    <nd ref="47377803"/>
    <nd ref="55166067"/>
    <nd ref="47378975"/>
    <nd ref="30381735"/>
    <nd ref="55161828"/>
    <nd ref="47380155"/>
    <nd ref="60284006"/>
    <nd ref="21703366"/>
    <nd ref="26399116"/>
    <nd ref="270197983"/>
    <nd ref="60284008"/>
    <nd ref="60026580"/>
    <nd ref="60027019"/>
    <tag k="created_by" v="Potlatch alpha"/>
    <tag k="highway" v="trunk"/>
    <tag k="name" v="Silverwater Road"/>
    <tag k="oneway" v="yes"/>
    <tag k="ref" v="MR6"/>
  </way>
  <way id="8031143" version="3" timestamp="2008-07-08T15:00:50Z" uid="12203" user="brainwad" changeset="434606">
    <nd ref="60025221"/>
    <nd ref="55158944"/>
    <nd ref="55166747"/>
    <nd ref="55166521"/>
    <nd ref="31928071"/>
    <nd ref="55166187"/>
    <nd ref="47382101"/>
    <nd ref="47377803"/>
    <nd ref="55166067"/>
    <nd ref="47378975"/>
    <nd ref="30381735"/>
    <nd ref="55161828"/>
    <nd ref="47380155"/>
    <nd ref="60284006"/>
    <nd ref="21703366"/>
    <nd ref="26399116"/>
    <nd ref="270197983"/>
    <nd ref="60284008"/>
    <nd ref="60026580"/>
    <nd ref="60027019"/>
    <tag k="created_by" v="Potlatch 0.9c"/>
    <tag k="highway" v="trunk"/>
    <tag k="name" v="Silverwater Road"/>
    <tag k="oneway" v="yes"/>
    <tag k="ref" v="MR6"/>
  </way>
  <way id="8031143" version="4" timestamp="2008-07-08T15:01:01Z" uid="12203" user="brainwad" changeset="434606">
    <nd ref="60025221"/>
    <nd ref="55158944"/>
    <nd ref="55166747"/>
    <nd ref="55166521"/>
    <nd ref="31928071"/>
    <nd ref="55166187"/>
    <nd ref="47382101"/>
    <nd ref="47377803"/>
    <nd ref="55166067"/>
    <nd ref="47378975"/>
    <nd ref="30381735"/>
    <nd ref="55161828"/>
    <nd ref="47380155"/>
    <nd ref="60284006"/>
    <nd ref="21703366"/>
    <nd ref="26399116"/>
    <nd ref="270197983"/>
    <nd ref="60284008"/>
    <nd ref="60026580"/>
    <nd ref="60027019"/>
    <tag k="created_by" v="Potlatch 0.9c"/>
    <tag k="highway" v="trunk"/>
    <tag k="name" v="Silverwater Road"/>
    <tag k="oneway" v="yes"/>
    <tag k="ref" v="MR6"/>
  </way>
  <way id="8031143" version="5" timestamp="2008-07-08T15:01:21Z" uid="12203" user="brainwad" changeset="434606">
    <nd ref="60025221"/>
    <nd ref="55158944"/>
    <nd ref="55166747"/>
    <nd ref="55166521"/>
    <nd ref="31928071"/>
    <nd ref="55166187"/>
    <nd ref="47382101"/>
    <nd ref="47377803"/>
    <nd ref="55166067"/>
    <nd ref="47378975"/>
    <nd ref="30381735"/>
    <nd ref="55161828"/>
    <nd ref="47380155"/>
    <nd ref="60284006"/>
    <nd ref="21703366"/>
    <nd ref="26399116"/>
    <nd ref="270197983"/>
    <nd ref="60284008"/>
    <nd ref="60026580"/>
    <nd ref="60027019"/>
    <tag k="created_by" v="Potlatch 0.9c"/>
    <tag k="highway" v="trunk"/>
    <tag k="name" v="Silverwater Road"/>
    <tag k="oneway" v="yes"/>
    <tag k="ref" v="MR6"/>
  </way>
  <way id="8031143" version="6" timestamp="2008-07-08T15:01:29Z" uid="12203" user="brainwad" changeset="434606">
    <nd ref="60025221"/>
    <nd ref="55158944"/>
    <nd ref="55166747"/>
    <nd ref="55166521"/>
    <nd ref="31928071"/>
    <nd ref="55166187"/>
    <nd ref="47382101"/>
    <nd ref="47377803"/>
    <nd ref="55166067"/>
    <nd ref="47378975"/>
    <nd ref="30381735"/>
    <nd ref="55161828"/>
    <nd ref="47380155"/>
    <nd ref="60284006"/>
    <nd ref="21703366"/>
    <nd ref="26399116"/>
    <nd ref="270197983"/>
    <nd ref="60284008"/>
    <nd ref="60026580"/>
    <nd ref="60027019"/>
    <tag k="created_by" v="Potlatch 0.9c"/>
    <tag k="highway" v="trunk"/>
    <tag k="name" v="Silverwater Road"/>
    <tag k="oneway" v="yes"/>
    <tag k="ref" v="MR6"/>
  </way>
  <way id="8031143" version="7" timestamp="2008-07-23T05:11:19Z" uid="12203" user="brainwad" changeset="576741">
    <nd ref="60027019"/>
    <nd ref="60026580"/>
    <nd ref="60284008"/>
    <nd ref="270197983"/>
    <nd ref="26399116"/>
    <nd ref="21703366"/>
    <nd ref="60284006"/>
    <nd ref="47380155"/>
    <nd ref="55161828"/>
    <nd ref="30381735"/>
    <nd ref="47378975"/>
    <nd ref="55166067"/>
    <nd ref="47377803"/>
    <nd ref="47382101"/>
    <nd ref="55166187"/>
    <nd ref="31928071"/>
    <nd ref="55166521"/>
    <nd ref="55166747"/>
    <nd ref="55158944"/>
    <nd ref="60025221"/>
    <tag k="created_by" v="Potlatch 0.10"/>
    <tag k="highway" v="trunk"/>
    <tag k="name" v="Silverwater Road"/>
    <tag k="oneway" v="yes"/>
    <tag k="ref" v="MR6"/>
  </way>
  <way id="8031143" version="8" timestamp="2008-07-23T05:11:30Z" uid="12203" user="brainwad" changeset="576741">
    <nd ref="60027019"/>
    <nd ref="60026580"/>
    <nd ref="60284008"/>
    <nd ref="270197983"/>
    <nd ref="26399116"/>
    <nd ref="21703366"/>
    <nd ref="60284006"/>
    <nd ref="47380155"/>
    <nd ref="55161828"/>
    <nd ref="30381735"/>
    <nd ref="47378975"/>
    <nd ref="55166067"/>
    <nd ref="47377803"/>
    <nd ref="47382101"/>
    <nd ref="55166187"/>
    <nd ref="31928071"/>
    <nd ref="55166521"/>
    <nd ref="55166747"/>
    <nd ref="55158944"/>
    <nd ref="60025221"/>
    <tag k="created_by" v="Potlatch 0.10"/>
    <tag k="highway" v="trunk"/>
    <tag k="name" v="Silverwater Road"/>
    <tag k="oneway" v="yes"/>
    <tag k="ref" v="MR6"/>
  </way>
  <way id="8031143" version="9" timestamp="2008-07-23T05:11:35Z" uid="12203" user="brainwad" changeset="576741">
    <nd ref="60027019"/>
    <nd ref="60026580"/>
    <nd ref="60284008"/>
    <nd ref="270197983"/>
    <nd ref="26399116"/>
    <nd ref="21703366"/>
    <nd ref="60284006"/>
    <nd ref="47380155"/>
    <nd ref="55161828"/>
    <nd ref="30381735"/>
    <nd ref="47378975"/>
    <nd ref="55166067"/>
    <nd ref="47377803"/>
    <nd ref="47382101"/>
    <nd ref="55166187"/>
    <nd ref="31928071"/>
    <nd ref="55166521"/>
    <nd ref="55166747"/>
    <nd ref="55158944"/>
    <nd ref="60025221"/>
    <tag k="created_by" v="Potlatch 0.10"/>
    <tag k="highway" v="trunk"/>
    <tag k="name" v="Silverwater Road"/>
    <tag k="oneway" v="yes"/>
    <tag k="ref" v="MR6"/>
  </way>
  <way id="8031143" version="10" timestamp="2009-06-20T12:31:02Z" uid="9477" user="NilbogAus" changeset="1574228">
    <nd ref="60027019"/>
    <nd ref="60284008"/>
    <nd ref="270197983"/>
    <nd ref="26399116"/>
    <nd ref="21703366"/>
    <nd ref="60284006"/>
    <nd ref="47380155"/>
    <nd ref="55161828"/>
    <nd ref="30381735"/>
    <nd ref="47378975"/>
    <nd ref="55166067"/>
    <nd ref="47377803"/>
    <nd ref="47382101"/>
    <nd ref="55166187"/>
    <nd ref="31928071"/>
    <nd ref="55166521"/>
    <nd ref="55166747"/>
    <nd ref="55158944"/>
    <nd ref="60025221"/>
    <tag k="created_by" v="Potlatch 0.10"/>
    <tag k="highway" v="trunk"/>
    <tag k="name" v="Silverwater Road"/>
    <tag k="oneway" v="yes"/>
    <tag k="ref" v="MR6"/>
  </way>
  <way id="8031143" version="11" timestamp="2009-12-26T16:20:10Z" uid="12203" user="brainwad" changeset="3455356">
    <nd ref="60027019"/>
    <nd ref="60284008"/>
    <nd ref="270197983"/>
    <nd ref="26399116"/>
    <nd ref="21703366"/>
    <nd ref="60284006"/>
    <nd ref="47380155"/>
    <nd ref="55161828"/>
    <nd ref="30381735"/>
    <nd ref="47378975"/>
    <nd ref="55166067"/>
    <nd ref="47377803"/>
    <nd ref="47382101"/>
    <nd ref="55166187"/>
    <nd ref="31928071"/>
    <nd ref="55166521"/>
    <nd ref="55166747"/>
    <nd ref="55158944"/>
    <nd ref="60025221"/>
    <tag k="highway" v="trunk"/>
    <tag k="maxspeed" v="70"/>
    <tag k="name" v="Silverwater Road"/>
    <tag k="oneway" v="yes"/>
    <tag k="ref" v="MR6"/>
  </way>
  <way id="8031143" version="12" timestamp="2010-04-01T05:36:47Z" uid="74617" user="JohnSmith" changeset="4291104">
    <nd ref="60027019"/>
    <nd ref="60284008"/>
    <nd ref="270197983"/>
    <nd ref="26399116"/>
    <nd ref="21703366"/>
    <nd ref="60284006"/>
    <nd ref="47380155"/>
    <nd ref="55161828"/>
    <nd ref="30381735"/>
    <nd ref="47378975"/>
    <nd ref="55166067"/>
    <nd ref="47377803"/>
    <nd ref="47382101"/>
    <nd ref="55166187"/>
    <nd ref="31928071"/>
    <nd ref="55166521"/>
    <nd ref="55166747"/>
    <nd ref="55158944"/>
    <nd ref="679636952"/>
    <tag k="highway" v="trunk"/>
    <tag k="maxspeed" v="70"/>
    <tag k="name" v="Silverwater Road"/>
    <tag k="oneway" v="yes"/>
  </way>
  <way id="8031143" version="13" timestamp="2010-06-19T03:20:08Z" uid="299678" user="peteramjet" changeset="5020744">
    <nd ref="60027019"/>
    <nd ref="60284008"/>
    <nd ref="270197983"/>
    <nd ref="26399116"/>
    <tag k="highway" v="trunk"/>
    <tag k="maxspeed" v="70"/>
    <tag k="name" v="Silverwater Road"/>
    <tag k="oneway" v="yes"/>
  </way>
  <way id="8031143" version="14" timestamp="2010-06-30T08:58:17Z" uid="299678" user="peteramjet" changeset="5111867">
    <nd ref="60027019"/>
    <nd ref="60284008"/>
    <nd ref="270197983"/>
    <nd ref="26399116"/>
    <tag k="highway" v="trunk"/>
    <tag k="maxspeed" v="70"/>
    <tag k="name" v="Silverwater Road"/>
    <tag k="oneway" v="yes"/>
    <tag k="ref" v="MR6"/>
  </way>
  <way id="8031143" version="15" timestamp="2010-07-08T12:26:47Z" uid="299678" user="peteramjet" changeset="5165746">
    <nd ref="60027019"/>
    <nd ref="60284008"/>
    <nd ref="270197983"/>
    <nd ref="26399116"/>
    <tag k="highway" v="trunk"/>
    <tag k="maxspeed" v="70"/>
    <tag k="name" v="Silverwater Road"/>
    <tag k="oneway" v="yes"/>
  </way>
  <way id="8031143" version="16" timestamp="2011-05-21T13:52:28Z" uid="7617" user="Franc" changeset="8206884">
    <nd ref="60027019"/>
    <nd ref="1294904092"/>
    <tag k="highway" v="trunk"/>
    <tag k="maxspeed" v="70"/>
    <tag k="name" v="Silverwater Road"/>
    <tag k="oneway" v="yes"/>
  </way>
  <way id="8031143" version="17" timestamp="2012-03-13T02:00:26Z" uid="7523" user="inas" changeset="10962513"/>
  <way id="8031162" version="2" timestamp="2009-09-24T01:31:49Z" uid="74617" user="JohnSmith" changeset="2601172"/>
  <way id="8031165" version="3" timestamp="2009-12-07T01:01:26Z" uid="30201" user="rrankin" changeset="3311972"/>
  <way id="8031167" version="2" timestamp="2009-12-07T01:01:25Z" uid="30201" user="rrankin" changeset="3311972">
    <nd ref="60027274"/>
    <nd ref="582770127"/>
    <nd ref="60027344"/>
    <nd ref="582770126"/>
    <nd ref="582770128"/>
    <nd ref="60027345"/>
    <nd ref="582770129"/>
    <nd ref="60027269"/>
    <tag k="highway" v="trunk_link"/>
    <tag k="oneway" v="yes"/>
  </way>
  <way id="8031167" version="3" timestamp="2010-04-01T06:02:04Z" uid="74617" user="JohnSmith" changeset="4291104">
    <nd ref="60027274"/>
    <nd ref="582770127"/>
    <nd ref="60027344"/>
    <nd ref="582770126"/>
    <nd ref="582770128"/>
    <nd ref="60027345"/>
    <nd ref="582770129"/>
    <nd ref="60027269"/>
    <tag k="highway" v="trunk"/>
    <tag k="oneway" v="yes"/>
  </way>
  <way id="8031167" version="4" timestamp="2010-06-30T08:58:13Z" uid="299678" user="peteramjet" changeset="5111867">
    <nd ref="60027274"/>
    <nd ref="582770127"/>
    <nd ref="60027344"/>
    <nd ref="582770126"/>
    <nd ref="582770128"/>
    <nd ref="60027345"/>
    <nd ref="582770129"/>
    <nd ref="60027269"/>
    <tag k="highway" v="trunk"/>
    <tag k="name" v="Boorea Avenue"/>
    <tag k="oneway" v="yes"/>
    <tag k="ref" v="MR6"/>
  </way>
  <way id="8031167" version="5" timestamp="2010-07-08T12:26:42Z" uid="299678" user="peteramjet" changeset="5165746">
    <nd ref="60027274"/>
    <nd ref="582770127"/>
    <nd ref="60027344"/>
    <nd ref="582770126"/>
    <nd ref="582770128"/>
    <nd ref="60027345"/>
    <nd ref="582770129"/>
    <nd ref="60027269"/>
    <tag k="highway" v="trunk"/>
    <tag k="name" v="Boorea Avenue"/>
    <tag k="oneway" v="yes"/>
  </way>
  <way id="8031167" version="6" timestamp="2012-02-02T01:25:50Z" uid="54784" user="Tom Hollander" changeset="10564041">
    <nd ref="60027274"/>
    <nd ref="582770127"/>
    <nd ref="60027344"/>
    <nd ref="582770126"/>
    <nd ref="582770128"/>
    <nd ref="60027345"/>
    <nd ref="582770129"/>
    <nd ref="60027269"/>
    <tag k="highway" v="trunk"/>
    <tag k="name" v="Boorea Avenue"/>
    <tag k="oneway" v="yes"/>
    <tag k="ref" v="MR6"/>
  </way>
  <way id="8031167" version="7" timestamp="2012-03-12T05:20:58Z" uid="7523" user="inas" changeset="10950679">
    <nd ref="60027274"/>
    <nd ref="60027344"/>
    <nd ref="60027269"/>
    <tag k="highway" v="trunk"/>
    <tag k="name" v="Boorea Avenue"/>
    <tag k="oneway" v="yes"/>
    <tag k="ref" v="MR6"/>
  </way>
  <way id="8031167" version="8" timestamp="2012-03-13T00:05:59Z" uid="7523" user="inas" changeset="10962064"/>
  <way id="8031179" version="2" timestamp="2009-09-24T01:31:49Z" uid="74617" user="JohnSmith" changeset="2601172"/>
  <way id="8031181" version="3" timestamp="2009-07-19T06:00:41Z" uid="7617" user="Franc" changeset="1869567">
    <nd ref="26399202"/>
    <nd ref="443604703"/>
    <nd ref="26399201"/>
    <nd ref="26399200"/>
    <nd ref="256175225"/>
    <nd ref="26399199"/>
    <nd ref="26399198"/>
    <nd ref="26399197"/>
    <nd ref="26399196"/>
    <nd ref="26399195"/>
    <nd ref="26399194"/>
    <nd ref="60027438"/>
    <nd ref="26399193"/>
    <nd ref="19164372"/>
    <nd ref="19164370"/>
    <tag k="created_by" v="Potlatch 0.8a"/>
    <tag k="highway" v="trunk"/>
    <tag k="name" v="Olympic Drive"/>
    <tag k="oneway" v="yes"/>
    <tag k="ref" v="MR6"/>
  </way>
  <way id="8031181" version="4" timestamp="2009-07-31T12:56:48Z" uid="4467" user="Rosscoe" changeset="1994444">
    <nd ref="26399238"/>
    <nd ref="26399237"/>
    <nd ref="26399202"/>
    <nd ref="443604703"/>
    <nd ref="26399201"/>
    <nd ref="26399200"/>
    <nd ref="256175225"/>
    <nd ref="26399199"/>
    <nd ref="26399198"/>
    <nd ref="26399197"/>
    <nd ref="26399196"/>
    <nd ref="26399195"/>
    <nd ref="26399194"/>
    <nd ref="60027438"/>
    <nd ref="26399193"/>
    <nd ref="19164372"/>
    <nd ref="19164370"/>
    <tag k="highway" v="trunk"/>
    <tag k="name" v="Olympic Drive"/>
    <tag k="oneway" v="yes"/>
    <tag k="ref" v="MR6"/>
  </way>
  <way id="8031181" version="5" timestamp="2010-02-08T16:58:30Z" uid="33377" user="Victor LP" changeset="3824968">
    <nd ref="26399238"/>
    <nd ref="26399237"/>
    <nd ref="26399202"/>
    <nd ref="443604703"/>
    <nd ref="26399201"/>
    <nd ref="26399200"/>
    <nd ref="256175225"/>
    <nd ref="26399199"/>
    <nd ref="26399198"/>
    <nd ref="26399197"/>
    <nd ref="26399196"/>
    <nd ref="26399195"/>
    <nd ref="26399194"/>
    <nd ref="60027438"/>
    <nd ref="633433865"/>
    <nd ref="26399193"/>
    <nd ref="19164372"/>
    <nd ref="19164370"/>
    <tag k="highway" v="trunk"/>
    <tag k="lanes" v="3"/>
    <tag k="name" v="Olympic Drive"/>
    <tag k="oneway" v="yes"/>
    <tag k="ref" v="MR6"/>
  </way>
  <way id="8031181" version="6" timestamp="2010-04-01T06:28:42Z" uid="74617" user="JohnSmith" changeset="4291360"/>
  <way id="8031203" version="4" timestamp="2010-02-14T17:06:49Z" uid="74617" user="JohnSmith" changeset="3875836">
    <nd ref="60023258"/>
    <nd ref="334052265"/>
    <nd ref="60023259"/>
    <nd ref="334052273"/>
    <nd ref="60023260"/>
    <tag k="highway" v="residential"/>
    <tag k="maxspeed" v="40"/>
    <tag k="name" v="Errard Street"/>
  </way>
  <way id="8031204" version="3" timestamp="2010-02-14T17:06:29Z" uid="74617" user="JohnSmith" changeset="3875836">
    <nd ref="59833271"/>
    <nd ref="59833272"/>
    <nd ref="60023276"/>
    <tag k="highway" v="residential"/>
    <tag k="maxspeed" v="50"/>
    <tag k="name" v="Crescent Road"/>
  </way>
  <way id="8031204" version="4" timestamp="2012-01-15T06:52:34Z" uid="147510" user="woodpeck_fixbot" changeset="10394821">
    <nd ref="59833271"/>
    <nd ref="59833272"/>
    <nd ref="60023276"/>
    <tag k="highway" v="residential"/>
    <tag k="name" v="Crescent Road"/>
  </way>
  <way id="8031205" version="6" timestamp="2010-02-14T17:06:29Z" uid="74617" user="JohnSmith" changeset="3875836">
    <nd ref="60023285"/>
    <nd ref="293657238"/>
    <nd ref="334059581"/>
    <nd ref="59828069"/>
    <tag k="highway" v="residential"/>
    <tag k="maxspeed" v="50"/>
    <tag k="name" v="Park Street"/>
  </way>
  <way id="8031205" version="7" timestamp="2010-05-27T07:05:57Z" uid="74617" user="JohnSmith" changeset="4819577">
    <nd ref="750479465"/>
    <nd ref="293657238"/>
    <nd ref="334059581"/>
    <nd ref="59828069"/>
    <tag k="highway" v="residential"/>
    <tag k="maxspeed" v="50"/>
    <tag k="name" v="Park Street"/>
  </way>
  <way id="8031205" version="8" timestamp="2012-01-15T06:52:35Z" uid="147510" user="woodpeck_fixbot" changeset="10394821">
    <nd ref="750479465"/>
    <nd ref="293657238"/>
    <nd ref="334059581"/>
    <nd ref="59828069"/>
    <tag k="highway" v="residential"/>
    <tag k="name" v="Park Street"/>
  </way>
  <way id="8031206" version="8" timestamp="2010-02-14T17:05:16Z" uid="74617" user="JohnSmith" changeset="3875836">
    <nd ref="60027510"/>
    <nd ref="321733434"/>
    <nd ref="60027509"/>
    <nd ref="60027506"/>
    <nd ref="60027505"/>
    <nd ref="60027504"/>
    <nd ref="60027503"/>
    <nd ref="60027502"/>
    <nd ref="321733446"/>
    <nd ref="60027499"/>
    <nd ref="92352560"/>
    <nd ref="92352559"/>
    <nd ref="60027501"/>
    <nd ref="275586760"/>
    <nd ref="275586759"/>
    <nd ref="62241276"/>
    <nd ref="62241277"/>
    <nd ref="370245362"/>
    <nd ref="62241281"/>
    <nd ref="60027510"/>
    <tag k="layer" v="-1"/>
    <tag k="leisure" v="park"/>
    <tag k="name" v="Bancroft Park"/>
  </way>
  <way id="8031212" version="4" timestamp="2010-06-08T15:33:57Z" uid="33382" user="de_muur" changeset="4938078">
    <nd ref="34158583"/>
    <nd ref="34158584"/>
    <nd ref="34158585"/>
    <nd ref="34158586"/>
    <nd ref="248016659"/>
    <tag k="highway" v="secondary"/>
    <tag k="maxspeed" v="50"/>
    <tag k="surface" v="paved"/>
  </way>
  <way id="8031212" version="5" timestamp="2011-04-18T20:07:39Z" uid="114430" user="Chenshi" changeset="7900944">
    <nd ref="34158583"/>
    <nd ref="34158584"/>
    <nd ref="34158586"/>
    <nd ref="248016659"/>
    <tag k="highway" v="secondary"/>
    <tag k="maxspeed" v="50"/>
    <tag k="surface" v="paved"/>
  </way>
  <way id="8031214" version="4" timestamp="2008-06-07T06:22:57Z" uid="30201" user="rrankin" changeset="81397">
    <nd ref="60027272"/>
    <nd ref="60027536"/>
    <nd ref="60027537"/>
    <nd ref="60027538"/>
    <nd ref="60027539"/>
    <nd ref="60027540"/>
    <nd ref="60027541"/>
    <nd ref="268908223"/>
    <nd ref="60027542"/>
    <nd ref="247172129"/>
    <nd ref="247172100"/>
    <nd ref="60027543"/>
    <nd ref="60027544"/>
    <nd ref="60027545"/>
    <nd ref="60027546"/>
    <nd ref="60027547"/>
    <tag k="created_by" v="Potlatch 0.7"/>
    <tag k="highway" v="trunk"/>
    <tag k="name" v="Olympic Drive"/>
    <tag k="oneway" v="yes"/>
    <tag k="ref" v="MR6"/>
  </way>
  <way id="8031214" version="5" timestamp="2008-06-08T01:29:14Z" uid="30201" user="rrankin" changeset="93545">
    <nd ref="60027272"/>
    <nd ref="60027536"/>
    <nd ref="60027537"/>
    <nd ref="60027538"/>
    <nd ref="60027539"/>
    <nd ref="60027540"/>
    <nd ref="60027541"/>
    <nd ref="268908223"/>
    <nd ref="60027542"/>
    <nd ref="247172129"/>
    <nd ref="247172100"/>
    <nd ref="60027543"/>
    <nd ref="60027544"/>
    <nd ref="60027545"/>
    <nd ref="60027546"/>
    <nd ref="269091346"/>
    <nd ref="60027547"/>
    <tag k="created_by" v="Potlatch 0.7"/>
    <tag k="highway" v="trunk"/>
    <tag k="name" v="Olympic Drive"/>
    <tag k="oneway" v="yes"/>
    <tag k="ref" v="MR6"/>
  </way>
  <way id="8031214" version="6" timestamp="2009-02-21T03:12:37Z" uid="94048" user="Brad777" changeset="584241">
    <nd ref="60027272"/>
    <nd ref="60027536"/>
    <nd ref="60027537"/>
    <nd ref="60027538"/>
    <nd ref="60027539"/>
    <nd ref="60027540"/>
    <nd ref="60027541"/>
    <nd ref="268908223"/>
    <nd ref="60027542"/>
    <nd ref="247172129"/>
    <nd ref="247172100"/>
    <nd ref="60027543"/>
    <nd ref="348176630"/>
    <nd ref="60027544"/>
    <nd ref="60027545"/>
    <nd ref="60027546"/>
    <nd ref="269091346"/>
    <nd ref="60027547"/>
    <tag k="created_by" v="Potlatch 0.10f"/>
    <tag k="highway" v="trunk"/>
    <tag k="name" v="Olympic Drive"/>
    <tag k="oneway" v="yes"/>
    <tag k="ref" v="MR6"/>
  </way>
  <way id="8031214" version="7" timestamp="2009-05-31T07:37:59Z" uid="7617" user="Franc" changeset="1365885">
    <nd ref="60027272"/>
    <nd ref="60027536"/>
    <nd ref="60027537"/>
    <nd ref="60027538"/>
    <nd ref="60027539"/>
    <nd ref="60027540"/>
    <nd ref="413345347"/>
    <nd ref="60027541"/>
    <nd ref="268908223"/>
    <nd ref="247172129"/>
    <nd ref="247172100"/>
    <nd ref="60027543"/>
    <nd ref="348176630"/>
    <nd ref="413345351"/>
    <nd ref="413345350"/>
    <nd ref="60027544"/>
    <nd ref="413345349"/>
    <nd ref="60027545"/>
    <nd ref="413345348"/>
    <nd ref="60027546"/>
    <nd ref="269091346"/>
    <nd ref="60027547"/>
    <tag k="created_by" v="Potlatch 0.10f"/>
    <tag k="highway" v="trunk"/>
    <tag k="name" v="Olympic Drive"/>
    <tag k="oneway" v="yes"/>
    <tag k="ref" v="MR6"/>
  </way>
  <way id="8031214" version="8" timestamp="2009-07-19T06:00:39Z" uid="7617" user="Franc" changeset="1869567">
    <nd ref="60027272"/>
    <nd ref="60027536"/>
    <nd ref="60027537"/>
    <nd ref="60027538"/>
    <nd ref="60027539"/>
    <nd ref="60027540"/>
    <nd ref="413345347"/>
    <nd ref="60027541"/>
    <nd ref="268908223"/>
    <nd ref="247172129"/>
    <nd ref="247172100"/>
    <nd ref="60027543"/>
    <nd ref="348176630"/>
    <nd ref="413345351"/>
    <nd ref="413345350"/>
    <nd ref="60027544"/>
    <nd ref="413345349"/>
    <nd ref="60027545"/>
    <nd ref="413345348"/>
    <nd ref="60027546"/>
    <nd ref="269091346"/>
    <nd ref="443604706"/>
    <nd ref="60027547"/>
    <tag k="created_by" v="Potlatch 0.10f"/>
    <tag k="highway" v="trunk"/>
    <tag k="name" v="Olympic Drive"/>
    <tag k="oneway" v="yes"/>
    <tag k="ref" v="MR6"/>
  </way>
  <way id="8031214" version="9" timestamp="2009-07-31T12:56:48Z" uid="4467" user="Rosscoe" changeset="1994444">
    <nd ref="60027272"/>
    <nd ref="60027536"/>
    <nd ref="60027537"/>
    <nd ref="60027538"/>
    <nd ref="60027539"/>
    <nd ref="60027540"/>
    <nd ref="413345347"/>
    <nd ref="60027541"/>
    <nd ref="268908223"/>
    <nd ref="247172129"/>
    <nd ref="247172100"/>
    <nd ref="60027543"/>
    <nd ref="348176630"/>
    <nd ref="413345351"/>
    <nd ref="413345350"/>
    <nd ref="60027544"/>
    <nd ref="413345349"/>
    <nd ref="60027545"/>
    <nd ref="413345348"/>
    <nd ref="60027546"/>
    <tag k="highway" v="trunk"/>
    <tag k="name" v="Olympic Drive"/>
    <tag k="oneway" v="yes"/>
    <tag k="ref" v="MR6"/>
  </way>
  <way id="8031214" version="10" timestamp="2010-02-08T16:58:29Z" uid="33377" user="Victor LP" changeset="3824968">
    <nd ref="60027272"/>
    <nd ref="60027536"/>
    <nd ref="60027537"/>
    <nd ref="60027538"/>
    <nd ref="60027539"/>
    <nd ref="60027540"/>
    <nd ref="413345347"/>
    <nd ref="60027541"/>
    <nd ref="268908223"/>
    <nd ref="247172129"/>
    <nd ref="247172100"/>
    <nd ref="60027543"/>
    <nd ref="348176630"/>
    <nd ref="413345351"/>
    <nd ref="413345350"/>
    <nd ref="60027544"/>
    <nd ref="413345349"/>
    <nd ref="60027545"/>
    <nd ref="413345348"/>
    <nd ref="60027546"/>
    <tag k="highway" v="trunk"/>
    <tag k="lanes" v="3"/>
    <tag k="maxspeed" v="70"/>
    <tag k="name" v="Olympic Drive"/>
    <tag k="oneway" v="yes"/>
    <tag k="ref" v="MR6"/>
  </way>
  <way id="8031214" version="11" timestamp="2010-04-01T06:28:42Z" uid="74617" user="JohnSmith" changeset="4291360"/>
  <way id="8031228" version="10" timestamp="2009-11-06T00:49:25Z" uid="36809" user="pfoten_weg_!_" changeset="3044956">
    <nd ref="60023136"/>
    <nd ref="60027623"/>
    <tag k="highway" v="road"/>
  </way>
  <way id="8031228" version="11" timestamp="2010-03-28T11:16:38Z" uid="163437" user="r-michael" changeset="4255323">
    <nd ref="60023136"/>
    <nd ref="60027623"/>
    <tag k="highway" v="service"/>
    <tag k="service" v="parking_aisle"/>
  </way>
  <way id="8031228" version="12" timestamp="2010-08-24T12:24:47Z" uid="163437" user="r-michael" changeset="5579306">
    <nd ref="60023136"/>
    <nd ref="60027623"/>
    <tag k="access" v="permissive"/>
    <tag k="highway" v="service"/>
    <tag k="service" v="parking_aisle"/>
  </way>
  <way id="8031228" version="13" timestamp="2010-09-13T11:10:10Z" uid="163437" user="r-michael" changeset="5768653">
    <nd ref="60023136"/>
    <nd ref="60027623"/>
    <nd ref="910466344"/>
    <tag k="highway" v="service"/>
    <tag k="service" v="parking_aisle"/>
  </way>
  <way id="8031228" version="14" timestamp="2010-09-13T12:16:25Z" uid="163437" user="r-michael" changeset="5769113">
    <nd ref="60023136"/>
    <nd ref="910548047"/>
    <nd ref="60027623"/>
    <nd ref="910466344"/>
    <tag k="highway" v="service"/>
    <tag k="service" v="parking_aisle"/>
  </way>
  <way id="8031239" version="4" timestamp="2009-11-06T00:49:33Z" uid="36809" user="pfoten_weg_!_" changeset="3044956">
    <nd ref="60027649"/>
    <nd ref="60027687"/>
    <nd ref="60027645"/>
    <nd ref="60027689"/>
    <nd ref="60027653"/>
    <nd ref="60027647"/>
    <tag k="access" v="no"/>
    <tag k="highway" v="service"/>
  </way>
  <way id="8031239" version="5" timestamp="2010-03-20T18:11:00Z" uid="109828" user="pc-crack" changeset="4182921">
    <nd ref="60027649"/>
    <nd ref="60027687"/>
    <nd ref="60027645"/>
    <nd ref="60027689"/>
    <nd ref="60027653"/>
    <nd ref="60027647"/>
    <tag k="access" v="no"/>
    <tag k="bicycle" v="yes"/>
    <tag k="highway" v="service"/>
  </way>
  <way id="8031239" version="6" timestamp="2010-07-23T11:16:22Z" uid="163437" user="r-michael" changeset="5294758">
    <nd ref="60023136"/>
    <nd ref="60027687"/>
    <nd ref="830005473"/>
    <nd ref="830005380"/>
    <nd ref="830005337"/>
    <nd ref="830005409"/>
    <nd ref="60027645"/>
    <nd ref="60027689"/>
    <nd ref="60027653"/>
    <nd ref="830005447"/>
    <nd ref="830005416"/>
    <nd ref="60027647"/>
    <tag k="access" v="no"/>
    <tag k="bicycle" v="yes"/>
    <tag k="highway" v="service"/>
    <tag k="name" v="Fünfwegekreuz"/>
  </way>
  <way id="8031239" version="7" timestamp="2010-08-24T12:24:40Z" uid="163437" user="r-michael" changeset="5579306">
    <nd ref="60023136"/>
    <nd ref="60027687"/>
    <nd ref="830005473"/>
    <nd ref="830005380"/>
    <nd ref="830005337"/>
    <nd ref="830005409"/>
    <nd ref="60027645"/>
    <nd ref="60027689"/>
    <nd ref="60027653"/>
    <nd ref="830005447"/>
    <nd ref="830005416"/>
    <nd ref="60027647"/>
    <tag k="access" v="permissive"/>
    <tag k="bicycle" v="yes"/>
    <tag k="highway" v="service"/>
    <tag k="name" v="Fünfwegekreuz"/>
  </way>
  <way id="8031239" version="8" timestamp="2010-09-13T11:10:16Z" uid="163437" user="r-michael" changeset="5768653">
    <nd ref="60023136"/>
    <nd ref="910466158"/>
    <nd ref="60027687"/>
    <nd ref="830005473"/>
    <nd ref="830005380"/>
    <nd ref="830005337"/>
    <nd ref="830005409"/>
    <nd ref="60027645"/>
    <nd ref="60027689"/>
    <nd ref="60027653"/>
    <nd ref="830005447"/>
    <nd ref="830005416"/>
    <nd ref="60027647"/>
    <tag k="access" v="permissive"/>
    <tag k="bicycle" v="yes"/>
    <tag k="highway" v="service"/>
    <tag k="name" v="Fünfwegekreuz"/>
  </way>
  <way id="8031239" version="9" timestamp="2010-09-13T12:16:35Z" uid="163437" user="r-michael" changeset="5769113">
    <nd ref="60023136"/>
    <nd ref="910466158"/>
    <nd ref="60027687"/>
    <nd ref="830005473"/>
    <nd ref="830005380"/>
    <nd ref="830005337"/>
    <nd ref="830005409"/>
    <nd ref="60027645"/>
    <nd ref="60027689"/>
    <nd ref="60027653"/>
    <nd ref="830005447"/>
    <nd ref="830005416"/>
    <nd ref="60027647"/>
    <tag k="access" v="permissive"/>
    <tag k="highway" v="service"/>
    <tag k="name" v="Fünfwegekreuz"/>
  </way>
  <way id="8031239" version="10" timestamp="2010-10-22T10:27:22Z" uid="163437" user="r-michael" changeset="6134809">
    <nd ref="60023136"/>
    <nd ref="910466158"/>
    <nd ref="60027687"/>
    <nd ref="830005473"/>
    <nd ref="830005380"/>
    <nd ref="830005337"/>
    <nd ref="830005409"/>
    <nd ref="60027645"/>
    <nd ref="60027653"/>
    <nd ref="830005447"/>
    <nd ref="830005416"/>
    <nd ref="60027647"/>
    <tag k="access" v="permissive"/>
    <tag k="highway" v="service"/>
    <tag k="name" v="Fünfwegekreuz"/>
  </way>
  <way id="8031239" version="11" timestamp="2011-12-17T11:57:00Z" uid="163437" user="r-michael" changeset="10137741">
    <nd ref="60023136"/>
    <nd ref="910466158"/>
    <nd ref="60027687"/>
    <nd ref="830005473"/>
    <nd ref="830005337"/>
    <nd ref="830005409"/>
    <nd ref="60027645"/>
    <nd ref="60027653"/>
    <nd ref="830005447"/>
    <nd ref="830005416"/>
    <nd ref="60027647"/>
    <tag k="access" v="permissive"/>
    <tag k="highway" v="service"/>
    <tag k="name" v="Fünfwegekreuz"/>
  </way>
  <way id="8031240" version="4" timestamp="2009-11-06T00:49:37Z" uid="36809" user="pfoten_weg_!_" changeset="3044956">
    <nd ref="60027647"/>
    <nd ref="60027648"/>
    <tag k="access" v="no"/>
    <tag k="highway" v="service"/>
  </way>
  <way id="8031240" version="5" timestamp="2010-03-20T18:11:00Z" uid="109828" user="pc-crack" changeset="4182921">
    <nd ref="60027647"/>
    <nd ref="60027648"/>
    <tag k="access" v="no"/>
    <tag k="bicycle" v="yes"/>
    <tag k="highway" v="service"/>
  </way>
  <way id="8031240" version="6" timestamp="2010-07-23T11:16:16Z" uid="163437" user="r-michael" changeset="5294758">
    <nd ref="60027647"/>
    <nd ref="60027648"/>
    <tag k="access" v="no"/>
    <tag k="bicycle" v="yes"/>
    <tag k="highway" v="service"/>
    <tag k="name" v="Fünfwegekreuz"/>
  </way>
  <way id="8031240" version="7" timestamp="2010-08-08T19:19:24Z" uid="73640" user="Andreas Schwotzer" changeset="5436722">
    <nd ref="60027647"/>
    <nd ref="60027648"/>
    <nd ref="849945245"/>
    <tag k="access" v="no"/>
    <tag k="bicycle" v="yes"/>
    <tag k="highway" v="service"/>
    <tag k="name" v="Fünfwegekreuz"/>
  </way>
  <way id="8031240" version="8" timestamp="2010-08-24T12:24:53Z" uid="163437" user="r-michael" changeset="5579306">
    <nd ref="60027647"/>
    <nd ref="60027648"/>
    <nd ref="849945245"/>
    <tag k="access" v="permissive"/>
    <tag k="bicycle" v="yes"/>
    <tag k="highway" v="service"/>
    <tag k="name" v="Fünfwegekreuz"/>
  </way>
  <way id="8031240" version="9" timestamp="2011-05-02T12:04:10Z" uid="163437" user="r-michael" changeset="8029993">
    <nd ref="60027647"/>
    <nd ref="1270193422"/>
    <nd ref="60027648"/>
    <nd ref="849945245"/>
    <tag k="access" v="permissive"/>
    <tag k="bicycle" v="yes"/>
    <tag k="highway" v="service"/>
    <tag k="name" v="Fünfwegekreuz"/>
  </way>
  <way id="8031240" version="10" timestamp="2011-12-17T11:57:01Z" uid="163437" user="r-michael" changeset="10137741">
    <nd ref="60027647"/>
    <nd ref="1270193422"/>
    <nd ref="60027648"/>
    <nd ref="849945245"/>
    <nd ref="1550177125"/>
    <nd ref="1550177126"/>
    <nd ref="1550177128"/>
    <tag k="access" v="permissive"/>
    <tag k="bicycle" v="yes"/>
    <tag k="highway" v="service"/>
    <tag k="name" v="Fünfwegekreuz"/>
  </way>
  <way id="8031241" version="7" timestamp="2009-11-06T00:49:28Z" uid="36809" user="pfoten_weg_!_" changeset="3044956">
    <nd ref="60027645"/>
    <nd ref="60027692"/>
    <nd ref="60027694"/>
    <nd ref="60027690"/>
    <nd ref="60027646"/>
    <nd ref="60027644"/>
    <tag k="access" v="no"/>
    <tag k="highway" v="service"/>
  </way>
  <way id="8031241" version="8" timestamp="2010-03-20T18:10:59Z" uid="109828" user="pc-crack" changeset="4182921">
    <nd ref="60027645"/>
    <nd ref="60027692"/>
    <nd ref="60027694"/>
    <nd ref="60027690"/>
    <nd ref="60027646"/>
    <nd ref="60027644"/>
    <tag k="access" v="no"/>
    <tag k="bicycle" v="yes"/>
    <tag k="highway" v="service"/>
  </way>
  <way id="8031241" version="9" timestamp="2010-07-23T11:16:10Z" uid="163437" user="r-michael" changeset="5294758">
    <nd ref="60027645"/>
    <nd ref="60027646"/>
    <nd ref="830005379"/>
    <nd ref="60027644"/>
    <tag k="access" v="no"/>
    <tag k="bicycle" v="yes"/>
    <tag k="highway" v="service"/>
    <tag k="name" v="Fünfwegekreuz"/>
  </way>
  <way id="8031241" version="10" timestamp="2010-08-24T12:24:40Z" uid="163437" user="r-michael" changeset="5579306">
    <nd ref="60027645"/>
    <nd ref="60027646"/>
    <nd ref="830005379"/>
    <nd ref="60027644"/>
    <tag k="access" v="permissive"/>
    <tag k="bicycle" v="yes"/>
    <tag k="highway" v="service"/>
    <tag k="name" v="Fünfwegekreuz"/>
  </way>
  <way id="8031241" version="11" timestamp="2010-09-13T12:16:33Z" uid="163437" user="r-michael" changeset="5769113">
    <nd ref="60027645"/>
    <nd ref="60027646"/>
    <nd ref="830005379"/>
    <nd ref="60027644"/>
    <tag k="access" v="permissive"/>
    <tag k="highway" v="service"/>
    <tag k="name" v="Fünfwegekreuz"/>
  </way>
  <way id="8031242" version="4" timestamp="2009-11-06T00:49:34Z" uid="36809" user="pfoten_weg_!_" changeset="3044956">
    <nd ref="60027646"/>
    <nd ref="60027648"/>
    <nd ref="60027652"/>
    <nd ref="60027650"/>
    <tag k="access" v="no"/>
    <tag k="highway" v="service"/>
  </way>
  <way id="8031242" version="5" timestamp="2010-03-20T18:11:00Z" uid="109828" user="pc-crack" changeset="4182921">
    <nd ref="60027646"/>
    <nd ref="60027648"/>
    <nd ref="60027652"/>
    <nd ref="60027650"/>
    <tag k="access" v="no"/>
    <tag k="bicycle" v="yes"/>
    <tag k="highway" v="service"/>
  </way>
  <way id="8031242" version="6" timestamp="2010-07-23T11:16:29Z" uid="163437" user="r-michael" changeset="5294758">
    <nd ref="60027646"/>
    <nd ref="830005421"/>
    <nd ref="60027648"/>
    <nd ref="60027652"/>
    <nd ref="60027650"/>
    <tag k="access" v="no"/>
    <tag k="bicycle" v="yes"/>
    <tag k="highway" v="service"/>
    <tag k="name" v="Fünfwegekreuz"/>
  </way>
  <way id="8031242" version="7" timestamp="2010-08-24T12:24:47Z" uid="163437" user="r-michael" changeset="5579306">
    <nd ref="60027646"/>
    <nd ref="830005421"/>
    <nd ref="60027648"/>
    <nd ref="60027652"/>
    <nd ref="60027650"/>
    <tag k="access" v="permissive"/>
    <tag k="bicycle" v="yes"/>
    <tag k="highway" v="service"/>
    <tag k="name" v="Fünfwegekreuz"/>
  </way>
  <way id="8031242" version="8" timestamp="2010-09-13T12:16:24Z" uid="163437" user="r-michael" changeset="5769113">
    <nd ref="60027646"/>
    <nd ref="830005421"/>
    <nd ref="60027648"/>
    <nd ref="60027652"/>
    <nd ref="60027650"/>
    <tag k="access" v="permissive"/>
    <tag k="highway" v="service"/>
    <tag k="name" v="Fünfwegekreuz"/>
  </way>
  <way id="8031242" version="9" timestamp="2011-12-17T11:57:00Z" uid="163437" user="r-michael" changeset="10137741">
    <nd ref="1550177193"/>
    <nd ref="60027646"/>
    <nd ref="1550177186"/>
    <nd ref="830005421"/>
    <nd ref="1550177139"/>
    <nd ref="1550177127"/>
    <nd ref="1550177124"/>
    <nd ref="60027648"/>
    <nd ref="60027652"/>
    <nd ref="60027650"/>
    <tag k="access" v="permissive"/>
    <tag k="highway" v="service"/>
    <tag k="name" v="Fünfwegekreuz"/>
  </way>
  <way id="8031243" version="6" timestamp="2009-11-06T00:49:36Z" uid="36809" user="pfoten_weg_!_" changeset="3044956">
    <nd ref="60027652"/>
    <nd ref="60027651"/>
    <tag k="access" v="no"/>
    <tag k="highway" v="service"/>
  </way>
  <way id="8031243" version="7" timestamp="2010-03-20T18:11:00Z" uid="109828" user="pc-crack" changeset="4182921">
    <nd ref="60027652"/>
    <nd ref="60027651"/>
    <tag k="access" v="no"/>
    <tag k="bicycle" v="yes"/>
    <tag k="highway" v="service"/>
  </way>
  <way id="8031243" version="8" timestamp="2010-08-24T12:24:50Z" uid="163437" user="r-michael" changeset="5579306">
    <nd ref="60027652"/>
    <nd ref="60027651"/>
    <tag k="access" v="permissive"/>
    <tag k="bicycle" v="yes"/>
    <tag k="highway" v="service"/>
  </way>
  <way id="8031244" version="5" timestamp="2009-11-06T00:49:46Z" uid="36809" user="pfoten_weg_!_" changeset="3044956">
    <nd ref="60027644"/>
    <nd ref="60027697"/>
    <nd ref="60027654"/>
    <nd ref="60023142"/>
    <nd ref="60027643"/>
    <tag k="access" v="no"/>
    <tag k="highway" v="service"/>
  </way>
  <way id="8031244" version="6" timestamp="2010-03-20T18:11:01Z" uid="109828" user="pc-crack" changeset="4182921">
    <nd ref="60027644"/>
    <nd ref="60027697"/>
    <nd ref="60027654"/>
    <nd ref="60023142"/>
    <nd ref="60027643"/>
    <tag k="access" v="no"/>
    <tag k="bicycle" v="yes"/>
    <tag k="highway" v="service"/>
  </way>
  <way id="8031244" version="7" timestamp="2010-07-23T11:16:21Z" uid="163437" user="r-michael" changeset="5294758">
    <nd ref="60027644"/>
    <nd ref="60027697"/>
    <nd ref="60027654"/>
    <nd ref="60023142"/>
    <nd ref="60027643"/>
    <tag k="access" v="no"/>
    <tag k="bicycle" v="yes"/>
    <tag k="highway" v="service"/>
    <tag k="name" v="Fünfwegekreuz"/>
  </way>
  <way id="8031244" version="8" timestamp="2010-08-24T12:24:39Z" uid="163437" user="r-michael" changeset="5579306">
    <nd ref="60027644"/>
    <nd ref="60027697"/>
    <nd ref="60027654"/>
    <nd ref="60023142"/>
    <nd ref="60027643"/>
    <tag k="access" v="permissive"/>
    <tag k="bicycle" v="yes"/>
    <tag k="highway" v="service"/>
    <tag k="name" v="Fünfwegekreuz"/>
  </way>
  <way id="8031244" version="9" timestamp="2010-10-22T10:27:22Z" uid="163437" user="r-michael" changeset="6134809">
    <nd ref="60027644"/>
    <nd ref="60027697"/>
    <nd ref="60027654"/>
    <nd ref="60023142"/>
    <tag k="access" v="permissive"/>
    <tag k="bicycle" v="yes"/>
    <tag k="highway" v="service"/>
    <tag k="name" v="Fünfwegekreuz"/>
  </way>
  <way id="8031244" version="10" timestamp="2011-12-17T11:57:01Z" uid="163437" user="r-michael" changeset="10137741">
    <nd ref="60027644"/>
    <nd ref="60027697"/>
    <nd ref="60027654"/>
    <nd ref="1550177128"/>
    <nd ref="60023142"/>
    <tag k="access" v="permissive"/>
    <tag k="bicycle" v="yes"/>
    <tag k="highway" v="service"/>
    <tag k="name" v="Fünfwegekreuz"/>
  </way>
  <way id="8031246" version="11" timestamp="2009-11-06T00:49:43Z" uid="36809" user="pfoten_weg_!_" changeset="3044956">
    <nd ref="60027654"/>
    <nd ref="270751468"/>
    <tag k="access" v="no"/>
    <tag k="highway" v="service"/>
  </way>
  <way id="8031246" version="12" timestamp="2010-03-20T18:11:01Z" uid="109828" user="pc-crack" changeset="4182921">
    <nd ref="60027654"/>
    <nd ref="270751468"/>
    <tag k="access" v="no"/>
    <tag k="bicycle" v="yes"/>
    <tag k="highway" v="service"/>
  </way>
  <way id="8031246" version="13" timestamp="2010-07-23T11:16:09Z" uid="163437" user="r-michael" changeset="5294758">
    <nd ref="60027654"/>
    <nd ref="830005359"/>
    <nd ref="270751468"/>
    <tag k="access" v="no"/>
    <tag k="bicycle" v="yes"/>
    <tag k="highway" v="service"/>
    <tag k="name" v="Fünfwegekreuz"/>
  </way>
  <way id="8031246" version="14" timestamp="2010-08-24T12:24:49Z" uid="163437" user="r-michael" changeset="5579306">
    <nd ref="60027654"/>
    <nd ref="830005359"/>
    <nd ref="270751468"/>
    <tag k="access" v="permissive"/>
    <tag k="bicycle" v="yes"/>
    <tag k="highway" v="service"/>
    <tag k="name" v="Fünfwegekreuz"/>
  </way>
  <way id="8031246" version="15" timestamp="2011-12-17T11:57:00Z" uid="163437" user="r-michael" changeset="10137741">
    <nd ref="60027654"/>
    <nd ref="1550177191"/>
    <nd ref="830005359"/>
    <nd ref="270751468"/>
    <tag k="access" v="permissive"/>
    <tag k="bicycle" v="yes"/>
    <tag k="highway" v="service"/>
    <tag k="name" v="Fünfwegekreuz"/>
  </way>
  <way id="8031348" version="7" timestamp="2009-11-06T00:49:10Z" uid="36809" user="pfoten_weg_!_" changeset="3044956">
    <nd ref="270753393"/>
    <nd ref="366550480"/>
    <nd ref="60028085"/>
    <nd ref="270753302"/>
    <nd ref="366550351"/>
    <nd ref="366550358"/>
    <nd ref="366550362"/>
    <nd ref="366550366"/>
    <nd ref="366550369"/>
    <nd ref="366550475"/>
    <nd ref="60027661"/>
    <tag k="access" v="no"/>
    <tag k="highway" v="service"/>
  </way>
  <way id="8031348" version="8" timestamp="2010-02-07T15:25:21Z" uid="163437" user="r-michael" changeset="3815233">
    <nd ref="270753393"/>
    <nd ref="366550480"/>
    <nd ref="60028085"/>
    <nd ref="270753302"/>
    <nd ref="366550351"/>
    <nd ref="366550358"/>
    <nd ref="366550362"/>
    <nd ref="366550366"/>
    <nd ref="366550369"/>
    <nd ref="632471688"/>
    <nd ref="60027661"/>
    <tag k="access" v="no"/>
    <tag k="highway" v="service"/>
  </way>
  <way id="8031348" version="9" timestamp="2010-02-15T18:29:29Z" uid="163437" user="r-michael" changeset="3885538">
    <nd ref="270753393"/>
    <nd ref="366550480"/>
    <nd ref="60028085"/>
    <nd ref="270753302"/>
    <nd ref="366550351"/>
    <nd ref="366550358"/>
    <nd ref="366550362"/>
    <nd ref="366550366"/>
    <nd ref="366550369"/>
    <nd ref="632471688"/>
    <nd ref="60027661"/>
    <tag k="access" v="no"/>
    <tag k="highway" v="service"/>
    <tag k="name" v="Versorgungsweg"/>
  </way>
  <way id="8031348" version="10" timestamp="2010-03-20T18:10:53Z" uid="109828" user="pc-crack" changeset="4182921">
    <nd ref="270753393"/>
    <nd ref="366550480"/>
    <nd ref="60028085"/>
    <nd ref="270753302"/>
    <nd ref="366550351"/>
    <nd ref="366550358"/>
    <nd ref="366550362"/>
    <nd ref="366550366"/>
    <nd ref="366550369"/>
    <nd ref="632471688"/>
    <nd ref="60027661"/>
    <tag k="access" v="no"/>
    <tag k="bicycle" v="yes"/>
    <tag k="highway" v="service"/>
    <tag k="name" v="Versorgungsweg"/>
  </way>
  <way id="8031348" version="11" timestamp="2010-08-24T12:24:48Z" uid="163437" user="r-michael" changeset="5579306">
    <nd ref="270753393"/>
    <nd ref="366550480"/>
    <nd ref="60028085"/>
    <nd ref="270753302"/>
    <nd ref="366550351"/>
    <nd ref="366550358"/>
    <nd ref="366550362"/>
    <nd ref="366550366"/>
    <nd ref="366550369"/>
    <nd ref="632471688"/>
    <nd ref="60027661"/>
    <tag k="access" v="permissive"/>
    <tag k="bicycle" v="yes"/>
    <tag k="highway" v="service"/>
    <tag k="name" v="Versorgungsweg"/>
  </way>
  <way id="8031348" version="12" timestamp="2010-09-13T11:10:22Z" uid="163437" user="r-michael" changeset="5768653">
    <nd ref="270753393"/>
    <nd ref="366550480"/>
    <nd ref="60028085"/>
    <nd ref="910465968"/>
    <nd ref="910466243"/>
    <nd ref="910465944"/>
    <nd ref="270753302"/>
    <nd ref="366550351"/>
    <nd ref="366550358"/>
    <nd ref="366550362"/>
    <nd ref="366550366"/>
    <nd ref="366550369"/>
    <nd ref="632471688"/>
    <nd ref="60027661"/>
    <tag k="access" v="permissive"/>
    <tag k="bicycle" v="yes"/>
    <tag k="highway" v="service"/>
    <tag k="name" v="Versorgungsweg"/>
  </way>
  <way id="8031348" version="13" timestamp="2010-09-13T12:16:36Z" uid="163437" user="r-michael" changeset="5769113">
    <nd ref="270753393"/>
    <nd ref="366550480"/>
    <nd ref="60028085"/>
    <nd ref="910548020"/>
    <nd ref="910547959"/>
    <nd ref="910465968"/>
    <nd ref="910466243"/>
    <nd ref="910465944"/>
    <nd ref="270753302"/>
    <nd ref="910547998"/>
    <nd ref="366550351"/>
    <nd ref="366550358"/>
    <nd ref="366550362"/>
    <nd ref="366550366"/>
    <nd ref="366550369"/>
    <nd ref="632471688"/>
    <nd ref="60027661"/>
    <tag k="access" v="permissive"/>
    <tag k="highway" v="service"/>
    <tag k="name" v="Versorgungsweg"/>
  </way>
  <way id="8031348" version="14" timestamp="2010-10-22T10:27:18Z" uid="163437" user="r-michael" changeset="6134809">
    <nd ref="270753393"/>
    <nd ref="366550480"/>
    <nd ref="960197662"/>
    <nd ref="910548020"/>
    <nd ref="910547959"/>
    <nd ref="910465968"/>
    <nd ref="910466243"/>
    <nd ref="910465944"/>
    <nd ref="270753302"/>
    <nd ref="910547998"/>
    <nd ref="366550351"/>
    <nd ref="366550358"/>
    <nd ref="366550362"/>
    <nd ref="366550366"/>
    <nd ref="366550369"/>
    <nd ref="632471688"/>
    <nd ref="60027661"/>
    <tag k="access" v="permissive"/>
    <tag k="highway" v="service"/>
    <tag k="name" v="Versorgungsweg"/>
  </way>
  <way id="8031348" version="15" timestamp="2012-02-24T11:28:31Z" uid="163437" user="r-michael" changeset="10777049">
    <nd ref="270753393"/>
    <nd ref="960197662"/>
    <nd ref="910548020"/>
    <nd ref="910547959"/>
    <nd ref="910465968"/>
    <nd ref="910466243"/>
    <nd ref="910465944"/>
    <nd ref="270753302"/>
    <nd ref="910547998"/>
    <nd ref="366550351"/>
    <nd ref="366550358"/>
    <nd ref="366550362"/>
    <nd ref="1645455841"/>
    <tag k="access" v="permissive"/>
    <tag k="highway" v="service"/>
    <tag k="name" v="Versorgungsweg"/>
  </way>
  <way id="8031363" version="2" timestamp="2009-07-19T06:00:39Z" uid="7617" user="Franc" changeset="1869567">
    <nd ref="60027547"/>
    <nd ref="60028201"/>
    <nd ref="443604717"/>
    <nd ref="60028202"/>
    <nd ref="60028203"/>
    <nd ref="60028204"/>
    <nd ref="60028205"/>
    <nd ref="60028206"/>
    <tag k="created_by" v="Potlatch alpha"/>
    <tag k="highway" v="trunk"/>
    <tag k="oneway" v="yes"/>
    <tag k="ref" v="MR6"/>
  </way>
  <way id="8031363" version="3" timestamp="2009-07-31T12:56:48Z" uid="4467" user="Rosscoe" changeset="1994444">
    <nd ref="60027546"/>
    <nd ref="269091346"/>
    <nd ref="443604706"/>
    <nd ref="60027547"/>
    <nd ref="60028201"/>
    <nd ref="443604717"/>
    <nd ref="60028202"/>
    <nd ref="60028203"/>
    <nd ref="60028204"/>
    <nd ref="60028205"/>
    <nd ref="60028206"/>
    <tag k="highway" v="trunk"/>
    <tag k="name" v="Olympic Drive"/>
    <tag k="oneway" v="yes"/>
    <tag k="ref" v="MR6"/>
  </way>
  <way id="8031363" version="4" timestamp="2010-02-08T16:58:39Z" uid="33377" user="Victor LP" changeset="3824968">
    <nd ref="60027546"/>
    <nd ref="269091346"/>
    <nd ref="443604706"/>
    <nd ref="60027547"/>
    <nd ref="60028201"/>
    <nd ref="443604717"/>
    <nd ref="60028202"/>
    <nd ref="60028203"/>
    <nd ref="60028204"/>
    <nd ref="60028205"/>
    <nd ref="60028206"/>
    <tag k="highway" v="trunk"/>
    <tag k="lanes" v="3"/>
    <tag k="maxspeed" v="70"/>
    <tag k="name" v="Olympic Drive"/>
    <tag k="oneway" v="yes"/>
    <tag k="ref" v="MR6"/>
  </way>
  <way id="8031363" version="5" timestamp="2010-04-01T06:28:39Z" uid="74617" user="JohnSmith" changeset="4291360">
    <nd ref="60027272"/>
    <nd ref="60027536"/>
    <nd ref="60027537"/>
    <nd ref="60027538"/>
    <nd ref="60027539"/>
    <nd ref="60027540"/>
    <nd ref="413345347"/>
    <nd ref="60027541"/>
    <nd ref="268908223"/>
    <nd ref="247172129"/>
    <nd ref="247172100"/>
    <nd ref="60027543"/>
    <nd ref="348176630"/>
    <nd ref="413345351"/>
    <nd ref="413345350"/>
    <nd ref="60027544"/>
    <nd ref="413345349"/>
    <nd ref="60027545"/>
    <nd ref="413345348"/>
    <nd ref="60027546"/>
    <nd ref="269091346"/>
    <nd ref="443604706"/>
    <nd ref="60027547"/>
    <nd ref="60028201"/>
    <nd ref="443604717"/>
    <nd ref="60028202"/>
    <nd ref="60028203"/>
    <nd ref="60028204"/>
    <nd ref="60028205"/>
    <nd ref="60028206"/>
    <tag k="highway" v="trunk"/>
    <tag k="lanes" v="3"/>
    <tag k="maxspeed" v="70"/>
    <tag k="name" v="Olympic Drive"/>
    <tag k="oneway" v="yes"/>
  </way>
  <way id="8031363" version="6" timestamp="2010-06-30T08:58:15Z" uid="299678" user="peteramjet" changeset="5111867">
    <nd ref="60027272"/>
    <nd ref="60027536"/>
    <nd ref="60027537"/>
    <nd ref="60027538"/>
    <nd ref="60027539"/>
    <nd ref="60027540"/>
    <nd ref="413345347"/>
    <nd ref="60027541"/>
    <nd ref="268908223"/>
    <nd ref="247172129"/>
    <nd ref="247172100"/>
    <nd ref="60027543"/>
    <nd ref="348176630"/>
    <nd ref="413345351"/>
    <nd ref="413345350"/>
    <nd ref="60027544"/>
    <nd ref="413345349"/>
    <nd ref="60027545"/>
    <nd ref="413345348"/>
    <nd ref="60027546"/>
    <nd ref="269091346"/>
    <nd ref="443604706"/>
    <nd ref="60027547"/>
    <nd ref="60028201"/>
    <nd ref="443604717"/>
    <nd ref="60028202"/>
    <nd ref="60028203"/>
    <nd ref="60028204"/>
    <nd ref="60028205"/>
    <nd ref="60028206"/>
    <tag k="highway" v="trunk"/>
    <tag k="lanes" v="3"/>
    <tag k="maxspeed" v="70"/>
    <tag k="name" v="Olympic Drive"/>
    <tag k="oneway" v="yes"/>
    <tag k="ref" v="MR6"/>
  </way>
  <way id="8031363" version="7" timestamp="2010-07-08T12:26:44Z" uid="299678" user="peteramjet" changeset="5165746">
    <nd ref="60027272"/>
    <nd ref="60027536"/>
    <nd ref="60027537"/>
    <nd ref="60027538"/>
    <nd ref="60027539"/>
    <nd ref="60027540"/>
    <nd ref="413345347"/>
    <nd ref="60027541"/>
    <nd ref="268908223"/>
    <nd ref="247172129"/>
    <nd ref="247172100"/>
    <nd ref="60027543"/>
    <nd ref="348176630"/>
    <nd ref="413345351"/>
    <nd ref="413345350"/>
    <nd ref="60027544"/>
    <nd ref="413345349"/>
    <nd ref="60027545"/>
    <nd ref="413345348"/>
    <nd ref="60027546"/>
    <nd ref="269091346"/>
    <nd ref="443604706"/>
    <nd ref="60027547"/>
    <nd ref="60028201"/>
    <nd ref="443604717"/>
    <nd ref="60028202"/>
    <nd ref="60028203"/>
    <nd ref="60028204"/>
    <nd ref="60028205"/>
    <nd ref="60028206"/>
    <tag k="highway" v="trunk"/>
    <tag k="lanes" v="3"/>
    <tag k="maxspeed" v="70"/>
    <tag k="name" v="Olympic Drive"/>
    <tag k="oneway" v="yes"/>
  </way>
  <way id="8031363" version="8" timestamp="2012-02-02T01:25:56Z" uid="54784" user="Tom Hollander" changeset="10564041">
    <nd ref="60027272"/>
    <nd ref="60027536"/>
    <nd ref="60027537"/>
    <nd ref="60027538"/>
    <nd ref="60027539"/>
    <nd ref="60027540"/>
    <nd ref="413345347"/>
    <nd ref="60027541"/>
    <nd ref="268908223"/>
    <nd ref="247172129"/>
    <nd ref="247172100"/>
    <nd ref="60027543"/>
    <nd ref="348176630"/>
    <nd ref="413345351"/>
    <nd ref="413345350"/>
    <nd ref="60027544"/>
    <nd ref="413345349"/>
    <nd ref="60027545"/>
    <nd ref="413345348"/>
    <nd ref="60027546"/>
    <nd ref="269091346"/>
    <nd ref="443604706"/>
    <nd ref="60027547"/>
    <nd ref="60028201"/>
    <nd ref="443604717"/>
    <nd ref="60028202"/>
    <nd ref="60028203"/>
    <nd ref="60028204"/>
    <nd ref="60028205"/>
    <nd ref="60028206"/>
    <tag k="highway" v="trunk"/>
    <tag k="lanes" v="3"/>
    <tag k="maxspeed" v="70"/>
    <tag k="name" v="Olympic Drive"/>
    <tag k="oneway" v="yes"/>
    <tag k="ref" v="MR6"/>
  </way>
  <way id="8031363" version="9" timestamp="2012-03-12T05:21:08Z" uid="7523" user="inas" changeset="10950679">
    <nd ref="60027272"/>
    <nd ref="60027536"/>
    <nd ref="60027537"/>
    <nd ref="60027538"/>
    <nd ref="60027539"/>
    <nd ref="60027540"/>
    <nd ref="413345347"/>
    <nd ref="60027541"/>
    <nd ref="247172129"/>
    <nd ref="247172100"/>
    <nd ref="60027543"/>
    <nd ref="348176630"/>
    <nd ref="60027544"/>
    <nd ref="60027545"/>
    <nd ref="60027546"/>
    <nd ref="269091346"/>
    <nd ref="443604706"/>
    <nd ref="60027547"/>
    <nd ref="60028201"/>
    <nd ref="60028202"/>
    <nd ref="60028203"/>
    <nd ref="60028204"/>
    <nd ref="60028205"/>
    <nd ref="60028206"/>
    <tag k="highway" v="trunk"/>
    <tag k="lanes" v="3"/>
    <tag k="maxspeed" v="70"/>
    <tag k="name" v="Olympic Drive"/>
    <tag k="oneway" v="yes"/>
    <tag k="ref" v="MR6"/>
  </way>
  <way id="8031363" version="10" timestamp="2012-03-13T00:05:53Z" uid="7523" user="inas" changeset="10962064">
    <nd ref="1672835925"/>
    <nd ref="230410328"/>
    <nd ref="1672835926"/>
    <nd ref="1672835928"/>
    <nd ref="1672835929"/>
    <nd ref="1672835931"/>
    <nd ref="1672835934"/>
    <nd ref="1672835936"/>
    <nd ref="1672835937"/>
    <nd ref="1672835938"/>
    <nd ref="1672835940"/>
    <nd ref="60027272"/>
    <nd ref="60027536"/>
    <nd ref="60027537"/>
    <nd ref="60027538"/>
    <nd ref="60027539"/>
    <nd ref="60027540"/>
    <nd ref="413345347"/>
    <nd ref="60027541"/>
    <nd ref="247172129"/>
    <nd ref="247172100"/>
    <nd ref="60027543"/>
    <nd ref="348176630"/>
    <nd ref="1672835944"/>
    <nd ref="1672835945"/>
    <nd ref="60027544"/>
    <nd ref="1672835947"/>
    <nd ref="60027545"/>
    <nd ref="60027546"/>
    <nd ref="269091346"/>
    <nd ref="443604706"/>
    <nd ref="60027547"/>
    <nd ref="60028201"/>
    <nd ref="60028202"/>
    <nd ref="60028203"/>
    <nd ref="60028204"/>
    <nd ref="60028205"/>
    <nd ref="60028206"/>
    <tag k="highway" v="trunk"/>
    <tag k="lanes" v="3"/>
    <tag k="maxspeed" v="70"/>
    <tag k="name" v="Olympic Drive"/>
    <tag k="oneway" v="yes"/>
    <tag k="ref" v="MR6"/>
  </way>
  <way id="8031363" version="11" timestamp="2012-03-13T02:00:19Z" uid="7523" user="inas" changeset="10962513">
    <nd ref="1672879617"/>
    <nd ref="1672879621"/>
    <nd ref="60026559"/>
    <nd ref="775915211"/>
    <nd ref="775915192"/>
    <nd ref="60026558"/>
    <tag k="highway" v="trunk"/>
    <tag k="lanes" v="3"/>
    <tag k="maxspeed" v="70"/>
    <tag k="name" v="Silverwater Road"/>
    <tag k="network" v="MR"/>
    <tag k="oneway" v="yes"/>
    <tag k="ref" v="6"/>
  </way>
  <way id="8031363" version="12" timestamp="2012-03-13T02:35:32Z" uid="7523" user="inas" changeset="10962608">
    <nd ref="60026567"/>
    <nd ref="60026568"/>
    <nd ref="1672896833"/>
    <nd ref="60026569"/>
    <nd ref="1672896838"/>
    <nd ref="1672896839"/>
    <nd ref="1672896841"/>
    <nd ref="1672879617"/>
    <nd ref="1672896844"/>
    <nd ref="1672879621"/>
    <nd ref="1672896847"/>
    <nd ref="60026559"/>
    <nd ref="775915211"/>
    <nd ref="775915192"/>
    <nd ref="60026558"/>
    <tag k="highway" v="trunk"/>
    <tag k="lanes" v="3"/>
    <tag k="maxspeed" v="70"/>
    <tag k="name" v="Silverwater Road"/>
    <tag k="network" v="MR"/>
    <tag k="oneway" v="yes"/>
    <tag k="ref" v="6"/>
    <tag k="source:location" v="bing"/>
  </way>
  <way id="8031363" version="13" timestamp="2012-03-17T06:33:58Z" uid="299678" user="peteramjet" changeset="11004839">
    <nd ref="60026567"/>
    <nd ref="60026568"/>
    <nd ref="1672896833"/>
    <nd ref="60026569"/>
    <nd ref="1672896838"/>
    <nd ref="1672896839"/>
    <nd ref="1672896841"/>
    <nd ref="1672879617"/>
    <nd ref="1672896844"/>
    <nd ref="1672879621"/>
    <nd ref="1672896847"/>
    <nd ref="60026559"/>
    <nd ref="775915211"/>
    <nd ref="775915192"/>
    <nd ref="60026558"/>
    <tag k="highway" v="trunk"/>
    <tag k="lanes" v="3"/>
    <tag k="maxspeed" v="70"/>
    <tag k="name" v="Silverwater Road"/>
    <tag k="network" v="MR"/>
    <tag k="oneway" v="yes"/>
    <tag k="ref" v="MR6"/>
    <tag k="source:location" v="bing"/>
  </way>
  <way id="8031393" version="3" timestamp="2010-07-07T08:45:25Z" uid="74617" user="JohnSmith" changeset="5156250">
    <nd ref="17545089"/>
    <nd ref="17545086"/>
    <nd ref="17545083"/>
    <nd ref="26651037"/>
    <tag k="highway" v="residential"/>
    <tag k="maxspeed" v="50"/>
    <tag k="maxspeed:source" v="default residential speed limit in Australia"/>
    <tag k="name" v="Booroondara Street"/>
  </way>
  <way id="8031393" version="4" timestamp="2010-09-04T15:08:04Z" uid="232912" user="Jack Kirby" changeset="5679187">
    <nd ref="17545089"/>
    <nd ref="895746258"/>
    <nd ref="17545086"/>
    <nd ref="17545083"/>
    <nd ref="26651037"/>
    <tag k="highway" v="residential"/>
    <tag k="maxspeed" v="50"/>
    <tag k="maxspeed:source" v="default residential speed limit in Australia"/>
    <tag k="name" v="Booroondara Street"/>
  </way>
  <way id="8031393" version="5" timestamp="2010-09-06T09:43:06Z" uid="232912" user="Jack Kirby" changeset="5696279">
    <nd ref="17545089"/>
    <nd ref="895746258"/>
    <nd ref="17545086"/>
    <nd ref="898920931"/>
    <nd ref="17545083"/>
    <nd ref="26651037"/>
    <tag k="highway" v="residential"/>
    <tag k="maxspeed" v="50"/>
    <tag k="maxspeed:source" v="default residential speed limit in Australia"/>
    <tag k="name" v="Booroondara Street"/>
  </way>
  <way id="8031393" version="6" timestamp="2010-09-08T11:30:37Z" uid="232912" user="Jack Kirby" changeset="5716096">
    <nd ref="17545089"/>
    <nd ref="895746258"/>
    <nd ref="902588156"/>
    <nd ref="17545086"/>
    <nd ref="902588111"/>
    <nd ref="898920931"/>
    <nd ref="17545083"/>
    <nd ref="26651037"/>
    <tag k="highway" v="residential"/>
    <tag k="maxspeed" v="50"/>
    <tag k="maxspeed:source" v="default residential speed limit in Australia"/>
    <tag k="name" v="Booroondara Street"/>
  </way>
  <way id="8031393" version="7" timestamp="2012-01-15T06:52:36Z" uid="147510" user="woodpeck_fixbot" changeset="10394821">
    <nd ref="17545089"/>
    <nd ref="895746258"/>
    <nd ref="902588156"/>
    <nd ref="17545086"/>
    <nd ref="902588111"/>
    <nd ref="898920931"/>
    <nd ref="17545083"/>
    <nd ref="26651037"/>
    <tag k="highway" v="residential"/>
    <tag k="name" v="Booroondara Street"/>
  </way>
  <way id="8031416" version="2" timestamp="2009-07-19T06:00:40Z" uid="7617" user="Franc" changeset="1869567">
    <nd ref="60028461"/>
    <nd ref="60028462"/>
    <nd ref="60028463"/>
    <nd ref="60028551"/>
    <nd ref="60028465"/>
    <nd ref="60028466"/>
    <nd ref="32059780"/>
    <tag k="created_by" v="Potlatch alpha"/>
    <tag k="highway" v="trunk"/>
    <tag k="oneway" v="yes"/>
    <tag k="ref" v="MR6"/>
  </way>
  <way id="8031416" version="3" timestamp="2009-12-10T20:39:03Z" uid="7617" user="Franc" changeset="3344824">
    <nd ref="256174027"/>
    <nd ref="60028461"/>
    <nd ref="585320304"/>
    <nd ref="585320541"/>
    <nd ref="60028463"/>
    <nd ref="60028551"/>
    <nd ref="60028465"/>
    <nd ref="60028466"/>
    <nd ref="32059780"/>
    <tag k="highway" v="trunk"/>
    <tag k="oneway" v="yes"/>
    <tag k="ref" v="MR6"/>
  </way>
  <way id="8031416" version="4" timestamp="2010-02-08T16:58:44Z" uid="33377" user="Victor LP" changeset="3824968">
    <nd ref="256174027"/>
    <nd ref="60028461"/>
    <nd ref="585320304"/>
    <nd ref="585320541"/>
    <nd ref="60028463"/>
    <nd ref="60028551"/>
    <nd ref="60028465"/>
    <nd ref="633434265"/>
    <nd ref="60028466"/>
    <nd ref="32059780"/>
    <tag k="highway" v="trunk"/>
    <tag k="lanes" v="3"/>
    <tag k="oneway" v="yes"/>
    <tag k="ref" v="MR6"/>
  </way>
  <way id="8031416" version="5" timestamp="2010-04-01T06:28:35Z" uid="74617" user="JohnSmith" changeset="4291360">
    <nd ref="256174027"/>
    <nd ref="60028461"/>
    <nd ref="585320304"/>
    <nd ref="585320541"/>
    <nd ref="60028463"/>
    <nd ref="60028551"/>
    <nd ref="60028465"/>
    <nd ref="633434265"/>
    <nd ref="60028466"/>
    <nd ref="32059780"/>
    <tag k="highway" v="trunk"/>
    <tag k="lanes" v="3"/>
    <tag k="oneway" v="yes"/>
  </way>
  <way id="8031416" version="6" timestamp="2010-05-04T21:24:56Z" uid="7617" user="Franc" changeset="4608507">
    <nd ref="256174027"/>
    <nd ref="60028461"/>
    <nd ref="585320304"/>
    <nd ref="585320541"/>
    <nd ref="60028551"/>
    <nd ref="60028465"/>
    <nd ref="633434265"/>
    <nd ref="60028466"/>
    <nd ref="32059780"/>
    <tag k="highway" v="trunk"/>
    <tag k="lanes" v="3"/>
    <tag k="oneway" v="yes"/>
  </way>
  <way id="8031416" version="7" timestamp="2010-06-30T09:00:32Z" uid="299678" user="peteramjet" changeset="5111867">
    <nd ref="256174027"/>
    <nd ref="60028461"/>
    <nd ref="585320304"/>
    <nd ref="585320541"/>
    <nd ref="60028551"/>
    <nd ref="60028465"/>
    <nd ref="633434265"/>
    <nd ref="60028466"/>
    <nd ref="32059780"/>
    <tag k="highway" v="trunk"/>
    <tag k="lanes" v="3"/>
    <tag k="name" v="Joseph Street"/>
    <tag k="oneway" v="yes"/>
    <tag k="ref" v="MR6"/>
  </way>
  <way id="8031416" version="8" timestamp="2010-07-08T12:26:41Z" uid="299678" user="peteramjet" changeset="5165746">
    <nd ref="256174027"/>
    <nd ref="60028461"/>
    <nd ref="585320304"/>
    <nd ref="585320541"/>
    <nd ref="60028551"/>
    <nd ref="60028465"/>
    <nd ref="633434265"/>
    <nd ref="60028466"/>
    <nd ref="32059780"/>
    <tag k="highway" v="trunk"/>
    <tag k="lanes" v="3"/>
    <tag k="name" v="Joseph Street"/>
    <tag k="oneway" v="yes"/>
  </way>
  <way id="8031416" version="9" timestamp="2011-04-09T12:17:19Z" uid="7617" user="Franc" changeset="7812721">
    <nd ref="256174027"/>
    <nd ref="585320304"/>
    <nd ref="585320541"/>
    <nd ref="60028551"/>
    <nd ref="60028465"/>
    <nd ref="1238502878"/>
    <nd ref="633434265"/>
    <nd ref="1238502900"/>
    <nd ref="60028466"/>
    <nd ref="32059780"/>
    <tag k="highway" v="trunk"/>
    <tag k="lanes" v="3"/>
    <tag k="name" v="Joseph Street"/>
    <tag k="oneway" v="yes"/>
  </way>
  <way id="8031416" version="10" timestamp="2012-02-02T01:25:57Z" uid="54784" user="Tom Hollander" changeset="10564041">
    <nd ref="256174027"/>
    <nd ref="585320304"/>
    <nd ref="585320541"/>
    <nd ref="60028551"/>
    <nd ref="60028465"/>
    <nd ref="1238502878"/>
    <nd ref="633434265"/>
    <nd ref="1238502900"/>
    <nd ref="60028466"/>
    <nd ref="32059780"/>
    <tag k="highway" v="trunk"/>
    <tag k="lanes" v="3"/>
    <tag k="name" v="Joseph Street"/>
    <tag k="oneway" v="yes"/>
    <tag k="ref" v="MR6"/>
  </way>
  <way id="8031416" version="11" timestamp="2012-03-12T05:21:04Z" uid="7523" user="inas" changeset="10950679">
    <nd ref="256174027"/>
    <nd ref="585320304"/>
    <nd ref="585320541"/>
    <nd ref="60028551"/>
    <nd ref="60028465"/>
    <nd ref="1238502878"/>
    <nd ref="633434265"/>
    <nd ref="60028466"/>
    <nd ref="32059780"/>
    <tag k="highway" v="trunk"/>
    <tag k="lanes" v="3"/>
    <tag k="name" v="Joseph Street"/>
    <tag k="oneway" v="yes"/>
    <tag k="ref" v="MR6"/>
  </way>
  <way id="8031417" version="3" timestamp="2009-12-10T20:39:04Z" uid="7617" user="Franc" changeset="3344824">
    <nd ref="60028206"/>
    <nd ref="26399244"/>
    <nd ref="44455286"/>
    <nd ref="44455431"/>
    <nd ref="26399247"/>
    <nd ref="585320544"/>
    <nd ref="585320302"/>
    <nd ref="256174026"/>
    <tag k="highway" v="trunk"/>
    <tag k="oneway" v="yes"/>
    <tag k="ref" v="MR6"/>
  </way>
  <way id="8031417" version="4" timestamp="2010-02-08T16:58:43Z" uid="33377" user="Victor LP" changeset="3824968">
    <nd ref="60028206"/>
    <nd ref="26399244"/>
    <nd ref="44455286"/>
    <nd ref="44455431"/>
    <nd ref="26399247"/>
    <nd ref="585320544"/>
    <nd ref="585320302"/>
    <nd ref="256174026"/>
    <tag k="highway" v="trunk"/>
    <tag k="lanes" v="3"/>
    <tag k="oneway" v="yes"/>
    <tag k="ref" v="MR6"/>
  </way>
  <way id="8031417" version="5" timestamp="2010-04-01T06:28:37Z" uid="74617" user="JohnSmith" changeset="4291360">
    <nd ref="60028206"/>
    <nd ref="26399244"/>
    <nd ref="44455286"/>
    <nd ref="44455431"/>
    <nd ref="26399247"/>
    <nd ref="585320544"/>
    <nd ref="585320302"/>
    <nd ref="256174026"/>
    <tag k="highway" v="trunk"/>
    <tag k="lanes" v="3"/>
    <tag k="oneway" v="yes"/>
  </way>
  <way id="8031417" version="6" timestamp="2010-06-30T09:00:33Z" uid="299678" user="peteramjet" changeset="5111867">
    <nd ref="60028206"/>
    <nd ref="26399244"/>
    <nd ref="44455286"/>
    <nd ref="44455431"/>
    <nd ref="26399247"/>
    <nd ref="585320544"/>
    <nd ref="585320302"/>
    <nd ref="256174026"/>
    <tag k="highway" v="trunk"/>
    <tag k="lanes" v="3"/>
    <tag k="name" v="Joseph Street"/>
    <tag k="oneway" v="yes"/>
    <tag k="ref" v="MR6"/>
  </way>
  <way id="8031417" version="7" timestamp="2010-07-08T12:26:41Z" uid="299678" user="peteramjet" changeset="5165746">
    <nd ref="60028206"/>
    <nd ref="26399244"/>
    <nd ref="44455286"/>
    <nd ref="44455431"/>
    <nd ref="26399247"/>
    <nd ref="585320544"/>
    <nd ref="585320302"/>
    <nd ref="256174026"/>
    <tag k="highway" v="trunk"/>
    <tag k="lanes" v="3"/>
    <tag k="name" v="Joseph Street"/>
    <tag k="oneway" v="yes"/>
  </way>
  <way id="8031417" version="8" timestamp="2011-04-09T12:17:31Z" uid="7617" user="Franc" changeset="7812721">
    <nd ref="60028206"/>
    <nd ref="1238502891"/>
    <nd ref="1238502859"/>
    <nd ref="1238502924"/>
    <nd ref="1238502827"/>
    <nd ref="26399244"/>
    <nd ref="44455286"/>
    <nd ref="44455431"/>
    <nd ref="26399247"/>
    <nd ref="585320544"/>
    <nd ref="585320302"/>
    <nd ref="256174026"/>
    <tag k="highway" v="trunk"/>
    <tag k="lanes" v="3"/>
    <tag k="name" v="Joseph Street"/>
    <tag k="oneway" v="yes"/>
  </way>
  <way id="8031417" version="9" timestamp="2012-02-02T01:25:58Z" uid="54784" user="Tom Hollander" changeset="10564041">
    <nd ref="60028206"/>
    <nd ref="1238502891"/>
    <nd ref="1238502859"/>
    <nd ref="1238502924"/>
    <nd ref="1238502827"/>
    <nd ref="26399244"/>
    <nd ref="44455286"/>
    <nd ref="44455431"/>
    <nd ref="26399247"/>
    <nd ref="585320544"/>
    <nd ref="585320302"/>
    <nd ref="256174026"/>
    <tag k="highway" v="trunk"/>
    <tag k="lanes" v="3"/>
    <tag k="name" v="Joseph Street"/>
    <tag k="oneway" v="yes"/>
    <tag k="ref" v="MR6"/>
  </way>
  <way id="8031417" version="10" timestamp="2012-03-12T05:21:03Z" uid="7523" user="inas" changeset="10950679">
    <nd ref="60028206"/>
    <nd ref="26399244"/>
    <nd ref="44455286"/>
    <nd ref="44455431"/>
    <nd ref="26399247"/>
    <nd ref="585320544"/>
    <nd ref="585320302"/>
    <nd ref="256174026"/>
    <tag k="highway" v="trunk"/>
    <tag k="lanes" v="3"/>
    <tag k="name" v="Joseph Street"/>
    <tag k="oneway" v="yes"/>
    <tag k="ref" v="MR6"/>
  </way>
  <way id="8031417" version="11" timestamp="2012-03-13T02:00:18Z" uid="7523" user="inas" changeset="10962513">
    <nd ref="60028206"/>
    <nd ref="26399244"/>
    <nd ref="44455286"/>
    <nd ref="44455431"/>
    <nd ref="26399247"/>
    <nd ref="585320544"/>
    <nd ref="585320302"/>
    <nd ref="256174026"/>
    <tag k="highway" v="trunk"/>
    <tag k="lanes" v="3"/>
    <tag k="name" v="Joseph Street"/>
    <tag k="network" v="MR"/>
    <tag k="oneway" v="yes"/>
    <tag k="ref" v="6"/>
  </way>
  <way id="8031617" version="3" timestamp="2010-06-11T07:43:02Z" uid="4467" user="Rosscoe" changeset="4960309">
    <nd ref="60029297"/>
    <nd ref="60029298"/>
    <nd ref="60029299"/>
    <nd ref="769059165"/>
    <nd ref="60029300"/>
    <nd ref="769059167"/>
    <nd ref="769059172"/>
    <nd ref="60029301"/>
    <nd ref="60029302"/>
    <nd ref="60029296"/>
    <nd ref="60029297"/>
    <tag k="leisure" v="park"/>
    <tag k="name" v="The Esplanade"/>
  </way>
  <way id="8031617" version="4" timestamp="2011-12-07T23:54:15Z" uid="36235" user="Sam Wilson" changeset="10062026">
    <nd ref="60029297"/>
    <nd ref="60029298"/>
    <nd ref="60029299"/>
    <nd ref="769059165"/>
    <nd ref="60029300"/>
    <nd ref="769059167"/>
    <nd ref="769059172"/>
    <nd ref="60029301"/>
    <nd ref="1535956807"/>
    <nd ref="1535956818"/>
    <nd ref="60029302"/>
    <nd ref="60029296"/>
    <nd ref="60029297"/>
    <tag k="leisure" v="park"/>
    <tag k="name" v="The Esplanade"/>
  </way>
  <way id="8031742" version="7" timestamp="2008-11-26T02:02:12Z" uid="6975" user="ulfl" changeset="794829">
    <nd ref="34957712"/>
    <nd ref="60012782"/>
    <nd ref="60012783"/>
    <nd ref="60012784"/>
    <nd ref="60012785"/>
    <nd ref="60012786"/>
    <nd ref="60012787"/>
    <nd ref="60012788"/>
    <nd ref="60012789"/>
    <nd ref="60012790"/>
    <nd ref="256021216"/>
    <tag k="highway" v="secondary"/>
    <tag k="name" v="Route de Saint-Cergue"/>
    <tag k="nat_ref" v="121"/>
    <tag k="rcrc_ref" v="2b"/>
  </way>
  <way id="8031742" version="8" timestamp="2008-12-15T23:37:06Z" uid="74847" user="Marc Mongenet" changeset="411615">
    <nd ref="34957712"/>
    <nd ref="60012782"/>
    <nd ref="60012783"/>
    <nd ref="60012784"/>
    <nd ref="60012785"/>
    <nd ref="60012786"/>
    <nd ref="60012787"/>
    <nd ref="60012788"/>
    <nd ref="60012789"/>
    <nd ref="60012790"/>
    <tag k="highway" v="secondary"/>
    <tag k="name" v="Route de Saint-Cergue"/>
    <tag k="nat_ref" v="121"/>
    <tag k="rcrc_ref" v="2b"/>
  </way>
  <way id="8031742" version="9" timestamp="2009-03-22T20:54:24Z" uid="74847" user="Marc Mongenet" changeset="845898">
    <nd ref="34957712"/>
    <nd ref="60012782"/>
    <nd ref="60012783"/>
    <nd ref="364813057"/>
    <nd ref="60012784"/>
    <nd ref="60012785"/>
    <nd ref="364813052"/>
    <nd ref="60012786"/>
    <nd ref="364813047"/>
    <nd ref="60012787"/>
    <nd ref="60012788"/>
    <nd ref="364813045"/>
    <nd ref="364813043"/>
    <nd ref="60012789"/>
    <nd ref="60012790"/>
    <tag k="highway" v="secondary"/>
    <tag k="name" v="Route de Saint-Cergue"/>
    <tag k="nat_ref" v="121"/>
    <tag k="rcrc_ref" v="2b"/>
  </way>
  <way id="8031742" version="10" timestamp="2009-09-28T13:28:10Z" uid="178986" user="refbotCH" changeset="2664658">
    <nd ref="34957712"/>
    <nd ref="60012782"/>
    <nd ref="60012783"/>
    <nd ref="364813057"/>
    <nd ref="60012784"/>
    <nd ref="60012785"/>
    <nd ref="364813052"/>
    <nd ref="60012786"/>
    <nd ref="364813047"/>
    <nd ref="60012787"/>
    <nd ref="60012788"/>
    <nd ref="364813045"/>
    <nd ref="364813043"/>
    <nd ref="60012789"/>
    <nd ref="60012790"/>
    <tag k="highway" v="secondary"/>
    <tag k="name" v="Route de Saint-Cergue"/>
    <tag k="rcrc_ref" v="2b"/>
    <tag k="ref" v="121"/>
  </way>
  <way id="8031742" version="11" timestamp="2011-03-05T00:51:56Z" uid="74847" user="Marc Mongenet" changeset="7459529">
    <nd ref="34957712"/>
    <nd ref="60012782"/>
    <nd ref="60012783"/>
    <nd ref="1186696041"/>
    <nd ref="364813057"/>
    <nd ref="60012784"/>
    <nd ref="60012785"/>
    <nd ref="1186695987"/>
    <nd ref="364813052"/>
    <nd ref="60012786"/>
    <nd ref="1186696068"/>
    <nd ref="364813047"/>
    <nd ref="60012787"/>
    <nd ref="1186696021"/>
    <nd ref="1186695966"/>
    <nd ref="60012788"/>
    <nd ref="364813045"/>
    <nd ref="1186695878"/>
    <nd ref="364813043"/>
    <nd ref="1186696048"/>
    <nd ref="60012789"/>
    <nd ref="1186696003"/>
    <nd ref="60012790"/>
    <tag k="highway" v="secondary"/>
    <tag k="name" v="Route de Saint-Cergue"/>
    <tag k="rcrc_ref" v="2b"/>
    <tag k="ref" v="121"/>
  </way>
  <way id="8031742" version="12" timestamp="2011-03-05T00:54:20Z" uid="74847" user="Marc Mongenet" changeset="7459534">
    <nd ref="34957712"/>
    <nd ref="60012782"/>
    <nd ref="60012783"/>
    <nd ref="1186696041"/>
    <nd ref="364813057"/>
    <nd ref="60012784"/>
    <nd ref="60012785"/>
    <nd ref="1186695987"/>
    <nd ref="364813052"/>
    <nd ref="60012786"/>
    <nd ref="1186696068"/>
    <nd ref="364813047"/>
    <nd ref="60012787"/>
    <nd ref="1186696021"/>
    <nd ref="1186695966"/>
    <nd ref="60012788"/>
    <nd ref="364813045"/>
    <nd ref="1186695878"/>
    <nd ref="364813043"/>
    <nd ref="1186696048"/>
    <nd ref="60012789"/>
    <nd ref="1186696003"/>
    <nd ref="60012790"/>
    <tag k="highway" v="secondary"/>
    <tag k="name" v="Route de Saint-Cergue"/>
    <tag k="rcrc_ref" v="2b"/>
    <tag k="ref" v="121"/>
    <tag k="source" v="Orthophotos du SITG (Système d&apos;Information du Territoire Genevois)"/>
  </way>
  <way id="8031742" version="13" timestamp="2011-03-05T01:15:22Z" uid="74847" user="Marc Mongenet" changeset="7459586">
    <nd ref="34957712"/>
    <nd ref="60012782"/>
    <nd ref="60012783"/>
    <nd ref="1186696041"/>
    <nd ref="364813057"/>
    <nd ref="60012784"/>
    <nd ref="60012785"/>
    <nd ref="1186695987"/>
    <nd ref="364813052"/>
    <nd ref="1186709096"/>
    <nd ref="60012786"/>
    <nd ref="1186696068"/>
    <nd ref="364813047"/>
    <nd ref="60012787"/>
    <nd ref="1186696021"/>
    <nd ref="1186695966"/>
    <nd ref="60012788"/>
    <nd ref="364813045"/>
    <nd ref="1186695878"/>
    <nd ref="364813043"/>
    <nd ref="1186696048"/>
    <nd ref="60012789"/>
    <nd ref="1186696003"/>
    <nd ref="60012790"/>
    <tag k="highway" v="secondary"/>
    <tag k="name" v="Route de Saint-Cergue"/>
    <tag k="rcrc_ref" v="2b"/>
    <tag k="ref" v="121"/>
    <tag k="source" v="Orthophotos du SITG (Système d&apos;Information du Territoire Genevois)"/>
  </way>
  <way id="8031742" version="14" timestamp="2012-01-09T00:38:53Z" uid="178186" user="mdk" changeset="10338312"/>
  <way id="8031743" version="5" timestamp="2008-11-26T02:02:18Z" uid="6975" user="ulfl" changeset="794829">
    <nd ref="34957704"/>
    <nd ref="34957705"/>
    <nd ref="34957706"/>
    <nd ref="34957707"/>
    <nd ref="34957708"/>
    <nd ref="34957709"/>
    <nd ref="34957710"/>
    <nd ref="34957711"/>
    <nd ref="34957712"/>
    <tag k="highway" v="secondary"/>
    <tag k="name" v="Rue du Village"/>
    <tag k="nat_ref" v="121"/>
    <tag k="rcrc_ref" v="2b"/>
  </way>
  <way id="8031743" version="6" timestamp="2008-12-15T23:37:07Z" uid="74847" user="Marc Mongenet" changeset="411615">
    <nd ref="34957704"/>
    <nd ref="34957707"/>
    <nd ref="34957708"/>
    <nd ref="34957709"/>
    <nd ref="34957710"/>
    <nd ref="34957711"/>
    <nd ref="34957712"/>
    <tag k="highway" v="secondary"/>
    <tag k="name" v="Rue du Village"/>
    <tag k="nat_ref" v="121"/>
    <tag k="rcrc_ref" v="2b"/>
  </way>
  <way id="8031743" version="7" timestamp="2009-03-22T20:54:23Z" uid="74847" user="Marc Mongenet" changeset="845898">
    <nd ref="34957704"/>
    <nd ref="364813068"/>
    <nd ref="34957707"/>
    <nd ref="364813064"/>
    <nd ref="34957708"/>
    <nd ref="364813062"/>
    <nd ref="34957709"/>
    <nd ref="34957710"/>
    <nd ref="34957711"/>
    <nd ref="364813059"/>
    <nd ref="34957712"/>
    <tag k="highway" v="secondary"/>
    <tag k="name" v="Rue du Village"/>
    <tag k="nat_ref" v="121"/>
    <tag k="rcrc_ref" v="2b"/>
  </way>
  <way id="8031743" version="8" timestamp="2009-09-28T13:28:11Z" uid="178986" user="refbotCH" changeset="2664658">
    <nd ref="34957704"/>
    <nd ref="364813068"/>
    <nd ref="34957707"/>
    <nd ref="364813064"/>
    <nd ref="34957708"/>
    <nd ref="364813062"/>
    <nd ref="34957709"/>
    <nd ref="34957710"/>
    <nd ref="34957711"/>
    <nd ref="364813059"/>
    <nd ref="34957712"/>
    <tag k="highway" v="secondary"/>
    <tag k="name" v="Rue du Village"/>
    <tag k="rcrc_ref" v="2b"/>
    <tag k="ref" v="121"/>
  </way>
  <way id="8031743" version="9" timestamp="2011-03-05T00:51:53Z" uid="74847" user="Marc Mongenet" changeset="7459529">
    <nd ref="34957704"/>
    <nd ref="1186695982"/>
    <nd ref="1186696056"/>
    <nd ref="34957707"/>
    <nd ref="1186695938"/>
    <nd ref="1186695896"/>
    <nd ref="364813064"/>
    <nd ref="34957708"/>
    <nd ref="364813062"/>
    <nd ref="34957709"/>
    <nd ref="34957710"/>
    <nd ref="1186696066"/>
    <nd ref="1186696043"/>
    <nd ref="1186695874"/>
    <nd ref="1186696063"/>
    <nd ref="1186696001"/>
    <nd ref="34957711"/>
    <nd ref="364813059"/>
    <nd ref="1186695988"/>
    <nd ref="1186695933"/>
    <nd ref="34957712"/>
    <tag k="highway" v="secondary"/>
    <tag k="name" v="Rue du Village"/>
    <tag k="rcrc_ref" v="2b"/>
    <tag k="ref" v="121"/>
  </way>
  <way id="8031743" version="10" timestamp="2011-03-05T00:54:18Z" uid="74847" user="Marc Mongenet" changeset="7459534">
    <nd ref="34957704"/>
    <nd ref="1186695982"/>
    <nd ref="1186696056"/>
    <nd ref="34957707"/>
    <nd ref="1186695938"/>
    <nd ref="1186695896"/>
    <nd ref="364813064"/>
    <nd ref="34957708"/>
    <nd ref="364813062"/>
    <nd ref="34957709"/>
    <nd ref="34957710"/>
    <nd ref="1186696066"/>
    <nd ref="1186696043"/>
    <nd ref="1186695874"/>
    <nd ref="1186696063"/>
    <nd ref="1186696001"/>
    <nd ref="34957711"/>
    <nd ref="364813059"/>
    <nd ref="1186695988"/>
    <nd ref="1186695933"/>
    <nd ref="34957712"/>
    <tag k="highway" v="secondary"/>
    <tag k="name" v="Rue du Village"/>
    <tag k="rcrc_ref" v="2b"/>
    <tag k="ref" v="121"/>
    <tag k="source" v="Orthophotos du SITG (Système d&apos;Information du Territoire Genevois)"/>
  </way>
  <way id="8031743" version="11" timestamp="2011-03-05T01:15:22Z" uid="74847" user="Marc Mongenet" changeset="7459586">
    <nd ref="34957704"/>
    <nd ref="1186695982"/>
    <nd ref="1186696056"/>
    <nd ref="1186709168"/>
    <nd ref="34957707"/>
    <nd ref="1186695938"/>
    <nd ref="1186695896"/>
    <nd ref="364813064"/>
    <nd ref="34957708"/>
    <nd ref="364813062"/>
    <nd ref="1186709131"/>
    <nd ref="34957709"/>
    <nd ref="34957710"/>
    <nd ref="1186696066"/>
    <nd ref="1186696043"/>
    <nd ref="1186695874"/>
    <nd ref="1186709001"/>
    <nd ref="1186696063"/>
    <nd ref="1186696001"/>
    <nd ref="34957711"/>
    <nd ref="364813059"/>
    <nd ref="1186695988"/>
    <nd ref="1186695933"/>
    <nd ref="34957712"/>
    <tag k="highway" v="secondary"/>
    <tag k="name" v="Rue du Village"/>
    <tag k="rcrc_ref" v="2b"/>
    <tag k="ref" v="121"/>
    <tag k="source" v="Orthophotos du SITG (Système d&apos;Information du Territoire Genevois)"/>
  </way>
  <way id="8031743" version="12" timestamp="2011-09-12T00:45:21Z" uid="74847" user="Marc Mongenet" changeset="9276462">
    <nd ref="34957704"/>
    <nd ref="1186695982"/>
    <nd ref="1186696056"/>
    <nd ref="1186709168"/>
    <nd ref="34957707"/>
    <nd ref="1186695938"/>
    <nd ref="1186695896"/>
    <nd ref="364813064"/>
    <nd ref="34957708"/>
    <nd ref="1430624413"/>
    <nd ref="364813062"/>
    <nd ref="1186709131"/>
    <nd ref="34957709"/>
    <nd ref="34957710"/>
    <nd ref="1186696066"/>
    <nd ref="1186696043"/>
    <nd ref="1186695874"/>
    <nd ref="1186709001"/>
    <nd ref="1186696063"/>
    <nd ref="1186696001"/>
    <nd ref="34957711"/>
    <nd ref="364813059"/>
    <nd ref="1186695988"/>
    <nd ref="1430624580"/>
    <nd ref="1186695933"/>
    <nd ref="34957712"/>
    <tag k="highway" v="secondary"/>
    <tag k="name" v="Rue du Village"/>
    <tag k="rcrc_ref" v="2b"/>
    <tag k="ref" v="121"/>
    <tag k="source" v="Orthophotos du SITG (Système d&apos;Information du Territoire Genevois)"/>
  </way>
  <way id="8031743" version="13" timestamp="2012-01-09T00:38:53Z" uid="178186" user="mdk" changeset="10338312"/>
  <way id="8031771" version="1" timestamp="2007-09-28T15:57:18Z" uid="6454" user="B10xxx" changeset="529192">
    <nd ref="60030051"/>
    <nd ref="60030057"/>
    <nd ref="60030080"/>
    <nd ref="60030074"/>
    <nd ref="60030069"/>
    <nd ref="60030095"/>
    <nd ref="60030060"/>
    <nd ref="60030033"/>
    <nd ref="60030039"/>
    <nd ref="60030040"/>
    <nd ref="60030026"/>
    <nd ref="60030047"/>
    <nd ref="60030054"/>
    <nd ref="60030076"/>
    <nd ref="60030050"/>
    <nd ref="60030089"/>
    <nd ref="60030044"/>
    <nd ref="60030098"/>
    <nd ref="60030038"/>
    <nd ref="60030964"/>
    <nd ref="60030068"/>
    <nd ref="60030065"/>
    <nd ref="60030036"/>
    <tag k="created_by" v="JOSM"/>
    <tag k="waterway" v="canal"/>
    <tag k="width" v="1"/>
  </way>
  <way id="8031771" version="2" timestamp="2008-10-12T00:43:48Z" uid="17602" user="B10xyz" changeset="283023">
    <nd ref="60030051"/>
    <nd ref="60030057"/>
    <nd ref="60030080"/>
    <nd ref="60030074"/>
    <nd ref="60030069"/>
    <nd ref="60030095"/>
    <nd ref="60030060"/>
    <nd ref="60030033"/>
    <nd ref="60030039"/>
    <nd ref="60030040"/>
    <nd ref="60030026"/>
    <nd ref="60030047"/>
    <nd ref="60030054"/>
    <nd ref="60030076"/>
    <nd ref="60030050"/>
    <nd ref="60030089"/>
    <nd ref="60030044"/>
    <nd ref="60030098"/>
    <nd ref="303880750"/>
    <nd ref="60030038"/>
    <nd ref="60030964"/>
    <nd ref="60030068"/>
    <nd ref="60030065"/>
    <nd ref="60030036"/>
    <tag k="created_by" v="JOSM"/>
    <tag k="waterway" v="canal"/>
    <tag k="width" v="1"/>
  </way>
  <way id="8031771" version="3" timestamp="2009-02-24T14:58:10Z" uid="68457" user="fossy" changeset="650769">
    <nd ref="60030051"/>
    <nd ref="60030057"/>
    <nd ref="60030080"/>
    <nd ref="60030074"/>
    <nd ref="60030069"/>
    <nd ref="60030095"/>
    <nd ref="60030060"/>
    <nd ref="60030033"/>
    <nd ref="60030039"/>
    <nd ref="60030040"/>
    <nd ref="60030026"/>
    <nd ref="351426201"/>
    <nd ref="60030047"/>
    <nd ref="60030054"/>
    <nd ref="60030076"/>
    <nd ref="60030050"/>
    <nd ref="60030089"/>
    <nd ref="60030044"/>
    <nd ref="60030098"/>
    <nd ref="303880750"/>
    <nd ref="60030038"/>
    <nd ref="60030964"/>
    <nd ref="60030068"/>
    <nd ref="60030065"/>
    <nd ref="60030036"/>
    <tag k="created_by" v="JOSM"/>
    <tag k="waterway" v="canal"/>
    <tag k="width" v="1"/>
  </way>
  <way id="8031771" version="4" timestamp="2009-05-07T17:36:05Z" uid="46169" user="wolter" changeset="1109567">
    <nd ref="60030051"/>
    <nd ref="60030057"/>
    <nd ref="60030080"/>
    <nd ref="60030074"/>
    <nd ref="60030069"/>
    <nd ref="60030095"/>
    <nd ref="60030060"/>
    <nd ref="60030033"/>
    <nd ref="60030039"/>
    <nd ref="60030040"/>
    <nd ref="60030026"/>
    <nd ref="351426201"/>
    <nd ref="60030047"/>
    <nd ref="60030054"/>
    <nd ref="60030076"/>
    <nd ref="60030050"/>
    <nd ref="60030089"/>
    <nd ref="60030044"/>
    <nd ref="60030098"/>
    <nd ref="303880750"/>
    <nd ref="60030038"/>
    <nd ref="60030964"/>
    <nd ref="60030068"/>
    <nd ref="60030065"/>
    <nd ref="60030036"/>
    <tag k="created_by" v="JOSM"/>
    <tag k="layer" v="-1"/>
    <tag k="waterway" v="canal"/>
    <tag k="width" v="1"/>
  </way>
  <way id="8031771" version="5" timestamp="2012-01-26T18:32:43Z" uid="302852" user="be-ju" changeset="10505703"/>
  <way id="8031938" version="1" timestamp="2007-09-28T15:07:08Z" uid="13367" user="nubok" changeset="529678">
    <nd ref="60031804"/>
    <nd ref="60031805"/>
    <nd ref="60031806"/>
    <nd ref="60031807"/>
    <nd ref="60031808"/>
    <nd ref="60031809"/>
    <nd ref="60031810"/>
    <nd ref="60031811"/>
    <nd ref="60031812"/>
    <nd ref="60031813"/>
    <nd ref="60031814"/>
    <nd ref="29089206"/>
    <tag k="created_by" v="Potlatch alpha"/>
    <tag k="highway" v="unclassified"/>
  </way>
  <way id="8031938" version="2" timestamp="2007-12-09T21:47:52Z" uid="13367" user="nubok" changeset="221297">
    <nd ref="60031804"/>
    <nd ref="60031805"/>
    <nd ref="60031806"/>
    <nd ref="60031807"/>
    <nd ref="60031808"/>
    <nd ref="60031809"/>
    <nd ref="60031810"/>
    <nd ref="60031811"/>
    <nd ref="60031812"/>
    <nd ref="60031813"/>
    <nd ref="60031814"/>
    <nd ref="158809298"/>
    <nd ref="29089206"/>
    <tag k="created_by" v="Potlatch 0.5d"/>
    <tag k="highway" v="unclassified"/>
  </way>
  <way id="8031938" version="3" timestamp="2008-02-03T22:19:04Z" uid="26252" user="sdos77" changeset="36386">
    <nd ref="60031804"/>
    <nd ref="60031805"/>
    <nd ref="60031806"/>
    <nd ref="60031807"/>
    <nd ref="60031808"/>
    <nd ref="60031809"/>
    <nd ref="60031810"/>
    <nd ref="60031811"/>
    <nd ref="60031812"/>
    <nd ref="60031813"/>
    <nd ref="60031814"/>
    <nd ref="158809298"/>
    <nd ref="29089206"/>
    <tag k="created_by" v="Potlatch 0.7"/>
    <tag k="highway" v="primary"/>
  </way>
  <way id="8031938" version="4" timestamp="2008-02-08T20:34:53Z" uid="26252" user="sdos77" changeset="77216">
    <nd ref="60031804"/>
    <nd ref="60031805"/>
    <nd ref="60031806"/>
    <nd ref="60031807"/>
    <nd ref="60031808"/>
    <nd ref="60031809"/>
    <nd ref="60031810"/>
    <nd ref="60031811"/>
    <nd ref="60031812"/>
    <nd ref="60031813"/>
    <nd ref="60031814"/>
    <nd ref="158809298"/>
    <nd ref="29089206"/>
    <tag k="created_by" v="Potlatch 0.7"/>
    <tag k="highway" v="secondary"/>
  </way>
  <way id="8031938" version="5" timestamp="2008-02-09T22:58:32Z" uid="26252" user="sdos77" changeset="87341">
    <nd ref="60031804"/>
    <nd ref="60031805"/>
    <nd ref="60031806"/>
    <tag k="created_by" v="Potlatch 0.7"/>
    <tag k="highway" v="secondary"/>
  </way>
  <way id="8031938" version="6" timestamp="2008-02-09T22:58:42Z" uid="26252" user="sdos77" changeset="87341">
    <nd ref="60031804"/>
    <nd ref="60031805"/>
    <nd ref="60031806"/>
    <tag k="created_by" v="Potlatch 0.7"/>
    <tag k="highway" v="tertiary"/>
  </way>
  <way id="8031938" version="7" timestamp="2008-03-09T12:02:38Z" uid="26252" user="sdos77" changeset="291661">
    <nd ref="60031804"/>
    <nd ref="60031805"/>
    <nd ref="60031806"/>
    <tag k="created_by" v="Potlatch 0.7b"/>
    <tag k="highway" v="tertiary"/>
  </way>
  <way id="8031938" version="8" timestamp="2008-03-09T12:03:34Z" uid="26252" user="sdos77" changeset="291661">
    <nd ref="251311994"/>
    <nd ref="251311995"/>
    <nd ref="251311996"/>
    <nd ref="251311997"/>
    <nd ref="251311998"/>
    <nd ref="251311999"/>
    <nd ref="251312000"/>
    <nd ref="251312001"/>
    <nd ref="251312002"/>
    <nd ref="60031804"/>
    <nd ref="251312003"/>
    <nd ref="60031805"/>
    <nd ref="251312004"/>
    <nd ref="251312005"/>
    <nd ref="60031806"/>
    <tag k="created_by" v="Potlatch 0.7b"/>
    <tag k="highway" v="tertiary"/>
  </way>
  <way id="8031938" version="9" timestamp="2008-03-09T12:03:43Z" uid="26252" user="sdos77" changeset="291661">
    <nd ref="251311994"/>
    <nd ref="251311995"/>
    <nd ref="251311996"/>
    <nd ref="251311997"/>
    <nd ref="251311998"/>
    <nd ref="251311999"/>
    <nd ref="251312000"/>
    <nd ref="251312001"/>
    <nd ref="251312002"/>
    <nd ref="60031804"/>
    <nd ref="251312003"/>
    <nd ref="60031805"/>
    <nd ref="251312004"/>
    <nd ref="251312005"/>
    <nd ref="60031806"/>
    <tag k="created_by" v="Potlatch 0.7b"/>
    <tag k="highway" v="residential"/>
  </way>
  <way id="8031938" version="10" timestamp="2008-03-09T12:04:17Z" uid="26252" user="sdos77" changeset="291661">
    <nd ref="251311994"/>
    <nd ref="251311995"/>
    <nd ref="251311996"/>
    <nd ref="251311997"/>
    <nd ref="251311998"/>
    <nd ref="251311999"/>
    <nd ref="251312000"/>
    <nd ref="251312001"/>
    <nd ref="251312002"/>
    <nd ref="251312027"/>
    <nd ref="60031804"/>
    <nd ref="251312003"/>
    <nd ref="60031805"/>
    <nd ref="251312004"/>
    <nd ref="251312005"/>
    <nd ref="60031806"/>
    <tag k="created_by" v="Potlatch 0.7b"/>
    <tag k="highway" v="residential"/>
  </way>
  <way id="8031938" version="11" timestamp="2008-04-12T13:26:29Z" uid="26252" user="sdos77" changeset="119107">
    <nd ref="251311994"/>
    <nd ref="251311995"/>
    <nd ref="251311996"/>
    <nd ref="251311997"/>
    <nd ref="251311998"/>
    <nd ref="251311999"/>
    <nd ref="251312000"/>
    <nd ref="251312001"/>
    <nd ref="251312002"/>
    <nd ref="251312027"/>
    <nd ref="60031804"/>
    <nd ref="251312003"/>
    <nd ref="60031805"/>
    <nd ref="251312004"/>
    <nd ref="251312005"/>
    <tag k="created_by" v="Potlatch 0.8a"/>
    <tag k="highway" v="residential"/>
  </way>
  <way id="8031938" version="12" timestamp="2010-11-07T21:30:53Z" uid="61990" user="christianb" changeset="6316316">
    <nd ref="251311994"/>
    <nd ref="251311995"/>
    <nd ref="251311996"/>
    <nd ref="251311997"/>
    <nd ref="251311998"/>
    <nd ref="251311999"/>
    <nd ref="251312000"/>
    <nd ref="251312001"/>
    <nd ref="251312002"/>
    <nd ref="251312027"/>
    <nd ref="60031804"/>
    <nd ref="981653557"/>
    <tag k="highway" v="residential"/>
    <tag k="name" v="Mühlenstraße"/>
  </way>
  <way id="8031972" version="1" timestamp="2007-09-28T15:09:42Z" uid="13367" user="nubok" changeset="529678">
    <nd ref="60031822"/>
    <nd ref="60032000"/>
    <nd ref="60032001"/>
    <nd ref="60032002"/>
    <nd ref="60032003"/>
    <nd ref="60032004"/>
    <nd ref="60032005"/>
    <nd ref="60032006"/>
    <nd ref="60032007"/>
    <nd ref="60032009"/>
    <nd ref="60032010"/>
    <nd ref="60032011"/>
    <nd ref="60032012"/>
    <nd ref="60032013"/>
    <nd ref="60032014"/>
    <nd ref="60032015"/>
    <nd ref="60032016"/>
    <nd ref="60032017"/>
    <nd ref="60032018"/>
    <nd ref="60032019"/>
    <nd ref="60032020"/>
    <nd ref="60032021"/>
    <nd ref="60032022"/>
    <nd ref="60032023"/>
    <nd ref="60032024"/>
    <nd ref="60032025"/>
    <nd ref="60032026"/>
    <nd ref="60032027"/>
    <nd ref="60032028"/>
    <nd ref="60032029"/>
    <nd ref="60032030"/>
    <nd ref="60032032"/>
    <nd ref="60032033"/>
    <nd ref="60032034"/>
    <nd ref="60032035"/>
    <nd ref="60032036"/>
    <nd ref="60032037"/>
    <nd ref="60032038"/>
    <nd ref="60032039"/>
    <nd ref="60032040"/>
    <nd ref="60032041"/>
    <nd ref="60032042"/>
    <nd ref="60032043"/>
    <nd ref="60032044"/>
    <nd ref="60032045"/>
    <nd ref="60032046"/>
    <nd ref="60032047"/>
    <nd ref="60032048"/>
    <nd ref="60032049"/>
    <nd ref="60032050"/>
    <nd ref="60032051"/>
    <nd ref="60032052"/>
    <nd ref="60032053"/>
    <nd ref="60032054"/>
    <nd ref="60032055"/>
    <nd ref="60032056"/>
    <nd ref="60032057"/>
    <nd ref="60032058"/>
    <nd ref="60032059"/>
    <nd ref="60032060"/>
    <nd ref="60032062"/>
    <nd ref="60032063"/>
    <nd ref="60032064"/>
    <nd ref="60032065"/>
    <nd ref="60032066"/>
    <nd ref="60032067"/>
    <nd ref="60032068"/>
    <nd ref="60032069"/>
    <nd ref="60032070"/>
    <tag k="created_by" v="Potlatch alpha"/>
    <tag k="highway" v="unclassified"/>
  </way>
  <way id="8031972" version="2" timestamp="2007-12-12T22:03:49Z" uid="6454" user="B10xxx" changeset="276009">
    <nd ref="60031822"/>
    <nd ref="60032000"/>
    <nd ref="60032001"/>
    <nd ref="60032002"/>
    <nd ref="60032003"/>
    <nd ref="60032004"/>
    <nd ref="60032005"/>
    <nd ref="60032006"/>
    <nd ref="60032007"/>
    <nd ref="60032009"/>
    <nd ref="60032010"/>
    <nd ref="60032011"/>
    <nd ref="60032012"/>
    <nd ref="60032013"/>
    <nd ref="60032014"/>
    <nd ref="60032015"/>
    <nd ref="60032016"/>
    <nd ref="60032017"/>
    <nd ref="60032018"/>
    <nd ref="60032019"/>
    <nd ref="60032020"/>
    <nd ref="60032021"/>
    <nd ref="60032022"/>
    <nd ref="60032023"/>
    <nd ref="60032024"/>
    <tag k="created_by" v="Potlatch alpha"/>
    <tag k="highway" v="secondary"/>
  </way>
  <way id="8031972" version="3" timestamp="2008-03-30T15:24:00Z" uid="31587" user="Octoate" changeset="430568">
    <nd ref="60031822"/>
    <nd ref="254911600"/>
    <nd ref="60032000"/>
    <nd ref="60032001"/>
    <nd ref="60032002"/>
    <nd ref="60032003"/>
    <nd ref="60032004"/>
    <nd ref="60032005"/>
    <nd ref="60032006"/>
    <nd ref="60032007"/>
    <nd ref="60032009"/>
    <nd ref="60032010"/>
    <nd ref="60032011"/>
    <nd ref="60032012"/>
    <nd ref="60032013"/>
    <nd ref="60032014"/>
    <nd ref="60032015"/>
    <nd ref="60032016"/>
    <nd ref="60032017"/>
    <nd ref="60032018"/>
    <nd ref="60032019"/>
    <nd ref="60032020"/>
    <nd ref="60032021"/>
    <nd ref="60032022"/>
    <nd ref="60032023"/>
    <nd ref="60032024"/>
    <tag k="created_by" v="Potlatch alpha"/>
    <tag k="highway" v="secondary"/>
  </way>
  <way id="8031972" version="4" timestamp="2008-09-15T00:06:43Z" uid="45847" user="Waldgraf" changeset="643590">
    <nd ref="60031822"/>
    <nd ref="254911600"/>
    <nd ref="60032000"/>
    <nd ref="60032001"/>
    <nd ref="60032002"/>
    <nd ref="60032003"/>
    <nd ref="60032004"/>
    <nd ref="60032005"/>
    <nd ref="60032006"/>
    <nd ref="60032007"/>
    <nd ref="60032009"/>
    <nd ref="60032010"/>
    <nd ref="60032011"/>
    <nd ref="60032012"/>
    <nd ref="60032013"/>
    <nd ref="60032014"/>
    <nd ref="60032015"/>
    <nd ref="60032016"/>
    <nd ref="60032017"/>
    <nd ref="60032018"/>
    <nd ref="60032019"/>
    <nd ref="60032020"/>
    <nd ref="60032021"/>
    <nd ref="60032022"/>
    <nd ref="60032023"/>
    <nd ref="60032024"/>
    <tag k="created_by" v="Potlatch 0.10b"/>
    <tag k="highway" v="secondary"/>
    <tag k="ref" v="L 3155"/>
  </way>
  <way id="8031972" version="5" timestamp="2008-09-16T16:00:33Z" uid="45847" user="Waldgraf" changeset="647895">
    <nd ref="60031822"/>
    <nd ref="254911600"/>
    <nd ref="60032000"/>
    <tag k="created_by" v="Potlatch 0.10b"/>
    <tag k="highway" v="secondary"/>
    <tag k="ref" v="L 3155"/>
  </way>
  <way id="8031972" version="6" timestamp="2008-09-16T16:00:40Z" uid="45847" user="Waldgraf" changeset="647895">
    <nd ref="60031822"/>
    <nd ref="254911600"/>
    <tag k="created_by" v="Potlatch 0.10b"/>
    <tag k="highway" v="secondary"/>
    <tag k="ref" v="L 3155"/>
  </way>
  <way id="8031972" version="7" timestamp="2008-09-16T16:04:43Z" uid="45847" user="Waldgraf" changeset="647895"/>
  <way id="8031999" version="1" timestamp="2007-09-28T15:10:46Z" uid="13367" user="nubok" changeset="529678">
    <nd ref="29901960"/>
    <nd ref="60032145"/>
    <tag k="created_by" v="Potlatch alpha"/>
    <tag k="highway" v="residential"/>
  </way>
  <way id="8031999" version="2" timestamp="2009-05-16T10:30:23Z" uid="118498" user="metfink" changeset="1208464">
    <nd ref="29901960"/>
    <nd ref="60032145"/>
    <tag k="created_by" v="Potlatch alpha"/>
    <tag k="highway" v="residential"/>
    <tag k="name" v="Celtis Place"/>
  </way>
  <way id="8031999" version="3" timestamp="2010-03-26T07:51:56Z" uid="6513" user="Glen" changeset="4235359">
    <nd ref="29901960"/>
    <nd ref="674607369"/>
    <nd ref="60032145"/>
    <tag k="highway" v="residential"/>
    <tag k="name" v="Celtis Place"/>
  </way>
  <way id="8031999" version="4" timestamp="2010-07-09T03:37:33Z" uid="74617" user="JohnSmith" changeset="5170838">
    <nd ref="29901960"/>
    <nd ref="674607369"/>
    <nd ref="60032145"/>
    <tag k="highway" v="residential"/>
    <tag k="maxspeed" v="50"/>
    <tag k="maxspeed:source" v="default residential speed limit in Australia"/>
    <tag k="name" v="Celtis Place"/>
  </way>
  <way id="8031999" version="5" timestamp="2012-01-15T06:52:37Z" uid="147510" user="woodpeck_fixbot" changeset="10394821">
    <nd ref="29901960"/>
    <nd ref="674607369"/>
    <nd ref="60032145"/>
    <tag k="highway" v="residential"/>
    <tag k="name" v="Celtis Place"/>
  </way>
</osm>
