<?xml version='1.0' encoding='UTF-8'?>
<osm version="0.6" generator="libosmium/2.20.0">
  <way id="80497342" version="1" timestamp="2010-10-06T07:10:46Z" uid="49111" user="Markus B" changeset="5966590">
    <nd ref="937985196"/>
    <nd ref="939066096"/>
    <tag k="highway" v="path"/>
  </way>
  <way id="80497343" version="1" timestamp="2010-10-06T07:10:46Z" uid="49111" user="Markus B" changeset="5966590">
    <nd ref="939066098"/>
    <nd ref="939066097"/>
    <nd ref="939066091"/>
    <nd ref="939066094"/>
    <nd ref="939066098"/>
    <tag k="access" v="permissive"/>
    <tag k="name" v="Gefahrenzone 1"/>
  </way>
  <way id="80497343" version="2" timestamp="2010-10-06T08:52:13Z" uid="49111" user="Markus B" changeset="5967159">
    <nd ref="939066098"/>
    <nd ref="939066097"/>
    <nd ref="939066091"/>
    <nd ref="939066094"/>
    <nd ref="939066098"/>
    <tag k="access" v="permissive"/>
    <tag k="military" v="range"/>
    <tag k="name" v="Gefahrenzone 1"/>
  </way>
  <way id="80497343" version="3" timestamp="2010-11-22T19:07:14Z" uid="8296" user="kuede" changeset="6434071">
    <nd ref="939066098"/>
    <nd ref="939066097"/>
    <nd ref="939066091"/>
    <nd ref="939066094"/>
    <nd ref="939066098"/>
    <tag k="access" v="permissive"/>
    <tag k="military" v="range"/>
    <tag k="name" v="Gefahrenzone 1"/>
    <tag k="sport" v="shooting"/>
  </way>
  <way id="80497343" version="4" timestamp="2011-07-24T15:04:44Z" uid="17835" user="StÃ©phane Brunner" changeset="8817299">
    <nd ref="939066098"/>
    <nd ref="939066097"/>
    <nd ref="939066091"/>
    <nd ref="939066094"/>
    <nd ref="939066098"/>
    <tag k="access" v="permissive"/>
    <tag k="leisure" v="pitch"/>
    <tag k="military" v="range"/>
    <tag k="name" v="Gefahrenzone 1"/>
    <tag k="note" v="Schussbahn"/>
    <tag k="sport" v="shooting"/>
  </way>
  <way id="80497344" version="1" timestamp="2010-10-06T07:10:46Z" uid="49111" user="Markus B" changeset="5966590">
    <nd ref="939066094"/>
    <nd ref="939066098"/>
    <nd ref="939066100"/>
    <nd ref="939066094"/>
    <tag k="access" v="permissive"/>
    <tag k="name" v="Gefahrenzone 2"/>
  </way>
  <way id="80497344" version="2" timestamp="2010-10-06T08:52:13Z" uid="49111" user="Markus B" changeset="5967159">
    <nd ref="939066094"/>
    <nd ref="939066098"/>
    <nd ref="939066100"/>
    <nd ref="939066094"/>
    <tag k="access" v="permissive"/>
    <tag k="military" v="danger_area"/>
    <tag k="name" v="Gefahrenzone 2"/>
  </way>
  <way id="80497345" version="1" timestamp="2010-10-06T07:10:46Z" uid="49111" user="Markus B" changeset="5966590">
    <nd ref="939066091"/>
    <nd ref="939066097"/>
    <nd ref="939066095"/>
    <nd ref="939066091"/>
    <tag k="access" v="permissive"/>
    <tag k="name" v="Gefahrenzone 2"/>
  </way>
  <way id="80497345" version="2" timestamp="2010-10-06T07:38:04Z" uid="49111" user="Markus B" changeset="5966764">
    <nd ref="939066091"/>
    <nd ref="939066097"/>
    <nd ref="939066095"/>
    <nd ref="939066091"/>
    <tag k="access" v="permissive"/>
    <tag k="area" v="yes"/>
    <tag k="name" v="Gefahrenzone 2"/>
  </way>
  <way id="80497345" version="3" timestamp="2010-10-06T08:56:17Z" uid="49111" user="Markus B" changeset="5967181">
    <nd ref="939066091"/>
    <nd ref="939066097"/>
    <nd ref="939066095"/>
    <nd ref="939066091"/>
    <tag k="access" v="permissive"/>
    <tag k="area" v="yes"/>
    <tag k="military" v="range"/>
    <tag k="name" v="Gefahrenzone 2"/>
  </way>
  <way id="80497345" version="4" timestamp="2010-10-06T09:00:32Z" uid="49111" user="Markus B" changeset="5967210">
    <nd ref="939066091"/>
    <nd ref="939066097"/>
    <nd ref="939066095"/>
    <nd ref="939066091"/>
    <tag k="access" v="permissive"/>
    <tag k="area" v="yes"/>
    <tag k="military" v="danger_area"/>
    <tag k="name" v="Gefahrenzone 2"/>
  </way>
  <way id="80497345" version="5" timestamp="2010-10-06T09:03:41Z" uid="49111" user="Markus B" changeset="5967231">
    <nd ref="939066091"/>
    <nd ref="939066097"/>
    <nd ref="939066095"/>
    <nd ref="939066091"/>
    <tag k="access" v="permissive"/>
    <tag k="military" v="danger_area"/>
    <tag k="name" v="Gefahrenzone 2"/>
  </way>
  <way id="80497345" version="6" timestamp="2010-10-06T09:08:57Z" uid="49111" user="Markus B" changeset="5967268">
    <nd ref="939066091"/>
    <nd ref="939066097"/>
    <nd ref="939066095"/>
    <nd ref="939066091"/>
    <tag k="access" v="permissive"/>
    <tag k="layer" v="-1"/>
    <tag k="military" v="danger_area"/>
    <tag k="name" v="Gefahrenzone 2"/>
  </way>
</osm>
